{"448224687":{"location":[36.9592692,-104.3867231],"ct":"US","tp":"CS","ts":"2024-09-11T01:45:50Z","tX":215,"tY":398,"tags":{"addr:city":"Raton","addr:housenumber":"309","addr:state":"NM","addr:street":"NM 526","name":"Lake Alice Campground","operator":"Sugarite Canyon State Park"}},"448224688":{"location":[36.9716218,-104.3941035],"ct":"US","tp":"CS","ts":"2024-06-03T01:22:06Z","tX":215,"tY":398,"tags":{"name":"Soda Pocket Campground","operator":"Sugarite Canyon State Park"}},"1290045140":{"location":[36.9587696,-104.3859504],"ct":"US","tp":"CS","ts":"2024-06-06T15:32:29Z","tX":215,"tY":398,"tags":{"name":"Overflow Camping"}},"1314750831":{"location":[36.9563488,-104.387412],"ct":"US","tp":"CS","ts":"2024-09-11T01:45:50Z","tX":215,"tY":398,"tags":{"addr:city":"Raton","addr:housenumber":"219","addr:state":"NM","addr:street":"NM 526","group_only":"yes","name":"Valve Tenders"}},"1314750848":{"location":[36.9754525,-104.3941047],"ct":"US","tp":"CS","ts":"2024-09-11T01:45:50Z","tX":215,"tY":398,"tags":{"group_only":"yes","name":"Gambel Oak"}},"1314750849":{"location":[36.971435,-104.3876513],"ct":"US","tp":"CS","ts":"2024-09-11T01:45:50Z","tX":215,"tY":398,"tags":{"group_only":"yes","name":"Horse Corrals"}}}