{"192380679":{"location":[32.4155506,-104.2231012],"ct":"US","tp":"CS","ts":"2019-11-21T04:00:32Z","tX":215,"tY":414,"tags":{"name":"Dowling Aquatic Base","nudism":"no","operator":"Boy Scouts of America","phone":"+1 575 622 3461","reservation":"yes","tents":"yes","website":"https://www.conquistador-bsa.net/dowling-aquatic-base"}},"264633504":{"location":[32.3687838,-104.2352899],"ct":"US","tp":"CR","ts":"2025-05-16T06:41:23Z","tX":215,"tY":414,"tags":{"addr:city":"Carlsbad","addr:housenumber":"4301","addr:postcode":"88220","addr:state":"NM","addr:street":"National Parks Highway","area":"yes","name":"Carlsbad RV Park and Campground","phone":"+1-575-885-6333","website":"https://www.carlsbadrvpark.com/"}},"694133828":{"location":[32.3989146,-104.2316742],"ct":"US","tp":"CR","ts":"2025-04-20T23:51:05Z","tX":215,"tY":414,"tags":{"addr:city":"Carlsbad","addr:housenumber":"2021","addr:postcode":"88220","addr:state":"NM","addr:street":"San Jose Boulevard","landuse":"residential","name":"Horseshoe Creek RV Park","phone":"+1-575-361-0976","website":"https://www.horseshoecreekrvpark.com/"}},"1078854749":{"location":[32.3662266,-104.2413053],"ct":"US","tp":"CR","ts":"2025-04-20T23:19:19Z","tX":215,"tY":414,"tags":{"addr:city":"Carlsbad","addr:housenumber":"4219","addr:postcode":"88220","addr:state":"NM","addr:street":"West Boyd Street","name":"Sun West RV Park","phone":"+1-575-885-1900","website":"https://clearskiesrvparks.com/location/sun-west"}},"1078854756":{"location":[32.3688107,-104.2452587],"ct":"US","tp":"CR","ts":"2025-04-20T23:19:19Z","tX":215,"tY":414,"tags":{"addr:city":"Carlsbad","addr:housenumber":"4110","addr:postcode":"88220","addr:state":"NM","addr:street":"Mescalero Street","name":"Coyote Flats RV Park","phone":"+1-575-725-4900","website":"https://www.coyoteflatsrvpark.com/"}},"1078855368":{"location":[32.3786036,-104.2255866],"ct":"US","tp":"CS","ts":"2025-05-16T05:49:05Z","tX":215,"tY":414,"tags":{"name":"Windmill RV Park"}},"1078855893":{"location":[32.3896951,-104.233483],"ct":"US","tp":"CR","ts":"2022-07-15T16:04:59Z","tX":215,"tY":414,"tags":{}},"1078855894":{"location":[32.391255,-104.2363333],"ct":"US","tp":"CR","ts":"2022-07-15T16:04:59Z","tX":215,"tY":414,"tags":{}},"1078859715":{"location":[32.4118559,-104.2539032],"ct":"US","tp":"CR","ts":"2025-04-20T23:19:19Z","tX":215,"tY":414,"tags":{"addr:city":"Carlsbad","addr:housenumber":"900","addr:postcode":"88220","addr:state":"NM","addr:street":"Standpipe Road","name":"Bud's Place RV Park","phone":"+1-575-988-2561","website":"https://clearskiesrvparks.com/location/buds-place"}},"1078859716":{"location":[32.4264135,-104.2844135],"ct":"US","tp":"CR","ts":"2022-07-15T16:28:23Z","tX":215,"tY":414,"tags":{}},"1172328811":{"location":[32.2809815,-104.0915349],"ct":"US","tp":"CR","ts":"2025-03-29T16:51:38Z","tX":215,"tY":414,"tags":{"addr:city":"Loving","addr:postcode":"88256","addr:state":"NM","addr:street":"Cottonwood Street","name":"Onsurez RV","phone":"+1-575-302-0622"}},"1172328813":{"location":[32.2894013,-104.1078898],"ct":"US","tp":"CR","ts":"2025-04-02T05:12:31Z","tX":215,"tY":414,"tags":{"addr:city":"Loving","addr:housenumber":"910","addr:postcode":"88256","addr:state":"NM","addr:street":"West Willow Road","name":"Longhorn Flats Hotel & RV Park","phone":"+1-575-414-0970","website":"https://www.longhornflatshotel.com/"}},"1172328816":{"location":[32.2864262,-104.1025364],"ct":"US","tp":"CR","ts":"2023-05-13T05:31:55Z","tX":215,"tY":414,"tags":{}},"1368088238":{"location":[32.4763758,-104.1099701],"ct":"US","tp":"CR","ts":"2025-03-16T13:28:58Z","tX":215,"tY":414,"tags":{"name":"Ellipse Global Quahada Rv Park"}},"1372673572":{"location":[32.3608526,-104.1699557],"ct":"US","tp":"CR","ts":"2025-03-29T14:51:40Z","tX":215,"tY":414,"tags":{"addr:city":"Carlsbad","addr:housenumber":"4405","addr:postcode":"88220","addr:state":"NM","addr:street":"Grandi Road","name":"BAR RV Park","phone":"+1-575-302-3674","power_supply":"yes","sanitary_dump_station":"yes","website":"http://www.bar-rvranch.com/"}},"1373912430":{"location":[32.32796,-104.1421737],"ct":"US","tp":"CR","ts":"2025-04-02T00:40:59Z","tX":215,"tY":414,"tags":{"addr:city":"Carlsbad","addr:housenumber":"2519","addr:postcode":"88220","addr:state":"NM","addr:street":"Pecos Highway","name":"North Star RV Park","phone":"+1-575-361-3303"}},"1381055270":{"location":[32.3870611,-104.217838],"ct":"US","tp":"CR","ts":"2025-05-15T15:12:21Z","tX":215,"tY":414,"tags":{"addr:city":"Carlsbad","addr:housenumber":"3022","addr:postcode":"88220","addr:state":"NM","addr:street":"Yucca Street","name":"El Dorado RV Park","phone":"+1-888-204-4470","website":"https://clearskiesrvparks.com/location/el-dorado"}},"1381055275":{"location":[32.3905022,-104.2115949],"ct":"US","tp":"CR","ts":"2025-04-25T07:32:19Z","tX":215,"tY":414,"tags":{"name":"Guadalupe RV Park"}},"1381446343":{"location":[32.3402865,-104.1723141],"ct":"US","tp":"CR","ts":"2025-04-26T16:52:58Z","tX":215,"tY":414,"tags":{"addr:city":"Carlsbad","addr:housenumber":"2425","addr:postcode":"88220","addr:state":"NM","addr:street":"East Derrick Rural Road","name":"The Old Hay Field","phone":"+1-575-302-5234"}},"1381919322":{"location":[32.3680691,-104.2097656],"ct":"US","tp":"CR","ts":"2025-04-28T07:56:16Z","tX":215,"tY":414,"tags":{"addr:city":"Carlsbad","addr:housenumber":"4120","addr:postcode":"88220","addr:state":"NM","addr:street":"Cowboys Country Road","name":"Cowboys Country RV Park","phone":"+1-575-200-8171"}},"1386930492":{"location":[32.3116871,-104.2506101],"ct":"US","tp":"CR","ts":"2025-05-15T07:11:27Z","tX":215,"tY":414,"tags":{"addr:city":"Carlsbad","addr:housenumber":"8014","addr:postcode":"88220","addr:state":"NM","addr:street":"Molinar Road","name":"Grease Wood RV Park","phone":"+1-575-361-4877"}},"6842012502":{"location":[32.4939906,-104.2484774],"ct":"US","tp":"CS","ts":"2019-11-21T03:55:36Z","tX":215,"tY":414,"tags":{"backcountry":"no","caravans":"yes","drinking_water":"no","fee":"no","group_only":"no","name":"Avalon Resevoir Campground","nudism":"no","operator":"Bureau of Reclamation","power_supply":"no","sanitary_dump_station":"no","shower":"no","tents":"yes","toilets":"no"}}}