{"1275081188":{"location":[32.1731884,-104.0710319],"ct":"US","tp":"CR","ts":"2024-04-22T22:25:42Z","tX":215,"tY":415,"tags":{"addr:city":"Malaga","addr:housenumber":"1249-3","addr:postcode":"88263","addr:state":"NM","addr:street":"Pecos Highway","name":"Willow Creek RV Park","phone":"+1-575-416-7887","website":"https://willowcreekrvparks.com/"}},"1377225916":{"location":[32.1751387,-104.3808576],"ct":"US","tp":"CR","ts":"2025-04-13T14:24:17Z","tX":215,"tY":415,"tags":{"addr:city":"Whites City","addr:housenumber":"6","addr:postcode":"88268","addr:state":"NM","addr:street":"Carlsbad Cavern Highway","internet_access":"yes","name":"Whites City RV Park","phone":"+1-575-361-3665","power_supply":"yes"}},"9170786475":{"location":[32.110466,-104.4067513],"ct":"US","tp":"CS","ts":"2021-10-14T02:58:34Z","tX":215,"tY":415,"tags":{"access":"yes","backcountry":"yes","caravans":"yes","contact:campendium":"http://www.campendium.com/parks-ranch-campground","dog":"yes","drinking_water":"no","fee":"no","internet_access":"cellular","name":"Parks Ranch Campground","openfire":"yes","operator":"Bureau of Land Management","parking":"yes","picnic_table":"no","power_supply":"no","reservation":"no","shower":"no","surface":"dirt","tents":"yes","toilets":"no"}},"4542419063":{"location":[32.1753555,-104.3801082],"ct":"US","tp":"CR","ts":"2016-12-07T04:53:02Z","tX":215,"tY":415,"tags":{"name":"Whites City RV Park"}}}