{"1342563083":{"location":[60.5293155,21.36984],"ct":"FI","tp":"CS","ts":"2024-12-18T10:09:13Z","tX":572,"tY":294,"tags":{"addr:city":"Kustavi","addr:housenumber":"193","addr:postcode":"26630","addr:street":"Kuninkaantie","caravans":"yes","name":"Kustavin Lootholma","phone":"+358505560440","tents":"yes","website":"https://lootholma.fi/en/"}},"1344625517":{"location":[60.5715676,21.3045922],"ct":"FI","tp":"CR","ts":"2024-12-21T20:01:37Z","tX":572,"tY":294,"tags":{"addr:city":"Kustavi","addr:housenumber":"2","addr:postcode":"23360","addr:street":"Maanp채채ntie","name":"Kustavin Lomapalvelut"}},"2300070082":{"location":[60.5728975,21.3062404],"ct":"FI","tp":"CS","ts":"2021-10-16T12:14:51Z","tX":572,"tY":294,"tags":{"addr:housenumber":"2","addr:street":"Maanp채채ntie","name":"Kustavin Lomapalvelut","website":"https://visitkustavi.fi/kohde/kustavin-lomapalvelut/"}},"2939434723":{"location":[60.5303406,21.3674458],"ct":"FI","tp":"CS","ts":"2021-10-10T11:45:29Z","tX":572,"tY":294,"tags":{"addr:housenumber":"193","addr:street":"Kuninkaantie","caravans":"yes","contact:phone":"+358505560440","contact:website":"http://lootholma.fi/en/","name":"Kustavin Lootholma","tents":"yes","website":"http://lootholma.fi/en/"}},"9176410211":{"location":[60.5839455,21.3163841],"ct":"FI","tp":"CS","ts":"2021-10-16T13:14:58Z","tX":572,"tY":294,"tags":{"addr:housenumber":"81","addr:street":"Valkamantie","caravans":"yes","name":"Lomavalkama","tents":"yes","website":"http://www.lomavalkama.fi/"}}}