{"13455889":{"location":[48.1784219,21.3024272],"ct":"HU","tp":"CS","ts":"2021-11-18T21:36:49Z","tX":572,"tY":355,"tags":{}},"26861291":{"location":[48.1215497,21.4153033],"ct":"HU","tp":"CS","ts":"2008-05-04T09:46:18Z","tX":572,"tY":355,"tags":{"created_by":"Potlatch 0.8c","name":"Tisza"}},"260809049":{"location":[48.1180466,21.4166183],"ct":"HU","tp":"CS","ts":"2013-05-13T21:21:47Z","tX":572,"tY":355,"tags":{"name":"Spori Sport"}},"493060179":{"location":[48.0222575,21.3456833],"ct":"HU","tp":"CS","ts":"2017-05-12T16:51:11Z","tX":572,"tY":355,"tags":{"name":"Kemping"}},"917106655":{"location":[48.1408379,21.4013556],"ct":"HU","tp":"CS","ts":"2010-09-18T18:06:04Z","tX":572,"tY":355,"tags":{}},"2860017359":{"location":[48.1235685,21.418372],"ct":"HU","tp":"CS","ts":"2017-08-11T11:27:17Z","tX":572,"tY":355,"tags":{"name":"Tiszavirág kemping","toilets:wheelchair":"yes","wheelchair":"yes"}},"3462206403":{"location":[48.1784735,21.3023118],"ct":"HU","tp":"CS","ts":"2023-11-16T17:57:24Z","tX":572,"tY":355,"tags":{"contact:fax":"+36 47 369 477","email":"bortopanzio@t-online.hu","name":"Bortó Panzió és kemping","phone":"+36 47 369 476","source":"turistautak.hu","source:date":"2012-08-21","url":"http://turistautak.hu/poi.php?id=15167","website":"https://www.szallasinfo.hu/bortopanzio"}},"3469930490":{"location":[48.116183,21.41355],"ct":"HU","tp":"CS","ts":"2020-05-12T21:34:26Z","tX":572,"tY":355,"tags":{"addr:city":"Tokaj","addr:housenumber":"11","addr:postcode":"3910","addr:street":"Malom utca","email":"info@turak.hu","name":"Kékcápák","phone":"+36 47 353 227;+36 30 214 3942","source":"turistautak.hu","source:date":"2011-05-08","url":"http://turistautak.hu/poi.php?id=15922"}},"3485121898":{"location":[48.1155932,21.4094334],"ct":"HU","tp":"CS","ts":"2022-10-23T20:53:05Z","tX":572,"tY":355,"tags":{"addr:city":"Tokaj","addr:housenumber":"2","addr:postcode":"3910","addr:street":"Hegyalja utca","name":"Hegyalja Kemping","phone":"+36 1 513 4078;+36 20 923 8036","source":"turistautak.hu","source:date":"2011-05-03","url":"http://turistautak.hu/poi.php?id=15245"}},"3485121935":{"location":[48.114604,21.419435],"ct":"HU","tp":"CS","ts":"2017-08-11T11:27:17Z","tX":572,"tY":355,"tags":{"name":"Tutajos kemping","source":"turistautak.hu","source:date":"2012-01-12","toilets:wheelchair":"limited","url":"http://turistautak.hu/poi.php?id=132009","wheelchair":"yes"}},"3490651616":{"location":[48.013067,21.169823],"ct":"HU","tp":"CS","ts":"2021-04-06T12:16:07Z","tX":572,"tY":355,"tags":{"addr:city":"Tiszadob","addr:housenumber":"2-7","addr:postcode":"4456","addr:street":"Ady Endre utca","fixme":"resurvey (source was old)","name":"Horgásztábor","phone":"+36 42 722 921","source":"turistautak.hu","source:date":"2008-06-11","url":"http://turistautak.hu/poi.php?id=17888"}},"9972909945":{"location":[48.0241407,21.2280924],"ct":"HU","tp":"CS","ts":"2022-08-23T17:59:00Z","tX":572,"tY":355,"tags":{"name":"Camping Tiszadada","website":"https://tiszadadakemping.hu"}},"11074120905":{"location":[48.0223174,21.1084177],"ct":"HU","tp":"CS","ts":"2023-09-02T21:29:32Z","tX":572,"tY":355,"tags":{"addr:city":"Tiszadob","addr:postcode":"4456","addr:street":"Vízitelep","contact:mobile":"+36302253036","contact:website":"http://tiszaviragkemping.hu","name":"Tiszavirág Camping"}}}