{"294588184":{"location":[47.4556369,21.3952951],"ct":"HU","tp":"CS","ts":"2020-04-13T16:52:17Z","tX":572,"tY":358,"tags":{"addr:city":"Hajdúszoboszló","addr:housenumber":"35/A","addr:postcode":"4200","addr:street":"Böszörményi utca","email":"thermalcamping@hungarospa.hu","name":"Thermal Camping","phone":"+36 52 558 552","wheelchair":"no"}},"647846378":{"location":[47.4529862,21.4106786],"ct":"HU","tp":"CS","ts":"2019-05-14T07:41:45Z","tX":572,"tY":358,"tags":{"name":"Hajdú Camping"}},"3456353819":{"location":[47.299526,21.35647],"ct":"HU","tp":"CS","ts":"2015-04-14T21:12:58Z","tX":572,"tY":358,"tags":{"source":"turistautak.hu","source:date":"2012-08-01","url":"http://turistautak.hu/poi.php?id=72054"}},"3456353871":{"location":[47.320389,21.100169],"ct":"HU","tp":"CS","ts":"2023-11-16T17:57:24Z","tX":572,"tY":358,"tags":{"addr:city":"Püspökladány","addr:housenumber":"62","addr:postcode":"4150","addr:street":"Petőfi Sándor utca","contact:fax":"+36 54 451 329","email":"arnyascamping@externet.hu","name":"Árnyas Kemping és Motel","phone":"+36 54 451 329;+36 20 325 7424","source":"turistautak.hu","source:date":"2009-03-01","url":"http://turistautak.hu/poi.php?id=15192","website":"http://www.arnyascamping.hu"}}}