{"10755396":{"location":[46.6446339,21.2982973],"ct":"HU","tp":"CS","ts":"2023-11-16T17:57:24Z","tX":572,"tY":361,"tags":{"addr:city":"Gyula","addr:housenumber":"16","addr:postcode":"5700","addr:street":"Szélső utca","contact:fax":"+36 66 463 551","email":"gyulacamping@t-online.hu","name":"Thermal Camping és Motel","phone":"+36 66 463 704;+36 30 213 0561","toilets:wheelchair":"limited","website":"http://www.gyulacamping.hu/","wheelchair":"limited"}},"10758261":{"location":[46.7586095,21.1540485],"ct":"HU","tp":"CS","ts":"2020-02-27T20:08:59Z","tX":572,"tY":361,"tags":{}},"635037136":{"location":[46.6856716,21.1958754],"ct":"HU","tp":"CS","ts":"2022-03-26T21:38:50Z","tX":572,"tY":361,"tags":{}},"709861341":{"location":[46.7153183,21.2610157],"ct":"HU","tp":"CS","ts":"2023-01-03T06:33:02Z","tX":572,"tY":361,"tags":{"barrier":"fence","fence_type":"chain_link","height":"1.8","internet_access":"no","name":"Szanazugi Ifjúsági Tábor","operator":"Békés Megyei Gyermek- és Ifjúsági Közalapítvány","operator:type":"public","tents":"yes"}},"1182715682":{"location":[46.7591055,21.1532855],"ct":"HU","tp":"CS","ts":"2023-11-17T12:28:37Z","tX":572,"tY":361,"tags":{"addr:city":"Békés","addr:place":"Hrsz. 6929/50","addr:postcode":"5630","building":"yes","contact:email":"kapcsolat@danfok.hu","contact:mobile":"+36 20 592 5636","contact:website":"https://danfok.hu/","image":"https://kisskarikak.com/Kepek/Egyeb/danfok.jpg","internet_access":"wlan","internet_access:fee":"customers","internet_access:operator":"OverNet Kft.","internet_access:operator:addr":"Mezőberény, Fortuna tér 10.","internet_access:ssid":"DanfokWifi","name":"Dánfoki Üdülőközpont","nohousenumber":"yes","operator":"Békési Turisztikai Szolgáltató Kft.","ref:HU:vatin":"14270299-2-04","wikimedia_commons":"File:A_Dánfoki_Üdülőközpont.jpg"}},"3203214231":{"location":[46.6553081,21.2653987],"ct":"HU","tp":"CS","ts":"2014-11-24T16:29:53Z","tX":572,"tY":361,"tags":{"name":"Tó menti kiülő"}},"3485099555":{"location":[46.6995556,21.268067],"ct":"HU","tp":"CS","ts":"2023-11-16T17:57:24Z","tX":572,"tY":361,"tags":{"addr:postcode":"5624","addr:street":"Kőrösjobbpart 63.","contact:fax":"+36 66 441 060","email":"bmgyik@bekasmegye.hu","name":"Doboz-Szanazugi Ifjúsági Központ","phone":"+36 66 441 060;+36 30 677 1720","source":"turistautak.hu","source:date":"2012-12-27","url":"http://turistautak.hu/poi.php?id=15076","website":"http://www.nusz.hu"}},"3485100694":{"location":[46.647142,21.285632],"ct":"HU","tp":"CS","ts":"2023-10-29T09:11:59Z","tX":572,"tY":361,"tags":{"addr:city":"Gyula","addr:housenumber":"5","addr:postcode":"5700","addr:street":"Vár utca","description":"Telefon: Márk Tivadarné","name":"Márk Camping","phone":"+36 66 463 380","source":"turistautak.hu","source:date":"2011-05-11","stars":"3","url":"http://turistautak.hu/poi.php?id=16127","website":"https://www.travelport.hu/szallas/EHotel.vd?ml=31&mi=1&xcnl9727&lang=hu"}},"3485100704":{"location":[46.674133,21.293783],"ct":"HU","tp":"CS","ts":"2020-04-13T14:33:10Z","tX":572,"tY":361,"tags":{"addr:city":"Gyula","addr:housenumber":"11","addr:postcode":"5700","addr:street":"Remete utca","description":"Gyula és Sarkad közötti műútról az N 46° 40,426 E 21° 18,053 poziciónál kell letérni.","email":"remete-farm@freemail.hu","name":"Remete-Farm Kemping","phone":"+36 20 978 9344","source":"turistautak.hu","source:date":"2012-08-01","url":"http://turistautak.hu/poi.php?id=15114","website":"http://www.remetefarm.uw.hu"}},"3488479970":{"location":[46.6999789,21.2667411],"ct":"HU","tp":"CS","ts":"2023-11-18T01:42:19Z","tX":572,"tY":361,"tags":{"addr:postcode":"5624","addr:street":"Doboz-Szanazug Gyulai oldal","name":"Nádas kemping","phone":"+36 30 403 3651;+36 30 383 3399","source":"turistautak.hu","source:date":"2012-12-27","url":"http://turistautak.hu/poi.php?id=16139","website":"https://www.gyula.hu/index.php?apps=cikk&cikk=1491&r=28"}}}