{"4866361421":{"location":[41.9409362,21.3835348],"ct":"MK","tp":"CS","ts":"2017-05-20T15:18:50Z","tX":572,"tY":380,"tags":{}},"10945064305":{"location":[41.992832,21.4373531],"ct":"MK","tp":"CR","ts":"2023-10-19T15:22:00Z","tX":572,"tY":380,"tags":{"fee":"no"}},"12393598819":{"location":[41.9929557,21.4375553],"ct":"MK","tp":"CR","ts":"2025-02-01T15:31:26Z","tX":572,"tY":380,"tags":{"addr:city":"Cкoпje","addr:housenumber":"4","addr:street":"Мирче Ацев","fee":"yes","mobile":"+38970333745","name":"Камп простор „Camper 4 Night“"}},"12802663804":{"location":[42.003129,21.3211881],"ct":"MK","tp":"CS","ts":"2025-05-01T16:54:01Z","tX":572,"tY":380,"tags":{"addr:street":"Улица 6","name":"Camping Skopje","phone":"0038970583628"}},"12862063101":{"location":[41.96124,21.2783446],"ct":"MK","tp":"CS","ts":"2025-06-14T06:30:53Z","tX":572,"tY":380,"tags":{"addr:street":"Gorna Matka, Skopje, Nothmacedonia","email":"matkafarm@gmail.com","name":"Matka Farm RV Camping Area, Matka, Nordmazedonien","phone":"+38972277254"}}}