{"2282135":{"location":[54.3371156,8.6045399],"ct":"DE","tp":"CS","ts":"2019-11-07T17:30:45Z","tX":536,"tY":327,"tags":{"addr:city":"Sankt Peter-Ording","addr:housenumber":"1","addr:postcode":"25826","addr:street":"Utholmer Straße","email":"info@campingplatz-biehl.de","fax":"+49 4863 960 199","internet_access":"wlan","name":"Campingplatz Biehl","operator":"Klugmann","phone":"+49 4863 960 10","website":"https://www.campingplatz-biehl.de/"}},"2282150":{"location":[54.3336058,8.6196253],"ct":"DE","tp":"CS","ts":"2022-10-03T03:10:21Z","tX":536,"tY":327,"tags":{"addr:city":"Sankt Peter-Ording","addr:housenumber":"1","addr:postcode":"25826","addr:street":"Grudeweg","name":"Camping SPO","operator":"Camping SPO","payment:coins":"yes","payment:credit_cards":"yes","payment:cryptocurrencies":"no","payment:debit_cards":"yes","payment:electronic_purses":"no","payment:notes":"yes","website":"https://www.camping-spo.de/"}},"70186115":{"location":[54.284213,8.6629176],"ct":"DE","tp":"CS","ts":"2024-08-01T15:50:09Z","tX":536,"tY":327,"tags":{"email":"rosencamp-kniese@t-online.de","name":"Campingplatz Kniese","phone":"+49 4863 3676","website":"https://www.rosencamp-kniese.de/"}},"109748714":{"location":[54.2846434,8.6614212],"ct":"DE","tp":"CS","ts":"2020-04-15T10:38:10Z","tX":536,"tY":327,"tags":{"addr:city":"Sankt Peter-Ording","addr:housenumber":"179","addr:postcode":"25826","addr:street":"Böhler Landstraße","fax":"+49 4863 3315","internet_access":"no","name":"Campinplatz Silbermöwe","operator":"Jochen Trede","phone":"+49 4863 5556"}},"109748730":{"location":[54.2851778,8.6603047],"ct":"DE","tp":"CS","ts":"2024-08-14T18:04:57Z","tX":536,"tY":327,"tags":{"name":"Campingplatz Rönkendorf"}},"171606103":{"location":[54.309288,8.6354503],"ct":"DE","tp":"CR","ts":"2024-07-14T17:04:02Z","tX":536,"tY":327,"tags":{"addr:city":"Sankt Peter-Ording","addr:housenumber":"4","addr:postcode":"25826","addr:street":"Ketelskoog","capacity":"75","contact:email":"reisemobilhafen@t-online.de","contact:fax":"+49 4863 1201","contact:phone":"+49 4863 8171","fee":"yes","internet_access":"wlan","name":"Reisemobilhafen St. Peter-Ording","operator":"Fam. Sass","power_supply":"yes","sanitary_dump_station":"yes","toilets":"yes","website":"https://www.reisemobilhafen-spo.de/","wheelchair":"no"}},"175730628":{"location":[54.3072564,8.6486064],"ct":"DE","tp":"CS","ts":"2024-07-30T07:38:29Z","tX":536,"tY":327,"tags":{"addr:city":"Sankt Peter-Ording","addr:country":"DE","addr:housenumber":"56","addr:postcode":"25826","addr:street":"Bövergeest","capacity":"65","caravans":"yes","email":"campingpark.olsdorf@t-online.de","fee":"yes","internet_access":"yes","name":"Campingpark Olsdorf","power_supply":"yes","sanitary_dump_station":"yes","website":"https://www.meergruen-camping.de/campingpark"}},"356099372":{"location":[54.2831439,8.7813828],"ct":"DE","tp":"CS","ts":"2020-12-08T08:25:46Z","tX":536,"tY":327,"tags":{"addr:city":"Vollerwiek","addr:country":"DE","addr:housenumber":"6","addr:postcode":"25836","addr:street":"Altendeich","email":"Campingplatz_olendiek@hotmail.de","name":"Campingplatz Olendiek","operator":"Martina Vorländer","phone":"+49 4862 17282","website":"https://campingplatz-olendiek.de.tl/Home.htm"}},"460210046":{"location":[54.3368643,8.6038057],"ct":"DE","tp":"CR","ts":"2024-10-14T21:54:11Z","tX":536,"tY":327,"tags":{"addr:city":"Sankt Peter-Ording","addr:housenumber":"1","addr:postcode":"25826","addr:street":"Utholmer Straße","contact:email":"info@campingplatz-biehl.de","contact:phone":"+49 4863 960 10","contact:website":"https://www.campingplatz-biehl.de/","fee":"no","name":"Wohnmobil Stellplatz Camping Biehl","operator":"Campingplatz Biehl","power_supply":"yes","sanitary_dump_station":"yes","toilets":"yes","toilets:wheelchair":"yes","wheelchair":"limited"}},"486497649":{"location":[54.3244197,8.6962844],"ct":"DE","tp":"CS","ts":"2024-07-25T07:26:44Z","tX":536,"tY":327,"tags":{"addr:city":"Tating","addr:housenumber":"4","addr:postcode":"25881","addr:street":"Martendorf","capacity":"90","email":"campingpark.olsdorf@t-online.de","fee":"yes","internet_access":"wlan","name":"meerGrün-lodge","website":"https://www.meergruen-camping.de/westkuesten-lodge","wheelchair":"yes"}},"616650582":{"location":[54.3256278,8.6961483],"ct":"DE","tp":"CS","ts":"2024-08-05T16:33:55Z","tX":536,"tY":327,"tags":{}},"10837269145":{"location":[54.3026221,8.6565776],"ct":"DE","tp":"CR","ts":"2024-05-30T14:35:45Z","tX":536,"tY":327,"tags":{"addr:city":"Sankt Peter-Ording","addr:housenumber":"1","addr:postcode":"25826","addr:street":"Wittendüner Geest","caravan_site":"motorhome_stopover","caravan_site:type":"village","charge":"17 EUR","fee":"yes","name":"Schäfer Tours WoMo Stellplatz","operator":"Busunternehmens Schäfer Tours oHG","phone":"+49 4863 3188","power_supply":"yes","power_supply:charge":"3 EUR","power_supply:fee":"yes","reservation":"recommended","sanitary_dump_station":"no","website":"https://www.schaefer-tours.de/womo-stellplatz/"}},"4558836499":{"location":[54.3367511,8.6043786],"ct":"DE","tp":"SD","ts":"2016-12-22T21:36:34Z","tX":536,"tY":327,"tags":{"description":"Gebühr im Übernachtungspreis","operator":"Campingplatz Biehl","water_point":"yes"}},"5732940024":{"location":[54.3089989,8.6354865],"ct":"DE","tp":"SD","ts":"2018-07-02T01:51:04Z","tX":536,"tY":327,"tags":{"access":"customers","fee":"yes","water_point":"yes"}}}