{"1780709":{"location":[53.8326743,8.7810048],"ct":"DE","tp":"CS","ts":"2023-07-15T22:09:39Z","tX":536,"tY":329,"tags":{"addr:city":"Cuxhaven","addr:housenumber":"112","addr:postcode":"27478","addr:street":"Altenbrucher Bahnhofstraße","addr:suburb":"Altenbruch","name":"Campingplatz Am Weltschifffahrtsweg","phone":"+49 4722-22 01","website":"https://www.nordseeheilbad-cuxhaven.de/cuxhaven/poi/campingplatz-altenbruch"}},"4644631":{"location":[53.8604843,8.5944165],"ct":"DE","tp":"CS","ts":"2019-04-04T06:41:33Z","tX":536,"tY":329,"tags":{"addr:city":"Cuxhaven","addr:housenumber":"25","addr:postcode":"27476","addr:street":"Am Sahlenburger Strand","name":"Campingplatz Finck","phone":"+49 4721 399930","website":"https://www.camping-finck.de/"}},"28681033":{"location":[53.8759635,8.7036001],"ct":"DE","tp":"CR","ts":"2025-03-19T00:25:45Z","tX":536,"tY":329,"tags":{"access":"yes","addr:city":"Cuxhaven","addr:postcode":"27472","bakery_service":"yes","capacity":"130","caravan_site":"motorhome_stopover","caravan_site:type":"harbour","caravans":"yes","charge":"17.50 EUR","charge:conditional":"12.50 EUR @ (\"low_season\")","contact:phone":"+49 4721 5000","description":"Wohnmobil-Stellplatz am Fährhafen","dog":"yes","email":"bdrud@nports.de","fee":"yes","internet_access":"no","lit":"yes","name":"Wohnmobilstellplatz \"Fährhafen\"","note":"für Wohnmobile und Wohnwagen","operator":"N-Ports Cuxhaven","parking":"surface","power_supply":"yes","sanitary_dump_station":"yes","seasonal":"no","toilets":"no","water_point":"yes","water_point:fee":"yes","website":"https://www.cuxland.de/hotel/wohnmobilstellplatz-faehrhafen","wheelchair":"yes"}},"42505427":{"location":[53.8781235,8.6522278],"ct":"DE","tp":"CS","ts":"2023-10-05T18:07:09Z","tX":536,"tY":329,"tags":{"addr:city":"Cuxhaven","addr:housenumber":"32","addr:postcode":"27476","addr:street":"Windeichenweg","addr:suburb":"Duhnen","name":"Campingplatz Beckmann","phone":"+49 4721 65191","source":"Bing-Sat","website":"https://beckmann-duhnen.de/"}},"47466879":{"location":[53.7908769,8.5455221],"ct":"DE","tp":"CS","ts":"2020-10-06T18:16:56Z","tX":536,"tY":329,"tags":{"addr:city":"Wurster Nordseeküste","addr:country":"DE","addr:postcode":"27639","name":"KNAUS Campingpark Spieka","note:mapping_status":"finished every way you can walk with your dog","source":"GPS and Sightseeing","tents":"yes","website":"knauscamp.de"}},"60957541":{"location":[53.914516,8.4905593],"ct":"DE","tp":"CS","ts":"2025-04-21T15:12:08Z","tX":536,"tY":329,"tags":{"caravans":"no","drinking_water":"yes","name":"Zeltplatz","operator":"Das alte Fischerhaus","power_supply":"yes","reservation":"recommended","shower":"yes","tents":"yes","toilets":"yes","website":"https://www.wattfahrten.de/"}},"100179033":{"location":[53.885715,8.6549304],"ct":"DE","tp":"CS","ts":"2025-05-26T00:03:03Z","tX":536,"tY":329,"tags":{"addr:city":"Cuxhaven","addr:housenumber":"17","addr:postcode":"27476","addr:street":"Cuxhavener Straße","caravans":"yes","name":"Campingplatz Nordsee","phone":"+49 4721 48951","tents":"no","website":"https://www.camping-nordsee-cuxhaven.de/"}},"100710139":{"location":[53.864194,8.6386707],"ct":"DE","tp":"CS","ts":"2025-04-23T14:45:33Z","tX":536,"tY":329,"tags":{"addr:city":"Cuxhaven","addr:housenumber":"51","addr:postcode":"27476","addr:street":"Sahlenburger Chaussee","caravans":"yes","dog":"yes","drinking_water":"yes","fee":"yes","name":"Zimdars CampingResort","phone":"+49 4721-28662","power_supply":"yes","sanitary_dump_station":"yes","shower":"yes","tents":"yes","toilets":"yes","website":"https://zimdars-campingresort.de"}},"117526473":{"location":[53.8570412,8.5917857],"ct":"DE","tp":"CS","ts":"2023-08-17T14:41:05Z","tX":536,"tY":329,"tags":{"addr:city":"Cuxhaven","addr:housenumber":"6","addr:postcode":"27476","addr:street":"Wernerwaldstraße","caravans":"yes","name":"Campingplatz Wernerwald","old_website":"https://web.archive.org/web/20141203145249/http://www.wernerwald.info/","phone":"+49 4721-29012","tents":"no","toilets:wheelchair":"yes","website":"https://www.nordseeheilbad-cuxhaven.de/cuxhaven/poi/campingplatz-wernerwald","wheelchair":"yes"}},"160291093":{"location":[53.9211556,8.4933446],"ct":"DE","tp":"CS","ts":"2023-08-15T19:53:22Z","tX":536,"tY":329,"tags":{"caravans":"yes","drinking_water":"yes","name":"Campingplatz","power_supply":"yes","shower":"yes","tents":"yes","toilets":"yes","website":"https://www.husachterndiek.de/nordsee-urlaub/uebernachten/campingplatz.php"}},"235151708":{"location":[53.7527893,8.637951],"ct":"DE","tp":"CS","ts":"2019-03-26T00:49:21Z","tX":536,"tY":329,"tags":{"addr:city":"Wurster Nordseeküste","addr:country":"DE","addr:housenumber":"28","addr:postcode":"27639","addr:street":"Wanhödener Straße","addr:suburb":"Nordholz","name":"Campingplatz Nordholz","website":"https://www.nordholz-camping.de/"}},"293228543":{"location":[53.8856258,8.650518],"ct":"DE","tp":"CS","ts":"2023-03-28T09:38:47Z","tX":536,"tY":329,"tags":{"addr:city":"Cuxhaven","addr:country":"DE","addr:housenumber":"57","addr:postcode":"27476","addr:street":"Cuxhavener Straße","caravans":"yes","email":"info@wattenloeper.de","fax":"+49 4721 426052","name":"Campingplatz Wattenlöper","phone":"+49 4721 426051","toilets:wheelchair":"yes","website":"https://www.wattenloeper.de/","wheelchair":"yes"}},"293228560":{"location":[53.8844602,8.650971],"ct":"DE","tp":"CS","ts":"2025-05-26T00:03:03Z","tX":536,"tY":329,"tags":{"addr:housenumber":"5","addr:street":"Duhner Allee","caravans":"yes","fax":"+49 4721 426162","name":"Campingplatz Am Bäderring","phone":"+49 4721 426161","tents":"no","toilets:wheelchair":"yes","website":"https://www.campingplaetze-cuxhaven.de/","wheelchair":"yes"}},"321961155":{"location":[53.8249913,8.5829675],"ct":"DE","tp":"CS","ts":"2015-04-10T09:47:01Z","tX":536,"tY":329,"tags":{}},"331080347":{"location":[53.8855613,8.6487559],"ct":"DE","tp":"CS","ts":"2022-04-25T18:15:29Z","tX":536,"tY":329,"tags":{"addr:city":"Cuxhaven","addr:housenumber":"65-67","addr:postcode":"27476","addr:street":"Cuxhavener Straße","addr:suburb":"Duhnen","caravans":"yes","dog":"yes","drinking_water":"yes","email":"info@camping-seelust.de","fax":"+49 4721 402555","fee":"yes","motor_vehicle":"yes","name":"Camping Seelust","permanent_camping":"yes","phone":"+49 4721 402504","power_supply":"yes","sanitary_dump_station":"yes","shower":"yes","surface":"grass","tents":"yes","toilets":"yes","website":"https://www.camping-seelust.de/","wheelchair":"no"}},"331092266":{"location":[53.861744,8.5961096],"ct":"DE","tp":"CS","ts":"2019-07-27T11:51:49Z","tX":536,"tY":329,"tags":{"addr:city":"Cuxhaven","addr:housenumber":"1","addr:postcode":"27476","addr:street":"Muschelgrund","name":"Campingplatz Muschelgrund","phone":"+49 4721 2090","toilets:wheelchair":"no","website":"https://campingplatz-muschelgrund.de/","wheelchair":"limited"}},"331102656":{"location":[53.8792543,8.6514272],"ct":"DE","tp":"CS","ts":"2023-10-05T18:07:09Z","tX":536,"tY":329,"tags":{"addr:city":"Cuxhaven","addr:housenumber":"30","addr:postcode":"27476","addr:street":"Duhner Allee","addr:suburb":"Duhnen","name":"Campingplatz am grooten Steen","phone":"+49 4721 48325","website":"https://www.hauhut.de/"}},"331627995":{"location":[53.7650691,8.5358072],"ct":"DE","tp":"CS","ts":"2023-08-19T08:11:59Z","tX":536,"tY":329,"tags":{"addr:city":"Wurster Nordseeküste","addr:postcode":"27639","addr:street":"Cappel-Neufelder Sieltrift","addr:suburb":"Cappel-Neufeld","caravans":"yes","contact:email":"info@camping-freizeit-gmbh.de","contact:phone":"+49 172 4109227","contact:website":"https://www.camping-freizeit-gmbh.de/","dog":"no","drinking_water":"yes","fee":"yes","name":"Campingplatz Cappel-Neufeld (Außendeich)","nudism":"no","operator":"Camping und Freizeit GmbH Wurster Nordseeküste","power_supply":"yes","sanitary_dump_station":"customers","shower":"yes","tents":"yes","toilets":"yes"}},"340063810":{"location":[53.7833396,8.6372975],"ct":"DE","tp":"CS","ts":"2023-04-20T20:09:25Z","tX":536,"tY":329,"tags":{"addr:city":"Wurster Nordseeküste","addr:country":"DE","addr:housenumber":"13-15","addr:postcode":"27639","addr:street":"Peilstelle","addr:suburb":"Nordholz","name":"CUX Glamping"}},"355526921":{"location":[53.8599895,8.596612],"ct":"DE","tp":"CS","ts":"2024-07-07T08:55:46Z","tX":536,"tY":329,"tags":{"addr:city":"Cuxhaven","addr:postcode":"27476","addr:street":"Wernerwaldstraße","bettundbike":"yes","name":"Campingplatz Strandgut","operator":"Sandbank 134","phone":"+49 4721 7131316"}},"359188021":{"location":[53.8603409,8.5964301],"ct":"DE","tp":"CS","ts":"2015-07-21T21:25:07Z","tX":536,"tY":329,"tags":{}},"359202852":{"location":[53.8604715,8.5923483],"ct":"DE","tp":"CR","ts":"2022-06-30T11:00:42Z","tX":536,"tY":329,"tags":{"capacity":"12","description":"Gebühr 17€ incl. Strom Ver und Entsorgung sowie 2 Personen zuzüglich Kurtaxe","fee":"yes","name":"Wohnmobilstellplatz Finck","power_supply":"yes","sanitary_dump_station":"yes","website":"https://www.camping-finck.de/mobilplatz.html"}},"367411077":{"location":[53.8436289,8.6297631],"ct":"DE","tp":"CS","ts":"2025-03-07T17:56:07Z","tX":536,"tY":329,"tags":{"access":"private","addr:city":"Cuxhaven","addr:country":"DE","addr:postcode":"27476","addr:street":"Am Busch","addr:suburb":"Holte-Spangen","cabins":"no","camp_site":"standard","caravans":"no","contact:website":"https://pfadfinder-cuxhaven.de/","fee":"no","group_only":"yes","internet_access":"no","kitchen":"yes","name":"Jugendzeltplatz Pfadfinderheim Holte-Spangen","operator":"BdP Stamm Adler Cuxhaven","phone":"+49 1575 1067291","power_supply":"yes","sanitary_dump_station":"no","scout":"yes","static_caravans":"no","tents":"yes","toilets":"yes","wheelchair":"no"}},"995299526":{"location":[53.7651511,8.5455196],"ct":"DE","tp":"CS","ts":"2021-10-21T16:48:40Z","tX":536,"tY":329,"tags":{"addr:city":"Wurster Nordseeküste","addr:housenumber":"106","addr:postcode":"27639","addr:street":"Deichweg","bbq":"yes","camp_site":"serviced","capacity:caravans":"28","capacity:tents":"5","caravans":"yes","drinking_water":"yes","fee":"yes","hot_water":"yes","internet_access":"wlan","kitchen":"yes","mobile":"+49-175-5667555","name":"Campingplatz Cappel-Neufeld","opening_hours":"24/7","operator":"Christian Primus","permanent_camping":"yes","phone":"+49-4741-1402","power_supply":"yes","sanitary_dump_station":"yes","shower":"yes","swimming_pool":"no","tents":"yes","toilets":"yes","washing_machine":"yes","waste_disposal":"yes","website":"https://campingplatz-cappel-neufeld.de"}},"1282575872":{"location":[53.8837795,8.6470823],"ct":"DE","tp":"CR","ts":"2024-05-13T19:17:43Z","tX":536,"tY":329,"tags":{"access":"yes","capacity":"60","caravan_site":"motorhome_stopover","caravan_site:type":"beach;parking_lot","charge":"17 EUR","contact:phone":"+49 4721 48241","fee":"yes","lit":"yes","name":"Wohnmobilstellpatz \"Strandparkplatz\" Duhnen","opening_hours":"24/7","power_supply":"yes","sanitary_dump_station":"yes","seasonal":"no","supervised":"no","surface":"sett","toilets":"yes","toilets:wheelchair":"no","website":"https://www.strandparkplatz-duhnen.de/","wheelchair":"no"}},"2433681184":{"location":[53.9214005,8.5010416],"ct":"DE","tp":"CS","ts":"2023-04-05T15:06:27Z","tX":536,"tY":329,"tags":{"alt_name":"Salzgitterlager","name":"Freizeitcamp Neuwerk","operator":"Stadt Salzgitter - Kommunale Kinder- und Jugendförderung","website:note":"neuwerkfreizeitcamp.de is on sale"}},"3381347419":{"location":[53.8909597,8.6774852],"ct":"DE","tp":"CR","ts":"2025-01-30T12:11:33Z","tX":536,"tY":329,"tags":{"capacity":"60","caravans":"yes","internet_access":"no","motorhome":"yes","name":"Wohnwagen Wohnmobile Stellpatz Messeplatz Döse","phone":"+49 4721 404444","power_supply":"yes","toilets":"yes","website":"https://leuchtturmneuwerk.de/sehenswuerdigkeiten/cuxhaven/minigolf/","wheelchair":"yes"}},"4565132179":{"location":[53.8734018,8.7013513],"ct":"DE","tp":"SD","ts":"2025-03-03T07:17:40Z","tX":536,"tY":329,"tags":{"fee":"yes","operator":"N-Ports Cuxhaven"}},"5851706423":{"location":[53.8599068,8.5927187],"ct":"DE","tp":"SD","ts":"2018-08-27T18:01:16Z","tX":536,"tY":329,"tags":{"access":"customers","fee":"no","operator":"Campingplatz Fink","water_point":"yes"}},"6643684174":{"location":[53.8783683,8.6525138],"ct":"DE","tp":"SD","ts":"2019-07-24T13:43:17Z","tX":536,"tY":329,"tags":{}},"6643684175":{"location":[53.8777741,8.651941],"ct":"DE","tp":"SD","ts":"2019-07-24T13:43:17Z","tX":536,"tY":329,"tags":{}},"6643741820":{"location":[53.8780075,8.6515177],"ct":"DE","tp":"SD","ts":"2019-07-24T13:45:35Z","tX":536,"tY":329,"tags":{}},"9080790878":{"location":[53.7893463,8.5495923],"ct":"DE","tp":"SD","ts":"2021-09-10T18:47:56Z","tX":536,"tY":329,"tags":{"access":"yes","fee":"no"}}}