{"78855832":{"location":[53.5322239,8.5766208],"ct":"DE","tp":"CR","ts":"2021-11-08T19:57:44Z","tX":536,"tY":331,"tags":{"addr:city":"Bremerhaven","addr:housenumber":"15","addr:postcode":"27570","addr:street":"An der Neuen Schleuse","capacity":"63","fee":"yes","name":"Reisemobil-Parkplatz Doppelschleuse","power_supply":"yes"}},"92334642":{"location":[53.4726679,8.4812977],"ct":"DE","tp":"CS","ts":"2024-10-07T19:07:17Z","tX":536,"tY":331,"tags":{"addr:city":"Nordenham","addr:country":"DE","addr:housenumber":"11","addr:postcode":"26954","addr:street":"Strandallee","caravans":"yes","contact:email":"s.schieffer@gmx.net","contact:mobile":"+49 151 11636288","contact:phone":"+49 4731 8719919","contact:website":"https://www.campingplatz-nordenham.de/","dog":"yes","name":"Campingplatz Nordenham/Weser","power_supply":"yes","shower":"yes","tents":"yes","toilets":"yes"}},"92899085":{"location":[53.4948871,8.4743883],"ct":"DE","tp":"CR","ts":"2019-07-21T10:30:55Z","tX":536,"tY":331,"tags":{"fee":"no","name":"Wohnmobilstellplatz Störtebekerbad","tents":"no"}},"110371204":{"location":[53.5186834,8.677338],"ct":"DE","tp":"CS","ts":"2023-02-03T13:59:08Z","tX":536,"tY":331,"tags":{"addr:housenumber":"77","addr:street":"Sellstedter Straße","landuse":"forest","name":"LBU"}},"118832369":{"location":[53.5267034,8.5765345],"ct":"DE","tp":"CR","ts":"2023-10-13T19:27:54Z","tX":536,"tY":331,"tags":{"addr:city":"Bremerhaven","addr:housenumber":"52","addr:street":"Hoebelstraße","capacity:caravans":"47","charge":"12 EUR/day","fee":"yes","name":"Wohnmobilplatz Fischkai","power_supply":"yes","sanitary_dump_station":"yes","toilets":"yes","website":"https://tportal.toubiz.de/bremerhaven/camping/house/GER00020060013483281"}},"162005583":{"location":[53.4503595,8.6575295],"ct":"DE","tp":"CS","ts":"2015-01-04T11:21:40Z","tX":536,"tY":331,"tags":{"caravans":"yes","name":"Campingplatz Bremerhaven e.V.","openfire":"yes","power_supply":"yes","shower":"yes","tents":"yes"}},"163384281":{"location":[53.3632575,8.5094664],"ct":"DE","tp":"CS","ts":"2021-08-07T04:50:51Z","tX":536,"tY":331,"tags":{"addr:city":"Hagen im Bremischen","addr:country":"DE","addr:postcode":"27628","addr:street":"Zum Weserblick","addr:suburb":"Sandstedt","email":"info@wesercamper.de","fax":"+49 4702 520878","name":"Wesercamper","operator":"Oliver Diekmann","phone":"+49 171 269 569 7","website":"https://www.komparking.de/campingplaetze-2/"}},"206004180":{"location":[53.4440978,8.4994878],"ct":"DE","tp":"CR","ts":"2024-03-24T00:27:23Z","tX":536,"tY":331,"tags":{"capacity":"5","caravan_site":"motorhome_stopover","caravan_site:type":"river","caravans":"no","dog":"yes","internet_access":"no","name":"Wohnmobilstellplatz Loxsted-Dedesdorf","opening_hours":"Apr 1-Oct 15","picnic_area":"yes","power_supply":"yes","surface":"paving_stones","tents":"no","website":"https://www.cuxland.de/hotel/wohnmobilstellplatz-am-sportboothafen","wheelchair":"yes"}},"226229587":{"location":[53.3337483,8.4989637],"ct":"DE","tp":"CS","ts":"2022-04-14T21:30:16Z","tX":536,"tY":331,"tags":{"addr:city":"Schwanewede","addr:housenumber":"30","addr:postcode":"28790","addr:street":"Inselstraße","caravans":"no","contact:phone":"+49 4296 1393","contact:website":"https://www.zeltplatz-harriersand.de/","fee":"yes","name":"Zeltplatz Harriersand","shower":"yes","tents":"yes","toilets":"yes","wheelchair":"no"}},"253774524":{"location":[53.403463,8.5971319],"ct":"DE","tp":"CS","ts":"2023-10-31T08:36:40Z","tX":536,"tY":331,"tags":{"caravans":"no","drinking_water":"yes","fee":"yes","group_only":"yes","name":"KjG Jugendzeltplatz Langendammsmoor","openfire":"yes","phone":"+49 4744 7310100","power_supply":"yes","reservation":"required","shower":"yes","tents":"yes","toilets":"yes","website":"https://www.langendammsmoor.de/"}},"384881277":{"location":[53.4698475,8.4830396],"ct":"DE","tp":"CS","ts":"2009-04-25T18:36:12Z","tX":536,"tY":331,"tags":{"name":"Camping-Club"}},"524208128":{"location":[53.3788469,8.5054292],"ct":"DE","tp":"CS","ts":"2024-12-01T21:49:08Z","tX":536,"tY":331,"tags":{"addr:city":"Hagen im Bremischen","addr:country":"DE","addr:housenumber":"31","addr:postcode":"27628","addr:street":"Zum Weserblick","addr:suburb":"Rechtenfleth","bettundbike":"yes","caravans":"yes","email":"weserhenne@komparking.de","fee":"yes","name":"WESERHENNE","operator":"WESERHENNE® Camping","phone":"+49 4401 85 01 222","static_caravans":"yes","tents":"yes","website":"https://weserhenne.de/"}},"550092439":{"location":[53.3633352,8.5121351],"ct":"DE","tp":"CR","ts":"2024-03-24T00:30:56Z","tX":536,"tY":331,"tags":{"capacity":"10","caravan_site":"motorhome_stopover","caravan_site:type":"village","caravans":"no","charge":"10 EUR","fee":"yes","maxstay":"3 nights","name":"Wohnmobilstellplatz Sandstedt","power_supply":"yes","sanitary_dump_station":"yes","tents":"no","water_point":"yes","website":"https://www.hagen-cux.de/tourismus/camping/wohnmobilstellplatz-sandstedt/","wheelchair":"yes"}},"1173666007":{"location":[53.5195387,8.5870121],"ct":"DE","tp":"CR","ts":"2024-12-03T18:37:14Z","tX":536,"tY":331,"tags":{"capacity":"24","charge":"18 EUR","dog":"yes","facebook":"https://www.facebook.com/people/Wohnmobilhafen-am-Schaufenster-Bremerhaven/100090379046959/","fee":"yes","name":"Wohnmobilhafen am Schaufenster Bremerhaven","power_supply":"yes","sanitary_dump_station":"yes","sanitary_dump_station:chemical_toilet":"yes","sanitary_dump_station:grey_water":"yes","seasonal":"no","water_point":"yes","water_point:fee":"yes","wheelchair":"yes"}},"1212126117":{"location":[53.5284954,8.5793104],"ct":"DE","tp":"CR","ts":"2023-12-10T14:47:11Z","tX":536,"tY":331,"tags":{"addr:city":"Bremerhaven","addr:housenumber":"62","addr:postcode":"27572","addr:street":"Herwigstraße","capacity":"25","name":"Caravan-Stellplatz Havenblick","phone":"+49 471 8005018","website":"https://www.caravan-stellplatz-havenblick.de"}},"3413561101":{"location":[53.4402958,8.5932932],"ct":"DE","tp":"CR","ts":"2024-06-16T10:10:33Z","tX":536,"tY":331,"tags":{"capacity":"3","caravan_site:type":"lake","drinking_water":"no","fee":"no","name":"Wohnmobilstellplatz am Stoteler See","power_supply":"no","sanitary_dump_station":"no","toilets":"no"}},"12039487864":{"location":[53.3798861,8.5046419],"ct":"DE","tp":"CS","ts":"2024-07-07T10:19:19Z","tX":536,"tY":331,"tags":{"access":"customers","addr:city":"Hagen im Bremischen","addr:housenumber":"31","addr:postcode":"27628","addr:street":"Zum Weserblick","bettundbike":"yes","caravans":"yes","email":"weserhenne@komparking.de","fee":"yes","name":"WESERHENNE","operator":"WESERHENNE® Camping","static_caravans":"yes","tents":"yes","website":"https://weserhenne.de/"}},"12189533301":{"location":[53.4425693,8.4783332],"ct":"DE","tp":"CR","ts":"2024-09-21T07:27:01Z","tX":536,"tY":331,"tags":{"name":"Wohnmobilstellplatz Kleinensiel"}},"12189536001":{"location":[53.3996456,8.4539988],"ct":"DE","tp":"CR","ts":"2024-10-08T13:34:26Z","tX":536,"tY":331,"tags":{"check_date":"2024-10-08","internet_access":"no","name":"Wohnmobilstellplatz Rodenkirchen","power_supply":"yes","sanitary_dump_station":"yes"}},"12236453501":{"location":[53.443535,8.4847075],"ct":"DE","tp":"CR","ts":"2024-10-08T21:34:01Z","tX":536,"tY":331,"tags":{"name":"Stellplatz geduldet"}},"5454066502":{"location":[53.5319869,8.5761663],"ct":"DE","tp":"SD","ts":"2018-09-24T20:04:27Z","tX":536,"tY":331,"tags":{"water_point":"yes"}},"12243178101":{"location":[53.4422203,8.4745438],"ct":"DE","tp":"SD","ts":"2024-10-11T05:45:49Z","tX":536,"tY":331,"tags":{}}}