{"25114089":{"location":[52.0976759,8.7517148],"ct":"DE","tp":"CR","ts":"2020-12-22T16:55:51Z","tX":536,"tY":337,"tags":{"capacity":"66","contact:email":"info@staatsbad-salzuflen.de","contact:phone":"+49 5222 183183","description":"Früher Dressurreitstadion Flachsheide","fee":"yes","internet_access":"wlan","name":"Wohnmobilpark Flachsheide","operator":"Staatsbad Salzuflen GmbH","power_supply":"yes","sanitary_dump_station":"yes","water_point":"yes","website":"https://www.staatsbad-salzuflen.de/gastgeber-arrangements/wohnmobilpark-flachsheide.html"}},"26702520":{"location":[52.1082411,8.5768486],"ct":"DE","tp":"CS","ts":"2022-06-12T20:21:08Z","tX":536,"tY":337,"tags":{"addr:city":"Herford","addr:housenumber":"86","addr:postcode":"32051","addr:street":"Reitweg","email":"info@camping-elisabethsee.de","name":"Campingplatz \"Elisabeth-See\"","note":"Familienfreundlicher Campingplatz in ruhiger Lage mit Gaststätte samt Biergarten, zwei Spielplätzen, einer Bolzwiese, Grillplatz, Liegewiese, stets sauberen Sanitäreinrichtungen und sonst allem, was sich das Camperherz nur wünschen kann.","operator":"Tobias Hülsewig","phone":"+49 5221 33411","website":"https://www.camping-elisabethsee.de/"}},"27336401":{"location":[52.0776015,8.4695293],"ct":"DE","tp":"CS","ts":"2022-10-02T06:55:48Z","tX":536,"tY":337,"tags":{"name":"Campingplatz Schröttinghausen","permanent_camping":"yes"}},"96520292":{"location":[52.204098,8.7182458],"ct":"DE","tp":"CR","ts":"2024-03-24T17:56:46Z","tX":536,"tY":337,"tags":{"addr:city":"Löhne","addr:housenumber":"12","addr:postcode":"32584","addr:street":"Albert-Schweitzer-Straße","capacity":"17","fee":"yes","name":"Wohnmobilstellplatz Löhne","tents":"no"}},"215817952":{"location":[52.2668129,8.4664178],"ct":"DE","tp":"CS","ts":"2019-10-09T08:21:33Z","tX":536,"tY":337,"tags":{"landuse":"recreation_ground"}},"1008735564":{"location":[52.0760181,8.4681339],"ct":"DE","tp":"CS","ts":"2022-10-02T06:55:48Z","tX":536,"tY":337,"tags":{"name":"Campingplatz Schröttinghausen","permanent_camping":"yes"}},"1296679307":{"location":[52.1994048,8.590866],"ct":"DE","tp":"CR","ts":"2024-06-27T17:18:04Z","tX":536,"tY":337,"tags":{"capacity":"5","caravan_site":"motorhome_stopover","caravan_site:type":"town","fee":"no","maxstay":"3 days","name":"Stellplatz am Stadtgarten Bünde","power_supply":"no","sanitary_dump_station":"no","water_point":"no"}},"1296683142":{"location":[52.107258,8.6859812],"ct":"DE","tp":"CR","ts":"2024-06-27T17:33:21Z","tX":536,"tY":337,"tags":{"addr:housenumber":"93","addr:postcode":"32052","addr:street":"Wiesestraße","alt_name":"Kiewise","capacity":"22","caravan_site":"motorhome_stopover","caravan_site:type":"swimming_pool","charge":"8 EUR","description":"at H2O Herford swimming pool","fee":"yes","maxstay":"6 nights","name":"Wohnmobilstellplatz H2O Herford","opening_hours":"24/7","operator":"H2O Herford","reservation":"no","seasonal":"no","website":"https://www.h2o-herford.de/rund-ums-h2o/wohnmobilhafen"}},"2344269419":{"location":[52.2550426,8.5300448],"ct":"DE","tp":"CS","ts":"2013-06-14T10:40:05Z","tX":536,"tY":337,"tags":{}},"2432974598":{"location":[52.1033547,8.6843589],"ct":"DE","tp":"CS","ts":"2025-06-01T10:43:39Z","tX":536,"tY":337,"tags":{"addr:city":"Herford","addr:country":"DE","addr:housenumber":"6a","addr:postcode":"32052","addr:street":"Gaußstraße","contact:email":"bootshaus@hkk-herford.de","contact:phone":"+49 5221 70174","contact:website":"https://hkk-herford.de/infoseite-bootshaus/","name":"Campingplatz in der Gaußstraße 6a","operator":"Heforder Kanu Club e.V.","wheelchair":"no"}}}