{"14273534":{"location":[52.0070665,8.458305],"ct":"DE","tp":"CS","ts":"2024-07-18T16:25:17Z","tX":536,"tY":338,"tags":{"access":"customers","addr:city":"Bielefeld","addr:housenumber":"9","addr:postcode":"33649","addr:street":"Vogelweide","cabins":"yes","caravans":"yes","dog":"leashed","email":"bielefeld@meyer-zu-bentrup.de","fee":"yes","lit":"yes","loc_name":"Campingplatz Quelle","motor_vehicle":"yes","name":"Meyer zu Bentrup Camping Park","nudism":"no","openfire":"no","operator":"Meyer zu Bentrup Campingplatz GmbH","payment:cash":"yes","payment:contactless":"yes","payment:debit_cards":"yes","permanent_camping":"yes","phone":"+49-521-4592233","reservation":"recommended","static_caravan":"yes","static_caravans":"yes","tents":"yes","website":"https://camping-bielefeld.de/"}},"26171143":{"location":[51.8675362,8.6543678],"ct":"DE","tp":"CS","ts":"2021-11-28T21:01:07Z","tX":536,"tY":338,"tags":{"addr:city":"Schloß Holte-Stukenbrock","addr:country":"DE","addr:housenumber":"59a","addr:postcode":"33758","addr:street":"Am Furlbach","area":"yes","name":"Campingplatz Jägerkrug","website":"http://campingplatz-jägerkrug.com"}},"27993221":{"location":[52.0005511,8.7372315],"ct":"DE","tp":"CS","ts":"2011-10-07T15:25:12Z","tX":536,"tY":338,"tags":{}},"60172833":{"location":[51.8698357,8.6726747],"ct":"DE","tp":"CS","ts":"2022-11-26T18:42:19Z","tX":536,"tY":338,"tags":{"addr:city":"Schloß Holte-Stukenbrock","addr:housenumber":"33","addr:postcode":"33758","addr:street":"Am Furlbach","area":"yes","name":"Campingplatz am Furlbach","phone":"+49 5257 3373","website":"https://www.campingplatzamfurlbach.de/"}},"134399198":{"location":[52.0215587,8.5131629],"ct":"DE","tp":"CR","ts":"2024-06-27T17:05:48Z","tX":536,"tY":338,"tags":{"capacity":"10","caravan_site":"motorhome_stopover","caravan_site:type":"city","charge":"5 EUR","fee":"yes","maxstay":"5 days","name":"Wohnmobilstellplatz Johannisberg","operator":"Stadt Bielefeld","power_supply":"yes","sanitary_dump_station":"yes","tents":"no","water_point":"yes","website":"https://www.bielefeld.jetzt/wohnmobil"}},"155633104":{"location":[51.9327639,8.7694712],"ct":"DE","tp":"CS","ts":"2024-03-31T11:30:42Z","tX":536,"tY":338,"tags":{"addr:city":"Detmold","addr:housenumber":"55","addr:postcode":"32758","addr:street":"Quellenstraße","caravans":"yes","email":"info@campingplatz-quellental.net","internet_access":"wlan","internet_access:fee":"yes","name":"Campingplatz Quellental","operator":"Bernd + Petra Schnatmann","phone":"+49 5231 3644043","tents":"yes","website":"https://www.campingplatz-quellental.net/"}},"288035956":{"location":[51.8666357,8.6506817],"ct":"DE","tp":"CS","ts":"2024-06-12T12:38:33Z","tX":536,"tY":338,"tags":{"caravans":"no","group_only":"yes","name":"Jugendzeltplatz","tents":"yes"}},"349044023":{"location":[51.9883232,8.6023914],"ct":"DE","tp":"CS","ts":"2023-11-04T19:18:58Z","tX":536,"tY":338,"tags":{"name":"Bielefelder Verein für Familiensport & Gymnastik","nudism":"yes","website":"https://www.bvfg-bielefeld.de/"}},"368897513":{"location":[51.8705696,8.6179905],"ct":"DE","tp":"CR","ts":"2023-11-04T16:44:28Z","tX":536,"tY":338,"tags":{"addr:city":"Schloß Holte-Stukenbrock","addr:country":"DE","addr:housenumber":"27","addr:postcode":"33758","addr:street":"Liemker Straße","addr:suburb":"Liemke","capacity:caravans":"15","charge":"5 EUR","fee":"yes","maxstay":"3 days","name":"FROLI-Wohnmobilstellplatz \"Am Sennebach\"","operator":"Froli","sanitary_dump_station":"yes","shower":"no","water_point":"yes","website":"https://www.erfolgskreis-gt.de/unterkunft/detail/article/froli-wohnmobilstellplatz-am-sennebach"}},"890301882":{"location":[51.9335372,8.6600106],"ct":"DE","tp":"CR","ts":"2023-11-01T11:37:56Z","tX":536,"tY":338,"tags":{"access":"customers","fee":"no","name":"FGOE Wohnwagenstellfläche"}},"890308179":{"location":[51.9315467,8.6700268],"ct":"DE","tp":"CS","ts":"2023-09-08T07:08:38Z","tX":536,"tY":338,"tags":{"access":"customers","name":"FGOe Campingplatz Flugplatz Oerlinghausen","operator":"FGOe"}},"1084668681":{"location":[51.8561377,8.5600252],"ct":"DE","tp":"CR","ts":"2024-03-26T18:44:08Z","tX":536,"tY":338,"tags":{"capacity":"6","fee":"no","maxstay":"5 days","name":"Ostwestfalenhalle Verl","power_supply":"yes","power_supply:charge":"0.5 EUR / kWh","power_supply:fee":"yes","reservation":"no","sanitary_dump_station":"yes","sanitary_dump_station:chemical_toilet":"yes","sanitary_dump_station:grey_water":"yes","seasonal":"no","surface":"grass_paver","water_point":"yes","water_point:charge":"0.1 EUR / 10 liter","water_point:fee":"yes","website":"https://www.verl.de/freizeit-tourismus/wohnmobilstellplaetze"}},"1221016441":{"location":[51.8891108,8.5008179],"ct":"DE","tp":"CR","ts":"2024-03-26T18:44:58Z","tX":536,"tY":338,"tags":{"capacity":"4","fee":"no","maxstay":"5 days","name":"Stellplätze am Freibad Verl","power_supply":"yes","power_supply:charge":"0.5 EUR / kWh","power_supply:fee":"yes","reservation":"no","sanitary_dump_station":"yes","seasonal":"no","surface":"grass_paver","toilets":"no","water_point":"yes","water_point:charge":"0.1 EUR / 10 liter","water_point:fee":"yes","website":"https://www.verl.de/freizeit-tourismus/wohnmobilstellplaetze"}},"1239423535":{"location":[52.0072013,8.4586333],"ct":"DE","tp":"SD","ts":"2024-08-08T17:47:41Z","tX":536,"tY":338,"tags":{"access":"customers","charge":"2 EUR","description":"Ablaufmöglichkeit für fest installierte Grau- und Schwarzwassertanks incl. Unterbodenwäsche.","fee":"yes","operator":"Meyer zu Bentrup Campingpark GmbH","payment:coins":"yes","water_point":"yes"}},"1288382358":{"location":[51.9807564,8.5355501],"ct":"DE","tp":"CR","ts":"2024-05-31T14:03:38Z","tX":536,"tY":338,"tags":{"capacity":"12","caravan_site":"motorhome_stopover","caravan_site:type":"forest","charge":"14 EUR","fee":"yes","name":"Wohnmobilstellplatz Forstverwaltung Spiegelsberge","power_supply":"yes","power_supply:fee":"yes","sanitary_dump_station":"yes","water_point":"yes","water_point:fee":"yes","website":"https://www.forstverwaltung-spiegelsberge.de/wohnmobilstellplatz/"}},"1315349751":{"location":[51.9004534,8.7346008],"ct":"DE","tp":"CR","ts":"2024-11-21T20:26:43Z","tX":536,"tY":338,"tags":{"caravan_site":"motorhome_stopover","caravan_site:type":"village","caravans":"no","description":"water and power possible by previous arrangement","email":"info@gns-senne.de","fee":"no","maxstay":"3 nights","name":"Augustdorf Wohnmobilstellplatz","phone":"+49 5237 89 99 75","power_supply":"possible","seasonal":"no","tents":"no","water_point":"possible","website":"https://www.augustdorf.de/Freizeit-Tourismus/Wohnmobilstellplatz-/"}},"1315349752":{"location":[51.9004654,8.7348623],"ct":"DE","tp":"CR","ts":"2024-09-13T15:32:54Z","tX":536,"tY":338,"tags":{}},"3683603159":{"location":[52.0213154,8.5132083],"ct":"DE","tp":"SD","ts":"2022-08-06T17:29:43Z","tX":536,"tY":338,"tags":{}},"9007925617":{"location":[51.9288929,8.6789116],"ct":"DE","tp":"CS","ts":"2021-08-15T12:26:28Z","tX":536,"tY":338,"tags":{"access":"customers","name":"Senneriffa"}},"12099255711":{"location":[52.0049126,8.455888],"ct":"DE","tp":"SD","ts":"2024-08-08T17:47:41Z","tX":536,"tY":338,"tags":{}},"12099255712":{"location":[52.0079958,8.4600328],"ct":"DE","tp":"SD","ts":"2024-08-08T17:47:41Z","tX":536,"tY":338,"tags":{"fee":"no","water_point":"yes"}},"12099255713":{"location":[52.0072053,8.4586527],"ct":"DE","tp":"SD","ts":"2024-08-08T17:47:41Z","tX":536,"tY":338,"tags":{"charge":"2 EUR","description":"Camper-Clean-System für alle gängigen  Chemietoilletten-Kassetten. Automatische Entleerung, Reinigung und Befüllung mit Micro-Green-Fluid. Ablaufmöglichkeit für fest installierte Grau- und Schwarzwassertanks incl. Unterbodenwäsche.","fee":"yes","payment:coins":"yes"}}}