{"25359488":{"location":[51.7992601,8.496218],"ct":"DE","tp":"CS","ts":"2024-10-21T13:30:53Z","tX":536,"tY":339,"tags":{"addr:city":"Delbrück","addr:country":"DE","addr:housenumber":"5","addr:postcode":"33129","addr:street":"Grafhörsterweg","area":"yes","name":"Nadermanns Tierpark","permanent_camping":"only","tents":"no"}},"32923638":{"location":[51.7603338,8.6776013],"ct":"DE","tp":"CR","ts":"2025-03-03T21:50:02Z","tX":536,"tY":339,"tags":{"capacity":"15","email":"tourist-info@paderborn.de","fee":"no","internet_access":"no","name":"Reisemobilstellplatz Lippesee","operator":"Stadt Paderborn","parking":"surface","phone":"+49 5251 882980","power_supply":"no","sanitary_dump_station":"no","tents":"no","water_point":"no","website":"https://www.paderborn.de/wohnmobile","wheelchair":"yes"}},"33294089":{"location":[51.7626179,8.6870669],"ct":"DE","tp":"CS","ts":"2021-12-02T12:09:19Z","tX":536,"tY":339,"tags":{"addr:city":"Paderborn","addr:country":"DE","addr:housenumber":"165","addr:postcode":"33106","addr:street":"Hermann-Löns-Straße","name":"Camping am Lippesee","url":"http://www.lippesee-camping.de","wheelchair":"limited"}},"42412180":{"location":[51.7607273,8.6895944],"ct":"DE","tp":"CS","ts":"2021-07-15T12:52:46Z","tX":536,"tY":339,"tags":{"addr:city":"Paderborn","addr:country":"DE","addr:housenumber":"167","addr:postcode":"33106","addr:street":"Hermann-Löns-Straße","barrier":"fence","caravans":"no","fence_type":"metal","group_only":"yes","name":"Jugendzeltplatz Lippesee","tents":"yes","wheelchair":"no"}},"42569982":{"location":[51.6691823,8.6013304],"ct":"DE","tp":"PK","ts":"2020-12-15T12:30:43Z","tX":536,"tY":339,"tags":{"caravans":"yes","fee":"no","lit":"yes","parking":"surface","surface":"paving_stones"}},"74376720":{"location":[51.7409772,8.4929219],"ct":"DE","tp":"CS","ts":"2024-10-21T17:48:17Z","tX":536,"tY":339,"tags":{"landuse":"recreation_ground","name":"Campingplatz Bullenranch","permanent_camping":"only","website":"https://www.campingplatz-bullenranch.de/"}},"118490732":{"location":[51.7993694,8.676414],"ct":"DE","tp":"CS","ts":"2025-03-12T08:12:02Z","tX":536,"tY":339,"tags":{"access":"customers","backcountry":"no","email":"info@camping-apelhof.de","fax":"+49 5257935864","fee":"yes","internet_access":"wlan","name":"Apelhof","payment:cash":"yes","phone":"+49 52572232","reservation":"recommended","shower":"yes","toilets":"yes","website":"https://www.camping-apelhof.de/"}},"182080982":{"location":[51.7657038,8.7472526],"ct":"DE","tp":"CS","ts":"2023-09-11T21:34:34Z","tX":536,"tY":339,"tags":{"addr:city":"Paderborn","addr:country":"DE","addr:housenumber":"130","addr:postcode":"33104","addr:street":"Husarenstraße","addr:suburb":"Schloß Neuhaus","email":"camping@am-waldsee.de","fax":"+49 5254 3583","name":"Am Waldsee","phone":"+49 5254 7372","website":"https://www.am-waldsee.de/"}},"218990857":{"location":[51.7211926,8.5228026],"ct":"DE","tp":"CS","ts":"2019-12-29T19:59:11Z","tX":536,"tY":339,"tags":{"addr:city":"Delbrück","addr:country":"DE","addr:housenumber":"6","addr:postcode":"33129","addr:street":"Hudeweg","addr:suburb":"Boke","email":"campingplatz-boker-seenplatte@t-online.de","name":"Boker Seenplatte","phone":"+49 5250 7702","tents":"yes"}},"252695159":{"location":[51.6866122,8.7739491],"ct":"DE","tp":"CS","ts":"2025-01-31T09:38:37Z","tX":536,"tY":339,"tags":{"access":"private","name":"Haxterberg Campingplatz","operator":"https://lsg-paderborn.de/"}},"496424851":{"location":[51.8248784,8.6605192],"ct":"DE","tp":"CR","ts":"2024-06-27T17:38:28Z","tX":536,"tY":339,"tags":{"capacity":"6","caravan_site":"motorhome_stopover","caravan_site:type":"town","fee":"no","name":"Wohnmobilplatz Hövelhof","operator":"Verkehrsverein Hövelhof e.V","phone":"+49 5257 5009215","power_supply":"yes"}},"690443642":{"location":[51.7702125,8.5541932],"ct":"DE","tp":"CR","ts":"2024-06-03T12:02:22Z","tX":536,"tY":339,"tags":{"capacity":"8","caravan_site":"motorhome_stopover","caravan_site:type":"swimming_pool","caravans":"no","dog":"no","fee":"yes","name":"Wohnmobilstellplatz Hallenbad Delbrück","operator":"Stadt Delbrück","power_supply":"yes","surface":"gravel","tents":"no","toilets":"yes","website":"https://www.stadt-delbrueck.de/de/tourismus/uebernachtungsmoeglichkeiten/wohnmobilstellplatz.php"}},"1031851834":{"location":[51.7508212,8.6784436],"ct":"DE","tp":"CR","ts":"2023-10-21T12:31:35Z","tX":536,"tY":339,"tags":{"landuse":"grass","name":"Wiese mit Seeblick","operator":"Alpaca Camping","surface":"grass","toilets":"yes","website":"https://www.alpacacamping.de/properties/7667"}},"1289069968":{"location":[51.7281378,8.7457129],"ct":"DE","tp":"CR","ts":"2024-06-03T08:34:14Z","tX":536,"tY":339,"tags":{"capacity":"16","caravan_site":"motorhome_stopover","caravan_site:type":"parking_lot;city","charge":"8 EUR","fee":"yes","internet_access":"wlan","internet_access:fee":"no","internet_access:ssid":"Wohnmobile PB","name":"Wohnmobil-Stellplatz am Rolandsbad","power_supply":"yes","power_supply:charge":"0.50 EUR/kWh","power_supply:fee":"yes","sanitary_dump_station":"yes","surface":"asphalt","tents":"no","water_point":"yes","water_point:charge":"0.50 EUR/60 liter","water_point:fee":"yes","website":"https://www.paderborn.de/wohnmobile"}},"1879962127":{"location":[51.7227513,8.7549167],"ct":"DE","tp":"CR","ts":"2024-11-20T20:20:47Z","tX":536,"tY":339,"tags":{"capacity":"7","caravan_site":"motorhome_stopover","caravan_site:type":"parking_lot;city","charge":"7.50 EUR","drinking_water":"no","email":"tourist-info@paderborn.de","fee":"yes","name":"Reisemobilstellplatz Maspernplatz","opening_hours":"24/7","operator":"Stadt Paderborn","phone":"+49 5251 882980","power_supply":"yes","power_supply:charge":"0.50 EUR/kWh","power_supply:fee":"yes","sanitary_dump_station":"no","seasonal":"no","tents":"no","toilets":"no","website":"https://www.paderborn.de/wohnmobile"}},"2626434439":{"location":[51.7284585,8.7454468],"ct":"DE","tp":"SD","ts":"2021-09-11T18:55:34Z","tX":536,"tY":339,"tags":{"access":"yes","fee":"no","sanitary_dump_station:accepted":"black_water","water_point":"yes"}},"2962217685":{"location":[51.656624,8.7223733],"ct":"DE","tp":"CR","ts":"2024-06-13T09:12:33Z","tX":536,"tY":339,"tags":{"capacity":"2","name":"Wohnmobilstellplatz Borchen","operator":"Gemeinde Borchen","power_supply":"yes","wheelchair":"limited"}},"2962231526":{"location":[51.6739284,8.6139941],"ct":"DE","tp":"CR","ts":"2015-11-09T11:17:58Z","tX":536,"tY":339,"tags":{"capacity":"2","name":"Wohnmobilstellplatz Salzkotten","operator":"Stadtverwaltung Salzkotten, Tourismus- und Stadtmarketing","power_supply":"no"}},"4823462222":{"location":[51.7322741,8.736335],"ct":"DE","tp":"CR","ts":"2024-11-21T17:29:06Z","tX":536,"tY":339,"tags":{"capacity":"3","fee":"no","internet_access":"no","name":"Wohnmobil-Stellplatz Heinz Nixdorf MuseumsForum","note":"WLAN im Heiz Nixdorf MuseumsForum","power_supply":"no","sanitary_dump_station":"no","toilets":"no","water_point":"no","website":"https://www.paderborn.de/wohnmobile","wheelchair":"yes"}},"11953413234":{"location":[51.765,8.7533333],"ct":"DE","tp":"CR","ts":"2024-06-03T08:34:14Z","tX":536,"tY":339,"tags":{"capacity":"3","caravan_site":"motorhome_stopover","caravan_site:type":"nature","charge":"18 EUR","fee":"yes","name":"Wohnmobilstellplatz Reitstall Thiele","power_supply":"yes","power_supply:fee":"no","sanitary_dump_station":"yes","toilets":"yes","water_point":"yes","water_point:fee":"no"}},"6477680513":{"location":[51.7702541,8.5540058],"ct":"DE","tp":"SD","ts":"2019-05-16T10:45:56Z","tX":536,"tY":339,"tags":{}},"7736061889":{"location":[51.6738626,8.6137278],"ct":"DE","tp":"SD","ts":"2020-07-22T07:30:19Z","tX":536,"tY":339,"tags":{}}}