{"23228190":{"location":[50.565405,8.6154259],"ct":"DE","tp":"CS","ts":"2024-05-19T17:20:02Z","tX":536,"tY":344,"tags":{"name":"Campingplatz Dutenhofen","website":"https://www.dutenhofenersee.com/campingplatz.html"}},"43119091":{"location":[50.6137119,8.6789711],"ct":"DE","tp":"CS","ts":"2009-10-25T15:32:44Z","tX":536,"tY":344,"tags":{}},"94127430":{"location":[50.6293647,8.688925],"ct":"DE","tp":"CS","ts":"2022-02-23T09:31:42Z","tX":536,"tY":344,"tags":{"contact:mobile":"+49 175 1162262","contact:website":"https://www.paddelclub-wissmar.de/Camping","name":"Paddelclub Wißmar","source":"https://www.paddelclub-wissmar.de/Camping","source:date":"2018-05-08"}},"195434375":{"location":[50.6392195,8.530459],"ct":"DE","tp":"CS","ts":"2024-02-12T09:23:55Z","tX":536,"tY":344,"tags":{"addr:city":"Biebertal","addr:housenumber":"1A","addr:postcode":"35444","addr:street":"Am Eckartsrot","name":"Camping- und Caravan Club Königsberg e.V.","phone":"+4915233629541"}},"212382501":{"location":[50.6587325,8.711336],"ct":"DE","tp":"CS","ts":"2024-08-10T08:00:56Z","tX":536,"tY":344,"tags":{"caravans":"yes","drinking_water":"yes","internet_access":"no","name":"Lahnblick","power_supply":"yes","shower":"yes","tents":"yes","wheelchair":"limited"}},"257998693":{"location":[50.6865468,8.6244903],"ct":"DE","tp":"CS","ts":"2015-08-12T21:05:03Z","tX":536,"tY":344,"tags":{"access":"private","barrier":"fence","name":"Campingplatz Kirchvers","operator":"Camingfreunde Kirchvers e.V.","website":"http://www.kirchvers.de/campingfreunde-kirchvers.html"}},"258466866":{"location":[50.6844395,8.6253468],"ct":"DE","tp":"CS","ts":"2022-12-05T14:50:44Z","tX":536,"tY":344,"tags":{"access":"private","caravans":"no","group_only":"yes","name":"Feriencamp Kirchvers","operator":"Bezirksamt Charlottenburg-Wilmersdorf von Berlin"}},"293558362":{"location":[50.6417658,8.693048],"ct":"DE","tp":"CS","ts":"2023-05-12T18:24:43Z","tX":536,"tY":344,"tags":{"addr:street":"Wißmarer See","addr:suburb":"Wißmar","caravans":"yes","email":"kontakt@wissmarer-see.com","name":"Camping Wißmarer See","phone":"+49 6406 75697","source":"http://www.wissmarer-see.de/","source:date":"2018-05-08","tents":"yes","website":"http://www.wissmarer-see.de/","wheelchair":"limited"}},"403177099":{"location":[50.687201,8.6209651],"ct":"DE","tp":"CS","ts":"2019-08-25T10:10:56Z","tX":536,"tY":344,"tags":{"caravans":"no","group_only":"yes","name":"Hessische Landesjugendfeuerwehr","tents":"yes"}},"476477592":{"location":[50.5725878,8.5092219],"ct":"DE","tp":"CS","ts":"2022-11-15T11:54:12Z","tX":536,"tY":344,"tags":{"access":"customers","addr:city":"Wetzlar","addr:country":"DE","addr:housenumber":"52","addr:postcode":"35576","addr:street":"Dammstraße","addr:suburb":"Niedergirmes","biergarten":"yes","email":"info@campingplatz-wetzlar.de","fax":"+49 6441 34103","fee":"yes","internet_access":"wlan","name":"Campingplatz Wetzlar","opening_hours":"Mar-Oct: 08:00-13:00,15:00-19:00","operator":"PG-Touristik Göbel GbR","payment:cash":"yes","phone":"+49 6441 34103","reservation":"recommended","sanitary_dump_station":"yes","website":"https://www.campingplatz-wetzlar.de"}},"734145800":{"location":[50.5547934,8.4976183],"ct":"DE","tp":"CR","ts":"2024-03-14T17:42:53Z","tX":536,"tY":344,"tags":{"capacity":"5","charge":"8 EUR/24 hours","contact:phone":"+49 6441 997755","fee":"yes","internet_access":"no","maxstay":"3 days","name":"Wohnmobilstellplatz Lahninsel","operator":"Stadt Wetzlar","power_supply":"yes","sanitary_dump_station":"yes","toilets":"no","water_point":"yes","website":"https://www.wetzlar.de/tourismus/planen-und-buchen/campingundwohnmobil.php#c1","wheelchair":"yes"}},"844067408":{"location":[50.5565131,8.4912214],"ct":"DE","tp":"CR","ts":"2024-04-03T22:41:04Z","tX":536,"tY":344,"tags":{"addr:city":"Wetzlar","addr:postcode":"35576","addr:street":"Falkenstraße","bakery_service":"yes","capacity":"21","capacity:caravans":"21","charge":"11 EUR","description":"Ganzjährig geöffnet - Erweiterung des Platzes in 2022","email":"info@goethe-camping.com","fee":"yes","internet_access":"no","name":"Goethe Falkenstraße","opening_hours":"24/7","opening_hours:reception":"Apr-Sep 08:00-08:30, 18:00-18:30; Oct-Mar 16:00-16:30","phone":"+49 6441 2086086","power_supply":"cee_17_blue","power_supply:charge":"4 EUR","power_supply:fee":"yes","power_supply:maxcurrent":"16","sanitary_dump_station":"yes","surface":"fine_gravel","water_point":"seasonal","website":"https://goethe-camping.com/"}},"1063227517":{"location":[50.5517316,8.4820518],"ct":"DE","tp":"CS","ts":"2023-12-19T20:48:29Z","tX":536,"tY":344,"tags":{"addr:city":"Wetzlar","addr:housenumber":"3","addr:postcode":"35578","addr:street":"Eiserne Hand","capacity:persons":"100","charge":"9 EUR","dog":"yes","email":"info@zeltplatz-wetzlar.com","fee":"yes","name":"Goethe Camping Zeltplatz Wetzlar","openfire":"yes","operator":"Rauszeit GmbH","payment:cash":"yes","payment:contactless":"yes","payment:debit_cards":"yes","phone":"+49 6441 2086084","power_supply":"yes","shower":"yes","toilets":"yes","website":"https://zeltplatz-wetzlar.com"}},"1068119366":{"location":[50.5526326,8.4906341],"ct":"DE","tp":"CR","ts":"2024-12-01T16:27:55Z","tX":536,"tY":344,"tags":{"addr:city":"Wetzlar","addr:postcode":"35576","addr:street":"Dillufer","bakery_service":"yes","capacity:caravans":"60","charge":"8 EUR","email":"info@goethe-camping.com","fee":"yes","internet_access":"no","name":"Goethe Camping Bachweide","operator":"Rauszeit GmbH","phone":"+49 6441 2086086","power_supply":"no","sanitary_dump_station":"no","seasonal":"no","surface":"asphalt","website":"https://goethe-camping.com/"}},"3060530413":{"location":[50.6072833,8.6692563],"ct":"DE","tp":"CS","ts":"2023-11-05T21:02:26Z","tX":536,"tY":344,"tags":{"addr:housenumber":"203","addr:street":"Uferweg","name":"Männerbadeverein Gießen","phone":"+49 172 6665168","website":"https://www.maennerbadeverein.de/"}},"5441859179":{"location":[50.7019315,8.4675783],"ct":"DE","tp":"CR","ts":"2024-08-03T16:13:38Z","tX":536,"tY":344,"tags":{"capacity":"10","caravan_site":"motorhome_stopover","caravan_site:type":"lake","charge":"10 EUR","dog":"yes","fee":"yes","name":"Wohnmobilstellplatz am Aartalsee Bischoffen","power_supply":"yes","power_supply:charge":"2 EUR/2 kWh","power_supply:fee":"yes","tents":"no","water_point":"yes","water_point:charge":"2 EUR/80 liter","water_point:fee":"yes","website":"https://www.bischoffen.de/tourismus-freizeit/die-aartalsperre/wohnmobilstellplatz/"}},"8272241114":{"location":[50.5880657,8.4579485],"ct":"DE","tp":"CR","ts":"2024-12-18T22:44:15Z","tX":536,"tY":344,"tags":{"addr:city":"Aßlar","addr:postcode":"35614","addr:street":"Mühlgrabenstraße","caravan_site":"motorhome_stopover","caravan_site:type":"parking_lot","fee":"no","name":"Wohnmobilstellplatz Aßlar","phone":"+49 6441 8030","sanitary_dump_station":"no","water_point":"no","website":"https://www.asslar.de/"}},"9772601784":{"location":[50.5893751,8.6837774],"ct":"DE","tp":"CR","ts":"2024-08-03T23:17:34Z","tX":536,"tY":344,"tags":{"capacity":"5","caravan_site":"motorhome_stopover","caravan_site:type":"swimming_pool","fee":"no","name":"Wohnmobilstellplatz am Freibad Ringallee","operator":"Stadt Gießen","power_supply":"yes","sanitary_dump_station":"no","seasonal":"no","website":"https://www.giessen.de/Erleben/Tourismus/%C3%9Cbernachten/Campingpl%C3%A4tze-und-Wohnmobile/index.php?object=tx,2874.1&ModID=9&FID=1894.10022.1&NavID=1894.261&La=1"}},"12091689101":{"location":[50.5545982,8.5328606],"ct":"DE","tp":"CR","ts":"2024-08-04T10:50:18Z","tX":536,"tY":344,"tags":{"capacity":"4","caravan_site":"motorhome_stopover","caravan_site:type":"town","fee":"no","name":"Wohnmobilstellplatz am Leitz-Park","opening_hours":"24/7","seasonal":"no","website":"https://www.wetzlar.de/tourismus/planen-und-buchen/campingundwohnmobil.php#c15"}},"12092144116":{"location":[50.6211252,8.5894391],"ct":"DE","tp":"CR","ts":"2024-08-04T17:00:42Z","tX":536,"tY":344,"tags":{"capacity":"4","caravan_site":"motorhome_stopover","caravan_site:type":"swimming_pool","fee":"no","name":"Wohnmobilstellplatz Dünsbergblick am Hallenbad","opening_hours":"24/7","power_supply":"yes","power_supply:capacity":"4","power_supply:charge":"1 EUR/2 kWh","power_supply:fee":"yes","sanitary_dump_station":"no","seasonal":"no","socket:cee_blue":"yes"}},"6875202533":{"location":[50.5549808,8.4983084],"ct":"DE","tp":"SD","ts":"2019-10-13T11:58:32Z","tX":536,"tY":344,"tags":{"access":"yes","fee":"no","opening_hours":"24/7","sanitary_dump_station:round_drain":"yes"}},"7873697812":{"location":[50.5567391,8.491065],"ct":"DE","tp":"SD","ts":"2020-09-03T20:50:00Z","tX":536,"tY":344,"tags":{}}}