{"17178739":{"location":[50.1382945,8.782815],"ct":"DE","tp":"CS","ts":"2024-02-09T15:33:44Z","tX":536,"tY":346,"tags":{"addr:city":"Maintal","addr:housenumber":"107","addr:postcode":"63477","addr:street":"Frankfurter Landstraße","caravans":"yes","name":"Campingplatz Mainkur","permanent_camping":"yes","tents":"yes","website":"https://campingplatz-mainkur.de/"}},"19595758":{"location":[50.1264081,8.7716135],"ct":"DE","tp":"CS","ts":"2024-10-03T11:22:07Z","tX":536,"tY":346,"tags":{"caravans":"yes","contact:email":"campingplatz.buergel@web.de","contact:phone":"+49 69 862949","name":"Campingplatz Offenbach-Bürgel","opening_hours":"08:00-13:00,15:00-18:00","tents":"yes","website":"https://campingplatz-offenbach.com/"}},"1287820391":{"location":[50.2331135,8.4589851],"ct":"DE","tp":"CR","ts":"2024-05-29T22:17:02Z","tX":536,"tY":346,"tags":{"description":"2 Stellplätze, kein Strom keine V+E, 12 € / 24 h, Toilette 1 € im Feldberghaus. Anmeldung Online erforderlich","name":"Stellplatz Großer Feldberg","website":"https://www.schmitten.de/freibad"}},"5827419039":{"location":[50.209809,8.6334407],"ct":"DE","tp":"CR","ts":"2022-09-05T17:05:29Z","tX":536,"tY":346,"tags":{"capacity":"5","contact:email":"lindenhof.riess@web.de","contact:phone":"+49 6172 43283","fee":"yes","name":"Lindenhof","object:city":"Bad Homburg v.d. Höhe","object:country":"DE","object:housenumber":"152","object:postcode":"61352","object:street":"Jakob-Lengfelder-Straße","power_supply":"yes","sanitary_dump_station":"yes","water_point":"yes","website":"https://taunus.info/uebernachten/camping/wohnmobilstellplatz-bad-homburg-am-lindenhof/558/"}},"9048209174":{"location":[50.2144567,8.5348145],"ct":"DE","tp":"CR","ts":"2024-02-19T21:36:44Z","tX":536,"tY":346,"tags":{"capacity":"5","fee":"no"}}}