{"5639056":{"location":[49.943624,8.6044701],"ct":"DE","tp":"CS","ts":"2024-10-13T20:43:12Z","tX":536,"tY":347,"tags":{"barrier":"fence","caravans":"yes","drinking_water":"yes","email":"rezeption.koehres@t-online.de","fax":"+49 6150 591345","name":"Campingplatz am Steinrodsee","phone":"+49 6150 53593","power_supply":"yes","sanitary_dump_station":"yes","shower":"yes","tents":"yes","toilets":"yes","website":"https://www.camping-steinrodsee.de/","wheelchair":"limited"}},"10553756":{"location":[49.9789716,8.5949808],"ct":"DE","tp":"CS","ts":"2020-01-07T12:30:03Z","tX":536,"tY":347,"tags":{"caravans":"yes","internet_access":"wlan","name":"Campingplatz Mörfelden","permanent_camping":"yes","stars":"4","tents":"yes","website":"https://www.campingplatz-moerfelden.de/"}},"14444286":{"location":[49.9121852,8.6287086],"ct":"DE","tp":"CS","ts":"2022-08-10T02:33:49Z","tX":536,"tY":347,"tags":{"access":"private","addr:city":"Darmstadt","addr:housenumber":"50","addr:postcode":"64291","addr:street":"Weiterstädter Landstr","email":"info@orplid-darmstadt.de","internet_access":"yes","name":"Vereinsgelände für Sport und Naturismus ORPLID-Darmstadt e. V.","naturism":"yes","nudism":"yes","operator":"ORPLID-Darmstadt e. V., Verein für Sport und Naturismus","phone":"+49 6151 372600","website":"https://www.orplid-darmstadt.de/"}},"24027261":{"location":[50.0191423,8.6230028],"ct":"DE","tp":"CR","ts":"2020-01-07T12:10:22Z","tX":536,"tY":347,"tags":{"access":"customers","fee":"yes","parking":"surface","power_supply":"no","surface":"ground","website":"https://www.langen.de/de/zeltplatz.html"}},"24498843":{"location":[50.018813,8.6223306],"ct":"DE","tp":"CS","ts":"2024-12-28T20:39:54Z","tX":536,"tY":347,"tags":{"caravans":"no","name":"Zeltplatz am Langener Waldsee","phone":"+4969692688","power_supply":"no","reservation":"no","tents":"yes","website":"https://www.langen.de/de/camping.html"}},"27182471":{"location":[49.9858059,8.7580521],"ct":"DE","tp":"CS","ts":"2025-01-03T14:56:54Z","tX":536,"tY":347,"tags":{"addr:city":"Dreieich","addr:country":"DE","addr:housenumber":"77","addr:postcode":"63303","addr:street":"Bahnhofstraße","addr:suburb":"Offenthal","camp_site":"reception","caravans":"yes","contact:email":"info@campingplatz-dreieich.de","contact:fax":"+49 6074 629133","contact:mobile":"+49 172 4891094","contact:phone":"+49 6074 5629","fee":"yes","name":"Campingplatz Dreieich-Offenthal","operator":"Familie Schönweitz","power_supply":"yes","sanitary_dump_station":"yes","tents":"yes","water_point":"yes","website":"https://www.campingplatz-dreieich.de/"}},"28235232":{"location":[49.9452512,8.473819],"ct":"DE","tp":"CS","ts":"2021-06-30T13:39:03Z","tX":536,"tY":347,"tags":{"name":"Campingplatz am Niederwaldsee"}},"28235258":{"location":[49.9500323,8.4718483],"ct":"DE","tp":"CS","ts":"2023-11-02T04:06:25Z","tX":536,"tY":347,"tags":{"addr:city":"Nauheim","addr:country":"DE","addr:housenumber":"2","addr:postcode":"64569","addr:street":"Seeweg","name":"Campingplatz Nauheim","opening_hours":"Mo-Su 11:00-13:00,15:00-19:00","phone":"+49 176 60494430","website":"https://www.campingplatznauheim.de/"}},"33426686":{"location":[50.0133809,8.5737458],"ct":"DE","tp":"CS","ts":"2024-02-25T18:26:30Z","tX":536,"tY":347,"tags":{"addr:city":"Mörfelden-Walldorf","addr:housenumber":"4","addr:postcode":"64546","addr:street":"Am Gundhof","backcountry":"no","caravans":"yes","fee":"yes","name":"Waldcamping Frankfurt","nudism":"no","operator":"CampInn GmbH","phone":"+49 6105 76722","tents":"yes","website":"https://www.waldcamping-frankfurt.de/","wheelchair":"no"}},"40006569":{"location":[49.980494,8.7774117],"ct":"DE","tp":"CS","ts":"2024-07-29T05:38:58Z","tX":536,"tY":347,"tags":{"addr:city":"Rödermark","addr:housenumber":"20","addr:postcode":"63322","addr:street":"Bulauweg","caravans":"yes","name":"Zeltwiese Naturfreunde Urberach","operator":"Naturfreunde Urberach","tents":"yes"}},"176321948":{"location":[50.0582571,8.728059],"ct":"DE","tp":"CS","ts":"2023-06-12T18:14:47Z","tX":536,"tY":347,"tags":{"access":"private","description":"Orplid Familiensportverein-Vereinsgelände (nicht öffentlich zugänglich) mit Campingdauerstellplätzen und diversen Sporteinrichtungen inklusive Badesee","leisure":"park","name":"Orplid Frankfurt","name:wikipedia":"de:Orplid","nudism":"obligatory","sport":"multi","website":"https://www.orplid-frankfurt.de"}},"183657421":{"location":[49.9443919,8.5523947],"ct":"DE","tp":"CS","ts":"2021-06-16T19:43:48Z","tX":536,"tY":347,"tags":{"name":"Camping Jurecek"}},"332751409":{"location":[49.9786247,8.5986807],"ct":"DE","tp":"CS","ts":"2023-11-02T04:14:50Z","tX":536,"tY":347,"tags":{"addr:city":"Mörfelden-Walldorf","addr:housenumber":"10a","addr:postcode":"64546","addr:street":"Am Zeltplatz","camp_site":"serviced","name":"Campingplatz der Naturfreunde","operator":"NaturFreunde Mörfelden-Walldorf","phone":"+49 6105 33571","website":"https://www.naturfreunde-moerfelden-walldorf.de/camping/"}},"711822925":{"location":[49.980885,8.778199],"ct":"DE","tp":"CS","ts":"2021-02-10T16:14:29Z","tX":536,"tY":347,"tags":{"addr:city":"Rödermark","addr:housenumber":"20","addr:postcode":"63322","addr:street":"Bulauweg","name":"Campingplatz Bulau","operator":"Naturfreunde Urberach"}},"739544749":{"location":[49.9388437,8.7379903],"ct":"DE","tp":"CR","ts":"2024-12-29T20:49:18Z","tX":536,"tY":347,"tags":{"capacity":"6","caravan_site":"motorhome_stopover","caravan_site:type":"sports_centre","fee":"no","internet_access":"no","name":"Wohnmobilstellplatz Messel","opening_hours":"24/7","power_supply":"cee_17_blue","sanitary_dump_station":"yes","surface":"paving_stones","water_point":"yes","website":"https://messel.de/freizeit-und-familie/wohnmobilstellplaetze.html"}},"7121849039":{"location":[49.9393166,8.7381578],"ct":"DE","tp":"SD","ts":"2020-01-10T10:16:49Z","tX":536,"tY":347,"tags":{"access":"yes","description":"Wegen Pollern kann der Bodeneinlass nicht befahren werden, ein Schlauch oder Kanister ist nötig.","fee":"no","opening_hours":"24/7","operator":"Gemeinde Messel"}},"7169930208":{"location":[49.9783002,8.5987128],"ct":"DE","tp":"SD","ts":"2020-01-29T17:49:27Z","tX":536,"tY":347,"tags":{"access":"customers","source":"Esri Luftbilder"}},"7169982854":{"location":[49.9790471,8.5941873],"ct":"DE","tp":"SD","ts":"2020-01-29T17:50:54Z","tX":536,"tY":347,"tags":{"access":"customers","source":"Esri Luftbilder"}},"12459522934":{"location":[50.0183514,8.6234656],"ct":"DE","tp":"CR","ts":"2024-12-28T20:39:54Z","tX":536,"tY":347,"tags":{"capacity":"12","caravan_site":"motorhome_stopover","caravan_site:type":"beach","charge":"17 EUR","fee":"yes","name":"Strandbad Langener Waldsee","power_supply":"no","sanitary_dump_station":"no","water_point":"no","website":"https://www.langen.de/de/camping.html"}}}