{"25557079":{"location":[49.6848724,8.6690229],"ct":"DE","tp":"CS","ts":"2025-02-22T07:32:22Z","tX":536,"tY":348,"tags":{"addr:city":"Bensheim","addr:country":"DE","addr:housenumber":"12","addr:postcode":"64625","addr:street":"Hintenausweg","addr:suburb":"Gronau","name":"Oase der Ruhe","phone":"+49 6251 61138","website":"https://www.camping-bergstrasse.de/"}},"34625605":{"location":[49.6829396,8.771309],"ct":"DE","tp":"CS","ts":"2025-03-06T17:53:49Z","tX":536,"tY":348,"tags":{"contact:website":"www.Terrassencamping-Schlierbach.de","name":"Terassen-Camping Schlierbach","wheelchair":"yes"}},"62080368":{"location":[49.7771499,8.7303641],"ct":"DE","tp":"CS","ts":"2020-01-02T16:23:03Z","tX":536,"tY":348,"tags":{"FIXME":"Ist das wirklich ein Zeltplatz? Die Webseite gibt nichts dergleichen her.","barrier":"fence","caravans":"no","group_only":"yes","name":"Freizeit- und Bildungsstätte Kreisjugendheim Ernsthofen","tents":"yes","website":"http://www.kjh-ernsthofen.de/"}},"161201321":{"location":[49.660078,8.7840866],"ct":"DE","tp":"CS","ts":"2024-06-28T22:01:16Z","tX":536,"tY":348,"tags":{"addr:city":"Fürth","addr:country":"DE","addr:housenumber":"20","addr:postcode":"64658","addr:street":"Tiefertswinkel","alt_name":"Camping Fürth","capacity:pitches":"130","caravans":"yes","dog":"no","email":"info@camping-fuerth.de","internet_access":"wlan","internet_access:fee":"no","name":"Nibelungen-Camping","operator":"Petra Jünger & Jens Hörr GbR","phone":"+49 6253 5804","power_supply":"yes","shower":"hot","tents":"yes","toilets":"yes","website":"https://www.camping-fuerth.de/"}},"165539847":{"location":[49.8209332,8.4779146],"ct":"DE","tp":"CS","ts":"2023-11-07T14:12:18Z","tX":536,"tY":348,"tags":{"email":"info@tsv-pfungstadt-paddelabteilung.de","name":"TSV Pfungstadt - Paddelabteilung","phone":"+49 6158 83522","website":"https://www.tsv-pfungstadt-paddelabteilung.de/"}},"319741832":{"location":[49.6521884,8.5795284],"ct":"DE","tp":"CR","ts":"2025-02-15T11:11:11Z","tX":536,"tY":348,"tags":{"capacity":"16","caravan_site":"motorhome_stopover","caravan_site:type":"town","caravans":"no","charge":"10 EUR","dog":"yes","fee":"yes","hgv":"no","lit":"yes","maxstay":"5 days","name":"Wohnmobilstellplatz Karolingerstadt Lorsch","operator":"Magistrat der Stadt Lorsch","owner":"Stadt Lorsch","parking":"surface","phone":"+49 6251 5967-0;+49 6251 175260","power_supply":"yes","reservation":"no","sanitary_dump_station":"yes","tents":"no","toilets:wheelchair":"no","water_point":"yes","website":"https://lorsch.de/de/tourismus/wohnmobilstellplatz.php"}},"370139674":{"location":[49.6431371,8.6253249],"ct":"DE","tp":"CR","ts":"2020-07-13T02:18:26Z","tX":536,"tY":348,"tags":{"description:de":"Parkhinweis: 3 Übernachtungen / in Reihe parken. Unberechtigt parkende Fahrzeuge werden kostenpflichtig abgeschleppt!","information":"board","name":"Stellplätze Wohmobil"}},"452420305":{"location":[49.7682386,8.4383637],"ct":"DE","tp":"CS","ts":"2017-10-29T20:34:35Z","tX":536,"tY":348,"tags":{"access":"private","name":"DauerCamping Rheinblick","operator":"DauerCampinggemeinschaft Rheinblick e.V.","tents":"no"}},"712235250":{"location":[49.6859527,8.7733873],"ct":"DE","tp":"CS","ts":"2023-11-05T02:11:27Z","tX":536,"tY":348,"tags":{"name":"Jugendzeltplatz Matterloch","operator":"Stadt Lindenfels","source":"local knowledge","website":"https://www.lindenfels.de/"}},"798116143":{"location":[49.6454916,8.7016147],"ct":"DE","tp":"CS","ts":"2024-08-02T13:03:42Z","tX":536,"tY":348,"tags":{"barrier":"fence","capacity":"2","name":"Naturist Nus Mannheim","nudism":"yes","website":"https://nusf-mannheim.de/"}},"2743709609":{"location":[49.737119,8.6850017],"ct":"DE","tp":"CR","ts":"2024-12-29T21:01:58Z","tX":536,"tY":348,"tags":{"capacity":"6","caravan_site":"motorhome_stopover","caravan_site:type":"restaurant","charge":"15.00 EUR/1 day","contact:email":"info@kuralpe.de","contact:phone":"+49 6254 9515-0","fee":"yes","internet_access":"no","name":"Kuralpe Kreuzhof","power_supply":"yes","sanitary_dump_station":"no","water_point":"yes","website":"https://www.kuralpe.de/index.php?id=15"}},"3250018961":{"location":[49.6803229,8.7833251],"ct":"DE","tp":"CR","ts":"2024-12-29T20:55:44Z","tX":536,"tY":348,"tags":{"addr:city":"Lindenfels","addr:housenumber":"34","addr:postcode":"64678","addr:street":"Kappstraße","capacity":"10","caravan_site":"motorhome_stopover","caravan_site:type":"town","charge":"10 EUR","fee":"yes","maxstay":"3 days","name":"Wohnmobilstellplatz Lindenfels Kappstraße","power_supply":"yes","power_supply:charge":"1.50 EUR/1.5 KWh","power_supply:fee":"yes","water_point":"yes","water_point:fee":"no","website":"http://www.lindenfels.info/tourismus/touristische-angebote/wohnmobilstellplatz/"}},"3250018962":{"location":[49.6804578,8.7832609],"ct":"DE","tp":"SD","ts":"2015-04-29T01:02:05Z","tX":536,"tY":348,"tags":{"sanitary_dump_station:accepted":"black_water;grey_water;tank_chemicals","water_point":"yes"}},"3612032520":{"location":[49.6520632,8.5787689],"ct":"DE","tp":"SD","ts":"2021-09-23T08:25:54Z","tX":536,"tY":348,"tags":{"fee":"no","sanitary_dump_station:chemical_toilet":"yes","sanitary_dump_station:gravity":"yes","sanitary_dump_station:grey_water":"yes"}},"12019360473":{"location":[49.6598978,8.783364],"ct":"DE","tp":"SD","ts":"2024-06-29T04:51:13Z","tX":536,"tY":348,"tags":{}}}