{"3498339":{"location":[49.534085,8.6446844],"ct":"DE","tp":"PK","ts":"2024-12-29T22:25:35Z","tX":536,"tY":349,"tags":{"access":"customers","fee":"no","hgv":"no","motorhome":"yes","motorhome:overnight":"yes","parking":"surface","wheelchair":"limited"}},"9728315":{"location":[49.3955361,8.4707227],"ct":"DE","tp":"CS","ts":"2021-09-30T07:55:00Z","tX":536,"tY":349,"tags":{"access":"private","addr:street":"Altrheinstraße","caravans":"yes","description":"Dauercampingplatz, keine Übernachtung möglich.","permanent_camping":"only","tents":"no"}},"10513977":{"location":[49.4068686,8.482032],"ct":"DE","tp":"CS","ts":"2020-08-01T09:15:59Z","tX":536,"tY":349,"tags":{"access":"private","caravans":"yes","description":"Dauercampingplatz","name":"Dauercampingplatz Auf der Au","permanent_camping":"only","tents":"no"}},"24898364":{"location":[49.5981809,8.638797],"ct":"DE","tp":"CS","ts":"2025-02-14T11:34:59Z","tX":536,"tY":349,"tags":{"addr:city":"Hemsbach","addr:country":"DE","addr:housenumber":"7","addr:postcode":"69502","addr:street":"Ulmenweg","caravans":"yes","check_date":"2024-06-15","contact:facebook":"https://www.facebook.com/Camping-Wiesensee-149050425136662/","drinking_water":"yes","email":"info@camping-wiesensee.de","name":"Campingplatz Hemsbach","power_supply":"yes","shower":"yes","tents":"yes","toilets":"yes","website":"https://www.camping-wiesensee.de/"}},"47042848":{"location":[49.4419289,8.4593312],"ct":"DE","tp":"CS","ts":"2021-09-30T08:01:31Z","tX":536,"tY":349,"tags":{"access":"private","caravans":"yes","description":"Dauercampingplatz","name":"Wasser- und Campingclub Mannheim Ludwigshafen","permanent_camping":"only","tents":"no","website":"http://www.wcc-kiefweiher.de"}},"47251146":{"location":[49.4428271,8.4529261],"ct":"DE","tp":"CS","ts":"2022-08-16T06:34:45Z","tX":536,"tY":349,"tags":{"access":"private","description":"Dauercampingplatz","name":"Privatcamping","permanent_camping":"only","tents":"no"}},"47387695":{"location":[49.4262547,8.4590306],"ct":"DE","tp":"CS","ts":"2023-09-14T03:53:51Z","tX":536,"tY":349,"tags":{"access":"private","caravans":"yes","name":"Dauercamping Freizeitgemeinschaft Karpfenzug","operator":"Freizeitgemeinschaft Karpfenzug e.V. Altrip","permanent_camping":"only","static_caravans":"yes","tents":"yes","website":"https://www.karpfenzug.de/"}},"49207407":{"location":[49.4378977,8.4587741],"ct":"DE","tp":"CS","ts":"2023-09-17T04:30:57Z","tX":536,"tY":349,"tags":{"access":"private","caravans":"yes","description":"Dauercampingplatz","name":"Daurercamping Freunde am Kiefschen Weiher","permanent_camping":"only","tents":"no"}},"49214635":{"location":[49.4386753,8.4667497],"ct":"DE","tp":"CS","ts":"2023-09-14T04:07:44Z","tX":536,"tY":349,"tags":{"access":"private","caravans":"yes","name":"Dauercamping Ludwigshafener Naherholungsverein Kiefweiher","operator":"1. Ludwigshafener Naherholungsverein Kiefweiher e.V.","permanent_camping":"only","static_caravans":"yes","tents":"no"}},"60705687":{"location":[49.3857328,8.4585612],"ct":"DE","tp":"CS","ts":"2022-09-14T03:56:56Z","tX":536,"tY":349,"tags":{"caravans":"yes","name":"Natur- und Campingfreunde Rheinwiesen e.V."}},"85717033":{"location":[49.4241839,8.4717847],"ct":"DE","tp":"CS","ts":"2023-09-10T04:38:38Z","tX":536,"tY":349,"tags":{"access":"private","caravans":"yes","name":"Dauercamping","static_caravans":"yes"}},"123904083":{"location":[49.4495713,8.4459231],"ct":"DE","tp":"CS","ts":"2017-08-17T03:13:02Z","tX":536,"tY":349,"tags":{"addr:city":"Mannheim","addr:housenumber":"1","addr:postcode":"68199","addr:street":"Strandbadweg","backcountry":"no","caravans":"yes","disused:phone":"+49 178 4817471","email":"Anfrage@campman.de","fee":"yes","group_only":"no","name":"Campingplatz Strandbad Mannheim","openfire":"no","opening_hours":"Apr-Oct","phone":"+49 172 6336537","scout":"no","tents":"yes","website":"http://www.campingplatz-mannheim-strandbad.de/"}},"155720882":{"location":[49.3988869,8.7779349],"ct":"DE","tp":"CS","ts":"2023-04-13T13:47:49Z","tX":536,"tY":349,"tags":{"area":"yes","name":"Camping Haide","phone":"+49 6223 2111","source:geometry":"HiRes aerial imagery","website":"http://www.camping-haide.de","wheelchair":"limited","wheelchair:description":"WC laut Internetseite vorhanden"}},"161713140":{"location":[49.4753422,8.6941562],"ct":"DE","tp":"CS","ts":"2024-12-27T10:46:04Z","tX":536,"tY":349,"tags":{"addr:city":"Schriesheim","addr:country":"DE","addr:housenumber":"180","addr:postcode":"69198","addr:street":"Talstraße","contact:fax":"+49 6203 692407","contact:phone":"+49 6203 692407","name":"Campingplatz Schriesheim","url":"https://www.deinefreizeit.com/canonicals/pois/campingplatz-schriesheim/poi.html"}},"168061027":{"location":[49.4432052,8.4490878],"ct":"DE","tp":"CS","ts":"2022-08-16T04:48:48Z","tX":536,"tY":349,"tags":{"access":"private","description":"Dauercampingplatz","name":"Privatcamping Auwald am Kiefweiher","permanent_camping":"only","tents":"no"}},"169913743":{"location":[49.413974,8.769229],"ct":"DE","tp":"CS","ts":"2023-04-28T18:00:57Z","tX":536,"tY":349,"tags":{"name":"Camping Heidelberg","source:geometry":"HiRes aerial imagery","website":"http://www.camping-heidelberg.de"}},"196799873":{"location":[49.4654538,8.6153334],"ct":"DE","tp":"CR","ts":"2025-04-02T13:39:52Z","tX":536,"tY":349,"tags":{"addr:city":"Ladenburg","addr:country":"DE","addr:housenumber":"52","addr:postcode":"68526","addr:street":"Heidelberger Straße","area":"yes","capacity":"52","caravan_site":"motorhome_stopover","caravan_site:type":"town","caravans":"no","charge":"15 EUR","dog":"leashed","fee":"yes","image":"https://www.wohnmobilstellplatz-ladenburg.de/wp-content/uploads/2020/01/img_4771-1-scaled.jpg","internet_access":"wlan","internet_access:fee":"no","name":"Wohnmobilstellplatz Ladenburg","opening_hours:reception":"16:00-18:00","operator":"Wohnmobilpark Mehrmann, Gorxheimertal","phone":"+49 173 2758710","power_supply":"yes","power_supply:charge":"1 EUR/1.3 KWh","power_supply:fee":"yes","power_supply:maxcurrent":"16","reservation":"no","sanitary_dump_station":"yes","sanitary_dump_station:seasonal":"no","seasonal":"no","shower":"no","tents":"no","toilets":"no","water_point":"yes","water_point:charge":"1 EUR/80 liter","water_point:fee":"yes","website":"https://www.wohnmobilstellplatz-ladenburg.de/"}},"241918021":{"location":[49.5101808,8.7612046],"ct":"DE","tp":"CS","ts":"2022-03-19T20:32:21Z","tX":536,"tY":349,"tags":{"caravans":"no","drinking_water":"no","fixme":"Form kommt mir sehr merkwürdig vor. Ist das nicht die ganze Lichtung?","group_only":"yes","name":"Pfadfinder Bezirkszeltplatz DPSG Kurpfalz","note":"Schwer zu erreichen, kein Wasser, keine sanitären Einrichtungen.","operator":"DPSG Kurpfalz","scout":"yes","tents":"yes","toilets":"no","website":"https://dpsg-kurpfalz.de/zeltplatz/","wheelchair":"no"}},"379542879":{"location":[49.424544,8.4667378],"ct":"DE","tp":"CS","ts":"2023-11-08T07:03:26Z","tX":536,"tY":349,"tags":{"addr:city":"Altrip","addr:country":"DE","addr:postcode":"67122","addr:street":"Adriastraße","caravans":"yes","name":"Campingplatz Blaue Adria","tents":"yes","website":"https://www.campingplatz-blaue-adria-altrip.de/"}},"458743569":{"location":[49.4750523,8.5253721],"ct":"DE","tp":"CR","ts":"2024-06-27T15:36:49Z","tX":536,"tY":349,"tags":{"addr:city":"Mannheim","addr:country":"DE","addr:housenumber":"3","addr:postcode":"68163","addr:street":"Hans-Thoma-Straße","capacity":"15","centralkey":"eurokey","contact:email":"fb52@mannheim.de","contact:phone":"+49 621 2934004","fee":"yes","internet_access":"no","lit":"yes","maxstay":"14 days","name":"Wohnmobilstellplatz Mannheim-Neuostheim","opening_hours":"00:00-24:00","operator":"Stadt Mannheim, Fachbereich Sport und Freizeit","power_supply":"yes","sanitary_dump_station":"yes","start_date":"2017-02-13","tents":"no","toilets:wheelchair":"yes","trailer":"no","water_point":"yes","website":"http://www.wohnmobil-mannheim.de","wheelchair":"yes","wikimedia_commons":"File:Wohnmobil-Stellplatz Mannheim-Neuostheim (mehrere parkende Reisemobile).jpg"}},"694132217":{"location":[49.5945078,8.4541177],"ct":"DE","tp":"CR","ts":"2024-12-30T10:47:28Z","tX":536,"tY":349,"tags":{"capacity":"4","caravan_site":"motorhome_stopover","caravan_site:type":"river;town","caravans":"no","charge":"10.00 EUR/24 hours","check_date":"2024-10-27","description":"Nur für Wohnmobile mit Bad/WC, keine Wohnwägen/Caravans.","description:en":"Motorhomes/RVs with sanitary facilities only, no caravans.","fee":"yes","internet_access":"yes","maxstay":"72 hours","name":"An den Biedensand Bädern","opening_hours":"24/7","operator":"Biedensand Bäder Lampertheim GmbH","power_supply":"cee_17_blue","sanitary_dump_station":"yes","sanitary_dump_station:chemical_toilet":"yes","sanitary_dump_station:grey_water":"yes","surface":"grass_paver","tents":"no","toilets":"no","water_point":"yes","website":"https://www.biedensand-baeder.de/wohnmobilstellplatz/","wheelchair":"yes"}},"822274246":{"location":[49.4754675,8.5255076],"ct":"DE","tp":"PK","ts":"2022-04-10T12:00:19Z","tX":536,"tY":349,"tags":{"access":"customers","fee":"yes","motorhome":"yes","parking":"street_side","surface":"grass_paver"}},"822274247":{"location":[49.4752884,8.5254633],"ct":"DE","tp":"PK","ts":"2022-04-10T12:00:21Z","tX":536,"tY":349,"tags":{"access":"customers","fee":"yes","motorhome":"yes","parking":"street_side","surface":"grass_paver"}},"822274248":{"location":[49.4751699,8.5254336],"ct":"DE","tp":"PK","ts":"2022-04-10T12:00:43Z","tX":536,"tY":349,"tags":{"access":"customers","fee":"yes","motorhome":"yes","parking":"street_side","surface":"grass_paver"}},"822274249":{"location":[49.4750202,8.5254028],"ct":"DE","tp":"PK","ts":"2022-04-10T12:00:45Z","tX":536,"tY":349,"tags":{"access":"customers","fee":"yes","motorhome":"yes","parking":"street_side","surface":"grass_paver"}},"822274250":{"location":[49.4749062,8.5253735],"ct":"DE","tp":"PK","ts":"2022-04-10T12:00:06Z","tX":536,"tY":349,"tags":{"access":"customers","fee":"yes","motorhome":"yes","parking":"street_side","surface":"grass_paver"}},"822274251":{"location":[49.4747364,8.5253346],"ct":"DE","tp":"PK","ts":"2022-04-10T11:59:57Z","tX":536,"tY":349,"tags":{"access":"customers","fee":"yes","motorhome":"yes","parking":"street_side","surface":"grass_paver"}},"846676559":{"location":[49.391317,8.6710971],"ct":"DE","tp":"CR","ts":"2024-12-29T00:46:53Z","tX":536,"tY":349,"tags":{"addr:city":"Heidelberg","addr:housenumber":"1-3","addr:postcode":"69124","addr:street":"Harbigweg","capacity":"48","caravan_site":"motorhome_stopover","caravan_site:type":"city","charge":"25 EUR","check_date":"2024-05-10","dog":"yes","drinking_water":"yes","email":"womo@sprungbude-heidelberg.de","fee":"yes","internet_access":"wlan","internet_access:fee":"no","name":"Wohnmobilstellplatz Heidelberg","opening_hours":"24/7","opening_hours:shower":"Mo-Fr 09:00-17:00; Sa 10:00-19:00; Su 10:00-18:00","opening_hours:toilets":"Mo-Fr 09:00-17:00; Sa 10:00-19:00; Su 10:00-18:00","operator":"Sprungbude Heidelberg GmbH","payment:cards":"no","payment:cash":"yes","payment:credit_cards":"no","payment:debit_cards":"no","permanent_camping":"no","phone":"+49 6221 67419662","power_supply":"yes","reservation":"no","sanitary_dump_station":"yes","shower":"yes","surface":"compacted","tents":"no","toilets":"yes","water_point":"yes","water_point:fee":"no","website":"https://www.wohnmobilstellplatz-heidelberg.com/"}},"925971461":{"location":[49.5483106,8.7483617],"ct":"DE","tp":"CS","ts":"2021-04-04T20:56:16Z","tX":536,"tY":349,"tags":{}},"2337360930":{"location":[49.4654966,8.6154201],"ct":"DE","tp":"SD","ts":"2015-06-15T22:01:06Z","tX":536,"tY":349,"tags":{"sanitary_dump_station:accepted":"black_water;tank_chemicals;grey_water"}},"4193047011":{"location":[49.5422824,8.7697879],"ct":"DE","tp":"CS","ts":"2024-06-29T17:21:08Z","tX":536,"tY":349,"tags":{"caravans":"no","drinking_water":"yes","fee":"yes","group_only":"yes","name":"Jugendzeltplatz Waldskopf","openfire":"yes","shower":"no","tents":"yes","toilets":"yes","website":"https://www.geo-naturpark.net/deutsch/zeltplaetze/alle-zeltplaetze/Birkenau.php"}},"9503069401":{"location":[49.5507759,8.5792396],"ct":"DE","tp":"CR","ts":"2025-02-20T15:06:23Z","tX":536,"tY":349,"tags":{"capacity:caravans":"1","description":"Max. 2 Tage erlaubt","fee":"no","internet_access":"no","name":"Wohnmobilstellplatz Viernheim","power_supply":"no","sanitary_dump_station":"no"}},"10894583124":{"location":[49.5447241,8.6694618],"ct":"DE","tp":"CR","ts":"2024-12-21T17:23:03Z","tX":536,"tY":349,"tags":{"capacity":"5","caravan_site":"motorhome_stopover","caravan_site:type":"castle","caravans":"no","drinking_water":"no","fee":"no","maxstay":"1 day","name":"Weinheim Schlosspark","name:signed":"no","power_supply":"no","sanitary_dump_station":"no","tents":"no","toilets":"no","water_point":"no","website":"https://www.bergstrasse-odenwald.de/detail/id=5f8d57e6314fde02e4bca996"}},"6516920502":{"location":[49.5944264,8.4542578],"ct":"DE","tp":"SD","ts":"2022-06-25T19:40:59Z","tX":536,"tY":349,"tags":{"description":"Kosternlos nur nach Entrichtung der Stellplatzgebühr, sonst 3,00 €.","description:en":"Free of charge only after payment of the daily pitch fee, otherwise € 3,00.","fee":"yes","fee:conditional":"no @ customers","operator":"Biedensand Bäder","sanitary_dump_station:chemical_toilet":"yes","sanitary_dump_station:grey_water":"yes"}}}