{"9728291":{"location":[49.3714443,8.4644095],"ct":"DE","tp":"CS","ts":"2019-06-27T11:17:41Z","tX":536,"tY":350,"tags":{"access":"private","caravans":"yes","description":"Campingplatz nur für Vereinsmitglieder und deren Angehörige.","name":"Wassersport- und Campingclub Otterstadt"}},"9728294":{"location":[49.3655651,8.4763639],"ct":"DE","tp":"CS","ts":"2019-06-27T11:20:41Z","tX":536,"tY":350,"tags":{"caravans":"yes","name":"Campingfreunde Reffenthal","website":"http://www.vcr-reffenthal.de","wheelchair":"no"}},"13564889":{"location":[49.2810963,8.5927365],"ct":"DE","tp":"CS","ts":"2023-05-07T08:20:18Z","tX":536,"tY":350,"tags":{"addr:street":"Am St. Leoner See","bbq":"yes","cabins":"yes","caravans":"yes","dog":"no","drinking_water":"yes","dryer":"yes","fee":"yes","landuse":"recreation_ground","motor_vehicle":"yes","name":"Erholungsanlage St. Leoner See","nudism":"no","operator":"Gemeinde Sankt Leon-Rot Eigenbetrieb Erholungsanlage St. Leoner See","permanent_camping":"yes","power_supply":"yes","reservation":"yes","shower":"yes","stars":"4","tents":"yes","toilets":"yes","washing_machine":"yes","website":"https://www.st.leoner-see.de/"}},"23773563":{"location":[49.3780338,8.5591313],"ct":"DE","tp":"CR","ts":"2024-11-10T07:44:30Z","tX":536,"tY":350,"tags":{"capacity":"14","dog":"leashed","fee":"no","internet_access":"no","lit":"yes","maxstay":"3 days","name":"Wohnmobilstellplatz Schwetzingen","openfire":"no","opening_hours":"24/7","operator":"Stadt Schwetzingen","reservation":"no","sanitary_dump_station":"yes","shower":"no","surface":"grass_paver","tents":"no","toilets":"no","water_point":"yes","website":"https://www.visit-schwetzingen.de/besuch-planen/wohnmobilstellplatz"}},"33628006":{"location":[49.2101094,8.632346],"ct":"DE","tp":"CS","ts":"2023-07-23T15:25:16Z","tX":536,"tY":350,"tags":{}},"48687544":{"location":[49.3422827,8.440709],"ct":"DE","tp":"CS","ts":"2018-09-15T23:29:16Z","tX":536,"tY":350,"tags":{"addr:city":"Speyer","addr:country":"DE","addr:housenumber":"1","addr:postcode":"67346","addr:street":"Thomashof","contact:website":"https://www.gutthomashof.de/","name":"Gut Thomashof"}},"58425740":{"location":[49.3170286,8.6346437],"ct":"DE","tp":"CS","ts":"2022-11-03T12:39:03Z","tX":536,"tY":350,"tags":{"caravans":"yes","fee":"yes","name":"Campingplatz Astoria","permanent_camping":"yes","tents":"yes","website":"https://www.campingplatz-walldorf-astoria.de/"}},"100394064":{"location":[49.3112177,8.4505176],"ct":"DE","tp":"CR","ts":"2024-12-28T02:06:22Z","tX":536,"tY":350,"tags":{"capacity":"117","capacity:caravans":"117","caravan_site":"motorhome_stopover","caravan_site:type":"museum","charge":"25 EUR","check_out":"15:00","drinking_water":"yes","fee":"yes","fee:description":"Reduced entrance at Technik Museum Speyer","internet_access":"wlan","internet_access:fee":"no","name":"Caravanpark am Technik Museum Speyer","opening_hours":"24/7","operator":"Speyerer Veranstaltungs- und Messe GmbH","power_supply":"yes","reservation":"no","sanitary_dump_station":"yes","shower":"yes","tents":"no","toilets":"yes","water_point":"yes","website":"https://www.hotel-speyer.de/de/caravanpark/"}},"103952510":{"location":[49.241635,8.4623414],"ct":"DE","tp":"CS","ts":"2022-11-26T17:33:56Z","tX":536,"tY":350,"tags":{"addr:city":"Philippsburg","addr:country":"DE","addr:housenumber":"13","addr:postcode":"76661","addr:street":"Tullastraße","capacity":"135","caravans":"yes","dog":"no","dryer":"yes","fee":"yes","internet_access":"wlan","internet_access:fee":"yes","name":"Campingplatz Freyersee","note":"lots of typical germans here \"Keine Durchfahrt!\"","operator":"Freyersee Camping GmbH","permanent_camping":"yes","phone":"+49 7256 1372","power_supply":"yes","reservation":"yes","shower":"yes","start_date":"1979","tents":"yes","toilets":"yes","washing_machine":"yes","website":"https://www.camping-freyersee.de/","wheelchair":"limited"}},"164124045":{"location":[49.1709768,8.6163693],"ct":"DE","tp":"CS","ts":"2021-08-22T11:48:16Z","tX":536,"tY":350,"tags":{"bbq":"yes","cabins":"no","capacity:persons":"100","caravans":"no","contact:website":"https://www.hardtsee.de/","description":"Bevorzugt für geführte Jugendgruppen","dog":"no","drinking_water":"yes","group_only":"yes","kitchen":"yes","name":"Jugendzeltplatz","nudism":"no","openfire":"yes","operator":"Gemeinde Ubstadt-Weiher","power_supply":"yes","reservation":"required","scout":"yes","shower":"yes","tents":"yes","toilets":"yes"}},"193447654":{"location":[49.2181294,8.6712165],"ct":"DE","tp":"CR","ts":"2023-03-03T09:09:45Z","tX":536,"tY":350,"tags":{"capacity":"80","charge":"14.00 EUR/1 night","check_date:charge":"2023-01","description":"Mehrere Pakete buchbar - Strom über Münzautomat oder pauschal - Waschmaschine und Trockner vorhanden - Gasflaschen Tausch auch Alu - Reservierung ab 3 Nächte möglich (2€) - Frischwasser über Münzautomat auch in Kleinmengen","fee":"yes","internet_access":"wlan","internet_access:fee":"yes","name":"Bad Schönborn WellMobilPark","object:city":"Bad Schönborn","object:country":"DE","object:housenumber":"17","object:postcode":"76669","object:street":"Kraichgaustraße","payment:cash":"only","power_supply":"yes","sanitary_dump_station":"yes","tents":"no","water_point":"yes","website":"https://wellmobilpark.de/preise/"}},"286974987":{"location":[49.1995275,8.7597371],"ct":"DE","tp":"CS","ts":"2022-08-13T18:39:44Z","tX":536,"tY":350,"tags":{"addr:city":"Östringen","addr:country":"DE","addr:housenumber":"10","addr:postcode":"76684","addr:street":"Schindelberg","caravans":"yes","email":"info@wackerhof.de","internet_access":"no","name":"Wackerhof","permanent_camping":"only","phone":"+49 7259 361","tents":"no","washing_machine":"yes","website":"https://wackerhof.de/"}},"289168108":{"location":[49.1712817,8.6111632],"ct":"DE","tp":"CS","ts":"2023-06-29T07:01:59Z","tX":536,"tY":350,"tags":{"bbq":"yes","cabins":"no","capacity:caravans":"19","capacity:permant_camping":"327","capacity:tents":"14","caravans":"yes","contact:website":"https://www.hardtsee.de/","dog":"no","drinking_water":"yes","name":"Freizeitzentrum Hardtsee","naturism":"no","nudism":"no","operator":"Gemeinde Ubstadt-Weiher","permanent_camping":"yes","power_supply":"yes","reservation":"recommended","shower":"yes","tents":"yes","toilets":"yes","wheelchair":"no","wheelchair:description":"Der Sand am Strand ist zu tief und zu locker um mit dem Rollstuhl fahren zu können. Auch die Rampen für die Boote sind zu steil und durch Sand rutschig und kommen höchstens für topfite Fahrer in Frage."}},"326497759":{"location":[49.2657577,8.4943905],"ct":"DE","tp":"CS","ts":"2024-11-30T16:51:14Z","tX":536,"tY":350,"tags":{"caravans":"no","caravans:longstay":"yes","dog":"no","drinking_water":"yes","motor_vehicle":"no","name":"Freizeit Camping Erlichsee","naturism":"no","nudism":"no","opening_hours":"May-Sep","operator":"TEMK Aktiv Freizeit GmbH","operator:type":"private","permanent_camping":"yes","power_supply":"yes","reservation":"recommended","shower":"yes","smoking":"yes","tents":"yes","toilets":"yes","website":"https://www.freizeit-camping-erlichsee.de/"}},"367167002":{"location":[49.1694389,8.6171284],"ct":"DE","tp":"CS","ts":"2021-08-22T11:48:16Z","tX":536,"tY":350,"tags":{"bbq":"yes","cabins":"no","capacity:persons":"50","caravans":"no","contact:website":"https://www.hardtsee.de/","description":"Bevorzugt für geführte Jugendgruppen","dog":"no","drinking_water":"yes","group_only":"yes","kitchen":"no","name":"Weiherer Bucht","nudism":"no","openfire":"yes","operator":"Gemeinde Ubstadt-Weiher","power_supply":"yes","reservation":"required","scout":"yes","shower":"yes","tents":"yes","toilets":"yes"}},"386849546":{"location":[49.3797164,8.4800147],"ct":"DE","tp":"CS","ts":"2025-03-06T14:35:31Z","tX":536,"tY":350,"tags":{"access":"customers","barrier":"fence","caravans":"yes","email":"anfrage@inselcamping-kollersee.de","fee":"yes","name":"Camping Kollersee","operator":"SKR GmbH","phone":"+49 6202 760 1674","static_caravans":"yes","tents":"yes","website":"https://inselcamping-kollersee.de/"}},"516781167":{"location":[49.3738082,8.4605334],"ct":"DE","tp":"CS","ts":"2024-08-28T05:28:33Z","tX":536,"tY":350,"tags":{"caravans":"yes","name":"Campingplatz Waldsee Otterstadt","phone":"+49 160 8452683"}},"975388959":{"location":[49.2814906,8.5852818],"ct":"DE","tp":"CS","ts":"2023-05-07T08:20:18Z","tX":536,"tY":350,"tags":{"addr:city":"St. Leon-Rot","addr:country":"DE","addr:housenumber":"1","addr:postcode":"68789","addr:street":"Am St. Leoner See","cabins":"no","capacity:caravans":"18","caravans":"yes","dog":"designated","drinking_water":"yes","fee":"yes","internet_access":"wlan","internet_access:fee":"no","motor_vehicle":"yes","name":"Erholungsanlage St. Leoner See Hundecampingplatz","nudism":"no","operator":"Gemeinde Sankt Leon-Rot Eigenbetrieb Erholungsanlage St. Leoner See","permanent_camping":"no","power_supply":"yes","reservation":"yes","sanitary_dump_station":"no","shower":"yes","stars":"4","tents":"no","toilets":"yes","website":"https://www.st.leoner-see.de/"}},"1040053938":{"location":[49.3689826,8.6510174],"ct":"DE","tp":"CR","ts":"2024-12-29T00:46:53Z","tX":536,"tY":350,"tags":{}},"1109991439":{"location":[49.318604,8.6357726],"ct":"DE","tp":"CS","ts":"2022-11-03T12:39:03Z","tX":536,"tY":350,"tags":{}},"1137881144":{"location":[49.2353887,8.6158406],"ct":"DE","tp":"CR","ts":"2025-03-23T08:50:46Z","tX":536,"tY":350,"tags":{"capacity:caravans":"20","description":"18 Kompakte Stellplätze, bis 7m Länge, kein Querparken, zu 10€/Nacht, kein Strom, kein V/E","drinking_water":"no","email":"info@gypsea-lusshardtsee.de","fee":"yes","internet_access":"no","name":"Stellplatz am Lußhardtsee","object:city":"Kronau","object:postcode":"76709","object:street":"Am Gemeindewald","operator":"Gypsea","payment:cash":"yes","power_supply":"no","sanitary_dump_station":"no","source":"https://www.gypsea-lusshardtsee.de/vanlife","toilets":"no","website":"https://www.gypsea-lusshardtsee.de","wheelchair":"yes"}},"1216715158":{"location":[49.3113965,8.5478364],"ct":"DE","tp":"CR","ts":"2024-12-28T23:51:18Z","tX":536,"tY":350,"tags":{"caravan_site":"motorhome_stopover","caravan_site:type":"swimming_pool","check_date":"2023-10-19","fee":"no","internet_access":"no","maxstay":"24 hours","name":"Wohnmobilstellplatz Aquadrom Hockenheim","operator":"Stadt Hockenheim","power_supply":"no","sanitary_dump_station":"no","water_point":"no","website":"https://www.aquadrom.de/anreise"}},"2477671764":{"location":[49.3283284,8.5636208],"ct":"DE","tp":"CS","ts":"2023-04-22T11:51:47Z","tX":536,"tY":350,"tags":{"access":"customers","caravans":"yes","contact:website":"https://www.hockenheimring.de/infos/unterkuenfte/camping/","description":"Provisorischer Campingplatz bei Großveranstaltungen auf dem Hockenheimring","description:en":"Temporary camp site during large events on Hockenheimring","dog":"no","email":"camping@hockenheimring.de","fee":"yes","motor_vehicle":"yes","name":"Hockenheimring Campingplatz C2","openfire":"no","opening_hours":"\"only during large events on Hockenheimring\"","operator":"Hockenheim-Ring GmbH","phone":"+49 6205 950211","power_supply":"yes","ref":"C2","reservation":"no","shower":"yes","temporary":"yes","tents":"yes","toilets":"yes"}},"2477672555":{"location":[49.3239537,8.5629607],"ct":"DE","tp":"CS","ts":"2021-08-22T21:44:59Z","tX":536,"tY":350,"tags":{"access":"customers","caravans":"yes","contact:website":"https://www.hockenheimring.de/infos/unterkuenfte/camping/","description":"Provisorischer Campingplatz bei Großveranstaltungen auf dem Hockenheimring","description:en":"Temporary camp site during large events on Hockenheimring","dog":"no","fee":"yes","motor_vehicle":"yes","name":"Hockenheimring Campingplatz C3","openfire":"no","opening_hours":"\"only during large events on Hockenheimring\"","operator":"Hockenheim-Ring GmbH","power_supply":"yes","ref":"C3","reservation":"no","shower":"yes","temporary":"yes","tents":"yes","toilets":"yes"}},"9868600213":{"location":[49.3374437,8.4438136],"ct":"DE","tp":"CS","ts":"2023-11-06T13:44:26Z","tX":536,"tY":350,"tags":{"addr:city":"Speyer","addr:country":"DE","addr:housenumber":"11-31","addr:postcode":"67346","addr:street":"Am Rübsamenwühl","email":"info@camping-speyer.de","name":"Camping Speyer","phone":"+49 163 2589069","website":"https://www.camping-speyer.de/"}},"6510516435":{"location":[49.3780806,8.5580868],"ct":"DE","tp":"SD","ts":"2019-05-30T06:50:56Z","tX":536,"tY":350,"tags":{"description":"Ablaufgitter für Grauwasser","fee":"no","sanitary_dump_station:chemical_toilet":"no","sanitary_dump_station:grey_water":"yes"}},"6510516438":{"location":[49.3780959,8.5580271],"ct":"DE","tp":"SD","ts":"2019-05-30T06:50:56Z","tX":536,"tY":350,"tags":{"description":"Sani-Station für Grauwasser (Schlauch benötigt) und Toilette hinter Rolladen","fee":"no","sanitary_dump_station:chemical_toilet":"yes","sanitary_dump_station:grey_water":"yes"}},"6909194977":{"location":[49.3115386,8.4503263],"ct":"DE","tp":"SD","ts":"2024-06-25T20:19:21Z","tX":536,"tY":350,"tags":{}},"10611672700":{"location":[49.2500018,8.545533],"ct":"DE","tp":"SD","ts":"2023-02-06T15:00:47Z","tX":536,"tY":350,"tags":{"access":"yes","fee":"yes","opening_hours":"24/7","payment:cash":"yes","water_point":"yes"}},"10680845909":{"location":[49.2183247,8.6718995],"ct":"DE","tp":"SD","ts":"2023-02-20T13:38:54Z","tX":536,"tY":350,"tags":{}},"11065803028":{"location":[49.1710889,8.6124954],"ct":"DE","tp":"SD","ts":"2023-07-24T20:53:18Z","tX":536,"tY":350,"tags":{"access":"customers","sanitary_dump_station:grey_water":"yes"}}}