{"27102957":{"location":[48.8247962,8.6838493],"ct":"DE","tp":"CS","ts":"2022-08-27T10:38:10Z","tX":536,"tY":352,"tags":{"name":"Campingplatz Birkenhof","phone":"+49 7235 7325"}},"27370987":{"location":[48.8979505,8.7226507],"ct":"DE","tp":"CR","ts":"2021-10-26T10:15:24Z","tX":536,"tY":352,"tags":{"access":"yes","capacity:bus":"yes","fee":"no","maxstay":"48 hours","parking":"surface","power_supply":"cee_17_blue","tents":"no"}},"28763199":{"location":[48.6941286,8.7605672],"ct":"DE","tp":"CS","ts":"2023-11-07T15:28:24Z","tX":536,"tY":352,"tags":{"email":"info@camp-oberemuehle.de","name":"Campingplatz Obere Mühle","phone":"+49 7051 4844","static_caravans":"yes","website":"https://www.camp-oberemuehle.de/"}},"29393654":{"location":[48.7981573,8.6348623],"ct":"DE","tp":"CS","ts":"2022-01-17T15:53:04Z","tX":536,"tY":352,"tags":{"addr:city":"Schömberg","addr:housenumber":"32","addr:postcode":"75328","addr:street":"Schömberger Straße","caravans":"yes","fax":"+49 7084 931435","internet_access":"wlan","name":"Höhen-Camping Langenbrand","operator":"Abel & Neff GmbH","permanent_camping":"yes","phone":"+49 7084 6131","power_supply":"yes","shower":"yes","stars":"4","tents":"yes","toilets":"yes","url":"http://www.hoehencamping.de/"}},"32679396":{"location":[48.7410699,8.5472703],"ct":"DE","tp":"CR","ts":"2024-04-04T20:17:47Z","tX":536,"tY":352,"tags":{"access":"yes","capacity":"11","caravan_site":"motorhome_stopover","caravan_site:type":"village","charge":"15 EUR","fee":"yes","maxstay":"3 days","name":"Wohnmobilstellplätze Kernerstraße Bad Wildbad","parking":"surface","power_supply":"yes","power_supply:charge":"2 EUR/8 hours","seasonal":"no","surface":"asphalt","toilets":"no","water_point":"yes","website":"https://www.bad-wildbad.de/de/besucherinformationen/wohnmobilstellplatz/wohnmobilstellplaetze-in-bad-wildbad-id_47/","wheelchair":"yes"}},"37136328":{"location":[48.727729,8.6869059],"ct":"DE","tp":"CS","ts":"2019-11-02T17:02:09Z","tX":536,"tY":352,"tags":{"addr:city":"Calw","addr:country":"DE","addr:housenumber":"19-23","addr:postcode":"75365","addr:street":"Oberreichenbacher Straße","addr:suburb":"Altburg","caravans":"yes","dryer":"yes","email":"info@holiday-camp.de","fax":"+49 7051 51419","fee":"yes","kitchen":"yes","name":"Holiday Camp Altburg","permanent_camping":"yes","phone":"+49 7051 50788","power_supply":"yes","shower":"yes","tents":"yes","toilets":"yes","washing_machine":"yes","website":"http://www.holiday-camp.de"}},"41377314":{"location":[48.7779268,8.7320525],"ct":"DE","tp":"CS","ts":"2022-01-30T12:36:43Z","tX":536,"tY":352,"tags":{"addr:city":"Bad Liebenzell","addr:country":"DE","addr:housenumber":"34","addr:postcode":"75378","addr:street":"Pforzheimer Straße","cabins":"yes","caravans":"yes","dog":"yes","dryer":"yes","email":"badliebenzell@regenbogen.ag","fax":"+49 7052 934061","internet_access":"wlan","internet_access:fee":"yes","name":"Campingpark Bad Liebenzell","phone":"+49 7052 934060","power_supply":"yes","stars":"4","tents":"yes","washing_machine":"yes","website":"https://www.campingpark-bad-liebenzell.com","wheelchair":"yes","wheelchair:description":"Neue Eigentümer, schöne barrierefreie Toiletten vorhanden"}},"52333477":{"location":[48.8092447,8.5831638],"ct":"DE","tp":"CS","ts":"2024-07-07T14:09:24Z","tX":536,"tY":352,"tags":{"caravans":"yes","contact:email":"info@campingplatz-quellgrund.de","contact:phone":"+49 7081 6984","contact:website":"http://www.campingplatz-quellgrund.de/","drinking_water":"yes","internet_access":"wlan","internet_access:fee":"no","name":"Quellgrund","operator":"Jasmin Rapp","permanent_camping":"yes","power_supply":"yes","sanitary_dump_station":"no","shower":"yes","stars":"4","tents":"yes","toilets":"yes","toilets:wheelchair":"yes","washing_machine":"yes","wheelchair":"limited"}},"54179758":{"location":[48.9130973,8.4549079],"ct":"DE","tp":"CS","ts":"2024-10-07T05:38:09Z","tX":536,"tY":352,"tags":{"addr:city":"Waldbronn","addr:country":"DE","addr:housenumber":"1","addr:postcode":"76337","addr:street":"Kochmühle","caravans":"yes","dog":"yes","drinking_water":"yes","fax":"+49 7243 61849","internet_access":"wlan","name":"Campingplatz Albgau","phone":"+49 7243 61849","power_supply":"yes","sanitary_dump_station":"yes","shower":"yes","tents":"yes","toilets":"yes","website":"https://www.albtal-tourismus.de/uebernachtung/campingplatz-albtal-df8d19ea8a"}},"75488422":{"location":[48.7357966,8.5746472],"ct":"DE","tp":"CS","ts":"2023-11-07T15:28:28Z","tX":536,"tY":352,"tags":{"cabins":"yes","camp_site":"serviced","caravans":"yes","drinking_water":"yes","email":"info@kleinenzhof.de","fax":"+49 7081 3770","internet_access":"yes","name":"Kleinenzhof","openfire":"no","operator":"Kleinenzhof Harter KG","phone":"+49 7081 3435","power_supply":"yes","stars":"5","static_caravans":"yes","tents":"yes","website":"https://www.kleinenzhof.de/","wheelchair":"limited"}},"98374032":{"location":[48.6974024,8.5204638],"ct":"DE","tp":"CS","ts":"2018-03-24T18:18:19Z","tX":536,"tY":352,"tags":{"addr:housenumber":"57","addr:postcode":"75323","addr:street":"Kälbermühlenweg","name":"Kälbermühle"}},"195442575":{"location":[48.7059503,8.7380448],"ct":"DE","tp":"CR","ts":"2024-10-24T11:58:40Z","tX":536,"tY":352,"tags":{"capacity":"4","drinking_water":"yes","fee":"no","internet_access":"no","lit":"yes","name":"Parkplatz am Alten Bahnhof","power_supply":"yes","sanitary_dump_station":"yes","tents":"no","toilets":"no","wheelchair":"no"}},"198979034":{"location":[48.7076945,8.7542484],"ct":"DE","tp":"CS","ts":"2012-12-31T21:20:27Z","tX":536,"tY":352,"tags":{"fax":"+49 7051 20438","name":"Camping Schwarzwaldblick","phone":"+49 7051 12845","website":"http://www.camping-schwarzwaldblick.de"}},"204268636":{"location":[48.8196856,8.7353928],"ct":"DE","tp":"CS","ts":"2019-03-08T09:32:58Z","tX":536,"tY":352,"tags":{"backcountry":"no","caravans":"yes","email":"fam.frech@t-online.de","fax":"+49 7234 5180","fee":"yes","internet_access":"wlan","name":"International Camping Schwarzwald","permanent_camping":"yes","phone":"+49 7234 6517","sanitary_dump_station":"customers","stars":"4","tents":"yes","website":"https://www.camping-schwarzwald.de/","wheelchair":"yes"}},"389057926":{"location":[48.8008409,8.7425287],"ct":"DE","tp":"CS","ts":"2023-01-21T17:52:52Z","tX":536,"tY":352,"tags":{"capacity":"45","caravans":"no","email":"Forstamt.BadLiebenzell@forst.bwl.de","fax":"+49 7052-929192","group_only":"yes","name":"Jugendzeltplatz Monbachtal","operator":"Forstamt Bad Liebenzell","phone":"+49 7052 92910","tents":"yes"}},"449085639":{"location":[48.8034405,8.4407398],"ct":"DE","tp":"CR","ts":"2023-08-01T16:02:35Z","tX":536,"tY":352,"tags":{"capacity":"5","fee":"yes","power_supply":"yes","power_supply:voltage":"230","sanitary_dump_station":"yes","water_point":"yes"}},"522459402":{"location":[48.7081888,8.5415458],"ct":"DE","tp":"CS","ts":"2024-02-25T12:01:14Z","tX":536,"tY":352,"tags":{"bbq":"yes","capacity:persons":"120","caravans":"no","drinking_water":"yes","group_only":"yes","name":"Jugendzeltplatz Christophshof","operator":"Freiwillige Feuerwehr Bad Wildbad","power_supply":"yes","shower":"yes","tents":"yes","toilets":"yes","website":"https://www.feuerwehr-badwildbad.de/jugendfeuerwehr/zeltplatz"}},"1013307160":{"location":[48.7783831,8.7310751],"ct":"DE","tp":"CR","ts":"2024-03-30T18:56:27Z","tX":536,"tY":352,"tags":{"caravan_site":"motorhome_stopover","caravan_site:type":"camp_site","charge":"12 EUR","fee":"yes","name":"Wohnmobilhafen Bad Liebenzell","note":"Registration at campsite next door / Anmeldung bei nebenan liegendem Campinplatz","phone":"+49 7052 934060","power_supply":"yes","shower":"yes","toilets":"yes","website":"https://www.campingpark-bad-liebenzell.com/wohnmobilhafen/"}},"1087672880":{"location":[48.7838467,8.6533131],"ct":"DE","tp":"PK","ts":"2024-07-22T11:31:34Z","tX":536,"tY":352,"tags":{"fee":"yes","fee:conditional":"no @ (18:00-09:00)","motorcar":"no","motorhome":"yes","name":"Parkplatz Himmelsglück","operator":"Stadt Schömberg","parking":"surface"}},"1144470377":{"location":[48.7362023,8.7355426],"ct":"DE","tp":"CR","ts":"2024-10-27T17:20:53Z","tX":536,"tY":352,"tags":{"capacity":"6","caravans":"no","fee":"no","internet_access":"no","maxstay":"3 days","name":"Flößerwasen","opening_hours":"24/7","power_supply":"yes","sanitary_dump_station":"yes","toilets":"no","website":"https://www.calw.de/poi/detail/wohnmobilstellplatz-floesserwasen-7413c74192"}},"1201812031":{"location":[48.737521,8.5436288],"ct":"DE","tp":"CR","ts":"2024-04-04T20:17:47Z","tX":536,"tY":352,"tags":{"capacity":"5","caravan_site":"motorhome_stopover","caravan_site:type":"park","charge":"15 EUR","dog":"yes","fee":"yes","maxstay":"3 days","name":"Königlich Bad Wildbad","power_supply":"no","sanitary_dump_station":"no","surface":"grass","water_point":"no","website":"https://www.bad-wildbad.de/de/besucherinformationen/wohnmobilstellplatz/wohnmobilstellplaetze-in-bad-wildbad-id_47/","website:booking":"https://mycabin.eu/cabin/2711/preview"}},"1583694338":{"location":[48.8974535,8.726683],"ct":"DE","tp":"SD","ts":"2015-04-29T02:12:50Z","tX":536,"tY":352,"tags":{"brand":"Holiday Clean","fee":"yes","payment:coins":"yes","sanitary_dump_station:accepted":"black_water;grey_water;tank_chemicals"}},"4706531006":{"location":[48.91106,8.716565],"ct":"DE","tp":"CR","ts":"2017-02-26T13:01:36Z","tX":536,"tY":352,"tags":{}},"4460541946":{"location":[48.8033306,8.4406393],"ct":"DE","tp":"SD","ts":"2023-08-01T16:02:35Z","tX":536,"tY":352,"tags":{"sanitary_dump_station:chemical_toilet":"yes","sanitary_dump_station:gravity":"yes","sanitary_dump_station:grey_water":"yes"}},"8145593431":{"location":[48.7059108,8.7380402],"ct":"DE","tp":"SD","ts":"2020-11-20T10:17:05Z","tX":536,"tY":352,"tags":{"access":"yes","fee":"yes","payment:cash":"yes","water_point":"yes"}}}