{"9319946":{"location":[48.6777113,8.6906012],"ct":"DE","tp":"CS","ts":"2024-10-16T06:26:27Z","tX":536,"tY":353,"tags":{"addr:city":"Neubulach","addr:housenumber":"1","addr:postcode":"75387","addr:street":"Erbenwald","caravans":"yes","dog":"leashed","fee":"yes","internet_access":"wlan","name":"Camping Erbenwald","operator":"Camping-Erbenwald Gauder","payment:cash":"yes","payment:credit_cards":"no","permanent_camping":"yes","reservation":"recommended","static_caravans":"yes","swimming_pool":"outdoor","tents":"yes","toilets":"yes","toilets:wheelchair":"limited","washing_machine":"yes","website":"https://www.camping-erbenwald.de/","wheelchair":"limited"}},"76373317":{"location":[48.4800046,8.5008158],"ct":"DE","tp":"CS","ts":"2024-04-22T15:04:44Z","tX":536,"tY":353,"tags":{"caravans":"yes","email":"info@camping-koenigskanzel.de","fax":"+49 74 43 45 74","internet_access":"wlan","internet_access:fee":"yes","name":"Campingplatz Königskanzel Dornstetten","operator":"Familie Eiermann","phone":"+49 74 43 67 30","tents":"yes","toilets":"yes","website":"https://camping-koenigskanzel.de/"}},"88520030":{"location":[48.6130637,8.6352382],"ct":"DE","tp":"CS","ts":"2015-03-28T15:55:14Z","tX":536,"tY":353,"tags":{"name":"Campingplatz Wart"}},"89948013":{"location":[48.5850155,8.5798677],"ct":"DE","tp":"CS","ts":"2023-11-03T05:16:46Z","tX":536,"tY":353,"tags":{"addr:city":"Altensteig","addr:country":"DE","addr:housenumber":"3-5","addr:postcode":"72213","addr:street":"Im Oberen Tal","caravans":"yes","description":"Wir übertragen Spiele der 1.und 2. Bundesliga den DFB Pokal, Championsleague und Europapokal auf SKYHD","motorcycle_friendly":"customary","name":"Campingplatz Altensteig","permanent_camping":"yes","phone":"+49 7453 8415","tents":"yes","website":"https://schwarzwaldcamping.de/","wheelchair":"limited"}},"104583464":{"location":[48.6655186,8.4681805],"ct":"DE","tp":"CS","ts":"2024-05-19T06:57:59Z","tX":536,"tY":353,"tags":{"caravans":"yes","check_date":"2024-05-19","dog":"leashed","drinking_water":"yes","fee":"yes","laundry":"yes","name":"Müllerwiese","openfire":"no","power_supply":"yes","reservation":"yes","sanitary_dump_station":"yes","shower":"yes","static_caravans":"yes","tents":"yes","toilets":"yes","website":"https://www.muellerwiese.de/"}},"111871521":{"location":[48.6203172,8.7445572],"ct":"DE","tp":"CR","ts":"2025-01-31T08:36:59Z","tX":536,"tY":353,"tags":{"caravan_site":"motorhome_stopover","caravan_site:type":"river","charge":"8 EUR","fee":"yes","name":"Wohnmobilstellplatz an der Nagold","power_supply":"yes","power_supply:charge":"1 EUR/1 kWh","sanitary_dump_station":"yes","water_point":"yes","water_point:fee":"yes","water_point:seasonal":"yes","website":"https://www.schwarzwald-tourismus.info/attraktionen/wohnmobilstellplatz-an-der-nagold-bf3a3c1807"}},"111871528":{"location":[48.6118299,8.7356964],"ct":"DE","tp":"CS","ts":"2023-12-22T18:57:29Z","tX":536,"tY":353,"tags":{"access":"permit","addr:city":"Wildberg","addr:housenumber":"6-8","addr:postcode":"72218","addr:street":"Martinshölzle","cabins":"yes","capacity:caravans":"50","capacity:persons":"300","capacity:pitches":"100","capacity:tents":"50","caravans":"yes","ele":"370","email":"info@campingcarpediem.de","fee":"yes","motorhome":"yes","name":"Camping Carpe Diem","operator":"Holger Stern","payment:cash":"yes","payment:credit_cards":"yes","payment:girocard":"yes","payment:maestro":"yes","power_supply":"yes","shower":"yes","static_caravans":"yes","tents":"yes","toilets":"yes","website":"https://www.campingcarpediem.de/"}},"126434841":{"location":[48.6631534,8.5456673],"ct":"DE","tp":"CS","ts":"2024-04-26T21:16:52Z","tX":536,"tY":353,"tags":{"cabins":"yes","caravans":"yes","internet_access":"wlan","name":"Camping Rehmühle","permanent_camping":"yes","tents":"yes","washing_machine":"yes","website":"https://campingrehmuehle.de"}},"368733129":{"location":[48.5645686,8.7233858],"ct":"DE","tp":"CS","ts":"2021-06-07T21:13:17Z","tX":536,"tY":353,"tags":{"addr:city":"Nagold","addr:housenumber":"119","addr:postcode":"72202","addr:street":"Calwer Straße","caravans":"yes","dog":"yes","email":"mail@camping-nagold.de","fee":"yes","name":"Camping Graf Nagold","operator":"Familie Graf","phone":"+49 7452 2608","playground":"yes","power_supply":"yes","shower":"yes","static_caravans":"yes","tents":"yes","toilets":"yes","website":"http://www.camping-nagold.de"}},"369506681":{"location":[48.5644124,8.7219393],"ct":"DE","tp":"CR","ts":"2024-05-03T16:34:01Z","tX":536,"tY":353,"tags":{"capacity":"22","contact:phone":"+49 7452 681135","fee":"yes","name":"Wohnmobilhafen am Nagoldtal-Radweg","operator":"Stadt Nagold","power_supply":"yes","sanitary_dump_station":"yes","toilets":"no","water_point":"yes","website":"https://portal.toubiz.de/noerdlicher-schwarzwald/ukv/house/FIT00020070163735356?tt=enphfe658ro0h2vqr7g9lq09v0","wheelchair":"yes"}},"440394026":{"location":[48.5512096,8.4942569],"ct":"DE","tp":"CR","ts":"2025-01-31T08:32:10Z","tX":536,"tY":353,"tags":{"capacity":"13","caravan_site":"motorhome_stopover","caravan_site:type":"lake;parkling_lot","fee":"no","name":"P4 Nagoldtalsperre","power_supply":"no","sanitary_dump_station":"yes","smoking":"yes","surface":"asphalt","toilets":"yes","wheelchair":"limited"}},"1249760111":{"location":[48.5582529,8.7275393],"ct":"DE","tp":"CR","ts":"2024-04-23T13:09:12Z","tX":536,"tY":353,"tags":{"capacity":"10","fee":"no","internet_access":"no","name":"Stellplatz am Bahnhof","tents":"no"}},"6247317265":{"location":[48.5644519,8.7224101],"ct":"DE","tp":"CS","ts":"2019-08-25T10:10:56Z","tX":536,"tY":353,"tags":{"caravans":"no","drinking_water":"yes","email":"tourismus@nagold.de","fax":"+49 7452 6815135","group_only":"yes","name":"Jugendzeltplatz an der Nagold","openfire":"no","operator":"Stadt Nagold","phone":"+49 7452 681135","shower":"no","tents":"yes","website":"https://www.nagold.de"}},"9051522364":{"location":[48.5908658,8.7607115],"ct":"DE","tp":"CR","ts":"2025-01-04T01:19:13Z","tX":536,"tY":353,"tags":{"alt_name":"Wohnmobilstellplatz auf dem Bauernhof Jettingen","capacity":"4","caravan_site":"motorhome_stopover","caravan_site:type":"farm_shop","charge":"5 EUR","dog":"yes","fee":"yes","name":"Bauernhof Rinderknecht","phone":"+49 7452 81 61 81","power_supply":"yes","sanitary_dump_station":"yes","seasonal":"no","tourism:website":"https://www.stuttgart-tourist.de/a-wohnmobilstellplatz-auf-dem-bauernhof-jettingen","water_point":"yes","water_point:fee":"no","website":"http://www.bauernhof-rinderknecht.de/"}},"9612621817":{"location":[48.5931879,8.6696415],"ct":"DE","tp":"CR","ts":"2024-12-30T00:06:04Z","tX":536,"tY":353,"tags":{"capacity":"2","caravan_site":"motorhome_stopover","caravan_site:type":"countryside","fee":"no","maxstay":"3 nights","name":"Wohnmobilstellplätz Hardtparkplatz Ebhausen/Ebershardt","power_supply":"no","sanitary_dump_station":"no","water_point":"no","website":"https://www.ebhausen.de/freizeit-gaeste/freizeitmoeglichkeiten/wohnmobilstellplaetze"}},"12254547052":{"location":[48.6768606,8.6897426],"ct":"DE","tp":"SD","ts":"2024-10-16T11:35:26Z","tX":536,"tY":353,"tags":{"access":"customers","sanitary_dump_station:chemical_toilet":"no","sanitary_dump_station:grey_water":"yes","water_point":"yes"}}}