{"24648237":{"location":[48.4454309,8.6757546],"ct":"DE","tp":"CS","ts":"2023-05-08T16:14:17Z","tX":536,"tY":354,"tags":{"addr:city":"Horb am Neckar","addr:country":"DE","addr:housenumber":"7-9","addr:postcode":"72160","addr:street":"Schütteberg","cabins":"yes","caravans":"yes","fee":"yes","name":"Campingplatz Schüttehof Horb","permanent_camping":"yes","static_caravans":"yes","tents":"yes","website":"http://www.camping-schuettehof.de"}},"36934269":{"location":[48.2842772,8.5882038],"ct":"DE","tp":"CS","ts":"2023-08-03T09:07:56Z","tX":536,"tY":354,"tags":{"bbq":"yes","camp_site":"standard","caravans":"no","charge":"7,50","contact:phone":"+49 7423 5339","contact:website":"http://www.oberndorf.de/,Lde/Startseite/Freizeit/zeltplatz.html","fee":"yes","miniature_golf":"yes","name":"Dollau","note":"7,50 € (incl. einmaligem Eintritt in das städtische Freibad) Fahrradgaragen verfügbar","opening_hours":"Mo-Su 12:00-20:00 \"Anfang Mai bis Ende September\"","operator":"Stadt Oberndorf","shower":"yes","tents":"yes","toilets":"yes"}},"144450386":{"location":[48.4444036,8.6742484],"ct":"DE","tp":"CS","ts":"2023-05-08T16:14:17Z","tX":536,"tY":354,"tags":{"fee":"yes","group_only":"yes","name":"Gruppenwiese","surface":"grass","website":"http://www.camping-schuettehof.de"}},"490178057":{"location":[48.2825745,8.7218985],"ct":"DE","tp":"CR","ts":"2019-10-25T16:15:08Z","tX":536,"tY":354,"tags":{"capacity":"6","fee":"no","name":"beim Sofienbad","operator":"Stadt Rosenfeld","power_supply":"yes","sanitary_dump_station":"yes","website":"https://www.rosenfeld.de/tourismus-kultur-sport/wohnmobilstellplatz.html"}},"490182365":{"location":[48.2826723,8.7221812],"ct":"DE","tp":"SD","ts":"2017-05-03T09:21:46Z","tX":536,"tY":354,"tags":{"access":"yes","fee":"yes","operator":"Stadt Rosenfeld","sanitary_dump_station:chemical_toilet":"yes","sanitary_dump_station:fee":"yes","sanitary_dump_station:gravity":"yes","sanitary_dump_station:grey_water":"yes","water_point":"yes","website":"https://www.rosenfeld.de/tourismus-kultur-sport/wohnmobilstellplatz.html"}},"689079260":{"location":[48.2824325,8.5845523],"ct":"DE","tp":"CR","ts":"2021-10-10T10:24:18Z","tX":536,"tY":354,"tags":{"area":"yes","capacity":"14","charge":"6,€","fee":"yes","name":"Wohnmobil Stellplatz an der Neckarhalle","opening_hours":"24/7","operator":"Stadt Oberndorf","payment:cash":"yes","power_supply":"yes"}},"1265809706":{"location":[48.4113927,8.5357915],"ct":"DE","tp":"CR","ts":"2024-07-17T15:54:54Z","tX":536,"tY":354,"tags":{"bakery_service":"yes","caravan_site":"motorhome_stopover","caravan_site:type":"nature","caravans":"no","fee":"yes","internet_access":"wlan","internet_access:fee":"no","minstay":"2 nights","name":"Almruhe Ziegelackerhof","power_supply":"yes","power_supply:fee":"no","sanitary_dump_station":"no","seasonal":"yes","shower":"yes","tents":"no","toilets":"yes","water_point":"yes","website":"https://www.almruhe.de/index.asp?ID=1887&IDZ=1890&CAT=Almbeherbergung&SUBCAT=Camping-Stellpl%C3%A4tze"}},"1613166648":{"location":[48.3638599,8.6368059],"ct":"DE","tp":"CR","ts":"2022-01-26T18:45:43Z","tX":536,"tY":354,"tags":{"capacity":"6","drinking_water":"yes","fee":"no","internet_access":"no","name":"Wohnmobilstellplätze auf dem Wöhrd","opening_hours":"24/7","operator":"Stadtverwaltung Sulz am Neckar","power_supply":"yes","sanitary_dump_station":"yes","smoking":"yes","surface":"paved","tents":"no","website":"https://www.sulz.de/index.php?id=177","wheelchair":"yes"}}}