{"31985691":{"location":[47.9227967,8.4860753],"ct":"DE","tp":"CR","ts":"2023-08-22T15:28:15Z","tX":536,"tY":356,"tags":{"addr:city":"Hüfingen","addr:postcode":"78183","addr:street":"Bräunlinger Straße","capacity":"22","fee":"yes","name":"Wohnmobil-Stellplatz an der Breg","operator":"Stadt Hüfingen","power_supply":"yes","sanitary_dump_station":"yes","water_point":"yes","website":"https://www.huefingen.de/de/Kultur-Tourismus/Essen,-trinken-schlafen/Wohnmobilstellplatz"}},"103183373":{"location":[47.8614453,8.7609331],"ct":"DE","tp":"CS","ts":"2022-03-19T15:46:22Z","tX":536,"tY":356,"tags":{"addr:city":"Engen","addr:country":"DE","addr:housenumber":"1","addr:postcode":"78234","addr:street":"Im Doggenhardt","basketball":"yes","bbq":"yes","capacity":"90","caravans":"yes","chess":"yes","dog":"yes","drinking_water":"yes","email":"info@camping-sonnental.de","fax":"+49 7733 2666","group_only":"no","internet_access":"wlan","lit":"yes","name":"Camping Sonnental","nudism":"no","permanent_camping":"yes","phone":"+49 7733 7529","sanitary_dump_station":"customers","shower":"yes","soccer":"yes","table_tennis":"yes","tents":"yes","toilets":"yes","washing_machine":"yes","website":"https://www.campingsonnental.de/","website2":"http://www.camping-sonnental.de/"}},"117061304":{"location":[47.8245213,8.6539737],"ct":"DE","tp":"CS","ts":"2023-09-21T21:24:04Z","tX":536,"tY":356,"tags":{"addr:city":"Tengen","addr:housenumber":"1","addr:postcode":"78250","addr:street":"An der Sonnenhalde","capacity:pitches":"250","caravans":"yes","name":"Campingplatz Tengen","operator":"Hegau Camping GmbH","phone":"+49 7736 92470","shower":"yes","tents":"yes","toilets":"yes","website":"https://www.hegi-camping.de/","wheelchair":"yes"}},"134461217":{"location":[47.9200071,8.6501881],"ct":"DE","tp":"CR","ts":"2019-11-16T17:24:26Z","tX":536,"tY":356,"tags":{"addr:city":"Geisingen","addr:postcode":"78187","addr:street":"Am Espen","capacity":"37","contact:mobile":"+49 171 6981853","contact:phone":"+49 7704 6699","fee":"yes","internet_access":"yes","name":"Reisemobilstellplatz Geisingen","operator":"Stadt Geisingen","power_supply":"yes","sanitary_dump_station":"yes","water_point":"yes","website":"https://www.geisingen.de/de/Freizeit-Tourismus/Reisemobilstellplatz"}},"177913847":{"location":[47.9360446,8.5339453],"ct":"DE","tp":"CS","ts":"2020-06-26T20:36:36Z","tX":536,"tY":356,"tags":{"addr:city":"Donaueschingen","addr:country":"DE","addr:housenumber":"11","addr:postcode":"78166","addr:street":"Am Riedsee","addr:suburb":"Pfohren","caravans":"yes","email":"info@riedsee-camping.de","fax":"+49 771 15138","internet_access:fee":"yes","name":"Riedsee-Camping","operator":"Philipp und Florian Eike","payment:credit_cards":"yes","phone":"+49 771 5511","power_supply":"yes","tents":"yes","website":"https://www.riedsee-camping.de/","wheelchair":"yes"}},"222987500":{"location":[47.8396257,8.5424065],"ct":"DE","tp":"CR","ts":"2024-10-09T16:22:56Z","tX":536,"tY":356,"tags":{"alt_name":"Oberes Ried","capacity":"20","caravan_site":"motorhome_stopover","caravan_site:type":"sports_centre","caravans":"no","charge":"7 EUR","dog":"yes","fee":"yes","name":"Wohnmobilbahnhof Blumberg","opening_hours":"24/7","power_supply":"yes","power_supply:charge":"2 EUR","power_supply:fee":"yes","sanitary_dump_station":"yes","tents":"no","water_point":"yes","water_point:charge":"1 EUR/80 liter","website":"https://www.schwarzwald-tourismus.info/attraktionen/wohnmobilbahnhof-blumberg-bc7b98fef5"}},"511824104":{"location":[47.9310271,8.7504775],"ct":"DE","tp":"CS","ts":"2023-05-07T21:37:13Z","tX":536,"tY":356,"tags":{"bbq":"yes","cabins":"no","camp_site":"standard","caravans":"no","charge":"5 EUR / Person","fast_food":"yes","fee":"yes","internet_access":"no","motor_vehicle":"no","name":"Radlerzeltplatz","opening_hours":"Apr 01-Oct 31","operator":"Gemeinde Immendingen","picnic_table":"yes","playground":"yes","reservation":"no","sanitary_dump_station":"no","shower":"yes","smoking":"no","tents":"yes","toilets":"yes","website":"https://www.immendingen.de/startseite/erleben/radlerzeltplatz.html","wheelchair":"no"}},"513862247":{"location":[47.9491306,8.5214898],"ct":"DE","tp":"SD","ts":"2021-06-12T11:41:05Z","tX":536,"tY":356,"tags":{"access":"yes","brand":"Holiday Clean","fee":"no","opening_hours":"24/7","operator":"GVV Donaueschingen","sanitary_dump_station":"yes","sanitary_dump_station:accepted":"black_water;grey_water","sanitary_dump_station:basin":"yes","sanitary_dump_station:fee":"no","sanitary_dump_station:gravity":"yes","sanitary_dump_station:round_drain":"yes","sanitary_dump_station:suction":"no","water_point":"yes","water_point:fee":"yes"}},"627894121":{"location":[47.8515518,8.7714528],"ct":"DE","tp":"CR","ts":"2021-08-31T16:05:22Z","tX":536,"tY":356,"tags":{"capacity":"4","fee":"no","maxstay":"3 days","power_supply":"yes","shower":"no","tents":"no","toilets":"no"}},"741116578":{"location":[47.9474495,8.5122022],"ct":"DE","tp":"CR","ts":"2023-07-30T12:42:33Z","tX":536,"tY":356,"tags":{"access":"motorhome","alt_name":"Wohnmobilstellplatz am Schloßpark","capacity":"20","contact:phone":"+49 771 857-221","contact:website":"https://www.donaueschingen.de/camping","fee":"no","maxstay":"48 hours","motorhome":"yes","name":"Wohnmobilstellplatz Donaueschingen","opening_hours":"24/7","operator":"Stadt Donaueschingen","parking":"surface","power_supply":"yes","reservation":"no","sanitary_dump_station":"no","supervised":"no","surface":"compacted","toilets":"no","water_point":"no","wheelchair":"yes"}},"916030605":{"location":[47.8354778,8.4982317],"ct":"DE","tp":"CR","ts":"2023-11-30T00:26:55Z","tX":536,"tY":356,"tags":{"fee":"yes","power_supply":"yes"}},"2105969180":{"location":[47.824603,8.6538823],"ct":"DE","tp":"CR","ts":"2017-11-10T21:35:06Z","tX":536,"tY":356,"tags":{"stars":"5"}},"2920950642":{"location":[47.9202236,8.64976],"ct":"DE","tp":"SD","ts":"2019-11-16T17:24:05Z","tX":536,"tY":356,"tags":{"fee":"?","sanitary_dump_station:accepted":"black_water;tank_chemicals;grey_water"}},"4078334428":{"location":[47.9638772,8.7788091],"ct":"DE","tp":"CS","ts":"2024-05-21T15:48:00Z","tX":536,"tY":356,"tags":{"addr:city":"Tuttlingen","addr:country":"DE","addr:postcode":"78532","addr:street":"Gotenstraße","caravans":"no","fee":"yes","group_only":"yes","name":"Pfarrer Bruno-Hettich Jugendcamp","operator":"Katholische Kirchengemeinde St. Andreas Möhringen","tents":"yes","website":"https://www.kath-immendingen-moehringen.de/pfarrer-bruno-hettich-jugendcamp/"}},"8860497199":{"location":[47.8531979,8.4472242],"ct":"DE","tp":"CS","ts":"2021-06-23T16:06:05Z","tX":536,"tY":356,"tags":{"addr:city":"Wutach","addr:country":"DE","addr:housename":"1","addr:street":"Bruderhof","cabins":"no","caravans":"no","contact:email":"binninger.bruderhof@gmx.de","contact:mobile":"+49 160 96268358","contact:phone":"+49 7709 318","description":"Übernachtungsmöglichkeit auf einem Bauernhof. Übernachtung im Zelt, Schlaffass, Bauwagen oder im Strohlager möglich.","drinking_water":"yes","ele:ellipsoid":"685","fee":"yes","hot_water":"yes","internet_access":"no","kitchen":"yes","name":"Trekking Bruderhof","openfire":"yes","operator":"Markus Binninger","permanent_camping":"no","reservation":"yes","sanitary_dump_station":"no","shower":"yes","swimming_pool":"no","tents":"yes","toilets":"yes","wheelchair":"no"}},"10870939618":{"location":[47.8372146,8.501373],"ct":"DE","tp":"CS","ts":"2024-02-29T13:25:49Z","tX":536,"tY":356,"tags":{"access":"customers","addr:city":"Blumberg","addr:housenumber":"27","addr:postcode":"78176","addr:street":"Blumberger Straße","addr:suburb":"Achdorf","caravans":"no","charge":"5€/2-Personenzelt/Nacht, 6,50€/Person/Nacht, Kinder Unter 6 Jahre/Frei","fee":"yes","name":"Schlafen im Stroh","operator":"Nikolaus Kaiser","static_caravans":"no","tents":"yes"}},"5107075634":{"location":[47.8373069,8.5574076],"ct":"DE","tp":"CR","ts":"2017-09-15T09:00:56Z","tX":536,"tY":356,"tags":{"capacity":"5","fee":"yes","name":"am Bahnhof Zollhaus","operator":"Stadt Blumberg","power_supply":"no","sanitary_dump_station":"no"}},"5107159209":{"location":[47.8309173,8.5053363],"ct":"DE","tp":"SD","ts":"2017-09-15T09:42:24Z","tX":536,"tY":356,"tags":{"fee":"yes","sanitary_dump_station:chemical_toilet":"yes","sanitary_dump_station:gravity":"yes","water_point":"yes"}},"9336637072":{"location":[47.8316932,8.5053706],"ct":"DE","tp":"SD","ts":"2021-12-14T08:15:40Z","tX":536,"tY":356,"tags":{"fee":"1 EUR","fixme":"genaue Position prüfen","sanitary_dump_station:chemical_toilet":"yes","sanitary_dump_station:fee":"no","sanitary_dump_station:gravity":"yes","sanitary_dump_station:grey_water":"yes","sanitary_dump_station:suction":"no"}}}