{"11545716":{"location":[47.5805424,8.5809729],"ct":"CH","tp":"CS","ts":"2020-12-30T20:08:04Z","tX":536,"tY":357,"tags":{"name":"Camping Steubisallmend"}},"13888714":{"location":[47.5967927,8.6858657],"ct":"CH","tp":"CS","ts":"2024-08-19T14:38:06Z","tX":536,"tY":357,"tags":{"caravans":"yes","drinking_water":"yes","name":"Rässenwies","power_supply":"yes","sanitary_dump_station":"yes","shower":"yes","tents":"yes","toilets":"yes","website":"https://www.tcs-ccz.ch/camping-raessenwies"}},"22900824":{"location":[47.5197292,8.71606],"ct":"CH","tp":"CS","ts":"2023-05-29T17:54:08Z","tX":536,"tY":357,"tags":{"caravans":"yes","drinking_water":"yes","name":"Campingplatz am Schützenweiher","shower":"yes","tents":"yes","toilets":"yes"}},"25728615":{"location":[47.6862412,8.6582872],"ct":"CH","tp":"CS","ts":"2023-10-30T11:37:54Z","tX":536,"tY":357,"tags":{"caravans":"yes","name":"Camping Schaffhausen","phone":"+41 52 659 33 00","power_supply":"yes","shower":"yes","tents":"yes","toilets":"yes","website":"https://www.camping-schaffhausen.ch/"}},"27781008":{"location":[47.6312393,8.5779415],"ct":"DE","tp":"CR","ts":"2023-10-22T05:55:33Z","tX":536,"tY":357,"tags":{"addr:city":"Lottstetten","addr:postcode":"79807","capacity:caravans":"8","fee":"yes","name":"Wohnmobilstellplatz Lottstetten"}},"41429189":{"location":[47.5731363,8.4605674],"ct":"DE","tp":"CS","ts":"2023-04-22T18:15:31Z","tX":536,"tY":357,"tags":{"addr:city":"Hohentengen am Hochrhein","addr:housenumber":"10","addr:postcode":"79801","addr:street":"Kunzweg","caravans":"yes","name":"Campingplatz Herdern","opening_hours":"Apr 1 - Oct 31","phone":"+49 7742 1680","shower":"yes","tents":"yes","toilets":"yes","website":"https://www.hohentengen.de/de/freizeit-und-tourismus/camping.html"}},"112475783":{"location":[47.6771003,8.7805594],"ct":"CH","tp":"CS","ts":"2021-06-08T12:22:34Z","tX":536,"tY":357,"tags":{"addr:city":"Diessenhofen","addr:country":"CH","addr:postcode":"8253","caravans":"yes","name":"Camping Läui","phone":"+41 52 657 19 25","tents":"yes"}},"166388438":{"location":[47.6912403,8.7162327],"ct":"DE","tp":"CS","ts":"2025-03-10T08:39:01Z","tX":536,"tY":357,"tags":{"access":"permissive","caravans":"no","description":"Der Zeltplatz steht neben den Clubmitgliedern auch Nichtmitgliedern offen, wenn genügend Platz vorhanden ist, welche mit dem Kajak, dem Velo oder zu Fuss unterwegs sind und ihr Zelt für eine Nacht aufstellen möchten.","motor_vehicle":"no","name":"Laag","opening_hours":"Apr 15-Sep 30","operator":"Kanu Club Schaffhausen","power_supply":"no","reservation":"only","tents":"only","website":"https://www.kcsh.ch/camping-zeltplatz-laag"}},"222848246":{"location":[47.7420153,8.448157],"ct":"DE","tp":"CS","ts":"2023-10-30T11:43:51Z","tX":536,"tY":357,"tags":{"addr:city":"Stühlingen","addr:housenumber":"6","addr:postcode":"79780","addr:street":"Ausser Ort","name":"Camping an der Wutach","website":"https://www.camping-wutach.de/"}},"230058055":{"location":[47.6905093,8.7568444],"ct":"DE","tp":"CR","ts":"2024-10-01T14:27:38Z","tX":536,"tY":357,"tags":{"capacity":"20","fee":"yes","motorhome":"yes","name":"Wohnmobilstellplatz am Strandbad","sanitary_dump_station":"no","stars":"2","surface":"grass","website":"https://www.gailingen.de/de/gaeste/informieren/unterkuenfte-gastronomie/wohnmobilstellplatz"}},"475543187":{"location":[47.5886203,8.7405872],"ct":"CH","tp":"CS","ts":"2025-03-10T12:06:46Z","tX":536,"tY":357,"tags":{"access":"yes","camp_site":"standard","capacity:caravans":"20","capacity:persons":"200","capacity:tents":"40","caravans":"yes","contact:mobile":"+41 79 291 89 07","electricity":"no","fee":"yes","internet_access":"no","name":"Campingplatz Gütighausen","operator":"Zelt Klub Winterthur","payment:cash":"yes","payment:credit_cards":"yes","payment:debit_cards":"yes","river":"yes","shower":"yes","static_caravans":"no","tents":"yes","website":"https://www.campingplatz-guetighausen.ch/"}},"599990083":{"location":[47.6473684,8.5665113],"ct":"DE","tp":"CS","ts":"2023-05-23T20:52:06Z","tX":536,"tY":357,"tags":{"landuse":"recreation_ground","leisure":"water_park","name":"Schwimmbad Jestetten mit Campingplatz","website":"https://www.jestetten.de/index.php?id=27"}},"1195250169":{"location":[47.5885617,8.5679053],"ct":"CH","tp":"CR","ts":"2024-05-15T10:10:19Z","tX":536,"tY":357,"tags":{"access":"permit","capacity":"5","caravan_site":"motorhome_stopover","caravan_site:type":"river","charge":"35 CHF","check_in":"14:00","check_out":"11:00","fee":"yes","maxstay":"3 days","name":"Wohnmobilstellplätz Rüdlingen","opening_hours":"Mar-Oct","operator":"Begegnungszentrum Rüdlingen","orientation":"diagonal","phone":"+41 448670902","power_supply":"yes","power_supply:capacity":"5","sanitary_dump_station":"yes","shower":"yes","smoothness":"good","socket:cee_blue":"yes","surface":"asphalt","toilets":"yes","water_point":"yes","website":"https://begegnungszentrum.ch/angebot/wohnmobilstellplaetze/","wheelchair":"yes"}},"7620892694":{"location":[47.6236882,8.7763274],"ct":"CH","tp":"CS","ts":"2023-11-01T19:46:23Z","tX":536,"tY":357,"tags":{"caravans":"yes","drinking_water":"yes","name":"Schloss Schwandegg","operator":"Schloss Schwandegg","power_supply":"yes","shower":"yes","tents":"no","toilets":"yes","website":"https://www.schloss-schwandegg.ch/hotel-camping/","wheelchair":"yes"}},"4724287158":{"location":[47.579177,8.582046],"ct":"CH","tp":"CR","ts":"2020-05-03T21:05:10Z","tX":536,"tY":357,"tags":{}},"6454444348":{"location":[47.6739686,8.6086639],"ct":"CH","tp":"CR","ts":"2019-05-07T10:03:51Z","tX":536,"tY":357,"tags":{"description":"1. Stunde 5 CHF, jede weitere 2 CHF","fee":"yes","name":"Am Rheinfall"}},"9046475175":{"location":[47.6926262,8.4649028],"ct":"CH","tp":"CR","ts":"2024-09-09T09:11:47Z","tX":536,"tY":357,"tags":{"capacity":"10","charge":"20 CHF","description":"CHF 17.- bis 22.-, ganzjährig","fee":"yes","name":"Stellplatz Hallau","phone":"+41 79 702 86 08","power_supply":"yes","sanitary_dump_station":"yes","website":"https://www.osthafe.ch/"}},"4344139890":{"location":[47.6856254,8.7761772],"ct":"DE","tp":"CS","ts":"2023-10-30T11:41:32Z","tX":536,"tY":357,"tags":{"addr:housenumber":"4a","addr:postcode":"78262","addr:street":"Obergailingen","caravans":"no","email":"Info@Johanni-hof.de","internet_access":"wlan","name":"Johannihof","phone":"+49 7734 6928","tents":"yes","website":"https://www.johanni-hof.de/"}}}