{"6986935":{"location":[47.0415194,8.559701],"ct":"CH","tp":"CS","ts":"2017-02-16T20:25:19Z","tX":536,"tY":359,"tags":{"name":"Camping Bernerhöhe"}},"37010389":{"location":[47.0794855,8.6268696],"ct":"CH","tp":"CS","ts":"2023-07-16T11:21:12Z","tX":536,"tY":359,"tags":{"caravans":"yes","drinking_water":"yes","name":"Sattel-Aegeri","power_supply":"yes","shower":"yes","tents":"no","toilets":"yes"}},"43034380":{"location":[47.127546,8.5935863],"ct":"CH","tp":"CS","ts":"2023-10-30T19:24:11Z","tX":536,"tY":359,"tags":{"name":"TCS Camping Unterägeri","website":"https://www.campingunteraegeri.ch/"}},"52948929":{"location":[47.2675301,8.5099897],"ct":"CH","tp":"CS","ts":"2024-03-06T18:52:54Z","tX":536,"tY":359,"tags":{"name":"Campingplatz Türlersee","website":"https://www.tuerlersee.ch"}},"111425523":{"location":[47.2635078,8.5603901],"ct":"CH","tp":"CS","ts":"2018-06-28T12:33:50Z","tX":536,"tY":359,"tags":{"name":"Sihlwald"}},"163850331":{"location":[47.1213273,8.4467765],"ct":"CH","tp":"CS","ts":"2023-10-30T19:28:13Z","tX":536,"tY":359,"tags":{"addr:city":"Meierskappel","addr:postcode":"6344","addr:street":"Bronzage","bbq":"yes","breakfast":"yes","cabin:rental":"yes","description":"47.121131, 8.446665 https://www.swiss-bauernhof.ch/app/download/14455147333/AGB+Camping+Gerbe.pdf?t=1615216675","dryer":"yes","internet_access":"yes","motorcycle_friendly":"yes","name":"Campingplatz Gerbe","opening_hours":"Mar-Oct","operator":"Fam. Knüsel","toilets:wheelchair":"yes","washing_machine":"yes","website":"https://www.swiss-bauernhof.ch/"}},"204358406":{"location":[47.0466646,8.5913394],"ct":"CH","tp":"CS","ts":"2023-06-18T11:21:35Z","tX":536,"tY":359,"tags":{"caravans":"yes","name":"Camping Buchenhof","operator":"Camping Buchenhof, Steinen","payment:coins":"yes","payment:credit_cards":"no","payment:notes":"yes","stars":"4","tents":"yes"}},"277746557":{"location":[47.1476536,8.7289717],"ct":"CH","tp":"CS","ts":"2025-06-04T05:52:43Z","tX":536,"tY":359,"tags":{"contact:city":"Bennau","contact:email":"claudiabennau@bluewin.ch","contact:housenumber":"Burgerenstrasse","contact:phone":"+41 55 412 76 92","contact:postcode":"8836","contact:street":"10","name":"Campingplatz Bennau"}},"279874783":{"location":[47.104978,8.6273199],"ct":"CH","tp":"CS","ts":"2021-05-20T17:31:44Z","tX":536,"tY":359,"tags":{"name":"Neselen","tents":"no"}},"279874784":{"location":[47.1023383,8.6407419],"ct":"CH","tp":"CS","ts":"2021-05-20T17:31:44Z","tX":536,"tY":359,"tags":{"tents":"no"}},"280063685":{"location":[47.0804241,8.6358054],"ct":"CH","tp":"CS","ts":"2021-02-18T06:49:21Z","tX":536,"tY":359,"tags":{"name":"Kronenmatt"}},"412399525":{"location":[47.1128678,8.6239133],"ct":"CH","tp":"CS","ts":"2024-09-07T11:13:11Z","tX":536,"tY":359,"tags":{"caravans":"no","drinking_water":"yes","name":"Camping Naas-Sod","power_supply":"yes","shower":"yes","tents":"yes","toilets":"no","website":"https://www.camping-naas-sod.ch/","wheelchair":"yes"}},"775874277":{"location":[47.2580352,8.77394],"ct":"CH","tp":"CS","ts":"2021-06-22T15:46:57Z","tX":536,"tY":359,"tags":{"caravans":"yes","email":"fahrschule.pally@bluewin.ch","fee":"yes","name":"Camping am Lützelsee","phone":"+41 55 244 11 18","tents":"yes","website":"https://www.badi-lützelsee.ch/"}},"867974002":{"location":[47.1891967,8.5588439],"ct":"CH","tp":"CS","ts":"2023-10-30T19:15:16Z","tX":536,"tY":359,"tags":{"email":"info@hoellgrotten.ch","name":"Camping Höllgrotten","phone":"+41 41 761 83 70","website":"https://www.hoellgrotten.ch/"}},"945215130":{"location":[47.1092302,8.6232697],"ct":"CH","tp":"CS","ts":"2021-05-20T17:31:44Z","tX":536,"tY":359,"tags":{"name":"Chällermatt","tents":"yes"}},"9438511731":{"location":[47.121205,8.4458898],"ct":"CH","tp":"CS","ts":"2022-01-22T03:40:28Z","tX":536,"tY":359,"tags":{"addr:city":"Meierskappel","addr:housenumber":"1","addr:postcode":"6344","addr:street":"Gerbe","name":"Camping/ Erleb. Bauernhof Gerbe","phone":"+41 41 790 45 34"}},"10261363128":{"location":[47.0463716,8.7029121],"ct":"CH","tp":"CS","ts":"2022-12-13T22:56:53Z","tX":536,"tY":359,"tags":{"description":"Stellplatz für Camper an buchbar bei www.nomady.ch"}},"10955925962":{"location":[47.2627783,8.7756617],"ct":"CH","tp":"CS","ts":"2023-06-04T21:53:06Z","tX":536,"tY":359,"tags":{"addr:city":"Hombrechtikon","addr:postcode":"8634","addr:street":"Uferweg","caravans":"yes","fee":"yes","name":"Haslen","static_caravans":"yes","tents":"yes"}},"12012440012":{"location":[47.1122433,8.6236772],"ct":"CH","tp":"CS","ts":"2024-09-07T11:14:56Z","tX":536,"tY":359,"tags":{"access":"private","caravans":"yes","name":"Camping Naas-Sod","static_caravans":"yes","tents":"yes"}},"7544302785":{"location":[47.2119078,8.6716752],"ct":"CH","tp":"CR","ts":"2020-05-21T10:01:58Z","tX":536,"tY":359,"tags":{}},"12186257582":{"location":[47.1326954,8.759147],"ct":"CH","tp":"CR","ts":"2024-09-19T13:58:27Z","tX":536,"tY":359,"tags":{"addr:housenumber":"23","addr:place":"Einsiedeln","addr:postcode":"8840","addr:street":"Lincolnweg","capacity":"2","email":"info@hotel-allegro.ch","name":"Hotel Allegro","operator":"Hotel Allegro","phone":"+41 55 418 88 88","power_supply":"yes","reservation":"recommended","website":"https://www.hotel-allegro.ch/de/informieren/kontaktdaten-allegro"}},"12187606552":{"location":[47.1297731,8.7586576],"ct":"CH","tp":"CR","ts":"2024-09-20T06:48:19Z","tX":536,"tY":359,"tags":{"addr:place":"Einsiedeln","addr:postcode":"8840","addr:street":"Birchlistrasse","name":"Stellplatz Friedhof","operator":"Gemeinde Einsiedeln","reservation":"no","website":"https://www.wohnmobilland-schweiz.ch/Fueer_Wohnmobilisten/Stellplaetze/Detail/Friedhofparkplatz/566/"}},"5015880123":{"location":[47.2117615,8.6718232],"ct":"CH","tp":"SD","ts":"2021-04-04T08:57:23Z","tX":536,"tY":359,"tags":{"fee":"no"}},"5015880124":{"location":[47.221333,8.6602284],"ct":"CH","tp":"SD","ts":"2025-04-29T16:52:50Z","tX":536,"tY":359,"tags":{"fee":"no"}},"7942247534":{"location":[47.2272927,8.4623299],"ct":"CH","tp":"SD","ts":"2025-05-22T16:41:24Z","tX":536,"tY":359,"tags":{"access":"yes","fee":"no","opening_hours":"24/7","water_point":"yes"}},"8850402446":{"location":[47.1733179,8.6019362],"ct":"CH","tp":"SD","ts":"2023-05-05T09:16:19Z","tX":536,"tY":359,"tags":{"description":"neue Station, gratis inklusive Frischwasser, 24h","fee":"no","name":"Ökihof, Menzingen","note":"WML CH","water_point":"yes"}}}