{"10141312":{"location":[46.9154786,8.6227342],"ct":"CH","tp":"CS","ts":"2023-05-06T20:25:36Z","tX":536,"tY":360,"tags":{"addr:city":"Flüelen","addr:postcode":"6454","alt_name":"Windsurfing Urnersee","capacity":"50","caravans":"yes","motorcycle_friendly":"customary","name":"Camping Flüelen","opening_hours":"Apr-Oct 08:00-22:00","operator":"Florian Jauch","phone":"+41 41 8709222","tents":"yes","website":"https://www.windsurfing-urnersee.ch/"}},"280550441":{"location":[47.0372423,8.5609625],"ct":"CH","tp":"CS","ts":"2017-02-16T20:25:24Z","tX":536,"tY":360,"tags":{"name":"Camping Buosingen"}},"308776302":{"location":[46.9500738,8.6194601],"ct":"CH","tp":"CS","ts":"2024-06-20T15:03:18Z","tX":536,"tY":360,"tags":{"addr:city":"Sisikon","addr:postcode":"6452","addr:street":"Dammstrasse","email":"info@camping-bucheli.ch","name":"Camping Bucheli","operator":"Claire Zgraggen","phone":"+41 79 387 07 51;+41 41 387 07 51","website":"https://www.camping-bucheli.ch/"}},"314260015":{"location":[47.0065183,8.4863068],"ct":"CH","tp":"CS","ts":"2023-11-04T09:31:41Z","tX":536,"tY":360,"tags":{"addr:city":"Vitznau","addr:housenumber":"34","addr:postcode":"6354","addr:street":"Altdorfstrasse","caravans":"yes","email":"info@camping-vitznau.ch","fee":"yes","internet_access":"wlan","internet_access:fee":"no","name":"Campingplatz Vitznau","operator":"Alex & Manuela Zanetti","phone":"+41 41 3971280","sanitary_dump_station":"customers","tents":"yes","website":"https://www.camping-vitznau.ch/"}},"377948570":{"location":[46.996837,8.5928523],"ct":"CH","tp":"CS","ts":"2024-05-06T15:14:38Z","tX":536,"tY":360,"tags":{"caravans":"yes","email":"info@camping-hopfraeben.ch","fee":"yes","name":"Hopfräben","operator":"Jean-Pierre Zihlmann","phone":"+41 41 820 18 73","tents":"yes","website":"https://camping-hopfraeben.ch/"}},"377949856":{"location":[47.0002397,8.5914741],"ct":"CH","tp":"CS","ts":"2024-02-14T07:22:29Z","tX":536,"tY":360,"tags":{"name":"Urmiberg","website":"https://www.campingurmiberg.ch/"}},"604558755":{"location":[46.9900367,8.6338485],"ct":"CH","tp":"CS","ts":"2023-04-09T07:58:38Z","tX":536,"tY":360,"tags":{"area":"yes","caravans":"yes","drinking_water":"yes","name":"Rüti","power_supply":"yes","shower":"yes","tents":"yes","toilets":"yes"}},"799423517":{"location":[47.0363307,8.7735844],"ct":"CH","tp":"CS","ts":"2020-05-03T18:59:36Z","tX":536,"tY":360,"tags":{"name":"Oberiberg","stars":"4","website":"https://www.camping-oberiberg.ch/"}},"799465323":{"location":[46.9708849,8.7878044],"ct":"CH","tp":"CS","ts":"2022-05-29T07:14:34Z","tX":536,"tY":360,"tags":{"access":"customers","fee":"yes","name":"Husky-Lodge Campingfläche","opening_hours":"May-Oct","operator":"Erlebniswelt Muotathal GmbH","phone":"+41 41 831 81 50","website":"https://www.erlebniswelt.ch/camping/information/"}},"863189483":{"location":[46.8637753,8.7664999],"ct":"CH","tp":"CR","ts":"2022-08-13T00:14:18Z","tX":536,"tY":360,"tags":{"access":"customers","fee":"yes","internet_access":"no","lit":"no","name":"TempCamp","opening_hours":"24/7","parking":"surface","power_supply":"no","reservation":"yes","sanitary_dump_station":"no","smoothness":"intermediate","surface":"pebblestone","tents":"no","wheelchair":"limited"}},"913292907":{"location":[46.8928435,8.6280649],"ct":"CH","tp":"CS","ts":"2024-10-10T19:54:37Z","tX":536,"tY":360,"tags":{"addr:city":"Altdorf UR","addr:housenumber":"112","addr:postcode":"6460","addr:street":"Flüelerstrasse","caravans":"yes","email":"info@camping-altdorf.ch","name":"Remo Camping Moosbad","phone":"+41 41 870 85 41","tents":"no","website":"https://camping-altdorf.ch/"}},"973619870":{"location":[46.9600673,8.5748859],"ct":"CH","tp":"CS","ts":"2023-07-29T20:52:19Z","tX":536,"tY":360,"tags":{"cabins":"no","caravans":"no","dog":"no","email":"camping.seelisberg@bluewin.ch","fee":"yes","name":"Camping Seelisberg","phone":"+41 41 8203596","power_supply":"no","reservation":"yes","shower":"yes","static_caravans":"no","tents":"yes","toilets":"yes"}},"1064767412":{"location":[46.9712006,8.7862593],"ct":"CH","tp":"CR","ts":"2022-07-25T14:01:27Z","tX":536,"tY":360,"tags":{"fee":"yes","name":"Stellfläche Campingplatz Husky-Lodge","operator":"Erlebniswelt Muotathal GmbH","phone":"+41 41 831 81 50","power_supply":"yes","sanitary_dump_station":"yes","website":"https://www.erlebniswelt.ch/camping/information/","wheelchair":"yes"}},"1112675249":{"location":[46.8731142,8.6443601],"ct":"CH","tp":"CR","ts":"2022-11-13T10:42:28Z","tX":536,"tY":360,"tags":{"capacity":"3","fee":"yes","name":"byHerger","opening_hours":"24/7","power_supply":"yes","reservation":"required","website":"https://www.byherger.ch/wohnmobil-camping/"}},"1177325216":{"location":[46.9175774,8.5946294],"ct":"CH","tp":"CS","ts":"2024-08-17T17:15:46Z","tX":536,"tY":360,"tags":{"addr:city":"Isenthal","addr:postcode":"6461","addr:street":"Schilltegg","charge":"1 CHF/hour","currency:CHF":"yes","currency:EUR":"yes","fee":"yes","name":"Camping Bauen / Holzplatz Isen AG","note":"Paid parking 24/7","opening_hours":"24/7","payment:coins":"yes","payment:contactless":"no","payment:easypark":"yes","payment:parkingpay":"yes","payment:twint":"yes","ref:easypark":"6466991","ref:parkingpay":"PLZ 6466 Zone 991"}},"1912095350":{"location":[46.965167,8.4735587],"ct":"CH","tp":"CR","ts":"2012-10-14T14:42:45Z","tX":536,"tY":360,"tags":{}},"3037830861":{"location":[46.8108445,8.5609526],"ct":"CH","tp":"CS","ts":"2018-05-04T18:18:22Z","tX":536,"tY":360,"tags":{"camp_type":"wildcamp","note":"flat space for several tents"}},"3626917564":{"location":[46.989959,8.6335045],"ct":"CH","tp":"CR","ts":"2023-04-09T07:58:12Z","tX":536,"tY":360,"tags":{"name":"Rüti","toilets":"yes"}},"8919355219":{"location":[46.8021537,8.6701935],"ct":"CH","tp":"CS","ts":"2022-05-22T18:41:00Z","tX":536,"tY":360,"tags":{"name":"TempCamp - Stellplatz Rebberg Buchholz","website":"https://www.rebberg-buchholz.ch/aktuell/stellplatz-tempcamp-uri/"}},"9438513652":{"location":[46.9606089,8.5732406],"ct":"CH","tp":"CS","ts":"2022-08-05T08:39:39Z","tX":536,"tY":360,"tags":{"addr:city":"Seelisberg","addr:housenumber":"4","addr:postcode":"6377","addr:street":"Seelistrasse","internet_access":"wlan","name":"Camping Seelisberg","phone":"+41 41 820 35 96","wheelchair":"yes"}},"10937835251":{"location":[46.9190899,8.5938405],"ct":"CH","tp":"CS","ts":"2023-05-29T18:43:35Z","tX":536,"tY":360,"tags":{"fixme":"Presice location - it's somewhere here.","name":"TempCamp Isleten"}},"7175550360":{"location":[47.0179745,8.7323273],"ct":"CH","tp":"CR","ts":"2022-07-27T20:56:43Z","tX":536,"tY":360,"tags":{"name":"Ibergeregg"}},"9041988310":{"location":[46.8462271,8.6324083],"ct":"CH","tp":"CR","ts":"2024-05-20T20:04:12Z","tX":536,"tY":360,"tags":{"charge":"15 EUR","fee":"yes","fee:conditional":"yes @ (19:00-05:00); no @ (05:00-19:00)","name":"Stellplatz Autobahnraststätte Gotthard, Schattdorf"}},"6704372740":{"location":[47.0065787,8.4863712],"ct":"CH","tp":"SD","ts":"2019-08-12T23:46:39Z","tX":536,"tY":360,"tags":{"access":"customers","sanitary_dump_station:grey_water":"yes"}},"6704372741":{"location":[47.0067995,8.4860607],"ct":"CH","tp":"SD","ts":"2019-08-12T23:46:39Z","tX":536,"tY":360,"tags":{"access":"customers","sanitary_dump_station:chemical_toilet":"yes"}},"8850402441":{"location":[46.990895,8.695839],"ct":"CH","tp":"SD","ts":"2021-06-20T13:19:04Z","tX":536,"tY":360,"tags":{"name":"Muotaclean, Ried-Muotathal","note":"WML CH"}}}