{"32277341":{"location":[46.6731238,8.7550978],"ct":"CH","tp":"CS","ts":"2023-09-23T15:39:42Z","tX":536,"tY":361,"tags":{"alt_name":"Naturcampingplatz Rueras","caravans":"yes","email":"hallo@campingviva.ch","name":"Camping Viva","phone":"+41 79 126 80 61","tents":"yes","website":"https://www.campingviva.ch/"}},"39490353":{"location":[46.632134,8.5910153],"ct":"CH","tp":"CR","ts":"2024-08-07T21:53:22Z","tX":536,"tY":361,"tags":{"access":"yes","addr:city":"Andermatt","addr:housenumber":"110","addr:postcode":"6490","addr:street":"Gotthardstrasse","caravans":"yes","drinking_water":"yes","email":"mail@gotthard-camping.ch","fee":"yes","name":"Gotthard Camping Andermatt","parking":"surface","phone":"+41 79 226 30 76","power_supply":"yes","sanitary_dump_station":"yes","seasonal":"winter","summer_use":"only","surface":"gravel","tents":"no","toilets":"yes","website":"http://gotthard-camping.ch/"}},"304195759":{"location":[46.6515684,8.5212712],"ct":"CH","tp":"CS","ts":"2022-05-22T21:40:18Z","tX":536,"tY":361,"tags":{"internet_access":"no","name":"Zeltplatz-Mattli","tents":"yes","url":"https://www.zeltplatz-mattli.ch/"}},"512727244":{"location":[46.6314998,8.5912528],"ct":"CH","tp":"CS","ts":"2024-07-17T14:08:29Z","tX":536,"tY":361,"tags":{"addr:city":"Andermatt","addr:housenumber":"110","addr:postcode":"6490","addr:street":"Gotthardstrasse","caravans":"no","drinking_water":"yes","email":"mail@gotthard-camping.ch","fee":"yes","name":"Gotthard Camping Andermatt","phone":"+41 79 226 30 76","power_supply":"yes","shower":"yes","tents":"yes","toilets":"yes","website":"http://gotthard-camping.ch/","wheelchair":"yes"}},"1186993240":{"location":[46.6486242,8.4999964],"ct":"CH","tp":"CS","ts":"2024-02-27T17:16:29Z","tX":536,"tY":361,"tags":{"access":"yes","campers":"yes","capacity:caravans":"8","caravans":"yes","fee":"yes","maxstay":"48 hours","note":"8 parking places, only 2 electrical connections. No camping trailers.","static_caravans":"no","tents":"no","trailer":"no"}},"1280013345":{"location":[46.599697,8.5037025],"ct":"CH","tp":"PK","ts":"2024-05-05T20:43:00Z","tX":536,"tY":361,"tags":{"access":"yes","charge":"Cars: 10 CHF / 12 hours;Campervans: 15 CHf / 12 hours","fee":"yes","motorhome":"yes","operator":"Grotto Stella D'oro","parking":"surface","surface":"gravel"}},"3682664660":{"location":[46.6325271,8.5914722],"ct":"CH","tp":"SD","ts":"2015-08-07T17:06:35Z","tX":536,"tY":361,"tags":{"access":"customers","drinking_water":"no","fee":"no","opening_hours":"24/7","sanitary_dump_station:basin":"yes","sanitary_dump_station:round_drain":"yes","water_point":"yes"}},"3759545415":{"location":[46.7178203,8.5880937],"ct":"CH","tp":"CS","ts":"2019-08-10T19:12:18Z","tX":536,"tY":361,"tags":{"camp_type":"wildcamp","capacity":"1","description":"Es passt 1 Zelt.","description:en":"Space for 1 tent."}},"5380138121":{"location":[46.6620338,8.667452],"ct":"CH","tp":"CR","ts":"2024-09-22T22:49:26Z","tX":536,"tY":361,"tags":{"fee":"no","internet_access":"no","name":"Stellplatz Oberalp","power_supply":"no","sanitary_dump_station":"no"}},"7996971472":{"location":[46.7308524,8.6257169],"ct":"CH","tp":"CR","ts":"2022-04-26T20:40:42Z","tX":536,"tY":361,"tags":{"fee":"yes","internet_access":"yes","name":"Wohnmobilstellplatz an der Reuss","power_supply":"yes","sanitary_dump_station":"yes"}},"8664322809":{"location":[46.6112007,8.5372267],"ct":"CH","tp":"CR","ts":"2021-04-25T11:21:52Z","tX":536,"tY":361,"tags":{"addr:city":"Hospental","addr:postcode":"6493","capacity":"10","description":"5 Naechte, WC/Dusche: sfr. 8.- pro Pers.","email":"zumdoerfli@zumdoerfli.ch","fee":"CHF 12.-","name":"Stellplatz Zumdorf","note":"GrandTourCH","phone":"+41 41 887 01 32","power_supply":"no","sanitary_dump_station":"no","website":"zumdoerfli.ch"}},"12000264639":{"location":[46.6692108,8.5899603],"ct":"CH","tp":"CR","ts":"2024-06-22T07:26:44Z","tX":536,"tY":361,"tags":{"capacity":"2","charge":"25 CHF / night","fee":"yes","internet_access":"no","motorhome":"yes","name":"Camp & Rail Göschenen","operator":"SBB CFF FFS","power_supply":"no","sanitary_dump_station":"no","website":"https://www.parknsleep.app/ps/60002767"}},"8850402456":{"location":[46.7307008,8.6254984],"ct":"CH","tp":"SD","ts":"2022-04-26T20:40:42Z","tX":536,"tY":361,"tags":{"description":"5.- ohne Übernachten","fee":"yes","name":"Geissticki, Gurtnellen","note":"WML CH","water_point":"yes"}}}