{"1304918":{"location":[45.8474239,8.6201558],"ct":"IT","tp":"CS","ts":"2013-01-16T14:54:37Z","tX":536,"tY":364,"tags":{"area":"yes","name":"Camping Lido di Monvalle","source":"Regione Lombardia - La banca dati territoriali CTR10000 è prodotta da Regione Lombardia - Infrastruttura per l'Informazione Territoriale"}},"26808712":{"location":[46.0697069,8.6961646],"ct":"IT","tp":"CS","ts":"2023-11-10T12:53:19Z","tX":536,"tY":364,"tags":{"addr:city":"Cannobio","addr:housenumber":"2","addr:postcode":"28822","addr:street":"Via Casali Darbedo","email":"riviera@riviera-valleromantica.com","name":"Camping Riviera","phone":"+39 0323 71360","website":"https://www.riviera-valleromantica.com/"}},"41340664":{"location":[46.0201557,8.6792247],"ct":"IT","tp":"CS","ts":"2024-08-24T16:57:14Z","tX":536,"tY":364,"tags":{"caravans":"yes","name":"Camping Lido","phone":"+39 0323 787148","tents":"yes"}},"76608482":{"location":[45.9384203,8.5016153],"ct":"IT","tp":"CS","ts":"2024-05-23T15:38:42Z","tX":536,"tY":364,"tags":{"addr:street":"Via per Feriolo","caravans":"yes","internet_access":"wlan","name":"Isolino","phone":"+39 0323 496080","stars":"2","tents":"yes","website":"https://www.isolino.it/"}},"76643887":{"location":[45.9533141,8.4776914],"ct":"IT","tp":"CS","ts":"2023-10-01T09:01:37Z","tX":536,"tY":364,"tags":{"caravans":"yes","drinking_water":"yes","fee":"yes","internet_access":"wlan","internet_access:fee":"customers","name":"Camping La Quiete","phone":"+39 0323 496013","power_supply":"yes","shower":"yes","start_date":"1960","tents":"yes","toilets":"yes","website":"https://www.campinglaquiete.it/"}},"86334607":{"location":[45.9358678,8.4873225],"ct":"IT","tp":"CS","ts":"2023-11-07T18:43:31Z","tX":536,"tY":364,"tags":{"addr:city":"Baveno","addr:country":"IT","addr:housenumber":"26","addr:postcode":"28835","addr:street":"Via 42 Martiri","caravans":"yes","name":"Conca d'Oro","phone":"+39-0323-28116","website":"https://www.concadoro.it/"}},"125095118":{"location":[46.0389776,8.7339108],"ct":"IT","tp":"CS","ts":"2024-08-09T06:13:22Z","tX":536,"tY":364,"tags":{"addr:city":"Maccagno","addr:housenumber":"3","addr:postcode":"21010","addr:street":"Via Corsini","caravans":"yes","name":"Lagocamp Parkcamping","phone":"+39 0332 560203","tents":"yes","toilets:wheelchair":"yes","website":"https://www.lagocamp.com/","wheelchair":"yes"}},"164036897":{"location":[45.9277173,8.4707362],"ct":"IT","tp":"CS","ts":"2013-02-26T22:32:08Z","tX":536,"tY":364,"tags":{"name":"Campeggio Piano Grande"}},"175316294":{"location":[45.9121156,8.4896288],"ct":"IT","tp":"CS","ts":"2013-04-02T14:59:16Z","tX":536,"tY":364,"tags":{"name":"CCA-Tranquilla","phone":"+39 0323 923452","source":"bing"}},"191793797":{"location":[45.9312347,8.5525994],"ct":"IT","tp":"CR","ts":"2024-04-04T13:31:22Z","tX":536,"tY":364,"tags":{"addr:city":"Verbania","addr:housenumber":"97","addr:postcode":"28922","addr:street":"Viale Giuseppe Azari","fee":"yes","name":"Area Verbania","opening_hours":"24/7","payment:coins":"yes","payment:mastercard":"yes","payment:notes":"yes","payment:visa":"yes","phone":"+39 346 6978254","website":"http://www.itinerantivcoverbania.it"}},"195161149":{"location":[45.950203,8.4790076],"ct":"IT","tp":"CS","ts":"2025-02-03T18:21:31Z","tX":536,"tY":364,"tags":{"addr:city":"Fondotoce di Verbania","addr:housenumber":"156","addr:postcode":"28924","addr:street":"Via 42 Martiri","caravans":"yes","email":"info@campingcontinental.com","fax":"+39 0323 496218","internet_access":"wlan","name":"Continental Camping Village","phone":"+39 0323 496300","sanitary_dump_station":"customers","tents":"yes","website":"https://www.campingcontinental.com/"}},"197856092":{"location":[45.9963833,8.653438],"ct":"IT","tp":"CR","ts":"2015-10-26T16:53:32Z","tX":536,"tY":364,"tags":{"fee":"yes"}},"198019932":{"location":[45.9768732,8.63388],"ct":"IT","tp":"CS","ts":"2022-10-09T09:29:45Z","tX":536,"tY":364,"tags":{"caravans":"yes","contact:mobile":"+39 333 7815534","drinking_water":"yes","internet_access":"wlan","name":"La Sierra","power_supply":"yes","shower":"yes","tents":"yes","toilets":"yes"}},"200214778":{"location":[46.0197309,8.6797207],"ct":"IT","tp":"CS","ts":"2023-11-12T13:30:03Z","tX":536,"tY":364,"tags":{"addr:city":"Cannero Riviera","addr:housenumber":"5","addr:postcode":"28821","addr:street":"Viale del Lido","caravans":"yes","drinking_water":"yes","internet_access":"wlan","mobile":"+39348271685","name":"Camping Lido","nudism":"no","permanent_camping":"yes","phone":"+39 0323 787148","power_supply":"yes","reservation":"recommended","shower":"yes","tents":"yes","toilets":"yes","washing_machine":"yes","website":"https://www.campinglidocannero.com/"}},"205795558":{"location":[45.8757035,8.4995392],"ct":"IT","tp":"CS","ts":"2022-07-16T21:44:22Z","tX":536,"tY":364,"tags":{"addr:city":"Gignese","addr:housenumber":"7","addr:postcode":"28836","addr:street":"Via Pianezza","name":"Camping 7 Camini","phone":"+39 0323 20183","website":"https://www.camping7camini.it"}},"207063212":{"location":[45.9112078,8.5006715],"ct":"IT","tp":"CR","ts":"2019-07-22T19:16:12Z","tX":536,"tY":364,"tags":{"name":"Camping Car Parking","surface":"asphalt"}},"207076178":{"location":[45.9125757,8.5055492],"ct":"IT","tp":"CS","ts":"2019-12-10T10:45:21Z","tX":536,"tY":364,"tags":{"name":"Camping Parisi","phone":"+39 0323 923156"}},"207237142":{"location":[45.9334379,8.482781],"ct":"IT","tp":"CS","ts":"2022-07-02T13:28:03Z","tX":536,"tY":364,"tags":{"addr:city":"Baveno","addr:housenumber":"20","addr:postcode":"28835","addr:street":"Via 42 Martiri","name":"Camping Orchidea","phone":"+39 0323 28226","website":"https://campingorchidea.it/","wheelchair":"limited"}},"233094142":{"location":[46.0577936,8.6756142],"ct":"IT","tp":"CS","ts":"2023-11-10T12:53:45Z","tX":536,"tY":364,"tags":{"caravans":"yes","name":"Campeggio \"Valle Romantica\"","phone":"+39 0323 71249","stars":"3","tents":"yes","website":"https://www.riviera-valleromantica.com/"}},"256342408":{"location":[46.0712328,8.6940029],"ct":"IT","tp":"CS","ts":"2019-04-03T22:23:20Z","tX":536,"tY":364,"tags":{"addr:city":"Cannobio","addr:housenumber":"20/22","addr:postcode":"28822","addr:street":"Via Casali Darbedo","caravans":"yes","email":"info@campingcampagna.it","internet_access":"wlan","internet_access:fee":"no","name":"Camping Residence Campagna","phone":"+39 0323 70100","toilets:wheelchair":"yes","website":"https://www.campingcampagna.it/","wheelchair":"limited"}},"256345947":{"location":[46.0704895,8.6947083],"ct":"IT","tp":"CS","ts":"2017-05-10T21:03:29Z","tX":536,"tY":364,"tags":{"addr:city":"Cannobio","addr:housenumber":"12","addr:postcode":"28822","addr:street":"Via Casali Darbedo","email":"info@campinglagomaggiore.it","name":"Camping Internazionale Paradis","phone":"+39 0323 71227","website":"http://www.campinglagomaggiore.it/"}},"256447143":{"location":[46.0667737,8.6942502],"ct":"IT","tp":"CS","ts":"2023-11-10T12:53:38Z","tX":536,"tY":364,"tags":{"addr:city":"Cannobio","addr:housenumber":"81/a","addr:postcode":"28822","addr:street":"Via Sotto ai Chiosi","cabins":"yes","camp_site":"deluxe","caravans":"yes","contact:email":"info@campingsole.it","dryer":"yes","fee":"yes","internet_access":"wlan","internet_access:fee":"no","lit":"yes","motor_vehicle":"yes","motorhome":"yes","name":"Camping del Sole","opening_hours":"Jan-Dec","phone":"+39 0323 70732","shower":"hot","tents":"yes","toilets":"yes","washing_machine":"yes","website":"https://www.campingsole.it/"}},"256477556":{"location":[46.0687368,8.6940124],"ct":"IT","tp":"CS","ts":"2014-01-15T08:10:48Z","tX":536,"tY":364,"tags":{"addr:city":"Cannobio","addr:housenumber":"24","addr:postcode":"28822","addr:street":"Via Darbedo","email":"info@campingdelfiume.it","name":"Camping del Fiume","phone":"+39 0323 70192","website":"http://www.campingdelfiume.it"}},"256623144":{"location":[45.9339056,8.4846656],"ct":"IT","tp":"CS","ts":"2016-08-14T12:14:55Z","tX":536,"tY":364,"tags":{"name":"Conca d'Oro"}},"257289977":{"location":[46.0416053,8.7326414],"ct":"IT","tp":"CS","ts":"2024-08-21T18:30:14Z","tX":536,"tY":364,"tags":{"addr:city":"Maccagno","addr:housenumber":"13","addr:postcode":"21010","addr:street":"Via Pietraperzia","name":"The Camp","phone":"+39 0332 560250","website":"https://www.boschettoholiday.it/lido/","wheelchair":"yes"}},"257912819":{"location":[46.0401148,8.7356454],"ct":"IT","tp":"CR","ts":"2016-09-09T12:27:05Z","tX":536,"tY":364,"tags":{"wheelchair":"yes"}},"432854680":{"location":[45.8394155,8.7205317],"ct":"IT","tp":"CR","ts":"2024-09-22T09:56:46Z","tX":536,"tY":364,"tags":{"fee":"yes","fee:conditional":"2 EUR @ 3 hours","name":"Sosta camper Gavirate - Via Cavour","permanent_camping":"no","power_supply":"yes","sanitary_dump_station":"yes","toilets":"no"}},"437140236":{"location":[45.9368556,8.4888314],"ct":"IT","tp":"CS","ts":"2023-11-07T18:43:41Z","tX":536,"tY":364,"tags":{"addr:city":"Verbania","addr:country":"IT","addr:hamlet":"Fondotoce","addr:housenumber":"41","addr:postcode":"28924","addr:street":"Via per Feriolo","capacity":"100","fee":"yes","name":"Camping Lido Toce","phone":"+39 0323 496220","website":"https://www.campinglidotoce.eu/"}},"437146961":{"location":[45.9610792,8.456666],"ct":"IT","tp":"CS","ts":"2024-09-28T10:25:31Z","tX":536,"tY":364,"tags":{"caravans":"yes","drinking_water":"yes","fee":"yes","internet_access":"wlan","internet_access:fee":"customers","name":"Camping Lago delle Fate","power_supply":"yes","sanitary_dump_station":"yes","shower":"yes","static_caravans":"yes","tents":"yes","toilets":"yes","website":"https://www.lagodellefate.com"}},"442681568":{"location":[45.9724647,8.6117807],"ct":"IT","tp":"CS","ts":"2023-11-07T18:43:22Z","tX":536,"tY":364,"tags":{"email":"info@campingincanti.it","landuse":"residential","name":"Incanti","phone":"+39 0323 587288","source":"Bing","website":"https://www.campingincanti.it/contatti.html"}},"459672119":{"location":[45.9719293,8.6122509],"ct":"IT","tp":"CS","ts":"2016-12-15T00:14:48Z","tX":536,"tY":364,"tags":{"landuse":"residential","name":"Premeno","phone":"+39 0323 587288","source":"Bing"}},"592622749":{"location":[45.8786675,8.4558858],"ct":"IT","tp":"CS","ts":"2024-10-28T23:43:35Z","tX":536,"tY":364,"tags":{"access":"yes","backcountry":"yes","fee":"no","parking":"surface"}},"696829793":{"location":[45.9913401,8.7194084],"ct":"IT","tp":"CR","ts":"2023-10-06T11:45:24Z","tX":536,"tY":364,"tags":{"addr:housenumber":"41A","addr:street":"Via Bodmer","email":"areacampergermignaga@gmail.com","name":"Area Sosta Camper Germignaga","phone":"+39 324 6958055","power_supply":"yes","sanitary_dump_station":"yes","website":"https://www.areasostacampergermignaga.it"}},"727680527":{"location":[46.0378566,8.7084676],"ct":"IT","tp":"CS","ts":"2019-09-24T08:24:54Z","tX":536,"tY":364,"tags":{}},"1227428703":{"location":[45.8965388,8.6382149],"ct":"IT","tp":"CS","ts":"2023-11-28T19:14:10Z","tX":536,"tY":364,"tags":{"addr:housenumber":"6","addr:street":"Vicolo Molino","caravans":"yes","name":"Icaro 2000","tents":"yes"}},"1255687072":{"location":[45.8958124,8.7290364],"ct":"IT","tp":"CR","ts":"2024-02-28T16:06:18Z","tX":536,"tY":364,"tags":{"internet_access":"wlan","internet_access:fee":"customers","power_supply":"yes","sanitary_dump_station":"no"}},"1266828154":{"location":[45.9962476,8.7242285],"ct":"IT","tp":"CR","ts":"2024-03-27T16:30:50Z","tX":536,"tY":364,"tags":{"capacity":"6","charge":"15 EUR","description":"1.50 Eur per hour, coins needed. 20:00 till 8:00 for free. Grey and black water disposal and fresh water included. Beach closeby but swimming formidden.","fee":"yes","name":"Area Camper Germignaga","power_supply":"yes","power_supply:charge":"3 EUR/12 hours","power_supply:fee":"yes","sanitary_dump_station":"yes","surface":"asphalt","toilets":"yes"}},"1378611002":{"location":[46.0608215,8.6923388],"ct":"IT","tp":"CR","ts":"2022-01-19T16:13:14Z","tX":536,"tY":364,"tags":{"fee":"yes","name":"Motorhome parking"}},"2301570098":{"location":[45.9272995,8.5629592],"ct":"IT","tp":"SD","ts":"2015-04-29T00:33:59Z","tX":536,"tY":364,"tags":{}},"11073126506":{"location":[46.0702216,8.6931127],"ct":"IT","tp":"CS","ts":"2023-07-31T03:11:20Z","tX":536,"tY":364,"tags":{"addr:housenumber":"5","addr:street":"Via Darbedo","name":"Camping Pedri"}},"11073126605":{"location":[46.070236,8.6931007],"ct":"IT","tp":"CS","ts":"2023-07-31T03:11:20Z","tX":536,"tY":364,"tags":{"addr:housenumber":"5","addr:postcode":"28822","addr:street":"Via Darbedo","email":"pedro@campingpedro.com","internet_access":"wlan","name":"Campeggio Pedro","phone":"+393357027966","website":"http://campingpedro.com"}},"8196242417":{"location":[45.8878285,8.5264769],"ct":"IT","tp":"CR","ts":"2024-11-12T18:16:09Z","tX":536,"tY":364,"tags":{"addr:housenumber":"32","addr:postcode":"28838","addr:street":"Via Principe di Piemonte","capacity":"9","charge":"2.7€/h","check_date":"2023-05-19","description":"8 parking spaces to stay, 1 parking space is a dumping station. Paying from 09:00-22:00","fee":"yes","opening_hours":"24/7","panoramax":"fdbd4e91-8aa6-4984-981b-e9f3895dfb33","permanent_camping":"no","sanitary_dump_station":"yes","toilets":"no"}},"8197191523":{"location":[45.9272971,8.5628701],"ct":"IT","tp":"CR","ts":"2024-03-30T21:06:22Z","tX":536,"tY":364,"tags":{"addr:housenumber":"66","addr:postcode":"28922","addr:street":"Corso Europa","opening_hours":"24/7"}},"11047994851":{"location":[46.0620992,8.6905167],"ct":"IT","tp":"CR","ts":"2023-07-15T12:43:05Z","tX":536,"tY":364,"tags":{"check_date":"2023-07-15","description":"Wohnmobil Stellplatz"}},"11073126705":{"location":[46.0623338,8.6900806],"ct":"IT","tp":"CR","ts":"2023-07-31T03:11:20Z","tX":536,"tY":364,"tags":{"addr:housenumber":"7","addr:postcode":"28822","addr:street":"Via Casali Masserecci","internet_access":"wlan","name":"Cannobio, Casali Masserecci, 7"}},"11672989886":{"location":[45.895808,8.7289924],"ct":"IT","tp":"CR","ts":"2024-02-28T16:06:18Z","tX":536,"tY":364,"tags":{}},"11766528501":{"location":[45.97257,8.7528245],"ct":"IT","tp":"CR","ts":"2024-03-27T16:38:42Z","tX":536,"tY":364,"tags":{"fee":"yes","name":"Area Camper Luino","power_supply":"yes"}},"11816174869":{"location":[45.9577533,8.5176236],"ct":"IT","tp":"CR","ts":"2024-04-14T08:20:09Z","tX":536,"tY":364,"tags":{"addr:street":"Via Ponte romano","name":"Area di sosta camper","name:en":"Camper zone"}},"4909664589":{"location":[45.9499226,8.4805327],"ct":"IT","tp":"SD","ts":"2018-01-22T08:14:41Z","tX":536,"tY":364,"tags":{"access":"customers","sanitary_dump_station:grey_water":"yes"}},"4911579686":{"location":[45.9386649,8.5015592],"ct":"IT","tp":"SD","ts":"2024-05-23T15:38:17Z","tX":536,"tY":364,"tags":{"fee":"no"}},"7637363535":{"location":[46.0610571,8.6924582],"ct":"IT","tp":"SD","ts":"2022-01-19T16:13:14Z","tX":536,"tY":364,"tags":{"sanitary_dump_station:chemical_toilet":"yes","sanitary_dump_station:fee":"no","sanitary_dump_station:gravity":"yes","sanitary_dump_station:grey_water":"yes","sanitary_dump_station:suction":"no"}},"9016375836":{"location":[45.9960272,8.7242462],"ct":"IT","tp":"SD","ts":"2023-10-06T11:45:24Z","tX":536,"tY":364,"tags":{"description":"grey and black water. Fresh water. Free of charge."}},"9922237709":{"location":[45.9529596,8.4776241],"ct":"IT","tp":"SD","ts":"2023-10-03T20:45:57Z","tX":536,"tY":364,"tags":{"access":"customers"}},"9999214472":{"location":[45.9364261,8.4894561],"ct":"IT","tp":"SD","ts":"2022-09-04T08:52:52Z","tX":536,"tY":364,"tags":{}},"10780122180":{"location":[46.0382955,8.765694],"ct":"IT","tp":"SD","ts":"2025-02-23T16:04:01Z","tX":536,"tY":364,"tags":{"access":"yes","fee":"yes","opening_hours":"24/7","operator":"camperwash"}},"11307140215":{"location":[46.0198331,8.6801254],"ct":"IT","tp":"SD","ts":"2023-11-02T21:18:00Z","tX":536,"tY":364,"tags":{"access":"customers","water_point":"no"}},"12294912844":{"location":[45.9369045,8.4868126],"ct":"IT","tp":"SD","ts":"2024-10-28T23:49:14Z","tX":536,"tY":364,"tags":{"access":"permissive","fee":"no","operator":"Conca d'Oro","water_point":"yes"}}}