{"1302915":{"location":[45.7290426,8.6201892],"ct":"IT","tp":"CS","ts":"2019-03-20T23:33:34Z","tX":536,"tY":365,"tags":{"addr:city":"Sesto Calende","addr:country":"IT","addr:housenumber":"1","addr:postcode":"21018","addr:street":"Via Angera","email":"info@campeggiolasfinge.it","name":"La Sfinge","phone":"+39 0331 924531","website":"https://www.campeggiolasfinge.it/"}},"1302916":{"location":[45.7589486,8.5849296],"ct":"IT","tp":"CS","ts":"2012-12-31T17:13:02Z","tX":536,"tY":365,"tags":{"area":"yes","name":"Città di Angera","source":"Regione Lombardia - La banca dati territoriali CTR10000 è prodotta da Regione Lombardia - Infrastruttura per l'Informazione Territoriale"}},"1314307":{"location":[45.7616591,8.6999767],"ct":"IT","tp":"CS","ts":"2024-06-26T16:34:19Z","tX":536,"tY":365,"tags":{"addr:city":"Varano Borghi","addr:country":"IT","addr:housenumber":"12","addr:postcode":"21020","addr:street":"Via dei Martiri","email":"info@campinglamadunina.com","fax":"+39 0332 960361","name":"Camping La Madunina","phone":"+39 0332 960361","stars":"3","website":"https://www.campinglamadunina.com/"}},"35148798":{"location":[45.755466,8.6789187],"ct":"IT","tp":"CS","ts":"2017-03-11T13:13:19Z","tX":536,"tY":365,"tags":{"addr:city":"Mercallo","addr:country":"IT","addr:housenumber":"1156","addr:postcode":"21020","addr:street":"Via Fornace","email":"vecchia.fornace@tin.it","fax":"+39 0331 968078","name":"Villaggio Vecchia Fornace","phone":"+39 0331 968078","website":"http://www.villaggiovecchiafornace.it/"}},"51753569":{"location":[45.7119209,8.6558576],"ct":"IT","tp":"CS","ts":"2023-11-04T12:48:32Z","tX":536,"tY":365,"tags":{"addr:city":"Golasecca","addr:country":"IT","addr:housenumber":"81","addr:postcode":"21010","addr:street":"Viale Europa","email":"info@campingilgabbiano.com","name":"Il Gabbiano","phone":"+39 0331 959131","website":"https://campingilgabbiano.com/"}},"132538382":{"location":[45.8268054,8.625888],"ct":"IT","tp":"CS","ts":"2020-06-08T08:46:01Z","tX":536,"tY":365,"tags":{"contact:mobile":"+39 334 148815","name":"International Camping Ispra"}},"177698342":{"location":[45.8151413,8.5500177],"ct":"IT","tp":"CS","ts":"2024-08-21T15:24:40Z","tX":536,"tY":365,"tags":{"addr:city":"Lesa","addr:housenumber":"1","addr:postcode":"28040","addr:street":"Via al Campeggio","email":"info@campingsolcio.com","fax":"+39 0322 7566","internet_access":"wlan","internet_access:fee":"yes","name":"Camping Solcio","phone":"+39 0322 7497","smoking":"yes","stars":"2","website":"https://www.campingsolcio.it/","wheelchair":"yes"}},"183303155":{"location":[45.7489878,8.5959201],"ct":"IT","tp":"CS","ts":"2019-03-24T13:59:38Z","tX":536,"tY":365,"tags":{"addr:city":"Sesto Calende","addr:country":"IT","addr:housenumber":"115","addr:place":"Lisanza","addr:postcode":"21018","addr:street":"Via Angera","email":"campingokay@camping-okay.com","name":"Camping Okay","phone":"+39 0331 974235","website":"https://www.camping-okay.com/"}},"193312901":{"location":[45.7793973,8.6970924],"ct":"IT","tp":"CR","ts":"2015-12-30T10:48:56Z","tX":536,"tY":365,"tags":{}},"198621157":{"location":[45.7218879,8.5856916],"ct":"IT","tp":"CS","ts":"2022-10-05T22:13:29Z","tX":536,"tY":365,"tags":{"addr:city":"Dormelletto","addr:country":"IT","addr:housenumber":"131","addr:street":"Corso Camillo Benso Conte di Cavour","email":"info@camping-smeraldo.com","name":"Camping Smeraldo","phone":"+39 0322 497031","website":"http://www.camping-smeraldo.com/it_web/index.php"}},"198743860":{"location":[45.7225785,8.614982],"ct":"IT","tp":"CS","ts":"2022-09-13T16:47:09Z","tX":536,"tY":365,"tags":{"addr:housenumber":"10","addr:street":"Via del Cantiere","name":"Camping 2000","phone":"+390331924092","website":"https://camping2000.it/"}},"198743863":{"location":[45.723534,8.6115064],"ct":"IT","tp":"CS","ts":"2021-03-01T19:35:54Z","tX":536,"tY":365,"tags":{"name":"Italia Lido","phone":"+39 0331 923032"}},"457671742":{"location":[45.7310029,8.5793706],"ct":"IT","tp":"CS","ts":"2017-07-15T19:46:20Z","tX":536,"tY":365,"tags":{"name":"Camping Eden","phone":"+39 0322 497524"}},"457671743":{"location":[45.7378746,8.5776193],"ct":"IT","tp":"CS","ts":"2024-04-19T09:43:01Z","tX":536,"tY":365,"tags":{"addr:city":"Dormelletto","addr:country":"IT","addr:housenumber":"2","addr:postcode":"28040","addr:street":"Via Erinco Fermi","contact:email":"info@campinglagoazzurro.it","contact:phone":"+39 0322 497197","contact:website":"https://www.campinglagoazzurro.it","name":"Camping Lago Azzurro","stars":"3"}},"457675271":{"location":[45.7347104,8.5775137],"ct":"IT","tp":"CS","ts":"2024-11-23T11:43:07Z","tX":536,"tY":365,"tags":{"addr:city":"Dormelletto","addr:housenumber":"2","addr:postcode":"28040","addr:street":"Via Salvador Dalì","alt_name":"Residence Alice","check_date":"2024-11-23","fee":"yes","name":"Camping Village Lago Maggiore","phone":"+39 0322 497193","website":"https://www.campinglagomaggiore.com/it/consorzio-lago-maggiore/camping-village-lago-maggiore-dormelletto-no/"}},"457735272":{"location":[45.7290093,8.5812625],"ct":"IT","tp":"CS","ts":"2024-04-19T09:43:22Z","tX":536,"tY":365,"tags":{"contact:phone":"+39 0322 497047","name":"Camping Lido Holiday","wheelchair":"yes"}},"459161727":{"location":[45.7239221,8.6024142],"ct":"IT","tp":"CS","ts":"2017-03-16T08:40:28Z","tX":536,"tY":365,"tags":{"name":"Camping La Quercia"}},"482204155":{"location":[45.7221536,8.6171491],"ct":"IT","tp":"CS","ts":"2017-03-24T07:54:57Z","tX":536,"tY":365,"tags":{"name":"Camping Lido Verbano"}},"506460426":{"location":[45.7827815,8.6757732],"ct":"IT","tp":"CS","ts":"2017-07-10T13:30:51Z","tX":536,"tY":365,"tags":{"name":"Camping Lago di Monate","phone":"+39 0331 968566"}},"1274046336":{"location":[45.7369449,8.5779128],"ct":"IT","tp":"CS","ts":"2024-04-19T09:43:01Z","tX":536,"tY":365,"tags":{"addr:city":"Dormelletto","addr:country":"IT","addr:housenumber":"3","addr:postcode":"28040","addr:street":"Via Erinco Fermi","alt_name":"Camping Rose","contact:email":"booking@campingrose.it","contact:phone":"+39 0322 497197","contact:website":"https://www.campingrose.it","name":"Camping Röse","stars":"3"}},"1317968861":{"location":[45.8034083,8.7834196],"ct":"IT","tp":"SD","ts":"2024-09-24T19:55:57Z","tX":536,"tY":365,"tags":{"access":"permissive","fee":"no"}},"1317968865":{"location":[45.8033446,8.7834713],"ct":"IT","tp":"CR","ts":"2024-09-24T19:55:57Z","tX":536,"tY":365,"tags":{"addr:city":"Varese","addr:postcode":"21100","addr:street":"Piazzale Roma","capacity":"9","drinking_water":"no","fee":"no","internet_access":"no","maxstay":"2 days","name":"Area Camper Schiranna","note":"Chiusa per lavori in corso","opening_hours":"24/7 closed","permanent_camping":"no","power_supply":"yes","sanitary_dump_station":"yes","toilets":"no","wheelchair":"no"}},"1883901764":{"location":[45.7616852,8.7003005],"ct":"IT","tp":"CR","ts":"2012-08-26T15:43:32Z","tX":536,"tY":365,"tags":{}},"8913544561":{"location":[45.6421126,8.61712],"ct":"IT","tp":"CS","ts":"2021-07-12T10:52:40Z","tX":536,"tY":365,"tags":{"addr:city":"Pombia","addr:housenumber":"3","addr:postcode":"28050","addr:street":"Via Larino","name":"Safari Park","website":"https://safaripark.it/attrazioni/safari-camping/"}},"5572904371":{"location":[45.7850247,8.4411961],"ct":"IT","tp":"CR","ts":"2018-04-23T07:44:11Z","tX":536,"tY":365,"tags":{}},"8047896585":{"location":[45.7943654,8.5901483],"ct":"IT","tp":"CR","ts":"2024-08-25T07:47:42Z","tX":536,"tY":365,"tags":{"capacity":"20","drinking_water":"yes","fee":"yes","internet_access":"wlan","internet_access:fee":"customers","name":"Agricampeggio Lago Maggiore","name:de":"Wohnwagenstellplatz","note":"Agricampeggio Lago Maggiore Ranco\nArea sosta Sass Cavalasc","power_supply":"yes","sanitary_dump_station":"yes","toilets":"yes","website":"http://www.agricamperlagomaggiore.it/"}},"8195174817":{"location":[45.7852326,8.4411158],"ct":"IT","tp":"CR","ts":"2020-12-11T23:37:06Z","tX":536,"tY":365,"tags":{"fee":"yes"}},"5572904374":{"location":[45.7850368,8.4408997],"ct":"IT","tp":"SD","ts":"2018-04-23T07:44:11Z","tX":536,"tY":365,"tags":{}},"11262160234":{"location":[45.6603635,8.5025972],"ct":"IT","tp":"SD","ts":"2023-10-15T14:00:55Z","tX":536,"tY":365,"tags":{"fixme":"Check and correct position. I only saw that the service area has a RV dump station signaled, but passed in the car."}}}