{"359786174":{"location":[44.9645895,8.6284125],"ct":"IT","tp":"CS","ts":"2024-04-19T10:24:50Z","tX":536,"tY":368,"tags":{"addr:city":"Alessandria","addr:country":"IT","addr:housenumber":"6/12","addr:postcode":"15122","addr:street":"via Valmigliaro","addr:suburb":"Valle San Bartolomeo","name":"Campeggio Valmilana","note":"Nel centro sono presenti bar, hotel, piscina e campeggio","wheelchair":"yes"}},"359786177":{"location":[44.9644304,8.6262567],"ct":"IT","tp":"CS","ts":"2015-07-17T08:09:54Z","tX":536,"tY":368,"tags":{"addr:city":"Alessandria","addr:housenumber":"6/12","addr:place":"Valle San Bartolomeo","addr:postcode":"15122","addr:street":"via Valmigliaro","name":"Centro Turistico Valmilana","note":"Nel centro sono presenti bar, hotel, piscina e campeggio","wheelchair":"yes"}},"460346362":{"location":[45.0397708,8.6068403],"ct":"IT","tp":"CS","ts":"2017-01-16T09:49:46Z","tX":536,"tY":368,"tags":{}},"460346445":{"location":[45.0405666,8.607891],"ct":"IT","tp":"CS","ts":"2017-01-16T09:49:46Z","tX":536,"tY":368,"tags":{}},"638329062":{"location":[45.0586049,8.5097534],"ct":"IT","tp":"CR","ts":"2018-10-26T19:50:07Z","tX":536,"tY":368,"tags":{"sanitary_dump_station":"yes"}},"639598576":{"location":[45.0297051,8.5293078],"ct":"IT","tp":"CR","ts":"2018-10-31T06:27:59Z","tX":536,"tY":368,"tags":{}},"1119859555":{"location":[44.9100882,8.6306994],"ct":"IT","tp":"SD","ts":"2024-05-12T11:28:08Z","tX":536,"tY":368,"tags":{"fee":"unknown","sanitary_dump_station:accepted":"black_water;grey_water;tank_chemicals","sanitary_dump_station:chemical_toilet":"yes","sanitary_dump_station:grey_water":"yes"}},"4040489167":{"location":[44.9210178,8.6265406],"ct":"IT","tp":"CR","ts":"2016-03-04T17:27:39Z","tX":536,"tY":368,"tags":{"addr:city":"Alessandria","addr:postcode":"15121","fee":"no"}},"10676488768":{"location":[45.0039815,8.6389153],"ct":"IT","tp":"SD","ts":"2023-02-18T16:55:54Z","tX":536,"tY":368,"tags":{}},"11368819341":{"location":[45.075177,8.5083595],"ct":"IT","tp":"SD","ts":"2023-11-22T15:19:22Z","tX":536,"tY":368,"tags":{}}}