{"178636483":{"location":[39.908538,8.5189063],"ct":"IT","tp":"CS","ts":"2025-02-15T11:22:35Z","tX":536,"tY":388,"tags":{"caravans":"yes","drinking_water":"no","name":"Torregrande","tents":"yes"}},"319212352":{"location":[39.9030058,8.5295385],"ct":"IT","tp":"CS","ts":"2024-09-13T19:54:39Z","tX":536,"tY":388,"tags":{"addr:city":"Oristano","addr:postcode":"09170","addr:street":"Strada Torre Grande Pontile","caravans":"yes","drinking_water":"no","email":"info@spinnakervacanze.com","fax":"+39 0783 22071","fee":"yes","internet_access":"yes","internet_access:fee":"no","name":"Spinnaker","operator":"Village Camping Spinnaker","phone":"+39 0783 22074","power_supply":"yes","power_supply:maxcurrent":"6","ref:vatin":"IT00676110950","sanitary_dump_station":"customers","shower":"yes","stars":"4","tents":"yes","toilets":"yes","website":"https://www.spinnakervacanze.com/"}},"322662381":{"location":[39.81828,8.5542205],"ct":"IT","tp":"CS","ts":"2020-01-11T15:08:20Z","tX":536,"tY":388,"tags":{"addr:city":"Arborea","addr:postcode":"09092","addr:street":"Strada 29 Ovest","email":"info@senarrubia.com","internet_access":"wlan","internet_access:fee":"no","name":"Camping S'Ena Arrubia","phone":"+39 0783 809011","website":"http://www.senarrubia.it/"}},"578678830":{"location":[39.8020592,8.5499177],"ct":"IT","tp":"CR","ts":"2023-01-11T21:45:04Z","tX":536,"tY":388,"tags":{"addr:city":"Arborea","addr:postcode":"09092","addr:street":"Strada 26 Ovest","capacity":"20","name":"Area Camper Marina di Arborea","power_supply":"yes","toilets":"no","wheelchair":"yes"}},"1044770072":{"location":[39.8971083,8.5892021],"ct":"IT","tp":"SD","ts":"2022-08-10T12:36:19Z","tX":536,"tY":388,"tags":{"fee":"no"}},"1090146919":{"location":[39.7266032,8.754733],"ct":"IT","tp":"CR","ts":"2022-08-29T09:31:14Z","tX":536,"tY":388,"tags":{}},"9945628382":{"location":[39.6853659,8.6458154],"ct":"IT","tp":"SD","ts":"2022-08-10T18:33:37Z","tX":536,"tY":388,"tags":{"fee":"toilet drain 4EUR, water intake 4EUR, electric current 4EUR"}},"11919991081":{"location":[39.7570134,8.649097],"ct":"IT","tp":"SD","ts":"2024-05-20T15:10:19Z","tX":536,"tY":388,"tags":{"access":"yes","fee":"no","water_point":"yes"}}}