{"182066731":{"location":[42.9449544,-9.2203858],"ct":"ES","tp":"CS","ts":"2023-03-03T10:03:10Z","tX":485,"tY":376,"tags":{"addr:city":"Cee","addr:housenumber":"126","addr:postcode":"15137","addr:street":"Playa de Estorde","caravans":"yes","contact:fax":"+34 981746302","description:en":"entrance to camping area in a forrrest. closed in middle of september (2022).","email":"campingrutafinisterre@hotmail.es","internet_access":"wlan","internet_access:fee":"no","leaf_cycle":"evergreen","leaf_type":"needleleaved","name":"Cámping Ruta Finisterre","opening_hours":"Jun-Sep","operator":"private","phone":"+34 981746302","power_supply":"yes","shower":"yes","tents":"yes","toilets":"yes","website":"http://www.rutafinisterre.com/microweb.php?id=159","wheelchair":"yes"}},"501387301":{"location":[43.0118985,-9.262551],"ct":"ES","tp":"CR","ts":"2017-06-18T12:17:51Z","tX":485,"tY":376,"tags":{}},"589968524":{"location":[42.9113922,-9.2634706],"ct":"ES","tp":"CR","ts":"2024-05-05T14:26:50Z","tX":485,"tY":376,"tags":{"addr:city":"Fisterra","addr:housenumber":"53","addr:postcode":"15155","addr:street":"Avenida da Coruña","capacity":"30","caravan_site":"motorhome_stopover","description":"Open all year","dog":"yes","fee":"yes","internet_access":"wlan","internet_access:fee":"no","name":"Área de Autocaravanas de Fisterra","name:nl":"Area caravanes Finisterra","opening_hours":"Mo-Su 09:00-23:00","owner":"Hostel Oceanus","phone":"+34 636 82 62 01","power_supply":"yes","sanitary_dump_station":"yes","website":"https://www.turismo.gal/recurso/-/detalle/180212000109/area-de-o-campo-fisterra?langId=en_US&tp=42&ctre=1000260"}},"664663835":{"location":[42.9112688,-9.2635633],"ct":"ES","tp":"SD","ts":"2019-01-19T16:29:25Z","tX":485,"tY":376,"tags":{}},"1367415729":{"location":[42.9153106,-9.2669647],"ct":"ES","tp":"CR","ts":"2025-03-14T21:35:24Z","tX":485,"tY":376,"tags":{"name":"Área de Autocaravanas de San Roque"}},"4678368793":{"location":[42.8871982,-9.2733078],"ct":"ES","tp":"CR","ts":"2017-02-10T13:21:20Z","tX":485,"tY":376,"tags":{}},"5633634286":{"location":[42.9120135,-9.263847],"ct":"ES","tp":"SD","ts":"2024-05-05T11:18:44Z","tX":485,"tY":376,"tags":{"sanitary_dump_station:chemical_toilet":"yes","sanitary_dump_station:fee":"yes","sanitary_dump_station:gravity":"yes","sanitary_dump_station:grey_water":"yes","sanitary_dump_station:suction":"no"}},"8938661681":{"location":[42.9657837,-9.1935953],"ct":"ES","tp":"SD","ts":"2021-11-11T08:51:41Z","tX":485,"tY":376,"tags":{"access":"yes","description":"Estación de vaciado de tanque para autocaravanas","description:en":"Tank emptying station for motorhomes","description:fr":"Station de vidange pour Camping-car.","fee":"no","operator":"Repsol","sanitary_dump_station":"public","sanitary_dump_station:chemical_toilet":"yes","sanitary_dump_station:fee":"no","sanitary_dump_station:gravity":"yes","sanitary_dump_station:grey_water":"yes","sanitary_dump_station:round_drain":"yes","sanitary_dump_station:suction":"no","water_point":"yes"}}}