{"138743727":{"location":[39.3687355,-9.3915591],"ct":"PT","tp":"CS","ts":"2025-02-09T23:59:49Z","tX":485,"tY":389,"tags":{"addr:city":"Peniche","addr:country":"PT","addr:postcode":"2520 - 605","addr:street":"Estrada Marginal Norte","cabins":"yes","caravans":"yes","dog":"yes","dryer":"yes","email":"geral@penichepraia.pt","internet_access":"wlan","internet_access:fee":"no","name":"Peniche Praia","operator":"PenichePraia – Bungalows, Campers & Spa","payment:cash":"yes","payment:mastercard":"yes","payment:visa":"yes","phone":"+351 262 783 460","power_supply":"yes","tents":"yes","washing_machine":"yes","website":"https://www.penichepraia.pt"}},"217590880":{"location":[39.4296681,-9.2023532],"ct":"PT","tp":"CS","ts":"2021-10-03T14:03:35Z","tX":485,"tY":389,"tags":{"name":"Camping Orbitur Foz do Arelho"}},"410374772":{"location":[39.4282849,-9.2203936],"ct":"PT","tp":"CR","ts":"2019-11-22T15:44:25Z","tX":485,"tY":389,"tags":{"addr:city":"Foz do Arelho","addr:postcode":"2500","capacity":"100","operator":"Junta de Freguesia de Foz do Arelho","power_supply":"yes","sanitary_dump_station":"yes"}},"459399560":{"location":[39.3921524,-9.1694199],"ct":"PT","tp":"CR","ts":"2017-07-15T21:59:35Z","tX":485,"tY":389,"tags":{"addr:housenumber":"10","addr:street":"Rua das Cumeiras (via Rua 8 Decembro)","contact:email":"info@casa-azzurra.pt","contact:mobile":"+49 172 5618752","contact:phone":"+351 262 010 205","description":"Unter deutscher Leitung","fee":"yes","internet_access":"wlan","name":"Casa Azzurra","power_supply":"yes","sanitary_dump_station":"yes","water_point":"yes","website":"https://www.casa-azzurra.pt"}},"659518925":{"location":[39.5005159,-9.1507317],"ct":"PT","tp":"CR","ts":"2020-10-02T09:05:22Z","tX":485,"tY":389,"tags":{"fee":"yes","power_supply":"yes","sanitary_dump_station":"yes"}},"774690067":{"location":[39.3691661,-9.3912892],"ct":"PT","tp":"CS","ts":"2023-09-26T13:50:15Z","tX":485,"tY":389,"tags":{}},"4107908662":{"location":[39.387312,-9.2264889],"ct":"PT","tp":"CR","ts":"2016-09-08T13:01:59Z","tX":485,"tY":389,"tags":{}},"4140763937":{"location":[39.4263941,-9.2156235],"ct":"PT","tp":"CR","ts":"2016-09-23T12:37:53Z","tX":485,"tY":389,"tags":{}},"4140775890":{"location":[39.426409,-9.2158376],"ct":"PT","tp":"CR","ts":"2016-04-22T13:08:58Z","tX":485,"tY":389,"tags":{}},"9932133717":{"location":[39.3728792,-9.3177397],"ct":"PT","tp":"CS","ts":"2022-08-04T16:08:32Z","tX":485,"tY":389,"tags":{"name:en":"Urban Art Camping"}},"11097179738":{"location":[39.372888,-9.3173924],"ct":"PT","tp":"CS","ts":"2023-08-07T14:31:11Z","tX":485,"tY":389,"tags":{"addr:city":"Ferrel","addr:street":"Do Cataló","name":"Urban art"}}}