{"158830581":{"location":[38.6300494,-9.2249181],"ct":"PT","tp":"CS","ts":"2019-08-12T22:55:14Z","tX":485,"tY":392,"tags":{"name":"Parque de Campismo da Costa Nova"}},"158830582":{"location":[38.6274035,-9.222891],"ct":"PT","tp":"CS","ts":"2024-04-16T17:51:31Z","tX":485,"tY":392,"tags":{"name":"Parque de Campismo Piedense","phone":"+351 212 918 850","website":"https://sfuap.pt/Inicio/campismo/"}},"158830583":{"location":[38.6329578,-9.2274388],"ct":"PT","tp":"CS","ts":"2018-03-07T14:08:53Z","tX":485,"tY":392,"tags":{"name":"Clube de Campismo do Concelho de Almada"}},"188747765":{"location":[38.6356571,-9.2270136],"ct":"PT","tp":"CS","ts":"2018-07-25T09:36:41Z","tX":485,"tY":392,"tags":{}},"278338218":{"location":[38.6510159,-9.2420345],"ct":"PT","tp":"CS","ts":"2018-11-23T23:43:19Z","tX":485,"tY":392,"tags":{"name":"Parque Nacional de Escotismo da Caparica (PNEC)","operator":"AEP - Associação dos Escoteiros de Portugal","short_name":"PNEC","website":"https://centros.escoteiros.pt/pt-pt/pnec/"}},"375972301":{"location":[38.7227792,-9.467507],"ct":"PT","tp":"CS","ts":"2024-08-28T09:43:15Z","tX":485,"tY":392,"tags":{"access":"customers","addr:city":"Cascais","addr:housenumber":"247","addr:postcode":"2750 - 053","addr:street":"Lugar de Areia","addr:unit":"6","area":"yes","caravans":"yes","email":"infoguincho@orbitur.pt","fee":"yes","name":"Orbitur Guincho","phone":"+351 214 870 450","static_caravans":"yes","tents":"yes","website":"https://www.orbitur.pt/destinos/regiao-lisboa/orbitur-guincho","wheelchair":"yes"}},"474045602":{"location":[38.654535,-9.2432462],"ct":"PT","tp":"CS","ts":"2024-09-01T03:18:23Z","tX":485,"tY":392,"tags":{"name":"Parque de Campismo INATEL da Caparica","operator":"INATEL","website":"https://www.inatel.pt/Fundacao/Onde-ficar/Campismo/INATEL-da-Caparica/INATEL-Caparica.aspx"}},"522294097":{"location":[38.6521041,-9.2384805],"ct":"PT","tp":"CS","ts":"2024-09-01T03:18:23Z","tX":485,"tY":392,"tags":{"addr:city":"Costa da Caparica","addr:postcode":"2825-450","addr:street":"Avenida Afonso de Albuquerque","caravans":"yes","drinking_water":"yes","name":"Orbitur Costa da Caparica","operator":"Orbitur","power_supply":"yes","sanitary_dump_station":"yes","shower":"yes","tents":"yes","toilets":"yes"}},"523732039":{"location":[38.6324659,-9.1554141],"ct":"PT","tp":"CR","ts":"2022-09-22T14:10:58Z","tX":485,"tY":392,"tags":{"capacity":"15","fee":"no","internet_access":"no","name":"Area Serviço Autocaravana Corroios","operator":"COMUNALE","power_supply":"no","sanitary_dump_station":"yes"}},"610761913":{"location":[38.6352446,-9.2246705],"ct":"PT","tp":"CS","ts":"2018-07-25T10:43:02Z","tX":485,"tY":392,"tags":{}},"624846061":{"location":[38.8189179,-9.4643985],"ct":"PT","tp":"CS","ts":"2020-12-17T13:05:03Z","tX":485,"tY":392,"tags":{"cabins":"yes","caravans":"no","fee":"yes","internet_access":"wlan","name":"Aldeia da Praia","tents":"no","wheelchair":"yes"}},"1073323437":{"location":[38.7243121,-9.2058566],"ct":"PT","tp":"CS","ts":"2023-07-21T13:10:03Z","tX":485,"tY":392,"tags":{"access":"yes","addr:city":"Lisboa","addr:postcode":"1400-061","addr:street":"Estrada da Circunvalação","barrier":"fence","caravans":"yes","email":"info@lisboacamping.com","fee":"yes","fence_type":"chain_link","name":"Lisboa Camping","phone":"+351 217 628 200","stars":"3","tents":"yes","website":"https://lisboacamping.com/"}},"5541296721":{"location":[38.8132738,-9.4601957],"ct":"PT","tp":"CS","ts":"2022-12-29T00:47:15Z","tX":485,"tY":392,"tags":{"addr:housenumber":"107 b","addr:postcode":"2705-287","addr:street":"Avenida do Atlântico","cuisine":"coffee_shop;local","diet:vegan":"yes","diet:vegetarian":"only","email":"quinta7nomes@gmail.com","internet_access":"wlan","name":"quinta 7 nomes","opening_hours":"We-Su 10:00-19:00","phone":"+351 21 929 1656","website":"http://www.quinta7nomes.com/cafe.html"}},"8747702021":{"location":[38.7257931,-9.1624878],"ct":"PT","tp":"CS","ts":"2024-05-20T12:24:48Z","tX":485,"tY":392,"tags":{"group_only":"yes","name":"Pais & Martins Lda"}},"4429428595":{"location":[38.7405896,-9.2219328],"ct":"PT","tp":"CR","ts":"2016-10-03T20:04:35Z","tX":485,"tY":392,"tags":{}},"6572834543":{"location":[38.7879722,-9.3754323],"ct":"PT","tp":"CR","ts":"2019-06-26T16:12:36Z","tX":485,"tY":392,"tags":{"fee":"yes","sanitary_dump_station":"yes"}},"9862753017":{"location":[38.8060336,-9.3789329],"ct":"PT","tp":"CR","ts":"2022-07-02T18:58:12Z","tX":485,"tY":392,"tags":{}},"11821834644":{"location":[38.8025585,-9.3736292],"ct":"PT","tp":"CR","ts":"2024-04-16T11:22:01Z","tX":485,"tY":392,"tags":{"charge":"1.50 EUR","fee":"yes","name":"Portela de Sintra"}},"6077738025":{"location":[38.6328413,-9.1551768],"ct":"PT","tp":"SD","ts":"2022-09-22T14:10:58Z","tX":485,"tY":392,"tags":{"name":"POZZETTO DI SCARICO","operator":"PUBBLICO"}}}