{"3900953442":{"location":[48.0429707,106.9238844],"ct":"MN","tp":"CS","ts":"2016-10-19T07:11:21Z","tX":816,"tY":355,"tags":{"name":"goodoin zuslan"}},"4222196295":{"location":[48.0577801,107.0284918],"ct":"MN","tp":"CS","ts":"2016-06-02T17:56:37Z","tX":816,"tY":355,"tags":{"addr:housenumber":"B7","name":"Khadat Villa","phone":"88108810"}},"4432465092":{"location":[48.0228098,107.1453186],"ct":"MN","tp":"CS","ts":"2016-10-05T11:30:19Z","tX":816,"tY":355,"tags":{"name":"Самар","name:en":"Nuts","name:mn":"Самар"}},"4920032322":{"location":[48.1529592,106.8927345],"ct":"MN","tp":"CS","ts":"2017-06-17T05:38:32Z","tX":816,"tY":355,"tags":{"name":"Бага баян цэргийн амралт","name:en":"Baga bayn army camp","name:mn":"Бага баян цэргийн амралт"}},"5026353823":{"location":[48.0668955,106.969247],"ct":"MN","tp":"CS","ts":"2017-08-10T12:16:54Z","tX":816,"tY":355,"tags":{"name:en":"MND's House"}},"5383045821":{"location":[48.0301034,106.9193915],"ct":"MN","tp":"CS","ts":"2018-02-03T13:58:59Z","tX":816,"tY":355,"tags":{"addr:street":"Гоодойн зуслан","name":"100 modnii lager","name:en":"Summer Camp"}},"5468707323":{"location":[48.054056,107.0032894],"ct":"MN","tp":"CS","ts":"2018-03-10T07:48:57Z","tX":816,"tY":355,"tags":{"name":"Номун амралт","name:en":"Nomun rest"}},"5544942821":{"location":[48.151151,106.8907147],"ct":"MN","tp":"CS","ts":"2020-11-05T08:12:07Z","tX":816,"tY":355,"tags":{}},"5711915322":{"location":[48.0800769,106.8821519],"ct":"MN","tp":"CS","ts":"2018-06-22T17:41:19Z","tX":816,"tY":355,"tags":{"name":"намхай ахынх","name:en":"namhai ahiinh"}},"5836001885":{"location":[48.1290349,106.882218],"ct":"MN","tp":"CS","ts":"2020-11-20T06:59:18Z","tX":816,"tY":355,"tags":{"name":"бодь группын зуслан","name:en":"camp of Bodi group"}},"6597752085":{"location":[48.1226491,106.8820058],"ct":"MN","tp":"CS","ts":"2019-07-09T01:03:27Z","tX":816,"tY":355,"tags":{"name":"Ойн булаг","name:en":"oin bulag"}},"7474816185":{"location":[48.0357572,107.0202495],"ct":"MN","tp":"CS","ts":"2020-05-03T01:08:29Z","tX":816,"tY":355,"tags":{"name":"Чука ахын лагер"}},"9941444517":{"location":[48.1123366,106.9077718],"ct":"MN","tp":"CS","ts":"2022-08-09T02:21:15Z","tX":816,"tY":355,"tags":{"name":"Зуслан"}},"10992478206":{"location":[48.0416787,107.1725796],"ct":"MN","tp":"CS","ts":"2023-06-20T17:17:01Z","tX":816,"tY":355,"tags":{}},"11016244608":{"location":[48.0307804,107.0079726],"ct":"MN","tp":"CS","ts":"2023-06-30T15:21:06Z","tX":816,"tY":355,"tags":{"name":"Чимэд-н лагер","name:en":"Chimdee's house"}},"11016265605":{"location":[48.0312053,107.0090317],"ct":"MN","tp":"CS","ts":"2023-06-30T15:23:19Z","tX":816,"tY":355,"tags":{"name":"Чимэдийн лагер","name:en":"Chimdee's house"}}}