{"2645727821":{"location":[12.4299794,107.081029],"ct":"KH","tp":"CS","ts":"2015-08-21T12:06:55Z","tX":816,"tY":476,"tags":{}},"5061865822":{"location":[12.4135051,107.1651118],"ct":"KH","tp":"CS","ts":"2021-01-04T15:47:12Z","tX":816,"tY":476,"tags":{"name:en":"Camping Putaing"}},"5591451921":{"location":[12.4438949,107.1811301],"ct":"KH","tp":"CS","ts":"2020-03-03T04:17:56Z","tX":816,"tY":476,"tags":{"name:en":"Mayura Hill"}},"6987139285":{"location":[12.4111236,107.162204],"ct":"KH","tp":"CS","ts":"2019-11-18T12:49:34Z","tX":816,"tY":476,"tags":{"addr:street":"Indigenous Village Road","name:en":"Mondulkiri Tour and Home Stay"}},"12634550503":{"location":[12.3252067,107.0691674],"ct":"KH","tp":"CS","ts":"2025-03-03T22:08:45Z","tX":816,"tY":476,"tags":{"name:en":"Camp"}},"12635262801":{"location":[12.3216859,107.0675421],"ct":"KH","tp":"CS","ts":"2025-03-04T07:46:39Z","tX":816,"tY":476,"tags":{"name:en":"bird hide"}},"12638019001":{"location":[12.3181475,107.060233],"ct":"KH","tp":"CS","ts":"2025-03-05T07:03:06Z","tX":816,"tY":476,"tags":{"name:en":"Langpot"}},"12638051801":{"location":[12.318466,107.0606895],"ct":"KH","tp":"CS","ts":"2025-03-05T07:32:07Z","tX":816,"tY":476,"tags":{"name:en":"bamboo"}},"12638122701":{"location":[12.3154682,107.0606895],"ct":"KH","tp":"CS","ts":"2025-03-05T07:56:54Z","tX":816,"tY":476,"tags":{"name:en":"monkey"}},"12638123001":{"location":[12.3233367,107.060962],"ct":"KH","tp":"CS","ts":"2025-03-05T07:57:36Z","tX":816,"tY":476,"tags":{"name:en":"BCD"}},"12638219101":{"location":[12.3232275,107.0633791],"ct":"KH","tp":"CS","ts":"2025-03-05T08:46:42Z","tX":816,"tY":476,"tags":{"name:en":"G1"}},"12658027101":{"location":[12.3238207,107.0665738],"ct":"KH","tp":"CS","ts":"2025-03-13T07:24:31Z","tX":816,"tY":476,"tags":{"name:en":"Camera trap 1"}},"12658027201":{"location":[12.3236738,107.0676726],"ct":"KH","tp":"CS","ts":"2025-03-13T07:24:38Z","tX":816,"tY":476,"tags":{"name:en":"cmera trap 2"}},"12677819101":{"location":[12.3236721,107.065146],"ct":"KH","tp":"CS","ts":"2025-03-19T01:10:17Z","tX":816,"tY":476,"tags":{"name:en":"B. Tmor"}},"12679836401":{"location":[12.32303,107.0672657],"ct":"KH","tp":"CS","ts":"2025-03-19T09:52:25Z","tX":816,"tY":476,"tags":{"name:en":"PHW"}},"12679836701":{"location":[12.3231016,107.0673569],"ct":"KH","tp":"CS","ts":"2025-03-19T09:52:27Z","tX":816,"tY":476,"tags":{"name:en":"heart spoted woodpecker"}},"12686085601":{"location":[12.3223169,107.066958],"ct":"KH","tp":"CS","ts":"2025-03-21T03:00:43Z","tX":816,"tY":476,"tags":{"name:en":"dem Kovid"}},"12686085701":{"location":[12.3227456,107.066279],"ct":"KH","tp":"CS","ts":"2025-03-21T03:00:45Z","tX":816,"tY":476,"tags":{"name:en":"Dem Sroloa Chren"}},"12686085801":{"location":[12.3231491,107.066225],"ct":"KH","tp":"CS","ts":"2025-03-21T03:00:47Z","tX":816,"tY":476,"tags":{"name:en":"Bench Sroloa"}},"12686085901":{"location":[12.3216753,107.0645635],"ct":"KH","tp":"CS","ts":"2025-03-21T03:00:49Z","tX":816,"tY":476,"tags":{"name:en":"bamboo"}},"12686086001":{"location":[12.3213246,107.0644381],"ct":"KH","tp":"CS","ts":"2025-03-21T03:00:51Z","tX":816,"tY":476,"tags":{"name:en":"Bench Tnong Tek"}},"12686086101":{"location":[12.3205825,107.0644254],"ct":"KH","tp":"CS","ts":"2025-03-21T03:01:01Z","tX":816,"tY":476,"tags":{"name:en":"Bench 3"}},"12686086201":{"location":[12.319684,107.0642373],"ct":"KH","tp":"CS","ts":"2025-03-21T03:01:07Z","tX":816,"tY":476,"tags":{"name:en":"Tnong Tek Ochhong"}},"12686086202":{"location":[12.3195765,107.0643096],"ct":"KH","tp":"CS","ts":"2025-03-21T03:01:10Z","tX":816,"tY":476,"tags":{"name:en":"black bat flower"}},"12686086301":{"location":[12.3195495,107.0645834],"ct":"KH","tp":"CS","ts":"2025-03-21T03:01:14Z","tX":816,"tY":476,"tags":{"name:en":"Plot 7"}},"12686086302":{"location":[12.3198976,107.0651321],"ct":"KH","tp":"CS","ts":"2025-03-21T03:01:15Z","tX":816,"tY":476,"tags":{"name:en":"Dong Prey"}},"12686086303":{"location":[12.318892,107.0653128],"ct":"KH","tp":"CS","ts":"2025-03-21T03:01:20Z","tX":816,"tY":476,"tags":{"name:en":"Bench 2"}},"12686086304":{"location":[12.3204266,107.0652398],"ct":"KH","tp":"CS","ts":"2025-03-21T03:01:23Z","tX":816,"tY":476,"tags":{"name:en":"Bench 2"}},"12686086305":{"location":[12.3212828,107.065346],"ct":"KH","tp":"CS","ts":"2025-03-21T03:01:24Z","tX":816,"tY":476,"tags":{"name:en":"Plot 5"}},"12686086401":{"location":[12.321753,107.0659675],"ct":"KH","tp":"CS","ts":"2025-03-21T03:01:26Z","tX":816,"tY":476,"tags":{"name:en":"Bentorong"}},"12686086402":{"location":[12.3224209,107.0655324],"ct":"KH","tp":"CS","ts":"2025-03-21T03:01:29Z","tX":816,"tY":476,"tags":{"name:en":"firebacknnest"}},"12686086601":{"location":[12.321628,107.0630235],"ct":"KH","tp":"CS","ts":"2025-03-21T03:01:51Z","tX":816,"tY":476,"tags":{"name:en":"Dem Chherteal Thom"}},"12701701601":{"location":[12.3183081,107.064188],"ct":"KH","tp":"CS","ts":"2025-03-26T07:06:40Z","tX":816,"tY":476,"tags":{"name:en":"G1G2 ad G4 boundary"}},"12701787501":{"location":[12.319128,107.0635066],"ct":"KH","tp":"CS","ts":"2025-03-26T08:29:00Z","tX":816,"tY":476,"tags":{"name:en":"Mine"}},"12701790201":{"location":[12.3191425,107.0626285],"ct":"KH","tp":"CS","ts":"2025-03-26T08:31:06Z","tX":816,"tY":476,"tags":{"name:en":"Orchid"}},"12701790301":{"location":[12.3190863,107.0650697],"ct":"KH","tp":"CS","ts":"2025-03-26T08:31:08Z","tX":816,"tY":476,"tags":{"name:en":"Der cchrey o chholng G1"}},"12701790401":{"location":[12.3208911,107.0629687],"ct":"KH","tp":"CS","ts":"2025-03-26T08:31:09Z","tX":816,"tY":476,"tags":{"name:en":"plot 6th"}},"12701790501":{"location":[12.3223605,107.062144],"ct":"KH","tp":"CS","ts":"2025-03-26T08:31:12Z","tX":816,"tY":476,"tags":{"name:en":"Gecko"}},"12701806501":{"location":[12.3223456,107.0611099],"ct":"KH","tp":"CS","ts":"2025-03-26T08:38:38Z","tX":816,"tY":476,"tags":{"name:en":"CHhrey G5"}},"12701832401":{"location":[12.3233996,107.0638721],"ct":"KH","tp":"CS","ts":"2025-03-26T09:00:29Z","tX":816,"tY":476,"tags":{"name:en":"Derm Tromung"}},"12701841201":{"location":[12.3235981,107.0630088],"ct":"KH","tp":"CS","ts":"2025-03-26T09:03:09Z","tX":816,"tY":476,"tags":{"name:en":"Chomka En Derm svay Thom"}},"12701846501":{"location":[12.3234172,107.0624967],"ct":"KH","tp":"CS","ts":"2025-03-26T09:06:06Z","tX":816,"tY":476,"tags":{"name:en":"Chomka En derm Lavear"}},"12701857601":{"location":[12.3233101,107.0619509],"ct":"KH","tp":"CS","ts":"2025-03-26T09:10:26Z","tX":816,"tY":476,"tags":{"name:en":"plot2 derm complear"}},"12701971901":{"location":[12.3220704,107.0636405],"ct":"KH","tp":"CS","ts":"2025-03-26T10:02:25Z","tX":816,"tY":476,"tags":{"name:en":"Derm roka die"}},"12709069701":{"location":[12.3223468,107.063287],"ct":"KH","tp":"CS","ts":"2025-03-29T02:13:04Z","tX":816,"tY":476,"tags":{"name:en":"Derm koki near Chrey"}},"12727540401":{"location":[12.3211287,107.0718697],"ct":"KH","tp":"CS","ts":"2025-04-04T03:02:56Z","tX":816,"tY":476,"tags":{"name:en":"wild paper"}},"12727832601":{"location":[12.3214361,107.0714829],"ct":"KH","tp":"CS","ts":"2025-04-04T03:06:15Z","tX":816,"tY":476,"tags":{"name:en":"ratta vine"}},"12728011701":{"location":[12.320619,107.0711515],"ct":"KH","tp":"CS","ts":"2025-04-04T03:11:41Z","tX":816,"tY":476,"tags":{"name:en":"secred Tree"}},"12728064101":{"location":[12.3185866,107.0659142],"ct":"KH","tp":"CS","ts":"2025-04-04T04:16:16Z","tX":816,"tY":476,"tags":{"name:en":"resting place"}},"12728089902":{"location":[12.3235243,107.0697922],"ct":"KH","tp":"CS","ts":"2025-04-04T04:51:59Z","tX":816,"tY":476,"tags":{"name:en":"hollow fig"}}}