{"41467863":{"location":[54.4596831,12.539526],"ct":"DE","tp":"CS","ts":"2024-10-27T18:04:07Z","tX":547,"tY":326,"tags":{"addr:city":"Prerow","addr:country":"DE","addr:housenumber":"4-8","addr:postcode":"18375","addr:street":"Bernsteinweg","capacity":"2500","caravans":"yes","contact:phone":"+49 38233 331;+49 38233 276","contact:website":"https://www.regenbogen.ag/ferienanlagen/prerow.html","name":"Regenbogen Camp Prerow","openfire":"no","tents":"yes"}},"122159791":{"location":[54.457419,12.5370542],"ct":"DE","tp":"CR","ts":"2020-11-23T14:43:59Z","tX":547,"tY":326,"tags":{"barrier":"fence","name":"Regenbogencamp","ref":"Wohnmobil Platz 1"}},"125623667":{"location":[54.3830684,12.5015216],"ct":"DE","tp":"CS","ts":"2024-02-10T16:51:25Z","tX":547,"tY":326,"tags":{"addr:city":"Born a. Darß","addr:country":"DE","addr:housenumber":"86","addr:postcode":"18375","addr:street":"Nordstraße","addr:suburb":"Darß","area":"yes","name":"Regenbogencamp Born","opening_hours":"Mar 28 - Oct 31 \"2024\"","website":"https://www.regenbogen.ag/ferienanlagen/born.html"}},"144988291":{"location":[54.4527066,12.5600365],"ct":"DE","tp":"CS","ts":"2023-09-10T10:40:14Z","tX":547,"tY":326,"tags":{"addr:city":"Prerow","addr:country":"DE","addr:housenumber":"3","addr:postcode":"18375","addr:street":"Villenstraße","caravans":"yes","drinking_water":"yes","email":"sonnencamp@gmx.de","name":"Meißner's Sonnen-Camp (ehem. Robinson Camp)","phone":"+49 38233 60198 or 60250","power_supply":"yes","shower":"yes","tents":"yes","toilets":"yes","website":"https://meissners-sonnencamp.de/"}},"146488161":{"location":[54.4040418,12.4682847],"ct":"DE","tp":"PK","ts":"2024-04-28T15:49:17Z","tX":547,"tY":326,"tags":{"description":"PKW: bis 2h - 2€, über 2h - 5€; Womo bis 2h - 4,5€, über 2 h - 7€","fee":"yes","motorcar":"yes","motorhome":"yes","name":"Drei Eichen","opening_hours":"07:00-22:00","parking":"surface","payment:coins":"only","surface":"compacted"}},"365460080":{"location":[54.3690123,12.6180561],"ct":"DE","tp":"CS","ts":"2024-07-19T10:58:04Z","tX":547,"tY":326,"tags":{"addr:city":"Fuhlendorf","addr:housenumber":"43","addr:postcode":"18356","addr:street":"Damm","addr:suburb":"Bodstedt","cabins":"yes","capacity:motorhome":"30","capacity:power_supply":"120","caravans":"yes","contact:fax":"+49 4562 225213","contact:mobile":"+49 170 9771517","contact:phone":"+49 38231 4226","dish_washing":"yes","dog":"yes","internet_access":"yes","motor_vehicle":"yes","motorhome":"yes","name":"Campingplatz Bodstedt","opening_hours":"05.04 - 30.09.","operator":"Fam. Behrens-Orlik","power_supply":"yes","sauna":"yes","static_caravans":"yes","tents":"yes","washing_machine":"yes","website":"https://www.campingplatz-in-bodstedt.de/"}},"567346601":{"location":[54.40309,12.4915073],"ct":"DE","tp":"CS","ts":"2024-05-29T14:24:02Z","tX":547,"tY":326,"tags":{"operator":"Jugendherberge Born-Ibenhorst","shower":"yes","tents":"yes","toilets":"yes","website":"https://www.jugendherberge.de/jugendherbergen/born-ibenhorst/"}},"876192037":{"location":[54.4577352,12.5380424],"ct":"DE","tp":"CR","ts":"2020-11-23T14:43:59Z","tX":547,"tY":326,"tags":{"fee":"yes","fixme":"Umrisse nur geschätzt","operator":"Regenbogencamp Prerow","ref":"Wohnmobil Platz 2","sanitary_dump_station":"customers"}},"3694774468":{"location":[54.3694054,12.6182775],"ct":"DE","tp":"SD","ts":"2015-08-13T07:28:20Z","tX":547,"tY":326,"tags":{}},"6855971120":{"location":[54.45804,12.5375703],"ct":"DE","tp":"SD","ts":"2019-10-06T20:06:37Z","tX":547,"tY":326,"tags":{}},"11132252009":{"location":[54.4617173,12.5339004],"ct":"DE","tp":"SD","ts":"2023-09-11T19:59:50Z","tX":547,"tY":326,"tags":{"description":"Caravan Abwasserstation"}},"11132252543":{"location":[54.462841,12.5322087],"ct":"DE","tp":"SD","ts":"2024-06-16T15:24:37Z","tX":547,"tY":326,"tags":{}},"11897443953":{"location":[54.3828782,12.4997319],"ct":"DE","tp":"SD","ts":"2024-05-11T20:53:54Z","tX":547,"tY":326,"tags":{"access":"customers"}},"11897443954":{"location":[54.3841162,12.5040296],"ct":"DE","tp":"SD","ts":"2024-05-11T20:53:54Z","tX":547,"tY":326,"tags":{"access":"customers"}}}