{"39325009":{"location":[54.246105,12.4282602],"ct":"DE","tp":"CR","ts":"2024-06-21T10:18:30Z","tX":547,"tY":327,"tags":{"capacity":"6","drinking_water":"no","fee":"yes","name":"Hafen","power_supply":"no","sanitary_dump_station":"no","toilets":"yes"}},"41399940":{"location":[54.3345288,12.528049],"ct":"DE","tp":"CR","ts":"2022-10-13T04:30:14Z","tX":547,"tY":327,"tags":{"name":"Hafen Saal","toilets":"yes"}},"42355562":{"location":[54.3436511,12.4005949],"ct":"DE","tp":"CR","ts":"2023-08-07T07:47:42Z","tX":547,"tY":327,"tags":{"charge":"10€","description":"Not-Übernachtungsplatz für maximal 24 Stunden.","fee":"yes","internet_access":"no","name":"Wohnmobil-Übernachtungsplatz Wustrow","power_supply":"no","sanitary_dump_station":"no","source":"Email-Auskunft der Kurverwaltung Wustrow"}},"117555235":{"location":[54.2813136,12.3121059],"ct":"DE","tp":"CS","ts":"2024-08-21T17:33:07Z","tX":547,"tY":327,"tags":{"addr:city":"Dierhagen","addr:country":"DE","addr:housenumber":"10","addr:postcode":"18347","addr:street":"Birkenallee","addr:suburb":"Neuhaus","caravans":"yes","email":"ostsee@camping-neuhaus.de","fax":"+49 38226 537360","internet_access":"wlan","internet_access:ssid":"CampingNeuhaus","motorhome":"yes","name":"Camping in Neuhaus","operator":"Iris Zähringer","phone":"+49 38226 539930","power_supply":"yes","reservation":"recommended","sanitary_dump_station":"yes","shower":"yes","toilets":"yes","waste_disposal":"yes","website":"https://www.camping-neuhaus.de","wheelchair":"yes"}},"117858441":{"location":[54.2922231,12.3440865],"ct":"DE","tp":"CS","ts":"2024-08-09T17:14:18Z","tX":547,"tY":327,"tags":{"addr:city":"Dierhagen","addr:country":"DE","addr:housenumber":"1","addr:postcode":"18347","addr:street":"Ernst-Moritz-Arndt-Straße","caravans":"yes","drinking_water":"yes","email":"Info@OstseeCamp-Dierhagen.de","internet_access":"wlan","name":"OstseeCamp Dierhagen","power_supply":"yes","sanitary_dump_station":"yes","shower":"yes","tents":"yes","toilets":"yes","website":"https://www.ostseecamp-dierhagen.de/"}},"127964683":{"location":[54.3049202,12.3484428],"ct":"DE","tp":"CS","ts":"2023-08-07T11:50:16Z","tX":547,"tY":327,"tags":{"addr:city":"Dierhagen","addr:country":"DE","addr:housenumber":"5","addr:postcode":"18347","addr:street":"Waldweg","alt_name":"Campingplatz Ennen","contact:website":"https://campingplatz-wiesner.de/","name":"An den Stranddünen"}},"499458223":{"location":[54.340176,12.3795518],"ct":"DE","tp":"CR","ts":"2020-07-02T10:57:51Z","tX":547,"tY":327,"tags":{"addr:city":"Wustrow","addr:country":"DE","addr:postcode":"18347","addr:street":"An der Nebelstation","charge":"16€","fee":"yes","name":"Surf Center Wustrow","phone":"+49 38220 802 50","website":"http://www.surfcenter-wustrow.de"}},"1072269764":{"location":[54.1657248,12.5909842],"ct":"DE","tp":"CS","ts":"2022-06-22T11:22:40Z","tX":547,"tY":327,"tags":{}},"1365817201":{"location":[54.2938965,12.362582],"ct":"DE","tp":"CR","ts":"2011-07-18T19:20:58Z","tX":547,"tY":327,"tags":{"name":"Dierhagen"}},"2394807561":{"location":[54.2213561,12.5448415],"ct":"DE","tp":"CS","ts":"2024-05-04T13:13:39Z","tX":547,"tY":327,"tags":{"backcountry":"yes","name":"Wasserwanderrastplatz Pantlitz","toilets":"no","website":"https://www.fischland-darss-zingst.de/service/provider/details/stamm/show/wasserwanderrastplatz-pantlitz/"}},"2394811826":{"location":[54.2335703,12.5258354],"ct":"DE","tp":"CS","ts":"2013-07-24T08:40:14Z","tX":547,"tY":327,"tags":{"name":"Wasserwanderrastplatz Daskow"}},"3600111771":{"location":[54.24548,12.4233951],"ct":"DE","tp":"CR","ts":"2023-01-02T06:53:06Z","tX":547,"tY":327,"tags":{"addr:city":"Ribnitz-Damgarten","addr:postcode":"18311","capacity":"20","fee":"yes","name":"Gänsewiese","power_supply":"yes","tents":"no","toilets":"no"}},"11201555736":{"location":[54.3127724,12.480539],"ct":"DE","tp":"CS","ts":"2024-07-21T15:36:19Z","tX":547,"tY":327,"tags":{"caravans":"yes","drinking_water":"yes","fee":"yes","name":"Naturcamping Saal","picnic_table":"yes","power_supply":"yes","sanitary_dump_station":"no","shower":"no","tents":"yes","toilets":"yes","website":"https://campsurf.de/"}},"12136361462":{"location":[54.2759022,12.3720498],"ct":"DE","tp":"CR","ts":"2024-10-29T07:36:29Z","tX":547,"tY":327,"tags":{"addr:housenumber":"6","addr:street":"Neue Reihe","description":"max 5 Stellplätze, bis 3 Tage","phone":"+49 38226535120"}}}