{"94734396":{"location":[53.4644018,12.6038206],"ct":"DE","tp":"CR","ts":"2019-03-21T18:41:24Z","tX":547,"tY":331,"tags":{"capacity":"16","fee":"yes","name":"Rasthof Sembzin","parking":"surface","power_supply":"yes","website":"https://rasthof-sembzin.de/"}},"112003771":{"location":[53.5303611,12.538381],"ct":"DE","tp":"CS","ts":"2023-07-20T12:22:43Z","tX":547,"tY":331,"tags":{"addr:city":"Jabel","addr:housenumber":"3","addr:postcode":"17194","addr:street":"Am Strandbad","caravans":"yes","drinking_water":"yes","fee":"yes","name":"Campingplatz C91","phone":"+49 39929 70217","power_supply":"yes","shower":"yes","tents":"yes","toilets":"yes","website":"https://www.amt-slw.de/verzeichnis/mandat.php?mandat=168098"}},"112051037":{"location":[53.519367,12.5173043],"ct":"DE","tp":"CS","ts":"2024-05-28T19:06:37Z","tX":547,"tY":331,"tags":{"addr:city":"Jabel","addr:country":"DE","addr:housenumber":"1","addr:postcode":"17194","addr:street":"Am Heidenfriedhof","caravans":"yes","name":"Natur und Strandcamping am Jabelschen See","phone":"+49 39929 76712","tents":"yes","website":"https://genuss-ferien.de/"}},"114707946":{"location":[53.5081662,12.450237],"ct":"DE","tp":"CS","ts":"2023-09-06T23:56:09Z","tX":547,"tY":331,"tags":{"addr:city":"Silz","addr:country":"DE","addr:housenumber":"5","addr:postcode":"17214","addr:street":"Am Fleesensee","bicycle_rental":"yes","boat_rental":"yes","caravans":"yes","contact:email":"camping@heideparksilz.de","contact:phone":"+49 39927 769804","contact:website":"https://www.heideparksilz.de/index.php/angebot/campingplatz","dog":"leashed","dryer":"yes","fee":"yes","internet_access":"wlan","name":"Heidepark Silz","operator":"Heidepark Silz e.V.","power_supply":"yes","sanitary_dump_station":"yes","shower":"yes","static_caravans":"yes","tents":"yes","toilets":"yes","washing_machine":"yes"}},"134078808":{"location":[53.5102642,12.6486639],"ct":"DE","tp":"CS","ts":"2024-10-02T21:37:40Z","tX":547,"tY":331,"tags":{"addr:city":"Waren (Müritz)","addr:country":"DE","addr:housenumber":"38d","addr:postcode":"17192","addr:street":"Zur Stillen Bucht","caravans":"yes","internet_access":"wlan","name":"Campingpark \"Kamerun\"","tents":"yes","website":"https://www.campingpark-kamerun.de/","wheelchair":"yes"}},"217320032":{"location":[53.3936942,12.6247155],"ct":"DE","tp":"CS","ts":"2021-09-06T17:44:58Z","tX":547,"tY":331,"tags":{"addr:city":"Röbel/Müritz","addr:country":"DE","addr:housenumber":"38","addr:postcode":"17207","addr:street":"Seebadstraße","caravans":"yes","drinking_water":"yes","fee":"yes","name":"Campingplatz \"Pappelbucht\"","permanent_camping":"yes","shower":"yes","tents":"yes","toilets":"yes","website":"https://www.mueritztherme.com/camping"}},"225263570":{"location":[53.4281014,12.6142721],"ct":"DE","tp":"CS","ts":"2023-06-28T21:22:06Z","tX":547,"tY":331,"tags":{"caravans":"yes","dog":"yes","drinking_water":"yes","fee":"yes","motor_vehicle":"yes","name":"Hirschberg","nudism":"yes","operator":"Müritzcamp","power_supply":"yes","shower":"yes","surface":"grass","tents":"yes","toilets":"yes","washing_machine":"yes","website":"https://www.mueritzcamp-gotthun.m-vp.de/campingplaetze/campingplatz-hirschberg/","wheelchair":"limited"}},"265591032":{"location":[53.4819847,12.3257496],"ct":"DE","tp":"CS","ts":"2023-12-02T13:43:39Z","tX":547,"tY":331,"tags":{"access":"customers","addr:city":"Alt Schwerin","addr:housenumber":"8","addr:postcode":"17214","addr:street":"Insel Werder","fee":"yes","name":"Inselcamping Werder","seasonal":"no","website":"https://www.inselcamping.com/"}},"303298933":{"location":[53.493444,12.3719408],"ct":"DE","tp":"CS","ts":"2024-07-26T09:16:46Z","tX":547,"tY":331,"tags":{"addr:housenumber":"1","addr:street":"Zum Plauer See","cabins":"yes","caravans":"yes","dish_washing":"yes","drinking_water":"yes","internet_access":"wlan","motorhome":"yes","name":"Naturcamping Malchow","power_supply":"yes","sanitary_dump_station":"yes","shower":"yes","sport":"volleyball, table-tennis","static_caravans":"yes","tents":"yes","washing_machine":"yes","website":"https://www.naturcamping-malchow.de/"}},"304365377":{"location":[53.4643145,12.421732],"ct":"DE","tp":"CR","ts":"2024-01-06T20:12:43Z","tX":547,"tY":331,"tags":{"addr:city":"Malchow","addr:country":"DE","addr:housenumber":"5","addr:postcode":"17213","addr:street":"Ziegeleiweg","capacity":"16","charge":"22€","contact:website":"https://www.bootshalle-malchow.de/wohnmobilstellplatze/","description":"Gebühr incl. Ver- und Entsorgung sowie Strom  Fremdentsorgung 2€ Stand 06/2023","fee":"yes","internet_access":"no","name":"Bootshalle Malchow","operator":"Bootshalle-Malchow GmbH & Co. KG","power_supply":"yes","sanitary_dump_station":"yes"}},"315477990":{"location":[53.3889913,12.3095309],"ct":"DE","tp":"CS","ts":"2024-05-28T19:06:37Z","tX":547,"tY":331,"tags":{"access":"customers","addr:city":"Stuer","addr:country":"DE","addr:housenumber":"20","addr:postcode":"17209","addr:street":"Seeufer","addr:suburb":"Bad Stuer","capacity":"100","contact:email":"badstuer@dercampingplatz.de","contact:phone":"+49 39924 791370","contact:website":"https://www.campingplatzbadstuer.de/","dog":"leashed","fee":"yes","internet_access":"wlan","kayak_rental":"yes","name":"Campingplatz Bad Stuer","operator":"Seaside Travel Camping KG","payment:american_express":"yes","payment:cash":"yes","payment:contactless":"yes","payment:credit_cards":"yes","payment:maestro":"yes","payment:mastercard":"yes","payment:visa":"yes","payment:visa_debit":"yes","payment:visa_electron":"yes","power_supply":"yes","reservation":"recommended","sanitary_dump_station":"yes","shower":"yes"}},"315939846":{"location":[53.442665,12.3119955],"ct":"DE","tp":"CS","ts":"2024-08-23T23:18:58Z","tX":547,"tY":331,"tags":{"addr:city":"Zislow","addr:housenumber":"2","addr:postcode":"17209","addr:street":"Waldchaussee","caravans":"yes","drinking_water":"yes","email":"info@camp-zislow.de","name":"Wald- und Seeblick Camp","phone":"+49399242002","power_supply":"yes","sanitary_dump_station":"yes","shower":"yes","tents":"yes","toilets":"yes","website":"https://www.camp-zislow.de/","wheelchair":"limited"}},"361708521":{"location":[53.4680843,12.3499517],"ct":"DE","tp":"CR","ts":"2024-09-10T15:06:24Z","tX":547,"tY":331,"tags":{"addr:city":"Fünfseen","addr:housenumber":"1","addr:postcode":"17213","addr:street":"Zum Hafen","capacity:caravans":"35","caravans":"yes","charge":"23€ plus Zusatzeinrichtungen","dog":"yes","drinking_water":"yes","fee":"yes","motorhome":"yes","name":"Reisemobilstellplatz Lenzer Hafen","owner":"Susanne und Jörg Malow","phone":"+49 171 4018739","power_supply":"yes","sanitary_dump_station":"yes","shower":"yes","toilets":"yes"}},"361801953":{"location":[53.3878076,12.6177678],"ct":"DE","tp":"CR","ts":"2023-01-18T18:01:20Z","tX":547,"tY":331,"tags":{"capacity":"28","caravans":"yes","dog":"yes","fax":"+49 39931 50072","fee":"yes","internet_access":"wlan","internet_access:fee":"yes","name":"Seglerverein","operator":"Marina Röbel/Müritz","phone":"+49 39931 839900","power_supply":"yes","website":"https://www.marina-roebel-mueritz.de"}},"599950961":{"location":[53.4473127,12.3109455],"ct":"DE","tp":"CS","ts":"2023-08-29T01:31:56Z","tX":547,"tY":331,"tags":{"access":"customers","addr:city":"Zislow","addr:country":"DE","addr:housenumber":"2","addr:postcode":"17209","addr:street":"Waldchaussee","boat_rental":"yes","caravans":"yes","contact:phone":"+49 39924 2550","contact:website":"https://www.zweiseen.de/","drinking_water":"yes","dryer":"yes","fee":"yes","internet_access":"wlan","internet_access:fee":"yes","name":"Naturcamping Zwei Seen","operator":"Naturcamping Zwei Seen GmbH","power_supply":"yes","sanitary_dump_station":"yes","shower":"yes","tents":"yes","toilets":"yes","washing_machine":"yes","wheelchair":"limited"}},"732889269":{"location":[53.4318635,12.5813078],"ct":"DE","tp":"CS","ts":"2024-08-27T20:22:14Z","tX":547,"tY":331,"tags":{"addr:city":"Sietow","addr:country":"DE","addr:housenumber":"21","addr:postcode":"17209","addr:street":"Dorfstraße","addr:suburb":"Sietow Dorf","alt_name":"Campingplatz Sietower Bucht","capacity:touristic":"37","caravans":"yes","contact:website":"https://www.weicamp.de/","dog":"no","drinking_water":"yes","fee":"yes","motor_vehicle":"yes","name":"Campingplatz \"Sietower Bucht\"","payment:cash":"only","permanent_camping":"yes","power_supply":"yes","sanitary_dump_station":"yes","shower":"yes","surface":"grass","tents":"yes","toilets":"yes","washing_machine":"yes"}},"817267672":{"location":[53.427447,12.6085653],"ct":"DE","tp":"CS","ts":"2023-06-28T21:22:06Z","tX":547,"tY":331,"tags":{"permanent_camping":"only"}},"817267673":{"location":[53.4211161,12.5917364],"ct":"DE","tp":"CS","ts":"2021-02-01T16:30:50Z","tX":547,"tY":331,"tags":{"caravans":"only","name":"Pension Müritzwiese"}},"853423001":{"location":[53.4400943,12.3910702],"ct":"DE","tp":"CR","ts":"2020-09-30T17:22:10Z","tX":547,"tY":331,"tags":{"contact:website":"https://www.waldhof-bruchmuehle.de","name":"WoMo Platz Bruchmühle"}},"984061711":{"location":[53.4234756,12.6245936],"ct":"DE","tp":"CS","ts":"2023-06-27T22:15:01Z","tX":547,"tY":331,"tags":{"caravans":"yes","dog":"yes","drinking_water":"yes","fee":"yes","motor_vehicle":"yes","name":"Nitschow","operator":"Müritzcamp","power_supply":"yes","shower":"yes","surface":"grass","tents":"yes","toilets":"yes","website":"https://www.mueritzcamp-gotthun.m-vp.de/campingplaetze/campingplatz-nitschow/"}},"1085182620":{"location":[53.434936,12.3110203],"ct":"DE","tp":"CR","ts":"2024-11-21T21:07:28Z","tX":547,"tY":331,"tags":{"caravan_site":"motorhome_stopover","caravan_site:type":"lake","fee":"yes"}},"1180350427":{"location":[53.5211017,12.3201988],"ct":"DE","tp":"CS","ts":"2024-07-26T07:43:52Z","tX":547,"tY":331,"tags":{"addr:city":"Alt Schwerin","addr:country":"DE","addr:housenumber":"1","addr:postcode":"17214","addr:street":"An den Schaftannen","cabins":"yes","caravans":"yes","contact:facebook":"CampingAltSchwerin","dish_washing":"yes","drinking_water":"yes","motorhome":"yes","name":"Camping am See Alt Schwerin","phone":"+49 39932 42073","playground":"yes","power_supply":"yes","sanitary_dump_station":"yes","shower":"yes","sport":"yes","tents":"yes","toilets":"yes","washing_machine":"yes","website":"https://www.camping-alt-schwerin.de/"}},"1305918032":{"location":[53.5079058,12.6357163],"ct":"DE","tp":"CR","ts":"2024-08-06T10:17:34Z","tX":547,"tY":331,"tags":{"caravan_site":"motorhome_stopover","caravan_site:type":"harbour","caravans":"yes","dog":"yes","fee":"yes","internet_access":"wlan","internet_access:fee":"no","lit":"yes","name":"Stellplatz zwischen den Seen","power_supply":"yes","power_supply:fee":"no","shower":"yes","shower:fee":"no","toilets":"yes","water_point":"yes","website":"https://www.caravan-engel.de/stellplatz.html"}},"1409631322":{"location":[53.5188989,12.4668087],"ct":"DE","tp":"CR","ts":"2011-08-23T20:35:17Z","tX":547,"tY":331,"tags":{"capacity":"4","fee":"yes","name":"Reisemobilstellplatz Landgasthof \"Am Fleesensee\"","power_supply":"yes","smoking":"yes","wheelchair":"yes"}},"1481607239":{"location":[53.5118034,12.651007],"ct":"DE","tp":"CR","ts":"2024-05-28T19:06:37Z","tX":547,"tY":331,"tags":{"capacity":"32","charge":"9.50 Euro; 11 Euro;15 Euro","contact:fax":"+49 3991 122512","contact:phone":"+49 3991 122406","email":"Info-Waren@Campingtour-MV.de","fee":"yes","internet_access":"wlan","name":"Wohnmobilpark Kamerun","power_supply":"yes","sanitary_dump_station":"yes","water_point":"yes","website":"https://www.campingpark-kamerun.de/","wheelchair":"yes"}},"1483320807":{"location":[53.485269,12.3223203],"ct":"DE","tp":"CR","ts":"2023-12-02T13:43:39Z","tX":547,"tY":331,"tags":{"capacity":"13","caravan_site:type":"harbour","charge":"23.8 EUR","dog":"leashed","dog:charge":"2 EUR","fee":"yes","internet_access":"wlan","internet_access:fee":"no","laundry":"yes","name":"Inselcamping Werder Reisemobilhafen","power_supply":"yes","sanitary_dump_station":"yes","seasonal":"no","shower":"yes","toilets":"yes","website":"https://www.inselcamping.com/reisemobilhafen/"}},"3666056659":{"location":[53.5383936,12.5450614],"ct":"DE","tp":"CR","ts":"2023-12-12T01:56:29Z","tX":547,"tY":331,"tags":{"caravan_site:type":"restaurant","charge":"15 EUR","fee":"yes","internet_access":"wlan","name":"Wohnmobilstellplatz Wirtshaus Zur Eibe","power_supply":"yes","power_supply:charge":"2.5 EUR","sanitary_dump_station":"yes","sanitary_dump_station:charge":"1.5 EUR","toilets":"yes","water_point":"yes","water_point:charge":"1.5 EUR/50 liter","water_point:fee":"yes","website":"http://www.wohnmobile-mueritz.de/wohnmobilstellplatz_buchholz_132.html"}},"5141219470":{"location":[53.4636913,12.4213838],"ct":"DE","tp":"SD","ts":"2024-01-06T20:12:43Z","tX":547,"tY":331,"tags":{"fee":"yes","note":"Fremdentsorgung 2€","operator":"Bootshalle Malchow"}},"6465088655":{"location":[53.3878936,12.6174358],"ct":"DE","tp":"SD","ts":"2019-05-10T16:13:05Z","tX":547,"tY":331,"tags":{"sanitary_dump_station:chemical_toilet":"yes","sanitary_dump_station:fee":"no","sanitary_dump_station:gravity":"yes","sanitary_dump_station:grey_water":"yes","sanitary_dump_station:suction":"no"}},"9070214112":{"location":[53.5123306,12.6502493],"ct":"DE","tp":"SD","ts":"2024-10-06T21:53:18Z","tX":547,"tY":331,"tags":{"capacity":"4","operator":"Campingpark Kamerun"}},"10978265501":{"location":[53.4677827,12.3505285],"ct":"DE","tp":"SD","ts":"2024-06-16T15:34:23Z","tX":547,"tY":331,"tags":{"note":">>Achtung Entsorgung von WC Casseten ausdrücklich nur ohne Chemie und Bio Zusätze"}},"11152054355":{"location":[53.446751,12.3100639],"ct":"DE","tp":"SD","ts":"2023-08-29T01:31:56Z","tX":547,"tY":331,"tags":{"access":"customers","operator":"Naturcamping Zwei Seen"}},"11173166107":{"location":[53.507434,12.4478737],"ct":"DE","tp":"SD","ts":"2023-09-06T23:56:09Z","tX":547,"tY":331,"tags":{"access":"customers","fee":"yes","operator":"Campingplatz Heidepark Silz"}}}