{"17419141":{"location":[52.9411272,12.4008398],"ct":"DE","tp":"CR","ts":"2024-04-02T22:30:27Z","tX":547,"tY":333,"tags":{"capacity":"15","caravan_site":"motorhome_stopover","caravan_site:type":"town","charge":"10 EUR","fee":"yes","name":"An der Wässering Kyritz","power_supply":"yes","power_supply:charge":"1 EUR/8 hours","sanitary_dump_station":"yes","water_point":"yes","water_point:charge":"1 EUR/7 minutes","website":"https://www.dosse-seen-land.de/?cid=1534498927&name=Objekt&dieprignitz_cid=1020000394&name=Stellplatz+W%C3%A4ssering"}},"972186248":{"location":[52.9300409,12.4486356],"ct":"DE","tp":"CS","ts":"2025-01-08T10:29:38Z","tX":547,"tY":333,"tags":{"access":"customers","addr:city":"Wusterhausen/Dosse","addr:country":"DE","addr:housenumber":"14","addr:postcode":"16868","addr:street":"Wusterhausener Straße","addr:suburb":"Bantikow","caravans":"yes","drinking_water":"yes","email":"info@knattercamping.de","fee":"yes","name":"Knattercamping","payment:apple_pay":"yes","payment:cards":"yes","payment:cash":"yes","payment:coins":"yes","payment:contactless":"yes","payment:credit_cards":"yes","payment:debit_cards":"yes","payment:maestro":"yes","payment:mastercard":"yes","payment:notes":"yes","payment:visa":"yes","payment:visa_electron":"yes","phone":"+4933979 14361","power_supply":"yes","shower":"yes","static_caravans":"yes","tents":"yes","toilets":"yes","toilets:wheelchair":"no","website":"https://knattercamping.de/","wheelchair":"limited","wikidata":"Q123505761"}},"6026615210":{"location":[53.0539196,12.4382497],"ct":"DE","tp":"CS","ts":"2025-01-05T23:08:58Z","tX":547,"tY":333,"tags":{"addr:city":"Heiligengrabe","addr:country":"DE","addr:housenumber":"5","addr:postcode":"16909","addr:street":"Barenthiner Weg","name":"Camping Königsberger See"}},"9938230656":{"location":[52.938895,12.442195],"ct":"DE","tp":"CR","ts":"2024-12-09T01:39:57Z","tX":547,"tY":333,"tags":{"capacity":"8","caravan_site":"motorhome_stopover","caravan_site:type":"lake","charge":"10 EUR","contact:website":"https://dosse-seen-land.de/?cid=1534498927&dieprignitz_cid=1552310667&highlight=%C2%A0","fee":"yes","internet_access":"wlan","internet_access:fee":"no","name":"Reisemobilstellplatz Strandbad am Untersee","power_supply":"yes","power_supply:charge":"1 EUR/8 hours","sanitary_dump_station":"no","tents":"no","website":"https://www.dosse-seen-land.de/?cid=1534498927&dieprignitz_cid=1552310667&highlight=%C2%A0"}},"6800398226":{"location":[52.9409518,12.4004115],"ct":"DE","tp":"SD","ts":"2019-09-16T20:03:23Z","tX":547,"tY":333,"tags":{"sanitary_dump_station:chemical_toilet":"yes","sanitary_dump_station:fee":"no","sanitary_dump_station:gravity":"yes","sanitary_dump_station:grey_water":"yes","sanitary_dump_station:suction":"no"}},"11138791406":{"location":[52.9302027,12.4489631],"ct":"DE","tp":"SD","ts":"2023-08-23T12:02:03Z","tX":547,"tY":333,"tags":{"access":"customers","fee":"no","water_point":"no"}}}