{"7381734":{"location":[52.5004351,12.4902139],"ct":"DE","tp":"CS","ts":"2020-07-03T23:28:27Z","tX":547,"tY":335,"tags":{"name":"Campingplatz Hohenferchesar","website":"http://www.hohenferchesar.de/verzeichnis/visitenkarte.php?mandat=61140"}},"35172523":{"location":[52.6534281,12.4295337],"ct":"DE","tp":"CS","ts":"2023-11-23T15:03:28Z","tX":547,"tY":335,"tags":{"addr:city":"Stechow-Ferchesar","addr:postcode":"14715","addr:street":"Weg zum Zeltplatz","capacity":"200","capacity:caravans":"168","caravans":"yes","email":"info@campingpark-buntspecht.de","fax":"+4933874 90970","fee":"no","internet_access":"wlan","internet_access:fee":"yes","name":"Campingpark Buntspecht","operator":"Paul Störk Immobilienbesitz GmbH und Co. KG","phone":"+4933874 90072","power_supply":"yes","sanitary_dump_station":"yes","shower":"yes","tents":"yes","website":"https://www.campingpark-buntspecht.de/","wikidata":"Q123517335","wikimedia_commons":"File:2018 05 Havelland CampingplatzBuntspecht IMG 1908.JPG"}},"60195114":{"location":[52.486529,12.5976609],"ct":"DE","tp":"CS","ts":"2023-10-29T17:13:19Z","tX":547,"tY":335,"tags":{"addr:city":"Beetzseeheide","addr:housenumber":"45","addr:postcode":"14778","addr:street":"Butzower Dorfstraße","addr:suburb":"Butzow","caravans":"yes","name":"Campingplatz Butzow","operator":"Manuela Rudloff","phone":"+49 33836 40256","shower":"yes","tents":"yes","toilets":"yes","website":"http://campingplatz-butzow.de/"}},"92158014":{"location":[52.6669402,12.3432072],"ct":"DE","tp":"CS","ts":"2024-06-23T19:47:35Z","tX":547,"tY":335,"tags":{"addr:city":"Seeblick","addr:country":"DE","addr:postcode":"14715","addr:street":"Mühlenweg","addr:suburb":"Hohennauen","caravans":"yes","email":"see@friedelcamp.de","fax":"+4933 872 / 900 70","fee":"yes","internet_access":"wlan","mobile":"+49162 9202700","name":"Campingplatz Seeblick","phone":"+4933872 70323","tents":"yes","website":"https://friedelcamp.jimdo.com/","wheelchair":"limited","wikidata":"Q123518726"}},"101820268":{"location":[52.4890782,12.4471151],"ct":"DE","tp":"CS","ts":"2025-01-09T14:40:17Z","tX":547,"tY":335,"tags":{"addr:city":"Havelsee","addr:hamlet":"Kützkow","addr:housenumber":"10","addr:postcode":"14798","addr:street":"Fährstraße","addr:suburb":"Pritzerbe","contact:facebook":"https://www.facebook.com/CampingplatzEngler","internet_access":"wlan","name":"Campingplatz Engler","phone":"+49 1624368102","wheelchair":"no"}},"239900235":{"location":[52.6079167,12.3364752],"ct":"DE","tp":"CR","ts":"2023-12-10T17:40:18Z","tX":547,"tY":335,"tags":{"capacity:power_supply":"4","caravan_site:type":"city","caravans":"no","fee":"no","maxstay":"2 days","name":"Wohnmobilstellplatz Rathenow","power_supply":"yes","power_supply:charge":"0.7 EUR/kWh","sanitary_dump_station":"yes","sanitary_dump_station:chemical_toilet":"yes","sanitary_dump_station:grey_water":"yes","water_point":"yes","water_point:charge":"1.5 EUR/50 liter","website":"https://www.rathenow.de/kultur-tourismus/freizeitangebote/freizeitangebote-von-a-z/camping-wohnmobil/"}},"350116132":{"location":[52.6689,12.376774],"ct":"DE","tp":"CS","ts":"2024-06-23T19:18:30Z","tX":547,"tY":335,"tags":{"caravans":"yes","drinking_water":"yes","name":"Wasserwanderrastplatz Wassersuppe","phone":"+49 152 26907814","power_supply":"yes","shower":"yes","tents":"yes","website":"https://www.reiseland-brandenburg.de/poi/havelland/wasserwanderrast-und-gastliegeplaetze/wasserwanderrastplatz-wassersuppe/"}},"356789502":{"location":[52.4969299,12.451398],"ct":"DE","tp":"CR","ts":"2022-12-19T10:45:12Z","tX":547,"tY":335,"tags":{"addr:city":"Havelsee","addr:postcode":"14798","addr:street":"Kietzstraße","addr:suburb":"Pritzerbe","capacity":"20","fee":"yes","name":"Havel-Oase","website":"http://www.havel-oase.de"}},"638749093":{"location":[52.6379879,12.3172497],"ct":"DE","tp":"CS","ts":"2022-05-23T10:50:58Z","tX":547,"tY":335,"tags":{"name":"Biwakplatz Göttlin","phone":"+49 3385 596322","tents":"max. 4","toilets":"Dixi"}},"758194091":{"location":[52.4882901,12.4451743],"ct":"DE","tp":"CS","ts":"2024-05-18T06:22:43Z","tX":547,"tY":335,"tags":{"caravans":"yes","drinking_water":"yes","name":"Camping an der Unterhavel (Erlebnishof Kützkow)","shower":"yes","surface":"grass","tents":"yes","url":"http://www.erlebnishof-kuetzkow.de/camping"}},"2306316470":{"location":[52.5232577,12.3088696],"ct":"DE","tp":"CS","ts":"2022-05-23T10:51:35Z","tX":547,"tY":335,"tags":{"backcountry":"yes","capacity":"10","caravans":"no","description":"Trinkwasser & WC ca. 200m entfernt","fee":"no","maxtents":"4","name":"Biwakplatz Milow","operator":"Jugendherberge Milow","phone":"+49 174 9812938","website":"https://www.westhavelland-naturpark.de/themen/rast-versorgung/03-biwakplatz-milow-uhw-km-930-abzweig-stremme-50-m-hinter-der-bruecke/"}},"7470841063":{"location":[52.5554253,12.3195436],"ct":"DE","tp":"CS","ts":"2023-07-30T10:13:36Z","tX":547,"tY":335,"tags":{"access":"yes","addr:city":"Premnitz","addr:country":"DE","addr:housenumber":"8","addr:postcode":"14727","addr:street":"Havelblick","addr:suburb":"Mögelin","backcountry":"yes","capacity":"8","capacity:tents":"4","caravans":"no","fee":"no","name":"Biwakplatz Mögelin","permanent_camping":"no","phone":"+49 3386 259120","source":"Website","tents":"yes","website":"https://www.reiseland-brandenburg.de/poi/havelland/wasserwanderrast-und-gastliegeplaetze/biwakplatz-moegelin/?no_cache=1"}},"7470924441":{"location":[52.4969643,12.4027455],"ct":"DE","tp":"CS","ts":"2022-05-17T06:23:35Z","tX":547,"tY":335,"tags":{"backcountry":"yes","caravans":"no","description":"max. 4 Zelte,\n5€/ Zelt, Toilette 0,50€ Münzeinwurf(50m), Dusche kalt kostenlos/warm 1€/min\nSchlüssel beim Hafenmeister","fee":"yes","name":"Biwakplatz Bahnitz","operator":"Lothar Schulz","phone":"+49 172 3074864","tents":"yes","website":"https://www.westhavelland-naturpark.de/themen/rast-versorgung/01-biwakplatz-bahnitz-uhw-km-843/"}},"9748183005":{"location":[52.5247332,12.3410816],"ct":"DE","tp":"CS","ts":"2022-05-23T10:51:53Z","tX":547,"tY":335,"tags":{"description":"WC & Dusche und Teeküche Nutzung 0,50€ Zeltmöglichkeit für Wasserwanderer","name":"Rastplatz für Kanuten (Premnitz)","phone":"+49 174 4891620"}},"9748209049":{"location":[52.6014341,12.3254098],"ct":"DE","tp":"CS","ts":"2022-05-23T10:54:46Z","tX":547,"tY":335,"tags":{"description":"- sanitäre Einrichtung - Trinkwasser bis einschl. 14 Jahre - 3€ ab 14 Jahre - 5€ Zelt - 3€ Strom, Trinkwasser und Teeküche enthalten","name":"Wasserwanderstützpunkt Rathenow Wassersportverein","phone":"+49 174 6211140"}},"10000629211":{"location":[52.6543435,12.4282917],"ct":"DE","tp":"SD","ts":"2022-09-04T23:28:21Z","tX":547,"tY":335,"tags":{}},"10000629212":{"location":[52.6543227,12.4284165],"ct":"DE","tp":"SD","ts":"2022-09-04T23:28:21Z","tX":547,"tY":335,"tags":{}}}