{"60195492":{"location":[52.4329058,12.6453795],"ct":"DE","tp":"CS","ts":"2021-07-08T18:37:33Z","tX":547,"tY":336,"tags":{"addr:city":"Brandenburg an der Havel","addr:country":"DE","addr:housenumber":"4","addr:postcode":"14776","addr:street":"Straße zum Wassersportheim","contact:email":"camping-eden@t-online.de","contact:fax":"+49 3381 222959","contact:phone":"+49 3381 222838","contact:website":"www.campingclub-eden.de","name":"Campingclub & Yachthafen EDEN"}},"126148359":{"location":[52.3619207,12.3957524],"ct":"DE","tp":"CS","ts":"2022-10-03T12:40:35Z","tX":547,"tY":336,"tags":{"addr:city":"Wusterwitz","addr:country":"DE","addr:housenumber":"24","addr:postcode":"14789","addr:street":"Am See","caravans":"yes","contact:email":"kontakt@camping-wusterwitz.de","contact:instagram":"https://www.instagram.com/campingamsee/","contact:phone":"+49 33839 713240","contact:website":"https://www.camping-wusterwitz.de/","drinking_water":"yes","internet_access":"wlan","internet_access:fee":"no","name":"Camping am See","opening_hours":"Apr-Oct","operator":"Jürgen Anders","power_supply":"yes","reservation":"recommended","sanitary_dump_station":"yes","shower":"yes","tents":"yes","toilets":"yes","toilets:wheelchair":"yes","wheelchair":"yes"}},"128224042":{"location":[52.406611,12.4507499],"ct":"DE","tp":"CS","ts":"2023-11-28T19:24:54Z","tX":547,"tY":336,"tags":{"caravans":"yes","landuse":"grass","leisure":"camping","tents":"yes"}},"131312115":{"location":[52.3698839,12.4733336],"ct":"DE","tp":"CS","ts":"2022-09-02T09:15:48Z","tX":547,"tY":336,"tags":{"caravans":"yes","name":"Camping Malge - Wohnmobilstellplatz"}},"196027593":{"location":[52.3686947,12.4690988],"ct":"DE","tp":"CS","ts":"2024-10-04T06:39:19Z","tX":547,"tY":336,"tags":{"addr:city":"Brandenburg an der Havel","addr:country":"DE","addr:housenumber":"3","addr:postcode":"14776","addr:street":"Malge","backcountry":"no","caravans":"yes","drinking_water":"yes","email":"seecamp-malge@t-online.de","fax":"+49 3381 795135","name":"Seecamp Malge","phone":"+49 3381 663134","power_supply":"yes","shower":"yes","source":"survey","tents":"yes","toilets":"yes","url":"https://www.seecamp-malge.de/"}},"339873222":{"location":[52.4056484,12.5485688],"ct":"DE","tp":"CS","ts":"2024-07-18T16:46:20Z","tX":547,"tY":336,"tags":{"access":"yes","addr:city":"Brandenburg an der Havel","addr:country":"DE","addr:housenumber":"9","addr:postcode":"14776","addr:street":"Wredowstraße","caravans":"yes","contact:email":"info@wassersportzentrum-alte-feuerwache.de","contact:phone":"+49 3381 222018","contact:website":"https://www.wassersportzentrum-alte-feuerwache.de/camping","drinking_water":"yes","fee":"yes","floating":"no","internet_access":"wlan","name":"Wassersportzentrum Alte Feuerwache","power_supply":"yes","sanitary_dump_station":"yes","shower":"yes","tents":"yes","toilets":"yes","wheelchair":"yes"}},"366020444":{"location":[52.3999623,12.4343916],"ct":"DE","tp":"CS","ts":"2023-11-29T19:50:27Z","tX":547,"tY":336,"tags":{"addr:city":"Brandenburg - Plaue","addr:country":"DE","addr:housenumber":"200","addr:postcode":"14774","addr:street":"Plauer Landstraße","fee":"yes","name":"Camping- und Freizeitpark am Plauer See","operator":"Target Invest GmbH & Co. KG","phone":"+49 3381 804544","power_supply":"yes","tents":"yes","website":"https://www.camping-plauersee.de/"}},"405965062":{"location":[52.3865171,12.4970728],"ct":"DE","tp":"CS","ts":"2024-05-02T04:38:24Z","tX":547,"tY":336,"tags":{"capacity":"100","caravans":"yes","contact:email":"info@buhnenhaus.de","contact:phone":"+49 3381 6190090","contact:website":"http://buhnenhaus.de/index.php?&lang=de&inhalt=camping","drinking_water":"yes","name":"Buhnenhaus Camping","power_supply":"yes","sanitary_dump_station":"customers","shower":"yes","tents":"yes","toilets":"yes","wheelchair":"yes"}},"602715358":{"location":[52.424739,12.5527487],"ct":"DE","tp":"CR","ts":"2023-12-26T17:57:32Z","tX":547,"tY":336,"tags":{"addr:city":"Brandenburg an der Havel","addr:country":"DE","addr:housenumber":"7","addr:postcode":"14770","addr:street":"Am Hafen","contact:email":"info@stadtmarina-brandenburg.de","contact:phone":"+49 3381 8908100","contact:website":"https://www.stadtmarina-brandenburg.de/campen.html","name":"Stadtmarina Brandenburg"}},"848724923":{"location":[52.3865921,12.4979319],"ct":"DE","tp":"CR","ts":"2024-03-16T11:48:31Z","tX":547,"tY":336,"tags":{"drinking_water":"yes","fee":"no","name":"Buhnenhaus","power_supply":"yes","sanitary_dump_station":"yes","toilets":"yes"}},"1284798229":{"location":[52.3808228,12.4576217],"ct":"DE","tp":"CS","ts":"2024-05-20T07:09:25Z","tX":547,"tY":336,"tags":{}},"1284798230":{"location":[52.3781147,12.4629088],"ct":"DE","tp":"CS","ts":"2024-05-20T07:09:25Z","tX":547,"tY":336,"tags":{}},"1688812998":{"location":[52.4168939,12.5665952],"ct":"DE","tp":"CR","ts":"2013-09-30T17:23:58Z","tX":547,"tY":336,"tags":{"designation":"Stellplatz am Dom","name":"Stellplatz am Dom","source":"Stellplatzfhr."}},"5566870822":{"location":[52.4580771,12.4280463],"ct":"DE","tp":"CS","ts":"2018-04-20T14:51:43Z","tX":547,"tY":336,"tags":{"name":"Campingplatz Lutze 1 PWCV e.V."}},"10072854680":{"location":[52.3621428,12.3955658],"ct":"DE","tp":"SD","ts":"2022-10-03T12:40:35Z","tX":547,"tY":336,"tags":{"access":"customers","fee":"no"}}}