{"13573411":{"location":[52.1406088,12.3468952],"ct":"DE","tp":"CS","ts":"2021-12-20T20:08:06Z","tX":547,"tY":337,"tags":{"email":"info@campelse-frauencamping.de","name":"Camp Else","operator":"Frauen- und Kindereisen e.V. Berlin","phone":"+493384790900","website":"http://www.campelse-frauencamping.de"}},"363823643":{"location":[52.1514293,12.5984447],"ct":"DE","tp":"CR","ts":"2024-10-28T20:45:58Z","tX":547,"tY":337,"tags":{"addr:city":"Bad Belzig","addr:country":"DE","addr:postcode":"14806","addr:street":"Am Kurpark","capacity":"12","charge":"11 EUR","contact:email":"info@bad.belzig.com","contact:phone":"+49 33841 38799-10","contact:website":"https://www.belzig.com/planen-buchen/reisemobilstellplaetze.php","description":"Stadt Bad Belzig","fee":"yes","name":"Reisemobilstellplatz SteinTherme Bad Belzig","opening_hours":"24/7","power_supply":"yes","power_supply:charge":"1 EUR/6 hours","sanitary_dump_station":"yes","surface":"asphalt","toilets":"no","water_point":"yes","water_point:charge":"0.30 EUR/20 liter","water_point:fee":"yes","website":"https://www.belzig.com/planen-buchen/reisemobilstellplaetze.php","wheelchair":"yes","wikimedia_commons":"Category:Reisemobilstellplatz SteinTherme Bad Belzig"}},"3622406867":{"location":[52.1511609,12.5984077],"ct":"DE","tp":"SD","ts":"2024-10-28T20:45:58Z","tX":547,"tY":337,"tags":{"access":"yes","fee":"no","sanitary_dump_station:chemical_toilet":"yes","sanitary_dump_station:grey_water":"yes","water_point":"yes","water_point:fee":"yes","wikimedia_commons":"File:SteinTherme_Bad_Belzig_sanitary_dump_station.jpg"}},"12145848115":{"location":[52.1108367,12.4471191],"ct":"DE","tp":"CR","ts":"2024-12-24T11:10:40Z","tX":547,"tY":337,"tags":{"addr:city":"Wiesenburg/Mark","addr:country":"DE","addr:housenumber":"3a","addr:postcode":"14827","addr:street":"Parkstra√üe","addr:suburb":"Wiesenburg","capacity":"5","internet_access":"no","name":"Wohnmobilstellplatz am Schlosspark","opening_hours":"24/7","power_supply":"no","sanitary_dump_station":"no","toilets":"yes","wheelchair":"yes"}}}