{"18420048":{"location":[51.6938564,12.4506943],"ct":"DE","tp":"CR","ts":"2024-12-14T02:46:32Z","tX":547,"tY":339,"tags":{"capacity":"24","caravan_site":"motorhome_stopover","caravan_site:type":"lake;resort","caravans":"yes","charge":"25 EUR","dog":"yes","fee":"yes","internet_access":"wlan","internet_access:fee":"no","laundry":"yes","maxlength":"13","name":"Wohnmobil-Camp Gröbern","power_supply":"yes","power_supply:fee":"no","power_supply:maxcurrent":"16","sanitary_dump_station":"yes","sanitary_dump_station:chemical_toilet":"yes","sanitary_dump_station:grey_water":"yes","shower":"yes","socket:cee_blue":"yes","toilets":"yes","water_point":"yes","water_point:fee":"no","website":"https://www.seeresort-groebern.de/wohnmobil-camp"}},"27528872":{"location":[51.790061,12.5680502],"ct":"DE","tp":"CS","ts":"2024-09-05T20:28:28Z","tX":547,"tY":339,"tags":{"addr:city":"Kemberg","addr:country":"DE","addr:postcode":"06901","addr:street":"Strandweg","addr:suburb":"Bergwitz","caravans":"yes","name":"Campingplatz Bergwitzsee","phone":"+49 34921 28228","tents":"yes","url":"http://www.bergwitzsee.de","website":"http://www.bergwitzsee.de","wheelchair":"limited"}},"37983444":{"location":[51.7743811,12.5354598],"ct":"DE","tp":"CS","ts":"2019-11-16T19:01:32Z","tX":547,"tY":339,"tags":{"name":"Feriencamp Radis"}},"75114206":{"location":[51.6320131,12.3533243],"ct":"DE","tp":"PK","ts":"2025-01-07T00:36:50Z","tX":547,"tY":339,"tags":{"access":"yes","capacity:parent":"no","capacity:women":"no","fee":"yes","goods":"yes","motorcar":"designated","motorcycle":"yes","motorhome":"yes","opening_hours":"24/7","park_ride":"no","parking":"surface","smoothness":"intermediate","supervised":"no","surface":"gravel"}},"118324955":{"location":[51.6478051,12.4220632],"ct":"DE","tp":"CS","ts":"2024-09-21T21:22:33Z","tX":547,"tY":339,"tags":{"addr:city":"Muldestausee","addr:country":"DE","addr:postcode":"06774","addr:street":"Am Muldestausee","addr:suburb":"Schlaitz","caravans":"yes","contact:email":"info@heide-camp-schlaitz.de","contact:fax":"+49 34955 20656","contact:phone":"+49 34955 20571","contact:website":"https://www.heide-camp-schlaitz.de/","drinking_water":"yes","name":"Heide-Camp Schlaitz","operator":"Michael Berger","power_supply":"yes","sanitary_dump_station":"yes","shower":"yes","tents":"yes","toilets":"yes","toilets:wheelchair":"yes","wheelchair":"limited"}},"485778300":{"location":[51.7525047,12.5692347],"ct":"DE","tp":"CS","ts":"2023-11-09T23:18:56Z","tX":547,"tY":339,"tags":{"addr:city":"Kemberg","addr:country":"DE","addr:postcode":"06901","addr:street":"Mark Nauendorf","caravans":"yes","name":"Zeltplatz Königsee","phone":"+49 34921 21060 or 20489","tents":"yes","website":"https://www.camping-koenigsee.de/"}},"593890630":{"location":[51.7415239,12.3564934],"ct":"DE","tp":"CS","ts":"2024-08-10T08:29:38Z","tX":547,"tY":339,"tags":{"caravans":"yes","drinking_water":"yes","internet_access":"no","name":"Naturcampingplatz Möhlauer See","power_supply":"yes","sanitary_dump_station":"yes","shower":"yes","tents":"yes","toilets":"yes","website":"https://naturcampingplatz-moehlauer-see.de/","wheelchair":"yes"}},"706143867":{"location":[51.8112112,12.3062245],"ct":"DE","tp":"CS","ts":"2019-07-22T10:36:53Z","tX":547,"tY":339,"tags":{"addr:city":"Dessau-Roßlau","addr:country":"DE","addr:housenumber":"1","addr:postcode":"06842","addr:street":"Waldbad Adria","addr:suburb":"Mildensee","bicycle":"dismount","caravans":"yes","drinking_water":"yes","motor_vehicle":"no","name":"Campingplatz Adria","phone":"+49 340 2304810, +49 171 7007117, +49 178 8907335","power_supply":"yes","tents":"yes","website":"http://www.mildensee.de/adria.htm","wheelchair":"yes"}},"938116510":{"location":[51.6935751,12.449633],"ct":"DE","tp":"CR","ts":"2021-05-02T16:30:07Z","tX":547,"tY":339,"tags":{"power_supply":"yes"}},"938116522":{"location":[51.6943086,12.451692],"ct":"DE","tp":"CR","ts":"2021-05-02T16:30:07Z","tX":547,"tY":339,"tags":{}},"1277639188":{"location":[51.7934763,12.5768132],"ct":"DE","tp":"CR","ts":"2024-08-31T04:35:13Z","tX":547,"tY":339,"tags":{"capacity":"30","fee":"yes","name":"Stellplatz am Bergwitzsee","power_supply":"yes","sanitary_dump_station":"yes","water_point":"yes","website":"https://www.bergwitzsee.de/reisemobile"}},"2970776893":{"location":[51.6285844,12.3495767],"ct":"DE","tp":"CR","ts":"2014-07-19T22:19:07Z","tX":547,"tY":339,"tags":{}},"3070164034":{"location":[51.7749304,12.5351214],"ct":"DE","tp":"CR","ts":"2015-10-22T08:58:53Z","tX":547,"tY":339,"tags":{"addr:city":"Kemberg","addr:country":"DE","addr:housenumber":"1","addr:postcode":"06901","addr:street":"Hohe Brücke","addr:suburb":"Radis","name":"Feriencamp Radis","phone":"+49 34921 60066","wheelchair":"no"}},"6420953186":{"location":[51.8022664,12.3913128],"ct":"DE","tp":"CR","ts":"2023-09-01T01:34:19Z","tX":547,"tY":339,"tags":{"addr:housenumber":"49","addr:postcode":"06785","addr:street":"Dessauer Straße","name":"Oranienbaum, Stellplatz","name:de":"Wohnmobilstellplatz Oranienbaum","phone":"+49 1578 3419168","website":"https://gvw-oranienbaum.de/wohnmobilstellplatz/"}},"12147206933":{"location":[51.7932422,12.5764751],"ct":"DE","tp":"SD","ts":"2024-08-31T04:34:20Z","tX":547,"tY":339,"tags":{"sanitary_dump_station:basin":"yes","sanitary_dump_station:round_drain":"yes"}}}