{"194299461":{"location":[51.6018556,12.5829861],"ct":"DE","tp":"CR","ts":"2024-07-11T22:45:57Z","tX":547,"tY":340,"tags":{"drinking_water":"yes","fee":"no","name":"Obermühle","power_supply":"no","sanitary_dump_station":"yes","toilets":"yes","wheelchair":"limited"}},"297118221":{"location":[51.5948309,12.4775956],"ct":"DE","tp":"CS","ts":"2024-08-31T09:49:43Z","tX":547,"tY":340,"tags":{"addr:city":"Löbnitz","addr:country":"DE","addr:postcode":"04509","addr:street":"An der Muldenaue","caravans":"yes","drinking_water":"yes","landuse":"grass","name":"\"Alte Mulde\" Löbnitz","phone":"+49 34208 7890, +49 162 8806298","power_supply":"yes","sanitary_dump_station":"no","shower":"yes","tents":"yes","toilets":"yes","website":"https://loebnitz-am-see.de/html/camping.htm"}},"344883475":{"location":[51.615156,12.3417838],"ct":"DE","tp":"CS","ts":"2024-05-25T16:01:05Z","tX":547,"tY":340,"tags":{"addr:city":"Bitterfeld-Wolfen","addr:housenumber":"24","addr:postcode":"06749","addr:street":"Niemegker Straße","addr:suburb":"Bitterfeld","cabins":"yes","caravans":"yes","dog":"yes","drinking_water":"yes","email":"info@ferienpark-goitzsche.de","hot_water":"yes","internet_access":"wlan","internet_access:fee":"no","kitchen":"yes","motor_vehicle":"yes","name":"Camping und Ferienpark Goitzsche","phone":"+49 1520 9205436","power_supply":"yes","reservation":"yes","sanitary_dump_station":"yes","shower":"hot","tents":"yes","toilets":"yes","washing_machine":"yes","website":"https://www.ferienpark-goitzsche.de/"}},"779995405":{"location":[51.4368358,12.3454758],"ct":"DE","tp":"CS","ts":"2024-04-05T23:02:41Z","tX":547,"tY":340,"tags":{"bbq":"yes","cabins":"yes","caravans":"yes","dryer":"yes","kitchen":"yes","name":"Camp David Sport Resort","operator":"All-on-Sea Camp & Sport Resort GmbH","power_supply":"yes","sanitary_dump_station":"yes","sauna":"yes","shower":"yes","tents":"yes","toilets":"yes","washing_machine":"yes","website":"https://www.campdavid-sportresort.de/uebernachten/uebernachtungsmoeglichkeiten-1"}},"1230124623":{"location":[51.6164274,12.3428823],"ct":"DE","tp":"CS","ts":"2023-12-10T16:47:09Z","tX":547,"tY":340,"tags":{}},"5754446845":{"location":[51.4388572,12.3444951],"ct":"DE","tp":"CR","ts":"2024-09-20T09:13:39Z","tX":547,"tY":340,"tags":{"fee":"yes","name":"Camp David Sport Resort","power_supply":"yes","tents":"no","toilets":"yes","website":"https://www.campdavid-sportresort.de/uebernachten/caravan-camping-1-2"}},"9212315344":{"location":[51.6177714,12.5824682],"ct":"DE","tp":"CR","ts":"2021-10-30T15:19:49Z","tX":547,"tY":340,"tags":{}},"9212309766":{"location":[51.6176217,12.5823365],"ct":"DE","tp":"SD","ts":"2021-10-30T15:24:33Z","tX":547,"tY":340,"tags":{}},"11932360287":{"location":[51.6157035,12.3416481],"ct":"DE","tp":"SD","ts":"2024-05-25T17:46:32Z","tX":547,"tY":340,"tags":{"access":"customers","drinking_water":"no","fee":"no","sanitary_dump_station:basin":"yes","sanitary_dump_station:round_drain":"yes"}}}