{"4103042":{"location":[51.2667455,12.3146047],"ct":"DE","tp":"CR","ts":"2024-05-30T23:37:45Z","tX":547,"tY":341,"tags":{"capacity":"25","caravan_site":"motorhome_stopover","caravan_site:type":"river","fee":"yes","internet_access":"no","name":"Caravaning am Elsterstausee","power_supply":"no","sanitary_dump_station":"no","website":"https://freizeitinleipzig.de/caravaning-am-elsterstausee/"}},"4599910":{"location":[51.234944,12.3364457],"ct":"DE","tp":"CR","ts":"2022-05-21T18:00:44Z","tX":547,"tY":341,"tags":{"addr:city":"Zwenkau","addr:postcode":"04442","addr:street":"Hafenstraße","charge":"10€","fee":"yes","internet_access":"no","name":"Stellplatz Ostmole","payment:cash":"yes"}},"8264586":{"location":[51.2703298,12.4310439],"ct":"DE","tp":"CS","ts":"2024-04-05T23:22:56Z","tX":547,"tY":341,"tags":{"addr:city":"Markkleeberg","addr:housenumber":"36","addr:postcode":"04416","addr:street":"Bornaer Chaussee","cabins":"yes","capacity:cabins":"1","capacity:caravans":"8","caravans":"yes","motorhome":"yes","name":"Campinghof Bartl","phone":"+49 171 174 98 58","sanitary_dump_station":"customers","shower":"yes","tents":"yes","toilets":"yes","website":"https://campinghof-bartl.de/"}},"27526804":{"location":[51.3707133,12.3106575],"ct":"DE","tp":"CS","ts":"2023-04-15T20:36:12Z","tX":547,"tY":341,"tags":{"addr:city":"Leipzig","addr:country":"DE","addr:housenumber":"5","addr:postcode":"04159","addr:street":"Gustav-Esche-Straße","caravans":"yes","drinking_water":"yes","name":"KNAUS Campingpark Leipzig","phone":"+49 341 4651600","power_supply":"yes","sanitary_dump_station":"yes","shower":"yes","tents":"yes","toilets":"yes","url":"http://www.camping-auensee.de","website":"https://www.knauscamp.de/leipzig.html","wheelchair":"yes"}},"35339188":{"location":[51.3789998,12.6355829],"ct":"DE","tp":"CS","ts":"2023-11-05T04:30:24Z","tX":547,"tY":341,"tags":{"addr:city":"Machern","addr:country":"DE","addr:housenumber":"1","addr:postcode":"04827","addr:street":"Lübschützer Teiche","addr:suburb":"Lübschütz","caravans":"yes","name":"Naherholungsgebiet \"Lübschützer Teiche\" (Camping Machern)","openfire":"yes","phone":"+49 3425 814720 or 814784","tents":"yes","website":"https://www.camping-machern.de/"}},"43022744":{"location":[51.258071,12.4304152],"ct":"DE","tp":"CS","ts":"2024-06-10T08:07:41Z","tX":547,"tY":341,"tags":{"addr:city":"Markkleeberg","addr:country":"DE","addr:housenumber":"5","addr:postcode":"04416","addr:street":"Paddelsteg","addr:suburb":"Auenhain","caravans":"yes","drinking_water":"yes","internet_access":"wlan","name":"Campingpark am Markkleeberger See","operator":"Spaß und Freizeit GbR","phone":"+49 34297 143053, +49 177 3038663","power_supply":"yes","sanitary_dump_station":"customers","shower":"yes","tents":"yes","toilets":"yes","website":"https://neuseenland-camping.com/"}},"45964966":{"location":[51.3569033,12.3849342],"ct":"DE","tp":"CR","ts":"2025-01-07T21:49:40Z","tX":547,"tY":341,"tags":{"access":"customers","charge":"25 EUR","dog":"leashed","fee":"yes","fixme":"hours","maxstay":"10 days","name":"RV park Leipzig center and zoo","opening_hours":"09:00-11:30, 13:00-18:00, Sa 10:30-12:00, Su 10:30-11:00","operator":"Boje Martens","parking":"surface","phone":"+49 341 35129303","power_supply":"yes","power_supply:charge":"1 EUR","power_supply:fee":"yes","sanitary_dump_station":"yes","sanitary_dump_station:chemical_toilet":"yes","sanitary_dump_station:grey_water":"yes","supervised":"yes","toilets":"yes","water_point":"yes","website":"https://www.wohnmobilstellplatz-leipzig.de/","wheelchair":"yes"}},"135470567":{"location":[51.3117202,12.5659454],"ct":"DE","tp":"CS","ts":"2017-03-12T21:15:00Z","tX":547,"tY":341,"tags":{"addr:city":"Naunhof","addr:postcode":"04683","addr:suburb":"Albrechtshain","caravans":"yes","name":"Campingplatz am Albrechtshainer See","operator":"Kletterwald","phone":"+49 34293 29474, +49 172 6466891","tents":"yes","url":"http://www.naunhof.de/new-cms/cms/front_content.php?idcatart=223&lang=1"}},"268405509":{"location":[51.2249405,12.4461335],"ct":"DE","tp":"CR","ts":"2021-08-10T16:12:20Z","tX":547,"tY":341,"tags":{"addr:city":"Großpösna","addr:postcode":"04463","addr:street":"Hafenblick","capacity":"45","caravans":"yes","contact:email":"info@lagovida.de","contact:phone":"+49 34206 7750","fee":"yes","internet_access":"wlan","internet_access:fee":"customers","name":"Wohnmobilhafen Lagovida","operator":"Lagovida GmbH","payment:american_express":"yes","payment:cash":"yes","payment:credit_cards":"yes","payment:mastercard":"yes","payment:visa":"yes","power_supply":"yes","sanitary_dump_station":"yes","tents":"no","toilets:wheelchair":"yes","water_point":"yes","website":"https://lagovida.de/de/wohnmobilhafen/","wheelchair":"yes","wheelchair:description":"Dusche und Toilette barrierefrei. Kein Duschsitz vorhanden."}},"434981202":{"location":[51.2606258,12.4294499],"ct":"DE","tp":"CR","ts":"2023-11-10T05:17:07Z","tX":547,"tY":341,"tags":{"addr:city":"Markkleeberg","addr:housenumber":"2","addr:postcode":"04416","addr:street":"Am Feriendorf","capacity":"6","fee":"yes","name":"Seepark Auenhain","power_supply":"yes","website":"https://www.seepark-auenhain.de/"}},"488476481":{"location":[51.2550229,12.4251641],"ct":"DE","tp":"CR","ts":"2023-05-28T11:51:22Z","tX":547,"tY":341,"tags":{"access":"yes","fee":"yes","parking":"surface"}},"497160084":{"location":[51.3524632,12.4427797],"ct":"DE","tp":"CS","ts":"2024-08-28T13:43:21Z","tX":547,"tY":341,"tags":{"addr:housenumber":"20","addr:street":"Hohentichelnstraße","group_only":"yes"}},"533416533":{"location":[51.3664186,12.4258057],"ct":"DE","tp":"CR","ts":"2023-01-18T18:01:20Z","tX":547,"tY":341,"tags":{"caravans":"yes","dog":"yes","fee":"yes","name":"Stellplatz Leipzig/Melinenburg","note":"Auf dem Flyer des Stellplatzes steht noch Stellplatz Melinenburg. Auf der Website steht nur noch die Bezeichnung Stellplatz Leipzig.","sanitary_dump_station":"yes","tents":"no","website":"http://www.stellplatz-leipzig.de/"}},"954648538":{"location":[51.2273713,12.4379364],"ct":"DE","tp":"CR","ts":"2024-07-31T14:19:20Z","tX":547,"tY":341,"tags":{"addr:city":"Großpösna","addr:postcode":"04463","addr:street":"Alte F95","charge":"10€","name":"Magdeborner Halbinsel Nord","operator":"DSG GmbH","power_supply":"no","reservation":"no","sanitary_dump_station":"no"}},"975939369":{"location":[51.3494503,12.3908362],"ct":"DE","tp":"CR","ts":"2023-10-18T20:56:44Z","tX":547,"tY":341,"tags":{"charge":"19.5 EUR","dog":"yes","fee":"yes","internet_access":"no","name":"Goldstück-Leipzig","operator":"4S BusPort GmbH","power_supply":"yes","power_supply:charge":"4 EUR","power_supply:fee":"yes","reservation":"recommended","sanitary_dump_station":"customers","shower:charge":"2.5 EUR","toilets":"yes","website":"https://www.goldstueck-leipzig.de/","wheelchair":"yes"}},"1348205168":{"location":[51.2387219,12.3507156],"ct":"DE","tp":"CS","ts":"2025-01-03T10:55:30Z","tX":547,"tY":341,"tags":{"access":"permissive","backcountry":"yes","capacity:persons":"16","caravans":"no","charge":"10 EUR","fee":"yes","name":"Wanderrastplatz am Zwenkauer See","operator":"Zweckverband Neue Harth","static_caravans":"no","tents":"no","website":"https://www.zwenkauer-see.com/logis/wanderrastplatz/"}},"2995851601":{"location":[51.2249113,12.4473866],"ct":"DE","tp":"SD","ts":"2021-08-10T16:12:20Z","tX":547,"tY":341,"tags":{"fee":"no","operator":"Lagovida GmbH","water_point":"yes","wheelchair":"limited"}},"4755558305":{"location":[51.2920411,12.3543683],"ct":"DE","tp":"CR","ts":"2024-08-06T08:11:19Z","tX":547,"tY":341,"tags":{"description":"Parkplatz mit Schotter-Untergrund","fee":"no","name":"Landschaftspark Cospuden","power_supply":"no","sanitary_dump_station":"no","toilets":"no","water_point":"no","wheelchair":"yes"}},"5175049634":{"location":[51.3665278,12.4265793],"ct":"DE","tp":"SD","ts":"2017-10-18T17:19:47Z","tX":547,"tY":341,"tags":{"sanitary_dump_station:chemical_toilet":"yes","sanitary_dump_station:grey_water":"yes"}},"9031468789":{"location":[51.3494753,12.3912226],"ct":"DE","tp":"SD","ts":"2021-08-24T08:55:38Z","tX":547,"tY":341,"tags":{"access":"customers","sanitary_dump_station:basin":"yes","sanitary_dump_station:round_drain":"yes"}}}