{"6267049":{"location":[51.1746068,12.4557753],"ct":"DE","tp":"CS","ts":"2024-04-05T22:51:21Z","tX":547,"tY":342,"tags":{"addr:city":"Neukieritzsch","addr:housenumber":"1","addr:street":"Hainweg","addr:suburb":"Kahnsdorf","capacity:caravans":"50","caravans":"yes","name":"Camping Hain","openfire":"yes","power_supply":"yes","tents":"yes","toilets":"yes","website":"https://www.leipzigseen.de/uebernachten/campingplaetze/campingplatz-hainer-see"}},"24242659":{"location":[51.0454187,12.5000572],"ct":"DE","tp":"CS","ts":"2020-10-03T13:25:07Z","tX":547,"tY":342,"tags":{"access":"yes","addr:city":"Fockendorf","addr:postcode":"04617","addr:street":"Campingpark","addr:suburb":"Pahna","caravans":"yes","contact:email":"camping-pahna@t-online.de","contact:fax":"+49 34343 51912","contact:phone":"+49 34343 51914","contact:website":"http://www.camping-pahna.de","name":"See-Camping Altenburg-Pahna","operator":"Eigenbetrieb des Zweckverbandes Erholungspark Pahna","tents":"yes","wheelchair":"limited"}},"56225389":{"location":[51.1537211,12.6234713],"ct":"DE","tp":"CS","ts":"2021-04-24T20:18:40Z","tX":547,"tY":342,"tags":{"addr:city":"Bad Lausick","addr:country":"DE","addr:housenumber":"7","addr:postcode":"04651","addr:street":"Beuchaer Oberweg","caravans":"yes","contact:email":"info@campingplatz-landidyll.com","contact:facebook":"https://de-de.facebook.com/CampingplatzLandidyll","contact:instagram":"https://www.instagram.com/campingplatz.landidyll","contact:mobile":"+49 1520 2533796","contact:phone":"+49 34345 22785","contact:twitter":"https://twitter.com/LandidyllCamp","contact:website":"https://www.campingplatz-landidyll.com","name":"Campingplatz Landidyll","tents":"yes"}},"222278514":{"location":[50.9789164,12.4298891],"ct":"DE","tp":"CR","ts":"2024-04-01T13:49:30Z","tX":547,"tY":342,"tags":{"capacity":"15","caravans":"no","contact:phone":"+49 3447 594-0","fee":"yes","internet_access":"no","name":"Stellplatz \"Grosser Teich\"","power_supply":"yes","sanitary_dump_station":"yes","toilets":"yes","water_point":"yes","website":"https://www.stadt-altenburg.de/seite/494950/wohnmobilstellplatz.html","wheelchair":"yes"}},"388293290":{"location":[51.112375,12.4681272],"ct":"DE","tp":"CS","ts":"2012-08-05T20:58:13Z","tX":547,"tY":342,"tags":{"access":"permissive","name":"Surfclub Sachsen e.V."}}}