{"118140779":{"location":[50.6071707,12.4087313],"ct":"DE","tp":"CS","ts":"2024-08-25T10:17:50Z","tX":547,"tY":344,"tags":{"addr:city":"Lengenfeld","addr:country":"DE","addr:housenumber":"17","addr:postcode":"08485","addr:street":"Irfersgrüner Bahnhofstraße","addr:suburb":"Irfersgrün","caravans":"yes","contact:email":"info@waldcamping-vogtland.de","contact:fax":"+49 37606 2788","contact:phone":"+49 37606 2787","contact:website":"http://www.camping-von-tailleur.de","fixme":"Platzabmessungen geschätzt","name":"Camping und Ferienhäuser \"von Tailleur\"","operator":"Gottfried Pester","tents":"yes"}},"122528618":{"location":[50.6221802,12.3979634],"ct":"DE","tp":"CS","ts":"2023-11-02T22:15:04Z","tX":547,"tY":344,"tags":{"caravans":"yes","name":"Campingplatz Mühlteich","operator":"Gemeinde Heinsdorfergrund","tents":"yes","website":"https://www.heinsdorfergrund-vogtland.de/inhalte/gemeinde_heinsdorfergrund/_inhalt/tourismus/tourismus","wheelchair":"limited"}},"199760146":{"location":[50.5926905,12.5976124],"ct":"DE","tp":"CS","ts":"2018-09-18T07:23:32Z","tX":547,"tY":344,"tags":{"addr:city":"Schneeberg","addr:country":"DE","addr:housenumber":"2","addr:postcode":"08289","addr:street":"Am Forstteich","addr:suburb":"Lindenau","caravans":"yes","name":"Campingplatz Lindenau an der Silberstraße","note":"Wochenendhäuser","phone":"+49 3772 28102","tents":"yes","website":"http://www.campingplatz-lindenau.de"}},"317406396":{"location":[50.6009921,12.6416838],"ct":"DE","tp":"CR","ts":"2024-05-15T22:27:07Z","tX":547,"tY":344,"tags":{"addr:city":"Schneeberg","addr:housenumber":"1","addr:postcode":"08289","addr:street":"Amtsgerichtsstraße","capacity":"3","caravan_site":"motorhome_stopover","caravan_site:type":"swimming_pool","charge":"5 EUR","fee":"yes","internet_access":"no","maxlength":"12","name":"Platz unter den Linden","operator":"Dr.-Curt-Geitner-Bad","power_supply":"yes","power_supply:charge":"0.50 EUR/kWh","power_supply:fee":"yes","website":"https://www.silberstrom.de/deutsch/baeder/wohnmobilstellplaetze"}},"653579611":{"location":[50.5519417,12.3969511],"ct":"DE","tp":"PK","ts":"2024-03-30T19:12:22Z","tX":547,"tY":344,"tags":{"access":"private","capacity":"1","fee":"yes","motorhome":"yes","operator":"Pumphut's Scheune","parking":"surface"}},"687852930":{"location":[50.7096519,12.5040636],"ct":"DE","tp":"CR","ts":"2019-05-04T20:25:39Z","tX":547,"tY":344,"tags":{"addr:city":"Zwickau","addr:housenumber":"25","addr:postcode":"08056","addr:street":"Uhdestraße","capacity":"5","fee":"no","name":"SP am Ubineum","power_supply":"yes","sanitary_dump_station":"yes"}},"1062554331":{"location":[50.562776,12.6349955],"ct":"DE","tp":"CR","ts":"2023-11-02T22:14:50Z","tX":547,"tY":344,"tags":{"addr:city":"Zschorlau","addr:country":"DE","addr:housenumber":"9b","addr:postcode":"08321","addr:street":"Am Kuchenhaus","capacity":"16","email":"info@wohnmobile-glaeser.de","fee":"yes","name":"Campingpark Gläser","opening_hours":"24/7","operator":"Gläser Mobile","phone":"+49 3771 5644384","power_supply":"yes","reservation":"no","sanitary_dump_station":"yes","start_date":"2022-06-11","website":"https://www.glaeser-mobile.de/"}},"1117628557":{"location":[50.5740823,12.6116014],"ct":"DE","tp":"PK","ts":"2024-05-15T22:23:42Z","tX":547,"tY":344,"tags":{"access":"yes","fee":"yes","motorcycle":"yes","motorhome":"yes","parking":"surface","source":"survey"}},"1138268780":{"location":[50.573799,12.612053],"ct":"DE","tp":"CR","ts":"2024-12-20T12:29:25Z","tX":547,"tY":344,"tags":{"addr:city":"Schneebarg","addr:postcode":"08289","addr:street":"Am Filzteich","area":"yes","capacity":"8","caravan_site":"motorhome_stopover","caravan_site:type":"lake","charge":"10 EUR","description":"fee includes admission to Strandbad Filzteich","fee":"yes","internet_access":"no","name":"Am Filzteich","phone":"+49 3772 22460","power_supply":"yes","power_supply:charge":"0.50 EUR/kWh","power_supply:fee":"yes","sanitary_dump_station":"yes","toilets":"no","water_point":"yes","website":"https://www.silberstrom.de/deutsch/baeder/wohnmobilstellplaetze"}},"1188246250":{"location":[50.6254409,12.5101342],"ct":"DE","tp":"CS","ts":"2011-03-05T23:45:32Z","tX":547,"tY":344,"tags":{}},"1235560115":{"location":[50.5404312,12.6183382],"ct":"DE","tp":"CR","ts":"2025-01-11T16:03:17Z","tX":547,"tY":344,"tags":{"capacity":"2","charge":"10 EUR","description":"Camping for family at assisted living facility","fee":"yes","name":"HERR-BERGE Wohnmobilstellplatz","operator":"HERR-BERGE Senioren-, Familien- und Behindertenzentrum der Evangelisch-Freikirchlichen Gemeinden in Westsachsen e.V.","phone":"+49 37752 54 410","power_supply":"yes","power_supply:charge":"5 EUR","power_supply:fee":"yes","reservation":"yes","source":"survey;local knowledge","website":"https://www.herr-berge.eu/unsere-leistungen/familienferienstaette"}},"1284814760":{"location":[50.5308117,12.5229965],"ct":"DE","tp":"CR","ts":"2025-01-11T16:14:11Z","tX":547,"tY":344,"tags":{"bakery_service":"yes","capacity":"4","caravan_site":"motorhome_stopover","caravan_site:type":"mountains;skiing","charge":"10 EUR","fee":"yes","laundry":"yes","name":"Wohnmobilstellplatz \"Reithblick\"","picnic_table":"yes","power_supply":"yes","power_supply:fee":"no","sanitary_dump_station":"yes","surface":"grass_paver","toilets":"yes","water_point":"yes","water_point:fee":"no"}},"8591841150":{"location":[50.59362,12.6343001],"ct":"DE","tp":"CR","ts":"2024-12-20T12:28:56Z","tX":547,"tY":344,"tags":{"capacity":"10","caravans":"no","check_date":"2024-12-20","contact:website":"https://www.berghotel-steiger.de/stellplatz","dog":"no","fee":"yes","name":"Stellplatz Berghotel Steiger","operator":"Berghotel Steiger","power_supply":"yes","tents":"no","water_point":"yes"}}}