{"43656829":{"location":[50.5029272,12.4976225],"ct":"DE","tp":"CR","ts":"2019-06-09T05:50:43Z","tX":547,"tY":345,"tags":{"contact:website":"https://www.forstmeister.de/camping-caravaning.html","name":"Zum Forstmeister","operator":"Hotel \"Forstmeister\""}},"176848359":{"location":[50.4153408,12.3977806],"ct":"DE","tp":"CS","ts":"2024-11-03T13:42:58Z","tX":547,"tY":345,"tags":{"addr:city":"Grünbach/Muldenberg","addr:housenumber":"22","addr:postcode":"08223","addr:street":"Schönecker Straße","caravans":"yes","name":"Bergschlösschen Muldenberg","operator":"Ramona Hommel","pets_allowed":"dogs","reservation":"recommended","sanitary_dump_station":"yes","tents":"yes","website":"https://bergschloesschen-muldenberg.de/campingplatz-muldenberg-vogtland/"}},"302736824":{"location":[50.3661375,12.4579757],"ct":"DE","tp":"CS","ts":"2023-06-11T08:36:47Z","tX":547,"tY":345,"tags":{"addr:city":"Klingenthal","addr:country":"DE","addr:housenumber":"45","addr:postcode":"08248","addr:street":"Dürrenbachstraße","caravans":"yes","contact:email":"info@campingplatz-klingenthal.de","contact:mobile":"+49 15206 593 202;+49 176 97709669","contact:phone":"+49 37467 666 46","contact:website":"http://www.campingplatz-klingenthal.de/","drinking_water":"yes","fee":"yes","name":"Campingplatz Klingenthal","operator":"Ralph Lazarus","permanent_camping":"yes","power_supply":"yes","shower":"yes","source":"website","surface":"grass","tents":"yes","toilets":"yes"}},"380929711":{"location":[50.389204,12.3490708],"ct":"DE","tp":"CR","ts":"2021-06-06T13:30:04Z","tX":547,"tY":345,"tags":{"capacity":"12","caravans":"yes","charge":"10,00€","fee":"yes","name":"Am Parkhaus","pets_allowed":"yes","phone":"+49 37464 330011","power_supply":"yes","sanitary_dump_station":"yes","website":"https://schoeneck-vogtland.de/buchen/unterkuenfte/schoeneck.html#ipd=7241421"}},"521018144":{"location":[50.5060667,12.5994802],"ct":"DE","tp":"CR","ts":"2024-10-18T12:31:06Z","tX":547,"tY":345,"tags":{"capacity":"16","contact:email":"mail@badegaerten.de","contact:phone":"+49 37752 507-15","fee":"yes","name":"Badegärten Eibenstock","operator":"Badegärten Eibenstock GmbH","power_supply":"yes","sanitary_dump_station":"yes","water_point":"yes","website":"https://www.badegaerten.de/wohnmobilplatz.php"}},"640095096":{"location":[50.3185139,12.3156068],"ct":"DE","tp":"CR","ts":"2024-07-29T20:41:55Z","tX":547,"tY":345,"tags":{"addr:city":"Markneukirchen","addr:housenumber":"40","addr:postcode":"08258","addr:street":"Breitenfelder Straße","camp_site":"serviced","name":"Vogtlandcamping","power_supply":"yes","sanitary_dump_station":"yes","static_caravans":"yes","tents":"yes","toilets":"yes","website":"https://vogtlandcamping.de/"}},"640095100":{"location":[50.3178319,12.3149976],"ct":"DE","tp":"CS","ts":"2024-07-29T20:41:55Z","tX":547,"tY":345,"tags":{"addr:city":"Markneukirchen","addr:housenumber":"40","addr:postcode":"08258","addr:street":"Breitenfelder Straße","camp_site":"serviced","capacity:caravans":"25","caravans":"yes","fee":"yes","name":"Vogtlandcamping","surface":"grass","tents":"yes"}},"823182517":{"location":[50.3152367,12.6117348],"ct":"CZ","tp":"CS","ts":"2020-07-05T17:36:53Z","tX":547,"tY":345,"tags":{}},"842562068":{"location":[50.4509063,12.6328369],"ct":"DE","tp":"CR","ts":"2020-09-02T17:27:52Z","tX":547,"tY":345,"tags":{"capacity":"10","fee":"6€","power_supply":"yes","power_supply:fee":"2€","surface":"grass"}},"1010756606":{"location":[50.3881407,12.3498709],"ct":"DE","tp":"CR","ts":"2021-12-10T17:35:53Z","tX":547,"tY":345,"tags":{"addr:city":"Schöneck/Vogtland","addr:postcode":"08261","addr:street":"Kärrnerstraße","capacity":"20","internet_access":"yes","name":"Ferienpark Hohe Reuth","power_supply":"yes","sanitary_dump_station":"yes"}},"1011023277":{"location":[50.3885808,12.3498513],"ct":"DE","tp":"SD","ts":"2021-12-10T16:15:19Z","tX":547,"tY":345,"tags":{"access":"yes","operator":"Stadtverwaltung","water_point":"yes"}},"3085231956":{"location":[50.4763003,12.4611497],"ct":"DE","tp":"CS","ts":"2024-04-09T12:48:25Z","tX":547,"tY":345,"tags":{"access":"customers","caravans":"no","group_only":"yes","operator":"KiEZ Waldpark Grünheide","reservation":"yes","sanitary_dump_station":"no","scout":"yes","tents":"yes"}},"11063061106":{"location":[50.3073279,12.3797769],"ct":"DE","tp":"CR","ts":"2024-01-15T16:43:19Z","tX":547,"tY":345,"tags":{"capacity":"3","description":"Dedicated parking for 3 RV's. Sloping so wedges recommended. No services.","internet_access":"no"}},"12147480198":{"location":[50.4807248,12.4049562],"ct":"DE","tp":"CR","ts":"2024-08-31T08:25:00Z","tX":547,"tY":345,"tags":{"capacity":"2","fee":"no","maxstay":"2 days","power_supply":"no","sanitary_dump_station":"no","tents":"no","wheelchair":"yes"}},"12081703710":{"location":[50.3182421,12.3150844],"ct":"DE","tp":"SD","ts":"2024-07-29T20:41:55Z","tX":547,"tY":345,"tags":{}}}