{"470561776":{"location":[50.1179116,12.4075375],"ct":"CZ","tp":"CS","ts":"2009-08-18T20:27:30Z","tX":547,"tY":346,"tags":{}},"470561777":{"location":[50.112813,12.4006284],"ct":"CZ","tp":"CS","ts":"2015-09-05T13:00:00Z","tX":547,"tY":346,"tags":{"capacity":"50","name":"Tršnice"}},"470569936":{"location":[50.1250851,12.52832],"ct":"CZ","tp":"CS","ts":"2015-09-05T13:24:52Z","tX":547,"tY":346,"tags":{"addr:city":"Kynšperk nad Ohří","addr:housenumber":"206","addr:postcode":"35751","addr:street":"Pobřežní","capacity":"200","name":"Dronte","operator":"Dronte.cz +420 778 736 421"}},"470576433":{"location":[50.1353174,12.57912],"ct":"CZ","tp":"CS","ts":"2023-12-21T21:03:40Z","tX":547,"tY":346,"tags":{"name":"U Šabiny"}},"516770820":{"location":[50.0720787,12.4740024],"ct":"CZ","tp":"CS","ts":"2023-09-06T16:14:43Z","tX":547,"tY":346,"tags":{"addr:city":"Okrouhlá","addr:place":"Jesenice","addr:postcode":"35002","capacity":"50","dog":"yes","fee":"yes","internet_access":"wlan","internet_access:fee":"no","name":"Camping Baldi","phone":"+420602427163","start_date":"2004","toilets:wheelchair":"no","website":"https://www.baldi.cz","wheelchair":"limited"}},"516771858":{"location":[50.0846943,12.3237389],"ct":"CZ","tp":"CS","ts":"2021-09-19T14:03:29Z","tX":547,"tY":346,"tags":{"addr:city":"Cheb","addr:place":"Podhoří","addr:postcode":"35002","capacity":"50","internet_access":"yes","internet_access:fee":"no","name":"Camping Podhoří","website":"http://www.kempcheb.cz/"}},"782636607":{"location":[50.1114434,12.3367748],"ct":"CZ","tp":"CS","ts":"2022-09-24T14:44:38Z","tX":547,"tY":346,"tags":{"caravans":"yes","fee":"yes","internet_access":"wlan","name":"Camping Amerika","phone":"+420 354 597 390","power_supply":"yes","sanitary_dump_station":"yes","shower":"yes","tents":"yes","toilets":"yes","website":"https://www.camping-amerika.eu"}},"831967742":{"location":[50.0834402,12.4685934],"ct":"CZ","tp":"CS","ts":"2020-07-29T19:21:42Z","tX":547,"tY":346,"tags":{"name":"Autokemp Rybářská Bašta","phone":"+420 354 431 951","website":"https://www.rb-camping.cz","wheelchair":"yes"}},"831980254":{"location":[50.0662949,12.4302451],"ct":"CZ","tp":"CS","ts":"2023-06-02T07:47:41Z","tX":547,"tY":346,"tags":{"access":"customers","caravans":"yes","dog":"yes","drinking_water":"yes","internet_access":"wlan","internet_access:fee":"no","name":"Autokemp Dřenice","operator":"Autokempink Dřenice spol. s r.o.","phone":"+420 354 431 591","power_supply":"yes","shower":"yes","tents":"yes","toilets":"yes","website":"http://kempdrenice.cz/"}},"1878361874":{"location":[50.2206533,12.3119195],"ct":"DE","tp":"CR","ts":"2023-11-01T17:59:12Z","tX":547,"tY":346,"tags":{"capacity":"10","email":"bad-brambach@gmx.de","fax":"+49 37438 22678","fee":"yes","internet_access":"no","name":"Reisemobilstellplatz Freibad Bad Brambach","phone":"+49 37438 22678","power_supply":"yes","tents":"yes","website":"https://www.bad-brambach.de/"}},"3730560871":{"location":[50.1219735,12.5255485],"ct":"CZ","tp":"CS","ts":"2015-09-05T13:37:37Z","tX":547,"tY":346,"tags":{"addr:city":"Kynšperk nad Ohří","addr:postcode":"35751","name":"u Piráta","operator":"Pirrat.cz"}},"6519107985":{"location":[50.0861827,12.3790596],"ct":"CZ","tp":"CR","ts":"2024-10-10T17:56:55Z","tX":547,"tY":346,"tags":{"name":"Kemp","sanitary_dump_station":"no"}}}