{"6227881":{"location":[49.1784997,12.4659131],"ct":"DE","tp":"CS","ts":"2017-06-22T07:39:45Z","tX":547,"tY":350,"tags":{"canoe_rental":"yes","email":"bruckmeier@imhof-regentalstrand.de","internet_access":"no","name":"Zeltplatz am Regentalstrand","operator":"Thomas Bruckmeier","phone":"+4994611362","website":"http://www.imhof-regentalstrand.de"}},"7414340":{"location":[49.1855426,12.3525196],"ct":"DE","tp":"CS","ts":"2024-08-20T08:40:54Z","tX":547,"tY":350,"tags":{"caravans":"no","dog":"no","email":"zpreichenbach@wern-art.de","group_only":"yes","name":"Jugendzeltplatz Reichenbach","operator":"Gemeinde Reichenbach","tents":"yes"}},"7426134":{"location":[49.2147294,12.4018678],"ct":"DE","tp":"CS","ts":"2017-07-28T18:33:13Z","tX":547,"tY":350,"tags":{"addr:city":"Walderbach","addr:housenumber":"6","addr:postcode":"93194","addr:street":"Haus","caravans":"yes","email":"info@gasthof-pindl.de","phone":"+49 9469 358","tents":"yes","website":"http://www.gasthof-pindl.de/"}},"11621880":{"location":[49.2164729,12.579037],"ct":"DE","tp":"CS","ts":"2024-01-19T06:51:50Z","tX":547,"tY":350,"tags":{"access":"yes","name":"Campingplatz für Flusswanderer"}},"28765755":{"location":[49.321419,12.3671008],"ct":"DE","tp":"CS","ts":"2021-01-14T16:28:52Z","tX":547,"tY":350,"tags":{"addr:city":"Neunburg vorm Wald","addr:country":"DE","addr:housenumber":"19","addr:postcode":"92431","addr:street":"Egelsrieder Straße","caravans":"yes","email":"peither@bayerischer-wald-ferien.de","fax":"+49 9672 924855","name":"Campingplatz Peither","phone":"+49 9672 646","power_supply":"yes","tents":"yes"}},"29060000":{"location":[49.3363937,12.442928],"ct":"DE","tp":"CS","ts":"2020-08-29T13:18:46Z","tX":547,"tY":350,"tags":{"addr:city":"Neunburg vorm Wald","addr:country":"DE","addr:housenumber":"16","addr:postcode":"92431","addr:street":"Gütenland","caravans":"yes","email":"camping.seeblick@t-online.de","fax":"+49 9672 91212","name":"Camping Haus Seeblick","phone":"+49 9672 612","power_supply":"yes","tents":"yes","website":"https://www.camping-haus-seeblick.de/"}},"29468523":{"location":[49.2376503,12.4270073],"ct":"DE","tp":"CS","ts":"2024-06-26T10:20:46Z","tX":547,"tY":350,"tags":{"addr:city":"Roding","addr:country":"DE","addr:housenumber":"4","addr:postcode":"93426","addr:street":"Seestraße","addr:suburb":"Neubäu","caravans":"yes","dog":"yes","dryer":"yes","email":"r.notka@see-campingpark.de","fax":"+49 9469 397","name":"Strandbad Neubäuer See","phone":"+49 9469 331","power_supply":"yes","sanitary_dump_station":"yes","shower":"yes","tents":"yes","toilets":"yes","washing_machine":"yes","website":"https://see-campingpark.de/"}},"324829046":{"location":[49.250727,12.4977588],"ct":"DE","tp":"CS","ts":"2020-08-31T16:59:32Z","tX":547,"tY":350,"tags":{"caravans":"no","group_only":"yes","name":"Jugendzeltplatz","operator":"Stadt Roding","tents":"yes"}},"392592371":{"location":[49.3750039,12.3418757],"ct":"DE","tp":"CS","ts":"2016-01-21T12:44:13Z","tX":547,"tY":350,"tags":{}},"503447687":{"location":[49.2762144,12.3265543],"ct":"DE","tp":"CS","ts":"2024-05-17T05:07:57Z","tX":547,"tY":350,"tags":{"addr:city":"Bodenwöhr","addr:country":"DE","addr:housenumber":"5","addr:postcode":"92439","addr:street":"Bahnhofstraße","addr:suburb":"Blechhammer","caravans":"yes","dryer":"yes","email":"info@hammersee-camping.de","fax":"+49 9434 942424","mobile":"+49 170 2306976;+49 171 6798204","name":"Hammersee Camping","operator":"Lutter KG","phone":"+49 9434 94240","power_supply":"yes","shower":"yes","tents":"yes","toilets":"yes","washing_machine":"yes","website":"https://www.camping-blechhammer.de/"}},"2041932270":{"location":[49.1989718,12.5137558],"ct":"DE","tp":"CS","ts":"2024-10-29T16:30:47Z","tX":547,"tY":350,"tags":{"addr:city":"Roding","addr:country":"DE","addr:housenumber":"2","addr:postcode":"93426","addr:street":"Am Siedersee","caravans":"no","fee":"yes","name":"Zeltplatz Roding","operator":"Stadt Roding","shower":"yes","tents":"only","toilets":"yes","website":"https://www.roding.de/freizeit-kultur-und-tourismus/freizeit-und-kultureinrichtungen/zeltplaetze/"}},"2408903816":{"location":[49.3509859,12.3833946],"ct":"DE","tp":"CR","ts":"2019-07-14T16:21:35Z","tX":547,"tY":350,"tags":{"capacity":"5","drinking_water":"yes","internet_access":"wlan","internet_access:fee":"no","name":"Wohnmobilstellplatz Neunburg v.W.","power_supply":"yes","power_supply:fee":"yes","sanitary_dump_station":"yes"}},"2408903817":{"location":[49.3510936,12.3832517],"ct":"DE","tp":"SD","ts":"2015-04-29T01:02:03Z","tX":547,"tY":350,"tags":{"sanitary_dump_station:accepted":"black_water;tank_chemicals"}},"5043012465":{"location":[49.1987334,12.5170648],"ct":"DE","tp":"CR","ts":"2022-06-08T09:20:27Z","tX":547,"tY":350,"tags":{"capacity":"4","capacity:caravans":"4","contact:email":"tourist@roding.de","contact:phone":"+49 9461 941815","fee":"no","name":"Am Festplatz","operator":"Stadt Roding","power_supply":"yes","sanitary_dump_station":"yes","shower":"no","toilets":"yes","water_point":"yes","wheelchair":"yes"}},"6606213742":{"location":[49.2912377,12.4350561],"ct":"DE","tp":"CR","ts":"2019-07-11T18:01:58Z","tX":547,"tY":350,"tags":{"addr:street":"Schulstraße","capacity":"4","internet_access":"no","power_supply":"yes","sanitary_dump_station":"yes"}}}