{"176278010":{"location":[48.9294211,12.5779075],"ct":"DE","tp":"CS","ts":"2023-08-11T09:35:03Z","tX":547,"tY":351,"tags":{"addr:city":"Parkstetten","addr:housenumber":"50","addr:postcode":"94365","addr:street":"Münsterer Straße","caravans":"yes","dryer":"yes","name":"Campingplatz Friedenhain See","opening_hours":"Apr 01-Sep 30","operator":"Friedenhain-See Freizeitanlagen GmbH, G. & Chr. Pfeilschifter, Industriestraße 3, 94365 Parkstetten","power_supply":"yes","source":"Bing","tents":"no","washing_machine":"yes","website":"https://www.friedenhainsee.de/"}},"308559824":{"location":[49.0904754,12.6052279],"ct":"DE","tp":"CS","ts":"2023-12-05T07:39:37Z","tX":547,"tY":351,"tags":{"name":"Naturcamping Wullendorf","website":"http://berghuette-binder.de/"}},"1940392987":{"location":[49.1399523,12.3789384],"ct":"DE","tp":"CR","ts":"2016-03-26T09:53:30Z","tX":547,"tY":351,"tags":{"capacity":"20","fee":"yes","name":"Reisemobilstellplatz Landgasthof Lindenhof","power_supply":"yes"}},"9908129949":{"location":[49.0053254,12.3157523],"ct":"DE","tp":"CS","ts":"2022-07-24T19:33:15Z","tX":547,"tY":351,"tags":{"access":"yes","addr:city":"Auburg","addr:housenumber":"9","addr:postcode":"93092","addr:street":"Burgstraße","backcountry":"yes","capacity:caravans":"1","capacity:persons":"4","name":"Burgstall Auburg","operator":"Robert Gerl"}}}