{"77411771":{"location":[48.6713543,12.5762853],"ct":"DE","tp":"CS","ts":"2023-04-13T19:24:57Z","tX":547,"tY":353,"tags":{"addr:city":"Mamming","addr:country":"DE","addr:housenumber":"2","addr:postcode":"94437","addr:street":"Tödinger Straße","caravans":"yes","email":"Heinrich.Goebl@T-online.de","fax":"+49 9955 1296","name":"Campingplatz am Mossandlweiher","opening_hours":"Apr 01-Oct 15","phone":"+49 9955 1062","power_supply":"yes","tents":"yes","website":"https://campingplatz-am-mossandlweiher.business.site"}},"84504521":{"location":[48.6282638,12.50369],"ct":"DE","tp":"CR","ts":"2025-01-01T21:49:25Z","tX":547,"tY":353,"tags":{"bbq":"no","camping_behaviour":"no","capacity":"12","caravan_site":"motorhome_stopover","caravan_site:type":"swimming_pool","caravans":"no","description":"buy token at Caprima swimming pool","fee":"no","maxstay":"3 days","name":"Wohnmobilstellplatz Caprima Freizeitbad - Dingolfing","opening_hours":"Oct off","power_supply":"yes","power_supply:charge":"1 EUR/12 hours","reservation":"no","sanitary_dump_station:grey_water":"yes","seasonal":"no","tents":"no","trailer":"no","water_point":"yes","water_point:charge":"1 EUR/80 liter","website":"https://www.klimaschutz-dingolfing.de/Wohnmobilstellplatz.n99.html"}},"119387253":{"location":[48.5702043,12.5733226],"ct":"DE","tp":"CS","ts":"2022-06-22T10:06:01Z","tX":547,"tY":353,"tags":{"addr:city":"Marklkofen","addr:country":"DE","addr:housenumber":"55","addr:postcode":"84163","addr:street":"Milchstraße","addr:suburb":"Steinberg","caravans":"yes","email":"info@vilstalseecamping.de","fee":"yes","name":"Vilstalsee Camping","operator":"Familie Schweiger","phone":"+49 8734 932346","power_supply":"yes","tents":"yes","website":"https://www.vilstalseecamping.de/"}},"889328504":{"location":[48.6570665,12.610648],"ct":"DE","tp":"CS","ts":"2020-04-11T21:18:27Z","tX":547,"tY":353,"tags":{"capacity":"70","caravans":"no","name":"Jugendzeltplatz Mamming","operator":"Kreisjugendring Dingolfing-Landau","tents":"yes","website":"https://www.jugendzeltplatz-mamming.de/"}},"1160888126":{"location":[48.6325231,12.5096935],"ct":"DE","tp":"CR","ts":"2025-01-01T21:49:25Z","tX":547,"tY":353,"tags":{"capacity":"6","caravan_site":"motorhome_stopover","caravan_site:type":"fairground","caravans":"no","fee":"no","maxstay":"3 days","name":"Wohnmobil­stellplatz an der Zirkuswiese - Dingolfing","power_supply":"yes","power_supply:fee":"yes","sanitary_dump_station":"yes","water_point":"yes","water_point:fee":"yes","website":"https://tourismus-dingolfing.de/gastgeber/wohnmobilstellplatz-am-freizeitbad-caprima-2/"}},"10809046891":{"location":[48.6731735,12.576588],"ct":"DE","tp":"CS","ts":"2023-04-13T18:51:53Z","tX":547,"tY":353,"tags":{}},"4321339532":{"location":[48.5317094,12.6369837],"ct":"DE","tp":"CR","ts":"2023-08-11T19:15:22Z","tX":547,"tY":353,"tags":{"fee":"no","name":"Parkplatz Bayernpark für Besucher","operator":"Bayernpark","sanitary_dump_station":"no","tents":"yes","toilets":"no"}},"10797288769":{"location":[48.6323289,12.5096251],"ct":"DE","tp":"SD","ts":"2023-04-09T16:59:21Z","tX":547,"tY":353,"tags":{"access":"yes","fee":"yes","operator":"Stadt Dingolfing","water_point":"yes"}}}