{"2254916":{"location":[47.8170946,12.364203],"ct":"DE","tp":"CS","ts":"2023-11-02T21:00:14Z","tX":547,"tY":356,"tags":{"landuse":"recreation_ground","name":"Campingplatz Mariengrund","phone":"+49 8051 7894","website":"https://www.campingplatz-mariengrund.de/"}},"17437573":{"location":[47.8786288,12.529994],"ct":"DE","tp":"CS","ts":"2024-04-06T21:47:05Z","tX":547,"tY":356,"tags":{"addr:city":"Grabenstätt","addr:country":"DE","addr:housenumber":"1","addr:postcode":"83355","addr:street":"Am Chiemsee","caravans":"yes","dog":"no","email":"info@chiemsee-strandcamping.de","fee":"yes","internet_access":"wlan","name":"Chiemsee Strandcamping","opening_hours":"Apr 1-Sep 30","phone":"+49 8664 500","power_supply":"yes","source":"Bing;local knowledge","tents":"yes","website":"https://chiemsee-strandcamping.de"}},"26420430":{"location":[47.8410612,12.471149],"ct":"DE","tp":"CS","ts":"2019-04-28T21:00:33Z","tX":547,"tY":356,"tags":{"addr:city":"Übersee","addr:country":"DE","addr:housenumber":"1","addr:postcode":"83236","addr:street":"Rödlgries","addr:suburb":"Feldwies","caravans":"yes","dog":"no","email":"info@chiemsee-camping.de","fax":"+49 8642 1636","name":"Chiemsee Camping Rödlgries","opening_hours":"Apr 1-Oct 31","phone":"+49 8642 470","power_supply":"yes","source":"website","tents":"yes","website":"https://www.chiemsee-camping.de/"}},"36326639":{"location":[47.8123657,12.588581],"ct":"DE","tp":"CS","ts":"2023-11-02T21:01:05Z","tX":547,"tY":356,"tags":{"addr:city":"Bergen","addr:country":"DE","addr:housenumber":"11","addr:postcode":"83346","addr:street":"Campingstraße","caravans":"yes","dog":"yes","email":"info@camping-bergen.de","fax":"+49 8662 5924","name":"Campingplatz Wagnerhof","phone":"+49 8662 8557","power_supply":"yes","source":"Bing","tents":"yes","website":"https://www.camping-bergen.de/"}},"38655948":{"location":[47.9022659,12.5202003],"ct":"DE","tp":"CS","ts":"2020-08-04T21:07:29Z","tX":547,"tY":356,"tags":{"addr:city":"Chieming","addr:country":"DE","addr:housenumber":"1","addr:postcode":"83339","addr:street":"Beim Seehäusl","caravans":"yes","email":"info@camping-seehaeusl.de","fax":"+49 8664 1887","fee":"yes","internet_access":"wlan","name":"Camping Seehäusl","payment:cash":"yes","phone":"+49 8664 303","power_supply":"yes","source":"website","tents":"yes","website":"https://www.camping-seehaeusl.de/"}},"38656065":{"location":[47.9279613,12.451155],"ct":"DE","tp":"CS","ts":"2022-01-31T13:02:28Z","tX":547,"tY":356,"tags":{"addr:city":"Seeon-Seebruck","addr:country":"DE","addr:housenumber":"3","addr:postcode":"83358","addr:street":"Lambach","addr:suburb":"Seebruck","capacity:caravans":"60","caravans":"yes","email":"mail@camping-am-chiemsee.de","fax":"+49 8667 809610","internet_access":"yes","name":"Chiemgau Camping Lambach","opening_hours":"Apr 1-Sep 30","phone":"+49 8667 7889","power_supply":"yes","source":"extrapolation;website","tents":"yes","website":"http://www.chiemgau-camping.de"}},"38656083":{"location":[47.8402005,12.3740684],"ct":"DE","tp":"CS","ts":"2024-05-12T17:25:33Z","tX":547,"tY":356,"tags":{"addr:city":"Prien am Chiemsee","addr:country":"DE","addr:housenumber":"135","addr:postcode":"83209","addr:street":"Harrasser Straße","caravans":"yes","dog":"yes","drinking_water":"yes","email":"info@camping-harras.de","fax":"+49 8051 904616","internet_access":"no","name":"Panorama Camping Harras","phone":"+49 8051 904613","power_supply":"yes","sanitary_dump_station":"yes","shower":"yes","source":"extrapolation","tents":"yes","toilets":"yes","website":"https://www.camping-harras.de/","wheelchair":"yes"}},"38677872":{"location":[47.929942,12.4932541],"ct":"DE","tp":"CS","ts":"2022-05-15T06:58:46Z","tX":547,"tY":356,"tags":{"addr:city":"Chieming","addr:country":"DE","addr:housenumber":"4","addr:postcode":"83339","addr:street":"Trostberger Straße","addr:suburb":"Arlaching","capacity:caravans":"70","caravans":"yes","email":"info@campingkupferschmiede.de","fax":"+49 8667 16198","internet_access":"wlan","name":"Campingplatz Kupferschmiede","phone":"+49 8667 1266","power_supply":"yes","source":"website","tents":"yes","website":"http://www.camping-kupferschmiede.de/"}},"38678694":{"location":[47.8383556,12.350335],"ct":"DE","tp":"CS","ts":"2023-09-24T08:18:34Z","tX":547,"tY":356,"tags":{"addr:city":"Prien am Chiemsee","addr:country":"DE","addr:housenumber":"110","addr:postcode":"83209","addr:street":"Bernauer Straße","caravans":"yes","contact:email":"ferienhaus-campingpl.hofbauer@t-online.de","contact:fax":"+49 8051 62657","contact:phone":"+49 8051 4136","contact:website":"https://www.camping-prien-chiemsee.de/","name":"Campingplatz Hofbauer","sanitary_dump_station":"yes","source":"extrapolation","tents":"yes","wheelchair":"yes"}},"42288417":{"location":[47.854117,12.3673533],"ct":"DE","tp":"PK","ts":"2024-09-08T10:13:02Z","tX":547,"tY":356,"tags":{"access":"yes","capacity":"70+26","capacity:disabled":"0","charge":"5 EUR/motorcar; 14 EUR/motorhome","cost":"4€ per day","covered":"no","fee":"yes","motorhome":"yes","name":"Am Schraml","note":"4,00€/Tag für Badegäste Begrenzte Anzahl von Campingmobilen (12€) erlaubt","parking":"surface","payment:cash":"yes","surface":"gravel"}},"108200502":{"location":[47.8332995,12.6531219],"ct":"DE","tp":"CS","ts":"2019-03-11T23:37:03Z","tX":547,"tY":356,"tags":{"addr:city":"Siegsdorf","addr:country":"DE","addr:housenumber":"4","addr:postcode":"83313","addr:street":"Hochberg Aigen","caravans":"yes","email":"info@alpencamp-siegsdorf.de","name":"Alpencamp Siegsdorf","phone":"+49 8662 2576","power_supply":"yes","source":"Bing","tents":"yes","website":"https://www.alpencamp-siegsdorf.de/"}},"354198284":{"location":[47.8125246,12.4883681],"ct":"DE","tp":"CR","ts":"2015-06-16T22:05:22Z","tX":547,"tY":356,"tags":{"capacity":"20","fee":"yes","name":"Wohnmobilstellplatz Bauernhof Schmid"}},"354201873":{"location":[47.8094217,12.4923288],"ct":"DE","tp":"CR","ts":"2023-07-11T14:40:08Z","tX":547,"tY":356,"tags":{"capacity":"23","fee":"yes","name":"Wohnmobilstellplatz Steiner","power_supply":"yes","sanitary_dump_station":"customers","toilets":"yes"}},"357336122":{"location":[47.8865457,12.5395052],"ct":"DE","tp":"CS","ts":"2022-02-05T07:56:17Z","tX":547,"tY":356,"tags":{"addr:city":"Chieming","addr:housenumber":"3","addr:postcode":"83339","addr:street":"Oberhochstätter Straße","capacity":"100","caravans":"no","group_only":"yes","name":"Jugendzeltplatz Chieming","operator":"Johann Wiesholler Oberhochstätter Str. 3 83339 Chieming","tents":"yes","website":"http://www.jugendzeltplatz-chieming.de/"}},"554228146":{"location":[47.8309522,12.3856636],"ct":"DE","tp":"CR","ts":"2023-06-08T06:51:51Z","tX":547,"tY":356,"tags":{"capacity":"50","fee":"yes","name":"Wohnmobil Hafen Bernau-Felden","note":"Gebühr 15-19€ Saisonabhängig  +Kurtaxe. Details Homepage.","power_supply":"yes","sanitary_dump_station":"yes","website":"https://wohnmobilhafen-am-chiemsee.de/"}},"820210971":{"location":[47.8096737,12.3822383],"ct":"DE","tp":"CR","ts":"2022-01-11T07:00:20Z","tX":547,"tY":356,"tags":{"surface":"fine_gravel"}},"949036985":{"location":[47.899595,12.361545],"ct":"DE","tp":"CR","ts":"2021-05-31T11:23:12Z","tX":547,"tY":356,"tags":{}},"966254113":{"location":[47.8537567,12.3409787],"ct":"DE","tp":"CR","ts":"2024-08-20T13:10:30Z","tX":547,"tY":356,"tags":{"addr:city":"Prien am Chiemsee","addr:postcode":"83209","addr:street":"Beilhackstraße","capacity:caravans":"7","contact:website":"https://www.tourismus.prien.de/camping-am-chiemsee","drinking_water":"yes","fee":"yes","internet_access":"no","name":"Kurpark","power_supply":"yes","sanitary_dump_station":"yes","toilets":"no","wheelchair":"yes"}},"1172258131":{"location":[47.7842706,12.3329016],"ct":"DE","tp":"CR","ts":"2023-07-27T10:53:26Z","tX":547,"tY":356,"tags":{"addr:city":"Aschau im Chiemgau","addr:housenumber":"1","addr:postcode":"83229","addr:street":"Bernauer Straße","capacity":"48","contact:phone":"+49 8052 2440","description":"footprint refined from gps survey.","fee":"yes","internet_access":"yes","name":"Wohnmobil-Stellplatz Alpen Camping","object:city":"Aschau im Chiemgau","object:housenumber":"44","object:postcode":"83229","object:street":"Bernauer Straße","operator":"Gastronomiebetriebe Kampenwand GmbH, Bernauer Straße 1, 83229 Aschau im Chiemgau","power_supply":"yes","sanitary_dump_station":"yes","shower":"yes","source":"local knowledge;survey;aerial imagery","start_date":"2023-05-13","surface":"gravel","toilets":"yes","water_point":"yes","website":"https://www.alpen-camping.de/","wheelchair":"yes"}},"1728787166":{"location":[47.8542756,12.3676634],"ct":"DE","tp":"CR","ts":"2024-09-08T10:20:13Z","tX":547,"tY":356,"tags":{"fee":"yes","internet_access":"no","maxheight":"2,20","name":"Schraml","opening_hours":"18:00-06:00","power_supply":"no"}},"3478247393":{"location":[47.7984082,12.5904337],"ct":"DE","tp":"CR","ts":"2024-04-05T00:36:21Z","tX":547,"tY":356,"tags":{"capacity":"10","caravan_site":"motorhome_stopover","caravan_site:type":"village","fee":"yes","name":"Wohnmobilstellplatz Bergen (Chiemgau)"}},"4284531271":{"location":[47.831313,12.3855847],"ct":"DE","tp":"SD","ts":"2016-07-05T16:25:20Z","tX":547,"tY":356,"tags":{}},"7747350422":{"location":[47.8844121,12.4195914],"ct":"DE","tp":"CS","ts":"2020-07-25T19:57:51Z","tX":547,"tY":356,"tags":{}},"11718432582":{"location":[47.7959449,12.6413453],"ct":"DE","tp":"CS","ts":"2024-04-21T11:26:07Z","tX":547,"tY":356,"tags":{"access":"private","addr:city":"Siegsdorf","addr:housenumber":"9","addr:postcode":"83313","addr:street":"Bergstraße","capacity:caravans":"3","caravans":"yes","fee":"yes","internet_access":"yes","internet_access:fee":"no","name":"Trauntal Camping","operator":"Leonie Göllner","payment:cards":"yes","payment:cash":"yes","payment:paypal":"yes","power_supply":"yes","sanitary_dump_station":"no","static_caravans":"no","tents":"no"}},"9927375273":{"location":[47.7672382,12.4592313],"ct":"DE","tp":"CR","ts":"2022-08-02T16:17:29Z","tX":547,"tY":356,"tags":{"name":"Weßner Hof"}},"6617756653":{"location":[47.8379282,12.351425],"ct":"DE","tp":"SD","ts":"2019-07-15T21:23:32Z","tX":547,"tY":356,"tags":{}},"7658878250":{"location":[47.8096943,12.3818062],"ct":"DE","tp":"SD","ts":"2022-01-11T07:00:20Z","tX":547,"tY":356,"tags":{}},"10922113107":{"location":[47.7936065,12.4854259],"ct":"DE","tp":"SD","ts":"2024-04-06T18:40:32Z","tX":547,"tY":356,"tags":{"sanitary_dump_station:chemical_toilet":"yes","sanitary_dump_station:fee":"no","sanitary_dump_station:gravity":"yes","sanitary_dump_station:grey_water":"yes","sanitary_dump_station:suction":"no"}}}