{"38956571":{"location":[47.734884,12.4155244],"ct":"DE","tp":"CS","ts":"2024-06-26T08:22:50Z","tX":547,"tY":357,"tags":{"addr:country":"DE","addr:housenumber":"3","addr:postcode":"83259","addr:street":"Zellerseeweg","caravans":"yes","dog":"no","drinking_water":"yes","email":"info@camping-zellersee.de","fax":"+49 8649 986576","name":"Campingplatz Zellersee","phone":"+49 8649 986719","power_supply":"yes","shower":"yes","source":"website","tents":"yes","toilets":"yes","website":"https://www.camping-zellersee.de/"}},"39001377":{"location":[47.6538621,12.4147291],"ct":"AT","tp":"CS","ts":"2022-09-30T12:06:10Z","tX":547,"tY":357,"tags":{"addr:city":"Kössen","addr:country":"AT","addr:housenumber":"18","addr:postcode":"6345","addr:street":"Kranebittau","cabins":"yes","caravans":"yes","email":"eurocamp@eurocamp-koessen.com","fax":"+43 5375 2113","fee":"yes","internet_access":"wlan","internet_access:fee":"yes","name":"Euro-Camp Wilder Kaiser","operator":"Euro-Camp Gesellschaft m.b.H. & Co. KG.","permanent_camping":"yes","phone":"+43 5375 6444","power_supply":"yes","sanitary_dump_station":"customers","shower":"yes","source":"website","static_caravans":"yes","tents":"yes","toilets":"yes","website":"https://www.eurocamp-koessen.com/","wheelchair":"yes"}},"100784522":{"location":[47.5844756,12.5842362],"ct":"AT","tp":"CS","ts":"2022-09-30T14:19:16Z","tX":547,"tY":357,"tags":{"addr:city":"Waidring","addr:housenumber":"43","addr:postcode":"6384","addr:street":"Unterwasser","caravans":"yes","email":"camping-steinplatte@aon.at","fax":"+43 5353 5406","fee":"yes","internet_access":"yes","internet_access:fee":"yes","name":"Camping Steinplatte","operator":"Camping Steinplatte GmbH","phone":"+43 5353 5345","shower":"yes","tents":"yes","toilets":"yes","website":"https://www.camping-steinplatte.at/"}},"109376908":{"location":[47.6477418,12.3389406],"ct":"AT","tp":"CS","ts":"2023-11-07T16:35:40Z","tX":547,"tY":357,"tags":{"addr:city":"Kössen","addr:country":"AT","addr:housenumber":"3","addr:postcode":"6345","addr:street":"Am See","camp_site":"reception","caravans":"yes","email":"info@camping-seemuehle.at","fee":"yes","name":"Camping Seemühle","permanent_camping":"yes","phone":"+43 5374 5458","shower":"yes","tents":"yes","toilets":"yes","website":"https://camping-seemuehle.at/"}},"144474034":{"location":[47.7168933,12.4790697],"ct":"DE","tp":"CS","ts":"2024-05-10T14:51:07Z","tX":547,"tY":357,"tags":{"cabins":"yes","caravans":"yes","dog":"yes","email":"info@camping-litzelau.de","fax":"+49 8640 5265","landuse":"recreation_ground","name":"Campingplatz Litzelau","phone":"+49 8640 8704","power_supply":"yes","source":"website","tents":"yes","website":"https://www.camping-litzelau.de/","wheelchair":"yes"}},"150446319":{"location":[47.6481032,12.3153819],"ct":"AT","tp":"CS","ts":"2024-07-30T12:08:11Z","tX":547,"tY":357,"tags":{"access":"customers","addr:city":"Walchsee","addr:housenumber":"1","addr:postcode":"6344","addr:street":"Seespitz","caravans":"yes","drinking_water":"yes","email":"info@camping-seespitz.at","fee":"yes","internet_access":"wlan","name":"Camping Seespitz","payment:cash":"yes","payment:credit_cards":"yes","payment:debit_cards":"yes","phone":"+43 5374 5359; +43 676 7876130","power_supply":"yes","sanitary_dump_station":"yes","shower":"yes","source":"geoimage.at MaxRes","static_caravans":"yes","tents":"yes","toilets":"yes","website":"https://www.camping-seespitz.at/"}},"190426481":{"location":[47.6594507,12.5422071],"ct":"DE","tp":"CR","ts":"2024-06-13T00:07:07Z","tX":547,"tY":357,"tags":{"access":"private","addr:city":"Reit im Winkl","addr:country":"DE","addr:housenumber":"7","addr:postcode":"83242","addr:street":"Seegatterl","contact:website":"https://www.wohnmobilpark-reitimwinkl.com/","description":"Nur für Dauercamper. Im Winter teilweise als Skifahrerparkplatz P2 für 700 PKWs genutzt","fee":"yes","name":"Wohnmobilpark Seegatterl","permanent_camping":"only","power_supply":"yes","sanitary_dump_station":"yes","source":"website","water_point":"yes"}},"448927735":{"location":[47.6700408,12.4831761],"ct":"DE","tp":"CR","ts":"2024-05-18T19:11:38Z","tX":547,"tY":357,"tags":{"addr:city":"Reit im Winkl","addr:housenumber":"7","addr:postcode":"83242","addr:street":"Am Waldbahnhof","capacity":"250","contact:mobile":"+49 160 90737578","fee":"yes","internet_access":"wlan","name":"Wohnmobil Park Reit im Winkl","operator":"Frank & Kerstin Münster","power_supply":"yes","sanitary_dump_station":"yes","surface":"ground","water_point":"yes","website":"https://www.wohnmobilpark-reitimwinkl.com/"}},"549172805":{"location":[47.7183388,12.3947288],"ct":"DE","tp":"CR","ts":"2025-06-15T21:33:12Z","tX":547,"tY":357,"tags":{"access":"yes","addr:city":"Schleching","addr:postcode":"83259","addr:street":"Hauptstraße","capacity":"8","fee":"yes","name":"WoMo Stellplatz Schleching","parking":"surface","power_supply":"yes","ref":"2","sanitary_dump_station":"yes"}},"673395418":{"location":[47.6377117,12.3244759],"ct":"AT","tp":"CS","ts":"2023-08-29T15:32:06Z","tX":547,"tY":357,"tags":{"access":"customers","addr:city":"Walchsee","addr:country":"AT","addr:housenumber":"76","addr:postcode":"6344","addr:street":"Seestraße","caravans":"yes","email":"info@terrassencamping.at","fee":"yes","internet_access":"wlan","name":"Ferienpark Terrassencamping Süd-See","permanent_camping":"yes","phone":"+43 5374 5339","shower":"yes","source":"website","static_caravans":"yes","tents":"yes","toilets":"yes","website":"http://www.camp-sud-see.com/"}},"1169655111":{"location":[47.6492677,12.3140714],"ct":"AT","tp":"CS","ts":"2024-08-19T14:57:48Z","tX":547,"tY":357,"tags":{"caravans":"yes","drinking_water":"yes","name":"Seespitz","power_supply":"yes","sanitary_dump_station":"yes","shower":"yes","tents":"yes","toilets":"yes"}},"1395601411":{"location":[47.7181351,12.3953759],"ct":"DE","tp":"CR","ts":"2025-06-15T21:33:12Z","tX":547,"tY":357,"tags":{}},"3702763119":{"location":[47.6536284,12.4137943],"ct":"AT","tp":"SD","ts":"2015-08-18T12:13:46Z","tX":547,"tY":357,"tags":{"access":"customers","sanitary_dump_station:basin":"yes"}},"3702798180":{"location":[47.654316,12.4156508],"ct":"AT","tp":"SD","ts":"2015-08-18T12:13:48Z","tX":547,"tY":357,"tags":{"access":"customers","sanitary_dump_station:basin":"yes"}},"4455273915":{"location":[47.6697715,12.4817435],"ct":"DE","tp":"SD","ts":"2016-11-26T21:02:29Z","tX":547,"tY":357,"tags":{"description":"Chemie Entsorgung","fee":"no","sanitary_dump_station:chemical_toilet":"yes"}},"4455288589":{"location":[47.6698687,12.481728],"ct":"DE","tp":"SD","ts":"2018-01-21T14:20:22Z","tX":547,"tY":357,"tags":{"description":"Abwasser Entsorgung","fee":"no","sanitary_dump_station:grey_water":"yes"}},"4455307112":{"location":[47.6703668,12.4857803],"ct":"DE","tp":"SD","ts":"2016-10-19T16:56:11Z","tX":547,"tY":357,"tags":{"name":"Chemie Toiletten Entsorgung"}},"4455310390":{"location":[47.6702656,12.485724],"ct":"DE","tp":"SD","ts":"2016-10-19T16:58:54Z","tX":547,"tY":357,"tags":{"name":"Duschen Toiletten","water_point":"yes"}},"12918228542":{"location":[47.7182111,12.3944831],"ct":"DE","tp":"SD","ts":"2025-06-15T21:42:41Z","tX":547,"tY":357,"tags":{}}}