{"126300669":{"location":[47.4681608,12.5544223],"ct":"AT","tp":"CS","ts":"2024-01-10T07:40:28Z","tX":547,"tY":358,"tags":{"addr:city":"Fieberbrunn","addr:country":"AT","addr:housenumber":"20","addr:postcode":"6391","addr:street":"Lindau","caravans":"yes","email":"office@tirol-camp.at","fee":"yes","internet_access":"wlan","name":"Tirol Camp","phone":"+43 5354 56666 0","shower":"yes","stars":"4","tents":"yes","toilets":"yes","website":"https://www.tirol-camp.at"}},"478796518":{"location":[47.4872657,12.6112174],"ct":"AT","tp":"CS","ts":"2022-09-30T14:25:07Z","tX":547,"tY":358,"tags":{"addr:city":"Hochfilzen","addr:country":"AT","addr:housenumber":"3","addr:postcode":"6395","addr:street":"Unterwarming","capacity":"36","caravans":"yes","email":"office@maurerhaeusl.com","fee":"yes","name":"Camping Maurerhäusl","operator":"Michael Bauer","phone":"+43 664 20 69 202","shower":"yes","tents":"yes","toilets":"yes","website":"https://www.maurerhaeusl.com/"}},"1001105119":{"location":[47.4599913,12.3620904],"ct":"AT","tp":"CS","ts":"2023-11-04T20:16:12Z","tX":547,"tY":358,"tags":{"addr:city":"Kitzbühel","addr:housenumber":"24","addr:postcode":"6370","addr:street":"Reither Straße","alt_name":"Campingplatz & Hotel Bruggerhof","caravans":"yes","email":"office@bruggerhof-camping.at","fax":"+43 5356 6447930","fee":"yes","name":"Bruggerhof","phone":"+43 5356 62806","shower":"yes","tents":"yes","toilets":"yes","website":"https://www.bruggerhof-camping.at/"}},"1001105181":{"location":[47.511076,12.4090186],"ct":"AT","tp":"CS","ts":"2022-09-30T12:09:50Z","tX":547,"tY":358,"tags":{"addr:city":"St. Johann in Tirol","addr:country":"AT","addr:housenumber":"6","addr:postcode":"6380","addr:street":"Weiberndorf","caravans":"yes","email":"camping@michelnhof.at","fee":"yes","name":"Michelnhof","operator":"Fam Leitner","phone":"+43 5352 62584","shower":"yes","source":"Lokalerhebung 2012-2019","tents":"yes","toilets":"yes","website":"https://www.camping-michelnhof.at/"}}}