{"110689069":{"location":[45.9565998,12.4967617],"ct":"IT","tp":"CR","ts":"2025-03-26T19:55:19Z","tX":547,"tY":364,"tags":{"addr:street":"Viale Repubblica","fee":"yes","name":"Area camper comunale","water_point":"yes"}},"142017751":{"location":[46.0648446,12.3300466],"ct":"IT","tp":"CS","ts":"2011-12-19T16:30:03Z","tX":547,"tY":364,"tags":{}},"172707821":{"location":[46.0536869,12.546478],"ct":"IT","tp":"CS","ts":"2024-09-24T18:14:48Z","tX":547,"tY":364,"tags":{"addr:street":"Via Pedemontana Occidentale","caravans":"yes","email":"info@agriturismoalranch.it","fee":"yes","motorhome":"yes","name":"Agriturismo al Ranch","operator":"Piancavallo sac","phone":"+39 0434 653047","power_supply":"yes","sanitary_dump_station":"yes","tents":"yes","toilets":"yes","website":"http://www.agriturismoalranch.it/"}},"227225627":{"location":[46.06724,12.4028247],"ct":"IT","tp":"CR","ts":"2025-05-26T18:59:43Z","tX":547,"tY":364,"tags":{"capacity":"30","fee":"yes","name":"Area Sosta Pian Cansiglio","operator":"Veneto Agricoltura","parking":"surface","payment:cash":"no","payment:credit_cards":"yes","payment:debit_cards":"yes","phone":"+39 0438 581757;+39 366 5013205","power_supply":"yes","power_supply:fee":"yes","sanitary_dump_station":"yes","socket:cee_blue":"yes"}},"739456485":{"location":[45.9722653,12.6433658],"ct":"IT","tp":"CR","ts":"2024-09-24T17:58:27Z","tX":547,"tY":364,"tags":{"addr:city":"Pordenone","addr:postcode":"33170","addr:street":"Viale Venezia","fee":"no","power_supply":"no"}},"3727911853":{"location":[45.9802635,12.3144417],"ct":"IT","tp":"SD","ts":"2021-10-06T16:40:20Z","tX":547,"tY":364,"tags":{"access":"yes","addr:city":"Vittorio Veneto","addr:housenumber":"12","addr:postcode":"31029","addr:street":"Viale del Cansiglio","fee":"no","name":"Camper service - Vittorio Veneto","note":"Gratuito","operator":"Amministrazione comunale","sanitary_dump_station:chemical_toilet":"yes","sanitary_dump_station:grey_water":"yes","water_point":"yes"}},"12026582282":{"location":[45.972098,12.6434895],"ct":"IT","tp":"SD","ts":"2024-09-24T17:58:27Z","tX":547,"tY":364,"tags":{"fee":"no"}},"12197517327":{"location":[45.9566081,12.4969675],"ct":"IT","tp":"SD","ts":"2024-09-24T18:02:27Z","tX":547,"tY":364,"tags":{"water_point":"yes"}}}