{"2057707":{"location":[45.4648741,12.5268568],"ct":"IT","tp":"CS","ts":"2025-03-26T23:04:39Z","tX":547,"tY":366,"tags":{"addr:city":"Cavallino-Treporti","addr:housenumber":"258","addr:postcode":"30013","addr:street":"Via Fausta","caravans":"yes","contact:instagram":"https://www.instagram.com/unionlido_camping/","dog":"yes","drinking_water":"yes","motorhome":"yes","name":"Camping Union Lido","power_supply":"yes","power_supply:maxcurrent":"10;16","shower":"yes","socket:cee_blue":"yes","tents":"yes","toilets":"yes","toilets:wheelchair":"yes","website":"https://mare.unionlido.com/","wheelchair":"yes","wheelchair:description":"Hat völlig barrierefreie Mobilheime"}},"12872253":{"location":[45.4801185,12.579281],"ct":"IT","tp":"CS","ts":"2024-09-29T14:34:25Z","tX":547,"tY":366,"tags":{"addr:city":"Cavallino-Treporti","addr:housenumber":"10","addr:postcode":"30013","addr:street":"Via del Faro","caravans":"yes","dog":"yes","internet_access":"yes","motorhome":"yes","name":"Camping San Marco","power_supply":"yes","power_supply:maxcurrent":"6.3;8","shower":"yes","socket:cee_blue":"yes","tents":"yes","website":"https://www.campingsanmarco.it/"}},"12872254":{"location":[45.4797643,12.5814806],"ct":"IT","tp":"CS","ts":"2024-09-29T14:34:25Z","tX":547,"tY":366,"tags":{"caravans":"yes","dog":"yes","fee":"yes","motorhome":"yes","name":"Villa al Mare","phone":"+39041968066","power_supply:maxcurrent":"6","socket:cee_blue":"yes","stars":"3","tents":"yes","washing_machine":"yes","website":"https://www.villaalmare.com/"}},"15003005":{"location":[45.4786906,12.5668947],"ct":"IT","tp":"CS","ts":"2024-09-29T14:47:10Z","tX":547,"tY":366,"tags":{"addr:housenumber":"18","addr:street":"Via del Granatiere","caravans":"yes","email":"info@campingklaus.it","fee":"yes","motorhome":"yes","name":"Camping Klaus","phone":"+ 39 041 968566","power_supply":"yes","power_supply:maxcurrent":"16","socket:cee_blue":"yes","stars":"3","tents":"yes","website":"https://www.campingklaus.it/"}},"35099860":{"location":[45.477017,12.5644594],"ct":"IT","tp":"CS","ts":"2025-03-26T22:57:21Z","tX":547,"tY":366,"tags":{"addr:city":"Cavallino-Treporti","addr:housenumber":"55","addr:postcode":"30013","addr:street":"Via Francesco Baracca","caravans":"yes","contact:instagram":"https://www.instagram.com/campingardenparadiso/","drinking_water":"yes","ele":"1","name":"Camping Garden Paradiso","note":"Camping Garden Paradiso **** - Cavallino - Venezia - Immerso nel parco della laguna veneta","operator":"Camping Garden Paradiso ****","phone":"+39 041 968075","power_supply":"yes","sanitary_dump_station":"yes","shower":"yes","source":"Garden Paradiso - Direction","stars":"5","tents":"yes","toilets":"yes","website":"https://www.gardenparadiso.it/","wheelchair":"yes"}},"36738634":{"location":[45.4365574,12.4350577],"ct":"IT","tp":"CS","ts":"2017-09-17T19:26:46Z","tX":547,"tY":366,"tags":{"access":"private","description":"not public, just for Camping Marina staff","name":"Sonia"}},"56017211":{"location":[45.4539447,12.4920941],"ct":"IT","tp":"CS","ts":"2025-03-28T23:27:09Z","tX":547,"tY":366,"tags":{"barrier":"fence","capacity:caravans":"164","caravans":"yes","contact:instagram":"https://www.instagram.com/ca_pasquali/","drinking_water":"yes","fee":"yes","name":"Ca' Pasquali","phone":"+39041966110","power_supply":"yes","shower":"yes","socket:cee_blue":"yes","stars":"5","tents":"yes","toilets":"yes","website":"https://www.capasquali.it"}},"58069338":{"location":[45.4403567,12.4225772],"ct":"IT","tp":"CS","ts":"2024-09-26T08:29:08Z","tX":547,"tY":366,"tags":{"addr:city":"Cavallino","addr:hamlet":"Punta Sabbioni","addr:housenumber":"29","addr:postcode":"30013","addr:street":"Lungomare Dante Alighieri","cabins":"yes","caravans":"yes","dog":"yes","email":"info@miramarevenezia.it","fee":"yes","internet_access":"wlan","internet_access:fee":"yes","motorhome":"yes","name":"Miramare","phone":"+39 041 966150","power_supply:maxcurrent":"6;10","reservation":"yes","sanitary_dump_station":"yes","socket:cee_blue":"yes","stars":"3","tents":"yes","website":"https://www.miramarevenezia.it"}},"58998833":{"location":[45.4558855,12.5007264],"ct":"IT","tp":"CS","ts":"2025-03-28T23:20:09Z","tX":547,"tY":366,"tags":{"addr:housenumber":"164","addr:street":"Via delle Batterie","caravans":"yes","contact:instagram":"https://www.instagram.com/campingvillagecavallino/","dog":"yes","drinking_water":"yes","name":"Camping Village Cavallino","phone":"+390365520682","power_supply":"yes","power_supply:maxcurrent":"16","shower":"yes","socket:cee_blue":"yes","tents":"yes","toilets":"yes","website":"https://www.campingcavallino.com/"}},"61957011":{"location":[45.4724205,12.5497535],"ct":"IT","tp":"CS","ts":"2025-03-26T23:08:21Z","tX":547,"tY":366,"tags":{"contact:instagram":"https://www.instagram.com/camping_sandaya_europa/","email":"info@campingeuropa.com","internet_access":"wlan","internet_access:fee":"yes","name":"Europa Camping Village","phone":"+39 041 968069","power_supply":"yes","power_supply:maxcurrent":"8;16;20","socket:cee_blue":"yes","stars":"4","website":"https://www.campingeuropa.com/","wheelchair":"limited"}},"68578306":{"location":[45.4571673,12.5056879],"ct":"IT","tp":"CS","ts":"2024-09-28T10:06:45Z","tX":547,"tY":366,"tags":{"addr:housenumber":"10","addr:street":"Via Carlo Radaelli","cabins":"yes","caravans":"yes","dog":"yes","fee":"yes","internet_access":"yes","internet_access:fee":"customers","motorhome":"yes","name":"Vela Blu","power_supply":"yes","power_supply:maxcurrent":"16","socket:cee_blue":"yes","stars":"3","tents":"yes","washing_machine":"yes","website":"https://www.velablu.it/"}},"68819680":{"location":[45.4506456,12.4747847],"ct":"IT","tp":"CS","ts":"2024-09-06T19:56:49Z","tX":547,"tY":366,"tags":{"barrier":"fence","fixme":"suspicious combination of tagging name=Military in combination with tourism=camp_site","name":"Military"}},"68819696":{"location":[45.4525448,12.4790012],"ct":"IT","tp":"CS","ts":"2024-09-27T18:44:32Z","tX":547,"tY":366,"tags":{"addr:housenumber":"24","addr:street":"Via delle Batterie","barrier":"fence","cabins":"yes","caravans":"yes","dog":"yes","fee":"yes","motorhome":"yes","name":"Santin","phone":"+39 041 5300715","socket:cee_blue":"yes","stars":"2","tents":"yes","website":"https://www.campingsantin.it/"}},"68819747":{"location":[45.4511549,12.4780602],"ct":"IT","tp":"CS","ts":"2024-09-26T20:46:48Z","tX":547,"tY":366,"tags":{"access":"customers","addr:city":"Cavallino-Treporti","addr:housenumber":"18","addr:postcode":"30013","addr:street":"via delle Batterie","barrier":"fence","capacity":"1350","description":"Da 1962 ci impegniamo per far vivere ai nostri Ospiti una vacanza confortevole, a contatto con la natura ed in pieno relax. Meta ideale per le famiglie, offriamo ampie e comode piazzole dotate di diversi servizi, delimitate da siepi e ombreggiate da pini","dog":"no","email":"info@alboschetto.it","fax":"+39 041 5301191","internet_access":"wlan","internet_access:fee":"yes","motorhome":"yes","name":"Al Boschetto Camping Village","opening_hours":"Mo-Su 07:00-23:00","operator":"Capitan Jack","phone":"+39 041 966145","power_supply:maxcurrent":"6;10","shower":"yes","socket:cee_blue":"yes","stars":"3","start_date":"1962","website":"https://www.alboschetto.it"}},"74639056":{"location":[45.4668469,12.5343219],"ct":"IT","tp":"CS","ts":"2025-03-02T08:47:41Z","tX":547,"tY":366,"tags":{"addr:street":"Via Fausta","caravans":"yes","drinking_water":"yes","email":"info@campingitaly.it","fee":"yes","motorhome":"yes","name":"Italy Camping Village","phone":"+39 041 968 090","power_supply:maxcurrent":"10;16","shower":"yes","socket:cee_blue":"yes","stars":"4","tents":"yes","toilets":"yes","website":"https://www.campingitaly.it/"}},"75035867":{"location":[45.4699531,12.5457825],"ct":"IT","tp":"CS","ts":"2024-09-28T19:39:58Z","tX":547,"tY":366,"tags":{"addr:housenumber":"318","addr:street":"Via Fausta","caravans":"yes","fee":"yes","name":"Village Camping Joker","phone":"+390415370766","power_supply":"yes","socket:cee_blue":"yes","static_caravans":"yes","tents":"yes","website":"https://www.jokercamping.it/"}},"76703481":{"location":[45.4541978,12.4852812],"ct":"IT","tp":"CS","ts":"2022-07-11T17:30:20Z","tX":547,"tY":366,"tags":{"addr:housenumber":"68","addr:street":"Via delle Batterie","barrier":"fence","cabins":"yes","caravans":"yes","layer":"-1","name":"Darisi","phone":"+39 041 966629","stars":"2","tents":"yes","website":"https://campingdarisi.it"}},"132927525":{"location":[45.4526076,12.4850916],"ct":"IT","tp":"CS","ts":"2025-03-28T23:35:38Z","tX":547,"tY":366,"tags":{"addr:city":"Cavallino-Treporti","addr:housenumber":"38","addr:postcode":"30013","addr:street":"Via delle Batterie","barrier":"fence","caravans":"yes","contact:instagram":"https://www.instagram.com/campingmediterraneo/","dog":"no","fee":"yes","height":"2","internet_access":"wlan","internet_access:fee":"no","layer":"-1","lit":"yes","motorhome":"yes","name":"Mediterraneo","nudism":"no","operator":"S.A.I.T. srl","power_supply":"yes","power_supply:maxcurrent":"10;16","reservation":"recommended","sanitary_dump_station":"customers","socket:cee_blue":"yew","stars":"5","static_caravans":"yes","tents":"yes","website":"https://www.campingmediterraneo.it/"}},"132931983":{"location":[45.4547717,12.4881294],"ct":"IT","tp":"CS","ts":"2024-09-27T20:58:07Z","tX":547,"tY":366,"tags":{"addr:housenumber":"14","addr:street":"Via A. Poerio","barrier":"hedge","caravans":"yes","email":"info@scarpiland.com","fee":"yes","motorhome":"yes","name":"Scarpiland","phone":"+39 041966488","power_supply:maxcurrent":"6","tents":"yes","website":"https://www.scarpiland.com/it/"}},"133349495":{"location":[45.4586279,12.5106062],"ct":"IT","tp":"CS","ts":"2024-09-28T10:06:45Z","tX":547,"tY":366,"tags":{"bbq":"yes","capacity":"500","charge":"10€ / day","dog":"yes","fee":"yes","internet_access":"wlan","name":"Villaggio San Paolo","payment:cash":"yes","payment:credit_cards":"yes","payment:debit_cards":"yes","power_supply":"yes","power_supply:maxcurrent":"16","sanitary_dump_station":"yes","socket:cee_blue":"yes","website":"https://www.villaggiosanpaolo.com/","wheelchair":"yes"}},"176999314":{"location":[45.4365049,12.4409532],"ct":"IT","tp":"CS","ts":"2025-03-28T23:51:50Z","tX":547,"tY":366,"tags":{"addr:city":"Cavallino-Treporti","addr:housenumber":"6","addr:postcode":"30013","addr:street":"Via Montello","cabins":"yes","capacity:caravans":"3000","caravans":"yes","contact:instagram":"https://www.instagram.com/marinadivenezia/","dog":"yes","email":"camping@marinadivenezia.it","fee":"yes","motorhome":"yes","name":"Marina di Venezia","phone":"+39 041 530 2511","power_supply:maxcurrent":"10","reservation":"yes","sanitary_dump_station":"yes","socket:cee_blue":"yes","tents":"yes","website":"https://www.marinadivenezia.it/","wheelchair":"yes"}},"177050303":{"location":[45.4487742,12.4728023],"ct":"IT","tp":"CS","ts":"2025-03-28T23:47:03Z","tX":547,"tY":366,"tags":{"addr:housenumber":"52","addr:street":"Via Vettor Pisani","cabins":"yes","caravans":"yes","contact:instagram":"https://www.instagram.com/deifioricamping","fee":"yes","motorhome":"yes","name":"Dei Fiori","phone":"+39 041 966448","power_supply:maxcurrent":"10","reservation":"yes","socket:cee_blue":"yes","stars":"4","tents":"yes","toilets:wheelchair":"yes","website":"https://www.deifiori.it/","wheelchair":"yes"}},"177900424":{"location":[45.4795359,12.5800927],"ct":"IT","tp":"SD","ts":"2016-08-22T10:53:43Z","tX":547,"tY":366,"tags":{"washing_machine":"yes"}},"177901194":{"location":[45.4792961,12.5750451],"ct":"IT","tp":"CS","ts":"2025-03-25T15:28:10Z","tX":547,"tY":366,"tags":{"addr:city":"Cavallino-Treporti","addr:housenumber":"47","addr:postcode":"30013","addr:street":"Via Francesco Baracca","caravans":"yes","dog":"yes","dryer":"yes","fax":"+39 041 5370340","fee":"yes","motorhome":"yes","name":"Residence Village","phone":"+39 041 968027","power_supply:maxcurrent":"10","quiet_time":"13:00-15:00, 23:00-07:00","socket:cee_blue":"yes","stars":"5","tents":"yes","washing_machine":"yes","website":"https://www.residencevillage.com/"}},"178462423":{"location":[45.482727,12.5876679],"ct":"IT","tp":"CS","ts":"2024-05-22T11:01:16Z","tX":547,"tY":366,"tags":{"caravans":"yes","contact:email":"info@jesolointernational.it","contact:fax":"+39 0421 972561","contact:phone":"+39 0421 971826","drinking_water":"yes","internet_access":"wlan","name":"Camping Jesolo International","power_supply":"yes","sanitary_dump_station":"yes","shower":"yes","stars":"5","tents":"yes","toilets":"yes","toilets:wheelchair":"yes","website":"https://www.jesolointernational.it/","wheelchair":"yes"}},"179201401":{"location":[45.4748344,12.5553522],"ct":"IT","tp":"CS","ts":"2025-03-26T23:00:26Z","tX":547,"tY":366,"tags":{"addr:city":"Cavallino-Treporti","addr:housenumber":"63","addr:postcode":"30013","addr:street":"Via Francesco Baracca","caravans":"yes","contact:instagram":"https://www.instagram.com/santangelovillage/","dryer":"yes","fee":"yes","motorhome":"yes","name":"Sant’Angelo Village","phone":"+39041968882","power_supply":"yes","power_supply:maxcurrent":"6;10;16","socket:cee_blue":"yes","stars":"5","static_caravans":"yes","tents":"yes","washing_machine":"yes","website":"https://www.santangelo.it/"}},"331749326":{"location":[45.4551049,12.4904336],"ct":"IT","tp":"CS","ts":"2024-09-28T09:44:22Z","tX":547,"tY":366,"tags":{"access":"customers","addr:housenumber":"15/17","addr:street":"Via A. Poerio","cabins":"yes","caravans":"no","fee":"yes","name":"Ca' Berton","stars":"2","static_caravans":"yes","tents":"no","website":"https://www.caberton.it/"}},"368683988":{"location":[45.4348,12.4283759],"ct":"IT","tp":"CS","ts":"2024-09-26T08:40:59Z","tX":547,"tY":366,"tags":{"addr:city":"Cavallino-Treporti","addr:country":"IT","addr:housenumber":"2","addr:place":"Punta Sabbioni","addr:postcode":"30013","addr:province":"IT-VE","addr:street":"Via Monte Grappa","contact:email":"info@campingmose.com","contact:phone":"+39 041 658922","contact:website":"http://campingmose.com","dog":"yes","fee":"yes","internet_access":"wlan","internet_access:fee":"no","motorhome":"yes","name":"Agricampeggio Mose","organic":"yes","power_supply":"yes","power_supply:maxcurrent":"10","reservation":"yes","sanitary_dump_station":"customers","shop":"farm","socket:cee_blue":"yes","tents":"yes","wheelchair":"yes"}},"370137356":{"location":[45.431555,12.3844606],"ct":"IT","tp":"CS","ts":"2023-11-11T02:10:13Z","tX":547,"tY":366,"tags":{"addr:city":"Venezia","addr:country":"IT","addr:housenumber":"14","addr:place":"Lido","addr:province":"Veneto","addr:street":"Via dei Sanmichieli","caravans":"yes","fee":"yes","internet_access":"wlan","internet_access:fee":"yes","name":"Camping San Nicolò","opening_hours":"Apr 28 - Sep 30","payment:coins":"yes","payment:maestro":"yes","payment:mastercard":"yes","payment:notes":"yes","payment:visa":"yes","phone":"+39 041 526 7415; +39 338 723 5727","picnic_table":"yes","power_supply":"yes","shower":"yes","static_caravans":"yes","tents":"yes","toilets":"yes","website":"https://www.campingsannicolo.com/","wheelchair":"no"}},"370440386":{"location":[45.4779055,12.5688786],"ct":"IT","tp":"CS","ts":"2024-09-29T14:42:09Z","tX":547,"tY":366,"tags":{"addr:city":"Cavallino-Treporti","addr:housenumber":"53","addr:postcode":"30013","addr:street":"Via Francesco Baracca","caravans":"yes","dog":"leashed","fee":"yes","internet_access":"wlan","motorhome":"yes","name":"Camping Silva","power_supply":"yes","power_supply:maxcurrent":"6","socket:cee_blue":"yes","tents":"yes","toilets":"yes"}},"439669098":{"location":[45.4444027,12.4577611],"ct":"IT","tp":"CS","ts":"2024-09-26T10:56:20Z","tX":547,"tY":366,"tags":{"addr:city":"Ca' Savio","addr:housenumber":"12","addr:postcode":"30013","addr:street":"Via Meduna","capacity":"202","caravans":"yes","fee":"yes","internet_access":"wlan","motorhome":"yes","name":"Campeggio del Sole","operator":"Familia Zanella","phone":"+39 041 658333","power_supply":"yes","power_supply:maxcurrent":"6;10","sanitary_dump_station":"yes","socket:cee_blue":"yes","static_caravans":"yes","tents":"yes","website":"http://campeggiodelsole.it/"}},"477689062":{"location":[45.4468929,12.4659384],"ct":"IT","tp":"CS","ts":"2025-03-14T08:08:40Z","tX":547,"tY":366,"tags":{"addr:city":"Cavallino-Treporti","addr:country":"IT","addr:housenumber":"77","addr:postcode":"30013","addr:street":"Via di Ca' Savio","backcountry":"no","bbq":"no","cabins":"yes","caravans":"yes","dryer":"yes","fee":"yes","group_only":"no","internet_access":"yes","internet_access:fee":"yes","motor_vehicle":"yes","motorhome":"yes","name":"Camping Ca' Savio","openfire":"no","permanent_camping":"no","phone":"+39 041 966017","power_supply":"yes","power_supply:maxcurrent":"10","sanitary_dump_station":"yes","socket:cee_blue":"yes","swimming_pool":"yes","tents":"yes","washing_machine":"yes","website":"https://www.casavio.com"}},"478091703":{"location":[45.444805,12.4585071],"ct":"IT","tp":"CS","ts":"2024-09-26T10:56:20Z","tX":547,"tY":366,"tags":{"caravans":"yes","fee":"yes","motorhome":"yes","name":"Valdor Camping","openfire":"yes","phone":"+39 041 966108","power_supply":"yes","power_supply:maxcurrent":"5","shower":"yes","socket:cee_blue":"yes","tents":"yes","website":"https://www.valdor.it/"}},"503318250":{"location":[45.4551411,12.4951167],"ct":"IT","tp":"CS","ts":"2025-03-28T23:22:46Z","tX":547,"tY":366,"tags":{"caravans":"yes","contact:instagram":"https://www.instagram.com/enzostellamaris/","fee":"yes","internet_access":"wlan","internet_access:fee":"no","name":"Camping Enzo Stella Maris","nudism":"no","phone":"+39 041 966030","power_supply":"yes","power_supply:maxcurrent":"10","reservation":"no","sanitary_dump_station":"customers","shower":"yes","socket:cee_blue":"yes","stars":"5","swimming_pool":"yes","tents":"yes","toilets:wheelchair":"yes","website":"https://www.enzostellamaris.com/","wheelchair":"yes"}},"507505360":{"location":[45.4412038,12.421522],"ct":"IT","tp":"CR","ts":"2025-04-02T20:40:07Z","tX":547,"tY":366,"tags":{"addr:street":"Lungomare Dante Alighieri","caravan_site":"motorhome_stopover","caravan_site:type":"beach","charge":"15 EUR","fee":"yes","name":"Area Sosta Camper Parking Dante Alighieri","power_supply":"yes","sanitary_dump_station":"yes"}},"532490813":{"location":[45.442426,12.4232144],"ct":"IT","tp":"CS","ts":"2024-09-26T08:29:08Z","tX":547,"tY":366,"tags":{"addr:housenumber":"19A","addr:street":"Lungomare Dante Alighieri","caravans":"yes","description":"agricampeggio","dog":"yes","email":"info@albateo.it","fee":"yes","motorhome":"yes","name":"Al Bateo","phone":"+39 041 5301455","phone:mobile":"+39 338 9217652","power_supply:maxcurrent":"6;10","socket:cee_blue":"yes","tents":"yes","website":"https://albateo.it/"}},"840648752":{"location":[45.4484116,12.4586872],"ct":"IT","tp":"CS","ts":"2024-09-26T11:02:21Z","tX":547,"tY":366,"tags":{"name":"Portobello","phone":"+39 041 658251","socket:cee_blue":"yes","website":"https://www.portobellocamping.it"}},"991741515":{"location":[45.4438575,12.4398052],"ct":"IT","tp":"CS","ts":"2024-09-26T10:49:38Z","tX":547,"tY":366,"tags":{"addr:city":"Cavallino-Treporti","addr:housenumber":"15/19","addr:postcode":"30013","addr:street":"Via Pealto","caravans":"yes","contact:mobile":"+39 335 676 9387","dog":"yes","email":"info@agricampeggiodascarpa.it","fee":"yes","internet_access":"wlan","internet_access:fee":"customers","motorhome":"yes","name":"Agricampeggio da Scarpa","phone":"+39 041 5300352","power_supply":"yes","sanitary_dump_station":"yes","shower":"yes","socket:cee_blue":"yes","stars":"2","start_date":"2012-06-26","toilets":"yes","website":"http://www.agricampeggiodascarpa.it"}},"1315645972":{"location":[45.4576067,12.4673393],"ct":"IT","tp":"CS","ts":"2024-09-15T07:14:20Z","tX":547,"tY":366,"tags":{"name":"AgriCamping Ca' Bodi"}},"1344881856":{"location":[45.4385921,12.4378813],"ct":"IT","tp":"CS","ts":"2024-12-22T21:37:08Z","tX":547,"tY":366,"tags":{"name":"Marina di Venezia - Waiting meadow"}},"2624670145":{"location":[45.4792447,12.5799638],"ct":"IT","tp":"CR","ts":"2016-08-22T10:53:43Z","tX":547,"tY":366,"tags":{}},"4314431832":{"location":[45.4432615,12.4588012],"ct":"IT","tp":"SD","ts":"2016-07-21T14:01:18Z","tX":547,"tY":366,"tags":{}},"5916938467":{"location":[45.446608,12.4645083],"ct":"IT","tp":"SD","ts":"2024-05-28T14:52:45Z","tX":547,"tY":366,"tags":{"fee":"no"}},"9162873115":{"location":[45.4435547,12.4401401],"ct":"IT","tp":"SD","ts":"2021-10-10T17:13:28Z","tX":547,"tY":366,"tags":{"operator":"Agricampeggio da Scarpa"}},"10066610981":{"location":[45.4536275,12.481771],"ct":"IT","tp":"SD","ts":"2022-10-01T11:00:51Z","tX":547,"tY":366,"tags":{"access":"customers"}},"10734575247":{"location":[45.4573435,12.505067],"ct":"IT","tp":"SD","ts":"2023-03-14T10:19:09Z","tX":547,"tY":366,"tags":{}}}