{"11335770":{"location":[45.1636652,12.3254864],"ct":"IT","tp":"CS","ts":"2020-07-22T16:28:48Z","tX":547,"tY":367,"tags":{"access":"customers","addr:city":"Chioggia","addr:country":"IT","addr:housenumber":"9","addr:postcode":"30015","addr:street":"Via Isamar","email":"info@villaggioisamar.com","fax":"+39 041 5535928","name":"Villaggio Isamar","operator":"I.S.A. Spa","phone":"+39 041 5535811","smoking":"yes","stars":"5","website":"https://www.villaggioisamar.com/","wheelchair":"yes"}},"14168297":{"location":[45.1886155,12.305042],"ct":"IT","tp":"CS","ts":"2024-10-03T20:27:20Z","tX":547,"tY":367,"tags":{"addr:housenumber":"117","addr:street":"Via Agostino Barbarigo","cabins":"yes","caravans":"yes","fee":"yes","motorhome":"yes","name":"Village Internazionale","phone":"+39 041 491444","power_supply":"yes","power_supply:maxcurrent":"6","stars":"4","tents":"yes","website":"https://www.campinginternazionale.net/"}},"185814555":{"location":[45.1813497,12.3131558],"ct":"IT","tp":"CS","ts":"2024-09-21T16:53:57Z","tX":547,"tY":367,"tags":{"addr:city":"Chioggia","addr:country":"IT","addr:housenumber":"32","addr:postcode":"30015","addr:street":"Via Lungo Brenta","contact:email":"campingsmeraldo@tiscali.it","contact:mobile":"+39 347 5491276","contact:phone":"+39 041 5535033","contact:website":"http://www.campingsmeraldo.it/","name":"Camping Smeraldo","smoking":"yes","stars":"2"}},"185817301":{"location":[45.1869858,12.3072882],"ct":"IT","tp":"CS","ts":"2024-10-04T18:49:50Z","tX":547,"tY":367,"tags":{"addr:housenumber":"133","addr:street":"Viale Agostino Barbarigo","cabins":"yes","caravans":"yes","motorhome":"yes","name":"Campeggio Paradiso","phone":"+39 041 49 05 64","power_supply":"yes","socket:cee_blue":"yes","stars":"3","tents":"yes","website":"https://www.campeggioparadisochioggia.it/"}},"195832925":{"location":[45.1735931,12.3212067],"ct":"IT","tp":"CS","ts":"2024-09-22T14:38:20Z","tX":547,"tY":367,"tags":{"addr:city":"Chioggia","addr:country":"IT","addr:housenumber":"2","addr:postcode":"30015","addr:street":"Via Lampara","cabins":"yes","capacity":"18","caravans":"yes","email":"info@campinglaconchiglia.com","fax":"+39 041 498261","name":"La Conchiglia","phone":"+39 041 498261","tents":"yes","website":"https://www.campinglaconchiglia.com/"}},"435349818":{"location":[45.1396108,12.3245767],"ct":"IT","tp":"CS","ts":"2025-05-29T13:21:00Z","tX":547,"tY":367,"tags":{"cabins":"yes","caravans":"yes","name":"Rosapineta Nord","phone":"+39 0426 68033","tents":"yes","website":"https://www.rosapineta.it/"}},"435914502":{"location":[45.1818746,12.3095121],"ct":"IT","tp":"CS","ts":"2024-10-17T07:07:37Z","tX":547,"tY":367,"tags":{"addr:city":"Chioggia","addr:housenumber":"147","addr:postcode":"30015","capacity":"900","caravans":"yes","contact:whatsapp":"+390415541145","email":"info@campingoasi.com","fee":"yes","motorhome":"yes","name":"Camping Oasi","note":"with annexed marina","payment:cash":"yes","payment:credit_cards":"yes","payment:debit_cards":"yes","phone":"+39 041 5541145","power_supply":"yes","socket:cee_blue":"yes","tents":"yes","website":"https://www.campingoasi.com/"}},"606480106":{"location":[45.1236998,12.3242354],"ct":"IT","tp":"CS","ts":"2023-05-31T07:58:38Z","tX":547,"tY":367,"tags":{"internet_access":"yes","name":"Rosolina Mare Club","toilets:wheelchair":"yes","wheelchair":"limited"}},"1317532652":{"location":[45.1629676,12.3286121],"ct":"IT","tp":"CS","ts":"2024-09-23T08:35:49Z","tX":547,"tY":367,"tags":{"access":"customers","addr:housenumber":"2","addr:street":"Via Lungo Adige","caravans":"yes","fee":"yes","name":"Camping Adige","operator":"Tiozzo Ambrosi Mauro & C. snc","static_caravans":"yes","tents":"yes"}},"1746906421":{"location":[45.1167139,12.3267887],"ct":"IT","tp":"CS","ts":"2022-05-19T19:09:21Z","tX":547,"tY":367,"tags":{"cabins":"yes","caravans":"yes","name":"Campeggio Vittoria","stars":"3","tents":"yes","website":"https://campingvittoria.it"}}}