{"200877919":{"location":[44.3828264,12.3165856],"ct":"IT","tp":"CS","ts":"2024-10-04T10:29:02Z","tX":547,"tY":370,"tags":{"addr:city":"Lido di Dante","addr:postcode":"48124","addr:street":"Viale Catone","caravans":"yes","contact:whatsapp":"+390544492005","description:en":"According to the website nudism is only for one part of the camp site","dog":"yes","email":"info@campingclasse.it","fee":"yes","internet_access":"yes","internet_access:fee":"no","motorhome":"yes","name":"Classe","nudism":"yes","phone":"+39 0544 492005","power_supply":"yes","socket:cee_blue":"yes","static_caravans":"yes","tents":"yes","website":"https://www.campingclasse.it/","wheelchair":"limited"}},"296178523":{"location":[44.3835662,12.3192662],"ct":"IT","tp":"CS","ts":"2025-06-10T15:08:30Z","tX":547,"tY":370,"tags":{"cabins":"yes","caravans":"yes","fee":"yes","motorhome":"yes","name":"Camping Ramazzotti","phone":"+39 0544 492250","power_supply":"yes","power_supply:maxcurrent":"3","socket:cee_blue":"yes","stars":"3","static_caravans":"yes","tents":"yes","washing_machine":"yes","website":"https://www.campingramazzotti.it"}},"975789111":{"location":[44.3886084,12.3140262],"ct":"IT","tp":"CR","ts":"2024-10-04T10:08:36Z","tX":547,"tY":370,"tags":{"addr:city":"Lido Di Dante","addr:housenumber":"208","addr:postcode":"48124","addr:street":"Via Marabina","capacity":"20","motorhome":"designated","name":"Aera Sosta Camper Lido di Dante","phone":"+39 331 419 9892","power_supply":"no"}},"1288029802":{"location":[44.3844376,12.3170114],"ct":"IT","tp":"SD","ts":"2024-10-04T10:26:41Z","tX":547,"tY":370,"tags":{"access":"customers","charge":"8 EUR","fee":"yes"}},"12222083118":{"location":[44.3849978,12.3190093],"ct":"IT","tp":"SD","ts":"2024-10-04T10:26:41Z","tX":547,"tY":370,"tags":{"fee":"yes","water_point":"yes"}}}