{"6622718":{"location":[44.1655886,12.4401167],"ct":"IT","tp":"CS","ts":"2019-03-23T19:39:48Z","tX":547,"tY":371,"tags":{"addr:city":"Savignano sul Rubicone","addr:housenumber":"1","addr:postcode":"47039","addr:street":"Via Matrice Destra","name":"Camping Rubicone","operator":"Camping Rubicone S.r.l.","website":"https://www.campingrubicone.com/"}},"7345185":{"location":[44.3296325,12.3355039],"ct":"IT","tp":"CS","ts":"2024-10-04T10:31:02Z","tX":547,"tY":371,"tags":{"addr:housenumber":"48","addr:street":"Viale Giovanni Marignolli","caravans":"yes","dog":"yes","fee":"yes","motorhome":"yes","name":"Camping Lido di Classe","phone":"+39 342 314 7177","power_supply":"yes","socket:cee_blue":"yes","static_caravans":"yes","tents":"yes","website":"https://www.campinglidodiclasse.it"}},"24717252":{"location":[44.1272004,12.4882415],"ct":"IT","tp":"CR","ts":"2024-09-14T17:15:09Z","tX":547,"tY":371,"tags":{"addr:housenumber":"6","addr:street":"Via Antonio Benivieni","area":"yes","dog":"yes","fee":"yes","name":"Rio Pircio","phone":"+39 339 1871689","power_supply":"yes","sanitary_dump_station":"yes","socket:cee_blue":"yes","website":"https://www.riopircio.com/"}},"24748267":{"location":[44.1273882,12.4877599],"ct":"IT","tp":"CR","ts":"2024-09-14T17:17:32Z","tX":547,"tY":371,"tags":{"addr:housenumber":"260","addr:street":"Via Alfonso Pinzon","area":"yes","email":"info@parkingdellerobinie.com","fee":"yes","name":"Parking delle Robinie","phone:mobile":"+393391506715","power_supply":"yes","power_supply:maxcurrent":"6","sanitary_dump_station":"yes","shower":"yes","socket:cee_blue":"yes","toilets":"yes","website":"https://www.parkingdellerobinie.com/","wheelchair":"yes"}},"109252381":{"location":[44.2391459,12.3666212],"ct":"IT","tp":"CS","ts":"2024-10-04T11:05:31Z","tX":547,"tY":371,"tags":{"addr:city":"Cervia","addr:housenumber":"130","addr:postcode":"48015","addr:street":"Viale Titano","caravans":"yes","dog":"no","fee":"yes","motorhome":"yes","name":"Camping Safari","phone":"+39 0544 987356","power_supply":"yes","power_supply:maxcurrent":"4.5","socket:cee_blue":"yes","tents":"yes","website":"https://www.campingsafari.it/"}},"109252382":{"location":[44.2475853,12.3580038],"ct":"IT","tp":"CS","ts":"2024-10-04T10:59:31Z","tX":547,"tY":371,"tags":{"addr:housenumber":"90","addr:postcode":"48015","addr:street":"Via Pinarella","cabins":"yes","caravans":"yes","dog":"yes","fee":"yes","internet_access":"yes","motorhome":"yes","name":"Camping Adriatico","phone":"+39 0544 71537","power_supply":"yes","power_supply:maxcurrent":"6","socket:cee_blue":"yes","tents":"yes","website":"https://www.campingadriatico.net/"}},"134394649":{"location":[44.296558,12.3459386],"ct":"IT","tp":"CS","ts":"2024-10-04T10:47:33Z","tX":547,"tY":371,"tags":{"addr:housenumber":"186","addr:street":"Viale Matteotti","cabins":"yes","caravans":"yes","dog":"yes","fee":"yes","name":"Camping Villaggio Pineta","operator":"Club del Sole","phone":"+39 0544 949341","stars":"3","tents":"yes","website":"https://www.clubdelsole.com/villaggi-turistici-campeggi-bungalow-emilia-romagna/pineta-family-camping-village/"}},"134394733":{"location":[44.2992795,12.3449915],"ct":"IT","tp":"CS","ts":"2024-10-04T10:47:33Z","tX":547,"tY":371,"tags":{"addr:housenumber":"190","addr:postcode":"48015","addr:street":"Viale Giacomo Matteotti","cabins":"yes","capacity:caravans":"350","caravans":"yes","dog":"no","fee":"yes","motorhome":"yes","name":"Camping Romagna","permanent_camping":"yes","phone":"+39 0544 949326","power_supply":"yes","socket:cee_blue":"yes","stars":"3","tents":"yes","website":"www.campeggioromagna.com"}},"171818516":{"location":[44.122748,12.4926193],"ct":"IT","tp":"CS","ts":"2024-09-14T16:09:28Z","tX":547,"tY":371,"tags":{"addr:housenumber":"310","addr:street":"Viale Pinzon","cabins":"yes","caravans":"yes","fee":"yes","name":"Camping Riccardo","phone":"+39 0541 331 503","power_supply:maxcurrent":"6","stars":"3","swimming_pool":"no","tents":"yes","website":"http://www.campingriccardo.it","wheelchair":"yes"}},"171818522":{"location":[44.1267332,12.4875397],"ct":"IT","tp":"CR","ts":"2024-09-14T17:17:32Z","tX":547,"tY":371,"tags":{"addr:housenumber":"12","addr:street":"Via Antonio Benivieni","area":"yes","bbq":"yes","dog":"yes","fee":"yes","internet_access":"yes","internet_access:fee":"no","name":"L'Adriatico Parking","phone":"+39 366 405 5726","power_supply":"yes","sanitary_dump_station":"yes","socket:cee_blue":"yes","toilets":"yes","washing_machine":"yes","website":"https://ladriaticoparking.com/"}},"171818523":{"location":[44.1227403,12.4913391],"ct":"IT","tp":"CR","ts":"2024-09-14T16:12:43Z","tX":547,"tY":371,"tags":{"addr:city":"Igea Marina","addr:street":"Via Gerolamo Cardano","fee":"yes","name":"La Cardania","phone":"+39 331 1132411","power_supply":"cee_17_blue","sanitary_dump_station":"yes","socket:cee_blue":"yes","toilets":"yes"}},"171818525":{"location":[44.1164184,12.4983425],"ct":"IT","tp":"CR","ts":"2024-09-14T15:07:41Z","tX":547,"tY":371,"tags":{"fee":"yes","name":"Mare d'Inverno","phone":"+390541615750","phone:mobile":"+393391345388","power_supply":"yes","sanitary_dump_station":"yes","socket:cee_blue":"yes"}},"223008109":{"location":[44.2399999,12.3582697],"ct":"IT","tp":"CR","ts":"2024-10-04T11:02:24Z","tX":547,"tY":371,"tags":{"fee":"no","name":"Camper Parking","parking":"surface"}},"239933459":{"location":[44.3036761,12.3414737],"ct":"IT","tp":"CS","ts":"2024-10-04T10:47:33Z","tX":547,"tY":371,"tags":{"addr:housenumber":"98","addr:street":"Via Lord George Gordon Byron","cabins":"yes","capacity:caravans":"500","caravans":"yes","fee":"yes","motorhome":"yes","name":"Nuovo International Camping","phone":"+39 0544 949014","power_supply":"yes","socket:cee_blue":"yes","stars":"3","tents":"yes","website":"https://www.camping-international.it"}},"248355730":{"location":[44.0963359,12.5189611],"ct":"IT","tp":"CS","ts":"2022-11-28T12:02:53Z","tX":547,"tY":371,"tags":{"name":"EX camping Belvedere International"}},"298003035":{"location":[44.2335446,12.3721208],"ct":"IT","tp":"CS","ts":"2024-10-04T12:55:03Z","tX":547,"tY":371,"tags":{"addr:housenumber":"52","addr:street":"Viale Abruzzi","caravans":"yes","dog":"no","drinking_water":"yes","internet_access":"yes","name":"Campeggio Pinarella","phone":"+39 0544 987408","power_supply":"yes","sanitary_dump_station":"yes","shower":"yes","socket:cee_blue":"yes","stars":"3","tents":"yes","toilets":"yes","website":"http://www.campingpinarella.com"}},"311032614":{"location":[44.0997495,12.4994338],"ct":"IT","tp":"CR","ts":"2024-03-08T09:35:16Z","tX":547,"tY":371,"tags":{"addr:city":"Rimini","addr:housenumber":"47","addr:postcode":"47922","addr:street":"Via della Lama","capacity":"150","charge":"11€","email":"lavalletta@lavalletta.net","fee":"yes","internet_access":"wlan","name":"La Valletta Sosta Verde","phone":"+39 338 7151778","power_supply":"yes","sanitary_dump_station":"yes","website":"http://www.lavalletta.net"}},"429955523":{"location":[44.163145,12.4420773],"ct":"IT","tp":"CS","ts":"2019-08-03T15:38:04Z","tX":547,"tY":371,"tags":{"addr:city":"San Mauro a Mare","addr:housenumber":"6","addr:postcode":"47030","addr:street":"Via Amerigo Vespucci","capacity":"318","name":"Camping Green","stars":"2","toilets:wheelchair":"yes","website":"https://www.campinggreen.it/","wheelchair":"yes"}},"431102282":{"location":[44.1661751,12.4337875],"ct":"IT","tp":"CS","ts":"2024-10-04T15:07:56Z","tX":547,"tY":371,"tags":{"addr:city":"Gatteo a Mare","addr:housenumber":"29","addr:postcode":"47043","addr:street":"Via Nazionale Adriatica","cabins":"yes","caravans":"yes","dog":"yes","email":"info@villaggiorose.com","fee":"yes","motorhome":"yes","name":"Villaggio Camping delle Rose","phone":"+39 0547 86213","power_supply":"yes","power_supply:maxcurrent":"6","shower":"yes","socket:cee_blue":"yes","stars":"3","tents":"yes","toilets":"yes","toilets:wheelchair":"yes","website":"https://www.villaggiorose.com/","wheelchair":"yes"}},"431102976":{"location":[44.161039,12.449149],"ct":"IT","tp":"CS","ts":"2024-10-04T15:10:21Z","tX":547,"tY":371,"tags":{"addr:city":"Bellaria-Igea Marina","addr:housenumber":"228","addr:postcode":"47841","addr:street":"Via Alfredo Panzini","capacity:caravans":"160","caravans":"yes","dog":"leashed","fee":"yes","motorhome":"yes","name":"Happy Camping Village","power_supply":"yes","power_supply:maxcurrent":"6","sanitary_dump_station":"yes","socket:cee_blue":"yes","stars":"4","tents":"yes","website":"https://www.happycamping.it/"}},"682316810":{"location":[44.2170977,12.3821825],"ct":"IT","tp":"CS","ts":"2024-10-04T13:01:57Z","tX":547,"tY":371,"tags":{"addr:housenumber":"182","addr:street":"Viale Giuseppe Mazzini","caravans":"yes","dog":"yes","name":"Cesenatico Camping Village","phone":"+39 0547 81344","power_supply":"yes","power_supply:maxcurrent":"10","socket:cee_blue":"yes","stars":"3","tents":"yes","website":"https://www.campingcesenatico.com"}},"682316844":{"location":[44.2073945,12.389677],"ct":"IT","tp":"CS","ts":"2024-10-04T13:43:57Z","tX":547,"tY":371,"tags":{"addr:housenumber":"1","addr:postcode":"47042","addr:street":"Viale Camillo Benso di Cavour","bbq":"yes","caravans":"yes","contact:whatsapp":"+393792147135","dog":"yes","email":"info@ibazzarricesenatico.it","internet_access":"wlan","internet_access:fee":"no","motorhome":"yes","name":"I Bazzarri Camping Cesenatico","opening_hours":"24/7","phone":"+39 0547 672344","power_supply":"yes","power_supply:maxcurrent":"10","socket:cee_blue":"yes","tents":"yes","website":"https://www.ibazzarricesenatico.it/"}},"984053848":{"location":[44.1234285,12.4915444],"ct":"IT","tp":"CR","ts":"2024-09-14T16:21:23Z","tX":547,"tY":371,"tags":{"addr:housenumber":"16","addr:street":"Via G. Cardano","dog":"yes","fee":"yes","internet_access":"yes","name":"Il Pellegrino","phone":"+393384843889","power_supply":"yes","sanitary_dump_station":"yes","socket:cee_blue":"yes","website":"https://www.areasostacamperilpellegrino.com/"}},"1063002247":{"location":[44.1223326,12.4929975],"ct":"IT","tp":"CR","ts":"2024-09-14T16:04:46Z","tX":547,"tY":371,"tags":{"addr:housenumber":"310a","addr:street":"Via Alfonso Pinzon","fee":"yes","internet_access":"yes","internet_access:fee":"customers","name":"Porto Mario - Family Village","phone":"+39 0541 1797073","power_supply":"yes","sanitary_dump_station":"customers","socket:cee_blue":"yes","washing_machine":"yes","website":"https://www.portomario.com/camper/","wheelchair":"yes"}},"1147358836":{"location":[44.2067526,12.388436],"ct":"IT","tp":"CR","ts":"2024-10-04T13:43:57Z","tX":547,"tY":371,"tags":{"addr:city":"Cesenatico","addr:housenumber":"1b","addr:postcode":"47042","addr:street":"Viale Camillo Benso di Cavour","bbq":"yes","capacity":"100","caravan_site":"motorhome_stopover","caravan_site:type":"beach","dog":"yes","fee":"yes","internet_access":"wlan","internet_access:fee":"no","name":"Sosta Camper Cesenatico","operator":"PRIVATO","power_supply":"yes","power_supply:maxcurrent":"4","sanitary_dump_station":"yes","socket:cee_blue":"yes","website":"https://www.areacampercesenatico.com/"}},"1194233353":{"location":[44.2175633,12.3793266],"ct":"IT","tp":"CS","ts":"2024-10-04T12:59:43Z","tX":547,"tY":371,"tags":{"cabins":"yes","caravans":"no","dog":"yes","fee":"yes","name":"Pineta sul Mare Camping Village","tents":"no","website":"https://www.pinetasulmarecampingvillage.com/"}},"4764168961":{"location":[44.164618,12.4386388],"ct":"IT","tp":"CS","ts":"2017-07-09T15:38:37Z","tX":547,"tY":371,"tags":{"addr:city":"Savignano sul Rubicone","addr:housenumber":"1","addr:street":"Via Matrice Sinistra","camp pitch":"479","capacity":"2335","name":"Camping Rubicone","source":"Provincia di Forlì-Cesena"}},"4764168963":{"location":[44.1647955,12.4412433],"ct":"IT","tp":"CS","ts":"2019-03-27T09:53:44Z","tX":547,"tY":371,"tags":{"addr:city":"Savignano sul Rubicone","addr:housenumber":"1","addr:postcode":"47030","addr:street":"Via Matrice Destra","name":"Camping Rubicone","toilets:wheelchair":"yes","website":"https://www.campingrubicone.com/","wheelchair":"yes"}},"8443430118":{"location":[44.1984452,12.3909121],"ct":"IT","tp":"CR","ts":"2023-01-08T17:23:22Z","tX":547,"tY":371,"tags":{"addr:housenumber":"14","addr:postcode":"47042","addr:street":"Via Cesenatico","opening_hours":"24/7"}},"6899722685":{"location":[44.0996942,12.5000242],"ct":"IT","tp":"SD","ts":"2019-10-20T08:11:16Z","tX":547,"tY":371,"tags":{"access":"customers","fee":"no","water_point":"yes"}},"9076659552":{"location":[44.1156412,12.4084534],"ct":"IT","tp":"SD","ts":"2021-09-09T12:54:31Z","tX":547,"tY":371,"tags":{"access":"yes","fee":"no","water_point":"yes"}},"12222119131":{"location":[44.3047047,12.3424823],"ct":"IT","tp":"SD","ts":"2024-10-04T10:47:33Z","tX":547,"tY":371,"tags":{"fee":"yes","water_point":"yes"}},"12222144845":{"location":[44.2401729,12.3588633],"ct":"IT","tp":"SD","ts":"2024-10-04T11:02:24Z","tX":547,"tY":371,"tags":{"access":"yes","fee":"no","water_point":"yes"}},"12630818737":{"location":[44.1890249,12.4152303],"ct":"IT","tp":"CR","ts":"2025-03-02T18:22:16Z","tX":547,"tY":371,"tags":{"addr:housenumber":"14","addr:postcode":"47042","addr:street":"Via Cesenatico","opening_hours":"24/7"}}}