{"131960371":{"location":[43.9590303,12.4623942],"ct":"SM","tp":"CS","ts":"2024-03-27T21:54:01Z","tX":547,"tY":372,"tags":{"addr:housenumber":"50","addr:street":"Strada di San Michele","caravans":"yes","drinking_water":"yes","name":"Centro Vacanze San Marino","phone":"+378 0549 903964","power_supply":"yes","sanitary_dump_station":"yes","shower":"yes","stars":"4","tents":"yes","toilets":"yes","website":"https://www.centrovacanzesanmarino.com/"}},"228942905":{"location":[44.0261539,12.6243658],"ct":"IT","tp":"CS","ts":"2013-07-06T10:17:28Z","tX":547,"tY":372,"tags":{}},"228942908":{"location":[44.0275478,12.6245017],"ct":"IT","tp":"CS","ts":"2022-05-30T18:07:42Z","tX":547,"tY":372,"tags":{"fixme":"Does this camp site still exists? Apparently it used to be http://www.campingmaximum.com/ but nowadays the website redirect to the start page of Club del Sole."}},"469225680":{"location":[44.0578758,12.447385],"ct":"IT","tp":"CR","ts":"2020-08-05T13:21:01Z","tX":547,"tY":372,"tags":{"capacity":"14","internet_access":"no","name":"Piazzale per Sosta Camper","power_supply":"yes","sanitary_dump_station":"yes"}},"625766890":{"location":[44.0795174,12.5484921],"ct":"IT","tp":"CS","ts":"2022-05-15T18:29:30Z","tX":547,"tY":372,"tags":{"addr:city":"Rimini","addr:housenumber":"112","addr:postcode":"47922","addr:street":"Viale Paolo Toscanelli","cabins":"yes","caravans":"yes","name":"Camping International Rimini Italy","operator":"Club del Sole","tents":"yes","website":"https://www.internationalitaliacampingvillage.com"}},"742619947":{"location":[44.0608557,12.5780665],"ct":"IT","tp":"CR","ts":"2023-08-01T07:15:24Z","tX":547,"tY":372,"tags":{"addr:city":"Rimini","addr:housenumber":"86","addr:postcode":"47921","addr:street":"Via Roma","capacity":"150","fee":"yes","name":"Parcheggio Attrezzato Rimini","note":"open 24/7 - Tariffe 1,50€ 1 ora - 6 ore 6,00€ - 1 giorno  10€ - electrica 3€ - ","power_supply":"yes","sanitary_dump_station":"yes"}},"851597683":{"location":[43.9817471,12.4253457],"ct":"IT","tp":"CR","ts":"2024-06-03T06:34:47Z","tX":547,"tY":372,"tags":{"capacity":"10","fee":"no","internet_access":"no","name":"Area Camper comunale - Verucchio","power_supply":"no","sanitary_dump_station":"yes"}},"1080233044":{"location":[43.9716497,12.3683302],"ct":"IT","tp":"CR","ts":"2024-09-14T15:00:47Z","tX":547,"tY":372,"tags":{"addr:street":"Via Gessi","fee":"no","name":"Parking camper","power_supply":"no","toilets":"no"}},"1080233540":{"location":[43.9716628,12.3686063],"ct":"IT","tp":"SD","ts":"2022-07-21T09:35:22Z","tX":547,"tY":372,"tags":{"access":"yes","water_point":"yes"}},"1147428256":{"location":[44.0748289,12.5439727],"ct":"IT","tp":"CR","ts":"2024-09-14T15:12:27Z","tX":547,"tY":372,"tags":{"addr:city":"Rimini","addr:postcode":"47922","addr:street":"Via Luigi Zangheri","dog":"yes","fee":"yes","internet_access":"yes","name":"Area Sosta Camper Park Rimini","phone":"+39 389 198 3488","power_supply":"yes","power_supply:maxcurrent":"16","sanitary_dump_station":"yes","shower":"yes","socket:cee_blue":"yes","website":"https://www.camperparkrimini.it/"}},"3993296551":{"location":[43.9086764,12.6400739],"ct":"IT","tp":"CS","ts":"2016-02-07T10:24:38Z","tX":547,"tY":372,"tags":{"addr:city":"Morciano di Romagna","addr:housenumber":"28","addr:postcode":"47833","addr:street":"Via Santa Maria Maddalena","capacity":"50","fee":"yes","name":"casa scout Morciano di Romagna","operator":"parrocchia San Michele Arcangelo"}},"4202989575":{"location":[43.9254696,12.4486837],"ct":"SM","tp":"SD","ts":"2019-05-12T19:42:26Z","tX":547,"tY":372,"tags":{}},"5818195041":{"location":[43.9698013,12.4759603],"ct":"SM","tp":"SD","ts":"2018-08-08T14:31:46Z","tX":547,"tY":372,"tags":{"fee":"no","water_point":"yes"}},"11539384693":{"location":[43.9228889,12.4521924],"ct":"SM","tp":"CS","ts":"2024-01-22T08:36:03Z","tX":547,"tY":372,"tags":{"access":"yes","caravans":"yes","contact:housenumber":"65","contact:street":"Via del Serrone","fee":"no","fixme":"exact location and size","maxstay":"48 hours","name":"Camping Ex Tiro a Volo","power_supply":"yes","tents":"yes"}},"4793972122":{"location":[43.9351451,12.4441534],"ct":"SM","tp":"CR","ts":"2024-09-14T15:03:15Z","tX":547,"tY":372,"tags":{"fee":"yes","internet_access":"no","name":"San Marino Parking Via Napoleone Bonaparte","opening_hours":"24/7","power_supply":"yes","ref":"P10","sanitary_dump_station":"no"}},"6624682385":{"location":[43.9408302,12.4422475],"ct":"SM","tp":"CR","ts":"2020-02-22T20:26:41Z","tX":547,"tY":372,"tags":{}},"8778604819":{"location":[44.0588006,12.448892],"ct":"IT","tp":"CR","ts":"2021-05-29T09:31:51Z","tX":547,"tY":372,"tags":{}},"8778669617":{"location":[44.0743993,12.3260924],"ct":"IT","tp":"CR","ts":"2023-10-19T21:25:32Z","tX":547,"tY":372,"tags":{"fee":"no"}},"8816459017":{"location":[43.8960116,12.3498425],"ct":"IT","tp":"CR","ts":"2021-06-09T06:20:05Z","tX":547,"tY":372,"tags":{"highway":"rest_area"}},"8816459117":{"location":[43.8862594,12.6120278],"ct":"IT","tp":"CR","ts":"2021-06-09T06:20:05Z","tX":547,"tY":372,"tags":{}},"10381464909":{"location":[44.0750315,12.5687767],"ct":"IT","tp":"CR","ts":"2023-11-03T07:44:15Z","tX":547,"tY":372,"tags":{"addr:housenumber":"80","addr:postcode":"47900","addr:street":"Viale Ortigara","email":"info@marinadirimini.com","internet_access":"wlan","name":"Marina di Rimini","opening_hours":"24/7","phone":"+39054129488","website":"https://marinadirimini.com/"}},"12048911189":{"location":[44.0271566,12.6267497],"ct":"IT","tp":"CR","ts":"2024-07-12T08:03:51Z","tX":547,"tY":372,"tags":{"addr:city":"Rimini","addr:postcode":"47924","addr:street":"Viale Principe di Piemonte","name":"Camper Park","phone":"+393891983488","website":"https://www.camperparkrimini.it/"}},"7942813524":{"location":[43.9817309,12.4256423],"ct":"IT","tp":"SD","ts":"2024-06-03T06:34:47Z","tX":547,"tY":372,"tags":{"access":"yes","fee":"no","operator":"Comune","water_point":"yes"}},"9076690641":{"location":[43.9941189,12.6180627],"ct":"IT","tp":"SD","ts":"2021-09-09T12:58:16Z","tX":547,"tY":372,"tags":{"access":"yes","fee":"no","water_point":"yes"}}}