{"112953529":{"location":[43.3508458,12.5651307],"ct":"IT","tp":"CR","ts":"2011-05-13T09:20:38Z","tX":547,"tY":374,"tags":{"fee":"no"}},"112953530":{"location":[43.3510695,12.5645696],"ct":"IT","tp":"CR","ts":"2012-08-07T05:45:53Z","tX":547,"tY":374,"tags":{"fee":"yes","supervised":"yes"}},"232192426":{"location":[43.5166714,12.6176778],"ct":"IT","tp":"CS","ts":"2022-09-19T14:28:55Z","tX":547,"tY":374,"tags":{"name":"Area Attrezzata Monte Petrano","website":"https://areaattrezzatamontepetrano.mystrikingly.com/"}},"1143281188":{"location":[43.4393861,12.445215],"ct":"IT","tp":"CS","ts":"2023-02-10T17:00:51Z","tX":547,"tY":374,"tags":{"addr:city":"Pietralunga","addr:housenumber":"151","addr:postcode":"06026","addr:street":"Voc. Palazzetto","caravans":"yes","fee":"no","name":"Agritourismo Palazetto","shower":"yes","tents":"yes","website":"http://www.agriturismoalpalazzetto.it/agricampeggio.html"}},"4443686891":{"location":[43.3472527,12.5676047],"ct":"IT","tp":"CR","ts":"2016-10-12T12:00:04Z","tX":547,"tY":374,"tags":{"name":"Aera Sosta Camper","name:it":"Aera Sosta Camper"}}}