{"26859377":{"location":[43.0755972,12.5741955],"ct":"IT","tp":"CS","ts":"2013-05-17T10:35:56Z","tX":547,"tY":375,"tags":{"name":"Camping Village Assisi","website":"http://www.campingassisi.it/"}},"236229117":{"location":[43.0777869,12.6010394],"ct":"IT","tp":"CR","ts":"2024-11-11T08:56:25Z","tX":547,"tY":375,"tags":{"addr:street":"Via San Vittorino","dog":"yes","name":"Area Sosta Ponte San Vittorio","name:de":"Wohnmobilstellplatz Ponte san Vittorio","name:en":"Area Sosta Ponte San Vittorio","name:it":"Area Sosta Ponte San Vittorio","power_supply":"no","sanitary_dump_station":"no"}},"546124549":{"location":[43.0981715,12.3834464],"ct":"IT","tp":"CR","ts":"2019-11-01T12:08:51Z","tX":547,"tY":375,"tags":{"fee":"no","name":"Piazzale Bove","power_supply":"yes","sanitary_dump_station":"yes","wheelchair":"yes"}},"1076683267":{"location":[43.1108834,12.3272111],"ct":"IT","tp":"CS","ts":"2023-04-16T09:27:23Z","tX":547,"tY":375,"tags":{"caravans":"yes","email":"info@ilrocolo.it","motorhome":"yes","name":"Il Rocola","phone":"+39 075 928 8029","reservation":"yes","sanitary_dump_station":"customers","shower":"yes","stars":"2","tents":"yes","toilets":"yes","website":"http://www.ilrocolo.it/"}},"1332811685":{"location":[43.0754348,12.5743602],"ct":"IT","tp":"CS","ts":"2024-11-11T08:56:25Z","tX":547,"tY":375,"tags":{"cabins":"yes","caravans":"yes","contact:mobile":"+393913271130","contact:phone":"+39075813710","contact:whatsapp":"+393913271130","dog":"yes","fee":"yes","motorhome":"yes","name":"Camping Village Assisi","power_supply":"yes","power_supply:maxcurrent":"6","reservation":"yes","socket:cee_blue":"yes","static_caravans":"yes","tents":"yes","website":"http://www.campingassisi.it/"}},"2910482142":{"location":[43.1197954,12.3132737],"ct":"IT","tp":"CS","ts":"2014-06-11T08:00:21Z","tX":547,"tY":375,"tags":{"name":"Paradis d'Et√©"}},"11796126569":{"location":[43.077711,12.6005546],"ct":"IT","tp":"CR","ts":"2024-04-06T21:23:58Z","tX":547,"tY":375,"tags":{"addr:street":"Via San Vittorino","name":"Area Sosta Porte San Vittorio","name:de":"Wohnmobilstellplatz Ponte san Vittorio","name:en":"Area Sosta Ponte San Vittorio","name:it":"Area Sosta Ponte San Vittorio"}}}