{"54610355":{"location":[42.8922354,12.6479513],"ct":"IT","tp":"CR","ts":"2021-09-14T09:02:41Z","tX":547,"tY":376,"tags":{"fee":"yes","sanitary_dump_station":"yes"}},"204687572":{"location":[43.0643076,12.6325638],"ct":"IT","tp":"CS","ts":"2022-09-02T11:38:11Z","tX":547,"tY":376,"tags":{"addr:city":"Asisi","addr:housenumber":"24","addr:postcode":"06081","addr:street":"Via Eremo delle Carceri","caravans":"yes","contact:email":"info@fontemaggio.it","contact:mobile":"+39 347 675 3780","contact:phone":"+39 075 813636","contact:website":"https://www.fontemaggio.it","email":"info@fontemaggio.it","mobile":"+39 347 675 3780","name":"Fontemaggio","phone":"+39 075 813636","tents":"yes","website":"https://www.fontemaggio.it"}},"457411570":{"location":[42.9134881,12.5845092],"ct":"IT","tp":"CS","ts":"2024-09-23T06:08:27Z","tX":547,"tY":376,"tags":{"addr:city":"Bevagna","addr:housenumber":"10","addr:postcode":"06031","addr:street":"Via Pian di Boccio","bbq":"yes","caravans":"yes","dog":"leashed","email":"info@piandiboccio.com","fax":"+39 0742 360391","fee":"yes","internet_access":"yes","internet_access:fee":"no","motorhome":"yes","name":"Camping Pian di Boccio","operator":"Marialuisa Spinuzza","phone":"+39 0742 360164","power_supply":"yes","ref:vatin":"IT02502820547","socket:cee_blue":"yes","tents":"yes","website":"https://www.piandiboccio.com/"}},"486592898":{"location":[43.0651367,12.5986559],"ct":"IT","tp":"CR","ts":"2019-07-21T21:47:44Z","tX":547,"tY":376,"tags":{"capacity":"3"}},"686717426":{"location":[43.0658314,12.5985121],"ct":"IT","tp":"CR","ts":"2019-07-21T21:47:44Z","tX":547,"tY":376,"tags":{"capacity":"3"}},"1230333486":{"location":[42.9990148,12.4272671],"ct":"IT","tp":"CR","ts":"2023-12-11T14:53:38Z","tX":547,"tY":376,"tags":{}},"2520725501":{"location":[42.9349084,12.6060126],"ct":"IT","tp":"CR","ts":"2020-02-14T20:28:03Z","tX":547,"tY":376,"tags":{"addr:city":"Bevagna","addr:street":"Via Raggiolo","capacity":"50","fee":"no","internet_access":"no","name":"Area sosta Bevagna","operator":"COMUNALE","power_supply":"no","sanitary_dump_station":"yes"}},"2520790103":{"location":[43.0289444,12.4384648],"ct":"IT","tp":"SD","ts":"2024-10-22T10:08:52Z","tX":547,"tY":376,"tags":{"access":"yes","fee":"no","sanitary_dump_station:chemical_toilet":"yes","sanitary_dump_station:grey_water":"yes"}},"7109147687":{"location":[42.9733842,12.5876253],"ct":"IT","tp":"CS","ts":"2024-06-23T05:30:41Z","tX":547,"tY":376,"tags":{"addr:housenumber":"10","addr:street":"Via delle Pietre","name":"il Giardino Degli Elfi","website":"https://www.ilgiardinodeglielfi.it/"}},"4716313496":{"location":[43.0290205,12.4383855],"ct":"IT","tp":"CR","ts":"2024-10-22T10:08:52Z","tX":547,"tY":376,"tags":{"name":"Area Torgiano","sanitary_dump_station":"yes","sanitary_dump_station:chemical_toilet":"yes","sanitary_dump_station:grey_water":"yes","water_point":"yes"}},"10881243297":{"location":[42.9042582,12.3370832],"ct":"IT","tp":"CR","ts":"2023-05-09T15:34:57Z","tX":547,"tY":376,"tags":{}}}