{"26859801":{"location":[41.9934991,12.4160546],"ct":"IT","tp":"CS","ts":"2024-09-08T10:58:14Z","tX":547,"tY":380,"tags":{"addr:city":"Roma","addr:housenumber":"10","addr:postcode":"00189","addr:street":"Via Vittorio Trucchi","caravans":"yes","motorhome":"yes","name":"Seven Hills","power_supply":"yes","socket:cee_blue":"yes","tents":"yes","website":"https://www.sevenhills-roma.it/"}},"39960859":{"location":[41.8867554,12.4060729],"ct":"IT","tp":"CS","ts":"2024-12-04T21:21:01Z","tX":547,"tY":380,"tags":{"caravans":"yes","fee":"yes","name":"hu Roma camping in town","opening_hours":"24/7","operator":"hu Openair","payment:cash":"yes","payment:credit_cards":"yes","payment:debit_cards":"yes","phone":"+39 055 029 8080","power_supply":"yes","power_supply:maxcurrent":"16","socket:cee_blue":"yes","tents":"yes","website":"https://roma.huopenair.com/de/"}},"93248938":{"location":[42.0101139,12.5071375],"ct":"IT","tp":"CR","ts":"2016-09-16T09:10:51Z","tX":547,"tY":380,"tags":{"fee":"yes","name":"Tiber","power_supply":"yes","tents":"yes"}},"102881880":{"location":[41.7804283,12.3961339],"ct":"IT","tp":"CS","ts":"2024-09-18T10:24:22Z","tX":547,"tY":380,"tags":{"addr:city":"Roma","addr:housenumber":"225","addr:postcode":"00125","addr:street":"Via di Malafede","cabins":"yes","caravans":"yes","dog":"yes","drinking_water":"yes","fee":"yes","internet_access":"wlan","internet_access:fee":"no","motorhome":"yes","name":"Fabulous Village","operator":"Human Company","power_supply":"yes","reservation":"yes","shower":"yes","socket:cee_blue":"yes","tents":"yes","toilets":"yes","toilets:wheelchair":"yes","website":"https://fabulous.huopenair.com/it/","wheelchair":"yes"}},"192452346":{"location":[41.9592899,12.4801025],"ct":"IT","tp":"CS","ts":"2024-09-04T10:56:50Z","tX":547,"tY":380,"tags":{"cabins":"yes","caravans":"yes","dog":"yes","dryer":"yes","email":"info@villageflaminio.com","internet_access":"yes","internet_access:fee":"no","motorhome":"yes","name":"Village Flaminio","phone":"+39 06.33 32 604","power_supply":"yes","power_supply:maxcurrent":"6","socket:cee_blue":"yes","washing_machine":"yes","website":"https://www.villageflaminio.com/","wheelchair":"yes"}},"233019079":{"location":[42.0035744,12.4524071],"ct":"IT","tp":"CS","ts":"2024-09-08T10:51:15Z","tX":547,"tY":380,"tags":{"caravans":"yes","contact:website":"http://www.happycamping.net/","fee":"yes","internet_access":"wlan","motorhome":"yes","name":"Happy Village","power_supply":"yes","power_supply:maxcurrent":"6","socket:cee_blue":"yes","tents":"yes","wheelchair":"yes"}},"244808542":{"location":[41.8752798,12.5549093],"ct":"IT","tp":"CR","ts":"2024-09-04T10:14:11Z","tX":547,"tY":380,"tags":{"dog":"yes","dryer":"yes","internet_access":"wlan","name":"LGP","power_supply":"yes","power_supply:maxcurrent":"2.5","sanitary_dump_station":"yes","shower":"yes","shower:fee":"yes","socket:cee_blue":"yes","toilets":"yes","washing_machine":"yes","website":"https://www.lgproma.com/home.html","wheelchair":"yes"}},"336284823":{"location":[41.8684865,12.5381516],"ct":"IT","tp":"CR","ts":"2024-09-23T09:35:51Z","tX":547,"tY":380,"tags":{"capacity":"35","caravan_site":"motorhome_stopover","caravan_site:type":"city","caravans":"no","charge":"40 EUR","charge:conditional":"50 EUR @(>8 meter),70 EUR @(>10 meter),","check_in":"12:00","check_out":"12:00","dog":"yes","fee":"yes","internet_access":"wlan","internet_access:fee":"no","name":"Area Sosta Camper Romae","opening_hours":"24/7","power_supply":"yes","power_supply:maxcurrent":"3","reservation":"yes","sanitary_dump_station":"yes","shower":"hot","shower:fee":"yes","socket:cee_blue":"yes","tents":"no","toilets":"yes","water_point":"yes","website":"http://www.rexbus.it/area-sosta-camper-romae/"}},"507631744":{"location":[41.8876216,12.4057984],"ct":"IT","tp":"CR","ts":"2024-04-04T15:47:33Z","tX":547,"tY":380,"tags":{"caravan_site":"motorhome_stopover","caravan_site:type":"city","fee":"yes","name":"Camping Village Roma Capitol","website":"https://www.campingcapitol.com/en/accommodations/pitches/"}},"507631745":{"location":[41.8863625,12.4052317],"ct":"IT","tp":"CR","ts":"2024-04-04T15:47:33Z","tX":547,"tY":380,"tags":{"caravan_site":"motorhome_stopover","caravan_site:type":"city","fee":"yes","name":"Roma Camping in Town"}},"591402075":{"location":[41.7883267,12.5941462],"ct":"IT","tp":"CR","ts":"2024-09-04T14:31:41Z","tX":547,"tY":380,"tags":{"addr:city":"Roma","addr:housenumber":"1630","addr:postcode":"00178","addr:street":"Via Appia Nuova","email":"roberto.gemma79@gmail.com","name":"Rimessaggio-parcheggio \"Country Club Caravan\"","note":"Rimessaggio con campeggio","power_supply":"yes","sanitary_dump_station":"yes","socket:cee_blue":"yes","website":"https://www.facebook.com/COUNTRYCLUBCARAVAN1982"}},"1313198521":{"location":[41.8632512,12.4966914],"ct":"IT","tp":"CR","ts":"2024-09-04T09:59:55Z","tX":547,"tY":380,"tags":{"addr:city":"Roma","addr:housenumber":"170","addr:postcode":"00147","addr:street":"Via Cristoforo Colombo","capacity":"50","charge":"30 EUR/Day","email":"parkcolombo@libero.it","fee":"yes","internet_access":"no","name":"Area sosta camper Park Colombo","opening_hours":"24/7","phone":"+39 06 51600097","power_supply":"yes","sanitary_dump_station":"yes","socket:cee_blue":"yes","toilets":"no","website":"https://www.sostacamperroma.com"}},"1313204976":{"location":[41.8090814,12.5280762],"ct":"IT","tp":"CR","ts":"2024-09-04T14:20:42Z","tX":547,"tY":380,"tags":{"addr:city":"Roma","addr:housenumber":"424","addr:postcode":"00143","addr:street":"Via di Tor Pagnotta","fee":"yes","internet_access":"wlan","name":"Area sosta camper Prato Smeraldo","phone":"+39 06 50512905","power_supply":"yes","sanitary_dump_station":"yes","socket:cee_blue":"yes"}}}