{"378202086":{"location":[41.5312292,12.5616664],"ct":"IT","tp":"CS","ts":"2023-11-02T05:00:29Z","tX":547,"tY":381,"tags":{"addr:city":"Anzio","addr:housenumber":"2","addr:postcode":"00042","addr:street":"Via Malvito Vecchiarelli","name":"Camping Village Parco della Gallinara","phone":"+39 06 9890104","website":"https://www.parcodellagallinara.com/"}},"431147270":{"location":[41.531344,12.5594351],"ct":"IT","tp":"CS","ts":"2020-10-22T12:14:35Z","tX":547,"tY":381,"tags":{"addr:city":"Anzio","addr:housenumber":"525","addr:postcode":"00042","addr:street":"Strada Provinciale 601 Ostia-Anzio","name":"Camping CCR"}},"431852004":{"location":[41.7054016,12.3406224],"ct":"IT","tp":"CS","ts":"2024-09-18T10:21:05Z","tX":547,"tY":381,"tags":{"addr:city":"Lido di Ostia","addr:housenumber":"132","addr:postcode":"00122","addr:street":"Via Litoranea","barrier":"fence","cabins":"yes","caravans":"yes","dog":"yes","email":"info@romacampingcastelfusano.it","fee":"yes","internet_access":"wlan","internet_access:fee":"no","mobile":"+39 347 734 2866","motorhome":"yes","name":"Camping International Castel Fusano","opening_hours":"Apr 1 - Oct 31","phone":"+39 06 562 3304","phone:mobile":"+39 347 7342866","power_supply":"yes","reservation":"yes","shower":"yes","socket:cee_blue":"yes","static_caravans":"yes","tents":"yes","toilets":"yes","website":"https://www.romacampingcastelfusano.it/"}},"857169278":{"location":[41.5660719,12.5303256],"ct":"IT","tp":"CS","ts":"2024-10-08T15:31:08Z","tX":547,"tY":381,"tags":{"addr:city":"Ardea","addr:housenumber":"97","addr:postcode":"00040","addr:street":"Lungomare Tor San Lorenzo","caravans":"yes","fee":"yes","motorhome":"yes","name":"Onda Camping Village","permanent_camping":"yes","phone":"+39 06 9102900","stars":"4","tents":"yes","website":"http://www.villaggioturisticoonda.it/"}},"1316344671":{"location":[41.7420263,12.3158397],"ct":"IT","tp":"CS","ts":"2024-09-18T10:11:23Z","tX":547,"tY":381,"tags":{"addr:city":"Roma","addr:housenumber":"195","addr:postcode":"00124","addr:street":"Via di Castel Fusano","cabins":"yes","caravans":"yes","fee":"yes","motorhome":"yes","name":"Camping Capitol Roma","operator":"Gruppo Baia Holiday","phone":"+39 06 20190700","power_supply":"yes","power_supply:maxcurrent":"16","socket:cee_blue":"yes","tents":"yes","website":"https://www.campingcapitol.com/"}},"4439401721":{"location":[41.74377,12.3131625],"ct":"IT","tp":"CS","ts":"2018-02-12T16:17:29Z","tX":547,"tY":381,"tags":{"addr:city":"Roma","addr:housenumber":"195","addr:postcode":"00124","addr:street":"Via di Castel Fusano","name":"Camping Capitol Roma","phone":"+39 06 20190700"}},"5075878523":{"location":[41.540798,12.550583],"ct":"IT","tp":"CS","ts":"2017-09-03T12:04:50Z","tX":547,"tY":381,"tags":{"name":"Camping Ai Tucul","website":"http://www.campingaitucul.it"}},"4701837492":{"location":[41.7579972,12.6513485],"ct":"IT","tp":"CR","ts":"2024-09-04T14:35:43Z","tX":547,"tY":381,"tags":{"caravan_site":"motorhome_stopover","caravans":"no","fee":"yes","name":"Spiaggia del Lago","note":"3€/ora e 10 €/giorno per camper","power_supply":"no","sanitary_dump_station":"no","tents":"no"}},"12155575489":{"location":[41.7440781,12.6457352],"ct":"IT","tp":"SD","ts":"2024-09-04T14:41:58Z","tX":547,"tY":381,"tags":{"access":"yes","fee":"no","water_point":"yes"}},"12183723712":{"location":[41.7452523,12.3162167],"ct":"IT","tp":"SD","ts":"2024-09-18T10:11:23Z","tX":547,"tY":381,"tags":{"access":"customers","fee":"no","water_point":"yes"}},"12806759001":{"location":[41.7449781,12.3201735],"ct":"IT","tp":"CS","ts":"2025-05-03T20:19:36Z","tX":547,"tY":381,"tags":{"addr:housenumber":"110","addr:street":"Via Emiliano Sarti","name":"BoHo Garden","website":"https://www.bohogarden.it/"}}}