{"11171390":{"location":[-34.5830344,-59.0549992],"ct":"AR","tp":"CS","ts":"2022-12-22T10:19:26Z","tX":344,"tY":616,"tags":{"addr:city":"Luján","addr:country":"AR","addr:full":"Ruta Provincial 7 Km 62,100","addr:postcode":"B6700","addr:street":"Ruta Provincial 7","bar":"yes","big_rigs":"yes","camp_type":"established","caravans":"yes","description":"Primarily targeted at day tourists. Discount for members card of an (international) automobile association.","dish_washing":"no","dryer":"no","fee":"ARS 260. (2 adults, camper)","fireplace":"braai","guarded":"nighttime","internet":"no","kitchen":"no","landuse":"recreation_ground","laundry":"yes","name":"Camping ACA Luján","payment:credit_card":"no","pets":"no","phone":"+54 (2323) 42-4046","restaurant":"yes","sanitary_dumpstation":"no","swimming_pool":"yes","tents":"yes","toilets:disposal":"flush","toilets:position":"sitting","washing_machine":"no","water:location":"central","water:quality":"potable","website":"http://www.aca.tur.ar/centro-recreativos/lujan/"}},"262247897":{"location":[-34.3249151,-58.9655778],"ct":"AR","tp":"CS","ts":"2019-12-26T14:21:04Z","tX":344,"tY":616,"tags":{"name":"Camping ASIMRA"}},"2100280399":{"location":[-34.5831793,-58.8657013],"ct":"AR","tp":"CS","ts":"2023-10-27T10:30:29Z","tX":344,"tY":616,"tags":{"name":"Palos Verdes","nudism":"yes","website":"https://www.palos-verdes.com.ar/"}},"4269277192":{"location":[-34.4502021,-58.8693991],"ct":"AR","tp":"CS","ts":"2023-10-29T01:37:23Z","tX":344,"tY":616,"tags":{"addr:housenumber":"2699","addr:postcode":"1635","addr:street":"Avenida Sargento Mayor Cayetano Beliera","email":"parquenazarenodepilar@gmail.com","internet_access":"wlan","name":"Parque Nazareno de Pilar","opening_hours":"Mo-Fr 08:30-12:30, 13:30-17:30","phone":"+542304480596","website":"https://parque.seminarionazareno.com.ar/"}},"6124317396":{"location":[-34.5831758,-58.8656909],"ct":"AR","tp":"CS","ts":"2025-01-12T15:29:12Z","tX":344,"tY":616,"tags":{"name":"El Paraíso","nudism":"customary","old_name":"Palos Verdes Campamento Nudista"}}}