{"668986306":{"location":[-34.6833547,-58.8214801],"ct":"AR","tp":"CS","ts":"2011-06-25T03:52:41Z","tX":344,"tY":617,"tags":{"name":"Camping Cascallares"}},"961466510":{"location":[-34.7685905,-58.8615817],"ct":"AR","tp":"CR","ts":"2021-07-05T03:31:02Z","tX":344,"tY":617,"tags":{"facebook":"https://www.facebook.com/ElParaisoClubPrivado/","internet_access":"no","name":"El Para√≠so Club"}},"4515854344":{"location":[-34.6839554,-58.8178826],"ct":"AR","tp":"CS","ts":"2016-11-22T19:30:10Z","tX":344,"tY":617,"tags":{"name":"El Remanso"}},"4515854345":{"location":[-34.6835892,-58.81998],"ct":"AR","tp":"CS","ts":"2016-11-22T19:30:10Z","tX":344,"tY":617,"tags":{"name":"El Templario"}},"4621863991":{"location":[-34.6395961,-58.8137589],"ct":"AR","tp":"CS","ts":"2017-01-21T12:07:45Z","tX":344,"tY":617,"tags":{"addr:housenumber":"1450","addr:postcode":"B1738GTD","addr:street":"La Piedad","name":"Camping 12 De Agosto SATSAID","name:es":"Camping 12 De Agosto SATSAID"}},"7838744387":{"location":[-34.6672177,-58.8806423],"ct":"AR","tp":"CS","ts":"2024-03-04T03:34:01Z","tX":344,"tY":617,"tags":{"addr:housenumber":"180","addr:street":"Carlos de Linneo","name":"Estancia El Dorado","operator":"Municipalidad de Moreno","reservation":"required","website":"https://turismo.moreno.gob.ar/reservas.php?r=1"}}}