{"102414231":{"location":[22.2880249,113.9467197],"ct":"HK","tp":"CS","ts":"2024-04-23T17:32:26Z","tX":836,"tY":446,"tags":{"access":"customers","fee":"yes","name":"陳馬美玉紀念康樂營 The Hong Kong Buddhist Association Chan Ma Mee York Memorial Camp","name:en":"The Hong Kong Buddhist Association Chan Ma Mee York Memorial Camp","name:zh":"陳馬美玉紀念康樂營","operator":"香港佛教聯合會","website":"https://www.hkbuddhist.org/camp/"}},"111106765":{"location":[22.4286368,114.2368254],"ct":"HK","tp":"CS","ts":"2021-07-24T15:30:54Z","tX":836,"tY":446,"tags":{"addr:housename":"烏溪沙青年新村 Wu Kwai Sha Youth Village","addr:housename:en":"Wu Kwai Sha Youth Village","addr:housename:zh":"烏溪沙青年新村","addr:housenumber":"2","addr:street":"鞍駿街 On Chun Street","addr:street:en":"On Chun Street","addr:street:zh":"鞍駿街","addr:suburb":"烏溪沙 Wu Kai Sha","addr:suburb:en":"Wu Kai Sha","addr:suburb:zh":"烏溪沙","addr:town":"馬鞍山 Ma On Shan","addr:town:en":"Ma On Shan","addr:town:zh":"馬鞍山","apartments":"yes","caravans":"no","chalets":"yes","events":"yes","fee":"yes","laundry":"no","name":"烏溪沙青年新村 Wu Kwai Sha Youth Village","name:en":"Wu Kwai Sha Youth Village","name:zh":"烏溪沙青年新村","name:zh-Hans":"乌溪沙青年新村","name:zh-Hant":"烏溪沙青年新村","operator":"香港中華基督教青年會 Chinese YMCA of Hong Kong","operator:en":"Chinese YMCA of Hong Kong Wu Kwai Sha Youth Village","operator:zh":"香港中華基督教青年會","operator:zh-Hans":"香港中华基督教青年会","operator:zh-Hant":"香港中華基督教青年會","owner":"香港中華基督教青年會 Chinese YMCA of Hong Kong","owner:en":"Chinese YMCA of Hong Kong Wu Kwai Sha Youth Village","owner:zh":"香港中華基督教青年會","owner:zh-Hans":"香港中华基督教青年会","owner:zh-Hant":"香港中華基督教青年會","reservation":"required","shower":"yes","socket":"yes","socket:bs1363":"yes","sport":"yes","swimming_pool":"separate","tents":"no","toilets":"yes"}},"245487394":{"location":[22.4734216,114.1974493],"ct":"HK","tp":"CS","ts":"2018-09-09T07:48:53Z","tX":836,"tY":446,"tags":{"addr:city":"Tai Po","addr:housenumber":"100","addr:street":"Tung Tsz Road","leisure":"sports_centre","name":"洞梓童軍中心 Tung Tsz Scout Centre","name:en":"Tung Tsz Scout Centre","name:yue":"洞梓童軍中心","name:zh":"洞梓童軍中心","operator":"Sout Association of Hong Kong","scout":"yes"}},"351079986":{"location":[22.3488411,114.0577656],"ct":"HK","tp":"CS","ts":"2021-05-30T13:33:54Z","tX":836,"tY":446,"tags":{"name":"太陽村莊 Solar Villas","name:en":"Solar Villas","name:zh":"太陽村莊"}},"399159403":{"location":[22.3802971,114.0944535],"ct":"HK","tp":"CS","ts":"2016-02-22T06:36:45Z","tX":836,"tY":446,"tags":{"area":"yes","name":"香港航空青年團下花山訓練營","name:en":"Hong Kong Air Cadet Corps Ha Fa Shan Camp","name:zh":"香港航空青年團下花山訓練營"}},"529442308":{"location":[22.4579904,114.1418492],"ct":"HK","tp":"CS","ts":"2024-08-10T12:46:56Z","tX":836,"tY":446,"tags":{"name":"香港青年獎勵計劃賽馬會愛丁堡公爵訓練營 HKAYP Jockey Club Duke of Edinburgh Training Camp","name:en":"HKAYP Jockey Club Duke of Edinburgh Training Camp","name:yue":"香港青年獎勵計劃賽馬會愛丁堡公爵訓練營","name:zh":"香港青年獎勵計劃賽馬會愛丁堡公爵訓練營"}},"564265791":{"location":[22.5341119,113.9629057],"ct":"CN","tp":"SD","ts":"2018-02-26T09:53:15Z","tX":836,"tY":446,"tags":{}},"564265793":{"location":[22.5340061,113.9625692],"ct":"CN","tp":"SD","ts":"2018-02-26T09:53:15Z","tX":836,"tY":446,"tags":{}},"564265795":{"location":[22.5339579,113.9628134],"ct":"CN","tp":"SD","ts":"2018-02-26T09:53:15Z","tX":836,"tY":446,"tags":{}},"619637886":{"location":[22.5215957,114.1636707],"ct":"HK","tp":"CS","ts":"2020-05-09T13:43:15Z","tX":836,"tY":446,"tags":{"name":"浸會園 Baptist Assembly","name:en":"Baptist Assembly","name:zh":"浸會園","name:zh-Hans":"浸会园","name:zh-Hant":"浸會園","wikidata":"Q7192065","wikipedia":"zh:香港浸會園"}},"620842860":{"location":[22.5060522,114.1490822],"ct":"HK","tp":"CS","ts":"2020-09-24T10:21:36Z","tX":836,"tY":446,"tags":{"name":"寶血兒童村 The Sisters of Precious Blood Children's Village","name:en":"The Sisters of Precious Blood Children's Village","name:zh":"寶血兒童村"}},"660891191":{"location":[22.4116935,114.0332882],"ct":"HK","tp":"CS","ts":"2020-08-12T11:07:49Z","tX":836,"tY":446,"tags":{"cabins":"yes","fee":"yes","name":"保良局賽馬會大棠渡假村 Po Leung Kuk Jockey Club Tai Tong Holiday Camp","name:en":"Po Leung Kuk Jockey Club Tai Tong Holiday Camp","name:zh":"保良局賽馬會大棠渡假村","operator":"保良局 Po Leung Kuk","operator:en":"保良局 Po Leung Kuk","operator:ownership":"public","operator:wikidata":"Q2395518","operator:zh":"保良局"}},"727434806":{"location":[22.4111948,114.1579048],"ct":"HK","tp":"CS","ts":"2022-04-28T09:27:10Z","tX":836,"tY":446,"tags":{"board_type":"welcome_sign","information":"board","name":"鉛礦坳營地 Lead Mine Pass Campsite","name:en":"Lead Mine Pass Campsite","name:zh":"鉛礦坳營地"}},"761644471":{"location":[22.4594283,114.009529],"ct":"HK","tp":"CS","ts":"2024-08-25T14:52:59Z","tX":836,"tY":446,"tags":{"landuse":"aquaculture","leisure":"yes","name":"名樂漁莊 Mingle Farm","name:en":"Mingle Farm","name:zh":"名樂漁莊","place":"farm"}},"813803811":{"location":[22.4983781,114.1035189],"ct":"HK","tp":"CS","ts":"2022-04-28T04:24:19Z","tX":836,"tY":446,"tags":{"addr:housenumber":"110","addr:street":"坑頭路 Hang Tau Road","name":"香港女童軍總會賽馬會碧溪莊 The Hong Kong Girl Guides Association Jockey Club Beas River Lodge","name:en":"The Hong Kong Girl Guides Association Jockey Club Beas River Lodge","name:zh":"香港女童軍總會賽馬會碧溪莊"}},"925422976":{"location":[22.4050347,114.1051867],"ct":"HK","tp":"CS","ts":"2023-08-18T14:02:59Z","tX":836,"tY":446,"tags":{"capacity":"50","name":"扶輪公園營地 Rotary Club Campsite","name:en":"Rotary Club Campsite","name:zh":"扶輪公園營地","website":"https://www.afcd.gov.hk/english/country/cou_vis/cou_vis_cam/cou_vis_cam_cam/cou_vis_cam_23_Rotary.html","wikidata":"Q113126665"}},"954976435":{"location":[22.2731193,114.0017289],"ct":"HK","tp":"CS","ts":"2021-06-16T14:29:55Z","tX":836,"tY":446,"tags":{"addr:housenumber":"27","addr:street":"東灣頭路 Tung Wan Tau Road","name":"衞理園 Methodist Retreat Centre","name:en":"Methodist Retreat Centre","name:zh":"衞理園"}},"954976442":{"location":[22.2732864,114.0031387],"ct":"HK","tp":"CS","ts":"2021-06-16T14:29:55Z","tX":836,"tY":446,"tags":{"addr:housenumber":"30","addr:street":"東灣頭路 Tung Wan Tau Road","name":"香港遊樂場協會賽馬會銀鑛灣營 HKPA Jockey Club Silvermine Bay Camp","name:en":"HKPA Jockey Club Silvermine Bay Camp","name:zh":"香港遊樂場協會賽馬會銀鑛灣營"}},"1044693898":{"location":[22.3923496,114.2512478],"ct":"HK","tp":"CS","ts":"2023-10-26T15:32:26Z","tX":836,"tY":446,"tags":{"maxtents":"20","name":"昂平營地 Ngong Ping Campsite","name:en":"Ngong Ping Campsite","name:zh":"昂平營地","toilets":"separate","wikidata":"Q11087307","wikimedia_commons":"Category:Ngong Ping, Ma On Shan","wikipedia":"en:Ngong Ping, Ma On Shan"}},"1052389919":{"location":[22.5114635,114.0966398],"ct":"HK","tp":"CS","ts":"2022-04-17T08:28:00Z","tX":836,"tY":446,"tags":{"group_only":"yes"}},"1052916884":{"location":[22.4071298,114.1029206],"ct":"HK","tp":"CS","ts":"2022-04-19T06:10:05Z","tX":836,"tY":446,"tags":{"name":"荃錦營地 Twisk Campsite","name:en":"Twisk Campsite","name:zh":"荃錦營地","website":"https://www.afcd.gov.hk/english/country/cou_vis/cou_vis_cam/cou_vis_cam_cam/cou_vis_cam_24_Twisk.html"}},"1052916892":{"location":[22.390023,114.0661858],"ct":"HK","tp":"CS","ts":"2022-04-19T06:10:05Z","tX":836,"tY":446,"tags":{"name":"田夫仔營地 Tin Fu Tsai Campsite","name:en":"Tin Fu Tsai Campsite","name:zh":"田夫仔營地","website":"https://www.afcd.gov.hk/english/country/cou_vis/cou_vis_cam/cou_vis_cam_cam/cou_vis_cam_26_TinFuTsai.html"}},"1055635365":{"location":[22.4113107,114.1578327],"ct":"HK","tp":"CS","ts":"2022-04-28T09:27:10Z","tX":836,"tY":446,"tags":{"area":"yes","name":"鉛礦坳營地 Lead Mine Pass Campsite","name:en":"Lead Mine Pass Campsite","name:zh":"鉛礦坳營地"}},"1184146290":{"location":[22.4917489,114.1670157],"ct":"HK","tp":"CS","ts":"2015-12-29T08:43:46Z","tX":836,"tY":446,"tags":{"name":"流水響營地 Lau Shui Heung Campsite","name:en":"Lau Shui Heung Campsite","name:zh":"流水響營地"}},"1184150461":{"location":[22.4987393,114.1779416],"ct":"HK","tp":"CS","ts":"2013-12-16T07:43:01Z","tX":836,"tY":446,"tags":{"name":"鶴藪營地 Hok Tau Campsite","name:en":"Hok Tau Campsite","name:zh":"鶴藪營地"}},"1243103581":{"location":[22.3799451,114.0121535],"ct":"HK","tp":"CS","ts":"2024-01-26T06:57:44Z","tX":836,"tY":446,"tags":{}},"1287207320":{"location":[22.4069349,114.103872],"ct":"HK","tp":"CS","ts":"2021-04-03T03:35:38Z","tX":836,"tY":446,"tags":{"name":"荃錦營地 Twisk Campsite","name:en":"Twisk Campsite","name:zh":"荃錦營地"}},"1308827079":{"location":[22.4573898,114.0116225],"ct":"HK","tp":"CS","ts":"2024-08-19T14:23:19Z","tX":836,"tY":446,"tags":{"group_only":"yes"}},"1829077155":{"location":[22.3721124,114.0451455],"ct":"HK","tp":"CS","ts":"2014-11-28T22:02:54Z","tX":836,"tY":446,"tags":{"name":"民安隊圓墩營 CAS Yuen Tun Camp","name:en":"CAS Yuen Tun Camp","name:zh":"民安隊圓墩營"}},"1919829141":{"location":[22.3605777,114.2221632],"ct":"HK","tp":"CS","ts":"2014-11-18T13:09:42Z","tX":836,"tY":446,"tags":{"name":"香港童軍總會基維爾營地 Scout Association of Hong Kong Gilwell Campsite","name:en":"Scout Association of Hong Kong Gilwell Campsite","name:zh":"香港童軍總會基維爾營地"}},"1919829145":{"location":[22.3708715,114.1957756],"ct":"HK","tp":"CS","ts":"2017-06-26T07:51:51Z","tX":836,"tY":446,"tags":{"name":"沙田童軍中心 Shatin Scout Centre","name:en":"Shatin Scout Centre","name:zh":"沙田童軍中心"}},"1958069882":{"location":[22.3901041,114.0660184],"ct":"HK","tp":"CS","ts":"2014-11-28T22:02:55Z","tX":836,"tY":446,"tags":{"name":"田夫仔營地 Tin Fu Tsai Campsite","name:en":"Tin Fu Tsai Campsite","name:zh":"田夫仔營地"}},"1961460532":{"location":[22.3755356,114.1301622],"ct":"HK","tp":"CS","ts":"2019-11-17T07:39:04Z","tX":836,"tY":446,"tags":{"name":"醫療輔助隊荃灣訓練營 AMS Tsuen Wan Training Camp","name:en":"AMS Tsuen Wan Training Camp","name:zh":"醫療輔助隊荃灣訓練營","name:zh-Hans":"医疗辅助队荃湾训练营","name:zh-Hant":"醫療輔助隊荃灣訓練營"}},"3232940090":{"location":[22.4873324,114.2428456],"ct":"HK","tp":"CS","ts":"2014-12-13T11:58:20Z","tX":836,"tY":446,"tags":{"name":"涌背露營場地 Chung Pui Camp Site","name:en":"Chung Pui Camp Site","name:zh":"涌背露營場地"}},"3232982543":{"location":[22.5144594,114.2319452],"ct":"HK","tp":"CS","ts":"2022-05-14T08:48:02Z","tX":836,"tY":446,"tags":{"name":"降下坳營地 Kong Ha Au Campsite","name:en":"Kong Ha Au Campsite","name:zh":"降下坳營地"}},"4633739590":{"location":[22.4073188,114.1018553],"ct":"HK","tp":"CS","ts":"2024-10-15T15:25:06Z","tX":836,"tY":446,"tags":{"name":"荃錦營地 Twisk Campsite","name:en":"Twisk Campsite","name:zh":"荃錦營地"}},"8735570017":{"location":[22.5402485,114.2098862],"ct":"HK","tp":"CS","ts":"2022-04-21T17:02:06Z","tX":836,"tY":446,"tags":{"access":"yes","addr:province":"香港","addr:street":"沙頭角沙頭角公路石涌凹段","fee":"yes","name":"禾田喜山種值園","name:en":"Wadakiyama Plantation","operator":"禾田喜山種植園 Wadakiyama Plantation"}},"11530071569":{"location":[22.2712447,114.1213135],"ct":"HK","tp":"CS","ts":"2024-01-19T06:04:49Z","tX":836,"tY":446,"tags":{"name:en":"Nice spot with fresh water"}},"11553208511":{"location":[22.3799211,114.0122437],"ct":"HK","tp":"CS","ts":"2024-01-26T06:57:44Z","tX":836,"tY":446,"tags":{"name":"九段 Route 9"}},"6469067885":{"location":[22.5429206,114.0841323],"ct":"CN","tp":"CR","ts":"2019-05-13T03:51:03Z","tX":836,"tY":446,"tags":{}}}