{"478688889":{"location":[60.528915,24.6006766],"ct":"FI","tp":"CR","ts":"2023-06-18T01:53:58Z","tX":581,"tY":294,"tags":{"addr:city":"Vihtijärvi","addr:housenumber":"391","addr:postcode":"03790","addr:street":"Rauhaniementie","name":"VihtiPark","operator":"SF Caravan Hyvinkään Seutu Ry","website":"https://www.sfchyvinkaa.net/"}},"10980108162":{"location":[60.5288083,24.5990392],"ct":"FI","tp":"CS","ts":"2023-06-18T02:34:21Z","tX":581,"tY":294,"tags":{"addr:city":"Vihtijärvi","addr:housenumber":"351","addr:postcode":"03790","addr:street":"Rauhaniementie","name":"VihtiPark","operator":"SF Caravan Hyvinkään Seutu Ry","website":"https://www.sfchyvinkaa.net/"}},"10982262369":{"location":[60.5297306,24.6005309],"ct":"FI","tp":"SD","ts":"2023-06-18T02:43:29Z","tX":581,"tY":294,"tags":{"description":"Toilet tank emptying and flushing","water_point":"yes"}},"10983338511":{"location":[60.5293491,24.600282],"ct":"FI","tp":"SD","ts":"2023-06-18T02:34:21Z","tX":581,"tY":294,"tags":{"description":"Gray water only","water_point":"no"}}}