{"311344142":{"location":[58.3851156,24.5260695],"ct":"EE","tp":"CS","ts":"2023-08-16T04:09:29Z","tX":581,"tY":306,"tags":{"addr:city":"Pärnu","addr:housenumber":"44a","addr:postcode":"80021","addr:street":"Suur-Jõe","backcountry":"no","caravans":"yes","check_date":"2023-08-16","drinking_water":"yes","fee":"yes","internet_access":"wlan","internet_access:fee":"customers","name":"Konse Caravans & Camping","operator":"Konse Caravans & Camping","payment:mastercard":"yes","payment:visa":"yes","power_supply":"yes","shower":"yes","tents":"yes","toilets":"yes","website":"https://konse.ee/","wheelchair":"yes"}},"380275709":{"location":[58.3873392,24.3704223],"ct":"EE","tp":"CS","ts":"2024-02-25T21:00:33Z","tX":581,"tY":306,"tags":{"toilets:wheelchair":"no","wheelchair":"no"}},"813698086":{"location":[58.2795104,24.5832046],"ct":"EE","tp":"CS","ts":"2020-06-17T22:10:18Z","tX":581,"tY":306,"tags":{}},"815494039":{"location":[58.430684,24.4409546],"ct":"EE","tp":"CS","ts":"2024-04-17T15:02:13Z","tX":581,"tY":306,"tags":{"addr:postcode":"80043","addr:street":"Nurme — Papsaare","email":"info@joekaaru.ee","internet_access":"wlan","name":"Jõekääru Camping","phone":"+372 443 0034","website":"https://www.joekaaru.ee/"}},"997869174":{"location":[58.4250131,24.3623995],"ct":"EE","tp":"CS","ts":"2022-01-12T17:13:38Z","tX":581,"tY":306,"tags":{"access":"yes","addr:city":"Lemmetsa küla","addr:place":"Lõosilma","addr:postcode":"88311","capacity":"15","charge":"8-22 EUR","contact:phone":"+372 5307 7360","contact:website":"https://solarcaravan.ee","fee":"yes","name":"Solar Caravan Park","operator":"Solar Caravan OÜ","payment:cash":"yes","payment:credit_cards":"yes"}},"1296438171":{"location":[58.380756,24.4974617],"ct":"EE","tp":"CS","ts":"2024-06-26T18:42:53Z","tX":581,"tY":306,"tags":{"addr:city":"Pärnu","addr:housenumber":"18","addr:street":"Esplanaadi","capacity:caravans":"1","caravans":"yes","fee":"yes","internet_access":"wlan","name":"Camping Esplanaadi","power_supply":"yes","tents":"yes","washing_machine":"yes","website":"http://campingesplanaadi.blogspot.com/"}},"1902283071":{"location":[58.3303615,24.2906134],"ct":"EE","tp":"CS","ts":"2012-09-06T13:38:37Z","tX":581,"tY":306,"tags":{}},"3136705878":{"location":[58.3797444,24.5370115],"ct":"EE","tp":"CS","ts":"2016-06-24T09:45:08Z","tX":581,"tY":306,"tags":{"addr:city":"Pärnu","addr:housenumber":"50b","addr:postcode":"80016","addr:street":"Suur-Jõe","name":"Kämping Green","name:en":"Camping Green","phone":"+37259124868"}},"3606271993":{"location":[58.3849984,24.5260241],"ct":"EE","tp":"CR","ts":"2023-08-16T04:09:29Z","tX":581,"tY":306,"tags":{"addr:city":"Pärnu","addr:housenumber":"44a","addr:postcode":"80021","addr:street":"Suur-Jõe","capacity":"100","check_date":"2023-08-16","fee":"yes","internet_access":"wlan","internet_access:fee":"customers","name":"Konse karavankämping","name:en":"Konse Caravan","payment:mastercard":"yes","payment:visa":"yes","power_supply":"yes","sanitary_dump_station":"yes","website":"https://www.konse.ee/en/caravans-camping/"}},"12092015569":{"location":[58.387775,24.395057],"ct":"EE","tp":"CS","ts":"2024-08-04T15:05:14Z","tX":581,"tY":306,"tags":{"internet_access":"wlan"}}}