{"3821187":{"location":[35.770809,140.0624603],"ct":"JP","tp":"CS","ts":"2023-10-29T19:29:52Z","tX":910,"tY":402,"tags":{"access":"permit","addr:city":"船橋市","addr:neighbourhood":"594","addr:postcode":"274-0082","addr:province":"千葉県","addr:quarter":"大神保町","capacity:caravans":"49","capacity:persons":"300","group_only":"yes","name":"船橋大神保青少年キャンプ場","name:en":"Funabashi Ojinbo Youth Campground","operator":"船橋市","phone":"047-457-1994","source":"MLIT, Japan;bing;GSI/KIBAN 2500;NARO;survey","website":"https://www.city.funabashi.lg.jp/shisetsu/bunka/0003/0003/0001/p011090.html"}},"377606494":{"location":[36.0004476,140.1019213],"ct":"JP","tp":"CS","ts":"2023-11-19T13:12:06Z","tX":910,"tY":402,"tags":{"addr:block_number":"1002","addr:city":"つくば市","addr:housenumber":"1","addr:postcode":"300-1258","addr:province":"茨城県","addr:quarter":"六斗","fee":"yes","name":"茎崎こもれび六斗の森","name:en":"Kukizaki-Rokuto-no-mori park","name:ja":"茎崎こもれび六斗の森","operator":"つくば市","operator:type":"public","payment:cash":"yes","phone":"+81 29-876-5040"}},"414657822":{"location":[35.8398097,139.9380701],"ct":"JP","tp":"CS","ts":"2018-05-06T14:26:13Z","tX":910,"tY":402,"tags":{"capacity":"10","internet_access":"no","name":"げんき村キャンプ場","operator":"流山市"}},"463576269":{"location":[36.0033178,139.9243188],"ct":"JP","tp":"CS","ts":"2017-01-04T04:16:26Z","tX":910,"tY":402,"tags":{"name":"あすなろの里キャンプ場"}},"1069803870":{"location":[35.858335,140.0567619],"ct":"JP","tp":"CS","ts":"2018-08-16T05:20:48Z","tX":910,"tY":402,"tags":{"name":"我孫子市ふれあいキャンプ場","note":"Looks like one. Please confirm","source":"bing"}},"4418406396":{"location":[35.7479577,140.2023952],"ct":"JP","tp":"CS","ts":"2016-09-26T04:03:36Z","tX":910,"tY":402,"tags":{"internet_access":"wlan","name":"印旛沼サンセットヒルズ","name:en":"Inba-numa Sunset Hills","phone":"+81 43 484 1011","website":"http://sunsethills.shiteikanri-sakura.jp/"}},"10132691023":{"location":[35.8413061,140.0592994],"ct":"JP","tp":"CS","ts":"2022-10-27T13:47:30Z","tX":910,"tY":402,"tags":{}},"12032056018":{"location":[35.7688045,140.0379127],"ct":"JP","tp":"CS","ts":"2024-07-03T21:38:24Z","tX":910,"tY":402,"tags":{"name":"ふれあい広場 白井の森"}}}