{"1069808945":{"location":[35.7451874,139.9734934],"ct":"JP","tp":"CS","ts":"2010-12-28T21:16:25Z","tX":910,"tY":403,"tags":{"note":"Looks like one. Please confirm","source":"bing"}},"1098711249":{"location":[35.7350857,140.1168639],"ct":"JP","tp":"CS","ts":"2022-09-29T03:44:18Z","tX":910,"tY":403,"tags":{"access":"permit","addr:city":"八千代市","addr:neighbourhood":"333","addr:postcode":"276-0028","addr:province":"千葉県","addr:quarter":"村上","capacity:caravans":"75","capacity:persons":"100","group_only":"yes","name":"「ガキ大将の森」キャンプ場","operator":"八千代市","website":"https://www.city.yachiyo.chiba.jp//101500/page000002.html"}},"8543862922":{"location":[35.4630686,140.2076888],"ct":"JP","tp":"CS","ts":"2021-03-21T11:53:05Z","tX":910,"tY":403,"tags":{"name":"勝古沢キャンプ場"}},"12021373373":{"location":[35.582359,140.2603656],"ct":"JP","tp":"CS","ts":"2024-06-29T23:12:26Z","tX":910,"tY":403,"tags":{"name":"楽々ガーデン"}},"12021380557":{"location":[35.5730876,140.2190163],"ct":"JP","tp":"CS","ts":"2024-06-29T23:25:44Z","tX":910,"tY":403,"tags":{"name":"CAMP＆BBQ FIELD JUNGLE"}}}