{"678992945":{"location":[35.2252058,140.0985227],"ct":"JP","tp":"CS","ts":"2019-03-24T08:58:19Z","tX":910,"tY":404,"tags":{"name":"稲ヶ崎キャンプ場"}},"828734631":{"location":[35.2133534,140.1879823],"ct":"JP","tp":"CS","ts":"2022-12-22T04:07:49Z","tX":910,"tY":404,"tags":{}},"987218444":{"location":[35.2628741,139.9544186],"ct":"JP","tp":"CS","ts":"2021-11-01T00:07:07Z","tX":910,"tY":404,"tags":{"addr:block_number":"729","addr:city":"君津市","addr:postcode":"299-1115","addr:province":"千葉県","addr:quarter":"馬登","name":"カージの杜","name:ja":"カージの杜","phone":"+81-439-52-7734","source":"GSImaps/seamlessphoto;survey","website":"http://www.kaji-forest.com/"}},"1174841880":{"location":[35.325333,139.9821302],"ct":"JP","tp":"CR","ts":"2023-05-22T16:43:53Z","tX":910,"tY":404,"tags":{"area":"yes","name":"TINY HOUSE VILLAGE","name:en":"TINY HOUSE VILLAGE","name:ja":"タイニーハウスビレッジ","static_caravans":"yes","website":"https://kurkkufields.jp/stay/tinyhousevillage/"}},"5856864853":{"location":[35.1841585,140.009911],"ct":"JP","tp":"CS","ts":"2020-05-10T06:30:39Z","tX":910,"tY":404,"tags":{"name":"ロマンの森共和国オートキャンプ場","name:en":"Roman no Mori Auto Campground","name:ja":"ロマンの森共和国オートキャンプ場"}},"6357650786":{"location":[35.225606,140.0983476],"ct":"JP","tp":"CS","ts":"2019-03-24T08:58:19Z","tX":910,"tY":404,"tags":{"addr:city":"君津市","addr:neighbourhood":"866","addr:postcode":"292-0525","addr:province":"千葉県","addr:quarter":"草川原","name":"稲ヶ崎キャンプ場","phone":"0439-39-3390"}},"6616055487":{"location":[35.1755678,140.0174567],"ct":"JP","tp":"CS","ts":"2019-07-15T10:32:42Z","tX":910,"tY":404,"tags":{"addr:housenumber":"千葉県君津市豊英６６０","addr:postcode":"292-1179","name":"清和県民の森キャンプ場","name:en":"Seiwa-kenmin-no-mori-camping site","phone":"0439-38-2180","website":"http://www.chiba-forest.jp/seiwa/"}},"6616073285":{"location":[35.3907755,140.0696053],"ct":"JP","tp":"CS","ts":"2019-07-15T10:26:47Z","tX":910,"tY":404,"tags":{"addr:housenumber":"千葉県袖ケ浦市林５６２−１−３","addr:postcode":"299-0202","name":"森のまきばオートキャンプ場","name:en":"Mori-no-makiba-auto camping site","phone":"0438-75-2966"}},"8543868819":{"location":[35.4606579,140.2082284],"ct":"JP","tp":"CS","ts":"2022-02-28T15:01:02Z","tX":910,"tY":404,"tags":{"addr:housenumber":"長生郡長柄町山之郷２１−１","addr:postcode":"297-0231","name":"勝古沢キャンプ場受付","phone":"0475-35-3629"}},"12030176282":{"location":[35.2097165,140.2674217],"ct":"JP","tp":"CS","ts":"2024-07-03T01:17:20Z","tX":910,"tY":404,"tags":{"name":"勝浦ナチュラルスペースキャンプ"}},"5837724364":{"location":[35.1920559,140.137939],"ct":"JP","tp":"CR","ts":"2019-12-03T04:13:02Z","tX":910,"tY":404,"tags":{"addr:block_number":"2245","addr:city":"君津市","addr:housenumber":"16","addr:postcode":"292-0536","addr:province":"千葉県","addr:quarter":"黄和田畑","name":"千石台オートキャンプ場","phone":"0439-39-2743","source":"survey","website":"https://www.1059dai.com/"}},"6304035569":{"location":[35.244505,139.9996394],"ct":"JP","tp":"CR","ts":"2019-02-26T17:23:39Z","tX":910,"tY":404,"tags":{"addr:block_number":"542","addr:city":"君津市","addr:postcode":"292-1163","addr:province":"千葉県","addr:quarter":"東粟倉","name":"柿山田オートキャンプガーデン","phone":"0439-37-2217","source":"survey","website":"http://www.kakiyamada-autocamp.hello-net.info/"}},"6322939386":{"location":[35.2168439,140.1358185],"ct":"JP","tp":"CR","ts":"2019-03-07T12:36:48Z","tX":910,"tY":404,"tags":{"addr:block_number":"919","addr:city":"君津市","addr:housenumber":"2","addr:postcode":"292-0537","addr:province":"千葉県","addr:quarter":"黄和田畑","name":"RVパーク七里川","phone":"090-1033-1334","source":"survey","website":"http://rv-park.jp/park/98"}},"6348677253":{"location":[35.2018097,140.0193664],"ct":"JP","tp":"CR","ts":"2019-10-16T19:08:11Z","tX":910,"tY":404,"tags":{"addr:block_number":"96","addr:city":"君津市","addr:postcode":"292-1178","addr:province":"千葉県","addr:quarter":"旅名","name":"オートキャンプ・フルーツ村","phone":"0439-38-2255","source":"survey","website":"http://fruitsvillage.com/"}},"7027671837":{"location":[35.218533,140.1351219],"ct":"JP","tp":"CR","ts":"2019-12-03T04:13:02Z","tX":910,"tY":404,"tags":{"addr:block_number":"969","addr:city":"君津市","addr:housenumber":"1","addr:postcode":"292-0537","addr:province":"千葉県","addr:quarter":"黄和田畑","name":"オートキャンプ七里川","phone":"0439-39-3335","source":"survey","website":"https://www.city.kimitsu.lg.jp/site/kanko/10224.html"}}}