{"368519017":{"location":[45.9355795,-84.7503512],"ct":"US","tp":"CS","ts":"2022-01-07T18:39:48Z","tX":270,"tY":364,"tags":{"name":"Foley Creek Campground"}},"434584555":{"location":[45.855271,-84.7820852],"ct":"US","tp":"CR","ts":"2023-11-17T01:30:22Z","tX":270,"tY":364,"tags":{"addr:city":"Saint Ignace","addr:housenumber":"W1234","addr:postcode":"49781","addr:state":"MI","addr:street":"Pointe La Barbe Road","name":"Lakeshore Park Campground","website":"https://lakeshoreparkcampground.com/"}},"434584858":{"location":[45.8560265,-84.7722945],"ct":"US","tp":"CR","ts":"2019-02-18T06:22:32Z","tX":270,"tY":364,"tags":{"addr:city":"Saint Ignace","addr:housenumber":"W1118","addr:postcode":"49781","addr:state":"MI","addr:street":"US-2 West","name":"Saint Ignace/Mackinac Island KOA","website":"https://koa.com/campgrounds/st-ignace/"}},"435489118":{"location":[45.9098296,-84.7367828],"ct":"US","tp":"CR","ts":"2020-12-07T16:11:26Z","tX":270,"tY":364,"tags":{"addr:city":"St Ignace","addr:housenumber":"2811","addr:postcode":"49781","addr:state":"MI","addr:street":"Mackinac Trail","name":"Castle Rock Lakefront Mackinac Trail Campground","phone":"+1-906-643-9222"}},"893571000":{"location":[45.9821774,-84.9677971],"ct":"US","tp":"CS","ts":"2021-12-26T22:31:22Z","tX":270,"tY":364,"tags":{"access":"yes","capacity":"35","charge":"18","fee":"yes","gnis:feature_id":"1618914","name":"Lake Michigan Campground","phone":"+1-877-833-6777","website":"https://www.fs.usda.gov/recarea/hiawatha/recarea/?recid=13293"}},"893571002":{"location":[46.014864,-85.0084708],"ct":"US","tp":"CS","ts":"2023-11-17T01:30:31Z","tX":270,"tY":364,"tags":{"charge":"15","county":"Mackinac","fee":"yes","midnr:park_id":"692","name":"Little Brevort Lake-South State Forest Campground","operator":"Straits State Park","phone":"+1-906-643-8620","reservation":"no","website":"https://www.michigandnr.com/parksandtrails/Details.aspx?id=692&type=SFCG"}},"893571003":{"location":[46.0195983,-85.0171288],"ct":"US","tp":"CS","ts":"2021-01-09T01:19:02Z","tX":270,"tY":364,"tags":{"county":"Mackinac","midnr:park_id":"691","name":"Little Brevort Lake-North State Forest Campground"}},"938530297":{"location":[46.0099115,-84.9709511],"ct":"US","tp":"CS","ts":"2021-10-22T00:56:47Z","tX":270,"tY":364,"tags":{"access":"yes","gnis:feature_id":"1623040","name":"Brevoort Lake Campground","website":"https://www.fs.usda.gov/recarea/hiawatha/recarea/?recid=13292"}},"995433833":{"location":[46.0091946,-84.9782804],"ct":"US","tp":"CS","ts":"2021-10-22T00:56:47Z","tX":270,"tY":364,"tags":{"access":"yes","gnis:feature_id":"1623040","name":"Brevoort Lake Campground","website":"https://www.fs.usda.gov/recarea/hiawatha/recarea/?recid=13292"}},"1085329381":{"location":[45.8816046,-84.7287231],"ct":"US","tp":"CR","ts":"2022-08-10T11:55:37Z","tX":270,"tY":364,"tags":{"addr:city":"Saint Ignace","addr:country":"US","addr:housenumber":"200","addr:postcode":"49781","addr:state":"MI","addr:street":"South Airport Road","email":"tikicamp@yahoo.com","gnis:feature_id":"2359873","name":"Tiki RV Park & Campground","phone":"+1 906-643-7808","tents":"yes","website":"https://www.tikirvpark.com/"}},"2412121684":{"location":[46.0196313,-85.0168158],"ct":"US","tp":"CS","ts":"2023-11-17T01:30:14Z","tX":270,"tY":364,"tags":{"county":"Mackinac","midnr:park_id":"691","name":"Little Brevort Lake-North State Forest Campground","source":"Michigan DNR","website":"https://www.michigandnr.com/parksandtrails/Details.aspx?id=691&type=SFCG"}},"3723853832":{"location":[45.9861303,-84.9357674],"ct":"US","tp":"CS","ts":"2015-08-31T21:24:31Z","tX":270,"tY":364,"tags":{}}}