{"933927012":{"location":[44.3409279,-84.7961471],"ct":"US","tp":"CS","ts":"2023-03-15T21:44:53Z","tX":270,"tY":370,"tags":{"addr:city":"Houghton Lake","addr:housenumber":"9371","addr:postcode":"48629","addr:state":"MI","addr:street":"North Harrison Road","capacity:caravans":"128","email":"whlc2003@gmail.com","name":"West Houghton Lake Campground","phone":"+1-989-422-5130","website":"https://westhoughtonlakecampground.com/"}},"937917197":{"location":[44.3583263,-84.8582452],"ct":"US","tp":"CS","ts":"2022-08-16T19:11:11Z","tX":270,"tY":370,"tags":{"gnis:feature_id":"2501896","name":"Reedsburg Dam State Forest Campground","operator":"Michigan Department of Natural Resources","operator:wikidata":"Q6837532"}},"968531461":{"location":[44.4008724,-84.7722431],"ct":"US","tp":"CS","ts":"2021-07-29T16:25:17Z","tX":270,"tY":370,"tags":{"area":"yes","gnis:feature_id":"2508847","name":"Houghton Lake State Forest Campground"}},"1034591108":{"location":[44.4723664,-84.9704661],"ct":"US","tp":"CS","ts":"2022-07-18T23:35:22Z","tX":270,"tY":370,"tags":{"addr:city":"Lake City","addr:country":"US","addr:housenumber":"9446","addr:postcode":"49651","addr:street":"North Nelson Road","caravans":"no","email":"jln@rusticrafters.com","name":"Rustic Rafters Cabins & Camping","phone":"+1-231-229-4433","tents":"yes","website":"https://rusticrafters.com/"}},"2925511991":{"location":[44.5138889,-84.7530556],"ct":"US","tp":"CR","ts":"2024-08-13T16:49:30Z","tX":270,"tY":370,"tags":{"ele":"359","gnis:feature_id":"2508909","name":"North Higgins Lake State Park East Campground"}},"2925511992":{"location":[44.5137799,-84.764549],"ct":"US","tp":"CR","ts":"2024-08-13T16:49:30Z","tX":270,"tY":370,"tags":{"ele":"358","gnis:feature_id":"2508908","name":"North Higgins Lake State Park West Campground"}},"9530588932":{"location":[44.3406195,-84.7982453],"ct":"US","tp":"SD","ts":"2022-02-23T18:09:29Z","tX":270,"tY":370,"tags":{}},"11994255860":{"location":[44.5135421,-84.7579487],"ct":"US","tp":"SD","ts":"2024-06-20T12:52:35Z","tX":270,"tY":370,"tags":{}}}