{"375159387":{"location":[43.8765767,-85.0753298],"ct":"US","tp":"CR","ts":"2021-07-12T17:47:58Z","tX":270,"tY":372,"tags":{}},"375159396":{"location":[43.9531807,-84.9926114],"ct":"US","tp":"CR","ts":"2019-02-18T10:33:58Z","tX":270,"tY":372,"tags":{"access":"private","addr:city":"Lake","addr:housenumber":"2221","addr:postcode":"48632","addr:street":"Grass Lake Avenue","name":"Sandy Shores Resort","phone":"+1 989 588 3101","website":"https://www.sandyshoresresort.org/"}},"928296088":{"location":[44.0204788,-84.814419],"ct":"US","tp":"CR","ts":"2021-04-09T13:27:18Z","tX":270,"tY":372,"tags":{"addr:city":"Harrison","addr:housenumber":"805","addr:postcode":"48625","addr:state":"MI","addr:street":"Byfield Drive","gnis:feature_id":"2516550","name":"Countryside Campgrounds","phone":"+1-989-539-5468","tents":"yes","website":"https://www.countrysidecampgroundandcabins.com/"}},"928296092":{"location":[44.0281772,-84.8145977],"ct":"US","tp":"CR","ts":"2021-04-09T13:27:18Z","tX":270,"tY":372,"tags":{"addr:city":"Harrison","addr:housenumber":"418","addr:postcode":"48625","addr:street":"Fairlane Street","group_only":"yes","name":"Clare County Fairground Campground"}},"928296094":{"location":[43.9935819,-84.782077],"ct":"US","tp":"CR","ts":"2022-10-19T20:40:46Z","tX":270,"tY":372,"tags":{"addr:city":"Harrison","addr:housenumber":"300","addr:postcode":"48625","addr:state":"MI","addr:street":"North Clare Avenue","gnis:feature_id":"2516556","name":"Hidden Hill Family Campground","phone":"+1-989-539-9372","tents":"yes","website":"https://www.hiddenhillcampground.com/"}},"1099639441":{"location":[43.9486465,-84.7553893],"ct":"US","tp":"CS","ts":"2024-07-09T14:41:15Z","tX":270,"tY":372,"tags":{"access":"permit","addr:city":"Clare","addr:housenumber":"3701","addr:postcode":"48617","addr:state":"MI","addr:street":"S Clare Ave","name":"Camp Rotary","operator":"Michigan Crossroads Council","phone":"+1-989-386-7943","website":"https://www.michiganscouting.org/Camping/CampRotary"}},"1099742969":{"location":[43.942916,-84.758585],"ct":"US","tp":"CS","ts":"2022-10-01T22:19:21Z","tX":270,"tY":372,"tags":{"description":"Large poles in the ground give you somewhere to hang your hammocks.","name":"Hammock Village"}},"1288137434":{"location":[44.0340628,-84.8118966],"ct":"US","tp":"CR","ts":"2024-05-30T18:39:43Z","tX":270,"tY":372,"tags":{"addr:city":"Harrison","addr:housenumber":"1820","addr:postcode":"48625","addr:state":"MI","addr:street":"Hampton Road","name":"Harrison RV Family Campground"}},"1305077819":{"location":[44.0718003,-84.7859025],"ct":"US","tp":"CR","ts":"2024-08-01T15:28:36Z","tX":270,"tY":372,"tags":{"name":"Oak Ridge Resort"}},"2934612181":{"location":[43.8457479,-85.0330699],"ct":"US","tp":"CS","ts":"2022-06-22T12:18:27Z","tX":270,"tY":372,"tags":{"addr:city":"Lake","addr:housenumber":"2052","addr:postcode":"48632","addr:state":"MI","addr:street":"Hillcrest Road","gnis:feature_id":"622612","group_only":"yes","name":"Camp Neyati","phone":"+1-989-544-2955","website":"https://www.campneyati.org/"}},"2934612182":{"location":[44.0343092,-84.7935985],"ct":"US","tp":"CS","ts":"2022-06-22T12:18:27Z","tX":270,"tY":372,"tags":{"addr:city":"Harrison","addr:housenumber":"2651","addr:postcode":"48625","addr:street":"East Townline Lake Road","gnis:feature_id":"622616","group_only":"yes","name":"Camp Oak Hill","website":"https://www.gshom.org/rentals/clare.html"}},"2934612185":{"location":[44.0268447,-84.7298654],"ct":"US","tp":"CR","ts":"2020-12-12T18:33:01Z","tX":270,"tY":372,"tags":{"addr:city":"Harrison","addr:housenumber":"5916","addr:postcode":"48625","addr:state":"MI","addr:street":"Cedar Shores Drive","gnis:feature_id":"2516549","name":"Cedar Shores Campground","phone":"+1-989-539-2051","website":"https://www.cedarshores.org/"}},"2934612197":{"location":[43.9595614,-84.9278806],"ct":"US","tp":"CR","ts":"2020-12-10T05:25:07Z","tX":270,"tY":372,"tags":{"addr:city":"Harrison","addr:housenumber":"1935","addr:postcode":"48625","addr:state":"MI","addr:street":"South Jackson Avenue","gnis:feature_id":"2516548","name":"Lake George Campground","phone":"+1-989-588-4075","tents":"yes","website":"https://www.lakegeorgecamp.com/"}},"2934612200":{"location":[43.9183184,-85.0324499],"ct":"US","tp":"CS","ts":"2023-10-29T03:14:06Z","tX":270,"tY":372,"tags":{"addr:city":"Lake","addr:housenumber":"4930","addr:postcode":"48632","addr:street":"Lake Station Avenue","alt_name":"Lost Lake Scout Reservation","gnis:feature_id":"2106917","group_only":"yes","name":"Lost Lake Camp","website":"https://glcscouting.org/camping/llsr/index.html"}},"2936088135":{"location":[44.0372665,-85.0328127],"ct":"US","tp":"CR","ts":"2023-10-29T03:05:47Z","tX":270,"tY":372,"tags":{"addr:city":"Harrison","addr:housenumber":"501","addr:postcode":"48625","addr:state":"MI","addr:street":"South 1st Street","name":"Duggan's Canoe Livery & Campground","phone":"+1-989-539-7149","tents":"yes","website":"https://www.dugganscanoes.com/"}},"2945062668":{"location":[44.0274414,-84.8030067],"ct":"US","tp":"CR","ts":"2021-05-07T23:56:52Z","tX":270,"tY":372,"tags":{"name":"Wilson-Modern"}},"4148026888":{"location":[43.8369106,-85.0612269],"ct":"US","tp":"CS","ts":"2016-04-26T00:40:53Z","tX":270,"tY":372,"tags":{}},"8711033635":{"location":[44.026109,-84.8019245],"ct":"US","tp":"CS","ts":"2021-05-07T23:56:52Z","tX":270,"tY":372,"tags":{"name":"Organizational Campground"}},"8711033634":{"location":[44.0304308,-84.8057789],"ct":"US","tp":"CR","ts":"2021-05-07T23:56:52Z","tX":270,"tY":372,"tags":{"name":"Wilson-Modern"}}}