{"130168707":{"location":[43.2830412,-84.7747318],"ct":"US","tp":"CR","ts":"2021-06-28T21:31:22Z","tX":270,"tY":375,"tags":{"addr:city":"Sumner","addr:housenumber":"505","addr:postcode":"48889","addr:state":"MI","addr:street":"South Warner Road","gnis:feature_id":"2562057","name":"Leisure Lake Family Campground","phone":"+1-989-875-4689","tents":"yes","website":"http://www.leisurelakefamilycampground.com"}},"839523767":{"location":[43.1328283,-85.05904],"ct":"US","tp":"CR","ts":"2022-08-31T19:45:38Z","tX":270,"tY":375,"tags":{"addr:city":"Fenwick","addr:housenumber":"644","addr:postcode":"48834","addr:state":"MI","addr:street":"Snows Lake Road","cabins":"yes","caravans":"yes","gnis:feature_id":"2561682","internet_access":"wlan","internet_access:fee":"customers","name":"Snow Lake Kampground","phone":"+1 989-248-3224","power_supply":"yes","sanitary_dump_station":"yes","static_caravans":"yes","tents":"yes","website":"https://snowlakekampground.com/"}},"1192945639":{"location":[43.2957515,-84.7753484],"ct":"US","tp":"CS","ts":"2023-07-28T13:47:10Z","tX":270,"tY":375,"tags":{"access":"yes","name":"Paul Hubscher Park Campground","operator":"Gratiot County"}},"1231138630":{"location":[43.0885868,-85.0700904],"ct":"US","tp":"CR","ts":"2024-06-07T17:56:14Z","tX":270,"tY":375,"tags":{"addr:housenumber":"6800","addr:street":"North State Road","description":"Men-only","name":"Camp Boomerang","website":"https://michigangaycamping.com/"}},"2936088157":{"location":[43.2043241,-84.8489234],"ct":"US","tp":"CR","ts":"2022-07-20T01:42:07Z","tX":270,"tY":375,"tags":{"addr:city":"Carson City","addr:housenumber":"11283","addr:postcode":"48811","addr:state":"MI","addr:street":"East Condensery Road","gnis:feature_id":"2561829","name":"Oak Grove Campground","opening_hours":"Apr-Oct: Mo-Su 10:00-17:00","phone":"+1-989-584-3031","website":"http://www.redpinescampground.com/"}},"2936088160":{"location":[43.2558973,-84.9236273],"ct":"US","tp":"CR","ts":"2020-12-08T03:48:12Z","tX":270,"tY":375,"tags":{"addr:city":"Crystal","addr:housenumber":"2850","addr:postcode":"48818","addr:state":"MI","addr:street":"South Shore Drive","gnis:feature_id":"2561755","name":"South Shore Campground","phone":"+1-989-235-4222","website":"http://www.southshore-campground.com/"}},"7835292556":{"location":[43.1330608,-85.0593202],"ct":"US","tp":"SD","ts":"2020-08-22T15:33:45Z","tX":270,"tY":375,"tags":{"access":"customers","water_point":"yes"}}}