{"103900048":{"location":[38.8531003,-85.040577],"ct":"US","tp":"CS","ts":"2024-05-24T08:47:01Z","tX":270,"tY":391,"tags":{"ele":"266","gnis:feature_id":"445965","name":"White Water Camp"}},"1194863347":{"location":[38.9763125,-84.8337322],"ct":"US","tp":"CR","ts":"2023-08-04T21:09:09Z","tX":270,"tY":391,"tags":{"brand":"Beyonder","name":"Beyonder Getaway Rising Sun","old_name":"Little Farm on the River","website":"https://beyondercamp.com/rising-sun-rising-sun-in/"}},"3468180187":{"location":[38.8814482,-84.7445103],"ct":"US","tp":"CS","ts":"2020-01-02T23:49:27Z","tX":270,"tY":391,"tags":{"addr:city":"Union","addr:housenumber":"3380","addr:postcode":"41091","addr:state":"KY","addr:street":"Beaver Road","alt_name":"Big Bone Lick State Park","name":"Big Bone Lick State Historic Site","phone":"+1-859-384-3522"}},"12149838068":{"location":[38.8439613,-84.7886964],"ct":"US","tp":"CS","ts":"2024-09-01T14:20:47Z","tX":270,"tY":391,"tags":{"name":"Campsite 7"}},"12149928016":{"location":[38.8448639,-84.7897094],"ct":"US","tp":"CS","ts":"2024-09-02T18:28:37Z","tX":270,"tY":391,"tags":{"name":"Campsite 6"}},"12149942333":{"location":[38.8469789,-84.7878858],"ct":"US","tp":"CS","ts":"2024-09-02T00:50:25Z","tX":270,"tY":391,"tags":{"name":"Campsite 9"}}}