{"517708076":{"location":[36.5535501,-84.7983476],"ct":"US","tp":"CS","ts":"2019-02-09T12:34:51Z","tX":270,"tY":400,"tags":{"caravans":"yes","drinking_water":"yes","fee":"yes","name":"Pickett State Park Campground","official_name":"Pickett CCC Memorial State Park Campground","power_supply":"yes","tents":"yes","website":"https://tnstateparks.com/parks/campground/pickett"}},"597784523":{"location":[36.476325,-84.767063],"ct":"US","tp":"CS","ts":"2019-05-12T16:06:32Z","tX":270,"tY":400,"tags":{"addr:city":"Jamestown","addr:housenumber":"3341","addr:postcode":"38556","addr:state":"TN","addr:street":"Leatherwood Ford Road","internet_access":"wlan","name":"True West Campground"}},"604080354":{"location":[36.4849846,-84.7821213],"ct":"US","tp":"CS","ts":"2021-12-20T04:30:57Z","tX":270,"tY":400,"tags":{}},"604080565":{"location":[36.4806312,-84.764252],"ct":"US","tp":"CS","ts":"2022-03-10T17:42:59Z","tX":270,"tY":400,"tags":{}},"604082352":{"location":[36.4555667,-84.8359117],"ct":"US","tp":"CS","ts":"2018-07-02T00:33:10Z","tX":270,"tY":400,"tags":{}},"781555982":{"location":[36.5224512,-84.8136368],"ct":"US","tp":"CS","ts":"2022-04-21T03:13:33Z","tX":270,"tY":400,"tags":{"addr:city":"Jamestown","addr:housenumber":"4020","addr:postcode":"38556","addr:state":"TN","addr:street":"Pickett Park Highway","name":"Black House Mountain ATV Campground"}},"781557388":{"location":[36.4942502,-84.8444399],"ct":"US","tp":"CS","ts":"2020-03-15T14:57:03Z","tX":270,"tY":400,"tags":{"name":"Laurel Creek Campground"}},"986917977":{"location":[36.4672776,-84.7996327],"ct":"US","tp":"CS","ts":"2023-06-04T15:31:35Z","tX":270,"tY":400,"tags":{"access":"customers","addr:city":"Jamestown","addr:housenumber":"1180","addr:postcode":"38556","addr:state":"TN","addr:street":"Spruce Creek Drive","name":"Buck Run Horse Campground LLC"}},"1052447710":{"location":[36.4771898,-84.7515214],"ct":"US","tp":"CS","ts":"2022-04-17T15:24:11Z","tX":270,"tY":400,"tags":{"name":"Big South Fork Lodge & Horse Campground"}},"1054939617":{"location":[36.4748705,-84.9491049],"ct":"US","tp":"CS","ts":"2022-04-26T00:08:05Z","tX":270,"tY":400,"tags":{"name":"Maple Hill RV Park & Cabins"}},"5452367650":{"location":[36.4852091,-84.7812801],"ct":"US","tp":"CS","ts":"2018-04-07T13:58:12Z","tX":270,"tY":400,"tags":{"addr:city":"Jamestown","addr:housenumber":"532","addr:postcode":"38556","addr:state":"TN","addr:street":"Evergreen Lane","fee":"yes","name":"Spruce Creek Stables & Campground"}},"5452368337":{"location":[36.480636,-84.7645829],"ct":"US","tp":"CS","ts":"2018-04-07T13:58:12Z","tX":270,"tY":400,"tags":{"addr:city":"jamestown","addr:housenumber":"350","addr:postcode":"38556","addr:state":"TN","addr:street":"Dewey Burk Road","fee":"yes","name":"Saddle Valley Campground"}},"5605723553":{"location":[36.4555361,-84.8352226],"ct":"US","tp":"CS","ts":"2020-10-31T16:23:02Z","tX":270,"tY":400,"tags":{"addr:city":"Jamestown","addr:housenumber":"1426","addr:postcode":"38556","addr:state":"TN","addr:street":"Darrow Ridge Road","fee":"yes","name":"Timber Ridge Horse Campground"}},"5617580243":{"location":[36.339871,-84.9542648],"ct":"US","tp":"CS","ts":"2020-10-31T16:23:02Z","tX":270,"tY":400,"tags":{"addr:city":"Jamestown","addr:housenumber":"3598","addr:postcode":"38556","addr:state":"TN","addr:street":"South York Highway","capacity":"200","fee":"yes","name":"East Fork Stables"}},"12269316707":{"location":[36.5352512,-84.7287227],"ct":"US","tp":"CS","ts":"2024-10-19T15:53:50Z","tX":270,"tY":400,"tags":{}},"5051588461":{"location":[36.5531768,-84.798467],"ct":"US","tp":"SD","ts":"2017-08-22T15:17:40Z","tX":270,"tY":400,"tags":{}}}