{"1086809211":{"location":[40.3363475,-78.2126177],"ct":"US","tp":"CS","ts":"2022-08-16T21:54:02Z","tX":289,"tY":386,"tags":{"addr:housenumber":"2016","addr:street":"Pioneer Family Lane","fee":"yes","name":"James Creek RV Resort By RJourney","phone":"+18146582267","website":"https://rjourney.com/locations/pa/james-creek/james-creek-rv-resort-llc/?utm_source=gmb&utm_medium=organic&utm_campaign=james-creek"}},"1180458344":{"location":[40.329703,-78.0846183],"ct":"US","tp":"CS","ts":"2024-08-21T11:38:02Z","tX":289,"tY":386,"tags":{"access":"permit","caravans":"yes","fee":"yes","name":"008 Tar Kiln Road","operator":"PA DCNR","static_caravans":"yes","tents":"yes"}},"1180464736":{"location":[40.3252725,-78.1273641],"ct":"US","tp":"CS","ts":"2023-06-08T15:01:18Z","tX":289,"tY":386,"tags":{"access":"permit","capacity:caravans":"29","capacity:tents":"29","caravans":"yes","name":"Trough Creek Campground","power_supply":"yes","shower":"no","static_caravans":"yes","tents":"yes","toilets":"yes"}},"1222648420":{"location":[40.2913999,-78.1874689],"ct":"US","tp":"CS","ts":"2023-11-11T01:53:19Z","tX":289,"tY":386,"tags":{"addr:city":"Entriken","addr:housenumber":"3101","addr:postcode":"16638","addr:state":"PA","addr:street":"Chipmunk Crossing","caravans":"yes","fee":"yes","name":"Lake Raystown Resort","tents":"yes"}},"1222648789":{"location":[40.2683481,-78.1194546],"ct":"US","tp":"CS","ts":"2023-11-11T02:02:48Z","tX":289,"tY":386,"tags":{"addr:housenumber":"6460","addr:street":"Old Plank Road","caravans":"yes","fee":"yes","name":"Newburg Family Campground"}},"1227708694":{"location":[40.4152888,-78.0845928],"ct":"US","tp":"CS","ts":"2023-11-30T21:10:32Z","tX":289,"tY":386,"tags":{"cabins":"yes","caravans":"yes","fee":"yes","name":"Pleasant Hills Campground","openfire":"yes","phone":"+18146583986","shower":"yes","tents":"yes","toilets":"yes","website":"https://phcampground.com/"}},"1227937250":{"location":[40.2544228,-78.1946535],"ct":"US","tp":"CS","ts":"2023-12-01T05:03:11Z","tX":289,"tY":386,"tags":{"cabins":"yes","caravans":"yes","fee":"yes","name":"Raystown Lake / Saxton KOA","openfire":"yes","phone":"+18144771005","power_supply":"yes","shower":"yes","tents":"yes","toilets":"yes","website":"https://koa.com/campgrounds/saxton/"}},"9957926664":{"location":[40.2930727,-78.1446263],"ct":"US","tp":"CS","ts":"2022-08-16T21:18:21Z","tX":289,"tY":386,"tags":{"fee":"yes","name":"Hemlock Hideaway Campground","website":"https://www.hemlockhidecamp.com/"}},"10019333087":{"location":[40.2712526,-78.2375535],"ct":"US","tp":"CR","ts":"2022-09-12T20:31:54Z","tX":289,"tY":386,"tags":{"addr:city":"James Creek","addr:housenumber":"17794","addr:postcode":"16657","addr:state":"PA","addr:street":"Ridge Top Dr","capacity:caravans":"60","description":"Raystown Ridge Camp is situated on top of a ridge that overlooks beautiful Appalachian Ridges near Raystown Lake. The property spans 84 acres while only holding 91 seasonal campsites. Each campsite was carefully placed to provide the most privacy and best","fee":"yes","name":"Raystown Ridge Camp","phone":"+18145693397","power_supply":"yes","reservation":"required","sanitary_dump_station":"yes","website":"https://raystownridge.com/"}},"10963760231":{"location":[40.312174,-78.1307869],"ct":"US","tp":"SD","ts":"2024-08-21T01:12:58Z","tX":289,"tY":386,"tags":{}}}