{"706242917":{"location":[39.6673486,-78.0780769],"ct":"US","tp":"CS","ts":"2025-04-16T18:29:28Z","tX":289,"tY":388,"tags":{"access":"private","backcountry":"no","caravans":"yes","contact:facebook":"sleepycreekcampgroundWV","contact:twitter":"SleepyCreekWV","group_only":"no","name":"Sleepy Creek Campground","sanitary_dump_station":"customers","tents":"yes","website":"https://sleepycreek.wixsite.com/campground"}},"744556101":{"location":[39.6577336,-78.2432951],"ct":"US","tp":"CS","ts":"2024-06-24T18:44:48Z","tX":289,"tY":388,"tags":{"addr:city":"Hancock","addr:housenumber":"12617","addr:postcode":"21750","addr:state":"MD","addr:street":"Seavolt Road","cabins":"yes","caravans":"yes","email":"Happyhillscampground@yahoo.com","fax":"+1-301-678-7792","name":"Happy Hills Campground","phone":"+1-301-678-7760","tents":"yes","website":"https://www.happyhillscampground-md.net/"}},"1060279182":{"location":[39.6848197,-78.1130051],"ct":"US","tp":"CS","ts":"2022-05-15T15:50:49Z","tX":289,"tY":388,"tags":{"backcountry":"yes","caravans":"no","group_only":"no","internet_access":"no","name":"Little Pool Hiker Biker Campsite","operator":"National Park Service","reservation":"no","shower":"no","tents":"yes","website":"https://www.nps.gov/choh/planyourvisit/camping.htm"}},"1060286372":{"location":[39.6501716,-78.0484024],"ct":"US","tp":"CS","ts":"2022-05-15T16:23:38Z","tX":289,"tY":388,"tags":{"backcountry":"yes","caravans":"no","group_only":"no","name":"Licking Creek Campsite","operator":"National Park Service","reservation":"no","tents":"yes","website":"https://www.nps.gov/choh/planyourvisit/camping.htm"}},"1066274050":{"location":[39.6397239,-78.3049478],"ct":"US","tp":"CS","ts":"2022-06-02T23:35:36Z","tX":289,"tY":388,"tags":{"name":"Camp Cleveland","operator":"Maryland Department of Natural Resources"}},"5902856517":{"location":[39.6562135,-78.3776701],"ct":"US","tp":"CS","ts":"2018-09-12T23:13:19Z","tX":289,"tY":388,"tags":{}},"5902856518":{"location":[39.6563621,-78.3828149],"ct":"US","tp":"CS","ts":"2018-09-12T23:13:19Z","tX":289,"tY":388,"tags":{}},"5902856519":{"location":[39.6552499,-78.3858714],"ct":"US","tp":"CS","ts":"2018-09-12T23:13:19Z","tX":289,"tY":388,"tags":{}},"9251881914":{"location":[39.6779245,-78.2101947],"ct":"US","tp":"CS","ts":"2021-11-15T03:33:43Z","tX":289,"tY":388,"tags":{"backcountry":"yes","drinking_water":"yes","name":"White Rock Hiker Biker Campsite","toilets":"yes","website":"https://www.canaltrust.org/pyv/white-rock-campground/"}}}