{"158575999":{"location":[36.5482911,-78.3420109],"ct":"US","tp":"CS","ts":"2023-08-24T02:26:34Z","tX":289,"tY":400,"tags":{"ele":"94","gnis:feature_id":"1500790","name":"Presbyterian Point"}},"3201052545":{"location":[36.5892978,-78.3105051],"ct":"US","tp":"SD","ts":"2015-03-28T04:51:26Z","tX":289,"tY":400,"tags":{"fee":"no"}},"3201052871":{"location":[36.5869203,-78.3082554],"ct":"US","tp":"CS","ts":"2014-11-23T05:59:00Z","tX":289,"tY":400,"tags":{"name":"Host Sites"}},"3201052927":{"location":[36.5846169,-78.3070466],"ct":"US","tp":"CS","ts":"2014-11-23T05:59:01Z","tX":289,"tY":400,"tags":{"name":"Camping Area A"}},"3201063035":{"location":[36.5887407,-78.3188622],"ct":"US","tp":"SD","ts":"2015-04-11T05:24:50Z","tX":289,"tY":400,"tags":{"sanitary_dump_station:round_drain":"yes"}},"3201063055":{"location":[36.5881236,-78.3193674],"ct":"US","tp":"CS","ts":"2014-11-23T06:17:34Z","tX":289,"tY":400,"tags":{"name":"Camping Area B"}},"3201063241":{"location":[36.5877058,-78.3265243],"ct":"US","tp":"CS","ts":"2014-11-23T06:17:36Z","tX":289,"tY":400,"tags":{"name":"Camping Area C"}},"3201067350":{"location":[36.5900924,-78.3352054],"ct":"US","tp":"CS","ts":"2014-11-23T06:22:05Z","tX":289,"tY":400,"tags":{"name":"Camping Area D"}},"4310240584":{"location":[36.4067577,-78.3981199],"ct":"US","tp":"CS","ts":"2016-07-19T03:19:08Z","tX":289,"tY":400,"tags":{}},"4310240678":{"location":[36.4135876,-78.3941395],"ct":"US","tp":"CS","ts":"2016-07-19T03:19:09Z","tX":289,"tY":400,"tags":{}},"4311762488":{"location":[36.5364319,-78.3112255],"ct":"US","tp":"CS","ts":"2016-07-19T19:42:13Z","tX":289,"tY":400,"tags":{}},"8855502222":{"location":[36.5233077,-78.3631755],"ct":"US","tp":"CS","ts":"2021-10-05T14:10:03Z","tX":289,"tY":400,"tags":{"access":"private","fee":"no","name":"UNC-CH Campground","operator":"University of NC Chapel Hill"}},"9939367090":{"location":[36.4329244,-78.3732117],"ct":"US","tp":"CS","ts":"2022-08-08T13:30:59Z","tX":289,"tY":400,"tags":{"addr:city":"Henderson","addr:postcode":"27537","addr:state":"NC","name":"J C Cooper Campground"}},"10291434526":{"location":[36.5050973,-78.3755078],"ct":"US","tp":"CS","ts":"2022-12-28T13:55:45Z","tX":289,"tY":400,"tags":{"addr:city":"Henderson","addr:housenumber":"2041","addr:postcode":"27537","addr:state":"NC","addr:street":"Hibernia Road","name":"Kerr Lake State Recreation Area"}},"10291434527":{"location":[36.5017987,-78.3722986],"ct":"US","tp":"CS","ts":"2022-12-28T13:55:45Z","tX":289,"tY":400,"tags":{"addr:city":"Henderson","addr:postcode":"27537","addr:state":"NC","name":"Kerr Lake State Park, Hibernia Group Area"}},"10291434528":{"location":[36.4775895,-78.3949907],"ct":"US","tp":"CS","ts":"2022-12-28T13:55:45Z","tX":289,"tY":400,"tags":{"addr:city":"Henderson","addr:housenumber":"1616","addr:postcode":"27537","addr:state":"NC","addr:street":"Townsville Landing Road","name":"Steele Creek Marina & Campground"}},"10291434529":{"location":[36.5142119,-78.3704956],"ct":"US","tp":"CS","ts":"2022-12-28T13:55:45Z","tX":289,"tY":400,"tags":{"addr:city":"Henderson","addr:postcode":"27537","addr:state":"NC","name":"Hibernia Campground - Area 2"}}}