{"219843473":{"location":[35.345581,-78.2636975],"ct":"US","tp":"CS","ts":"2015-07-13T20:16:23Z","tX":289,"tY":404,"tags":{"ref":"staff"}},"219843474":{"location":[35.3468574,-78.2632947],"ct":"US","tp":"CS","ts":"2013-05-14T19:01:13Z","tX":289,"tY":404,"tags":{"ref":"1"}},"219843475":{"location":[35.3411156,-78.2608021],"ct":"US","tp":"CS","ts":"2013-05-14T19:01:13Z","tX":289,"tY":404,"tags":{"ref":"11"}},"219843476":{"location":[35.341185,-78.2616805],"ct":"US","tp":"CS","ts":"2013-05-14T19:01:13Z","tX":289,"tY":404,"tags":{"ref":"12"}},"219843477":{"location":[35.3431445,-78.2593872],"ct":"US","tp":"CS","ts":"2013-05-14T19:01:13Z","tX":289,"tY":404,"tags":{"ref":"6"}},"703139193":{"location":[35.4515419,-78.3846721],"ct":"US","tp":"CS","ts":"2019-07-10T15:33:47Z","tX":289,"tY":404,"tags":{"name":"Raleigh Oaks RV Resort & Cottages"}},"10852812945":{"location":[35.2416024,-78.3957208],"ct":"US","tp":"CS","ts":"2023-04-28T14:27:55Z","tX":289,"tY":404,"tags":{"addr:city":"Dunn","addr:housenumber":"699","addr:postcode":"28334","addr:state":"NC","addr:street":"Trinity Lane","name":"Taste Of Heaven Campground","phone":"+19108904472"}}}