{"1306478597":{"location":[0.2768678,-78.3125746],"ct":"EC","tp":"CS","ts":"2025-05-29T21:08:08Z","tX":289,"tY":511,"tags":{"caravans":"yes","contact:facebook":"https://www.facebook.com/profile.php?id=100066800081135","email":"info@turismoaccesibleec.org","group_only":"no","internet_access":"wlan","internet_access:fee":"no","mobile":"593992733765","name":"Casa de Acogida y Recreación Inclusiva","nudism":"no","opening_hours":"Mo-Su 10:00-21:00","operator":"Red de Turismo Accesible Ecuador-REDTAEC Cía. Ltda.","payment:coins":"no","payment:contactless":"yes","payment:credit_cards":"yes","payment:cryptocurrencies":"yes","payment:debit_cards":"yes","payment:notes":"no","reservation":"required","stars":"3","tents":"yes","website":"https://www.turismoaccesibleec.org/","wheelchair":"yes"}},"1859499670":{"location":[0.196807,-78.2859235],"ct":"EC","tp":"CS","ts":"2025-06-14T10:53:18Z","tX":289,"tY":511,"tags":{"addr:city":"Otavalo","addr:country":"EC","bar":"yes","big_rigs":"yes","camp_type":"established","caravans":"yes","description":"Hostal with camping facilities, about 5 km from Otavalo (taxi USD 4). Beautiful location. Hot showers, kitchen, wifi, general room with wood fire, 110V. Fee includes breakfast. Steep access road, hard to find a horizontal place.","dish_washing":"no","dryer":"no","fee":"USD 16 (2 adults, camper)","fenced":"protecting","general_room":"yes","internet":"wifi","kitchen":"yes","laundry":"yes","name":"Hostal La Luna","payment:credit_cards":"no","pets":"yes","picnic_benches":"no","power_supply":"yes","power_supply:voltage":"110","restaurant":"yes","sanitary_dumpstation":"no","shop":"no","shower":"hot","source":"survey","swimming_pool":"no","tents":"yes","toilets:disposal":"flush","toilets:position":"seated","washing_machine":"no","water:location":"central","water:quality":"non_potable"}},"4475127602":{"location":[0.2414438,-78.2406247],"ct":"EC","tp":"CS","ts":"2023-04-23T02:04:55Z","tX":289,"tY":511,"tags":{"addr:street":"High Trail to Cascada de Peguche","caravans":"no","drinking_water":"no","name":"camping talanquera","shower":"no","tents":"yes"}},"4498925690":{"location":[0.1343903,-78.2602895],"ct":"EC","tp":"CS","ts":"2016-11-13T19:37:48Z","tX":289,"tY":511,"tags":{}},"4643062516":{"location":[0.003972,-78.1736255],"ct":"EC","tp":"CS","ts":"2020-09-28T20:37:03Z","tX":289,"tY":511,"tags":{"internet_access":"wlan","name":"Camping Mitad del Mundo","opening_hours":"24/7","operator":"Valentin Coyaguillo","phone":"0987690433"}},"4796716221":{"location":[0.124816,-78.2515858],"ct":"EC","tp":"CS","ts":"2017-04-16T15:49:10Z","tX":289,"tY":511,"tags":{"name":"Laguna negra","name:en":"Black Lake","name:es":"Laguna negra"}},"4874968221":{"location":[0.2333638,-78.1339891],"ct":"EC","tp":"CS","ts":"2017-05-24T22:34:38Z","tX":289,"tY":511,"tags":{"name":"camping","name:es":"camping"}},"4874968222":{"location":[0.1401069,-78.2777531],"ct":"EC","tp":"CS","ts":"2017-05-24T22:34:39Z","tX":289,"tY":511,"tags":{"name":"camping","name:es":"camping"}},"5536642732":{"location":[0.0110431,-78.1398066],"ct":"EC","tp":"CS","ts":"2018-04-07T21:20:47Z","tX":289,"tY":511,"tags":{"name":"Planta Pisicola La Moderna","name:en":"Planta Pisicola La Moderna","name:es":"Planta Pisicola La Moderna"}},"5646686123":{"location":[0.2185962,-78.0520735],"ct":"EC","tp":"CS","ts":"2018-05-28T02:08:53Z","tX":289,"tY":511,"tags":{"name":"Paramo, corrales"}},"5718666222":{"location":[0.3032735,-78.378965],"ct":"EC","tp":"CS","ts":"2018-06-25T21:58:46Z","tX":289,"tY":511,"tags":{"name":"Spot de camping"}},"6051782085":{"location":[0.0170835,-78.2847659],"ct":"EC","tp":"CS","ts":"2018-11-10T22:24:44Z","tX":289,"tY":511,"tags":{"addr:street":"Via Guayllabamba Tabacundo","name":"CANTERA MINA SEVILLA"}},"6312998892":{"location":[0.0273277,-78.1548812],"ct":"EC","tp":"CS","ts":"2023-10-05T15:04:54Z","tX":289,"tY":511,"tags":{"name":"Barrio 4 de Junio","name:es":"Barrio 4 de Junio"}},"6312998893":{"location":[0.0314083,-78.1530044],"ct":"EC","tp":"CS","ts":"2019-03-02T19:33:22Z","tX":289,"tY":511,"tags":{"name":"Barrio Maria Teresa Andrade","name:en":"Barrio Naria Teresa Andrade","name:es":"Barrio Maria Teresa Andrade"}},"6313026603":{"location":[0.0280565,-78.1519623],"ct":"EC","tp":"CS","ts":"2019-03-02T19:33:18Z","tX":289,"tY":511,"tags":{"name":"Barrio Miraflores del Yasnan","name:en":"Barrio Miraflores del Yasnan","name:es":"Barrio Miraflores del Yasnan"}},"6313035789":{"location":[0.0293761,-78.1564413],"ct":"EC","tp":"CS","ts":"2019-03-02T19:33:11Z","tX":289,"tY":511,"tags":{"name":"Barrio Francisco Jarrin","name:es":"Barrio Francisco Jarrin"}},"6313035790":{"location":[0.0281128,-78.1578322],"ct":"EC","tp":"CS","ts":"2019-03-02T19:33:13Z","tX":289,"tY":511,"tags":{"name":"Barrio Jesús de Nazareth","name:en":"Barrio Jesús de Nazareth","name:es":"Barrio Jesús de Nazareth"}},"6313035791":{"location":[0.0296435,-78.1512204],"ct":"EC","tp":"CS","ts":"2024-01-31T21:13:43Z","tX":289,"tY":511,"tags":{"name":"Barrio Jardines del Yasnan","name:en":"Family Gardens Neighborhood","name:es":"Barrio Jardines del Yasnan"}},"8169279717":{"location":[0.0322632,-78.1519081],"ct":"EC","tp":"CS","ts":"2020-11-27T02:58:15Z","tX":289,"tY":511,"tags":{"name":"Barrio Nuevo Amanecer"}},"8169279817":{"location":[0.0268092,-78.1592021],"ct":"EC","tp":"CS","ts":"2020-11-27T02:58:16Z","tX":289,"tY":511,"tags":{"name":"Barrio Valle del Sur"}},"8169283217":{"location":[0.0301955,-78.1535025],"ct":"EC","tp":"CS","ts":"2020-11-27T03:01:37Z","tX":289,"tY":511,"tags":{"name":"Barrio valle Miraflores Alto","name:en":"Barrio Valle Miraflores Alto"}},"11302735382":{"location":[0.2972558,-78.3764179],"ct":"EC","tp":"CS","ts":"2023-10-31T15:42:26Z","tX":289,"tY":511,"tags":{"name":"Ukshapungo"}},"12360017701":{"location":[0.3092384,-78.1218797],"ct":"EC","tp":"CS","ts":"2024-11-20T20:50:41Z","tX":289,"tY":511,"tags":{"addr:housenumber":"354","addr:street":"Huancabilcas","email":"milenasaaalban@gmail.com","name":"minur"}},"12547938503":{"location":[0.3027784,-78.3784725],"ct":"EC","tp":"CS","ts":"2025-02-01T00:48:51Z","tX":289,"tY":511,"tags":{"name:en":"Free camping spot (check before weather and wind!)"}}}