{"733997788":{"location":[32.6204387,-98.1059598],"ct":"US","tp":"CR","ts":"2024-03-28T05:02:20Z","tX":232,"tY":413,"tags":{"addr:city":"Santo","addr:housenumber":"13429","addr:postcode":"76472","addr:state":"TX","addr:street":"South US Highway 281","name":"Coffee Creek RV Resort and Cabins"}},"1351961997":{"location":[32.7422518,-98.1056659],"ct":"US","tp":"CR","ts":"2025-01-17T00:25:10Z","tX":232,"tY":413,"tags":{"addr:city":"Mineral Wells","addr:housenumber":"4586","addr:postcode":"76067","addr:state":"TX","addr:street":"South United States Highway 281","name":"Texas Star RV Resort","source":"esri/USA_NAD_Addresses"}},"12137740114":{"location":[32.8178975,-98.3271472],"ct":"US","tp":"CS","ts":"2024-08-26T13:25:16Z","tX":232,"tY":413,"tags":{"access":"private","name":"Staff Hill","operator":"Worth Ranch","tents":"yes"}},"12137740115":{"location":[32.8177995,-98.3250175],"ct":"US","tp":"CS","ts":"2024-08-26T13:25:16Z","tX":232,"tY":413,"tags":{"access":"private","name":"Todd","operator":"Worth Ranch","tents":"yes"}}}