{"641959133":{"location":[32.2003121,-98.1830023],"ct":"US","tp":"CR","ts":"2022-02-02T20:43:03Z","tX":232,"tY":415,"tags":{"addr:city":"Stephenville","addr:housenumber":"1962","addr:postcode":"76401","addr:state":"TX","addr:street":"South US Highway 281","name":"Lost Creek RV Park"}},"1028751164":{"location":[32.2383257,-98.1661359],"ct":"US","tp":"CR","ts":"2022-02-06T20:18:41Z","tX":232,"tY":415,"tags":{"addr:city":"Stephenville","addr:housenumber":"154","addr:postcode":"76401","addr:state":"TX","addr:street":"Private Road 1329","name":"Shady Oaks Mobile Home Park"}},"1340833521":{"location":[32.2357666,-98.1709589],"ct":"US","tp":"CR","ts":"2024-12-07T18:33:02Z","tX":232,"tY":415,"tags":{"addr:city":"Stephenville","addr:housenumber":"3673","addr:postcode":"76401","addr:state":"TX","addr:street":"East South Loop","name":"Green Deer RV Park","phone":"+1 (254) 977-4590","website":"https://www.greendeerrvpark.com/"}},"1340833522":{"location":[32.2296275,-98.2619025],"ct":"US","tp":"CR","ts":"2024-12-07T18:33:02Z","tX":232,"tY":415,"tags":{}},"1340833523":{"location":[32.2282284,-98.2873994],"ct":"US","tp":"CR","ts":"2024-12-07T18:33:02Z","tX":232,"tY":415,"tags":{}},"12270984764":{"location":[32.2035655,-98.1829271],"ct":"US","tp":"CR","ts":"2024-10-20T13:18:15Z","tX":232,"tY":415,"tags":{}}}