{"581364752":{"location":[30.7989763,-98.2405028],"ct":"US","tp":"CR","ts":"2021-11-21T23:43:48Z","tX":232,"tY":419,"tags":{"addr:city":"Burnet","addr:housenumber":"3600","addr:postcode":"78611","addr:state":"TX","addr:street":"North US Highway 281","name":"Ash Creek Village"}},"1005078164":{"location":[30.9097007,-98.2391294],"ct":"US","tp":"CR","ts":"2021-11-21T23:43:48Z","tX":232,"tY":419,"tags":{"addr:city":"Lampasas","addr:housenumber":"10280","addr:postcode":"76550","addr:state":"TX","addr:street":"South US Highway 281","name":"Bent Tree RV Ranch"}},"1223822873":{"location":[30.7667715,-98.4057289],"ct":"US","tp":"CS","ts":"2023-11-15T15:50:12Z","tX":232,"tY":419,"tags":{"name":"Lake Buchanan RV Resort","old_name":"Big Chief RV Resort"}},"5650189632":{"location":[30.800381,-98.3337268],"ct":"US","tp":"CS","ts":"2018-05-29T19:14:13Z","tX":232,"tY":419,"tags":{"addr:city":"Burnet","addr:housenumber":"105","addr:postcode":"78611","addr:state":"TX","addr:street":"CR 114","name":"Reveille Peak Ranch"}}}