{"78576362":{"location":[29.4335472,-98.4222621],"ct":"US","tp":"CR","ts":"2025-06-03T16:35:00Z","tX":232,"tY":424,"tags":{"addr:city":"San Antonio","addr:housenumber":"602","addr:postcode":"78219","addr:state":"TX","addr:street":"Gembler Road","alt_name":"KOA Campground","brand":"KOA","brand:wikidata":"Q16988635","name":"KOA Kampground","short_name":"KOA","tents":"yes"}},"91193514":{"location":[29.4644333,-98.419342],"ct":"US","tp":"CR","ts":"2020-12-10T18:39:13Z","tX":232,"tY":424,"tags":{"capacity":"68","fee":"yes","name":"Fort Sam Houston Recreation Vehicle Park","power_supply":"yes","website":"http://www.fortsammwr.com/recreation/rv-park.html"}},"264474609":{"location":[29.523883,-98.386978],"ct":"US","tp":"CR","ts":"2020-06-21T01:25:41Z","tX":232,"tY":424,"tags":{"addr:city":"Windcrest","addr:housenumber":"5215","addr:postcode":"78212","addr:state":"TX","addr:street":"Crestway Drive","name":"Cozy Cove RV Park"}},"315706672":{"location":[29.2844111,-98.3917089],"ct":"US","tp":"CR","ts":"2023-10-16T12:45:20Z","tX":232,"tY":424,"tags":{"addr:city":"Elmendorf","addr:housenumber":"13550","addr:postcode":"78112","addr:state":"TX","addr:street":"Donop Road","name":"Braunig Lake RV Resort","website":"https://brauniglakervresort.com/"}},"842142638":{"location":[29.43653,-98.4152539],"ct":"US","tp":"CR","ts":"2024-10-27T17:44:02Z","tX":232,"tY":424,"tags":{"addr:city":"San Antonio","addr:housenumber":"1011","addr:state":"TX","addr:street":"Gembler Road","name":"Mission City RV Park","phone":"+1-210-337-6501","source":"esri/USA_NAD_Addresses","website":"https://www.missioncityrv.com/"}},"916895781":{"location":[29.4955503,-98.2037069],"ct":"US","tp":"CR","ts":"2021-03-14T06:58:07Z","tX":232,"tY":424,"tags":{"addr:city":"Schertz","addr:housenumber":"14107","addr:postcode":"78154","addr:state":"TX","addr:street":"Interstate 10 East","name":"Kountry Campground RV"}},"1331715459":{"location":[29.3087462,-98.3849025],"ct":"US","tp":"CR","ts":"2024-11-07T21:22:47Z","tX":232,"tY":424,"tags":{"name":"Greenlake RV Resort"}},"1383372064":{"location":[29.3640271,-98.2469861],"ct":"US","tp":"CR","ts":"2025-05-03T23:51:10Z","tX":232,"tY":424,"tags":{}},"9545982662":{"location":[29.5333755,-98.3150277],"ct":"US","tp":"CS","ts":"2022-02-28T21:44:15Z","tX":232,"tY":424,"tags":{"capacity":"4?","name":"Anton Schumann Park Campground","nudism":"no","operator":"Converse City Office","reservation":"required","tents":"yes"}}}