{"634382022":{"location":[28.3416981,-98.1273103],"ct":"US","tp":"CR","ts":"2020-02-07T17:37:21Z","tX":232,"tY":427,"tags":{"addr:housenumber":"3117","addr:street":"US 281","name":"Rockin J RV Park","phone":"+1 361-449-1498"}},"677569554":{"location":[28.478051,-98.1685884],"ct":"US","tp":"CR","ts":"2024-02-12T03:41:08Z","tX":232,"tY":427,"tags":{"addr:city":"Three Rivers","addr:housenumber":"1402","addr:postcode":"78071","addr:state":"TX","addr:street":"Hwy 72","name":"Bailey's Hideway RV Park","phone":"+1 361-494-0552","website":"http://www.baileyshideaway.com/home.html"}},"689250622":{"location":[28.3530889,-98.1342388],"ct":"US","tp":"CR","ts":"2020-05-03T01:02:00Z","tX":232,"tY":427,"tags":{"addr:city":"George West","addr:housenumber":"1328","addr:postcode":"78022","addr:state":"TX","addr:street":"Farm to Market Road 889","name":"Manning RV Park","phone":"+1 361 813 9716"}},"689372169":{"location":[28.3180329,-98.1178423],"ct":"US","tp":"CR","ts":"2023-10-16T12:45:17Z","tX":232,"tY":427,"tags":{"addr:city":"George West","addr:postcode":"78022","addr:state":"TX","addr:street":"Catholic Cemetery Road","name":"Chapa's Rental Park","phone":"+1 361 362 3611","website":"https://chaparentalpark.com/"}},"689372308":{"location":[28.3180331,-98.117185],"ct":"US","tp":"CR","ts":"2020-03-03T01:38:36Z","tX":232,"tY":427,"tags":{}},"739462483":{"location":[28.4888162,-98.1455683],"ct":"US","tp":"CR","ts":"2019-10-28T01:47:56Z","tX":232,"tY":427,"tags":{"name":"Reba's Rock-N-Rose RV Park"}},"751198943":{"location":[28.4882121,-98.3475575],"ct":"US","tp":"CS","ts":"2019-12-01T04:10:11Z","tX":232,"tY":427,"tags":{}},"751198945":{"location":[28.4893042,-98.3416407],"ct":"US","tp":"CS","ts":"2024-07-15T23:38:52Z","tX":232,"tY":427,"tags":{"caravans":"yes","fee":"yes","shower":"yes","static_caravans":"no","tents":"yes"}},"751198946":{"location":[28.4717695,-98.3387209],"ct":"US","tp":"CS","ts":"2019-12-01T04:10:11Z","tX":232,"tY":427,"tags":{}},"751198947":{"location":[28.471984,-98.3372109],"ct":"US","tp":"CS","ts":"2019-12-01T04:10:11Z","tX":232,"tY":427,"tags":{}},"751198948":{"location":[28.4664277,-98.3420757],"ct":"US","tp":"CS","ts":"2019-12-01T04:10:11Z","tX":232,"tY":427,"tags":{"group_only":"yes","name":"Youth Camping Site"}},"758591873":{"location":[28.3676296,-98.1164743],"ct":"US","tp":"CR","ts":"2019-12-25T22:07:00Z","tX":232,"tY":427,"tags":{"name":"Riverfront RV Park"}},"758591874":{"location":[28.3700626,-98.1213191],"ct":"US","tp":"CR","ts":"2020-04-28T16:27:46Z","tX":232,"tY":427,"tags":{"addr:housenumber":"112","addr:street":"County Road 379","name":"Mesquite Trail RV Park"}},"5794715259":{"location":[28.4794403,-98.3443066],"ct":"US","tp":"SD","ts":"2024-07-16T17:17:40Z","tX":232,"tY":427,"tags":{"fee":"no"}}}