{"1107951063":{"location":[41.0893808,44.7055967],"ct":"AM","tp":"CS","ts":"2024-09-09T18:02:41Z","tX":639,"tY":383,"tags":{"addr:street":"Haghpat","caravans":"yes","drinking_water":"yes","email":"azatyan1994@yandex.ru","internet_access":"wlan","name":"Կանչաքար","name:en":"Kanchaqar","name:ru":"Канчакар","opening_hours":"24/7","operator":"Martun Azatyan","phone":"+37491604082","power_supply":"yes","sanitary_dump_station":"yes","shower":"yes","tents":"yes","toilets":"yes","website":"https://www.booking.com/Share-qtkrFqT"}},"5993710098":{"location":[41.0645147,44.7548897],"ct":"AM","tp":"CS","ts":"2018-10-17T16:47:40Z","tX":639,"tY":383,"tags":{}},"6474742186":{"location":[41.1430116,44.8034496],"ct":"AM","tp":"CS","ts":"2023-08-11T10:17:55Z","tX":639,"tY":383,"tags":{"name:en":"Camping free","name:ru":"Туристическая стоянка","name:uk":"Туристична стоянка"}},"6474742285":{"location":[41.1430196,44.8034532],"ct":"AM","tp":"CS","ts":"2023-08-11T10:17:55Z","tX":639,"tY":383,"tags":{"name:en":"Camping free","name:ru":"Стоянка","name:uk":"Стоянка"}},"12083382669":{"location":[41.0168553,44.6893352],"ct":"AM","tp":"CS","ts":"2024-07-30T14:36:26Z","tX":639,"tY":383,"tags":{"name:en":"Wild camp (no water)"}},"12083382670":{"location":[40.9963479,44.8037862],"ct":"AM","tp":"CS","ts":"2024-07-30T14:36:27Z","tX":639,"tY":383,"tags":{"name:en":"Wild camp"}},"12083382769":{"location":[40.9954551,44.7996381],"ct":"AM","tp":"CS","ts":"2024-07-30T14:36:26Z","tX":639,"tY":383,"tags":{"name:en":"Wild camp"}},"12108579065":{"location":[41.0396883,44.7524382],"ct":"AM","tp":"CS","ts":"2024-08-13T16:51:20Z","tX":639,"tY":383,"tags":{}}}