{"16248597":{"location":[40.7922717,44.9181485],"ct":"AM","tp":"CS","ts":"2023-08-28T07:53:01Z","tX":639,"tY":384,"tags":{"access":"yes","camp_site":"serviced","contact:booking":"https://www.booking.com/hotel/am/lost","contact:facebook":"LostDilijan","contact:instagram":"lost_in_dilijan","contact:phone":"+37433007009","dog":"yes","fee":"yes","internet_access":"no","lit":"yes","name":"Կորած Տեղ","name:en":"Lost","name:hy":"Կորած Տեղ","name:ru":"Потерянные в Дилижане","openfire":"yes","payment:cash":"yes","tents":"yes","toilets":"yes"}},"4305388292":{"location":[40.7468533,44.898131],"ct":"AM","tp":"CS","ts":"2016-07-16T03:47:21Z","tX":639,"tY":384,"tags":{}},"6482275741":{"location":[40.9657748,44.654675],"ct":"AM","tp":"CS","ts":"2019-09-11T11:51:48Z","tX":639,"tY":384,"tags":{"email":"tuccamp@gmail.com","name":"Tourism Unique Center","phone":"+374 91 743315","sanitary_dump_station":"no","tents":"yes","website":"https://www.facebook.com/TUC.Dsegh/"}},"6872340285":{"location":[40.9439597,44.8400246],"ct":"AM","tp":"CS","ts":"2019-10-11T23:59:28Z","tX":639,"tY":384,"tags":{}},"9883625468":{"location":[40.9469182,44.6535935],"ct":"AM","tp":"CS","ts":"2022-07-12T17:43:16Z","tX":639,"tY":384,"tags":{"name":"WOW Glamping"}},"9961184745":{"location":[40.9522439,44.7041184],"ct":"AM","tp":"CS","ts":"2023-09-16T19:57:56Z","tX":639,"tY":384,"tags":{"access":"yes","addr:city":"Մարց","addr:country":"AM","addr:place":"Մարց","capacity:persons":"50","group_only":"yes","name":"Խարույկավան (Kharuykavan)","operator":"Խարույկ արշավական ակումբ"}},"10973431906":{"location":[40.7386828,44.8745846],"ct":"AM","tp":"CS","ts":"2025-06-22T19:33:27Z","tX":639,"tY":384,"tags":{"drinking_water":"no","name":"Drunken forest","power_supply":"no","shower":"no","toilets":"no"}},"12083382671":{"location":[40.9583693,44.8710469],"ct":"AM","tp":"CS","ts":"2024-07-30T14:36:27Z","tX":639,"tY":384,"tags":{"name:en":"Wild camp"}},"12083382672":{"location":[40.8111464,44.889068],"ct":"AM","tp":"CS","ts":"2024-07-30T14:36:28Z","tX":639,"tY":384,"tags":{"name:en":"Wild camp"}},"12083382770":{"location":[40.8144511,44.8806176],"ct":"AM","tp":"CS","ts":"2024-07-30T14:36:28Z","tX":639,"tY":384,"tags":{"name:en":"Wild camp"}}}