{"5392609723":{"location":[34.9702381,44.8229221],"ct":"IQ","tp":"CS","ts":"2021-12-27T11:02:06Z","tX":639,"tY":405,"tags":{"name:en":"IDPs from Touz"}},"6960445199":{"location":[35.1704403,44.9763861],"ct":"IQ","tp":"CS","ts":"2019-11-09T18:36:28Z","tX":639,"tY":405,"tags":{"addr:street":"گوندی بنەکە عەشیرەتی زەنگەنە","name":"تەنگەکەی کەڵۆز ڕماو","name:en":"Tangakai Kalloz Rmaw"}},"6960445206":{"location":[35.1572454,44.9925503],"ct":"IQ","tp":"CS","ts":"2019-11-09T18:36:56Z","tX":639,"tY":405,"tags":{"addr:street":"گوندی بنەکە عەشیرەتی زەنگەنە","name":"دەساڕناو ـ کویتاڵ دزیاو","name:en":"Dasarnaw - Kwitalldzyaw"}},"6960449394":{"location":[35.1499195,44.9833906],"ct":"IQ","tp":"CS","ts":"2019-11-09T18:36:57Z","tX":639,"tY":405,"tags":{"addr:street":"گوندی بنەکە عەشیرەتی زەنگەنە","name":"بایەمە سەرە","name:en":"Bayama Sara"}},"7412919085":{"location":[35.1536902,44.986453],"ct":"IQ","tp":"CS","ts":"2020-04-17T03:07:43Z","tX":639,"tY":405,"tags":{"addr:street":"گوندی بنەکە عەشیرەتی زەنگەنە","name":"بان بایەفە سەرە","name:en":"Ban Bayafa Sara"}},"7412919086":{"location":[35.1433957,44.9992584],"ct":"IQ","tp":"CS","ts":"2020-04-17T03:07:44Z","tX":639,"tY":405,"tags":{"addr:street":"گوندی بنەکە عەشیرەتی زەنگەنە","name":"بان چوار دارە","name:en":"Ban Chwar Dara"}},"9645978617":{"location":[35.1228087,44.8166254],"ct":"IQ","tp":"CS","ts":"2023-05-28T12:08:12Z","tX":639,"tY":405,"tags":{"name":"پایۆنيير","name:en":"Camp Pioneer","phone":"07701591787"}}}