{"11918991":{"location":[61.0093594,14.5317929],"ct":"SE","tp":"CS","ts":"2024-07-14T17:59:04Z","tX":553,"tY":291,"tags":{"addr:city":"Mora","addr:country":"SE","addr:postcode":"792 37","addr:street":"Parkv√§gen","caravans":"yes","email":"moraparken@firstcamp.se","fax":"+46 250 27615","fee":"yes","name":"First Camp Moraparken","phone":"+46 250 27600","stars":"4","static_caravans":"yes","tents":"yes","website":"https://firstcamp.se/destinationer/moraparken-dalarna"}},"11943645":{"location":[60.9813886,14.5652104],"ct":"SE","tp":"CS","ts":"2021-12-25T12:56:04Z","tX":553,"tY":291,"tags":{}},"6743527548":{"location":[60.9775384,14.5055414],"ct":"SE","tp":"CS","ts":"2019-08-25T07:13:09Z","tX":553,"tY":291,"tags":{"operator":"Red Wings Mora MC-klubb","phone":"+46 70-313 06 41","website":"https://www.redwingsmoramc.se/"}},"5909209386":{"location":[61.0091491,14.5469276],"ct":"SE","tp":"CR","ts":"2018-09-16T06:08:20Z","tX":553,"tY":291,"tags":{"name:de":"Wohnwagenstellplatz"}},"5909209387":{"location":[60.9571318,14.6327607],"ct":"SE","tp":"CR","ts":"2018-09-16T06:08:21Z","tX":553,"tY":291,"tags":{"name:de":"Wohnwagenstellplatz"}}}