{"10845155":{"location":[56.6217341,14.714537],"ct":"SE","tp":"CS","ts":"2022-05-12T20:20:20Z","tX":553,"tY":315,"tags":{"email":"kontakt@mjolknabben.com","name":"Mjölknabbens Camping","phone":"+46 705 428455","website":"https://mjolknabben.se/"}},"205116215":{"location":[56.6963409,14.5999579],"ct":"SE","tp":"CS","ts":"2024-08-17T16:57:31Z","tX":553,"tY":315,"tags":{"caravans":"yes","drinking_water":"yes","email":"mail@vidingegaard.com","fax":"+46 470 754120","internet_access":"wlan","name":"Torne Camping","payment:cash":"yes","phone":"+46 470 754120","power_supply":"yes","sanitary_dump_station":"yes","shower":"yes","source":"bing","stars":"3","tents":"yes","toilets":"yes","website":"http://www.smaland-check-in.se/campingsma/g/g29torne_se.htm","wheelchair":"yes"}},"205129459":{"location":[56.6022835,14.7074086],"ct":"SE","tp":"CS","ts":"2024-07-15T12:46:22Z","tX":553,"tY":315,"tags":{"addr:country":"SE","caravans":"no","contact:email":"info@getnogard.se","contact:fax":"+46 477 24049","contact:phone":"+46 477 24011","contact:website":"http://www.getnogard.se","name":"Getnö Gård Grupplägerplats","operator":"Getnö Gård Lake Åsnen Resort","tents":"yes"}},"205130559":{"location":[56.5881402,14.6962916],"ct":"SE","tp":"CS","ts":"2024-07-09T19:21:10Z","tX":553,"tY":315,"tags":{"addr:city":"Ryd","addr:country":"SE","addr:postcode":"360 10","addr:street":"Getnö Gård","alt_name":"Getnö Gård Naturcamping","caravans":"yes","contact:email":"info@getnogard.se","contact:fax":"+46 477 24049","contact:phone":"+46 477 24011","contact:website":"http://www.getnogard.se","drinking_water":"yes","name":"Getnö Gård Lake Åsnen Resort","power_supply":"yes","sanitary_dump_station":"yes","shower":"yes","stars":"3","tents":"yes","toilets":"yes"}},"288617456":{"location":[56.6951509,14.5983889],"ct":"SE","tp":"CR","ts":"2018-06-07T12:46:05Z","tX":553,"tY":315,"tags":{"capacity":"4","fee":"yes","internet_access":"no","internet_access:fee":"no","note":"Quickstop from 18:00 - 10:00 100 SEK (01.04.2017)","power_supply":"no","sanitary_dump_station":"no","source":"Bing highres;survey"}},"975386471":{"location":[56.5948513,14.7329019],"ct":"SE","tp":"CS","ts":"2023-07-20T08:47:47Z","tX":553,"tY":315,"tags":{"cabins":"no","camp_site":"standard","caravans":"yes","email":"carina@haglind.com","name":"Rotahults NaturCamping","openfire":"yes","permanent_camping":"no","phone":"+46 477 24053","power_supply":"no","source":"bing","static_caravans":"no","tents":"yes","toilets":"yes","website":"http://www.smaland-check-in.se/check-in2/svenska/boende/rotahult.htm"}},"11097698957":{"location":[56.5884378,14.6988205],"ct":"SE","tp":"SD","ts":"2024-07-13T20:29:03Z","tX":553,"tY":315,"tags":{"fee":"yes","opening_hours":"24/7","operator":"Getnö Gård","sanitary_dump_station:basin":"yes"}}}