{"16120785":{"location":[56.4868202,14.7018639],"ct":"SE","tp":"CS","ts":"2023-07-23T10:55:08Z","tX":553,"tY":316,"tags":{"addr:city":"Ryd","addr:postcode":"362 96","addr:street":"Hönshylte Camping","contact:email":"norrarydscamping@gmail.com","contact:phone":"+46 70 5450849","contact:website":"http://www.norrarydscamping.se","internet_access":"yes","name":"Norraryds Camping","operator":"Ursulas Äventyr","power_supply":"yes","sauna":"yes","stars":"3","tents":"yes"}},"103040455":{"location":[56.5098007,14.7159505],"ct":"SE","tp":"CS","ts":"2017-10-07T21:51:21Z","tX":553,"tY":316,"tags":{"alt_name":"Blidingsholm","fee":"yes","internet_access":"wlan","internet_access:fee":"no","name":"Blidingsholms gård","website":"http://www.blidingsholm.se"}},"229653273":{"location":[56.5076258,14.7142544],"ct":"SE","tp":"CS","ts":"2015-01-26T19:02:40Z","tX":553,"tY":316,"tags":{"area:highway":"unclassified","surface":"gravel"}},"8999513756":{"location":[56.4014605,14.6644933],"ct":"SE","tp":"CR","ts":"2021-08-11T21:17:48Z","tX":553,"tY":316,"tags":{"description:de":"ruhig am Damm 5€ stehen 5€ Strom"}},"12899507420":{"location":[56.3897172,14.4687688],"ct":"SE","tp":"CS","ts":"2025-06-09T14:27:39Z","tX":553,"tY":316,"tags":{"addr:city":"VILSHULT","addr:housenumber":"258-0","addr:postcode":"290 62","addr:province":"Olofströms kommun","addr:street":"Möllesjövägen","name":"Snapphanen Störsavången Naturistcamping","nudism":"yes"}}}