{"293790523":{"location":[56.3109128,14.4511305],"ct":"SE","tp":"CS","ts":"2025-06-19T07:24:58Z","tX":553,"tY":317,"tags":{"addr:city":"Olofström","addr:housenumber":"39","addr:postcode":"293 91","addr:street":"Gillesnäsvägen","name":"Harasjömåla Fiskecamp","source":"Bing hires"}},"525976962":{"location":[56.3601539,14.5362456],"ct":"SE","tp":"CS","ts":"2025-06-09T14:27:39Z","tX":553,"tY":317,"tags":{"addr:city":"Kyrkhult","addr:country":"SE","addr:housenumber":"211-64","addr:postcode":"290 60","addr:street":"Södra Slagesnäsvägen","capacity":"100","email":"paradiset@naturistforbundet.se","fee":"yes","internet_access:fee":"yes","name":"Paradiset naturistcamping, vildmarkscampingen","nudism":"yes","operator":"Naturistföreningen Paradiset","phone":"+46 454-77 11 08"}},"868653687":{"location":[56.2699991,14.5089961],"ct":"SE","tp":"CS","ts":"2025-06-09T14:27:39Z","tX":553,"tY":317,"tags":{"addr:city":"OLOFSTRÖM","addr:housenumber":"587","addr:postcode":"293 93","addr:province":"Olofströms kommun","addr:street":"Halenvägen","name":"Halens Camping","phone":"+46 454 40230","website":"http://halenscamping.se/"}},"987825401":{"location":[56.2336757,14.6862304],"ct":"SE","tp":"CS","ts":"2025-06-09T14:27:39Z","tX":553,"tY":317,"tags":{"addr:city":"OLOFSTRÖM","addr:housenumber":"258","addr:postcode":"294 93","addr:province":"Olofströms kommun","addr:street":"Ugglebodavägen","name":"Ljuvadal Camping & Upplevelser","phone":"+46 760-25 68 98","website":"https://www.ljuvadal.se/"}},"5034486421":{"location":[56.2023332,14.751511],"ct":"SE","tp":"CS","ts":"2025-06-19T07:24:58Z","tX":553,"tY":317,"tags":{"addr:city":"Mörrum","addr:housenumber":"19","addr:postcode":"375 34","addr:street":"Ålidsvägen","name":"Åkroken","name:de":"Lagerplatz Åkroken"}},"8990657844":{"location":[56.2474132,14.4382784],"ct":"SE","tp":"CS","ts":"2021-08-08T20:01:17Z","tX":553,"tY":317,"tags":{"backcountry":"yes","capacity":"3","fee":"no","operator":"Unofficial"}},"8990657853":{"location":[56.2501159,14.4369127],"ct":"SE","tp":"CS","ts":"2021-08-08T20:01:17Z","tX":553,"tY":317,"tags":{"backcountry":"yes","capacity":"2","operator":"Unofficial"}},"8990657861":{"location":[56.233325,14.4425543],"ct":"SE","tp":"CS","ts":"2021-08-08T20:01:17Z","tX":553,"tY":317,"tags":{"backcountry":"yes","capacity":"4","operator":"Unofficial"}},"12899507419":{"location":[56.2413766,14.6288967],"ct":"SE","tp":"CS","ts":"2025-06-09T14:27:39Z","tX":553,"tY":317,"tags":{"addr:city":"OLOFSTRÖM","addr:housenumber":"75-13","addr:postcode":"293 93","addr:province":"Olofströms kommun","addr:street":"Snärjevägen","cabin":"yes","name":"Snärjeskogen"}},"12899507421":{"location":[56.2773401,14.5938295],"ct":"SE","tp":"CS","ts":"2025-06-09T14:27:39Z","tX":553,"tY":317,"tags":{"addr:city":"OLOFSTRÖM","addr:housenumber":"7","addr:postcode":"293 91","addr:province":"Olofströms kommun","addr:street":"Svängstavägen","name":"Djupadal Camping"}},"12899507433":{"location":[56.17504,14.6408942],"ct":"SE","tp":"CS","ts":"2025-06-09T14:27:39Z","tX":553,"tY":317,"tags":{"addr:city":"SÖLVESBORG","addr:housenumber":"26","addr:postcode":"294 93","addr:province":"Sölvesborg kommun","addr:street":"Äskemovägen","name":"Börjessongården stugby"}},"12899507413":{"location":[56.3524653,14.5928317],"ct":"SE","tp":"CR","ts":"2025-06-09T14:27:39Z","tX":553,"tY":317,"tags":{"addr:city":"KYRKHULT","addr:housenumber":"321","addr:postcode":"290 60","addr:province":"Olofströms kommun","addr:street":"Morins väg","name":"Södersjön ställplats"}}}