{"202339379":{"location":[56.0662801,14.4548745],"ct":"SE","tp":"CS","ts":"2023-10-28T14:00:31Z","tX":553,"tY":318,"tags":{"addr:city":"Bromölla","addr:country":"SE","addr:housenumber":"6","addr:postcode":"295 38","addr:street":"Scoutvägen","caravans":"yes","email":"bromollacamping@telia.com","name":"Strandängens Camping & Vandrarhem","phone":"+46 456 25593","tents":"yes","website":"https://www.bromollacamping.se/","wheelchair":"yes"}},"230289507":{"location":[56.1103176,14.6808899],"ct":"SE","tp":"CS","ts":"2013-07-18T05:47:41Z","tX":553,"tY":318,"tags":{}},"230289508":{"location":[56.1162921,14.6840629],"ct":"SE","tp":"CS","ts":"2018-08-14T12:42:55Z","tX":553,"tY":318,"tags":{"name":"Griscampingen"}},"230289509":{"location":[56.1190508,14.6907293],"ct":"SE","tp":"CS","ts":"2014-08-10T10:02:55Z","tX":553,"tY":318,"tags":{"email":"Niclas@norjebokecamping.com","name":"Norje Boke Camping","phone":"+46 456 31026","website":"http://www.norjebokecamping.com/"}},"233932610":{"location":[56.0103863,14.7203496],"ct":"SE","tp":"CS","ts":"2024-07-14T19:53:00Z","tX":553,"tY":318,"tags":{"name":"Hälleviks Camping","phone":"+46 456 52714","website":"https://www.hallevikscamping.se/"}},"296910988":{"location":[56.0570726,14.5510461],"ct":"SE","tp":"CS","ts":"2023-05-12T16:21:24Z","tX":553,"tY":318,"tags":{"email":"info@valjevikenscamping.com","fax":"+46 456 140 90","name":"Valjevikens camping","phone":"+46 456 14090","tents":"yes","website":"https://www.valjevikenscamping.se/","wheelchair":"yes"}},"296912941":{"location":[56.1521549,14.6752025],"ct":"SE","tp":"CS","ts":"2023-10-28T14:01:04Z","tX":553,"tY":318,"tags":{"addr:city":"Sölvesborg","addr:country":"SE","addr:housenumber":"354","addr:postcode":"29493","addr:street":"Karlhamnsvägen","caravans":"yes","email":"alholmens@gmail.com","name":"Alholmens Bad & Camping","phone":"+46 454 52036","sanitary_dump_station":"customers","stars":"3","tents":"yes","website":"https://alholmens.se/"}},"516709257":{"location":[56.1443534,14.5205663],"ct":"SE","tp":"CR","ts":"2017-08-18T21:47:26Z","tX":553,"tY":318,"tags":{"caravans":"yes","contact:website":"http://wetlandi.se","drinking_water":"yes","fee":"yes","name":"Wetlandi","operator":"Wetlandi","tents":"no"}},"1043407790":{"location":[56.0275822,14.5619736],"ct":"SE","tp":"CS","ts":"2023-07-22T17:18:37Z","tX":553,"tY":318,"tags":{"addr:city":"Sölvesborg","addr:postcode":"29436","addr:street":"Tredenborgevägen","cabins":"yes","capacity:cabins":"19","capacity:pitches":"220","caravans":"yes","drinking_water":"yes","email":"info@tredenborgscamping.com","name":"Tredenborgs","phone":"+46 456 12116","power_supply":"yes","shower":"yes","tents":"yes","toilets":"yes","website":"https://tredenborg.com/"}},"1178407187":{"location":[56.0032657,14.7373319],"ct":"SE","tp":"CR","ts":"2023-06-02T19:18:30Z","tX":553,"tY":318,"tags":{"charge":"210 SKR / day","fee":"yes","internet_access":"wlan","name":"Ställplats Nogersunds Hamn","power_supply":"yes","sanitary_dump_station":"yes","website":"https://nogersundshamn.se/"}},"2123045101":{"location":[56.0664874,14.4552344],"ct":"SE","tp":"SD","ts":"2023-08-01T12:31:23Z","tX":553,"tY":318,"tags":{"description":"Tömmning av fasta tankar"}},"5043081751":{"location":[56.1299826,14.4999817],"ct":"SE","tp":"CS","ts":"2019-05-23T14:37:18Z","tX":553,"tY":318,"tags":{"backcountry":"yes","camp_site":"basic","caravans":"no","contact:website":"http://wetlandi.se","description":"Accessible only by canoe, no reservation possible","drinking_water":"no","fee":"no","internet_access":"no","name":"Slättön","note":"position estimated","openfire":"yes","opening_hours":"24/7","operator":"Wetlandi canoehire","power_supply":"no","reservation":"no","shower":"no","smoking":"outside","tents":"only","toilets":"no"}},"5043778981":{"location":[56.1109293,14.4532067],"ct":"SE","tp":"CS","ts":"2019-05-23T14:36:04Z","tX":553,"tY":318,"tags":{"backcountry":"yes","camp_site":"basic","caravans":"no","contact:website":"http://wetlandi.se","description":"Accessible only by canoe, no reservation possible","drinking_water":"no","fee":"no","internet_access":"no","name":"Söndre Udde","openfire":"yes","opening_hours":"24/7","operator":"Wetlandi","power_supply":"no","reservation":"no","shower":"no","smoking":"outside","tents":"only","toilets":"no","wheelchair":"no"}},"6668178270":{"location":[56.128162,14.5863545],"ct":"SE","tp":"CS","ts":"2019-07-31T22:09:55Z","tX":553,"tY":318,"tags":{"description":"meadow suitable to put up a tent with space for multiple tents"}},"9867656545":{"location":[55.99709,14.4449496],"ct":"SE","tp":"CR","ts":"2024-08-16T15:04:44Z","tX":553,"tY":318,"tags":{"drinking_water":"yes","fee":"yes","name":"Tosteberga Hamn","power_supply":"yes","sanitary_dump_station":"no","toilets":"yes"}},"4448464498":{"location":[56.01217,14.69985],"ct":"SE","tp":"SD","ts":"2017-09-23T18:46:15Z","tX":553,"tY":318,"tags":{"access":"yes","addr:place":"Hällevik Gästhamn","boat":"yes","fee":"no","opening_hours":"24/7","sanitary_dump_station:accepted":"black_water","sanitary_dump_station:pump-out":"yes","seamark:small_craft_facility:category":"pump-out","seamark:type":"small_craft_facility","vehicle":"no","waterway":"sanitary_dump_station","website":"https://hamnkartan.azurewebsites.net"}},"4448464507":{"location":[56.1635,14.68689],"ct":"SE","tp":"SD","ts":"2017-09-23T18:46:16Z","tX":553,"tY":318,"tags":{"access":"yes","addr:place":"Pukaviks Båtklubb","boat":"yes","fee":"no","opening_hours":"24/7","sanitary_dump_station:accepted":"black_water","sanitary_dump_station:pump-out":"yes","seamark:small_craft_facility:category":"pump-out","seamark:type":"small_craft_facility","vehicle":"no","waterway":"sanitary_dump_station","website":"https://hamnkartan.azurewebsites.net"}},"10947329170":{"location":[56.0033481,14.7372059],"ct":"SE","tp":"SD","ts":"2023-06-02T19:18:30Z","tX":553,"tY":318,"tags":{"charge":"50 SKR / 0 SKR","fee":"yes","name":"Ställplats Nogersunds Hamn","sanitary_dump_station:gravity":"yes"}},"11239659996":{"location":[56.0634955,14.4959751],"ct":"SE","tp":"SD","ts":"2023-10-04T19:01:20Z","tX":553,"tY":318,"tags":{"access":"yes","fee":"no","water_point":"yes"}}}