{"220203880":{"location":[53.9967635,14.6477558],"ct":"PL","tp":"CS","ts":"2024-07-31T22:08:59Z","tX":553,"tY":328,"tags":{"addr:housenumber":"65","addr:place":"Świętouść","addr:postcode":"72-514","capacity:persons":"650","caravans":"yes","check_date":"2024-07-31","contact:facebook":"https://www.facebook.com/CampingTramp/","email":"campingtramp@onet.pl","fax":"+48 91 321 26 62","fee":"yes","mobile":"+48 698 12 26 62","name":"Camping Tramp","phone":"+48 91 321 26 62","reservation":"yes","stars":"3","static_caravans":"yes","tents":"yes","website":"http://campingtramp.com/"}},"1208013172":{"location":[53.9657482,14.5710429],"ct":"PL","tp":"CS","ts":"2023-09-15T12:01:07Z","tX":553,"tY":328,"tags":{"contact:phone":"+48 668 654 080","name":"Pole namiotowo-kempingowe WISEŁKA","website":"https://www.wiselka.pl/pole-namiotowo-kempingowe-wiselka"}},"2400899186":{"location":[54.0022045,14.703459],"ct":"PL","tp":"CS","ts":"2013-07-29T20:51:53Z","tX":553,"tY":328,"tags":{}},"2400900438":{"location":[54.0020465,14.6838756],"ct":"PL","tp":"CS","ts":"2022-07-18T12:27:17Z","tX":553,"tY":328,"tags":{"description:de":"Camping Platz, Rollstuhlgerechter Eingang, Kinderfreundlich.","name":"Fraszka","phone":"+48 91 483 70 98","website":"http://www.campingfraszka.pl/"}},"2404070829":{"location":[53.9810125,14.6330658],"ct":"PL","tp":"CS","ts":"2013-08-01T19:52:06Z","tX":553,"tY":328,"tags":{}},"2414319027":{"location":[54.0216581,14.7459552],"ct":"PL","tp":"CS","ts":"2017-10-26T19:01:43Z","tX":553,"tY":328,"tags":{"caravans":"yes","email":"campingtramp@onet.pl","fax":"+48 91 381 35 69","internet_access":"yes","name":"Korab","phone":"+48 91 381 35 69, +48 698 12 26 62","ref:pfcc":"93","tents":"yes","website":"http://www.campingkorab.com/"}},"7704872588":{"location":[54.001964,14.7058889],"ct":"PL","tp":"CS","ts":"2023-11-06T13:12:47Z","tX":553,"tY":328,"tags":{"name":"Camping Pod Lasem","website":"https://campingpodlasem.fajnewczasy.com/"}},"8151242835":{"location":[54.0218338,14.7483546],"ct":"PL","tp":"CS","ts":"2020-11-22T16:28:34Z","tX":553,"tY":328,"tags":{"capacity":"30","name":"Dziwnów domki","phone":"+48 609 040 726","website":"http://www.dziwnowdomki.pl/"}},"9898976547":{"location":[54.0032766,14.6848417],"ct":"PL","tp":"CS","ts":"2022-07-20T07:04:21Z","tX":553,"tY":328,"tags":{"name":"Camping Reda"}},"11916453324":{"location":[54.0083362,14.6993154],"ct":"PL","tp":"CS","ts":"2024-05-18T19:36:05Z","tX":553,"tY":328,"tags":{"addr:city":"Międzywodzie","addr:city:simc":"0774836","addr:housenumber":"4","addr:postcode":"72-415","addr:street":"Zaciszna","email":"zacisze@miedzywodzie.net","name":"Kamping Zacisze","phone":"+48 91 381 38 33; +48 601 148 023","website":"https://zacisze.miedzywodzie.net/"}}}