{"39401950":{"location":[53.3064257,14.6271017],"ct":"PL","tp":"CS","ts":"2022-10-12T12:41:05Z","tX":553,"tY":332,"tags":{"backcountry":"yes","name":"Jarząbki"}},"169555884":{"location":[53.241981,14.426879],"ct":"DE","tp":"CS","ts":"2023-11-13T14:41:23Z","tX":553,"tY":332,"tags":{"addr:city":"Mescherin","addr:country":"DE","addr:housenumber":"17","addr:postcode":"16307","addr:street":"Obere Dorfstraße","caravans":"yes","email":"info@campingplatz-meschein.de","fee":"yes","name":"Campingplatz am Oderstrom","operator":"Dorfverein am Oderstrom e.V.","phone":"+49 33332 870044","reservation":"recommended","shower":"yes","tents":"yes","website":"https://www.campingplatz-mescherin.de","wikidata":"Q123420957"}},"401343187":{"location":[53.2483515,14.4830393],"ct":"PL","tp":"CS","ts":"2024-05-30T18:27:21Z","tX":553,"tY":332,"tags":{"barrier":"fence","fence_type":"chain_link","name":"OSiR"}},"7740320407":{"location":[53.2940979,14.6764306],"ct":"PL","tp":"CS","ts":"2020-07-23T11:30:08Z","tX":553,"tY":332,"tags":{"impromptu":"yes"}},"7816535526":{"location":[53.2888949,14.6681],"ct":"PL","tp":"CS","ts":"2020-08-16T02:41:08Z","tX":553,"tY":332,"tags":{}},"11434650499":{"location":[53.3164003,14.6349335],"ct":"PL","tp":"CS","ts":"2023-12-20T10:56:09Z","tX":553,"tY":332,"tags":{"email":"szczecin@zhp.pl","name":"Stanica Harcerska \"Bukowina\"","website":"https://szczecin.zhp.pl/bukowina/"}}}