{"871468496":{"location":[52.6055162,14.4537369],"ct":"DE","tp":"CS","ts":"2020-11-13T21:16:23Z","tX":553,"tY":335,"tags":{"addr:city":"Zechin","addr:housenumber":"1B","addr:postcode":"15328","addr:street":"Hauptstraße","caravans":"yes","email":"info@oderbruchcamp-zechin.de","fax":"+49 33473 90820","internet_access":"yes","name":"Oderbruch Camp-Zechin","opening_hours":"Apr 01-Okt 31","phone":"+49 33473 59101","power_supply":"yes","tents":"yes","website":"https://www.oderbruchcamp-zechin.de/","wheelchair":"no"}},"1078034986":{"location":[52.5844544,14.6123873],"ct":"DE","tp":"CS","ts":"2024-12-04T08:25:57Z","tX":553,"tY":335,"tags":{"backcountry":"no","caravans":"yes","check_date":"2024-09-01","dog":"leashed","drinking_water":"yes","fee":"yes","group_only":"no","internet_access":"no","name":"Fischereihof Schneider","nobrand":"yes","openfire":"no","panoramax":"a39cd72f-db61-4e40-8a1c-4f7a0d97004a","panoramax:1":"70fdaa45-a494-4354-9577-d7d1c071adae","panoramax:2":"b38e4b5f-7fd9-49ed-818a-7e3954aee5bf","panoramax:3":"1ee53f26-f5fd-4d28-884f-6433e2186d9a","payment:cards":"no","payment:cash":"yes","payment:credit_cards":"no","payment:debit_cards":"no","phone":"+49 33479 54888","power_supply":"yes","reservation":"yes","shower":"yes","tents":"yes","toilets":"yes","website":"https://www.oderfischer.de/75/campingplatz","wheelchair":"yes"}},"1191618799":{"location":[52.5973729,14.671577],"ct":"PL","tp":"CS","ts":"2023-07-23T16:30:37Z","tX":553,"tY":335,"tags":{"caravans":"yes","email":"motelverona1@wp.pl","mobile":"+48 880 684 280","name":"Pole Namiotowe Verona","tents":"yes","website":"https://serwer1301024.home.pl/pole_namiotowe_verona/"}},"1307025457":{"location":[52.6387079,14.5410101],"ct":"PL","tp":"CS","ts":"2024-08-11T12:16:10Z","tX":553,"tY":335,"tags":{"backcountry":"yes","caravans":"yes","name":"Wierzbowa Osada","tents":"yes"}},"2465808075":{"location":[52.6771584,14.4359476],"ct":"DE","tp":"CS","ts":"2025-01-21T13:46:39Z","tX":553,"tY":335,"tags":{"addr:city":"Letschin","addr:housenumber":"9","addr:postcode":"15324","addr:street":"Deichweg","addr:suburb":"Kienitz","caravans":"yes","drinking_water":"yes","name":"Naturerlebnishof Uferloos","phone":"+493347838976","power_supply":"yes","shower":"yes","source":"http://www.uferloos.de/","tents":"yes","website":"https://www.uferloos.de/"}},"3522538857":{"location":[52.6740643,14.4417298],"ct":"DE","tp":"CS","ts":"2023-02-05T22:21:24Z","tX":553,"tY":335,"tags":{"name":"Gasthof zum Hafen"}},"7178029752":{"location":[52.5773898,14.5504159],"ct":"DE","tp":"CS","ts":"2025-01-22T09:27:26Z","tX":553,"tY":335,"tags":{"addr:city":"Küstriner Vorland","addr:housenumber":"21","addr:postcode":"15328","addr:street":"Genschmarer Chaussee","addr:suburb":"Gorgast","name":"Heidehof","tents":"yes","website":"https://www.oderbruch-tourismus.de/verzeichnis/visitenkarte.php?mandat=157644"}},"9958700418":{"location":[52.5126234,14.4340505],"ct":"DE","tp":"CS","ts":"2025-01-22T09:20:28Z","tX":553,"tY":335,"tags":{"addr:city":"Lindendorf","addr:housenumber":"20","addr:postcode":"15306","addr:street":"Friedenstal","email":"dieter@hoeft.de","internet_access":"wlan","name":"Camping Friedenstal","phone":"+49 178 2018187"}}}