{"45240450":{"location":[52.1826964,14.4435236],"ct":"DE","tp":"CS","ts":"2023-08-08T12:08:47Z","tX":553,"tY":337,"tags":{"addr:city":"Siehdichum","addr:country":"DE","addr:housenumber":"1","addr:postcode":"15890","addr:street":"Am Schervenzsee","addr:suburb":"Schernsdorf","caravans":"yes","email":"camping@schervenzsee.de","fax":"+49 33606-770 80-9","fee":"yes","internet_access":"wlan","internet_access:fee":"yes","landuse":"recreation_ground","name":"Schlaubetal Camping Schervenzsee","operator":"Schlaubetal Camping Schervenzsee GmbH","phone":"+49 33606-770 80-0","power_supply":"yes","stars":"4","tents":"yes","website":"https://www.schlaubetal-camping-schervenzsee.de"}},"70828685":{"location":[52.2313502,14.4233202],"ct":"DE","tp":"CS","ts":"2022-04-01T13:00:13Z","tX":553,"tY":337,"tags":{"addr:city":"Müllrose","addr:country":"DE","addr:housenumber":"2","addr:postcode":"15299","addr:street":"Am Ostufer","email":"info@campingplatz-muellrose.de","fax":"+49 33606 77677","fee":"yes","internet_access":"wlan","internet_access:fee":"no","name":"Campingplatz Müllrose","operator":"Verein für Camping und Naherholung e.V.","phone":"+49 33606 671","power_supply":"yes","tents":"yes","website":"http://www.campingplatz-muellrose.de/"}},"99207935":{"location":[52.0902684,14.4268288],"ct":"DE","tp":"CS","ts":"2022-04-01T12:56:24Z","tX":553,"tY":337,"tags":{"addr:city":"Friedland","addr:country":"DE","addr:housenumber":"1","addr:postcode":"15848","addr:street":"Ahornallee","addr:suburb":"Chossewitz","email":"info@campingfreunde-chossewitz.de","fee":"yes","mobile":"+49 172 9263467","name":"Campingplatz Chossewitzer See","operator":"Campingfreunde Chossewitz e.V.","phone":"+49 33673 5061","power_supply":"yes","tents":"yes","website":"https://www.campingfreunde-chossewitz.de/"}},"107436106":{"location":[52.1388915,14.641849],"ct":"DE","tp":"CR","ts":"2022-10-02T19:26:58Z","tX":553,"tY":337,"tags":{"access":"yes","fee":"yes","parking":"surface","sanitary_dump_station":"public","surface":"unpaved"}},"171422012":{"location":[52.0700171,14.7456381],"ct":"DE","tp":"CR","ts":"2022-12-19T09:15:08Z","tX":553,"tY":337,"tags":{"fee":"yes","name":"Wohnmobilstellplatz Ratzdorf"}},"1028630742":{"location":[52.1368313,14.4582775],"ct":"DE","tp":"CS","ts":"2023-01-13T17:51:07Z","tX":553,"tY":337,"tags":{"addr:city":"Schlaubetal","addr:housenumber":"5","addr:postcode":"15890","addr:street":"Bremsdorfer Mühle","addr:suburb":"Bremsdorf","caravans":"yes","internet_access":"no","landuse":"forest","name":"Naturcampingplatz \"Großer Treppelsee\"","opening_hours":"Apr 01-Oct 31","operator":"Kay Knabe","payment:coins":"yes","payment:notes":"yes","phone":"+49 1522 6702232","power_supply":"yes","reservation":"recommended","tents":"yes","website":"https://schlaubetal-camping.de"}},"1297155288":{"location":[52.2408731,14.7013123],"ct":"DE","tp":"CS","ts":"2024-06-28T18:39:20Z","tX":553,"tY":337,"tags":{"addr:city":"Ziltendorf","addr:housenumber":"9","addr:postcode":"15295","addr:street":"Dorfstraße","addr:suburb":"Aurith","email":"radlerhof-aurith@t-online.de","name":"Radlerhof Aurith","phone":"+49 33609 72535","website":"https://radlerhof-aurith.de/"}},"10069281720":{"location":[52.138678,14.6422595],"ct":"DE","tp":"SD","ts":"2022-10-02T19:26:58Z","tX":553,"tY":337,"tags":{"access":"yes","fee":"yes","sanitary_dump_station:basin":"yes","sanitary_dump_station:round_drain":"yes"}}}