{"74142023":{"location":[52.00407,14.6950025],"ct":"DE","tp":"CS","ts":"2024-04-06T08:50:26Z","tX":553,"tY":338,"tags":{"addr:city":"Bresinchen","addr:housenumber":"18","addr:postcode":"03172","addr:street":"Coschener Straße","email":"buchungEUcamping@gmx.de","name":"Eurocamping Neissetal","opening_hours":"07:00-20:00","operator":"Christin Witte und Christin Witte","website":"https://www.eurocampingneissetal.de/"}},"154099210":{"location":[51.9354094,14.4757541],"ct":"DE","tp":"CS","ts":"2021-05-11T12:22:16Z","tX":553,"tY":338,"tags":{"access":"private","addr:city":"Tauer","addr:housenumber":"9c","addr:street":"Teerofen","capacity":"30","description":"Das Campingareal ist Bestandteil des Campingplatzes \"Waldcamping Am Großsee\" - Teerofen 9A, 03185 Tauer - www.GrossSee.de","fee":"yes","name":"Campingplatz Am Großsee","operator":"Waldcamping Am Großsee","phone":"+4935601894488","website":"https://www.GrossSee.de"}},"165724067":{"location":[51.9200387,14.6458119],"ct":"DE","tp":"CS","ts":"2024-09-24T09:18:59Z","tX":553,"tY":338,"tags":{"caravans":"yes","email":"campdeulo@gmx.de","name":"CampDeulo","phone":"+49 151 67514716","tents":"yes","website":"http://www.campdeulo.de/"}},"671112181":{"location":[51.9323373,14.4795928],"ct":"DE","tp":"CS","ts":"2023-01-27T13:09:25Z","tX":553,"tY":338,"tags":{"access":"customers","addr:city":"Tauer","addr:housenumber":"9A","addr:postcode":"03185","addr:street":"Teerofen","capacity":"180","capacity:caravans":"150","dog":"leashed","drinking_water":"yes","email":"Camping@GrossSee.de","fax":"+493561894487","fee":"yes","image":"https://www.grosssee.de/camping/wp-content/uploads/2021/10/202207-GrossSee-Logo-2-Sterne.png","internet_access":"wlan","name":"Campingplatz Waldcamping Am Großsee","openfire":"no","opening_hours":"Mo-Su 9:00-13:00, 14:00-18:00","payment:cash":"yes","payment:credit_cards":"yes","payment:maestro":"yes","payment:mastercard":"yes","payment:visa":"yes","phone":"+4935601894488","power_supply":"yes","reservation":"recommended","sanitary_dump_station":"yes","shower":"yes","source":"local knowledge;survey","stars":"2","toilets":"yes","website":"https://www.GrossSee.de","wheelchair":"limited"}},"1873679248":{"location":[51.9642823,14.5319976],"ct":"DE","tp":"CS","ts":"2023-04-10T17:37:35Z","tX":553,"tY":338,"tags":{"cabins":"yes","caravans":"yes","dog":"yes","mobile":"+49 162 9445402","name":"Campingplatz am Pinnower See","opening_hours":"Apr 15 - Oct 15","phone":"+49 35691 609555","power_supply":"yes","sanitary_dump_station":"yes","shower":"yes","tents":"yes","toilets":"yes","website":"https://www.pinnowersee.de/"}},"8665644869":{"location":[51.8806837,14.5220071],"ct":"DE","tp":"CR","ts":"2021-04-25T19:04:10Z","tX":553,"tY":338,"tags":{"capacity":"10","sanitary_dump_station":"no"}}}