{"12771204":{"location":[51.5216145,14.7517288],"ct":"DE","tp":"CS","ts":"2023-01-05T19:28:27Z","tX":553,"tY":340,"tags":{"access":"yes","addr:city":"Sagar","backcountry":"yes","capacity":"10","description":"Gepflegte Wiese zum Zelten für eine Nacht mit zahlreichen Sitzmöglichkeiten und einem Feuerkreis.","name":"Biwakplatz für Wasser- und Radwanderer am Ein- und Ausstieg Sagar"}},"79873684":{"location":[51.541654,14.5634679],"ct":"DE","tp":"CS","ts":"2019-05-24T22:26:39Z","tX":553,"tY":340,"tags":{"caravans":"yes","name":"FKK-Campingplatz Halbendorfer See","nudism":"designated","tents":"yes"}},"118146842":{"location":[51.5444033,14.569413],"ct":"DE","tp":"CS","ts":"2023-11-03T00:13:25Z","tX":553,"tY":340,"tags":{"addr:city":"Groß Düben","addr:country":"DE","addr:housenumber":"45a","addr:postcode":"02953","addr:street":"Dorfstraße","addr:suburb":"Halbendorf","backcountry":"no","caravans":"yes","name":"Campingplatz Halbendorfer See","name:hsb":"Campingownišćo při Brězowskim jězorje","phone":"+49 35773 76413","power_supply":"yes","sanitary_dump_station":"yes","shower":"yes","stars":"4","tents":"yes","toilets":"yes","website":"https://www.halbendorfersee.de/","wheelchair":"limited"}},"120283673":{"location":[51.5436711,14.6276759],"ct":"DE","tp":"CS","ts":"2024-04-28T12:05:44Z","tX":553,"tY":340,"tags":{"name":"Campingplatz Badesee Kromlau","source":"survey + Bing","url":"https://kromlau-online.de/tourist-information/campingplatz-badesee-kromlau/"}},"125775845":{"location":[51.5961409,14.608974],"ct":"DE","tp":"CS","ts":"2024-05-10T01:43:34Z","tX":553,"tY":340,"tags":{"addr:city":"Döbern","addr:country":"DE","addr:housenumber":"1","addr:postcode":"03159","addr:street":"Am Badesee","email":"info@campingplatz-eichwege.de","name":"Campingplatz Eichwege","operator":"Clemens Wilke","phone":"+49 1522 9597436","website":"www.campingplatz-eichwege.de"}},"352675921":{"location":[51.605516,14.5128975],"ct":"DE","tp":"CR","ts":"2019-02-08T15:31:39Z","tX":553,"tY":340,"tags":{"capacity":"20","contact:mobile":"+49 171 7724638","contact:phone":"+49 35698 72280","fee":"yes","internet_access":"wlan","name":"Minipony-Ranch","power_supply":"yes","sanitary_dump_station":"yes","water_point":"yes","website":"https://www.stellplatz-miniponyranch.de"}},"1057004818":{"location":[51.5117081,14.6366267],"ct":"DE","tp":"CR","ts":"2025-01-01T14:10:56Z","tX":553,"tY":340,"tags":{"capacity:caravans":"3","caravan_site":"motorhome_stopover","caravan_site:type":"zoo;parking_lot","fee":"no","internet_access":"wlan","internet_access:fee":"no","name":"Tierpark Weißwasser Parkplatz","power_supply":"yes","power_supply:fee":"yes","sanitary_dump_station":"no","socket:cee_blue":"yes","surface":"grass_paver"}},"1075609487":{"location":[51.5449531,14.569038],"ct":"DE","tp":"SD","ts":"2022-07-03T21:59:39Z","tX":553,"tY":340,"tags":{}},"1120421517":{"location":[51.4750365,14.4741235],"ct":"DE","tp":"CR","ts":"2023-12-09T11:10:23Z","tX":553,"tY":340,"tags":{"name":"Ruhlmühle","name:hsb":"Rula"}},"1504085224":{"location":[51.5337014,14.7194937],"ct":"DE","tp":"CR","ts":"2023-01-21T17:33:54Z","tX":553,"tY":340,"tags":{"capacity":"20","contact:mobile":"+49 151 40762843","fee":"yes","name":"Stellplatz Heideweg","operator":"Stadt Bad Muskau","power_supply":"yes","sanitary_dump_station":"yes","water_point":"yes","website":"https://www.badmuskau.de/wohnmobilcamping"}},"7926264619":{"location":[51.5094236,14.7559127],"ct":"DE","tp":"CS","ts":"2020-09-20T21:02:20Z","tX":553,"tY":340,"tags":{"caravans":"yes","email":"info@pension-winkelhof.de","internet_access":"yes","internet_access:fee":"no","name":"Winkelcamp","operator":"Pension Winkelhof","permanent_camping":"no","phone":"+49 35771 55332","shower":"yes","static_caravans":"no","tents":"yes","toilets":"yes","website":"https://pension-winkelhof.de/zeltplatz/"}},"9932441677":{"location":[51.4748332,14.4740172],"ct":"DE","tp":"CS","ts":"2024-09-09T09:41:31Z","tX":553,"tY":340,"tags":{"caravans":"yes","name":"Campingplatz Ruhlmühle","name:hsb":"Campingownišćo Rula","phone":"+49 35727 57705","tents":"yes","website":"https://bootstouren-ruhlmuehle.de"}},"11947722858":{"location":[51.4862039,14.4576371],"ct":"DE","tp":"CS","ts":"2024-05-31T12:08:52Z","tX":553,"tY":340,"tags":{"name":"Spreecamp","phone":"+493572757585","website":"http://www.spreefotograf.de/"}},"12070415733":{"location":[51.4757416,14.4752839],"ct":"DE","tp":"CR","ts":"2024-07-23T19:13:57Z","tX":553,"tY":340,"tags":{"fee":"yes","name":"Campingplatz Ruhlmühle","name:hsb":"Campingownišćo Rula"}},"12258671771":{"location":[51.523599,14.6858591],"ct":"DE","tp":"CR","ts":"2025-01-01T14:18:12Z","tX":553,"tY":340,"tags":{"addr:city":"Krauschwitz","addr:postcode":"02957","addr:street":"Zum Schulmeisterweg","bbq":"no","caravan_site":"motorhome_stopover","caravan_site:type":"camp_site","caravans":"yes","charge":"20 EUR","check_in":"07:00-22:00","fee":"yes","name":"Endlich Camping","power_supply":"yes","power_supply:charge":"1 EUR","power_supply:fee":"yes","sanitary_dump_station":"yes","services:charge":"3 EUR","tents":"yes","website":"https://endlich-camping.de/"}},"6454760374":{"location":[51.5596172,14.7624224],"ct":"PL","tp":"CS","ts":"2023-11-03T00:13:27Z","tX":553,"tY":340,"tags":{"addr:city":"Bronowice","addr:housenumber":"12","addr:street":"Partyzantów","caravans":"yes","name":"Lena CamperPark","operator":"Mużakowska Agroturystyka CamperPark Lena","phone":"+48693493453","tents":"yes","website":"https://noclegi-leknica-lena.pl/"}}}