{"1213895":{"location":[51.2653171,14.4492298],"ct":"DE","tp":"CS","ts":"2024-10-04T10:14:29Z","tX":553,"tY":341,"tags":{"addr:city":"Großdubrau","addr:country":"DE","addr:housenumber":"11","addr:postcode":"02694","addr:street":"Adolfshütter Straße","addr:suburb":"Crosta","bett_and_bike:ref":"SAC-1530","bettundbike":"yes","caravans":"yes","contact:mobile":"+49 1717 553124","contact:phone":"+49 35934 4632","email":"info@blaueadria.de","internet_access":"no","name":"Campingplatz \"Blaue Adria\"","name:hsb":"Campingownišćo \"Módra Adrija\"","operator":"Blaue Adria GbR","tents":"yes","url":"http://www.blaueadria.de"}},"11355903":{"location":[51.271271,14.6014101],"ct":"DE","tp":"CS","ts":"2024-09-10T12:11:52Z","tX":553,"tY":341,"tags":{"addr:city":"Malschwitz","addr:country":"DE","addr:housenumber":"4","addr:postcode":"02694","addr:street":"Am Olbastrand","addr:suburb":"Kleinsaubernitz","biosphärenwirt":"yes","caravans":"yes","email":"natur@campingplatz-olbasee.de","fixme":"Shape of camp size only estimated","name":"Naturcampingplatz Am Olbasee","operator":"Olbasee GmbH","phone":"+49 35932 30232","tents":"yes","website":"https://www.campingplatz-olbasee.de"}},"35541854":{"location":[51.2760114,14.7381304],"ct":"DE","tp":"CS","ts":"2023-04-09T09:46:26Z","tX":553,"tY":341,"tags":{"caravans":"yes","email":"buchung@camping-stausee-quitzdorf.de","motorhome":"yes","name":"Campingplatz Kollm-Nord","operator":"Feriengesellschaft Stausee Quitzdorf","phone":"+49 151 12724680","shower":"yes","tents":"yes","toilets":"yes","website":"https://www.camping-stausee-quitzdorf.de/"}},"118145772":{"location":[51.2346671,14.6989101],"ct":"DE","tp":"CS","ts":"2019-03-31T17:08:04Z","tX":553,"tY":341,"tags":{"addr:city":"Hohendubrau","addr:country":"DE","addr:housenumber":"15","addr:postcode":"02906","addr:street":"Buchholzer Straße","addr:suburb":"Jerchwitz","caravans":"yes","email":"freizeitcamp-thraena@t-online.de","fax":"+49 35876 42838","name":"Freizeit- & Campingpark Thräna","openfire":"yes","phone":"+49 35876 41238; +49 35876 42838","tents":"yes","website":"https://www.freizeitcamp-thraena.de/"}},"119325367":{"location":[51.2027898,14.4592275],"ct":"DE","tp":"CS","ts":"2023-10-07T07:39:30Z","tX":553,"tY":341,"tags":{"addr:city":"Bautzen","addr:country":"DE","addr:housenumber":"41","addr:postcode":"02625","addr:street":"Nimschützer Straße","addr:suburb":"Burk","caravans":"yes","name":"Natur- und AbenteuerCamping am Stausee Bautzen","name:hsb":"Přirodne campingownišćo při spjatym jězoru","phone":"+49 3591 271267","stars":"4","tents":"yes","website":"https://www.camping-bautzen.de/","wheelchair":"yes"}},"120029451":{"location":[51.2753305,14.7397254],"ct":"DE","tp":"CS","ts":"2023-04-09T09:46:26Z","tX":553,"tY":341,"tags":{"caravans":"no","email":"abenteuer@kanu-mp.de","name":"Kanu- & NaTour-Camp Kollm-Nord","phone":"+49 160 8013000","shower":"yes","tents":"yes","toilets":"yes","website":"http://www.kanu-mp.de/camp_campi.html"}},"166956928":{"location":[51.2274661,14.4453441],"ct":"DE","tp":"CS","ts":"2023-04-10T17:37:35Z","tX":553,"tY":341,"tags":{"addr:city":"Großdubrau","addr:country":"DE","addr:housenumber":"13","addr:postcode":"02694","addr:street":"Zu den Kastanien","addr:suburb":"Dahlowitz","caravans":"yes","email":"kontakt@naturcamping-bautzen.de","mobile":"+49 1522 1347779","motorhome":"yes","name":"Naturcamping","name:hsb":"Přirodne campingownišćo","phone":"+49 35935 212980","shower":"yes","tents":"yes","toilets":"yes","website":"http://www.naturcamping-bautzen.de"}},"194300601":{"location":[51.1819658,14.4148658],"ct":"DE","tp":"CR","ts":"2025-02-26T15:27:47Z","tX":553,"tY":341,"tags":{"addr:city":"Bautzen","addr:housenumber":"20","addr:postcode":"02625","addr:street":"Schliebenstraße","internet_access":"no","name":"Touristenparkplatz Schliebenstraße","name:hsb":"Schliebenowa"}},"287359685":{"location":[51.2742217,14.5875033],"ct":"DE","tp":"CS","ts":"2025-05-04T19:14:50Z","tX":553,"tY":341,"tags":{"addr:city":"Malschwitz","addr:country":"DE","addr:housenumber":"5","addr:postcode":"02694","addr:street":"Warthaer Dorfstraße","addr:suburb":"Wartha","capacity":"50","caravans":"yes","contact:email":"info@campingplatz-reck.de","contact:fax":"+49 35932 35780","contact:mobile":"+49 176 24693316","contact:phone":"+49 35932 30674","contact:website":"www.campingplatz-reck.de","fee":"yes","name":"Campingplatz Reck","operator":"Frank Reck","power_supply":"yes","tents":"yes"}},"340060597":{"location":[51.3577713,14.5597333],"ct":"DE","tp":"CS","ts":"2024-08-12T09:03:51Z","tX":553,"tY":341,"tags":{"barrier":"fence","name":"Marina Camp Jasua","phone":"+49 172 353 74 51","website":"https://www.marina-camping-baerwalder-see.eu"}},"340063064":{"location":[51.3960091,14.5764465],"ct":"DE","tp":"CS","ts":"2022-11-28T11:57:29Z","tX":553,"tY":341,"tags":{"addr:city":"Boxberg/O.L.","addr:housenumber":"2","addr:postcode":"02943","addr:street":"Zur Strandpromenade","caravans":"yes","description":"Large camp site in the shadow of the Boxberg lignite power generating plant with a view on the Bärwalder See, a former lignite mine.","description:en":"Large camp site in the shadow of the Boxberg lignite power generating plant with a view on the Bärwalder See, a former lignite mine.","email":"info@sternencamp-boxberg.de","fee":"yes","name":"Sternencamp","phone":"+49 35774 552173","power_supply":"yes","tents":"yes","website":"https://sternencamp.com"}},"2048259625":{"location":[51.1818938,14.4147862],"ct":"DE","tp":"SD","ts":"2024-09-10T20:08:59Z","tX":553,"tY":341,"tags":{"water_point":"yes"}},"3708901597":{"location":[51.3960897,14.5742372],"ct":"DE","tp":"SD","ts":"2024-07-15T09:35:36Z","tX":553,"tY":341,"tags":{}},"5826817486":{"location":[51.2911641,14.49991],"ct":"DE","tp":"CS","ts":"2023-01-21T17:33:56Z","tX":553,"tY":341,"tags":{"addr:city":"Großdubrau","addr:housenumber":"21","addr:postcode":"02694","addr:street":"Kastanienallee","name":"Ferienhof Commerau","phone":"+49 3593 466109","website":"https://ferienhof-commerau.de/"}},"11389607969":{"location":[51.2912543,14.7626511],"ct":"DE","tp":"CS","ts":"2024-06-19T14:29:46Z","tX":553,"tY":341,"tags":{"addr:city":"Quitzdorf am See","addr:housenumber":"2","addr:postcode":"02906","addr:street":"Am Quarzitwerk","email":"tauchbasis.wetro@gmail.com","fee":"yes","name":"Tauchbasis Wetro","name:de":"Tauchbasis Wetro","name:en":"Diving Base Wetro","opening_hours":"Sa-Su 10:00-17:00","operator":"Stefan Steudtner","sport":"scuba_diving"}},"7865302185":{"location":[51.1860195,14.4232187],"ct":"DE","tp":"CR","ts":"2025-01-01T16:42:36Z","tX":553,"tY":341,"tags":{"caravan_site":"motorhome_stopover","caravan_site:type":"town","fee":"no","name":"Stellplatz Bautzen Am Schützenplatz","power_supply":"no","sanitary_dump_station":"no","water_point":"no"}}}