{"280794808":{"location":[51.0098693,14.5982671],"ct":"DE","tp":"CR","ts":"2024-07-10T13:28:00Z","tX":553,"tY":342,"tags":{"capacity":"7","contact:phone":"+49 3586 763183","fee":"yes","name":"Am Stadtbad","power_supply":"yes","sanitary_dump_station":"yes","water_point":"yes"}},"286061921":{"location":[51.0286389,14.6302417],"ct":"DE","tp":"CR","ts":"2015-12-17T16:23:18Z","tX":553,"tY":342,"tags":{"capacity":"3","fee":"no","name":"An der Bockwindmühle","power_supply":"no","sanitary_dump_station":"no","water_point":"no"}},"309922625":{"location":[51.0017644,14.7193383],"ct":"DE","tp":"CS","ts":"2022-08-25T06:58:50Z","tX":553,"tY":342,"tags":{"addr:city":"Herrnhut","addr:country":"DE","addr:housenumber":"5","addr:postcode":"02747","addr:street":"Volksbadstraße","addr:suburb":"Ruppersdorf","caravans":"yes","name":"Volksbadcamp","openfire":"yes","phone":"+49 172 7597660","source":"website","sport":"swimming","tents":"yes","website":"http://www.volksbadcamp-online.de"}},"964987146":{"location":[51.0516595,14.4258704],"ct":"DE","tp":"CR","ts":"2021-10-26T06:40:13Z","tX":553,"tY":342,"tags":{"capacity":"4"}},"1117685486":{"location":[51.043197,14.4802335],"ct":"DE","tp":"CS","ts":"2024-07-17T19:32:45Z","tX":553,"tY":342,"tags":{"addr:city":"Sohland a. d. Spree","addr:housenumber":"2","addr:postcode":"02689","addr:street":"Am Bahnhof","addr:suburb":"Taubenheim","caravans":"yes","contact:mobile":"+49 1624 284047","description:en":"This is a funky camp site and rudimentary B&B in an old factory building.","email":"mariegross296@gmail.com","fee":"yes","name":"LoftCamp Großmann","shower":"yes","tents":"yes","toilets":"yes","website":"https://www.loftcampgrossmann.de"}},"1613373586":{"location":[51.0316295,14.6611551],"ct":"DE","tp":"CR","ts":"2024-04-04T19:10:22Z","tX":553,"tY":342,"tags":{"fee":"yes","name":"Stellplatz am Freibad Kottmar","wheelchair":"yes"}},"2405871780":{"location":[50.9753552,14.5069971],"ct":"CZ","tp":"CS","ts":"2013-08-03T10:31:05Z","tX":553,"tY":342,"tags":{"caravans":"yes","name":"Camp Valdek","tents":"yes"}},"5592973800":{"location":[50.9993617,14.4668698],"ct":"CZ","tp":"CS","ts":"2018-05-02T18:48:48Z","tX":553,"tY":342,"tags":{"caravans":"yes","name":"Regenboog","tents":"yes"}}}