{"28819803":{"location":[50.9508979,14.7132176],"ct":"DE","tp":"CS","ts":"2024-07-12T06:27:49Z","tX":553,"tY":343,"tags":{"access":"customers","addr:city":"Oderwitz","addr:housenumber":"2d","addr:postcode":"02791","addr:street":"An der Neubauernsiedlung","name":"Country Camp Adler","operator":"Uwe Adler","website":"https://www.countrycampadler.de/"}},"48970819":{"location":[50.7732029,14.7638725],"ct":"CZ","tp":"CS","ts":"2016-06-18T10:34:27Z","tX":553,"tY":343,"tags":{}},"118142999":{"location":[50.8683593,14.6722535],"ct":"DE","tp":"CS","ts":"2024-06-21T15:27:18Z","tX":553,"tY":343,"tags":{"addr:city":"Großschönau","addr:country":"DE","addr:housenumber":"5","addr:place":"Saalendorf","addr:postcode":"02799","addr:suburb":"Saalendorf","caravans":"yes","email":"camping@sell-hof.de","name":"Sell-Hof","phone":"+49 35841 36357","tents":"yes","website":"https://www.sell-hof.de/","wheelchair":"yes"}},"118143749":{"location":[50.8774735,14.6723939],"ct":"DE","tp":"CS","ts":"2023-07-13T08:46:15Z","tX":553,"tY":343,"tags":{"addr:city":"Großschönau","addr:country":"DE","addr:housenumber":"40","addr:postcode":"02779","addr:street":"Jonsdorfer Straße","caravans":"yes","drinking_water":"yes","email":"info@trixi-park.de","fax":"+49 35841 631118","name":"Trixi-Park \"Zittauer Gebirge\"","phone":"+49 35841 6310","power_supply":"yes","shower":"yes","tents":"yes","toilets":"yes","website":"https://www.trixi-park.de/","wheelchair":"yes"}},"286211131":{"location":[50.7467679,14.5959777],"ct":"CZ","tp":"CS","ts":"2019-03-31T17:08:22Z","tX":553,"tY":343,"tags":{"addr:city":"Radvanec","addr:country":"CZ","addr:place":"Maxov","addr:postcode":"47301","name":"Koupaliště Sloup v Čechách","phone":"+420 602 316 309","source":"survey","website":"https://www.obecsloupvcechach.cz/"}},"584965881":{"location":[50.8651714,14.5868828],"ct":"CZ","tp":"CS","ts":"2018-05-01T19:29:33Z","tX":553,"tY":343,"tags":{"camp_site":"serviced","capacity":"4","fee":"yes","tents":"yes"}},"917072051":{"location":[50.8654447,14.5561908],"ct":"CZ","tp":"CS","ts":"2010-09-18T17:34:44Z","tX":553,"tY":343,"tags":{"internet_access":"no","name":"Pod Jedlovou","smoking":"yes"}},"928980312":{"location":[50.8710326,14.453512],"ct":"CZ","tp":"CS","ts":"2023-11-08T09:31:03Z","tX":553,"tY":343,"tags":{"name":"Tábořiště Výsluní","source":"survey","website":"https://www.ihugo.cz/"}},"1292899147":{"location":[50.8320148,14.7581789],"ct":"DE","tp":"CR","ts":"2024-06-16T17:57:29Z","tX":553,"tY":343,"tags":{"caravans":"no","dog":"yes","fee":"yes","tents":"no"}},"1293137803":{"location":[50.8315437,14.7199912],"ct":"DE","tp":"CR","ts":"2024-06-17T18:30:06Z","tX":553,"tY":343,"tags":{"caravans":"no","dog":"yes","operator":"Kammbaude","tents":"no"}},"1293138870":{"location":[50.8401496,14.7349942],"ct":"DE","tp":"CR","ts":"2024-06-17T18:38:55Z","tX":553,"tY":343,"tags":{"caravans":"no","dog":"yes","fee":"yes","name":"Zur Hölle","operator":"Gemeinde Oybin","tents":"no"}},"4304145209":{"location":[50.7984555,14.7172752],"ct":"CZ","tp":"CS","ts":"2016-07-15T11:00:27Z","tX":553,"tY":343,"tags":{}},"5731621448":{"location":[50.802675,14.6704679],"ct":"CZ","tp":"CS","ts":"2023-04-10T19:25:08Z","tX":553,"tY":343,"tags":{"capacity":"30","internet_access":"no","operator":"Skaut-Český Junák"}},"7906514862":{"location":[50.9138241,14.4881192],"ct":"CZ","tp":"CS","ts":"2020-09-14T20:15:31Z","tX":553,"tY":343,"tags":{"backcountry":"yes","charge":"200 CZK","description":"Self-service meadow bar with tent accommodation","fee":"yes","name":"Luční Bar (Camp)","payment:cash":"yes","shower":"yes","toilets":"yes","website":"https://www.ceskesvycarsko.cz/en/node/666"}},"12149639766":{"location":[50.8952677,14.5317952],"ct":"CZ","tp":"CS","ts":"2024-09-01T11:42:56Z","tX":553,"tY":343,"tags":{"backcountry":"yes"}}}