{"35015406":{"location":[50.0984186,14.6854418],"ct":"CZ","tp":"CS","ts":"2023-11-04T01:24:16Z","tX":553,"tY":346,"tags":{"group_only":"yes","name":"Camping Praha Klánovice","website":"https://campingpraha.cz/","wikidata":"Q78768087"}},"39447270":{"location":[50.0922145,14.4730417],"ct":"CZ","tp":"CS","ts":"2022-06-28T11:38:55Z","tX":553,"tY":346,"tags":{"barrier":"fence","caravans":"yes","name":"Camp Zizkov","pitches":"80","source":"cuzk:km;survey","tents":"yes","url":"http://www.prazacka.com","wheelchair":"limited"}},"162080897":{"location":[50.113725,14.4240528],"ct":"CZ","tp":"CS","ts":"2025-06-08T14:21:47Z","tX":553,"tY":346,"tags":{"addr:city":"Praha 7","addr:housenumber":"835/12","addr:postcode":"17000","addr:street":"Vodácká","cabins":"yes","caravans":"yes","description:en":"This is first and foremost a canoe and kayak club but you can camp here. Rudimentary sanitary facilities.","drinking_water":"yes","internet_access":"wlan","name":"HG Sport, s.r.o.","power_supply":"no","shower":"yes","tents":"yes","toilets":"yes","website":"http://sportcentrum-troja.cz/en/campground/"}},"221928495":{"location":[50.1526928,14.449619],"ct":"CZ","tp":"CS","ts":"2024-03-09T22:24:06Z","tX":553,"tY":346,"tags":{"barrier":"fence","internet_access":"wlan","internet_access:ssid":"TriocAmp","name":"Triocamp","website":"https://www.triocamp.cz/"}},"420290570":{"location":[50.1171031,14.4247283],"ct":"CZ","tp":"CS","ts":"2016-05-23T14:27:07Z","tX":553,"tY":346,"tags":{"barrier":"fence","name":"Camp Sokol Troja","website":"http://www.camp-sokol-troja.cz/"}},"421231655":{"location":[50.0888019,14.5838607],"ct":"CZ","tp":"CS","ts":"2024-08-17T19:58:40Z","tX":553,"tY":346,"tags":{"backcountry":"no","caravans":"yes","drinking_water":"yes","group_only":"no","internet_access":"wlan","internet_access:fee":"no","name":"Sokol Praha","nudism":"no","reservation":"yes","shower":"yes","stars":"4","swimming_pool":"outdoor","tents":"yes","website":"https://www.campingsokol.cz/","wheelchair":"yes"}},"540573279":{"location":[50.1171755,14.4319146],"ct":"CZ","tp":"CR","ts":"2009-10-26T07:38:13Z","tX":553,"tY":346,"tags":{"name":"Camp Dana"}},"627518567":{"location":[50.1137832,14.4259404],"ct":"CZ","tp":"CS","ts":"2023-11-04T01:26:15Z","tX":553,"tY":346,"tags":{"caravans":"yes","email":"info@rivercampingprague.com","fee":"yes","name":"River Camping Prague","phone":"+420 607 04 88 00","shower":"yes","tents":"yes","toilets":"yes","website":"https://www.rivercampingprague.com/"}},"782984158":{"location":[50.1169142,14.4277735],"ct":"CZ","tp":"CS","ts":"2023-11-04T01:23:54Z","tX":553,"tY":346,"tags":{"capacity:tents":"0","caravans":"yes","email":"reception@autocamp-trojska.cz","fee":"yes","name":"Autocamp Trojská","power_supply":"yes","shower":"yes","tents":"no","toilets":"yes","website":"https://www.autocamp-trojska.cz/index_de.htm"}},"2410179703":{"location":[50.1644755,14.4855355],"ct":"CZ","tp":"CS","ts":"2013-08-07T18:03:07Z","tX":553,"tY":346,"tags":{}},"2916999630":{"location":[50.1522786,14.4500191],"ct":"CZ","tp":"CR","ts":"2014-06-15T07:29:43Z","tX":553,"tY":346,"tags":{"email":"triocamp.praha@telecom.cz","name":"TRIOCAMP","operator":"TRIOCAMP, s.r.o.","phone":"+420 283 850 793","website":"www.triocamp.com"}},"3346715589":{"location":[50.1171043,14.4289246],"ct":"CZ","tp":"CS","ts":"2018-07-09T07:59:07Z","tX":553,"tY":346,"tags":{"addr:housenumber":"377/146","addr:postcode":"17100","addr:street":"Trojská","email":"info@camphajek.nl","internet_access":"wlan","name":"Autocamp Hajek","opening_hours":"Mo-Su 07:00-22:00","phone":"+420233541352","website":"http://www.camphajek.cz"}},"3346715590":{"location":[50.1171146,14.4274601],"ct":"CZ","tp":"CS","ts":"2015-02-12T21:26:28Z","tX":553,"tY":346,"tags":{"name":"Camp Fremunt"}},"3346715592":{"location":[50.1171782,14.427157],"ct":"CZ","tp":"CS","ts":"2019-03-12T19:39:04Z","tX":553,"tY":346,"tags":{"name":"Camp Herzog","website":"https://www.campherzog.cz/"}},"4312764089":{"location":[50.2017434,14.6558631],"ct":"CZ","tp":"CS","ts":"2016-07-20T12:58:01Z","tX":553,"tY":346,"tags":{}},"4866279474":{"location":[50.117055,14.4286544],"ct":"CZ","tp":"CS","ts":"2017-05-20T14:36:06Z","tX":553,"tY":346,"tags":{"name":"Autocamp Petrakova"}},"5772621290":{"location":[50.2645277,14.5419107],"ct":"CZ","tp":"CS","ts":"2018-07-20T08:42:15Z","tX":553,"tY":346,"tags":{"name":"Camping Mlékojedy"}}}