{"110671965":{"location":[49.8098838,14.4265216],"ct":"CZ","tp":"CS","ts":"2020-10-17T00:56:15Z","tX":553,"tY":348,"tags":{"name":"Camp Rabyne","website":"https://www.novarabyne.cz"}},"229716025":{"location":[49.7506992,14.4204269],"ct":"CZ","tp":"CS","ts":"2016-06-13T23:11:05Z","tX":553,"tY":348,"tags":{"email":"Komar.zivohost@seznam.cz","landuse":"recreation_ground","name":"rekreační zařízení Komár","operator":"Martin Novák","phone":"+420728580358","website":"http://www.rzkomar.kvalitne.cz/"}},"250764663":{"location":[49.8321703,14.5950751],"ct":"CZ","tp":"CS","ts":"2024-06-29T14:32:28Z","tX":553,"tY":348,"tags":{"caravans":"yes","drinking_water":"yes","name":"Vodácké tábořiště","shower":"yes","tents":"yes","toilets":"yes"}},"283591072":{"location":[49.759035,14.4240724],"ct":"CZ","tp":"CR","ts":"2022-01-21T19:31:54Z","tX":553,"tY":348,"tags":{"name":"Stará Živohošť"}},"846294240":{"location":[49.8022328,14.4231367],"ct":"CZ","tp":"CS","ts":"2017-08-25T13:04:33Z","tX":553,"tY":348,"tags":{"name":"Autokemp Slapy Skalice","website":"http://www.slapy-ubytovani.cz/"}},"1071287138":{"location":[49.7974098,14.420512],"ct":"CZ","tp":"CS","ts":"2022-06-19T14:32:15Z","tX":553,"tY":348,"tags":{"cabins":"yes","caravans":"yes","drinking_water":"yes","fee":"yes","fireplace":"yes","kitchen":"yes","motor_vehicle":"yes","name":"Autocamp Ždáň","opening_hours":"Jun 15-Sep 15: 08:00-12:00, 14:00-20:00; PH open","phone":"+420 775 145 090","power_supply":"yes","sanitary_dump_station":"yes","tents":"yes","website":"http://www.zdan.wz.cz/"}},"1223435847":{"location":[49.6379012,14.6311169],"ct":"CZ","tp":"CR","ts":"2023-11-14T12:18:58Z","tX":553,"tY":348,"tags":{}},"5801802654":{"location":[49.6441905,14.5443673],"ct":"CZ","tp":"CS","ts":"2023-10-30T18:25:12Z","tX":553,"tY":348,"tags":{"email":"klokocove@gmail.com","name":"FKK Camping v Klokocove","nudism":"yes","opening_hours":"24/7","operator":"Gijs en Leny","phone":"+420 721 554 385","website":"https://www.klokocov.loekalike.com/"}},"12696842347":{"location":[49.7531602,14.4159155],"ct":"CZ","tp":"CS","ts":"2025-03-24T15:11:45Z","tX":553,"tY":348,"tags":{"addr:city":"Křečovice","addr:postcode":"25756","addr:street":"Nová Živohošť","camp_site":"standard","name":"Tábořiště Nová Živohošť","tents":"yes","website":"http://www.taboriste-zivohost.cz"}}}