{"444520330":{"location":[49.4347245,14.6663359],"ct":"CZ","tp":"CS","ts":"2016-09-06T09:35:28Z","tX":553,"tY":349,"tags":{"name":"Malý Jordán"}},"480383040":{"location":[49.387595,14.5596767],"ct":"CZ","tp":"CS","ts":"2023-02-20T17:43:23Z","tX":553,"tY":349,"tags":{"access":"yes","addr:city":"Řepeč","addr:postcode":"39161","addr:street":"Kášovice","addr:unit":"ev. č. 19","email":"info@pionyrak.cz","name":"Rekreační areál Pension Pionýrák Bartoň","operator":"Pension Pionýrák Bartoň","phone":"+420 602 617 580","website":"https://www.pionyrakbarton.cz"}},"480383043":{"location":[49.3861396,14.557683],"ct":"CZ","tp":"CS","ts":"2017-03-14T13:00:22Z","tX":553,"tY":349,"tags":{"landuse":"meadow","leisure":"summer_camp","name":"Základna Bečice","operator":"Junák, středisko Sedmička Milensko, z.s.","website":"http://www.junakmilevsko.net/zazemi/zakladna/"}},"635898547":{"location":[49.4086783,14.6295714],"ct":"CZ","tp":"CS","ts":"2017-01-06T07:39:58Z","tX":553,"tY":349,"tags":{}},"1826149883":{"location":[49.412642,14.6472328],"ct":"CZ","tp":"CS","ts":"2012-07-15T11:07:23Z","tX":553,"tY":349,"tags":{}},"1988560520":{"location":[49.3835207,14.5416438],"ct":"CZ","tp":"CS","ts":"2016-12-12T16:03:50Z","tX":553,"tY":349,"tags":{}},"6832318887":{"location":[49.5412037,14.5026083],"ct":"CZ","tp":"CS","ts":"2019-09-28T09:40:56Z","tX":553,"tY":349,"tags":{"addr:housenumber":"12","addr:postcode":"391 33","addr:street":"Ounuz","name":"Kemp Kroužky nad Moníncem","phone":"+420 608 995 523","website":"http://krouzkynadmonincem.cz"}}}