{"2198208655":{"location":[47.1632917,14.7367424],"ct":"AT","tp":"CS","ts":"2019-03-29T06:17:23Z","tX":553,"tY":359,"tags":{"addr:city":"Wei√ükirchen","addr:housenumber":"9","addr:postcode":"8741","addr:street":"Fisching","caravans":"yes","email":"info@camping50plus.at","fax":"+43-3577-82284-6","internet_access":"yes","internet_access:fee":"no","name":"50plus Campingpark Fisching","phone":"+43-3577-82284","tents":"yes","website":"https://www.camping50plus.at/"}},"4348898692":{"location":[47.2182337,14.7552969],"ct":"AT","tp":"CS","ts":"2018-04-23T17:16:58Z","tX":553,"tY":359,"tags":{"name":"Camping Blau","name:en":"Camping Blue"}},"5475844918":{"location":[47.2188759,14.7509265],"ct":"AT","tp":"CS","ts":"2018-04-23T17:16:58Z","tX":553,"tY":359,"tags":{"name":"Camping Blau","name:en":"Camping Blue"}},"5475844919":{"location":[47.2205446,14.7497892],"ct":"AT","tp":"CS","ts":"2018-04-23T17:16:58Z","tX":553,"tY":359,"tags":{"name":"Camping Blau"}},"5475844920":{"location":[47.2198487,14.7498456],"ct":"AT","tp":"CS","ts":"2018-04-23T17:16:58Z","tX":553,"tY":359,"tags":{"name":"Camping Blau","name:en":"Camping Blue"}},"5475845121":{"location":[47.2191728,14.7525653],"ct":"AT","tp":"CS","ts":"2018-04-23T17:16:58Z","tX":553,"tY":359,"tags":{"name":"Camping Blau","name:en":"Camping Blue"}},"5475845122":{"location":[47.2163035,14.7522354],"ct":"AT","tp":"CS","ts":"2018-04-23T17:16:58Z","tX":553,"tY":359,"tags":{"name":"Camping Blau","name:en":"Camping Blue"}},"5475845123":{"location":[47.216544,14.7550034],"ct":"AT","tp":"CS","ts":"2018-04-23T17:16:58Z","tX":553,"tY":359,"tags":{"name":"Camping Blau","name:en":"Camping Blue"}},"5485792386":{"location":[47.2150355,14.7532976],"ct":"AT","tp":"CS","ts":"2018-03-18T06:55:58Z","tX":553,"tY":359,"tags":{}},"5574129042":{"location":[47.2166678,14.7643268],"ct":"AT","tp":"CS","ts":"2018-04-23T17:16:57Z","tX":553,"tY":359,"tags":{"name":"Camping Gelb","name:en":"Camping Yellow"}},"5574129043":{"location":[47.2174913,14.7595632],"ct":"AT","tp":"CS","ts":"2018-04-23T17:16:57Z","tX":553,"tY":359,"tags":{"name":"Camping Rot","name:en":"Camping Red"}},"5579051420":{"location":[47.2009149,14.7653715],"ct":"AT","tp":"CS","ts":"2018-04-25T19:30:18Z","tX":553,"tY":359,"tags":{"email":"manfred-dorfer@aon.at","name":"Dorfer","phone":"+43 6502561510","tents":"yes","website":"https://gabi-dorfer-zimmervermietung.webnode.at/"}},"9816480643":{"location":[47.2508908,14.483511],"ct":"AT","tp":"CS","ts":"2022-06-14T07:02:19Z","tX":553,"tY":359,"tags":{"contact:email":"fritz.camp@ainet.at","name":"Camping Fritz","url":"https://www.campingclub.at/campingplatz/camping_fritz"}},"11180620579":{"location":[47.1979033,14.441123],"ct":"AT","tp":"CS","ts":"2023-11-08T09:42:46Z","tX":553,"tY":359,"tags":{"name":"Camping und \"Hotel zur Schiene\"","website":"https://www.unzmarkt-frauenburg.at/"}}}