{"16849553":{"location":[46.0986527,14.5184895],"ct":"SI","tp":"CS","ts":"2023-12-20T23:13:47Z","tX":553,"tY":363,"tags":{"caravans":"yes","drinking_water":"yes","name":"Ljubljana Resort","power_supply":"yes","shower":"yes","tents":"yes","toilets":"yes"}},"17077942":{"location":[46.1072406,14.4469787],"ct":"SI","tp":"CR","ts":"2024-01-25T09:39:23Z","tX":553,"tY":363,"tags":{"capacity":"15","charge":"6 EUR/night","fee":"yes","lit":"yes","name":"P+R Stanežiče","operator":"MO Ljubljana","power_supply":"yes","sanitary_dump_station":"yes"}},"219505450":{"location":[46.228429,14.6194705],"ct":"SI","tp":"CS","ts":"2022-08-26T05:58:16Z","tX":553,"tY":363,"tags":{"caravans":"yes","internet_access":"wlan","internet_access:fee":"no","name":"Kamp Resnik","nudism":"no","reservation":"yes","tents":"yes","website":"http://kampresnik.com"}},"491308774":{"location":[46.1737488,14.4154001],"ct":"SI","tp":"CS","ts":"2017-05-04T10:02:51Z","tX":553,"tY":363,"tags":{"name":"Autokamp Dragočajna"}},"1303303297":{"location":[46.3050686,14.6112342],"ct":"SI","tp":"CS","ts":"2024-07-23T15:52:04Z","tX":553,"tY":363,"tags":{"addr:housenumber":"2","addr:street":"Kamniška Bistrica","caravans":"yes","contact:email":"info@kraljevhrib.si","contact:phone":"+386 40 658 754","drinking_water":"conditional","fee":"yes","internet_access":"wlan","name":"Kraljev hrib","operator":"Gostinstvo in športni turizem Kraljev hrib","power_supply":"yes","sanitary_dump_station":"no","shower":"yes","static_caravans":"no","tents":"yes","toilets":"yes","website":"https://www.kraljevhrib.si/index.php/en/camping-en","wheelchair":"no"}},"1348461647":{"location":[46.1447729,14.4765604],"ct":"SI","tp":"CR","ts":"2025-01-04T11:38:45Z","tX":553,"tY":363,"tags":{"capacity":"2","fee":"no","operator":"DARS","power_supply":"yes","surface":"asphalt"}},"1348461666":{"location":[46.1453094,14.4754479],"ct":"SI","tp":"CR","ts":"2025-01-04T11:38:45Z","tX":553,"tY":363,"tags":{"capacity":"2","fee":"no","operator":"DARS","surface":"asphalt"}},"1361524696":{"location":[46.1735782,14.4154779],"ct":"SI","tp":"CR","ts":"2011-07-14T14:15:00Z","tX":553,"tY":363,"tags":{"fee":"yes","name":"Autokamp Dragočajna","power_supply":"yes","tents":"yes"}},"1458166315":{"location":[46.1733321,14.4148363],"ct":"SI","tp":"CS","ts":"2024-07-19T06:22:44Z","tX":553,"tY":363,"tags":{"internet_access":"yes","internet_access:fee":"no","name":"FKK Smlednik","nudism":"yes","phone":"+386 1 3627002","smoking":"yes","stars":"3","website":"https://www.dm-campsmlednik.si/"}},"1740604071":{"location":[46.17426,14.4159808],"ct":"SI","tp":"CS","ts":"2024-07-19T06:22:18Z","tX":553,"tY":363,"tags":{"internet_access":"yes","internet_access:fee":"no","name":"FKK Smlednik Reception","nudism":"yes","phone":"+386 1 3627002","smoking":"yes","stars":"3","website":"https://www.dm-campsmlednik.si/"}},"3828346796":{"location":[46.0977886,14.5186197],"ct":"SI","tp":"CS","ts":"2024-09-27T21:45:47Z","tX":553,"tY":363,"tags":{"addr:city":"Ljubljana","addr:country":"SI","addr:housenumber":"270","addr:postcode":"1000","addr:street":"Dunajska cesta","caravans":"yes","contact:email":"ljubljana.resort@gpl.si","contact:fax":"+386 1 5890142","contact:mobile":"+386 40 617000","contact:phone":"+386 1 589 01 30","contact:website":"http://www.ljubljanaresort.si","description":"Ljubljana resort extends over six hectares of green oasis on the northern periphery of the Sava river.","drinking_water":"yes","fee":"no","internet_access":"yes","name":"Ljubljana Resort Hotel & Camp","operator":"GP Ljubljana, d.d.","parking":"yes","power_supply":"yes","sanitary_dump_station":"yes","shower":"yes","swimming_pool":"yes","tents":"yes","toilets":"yes","tourism_1":"hotel","wheelchair":"yes"}},"9790708307":{"location":[46.1040677,14.6755559],"ct":"SI","tp":"CS","ts":"2024-04-02T16:03:10Z","tX":553,"tY":363,"tags":{"addr:city":"Dol pri Ljubljani","addr:housenumber":"45","addr:postcode":"1262","addr:street":"Osredke","capacity":"10","charge":"15–20 EUR","check_date":"2023-06-02","description":"Camping in Dol pri Ljubljani is a small campsite located in nature just 15 min from the town, available for motorhomes, camping tents, cars or travel trailers. It's well equipped with everything you need: showers, toilets, washing machine, electricity & w","dog":"yes","drinking_water":"yes","email":"campingljubljana@gmail.com","fee":"yes","image":"https://www.facebook.com/Camping-Camper-stop-near-Ljubljana-111993141528698","internet_access":"wlan","internet_access:fee":"customers","internet_access:ssid":"CAMPER STOP","motorcar":"yes","name":"Camping & Camper Stop near Ljubljana","payment:cash":"yes","phone":"+386 40 972 583","power_supply":"yes","sanitary_dump_station":"yes","shower":"yes","source":"survey","tents":"yes","website":"https://www.facebook.com/Camping-Camper-stop-near-Ljubljana-111993141528698","wheelchair":"limited"}},"9922762617":{"location":[46.0786196,14.5679926],"ct":"SI","tp":"CS","ts":"2023-08-23T07:00:49Z","tX":553,"tY":363,"tags":{"addr:city":"Ljubljana","addr:housenumber":"240","addr:postcode":"1260","addr:street":"Šmartinska cesta","caravans":"yes","fee":"yes","name":"Kamp @ Nogometni golf Ljubljana","name:en":"Camping @ Footballgolf Ljubljana","tents":"yes"}},"9977024250":{"location":[46.0905205,14.6766646],"ct":"SI","tp":"CS","ts":"2024-08-15T15:01:33Z","tX":553,"tY":363,"tags":{"access":"private","addr:city":"Dol pri Ljubljani","addr:housenumber":"20","addr:postcode":"1262","addr:street":"Dolsko","capacity:caravans":"20","capacity:persons":"50","capacity:tents":"20","caravans":"yes","charge":"18€","description":"There is no real reception, you go over a little bridge, and to the main buildings of the Farm.","fee":"yes","name":"Camping Dolsko","payment:cash":"yes","payment:credit_cards":"yes","tents":"yes"}},"7169063239":{"location":[46.0977689,14.5176648],"ct":"SI","tp":"SD","ts":"2024-09-28T15:53:30Z","tX":553,"tY":363,"tags":{"access":"customers","fee":"no","sanitary_dump_station:chemical_toilet":"yes","sanitary_dump_station:grey_water":"yes"}}}