{"17883033":{"location":[46.0645643,14.5020428],"ct":"SI","tp":"CR","ts":"2024-07-28T14:21:34Z","tX":553,"tY":364,"tags":{"capacity":"5","caravans":"no","charge":"15 EUR/day","fee":"yes","internet_access":"no","name":"Camperparking Ljubjana","opening_hours":"24/7","payment:credit_cards":"no","payment:cryptocurrencies":"no","payment:debit_cards":"no","payment:electronic_purses":"no","payment:notes":"yes","power_supply":"yes","sanitary_dump_station":"no","tents":"no","water_point":"no"}},"776431131":{"location":[46.034847,14.5088452],"ct":"SI","tp":"CR","ts":"2024-04-15T20:05:29Z","tX":553,"tY":364,"tags":{"capacity":"20","name":"Livada","operator":"Gostilna Livada","power_supply":"no","sanitary_dump_station":"no","surface":"asphalt;compacted;grass"}},"996954489":{"location":[46.0373297,14.46513],"ct":"SI","tp":"CR","ts":"2023-04-09T15:15:19Z","tX":553,"tY":364,"tags":{"access":"yes","addr:city":"Ljubljana","addr:postcode":"1000","capacity":"10","charge":"10.00 EUR","fee":"yes","internet_access":"no","lit":"yes","name":"PZA Camper Stop P+R Dolgi Most","opening_hours":"24/7","parking":"surface","power_supply":"yes","sanitary_dump_station":"yes","toilets":"no","wheelchair":"yes"}},"1090231087":{"location":[46.0210666,14.52324],"ct":"SI","tp":"CR","ts":"2024-03-21T10:27:11Z","tX":553,"tY":364,"tags":{"access":"customers","addr:city":"Ljubljana","addr:housenumber":"105","addr:postcode":"1000","addr:street":"Peruzzijeva ulica","capacity":"65","caravans":"no","charge":"25 EUR/day","contact:email":"info@camperstopljubljana.com","contact:phone":"+386 40330610","contact:website":"https://camperstopljubljana.com/","description":"Stellplatz für Wohmobile. Siehe ADAC Campingplatzführer / Pro Mobil 25€. / Dusche / Ver- und Entsorgung","fee":"yes","internet_access":"wlan","internet_access:fee":"yes","name":"Camper Stop Ljubljana","power_supply":"yes","sanitary_dump_station":"yes","tents":"no","water_point":"yes"}},"5017985608":{"location":[45.952632,14.7516088],"ct":"SI","tp":"CR","ts":"2022-09-18T19:25:53Z","tX":553,"tY":364,"tags":{"addr:city":"Višnja Gora","addr:housenumber":"25","addr:postcode":"1294","addr:street":"Kopališka ulica","email":"info@zlatipolz.si","fee":"yes","name":"Zlati polž","power_supply":"yes","sanitary_dump_station":"yes","shower":"yes","tents":"no","toilets":"yes","website":"https://zlatipolz.si"}},"6417358985":{"location":[46.0577917,14.5190537],"ct":"SI","tp":"CR","ts":"2019-04-20T07:15:48Z","tX":553,"tY":364,"tags":{"addr:housenumber":"17","addr:street":"Masarykova cesta","name:it":"AREA ATTREZZATA CAMPER","opening_hours":"24/7"}},"7096258387":{"location":[45.8766141,14.6131501],"ct":"SI","tp":"CR","ts":"2019-12-30T17:56:20Z","tX":553,"tY":364,"tags":{"internet_access":"no","name":"Camper Stop Turjak","power_supply":"yes","sanitary_dump_station":"yes"}},"9129900715":{"location":[45.8765353,14.6130686],"ct":"SI","tp":"SD","ts":"2024-11-12T18:16:09Z","tX":553,"tY":364,"tags":{"access":"yes","fee":"yes","panoramax":"89f5f5a6-3aa5-4dfa-9b71-e6ae0db0d3a4","panoramax:0":"43f71e90-5e39-4465-9269-f0dd16f0486a","power_supply":"yes","sanitary_dump_station:chemical_toilet":"yes","sanitary_dump_station:grey_water":"yes","water_point":"yes"}},"9205421643":{"location":[46.0371206,14.4651835],"ct":"SI","tp":"SD","ts":"2021-10-27T17:41:25Z","tX":553,"tY":364,"tags":{"fee":"yes","name":"PZA Camper Stop, P+R Dolgi Most"}}}