{"66835497":{"location":[45.0945873,14.4413341],"ct":"HR","tp":"CS","ts":"2023-11-08T03:39:43Z","tX":553,"tY":367,"tags":{"addr:city":"Krk","addr:housenumber":"4","addr:postcode":"51500","addr:street":"Glavotok","email":"info@kamp-glavotok.hr","fax":"+385 51 867 882","name":"Camping Glavotok","phone":"+385 51 867 880","website":"https://www.kamp-glavotok.hr/"}},"93341424":{"location":[45.1487858,14.6723361],"ct":"HR","tp":"CS","ts":"2024-07-18T12:25:35Z","tX":553,"tY":367,"tags":{"addr:city":"Silo","addr:postcode":"51515","addr:street":"Konjska","cabins":"yes","caravans":"yes","contact:email":"camp.silo@gppmikic.com","contact:phone":"+385 51 852 120","contact:website":"https://malin-krk.com/de/camp-tiha-silo/","drinking_water":"yes","fee":"yes","hot_water":"yes","motor_vehicle":"yes","name":"Camp Tiha","nudism":"no","permanent_camping":"yes","power_supply":"yes","sanitary_dump_station":"yes","shower":"yes","water_point":"customer"}},"149896171":{"location":[45.1534446,14.6171593],"ct":"HR","tp":"CS","ts":"2024-07-31T15:21:48Z","tX":553,"tY":367,"tags":{"addr:city":"Dobrinj","addr:country":"HR","addr:housenumber":"8a","addr:place":"Klimno","addr:postcode":"51514","cabins":"yes","capacity:pitches":"35","caravans":"yes","drinking_water":"yes","email":"info@kampslamni.com.hr","fax":"+385 51 859 027","internet_access":"wlan","internet_access:fee":"no","name":"Kamp Slamni Klimno","name:uk":"Сламні Клімно","nudism":"no","operator":"Trumm d.o.o.","phone":"+385 51 853 169;+385 98 982 8157","power_supply":"yes","shower":"yes","stars":"4","tents":"yes","toilets":"yes","website":"https://www.kampslamni.com.hr/"}},"171918638":{"location":[45.1712272,14.545409],"ct":"HR","tp":"CS","ts":"2024-09-20T07:24:08Z","tX":553,"tY":367,"tags":{"cabins":"yes","internet_access":"yes","name":"Aminess Atea Camping Resort","nudism":"no","phone":"+385 51 846 168","tents":"yes","website":"http://www.aminess-campsites.com"}},"220728150":{"location":[45.1528615,14.7234618],"ct":"HR","tp":"CS","ts":"2025-06-18T11:17:10Z","tX":553,"tY":367,"tags":{"name":"Autocamp Selce"}},"515640008":{"location":[45.2363622,14.5498481],"ct":"HR","tp":"CS","ts":"2025-06-21T20:35:42Z","tX":553,"tY":367,"tags":{"access":"customers","addr:city":"Omišalj","addr:housenumber":"1","addr:postcode":"51513","addr:street":"Vodotoč","cabins":"yes","capacity:tents":"400","caravans":"yes","contact:instagram":"https://www.instagram.com/camping_omisalj_krk/","drinking_water":"yes","fee":"yes","lit":"yes","motor_vehicle":"yes","name":"Camp Omišalj","opening_hours":"24/7","phone":"+385 51 588 637","power_supply":"yes","shower":"yes","tents":"yes","toilets":"yes","washing_machine":"yes","website":"https://www.campingomisalj.com/en/campsite/"}},"608117189":{"location":[45.2031782,14.6521607],"ct":"HR","tp":"CS","ts":"2023-08-18T16:43:19Z","tX":553,"tY":367,"tags":{"name":"Camp Kačjak"}},"625328706":{"location":[45.1533924,14.7192842],"ct":"HR","tp":"CS","ts":"2022-02-09T12:52:21Z","tX":553,"tY":367,"tags":{"name":"Autocamp Selce"}},"664128350":{"location":[45.2710544,14.5635474],"ct":"HR","tp":"CS","ts":"2019-09-11T22:19:57Z","tX":553,"tY":367,"tags":{"caravans":"yes","name":"Camping Oštro","tents":"yes"}},"1317979606":{"location":[45.1205396,14.5246069],"ct":"HR","tp":"CS","ts":"2024-09-25T06:30:32Z","tX":553,"tY":367,"tags":{"addr:housenumber":"4","addr:postcode":"51511","addr:street":"Ulica Palih Boraca","caravans":"yes","contact:email":"campdraga@gmail.com","contact:mobile":"+385 91 890 18 04","contact:website":"http://www.campdraga.com/en/","drinking_water":"yes","fee":"yes","name":"Autokamp Draga","name:en":"Autocamp Draga","opening_hours":"Mo-Su 08:00-22:00","payment:cash":"yes","power_supply":"yes","shower":"yes","static_caravans":"no","tents":"yes"}},"4929278524":{"location":[45.0909525,14.4373972],"ct":"HR","tp":"CS","ts":"2017-06-21T17:59:48Z","tX":553,"tY":367,"tags":{"name":"Mali Raj","name:hr":"Mali Raj"}},"12029727305":{"location":[45.0936044,14.4402854],"ct":"HR","tp":"SD","ts":"2024-07-02T18:32:02Z","tX":553,"tY":367,"tags":{}}}