{"2292257":{"location":[44.9660604,14.6745088],"ct":"HR","tp":"CS","ts":"2023-07-14T12:04:51Z","tX":553,"tY":368,"tags":{"access":"private","addr:city":"Stara Baška","addr:postcode":"51521","alt_name":"Camping Škrila","caravans":"yes","contact:email":"camping@valamar.com","ele":"5","fee":"yes","internet_access":"wlan","internet_access:fee":"no","motorhome":"yes","name":"Škrila Sunny Camping","nudism":"customary","operator":"Valamar","phone":"+385 52 465 010","sanitary_dump_station":"yes","shower":"yes","stars":"3","tents":"yes","toilets":"yes","website":"https://www.camping-adriatic.com/skrila-camp-krk"}},"5388800":{"location":[44.9652538,14.7459672],"ct":"HR","tp":"CS","ts":"2023-11-28T03:01:22Z","tX":553,"tY":368,"tags":{"addr:housenumber":"40","addr:street":"Put Zablaće","name":"Baška Beach Camping Resort","old_name":"kamp Zablaće","operator":"Valamar","source":"survey","website":"https://www.valamar.com/hr/kamping-baska/baska-beach-camping-resort"}},"25332709":{"location":[45.0146833,14.6266229],"ct":"HR","tp":"CS","ts":"2022-02-21T12:50:17Z","tX":553,"tY":368,"tags":{"access":"customers","addr:city":"Punat","addr:housenumber":"2","addr:postcode":"51521","addr:street":"Šetalište Ivana Brusića","barrier":"fence","capacity:caravans":"600","capacity:persons":"1800","dog":"yes","email":"camp.pila@falkensteiner.com","fee":"yes","fence_type":"wire","height":"2","internet_access":"wlan","name":"Camping Pila","shower":"yes","source":"survey","toilets":"yes","website":"https://campingpunat.com"}},"36098778":{"location":[44.9928751,14.6282864],"ct":"HR","tp":"CS","ts":"2023-08-14T12:20:48Z","tX":553,"tY":368,"tags":{"addr:city":"Punat","addr:country":"HR","addr:postcode":"51521","addr:street":"Obala","capacity":"330","caravans":"yes","drinking_water":"yes","email":"camp.konobe@falkensteiner.com","internet_access":"wlan","name":"Naturist Camping Konobe","nohousenumber":"yes","nudism":"obligatory","operator":"Falkensteiner","phone":"+385 51 854 049","power_supply":"yes","reservation":"yes","shower":"yes","stars":"2","tents":"yes","toilets":"yes","website":"https://campingpunat.com/hr/o-nama/","wheelchair":"no"}},"93614788":{"location":[45.0231213,14.591952],"ct":"HR","tp":"CS","ts":"2024-10-15T15:33:45Z","tX":553,"tY":368,"tags":{"access":"customers","backcountry":"no","caravans":"yes","check_date":"2024-07-08","dog":"leashed","drinking_water":"yes","fee":"yes","group_only":"no","internet_access":"wlan","internet_access:fee":"no","internet_access:ssid":"Valamar Guest","name":"Krk Premium Camping Resort","nudism":"designated","openfire":"no","operator":"Valamar","picnic_table":"yes","power_supply":"yes","reservation":"recommended","sanitary_dump_station":"yes","shower":"yes","stars":"5","static_caravans":"yes","surveillance":"yes","surveillance:type":"camera","tents":"yes","toilets":"yes","wheelchair":"limited"}},"118913018":{"location":[45.0196093,14.570189],"ct":"HR","tp":"CS","ts":"2023-10-03T11:31:36Z","tX":553,"tY":368,"tags":{"addr:housenumber":"37","addr:street":"Plavnička ulica","cabins":"yes","camp_site":"deluxe","caravans":"yes","contact:website":"https://www.camping-adriatic.com/jezevac-camp-krk","drinking_water":"yes","motor_vehicle":"yes","motorcar":"yes","name":"Camping Ježevac","power_supply":"yes","shower":"yes","tents":"yes"}},"129307189":{"location":[44.9658449,14.7467412],"ct":"HR","tp":"CS","ts":"2024-10-02T08:29:38Z","tX":553,"tY":368,"tags":{"addr:housenumber":"100","addr:street":"Put Zablaće","bbq":"yes","caravans":"yes","contact:email":"info@camp-mali.de","contact:mobile":"+385 98 798 931","contact:phone":"+385 51 864 181;+385 51 864 164","contact:website":"https://kamp-mali.hr/","description:de":"geöffnet von Ende März bis Ende Oktober, über die restliche Zeit ist es möglich den Platz eingeschränkt zu nutzen. Eine Toilette/Dusche ist in Betrieb.","description:en":"Open from the end of March to the end of October, during the rest of the time it is possible to use the site to a limited extent. A toilet/shower is in operation.","drinking_water":"yes","fee":"yes","internet_access":"wlan","kitchen":"yes","motorcar":"yes","name":"Mali","operator":"Tonči Hrabrić","payment:cash":"yes","payment:credit_cards":"no","payment:debit_cards":"no","permanent_camping":"no","power_supply":"yes","shower":"yes","source":"survey","tents":"yes","toilets":"yes"}},"618971293":{"location":[45.0478063,14.4815571],"ct":"HR","tp":"CS","ts":"2024-08-29T10:43:42Z","tX":553,"tY":368,"tags":{"addr:city":"Pinezići","addr:housenumber":"8","addr:postcode":"51500","addr:street":"Njivine","caravans":"yes","drinking_water":"yes","email":"camp_amar@yahoo.com","fee":"yes","internet_access":"wlan","name":"Camp Amar","phone":"+385 51 863 029","power_supply":"yes","sanitary_dump_station":"no","shower":"yes","tents":"yes","toilets":"yes","toilets:wheelchair":"no","wheelchair":"limited"}},"817654402":{"location":[45.0413738,14.4723286],"ct":"HR","tp":"CS","ts":"2023-06-03T08:42:00Z","tX":553,"tY":368,"tags":{"addr:city":"Pinezići","addr:housenumber":"96","addr:postcode":"51500","addr:street":"Put svete Fuske","bbq":"yes","cabins":"yes","camp_site":"serviced","caravans":"yes","contact:email":"info@puntajerta.com","contact:phone":"+385 99 270 0112","contact:website":"http://www.puntajerta.com","fee":"yes","motor_vehicle":"yes","name":"Punta Jerta","power_supply":"yes","shower":"yes","tents":"yes","washing_machine":"yes"}},"1020049362":{"location":[45.0234353,14.5609432],"ct":"HR","tp":"CS","ts":"2022-12-31T13:55:48Z","tX":553,"tY":368,"tags":{"addr:city":"Krk","addr:country":"HR","addr:housenumber":"10","addr:postcode":"51500","addr:street":"Crikvenička ulica","email":"info@camp-bor.hr","internet_access":"wlan","internet_access:fee":"yes","name":"Camping Bor","permanent_camping":"yes","phone":"+38551221581","stars":"3","website":"https://www.camp-bor.hr/"}},"1056661387":{"location":[45.0179153,14.6345048],"ct":"HR","tp":"CS","ts":"2023-04-29T06:36:03Z","tX":553,"tY":368,"tags":{"addr:housenumber":"1","addr:street":"N. Tesle","camp_site":"serviced","capacity:pitches":"37","caravans":"yes","contact:phone":"+385 91 946 6005; +385 91 202 0098; +385 91 165 4445","contact:website":"https://www.kamp-maslinik.hr/index.php","drinking_water":"yes","email":"booking@kamp-maslinik.hr","fee":"yes","internet_access":"wlan","internet_access:fee":"yes","motor_vehicle":"yes","name":"Camping Maslinik","opening_hours":"Apr 1 - Sep 30","operator":"Mirna Zic","permanent_camping":"yes","power_supply":"yes","shower":"yes","tents":"yes","toilets":"yes","washing_machine":"yes"}},"1126077653":{"location":[45.0187619,14.5674684],"ct":"HR","tp":"SD","ts":"2024-08-08T20:04:06Z","tX":553,"tY":368,"tags":{"access":"customers","fee":"no","water_point":"no"}},"1126744280":{"location":[45.0296749,14.5814058],"ct":"HR","tp":"CR","ts":"2023-12-29T10:32:04Z","tX":553,"tY":368,"tags":{"addr:city":"Krk","addr:housenumber":"51","addr:postcode":"51500","addr:street":"Ulica Narodnog Preporoda","contact:email":"camper.felix@gmail.com","contact:mobile":"+385 98 218218","drinking_water":"yes","internet_access":"yes","motorcar":"yes","name":"Camper Area Felix","phone":"+385 98218218","power_supply":"yes","sanitary_dump_station":"yes","shower":"yes","toilets":"yes","washing_machine":"yes"}},"1175617352":{"location":[44.8485288,14.7202945],"ct":"HR","tp":"CS","ts":"2023-05-28T13:52:49Z","tX":553,"tY":368,"tags":{"addr:city":"Rab","addr:housenumber":"2","addr:postcode":"51280","addr:street":"Lopar","cabins":"yes","capacity:cabins":"15","capacity:persons":"120","capacity:pitches":"0","capacity:tents":"30","caravans":"no","contact:email":"irc.rab@gmail.com","contact:phone":"+385 51 737 5440","drinking_water":"yes","fee":"yes","kitchen":"yes","name":"Zidine","opening_hours":"Jun-Sep","operator":"Ivo Olip","power_supply":"yes","reservation":"recommended","tents":"no","washing_machine":"yes","website":"http://www.zidine-lopar.com"}},"1597512530":{"location":[45.0159256,14.6284842],"ct":"HR","tp":"CR","ts":"2013-03-19T20:01:54Z","tX":553,"tY":368,"tags":{"name":"Pila"}},"4313435489":{"location":[45.0378279,14.6313226],"ct":"HR","tp":"CS","ts":"2024-09-03T13:31:44Z","tX":553,"tY":368,"tags":{"addr:housenumber":"1","addr:postcode":"51521","addr:street":"Marušina","caravans":"yes","drinking_water":"yes","email":"mrakov_@hotmail.com","internet_access":"wlan","name":"Marušina Olive Hills","opening_hours":"Mo-Su 07:30-21:00","phone":"+385 98 327 109","power_supply":"yes","sanitary_dump_station":"no","shower":"yes","tents":"yes","toilets":"yes","website":"https://marusinaolivehills.co/"}},"5145309218":{"location":[45.0493121,14.489431],"ct":"HR","tp":"CS","ts":"2023-05-05T17:05:43Z","tX":553,"tY":368,"tags":{"addr:city":"Krk","addr:housenumber":"29","addr:place":"Skrbcici","addr:postcode":"51500","capacity":"30","caravans":"yes","drinking_water":"yes","email":"info@camp-marta-krk.com","mobile":"+385 98 491 807","name":"Kamp Marta","shower":"yes","tents":"yes","toilets":"yes","website":"http://www.camp-marta-krk.com/index.php/en/"}},"6789384382":{"location":[44.966661,14.673707],"ct":"HR","tp":"SD","ts":"2024-09-24T06:40:51Z","tX":553,"tY":368,"tags":{"fee":"yes","sanitary_dump_station:grey_water":"yes"}},"6789436876":{"location":[44.9664158,14.6729051],"ct":"HR","tp":"SD","ts":"2019-09-11T23:42:45Z","tX":553,"tY":368,"tags":{"sanitary_dump_station:grey_water":"yes"}},"9709517045":{"location":[45.0180511,14.6350283],"ct":"HR","tp":"SD","ts":"2022-05-02T16:20:19Z","tX":553,"tY":368,"tags":{"access":"customers"}},"12050152887":{"location":[45.0237687,14.5910097],"ct":"HR","tp":"SD","ts":"2024-07-12T21:43:34Z","tX":553,"tY":368,"tags":{"fee":"no","water_point":"yes"}}}