{"101386112":{"location":[42.1542255,14.7173635],"ct":"IT","tp":"CS","ts":"2024-10-16T20:25:52Z","tX":553,"tY":379,"tags":{"addr:city":"Vasto","addr:housenumber":"6","addr:street":"Via Osca","caravans":"yes","dog":"yes","email":"info@grottadelsaraceno.it","fee":"yes","motorhome":"yes","name":"Grotta del Saraceno Village","phone":"+39 0873 31021","power_supply":"yes","socket:cee_blue":"yes","stars":"4","tents":"yes","website":"https://www.grottadelsaraceno.it/"}},"102321158":{"location":[42.2032591,14.598874],"ct":"IT","tp":"CS","ts":"2023-10-27T16:15:20Z","tX":553,"tY":379,"tags":{"addr:city":"Torino di Sangro","addr:housenumber":"63","addr:street":"Contrada Palude","cabins":"yes","camp_site":"deluxe","caravans":"yes","check_date":"2023-07-29","drinking_water":"yes","fee":"yes","internet_access":"no","name":"Camping Le Morge","phone":"+39 0873 911378","power_supply":"yes","reservation":"recommended","shower":"yes","source":"Bing","swimming_pool":"yes","toilets":"yes","website":"https://www.campinglemorge.it/"}},"175413420":{"location":[42.0784774,14.749947],"ct":"IT","tp":"CS","ts":"2023-11-19T14:56:41Z","tX":553,"tY":379,"tags":{"caravans":"yes","drinking_water":"yes","name":"Camping Europa","power_supply":"yes","shower":"yes","tents":"yes","toilets":"yes"}},"389266466":{"location":[42.1825922,14.6587838],"ct":"IT","tp":"CS","ts":"2024-10-16T20:20:05Z","tX":553,"tY":379,"tags":{"addr:city":"Vasto","addr:street":"Via Torre Sinello","caravans":"yes","dog":"yes","name":"Camping Oasi Punta Aderci","power_supply":"yes","socket:cee_blue":"yes","tents":"yes","website":"http://www.oasipuntaderci.it"}},"425545818":{"location":[42.0824358,14.7434466],"ct":"IT","tp":"CS","ts":"2024-09-13T11:13:15Z","tX":553,"tY":379,"tags":{"capacity:caravans":"150","capacity:tents":"150","caravans":"yes","dog":"yes","drinking_water":"yes","motorhome":"yes","name":"Camping Internazionale Free Beach Residence","power_supply":"yes","power_supply:maxcurrent":"3;6","shower":"yes","socket:cee_blue":"yes","static_caravans":"yes","tents":"yes","toilets":"yes","website":"https://www.freeb.it/"}},"425545825":{"location":[42.0852743,14.7389929],"ct":"IT","tp":"CS","ts":"2024-09-13T11:07:44Z","tX":553,"tY":379,"tags":{"addr:street":"Via Strada Statale 16 Sud","caravans":"yes","dog":"leashed","fee":"yes","motorhome":"yes","name":"Camping e Residence \"Il Pioppeto\"","power_supply":"yes","power_supply:maxcurrent":"3;6","tents":"yes","website":"https://www.ilpioppeto.it/"}},"623107752":{"location":[42.2406388,14.5298571],"ct":"IT","tp":"CR","ts":"2024-10-25T15:55:07Z","tX":553,"tY":379,"tags":{"bar":"yes","capacity":"24","contact:phone":"+393381713535","dog":"yes","fee":"yes","internet_access":"no","name":"Area Camper Il Chiosco sul Mare","power_supply":"yes","sanitary_dump_station":"yes","seasonal":"no","shower":"yes","toilets":"yes","water_point":"yes","website":"https://fossacesia.org/area-camper/"}},"639106610":{"location":[42.2003393,14.6091422],"ct":"IT","tp":"CS","ts":"2024-10-28T07:05:29Z","tX":553,"tY":379,"tags":{"caravans":"yes","email":"booking@campingsantostefano.com","fee":"yes","landuse":"residential","motorhome":"yes","name":"Camping Vacanze Santo Stefano","power_supply":"yes","power_supply:maxcurrent":"3;6","reservation":"yes","tents":"yes","website":"https://www.campingsantostefano.com/"}},"639106624":{"location":[42.2056424,14.5989338],"ct":"IT","tp":"CS","ts":"2024-12-14T08:05:34Z","tX":553,"tY":379,"tags":{"addr:city":"Casalbordino","addr:place":"Le Morge","addr:postcode":"66020","caravans":"yes","contact:email":"campingbelvedere@hotmail.it","dog":"yes","fee":"yes","mobile":"+39 388 306 3559","motorhome":"yes","name":"Camping Belvedere","power_supply":"yes","shower":"hot","stars":"2","tents":"yes","toilets":"yes","website":"https://www.campeggiobelvedere.it/"}},"1225230007":{"location":[42.0722077,14.7623518],"ct":"IT","tp":"CR","ts":"2023-11-19T17:05:35Z","tX":553,"tY":379,"tags":{"drinking_water":"yes","fee":"yes","name":"Poseidon beach Village","power_supply":"yes","wheelchair":"yes"}},"1317942136":{"location":[42.2343239,14.5439472],"ct":"IT","tp":"CS","ts":"2024-10-26T08:01:04Z","tX":553,"tY":379,"tags":{"addr:city":"Torino di Sangro","addr:housenumber":"224","addr:postcode":"66020","addr:street":"Viale Costa Verde","cabins":"yes","capacity:caravans":"25","caravans":"yes","contact:whatsapp":"+393391343658","fee":"yes","motorhome":"yes","name":"Sun Beach","power_supply":"yes","socket:cee_blue":"yes","tents":"yes","website":"https://www.campingsunbeach.it/"}},"1328331510":{"location":[42.2073856,14.5934166],"ct":"IT","tp":"CS","ts":"2024-10-26T08:31:01Z","tX":553,"tY":379,"tags":{"capacity:caravans":"97","caravans":"yes","contact:phone":"+393209175038","contact:whatsapp":"+393209175038","dog":"yes","internet_access":"wlan","motorhome":"yes","name":"Verdemare Camping","power_supply":"yes","reservation":"yes","socket:cee_blue":"yes","tents":"yes","website":"https://www.campeggioverdemare.it/"}},"11362341199":{"location":[42.0715826,14.7637692],"ct":"IT","tp":"CS","ts":"2023-11-19T16:40:46Z","tX":553,"tY":379,"tags":{"name":"Poseidon beach Village"}},"5305339325":{"location":[42.1163287,14.703557],"ct":"IT","tp":"CR","ts":"2023-01-08T17:25:02Z","tX":553,"tY":379,"tags":{"covered":"yes","opening_hours":"24/7"}},"10035858921":{"location":[42.1997734,14.5614125],"ct":"IT","tp":"SD","ts":"2022-09-19T07:23:54Z","tX":553,"tY":379,"tags":{"access":"yes"}},"12289750235":{"location":[42.2079184,14.5938408],"ct":"IT","tp":"SD","ts":"2024-10-26T08:31:01Z","tX":553,"tY":379,"tags":{"fee":"yes","water_point":"yes"}}}