{"76016569":{"location":[40.7463903,14.4838967],"ct":"IT","tp":"CS","ts":"2024-08-12T08:33:36Z","tX":553,"tY":384,"tags":{"addr:housenumber":"117","addr:street":"Via Plinio","cabins":"yes","caravans":"yes","email":"staff@campingspartacus.it","internet_access":"yes","name":"Spartacus","phone":"+39 081 8624078","power_supply":"yes","shower":"yes","socket:cee_blue":"yes","stars":"3","tents":"yes","toilets":"yes","website":"https://www.campingspartacus.it/"}},"95164035":{"location":[40.7499017,14.4800394],"ct":"IT","tp":"CS","ts":"2024-09-09T09:25:53Z","tX":553,"tY":384,"tags":{"addr:country":"IT","caravans":"yes","dryer":"yes","email":"info@campingzeus.it","internet_access":"wlan","internet_access:fee":"yes","name":"Zeus","phone":"+390818615320","power_supply":"yes","power_supply:maxcurrent":"10","shower":"yes","socket:cee_blue":"yes","source":"Bing","tents":"yes","toilets":"yes","washing_machine":"yes","website":"http://www.campingzeus.it/"}},"396568434":{"location":[40.7541631,14.4972533],"ct":"IT","tp":"CR","ts":"2024-08-09T16:08:27Z","tX":553,"tY":384,"tags":{"addr:city":"Pompei","addr:country":"IT","addr:housenumber":"23","addr:postcode":"80045","addr:street":"Via Antonio Segni","capacity":"20","email":"tommaso.ametrano@virgilio.it","fee":"yes","name":"Area di Sosta della Famiglia Ametrano","operator":"Signor Arcangelo","phone":"+39  333 932 2467","power_supply":"yes","sanitary_dump_station":"yes","socket:cee_blue":"yes","website":"https://www.facebook.com/sostaametrano/"}},"622818272":{"location":[40.7463076,14.4846109],"ct":"IT","tp":"CS","ts":"2024-09-09T09:29:45Z","tX":553,"tY":384,"tags":{"cabins":"yes","capacity:caravans":"50","caravans":"yes","email":"info@fortunavillagepompei.it","internet_access":"wlan","internet_access:fee":"customers","motorhome":"50","name":"Fortuna Village","phone":"+39081 850 84 39","power_supply":"yes","power_supply:maxcurrent":"10","shower":"yes","socket:cee_blue":"yes","tents":"yes","toilets":"yes","website":"http://www.fortunavillagepompei.it/"}},"987308959":{"location":[40.91619,14.4512285],"ct":"IT","tp":"CS","ts":"2021-10-09T15:44:04Z","tX":553,"tY":384,"tags":{"access":"private","club":"scout","contact:facebook":"https://www.facebook.com/baseletizia","name":"Base Scout Letizia","operator":"AGESCI gruppo Marigliano 2","scout":"yes","shower":"yes","tents":"yes","toilets":"yes"}},"1307190883":{"location":[40.7606541,14.4919284],"ct":"IT","tp":"CS","ts":"2024-08-12T08:14:47Z","tX":553,"tY":384,"tags":{"access":"private","addr:city":"Pompei","addr:housenumber":"27","addr:postcode":"80045","addr:street":"Via Parrelle Civita Giuliana","area":"yes","capacity:caravans":"50","capacity:persons":"170","caravans":"yes","charge":"30","dog":"yes","email":"hermes.pompeii@gmail.com","fee":"yes","group_only":"no","motorhome":"yes","name":"La Terrazza di Herm√®s","phone":"+39 371 1443189","power_supply":"yes","power_supply:maxcurrent":"6","shower":"yes","socket:cee_blue":"yes","tents":"no","toilets":"yes","washing_machine":"yes","website":"https://www.laterrazzadihermes.com/"}},"1307190886":{"location":[40.761233,14.4914032],"ct":"IT","tp":"CS","ts":"2024-08-12T08:14:47Z","tX":553,"tY":384,"tags":{"addr:city":"Pompei","addr:housenumber":"4","addr:postcode":"80045","addr:street":"Via Parrelle Civita Giuliana","area":"yes","capacity:caravans":"40","caravans":"yes","email":"agricamperlagiuliana@libero.it","facebook":"agricamperlagiulianapompei","fee":"yes","motorhome":"yes","name":"Agricamper La Giuliana","phone":"+39 081 863 7634","power_supply":"yes","power_supply:maxcurrent":"3","shower":"yes","socket:cee_blue":"yes","toilets":"yes"}},"1307192615":{"location":[40.7461739,14.485234],"ct":"IT","tp":"CS","ts":"2024-08-12T08:33:36Z","tX":553,"tY":384,"tags":{"addr:city":"Pompei","addr:housenumber":"113","addr:postcode":"80045","addr:street":"Via Plinio","caravans":"yes","email":"info@campingpompei.it","fee":"yes","internet_access":"yes","motorhome":"yes","name":"Camping Pompei","phone":"+39 081 8502772","power_supply":"yes","shower":"yes","socket:cee_blue":"yes","tents":"yes","toilets":"yes","website":"http://www.campingpompei.it"}},"9817932736":{"location":[40.827328,14.4815101],"ct":"IT","tp":"CS","ts":"2024-03-24T18:52:15Z","tX":553,"tY":384,"tags":{"caravans":"yes","drinking_water":"yes","name":"Eco Camping Vesuvio","operator":"Andrea","power_supply":"yes","shower":"yes","tents":"yes","toilets":"yes","website":"https://www.vesuvioeco.it/","wheelchair":"no"}},"9355022807":{"location":[40.7335811,14.6791865],"ct":"IT","tp":"SD","ts":"2021-12-21T08:28:33Z","tX":553,"tY":384,"tags":{"access":"yes","fee":"yes","water_point":"yes"}}}