{"478108032":{"location":[61.4358159,13.2447585],"ct":"SE","tp":"CS","ts":"2021-04-10T17:54:26Z","tX":549,"tY":289,"tags":{"capacity":"6","description":"En camping i Nornäs. Campingen har elstolpar för dig som kommer i husvagn eller husbil. Servicehus finns i den närbelägna bygdegården,","fee":"yes","internet_access":"no","name":"Nornäs Camping","operator":"Nornäs Bygdegårdsförening","source":"GPS","website":"https://www.bygdegardarna.se/nornas/camping/"}},"478120846":{"location":[61.4378473,13.2915535],"ct":"SE","tp":"CS","ts":"2024-02-19T22:04:33Z","tX":549,"tY":289,"tags":{"addr:city":"Sörsjön","addr:postcode":"78069","addr:street":"Ransistugan","description":"Ransi naturcamping ligger vid den 5 kilometer långa sjön Ransis södra ände. Vid campingen finns en båtplats där besökare kan sätta i sina kanoter.","name":"Ransi Naturcamping","website":"https://www.bygdegardarna.se/nornas/camping/naturcamping/"}},"2343647392":{"location":[61.435418,13.2430095],"ct":"SE","tp":"CR","ts":"2024-05-13T19:37:27Z","tX":549,"tY":289,"tags":{"capacity":"6","fee":"yes","operator":"Nornäs Bygdegårdsförening","power_supply":"yes","source":"GPS","website":"https://www.bygdegardarna.se/nornas/camping/"}},"4713815414":{"location":[61.437698,13.2915588],"ct":"SE","tp":"CS","ts":"2019-03-25T21:35:42Z","tX":549,"tY":289,"tags":{"addr:city":"Sörsjön","addr:postcode":"78069","addr:street":"Ransistugan","capacity":"2","description":"Ransi naturcamping ligger vid den 5 kilometer långa sjön Ransis södra ände. Vid campingen finns en båtplats där besökare kan sätta i sina kanoter.","fee":"no","internet_access":"no","operator":"Nornäs Samfällighetsförening","website":"https://www.bygdegardarna.se/nornas/camping/naturcamping/"}},"4713801270":{"location":[61.4379185,13.2916715],"ct":"SE","tp":"CR","ts":"2019-03-25T21:35:39Z","tX":549,"tY":289,"tags":{"addr:city":"Sörsjön","addr:postcode":"78069","addr:street":"Ransistugan","capacity":"2","description":"Ransi naturcamping ligger vid den 5 kilometer långa sjön Ransis södra ände. Vid campingen finns en båtplats där besökare kan sätta i sina kanoter.","fee":"no","internet_access":"no","operator":"Nornäs Samfällighetsförening","power_supply":"no","website":"https://www.bygdegardarna.se/nornas/camping/naturcamping/"}},"4714447518":{"location":[61.4272651,13.2432473],"ct":"SE","tp":"SD","ts":"2017-03-03T04:03:12Z","tX":549,"tY":289,"tags":{"access":"yes","fee":"no","name":"Nornäs Reningsverk","operator":"Älvdalens Kommun"}}}