{"39672366":{"location":[58.5141889,13.1400397],"ct":"SE","tp":"CR","ts":"2024-08-12T17:54:06Z","tX":549,"tY":305,"tags":{"addr:city":"Lidköping","addr:country":"SE","addr:housenumber":"22","addr:postcode":"53154","addr:street":"Läckögatan","caravans":"yes","drinking_water":"yes","fee":"yes","internet_access":"wlan","internet_access:fee":"no","name":"KronoCamping Lidköping","organisation":"ACSI; SCR","power_supply":"yes","sanitary_dump_station":"yes","tents":"yes","toilets":"yes","website":"https://www.kronocamping.com/"}},"322574522":{"location":[58.4937113,13.2495021],"ct":"SE","tp":"CS","ts":"2020-08-14T01:46:58Z","tX":549,"tY":305,"tags":{"name":"Filsbäcks Camping","wheelchair":"limited"}},"9907337650":{"location":[58.5056232,13.162414],"ct":"SE","tp":"CR","ts":"2022-07-24T10:47:43Z","tX":549,"tY":305,"tags":{"capacity:caravans":"7","fee":"no"}},"4448464639":{"location":[58.5132,13.15496],"ct":"SE","tp":"SD","ts":"2017-09-23T11:46:30Z","tX":549,"tY":305,"tags":{"access":"yes","boat":"yes","fee":"no","name":"Tömningsstation","opening_hours":"24/7","sanitary_dump_station:accepted":"black_water","sanitary_dump_station:pump-out":"yes","seamark:small_craft_facility:category":"pump-out","seamark:type":"small_craft_facility","vehicle":"no","waterway":"sanitary_dump_station","website":"https://hamnkartan.azurewebsites.net"}},"4448464645":{"location":[58.5443076,13.3050246],"ct":"SE","tp":"SD","ts":"2018-02-25T11:51:48Z","tX":549,"tY":305,"tags":{"access":"yes","boat":"yes","fee":"no","name":"Tömningsstation","opening_hours":"24/7","sanitary_dump_station:accepted":"black_water","sanitary_dump_station:pump-out":"yes","seamark:small_craft_facility:category":"pump-out","seamark:type":"small_craft_facility","vehicle":"no","waterway":"sanitary_dump_station","website":"https://hamnkartan.azurewebsites.net"}}}