{"661355832":{"location":[56.2753977,13.2938627],"ct":"SE","tp":"CS","ts":"2023-08-25T06:50:15Z","tX":549,"tY":317,"tags":{"addr:city":"Örkelljunga","addr:country":"SE","addr:housenumber":"1","addr:postcode":"28621","addr:street":"Ålstigen","caravans":"yes","contact:email":"info@hjelmsjonscamping.se","contact:facebook":"https://www.facebook.com/hjelmsjocamping","contact:phone":"+46 435 48 38 00","internet_access":"wlan","internet_access:fee":"yes","name":"Hjelmsjö Camping","stars":"3","tents":"yes","toilets":"yes","website":"https://hjelmsjocamping.se/"}},"1994382919":{"location":[56.3564232,13.1068937],"ct":"SE","tp":"CS","ts":"2023-08-21T08:29:51Z","tX":549,"tY":317,"tags":{"caravans":"no","drinking_water":"yes","name":"Skåneleden Shelter Koarp","power_supply":"no","shower":"no","tents":"yes","toilets":"yes","wheelchair":"yes"}},"4349507222":{"location":[56.3174329,13.0709932],"ct":"SE","tp":"CS","ts":"2016-08-14T09:06:32Z","tX":549,"tY":317,"tags":{"fee":"no"}},"5509325896":{"location":[56.2625238,13.1532687],"ct":"SE","tp":"CS","ts":"2024-07-05T19:05:50Z","tX":549,"tY":317,"tags":{"addr:street":"Brekillevägen","caravans":"yes","drinking_water":"yes","internet_access":"wlan","name":"Persköps ställplats","reservation":"no","sanitary_dump_station":"customers","shower":"yes","tents":"no","toilets":"yes","website":"https://www.perskopsstallplats.com/"}},"5781707810":{"location":[56.2861331,13.3393333],"ct":"SE","tp":"CR","ts":"2018-07-24T12:14:21Z","tX":549,"tY":317,"tags":{}}}