{"82596599":{"location":[55.3633274,13.2091935],"ct":"SE","tp":"CS","ts":"2024-08-28T12:35:16Z","tX":549,"tY":322,"tags":{"addr:city":"Trelleborg","addr:country":"SE","addr:housenumber":"2","addr:postcode":"231 32","addr:street":"Dalköpinge strandväg","backcountry":"no","caravans":"yes","check_date":"2024-08-26","drinking_water":"yes","email":"info@trelleborgstrand.se","fee":"yes","internet_access":"wlan","internet_access:fee":"customers","name":"Trelleborg Strand","payment:cash":"no","payment:girocard":"yes","payment:mastercard":"yes","payment:mastercard_contactless":"yes","payment:visa":"yes","payment:visa_contactless":"yes","phone":"+46 410 301 770","power_supply":"yes","sanitary_dump_station":"yes","shower":"yes","source":"survey","stars":"3","tents":"yes","toilets":"yes","website":"https://trelleborgstrand.se","wheelchair":"yes"}},"434930990":{"location":[55.3736452,13.134454],"ct":"SE","tp":"CR","ts":"2023-08-27T21:07:09Z","tX":549,"tY":322,"tags":{"charge":"250 SEK","fee":"yes","name":"Trelleborg Ställplats","payment:online_payment":"yes","power_supply":"yes","sanitary_dump_station":"yes","toilets":"yes","water_point":"yes","website":"https://www.tallyweb.dk/stallplats-trelleborg/home","wheelchair":"yes"}},"5196233941":{"location":[55.3540642,13.2427209],"ct":"SE","tp":"CS","ts":"2024-08-17T08:42:41Z","tX":549,"tY":322,"tags":{"access":"customers","addr:city":"Trelleborg","addr:country":"SE","addr:housenumber":"2","addr:postcode":"231 92","addr:street":"Hummervägen","capacity:caravans":"28","caravans":"yes","drinking_water":"yes","name":"Camping Nybostrand","power_supply":"yes","sanitary_dump_station":"yes","shower":"yes","tents":"yes","toilets":"yes","website":"https://nybostrand.se/"}},"4448464183":{"location":[55.37557,13.0537],"ct":"SE","tp":"SD","ts":"2017-09-23T11:45:58Z","tX":549,"tY":322,"tags":{"access":"yes","boat":"yes","fee":"no","name":"Tömningsstation","opening_hours":"24/7","sanitary_dump_station:accepted":"black_water","sanitary_dump_station:pump-out":"yes","seamark:small_craft_facility:category":"pump-out","seamark:type":"small_craft_facility","vehicle":"no","waterway":"sanitary_dump_station","website":"https://hamnkartan.azurewebsites.net"}},"9877683139":{"location":[55.3738246,13.1339662],"ct":"SE","tp":"SD","ts":"2022-07-09T23:49:46Z","tX":549,"tY":322,"tags":{"access":"permit","water_point":"yes"}},"12139032351":{"location":[55.363255,13.2088011],"ct":"SE","tp":"SD","ts":"2024-08-27T04:10:06Z","tX":549,"tY":322,"tags":{}}}