{"30122068":{"location":[54.6630502,13.2686734],"ct":"DE","tp":"CS","ts":"2023-08-07T17:45:48Z","tX":549,"tY":325,"tags":{"addr:city":"Dranske","addr:housenumber":"23","addr:postcode":"18556","addr:street":"Nonnevitz","addr:suburb":"Bakenberg","caravans":"yes","drinking_water":"yes","email":"info@kuestencamp-ruegen.de","name":"Küstencamp 23","phone":"+49 38391 939070","tents":"yes","website":"https://kuestencamp.de/"}},"38736924":{"location":[54.6632551,13.2693336],"ct":"DE","tp":"CR","ts":"2023-08-07T17:47:25Z","tX":549,"tY":325,"tags":{"access":"permissive","name":"Küstencamp Nonnevitz","parking":"surface","power_supply":"yes","sanitary_dump_station":"yes","sanitary_dump_station:chemical_toilet":"yes","sanitary_dump_station:grey_water":"yes","toilets":"yes"}},"91728249":{"location":[54.6290512,13.2223278],"ct":"DE","tp":"CS","ts":"2024-07-21T21:21:18Z","tX":549,"tY":325,"tags":{"addr:city":"Dranske","addr:country":"DE","addr:housenumber":"39a","addr:postcode":"18556","addr:street":"Seestraße","capacity":"60","caravans":"yes","check_date:opening_hours":"2021-09-12","contact:email":"caravancamp.ostseeblick@t-online.de","contact:fax":"+49 38391 89253","contact:phone":"+49 38391 8196","drinking_water":"yes","fee":"yes","internet_access":"wlan","name":"Caravancamp Ostseeblick","opening_hours":"Nov-Apr off","power_supply":"yes","sanitary_dump_station":"yes","shower":"yes","tents":"yes","toilets":"yes","water_point":"yes","website":"https://www.caravancamp-ostseeblick.de/","wheelchair":"yes"}},"121122102":{"location":[54.6344876,13.344535],"ct":"DE","tp":"PK","ts":"2023-01-19T08:54:59Z","tX":549,"tY":325,"tags":{"motorhome":"yes","parking":"surface"}},"168704199":{"location":[54.639726,13.3130506],"ct":"DE","tp":"CR","ts":"2018-08-29T18:51:30Z","tX":549,"tY":325,"tags":{"fee":"yes","name":"Hof Lüttkevitz"}},"185353715":{"location":[54.6282729,13.2901969],"ct":"DE","tp":"CS","ts":"2024-09-04T10:15:36Z","tX":549,"tY":325,"tags":{"name":"Surf & Kite Camp"}},"267417906":{"location":[54.6597633,13.2596438],"ct":"DE","tp":"CS","ts":"2024-07-26T09:39:06Z","tX":549,"tY":325,"tags":{"addr:city":"Dranske","addr:country":"DE","addr:housenumber":"2","addr:place":"Kreptitz","addr:postcode":"18556","caravans":"yes","email":"info@ostseewind-kreptitz.de","fax":"+49 38391 689473","name":"Ostseewind","phone":"+49 38391 89595","tents":"yes","website":"http://ostseewind-kreptitz.de"}},"338679263":{"location":[54.6662678,13.27448],"ct":"DE","tp":"CS","ts":"2024-02-18T14:44:32Z","tX":549,"tY":325,"tags":{"cabins":"yes","dog":"yes","name":"Feriendorf FYNNUS","shower":"yes","toilets":"yes"}},"338679320":{"location":[54.6652719,13.2719415],"ct":"DE","tp":"CS","ts":"2024-02-18T14:44:32Z","tX":549,"tY":325,"tags":{"cabins":"yes","dog":"yes","shower":"yes","toilets":"yes"}},"338679416":{"location":[54.6651465,13.268208],"ct":"DE","tp":"CS","ts":"2024-02-18T14:44:32Z","tX":549,"tY":325,"tags":{"dog":"yes","name":"Heidehof","shower":"yes","toilets":"yes"}},"338681563":{"location":[54.6712407,13.2939421],"ct":"DE","tp":"CS","ts":"2020-04-21T06:45:21Z","tX":549,"tY":325,"tags":{"name":"Gotha"}},"338681564":{"location":[54.6701854,13.2846186],"ct":"DE","tp":"CS","ts":"2021-03-14T17:54:40Z","tX":549,"tY":325,"tags":{"addr:city":"Dranske","addr:housenumber":"21a","addr:street":"Nonnevitz","cabins":"yes","caravans":"unknow","name":"Feriendorf Sanddorn","tents":"unknow"}},"338681565":{"location":[54.6723699,13.2938456],"ct":"DE","tp":"CS","ts":"2020-04-21T06:45:21Z","tX":549,"tY":325,"tags":{"name":"MC Burgstaedt 23 a"}},"338681605":{"location":[54.6713587,13.2913135],"ct":"DE","tp":"CS","ts":"2024-08-01T13:46:56Z","tX":549,"tY":325,"tags":{"caravans":"yes","drinking_water":"yes","name":"Feriendorf Jena","shower":"yes","tents":"yes","toilets":"yes"}},"338683096":{"location":[54.6682252,13.3022859],"ct":"DE","tp":"CS","ts":"2024-02-18T14:44:32Z","tX":549,"tY":325,"tags":{"addr:city":"Altenkirchen","addr:housenumber":"1","addr:postcode":"18556","addr:street":"Am Wald","addr:suburb":"Nonnewitz","cabins":"yes","caravans":"no","contact:phone":"+49 38391 89577","name":"Feriendorf Duna","operator":"Petra Trebesch","tents":"no","website":"https://www.ruegentourismus.de/"}},"433048596":{"location":[54.6703942,13.2874341],"ct":"DE","tp":"CS","ts":"2022-09-28T20:09:02Z","tX":549,"tY":325,"tags":{"cabins":"yes","caravans":"unknow","name":"Feriensiedlung \"Am Mövenort\"","operator":"Martina Grieger","phone":"+493839189058","tents":"unknow","website":"https://www.moevenort.de/","wheelchair":"no"}},"433048597":{"location":[54.6716153,13.2867029],"ct":"DE","tp":"CS","ts":"2021-03-14T17:54:40Z","tX":549,"tY":325,"tags":{"name":"Feriensiedlung \"Am Mövenort\"","operator":"Martina Grieger","sanitary_dump_station":"no","smoking":"yes","wheelchair":"no"}},"433051874":{"location":[54.671153,13.304846],"ct":"DE","tp":"CS","ts":"2024-06-16T10:44:35Z","tX":549,"tY":325,"tags":{"caravans":"yes","description":"Rotierendes Bus-Shuttle auf dem Gelände, FKK-Strand.\nTipps: Bei dem Müllplatz findet man oft benutzte Grills und Campingmobiliar, der Lageplan ist nur begrenzt hilfreich beim Finden der Parzellen","drinking_water":"yes","name":"Regenbogencamp Nonnevitz","operator":"Regenbogen AG","power_supply":"yes","sanitary_dump_station":"yes","shower":"yes","stars":"4","tents":"yes","toilets":"yes"}},"774944156":{"location":[54.6665438,13.2810476],"ct":"DE","tp":"CS","ts":"2020-02-23T09:52:16Z","tX":549,"tY":325,"tags":{"cabins":"yes","caravans":"unknown","dog":"yes","name":"Ferienanlage Waldeck","operator":"Mandy von Altenburg","shower":"yes","tents":"unknown","toilets":"yes","website":"https://www.waldeck-ruegen.de/"}},"835974314":{"location":[54.6678648,13.3038742],"ct":"DE","tp":"CS","ts":"2024-02-18T14:44:32Z","tX":549,"tY":325,"tags":{"addr:city":"Dranske","addr:country":"DE","addr:housenumber":"9","addr:postcode":"18556","addr:street":"Nonnevitz","addr:suburb":"Nonnevitz","contact:email":"info@ruegen-holiday-fun.de","contact:fax":"+49 38391 89488","contact:phone":"+49 38391 89488","name":"Luigi's Caravanplatz","operator":"Rügen Holiday & Fun","website":"https://ostseemagazin.net/wohnmobil-stellplatz-deutsche-ostsee/"}},"9082585902":{"location":[54.6634963,13.2695721],"ct":"DE","tp":"SD","ts":"2021-09-11T19:43:25Z","tX":549,"tY":325,"tags":{"access":"yes","fee":"no","sanitary_dump_station:grey_water":"yes"}}}