{"26392831":{"location":[54.4641119,13.1369564],"ct":"DE","tp":"CS","ts":"2024-06-06T17:29:22Z","tX":549,"tY":326,"tags":{"addr:country":"DE","addr:housenumber":"4","addr:street":"Suhrendorf","contact:website":"https://www.regenbogen.ag/ferienanlagen/suhrendorf.html","internet_access":"wlan","name":"Regenbogencamp Suhrendorf","wheelchair":"yes"}},"201587844":{"location":[54.5159213,13.1645514],"ct":"DE","tp":"CS","ts":"2024-09-03T08:55:38Z","tX":549,"tY":326,"tags":{"caravans":"yes","drinking_water":"yes","name":"Camping Schaprode","power_supply":"yes","sanitary_dump_station":"yes","shower":"yes","tents":"yes","toilets":"yes","toilets:wheelchair":"no","url":"https://www.camping-schaprode.de/","wheelchair":"limited"}},"282037838":{"location":[54.4321537,13.0270333],"ct":"DE","tp":"CR","ts":"2025-01-29T21:38:04Z","tX":549,"tY":326,"tags":{"capacity":"24","caravan_site":"motorhome_stopover","caravan_site:type":"beach;harbour","charge":"24 EUR","email":"hafen@sprenger-barhoeft-maritim.de","fee":"yes","name":"Stellplatz Barhöft","note":"Gebühr incl. Ver und Entsorgung","phone":"+49 38323 531;+49 151 58502706","power_supply":"yes","power_supply:fee":"no","sanitary_dump_station":"yes","sanitary_dump_station:fee":"no","toilets":"yes","water_point":"yes","water_point:fee":"no","website":"https://www.sprenger-barhoeft-maritim.de/ueber-uns","wheelchair":"limited"}},"609215376":{"location":[54.4481384,13.2607808],"ct":"DE","tp":"CS","ts":"2019-06-03T17:17:47Z","tX":549,"tY":326,"tags":{"addr:city":"Gingst","addr:housenumber":"2","addr:postcode":"18569","addr:street":"Haidhof","cabins":"no","capacity":"15","caravans":"yes","contact:website":"http://rwolf.de","name":"Ferienhof Wolf","power_supply":"yes","sanitary_dump_station":"yes","tents":"yes"}},"1182115704":{"location":[54.3855485,13.0262303],"ct":"DE","tp":"CS","ts":"2024-08-07T12:37:54Z","tX":549,"tY":326,"tags":{"addr:city":"Prohn","addr:housenumber":"1","addr:postcode":"18445","addr:street":"Klausdorfer Weg","caravans":"yes","contact:mobile":"0157 51593290","contact:website":"https://naturcamp-kranich-rast.de/","drinking_water":"yes","name":"Naturcamp Kranichrast","power_supply":"yes","sanitary_dump_station":"yes","shower":"yes","static_caravans":"no","tents":"yes","toilets":"yes"}},"6557101086":{"location":[54.5184547,13.1646714],"ct":"DE","tp":"CS","ts":"2020-06-15T09:09:30Z","tX":549,"tY":326,"tags":{"ref":"D3"}},"5762194430":{"location":[54.4321138,13.0268642],"ct":"DE","tp":"SD","ts":"2018-07-15T19:06:53Z","tX":549,"tY":326,"tags":{"access":"yes","fee":"yes","sanitary_dump_station:basin":"yes"}}}