{"3205567":{"location":[53.8916981,13.1255654],"ct":"DE","tp":"CS","ts":"2024-04-12T22:45:59Z","tX":549,"tY":329,"tags":{"backcountry":"yes","caravans":"no","fee":"yes","name":"Wasserwanderrastplatz Sanzkow","object:city":"Siedenbrünzow","object:country":"DE","object:postcode":"17111","object:street":"Sanzkow","operator":"Gemeinde Siedenbrünzow","static_caravans":"no","surface":"grass","tents":"yes","website":"https://www.vorpommern.de/reiseziele/details/stamm/show/wasserwanderrastplatz-einsetzstelle-sanzkow/"}},"60260819":{"location":[53.8766061,13.1681526],"ct":"DE","tp":"CS","ts":"2013-09-13T16:18:38Z","tX":549,"tY":329,"tags":{"name":"Wasserwanderplatz Vanselow"}},"60260823":{"location":[53.7905184,13.3122508],"ct":"DE","tp":"CS","ts":"2023-03-09T14:26:22Z","tX":549,"tY":329,"tags":{"caravans":"no","name":"Wasserwanderplatz Klempenow","tents":"yes"}},"95739318":{"location":[53.9040798,13.0277437],"ct":"DE","tp":"CS","ts":"2024-06-21T13:45:23Z","tX":549,"tY":329,"tags":{"name":"Wasserwanderrastplatz Segelhafen Demmin","shower":"yes","tents":"yes","toilets":"yes","website":"https://www.demmin.m-vp.de/wasserwanderrastplatz-blau-weiss-demmin/"}},"236361557":{"location":[53.9350431,13.0828689],"ct":"DE","tp":"CS","ts":"2024-06-21T14:54:52Z","tX":549,"tY":329,"tags":{"backcountry":"yes","caravans":"no","contact:website":"https://www.pensin-mv.de/","name":"Wasserwanderrastplatz Pensin","operator":"Gemeinde Kletzin, Herr Kunkel","tents":"yes"}},"1079890464":{"location":[53.9108586,13.0240284],"ct":"DE","tp":"CS","ts":"2024-06-21T13:09:43Z","tX":549,"tY":329,"tags":{"addr:city":"Demmin","addr:country":"DE","addr:housenumber":"48","addr:postcode":"17109","addr:street":"Loitzer Straße","capacity:caravans":"30","caravans":"yes","contact:phone":"+49 3998 2824281","contact:website":"https://www.peene-marina-demmin.de/hafen-camping/stellplaetze.html","fee":"yes","fixme":"opening_hours=*","name":"Campingplatz Peene Marina","operator":"Oetjen GmbH","power_supply":"yes","sanitary_dump_station":"yes","tents":"yes"}},"1293196481":{"location":[53.9255159,13.3463707],"ct":"DE","tp":"CS","ts":"2025-03-29T21:21:23Z","tX":549,"tY":329,"tags":{"backcountry":"yes","name":"Wasserwanderrastplatz Jarmen"}},"2066708883":{"location":[53.9543359,13.1092821],"ct":"DE","tp":"CS","ts":"2021-05-13T14:56:29Z","tX":549,"tY":329,"tags":{"backcountry":"yes","caravans":"no","contact:website":"https://www.loitz.de/tourismus/wassertourismus/wasserwanderrastplatz-zeitlow/","fireplace":"yes","name":"Wasserwanderrastplatz Zeitlow","shower":"no","tents":"yes","toilets":"yes"}},"10996191404":{"location":[53.7899819,13.3111454],"ct":"DE","tp":"CS","ts":"2024-06-06T16:57:02Z","tX":549,"tY":329,"tags":{"addr:city":"Bartow","addr:housenumber":"15","addr:postcode":"17089","addr:street":"Klempenow","addr:suburb":"Breest","capacity:tents":"10","caravans":"no","charge":"6€ pro Person","description":"Reiner Biwakplatz, einfache Toilette und kaltes Wasser vorhanden","email":"verein@burg-klempenow.de","fee":"yes","name":"Biwakplatz am Burggarten Klempenow","operator":"Kultur-Transit-96 e.V.","payment:cash":"yes","phone":"+49 3965 211331;+49 175 289 24 88","static_caravans":"no","tents":"yes","website":"https://burg-klempenow.de/"}}}