{"35273835":{"location":[53.1573146,13.2194479],"ct":"DE","tp":"CS","ts":"2021-08-15T15:34:55Z","tX":549,"tY":332,"tags":{"addr:city":"Fürstenberg/Havel","addr:housenumber":"4","addr:street":"Havelweg","addr:suburb":"Zootzen","email":"platzwart@camping-havelblick.de","name":"Campingplatz Havelblick","phone":"+49 173 2185578","website":"http://camping-havelblick.de"}},"38196646":{"location":[53.2627941,13.0894299],"ct":"DE","tp":"CS","ts":"2024-04-13T09:07:38Z","tX":549,"tY":332,"tags":{"access":"customers","addr:city":"Neustrelitz","addr:country":"DE","addr:place":"Drewensee","addr:postcode":"17235","addr:suburb":"Drewin","alt_name":"C35 Naturcamping Drewensee","caravans":"yes","contact:email":"ncd35@web.de","contact:phone":"+49 172 4388063","currency:EUR":"only","description":"Anfragen, Buchungen usw. bitte per Telefon, da vor Ort kein Internet.","fee":"yes","internet_access":"no","name":"C35 Naturcamping Drewensee","nohousenumber":"yes","note":"Anscheinend schafft der Betreiberverein es nicht dauerhaft eine eigene Webseite zu betreiben (schon wieder komplett offline).","official_name":"Naturcamping Drewensee","operator":"Naturcamping Drewensee e.V.","payment:cash":"only","payment:credit_cards":"no","payment:debit_cards":"no","shortest_name":"C35","static_caravans":"yes","tents":"yes","website":"https://www.mecklenburgische-seenplatte.de/reiseziele/naturcamping-drewensee","wheelchair":"no"}},"89291936":{"location":[53.1324441,13.1164282],"ct":"DE","tp":"CS","ts":"2024-04-23T21:03:25Z","tX":549,"tY":332,"tags":{"addr:city":"Großwoltersdorf","addr:housenumber":"11b","addr:postcode":"16775","addr:street":"Seestraße","alt_name":"Ferienhof Altglobsow","caravans":"yes","contact:email":"info@ferienhof-altglobsow.de","contact:phone":"+4933082 50250","fee":"yes","name":"Campingplatz Altglobsow","phone":"+49 33082 50250","power_supply":"yes","sanitary_dump_station":"customers","static_caravans":"yes","tents":"yes","website":"https://www.ferienhof-altglobsow.de/html/campingplatz.html","wheelchair":"yes","wikidata":"Q123470156"}},"91685037":{"location":[53.2243355,13.2816481],"ct":"DE","tp":"CS","ts":"2024-09-30T16:27:03Z","tX":549,"tY":332,"tags":{"addr:city":"Lychen","addr:country":"DE","addr:housenumber":"8","addr:postcode":"17279","addr:street":"Lychener Straße","addr:suburb":"Retzow","cabins":"yes","caravans":"yes","dog":"leashed","internet_access":"wlan","lit":"partial","motorhome":"yes","name":"Naturcampingpark Rehberge","open_fire:conditional":"yes @ (Sep)","opening_hours":"May-Sep","operator":"Marina Braatz","phone":"+49 39 888 26 04","power_supply":"yes","reservation":"required","sanitary_dump_station":"yes","shower":"yes","tents":"yes","toilets":"yes","website":"https://www.siebenseen.de/","wheelchair":"limited"}},"92677878":{"location":[53.2625428,13.0523295],"ct":"DE","tp":"CS","ts":"2025-03-15T13:48:05Z","tX":549,"tY":332,"tags":{"name":"C10 Campingplatz am Drewensee","operator":"Haveltourist GmbH & co. KG","website":"https://www.haveltourist.de/campingplatz-mecklenburgische-seenplatte/campingplatz-am-drewensee.html"}},"212477823":{"location":[53.2217676,13.3021389],"ct":"DE","tp":"CS","ts":"2024-11-01T19:28:29Z","tX":549,"tY":332,"tags":{"addr:city":"Lychen","addr:country":"DE","addr:housenumber":"5b","addr:postcode":"17279","addr:street":"Strelitzer Straße","name":"Wurlseecamping Lychen","phone":"+49398882509","website":"https://www.wurlseecamping-lychen.de/"}},"231688005":{"location":[53.2199404,13.041765],"ct":"DE","tp":"CR","ts":"2025-03-10T18:22:13Z","tX":549,"tY":332,"tags":{"addr:city":"Priepert","addr:country":"DE","addr:postcode":"17255","capacity":"22","caravan_site":"motorhome_stopover","caravan_site:type":"village","charge":"10 EUR","fee":"yes","name":"Wohnmobilpark Priepert","power_supply":"yes","sanitary_dump_station":"yes","shower":"yes","water_point":"yes","website":"http://wohnmobilpark-priepert.de/"}},"235466555":{"location":[53.1668631,13.2333965],"ct":"DE","tp":"CS","ts":"2025-06-08T17:28:40Z","tX":549,"tY":332,"tags":{"addr:city":"Fürstenberg/Havel","addr:country":"DE","addr:housenumber":"1","addr:postcode":"16798","addr:street":"Am Stolpsee","addr:suburb":"Himmelpfort","caravans":"yes","contact:phone":"+4933089 41238","contact:website":"https://zeltplatz-himmelpfort.de/","drinking_water":"yes","fee":"yes","internet_access":"wlan","name":"Campingpark Himmelpfort","operator":"Antje Schreckenbach","power_supply":"yes","sanitary_dump_station":"yes","shower":"yes","tents":"yes","toilets":"yes","toilets:wheelchair":"no","wheelchair":"limited"}},"294743398":{"location":[53.2000007,13.0560249],"ct":"DE","tp":"CS","ts":"2023-10-15T11:44:48Z","tX":549,"tY":332,"tags":{"access":"private","landuse":"grass","name":"Campingfreunde zum Einsiedler"}},"294743443":{"location":[53.1928933,13.0350538],"ct":"DE","tp":"CS","ts":"2024-08-29T19:16:45Z","tX":549,"tY":332,"tags":{"addr:city":"Wesenberg","addr:country":"DE","addr:housenumber":"1","addr:postcode":"17255","addr:street":"Camp am Ellbogensee","addr:suburb":"Strasen","boat_rental":"yes","cabins":"yes","cafe":"yes","caravans":"yes","contact:email":"service@ellbogensee.de","contact:mobile":"+49 1604512314","contact:phone":"+49 33093 32173","contact:website":"https://www.ellbogensee.de","dog":"no","drinking_water":"yes","fee":"yes","kiosk":"yes","name":"NaturCamping am Ellbogensee","opening_hours":"Apr-Oct","operator":"Coralie von Schmidt","playground":"yes","power_supply":"yes","shower":"yes","static_caravans":"yes","tents":"yes","toilets":"yes","washing_machine":"yes"}},"340256914":{"location":[53.2075634,13.0704851],"ct":"DE","tp":"CS","ts":"2023-12-06T10:24:35Z","tX":549,"tY":332,"tags":{"caravans":"yes","drinking_water":"yes","name":"Campingplatz C46 Am Ziernsee","power_supply":"no","shower":"yes","tents":"yes","toilets":"yes","website":"http://www.ziernsee.de/"}},"340612707":{"location":[53.2127264,13.0785844],"ct":"DE","tp":"CS","ts":"2022-09-12T18:04:47Z","tX":549,"tY":332,"tags":{"name":"Feriencamp Rackwitz"}},"362281560":{"location":[53.1937736,13.1499399],"ct":"DE","tp":"CR","ts":"2023-12-01T01:35:34Z","tX":549,"tY":332,"tags":{"capacity":"50","charge":"18 EUR","contact:email":"bernhard.erz@freenet.de","contact:fax":"+49 33093 39203","contact:phone":"+49 33093 35123","dog":"yes","fee":"yes","name":"Reisemobilstellplatz Marina-Fürstenberg","operator":"Marina Fürstenberg GmbH","power_supply":"yes","sanitary_dump_station":"yes","seasonal":"summer","water_point":"yes","wheelchair":"yes"}},"457726247":{"location":[53.1867762,13.1297049],"ct":"DE","tp":"CS","ts":"2020-01-25T21:52:33Z","tX":549,"tY":332,"tags":{"addr:city":"Fürstenberg/Havel","addr:country":"DE","addr:housenumber":"1","addr:postcode":"16798","addr:street":"Röblinsee Nord","email":"HKietzmann@t-online.de","fax":"+49 33093 38613","name":"Campingplatz am Röblinsee","phone":"+49 33093 38278","website":"https://www.xn--camping-amrblinsee-n3b.de/"}},"503655509":{"location":[53.1857508,13.1434335],"ct":"DE","tp":"CS","ts":"2024-04-01T11:35:48Z","tX":549,"tY":332,"tags":{"alt_name":"Biwakplatz","bicycle":"yes","canoe":"yes","caravans":"no","drinking_water":"yes","fee":"yes","fireplace":"yes","hiking":"yes","name":"Wasserwander-Rastplatz","picnic_table":"yes","shower":"yes","tents":"yes","toilets":"yes","waterway":"biwak"}},"722027193":{"location":[53.1895128,13.0899699],"ct":"DE","tp":"CS","ts":"2023-11-08T04:02:26Z","tX":549,"tY":332,"tags":{"backcountry":"yes","cabins":"no","camp_site":"standard","caravans":"no","charge":"2,5 EUR","drinking_water":"yes","email":"info@gasthaus-haveleck.de","fee":"yes","internet_access":"no","motor_vehicle":"no","name":"Naturcamping-Biwakplatz Steinförde","openfire":"yes","operator":"Gasthaus Haveleck","payment:cash":"yes","phone":"+49 33093 32193","shower":"no","tents":"yes","website":"https://www.gasthaus-haveleck.de/"}},"823971562":{"location":[53.2096161,13.344395],"ct":"DE","tp":"CS","ts":"2024-09-18T22:03:41Z","tX":549,"tY":332,"tags":{"backcountry":"yes","caravans":"no","drinking_water":"no","fee":"no","internet_access":"no","motor_vehicle":"no","name":"Biwakplatz Fegefeuer","openfire":"yes","power_supply":"no","sanitary_dump_station":"no","shower":"no","tents":"yes","toilets":"no","website":"https://www.onenightwild.com/biwakplaetze-deutschland/brandenburg/biwakplatz-fegefeuer/","wheelchair":"no"}},"841130360":{"location":[53.1796733,13.1651855],"ct":"DE","tp":"CS","ts":"2024-10-10T15:20:25Z","tX":549,"tY":332,"tags":{"addr:city":"Fürstenberg/Havel","addr:housenumber":"34 d","addr:postcode":"16798","addr:street":"Zehdenicker Straße","backcountry":"no","bbq":"yes","caravans":"yes","dog":"no","drinking_water":"yes","fee":"yes","internet_access":"no","name":"Wilde Heimat","phone":"+49 173 4320917","power_supply":"yes","shower":"yes","static_caravans":"yes","tents":"yes","toilets":"yes","toilets:wheelchair":"no","washing_machine":"yes","website":"https://www.wilde-heimat.de/","wheelchair":"limited"}},"918472966":{"location":[53.1927811,13.1487174],"ct":"DE","tp":"CR","ts":"2021-03-17T23:25:20Z","tX":549,"tY":332,"tags":{"capacity":"15","contact:email":"bernhard.erz@freenet.de","contact:fax":"+49 33093 39203","contact:phone":"+49 33093 35123","fee":"yes","name":"Reisemobilstellplatz Marina-Fürstenberg","operator":"Marina Fürstenberg GmbH","power_supply":"yes","sanitary_dump_station":"yes","water_point":"yes","website":"http://www.marina-fürstenberg.de/preise-dauerlieger-wohnmobiel-tageslieger/39-preis-marina-fuerstenberg/54-preise-wohnmobilstellplaetze.html","wheelchair":"yes"}},"973206726":{"location":[53.2152703,13.0342306],"ct":"DE","tp":"CS","ts":"2025-06-09T19:27:43Z","tX":549,"tY":332,"tags":{"caravans":"yes","drinking_water":"yes","internet_access":"wlan","name":"Camping Havelperle","power_supply":"yes","sanitary_dump_station":"yes","shower":"yes","tents":"yes","toilets":"yes","toilets:wheelchair":"yes","website":"https://www.camping-havelperle.com/","wheelchair":"limited"}},"1087291196":{"location":[53.2945965,13.0813719],"ct":"DE","tp":"CS","ts":"2022-09-12T18:05:54Z","tX":549,"tY":332,"tags":{"addr:city":"Neustrelitz","addr:country":"DE","addr:postcode":"17235","addr:street":"Klein Trebbow","fee":"yes","name":"Camping \"Am Kluger See\"'","source:name":"survey","website":"https://www.camping-kluger-see.de/"}},"1112995978":{"location":[53.2478079,13.0867335],"ct":"DE","tp":"CS","ts":"2025-06-18T07:13:31Z","tX":549,"tY":332,"tags":{"addr:city":"Godendorf","addr:country":"DE","addr:housenumber":"1","addr:postcode":"17237","addr:street":"Düsterförde-Sägewerk","addr:suburb":"Düsterförde Bahnhof","caravans":"yes","contact:website":"https://www.ferienpark-wangnitzsee.de/","drinking_water":"yes","fee":"yes","name":"Ferienpark am Wangnitzsee","power_supply":"yes","sanitary_dump_station":"yes","shower":"yes","tents":"yes","toilets":"yes"}},"4326362309":{"location":[53.1293267,13.2974354],"ct":"DE","tp":"CS","ts":"2023-01-21T17:49:35Z","tX":549,"tY":332,"tags":{"addr:street":"Schleusenhof Regow","alt_name":"Biwakplatz Capriolenhof","backcountry":"yes","caravans":"no","description":"Auf dem Biwakplatz können Sie mit Ihrem Zelt eine Nacht verbringen, wenn Sie nichtmotorisiert unterwegs sind. Der Platz ist sehr idyllisch zwischen Havel und Altarm, ca. 800 meter südlich vom Capriolenhof gelegen. Er eignet sich für Aleinreisende, Pärchen","fee":"no","motor_vehicle":"no","name":"Biwak Regowschleuse","opening_hours":"Sa, Su 12:00-16:00","operator":"Sabine Denell und Hanspeter Dill","phone":"+493308751183","tents":"yes","toilets":"yes","website":"http://capriolenhof.de/tourismus/biwakplatz/"}},"7471904667":{"location":[53.2066895,13.3010052],"ct":"DE","tp":"CS","ts":"2024-07-09T13:55:10Z","tX":549,"tY":332,"tags":{"caravans":"no","email":"info@strandbad-lychen.de","name":"Biwakplatz Strandbad Lychen","phone":"+49 178 3790111","tents":"yes","website":"https://www.tourismus-lychen.de/freizeit/wassererlebnis/wasserwandern-in-und-um-lychen/wasserwandern-details/anbieter/biwakplatz-strandbad-lychen.html"}},"7476837166":{"location":[53.137496,13.24126],"ct":"DE","tp":"CS","ts":"2021-05-20T05:45:47Z","tX":549,"tY":332,"tags":{"addr:city":"Fürstenberg/Havel","addr:country":"DE","addr:postcode":"16798","addr:street":"Schleusenstraße","addr:suburb":"Bredereiche","backcountry":"yes","contact:website":"https://bootshaus-bandelow.de","drinking_water":"yes","fixme:de":"Auf der Website des Bootshauses steht nichts davon, dass man hier Zelten darf!","name":"Biwakplatz Bredereiche","operator":"Gaststätte Bootshaus Bandelow","post:postcode":"16798","tents":"yes","toilets":"yes"}},"12212053702":{"location":[53.2244085,13.2793043],"ct":"DE","tp":"SD","ts":"2024-09-30T16:27:03Z","tX":549,"tY":332,"tags":{"sanitary_dump_station":"black_water"}},"12212053703":{"location":[53.2238816,13.2810014],"ct":"DE","tp":"SD","ts":"2024-09-30T16:27:03Z","tX":549,"tY":332,"tags":{"sanitary_dump_station":"grey_water"}},"12212053704":{"location":[53.2243927,13.2814424],"ct":"DE","tp":"SD","ts":"2024-09-30T16:27:03Z","tX":549,"tY":332,"tags":{"sanitary_dump_station":"black_water"}}}