{"120362552":{"location":[53.0744335,13.1754244],"ct":"DE","tp":"CS","ts":"2023-11-16T21:57:14Z","tX":549,"tY":333,"tags":{"addr:city":"Gransee","addr:housenumber":"28a","addr:postcode":"16775","addr:street":"Hauptstraße","addr:suburb":"Seilershof","alt_name":"Camping Seilershof D32","capacity":"200","caravans":"yes","description":"Gemütlicher Campingplatz am Radweg Berlin-Kopenhagen, auf halber Strecke zwischen Gransee und Fürstenberg direkt am Kleinen Wentowsee. Duschen, Strom, Wifi, Kochstelle, Strand inklusive. Kiosk am Platz.","email":"info@camping-seilershof.de","fee":"yes","internet_access":"wlan","internet_access:fee":"no","name":"Camping Seilershof","operator":"Pierre Hurras","payment:cash":"yes","phone":"+49 33085 70311","reservation":"recommended","tents":"yes","website":"https://www.camping-seilershof.de/","wheelchair":"yes","wikidata":"Q123466689"}},"121075527":{"location":[53.1146999,13.0336808],"ct":"DE","tp":"CS","ts":"2025-03-10T15:30:02Z","tX":549,"tY":333,"tags":{"addr:city":"Stechlin","addr:country":"DE","addr:housenumber":"23a","addr:postcode":"16775","addr:street":"Roofenstraße","caravans":"yes","email":"info@campingplatz-am-roofensee.de","fee":"yes","internet_access":"wlan","internet_access:fee":"yes","name":"Naturcampingplatz am Roofensee","operator":"Naturcampingplatz am Roofensee e. V.","phone":"+49 33082 50379","power_supply":"yes","shower":"yes","tents":"yes","toilets":"yes","website":"https://www.campingplatz-am-roofensee.de/de/home.html","wikidata":"Q123472189"}},"242185141":{"location":[53.0611737,13.2712748],"ct":"DE","tp":"CS","ts":"2024-03-03T17:27:13Z","tX":549,"tY":333,"tags":{"addr:city":"Fürstenberg/Havel","addr:housenumber":"2","addr:postcode":"16798","addr:street":"Ringslebenerstrasse","caravans":"yes","contact:email":"kontakt@campingplatz-am-grossen-wentowsee.de","contact:phone":"+49 176 39058383","contact:website":"https://campingplatz-am-grossen-wentowsee.de/","fee":"yes","internet_access":"wlan","internet_access:fee":"no","name":"Campingplatz am Großen Wentowsee","tents":"yes","wikidata":"Q123458517"}},"689886009":{"location":[53.0042052,13.2047047],"ct":"DE","tp":"CS","ts":"2023-05-12T01:03:16Z","tX":549,"tY":333,"tags":{"addr:housenumber":"12c","addr:street":"Templiner Straße","operator":"Fallschirmsportgemeinschaft Berlin/Gransee e.V.","tents":"yes","website":"https://www.fsg.fun/"}},"1082104198":{"location":[53.0316332,13.3112167],"ct":"DE","tp":"CS","ts":"2023-11-15T09:54:37Z","tX":549,"tY":333,"tags":{"addr:city":"Zehdenick","addr:country":"DE","addr:housenumber":"11","addr:postcode":"16792","addr:street":"Ziegelei","caravans":"yes","drinking_water":"yes","name":"Marina Alter Hafen","power_supply":"yes","shower":"yes","tents":"yes","toilets":"yes","website":"https://marina-alter-hafen.de/camping-stellplatz/","wikidata":"Q123455578"}},"1082491129":{"location":[53.0494769,13.2974792],"ct":"DE","tp":"CS","ts":"2022-07-30T10:43:09Z","tX":549,"tY":333,"tags":{"backcountry":"yes","caravans":"no","motor_vehicle":"no","operator":"Gasthaus \"Zur Fähre\"","shower":"no","tents":"yes","toilets":"yes"}},"1379890210":{"location":[53.1054352,13.0403347],"ct":"DE","tp":"PK","ts":"2025-04-22T12:35:21Z","tX":549,"tY":333,"tags":{"motorhome":"yes","tents":"no"}},"5318891390":{"location":[52.9637782,13.3416697],"ct":"DE","tp":"CS","ts":"2025-04-16T12:37:42Z","tX":549,"tY":333,"tags":{"addr:city":"Zehdenick","addr:housenumber":"56a","addr:postcode":"16792","addr:street":"Parkstraße","caravans":"no","contact:phone":"+49 3307 309 24 76","contact:website":"https://www.turm-lounge.de/zeltplatz","drinking_water":"yes","fee":"yes","name":"Zeltplatz Zehdenicker Wasserturm","picnic_table":"yes","power_supply":"no","sanitary_dump_station":"no","shower":"yes","tents":"yes","toilets":"yes","wikidata":"Q123378163"}},"12183460626":{"location":[52.985835,13.3344935],"ct":"DE","tp":"CS","ts":"2024-09-18T07:40:10Z","tX":549,"tY":333,"tags":{"fee":"yes","name":"Klienitz Wasserfreizeit","shower":"yes","static_caravans":"yes","tents":"yes","toilets":"yes"}}}