{"24684267":{"location":[52.5950634,13.2889398],"ct":"DE","tp":"CR","ts":"2023-09-22T09:27:39Z","tX":549,"tY":335,"tags":{"addr:city":"Berlin","addr:country":"DE","addr:housenumber":"12-14","addr:postcode":"13507","addr:street":"Waidmannsluster Damm","addr:suburb":"Tegel","area":"yes","fee":"yes","name":"Reisemobil Zentrum Berlin","power_supply":"yes","sanitary_dump_station":"yes","toilets":"yes"}},"69855640":{"location":[52.5487849,13.258642],"ct":"DE","tp":"CS","ts":"2024-03-25T08:08:59Z","tX":549,"tY":335,"tags":{"addr:housenumber":"1","addr:street":"Gartenfelder Straße","caravans":"yes","contact:email":"spandau@city-camping-berlin.de","contact:facebook":"https://www.facebook.com/hotelundcitycamping.1/","contact:phone":"+49 30 33503633","contact:website":"https://www.city-camping-berlin.de/campingnord.html","drinking_water":"yes","internet_access":"wlan","name":"City Camping","power_supply":"yes","sanitary_dump_station":"yes","shower":"yes","tents":"yes","toilets":"yes","toilets:wheelchair":"yes","wheelchair":"yes","wikidata":"Q123139300"}},"107283736":{"location":[52.4860152,13.141742],"ct":"DE","tp":"CR","ts":"2023-07-15T10:24:52Z","tX":549,"tY":335,"tags":{"barrier":"fence"}},"107668015":{"location":[52.6198141,13.2208248],"ct":"DE","tp":"CR","ts":"2018-03-11T13:11:21Z","tX":549,"tY":335,"tags":{}},"185879566":{"location":[52.642631,13.2434275],"ct":"DE","tp":"PK","ts":"2022-07-15T16:10:29Z","tX":549,"tY":335,"tags":{"access":"yes","capacity":"5","caravan":"yes","fee":"no","motorhome":"yes","parking":"surface","source":"Bing","trailer":"yes","vehicle":"no"}},"185879569":{"location":[52.6434754,13.244903],"ct":"DE","tp":"PK","ts":"2022-07-15T16:08:23Z","tX":549,"tY":335,"tags":{"access":"yes","capacity":"10","caravan":"yes","fee":"no","motorhome":"yes","parking":"surface","source":"Bing","trailer":"yes","vehicle":"no"}},"185879618":{"location":[52.6425958,13.2445153],"ct":"DE","tp":"PK","ts":"2022-07-15T16:07:42Z","tX":549,"tY":335,"tags":{"access":"yes","capacity":"13","caravan":"yes","fee":"no","motorhome":"yes","parking":"surface","source":"Bing","trailer":"yes","vehicle":"no"}},"1425282537":{"location":[52.5825389,13.2118744],"ct":"DE","tp":"CS","ts":"2024-05-26T12:57:51Z","tX":549,"tY":335,"tags":{"caravans":"yes","name":"Bürgerablage","tents":"yes","website":"https://www.berliner-camping-club.com/Camping-Buergerablage/","wikidata":"Q123139750"}},"4848394924":{"location":[52.5028098,13.187272],"ct":"DE","tp":"CR","ts":"2023-01-21T17:55:24Z","tX":549,"tY":335,"tags":{"addr:housenumber":"109","addr:postcode":"13595","addr:street":"Scharfe Lanke","fee":"yes","internet_access":"wlan","name":"Wohnmobil Stellplatz Marina Lanke","name:de":"Wohnmobil Stellplatz Marina Lanke","opening_hours":"Mo-Fr 08:00-20:00; Sa-Su 10:00-20:00","phone":"+49 30 362009-16","power_supply":"yes","sanitary_dump_station":"yes","water_point":"yes","website":"http://www.marina-lanke.de/yachthafen-berlin/wohnmobilstellplatz/"}},"10042774693":{"location":[52.5948953,13.2891896],"ct":"DE","tp":"SD","ts":"2022-09-21T14:27:43Z","tX":549,"tY":335,"tags":{"access":"customers","fee":"no","sanitary_dump_station:round_drain":"yes"}},"10042774694":{"location":[52.5949637,13.2894297],"ct":"DE","tp":"SD","ts":"2022-09-21T14:27:43Z","tX":549,"tY":335,"tags":{"access":"customers","fee":"no","sanitary_dump_station:basin":"yes"}}}