{"18355369":{"location":[52.4569305,13.1140658],"ct":"DE","tp":"CS","ts":"2024-12-01T10:09:14Z","tX":549,"tY":336,"tags":{}},"34749907":{"location":[52.4547955,13.113558],"ct":"DE","tp":"CR","ts":"2024-11-21T19:56:22Z","tX":549,"tY":336,"tags":{"caravan_site":"motorhome_stopover","caravan_site:type":"lake","fee":"yes"}},"37133411":{"location":[52.4651848,13.1648978],"ct":"DE","tp":"CS","ts":"2024-05-16T17:22:58Z","tX":549,"tY":336,"tags":{"addr:city":"Berlin","addr:country":"DE","addr:housenumber":"207-213","addr:inclusion":"potential","addr:postcode":"14089","addr:street":"Kladower Damm","addr:suburb":"Kladow","caravans":"yes","drinking_water":"yes","internet_access":"wlan","name":"Campingplatz Gatow","power_supply":"yes","shower":"yes","source":"Geoportal Berlin / Hauskoordinaten","tents":"yes","website":"https://www.dccberlin.de/index.php/gatow","wikidata":"Q123193283","wikimedia_commons":"File:Berlin-Gatow - Campingplatz - geo.hlipp.de - 38375.jpg"}},"96254489":{"location":[52.4132483,13.028568],"ct":"DE","tp":"PK","ts":"2024-02-05T22:16:13Z","tX":549,"tY":336,"tags":{"access":"yes","bus":"designated","capacity:bus":"9","capacity:caravan":"20","caravans":"yes","contact:email":"kontakt@parkplatzamkrongut.de","contact:phone":"+49 331 601 47154","contact:website":"https://www.wohnmobilstellplatz-potsdam.de/","fee":"yes","lit":"yes","motor_vehicle":"no","name":"Parkplatz am Krongut Bornstedt","opening_hours":"24/7","operator":"W & W Immobilienmanagement (UG) haftungsbeschränkt","operator:type":"business","parking":"surface"}},"97936301":{"location":[52.3951148,13.1630738],"ct":"DE","tp":"CS","ts":"2024-07-09T15:47:32Z","tX":549,"tY":336,"tags":{"access":"private","addr:city":"Berlin","addr:country":"DE","addr:housenumber":"20","addr:postcode":"14109","addr:street":"Albrechts Teerofen","caravans":"only","contact:phone":"+49 172 3121840","name":"Camping-Freunde Berlin","operator":"Camping-Freunde-Berlin e.V.","tents":"no"}},"97936303":{"location":[52.3962749,13.1660974],"ct":"DE","tp":"CS","ts":"2024-07-09T15:47:32Z","tX":549,"tY":336,"tags":{"access":"private","addr:city":"Berlin","addr:country":"DE","addr:housenumber":"33-35","addr:postcode":"14109","addr:street":"Albrechts Teerofen","alt_name":"Wannsee Camping","caravans":"only","fee":"yes","name":"Campingplatz Berlin-Wannsee","permanent_camping":"only","static_caravans":"only","tents":"no","website":"http://www.wannsee-camping.de/"}},"283838419":{"location":[52.395472,13.1595691],"ct":"DE","tp":"CS","ts":"2020-08-24T23:36:32Z","tX":549,"tY":336,"tags":{"addr:city":"Berlin","addr:housenumber":"9","addr:postcode":"14109","addr:street":"Kremnitzufer","caravans":"no","group_only":"yes","name":"Kinder- und Jugendzeltplatz Bäkewiese","note":"Kontakt über Webseite Gelände ist vom Mapper nur sehr grob eingezeichnet. Die genauen Grundstücksgrenzen weichen mit Sicherheit stark ab.","operator":"Evangelische Schülerarbeit (BK) Berlin","phone":"+49 30 4538033","smoking":"no","tents":"yes","website":"https://www.baekewiese.de/"}},"358922632":{"location":[52.4519917,13.1120729],"ct":"DE","tp":"CS","ts":"2024-12-01T19:29:26Z","tX":549,"tY":336,"tags":{"addr:city":"Berlin","addr:country":"DE","addr:housenumber":"111","addr:postcode":"14089","addr:street":"Krampnitzer Weg","addr:suburb":"Kladow","backcountry":"no","caravans":"yes","contact:email":"info@dccberlin.de","contact:foursquare":"https://foursquare.com/v/50411c1be4b08d95c14d2400","contact:website":"https://www.dccberlin.de/","drinking_water":"yes","fax":"+49 30 3651245","fee":"yes","name":"DCC-Campingplatz Kladow","opening_hours":"Jan-Mar 08:00-13:00,15:00-21:00; Apr-Sep 06:00-13:00,15:00-22:00; Oct-Dec 07:00-13:00,15:00-21:00","phone":"+49 30 3652797","power_supply":"yes","sanitary_dump_station":"yes","shower":"yes","static_caravans":"yes","surface":"grass","tents":"yes","toilets":"yes","wheelchair":"limited","wikidata":"Q123193795"}},"421777606":{"location":[52.277385,13.0170828],"ct":"DE","tp":"CS","ts":"2023-11-06T15:34:13Z","tX":549,"tY":336,"tags":{"addr:city":"Seddiner See","addr:postcode":"14554","barrier":"fence","caravans":"yes","fee":"yes","fence_type":"wood","name":"Campingplatz ICANOS e.V.","tents":"yes","website":"http://www.icanos.de/","wikidata":"Q123350435"}},"653197864":{"location":[52.3992029,13.1766588],"ct":"DE","tp":"CS","ts":"2023-10-20T19:35:16Z","tX":549,"tY":336,"tags":{"caravans":"yes","internet_access":"wlan","name":"CityCamp Süd","operator":"Hettler & Lange","phone":"+49 33203 79684","shower":"yes","tents":"yes","toilets":"yes","website":"https://www.city-camping-berlin.de/campingsued.html","wikidata":"Q123139516","wikimedia_commons":"File:Berlin City Camp 2 - panoramio.jpg"}},"800685406":{"location":[52.45693,13.1140916],"ct":"DE","tp":"CS","ts":"2023-07-19T07:18:14Z","tX":549,"tY":336,"tags":{}},"834240725":{"location":[52.3949343,13.1621768],"ct":"DE","tp":"CS","ts":"2020-08-05T13:52:00Z","tX":549,"tY":336,"tags":{"access":"private","addr:city":"Berlin","addr:housenumber":"12","addr:postcode":"14109","addr:street":"Albrechts Teerofen","operator":"Familie Kummert","source":"aerial imagery;survey;local knowledge"}},"1222191142":{"location":[52.2719313,13.0578637],"ct":"DE","tp":"CS","ts":"2024-04-14T07:25:52Z","tX":549,"tY":336,"tags":{"addr:housenumber":"3","addr:street":"Rauher Berg","caravans":"yes","email":"Info@Campingplatz-Kaehnsdorf.de","fee":"yes","name":"Campingplatz Kähnsdorf","operator":"Holger Mackus","phone":"+49 1520 9847439","static_caravans":"yes","tents":"yes","website":"http://www.campingplatz-kaehnsdorf.de"}},"1259806601":{"location":[52.4182314,13.1906157],"ct":"DE","tp":"CR","ts":"2025-01-15T09:58:32Z","tX":549,"tY":336,"tags":{"addr:street":"Potsdamer Chaussee","operator":"Verein zum Erhalt der Kultur der Sinti und Roma","source":"https://www.tagesspiegel.de/berlin/dauerquartier-fur-sinti-und-roma-2102701.html"}},"10677047341":{"location":[52.4438016,13.0149619],"ct":"DE","tp":"CS","ts":"2023-02-18T22:07:02Z","tX":549,"tY":336,"tags":{"email":"info@treibgut-naturcamp.de","mobile":"+49 176 96508671","name":"Natur- und Kulturcamp Treibgut","operator":"Kollektiv Treibgut Natur-und Kulturcamp e. V.","website":"https://www.treibgut-naturcamp.de/"}}}