{"430206846":{"location":[52.170965,13.0430576],"ct":"DE","tp":"CS","ts":"2024-12-14T06:51:56Z","tX":549,"tY":337,"tags":{"addr:city":"Nuthe-Urstromtal","addr:housenumber":"2","addr:postcode":"14947","addr:street":"Am Glienicksee","addr:suburb":"Dobbrikow","alt_name":"Campingplatz Dobbrikow","caravans":"yes","email":"info@camp-dobbrikow.de","fax":"+4933732 40105","fee":"yes","name":"Camp Dobbrikow","phone":"+4933732 40327","tents":"yes","url":"http://www.camp-dobbrikow.de","wikidata":"Q123338129"}},"788093842":{"location":[52.2122543,13.1957563],"ct":"DE","tp":"CS","ts":"2025-01-01T10:19:15Z","tX":549,"tY":337,"tags":{"addr:city":"Trebbin","addr:housenumber":"17","addr:postcode":"14959","addr:street":"Ahrensdorfer Straße","addr:suburb":"Löwendorf","caravans":"yes","email":"campingplatz.schmidt@googlemail.com","fee":"yes","name":"Schmidt's Campingplatz","operator":"Familie Schmidt","phone":"+493373112272","power_supply":"yes","static_caravans":"yes","tents":"yes","toilets":"yes","website":"https://stadt-trebbin.de/index.php/tourismus/camping/579-schmidt-s-campingplatz-im-ot-loewendorf","wikidata":"Q123327737"}},"1265670347":{"location":[52.1899153,13.0416036],"ct":"DE","tp":"CR","ts":"2024-03-23T23:11:57Z","tX":549,"tY":337,"tags":{"capacity":"8","charge":"18 EUR","fee":"yes","internet_access":"wlan","internet_access:fee":"no","name":"Wohnmobilstellplatz am Riebener See","opening_hours":"Mar-Oct","power_supply":"yes","sanitary_dump_station":"yes","shower":"yes","website":"https://beelitz.de/gastronomie-und-uebernachtung/"}},"6294560885":{"location":[52.1587571,13.3424649],"ct":"DE","tp":"CS","ts":"2019-05-14T13:00:02Z","tX":549,"tY":337,"tags":{"access":"private","description":"Nur für Veranstaltungen des Motorrad Clubs","operator":"MC Büffel Rehagen"}}}