{"32962301":{"location":[51.5949344,13.2574327],"ct":"DE","tp":"CS","ts":"2023-11-02T22:42:52Z","tX":549,"tY":340,"tags":{"addr:city":"Falkenberg/Elster","addr:country":"DE","addr:housenumber":"2","addr:postcode":"04895","addr:street":"Hörsteweg","email":"info@erholungsgebiet-kiebitz.de","internet_access":"wlan","name":"Campingplatz Erholungsgebiet Kiebitz","operator":"Stadt Falkenberg/Elster","phone":"+49 35365 2135","website":"https://www.erholungsgebiet-kiebitz.de/"}},"300081087":{"location":[51.4324424,13.2098256],"ct":"DE","tp":"CS","ts":"2022-12-06T03:27:28Z","tX":549,"tY":340,"tags":{"club":"sport","contact:phone":"+49 35342 71263","contact:website":"https://www.rudervereinmuehlberg.de/","leisure":"sports_centre","name":"Ruderverein Mühlberg","note":"Campinggelegenheit für Wasserwanderer direkt im Sportboothafen","opening_hours":"Mo,Th 16:00+; We 17:00+","operator":"Ruderverein Mühlberg e.V.","source":"http://blaues-band.de/elbe/index.htm?elbe_camping.htm","sport":"canoe","wheelchair":"no"}},"1119747126":{"location":[51.4324708,13.2098589],"ct":"DE","tp":"CS","ts":"2025-03-02T11:09:16Z","tX":549,"tY":340,"tags":{"building:levels":"1","building:levels:underground":"0","building:part":"public","club":"sport","contact:phone":"+49 35342 71263","contact:website":"https://www.rudervereinmuehlberg.de/","leisure":"sports_centre","name":"Ruderverein Mühlberg","nohousenumber":"yes","note":"Campinggelegenheit für Wasserwanderer direkt im Sportboothafen","opening_hours":"Mo,Th 16:00+; We 17:00+","operator":"Ruderverein Mühlberg e.V.","roof:colour":"gray","roof:levels":"0","roof:material":"tar_paper","roof:orientation":"along","roof:shape":"flat","source":"http://blaues-band.de/elbe/index.htm?elbe_camping.htm","sport":"canoe","wheelchair":"no"}},"2783179680":{"location":[51.4339278,13.2093286],"ct":"DE","tp":"CS","ts":"2024-07-13T09:09:14Z","tX":549,"tY":340,"tags":{"addr:city":"Mühlberg/Elbe","addr:housenumber":"1c","addr:postcode":"04931","addr:street":"Am Hafen","caravans":"yes","drinking_water":"yes","email":"wwrs-marina-muehlberg@web.de","internet_access":"wlan","motorhome":"yes","name":"Wasserwanderraststation Mühlberg","opening_hours":"Apr-Oct","phone":"+49 175 7093606","power_supply":"yes","sanitary_dump_station":"yes","shower":"yes","tents":"yes","toilets":"yes","website":"https://www.wwrs-marina-muehlberg.de/","wheelchair":"yes"}},"4445819298":{"location":[51.405168,13.0903847],"ct":"DE","tp":"CS","ts":"2024-04-07T07:40:04Z","tX":549,"tY":340,"tags":{"access":"customers","caravans":"no","group_only":"yes","operator":"Schullandheim Olganitz","tents":"yes"}},"5316059606":{"location":[51.5624602,13.0087271],"ct":"DE","tp":"CR","ts":"2025-01-28T13:30:43Z","tX":549,"tY":340,"tags":{"capacity":"6","caravan_site":"motorhome_stopover","caravan_site:type":"parking_lot","charge":"5.10 EUR","description":"Parken kostenfrei - Übernachtung gegen Gebühr","fee":"yes","name":"Caravanstellplatz auf dem Elbeparkplatz P4 Torgau","power_supply":"no","sanitary_dump_station":"no","shower":"no","surface":"asphalt","tents":"no","toilets":"no","water_point":"no"}}}