{"24351139":{"location":[51.3058765,13.3079886],"ct":"DE","tp":"CR","ts":"2023-02-26T14:49:56Z","tX":549,"tY":341,"tags":{"addr:city":"Riesa","addr:postcode":"01589","addr:street":"Elbstraße","capacity:caravans":"8","charge":"6.00 EUR/Day","fee":"yes","internet_access":"no","name":"Elbparkplatz","opening_hours":"24/7","power_supply":"no","sanitary_dump_station":"no"}},"290873519":{"location":[51.305935,13.3099392],"ct":"DE","tp":"CS","ts":"2023-03-12T21:52:29Z","tX":549,"tY":341,"tags":{"addr:city":"Riesa","addr:country":"DE","addr:housenumber":"14a","addr:postcode":"01589","addr:street":"Elbstraße","caravans":"yes","contact:email":"bootshaus.riesa@gmail.com","name":"Riesaer Wassersportverein","shower":"yes","tents":"yes","toilets":"yes","website":"http://www.riesaer-wassersportverein.de/seite/287063/zeltplatz-caravan.html"}},"431049667":{"location":[51.3064072,13.3216465],"ct":"DE","tp":"CS","ts":"2010-09-20T14:18:49Z","tX":549,"tY":341,"tags":{"addr:city":"Riesa","addr:country":"DE","addr:postcode":"01589","description":"Campinggelegenheit","ft_link":"www.freietonne.de?edit=876","leisure":"marina","name":"Marinekameradschaft Riesa","phone":"+49 3525 744210 or 733176, +49 173 3906341, +49 179 9061599","tents":"yes","website":"http://www.mk-riesa.de/hafen.php"}},"507423429":{"location":[51.3628169,13.2249754],"ct":"DE","tp":"CS","ts":"2024-08-12T14:01:57Z","tX":549,"tY":341,"tags":{"addr:city":"Strehla","addr:postcode":"01616","addr:street":"Torgauer Straße","caravans":"yes","name":"Campingplatz Nixenbad","phone":"+49 35264 90754","power_supply":"unset","sanitary_dump_station":"yes","tents":"yes","water_point":"unset","website":"https://www.strehla.de/seite/540902/nixenbad-campingplatz.html"}},"937795694":{"location":[51.2916289,13.1056102],"ct":"DE","tp":"CS","ts":"2020-07-12T22:51:00Z","tX":549,"tY":341,"tags":{"addr:city":"Oschatz","addr:housenumber":"22","addr:postcode":"04758","addr:street":"Berufsschulstraße","name":"Campingplatz im O-Schatz-Park","wheelchair":"yes"}},"937795695":{"location":[51.2911819,13.1063586],"ct":"DE","tp":"CS","ts":"2019-08-25T10:10:56Z","tX":549,"tY":341,"tags":{"addr:city":"Oschatz","addr:housenumber":"22","addr:postcode":"04758","addr:street":"Berufsschulstraße","caravans":"no","group_only":"yes","name":"Europäisches Jugendcamp","operator":"Stadt Oschatz","tents":"yes"}},"4969321671":{"location":[51.3017411,13.3379581],"ct":"DE","tp":"CS","ts":"2023-01-21T17:33:55Z","tX":549,"tY":341,"tags":{"addr:city":"Riesa","addr:housenumber":"1","addr:postcode":"01589","addr:street":"Leutewitzer Straße","addr:suburb":"Göhlis","email":"peg@sprungbrett-riesa.de","phone":"+49 152 552 636 21","website":"http://www.sprungbrett-riesa.de/projekte-erlebnisgut/camping-reservierung/"}},"9790426572":{"location":[51.3519457,13.2378512],"ct":"DE","tp":"CR","ts":"2022-06-02T13:15:42Z","tX":549,"tY":341,"tags":{"addr:city":"Strehla","addr:postcode":"01616","addr:street":"Riesaer Straße","capacity:caravans":"20","fee":"no","internet_access":"no","power_supply":"no","sanitary_dump_station":"no"}},"11564802499":{"location":[51.292052,13.1043888],"ct":"DE","tp":"CR","ts":"2024-01-29T16:36:08Z","tX":549,"tY":341,"tags":{"addr:street":"Grenzstraße","description":"Two places","fee":"no","power_supply":"no","sanitary_dump_station":"no"}},"11564828586":{"location":[51.291894,13.1043994],"ct":"DE","tp":"CR","ts":"2024-01-29T16:37:18Z","tX":549,"tY":341,"tags":{"addr:street":"Grenzstraße","description":"Two places","fee":"no","power_supply":"no","sanitary_dump_station":"no"}},"12135950764":{"location":[51.2035844,13.306328],"ct":"DE","tp":"CR","ts":"2024-08-25T16:16:55Z","tX":549,"tY":341,"tags":{"fee":"no"}}}