{"376278719":{"location":[51.1148248,13.1303853],"ct":"DE","tp":"CR","ts":"2019-03-25T22:05:28Z","tX":549,"tY":342,"tags":{"addr:city":"Döbeln","addr:housenumber":"10","addr:postcode":"04720","addr:street":"Fichtestraße","capacity":"3","fee":"yes","name":"SP am WelWel","power_supply":"no"}},"695514934":{"location":[51.037112,13.0095453],"ct":"DE","tp":"CS","ts":"2019-12-02T09:10:04Z","tX":549,"tY":342,"tags":{"addr:city":"Kriebstein","addr:housenumber":"1","addr:postcode":"09648","addr:street":"An der Talsperre","caravans":"yes","name":"Campingplatz Kriebstein","phone":"+49 34327 93153","tents":"yes","website":"https://www.kriebsteintalsperre.de/index.php?id=50"}},"728075391":{"location":[50.9852078,13.0776257],"ct":"DE","tp":"CS","ts":"2019-09-25T13:36:54Z","tX":549,"tY":342,"tags":{"name":"Wasserskianlage Rossau"}},"3651004723":{"location":[50.9650383,13.3097962],"ct":"DE","tp":"CR","ts":"2015-07-14T17:11:02Z","tX":549,"tY":342,"tags":{"name":"Friedrich August Schmiede"}},"10707794605":{"location":[51.0724982,13.0280389],"ct":"DE","tp":"CR","ts":"2024-01-25T13:15:03Z","tX":549,"tY":342,"tags":{"addr:street":"Gartenstraße","capacity":"2","fee":"no","name":"Augustiner","name:de":"Augustinerplatz","power_supply":"no","sanitary_dump_station":"no"}}}