{"33890709":{"location":[50.6564953,13.1248606],"ct":"DE","tp":"CR","ts":"2025-01-10T00:45:08Z","tX":549,"tY":344,"tags":{"addr:city":"Marienberg","addr:housenumber":"1","addr:postcode":"09496","addr:street":"Drei-Brüder-Höhe","capacity":"4","caravan_site":"motorhome_stopover","caravan_site:type":"hotel","fee":"yes","name":"Hotel \"Drei-Brüder-Höhe\"","phone":"+49 3735 206000","power_supply":"yes","sanitary_dump_station":"no","website":"https://drei-brueder-hoehe.de/"}},"199126138":{"location":[50.5983534,13.2986273],"ct":"DE","tp":"CS","ts":"2024-08-08T11:00:50Z","tX":549,"tY":344,"tags":{"addr:city":"Marienberg","addr:country":"DE","addr:housenumber":"3","addr:postcode":"09496","addr:street":"In der Gasse","addr:suburb":"Rübenau","building":"yes","building:levels":"2","caravans":"no","description":"Naturherberge und Vereinshaus des Fördervereins Natura Miriquidica e.V..","drinking_water":"yes","email":"info@kammbegegnungen.de","height":"9","name":"Haus der Kammbegegnungen","opening_hours":"\"Herberge - nach Vereinbarung\"","phone":"+49 3735 6681251","shower":"yes","tents":"yes","toilets":"yes","tourism_1":"hostel","website":"https://kammbegegnungen.de/"}},"854833155":{"location":[50.5796357,13.0123545],"ct":"DE","tp":"CR","ts":"2025-01-09T23:52:27Z","tX":549,"tY":344,"tags":{"capacity":"9","caravan_site":"motorhome_stopover","caravan_site:type":"town","fee":"yes","name":"Wohnmobilstellplatz Parkstraße - Annaberg-Buchholz","power_supply":"yes","sanitary_dump_station":"yes","surface":"paving_stones","water_point":"yes","website":"https://www.annaberg-buchholz.de/tourismus/anreise-parken-nahverkehr/parkmoeglichkeiten.php"}},"929853142":{"location":[50.5753287,13.3323511],"ct":"CZ","tp":"CS","ts":"2021-04-12T18:39:44Z","tX":549,"tY":344,"tags":{}},"1202224136":{"location":[50.6246474,13.179722],"ct":"DE","tp":"CR","ts":"2025-01-12T13:32:25Z","tX":549,"tY":344,"tags":{"alt_name":"Wohnmobilstellplatz Gelobtland","capacity":"4","caravan_site":"motorhome_stopover","caravan_site:type":"skiing","caravans":"yes","charge":"12 EUR","fee":"yes","name":"Caravaningstellplatz am Tourismuszentrum Rätzteich","note":"Strom über Stadt Marienberg - Schlüssel in Stadtinformation -","opening_hours:sanitary_dump_station":"Apr-Oct","power_supply":"yes","power_supply:charge":"1 EUR/day","sanitary_dump_station":"yes","sanitary_dump_station:seasonal":"yes","seasonal":"no","surface":"grass_paver","water_point":"yes","water_point:seasonal":"yes","website":"https://www.outdooractive.com/de/accommodation/erzgebirge/caravaningstellplatz-am-tourismuszentrum-raetzteich/26746898/"}},"1213778570":{"location":[50.701928,13.3554946],"ct":"DE","tp":"CS","ts":"2024-05-25T14:59:49Z","tX":549,"tY":344,"tags":{"access":"yes","addr:city":"Pfaffroda","addr:housenumber":"406A","addr:postcode":"09526","addr:street":"Freiberger Straße","capacity:caravans":"15","capacity:tents":"10","caravans":"yes","description":"Unser kleiner Campingplatz liegt am Bierwiesenteich in Olbernhau-Pfaffroda. Die Stadt Olbernhau ist bekannt durch das Welterbe Saigerhütte Grünthal und natürlich durch die Holzkunst. Bei uns entspannen sie in Natur. Der Naturbadeteich gibt Abkühlung.","dog":"leashed","drinking_water":"yes","email":"info@bwt-pfaffroda.de","fee":"yes","internet_access":"yes","name":"BWT-Bierwiesenteich Pfaffroda I Camping-Freizeit-Gastro-Bowling","operator":"Abenteuer Bergwerk & Gaststätte Huthaus I BWT-Bierwiesenteich Pfaffroda","payment:cards":"yes","payment:cash":"yes","phone":"+4937360 796079","picnic_table":"yes","power_supply":"yes","reservation":"recommended","sanitary_dump_station":"yes","shower":"yes","start_date":"2014-04-01","static_caravans":"no","tents":"yes","toilets":"yes","website":"https://www.bwt-pfaffroda.de/","wheelchair":"limited"}},"1286592902":{"location":[50.6603188,13.3512318],"ct":"DE","tp":"CS","ts":"2024-05-25T14:45:55Z","tX":549,"tY":344,"tags":{"addr:city":"Olbernhau","addr:housenumber":"14","addr:postcode":"09526","addr:street":"Jahnstraße","caravans":"yes","dog":"yes","email":"info@event-uhlig.de","name":"Campingplatz Bärenbachschänke","note":"Energieanschluss Wasseranschluss am Stellplatz Abwasseranschluss am Stellplatz Ver- und Entsorgung für Wohnmobil Zentraler Lagerfeuerplatz Haustiere erlaubt","phone":"+491723710043","sanitary_dump_station":"yes","surface":"grass","tents":"yes","website":"https://www.erzgebirgscamping.de","wheelchair":"yes"}},"1304215470":{"location":[50.6646209,13.0771428],"ct":"DE","tp":"CS","ts":"2024-07-28T08:05:17Z","tX":549,"tY":344,"tags":{"access":"customers","addr:city":"Wolkenstein","addr:housenumber":"11","addr:postcode":"09429","addr:street":"Am Kurpark","capacity:caravans":"10","capacity:persons":"20","caravans":"yes","contact:website":"https://erzidyll.de/","email":"willkommen@erzidyll.de","fee":"yes","mobile":"+4915566008811","name":"ERZ.IDYLL Warmbad","operator":"Markus Böttger","payment:cash":"yes","payment:paypal":"yes","reservation":"recommended","sanitary_dump_station":"no","shower":"no","static_caravans":"no","tents":"yes","toilets":"yes"}},"1349880243":{"location":[50.6185152,13.1942991],"ct":"DE","tp":"CR","ts":"2025-01-09T23:42:46Z","tX":549,"tY":344,"tags":{"capacity":"2","caravan_site":"motorhome_stopover","caravan_site:type":"restaurant","email":"brettmuehle@freenet.de","fee":"no","name":"Rätzen's Brettmühle Wohnmobilstellplatz","phone":"+49 3735 22832","website":"https://www.raetzens-brettmuehle.de/uber-uns"}},"7740517685":{"location":[50.5242695,13.1335274],"ct":"DE","tp":"CS","ts":"2020-07-23T12:50:41Z","tX":549,"tY":344,"tags":{"name":"Hammerwek - Zeltplatz"}},"11655935421":{"location":[50.6611223,13.235333],"ct":"DE","tp":"CS","ts":"2024-02-24T15:32:16Z","tX":549,"tY":344,"tags":{"addr:city":"Marienberg","addr:housenumber":"217","addr:postcode":"09496","addr:street":"Teichstraße","email":"info@gyra-zoeblitz.de","fee":"yes","name":"Natur Camping","phone":"+49 0160 909 140 75","website":"https://gyra-zoeblitz.de/"}},"6715344228":{"location":[50.6326275,13.2093542],"ct":"DE","tp":"CR","ts":"2025-01-09T23:19:20Z","tX":549,"tY":344,"tags":{"capacity":"10","caravan_site":"motorhome_stopover","caravan_site:type":"mountains","charge":"8 EUR+kurtaxe","description":"Entsorgung auf dem Wohnmobilstellplatz im Ortsteil Gelobtland","fee":"yes","name":"Caravaningstellplatz im Ortsteil Pobershau","opening_hours":"Apr-Oct","operator":"Stadt Marienberg","power_supply":"yes","power_supply:charge":"2 EUR","power_supply:fee":"yes","sanitary_dump_station":"no","water_point":"yes","water_point:charge":"2 EUR","water_point:fee":"yes","website":"https://www.marienberg.de/index.php?id=143#filter=b-destination-1,b-showFurtherPois-1,r-fullyTranslatedLangus-,r-openState-,sb-sortedBy-0,b-showOnlyDestinations-0&ipd=27234914"}},"7124776686":{"location":[50.6274892,13.0595805],"ct":"DE","tp":"CR","ts":"2020-01-11T19:22:19Z","tX":549,"tY":344,"tags":{"name":"Stellplatz Himmelmühle"}},"11145496591":{"location":[50.6243571,13.1795599],"ct":"DE","tp":"SD","ts":"2023-08-26T04:47:58Z","tX":549,"tY":344,"tags":{"sanitary_dump_station:chemical_toilet":"yes","sanitary_dump_station:gravity":"yes","sanitary_dump_station:grey_water":"yes","sanitary_dump_station:suction":"no"}},"11933206327":{"location":[50.6603573,13.351409],"ct":"DE","tp":"SD","ts":"2024-05-25T14:45:55Z","tX":549,"tY":344,"tags":{"access":"customers"}},"11933219755":{"location":[50.7007789,13.3553639],"ct":"DE","tp":"SD","ts":"2024-05-25T14:59:49Z","tX":549,"tY":344,"tags":{"access":"yes","fee":"yes","operator":"BWT-Bierwiesenteich Pfaffroda I Camping-Freizeit-Gastro-Bowling","water_point":"yes"}},"12505672221":{"location":[50.6585898,13.1618357],"ct":"DE","tp":"CR","ts":"2025-01-16T01:56:10Z","tX":549,"tY":344,"tags":{"capacity":"6","caravan_site":"motorhome_stopover","caravan_site:type":"swimming_pool","charge":"4 EUR","fee":"yes","name":"Parkplatz AQUA MARIEN","power_supply":"no","sanitary_dump_station":"no","surface":"grass_paver","water_point":"no","website":"https://www.aquamarien.de/aktuelles.php?id=28"}}}