{"473854047":{"location":[49.7915687,13.1692528],"ct":"CZ","tp":"CS","ts":"2024-06-27T12:51:22Z","tX":549,"tY":348,"tags":{"caravans":"yes","name":"Transkemp Hracholusky","tents":"yes","website":"https://www.hracholusky.com/kemp/"}},"889634255":{"location":[49.7651523,13.057497],"ct":"CZ","tp":"CR","ts":"2022-10-11T17:31:48Z","tX":549,"tY":348,"tags":{}},"1293308284":{"location":[49.7952971,13.1375106],"ct":"CZ","tp":"CS","ts":"2024-08-06T09:41:07Z","tX":549,"tY":348,"tags":{"addr:city":"Pňovany","addr:postcode":"33033","caravans":"yes","drinking_water":"yes","fee":"yes","internet_access":"wlan","name":"Autokemp Radost","power_supply":"yes","sanitary_dump_station":"yes","shower":"yes","tents":"yes","toilets":"yes","website":"https://www.autokempradosthracholusky.cz"}},"11989220397":{"location":[49.7942966,13.1379522],"ct":"CZ","tp":"CS","ts":"2024-06-18T01:02:10Z","tX":549,"tY":348,"tags":{"addr:city":"Pňovany","addr:postcode":"33033","name":"Camp Kosatka","website":"https://www.kempkosatka.cz/"}},"11989220398":{"location":[49.7951929,13.135951],"ct":"CZ","tp":"CS","ts":"2024-08-06T09:41:55Z","tX":549,"tY":348,"tags":{"caravans":"yes","drinking_water":"yes","fee":"yes","internet_access":"wlan","name":"Camping Terasy","power_supply":"yes","sanitary_dump_station":"yes","shower":"yes","tents":"yes","toilets":"yes","website":"https://campingterasy.nl"}},"12165498480":{"location":[49.7301572,13.048407],"ct":"CZ","tp":"CS","ts":"2024-09-09T13:25:18Z","tX":549,"tY":348,"tags":{"access":"customers","addr:city":"Stříbro","addr:housenumber":"35","addr:postcode":"34901","addr:street":"Lhota u Stříbra","capacity:caravans":"5","capacity:tents":"5","caravans":"yes","fee":"yes","name":"Bauernhof U Štěpána","operator":"Martina Česalová","payment:credit_cards":"yes","tents":"yes"}},"11052918410":{"location":[49.7155677,13.3568919],"ct":"CZ","tp":"CR","ts":"2023-07-18T13:17:56Z","tX":549,"tY":348,"tags":{"capacity":"5","power_supply":"yes","sanitary_dump_station":"yes","source":"survey"}}}