{"119143621":{"location":[49.0263092,13.218378],"ct":"DE","tp":"CS","ts":"2023-11-03T15:00:57Z","tX":549,"tY":351,"tags":{"addr:city":"Zwiesel","addr:country":"DE","addr:housenumber":"34","addr:postcode":"94227","addr:street":"Waldesruhweg","cabins":"yes","caravans":"yes","dog":"yes","email":"info@ferienpark-arber.de","fax":"+49 9922 802594","name":"Ferienpark Arber","phone":"+49 9922 802595","power_supply":"yes","tents":"yes","website":"https://www.ferienpark-arber.de/"}},"176040922":{"location":[48.9667559,13.1126351],"ct":"DE","tp":"CS","ts":"2023-08-20T14:42:08Z","tX":549,"tY":351,"tags":{"addr:city":"Regen","addr:country":"DE","addr:housenumber":"18","addr:postcode":"94209","addr:street":"Badstraße","website":"https://www.regental-aktiv-camping.de/"}},"199612757":{"location":[49.0084949,13.2767161],"ct":"DE","tp":"CS","ts":"2023-11-03T15:00:52Z","tX":549,"tY":351,"tags":{"addr:city":"Frauenau","addr:country":"DE","addr:housenumber":"16a","addr:place":"Zwieselau","addr:postcode":"94258","caravans":"yes","dryer":"yes","email":"info@camping-bayrischerwald.de","fax":"+49 9922 502056","kitchen":"yes","name":"Campingplatz Green Village","opening_hours":"May 01-Oct 31","phone":"+49 9922 6475","power_supply":"yes","tents":"yes","washing_machine":"yes","website":"https://www.camping-bayrischerwald.de/"}},"210358806":{"location":[49.1035066,13.0150072],"ct":"DE","tp":"CS","ts":"2023-11-09T17:35:22Z","tX":549,"tY":351,"tags":{"name":"Campingplatz Haufenmühle","phone":"+49 9945 2567","website":"https://www.campingplatz-haufenmuehle.de/"}},"292031189":{"location":[49.012702,13.2086783],"ct":"DE","tp":"CS","ts":"2023-11-03T15:00:58Z","tX":549,"tY":351,"tags":{"caravans":"yes","name":"Tröpplkeller","tents":"yes","website":"https://www.troepplkeller.de/"}},"305145249":{"location":[49.1269454,13.3284751],"ct":"CZ","tp":"CS","ts":"2023-11-09T17:35:30Z","tX":549,"tY":351,"tags":{"backcountry":"yes","capacity":"20","caravans":"no","fee":"no","name":"Hůrka u Prášil","name:de":"Althurkenthal","note:cs":"Nouzové nocoviště","note:de":"Notübernachtungsplätze","note:en":"Emergency night shelter","openfire":"no","operator":"NP Šumava","surface":"grass","tents":"yes","website":"https://www.npsumava.cz/cz/1336/sekce/nouzova-nocoviste/"}},"447136639":{"location":[49.0789331,13.20685],"ct":"DE","tp":"CS","ts":"2021-06-25T17:56:32Z","tX":549,"tY":351,"tags":{"addr:city":"Bayerisch Eisenstein","addr:housenumber":"6","addr:postcode":"94252","addr:street":"Arberseestraße","area":"yes","contact:phone":"+49 9925 2 47","contact:website":"https://www.camping-heiner.de","fee":"yes","name":"Camping Heiner","operator":"Karl-Heinz Kapfhammer","source":"www.camping-heiner.de"}},"549383912":{"location":[49.0710174,13.0924392],"ct":"DE","tp":"CR","ts":"2025-04-19T14:43:19Z","tX":549,"tY":351,"tags":{"capacity":"12","caravan_site":"motorhome_stopover","charge":"10€ (zuzüglich Kurbeitrag 3,60€ p. P) Stand 2025","description":"Sehr unebener Platz für Wohnmobile bis 7 mtr.","fee":"yes","name":"Reisemobilstellplatz Bodenmais","operator":"Stadt Bodenmais","power_supply":"yes","power_supply:capacity":"12","power_supply:charge":"0.50 EUR/1 KWh","reservation":"no","sanitary_dump_station":"yes","sanitary_dump_station:fee":"no","seasonal":"no","water_point:charge":"0.50 EUR/100 liter","website":"https://www.bodenmais.de/de/unterkunft/wohnmobilstellplatz_a11421"}},"577572534":{"location":[49.1433384,13.2471314],"ct":"CZ","tp":"CS","ts":"2024-12-09T10:38:48Z","tX":549,"tY":351,"tags":{"name":"Autocamp Železná Ruda","phone":"+420602258589","website":"https://autocamp-zeleznaruda.cz/"}},"704280300":{"location":[48.9323839,13.2428245],"ct":"DE","tp":"CS","ts":"2021-06-27T17:38:28Z","tX":549,"tY":351,"tags":{"addr:city":"Kirchdorf i.Wald","addr:housenumber":"8","addr:postcode":"94261","addr:street":"Schlag Siedlung","cabin:rental":"yes","email":"carsten_cornelissen@hotmail.de","motorcycle:tools":"yes","motorcycle:tours":"info","motorcycle_friendly":"yes","name":"Hirtenwiese Camping & Events","opening_hours":"Mo-Su 09:00-19:00","operator":"Ralph-Conrad Bröcking und Daniela Schmiedler","phone":"+49 9928 9036290"}},"826950413":{"location":[49.0573258,13.1061665],"ct":"DE","tp":"CS","ts":"2023-08-26T21:25:12Z","tX":549,"tY":351,"tags":{"access":"customers","addr:city":"Bodenmais","addr:housenumber":"45","addr:street":"Regener Straße","fee":"yes","name":"Camping Resort BODENMAIS","opening_hours":"24/7","phone":"+4999249432080","power_supply":"yes","sanitary_dump_station":"yes","shower":"yes","website":"https://www.campingresort-bodenmais.de/"}},"980557747":{"location":[49.023422,13.1576021],"ct":"DE","tp":"CS","ts":"2015-06-21T18:21:12Z","tX":549,"tY":351,"tags":{"addr:city":"Langdorf/Bayrischer Wald","addr:country":"DE","addr:housenumber":"26","addr:postcode":"94264","addr:street":"Nebelberg","caravans":"yes","email":"info@urlaub-waldhof.de","fax":"+49 9922 500739","name":"Campingplatz Waldhof","phone":"+49 9922 1024","tents":"yes","website":"http://www.urlaub-waldhof.de"}},"1093137407":{"location":[49.0622229,13.3059508],"ct":"DE","tp":"CR","ts":"2023-12-13T01:52:42Z","tX":549,"tY":351,"tags":{"capacity":"4","contact:email":"hzw@npv-bw.bayern.de","contact:phone":"+499922 5002-100","contact:website":"https://www.nationalpark-bayerischer-wald.bayern.de/besucher/einrichtungen/camping/index.htm","maxstay":"2 days","name":"Wohnmobilstellplätze und Zeltplatz in Scheuereck","openfire":"no","opening_hours":"Apr 01-Nov 15 00:00-24:00","operator":"Nationalparkverwaltung Bayerischer Wald","reservation":"required","sanitary_dump_station":"no","tents":"yes","toilets":"yes"}},"1093137408":{"location":[49.0630895,13.306104],"ct":"DE","tp":"CS","ts":"2024-08-19T11:17:46Z","tX":549,"tY":351,"tags":{"backcountry":"yes","capacity:tents":"4","contact:email":"hzw@npv-bw.bayern.de","contact:phone":"+499922 5002-100","contact:website":"https://www.nationalpark-bayerischer-wald.bayern.de/besucher/einrichtungen/camping/index.htm","dog":"leashed","drinking_water":"no","fee":"no","maxstay":"2 nights","motor_vehicle":"no","name":"Zeltplatz Scheuereck","openfire":"no","opening_hours":"Apr 01-Nov 15 00:00-24:00","operator":"Nationalparkverwaltung Bayerischer Wald","reservation":"required","shower":"no","toilets":"yes"}},"5230011467":{"location":[49.0712712,13.0922471],"ct":"DE","tp":"SD","ts":"2017-12-27T18:16:22Z","tX":549,"tY":351,"tags":{"access":"customers","fee":"no","operator":"Stadt Bodenmais","water_point":"yes"}},"5306839652":{"location":[49.0712986,13.0922304],"ct":"DE","tp":"SD","ts":"2017-12-27T18:16:22Z","tX":549,"tY":351,"tags":{"access":"customers","fee":"no","operator":"Stadt Bodenmais","water_point":"yes"}},"12476054446":{"location":[49.060827,13.2356859],"ct":"DE","tp":"CR","ts":"2025-02-14T07:24:48Z","tX":549,"tY":351,"tags":{"capacity":"5","caravan_site":"motorhome_stopover","caravan_site:type":"zoo","charge":"8 EUR","drinking_water":"no","fee":"yes","maxstay":"2 nights","name":"Wohnmobilstellplätze Nationalparkzentrum Falkenstein","opening_hours":"Apr 01-Nov 15","power_supply":"no","reservation":"no","sanitary_dump_station":"no","toilets":"no","website":"https://www.bayerischer-wald.de/attraktion/wohnmobilstellplaetze-am-nationalparkzentrum-falkenstein-8a34e5b814"}},"12476480488":{"location":[49.0088346,13.2191643],"ct":"DE","tp":"CR","ts":"2025-01-07T09:21:40Z","tX":549,"tY":351,"tags":{"capacity":"12","charge":"10 EUR+kurtaxe","dog":"yes","fee":"yes","internet_access":"wlan","internet_access:fee":"no","maxlength":"10","name":"Zwiesel Grenzlandfestplatz","phone":"+49 99227099013","power_supply":"yes","power_supply:charge":"0.50 EUR/KWh","power_supply:fee":"yes","reservation":"yes","sanitary_dump_station":"yes","sanitary_dump_station:chemical_toilet":"yes","sanitary_dump_station:grey_water":"yes","seasonal":"no","socket:cee_blue":"yes","water_point":"yes","water_point:charge":"1 EUR","website":"https://www.regiostellplatz.de/stellplaetze/zwiesel"}}}