{"112569044":{"location":[48.607074,13.3455885],"ct":"DE","tp":"CS","ts":"2024-05-09T03:44:11Z","tX":549,"tY":353,"tags":{"addr:city":"Tiefenbach","addr:country":"DE","addr:housenumber":"8","addr:postcode":"94113","addr:street":"Am Sonnenhang","addr:suburb":"Irring","caravans":"yes","designation":"Dreiflüsse-Camping Josef PitschenederAm Sonnenhang 8D 94113 Irring bei Passau-Nord","email":"info@dreifluesse-camping.de","fax":"+49 8546 2686","fee":"yes","internet_access":"wlan","name":"Dreiflüsse-Camping","opening_hours":"Mar 29-Oct 31, 07:30-12:00, 14:00-22:00","operator":"Josef Pitschenider","phone":"+49 8546 633","power_supply":"yes","tents":"yes","website":"https://dreifluesse-camping.de/"}},"194599779":{"location":[48.6853938,13.1326954],"ct":"DE","tp":"CS","ts":"2022-08-28T02:39:46Z","tX":549,"tY":353,"tags":{}},"232645839":{"location":[48.6385955,13.1863075],"ct":"DE","tp":"CS","ts":"2024-07-01T04:21:57Z","tX":549,"tY":353,"tags":{"addr:housenumber":"Am Bootshafen","addr:street":"1","alt_name":"Campingplatz Vilshofen","caravans":"yes","contact:email":"info@bsv-vilshofen.de","contact:website":"https://www.vilshofen.de/vilshofen-besuchen/gastgeber-und-gastronomie/camping","fee":"yes","motor_vehicle":"yes","name":"Rad-, Wander- und Bootsterminal","name:en":"Bike-, hiking- and boat centre","sanitary_dump_station":"yes","tents":"yes"}},"235797646":{"location":[48.6391093,13.1865368],"ct":"DE","tp":"CR","ts":"2024-07-01T04:25:22Z","tX":549,"tY":353,"tags":{"caravan":"only","drinking_water":"yes","fee":"yes","power_supply":"yes","sanitary_dump_station":"yes","toilets":"yes"}},"337383025":{"location":[48.5890429,13.0863344],"ct":"DE","tp":"CR","ts":"2024-07-15T07:45:34Z","tX":549,"tY":353,"tags":{"addr:city":"Aldersbach","addr:country":"DE","addr:postcode":"94501","addr:street":"Klosterplatz","capacity":"3","fee":"no","internet_access":"no","name":"Am Rathaus Aldersbach","power_supply":"yes","sanitary_dump_station":"yes"}},"1245111706":{"location":[48.5702774,13.0837438],"ct":"DE","tp":"CR","ts":"2024-01-31T23:16:31Z","tX":549,"tY":353,"tags":{"fee":"no","name":"Wohnmobilstellplatz Aidenbach","sanitary_dump_station":"yes"}},"2363447033":{"location":[48.6387645,13.1794341],"ct":"DE","tp":"CR","ts":"2024-10-01T06:25:47Z","tX":549,"tY":353,"tags":{"drinking_water":"no","fee":"no","maxstay":"24 hours","name":"Donauparkplatz","power_supply":"no","sanitary_dump_station":"no","website":"https://www.vilshofen.de/vilshofen-besuchen/gastgeber-und-gastronomie/camping"}},"9008628729":{"location":[48.6193192,13.1960609],"ct":"DE","tp":"CS","ts":"2023-01-21T16:53:14Z","tX":549,"tY":353,"tags":{"access":"yes","addr:city":"Vilshofen an der Donau","addr:housenumber":"4","addr:postcode":"94474","addr:street":"Oberer Galgenberg","cabins":"no","camp_site":"serviced","camp_type":"established","caravans":"yes","contact:facebook":"https://www.facebook.com/BiohofReinhardt","contact:phone":"+49 8541 910831","contact:website":"https://www.wolfachtal.com/biohof_reinhardt.html","fee":"yes","name":"Biohof Reinhardt","operator":"Familie Reinhart","permanent_camping":"no","phone":"+498541 910833","shower":"yes","static_caravans":"no","tents":"yes","toilets":"yes"}},"9008628737":{"location":[48.6387285,13.1874839],"ct":"DE","tp":"SD","ts":"2024-07-13T08:24:10Z","tX":549,"tY":353,"tags":{"water_point":"yes"}}}