{"25178134":{"location":[48.3551797,13.318337],"ct":"DE","tp":"PK","ts":"2025-01-01T19:32:04Z","tX":549,"tY":354,"tags":{"fee":"no","motorhome":"yes","motorhome:overnight":"no","name":"Spielbank","parking":"surface","wheelchair":"yes"}},"34196642":{"location":[48.3145517,13.3226395],"ct":"AT","tp":"CS","ts":"2017-03-16T06:04:30Z","tX":549,"tY":354,"tags":{"caravans":"yes","contact:phone":"+43 7758 30024","contact:website":"http://obernberg-panoramacamping.jimdo.com/","name":"Panorama Camping Obernberg","opening_hours":"easter-Oct 1: open","tents":"yes"}},"36380560":{"location":[48.3591724,13.3072028],"ct":"DE","tp":"CS","ts":"2023-04-15T16:14:45Z","tX":549,"tY":354,"tags":{"addr:city":"Bad Füssing","addr:country":"DE","addr:housenumber":"10","addr:postcode":"94072","addr:street":"Am Tennispark","capacity":"9","capacity:longtime":"160","name":"Camping Holmernhof","phone":"+49 8531 24740","source":"website","website":"https://www.holmernhof-camping.de/","wheelchair":"yes"}},"106573349":{"location":[48.3318412,13.3141745],"ct":"DE","tp":"CS","ts":"2025-02-26T10:41:58Z","tX":549,"tY":354,"tags":{"addr:city":"Bad Füssing","addr:country":"DE","addr:housenumber":"12","addr:postcode":"94072","addr:street":"Falkenstraße","addr:suburb":"Egglfing","caravans":"yes","drinking_water":"yes","email":"info@campingmax.de","fax":"+49 8537 961710","internet_access":"wlan","internet_access:fee":"yes","kitchen":"yes","name":"Kur- und Feriencamping Max1","phone":"+49 8537 9617-0","power_supply":"yes","shower":"yes","tents":"yes","toilets":"yes","website":"https://www.campingmax.de/"}},"107004905":{"location":[48.3461426,13.3067103],"ct":"DE","tp":"CS","ts":"2020-08-12T13:30:11Z","tX":549,"tY":354,"tags":{"addr:city":"Bad Füssing","addr:housenumber":"23","addr:postcode":"94072","addr:street":"Bachstraße","charge":"14€ (2P)","fee":"yes","name":"Riedlhof","power_supply":"yes","website":"https://riedlhof.de/camping/"}},"118972481":{"location":[48.421954,13.1926182],"ct":"DE","tp":"CS","ts":"2019-03-29T08:57:31Z","tX":549,"tY":354,"tags":{"addr:city":"Bad Griesbach i.Rottal","addr:country":"DE","addr:housenumber":"40","addr:postcode":"94086","addr:street":"Singham","caravans":"yes","dog":"yes","email":"info@camping-bad-griesbach.de","fax":"+49 8537 919201","internet_access":"wlan","internet_access:fee":"yes","name":"W. Hartl´s Kur- und Feriencamping Dreiquellenbad e.K.","phone":"+49 8532 9613 0","power_supply":"yes","smoking":"no","stars":"5","tents":"yes","website":"https://www.camping-bad-griesbach.de/","wheelchair":"yes"}},"159956668":{"location":[48.4364761,13.1093854],"ct":"DE","tp":"CS","ts":"2019-03-29T08:52:52Z","tX":549,"tY":354,"tags":{"addr:city":"Bad Birnbach","addr:country":"DE","addr:housenumber":"3","addr:postcode":"84364","addr:street":"Hauptstraße","caravans":"yes","dog":"yes","email":"info@arterhof.de","fax":"+49 8563 961343","internet_access":"wlan","name":"Kur-Gutshof-Camping Arterhof","phone":"+49 8563 96130","power_supply":"yes","tents":"yes","toilets:wheelchair":"yes","website":"https://www.arterhof.de/","wheelchair":"yes"}},"175911619":{"location":[48.3376016,13.2821947],"ct":"DE","tp":"CS","ts":"2020-04-23T15:27:13Z","tX":549,"tY":354,"tags":{"addr:city":"Kirchham","addr:country":"DE","addr:housenumber":"1","addr:postcode":"94148","addr:street":"Angloh","caravans":"yes","dog":"yes","email":"info@preishof.de","fax":"+49 8537 919201","internet_access":"wlan","name":"Campingplatz Preishof","phone":"+49 8537 919200","power_supply":"yes","tents":"yes","website":"http://www.preishof.de"}},"231750250":{"location":[48.3323677,13.3154285],"ct":"DE","tp":"CS","ts":"2025-02-26T10:41:58Z","tX":549,"tY":354,"tags":{"addr:city":"Bad Füssing","addr:country":"DE","addr:housenumber":"14","addr:postcode":"94072","addr:street":"Falkenstraße","caravans":"yes","email":"info@kurcamping-fuchs.de","fax":"+49 8537 912083","name":"Kurcamping Fuchs","phone":"+49 8537 356","power_supply":"yes","shower":"yes","tents":"yes","website":"https://www.kurcamping-fuchs.de/"}},"242955375":{"location":[48.3581266,13.3068777],"ct":"DE","tp":"CR","ts":"2025-01-01T21:16:30Z","tX":549,"tY":354,"tags":{"capacity":"7","caravan_site":"motorhome_stopover","caravan_site:type":"camp_site","fee":"yes","internet_access":"yes","name":"Stellplatz vorm CP Holmernhof","power_supply":"yes","sanitary_dump_station":"yes","website":"https://www.holmernhof.de/","wheelchair":"yes"}},"280270005":{"location":[48.4143752,13.1293757],"ct":"DE","tp":"CS","ts":"2023-01-20T11:49:50Z","tX":549,"tY":354,"tags":{"addr:city":"Bayerbach","addr:country":"DE","addr:housenumber":"11","addr:postcode":"94137","addr:street":"Huckenham","caravans":"yes","email":"info@vitalcamping-bayerbach.de","name":"Vital Camping","phone":"+49 8532 9278070","power_supply":"yes","website":"https://www.vitalcamping-bayerbach.de/"}},"330427032":{"location":[48.4151964,13.1303432],"ct":"DE","tp":"CR","ts":"2024-05-16T10:50:03Z","tX":549,"tY":354,"tags":{"access":"customers","caravan_site":"motorhome_stopover","caravan_site:type":"camp_site","charge":"20 EUR","fee":"yes","name":"Wohnmobilhafen Vital Camping","tents":"no","website":"https://www.vitalcamping-bayerbach.de/"}},"353468123":{"location":[48.4195807,13.1916962],"ct":"DE","tp":"CR","ts":"2019-03-29T08:53:06Z","tX":549,"tY":354,"tags":{"capacity":"29","description":"Stellplatz vorm Campingplatz","fee":"yes","name":"Kur- & Feriencamping Holmernhof Dreiquellenbad","operator":"Kur- & Feriencamping Holmernhof Dreiquellenbad","power_supply":"yes","sanitary_dump_station":"yes","water_point":"yes","website":"https://www.camping-bad-griesbach.de/index_cnt.php?sa=22&si=226"}},"538421689":{"location":[48.3437489,13.3199467],"ct":"DE","tp":"CR","ts":"2024-04-11T12:22:34Z","tX":549,"tY":354,"tags":{"addr:city":"Bad Füssing","addr:housenumber":"24-26","addr:postcode":"94072","addr:street":"Inntalstraße","capacity":"8","fee":"yes","internet_access":"no","name":"Maier´s Burgwirtschaft","power_supply":"no","sanitary_dump_station":"no","website":"https://www.burgwirtschaft.com/"}},"863339262":{"location":[48.4503201,13.0947801],"ct":"DE","tp":"CS","ts":"2021-11-24T21:16:18Z","tX":549,"tY":354,"tags":{"name":"Camping Theresienhof","website":"https://www.camping-theresienhof.de/index.php?id=c_index"}},"967294873":{"location":[48.246712,13.0512584],"ct":"AT","tp":"CS","ts":"2021-07-25T16:40:01Z","tX":549,"tY":354,"tags":{"name":"Durchreiseplatz"}},"1112174007":{"location":[48.3659102,13.3104407],"ct":"DE","tp":"CS","ts":"2022-11-11T03:11:41Z","tX":549,"tY":354,"tags":{}},"2304387193":{"location":[48.3375996,13.2819796],"ct":"DE","tp":"CR","ts":"2013-05-14T23:48:51Z","tX":549,"tY":354,"tags":{}},"2318755071":{"location":[48.3835647,13.3035905],"ct":"DE","tp":"CR","ts":"2013-05-24T22:05:45Z","tX":549,"tY":354,"tags":{"name":"Seecamp"}},"2321319237":{"location":[48.3579269,13.3244952],"ct":"DE","tp":"CR","ts":"2013-05-26T22:33:34Z","tX":549,"tY":354,"tags":{}},"7787250094":{"location":[48.4361159,13.1099519],"ct":"DE","tp":"CR","ts":"2024-07-14T17:37:45Z","tX":549,"tY":354,"tags":{"addr:city":"Bad Birnbach","addr:country":"DE","addr:housenumber":"3","addr:postcode":"84364","addr:street":"Hauptstraße","addr:suburb":"Lengham","caravan_site":"motorhome_stopover","caravan_site:type":"farm","charge":"20 EUR","fee":"yes","internet_access":"wlan","internet_access:fee":"no","laundry":"yes","maxstay":"72 hours","name":"Kur-Gutshof Arterhof","phone":"+49 8563 96130","sanitary_dump_station":"yes","website":"https://www.arterhof.de/camping/"}},"7833006875":{"location":[48.3554116,13.318231],"ct":"DE","tp":"CR","ts":"2020-09-01T10:48:01Z","tX":549,"tY":354,"tags":{"description":"Wohnmobilstellplatz für 6 Stunden","maxstay":"6 hours"}},"9687778048":{"location":[48.2745133,13.0271257],"ct":"DE","tp":"CR","ts":"2025-01-02T10:32:15Z","tX":549,"tY":354,"tags":{"capacity":"6","caravan_site":"motorhome_stopover","caravan_site:type":"sports_centre","contact:website":"https://www.simbach.de/seite/381300/wohnmobilstellpl%C3%A4tze.html","fee":"no","name":"Wohnmobilstellplätze Simbach am Inn","power_supply":"yes","power_supply:capacity":"4","power_supply:charge":"1 EUR/2 KWh","power_supply:fee":"yes","tents":"no"}},"5212086378":{"location":[48.3581845,13.3071941],"ct":"DE","tp":"SD","ts":"2017-11-05T11:11:30Z","tX":549,"tY":354,"tags":{"name":"Holiday-Clean","water_point":"yes"}},"11028039468":{"location":[48.274574,13.0271281],"ct":"DE","tp":"SD","ts":"2023-07-05T15:48:41Z","tX":549,"tY":354,"tags":{}}}