{"38115127":{"location":[47.9196034,13.162208],"ct":"AT","tp":"CR","ts":"2024-09-16T09:54:12Z","tX":549,"tY":356,"tags":{"fee":"yes","name":"Campingplatz Zell am Wallersee","website":"https://www.see-camping.at/"}},"38806435":{"location":[47.9425363,13.069329],"ct":"AT","tp":"CS","ts":"2019-03-29T09:02:53Z","tX":549,"tY":356,"tags":{"name":"Strandcamping Oitner","phone":"+43 6219 6263","website":"https://www.oitner-urlaubamsee.at/camping"}},"39442771":{"location":[47.9023448,13.143174],"ct":"AT","tp":"CS","ts":"2024-08-06T11:44:46Z","tX":549,"tY":356,"tags":{"caravans":"yes","email":"Strandbad.Seekirchen@hotmail.com","name":"Camping Seekirchen","tents":"yes","url":"http://www.camping-seekirchen.at"}},"79261609":{"location":[47.9302313,13.311082],"ct":"AT","tp":"CS","ts":"2016-06-30T08:42:33Z","tX":549,"tY":356,"tags":{"name":"Camping Moosmühle"}},"118894785":{"location":[47.780881,13.0913505],"ct":"AT","tp":"CS","ts":"2024-09-09T11:25:15Z","tX":549,"tY":356,"tags":{"addr:housenumber":"20","addr:street":"Weberbartlweg","caravans":"yes","contact:email":"camping.aigen@elsnet.at","drinking_water":"yes","fee":"yes","name":"Camping Schloss Aigen","opening_hours":"01. Mai - 30. Sep","operator":"Familie Getzinger","phone":"+43 662 622 079","shower":"yes","tents":"yes","website":"http://www.campingaigen.com/"}},"119136617":{"location":[47.9280662,13.2980832],"ct":"AT","tp":"CS","ts":"2011-06-26T08:51:27Z","tX":549,"tY":356,"tags":{"fee":"yes","fenced":"yes","name":"Camping Fischhof","source":"geoimage.at"}},"188337879":{"location":[47.9898232,13.130347],"ct":"AT","tp":"CS","ts":"2024-04-03T08:01:11Z","tX":549,"tY":356,"tags":{"description":"Achtung: nur für Dauercamper!","fax":"+43 6217 7382","name":"Campingparadies am Mattsee","operator":"Familie Oberascher","phone":"+43 6217 7382","website":"https://www.campingparadies.com/"}},"249718588":{"location":[47.8992762,13.3016687],"ct":"AT","tp":"CS","ts":"2025-03-29T17:08:50Z","tX":549,"tY":356,"tags":{"description":"permanent campers only","name":"Steiningerhof (nur Dauercamper)"}},"251153329":{"location":[47.8669117,13.3072328],"ct":"AT","tp":"CS","ts":"2025-02-05T08:12:53Z","tX":549,"tY":356,"tags":{"caravans":"yes","drinking_water":"yes","email":"austria@campmondsee.at","internet_access":"wlan","name":"Camp MondSeeLand","openfire":"yes","phone":"+43 6232 2600","power_supply":"yes","sanitary_dump_station":"yes","shower":"yes","tents":"yes","toilets":"yes","website":"https://www.campmondsee.at","wheelchair":"yes"}},"308126859":{"location":[47.9845881,13.0924201],"ct":"AT","tp":"CS","ts":"2024-11-26T14:13:59Z","tX":549,"tY":356,"tags":{"addr:city":"Mattsee","addr:housenumber":"1","addr:postcode":"5163","addr:street":"Zellhof","capacity:persons":"1000","description":"Dieser Lagerplatz ist Exklusiv für Pfadfindergruppen","dog":"no","group_only":"yes","name":"Pfadfinderdorf Zellhof","openfire":"yes","operator":"Pfadfinderdorf Zellhof","phone":"+43 6217 7066","scout":"yes","tents":"yes","website":"https://www.zellhof.at/"}},"323095687":{"location":[47.9721726,13.0790527],"ct":"AT","tp":"CS","ts":"2023-04-15T16:14:45Z","tX":549,"tY":356,"tags":{"email":"seepension@sporthof-wimmer.at","name":"Campingplatz Wimmer","operator":"Familie Wimmer","phone":"+43 62177297"}},"377129515":{"location":[47.9270949,13.2107791],"ct":"AT","tp":"CS","ts":"2024-01-18T09:02:47Z","tX":549,"tY":356,"tags":{"name":"Seecamp Wallersee","website":"http://www.seecamp-wallersee.at/camping-wallersee"}},"441580715":{"location":[47.8284272,13.0518777],"ct":"AT","tp":"CS","ts":"2020-12-01T05:49:59Z","tX":549,"tY":356,"tags":{"name":"Panorama Camping Stadtblick","website":"http://www.panorama-camping.at"}},"511283610":{"location":[47.9837346,13.0906552],"ct":"AT","tp":"CS","ts":"2020-01-02T15:16:26Z","tX":549,"tY":356,"tags":{"access":"private","caravans":"no","free":"no","group_only":"yes","name":"Pfadfinderdorf Zellhof Zeltplatz","scout":"yes","tents":"yes"}},"514165284":{"location":[47.8356411,13.0603995],"ct":"AT","tp":"CR","ts":"2024-10-02T06:34:09Z","tX":549,"tY":356,"tags":{"addr:city":"Salzburg","addr:country":"AT","addr:housenumber":"26","addr:postcode":"5101","addr:street":"Carl-Zuckmayer-Straße","capacity":"106","contact:email":"office@reisemobilstellplatz-salzburg.at","contact:phone":"+43 676 9114244","contact:website":"https://www.reisemobilstellplatz-salzburg.at/","dog":"yes","fee":"yes","internet_access":"wlan","internet_access:fee":"yes","lit":"no","name":"Reisemobilstellplatz Salzburg","operator":"FTG & PICAD Salzburg GnbR","power_supply":"yes","sanitary_dump_station":"yes","sanitary_dump_station:chemical_toilet":"yes","sanitary_dump_station:grey_water":"yes","shower":"yes","source":"http://www.reisemobilstellplatz-salzburg.at/","tents":"no","toilets":"yes","water_point":"yes"}},"529911893":{"location":[47.8155663,13.1593804],"ct":"AT","tp":"CS","ts":"2023-11-08T14:24:17Z","tX":549,"tY":356,"tags":{"addr:city":"Koppl","addr:housenumber":"30","addr:postcode":"5321","addr:street":"Jakobistraße","name":"Camping Huberbauer","phone":"+43 6221 8477","website":"https://camping-salzburg.at/"}},"644295571":{"location":[47.8267271,13.0622006],"ct":"AT","tp":"CS","ts":"2023-07-06T17:59:30Z","tX":549,"tY":356,"tags":{"caravans":"yes","name":"Camping Nord-Sam","tents":"yes","website":"https://www.camping-nord-sam.com/"}},"716655076":{"location":[47.9102683,13.3139116],"ct":"AT","tp":"CS","ts":"2024-05-20T18:38:50Z","tX":549,"tY":356,"tags":{"caravans":"yes","name":"Camping Maier","operator":"Maier Matthias u. Frieda","phone":"+43 6234 7081","tents":"yes","website":"https://www.facebook.com/pages/Camping-Maier-Irrsee/153785051345207"}},"998136447":{"location":[47.856516,13.0220687],"ct":"AT","tp":"CR","ts":"2021-11-01T11:51:26Z","tX":549,"tY":356,"tags":{"addr:city":"Bergheim","addr:postcode":"5101","addr:street":"Kerathweg","capacity":"3","fee":"yes","name":"Wohnmobil Stellplatz Kerathhof","power_supply":"yes","sanitary_dump_station":"yes"}},"1214993800":{"location":[47.899526,13.1673579],"ct":"AT","tp":"CS","ts":"2023-11-08T14:25:23Z","tX":549,"tY":356,"tags":{"addr:city":"Henndorf am Wallersee","addr:housenumber":"120","addr:place":"Fenning","addr:postcode":"5302","capacity:pitches":"200","caravans":"yes","dog":"yes","drinking_water":"yes","fee":"yes","name":"Camping Fenninger Spitz","payment:cash":"yes","payment:mastercard":"yes","payment:visa":"yes","phone":"+43 6644555705","power_supply":"yes","shower":"hot","static_caravans":"yes","tents":"yes","toilets":"yes","washing_machine":"yes","website":"https://www.camping-fenningerspitz.at/"}},"6165747722":{"location":[47.8355157,13.060078],"ct":"AT","tp":"SD","ts":"2024-11-01T21:33:30Z","tX":549,"tY":356,"tags":{"fee":"no"}}}