{"30481507":{"location":[47.5972819,13.1648396],"ct":"AT","tp":"CS","ts":"2023-11-04T14:56:13Z","tX":549,"tY":357,"tags":{"addr:city":"Golling","addr:housenumber":"235","addr:postcode":"5440","addr:street":"Wasserfallstraße","caravans":"yes","contact:phone":"+43 6244 4137","dog":"yes","internet_access":"yes","internet_access:fee":"no","name":"Camping Martina","opening_hours":"May-Oct","power_supply":"yes","sanitary_dump_station":"yes","source":"plan.at 2009","tents":"yes","website":"https://www.campingmartina.at/"}},"38834406":{"location":[47.64675,13.0390429],"ct":"DE","tp":"CS","ts":"2022-10-03T19:54:51Z","tX":549,"tY":357,"tags":{"addr:city":"Berchtesgaden","addr:country":"DE","addr:housenumber":"4","addr:postcode":"83471","addr:street":"Allweggasse","caravans":"yes","dog":"yes","drinking_water":"yes","email":"camping@allweglehen.de","fax":"+49 8652 63503","internet_access":"wlan","internet_access:fee":"no","name":"Camping Allweglehen","phone":"+49 8652 2396","power_supply":"yes","shower":"yes","source":"extrapolation","tents":"yes","toilets":"yes","website":"https://www.allweglehen.de/"}},"167730633":{"location":[47.6018092,13.1427537],"ct":"AT","tp":"CS","ts":"2023-03-27T07:26:28Z","tX":549,"tY":357,"tags":{"addr:city":"Golling an der Salzach","addr:housenumber":"24","addr:postcode":"5440","addr:street":"Wasserfallweg","email":"hotel@torrenerhof.com","landuse":"recreation_ground","name":"Torrener Hof","permanent_camping":"yes","phone":"+43 6244 5522","website":"https://www.torrenerhof.com/de/camping-3.htm"}},"191563204":{"location":[47.7042092,13.069714],"ct":"AT","tp":"CS","ts":"2024-08-20T13:03:06Z","tX":549,"tY":357,"tags":{"addr:city":"Hallein","addr:housenumber":"42","addr:postcode":"5400","addr:street":"Salzburgerstraße","dog":"yes","fee":"yes","internet_access":"wlan","internet_access:fee":"no","stars":"3","website":"https://www.auwirt.com/camping.html"}},"238868502":{"location":[47.586117,13.3240091],"ct":"AT","tp":"CS","ts":"2024-03-12T07:14:00Z","tX":549,"tY":357,"tags":{"caravans":"yes","email":"oberwoetzlhof@sbg.at","fax":"+43 6243 269855","internet_access":"yes","name":"Vitalcamping Oberwötzlhof","operator":"Familie Reiter","phone":"+43 6243 2698","sanitary_dump_station":"yes","tents":"yes","website":"https://vitalcamping.at/"}},"545181256":{"location":[47.648027,13.0396142],"ct":"DE","tp":"CR","ts":"2024-02-22T19:13:28Z","tX":549,"tY":357,"tags":{"addr:city":"Berchtesgaden","addr:country":"DE","addr:housenumber":"4","addr:postcode":"83471","addr:street":"Allweggasse","area":"yes","drinking_water":"yes","fee":"yes","name":"Wohnmobilhafen Allweglehen","operator":"Familie Fendt","power_supply":"yes","sanitary_dump_station":"yes","toilets":"no","website":"https://www.allweglehen.de/"}},"613110198":{"location":[47.5867067,13.3226286],"ct":"AT","tp":"CS","ts":"2018-08-03T19:59:39Z","tX":549,"tY":357,"tags":{"name":"Campingplatz Erweiterungsfläche"}},"1297731955":{"location":[47.5955025,13.1727264],"ct":"AT","tp":"CR","ts":"2024-06-30T18:56:22Z","tX":549,"tY":357,"tags":{"cabins":"no","capacity":"15","caravans":"no","email":"info@aqua-salza.at","fax":"+43 6244 2004044","fee":"yes","name":"Wohnmobilpark Aqua Salza","operator":"Aqua Salza Wellness & Bad Golling GmbH","phone":"+43 6244 200400","power_supply":"yes","sanitary_dump_station":"yes","static_caravans":"no","website":"https://www.aqua-salza.at/aqua-salza/wohnmobil-park/"}},"12023249408":{"location":[47.5957917,13.1718262],"ct":"AT","tp":"SD","ts":"2024-06-30T18:56:22Z","tX":549,"tY":357,"tags":{"operator":"Aqua Salza Wellness & Bad Golling GmbH"}}}