{"34286354":{"location":[46.7464684,13.1937245],"ct":"AT","tp":"CS","ts":"2025-06-22T19:20:58Z","tX":549,"tY":361,"tags":{"caravans":"yes","drinking_water":"yes","internet_access":"wlan","name":"Fliegercamp Oberes Drautal","phone":"+43 4712 8666","power_supply":"yes","shower":"yes","tents":"yes","toilets":"yes","website":"https://www.fliegercamp.at/","wheelchair":"yes"}},"72368804":{"location":[46.7129539,13.295692],"ct":"AT","tp":"CS","ts":"2023-09-25T10:23:42Z","tX":549,"tY":361,"tags":{"access":"customers","addr:city":"Weissensee","addr:housenumber":"16","addr:postcode":"9762","addr:street":"Techendorf","backcountry":"no","caravans":"yes","drinking_water":"no","email":"camping@knaller.at","fee":"yes","group_only":"no","internet_access":"wlan","name":"Knaller","operator":"Knaller GmbH","phone":"+43 4713 223450","power_supply":"yes","reservation":"recommended","sanitary_dump_station":"yes","shower":"yes","tents":"yes","toilets":"yes","website":"https://www.knaller.at/camping"}},"114003291":{"location":[46.7190053,13.2624932],"ct":"AT","tp":"CS","ts":"2023-11-06T23:20:02Z","tX":549,"tY":361,"tags":{"access":"yes","addr:city":"Weißensee","addr:postcode":"9762","addr:street":"Oberdorf Praditz","backcountry":"no","cabins":"no","caravans":"yes","dog":"yes","drinking_water":"yes","email":"info@seecamping-weissensee.at","fee":"yes","group_only":"no","motor_vehicle":"yes","name":"Seecamping Müller","nudism":"no","openfire":"no","opening_hours":"Apr, Jun, Sep: Mo-Su 08:30-10:00, 16:00-17:00, Jul, Aug: Mo-Su 08:00-20:00; PH open","operator":"Horst & Karl Müller","payment:american_express":"no","payment:coins":"yes","payment:credit_cards":"no","payment:debit_cards":"no","payment:maestro":"no","payment:mastercard":"no","payment:notes":"no","payment:telephone_cards":"no","payment:visa":"no","phone":"+43 664 43 13 078","power_supply":"yes","reservation":"no","sanitary_dump_station":"yes","shower":"yes","static_caravans":"no","swimming_pool":"no","tents":"yes","toilets":"yes","washing_machine":"yes","website":"https://www.seecamping-weissensee.at/","wheelchair":"limited"}},"233338157":{"location":[46.6552752,13.1479869],"ct":"AT","tp":"CS","ts":"2025-06-13T15:00:31Z","tX":549,"tY":361,"tags":{"internet_access":"wlan","name":"Campingplatz Alpenferienpark Reisach / Reiskofel","website":"https://alpenferienpark.com/"}},"250054180":{"location":[46.7303951,13.078594],"ct":"AT","tp":"CS","ts":"2020-07-15T18:57:39Z","tX":549,"tY":361,"tags":{"name":"Campingplatz Dellach Drau","website":"https://www.camping-waldbad.at"}},"254957344":{"location":[46.7443045,13.0438155],"ct":"AT","tp":"CS","ts":"2014-01-03T00:11:53Z","tX":549,"tY":361,"tags":{"name":"Ponderosa","website":"http://www.rad-wandercamping.at"}},"530789929":{"location":[46.6593926,13.0978664],"ct":"AT","tp":"CS","ts":"2024-09-16T16:06:03Z","tX":549,"tY":361,"tags":{"name":"Camping Leifling","website":"http://www.camping-oostenrijk.nl/camping/Dellach/Camping_Leifling/"}},"691263473":{"location":[46.7617632,13.3202178],"ct":"AT","tp":"CS","ts":"2020-07-15T19:04:48Z","tX":549,"tY":361,"tags":{"caravans":"yes","name":"FuGo Campingplatz","tents":"yes","website":"https://my.fugocamp.at"}},"821140553":{"location":[46.747861,13.1640265],"ct":"AT","tp":"CS","ts":"2020-06-29T16:49:55Z","tX":549,"tY":361,"tags":{"addr:city":"Greifenburg","addr:country":"AT","addr:housenumber":"3","addr:place":"Hauzendorf","addr:postcode":"9761","at_bev:addr_date":"2017-10-01","name":"Camping Reiter","name:de":"Camping Reiter","name:en":"Camping Reiter","swimming_pool":"yes","website":"https://www.camping-reiter.at/"}},"3580559515":{"location":[46.7618332,13.2430096],"ct":"AT","tp":"CS","ts":"2023-11-06T12:15:30Z","tX":549,"tY":361,"tags":{"name":"Camping Bergfriede","name:nl":"svr camping nr 4","website":"https://www.camping-bergfriede.com/de/","wheelchair":"limited"}},"5778520257":{"location":[46.7399886,13.1322986],"ct":"AT","tp":"CS","ts":"2024-07-21T21:30:21Z","tX":549,"tY":361,"tags":{"caravans":"yes","drinking_water":"yes","name":"Camping Berggruß","power_supply":"yes","sanitary_dump_station":"yes","shower":"yes","tents":"yes","toilets":"yes","website":"https://www.berggruss.at"}}}