{"12989725":{"location":[45.6345433,13.0372174],"ct":"IT","tp":"CS","ts":"2024-10-01T11:53:00Z","tX":549,"tY":365,"tags":{"cabins":"yes","caravans":"yes","dog":"yes","fee":"yes","motorhome":"yes","name":"Villaggio Turistico Internazionale","power_supply":"yes","power_supply:maxcurrent":"10;16","socket:cee_blue":"yes","stars":"5","tents":"yes","website":"https://www.vti.it"}},"157073892":{"location":[45.6818394,13.1241384],"ct":"IT","tp":"CS","ts":"2024-04-18T16:27:36Z","tX":549,"tY":365,"tags":{"addr:city":"Lignano Sabbiadoro","addr:housenumber":"8","addr:postcode":"33054","addr:province":"Udine","addr:state":"Italia","addr:street":"Via Sabbiadoro","cabins":"yes","caravans":"yes","contact:email":"info@campingsabbiadoro.it","contact:facebook":"https://m.facebook.com/campingsabbiadorolignano/","drinking_water":"yes","internet_access":"wlan","internet_access:fee":"yes","name":"Camping Sabbiadoro","nudism":"no","phone":"+39 0431 71455","power_supply":"yes","sanitary_dump_station":"yes","shower":"yes","smoking":"no","stars":"3","tents":"yes","toilets":"yes","website":"https://campingsabbiadoro.it","wheelchair":"yes"}},"177916902":{"location":[45.6495455,13.0990851],"ct":"IT","tp":"CS","ts":"2024-06-26T21:54:37Z","tX":549,"tY":365,"tags":{"addr:city":"Lignano Sabbiadoro","addr:housenumber":"15","addr:postcode":"33054","addr:province":"Udine","addr:state":"Italia","addr:street":"Lungomare Riccardo Riva","caravans":"yes","drinking_water":"yes","email":"info@campingpinomare.it","fax":"+39 0431 424427","internet_access":"wlan","name":"Camping Village Pino Mare","phone":"+39 0431 424424;+39 0431 424425","power_supply":"yes","sanitary_dump_station":"yes","shower":"yes","stars":"4","tents":"yes","toilets":"yes","website":"https://www.campingpinomare.it/","wheelchair":"yes"}},"199391372":{"location":[45.6323582,13.0168242],"ct":"IT","tp":"CS","ts":"2024-10-15T20:50:05Z","tX":549,"tY":365,"tags":{"addr:city":"Bibione Pineda","addr:housenumber":"12","addr:postcode":"30028","addr:street":"Via Baselghe","capacity:caravans":"180","caravans":"yes","contact:email":"tridente@bibionemare.com","contact:phone":"+39 0431 439600","drinking_water":"yes","fee":"yes","name":"Il Tridente","power_supply":"yes","power_supply:maxcurrent":"6","shower":"yes","tents":"yes","toilets":"yes","website":"https://www.iltridente.com/"}},"312718955":{"location":[45.6328006,13.015379],"ct":"IT","tp":"CS","ts":"2024-10-01T11:53:00Z","tX":549,"tY":365,"tags":{"addr:housenumber":"17","addr:street":"Via Baseleghe","cabins":"yes","caravans":"yes","drinking_water":"yes","fee":"yes","motorhome":"yes","name":"Dune","phone":"+39 0431 437565","power_supply":"yes","shower":"yes","socket:cee_blue":"yes","tents":"yes","toilets":"yes","website":"https://www.campingdune.it"}},"972638753":{"location":[45.6879153,13.0725386],"ct":"IT","tp":"CS","ts":"2024-09-15T08:21:34Z","tX":549,"tY":365,"tags":{"access":"customers","addr:city":"Latisana","addr:hamlet":"Aprilia Marittima","addr:housenumber":"53","addr:postcode":"33053","addr:province":"Udine","addr:state":"Italia","addr:street":"Via Lignano Sud","caravans":"yes","contact:email":"campinggirasole@lignano.it","contact:fax":"+39 0431 5390","contact:phone":"+39 0431 5390","drinking_water":"yes","fee":"yes","internet_access":"wlan","name":"Girasole","power_supply":"yes","sanitary_dump_station":"yes","shower":"yes","tents":"yes","toilets":"yes","website":"http://www.campinggirasole.com","wheelchair":"yes"}},"1107061799":{"location":[45.804004,13.0756834],"ct":"IT","tp":"CR","ts":"2024-10-12T11:17:58Z","tX":549,"tY":365,"tags":{"drinking_water":"yes","fee":"no","name:signed":"no","power_supply":"2EUR","reservation":"no","sanitary_dump_station":"public","smoking":"yes","toilets":"no","wheelchair":"yes"}},"9828398175":{"location":[45.6776209,13.1079246],"ct":"IT","tp":"SD","ts":"2024-06-01T12:03:46Z","tX":549,"tY":365,"tags":{"access":"yes","fee":"no","opening_hours":"24/7","survey:date":"2023-10-18","water_point":"yes"}},"10130006165":{"location":[45.8041575,13.075562],"ct":"IT","tp":"SD","ts":"2022-10-26T10:29:33Z","tX":549,"tY":365,"tags":{"access":"yes","fee":"no","opening_hours":"24/7"}}}