{"93722799":{"location":[43.7987613,13.0958771],"ct":"IT","tp":"CS","ts":"2024-09-14T18:27:16Z","tX":549,"tY":373,"tags":{"addr:hamlet":"Torrette","addr:housenumber":"5","addr:postcode":"61032","addr:street":"Via Ammiraglio Cappellini","cabins":"yes","caravans":"yes","contact:email":"stellamaris@camping.it","contact:fax":"+39 0721 884269","contact:phone":"+39 0721 884231","fee":"yes","motorhome":"yes","name":"Camping Stella Maris","power_supply:maxcurrent":"6","ref:vatin":"IT01460140419","sanitary_dump_station":"yes","socket:cee_blue":"yes","source":"Bing","stars":"4","tents":"yes","website":"https://www.campingstellamaris.it/"}},"233907726":{"location":[43.8070268,13.0832416],"ct":"IT","tp":"CS","ts":"2024-09-14T18:23:06Z","tX":549,"tY":373,"tags":{"addr:city":"Fano","addr:housenumber":"241","addr:postcode":"61032","addr:street":"Strada Nazionale Adriatica Sud","cabins":"yes","caravans":"yes","fee":"yes","motorhome":"yes","name":"Camping Metauro","power_supply":"yes","socket:cee_blue":"yes","tents":"yes"}},"233907747":{"location":[43.8058114,13.0847554],"ct":"IT","tp":"CS","ts":"2024-09-14T18:23:06Z","tX":549,"tY":373,"tags":{"addr:housenumber":"251","addr:postcode":"61032","addr:street":"Strada Nazionale Adriatica Sud","cabins":"yes","contact:email":"info@campingverdeluna.it","contact:phone":"+39 0721 884133","name":"Camping Verde Luna","stars":"4","website":"https://www.campingverdeluna.it/"}},"233907818":{"location":[43.804862,13.0862713],"ct":"IT","tp":"CS","ts":"2024-09-14T18:23:06Z","tX":549,"tY":373,"tags":{"addr:housenumber":"259","addr:street":"Strada Nazionale Adriatica Sud","cabins":"yes","caravans":"yes","contact:phone":"+39 0721 834015","fee":"yes","motorhome":"yes","name":"Camping La Mimosa","power_supply":"yes","socket:cee_blue":"yes","stars":"3","tents":"yes","website":"https://www.campinglamimosa.it/"}},"240120227":{"location":[43.7635294,13.1488489],"ct":"IT","tp":"CS","ts":"2024-09-14T18:30:21Z","tX":549,"tY":373,"tags":{"addr:city":"Marotta","addr:housenumber":"132","addr:postcode":"61037","addr:street":"Lungomare Cristoforo Colombo","cabins":"yes","caravans":"yes","fee":"yes","motorhome":"yes","name":"Camping Marotta","phone":"+39 0721 96658","power_supply":"yes","socket:cee_blue":"yes","tents":"yes","website":"http://www.campingmarotta.it/"}},"240478831":{"location":[43.7455839,13.0835976],"ct":"IT","tp":"CS","ts":"2021-12-09T08:36:22Z","tX":549,"tY":373,"tags":{"addr:city":"San Costanzo","addr:hamlet":"Stacciola","addr:housenumber":"3","addr:postcode":"61039","addr:street":"Strada San Gervasio","contact:email":"info@marysierra.it","name":"Camping Village Mar Y Sierra","phone":"+39 0721 930044","website":"https://www.marysierra.it/"}},"243190387":{"location":[43.8325994,13.0484359],"ct":"IT","tp":"CS","ts":"2024-09-20T14:06:54Z","tX":549,"tY":373,"tags":{"addr:city":"Fano","addr:housenumber":"25","addr:postcode":"61032","addr:street":"Via delle Brecce","cabins":"yes","caravans":"yes","contact:email":"info@campingmareluna.it","dog":"yes","fee":"yes","internet_access":"yes","motorhome":"yes","name":"Camping Madonna Ponte","phone":"+39 0721 804520","power_supply":"yes","socket:cee_blue":"yes","static_caravans":"no","tents":"yes","website":"https://www.campingmadonnaponte.it/"}},"289656880":{"location":[43.7806504,13.1214042],"ct":"IT","tp":"CS","ts":"2024-11-03T13:46:07Z","tX":549,"tY":373,"tags":{"addr:city":"Marotta","addr:housenumber":"95","addr:postcode":"61037","addr:street":"Via Faà di Bruno","area":"yes","caravans":"yes","drinking_water":"yes","name":"Camping del Gabbiano","phone":"+39 0721 96691","power_supply":"yes","shower":"yes","tents":"yes","website":"https://www.campingdelgabbiano.it/"}},"290746228":{"location":[43.7515201,13.1695477],"ct":"IT","tp":"CS","ts":"2024-09-14T18:42:23Z","tX":549,"tY":373,"tags":{"addr:city":"Mondolfo","addr:housenumber":"22","addr:postcode":"61037","addr:street":"Via Ugo Foscolo","caravans":"yes","dog":"yes","fee":"yes","motorhome":"yes","name":"Campeggio Cesano","power_supply":"yes","socket:cee_blue":"yes","static_caravans":"yes","tents":"yes","website":"http://www.campingclubcesano.com"}},"302803603":{"location":[43.6457771,13.0493043],"ct":"IT","tp":"CR","ts":"2024-09-14T22:42:50Z","tX":549,"tY":373,"tags":{"access":"yes","bbq":"yes","capacity":"14","caravan_site":"motorhome_stopover","caravan_site:type":"sports_centre;town","caravans":"no","dog":"yes","fee":"no","internet_access":"wlan","internet_access:fee":"no","lit":"yes","maxstay":"48 hours","name":"L’area per la sosta dei camper a Corinaldo","opening_hours":"24/7","operator":"Comune di Corinaldo","picnic_area":"yes","power_supply":"yes","power_supply:maxcurrent":"15","sanitary_dump_station":"yes","seasonal":"no","socket:cee_blue":"yes","website":"https://www.corinaldoturismo.it/visita/area-sosta-camper-corinaldo/"}},"304779417":{"location":[43.7034972,13.2367434],"ct":"IT","tp":"CS","ts":"2024-09-14T18:55:20Z","tX":549,"tY":373,"tags":{"cabins":"yes","capacity:caravans":"140","capacity:tents":"140","caravans":"yes","contact:whatsapp":"+39 340 1607832","dryer":"yes","fee":"yes","internet_access":"yes","motorhome":"yes","name":"Summerland","phone":"+39 340 1607832","power_supply":"yes","sanitary_dump_station":"yes","socket:cee_blue":"yes","stars":"3","tents":"yes","washing_machine":"yes","website":"https://www.campingsummerland.it/"}},"309036893":{"location":[43.7049193,13.2372484],"ct":"IT","tp":"CR","ts":"2023-11-14T12:17:49Z","tX":549,"tY":373,"tags":{"access":"yes","drinking_water":"yes","fee":"yes","internet_access":"no","name:signed":"no","parking":"surface","power_supply":"no","surface":"asphalt","toilets":"no","wheelchair":"yes"}},"310349896":{"location":[43.6961739,13.2490355],"ct":"IT","tp":"CS","ts":"2024-09-14T19:08:58Z","tX":549,"tY":373,"tags":{"cabins":"yes","caravans":"yes","dog":"yes","fee":"yes","internet_access":"yes","internet_access:fee":"no","motorhome":"yes","name":"Green Camping","power_supply":"yes","socket:cee_blue":"yes","start_date":"1980","static_caravans":"yes","tents":"yes","website":"https://www.greencamping.it/"}},"312038498":{"location":[43.7017632,13.2447655],"ct":"IT","tp":"CS","ts":"2024-09-14T18:57:18Z","tX":549,"tY":373,"tags":{"caravans":"yes","fee":"yes","motorhome":"yes","name":"Camping Domus","phone":"+39 0717926897","power_supply":"yes","socket:cee_blue":"yes","tents":"yes","website":"https://www.campingdomus.it/"}},"326834060":{"location":[43.8050128,13.0879076],"ct":"IT","tp":"CS","ts":"2024-09-14T18:23:06Z","tX":549,"tY":373,"tags":{"addr:city":"Fano","addr:housenumber":"50","addr:postcode":"61032","addr:street":"Via Buonincontri","cabins":"yes","caravans":"yes","dog":"yes","fee":"yes","internet_access":"yes","internet_access:fee":"no","name":"Camping Torrette","power_supply":"yes","socket:cee_blue":"yes","tents":"yes"}},"335752015":{"location":[43.635478,13.0969669],"ct":"IT","tp":"CS","ts":"2023-08-14T13:23:39Z","tX":549,"tY":373,"tags":{"caravans":"yes","name":"Colverde Perticaroli","tents":"yes","website":"https://www.colverde.it/camping/"}},"361556138":{"location":[43.7610054,13.1533407],"ct":"IT","tp":"CR","ts":"2024-09-14T18:35:35Z","tX":549,"tY":373,"tags":{"addr:street":"Lungomare Cristoforo Colombo","capacity":"75","dog":"yes","fee":"yes","name":"Il Picchio Marotta","phone":"+393382944690","shower":"yes","socket:cee_blue":"yes","website":"http://www.camperclubilpicchiomarotta.it/"}},"420358662":{"location":[43.6978942,13.251787],"ct":"IT","tp":"CS","ts":"2024-09-14T19:01:33Z","tX":549,"tY":373,"tags":{"caravans":"yes","email":"info@campingholiday.net","facebook":"https://www.facebook.com/CampingHoliday","fee":"yes","motorhome":"yes","name":"Camping Holiday","phone":"+39 071 64740","power_supply":"yes","power_supply:maxcurrent":"6","socket:cee_blue":"yes","stars":"2","tents":"yes","website":"https://spiaggiacanisenigallia.it/web/camping-holiday/"}},"704657464":{"location":[43.8102191,13.0767613],"ct":"IT","tp":"CS","ts":"2024-09-14T18:23:06Z","tX":549,"tY":373,"tags":{"addr:city":"Fano","addr:country":"IT","addr:hamlet":"Metaurilia","addr:housenumber":"203","addr:postcode":"61032","addr:street":"Strada Nazionale Adriatica Sud","cabins":"yes","caravans":"yes","email":"info@campingmareblu.net","fax":"+39 0721 884389","fee":"yes","motorhome":"yes","name":"Camping Mare Blu","phone":"+39 0721 884201","power_supply":"yes","socket:cee_blue":"yes","tents":"yes","website":"https://campingmareblu.net"}},"704657474":{"location":[43.8115985,13.0781228],"ct":"IT","tp":"CS","ts":"2024-09-14T18:23:06Z","tX":549,"tY":373,"tags":{"addr:city":"Fano","addr:country":"IT","addr:hamlet":"Metaurilia","addr:housenumber":"203","addr:postcode":"61032","addr:street":"Strada Nazionale Adriatica Sud","email":"info@campingmareblu.net","fax":"+39 0721 884389","fee":"yes","motorhome":"yes","name":"Camping Mare Blu","phone":"+39 0721 884201","power_supply":"yes","socket:cee_blue":"yes","tents":"yes","website":"https://campingmareblu.net"}},"708459386":{"location":[43.8265994,13.059038],"ct":"IT","tp":"CS","ts":"2024-09-20T14:15:28Z","tX":549,"tY":373,"tags":{"addr:milestone":"254","addr:postcode":"61032","addr:street":"Strada Nazionale Adriatica Sud","cabins":"yes","capacity:caravans":"300","capacity:tents":"300","caravans":"yes","contact:email":"info@campingfano.it","contact:website":"https://www.campingfano.it/","fee":"yes","motorhome":"yes","name":"Camping Fano","phone":"+39 0721 802652","phone:mobile":"+393515949729","power_supply":"yes","power_supply:maxcurrent":"3;10","reservation":"yes","socket:cee_blue":"yes","stars":"3","tents":"yes","wheelchair":"yes"}},"710332153":{"location":[43.8079155,13.0820922],"ct":"IT","tp":"CR","ts":"2024-09-14T18:23:06Z","tX":549,"tY":373,"tags":{"addr:city":"Fano","addr:housenumber":"233","addr:postcode":"61032","addr:street":"Strada Nazionale Adriatica Sud","fee":"yes","name":"Area di sosta Adriatico","phone":"+39 339 6735699","power_supply":"yes","power_supply:maxcurrent":"3","socket:cee_blue":"yes","website":"https://www.adriaticocamper.it"}},"1049646742":{"location":[43.6586851,13.329159],"ct":"IT","tp":"CR","ts":"2022-04-06T15:49:33Z","tX":549,"tY":373,"tags":{"power_supply":"yes","sanitary_dump_station":"yes"}},"1102426845":{"location":[43.6961562,13.2547127],"ct":"IT","tp":"CS","ts":"2024-09-14T19:08:58Z","tX":549,"tY":373,"tags":{"addr:city":"Senigallia","addr:housenumber":"54 ter","addr:postcode":"60019","addr:street":"Lungomare Leonardo da Vinci","cabins":"yes","caravans":"yes","email":"info@campingliana.it","fee":"yes","motorhome":"yes","name":"Camping Liana","payment:cash":"yes","payment:credit_cards":"yes","payment:debit_cards":"yes","phone":"+39 071 65600","phone:mobile":"+39 339 8227851","power_supply":"yes","socket:cee_blue":"yes","tents":"yes","washing_machine":"yes","website":"https://www.campingliana.it/"}},"1102427844":{"location":[43.6944726,13.2574165],"ct":"IT","tp":"CS","ts":"2023-04-09T21:37:23Z","tX":549,"tY":373,"tags":{"email":"baruccarenato@gmail.com","name":"Plaia","phone":"+39 380 1807321","stars":"1"}},"1102428976":{"location":[43.6932326,13.2595123],"ct":"IT","tp":"CS","ts":"2022-10-09T20:33:32Z","tX":549,"tY":373,"tags":{"name":"Verde mare"}},"1102428977":{"location":[43.6941877,13.2579276],"ct":"IT","tp":"CS","ts":"2023-04-09T21:37:23Z","tX":549,"tY":373,"tags":{"email":"baruccarenato@gmail.com","name":"Onda blu","phone":"+39 380 1807321","stars":"1"}},"1188230245":{"location":[43.6845397,13.2746903],"ct":"IT","tp":"CS","ts":"2024-08-06T12:31:24Z","tX":549,"tY":373,"tags":{"name":"Blu Fantasy","website":"https://www.campingblufantasy.com/"}},"1315569798":{"location":[43.6095983,13.1542494],"ct":"IT","tp":"CS","ts":"2024-09-14T18:46:19Z","tX":549,"tY":373,"tags":{"capacity:caravans":"30","capacity:tents":"30","caravans":"yes","fee":"yes","motorhome":"yes","name":"Camping 'L Pré","power_supply":"yes","sanitary_dump_station":"yes","socket:cee_blue":"yes","tents":"yes","website":"http://www.lpre.it"}},"1355997692":{"location":[43.6710712,13.2978586],"ct":"IT","tp":"CS","ts":"2025-02-01T19:22:23Z","tX":549,"tY":373,"tags":{"name":"Oasi Smeralda"}},"10048771650":{"location":[43.7330067,13.0797245],"ct":"IT","tp":"CS","ts":"2022-09-24T09:39:47Z","tX":549,"tY":373,"tags":{}},"11108264006":{"location":[43.8049637,13.0772328],"ct":"IT","tp":"CS","ts":"2024-08-06T19:17:45Z","tX":549,"tY":373,"tags":{"description":"- 22/09","email":"aziendafilippetticlaudio@virgilio.it","internet_access":"wlan","name":"Filippetti Claudio","website":"https://www.agrifilippetticlaudio.it/"}},"11371855769":{"location":[43.6732008,13.0434487],"ct":"IT","tp":"CS","ts":"2024-09-14T22:39:27Z","tX":549,"tY":373,"tags":{"addr:city":"Corinaldoo","addr:housenumber":"54","addr:postcode":"60013","addr:street":"Via Madonna del Piano","caravans":"yes","fee":"yes","motorhome":"yes","name":"Terre del Piano","power_supply":"yes","socket:cee_blue":"yes","tents":"yes","website":"https://terredelpiano.it/"}},"9076715569":{"location":[43.6272999,13.3330439],"ct":"IT","tp":"SD","ts":"2021-09-09T13:07:10Z","tX":549,"tY":373,"tags":{"access":"yes","fee":"no","water_point":"yes"}},"9352496372":{"location":[43.6259713,13.3370758],"ct":"IT","tp":"SD","ts":"2021-12-20T11:35:50Z","tX":549,"tY":373,"tags":{"access":"yes","fee":"no","water_point":"yes"}},"9646081032":{"location":[43.6582192,13.3302307],"ct":"IT","tp":"SD","ts":"2022-04-06T15:49:33Z","tX":549,"tY":373,"tags":{}},"11348221335":{"location":[43.7449191,13.1756213],"ct":"IT","tp":"SD","ts":"2023-11-14T11:37:13Z","tX":549,"tY":373,"tags":{}},"11348285319":{"location":[43.7050345,13.2369878],"ct":"IT","tp":"SD","ts":"2023-11-14T12:17:22Z","tX":549,"tY":373,"tags":{"access":"yes","fee":"no","opening_hours":"24/7","sanitary_dump_station:round_drain":"yes"}},"12177186804":{"location":[43.760616,13.1538839],"ct":"IT","tp":"SD","ts":"2024-09-14T18:35:35Z","tX":549,"tY":373,"tags":{"fee":"yes","water_point":"yes"}}}