{"8365984":{"location":[41.2838467,13.2015863],"ct":"IT","tp":"CS","ts":"2018-06-08T13:57:10Z","tX":549,"tY":382,"tags":{"name":"Blue Camping"}},"8365988":{"location":[41.2815758,13.1956488],"ct":"IT","tp":"CS","ts":"2018-06-08T13:59:30Z","tX":549,"tY":382,"tags":{"name":"Campeggio Vida Loca"}},"8366002":{"location":[41.2691598,13.1497537],"ct":"IT","tp":"CS","ts":"2018-06-08T14:04:39Z","tX":549,"tY":382,"tags":{"name":"International Camping Circeo"}},"26859386":{"location":[41.282778,13.196111],"ct":"IT","tp":"CS","ts":"2007-03-28T17:21:41Z","tX":549,"tY":382,"tags":{"created_by":"JOSM","name":"Badino"}},"58774191":{"location":[41.2896014,13.348684],"ct":"IT","tp":"CS","ts":"2019-03-20T09:36:27Z","tX":549,"tY":382,"tags":{"name":"Camping Sant'Anastasia","phone":"+39 077 15999","ref:vatin":"IT00233170596","website":"https://www.anastasiacamping.it/"}},"58774198":{"location":[41.2875837,13.3559438],"ct":"IT","tp":"CS","ts":"2015-04-02T22:11:31Z","tX":549,"tY":382,"tags":{"name":"Holliday Vilage"}},"67398236":{"location":[41.2951714,13.2670923],"ct":"IT","tp":"CS","ts":"2024-10-15T14:37:46Z","tX":549,"tY":382,"tags":{"addr:housenumber":"Km 104","addr:street":"Via Appia","bbq":"yes","cabins":"yes","capacity:caravans":"50","caravans":"yes","fee":"yes","motorhome":"yes","name":"Costa Azzurra","phone":"+39 339 7172240","power_supply":"yes","reservation":"yes","sanitary_dump_station":"yes","shower":"yes","socket:cee_blue":"yes","tents":"yes","toilets":"yes","website":"https://www.costazzurraterracina.com/"}},"132019212":{"location":[41.3156329,13.3295464],"ct":"IT","tp":"CS","ts":"2012-05-27T22:44:00Z","tX":549,"tY":382,"tags":{"name":"Titan Village"}},"165260214":{"location":[41.3206671,13.331728],"ct":"IT","tp":"CS","ts":"2012-05-27T22:50:09Z","tX":549,"tY":382,"tags":{"name":"Columbus village"}},"193208047":{"location":[41.294519,13.3205659],"ct":"IT","tp":"CS","ts":"2024-04-17T22:22:31Z","tX":549,"tY":382,"tags":{"name":"Settebello","website":"http://www.settebellocamping.com"}},"193208048":{"location":[41.2969672,13.3193595],"ct":"IT","tp":"CS","ts":"2012-11-27T22:09:13Z","tX":549,"tY":382,"tags":{"name":"Settebello","website":"http://www.settebellocamping.com"}},"216596986":{"location":[41.2962984,13.3076357],"ct":"IT","tp":"CS","ts":"2024-07-17T07:59:39Z","tX":549,"tY":382,"tags":{"barrier":"fence","name":"Hippocampus","phone":"+39 0771 537024","ref:vatin":"IT01965220591","website":"https://www.campinghippocampus.it/"}},"339889848":{"location":[41.2988191,13.2808619],"ct":"IT","tp":"CS","ts":"2024-10-22T12:07:49Z","tX":549,"tY":382,"tags":{"addr:housenumber":"km. 0.45","addr:street":"Via Flacca","caravans":"yes","contact:whatsapp":"+39 392 6758322","dog":"yes","fee":"yes","motorhome":"yes","name":"Camping Barchi","phone":"+39 0773 368273","tents":"yes","website":"https://www.campingbarchi.it/"}},"593823587":{"location":[41.2823538,13.1982841],"ct":"IT","tp":"CS","ts":"2020-01-26T10:58:38Z","tX":549,"tY":382,"tags":{"name":"Dream Camping"}},"982087095":{"location":[41.2691696,13.0300784],"ct":"IT","tp":"CS","ts":"2021-09-11T20:43:25Z","tX":549,"tY":382,"tags":{"name":"Liland√°","website":"https://www.lilanda.it/"}},"1324143562":{"location":[41.2968278,13.2722024],"ct":"IT","tp":"CS","ts":"2024-10-15T15:22:53Z","tX":549,"tY":382,"tags":{"addr:city":"Terracina","addr:street":"Via Appia","cabins":"yes","caravans":"no","fee":"yes","internet_access":"yes","internet_access:fee":"yes","name":"Blumen Camping","tents":"no","website":"https://www.campingblumen.com/"}},"1324143563":{"location":[41.2976367,13.2768766],"ct":"IT","tp":"CS","ts":"2024-10-15T14:37:46Z","tX":549,"tY":382,"tags":{"addr:housenumber":"KM 104,8","addr:street":"Via Appia","cabins":"yes","caravans":"yes","dog":"no","dryer":"yes","fee":"yes","internet_access":"wlan","internet_access:fee":"yes","motorhome":"yes","name":"Campeggio Europa","openfire":"no","phone":"+39.0773.726523","power_supply":"yes","power_supply:maxcurrent":"3","socket:cee_blue":"yes","tents":"yes","washing_machine":"yes"}},"1324143569":{"location":[41.2988215,13.2798543],"ct":"IT","tp":"CS","ts":"2024-10-15T14:37:46Z","tX":549,"tY":382,"tags":{"cabins":"yes","caravans":"yes","dog":"yes","email":"doracamping@gmail.com","fee":"yes","motorhome":"yes","name":"Dora Camping","phone":"+39-0773726966","power_supply":"yes","reservation":"yes","socket:cee_blue":"yes","tents":"yes","website":"https://www.doracamping.it/"}},"1324162857":{"location":[41.299928,13.2854771],"ct":"IT","tp":"CS","ts":"2024-10-15T16:14:58Z","tX":549,"tY":382,"tags":{"addr:city":"Fondi","addr:postcode":"04022","addr:street":"Via Flacca","caravans":"yes","fee":"yes","motorhome":"yes","name":"Camping Torre Canneto","phone":"+39077157216","tents":"yes"}},"1324162858":{"location":[41.2989287,13.2948888],"ct":"IT","tp":"CS","ts":"2024-10-15T16:14:58Z","tX":549,"tY":382,"tags":{"addr:city":"Fondi","addr:housenumber":"987/1000","addr:street":"Via Flacca","capacity:caravans":"70","caravans":"yes","contact:mobile":"+393245855797","contact:phone":"+39077157154","email":"info@anxurvillage.it","fee":"yes","motorhome":"yes","name":"Anxur Village","power_supply":"yes","power_supply:maxcurrent":"3;10","socket:cee_blue":"yes","start_date":"1961","static_caravans":"yes","tents":"yes","website":"https://www.anxurvillage.it/"}}}