{"4919845721":{"location":[32.8864721,13.1701522],"ct":"LY","tp":"CS","ts":"2017-06-16T22:56:35Z","tX":549,"tY":412,"tags":{"name":"القيادة العامة لكشاف ليبيا","name:ar":"القيادة العامة لكشاف ليبيا","name:en":"Boyscout of Libya -head office"}},"6736638185":{"location":[32.8879624,13.2398142],"ct":"LY","tp":"CS","ts":"2020-11-01T18:24:40Z","tX":549,"tY":412,"tags":{"name":"كشافة سوق الجمعة","name:ar":"كشافة سوق الجمعة","name:en":"Souk Alguma Scout Commission"}},"5180286022":{"location":[32.8926015,13.180432],"ct":"LY","tp":"CR","ts":"2020-11-01T18:13:19Z","tX":549,"tY":412,"tags":{"name":"جمعية بيوت الشباب الليبية- طرابلس","name:ar":"جمعية بيوت الشباب الليبية- طرابلس","name:en":"The Association of youth hotels libyan"}},"7777330285":{"location":[32.8625283,13.1008151],"ct":"LY","tp":"CR","ts":"2020-08-02T06:55:02Z","tX":549,"tY":412,"tags":{"addr:street":"الطريق الدائري الثاني","name":"My home"}},"8231137517":{"location":[32.8791275,13.2030431],"ct":"LY","tp":"CR","ts":"2020-12-15T12:47:56Z","tX":549,"tY":412,"tags":{"name":"إبراهيم خربيشه"}}}