{"4328258594":{"location":[32.6343398,13.3383674],"ct":"LY","tp":"CS","ts":"2020-11-24T03:28:03Z","tX":549,"tY":413,"tags":{"name":"كامبو شركة سما ليبيا","name:ar":"كامبو شركة سما ليبيا"}},"4781636140":{"location":[32.7789434,13.2531327],"ct":"LY","tp":"CS","ts":"2017-04-07T18:30:04Z","tX":549,"tY":413,"tags":{}},"4985554131":{"location":[32.8203631,13.0161182],"ct":"LY","tp":"CS","ts":"2017-07-21T19:51:26Z","tX":549,"tY":413,"tags":{"name":"NTR114","name:ar":"NTR114","name:en":"NTR114"}},"4703173489":{"location":[32.768193,13.0138182],"ct":"LY","tp":"CR","ts":"2017-02-24T09:22:27Z","tX":549,"tY":413,"tags":{"addr:housenumber":"156","name":"português","name:ar":"português"}},"4845039021":{"location":[32.7149442,13.1597362],"ct":"LY","tp":"CR","ts":"2017-05-10T05:33:22Z","tX":549,"tY":413,"tags":{}},"4883878621":{"location":[32.8097506,13.0608328],"ct":"LY","tp":"CR","ts":"2017-06-20T03:40:51Z","tX":549,"tY":413,"tags":{"addr:street":"طريق المواشي","name":"خطا","name:ar":"خطا"}},"5580002121":{"location":[32.8126534,13.2733952],"ct":"LY","tp":"CR","ts":"2022-09-15T01:01:05Z","tX":549,"tY":413,"tags":{"name":"عبدالوهاب بكاي","name:ar":"عبدالوهاب بكاي"}},"9018078017":{"location":[32.7307814,13.2584831],"ct":"LY","tp":"CR","ts":"2021-08-18T19:25:04Z","tX":549,"tY":413,"tags":{}},"9892037619":{"location":[32.8275751,13.2550478],"ct":"LY","tp":"CR","ts":"2022-07-16T18:28:31Z","tX":549,"tY":413,"tags":{"name":"عين زارة"}}}