{"849033416":{"location":[65.465687,26.8127862],"ct":"FI","tp":"CS","ts":"2023-02-26T13:00:17Z","tX":588,"tY":263,"tags":{"access":"yes","addr:city":"Pudasjärvi","addr:housenumber":"1405","addr:postcode":"93100","addr:street":"Ranuantie","cabins":"yes","camp_site":"serviced","capacity:caravans":"20","capacity:tents":"20","caravans":"yes","fee":"yes","kitchen":"yes","name":"Camping Livojoki","name:en":"Camping Livojoki","name:fi":"Camping Livojoki","phone":"+358 44 2722 230","power_supply":"yes","sauna":"yes","shower":"yes","tents":"yes","toilets":"yes"}},"1149461743":{"location":[65.3986434,26.9892234],"ct":"FI","tp":"CS","ts":"2023-09-18T21:20:59Z","tX":588,"tY":263,"tags":{"access":"yes","addr:city":"Pudasjärvi","addr:housenumber":"122","addr:postcode":"93100","addr:street":"Jyrkkäkoskentie","cabins":"yes","cafe":"yes","camp_site":"standard","capacity:cabins":"16","caravans":"yes","drinking_water":"yes","email":"info@jyrkkakoski.fi","fee":"yes","kitchen":"yes","name":"Jyrkkäkoski Camping","name:en":"Jyrkkäkoski Camping","operator":"Jyrkkäkoski Oy","phone":"+358 400 109006","playground":"yes","power_supply":"yes","sauna":"yes","shower":"yes","source":"http://www.eurocampings.net/fi/eurooppa/suomi/oulu/jyrkk%E4koski-camping-103157/#","tents":"yes","toilets":"yes","website":"http://www.jyrkkakoski.fi/"}}}