{"306065171":{"location":[55.58009,27.03993],"ct":"BY","tp":"CS","ts":"2024-11-08T15:48:30Z","tX":588,"tY":320,"tags":{"int_name":"Pieščnaja","name":"Пешчная","name:be":"Пешчная","name:ru":"Пещная"}},"306065182":{"location":[55.58601,27.01753],"ct":"BY","tp":"CS","ts":"2024-11-08T15:48:30Z","tX":588,"tY":320,"tags":{"name":"Дукельская Лука","name:be":"Дукельская Лука","name:ru":"Дукельская Лука"}},"306065184":{"location":[55.685484,27.0238918],"ct":"BY","tp":"CS","ts":"2024-11-08T15:48:30Z","tX":588,"tY":320,"tags":{"name":"Панцялееўскі Рог стаянка агульнага тыпу","name:be":"Панцялееўскі Рог стаянка агульнага тыпу","name:ru":"Пантелеевский Рог стоянка общего типа"}},"306065219":{"location":[55.59975,26.96345],"ct":"BY","tp":"CS","ts":"2024-11-08T15:48:30Z","tX":588,"tY":320,"tags":{"name":"т/с Болта (заказная на 10чал.)","name:be":"т/с Болта (заказная на 10чал.)","name:ru":"т/с Болто (заказная на 10чел.)"}},"717928476":{"location":[55.7207128,27.0657138],"ct":"BY","tp":"CS","ts":"2024-11-08T15:48:30Z","tX":588,"tY":320,"tags":{"name":"Турстаянка «Перацяг»","name:be":"Турстаянка «Перацяг»","name:ru":"Турстоянка «Перетяг»"}},"1087451475":{"location":[55.7133984,27.0088581],"ct":"BY","tp":"CS","ts":"2024-11-08T15:48:30Z","tX":588,"tY":320,"tags":{"caravans":"yes","name":"Турстаянка агульнага тыпу «Акменіца»","name:be":"Турстаянка агульнага тыпу «Акменіца»","name:ru":"Турстоянка общего типа «Окменица»","openfire":"yes","tents":"yes"}},"1087491166":{"location":[55.716333,27.0528903],"ct":"BY","tp":"CS","ts":"2024-11-08T15:48:30Z","tX":588,"tY":320,"tags":{"name":"Турстаянка агульнага тыпу «Маяк»","name:be":"Турстаянка агульнага тыпу «Маяк»","name:ru":"Турстоянка общего типа «Маяк»","name:uk":"Турстоянка загального типу «Маяк»"}},"2961332935":{"location":[55.7162767,27.0386624],"ct":"BY","tp":"CS","ts":"2024-11-08T15:48:30Z","tX":588,"tY":320,"tags":{"name":"Турстаянка «Юбілейная»","name:be":"Турстаянка «Юбілейная»","name:ru":"Турстоянка «Юбилейная»"}},"3664474523":{"location":[55.680557,27.0177002],"ct":"BY","tp":"CS","ts":"2024-11-08T15:48:30Z","tX":588,"tY":320,"tags":{"capacity":"8","name":"т/с Барок (заказная на 8чал.)","name:be":"т/с Барок (заказная на 8чал.)","name:ru":"т/с Борок (заказная на 8чел.)"}},"3664477240":{"location":[55.6700656,27.012038],"ct":"BY","tp":"CS","ts":"2024-11-08T15:48:30Z","tX":588,"tY":320,"tags":{"access":"private","capacity":"20","name":"т/с Ельна-1","name:be":"т/с Ельна-1","name:ru":"т/с Ельно-1"}},"3664477241":{"location":[55.6709384,27.0135655],"ct":"BY","tp":"CS","ts":"2024-11-08T15:48:30Z","tX":588,"tY":320,"tags":{"access":"private","capacity":"8","name":"т/с Ельна-2","name:be":"т/с Ельна-2","name:ru":"т/с Ельно-2"}},"3664477242":{"location":[55.7166018,27.0625923],"ct":"BY","tp":"CS","ts":"2024-11-08T15:48:30Z","tX":588,"tY":320,"tags":{"capacity":"8","description":"(заказная на 8чел.)","fee":"yes","int_name":"t / s Absiervatoryja-2 (zakaznaja na 8 čał.)","name":"т / с Абсерваторыя-2","name:be":"т / с Абсерваторыя-2","name:ru":"т/с Обсерватория-2"}},"3664477244":{"location":[55.7121665,27.0153586],"ct":"BY","tp":"CS","ts":"2024-11-08T15:48:30Z","tX":588,"tY":320,"tags":{"name":"т/с Чарнішкі (заказная на 25 чал.)","name:be":"т/с Чарнішкі (заказная на 25 чал.)","name:ru":"т/с Чернишки (заказная на 25 чел.)"}},"4982441738":{"location":[55.7154062,27.0331947],"ct":"BY","tp":"CS","ts":"2024-11-08T15:48:30Z","tX":588,"tY":320,"tags":{"access":"customers","capacity":"8","caravans":"yes","description":"(заказная на 8чел.)","fee":"yes","name":"Турстаянка «Пясочкі»","name:be":"Турстаянка «Пясочкі»","name:ru":"Турстоянка «Песочки»","openfire":"yes","tents":"yes"}},"6708493090":{"location":[55.7166957,27.0620888],"ct":"BY","tp":"CS","ts":"2024-11-08T15:48:30Z","tX":588,"tY":320,"tags":{"capacity":"8","description":"(заказная на 8чел.)","fee":"yes","int_name":"t / s Absiervatoryja-1 (zakaznaja na 8 čał.)","name":"т / с Абсерваторыя-1","name:be":"т / с Абсерваторыя-1","name:ru":"т/с Обсерватория-1"}},"6782018031":{"location":[55.6715086,27.0085798],"ct":"BY","tp":"CS","ts":"2024-11-08T15:48:30Z","tX":588,"tY":320,"tags":{"access":"private","capacity":"8","name":"т/с Ельна-3","name:be":"т/с Ельна-3","name:ru":"т/с Ельно-3"}},"6897015085":{"location":[55.7159823,27.0478968],"ct":"BY","tp":"CS","ts":"2024-11-08T15:48:30Z","tX":588,"tY":320,"tags":{"backcountry":"yes","capacity":"8","caravans":"yes","name":"камень","name:be":"камень","name:ru":"камень","reservation":"yes","tents":"yes"}},"9943999247":{"location":[55.695721,27.0210725],"ct":"BY","tp":"CS","ts":"2024-11-08T15:48:30Z","tX":588,"tY":320,"tags":{"name":"Чайчын","name:be":"Чайчын","name:ru":"Чайчин"}}}