{"3664359104":{"location":[55.4227683,26.8829473],"ct":"BY","tp":"CS","ts":"2023-05-21T19:31:38Z","tX":588,"tY":321,"tags":{"backcountry":"yes","capacity":"30","fee":"yes","name":"Альбенаўская","name:be":"Альбенаўская","name:ru":"Альбеновская","name:uk":"Альбенівська","operator":"Богинское лесничество","reservation":"required","website":"https://braslavpark.by/otdykh-i-turizm/turstoyanki/zakazniye/albenovskoe/"}},"3664474516":{"location":[55.4242745,26.8761412],"ct":"BY","tp":"CS","ts":"2023-05-21T19:31:38Z","tX":588,"tY":321,"tags":{"backcountry":"yes","capacity":"12","fee":"yes","name":"Бекешкі","name:be":"Бекешкі","name:ru":"Бекешки","name:uk":"Бекешки","operator":"Богинское лесничество","reservation":"required","website":"https://braslavpark.by/otdykh-i-turizm/turstoyanki/zakazniye/albenovskoe/"}},"3664474517":{"location":[55.4216661,26.8147562],"ct":"BY","tp":"CS","ts":"2023-05-21T19:31:38Z","tX":588,"tY":321,"tags":{"capacity":"12","description":"(заказная на 12чел.)","fee":"yes","name":"т/с Дубок","name:be":"т/с Дубок","name:ru":"т/с Дубок","name:uk":"т/с Дубок"}},"3664474518":{"location":[55.3982742,26.7993027],"ct":"BY","tp":"CS","ts":"2024-09-02T12:55:04Z","tX":588,"tY":321,"tags":{"description":"(заказная на 8чел.)","name":"т/с Прылаўка 1","name:be":"т/с Прылаўка 1","name:ru":"т/с Прилавка 1","name:uk":"т/с Прилавка 1"}},"3664477261":{"location":[55.3934563,26.7982062],"ct":"BY","tp":"CS","ts":"2024-09-02T12:55:04Z","tX":588,"tY":321,"tags":{"name":"т/с Прылаўка-2","name:be":"т/с Прылаўка-2","name:ru":"т/с Прилавка-2","name:uk":"т/с Прилавка-2"}},"7671428085":{"location":[55.4676279,26.7740604],"ct":"BY","tp":"CS","ts":"2023-06-11T20:53:09Z","tX":588,"tY":321,"tags":{"caravans":"yes","drinking_water":"no","fee":"yes","name":"Заказная турыстычная стаянка Рыбацкая","name:be":"Заказная турыстычная стаянка Рыбацкая","name:en":"tourist place Rybatskaya","name:ru":"Заказная туристическая стоянка Рыбацкая","name:uk":"Замовлена ​​туристична стоянка Рибальська","phone":"+375292262246","power_supply":"no","shower":"no","tents":"yes","toilets":"yes","website":"https://braslavpark.by/otdykh-i-turizm/turstoyanki/zakazniye/dolgoe/"}},"7722900786":{"location":[55.47189,26.7681858],"ct":"BY","tp":"CS","ts":"2023-05-21T19:31:38Z","tX":588,"tY":321,"tags":{"fee":"yes","name":"Заказная турыстычная стаянка Паляўнічая","name:be":"Заказная турыстычная стаянка Паляўнічая","name:ru":"Заказная туристическая стоянка Охотничья","name:uk":"Замовлена ​​туристична стоянка Мисливська"}},"8684531035":{"location":[55.471478,26.7674769],"ct":"BY","tp":"CS","ts":"2023-05-21T19:31:38Z","tX":588,"tY":321,"tags":{"fee":"yes","name":"Заказная турыстычная стаянка Лісья","name:be":"Заказная турыстычная стаянка Лісья","name:ru":"Заказная туристическая стоянка Лисья","name:uk":"Замовлена ​​туристична стоянка Лисся"}},"8684531036":{"location":[55.4712248,26.7713805],"ct":"BY","tp":"CS","ts":"2023-05-21T19:31:38Z","tX":588,"tY":321,"tags":{"fee":"yes","name":"Заказная турыстычная стаянка Малінаўка","name:be":"Заказная турыстычная стаянка Малінаўка","name:ru":"Заказная туристическая стоянка Малиновка","name:uk":"Замовлена ​​туристична стоянка Малинівка"}},"8684531037":{"location":[55.4702063,26.7698113],"ct":"BY","tp":"CS","ts":"2023-05-21T19:31:38Z","tX":588,"tY":321,"tags":{"fee":"yes","name":"Заказная турыстычная стаянка Шышкін дом","name:be":"Заказная турыстычная стаянка Шышкін дом","name:ru":"Заказная туристическая стоянка Шишкин дом","name:uk":"Замовлена ​​туристична стоянка Шишкін будинок"}},"8684531039":{"location":[55.4686863,26.7747203],"ct":"BY","tp":"CS","ts":"2023-05-21T19:31:38Z","tX":588,"tY":321,"tags":{"fee":"yes","name":"Заказная турыстычная стаянка Прывал","name:be":"Заказная турыстычная стаянка Прывал","name:ru":"Заказная туристическая стоянка Привал","name:uk":"Замовлена ​​туристична стоянка Привал"}},"8684531069":{"location":[55.4664893,26.7737422],"ct":"BY","tp":"CS","ts":"2023-05-21T19:31:38Z","tX":588,"tY":321,"tags":{"fee":"yes","name":"Заказная турыстычная стаянка Бруснічная","name:be":"Заказная турыстычная стаянка Бруснічная","name:ru":"Заказная туристическая стоянка Брусничная","name:uk":"Замовлена ​​туристична стоянка Бруснична"}},"8684531080":{"location":[55.4648713,26.7748026],"ct":"BY","tp":"CS","ts":"2023-05-21T19:31:38Z","tX":588,"tY":321,"tags":{"fee":"yes","name":"Заказная турыстычная стаянка Барская паляна","name:be":"Заказная турыстычная стаянка Барская паляна","name:ru":"Заказная туристическая стоянка Барская поляна","name:uk":"Замовлена ​​туристична стоянка Барська галявина"}},"8684531085":{"location":[55.4642177,26.7786732],"ct":"BY","tp":"CS","ts":"2023-05-21T19:31:38Z","tX":588,"tY":321,"tags":{"fee":"yes","name":"Заказная турыстычная стаянка Шчучая","name:be":"Заказная турыстычная стаянка Шчучая","name:ru":"Заказная туристическая стоянка Щучья","name:uk":"Замовлена ​​туристична стоянка Щуча"}},"8684531086":{"location":[55.4636056,26.7795984],"ct":"BY","tp":"CS","ts":"2023-05-21T19:31:38Z","tX":588,"tY":321,"tags":{"fee":"yes","name":"Заказная турыстычная стаянка Домік лесніка","name:be":"Заказная турыстычная стаянка Домік лесніка","name:ru":"Заказная туристическая стоянка Домик лесника","name:uk":"Замовлена ​​туристична стоянка Будиночок лісника"}},"8684531106":{"location":[55.4586977,26.7714785],"ct":"BY","tp":"CS","ts":"2023-05-21T19:31:38Z","tX":588,"tY":321,"tags":{"fee":"yes","name":"Заказная турыстычная стаянка Міністэрская","name:be":"Заказная турыстычная стаянка Міністэрская","name:ru":"Заказная туристическая стоянка Министерская","name:uk":"Замовлена ​​туристична стоянка Міністерська"}},"8684531107":{"location":[55.4580831,26.7717613],"ct":"BY","tp":"CS","ts":"2023-05-21T19:31:38Z","tX":588,"tY":321,"tags":{"fee":"yes","name":"Заказная турыстычная стаянка Вясёлая","name:be":"Заказная турыстычная стаянка Вясёлая","name:ru":"Заказная туристическая стоянка Веселая","name:uk":"Замовлена ​​туристична стоянка Весела"}}}