{"306066023":{"location":[54.8267743,26.7238473],"ct":"BY","tp":"CS","ts":"2024-11-08T15:48:30Z","tX":588,"tY":324,"tags":{"name":"Аўтакемпінг «Нарач»","name:be":"Аўтакемпінг «Нарач»","name:ru":"Автокемпинг «Нарочь»","name:uk":"Автокемпінг «Нароч»"}},"1060042673":{"location":[54.8444638,26.8511984],"ct":"BY","tp":"CS","ts":"2024-11-08T15:48:30Z","tX":588,"tY":324,"tags":{"backcountry":"yes","fee":"yes","name":"кемпінг Нарач","name:be":"кемпінг Нарач","name:ru":"кемпинг Нарочь","payment:cash":"yes"}},"1544242694":{"location":[54.9063496,26.7410905],"ct":"BY","tp":"CS","ts":"2024-11-08T15:48:30Z","tX":588,"tY":324,"tags":{"name":"Антанізберг","name:be":"Антанізберг","name:pl":"Antonisberg","name:ru":"Антонисберг"}},"1544242710":{"location":[54.8449379,26.9093503],"ct":"BY","tp":"CS","ts":"2024-11-08T15:48:30Z","tX":588,"tY":324,"tags":{"name":"Качаргі","name:be":"Качаргі","name:ru":"Кочерги"}},"1544242713":{"location":[54.8370229,26.8661708],"ct":"BY","tp":"CS","ts":"2024-11-08T15:48:30Z","tX":588,"tY":324,"tags":{"fee":"yes","name":"Турыстычная стаянка «Белае»","name:be":"Турыстычная стаянка «Белае»","name:ru":"Туристическая стоянка «Белое»","name:uk":"Туристична стоянка «Біле»"}},"3688475268":{"location":[54.9357028,26.8215698],"ct":"BY","tp":"CS","ts":"2024-11-08T15:48:30Z","tX":588,"tY":324,"tags":{"name":"т/с Стругалапы","name:be":"т/с Стругалапы","name:ru":"т/с Струголапы"}},"3688476867":{"location":[54.8404159,26.8601427],"ct":"BY","tp":"CS","ts":"2024-11-08T15:48:30Z","tX":588,"tY":324,"tags":{"fee":"yes","internet_access":"no","internet_access:fee":"no","name":"Турыстычная стаянка «Белае»","name:be":"Турыстычная стаянка «Белае»","name:ru":"Туристическая стоянка «Белое»","name:uk":"Туристична стоянка «Біле»"}},"3688480583":{"location":[54.9676233,26.8715548],"ct":"BY","tp":"CS","ts":"2024-11-08T15:48:30Z","tX":588,"tY":324,"tags":{"name":"т/с Расохі","name:be":"т/с Расохі","name:ru":"т/с Россохи"}}}