{"868763712":{"location":[54.7088791,26.7942044],"ct":"BY","tp":"CS","ts":"2023-05-21T19:31:38Z","tX":588,"tY":325,"tags":{"name":"Месца адпачынку Іжскага лясніцтва","name:be":"Месца адпачынку Іжскага лясніцтва","name:ru":"Место отдыха ижского лесничества","name:uk":"Місце відпочинку Ізького лісництва"}},"869780530":{"location":[54.7042985,26.8008953],"ct":"BY","tp":"CS","ts":"2023-05-21T19:31:38Z","tX":588,"tY":325,"tags":{"name":"Платная рыбалка","name:be":"Платная рыбалка","name:ru":"Платная рыбалка","name:uk":"Платна рибалка"}},"869780531":{"location":[54.7039907,26.7863265],"ct":"BY","tp":"CS","ts":"2023-05-21T19:31:38Z","tX":588,"tY":325,"tags":{"name":"Платная рыбалка","name:be":"Платная рыбалка","name:ru":"Платная рыбалка","name:uk":"Платна рибалка"}},"6742444585":{"location":[54.6341032,26.7918043],"ct":"BY","tp":"CS","ts":"2023-05-21T19:31:38Z","tX":588,"tY":325,"tags":{"name":"КААЛ кемпінг","name:be":"КААЛ кемпінг","name:en":"KAAL camping","name:ru":"КААЛ кемпинг","name:uk":"Каал кемпінг","opening_hours":"24/7","operator":"Все туристы","phone":"+375447896921"}}}