{"593613862":{"location":[54.4739547,27.0429369],"ct":"BY","tp":"CS","ts":"2023-05-21T19:31:38Z","tX":588,"tY":326,"tags":{"caravans":"yes","charge":"from 3 USD per day","description":"Вода, биотуалеты, мусорные контейнеры. Баня, домики, места для палаток.","fee":"yes","internet_access":"no","name":"Варадэра","name:be":"Варадэра","name:ru":"Варадеро","name:uk":"Варадеро","phone":"+375295535253;+375445535253","sanitary_dump_station":"no","stars":"5","tents":"yes","website":"http://varadera.by/"}},"4171748689":{"location":[54.4073565,26.8559041],"ct":"BY","tp":"CS","ts":"2016-05-13T19:50:46Z","tX":588,"tY":326,"tags":{}},"5662868103":{"location":[54.5435403,26.7272727],"ct":"BY","tp":"CS","ts":"2023-07-04T20:51:37Z","tX":588,"tY":326,"tags":{"email":"info@zabrodje.com","name":"Заброддзе","name:be":"Заброддзе","name:ru":"Забродье","name:uk":"Заброддя","phone":"+375293338446","website":"https://zabrodje.com/about.php"}},"5895846210":{"location":[54.4764683,27.030648],"ct":"BY","tp":"CS","ts":"2018-09-10T08:37:21Z","tX":588,"tY":326,"tags":{}}}