{"778629276":{"location":[53.4252703,26.8129707],"ct":"BY","tp":"CS","ts":"2024-05-26T13:20:39Z","tX":588,"tY":331,"tags":{"leisure":"resort","name":"Турбаза Высокі Бераг","name:be":"Турбаза Высокі Бераг","name:ru":"Турбаза Высокий Берег","name:uk":"Турбаза Високий Берег"}},"4286291792":{"location":[53.5110364,26.9514242],"ct":"BY","tp":"CS","ts":"2023-05-21T19:31:38Z","tX":588,"tY":331,"tags":{"name":"5пянькоў","name:be":"5пянькоў","name:ru":"5пеньков","name:uk":"5пеньків"}},"4603754295":{"location":[53.4366947,26.9765269],"ct":"BY","tp":"CS","ts":"2023-05-21T19:31:38Z","tX":588,"tY":331,"tags":{"name":"Сежа","name:be":"Сежа","name:ru":"Сежа","name:uk":"Сіжа","stars":"5","tents":"yes"}},"4952326312":{"location":[53.3709831,27.0468438],"ct":"BY","tp":"CS","ts":"2023-05-21T19:31:38Z","tX":588,"tY":331,"tags":{"name":"Нёман","name:be":"Нёман","name:ru":"Нёман","name:uk":"Неман"}},"5570831923":{"location":[53.4604783,26.7333235],"ct":"BY","tp":"CS","ts":"2019-07-09T11:49:19Z","tX":588,"tY":331,"tags":{}},"6457471192":{"location":[53.3762789,27.0328728],"ct":"BY","tp":"CS","ts":"2022-05-04T09:07:00Z","tX":588,"tY":331,"tags":{}},"6469612546":{"location":[53.430235,26.9912517],"ct":"BY","tp":"CS","ts":"2019-05-13T10:19:04Z","tX":588,"tY":331,"tags":{}},"6469612555":{"location":[53.4260651,26.9965058],"ct":"BY","tp":"CS","ts":"2021-05-15T19:59:37Z","tX":588,"tY":331,"tags":{}},"6469656118":{"location":[53.4405381,26.9798738],"ct":"BY","tp":"CS","ts":"2023-05-21T19:31:38Z","tX":588,"tY":331,"tags":{"name":"высокі бераг","name:be":"высокі бераг","name:ru":"высокий берег","name:uk":"Високий берег"}},"6469718149":{"location":[53.3760069,27.0305246],"ct":"BY","tp":"CS","ts":"2019-05-13T11:07:26Z","tX":588,"tY":331,"tags":{}},"6469718150":{"location":[53.3754661,27.0325363],"ct":"BY","tp":"CS","ts":"2019-05-13T11:07:26Z","tX":588,"tY":331,"tags":{}},"6469718151":{"location":[53.3760189,27.0319181],"ct":"BY","tp":"CS","ts":"2022-05-04T09:07:00Z","tX":588,"tY":331,"tags":{}},"6469749770":{"location":[53.3647472,27.0437211],"ct":"BY","tp":"CS","ts":"2023-09-10T12:01:57Z","tX":588,"tY":331,"tags":{}},"6469749771":{"location":[53.3646511,27.0417577],"ct":"BY","tp":"CS","ts":"2019-05-13T11:20:28Z","tX":588,"tY":331,"tags":{}},"6469749895":{"location":[53.3679097,27.0415109],"ct":"BY","tp":"CS","ts":"2019-05-13T11:20:28Z","tX":588,"tY":331,"tags":{}},"6469749896":{"location":[53.3672983,27.0408082],"ct":"BY","tp":"CS","ts":"2023-05-21T19:31:38Z","tX":588,"tY":331,"tags":{"name":"Высокі бераг","name:be":"Высокі бераг","name:ru":"Высокий берег","name:uk":"Високий берег"}},"7267153073":{"location":[53.3947432,26.8435559],"ct":"BY","tp":"CS","ts":"2020-03-05T18:37:28Z","tX":588,"tY":331,"tags":{}},"7267153074":{"location":[53.3947432,26.8448031],"ct":"BY","tp":"CS","ts":"2020-03-05T18:37:28Z","tX":588,"tY":331,"tags":{}},"7267153075":{"location":[53.3943849,26.8458572],"ct":"BY","tp":"CS","ts":"2020-03-05T18:37:28Z","tX":588,"tY":331,"tags":{}},"7267153076":{"location":[53.3934253,26.8469864],"ct":"BY","tp":"CS","ts":"2020-03-05T18:37:28Z","tX":588,"tY":331,"tags":{}},"7899875786":{"location":[53.4541042,26.7560142],"ct":"BY","tp":"CS","ts":"2021-04-05T00:05:41Z","tX":588,"tY":331,"tags":{"backcountry":"yes","description":"Место для палатки"}},"9278975987":{"location":[53.3417592,26.9200129],"ct":"BY","tp":"CS","ts":"2022-05-07T17:54:32Z","tX":588,"tY":331,"tags":{"name":"Пляцоўка","name:be":"Пляцоўка"}},"9713413557":{"location":[53.3755093,27.0313293],"ct":"BY","tp":"CS","ts":"2022-05-04T09:07:00Z","tX":588,"tY":331,"tags":{}},"9814252318":{"location":[53.416606,26.8236701],"ct":"BY","tp":"CS","ts":"2023-05-09T07:54:42Z","tX":588,"tY":331,"tags":{"backcountry":"yes","name":"Лаўкі, вогнішча","name:be":"Лаўкі, вогнішча"}},"10861050096":{"location":[53.453065,26.9974426],"ct":"BY","tp":"CS","ts":"2023-05-06T23:29:49Z","tX":588,"tY":331,"tags":{"name":"Вялікі навес паляўнічых","name:be":"Вялікі навес паляўнічых"}},"11180942845":{"location":[53.3643726,27.0429862],"ct":"BY","tp":"CS","ts":"2023-09-10T12:01:57Z","tX":588,"tY":331,"tags":{}},"12091123495":{"location":[53.4525404,26.9695716],"ct":"BY","tp":"CS","ts":"2024-08-04T00:09:01Z","tX":588,"tY":331,"tags":{"name":"Место для лагеря"}}}