{"988260051":{"location":[46.0757067,32.4919889],"ct":"UA","tp":"CS","ts":"2023-03-04T00:58:25Z","tX":604,"tY":363,"tags":{"camp_site":"deluxe","group_only":"yes","name":"Там где куют уют","name:uk":"Там где куют уют"}},"3652573027":{"location":[46.0876294,32.4324451],"ct":"UA","tp":"CS","ts":"2023-03-04T00:58:25Z","tX":604,"tY":363,"tags":{"name":"Кемпинг Дружба","name:uk":"Кемпинг Дружба"}},"3662148301":{"location":[46.0941475,32.3983148],"ct":"UA","tp":"CS","ts":"2023-03-04T00:58:25Z","tX":604,"tY":363,"tags":{"access":"private","fee":"yes","group_only":"yes","name":"Кемпинг Серж","name:uk":"Кемпинг Серж","payment:cash":"yes"}},"4368858190":{"location":[46.0932136,32.401817],"ct":"UA","tp":"CS","ts":"2023-03-04T00:58:25Z","tX":604,"tY":363,"tags":{"addr:street":"Морська вулиця","internet_access":"wlan","name":"Парус","name:en":"sail","name:uk":"Парус","opening_hours":"24/7","operator":"Оксана Омелянівна","phone":"+380 67 678 0037"}},"4932946501":{"location":[46.0777717,32.483175],"ct":"UA","tp":"CS","ts":"2023-03-04T00:58:25Z","tX":604,"tY":363,"tags":{"description":"Места для дикого отдыха, в малиновой роще. Подъезд авто.","name":"Відпочинок серед диких маслин","name:uk":"Відпочинок серед диких маслин"}},"5516745525":{"location":[46.0875499,32.4270055],"ct":"UA","tp":"CS","ts":"2023-12-15T17:43:50Z","tX":604,"tY":363,"tags":{"addr:postcode":"75655","addr:street":"вулиця Таврійська, Приморське, Херсонська область,","charge":"200 грн.","fee":"yes","name":"Автокемпінг \"Гаваї\"","name:ru":"Автокемпинг \"Гавайи\"","name:uk":"Автокемпінг \"Гаваї\"","payment:cash":"yes","phone":"+380507035757","shower":"yes","toilets":"yes"}},"8023463410":{"location":[46.0935732,32.3985793],"ct":"UA","tp":"CS","ts":"2023-02-20T18:22:03Z","tX":604,"tY":363,"tags":{"access":"private","name":"Платний кемпінг","name:uk":"Платний кемпінг"}},"8023463411":{"location":[46.0939735,32.3962209],"ct":"UA","tp":"CS","ts":"2023-02-20T18:22:03Z","tX":604,"tY":363,"tags":{"access":"private","name":"Платний кемпінг","name:uk":"Платний кемпінг"}},"8023463412":{"location":[46.0943836,32.3942709],"ct":"UA","tp":"CS","ts":"2023-02-20T18:22:03Z","tX":604,"tY":363,"tags":{"access":"private","name":"Платний кемпінг","name:uk":"Платний кемпінг"}},"8023463413":{"location":[46.0948913,32.3919759],"ct":"UA","tp":"CS","ts":"2023-02-20T18:22:03Z","tX":604,"tY":363,"tags":{"access":"private","name":"Платний кемпінг","name:uk":"Платний кемпінг"}},"8023463414":{"location":[46.095443,32.3891319],"ct":"UA","tp":"CS","ts":"2023-02-20T18:22:03Z","tX":604,"tY":363,"tags":{"access":"private","name":"Платний кемпінг","name:uk":"Платний кемпінг"}},"8023463415":{"location":[46.0960776,32.3860836],"ct":"UA","tp":"CS","ts":"2023-02-20T18:22:03Z","tX":604,"tY":363,"tags":{"access":"private","name":"Платний кемпінг","name:uk":"Платний кемпінг"}},"8023463416":{"location":[46.0966927,32.3831832],"ct":"UA","tp":"CS","ts":"2023-02-20T18:22:03Z","tX":604,"tY":363,"tags":{"access":"private","name":"Платний кемпінг","name:uk":"Платний кемпінг"}},"4958617521":{"location":[46.0967757,32.3958637],"ct":"UA","tp":"CR","ts":"2023-10-24T00:00:40Z","tX":604,"tY":363,"tags":{"name":"Карабас Барабас","name:ru":"карабас барабас","name:uk":"Карабас Барабас"}}}