{"329872885":{"location":[15.5238633,32.5700666],"ct":"SD","tp":"CS","ts":"2015-02-23T14:35:07Z","tX":604,"tY":467,"tags":{"addr:city":"Khartoum","addr:country":"SD","caravans":"yes","drinking_water":"yes","internet_access":"yes","landuse":"recreation_ground","name":"National Camping","power_supply":"yes","tents":"yes","toilets":"yes"}},"1879690466":{"location":[15.6117747,32.5341195],"ct":"SD","tp":"CS","ts":"2012-08-23T17:57:02Z","tX":604,"tY":467,"tags":{}},"4548450109":{"location":[15.5882094,32.5406601],"ct":"SD","tp":"CS","ts":"2016-12-10T21:17:30Z","tX":604,"tY":467,"tags":{"name":"GREEN HALL","name:en":"GREEN HALL"}},"4762490038":{"location":[15.5898197,32.4551086],"ct":"SD","tp":"CS","ts":"2017-03-29T18:08:28Z","tX":604,"tY":467,"tags":{"name":"هشام","name:ar":"هشام"}},"4958720522":{"location":[15.5330938,32.5380444],"ct":"SD","tp":"CS","ts":"2017-07-08T17:19:24Z","tX":604,"tY":467,"tags":{"email":"hassan.khalifa790@gmail.com","name":"حسن خليفة","name:ar":"حسن خليفة","name:en":"Hassan Khalifa","phone":"249910572770"}},"11412108071":{"location":[15.5784286,32.5448165],"ct":"SD","tp":"CS","ts":"2023-12-12T11:53:12Z","tX":604,"tY":467,"tags":{"addr:housenumber":"227","addr:postcode":"10934","name":"Dar Consult"}},"5365677028":{"location":[15.443276,32.492769],"ct":"SD","tp":"CR","ts":"2018-01-27T11:18:38Z","tX":604,"tY":467,"tags":{"name":"مرتضي"}},"5494581922":{"location":[15.481155,32.4710269],"ct":"SD","tp":"CR","ts":"2018-03-21T19:39:41Z","tX":604,"tY":467,"tags":{"addr:street":"شارع 15 القبه شمال اخر محطه","name":"ميدان زحل"}},"5596936321":{"location":[15.605551,32.5809753],"ct":"SD","tp":"CR","ts":"2023-06-30T16:21:56Z","tX":604,"tY":467,"tags":{"name":"بيتي"}}}