{"292841372":{"location":[0.307786,32.5509213],"ct":"UG","tp":"CS","ts":"2008-09-01T12:20:29Z","tX":604,"tY":511,"tags":{"name":"Backpackers"}},"415137689":{"location":[0.0504009,32.4648805],"ct":"UG","tp":"CS","ts":"2019-03-06T18:36:29Z","tX":604,"tY":511,"tags":{"fee":"yes","name":"Entebbe Backpackers","website":"https://entebbebackpackers.com/"}},"3256585517":{"location":[0.3149698,32.663604],"ct":"UG","tp":"CS","ts":"2019-12-16T08:09:03Z","tX":604,"tY":511,"tags":{"addr:city":"Kampala","addr:country":"UG","caravans":"yes","drinking_water":"yes","name":"Red Chilli Hideaway","power_supply":"yes","tents":"yes","toilets":"yes"}},"5157965941":{"location":[0.1089259,32.5471432],"ct":"UG","tp":"CS","ts":"2017-10-09T22:21:50Z","tX":604,"tY":511,"tags":{"name":"Nabinoonya Resort Beach","phone":"+256 772 534444","website":"https://www.facebook.com/Nabinoonya-Resort-Beach-614714555206155/"}},"5971401021":{"location":[0.1096381,32.5462312],"ct":"UG","tp":"CS","ts":"2018-10-10T07:52:56Z","tX":604,"tY":511,"tags":{"name":"Nabinoonya Resort Beach campground"}},"9945681418":{"location":[0.2194496,32.6192373],"ct":"UG","tp":"CS","ts":"2022-08-10T18:14:49Z","tX":604,"tY":511,"tags":{"addr:street":"Busabala Road","internet_access":"wlan","name":"Kaazi Resort Beach","opening_hours":"24/7"}},"10711592505":{"location":[0.1871066,32.4276415],"ct":"UG","tp":"CS","ts":"2023-03-05T07:55:16Z","tX":604,"tY":511,"tags":{"email":"edjemba@gmail.com","name":"Makula hill Campsite","opening_hours":"24/7","phone":"0776327174"}},"5106844622":{"location":[0.3061315,32.5469089],"ct":"UG","tp":"CR","ts":"2017-09-15T07:54:01Z","tX":604,"tY":511,"tags":{}},"5106891227":{"location":[0.3361763,32.5584889],"ct":"UG","tp":"CR","ts":"2017-09-15T07:54:00Z","tX":604,"tY":511,"tags":{}}}