{"239015217":{"location":[59.9795694,18.877617],"ct":"SE","tp":"CS","ts":"2022-06-26T22:55:12Z","tX":565,"tY":297,"tags":{"addr:city":"Älmsta","addr:country":"SE","addr:housenumber":"57","addr:postcode":"760 40","addr:street":"Sandviksvägen","contact:website":"https://vaddohavsbad.se/","description":"Husvagn/husbil, Tält, Stugor 1-3, Bergstugan, torpet","description:en":"Caravans & tents plus sevel huts/cottages for rent","name":"Väddö Camping"}},"680605495":{"location":[60.0561916,18.7551388],"ct":"SE","tp":"CS","ts":"2019-03-30T19:26:22Z","tX":565,"tY":297,"tags":{"name":"Begby Camping"}},"911600406":{"location":[59.9979041,18.7854137],"ct":"SE","tp":"CR","ts":"2021-02-27T19:40:10Z","tX":565,"tY":297,"tags":{}},"4448465251":{"location":[59.9765,18.811],"ct":"SE","tp":"SD","ts":"2017-09-23T18:46:55Z","tX":565,"tY":297,"tags":{"access":"yes","addr:place":"Älmsta gästhamn","boat":"yes","fee":"no","opening_hours":"24/7","sanitary_dump_station:accepted":"black_water","sanitary_dump_station:pump-out":"yes","seamark:small_craft_facility:category":"pump-out","seamark:type":"small_craft_facility","vehicle":"no","waterway":"sanitary_dump_station","website":"https://hamnkartan.azurewebsites.net"}}}