{"7783598695":{"location":[59.2015562,18.711644],"ct":"SE","tp":"CS","ts":"2020-08-04T10:08:14Z","tX":565,"tY":301,"tags":{"backcountry":"yes"}},"9011922103":{"location":[59.1967787,18.7377828],"ct":"SE","tp":"CS","ts":"2025-04-16T20:04:05Z","tX":565,"tY":301,"tags":{"access":"yes","wikidata":"Q133886565"}},"4448464173":{"location":[59.2885745,18.9298122],"ct":"SE","tp":"SD","ts":"2023-07-29T07:20:16Z","tX":565,"tY":301,"tags":{"access":"yes","addr:place":"Sandhamn/Lökholmen","boat":"yes","description":"flytande","fee":"no","opening_hours":"24/7","sanitary_dump_station:accepted":"black_water","sanitary_dump_station:pump-out":"yes","seamark:small_craft_facility:category":"pump-out","seamark:type":"small_craft_facility","vehicle":"no","waterway":"sanitary_dump_station","website":"https://hamnkartan.azurewebsites.net"}},"4448465198":{"location":[59.2855461,18.7042375],"ct":"SE","tp":"SD","ts":"2017-09-23T18:46:42Z","tX":565,"tY":301,"tags":{"access":"yes","addr:place":"Stavsnäs","boat":"yes","description":"Tömningsstationen ligger på gästbryggan.","fee":"no","opening_hours":"24/7","sanitary_dump_station:accepted":"black_water","sanitary_dump_station:pump-out":"yes","seamark:small_craft_facility:category":"pump-out","seamark:type":"small_craft_facility","vehicle":"no","waterway":"sanitary_dump_station","website":"https://hamnkartan.azurewebsites.net"}},"4448465203":{"location":[59.29758,18.6494],"ct":"SE","tp":"SD","ts":"2017-09-23T18:46:44Z","tX":565,"tY":301,"tags":{"access":"yes","addr:place":"Bullandö Marina","boat":"yes","description":"Finns på kaj 1","fee":"no","opening_hours":"24/7","sanitary_dump_station:accepted":"black_water","sanitary_dump_station:pump-out":"yes","seamark:small_craft_facility:category":"pump-out","seamark:type":"small_craft_facility","vehicle":"no","waterway":"sanitary_dump_station","website":"https://hamnkartan.azurewebsites.net"}},"12813901080":{"location":[59.2001453,18.7069477],"ct":"SE","tp":"CS","ts":"2025-05-06T10:22:29Z","tX":565,"tY":301,"tags":{"image":"https://commons.wikimedia.org/entity/M162848992","wikidata":"Q134369828","wikimedia_commons":"Category:Nämdö_camp_site"}}}