{"429887859":{"location":[57.7358493,18.8857919],"ct":"SE","tp":"CS","ts":"2016-07-08T13:26:03Z","tX":565,"tY":309,"tags":{"name":"Solgrinde"}},"1083462564":{"location":[57.8453334,18.7812084],"ct":"SE","tp":"CS","ts":"2023-02-26T14:02:18Z","tX":565,"tY":309,"tags":{"addr:city":"LÃ¤rbro","addr:country":"SE","addr:housenumber":"18","addr:postcode":"62455","addr:street":"Byslingan","caravans":"yes","internet_access":"yes","internet_access:fee":"no","name":"Kappelshamns Camping","phone":"+46702552306","tents":"yes","website":"https://kappelshamnscamping.se/"}},"4448464569":{"location":[57.70584,18.80828],"ct":"SE","tp":"SD","ts":"2017-09-23T18:46:26Z","tX":565,"tY":309,"tags":{"access":"yes","addr:place":"Slite Lanthamnen","boat":"yes","fee":"no","opening_hours":"24/7","sanitary_dump_station:accepted":"black_water","sanitary_dump_station:pump-out":"yes","seamark:small_craft_facility:category":"pump-out","seamark:type":"small_craft_facility","vehicle":"no","waterway":"sanitary_dump_station","website":"https://hamnkartan.azurewebsites.net"}}}