{"99725680":{"location":[54.7152131,18.6331613],"ct":"PL","tp":"CS","ts":"2024-07-28T16:36:13Z","tX":565,"tY":325,"tags":{"addr:city":"Jastarnia","addr:housenumber":"139","addr:postcode":"84-140","addr:street":"Mickiewicza","alt_name":"Kemping Maszoperia","caravans":"yes","email":"rezerwacja@sun4hel.pl","fee":"yes","name":"Sun4Hel Maszoperia","phone":"+48 793 416 998","static_caravans":"yes","tents":"yes","website":"https://sun4hel.pl/"}},"149399519":{"location":[54.5991827,18.8065182],"ct":"PL","tp":"CS","ts":"2023-11-08T18:08:26Z","tX":565,"tY":325,"tags":{"addr:city":"Hel","addr:city:simc":"0934501","addr:housenumber":"1","addr:postcode":"84-150","addr:street":"Kuracyjna","caravans":"yes","motorhome":"yes","name":"Helkamp","phone":"+48 606 388 184; +48 603 711 522","shower":"yes","tents":"yes","toilets":"yes","website":"https://helkamp.com/"}},"167565400":{"location":[54.7037906,18.6595387],"ct":"PL","tp":"CS","ts":"2024-02-23T18:47:15Z","tX":565,"tY":325,"tags":{"addr:city":"Jastarnia","addr:city:simc":"0934518","addr:housenumber":"39","addr:postcode":"84-140","addr:street":"Sztormowa","building":"yes","caravans":"yes","name":"Pole namiotowe Błękitna Ostryga","tents":"yes"}},"188231325":{"location":[54.6021023,18.812616],"ct":"PL","tp":"CS","ts":"2021-03-19T15:45:42Z","tX":565,"tY":325,"tags":{"addr:city":"Hel","addr:city:simc":"0934501","addr:housenumber":"14/16","addr:postcode":"84-150","addr:street":"Leśna","addr:street:sym_ul":"10898","caravans":"yes","email":"kontakt@sielskihel.pl","fee":"yes","name":"Sielski Hel","phone":"+48 502 761 553","power_supply":"yes","source":"Bing","tents":"yes","website":"https://sielskihel.pl/"}},"280287609":{"location":[54.6076912,18.8072736],"ct":"PL","tp":"CS","ts":"2024-08-01T13:21:52Z","tX":565,"tY":325,"tags":{"addr:city":"Hel","addr:housenumber":"1","addr:postcode":"84-150","addr:street":"Kuracyjna","caravans":"yes","check_date":"2024-08-01","fee":"yes","name":"Pole Campingowe Camp Hel","phone":"+48 606 388 184","ref:vatin":"PL5871577165","static_caravans":"yes","tents":"yes"}},"340093633":{"location":[54.7086551,18.652485],"ct":"PL","tp":"CS","ts":"2018-08-19T16:46:30Z","tX":565,"tY":325,"tags":{"barrier":"fence","caravans":"yes","email":"kontakt@podcyprysami.pl","fee":"yes","internet_access":"wlan","internet_access:fee":"no","name":"Pod Cyprysami","phone":"+48 602 705 192; +48 608 534 377","power_supply":"yes","sanitary_dump_station":"yes","tents":"yes","website":"https://podcyprysami.pl/"}},"604042354":{"location":[54.7007046,18.6787028],"ct":"PL","tp":"CS","ts":"2018-07-01T18:25:55Z","tX":565,"tY":325,"tags":{"barrier":"fence"}},"604042355":{"location":[54.7024919,18.6754893],"ct":"PL","tp":"CS","ts":"2022-08-25T22:45:42Z","tX":565,"tY":325,"tags":{"barrier":"fence"}},"604049170":{"location":[54.7084854,18.654267],"ct":"PL","tp":"CS","ts":"2023-09-25T05:37:53Z","tX":565,"tY":325,"tags":{"barrier":"fence"}},"618112419":{"location":[54.6982953,18.6827327],"ct":"PL","tp":"CS","ts":"2019-04-05T14:29:52Z","tX":565,"tY":325,"tags":{"addr:city":"Jastarnia","addr:city:simc":"0934518","addr:housenumber":"2","addr:postcode":"84-140","addr:street":"Bursztynowa","caravans":"yes","email":"aga@polenamiotowejastarnia.pl","name":"Pole Namiotowe Jastarnia","phone":"+48 884 703 330","tents":"yes","website":"https://www.polenamiotowejastarnia.pl/"}},"727986802":{"location":[54.6780261,18.7245349],"ct":"PL","tp":"CS","ts":"2021-02-09T19:43:26Z","tX":565,"tY":325,"tags":{"alt_name":"Villa Camp Caravaning Jurata","caravans":"yes","email":"info@juratacamp.pl","fee":"yes","name":"Caravaning Jurata","phone":"+48 58 675 20 67; +48 601 754 067; +48 601 733 474","power_supply":"yes","source":"http://www.juratacamp.pl/","tents":"yes","website":"http://www.juratacamp.pl/"}},"727986803":{"location":[54.6738208,18.7263429],"ct":"PL","tp":"CR","ts":"2019-09-25T08:01:10Z","tX":565,"tY":325,"tags":{}},"906292332":{"location":[54.6810508,18.7191077],"ct":"PL","tp":"CS","ts":"2023-11-19T15:45:14Z","tX":565,"tY":325,"tags":{"caravans":"yes","name":"Sosnowa Jurata","tents":"yes"}},"1266287486":{"location":[54.6108607,18.8001184],"ct":"PL","tp":"CS","ts":"2024-04-18T15:55:34Z","tX":565,"tY":325,"tags":{"barrier":"fence","caravans":"yes","email":"kempinghel@gmail.com","fee":"yes","name":"Kemping Hel","phone":"+48 797 566 168; +48 507 856 143","power_supply":"yes","tents":"no"}},"1301717979":{"location":[54.7009032,18.6628512],"ct":"PL","tp":"CS","ts":"2024-07-16T10:18:07Z","tX":565,"tY":325,"tags":{}},"1301717991":{"location":[54.6998028,18.6608443],"ct":"PL","tp":"CS","ts":"2024-08-27T07:41:56Z","tX":565,"tY":325,"tags":{"name":"FLOWCAMP.PL"}},"1301717993":{"location":[54.6999593,18.6625153],"ct":"PL","tp":"CS","ts":"2024-07-16T10:18:07Z","tX":565,"tY":325,"tags":{}},"1302212487":{"location":[54.6932416,18.678022],"ct":"PL","tp":"CS","ts":"2024-07-31T22:08:59Z","tX":565,"tY":325,"tags":{"barrier":"fence","capacity:persons":"260","caravans":"yes","check_date":"2024-07-31","email":"biuro@malosurf.com","fee":"yes","name":"Camping Molo Surf Spot","phone":"+48 505 151 105","stars":"1","static_caravans":"yes","website":"https://molosurf.com/"}},"1302212489":{"location":[54.6943118,18.6816679],"ct":"PL","tp":"CS","ts":"2024-07-18T08:06:59Z","tX":565,"tY":325,"tags":{"barrier":"fence","name":"Ośrodek Duszpastersko-Rekolekcyjny im. JP II"}},"1302212495":{"location":[54.6943805,18.6790982],"ct":"PL","tp":"CS","ts":"2024-07-18T08:06:59Z","tX":565,"tY":325,"tags":{"barrier":"fence","name":"Sonata Camp Jastarnia"}},"1311196839":{"location":[54.6947247,18.6877632],"ct":"PL","tp":"CS","ts":"2024-08-26T08:19:43Z","tX":565,"tY":325,"tags":{}},"1311448769":{"location":[54.7022093,18.6665154],"ct":"PL","tp":"CS","ts":"2024-08-27T07:41:56Z","tX":565,"tY":325,"tags":{}},"1311448772":{"location":[54.7014942,18.6646276],"ct":"PL","tp":"CS","ts":"2024-08-27T07:41:56Z","tX":565,"tY":325,"tags":{"name":"Pole kempingowe Surfstrefa"}},"1311448782":{"location":[54.7019124,18.6648303],"ct":"PL","tp":"CS","ts":"2024-08-27T07:41:56Z","tX":565,"tY":325,"tags":{}},"2847060152":{"location":[54.608385,18.8019239],"ct":"PL","tp":"CS","ts":"2018-08-13T20:09:50Z","tX":565,"tY":325,"tags":{"addr:city":"Hel","addr:city:simc":"0934501","addr:postcode":"84-150","addr:street":"Szkolna","caravans":"yes","description":"Teren pełniący role kempingu jedynie w okresie wakacji letnich.","opening_hours":"Jan-May, Sep-Dec off","tents":"yes"}}}