{"594284321":{"location":[53.4844262,18.7443264],"ct":"PL","tp":"CR","ts":"2024-04-04T09:50:06Z","tX":565,"tY":331,"tags":{"capacity":"12","fee":"yes","image":"https://i.imgur.com/ayGCuyB.jpg","image:0":"https://i.imgur.com/8IPJW7x.jpg","internet_access":"no","name":"Marina Grudziądz","permanent_camping":"no","power_supply":"yes","sanitary_dump_station":"yes","shower":"customers","toilets":"yes"}},"3053908255":{"location":[53.4411861,18.7537013],"ct":"PL","tp":"CS","ts":"2024-06-29T00:27:36Z","tX":565,"tY":331,"tags":{"addr:city":"Grudziądz","addr:housenumber":"1","addr:postcode":"86-300","addr:street":"Zaleśna","caravans":"yes","email":"rudnik@moriw.grudziadz.pl","name":"Kemping MORIW","official_name":"Camping nr 134***","opening_hours":"May-Sep","operator":"MORIW Grudziądz","phone":"+48 72 779 73 83 ; +48 665 931 919","tents":"yes","website":"https://www.moriw.pl/obiekty-rekreacyjne/pole-namiotowo-caravaningowe"}},"3090156870":{"location":[53.4410931,18.7320211],"ct":"PL","tp":"CS","ts":"2014-09-22T05:08:24Z","tX":565,"tY":331,"tags":{"name":"Dompol"}},"9202860986":{"location":[53.440479,18.7336248],"ct":"PL","tp":"CS","ts":"2021-10-26T16:33:51Z","tX":565,"tY":331,"tags":{"addr:city":"Grudziądz","addr:housenumber":"5","addr:postcode":"86-300","addr:street":"Droga Jeziorna","name":"Ośrodek wczasowy \"Warma\""}}}