{"114455994":{"location":[50.5199447,18.7145634],"ct":"PL","tp":"CS","ts":"2023-11-03T01:35:59Z","tX":565,"tY":344,"tags":{"name":"Ośrodek wypoczynkowy Brzeźnica","source":"Bing","website":"https://www.brzeznica.tworog.pl/"}},"912753972":{"location":[50.5432237,18.9725841],"ct":"PL","tp":"CS","ts":"2021-03-02T12:21:25Z","tX":565,"tY":344,"tags":{"landuse":"residential","natural":"wood"}},"1646913762":{"location":[50.5474103,18.9663283],"ct":"PL","tp":"CS","ts":"2012-02-25T16:09:40Z","tX":565,"tY":344,"tags":{}},"1646913790":{"location":[50.5447236,18.9817285],"ct":"PL","tp":"CR","ts":"2012-02-25T13:09:58Z","tX":565,"tY":344,"tags":{"name":"U Rzepki"}},"1646913801":{"location":[50.5447373,18.9818411],"ct":"PL","tp":"CS","ts":"2012-02-25T13:09:58Z","tX":565,"tY":344,"tags":{}},"1646913812":{"location":[50.5468717,18.968812],"ct":"PL","tp":"CS","ts":"2023-11-03T01:36:01Z","tX":565,"tY":344,"tags":{"caravans":"yes","email":"gkmrozbark@poczta.onet.pl","name":"Rozbark","phone":"+48 608 731 562; +48 793 820 205","power_supply":"yes","shower":"yes","tents":"yes","toilets":"yes","website":"https://www.gkmrozbark.pl/"}},"3621944155":{"location":[50.5509723,18.6426713],"ct":"PL","tp":"CS","ts":"2022-05-11T07:59:18Z","tX":565,"tY":344,"tags":{"addr:city":"Krupski Młyn","addr:postcode":"42-693","name":"Ośrodek Harcerski w Borowianach","operator":"Hufiec tarnogórski"}},"5572298767":{"location":[50.6123287,18.7326091],"ct":"PL","tp":"CS","ts":"2020-04-30T17:27:56Z","tX":565,"tY":344,"tags":{"addr:city":"Lubliniec","addr:postcode":"42-700","addr:street":"Osiedle Piłka","operator":"Komenda Hufca ZHP Bytom","website":"http://bytom.zhp.pl/baza-hufca/kokotek/"}},"5594649002":{"location":[50.6115993,18.7011863],"ct":"PL","tp":"CS","ts":"2018-05-03T14:03:11Z","tX":565,"tY":344,"tags":{"name":"Stanica Obozowa ZHP Piekary Śląskie","operator":"Hufiec ZHP Piekary Śląskie","website":"https://hufiecpiekary.wordpress.com/stanica-obozowa"}},"6201932773":{"location":[50.593722,18.7095194],"ct":"PL","tp":"CS","ts":"2019-01-11T19:36:29Z","tX":565,"tY":344,"tags":{"name":"Pole namiotowe ZHP Lubliniec"}}}