{"11687332":{"location":[48.0291888,18.9123],"ct":"HU","tp":"CS","ts":"2024-01-30T00:04:50Z","tX":565,"tY":355,"tags":{"access":"private","addr:city":"Bernecebaráti","addr:housenumber":"5","addr:postcode":"2639","addr:street":"Szokolyi utca","contact:phone":"+36 1 306 4017","name":"Gyermektábor (Budapest XV. kerület Önkormányzat üdülője)","website":"https://www.bpxv.hu/sportintezmeny/gyermektabor"}},"295573347":{"location":[48.1902645,18.660935],"ct":"SK","tp":"CS","ts":"2025-03-17T21:33:25Z","tX":565,"tY":355,"tags":{"cabins":"yes","caravans":"yes","dog":"yes","fee":"yes","name":"Kemp Margita-Ilona","operator":"MARGITA-ILONA, s.r.o.","quiet_time":"Mo-Su 00:00-06:00,22:00-24:00","tents":"yes","website":"http://www.margita-ilona.sk"}},"504606669":{"location":[48.006237,18.8923532],"ct":"HU","tp":"CS","ts":"2023-11-16T17:57:24Z","tX":565,"tY":355,"tags":{"addr:city":"Kemence","addr:postcode":"2638","addr:street":"Fő út 139","barrier":"fence","cabins":"yes","camp_site":"serviced","contact:fax":"+36 1 340 5266","email":"salamandramotel@gmail.com","name":"Szalamandra Üdülőházak","phone":"+36 27 365 170;+36 30 973 5087;+36 70 334 9797","website":"http://www.salamandramotel.hu/"}},"509629385":{"location":[47.9982457,18.9032491],"ct":"HU","tp":"CS","ts":"2022-03-14T19:54:04Z","tX":565,"tY":355,"tags":{"addr:city":"Kemence","addr:postcode":"2638","addr:street":"Nagyvölgy utca","cabins":"yes","camp_site":"serviced","name":"Kemence Község Ifjúsági Tábor","operator":"Kemence Község Önkormányzata"}},"794670776":{"location":[48.0008182,18.6657321],"ct":"SK","tp":"CS","ts":"2020-04-22T07:27:21Z","tX":565,"tY":355,"tags":{"addr:city":"Hronovce","addr:postcode":"93561","name":"Lodenica"}},"2127443635":{"location":[48.063675,18.9621223],"ct":"SK","tp":"CS","ts":"2013-01-25T13:21:20Z","tX":565,"tY":355,"tags":{"name":"Ipeľ"}}}