{"6818812":{"location":[47.7977738,18.8994673],"ct":"HU","tp":"CS","ts":"2022-06-27T19:01:51Z","tX":565,"tY":356,"tags":{"access":"yes","addr:city":"Pilismarót","addr:postcode":"2028","addr:suburb":"Dunapart","camp_site":"standard","description":"Étel, ital, sup, strandcikk kölcsönzés, vendéglátás.","fee":"yes","name":"Pilismarót Dunapart Vadkemping","openfire":"yes","phone":"+36 20 351 0546","ref":"Fizető","toilets":"yes"}},"26861280":{"location":[47.8047083,18.9677983],"ct":"HU","tp":"CS","ts":"2021-03-23T10:49:41Z","tX":565,"tY":356,"tags":{"fixme":"resurvey","name":"om"}},"170768419":{"location":[47.7831832,18.9680106],"ct":"HU","tp":"CS","ts":"2024-08-22T16:07:43Z","tX":565,"tY":356,"tags":{"caravans":"yes","contact:phone":"+36 26 398 120","contact:website":"https://hotelhonti.hu/kek-duna-autos-camping.html","drinking_water":"yes","fee":"yes","name":"Kék Duna Autós Camping","tents":"yes"}},"294752345":{"location":[47.8028756,18.7182752],"ct":"SK","tp":"CS","ts":"2022-06-20T23:46:51Z","tX":565,"tY":356,"tags":{"caravans":"yes","fee":"yes","operator":"Vadaš","tents":"yes","website":"https://www.vadasthermal.sk/accomodation/kemping/"}},"366073118":{"location":[47.8159267,18.8608247],"ct":"HU","tp":"CS","ts":"2024-01-30T00:04:48Z","tX":565,"tY":356,"tags":{"addr:city":"Szob","addr:housenumber":"11","addr:postcode":"2628","addr:street":"Park utca","caravans":"yes","changing_table":"yes","drinking_water":"yes","email":"ipolykapu@gmail.com","internet_access":"wlan","name":"Ipolykapu Kemping","phone":"+36 30 670 6272","power_supply":"yes","shower":"yes","tents":"yes","toilets":"yes","website":"https://ipolykapu-kemping.hu/","wheelchair":"no"}},"415724365":{"location":[47.8562973,18.8529854],"ct":"HU","tp":"CS","ts":"2023-11-19T01:14:39Z","tX":565,"tY":356,"tags":{"access":"yes","addr:city":"Szob","addr:housenumber":"1","addr:place":"Malomvölgy telep","addr:postcode":"2628","cabins":"yes","contact:email":"mzp@vnet.hu","contact:mobile":"+36 70 622 5709","contact:website":"http://www.zoldegyhaz.hu/tabor.html","guest_house":"guest_house","name:hu":"Malomvölgyi Ifjúsági Tábor","operator":"Bánhegyi Ildikó tulajdonos","tents":"yes"}},"484189539":{"location":[47.7648363,18.9141878],"ct":"HU","tp":"CS","ts":"2024-06-14T09:06:33Z","tX":565,"tY":356,"tags":{"addr:city":"Dömös","addr:housenumber":"1","addr:postcode":"2027","addr:street":"Dunapart","barrier":"fence","contact:fax":"+36 33 414 800","email":"domoscamping@clein.hu","internet_access":"wlan","internet_access:fee":"no","name":"Dömös Camping","opening_hours":"May 01-Sep 15 00:00-23:59","phone":"+36 33 482 800","power_supply":"yes","stars":"3","website":"http://www.domoscamping.hu","wheelchair":"yes"}},"717524816":{"location":[47.8395392,18.8493519],"ct":"HU","tp":"CS","ts":"2022-01-07T21:02:40Z","tX":565,"tY":356,"tags":{"addr:city":"Szob","addr:housenumber":"1","addr:postcode":"2628","addr:street":"Malomvölgy telep","cabins":"yes","name":"Malomvölgyi Tábor és Kemping"}},"821780663":{"location":[47.8845803,18.9341171],"ct":"HU","tp":"CS","ts":"2020-07-01T08:54:10Z","tX":565,"tY":356,"tags":{"barrier":"fence"}},"3439051326":{"location":[47.8016142,18.9679915],"ct":"HU","tp":"CS","ts":"2023-11-16T22:06:41Z","tX":565,"tY":356,"tags":{"addr:city":"Nagymaros","addr:housenumber":"67","addr:postcode":"2626","addr:street":"Sólyomszigeti út","contact:email":"info@solyomyacht.hu","contact:fax":"+36 27 594 321","contact:mobile":"+36 30 368 8688","contact:phone":"+36 27 594 320;+36 27 355 575","contact:website":"http://www.solyomyacht.hu","name":"Sólyomsziget Kemping","official_name":"Sólyom- szigeti kemping és jacht kikötő","opening_hours":"Mo-Su 08:00-22:00","source":"turistautak.hu","source:date":"2013-06-22"}},"3439051378":{"location":[47.8049803,18.9242042],"ct":"HU","tp":"CS","ts":"2019-08-23T12:18:56Z","tX":565,"tY":356,"tags":{"name":"Erdei Sátortábor","operator":"Ipolyerdő Zrt.","source":"turistautak.hu","source:date":"2014-10-16","url":"http://turistautak.hu/poi.php?id=168178","website":"http://www.erdeihazak.hu/erdei-ifjusagi-szallok/zebegeny_sator"}},"3439051424":{"location":[47.93025,18.8406964],"ct":"HU","tp":"CS","ts":"2024-02-28T14:58:10Z","tX":565,"tY":356,"tags":{"name":"Nagybörzsönyi Ifjúsági Tábor","source":"turistautak.hu","source:date":"2014-10-16","url":"http://turistautak.hu/poi.php?id=5380"}},"3454422366":{"location":[47.7897502,18.7325632],"ct":"HU","tp":"CS","ts":"2023-07-10T10:25:23Z","tX":565,"tY":356,"tags":{"addr:city":"Esztergom","addr:housenumber":"4","addr:postcode":"2500","addr:street":"Nagy-Duna sétány","caravans":"yes","description":"http://grancamping-fortanex.hu","fee":"yes","internet_access":"wlan","name":"Gran-Camping & Bungalow","payment:cash":"yes","payment:credit_cards":"yes","phone":"+36 33 311 327","shower":"yes","source":"turistautak.hu","source:date":"2013-01-18","swimming_pool":"outdoor","tents":"yes","toilets":"yes","url":"http://turistautak.hu/poi.php?id=17537"}},"8934907122":{"location":[47.8772761,18.6685761],"ct":"SK","tp":"CS","ts":"2021-07-20T06:10:31Z","tX":565,"tY":356,"tags":{"contact:phone":"+421 948 458 181","name":"Camping K2 Kamenín","opening_hours":"24/7","website":"https://camping-k2-kamenin.business.site/"}},"11906708519":{"location":[47.921105,18.7554784],"ct":"SK","tp":"CS","ts":"2024-09-01T08:03:35Z","tX":565,"tY":356,"tags":{"caravans":"yes","name":"Vizi kemp","phone":"+421 944 066 662","tents":"yes","website":"https://www.vizikemp.sk/"}},"4901080753":{"location":[47.7698419,18.9440721],"ct":"HU","tp":"CS","ts":"2023-09-01T02:27:30Z","tX":565,"tY":356,"tags":{"backcountry":"yes","name":"vadkemping sátrazóhely","operator":"vadkemping","sanitary_dump_station":"no","wheelchair":"limited"}},"6632044701":{"location":[47.8841613,18.9320574],"ct":"HU","tp":"CS","ts":"2020-08-19T13:01:50Z","tX":565,"tY":356,"tags":{}},"10007084500":{"location":[47.803862,18.9703107],"ct":"HU","tp":"CS","ts":"2023-04-30T12:20:46Z","tX":565,"tY":356,"tags":{"caravans":"yes","drinking_water":"yes","name":"Vándorsólyom Kemping","power_supply":"yes","shower":"yes","tents":"yes","toilets":"yes"}},"10712402819":{"location":[47.9665664,18.9652404],"ct":"HU","tp":"CS","ts":"2023-03-05T15:13:19Z","tX":565,"tY":356,"tags":{"source":"survey","survey:date":"2023-03-04"}},"10866804605":{"location":[47.7747812,18.9057679],"ct":"HU","tp":"CS","ts":"2023-05-04T07:23:26Z","tX":565,"tY":356,"tags":{"name":"vízmű vadkemping"}}}