{"103394118":{"location":[47.431527,18.9009162],"ct":"HU","tp":"CS","ts":"2016-06-11T18:02:27Z","tX":565,"tY":358,"tags":{"barrier":"fence","email":"info@fortunacamping.hu","name":"Fortuna camping","phone":"+36 70 589 9091","website":"http://fortunacamping.hu/"}},"183182411":{"location":[47.3947101,18.9364396],"ct":"HU","tp":"CS","ts":"2020-02-13T07:05:45Z","tX":565,"tY":358,"tags":{"barrier":"fence","name":"Camping Flamingo"}},"284905864":{"location":[47.3018005,18.9186751],"ct":"HU","tp":"CS","ts":"2023-12-16T10:25:06Z","tX":565,"tY":358,"tags":{"addr:city":"Százhalombatta","addr:housenumber":"98-100","addr:postcode":"2440","addr:street":"Fogoly utca","leisure":"sports_centre","name":"Csónakház és Ifjúsági Szállás","operator":"Sze-Ba Vendéglátóipari és Szolgáltató Kft."}},"318228735":{"location":[47.5146691,18.9729817],"ct":"HU","tp":"CS","ts":"2023-11-19T01:14:39Z","tX":565,"tY":358,"tags":{"addr:city":"Budapest","addr:housenumber":"3","addr:postcode":"1121","addr:street":"Csermely út","alt_name":"Ave Natura Camping Budapest","caravans":"yes","contact:email":"campingavenatura@gmail.com","contact:mobile":"+36 70 550 7069","contact:phone":"+36 1 200 3470","contact:website":"http://www.campingavenatura.hu/","internet_access":"wlan","internet_access:fee":"no","motorhome":"yes","name":"Ave Natura","opening_hours":"Apr 01-Oct 31","shower":"yes","tents":"yes","toilets":"yes"}},"781648046":{"location":[47.4936679,18.833034],"ct":"HU","tp":"CS","ts":"2020-03-15T23:06:02Z","tX":565,"tY":358,"tags":{"caravans":"no","group_only":"yes","tents":"no"}},"4721171238":{"location":[47.4072993,18.8213148],"ct":"HU","tp":"SD","ts":"2017-04-16T12:37:12Z","tX":565,"tY":358,"tags":{"name":"6 sz. szennyvízátemelő telep","operator":"Érd és Térsége Víziközmű Kft."}}}