{"17769771":{"location":[43.3478818,18.8444652],"ct":"ME","tp":"CS","ts":"2024-06-26T14:21:50Z","tX":565,"tY":374,"tags":{"landuse":"commercial","name":"Blue River Tara"}},"178566956":{"location":[43.3695958,18.7967746],"ct":"BA","tp":"CS","ts":"2023-08-01T00:31:52Z","tX":565,"tY":374,"tags":{}},"713125604":{"location":[43.3699097,18.7011485],"ct":"BA","tp":"CS","ts":"2019-08-12T17:50:09Z","tX":565,"tY":374,"tags":{"name":"Camp Sutjeska"}},"939474577":{"location":[43.3527381,18.8243954],"ct":"BA","tp":"CS","ts":"2023-08-03T13:59:10Z","tX":565,"tY":374,"tags":{}},"1160555899":{"location":[43.3869402,18.7857021],"ct":"BA","tp":"CS","ts":"2023-10-07T19:32:44Z","tX":565,"tY":374,"tags":{}},"1160555922":{"location":[43.3856052,18.7875375],"ct":"BA","tp":"CS","ts":"2023-10-07T19:32:44Z","tX":565,"tY":374,"tags":{}},"1194303933":{"location":[43.3607192,18.8097284],"ct":"BA","tp":"CS","ts":"2024-06-29T17:36:14Z","tX":565,"tY":374,"tags":{"caravans":"yes","name":"Rafting kamp IVONA","tents":"no"}},"1204706619":{"location":[43.5290672,18.7823774],"ct":"BA","tp":"CS","ts":"2023-09-03T15:50:22Z","tX":565,"tY":374,"tags":{"name":"Drina","source":"Seen from road","website":"https://autocampdrina.com/"}},"1296374685":{"location":[43.3479216,18.8444652],"ct":"ME","tp":"CS","ts":"2025-06-02T14:55:10Z","tX":565,"tY":374,"tags":{"caravans":"no","drinking_water":"yes","name":"Blue River Tara","shower":"yes","tents":"yes","toilets":"yes"}},"1832254156":{"location":[43.3431726,18.8418564],"ct":"ME","tp":"CS","ts":"2023-10-28T01:42:16Z","tX":565,"tY":374,"tags":{"alt_name":"Monte Raft Team","name":"Kamp Modra rijeka","name:sr":"Камп Модра ријека","tents":"no","website":"https://monteriver.com/"}},"1912876751":{"location":[43.3541565,18.6891712],"ct":"BA","tp":"CS","ts":"2015-11-11T18:36:21Z","tX":565,"tY":374,"tags":{"name":"Omladinski kamp Tjentište","note":"Reception at Hotel","source":"http://sutjeska.design21th.com/stranica.php?id=67&naziv=smjestaj-u-np-sutjeska&jez=bs","sym":"Campground"}},"1933803153":{"location":[43.3697372,18.7971133],"ct":"BA","tp":"CS","ts":"2023-02-26T15:58:14Z","tX":565,"tY":374,"tags":{"name":"Rafting klub Tara Adventure","phone":"+387 65353301","sport":"rafting","website":"https://www.tararafting.net/"}},"2345390138":{"location":[43.3478144,18.8406233],"ct":"ME","tp":"CS","ts":"2017-07-17T18:51:14Z","tX":565,"tY":374,"tags":{"addr:city":"Pluzine","name":"Camp Šćepan Polje"}},"2345390139":{"location":[43.3641223,18.6973431],"ct":"BA","tp":"CS","ts":"2018-01-23T21:20:09Z","tX":565,"tY":374,"tags":{"addr:place":"Tjentište","name":"Camp Sutjeska-Tjentište","website":"http://npsutjeska.info/sr/omladinski-kamp-tjentiste"}},"2345390140":{"location":[43.3503403,18.9238454],"ct":"ME","tp":"CS","ts":"2021-07-13T19:10:18Z","tX":565,"tY":374,"tags":{"addr:city":"Šćepan Polje","alt_name":"Camp Grab","cabin:rental":"yes","contact:website":"http://www.tara-grab.com/","email":"info@anitra.me","motorcycle_friendly":"customary","name":"Ethno Village and Camp Grab","name:sr":"Etno Celo i Kamp Grab","phone":"+382 69 101 003"}},"2345390142":{"location":[43.3730018,18.7160531],"ct":"BA","tp":"CS","ts":"2020-12-20T14:06:08Z","tX":565,"tY":374,"tags":{"addr:city":"Popov Most","addr:place":"Popov Most","name":"Household Radović"}},"5091145808":{"location":[43.4477987,18.7558548],"ct":"BA","tp":"CS","ts":"2019-06-20T15:08:27Z","tX":565,"tY":374,"tags":{"caravans":"yes","internet_access":"wlan","internet_access:fee":"no","name":"Stari Dud","tents":"yes","wheelchair":"limited"}},"6268287786":{"location":[43.4981352,18.7743342],"ct":"BA","tp":"CS","ts":"2019-10-10T13:18:50Z","tX":565,"tY":374,"tags":{"addr:postcode":"73300","addr:street":"Zubovici bb","name":"Planinarski Dom"}},"6703727909":{"location":[43.3683645,18.7005624],"ct":"BA","tp":"CS","ts":"2019-08-12T17:50:09Z","tX":565,"tY":374,"tags":{"name":"Tentorium"}},"11093802911":{"location":[43.3683102,18.7092407],"ct":"BA","tp":"CS","ts":"2023-08-06T17:47:20Z","tX":565,"tY":374,"tags":{"addr:street":"Popov Most","name":"Camp Maglic","phone":"+38761517637"}},"11589097936":{"location":[43.3640669,18.7097551],"ct":"BA","tp":"CS","ts":"2024-09-09T09:01:07Z","tX":565,"tY":374,"tags":{"access":"private","addr:city":"Tjentiste","addr:place":"Тјентиште","addr:postcode":"73311","capacity:caravans":"10","capacity:persons":"30","capacity:tents":"10","caravans":"yes","cuisine":"regional;coffee_shop","email":"info@outdoortara.com","name":"Outdoor Tara","operator":"Outdoor Tara","phone":"+38766834105","static_caravans":"yes","tents":"yes","website":"https://outdoortara.com/"}},"11591682115":{"location":[43.3644229,18.7101668],"ct":"BA","tp":"CS","ts":"2024-02-11T18:02:31Z","tX":565,"tY":374,"tags":{"access":"private","addr:city":"Tjentiste","addr:place":"Тјентиште","addr:postcode":"73311","caravans":"yes","email":"info@visitsutjeskanationalpark.com","mobile":"+38765387276","name":"Camp Nomad","static_caravans":"yes","tents":"yes","website":"https://visitsutjeskanationalpark.com/"}},"11961160869":{"location":[43.3533428,18.8230524],"ct":"BA","tp":"CS","ts":"2024-06-06T16:18:33Z","tX":565,"tY":374,"tags":{"name":"Rafting Kamp Konak"}}}