{"421585699":{"location":[51.4443239,23.2397522],"ct":"PL","tp":"CS","ts":"2022-08-25T10:39:58Z","tX":578,"tY":340,"tags":{"addr:city":"Urszulin","addr:housenumber":"154","addr:postcode":"22-234","addr:street":"Wytyczno","fee":"yes","name":"Kemping, pole namiotowe","operator":"Nadleśnictwo w Urszulinie"}},"1782815299":{"location":[51.4930876,23.5395148],"ct":"PL","tp":"CS","ts":"2013-12-01T00:31:15Z","tX":578,"tY":340,"tags":{"fax":"+48825648840","name":"HONORiS Okuninka","phone":"+48825648840"}},"1789081263":{"location":[51.4945073,23.5196255],"ct":"PL","tp":"CS","ts":"2022-04-01T18:56:29Z","tX":578,"tY":340,"tags":{"email":"info@astur.com.pl","fax":"+48815324468","fee":"yes","name":"Ośrodek Rehabilitacyjno-Wczasowy Astur","phone":"+48825717037"}},"1789095720":{"location":[51.496921,23.5472463],"ct":"PL","tp":"CR","ts":"2024-05-31T09:02:26Z","tX":578,"tY":340,"tags":{"email":"info@wodnik-okuninka.pl","name":"Ośrodek Wypoczynkowy Wodnik","phone":"+48500336186","power_supply":"yes","tents":"yes","website":"http://www.wodnik-okuninka.pl/"}},"3826282681":{"location":[51.49247,23.5391],"ct":"PL","tp":"CS","ts":"2024-05-31T09:02:26Z","tX":578,"tY":340,"tags":{"addr:city:simc":"0109777","addr:housenumber":"VIII-22","addr:place":"Okuninka","addr:postcode":"22-200","name":"HONORiS pole namiotowe","source:addr":"wlodawa.e-mapa.net"}},"6126930493":{"location":[51.4975037,23.5206097],"ct":"PL","tp":"CS","ts":"2020-01-25T14:49:34Z","tX":578,"tY":340,"tags":{"name":"Pokoje Gościnne. Pole Namiotowe. Sławomir Głogowski"}},"6745878197":{"location":[51.5023921,23.5441783],"ct":"PL","tp":"CS","ts":"2019-08-26T10:54:05Z","tX":578,"tY":340,"tags":{"name":"Ośrodek STER"}}}