{"3716625234":{"location":[42.7512132,47.7149092],"ct":"RU","tp":"CS","ts":"2015-08-27T09:25:29Z","tX":647,"tY":377,"tags":{"name":"База отдыха Виктория"}},"5002686221":{"location":[42.7098231,47.7144678],"ct":"RU","tp":"CS","ts":"2017-08-28T15:21:54Z","tX":647,"tY":377,"tags":{"name":"Санаторий Парус","name:ru":"Санаторий Парус"}},"5002686321":{"location":[42.7099537,47.7160362],"ct":"RU","tp":"CS","ts":"2017-07-30T08:05:55Z","tX":647,"tY":377,"tags":{"name":"Санаторий Родник","name:ru":"Санаторий Родник"}},"5004248422":{"location":[42.7139641,47.7151339],"ct":"RU","tp":"CS","ts":"2017-07-31T05:17:47Z","tX":647,"tY":377,"tags":{"name":"Санаторий Каспиан Марина","name:en":"Sanatori Caspian Marina","name:ru":"Санаторий Каспиан Марина"}},"5004248423":{"location":[42.7183667,47.7148398],"ct":"RU","tp":"CS","ts":"2017-07-31T05:17:51Z","tX":647,"tY":377,"tags":{"name":"Санаторий Кунак","name:ru":"Санаторий Кунак"}},"5004252421":{"location":[42.72214,47.7143695],"ct":"RU","tp":"CS","ts":"2017-07-31T05:17:52Z","tX":647,"tY":377,"tags":{"name":"Санаторий Гудермес","name:ru":"Санаторий Гудермес"}}}