{"3493468571":{"location":[30.5298797,47.8117911],"ct":"IQ","tp":"CS","ts":"2021-10-15T19:24:43Z","tX":647,"tY":420,"tags":{"name":"شركة نفط الجنوب - المكينة","name:ar":"شركة نفط الجنوب- المكينة"}},"4375859089":{"location":[30.7473441,47.6668371],"ct":"IQ","tp":"CS","ts":"2023-12-04T15:39:47Z","tX":647,"tY":420,"tags":{"name":"موقع نهر بن عمر","name:ar":"موقع نهر بن عمر","name:en":"Site of Nahir Bin Omar"}},"4558848610":{"location":[30.4885487,47.6251456],"ct":"IQ","tp":"CS","ts":"2016-12-17T18:20:19Z","tX":647,"tY":420,"tags":{"name":"سكن شركة البلال","name:ar":"سكن شركة البلال","name:en":"ALBILAL CAMP"}},"5339664223":{"location":[30.7321226,47.6856454],"ct":"IQ","tp":"CS","ts":"2018-01-14T21:24:55Z","tX":647,"tY":420,"tags":{"name":"سيطرة عسكرية"}},"5670422924":{"location":[30.7401345,47.6940908],"ct":"IQ","tp":"CS","ts":"2018-06-06T18:54:39Z","tX":647,"tY":420,"tags":{"name":"شمعة"}},"6127498885":{"location":[30.4500277,47.6132879],"ct":"IQ","tp":"CS","ts":"2019-08-23T10:47:47Z","tX":647,"tY":420,"tags":{"internet_access":"wlan","name":"شركة تام الهندسية","name:ar":"تام الهندسية","name:en":"TAAM ENG.","office":"company"}},"6400471887":{"location":[30.6443466,47.6850909],"ct":"IQ","tp":"CS","ts":"2019-04-12T12:19:19Z","tX":647,"tY":420,"tags":{"name":"منتجع النخيل السياحي","name:en":"Nakheel Resort tourism"}},"8309104817":{"location":[30.6603906,47.7616113],"ct":"IQ","tp":"CS","ts":"2021-01-10T18:12:26Z","tX":647,"tY":420,"tags":{"name":"ساحل الحوطة السياحي","name:en":"Sahil alhota alseahi"}},"10911174705":{"location":[30.6467471,47.7492325],"ct":"IQ","tp":"CS","ts":"2023-05-19T10:40:51Z","tX":647,"tY":420,"tags":{"name":"كريم لفتة"}},"11292435469":{"location":[30.6931423,47.7350635],"ct":"IQ","tp":"CS","ts":"2023-10-27T04:55:32Z","tX":647,"tY":420,"tags":{"name":"ابوصالح علي"}},"11947651670":{"location":[30.5743171,47.7783929],"ct":"IQ","tp":"CS","ts":"2024-05-31T11:24:20Z","tX":647,"tY":420,"tags":{"addr:street":"جسر خالد بن الوليد","opening_hours":"24/7"}},"6265676186":{"location":[30.6754667,47.8105585],"ct":"IQ","tp":"CR","ts":"2019-02-08T11:29:25Z","tX":647,"tY":420,"tags":{"name":"الطعاني"}},"7091104087":{"location":[30.6551673,47.7457877],"ct":"IQ","tp":"CR","ts":"2019-12-28T18:17:45Z","tX":647,"tY":420,"tags":{"name":"احمد ابراهيم","name:en":"Ahmmed Ibrahim"}},"8395083418":{"location":[30.5788397,47.5981015],"ct":"IQ","tp":"CR","ts":"2021-02-04T20:25:03Z","tX":647,"tY":420,"tags":{}},"8598570317":{"location":[30.6561572,47.7435667],"ct":"IQ","tp":"CR","ts":"2021-04-06T09:50:23Z","tX":647,"tY":420,"tags":{"internet_access":"wlan","name":"احمد البدران"}},"10591717905":{"location":[30.5732148,47.7348523],"ct":"IQ","tp":"CR","ts":"2023-01-29T14:42:25Z","tX":647,"tY":420,"tags":{"addr:street":"جسر كرمة علي","name":"صالح سالم ابو مصطفى"}},"10601100206":{"location":[30.5742494,47.7350222],"ct":"IQ","tp":"CR","ts":"2023-02-02T11:44:05Z","tX":647,"tY":420,"tags":{"addr:street":"جسر كرمة علي","name":"عليِ غانم"}},"11430062169":{"location":[30.5951393,47.7377601],"ct":"IQ","tp":"CR","ts":"2023-12-18T22:39:58Z","tX":647,"tY":420,"tags":{"name":"منير صبري"}},"11627171572":{"location":[30.7251833,47.7136739],"ct":"IQ","tp":"CR","ts":"2024-02-15T15:19:56Z","tX":647,"tY":420,"tags":{"addr:housenumber":"07719794640","addr:street":"مسجد السيدة الزهراء  بيت حجي علي السلوم","name:ar":"بيت حجي علي السلوم","phone":"07719794640"}},"11992315570":{"location":[30.4624726,47.7933678],"ct":"IQ","tp":"CR","ts":"2024-06-19T15:35:07Z","tX":647,"tY":420,"tags":{}}}