{"512253170":{"location":[30.3454459,47.7076805],"ct":"IQ","tp":"CS","ts":"2023-05-21T21:11:54Z","tX":647,"tY":421,"tags":{}},"854184247":{"location":[30.4409592,47.7719614],"ct":"IQ","tp":"CS","ts":"2020-10-02T11:07:04Z","tX":647,"tY":421,"tags":{}},"4317959789":{"location":[30.4464929,47.4824982],"ct":"IQ","tp":"CS","ts":"2016-07-24T08:15:00Z","tX":647,"tY":421,"tags":{"internet_access":"wlan","name":"Altcom Road Building L.L.C","name:ar":"التكوم","name:uk":"Альтом"}},"4329917297":{"location":[30.3831211,47.5999003],"ct":"IQ","tp":"CS","ts":"2018-03-01T18:48:14Z","tX":647,"tY":421,"tags":{"name":"المخيم الماليزي","name:ar":"المخيم الماليزي"}},"4393297495":{"location":[30.3556945,47.7381151],"ct":"IQ","tp":"CS","ts":"2016-09-09T11:36:28Z","tX":647,"tY":421,"tags":{"addr:street":"طريق ام قصر- خور الزبير -الزبير- البصرة","internet_access":"wlan","name":"دور الدواجن","name:ar":"دور الدواجن"}},"4414672091":{"location":[30.3526815,47.7276677],"ct":"IQ","tp":"CS","ts":"2023-05-21T21:11:54Z","tX":647,"tY":421,"tags":{"addr:street":"طريق ام قصر -سفوان -خور الزبير","name":"بانزين خانة","name:ar":"بانزين خانة","name:en":"Al-Dahy Gas Station","opening_hours":"24/7"}},"4502644490":{"location":[30.3887878,47.584881],"ct":"IQ","tp":"CS","ts":"2019-10-30T16:37:27Z","tX":647,"tY":421,"tags":{"addr:street":"شارع الشركات","name":"شركه المجال","name:ar":"شركه المجال","name:en":"Al-Majal Business Park"}},"4733192622":{"location":[30.4146279,47.5150112],"ct":"IQ","tp":"CS","ts":"2017-03-14T01:55:52Z","tX":647,"tY":421,"tags":{"name:en":"Aegis"}},"4769947121":{"location":[30.3834314,47.5995078],"ct":"IQ","tp":"CS","ts":"2018-10-27T12:29:51Z","tX":647,"tY":421,"tags":{"name":"سكن شركة الحفر العراقية","name:ar":"مخيم شركة الحفر العراقية"}},"4786900222":{"location":[30.3955721,47.568164],"ct":"IQ","tp":"CS","ts":"2018-03-01T18:48:18Z","tX":647,"tY":421,"tags":{"name":"Haliburton","name:ar":"Haliburton","name:en":"Haliburton"}},"4828058825":{"location":[30.4146246,47.5150317],"ct":"IQ","tp":"CS","ts":"2017-05-01T04:34:59Z","tX":647,"tY":421,"tags":{"name:en":"Aegis"}},"5094009724":{"location":[30.320314,47.6996959],"ct":"IQ","tp":"CS","ts":"2017-09-10T07:52:01Z","tX":647,"tY":421,"tags":{"name":"137 Куќа","name:ar":"137 Куќа"}},"5359289524":{"location":[30.3518698,47.6300498],"ct":"IQ","tp":"CS","ts":"2018-03-01T18:48:25Z","tX":647,"tY":421,"tags":{"addr:city":"البصرة","addr:country":"IQ","name":"مخيم شركة كرين ري","name:ar":"مخيم شركة كرين ري"}},"5514917424":{"location":[30.3315261,47.5847114],"ct":"IQ","tp":"CS","ts":"2018-03-29T19:29:27Z","tX":647,"tY":421,"tags":{"name":"مخيم غرب الزبير"}},"7106773185":{"location":[30.1794558,47.68777],"ct":"IQ","tp":"CS","ts":"2020-01-04T13:19:51Z","tX":647,"tY":421,"tags":{"name":"مدخل للسفرات"}},"7131380585":{"location":[30.3394016,47.6266897],"ct":"IQ","tp":"CS","ts":"2021-05-17T04:00:21Z","tX":647,"tY":421,"tags":{"name":"الكمب الايطالي"}},"9529221317":{"location":[30.4059353,47.534084],"ct":"IQ","tp":"CS","ts":"2022-02-23T08:32:04Z","tX":647,"tY":421,"tags":{"name":"مير"}},"11012214914":{"location":[30.2800017,47.6695249],"ct":"IQ","tp":"CS","ts":"2023-06-28T12:02:55Z","tX":647,"tY":421,"tags":{"name":"مزرعة (انور)"}},"11889707269":{"location":[30.3894133,47.6799663],"ct":"IQ","tp":"CS","ts":"2024-05-08T19:34:37Z","tX":647,"tY":421,"tags":{"name":"معسكر عكة"}},"10558502009":{"location":[30.3856012,47.7269876],"ct":"IQ","tp":"CR","ts":"2023-01-16T01:22:43Z","tX":647,"tY":421,"tags":{"addr:street":"شارع حي العسكري","email":"haideraaaaa22222@gmail.com"}}}