{"966172476":{"location":[43.1135166,-9.0295043],"ct":"ES","tp":"CR","ts":"2024-05-05T14:43:27Z","tX":486,"tY":375,"tags":{"access":"yes","addr:city":"Vimianzo","addr:housenumber":"54","addr:postcode":"15129","addr:street":"Rúa Trasariz","capacity":"11","caravan_site":"motorhome_stopover","caravan_site:type":"town;castle","covered":"no","drinking_water":"yes","fee":"no","internet_access":"no","maxstay":"72 hours","name":"Área de Autocaravanas de Vimianzo","operator":"Ayuntamiento de Salceda de Caselas","power_supply":"no","sanitary_dump_station":"yes","sanitary_dump_station:chemical_toilet":"yes","sanitary_dump_station:grey_water":"yes","sanitary_dump_station:round_drain":"yes","supervised":"no","surface":"asphalt","water_point":"yes"}},"966176658":{"location":[43.2461849,-8.8917298],"ct":"ES","tp":"CR","ts":"2024-05-05T14:52:07Z","tX":486,"tY":375,"tags":{"access":"yes","addr:city":"Salceda de Ponteceso","addr:postcode":"15110","addr:street":"Avenida de Bergantiños","capacity":"7","covered":"no","drinking_water":"yes","fee":"no","name":"Área de Autocaravanas de Ponteceso","operator":"Concello de Ponteceso","power_supply":"no","sanitary_dump_station":"yes","sanitary_dump_station:chemical_toilet":"yes","sanitary_dump_station:grey_water":"yes","sanitary_dump_station:round_drain":"yes","supervised":"no","surface":"asphalt","water_point":"yes","website":"https://www.turismo.gal/recurso/-/detalle/160720000089/area-de-ponteceso"}},"1151061165":{"location":[43.295906,-8.8111515],"ct":"ES","tp":"CS","ts":"2023-03-03T20:52:31Z","tX":486,"tY":375,"tags":{"addr:city":"Malpica de Bergantiños","addr:postcode":"15113","bbq":"yes","cabins":"yes","capacity:pitches":"146","caravans":"yes","dog":"yes","fee":"yes","internet_access":"wlan","name":"Camping Sisargas","phone":"+34 981 72 17 02","playground":"yes","power_supply":"yes","shower":"yes","swimming_pool":"yes","tents":"yes","toilets":"yes","website":"https://campingsisargas.com"}},"1192695802":{"location":[43.1134562,-9.0360274],"ct":"ES","tp":"CR","ts":"2023-07-27T16:03:13Z","tX":486,"tY":375,"tags":{"addr:city":"Vimianzo","addr:postcode":"15129","addr:street":"Rúa Trasariz","brand":"eroski","brand:wikidata":"Q1361349","internet_access":"no","opening_hours":"Mo-Sa 09:00-21:00; Su off","operator":"Eroski","power_supply":"yes","sanitary_dump_station":"yes","water_point":"yes","wheelchair":"yes"}},"1279878883":{"location":[43.2683123,-8.9560424],"ct":"ES","tp":"CR","ts":"2024-05-16T19:53:18Z","tX":486,"tY":375,"tags":{"capacity":"5","caravan_site":"motorhome_stopover","caravan_site:type":"harbour","maxstay":"72 hours","name":"Área de Autocaravanas de Corme Porto","note":"power may not work yet","opening_hours":"24/7","parking:fee":"no","power_supply":"yes","sanitary_dump_station":"yes","water_supply":"yes"}},"8938674910":{"location":[43.1137358,-9.0293597],"ct":"ES","tp":"SD","ts":"2023-07-19T10:20:36Z","tX":486,"tY":375,"tags":{"access":"yes","description":"Estación de baleirado de tanque para autocaravanas","description:en":"ank emptying station for motorhomes","description:fr":"Station de vidange pour Camping-car.","fee":"no","operator":"Concello de Vimianzo","sanitary_dump_station":"public","sanitary_dump_station:chemical_toilet":"yes","sanitary_dump_station:fee":"no","sanitary_dump_station:gravity":"yes","sanitary_dump_station:grey_water":"yes","sanitary_dump_station:round_drain":"yes","sanitary_dump_station:suction":"no","water_point":"yes"}},"8938716770":{"location":[43.2683856,-8.9562358],"ct":"ES","tp":"SD","ts":"2024-05-16T19:53:18Z","tX":486,"tY":375,"tags":{"access":"yes","fee":"no","operator":"Concello de Ponteceso","sanitary_dump_station":"public","sanitary_dump_station:chemical_toilet":"yes","sanitary_dump_station:fee":"no","sanitary_dump_station:gravity":"yes","sanitary_dump_station:grey_water":"yes","sanitary_dump_station:round_drain":"yes","sanitary_dump_station:suction":"no","water_point":"yes"}},"8938737922":{"location":[43.2462806,-8.8916336],"ct":"ES","tp":"SD","ts":"2024-05-05T11:22:15Z","tX":486,"tY":375,"tags":{"access":"yes","caravan_site":"motorhome_stopover","caravan_site:type":"museum","fee":"no","name":"Área de Ponteceso","operator":"Ayuntamiento de Ponteceso","sanitary_dump_station":"public","sanitary_dump_station:chemical_toilet":"yes","sanitary_dump_station:fee":"no","sanitary_dump_station:gravity":"yes","sanitary_dump_station:grey_water":"yes","sanitary_dump_station:round_drain":"yes","sanitary_dump_station:suction":"no","water_point":"yes"}}}