{"679340953":{"location":[42.9346387,-8.9908249],"ct":"ES","tp":"CR","ts":"2024-05-05T14:24:32Z","tX":486,"tY":376,"tags":{"caravan_site":"motorhome_stopover","caravan_site:type":"village","fee":"no","name":"Área de Autocaravanas da Picota (Mazaricos)","power_supply":"yes","sanitary_dump_station":"yes","surface":"asphalt","tents":"no","water_point":"yes","website":"https://www.turismo.gal/recurso/-/detalle/160524000081/area-de-mazaricos"}},"966170205":{"location":[43.0328869,-9.1034045],"ct":"ES","tp":"CR","ts":"2024-05-05T14:33:24Z","tX":486,"tY":376,"tags":{"access":"yes","addr:city":"Berdeogas","addr:postcode":"15151","addr:street":"AC-442","capacity":"10","caravan_site":"motorhome_stopover","caravan_site:type":"hamlet","covered":"no","drinking_water":"yes","fee":"no","maxstay":"72 hours","name":"Área de Autocaravanas de Berdeogas","operator":"Concello de Dumbría","power_supply":"no","sanitary_dump_station":"yes","sanitary_dump_station:chemical_toilet":"yes","sanitary_dump_station:grey_water":"yes","sanitary_dump_station:round_drain":"yes","supervised":"no","surface":"grass","water_point":"yes"}},"1020379967":{"location":[42.8542679,-9.071758],"ct":"ES","tp":"CS","ts":"2023-03-03T08:26:38Z","tX":486,"tY":376,"tags":{"access":"customers","addr:city":"Louredo","addr:housenumber":"102","addr:postcode":"15295","addr:street":"Lugar Louredo","cabins":"only","caravans":"no","dog":"yes","email":"info@nidosdecarnota.com","fee":"yes","internet_access":"wlan","internet_access:fee":"no","name":"Nidos de Carnota","operator":"Nidos de Carnota","phone":"+34 644 30 73 84","sanitary_dump_station":"no","tents":"no","website":"https://www.nidosdecarnota.com/"}},"8514919307":{"location":[43.0034898,-8.9636663],"ct":"ES","tp":"CS","ts":"2025-05-10T15:19:57Z","tX":486,"tY":376,"tags":{"caravans":"yes","drinking_water":"yes","name":"Campamento Turístico Santa María de Brandoñas","power_supply":"yes","sanitary_dump_station":"yes","shower":"yes","tents":"yes","toilets":"yes","wheelchair":"yes"}},"8021643988":{"location":[42.8409878,-9.0958802],"ct":"ES","tp":"CR","ts":"2025-05-12T15:34:04Z","tX":486,"tY":376,"tags":{"caravan_site":"motorhome_stopover","caravan_site:type":"sports_centre","fee":"no","internet_access":"no","lit":"no","name":"Área de Autocaravanas de Carnota","picnic_area":"yes","playground":"yes","power_supply":"no","sanitary_dump_station":"yes","toilets":"no","water_point":"yes","website":"https://www.turismo.gal/recurso/-/detalle/280382414/area-de-carnota-","wheelchair":"yes"}},"8938650005":{"location":[43.033152,-9.1033237],"ct":"ES","tp":"SD","ts":"2024-05-05T14:33:24Z","tX":486,"tY":376,"tags":{"access":"yes","fee":"no","motorhome":"designated","operator":"Concello de Dumbría","sanitary_dump_station":"public","sanitary_dump_station:chemical_toilet":"yes","sanitary_dump_station:fee":"no","sanitary_dump_station:gravity":"yes","sanitary_dump_station:grey_water":"yes","sanitary_dump_station:round_drain":"yes","sanitary_dump_station:suction":"no","water_point":"yes"}}}