{"149507985":{"location":[42.5876656,-8.9248297],"ct":"ES","tp":"CS","ts":"2023-02-28T22:09:15Z","tX":486,"tY":377,"tags":{"addr:city":"A Pobra do Caramiñal","alt_name":"Camping Cabío","cabins":"yes","caravans":"yes","dog":"yes","email":"playa@campingriadearosa.com","internet_access":"wlan","internet_access:fee":"no","name":"Camping Ría de Arousa","name:es":"Camping Ría de Arosa","name:gl":"Camping Ría de Arousa","phone":"+34 981 831 305","playground":"yes","power_supply":"yes","restaurant":"yes","shower":"yes","tents":"yes","toilets":"yes","website":"https://playa.campingriadearousa.com/inicio/"}},"181313057":{"location":[42.7623598,-9.0733379],"ct":"ES","tp":"CS","ts":"2024-08-09T13:16:22Z","tX":486,"tY":377,"tags":{"cabins":"yes","email":"contacto@campingsanfrancisco.com","internet_access":"yes","internet_access:fee":"no","name":"Camping San Francisco","payment:cash":"yes","payment:mastercard":"yes","payment:visa":"yes","phone":"+34 981 82 61 48","power_supply":"yes","restaurant":"yes","sanitary_dump_station":"yes","shower":"hot","toilets":"yes","website":"https://www.campingsanfrancisco.com/","wheelchair":"yes"}},"229526988":{"location":[42.7569419,-9.1107676],"ct":"ES","tp":"CS","ts":"2023-07-09T13:05:07Z","tX":486,"tY":377,"tags":{"addr:city":"Louro","addr:housenumber":"6","addr:postcode":"15291","addr:street":"O Ancoradoiro","caravans":"yes","description":"El Camping Ancoradoiro está construido dentro del pinar familiar conocido como \"Pinar de los Portals\". Nuestros antepasados llegaron a Galicia desde Cataluña a principios de 1800 para dedicarse a la salazón de sardina creando una sociedad empresarial","fee":"yes","mobile":"+34 659 600861","motorhome":"yes","name":"Camping Ancoradoiro","payment:cash":"yes","payment:credit_cards":"yes","payment:debit_cards":"yes","phone":"+34 98 187 88 97","shower":"yes","tents":"yes","toilets":"yes","website":"http://www.campingancoradoiro.com/"}},"290007416":{"location":[42.7607693,-9.0614081],"ct":"ES","tp":"CS","ts":"2024-02-10T11:57:16Z","tX":486,"tY":377,"tags":{"access":"customers","addr:city":"Muros","addr:full":"Estrada Cee-Ribeira km. 3","addr:postcode":"15291","cabins":"no","capacity":"68","caravans":"yes","charge":"24 EUR (temporada baja )38EUR (temporada alta)","contact:facebook":"https://www.facebook.com/campingvouga/","description":"Camping pequeño, tranquilo a pie de playa","dog":"yes","email":"avouga@hotmail.es","fee":"yes","internet_access":"yes","internet_access:fee":"no","internet_access:ssid":"avouga","name":"Cámping da Vouga","opening_hours":"Mo-Su 09:00-21:00; Oct 15-Mar 15: off","payment:cash":"yes","payment:credit_cards":"yes","payment:maestro":"yes","payment:mastercard":"yes","payment:paypal":"yes","payment:visa":"yes","phone":"+34682285203","power_supply":"yes","reservation":"yes","sanitary_dump_station":"yes","shower":"yes","stars":"2","tents":"yes","toilets":"yes","website":"campingvouga.com","wheelchair":"limited"}},"440072588":{"location":[42.5862228,-9.0578999],"ct":"ES","tp":"CS","ts":"2017-08-31T11:25:58Z","tX":486,"tY":377,"tags":{"name":"Camping Valverde"}},"549744340":{"location":[42.7333966,-8.9908808],"ct":"ES","tp":"CS","ts":"2023-03-02T17:32:56Z","tX":486,"tY":377,"tags":{"addr:city":"Porto do Son","addr:postcode":"15970","cabins":"yes","cafe":"yes","caravans":"yes","email":"campingcabeiro@gmail.com","fee":"yes","name":"Camping Cabeiro","phone":"+34 981 76 73 55","power_supply":"yes","restaurant":"yes","shower":"yes","tents":"yes","toilets":"yes","website":"http://www.campingcabeiro.es"}},"565130574":{"location":[42.5697414,-8.9711154],"ct":"ES","tp":"CS","ts":"2023-02-28T22:31:57Z","tX":486,"tY":377,"tags":{"addr:city":"Palmeira-Riveira","addr:housenumber":"61","addr:postcode":"15950","addr:street":"Playa de Coroso","alt_name":"Camping de Coroso","cabins":"yes","caravans":"yes","dog":"yes","email":"info@campingcoroso.com","fee":"yes","name":"Coroso","nohousenumber":"yes","phone":"+34 981 83 80 02","power_supply":"yes","shower":"hot","tents":"yes","toilets":"yes","website":"https://www.campingcoroso.com"}},"728751055":{"location":[42.620934,-8.9865014],"ct":"ES","tp":"CS","ts":"2024-08-03T11:15:41Z","tX":486,"tY":377,"tags":{"name":"Camping Rural Ria de Arosa 2","phone":"+34 981 865 911","survey:date":"2024-08-03","website":"https://rural.campingriadearousa.com"}},"764123651":{"location":[42.6372748,-9.0339321],"ct":"ES","tp":"CS","ts":"2020-01-17T10:06:07Z","tX":486,"tY":377,"tags":{"barrier":"fence","name":"Camping Fraga Balada"}},"926892826":{"location":[42.6328202,-8.8529776],"ct":"ES","tp":"CR","ts":"2021-04-06T22:01:52Z","tX":486,"tY":377,"tags":{"internet_access":"no","power_supply":"no","sanitary_dump_station":"yes"}},"959880877":{"location":[42.6418184,-8.8968349],"ct":"ES","tp":"CR","ts":"2021-06-30T21:06:46Z","tX":486,"tY":377,"tags":{"addr:city":"Boiro","operator":"Concello de Boiro"}},"1042443526":{"location":[42.5546601,-8.8337756],"ct":"ES","tp":"CS","ts":"2023-02-28T15:59:03Z","tX":486,"tY":377,"tags":{"addr:city":"Vilanova de Arousa","addr:postcode":"36620","addr:street":"O Terrón","cabins":"yes","caravans":"yes","email":"info@campingelterron.com","fee":"yes","name":"O Terrón","phone":"+34 986554394","power_supply":"yes","shower":"yes","tents":"yes","toilets":"yes","website":"https://www.campingelterron.com"}},"1042443531":{"location":[42.5534492,-8.8352458],"ct":"ES","tp":"CS","ts":"2022-03-21T21:47:56Z","tX":486,"tY":377,"tags":{}},"1042443554":{"location":[42.559036,-8.8336078],"ct":"ES","tp":"CS","ts":"2022-03-21T21:47:56Z","tX":486,"tY":377,"tags":{}},"1150232712":{"location":[42.6409016,-8.8832519],"ct":"ES","tp":"CS","ts":"2023-02-28T18:16:34Z","tX":486,"tY":377,"tags":{"addr:city":"Boiro","addr:housenumber":"6","addr:postcode":"15930","addr:street":"Rúa das Traballadoras do Mar","cabins":"yes","caravans":"yes","dog":"leashed","email":"info@campingbarrana.com","fee":"yes","internet_access":"wlan","internet_access:fee":"no","name":"Camping Barraña","payment:cash":"yes","payment:mastercard":"yes","payment:visa":"yes","phone":"+34 981 84 76 13","playground":"yes","power_supply":"yes","restaurant":"yes","shower":"hot","tents":"yes","toilets":"yes","washing_machine":"yes","website":"https://campingbarrana.com","wheelchair":"yes"}},"1150260348":{"location":[42.6421784,-8.8064504],"ct":"ES","tp":"CS","ts":"2024-07-11T19:33:10Z","tX":486,"tY":377,"tags":{"access":"customers","name":"Camping Rianxo"}},"1150676179":{"location":[42.6888169,-9.0221979],"ct":"ES","tp":"CS","ts":"2023-03-02T16:43:44Z","tX":486,"tY":377,"tags":{"contact:facebook":"https://www.facebook.com/campingoscastros/","fee":"yes","name":"Camping Os Castros"}},"1150767865":{"location":[42.7711728,-8.9385902],"ct":"ES","tp":"CS","ts":"2023-03-02T21:01:54Z","tX":486,"tY":377,"tags":{"addr:city":"Porto do Son","cabins":"yes","caravans":"yes","internet_access":"wlan","name":"Camping Punta Batuda","phone":"+34 981 766542","power_supply":"yes","restaurant":"yes","sanitary_dump_station":"yes","tents":"yes","website":"http://puntabatuda.com/"}},"1197000112":{"location":[42.759651,-9.1083405],"ct":"ES","tp":"CR","ts":"2024-08-09T13:16:22Z","tX":486,"tY":377,"tags":{"addr:city":"O Ancoradoiro","addr:postcode":"15291","addr:street":"Pista do Punta do Rostro","internet_access":"no","name":"Área de Autocaravanas do Ancoradoiro","nohousenumber":"yes","power_supply":"no","sanitary_dump_station":"no"}},"4189753193":{"location":[42.5802494,-8.9604505],"ct":"ES","tp":"CR","ts":"2016-05-16T14:43:40Z","tX":486,"tY":377,"tags":{}},"4417977856":{"location":[42.6581855,-8.8845344],"ct":"ES","tp":"CS","ts":"2016-09-25T18:34:26Z","tX":486,"tY":377,"tags":{"addr:city":"Boiro"}},"11148063153":{"location":[42.802824,-8.9297333],"ct":"ES","tp":"CR","ts":"2023-08-27T10:55:48Z","tX":486,"tY":377,"tags":{"name":"Parque da praia de Broña","power_supply":"yes","sanitary_dump_station":"yes"}}}