{"61410107":{"location":[42.4831051,-8.8917543],"ct":"ES","tp":"CS","ts":"2023-11-09T06:19:53Z","tX":486,"tY":378,"tags":{"addr:country":"ES","addr:postcode":"36989","cabins":"yes","caravans":"yes","dog":"yes","email":"campgingmoreiras@campgingmoreiras.com","name":"Camping Moreiras","phone":"+34 986 731691","shower":"yes","tents":"yes","toilets":"yes","washing_machine":"yes","website":"https://www.campingmoreiras.com/"}},"61422696":{"location":[42.3994167,-8.8535998],"ct":"ES","tp":"CS","ts":"2019-06-25T09:57:57Z","tX":486,"tY":378,"tags":{"name":"Camping Montalbo Praia","url":"http://www.telefonica.net/web2/campingmontalvo/"}},"174889794":{"location":[42.4008068,-8.8258322],"ct":"ES","tp":"CS","ts":"2023-02-28T13:19:25Z","tX":486,"tY":378,"tags":{"addr:city":"Portonovo","addr:postcode":"36970","bbq":"yes","cabins":"yes","cafe":"yes","caravans":"yes","charging_station":"yes","defibrillator":"yes","email":"info@campingbaltar.com","fee":"yes","internet_access":"wlan","internet_access:fee":"no","name":"Camping Baltar","phone":"+34 986 691 888","playground":"yes","power_supply":"yes","restaurant":"yes","sanitary_dump_station":"yes","shower":"yes","tents":"yes","toilets":"yes","website":"https://www.campingbaltar.com","wheelchair":"yes"}},"174889810":{"location":[42.3930281,-8.8450644],"ct":"ES","tp":"CS","ts":"2023-02-26T13:13:48Z","tX":486,"tY":378,"tags":{"bbq":"yes","cabins":"yes","caravans":"yes","dog":"yes","internet_access":"wlan","internet_access:fee":"no","name":"Camping Paxariñas","phone":"+34 986 723 055","playground":"yes","power_supply":"yes","swimming_pool":"yes","tents":"yes","washing_machine":"yes","website":"https://campingpaxarinas.com"}},"197464129":{"location":[42.4004517,-8.8505855],"ct":"ES","tp":"CS","ts":"2019-06-25T09:57:57Z","tX":486,"tY":378,"tags":{"name":"Camping Montalbo"}},"197464130":{"location":[42.4014653,-8.8518228],"ct":"ES","tp":"CS","ts":"2023-02-26T14:55:12Z","tX":486,"tY":378,"tags":{"caravans":"yes","dog":"yes","email":"campingriasbaixas@gmail.com","fee":"yes","name":"Rias Baixas","phone":"+34 986 690015","power_supply":"yes","swimming_pool":"yes","tents":"yes","washing_machine":"yes","website":"https://www.campingriasbaixas.com"}},"235223485":{"location":[42.5340674,-8.8683689],"ct":"ES","tp":"CS","ts":"2023-02-28T13:40:19Z","tX":486,"tY":378,"tags":{"addr:city":"A Illa de Arousa","addr:postcode":"36626","barrier":"wall","bbq":"yes","cabins":"yes","caravans":"yes","description":"Situado en uno de los parajes más extraordinarios de la costa gallega, y con una ubicación única en su género, el Camping Salinas le ofrece para sus vacaciones unas instalaciones constantemente actualizadas y acordes con su categoría.","dog":"yes","email":"info@salinascamping.com","name":"Camping Salinas","phone":"+34 628465853;+34 676638241;+34 986527444","playground":"yes","power_supply":"yes","shower":"yes","tents":"yes","toilets":"yes","website":"https://salinascamping.com/"}},"293234958":{"location":[42.4540358,-8.9264697],"ct":"ES","tp":"CS","ts":"2023-02-27T19:46:41Z","tX":486,"tY":378,"tags":{"addr:city":"O Grove","caravans":"yes","dog":"yes","email":"info@campingsiglo21.com","fee":"yes","internet_access":"wlan","internet_access:fee":"no","name":"Siglo XXI","phone":"+34 986 738 100","playground":"yes","power_supply":"yes","sanitary_dump_station":"customers","shower":"hot","swimming_pool":"yes","tents":"yes","toilets":"yes","washing_machine":"yes","website":"https://campingsiglo21.com"}},"294291019":{"location":[42.4745816,-8.9237868],"ct":"ES","tp":"CS","ts":"2023-02-27T20:32:57Z","tX":486,"tY":378,"tags":{"bbq":"yes","capacity:cabins":"22","capacity:pitches":"171","email":"info@campingplayapaisaxe.com","fee":"yes","internet_access":"wlan","name":"Praia Paisaxe II","name:es":"Playa Paisaxe II","name:gl":"Praia Paisaxe II","phone":"+34 986 738 331","playground":"yes","sanitary_dump_station":"yes","shower":"hot","source":"PNOA","source:date":"2017","swimming_pool":"yes","toilets":"yes","washing_machine":"yes","website":"http://www.campingplayapaisaxe.com/o_grove/en/campsite-o-grove/","wheelchair":"yes"}},"294804216":{"location":[42.4629343,-8.9197389],"ct":"ES","tp":"CS","ts":"2024-01-10T10:58:55Z","tX":486,"tY":378,"tags":{"addr:city":"O Grove","addr:postcode":"36988","cabins":"no","caravans":"yes","dog":"yes","email":"info@campingoespino.com","fee":"yes","internet_access":"wlan","internet_access:fee":"no","name":"Camping O Espiño","phone":"+34 986 73 80 48","power_supply":"yes","shower":"hot","tents":"yes","toilets":"customers","website":"https://www.campingoespino.com/","wheelchair":"yes"}},"400448217":{"location":[42.3766832,-8.9378421],"ct":"ES","tp":"CS","ts":"2023-02-27T20:55:56Z","tX":486,"tY":378,"tags":{"barrier":"fence","cafe":"yes","caravans":"no","device_charging_station":"yes","name":"Camping Isla de Ons","playground":"yes","shower":"yes","tents":"yes","toilets":"yes","washing_machine":"yes","website":"https://www.campingisladeons.com/"}},"407548490":{"location":[42.4661563,-8.9085486],"ct":"ES","tp":"CS","ts":"2023-02-26T17:36:15Z","tX":486,"tY":378,"tags":{"addr:city":"O Grove","addr:housenumber":"62","addr:street":"Balea Marítima","cabins":"yes","fee":"yes","name":"Camping Sol y Mar","phone":"+34 986 738 136","smoking":"no","website":"https://campingsolymar.es"}},"407548495":{"location":[42.4597982,-8.8939912],"ct":"ES","tp":"CS","ts":"2024-01-10T12:17:02Z","tX":486,"tY":378,"tags":{"bbq":"yes","caravans":"yes","dog":"yes","email":"info@campingmuineira.es","name":"Camping Muiñeira","payment:cash":"yes","payment:mastercard":"yes","payment:visa":"yes","phone":"+34 608 987 450","power_supply":"yes","shower":"hot","tents":"yes","toilets":"customers","washing_machine":"yes","website":"https://www.campingmuineira.es","wheelchair":"yes"}},"514499615":{"location":[42.4651921,-8.9101788],"ct":"ES","tp":"CS","ts":"2023-02-26T17:55:32Z","tX":486,"tY":378,"tags":{"addr:city":"O Grove","cabins":"yes","caravans":"yes","dog":"yes","fee":"yes","name":"Camping O Curro","phone":"+34 986 73 80 60","power_supply":"yes","swimming_pool":"yes","tents":"yes","washing_machine":"yes","website":"https://www.campingocurro.com"}},"618345135":{"location":[42.3637581,-8.9385485],"ct":"ES","tp":"CS","ts":"2023-06-05T12:24:59Z","tX":486,"tY":378,"tags":{"name":"Campamento Xuvenil de Pereiró"}},"626501081":{"location":[42.535606,-8.8683833],"ct":"ES","tp":"CR","ts":"2024-02-16T18:05:42Z","tX":486,"tY":378,"tags":{"fee":"yes","name":"O Agro de Con Cerrado","power_supply":"yes","sanitary_dump_station":"yes","surface":"grass","water_point":"yes"}},"633460162":{"location":[42.5524114,-8.8354416],"ct":"ES","tp":"CS","ts":"2022-03-21T21:47:56Z","tX":486,"tY":378,"tags":{"name":"Camping Santos","phone":"+34 986 55 50 55"}},"633468718":{"location":[42.5525159,-8.8318744],"ct":"ES","tp":"CS","ts":"2023-02-28T14:19:37Z","tX":486,"tY":378,"tags":{"addr:city":"Vilanova de Arousa","addr:housenumber":"12","addr:postcode":"36620","addr:street":"Playa de Teron","cabins":"yes","caravans":"yes","email":"h_arcoiris@hotmail.com","fee":"yes","name":"Arco Iris","payment:cash":"yes","payment:mastercard":"yes","payment:visa":"yes","shower":"hot","stars":"2","swimming_pool":"yes","tents":"yes","toilets":"yes","website":"http://www.arcoirisweb.net/camping.html"}},"816280495":{"location":[42.5386012,-8.8695118],"ct":"ES","tp":"CS","ts":"2023-06-07T14:45:57Z","tX":486,"tY":378,"tags":{"addr:city":"A Illa de Arousa","barrier":"wall","bbq":"yes","cabins":"yes","caravans":"yes","dog":"no","email":"eledencampingplaya@yahoo.es","hot_water":"yes","name":"El Edén","phone":"+34 986 527 378;+34 986 683 479","playground":"yes","power_supply":"yes","shower":"yes","tents":"yes","toilets":"yes","washing_machine":"yes","website":"https://eledencampingplaya.com"}},"1052123343":{"location":[42.5471161,-8.8585889],"ct":"ES","tp":"CR","ts":"2024-02-16T18:05:42Z","tX":486,"tY":378,"tags":{"access":"yes","addr:city":"Pontevedra","addr:postcode":"36002","addr:street":"Avenida de Travesía Seara","camping_behaviour":"no","capacity":"14","covered":"no","description":"Área de autocaravanas.","description:fr":"aire de stationnement pour camping-car. Pour stationnement sans acte de camping","drinking_water":"yes","fee":"no","internet_access":"no","name":"Praia do Vao area de Autocaravanas","operator":"Ayuntamiento de Pontevedra","power_supply":"no","sanitary_dump_station":"no","sanitary_dump_station:chemical_toilet":"no","sanitary_dump_station:grey_water":"no","sanitary_dump_station:round_drain":"no","supervised":"no","surface":"asphalt","water_point":"no"}},"1067673901":{"location":[42.3928366,-8.8322602],"ct":"ES","tp":"CS","ts":"2023-08-28T16:38:29Z","tX":486,"tY":378,"tags":{"access":"customers","addr:city":"Portonovo","addr:housenumber":"14A","addr:postcode":"36970","addr:street":"PO-308","cabins":"yes","caravans":"yes","drinking_water":"yes","email":"playacanelas@gmail.com","fee":"yes","internet_access":"wlan","name":"Camping Playa Canelas","payment:cash":"yes","payment:credit_cards":"yes","phone":"+34 986 691 025","playground":"yes","power_supply":"yes","shower":"yes","static_caravans":"yes","tents":"yes","toilets":"yes","website":"https://www.campingplayacanelas.com","wheelchair":"limited"}},"1067722512":{"location":[42.4095084,-8.8619228],"ct":"ES","tp":"CR","ts":"2022-06-07T20:33:30Z","tX":486,"tY":378,"tags":{"power_supply":"yes","sanitary_dump_station":"yes"}},"1068333196":{"location":[42.3924315,-8.8326136],"ct":"ES","tp":"SD","ts":"2022-06-09T20:54:18Z","tX":486,"tY":378,"tags":{"access":"customers","operator":"Camping Playa Canelas"}},"1149588380":{"location":[42.4173878,-8.8706823],"ct":"ES","tp":"CS","ts":"2024-07-19T12:14:10Z","tX":486,"tY":378,"tags":{"bbq":"yes","cabins":"yes","capacity:cabins":"36","capacity:tents":"248","caravans":"yes","fee":"yes","name":"Camping Cachadelos","phone":"+34 986745592","power_supply":"yes","restaurant":"yes","supermarket":"yes","tents":"yes","washing_machine":"yes","website":"https://www.campingcachadelos.com/"}},"1149669319":{"location":[42.416297,-8.8763244],"ct":"ES","tp":"CS","ts":"2024-07-19T12:14:04Z","tX":486,"tY":378,"tags":{"bbq":"yes","cabins":"yes","capacity:pitches":"45","email":"info@montecabo.com","fee":"yes","name":"Monte Cabo","phone":"+34 651902758","power_supply":"yes","tents":"yes","website":"https://montecabo.com/","wheelchair":"yes"}},"1149678021":{"location":[42.4212467,-8.8734305],"ct":"ES","tp":"CS","ts":"2023-11-09T06:19:50Z","tX":486,"tY":378,"tags":{"cafe":"yes","capacity:pitches":"59","caravans":"yes","fee":"yes","internet_access":"wlan","internet_access:fee":"no","name":"Camping Punta Faxilda","power_supply":"yes","shower":"yes","tents":"yes","toilets":"customers","washing_machine":"yes","website":"https://campingpuntafaxilda.com/"}},"1293621117":{"location":[42.3916745,-8.8354528],"ct":"ES","tp":"CR","ts":"2024-06-19T10:19:57Z","tX":486,"tY":378,"tags":{"name":"Autocamper Sanxenxo"}},"5437116993":{"location":[42.5517699,-8.8338742],"ct":"ES","tp":"CS","ts":"2022-05-17T20:48:49Z","tX":486,"tY":378,"tags":{"name":"Playa Paisaxe I"}},"11631451586":{"location":[42.5387478,-8.8744808],"ct":"ES","tp":"CR","ts":"2024-02-16T18:05:42Z","tX":486,"tY":378,"tags":{"fee":"yes","operator":"Illa de Arousa","power_supply":"no","sanitary_dump_station":"no","water_point":"yes"}},"8932903256":{"location":[42.451084,-8.822441],"ct":"ES","tp":"SD","ts":"2024-05-16T22:22:12Z","tX":486,"tY":378,"tags":{"access":"yes","fee":"no","operator":"Ayuntamiento de Meaño","sanitary_dump_station":"public","sanitary_dump_station:chemical_toilet":"yes","sanitary_dump_station:fee":"no","sanitary_dump_station:gravity":"yes","sanitary_dump_station:grey_water":"yes","sanitary_dump_station:round_drain":"yes","sanitary_dump_station:suction":"no","water_point":"yes"}},"9802574822":{"location":[42.4092958,-8.8618692],"ct":"ES","tp":"SD","ts":"2022-06-07T20:33:30Z","tX":486,"tY":378,"tags":{"access":"customers"}}}