{"210588488":{"location":[41.6762548,-8.8225271],"ct":"PT","tp":"CS","ts":"2022-12-15T20:02:26Z","tX":486,"tY":381,"tags":{"name":"Parque de Campismo do Cabedelo (Inatel)","operator":"INATEL","wheelchair":"yes"}},"240850390":{"location":[41.6003666,-8.8000382],"ct":"PT","tp":"CS","ts":"2014-07-03T15:25:21Z","tX":486,"tY":381,"tags":{"addr:city":"Belinho","addr:postcode":"4740-161","addr:street":"Rua da Pain√ßa","email":"geral@belinhenses.com","name":"Parque de Campismo de Belinho","operator":"http://www.belinhenses.com/","phone":"+351 253 872 416"}},"1122474097":{"location":[41.6777396,-8.8263933],"ct":"PT","tp":"CS","ts":"2022-12-15T20:02:26Z","tX":486,"tY":381,"tags":{"access":"customers","addr:city":"Darque","addr:postcode":"4935-161","addr:street":"Rua Diogo Alvares O Caramuru","drinking_water":"yes","email":"infoviana@orbitur.pt","fee":"yes","name":"ORBITUR Viana do Castelo","operator":"Orbitur","phone":"+351 258 322 167","shower":"yes","toilets":"yes","website":"https://www.orbitur.pt/pt/destinos/regiao-norte/orbitur-viana-do-castelo"}},"1198488238":{"location":[41.6840176,-8.8333559],"ct":"PT","tp":"CR","ts":"2023-08-15T22:28:15Z","tX":486,"tY":381,"tags":{"name":"Praia do Cabedelo"}},"4831546122":{"location":[41.6834009,-8.8317113],"ct":"PT","tp":"CR","ts":"2017-05-02T20:45:34Z","tX":486,"tY":381,"tags":{}}}