{"6150334":{"location":[39.5988037,-9.0560891],"ct":"PT","tp":"CS","ts":"2021-06-09T18:49:16Z","tX":486,"tY":389,"tags":{"addr:city":"Nazaré","addr:housenumber":"r","addr:postcode":"2450-148","addr:street":"R. dos Combatentes do Ultramar","area":"yes","contact:website":"https://www.orbitur.pt/pt/destinos/regiao-centro/orbitur-valado","email":"infovalado@orbitur.pt","name":"Camping Orbitur Valado","phone":"+351 262 561 111"}},"183421717":{"location":[39.5776066,-8.8634742],"ct":"PT","tp":"CS","ts":"2020-07-10T16:07:14Z","tX":486,"tY":389,"tags":{"internet_access":"no","name":"Parque Campismo das Pedreiras"}},"411921590":{"location":[39.6198125,-9.0573329],"ct":"PT","tp":"CS","ts":"2023-07-19T21:02:03Z","tX":486,"tY":389,"tags":{"access":"customers","addr:city":"Nazaré","addr:housenumber":"242 - Km 31,5","addr:postcode":"2450-138","addr:street":"Estrada Nacional","area":"yes","caravans":"yes","contact:email":"infonazare@ohairesorts.com","contact:phone":"+351 262 561 800","contact:website":"https://ohairesorts.com/nazare/","drinking_water":"yes","email":"infonazare@ohairesorts.com","fee":"yes","name":"Ohai Nazare Outdoor Resort","phone":"+351 262 561 800","power_supply":"yes","shower":"yes","tents":"no","toilets":"yes","website":"https://ohairesorts.com/nazare/"}},"448670036":{"location":[39.4483318,-9.128238],"ct":"PT","tp":"CR","ts":"2017-07-13T11:19:47Z","tX":486,"tY":389,"tags":{}},"485301615":{"location":[39.5238957,-9.1247479],"ct":"PT","tp":"CS","ts":"2024-06-12T12:38:54Z","tX":486,"tY":389,"tags":{"addr:city":"S. Martinho do Porto","addr:postcode":"2460","addr:street":"Rua Vasco da Gama","fee":"yes","internet_access":"yes","name":"Colina do Sol"}},"519597701":{"location":[39.5042351,-9.1352407],"ct":"PT","tp":"CS","ts":"2022-04-17T15:51:05Z","tX":486,"tY":389,"tags":{"addr:city":"S. Martinho do Porto","addr:postcode":"2460","addr:street":"Avenida Marginal","email":"parquecampismo@freguesiasaomartinhodoporto.pt","fee":"yes","internet_access":"yes","internet_access:fee":"yes","name":"Parque de Campismo Baía Azul","operator":"Junta de Freguesia de São Martinho do Porto","phone":"+351 262 989 847","website":"https://freguesiasaomartinhodoporto.pt/parque-de-campismo/"}},"725012612":{"location":[39.4925951,-8.875901],"ct":"PT","tp":"CS","ts":"2019-09-16T09:21:12Z","tX":486,"tY":389,"tags":{}},"1013526044":{"location":[39.4178364,-8.9206478],"ct":"PT","tp":"CR","ts":"2021-12-19T16:32:23Z","tX":486,"tY":389,"tags":{"capacity":"5","fee":"yes","name":"ASA de Chãos - Alcobertas","power_supply":"yes","sanitary_dump_station":"yes"}},"6552854671":{"location":[39.5527438,-8.9778732],"ct":"PT","tp":"CR","ts":"2023-04-14T16:15:50Z","tX":486,"tY":389,"tags":{"addr:city":"Alcobaça","addr:housenumber":"2","addr:postcode":"2460","addr:street":"Rua Professor Engenheiro Joaquim Vieira Natividade","capacity":"24","fee":"no","internet_access":"wlan","internet_access:fee":"no","internet_access:ssid":"Alcobaça Digital","name":"Área de Serviço com Zona de Pernoita para Caravanas e Autocaravanas Alcobaça","power_supply":"yes","sanitary_dump_station":"yes","toilets":"yes"}},"10769061801":{"location":[39.597204,-8.820711],"ct":"PT","tp":"CR","ts":"2023-03-28T16:30:31Z","tX":486,"tY":389,"tags":{"name":"Stellplatz Parque Verde Porto de Mós"}},"10811756262":{"location":[39.5973762,-8.8208306],"ct":"PT","tp":"CR","ts":"2023-04-14T16:15:49Z","tX":486,"tY":389,"tags":{"drinking_water":"yes"}},"10811719161":{"location":[39.597267,-8.8207228],"ct":"PT","tp":"SD","ts":"2023-04-14T16:15:48Z","tX":486,"tY":389,"tags":{}}}