{"18906902":{"location":[24.4354144,123.777499],"ct":"JP","tp":"CS","ts":"2025-03-28T14:37:41Z","tX":864,"tY":440,"tags":{"addr:block_number":"289","addr:city":"竹富町","addr:county":"八重山郡","addr:housenumber":"1","addr:postcode":"907-1541","addr:province":"沖縄県","addr:quarter":"字上原","charge":"500 JPY","fee":"yes","name":"星の砂キャンプ場","payment:cash":"yes","source":"website","tents":"no","website":"http://www.hoshinosuna.ne.jp/camp.html"}},"1395376103":{"location":[24.2735923,123.8327954],"ct":"JP","tp":"CS","ts":"2025-06-16T14:02:25Z","tX":864,"tY":440,"tags":{"access":"customers","addr:block_number":"508","addr:city":"竹富町","addr:county":"八重山郡","addr:housenumber":"33","addr:neighbourhood":"南風見","addr:postcode":"907-1434","addr:province":"沖縄県","camp_site":"standard","charge":"1000 JPY","fee":"yes","name":"南風見田キャンプ場","name:en":"Haimida Campground","payment:cash":"yes","phone":"+81-90-9781-0940","source":"website","tents":"yes","website":"https://www.haimidakyanpu.com/"}},"2518143389":{"location":[24.4050201,123.8073834],"ct":"JP","tp":"CS","ts":"2013-11-03T03:13:27Z","tX":864,"tY":440,"tags":{"name":"ミトレアキャンプ場","source":"local knowledge"}},"2536522128":{"location":[24.2735115,123.8325852],"ct":"JP","tp":"CS","ts":"2018-01-14T18:55:35Z","tX":864,"tY":440,"tags":{"name":"南風見田キャンプ場","name:en":"Haimida Campground","website":"https://www.haimidakyanpu.com/"}},"9950399417":{"location":[24.3297221,124.0873495],"ct":"JP","tp":"CS","ts":"2022-08-13T02:45:55Z","tX":864,"tY":440,"tags":{"name":"竹富島"}}}