{"14461318":{"location":[53.4230985,6.7470044],"ct":"NL","tp":"CS","ts":"2023-05-30T12:19:51Z","tX":531,"tY":331,"tags":{"email":"info@lentemaheerd.nl","fax":"+31 595 415 493","landuse":"grass","name":"Camping Lentemaheerd","phone":"+31 595 415 472","source":"3dShapes","website":"https://www.lentemaheerd.nl/"}},"25834855":{"location":[53.4219863,7.0160376],"ct":"DE","tp":"CS","ts":"2024-08-10T10:14:45Z","tX":531,"tY":331,"tags":{"addr:city":"Krummhörn","addr:housenumber":"3","addr:postcode":"26736","addr:street":"Erbsenbindereistraße","addr:suburb":"Upleward","caravans":"yes","drinking_water":"yes","fee":"yes","internet_access":"wlan","internet_access:fee":"yes","name":"Camping am Deich","note":"exact borders guessed from one way marked...","opening_hours":"Mo-Su 08:00-13:00,15:00-18:00","operator":"Camping am Deich GmbH & Co. KG","pet":"leashed","phone":"+49 4923 525","power_supply":"yes","sanitary_dump_station":"yes","shower":"yes","tents":"yes","toilets":"yes","toilets:wheelchair":"yes","website":"https://www.camping-am-deich.de/","wheelchair":"limited"}},"93124469":{"location":[53.3441845,6.8941422],"ct":"NL","tp":"CS","ts":"2023-05-05T20:01:56Z","tX":531,"tY":331,"tags":{"brand":"SVR","caravans":"yes","contact:email":"campingdeleeuw@gmail.com","landcover":"grass","name":"De Leeuw","shower":"yes","tents":"yes","toilets":"yes","website":"https://sites.google.com/site/campingdeleeuw/home"}},"164421428":{"location":[53.4007168,7.017582],"ct":"DE","tp":"CS","ts":"2020-08-18T06:43:17Z","tX":531,"tY":331,"tags":{"access:covid19":"cwa","addr:city":"Krummhörn","addr:housenumber":"2","addr:postcode":"26736","addr:street":"Campingweg","addr:suburb":"Campen","description:covid19":"Zutritt nur mit Corona-App der Bundesregierung","email":"dyksterhus@t-online.de","fax":"+49 4927 912966","fee":"yes","internet_access":"no","name":"Campingplatz Campen","operator":"Alice Saathoff","phone":"+49 4927 489","website":"https://www.campingplatzdyksterhus.de/"}},"704677690":{"location":[53.3370936,6.9241947],"ct":"NL","tp":"CR","ts":"2025-02-12T12:05:42Z","tX":531,"tY":331,"tags":{"addr:city":"Delfzijl","addr:street":"Grosdijk","capacity":"20","caravan_site":"motorhome_stopover","caravan_site:type":"beach","caravans":"no","charge":"15.30 EUR","check_out":"11:00","drinking_water":"yes","email":"mgbrouwer@msn.com","fee":"yes","internet_access":"no","name":"Camperplaats Eemsdijk","phone":"+31 6 83241503","power_supply":"yes","power_supply:charge":"1 EUR/2 kWh","power_supply:fee":"yes","reservation":"no","sanitary_dump_station":"yes","sanitary_dump_station:chemical_toilet":"yes","sanitary_dump_station:fee":"no","sanitary_dump_station:grey_water":"yes","shower":"yes","tents":"no","toilets":"yes","water_point":"yes","water_point:fee":"no","website":"https://www.camperplaatseemsdijk.nl/"}},"1086390309":{"location":[53.4223453,6.7465872],"ct":"NL","tp":"CS","ts":"2023-05-30T12:19:50Z","tX":531,"tY":331,"tags":{"email":"info@lentemaheerd.nl","fax":"+31 595 415 493","landuse":"grass","name":"Camping Lentemaheerd","phone":"+31 595 415 472","source":"3dShapes","website":"https://www.lentemaheerd.nl/"}},"6566321361":{"location":[53.4217845,7.015343],"ct":"DE","tp":"SD","ts":"2019-06-23T18:10:55Z","tX":531,"tY":331,"tags":{}},"5501752466":{"location":[53.3813142,6.8649431],"ct":"NL","tp":"CS","ts":"2023-05-28T05:43:00Z","tX":531,"tY":331,"tags":{"addr:street":"Hereweg 8","name":"Camping Kiek op diek","phone":"+31 6 24996197","website":"https://www.kiekopdiek.nl"}},"5600705809":{"location":[53.3684831,6.7703155],"ct":"NL","tp":"CS","ts":"2023-05-28T05:43:00Z","tX":531,"tY":331,"tags":{"addr:city":"'t Zandt","addr:housenumber":"85A","addr:postcode":"9915PJ","addr:street":"Hoofdstraat","name":"Landgoed de Camping & Dorps/Campingwinkel","operator":"Landgoed de Camping","phone":"+31 6 33580731","website":"https://www.landgoeddecamping.nl"}},"11016551874":{"location":[53.3916804,6.8798537],"ct":"NL","tp":"CS","ts":"2025-01-25T01:03:55Z","tX":531,"tY":331,"tags":{"charge":"12.50 EUR","email":"info@wikstervanhetwad.nl","fee":"yes","motorhome":"yes","name":"Wiksterstee","reservation":"recommended","website":"https://www.wikstervanhetwad.nl/wikster-wad/"}}}