{"88593705":{"location":[53.3008519,7.0291026],"ct":"NL","tp":"CS","ts":"2024-11-02T09:27:07Z","tX":531,"tY":332,"tags":{"addr:city":"Termunterzijl","addr:postcode":"9948PP","addr:street":"Schepperbuurt 4-A","brand":"MarinaParken","brand:website":"https://www.marinaparken.nl/","cabins":"yes","caravans":"yes","contact:email":"lobbyzeestrand@marinaparken.nl","contact:phone":"+31850609605","email":"info@campingzeestrand.nl","motorhome":"yes","name":"Zeestrand Eems-Dollard","note":"Deze camping is sinds kort overgenomen door MarinaParken, zie: https://www.campingzeestrand.nl/ daardoor verwacht ik veel infrastructuur verandering en contact info wijzigingen","phone":"+31 6 19922470","shower":"yes","static_caravans":"yes","tents":"yes","toilets":"yes","website":"https://www.campingzeestrand.nl/","website:map":"https://www.campingzeestrand.nl/wp-content/uploads/plattegrond-scaled.jpg"}},"93631412":{"location":[53.2809561,6.8406585],"ct":"NL","tp":"CS","ts":"2022-06-29T20:56:59Z","tX":531,"tY":332,"tags":{"landuse":"grass","name":"Dagcamping","source":"3dShapes"}},"94723731":{"location":[53.1751758,6.7176604],"ct":"NL","tp":"CS","ts":"2023-05-30T17:10:31Z","tX":531,"tY":332,"tags":{"addr:city":"Kolham","addr:housenumber":"2","addr:postcode":"9615TD","addr:street":"van Arnhemslaan","contact:email":"info@campingdeveenborg.nl","contact:phone":"+31 6 20478897","contact:website":"https://www.campingdeveenborg.nl","name":"Camping de Veenborg"}},"94866525":{"location":[53.2280992,6.7849246],"ct":"NL","tp":"CS","ts":"2024-06-24T06:11:08Z","tX":531,"tY":332,"tags":{"caravans":"yes","contact:phone":"+31 598 394 722","contact:website":"https://www.minicampingdenemarken.nl/","name":"Mini-camping Denemarken (tijdelijk gesloten)","tents":"yes"}},"95054327":{"location":[53.2539825,6.86473],"ct":"NL","tp":"CS","ts":"2023-10-02T16:44:19Z","tX":531,"tY":332,"tags":{"cabins":"yes","capacity:pitches":"15","caravans":"yes","email":"info@minicampingnoorderzon.nl","name":"Noorderzon","phone":"+31 598 372 368","shower":"yes","tents":"yes","toilets":"yes","website":"https://www.minicampingnoorderzon.nl/index.php/nl/onze-campingnl"}},"99151919":{"location":[53.1529939,6.7219732],"ct":"NL","tp":"CS","ts":"2024-09-17T08:10:44Z","tX":531,"tY":332,"tags":{"addr:city":"Kropswolde","addr:housenumber":"78","addr:postcode":"9606PG","addr:street":"Woldweg","capacity:pitches":"25","caravans":"yes","email":"campingderolke@gmail.com","internet_access":"wlan","internet_access:fee":"no","landcover":"grass","mobile":"+31 6 46322128","motorhome":"yes","name":"Luna \"de Rolke\"","opening_hours":"week 01-53","phone":"+31 598 321 679","sanitary_dump_station":"customers","shower":"yes","tents":"yes","toilets":"yes","website":"https://www.minicampingderolke.nl"}},"99152085":{"location":[53.1346111,6.7255598],"ct":"NL","tp":"CS","ts":"2024-02-25T10:57:31Z","tX":531,"tY":332,"tags":{"addr:city":"Kropswolde","addr:housenumber":"191","addr:street":"Woldweg","capacity:pitches":"25","capacity:tents":"25","caravans":"yes","email":"dj.vandam@home.nl","fee":"yes","name":"De Kleine Heerlijkheid","opening_hours":"Apr 01 - Sep 30","phone":"+31 6 53266627;+31 6 41456423","shower":"yes","tents":"yes","toilets":"yes"}},"100235871":{"location":[53.142257,6.9743249],"ct":"NL","tp":"CS","ts":"2023-05-30T12:19:42Z","tX":531,"tY":332,"tags":{"addr:city":"Westerlee","addr:housenumber":"44","addr:postcode":"9678PM","addr:street":"Hoofdweg","contact:email":"campingdehoeve@gmail.com","contact:phone":"+31 597 413 367","contact:website":"http://www.camping-dehoeve.nl/","name":"Camping De Hoeve"}},"137986873":{"location":[53.1489804,6.6895445],"ct":"NL","tp":"CS","ts":"2023-05-30T17:10:32Z","tX":531,"tY":332,"tags":{"addr:city":"Kropswolde","addr:housenumber":"2","addr:postcode":"9606PR","addr:street":"Strandweg","email":"info@meerwijck.nl","name":"Meerwijck","phone":"+31 598 323 659","website":"https://www.meerwijck.nl"}},"182939412":{"location":[53.1863171,6.9917723],"ct":"NL","tp":"CS","ts":"2023-05-30T17:10:32Z","tX":531,"tY":332,"tags":{"email":"info@wellnessparkdebouwte.nl","internet_access":"wlan","name":"De Bouwte","phone":"+31 597 591 706","website":"https://www.wellnessparkdebouwte.nl"}},"183453027":{"location":[53.1928764,7.0075594],"ct":"NL","tp":"CS","ts":"2012-09-29T17:04:36Z","tX":531,"tY":332,"tags":{"name":"Minicamping"}},"188517540":{"location":[53.2223563,6.9542241],"ct":"NL","tp":"CS","ts":"2022-06-06T15:15:54Z","tX":531,"tY":332,"tags":{"email":"deleeuwenborg@planet.nl","name":"De Leeuwenborg","website":"https://www.deleeuwenborg.nl/"}},"648177488":{"location":[53.2054838,6.8705468],"ct":"NL","tp":"CS","ts":"2023-05-30T12:19:49Z","tX":531,"tY":332,"tags":{"addr:city":"Noordbroek","addr:housenumber":"21","addr:postcode":"9635TE","addr:street":"Noorderstraat","caravans":"yes","contact:email":"info@mausel.nl","contact:phone":"+31 598 451 591","contact:website":"https://www.mausel.nl/","name":"Minicamping Het Noordererf (Mausel)","tents":"yes"}},"862971361":{"location":[53.2002263,6.7905235],"ct":"NL","tp":"CR","ts":"2021-10-21T17:03:53Z","tX":531,"tY":332,"tags":{"capacity":"7","caravans":"yes","internet_access":"wlan","name":"Camperplek Duurswoldje","sanitary_dump_station":"yes","shower":"no","tents":"no","toilets":"no","website":"http://www.camperplekduurswoldje.nl/"}},"896277997":{"location":[53.2584167,6.9516826],"ct":"NL","tp":"CS","ts":"2021-01-17T18:44:27Z","tX":531,"tY":332,"tags":{"caravans":"yes","fee":"yes","name":"Klein Finland","tents":"yes","website":"https://campingkleinfinland.nl/camping"}},"1085457481":{"location":[53.3212917,6.8678081],"ct":"NL","tp":"CR","ts":"2022-08-10T22:50:27Z","tX":531,"tY":332,"tags":{"capacity":"10","fee":"no","name":"Busstation Farmsumerweg"}},"1106954790":{"location":[53.3185375,6.81198],"ct":"NL","tp":"CS","ts":"2022-06-05T13:12:59Z","tX":531,"tY":332,"tags":{"addr:city":"Appingedam","addr:housenumber":"56-58","addr:postcode":"9901TA","addr:street":"Alberdaweg","email":"info@campingekenstein.nl","name":"Camping Ekenstein","phone":"+31 596 624 467","website":"https://www.campingekenstein.nl/"}},"1174604999":{"location":[53.1963385,7.0302441],"ct":"NL","tp":"CS","ts":"2023-05-20T20:11:15Z","tX":531,"tY":332,"tags":{"addr:city":"Midwolda","addr:housenumber":"1","addr:street":"Strandweg","capacity":"25","caravans":"yes","fee":"yes","internet_access":"yes","name":"Camperplaats Midwolda","operator":"Jachthaven Midwolda","tents":"no","website":"https://jachthavensblauwestad.nl/camperplaatsen/camperplaats-midwolda"}},"1184620920":{"location":[53.2008262,6.7859039],"ct":"NL","tp":"CS","ts":"2023-06-24T11:36:07Z","tX":531,"tY":332,"tags":{"cabins":"yes","capacity:cabins":"1","caravans":"yes","motorhome":"yes","name":"Minicamping 't Hofje","phone":"+31 598 421 573","shower":"yes","tents":"yes","toilets":"yes","website":"https://www.minicampingthofje.nl/"}},"1186314766":{"location":[53.2503199,6.8089129],"ct":"NL","tp":"CS","ts":"2023-07-01T19:55:53Z","tX":531,"tY":332,"tags":{"cabins":"yes","caravans":"yes","email":"info@wildemansheerd.nl","landcover":"grass","motorhome":"yes","name":"Natuurkampeerterrein Wildemansheerd","opening_hours":"Apr 1 - Oct 1","phone":"+31 6 39889116","shower":"yes","tents":"yes","toilets":"yes","website":"https://wildemansheerd.nl/natuurkampeerterrein/"}},"1210972091":{"location":[53.2614485,6.7414699],"ct":"NL","tp":"CS","ts":"2023-05-05T21:59:14Z","tX":531,"tY":332,"tags":{"brand":"SVR","caravans":"yes","email":"info@a-hoeve.nl","name":"A-Hoeve","phone":"+31 50 302 5142","shower":"yes","tents":"yes","toilets":"yes","website":"http://www.a-hoeve.nl/"}},"1212188042":{"location":[53.2659595,6.8330681],"ct":"NL","tp":"CS","ts":"2023-10-01T08:37:03Z","tX":531,"tY":332,"tags":{"caravans":"yes","email":"info@de-otter.nl","name":"De Otter","note":"De camping is overgenomen door Hofparken, maar ziet er 2023 juni/july satellietportal nog steeds uit als camping","phone":"+31 598 431 543","shower":"yes","tents":"yes","toilets":"yes","website":"https://www.de-otter.nl/camping-de-otter"}},"2078008898":{"location":[53.1616101,6.860676],"ct":"NL","tp":"CR","ts":"2023-06-22T05:34:59Z","tX":531,"tY":332,"tags":{"fee":"no","maxstay":"48 hours","power_supply":"no","sanitary_dump_station":"no"}},"2775586562":{"location":[53.2132873,6.9255449],"ct":"NL","tp":"CS","ts":"2023-08-02T08:37:37Z","tX":531,"tY":332,"tags":{"addr:city":"Noordbroek","addr:housenumber":"16","addr:postcode":"9635TD","addr:street":"Pastorieweg","name":"De Fruitgaard","source":"BAG","source:date":"2014-03-24","website":"http://www.fruitgaard.nl/"}},"5504663571":{"location":[53.3285513,6.9231903],"ct":"NL","tp":"CS","ts":"2019-04-02T19:06:40Z","tX":531,"tY":332,"tags":{"description":"Public boat dock/pier","fee":"no","internet_access":"no","operator":"Gemeente Delfzijl"}},"9425550075":{"location":[53.1840755,6.7343848],"ct":"NL","tp":"CS","ts":"2022-01-17T13:46:47Z","tX":531,"tY":332,"tags":{"name":"Hof van Kolham","website":"https://www.hofvankolham.nl/"}},"11108423691":{"location":[53.227768,6.7284274],"ct":"NL","tp":"CS","ts":"2023-08-11T21:11:31Z","tX":531,"tY":332,"tags":{"capacity:persons":"8","capacity:pitches":"3","caravans":"yes","shower":"yes","tents":"yes","toilets":"yes","website":"https://campspace.com/nl/s/gronings-genieten-van-rust-en-ruimte_3573#review-list"}},"11219338679":{"location":[53.2490873,6.9753483],"ct":"NL","tp":"CS","ts":"2023-09-26T06:54:55Z","tX":531,"tY":332,"tags":{"caravans":"yes","facebook":"https://www.facebook.com/inhethartvandegraanrepubliek/","mobile":"+31 6 55374588","name":"De Boscamp","shower":"yes","tents":"yes","toilets":"yes"}},"11234152323":{"location":[53.2297758,6.9611093],"ct":"NL","tp":"CS","ts":"2023-10-02T16:44:19Z","tX":531,"tY":332,"tags":{"capacity:pitches":"10","caravans":"yes","name":"Charleston","phone":"+31 596 541 941","shower":"yes","tents":"yes","toilets":"yes"}},"11247855345":{"location":[53.1385212,6.7150165],"ct":"NL","tp":"CS","ts":"2023-10-08T11:31:19Z","tX":531,"tY":332,"tags":{"caravans":"yes","name":"De Leine","phone":"+31 598 322 700","shower":"yes","static_caravans":"yes","tents":"yes","toilets":"yes","website":"https://www.campingdeleine.nl/camping-de-leine/"}},"11234144001":{"location":[53.2000956,6.8502362],"ct":"NL","tp":"CR","ts":"2024-05-15T17:25:26Z","tX":531,"tY":332,"tags":{"fee":"no","motorhome":"designated","name":"Oldambt","phone":"+31 598 451 216"}}}