{"9046801":{"location":[53.098779,7.0296175],"ct":"NL","tp":"CS","ts":"2019-03-21T04:47:55Z","tX":531,"tY":333,"tags":{"addr:city":"Oude Pekela","addr:housenumber":"12","addr:postcode":"9665MZ","addr:street":"de Akkers","fee":"yes","name":"Camping ZomersBuiten","operator":"Els","phone":"+31 6 11640585","website":"https://campingzomersbuiten.nl/"}},"9050345":{"location":[53.0057326,6.9526997],"ct":"NL","tp":"CS","ts":"2023-05-30T12:19:51Z","tX":531,"tY":333,"tags":{"addr:city":"Stadskanaal","addr:housenumber":"3","addr:postcode":"9501LG","addr:street":"De Vloeivelden","contact:email":"info@campingdekapschuur.nl","contact:phone":"+31 599 638 801","contact:website":"https://campingdekapschuur.nl/","name":"Camping de Kapschuur"}},"38065316":{"location":[52.9454048,6.7405421],"ct":"NL","tp":"CS","ts":"2021-07-26T12:02:19Z","tX":531,"tY":333,"tags":{"addr:city":"Drouwen","addr:housenumber":"5","addr:postcode":"9533PN","addr:street":"Steenhopenweg","caravans":"yes","name":"Natuurkampeerterrein Borger","tents":"yes","website":"https://www.logerenbijdeboswachter.nl/natuurkampeerterreinen/borger"}},"54419539":{"location":[52.9222052,6.8100017],"ct":"NL","tp":"CS","ts":"2024-04-15T08:29:42Z","tX":531,"tY":333,"tags":{"contact:website":"https://www.roompot.nl/vakantieparken/nederland/drenthe/vakantiepark-hunzedal/","internet_access":"wlan","name":"Vakantiepark Hunzedal","operator":"Roompot","toilets:wheelchair":"yes","wheelchair":"yes"}},"54885732":{"location":[52.9429109,6.8741325],"ct":"NL","tp":"CS","ts":"2014-12-21T00:24:59Z","tX":531,"tY":333,"tags":{"name":"De Paardetange","source":"3dShapes"}},"59986351":{"location":[52.9554309,6.7973919],"ct":"NL","tp":"CS","ts":"2024-07-11T18:40:27Z","tX":531,"tY":333,"tags":{"addr:city":"Drouwen","addr:housenumber":"16","addr:postcode":"9533PE","addr:street":"Alinghoek","caravans":"yes","email":"info@alinghoek.nl","name":"Alinghoek","phone":"+31 599 564 271","tents":"yes","website":"https://www.campingalinghoek.nl"}},"60142770":{"location":[52.9314273,6.748863],"ct":"NL","tp":"CS","ts":"2023-05-30T12:16:11Z","tX":531,"tY":333,"tags":{"addr:city":"Borger","addr:housenumber":"11A","addr:postcode":"9531TC","addr:street":"Rolderstraat","brand":"Roompot","cabins":"yes","caravans":"yes","name":"Bospark Lunsbergen","phone":"+31 88 044 4999","tents":"yes","toilets:wheelchair":"yes","website":"https://www.bosparklunsbergen.nl","wheelchair":"yes"}},"60201751":{"location":[52.978038,6.761494],"ct":"NL","tp":"CS","ts":"2023-05-30T12:16:12Z","tX":531,"tY":333,"tags":{"addr:city":"Gasselte","addr:housenumber":"2","addr:postcode":"9462TB","addr:street":"Houtvester Jansenweg","cabins":"yes","caravans":"yes","email":"info@delentevandrenthe.nl","name":"De Lente van Drenthe","phone":"+31 599 564 333","tents":"yes","website":"https://lentevandrenthe.nl"}},"60202298":{"location":[52.969941,6.8073325],"ct":"NL","tp":"CS","ts":"2023-05-30T12:16:12Z","tX":531,"tY":333,"tags":{"addr:city":"Gasselte","addr:housenumber":"8","addr:postcode":"9462TT","addr:street":"Hoogte der Heide","email":"info@horstmannsbos.nl","name":"Horstmannsbos","phone":"+31 599 564 270","website":"https://www.horstmannsbos.nl"}},"99155759":{"location":[53.1037771,6.7499945],"ct":"NL","tp":"CS","ts":"2023-05-30T17:42:02Z","tX":531,"tY":333,"tags":{"addr:city":"Zuidlaarderveen","addr:housenumber":"48","addr:postcode":"9474PE","addr:street":"Dorpsstraat","designation":"Vekabo","email":"renate@minicamping-dehofstee.nl","fax":"+31 598 491 762","name":"Mini-camping De Hofstee","phone":"+31 598 491 762","website":"https://www.minicamping-dehofstee.nl"}},"99158570":{"location":[53.1062633,6.8473831],"ct":"NL","tp":"CR","ts":"2023-05-30T12:19:42Z","tX":531,"tY":333,"tags":{"addr:city":"Veendam","addr:housenumber":"2","addr:postcode":"9642LW","addr:street":"Flora","email":"info@borgerswoldhoeve.nl","fee":"yes","internet_access":"wlan","name":"Camperplaatsen Borgerswoldhoeve","phone":"+31 598 625 190","power_supply":"yes","sanitary_dump_station":"yes","source":"3dShapes","website":"https://borgerswoldhoeve.nl/camperplaatsen"}},"99470758":{"location":[52.9991903,6.6837551],"ct":"NL","tp":"CS","ts":"2023-05-30T17:42:01Z","tX":531,"tY":333,"tags":{"addr:city":"Anderen","addr:housenumber":"4","addr:postcode":"9465TN","addr:street":"Veenvoort","caravans":"yes","email":"info@boerderij-liebe.nl","landuse":"grass","name":"Boerderijcamping Liebe","phone":"+31 592 241 503","source":"3dShapes","tents":"yes","website":"https://boerderij-liebe.nl"}},"99483156":{"location":[53.0249472,6.8321905],"ct":"NL","tp":"CS","ts":"2023-05-31T14:39:46Z","tX":531,"tY":333,"tags":{"access":"yes","addr:city":"Gieterveen","addr:housenumber":"1","addr:postcode":"9511PR","addr:street":"Broek","capacity":"50","contact:email":"info@amoigieterveen.nl","contact:phone":"+31 599 648 206","contact:website":"https://www.amoigieterveen.nl","fee":"yes","name":"Camping ÁMOI Gieterveen","operator":"ÁMOI Eten & Drinken","payment:cash":"yes","payment:maestro":"yes","source":"3dShapes"}},"99990221":{"location":[52.9640729,6.7903902],"ct":"NL","tp":"CS","ts":"2023-08-21T10:59:19Z","tX":531,"tY":333,"tags":{"addr:city":"Gasselte","addr:housenumber":"23","addr:postcode":"9462RA","addr:street":"Borgerweg","email":"info@campingdeberken.nl","fax":"+31 599 565 315","name":"Camping De Berken","phone":"+31 599 564 255","source":"3dShapes","website":"https://www.campingdeberken.nl/"}},"99992991":{"location":[52.9602311,6.8665041],"ct":"NL","tp":"CS","ts":"2024-04-07T19:05:49Z","tX":531,"tY":333,"tags":{"addr:city":"Drouwenerveen","addr:housenumber":"21","addr:postcode":"9525TJ","addr:street":"Zuideind","contact:email":"campingdewittebuizerd@gmail.com","contact:phone":"+31 6 4920 2522","contact:website":"https://dewittebuizerd.nl/","name":"Camping de Witte Buizerd"}},"99993198":{"location":[52.9737321,6.8110284],"ct":"NL","tp":"CS","ts":"2023-05-30T12:16:16Z","tX":531,"tY":333,"tags":{"addr:city":"Gasselte","addr:housenumber":"1","addr:postcode":"9462TS","addr:street":"Kamplaan","caravans":"yes","contact:email":"info@sparrenhof.com","contact:phone":"+31 599 565 610","contact:website":"https://www.sparrenhof.com/","internet_access":"yes","internet_access:fee":"no","name":"Landschapscamping Sparrenhof","tents":"yes"}},"103106349":{"location":[53.0828417,6.976827],"ct":"NL","tp":"CS","ts":"2023-05-30T17:10:31Z","tX":531,"tY":333,"tags":{"caravans":"yes","contact:phone":"+31 597 612 398","contact:website":"https://www.kamperen-bij-de-boer.com/Boerencamping-Wel-Wait.html","internet_access":"yes","internet_access:fee":"no","name":"Boerencamping Wel Wait","source":"3dShapes","tents":"yes"}},"103154355":{"location":[52.9476729,6.9988636],"ct":"NL","tp":"CS","ts":"2023-07-24T19:55:10Z","tX":531,"tY":333,"tags":{"capacity:pitches":"14","caravans":"yes","email":"info@campingmusselkanaal.nl","landcover":"https://www.campingmusselkanaal.nl/","motorhome":"yes","name":"Musselkanaal","phone":"+31 6 11155976","shower":"yes","tents":"yes","toilets":"yes","website":"https://www.campingmusselkanaal.nl/"}},"109203539":{"location":[52.9101021,6.6932763],"ct":"NL","tp":"CS","ts":"2023-06-13T05:52:47Z","tX":531,"tY":333,"tags":{"addr:city":"Schoonloo","addr:housenumber":"4a","addr:postcode":"9443TJ","addr:street":"Hoofdstraat","contact:mobile":"+31 6 23145607","contact:phone":"+31 592 854 267","contact:website":"https://www.destrubben.nl/","internet_access":"yes","internet_access:fee":"no","name":"De Strubben","source":"3dShapes"}},"109207209":{"location":[52.9236079,6.7437868],"ct":"NL","tp":"CS","ts":"2023-05-30T17:42:01Z","tX":531,"tY":333,"tags":{"addr:city":"Borger","addr:housenumber":"11","addr:postcode":"9531TE","addr:street":"Strengenweg","caravans":"yes","contact:phone":"+31 6 54665096","contact:website":"https://www.beekdal.nl","name":"Boerderijcamping Beekdal","operator":"Valesca Pieters","source":"3dShapes","tents":"yes"}},"109207228":{"location":[52.9246331,6.75413],"ct":"NL","tp":"CS","ts":"2023-05-30T12:16:17Z","tX":531,"tY":333,"tags":{"addr:city":"Borger","addr:housenumber":"6","addr:postcode":"9531TE","addr:street":"Strengenweg","caravans":"yes","contact:email":"seubers@hetnet.nl","contact:phone":"+31 599 234 925","contact:website":"http://www.boerderijannahoeve.nl/","internet_access":"yes","internet_access:fee":"no","name":"Zwerfkei","tents":"yes"}},"109207335":{"location":[52.9265583,6.7756322],"ct":"NL","tp":"CR","ts":"2024-11-11T17:23:09Z","tX":531,"tY":333,"tags":{"addr:city":"Borger","addr:housenumber":"4","addr:postcode":"9531TC","addr:street":"Rolderstraat","capacity":"35","email":"info@nuuverstee.nl","fee":"yes","internet_access":"wlan","internet_access:fee":"customers","name":"Nuuverstee","phone":"+31 6 21611379","power_supply":"yes","sanitary_dump_station":"yes","website":"https://www.nuuverstee.nl/"}},"109207414":{"location":[52.9248428,6.7526418],"ct":"NL","tp":"CS","ts":"2023-05-30T12:16:17Z","tX":531,"tY":333,"tags":{"addr:city":"Borger","addr:housenumber":"8","addr:postcode":"9531TE","addr:street":"Strengenweg","caravans":"yes","contact:email":"info@destrengen.nl","contact:phone":"+31 599 239 277","contact:website":"https://www.destrengen.nl/","internet_access":"yes","internet_access:fee":"no","name":"Minicamping De Strengen","tents":"yes"}},"119235848":{"location":[52.9111733,6.7124951],"ct":"NL","tp":"CS","ts":"2023-05-30T17:42:02Z","tX":531,"tY":333,"tags":{"addr:city":"Schoonloo","addr:housenumber":"29","addr:postcode":"9443TM","addr:street":"Westdorperstraat","email":"info@detienheugten.nl","name":"Recreatiepark De Tien Heugten","phone":"+31 592 501 220","website":"https://www.detienheugten.nl"}},"119235854":{"location":[52.9182986,6.7074787],"ct":"NL","tp":"CS","ts":"2023-05-30T12:16:18Z","tX":531,"tY":333,"tags":{"addr:city":"Schoonloo","addr:housenumber":"7","addr:postcode":"9443TN","addr:street":"Warmenbossenweg","email":"info@warmebossen.nl","name":"De Warme Bossen","phone":"+31 592 501 511","website":"https://www.warmebossen.nl/"}},"119235856":{"location":[52.9092899,6.6813236],"ct":"NL","tp":"CS","ts":"2023-08-09T10:45:17Z","tX":531,"tY":333,"tags":{"addr:city":"Elp","addr:housenumber":"1","addr:postcode":"9442TJ","addr:street":"Ieberen","camp_site":"standard","capacity:persons":"1000","charge":"8,25 EUR/day","dog":"no","email":"uteringskamp@staatsbosbeheer.nl","fee":"yes","group_only":"yes","name":"Groepskampeerterrein Uteringskamp","name:de":"Gruppencampingplatz Uteringskamp","name:en":"Group Campground Uteringskamp","operator":"Staatsbosbeheer","pets":"no","phone":"+31 6 23868168","static_caravans":"no","tents":"yes","website":"https://www.logerenbijdeboswachter.nl/groepskamperen/groepskampeerterrein-uteringskamp-elp"}},"264824626":{"location":[53.025774,6.8392924],"ct":"NL","tp":"CS","ts":"2023-05-30T12:16:20Z","tX":531,"tY":333,"tags":{"addr:city":"Gieterveen","addr:housenumber":"40","addr:postcode":"9511PT","addr:street":"Broek","caravans":"yes","contact:email":"info@broeksehoeve.nl","contact:phone":"+31 599 648 761","contact:website":"https://www.broeksehoeve.nl/camping","name":"Camping de Broekse Hoeve","source":"3dShapes","tents":"yes"}},"397466815":{"location":[53.0748227,6.8055664],"ct":"NL","tp":"CS","ts":"2023-05-30T17:42:07Z","tX":531,"tY":333,"tags":{"addr:city":"Annerveenschekanaal","addr:housenumber":"40","addr:postcode":"9654PV","addr:street":"Greveling","contact:email":"info@campingannerveenschekanaal.nl","contact:phone":"+31 598 492 017","contact:website":"https://www.campingannerveenschekanaal.nl","name":"Camping Annerveenschekanaal"}},"399550965":{"location":[53.0297731,6.7389458],"ct":"NL","tp":"CS","ts":"2023-05-30T12:16:27Z","tX":531,"tY":333,"tags":{"addr:city":"Eext","addr:country":"NL","addr:housenumber":"9","addr:postcode":"9463TB","addr:street":"Annerweg","capacity":"15","email":"baldwinhoeve@hetnet.nl","internet_access":"yes","name":"De Baldwin Hoeve","opening_hours":"Apr 01-Oct 31","operator":"Fam A. Ebbinge","phone":"+31 592 271 629","website":"https://www.baldwinhoeve.nl/"}},"399550966":{"location":[53.0382327,6.7422059],"ct":"NL","tp":"CS","ts":"2023-05-30T17:42:06Z","tX":531,"tY":333,"tags":{"addr:city":"Eext","addr:housenumber":"3","addr:postcode":"9463TA","addr:street":"Annerweg","contact:email":"info@hondsrug.nl","contact:phone":"+31 592 271 292","contact:website":"https://www.hondsrug.nl","name":"De Hondsrug"}},"456378683":{"location":[53.010635,7.0003544],"ct":"NL","tp":"CS","ts":"2023-05-31T07:05:42Z","tX":531,"tY":333,"tags":{"addr:city":"Onstwedde","addr:housenumber":"7","addr:postcode":"9591TD","addr:street":"Sikkenbergweg","area":"yes","contact:email":"info@sikkenberg.nl","contact:phone":"+31 599 661 144","contact:website":"https://www.sikkenberg.nl","internet_access":"wifi","name":"Vakantiepark De Sikkenberg"}},"465150277":{"location":[53.0170483,6.7664264],"ct":"NL","tp":"CS","ts":"2024-09-18T06:20:33Z","tX":531,"tY":333,"tags":{"addr:city":"Gieten","addr:housenumber":"1","addr:postcode":"9461AP","addr:street":"Voorste Land","caravans":"yes","email":"info@zwanemeer.nl","name":"Camping Zwanemeer","phone":"+31 592 261 317","tents":"yes","website":"https://www.zwanemeer.nl/"}},"467158571":{"location":[53.0478244,6.8089566],"ct":"NL","tp":"CS","ts":"2023-06-13T05:52:47Z","tX":531,"tY":333,"tags":{"addr:city":"Eexterveen","addr:housenumber":"88","addr:postcode":"9658PE","addr:street":"Dorpsstraat","contact:email":"info@koopskoeienpad.nl","contact:mobile":"+31 6 52338527","contact:phone":"+31 598 468 450","contact:website":"https://koopskoeienpad.nl/","name":"Camping Koops Koeienpad"}},"476166410":{"location":[52.9961159,7.0240407],"ct":"NL","tp":"CS","ts":"2017-02-21T21:53:30Z","tX":531,"tY":333,"tags":{}},"648562073":{"location":[53.064424,6.7574096],"ct":"NL","tp":"CS","ts":"2023-05-30T17:42:07Z","tX":531,"tY":333,"tags":{"addr:city":"Annen","addr:housenumber":"14-16","addr:postcode":"9468TD","addr:street":"De Bulten","contact:email":"contact@degroenlanden.nl","contact:phone":"+31 592 272 711","contact:website":"https://www.degroenlanden.nl","name":"Naturistencamping de Groenlanden","nudism":"designated"}},"649662467":{"location":[52.9791723,6.7908686],"ct":"NL","tp":"CS","ts":"2023-05-30T12:16:29Z","tX":531,"tY":333,"tags":{"addr:city":"Gasselte","addr:housenumber":"4a","addr:postcode":"9462TD","addr:street":"Gieterweg","contact:email":"info@CampingMadeliefje.nl","contact:phone":"+31 6 43919894","contact:website":"http://www.campingmadeliefje.nl/","internet_access":"yes","internet_access:fee":"no","name":"Camping Madeliefje","operator":"Sam en Rana"}},"848110098":{"location":[53.1106874,7.0290382],"ct":"NL","tp":"CR","ts":"2024-11-27T22:42:44Z","tX":531,"tY":333,"tags":{"capacity":"55","caravan_site":"motorhome_stopover","caravan_site:type":"town","caravans":"no","dog":"yes","email":"info@turfstee.nl","fee":"yes","internet_access":"wlan","name":"Camperpark Turfstee","phone":"+31 6 50501142","power_supply":"yes","sanitary_dump_station":"yes","shower":"yes","toilets":"yes","website":"http://www.turfstee.nl/","wikimedia_commons":"Category:Camperpark Turfstee"}},"943313484":{"location":[52.9557469,6.7829766],"ct":"NL","tp":"CS","ts":"2023-05-30T12:16:35Z","tX":531,"tY":333,"tags":{"addr:city":"Drouwen","addr:housenumber":"7","addr:postcode":"9533PC","addr:street":"Gasselterstraat","cabins":"yes","caravans":"yes","email":"info@drouwenerzand.nl","fee":"yes","internet_access":"wlan","name":"Vakantiepark Drouwenerzand","phone":"+31 599 564 201","tents":"yes","website":"https://www.drouwenerzand.nl"}},"943444829":{"location":[52.9938091,6.8948648],"ct":"NL","tp":"CS","ts":"2023-05-30T12:16:35Z","tX":531,"tY":333,"tags":{"addr:city":"Gasselternijveenschemond","addr:housenumber":"30","addr:postcode":"9515PJ","addr:street":"Zuidzijde","caravans":"no","email":"info@motorschuur.info","name":"De Motorschuur","phone":"+31 6 51331237","tents":"yes","website":"https://www.motorschuur.info"}},"1106698370":{"location":[53.0223373,7.0125638],"ct":"NL","tp":"CR","ts":"2023-05-30T12:19:50Z","tX":531,"tY":333,"tags":{"addr:city":"Onstwedde","addr:housenumber":"6","addr:postcode":"9591TG","addr:street":"Veenhuizen","contact:email":"info@ooldershoeve.nl","contact:phone":"+31 6 10664100;+31 6 12876163","contact:website":"https://www.ooldershoeve.nl/camperplaatsen/","fee":"yes","name":"Camperplaats Ooldershoeve","operator":"Hans de Zwart en Lian van Vliet","power_supply":"yes","source":"3dShapes"}},"1158010786":{"location":[53.0240266,6.8393927],"ct":"NL","tp":"CS","ts":"2023-03-28T19:48:23Z","tX":531,"tY":333,"tags":{"caravans":"yes","contact:website":"https://deveenstede.nl/","name":"de Veenstede","tents":"yes"}},"1196365217":{"location":[52.9515057,6.8207768],"ct":"NL","tp":"CS","ts":"2023-08-14T11:00:35Z","tX":531,"tY":333,"tags":{"access":"agricultural","addr:city":"Bronneger","addr:housenumber":"1","addr:postcode":"9527TA","addr:street":"Spoorstraat","caravans":"yes","contact:email":"info@campinghunebed.nl","contact:phone":"+31 6 21912855","contact:website":"https://www.campinghunebed.nl","dog":"leashed","drinking_water":"yes","fee":"yes","group_only":"no","hot_water":"yes","internet_access":"wlan","internet_access:fee":"customers","name":"Camping hunebed","opening_hours":"Mo-Su 10:00-20:00","operator":"Hendrik Hingstman","power_supply":"yes","reservation":"recommended","sanitary_dump_station":"yes","shower":"yes","static_caravans":"yes","tents":"yes","toilets":"yes","wheelchair":"limited"}},"1214421340":{"location":[52.9304719,6.6984798],"ct":"NL","tp":"CS","ts":"2024-04-21T07:09:31Z","tX":531,"tY":333,"tags":{"caravans":"yes","email":"info@de-boomgaard.nl","name":"De Jobinghoeve","phone":"+31 6 53340033;+31 6 54365967","shower":"yes","tents":"yes","toilets":"yes","website":"https://www.de-boomgaard.nl/i"}},"1254169382":{"location":[53.0000919,6.7219775],"ct":"NL","tp":"CS","ts":"2024-02-23T19:37:12Z","tX":531,"tY":333,"tags":{"addr:city":"Eext","addr:housenumber":"60a","addr:postcode":"9463TJ","addr:street":"Stationsstraat","contact:fax":"+31 84 724 0176","contact:phone":"+31 592 261 531","contact:website":"https://www.schaopvolte.nl/site/index.php?pagkeuze=1&menu=main&preview=","name":"Camping de Schaopvolte"}},"1254169404":{"location":[52.9993728,6.7251882],"ct":"NL","tp":"CR","ts":"2024-02-23T19:37:12Z","tX":531,"tY":333,"tags":{"addr:city":"Eext","addr:housenumber":"60a","addr:postcode":"9463TJ","addr:street":"Stationsstraat","contact:fax":"+31 84 724 0176","contact:phone":"+31 592 261 531","contact:website":"https://www.schaopvolte.nl/site/index.php?pagkeuze=1&menu=main&preview=","name":"Camping de Schaopvolte"}},"1584759786":{"location":[53.1060376,6.8511312],"ct":"NL","tp":"CR","ts":"2024-11-20T23:41:08Z","tX":531,"tY":333,"tags":{"addr:city":"Veendam","addr:housenumber":"2","addr:postcode":"9642LW","addr:street":"Flora","caravan_site":"motorhome_stopover","fee":"yes","internet_access":"wlan","name":"Campercamping Borgerswold","name:de":"Stellplatz Borgerswold","power_supply":"yes","sanitary_dump_station":"yes","water_point":"yes","website":"https://borgerswoldhoeve.nl/camperplaatsen"}},"6326017165":{"location":[52.9566175,6.6936189],"ct":"NL","tp":"CS","ts":"2019-03-08T19:11:27Z","tX":531,"tY":333,"tags":{"caravans":"yes","contact:email":"info@mariahoeve-papenvoort.nl","contact:phone":"+31 6 53340010","contact:website":"https://www.mariahoeve-papenvoort.nl/","name":"Natuurkampeerterrein Mariahoeve","operator":"Hendrik Entjes","tents":"yes"}},"7526111485":{"location":[52.9900842,6.9401922],"ct":"NL","tp":"CS","ts":"2020-05-16T12:33:40Z","tX":531,"tY":333,"tags":{"name":"Camping 't Nije Hof","website":"https://www.nijehof.nl/"}},"11251861935":{"location":[52.9261309,6.6848501],"ct":"NL","tp":"CS","ts":"2023-10-09T21:11:45Z","tX":531,"tY":333,"tags":{"caravans":"yes","email":"info@boerhaarshoeve.nl","name":"Boerhaars Hoeve","phone":"+31 592 501 418","shower":"yes","tents":"yes","toilets":"yes","website":"https://overnachten.boerhaarshoeve.nl/kamperen/"}},"7876184709":{"location":[52.9276207,7.0136057],"ct":"NL","tp":"CR","ts":"2023-03-29T16:01:02Z","tX":531,"tY":333,"tags":{"drinking_water":"yes","fee":"yes","internet_access":"wlan","name":"Camerplaats Spoordok","shower":"yes","toilets":"yes","url":"https://www.stadskanaal.nl/ontdek-de-gemeente/recreatie-en-toerisme/camperplaats-en-haven-spoordok"}},"7837436083":{"location":[52.9995595,6.7229616],"ct":"NL","tp":"SD","ts":"2024-02-23T19:37:13Z","tX":531,"tY":333,"tags":{"sanitary_dump_station:basin":"yes"}}}