{"60151001":{"location":[52.8153923,6.8355947],"ct":"NL","tp":"CS","ts":"2025-03-04T19:13:28Z","tX":531,"tY":334,"tags":{"addr:city":"Odoornerveen","addr:housenumber":"8","addr:postcode":"7874TK","addr:street":"Haantje","capacity":"30","caravan_site":"motorhome_stopover","caravan_site:type":"canal;countryside","charge":"17.30 EUR","contact:email":"info@thaantje.com","contact:phone":"+31 591 512 302","contact:website":"https://www.thaantje.com","fee":"yes","internet_access":"wlan","internet_access:fee":"no","laundry":"yes","name":"Camping 't Haantje","phone":"+31 651276072","power_supply":"yes","power_supply:capacity":"30","power_supply:fee":"no","power_supply:maxcurrent":"6","sanitary_dump_station":"yes","sanitary_dump_station:chemical_toilet":"yes","sanitary_dump_station:grey_water":"yes","shower":"yes","toilets":"yes","water_point":"yes","water_point:fee":"no","website":"https://www.despelthoeve.nl/camping-t-haantje"}},"60151042":{"location":[52.8295052,6.8622518],"ct":"NL","tp":"CS","ts":"2024-05-09T17:54:48Z","tX":531,"tY":334,"tags":{"addr:city":"Klijndijk","addr:housenumber":"2","addr:postcode":"7871PE","addr:street":"Melkweg","brand":"Capfun","brand:website":"https://www.capfun.nl/","caravans":"yes","drinking_water":"yes","email":"fruithof@capfun.com","name":"Vakantiepark Capfun De Fruithof","phone":"+31 591 512 427","power_supply":"yes","shower":"yes","tents":"yes","toilets":"yes","website":"https://www.fruithof.nl","wheelchair":"yes"}},"68589414":{"location":[52.7306507,6.7962937],"ct":"NL","tp":"CS","ts":"2022-12-31T13:14:28Z","tX":531,"tY":334,"tags":{"name":"camping de Uilenberg","website":"https://www.deuilenberg.nl/"}},"89140299":{"location":[52.7168953,6.8035083],"ct":"NL","tp":"CS","ts":"2021-09-22T05:45:36Z","tX":531,"tY":334,"tags":{"addr:city":"Holsloot","addr:housenumber":"5","addr:postcode":"7845TG","addr:street":"Den Hool","capacity":"60","email":"info@boheemsparadijs.nl","fee":"yes","internet_access":"yes","name":"Boheems Paradijs","phone":"+31 6 28777473","source":"3dShapes","website":"https://www.boheemsparadijs.nl"}},"89140975":{"location":[52.72081,6.8100146],"ct":"NL","tp":"CS","ts":"2023-05-30T12:16:12Z","tX":531,"tY":334,"tags":{"addr:city":"Holsloot","addr:housenumber":"18","addr:postcode":"7845TE","contact:email":"info@biggenhof.nl","contact:fax":"+31 591 564 419","contact:phone":"+31 591 564 090","contact:website":"http://www.biggenhof.nl/","name":"Minicamping De Biggenhof","source":"3dShapes"}},"89141088":{"location":[52.7414892,6.8545343],"ct":"NL","tp":"CS","ts":"2024-03-28T19:17:50Z","tX":531,"tY":334,"tags":{"addr:city":"Emmen","addr:housenumber":"28","addr:postcode":"7814VD","addr:street":"Wilhelmsweg","caravans":"yes","contact:email":"info@minicampingloeksham.nl","contact:phone":"+31 6 25584286","contact:website":"https://www.minicampingloeksham.nl","name":"Minicamping Loeksham","tents":"yes"}},"89150213":{"location":[52.7253087,6.7280118],"ct":"NL","tp":"CS","ts":"2023-05-30T12:16:12Z","tX":531,"tY":334,"tags":{"addr:city":"Wachtum","addr:housenumber":"6","addr:postcode":"7754RJ","addr:street":"Oosterhesselerweg","caravans":"no","email":"arjan.pieters@molenvoort.nl","name":"Molenvoort","phone":"+31 6 51087170","tents":"yes","website":"http://molenvoort.nl"}},"89159324":{"location":[52.7523119,6.6925789],"ct":"NL","tp":"CS","ts":"2024-02-28T21:37:43Z","tX":531,"tY":334,"tags":{"addr:city":"Gees","addr:housenumber":"10","addr:postcode":"7863PC","addr:street":"Dorpsstraat","caravans":"yes","email":"info@delindehof.nl","internet_access":"wlan","internet_access:fee":"no","name":"De Lindehof","phone":"+31 524 581 992","tents":"yes","website":"https://www.delindehof.nl"}},"89163448":{"location":[52.8031659,6.9142453],"ct":"NL","tp":"CS","ts":"2023-08-25T18:15:31Z","tX":531,"tY":334,"tags":{"addr:city":"Emmen","addr:housenumber":"118","addr:postcode":"7814RT","addr:street":"Oude Roswinkelerweg","caravans":"yes","contact:email":"emmerdennen@gmail.com","contact:phone":"+31 6 25300564","contact:website":"https://www.emmerdennen.nl","name":"Emmerdennen","tents":"yes"}},"89198872":{"location":[52.7714828,6.7944933],"ct":"NL","tp":"CS","ts":"2023-05-30T17:41:59Z","tX":531,"tY":334,"tags":{"addr:city":"Sleen","addr:housenumber":"4","addr:postcode":"7841BP","addr:street":"Zetelveenweg","contact:email":"info@pieterom.nl","contact:phone":"+31 591 362 290","contact:website":"https://www.pieterom.nl","name":"Camping Pieterom"}},"89199378":{"location":[52.813226,6.7541779],"ct":"NL","tp":"CS","ts":"2023-06-13T05:52:47Z","tX":531,"tY":334,"tags":{"addr:city":"Zweeloo","addr:housenumber":"4","addr:postcode":"7851TE","addr:street":"Broekstukkenweg","caravans":"yes","contact:email":"info@looveld.nl","contact:mobile":"+31 6 51954394","contact:phone":"+31 591 371 469","contact:website":"https://looveld.nl/","name":"Camping 't Looveld","tents":"yes"}},"109202361":{"location":[52.9017681,6.704243],"ct":"NL","tp":"CS","ts":"2023-09-26T15:07:02Z","tX":531,"tY":334,"tags":{"addr:city":"Schoonloo","addr:housenumber":"33","addr:postcode":"9443PA","addr:street":"Hoofdstraat","caravans":"yes","contact:email":"info@knollegruun.nl","contact:phone":"+31 592 501 458","contact:website":"https://www.knollegruun.nl/camping/","drinking_water":"yes","internet_access":"wlan","name":"Camping + Manege Knollegruun","power_supply":"no","shower":"yes","source":"3dShapes","tents":"yes","toilets":"yes"}},"109202384":{"location":[52.9067356,6.695673],"ct":"NL","tp":"CS","ts":"2023-05-30T17:42:01Z","tX":531,"tY":334,"tags":{"addr:city":"Schoonloo","addr:housenumber":"10","addr:postcode":"9443TJ","addr:street":"Hoofdstraat","contact:email":"info@roeloomskamp.nl","contact:phone":"+31 592 501 208","contact:website":"https://www.roeloomskamp.nl","name":"Boerderijcamping Roeloomskamp","operator":"Erik en Janny Schaaphok"}},"109206754":{"location":[52.8831737,6.7375137],"ct":"NL","tp":"CS","ts":"2024-08-23T21:41:08Z","tX":531,"tY":334,"tags":{"access":"customers","addr:city":"Eeserveen","addr:housenumber":"3","addr:postcode":"7858TA","addr:street":"Bosweg","backcountry":"yes","brand":"SVR","cabins":"yes","capacity:cabins":"2","capacity:caravans":"21","capacity:persons":"80","capacity:tents":"5","caravans":"yes","charge":"22","contact:email":"info@campingdehogebomen.nl","contact:phone":"+31 599 287 231","contact:website":"https://www.campingdehogebomen.nl","dog":"yes","drinking_water":"yes","fee":"yes","internet_access":"wlan","internet_access:fee":"customers","mobile":"+31 6 29302654","name":"De Hoge Bomen","note":"Horses also accepted ! 5 euro/day\narrive from 13h00\n\nAED on site","nudism":"no","opening_hours":"Mo-Sa 08:00-20:00","payment:cash":"yes","power_supply":"yes","reservation":"recommended","sanitary_dump_station":"yes","shower":"yes","static_caravans":"yes","tents":"yes","toilets":"yes","wheelchair":"no"}},"109207178":{"location":[52.8913451,6.733967],"ct":"NL","tp":"CS","ts":"2023-09-23T17:25:59Z","tX":531,"tY":334,"tags":{"addr:city":"Ellertshaar","addr:housenumber":"9","addr:postcode":"9535TA","addr:street":"Ellertsweg","caravans":"yes","email":"info@debosranddrenthe.nl","name":"Camping De Bosrand","phone":"+31 599 287 346","tents":"yes","website":"https://www.debosranddrenthe.nl"}},"109210648":{"location":[52.8434502,6.696741],"ct":"NL","tp":"CS","ts":"2023-05-30T12:16:17Z","tX":531,"tY":334,"tags":{"addr:city":"Orvelte","addr:housenumber":"1","addr:postcode":"9441TL","addr:street":"Smalhoorn","caravans":"yes","contact:email":"info@campingorvelte.nl","contact:phone":"+31 593 322 230","contact:website":"http://www.campingorvelte.nl/","name":"Camping Orvelte","tents":"yes"}},"109210678":{"location":[52.8406403,6.7173627],"ct":"NL","tp":"CS","ts":"2023-07-03T21:13:51Z","tX":531,"tY":334,"tags":{"addr:city":"Wezuperbrug","addr:housenumber":"12","addr:postcode":"7853TC","addr:street":"Oranjekanaal Z.Z.","capacity:pitches":"25","caravans":"yes","contact:email":"campinggoedvertoef@ziggo.nl","contact:phone":"+31 591 381 489","contact:website":"https://campinggoedvertoef.nl","motorhome":"yes","name":"Camping GoedVertoef","shower":"yes","start_date":"2015","tents":"yes","toilets":"yes"}},"109213035":{"location":[52.8442963,6.7596997],"ct":"NL","tp":"CS","ts":"2023-05-30T12:16:18Z","tX":531,"tY":334,"tags":{"brand":"SVR","cabins":"yes","capacity:pitches":"45","caravans":"yes","contact:email":"info@campingdekleinereus.nl","contact:phone":"+31 591 223 070","contact:website":"https://campingdekleinereus.nl/","internet_access":"yes","internet_access:fee":"no","name":"De Kleine Reus","tents":"yes"}},"109213201":{"location":[52.8232077,6.7788148],"ct":"NL","tp":"CS","ts":"2023-05-30T12:16:18Z","tX":531,"tY":334,"tags":{"brand":"SVR","capacity:pitches":"25","caravans":"yes","contact:email":"info@deriegheide.nl","contact:phone":"+31 591 381 483","contact:website":"https://www.deriegheide.nl/","name":"De Riegheide","shower":"yes","tents":"yes","toilets":"yes"}},"109213368":{"location":[52.8717498,6.7621824],"ct":"NL","tp":"CS","ts":"2025-01-16T16:38:35Z","tX":531,"tY":334,"tags":{"capacity:pitches":"20","caravans":"yes","charge":"21.60 EUR","email":"o.peihak@gmail.com","fee":"yes","landcover":"grass","motorhome":"yes","name":"Brammershoop","phone":"+31 6 15333901;+31 6 25347070","shower":"yes","tents":"yes","toilets":"yes","website":"https://campingbrammershoop.nl/"}},"109213937":{"location":[52.8579252,6.7477486],"ct":"NL","tp":"CS","ts":"2023-05-30T17:42:02Z","tX":531,"tY":334,"tags":{"addr:city":"De Kiel","addr:housenumber":"1","addr:postcode":"7849TD","addr:street":"De Tip","caravans":"yes","email":"info@minicampinglandzicht.nl","landuse":"grass","name":"Minicamping Landzicht","phone":"+31 591 381 277","tents":"yes","website":"https://www.minicampinglandzicht.nl"}},"109214628":{"location":[52.8606474,6.7490326],"ct":"NL","tp":"CS","ts":"2023-05-30T12:16:18Z","tX":531,"tY":334,"tags":{"addr:city":"De Kiel","addr:housenumber":"8","addr:postcode":"7849PC","addr:street":"Rolderstraat","cabins":"yes","caravans":"yes","contact:phone":"+31 591 858 687","contact:website":"https://www.minicampingklavervier.nl","email":"klavervier@ziggo.nl","name":"Minicamping KlaverVier","tents":"yes"}},"109841144":{"location":[52.8654504,6.8889549],"ct":"NL","tp":"CS","ts":"2023-05-30T17:42:02Z","tX":531,"tY":334,"tags":{"addr:city":"Exloo","addr:housenumber":"37","addr:postcode":"7875TA","addr:street":"Valtherweg","contact:email":"info@campingexloo.nl","contact:phone":"+31 591 549 147","contact:website":"https://campingexloo.nl","name":"Camping Exloo"}},"109982465":{"location":[52.8972799,7.0006699],"ct":"NL","tp":"CS","ts":"2024-10-31T15:13:43Z","tX":531,"tY":334,"tags":{"addr:city":"Valthermond","addr:country":"NL","addr:housenumber":"510 A","addr:postcode":"7876BE","addr:street":"Zuiderdiep","alt_name":"Naturistencamping Het Verlaat Commercieel","capacity":"130","email":"info@hetverlaat.nl","name":"Natupark Het Verlaat","nudism":"obligatory","phone":"+31 599 662 708","website":"https://www.hetverlaat.nl"}},"109985642":{"location":[52.8712536,7.0018512],"ct":"NL","tp":"CS","ts":"2023-05-30T17:42:02Z","tX":531,"tY":334,"tags":{"access":"customers","addr:city":"Nieuw-Weerdinge","addr:housenumber":"40A","addr:postcode":"7831JB","addr:street":"Drentse Mondenweg","capacity:caravans":"15","capacity:persons":"50","capacity:tents":"8","email":"info@minicampingdrentsemonden.nl","image":"http://www.minicampingdrentsemonden.nl/.cm4all/mediadb/Plattegrond.jpg","internet_access":"wlan","name":"Mini Camping Drentse Monden","phone":"+31 591 346 270","power_supply":"yes","short_name":"Drentse Monden","shower":"yes","stars":"4.2","toilets":"yes","website":"https://www.minicampingdrentsemonden.nl"}},"119257652":{"location":[52.8610093,6.733476],"ct":"NL","tp":"CS","ts":"2024-01-23T00:50:06Z","tX":531,"tY":334,"tags":{"access":"customers","addr:city":"De Kiel","addr:housenumber":"5","addr:postcode":"7849TA","addr:street":"Kwekebosweg","backcountry":"yes","cabins":"no","capacity:caravans":"20","capacity:persons":"100","capacity:tents":"50","caravans":"yes","dog":"yes","drinking_water":"yes","fee":"yes","internet_access":"no","lit":"no","motor_vehicle":"yes","name":"Natuurkampeerterrein De Kijl","nudism":"no","openfire":"no","opening_hours":"Summer season","operator":"Staatsbosbeheer","payment:debit_cards":"yes","payment:maestro":"yes","permanent_camping":"no","power_supply":"yes","reservation":"recommended","sanitary_dump_station":"customers","shower":"yes","static_caravans":"no","tents":"yes","toilets":"yes","website":"https://www.logerenbijdeboswachter.nl/kamperen/de-kijl","wheelchair":"yes"}},"300046309":{"location":[52.8937701,6.8200502],"ct":"NL","tp":"CS","ts":"2023-05-30T12:16:24Z","tX":531,"tY":334,"tags":{"addr:city":"Ees","addr:housenumber":"25","addr:postcode":"9536TA","addr:street":"Odoornerstraat","cabins":"yes","caravans":"yes","email":"info@dezevenheuveltjes.nl","name":"De Zeven Heuveltjes","phone":"+31 591 549 256","tents":"yes","website":"https://www.dezevenheuveltjes.nl"}},"417078163":{"location":[52.733009,6.7001678],"ct":"NL","tp":"CS","ts":"2022-02-03T12:29:52Z","tX":531,"tY":334,"tags":{"addr:city":"Gees","addr:housenumber":"9","addr:postcode":"7863TA","addr:street":"Holtweg","name":"De Wolfskuylen","operator":"Hofparken","website":"https://www.campingdewolfskuylen.nl/"}},"499556471":{"location":[52.7942877,6.7233357],"ct":"NL","tp":"CS","ts":"2023-05-30T17:42:06Z","tX":531,"tY":334,"tags":{"addr:city":"Zweeloo","addr:housenumber":"2","addr:postcode":"7851AA","addr:street":"Hoofdstraat","contact:email":"info@campingknieplanden.nl","contact:phone":"+31 524 581 296","contact:website":"https://www.campingknieplanden.nl","name":"Camping De Knieplanden"}},"504320712":{"location":[52.8431382,6.7311476],"ct":"NL","tp":"CS","ts":"2024-07-20T15:29:40Z","tX":531,"tY":334,"tags":{"addr:city":"Wezuperbrug","addr:housenumber":"10","addr:postcode":"7853TA","addr:street":"Oranjekanaal N.Z.","contact:email":"kuierpad@molecaten.nl","contact:phone":"+31 591 381 415","contact:website":"https://www.molecaten.nl/kuierpad","name":"Molecaten Park Kuierpad","old_name":"´t Kuierpadtien"}},"650279583":{"location":[52.7265486,6.8946005],"ct":"NL","tp":"CS","ts":"2024-08-19T11:42:23Z","tX":531,"tY":334,"tags":{"addr:city":"Nieuw-Amsterdam","addr:housenumber":"45","addr:postcode":"7833JD","addr:street":"Verlengde Herendijk","campers":"yes","capacity:caravans":"47","capacity:tents":"47","caravans":"yes","description":"Telefonisch bereikbaar van 1 april tot 1 oktober","dog":"leashed","fee":"yes","name":"Bargerhoek","nudism":"yes","pets":"leashed","phone":"+31 591 303 266","tents":"yes","website":"https://bargerhoek.nl","wheelchair":"limited"}},"829798616":{"location":[52.9057592,6.6960932],"ct":"NL","tp":"CS","ts":"2023-05-30T12:16:33Z","tX":531,"tY":334,"tags":{"addr:city":"Schoonloo","addr:housenumber":"12","addr:postcode":"9443TJ","addr:street":"Hoofdstraat","contact:email":"info@deelderij.nl","contact:phone":"+31 592 508 090","name":"De Deelderij","operator":"Marco, Marloes, Matthe en Dycke Bosma","website":"https://www.deelderij.nl/"}},"904731526":{"location":[52.8836043,6.7427389],"ct":"NL","tp":"CS","ts":"2023-06-13T05:52:47Z","tX":531,"tY":334,"tags":{"addr:city":"Eeserveen","addr:housenumber":"1","addr:postcode":"7858TA","addr:street":"Bosweg","caravans":"yes","contact:email":"info@holmhoeve.nl","contact:mobile":"+31 6 12904825;+31 6 29404898","contact:phone":"+31 599 287 223","contact:website":"https://www.holmhoeve.nl/","name":"Camping Holmhoeve","tents":"yes"}},"947565307":{"location":[52.7041921,7.0016142],"ct":"NL","tp":"CS","ts":"2023-05-30T12:16:35Z","tX":531,"tY":334,"tags":{"addr:city":"Klazienaveen","addr:housenumber":"7","addr:postcode":"7891TH","addr:street":"Verlengde Scheperweg","caravans":"yes","email":"info@campingbosveen.nl","name":"Bosveen","phone":"+31 591 313 853","tents":"yes","website":"https://campingbosveen.nl"}},"952049334":{"location":[52.7858108,6.6919761],"ct":"NL","tp":"CS","ts":"2023-11-09T21:57:28Z","tX":531,"tY":334,"tags":{"addr:city":"Meppen","addr:housenumber":"16","addr:postcode":"7855PR","addr:street":"Middendorpsstraat","cabins":"yes","caravans":"yes","email":"info@twittezand.nl","internet_access":"wlan","internet_access:fee":"yes","name":"'t Witte Zand","phone":"+31 591 371 380","tents":"yes","website":"https://twittezand.nl"}},"955955335":{"location":[52.8688152,6.8316463],"ct":"NL","tp":"CS","ts":"2024-05-02T20:53:17Z","tX":531,"tY":334,"tags":{"addr:city":"Odoorn","addr:housenumber":"17","addr:postcode":"7873TC","addr:street":"Borgerderweg","cabins":"yes","caravans":"yes","drinking_water":"yes","email":"info@vlintenholt.nl","name":"'t Vlintenholt","phone":"+31 6 10044929","power_supply":"yes","sanitary_dump_station":"yes","shower":"yes","tents":"yes","website":"https://www.vlintenholt.nl"}},"986906768":{"location":[52.7791847,6.6836748],"ct":"NL","tp":"CS","ts":"2023-05-30T12:16:37Z","tX":531,"tY":334,"tags":{"addr:city":"Meppen","addr:housenumber":"41","addr:postcode":"7855TA","addr:street":"Mepperstraat","caravans":"yes","email":"info@bronzenemmer.nl","fax":"+31 591 371 734","name":"De Bronzen Emmer","phone":"+31 591 371 543","tents":"yes","website":"https://www.de-bronzen-emmer.nl"}},"988490381":{"location":[52.7786746,6.6927169],"ct":"NL","tp":"CS","ts":"2023-05-30T12:16:37Z","tX":531,"tY":334,"tags":{"addr:city":"Meppen","addr:housenumber":"2","addr:postcode":"7855PV","addr:street":"Nijmaten","caravans":"yes","email":"info@erfgoeddeboemerang.nl","name":"Erfgoed De Boemerang","phone":"+31 591 372 118","tents":"yes","website":"https://erfgoeddeboemerang.nl"}},"1012158981":{"location":[52.8224115,6.7752147],"ct":"NL","tp":"CS","ts":"2021-12-14T16:37:58Z","tX":531,"tY":334,"tags":{"addr:city":"Schoonoord","addr:housenumber":"118","addr:postcode":"7848AK","addr:street":"Slenerweg","email":"info@aagjeshoeve.nl","name":"Bospark Aagjeshoeve","phone":"+31 6 58835572","website":"https://www.aagjeshoeve.nl/"}},"1073092611":{"location":[52.8883771,6.9019051],"ct":"NL","tp":"CS","ts":"2022-06-24T16:03:28Z","tX":531,"tY":334,"tags":{"addr:city":"Exloërveen","addr:housenumber":"12","addr:postcode":"9574PC","addr:street":"Boermastreek","caravans":"yes","contact:email":"info@hetzoerscheland.nl","contact:mobile":"+31 6 30603107","contact:website":"http://www.hetzoerscheland.nl/","internet_access":"yes","internet_access:fee":"no","name":"Minicamping Het Zoersche Land","operator":"Familie Slomp","tents":"yes"}},"1197598984":{"location":[52.8968911,6.7032842],"ct":"NL","tp":"CS","ts":"2024-03-14T12:06:30Z","tX":531,"tY":334,"tags":{"addr:city":"Schoonloo","addr:housenumber":"28A","addr:postcode":"9443PA","addr:street":"Hoofdstraat","backcountry":"no","campers":"yes","capacity:caravans":"20","capacity:pitches":"24","capacity:tents":"24","caravans":"yes","check_date":"2024-03-14","contact:mobile":"+31 6 23 86 81 68","contact:website":"https://terreinzoeker.natuurkampeerterreinen.nl/terreinen/drenthe/de-dennen/","designation":"Natuurkampeerterrein Dennen ''Puur kamperen.","dog":"leashed","drinking_water":"yes","email":"dennen@staatsbosbeheer.nl","fee":"yes","group_only":"no","hot_water":"yes","name":"Natuurkampeerterrein De Dennen","note":"bgg van het vaste nummer: +31 6 23 86 81 68 (8.00-20.00 uur / niet voor beschikbaarheid)","note:de":"Handynummer +31 6 23 86 81 68 (8.00-20.00 Uhr) NUR für lokale Unterstützung, NICHT für Reservierungen.","note:en":"Mobile phone +31 6 23 86 81 68 (8.00-20.00 ) ONLY for local assistance, NOT for reservations.","note:fr":"GSM +31 6 23 86 81 68 (8.00-20.00) UNIQUEMENT pour l'assistance locale, PAS pour les réservations.","opening_hours":"easter -3 days-Oct","operator":"Staatsbosbeheer","payment:debit_cards":"yes","payment:prepaid_ticket":"yes","permanent_camping":"no","phone":"+31 30 69 77 749","reservation":"not required","sanitary_dump_station":"customers","shower":"hot","static_caravans":"no","tents":"yes","toilets":"yes","website":"https://terreinzoeker.natuurkampeerterreinen.nl/terreinen/drenthe/de-dennen/"}},"1199938945":{"location":[52.7508411,6.9775187],"ct":"NL","tp":"CS","ts":"2023-08-19T15:39:22Z","tX":531,"tY":334,"tags":{"cabins":"yes","capacity:pitches":"35","caravans":"yes","email":"info@campingoosterbos.nl","mobile":"+31 6 52889299","motorhome":"yes","name":"Oosterbos","old_name":"Het Heerenhof","phone":"+31 591 764 042","shower":"yes","tents":"yes","toilets":"yes","website":"https://www.campingoosterbos.nl/camping-oosterbos-emmen/"}},"1201772517":{"location":[52.8663026,7.0023887],"ct":"NL","tp":"CR","ts":"2025-01-25T18:06:54Z","tX":531,"tY":334,"tags":{"caravan_site":"motorhome_stopover","caravan_site:type":"countryside","charge":"20 EUR","dog":"yes","email":"info@camperparkdegrijzeduif.nl","fee":"yes","internet_access":"wlan","internet_access:fee":"no","motorhome":"designated","name":"Camperpark De Grijze Duif","phone":"+31 6 51608841; +31 6 29007600 \"Annemarie\"","reservation":"yes","seasonal":"yes","shower":"yes","surface":"grass","toilets":"yes","website":"https://camperparkdegrijzeduif.nl/camperplaatsen/"}},"1204035825":{"location":[52.8460484,6.7595113],"ct":"NL","tp":"CS","ts":"2023-08-31T21:20:26Z","tX":531,"tY":334,"tags":{"capacity:pitches":"5","caravans":"yes","name":"Tante Bob & de Rakkertjes","old_name":"Drentsch Land","phone":"+31 591 222 580","shower":"yes","tents":"yes","toilets":"yes","website":"https://www.tante-bob.nl/minicamping-in-schoonoord"}},"1353937454":{"location":[52.6990258,6.9260803],"ct":"NL","tp":"CR","ts":"2025-01-24T13:08:15Z","tX":531,"tY":334,"tags":{"addr:city":"Erica","addr:housenumber":"3","addr:postcode":"7887TC","addr:street":"Noordersloot","cabins":"no","campers":"yes","caravan_site":"motorhome_stopover","caravan_site:type":"countryside","caravans":"no","charge":"24 EUR","dog":"yes","email":"info@deberkenweide.nl","fee":"yes","internet_access":"wlan","internet_access:fee":"no","motorhome":"yes","name":"Camperpark De Berkenweide","phone":"+31 6 39499048","power_supply":"yes","power_supply:fee":"no","reservation":"yes","reservation:description":"2 nights minimum","sanitary_dump_station":"yes","seasonal":"yes","tents":"no","toilets":"yes","website":"https://deberkenweide.nl/"}},"1353956063":{"location":[52.7811624,6.9030253],"ct":"NL","tp":"CR","ts":"2025-01-24T14:09:23Z","tX":531,"tY":334,"tags":{"caravan_site":"motorhome_stopover","caravan_site:type":"city","caravans":"no","dog":"yes","fee":"no","maxstay":"72 hours","name":"Parkeerplaats Oost Emmen","sanitary_dump_station":"no","tents":"no"}},"1353957731":{"location":[52.7941586,6.8001867],"ct":"NL","tp":"CR","ts":"2025-01-24T14:15:08Z","tX":531,"tY":334,"tags":{"campers":"yes","capacity":"16","caravan_site":"motorhome_stopover","caravan_site:type":"restaurant","charge":"17.50 EUR","fee":"yes","internet_access":"wlan","maxstay":"120 hours","name":"Camperplaats Noord-Sleen, Drenthe","power_supply":"yes","power_supply:fee":"yes","power_supply:maxcurrent":"10","reservation":"no","restaurant":"yes","sanitary_dump_station":"yes","shower":"yes","surface":"grass","toilets":"yes","website":"https://zalencentrumwielens.nl/camperplaatsen/"}},"1450968530":{"location":[52.7811462,6.9030035],"ct":"NL","tp":"CR","ts":"2023-05-03T14:32:16Z","tX":531,"tY":334,"tags":{"caravans":"no","dog":"yes","fee":"no","maxstay":"72 hours","name":"Kerkhoflaan","sanitary_dump_station":"no","tents":"no"}},"2322354132":{"location":[52.7935759,6.7944203],"ct":"NL","tp":"CR","ts":"2023-07-23T12:36:22Z","tX":531,"tY":334,"tags":{"addr:city":"Noord-Sleen","addr:housenumber":"1","addr:postcode":"7846TE","addr:street":"Zweeloërstraat","contact:email":"geertwjannie@gmail.com","contact:mobile":"+31 6 23826028","contact:phone":"+31 591 361 778","contact:website":"https://camperplaats-de-kalverweide.business.site/","fee":"yes","name":"De Kalverweide","power_supply":"yes","sanitary_dump_station":"yes"}},"2803319323":{"location":[52.6986251,6.9257365],"ct":"NL","tp":"CR","ts":"2023-04-29T16:30:05Z","tX":531,"tY":334,"tags":{"addr:city":"Erica","addr:housenumber":"3","addr:postcode":"7887TC","addr:street":"Noordersloot","cabins":"no","campers":"yes","caravans":"no","dog":"yes","email":"info@deberkenweide.nl","internet_access":"yes","motorhome":"yes","name":"Camperpark De Berkenweide","phone":"+31 6 39499048","power_supply":"yes","sanitary_dump_station":"yes","source":"BAG","source:date":"2014-03-24","tents":"no","website":"https://deberkenweide.nl/"}},"2835597977":{"location":[52.8016938,6.6885573],"ct":"NL","tp":"CS","ts":"2022-08-03T09:33:17Z","tX":531,"tY":334,"tags":{"addr:city":"Aalden","addr:housenumber":"24A","addr:postcode":"7854TB","addr:street":"Gelpenberg","name":"Minicamping Aelderveen","source":"BAG","source:date":"2014-03-24","website":"https://aelderveen.nl/"}},"9611393491":{"location":[52.8011074,6.8063805],"ct":"NL","tp":"CS","ts":"2022-11-04T11:14:28Z","tX":531,"tY":334,"tags":{"addr:city":"Noord-Sleen","addr:housenumber":"75","addr:postcode":"7846TK","addr:street":"'t Haantje","caravans":"yes","contact:email":"info@sleenerzand.nl","contact:phone":"+31 591 202 920","contact:website":"https://sleenerzand.nl/","name":"Sleenerzand Mini camping","tents":"yes"}},"7728086109":{"location":[52.7941783,6.8001361],"ct":"NL","tp":"CR","ts":"2021-02-16T18:17:35Z","tX":531,"tY":334,"tags":{"campers":"yes","fee":"yes","internet_access":"wlan","maxstay":"120 hours","name":"Camperplaats Noord-Sleen","power_supply":"yes","sanitary_dump_station":"yes","shower":"yes","toilets":"yes","website":"https://zalencentrumwielens.nl/camperplaatsen/"}},"11111228486":{"location":[52.8965013,6.7039682],"ct":"NL","tp":"SD","ts":"2023-08-13T08:36:24Z","tX":531,"tY":334,"tags":{}},"11112906852":{"location":[52.8616732,6.7332244],"ct":"NL","tp":"SD","ts":"2024-01-23T00:50:06Z","tX":531,"tY":334,"tags":{"access":"customers","fee":"no","water_point":"yes","website":"https://www.staatsbosbeheer.nl/"}}}