{"13061600":{"location":[52.5394036,6.6976676],"ct":"DE","tp":"CS","ts":"2021-08-06T10:18:19Z","tX":531,"tY":335,"tags":{"access":"private","campers":"yes","caravans":"yes","email":"secretariaat@balderhaar.eu","name":"Naturistencamping Balderhaar","nudism":"designated","phone":"+49 594 8531","tents":"yes","website":"https://www.balderhaar.eu/"}},"33874959":{"location":[52.6944446,6.8527194],"ct":"NL","tp":"CS","ts":"2023-08-01T08:01:36Z","tX":531,"tY":335,"tags":{"caravans":"yes","email":"post@buitenland.com","landuse":"recreation_ground","name":"Camping Buitenland","phone":"+31 591 553 002","reservation":"recommended","tents":"yes","website":"https://buitenland.com/"}},"87613843":{"location":[52.5828957,6.6814878],"ct":"NL","tp":"CS","ts":"2023-07-02T13:56:14Z","tX":531,"tY":335,"tags":{"addr:city":"Loozen","addr:country":"NL","addr:housenumber":"5","addr:postcode":"7778HJ","addr:street":"Roskampweg","bbq":"yes","cabins":"yes","capacity:pitches":"25","caravans":"yes","dog":"yes","drinking_water":"yes","fee":"yes","hot_water":"yes","internet_access":"wlan","landcover":"grass","motor_vehicle":"yes","name":"'t Loozerveld","opening_hours":"Apr 6 - Oct 1","phone":"+31 524 561 262","picnic_table":"yes","power_supply":"yes","reservation":"yes","shower":"yes","tents":"yes","toilets":"yes","washing_machine":"yes","website":"https://loozerveld.nl/"}},"87822049":{"location":[52.6817082,6.9271949],"ct":"NL","tp":"CS","ts":"2023-05-30T12:16:12Z","tX":531,"tY":335,"tags":{"addr:city":"Schoonebeek","addr:housenumber":"23","addr:postcode":"7761PM","addr:street":"Berkenlaan","email":"info@fila-delfia.nl","name":"Mini Camping Fila-delfia","phone":"+31 591 531 364","website":"http://www.fila-delfia.nl/"}},"87831466":{"location":[52.6065576,6.7175433],"ct":"NL","tp":"CS","ts":"2023-08-11T21:26:25Z","tX":531,"tY":335,"tags":{"capacity:pitches":"12","capacity:static_caravans":"24","caravans":"yes","email":"info@devechtkamp.nl","name":"De Vechtkamp","opening_hours":"Apr 01 - Oct 30","phone":"+31 524 561 369","shower":"yes","static_caravans":"yes","tents":"yes","toilets":"yes","website":"https://www.devechtkamp.nl/"}},"87857370":{"location":[52.6009647,6.6955311],"ct":"NL","tp":"CS","ts":"2023-08-01T08:06:32Z","tX":531,"tY":335,"tags":{"cabins":"yes","caravans":"yes","email":"bertenroelien@gmail.com","name":"Prenger","phone":"+31 524 562 279;+31 6 55143509","shower":"yes","static_caravans":"yes","tents":"yes","toilets":"yes","website":"http://www.campingprenger.com/"}},"87907907":{"location":[52.6785698,6.8378565],"ct":"NL","tp":"CS","ts":"2024-05-21T18:06:25Z","tX":531,"tY":335,"tags":{"addr:city":"Stieltjeskanaal","addr:housenumber":"114","addr:postcode":"7756PG","addr:street":"Stieltjeskanaal","contact:email":"info@bij-aquamarijn.nl","contact:phone":"+31 524 222 008","contact:website":"https://www.bij-aquamarijn.nl/overnachten/minicamping","internet_access":"yes","internet_access:fee":"no","name":"Mini Camping Aquamarijn"}},"87929925":{"location":[52.6718013,6.7808939],"ct":"NL","tp":"CS","ts":"2021-07-30T11:53:07Z","tX":531,"tY":335,"tags":{"addr:city":"Stieltjeskanaal","addr:housenumber":"34","addr:postcode":"7756PE","addr:street":"Stieltjeskanaal","caravans":"yes","email":"info@kalmpjesan.nl","landuse":"grass","name":"Camping Kalmpjes an","phone":"+31 6 82251845","tents":"yes","website":"https://kalmpjesan.nl"}},"87950596":{"location":[52.5722409,6.9481338],"ct":"DE","tp":"CS","ts":"2023-08-19T09:51:59Z","tX":531,"tY":335,"tags":{"caravans":"yes","name":"Weustehof","phone":"+49 5944 361","shower":"yes","tents":"yes","toilets":"yes","website":"https://www.weustehof.de/"}},"133134661":{"location":[52.4848454,6.8649751],"ct":"DE","tp":"CS","ts":"2023-11-01T19:48:33Z","tX":531,"tY":335,"tags":{"addr:city":"Uelsen","addr:housenumber":"35","addr:postcode":"49843","addr:street":"Fasanenweg","caravans":"yes","email":"service@heideruh-camp.de","fax":"+49 5942 914635","name":"Campingplatz Heideruh","phone":"+49 5942 1866","tents":"no","website":"https://www.heideruh-camp.de/index.php/de/"}},"153967548":{"location":[52.517366,6.8697051],"ct":"DE","tp":"CS","ts":"2022-06-04T14:20:30Z","tX":531,"tY":335,"tags":{"name":"Wilsumer Berge"}},"155001926":{"location":[52.5188349,6.8677097],"ct":"DE","tp":"CS","ts":"2012-03-14T12:42:51Z","tX":531,"tY":335,"tags":{}},"179591233":{"location":[52.5521326,6.7247465],"ct":"DE","tp":"CS","ts":"2024-05-12T09:28:55Z","tX":531,"tY":335,"tags":{"name":"Motorcamping Berkenhof","website":"https://berkenhof.eu/"}},"180001017":{"location":[52.6484912,6.7732182],"ct":"DE","tp":"CS","ts":"2022-07-16T08:08:04Z","tX":531,"tY":335,"tags":{"contact:website":"https://www.arendshof-camping.de","name":"Arendshof-Camping"}},"365509155":{"location":[52.6819015,6.9321715],"ct":"NL","tp":"CS","ts":"2021-07-07T06:09:33Z","tX":531,"tY":335,"tags":{"addr:city":"Erica","addr:housenumber":"100","addr:postcode":"7887TK","addr:street":"Griendtsveenstraat","caravans":"yes","email":"info@minicampingamos.nl","name":"Minicamping Amos","tents":"yes","website":"https://minicampingamos.nl"}},"496176712":{"location":[52.4872501,6.8308969],"ct":"DE","tp":"CS","ts":"2019-03-21T04:36:27Z","tX":531,"tY":335,"tags":{"name":"Camping Waldruh","website":"https://www.camping-waldruh.nl/"}},"626488971":{"location":[52.6066218,6.8500234],"ct":"DE","tp":"CR","ts":"2023-02-15T09:55:42Z","tX":531,"tY":335,"tags":{"access":"yes","addr:city":"Emlichheim","addr:postcode":"49824","capacity":"7","contact:phone":"+49 5943 9992915","fee":"yes","lit":"yes","maxstay":"10 days","name":"Wohnmobilstellplatz am Haus Ringerbrüggen","object:city":"Emlichheim","object:housenumber":"13","object:postcode":"49824","object:street":"Dorfstraße","operator":"VVV - Verein Vier an der Vechte e.V.","power_supply":"yes","sanitary_dump_station":"yes","shower":"no","surface":"sett","toilets":"yes","water_point":"yes","website":"https://www.vvv-emlichheim.com/schlafen-schlemmen/wohnmobilstellplaetze.html"}},"629606756":{"location":[52.6718814,6.7784912],"ct":"NL","tp":"CS","ts":"2018-10-01T19:10:20Z","tX":531,"tY":335,"tags":{"addr:city":"Stieltjeskanaal","addr:housenumber":"30","addr:postcode":"7756PE","addr:street":"Stieltjeskanaal","caravans":"yes","name":"Minicamping De Waterengel","tents":"yes"}},"668931295":{"location":[52.6128774,6.743261],"ct":"DE","tp":"CR","ts":"2024-03-19T18:32:10Z","tX":531,"tY":335,"tags":{"capacity":"8","caravans":"no","charge":"5 EUR","dog":"yes","fee":"yes","name":"Wohnmobilstellplatz in Laar an der alten Mühle","power_supply":"yes","sanitary_dump_station":"yes","source:name":"website of the city","surface":"paving_stones","tents":"no","water_point":"yes","website":"https://www.laar-vechte.de/tourismus/wohnmobilstellplatz/","wikimedia_commons":"Category:Wohnmobilstellplatz Laar (Grafschaft Bentheim)"}},"783566629":{"location":[52.6708993,6.8789539],"ct":"NL","tp":"CS","ts":"2023-05-30T12:16:33Z","tX":531,"tY":335,"tags":{"addr:city":"Schoonebeek","addr:housenumber":"7","addr:postcode":"7761PJ","addr:street":"Bultweg","caravans":"yes","email":"info@campingemmen.nl","name":"Camping Emmen","phone":"+31 524 532 194","tents":"yes","website":"https://www.campingemmen.nl"}},"968451321":{"location":[52.6743857,6.8081244],"ct":"NL","tp":"CS","ts":"2023-08-19T10:31:04Z","tX":531,"tY":335,"tags":{"addr:city":"Stieltjeskanaal","addr:housenumber":"78","addr:postcode":"7756PG","addr:street":"Stieltjeskanaal","cabins":"yes","caravans":"yes","email":"camping@stalbuitenleven.nl","name":"Buitenleven","old_name":"Minicamping De Stieltjeshoeve","phone":"+31 6 51559568","shower":"yes","tents":"yes","toilets":"yes","website":"https://www.stalbuitenleven.nl/camping-buitenleven/"}},"1067176506":{"location":[52.56549,6.7548724],"ct":"NL","tp":"CS","ts":"2023-06-26T19:17:09Z","tX":531,"tY":335,"tags":{"caravans":"yes","email":"info@grenszicht.nl","internet_access":"wlan","internet_access:fee":"no","name":"Grenszicht","nudism":"no","phone":"+31 523 216 365","reservation":"yes","sanitary_dump_station":"yes","shower":"yes","tents":"yes","website":"https://www.grenszicht.nl/"}},"1163365589":{"location":[52.4864328,6.8846122],"ct":"DE","tp":"CR","ts":"2023-04-17T11:07:11Z","tX":531,"tY":335,"tags":{"addr:city":"Uelsen","addr:postcode":"49843","addr:street":"Zum Waldbad","area":"yes","capacity":"13","caravans":"no","designation":"campers","dog":"yes","fee":"yes","internet_access":"wlan","name":"Wohnmobilstellplatz \"Am Waldbad\"","power_supply":"yes","tents":"yes"}},"1236400087":{"location":[52.6613404,6.7332284],"ct":"NL","tp":"CR","ts":"2024-01-02T18:44:35Z","tX":531,"tY":335,"tags":{"capacity":"4","charge":"10 EUR","fee":"yes","name":"Camperplaats EDS-plein","power_supply":"yes","seasonal":"no","water_point":"no"}},"1331674174":{"location":[52.6957819,6.8576207],"ct":"NL","tp":"CS","ts":"2024-11-07T17:39:56Z","tX":531,"tY":335,"tags":{"addr:city":"Zandpol","addr:housenumber":"16","addr:postcode":"7764AA","addr:street":"Dennenweg","email":"info@kleintjezandpol.nl","name":"Minicamping Kleintje Zandpol","phone":"+31 6 3943 5609","website":"https://kleintjezandpol.nl/"}},"2804205855":{"location":[52.6957233,6.8573885],"ct":"NL","tp":"CS","ts":"2024-01-09T14:10:52Z","tX":531,"tY":335,"tags":{"addr:city":"Zandpol","addr:housenumber":"16","addr:postcode":"7764AA","addr:street":"Dennenweg","email":"info@kleintjezandpol.nl","name":"Minicamping Kleintje Zandpol","phone":"+31 6 3943 5609","source":"BAG","source:date":"2014-03-24","website":"https://kleintjezandpol.nl/"}},"7740286785":{"location":[52.6242534,6.8795149],"ct":"DE","tp":"CR","ts":"2024-05-12T11:53:52Z","tX":531,"tY":335,"tags":{"caravans":"yes","name":"Camperplaats de Slaaphoeve","tents":"no"}},"6264189802":{"location":[52.613043,6.7434905],"ct":"DE","tp":"SD","ts":"2019-02-07T16:13:44Z","tX":531,"tY":335,"tags":{"sanitary_dump_station:chemical_toilet":"yes","sanitary_dump_station:fee":"no","sanitary_dump_station:gravity":"yes","sanitary_dump_station:grey_water":"yes","sanitary_dump_station:suction":"no"}}}