{"364957":{"location":[52.4340502,6.7895461],"ct":"NL","tp":"CS","ts":"2023-05-30T12:24:12Z","tX":531,"tY":336,"tags":{"addr:city":"Mander","addr:housenumber":"17","addr:postcode":"7663TP","addr:street":"Iemscheweg","name":"Camping 'Aan Het Twentepad'","phone":"+31 541 680 117","source":"3dShapes","surface":"grass","website":"http://www.twentepad.nl/"}},"6316397":{"location":[52.3891261,6.8997738],"ct":"NL","tp":"CS","ts":"2022-09-15T18:10:32Z","tX":531,"tY":336,"tags":{"addr:city":"Agelo","addr:housenumber":"22","addr:postcode":"7636PL","addr:street":"Rossumerstraat","area":"yes","name":"Camping De Haer","source":"BAG","source:date":"2017-11-30","toponym":"park","url":"http://www.dehaer.nl/"}},"9539714":{"location":[52.4089333,6.8837203],"ct":"NL","tp":"CS","ts":"2023-05-31T17:01:49Z","tX":531,"tY":336,"tags":{"addr:city":"Ootmarsum","addr:housenumber":"4","addr:postcode":"7631CJ","addr:street":"Tichelwerk","contact:email":"info@kuiperberg.nl","contact:phone":"+31 541 291 624","contact:website":"http://www.kuiperberg.nl","name":"Kuiperberg"}},"35976034":{"location":[52.3669254,6.8435144],"ct":"NL","tp":"CS","ts":"2023-07-23T19:24:28Z","tX":531,"tY":336,"tags":{"camp_site":"deluxe","caravans":"yes","email":"info@demolenhof.nl","name":"De Molenhof","phone":"+31 541 661 165","shower":"yes","swimming_pool":"yes","tents":"yes","toilets":"yes","website":"https://www.demolenhof.nl/"}},"46170320":{"location":[52.3913512,6.9548827],"ct":"NL","tp":"CS","ts":"2023-05-30T21:25:38Z","tX":531,"tY":336,"tags":{"addr:city":"Tilligte","addr:housenumber":"19","addr:postcode":"7634PC","addr:street":"Damweg","name":"Mini-camping De Dam","website":"https://www.campingdedam.nl"}},"46183205":{"location":[52.4109192,7.0237931],"ct":"NL","tp":"CS","ts":"2023-07-17T18:03:21Z","tX":531,"tY":336,"tags":{"capacity":"40","caravans":"yes","internet_access":"yes","mobile":"+31 6 37006800","name":"Erve Wezenberg","opening_hours":"week 01-53","phone":"+31 541 229 319","shower":"yes","tents":"yes","toilets":"yes","website":"https://ervewezenberg.nl/"}},"46415034":{"location":[52.4262678,6.8834807],"ct":"NL","tp":"CS","ts":"2023-06-29T06:47:04Z","tX":531,"tY":336,"tags":{"addr:city":"Nutter","addr:housenumber":"19","addr:postcode":"7638PN","addr:street":"Wittebergweg","caravans":"yes","email":"info@dereke.nl","landcover":"grass","name":"De Rêke","phone":"+31 541 291 407","shower":"yes","tents":"yes","toilets":"yes","website":"http://www.dereke.nl"}},"46496373":{"location":[52.4162418,6.8107296],"ct":"NL","tp":"CS","ts":"2023-06-26T21:04:17Z","tX":531,"tY":336,"tags":{"caravans":"yes","email":"info@batsjan.nl","landcover":"grass","motorhome":"yes","name":"Bats Jan","phone":"+31 6 20261646","shower":"yes","tents":"yes","toilets":"yes","website":"https://batsjan.nl/"}},"46496693":{"location":[52.3986213,6.8108593],"ct":"NL","tp":"CS","ts":"2023-07-17T18:03:21Z","tX":531,"tY":336,"tags":{"cabins":"yes","caravans":"yes","contact:email":"camping@kleinbaasdam.nl","contact:phone":"+31 546 623 328","contact:website":"https://www.kleinbaasdam.nl/","contact:whatsapp":"+31 6 11170139","name":"Camping Klein Baasdam","shower":"yes","tents":"yes","toilets":"yes"}},"46496924":{"location":[52.4152584,6.8020006],"ct":"NL","tp":"CS","ts":"2023-05-30T12:23:51Z","tX":531,"tY":336,"tags":{"brand":"SVR","caravans":"yes","email":"info@debussche.com","landcover":"grass","mobile":"+31 6 14159196","name":"De Bussche","phone":"+31 546 433 383","shower":"yes","tents":"yes","toilets":"yes","website":"https://debussche.com/"}},"46497584":{"location":[52.4105982,6.8307615],"ct":"NL","tp":"CS","ts":"2023-05-30T21:25:47Z","tX":531,"tY":336,"tags":{"brand":"SVR","capacity:pitches":"25","caravans":"yes","email":"info@erve-vleerbosch.nl","landcover":"grass","mobile":"+31 6 21433391","name":"Erve Vleerbosch","phone":"+31 541 670 326","shower":"yes","tents":"yes","toilets":"yes","website":"https://www.erve-vleerbosch.nl","wheelchair":"no"}},"46501349":{"location":[52.4325862,6.8028828],"ct":"NL","tp":"CS","ts":"2023-05-05T20:01:56Z","tX":531,"tY":336,"tags":{"brand":"SVR","caravans":"yes","name":"Erve De Snieder","phone":"+31 6 11471013","shower":"yes","surface":"grass","tents":"yes","toilets":"yes","website":"http://www.ervesnieder.nl/svr.html"}},"46697021":{"location":[52.317708,7.0274395],"ct":"NL","tp":"CS","ts":"2023-05-30T21:25:38Z","tX":531,"tY":336,"tags":{"addr:city":"de Lutte","addr:housenumber":"15","addr:postcode":"7587LA","addr:street":"Zandhuizerweg","capacity":"25","fee":"yes","internet_access":"wlan","internet_access:fee":"no","name":"minicamping de Dinkelweide","website":"https://www.dinkelweide.nl"}},"46697363":{"location":[52.3560551,7.0045937],"ct":"NL","tp":"CS","ts":"2024-06-24T17:50:38Z","tX":531,"tY":336,"tags":{"brand":"SVR","capacity:pitches":"25","caravans":"yes","drinking_water":"yes","email":"info@minicamping-damhuis.nl","landcover":"grass","name":"Damhuis","opening_hours":"Mar 5 - Oct 31","phone":"+31 6 51476734","power_supply":"yes","shower":"yes","tents":"yes","toilets":"yes","website":"https://www.minicamping-damhuis.nl"}},"46700510":{"location":[52.3456214,6.9371855],"ct":"NL","tp":"CS","ts":"2023-05-30T21:25:48Z","tX":531,"tY":336,"tags":{"addr:city":"Rossum","addr:housenumber":"1","addr:postcode":"7596NC","addr:street":"Molenweg","caravans":"yes","contact:email":"info@camping-roderveld.nl","contact:phone":"+31 541 625 666","contact:website":"https://www.camping-roderveld.nl","internet_access":"yes","internet_access:fee":"no","name":"Camping Roderveld","tents":"yes"}},"46701463":{"location":[52.3213029,6.9839627],"ct":"NL","tp":"CS","ts":"2023-05-30T12:23:51Z","tX":531,"tY":336,"tags":{"brand":"SVR","cabins":"yes","capacity:cabins":"2","capacity:pitches":"25","caravans":"yes","email":"sproakstee@gmail.com","internet_access":"no","name":"Sproakstee","operator":"Fam Grunder","phone":"+31 541 551 446","shower":"yes","tents":"yes","toilets":"yes","website":"https://www.campingsproakstee.nl/"}},"46921363":{"location":[52.3554299,6.8289608],"ct":"NL","tp":"CS","ts":"2018-04-27T20:27:45Z","tX":531,"tY":336,"tags":{"capacity":"15","name":"Camping Erve Mölman","operator":"Familie Borghuis-Hoogerbrugge","source":"3dShapes"}},"47013241":{"location":[52.275842,7.0028639],"ct":"NL","tp":"CS","ts":"2022-03-12T12:01:46Z","tX":531,"tY":336,"tags":{"addr:city":"Losser","addr:housenumber":"10","addr:postcode":"7581PK","addr:street":"Honingloweg","name":"De Veldzijde","source":"3dShapes","website":"https://www.develdzijde.nl/"}},"47065064":{"location":[52.2756854,6.9643528],"ct":"NL","tp":"CS","ts":"2023-05-30T12:23:51Z","tX":531,"tY":336,"tags":{"brand":"SVR","cabins":"yes","capacity:cabins":"4","capacity:pitches":"23","caravans":"yes","email":"info@ervepunte.nl","landcover":"grass","mobile":"+31 6 10399563","name":"Erve Punte","phone":"+31 541 512 873","shower":"yes","tents":"yes","toilets":"yes","website":"https://www.ervepunte.nl"}},"47147284":{"location":[52.3019566,6.8792383],"ct":"NL","tp":"CR","ts":"2023-08-15T17:14:23Z","tX":531,"tY":336,"tags":{"access":"yes","addr:city":"Deurningen","addr:housenumber":"12","addr:postcode":"7562PJ","addr:street":"Reininksweg","description":"Password wifi: TP-het-hulsbeek","email":"info@topparks.nl","fee":"yes","internet_access":"yes","landuse":"camp","name":"Toppark ’t Hulsbeek","phone":"+31 85 077 5090","power_supply":"yes","sanitary_dump_station":"yes","source":"3dShapes","website":"https://www.topparks.nl/en/toppark-t-hulsbeek-2-0/"}},"54972193":{"location":[52.32896,6.6860208],"ct":"NL","tp":"CS","ts":"2023-09-22T10:02:53Z","tX":531,"tY":336,"tags":{"camp_site":"basic","caravans":"yes","drinking_water":"yes","name":"Minicamping Erve Henderiks Hoeve","power_supply":"yes","shower":"yes","tents":"no","toilets":"yes","website":"https://henderikshoeve.nl/"}},"72781014":{"location":[52.3338426,7.0310493],"ct":"NL","tp":"CS","ts":"2024-08-19T11:19:25Z","tX":531,"tY":336,"tags":{"addr:city":"de Lutte","addr:country":"NL","addr:housenumber":"16","addr:postcode":"7587LH","addr:street":"Lutterzandweg","backcountry":"no","barrier":"fence","big_rigs":"yes","camp_type":"established","caravans":"yes","description":"Large campground in forest environment. Well maintained ablutions.","dish_washing":"yes","dog":"leashed","email":"info@camping-meuleman.nl","fee":"EUR 20 (2 adults, camper)","guarded":"no","hot_water":"yes","internet_access":"wlan","laundry":"yes","name":"Het Meuleman","openfire":"no","payment:credit_cards":"yes","pets":"yes","pets_allowed":"yes","phone":"+31 541 551 289","picnic_benches":"yes","power_supply":"yes","power_supply:voltage":"220","reservation":"recommended","restaurant":"yes","sanitary_dump_station":"yes","shower":"yes","source":"Survey","tents":"yes","toilets":"yes","toilets:disposal":"flush","toilets:position":"sitting","water:location":"central","water:quality":"potable","website":"https://www.camping-meuleman.nl","wheelchair":"limited"}},"273158690":{"location":[52.3539586,7.0131884],"ct":"NL","tp":"CS","ts":"2023-08-30T12:50:43Z","tX":531,"tY":336,"tags":{"addr:city":"Beuningen","addr:housenumber":"3","addr:postcode":"7588RK","addr:street":"Kampbrugweg","building":"house","cabins":"yes","caravans":"no","internet_access":"wlan","name":"Natuurcamping Olde Kottink","ref:bag":"168100000209119","source":"BAG","source:date":"2014-03-24","start_date":"1995","tents":"no","website":"https://www.campingoldekottink.nl"}},"275895352":{"location":[52.3273186,6.7583601],"ct":"NL","tp":"CS","ts":"2023-09-02T15:33:22Z","tX":531,"tY":336,"tags":{"addr:city":"Hertme","addr:housenumber":"5","addr:postcode":"7626LP","addr:street":"Kerkweg","email":"info@dekoller.nl","name":"Minicamping De Köller","phone":"+31 74 266 1786","surface":"grass","website":"https://www.dekoller.nl/minicamping"}},"278907104":{"location":[52.4237277,6.8933004],"ct":"NL","tp":"CS","ts":"2020-08-18T19:27:28Z","tX":531,"tY":336,"tags":{"building":"yes","name":"De Witte Berg","ref:bag":"1774100000246005","source":"BAG","source:date":"2018-01-04","start_date":"1961"}},"469691250":{"location":[52.4344391,6.841538],"ct":"NL","tp":"CS","ts":"2020-11-14T11:14:49Z","tX":531,"tY":336,"tags":{"addr:city":"Vasse","addr:housenumber":"6","addr:postcode":"7661RB","addr:street":"Tutenbergweg","name":"De Tutenberg","source":"BAG","source:date":"2014-06-09"}},"494643967":{"location":[52.367547,6.8355798],"ct":"NL","tp":"CS","ts":"2023-07-17T18:03:21Z","tX":531,"tY":336,"tags":{"cabins":"yes","caravans":"yes","email":"info@deweuste.nl","motorhome":"yes","name":"De Weuste","phone":"+31 541 662 159","shower":"yes","static_caravans":"yes","tents":"yes","toilets":"yes","website":"https://www.deweuste.nl/"}},"582156817":{"location":[52.4408411,6.8954792],"ct":"NL","tp":"CS","ts":"2023-05-30T12:24:06Z","tX":531,"tY":336,"tags":{"addr:city":"Hezingen","addr:housenumber":"3","addr:postcode":"7662PH","addr:street":"Brunninkhuisweg","email":"info@hoevespringendal.nl","internet_access":"wlan","name":"Hoeve Springendal","phone":"+31 541 291 530","website":"https://www.hoevespringendal.nl"}},"628905964":{"location":[52.4092386,6.8053915],"ct":"NL","tp":"CS","ts":"2023-05-30T12:24:06Z","tX":531,"tY":336,"tags":{"contact:email":"kaps@ardoer.com","contact:phone":"+31 546 621 378","contact:website":"https://kaps.ardoer.com/","name":"Recreatiepark 'n Kaps"}},"628905973":{"location":[52.4012155,6.9329246],"ct":"NL","tp":"CS","ts":"2023-05-30T21:25:51Z","tX":531,"tY":336,"tags":{"addr:city":"Tilligte","addr:housenumber":"23","addr:postcode":"7634RH","addr:street":"Kooiweg","contact:email":"info@erve-bekhuis.nl","contact:phone":"+31 541 292 783","contact:website":"https://www.erve-bekhuis.nl","name":"Minicamping Erve-Bekhuis"}},"854066116":{"location":[52.3205447,7.0275047],"ct":"NL","tp":"CS","ts":"2023-05-30T21:25:43Z","tX":531,"tY":336,"tags":{"addr:city":"de Lutte","addr:housenumber":"19","addr:postcode":"7587LA","addr:street":"Zandhuizerweg","contact:email":"info@dennenlust.nl","contact:phone":"+31 541 551 401","contact:website":"https://www.dennenlust.nl","name":"Recreatieoord Dennenlust"}},"965862268":{"location":[52.3035551,6.8785429],"ct":"NL","tp":"CS","ts":"2021-07-20T08:32:45Z","tX":531,"tY":336,"tags":{"name":"Minicamping De Paardebloem","website":"https://www.campingdepaardebloem.nl/"}},"965862286":{"location":[52.3023424,6.8770385],"ct":"NL","tp":"CS","ts":"2021-07-20T08:32:45Z","tX":531,"tY":336,"tags":{"name":"Euro camping siemerink","website":"http://www.euro-camping.nl/"}},"986835572":{"location":[52.4452384,6.6812484],"ct":"NL","tp":"CS","ts":"2010-11-12T18:22:37Z","tX":531,"tY":336,"tags":{"name":"Het Berkenven"}},"1060235820":{"location":[52.425308,7.008612],"ct":"NL","tp":"CS","ts":"2023-05-30T12:24:11Z","tX":531,"tY":336,"tags":{"addr:city":"Lattrop-Breklenkamp","addr:housenumber":"35","addr:postcode":"7635NJ","addr:street":"Bergvennenweg","email":"info@debergvennen.nl","name":"Camping de Bergvennen","phone":"+31 541 229 306","website":"https://www.debergvennen.nl"}},"1067897918":{"location":[52.344544,6.9926338],"ct":"NL","tp":"CR","ts":"2024-10-05T10:08:40Z","tX":531,"tY":336,"tags":{"addr:city":"Beuningen","addr:housenumber":"25","addr:postcode":"7588RA","addr:street":"Nijenhaerweg","caravan_site":"motorhome_stopover","caravan_site:type":"countryside","caravans":"no","charge":"14.40 EUR","dog":"yes","dog:fee":"no","fee":"yes","laundry":"yes","name":"De Nijenhaer","phone":"+31 6 22544620","power_supply":"yes","sanitary_dump_station":"yes","seasonal":"no","shower":"yes","tents":"no","toilets":"yes","water_point":"yes","website":"https://www.denijenhaer.nl/"}},"1072264698":{"location":[52.3671895,6.8401468],"ct":"NL","tp":"CS","ts":"2022-09-15T18:12:17Z","tX":531,"tY":336,"tags":{"access":"customers","addr:city":"Reutum","addr:housenumber":"171","addr:postcode":"7667RR","addr:street":"Oldenzaalseweg","name":"Chaletpark Heideveld"}},"1090547309":{"location":[52.409741,6.8796959],"ct":"NL","tp":"CS","ts":"2023-10-02T19:35:46Z","tX":531,"tY":336,"tags":{"caravans":"yes","contact:email":"ervegeerdink@gmail.com","contact:website":"https://www.ervegeerdink.nl/","name":"Minicamping Erve Geerdink","static_caravans":"yes","tents":"yes"}},"1113425350":{"location":[52.4369962,6.9016353],"ct":"NL","tp":"CS","ts":"2024-05-16T12:31:48Z","tX":531,"tY":336,"tags":{"access":"private","addr:city":"Hezingen","addr:housenumber":"74","addr:postcode":"7662PB","addr:street":"Hooidijk","description":"Dit kampeerterrein is alleen toegankelijk voor leden van de NTKC","dog":"leashed","internet_access":"no","name":"NTKC 't Springendal","operator":"Nederlandse Toeristen Kampeer Club","power_supply":"no","website":"https://www.kampeerclub.nl/terrein/kampeerterrein-t-springendal"}},"1160658915":{"location":[52.4635635,6.858327],"ct":"DE","tp":"CS","ts":"2024-04-04T15:04:36Z","tX":531,"tY":336,"tags":{"addr:city":"Getelo","addr:housenumber":"1","addr:postcode":"49843","addr:street":"Haller Straße","alt_name":"De Krosenberg","backcountry":"no","capacity:caravans":"22","capacity:pitches":"22","capacity:static_caravans":"80","capacity:tents":"22","caravans":"yes","dog":"leashed","drinking_water":"yes","email":"info@krosenberg.nl","fee":"yes","group_only":"no","internet_access":"wlan","internet_access:fee":"customers","mobile":"+31 6 10 26 90 29","name":"Naturistencamping De Krösenberg","nudism":"designated","operator":"Naturistenvereniging De Krösenberg","phone":"+49 16 24 98 90 39","picnic_table":"yes","reservation":"recommended","shower":"yes","static_caravans":"yes","tents":"yes","toilets":"yes","website":"http://www.krosenberg.nl/"}},"1184537561":{"location":[52.4072507,6.9964407],"ct":"NL","tp":"CS","ts":"2023-07-17T18:03:22Z","tX":531,"tY":336,"tags":{"capacity:pitches":"25","caravans":"yes","internet_access":"wlan","internet_access:fee":"no","landcover":"grass","mobile":"+31 6 12449375","name":"Het Brook","phone":"+31 541 229 348","shower":"yes","tents":"yes","toilets":"yes","website":"https://www.minicampinghetbrook.nl/"}},"1185121057":{"location":[52.3264125,6.7473399],"ct":"NL","tp":"CR","ts":"2023-06-26T19:54:07Z","tX":531,"tY":336,"tags":{"motorhome":"designated","name":"Camperplaats Rabo Scheele","website":"http://raboscheele.intropagina.nl/"}},"1191305301":{"location":[52.3052143,6.8109355],"ct":"NL","tp":"CS","ts":"2023-07-21T20:56:43Z","tX":531,"tY":336,"tags":{"caravans":"yes","email":"info@dalmeden.nu","motorhome":"yes","name":"Dalmeden","phone":"+31 6 19631002","shower":"yes","tents":"yes","toilets":"yes","website":"https://dalmeden.nu/"}},"1191309618":{"location":[52.4265662,6.7257216],"ct":"NL","tp":"CS","ts":"2023-07-21T21:17:15Z","tX":531,"tY":336,"tags":{"capacity:pitches":"25","caravans":"yes","contact:whatsapp":"+31 6 30012352","email":"info@campingdekraai.nl","internet_access":"wlan","internet_access:fee":"no","motorhome":"yes","name":"De Kraai","opening_hours":"Mar 1 - Oct 31","phone":"+31 6 30012352","shower":"yes","tents":"yes","toilets":"yes","website":"https://www.campingdekraai.nl"}},"1191312082":{"location":[52.4301947,6.8084287],"ct":"NL","tp":"CS","ts":"2023-07-21T21:37:08Z","tX":531,"tY":336,"tags":{"capacity:pitches":"10","caravans":"yes","email":"info@deppert.nl","name":"'N Deppert","note":"Gericht op langer verblijf van minimaal 1 maand","note:en":"Camping targeted for longer camping of minimal one month","phone":"+31 6 52572330","shower":"yes","tents":"yes","toilets":"yes","website":"https://deppert.nl/"}},"1191572637":{"location":[52.4351652,6.7718651],"ct":"NL","tp":"CS","ts":"2023-07-23T11:48:50Z","tX":531,"tY":336,"tags":{"caravans":"yes","email":"info@slutkeboer.nl","landcover":"grass","name":"Slutkeboer","opening_hours":"Apr 1 - Oct 1","phone":"+31 546 631 808","shower":"yes","tents":"yes","toilets":"yes","website":"https://slutkeboer.nl/"}},"1191574089":{"location":[52.4314306,6.7500567],"ct":"NL","tp":"CR","ts":"2023-07-23T11:57:54Z","tX":531,"tY":336,"tags":{"cabins":"yes","capacity:cabins":"2","capacity:motorhome":"24","caravans":"no","email":"info@reensboer.nl","landcover":"grass","motorhome":"designated","name":"Reensboer Recreatie","phone":"+31 6 51028028","shower":"yes","tents":"yes","toilets":"yes","website":"https://www.reensboer.nl/"}},"1193185672":{"location":[52.3613253,6.8037534],"ct":"NL","tp":"CS","ts":"2023-07-29T17:42:37Z","tX":531,"tY":336,"tags":{"capacity:pitches":"25","caravans":"yes","email":"info@hetlintert.nl","name":"'T Lintert","phone":"+31 6 41340252","shower":"yes","tents":"yes","toilets":"yes","website":"https://www.hetlintert.nl/camping"}},"1195339964":{"location":[52.4099052,7.0039867],"ct":"NL","tp":"CS","ts":"2023-08-06T19:49:47Z","tX":531,"tY":336,"tags":{"caravans":"yes","email":"roeleveld85@gmail.com","landcover":"grass","name":"Erve Wolkotte","opening_hours":"Apr 15 - Sep 30","phone":"+31 6 13546106","shower":"yes","tents":"yes","toilets":"yes","website":"https://www.campingwolkotte.nl/"}},"1196606675":{"location":[52.3887747,6.7369615],"ct":"NL","tp":"CS","ts":"2023-08-09T21:23:09Z","tX":531,"tY":336,"tags":{"capacity:pitches":"5","caravans":"yes","email":"info@campingonsplekje.nl","name":"Ons Plekje","phone":"+31 6 53245265","shower":"yes","tents":"yes","toilets":"yes","website":"https://campingonsplekje.nl/"}},"1204666654":{"location":[52.4462652,6.8235854],"ct":"NL","tp":"CS","ts":"2023-09-03T13:05:36Z","tX":531,"tY":336,"tags":{"addr:city":"Mander","addr:housenumber":"153","addr:postcode":"7663TD","addr:street":"Uelserweg","contact:email":"receptie@dalvandemosbeek.nl","contact:phone":"+31 541 680 644","contact:website":"https://www.dalvandemosbeek.nl","name":"Camping Dal Van De Mosbeek","source":"BAG","source:date":"2014-06-09"}},"2780068542":{"location":[52.3034243,6.993859],"ct":"NL","tp":"CS","ts":"2024-04-21T07:45:14Z","tX":531,"tY":336,"tags":{"addr:city":"de Lutte","addr:housenumber":"71","addr:postcode":"7587PW","addr:street":"Lossersestraat","capacity":"25","caravans":"yes","email":"info@minicampingpoortbulten.nl","mobile":"+31 6 19179031","name":"Minicamping Poortbulten","opening_hours":"Oct-Apr closed","phone":"+31 541 296 000","reservation":"yes","sanitary_dump_station":"customers","source":"BAG","source:date":"2014-03-24","tents":"yes","website":"https://minicampingpoortbulten.nl/"}},"2780429765":{"location":[52.3234078,7.0243438],"ct":"NL","tp":"CS","ts":"2022-06-06T07:15:45Z","tX":531,"tY":336,"tags":{"addr:city":"de Lutte","addr:housenumber":"21","addr:postcode":"7587LA","addr:street":"Zandhuizerweg","name":"Camping De Kunne","phone":"+31 541 551 243","source":"BAG","source:date":"2014-03-24","website":"https://www.natuurkampeerplaats-dekunne.nl/"}},"2831327754":{"location":[52.4250166,6.9917511],"ct":"NL","tp":"CS","ts":"2024-05-10T18:25:22Z","tX":531,"tY":336,"tags":{"addr:city":"Lattrop-Breklenkamp","addr:housenumber":"12","addr:postcode":"7635NH","addr:street":"Breemorsweg","caravans":"yes","drinking_water":"yes","name":"Camping De Rammelbeek","power_supply":"yes","sanitary_dump_station":"yes","shower":"yes","source":"BAG","source:date":"2014-03-24","tents":"yes","toilets":"yes"}},"2942996106":{"location":[52.3802901,6.7280891],"ct":"NL","tp":"CS","ts":"2023-07-05T14:29:51Z","tX":531,"tY":336,"tags":{"addr:city":"Albergen","addr:housenumber":"5","addr:postcode":"7665RS","addr:street":"Markgravenweg","delivery":"no","email":"info@deboderie.nl","internet_access":"wlan","name":"Farmcamps de Boderie","outdoor_seating":"no","phone":"+31 6 46457909","self_service":"only","source":"BAG","source:date":"2014-07-02;2021-05-08","takeaway":"no","website":"https://www.de-boderie.nl"}},"4340380619":{"location":[52.3984935,6.9047537],"ct":"NL","tp":"CS","ts":"2016-08-07T20:43:49Z","tX":531,"tY":336,"tags":{"internet_access":"wlan","name":"Erve Wiegink"}},"5035040185":{"location":[52.4492318,6.8670334],"ct":"NL","tp":"CS","ts":"2023-09-09T07:34:20Z","tX":531,"tY":336,"tags":{"caravans":"yes","description":"Natuurcamping, geen elektriciteit. Receptie op ongeveer 1km afstand, Maatmansweg 17 , 7662 PR Hezingen","email":"weersink85@zonnet.nl","name":"de Witker","phone":"+31 85 208 3515","tents":"yes","toilets":"yes","website":"https://dewitker.nl/nl/natuurcamping"}},"5320824098":{"location":[52.4247993,6.8900958],"ct":"NL","tp":"CS","ts":"2022-06-06T07:25:50Z","tX":531,"tY":336,"tags":{"addr:city":"Nutter","addr:housenumber":"18","addr:postcode":"7638PP","addr:street":"Wittebergweg","name":"Bij De Bronnen","phone":"+31 541 291 570","source":"BAG","source:date":"2018-01-04","website":"https://www.campingbijdebronnen.nl/"}},"5535381356":{"location":[52.3824067,6.728716],"ct":"NL","tp":"CS","ts":"2024-06-07T15:48:16Z","tX":531,"tY":336,"tags":{"backcountry":"yes","capacity":"3","capacity:tents":"3","caravans":"no","drinking_water":"no","fee":"no","mapillary":"474328723795977","name":"Paalkampeerplaats Harbrinkhoek","name:en":"Bivouac Harbrinkshoek","openfire":"no","static_caravans":"no","tents":"yes","vehicle":"no"}},"5536406652":{"location":[52.4006597,6.7574343],"ct":"NL","tp":"CS","ts":"2024-06-30T11:31:46Z","tX":531,"tY":336,"tags":{"backcountry":"yes","capacity:tents":"1","caravans":"no","description":"Nauwelijks plaats voor 1 tentje, direct aan het pad maar je fietst er zo voorbij.","drinking_water":"no","fee":"no","maxstay":"1 day","name":"Paalkampeerplaats Hondenven","power_supply":"no","shower":"no","static_caravans":"no","tents":"yes","toilets":"no"}},"6758917092":{"location":[52.4645806,6.7018333],"ct":"NL","tp":"CS","ts":"2019-08-30T09:07:04Z","tX":531,"tY":336,"tags":{"name":"Natuurkampeerterrein Erve de Meester","website":"https://www.erve-de-meester.nl/"}},"7608081849":{"location":[52.2843654,6.7180089],"ct":"NL","tp":"CS","ts":"2024-06-29T09:53:49Z","tX":531,"tY":336,"tags":{"backcountry":"yes","camp_site":"basic","capacity":"2","capacity:persons":"4","capacity:tents":"2","caravans":"no","drinking_water":"no","fee":"no","maxstay":"1 day","maxtents":"2","name":"Paalcamping Twickel","operator":"Stichting Twickel","picnic_table":"yes","power_supply":"no","shower":"no","static_caravans":"no","tents":"yes","toilets":"no","wheelchair":"no"}},"7737339990":{"location":[52.3318597,7.0128563],"ct":"NL","tp":"CS","ts":"2022-06-20T14:02:07Z","tX":531,"tY":336,"tags":{"name":"Camperplaats Velpen","tents":"no","website":"https://www.ervevelpen.nl/"}},"7737370986":{"location":[52.3318722,7.012864],"ct":"NL","tp":"CS","ts":"2020-07-22T15:20:33Z","tX":531,"tY":336,"tags":{"name":"Camperplaats Erve Velpen"}},"10795359565":{"location":[52.3308187,6.7306242],"ct":"NL","tp":"CS","ts":"2024-06-07T15:48:16Z","tX":531,"tY":336,"tags":{"access:conditional":"permissive@(hikers on Twentepad)","backcountry":"yes","capacity":"3","capacity:tents":"3","caravans":"no","fee":"no","maxstay":"24 hours","name":"Paalkampeerterrein Weleveld","static_caravans":"no","tents":"yes","website":"https://www.wild-kamperen.nl/2020/10/21/locatie-weleveld/"}},"11963017081":{"location":[52.3231949,6.9627242],"ct":"NL","tp":"CS","ts":"2024-06-20T06:29:24Z","tX":531,"tY":336,"tags":{"backcountry":"yes","capacity:tents":"3","caravans":"no","fee":"no","name":"Paalkamp Middelkamp","static_caravans":"no","tents":"yes"}},"11963017082":{"location":[52.300916,6.8847551],"ct":"NL","tp":"CS","ts":"2024-06-07T15:48:16Z","tX":531,"tY":336,"tags":{"backcountry":"yes","capacity:tents":"3","caravans":"no","fee":"no","static_caravans":"no","tents":"yes"}},"11963017083":{"location":[52.4370769,6.7802607],"ct":"NL","tp":"CS","ts":"2024-06-07T15:48:16Z","tX":531,"tY":336,"tags":{"backcountry":"yes","capacity:tents":"3","caravans":"no","fee":"no","static_caravans":"no","tents":"yes"}},"6794720785":{"location":[52.3668656,6.8387759],"ct":"NL","tp":"CR","ts":"2020-06-19T08:18:31Z","tX":531,"tY":336,"tags":{"addr:city":"Reutum","addr:housenumber":"169","addr:postcode":"7667RR","addr:street":"Oldenzaalseweg","name":"Camperplaats Eikenhof"}},"10717506630":{"location":[52.269381,7.0138495],"ct":"NL","tp":"CR","ts":"2023-03-07T09:17:00Z","tX":531,"tY":336,"tags":{"caravan_site":"motorhome_stopover","note":"Motorhome overnight allowed","tents":"no"}},"9633125382":{"location":[52.3018227,6.8789703],"ct":"NL","tp":"SD","ts":"2022-04-03T10:16:14Z","tX":531,"tY":336,"tags":{}},"10914735781":{"location":[52.3670452,6.8407112],"ct":"NL","tp":"SD","ts":"2023-05-20T20:36:22Z","tX":531,"tY":336,"tags":{}}}