{"26859309":{"location":[52.1396557,6.7251638],"ct":"NL","tp":"CS","ts":"2023-01-06T11:24:12Z","tX":531,"tY":337,"tags":{"name":"Bergsehaak","website":"https://www.poelmanvakantieparken.nl/bergsehaak"}},"53808018":{"location":[52.1812308,6.8579825],"ct":"NL","tp":"CS","ts":"2022-06-07T11:10:16Z","tX":531,"tY":337,"tags":{"landuse":"grass","name":"Bek'n Schop","source":"3dShapes"}},"53816607":{"location":[52.1518195,6.8400493],"ct":"NL","tp":"CS","ts":"2023-05-30T12:23:52Z","tX":531,"tY":337,"tags":{"caravans":"yes","contact:email":"jhhroerink@hotmail.com","contact:phone":"+31 53 569 6585","contact:website":"http://www.minicamping-denaom.nl/","internet_access":"yes","internet_access:fee":"yes","name":"Minicamping Den Aom","operator":"Fam. Beursink","tents":"yes"}},"54863157":{"location":[52.1441387,6.7227356],"ct":"NL","tp":"CS","ts":"2023-09-06T21:55:52Z","tX":531,"tY":337,"tags":{"caravans":"yes","email":"info@campingscholtenhagen.nl","landcover":"grass","name":"Scholtenhagen","phone":"+31 53 572 2384","shower":"yes","tents":"yes","toilets":"yes","website":"https://www.campingscholtenhagen.nl/accommodaties/kamperen"}},"54900254":{"location":[52.07968,6.7104683],"ct":"NL","tp":"CS","ts":"2023-04-07T19:11:38Z","tX":531,"tY":337,"tags":{"cabins":"yes","caravans":"yes","email":"lean.raa@live.nl","motorhome":"yes","name":"'t Veld","phone":"+31 6 30192000","shower":"yes","source":"3dShapes","tents":"yes","toilets":"yes","website":"https://www.minicampingachterhoek.nl/"}},"78445614":{"location":[52.2093344,6.9500241],"ct":"NL","tp":"CS","ts":"2022-09-15T10:11:00Z","tX":531,"tY":337,"tags":{"addr:city":"Enschede","addr:housenumber":"200","addr:postcode":"7534PA","addr:street":"Keppelerdijk","capacity":"200","caravans":"yes","fee":"yes","name":"Camping Vlinderloo","operator":"capfun","stars":"3","tents":"yes","website":"https://www.vlinderloo.nl/"}},"269380713":{"location":[52.0978095,6.7372192],"ct":"NL","tp":"CS","ts":"2019-03-28T14:18:12Z","tX":531,"tY":337,"tags":{"name":"Camping Den Borg","website":"https://www.denborg.nl/"}},"328636131":{"location":[52.0777431,6.9835415],"ct":"DE","tp":"CR","ts":"2024-03-24T16:51:43Z","tX":531,"tY":337,"tags":{"bakery_service":"yes","capacity":"8","caravans":"no","charge":"8 EUR","fee":"yes","maxstay":"3 nights","name":"Womo Stellplatz am AquAhaus","power_supply":"yes","power_supply:fee":"yes","reservation":"yes","sanitary_dump_station":"yes","seasonal":"no","shower":"yes","surface":"grass_paver","tents":"no","website":"https://aquahaus.eu/womo"}},"357292983":{"location":[52.135299,6.8074115],"ct":"NL","tp":"CS","ts":"2023-05-30T12:24:02Z","tX":531,"tY":337,"tags":{"addr:city":"Haaksbergen","addr:country":"NL","addr:housenumber":"6","addr:postcode":"7481SN","addr:street":"Zoddebeekweg","fee":"yes","name":"Boerderijcamping de Beek","phone":"+31 53 436 6989","url":"http://www.boerderijcampingdebeek.nl"}},"410069835":{"location":[52.1708752,6.8379772],"ct":"NL","tp":"CS","ts":"2016-04-13T17:18:44Z","tX":531,"tY":337,"tags":{"fee":"yes","name":"'t Kippeboertje"}},"414569131":{"location":[52.1715657,6.8261646],"ct":"NL","tp":"CS","ts":"2024-02-07T09:55:13Z","tX":531,"tY":337,"tags":{"access":"private","addr:city":"Enschede","addr:housenumber":"201","addr:postcode":"7546PS","addr:street":"Oude Buurserdijk","camper":"yes","capacity:caravans":"31","capacity:tents":"31","caravans":"yes","dog":"leashed","drinking_water":"yes","email":"beheer@ostana.nl","fee":"yes","group_only":"no","internet_access":"wlan","internet_access:fee":"customers","name":"Naturistencamping het Slagersmaat","nudism":"designated","opening_hours":"Jan 01-Dec 31 00:00-24:00; PH 00:00-24:00 open","phone":"+31 53 428 27 23","power_supply":"yes","ref:vatin":"NL005815411B01","sanitary_dump_station":"yes","shower":"yes","static_caravans":"yes","tents":"yes","toilets":"yes","website":"https://www.ostana.nl/kamperen","wheelchair":"yes"}},"416907810":{"location":[52.1497151,6.8246007],"ct":"NL","tp":"CS","ts":"2016-05-10T09:31:36Z","tX":531,"tY":337,"tags":{"name":"Veldscholte"}},"696920378":{"location":[52.1379784,6.8575999],"ct":"NL","tp":"CS","ts":"2020-10-22T12:40:41Z","tX":531,"tY":337,"tags":{"name":"Camping de Meene"}},"804712643":{"location":[52.1771787,6.7973135],"ct":"NL","tp":"CS","ts":"2020-05-16T18:07:45Z","tX":531,"tY":337,"tags":{"name":"Camping Twente","source":"3dShapes","website":"https://www.camping-twente.nl/"}},"970867916":{"location":[52.1804553,6.9392087],"ct":"NL","tp":"CS","ts":"2024-02-07T10:44:22Z","tX":531,"tY":337,"tags":{"access":"private","addr:city":"Enschede","addr:housenumber":"250","addr:postcode":"7536PG","addr:street":"Lappenpad","campers":"yes","caravans":"yes","drinking_water":"yes","email":"oc@non-aamsveen.nl","fee":"yes","group_only":"no","internet_access":"wlan","internet_access:fee":"customers","name":"Naturistencamping Aamsveen","nudism":"designated","opening_hours":"Apr-Oct","phone":"+31 53 461 55 10","reservation":"required","sanitary_dump_station":"yes","shower":"yes","tents":"yes","toilets":"yes","website":"https://www.non-aamsveen.nl","wheelchair":"yes"}},"1018356348":{"location":[52.2054346,6.9010996],"ct":"NL","tp":"CR","ts":"2023-12-10T15:58:27Z","tX":531,"tY":337,"tags":{"capacity":"5","caravan_site:type":"sports_centre","designation":"campers","dog":"yes","fee":"no","maxstay":"2 days","name":"Camperplaats Diekmanstadion","tents":"no"}},"1028506267":{"location":[52.2361986,6.8113918],"ct":"NL","tp":"CS","ts":"2024-10-09T17:31:39Z","tX":531,"tY":337,"tags":{"name":"Mini Camping Twekkelo","website":"https://www.minicampingtwekkelo.nl/"}},"1033909930":{"location":[52.0538054,6.694794],"ct":"DE","tp":"CR","ts":"2022-02-21T17:05:24Z","tX":531,"tY":337,"tags":{"area":"yes","name":"Zwillbrocker Venn","sanitary_dump_station":"no"}},"1059460752":{"location":[52.1993259,6.7675092],"ct":"NL","tp":"CS","ts":"2023-05-30T12:24:11Z","tX":531,"tY":337,"tags":{"addr:city":"Enschede","addr:housenumber":"33","addr:postcode":"7548PR","addr:street":"Wycherinkshoekweg","email":"info@campingonderdesterren.nl","name":"Onder de sterren","phone":"+31 53 436 5512","website":"https://www.campingonderdesterren.nl"}},"1060001568":{"location":[52.1537852,6.8358526],"ct":"NL","tp":"CS","ts":"2023-05-30T12:24:11Z","tX":531,"tY":337,"tags":{"addr:city":"Haaksbergen","addr:housenumber":"1","addr:postcode":"7481PT","addr:street":"Oude Buurserdijk","name":"Camping Landgoed 't Hazenbos","note":"Camping closes 1 nov 2022","phone":"+31 53 569 6338","website":"https://www.hazenbos.nl"}},"1060238314":{"location":[52.2459288,6.8152891],"ct":"NL","tp":"CS","ts":"2023-05-30T12:24:12Z","tX":531,"tY":337,"tags":{"addr:city":"Hengelo","addr:housenumber":"60","addr:postcode":"7552CW","addr:street":"Kettingbrugweg","email":"campingdezwaaikom@outlook.com","name":"De Zwaaikom","phone":"+31 74 291 6560","website":"https://campingdezwaaikom.nl"}},"1126521152":{"location":[52.0950522,6.6858044],"ct":"NL","tp":"CS","ts":"2023-04-12T08:44:32Z","tX":531,"tY":337,"tags":{"addr:city":"Rekken","addr:housenumber":"25","addr:postcode":"7157AB","addr:street":"Rekkenseweg","cabins":"yes","caravans":"yes","drinking_water":"yes","fee":"yes","internet_access":"yes","motorhome":"yes","name":"Camping Ont moeten","power_supply":"yes","shower":"yes","tents":"yes","toilets":"yes","website":"https://campingontmoeten.com"}},"1193035620":{"location":[52.2244166,6.9302125],"ct":"NL","tp":"CS","ts":"2024-07-23T07:14:09Z","tX":531,"tY":337,"tags":{"addr:city":"Enschede","addr:housenumber":"385","addr:postcode":"7531HC","addr:street":"Noord Esmarkerrondweg","caravans":"yes","name":"Hammiehoeve","website":"https://hammiehoeve.nl/camperplaats/"}},"1193168500":{"location":[52.1897082,6.7112837],"ct":"NL","tp":"CS","ts":"2023-07-29T16:03:25Z","tX":531,"tY":337,"tags":{"capacity:pitches":"25","caravans":"yes","email":"info@hofsprakel.nl","name":"Hof 'T Sprakel","phone":"+31 74 357 4582","shower":"yes","tents":"yes","toilets":"yes","website":"https://hofsprakel.nl/camping/"}},"1199290402":{"location":[52.1542641,6.8441593],"ct":"NL","tp":"CS","ts":"2023-08-22T19:51:42Z","tX":531,"tY":337,"tags":{"caravans":"yes","email":"Info@denieuwebosplaats.nl","mobile":"+31 6 11284919;+31 6 13538004","name":"De Nieuwe Bosplaats","phone":"+31 53 569 6244","shower":"yes","tents":"yes","toilets":"yes","website":"https://www.denieuwebosplaats.nl/"}},"1199295704":{"location":[52.0892841,6.7062453],"ct":"NL","tp":"CS","ts":"2023-08-17T21:26:42Z","tX":531,"tY":337,"tags":{"capacity:pitches":"12","caravans":"yes","landcover":"grass","mobile":"+31 6 20301400","name":"Koordes","phone":"+31 545 431 216","shower":"yes","tents":"yes","toilets":"yes"}},"1265854066":{"location":[52.075176,7.0028629],"ct":"DE","tp":"CR","ts":"2024-03-24T16:51:43Z","tX":531,"tY":337,"tags":{"capacity":"8","caravans":"no","fee":"no","maxstay":"3 days","name":"Wohnmobilstellplatz am Kirmesplatz","operator":"Stadt Ahaus","power_supply":"yes","power_supply:fee":"yes","sanitary_dump_station":"yes","seasonal":"no","tents":"no","water_point":"yes","website":"https://ahaus.de/tourismus","wheelchair":"yes"}},"1343024799":{"location":[52.1857676,6.7910112],"ct":"NL","tp":"CS","ts":"2011-06-29T09:09:53Z","tX":531,"tY":337,"tags":{"name":"camping Buytenplaets"}},"1563458166":{"location":[52.2535932,6.7271327],"ct":"NL","tp":"CS","ts":"2023-10-12T17:53:46Z","tX":531,"tY":337,"tags":{"caravans":"yes","drinking_water":"yes","name":"Camping Mooi Delden","shower":"yes","tents":"yes","toilets":"yes","website":"https://www.mooidelden.nl/"}},"1843690705":{"location":[52.2506743,7.0288111],"ct":"NL","tp":"CS","ts":"2024-06-24T08:53:34Z","tX":531,"tY":337,"tags":{"addr:city":"Overdinkel","addr:housenumber":"1","addr:postcode":"7586RK","addr:street":"Beerninksweg","email":"info@ervebeernink.nl","fee":"yes","internet_access":"wlan","name":"Erve Beernink","phone":"+31 53 538 1566","website":"https://www.ervebeernink.nl/"}},"2758542565":{"location":[52.1783759,6.8658327],"ct":"NL","tp":"CS","ts":"2020-12-11T19:22:53Z","tX":531,"tY":337,"tags":{"addr:city":"Enschede","addr:housenumber":"2A","addr:postcode":"7544RW","addr:street":"Moorvenweg","name":"De Loeks","source":"BAG","source:date":"2014-03-24"}},"2773161527":{"location":[52.1882305,6.7604404],"ct":"NL","tp":"CS","ts":"2022-06-06T07:14:06Z","tX":531,"tY":337,"tags":{"addr:city":"Haaksbergen","addr:housenumber":"93a","addr:postcode":"7482SE","addr:street":"Kolenbranderweg","capacity":"140","internet_access":"wlan","name":"Camping Stepelerven","phone":"+31 6 10110777","source":"BAG","source:date":"2019-11-09","website":"http://stepelerven.nl/"}},"2792300960":{"location":[52.2464271,6.7541583],"ct":"NL","tp":"CR","ts":"2023-05-28T08:10:24Z","tX":531,"tY":337,"tags":{"addr:city":"Hengelo","addr:housenumber":"19","addr:postcode":"7554RK","addr:street":"VÃ¶ckersweg","name":"Camperplaats Eulerhook","operator":"Ter Bekke","source":"BAG","source:date":"2014-03-24","website":"https://eulerhook.nl"}},"3197474461":{"location":[52.2599483,6.6824015],"ct":"NL","tp":"CR","ts":"2023-10-10T06:27:24Z","tX":531,"tY":337,"tags":{"fee":"no","name":"Het wapen van Delden","toilets":"yes"}},"3354061673":{"location":[52.0750546,7.0026498],"ct":"DE","tp":"SD","ts":"2015-04-25T19:35:41Z","tX":531,"tY":337,"tags":{"sanitary_dump_station:accepted":"black_water;tank_chemicals"}},"3354504389":{"location":[52.0777618,6.9833817],"ct":"DE","tp":"SD","ts":"2015-04-25T19:35:41Z","tX":531,"tY":337,"tags":{"fee":"no","sanitary_dump_station:accepted":"black_water;tank_chemicals"}},"5810678038":{"location":[52.2168102,6.7822937],"ct":"NL","tp":"CS","ts":"2021-09-10T19:02:03Z","tX":531,"tY":337,"tags":{"addr:city":"Enschede","addr:housenumber":"361","addr:postcode":"7548PE","addr:street":"Kwinkelerweg","caravans":"yes","internet_access":"wlan","internet_access:fee":"no","name":"Scharrelhoes","sanitary_dump_station":"yes","source":"BAG","source:date":"2018-07-08","tents":"yes","website":"https://www.kampereninboekelo.nl/"}},"7997865495":{"location":[52.248273,6.9038372],"ct":"NL","tp":"CR","ts":"2020-10-11T19:25:05Z","tX":531,"tY":337,"tags":{"capacity":"6","name":"Lonneker Es","power_supply":"yes","website":"https://lonnekeres.nl/"}},"11063085327":{"location":[52.2451104,6.9380713],"ct":"NL","tp":"CR","ts":"2025-01-16T17:16:31Z","tX":531,"tY":337,"tags":{"caravan_site":"motorhome_stopover","caravan_site:type":"farm","caravans":"no","charge":"17 EUR","email":"hogeboekelrund@outlook.com","fee":"yes","internet_access":"wlan","internet_access:fee":"no","motorhome":"designated","name":"Camperplaats Het Hoge Boekel","phone":"+31 6 44196617","power_supply:maxcurrent":"16","sanitary_dump_station:chemical_toilet":"yes","shower":"yes","surface":"grass","toilets":"yes","water_point":"yes","water_point:fee":"no","website":"https://www.hoge-boekel.nl/"}}}