{"14697410":{"location":[51.9359425,6.7886648],"ct":"NL","tp":"CS","ts":"2022-10-15T07:34:34Z","tX":531,"tY":338,"tags":{"landuse":"grass","name":"Belevenis Boerderij"}},"58256251":{"location":[51.9970506,6.7184767],"ct":"NL","tp":"CS","ts":"2022-08-21T07:30:21Z","tX":531,"tY":338,"tags":{"caravans":"yes","internet_access":"wlan","internet_access:fee":"yes","name":"Camping Sevinkmolen","sanitary_dump_station":"yes","tents":"yes"}},"58256319":{"location":[51.988661,6.7228953],"ct":"NL","tp":"CS","ts":"2023-05-30T20:24:50Z","tX":531,"tY":338,"tags":{"addr:city":"Winterswijk","addr:housenumber":"135","addr:postcode":"7103EA","addr:street":"Waliënsestraat","capacity:caravans":"20","caravans":"yes","fee":"yes","internet_access":"wlan","internet_access:fee":"no","name":"'t Paardeweitje","payment:cash":"yes","static_caravans":"no","website":"https://www.paardeweitje.nl/"}},"58296572":{"location":[51.9099206,6.7177873],"ct":"NL","tp":"CS","ts":"2024-06-12T06:36:54Z","tX":531,"tY":338,"tags":{"contact:email":"info@roerdinkhof.nl","contact:mobile":"+31 6 22690698","contact:phone":"+31 543 564 586","landuse":"grass","name":"Minicamping Roerdinkhof","operator":"Gerhard en Nina.","source":"3dShapes","website":"https://roerdinkhof.nl/mini-camping/"}},"97348215":{"location":[51.8880607,7.0054258],"ct":"DE","tp":"CS","ts":"2021-10-10T14:39:41Z","tX":531,"tY":338,"tags":{"addr:city":"Velen","addr:housenumber":"41","addr:postcode":"46342","addr:street":"Kreiler Weg","name":"Campingplatz Endejan","permanent_camping":"only"}},"136398881":{"location":[51.9022614,7.009149],"ct":"DE","tp":"CS","ts":"2022-07-18T07:22:34Z","tX":531,"tY":338,"tags":{"addr:city":"Velen","addr:housenumber":"8-10","addr:postcode":"46342","addr:street":"Klyer Damm","alt_name":"ven der Buss","caravans":"yes","dog":"no","fee":"yes","internet_access":"wlan","name":"Erholungsgebiet Waldvelen","note":"Ferienwohnungen und Mobilstellplätze","phone":"+49 2863 3450","tents":"yes","website":"https://venderbuss.de/"}},"137734172":{"location":[52.0409323,6.8399114],"ct":"DE","tp":"CR","ts":"2024-03-24T17:22:14Z","tX":531,"tY":338,"tags":{"charge":"15 EUR","fee":"yes","name":"Wohnmobil-Stellplatz Sportpark Vreden.","opening_hours":"24/7","power_supply":"yes","sanitary_dump_station":"yes","toilets":"yes"}},"159681122":{"location":[51.8483459,6.9260725],"ct":"DE","tp":"CS","ts":"2021-11-02T18:14:42Z","tX":531,"tY":338,"tags":{"description":"Campingplatz nur für Dauercamper mit Wohnwagen und Trailer","name":"Freizeitpark Römersee"}},"263246062":{"location":[51.8531488,6.7957819],"ct":"DE","tp":"CS","ts":"2022-02-25T10:31:40Z","tX":531,"tY":338,"tags":{"email":"fsb.borken@web.de","name":"FSB Borken","nudism":"yes","operator":"Familiensportbund Borken e.V.","website":"https://fsb-borken.com/"}},"276175355":{"location":[51.9868136,6.7397827],"ct":"NL","tp":"CS","ts":"2023-10-29T18:50:52Z","tX":531,"tY":338,"tags":{"name":"Camping het Wieskamp","website":"https://www.wieskamp.nl/"}},"297158734":{"location":[51.8914002,6.9751125],"ct":"DE","tp":"CS","ts":"2017-08-24T17:46:23Z","tX":531,"tY":338,"tags":{"email":"info@campingplatz-kramer.de","name":"Campingplatz Tiergarten","operator":"Hans-Jürgen Kramer","phone":"+4928634497","website":"http://www.campingplatz-kramer.de"}},"321315106":{"location":[51.9676423,7.0051995],"ct":"DE","tp":"CS","ts":"2022-01-11T19:11:38Z","tX":531,"tY":338,"tags":{"addr:city":"Gescher","addr:housenumber":"52","addr:postcode":"48712","addr:street":"Harwick","name":"Brinkmannshof","phone":"+49-2542-98606","tents":"unknown","website":"https://www.brinkmannshof.de/"}},"330471092":{"location":[51.9515683,6.7352858],"ct":"NL","tp":"CS","ts":"2024-05-09T20:12:09Z","tX":531,"tY":338,"tags":{"addr:city":"Winterswijk Brinkheurne","addr:housenumber":"20","addr:postcode":"7115AG","addr:street":"de Slingeweg","caravans":"yes","contact:website":"https://www.hetwinkel.nl/contact.aspx","name":"Het Winkel Recreatiepark","tents":"yes","website":"https://www.hetwinkel.nl"}},"496151307":{"location":[51.9482268,6.7754555],"ct":"NL","tp":"CS","ts":"2023-05-30T12:18:58Z","tX":531,"tY":338,"tags":{"caravans":"yes","email":"nfo@camping-renskers.nl","landuse":"grass","name":"Camping Renskers","phone":"+31 543 563 293","shower":"yes","static_caravans":"yes","tents":"yes","toilets":"yes","website":"https://www.camping-renskers.nl/"}},"513068605":{"location":[51.8630568,6.8964422],"ct":"DE","tp":"CR","ts":"2021-10-28T19:34:08Z","tX":531,"tY":338,"tags":{"capacity":"10","name":"Forellenhof Wolter","phone":"+49 2861 2448","power_supply":"yes","website":"www.gestuet-forellenhof.de"}},"521258768":{"location":[51.8359768,6.8607148],"ct":"DE","tp":"CR","ts":"2023-11-21T00:33:12Z","tX":531,"tY":338,"tags":{"addr:city":"Borken","addr:postcode":"46325","addr:street":"Parkstraße","capacity":"15","charge":"5€/night;1€/Electricity/night","fee":"yes","maxstay":"3 days","name":"Stellplatz am Aquarius","phone":"+49 2861 939252","power_supply":"yes","website":"https://www.borken.de/de/tourismus/uebernachten/campingplaetze-und-reisemobilstellplaetze.html"}},"706925525":{"location":[51.9972827,6.6813186],"ct":"NL","tp":"CS","ts":"2024-08-18T19:11:39Z","tX":531,"tY":338,"tags":{"capacity:pitches":"15","caravans":"yes","dog":"no","email":"info@campingleurdijkmeddo.nl","name":"Leurdijk","phone":"+31 6 25570360;+31 6 48754415","shower":"yes","tents":"yes","toilets":"yes","website":"https://www.campingleurdijkmeddo.nl"}},"717928384":{"location":[51.9511747,6.769858],"ct":"NL","tp":"CS","ts":"2023-05-30T12:19:03Z","tX":531,"tY":338,"tags":{"cabins":"yes","capacity:cabins":"1","caravans":"yes","contact:whatsapp":"+31 6 51722076","name":"De Appelweide","phone":"+31 6 51722076","shower":"yes","tents":"yes","toilets":"yes","website":"https://www.appelweide.nl/"}},"767206499":{"location":[51.9969507,6.9261154],"ct":"DE","tp":"CR","ts":"2024-04-29T15:35:13Z","tX":531,"tY":338,"tags":{"addr:city":"Stadtlohn","addr:country":"DE","addr:housenumber":"31","addr:postcode":"48703","addr:street":"Uferstraße","capacity":"5","caravans":"yes","fee":"no","power_supply":"yes","water_point":"yes"}},"777256490":{"location":[51.9489207,6.6935934],"ct":"NL","tp":"CS","ts":"2020-02-29T11:17:19Z","tX":531,"tY":338,"tags":{"name":"Camping Vreehorst"}},"807614758":{"location":[51.9194294,6.7511057],"ct":"NL","tp":"CS","ts":"2020-05-23T20:00:29Z","tX":531,"tY":338,"tags":{"capacity":"15","name":"Veenemaat Mini Camping","website":"https://www.veenemaat.nl/"}},"807623521":{"location":[51.9903228,6.7222501],"ct":"NL","tp":"CS","ts":"2023-08-01T13:01:40Z","tX":531,"tY":338,"tags":{"capacity":"100","name":"Camping ‘t Hilgelomeer","website":"https://www.hilgelomeer.nl/camping-achterhoek.aspx"}},"807695511":{"location":[51.9222941,6.7755558],"ct":"NL","tp":"CS","ts":"2023-05-30T19:05:14Z","tX":531,"tY":338,"tags":{"capacity":"15","name":"Natuurkampeerterrein 't Diekshoes","website":"https://www.diekshoes.nl"}},"807726980":{"location":[51.9927857,6.7340993],"ct":"NL","tp":"CS","ts":"2020-05-24T10:07:59Z","tX":531,"tY":338,"tags":{"capacity":"25","name":"Minicamping Nieuw Bovenhuis","website":"https://nieuwbovenhuis.nl/"}},"808016926":{"location":[51.9092176,6.7227709],"ct":"NL","tp":"CS","ts":"2023-07-08T19:30:33Z","tX":531,"tY":338,"tags":{"name":"De Harmienehoeve","website":"https://www.campingdeharmienehoeve.nl/"}},"846778357":{"location":[51.9522389,6.7349669],"ct":"NL","tp":"CR","ts":"2024-05-08T20:42:12Z","tX":531,"tY":338,"tags":{"drinking_water":"yes","fee":"yes","name":"Camperplaatsen Het Winkel","power_supply":"yes","sanitary_dump_station":"no","toilets":"no"}},"888187671":{"location":[51.9266362,6.6956008],"ct":"NL","tp":"CS","ts":"2020-12-26T00:54:13Z","tX":531,"tY":338,"tags":{"designation":"Vekabo","name":"Minicamping Damkotshuisje"}},"905520264":{"location":[52.0416622,6.8418983],"ct":"DE","tp":"CS","ts":"2024-10-03T14:17:58Z","tX":531,"tY":338,"tags":{"access":"permit","addr:city":"Vreden","addr:country":"DE","addr:housenumber":"59a","addr:postcode":"48691","addr:street":"Ottensteiner Straße","capacity:persons":"150","caravans":"no","check_date":"2024-01-23","description":"Der Zeltplatz ist Teil des Pfadfinderzentrums Westmünsterland und liegt im Randbereich der Stadt Vreden. Wir sind spezialisiert auf die Anforderungen und Bedürfnisse von Pfadfindergruppen.","drinking_water":"yes","email":"info@pfadfinder-vreden.de","fee":"yes","group_only":"yes","image":"https://pfadfinder-vreden.de/wp-content/uploads/2023/10/IMG_20210608_065447_gerade-2048x944.jpg","internet_access":"wlan","internet_access:fee":"no","name":"Pfadfinderzentrum Westmünsterland","openfire":"yes","operator":"Vredener Georspfadfinder e.V.","phone":"+492564 3989239","power_supply":"yes","reservation":"required","shower":"yes","static_caravans":"no","tents":"yes","toilets":"yes","website":"https://pfadfinder-vreden.de/zeltplatz"}},"1042021819":{"location":[52.0077397,6.7890334],"ct":"NL","tp":"CS","ts":"2022-03-20T19:50:05Z","tX":531,"tY":338,"tags":{"name":"Pop-up camping KleinGeluk"}},"1063396574":{"location":[51.9321893,6.7827519],"ct":"NL","tp":"CS","ts":"2022-05-24T20:23:03Z","tX":531,"tY":338,"tags":{"name":"Vakantiepark de Italiaanse Meren","website":"https://www.italiaansemeren.nl/"}},"1102327881":{"location":[51.9888263,6.7015205],"ct":"NL","tp":"CS","ts":"2022-10-09T12:21:45Z","tX":531,"tY":338,"tags":{"capacity":"8","name":"Camping&Glamping Morskershoeve","website":"https://morskershoeve.nl/campingglamping/"}},"1167169200":{"location":[51.9459036,6.7772967],"ct":"NL","tp":"CS","ts":"2023-04-28T17:59:32Z","tX":531,"tY":338,"tags":{"capacity:caravans":"15","caravans":"yes","email":"info@rotmanshoeve.nl","internet_access":"wlan","internet_access:fee":"no","landcover":"grass","name":"De Rotmanshoeve","phone":"+31 6 53692724","shower":"yes","tents":"yes","toilets":"yes","website":"https://rotmanshoeve.nl/"}},"1191580327":{"location":[51.9997993,6.7578291],"ct":"NL","tp":"CS","ts":"2023-07-23T12:43:10Z","tX":531,"tY":338,"tags":{"capacity:pitches":"13","caravans":"yes","email":"info@ervehesselink.nl","name":"Erve Hesselink","opening_hours":"Mar 15 - Oct 31","phone":"+31 543 562 410","shower":"yes","tents":"yes","toilets":"yes","website":"https://www.ervehesselink.nl/"}},"1205272780":{"location":[52.0332911,6.8213026],"ct":"DE","tp":"CR","ts":"2024-05-28T09:07:17Z","tX":531,"tY":338,"tags":{"addr:city":"Vreden","addr:country":"DE","addr:housenumber":"6","addr:postcode":"48691","addr:street":"Up de Bookholt","capacity":"17","caravans":"yes","fee":"yes","internet_access":"wlan","internet_access:fee":"customers","name":"Safe Harbour","opening_hours":"24/7","operator":"Safe-Harbour","payment:cash":"no","power_supply":"yes","sanitary_dump_station":"yes","website":"https://safe-harbour.net/place/stellplatz-vreden-up-de-bookholt-6-48691-vreden-ganzjahrig-geoffnet"}},"1212119490":{"location":[51.9892389,6.7793933],"ct":"NL","tp":"CS","ts":"2024-07-10T17:31:37Z","tX":531,"tY":338,"tags":{"addr:city":"Winterswijk Henxel","addr:housenumber":"6","addr:postcode":"7113CB","addr:street":"Kremerweg","name":"Natuurkampeerterrein Lutje Kössink","website":"https://www.lutjekossink.com/"}},"1227200669":{"location":[51.9532014,6.7424371],"ct":"NL","tp":"CS","ts":"2023-11-27T17:55:45Z","tX":531,"tY":338,"tags":{"name":"Landgoed Zonnebloem","website":"https://landgoed-dezonnebloem.com/"}},"1234314169":{"location":[51.9938426,6.7899822],"ct":"NL","tp":"CS","ts":"2023-12-26T15:35:56Z","tX":531,"tY":338,"tags":{"access":"private","addr:city":"Winterswijk Ratum","addr:housenumber":"11b","addr:postcode":"7106CT","addr:street":"Scholtemaatweg","description":"Dit kampeerterrein is alleen toegankelijk voor leden van de NTKC","dog":"leashed","internet_access":"no","name":"NTKC Masterveld","operator":"Nederlandse Toeristen Kampeer Club","power_supply":"no","website":"https://www.kampeerclub.nl/terrein/kampeerterrein-masterveld"}},"1265854065":{"location":[52.0481583,7.0084519],"ct":"DE","tp":"CR","ts":"2024-03-24T16:51:43Z","tX":531,"tY":338,"tags":{"caravan_site":"motorhome_stopover","caravan_site:type":"restaurant","caravans":"no","charge":"8 EUR + 10 EUR voucher for restaurant","fee":"yes","name":"Wohnmobilstellplatz an der Gaststätte Voss","power_supply":"yes","power_supply:fee":"no","tents":"no","water_point":"yes","water_point:fee":"no","website":"https://gaststaette-voss.chayns.site/"}},"1646626004":{"location":[51.9866104,6.7425361],"ct":"NL","tp":"CS","ts":"2021-04-10T08:07:32Z","tX":531,"tY":338,"tags":{"addr:city":"Winterswijk Henxel","addr:housename":"Camping het Wieskamp","addr:housenumber":"13","addr:postcode":"7113AA","addr:street":"Kobstederweg","name":"Camping het Wieskamp","source":"BAG","source:date":"2014-03-24","website":"https://www.wieskamp.nl"}},"2797754161":{"location":[52.008773,6.7385089],"ct":"NL","tp":"CS","ts":"2022-06-06T10:03:56Z","tX":531,"tY":338,"tags":{"addr:city":"Winterswijk Meddo","addr:housenumber":"3","addr:postcode":"7104DC","addr:street":"Poolserweg","description":"kleinschalige camping op voormalig melkveebedrijf.","name":"Boerderijcamping Poelhuis","phone":"+31 543 569 246","source":"BAG","source:date":"2014-03-24","website":"https://www.poelhuis.nl/"}},"3659001409":{"location":[51.921584,6.7192285],"ct":"NL","tp":"CS","ts":"2020-12-22T14:44:18Z","tX":531,"tY":338,"tags":{"addr:city":"Winterswijk Woold","addr:housenumber":"5","addr:postcode":"7108BJ","addr:street":"Meerdinkweg","contact:website":"http://www.brommels.nl/contact/","name":"De Brömmels Camping en Geitenkaasboerderij","source":"BAG","source:date":"2014-03-24","website":"https://www.brommels.nl/"}},"9045078366":{"location":[51.836329,6.6942117],"ct":"DE","tp":"CR","ts":"2021-08-29T21:43:10Z","tX":531,"tY":338,"tags":{"addr:city":"Rhede","addr:housenumber":"9","addr:postcode":"46414","addr:street":"Kettelerstraße","charge":"3 €","dog":"yes","fee":"yes","internet_access":"no","name":"Wohnmobilstellplatz Rhede","operator":"Stadt Rhede","website":"https://www.rhede.de/portal/seiten/im-eigenen-bett-unter-baeumen-900000233-28220.html"}},"10171555906":{"location":[51.9260042,6.7958921],"ct":"DE","tp":"CR","ts":"2024-05-13T20:50:44Z","tX":531,"tY":338,"tags":{"addr:city":"Südlohn","addr:housenumber":"12","addr:postcode":"46354","addr:street":"Hinterm Busch","caravan_site":"motorhome_stopover","caravan_site:type":"countryside","caravans":"yes","charge":"15.00 EUR","fee":"yes","name":"Wohnmobilstellplatz Oeding","operator":"Ludger Wameling","phone":"+49 2862 6640","power_supply":"yes","shower":"yes","toilets":"yes","website":"https://www.womo-stellplatz-oeding.de/wohnmobil-stellplatz"}},"10816245111":{"location":[51.9298289,6.801645],"ct":"DE","tp":"CR","ts":"2024-08-15T13:50:47Z","tX":531,"tY":338,"tags":{"addr:city":"Südlohn","addr:housenumber":"17a","addr:postcode":"46354","addr:street":"Hinterm Busch","capacity:caravans":"5","caravans":"yes","charge":"18€","drinking_water":"yes","email":"k.isferding@t-online.de","fee":"yes","name":"Wohnmobilstellplatz Hinterm-Busch","power_supply":"yes","sanitary_dump_station":"no","shower":"yes","toilets":"yes"}},"9034863394":{"location":[51.9680612,7.0078518],"ct":"DE","tp":"SD","ts":"2021-08-25T12:05:16Z","tX":531,"tY":338,"tags":{}},"11170109299":{"location":[52.0329776,6.8209668],"ct":"DE","tp":"SD","ts":"2023-09-05T18:03:18Z","tX":531,"tY":338,"tags":{"access":"no","fee":"yes","operator":"Safe-Harbour","sanitary_dump_station:basin":"yes"}},"7900764528":{"location":[51.952624,6.7323305],"ct":"NL","tp":"SD","ts":"2024-05-08T20:39:49Z","tX":531,"tY":338,"tags":{"access":"customers","fee":"yes"}},"7900764536":{"location":[51.9529461,6.7311656],"ct":"NL","tp":"SD","ts":"2024-05-09T20:08:43Z","tX":531,"tY":338,"tags":{"access":"customers","building":"yes","fee":"yes"}},"7900764538":{"location":[51.9524418,6.7296014],"ct":"NL","tp":"SD","ts":"2024-05-09T20:08:21Z","tX":531,"tY":338,"tags":{"access":"customers","fee":"yes"}},"9966340143":{"location":[51.9979136,6.7193593],"ct":"NL","tp":"SD","ts":"2022-08-20T16:49:37Z","tX":531,"tY":338,"tags":{"access":"customers"}}}