{"26196267":{"location":[51.684266,6.7674073],"ct":"DE","tp":"CS","ts":"2021-11-14T18:08:38Z","tX":531,"tY":339,"tags":{"addr:city":"Schermbeck","addr:housenumber":"7","addr:postcode":"46514","addr:street":"Klein-Else-Weg","charge":"10.00 EUR","fee":"yes","name":"Campingplatz Wachtenbrink","operator":"Fam. Terstegen","payment:cash":"yes","phone":"+49 2858 6053","source":"http://www.campingplatz-wachtenbrink.de/","website":"https://www.campingplatz-wachtenbrink.de/"}},"35324420":{"location":[51.6709921,6.8444604],"ct":"DE","tp":"CS","ts":"2023-04-08T13:31:36Z","tX":531,"tY":339,"tags":{"name":"Campingplatz Lippetal"}},"37960640":{"location":[51.671498,6.8501397],"ct":"DE","tp":"CS","ts":"2023-04-08T13:31:36Z","tX":531,"tY":339,"tags":{"disused:tourism":"camp_site","name":"Campingplatz Schillingsrott"}},"101764672":{"location":[51.6614564,6.9815817],"ct":"DE","tp":"CS","ts":"2023-11-10T07:33:58Z","tX":531,"tY":339,"tags":{"access":"private","description:de":"Zeltplatz nur für Vereinsmitglider und deren Angehörigen.","maxtents":"0","name":"Segelfluggelände Dorsten","website":"https://www.lsv-dorsten.de/"}},"140270478":{"location":[51.6627168,6.9152619],"ct":"DE","tp":"CS","ts":"2024-05-12T13:28:00Z","tX":531,"tY":339,"tags":{"addr:city":"Dorsten","addr:housenumber":"280","addr:postcode":"46282","addr:street":"Brückenweg","caravans":"yes","contact:email":"info@campingplatz-zenker.de","contact:mobile":"+49 175 1414008","contact:phone":"+49 2362 3331","name":"Campingplatz Zenker","shower":"yes","tents":"yes","toilets":"yes","website":"https://campingplatz-zenker.de/"}},"165391285":{"location":[51.6714481,6.8571312],"ct":"DE","tp":"CS","ts":"2023-04-08T13:31:36Z","tX":531,"tY":339,"tags":{"disused:tourism":"camp_site","name":"Hohes Ufer","phone":"+49 2853 9569786","source:disused":"https://www.kreis-wesel.de/de/presse/nutzungsuntersagung-fuer-schermbecker-campingplatz-hohes-ufer/"}},"165391895":{"location":[51.6725416,6.8756856],"ct":"DE","tp":"CR","ts":"2024-05-12T15:40:49Z","tX":531,"tY":339,"tags":{"addr:city":"Schermbeck","addr:housenumber":"35","addr:postcode":"46514","addr:street":"Im Aap","capacity":"0","name":"Campingplatz Vengels","tents":"no"}},"168701326":{"location":[51.6656467,6.9672098],"ct":"DE","tp":"CR","ts":"2023-01-18T17:57:46Z","tX":531,"tY":339,"tags":{"addr:city":"Dorsten","addr:country":"DE","addr:postcode":"46282","addr:street":"Zur Lippe","capacity":"38","caravans":"no","charge":"8.00 EUR","dog":"yes","email":"klahn@win-dor.de","fee":"yes","name":"Reisemobilhafen 'An der Lippe'","opening_hours":"24/7","phone":"+49 152 22144744","power_supply":"yes","stars":"4","tents":"no","toilets:wheelchair":"no","website":"http://www.womodo.de/","wheelchair":"limited"}},"184630893":{"location":[51.8325263,6.7907659],"ct":"DE","tp":"CS","ts":"2022-02-19T16:14:49Z","tX":531,"tY":339,"tags":{"addr:city":"Borken","addr:housenumber":"16","addr:postcode":"46325","addr:street":"Pröbstinger Busch","contact:phone":"+49 221 98885606","contact:website":"https://www.campingborkenamsee.de/","name":"Camping Borken am See"}},"206280606":{"location":[51.6659093,6.8949886],"ct":"DE","tp":"CR","ts":"2024-05-12T13:49:59Z","tX":531,"tY":339,"tags":{"access":"private","addr:city":"Schermbeck","addr:country":"DE","addr:housenumber":"167","addr:postcode":"46514","addr:street":"Brückenweg","capacity":"0","club":"yes","description:de":"Zeltplatz nur für Vereinsmitglieder, privat.","description:en":"Campsite for club members only, private.","name":"Club der Campingfreunde Gelsenkirchen Resser Mark e.V."}},"249013486":{"location":[51.6703544,6.8809471],"ct":"DE","tp":"CR","ts":"2024-05-12T15:17:25Z","tX":531,"tY":339,"tags":{"access":"no","addr:city":"Schermbeck","addr:country":"DE","addr:housenumber":"67","addr:postcode":"46514","addr:street":"Im Aap","capacity":"0","name":"Camp Joh. Rademacher","tents":"no"}},"249015477":{"location":[51.6681625,6.8854562],"ct":"DE","tp":"CR","ts":"2024-05-12T14:25:14Z","tX":531,"tY":339,"tags":{"access":"private","addr:city":"Schermbeck","addr:country":"DE","addr:housenumber":"80","addr:postcode":"46514","addr:street":"Im Aap","capacity":"0","contact:phone":"+49 172 643 3013","description:de":"Zeltplatz nur für Vereinsmitglieder, privat.","description:en":"Campsite for club members only, private.","name":"Campingclub \"Klein Heike\""}},"249015478":{"location":[51.6688779,6.8807503],"ct":"DE","tp":"CS","ts":"2024-05-21T14:45:09Z","tX":531,"tY":339,"tags":{"addr:city":"Schermbeck","addr:country":"DE","addr:housenumber":"69","addr:postcode":"46514","addr:street":"Im Aap","camp_site":"serviced","caravans":"yes","contact:phone":"+49 179 670 1499","internet_access":"wlan","internet_access:fee":"no","motorhome":"yes","name":"Die fröhliche Nachtigall - Campingplatz","operator":"Nachtigall","power_supply":"yes","sanitary_dump_station":"yes","shower":"yes","tents":"yes","toilets":"yes","wheelchair":"no"}},"249015479":{"location":[51.6676545,6.8888951],"ct":"DE","tp":"CS","ts":"2024-05-12T14:10:42Z","tX":531,"tY":339,"tags":{"addr:city":"Schermbeck","addr:country":"DE","addr:housenumber":"135","addr:postcode":"46514","addr:street":"Brückenweg","caravans":"yes","contact:email":"kontakt@camping-lippe.de","contact:phone":"+49 2853 5583","name":"Camping Sybergshof","nudism":"no","shower":"yes","tents":"yes","toilets":"yes","website":"http://www.camping-lippe.de/","wheelchair":"no"}},"262568081":{"location":[51.8281766,6.8869959],"ct":"DE","tp":"CR","ts":"2024-05-21T18:03:45Z","tX":531,"tY":339,"tags":{"addr:city":"Borken","addr:housenumber":"7","addr:postcode":"46325","addr:street":"Fleter Esch","capacity":"107","contact:phone":"+49 2861 61106","contact:website":"https://www.sonnenhof-marbeck.de/index.php","email":"info@sonnenhof-marbeck.de","internet_access":"wlan","name":"Sonnenhof Marbeck","nudism":"designated","operator":"FSG Marbecker Bund e.V.","power_supply":"yes"}},"437493012":{"location":[51.765322,6.8312763],"ct":"DE","tp":"CR","ts":"2023-01-18T17:57:46Z","tX":531,"tY":339,"tags":{"capacity":"8","dog":"yes","fee":"yes","internet_access":"no","name":"Graf Alexander","operator":"Gemeinde Raesfeld","power_supply":"yes","sanitary_dump_station":"yes","source":"survey","tents":"no","water_point":"yes","website":"http://www.gemeinde-raesfeld.de/"}},"461227356":{"location":[51.7628367,6.720515],"ct":"DE","tp":"CS","ts":"2022-06-23T16:33:50Z","tX":531,"tY":339,"tags":{"access":"customers","addr:city":"Hamminkeln","addr:housenumber":"5","addr:postcode":"46499","addr:street":"Melkweg","bettundbike":"yes","capacity":"60","caravans":"yes","email":"info@campingplatznordbrock.de","fee":"yes","name":"Campingplatz Alte Nordbrocker Mühle","phone":"+49 2856 980896","tents":"yes","website":"https://www.campingplatznordbrock.de/"}},"564827207":{"location":[51.6543116,6.8099143],"ct":"DE","tp":"CS","ts":"2023-03-24T18:02:27Z","tX":531,"tY":339,"tags":{"addr:city":"Hünxe","addr:housenumber":"27","addr:postcode":"46569","addr:street":"Elsenweg","name":"Campingplatz Kleinsteinberg","operator":"Klaus Kleinsteinberg"}},"799550854":{"location":[51.6567419,6.8113442],"ct":"DE","tp":"CS","ts":"2014-12-19T19:45:14Z","tX":531,"tY":339,"tags":{"name":"Schepers Linde"}},"1163625584":{"location":[51.6684668,6.8839683],"ct":"DE","tp":"CR","ts":"2024-05-12T14:37:18Z","tX":531,"tY":339,"tags":{"access":"private","addr:city":"Schermbeck","addr:country":"DE","addr:housenumber":"76","addr:postcode":"46514","addr:street":"Im Aap","capacity":"0","caravans":"yes","club":"yes","name":"Campingplatz Wachsames Hähnchen"}},"1951300887":{"location":[51.8310621,6.6871394],"ct":"DE","tp":"CR","ts":"2021-09-30T09:24:55Z","tX":531,"tY":339,"tags":{"access":"yes","addr:city":"Rhede","addr:housenumber":"59","addr:postcode":"46414","addr:street":"Heideweg","capacity":"2","description":"Keine Versorgung","name":"Wohnmobilstellplatz am Hallen- und Freibad Rhede","operator":"Stadt Rhede","power_supply":"no","sanitary_dump_station":"no","water_point":"no","website":"https://www.rhede.de/portal/seiten/im-eigenen-bett-unter-baeumen-900000233-28220.html"}},"2521106139":{"location":[51.6848144,6.7680336],"ct":"DE","tp":"CR","ts":"2013-11-06T12:18:56Z","tX":531,"tY":339,"tags":{"source":"http://www.campingplatz-wachtenbrink.de/"}},"3433330184":{"location":[51.6656615,6.9671216],"ct":"DE","tp":"SD","ts":"2015-04-03T08:40:22Z","tX":531,"tY":339,"tags":{"sanitary_dump_station:chemical_toilet":"yes","sanitary_dump_station:gravity":"yes","sanitary_dump_station:grey_water":"yes"}},"3437834791":{"location":[51.6639494,6.9645027],"ct":"DE","tp":"SD","ts":"2015-04-12T04:10:19Z","tX":531,"tY":339,"tags":{"image":"File:Ve dorsten hafen.jpg","sanitary_dump_station:chemical_toilet":"yes","sanitary_dump_station:fee":"yes","sanitary_dump_station:gravity":"yes","sanitary_dump_station:grey_water":"yes","sanitary_dump_station:suction":"yes"}},"3444766097":{"location":[51.7652138,6.8305269],"ct":"DE","tp":"SD","ts":"2015-04-08T13:54:22Z","tX":531,"tY":339,"tags":{"sanitary_dump_station:chemical_toilet":"yes","sanitary_dump_station:grey_water":"yes"}},"4352958935":{"location":[51.6643083,6.9779398],"ct":"DE","tp":"CS","ts":"2023-09-20T19:31:02Z","tX":531,"tY":339,"tags":{"caravans":"yes","name":"Sportboothafen Fürst-Leopold","note":"(private only)","source":"survey","tents":"no"}},"10871899024":{"location":[51.8282002,6.9007431],"ct":"DE","tp":"CS","ts":"2023-11-08T02:08:40Z","tX":531,"tY":339,"tags":{"addr:city":"Heiden","addr:housenumber":"33","addr:postcode":"46359","addr:street":"Borkener Straße","caravans":"yes","email":"info@gasthof-grunewald.de","name":"Grunewald","phone":"+49 2867 97181","tents":"no","website":"https://www.gasthof-grunewald.de/pension/"}},"4352958930":{"location":[51.6644348,6.9777199],"ct":"DE","tp":"CR","ts":"2024-02-18T06:08:21Z","tX":531,"tY":339,"tags":{"addr:city":"Dorsten","addr:housenumber":"82","addr:postcode":"46282","addr:street":"Zur Lippe","contact:phone":"+49 15233 794653","fee":"no","name":"Sportboothafen Fürst-Leopold","operator":"Dorstener Motor-Yacht Club e.V.","source":"survey","toilets":"yes"}},"9241247443":{"location":[51.6688282,6.8698004],"ct":"DE","tp":"CR","ts":"2021-11-10T17:35:29Z","tX":531,"tY":339,"tags":{"addr:city":"Schermbeck","addr:housenumber":"37","addr:postcode":"46514","addr:street":"Kirchstraße","charge":"12.00 EUR","email":"friedrich.holtkamp@t-online.de","fee":"yes","phone":"+49 2853 5898","website":"http://restaurant-holtkamp.de/"}},"9952990974":{"location":[51.8278607,6.8875892],"ct":"DE","tp":"SD","ts":"2022-08-14T16:07:18Z","tX":531,"tY":339,"tags":{}}}