{"3535289":{"location":[51.3835227,6.8995789],"ct":"DE","tp":"CS","ts":"2019-09-30T06:44:45Z","tX":531,"tY":341,"tags":{"date_off":"..-10.10","date_on":"..-04-10","name":"Staader Loch","phone":"+49 208-480325","website":"https://www.muelheim-tourismus.de/suchen-buchen/unterkunftsdetails/campingplatz-staader-loch/"}},"24527372":{"location":[51.3585483,6.9511709],"ct":"DE","tp":"CS","ts":"2023-04-10T17:37:35Z","tX":531,"tY":341,"tags":{"addr:city":"Essen","addr:country":"DE","addr:postcode":"45219","addr:street":"Werdener Straße","caravans":"yes","email":"cammzell@aol.com","mobile":"+49 171 5311635","motorhome":"yes","name":"Campingplatz Cammerzell","phone":"+49 2054 4798","shower":"yes","tents":"yes","toilets":"yes","website":"https://camping-cammerzell.de/"}},"24535784":{"location":[51.1985642,6.888079],"ct":"DE","tp":"CS","ts":"2023-11-20T07:27:48Z","tX":531,"tY":341,"tags":{"caravans":"yes","contact:phone":"+49 211 - 8992038","contact:website":"https://www.unterbachersee.de","landuse":"grass","name":"Camping Nordstrand","operator":"Zweckverband Erholungsgebiet Unterbacher See","tents":"yes","wheelchair":"yes"}},"24597647":{"location":[51.1940117,6.8798077],"ct":"DE","tp":"CS","ts":"2020-04-22T05:33:57Z","tX":531,"tY":341,"tags":{"barrier":"fence","contact:phone":"+49 211 - 8992038","contact:website":"https://www.unterbachersee.de","landuse":"grass","name":"Camping Südstrand","operator":"Zweckverband Erholungsgebiet Unterbacher See","wheelchair":"yes"}},"25001341":{"location":[51.3816523,6.9924244],"ct":"DE","tp":"CS","ts":"2022-06-25T15:31:58Z","tX":531,"tY":341,"tags":{"addr:city":"Essen","addr:country":"DE","addr:housenumber":"67","addr:postcode":"45239","addr:street":"Im Löwental","contact:email":"essen@knauscamp.de","contact:phone":"+49 201 492978","contact:website":"https://www.knauscamp.de/essen-werden.html","fee":"yes","name":"Knaus-Campingpark","opening_hours":"07:00-13:00, 15:00-22:00","power_supply":"yes","tents":"yes","wheelchair":"limited"}},"25032498":{"location":[51.3898834,6.8956625],"ct":"DE","tp":"CS","ts":"2014-02-24T18:29:51Z","tX":531,"tY":341,"tags":{"name":"Haus Kron"}},"26564487":{"location":[51.3718232,6.8179662],"ct":"DE","tp":"CS","ts":"2022-01-28T12:46:51Z","tX":531,"tY":341,"tags":{"name":"Am Entenfang"}},"40638133":{"location":[51.3029559,6.7273563],"ct":"DE","tp":"CS","ts":"2023-06-11T09:25:36Z","tX":531,"tY":341,"tags":{"addr:city":"Meerbusch","addr:country":"DE","addr:housenumber":"21","addr:postcode":"40668","addr:street":"Zur Rheinfähre","caravans":"yes","fax":"+49 2150 70 75 71","name":"Rheincamping Meerbusch","note":"closed_in_winter_attention_flood_hazard_area","operator":"Breitbach, Brix & Dunke GbR","phone":"+49 2150 91 18 17","source":"yahoo","tents":"yes","website":"https://rheincamping.com/","wheelchair":"limited"}},"89976852":{"location":[51.3410412,7.0304277],"ct":"DE","tp":"CR","ts":"2021-05-05T13:38:31Z","tX":531,"tY":341,"tags":{"access":"yes","fee":"yes","name":"WoMo Stellplatz unter Saubrücke","park_ride":"no","parking":"surface"}},"96829312":{"location":[51.3681421,6.8043541],"ct":"DE","tp":"CS","ts":"2019-10-11T23:26:32Z","tX":531,"tY":341,"tags":{"access":"private","alt_name":"LBN Duisburg","barrier":"fence","name":"Lichtbund Niederrhein","note:de":"Freizeitanlage eines Naturistenvereins, vielleicht eher leisure=sports_centre","nudism":"yes","source":"bing;local_knowledge","website":"https://www.lbn-duisburg.de/"}},"102783594":{"location":[51.3780311,6.9047102],"ct":"DE","tp":"CS","ts":"2023-06-20T17:15:32Z","tX":531,"tY":341,"tags":{"access":"private"}},"106168512":{"location":[51.2524523,6.7286452],"ct":"DE","tp":"CS","ts":"2019-10-13T19:00:17Z","tX":531,"tY":341,"tags":{"addr:city":"Düsseldorf","addr:country":"DE","addr:housenumber":"305","addr:postcode":"40547","addr:street":"Niederkasseler Deich","contact:website":"http://www.düsselcamp.de/","name":"Campingplatz Düsseldorf-Lörick"}},"144000845":{"location":[51.3893482,6.8931839],"ct":"DE","tp":"CS","ts":"2014-02-24T18:29:51Z","tX":531,"tY":341,"tags":{"name":"Haus Kron"}},"151335422":{"location":[51.3670379,6.959934],"ct":"DE","tp":"CS","ts":"2025-06-12T17:21:22Z","tX":531,"tY":341,"tags":{"caravans":"yes","fee":"yes","name":"Restaurant Kattenturm Camping","operator":"Restaurant Kattenturm","permanent_camping":"yes","tents":"yes"}},"172128878":{"location":[51.3790553,6.9878351],"ct":"DE","tp":"CS","ts":"2024-09-24T21:02:38Z","tX":531,"tY":341,"tags":{"name":"Camping Deichklause","operator":"Brigitte Brach","phone":"+49 201 492304"}},"253160148":{"location":[51.396517,6.8915606],"ct":"DE","tp":"CS","ts":"2024-12-28T17:10:51Z","tX":531,"tY":341,"tags":{}},"274058480":{"location":[51.234689,6.7708648],"ct":"DE","tp":"CR","ts":"2021-02-05T16:54:16Z","tX":531,"tY":341,"tags":{"alt_name":"Untere Werft;Tonhallenufer;Untere Rheinwerft;Joseph-Beuys-Ufer","capacity":"30","fee":"yes","internet_access":"no","name":"Rheinterrasse/Tonhalle","operator":"Verkehrswacht Parkplatz GmbH","power_supply":"no","wheelchair":"yes"}},"304169146":{"location":[51.3148946,6.9018526],"ct":"DE","tp":"CS","ts":"2025-02-21T14:49:36Z","tX":531,"tY":341,"tags":{"area":"yes"}},"1883045021":{"location":[51.26952,6.7233163],"ct":"DE","tp":"CR","ts":"2017-08-13T18:41:04Z","tX":531,"tY":341,"tags":{"capacity":"800","email":"caravan-center@messe-duesseldorf.de","fee":"yes","name":"Caravan Center","power_supply":"yes","shower":"yes","tents":"no"}},"3052037874":{"location":[51.2698021,6.7231029],"ct":"DE","tp":"SD","ts":"2015-04-29T02:12:51Z","tX":531,"tY":341,"tags":{"sanitary_dump_station:accepted":"black_water;grey_water;tank_chemicals"}},"10700012385":{"location":[51.183837,6.9826927],"ct":"DE","tp":"SD","ts":"2023-02-28T17:59:58Z","tX":531,"tY":341,"tags":{"access":"yes","charge":"1 EUR","fee":"yes","operator":"Stadtwerke Haan","payment:coins":"yes","sanitary_dump_station:chemical_toilet":"yes","sanitary_dump_station:gravity":"yes","sanitary_dump_station:grey_water":"yes","water_point":"yes"}}}