{"32894763":{"location":[50.3229941,6.9391261],"ct":"DE","tp":"CS","ts":"2023-11-09T08:36:49Z","tX":531,"tY":345,"tags":{"name":"Camping am Nürburgring","website":"https://www.camping-am-nuerburgring.de/"}},"55887743":{"location":[50.474893,6.8710049],"ct":"DE","tp":"CS","ts":"2022-04-29T06:13:03Z","tX":531,"tY":345,"tags":{"name":"Helfercamp Dachzeltnomaden","operator":"Dachzeltnomaden"}},"56161969":{"location":[50.4664353,6.8524194],"ct":"DE","tp":"CS","ts":"2018-08-23T19:18:05Z","tX":531,"tY":345,"tags":{}},"73913261":{"location":[50.4134874,6.7176012],"ct":"DE","tp":"CS","ts":"2024-01-03T11:41:43Z","tX":531,"tY":345,"tags":{"addr:city":"Blankenheim","addr:country":"DE","addr:housenumber":"1","addr:postcode":"53945","addr:street":"Am Freilinger See","addr:suburb":"Freilingen","camper":"yes","caravans":"yes","dryer":"yes","email":"info@eifel-camp.de","fax":"+49 2697 292","internet_access":"wlan","kitchen":"yes","name":"Eifel-Camp - Freilinger See","name:de":"Eifel-Camp - Freilinger See","name:en":"Eifel-Camp","opening_hours":"09:00-13:00,14:00-19:00","operator":"OTIUM GmbH & Co. KG","phone":"+49 2697 282","power_supply":"yes","sanitary_dump_station":"yes","sauna":"yes","stars":"5","tents":"yes","washing_machine":"yes","website":"https://eifel-camp.freizeit-oasen.de"}},"135582230":{"location":[50.4416667,6.874212],"ct":"DE","tp":"CS","ts":"2020-08-18T07:49:21Z","tX":531,"tY":345,"tags":{"access":"customers","addr:city":"Schuld","addr:housenumber":"101a","addr:postcode":"53520","addr:street":"Hauptstraße","name":"Campingplatz Schuld / Ahr","operator":"Anni und H. Willi Bläser","phone":"+49 2695 1534","website":"http://www.campingplatz-schuld.de/"}},"233599295":{"location":[50.4746213,6.9871387],"ct":"DE","tp":"CS","ts":"2019-03-25T05:02:06Z","tX":531,"tY":345,"tags":{"name":"Im Denntal","website":"https://www.camping-denntal.de/"}},"292374848":{"location":[50.3715866,6.7838459],"ct":"DE","tp":"CS","ts":"2024-09-26T07:29:16Z","tX":531,"tY":345,"tags":{"addr:city":"Blankenheim","addr:country":"DE","addr:housenumber":"23-31","addr:postcode":"53945","addr:street":"Hubertusstraße","addr:suburb":"Ahrdorf","name":"Frings-Mühle","website":"https://www.campingfrings-muehle.de/","wheelchair":"limited"}},"724560109":{"location":[50.403542,6.7191489],"ct":"DE","tp":"CS","ts":"2024-01-01T20:32:44Z","tX":531,"tY":345,"tags":{"access":"customers","backcountry":"yes","camp_site":"basic","capacity:tents":"2","caravans":"no","charge":"15.00 EUR","description":"The Campsite is a wooden platform for two tents. Each spot measures 2,25m * 3,5m. As there is no reception, it has to be booked in advance for 10€","drinking_water":"no","email":"info@nordeifel-tourismus.de","fee":"yes","fireplace":"no","fixme":"Add correct sized object, toilet etc.","internet_access":"no","name":"Großer Wagen","openfire":"no","operator":"Naturpark Nordeifel e.V.","phone":"+49 2441 994570","ref":"8","reservation":"required","shower":"no","tents":"yes","toilets":"yes","website":"https://www.trekking-eifel.de/de/die-trekkingplaetze/grosser-wagen/"}},"828153232":{"location":[50.3899656,6.9224764],"ct":"DE","tp":"CS","ts":"2020-07-20T13:41:36Z","tX":531,"tY":345,"tags":{"access":"private","capacity":"100","caravans":"no","fee":"yes","group_only":"yes","name":"Jugendzeltplatz Leimbachsbrück","operator":"Stadt Adenau","tents":"yes","website":"http://www.stadt-adenau.de/rathaus/vermietungen.html"}},"838814340":{"location":[50.3851086,6.9750687],"ct":"DE","tp":"CS","ts":"2023-09-05T09:15:05Z","tX":531,"tY":345,"tags":{"access":"permit","backcountry":"yes","capacity":"90","caravans":"no","charge":"2.00 EUR/person","fee":"yes","fireplace":"yes","group_only":"yes","name":"Jugendzeltplatz der Stadt Adenau im Extal","operator":"Stadt Adenau","shower":"no","tents":"yes","toilets":"yes","website":"http://www.stadt-adenau.de/rathaus/vermietungen.html"}},"1176354192":{"location":[50.4512552,6.7885043],"ct":"DE","tp":"CS","ts":"2023-05-26T19:14:33Z","tX":531,"tY":345,"tags":{}},"1423774080":{"location":[50.38965,6.7098558],"ct":"DE","tp":"CS","ts":"2019-08-25T10:10:56Z","tX":531,"tY":345,"tags":{"caravans":"no","group_only":"yes","name":"Jugendzeltplatz Dollendorf","tents":"yes"}}}