{"9656680":{"location":[50.1347336,6.9224701],"ct":"DE","tp":"CS","ts":"2023-11-02T11:37:48Z","tX":531,"tY":346,"tags":{"caravans":"yes","fee":"yes","internet_access":"wlan","internet_access:fee":"yes","name":"Pulvermaar Camping","operator":"Familie Meul","power_supply":"yes","sanitary_dump_station":"yes","smoking":"yes","stars":"3","tents":"yes","website":"https://www.pulvermaarcamping.de/","wheelchair":"limited"}},"27543793":{"location":[50.0956435,6.798022],"ct":"DE","tp":"CS","ts":"2023-07-23T16:34:24Z","tX":531,"tY":346,"tags":{"bett_and_bike:ref":"RLP-1195","bettundbike":"yes","cabins":"yes","caravans":"yes","email":"info@jugend-huettendorf.de","group_only":"yes","name":"Jugend-Hüttendorf Vulkaneifel","phone":"+49 6572 92110","tents":"yes","url":"http://www.jugend-huettendorf.de/","website":"https://www.naturcamping-vulkaneifel.de/"}},"31778856":{"location":[50.2558387,6.7801319],"ct":"DE","tp":"CS","ts":"2024-03-16T16:09:20Z","tX":531,"tY":346,"tags":{"landuse":"recreation_ground","name":"Dockweiler Mühle","website":"https://www.campingpark-dockweiler-muehle.de/"}},"72849337":{"location":[50.166726,6.8571913],"ct":"DE","tp":"CS","ts":"2019-03-25T04:50:38Z","tX":531,"tY":346,"tags":{"caravans":"yes","fee":"yes","name":"Camping Am Maar","power_supply":"yes","website":"https://www.hotelschneider.de/go/camping.html"}},"92511154":{"location":[50.2181655,6.9743572],"ct":"DE","tp":"CS","ts":"2023-07-20T21:16:01Z","tX":531,"tY":346,"tags":{"addr:city":"Ulmen","addr:country":"DE","addr:housenumber":"4","addr:postcode":"56766","addr:street":"Am Jungferweiher","alt_name":"Zum Glühwürmchen","name":"Jungferweiher","phone":"+49 2676 9519133","tents":"yes","website":"http://www.campingplatz-jungferweiher.de/"}},"214755318":{"location":[50.1136678,6.8447264],"ct":"DE","tp":"CS","ts":"2019-06-05T17:20:32Z","tX":531,"tY":346,"tags":{"capacity":"200","caravans":"no","email":"info@eckfeld.de","fee":"yes","group_only":"yes","internet_access":"no","name":"Zeltplatz Eckfeld","operator":"Ortsgemeinde Eckfeld","tents":"yes","website":"https://eckfeld.de/sport-zeltplatz/","wheelchair":"limited"}},"216666173":{"location":[50.1325143,6.9318619],"ct":"DE","tp":"CS","ts":"2023-11-02T11:37:57Z","tX":531,"tY":346,"tags":{"addr:city":"Gillenfeld","addr:postcode":"54558","addr:street":"Hinterm Pulvermaar","cabins":"yes","caravans":"yes","email":"info@feriendorf-pulvermaar.de","fee":"yes","internet_access":"yes","internet_access:ssid":"Feriendorf-Pulvermaar","mobile":"+49 172 8879345","name":"Feriendorf Pulvermaar","operator":"Frank G. Fetten","permanent_camping":"yes","phone":"+49 6573 287","shower":"yes","tents":"yes","toilets":"yes","website":"https://www.feriendorf-pulvermaar.de/"}},"216666200":{"location":[50.1343626,6.930503],"ct":"DE","tp":"CR","ts":"2024-08-03T21:54:51Z","tX":531,"tY":346,"tags":{"capacity":"40","caravan_site":"motorhome_stopover","caravan_site:type":"camp_site","charge":"10 EUR","dog":"leashed","fee":"yes","name":"Wohnmobilhafen Pulvermaar","power_supply":"yes","power_supply:capacity":"24","power_supply:maxcurrent":"16","socket:cee_blue":"yes","water_point":"yes","website":"https://feriendorf-pulvermaar.de/wohnmobilhafen/"}},"347944605":{"location":[50.0969616,6.7995816],"ct":"DE","tp":"CR","ts":"2024-09-24T08:46:48Z","tX":531,"tY":346,"tags":{"drinking_water":"yes","fee":"yes","internet_access":"no","name":"Jugend-Hüttendorf Vulkaneifel","operator":"Jugend-Hüttendorf Vulkaneifel","power_supply":"yes","sanitary_dump_station":"yes","surface":"grass","toilets":"yes","wheelchair":"yes"}},"448988275":{"location":[50.1005836,6.7289039],"ct":"DE","tp":"CR","ts":"2024-10-07T06:50:17Z","tX":531,"tY":346,"tags":{"addr:city":"Deudesfeld","addr:postcode":"54570","addr:street":"Meisburger Straße","capacity":"8","caravans":"no","contact:mobile":"+49 1511 8811112","contact:phone":"+49 6599 379","internet_access":"yes","lit":"yes","maxstay":"14 days","name":"Wohnmobilstellplatz Meisburgerstraße","operator":"Gemeinde Deudesfeld","power_supply":"yes","sanitary_dump_station":"yes","tents":"no","water_point":"yes","website":"https://deudesfeld.de/wohnmobil-stellplatz/"}},"543268812":{"location":[50.1305039,7.0105442],"ct":"DE","tp":"CR","ts":"2024-03-24T15:40:08Z","tX":531,"tY":346,"tags":{"addr:city":"Lutzerath","addr:postcode":"56826","addr:street":"An der Festwiese","capacity":"10","caravans":"no","charge":"5 EUR","description":"Anmeldung und Entrichtung der Gebühren: Hotel Restaurant Maas","fee":"yes","name":"Wohnmobilstellplatz Lutzerath","phone":"+49 (0) 2677 / 9363-0","power_supply":"yes","sanitary_dump_station":"yes","seasonal":"no","tents":"no","water_point":"yes"}},"578081657":{"location":[50.134988,6.9252629],"ct":"DE","tp":"CR","ts":"2023-08-12T07:31:45Z","tX":531,"tY":346,"tags":{"caravans":"no","dog":"yes","fee":"yes","name":"Wohnmobil-Stellplatz Pulvermaar Camping","power_supply":"yes","tents":"no","toilets":"no"}},"587857047":{"location":[50.2132512,6.9527732],"ct":"DE","tp":"CS","ts":"2023-04-01T18:56:00Z","tX":531,"tY":346,"tags":{"email":"hildegard.lewejohann@gmail.com","name":"Camping Maas","operator":"Günter Maas","phone":"+49 26 76 91 01 01"}},"601601386":{"location":[50.1015259,6.7321112],"ct":"DE","tp":"CR","ts":"2024-10-07T06:50:17Z","tX":531,"tY":346,"tags":{"addr:city":"Deudesfeld","addr:postcode":"54570","addr:street":"Manderscheider Straße","capacity":"4","caravans":"no","internet_access":"no","maxstay":"14 days","name":"Manderscheider Straße","phone":"+49 6599 379","tents":"no","website":"https://deudesfeld.de/wohnmobil-stellplatz/"}},"664261976":{"location":[50.1285307,6.9146067],"ct":"DE","tp":"PK","ts":"2024-07-03T21:27:58Z","tX":531,"tY":346,"tags":{"access":"customers","fee":"no","motorhome":"yes","parking":"surface"}},"783026126":{"location":[50.0966105,6.7975872],"ct":"DE","tp":"CS","ts":"2023-07-23T16:34:24Z","tX":531,"tY":346,"tags":{"caravans":"yes","fee":"yes","name":"Naturcamping Vulkaneifel","opening_hours":"Apr 01-Oct 31","operator":"Fam Moritz","phone":"+49 65 72 9 21 10","shower":"yes","tents":"yes","toilets":"yes","website":"https://www.naturcamping-vulkaneifel.de/"}},"810672775":{"location":[50.1699031,6.8714349],"ct":"DE","tp":"CR","ts":"2024-07-26T15:41:55Z","tX":531,"tY":346,"tags":{"bakery_service":"yes","capacity":"35","caravans":"no","charge":"12 EUR","contact:email":"info@wohnmobilpark-vulkaneifel.de","contact:phone":"+49 6592 6159780","contact:website":"https://wohnmobilpark-vulkaneifel.de/","dog":"yes","fee":"yes","internet_access":"wlan","internet_access:fee":"no","name":"Wohnmobilpark Vulkaneifel","payment:mastercard":"yes","power_supply":"yes","power_supply:charge":"0.60 EUR/kWh","power_supply:fee":"yes","sanitary_dump_station":"yes","sanitary_dump_station:chemical_toilet":"yes","sanitary_dump_station:grey_water":"yes","shower":"yes","socket:cee_blue":"yes","surface":"unpaved","tents":"no","toilets":"yes","water_point":"yes","water_point:charge":"1 EUR/100 liter","water_point:fee":"yes","website":"https://wohnmobilpark-vulkaneifel.de/"}},"1026538230":{"location":[50.2127093,6.9003739],"ct":"DE","tp":"CS","ts":"2022-01-31T22:59:05Z","tX":531,"tY":346,"tags":{}},"1238159813":{"location":[50.199723,6.8316978],"ct":"DE","tp":"CR","ts":"2024-05-17T08:04:56Z","tX":531,"tY":346,"tags":{"addr:city":"Daun","addr:postcode":"54550","addr:street":"Wohnmobilpark am Lieserbogen","alt_name":"Wohnmobilpark Daun","capacity":"43","caravan_site":"motorhome_stopover","caravan_site:type":"river","change":"15.50 EUR","dog":"yes","internet_access":"wlan","internet_access:fee":"no","name":"Wohnmobilpark am Lieserbogen","opening_hours":"24/7","power_supply":"yes","reservation":"no","sanitary_dump_station":"yes","shower":"yes","toilets":"yes","water_point":"yes","water_point:charge":"1 EUR/100 liter","water_point:fee":"yes","website":"https://www.wohnmobilpark-daun.de/"}},"2635725006":{"location":[50.2425237,6.9278724],"ct":"DE","tp":"CR","ts":"2016-09-14T08:56:47Z","tX":531,"tY":346,"tags":{"name":"Wohnmobilstellplatz Mechelshof"}},"3541583887":{"location":[50.09703,6.7993868],"ct":"DE","tp":"SD","ts":"2023-07-23T16:34:24Z","tX":531,"tY":346,"tags":{"access":"yes","fee":"yes","operator":"Jugend-Hüttendorf Vulkaneifel","sanitary_dump_station:basin":"yes","sanitary_dump_station:round_drain":"yes"}},"3686256583":{"location":[50.1055173,6.9796983],"ct":"DE","tp":"CS","ts":"2021-09-04T06:19:47Z","tX":531,"tY":346,"tags":{"addr:city":"Strotzbüsch","addr:country":"DE","addr:housenumber":"1","addr:place":"Strotzbüscher Mühle","addr:postcode":"54552","capacity":"90","check_date":"2018-12-20","check_date:internet_access":"2021-09-04","email":"strotzbueschermuehle@gmail.com","fax":"+49 6573 622","internet_access":"wlan","name":"Campingplatz Strotzbüscher Mühle","operator":"Hans-Christian Boer","phone":"+49 6573 622","website":"https://www.strotzbüschermühle.de"}},"11778088789":{"location":[50.0757597,6.7523455],"ct":"DE","tp":"CS","ts":"2024-08-31T13:35:52Z","tX":531,"tY":346,"tags":{"access":"permit","capacity:persons":"100","caravans":"yes","check_date":"2024-04-01","drinking_water":"yes","email":"zeltplatz@sv-bettenfeld.de","fee":"yes","group_only":"yes","name":"Jugendzeltplatz Bettenfeld","operator":"SV Bettenfeld","power_supply":"yes","reservation":"required","sanitary_dump_station":"no","shower":"yes","static_caravans":"no","tents":"yes","toilets":"yes","website":"https://www.sv-bettenfeld.de/zeltplatz/"}},"7495690523":{"location":[50.2865373,6.6905665],"ct":"DE","tp":"CR","ts":"2021-01-29T07:40:11Z","tX":531,"tY":346,"tags":{"addr:city":"Hillesheim","addr:country":"DE","addr:housenumber":"1","addr:place":"Birkenhof","addr:postcode":"54576","capacity":"8","charge":"10 €","contact:facebook":"https://www.facebook.com/WohnmobilstellplatzBirkenhof/","dog":"yes","fee":"yes","internet_access":"wlan","internet_access:fee":"no","name":"Birkenhof","operator":"Birkenhof","power_supply":"yes","sanitary_dump_station":"yes","tents":"yes"}},"9945842510":{"location":[50.0841404,6.798761],"ct":"DE","tp":"CR","ts":"2024-08-05T13:42:32Z","tX":531,"tY":346,"tags":{"caravan_site":"motorhome_stopover","caravan_site:type":"restaurant","dog":"yes","name":"Heidsmühle","power_supply":"yes","power_supply:charge":"2.50 EUR","power_supply:fee":"yes","sanitary_dump_station":"no","toilets":"yes","water_point":"yes","website":"https://www.eifel.info/a-wohnmobilstellplaetze-hotel-heidsmuehle-1"}},"10147566276":{"location":[50.1694726,6.8706648],"ct":"DE","tp":"SD","ts":"2022-11-01T15:29:05Z","tX":531,"tY":346,"tags":{}}}