{"35319803":{"location":[49.2469591,6.8458609],"ct":"DE","tp":"CR","ts":"2018-10-28T13:25:05Z","tX":531,"tY":350,"tags":{"capacity":"11","fee":"no","name":"Völklinger Hütte, Stellplatz für Wohnmobile","parking":"surface"}},"35872319":{"location":[49.3218217,6.7423946],"ct":"DE","tp":"CR","ts":"2019-10-14T17:38:25Z","tX":531,"tY":350,"tags":{}},"45851330":{"location":[49.3263095,6.6898676],"ct":"DE","tp":"CR","ts":"2024-06-26T20:07:58Z","tX":531,"tY":350,"tags":{"capacity":"290","caravan_site":"motorhome_stopover","caravan_site:type":"camp_site","caravans":"yes","charge":"10 EUR","fee":"yes","laundry":"yes","name":"Campinpark Wallerfangen","opening_hours":"Apr-Sep","permanent_camping":"yes","power_supply":"yes","sanitary_dump_station":"yes","seasonal":"yes","tents":"yes","toilets":"yes","water_point":"yes"}},"51102183":{"location":[49.2400734,6.9394297],"ct":"DE","tp":"CS","ts":"2024-06-21T23:50:15Z","tX":531,"tY":350,"tags":{"area":"yes","camp_site":"reception","caravans":"yes","fee":"yes","name":"Campingplatz Burbach","operator":"Kanu-Wanderer Saarbrücken e. V.","scout":"yes","shower":"yes","tents":"yes","website":"https://www.kanuwanderer.de/camping/kontakt-camping/"}},"65710637":{"location":[49.3115891,6.7912109],"ct":"DE","tp":"CS","ts":"2023-09-06T13:58:44Z","tX":531,"tY":350,"tags":{"addr:city":"Ensdorf/Saar","addr:country":"DE","addr:housenumber":"100","addr:postcode":"66806","addr:street":"Prälat-Anheier-Straße","email":"campingplatzensdorf@web.de","name":"Campingplatz Ensdorf","phone":"+49 6831 53912","source":"Landsat,knowledge"}},"83630546":{"location":[49.2101173,6.9735645],"ct":"DE","tp":"CS","ts":"2022-09-14T03:36:22Z","tX":531,"tY":350,"tags":{"addr:city":"Saarbrücken","addr:country":"DE","addr:housenumber":"10","addr:postcode":"66119","addr:street":"Spicherer Weg","contact:phone":"+49 681 51780","contact:website":"http://www.camping-saarbruecken.de/","name":"Campingplatz „Am Spicherer Berg“","opening_hours:reception":"07:00-13:00,15:00-22:00","operator":"Campingplatz Am Spicherer Berg e. V.","wheelchair":"yes"}},"114160274":{"location":[49.3173332,6.7405426],"ct":"DE","tp":"CS","ts":"2019-10-14T17:38:25Z","tX":531,"tY":350,"tags":{"contact:email":"info@campingplatz-saarlouis.de","contact:website":"http://www.campingplatz-saarlouis.de/","name":"Campingplatz Dr. Ernst Dadder","operator":"Stadt Saarlouis"}},"320964158":{"location":[49.2374474,6.6922872],"ct":"DE","tp":"CS","ts":"2023-04-21T04:29:55Z","tX":531,"tY":350,"tags":{"barrier":"fence","capacity":"55","fee":"yes","name":"Campingplatz Überherrn","operator":"Freizeit- und Bäderbetriebes, Eigenbetrieb der Gemeinde Überherrn","power_supply":"yes","tents":"yes","website":"https://www.kdue.de/parkbad-und-campingplatz/"}},"948502338":{"location":[49.2298807,6.9626031],"ct":"DE","tp":"CR","ts":"2024-02-26T04:19:10Z","tX":531,"tY":350,"tags":{"access":"yes","cabins":"no","caravans":"yes","fee":"yes","hgv":"no","internet_access":"no","lit":"no","maxstay":"3 days","name":"Reisemobilplatz","opening_hours":"24/7","operator":"Landeshauptstadt Saarbrücken","operator:wikidata":"Q1724","power_supply":"yes","sanitary_dump_station":"yes","static_caravans":"no","supervised":"no","surface":"fine_gravel","tents":"no","water_point":"yes","website":"https://www.saarbruecken.de/reisemobilplatz"}},"11889225143":{"location":[49.1852983,6.8924363],"ct":"FR","tp":"CR","ts":"2024-07-31T13:54:33Z","tX":531,"tY":350,"tags":{"capacity":"5","caravan_site":"motorhome_stopover","caravan_site:type":"parking_lot","fee":"no","name":"Aire de Camping-Cars Forbach","power_supply":"no","sanitary_dump_station":"yes","toilets":"no","water_point":"yes","website":"https://www.mosl.fr/en/fiche-sit/sleep/f1306003513_aire-de-camping-cars-forbach-forbach-en"}},"11889225144":{"location":[49.1852282,6.8923263],"ct":"FR","tp":"SD","ts":"2024-07-31T13:56:24Z","tX":531,"tY":350,"tags":{}},"5638385337":{"location":[49.2416316,7.0000106],"ct":"DE","tp":"SD","ts":"2024-01-26T06:05:44Z","tX":531,"tY":350,"tags":{"access":"customers","opening_hours":"24/7"}},"6019389472":{"location":[49.2465627,6.8461394],"ct":"DE","tp":"SD","ts":"2018-10-28T13:22:29Z","tX":531,"tY":350,"tags":{"description":"1 €","fee":"yes"}},"8779547132":{"location":[49.2298953,6.9616751],"ct":"DE","tp":"SD","ts":"2021-05-29T20:11:39Z","tX":531,"tY":350,"tags":{}}}