{"10394280":{"location":[48.9637599,6.7720065],"ct":"FR","tp":"CS","ts":"2021-08-12T22:28:21Z","tX":531,"tY":351,"tags":{"addr:city":"Francaltroff","addr:postcode":"57670","email":"tensch@tensch.com","fax":"+33 3 87 86 96 35","name":"Parc residentiel de loisirs de la Tensch","operator":"SARL LAUVRAY","phone":"+33 3 87 01 79 04","reservation":"required","website":"https://www.tensch.com/"}},"15610634":{"location":[49.0128395,6.9540468],"ct":"FR","tp":"CS","ts":"2023-03-16T21:18:40Z","tX":531,"tY":351,"tags":{"cabins":"yes","caravans":"yes","name":"Au Bon Repos","phone":"+33 3 87 97 92 20","shower":"yes","tents":"yes"}},"35963995":{"location":[49.0427117,6.8906287],"ct":"FR","tp":"CS","ts":"2015-07-27T20:45:07Z","tX":531,"tY":351,"tags":{}},"57015990":{"location":[49.0151982,6.9570136],"ct":"FR","tp":"CS","ts":"2023-03-16T21:18:40Z","tX":531,"tY":351,"tags":{"cabins":"yes","caravans":"yes","name":"Le Refuge des Pecheurs","phone":"+33 3 87 09 51 46","shower":"yes","tents":"yes","website":"https://camping.holving.fr/"}},"57015992":{"location":[49.0280377,6.9264371],"ct":"FR","tp":"CS","ts":"2022-07-10T16:56:59Z","tX":531,"tY":351,"tags":{"name":"Le Centre de Plein-Air"}},"309384398":{"location":[49.1095369,6.7084021],"ct":"FR","tp":"CS","ts":"2022-12-14T19:00:55Z","tX":531,"tY":351,"tags":{"addr:city":"Saint-Avold","addr:postcode":"57500","addr:street":"Rue en Verrerie","fee":"yes","name":"Camping le Felsberg","phone":"+33 3 87 92 75 05"}},"551325593":{"location":[49.1159275,6.7018518],"ct":"FR","tp":"CR","ts":"2025-05-01T12:58:42Z","tX":531,"tY":351,"tags":{"addr:city":"Saint-Avold","addr:postcode":"57500","addr:street":"Rue de l'Ermitage","internet_access":"yes","internet_access:fee":"yes","name":"aire pour camping-car","power_supply":"yes","sanitary_dump_station":"yes","website":"https://www.campingcarpark.com/fr_FR/camping-car/grand-est/moselle/saint-avold"}},"1147704615":{"location":[49.0676571,6.8772519],"ct":"FR","tp":"CR","ts":"2025-03-19T10:34:17Z","tX":531,"tY":351,"tags":{"capacity":"8","caravan_site":"motorhome_stopover","caravan_site:type":"fishing;lake","caravans":"no","fee":"no","maxstay":"72 hours","motorhome":"designated","name":"Aire de Camping-cars de Hoste","opening_hours":"24/7","operator":"Communaut√© de Communes de Freyming Merlebach","picnic_area":"yes","power_supply":"yes","power_supply:charge":"3 EUR/4 hours","power_supply:fee":"yes","sanitary_dump_station":"yes","sanitary_dump_station:chemical_toilet":"yes","sanitary_dump_station:grey_water":"yes","seasonal":"no","source":"survey","tents":"no","water_point":"yes","water_point:charge":"2 EUR","water_point:fee":"yes","website":"https://tourismefreyming-merlebach.fr/en/cote-pratique/nid-douillet/aire-de-camping-car/F844001089_aire-de-camping-car-hoste/"}},"1241710564":{"location":[48.9398129,7.029907],"ct":"FR","tp":"CS","ts":"2023-04-19T16:31:54Z","tX":531,"tY":351,"tags":{"fax":"+33 3 88 00 96 13","name":"Camping Coer d'Alsace","phone":"+33 3 88703908","website":"https://camping-coeur-alsace.fr"}},"1280899809":{"location":[49.1245244,6.779406],"ct":"FR","tp":"CR","ts":"2024-05-08T15:00:29Z","tX":531,"tY":351,"tags":{"capacity":"6","caravan_site":"motorhome_stopover","caravan_site:type":"village","fee":"no","name":"Aire de Camping-Cars de Hombourg-Haut","power_supply":"yes","power_supply:fee":"yes","sanitary_dump_station:chemical_toilet":"yes","sanitary_dump_station:fee":"yes","sanitary_dump_station:grey_water":"yes","shower":"no","tents":"no","website":"https://tourismefreyming-merlebach.fr/en/cote-pratique/nid-douillet/aire-de-camping-car/F844000500_aire-de-camping-cars-hombourg-haut/"}},"1348524022":{"location":[49.0676006,6.892307],"ct":"FR","tp":"PK","ts":"2025-03-19T10:34:17Z","tX":531,"tY":351,"tags":{"motorhome":"yes","picnic_table":"yes"}},"4720708266":{"location":[48.9392697,7.028415],"ct":"FR","tp":"CR","ts":"2024-07-02T22:49:55Z","tX":531,"tY":351,"tags":{"capacity":"3","caravan_site":"motorhome_stopover","caravan_site:type":"harbour","email":"tourisme@alsace-bossue.fr","fee":"yes","maxstay":"24 hours","name":"Aire de Services Harskirchen","phone":"+33 388 004039","picnic_table":"yes","sanitary_dump_station":"yes","sanitary_dump_station:chemical_toilet":"yes","sanitary_dump_station:grey_water":"yes","source":"tourisme-alsace.com","water_point":"yes","website":"https://www.tourisme-saverne.fr/ou-dormir/aires-de-service-camping-cars/"}},"4720708267":{"location":[48.9391137,7.0284348],"ct":"FR","tp":"SD","ts":"2017-03-08T08:33:06Z","tX":531,"tY":351,"tags":{"email":"tourisme@alsace-bossue.fr","name":"Aire de Services Harskirchen","phone":"+33 388 004039","source":"tourisme-alsace.com","website":"www.tourisme.alsace-bossue.net"}},"7565459489":{"location":[49.1242372,6.7791394],"ct":"FR","tp":"SD","ts":"2020-05-28T09:05:41Z","tX":531,"tY":351,"tags":{}},"7673491462":{"location":[49.1356307,6.7034703],"ct":"FR","tp":"SD","ts":"2020-07-01T10:57:33Z","tX":531,"tY":351,"tags":{}},"10997918059":{"location":[49.0671885,6.8775674],"ct":"FR","tp":"SD","ts":"2025-03-19T10:34:17Z","tX":531,"tY":351,"tags":{"access":"yes","brand":"Flot Bleau","fee":"yes","operator":"Flot Bleu","payment:credit_cards":"yes","source":"survey"}}}