{"27617996":{"location":[48.2862928,6.9687087],"ct":"FR","tp":"CS","ts":"2024-08-20T13:55:50Z","tX":531,"tY":354,"tags":{"addr:city":"Saint-Dié-des-Vosges","addr:country":"FR","addr:housenumber":"5","addr:postcode":"88100","addr:street":"Rue du Camping","name":"Camping de la Vanne de Pierre","note":"FIXME: Borders guessed","note:en":"camping has been closed down","note:fr":"le camping etait cessé","opening_hours":"24/7","operator":"Kawan Villages Campings","phone":"+33 3 29 56 23 56","stars":"4","tents":"yes"}},"188972735":{"location":[48.4546234,6.9460177],"ct":"FR","tp":"CS","ts":"2024-09-23T17:02:53Z","tX":531,"tY":354,"tags":{"caravans":"yes","contact:email":"camping@paysdeslacs.com","contact:phone":"+33 3 29412800","contact:website":"https://www.paysdeslacs.com/camping/","drinking_water":"yes","name":"Camping des Lacs","opening_hours":"Apr 01-Sep 30","power_supply":"yes","ref:FR:label":"Accueil Vélo","sanitary_dump_station":"yes","shower":"yes","source":"Ortho HR","stars":"3","tents":"yes","toilets":"yes"}},"221389133":{"location":[48.4473042,6.9387324],"ct":"FR","tp":"CS","ts":"2024-09-22T11:54:02Z","tX":531,"tY":354,"tags":{"addr:city":"Celles-sur-Plaine","addr:country":"FR","addr:housenumber":"4","addr:place":"La Grande Haie","addr:postcode":"88110","caravans":"yes","email":"camping@paysdeslacs.com","name":"Camping des Lacs","opening_hours":"Apr 01-Sep 30","phone":"+33 3 29 41 28 00","stars":"3","tents":"127","website":"https://www.paysdeslacs.com/camping/gites-pierre-percee/"}},"221520368":{"location":[48.3632532,6.8374918],"ct":"FR","tp":"CS","ts":"2020-06-24T08:06:57Z","tX":531,"tY":354,"tags":{"addr:city":"Etival Clairefontaine","addr:country":"FR","addr:housenumber":"41","addr:postcode":"88480","addr:street":"Rue de Trieuché","caravans":"yes","email":"camping-beaulieu-vosges@orange.fr","fax":"+33 3 29 41 53 51","internet_access":"wlan","name":"Camping Beaulieu sur l'Eau","phone":"+33 3 29 41 53 51","tents":"yes","website":"www.camping-beaulieu-vosges.com/"}},"246684957":{"location":[48.403033,6.846309],"ct":"FR","tp":"CR","ts":"2024-09-02T11:44:22Z","tX":531,"tY":354,"tags":{"addr:country":"FR","addr:postcode":"88110","capacity":"5","caravan_site":"motorhome_stopover","caravan_site:type":"river; village","fee":"no","name":"Aire Camping-car Raon-l'Étape","website":"https://www.tourisme.vosges.fr/testpassvosges__trashed/940008185-aire-de-stationnement-camping-car-raon-l-etape"}},"312844711":{"location":[48.3635443,6.8642013],"ct":"FR","tp":"CR","ts":"2024-09-29T22:33:26Z","tX":531,"tY":354,"tags":{"capacity":"13","caravan_site":"motorhome_stopover","caravan_site:type":"village","charge":"8 EUR/24 hours","fee":"yes","internet_access":"wlan","internet_access:fee":"no","lit":"yes","maxstay":"3 days","name":"Aire Camping-car Étival-Clairefontaine","power_supply":"yes","power_supply:capacity":"16","sanitary_dump_station":"yes","sanitary_dump_station:chemical_toilet":"yes","sanitary_dump_station:grey_water":"yes","socket:cee_blue":"yes","surface":"paved","water_point":"yes","website":"https://www.tourisme.vosges.fr/actus/neige/5330/940005511-"}},"496459496":{"location":[48.2864746,6.96629],"ct":"FR","tp":"CR","ts":"2024-09-29T22:31:02Z","tX":531,"tY":354,"tags":{"capacity":"42","caravan_site":"motorhome_stopover","caravan_site:type":"river","caravans":"no","charge":"8 EUR/24 hours","fee":"yes","internet_access":"wlan","lit":"yes","name":"Aire de la Vanne de Pierre Saint-Dié-des-Vosges","power_supply":"yes","sanitary_dump_station":"yes","sanitary_dump_station:chemical_toilet":"yes","sanitary_dump_station:grey_water":"yes","shadow":"yes","tents":"no","website":"https://www.ca-saintdie.fr/tourisme/aires-camping-cars"}},"1019474144":{"location":[48.3968878,6.9886923],"ct":"FR","tp":"CS","ts":"2024-09-02T05:13:09Z","tX":531,"tY":354,"tags":{"caravans":"yes","contact:facebook":"https://www.gites-sarrebourg.fr/","facebook":"https://www.facebook.com/CampingMunicipalSenones/","name":"Camping Municipal Jean Jaurès","phone":"+33 7 48 54 14 33","tents":"yes","website":"https://www.senones.fr/camping"}},"1098607046":{"location":[48.4437979,6.7439001],"ct":"FR","tp":"CS","ts":"2023-06-17T19:17:38Z","tX":531,"tY":354,"tags":{"addr:city":"Baccarat","addr:housenumber":"12","addr:street":"Chemin Pré de Hon","capacity:caravans":"4","capacity:static_caravans":"2","capacity:tents":"40","caravans":"yes","contact:email":"camping.du.cristal@orange.fr","contact:facebook":"https://www.facebook.com/people/Camping-Du-Cristal/100033124670016/","contact:phone":"+33 6 98 53 89 90","dog":"permissive","fee":"yes","name":"Camping du cristal","sanitary_dump_station":"yes","static_caravans":"yes","tents":"yes","water_point":"yes"}},"1128019739":{"location":[48.3943373,6.8614287],"ct":"FR","tp":"CS","ts":"2023-08-19T17:13:57Z","tX":531,"tY":354,"tags":{"addr:city":"Moyenmoutier","addr:housenumber":"1","addr:postcode":"88420","addr:street":"Rue de la Cheville","caravans":"yes","drinking_water":"yes","email":"info@camping-vosgina.com","mobile":"+33 7 61 62 39 86","name":"Camping Vosgina","phone":"+33 3 29 41 47 63","power_supply":"yes","shower":"yes","tents":"60","toilets":"yes","website":"https://camping-vosgina.com"}},"1319364908":{"location":[48.3935616,6.974224],"ct":"FR","tp":"CR","ts":"2024-10-03T12:39:15Z","tX":531,"tY":354,"tags":{"capacity":"13","caravan_site":"motorhome_stopover","caravan_site:type":"village","caravans":"no","charge":"8 EUR/24 hours","fee":"yes","internet_access":"wlan","name":"Aire de camping-cars de Senones","opening_hours":"24/7","power_supply":"yes","power_supply:capacity":"8","power_supply:fee":"no","power_supply:maxcurrent":"16","sanitary_dump_station:chemical_toilet":"yes","sanitary_dump_station:grey_water":"yes","tents":"no","water_point":"yes","website":"https://www.tourisme.vosges.fr/en/open-air-hospitality/940008364-aire-de-camping-cars-de-senones-senones"}},"5310064137":{"location":[48.4472773,6.7397901],"ct":"FR","tp":"SD","ts":"2023-05-17T18:25:52Z","tX":531,"tY":354,"tags":{}}}