{"17653028":{"location":[47.9987963,6.9184614],"ct":"FR","tp":"CR","ts":"2024-05-30T12:37:04Z","tX":531,"tY":355,"tags":{"capacity":"17","caravan_site":"motorhome_stopover","caravan_site:type":"camp_site","fee":"yes","name":"Aire exteriour Domaine du haut des Bluches","power_supply":"yes","reservation":"no","sanitary_dump_station":"yes","toilets":"no","water_point:fee":"yes","website":"https://www.hautdesbluches.com/camping-car/la-bresse/"}},"27433343":{"location":[48.0671814,6.9498061],"ct":"FR","tp":"CS","ts":"2023-11-02T12:11:40Z","tX":531,"tY":355,"tags":{"caravans":"yes","contact:city":"Xonrupt-Longemer","contact:email":"info@camping-jonquilles.com","contact:fax":"+33 3 29 60 09 28","contact:housenumber":"2552","contact:phone":"+33 3 29 63 34 01","contact:postcode":"88400","contact:street":"Route du Lac","contact:website":"https://www.camping-jonquilles.com/","internet_access":"wlan","name":"Les Jonquilles","opening_hours":"Apr 20-Oct 6","payment:credit_cards":"yes","tents":"240"}},"34015860":{"location":[48.0651517,6.8542385],"ct":"FR","tp":"CS","ts":"2024-05-12T10:28:25Z","tX":531,"tY":355,"tags":{"addr:city":"Gérardmer","addr:housenumber":"21","addr:postcode":"88400","addr:street":"Chemin du Tour du Lac","caravans":"yes","dog":"leashed","fax":"+33 3 29 63 26 09","name":"Camping de Ramberchamp","opening_hours":"Apr 06-Sep 30","payment:credit_cards":"yes","phone":"+33 3 29 63 03 82","seasonal":"yes","tents":"200","website":"https://www.camping-de-ramberchamp.com/"}},"55149487":{"location":[48.1325092,6.7916356],"ct":"FR","tp":"CS","ts":"2023-10-31T16:44:08Z","tX":531,"tY":355,"tags":{"addr:city":"Granges-sur-Vologne","addr:country":"FR","addr:postcode":"88640","caravans":"yes","email":"francisleferrand@aol.com","name":"Gina-Park","openfire":"yes","phone":"+33 3 29 51 41 95","source":"cadastre-dgi-fr source : Direction Générale des Impôts - Cadastre. Mise à jour : 2010","tents":"yes","website":"https://www.ginapark.com/"}},"139519367":{"location":[48.0798118,6.9421668],"ct":"FR","tp":"CS","ts":"2025-03-25T11:32:10Z","tX":531,"tY":355,"tags":{"addr:city":"Xonrupt-Longemer","addr:country":"FR","addr:housenumber":"121","addr:postcode":"88400","addr:street":"Route de la Plage","capacity":"300","caravans":"yes","description":"Offers Lodge tents from 40 € / night, 90 € / weekend","internet_access":"wlan","internet_access:fee":"yes","name":"Camping Municipal Domaine de Longemer","opening_hours":"Dec 11-Nov 14","payment:credit_cards":"yes","phone":"+33 3 29 63 27 10","stars":"4","swimming_pool":"indoor","tents":"300","website":"https://www.domaine-longemer.com/"}},"139708759":{"location":[48.1203124,6.8284171],"ct":"FR","tp":"CS","ts":"2020-08-13T05:32:43Z","tX":531,"tY":355,"tags":{"addr:housenumber":"1","addr:postcode":"88640","addr:street":"Le Haut Rain","capacity":"125","caravans":"yes","ele":"725","email":"steniole@wanadoo.fr","fee":"yes","internet_access":"wlan","internet_access:fee":"no","name":"La Sténiole","opening_hours":"Apr 02-Oct 15","operator":"Flower Camping","phone":"+33 3 29 51 43 75","stars":"3","tents":"125","website":"https://www.steniole.com/","wheelchair":"limited"}},"139709069":{"location":[48.123498,6.8170851],"ct":"FR","tp":"CS","ts":"2023-08-21T17:07:27Z","tX":531,"tY":355,"tags":{"access":"yes","addr:city":"Granges-Aumontzey","addr:housenumber":"2","addr:postcode":"88640","addr:street":"Gadémont","caravans":"no","fee":"yes","name":"Huttopia Forêt des Vosges","openfire":"yes","opening_hours":"24/7","operator":"Huttopia","payment:cash":"yes","payment:credit_cards":"yes","phone":"+33 3 29 51 44 60","source":"Bing","static_caravans":"yes","tents":"yes","website":"https://europe.huttopia.com/site/foret-des-vosges"}},"143268669":{"location":[48.0476773,6.8680651],"ct":"FR","tp":"CS","ts":"2023-10-31T16:46:09Z","tX":531,"tY":355,"tags":{"addr:city":"Gérardmer","addr:country":"FR","addr:postcode":"88400","addr:street":"Chemin des Bas Rupts","email":"campinglesmyrtilles@wanadoo.fr","name":"Camping Les Myrtilles","opening_hours":"Apr 07-Sep 30","phone":"+33 3 29 63 21 38","source":"cadastre-dgi-fr source : Direction Générale des Impôts - Cadastre. Mise à jour : 2011","website":"https://lesmyrtilles.pagesperso-orange.fr/"}},"144823230":{"location":[48.0724044,6.8735782],"ct":"FR","tp":"CR","ts":"2024-10-05T15:43:54Z","tX":531,"tY":355,"tags":{"capacity":"100","caravan_site":"motorhome_stopover","caravan_site:type":"town","charge":"8 EUR","fee":"yes","name":"Aire camping-car Gérardmer","power_supply":"no","sanitary_dump_station":"yes","sanitary_dump_station:fee":"no","source":"Bing + knowledge","surface":"asphalt","water_point":"yes","water_point:charge":"2 EUR","water_point:fee":"yes","website":"https://gerardmer.net/details_adherent.php?produit=777000676"}},"162656106":{"location":[48.068677,6.9486014],"ct":"FR","tp":"CS","ts":"2023-04-30T14:08:30Z","tX":531,"tY":355,"tags":{"addr:city":"Xonrupt-Longemer","addr:housenumber":"2404","addr:postcode":"88400","addr:street":"Route du Lac","backcountry":"no","check_date":"2023-04-30","dog":"leashed","email":"contact@lachaumiere-location.com","fee":"yes","internet_access":"no","name":"Domaine La Chaumière Gîtes & Camping","name:fr":"Domaine La Chaumière","opening_hours":"08:30-12:00,14:30-18:30","payment:cash":"yes","payment:mastercard":"yes","payment:visa":"yes","phone":"+33329631330; +33 6 81 44 81 04","reservation":"yes","source":"survey","stars":"2","website":"http://lachaumiere-location.com"}},"162656108":{"location":[48.0628113,6.9573366],"ct":"FR","tp":"CS","ts":"2023-11-02T12:11:40Z","tX":531,"tY":355,"tags":{"capacity":"80","caravans":"yes","contact:city":"Xonrupt-Longemer","contact:housenumber":"3400","contact:street":"Route du Lac","contact:website":"https://campinglaclongemer.fr/","fee":"yes","name":"Camping Du Lac","seasonal":"spring/summer","stars":"2","tents":"yes"}},"162656109":{"location":[48.071077,6.9460582],"ct":"FR","tp":"CS","ts":"2019-09-29T19:23:58Z","tX":531,"tY":355,"tags":{"addr:city":"Xonrupt-Longemer","addr:country":"FR","addr:postcode":"88400","addr:street":"Route du Lac","caravans":"yes","email":"contact@lachaumiere-location.com","fax":"+33 3 29 63 04 17","name":"Bellevue","opening_hours":"May 01-Oct 31","phone":"+33 3 29 63 13 30","tents":"30"}},"167761292":{"location":[48.1689726,6.8897363],"ct":"FR","tp":"CS","ts":"2020-02-06T10:57:16Z","tX":531,"tY":355,"tags":{"addr:housenumber":"21","addr:postcode":"88430","addr:street":"Rue d'Alsace","caravans":"yes","email":"info@camping-closdelachaume.com","internet_access":"wlan","name":"Le Clos de la Chaume","phone":"+33 3 29 50 76 76","stars":"3","tents":"94","website":"https://www.camping-closdelachaume.com/"}},"167789484":{"location":[48.1655935,6.8950254],"ct":"FR","tp":"CS","ts":"2024-06-12T16:09:29Z","tX":531,"tY":355,"tags":{"addr:housenumber":"8","addr:street":"Route du Plafond","caravans":"yes","drinking_water":"yes","email":"info@campingaumica.com","internet_access":"wlan","internet_access:fee":"no","name":"Au Mica","opening_hours":"Apr 20-Sep 10","phone":"+33 3 29 50 70 07","shower":"yes","tents":"62","website":"www.campingaumica.com"}},"167792116":{"location":[48.1671697,6.8761892],"ct":"FR","tp":"CS","ts":"2025-06-15T17:39:20Z","tX":531,"tY":355,"tags":{"addr:city":"Corcieux","addr:housenumber":"146","addr:postcode":"88430","addr:street":"Rue James Wiese","brand":"Yelloh! Village","brand:wikidata":"Q3572111","caravans":"yes","contact:phone":"+33 3 29 51 64 67","email":"contact@domaine-des-bans.com","fax":"+33 3 29 51 64 69","internet_access":"wlan","internet_access:fee":"yes","name":"Domaine des Bans","opening_hours":"Mo-Fr 09:00-18:00; Sa 09:00-13:00","operator":"Domaine des Bans","phone":"+33 3 29 51 64 67","ref:FR:SIRET":"39744718600057","source":"Bing","stars":"4","tents":"yes","website":"https://www.domaine-des-bans.fr/"}},"168512791":{"location":[48.1704934,6.8807535],"ct":"FR","tp":"CS","ts":"2023-11-07T03:32:37Z","tX":531,"tY":355,"tags":{"addr:city":"Corcieux","addr:country":"FR","addr:housenumber":"4","addr:postcode":"88430","addr:street":"Rue James Wiese","caravans":"yes","email":"contact@campingdelatour.com","fixme":"abandoned ?","internet_access":"wlan","name":"Camping de la Tour","phone":"+33 3 29 57 54 29","stars":"2","tents":"34","website":"https://campingdelatour.com/index.html"}},"178924374":{"location":[48.1851731,6.9910219],"ct":"FR","tp":"CS","ts":"2022-09-01T09:32:55Z","tX":531,"tY":355,"tags":{"addr:city":"Fraize","addr:country":"FR","addr:housenumber":"50","addr:postcode":"88230","addr:street":"Rue Eugène Mathis","caravans":"yes","fee":"yes","name":"Camping de Clairegoutte","operator":"Blandine Michel","payment:cash":"yes","phone":"+33 6 83 61 11 45","power_supply":"yes","shower":"yes","stars":"1","tents":"25","toilets":"yes","website":"http://www.fraize-tourisme.com/campings/camping-de-clairegoutte"}},"205089651":{"location":[48.0705523,6.8072276],"ct":"FR","tp":"CS","ts":"2019-10-04T05:47:10Z","tX":531,"tY":355,"tags":{"addr:city":"Gérardmer","addr:country":"FR","addr:housenumber":"116","addr:postcode":"88400","addr:street":"Chemin des Granges-Bas","caravans":"yes","email":"camping@lesgrangesbas.fr","internet_access":"wlan","name":"Camping Caravaneige Les Granges Bas","opening_hours":"24/7","phone":"+33 3 29 63 12 03","stars":"2","tents":"60","website":"http://www.lesgrangesbas.fr"}},"221122548":{"location":[48.0884912,6.7271668],"ct":"FR","tp":"CS","ts":"2023-07-30T10:58:45Z","tX":531,"tY":355,"tags":{"addr:city":"Le Tholy","addr:country":"FR","addr:housenumber":"15","addr:postcode":"88530","addr:street":"Chemin de l'Étang de Noir Rupt","capacity:tents":"70","caravans":"yes","email":"info@jpcacances.com","fax":"+33 3 29 61 83 05","internet_access":"wlan","name":"Camping de Noirrupt","opening_hours":"May 01- Oct 15","operator":"JP Vacances","phone":"+33 3 29 61 81 27","stars":"4","tents":"yes","website":"https://www.jpvacances.com/le-camping/"}},"221306052":{"location":[48.1836833,6.9583578],"ct":"FR","tp":"CS","ts":"2023-07-30T09:24:26Z","tX":531,"tY":355,"tags":{"addr:city":"Anould","addr:housenumber":"191","addr:postcode":"88650","addr:street":"Rue Léonard de Vinci","caravans":"yes","contact:facebook":"https://www.facebook.com/Camping-les-deux-pins-132588524880852/","drinking_water":"yes","email":"campinglesdeuxpins@gmail.com","internet_access":"wlan","internet_access:fee":"no","name":"Camping Les Deux Pins","phone":"+33 3 29 57 11 06","power_supply":"yes","shower":"yes","stars":"3","tents":"yes","toilets":"yes","toilets:wheelchair":"no","website":"https://www.camping-les-deux-pins-vosges.com/","wheelchair":"limited"}},"221601468":{"location":[48.1781582,6.7413825],"ct":"FR","tp":"CS","ts":"2023-06-23T06:42:04Z","tX":531,"tY":355,"tags":{"addr:city":"Herpelmont","addr:country":"FR","caravans":"yes","drinking_water":"yes","internet_access":"wlan","name":"Camping Domaine des Messires","opening_hours":"Apr 20-Sep 29","operator":"Vacansoleil","phone":"+33 329 58 56 29","power_supply":"yes","shower":"yes","stars":"4","tents":"136","toilets":"yes","website":"https://www.domainedesmessires.com/"}},"221643409":{"location":[48.1891084,6.7747567],"ct":"FR","tp":"CS","ts":"2019-07-03T21:55:10Z","tX":531,"tY":355,"tags":{"addr:city":"La Chapelle-devant-Bruyères","addr:country":"FR","addr:housenumber":"215","addr:postcode":"88600","addr:street":"Route de Bruyères","caravans":"yes","email":"info@camping-les-pinasses.com","fax":"+33 3 29 58 54 21","internet_access":"wlan","name":"Camping \"Les Pinasses\"","phone":"+33 3 29 58 51 10","stars":"4","tents":"139","website":"http://premium.secureholiday.net/fr/4458/?1=1&idM=0"}},"222066020":{"location":[48.0842001,6.948816],"ct":"FR","tp":"CS","ts":"2019-07-03T21:55:10Z","tX":531,"tY":355,"tags":{"addr:city":"Xonrupt-Longemer","addr:country":"FR","addr:housenumber":"2799","addr:postcode":"88400","addr:street":"Route de Colmar","caravans":"yes","internet_access":"wlan","internet_access:fee":"no","name":"À l'Eau Vive","opening_hours":"24/7","phone":"+33 3 29 63 07 37","stars":"2","tents":"56","website":"www.campingaleauvive.com","wheelchair":"yes"}},"222089590":{"location":[48.0097205,6.7311929],"ct":"FR","tp":"CS","ts":"2023-10-17T14:40:29Z","tX":531,"tY":355,"tags":{"addr:city":"Vagney","addr:country":"FR","addr:postcode":"88120","addr:street":"Chemin du Camping","caravans":"yes","contact:fax":"+33329618236","contact:phone":"+33329621686","email":"ccvbr@wanadoo.fr","name":"Camping Intercommunal du Mettey","opening_hours":"Jun 01-Sep 15","stars":"4","tents":"87"}},"222091934":{"location":[48.0335441,6.9619439],"ct":"FR","tp":"CS","ts":"2025-06-16T14:09:23Z","tX":531,"tY":355,"tags":{"addr:housenumber":"1bis","addr:street":"Vouille de Belle Hutte","caravans":"yes","drinking_water":"yes","email":"contact@camping-belle-hutte.com","internet_access":"wlan","internet_access:fee":"yes","name":"Belle Hutte","opening_hours":"Dec 16-Nov 15","phone":"+33 3 29 25 49 75","power_supply":"yes","sanitary_dump_station":"yes","shower":"yes","stars":"4","tents":"115","toilets":"yes","website":"https://www.camping-belle-hutte.com/"}},"222346181":{"location":[48.0626003,6.8550774],"ct":"FR","tp":"CS","ts":"2023-03-12T17:32:42Z","tX":531,"tY":355,"tags":{"addr:city":"Gérardmer","addr:country":"FR","addr:housenumber":"18","addr:postcode":"88400","addr:street":"Chemin de Sapois","cabins":"yes","caravans":"yes","email":"les.sapins@camping-gerardmer.com","fax":"+33 3 29 63 15 01","internet_access":"wlan","name":"Les Sapins","phone":"+33 3 29 63 15 01","shower":"yes","stars":"2","tents":"yes","toilets":"yes","website":"http://www.camping-gerardmer.com"}},"222353823":{"location":[47.9998743,6.9189666],"ct":"FR","tp":"CS","ts":"2021-02-13T19:00:18Z","tX":531,"tY":355,"tags":{"addr:housenumber":"5","addr:street":"Route des Planches","caravans":"yes","email":"hautdesbluches@labresse.fr","internet_access":"wlan","internet_access:fee":"no","name":"Domaine du Haut des Bluches","opening_hours":"Dec 15-Nov 11,Dec 14-31","phone":"+33 3 29 25 64 80","stars":"3","tents":"140","website":"https://www.hautdesbluches.com/","wheelchair":"yes"}},"222420405":{"location":[48.0619204,6.9654875],"ct":"FR","tp":"CS","ts":"2023-11-02T12:11:40Z","tX":531,"tY":355,"tags":{"caravans":"yes","contact:city":"Xonrupt-Longemer","contact:email":"contact@campingvertevallee.com","contact:housenumber":"4092","contact:phone":"+33 3 29 63 21 77","contact:postcode":"88400","contact:street":"Route du Lac","contact:website":"https://www.campingvertevallee.com/content/fr/accueil/1/","internet_access":"wlan","internet_access:fee":"no","name":"Camping Verte Vallée","operator":"Flower Campings","seasonal":"no","stars":"4","tents":"yes"}},"222469997":{"location":[48.0617914,6.9678989],"ct":"FR","tp":"CS","ts":"2022-08-09T07:50:15Z","tX":531,"tY":355,"tags":{"addr:street":"Route de Retournemer","cabins":"yes","caravans":"yes","drinking_water":"yes","fax":"+33 3 29 60 87 23","internet_access":"wlan","name":"La Vologne","opening_hours":"Mo-Su 08:00-21:00","phone":"+33 3 29 60 87 23","picnic_table":"yes","power_supply":"yes","sanitary_dump_station":"yes","seasonal":"spring/summer","shower":"yes","stars":"2","tents":"yes","toilets":"yes","washing_machine":"yes","website":"https://www.camping-vosges-vologne.com/"}},"222664196":{"location":[48.141033,6.89457],"ct":"FR","tp":"CS","ts":"2021-06-23T09:47:29Z","tX":531,"tY":355,"tags":{"addr:housenumber":"1","addr:postcode":"88430","addr:street":"Les Collieures","caravans":"yes","fax":"+33 3 29 50 69 38","name":"Aire Naturelle \"Les Collieures\"","opening_hours":"Apr 15-Oct 31","phone":"+33 3 29 50 69 38","tents":"yes"}},"222843313":{"location":[48.1337275,6.8462767],"ct":"FR","tp":"CS","ts":"2023-08-06T09:44:54Z","tX":531,"tY":355,"tags":{"addr:housenumber":"5","addr:street":"Le Vieux Pré","caravans":"yes","name":"Camping du Champ de Roches","phone":"+33 3 29 51 44 95","tents":"45"}},"223917594":{"location":[48.1451108,6.7216507],"ct":"FR","tp":"CS","ts":"2019-07-03T21:55:10Z","tX":531,"tY":355,"tags":{"addr:city":"Laveline-du-Houx","addr:country":"FR","addr:housenumber":"11","addr:postcode":"88640","addr:street":"Route d'Hérigoutte","caravans":"yes","name":"Camping du Rouge-Château","phone":"+33 3 29 66 66 86","tents":"6"}},"224880998":{"location":[48.0633344,6.9626681],"ct":"FR","tp":"CS","ts":"2024-08-12T18:42:12Z","tX":531,"tY":355,"tags":{"addr:city":"Xonrupt-Longemer","addr:housenumber":"2492","addr:postcode":"88400","addr:street":"Route de Retournemer","camp_site":"standard","capacity:tents":"60","caravans":"yes","email":"halm.jeanmarc@wanadoo.fr","fee":"yes","motor_vehicle":"yes","name":"La Grange Mauselaine","note":"Ouvert du 01/05 au 30/09","phone":"+33 3 29 63 07 15","seasonal":"spring/summer","shower":"yes","stars":"1","swimming_pool":"no","tents":"yes","toilets":"yes"}},"228203323":{"location":[48.1346006,6.9119164],"ct":"FR","tp":"CS","ts":"2025-06-13T16:22:28Z","tX":531,"tY":355,"tags":{"addr:housenumber":"36","addr:place":"Les Tréxons","caravans":"yes","internet_access":"wlan","name":"Les Tréxons","opening_hours":"Jun 08-Sep 16","phone":"+33 3 29 50 74 92","stars":"2","tents":"40","website":"https://www.camping-lestrexons.com/"}},"386759192":{"location":[48.2182612,6.7751485],"ct":"FR","tp":"CS","ts":"2024-02-09T17:56:45Z","tX":531,"tY":355,"tags":{"access":"private","leisure":"summer_camp","name":"Colonie de Laxou","source":"Bing; survey"}},"610176060":{"location":[48.152253,6.7908756],"ct":"FR","tp":"CS","ts":"2019-07-03T21:55:10Z","tX":531,"tY":355,"tags":{"caravans":"yes","email":"info@camping-du-chateau-vosges.com","name":"Camping du Château","phone":"+33 3 29 57 50 83","tents":"40","website":"https://www.camping-du-chateau-vosges.com/fr/"}},"753555325":{"location":[48.1716779,7.0126295],"ct":"FR","tp":"CR","ts":"2025-02-10T21:34:19Z","tX":531,"tY":355,"tags":{"capacity":"18","caravan_site":"motorhome_stopover","caravan_site:type":"village","caravans":"no","charge":"8 EUR/24 hours","fee":"yes","internet_access":"wlan","internet_access:fee":"no","name":"Aire La Croix des Zelles - Plainfaing","operator":"Communauté d’Agglomération de Saint-Dié-des-Vosges","power_supply":"yes","power_supply:fee":"no","sanitary_dump_station":"yes","sanitary_dump_station:chemical_toilet":"yes","sanitary_dump_station:grey_water":"yes","tents":"no","water_point":"yes","water_point:fee":"no","website":"https://www.ca-saintdie.fr/tourisme/aires-camping-cars"}},"851657076":{"location":[48.0649612,7.0228287],"ct":"FR","tp":"CR","ts":"2024-09-02T16:14:51Z","tX":531,"tY":355,"tags":{"caravan_site":"motorhome_stopover","caravan_site:type":"skiing","fee":"no","name":"Col De La Schlucht"}},"1196457073":{"location":[48.1420151,6.7857955],"ct":"FR","tp":"CS","ts":"2023-08-10T17:20:17Z","tX":531,"tY":355,"tags":{"addr:city":"Granges-Aumontzey","addr:housenumber":"12","addr:postcode":"88640","addr:street":"Rue du Pré Dixi","capacity:persons":"30","caravans":"yes","name":"Camping Pré Vologne","phone":"+33 3 29 41 52 07","tents":"yes","url":"https://www.campingprevologne.fr/"}},"3981622759":{"location":[47.9946294,6.8550877],"ct":"FR","tp":"SD","ts":"2016-02-01T10:44:40Z","tX":531,"tY":355,"tags":{"access":"yes","fee":"yes"}},"3981622760":{"location":[48.0729885,6.8752356],"ct":"FR","tp":"SD","ts":"2016-02-01T10:44:41Z","tX":531,"tY":355,"tags":{"access":"yes","fee":"yes","opening_hours":"24/7"}},"8863960270":{"location":[48.0627423,6.9586319],"ct":"FR","tp":"CS","ts":"2021-06-24T19:37:56Z","tX":531,"tY":355,"tags":{"addr:housenumber":"3592","addr:street":"Route du Lac","caravans":"yes","name":"L'Orée du Bois","phone":"+33 3 29 63 30 94","tents":"40"}},"8926703273":{"location":[48.158199,7.0252599],"ct":"FR","tp":"CS","ts":"2021-07-16T13:49:22Z","tX":531,"tY":355,"tags":{"capacity":"4","name":"La Hardalle"}},"5553219549":{"location":[48.0118738,6.7149405],"ct":"FR","tp":"SD","ts":"2019-12-11T08:02:56Z","tX":531,"tY":355,"tags":{"access":"yes","fee":"yes","name":"Borne de services","opening_hours":"24/7","power_supply":"no","water_point":"yes"}},"6728327594":{"location":[48.0643902,6.8528745],"ct":"FR","tp":"SD","ts":"2024-05-12T10:28:25Z","tX":531,"tY":355,"tags":{"addr:housenumber":"21","addr:street":"Chemin du tour du lac","description":"24 h/24 borne vidange eaux grises et WC, recharge eau propre. 2€ pour 10mn. attention : le monnayeur mange souvent la pièce sans distribuer l'eau ; il est donc préférable d'y aller en journée, quand le gérant du camping peut intervenir.","motorhome":"designated"}},"11944906601":{"location":[47.999943,6.916921],"ct":"FR","tp":"SD","ts":"2024-05-30T12:36:42Z","tX":531,"tY":355,"tags":{"access":"yes","fee":"yes"}},"12152638951":{"location":[48.1689727,6.8803382],"ct":"FR","tp":"SD","ts":"2024-09-02T22:31:37Z","tX":531,"tY":355,"tags":{"access":"yes","sanitary_dump_station:chemical_toilet":"yes","sanitary_dump_station:grey_water":"yes","water_point":"yes"}}}