{"180210860":{"location":[47.9434724,6.9544396],"ct":"FR","tp":"CS","ts":"2023-11-04T17:47:58Z","tX":531,"tY":356,"tags":{"addr:city":"Kruth","addr:postcode":"68820","addr:street":"Rue de Bourbach","cabin:rental":"yes","email":"camping@schlossberg.fr","internet_access":"wlan","name":"Camping du Schlossberg","phone":"+33 3 89 82 26 76","website":"https://schlossberg.fr/"}},"182832719":{"location":[47.8777347,6.7791387],"ct":"FR","tp":"CS","ts":"2022-03-24T19:37:37Z","tX":531,"tY":356,"tags":{"addr:city":"Fresse-sur-Moselle","addr:country":"FR","addr:housenumber":"36ter","addr:postcode":"88160","addr:street":"Rue de Lorraine","caravans":"yes","email":"camping.bonaccueil@orange.fr","fax":"+33 3 29 25 31 79","name":"Camping Municipal Au Bon Accueil","phone":"+33 3 29 25 08 98","stars":"2","tents":"50","website":"https://www.tourisme-lorraine.fr/hebergement/campings/745000016-camping-municipal-au-bon-accueil-fresse-sur-moselle"}},"186936013":{"location":[47.8929247,6.7374025],"ct":"FR","tp":"CS","ts":"2019-07-03T21:55:10Z","tX":531,"tY":356,"tags":{"addr:city":"Ramonchamp","addr:country":"FR","addr:housenumber":"5","addr:postcode":"88160","addr:street":"Rue du Clos Martin","caravans":"yes","name":"Camping \"Le Clos-Martin\"","opening_hours":"Apr 01-Sep 15","phone":"+33 3 29 25 05 38","tents":"40"}},"207412174":{"location":[47.8201053,6.8343511],"ct":"FR","tp":"PK","ts":"2024-10-03T15:58:43Z","tX":531,"tY":356,"tags":{"access":"yes","fee":"no","motorhome":"yes","motorhome:overnight":"yes","parking":"surface"}},"221383876":{"location":[47.889321,6.8592486],"ct":"FR","tp":"CS","ts":"2025-03-07T13:46:16Z","tX":531,"tY":356,"tags":{"addr:city":"Bussang","addr:housenumber":"14","addr:postcode":"88540","addr:street":"Rue des Champs Naves","caravans":"yes","contact:mobile":"+33 608643898","fax":"+33 3 29 61 56 90","name":"Domaine de Champé","name:de":"Sunêlia Domaine de Champe","name:fr":"Le Domaine de Champé","operator":"Sunêlia","phone":"+33 3 29 61 61 51","stars":"5","tents":"100","website":"https://www.domaine-de-champe.fr"}},"221696501":{"location":[47.9071083,6.7812681],"ct":"FR","tp":"CS","ts":"2024-09-04T09:07:20Z","tX":531,"tY":356,"tags":{"addr:city":"Le Ménil","addr:country":"FR","addr:housenumber":"51bis","addr:postcode":"88160","addr:street":"Grande Rue","cabins":"yes","capacity:pitches":"32","caravans":"yes","drinking_water":"yes","internet_access":"wlan","name":"Camping de l'Orée du Bois","opening_hours":"24/7","phone":"+33 3 29 25 04 88","power_supply":"yes","shower":"yes","stars":"3","tents":"yes","toilets":"yes","website":"https://www.loree-du-bois.fr/","wheelchair":"limited"}},"221931864":{"location":[47.854489,6.8103901],"ct":"FR","tp":"CS","ts":"2020-07-21T13:39:13Z","tX":531,"tY":356,"tags":{"addr:city":"Saint-Maurice-sur-Moselle","addr:country":"FR","addr:housenumber":"17","addr:postcode":"88560","addr:street":"Rue du Stade","cabin:rental":"yes","caravans":"yes","email":"stan0268@orange.fr","internet_access":"wlan","name":"Camping \"Les Deux Ballons\"","opening_hours":"Apr 01-Sep 30","payment:debit_cards":"yes","phone":"+33 3 29 25 17 14","stars":"3","tents":"154","website":"https://www.camping-deux-ballons.fr"}},"221969231":{"location":[47.9530956,6.7493493],"ct":"FR","tp":"CS","ts":"2022-07-13T14:03:03Z","tX":531,"tY":356,"tags":{"addr:housenumber":"336","caravans":"yes","fax":"+33 3 29 24 58 31","name":"Camping du lac de la Moselotte","opening_hours":"24/7","payment:mastercard":"yes","payment:visa":"yes","phone":"+33 3 29 24 56 56","stars":"4","tents":"63","website":"https://lac-moselotte.fr/camping-locations/camping","wheelchair":"yes"}},"222722797":{"location":[47.8888216,6.7574688],"ct":"FR","tp":"CS","ts":"2024-02-12T21:09:43Z","tX":531,"tY":356,"tags":{"addr:housenumber":"36","caravans":"yes","email":"campingmunicipal@ville-lethillot88.fr","fax":"+33 3 29 25 25 87","internet_access":"wlan","internet_access:fee":"no","name":"Camping Municipal du Clos de Chaume","opening_hours":"Jan-Mar,Dec: PH,Mo-Su 08:00-11:00; Apr-May,Oct-Nov: PH,Mo-Su 08:00-12:30; Jun-Sep: PH,Mo-Su 08:00-12:00,16:00-19:00","phone":"+33 6 30 23 50 05","stars":"2","tents":"yes","website":"https://le-thillot.fr/structure-communale-le-camping-municipal/"}},"227106483":{"location":[47.8811319,6.942491],"ct":"FR","tp":"CS","ts":"2023-11-04T17:47:49Z","tX":531,"tY":356,"tags":{"capacity":"157","caravans":"yes","drinking_water":"yes","email":"camping.urbes@orange.fr","fee":"yes","internet_access":"wlan","name":"Camping Municipal Benelux-Bâle","phone":"+33 3 89 82 78 76","power_supply":"yes","shower":"yes","tents":"yes","toilets":"yes","website":"https://camping-urbes.fr/"}},"295065217":{"location":[47.8795317,7.0093496],"ct":"FR","tp":"CS","ts":"2024-08-03T13:41:00Z","tX":531,"tY":356,"tags":{"cabins":"yes","caravans":"yes","email":"contact@alsace-camping.com","name":"Camping Les Bouleaux","phone":"+33 3 89 82 64 70","source":"https://www.alsace-camping.com/","stars":"4","tents":"yes","website":"https://www.alsace-camping.com/"}},"379723612":{"location":[47.9388405,6.8688606],"ct":"FR","tp":"CR","ts":"2024-10-03T13:09:05Z","tX":531,"tY":356,"tags":{"capacity":"10","caravan_site":"motorhome_stopover","caravan_site:type":"village","fee":"no","name":"Aire de Camping-car Ventron","picnic_area":"yes","power_supply":"yes","power_supply:charge":"3 EUR/1 hour","power_supply:fee":"yes","sanitary_dump_station":"yes","water_point":"yes","water_point:charge":"3 EUR/100 liter","water_point:fee":"yes","website":"https://www.tourisme.vosges.fr/sejourner/hotellerie-de-plein-air/776004465-aire-de-camping-car-ventron-ventron"}},"448052468":{"location":[47.850865,7.0308301],"ct":"FR","tp":"CS","ts":"2017-10-10T00:14:48Z","tX":531,"tY":356,"tags":{"addr:postcode":"68960","addr:street":"Rue de la Mine d'Argent","internet_access":"wlan","name":"Camping de la Mine d'Argent","name:fr":"Camping de la Mine d'Argent","phone":"+33389823066","source":"http://www.camping-la-mine-argent.com/","website":"http://www.camping-la-mine-argent.com"}},"489093874":{"location":[47.9836362,7.0187958],"ct":"FR","tp":"CS","ts":"2020-06-21T19:40:11Z","tX":531,"tY":356,"tags":{"addr:city":"Mittlach","addr:street":"Chemin du Camping","cabin:rental":"yes","caravans":"yes","email":"camping@mittlach.fr","internet_access":"no","name":"Camping du Langenwasen","opening_hours":"Apr 15 - Oct 15","operator":"Commune de Mittlach","phone":"+33 3 89 77 63 77","sanitary_dump_station":"yes","source":"cadastre-dgi-fr source : Direction Générale des Impôts - Cadastre. Mise à jour : 2017","sport":"table_tennis;boules","stars":"1","tents":"yes","website":"https://www.camping-alsace.info"}},"506254605":{"location":[47.960853,6.8334927],"ct":"FR","tp":"CR","ts":"2024-09-02T20:24:48Z","tX":531,"tY":356,"tags":{"capacity":"6","caravan_site":"motorhome_stopover","caravan_site:type":"river","fee":"no","name":"Aire de Camping-Car Cornimont","power_supply":"yes","power_supply:charge":"2 EUR/hour","power_supply:fee":"yes","sanitary_dump_station":"yes","source":"BDOrtho IGN2017;survey","surface":"asphalt","water_point":"yes","water_point:charge":"2 EUR","water_point:fee":"yes","website":"https://www.cornimont.fr/la-ville/infos-pratiques/aire-de-camping-car.html"}},"601511160":{"location":[47.9637406,6.8480449],"ct":"FR","tp":"CS","ts":"2024-07-10T14:35:11Z","tX":531,"tY":356,"tags":{"addr:housenumber":"53","addr:postcode":"88130","addr:street":"Rue des Têtes","name":"Camping des Têtes","website":"https://campingdestetes.e-monsite.com/"}},"715016863":{"location":[47.7782938,6.9897099],"ct":"FR","tp":"CS","ts":"2024-05-09T12:28:24Z","tX":531,"tY":356,"tags":{"caravans":"yes","contact:phone":"+33 3 89 39 83 94","drinking_water":"yes","internet_access":"wlan","internet_access:fee":"yes","name":"Camping de Masevaux","opening_hours":"Mar 30-Oct 18: Mo-Su,PH 08:30-11:30,14:00-18:00; Jul-Aug: Mo-Su,PH 08:00-11:30,15:00-19:00","operator":"Municipal","power_supply":"yes","sanitary_dump_station":"yes","shower":"yes","stars":"3","tents":"yes","toilets":"yes","website":"https://www.masevaux-camping.fr/"}},"827931201":{"location":[47.8090331,6.7361071],"ct":"FR","tp":"CS","ts":"2020-09-06T18:10:19Z","tX":531,"tY":356,"tags":{"name":"Camping municipal"}},"1312865904":{"location":[47.8823642,6.7621771],"ct":"FR","tp":"CR","ts":"2024-09-02T17:39:08Z","tX":531,"tY":356,"tags":{"capacity":"5","caravan_site":"motorhome_stopover","caravan_site:type":"village","fee":"no","name":"Aire de stationnement camping-car au Thillot","operator":"Municipal","power_supply":"yes","sanitary_dump_station":"yes","surface":"asphalt","water_point":"yes","water_point:fee":"yes","website":"https://www.tourisme.vosges.fr/testpassvosges__trashed/745005048-aire-de-stationnement-et-de-service-camping-car-au-thillot-le-thillot"}},"1312866802":{"location":[47.8890332,6.7738092],"ct":"FR","tp":"CR","ts":"2024-09-02T17:45:18Z","tX":531,"tY":356,"tags":{"capacity":"3","caravan_site":"motorhome_stopover","caravan_site:type":"supermarket","fee":"no","maxstay":"48 hours","name":"Aire de camping-car Intermarché Thillot","website":"https://www.massif-des-vosges.fr/sit/745005046-aire-de-service-camping-car-au-thillot/"}},"3981622758":{"location":[47.9392608,6.8695356],"ct":"FR","tp":"SD","ts":"2016-02-01T10:44:40Z","tX":531,"tY":356,"tags":{"access":"yes","fee":"yes"}},"4485624501":{"location":[47.8198591,6.9349899],"ct":"FR","tp":"CS","ts":"2016-11-06T16:42:07Z","tX":531,"tY":356,"tags":{"name":"Rural de Hagenbach - Rimbach Pres Masevaux","phone":"+33389820013"}},"5045161722":{"location":[47.9065855,6.7361724],"ct":"FR","tp":"CS","ts":"2017-10-10T00:11:10Z","tX":531,"tY":356,"tags":{"addr:housenumber":"59","addr:postcode":"88368","addr:street":"Rue des Planesses","name":"Planesses Yourte","phone":"+33698317806","website":"http://www.domainedesplanesses.fr"}},"5884219459":{"location":[47.8969901,6.8992288],"ct":"FR","tp":"CS","ts":"2022-06-07T19:21:37Z","tX":531,"tY":356,"tags":{"addr:city":"Bussang","addr:housenumber":"5","addr:postcode":"88540","addr:street":"Route du Drumont","fee":"yes","internet_access":"wlan","name":"Total Art Oasis","website":"http://www.totalartoasis.net"}},"6488056985":{"location":[47.9016176,6.9811328],"ct":"FR","tp":"CS","ts":"2023-08-02T13:01:13Z","tX":531,"tY":356,"tags":{"capacity:tents":"40","email":"laurewagga@gmail.com","name":"Le Wagga","name:fr":"Le Wagga","phone":"+33 6 95 00 92 30","static_caravans":"yes","tents":"yes","website":"https://lewagga.fr/camping.php"}},"11427462800":{"location":[47.8599854,6.7419121],"ct":"FR","tp":"CS","ts":"2023-12-17T22:18:12Z","tX":531,"tY":356,"tags":{"name":"Zeltplatz Manu"}},"4723878409":{"location":[47.7946987,7.0292281],"ct":"FR","tp":"CR","ts":"2024-07-01T22:23:19Z","tX":531,"tY":356,"tags":{"capacity":"5","caravan_site":"motorhome_stopover","caravan_site:type":"village","charge":"6 EUR / 24h","fee":"yes","name":"Aire de Services Bourbach-le-Haut (Parking Ecole Maternelle)","phone":"+33 389 824126","picnic_area":"yes","power_supply":"yes","sanitary_dump_station":"yes","source":"tourisme-alsace.com","water_point":"yes"}},"11836887662":{"location":[47.8551487,6.8188566],"ct":"FR","tp":"CR","ts":"2024-10-23T15:17:54Z","tX":531,"tY":356,"tags":{"capacity":"3","caravan_site":"motorhome_stopover","caravan_site:type":"village","caravans":"no","fee":"no","maxstay":"48 hours","name":"Aire De Stationnement Camping-car À Saint-maurice-sur-moselle","picnic_table":"yes","sanitary_dump_station":"yes","seasonal":"no","tents":"no","website":"https://www.massif-des-vosges.fr/sit/745005049-aire-de-stationnement-camping-car-a-saint-maurice-sur-moselle/"}},"4723840121":{"location":[47.8798468,7.0102869],"ct":"FR","tp":"SD","ts":"2019-03-24T23:09:10Z","tX":531,"tY":356,"tags":{"email":"contact@alsace-camping.com","name":"Camping Les Bouleaux","phone":"+33 3 89 82 64 70","source":"tourisme-alsace.com","website":"https://www.tourisme-alsace.com/fr/233001028-Camping-Les-Bouleaux.html"}},"4723842103":{"location":[47.8508217,7.0306915],"ct":"FR","tp":"SD","ts":"2017-10-10T00:14:10Z","tX":531,"tY":356,"tags":{"name":"Camping de la Mine d'Argent","phone":"+33389823066","source":"tourisme-alsace.com","website":"http://www.camping-la-mine-argent.com"}},"4723878408":{"location":[47.7947111,7.0293057],"ct":"FR","tp":"SD","ts":"2018-11-06T12:07:30Z","tX":531,"tY":356,"tags":{"FIXME":"Position ?","description":"Borne: Flot Bleu","name":"Aire de Services Bourbach-le-Haut (Parking Ecole Maternelle)","operator":"Flot Bleu","phone":"+33 389 824126","source":"tourisme-alsace.com"}},"5711073422":{"location":[47.7739282,7.0006365],"ct":"FR","tp":"SD","ts":"2018-06-22T10:43:51Z","tX":531,"tY":356,"tags":{"description":"Euro Relais"}},"7865320030":{"location":[47.882288,6.7619778],"ct":"FR","tp":"SD","ts":"2024-09-02T17:39:08Z","tX":531,"tY":356,"tags":{"operator":"Euro Relais"}},"10015885758":{"location":[47.7785663,6.9908561],"ct":"FR","tp":"SD","ts":"2022-09-11T14:13:52Z","tX":531,"tY":356,"tags":{"access":"customers","fee":"no","name":"Camping de Masevaux","operator":"Municipal"}},"12152081810":{"location":[47.8890118,6.7737881],"ct":"FR","tp":"SD","ts":"2024-09-02T17:45:18Z","tX":531,"tY":356,"tags":{"access":"yes"}},"12152273969":{"location":[47.960964,6.833531],"ct":"FR","tp":"SD","ts":"2024-09-02T20:23:59Z","tX":531,"tY":356,"tags":{"access":"yes","fee":"yes","water_point":"yes"}}}