{"70173702":{"location":[47.6535423,6.86612],"ct":"FR","tp":"CS","ts":"2024-08-30T17:32:53Z","tX":531,"tY":357,"tags":{"addr:city":"Belfort","addr:country":"FR","addr:housenumber":"11","addr:postcode":"90000","addr:street":"Rue du Général Béthouart","barrier":"fence","capacity":"92","capacity:tents":"91","caravans":"yes","drinking_water":"yes","fax":"+33 3 84 22 76 55","name":"Camping International de l'Étang des Forges","opening_hours":"1.04 - 31.10.","phone":"+33 3 84 22 54 92","power_supply":"yes","sanitary_dump_station":"yes","shower":"yes","stars":"3","tents":"yes","toilets":"yes","website":"https://www.camping-belfort.com/"}},"224949694":{"location":[47.6019251,7.0015025],"ct":"FR","tp":"CR","ts":"2024-09-03T13:03:39Z","tX":531,"tY":357,"tags":{"caravan_site":"motorhome_stopover","caravan_site:type":"river","charge":"5 EUR","fee":"yes","name":"Aire de camping-car de Montreux-Château","opening_hours":"24/7","power_supply":"yes","power_supply:fee":"no","sanitary_dump_station":"yes","seasonal":"no","tents":"no","water_point":"yes","website":"https://www.belfort-tourisme.com/camping/aire-de-camping-cars-halte-fluviale/"}},"297712113":{"location":[47.7355944,7.0150483],"ct":"FR","tp":"CS","ts":"2023-09-08T20:51:15Z","tX":531,"tY":357,"tags":{"addr:city":"Leval","addr:housenumber":"3","addr:postcode":"90110","addr:street":"Rue de la Seigneurie","name":"Camping du Lac de la Seigneurie","source":"cadastre-dgi-fr source : Direction Générale des Finances Publiques - Cadastre. Mise à jour : 2014","website":"https://camping-lac-seigneurie.com"}},"630376874":{"location":[47.7356208,7.0141091],"ct":"FR","tp":"CS","ts":"2019-05-25T19:21:42Z","tX":531,"tY":357,"tags":{"camp_site":"basic"}},"935855304":{"location":[47.7360078,7.0167464],"ct":"FR","tp":"SD","ts":"2021-04-27T14:39:45Z","tX":531,"tY":357,"tags":{}},"1298223340":{"location":[47.633223,7.0187731],"ct":"FR","tp":"CR","ts":"2024-07-01T23:03:39Z","tX":531,"tY":357,"tags":{"bbq":"no","capacity":"16","caravan_site":"motorhome_stopover","caravan_site:type":"village","caravans":"no","charge":"13.50 EUR","dog":"leashed","fee":"yes","maxlength":"9","name":"Aire de Camping-Cars Chavannes-sur-l'Étang","network":"CAMPING-CAR PARK","power_supply":"yes","power_supply:capacity":"16","power_supply:maxcurrent":"6","tents":"no","trailer":"no","website":"https://www.campingcarpark.com/fr_FR/sejour/aire-etape-camping-car/grand-est/68-haut-rhin/chavannes-sur-letang"}},"1312769534":{"location":[47.5282235,6.856398],"ct":"FR","tp":"CR","ts":"2024-09-03T12:56:48Z","tX":531,"tY":357,"tags":{"capacity":"3","caravan_site":"motorhome_stopover","caravan_site:type":"beach","fee":"no","maxstay":"24 hours","name":"Base de loisirs Brognard","power_supply":"no","sanitary_dump_station":"yes","water_point":"yes","website":"https://en.montagnes-du-jura.fr/sit/aire-de-camping-cars-base-de-loisirs"}},"2525166308":{"location":[47.6020745,7.001843],"ct":"FR","tp":"SD","ts":"2024-09-03T13:03:39Z","tX":531,"tY":357,"tags":{"access":"yes","water_point":"yes"}},"4955483528":{"location":[47.688568,6.7318234],"ct":"FR","tp":"CS","ts":"2020-06-25T13:56:20Z","tX":531,"tY":357,"tags":{"addr:city":"Champagney","addr:housenumber":"8","addr:postcode":"70290","addr:street":"Rue de la Louvière","camp_site":"basic","internet_access":"no","name":"La Louvière","stars":"1","website":"http://www.camping-la-louviere.fr/"}},"4485584548":{"location":[47.6418943,6.8660183],"ct":"FR","tp":"CR","ts":"2024-10-03T18:39:01Z","tX":531,"tY":357,"tags":{"capacity":"8","caravan_site":"motorhome_stopover","caravan_site:type":"parking_lot","fee":"no","maxstay":"48 hours","name":"Place de l'Épide","power_supply":"yes"}},"4485584549":{"location":[47.6418079,6.8658982],"ct":"FR","tp":"SD","ts":"2022-11-24T20:53:43Z","tX":531,"tY":357,"tags":{"access":"yes","fee":"no"}},"4547299538":{"location":[47.699919,6.9337111],"ct":"FR","tp":"SD","ts":"2016-12-09T23:47:23Z","tX":531,"tY":357,"tags":{}},"4723886155":{"location":[47.6331207,7.0191089],"ct":"FR","tp":"SD","ts":"2024-07-01T23:03:39Z","tX":531,"tY":357,"tags":{"email":"info@cc-port-alcsace.fr","name":"Aire de Camping-Cars Chavannes-sur-l'Étang","phone":"+33 389 072424","source":"tourisme-alsace.com","website":"www.cc-port-alcsace.fr"}}}