{"2255958":{"location":[46.8557301,6.8468725],"ct":"CH","tp":"CS","ts":"2024-01-25T15:02:16Z","tX":531,"tY":360,"tags":{"dog":"leashed","fee":"yes","internet_access":"wlan","internet_access:fee":"customers","name":"La Nouvelle Plage","payment:cash":"yes","payment:credit_cards":"yes","payment:maestro":"yes","payment:mastercard":"yes","payment:visa":"yes","reservation":"yes","toilets":"yes","website":"https://www.nouvelle-plage.ch/"}},"9905308":{"location":[46.8911883,6.9016786],"ct":"CH","tp":"CS","ts":"2019-08-10T21:09:48Z","tX":531,"tY":360,"tags":{"contact:email":"info@campingdechevroux.com","contact:phone":"+41 266671445","contact:website":"http://www.campingdechevroux.com/","name":"Camping de Chevroux"}},"11105245":{"location":[47.0042237,7.0211637],"ct":"CH","tp":"CS","ts":"2024-06-22T05:34:11Z","tX":531,"tY":360,"tags":{"access":"yes","addr:city":"Marin-Epagnier","addr:housenumber":"106","addr:postcode":"2074","addr:street":"Route de la Tène","caravans":"yes","fee":"yes","name":"TCS Camping La Tène","operator":"TCS Camping","website":"https://www.tcs.ch/en/camping-travelling/camping-insider/campsites/tcs-campsites/campsite-la-tene-lake-neuchatel.php"}},"15059524":{"location":[46.9659311,6.8716357],"ct":"CH","tp":"CS","ts":"2024-08-18T14:08:32Z","tX":531,"tY":360,"tags":{"addr:housenumber":"8","addr:street":"Allée du port","camp_site":"serviced","caravans":"yes","dog":"leashed","internet_access":"wlan","internet_access:fee":"no","name":"Paradis-Plage","permanent_camping":"yes","phone":"+41 32 841 24 46","power_supply":"yes","sanitary_dump_station":"customers","stars":"5","static_caravans":"yes","tents":"yes","washing_machine":"yes","website":"https://www.paradisplage.ch"}},"49249688":{"location":[47.0065739,7.0282829],"ct":"CH","tp":"CS","ts":"2023-12-29T11:10:32Z","tX":531,"tY":360,"tags":{"access":"customers","addr:city":"Gampelen","addr:housenumber":"105","addr:postcode":"3236","addr:street":"Rothausstrasse","capacity:caravans":"450","capacity:persons":"2000","description":"Das traditionsreiche «Naturistengelände Thielle – die neue zeit» ist ein einzigartiger, familiärer Campingplatz am Neuenburger See, ein Ort für gesunde Freizeitgestaltung und Lebensreform.  Wir baden nackt in Wasser, Luft und Sonne, treiben Gymnastik und","dog":"no","email":"office@die-neue-zeit.ch","fee":"yes","internet_access":"no","name":"Naturistengelände Thielle - die neue zeit","name:de":"Naturistengelände Thielle - die neue zeit","name:fr":"Centre naturiste de Thielle – die neue zeit","openfire":"no","opening_hours":"Apr-Oct","operator":"Stiftung \"die neue zeit\"","phone":"+41 32 313 45 55","website":"https://www.die-neue-zeit.ch/","wheelchair":"limited"}},"75916681":{"location":[46.8104463,6.9444661],"ct":"CH","tp":"CS","ts":"2022-09-16T17:44:17Z","tX":531,"tY":360,"tags":{"name":"Piscine Camping Payerne","website":"https://www.piscine-payerne.ch/"}},"156140518":{"location":[46.8049595,6.7392279],"ct":"CH","tp":"CS","ts":"2022-12-12T16:04:23Z","tX":531,"tY":360,"tags":{"addr:city":"Yvonand","addr:housenumber":"20","addr:postcode":"1462","addr:street":"Chemin de la Plage","caravans":"yes","group_only":"no","name":"Camping de la Menthue","openfire":"no","phone":"+41 24 430 18 18","source":"Orthophoto Yvonand 2012 / R-Pod @ HEIG-VD","tents":"yes","website":"https://camping-yvonand.ch/","wheelchair":"yes","wikipedia":"fr:Yvonand#Tourisme"}},"207740613":{"location":[46.9623142,7.0283417],"ct":"CH","tp":"CS","ts":"2024-08-16T18:16:49Z","tX":531,"tY":360,"tags":{"addr:city":"Cudrefin","addr:housenumber":"87","addr:postcode":"1588","addr:street":"Route de Neuchâtel","cabins":"yes","caravans":"yes","drinking_water":"yes","email":"camping@cudrefin.ch","fax":"+41 26 677 07 67","fee":"yes","motorhome":"yes","name":"Camping communal de Cudrefin","opening_hours":"Apr - Oct","operator":"Commune Cudrefin","phone":"+41 26 677 32 77","power_supply":"yes","sanitary_dump_station":"yes","shower":"yes","tents":"yes","toilets":"yes","website":"https://www.camping-cudrefin.ch/"}},"232980402":{"location":[46.8513403,6.7255863],"ct":"CH","tp":"CS","ts":"2023-04-06T14:07:51Z","tX":531,"tY":360,"tags":{"area":"yes","name":"Bord du Lac"}},"240173781":{"location":[46.8605047,6.8634895],"ct":"CH","tp":"CS","ts":"2023-10-31T08:30:10Z","tX":531,"tY":360,"tags":{"area":"yes","caravans":"yes","dog":"yes","drinking_water":"yes","fee":"yes","name":"Ferme de la Corbière","phone":"+41 79 507 54 20","power_supply":"yes","sanitary_dump_station":"yes","shower":"yes","tents":"yes","toilets":"yes","website":"https://www.corbiere.ch/camping.html"}},"351704824":{"location":[46.902297,6.9308702],"ct":"CH","tp":"CS","ts":"2019-03-24T08:31:04Z","tX":531,"tY":360,"tags":{"name":"Village des chasseurs cueilleurs","website":"https://www.village-lacustre.ch/"}},"359338758":{"location":[46.804468,6.7176133],"ct":"CH","tp":"CS","ts":"2023-10-31T08:31:47Z","tX":531,"tY":360,"tags":{"addr:city":"Yvonand","addr:housenumber":"1","addr:postcode":"1462","addr:street":"Route de la Grève","camp_site":"deluxe","caravans":"yes","defibrillator":"yes","dog":"no","email":"VD8@campings-ccyverdon.ch","fax":"+41 24 430 24 63","fee":"yes","internet_access":"yes","internet_access:fee":"yes","name":"Camping VD 8 Pointe d'Yvonand","phone":"+41 24 430 16 55","sanitary_dump_station":"yes","tents":"yes","website":"https://www.campings-ccyverdon.ch/","wheelchair":"yes"}},"422285065":{"location":[46.9396325,6.8507985],"ct":"CH","tp":"CS","ts":"2016-06-01T21:30:26Z","tX":531,"tY":360,"tags":{"caravans":"yes","name":"Le Petit Cortaillod","phone":"+41 32 841 40 31"}},"464224203":{"location":[46.920754,6.9530733],"ct":"CH","tp":"CS","ts":"2019-06-02T21:21:49Z","tX":531,"tY":360,"tags":{"caravans":"yes","email":"camping@delley-portalban.ch","name":"La Nacelle","reservation":"recommended","tents":"yes","website":"https://www.delley-portalban.ch/le-camping"}},"715470350":{"location":[46.891951,6.7743129],"ct":"CH","tp":"CR","ts":"2023-12-06T00:42:38Z","tX":531,"tY":360,"tags":{"fee":"yes","name":"Port du Saint-Aubin-Sauges","power_supply":"yes","sanitary_dump_station":"yes","surface":"asphalt","wheelchair":"yes","wikimedia_commons":"File:Motorhome stopover near the port of Saint-Aubin-7571.jpg"}},"965194764":{"location":[46.9961103,6.7300955],"ct":"CH","tp":"CR","ts":"2021-07-17T14:20:02Z","tX":531,"tY":360,"tags":{"capacity":"4","internet_access":"no","permanent_camping":"no","sanitary_dump_station":"yes","tents":"yes","website":"https://www.lesponts-de-martel.ch/index.php?id=16992"}},"965194768":{"location":[46.995492,6.7295285],"ct":"CH","tp":"CS","ts":"2023-05-21T12:41:42Z","tX":531,"tY":360,"tags":{"camp_site":"basic","description":"Afin de compléter l’offre proposée gratuitement aux détenteurs de camping-cars et de caravanes au travers de la borne Euro-relais, la commune met à disposition des campeurs la possibilité de s’installer temporairement","name":"Espace pour campeurs","tents":"yes","url":"https://www.lesponts-de-martel.ch/fileadmin/SICO/LesPonts-de-Martel/Camping/Espace_pour_campeurs.pdf","website":"https://www.lesponts-de-martel.ch/decouverte/hebergement"}},"1206787112":{"location":[47.0114069,6.9880204],"ct":"CH","tp":"CR","ts":"2023-09-11T06:52:19Z","tX":531,"tY":360,"tags":{"capacity":"12","charge":"16 CHF/24 h","fee":"yes","permanent_camping":"no","power_supply":"yes","sanitary_dump_station":"yes","toilets":"no"}},"3291318139":{"location":[46.9911312,6.9360228],"ct":"CH","tp":"SD","ts":"2016-05-10T14:24:10Z","tX":531,"tY":360,"tags":{"sanitary_dump_station:accepted":"black_water"}},"3515670266":{"location":[47.0014347,6.9573041],"ct":"CH","tp":"CR","ts":"2015-05-13T19:01:36Z","tX":531,"tY":360,"tags":{"operator":"Euro Relay","power_supply":"yes","sanitary_dump_station":"yes","tents":"no"}},"3682065518":{"location":[46.9482463,6.8699964],"ct":"CH","tp":"CS","ts":"2015-08-05T10:15:01Z","tX":531,"tY":360,"tags":{"name":"Camping de la plage de Boudry"}},"4730140892":{"location":[47.0321055,6.8677976],"ct":"CH","tp":"CR","ts":"2023-11-22T15:50:57Z","tX":531,"tY":360,"tags":{"drinking_water":"yes","fee":"no","name":"Euro-relais La Croisee","name:fr":"Euro-relais La Croisee","power_supply":"no","toilets":"no"}},"5594678321":{"location":[46.92176,6.9556372],"ct":"CH","tp":"CR","ts":"2018-05-03T14:24:28Z","tX":531,"tY":360,"tags":{}},"8615339663":{"location":[46.8240123,6.9437898],"ct":"CH","tp":"CR","ts":"2021-10-30T14:13:30Z","tX":531,"tY":360,"tags":{"description":"Von der Gemeinde bestätigt: auf dem Parkplatz bei der Entsorgungsstelle darf man eine Nacht mit dem Wohnmobil übernachten. Übernachtung kostenlos, tagsüber fallen Parkgebühren an.","drinking_water":"yes","name":"Stade Municipal","sanitary_dump_station":"yes"}},"8662943416":{"location":[47.0194,6.99343],"ct":"CH","tp":"CR","ts":"2021-04-24T20:19:53Z","tX":531,"tY":360,"tags":{"addr:city":"Saint-Blaise","addr:postcode":"2072","addr:street":"Les Fourches","capacity":"8","description":"3 Naechte","name":"Stellplatz Les Fourches","note":"GrandTourCH"}},"8662972722":{"location":[46.99692,6.95358],"ct":"CH","tp":"CR","ts":"2021-04-24T20:07:18Z","tX":531,"tY":360,"tags":{"addr:city":"Neuenburg","addr:place":"Parking des Piscines","addr:postcode":"2000","capacity":"20","description":"grosser Parkplatz, max. 2 Tage","fee":"CHF 14.-","name":"Stellplatz Nid-du-Crô","note":"GrandTourCH"}},"8662974678":{"location":[47.00596,7.01925],"ct":"CH","tp":"CR","ts":"2023-11-10T23:00:21Z","tX":531,"tY":360,"tags":{"addr:city":"Marin-Epagnier","addr:housenumber":"106","addr:postcode":"2074","addr:street":"Chemin de La Tène","capacity":"20","description":"Beim Camping, die Infrastruktur des Campings darf genutzt werden.","email":"camping.latene@bluewin.ch","fee":"CHF 15.- plus 8.50 pro Person","name":"Stellplatz La Tène","note":"GrandTourCH","phone":"+41 79 658 41 91","website":"https://www.latene.ch/"}},"8663010926":{"location":[46.97905,6.89517],"ct":"CH","tp":"CR","ts":"2021-04-24T20:24:10Z","tX":531,"tY":360,"tags":{"addr:city":"Neuchâtel","addr:housenumber":"3","addr:postcode":"2000","addr:street":"Quai Jeanrenaud","capacity":"20","description":"Kostenlos von 21.00 Uhr bis 7.00 Uhr und an Sonn- und Feiertagen","fee":"CHF 14.-","name":"Stellplatz Serrières","note":"GrandTourCH"}},"9041988312":{"location":[47.006811,6.942906],"ct":"CH","tp":"CR","ts":"2021-08-28T06:25:21Z","tX":531,"tY":360,"tags":{"name":"Stellplatz Cadolles, Neuchâtel"}},"9041988313":{"location":[47.004964,6.922315],"ct":"CH","tp":"CR","ts":"2021-08-28T06:25:21Z","tX":531,"tY":360,"tags":{"name":"Stellplatz Pierre-à-Bot, Neuchâtel"}},"9042008817":{"location":[47.026497,6.955979],"ct":"CH","tp":"CR","ts":"2021-08-28T06:25:21Z","tX":531,"tY":360,"tags":{"name":"Stellplatz Chaumont"}},"9042314026":{"location":[46.8517475,6.8412459],"ct":"CH","tp":"CR","ts":"2021-10-31T10:40:00Z","tX":531,"tY":360,"tags":{"addr:city":"Estavayer-le-Lac","capacity":"10","description":"Öffnungszeiten:21.5. - 31.8., CHF 25.-","fee":"yes","name":"Parking du Port","name:de":"Stellplatz Parking du Port"}},"9046475178":{"location":[46.9520535,6.7259357],"ct":"CH","tp":"CR","ts":"2024-09-09T09:26:40Z","tX":531,"tY":360,"tags":{"charge":"10 CHF","email":"info.vdt@ne.ch","fee":"Mar-Oct","name":"Aire d'accueil - Noiraigue Le Devins","name:de":"Wohnmobilstellplatz - Noiraigue Le Devins","phone":"+41 32 864 90 64","website":"https://www.j3l.ch/en/P77881/accomodation/campsites-pitches/camper-site-noiraigue-le-devins"}},"6699437582":{"location":[46.8948265,6.9016754],"ct":"CH","tp":"SD","ts":"2019-08-10T21:09:48Z","tX":531,"tY":360,"tags":{"water_point":"yes"}},"6699437583":{"location":[46.8960254,6.9004871],"ct":"CH","tp":"SD","ts":"2019-08-10T21:09:48Z","tX":531,"tY":360,"tags":{"water_point":"no"}},"8850402438":{"location":[47.0114043,6.9880199],"ct":"CH","tp":"SD","ts":"2023-09-11T06:52:19Z","tX":531,"tY":360,"tags":{"access":"yes","description":"Euro Relais, Grauwasser ablassen nur mit eigenem Schlauch für Bodeneinlass am Strassenrand","network":"EuroRelais","note":"WML CH","power_supply":"yes","sanitary_dump_station:chemical_toilet":"yes","water_point":"yes"}},"8850402439":{"location":[46.892045,6.774197],"ct":"CH","tp":"SD","ts":"2021-06-20T13:19:04Z","tX":531,"tY":360,"tags":{"name":"Hafen, Saint-Aubin","note":"WML CH"}},"8850402442":{"location":[46.8244283,6.944073],"ct":"CH","tp":"SD","ts":"2021-10-30T14:13:30Z","tX":531,"tY":360,"tags":{"description":"Nouvel emplacement de la borne Eurorelais, sur un grand parking longue durée proche gare et centre ville","name":"Euro-relais, Payerne","note":"WML CH","operator":"Euro-relais"}},"8850402444":{"location":[47.001451,6.957351],"ct":"CH","tp":"SD","ts":"2021-06-20T13:19:04Z","tX":531,"tY":360,"tags":{"description":"Euro-Relais","name":"Route des Falaises, Neuenburg","note":"WML CH"}},"8850402459":{"location":[46.96577,6.872555],"ct":"CH","tp":"SD","ts":"2021-06-20T13:19:04Z","tX":531,"tY":360,"tags":{"description":"7.-, bei der Reception melden, vor dem Campingplatz","name":"Paradis Plage, Colombier","note":"WML CH"}},"8868402523":{"location":[46.8164678,6.785045],"ct":"CH","tp":"SD","ts":"2024-01-20T10:42:29Z","tX":531,"tY":360,"tags":{"fee":"yes","water_point":"yes"}},"8928826642":{"location":[46.9960794,6.7301293],"ct":"CH","tp":"SD","ts":"2021-07-17T14:20:02Z","tX":531,"tY":360,"tags":{}},"9683366254":{"location":[46.8599855,6.8634445],"ct":"CH","tp":"SD","ts":"2022-04-21T17:48:38Z","tX":531,"tY":360,"tags":{}},"9778872503":{"location":[46.8025783,6.7142923],"ct":"CH","tp":"SD","ts":"2022-05-30T07:31:35Z","tX":531,"tY":360,"tags":{"access":"customers","sanitary_dump_station:chemical_toilet":"no","sanitary_dump_station:grey_water":"yes"}},"9780955995":{"location":[46.8039663,6.7169702],"ct":"CH","tp":"SD","ts":"2022-05-30T07:31:35Z","tX":531,"tY":360,"tags":{"access":"customers","sanitary_dump_station:basin":"yes"}}}