{"1183357":{"location":[46.3950686,6.9209133],"ct":"CH","tp":"CS","ts":"2023-11-07T15:17:00Z","tX":531,"tY":362,"tags":{"addr:city":"Villeneuve (VD)","email":"horizon-bleu@camping-club-vaudois.ch","fax":"+41 21 647 46 63","name":"Les Horizons Bleus","phone":"+41 21 960 15 47","website":"https://www.camping-club-vaudois.ch/camping-caravaning-les-horizons-bleus-villeneuve.html"}},"1330786":{"location":[46.5110078,6.7137304],"ct":"CH","tp":"CS","ts":"2010-12-19T22:27:37Z","tX":531,"tY":362,"tags":{"name":"Camping du Portillon"}},"2462036":{"location":[46.489554,6.7376017],"ct":"CH","tp":"CS","ts":"2024-03-02T12:35:39Z","tX":531,"tY":362,"tags":{"addr:city":"Cully","addr:housenumber":"2","addr:postcode":"1096","addr:street":"Route de Moratel","capacity":"24","ele":"375","name":"Camping de Moratel","phone":"+41 21 799 19 14"}},"17539964":{"location":[46.3466053,6.9378971],"ct":"CH","tp":"CS","ts":"2024-04-30T01:47:23Z","tX":531,"tY":362,"tags":{"name":"Lac Verney"}},"17938337":{"location":[46.3414795,6.9413906],"ct":"CH","tp":"CS","ts":"2024-08-15T03:28:09Z","tX":531,"tY":362,"tags":{"addr:city":"Yvorne","addr:postcode":"1853","email":"accueil@domainedelaroseraie.ch","name":"Domaine de la Roseraie","operator":"Domaine de la Roseraie SA","phone":"+41 24 466 54 77","website":"http://www.domainedelaroseraie.ch/"}},"17938340":{"location":[46.3467771,6.9426233],"ct":"CH","tp":"CS","ts":"2024-08-15T03:28:09Z","tX":531,"tY":362,"tags":{"addr:city":"Yvorne","addr:housenumber":"3","addr:postcode":"1853","addr:street":"Les Écots","email":"info@closdelageorge.ch","fax":"+41 24 466 28 66","name":"Camping du Clos de la George","phone":"+41 24 466 58 28","stars":"4","website":"https://www.closdelageorge.ch/"}},"18420340":{"location":[46.3930124,6.8950804],"ct":"CH","tp":"CS","ts":"2024-12-14T06:53:03Z","tX":531,"tY":362,"tags":{"addr:city":"Noville","addr:housenumber":"31","addr:postcode":"1845","addr:street":"Route des Grangettes","internet_access":"wlan","internet_access:fee":"yes","name":"Camping Les Grangettes","operator":"Michel Siffert","phone":"+41219601503","website":"https://www.treyvaud.ch/de_DE/camping-les-grangettes"}},"46950385":{"location":[46.3233904,6.9616319],"ct":"CH","tp":"CS","ts":"2021-10-26T19:48:56Z","tX":531,"tY":362,"tags":{"addr:city":"Aigle","addr:country":"CH","addr:housenumber":"1","addr:postcode":"1860","addr:street":"Avenue des Glariers","name":"Camping De La Piscine","phone":"+41 24 466 26 60","stars":"3","website":"https://campingdelapiscine.ch"}},"170613074":{"location":[46.528924,6.7646043],"ct":"CH","tp":"CS","ts":"2012-07-08T17:49:02Z","tX":531,"tY":362,"tags":{"internet_access":"wlan","internet_access:fee":"yes","name":"Camping des Cases","opening_hours":"Mo-Su 08:30-12:00,14:00-19:00","phone":"+41 21 781 14 64","source":"bing","website":"http://www.campingforel.ch","wheelchair":"yes"}},"288630307":{"location":[46.3861109,6.8599075],"ct":"CH","tp":"CS","ts":"2024-06-22T22:51:08Z","tX":531,"tY":362,"tags":{"caravans":"yes","fee":"yes","name":"Rive Bleue","payment:cash":"yes","payment:contactless":"yes","payment:credit_cards":"yes","power_supply":"yes","sanitary_dump_station":"yes","shower":"yes","tents":"yes","toilets":"yes","washing_machine":"yes","website":"https://www.camping-rive-bleue.ch/"}},"289916794":{"location":[46.3875842,6.8597722],"ct":"CH","tp":"CR","ts":"2022-08-31T21:10:03Z","tX":531,"tY":362,"tags":{"fee":"yes","name":"Rive Bleue","permanent_camping":"only","power_supply":"yes","tents":"no"}},"306110775":{"location":[46.3930269,6.8950804],"ct":"CH","tp":"CS","ts":"2023-04-14T09:31:10Z","tX":531,"tY":362,"tags":{"addr:city":"Noville","addr:housenumber":"31","addr:postcode":"1845","addr:street":"Route des Grangettes","internet_access":"wlan","internet_access:fee":"yes","name":"Camping Les Grangettes","operator":"Michel Siffert","phone":"+41219601503","website":"https://www.treyvaud.ch/de_DE/camping-les-grangettes"}},"306331129":{"location":[46.3572897,6.8985566],"ct":"CH","tp":"CS","ts":"2019-09-17T14:28:42Z","tX":531,"tY":362,"tags":{"caravans":"yes","name":"Camping Au Grand-Bois","static_caravans":"yes","tents":"yes","website":"http://www.camping-au-grand-bois.ch/"}},"414666010":{"location":[46.4469407,6.8752746],"ct":"CH","tp":"CS","ts":"2019-12-08T12:01:15Z","tX":531,"tY":362,"tags":{"addr:city":"La Tour-de-Peilz","addr:housenumber":"310","addr:postcode":"1814","addr:street":"route de Saint-Maurice","name":"Maladaire","phone":"+41 21 944 31 37"}},"427719626":{"location":[46.5264091,6.9173969],"ct":"CH","tp":"CS","ts":"2023-11-03T02:04:21Z","tX":531,"tY":362,"tags":{"addr:city":"Châtel-St-Denis","addr:housenumber":"21","addr:postcode":"1618","addr:street":"Route des Paccots","caravans":"yes","email":"info@le-bivouac.ch","motorhome":"yes","name":"Camping le Bivouac","phone":"+41 21 948 78 49","shower":"yes","stars":"4","tents":"yes","toilets":"yes","website":"https://le-bivouac.ch/"}},"719283265":{"location":[46.3565224,6.8993213],"ct":"CH","tp":"SD","ts":"2019-08-28T09:24:36Z","tX":531,"tY":362,"tags":{}},"1132236733":{"location":[46.4698232,6.8093197],"ct":"CH","tp":"CS","ts":"2023-04-07T19:54:25Z","tX":531,"tY":362,"tags":{"access":"yes","addr:city":"Chardonne","addr:housenumber":"37","addr:postcode":"1803","addr:street":"Chemin de la Paix","caravans":"yes","email":"camping.pichette@vevey.ch","fee":"yes","name":"de La Pichette","phone":"+41 21 925 35 07","power_supply":"yes","reservation":"yes","sanitary_dump_station":"yes","shower":"yes","static_caravans":"yes","tents":"yes","toilets":"yes","website":"https://www.vevey.ch/vivre-vevey/economie-et-tourisme/camping-de-la-pichette"}},"4159806622":{"location":[46.5049552,6.7090173],"ct":"CH","tp":"SD","ts":"2023-12-06T14:24:06Z","tX":531,"tY":362,"tags":{"access":"yes","fee":"no","note":"16A blu connectot single phase power","water_point":"yes","wheelchair":"yes"}},"4655565490":{"location":[46.3821553,6.856764],"ct":"CH","tp":"CS","ts":"2017-02-02T09:48:03Z","tX":531,"tY":362,"tags":{"addr:postcode":"1897","addr:street":"Route de la Lanche","name":"Camping Les Carettes","name:fr":"Camping Les Carettes"}},"5745740121":{"location":[46.3417174,7.0228666],"ct":"CH","tp":"CR","ts":"2024-09-01T22:39:03Z","tX":531,"tY":362,"tags":{"fee":"yes","name":"Leysin","opening_hours":"24/7","sanitary_dump_station":"yes"}},"8615829829":{"location":[46.39055,6.92416],"ct":"CH","tp":"CR","ts":"2021-04-10T20:00:01Z","tX":531,"tY":362,"tags":{"addr:city":"Villeneuve","addr:postcode":"1844","addr:street":"Route de la Tronchenaz","capacity":"10","description":"Es ist ausdrücklich erlaubt, mit dem Wohnmobil gegen Gebühr zu übernachten, nicht verwirren lassen über eine Parkverbotstafel von 22 - 8 Uhr, die zählt für das übrige Gemeindegebiet.","email":"commune@villeneuve.ch","fee":"CHF 15.-","name":"Stellplatz Villeneuve"}},"9041988306":{"location":[46.542745,6.980402],"ct":"CH","tp":"CR","ts":"2021-08-28T06:25:21Z","tX":531,"tY":362,"tags":{"name":"Stellplatz Rathvel, Châtel-Saint-Denis"}},"9041988307":{"location":[46.513534,6.952587],"ct":"CH","tp":"CR","ts":"2021-08-28T06:25:21Z","tX":531,"tY":362,"tags":{"name":"Stellplatz Joncs, Châtel-Saint-Denis"}},"4383856790":{"location":[46.5056724,6.7102489],"ct":"CH","tp":"SD","ts":"2023-12-06T14:23:25Z","tX":531,"tY":362,"tags":{"access":"yes","fee":"no","water_point":"yes","wheelchair":"yes"}},"8850402427":{"location":[46.45338,6.89422],"ct":"CH","tp":"SD","ts":"2021-06-20T13:19:04Z","tX":531,"tY":362,"tags":{"name":"Chailly Montreux Entsorguungsstation, Montreux","note":"WML CH"}},"8850402429":{"location":[46.395257,6.921583],"ct":"CH","tp":"SD","ts":"2021-06-20T13:19:04Z","tX":531,"tY":362,"tags":{"description":"vor dem Campingplatz, unabhängig vom Camping. Kostenlos.","name":"Euro Relais Station, Villeneuve","note":"WML CH"}},"9674866346":{"location":[46.3861595,6.8596714],"ct":"CH","tp":"SD","ts":"2022-04-24T19:31:04Z","tX":531,"tY":362,"tags":{"access":"customers","sanitary_dump_station:basin":"yes"}},"9690376074":{"location":[46.386543,6.8602562],"ct":"CH","tp":"SD","ts":"2022-04-24T19:31:04Z","tX":531,"tY":362,"tags":{"fee":"yes","sanitary_dump_station:round_drain":"yes"}}}