{"14972269":{"location":[46.3163505,6.9840726],"ct":"CH","tp":"CS","ts":"2022-12-05T00:44:06Z","tX":531,"tY":363,"tags":{}},"16249340":{"location":[46.1924765,7.026466],"ct":"CH","tp":"CS","ts":"2023-08-28T04:48:40Z","tX":531,"tY":363,"tags":{"addr:city":"Saint-Maurice","addr:postcode":"1890","addr:street":"Rte Cantonale","internet_access":"wlan","name":"Camping du Bois Noir","name:fr":"Camping du bois noir","phone":"+41277671252","website":"https://www.campingduboisnoir.ch/"}},"18219774":{"location":[46.1625834,6.860548],"ct":"CH","tp":"CS","ts":"2024-10-28T07:13:53Z","tX":531,"tY":363,"tags":{"name":"Camping du Grand Paradis","stars":"3"}},"329420303":{"location":[46.1977402,6.6897278],"ct":"FR","tp":"CS","ts":"2024-10-04T16:58:07Z","tX":531,"tY":363,"tags":{"addr:housenumber":"281","addr:street":"Route du Pré","caravans":"yes","drinking_water":"yes","fax":"+33 4 50 79 24 76","name":"Camping le Pré","phone":"+33 4 50 79 24 76","power_supply":"yes","shower":"yes","tents":"yes","toilets":"yes","website":"https://www.savoie-mont-blanc.com/offre/fiche/camping-le-pre/74356"}},"379061959":{"location":[46.2574595,6.8299483],"ct":"FR","tp":"CS","ts":"2024-09-12T14:12:11Z","tX":531,"tY":363,"tags":{"addr:housenumber":"1428","addr:street":"Route des Freinets","contact:phone":"+33 4 50 73 21 97","contact:website":"http://www.oustalet.com/","fee":"yes","name":"L'Oustalet","seasonal":"winter;summer","static_caravans":"yes"}},"530262741":{"location":[46.2399367,6.8498262],"ct":"CH","tp":"CR","ts":"2022-01-11T17:49:50Z","tX":531,"tY":363,"tags":{"fee":"yes","internet_access":"wlan","name":"La Mare au Diable","phone":"+41-79-301-3333","stars":"3","website":"http://www.morgins-loisirs.ch/index.php/camping"}},"677625179":{"location":[46.1909053,6.693287],"ct":"FR","tp":"CR","ts":"2025-03-19T10:55:34Z","tX":531,"tY":363,"tags":{"addr:housenumber":"1320","addr:street":"Route de la Plagne","caravan_site":"motorhome_stopover","caravan_site:type":"parking_lot","caravans":"no","charge":"11.50 EUR","drinking_water":"no","fee":"yes","fee:conditional":"no@(Sep 01-Dec 15,Apr 15-May 31)","name":"Aire de stationnement Morzine","name:signed":"no","power_supply":"yes","power_supply:charge":"2 EUR/4 hours","power_supply:fee":"yes","sanitary_dump_station":"yes","tents":"no","website":"https://www.morzine-avoriaz.com/aire-camping-car.html"}},"862430775":{"location":[46.0777145,6.7164895],"ct":"FR","tp":"CS","ts":"2024-09-29T16:17:56Z","tX":531,"tY":363,"tags":{"addr:housenumber":"1064","caravans":"yes","contact:email":"camping.samoens@wanadoo.fr","contact:fax":"+33 4 50 34 98 84","contact:phone":"+33 4 50 34 41 92","name":"Le Giffre","official_name":"Camping Caravaneige Le Giffre","tents":"yes","website":"http://www.camping-samoens.com","wheelchair":"limited"}},"916720250":{"location":[46.2799023,6.7156827],"ct":"FR","tp":"CR","ts":"2024-10-19T15:52:51Z","tX":531,"tY":363,"tags":{"access":"yes","addr:city":"Abondance","addr:postcode":"74360","addr:street":"D22","capacity":"50","caravan_site":"motorhome_stopover","caravan_site:type":"sports_centre","charge":"0 EUR","description":"Aire de camping-car, borne flot bleu pour les services eau et vidange des reservoirs payants","fee":"no","maxstay":"no","name":"Aire de service camping-cars Abondance","opening_hours":"24/7","operator":"Ville de Abondance","power_supply":"no","sanitary_dump_station":"yes","sanitary_dump_station:chemical_toilet":"yes","sanitary_dump_station:grey_water":"yes","sanitary_dump_station:round_drain":"yes","seasonal":"no","supervised":"no","toilets":"no","water_point":"yes","website":"https://ete.abondance-tourisme.com/informations/hotellerie-plein-air/aire-de-service-camping-car/"}},"923366901":{"location":[46.0738971,6.8364537],"ct":"FR","tp":"CS","ts":"2023-11-04T16:12:49Z","tX":531,"tY":363,"tags":{"access":"customers","addr:city":"Sixt-Fer-à-Cheval","addr:housenumber":"9000","addr:postcode":"74740","addr:street":"Route du Pelly","capacity":"104","email":"camping@sixtferacheval.net","fax":"+33 4 50 89 51 02","fee":"yes","name":"Le Pelly","operator:type":"public","phone":"+33 4 50 34 12 17","stars":"2","website":"https://www.lepelly.com/"}},"1085047270":{"location":[46.2931262,6.7837874],"ct":"FR","tp":"CR","ts":"2024-10-08T11:00:10Z","tX":531,"tY":363,"tags":{"addr:city":"La Chapelle-d'Abondance","addr:postcode":"74360","addr:street":"Route de l'Ariot","cabins":"no","caravan_site":"motorhome_stopover","contact:phone":"+33 4 50 73 02 90","contact:website":"https://hiver.lachapelledabondance-tourisme.com/hotellerie-plein-air/aire-de-service-camping-car-abondance-hiver/","dog":"leashed","fee":"no","internet_access":"no","name":"Accueil Camping-Cars La Chapelle d’Abondance","opening_hours":"24/7","operator":"La Chapelle-d'Abondance","operator:type":"public","operator:wikidata":"Q845819","operator:wikipedia":"fr:La Chapelle-d'Abondance","power_supply":"yes","sanitary_dump_station":"yes","sanitary_dump_station:chemical_toilet":"yes","sanitary_dump_station:grey_water":"yes","seasonal":"no","static_caravans":"no","tents":"no","water_point":"yes","website":"https://www.montsdegeneve.com/en/offers/camping-cars-service-area-la-chapelle-dabondance-en-2079557/"}},"1178385320":{"location":[46.256861,6.9862855],"ct":"CH","tp":"CS","ts":"2023-06-02T18:37:24Z","tX":531,"tY":363,"tags":{"access":"private"}},"1315723958":{"location":[46.1400538,6.9925387],"ct":"CH","tp":"CS","ts":"2024-09-15T15:31:02Z","tX":531,"tY":363,"tags":{"dog":"leashed","name":"Van d'en Haut","phone":"+41 27 761 26 61","website":"https://www.campingdevandenhaut.com/tarifs/"}},"1392043239":{"location":[46.107883,7.0072253],"ct":"CH","tp":"CS","ts":"2017-03-18T01:05:33Z","tX":531,"tY":363,"tags":{"name":"Camping Les Marécottes","name:fr":"La Médettaz"}},"3824187288":{"location":[46.2573784,6.8296065],"ct":"FR","tp":"SD","ts":"2019-10-27T12:36:00Z","tX":531,"tY":363,"tags":{}},"10758735998":{"location":[46.1422073,6.772773],"ct":"FR","tp":"CS","ts":"2024-09-28T13:45:05Z","tX":531,"tY":363,"tags":{"backcountry":"yes","camp_site":"basic","caravans":"no","fee":"no","impromptu":"yes","static_caravans":"no","tents":"yes"}},"12219013725":{"location":[46.1908164,6.6929366],"ct":"FR","tp":"CR","ts":"2024-10-08T17:33:24Z","tX":531,"tY":363,"tags":{"addr:housenumber":"1320","addr:street":"Route de la Plagne","caravan_site":"motorhome_stopover","caravan_site:type":"parking_lot","drinking_water":"no","fee":"yes","name:signed":"no","power_supply":"yes","sanitary_dump_station":"yes","website":"https://www.morzine-avoriaz.com/aire-camping-car.html"}},"4374383537":{"location":[46.0771566,6.7190622],"ct":"FR","tp":"SD","ts":"2016-09-11T20:37:05Z","tX":531,"tY":363,"tags":{"sanitary_dump_station:chemical_toilet":"yes","sanitary_dump_station:fee":"yes","sanitary_dump_station:gravity":"yes","sanitary_dump_station:grey_water":"yes","sanitary_dump_station:suction":"no"}},"8514490328":{"location":[46.2802372,6.7154304],"ct":"FR","tp":"SD","ts":"2024-02-24T14:02:58Z","tX":531,"tY":363,"tags":{"access":"yes","charge":"3.80 EUR","description":"Station de vidange pour Camping-car. vidange des eaux noire associée a l'eau payante, donc vidange payante","fee":"yes","operator":"Ville de Abondance","sanitary_dump_station":"public","sanitary_dump_station:chemical_toilet":"yes","sanitary_dump_station:grey_water":"yes","sanitary_dump_station:round_drain":"yes","water_point":"yes"}},"4642006491":{"location":[46.1080478,6.9997286],"ct":"CH","tp":"CR","ts":"2017-01-29T13:55:43Z","tX":531,"tY":363,"tags":{"name":"Peutex","name:fr":"Peutex"}},"8516155468":{"location":[46.2383016,6.8521953],"ct":"CH","tp":"SD","ts":"2021-11-20T14:40:26Z","tX":531,"tY":363,"tags":{"access":"yes","charge":"0 €","description":"Station de vidange pour Camping-car. Il est demandé de ne pas rester stationner sur place qune fois les services fait.","fee":"no","operator":"Ville de Troistorrents","sanitary_dump_station":"public","sanitary_dump_station:chemical_toilet":"yes","sanitary_dump_station:grey_water":"yes","sanitary_dump_station:round_drain":"yes","water_point":"yes"}}}