{"25275551":{"location":[45.9381611,6.8921944],"ct":"FR","tp":"CS","ts":"2024-06-30T16:05:34Z","tX":531,"tY":364,"tags":{"capacity:pitches":"150","caravan":"yes","drinking_water":"yes","fee":"yes","motorhome":"yes","name":"Mer de Glace","openfire":"no","phone":"+33 4 50 53 44 03","picnic_table":"yes","power_supply":"yes","reservation":"no","shower":"yes","stars":"3","tents":"yes","toilets":"yes","washing_machine":"yes","website":"https://chamonix-camping.com/"}},"26858778":{"location":[45.9353688,6.8781192],"ct":"FR","tp":"CS","ts":"2009-08-17T14:57:44Z","tX":531,"tY":364,"tags":{"name":"Les Rosiers"}},"48877406":{"location":[45.9747739,6.9248223],"ct":"FR","tp":"CS","ts":"2020-05-19T21:08:23Z","tX":531,"tY":364,"tags":{"addr:housenumber":"161","addr:street":"Chemin des Chosalets","name":"Camping du Glacier D'Argentiere","website":"https://www.campingchamonix.com/"}},"147709782":{"location":[45.8400102,7.0024646],"ct":"IT","tp":"CS","ts":"2024-07-14T15:36:44Z","tX":531,"tY":364,"tags":{"caravans":"yes","drinking_water":"yes","email":"info@tronchey.com","name":"Tronchey","phone":"+39 0165869707","power_supply":"yes","shower":"yes","tents":"yes","website":"http://www.tronchey.com/"}},"147709783":{"location":[45.832651,6.990896],"ct":"IT","tp":"CS","ts":"2023-11-01T05:57:24Z","tX":531,"tY":364,"tags":{"addr:city":"Courmayeur","addr:housenumber":"53","addr:postcode":"11013","addr:street":"strada della Val Ferret","fax":"+39 0165 902466","name":"Camping Grandes Jorasses","phone":"+39 0165 869708","source":"PCN 2006 Ita","website":"https://www.grandesjorasses.com/"}},"228002171":{"location":[46.0240765,6.9241959],"ct":"FR","tp":"CS","ts":"2023-10-25T19:49:50Z","tX":531,"tY":364,"tags":{"name":"Camping des Montets","phone":"+33 6 79 02 18 81","website":"https://www.camping-montets.com"}},"228002173":{"location":[46.0236668,6.9248287],"ct":"FR","tp":"CS","ts":"2023-10-25T19:49:50Z","tX":531,"tY":364,"tags":{"caravans":"no","name":"Camping des Montets","website":"https://www.camping-montets.com"}},"234567260":{"location":[45.8555646,6.819039],"ct":"FR","tp":"CS","ts":"2021-09-29T20:45:43Z","tX":531,"tY":364,"tags":{"backcountry":"yes","caravans":"no","ele":"3167","name":"Camping de Tête Rousse","name:fr":"Camping de Tête Rousse","name:it":"Campeggio di Tête Rousse","scout":"no","surface":"snow","tents":"50","wheelchair":"no"}},"300460482":{"location":[46.0568938,6.7803081],"ct":"FR","tp":"CR","ts":"2024-09-02T16:37:29Z","tX":531,"tY":364,"tags":{"bbq":"no","capacity":"29","caravan_site":"motorhome_stopover","caravan_site:type":"mountains","caravans":"no","charge":"14.50 EUR","contact:phone":"+33 4 50 34 39 46","dog":"leashed","fee":"no","internet_access":"wlan","maxlength":"9","name":"Camping-Car Park Sixt-Fer-à-Cheval","network":"CAMPING-CAR PARK","opening_hours":"24/7","power_supply":"yes","power_supply:capacity":"32","power_supply:maxcurrent":"6","tents":"no","trailer":"no","water_point":"yes","website":"https://www.campingcarpark.com/fr_FR/sejour/aire-etape-camping-car/auvergne-rhone-alpes/74-haute-savoie/sixt-fer-a-cheval"}},"307485114":{"location":[45.9151241,6.8617832],"ct":"FR","tp":"CS","ts":"2022-03-01T00:12:39Z","tX":531,"tY":364,"tags":{"name":"Camping de L'Ile des Barrats"}},"350464748":{"location":[45.905691,6.8352934],"ct":"FR","tp":"CS","ts":"2022-05-14T14:26:45Z","tX":531,"tY":364,"tags":{"addr:city":"Chamonix-Mont-Blanc","addr:housenumber":"140","addr:postcode":"74400","addr:street":"Chemin des Doux","cabins":"yes","caravans":"yes","dog":"no","drinking_water":"yes","fee":"yes","hot_water":"yes","internet_access":"wlan","name":"Camping Les Marmottes","phone":"+33 6 13411250","picnic_table":"yes","shower":"yes","stars":"3","swimming_pool":"no","tents":"yes","toilets":"yes","washing_machine":"yes","website":"https://camping-lesmarmottes.com/"}},"417318351":{"location":[46.0584844,7.0013673],"ct":"CH","tp":"CS","ts":"2016-05-11T15:29:36Z","tX":531,"tY":364,"tags":{"email":"colforclazhotel@bluewin.ch","fax":"+41 27 723 18 07","name":"Camping de l'Arpille","phone":"+41 27 722 26 88","website":"http://coldelaforclaz.ch"}},"463773645":{"location":[46.0341344,6.7707036],"ct":"FR","tp":"CS","ts":"2022-03-20T23:42:31Z","tX":531,"tY":364,"tags":{"addr:city":"Sixt-Fer-à-Cheval","addr:housenumber":"2870","addr:postcode":"74740","addr:street":"Route du Lignon","contact:email":"contact@mairie-sixtferacheval.fr","contact:fax":"+33 4 50 34 10 14","contact:phone":"+33 4 50 34 44 25","contact:website":"https://www.haut-giffre.fr/camping/aire-municipale-point-accueil-jeunes/","fee":"yes","group_only":"yes","internet_access":"no","maxtents":"25","name":"Point accueil jeune du Pont de Sales","natural":"grassland","opening_hours":"Jul 1-Aug 31","operator":"Mairie de Sixt-Fer-à-Cheval","payment:cheque":"yes","payment:coins":"yes","payment:mastercard":"no","payment:notes":"yes","payment:visa":"no","reservation":"no","tents":"yes"}},"683647558":{"location":[45.9512136,6.7387812],"ct":"FR","tp":"CR","ts":"2024-05-06T21:03:23Z","tX":531,"tY":364,"tags":{"capacity":"8","caravan_site":"motorhome_stopover","caravan_site:type":"ski_resort","fee":"yes","motorhome":"designated","name":"Aire de stationnement Camping Car Plaine Joux","sanitary_dump_station":"yes","surface":"asphalt"}},"707860450":{"location":[45.8982876,6.8307247],"ct":"FR","tp":"CS","ts":"2021-07-24T14:03:03Z","tX":531,"tY":364,"tags":{"name":"Le Grand Champ"}},"729485409":{"location":[45.9014657,6.8406496],"ct":"FR","tp":"CS","ts":"2023-07-19T11:03:13Z","tX":531,"tY":364,"tags":{"addr:city":"Chamonix-Mont-Blanc","addr:country":"FR","addr:housenumber":"325","addr:postcode":"74400","addr:street":"Route des Tissières","capacity":"100","caravans":"yes","name":"Camping GCU de Chamonix-Les Bossons","operator":"Groupement des Campeurs Universitaires","phone":"+33 4 50 53 32 48","sanitary_dump_station":"customers","stars":"2","tents":"yes","website":"https://www.gcu.asso.fr","wheelchair":"yes"}},"830315980":{"location":[45.9288516,6.7693122],"ct":"FR","tp":"CS","ts":"2020-07-26T13:50:34Z","tX":531,"tY":364,"tags":{"caravans":"yes","name":"Camping de la Plaine Saint Jean","source":"data.gouv.fr:DATAtourisme - 05/2020","tents":"yes","website":"http://www.camping-plaine-saint-jean.com/"}},"916558064":{"location":[45.8873719,6.7129021],"ct":"FR","tp":"CR","ts":"2024-10-08T17:45:06Z","tX":531,"tY":364,"tags":{"access":"yes","addr:city":"Saint-Gervais-les-Bains","addr:postcode":"74170","addr:street":"impasse de la cascade","capacity":"30","caravan_site":"motorhome_stopover","caravan_site:type":"parking_lot","charge":"0 €","description":"Aire de camping-car, borne Raclet à jeton disponible à l'office de tourisme, centre ville pour les services","fee":"no","maxstay":"unlimited","motorcar":"yes","name":"Saint-Gervais-les-Bains - Aire Camping Car","operator":"Ville de Saint-Gervais-les-Bains","power_supply":"yes","sanitary_dump_station":"yes","sanitary_dump_station:chemical_toilet":"yes","sanitary_dump_station:grey_water":"yes","sanitary_dump_station:round_drain":"yes","supervised":"no","surface":"asphalt","toilets":"no","water_point":"yes","wheelchair":"yes"}},"916561218":{"location":[45.9783812,6.9250014],"ct":"FR","tp":"CR","ts":"2024-10-04T02:26:45Z","tX":531,"tY":364,"tags":{"access":"yes","addr:city":"Chamonix-Mont-Blanc","addr:postcode":"74400","addr:street":"Chemin des Arbérons","capacity":"100","caravan_site":"motorhome_stopover","caravan_site:type":"ski_resort","caravans":"no","description":"Aire de camping-car, borne Raclet","fee":"no","maxstay":"24 hours","name":"Grands Montets","operator":"Ville de Chamonix-Mont-Blanc","power_supply":"no","sanitary_dump_station":"yes","sanitary_dump_station:chemical_toilet":"yes","sanitary_dump_station:grey_water":"yes","sanitary_dump_station:round_drain":"yes","supervised":"no","tents":"no","water_point":"yes","website":"https://www.chamonix.com/hebergements/aires-camping-cars/aire-de-service-camping-car"}},"1089626085":{"location":[45.9018882,6.8360096],"ct":"FR","tp":"CS","ts":"2024-02-12T13:48:10Z","tX":531,"tY":364,"tags":{"addr:city":"Chamonix-Mont-Blanc","addr:housenumber":"28","addr:postcode":"74400","addr:street":"Route des Tissières","area":"yes","cabins":"yes","caravans":"yes","contact:mobile":"+33-6-50810462","contact:phone":"+33-4-50535893","dog":"yes","email":"infos@campinglescimesmontblanc.com","fee":"yes","internet_access":"wlan","internet_access:fee":"no","name":"Camping Les Cimes","name:en":"Camping Les Cimes","name:fr":"Camping Les Cimes","payment:cash":"yes","power_supply":"yes","shower":"yes","stars":"3","swimming_pool":"no","tents":"yes","website":"https://www.campinglescimesmontblanc.com/"}},"1089627288":{"location":[45.9011851,6.8370071],"ct":"FR","tp":"CS","ts":"2025-05-02T07:26:23Z","tX":531,"tY":364,"tags":{"addr:city":"Chamonix-Mont-Blanc","addr:housenumber":"80","addr:postcode":"74400","addr:street":"Route des Tissières","area":"yes","cabins":"yes","caravans":"yes","drinking_water":"yes","email":"info@les2glaciers.com","fee":"yes","hot_water":"yes","internet_access":"yes","internet_access:fee":"no","name":"Les 2 Glaciers","opening_hours":"Dec 15 - Nov 15","permanent_camping":"yes","phone":"+33 4 50531584","power_supply":"yes","sanitary_dump_station":"yes","shower":"yes","stars":"3","swimming_pool":"no","tents":"yes","toilets":"yes","washing_machine":"yes","website":"http://www.les2glaciers.com/","wheelchair":"yes"}},"1090591832":{"location":[46.0460897,6.9944172],"ct":"CH","tp":"CS","ts":"2022-08-30T19:42:40Z","tX":531,"tY":364,"tags":{"access":"customers","charge":"6 CHF","fee":"yes","name":"Le Peuty","payment:cash":"yes"}},"1190199256":{"location":[45.9058561,6.8364114],"ct":"FR","tp":"CS","ts":"2023-07-23T16:28:19Z","tX":531,"tY":364,"tags":{"addr:city":"Chamonix-Mont-Blanc","addr:housenumber":"279","addr:postcode":"74400","addr:street":"Chemin des Doux","capacity":"39","description":"Camping ombragé de 31 emplacements + 8 locations de bungalows","fee":"yes","hot_water":"yes","internet_access":"yes","name":"Camping les Ecureuils","phone":"+33612062410","shower":"yes","stars":"2","swimming_pool":"no","website":"https://www.campingdesecureuils.fr/fr/?amp"}},"1249503891":{"location":[45.9010302,6.8380217],"ct":"FR","tp":"CS","ts":"2024-02-12T13:48:10Z","tX":531,"tY":364,"tags":{"name":"Les Verneys","phone":"+33 4 50 78 08 15","website":"https://www.camping-les-verneys.com"}},"1313246857":{"location":[45.9177199,6.8730986],"ct":"FR","tp":"CR","ts":"2024-09-04T13:20:11Z","tX":531,"tY":364,"tags":{"caravan_site":"motorhome_stopover","caravan_site:type":"town;skiing;parking_lot","charge":"22 EUR","fee":"yes","name":"Aire Parking du Grépon","opening_hours":"24/7","power_supply":"no","sanitary_dump_station":"yes","seasonal":"no","surface":"asphalt","tents":"no"}},"3655661175":{"location":[45.9222779,6.8288825],"ct":"FR","tp":"CS","ts":"2022-09-07T15:31:21Z","tX":531,"tY":364,"tags":{"backcountry":"yes","description":"bivouac_site"}},"3655661629":{"location":[45.9222257,6.8290917],"ct":"FR","tp":"CS","ts":"2022-09-07T15:31:21Z","tX":531,"tY":364,"tags":{"backcountry":"yes","description":"bivouac_site"}},"4321780489":{"location":[45.9142886,6.8653407],"ct":"FR","tp":"CS","ts":"2024-09-19T06:43:53Z","tX":531,"tY":364,"tags":{"addr:housenumber":"281","addr:street":"Chemin du Cry","cabins":"yes","caravans":"yes","drinking_water":"yes","fee":"yes","hot_water":"yes","internet_access":"wlan","internet_access:fee":"no","name":"Camping Les Arolles","phone":"+33 4 50 53 14 30","picnic_table":"yes","power_supply":"yes","reservation":"no","sanitary_dump_station":"yes","shower":"yes","stars":"2","swimming_pool":"no","tents":"yes","toilets":"yes","website":"https://www.lesarolles.com/","wheelchair":"yes"}},"4948213327":{"location":[45.8378986,6.7591858],"ct":"FR","tp":"CS","ts":"2022-08-08T20:25:28Z","tX":531,"tY":364,"tags":{"backcountry":"yes","name":"Aire de bivouac tolérée de Miage"}},"5652867821":{"location":[45.9092242,6.8502363],"ct":"FR","tp":"CS","ts":"2019-09-08T13:14:10Z","tX":531,"tY":364,"tags":{"name":"Camping Les Molliasses"}},"5718433240":{"location":[45.9948842,6.9274339],"ct":"FR","tp":"CS","ts":"2018-06-25T19:11:11Z","tX":531,"tY":364,"tags":{"name":"Boerne"}},"10005211003":{"location":[45.9491005,6.74259],"ct":"FR","tp":"CS","ts":"2022-09-30T21:07:01Z","tX":531,"tY":364,"tags":{"name":"Aire naturelle de camping de Passy Plaine-Joux","phone":"+33 6 33 98 21 01","website":"https://www.ville-passy-mont-blanc.fr/aire-naturelle"}},"12065245469":{"location":[45.8909827,6.788312],"ct":"FR","tp":"CS","ts":"2024-07-20T20:02:25Z","tX":531,"tY":364,"tags":{"name":"Camping Bellevue"}},"4387256168":{"location":[46.0566323,6.780065],"ct":"FR","tp":"SD","ts":"2016-09-06T14:13:44Z","tX":531,"tY":364,"tags":{"sanitary_dump_station:chemical_toilet":"yes","sanitary_dump_station:fee":"no","sanitary_dump_station:gravity":"yes","sanitary_dump_station:grey_water":"yes","sanitary_dump_station:suction":"no"}},"7040063893":{"location":[45.9513658,6.7391389],"ct":"FR","tp":"SD","ts":"2024-05-06T21:03:23Z","tX":531,"tY":364,"tags":{"access":"yes","charge":"2 EUR","fee":"yes","opening_hours":"24/7","operator":"flots bleus","payment:cash":"yes","payment:coins":"yes","water_point":"yes"}},"7040129322":{"location":[45.9190576,6.7041189],"ct":"FR","tp":"SD","ts":"2019-12-07T09:07:53Z","tX":531,"tY":364,"tags":{"access":"yes","charge":"2 euros","fee":"yes","operator":"flots bleus","payment:cash":"yes","water_point":"yes"}},"8512758211":{"location":[45.8877033,6.7129808],"ct":"FR","tp":"SD","ts":"2021-11-20T14:40:26Z","tX":531,"tY":364,"tags":{"access":"yes","description":"Station de vidange pour Camping-car.","fee":"no","operator":"Ville de Saint-Gervais-les-Bains","sanitary_dump_station":"public","sanitary_dump_station:chemical_toilet":"yes","sanitary_dump_station:grey_water":"yes","sanitary_dump_station:round_drain":"yes","water_point":"yes"}},"8512787528":{"location":[45.9779315,6.924202],"ct":"FR","tp":"SD","ts":"2021-11-20T14:40:26Z","tX":531,"tY":364,"tags":{"access":"yes","description":"Station de vidange pour Camping-car.","fee":"no","operator":"Ville de Chamonix-Mont-Blanc","sanitary_dump_station":"public","sanitary_dump_station:chemical_toilet":"yes","sanitary_dump_station:grey_water":"yes","sanitary_dump_station:round_drain":"yes","water_point":"yes"}},"8512787530":{"location":[45.9186497,6.8740543],"ct":"FR","tp":"SD","ts":"2024-09-04T13:20:11Z","tX":531,"tY":364,"tags":{"access":"yes","fee":"no","operator":"Ville de Chamonix-Mont-Blanc","sanitary_dump_station":"public","sanitary_dump_station:chemical_toilet":"yes","sanitary_dump_station:grey_water":"yes","sanitary_dump_station:round_drain":"yes","water_point":"yes"}},"11181906453":{"location":[46.0308515,7.0112278],"ct":"CH","tp":"CS","ts":"2023-09-10T19:52:10Z","tX":531,"tY":364,"tags":{"description":"Wildcamping. Enough space for 3-4 tents."}}}