{"171525192":{"location":[45.5021185,6.9207717],"ct":"FR","tp":"CS","ts":"2024-09-15T15:41:46Z","tX":531,"tY":366,"tags":{"capacity:pitches":"90","caravans":"yes","name":"Camping municipal de Tignes","opening_hours":"Jun 09 - Sep 09","phone":"+33 7 71 80 42 57","shower":"yes","tents":"yes","toilets":"yes","website":"https://en.tignes.net/resort-guide/directory/hebergements/hebergement-detail?slug=camping-de-tignes"}},"181284970":{"location":[45.4465965,6.9918201],"ct":"FR","tp":"CS","ts":"2024-09-15T18:24:10Z","tX":531,"tY":366,"tags":{"email":"campinglesrichardes@free.fr","name":"Les Richardes","phone":"+33 4 79 06 26 60","website":"http://campinglesrichardes.free.fr/"}},"397898310":{"location":[45.375795,6.7218257],"ct":"FR","tp":"CS","ts":"2024-06-22T22:51:39Z","tX":531,"tY":366,"tags":{"capacity":"152","caravans":"yes","name":"Le Parc Isertan","phone":"+33 4 79 08 75 24","website":"https://www.camping-isertan.com/"}},"451235447":{"location":[45.3771254,6.7255455],"ct":"FR","tp":"CS","ts":"2024-05-25T20:34:49Z","tX":531,"tY":366,"tags":{"addr:housenumber":"193","name":"Le Chamois","phone":"+33 6 59 46 45 34","website":"https://www.aquice.fr/pralognan-camping"}},"486146010":{"location":[45.5604922,6.739136],"ct":"FR","tp":"CR","ts":"2024-10-09T14:05:35Z","tX":531,"tY":366,"tags":{"camp_site":"deluxe","capacity":"23","caravan_site":"motorhome_stopover","caravan_site:type":"mountains;skiing","caravans":"yes","charge":"17 EUR/2 pax","fee":"yes","motorhome":"yes","name":"Camping Caravaneige Montchavin","phone":"+33 4 79 07 83 23","power_supply":"yes","power_supply:fee":"yes","reservation":"yes","sanitary_dump_station":"yes","seasonal":"no","shower":"yes","tents":"yes","toilets":"yes","website":"http://www.campingmontchavin.com/fr/"}},"511767533":{"location":[45.4596433,6.7383481],"ct":"FR","tp":"CS","ts":"2024-06-01T09:39:17Z","tX":531,"tY":366,"tags":{"caravans":"yes","fee":"yes","loc_name":"Camping Municipal Le Canada","name":"Camping le Canada / Huttopia","source":"BDOrtho IGN 2017;local knowledge","static_caravans":"no","tents":"yes"}},"531015591":{"location":[45.576284,6.7358503],"ct":"FR","tp":"CS","ts":"2024-09-07T11:59:26Z","tX":531,"tY":366,"tags":{"addr:city":"Landry","addr:housenumber":"170","addr:postcode":"73210","name":"Eden de la Vanoise","phone":"+33 4 79 07 61 81","website":"https://www.camping-eden-savoie.com/"}},"649735919":{"location":[45.5048741,6.6892945],"ct":"FR","tp":"CR","ts":"2024-09-04T21:11:06Z","tX":531,"tY":366,"tags":{"capacity":"40","caravan_site":"motorhome_stopover","caravan_site:type":"skiing","charge":"22 EUR","charge:conditional":"12 EUR @ \"summer\"","fee":"yes","name":"Plagne Villages","power_supply":"yes","power_supply:maxcurrent":"16","sanitary_dump_station":"yes","website":"https://en.la-plagne.com/accommodation/campsites-and-mobile-homes/plagne-villages-mobile-home-camp-site"}},"1097806968":{"location":[45.5690391,6.7397716],"ct":"FR","tp":"CS","ts":"2023-07-09T16:26:54Z","tX":531,"tY":366,"tags":{"alt_name":"Canop√©e","caravans":"yes","name":"Les Guilles","opening_hours":"Jun 15 - Sep 15","phone":"+33 6 73 90 18 05","shower":"yes","tents":"yes","toilets":"yes","website":"https://www.savoie-mont-blanc.com/en/campings/camping-les-guilles-173992/#"}},"1288150628":{"location":[45.530305,6.7760749],"ct":"FR","tp":"CS","ts":"2024-08-19T17:55:54Z","tX":531,"tY":366,"tags":{"caravans":"yes","contact:email":"camping.lanchettes@gmail.com","fee":"yes","name":"Les Lanchettes","phone":"+33479079307","static_caravans":"yes","tents":"yes","website":"https://www.campinglanchettes.com/"}},"4955251403":{"location":[45.3973306,6.8826822],"ct":"FR","tp":"CS","ts":"2021-08-08T11:02:59Z","tX":531,"tY":366,"tags":{"backcountry":"yes"}},"7728063587":{"location":[45.4136489,6.9652387],"ct":"FR","tp":"CS","ts":"2024-09-28T14:02:05Z","tX":531,"tY":366,"tags":{"backcountry":"yes","name":"Bivouac Sauvage","name:en":"Wild Camp"}},"12089076145":{"location":[45.5423278,6.7781293],"ct":"FR","tp":"CS","ts":"2024-08-02T14:18:59Z","tX":531,"tY":366,"tags":{"name":"Bivouac sauvage"}},"5155142149":{"location":[45.576415,6.735283],"ct":"FR","tp":"SD","ts":"2017-10-08T12:09:11Z","tX":531,"tY":366,"tags":{"sanitary_dump_station:chemical_toilet":"yes"}},"10136155530":{"location":[45.4548718,6.9699303],"ct":"FR","tp":"SD","ts":"2022-10-28T19:32:59Z","tX":531,"tY":366,"tags":{"access":"yes","fee":"no","water_point":"yes"}},"11927064475":{"location":[45.3769613,6.7237347],"ct":"FR","tp":"SD","ts":"2024-05-22T22:15:39Z","tX":531,"tY":366,"tags":{"access":"yes","charge":"6 EUR","fee":"yes","name":"Borne de service Pralognan-la-Vanoise","water_point":"yes","website":"https://www.campingcarpark.com/fr_FR/sejour/aire-services-camping-car/auvergne-rhone-alpes/73-savoie/pralognan-la-vanoise"}},"12156354181":{"location":[45.5053125,6.6890377],"ct":"FR","tp":"SD","ts":"2024-09-04T21:11:06Z","tX":531,"tY":366,"tags":{}}}