{"40347667":{"location":[45.0406611,6.981432],"ct":"IT","tp":"CS","ts":"2024-05-25T21:43:07Z","tX":531,"tY":368,"tags":{"addr:city":"Usseaux","addr:housenumber":"1","addr:street":"Strada comunale dell'inverso","caravans":"yes","name":"Magic Forest","phone":"+39 348 343 7621","shower":"yes","static_caravans":"yes","tents":"yes","toilets":"yes","website":"https://www.campingmagicforest.com/"}},"40364596":{"location":[45.0416517,6.9857413],"ct":"IT","tp":"CR","ts":"2009-09-08T14:27:31Z","tX":531,"tY":368,"tags":{"name":"Il capriolo"}},"65047240":{"location":[44.947906,6.7949009],"ct":"IT","tp":"CR","ts":"2022-03-26T18:03:12Z","tX":531,"tY":368,"tags":{"capacity":"20","description":"Chiusa a tempo indeterminato","drain":"yes","fee":"yes","name":"Area Cesana","power_supply":"yes","start_date":"2022-03-15"}},"126609324":{"location":[44.9299458,6.6815401],"ct":"FR","tp":"CS","ts":"2023-12-25T09:05:02Z","tX":531,"tY":368,"tags":{"addr:city":"Les Alberts","addr:postcode":"05100","caravans":"yes","drinking_water":"yes","landuse":"tourism","name":"Camping Le Bois des Alberts","shower":"yes","source":"Visit june 2012","stars":"2","tents":"yes"}},"145587042":{"location":[45.0618731,6.8674071],"ct":"IT","tp":"CS","ts":"2024-09-01T16:09:32Z","tX":531,"tY":368,"tags":{"access":"customers","addr:city":"Salbertrand","addr:country":"IT","addr:postcode":"10050","addr:street":"Strada Statale 24 del Monginevro","bbq":"yes","cabin:rental":"yes","caravans":"yes","charge":"https://www.campinggranbosco.it/en/price/","drinking_water":"yes","drying:room":"yes","email":"info@campinggranbosco.it","fee":"yes","internet_access":"wlan","internet_access:fee":"no","mapillary":"1415987578735278","mobile_home:rental":"yes","motorcycle:charging":"domestic","motorcycle:parking":"yes","motorcycle:tools":"yes","motorcycle:tours":"info","motorcycle_friendly":"yes","name":"Camping Gran Bosco","opening_hours":"8:30-12:30,15:00-19:30","payment:cash":"yes","payment:credit_cards":"yes","payment:debit_cards":"yes","phone":"+39 0122854653","power_supply":"yes","proprietor:motorcyclist":"yes","sanitary_dump_station":"yes","shower":"yes","stars":"3","tents":"yes","toilets":"yes","website":"https://www.campinggranbosco.it/","wheelchair":"yes"}},"145664639":{"location":[45.0390059,6.8221348],"ct":"IT","tp":"CS","ts":"2023-11-05T10:04:49Z","tX":531,"tY":368,"tags":{"name":"Villaggio Pra Löng","static_caravans":"yes"}},"154702681":{"location":[45.0403074,6.8394292],"ct":"IT","tp":"CS","ts":"2024-06-25T20:26:50Z","tX":531,"tY":368,"tags":{"name":"Pra Vey","phone":"+39 0122 833005"}},"154716140":{"location":[44.9343463,6.7354305],"ct":"FR","tp":"CR","ts":"2024-05-01T11:56:47Z","tX":531,"tY":368,"tags":{"caravan_site":"motorhome_stopover","charge":"20 EUR","ele":"1860","fee":"yes","name":"Les Marmottes","opening_hours":"24/7","phone":"+33492215252","picnic_area":"yes","power_supply":"yes","sanitary_dump_station":"yes","sanitary_dump_station:chemical_toilet":"yes","sanitary_dump_station:grey_water":"yes","seasonal":"no","water_point":"yes","website":"https://montgenevre.com/prestataire/aire-de-camping-car-les-marmottes-5875107/"}},"236623916":{"location":[44.9732518,6.8977442],"ct":"IT","tp":"CS","ts":"2024-11-12T16:06:10Z","tX":531,"tY":368,"tags":{"name":"Camping Chisonetto","website":"https://www.campeggiochisonetto.it/"}},"247116795":{"location":[45.0217163,6.9480388],"ct":"IT","tp":"CS","ts":"2023-03-24T15:32:49Z","tX":531,"tY":368,"tags":{"addr:city":"Pragelato","addr:housenumber":"52","addr:postcode":"10060","addr:street":"Via Nazionale","name":"Villaggio Gofree","website":"https://www.villaggiogofree.com/"}},"489568766":{"location":[45.0413375,6.985042],"ct":"IT","tp":"CR","ts":"2022-01-04T19:48:31Z","tX":531,"tY":368,"tags":{"name":"Magic Forest"}},"511297921":{"location":[44.9370024,6.6834763],"ct":"FR","tp":"CS","ts":"2024-07-28T08:01:22Z","tX":531,"tY":368,"tags":{"addr:city":"Val-des-Prés","addr:hamlet":"Le Rosier","addr:housenumber":"8","addr:postcode":"05100","addr:street":"Route des Alberts","alt_name":"L'Iscle du Rosier","caravans":"yes","landuse":"tourism","name":"La Clarée","operator":"Huttopia","tents":"yes"}},"911238510":{"location":[45.0430885,6.76619],"ct":"IT","tp":"CS","ts":"2024-09-25T13:14:05Z","tX":531,"tY":368,"tags":{"addr:city":"Oulx","addr:housenumber":"1","addr:postcode":"10056","addr:street":"Via Château","cabin:rental":"pod","contact:email":"info@campeggiobeaulard.it","contact:phone":"+39 0122 851794","contact:website":"http://www.campeggiobeaulard.it","dog":"yes","dryer":"yes","fee":"yes","internet_access":"wlan","name":"Camping Beaulard","operator":"Orsa srl","phone:mobile":"socket:cee_blue","power_supply":"yes","power_supply:maxcurrent":"16","shower":"hot","socket:cee_blue":"yes","sport":"bocce;table_tennis","washing_machine":"yes"}},"1077643837":{"location":[44.8944191,6.9192564],"ct":"IT","tp":"CR","ts":"2022-07-11T10:55:44Z","tX":531,"tY":368,"tags":{"internet_access":"no","power_supply":"no","reservation":"no","sanitary_dump_station":"no","source":"survey","surface":"grass"}},"1159097848":{"location":[45.0418971,7.0219724],"ct":"IT","tp":"CR","ts":"2023-04-02T05:58:40Z","tX":531,"tY":368,"tags":{}},"1190779312":{"location":[45.0217234,6.9490121],"ct":"IT","tp":"CR","ts":"2023-07-20T09:09:34Z","tX":531,"tY":368,"tags":{}},"1299486666":{"location":[44.982007,6.9224621],"ct":"IT","tp":"CR","ts":"2024-07-06T09:45:57Z","tX":531,"tY":368,"tags":{}},"1299486667":{"location":[44.9840429,6.9213502],"ct":"IT","tp":"SD","ts":"2024-07-06T09:45:57Z","tX":531,"tY":368,"tags":{}},"1888315701":{"location":[45.0730016,6.7031903],"ct":"IT","tp":"CR","ts":"2021-03-25T10:46:55Z","tX":531,"tY":368,"tags":{"name":"Free Caravan Park"}},"2031973470":{"location":[44.964822,6.8810984],"ct":"IT","tp":"CR","ts":"2019-08-12T06:34:19Z","tX":531,"tY":368,"tags":{"drain":"yes","fee":"yes","name":"Area Camper Sestriere","opening_hours":"Jan-Dec","power_supply":"yes","water":"yes"}},"5053664697":{"location":[45.0134093,6.9428877],"ct":"IT","tp":"CR","ts":"2017-08-23T13:26:22Z","tX":531,"tY":368,"tags":{"fee":"yes","name":"Kinka"}},"5053664714":{"location":[45.006433,6.9350734],"ct":"IT","tp":"CR","ts":"2017-08-28T15:05:30Z","tX":531,"tY":368,"tags":{"fee":"no"}},"5056282738":{"location":[45.0156505,6.9453732],"ct":"IT","tp":"SD","ts":"2017-08-24T13:09:20Z","tX":531,"tY":368,"tags":{"access":"yes","fee":"no","water_point":"yes"}},"7711066310":{"location":[45.0625135,6.8681851],"ct":"IT","tp":"SD","ts":"2024-09-01T16:09:18Z","tX":531,"tY":368,"tags":{"access":"customers","fee":"no","water_point":"yes"}},"9281931798":{"location":[45.0722588,6.8921396],"ct":"IT","tp":"SD","ts":"2022-01-19T21:10:23Z","tX":531,"tY":368,"tags":{}},"7749947085":{"location":[44.993775,6.7045254],"ct":"FR","tp":"CS","ts":"2024-09-29T13:49:18Z","tX":531,"tY":368,"tags":{"backcountry":"yes","description":"Camping sauvage","description:en":"Wild camp"}}}