{"177020994":{"location":[44.8111875,6.9666101],"ct":"FR","tp":"CS","ts":"2023-12-28T09:38:56Z","tX":531,"tY":369,"tags":{"access":"customers","addr:city":"Abriès-Ristolas","addr:postcode":"05460","addr:street":"Valpreveyre","capacity":"40","email":"mairie@abries-ristolas.fr","fee":"yes","internet_access":"no","landuse":"tourism","name":"Camping Municipal de Valpréveyre (Abriès)","opening_hours":"Jun 15-Sep 15 Mo-Su 00:00-24:00","payment:cash":"yes","payment:cheque":"yes","phone":"+33 4 92 44 31 83","website":"https://www.queyras-montagne.com/camping-municipal-de-valpreveyre.html#media","wheelchair":"yes"}},"308169082":{"location":[44.6611401,6.7810827],"ct":"FR","tp":"CS","ts":"2024-07-19T18:12:22Z","tX":531,"tY":369,"tags":{"access":"customers","capacity":"60","caravans":"yes","contact:email":"camping@ceillac.fr","contact:phone":"+33 4 92 45 17 89","fee":"yes","internet_access":"wlan","landuse":"tourism","name":"Camping Municipal les Moutets","opening_hours":"Jun 15-Sep 30 Mo-Su 00:00-24:00","operator":"Mairie de Ceillac","payment:cash":"yes","payment:cheque":"yes","payment:credit_cards":"yes","phone":"+33 4 92 45 17 89","stars":"1","tents":"yes","website":"https://ceillac.fr/pratique/campings/","wheelchair":"yes"}},"311990104":{"location":[44.6208274,7.0294136],"ct":"IT","tp":"CS","ts":"2024-09-06T08:19:16Z","tX":531,"tY":369,"tags":{"caravans":"yes","contact:mobile":"+39 320 1143396","contact:phone":"+39 0175 950194","email":"actitorino@libero.it","name":"Camping Montano Luigi Bergera","operator":"Acti Lago","tents":"yes","website":"https://www.actitorino.it/"}},"514894214":{"location":[44.7887464,6.8927206],"ct":"FR","tp":"CS","ts":"2021-02-21T10:05:51Z","tX":531,"tY":369,"tags":{"access":"customers","addr:city":"Aiguilles","addr:postcode":"05460","dog":"yes","email":"accueil@camping-gouret.fr","fee":"yes","group_only":"no","internet_access":"wlan","internet_access:fee":"no","landuse":"tourism","name":"Le Gouret","openfire":"yes","opening_hours":"Jul 01-Sep 15 Mo-Su 00:00-24:00","payment:cash":"yes","payment:coins":"yes","payment:credit_cards":"yes","payment:debit_cards":"yes","payment:mastercard":"yes","payment:visa":"yes","phone":"+33 4 92 46 74 61","power_supply":"yes","reservation":"recommended","shower":"yes","toilets":"yes","website":"https://www.camping-gouret.fr/","wheelchair":"limited"}},"515647922":{"location":[44.6213392,7.0278911],"ct":"IT","tp":"CR","ts":"2024-09-06T08:19:16Z","tX":531,"tY":369,"tags":{"fee":"yes","internet_access":"yes","name":"Area Camper Libac","power_supply":"yes","sanitary_dump_station":"yes","website":"https://www.campinglibac.it/area_di_sosta.asp"}},"613652236":{"location":[44.772557,6.8500105],"ct":"FR","tp":"CS","ts":"2023-11-01T20:35:37Z","tX":531,"tY":369,"tags":{"addr:city":"Aiguilles","addr:country":"FR","addr:postcode":"05470","addr:street":"Chemin du Bois Forant","capacity":"60","caravans":"yes","internet_access":"yes","landuse":"tourism","name":"Camping GCU de Aiguilles","operator":"Groupement des Campeurs Universitaires","phone":"+33 4 92 46 79 48","reservation":"members_only","stars":"2","tents":"yes","website":"https://www.gcu.asso.fr/"}},"642257537":{"location":[44.620805,7.0275489],"ct":"IT","tp":"CS","ts":"2024-09-06T08:19:16Z","tX":531,"tY":369,"tags":{"addr:city":"Pontechianale","addr:housenumber":"41","addr:street":"Frazione Maddalena","caravans":"yes","dog":"yes","internet_access":"yes","motorhome":"yes","name":"Campeggio Libac","permanent_camping":"yes","phone":"+39 0175 950194","power_supply":"yes","socket:cee_blue":"yes","tents":"yes","washing_machine":"yes","website":"https://www.campinglibac.it/"}},"810246982":{"location":[44.6538875,6.7886925],"ct":"FR","tp":"CS","ts":"2021-02-23T22:04:53Z","tX":531,"tY":369,"tags":{"access":"customers","addr:city":"Ceillac","addr:postcode":"05600","addr:street":"La rua des Reynaud","capacity":"100","caravans":"yes","contact:email":"contact@campingdeceillac.com","email":"contact@campingdeceillac.com","fee":"yes","internet_access":"wlan","name":"Les Mélèzes","opening_hours":"Jun 01-Sep 06 Mo-Su 00:00-24:00","payment:cash":"yes","payment:credit_cards":"yes","phone":"+33 4 92 45 21 93","stars":"3","tents":"yes","website":"http://www.campingdeceillac.com/","wheelchair":"yes"}},"816406607":{"location":[44.7242241,6.8644045],"ct":"FR","tp":"CS","ts":"2023-06-23T18:35:48Z","tX":531,"tY":369,"tags":{"access":"customers","addr:city":"Molines-en-Queyras","addr:postcode":"05350","addr:street":"Aire naturelle Chanterane","capacity":"25","caravans":"yes","contact:email":"contact@chanterane.net","contact:mobile":"+33 6 61 41 28 26","contact:phone":"+33 4 92 45 89 70","elevation":"1900","email":"contact@chanterane.net","fax":"+33 4 92 45 89 70","fee":"yes","internet_access":"wlan","mobile":"+33 6 61 41 28 26","name":"Camping de Chanterane","nudism":"no","opening_hours":"Jun 15-Sep 15 Mo-Su 00:00-24:00","phone":"+33 4 92 45 89 70","shower":"yes","tents":"yes","toilets":"yes","toilets:wheelchair":"yes","website":"http://www.chanterane.net/"}},"816428459":{"location":[44.7908567,6.9287802],"ct":"FR","tp":"CS","ts":"2024-03-03T05:16:24Z","tX":531,"tY":369,"tags":{"access":"customers","addr:city":"Abriès","addr:postcode":"05460","capacity":"67","caravans":"yes","contact:email":"queyras-caravaneige@laposte.net","contact:phone":"+33 6 03 15 20 44","drinking_water":"yes","fee":"yes","internet_access":"wlan","name":"Queyras Caravaneige","opening_hours":"24/7","phone":"+33 6 03 15 20 44","power_supply":"yes","sanitary_dump_station":"yes","shower":"yes","stars":"2","tents":"yes","toilets":"yes","website":"https://www.queyras-caravaneige.fr/","wheelchair":"yes"}},"816430401":{"location":[44.7997375,6.7165122],"ct":"FR","tp":"CS","ts":"2023-08-26T09:21:26Z","tX":531,"tY":369,"tags":{"access":"customers","addr:city":"Arvieux","addr:postcode":"05350","caravans":"yes","contact:phone":"+33 6 33 33 98 12","drinking_water":"yes","email":"campingizoard@gmail.com","fee":"yes","name":"Camping de l'Izoard","opening_hours":"Jun 06-Sep 13 Mo-Su 00:00-24:00","payment:cash":"yes","payment:cheque":"yes","phone":"+33 6 33 33 98 12","power_supply":"yes","shower":"yes","stars":"2","tents":"yes","toilets":"yes","website":"https://campingdelizoard.com"}},"816433379":{"location":[44.7682763,6.9777707],"ct":"FR","tp":"CS","ts":"2023-11-01T20:35:33Z","tX":531,"tY":369,"tags":{"access":"customers","addr:city":"Abriès-Ristolas","addr:postcode":"05460","addr:street":"La Monta","capacity":"44","caravans":"yes","contact:email":"campinglamonta@aol.com","email":"campinglamonta@aol.com","fee":"yes","internet_access":"wlan","name":"Camping Municipal du Chardonnet Ou La Monta","opening_hours":"Jun 01-Sep 30 Mo-Su 00:00-24:00","payment:cash":"yes","payment:cheque":"yes","phone":"+33 4 92 46 87 79","tents":"yes","website":"https://camping-queyras.com/"}},"914135351":{"location":[44.719584,6.847344],"ct":"FR","tp":"CR","ts":"2024-10-04T03:35:43Z","tX":531,"tY":369,"tags":{"access":"yes","addr:city":"Molines-en-Queyras","addr:postcode":"05350","addr:street":"Les Taoures","capacity":"10","caravan_site":"motorhome_stopover","caravan_site:type":"skiing","fee":"no","maxstay":"no","name":"Molines-en-Queyras","operator":"Ville de Molines-en-Queyras","power_supply":"no","power_supply:charge":"3€/4 hours","power_supply:fee":"yes","sanitary_dump_station":"yes","sanitary_dump_station:charge":"3€/20 minutes","sanitary_dump_station:chemical_toilet":"yes","sanitary_dump_station:fee":"yes","sanitary_dump_station:grey_water":"yes","sanitary_dump_station:round_drain":"yes","supervised":"no","tents":"no","water_point":"yes","website":"https://molinesenqueyras.fr/fr/rb/1684191/camping-car-bornes-electriques"}},"11145662605":{"location":[44.8103599,6.8866766],"ct":"FR","tp":"CS","ts":"2023-08-26T07:02:00Z","tX":531,"tY":369,"tags":{"name":"bivouac possible","name:en":"place for tents"}},"8491453026":{"location":[44.719739,6.8474457],"ct":"FR","tp":"SD","ts":"2024-10-04T03:35:43Z","tX":531,"tY":369,"tags":{"fee":"no","operator":"Ville de Molines-en-Queyras","sanitary_dump_station:chemical_toilet":"yes","sanitary_dump_station:grey_water":"yes","sanitary_dump_station:round_drain":"yes","water_point":"yes"}}}