{"26858587":{"location":[43.7018949,6.9952686],"ct":"FR","tp":"CS","ts":"2024-10-09T13:27:18Z","tX":531,"tY":373,"tags":{"addr:city":"Le-Bar-sur-Loup","addr:country":"FR","addr:housenumber":"965","addr:postcode":"06620","addr:street":"Chemin des Vergers","caravans":"yes","fee":"yes","name":"Les Gorges du Loup","phone":"+33 4 93 42 45 06","static_caravans":"no","tents":"yes","url":"http://www.lesgorgesduloup.com"}},"108220686":{"location":[43.7789119,6.7333516],"ct":"FR","tp":"CR","ts":"2024-10-08T22:47:50Z","tX":531,"tY":373,"tags":{"access":"yes","addr:city":"Caille","addr:postcode":"06750","addr:street":"Rue des Écuries","capacity":"2","caravan_site":"motorhome_stopover","caravan_site:type":"countryside","fee":"no","name":"Aire Camping-car de Caille","power_supply":"yes","sanitary_dump_station":"yes","tents":"no","water_point":"yes","water_point:fee":"yes"}},"156251395":{"location":[43.5900311,6.940539],"ct":"FR","tp":"CS","ts":"2024-07-21T12:39:22Z","tX":531,"tY":373,"tags":{"access":"customers","check_date":"2022-06-07","fee":"yes","internet_access":"no","landuse":"tourism","name":"Camping Saint-Louis","payment:mastercard":"yes","payment:visa":"yes","website":"https://www.campingsaintlouis.com/","wheelchair":"yes"}},"158249693":{"location":[43.5895855,6.9218727],"ct":"FR","tp":"CS","ts":"2023-10-30T04:05:29Z","tX":531,"tY":373,"tags":{"contact:email":"robert.marchive@wanadoo.fr","contact:phone":"+334 93 42 36 11","landuse":"tourism","name":"Les Mimosas","source":"cadastre-dgi-fr source : Direction Générale des Impôts - Cadastre. Mise à jour : 2012","stars":"3","website":"https://www.campinglesmimosas.fr/"}},"299491655":{"location":[43.6920586,6.8639604],"ct":"FR","tp":"CS","ts":"2020-06-12T14:37:47Z","tX":531,"tY":373,"tags":{"addr:city":"Saint Vallier de Thiey","addr:housenumber":"755","addr:postcode":"06460","addr:street":"RD (Route Départementale) 6085","capacity":"120 emplacements","contact:phone":"+33 6 87 51 59 96","landuse":"tourism","name":"Parc des Arboins","source":"cadastre-dgi-fr source : Direction Générale des Impôts - Cadastre. Mise à jour : 2014"}},"364806775":{"location":[43.609184,6.7207344],"ct":"FR","tp":"CS","ts":"2019-03-22T20:05:51Z","tX":531,"tY":373,"tags":{"addr:city":"Tourrettes","addr:housenumber":"2542","addr:postcode":"83440","addr:street":"RD 562","area":"yes","contact:email":"campinglegrillon@hotmail.fr","contact:phone":"+33 4 94 76 09 36","contact:website":"http://www.campinglegrillon.com/","landuse":"tourism","name":"Le Grillon"}},"414789550":{"location":[43.635837,6.94923],"ct":"FR","tp":"CS","ts":"2024-12-03T11:43:45Z","tX":531,"tY":373,"tags":{"addr:city":"Grasse","addr:housenumber":"160","addr:postcode":"06130","addr:street":"Route de Cannes","landuse":"tourism","name":"Camping la Paoute","stars":"3","website":"https://www.campinglapaoute.com/emplacement.html"}},"473329454":{"location":[43.6054843,6.9023334],"ct":"FR","tp":"CS","ts":"2019-03-22T20:06:11Z","tX":531,"tY":373,"tags":{"contact:phone":"+334 93 60 91 71","landuse":"tourism","name":"Le Parc des Monges","stars":"3","website":"https://www.parcdesmonges.com/","wheelchair":"yes"}},"662198542":{"location":[43.6004832,6.7736184],"ct":"FR","tp":"CS","ts":"2024-06-10T16:23:06Z","tX":531,"tY":373,"tags":{"landuse":"tourism","name":"Le Lac","phone":"+33 4 94 76 46 26","stars":"3","website":"https://campingdulac.fr/"}},"679201072":{"location":[43.6060966,6.7482384],"ct":"FR","tp":"CS","ts":"2024-06-10T16:23:06Z","tX":531,"tY":373,"tags":{"landuse":"tourism","name":"Les Prairies","phone":"+33 6 86 86 05 77","stars":"2","website":"https://campingdesprairies.com/"}},"730448993":{"location":[43.6129296,6.7270122],"ct":"FR","tp":"CS","ts":"2024-05-30T09:59:19Z","tX":531,"tY":373,"tags":{"addr:city":"Tourrettes","addr:country":"FR","addr:postcode":"83440","addr:street":"Chemin de Lacaté","capacity":"74","caravans":"yes","fee":"yes","name":"GCU Tourrettes","operator":"Groupement des Campeurs Universitaires","phone":"+33 4 94 39 84 60","stars":"2","static_caravans":"no","tents":"yes","website":"https://www.gcu.asso.fr/terrains/tourrettes-var-83","wheelchair":"limited"}},"775341372":{"location":[43.65891,6.9911097],"ct":"FR","tp":"CS","ts":"2024-12-03T11:39:57Z","tX":531,"tY":373,"tags":{"caravan":"no","name":"Camping l'Orée d'Azur","stars":"4","tents":"no","website":"https://www.capfun.de/camping-frankreich-provence_alpes_cote_d_azur-oree_azur-DE.html"}},"1102349895":{"location":[43.6065134,6.7712511],"ct":"FR","tp":"CS","ts":"2011-01-13T18:39:59Z","tX":531,"tY":373,"tags":{"name":"Les Chaumettes"}},"1190495580":{"location":[43.6246491,6.6967584],"ct":"FR","tp":"CR","ts":"2024-10-08T17:48:39Z","tX":531,"tY":373,"tags":{"capacity":"3","caravan_site":"motorhome_stopover","caravan_site:type":"parking_lot","fee":"no","maxstay":"48 hours","motorhome":"designated","name":"P3 Fayence","seasonal":"no","tents":"no"}},"1190495582":{"location":[43.6218368,6.693072],"ct":"FR","tp":"CR","ts":"2024-10-08T22:53:13Z","tX":531,"tY":373,"tags":{"capacity":"2","caravan_site":"motorhome_stopover","caravan_site:type":"village","fee":"no","maxstay":"48 hours","name":"Fayence Le ferrage","power_supply":"no","sanitary_dump_station":"no","seasonal":"no","surface":"asphalt","tents":"no","water_point":"no"}},"1207112119":{"location":[43.8315244,6.9684916],"ct":"FR","tp":"SD","ts":"2023-09-12T09:08:06Z","tX":531,"tY":373,"tags":{"access":"yes","fee":"yes","operator":"Commune de Gréolières"}},"1282138727":{"location":[43.6229895,6.6902199],"ct":"FR","tp":"CR","ts":"2024-10-08T22:53:13Z","tX":531,"tY":373,"tags":{"capacity":"2","caravan_site":"motorhome_stopover","caravan_site:type":"parking_lot","fee":"no","internet_access":"no","maxstay":"48 hours","name":"Aire Municipale du Grand Jardin","opening_hours":"24/7","power_supply":"no","sanitary_dump_station":"u","seasonal":"no","surface":"asphalt","tents":"no","water_point":"yes","water_point:fee":"yes","website":"https://www.paysdefayence.com/campings/aire-de-services-municipales-camping-car-fayence/"}},"1285678701":{"location":[43.5989249,6.7829552],"ct":"FR","tp":"CR","ts":"2024-05-22T17:14:55Z","tX":531,"tY":373,"tags":{"bbq":"no","capacity":"31","caravan_site":"motorhome_stopover","caravan_site:type":"village; river","charge":"16.07 EUR","dog":"leashed","fee":"yes","internet_access":"wlan","maxlength":"9","name":"Aire Camping-car Montauroux, Lac de Saint-Cassien","network":"CAMPING-CAR PARK","opening_hours":"24/7","power_supply":"yes","power_supply:capacity":"32","power_supply:maxcurrent":"6","sanitary_dump_station":"yes","tents":"no","trailer":"yes","water_point":"yes","website":"https://www.campingcarpark.com/fr_FR/sejour/aire-etape-camping-car/provence-alpes-cote-dazur/83-var/montauroux"}},"1322583035":{"location":[43.7023335,6.995356],"ct":"FR","tp":"CS","ts":"2024-10-09T13:27:18Z","tX":531,"tY":373,"tags":{"name":"Les Gorges du Loup"}},"3465800937":{"location":[43.5823122,6.9890437],"ct":"FR","tp":"CS","ts":"2015-04-19T17:44:25Z","tX":531,"tY":373,"tags":{"name":"L'Eau Vive"}},"12296217401":{"location":[43.6612926,6.9327557],"ct":"FR","tp":"CS","ts":"2024-10-29T10:13:19Z","tX":531,"tY":373,"tags":{"contact:city":"Grasse","contact:housenumber":"34","contact:phone":"+33 4 93 40 61 61","contact:postcode":"06130","contact:street":"Avenue Antoine de Saint-Exupéry","name":"AEC Vacances - Les Cèdres, Grasse","website":"https://www.aec-vacances.com/fr/villages-vacances-aec/grasse"}},"5139729988":{"location":[43.6229598,6.690014],"ct":"FR","tp":"SD","ts":"2024-05-12T11:51:04Z","tX":531,"tY":373,"tags":{"fee":"yes","motorhome":"yes","power_supply":"yes","water_point":"yes"}},"12236456764":{"location":[43.7789191,6.7332123],"ct":"FR","tp":"SD","ts":"2024-10-08T22:47:50Z","tX":531,"tY":373,"tags":{"access":"yes","brand":"Flot Bleu","fee":"yes","water_point":"yes","water_point:fee":"yes"}}}