{"26283303":{"location":[43.4163294,6.8479197],"ct":"FR","tp":"CS","ts":"2023-04-19T21:47:27Z","tX":531,"tY":374,"tags":{"addr:housenumber":"986","contact:phone":"+33 9 70 82 50 00","landuse":"tourism","name":"Le Dramont","operator":"Campéole","stars":"3","website":"https://www.laplagedudramont.com/"}},"32601571":{"location":[43.3938743,6.7238067],"ct":"FR","tp":"CS","ts":"2024-06-24T15:21:07Z","tX":531,"tY":374,"tags":{"caravans":"yes","drinking_water":"yes","internet_access":"wlan","landuse":"tourism","name":"Camping de Saint-Aygulf Plage","opening_hours":"Mo-Su 08:30-12:30, 14:30-18:30; Dec-Feb off","power_supply":"yes","shower":"yes","tents":"yes","toilets":"yes","toilets:wheelchair":"yes","website":"https://www.campingdesaintaygulf.fr/","wheelchair":"yes"}},"38024097":{"location":[43.4479349,6.729912],"ct":"FR","tp":"CS","ts":"2022-01-29T17:08:17Z","tX":531,"tY":374,"tags":{"landuse":"tourism","name":"Colombier","website":"https://www.domaine-du-colombier.com/"}},"48434345":{"location":[43.409261,6.7260933],"ct":"FR","tp":"CS","ts":"2021-12-09T02:22:04Z","tX":531,"tY":374,"tags":{"addr:city":"Saint Aygulf","addr:housenumber":"541","addr:postcode":"83370","addr:street":"Route Départementale 559","landuse":"tourism","name":"La Plage d'Argens","opening_hours":"Dec-Feb off \"Fermé en hiver\"","operator":"AMAC","phone":"+33 4 82 75 10 41","stars":"3","website":"https://www.laplagedargens.fr","wheelchair":"limited"}},"110300924":{"location":[43.4096433,6.7113343],"ct":"FR","tp":"CS","ts":"2023-03-12T19:24:05Z","tX":531,"tY":374,"tags":{"caravans":"yes","name":"Riviera d'Azur","opening_hours":"Apr-Oct open; Nov-Mar off","operator":"Sandaya","phone":"+33 494810159","shower":"yes","stars":"5","tents":"yes","toilets":"yes","website":"https://www.sandaya.co.uk/our-campsites/riviera-d-azur/pitches#menu"}},"127056366":{"location":[43.5562484,6.9590157],"ct":"FR","tp":"CS","ts":"2021-07-31T13:21:51Z","tX":531,"tY":374,"tags":{"addr:housenumber":"67","addr:street":"Avenue Maurice Chevalier","landuse":"tourism","name":"Parc Bellevue","url":"https://parcbellevue.com"}},"127069983":{"location":[43.5654022,6.9766108],"ct":"FR","tp":"CS","ts":"2021-04-14T08:58:43Z","tX":531,"tY":374,"tags":{"landuse":"tourism","name":"Le Ranch"}},"172727575":{"location":[43.4199364,6.8563844],"ct":"FR","tp":"CS","ts":"2019-03-22T20:05:22Z","tX":531,"tY":374,"tags":{"landuse":"tourism","name":"Royal Camping","website":"http://www.royalcamping.net"}},"274893939":{"location":[43.4600313,6.6954774],"ct":"FR","tp":"CS","ts":"2019-03-22T20:05:39Z","tX":531,"tY":374,"tags":{"landuse":"tourism","name":"Camping des Aubrèdes"}},"275133620":{"location":[43.4533162,6.8350737],"ct":"FR","tp":"CS","ts":"2022-05-26T08:27:10Z","tX":531,"tY":374,"tags":{"landuse":"tourism","name":"Esterel"}},"302256143":{"location":[43.4936607,6.717824],"ct":"FR","tp":"CS","ts":"2024-07-19T20:56:01Z","tX":531,"tY":374,"tags":{"addr:city":"Fréjus","addr:postcode":"83603","addr:street":"Route de Fréjus","internet_access":"wlan","internet_access:fee":"yes","landuse":"tourism","name":"Domaine du Pin de la Lègue","note":"Camping privé","phone":"+33 498118440","website":"https://www.domainedupindelalegue.fr/"}},"303280235":{"location":[43.4329205,6.8681639],"ct":"FR","tp":"CS","ts":"2024-05-29T20:20:05Z","tX":531,"tY":374,"tags":{"caravans":"yes","drinking_water":"yes","internet_access":"yes","internet_access:fee":"yes","landuse":"tourism","name":"Agay Soleil","phone":"+33 4 94 82 00 79","power_supply":"yes","sanitary_dump_station":"yes","shower":"hot","tents":"yes","toilets":"yes","website":"https://www.camping-agay-soleil.com/"}},"303280236":{"location":[43.4373125,6.8514111],"ct":"FR","tp":"CS","ts":"2022-05-27T15:23:04Z","tX":531,"tY":374,"tags":{"landuse":"tourism","name":"Camping La Vallée du Paradis","phone":"+33 4 94 82 16 00","website":"http://www.camping-vallee-du-paradis.fr"}},"303280454":{"location":[43.4336004,6.8524935],"ct":"FR","tp":"CS","ts":"2024-05-11T15:01:22Z","tX":531,"tY":374,"tags":{"caravans":"yes","drinking_water":"yes","landuse":"tourism","name":"Rive de l'Agay","phone":"+33 4 94 82 02 74","shower":"yes","tents":"yes","website":"http://www.lesrivesdelagay.fr"}},"341304145":{"location":[43.5222325,6.9303084],"ct":"FR","tp":"CS","ts":"2019-03-22T20:05:48Z","tX":531,"tY":374,"tags":{"addr:city":"Mandelieu-la-Napoule","addr:country":"FR","addr:housename":"Camping Côté Mer","addr:housenumber":"630","addr:postcode":"06210","addr:street":"Boulevard de Bon Puits","email":"info@campingcotemer.fr","landuse":"tourism","name":"Camping Côté Mer","phone":"+33 4 93 49 94 19","source":"Microsoft Bing orbital imagery","stars":"3","website":"http://www.campingcotemer.fr"}},"341409665":{"location":[43.4626002,6.7192195],"ct":"FR","tp":"CS","ts":"2022-04-26T21:46:36Z","tX":531,"tY":374,"tags":{"addr:city":"Fréjus","addr:postcode":"83600","addr:street":"Rue des Combattants en Afrique du Nord","contact:website":"http://www.labaume-lapalmeraie.com/","landuse":"tourism","name":"La Baume - La Palmeraie","stars":"5"}},"341409670":{"location":[43.4636047,6.7234511],"ct":"FR","tp":"CS","ts":"2019-03-19T15:44:12Z","tX":531,"tY":374,"tags":{"contact:website":"http://www.lefrejus.com/","landuse":"tourism","name":"Le Frejus","stars":"3"}},"341409674":{"location":[43.4638381,6.7270794],"ct":"FR","tp":"CS","ts":"2019-03-19T15:44:12Z","tX":531,"tY":374,"tags":{"contact:website":"http://lespinsparasols.com/","landuse":"tourism","name":"Les Pins Parasols","stars":"4"}},"426112199":{"location":[43.4379069,6.889826],"ct":"FR","tp":"CS","ts":"2024-08-25T16:57:52Z","tX":531,"tY":374,"tags":{"caravans":"yes","contact:phone":"+334 94 44 83 12","drinking_water":"yes","landuse":"tourism","name":"Azur Rivage","power_supply":"yes","sanitary_dump_station":"yes","shower":"yes","tents":"yes","toilets":"yes","website":"https://www.camping-azur-rivage.com/"}},"426113509":{"location":[43.437916,6.8891511],"ct":"FR","tp":"CS","ts":"2024-08-25T16:57:48Z","tX":531,"tY":374,"tags":{"caravans":"yes","contact:phone":"+33 4 94 44 82 31","drinking_water":"yes","fee":"yes","landuse":"tourism","name":"Le Viaduc","power_supply":"yes","sanitary_dump_station":"yes","shower":"yes","tents":"yes","toilets":"yes"}},"579860207":{"location":[43.4471315,6.8026983],"ct":"FR","tp":"CS","ts":"2019-03-22T20:06:16Z","tX":531,"tY":374,"tags":{"landuse":"tourism","name":"Sandaya Douce Quiétude"}},"583055054":{"location":[43.4163312,6.8118574],"ct":"FR","tp":"CS","ts":"2019-03-22T20:06:17Z","tX":531,"tY":374,"tags":{"landuse":"tourism","source":"Cadastre"}},"597419424":{"location":[43.4524584,6.7277588],"ct":"FR","tp":"CS","ts":"2019-03-22T20:06:18Z","tX":531,"tY":374,"tags":{"landuse":"tourism","stars":"2"}},"617153002":{"location":[43.4561239,6.73531],"ct":"FR","tp":"CS","ts":"2021-12-25T23:31:11Z","tX":531,"tY":374,"tags":{"landuse":"tourism","name":"Le Montourey"}},"621439466":{"location":[43.4181625,6.7066366],"ct":"FR","tp":"CS","ts":"2024-09-20T10:31:24Z","tX":531,"tY":374,"tags":{"addr:city":"Fréjus","addr:housenumber":"121","addr:postcode":"83370","addr:street":"Chemin des Étangs","fee":"yes","landuse":"tourism","name":"L'Étoile d'Argens","stars":"4"}},"621439478":{"location":[43.4192591,6.7042563],"ct":"FR","tp":"CS","ts":"2019-03-22T20:06:21Z","tX":531,"tY":374,"tags":{"landuse":"tourism","name":"La Barque"}},"627100599":{"location":[43.486083,6.7174168],"ct":"FR","tp":"CS","ts":"2022-02-18T07:28:51Z","tX":531,"tY":374,"tags":{"caravans":"yes","internet_access":"wlan","internet_access:fee":"no","landuse":"tourism","name":"Camping Holiday Green","operator":"Sunêlia","sanitary_dump_station":"no","stars":"5","tents":"yes","wheelchair":"limited"}},"729540086":{"location":[43.528674,6.8409684],"ct":"FR","tp":"CS","ts":"2019-09-29T12:29:20Z","tX":531,"tY":374,"tags":{"caravans":"yes","email":"info@lesphilippons.com","name":"Les Philippons","phone":"+33 4 94 40 90 67","tents":"yes","website":"https://www.lesphilippons.com"}},"730448986":{"location":[43.5632544,6.9665062],"ct":"FR","tp":"CS","ts":"2023-10-30T04:09:27Z","tX":531,"tY":374,"tags":{"addr:city":"Le Cannet","addr:country":"FR","addr:housenumber":"22","addr:postcode":"06110","addr:street":"Boulevard Jean Moulin","capacity":"45","caravans":"yes","name":"Camping GCU de Cannes","operator":"Groupement des Campeurs Universitaires","phone":"+33 4 93 90 80 93","sanitary_dump_station":"customers","stars":"1","tents":"yes","website":"https://www.gcu.asso.fr/","wheelchair":"limited"}},"731938056":{"location":[43.5423414,6.9231422],"ct":"FR","tp":"CS","ts":"2019-10-05T17:17:51Z","tX":531,"tY":374,"tags":{"internet_access":"wlan","internet_access:fee":"no","name":"Artcamping Plateau des Chasses","tents":"yes","website":"https://www.campingduplateaudeschasses.fr"}},"734418688":{"location":[43.5302675,6.9299766],"ct":"FR","tp":"CS","ts":"2019-10-14T11:02:21Z","tX":531,"tY":374,"tags":{"caravans":"yes","name":"Camping Minelle"}},"1010391702":{"location":[43.3976936,6.7140648],"ct":"FR","tp":"CS","ts":"2021-12-09T02:47:47Z","tX":531,"tY":374,"tags":{"name":"Capfun La Rumba"}},"1082992734":{"location":[43.4134049,6.7880154],"ct":"FR","tp":"CS","ts":"2022-08-02T08:59:30Z","tX":531,"tY":374,"tags":{"name":"Camping Santa-Lucia","operator":"Vacances André Trigano","operator:short_name":"VAT"}},"1161051474":{"location":[43.5352293,6.9423929],"ct":"FR","tp":"CS","ts":"2023-04-10T10:05:35Z","tX":531,"tY":374,"tags":{"addr:city":"Mandelieu-la-Napoule","addr:housenumber":"118","addr:postcode":"06210","addr:street":"Rue de la Pinéa","cabins":"yes","capacity:cabins":"31","capacity:pitches":"25","caravans":"yes","email":"contact@bungalow-camping.com","name":"Camping Les Pruniers","phone":"+33 4 93 49 99 23","shower":"yes","tents":"yes","toilets":"yes","website":"http://www.bungalow-camping.com"}},"1236052981":{"location":[43.3665979,6.7103948],"ct":"FR","tp":"CS","ts":"2024-10-12T14:18:27Z","tX":531,"tY":374,"tags":{"addr:postcode":"83520","caravan_site":"motorhome_stopover","caravan_site:type":"camp_site","caravans":"yes","fee":"yes","laundry":"yes","motorhome":"yes","name":"Au Paradis des Campeurs","phone":"+33494969355","power_supply":"yes","power_supply:maxcurrent":"6","sanitary_dump_station":"yes","stars":"4","tents":"yes","water_point":"yes","website":"https://auparadisdescampeurs.com/"}},"1282910757":{"location":[43.4423451,6.752435],"ct":"FR","tp":"CS","ts":"2024-05-18T17:53:01Z","tX":531,"tY":374,"tags":{"cabins":"yes","capacity:pitches":"82","name":"Les Acacias","phone":"+33 4 94 53 21 22","stars":"4","website":"https://www.campingacacias.fr/"}},"1316673531":{"location":[43.4108801,6.6926307],"ct":"FR","tp":"CS","ts":"2024-09-19T13:01:25Z","tX":531,"tY":374,"tags":{"name":"Camping de Vaudois"}},"1316896251":{"location":[43.4124216,6.706574],"ct":"FR","tp":"CS","ts":"2024-09-20T10:31:24Z","tX":531,"tY":374,"tags":{}},"1322736555":{"location":[43.3658316,6.7118908],"ct":"FR","tp":"CR","ts":"2024-10-09T22:44:21Z","tX":531,"tY":374,"tags":{"caravan_site":"motorhome_stopover","caravan_site:type":"beach","caravans":"no","charge":"21.86","dog":"yes","fee":"yes","name":"Chez Marcel","power_supply":"yes","sanitary_dump_station":"yes","tents":"no","water_point":"yes","website":"https://cotedazurfrance.com/offers/chez-marcel-motor-home-place-les-issambres-roquebrune-sur-argens-en-2911316/#sheetPart-prices"}},"2106118727":{"location":[43.485419,6.7204988],"ct":"FR","tp":"CS","ts":"2024-10-02T16:03:17Z","tX":531,"tY":374,"tags":{"name":"Camping La Pierre Verte","website":"https://www.campsite-frejus-pierre-verte.co.uk/"}},"3309711661":{"location":[43.550001,6.9705288],"ct":"FR","tp":"SD","ts":"2015-05-28T17:03:45Z","tX":531,"tY":374,"tags":{"capacity":"1","fee":"yes","operator":"Flot Bleu","power_supply":"yes","sanitary_dump_station:accepted":"grey_water;black_water;tank_chemicals","water_point":"unknown"}},"4994737356":{"location":[43.4414946,6.8518169],"ct":"FR","tp":"CS","ts":"2017-07-26T12:11:52Z","tX":531,"tY":374,"tags":{"description":"bad campsite, middle priced"}},"7294228967":{"location":[43.5396192,6.9429224],"ct":"FR","tp":"CS","ts":"2024-10-02T16:15:09Z","tX":531,"tY":374,"tags":{"name":"Les Cigales","website":"https://www.lescigales.com/fr/"}},"7779336459":{"location":[43.4068037,6.7061868],"ct":"FR","tp":"CS","ts":"2023-08-09T09:13:02Z","tX":531,"tY":374,"tags":{"name":"Les Lauriers Roses"}},"8955307816":{"location":[43.442423,6.7217325],"ct":"FR","tp":"CS","ts":"2021-07-27T22:05:34Z","tX":531,"tY":374,"tags":{"name":"Camping Sigaut"}},"11264130369":{"location":[43.5787686,6.8101161],"ct":"FR","tp":"CS","ts":"2023-10-15T09:55:55Z","tX":531,"tY":374,"tags":{}},"11161621362":{"location":[43.5423,6.7860618],"ct":"FR","tp":"SD","ts":"2023-09-01T19:00:30Z","tX":531,"tY":374,"tags":{}}}