{"82696573":{"location":[46.3657844,-72.4978327],"ct":"CA","tp":"CR","ts":"2012-03-28T20:11:21Z","tX":305,"tY":362,"tags":{}},"100237666":{"location":[46.408722,-72.6825185],"ct":"CA","tp":"CR","ts":"2022-04-24T11:08:47Z","tX":305,"tY":362,"tags":{"addr:city":"Trois-Rivières","addr:housenumber":"11650","addr:street":"Rue du Clairon","internet_access":"wlan","internet_access:fee":"no","name":"Camping Lac-Saint-Michel","power_supply":"yes","source":"NRCan-CanVec-7.0","tents":"yes"}},"100237788":{"location":[46.4125746,-72.6929637],"ct":"CA","tp":"CS","ts":"2022-04-24T11:08:47Z","tX":305,"tY":362,"tags":{"addr:city":"Trois-Rivières","addr:housenumber":"12266","addr:street":"Boulevard des Forges","name":"Camping Les Forges","source":"NRCan-CanVec-7.0"}},"100237842":{"location":[46.4834585,-72.6551554],"ct":"CA","tp":"CS","ts":"2023-05-21T23:22:07Z","tX":305,"tY":362,"tags":{"addr:city":"Notre-Dame-du-Mont-Carmel","addr:housenumber":"1430","addr:postcode":"G0X 3J0","addr:province":"Québec","addr:street":"Rang Saint-Flavien Est","name":"Camping Lac Morin","source":"NRCan-CanVec-7.0"}},"100239235":{"location":[46.4935962,-72.6498242],"ct":"CA","tp":"CS","ts":"2022-05-04T22:12:03Z","tX":305,"tY":362,"tags":{"source":"NRCan-CanVec-7.0"}},"100243914":{"location":[46.4338531,-72.6298865],"ct":"CA","tp":"CS","ts":"2011-02-18T08:13:43Z","tX":305,"tY":362,"tags":{"source":"NRCan-CanVec-7.0"}},"100251595":{"location":[46.3234731,-72.7121087],"ct":"CA","tp":"CR","ts":"2023-05-20T18:16:48Z","tX":305,"tY":362,"tags":{"source":"NRCan-CanVec-7.0"}},"487229668":{"location":[46.3829876,-72.5837685],"ct":"CA","tp":"CS","ts":"2022-04-24T11:22:48Z","tX":305,"tY":362,"tags":{"addr:city":"Trois-Rivières","addr:housenumber":"761","addr:postcode":"G8W 2E5","addr:province":"Québec","addr:street":"Rue des Prairies","fee":"yes","name":"Camping Domaine Au Grand R Inc","operator":"Camping Domaine Au Grand R Inc"}},"487544226":{"location":[46.4840526,-72.6624274],"ct":"CA","tp":"CS","ts":"2023-12-11T04:29:54Z","tX":305,"tY":362,"tags":{"addr:city":"Notre-Dame-du-Mont-Carmel","addr:housenumber":"1281","addr:postcode":"G8X 3J0","addr:province":"Québec","addr:street":"Rang Saint-Flavien Est","name":"Camping Paradiso"}},"1125639251":{"location":[46.5325677,-72.7501506],"ct":"CA","tp":"CS","ts":"2022-12-29T14:48:50Z","tX":305,"tY":362,"tags":{"name":"Camping de l'Île-Melville"}},"3813315270":{"location":[46.5164069,-72.755834],"ct":"CA","tp":"SD","ts":"2024-01-05T05:17:36Z","tX":305,"tY":362,"tags":{"access":"yes","fee":"no","opening_hours":"24/7","water_point":"yes"}},"11277402513":{"location":[46.3536674,-72.5288723],"ct":"CA","tp":"CS","ts":"2023-10-20T13:28:48Z","tX":305,"tY":362,"tags":{"name":"Camping des Fougères"}},"10921788722":{"location":[46.5319465,-72.7503665],"ct":"CA","tp":"SD","ts":"2023-05-23T13:46:18Z","tX":305,"tY":362,"tags":{}}}