{"100241583":{"location":[46.2521333,-72.6499502],"ct":"CA","tp":"CR","ts":"2022-03-07T18:08:24Z","tX":305,"tY":363,"tags":{"name":"Club Récréatif Pointe-du-Hameau","source":"NRCan-CanVec-7.0"}},"100255570":{"location":[46.2882218,-72.5689631],"ct":"CA","tp":"CR","ts":"2023-10-19T11:36:15Z","tX":305,"tY":363,"tags":{"addr:city":"Bécancour","addr:housenumber":"18600","addr:postcode":"G9H 1A8","addr:province":"Québec","addr:street":"Boulevard Bécancour","name":"Le Refuge du Campeur","operator":"Le Refuge du Campeur","source":"NRCan-CanVec-7.0","website":"https://www.campingquebec.com/fr/centre-du-quebec/camping-le-refuge-du-campeur-2007/"}},"100256312":{"location":[46.268079,-72.6175651],"ct":"CA","tp":"CS","ts":"2024-04-19T12:42:19Z","tX":305,"tY":363,"tags":{"addr:city":"Port-Saint-François","addr:housenumber":"25","addr:street":"Rue des Bains","name":"Camping Port-Saint-François","source":"NRCan-CanVec-7.0"}},"773621218":{"location":[46.3090282,-72.6892255],"ct":"CA","tp":"CS","ts":"2020-02-17T20:16:40Z","tX":305,"tY":363,"tags":{"name":"Camping H2O"}},"1039219458":{"location":[46.309943,-72.5408989],"ct":"CA","tp":"CR","ts":"2024-04-15T13:18:49Z","tX":305,"tY":363,"tags":{"addr:housenumber":"185","addr:street":"Avenue Godefroy","name":"Parc de Motorisés Godefroy","power_supply":"yes"}},"6901249985":{"location":[46.282596,-72.6783284],"ct":"CA","tp":"CS","ts":"2019-10-20T23:37:07Z","tX":305,"tY":363,"tags":{}},"11274978856":{"location":[46.295166,-72.5441257],"ct":"CA","tp":"SD","ts":"2024-02-17T16:22:01Z","tX":305,"tY":363,"tags":{}},"11818209797":{"location":[46.224819,-72.6072022],"ct":"CA","tp":"SD","ts":"2024-04-15T09:44:38Z","tX":305,"tY":363,"tags":{"operator":"Ville de Nicolet"}}}