{"8845867":{"location":[45.7068922,-72.7714298],"ct":"CA","tp":"CS","ts":"2022-04-20T12:27:21Z","tX":305,"tY":365,"tags":{"addr:city":"Saint-Liboire","addr:housenumber":"129","addr:street":"Rang Charlotte","name":"Camping Plage Laliberté"}},"8849118":{"location":[45.7853949,-72.6581764],"ct":"CA","tp":"CS","ts":"2018-10-25T20:34:25Z","tX":305,"tY":365,"tags":{}},"100561445":{"location":[45.6195735,-72.6549924],"ct":"CA","tp":"CS","ts":"2022-03-07T18:08:24Z","tX":305,"tY":365,"tags":{"addr:city":"Acton Vale","addr:housenumber":"1110","addr:street":"Montée de la Rivière","name":"Domaine Des Iles Enchantées","source":"NRCan-CanVec-7.0"}},"100566208":{"location":[45.6512941,-72.680155],"ct":"CA","tp":"CS","ts":"2022-04-20T12:27:21Z","tX":305,"tY":365,"tags":{"addr:housenumber":"425","addr:street":"Rue Principale","name":"Camping Wigwam","source":"NRCan-CanVec-7.0"}},"546907793":{"location":[45.7755138,-72.4763396],"ct":"CA","tp":"CR","ts":"2023-08-02T22:18:13Z","tX":305,"tY":365,"tags":{"addr:city":"Wickham","addr:country":"CA","addr:housenumber":"1224","addr:postcode":"J0C 1E0","addr:province":"Quebec","addr:street":"Route 139","name":"Camping Plage des Sources","name:en":"Sources Beach Campground","phone":"+1-819-398-6636","website":"https://www.campingdessources.ca/"}}}