{"16006322":{"location":[45.3679915,-72.5528285],"ct":"CA","tp":"CS","ts":"2023-06-22T02:11:13Z","tX":305,"tY":366,"tags":{"name":"Camping Lac Des Sources"}},"76931213":{"location":[45.3821328,-72.6866007],"ct":"CA","tp":"CS","ts":"2025-05-18T05:35:51Z","tX":305,"tY":366,"tags":{"addr:city":"Granby","addr:housenumber":"310","addr:postcode":"J2H 0R9","addr:province":"Québec","addr:street":"Rue Robitaille","name":"Camping Granby","source":"Local Knomledge","website":"https://campinggranby.com/","wikidata":"Q134495920"}},"76947273":{"location":[45.457533,-72.6495146],"ct":"CA","tp":"CS","ts":"2024-04-12T12:12:44Z","tX":305,"tY":366,"tags":{"layer":"-1","name":"Centre Familial Roger Talbot","source":"CanVec 6.0 - NRCan"}},"100563892":{"location":[45.5594852,-72.5149996],"ct":"CA","tp":"CS","ts":"2022-12-23T19:12:22Z","tX":305,"tY":366,"tags":{"name":"Camping de l'Ile","source":"NRCan-CanVec-7.0"}},"100564309":{"location":[45.5765387,-72.7417114],"ct":"CA","tp":"CS","ts":"2024-02-15T19:24:24Z","tX":305,"tY":366,"tags":{"addr:city":"Saint-Valérien-de-Milton","addr:housenumber":"1436","addr:street":"Chemin du Camping-de-la-Détente","name":"Camping-de-la-Détente","source":"NRCan-CanVec-7.0"}},"438912484":{"location":[45.4284646,-72.6226835],"ct":"CA","tp":"CS","ts":"2024-12-24T02:36:22Z","tX":305,"tY":366,"tags":{"name":"Camping du parc de la Yamaska","operator":"SEPAQ"}},"439042887":{"location":[45.3426259,-72.6508286],"ct":"CA","tp":"CS","ts":"2021-12-27T00:45:39Z","tX":305,"tY":366,"tags":{"name":"Camping Vélo 2000"}},"441985162":{"location":[45.4126617,-72.5333614],"ct":"CA","tp":"CS","ts":"2023-12-02T00:56:48Z","tX":305,"tY":366,"tags":{"name":"Camping La Rivière du Passant","website":"campinglarivieredupassant.com/"}},"4365603589":{"location":[45.4347929,-72.6033968],"ct":"CA","tp":"CS","ts":"2024-08-16T23:34:11Z","tX":305,"tY":366,"tags":{"backcountry":"yes","drinking_water":"no","name":"Vélo-camping Le Rivage","operator":"SEPAQ","power_supply":"no","shower":"no","toilets":"yes"}},"4365603650":{"location":[45.4316183,-72.6190675],"ct":"CA","tp":"CS","ts":"2024-04-10T12:54:14Z","tX":305,"tY":366,"tags":{"name":"Les Roselins"}},"4365603686":{"location":[45.4256057,-72.6222212],"ct":"CA","tp":"SD","ts":"2016-08-25T01:21:16Z","tX":305,"tY":366,"tags":{}}}