{"104718245":{"location":[45.0314844,-72.4389082],"ct":"CA","tp":"CS","ts":"2024-05-26T20:42:12Z","tX":305,"tY":368,"tags":{"addr:city":"Potton","addr:housenumber":"2733","addr:street":"Chemin de la Vallée Missisquoi","name":"Camping Nature Plein-Air","source":"NRCan-CanVec-7.0"}},"1013904379":{"location":[45.0417199,-72.5651506],"ct":"CA","tp":"CS","ts":"2024-04-24T16:01:18Z","tX":305,"tY":368,"tags":{"addr:city":"Glen Sutton","addr:housenumber":"169","addr:postcode":"J0E 2K0","addr:province":"QC","addr:street":"Chemin Staines","hiking":"yes","name":"Au Diable Vert","network":"nwn","website":"http://audiablevert.ca/"}},"1022438883":{"location":[44.9458623,-72.4406728],"ct":"US","tp":"CR","ts":"2022-01-19T01:20:41Z","tX":305,"tY":368,"tags":{"name":"Base Camp RV Park and Campground"}},"1022438887":{"location":[44.8890055,-72.4307696],"ct":"US","tp":"CS","ts":"2022-01-19T01:20:41Z","tX":305,"tY":368,"tags":{"addr:housenumber":"1152","addr:postcode":"05874","addr:state":"VT","addr:street":"State Route 100","name":"Millbrook Campground","website":"http://www.millbrookcampground.com/index.html"}},"1022438893":{"location":[44.8609454,-72.4353642],"ct":"US","tp":"CR","ts":"2022-01-19T01:20:41Z","tX":305,"tY":368,"tags":{"name":"Barrewood Campground"}},"9410953009":{"location":[45.0315456,-72.4388632],"ct":"CA","tp":"CS","ts":"2022-01-11T18:48:04Z","tX":305,"tY":368,"tags":{"addr:city":"Mansonville","addr:housenumber":"2733","addr:province":"Qc","addr:street":"Chemin de la Vallée-Missisquoi","name":"Camping Nature Plein-Air","phone":"+1 888-746-4140"}},"10170370234":{"location":[45.0883582,-72.6271294],"ct":"CA","tp":"SD","ts":"2022-11-09T02:14:05Z","tX":305,"tY":368,"tags":{}}}