{"43438968":{"location":[41.7792439,-72.428274],"ct":"US","tp":"CS","ts":"2025-04-14T17:30:19Z","tX":305,"tY":380,"tags":{"description":"Private, cub scout and boy scout campground. Offers summer camp sessions and overnight camping with group approval.","email":"info@campjohnson.org","leisure":"nature_reserve","name":"John and Frederica Johnson Memorial Camp","operator":"Boy Scouts","phone":"+1 860 643 0755","short_name":"Camp Johnson","source":"University of Connecticut (http://magic.lib.uconn.edu/connecticut_data.html)","website":"http://www.campjohnson.org"}},"1312623573":{"location":[41.9048352,-72.7167763],"ct":"US","tp":"CS","ts":"2024-09-01T15:05:33Z","tX":305,"tY":380,"tags":{"name":"Camp Shalom"}},"5153893164":{"location":[41.788127,-72.574461],"ct":"US","tp":"CS","ts":"2017-10-07T17:02:15Z","tX":305,"tY":380,"tags":{"name":"Beech Grove 5"}},"5757179152":{"location":[41.9731256,-72.7389807],"ct":"US","tp":"CS","ts":"2020-12-23T00:18:37Z","tX":305,"tY":380,"tags":{"name":"Primitve Camping Area","website":"https://newenglandtrail.org/overnight-sites/windsor-locks-scouts-primitive-tentsite/"}},"9567624721":{"location":[41.7928889,-72.4373445],"ct":"US","tp":"CR","ts":"2022-05-31T21:50:42Z","tX":305,"tY":380,"tags":{"addr:city":"Bolton","addr:housenumber":"17","addr:postcode":"06043","addr:state":"CT","addr:street":"Howard Road"}}}