{"43439614":{"location":[41.5796294,-72.5681133],"ct":"US","tp":"CS","ts":"2025-05-12T23:33:57Z","tX":305,"tY":381,"tags":{"description":"Private, Members Or Owners Only; General Recreation","email":"info@noyesrhythm.org","leisure":"nature_reserve","name":"Shepherd's Nine","operator":"Noyes School of Rhythm","phone":"+1 860 342 0328","source":"University of Connecticut (http://magic.lib.uconn.edu/connecticut_data.html)","website":"https://www.noyesrhythm.org"}},"43441037":{"location":[41.5746674,-72.5930367],"ct":"US","tp":"CS","ts":"2023-12-15T13:41:37Z","tX":305,"tY":381,"tags":{"leisure":"nature_reserve","name":"YMCA Camp Ingersoll","source":"University of Connecticut (http://magic.lib.uconn.edu/connecticut_data.html)","website":"https://www.campingersoll.org/"}},"951327603":{"location":[41.7438735,-72.5016437],"ct":"US","tp":"CS","ts":"2024-12-03T03:46:00Z","tX":305,"tY":381,"tags":{"addr:city":"Manchester","addr:housenumber":"650","addr:postcode":"06040","addr:state":"CT","addr:street":"Gardner Street","leisure":"nature_reserve","name":"Camp Merrie-Wood","operator":"Girl Scouts of Connecticut","website":"https://www.gsofct.org/en/camp/summer-camps/day-camp/merrie_wood.html"}},"951860171":{"location":[41.695713,-72.541768],"ct":"US","tp":"CS","ts":"2024-11-24T02:46:43Z","tX":305,"tY":381,"tags":{"addr:city":"Glastonbury","addr:housenumber":"1354","addr:postcode":"06033","addr:state":"CT","addr:street":"Neipsic Road","email":"Info@FriendsofCampNeipsic.org","leisure":"nature_reserve","name":"Camp Neipsic","operator":"Friends of Camp Neipsic, Inc.","start_date":"1941","website":"https://friendsofcampneipsic.org"}},"1374694631":{"location":[41.5557422,-72.4642556],"ct":"US","tp":"CS","ts":"2025-04-04T12:02:42Z","tX":305,"tY":381,"tags":{"name":"Markham Meadows Campground"}},"1378184980":{"location":[41.5147424,-72.4551708],"ct":"US","tp":"CS","ts":"2025-04-16T23:44:55Z","tX":305,"tY":381,"tags":{"name":"Grandview Camping & Cottages"}},"8744193383":{"location":[41.5559268,-72.7415152],"ct":"US","tp":"SD","ts":"2021-05-19T00:22:17Z","tX":305,"tY":381,"tags":{"opening_hours":"Apr 30-Nov 01"}}}