{"13334052":{"location":[41.4024993,-72.4938457],"ct":"US","tp":"CS","ts":"2021-10-16T23:26:55Z","tX":305,"tY":382,"tags":{"description":"Private, Members Or Owners Only","leisure":"nature_reserve","magic:CATEGORY":"General Recreation","operator":"Camp Hazen YMCA","source":"University of Connecticut (http://magic.lib.uconn.edu/connecticut_data.html)","website":"https://camphazenymca.org"}},"43438745":{"location":[41.3450147,-72.5922166],"ct":"US","tp":"CS","ts":"2023-10-24T03:27:52Z","tX":305,"tY":382,"tags":{"description":"Private, Members Or Owners Only","leisure":"nature_reserve","magic:CATEGORY":"General Recreation","name":"Deer Lake Camp","operator":"Connecticut Yankee Council","source":"University of Connecticut (http://magic.lib.uconn.edu/connecticut_data.html)","website":"https://www.deerlakecamp.org/dcadl.php"}},"43439223":{"location":[41.4690246,-72.5268568],"ct":"US","tp":"CS","ts":"2021-10-16T23:26:57Z","tX":305,"tY":382,"tags":{"description":"Private, Members Or Owners Only","leisure":"nature_reserve","magic:CATEGORY":"General Recreation","name":"Boy Scouts of America Troop 44","operator":"Boy Scouts of America","source":"University of Connecticut (http://magic.lib.uconn.edu/connecticut_data.html)"}},"255488870":{"location":[41.3545894,-72.6261218],"ct":"US","tp":"CS","ts":"2021-08-29T03:08:35Z","tX":305,"tY":382,"tags":{"addr:city":"Madison","addr:housenumber":"463","addr:postcode":"06443","addr:state":"CT","addr:street":"Summer Hill Road","name":"Camp Laurelwood"}},"665564989":{"location":[41.4542706,-72.4709654],"ct":"US","tp":"CS","ts":"2024-02-27T07:30:15Z","tX":305,"tY":382,"tags":{"name":"Camp Bethel","wikidata":"Q5027003","wikipedia":"en:Camp Bethel"}},"869901107":{"location":[41.4507094,-72.4281973],"ct":"US","tp":"CS","ts":"2020-11-10T22:37:25Z","tX":305,"tY":382,"tags":{"addr:city":"East Haddam","addr:housenumber":"256","addr:postcode":"06423","addr:state":"CT","addr:street":"Town Street","name":"Wolf's Den Family Campground","phone":"+1 860 873 9681","website":"https://wolfsdencampground.com"}},"4046028289":{"location":[41.4808554,-72.652081],"ct":"US","tp":"CS","ts":"2019-01-05T11:23:48Z","tX":305,"tY":382,"tags":{"name":"Camp Farnam"}},"4169935879":{"location":[41.3434908,-72.5950804],"ct":"US","tp":"CS","ts":"2020-06-01T02:35:32Z","tX":305,"tY":382,"tags":{"name":"Boy Scout Camp"}},"6133822952":{"location":[41.4395535,-72.4438259],"ct":"US","tp":"CS","ts":"2018-12-13T01:42:49Z","tX":305,"tY":382,"tags":{}}}