{"4658103390":{"location":[4.1171486,-72.7540514],"ct":"CO","tp":"CS","ts":"2017-02-03T00:16:16Z","tX":305,"tY":500,"tags":{"name":"finca japoneses:","name:es":"finca japoneses:"}},"4676728893":{"location":[3.9825019,-72.6917037],"ct":"CO","tp":"CS","ts":"2017-02-09T15:28:11Z","tX":305,"tY":500,"tags":{"name":"yucito:","name:es":"yucito:"}},"4676758791":{"location":[3.987462,-72.7016569],"ct":"CO","tp":"CS","ts":"2017-02-09T15:28:07Z","tX":305,"tY":500,"tags":{"name":"agua","name:es":"agua"}},"4718753691":{"location":[3.990666,-72.6993013],"ct":"CO","tp":"CS","ts":"2017-03-05T17:18:33Z","tX":305,"tY":500,"tags":{"name":"cerr칩 se침al jarro:","name:es":"cerr칩 se침al jarro:"}},"4718774591":{"location":[3.9851423,-72.4702226],"ct":"CO","tp":"CS","ts":"2017-03-05T17:18:53Z","tX":305,"tY":500,"tags":{"name":"observatorio","name:es":"observatorio"}},"4718782389":{"location":[3.8764815,-72.745251],"ct":"CO","tp":"CS","ts":"2018-02-15T19:43:02Z","tX":305,"tY":500,"tags":{"name":"finca chatarra","name:es":"finca chatarra"}},"4732077121":{"location":[3.8927881,-72.5177281],"ct":"CO","tp":"CS","ts":"2017-03-13T11:24:38Z","tX":305,"tY":500,"tags":{"name":"finca de la lora","name:es":"finca de la lora"}},"4732077122":{"location":[3.8927301,-72.5177025],"ct":"CO","tp":"CS","ts":"2017-03-13T11:24:42Z","tX":305,"tY":500,"tags":{"name":"finca la alborada","name:es":"finca la alborada"}},"4737306021":{"location":[3.8656281,-72.4422254],"ct":"CO","tp":"CS","ts":"2017-03-16T01:16:31Z","tX":305,"tY":500,"tags":{"name":"moriche solo","name:es":"moriche solo"}},"4737306221":{"location":[3.9237229,-72.6080363],"ct":"CO","tp":"CS","ts":"2017-03-16T01:16:36Z","tX":305,"tY":500,"tags":{"name":"finca Valdivia","name:es":"finca Valdivia"}}}