{"1884113194":{"location":[-13.2969931,-72.6495897],"ct":"PE","tp":"CS","ts":"2024-03-29T02:38:34Z","tX":305,"tY":550,"tags":{"caravans":"no","name":"Winaypocco","tents":"yes","toilets":"yes"}},"2450961249":{"location":[-13.3674016,-72.5621257],"ct":"PE","tp":"CS","ts":"2013-09-08T20:12:04Z","tX":305,"tY":550,"tags":{"source":"survey"}},"3110024917":{"location":[-13.5435758,-72.6876815],"ct":"PE","tp":"CS","ts":"2023-06-13T16:50:50Z","tX":305,"tY":550,"tags":{"addr:district":"Curahuasi","addr:postcode":"03041","addr:street":"Molle Molle","backcountry":"no","bbq":"yes","internet_access":"wlan","name":"Casa Lena","openfire":"yes","phone":"+51 984283418","tents":"yes","toilets":"yes","washing_machine":"yes","website":"https://casalenaperu.com"}},"3544450269":{"location":[-13.4725936,-72.5518117],"ct":"PE","tp":"CS","ts":"2024-03-29T15:19:38Z","tX":305,"tY":550,"tags":{"name":"Campamento Roto","name:en":"Broken Campsite"}},"3602158064":{"location":[-13.3320651,-72.7190595],"ct":"PE","tp":"CS","ts":"2020-03-26T14:36:26Z","tX":305,"tY":550,"tags":{}},"3783972898":{"location":[-13.3913124,-72.5747439],"ct":"PE","tp":"CR","ts":"2024-03-14T22:44:26Z","tX":305,"tY":550,"tags":{"addr:district":"Mollepata","addr:postcode":"08645","addr:province":"Anta","addr:street":"CU-109","name":"Camping Lima Tours"}},"4145519390":{"location":[-13.3169084,-72.641257],"ct":"PE","tp":"CS","ts":"2016-04-25T00:55:22Z","tX":305,"tY":550,"tags":{"name":"Andenes"}},"4180056747":{"location":[-13.3182305,-72.669405],"ct":"PE","tp":"CS","ts":"2016-05-12T04:19:40Z","tX":305,"tY":550,"tags":{}},"4206119089":{"location":[-13.3877128,-72.574145],"ct":"PE","tp":"CS","ts":"2024-03-14T22:44:26Z","tX":305,"tY":550,"tags":{"addr:district":"Mollepata","addr:postcode":"08645","addr:province":"Anta","addr:street":"CU-109","ele":"3900","name":"Soraypampa"}},"4213222789":{"location":[-13.2408216,-72.4285966],"ct":"PE","tp":"CS","ts":"2016-05-29T01:11:02Z","tX":305,"tY":550,"tags":{"name":"Tarayoc"}},"4248697890":{"location":[-13.2650524,-72.4488687],"ct":"PE","tp":"CS","ts":"2024-10-23T17:19:43Z","tX":305,"tY":550,"tags":{"addr:street":"Qhapaq Ñan - Camino del Inca - Inka Trail","name":"Campamento № 16"}},"4248704791":{"location":[-13.2501608,-72.4721503],"ct":"PE","tp":"CS","ts":"2016-06-17T16:22:34Z","tX":305,"tY":550,"tags":{"addr:street":"Qhapaq Ñan - Camino del Inca - Inka Trail","name":"llulluchapampa"}},"4396436597":{"location":[-13.260923,-72.4556639],"ct":"PE","tp":"CS","ts":"2016-09-11T18:02:30Z","tX":305,"tY":550,"tags":{"name":"Capulichayoc Nro20","name:es":"Capulichayoc Nro20"}},"4407434492":{"location":[-13.2583984,-72.4613358],"ct":"PE","tp":"CS","ts":"2023-04-10T13:24:25Z","tX":305,"tY":550,"tags":{"addr:street":"Qhapaq Ñan - Camino del Inca - Inka Trail","name:es":"Ayapata"}},"4438494290":{"location":[-13.2789397,-72.6458402],"ct":"PE","tp":"CS","ts":"2020-01-03T02:49:50Z","tX":305,"tY":550,"tags":{}},"4486255493":{"location":[-13.2642119,-72.4474081],"ct":"PE","tp":"CS","ts":"2024-10-23T17:19:43Z","tX":305,"tY":550,"tags":{"name":"Camp № 08","name:es":"Camp № 08"}},"4868656124":{"location":[-13.3915864,-72.5744757],"ct":"PE","tp":"CS","ts":"2024-03-14T22:44:26Z","tX":305,"tY":550,"tags":{"addr:district":"Mollepata","addr:postcode":"08645","addr:province":"Anta","addr:street":"CU-109","name:en":"Soraypampa"}},"4868656229":{"location":[-13.3243967,-72.6643141],"ct":"PE","tp":"CS","ts":"2017-05-21T21:46:58Z","tX":305,"tY":550,"tags":{"name":"Camping El Mirador","name:es":"Camping El Mirador"}},"4953116237":{"location":[-13.2632416,-72.6409799],"ct":"PE","tp":"CS","ts":"2023-05-18T20:36:41Z","tX":305,"tY":550,"tags":{"description":"Campground and Organic Cofee growing. You can withness and take part in the whole process of organic coffee growing and processing. And taste the local grown coffee on site.","ele":"2119","email":"wcardenasgamarra@gmail.com","name":"Camping Inka Llaqta","phone":"+51 998490805;+51 950427780"}},"5596800924":{"location":[-13.5429981,-72.6386352],"ct":"PE","tp":"CS","ts":"2023-06-13T16:56:38Z","tX":305,"tY":550,"tags":{"backcountry":"no","name":"Camping Baños Termales de Cconoc","shower":"yes","tents":"yes"}},"5628815723":{"location":[-13.3544252,-72.5612074],"ct":"PE","tp":"CS","ts":"2023-06-11T22:33:34Z","tX":305,"tY":550,"tags":{"tents":"yes"}},"5879979486":{"location":[-13.3874312,-72.5737136],"ct":"PE","tp":"CS","ts":"2024-03-14T22:44:26Z","tX":305,"tY":550,"tags":{"addr:district":"Mollepata","addr:postcode":"08645","addr:province":"Anta","addr:street":"CU-109"}},"5956025108":{"location":[-13.3266911,-72.7272859],"ct":"PE","tp":"CS","ts":"2020-03-26T14:36:26Z","tX":305,"tY":550,"tags":{"description":"toilet, water","name":"Acampamiento Hornopampa"}},"5965400926":{"location":[-13.318411,-72.6691252],"ct":"PE","tp":"CS","ts":"2025-06-20T18:44:26Z","tX":305,"tY":550,"tags":{"caravans":"no","name":"La Florida","tents":"yes"}},"6797001686":{"location":[-13.3861823,-72.573008],"ct":"PE","tp":"CS","ts":"2024-03-14T22:44:26Z","tX":305,"tY":550,"tags":{"addr:district":"Mollepata","addr:postcode":"08645","addr:province":"Anta","addr:street":"CU-109","charge":"10 PEN","fee":"yes","kitchen":"yes","payment:cash":"yes","toilets":"yes"}},"6846167785":{"location":[-13.3190526,-72.6688049],"ct":"PE","tp":"CS","ts":"2020-01-03T02:49:50Z","tX":305,"tY":550,"tags":{"internet_access":"wlan","name":"Camping","name:en":"Camping Capuliyoc","name:es":"Camping Capuliyoc"}},"6851396685":{"location":[-13.3811877,-72.5845646],"ct":"PE","tp":"CS","ts":"2019-10-04T12:55:31Z","tX":305,"tY":550,"tags":{}},"6860930185":{"location":[-13.3247871,-72.665398],"ct":"PE","tp":"CS","ts":"2020-01-03T02:49:50Z","tX":305,"tY":550,"tags":{"name":"Camping Florentino"}},"6911045785":{"location":[-13.264758,-72.4468488],"ct":"PE","tp":"CS","ts":"2024-10-23T17:19:43Z","tX":305,"tY":550,"tags":{"internet_access":"wlan","name":"Campamento № 22","name:en":"Camp № 22"}},"7015066289":{"location":[-13.3595089,-72.5225637],"ct":"PE","tp":"CS","ts":"2022-12-17T21:17:46Z","tX":305,"tY":550,"tags":{"backcountry":"yes"}},"7015069192":{"location":[-13.2937707,-72.5486874],"ct":"PE","tp":"CS","ts":"2019-11-27T17:50:38Z","tX":305,"tY":550,"tags":{"name:en":"Wild Camping"}},"7015069193":{"location":[-13.258771,-72.5543424],"ct":"PE","tp":"CS","ts":"2020-04-03T18:11:20Z","tX":305,"tY":550,"tags":{"name:en":"Wild camping"}},"7022870264":{"location":[-13.3055483,-72.5286564],"ct":"PE","tp":"CS","ts":"2023-06-11T22:55:14Z","tX":305,"tY":550,"tags":{"fee":"no","name":"Palqay Range free camping"}},"7134410885":{"location":[-13.3186487,-72.6685574],"ct":"PE","tp":"CS","ts":"2020-01-15T23:11:15Z","tX":305,"tY":550,"tags":{"internet_access":"wlan"}},"7223873788":{"location":[-13.4011186,-72.5720441],"ct":"PE","tp":"CS","ts":"2025-06-22T00:31:05Z","tX":305,"tY":550,"tags":{"addr:district":"Mollepata","addr:postcode":"08645","addr:province":"Anta","addr:street":"CU-109","internet_access":"no","name":"La flor de campancho","operator":"Xtreme Tourbulencia","power_supply":"no","shower":"no"}},"7223875617":{"location":[-13.3242346,-72.6644797],"ct":"PE","tp":"CS","ts":"2020-03-21T18:58:37Z","tX":305,"tY":550,"tags":{"internet_access:fee":"yes","internet_access:type":"wlan","name":"Camping Pablito"}},"9859367517":{"location":[-13.3234076,-72.6072112],"ct":"PE","tp":"CS","ts":"2024-03-29T15:19:38Z","tX":305,"tY":550,"tags":{"charge":"12.00 PEN","description":"12 soles with water and toilets","name":"Campamento Wayramachay","name:en":"Camping Wayramachai"}}}