{"475114001":{"location":[-42.9142641,-72.7061936],"ct":"CL","tp":"CS","ts":"2017-02-16T17:28:09Z","tX":305,"tY":647,"tags":{"addr:city":"Chaitén","addr:housenumber":"136","addr:postcode":"5850000","addr:street":"Piloto Pardo","internet_access":"yes","internet_access:fee":"no","name":"Camping Trekapangui"}},"2821961992":{"location":[-42.9619128,-72.4693518],"ct":"CL","tp":"CS","ts":"2014-04-27T22:55:11Z","tX":305,"tY":647,"tags":{"name":"Camping Grande"}},"2821961995":{"location":[-42.9444251,-72.4759182],"ct":"CL","tp":"CS","ts":"2020-02-02T22:21:30Z","tX":305,"tY":647,"tags":{"name":"Camping Ventisquero"}},"3183772962":{"location":[-42.9137629,-72.7081492],"ct":"CL","tp":"CS","ts":"2017-02-14T03:15:24Z","tX":305,"tY":647,"tags":{"capacity":"6","fee":"yes","internet_access":"yes","internet_access:fee":"no","name":"Hospedaje Rita","operator":"Rita Gutierrez"}},"3470390422":{"location":[-42.9147463,-72.7066356],"ct":"CL","tp":"CS","ts":"2017-02-16T17:19:53Z","tX":305,"tY":647,"tags":{"addr:city":"chaiten","addr:housenumber":"321","addr:postcode":"5850000","addr:street":"César Ercilla","name":"Camping Las Nalcas"}},"5195226124":{"location":[-42.9139429,-72.706847],"ct":"CL","tp":"CS","ts":"2019-10-10T21:05:26Z","tX":305,"tY":647,"tags":{"internet_access":"wlan","name":"Camping Tierra Viva","name:es":"Camping Tierra Viva","opening_hours":"24/7"}},"5336079822":{"location":[-42.9124953,-72.7113912],"ct":"CL","tp":"CS","ts":"2018-01-13T03:38:13Z","tX":305,"tY":647,"tags":{"addr:housenumber":"15","addr:street":"Arturo Prat","email":"liset_eif@hotmail.com","internet_access":"wlan","name":"Camping con dormís y expediciones la escondia","opening_hours":"24/7","operator":"lisette","phone":"+56978484803"}},"5401284554":{"location":[-42.9300963,-72.6861539],"ct":"CL","tp":"CS","ts":"2018-02-09T14:09:48Z","tX":305,"tY":647,"tags":{}},"6221004677":{"location":[-42.9302295,-72.6874239],"ct":"CL","tp":"CS","ts":"2019-01-19T12:54:35Z","tX":305,"tY":647,"tags":{}},"6412473385":{"location":[-42.9250906,-72.7139432],"ct":"CL","tp":"CS","ts":"2019-04-17T17:53:54Z","tX":305,"tY":647,"tags":{"addr:housenumber":"1135","addr:street":"Avenida Corcovado","email":"ovandoaaron@gmail.com","name":"camping Ovando","name:en":"Camping Ovando","name:es":"Camping Ovando","opening_hours":"24/7","phone":"993459189"}},"11649255684":{"location":[-43.0117771,-72.4950616],"ct":"CL","tp":"CS","ts":"2024-02-21T14:06:57Z","tX":305,"tY":647,"tags":{"name":"Camping Arroyo Claro"}}}