{"1784904468":{"location":[-48.4638354,-72.5615858],"ct":"CL","tp":"CS","ts":"2024-12-17T14:46:40Z","tX":305,"tY":670,"tags":{"addr:street":"Carretera Austral","caravans":"no","fee":"yes","internet_access":"wlan","name":"Los Ñirres","tents":"yes"}},"4494418902":{"location":[-48.4647551,-72.5608491],"ct":"CL","tp":"CS","ts":"2024-12-17T14:46:39Z","tX":305,"tY":670,"tags":{"addr:street":"Carretera Austral","caravans":"yes","drinking_water":"yes","email":"patagoniamosco@yahoo.es","fee":"yes","internet_access":"wlan","name":"El Mosco","tents":"yes","website":"http://www.elmosco.cl"}},"5457971436":{"location":[-48.4611449,-72.5620555],"ct":"CL","tp":"CS","ts":"2019-02-03T12:08:22Z","tX":305,"tY":670,"tags":{"addr:city":"Villa O'Higgins","addr:housenumber":"50","addr:street":"Camino Cementerio","fee":"yes","name":"Los Pioneros","operator":"Arcel Villegas","tents":"yes"}},"11677718181":{"location":[-48.4617265,-72.563444],"ct":"CL","tp":"CS","ts":"2024-12-17T15:55:07Z","tX":305,"tY":670,"tags":{"addr:street":"Callejón Cementerio","caravans":"yes","drinking_water":"yes","email":"tierraparaisocamping@gmail.com","internet_access":"wlan","name":"Camping Tierra Paraíso","opening_hours":"24/7","phone":"+56 9 5712 2935","power_supply":"yes","shower":"yes","tents":"yes"}}}