{"3396015422":{"location":[-51.7305762,-72.4895041],"ct":"CL","tp":"CS","ts":"2022-05-07T06:31:36Z","tX":305,"tY":684,"tags":{"addr:housenumber":"1199","addr:street":"21 de Mayo","email":"campinguino@gmail.com","name":"camping Güino","name:es":"camping Güino","phone":"056949787501","website":"https://www.campinguino.com/"}},"3843069900":{"location":[-51.725974,-72.4914444],"ct":"CL","tp":"CS","ts":"2017-01-18T21:15:15Z","tX":305,"tY":684,"tags":{"addr:housenumber":"367","addr:street":"Juan Mac-Lean","internet_access":"wlan","name":"Camping","name:en":"Josmar Hostel & Camping","name:es":"Camping","website":"http://www.josmar.cl"}},"4630563689":{"location":[-51.7163854,-72.4819685],"ct":"CL","tp":"CS","ts":"2017-01-24T21:39:31Z","tX":305,"tY":684,"tags":{"name":"Aventura","name:es":"Aventura","name:fr":"Aventura"}},"4632003693":{"location":[-51.7280485,-72.4990235],"ct":"CL","tp":"CS","ts":"2020-10-19T11:25:49Z","tX":305,"tY":684,"tags":{"addr:housenumber":"444","addr:street":"Eleuterio Ramírez","email":"info@yellowplumtenthouse.com","internet_access":"wlan","name":"Camping Yellow Plum","name:en":"Camping Yellow Plum","name:es":"Camping Yellow Plum","opening_hours":"Mo-Su 06:00-23:59","operator":"Carlos","phone":"+56966759930","website":"https://www.campingyellowplum.com/"}},"4678821489":{"location":[-51.7302055,-72.4898345],"ct":"CL","tp":"CS","ts":"2017-02-10T17:20:11Z","tX":305,"tY":684,"tags":{"name":"Campingüino","name:es":"Campingüino"}},"4684028892":{"location":[-51.7282625,-72.4990248],"ct":"CL","tp":"CS","ts":"2019-03-16T03:15:15Z","tX":305,"tY":684,"tags":{"addr:housenumber":"444","addr:street":"Eleuterio Ramírez","email":"info@yellowplumtenthouse.com","internet_access":"wlan","name:en":"Yellow Plum Tent House","opening_hours":"24/7","phone":"+56966759930","website":"https://www.campingyellowplum.com/"}},"7245157685":{"location":[-51.7423995,-72.4938428],"ct":"CL","tp":"CR","ts":"2020-02-26T14:16:51Z","tX":305,"tY":684,"tags":{"name:en":"Inofficial wild camping for Mobilehomes"}}}