{"253461398":{"location":[-25.5791399,113.464236],"ct":"AU","tp":"CS","ts":"2024-08-20T02:05:26Z","tX":834,"tY":587,"tags":{"drinking_water":"no","fee":"yes","internet_access":"no","name":"South Gregorys","opening_hours":"24/7","tents":"yes","website":"https://exploreparks.dbca.wa.gov.au/site/south-gregories-campground"}},"253461674":{"location":[-25.622814,113.5354563],"ct":"AU","tp":"CS","ts":"2024-08-20T02:05:25Z","tX":834,"tY":587,"tags":{"drinking_water":"no","fee":"yes","internet_access":"no","name":"Herald Bight","opening_hours":"24/7","tents":"yes","toilets":"yes","website":"https://exploreparks.dbca.wa.gov.au/site/herald-bight-campground"}},"253461832":{"location":[-25.5582188,113.4753593],"ct":"AU","tp":"CS","ts":"2024-08-20T02:05:27Z","tX":834,"tY":587,"tags":{"drinking_water":"no","fee":"yes","internet_access":"no","name":"Gregorys","opening_hours":"24/7","tents":"yes","website":"https://exploreparks.dbca.wa.gov.au/site/gregories-campground"}},"618126068":{"location":[-25.7764441,113.4771803],"ct":"AU","tp":"CS","ts":"2024-08-20T02:05:24Z","tX":834,"tY":587,"tags":{"drinking_water":"no","fee":"yes","internet_access":"no","name":"Big Lagoon","opening_hours":"24/7","tents":"yes","website":"https://exploreparks.dbca.wa.gov.au/site/big-lagoon-campground"}},"1962920432":{"location":[-25.546,113.4904356],"ct":"AU","tp":"CS","ts":"2024-08-20T02:05:28Z","tX":834,"tY":587,"tags":{"drinking_water":"no","fee":"yes","internet_access":"no","name":"Bottle Bay","opening_hours":"24/7","tents":"yes","website":"https://exploreparks.dbca.wa.gov.au/site/bottle-bay-campground"}},"5679483749":{"location":[-25.5435305,113.4923154],"ct":"AU","tp":"CS","ts":"2024-08-20T02:05:29Z","tX":834,"tY":587,"tags":{"drinking_water":"no","fee":"yes","internet_access":"no","name":"Bottle Bay","opening_hours":"24/7","tents":"yes","website":"https://exploreparks.dbca.wa.gov.au/site/bottle-bay-campground"}},"5679483750":{"location":[-25.5446437,113.4912908],"ct":"AU","tp":"CS","ts":"2024-08-20T02:05:27Z","tX":834,"tY":587,"tags":{"drinking_water":"no","fee":"yes","internet_access":"no","name":"Bottle Bay","opening_hours":"24/7","tents":"yes","website":"https://exploreparks.dbca.wa.gov.au/site/bottle-bay-campground"}}}