{"189619066":{"location":[-25.9243474,113.5291733],"ct":"AU","tp":"CR","ts":"2022-12-30T07:20:58Z","tX":834,"tY":588,"tags":{"addr:city":"Denham","addr:housenumber":"1","addr:postcode":"6537","addr:state":"WA","addr:street":"Stella Rowley Drive","addr:suburb":"Denham","email":"shark.bay@wn.com.au","internet_access":"wlan","name":"Denham Seaside Caravan Park","opening_hours":"08:00-18:00","phone":"+61 8 9948 1242","power_supply":"yes","tents":"yes","toilets":"yes","toilets:wheelchair":"yes","website":"http://www.sharkbayfun.com/"}},"382885877":{"location":[-25.9286245,113.5377502],"ct":"AU","tp":"CR","ts":"2015-11-26T16:23:47Z","tX":834,"tY":588,"tags":{"addr:city":"Denham","addr:housenumber":"Lot 5","addr:postcode":"6537","addr:street":"Hamelin Road","email":"enquiries@bluedolphin.net.au","name":"Blue Dolphin Caravan Park and Holiday Village","phone":"+61 8 9948 1385","power_supply":"yes"}},"382887318":{"location":[-25.9249979,113.5380757],"ct":"AU","tp":"CR","ts":"2024-09-18T11:07:10Z","tX":834,"tY":588,"tags":{"addr:city":"Denham","addr:housenumber":"6","addr:postcode":"6537","addr:street":"Spaven Way","drinking_water":"yes","email":"trish.roch@bigpond.com","fee":"yes","name":"Shark Bay Caravan Park","phone":"+61 8 9948 1387","phone:AU":"1800 803 492","power_supply":"yes","toilets":"yes","website":"http://www.sbvan.com/"}},"6815247415":{"location":[-25.9271272,113.5430805],"ct":"AU","tp":"SD","ts":"2019-09-22T09:33:41Z","tX":834,"tY":588,"tags":{}}}