{"4153010090":{"location":[18.0905734,-15.9801725],"ct":"MR","tp":"CS","ts":"2020-11-01T22:43:09Z","tX":466,"tY":459,"tags":{"name":"البرك","name:ar":"البرك"}},"4803480924":{"location":[18.1348444,-15.9652119],"ct":"MR","tp":"CS","ts":"2017-04-19T11:08:09Z","tX":466,"tY":459,"tags":{"name:en":"Place sidi sahrawi"}},"5179188635":{"location":[18.0322653,-15.9781734],"ct":"MR","tp":"CS","ts":"2017-12-02T20:32:53Z","tX":466,"tY":459,"tags":{"addr:city":"نواكشوط","name":"بيت بلال سامبا فال","name:ar":"بيت بلال سامبا فال","name:fr":"Maison Bilal Samba Val"}},"5300415121":{"location":[18.1207986,-15.936492],"ct":"MR","tp":"CS","ts":"2017-12-23T08:21:25Z","tX":466,"tY":459,"tags":{"name:fr":"شقق"}},"5338034020":{"location":[18.2194664,-16.0360613],"ct":"MR","tp":"CS","ts":"2018-01-13T23:18:19Z","tX":466,"tY":459,"tags":{"name":"Les Sultanes"}},"6227930685":{"location":[18.0293905,-15.9190928],"ct":"MR","tp":"CS","ts":"2019-02-13T22:06:07Z","tX":466,"tY":459,"tags":{"name:fr":"terrain tarhil"}},"7424354806":{"location":[18.1159261,-16.0247853],"ct":"MR","tp":"CS","ts":"2020-04-20T04:47:01Z","tX":466,"tY":459,"tags":{"backcountry":"yes"}},"8280195017":{"location":[18.0550529,-15.9363952],"ct":"MR","tp":"CS","ts":"2021-01-01T02:16:27Z","tX":466,"tY":459,"tags":{"addr:housenumber":"440 - 442","email":"abdellahi.hamd@gmail.com","internet_access":"wlan","name:ar":"عائلة حامد الأنصاري","name:en":"Anssary Familly","phone":"33404318"}},"8564636426":{"location":[18.0550926,-15.9363394],"ct":"MR","tp":"CS","ts":"2021-03-26T16:27:55Z","tX":466,"tY":459,"tags":{"addr:housenumber":"440 - 442","email":"abdallahi.hamid123@gmail.com","name:ar":"عائلة حامد الأنصاري","name:en":"Alaanssary Famille","phone":"3344318"}},"8566859717":{"location":[18.0507679,-15.9329456],"ct":"MR","tp":"CS","ts":"2021-03-31T10:53:17Z","tX":466,"tY":459,"tags":{"name:ar":"القطع الأرضية لحامد الأنصاري","name:en":"lots Hamed Al anssary","name:fr":"Lots Hamed Al Anssari","phone":"38646404"}},"11209794737":{"location":[18.0642412,-15.9520236],"ct":"MR","tp":"CS","ts":"2023-09-22T09:23:42Z","tX":466,"tY":459,"tags":{"email":"sidiwabal32@gmail.com","name:ar":"42B","opening_hours":"24/7","phone":"32282721"}},"11209800337":{"location":[18.0637121,-15.9519278],"ct":"MR","tp":"CS","ts":"2023-09-22T09:25:31Z","tX":466,"tY":459,"tags":{"email":"sidiwabal32@gmail.com","name:ar":"42B","phone":"32282721"}},"11209800338":{"location":[18.060145,-15.9523674],"ct":"MR","tp":"CS","ts":"2023-09-22T09:37:54Z","tX":466,"tY":459,"tags":{"email":"sidiwabal32@gmail.com","name:ar":"42B","phone":"32282721"}},"11209804038":{"location":[18.0627775,-15.9516607],"ct":"MR","tp":"CS","ts":"2023-09-22T09:28:29Z","tX":466,"tY":459,"tags":{"name:ar":"42B","phone":"32282721"}},"11209807039":{"location":[18.0616557,-15.9513707],"ct":"MR","tp":"CS","ts":"2023-09-22T09:30:38Z","tX":466,"tY":459,"tags":{"email":"sidiwabal32@gmail.com","name:ar":"42B","phone":"32282721"}},"11209808237":{"location":[18.0620801,-15.9514612],"ct":"MR","tp":"CS","ts":"2023-09-22T09:29:46Z","tX":466,"tY":459,"tags":{"name:ar":"42B","phone":"32282721"}},"11209817337":{"location":[18.0614915,-15.952675],"ct":"MR","tp":"CS","ts":"2023-09-22T09:31:41Z","tX":466,"tY":459,"tags":{"email":"sidiwabal32@gmail.com","name:ar":"42B","phone":"32282721"}},"11209817338":{"location":[18.0631834,-15.9530718],"ct":"MR","tp":"CS","ts":"2023-09-22T09:32:46Z","tX":466,"tY":459,"tags":{"email":"sidiwabal32@gmail.com","name:ar":"42B","phone":"32282721"}},"11209817339":{"location":[18.0610157,-15.9525686],"ct":"MR","tp":"CS","ts":"2023-09-22T09:33:50Z","tX":466,"tY":459,"tags":{"email":"sidiwabal32@gmail.com","name:ar":"42B","phone":"32282721"}},"11209828137":{"location":[18.0601299,-15.9516644],"ct":"MR","tp":"CS","ts":"2023-09-22T09:34:46Z","tX":466,"tY":459,"tags":{"email":"sidiwabal32@gmail.com","name:ar":"42B","phone":"32282721"}},"11209829137":{"location":[18.0592252,-15.950951],"ct":"MR","tp":"CS","ts":"2023-09-22T09:35:45Z","tX":466,"tY":459,"tags":{"email":"sidiwabal32@gmail.com","name:ar":"42B","phone":"32282721"}},"11209829138":{"location":[18.0593835,-15.9522023],"ct":"MR","tp":"CS","ts":"2023-09-22T09:36:46Z","tX":466,"tY":459,"tags":{"email":"sidiwabal32@gmail.com","name:ar":"42B","phone":"32282721"}},"11209829139":{"location":[18.0600342,-15.9518974],"ct":"MR","tp":"CS","ts":"2023-09-22T09:38:47Z","tX":466,"tY":459,"tags":{"email":"sidiwabal32@gmail.com","name:ar":"42B","phone":"32282721"}},"11209829338":{"location":[18.0561562,-15.9488884],"ct":"MR","tp":"CS","ts":"2023-09-22T09:41:45Z","tX":466,"tY":459,"tags":{"email":"sidiwabal32@gmail.com","name:ar":"42B","phone":"32282721"}},"11209829339":{"location":[18.0585298,-15.9521745],"ct":"MR","tp":"CS","ts":"2023-09-22T09:42:56Z","tX":466,"tY":459,"tags":{"email":"sidiwabal32@gmail.com","name:ar":"42B","phone":"32282721"}},"11209834437":{"location":[18.0579366,-15.9506365],"ct":"MR","tp":"CS","ts":"2023-09-22T09:39:47Z","tX":466,"tY":459,"tags":{"email":"sidiwabal32@gmail.com","name:ar":"42B","phone":"32282721"}},"11209837337":{"location":[18.0577602,-15.9516202],"ct":"MR","tp":"CS","ts":"2023-09-22T09:40:36Z","tX":466,"tY":459,"tags":{"email":"sidiwabal32@gmail.com","name:ar":"42B","phone":"32282721"}},"11209838138":{"location":[18.0587458,-15.9535101],"ct":"MR","tp":"CS","ts":"2023-09-22T09:44:47Z","tX":466,"tY":459,"tags":{"email":"sidiwabal32@gmail.com","name:ar":"42B","phone":"32282721"}},"11209840439":{"location":[18.0559252,-15.9527995],"ct":"MR","tp":"CS","ts":"2023-09-22T09:45:41Z","tX":466,"tY":459,"tags":{"email":"sidiwabal32@gmail.com","name:ar":"42B","phone":"32282721"}},"11209841638":{"location":[18.0553376,-15.9505643],"ct":"MR","tp":"CS","ts":"2023-09-22T09:46:41Z","tX":466,"tY":459,"tags":{"email":"sidiwabal32@gmail.com","name:ar":"42B","phone":"32282721"}},"11209841639":{"location":[18.0526133,-15.9494051],"ct":"MR","tp":"CS","ts":"2023-09-22T09:49:56Z","tX":466,"tY":459,"tags":{"email":"sidiwabal32@gmail.com","name:ar":"42B","phone":"32282721"}},"11209843837":{"location":[18.0603202,-15.9538655],"ct":"MR","tp":"CS","ts":"2023-09-22T09:43:44Z","tX":466,"tY":459,"tags":{"email":"sidiwabal32@gmail.com","name:ar":"42B","phone":"32282721"}},"11209857037":{"location":[18.0543271,-15.9497552],"ct":"MR","tp":"CS","ts":"2023-09-22T09:47:26Z","tX":466,"tY":459,"tags":{"email":"sidiwabal32@gmail.com","name:ar":"42B","phone":"32282721"}},"11209857937":{"location":[18.0540359,-15.951084],"ct":"MR","tp":"CS","ts":"2023-09-22T09:48:21Z","tX":466,"tY":459,"tags":{"email":"sidiwabal32@gmail.com","name:ar":"42B","phone":"32282721"}},"11209859137":{"location":[18.0549925,-15.9513862],"ct":"MR","tp":"CS","ts":"2023-09-22T09:49:07Z","tX":466,"tY":459,"tags":{"email":"sidiwabal32@gmail.com","name:ar":"42B","phone":"32282721"}},"11209861337":{"location":[18.0527307,-15.9505461],"ct":"MR","tp":"CS","ts":"2023-09-22T09:50:49Z","tX":466,"tY":459,"tags":{"email":"sidiwabal32@gmail.com","name:ar":"42B","phone":"32282721"}},"11209861338":{"location":[18.0548932,-15.95308],"ct":"MR","tp":"CS","ts":"2023-09-22T09:54:22Z","tX":466,"tY":459,"tags":{"email":"sidiwabal32@gmail.com","name:ar":"42B","phone":"32282721"}},"11209863237":{"location":[18.052505,-15.9520334],"ct":"MR","tp":"CS","ts":"2023-09-22T09:52:01Z","tX":466,"tY":459,"tags":{"email":"sidiwabal32@gmail.com","name:ar":"42B","phone":"32282721"}},"11209865137":{"location":[18.0549322,-15.9525306],"ct":"MR","tp":"CS","ts":"2023-09-22T09:52:48Z","tX":466,"tY":459,"tags":{"email":"sidiwabal32@gmail.com","name:ar":"42B","phone":"32282721"}},"11209866837":{"location":[18.0538904,-15.9524291],"ct":"MR","tp":"CS","ts":"2023-09-22T09:53:29Z","tX":466,"tY":459,"tags":{"email":"sidiwabal32@gmail.com","name:ar":"42B","phone":"32282721"}},"11210366138":{"location":[18.0545826,-15.9547935],"ct":"MR","tp":"CS","ts":"2023-09-22T15:00:31Z","tX":466,"tY":459,"tags":{"email":"sidiwabal32@gmail.com","name:ar":"42B","phone":"32282721"}},"11210366139":{"location":[18.0531519,-15.9549087],"ct":"MR","tp":"CS","ts":"2023-09-22T15:01:33Z","tX":466,"tY":459,"tags":{"email":"sidiwabal32@gmail.com","name:ar":"42B","phone":"32282721"}},"11210372137":{"location":[18.053452,-15.9535822],"ct":"MR","tp":"CS","ts":"2023-09-22T14:58:03Z","tX":466,"tY":459,"tags":{"email":"sidiwabal32@gmail.com","name:ar":"42B","phone":"32282721"}},"11210373937":{"location":[18.0547,-15.9541516],"ct":"MR","tp":"CS","ts":"2023-09-22T14:59:09Z","tX":466,"tY":459,"tags":{"email":"sidiwabal32@gmail.com","name:ar":"42B","phone":"32282721"}},"11210373938":{"location":[18.052259,-15.9537949],"ct":"MR","tp":"CS","ts":"2023-09-22T15:02:18Z","tX":466,"tY":459,"tags":{"email":"sidiwabal32@gmail.com","name:ar":"42B","phone":"32282721"}},"11210374237":{"location":[18.0559311,-15.9554211],"ct":"MR","tp":"CS","ts":"2023-09-22T14:59:52Z","tX":466,"tY":459,"tags":{"email":"sidiwabal32@gmail.com","name:ar":"42B","phone":"32282721"}},"11210385137":{"location":[18.0510881,-15.9544121],"ct":"MR","tp":"CS","ts":"2023-09-22T15:03:04Z","tX":466,"tY":459,"tags":{"email":"sidiwabal32@gmail.com","name:ar":"42B","phone":"32282721"}},"11210385138":{"location":[18.0570351,-15.9556195],"ct":"MR","tp":"CS","ts":"2023-09-22T15:12:01Z","tX":466,"tY":459,"tags":{"email":"sidiwabal32@gmail.com","name:ar":"42B","phone":"32282721"}},"11210386737":{"location":[18.0501354,-15.9541966],"ct":"MR","tp":"CS","ts":"2023-09-22T15:03:46Z","tX":466,"tY":459,"tags":{"email":"sidiwabal32@gmail.com","name:ar":"42B","phone":"32282721"}},"11210386738":{"location":[18.0511169,-15.9530714],"ct":"MR","tp":"CS","ts":"2023-09-22T15:05:12Z","tX":466,"tY":459,"tags":{"email":"sidiwabal32@gmail.com","name:ar":"42B","phone":"32282721"}},"11210386739":{"location":[18.0522252,-15.9476919],"ct":"MR","tp":"CS","ts":"2023-09-22T15:07:21Z","tX":466,"tY":459,"tags":{"email":"sidiwabal32@gmail.com","name:ar":"42B","phone":"32282721"}},"11210387737":{"location":[18.0498883,-15.9527919],"ct":"MR","tp":"CS","ts":"2023-09-22T15:04:27Z","tX":466,"tY":459,"tags":{"email":"sidiwabal32@gmail.com","name:ar":"42B","phone":"32282721"}},"11210387738":{"location":[18.0488875,-15.9512352],"ct":"MR","tp":"CS","ts":"2023-09-22T15:05:56Z","tX":466,"tY":459,"tags":{"email":"sidiwabal32@gmail.com","name:ar":"42B","phone":"32282721"}},"11210390137":{"location":[18.0491666,-15.9501135],"ct":"MR","tp":"CS","ts":"2023-09-22T15:06:36Z","tX":466,"tY":459,"tags":{"email":"sidiwabal32@gmail.com","name:ar":"42B","phone":"32282721"}},"11210390138":{"location":[18.0512825,-15.9478587],"ct":"MR","tp":"CS","ts":"2023-09-22T15:08:03Z","tX":466,"tY":459,"tags":{"email":"sidiwabal32@gmail.com","name:ar":"42B","phone":"32282721"}},"11210394637":{"location":[18.0508801,-15.9474949],"ct":"MR","tp":"CS","ts":"2023-09-22T15:09:11Z","tX":466,"tY":459,"tags":{"email":"sidiwabal32@gmail.com","name:ar":"42B","phone":"32282721"}},"11210394638":{"location":[18.0507209,-15.9486795],"ct":"MR","tp":"CS","ts":"2023-09-22T15:09:49Z","tX":466,"tY":459,"tags":{"email":"sidiwabal32@gmail.com","name:ar":"42B","phone":"32282721"}},"11210394639":{"location":[18.0484044,-15.9537702],"ct":"MR","tp":"CS","ts":"2023-09-22T15:11:00Z","tX":466,"tY":459,"tags":{"email":"sidiwabal32@gmail.com","name:ar":"42B","phone":"32282721"}},"11210399137":{"location":[18.0571522,-15.9548095],"ct":"MR","tp":"CS","ts":"2023-09-22T15:12:32Z","tX":466,"tY":459,"tags":{"email":"sidiwabal32@gmail.com","name:ar":"42B","phone":"32282721"}},"11210399138":{"location":[18.0583403,-15.9556234],"ct":"MR","tp":"CS","ts":"2023-09-22T15:19:21Z","tX":466,"tY":459,"tags":{"email":"sidiwabal32@gmail.com","name:ar":"42B","phone":"32282721"}},"11210399139":{"location":[18.0597306,-15.9551288],"ct":"MR","tp":"CS","ts":"2023-09-22T15:20:31Z","tX":466,"tY":459,"tags":{"email":"sidiwabal32@gmail.com","name:ar":"42B","phone":"32282721"}},"11210400037":{"location":[18.0574476,-15.9535078],"ct":"MR","tp":"CS","ts":"2023-09-22T15:13:12Z","tX":466,"tY":459,"tags":{"email":"sidiwabal32@gmail.com","name:ar":"42B","phone":"32282721"}},"11210401637":{"location":[18.0578521,-15.9517998],"ct":"MR","tp":"CS","ts":"2023-09-22T15:13:55Z","tX":466,"tY":459,"tags":{"email":"sidiwabal32@gmail.com","name:ar":"42B","phone":"32282721"}},"11210403037":{"location":[18.0575461,-15.9531707],"ct":"MR","tp":"CS","ts":"2023-09-22T15:14:33Z","tX":466,"tY":459,"tags":{"email":"sidiwabal32@gmail.com","name:ar":"42B","phone":"32282721"}},"11210403038":{"location":[18.0597313,-15.9563497],"ct":"MR","tp":"CS","ts":"2023-09-22T15:18:02Z","tX":466,"tY":459,"tags":{"email":"sidiwabal32@gmail.com","name:ar":"42B","phone":"32282721"}},"11210404737":{"location":[18.0599644,-15.9539203],"ct":"MR","tp":"CS","ts":"2023-09-22T15:15:18Z","tX":466,"tY":459,"tags":{"email":"sidiwabal32@gmail.com","name:ar":"42B","phone":"32282721"}},"11210404738":{"location":[18.0603524,-15.955239],"ct":"MR","tp":"CS","ts":"2023-09-22T15:17:18Z","tX":466,"tY":459,"tags":{"email":"sidiwabal32@gmail.com","name:ar":"42B","phone":"32282721"}},"11210405437":{"location":[18.0608692,-15.9559096],"ct":"MR","tp":"CS","ts":"2023-09-22T15:15:57Z","tX":466,"tY":459,"tags":{"email":"sidiwabal32@gmail.com","name:ar":"42B","phone":"32282721"}},"11210407137":{"location":[18.0610963,-15.9554304],"ct":"MR","tp":"CS","ts":"2023-09-22T15:16:40Z","tX":466,"tY":459,"tags":{"email":"sidiwabal32@gmail.com","name:ar":"42B","phone":"32282721"}},"11210409537":{"location":[18.0582598,-15.9560168],"ct":"MR","tp":"CS","ts":"2023-09-22T15:18:42Z","tX":466,"tY":459,"tags":{"email":"sidiwabal32@gmail.com","name:ar":"42B","phone":"32282721"}},"11210409538":{"location":[18.0562904,-15.9529775],"ct":"MR","tp":"CS","ts":"2023-09-22T15:21:42Z","tX":466,"tY":459,"tags":{"email":"sidiwabal32@gmail.com","name:ar":"42B","phone":"32282721"}},"11945813269":{"location":[18.1577418,-15.9594033],"ct":"MR","tp":"CS","ts":"2024-06-03T15:46:11Z","tX":466,"tY":459,"tags":{}}}