{"9356615":{"location":[53.1713668,7.4189156],"ct":"DE","tp":"CS","ts":"2022-08-02T14:27:53Z","tX":533,"tY":332,"tags":{"addr:city":"Westoverledingen","addr:housenumber":"7A","addr:postcode":"26810","addr:street":"Deichstraße","cabins":"yes","caravans":"yes","email":"info@ostfriesland-camping.de","internet_access":"wlan","name":"Freizeitpark am Emsdeich","permanent_camping":"yes","phone":"+494955920040","power_supply":"yes","stars":"4","tents":"yes","website":"https://www.ostfriesland-camping.de/"}},"31776234":{"location":[53.1683802,7.7332548],"ct":"DE","tp":"CR","ts":"2024-07-02T10:52:47Z","tX":533,"tY":332,"tags":{"capacity":"18","caravan_site":"motorhome_stopover","caravan_site:type":"harbour","caravans":"no","charge":"9 EUR","description":"register at harbour master. If arrive outsite opening hours you have to wait for the key to facilities.","description:de":"Wohnmobil Stellplatz Barßel","dog":"yes","fee":"yes","internet_access":"wlan","internet_access:fee":"no","laundry":"yes","name":"Reisemobilhafen Barßel","opening_hours:registration":"09:00-20:00","power_supply":"yes","power_supply:charge":"2 EUR/day;0.5 EUR/kWh","power_supply:fee":"yes","sanitary_dump_station":"yes","sanitary_dump_station:chemical_toilet":"yes","sanitary_dump_station:grey_water":"yes","shower":"yes","tents":"no","toilets":"yes","water_point":"yes","water_point:fee":"no","website":"https://womo-stellplatz-barssel.de/","wikimedia_commons":"Category:Wohnmobilstellplatz Barßel"}},"71902126":{"location":[53.2066051,7.6401782],"ct":"DE","tp":"CS","ts":"2023-11-02T21:32:34Z","tX":533,"tY":332,"tags":{"email":"info@detern.de","name":"Campingplatz Jümmesee","phone":"+49 4957 1808","website":"https://detern.de/"}},"72187311":{"location":[53.2155642,7.6462359],"ct":"DE","tp":"CR","ts":"2023-10-03T21:28:08Z","tX":533,"tY":332,"tags":{"capacity":"40","caravans":"no","dog":"yes","dryer":"yes","fee":"yes","lit":"yes","name":"Reisemobilstellplatz an der Jümme","power_supply":"yes","sanitary_dump_station":"yes","sanitary_dump_station:chemical_toilet":"yes","sanitary_dump_station:grey_water":"yes","shower":"yes","surface":"paving_stones","tents":"no","toilets":"yes","washing_machine":"yes","water_point":"yes","wheelchair":"limited"}},"85470355":{"location":[53.1283232,7.6690586],"ct":"DE","tp":"CR","ts":"2021-06-24T18:18:51Z","tX":533,"tY":332,"tags":{"capacity":"15","fee":"yes","name":"Wohnmobilstellplatz Strücklinger Hof","power_supply":"yes"}},"97276425":{"location":[53.2232228,7.4231075],"ct":"DE","tp":"CS","ts":"2015-06-08T08:16:51Z","tX":533,"tY":332,"tags":{"name":"Camping Ems-Marina Bingum"}},"111525031":{"location":[53.1682238,7.6804601],"ct":"DE","tp":"CS","ts":"2023-11-02T21:33:33Z","tX":533,"tY":332,"tags":{"addr:city":"Barßel","addr:country":"DE","addr:housenumber":"2","addr:postcode":"26676","addr:street":"Waldstraße","addr:suburb":"Osterhausen","email":"Info@elisabethfehn-camping.de","fax":"+49 4499 918736","name":"Campingplatz Elisabethfehn","phone":"+49 4499 1202","website":"https://elisabethfehn-camping.de/"}},"161773039":{"location":[53.1293819,7.442347],"ct":"DE","tp":"CR","ts":"2024-11-21T15:01:55Z","tX":533,"tY":332,"tags":{"area":"yes","capacity":"30","caravan_site":"motorhome_stopover","caravan_site:type":"guest_house","charge":"6 EUR","fee":"yes","name":"Reisemobilstellplatz Westoverledingen-Steenfelde - Gasthaus Mühle","power_supply":"yes","power_supply:fee":"no","sanitary_dump_station":"yes","sanitary_dump_station:chemical_toilet:fee":"no","toilets":"yes"}},"189592513":{"location":[53.1385647,7.5879893],"ct":"DE","tp":"CR","ts":"2023-01-18T17:57:46Z","tX":533,"tY":332,"tags":{"addr:city":"Rhauderfehn","addr:country":"DE","addr:housenumber":"6A","addr:postcode":"26817","addr:street":"Am Siel","capacity":"16","caravans":"no","dog":"yes","fee":"yes","name":"Wohnmobilstellplatz Rhauderfehn","phone":"+49 4952 921441","power_supply":"yes","sanitary_dump_station":"yes","tents":"no","website":"http://www.cafe-rhauderfehn.de/","wheelchair":"no"}},"216610615":{"location":[53.1214619,7.6688394],"ct":"DE","tp":"CR","ts":"2021-09-09T07:32:58Z","tX":533,"tY":332,"tags":{"addr:city":"Saterland","addr:country":"DE","addr:housenumber":"608","addr:postcode":"26683","addr:street":"Hauptstraße","addr:suburb":"Strücklingen","capacity":"55","email":"info@reisemobilpark-sagter-ems.de","fee":"yes","mobile":"+49 173 9696 222","name":"Reisemobilpark Sagter Ems","power_supply":"yes","sanitary_dump_station":"yes","water_point":"yes","website":"https://www.reisemobilpark-sagter-ems.de/"}},"228641104":{"location":[53.1274245,7.4628629],"ct":"DE","tp":"CR","ts":"2024-11-21T16:06:02Z","tX":533,"tY":332,"tags":{"caravan_site":"motorhome_stopover","caravan_site:type":"restaurant","charge":"6 EUR","fee":"yes","name":"Westoverledingen-Flachsmeer","operator":"Gasthof Reepmeyer","power_supply":"yes","power_supply:fee":"no","sanitary_dump_station":"yes","surface":"grass","water_point":"yes","water_point:fee":"yes","website":"https://www.ostfriesland.travel/gastgeber-in-ostfriesland/reisemobilstellplatz-westoverledingen-flachsmeer-gasthof-reepmeyer-westoverledingen"}},"365608067":{"location":[53.1673521,7.7338327],"ct":"DE","tp":"CR","ts":"2023-12-04T13:19:54Z","tX":533,"tY":332,"tags":{"capacity":"22","caravans":"no","charge":"9 EUR","description":"register at harbour master. If arrive outsite opening hours you have to wait for the key to facilities.","dog":"yes","fee":"yes","laundry":"yes","name":"Wohnmobil Stellplatz Barßel Der Waldplatz","opening_hours:registration":"09:00-20:00","power_supply":"no","shower":"yes","tents":"no","toilets":"yes","water_point":"yes","water_point:fee":"no","website":"https://womo-stellplatz-barssel.de/"}},"607235493":{"location":[53.1389277,7.6230329],"ct":"DE","tp":"CR","ts":"2018-07-12T05:20:56Z","tX":533,"tY":332,"tags":{"addr:city":"Ostrhauderfehn","addr:postcode":"26842","capacity":"45","fee":"yes","internet_access":"wlan","internet_access:fee":"no","name":"Reisemobilstellplatz Ostrhauderfehn","phone":"+49 4952 80544","power_supply":"yes","sanitary_dump_station":"yes","website":"https://www.ostfriesland.de/mein-ostfriesland/ferienorte/ostrhauderfehn/interessantes/reisemobilstellplatz-ostrhauderfehn.html"}},"655350032":{"location":[53.2240331,7.4201909],"ct":"DE","tp":"CR","ts":"2021-12-26T16:33:49Z","tX":533,"tY":332,"tags":{"addr:city":"Leer","addr:housenumber":"14 - 16","addr:postcode":"26789","addr:street":"Marinastraße","capacity":"20","fee":"yes","name":"Ems-Marina-Camping","power_supply":"yes","website":"https://ems-marina-camping.de/","wheelchair":"limited"}},"655350034":{"location":[53.304573,7.5911693],"ct":"DE","tp":"CR","ts":"2019-02-07T12:03:18Z","tX":533,"tY":332,"tags":{"fee":"no","name":"Kirchstraße (Hesel)","power_supply":"no","wheelchair":"limited"}},"655372070":{"location":[53.1293622,7.4421972],"ct":"DE","tp":"CR","ts":"2012-05-01T14:54:40Z","tX":533,"tY":332,"tags":{"capacity":"30","fee":"yes","name":"Gasthaus Mühle","power_supply":"yes"}},"655372073":{"location":[53.1267217,7.4631667],"ct":"DE","tp":"CR","ts":"2019-10-05T11:06:52Z","tX":533,"tY":332,"tags":{"capacity":"10","fee":"yes","name":"Gasthof Reepmeyer","power_supply":"yes"}},"655372076":{"location":[53.1657831,7.4511293],"ct":"DE","tp":"CR","ts":"2019-09-25T11:41:32Z","tX":533,"tY":332,"tags":{"capacity":"4","fee":"no","name":"Rathaus (Ihrhove)","power_supply":"no","wheelchair":"limited"}},"655372078":{"location":[53.226111,7.446944],"ct":"DE","tp":"CR","ts":"2023-06-18T19:30:02Z","tX":533,"tY":332,"tags":{"capacity":"8","fee":"no","name":"Große Bleiche (Leer)","power_supply":"no","toilets":"no","wheelchair":"limited"}},"655372089":{"location":[53.246944,7.516389],"ct":"DE","tp":"CR","ts":"2023-12-05T12:03:46Z","tX":533,"tY":332,"tags":{"capacity":"4","fee":"yes","name":"Parkplatz Mühle","power_supply":"yes","wikimedia_commons":"Category:Mühlenhof Eiklenborg"}},"668567978":{"location":[53.2252549,7.4546733],"ct":"DE","tp":"CR","ts":"2024-09-11T18:37:10Z","tX":533,"tY":332,"tags":{"fee":"no","name":"Reisemobilstellplatz Leer"}},"788149769":{"location":[53.1554778,7.6436345],"ct":"DE","tp":"CS","ts":"2023-12-04T14:31:58Z","tX":533,"tY":332,"tags":{"name":"Campingplatz am Idasee"}},"998194620":{"location":[53.2392082,7.4499661],"ct":"DE","tp":"CR","ts":"2025-01-01T01:59:33Z","tX":533,"tY":332,"tags":{"addr:city":"Leer (Ostfriesland)","addr:postcode":"26789","addr:street":"Hajo-Unken-Straße","capacity":"5","fee":"no","name":"Wohnmobilstellplatz am Plytje Schwimmbad","operator":"Stadt Leer","power_supply":"no","sanitary_dump_station":"no","wheelchair":"yes"}},"1228648248":{"location":[53.1539558,7.6443616],"ct":"DE","tp":"CR","ts":"2023-12-04T14:31:58Z","tX":533,"tY":332,"tags":{"capacity":"16","charge":"12 EUR","email":"reservierungen@campingidasee.de","fee":"yes","laundry":"yes","name":"Wohnmobilstellplatz am Idasee","power_supply":"yes","reservation":"yes","seasonal":"no","shower":"yes","toilets":"yes","website":"https://www.campingidasee.de/","wikimedia_commons":"Category:Wohnmobilstellplatz am Idasee"}},"1343326190":{"location":[53.154189,7.6435553],"ct":"DE","tp":"CS","ts":"2023-11-02T21:32:35Z","tX":533,"tY":332,"tags":{"addr:city":"Ostrhauderfehn","addr:housenumber":"77b","addr:postcode":"26842","addr:street":"Idafehn-Nord","caravans":"yes","email":"info@campingidasee.de","fax":"+49 4952 808628","name":"Campingplatz am Idasee","phone":"+49 4952 994297","power_supply":"yes","shower":"yes","static_caravans":"yes","tents":"yes","toilets":"yes","website":"https://www.campingidasee.de/","wheelchair":"yes"}},"3696098159":{"location":[53.168194,7.7335687],"ct":"DE","tp":"SD","ts":"2015-08-13T22:17:17Z","tX":533,"tY":332,"tags":{"sanitary_dump_station:chemical_toilet":"yes","sanitary_dump_station:gravity":"yes","sanitary_dump_station:grey_water":"yes"}},"3698168657":{"location":[53.1386182,7.5875532],"ct":"DE","tp":"SD","ts":"2015-08-15T06:00:19Z","tX":533,"tY":332,"tags":{"sanitary_dump_station:chemical_toilet":"yes","sanitary_dump_station:gravity":"yes","sanitary_dump_station:grey_water":"yes"}},"10244937356":{"location":[53.2157818,7.6472189],"ct":"DE","tp":"SD","ts":"2024-09-04T11:32:07Z","tX":533,"tY":332,"tags":{"fee":"no"}}}