{"14578645":{"location":[52.9772982,7.7339523],"ct":"DE","tp":"CS","ts":"2022-09-14T09:17:14Z","tX":533,"tY":333,"tags":{"name":"Campingplatz Heidehof","wheelchair":"yes"}},"55209616":{"location":[53.0707088,7.6984956],"ct":"DE","tp":"CR","ts":"2024-03-19T18:26:28Z","tX":533,"tY":333,"tags":{"capacity":"30","caravans":"no","dog":"yes","fee":"yes","leisure":"common","name":"Stellplatz am Maiglöckchensee Scharrel","operator":"Bürgerverein Scharrel","power_supply":"yes","tents":"no"}},"65967565":{"location":[53.0649078,7.4281862],"ct":"DE","tp":"CS","ts":"2024-06-27T11:10:40Z","tX":533,"tY":333,"tags":{"addr:city":"Papenburg","addr:housenumber":"101","addr:postcode":"26871","addr:street":"Zum Poggenpoel","internet_access":"wlan","name":"Campingplatz Poggenpoel","website":"https://campingplatz-papenburg.de/","wheelchair":"yes"}},"95948039":{"location":[52.9936323,7.6677119],"ct":"DE","tp":"CR","ts":"2023-12-04T21:01:19Z","tX":533,"tY":333,"tags":{"addr:city":"Esterwegen","addr:country":"DE","addr:postcode":"26897","addr:street":"Zum Erikasee","capacity:caravans":"6","fee":"no","name":"Zum Erikasee Esterwegen","power_supply":"yes","sanitary_dump_station":"yes","wikimedia_commons":"File:Esterwegen - Zum Erikasee 01 ies.jpg"}},"95968750":{"location":[52.9937058,7.6693197],"ct":"DE","tp":"CS","ts":"2023-06-13T13:00:01Z","tX":533,"tY":333,"tags":{"addr:city":"Esterwegen","addr:country":"DE","addr:postcode":"26897","addr:street":"Zum Erikasee","group_only":"yes","name":"Jugendzeltplatz am Erikasee N1"}},"96087813":{"location":[52.9939803,7.6698133],"ct":"DE","tp":"CS","ts":"2023-06-13T13:00:01Z","tX":533,"tY":333,"tags":{"addr:city":"Esterwegen","addr:country":"DE","addr:postcode":"26897","addr:street":"Zum Erikasee","group_only":"yes","name":"Jugendzeltplatz am Erikasee N2"}},"200045982":{"location":[52.9665144,7.519709],"ct":"DE","tp":"CS","ts":"2023-01-26T18:12:07Z","tX":533,"tY":333,"tags":{"addr:city":"Surwold","addr:country":"DE","addr:housenumber":"26","addr:postcode":"26903","addr:street":"Waldstraße","addr:suburb":"Börgerwald","caravans":"yes","email":"info@camping-surwold.de","name":"Campingplatz im Ferienpark Surwold","phone":"+49 2202 84016","power_supply":"yes","tents":"yes","website":"https://camping-surwold.de/"}},"300110355":{"location":[52.9674822,7.5102666],"ct":"DE","tp":"CS","ts":"2023-03-26T13:51:27Z","tX":533,"tY":333,"tags":{"addr:city":"Surwold","addr:housenumber":"54","addr:postcode":"26903","addr:street":"Kirchstraße","caravans":"no","fee":"yes","group_only":"yes","name":"Schützenplatz Börgerwald","openfire":"yes","operator":"Schützenverein Börgerwald e.V.","power_supply":"no","reservation":"required","shower":"yes","stars":"7","tents":"yes","toilets":"yes","website":"https://www.schuetzenverein-boergerwald.de/"}},"371661016":{"location":[53.0789429,7.4395543],"ct":"DE","tp":"CR","ts":"2020-03-25T10:03:22Z","tX":533,"tY":333,"tags":{"capacity":"20","fee":"yes","name":"Hotel Hilling","power_supply":"yes","sanitary_dump_station":"yes"}},"669438177":{"location":[52.9392302,7.6566335],"ct":"DE","tp":"CS","ts":"2021-01-30T00:53:44Z","tX":533,"tY":333,"tags":{"caravans":"no","fee":"yes","group_only":"yes","name":"Jugendzeltplatz Hövel","openfire":"yes","operator":"Gemeinde Lorup","reservation":"required","tents":"yes"}},"669438357":{"location":[52.9311242,7.6298914],"ct":"DE","tp":"CS","ts":"2021-01-30T00:53:44Z","tX":533,"tY":333,"tags":{"caravans":"no","fee":"yes","group_only":"yes","name":"Jugendzeltplatz Vosseberg","openfire":"yes","operator":"Gemeinde Lorup","reservation":"required","tents":"yes"}},"1071608410":{"location":[52.9938152,7.6658009],"ct":"DE","tp":"CS","ts":"2023-06-13T13:00:01Z","tX":533,"tY":333,"tags":{"addr:city":"Esterwegen","addr:country":"DE","addr:postcode":"26897","addr:street":"Zum Erikasee","group_only":"yes","name":"Jugendzeltplatz am Erikasee A3"}},"1071608411":{"location":[52.9935699,7.6655545],"ct":"DE","tp":"CS","ts":"2023-06-13T13:00:01Z","tX":533,"tY":333,"tags":{"addr:city":"Esterwegen","addr:country":"DE","addr:postcode":"26897","addr:street":"Zum Erikasee","group_only":"yes","name":"Jugendzeltplatz am Erikasee A2"}},"1071608412":{"location":[52.9932981,7.6653042],"ct":"DE","tp":"CS","ts":"2023-06-13T13:00:01Z","tX":533,"tY":333,"tags":{"addr:city":"Esterwegen","addr:country":"DE","addr:postcode":"26897","addr:street":"Zum Erikasee","group_only":"yes","name":"Jugendzeltplatz am Erikasee A1"}},"1181766182":{"location":[52.9939504,7.6682213],"ct":"DE","tp":"CR","ts":"2023-06-13T13:00:01Z","tX":533,"tY":333,"tags":{"addr:city":"Esterwegen","addr:country":"DE","addr:postcode":"26897","addr:street":"Zum Erikasee","capacity:caravans":"4","fee":"no","power_supply":"yes","sanitary_dump_station":"yes"}},"1730440390":{"location":[52.9425423,7.5806143],"ct":"DE","tp":"CS","ts":"2015-12-25T15:16:07Z","tX":533,"tY":333,"tags":{"name":"Campingplatz Zum Naturpark"}},"2157944576":{"location":[53.0789251,7.4395524],"ct":"DE","tp":"CR","ts":"2014-12-05T20:25:00Z","tX":533,"tY":333,"tags":{}},"3693292919":{"location":[53.0705877,7.6973578],"ct":"DE","tp":"SD","ts":"2015-08-12T12:00:02Z","tX":533,"tY":333,"tags":{"sanitary_dump_station:chemical_toilet":"yes","sanitary_dump_station:fee":"no","sanitary_dump_station:gravity":"yes","sanitary_dump_station:grey_water":"yes"}},"8532475486":{"location":[53.0920193,7.7061849],"ct":"DE","tp":"CS","ts":"2021-03-18T14:09:49Z","tX":533,"tY":333,"tags":{"name":"Zeltplatz"}}}