{"7970841":{"location":[51.9918921,7.6995359],"ct":"DE","tp":"CS","ts":"2023-03-07T17:02:52Z","tX":533,"tY":338,"tags":{"addr:city":"Münster","addr:country":"DE","addr:housenumber":"1","addr:postcode":"48157","addr:street":"Am Hof zur Linde","addr:suburb":"Handorf","email":"info@camping-muenster.com","name":"Campingplatz Wersewinkel","permanent_camping":"only","phone":"+49 251 32750","website":"http://www.camping-muenster.com"}},"23047479":{"location":[51.9503129,7.5964269],"ct":"DE","tp":"PK","ts":"2024-06-03T09:46:20Z","tX":533,"tY":338,"tags":{"access":"yes","capacity":"50","fee":"no","fixme":"validate capacity","motorhome":"yes","name":"Parkplatz Mühlenhof","parking":"surface"}},"35148735":{"location":[51.8545381,7.4757584],"ct":"DE","tp":"CR","ts":"2015-12-17T22:59:03Z","tX":533,"tY":338,"tags":{"addr:city":"Senden","addr:housenumber":"11","addr:postcode":"48308","addr:street":"Bulderner Straße","capacity":"7","fee":"no","internet_access":"no","name":"Reisemobil-Stellplatz Sportpark Senden","power_supply":"no","sanitary_dump_station":"no"}},"45456357":{"location":[51.8447865,7.4704533],"ct":"DE","tp":"CS","ts":"2022-11-21T16:02:08Z","tX":533,"tY":338,"tags":{"caravans":"yes","email":"post@kranencamp.de","name":"KranenCamp","operator":"Werner Kranefoer","permanent_camping":"yes","phone":"+49 2597 239","sanitary_dump_station":"yes","tents":"yes","website":"https://www.kranencamp.de/"}},"98887591":{"location":[51.8437861,7.6567094],"ct":"DE","tp":"CS","ts":"2024-05-21T10:13:05Z","tX":533,"tY":338,"tags":{"fee":"yes","internet_access":"no","name":"Campingplatz OC Rinkerode-Davert e.V.","permanent_camping":"only","website":"https://oc-rinkerode.de/index.php?seite=start","wheelchair":"limited"}},"103085419":{"location":[51.9466984,7.6937594],"ct":"DE","tp":"CS","ts":"2023-03-07T17:02:52Z","tX":533,"tY":338,"tags":{"addr:city":"Münster","addr:country":"DE","addr:housenumber":"7","addr:postcode":"48157","addr:street":"Laerer Werseufer","alt_name":"Stapelskotten","caravans":"yes","contact:email":"mail@campingplatz-muenster.de","contact:phone":"+49 251 311982","contact:website":"https://www.campingplatz-muenster.de/","fee":"yes","name":"Campingplatz Münster","opening_hours":"Mo-Su 08:00-13:00,15:00-19:00","permanent_camping":"yes","tents":"yes","toilets:wheelchair":"yes","website":"https://www.campingplatz-muenster.de/","wheelchair":"yes"}},"196647829":{"location":[52.0459538,7.6854986],"ct":"DE","tp":"CR","ts":"2024-06-28T19:06:12Z","tX":533,"tY":338,"tags":{"addr:city":"Greven","addr:country":"DE","addr:housenumber":"37","addr:postcode":"48268","addr:street":"Fuestruper Straße","capacity":"90","caravans":"no","contact:phone":"+49 2571 3896","contact:website":"https://www.fuestrup.de/camp/","dog":"yes","dryer":"yes","fee":"yes","internet_access":"yes","internet_access:fee":"no","lit":"yes","name":"Camp Marina","note":"Teils sehr schlechtes WLAN","power_supply":"cee_17_blue","sanitary_dump_station":"yes","sanitary_dump_station:chemical_toilet":"yes","sanitary_dump_station:grey_water":"yes","shower":"yes","tents":"no","toilets":"yes","washing_machine":"yes","water_point":"yes"}},"201926696":{"location":[51.946951,7.69112],"ct":"DE","tp":"CR","ts":"2024-06-16T15:27:52Z","tX":533,"tY":338,"tags":{"addr:city":"Münster","addr:country":"DE","addr:housenumber":"7","addr:postcode":"48157","addr:street":"Laerer Werseufer","capacity":"22","caravan_site":"motorhome_stopover","caravan_site:type":"camp_site","contact:email":"mail@campingplatz-muenster.de","contact:fax":"+49 251 3833985","contact:phone":"+49 251 311982","contact:website":"https://www.campingplatz-muenster.de/der-campingplatz/wohnmobilstellplatz.html","dog":"yes","fee":"yes","name":"Wohnmobilstellplatz Camping Münster vor der Schranke","operator":"Campingplatz Münster Kampert & Kampert GmbH & Co. KG","power_supply":"yes","sanitary_dump_station":"yes","sanitary_dump_station:chemical_toilet":"yes","sanitary_dump_station:grey_water":"yes","shower":"yes","tents":"no","toilets":"yes","water_point":"yes","website":"https://www.campingplatz-muenster.de/der-campingplatz/wohnmobilstellplatz.html","wheelchair":"yes"}},"440301823":{"location":[51.8906842,7.5919585],"ct":"DE","tp":"CR","ts":"2024-06-03T10:40:09Z","tX":533,"tY":338,"tags":{"caravan_site":"motorhome_stopover","caravan_site:type":"sauna","charge":"15 EUR","fee":"yes","name":"Wohnmobilplätze Eymann Sauna","operator":"Eymann-Sauna KG","power_supply":"yes","reservation":"no","sanitary_dump_station":"yes","sanitary_dump_station:chemical_toilet":"yes","shower":"yes","toilets":"yes","water_point":"yes","website":"https://www.eymann-sauna.de/kontakt-eymann/"}},"598621071":{"location":[51.871967,7.4810674],"ct":"DE","tp":"CS","ts":"2023-06-13T19:58:15Z","tX":533,"tY":338,"tags":{"addr:city":"Senden","addr:housenumber":"23","addr:postcode":"48308","addr:street":"Holtrup","caravans":"no","fee":"yes","group_only":"yes","internet_access":"no","name":"DPSG Pfadfinderhaus Senden","operator":"Pfadfinderhaus Senden e.V.","reservation":"required","scout":"yes","tents":"yes"}},"725893380":{"location":[51.9881393,7.645956],"ct":"DE","tp":"CR","ts":"2023-09-18T11:04:10Z","tX":533,"tY":338,"tags":{"addr:city":"Münster","addr:country":"DE","addr:housenumber":"4-6","addr:postcode":"48157","addr:street":"Volbachweg","capacity":"2","email":"tho.roh@freenet.de","name":"Stellplatz Familie Rohde","operator":"Familie Rohde","power_supply":"yes"}},"1152473318":{"location":[51.9452506,7.6940663],"ct":"DE","tp":"CR","ts":"2024-04-05T00:44:51Z","tX":533,"tY":338,"tags":{"addr:city":"Münster","addr:country":"DE","addr:housenumber":"7","addr:postcode":"48157","addr:street":"Laerer Werseufer","capacity":"22","caravan_site":"motorhome_stopover","caravan_site:type":"camp_site","contact:email":"mail@campingplatz-muenster.de","contact:fax":"+49 251 3833985","contact:phone":"+49 251 311982","contact:website":"https://www.campingplatz-muenster.de/der-campingplatz/wohnmobilstellplatz.html","dog":"yes","fee":"yes","name":"Wohnmobilstellplatz Camping Münster Autark","operator":"Campingplatz Münster Kampert & Kampert GmbH & Co. KG","power_supply":"no","sanitary_dump_station:chemical_toilet":"yes","sanitary_dump_station:grey_water":"yes","shower":"yes","tents":"no","toilets":"yes","water_point":"yes","website":"https://www.campingplatz-muenster.de/der-campingplatz/wohnmobilstellplatz.html"}},"1181779833":{"location":[51.9525096,7.6359556],"ct":"DE","tp":"CR","ts":"2024-10-15T09:38:55Z","tX":533,"tY":338,"tags":{"addr:city":"Münster","addr:country":"DE","addr:housenumber":"7","addr:postcode":"48155","addr:street":"Albersloher Weg","capacity":"6","charge":"15 EUR","contact:website":"https://westfalenfleiss.de/standorte-parkpl%C3%A4tze.html","drinking_water":"no","fee":"yes","name":"Albersloher Weg","name:pronunciation":"ɑlbersloer veːk","operator":"Westfalenfleiß","payment:apple_pay":"yes","payment:contactless":"yes","payment:girocard":"yes","payment:google_pay":"yes","payment:maestro":"yes","payment:mastercard":"yes","payment:visa":"yes","payment:visa_debit":"yes","power_supply":"no","ref":"9","sanitary_dump_station":"no","toilets":"no","website":"https://westfalenfleiss.de/standorte-parkpl%C3%A4tze.html","wheelchair":"yes"}},"1289083519":{"location":[51.9591859,7.6583491],"ct":"DE","tp":"CR","ts":"2024-06-03T09:58:45Z","tX":533,"tY":338,"tags":{"addr:city":"Münster","addr:country":"DE","addr:postcode":"48145","addr:street":"Mauritz-Lindenweg","caravan_site":"motorhome_stopover","caravan_site:type":"swimming_pool","fee":"no","internet_access":"no","name":"Wohnmobilstellplatz am Ostbad Münster","operator":"Stadt Münster","power_supply":"no","sanitary_dump_station":"no"}},"3797856410":{"location":[51.9758007,7.4211811],"ct":"DE","tp":"CR","ts":"2024-01-01T22:22:09Z","tX":533,"tY":338,"tags":{"addr:city":"Havixbeck","addr:postcode":"48329","addr:street":"Kardinal-von-Hartmann-Straße","capacity":"8","caravan_site":"motorhome_stopover","fee":"no","internet_access":"no","name":"Wohnmobilstellplätz Havixbecker Freibad","opening_hours":"24/7","operator":"Gemeinde","power_supply":"yes","sanitary_dump_station":"yes","seasonal":"no"}},"9960009373":{"location":[52.0078272,7.626622],"ct":"DE","tp":"CR","ts":"2022-08-17T18:27:58Z","tX":533,"tY":338,"tags":{"beds":"0","capacity":"3","description":"Anmeldung per Anruf, SMS oder Mail. Strom und Hausregeln an der Wand südlich der Stellplätze. WC und Dusche nicht rollstuhl-gerecht, sonst alles.","email":"huebnep@gmx.de","fee":"yes","internet_access":"no","mobile":"+49 176 81284634","name":"Haus Coerde","opening_hours":"Apr-Oct","payment:cash":"yes","payment:credit_cards":"no","payment:debit_cards":"no","power_supply":"yes","reservation":"required","rooms":"0","sanitary_dump_station":"no","shower":"yes","tents":"no","toilets":"yes","website":"https://www.haus-coerde.de/wohn-eg/reisemobile/","wheelchair":"limited"}},"11244204344":{"location":[51.9406062,7.5639485],"ct":"DE","tp":"CR","ts":"2023-10-06T17:06:01Z","tX":533,"tY":338,"tags":{"caravans":"no","name":"Hippo-Fun","power_supply":"yes","sanitary_dump_station":"yes","water_supply":"yes"}},"6028212552":{"location":[51.9468168,7.6912826],"ct":"DE","tp":"SD","ts":"2024-06-16T15:25:05Z","tX":533,"tY":338,"tags":{"fee":"yes"}},"7233556986":{"location":[52.0455987,7.6853795],"ct":"DE","tp":"SD","ts":"2024-06-28T19:06:21Z","tX":533,"tY":338,"tags":{"access":"customers","note":"Fremdentsorgung gegen Gebühr"}}}