{"18961711":{"location":[51.4190263,7.4933331],"ct":"DE","tp":"CS","ts":"2024-06-25T14:56:06Z","tX":533,"tY":340,"tags":{"addr:city":"Dortmund","addr:country":"DE","addr:housenumber":"69","addr:postcode":"44265","addr:street":"Syburger Dorfstraße","addr:suburb":"Syburg","alt_name":"Bölsberg","caravans":"yes","drinking_water":"yes","email":"info@camping-hohensyburg.de","fax":"+49 231 7749 554","name":"Camping Hohensyburg","phone":"+49 231 7743 74","power_supply":"yes","sanitary_dump_station":"yes","scout":"no","shower":"yes","tents":"yes","toilets":"yes","website":"https://www.camping-hohensyburg.de/"}},"25120260":{"location":[51.5197498,7.3987224],"ct":"DE","tp":"CR","ts":"2023-06-14T20:46:52Z","tX":533,"tY":340,"tags":{"capacity":"49","fee":"yes","name":"Mobil Camp Wischlingen","note:de":"Zufahrt: Wischlinger Weg, 44369 Dortmund","phone":"+49 231 9170 71 0","power_supply":"yes","url":"https://www.wischlingen.de/park/wohnmobilstellplatz/"}},"58711871":{"location":[51.4129475,7.5096763],"ct":"DE","tp":"CS","ts":"2022-12-01T17:27:52Z","tX":533,"tY":340,"tags":{"access":"private","addr:city":"Hagen","addr:postcode":"58099","addr:street":"Ruhrtalstraße","capacity:caravans":"0","name":"CampingClub Garenfeld Ruhrbogen e.v.","note":"Zitat Homepage: \"Wichtiger Hinweis: Wir sind ein Campingclub , kein Campingplatz. Wir vermieten keine Zelt/Standplätze tagesweise etc.\"","website":"https://campingclub-garenfeld-ruhrbogen-e.jimdosite.com/"}},"58711872":{"location":[51.4113414,7.5073578],"ct":"DE","tp":"CS","ts":"2023-06-20T16:52:05Z","tX":533,"tY":340,"tags":{"access":"private"}},"135856349":{"location":[51.4067663,7.4572849],"ct":"DE","tp":"CS","ts":"2023-06-20T16:42:08Z","tX":533,"tY":340,"tags":{"caravans":"yes","fee":"yes","operator":"Kanu Club Hagen","tents":"yes","website":"https://www.kc-hagen.de/campingplatz/"}},"151045776":{"location":[51.4344471,7.7338971],"ct":"DE","tp":"CS","ts":"2024-01-03T10:37:03Z","tX":533,"tY":340,"tags":{"name":"Zum Obstgarten","website":"http://camping.sauerland.com/Campingplaetze/Campingplatz-Obsthof"}},"164930088":{"location":[51.4191347,7.5056491],"ct":"DE","tp":"CS","ts":"2024-07-28T14:51:06Z","tX":533,"tY":340,"tags":{"addr:city":"Dortmund","addr:housenumber":"135","addr:postcode":"44265","addr:street":"Syburger Dorfstraße","caravans":"no","contact:website":"http://vcp-westfalen.de/zeltplatz-haeuser/burg-husen","drinking_water":"yes","name":"Burg Husen","power_supply":"yes","scout":"yes","shower":"no","tents":"yes","toilets":"yes","wheelchair":"no"}},"240723093":{"location":[51.4689841,7.6862238],"ct":"DE","tp":"CS","ts":"2024-01-30T07:53:12Z","tX":533,"tY":340,"tags":{"name":"Campingplatz \"Am Abbabach\"","website":"https://m.camping-in-nrw.de/?seite=platzdetails"}},"699827123":{"location":[51.4691935,7.6839635],"ct":"DE","tp":"CS","ts":"2019-06-26T06:06:40Z","tX":533,"tY":340,"tags":{"name":"Campingplatz Kampmeier","website":"http://www.campingplatz-kampmeier.de/"}},"699827131":{"location":[51.4680341,7.6805017],"ct":"DE","tp":"CS","ts":"2023-11-09T09:36:19Z","tX":533,"tY":340,"tags":{"name":"Campingplatz Ruhrtalblick","website":"https://ruhrtalblick.de/"}},"813341662":{"location":[51.5201008,7.3988903],"ct":"DE","tp":"SD","ts":"2024-07-31T14:07:06Z","tX":533,"tY":340,"tags":{"fee":"yes","sanitary_dump_station:accepted":"black_water;tank_chemicals"}},"1265866552":{"location":[51.4396565,7.5735581],"ct":"DE","tp":"CR","ts":"2024-07-02T11:08:49Z","tX":533,"tY":340,"tags":{"capacity":"8","caravan_site":"motorhome_stopover","caravan_site:type":"town","caravans":"no","charge":"12 EUR","fee":"yes","name":"Wohnmobilstellplatz Schwerte","power_supply":"yes","sanitary_dump_station":"yes","tents":"no","water_point":"yes"}},"2460396707":{"location":[51.4229681,7.3907175],"ct":"DE","tp":"CS","ts":"2023-11-25T15:16:35Z","tX":533,"tY":340,"tags":{"addr:city":"Witten","addr:country":"DE","addr:housenumber":"76b","addr:postcode":"58453","addr:street":"Kermelberg","addr:suburb":"Rüdinghausen","contact:email":"vorstand@sun-dortmund.de","contact:phone":"+49 2302 801571","contact:website":"https://sun-dortmund.de/","name":"Sport- und Naturfreunde Dortmund","operator":"Sport- und Naturfreunde Dortmund","short_name":"SUN Dortmund"}},"4548017053":{"location":[51.4403416,7.3887457],"ct":"DE","tp":"CS","ts":"2018-12-07T15:06:35Z","tX":533,"tY":340,"tags":{"barbecue_grill":"yes","bbq":"yes","capacity":"100","dog":"yes","fee":"yes","name":"Grillplatz Kahler Plack","opening_hours":"May-Oct: Mo-Su 08:00-20:00","operator":"Stadt Witten","operator:type":"public","operator:wikidata":"Q3764","toilets":"yes"}},"12033603954":{"location":[51.5890587,7.6441441],"ct":"DE","tp":"SD","ts":"2024-07-04T14:51:18Z","tX":533,"tY":340,"tags":{"sanitary_dump_station:chemical_toilet":"yes","sanitary_dump_station:grey_water":"yes"}}}