{"21093935":{"location":[51.3959638,7.4095907],"ct":"DE","tp":"CR","ts":"2020-03-18T11:32:49Z","tX":533,"tY":341,"tags":{"addr:city":"Hagen","addr:country":"DE","addr:housenumber":"5","addr:postcode":"58089","addr:street":"Baukey","addr:suburb":"Vorhalle","contact:phone":"+49 2331 304008","contact:website":"https://www.cwvh.de","landuse":"recreation_ground","name":"Caravan und Wassersportverein Harkortsee e.V."}},"23801780":{"location":[51.2447072,7.4878104],"ct":"DE","tp":"CS","ts":"2017-01-25T15:00:26Z","tX":533,"tY":341,"tags":{"name":"Campingplatz Loh"}},"28208822":{"location":[51.3841784,7.7111344],"ct":"DE","tp":"CR","ts":"2023-12-19T14:37:49Z","tX":533,"tY":341,"tags":{"name":"Seilerblick"}},"49071900":{"location":[51.3880358,7.6399055],"ct":"DE","tp":"CS","ts":"2016-08-04T10:16:24Z","tX":533,"tY":341,"tags":{"addr:city":"Iserlohn","addr:country":"DE","addr:housenumber":"7","addr:postcode":"58642","addr:street":"Gehrweg","area":"yes","name":"Kreis Camping Club Iserlohn"}},"57885583":{"location":[51.3948838,7.408198],"ct":"DE","tp":"CR","ts":"2014-11-07T18:00:22Z","tX":533,"tY":341,"tags":{"landuse":"recreation_ground","name":"Yachtclub Harkortsee e.V.","url":"http://www.yachtclubharkortsee.de"}},"122048172":{"location":[51.3922683,7.4067632],"ct":"DE","tp":"CS","ts":"2024-07-16T16:10:28Z","tX":533,"tY":341,"tags":{"access":"permit","addr:city":"Hagen","addr:country":"DE","addr:housenumber":"1","addr:postcode":"58089","addr:street":"Baukey","capacity:caravans":"130","name":"Wassersport & Campingverein Hagen e.V.","note:de":"Wenige Plätze für Durchgangscamper","operator":"Wassersport & Campingverein Hagen e.V.","phone":"+4915735250687","tents":"yes","website":"https://www.wch-camping.de/"}},"154551177":{"location":[51.3967028,7.4279203],"ct":"DE","tp":"CS","ts":"2023-06-20T16:14:57Z","tX":533,"tY":341,"tags":{"access":"private","note":"Kein öffentlicher Campingplatz","operator":"Herdecker Kanu Club 1925 e.V."}},"160192715":{"location":[51.2279484,7.495398],"ct":"DE","tp":"CS","ts":"2012-04-19T07:17:05Z","tX":533,"tY":341,"tags":{}},"240012737":{"location":[51.3387688,7.7200814],"ct":"DE","tp":"CS","ts":"2020-01-06T14:00:02Z","tX":533,"tY":341,"tags":{"name":"Camping FKK Iserlohn e.V.","nudism":"yes","operator":"Camping FKK Iserlohn e.V."}},"245212097":{"location":[51.3823291,7.3994853],"ct":"DE","tp":"CR","ts":"2024-11-15T14:26:55Z","tX":533,"tY":341,"tags":{"addr:city":"Wetter (Ruhr)","addr:postcode":"58300","capacity":"15","fee":"no","internet_access":"no","name":"Wohnmobilstellplatz am Ringplatz","note":"Auf Teilen des Platzes kein SAT Empfang durch Bäume möglich oder sehr schlecht","opening_hours":"24/7","operator":"Stadtbetrieb Wetter","power_supply":"no","sanitary_dump_station":"no"}},"311973096":{"location":[51.3898539,7.4067434],"ct":"DE","tp":"CR","ts":"2024-07-04T14:57:20Z","tX":533,"tY":341,"tags":{"capacity":"20","caravan_site":"motorhome_stopover","caravan_site:type":"canoe_club","fireplace":"yes","landuse":"recreation_ground","name":"Kanu Club Wetter/Ruhr Zeltplatz","operator":"Kanu-Club-Wetter (Ruhr) e.V.","shower":"hot","tents":"yes","toilets":"yes","website":"https://www.kcwetter.de/"}},"313085617":{"location":[51.3926117,7.4376021],"ct":"DE","tp":"CS","ts":"2023-06-15T07:51:13Z","tX":533,"tY":341,"tags":{"access":"private","caravans":"no","operator":"Marine-Jugend Lütgendortmund e.V.","tents":"no","wheelchair":"limited"}},"693617936":{"location":[51.3939308,7.4325626],"ct":"DE","tp":"CR","ts":"2024-08-13T11:09:23Z","tX":533,"tY":341,"tags":{"capacity":"8","caravan_site":"motorhome_stopover","caravan_site:type":"river","check_date":"2024-08-12","dog":"yes","fee":"no","internet_access":"no","maxstay":"48 hours","name":"Wohnmobilstellplatz Herdecke","note":"Stellplatz wurde vergrößert.","opening_hours":"24/7","power_supply":"no","reservation":"no","sanitary_dump_station":"no","seasonal":"no","water_point":"no","website":"https://hagenentdecken.de/aktivitaet/wohnmobilstellplatz-herdecke/"}},"1750309006":{"location":[51.3087812,7.6608469],"ct":"DE","tp":"CR","ts":"2024-08-29T11:44:03Z","tX":533,"tY":341,"tags":{"capacity:caravans":"10","check_date":"2024-08-29","designation":"Stellplatz mit Strom,Entsorgung","drinking_water":"no","fee":"no","internet_access":"no","name":"Wohnmobilstellplatz Sauerlandhalle","opening_hours":"24/7","power_supply":"yes","reservation":"no","sanitary_dump_station":"yes","toilets":"no","wheelchair":"yes"}},"3645160089":{"location":[51.2106935,7.6176155],"ct":"DE","tp":"CR","ts":"2015-07-10T21:36:10Z","tX":533,"tY":341,"tags":{}},"4280567477":{"location":[51.3083746,7.6603806],"ct":"DE","tp":"SD","ts":"2024-08-28T18:53:32Z","tX":533,"tY":341,"tags":{"fee":"yes","sanitary_dump_station:chemical_toilet":"yes","sanitary_dump_station:fee":"yes","sanitary_dump_station:gravity":"yes","sanitary_dump_station:grey_water":"yes","sanitary_dump_station:suction":"no"}}}