{"2851748":{"location":[51.073206,7.5614831],"ct":"DE","tp":"CS","ts":"2020-01-06T14:58:18Z","tX":533,"tY":342,"tags":{"capacity":"310","email":"info@igz-brucher-talsperre.com","fax":"+49 2264 403292","fee":"yes","name":"Campingplatz Brucher Talsperre","operator":"Interessengemeinschaft Zeltplatz Brucher Talsperre e. V. IGZ","phone":"+49 2264 7818","power_supply":"yes","source:name":"knowledge","website":"http://www.igz-brucher-talsperre.de/"}},"10550302":{"location":[51.0781214,7.5524423],"ct":"DE","tp":"CS","ts":"2023-12-23T12:31:32Z","tX":533,"tY":342,"tags":{"addr:city":"Marienheide","addr:housenumber":"4a","addr:place":"Eberg","addr:postcode":"51709","capacity:caravans":"46","caravans":"yes","contact:mobile":"+49 1756564333","contact:website":"http://www.camping-club-luedenscheid.de/","fee":"yes","name":"Campingclub Stiärt","operator":"Ortsclub \"Stiärt\" Lüdenscheid e.V. Im Deutschen Camping-Club e.V.","payment:cash":"yes","payment:debit_cards":"yes"}},"35673195":{"location":[51.0433091,7.4036698],"ct":"DE","tp":"CS","ts":"2024-09-16T20:08:34Z","tX":533,"tY":342,"tags":{"addr:city":"Lindlar","addr:country":"DE","addr:housenumber":"9a","addr:postcode":"51789","addr:street":"Im Scheurengarten","caravans":"yes","drinking_water":"yes","fax":"+49 2266 44120","name":"Wiesengrund","phone":"+49 2266 8978","power_supply":"yes","reservation":"yes","shower":"yes","tents":"yes","website":"https://www.camping-wiesengrund.de/"}},"36940381":{"location":[51.0411282,7.4035179],"ct":"DE","tp":"CS","ts":"2015-02-26T11:31:18Z","tX":533,"tY":342,"tags":{}},"59480151":{"location":[51.0522683,7.6273992],"ct":"DE","tp":"CS","ts":"2022-12-17T17:21:16Z","tX":533,"tY":342,"tags":{"name":"Aggercamping"}},"78608921":{"location":[51.1602344,7.3875953],"ct":"DE","tp":"CS","ts":"2024-08-18T13:24:50Z","tX":533,"tY":342,"tags":{"access":"customers","caravans":"yes","description":"nur für Dauercamper","name":"Im Kellerchen","operator":"Fam. Wasserfuhr","static_caravans":"yes","tents":"no","website":"https://www.campingplatz-bevertalsperre.de/","wheelchair":"no"}},"82712726":{"location":[50.9589859,7.5119356],"ct":"DE","tp":"CS","ts":"2019-12-05T19:32:23Z","tX":533,"tY":342,"tags":{"fax":"+49 2261 709670","name":"Campingplatz Bielstein","phone":"+49 2262 727420"}},"95211831":{"location":[51.0476069,7.4051531],"ct":"DE","tp":"CS","ts":"2011-06-12T14:48:56Z","tX":533,"tY":342,"tags":{}},"102548437":{"location":[51.1159566,7.410456],"ct":"DE","tp":"CR","ts":"2024-05-13T23:24:51Z","tX":533,"tY":342,"tags":{"capacity":"1","caravan_site":"motorhome_stopover","caravan_site:type":"swimming_pool;parking_kot","fee":"no","name":"Walter-Leo-Schmitz-Hallenbad Stellplatz","power_supply":"no","sanitary_dump_station":"no","surface":"asphalt","water_point":"no"}},"184475786":{"location":[51.1015466,7.5499763],"ct":"DE","tp":"CS","ts":"2021-11-07T20:11:52Z","tX":533,"tY":342,"tags":{"addr:city":"Marienheide","addr:housenumber":"14","addr:postcode":"51709","addr:street":"Lambach","name":"Lambacher Höhe"}},"209773970":{"location":[51.1753587,7.422536],"ct":"DE","tp":"CS","ts":"2013-03-13T13:44:06Z","tX":533,"tY":342,"tags":{"name":"Hohenbüchen"}},"248984829":{"location":[51.0681661,7.6658611],"ct":"DE","tp":"CS","ts":"2020-02-05T09:43:33Z","tX":533,"tY":342,"tags":{}},"248988515":{"location":[51.0718902,7.6701035],"ct":"DE","tp":"CS","ts":"2019-02-19T10:58:52Z","tX":533,"tY":342,"tags":{}},"267622331":{"location":[51.1609862,7.3974798],"ct":"DE","tp":"CS","ts":"2014-03-21T08:11:57Z","tX":533,"tY":342,"tags":{"name":"Hasenburg"}},"285071427":{"location":[51.0301073,7.4430064],"ct":"DE","tp":"CS","ts":"2023-07-12T15:12:35Z","tX":533,"tY":342,"tags":{"name":"Campingplatz Würden"}},"324656769":{"location":[51.0796768,7.5530408],"ct":"DE","tp":"CS","ts":"2023-12-25T17:45:31Z","tX":533,"tY":342,"tags":{"addr:city":"Marienheide","addr:housenumber":"4","addr:place":"Eberg","addr:postcode":"51709","name":"Campingplatz Bruchersee","operator":"CAMPING - CLUB OC \"STIÄRT\" LÜDENSCHEID E. V.","website":"https://www.camping-club-luedenscheid.de/"}},"346159316":{"location":[51.0970902,7.5527646],"ct":"DE","tp":"CS","ts":"2023-02-17T06:17:10Z","tX":533,"tY":342,"tags":{}},"346176590":{"location":[51.0979155,7.5487265],"ct":"DE","tp":"CR","ts":"2018-11-28T10:30:33Z","tX":533,"tY":342,"tags":{}},"353897587":{"location":[51.0506731,7.6261163],"ct":"DE","tp":"CS","ts":"2023-11-08T11:34:58Z","tX":533,"tY":342,"tags":{"caravans":"no","group_only":"yes","name":"Jugendzeltplatz Aggertalsperre","tents":"yes","website":"https://www.jugendzeltplatz-aggertal.de/"}},"365255126":{"location":[51.1047353,7.4926641],"ct":"DE","tp":"CS","ts":"2015-08-12T07:51:56Z","tX":533,"tY":342,"tags":{}},"506320514":{"location":[51.0647519,7.6706953],"ct":"DE","tp":"CS","ts":"2023-03-15T13:21:19Z","tX":533,"tY":342,"tags":{"addr:city":"Gummersbach","addr:housenumber":"14a","addr:postcode":"51647","addr:street":"Gartenweg","email":"campingplatz@im-vogelsang.de","fee":"yes","name":"Im Vogelsang","note":"Vornehmlich Dauercamper, Feriencamper nach Voranmeldung möglich","operator":"Kathrin Schött","phone":"+49 170 8311087","source":"www.campingplatz-im-vogelsang.de","website":"http://www.campingplatz-im-vogelsang.de"}},"669557557":{"location":[51.1049084,7.5061183],"ct":"DE","tp":"CS","ts":"2024-09-26T09:06:45Z","tX":533,"tY":342,"tags":{"capacity:persons":"60","caravans":"no","charge":"3 EUR","fee":"yes","group_only":"yes","name":"Jugendzeltplatz Auf der Gathe","operator":"Stadt Kierspe","reservation":"required","tents":"yes","website":"https://www.kierspe.de/de/freizeit/uebernachten-geniessen/jugendzeltplatz/jugendzeltplatz.php"}},"720149900":{"location":[51.096475,7.5374366],"ct":"DE","tp":"CS","ts":"2019-08-30T09:28:45Z","tX":533,"tY":342,"tags":{"name":"Campingplatz Lingese"}},"761264652":{"location":[51.0762403,7.5539295],"ct":"DE","tp":"CS","ts":"2020-01-06T14:58:18Z","tX":533,"tY":342,"tags":{}},"879279471":{"location":[51.0519692,7.7052409],"ct":"DE","tp":"CR","ts":"2020-11-30T14:09:52Z","tX":533,"tY":342,"tags":{}},"879279472":{"location":[51.0530107,7.7059065],"ct":"DE","tp":"CR","ts":"2020-11-30T14:09:52Z","tX":533,"tY":342,"tags":{}},"1123128705":{"location":[51.1002831,7.6492391],"ct":"DE","tp":"CR","ts":"2024-07-08T09:24:32Z","tX":533,"tY":342,"tags":{"capacity:caravans":"4","fee":"no","internet_access":"no","name":"Wohnmobilstellplatz Am Schützenplatz Meinerzhagen","operator":"Stadt Meinerzhagen","power_supply":"yes","sanitary_dump_station":"yes","surface":"asphalt","website":"https://touren.sauerland.com/de/lodging/wohnmobilstellplatz/wohnmobilstellplatz-am-schulplatz-meinerzhagen/1749481/"}},"1306738560":{"location":[51.1599412,7.4588751],"ct":"DE","tp":"CR","ts":"2024-08-10T08:31:03Z","tX":533,"tY":342,"tags":{"addr:city":"Halver","addr:postcode":"58553","description":"Gehört zum nahegelegenen Hof Hedfeld.","power_supply":"no","sanitary_dump_station":"no"}},"1375978317":{"location":[50.9878514,7.4128175],"ct":"DE","tp":"CR","ts":"2024-07-20T19:17:15Z","tX":533,"tY":342,"tags":{"capacity":"2","drinking_water":"no","fee":"no","internet_access":"no","name":"Stellplatz \"Im Grengel\"","power_supply":"no","sanitary_dump_station":"no","toilets":"no","wheelchair":"yes"}},"2240025885":{"location":[51.0739107,7.5639102],"ct":"DE","tp":"SD","ts":"2015-04-29T01:02:02Z","tX":533,"tY":342,"tags":{"access":"private","operator":"IGZ","sanitary_dump_station:accepted":"black_water;tank_chemicals","source":"survey"}},"2362931189":{"location":[51.119885,7.4004688],"ct":"DE","tp":"SD","ts":"2015-04-21T02:12:31Z","tX":533,"tY":342,"tags":{}},"2362931195":{"location":[51.1200204,7.4004067],"ct":"DE","tp":"CR","ts":"2023-05-25T08:50:08Z","tX":533,"tY":342,"tags":{"addr:city":"Wipperfürth","addr:housenumber":"11","addr:postcode":"51688","addr:street":"Wupperstraße","internet_access":"no","name":"Parkplatz Ohler Wiesen","power_supply":"yes","sanitary_dump_station":"yes"}},"4515970275":{"location":[51.1088224,7.6430306],"ct":"DE","tp":"CR","ts":"2016-11-24T22:20:58Z","tX":533,"tY":342,"tags":{"capacity":"4"}},"9009176256":{"location":[50.9970557,7.4643857],"ct":"DE","tp":"CR","ts":"2024-02-03T15:41:22Z","tX":533,"tY":342,"tags":{"fee":"no"}}}