{"40384080":{"location":[50.7724405,7.399744],"ct":"DE","tp":"CS","ts":"2024-08-19T11:06:36Z","tX":533,"tY":343,"tags":{"addr:city":"Eitorf","addr:country":"DE","addr:postcode":"53783","addr:street":"Hennefer Straße","addr:suburb":"Happach","alt_name":"Campingplatz Halft","caravans":"yes","dog":"yes","email":"info@campingplatz-happach.de","name":"Campingplatz Happach","operator":"Martin Halft","phone":"+49 2243 3533","shower":"yes","tents":"yes","website":"https://www.campingplatz-happach.de/index.php"}},"89578588":{"location":[50.9013859,7.4704704],"ct":"DE","tp":"CS","ts":"2023-10-01T07:11:11Z","tX":533,"tY":343,"tags":{"name":"Camping Bröltal","website":"https://www.pincamp.de/campingplaetze/camping-broltal"}},"114033283":{"location":[50.8027591,7.5519179],"ct":"DE","tp":"CS","ts":"2022-06-06T11:12:34Z","tX":533,"tY":343,"tags":{"addr:city":"Windeck","addr:housenumber":"5","addr:postcode":"51570","addr:street":"Zum Hochkreuz","caravans":"yes","email":"info@camping-dattenfeld-sieg.de","name":"Campingplatz Dattenfeld","opening_hours":"Apr-Oct","phone":"+4922929285752","tents":"yes","website":"https://www.camping-dattenfeld-sieg.de/"}},"115864082":{"location":[50.77159,7.3998289],"ct":"DE","tp":"CS","ts":"2019-09-29T14:39:16Z","tX":533,"tY":343,"tags":{"addr:city":"Eitorf","addr:country":"DE","addr:postcode":"53783","addr:street":"Hennefer Straße","addr:suburb":"Happach","email":"info@campingplatz-happach.de","name":"Campingplatz Happach","operator":"Martin Halft","phone":"+49 2243 3533","source":"Bing","tents":"yes","website":"https://www.campingplatz-happach.de/index.php"}},"232365334":{"location":[50.8050703,7.5610034],"ct":"DE","tp":"CR","ts":"2024-07-03T10:32:18Z","tX":533,"tY":343,"tags":{"addr:city":"Windeck","addr:country":"DE","addr:postcode":"51570","addr:street":"Brunnenweg","addr:suburb":"Dattenfeld","capacity":"5","caravan_site":"motorhome_stopover","caravan_site:type":"village","fee":"no","internet_access":"no","name":"Platz am Brunnenweg","power_supply":"no","sanitary_dump_station":"no","surface":"gravel","tents":"no","water_point":"no","wheelchair":"yes"}},"232373949":{"location":[50.7799271,7.5131425],"ct":"DE","tp":"CR","ts":"2024-07-03T10:32:18Z","tX":533,"tY":343,"tags":{"capacity":"5","caravan_site":"motorhome_stopover","caravan_site:type":"river;sports_centre","drinking_water":"no","fee":"no","internet_access":"no","name":"Am Sportplatz Herchen","power_supply":"yes","sanitary_dump_station":"no","surface":"gravel","tents":"no","toilets":"no","website":"https://windecker-laendchen.com/wohnmobilstellplaetze/","wheelchair":"yes"}},"501502191":{"location":[50.7851352,7.7326986],"ct":"DE","tp":"CR","ts":"2024-07-03T13:55:48Z","tX":533,"tY":343,"tags":{"capacity":"4","caravan_site":"motorhome_stopover","caravan_site:type":"town","fee":"no","name":"Wohnmobil-Stellplatz - Wissen","surface":"fine_gravel","website":"https://www.wissen.eu/Kultur-Tourismus/Camping-Stellpl%C3%A4tze-f%C3%BCr-Wohnmobile/Wohnmobil-Stellplatz-Wissen/"}},"1083032228":{"location":[50.7756238,7.5158663],"ct":"DE","tp":"CR","ts":"2024-08-06T21:38:33Z","tX":533,"tY":343,"tags":{"capacity":"8","caravan_site":"motorhome_stopover","caravan_site:type":"river;sports_centre","fee":"no","name":"Wohnmobilstellplatz Herchen","power_supply":"no","sanitary_dump_station":"no","surface":"compacted","toilets":"no","water_point":"no"}},"1287549019":{"location":[50.7695636,7.6581234],"ct":"DE","tp":"CR","ts":"2024-07-03T13:59:38Z","tX":533,"tY":343,"tags":{"capacity":"3","caravan_site":"motorhome_stopover","caravan_site:type":"restaurant","charge":"4 EUR","fee":"yes","name":"Hotel Auermühle Camper Stellplätze","operator":"Hotel Auermühle","power_supply":"no","sanitary_dump_station":"no","website":"https://www.hotel-auermuehle.de/camper-stellpl%C3%A4tze/"}},"1298802219":{"location":[50.8749052,7.6097104],"ct":"DE","tp":"CR","ts":"2024-07-03T14:14:52Z","tX":533,"tY":343,"tags":{"caravan_site":"motorhome_stopover","caravan_site:type":"town;swimming_pool","fee":"no","maxstay":"2 days","name":"Wohnmobilstellplatz Balneo Waldbröl","power_supply":"yes","power_supply:capacity":"4","power_supply:fee":"yes","sanitary_dump_station":"yes","shower":"yes","surface":"grass_paver","water_point":"yes","water_point:fee":"yes"}},"2407315337":{"location":[50.8075682,7.5610728],"ct":"DE","tp":"SD","ts":"2015-04-29T02:12:51Z","tX":533,"tY":343,"tags":{"fee":"yes","sanitary_dump_station:accepted":"black_water;grey_water;tank_chemicals"}},"9791984639":{"location":[50.7562307,7.6788166],"ct":"DE","tp":"CS","ts":"2022-06-03T08:50:01Z","tX":533,"tY":343,"tags":{"addr:city":"Hamm (Sieg)","addr:housenumber":"11","addr:postcode":"57577","addr:street":"Thalhauser Straße","capacity:caravans":"5","email":"info@naturcamp-alte-wiese.de","fee":"yes","name":"Naturcamp Alte Wiese","openfire":"yes","operator":"Wolfgang Schumacher","phone":"+49 177 6761341","tents":"yes","website":"https://www.naturcamp-alte-wiese.de/"}},"8338896541":{"location":[50.9046639,7.5314695],"ct":"DE","tp":"CR","ts":"2024-07-03T14:19:50Z","tX":533,"tY":343,"tags":{"capacity":"5","caravan_site":"motorhome_stopover","caravan_site:type":"sports_centre","fee":"no","name":"Wohnmobilstellplatz Nümbrecht","power_supply":"yes","power_supply:charge":"1 EUR/8 hours","power_supply:fee":"yes","sanitary_dump_station":"yes","surface":"gravel","water_point":"yes","water_point:charge":"1 EUR/80 liter","water_point:fee":"yes","website":"https://www.nuembrecht.de/zu-gast-in-nuembrecht/uebernachten/detail/ort/wohnmobilstellplatz/"}},"8718099309":{"location":[50.8150287,7.5808854],"ct":"DE","tp":"CR","ts":"2023-05-14T13:08:33Z","tX":533,"tY":343,"tags":{"addr:city":"Windeck","addr:housenumber":"5","addr:postcode":"51570","addr:street":"An der Burgruine","capacity":"8","internet_access":"no","name":"An der Burgruine","power_supply":"no","sanitary_dump_station":"no","toilets":"yes","website":"https://windecker-laendchen.com/wohnmobilstellplaetze/"}},"12031331646":{"location":[50.8630033,7.7246305],"ct":"DE","tp":"CR","ts":"2024-07-03T14:04:45Z","tX":533,"tY":343,"tags":{"capacity":"5","caravan_site":"motorhome_stopover","caravan_site:type":"parking_lot","fee":"no","name":"Wohnmobilstellplatz Morsbach"}},"12051825645":{"location":[50.7760216,7.4480485],"ct":"DE","tp":"CR","ts":"2024-08-06T16:30:05Z","tX":533,"tY":343,"tags":{"capacity":"3","caravan_site":"motorhome_stopover","caravan_site:type":"tow","fee":"no","name":"Wohnmobilstellplätze \"Siegbrücke\"","power_supply":"no","sanitary_dump_station":"no","surface":"fine_gravel","website":"https://naturregion-sieg.de/hotel/wohnmobilstellplaetze-siegbruecke"}},"12054083000":{"location":[50.7575576,7.6740012],"ct":"DE","tp":"CR","ts":"2024-07-15T00:39:50Z","tX":533,"tY":343,"tags":{"capacity":"6","caravan_site":"motorhome_stopover","caravan_site:type":"swimming_pool","fee":"no","name":"Wohnmobilstellplatz am Waldschwimmbad, Hamm","power_supply":"no","sanitary_dump_station":"no","tents":"no","website":"https://naturregion-sieg.de/hotel/wohnmobilstellplatz-am-waldschwimmbad-hamm"}},"12031324422":{"location":[50.874998,7.6096711],"ct":"DE","tp":"SD","ts":"2024-07-03T14:14:52Z","tX":533,"tY":343,"tags":{"access":"yes","capacity":"4","power_supply":"yes","sanitary_dump_station":"yes","sanitary_dump_station:chemical_toilet":"yes","sanitary_dump_station:grey_water":"yes","surface":"grass_paver"}}}