{"2517624":{"location":[50.6174865,7.5301633],"ct":"DE","tp":"CS","ts":"2022-05-30T18:24:35Z","tX":533,"tY":344,"tags":{"addr:city":"Oberlahr","addr:country":"DE","addr:housenumber":"2","addr:postcode":"57641","addr:street":"Sayner Straße","email":"info@campingplatz-lahrer-herrlichkeit.de","name":"Lahrer Herrlichkeit","phone":"+49-268-598-845-55"}},"8504317":{"location":[50.5142118,7.4214385],"ct":"DE","tp":"CS","ts":"2019-02-15T16:20:37Z","tX":533,"tY":344,"tags":{"access":"yes","caravans":"yes","fee":"yes","leisure":"playground","motor_vehicle":"yes","name":"Campingplatz Seiferts-Au","power_supply":"yes","static_caravans":"yes","tents":"yes","toilets":"yes"}},"26955002":{"location":[50.7105388,7.4621477],"ct":"DE","tp":"CS","ts":"2024-12-18T15:27:10Z","tX":533,"tY":344,"tags":{"email":"info@camp-rottura.de","name":"Camp-Rottura","phone":"+49 15679166020","website":"https://camp-rottura.de/"}},"32391030":{"location":[50.6180676,7.4257686],"ct":"DE","tp":"CS","ts":"2022-07-31T09:00:14Z","tX":533,"tY":344,"tags":{"barrier":"fence","name":"Campingplatz Neustadt/Wied","website":"https://campingneustadtwied.jimdo.com"}},"38869838":{"location":[50.6141995,7.4896387],"ct":"DE","tp":"CS","ts":"2020-05-24T10:31:17Z","tX":533,"tY":344,"tags":{"caravans":"yes","name":"Bahnhof Peterslahr"}},"40029076":{"location":[50.5768329,7.411957],"ct":"DE","tp":"CS","ts":"2021-04-09T10:05:28Z","tX":533,"tY":344,"tags":{"access":"yes","addr:city":"Roßbach","addr:postcode":"53547","addr:street":"Buchenauer Weg","caravans":"yes","fee":"yes","name":"Camping Wiedschleife","note":"Platz wurde umbenannt.","phone":"+49 2638 4665","power_supply":"yes","sanitary_dump_station":"no","surface":"grass","tents":"yes","toilets":"yes","website":"https://wiedschleife.de/"}},"43164598":{"location":[50.5176288,7.4286546],"ct":"DE","tp":"CS","ts":"2024-09-20T13:47:36Z","tX":533,"tY":344,"tags":{"access":"permissive","addr:city":"Niederbreitbach","addr:housenumber":"1c","addr:postcode":"56589","addr:street":"Brunnenweg","addr:suburb":"Bürder","caravans":"yes","email":"info@camping-zumstillenwinkel.de","fax":"+49 2638 4929","fee":"yes","internet_access":"yes","internet_access:fee":"yes","name":"Camping & Ferienpark Bürder \"Zum stillen Winkel\"","nudism":"no","operator":"Natalia Treffers","phone":"+49 2638 1071","reservation":"required","sanitary_dump_station":"customers","source":"bing","tents":"yes","toilets":"yes","washing_machine":"yes","website":"https://www.camping-zumstillenwinkel.de/"}},"61402371":{"location":[50.6119169,7.4709522],"ct":"DE","tp":"CS","ts":"2020-05-24T10:49:34Z","tX":533,"tY":344,"tags":{"name":"Campingplatz Düsternau","note":"Seit 1975 führen die Gemeinden Altenkirchen und Flammersfeld den Platz unter dem Namen \"Campingplatz Düsternau\". Quelle: Aushang vor Ort."}},"89597250":{"location":[50.6569474,7.3907434],"ct":"DE","tp":"CS","ts":"2025-01-28T13:40:52Z","tX":533,"tY":344,"tags":{"addr:city":"Asbach","addr:country":"DE","addr:housenumber":"1a","addr:postcode":"53567","addr:street":"Bennauer Straße","addr:suburb":"Köttingen","email":"gaby.grunwald@t-online.de","name":"Köttinger Mühle","phone":"+49 2683 943554"}},"90351391":{"location":[50.5816804,7.6884399],"ct":"DE","tp":"CS","ts":"2019-08-14T19:44:20Z","tX":533,"tY":344,"tags":{"name":"Campingplatz Waldsee","website":"http://campingplatz-maroth.de/"}},"92734828":{"location":[50.6450935,7.4003056],"ct":"DE","tp":"CS","ts":"2025-01-27T09:23:27Z","tX":533,"tY":344,"tags":{}},"131231221":{"location":[50.6441863,7.3888086],"ct":"DE","tp":"CS","ts":"2023-06-09T21:33:38Z","tX":533,"tY":344,"tags":{"caravans":"no","drinking_water":"yes","fee":"yes","group_only":"yes","name":"Jugendzeltplatz Kirchwies","openfire":"yes","operator":"Jugendzeltplatz Kirchwies e. V.","reservation":"required","shower":"yes","tents":"yes","toilets":"yes"}},"215366113":{"location":[50.5541445,7.4240524],"ct":"DE","tp":"CS","ts":"2022-05-16T10:40:17Z","tX":533,"tY":344,"tags":{"addr:city":"Waldbreitbach","addr:housenumber":"1","addr:postcode":"56588","addr:street":"Wiedhof","fee":"yes","internet_access":"wlan","name":"Camping Wiedhof","opening_hours":"Apr-Oct","power_supply":"yes","website":"https://wiedhof.de/"}},"257946984":{"location":[50.530468,7.4090945],"ct":"DE","tp":"CS","ts":"2021-06-03T15:03:17Z","tX":533,"tY":344,"tags":{"access":"yes","caravans":"no","fee":"yes","group_only":"yes","motorcar":"no","name":"Gruppenzeltplatz","openfire":"yes","tents":"yes","toilets":"yes"}},"259561778":{"location":[50.529131,7.4122785],"ct":"DE","tp":"CS","ts":"2021-06-05T09:14:16Z","tX":533,"tY":344,"tags":{"access":"yes","caravans":"yes","fee":"yes","name":"Camping Neuerburg","power_supply":"yes","surface":"grass","tents":"yes","toilets":"yes","washing_machine":"yes","website":"http://www.wiedtal-camping.de/"}},"290555998":{"location":[50.5530751,7.4250576],"ct":"DE","tp":"CS","ts":"2019-02-15T14:35:16Z","tX":533,"tY":344,"tags":{"access":"yes","caravans":"yes","fee":"yes","internet_access":"yes","motorcar":"yes","motorcycle":"yes","name":"Zeltwiese Wiedhof","surface":"grass","tents":"yes","toilets":"yes"}},"359233222":{"location":[50.554585,7.4195636],"ct":"DE","tp":"CS","ts":"2024-11-24T15:07:23Z","tX":533,"tY":344,"tags":{"access":"yes","addr:city":"Waldbreitbach","addr:postcode":"56588","caravans":"yes","fee":"yes","name":"Camping am Strandbad","operator":"Verkehrsverein Waldbreitbach","phone":"+49 2638 1295","sanitary_dump_station":"yes","shower":"yes","surface":"grass","tents":"yes","toilets":"yes","washing_machine":"yes"}},"464181274":{"location":[50.6172114,7.4253247],"ct":"DE","tp":"CS","ts":"2020-12-04T11:12:58Z","tX":533,"tY":344,"tags":{}},"765712144":{"location":[50.6838739,7.6365988],"ct":"DE","tp":"CR","ts":"2024-11-21T14:35:23Z","tX":533,"tY":344,"tags":{"capacity":"2","caravan_site":"motorhome_stopover","caravan_site:type":"town","fee":"no","internet_access":"no","maxstay":"3 days","name":"Wohnmobilstellplatz Altenkirchen","opening_hours":"24/7","operator":"Stadt Altenkichen (Westerwald)","power_supply":"cee_17_blue","sanitary_dump_station":"yes","surface":"grass_paver","toilets":"no","water_point":"yes","water_point:fee":"yes","website":"https://www.altenkirchen.de/einkauf-freizeit/wohnmobilstellplatz/"}},"1356276565":{"location":[50.5543651,7.4200959],"ct":"DE","tp":"CR","ts":"2025-02-02T23:25:01Z","tX":533,"tY":344,"tags":{"capacity":"6","caravan_site":"motorhome_stopover","caravan_site:type":"river;village","charge":"11.20 EUR","motorcar":"yes","name":"Wohnmobilstellplatz Waldbreitbach","power_supply":"yes","power_supply:charge":"4.50 EUR","sanitary_dump_station":"yes","tents":"no","toilets":"yes","water_point":"yes","water_point:charge":"1 EUR/45 liter","water_point:fee":"yes","website":"https://www.camping-strandbad.de/wohnmobilstellplatz-eva-station/"}},"2649914824":{"location":[50.5289894,7.4130487],"ct":"DE","tp":"CR","ts":"2019-02-15T15:31:30Z","tX":533,"tY":344,"tags":{"capacity":"8","fee":"yes","name":"Wohnmobilstellplatz Niederbreitbach","power_supply":"yes","sanitary_dump_station":"yes","surface":"gravel","tents":"no","toilets":"yes"}},"3220552307":{"location":[50.5544022,7.4199169],"ct":"DE","tp":"CR","ts":"2019-02-15T14:35:15Z","tX":533,"tY":344,"tags":{"capacity":"6","motorcar":"yes","name":"Wohnmobilstellplatz Waldbreitbach","power_supply":"yes","sanitary_dump_station":"yes","tents":"no","toilets":"yes"}},"5111033269":{"location":[50.7098667,7.5025344],"ct":"DE","tp":"CS","ts":"2021-03-08T20:18:53Z","tX":533,"tY":344,"tags":{"fixme":"Öffentlicher Campingplatz? tents?"}},"7852831053":{"location":[50.6665009,7.415904],"ct":"DE","tp":"CR","ts":"2024-12-05T01:08:33Z","tX":533,"tY":344,"tags":{"capacity":"4","caravan_site":"motorhome_stopover","caravan_site:type":"village","fee":"no","name":"Asbach Talstraße Wohnmobilstellplatz","power_supply":"no","sanitary_dump_station":"no","seasonal":"no","surface":"ground","water_point":"no"}},"4825690696":{"location":[50.5292206,7.4138332],"ct":"DE","tp":"SD","ts":"2017-04-29T18:03:17Z","tX":533,"tY":344,"tags":{"sanitary_dump_station:chemical_toilet":"yes","sanitary_dump_station:fee":"yes","sanitary_dump_station:gravity":"yes","sanitary_dump_station:grey_water":"yes","sanitary_dump_station:suction":"no"}},"10703079165":{"location":[50.6838702,7.6366896],"ct":"DE","tp":"SD","ts":"2023-03-20T09:00:39Z","tX":533,"tY":344,"tags":{"access":"yes","fee":"no","operator":"Stadt Altenkirchen","sanitary_dump_station:basin":"yes","sanitary_dump_station:chemical_toilet":"yes","sanitary_dump_station:gravity":"yes","sanitary_dump_station:grey_water":"yes","water_point":"yes"}},"10892746069":{"location":[50.5174192,7.4294883],"ct":"DE","tp":"SD","ts":"2023-05-13T08:51:56Z","tX":533,"tY":344,"tags":{"access":"customers","sanitary_dump_station:basin":"yes"}}}