{"13014273":{"location":[50.4454828,7.5968948],"ct":"DE","tp":"CS","ts":"2024-10-18T15:05:11Z","tX":533,"tY":345,"tags":{"caravans":"no","name":"Zeltlagerplatz Brexbachtal","scout":"yes","tents":"yes","website":"https://www.erlebnisraum-brex.de/"}},"29284296":{"location":[50.3100312,7.5027424],"ct":"DE","tp":"CS","ts":"2022-11-30T18:40:05Z","tX":533,"tY":345,"tags":{"addr:city":"Winningen","addr:housenumber":"10","addr:postcode":"56333","addr:street":"Inselweg","backcountry":"no","caravans":"yes","email":"camping@ferieninsel-winningen.de","facebook":"FerieninselWinningen","fee":"yes","motor_vehicle":"yes","name":"Ferieninsel Winningen an der Mosel","operator":"S & B Freizeit GmbH","phone":"+49 2606 1800","sanitary_dump_station":"yes","shower":"yes","shower:wheelchair":"yes","tents":"yes","toilets:wheelchair":"yes","website":"https://www.camping-winningen.de/","wheelchair":"yes"}},"31666316":{"location":[50.3306369,7.55343],"ct":"DE","tp":"CS","ts":"2022-03-20T19:40:35Z","tX":533,"tY":345,"tags":{"addr:city":"Koblenz","addr:country":"DE","addr:housenumber":"20","addr:postcode":"56072","addr:street":"Am Gülser Moselbogen","caravans":"yes","dog":"yes","dryer":"yes","drying:room":"yes","email":"info@moselbogen.de","fax":"+49 261 44494","internet_access":"wlan","internet_access:fee":"yes","motorcycle_friendly":"customary","name":"Campingplatz Gülser Moselbogen","nudism":"no","opening_hours":"Apr-Oct Mo-Su 08:00-12:30,13:30-18:30; Nov-Mar Mo-Su 15:00-17:00; PH off","operator":"Paffhausen Freizeit GmbH & Co. KG","payment:cash":"yes","payment:credit_cards":"yes","payment:girocard":"yes","payment:mastercard":"yes","payment:visa":"yes","power_supply":"yes","reservation":"recommended","sanitary_dump_station":"yes","shower":"yes","stars":"4","tents":"yes","toilets":"yes","toilets:wheelchair":"yes","washing_machine":"yes","website":"https://www.moselbogen.de","wheelchair":"yes"}},"48764802":{"location":[50.3090366,7.5979762],"ct":"DE","tp":"CR","ts":"2023-10-15T02:04:20Z","tX":533,"tY":345,"tags":{"addr:city":"Lahnstein","addr:housenumber":"41","addr:postcode":"56112","addr:street":"Johannesstraße","capacity":"60","description":"Bezahlung am Automat","dog":"yes","ele":"60","fee":"yes","name":"Wohnmobilhafen \"Am Kränchen\"","operator":"Anja und Michael Mohr","power_supply":"yes","sanitary_dump_station":"yes","surface":"grass","water_point":"yes","website":"https://wohnmobilhafen-lahnstein.de/wohnmobilhafen.html"}},"61507222":{"location":[50.3654633,7.5748245],"ct":"DE","tp":"PK","ts":"2019-05-21T06:01:12Z","tX":533,"tY":345,"tags":{"access":"yes","bus":"yes","capacity":"50","caravans":"yes","description":"Parkplatz für Busse und Wohnmobile","fee":"no","park_ride":"no","supervised":"no","trailer":"yes"}},"95288273":{"location":[50.3111569,7.6400455],"ct":"DE","tp":"CS","ts":"2023-10-12T09:57:36Z","tX":533,"tY":345,"tags":{"name":"Campingplatz Runkel","website":"http://www.camping-runkel-lahnstein.de/","wheelchair":"yes"}},"100071631":{"location":[50.3078086,7.6414412],"ct":"DE","tp":"CS","ts":"2025-02-02T12:30:34Z","tX":533,"tY":345,"tags":{"addr:city":"Lahnstein","addr:housenumber":"27","addr:postcode":"56112","addr:street":"Emser Landstraße","name":"Camping-Park Lahnbogen","operator":"Stefan Junker","static_caravans":"yes","website":"https://www.camping-lahnbogen.de/","wheelchair":"yes"}},"116595655":{"location":[50.3050381,7.6124544],"ct":"DE","tp":"CS","ts":"2014-10-26T09:37:15Z","tX":533,"tY":345,"tags":{"addr:city":"Lahnstein","addr:postcode":"56112","addr:street":"Am Burgweg","email":"info@camping-burg-lahneck.de","fax":"+49 2621 18290","name":"Campingplatz Burg Lahneck","note":"Hausnummer ist nicht bekannt","operator":"Gerhard Mischke","phone":"+49 2621 2765","website":"http://www.camping-burg-lahneck.de"}},"169219231":{"location":[50.3657878,7.6042217],"ct":"DE","tp":"CR","ts":"2024-04-06T07:12:39Z","tX":533,"tY":345,"tags":{"addr:city":"Koblenz","addr:housenumber":"6","addr:postcode":"56070","addr:street":"Schartwiesenweg","capacity":"10","fee":"yes","name":"KNAUS Campingpark Koblenz","power_supply":"yes","source":"http://www.knauscamp.de/rhein-mosel-koblenz.html","website":"http://www.knauscamp.de/rhein-mosel-koblenz.html"}},"169219232":{"location":[50.3675107,7.6057063],"ct":"DE","tp":"CS","ts":"2024-10-01T11:30:50Z","tX":533,"tY":345,"tags":{"addr:city":"Koblenz","addr:housenumber":"6","addr:postcode":"56070","addr:street":"Schartwiesenweg","capacity":"200","caravans":"yes","dog":"yes","drinking_water":"yes","email":"koblenz@knauscamp.de","fax":"+49 261 802489","fee":"yes","internet_access":"wlan","internet_access:fee":"yes","name":"KNAUS Campingpark Koblenz","openfire":"no","opening_hours":"Mo-Su 08:30-20:15","phone":"+49 261 82719","power_supply":"yes","sanitary_dump_station":"yes","shower":"yes","source":"http://www.knauscamp.de/rhein-mosel-koblenz.html","tents":"yes","toilets":"yes","website":"http://www.knauscamp.de/rhein-mosel-koblenz.html","wheelchair":"yes"}},"231385113":{"location":[50.4184586,7.5243785],"ct":"DE","tp":"CR","ts":"2024-12-18T16:53:11Z","tX":533,"tY":345,"tags":{"addr:city":"Urmitz","addr:housenumber":"3a","addr:postcode":"56220","addr:street":"Kaltenengerser Straße","capacity":"24","caravan_site":"motorhome_stopover","caravan_site:type":"river","charge":"10 EUR","contact:email":"info@urmitz.de","description":"SAT Anlage für Stellplätze mit eingeschränkten Empfang - ! Keine Reservierung möglich!","email":"info@urmitz.de","fee":"yes","maxstay":"7 nights","name":"Wohnmobilhafen Urmitz","payment:cash":"no","payment:coins":"yes","payment:credit_cards":"yes","payment:mastercard":"yes","payment:notes":"no","payment:visa":"yes","phone":"+49 2630 70 48","power_supply":"yes","power_supply:charge":"2 EUR/8 hours","power_supply:fee":"yes","reservation":"no","sanitary_dump_station":"yes","smoking":"outside","water_point":"yes","water_point:charge":"1 EUR/80 liter","water_point:fee":"yes","website":"https://www.urmitz.de/unser-urmitz/wohnmobilhafen/?id=1194","wheelchair":"yes"}},"246702072":{"location":[50.3055535,7.4606307],"ct":"DE","tp":"CR","ts":"2024-11-15T10:01:39Z","tX":533,"tY":345,"tags":{"addr:city":"Kobern-Gondorf","addr:postcode":"56330","addr:street":"Kalkofen","capacity":"25","charge":"5 EUR","dog":"yes","fee":"yes","internet_access":"no","name":"Wohnmobilstellplatz Kobern-Gondorf","opening_hours":"Apr-Oct","operator":"Gemeinde Kobern-Gondorf","power_supply":"no","reservation":"no","sanitary_dump_station":"yes","shower":"no","tents":"no","toilets":"no","water_point":"yes","website":"https://www.koberngondorf.de/Wohnmobil-Stellpl%C3%A4tze"}},"251123572":{"location":[50.4416256,7.4084721],"ct":"DE","tp":"CR","ts":"2024-12-18T16:05:01Z","tX":533,"tY":345,"tags":{"addr:city":"Andernach","addr:housenumber":"5","addr:postcode":"56626","addr:street":"Uferstraße","capacity":"70","capacity:persons":"100","caravans":"yes","charge":"9 EUR","fee":"yes","name":"Wohnmobilstellplatz Andernach am Rhein","operator":"Perspektive gGmbH","power_supply":"yes","power_supply:capacity":"68","reservation":"no","sanitary_dump_station":"yes","sanitary_dump_station:chemical_toilet":"yes","sanitary_dump_station:gravity":"yes","sanitary_dump_station:grey_water":"yes","seasonal":"no","tents":"no","toilets":"no","water_point":"yes","water_point:charge":"0.10 EUR 10 liter","water_point:fee":"yes","website":"https://www.perspektive-andernach.de/projekte-initiativen/wohnmobilstellplatz.html"}},"307584720":{"location":[50.3092168,7.6425291],"ct":"DE","tp":"CS","ts":"2025-02-02T12:30:34Z","tX":533,"tY":345,"tags":{"addr:city":"Lahnstein","addr:housenumber":"27","addr:postcode":"56112","addr:street":"Emser Landstraße","name":"Camping-Park Lahnbogen","operator":"Stefan Junker","static_caravans":"yes","website":"https://www.camping-lahnbogen.de/","wheelchair":"yes"}},"426165523":{"location":[50.4456481,7.3950942],"ct":"DE","tp":"CR","ts":"2024-12-18T16:05:01Z","tX":533,"tY":345,"tags":{"caravan_site":"motorhome_stopover","caravan_site:type":"river","fee":"yes","internet_access":"no","maxstay":"2 days","name":"Wohnmobilstellplatz Leutesdorf","power_supply":"no","sanitary_dump_station":"no","seasonal":"no","surface":"gravel","toilets":"no","water_point":"no"}},"437685685":{"location":[50.3137193,7.6349149],"ct":"DE","tp":"CS","ts":"2023-11-02T05:43:45Z","tX":533,"tY":345,"tags":{"caravans":"yes","drinking_water":"yes","name":"Campingplatz Wolfsmühle","phone":"+4926212589","shower":"yes","tents":"yes","toilets":"yes","website":"https://www.camping-wolfsmuehle.de/"}},"463332901":{"location":[50.3365355,7.6930485],"ct":"DE","tp":"CS","ts":"2025-02-22T10:17:20Z","tX":533,"tY":345,"tags":{"access":"customers","addr:city":"Fachbach","addr:housenumber":"14","addr:postcode":"56133","addr:street":"Furtweg","description":"Campingplatz am Ufer der Lahn. Restaurant. Aufgeschüttete \"Beach\".","email":"camping@camping-beachclub.de","name":"Camping Beachclub Fachbach an der Lahn","website":"https://www.camping-beachclub.de/"}},"482076964":{"location":[50.33343,7.701833],"ct":"DE","tp":"CR","ts":"2024-08-04T10:53:36Z","tX":533,"tY":345,"tags":{"addr:city":"Bad Ems","addr:housenumber":"16","addr:postcode":"56130","addr:street":"Nieverner Straße","bbq":"yes","capacity":"16","caravan_site":"motorhome_stopover","caravan_site:type":"harbour","fee":"17 EUR","internet_access":"wlan","internet_access:fee":"no","name":"Kutscher's Marina","opening_hours":"24/7","phone":"+4926034297","power_supply":"yes","power_supply:charge":"0.50 EUR/kWh","power_supply:fee":"yes","sanitary_dump_station":"yes","seasonal":"no","shower":"yes","toilets":"yes","website":"https://www.yachthafen-badems.de/wohnmobil-stellpl%C3%A4tze/"}},"604057398":{"location":[50.4142881,7.4811541],"ct":"DE","tp":"CR","ts":"2024-05-14T12:09:23Z","tX":533,"tY":345,"tags":{"capacity":"48","caravan_site":"motorhome_stopover","charge":"10 EUR","contact:phone":"+49 2631 353637","fee":"yes","name":"Yachthafen Neuwied","operator":"Motor-Yacht-Club Neuwied e. V.","power_supply":"yes","power_supply:charge":"1 EUR/kWh","power_supply:fee":"yes","sanitary_dump_station":"yes","surface":"grass;gravel","water_point":"yes","wheelchair":"yes"}},"791559777":{"location":[50.3476878,7.7130371],"ct":"DE","tp":"CS","ts":"2023-08-06T05:11:08Z","tX":533,"tY":345,"tags":{"addr:city":"Bad Ems","addr:housenumber":"3","addr:postcode":"56130","addr:street":"Mergelkaut","caravans":"yes","internet_access":"wlan","internet_access:fee":"no","name":"FSG Koblenz-Bad Ems e.V.","nudism":"yes","reservation":"recommended","sanitary_dump_station":"yes","tents":"yes","website":"https://www.fsg-koblenz-badems.eu/","wheelchair":"no"}},"806194331":{"location":[50.3720172,7.7136998],"ct":"DE","tp":"CS","ts":"2023-05-31T17:44:40Z","tX":533,"tY":345,"tags":{"caravans":"no","group_only":"yes","name":"Pfadfinderzeltplatz","operator":"DPSG Eitelborn - Stamm Weiße Rose","tents":"yes"}},"944336740":{"location":[50.441642,7.5797722],"ct":"DE","tp":"CR","ts":"2021-05-18T17:17:34Z","tX":533,"tY":345,"tags":{"addr:city":"Bendorf","addr:housenumber":"1","addr:postcode":"56170","addr:street":"In der Sayner Hütte","capacity":"6","fee":"no","internet_access":"no","name":"Wohnmobilstellplatz Sayner Hütte","power_supply":"no","sanitary_dump_station":"no","surface":"fine_gravel"}},"1060320510":{"location":[50.3985537,7.7165863],"ct":"DE","tp":"CR","ts":"2023-11-02T05:47:06Z","tX":533,"tY":345,"tags":{"addr:city":"Hillscheid","addr:housenumber":"1","addr:postcode":"56204","addr:street":"Hüttenmühle","area":"yes","capacity:caravans":"20","internet_access":"yes","internet_access:fee":"no","name":"Hüttenmühle","phone":"+49 2620 95475607","power_supply":"yes","sanitary_dump_station":"yes","website":"https://www.huettenmuehle-hillscheid.de/"}},"1329996536":{"location":[50.3828672,7.7032144],"ct":"DE","tp":"CR","ts":"2024-11-04T17:29:58Z","tX":533,"tY":345,"tags":{"addr:housenumber":"3","addr:street":"Im Feldchen","drinking_water":"yes","fee":"yes","fence":"yes","name":"Efferz","power_supply":"yes","sanitary_dump_station":"yes","toilets":"no"}},"1356148486":{"location":[50.3091446,7.6394744],"ct":"DE","tp":"CS","ts":"2025-02-02T12:30:34Z","tX":533,"tY":345,"tags":{"access":"no","addr:city":"Lahnstein","addr:housenumber":"4","addr:postcode":"56112","addr:street":"Auf AHl","operator":"ACN"}},"8418562550":{"location":[50.3879288,7.4029005],"ct":"DE","tp":"CR","ts":"2024-12-18T16:49:16Z","tX":533,"tY":345,"tags":{"caravan_site":"motorhome_stopover","caravan_site:type":"museum","fee":"no","name":"Vulkanpark Infozentrum","sanitary_dump_station":"no","shower":"no","toilets":"no","water_point":"no","website":"https://www.vulkanpark.com/"}},"9486911456":{"location":[50.3825903,7.6001124],"ct":"DE","tp":"CR","ts":"2024-10-09T08:50:05Z","tX":533,"tY":345,"tags":{"capacity":"38","fee":"yes","internet_access":"wlan","internet_access:fee":"no","name":"Reisemobil-Stellplatz Koblenz","power_supply":"yes","sanitary_dump_station":"yes"}},"12257810951":{"location":[50.4398504,7.6599572],"ct":"DE","tp":"CR","ts":"2024-12-05T01:16:05Z","tX":533,"tY":345,"tags":{"caravan_site":"motorhome_stopover","caravan_site:type":"town","name":"Stellplatz Grenzhausen"}},"4774096230":{"location":[50.3090936,7.5986434],"ct":"DE","tp":"SD","ts":"2017-04-04T05:47:15Z","tX":533,"tY":345,"tags":{"sanitary_dump_station:chemical_toilet":"yes","sanitary_dump_station:fee":"yes","sanitary_dump_station:gravity":"yes","sanitary_dump_station:grey_water":"yes","sanitary_dump_station:suction":"no"}},"4853755582":{"location":[50.3048165,7.4604637],"ct":"DE","tp":"SD","ts":"2024-11-15T10:02:40Z","tX":533,"tY":345,"tags":{"access":"yes","charge":"1€","fee":"yes","operator":"Gemeinde Kobern-Gondorf","payment:cash":"yes","sanitary_dump_station:chemical_toilet":"yes","sanitary_dump_station:fee":"no","sanitary_dump_station:gravity":"yes","sanitary_dump_station:grey_water":"yes","sanitary_dump_station:suction":"no","water_point":"yes"}},"5732671726":{"location":[50.4161793,7.4792178],"ct":"DE","tp":"SD","ts":"2020-10-13T21:39:41Z","tX":533,"tY":345,"tags":{"access":"customers","description":"Entsorgung von Grauwasser und Chemietoilette im Übernachtungstarif enthalten","fee":"no","opening_hours":"24/7","sanitary_dump_station:basin":"yes","sanitary_dump_station:round_drain":"yes","water_point":"no"}},"7902777382":{"location":[50.4183934,7.5246088],"ct":"DE","tp":"SD","ts":"2020-10-01T16:31:21Z","tX":533,"tY":345,"tags":{"access":"customers","sanitary_dump_station:basin":"yes","sanitary_dump_station:round_drain":"yes"}},"7978336517":{"location":[50.33331,7.701865],"ct":"DE","tp":"SD","ts":"2020-10-13T21:47:07Z","tX":533,"tY":345,"tags":{"access":"customers","description":"Entsorgung für Chemie Toiletten","fee":"no"}},"9740251108":{"location":[50.3314445,7.5539046],"ct":"DE","tp":"SD","ts":"2022-05-14T21:00:38Z","tX":533,"tY":345,"tags":{}},"12431146880":{"location":[50.4267259,7.3852399],"ct":"DE","tp":"CR","ts":"2024-12-18T16:21:27Z","tX":533,"tY":345,"tags":{"capacity":"8","caravan_site":"motorhome_stopover","caravan_site:type":"spa","charge":"10 EUR","fee":"yes","fee:description":"5 EUR/night, arrival and departure days are counted","maxlength":"11","name":"Stellplatz Monte Mare Andernach","phone":"+49 2632 987221 0","power_supply":"yes","power_supply:charge":"0.50 EUR/KWh","reservation":"recommended","sanitary_dump_station":"no","sauna":"yes","seasonal":"no","surface":"paving_stones","water_point":"no","website":"https://www.monte-mare.de/andernach/kontakt-anfahrt"}}}