{"4260853":{"location":[49.9597484,7.5951251],"ct":"DE","tp":"CS","ts":"2024-08-02T09:16:29Z","tX":533,"tY":347,"tags":{"addr:city":"Argenthal","addr:postcode":"55496","addr:street":"Waldseestraße","caravans":"yes","name":"Campingplatz am Waldsee Argenthal","operator":"Ortsgemeinde Argenthal","tents":"yes","website":"https://argenthal.de/campingplatz-mit-badesee"}},"83488488":{"location":[49.9359776,7.4634674],"ct":"DE","tp":"CS","ts":"2024-09-09T12:52:30Z","tX":533,"tY":347,"tags":{"access":"customers","group_only":"yes","name":"Jugendzeltplatz Ravengiersburg","operator":"Ortsgemeinde Ravengiersburg","surface":"grass","tents":"yes"}},"120270127":{"location":[50.0270287,7.6722707],"ct":"DE","tp":"CS","ts":"2023-04-15T16:14:45Z","tX":533,"tY":347,"tags":{"addr:city":"Erbach","addr:postcode":"55494","addr:street":"Pfaffenheck","caravans":"yes","email":"campingplatz@erbach-hunsrueck.de","mobile":"+49 171 834 95 24","name":"An der Pfaffenheck","operator":"Ortsgemeinde Erbach","phone":"+49 171 8349524","shower":"yes","tents":"yes","toilets":"yes","website":"http://www.erbach-hunsrueck.de/Gemeinde/Campingplatz/Campingplatz.htm"}},"124550414":{"location":[49.8529003,7.6627783],"ct":"DE","tp":"CS","ts":"2024-05-21T09:25:08Z","tX":533,"tY":347,"tags":{"addr:city":"Bockenau","addr:housenumber":"3","addr:postcode":"55595","addr:street":"Daubacher Brücke","fee":"yes","name":"Bockenauer Schweiz","phone":"+49 6756-298","shower":"yes","tents":"yes","toilets":"yes","website":"https://bockenauerschweiz.de/"}},"147931162":{"location":[49.9099825,7.7122711],"ct":"DE","tp":"CS","ts":"2023-09-11T09:49:04Z","tX":533,"tY":347,"tags":{"access":"yes","addr:city":"Spabrücken","addr:postcode":"55595","caravans":"yes","dog":"yes","drinking_water":"yes","email":"camping.aw@gmail.com","fee":"yes","name":"Camping Am Weißenfels","operator":"Johann-Heinrich Wies GmbH","phone":"+49 6706 8630","power_supply":"yes","sanitary_dump_station":"yes","shower":"yes","static_caravans":"yes","tents":"yes","toilets":"yes","website":"https://www.campingaw.com/"}},"180369767":{"location":[49.9261893,7.6720178],"ct":"DE","tp":"CS","ts":"2024-09-06T07:26:20Z","tX":533,"tY":347,"tags":{"access":"customers","capacity:caravans":"0","capacity:persons":"70","caravans":"no","description":"Anmeldung beim Walderlebniszentrum Soonwald erforderlich","dog":"yes","drinking_water":"no","email":"walderlebniszentrum@wald-rlp.de","fee":"yes","group_only":"yes","landuse":"meadow","name":"Waldzeltplatz Salzlackwiese","openfire":"yes","operator":"Forstamt Soonwald","phone":"+49 6724 602610","shower":"no","surface":"grass","tents":"yes","toilets":"yes","website":"https://www.wald.rlp.de/de/walderlebniszentrum-soonwald/wir/salzlackwiese/"}},"180378251":{"location":[49.9609217,7.6965518],"ct":"DE","tp":"CS","ts":"2022-02-23T07:51:39Z","tX":533,"tY":347,"tags":{"access":"permissive","backcountry":"no","bbq":"no","capacity":"150","caravans":"no","drinking_water":"yes","email":"kath.kinderhilfe@bistum-mainz.de","fee":"yes","group_only":"yes","hot_water":"yes","impromptu":"no","internet_access":"no","kitchen":"yes","lit":"yes","name":"Zeltplatz Martinshütte I","openfire":"yes","opening_hours":"May-Oct open","operator":"Bistum Mainz","parking":"yes","phone":"+49 6131 253 624","picnic_table":"yes","playground":"no","power_supply":"no","reservation":"required","sanitary_dump_station":"no","shower":"hot","swimming_pool":"no","tents":"yes","toilets":"yes","washing_machine":"no","waste_disposal":"yes","website":"https://bildungshaeuser.bistummainz.de/gaestehaeuser/martinshuette-seibersbach"}},"208125995":{"location":[49.9598743,7.6898338],"ct":"DE","tp":"CS","ts":"2022-02-23T07:51:39Z","tX":533,"tY":347,"tags":{"caravans":"no","group_only":"yes","name":"Zeltplatz Martinshütte II","openfire":"yes","opening_hours":"May-Oct open","operator":"Bistum Mainz","phone":"+49 6131 253 624","reservation":"required","sanitary_dump_station":"no","shower":"cold","tents":"yes","website":"https://bildungshaeuser.bistummainz.de/gaestehaeuser/martinshuette-seibersbach"}},"233889481":{"location":[49.8915348,7.6915132],"ct":"DE","tp":"CS","ts":"2022-03-29T09:26:33Z","tX":533,"tY":347,"tags":{"access":"customers","description":"nur Dauercamper","name":"Campingplatz Webersmühle","permanent_camping":"only"}},"233946750":{"location":[49.9611282,7.7111423],"ct":"DE","tp":"CS","ts":"2020-08-07T17:09:53Z","tX":533,"tY":347,"tags":{"access":"permissive","backcountry":"no","group_only":"yes","name":"Zeltplatz TuS Seibersbach","reservation":"required","tents":"yes","toilets":"yes"}},"362558278":{"location":[49.8466481,7.3950273],"ct":"DE","tp":"CS","ts":"2019-08-23T13:50:59Z","tX":533,"tY":347,"tags":{"access":"private","backcountry":"yes","caravans":"no","description":"Nur im Rahmen von Angeboten des Veranstalters \"Naturcamps Hunsrück\" buchbar.","fee":"yes","landuse":"meadow","name":"Naturcamp Schmidtburg","openfire":"yes","operator":"Naturcamps Hunsrück Beate Thome","shower":"no","tents":"yes","toilets":"yes","website":"https://www.naturcamps-hunsrueck.com/naturcamp-schmidtburg/"}},"503211403":{"location":[49.954019,7.4086097],"ct":"DE","tp":"CR","ts":"2022-08-29T09:25:14Z","tX":533,"tY":347,"tags":{"addr:city":"Kirchberg","addr:postcode":"55481","addr:street":"Herbert-Kühn-Straße","capacity":"10","fee":"yes","name":"Wohnmobilstellplatz AMB Reisemobile","phone":"+49 6763 544","power_supply":"yes","sanitary_dump_station":"yes","website":"https://camping-caravan-park-hunsruck.business.site/"}},"636901917":{"location":[49.9088656,7.6077747],"ct":"DE","tp":"CS","ts":"2023-05-31T12:35:13Z","tX":533,"tY":347,"tags":{"access":"customers","backcountry":"yes","camp_site":"basic","caravans":"no","charge":"15 EUR pro Einheit/Nacht","drinking_water":"no","fee":"yes","name":"Trekkingcamp Ellerspring","openfire":"yes","opening_hours":"Apr 1-Oct 31: \"needs reservation by phone or web\"","operator":"Naturpark Soonwald-Nahe","reservation":"required","short_name":"Ellerspring","shower":"no","tents":"yes","toilets":"yes","website":"https://www.soonwaldsteig.de/trekkingcamps"}},"1026165861":{"location":[50.053671,7.4163537],"ct":"DE","tp":"CS","ts":"2022-01-30T18:35:18Z","tX":533,"tY":347,"tags":{}},"1036868223":{"location":[49.9541258,7.6215518],"ct":"DE","tp":"CS","ts":"2024-04-27T19:07:34Z","tX":533,"tY":347,"tags":{"access":"customers","backcountry":"yes","camp_site":"basic","caravans":"no","charge":"15.00 EUR/Einheit und Nacht","drinking_water":"no","fee":"yes","name":"Trekkingcamp Ochsenbaumer Höhe","openfire":"yes","opening_hours":"Apr 01-Oct 31: \"needs reservation by phone or web\"","operator":"Naturpark Soonwald-Nahe","reservation":"required","short_name":"Ochsenbaumer Höhe","shower":"no","tents":"yes","toilets":"yes","website":"https://www.soonwaldsteig.de/trekkingcamps"}},"1037082544":{"location":[49.8774513,7.5406713],"ct":"DE","tp":"CS","ts":"2024-03-03T16:50:59Z","tX":533,"tY":347,"tags":{"access":"customers","backcountry":"yes","camp_site":"basic","caravans":"no","charge":"15 EUR pro Einheit/Nacht","drinking_water":"no","fee":"yes","landuse":"forest","name":"Trekkingcamp Alteburg","openfire":"yes","opening_hours":"Apr 1-Oct 31: \"needs reservation by phone or web\"","operator":"Naturpark Soonwald-Nahe","reservation":"required","shower":"no","tents":"yes","toilets":"yes","website":"https://www.soonwaldsteig.de/trekkingcamps"}},"1115716919":{"location":[49.9786722,7.5118464],"ct":"DE","tp":"CR","ts":"2023-01-17T14:33:50Z","tX":533,"tY":347,"tags":{"addr:city":"Simmern/Hunsrück","addr:housenumber":"4","addr:postcode":"55469","addr:street":"Nannhausener Straße","capacity:caravans":"7","name":"Bergschlößchen","phone":"+49 6761 9000"}},"1175623568":{"location":[49.8462423,7.5494136],"ct":"DE","tp":"CR","ts":"2023-05-24T13:52:00Z","tX":533,"tY":347,"tags":{"addr:city":"Seesbach","addr:housenumber":"11","addr:postcode":"55629","addr:street":"Kirchstraße","capacity:caravans":"1","drinking_water":"yes","fee":"yes","name":"Wohnmobilstellplatz Soonwaldblick","phone":"+49 6754 8880","power_supply":"yes","sanitary_dump_station":"no","shower":"no","tents":"no","toilets":"no"}},"1265833252":{"location":[49.8463927,7.4065095],"ct":"DE","tp":"CR","ts":"2024-07-03T18:20:16Z","tX":533,"tY":347,"tags":{"addr:city":"Schneppenbach","addr:housenumber":"15","addr:postcode":"55608","addr:street":"Lützelsoonblick","capacity":"2","caravan_site":"motorhome_stopover","caravan_site:type":"village","caravans":"no","charge":"5 EUR","drinking_water":"no","fee":"yes","maxlength":"8","name":"Wohnmobilstellplatz Schneppenbach","phone":"+49 1706067155","power_supply":"yes","power_supply:charge":"2 EUR","power_supply:fee":"yes","power_supply:socket":"cee_blue","reservation":"no","sanitary_dump_station":"no","surface":"asphalt","tents":"no","toilets":"no","website":"https://schneppenbach.eu/freizeit-und-tourismus/stellplaetze"}},"1291210651":{"location":[49.8997815,7.4893659],"ct":"DE","tp":"CR","ts":"2024-09-06T07:26:20Z","tX":533,"tY":347,"tags":{"capacity":"6","name":"Wohnmobilstellplatz Freibad Gemünden","operator":"Ortsgemeinde Gemünden","power_supply":"yes","shower":"no","toilets":"no","water_point":"yes"}},"1313437216":{"location":[49.8940232,7.4783827],"ct":"DE","tp":"CR","ts":"2024-09-05T08:22:47Z","tX":533,"tY":347,"tags":{"addr:city":"Gemünden","addr:postcode":"55490","addr:street":"Raiffeisenstraße","capacity":"4","name":"Wohnmobilstellplatz Gemünden","operator":"Ortsgemeinde Gemünden","power_supply":"yes","shower":"no","toilets":"no","water_point":"no"}},"4181071315":{"location":[49.8456702,7.3911895],"ct":"DE","tp":"CS","ts":"2022-09-07T08:47:07Z","tX":533,"tY":347,"tags":{"access":"customers","backcountry":"yes","camp_site":"basic","caravans":"no","fee":"yes","name":"Trekkingcamp Schmidtburg","openfire":"yes","operator":"Ortsgemeinde Schneppenbach","shower":"no","tents":"yes","toilets":"yes","website":"https://www.soonwaldsteig.de/trekkingcamps","wheelchair":"no"}},"10063129167":{"location":[49.9465268,7.5331412],"ct":"DE","tp":"CS","ts":"2023-04-01T18:31:29Z","tX":533,"tY":347,"tags":{"addr:city":"Holzbach","addr:postcode":"55469","addr:street":"Höhenhof","alt_name":"Höhenhof - Zelt, Caravan, Wohnmobil","caravans":"yes","drinking_water":"yes","email":"info@hoehenhof.de","fee":"yes","motorhome":"yes","name":"Höhenhof","operator":"Höhenhof – Familie Zappel","phone":"+49 6761 6290","power_supply":"yes","shower":"yes","tents":"yes","toilets":"yes","website":"https://www.hoehenhof.de/wohnen#Camping"}}}