{"2872703":{"location":[49.7134803,7.6544286],"ct":"DE","tp":"CS","ts":"2022-12-04T12:47:02Z","tX":533,"tY":348,"tags":{"access":"customers","capacity:persons":"100","caravans":"no","fee":"yes","group_only":"yes","name":"Kreisjugendzeltplatz Heimbachtal","operator":"Landkreis Bad Kreuznach","power_supply":"yes","shower":"yes","tents":"yes","toilets":"yes","url":"https://www.kreis-badkreuznach.de/kreisverwaltung/organisation/amt-5-kreisjugendamt/jugendbildungsstaetten/jugendzeltplatz/"}},"15352659":{"location":[49.779324,7.6588971],"ct":"DE","tp":"CR","ts":"2024-03-26T08:37:53Z","tX":533,"tY":348,"tags":{"addr:city":"Bad Sobernheim","addr:country":"DE","addr:housenumber":"1","addr:postcode":"55566","addr:street":"Hömigweg","capacity:motorhomes":"80","caravans":"no","charge":"13 EUR","contact:phone":"+49 6751 854611","dog":"yes","drinking_water":"yes","email":"info@nohfels-park.de","fee":"yes","internet_access":"wlan","internet_access:fee":"no","internet_access:ssid":"Freifunk Soonwald","name":"Nohfels Park","power_supply":"yes","power_supply:charge":"4 EUR/day","sanitary_dump_station":"yes","tents":"no","water_point":"yes","water_point:charge":"1 EUR/80 liter","website":"https://nohfels-park.de/camping-bad-sobernheim","wikimedia_commons":"Category:Wohnmobilstellplatz (Bad Sobernheim)"}},"33629405":{"location":[49.7958969,7.5758473],"ct":"DE","tp":"CS","ts":"2024-08-12T13:02:43Z","tX":533,"tY":348,"tags":{"access":"customers","addr:city":"Monzingen","addr:country":"DE","addr:housenumber":"1","addr:postcode":"55569","addr:street":"Nahemühle","capacity":"2000","caravans":"yes","drinking_water":"yes","email":"info@camping-nahemuehle.de","fax":"+49 6751 855429","fee":"yes","internet_access":"wlan","internet_access:fee":"no","leisure":"firepit;playground","motor_vehicle":"yes","name":"Campingplatz Nahemühle","openfire":"yes","parking":"yes","payment:cash":"yes","payment:maestro":"yes","payment:mastercard":"yes","payment:visa":"yes","phone":"+49 6751 7475","power_supply":"cee_17_blue","sanitary_dump_station":"yes","shower":"yes","static_caravans":"yes","tents":"yes","toilets":"yes","website":"https://www.camping-nahemuehle.de/","wheelchair":"limited"}},"206267054":{"location":[49.734919,7.677773],"ct":"DE","tp":"CS","ts":"2024-04-23T17:03:06Z","tX":533,"tY":348,"tags":{"addr:city":"Rehborn","brewery":"yes","building":"yes","caravans":"no","horse":"yes","name":"Frau K!","opening_hours":"Freitag 15:00 - 21: 00 Uhr,Samstag 14:00 - 21:00 Uhr. Sonntag: 10:00 - 18:00 Uhr","smoking":"outside","tents":"yes","website":"https://frauk-rehborn.de/"}},"207499469":{"location":[49.7710982,7.4577171],"ct":"DE","tp":"CS","ts":"2022-03-29T10:46:45Z","tX":533,"tY":348,"tags":{"addr:city":"Kirn","addr:housenumber":"8","addr:postcode":"55606","addr:street":"Krebsweilerer Straße","caravans":"yes","drinking_water":"yes","email":"infos@papiermuehle-campingplatz.de","fee":"yes","name":"Campingplatz Papiermühle","phone":"+49 6752 2267","power_supply":"yes","sanitary_dump_station":"yes","shower":"yes","tents":"yes","toilets":"yes","website":"https://www.papiermuehle-campingplatz.de/"}},"286142725":{"location":[49.8144526,7.5055792],"ct":"DE","tp":"CS","ts":"2024-03-24T15:26:16Z","tX":533,"tY":348,"tags":{"addr:city":"Simmertal","addr:housenumber":"1","addr:postcode":"55618","addr:street":"Haumühle","caravans":"yes","description":"Very dog friendly. Dogs allowed in restaurant.","dog":"designated","drinking_water":"yes","email":"info@camping-haumuehle.de","fee":"yes","internet_access":"wlan","name":"Campingplatz Haumühle","phone":"+49 6754 946565","power_supply":"yes","sanitary_dump_station":"yes","shower":"yes","static_caravans":"yes","tents":"yes","toilets":"yes","website":"https://www.camping-haumuehle.de/"}},"353238740":{"location":[49.6498671,7.587554],"ct":"DE","tp":"CR","ts":"2024-12-23T22:55:55Z","tX":533,"tY":348,"tags":{"addr:city":"Lauterecken","addr:housenumber":"3a","addr:postcode":"67742","addr:street":"Friedhofweg","bbq":"yes","capacity":"30","caravan_site":"motorhome_stopover","caravan_site:type":"town","charge":"10 EUR","fee":"yes","name":"Wohnmobilstellplatz Villa Toskana","phone":"+49 6382 92170","power_supply":"yes","power_supply:capacity":"24","power_supply:charge":"1 EUR/8 hours","power_supply:fee":"yes","sanitary_dump_station":"yes","shower":"yes","toilets":"yes","website":"https://wohnmobilstellplatz-lauterecken.de/"}},"495201565":{"location":[49.8080196,7.6000559],"ct":"DE","tp":"CS","ts":"2025-01-07T08:11:24Z","tX":533,"tY":348,"tags":{"access":"private","backcountry":"yes","caravans":"no","description":"Nur im Rahmen von Angeboten des Veranstalters \"Naturcamps Hunsrück\" buchbar.","fee":"yes","name":"Naturcamp Nahetal","natural":"wood","operator":"Naturcamps Hunsrück Beate Thome","shower":"no","tents":"yes","toilets":"yes","website":"https://www.naturcamps-hunsrueck.com/naturcamp-nahetal-2/"}},"589046256":{"location":[49.7413412,7.4056596],"ct":"DE","tp":"CR","ts":"2023-05-02T09:53:24Z","tX":533,"tY":348,"tags":{"addr:city":"Fischbach","addr:housenumber":"2","addr:postcode":"55743","addr:street":"Marktstraße","capacity":"40","capacity:caravans":"40","contact:email":"daemgengl@t-online.de","contact:mobile":"+49 173 3101988;+49 1520 1801906","contact:website":"http://www.wohnmobilparkfischbach-nahe.de/","fee":"yes","name":"Wohnmobilpark Fischbach Nahe","power_supply":"yes","sanitary_dump_station":"yes","water_point":"yes"}},"672679970":{"location":[49.6345554,7.6644333],"ct":"DE","tp":"CR","ts":"2023-01-17T14:07:46Z","tX":533,"tY":348,"tags":{"addr:city":"Reipoltskirchen","addr:postcode":"67753","addr:street":"Kegelbahnstraße","capacity":"2","drinking_water":"yes","email":"touristinformation@kv-kusel.de","fee":"yes","internet_access":"no","name":"Wasserburg","phone":"+49 6381 424270","power_supply":"yes","sanitary_dump_station":"yes","water_point":"yes","website":"https://pfaelzerbergland.de/reipoltskirchen.html"}},"864809172":{"location":[49.6116719,7.5306172],"ct":"DE","tp":"CR","ts":"2023-01-17T13:53:51Z","tX":533,"tY":348,"tags":{"addr:city":"Glanbrücken","addr:postcode":"66887","addr:street":"An den Mühlen","capacity":"3","capacity:caravans":"3","drinking_water":"yes","fee":"yes","name":"Wohnmobilstellplatz An den Mühlen","phone":"+49 1708281737","power_supply":"yes","sanitary_dump_station":"yes","water_point":"yes","website":"https://www.vg-lw.de/strukturierte-daten/schlafen/camping-und-wohnmobilstellplaetze/wohnmobilstellplatz-glanbruecken/"}},"1351694997":{"location":[49.7852096,7.4548125],"ct":"DE","tp":"CR","ts":"2025-01-16T01:36:03Z","tX":533,"tY":348,"tags":{"addr:city":"Kirn","addr:postcode":"55606","addr:street":"Sulzbacher Straße","capacity:caravans":"3","caravan_site":"motorhome_stopover","caravan_site:type":"town","fee":"no","internet_access":"no","name":"Schmisserhang","operator":"Stadt Kirn","phone":"+49 6752 135155","power_supply":"no","sanitary_dump_station":"no","toilets":"no","water_point":"no","website":"https://www.kirn.de/touristik/uebernachtung/standard-titel-1/seite"}},"3875892773":{"location":[49.7145996,7.657159],"ct":"DE","tp":"CR","ts":"2022-12-04T12:47:02Z","tX":533,"tY":348,"tags":{"capacity:caravans":"12","drinking_water":"yes","internet_access":"yes","internet_access:fee":"no","name":"Im Heimbachtal","operator":"Stadt Meisenheim","phone":"+49 6751 811171","power_supply":"yes","sanitary_dump_station":"yes","website":"http://www.stadt-meisenheim.de/stadtleben/wohnmobilstellplatz-im-heimbachtal/"}},"8913603722":{"location":[49.7609301,7.5760345],"ct":"DE","tp":"CR","ts":"2024-06-14T09:52:16Z","tX":533,"tY":348,"tags":{"addr:city":"Kirschroth","addr:postcode":"55566","addr:street":"Zum Dreschplatz","capacity":"4","capacity:caravans":"4","name":"Am Fuchspfad","operator":"Ortsgemeinde Kirschroth","power_supply":"yes","shower":"no","toilets":"no"}},"10237817436":{"location":[49.7851521,7.4547874],"ct":"DE","tp":"CR","ts":"2023-07-23T18:25:08Z","tX":533,"tY":348,"tags":{"addr:city":"Kirn","addr:postcode":"55606","addr:street":"Sulzbacher Straße","capacity:caravans":"3","fee":"no","internet_access":"no","name":"Schmisserhang","operator":"Stadt Kirn","phone":"+49 6752 135155","power_supply":"no","sanitary_dump_station":"no","toilets":"no","website":"https://www.kirn.de/touristik/uebernachtung/wohnmobilcamping/"}},"7942096323":{"location":[49.7791528,7.6578987],"ct":"DE","tp":"SD","ts":"2021-11-02T18:44:31Z","tX":533,"tY":348,"tags":{"access":"customers","description":"Mit Frischwasser Versorgung Kosten 1€ ca 80 ltr. 10cent ca 10 ltr.","fee":"no","sanitary_dump_station:basin":"yes","water_point":"yes"}}}