{"32242344":{"location":[49.4696148,7.4446399],"ct":"DE","tp":"CR","ts":"2024-04-01T23:43:37Z","tX":533,"tY":349,"tags":{"fee":"no","name":"Glan-Münchweiler Bahnhof","power_supply":"yes","sanitary_dump_station":"yes","surface":"paving_stones","toilets":"no","water_point":"yes","wheelchair":"yes"}},"38448656":{"location":[49.4124612,7.4055441],"ct":"DE","tp":"CS","ts":"2024-02-12T17:42:47Z","tX":533,"tY":349,"tags":{"addr:city":"Schönenberg-Kübelberg","addr:country":"DE","addr:housenumber":"1","addr:place":"Campingpark Ohmbachsee 1","addr:postcode":"66901","caravans":"yes","contact:email":"jungfleisch@campingpark-ohmbachsee.de","contact:phone":"+49 6373 4001","contact:website":"https://www.campingpark-ohmbachsee.de/","name":"Campingpark am Ohmbachsee","tents":"yes"}},"120553105":{"location":[49.4138149,7.4428485],"ct":"DE","tp":"CS","ts":"2024-08-02T18:55:54Z","tX":533,"tY":349,"tags":{"addr:city":"Bruchmühlbach-Miesau","addr:housenumber":"26","addr:postcode":"66892","addr:street":"Schanzerstraße","capacity":"135","caravans":"no","name":"Campingplatz Hasenhübel Miesau","operator":"Verbandsgemeind Verwaltung Bruchmühlbach-Miesau","permanent_camping":"only","phone":"+49 6372 2425","tents":"no","website":"https://www.tourismus-vgbm.de/bleiben-geniessen/campingplatz-hasenhuebel/#accordion-1-1ing/"}},"121082998":{"location":[49.5810681,7.6181401],"ct":"DE","tp":"CS","ts":"2024-08-05T17:08:54Z","tX":533,"tY":349,"tags":{"addr:city":"Wolfstein","addr:housenumber":"1","addr:postcode":"67752","addr:street":"Am Schwimmbad","area":"yes","capacity:caravans":"100","caravans":"yes","drinking_water":"yes","email":"info@CampingWolfstein.de","fax":"+49 6304 7543","fee":"yes","internet_access":"wlan","name":"Camping \"Am Königsberg\"","phone":"+49 6304 4143","power_supply":"yes","sanitary_dump_station":"yes","shower":"yes","stars":"4","tents":"yes","toilets":"yes","website":"https://www.campingwolfstein.de/","wheelchair":"yes"}},"176831034":{"location":[49.3940958,7.6905312],"ct":"DE","tp":"CS","ts":"2020-01-01T17:49:49Z","tX":533,"tY":349,"tags":{"caravans":"yes","name":"Gelterswoog","permanent_camping":"yes","power_supply":"yes","shower":"yes","tents":"yes","toilets":"yes","washing_machine":"yes","website":"http://camping-kaiserslautern.de/","wheelchair":"limited"}},"297669427":{"location":[49.4408026,7.4350089],"ct":"DE","tp":"CR","ts":"2020-01-12T15:39:32Z","tX":533,"tY":349,"tags":{}},"435981396":{"location":[49.5747028,7.6834274],"ct":"DE","tp":"CS","ts":"2022-11-17T08:16:32Z","tX":533,"tY":349,"tags":{"access":"private","addr:city":"Niederkirchen","addr:housenumber":"1","addr:postcode":"67700","addr:street":"Sport- und Freizeitzentrum","capacity:caravans":"50","name":"Campingclub Buchenknopf","operator":"Campingclub Kaiserslautern","website":"https://www.campingclub-kaiserslautern.de/"}},"446111374":{"location":[49.5551058,7.5563598],"ct":"DE","tp":"CR","ts":"2024-03-19T16:45:19Z","tX":533,"tY":349,"tags":{"capacity":"3","caravans":"no","dog":"yes","drinking_water":"no","fee":"no","internet_access":"no","name":"Wohnmobilstellplatz Eßweiler","operator":"Gemeinde Eßweiler","power_supply":"no","sanitary_dump_station":"no","tents":"no","website":"http://www.essweiler.de/cont3/kultur-und-tourismus/link-uebernachtungsmoeglichkeiten/wohnmobilstellplaetze"}},"500767744":{"location":[49.4440955,7.5663481],"ct":"DE","tp":"CS","ts":"2020-01-01T17:51:30Z","tX":533,"tY":349,"tags":{"capacity":"300","caravans":"no","contact:website":"http://pfadfinderzentrum-kurpfalz.de/","fee":"yes","group_only":"yes","internet_access":"wlan","internet_access:fee":"yes","name":"Pfadfinderzentrum Kurpfalz","operator":"Pfadfinderinnen und Pfadfinder (BdP) Stamm Kurpfalz Ramstein","scout":"yes","tents":"yes"}},"509638205":{"location":[49.5213021,7.4807085],"ct":"DE","tp":"CR","ts":"2017-07-23T15:18:26Z","tX":533,"tY":349,"tags":{"fee":"no","name":"Stellplatz Potzberg","power_supply":"no","sanitary_dump_station":"no"}},"699282073":{"location":[49.5307263,7.648824],"ct":"DE","tp":"CS","ts":"2023-10-23T15:33:17Z","tX":533,"tY":349,"tags":{"access":"customers","backcountry":"yes","camp_site":"basic","capacity:persons":"18","capacity:tents":"6","caravans":"no","drinking_water":"no","fee":"yes","motor_vehicle":"no","name":"Trekking Pfalz: Frankelbach","openfire":"yes","opening_hours":"Apr 1-Oct 31: \"needs reservation by phone or web\"","ref":"12","reservation":"required","shower":"no","tents":"yes","toilets":"yes","website":"https://www.trekking-pfalz.de/plaetze/frankelbach"}},"948695982":{"location":[49.4119668,7.4042131],"ct":"DE","tp":"CR","ts":"2024-04-02T00:13:20Z","tX":533,"tY":349,"tags":{"caravan_site":"motorhome_stopover","caravan_site:type":"camp_site","caravans":"no","name":"Wohnmobilstellplätze Campingpark am Ohmbachsee","tents":"no"}},"1039620453":{"location":[49.6068374,7.5129734],"ct":"DE","tp":"CR","ts":"2023-12-15T11:10:46Z","tX":533,"tY":349,"tags":{"addr:city":"Sankt Julian","addr:postcode":"66887","addr:street":"Mühlstraße","capacity:caravans":"10","drinking_water":"yes","fee":"yes","internet_access":"no","name":"Wohnmobilplatz Ölmühle","operator":"Ortsgemeinde Sankt Julian","phone":"+49 171 2639076","power_supply":"yes","sanitary_dump_station":"yes","website":"https://www.sankt-julian.de/de/wohnmobilplatz"}},"2330007125":{"location":[49.4156935,7.5708753],"ct":"DE","tp":"CR","ts":"2018-01-23T11:02:43Z","tX":533,"tY":349,"tags":{"fee":"no","name":"Wohnmobilstellplatz Landstuhl","power_supply":"yes","sanitary_dump_station":"yes","toilets:wheelchair":"no","waste_disposal":"yes","water_point":"yes","wheelchair":"yes"}},"2414871305":{"location":[49.4165992,7.4038196],"ct":"DE","tp":"CR","ts":"2013-08-11T17:48:03Z","tX":533,"tY":349,"tags":{"name":"Wohnmobil Stellplatz Ohmbachsee"}},"3438555729":{"location":[49.4460308,7.570937],"ct":"DE","tp":"CR","ts":"2015-04-05T06:17:39Z","tX":533,"tY":349,"tags":{"fee":"no","name":"Ramstein Azur","power_supply":"no"}},"3438555730":{"location":[49.4505283,7.5556746],"ct":"DE","tp":"CR","ts":"2015-04-05T06:17:39Z","tX":533,"tY":349,"tags":{"fee":"no","name":"Ramstein Talstraße"}},"3884368298":{"location":[49.5499567,7.464591],"ct":"DE","tp":"CR","ts":"2023-02-03T15:08:00Z","tX":533,"tY":349,"tags":{"addr:city":"Altenglan","addr:country":"DE","addr:postcode":"66885","addr:street":"Austraße","capacity:caravans":"4","drinking_water":"yes","fee":"yes","name":"Wohnmobilstellplatz Draisine","power_supply":"yes","sanitary_dump_station":"yes","website":"https://www.pfaelzerbergland.de/?s=Altenglan"}},"4864777168":{"location":[49.528702,7.5659156],"ct":"DE","tp":"CR","ts":"2017-05-19T19:01:40Z","tX":533,"tY":349,"tags":{"fee":"no","name":"Wohnmobil Stellplatz Jettenbach","power_supply":"yes"}},"4868183826":{"location":[49.5401958,7.3963817],"ct":"DE","tp":"CR","ts":"2017-05-21T16:17:15Z","tX":533,"tY":349,"tags":{"fee":"no","name":"Tuchfabrik"}},"8781140478":{"location":[49.4120664,7.4038813],"ct":"DE","tp":"SD","ts":"2021-05-30T14:44:05Z","tX":533,"tY":349,"tags":{"name":"Ver- und Entsorgungsstation"}}}