{"10120837":{"location":[47.8354678,7.7226665],"ct":"DE","tp":"CS","ts":"2020-08-13T19:34:44Z","tX":533,"tY":356,"tags":{"email":"info@camping-alte-saegemuehle.de","fax":"+49 7 634 55 11 82","name":"Alte Sägemühle","phone":"+49 7 634 55 11 81","power_supply":"yes","website":"http://www.camping-alte-saegemuehle.de/"}},"28190840":{"location":[47.7597911,7.549958],"ct":"DE","tp":"CS","ts":"2023-12-02T16:07:36Z","tX":533,"tY":356,"tags":{"cabins":"yes","caravans":"yes","email":"info@dle-naturisten.de","name":"Dreiländereck Ferienpark der Naturisten","note":"boundary only estimated, ways were collected with GPS","nudism":"yes","phone":"+49 76 35 82 55 6 0","static_caravans":"yes","tents":"yes","website":"https://www.dle-naturisten.de"}},"35037196":{"location":[47.8101788,7.6763737],"ct":"DE","tp":"CS","ts":"2020-08-13T19:34:44Z","tX":533,"tY":356,"tags":{"email":"info@camping-badenweiler.de","name":"Kur- und Feriencamping Badenweiler","phone":"+49 7632 1550","website":"https://www.camping-badenweiler.de/"}},"41761703":{"location":[47.7577285,7.5851347],"ct":"DE","tp":"CS","ts":"2025-01-02T07:43:50Z","tX":533,"tY":356,"tags":{"access":"private","email":"bbkraft@online.de","group_only":"yes","name":"Pfadizentrum Royal Rangers Stamm 331 Schliengen","phone":"+49 7635 7209003","scout":"yes","website":"https://rr331.fcgm.de/stamm.html"}},"153189479":{"location":[47.9164189,7.6883134],"ct":"DE","tp":"CR","ts":"2024-04-05T00:22:06Z","tX":533,"tY":356,"tags":{"caravan_site":"motorhome_stopover","caravan_site:type":"parking_lot","caravans":"no","charge":"16.50 EUR","contact:mobile":"+49 1520 9563170","fee":"yes","name":"Wohnmobilplatz am Rebberg","power_supply":"yes","power_supply:maxcurrent":"16","sanitary_dump_station":"yes","shower":"yes","tents":"no","water_point":"yes","website":"https://www.bad-krozingen.info/Media/Attraktionen/Wohnmobilstellplatz-am-Rebberg"}},"159202247":{"location":[47.7964639,7.5505848],"ct":"DE","tp":"CS","ts":"2023-07-22T21:49:36Z","tX":533,"tY":356,"tags":{"addr:city":"Neuenburg am Rhein","addr:country":"DE","addr:housenumber":"1","addr:postcode":"79395","addr:street":"Oberer Wald","capacity":"220","caravans":"yes","email":"info@camping-gugel.de","internet_access":"wlan","name":"Dreiländer-Camping Gugel","opening_hours":"08:00-12:00,14:00-21:00","permanent_camping":"yes","phone":"+49 7631 7719","sanitary_dump_station":"customers","shower":"yes","tents":"yes","website":"https://camping-gugel.de","wheelchair":"limited"}},"301468151":{"location":[47.91849,7.5314407],"ct":"FR","tp":"CR","ts":"2024-09-30T22:39:59Z","tX":533,"tY":356,"tags":{"capacity":"40","caravan_site":"motorhome_stopover","caravan_site:type":"village","caravans":"no","email":"mairie@fessenheim.fr","fee":"no","maxstay":"7 days","name":"Aire de Services Fesenheim","phone":"+33 389 486002","tents":"no","website":"https://fessenheim.fr/tourisme/camping-cars/"}},"341228772":{"location":[47.7822087,7.395226],"ct":"FR","tp":"CS","ts":"2023-09-11T06:45:12Z","tX":533,"tY":356,"tags":{"addr:city":"Sausheim","addr:housenumber":"35","addr:postcode":"68390","addr:street":"Rue de la Foret Noire","cabins":"yes","caravans":"yes","name":"Le Safary","phone":"+33 6 85 44 16 64","shower":"yes","source":"cadastre-dgi-fr source : Direction Générale des Impôts - Cadastre. Mise à jour : 2015","stars":"2","tents":"yes","toilets":"yes","website":"https://www.campinglesafary.fr"}},"641713948":{"location":[47.8479234,7.6973426],"ct":"DE","tp":"CS","ts":"2023-04-15T16:14:45Z","tX":533,"tY":356,"tags":{"addr:housenumber":"4","addr:street":"Sonnmatt","capacity:motorhome":"10","capacity:pitches":"95","caravans":"yes","email":"a-z@camping-sulzbachtal.de","motorhome":"yes","name":"Camping Sulzbachtal","phone":"+49 7634 592568","shower":"yes","source":"Cnes/SPOT image","tents":"yes","toilets":"yes","website":"https://www.camping-sulzbachtal.de"}},"651507398":{"location":[47.9172621,7.6893731],"ct":"DE","tp":"CR","ts":"2024-04-05T00:22:06Z","tX":533,"tY":356,"tags":{"addr:city":"Bad Krozingen","addr:housenumber":"1","addr:postcode":"79189","addr:street":"Wohnmobilplatz am Rebberg","capacity:caravans":"90","caravan_site":"motorhome_stopover","caravan_site:type":"parking_lot","caravans":"no","charge":"16.50 EUR","contact:mobile":"+49 1520 9563170","fee":"yes","internet_access":"wlan","internet_access:fee":"no","name":"Wohnmobilplatz am Rebberg","power_supply":"yes","power_supply:maxcurrent":"16","sanitary_dump_station":"yes","shower":"yes","tents":"no","water_point":"yes","website":"https://www.bad-krozingen.info/Media/Attraktionen/Wohnmobilstellplatz-am-Rebberg"}},"764196347":{"location":[47.8225152,7.5117832],"ct":"FR","tp":"CS","ts":"2020-08-19T17:57:30Z","tX":533,"tY":356,"tags":{"name":"Camping Béhé","phone":"+33 389260454"}},"866350687":{"location":[47.8289791,7.6735982],"ct":"DE","tp":"CR","ts":"2024-12-22T11:53:32Z","tX":533,"tY":356,"tags":{"addr:city":"Müllheim im Markgräflerland","addr:country":"DE","addr:postcode":"79379","addr:street":"Lindenhof","capacity":"2","caravan_site":"motorhome_stopover","caravan_site:type":"village","fee":"no","internet_access":"no","maxstay":"2 nights","name":"Stellplätze Britzingen","name:signed":"no","power_supply":"no","sanitary_dump_station":"no","toilets":"no","water_point":"no","website":"https://www.muellheim-touristik.de/muellheim/ukv/house/Muellheim-i-M-Campingplatz-Stellplaetze-Britzingen-FIT00020070112061410"}},"975825113":{"location":[47.9784034,7.5959273],"ct":"FR","tp":"CS","ts":"2024-10-14T11:44:18Z","tX":533,"tY":356,"tags":{"camp_site":"serviced","caravans":"yes","email":"ore@sandaya.fr","internet_access":"yes","internet_access:fee":"no","name":"Camping A l'orée du bois","nudism":"no","phone":"+33 5 46 22 42 43","shower":"yes","stars":"1","tents":"yes","toilets":"yes","website":"https://camping-geiswasser.fr/fr/accueil"}},"1253673136":{"location":[47.7862652,7.5052277],"ct":"FR","tp":"PK","ts":"2024-04-08T19:54:52Z","tX":533,"tY":356,"tags":{"access":"yes","caravans":"yes","fee":"no","name":"Parking Rue de Stade","parking":"surface","surface":"paved"}},"4264361800":{"location":[47.8023793,7.6357833],"ct":"DE","tp":"CR","ts":"2024-04-04T19:04:26Z","tX":533,"tY":356,"tags":{"caravan_site":"motorhome_stopover","caravan_site:type":"sports_centre;village","fee":"no","maxstay":"2 days","name":"Stellplatz am Freibad Müllheim","power_supply":"no","sanitary_dump_station":"no","tents":"no","water_point":"no"}},"4723920369":{"location":[47.9184027,7.5314075],"ct":"FR","tp":"SD","ts":"2023-11-01T17:35:04Z","tX":533,"tY":356,"tags":{"description":"Borne: Flot Bleu, 2,50 Eur","email":"mairie@fessenheim.fr","fee":"yes","name":"Aire de Services Fesenheim","phone":"+33 389 486002","website":"https://www.fessenheim.fr/"}},"4889072921":{"location":[47.809568,7.6301494],"ct":"DE","tp":"CR","ts":"2020-08-19T18:21:55Z","tX":533,"tY":356,"tags":{"capacity":"2","fee":"no","maxstay":"2 days","name":"Stellplatz Nußbaumallee","power_supply":"no","sanitary_dump_station":"no","tents":"no","water_point":"no","website":"https://www.muellheim-touristik.de/Gastgeber/Muellheim-Campingplatz-Stellplaetze-Nussbaumallee"}},"4889073121":{"location":[47.832787,7.623177],"ct":"DE","tp":"CR","ts":"2024-12-28T16:13:12Z","tX":533,"tY":356,"tags":{"capacity":"2","caravan_site":"motorhome_stopover","caravan_site:type":"village","check_in":"-22:00","dog":"yes","fee":"no","maxstay":"2 nights","name":"Stellplatz am Friedhof Hügelheim","power_supply":"no","sanitary_dump_station":"no","seasonal":"no","tents":"no","water_point":"no","website":"https://www.schwarzwald-tourismus.info/stg/ukv/house/Muellheim-i-M-Campingplatz-Stellplatz-Huegelheim-an-der-B3-FIT00020070101065379"}},"4889073122":{"location":[47.8293526,7.6198118],"ct":"DE","tp":"CR","ts":"2025-03-31T17:56:07Z","tX":533,"tY":356,"tags":{"capacity":"3","caravan_site":"motorhome_stopover","caravan_site:type":"winery","dog":"yes","fee":"no","name":"Stellplatz Wein & Hof Hügelheim","power_supply":"yes","power_supply:fee":"yes","sanitary_dump_station":"no","seasonal":"no","tents":"no","toilets":"no","water_point":"n'","website":"https://www.schwarzwald-tourismus.info/stg/ukv/house/Muellheim-i-M-Campingplatz-Stellplatz-Wein-Hof-Huegelheim-FIT00020070085543645"}},"5901502985":{"location":[47.9018813,7.6317434],"ct":"DE","tp":"CR","ts":"2023-11-01T17:33:17Z","tX":533,"tY":356,"tags":{"capacity":"8","email":"info@breisgau-wohnmobile.de","name":"Breisgau Wohnmobile stellplatz","name:en":"Breisgau Wohnmobile camper parking","opening_hours":"24/7","power_supply":"yes","sanitary_dump_station":"customers","shower":"yes","tents":"no","toilets":"yes","website":"https://breisgau-wohnmobile.de/"}},"12086016086":{"location":[47.7961665,7.6692172],"ct":"DE","tp":"CR","ts":"2024-12-25T11:26:31Z","tX":533,"tY":356,"tags":{"capacity":"12","caravan_site":"motorhome_stopover","caravan_site:type":"spa","charge":"6.80 EUR","description":"Kurtaxe 3,40€ in Touristinfornation zahlen. Regelmäßige Kontrollen. At Cassiopeia Therme","fee":"yes","fee:description":"kurtaxe","internet_access":"no","name":"Wohnmobilstellplatz Parkplatz Süd Badenweiler","operator:website":"https://www.staatsbad-badenweiler.de/","power_supply":"no","sanitary_dump_station":"no","seasonal":"no","water_point":"no"}},"12539010831":{"location":[47.9665819,7.7021134],"ct":"DE","tp":"CR","ts":"2025-01-28T12:25:06Z","tX":533,"tY":356,"tags":{"caravan_site":"motorhome_stopover","caravan_site:type":"winery","dog":"yes","fee":"yes","name":"Wohnmobilstellplatz Weingut Kuhn am Tuniberg","power_supply":"yes","water_point":"yes"}}}