{"22888826":{"location":[47.7119338,7.5480612],"ct":"DE","tp":"CS","ts":"2024-10-03T14:02:09Z","tX":533,"tY":357,"tags":{"cabins":"yes","caravans":"yes","dog":"yes","fax":"+49 7635 1010","name":"Campingplatz Lug Ins Land","permanent_camping":"yes","phone":"+49 7635 1820","tents":"yes","website":"https://camping-luginsland.de/","wheelchair":"limited"}},"30676657":{"location":[47.6754185,7.6661808],"ct":"DE","tp":"CR","ts":"2025-01-30T19:10:22Z","tX":533,"tY":357,"tags":{"capacity":"5","caravan_site":"motorhome_stopover","caravan_site:type":"restaurant","charge":"9 EUR","fee":"yes","name":"Kreiterhof","power_supply":"yes","water_point":"yes","website":"http://www.kreiterhof.de/Uebernachtung.html"}},"38688809":{"location":[47.7211361,7.6603667],"ct":"DE","tp":"CS","ts":"2023-09-15T05:22:43Z","tX":533,"tY":357,"tags":{"addr:city":"Kandern","addr:country":"DE","addr:housenumber":"2","addr:postcode":"79400","addr:street":"Schwimmbadweg","caravans":"yes","dog":"yes","dryer":"yes","email":"kontakt@terrassen-camping-kandern.de","fax":"+49 7626 1768","internet_access":"wlan","name":"Terrassen Camping Kandern","opening_hours":"Mar 15-Oct 15: 07:30-13:00,15:00-22:00","phone":"+49 7626 7874","power_supply":"yes","tents":"yes","washing_machine":"yes","website":"http://www.terrassen-camping-kandern.de"}},"88107646":{"location":[47.6246694,7.6633966],"ct":"DE","tp":"CS","ts":"2022-06-11T17:03:24Z","tX":533,"tY":357,"tags":{"area":"yes","caravans":"yes","check_date:internet_access":"2022-06-11","email":"info@dreilaendercamp.de","fax":"+49 7621 165034","internet_access":"wlan","name":"Drei-Länder-Camp","phone":"+49 7621 82588","sanitary_dump_station":"yes","tents":"yes","website":"https://www.dreilaendercamp.de/","wheelchair":"yes"}},"102657649":{"location":[47.5431957,7.7215024],"ct":"DE","tp":"CS","ts":"2025-06-10T08:47:40Z","tX":533,"tY":357,"tags":{"access":"private","comment":"Permanenty residents only","name":"Negerdörfli","operator":"IG Negerdörfle","permanent_camping":"only","tents":"no"}},"217984447":{"location":[47.7103015,7.5038588],"ct":"FR","tp":"PK","ts":"2025-04-13T11:52:21Z","tX":533,"tY":357,"tags":{"access":"yes","fee":"no","motorhome":"yes","parking":"surface","surface":"asphalt"}},"245777936":{"location":[47.5392099,7.7161768],"ct":"CH","tp":"CS","ts":"2024-04-14T10:14:26Z","tX":533,"tY":357,"tags":{"area":"yes","caravans":"yes","name":"Camping und Schwimmbad am Rhein","opening_hours":"Apr-Sep","phone":"+41 61 811 10 66","tents":"yes","website":"https://www.camping-kaiseraugst.ch/"}},"481917031":{"location":[47.5966833,7.5335889],"ct":"FR","tp":"SD","ts":"2022-09-15T09:36:37Z","tX":533,"tY":357,"tags":{"access":"private","operator":"EuroAirport","source":"cadastre-dgi-fr source : Direction Générale des Finances Publiques - Cadastre. Mise à jour : 2017","water_point":"no"}},"635959596":{"location":[47.7299223,7.5522054],"ct":"DE","tp":"CR","ts":"2024-12-22T01:15:25Z","tX":533,"tY":357,"tags":{"caravan_site":"motorhome_stopover","caravan_site:type":"swimming_pool","charge":"19.50 EUR","charge:conditional":"16.90 EUR@ (Nov-Feb)","fee":"yes","name":"Wohnmobilstellplatz Balinea Thermen","power_supply":"yes","reservation":"no","services:charge":"4 EUR: water,power_supply, sanitary_dump","smoking":"yes","surface":"asphalt","tents":"no","water_point":"yes","website":"https://www.bad-bellingen.de/attraktion/wohnmobilstellplatz-an-den-balinea-thermen-282c31cf4e","wheelchair":"yes"}},"711420194":{"location":[47.6873421,7.5091016],"ct":"FR","tp":"CS","ts":"2024-12-14T13:08:37Z","tX":533,"tY":357,"tags":{"addr:city":"Kembs","addr:housenumber":"12","addr:street":"Chemin Rural Rheinweg","name":"Camping du Canal","phone":"+33 7 83 89 72 50","stars":"3","website":"https://www.camping-du-canal.fr/"}},"725180155":{"location":[47.6243061,7.6621583],"ct":"DE","tp":"CR","ts":"2025-01-30T19:14:53Z","tX":533,"tY":357,"tags":{"capacity":"25","caravan_site":"motorhome_stopover","caravan_site:type":"camp_site","charge":"16 EUR/24 hours","email":"info@womo-loerrach.de","fee":"yes","name":"Wohnmobilstellplatz Lörrach","opening_hours":"24/7","power_supply":"yes","power_supply:charge":"0.90 EUR/kWh","power_supply:fee":"yes","sanitary_dump_station":"yes","seasonal":"no","water_point":"yes","water_point:charge":"1 EUR/80 liter","water_point:fee":"yes","website":"https://womo-loerrach.de/"}},"838658077":{"location":[47.7370897,7.5731977],"ct":"DE","tp":"CR","ts":"2024-12-04T11:11:08Z","tX":533,"tY":357,"tags":{"caravan_site":"motorhome_stopover","caravan_site:type":"winery","email":"info@zimmermann-wein.de","fee":"no","name":"Weingut und Weinschenke Zimmermann","power_supply":"no","reservation":"no","tents":"no","toilets":"no","water_point":"no","website":"https://www.zimmermann-wein.de/stellplatz/"}},"1149073986":{"location":[47.6862814,7.5090335],"ct":"FR","tp":"CS","ts":"2024-12-14T12:11:43Z","tX":533,"tY":357,"tags":{"addr:city":"Kembs","addr:housenumber":"12","addr:postcode":"68680","addr:street":"Rue Paul Bader","capacity:persons":"27","caravans":"no","fee":"yes","name":"Les Résidences du canal","operator":"parc residents de loisirs","static_caravans":"yes"}},"1344667429":{"location":[47.6451423,7.5645127],"ct":"DE","tp":"CR","ts":"2024-12-22T01:09:32Z","tX":533,"tY":357,"tags":{"caravan_site":"motorhome_stopover","caravan_site:type":"village","charge":"12 EUR","fee":"yes","name":"Wohnmobilstellplatz Gutena","power_supply":"yes","power_supply:charge":"0.50 EUR/ KWh","power_supply:fee":"yes","power_supply:maxcurrent":"6","sanitary_dump_station":"yes","surface":"paving_stones","water_point":"yes","water_point:fee":"no","website":"https://p-gutenau.de/"}},"4057999920":{"location":[47.6434378,7.5641929],"ct":"DE","tp":"CR","ts":"2016-03-13T11:34:01Z","tX":533,"tY":357,"tags":{}},"4723905127":{"location":[47.5782686,7.4206173],"ct":"FR","tp":"CR","ts":"2024-10-03T00:53:42Z","tX":533,"tY":357,"tags":{"capacity":"3","name":"Aire de Camping-Cars Ranspach-le-Haut","phone":"+33 6 75115502"}},"9033055908":{"location":[47.5674937,7.6225404],"ct":"CH","tp":"CR","ts":"2024-03-30T17:36:04Z","tX":533,"tY":357,"tags":{"description":"Offizielle Abstellplätze","internet_access":"no","maxstay":"24 hours","name":"Wohnmobilparkplatz Bäumlihofstrasse","seasonal":"yes","toilets":"no","website":"https://www.mobilitaet.bs.ch/parkieren-in-basel-stadt/abstellplaetze-fuer-wohnmobile.html"}},"11079443711":{"location":[47.5861416,7.6180534],"ct":"DE","tp":"CR","ts":"2024-12-19T18:19:20Z","tX":533,"tY":357,"tags":{"caravan_site":"motorhome_stopover","caravan_site:type":"swimming_pool","charge":"9 EUR","dog":"yes","fee":"yes","name":"Wohnmobilstellplatz Laguna Badeland - Weil am Rhein","power_supply":"no","sanitary_dump_station":"no","water_point":"no","website":"https://www.laguna-badeland.de/de/themenbereiche/badeland/haeufige-fragen.php"}},"11758290079":{"location":[47.6921244,7.5418633],"ct":"DE","tp":"CR","ts":"2024-03-24T13:40:06Z","tX":533,"tY":357,"tags":{"capacity":"3","caravan_site":"motorhome_stopover","caravan_site:type":"winery","caravans":"no","charge":"18 EUR","dog":"yes","email":"gutedel@weingut-straub.de","fee":"yes","maxheight":"3.20","name":"Weingut Claudia Straub","power_supply":"yes","power_supply:fee":"no","reservation":"yes","sanitary_dump_station":"no","shower":"yes","tents":"no","toilets":"yes","website":"https://www.weingut-straub.de/"}}}