{"48577172":{"location":[47.164769,7.4074981],"ct":"CH","tp":"CS","ts":"2010-01-20T09:10:24Z","tX":533,"tY":359,"tags":{"name":"Zeltplatz Staad","source":"WMS Orthofoto SO!GIS"}},"49588395":{"location":[47.1977666,7.5217327],"ct":"CH","tp":"CS","ts":"2025-03-21T16:43:27Z","tX":533,"tY":359,"tags":{"addr:city":"Solothurn","addr:housenumber":"5","addr:postcode":"4500","addr:street":"Glutzenhofstrasse","barrier":"fence","caravans":"yes","drinking_water":"yes","name":"TCS Camping zum Muttenhof","operator":"TCS","power_supply":"yes","sanitary_dump_station":"yes","shower":"yes","tents":"yes","toilets":"yes","website":"https://www.tcs.ch/de/camping-reisen/camping/campingplaetze/standorte/solothurn.php"}},"469674784":{"location":[47.0539509,7.6326904],"ct":"CH","tp":"CS","ts":"2024-08-29T01:12:56Z","tX":533,"tY":359,"tags":{"addr:city":"Burgdorf","addr:postcode":"3400","addr:street":"Waldegg","caravans":"yes","email":"camping.waldegg@bluemail.ch","name":"Waldegg","opening_hours":"Apr 1 - Oct 21","phone":"+41 34 422 24 60","shower":"yes","tents":"yes","toilets":"yes","website":"https://camping-waldegg.ch"}},"699794505":{"location":[47.1897848,7.4474811],"ct":"CH","tp":"CS","ts":"2024-06-01T20:57:27Z","tX":533,"tY":359,"tags":{"caravans":"yes","name":"Campingplatz Altreu","tents":"yes"}},"3718623217":{"location":[47.0578705,7.5496242],"ct":"CH","tp":"SD","ts":"2022-10-04T15:51:28Z","tX":533,"tY":359,"tags":{"access":"yes","fee":"yes","opening_hours":"24/7","sanitary_dump_station:basin":"no","sanitary_dump_station:chemical_toilet":"yes","sanitary_dump_station:gravity":"yes","sanitary_dump_station:grey_water":"yes","sanitary_dump_station:round_drain":"yes","water_point":"yes"}},"6425353384":{"location":[47.2368241,7.6579881],"ct":"CH","tp":"CR","ts":"2023-04-22T16:56:32Z","tX":533,"tY":359,"tags":{"addr:city":"Wangen an der Aare","addr:country":"CH","addr:postcode":"3380","addr:street":"Strandweg","capacity":"10","fee":"yes","noname":"yes","power_supply":"cee_17_blue","sanitary_dump_station":"no","tents":"no","toilets":"yes","water_point":"no"}},"8615339854":{"location":[47.08488,7.52523],"ct":"CH","tp":"CR","ts":"2023-03-19T19:13:47Z","tX":533,"tY":359,"tags":{"capacity":"9","email":"info@loewen-fraubrunnen.ch","fee":"CHF 10.-","name":"Löwen","operator":"Restaurant Löwen","phone":"+41 31 767 74 69","power_supply":"yes","website":"https://loewen-fraubrunnen.ch"}},"9032769524":{"location":[47.09748,7.70534],"ct":"CH","tp":"CR","ts":"2021-08-24T17:00:00Z","tX":533,"tY":359,"tags":{"name":"Pferdehof-Leimern"}},"9032788621":{"location":[47.178703,7.580294],"ct":"CH","tp":"CR","ts":"2021-08-24T17:04:23Z","tX":533,"tY":359,"tags":{"name":"Schwimmbad Eichholz, Gerlafingen"}}}