{"4734796":{"location":[47.0239113,7.473457],"ct":"CH","tp":"CR","ts":"2023-11-08T23:03:22Z","tX":533,"tY":360,"tags":{"name":"Camping Moossee","website":"https://www.fische.ch/camping.html"}},"8483309":{"location":[46.8136688,7.6082902],"ct":"CH","tp":"CS","ts":"2023-11-10T23:12:55Z","tX":533,"tY":360,"tags":{"addr:city":"Brenzikofen","addr:housenumber":"60","addr:postcode":"3671","addr:street":"Wydeli","email":"info@camping-brenzikofen.ch","fax":"+41 31 771 11 81","fee":"yes","layer":"-1","name":"Wydeli","operator":"Hans-Rudolf Eicher","phone":"+41 31 771 11 41","website":"https://www.camping-brenzikofen.ch/"}},"44637170":{"location":[46.9645279,7.3839827],"ct":"CH","tp":"CS","ts":"2023-07-11T19:18:56Z","tX":533,"tY":360,"tags":{"addr:city":"Bern","addr:housenumber":"62c","addr:postcode":"3032","addr:street":"Wohlenstrasse","email":"camping.bern@tcs.ch","internet_access":"wlan","internet_access:fee":"no","name":"TCS Camping Bern-Eymatt","phone":"+41 319011007","stars":"4","website":"https://www.tcs.ch/de/camping-reisen/camping-insider/campingplaetze/tcs-campingplaetze/campingplatz-bern-eymatt.php"}},"105064325":{"location":[46.9330097,7.4539395],"ct":"CH","tp":"CS","ts":"2025-01-30T06:52:02Z","tX":533,"tY":360,"tags":{"addr:city":"Köniz","addr:housenumber":"49","addr:postcode":"3084","addr:street":"Strandweg","caravans":"yes","fee":"yes","internet_access":"wlan","internet_access:fee":"no","internet_access:ssid":"CampingEichholz","name":"Camping Eichholz","phone":"+41 31 961 26 02","shower":"yes","tents":"yes","toilets":"yes","toilets:wheelchair":"yes","website":"https://www.campingeichholz.ch/","wheelchair":"yes"}},"1136007598":{"location":[46.9907891,7.4759343],"ct":"CH","tp":"SD","ts":"2024-01-15T08:58:52Z","tX":533,"tY":360,"tags":{"access":"yes","fee":"no","opening_hours":"24/7","power_supply":"no","sanitary_dump_station:chemical_toilet":"yes","sanitary_dump_station:gravity":"yes","sanitary_dump_station:grey_water":"yes","water_point":"yes"}},"1226612289":{"location":[46.8691845,7.4058181],"ct":"CH","tp":"CR","ts":"2023-11-25T17:31:51Z","tX":533,"tY":360,"tags":{"capacity:caravans":"3","caravans":"yes","charge":"20 CHF für 2 Pers","fee":"yes","name":"Womo Stellplatz Balmberg","operator":"Familie Risen","tents":"no","website":"https://www.wohnmobilland-schweiz.ch/Fueer_Wohnmobilisten/Stellplaetze/Detail/Balmberg/580"}},"3718611094":{"location":[46.8791981,7.541289],"ct":"CH","tp":"SD","ts":"2021-07-16T17:48:43Z","tX":533,"tY":360,"tags":{"access":"yes","fee":"no","opening_hours":"24/7","sanitary_dump_station:chemical_toilet":"yes","sanitary_dump_station:gravity":"yes","sanitary_dump_station:grey_water":"yes","water_point":"yes"}},"12104963385":{"location":[47.0380013,7.6204676],"ct":"CH","tp":"CS","ts":"2024-08-11T20:32:45Z","tX":533,"tY":360,"tags":{"addr:housenumber":"40","addr:street":"Krauchthalstrasse","name":"Kürbishof Opplinger","opening_hours":"Mo-Su 17:30-19:30","phone":"+41 79 434 43 64","website":"https://www.kürbishof-oppliger.ch/"}},"5739540624":{"location":[46.8792651,7.5413148],"ct":"CH","tp":"CR","ts":"2021-11-16T08:47:00Z","tX":533,"tY":360,"tags":{"wheelchair":"yes"}},"5739553121":{"location":[46.9908688,7.47617],"ct":"CH","tp":"CR","ts":"2024-04-07T15:01:08Z","tX":533,"tY":360,"tags":{"fee":"no","opening_hours":"24/7"}},"10729355788":{"location":[46.9515853,7.4719533],"ct":"CH","tp":"CR","ts":"2023-03-12T09:31:16Z","tX":533,"tY":360,"tags":{"capacity":"2","power_supply":"no","sanitary_dump_station":"no"}},"4312463440":{"location":[46.8768022,7.5430055],"ct":"CH","tp":"SD","ts":"2024-08-02T08:08:16Z","tX":533,"tY":360,"tags":{"access":"yes","fee":"no","opening_hours":"24/7","power_supply":"no","sanitary_dump_station":"yes","sanitary_dump_station:chemical_toilet":"yes","sanitary_dump_station:gravity":"yes","sanitary_dump_station:grey_water":"yes","water_point":"yes","wheelchair":"yes"}},"8850402470":{"location":[46.879079,7.541254],"ct":"CH","tp":"SD","ts":"2021-06-20T13:19:04Z","tX":533,"tY":360,"tags":{"description":"Achtung! Diese VE befindet sich vor den Parkplätzen ganz am Anfang, unmittelbar nach der Einfahrt auf das Gelände rechts.","name":"Raststätte Münsingen-West, A6 Bern - Thun","note":"WML CH"}}}