{"9083796":{"location":[46.654395,7.4314307],"ct":"CH","tp":"CS","ts":"2023-10-31T21:37:52Z","tX":533,"tY":361,"tags":{"fax":"+41 33 783 00 26","name":"Camping Arnist","phone":"+41 33 783 16 83","website":"https://www.campingarnist.ch/"}},"9329315":{"location":[46.6534156,7.7002023],"ct":"CH","tp":"CS","ts":"2025-05-12T13:15:27Z","tX":533,"tY":361,"tags":{"fee":"yes","name":"Panorama","website":"https://www.camping-aeschi.ch/kontakt/index.php"}},"13986491":{"location":[46.6579558,7.7173107],"ct":"CH","tp":"CS","ts":"2025-05-12T13:15:27Z","tX":533,"tY":361,"tags":{"email":"info@camping-stuhlegg.ch","fax":"+41 33 654 67 03","name":"Camping Stuhlegg","phone":"+41 33 654 27 23","website":"https://www.camping-stuhlegg.ch/"}},"26212239":{"location":[46.7941484,7.4813416],"ct":"CH","tp":"CS","ts":"2023-11-10T23:12:11Z","tX":533,"tY":361,"tags":{"fee":"yes","name":"Camping Burgistein","website":"https://www.campingburgistein.ch/"}},"68731828":{"location":[46.7279367,7.628028],"ct":"CH","tp":"CS","ts":"2024-09-10T06:29:13Z","tX":533,"tY":361,"tags":{"addr:city":"Gwatt","addr:housenumber":"103","addr:postcode":"3645","addr:street":"Gwattstrasse","caravans":"yes","dog":"yes","drinking_water":"yes","email":"camping.gwatt@tcs.ch","fee":"yes","internet_access":"wlan","internet_access:fee":"no","name":"TCS Camping Thunersee - Gwatt","operator":"TCS Training & Freizeit AG","phone":"+41 33 3364067","power_supply":"yes","sanitary_dump_station":"yes","shower":"yes","stars":"4","tents":"yes","toilets":"yes","website":"https://www.tcs.ch/de/camping-reisen/camping-insider/campingplaetze/tcs-campingplaetze/campingplatz-gwatt-thunersee.php"}},"68884445":{"location":[46.7386703,7.588832],"ct":"CH","tp":"CR","ts":"2023-10-26T07:56:46Z","tX":533,"tY":361,"tags":{}},"71445381":{"location":[46.6385754,7.6904616],"ct":"CH","tp":"PK","ts":"2025-01-23T22:19:20Z","tX":533,"tY":361,"tags":{"capacity":"150","fee":"yes","maxheight":"2.3","motorhome":"yes","parking":"surface","surface":"gravel"}},"219299367":{"location":[46.57029,7.4835342],"ct":"CH","tp":"CS","ts":"2023-09-01T17:44:15Z","tX":533,"tY":361,"tags":{"email":"info@feriendiemtigtal.ch","name":"Eggmatte","phone":"+41793111651","power_supply":"yes","shower":"yes","toilets":"yes","website":"https://www.feriendiemtigtal.ch/eggmatte/","wheelchair":"yes"}},"256351264":{"location":[46.6653668,7.7089142],"ct":"CH","tp":"CS","ts":"2021-07-02T23:43:47Z","tX":533,"tY":361,"tags":{"name":"Genossenschaft Camping Faulenseebad","permanent_camping":"yes","source":"Bing","website":"https://campingfaulenseebad.ch/"}},"271532581":{"location":[46.7453499,7.5206297],"ct":"CH","tp":"CS","ts":"2023-06-08T07:16:12Z","tX":533,"tY":361,"tags":{"access":"customers","addr:city":"Blumenstein","addr:housenumber":"26","addr:postcode":"3638","addr:street":"Badstrasse","caravans":"no","fee":"yes","minstay":"4 week","name":"Campingplatz Blumenstein","operator":"Campingplatz Blumenstein","permanent_camping":"only","static_caravans":"yes","tents":"no","website":"http://www.bad-blumenstein.ch"}},"307269206":{"location":[46.7380103,7.3930099],"ct":"CH","tp":"PK","ts":"2025-05-12T20:51:56Z","tX":533,"tY":361,"tags":{"caravan":"no @ (22:00-08:00)","charge":"1 CHF / hour; 5 CHF / day","fee":"yes","fee:conditional":"yes @ (Mo-Su 08:00-22:00)","maxstay":"8 days","motorhome":"yes","motorhome:conditional":"no @ (22:00-08:00)","name":"Süftene Schutzhütte","orientation":"perpendicular","parking":"street_side","supervised":"no","surface":"gravel"}},"329483463":{"location":[46.7542021,7.5361001],"ct":"CH","tp":"CR","ts":"2024-09-02T06:16:46Z","tX":533,"tY":361,"tags":{"access":"yes","capacity:caravans":"19","charge":"12.5 CHF","contact:phone":"+41 33 356 26 55","contact:website":"https://www.grizzlybaer.ch/uebernachten/stellplatz","fee":"yes","name":"Erlebnisland Grizzlybär","operator":"Grizzlybär","parking":"surface","power_supply":"yes","reservation":"required","website":"https://www.grizzlybaer.ch/uebernachten/stellplatz"}},"383460380":{"location":[46.6576654,7.4786378],"ct":"CH","tp":"CS","ts":"2020-08-02T17:12:24Z","tX":533,"tY":361,"tags":{"email":"walter.knubel@gmail.com","name":"Dür's Bächli","operator":"Walter Knubel","phone":"+41 79 218 92 84","source":"Bing","website":"https://www.camping-weissenburg.ch/"}},"410091248":{"location":[46.5818973,7.6416658],"ct":"CH","tp":"CS","ts":"2024-08-18T09:28:34Z","tX":533,"tY":361,"tags":{"addr:city":"Frutigen","addr:country":"CH","addr:postcode":"3714","addr:street":"Grassiweg","caravans":"yes","contact:email":"info@camping-grassi.ch","contact:phone":"+41 33 671 11 49","contact:website":"https://www.camping-grassi.ch","drinking_water":"yes","dryer":"yes","internet_access":"wlan","internet_access:fee":"no","name":"Grassi","operator":"Camping Grassi GmbH","phone":"+41 33 671 11 49","power_supply":"yes","sanitary_dump_station":"yes","shower":"yes","swimming_pool":"no","tents":"yes","toilets":"yes","washing_machine":"yes","website":"https://www.camping-grassi.ch/"}},"617854656":{"location":[46.7857179,7.4042937],"ct":"CH","tp":"CS","ts":"2018-08-18T18:08:35Z","tX":533,"tY":361,"tags":{"addr:city":"Rüschegg","addr:postcode":"3153","addr:street":"Heubach-Teufengraben","contact:email":"heubach@sccv.ch","contact:mobile":"+41 79 462 43 35","contact:phone":"+41 62 751 15 23","contact:website":"http://www.camping-heubach.ch/","fee":"yes","name":"Campingplatz Heubach"}},"799417013":{"location":[46.5811678,7.728969],"ct":"CH","tp":"CS","ts":"2020-05-03T16:51:38Z","tX":533,"tY":361,"tags":{"name":"Blüemlisalp","stars":"3"}},"969223336":{"location":[46.6598731,7.5763618],"ct":"CH","tp":"CS","ts":"2022-06-11T19:42:22Z","tX":533,"tY":361,"tags":{"landuse":"construction","name":"Camping Rössli","opening_date":"2023-05"}},"1318851875":{"location":[46.5940865,7.6549026],"ct":"CH","tp":"CS","ts":"2024-09-27T18:21:00Z","tX":533,"tY":361,"tags":{"caravans":"yes","drinking_water":"yes","fee":"yes","internet_access":"wlan","internet_access:ssid":"fr_guests","name":"Frutigresort","phone":"+41 33 672 60 60","power_supply":"yes","shower":"yes","tents":"yes","toilets":"yes","website":"https://www.frutigresort.ch/"}},"1949366287":{"location":[46.7484539,7.6341127],"ct":"CH","tp":"SD","ts":"2018-01-21T14:20:17Z","tX":533,"tY":361,"tags":{"access":"yes","fee":"no","opening_hours":"24/7","sanitary_dump_station:chemical_toilet":"no","sanitary_dump_station:gravity":"yes","sanitary_dump_station:grey_water":"yes","water_point":"yes"}},"6513697397":{"location":[46.6997553,7.5377001],"ct":"CH","tp":"CS","ts":"2019-11-03T20:03:36Z","tX":533,"tY":361,"tags":{"description":"free, ask the owner for permit","fixme":"Is this really a campground? Just the permission of the owner and possibility to pitch a tent does not make it one...","name":"Obere Baach"}},"7990259528":{"location":[46.7036388,7.6309212],"ct":"CH","tp":"CR","ts":"2020-10-08T23:18:10Z","tX":533,"tY":361,"tags":{"addr:city":"Gwatt","addr:housenumber":"202J","addr:postcode":"3645","addr:street":"Hanibühlweg","charge":"CHF 20.- / 24h","fee":"yes","name":"Stellplatz Gwatt","power_supply":"yes"}},"8914441851":{"location":[46.6126491,7.5341988],"ct":"CH","tp":"CR","ts":"2024-07-02T12:14:15Z","tX":533,"tY":361,"tags":{"charge":"22.50 CHF","fee":"yes","name":"Stellplatz Wiriehornbahnen","power_supply":"no","sanitary_dump_station":"no","seasonal":"no","shower":"yes","toilets":"yes"}},"9033103725":{"location":[46.5655721,7.4788563],"ct":"CH","tp":"CR","ts":"2024-11-05T12:28:30Z","tX":533,"tY":361,"tags":{"addr:place":"Schwenden im Diemtigtal","charge":"30 CHF","drinking_water":"no","fee":"yes","internet_access":"no","name":"Stellplatz Senggiweid","permanent_camping":"no","power_supply":"no","sanitary_dump_station":"no","toilets":"no"}},"11459206750":{"location":[46.7581542,7.5415879],"ct":"CH","tp":"CR","ts":"2024-04-22T16:25:52Z","tX":533,"tY":361,"tags":{"fee":"yes","name":"Bim Wald"}},"11584904603":{"location":[46.7481866,7.6955753],"ct":"CH","tp":"CR","ts":"2024-02-04T18:44:08Z","tX":533,"tY":361,"tags":{"operator":"Heilihof"}},"8850402433":{"location":[46.7484,7.6342],"ct":"CH","tp":"SD","ts":"2021-06-20T13:19:04Z","tX":533,"tY":361,"tags":{"name":"Seestrasse beim Lachenkanal, Thun","note":"WML CH"}},"9063044528":{"location":[46.7277286,7.6271933],"ct":"CH","tp":"SD","ts":"2023-05-23T15:52:14Z","tX":533,"tY":361,"tags":{"fee":"no"}},"12527842457":{"location":[46.6389637,7.69044],"ct":"CH","tp":"CR","ts":"2025-01-30T01:57:55Z","tX":533,"tY":361,"tags":{"charge":"23,50 CHF / day","maxheight":"2.3","name":"Stellplatz Niesenbahn","opening_hours":"26 Apr - 8 Nov","payment:parknsleep":"yes","power_supply":"no","ref:parknsleep":"90222803","sanitary_dump_station":"no","website":"https://www.parknsleep.app/ps/90222803"}}}