{"3232391":{"location":[46.1704411,7.5694789],"ct":"CH","tp":"CS","ts":"2013-09-27T22:36:32Z","tX":533,"tY":363,"tags":{"name":"Ilôt Bosquet"}},"26860701":{"location":[46.3040798,7.4806256],"ct":"CH","tp":"CS","ts":"2023-11-10T07:36:15Z","tX":533,"tY":363,"tags":{"name":"Camping Moubra","phone":"+41 27 481 28 51","website":"https://www.campingmoubra.ch/"}},"148642887":{"location":[46.2985545,7.6575545],"ct":"CH","tp":"CS","ts":"2025-01-13T15:08:00Z","tX":533,"tY":363,"tags":{"contact:phone":"+41 79 327 63 12","contact:website":"https://campingtorrent.ch","internet_access":"wlan","name":"Camping Torrent","opening_hours":"Mo-Su 08:00-12:00; Mo-Su 14:00-22:00","stars":"3"}},"233244021":{"location":[46.1110874,7.4968071],"ct":"CH","tp":"CS","ts":"2019-03-20T22:26:08Z","tX":533,"tY":363,"tags":{"addr:city":"Evolène","addr:postcode":"1983","addr:street":"Route de Lanna","fee":"yes","name":"Camping d'Evolène","website":"https://www.camping-evolene.ch/index.php/fr/"}},"236932688":{"location":[46.2377423,7.4149112],"ct":"CH","tp":"CS","ts":"2024-07-17T21:05:07Z","tX":533,"tY":363,"tags":{"caravans":"yes","internet_access":"wlan","internet_access:fee":"yes","name":"Camping Valcentre","shower":"yes","tents":"yes","website":"https://campingvalcentre.ch"}},"245104137":{"location":[46.3046641,7.4814903],"ct":"CH","tp":"CS","ts":"2018-05-14T04:39:11Z","tX":533,"tY":363,"tags":{"name":"Camping Moubra"}},"320484762":{"location":[46.2991049,7.6374896],"ct":"CH","tp":"CS","ts":"2021-11-20T16:48:01Z","tX":533,"tY":363,"tags":{"addr:city":"Susten","addr:housenumber":"133","addr:postcode":"3952","addr:street":"Waldstrasse","name":"Camping Bella-Tola","phone":"+41 27 473 14 91","website":"https://www.bella-tola.ch/"}},"331710989":{"location":[46.2175975,7.5827979],"ct":"CH","tp":"CS","ts":"2023-03-31T21:43:27Z","tX":533,"tY":363,"tags":{"caravans":"yes","email":"georgestheytaz@bluewin.ch","motorhome":"yes","name":"Camping d'Anniviers","phone":"+41 27 475 14 09","shower":"yes","tents":"yes","toilets":"yes","website":"http://camping-anniviers.ch/"}},"335528058":{"location":[46.3004041,7.5650942],"ct":"CH","tp":"CS","ts":"2024-12-05T17:47:34Z","tX":533,"tY":363,"tags":{"name":"swiss plage","ouverture":"pâques a fin octobre","website":"https://www.swissplage.ch/fr/"}},"337165391":{"location":[46.1883337,7.5891909],"ct":"CH","tp":"CS","ts":"2020-07-24T12:00:31Z","tX":533,"tY":363,"tags":{"email":"pont@potentille.ch","name":"Camping du Pont","phone":"+41 79 658 24 51","tents":"yes","website":"http://www.potentille.ch/"}},"363391259":{"location":[46.3077446,7.6113258],"ct":"CH","tp":"CS","ts":"2018-10-01T06:13:59Z","tX":533,"tY":363,"tags":{"name":"Camping Monument"}},"375675526":{"location":[46.1737947,7.5716813],"ct":"CH","tp":"CR","ts":"2021-04-27T20:39:12Z","tX":533,"tY":363,"tags":{"addr:city":"Grimentz","addr:housenumber":"40","addr:postcode":"3961","addr:street":"Clos des Frès","capacity":"8","name":"Stellplatz Clos des Frès","power_supply":"yes","sanitary_dump_station":"yes"}},"638826242":{"location":[46.0902533,7.5066046],"ct":"CH","tp":"CS","ts":"2023-07-19T15:53:46Z","tX":533,"tY":363,"tags":{"addr:city":"Les Haudères","addr:postcode":"1984","addr:street":"Route de Molignon","caravans":"yes","drinking_water":"yes","internet_access":"Wi-Fi","name":"Camping Molignon","phone":"+41 27 2831240","power_supply":"yes","shower":"yes","stars":"4","tents":"yes","toilets":"yes","website":"http://www.molignon.ch"}},"662194723":{"location":[46.2941123,7.415183],"ct":"CH","tp":"CS","ts":"2024-05-02T13:37:31Z","tX":533,"tY":363,"tags":{"access":"yes","addr:city":"Ayent","addr:postcode":"1966","addr:street":"Route d'Anzère","check_date":"2023-01-30","email":"info@woodlandvillage.ch","name":"Woodland Village","phone":"+41 27 565 21 10","resort":"tourist_camp","website":"https://woodlandvillage.ch/"}},"1274041096":{"location":[46.2979314,7.658498],"ct":"CH","tp":"CS","ts":"2025-01-13T15:08:00Z","tX":533,"tY":363,"tags":{"contact:email":"info@campgemmi.ch","contact:fax":"+41 27 473 42 95","contact:phone":"+41 27 473 11 54","contact:website":"https://campgemmi.ch","name":"Camping Gemmi Agarn","power_supply":"yes","stars":"4"}},"1306453004":{"location":[46.2238968,7.4239023],"ct":"CH","tp":"CS","ts":"2024-08-09T18:37:54Z","tX":533,"tY":363,"tags":{"addr:city":"Nax","addr:postcode":"1973","area":"yes","cabins":"yes","capacity:caravans":"20","capacity:pitches":"35","capacity:tents":"20","caravans":"yes","email":"welcome@alpsafari.ch","internet_access":"wlan","mobile":"+41 79 301 37 34","name":"Camping Alp Safari","phone":"+41 27 203 17 95","shower":"yes","static_caravans":"no","tents":"yes","toilets":"yes","washing_machine":"yes","website":"https://alpsafari.ch"}},"7740615063":{"location":[46.1259726,7.6314643],"ct":"CH","tp":"CS","ts":"2024-06-23T07:26:43Z","tX":533,"tY":363,"tags":{"name":"Relais de la Tzoucdana","phone":"+41 27 475 12 19","tents":"yes","website":"https://tzoucdana.ch/"}},"7955962939":{"location":[46.1121174,7.3969779],"ct":"CH","tp":"CS","ts":"2020-09-29T18:26:43Z","tX":533,"tY":363,"tags":{"caravans":"yes","tents":"yes"}},"8663147976":{"location":[46.2554798,7.4260471],"ct":"CH","tp":"CR","ts":"2021-06-05T20:36:39Z","tX":533,"tY":363,"tags":{"addr:city":"Saint-Leonard","addr:postcode":"1958","addr:street":"Rue de Rocailles","capacity":"6","charge":"15 CHF","description":"Strom, Wasser, Entsorgung, Sanitärgebäude im Preis inbegriffen. Wenn voll belegt, PW Parkplatz (Wiese) benutzen","drinking_water":"yes","fee":"yes","name":"Stellplatz Lac Souterrain","note":"GrandTourCH","power_supply":"yes","sanitary_dump_station":"yes"}},"8663157015":{"location":[46.3108,7.63444],"ct":"CH","tp":"CR","ts":"2021-04-24T21:24:13Z","tX":533,"tY":363,"tags":{"addr:city":"Leuk","addr:housenumber":"9","addr:postcode":"3952","addr:street":"Hexenplatzstrasse","capacity":"5","description":"4 Nächte, nahe an der Strasse","drinking_water":"yes","fee":"CHF 15.-","name":"Stellplatz Hexenplatz","note":"GrandTourCH","sanitary_dump_station":"yes"}},"8674197879":{"location":[46.1403805,7.6240093],"ct":"CH","tp":"CR","ts":"2023-11-06T17:30:49Z","tX":533,"tY":363,"tags":{"addr:city":"Zinal","addr:postcode":"3961","capacity":"8","description":"Frischwasser","email":"zinal@anniviers.ch","fee":"CHF 30.-","name":"Stellplatz Zinal","phone":"+41274761705","power_supply":"yes","sanitary_dump_station":"yes","tents":"no","website":"https://www.valdanniviers.ch/"}},"8674197880":{"location":[46.2489684,7.6031871],"ct":"CH","tp":"CR","ts":"2023-11-10T07:36:17Z","tX":533,"tY":363,"tags":{"addr:city":"Chandolin","addr:place":"Emplacement camping-cars","addr:postcode":"3961","capacity":"6","description":"Kurtaxe im Verkehrsbüro bezahlen","email":"chandolin@anniviers.ch","name":"Stellplatz Chandolin","phone":"+41 27 476 17 15","website":"https://www.valdanniviers.ch/"}}}