{"60440740":{"location":[45.5929939,7.3895881],"ct":"IT","tp":"CS","ts":"2023-08-24T12:56:03Z","tX":533,"tY":365,"tags":{"check_date":"2023-08-24","name":"Les Salasses"}},"65674770":{"location":[45.7947591,7.6858763],"ct":"IT","tp":"CS","ts":"2015-04-29T16:56:30Z","tX":533,"tY":365,"tags":{"name":"Sole e neve"}},"79699534":{"location":[45.6115688,7.7325723],"ct":"IT","tp":"CR","ts":"2024-09-29T16:16:41Z","tX":533,"tY":365,"tags":{"fee":"yes","fixme":"resample","power_supply":"yes","sanitary_dump_station":"yes","source":"PCN"}},"79808464":{"location":[45.7713209,7.5609356],"ct":"IT","tp":"CR","ts":"2019-03-24T07:36:39Z","tX":533,"tY":365,"tags":{"addr:city":"Saint-Denis","fee":"no","fixme":"resample","sanitary_dump_station":"yes","source":"PCN","website":"https://www.camperonline.it/area-di-sosta/Area-sosta-Saint-Denis_6449"}},"80039108":{"location":[45.6625775,7.6939962],"ct":"IT","tp":"CR","ts":"2019-03-24T07:17:54Z","tX":533,"tY":365,"tags":{"fixme":"resample","sanitary_dump_station":"yes","source":"PCN","website":"https://www.camperonline.it/area_di_sosta_dettaglio.asp?ID=6704"}},"117702395":{"location":[45.7837933,7.6986215],"ct":"IT","tp":"CS","ts":"2016-09-14T00:43:29Z","tX":533,"tY":365,"tags":{"addr:city":"Brusson","addr:housenumber":"186","addr:postcode":"11022","addr:street":"Rue de l'Eglise","contact:email":"campingmonterosa1@virgilio.it","ele":"1395","name":"Camping Monte Rosa","phone":"+39-0125-300282","website":"http://campingmonterosa.altervista.org","wheelchair":"yes"}},"117702397":{"location":[45.7819243,7.6964026],"ct":"IT","tp":"CS","ts":"2016-09-14T00:23:01Z","tX":533,"tY":365,"tags":{"addr:city":"Brusson","addr:postcode":"11022","addr:street":"Loc. Extrepierraz","name":"Camping Deans","phone":"+39-0125-300297"}},"117846477":{"location":[45.7640819,7.712569],"ct":"IT","tp":"CR","ts":"2018-06-28T08:51:53Z","tX":533,"tY":365,"tags":{"fee":"yes","power_supply":"yes","sanitary_dump_station":"yes","source":"PCN 2006 Italia","surface":"asphalt"}},"157466532":{"location":[45.7866088,7.6034367],"ct":"IT","tp":"CS","ts":"2023-06-14T13:41:45Z","tX":533,"tY":365,"tags":{"name":"Dalai Lama"}},"158823486":{"location":[45.592013,7.3897492],"ct":"IT","tp":"CS","ts":"2023-11-02T09:33:35Z","tX":533,"tY":365,"tags":{"name":"Al Sole","phone":"+39 01 65 74 237","website":"https://www.campingalsole.com/"}},"193284152":{"location":[45.7492251,7.6390841],"ct":"IT","tp":"CS","ts":"2012-12-05T15:47:27Z","tX":533,"tY":365,"tags":{"name":"camping Paradise"}},"247575586":{"location":[45.7489247,7.6240322],"ct":"IT","tp":"CR","ts":"2013-11-22T09:32:27Z","tX":533,"tY":365,"tags":{"addr:city":"Châtillon","name":"Perolle"}},"290911507":{"location":[45.5963569,7.3874644],"ct":"IT","tp":"CR","ts":"2022-09-17T19:11:17Z","tX":533,"tY":365,"tags":{"fee":"yes","name":"Lillanz Camper site","power_supply":"yes","sanitary_dump_station":"yes","water_point":"yes"}},"295810635":{"location":[45.765211,7.7098847],"ct":"IT","tp":"CR","ts":"2018-06-28T08:50:51Z","tX":533,"tY":365,"tags":{"fee":"yes","note":"esistente nel 2014 con superficie in terra/sabbietta","power_supply":"yes","sanitary_dump_station":"yes","source":"Bing","surface":"ground"}},"336365643":{"location":[45.7370092,7.4835842],"ct":"IT","tp":"CR","ts":"2024-03-27T17:47:37Z","tX":533,"tY":365,"tags":{"addr:city":"Fénis","capacity":"15","charge":"10 EUR","fee":"yes","name":"Area Camper Clavalite Fenis","parking":"surface","surface":"asphalt","website":"https://www.lovevda.it/it/banca-dati/22/aree-di-sosta/fenis/area-attrezzata-camper-clavalite/9000951"}},"439723152":{"location":[45.6216193,7.6105781],"ct":"IT","tp":"CR","ts":"2020-02-12T20:37:59Z","tX":533,"tY":365,"tags":{"addr:city":"Champorcher","addr:postcode":"11020","addr:street":"SR2","capacity":"40","description":"C/o area pic-nic dopo il paese, vicino ai parking della funivia, in loc. Chardonney: su prato, delimitata da nastro segnaletico","ele":"1450","fee":"yes","name":"Area Camper Champorcher","sanitary_dump_station":"yes"}},"1216930271":{"location":[45.7813817,7.5451749],"ct":"IT","tp":"CR","ts":"2023-10-19T22:14:57Z","tX":533,"tY":365,"tags":{"power_supply":"yes","sanitary_dump_station":"yes"}},"1216950473":{"location":[45.8125342,7.588943],"ct":"IT","tp":"CR","ts":"2023-10-19T23:51:17Z","tX":533,"tY":365,"tags":{"capacity":"8","internet_access":"no","name":"Area Attrezzata Camper a pagamento","power_supply":"no","sanitary_dump_station":"yes"}},"1638845296":{"location":[45.8038776,7.5552237],"ct":"IT","tp":"CR","ts":"2012-02-19T10:19:52Z","tX":533,"tY":365,"tags":{}},"1780403912":{"location":[45.7393049,7.4852662],"ct":"IT","tp":"SD","ts":"2024-03-27T17:47:37Z","tX":533,"tY":365,"tags":{"addr:city":"Fénis","name":"Camper Service Cimitero Fènis","toilets":"no","website":"https://www.camperonline.it/area-di-sosta/Area-sosta-Fenis_3542"}},"2544568500":{"location":[45.7383887,7.4891442],"ct":"IT","tp":"CR","ts":"2019-03-27T11:10:32Z","tX":533,"tY":365,"tags":{"name":"Conte de Challand","note":"Free, consentito ma non esculiso. Auto + bus","website":"https://www.camperonline.it/area-di-sosta/C-o-Albergo-Conte-di-Challand_3543"}},"2761632664":{"location":[45.8119043,7.5890638],"ct":"IT","tp":"CR","ts":"2014-04-02T17:42:29Z","tX":533,"tY":365,"tags":{"name":"Area Attrezzata Camper a Pagamento"}},"8108975517":{"location":[45.7411839,7.3934226],"ct":"IT","tp":"CS","ts":"2023-11-08T19:21:17Z","tX":533,"tY":365,"tags":{"addr:postcode":"11020","addr:street":"Teppe","caravans":"yes","drinking_water":"yes","email":"info@lazybee.it","internet_access":"wlan","name":"Lazy Bee Camping Village","opening_hours":"Mo-Su 08:00-23:00","phone":"+390165765862","shower":"yes","tents":"yes","website":"https://www.lazybee.it/"}},"6609886101":{"location":[45.737037,7.4834523],"ct":"IT","tp":"SD","ts":"2024-03-27T17:47:37Z","tX":533,"tY":365,"tags":{"access":"yes"}},"10024107638":{"location":[45.5960625,7.3879061],"ct":"IT","tp":"SD","ts":"2022-09-17T19:11:17Z","tX":533,"tY":365,"tags":{}}}