{"339812748":{"location":[43.8736945,7.6098093],"ct":"IT","tp":"CS","ts":"2024-04-07T13:16:15Z","tX":533,"tY":372,"tags":{"access":"yes","addr:city":"Dolceacqua","addr:housenumber":"snc","addr:postcode":"18035","addr:street":"Strada Provinciale","capacity:persons":"65","capacity:tents":"14","charge":"15","fee":"yes","name":"Agricamping Ponte Raggio","payment:american_express":"yes","payment:cash":"yes","payment:credit_cards":"yes","payment:mastercard":"yes","payment:visa":"yes","tents":"yes"}},"360573665":{"location":[43.8956504,7.4155447],"ct":"FR","tp":"CS","ts":"2024-05-17T15:35:24Z","tX":533,"tY":372,"tags":{"email":"camp@camping-sainte-madeleine.com","landuse":"tourism","name":"Domaine de Sainte-Madeleine","phone":"+33 4 93 04 10 48","website":"http://www.camping-sainte-madeleine.com/","wheelchair":"yes"}},"368699375":{"location":[43.9356297,7.4124653],"ct":"FR","tp":"CS","ts":"2019-03-22T20:05:52Z","tX":533,"tY":372,"tags":{"contact:phone":"+33 4 93 04 80 37","contact:website":"http://moulinet.net/site2/pages/campjj.php","landuse":"tourism","name":"Camping Saint-Sébastien","phone":"+33 4 93 04 80 37"}},"391582687":{"location":[44.0641368,7.623302],"ct":"FR","tp":"CS","ts":"2019-03-22T20:05:54Z","tX":533,"tY":372,"tags":{"landuse":"tourism","name":"Pra Reound"}},"827669966":{"location":[43.8947639,7.6477923],"ct":"IT","tp":"CS","ts":"2024-10-05T18:54:44Z","tX":533,"tY":372,"tags":{"addr:street":"Via provinciale","caravans":"yes","contact:whatsapp":"+3901841958311","dog":"yes","fee":"yes","motorhome":"yes","name":"Camping Delle Rose","phone":"+39 0184 208130","power_supply":"yes","stars":"4","tents":"yes","website":"https://www.campingdellerose.eu/"}},"1037899697":{"location":[43.8837048,7.425282],"ct":"FR","tp":"CS","ts":"2022-10-09T09:29:44Z","tX":533,"tY":372,"tags":{"caravans":"yes","drinking_water":"yes","internet_access":"wlan","name":"Mas fleuri","power_supply":"yes","shower":"yes","tents":"yes","toilets":"yes"}},"1194856576":{"location":[43.8791108,7.4432222],"ct":"FR","tp":"CR","ts":"2024-05-17T22:29:51Z","tX":533,"tY":372,"tags":{"addr:city":"Sospel","addr:postcode":"06380","addr:street":"Stade Emmanuel Donato","bbq":"no","capacity":"31","caravan_site":"motorhome_stopover","caravan_site:type":"village","caravans":"no","charge":"14.87 EUR","dog":"leashed","drinking_water":"yes","fee":"yes","internet_access":"wlan","landuse":"tourism","maxlength":"none","name":"Aire CAMPING-CAR PARK de Sospel","network":"CAMPING-CAR PARK","opening_hours":"24/7","operator":"CAMPING CAR-Parc","power_supply":"yes","power_supply:capacity":"32","power_supply:fee":"no","power_supply:maxcurrent":"6","sanitary_dump_station":"yes","tents":"no","trailer":"yes","water_point":"yes","website":"https://www.campingcarpark.com/fr_FR/sejour/aire-etape-camping-car/provence-alpes-cote-dazur/06-alpes-maritimes/sospel"}},"1214007581":{"location":[44.0565551,7.4529939],"ct":"FR","tp":"CS","ts":"2023-10-08T08:41:42Z","tX":533,"tY":372,"tags":{"backcountry":"no","camp_site":"basic","caravans":"no","fee":"no","name":"Zone de bivouac du Refuge des Merveilles","name:en":"Bivouac area","name:it":"Area bivacco","nudism":"no","sanitary_dump_station":"no","tents":"yes","wheelchair":"no"}},"1335341063":{"location":[43.9472368,7.4158954],"ct":"FR","tp":"CS","ts":"2024-06-23T20:05:56Z","tX":533,"tY":372,"tags":{"fee":"yes","name":"Camping à la Ferme du Seuillet","payment:cash":"yes","payment:credit_cards":"no","shower":"yes","tents":"yes","toilets":"yes"}},"1335344905":{"location":[43.8786849,7.442828],"ct":"FR","tp":"SD","ts":"2015-03-28T01:35:02Z","tX":533,"tY":372,"tags":{}},"1363938538":{"location":[43.8844529,7.512952],"ct":"IT","tp":"CS","ts":"2025-03-02T00:38:28Z","tX":533,"tY":372,"tags":{"area":"yes","camp_site":"basic","caravans":"yes","name":"Remolipark","website":"https://www.remolidays.it/en/remolipark-3/"}},"8736419124":{"location":[43.8564034,7.502592],"ct":"IT","tp":"CS","ts":"2022-02-15T18:30:05Z","tX":533,"tY":372,"tags":{"description":"Good terrain for a multiple tents"}},"5868387466":{"location":[44.0873831,7.4808368],"ct":"FR","tp":"CS","ts":"2023-07-12T08:38:02Z","tX":533,"tY":372,"tags":{"camp_site":"basic","caravans":"no","fee":"no","name":"Zone de bivuoac","name:en":"Bivouac area","name:fr":"Zone de bivuoac","name:it":"Area bivacco","static_caravans":"no","tents":"yes"}}}