{"8557434":{"location":[43.7789212,7.4979477],"ct":"FR","tp":"CS","ts":"2021-11-29T22:11:13Z","tX":533,"tY":373,"tags":{"caravans":"yes","contact:email":"menton@campingscotedazur.com","contact:phone":"+339 82 21 27 95","name":"Camping Saint-Michel - CÃ´te d'Azur","tents":"yes","website":"https://www.campingscotedazur.com/"}},"71728807":{"location":[43.7938527,7.6008189],"ct":"IT","tp":"CS","ts":"2024-09-20T21:19:54Z","tX":533,"tY":373,"tags":{"addr:city":"Ventimiglia","addr:housenumber":"9","addr:postcode":"18039","addr:street":"Via G. Freccero","caravans":"yes","dog":"yes","drinking_water":"yes","motorhome":"yes","name":"Camping Roma","phone":"+39 0184 239007","power_supply":"yes","power_supply:maxcurrent":"6","sanitary_dump_station":"yes","shower":"yes","socket:cee_blue":"yes","stars":"2","tents":"yes","toilets":"yes","washing_machine":"yes","website":"https://www.campingroma.it/"}},"91251799":{"location":[43.7856022,7.6316277],"ct":"IT","tp":"CS","ts":"2025-04-01T09:32:28Z","tX":533,"tY":373,"tags":{"addr:city":"Camporosso","addr:housenumber":"1","addr:postcode":"18033","addr:street":"Via Dante Alighieri","caravans":"yes","dog":"yes","drinking_water":"yes","internet_access":"yes","internet_access:fee":"customers","motorhome":"yes","name":"Helios","phone":"+39 0184 251762","power_supply":"yes","sanitary_dump_station":"yes","shower":"yes","socket:cee_blue":"yes","stars":"2","static_caravans":"yes","tents":"yes","toilets":"yes","washing_machine":"yes","website":"https://www.campinghelios.com/","wheelchair":"yes"}},"190611112":{"location":[43.7932483,7.5640243],"ct":"IT","tp":"CS","ts":"2024-09-20T21:12:07Z","tX":533,"tY":373,"tags":{"caravans":"yes","fee":"yes","internet_access":"yes","motorhome":"yes","name":"Por La Mar","phone":"+39 0184 229626","power_supply":"yes","socket:cee_blue":"yes","stars":"2","tents":"yes","website":"https://www.campingporlamar.com/"}},"200765802":{"location":[43.7899507,7.5627852],"ct":"IT","tp":"CS","ts":"2013-04-12T13:29:54Z","tX":533,"tY":373,"tags":{"building":"yes","source":"Regione Liguria"}},"536790001":{"location":[43.7850378,7.633777],"ct":"IT","tp":"CS","ts":"2025-02-05T13:31:20Z","tX":533,"tY":373,"tags":{"addr:city":"Vallecrosia","addr:housenumber":"149","addr:postcode":"18019","addr:street":"Lungomare Guglielmo Marconi","dog":"yes","fee":"yes","internet_access":"wlan","name":"Camping Vallecrosia","phone":"+39 0184 295591","power_supply":"yes","power_supply:maxcurrent":"6","socket:cee_blue":"yes","website":"https://www.campingvallecrosia.com/"}},"1052506472":{"location":[43.7940007,7.5638639],"ct":"IT","tp":"CS","ts":"2012-11-13T16:20:50Z","tX":533,"tY":373,"tags":{"name":"Campeggio Pore"}},"1102349906":{"location":[43.7938123,7.6938535],"ct":"IT","tp":"CS","ts":"2015-12-09T12:00:12Z","tX":533,"tY":373,"tags":{"name":"Baia La Ruota","phone":"+39 0184 265222"}},"1187429621":{"location":[43.7878201,7.4429322],"ct":"FR","tp":"CS","ts":"2023-07-04T20:57:26Z","tX":533,"tY":373,"tags":{"alt_name":"Camping Municipal","caravans":"yes","contact:phone":"+334 93 28 35 23","internet_access":"no","name":"La Giandola","power_supply":"yes","shower":"hot","tents":"yes","toilets":"yes","washing_machine":"no","website":"https://www.gorbio.fr/camping/"}},"10948506105":{"location":[43.8035799,7.6714988],"ct":"IT","tp":"CS","ts":"2023-07-23T15:34:16Z","tX":533,"tY":373,"tags":{"addr:housenumber":"106","addr:postcode":"18012","addr:street":"Via Generale Vincenzo Rossi","capacity:caravans":"9","capacity:tents":"3","caravans":"yes","email":"info@agriturismoabunda.com","motorhome":"yes","name":"Agricampeggio A Bunda","name:de":"Agricamping A Bunda","name:en":"Agricamping A Bunda","name:fr":"Agricamping A Bunda","phone":"+39 348 310 2075;+39 349 831 4908","shower":"yes","tents":"yes","toilets":"yes","website":"http://www.agriturismoabunda.com/"}},"9350999604":{"location":[43.8221931,7.5018758],"ct":"FR","tp":"CS","ts":"2022-01-10T21:00:49Z","tX":533,"tY":373,"tags":{"name":"La Ferme Saint-Bernard"}}}