{"223441861":{"location":[43.222978,-80.8136293],"ct":"CA","tp":"CS","ts":"2013-05-28T18:18:01Z","tX":282,"tY":375,"tags":{"source":"NRCan-CanVec-10.0"}},"223484277":{"location":[43.1727318,-80.7830367],"ct":"CA","tp":"CS","ts":"2013-12-19T03:35:41Z","tX":282,"tY":375,"tags":{"name":"Willow Lake Park","source":"NRCan-CanVec-10.0"}},"224438959":{"location":[43.1988219,-80.697005],"ct":"CA","tp":"CS","ts":"2020-07-20T20:16:57Z","tX":282,"tY":375,"tags":{"addr:city":"Innerkip","addr:housenumber":"51","addr:postcode":"N0J 1M0","addr:street":"George Street","description":"A small water filled quarry that permits swimming, fishing, and scuba diving in. There are also some summer homes on site and camping is available.","fee":"yes","internet_access":"no","name":"Innerkip Quarry - Trout Lake","operator":"Trout Lake Park","phone":"+1-519-469-3363","source":"local knowledge;aerial imagery","website":"http://www.troutlakeinnerkip.com","wheelchair":"limited"}},"224664926":{"location":[43.1963624,-80.6372978],"ct":"CA","tp":"CS","ts":"2024-06-23T17:53:08Z","tX":282,"tY":375,"tags":{"access":"customers","addr:city":"Innerkip","addr:housenumber":"766254","addr:postcode":"N0J 1M0","addr:province":"Ontario","addr:street":"Township 5 Road","alt_name":"Lyons Park Haven","email":"lyonsparkhavenlakefamilycamp@gmail.com","name":"Park Haven Lake Family Campground","phone":"+1 519-469-3501"}},"225359967":{"location":[43.0692233,-80.5292001],"ct":"CA","tp":"CS","ts":"2013-06-12T02:07:52Z","tX":282,"tY":375,"tags":{"source":"NRCan-CanVec-10.0"}},"225360042":{"location":[43.1193355,-80.556778],"ct":"CA","tp":"CS","ts":"2024-06-23T17:53:08Z","tX":282,"tY":375,"tags":{"addr:city":"County of Brant","addr:housenumber":"99","addr:postcode":"N0E 1A0","addr:province":"Ontario","addr:street":"Fourth Concession Road","alt_name":"Crestwood Lake Trailer Park","name":"Twin Springs","phone":"+1 519-458-4229","source":"NRCan-CanVec-10.0"}},"828616831":{"location":[43.1955809,-80.823538],"ct":"CA","tp":"CR","ts":"2022-08-16T22:45:33Z","tX":282,"tY":375,"tags":{"name":"Braemar Valley RV Park"}},"2281558519":{"location":[43.0911042,-80.8327909],"ct":"CA","tp":"CS","ts":"2013-04-26T01:55:41Z","tX":282,"tY":375,"tags":{"source":"NRCan-CanVec-10.0"}}}