{"981468416":{"location":[36.4733324,-80.8552167],"ct":"US","tp":"CS","ts":"2025-05-09T16:35:29Z","tX":282,"tY":400,"tags":{"access":"customers","addr:city":"Mount Airy","addr:housenumber":"609","addr:postcode":"27030","addr:state":"NC","addr:street":"Scout Valley Trail","backcountry":"yes","name":"Catawba Wilderness Area","natural":"grassland"}},"1101799292":{"location":[36.4785844,-80.8466708],"ct":"US","tp":"CS","ts":"2024-08-28T13:45:14Z","tX":282,"tY":400,"tags":{"access":"private","addr:city":"Mount Airy","addr:housenumber":"266","addr:postcode":"27030","addr:state":"NC","addr:street":"Raven Knob Road","backcountry":"no","caravans":"no","drinking_water":"yes","fee":"yes","group_only":"yes","name":"Camp Raven Knob","operator":"Old Hickory Council, Scouts BSA","phone":"336-352-4307","power_supply":"yes","reservation":"required","scout":"yes","shower":"yes","static_caravans":"no","tents":"yes","toilets":"yes","website":"https://www.ravenknob.com","wikidata":"Q14708153","wikipedia":"en:Raven Knob Scout Reservation"}},"1122608503":{"location":[36.4545148,-80.6333414],"ct":"US","tp":"CR","ts":"2022-12-16T11:58:34Z","tX":282,"tY":400,"tags":{"name":"Mayberry Campground"}}}