{"6986316":{"location":[35.3589793,-80.6896381],"ct":"US","tp":"CR","ts":"2017-02-16T15:30:37Z","tX":282,"tY":404,"tags":{"caravans":"yes","name":"Tom Johnson Camping Center Racing Resort","tents":"no"}},"9389325":{"location":[35.3554632,-80.6779475],"ct":"US","tp":"CR","ts":"2019-03-11T21:31:22Z","tX":282,"tY":404,"tags":{"name":"Hellmann's Family Campground"}},"137258297":{"location":[35.3452291,-80.679661],"ct":"US","tp":"CR","ts":"2011-11-17T00:49:24Z","tX":282,"tY":404,"tags":{"caravans":"yes","name":"Entrance \"P\" Campground","tents":"no"}},"137278446":{"location":[35.3393848,-80.6728146],"ct":"US","tp":"CS","ts":"2022-11-12T20:30:54Z","tX":282,"tY":404,"tags":{"caravans":"yes","name":"Tom Johnson's Morehead Farms Campground","tents":"yes"}},"996940075":{"location":[35.3509375,-80.697411],"ct":"US","tp":"CR","ts":"2021-10-27T16:21:53Z","tX":282,"tY":404,"tags":{"addr:city":"Concord","addr:housenumber":"4275","addr:postcode":"28027","addr:state":"NC","addr:street":"Morehead Road","name":"Apollo RV Park"}},"996941260":{"location":[35.3589084,-80.6904342],"ct":"US","tp":"CR","ts":"2021-10-27T16:24:29Z","tX":282,"tY":404,"tags":{"addr:city":"Concord","addr:housenumber":"6600","addr:postcode":"28027","addr:state":"NC","addr:street":"Bruton Smith Boulevard","name":"Camping World Racing Resort"}},"996942282":{"location":[35.3527658,-80.6910117],"ct":"US","tp":"CS","ts":"2021-10-27T16:29:49Z","tX":282,"tY":404,"tags":{"addr:city":"Concord","addr:housenumber":"5650","addr:postcode":"28027","addr:state":"NC","addr:street":"Sandusky Boulevard","name":"Ver-El RV Park & Campground"}},"996961970":{"location":[35.202816,-80.5441859],"ct":"US","tp":"CS","ts":"2021-10-27T17:53:30Z","tX":282,"tY":404,"tags":{"name":"Training/Challenger","operator":"Boy Scouts of America"}},"996961971":{"location":[35.2056629,-80.545562],"ct":"US","tp":"CS","ts":"2023-04-04T15:28:15Z","tX":282,"tY":404,"tags":{"name":"Scout World","operator":"Boy Scouts of America"}},"996961972":{"location":[35.2082229,-80.5468669],"ct":"US","tp":"CS","ts":"2021-10-27T17:53:30Z","tX":282,"tY":404,"tags":{"name":"Adirondacks","operator":"Boy Scouts of America"}},"996961973":{"location":[35.2085919,-80.5475556],"ct":"US","tp":"CS","ts":"2021-10-27T17:53:30Z","tX":282,"tY":404,"tags":{"name":"Clear Creek","operator":"Boy Scouts of America"}},"996961976":{"location":[35.2089478,-80.5519309],"ct":"US","tp":"CS","ts":"2021-10-27T17:53:30Z","tX":282,"tY":404,"tags":{"name":"Cub World","operator":"Boy Scouts of America"}},"1076911584":{"location":[35.2067357,-80.6680705],"ct":"US","tp":"CR","ts":"2024-02-03T23:59:55Z","tX":282,"tY":404,"tags":{"landuse":"residential"}}}