{"812556561":{"location":[32.1609551,-80.7591876],"ct":"US","tp":"CR","ts":"2022-12-29T17:51:06Z","tX":282,"tY":415,"tags":{"addr:city":"Hilton Head Island","addr:housenumber":"133","addr:postcode":"29928","addr:state":"SC","addr:street":"Arrow Road","capacity":"401","internet_access":"wlan","internet_access:fee":"customers","landuse":"residential","name":"Hilton Head Motorcoach Resort","power_supply":"yes","sanitary_dump_station":"no","toilets":"yes"}},"1108632846":{"location":[32.2223723,-80.7709519],"ct":"US","tp":"CS","ts":"2022-10-31T18:34:35Z","tX":282,"tY":415,"tags":{"name":"Hilton Head Harbor RV Resort"}},"1158567351":{"location":[32.0229268,-80.8512774],"ct":"US","tp":"CS","ts":"2023-03-31T00:11:41Z","tX":282,"tY":415,"tags":{"name":"River's End Campground and RV Park","website":"https://www.riversendcampground.com/"}},"2546408823":{"location":[32.1595711,-80.7605426],"ct":"US","tp":"CR","ts":"2020-06-03T12:51:29Z","tX":282,"tY":415,"tags":{"addr:city":"Hilton Head Island","addr:housenumber":"133","addr:postcode":"29928","addr:street":"Arrow Road","capacity":"401","internet_access":"wlan","internet_access:fee":"customers","name":"HHIMR Welcome Center","power_supply":"yes","sanitary_dump_station":"no","website":"http://www.hiltonheadmotorcoachresort.com/"}}}