{"12752173":{"location":[46.439031,-86.7045752],"ct":"US","tp":"CS","ts":"2024-05-09T18:38:01Z","tX":265,"tY":362,"tags":{"addr:city":"Christmas","addr:housenumber":"7793","addr:postcode":"49862","addr:state":"MI","addr:street":"Scrooge's Alley","fee":"yes","name":"Paddler's Village","operator":"Uncle Ducky Outdoors LLC","website":"https://www.paddlingmichigan.com/lodging/paddlers-village/"}},"233581727":{"location":[46.4410765,-86.6777139],"ct":"US","tp":"CR","ts":"2014-06-15T22:32:31Z","tX":265,"tY":362,"tags":{"addr:city":"Munising","addr:housenumber":"E8518","addr:postcode":"49862","addr:street":"M 28 West","gnis:feature_id":"1622246","name":"Munising Tourist Park Campground","website":"https://munisingtouristpark.com/"}},"436321522":{"location":[46.3792287,-86.5916715],"ct":"US","tp":"CR","ts":"2023-04-06T06:01:29Z","tX":265,"tY":362,"tags":{"addr:city":"Munising","addr:housenumber":"E10160","addr:postcode":"49862","addr:state":"MI","addr:street":"M 28","fee":"yes","gnis:feature_id":"2351959","name":"Wandering Wheels Campground","phone":"+1-906-387-3315","power_supply":"yes","website":"http://www.wanderingwheelscampground.net/"}},"946198605":{"location":[46.4410335,-86.7075626],"ct":"US","tp":"CS","ts":"2021-05-28T03:35:41Z","tX":265,"tY":362,"tags":{"gnis:feature_id":"1622245","name":"Bay Furnace Campground","operator":"United States Forest Service"}},"1034522685":{"location":[46.5271693,-86.4919575],"ct":"US","tp":"CS","ts":"2022-02-23T14:45:02Z","tX":265,"tY":362,"tags":{"backcountry":"yes","capacity:persons":"6","gnis:feature_id":"1622791","name":"Mosquito River Campground","openfire":"no","website":"https://www.recreation.gov/camping/campsites/65437803"}},"1034522686":{"location":[46.5247342,-86.4932283],"ct":"US","tp":"CS","ts":"2022-02-23T14:45:02Z","tX":265,"tY":362,"tags":{"backcountry":"yes","capacity:persons":"20","name":"Mosquito Group Campsite","website":"https://www.recreation.gov/camping/campsites/654371"}},"1034526557":{"location":[46.4969609,-86.5300228],"ct":"US","tp":"CS","ts":"2022-02-23T14:55:19Z","tX":265,"tY":362,"tags":{"backcountry":"yes","capacity:persons":"6","name":"Potato Patch Campsite","website":"https://www.recreation.gov/camping/campsites/65437703"}},"1034527324":{"location":[46.485544,-86.5565556],"ct":"US","tp":"CS","ts":"2022-02-23T14:58:19Z","tX":265,"tY":362,"tags":{"backcountry":"yes","capacity:persons":"20","name":"Cliffs Group Campsite"}},"1034528942":{"location":[46.4733108,-86.5704298],"ct":"US","tp":"CS","ts":"2022-02-23T15:06:44Z","tX":265,"tY":362,"tags":{"backcountry":"yes","capacity:persons":"6","name":"Cliffs Camp","website":"https://www.recreation.gov/camping/campsites/654376"}},"5667927587":{"location":[46.4774468,-86.6308531],"ct":"US","tp":"CS","ts":"2024-04-23T12:01:53Z","tX":265,"tY":362,"tags":{"access":"yes","backcountry":"yes","capacity:persons":"4","capacity:tents":"2","fee":"yes","name":"Little Dunes I","operator":"United States Forest Service","phone":"+1-906-387-2512","tents":"yes","website":"https://www.recreation.gov/camping/campgrounds/251618"}},"5667927591":{"location":[46.4773876,-86.6287369],"ct":"US","tp":"CS","ts":"2024-04-23T12:01:53Z","tX":265,"tY":362,"tags":{"access":"yes","backcountry":"yes","capacity:persons":"4","capacity:tents":"2","fee":"yes","name":"Little Dunes II","operator":"United States Forest Service","phone":"+1-906-387-2512","tents":"yes","website":"https://www.recreation.gov/camping/campgrounds/251622"}},"5667950018":{"location":[46.5560172,-86.6672359],"ct":"US","tp":"CS","ts":"2018-06-05T22:38:12Z","tX":265,"tY":362,"tags":{"name":"Shelter Ridge"}},"5667952225":{"location":[46.4719119,-86.6544385],"ct":"US","tp":"CS","ts":"2024-04-23T12:01:53Z","tX":265,"tY":362,"tags":{"access":"yes","backcountry":"yes","capacity:persons":"25","group_only":"yes","name":"Murray Bay Group Site","operator":"United States Forest Service","phone":"+1-906-387-251","tents":"yes","website":"https://www.recreation.gov/camping/campsites/93164"}},"8777210990":{"location":[46.4378162,-86.7172015],"ct":"US","tp":"CS","ts":"2021-05-28T17:14:22Z","tX":265,"tY":362,"tags":{"name":"Pictured Rocks RV Park and Campground","phone":"+1 906 387 4700","website":"https://www.picturedrocksrvpark.com/"}},"8759346254":{"location":[46.4412678,-86.7071782],"ct":"US","tp":"SD","ts":"2021-05-24T04:30:37Z","tX":265,"tY":362,"tags":{"charge":"5 USD","fee":"yes","water_point":"yes"}}}