{"1070755096":{"location":[43.6561517,-86.5182261],"ct":"US","tp":"SD","ts":"2022-06-17T20:13:12Z","tX":265,"tY":373,"tags":{}},"1070755102":{"location":[43.6565179,-86.5204313],"ct":"US","tp":"SD","ts":"2022-06-17T20:13:12Z","tX":265,"tY":373,"tags":{}},"1070755106":{"location":[43.6555126,-86.5192963],"ct":"US","tp":"CS","ts":"2022-06-17T20:13:12Z","tX":265,"tY":373,"tags":{"name":"Hideaway Campground"}},"2933398140":{"location":[43.6571551,-86.518925],"ct":"US","tp":"CR","ts":"2022-06-17T20:13:12Z","tX":265,"tY":373,"tags":{"addr:city":"Mears","addr:housenumber":"9671","addr:postcode":"49436","addr:state":"MI","addr:street":"West Silver Lake Road","gnis:feature_id":"2515822","name":"Hideaway Campground","phone":"+1-231-873-4428","tents":"yes","website":"http://www.hideawaycampground.com/"}},"2933398161":{"location":[43.6628906,-86.4913774],"ct":"US","tp":"CR","ts":"2020-12-08T21:34:47Z","tX":265,"tY":373,"tags":{"addr:city":"Mears","addr:housenumber":"8595","addr:postcode":"49436","addr:state":"MI","addr:street":"West Silver Lake Road","gnis:feature_id":"2515821","name":"Sandy Shores Campground","phone":"+1-231-873-3003","website":"https://www.sandyshorescampground.com/"}},"2933398165":{"location":[43.661481,-86.4941211],"ct":"US","tp":"CR","ts":"2014-06-25T20:29:38Z","tX":265,"tY":373,"tags":{"gnis:feature_id":"2515818","name":"Silver Lake State Park Campground","tents":"yes"}},"5785423441":{"location":[43.6619382,-86.4928991],"ct":"US","tp":"SD","ts":"2018-07-26T01:46:10Z","tX":265,"tY":373,"tags":{}},"5785450547":{"location":[43.692922,-86.4860997],"ct":"US","tp":"SD","ts":"2018-07-26T02:20:30Z","tX":265,"tY":373,"tags":{}}}