{"375326491":{"location":[40.7985251,-86.7987375],"ct":"US","tp":"CR","ts":"2015-10-15T02:28:27Z","tX":265,"tY":384,"tags":{}},"629935130":{"location":[40.8887431,-86.7247614],"ct":"US","tp":"CS","ts":"2024-05-24T09:25:09Z","tX":265,"tY":384,"tags":{"access":"private","ele":"207","gnis:feature_id":"432013","name":"Camp Buffalo","operator":"Boy Scouts of America Sagamore Council","wikidata":"Q34912623"}},"1102236109":{"location":[40.7945438,-86.7818253],"ct":"US","tp":"CS","ts":"2022-10-08T22:57:55Z","tX":265,"tY":384,"tags":{"addr:city":"Monticello","addr:housenumber":"2882","addr:postcode":"47960","addr:state":"IN","addr:street":"NW Shafer Dr","caravans":"yes","internet_access":"wlan","name":"Indiana Beach Monticello KOA","operator":"KOA","tents":"yes"}},"1102360549":{"location":[40.7902905,-86.7843023],"ct":"US","tp":"CS","ts":"2023-10-28T16:13:53Z","tX":265,"tY":384,"tags":{"addr:city":"Monticello","addr:housenumber":"2732","addr:postcode":"47960","addr:state":"IN","addr:street":"NW Shafer Dr","caravans":"yes","name":"Indiana Beach Campground","phone":"5785834141","sanitary_dump_station":"yes","tents":"yes","website":"https://www.indianabeach.com/"}},"5948962021":{"location":[40.8889061,-86.7304053],"ct":"US","tp":"CS","ts":"2023-03-24T23:18:02Z","tX":265,"tY":384,"tags":{"access":"private","capacity:persons":"40","caravans":"no","name":"Raincrow Camp","operator":"Sagamore Council BSA","static_caravans":"no","tents":"yes"}},"5948962022":{"location":[40.8901407,-86.7296699],"ct":"US","tp":"CS","ts":"2023-03-24T23:18:02Z","tX":265,"tY":384,"tags":{"access":"private","capacity:persons":"30","caravans":"no","name":"Chipmunk Camp","operator":"Sagamore Council BSA","static_caravans":"no","tents":"yes"}},"5948962029":{"location":[40.8906729,-86.7282057],"ct":"US","tp":"CS","ts":"2023-03-24T23:18:02Z","tX":265,"tY":384,"tags":{"access":"private","capacity:persons":"15","caravans":"no","name":"Ridgeview Camp","operator":"Sagamore Council BSA","static_caravans":"no","tents":"yes"}},"5948962234":{"location":[40.8883418,-86.7299586],"ct":"US","tp":"CS","ts":"2023-03-24T23:18:02Z","tX":265,"tY":384,"tags":{"access":"private","capacity:persons":"20","caravans":"no","name":"Oaks Camp","operator":"Sagamore Council BSA","static_caravans":"no","tents":"yes"}},"5949304868":{"location":[40.8862096,-86.7308179],"ct":"US","tp":"CS","ts":"2023-03-24T23:18:02Z","tX":265,"tY":384,"tags":{"access":"private","capacity:persons":"40","caravans":"no","name":"Whispering Pines Camp","operator":"Sagamore Council BSA","static_caravans":"no","tents":"yes"}},"5949304869":{"location":[40.8859506,-86.7287567],"ct":"US","tp":"CS","ts":"2023-03-24T23:18:02Z","tX":265,"tY":384,"tags":{"access":"private","capacity:persons":"15","caravans":"no","name":"Red Pine Camp","operator":"Sagamore Council BSA","static_caravans":"no","tents":"yes"}},"5949305100":{"location":[40.8867807,-86.7292042],"ct":"US","tp":"CS","ts":"2023-03-24T23:18:02Z","tX":265,"tY":384,"tags":{"access":"private","capacity:persons":"15","caravans":"no","name":"Shadysides Camp","operator":"Sagamore Council BSA","static_caravans":"no","tents":"yes"}},"5949305101":{"location":[40.8869047,-86.7303235],"ct":"US","tp":"CS","ts":"2023-03-24T23:46:26Z","tX":265,"tY":384,"tags":{"access":"private","capacity:persons":"30","caravans":"no","name":"Pines Camp","operator":"Sagamore Council BSA","static_caravans":"no","tents":"yes"}},"5949305102":{"location":[40.8859523,-86.7301678],"ct":"US","tp":"CS","ts":"2023-03-24T23:46:26Z","tX":265,"tY":384,"tags":{"access":"private","capacity:persons":"20","caravans":"no","name":"Ivey Camp","operator":"Sagamore Council BSA","static_caravans":"no","tents":"yes"}},"5949305114":{"location":[40.8853806,-86.7299756],"ct":"US","tp":"CS","ts":"2023-03-24T23:51:21Z","tX":265,"tY":384,"tags":{"access":"private","capacity:persons":"20","caravans":"no","name":"Sioux Camp","operator":"Sagamore Council BSA","static_caravans":"no","tents":"yes"}},"5949305117":{"location":[40.8854013,-86.7279247],"ct":"US","tp":"CS","ts":"2023-03-24T23:18:02Z","tX":265,"tY":384,"tags":{"access":"private","capacity:persons":"30","caravans":"no","name":"Pioneer Camp","operator":"Sagamore Council BSA","static_caravans":"no","tents":"yes"}},"5949305118":{"location":[40.8848048,-86.7291988],"ct":"US","tp":"CS","ts":"2023-03-24T23:46:26Z","tX":265,"tY":384,"tags":{"access":"private","capacity:persons":"25","caravans":"no","name":"Trailblazer Camp","operator":"Sagamore Council BSA","static_caravans":"no","tents":"yes"}},"5949305119":{"location":[40.8880118,-86.7308696],"ct":"US","tp":"CS","ts":"2023-03-24T23:18:02Z","tX":265,"tY":384,"tags":{"access":"private","capacity:persons":"15","caravans":"no","name":"Acorn Camp","operator":"Sagamore Council BSA","static_caravans":"no","tents":"yes"}},"5949305120":{"location":[40.8879142,-86.7292975],"ct":"US","tp":"CS","ts":"2023-03-24T23:18:02Z","tX":265,"tY":384,"tags":{"access":"private","capacity:persons":"20","caravans":"no","name":"Hickory Camp","operator":"Sagamore Council BSA","static_caravans":"no","tents":"yes"}},"10760163972":{"location":[40.8868611,-86.7242017],"ct":"US","tp":"CS","ts":"2023-03-24T23:18:02Z","tX":265,"tY":384,"tags":{"access":"private","capacity:persons":"20","caravans":"no","name":"Raven Camp","operator":"Sagamore Council BSA","static_caravans":"no","tents":"yes"}},"10760163974":{"location":[40.8859562,-86.7264815],"ct":"US","tp":"CS","ts":"2023-03-24T23:18:02Z","tX":265,"tY":384,"tags":{"access":"private","capacity:persons":"20","caravans":"no","name":"Miami Camp","operator":"Sagamore Council BSA","static_caravans":"no","tents":"yes"}},"10085912375":{"location":[40.793495,-86.7825951],"ct":"US","tp":"SD","ts":"2022-10-08T22:57:55Z","tX":265,"tY":384,"tags":{}}}