{"546577011":{"location":[40.2167115,-86.6638067],"ct":"US","tp":"CS","ts":"2021-06-10T18:00:05Z","tX":265,"tY":386,"tags":{"addr:city":"Colfax","addr:housenumber":"4850","addr:postcode":"46035","addr:state":"IN","addr:street":"South Broadview Road","name":"Broadview Lake Campground"}},"618685619":{"location":[40.332777,-86.7298789],"ct":"US","tp":"CS","ts":"2020-11-02T19:47:22Z","tX":265,"tY":386,"tags":{"access":"customers","addr:city":"Lafayette","addr:housenumber":"5831","addr:postcode":"47905","addr:state":"IN","addr:street":"South 900 East","internet_access":"no","name":"Big Fish-N-Campground","wheelchair":"yes"}},"850354495":{"location":[40.3328589,-86.7287431],"ct":"US","tp":"CR","ts":"2020-10-24T20:23:01Z","tX":265,"tY":386,"tags":{"addr:city":"Lafayette","addr:housenumber":"5831","addr:postcode":"47905","addr:state":"IN","addr:street":"South 900 East","capacity":"18","internet_access":"no","name":"Big Fish-N-Campground","power_supply":"yes","sanitary_dump_station":"yes"}},"863389593":{"location":[40.3333505,-86.7291448],"ct":"US","tp":"CS","ts":"2020-11-02T19:46:33Z","tX":265,"tY":386,"tags":{"group_only":"yes","internet_access":"no","name":"Big Fish-N-Campground","operator":"Big Fish-N-Campground","wheelchair":"no"}},"1126566042":{"location":[40.4241326,-86.7784597],"ct":"US","tp":"CS","ts":"2023-03-25T01:05:27Z","tX":265,"tY":386,"tags":{"access":"permit","name":"Pine Valley"}},"1126566057":{"location":[40.423758,-86.7804981],"ct":"US","tp":"CS","ts":"2023-03-26T16:51:02Z","tX":265,"tY":386,"tags":{"access":"permit","name":"Ivy Haven"}},"1126566059":{"location":[40.4234974,-86.7817225],"ct":"US","tp":"CS","ts":"2023-03-25T01:05:27Z","tX":265,"tY":386,"tags":{"access":"permit","name":"Shady Nook"}},"1157089684":{"location":[40.4233376,-86.7828296],"ct":"US","tp":"CS","ts":"2023-03-25T01:05:27Z","tX":265,"tY":386,"tags":{"access":"private","caravans":"no","name":"Eagle's Nest","operator":"Sagamore Council BSA","static_caravans":"no","tents":"yes"}},"1157089685":{"location":[40.4230172,-86.7832159],"ct":"US","tp":"CS","ts":"2023-03-25T01:05:27Z","tX":265,"tY":386,"tags":{"access":"private","caravans":"no","name":"Mosquito Range","operator":"Sagamor Council BSA","static_caravans":"no","tents":"yes"}},"1157461552":{"location":[40.4234934,-86.7843264],"ct":"US","tp":"CS","ts":"2023-03-26T16:47:45Z","tX":265,"tY":386,"tags":{"access":"private","caravans":"no","name":"Indian Village","operator":"Sagamore Council BSA","static_caravans":"no","tents":"yes"}}}