{"1140741032":{"location":[30.8956539,-86.6403274],"ct":"US","tp":"CR","ts":"2023-02-09T07:19:30Z","tX":265,"tY":419,"tags":{}},"1151306608":{"location":[30.7734122,-86.8022024],"ct":"US","tp":"CR","ts":"2023-03-04T18:52:41Z","tX":265,"tY":419,"tags":{}},"1151306612":{"location":[30.8611175,-86.8342159],"ct":"US","tp":"CR","ts":"2023-03-04T18:52:41Z","tX":265,"tY":419,"tags":{}},"1151306613":{"location":[30.8605764,-86.8336868],"ct":"US","tp":"CR","ts":"2023-03-04T18:52:41Z","tX":265,"tY":419,"tags":{}},"1277531689":{"location":[30.8619018,-86.8344197],"ct":"US","tp":"CS","ts":"2011-05-08T20:04:38Z","tX":265,"tY":419,"tags":{}},"1277531691":{"location":[30.8619386,-86.8341622],"ct":"US","tp":"CR","ts":"2011-05-08T20:04:38Z","tX":265,"tY":419,"tags":{}},"12842572906":{"location":[30.9337772,-86.5887733],"ct":"US","tp":"CS","ts":"2025-05-16T16:26:54Z","tX":265,"tY":419,"tags":{"access":"permissive","addr:city":"Baker","addr:housenumber":"7704","addr:postcode":"32531","addr:state":"FL","addr:street":"Creston Barrow Road","operator":"Camp Okaloosa"}}}