{"12696786":{"location":[38.9586744,-76.3464348],"ct":"US","tp":"CS","ts":"2021-05-10T18:09:30Z","tX":294,"tY":391,"tags":{"leisure":"summer_camp","name":"Camp Wright","operator":"Episcopal Church","reservation":"yes"}},"897715158":{"location":[39.0035786,-76.6053204],"ct":"US","tp":"CS","ts":"2021-01-20T21:29:02Z","tX":294,"tY":391,"tags":{"name":"Pine Tree Associates","nudism":"customary","website":"https://www.pinetreeclub.org"}},"1328455557":{"location":[39.0897976,-76.5219375],"ct":"US","tp":"CS","ts":"2024-10-29T13:49:48Z","tX":294,"tY":391,"tags":{"access":"private","addr:city":"Pasadena","addr:housenumber":"524","addr:postcode":"21122","addr:state":"MD","addr:street":"Lake Shore Drive","boundary":"protected_area","leisure":"nature_reserve","name":"Camp Whippoorwill","operator":"Girl Scouts of Central Maryland","protect_class":"1b","website":"https://www.gscm.org/"}},"1329089627":{"location":[39.0911263,-76.5236594],"ct":"US","tp":"CS","ts":"2024-10-29T13:49:13Z","tX":294,"tY":391,"tags":{"access":"private","name":"Holly Hill","operator":"Girl Scouts of Central Maryland","website":"https://www.gscm.org/"}},"1329089628":{"location":[39.0905444,-76.52233],"ct":"US","tp":"CS","ts":"2024-10-29T13:49:13Z","tX":294,"tY":391,"tags":{"access":"private","name":"Pinewoods","operator":"Girl Scouts of Central Maryland","website":"https://www.gscm.org/"}},"1329089629":{"location":[39.0901682,-76.5214092],"ct":"US","tp":"CS","ts":"2024-10-29T13:49:13Z","tX":294,"tY":391,"tags":{"access":"private","name":"Sleepy Hollow","operator":"Girl Scouts of Central Maryland","website":"https://www.gscm.org/"}},"1329089630":{"location":[39.0899876,-76.5237783],"ct":"US","tp":"CS","ts":"2024-10-29T13:49:13Z","tX":294,"tY":391,"tags":{"access":"private","name":"Sherando","operator":"Girl Scouts of Central Maryland","website":"https://www.gscm.org/"}}}