{"316397701":{"location":[38.6188696,-76.5132534],"ct":"US","tp":"CS","ts":"2023-11-24T16:52:46Z","tX":294,"tY":392,"tags":{"access":"yes","addr:city":"Chesapeake Beach","addr:country":"US","addr:housenumber":"5300","addr:postcode":"20732","addr:state":"MD","addr:street":"Breezy Point Road","caravans":"yes","check_date":"2023-05-10","drinking_water":"yes","fee":"yes","group_only":"no","internet_access":"no","name":"Breezy Point Beach and Campground","opening_hours":"May,Sep-Oct Mo,Th,Fr 09:00-18:00; May,Sep-Oct Sa,Su,PH 08:00-18:30; Jun-Aug Mo,Th,Fr 09:00-19:00; Jun-Aug Sa,Su,PH 09:00-19:30; Nov-Apr closed","operator":"Calvert County","payment:mastercard":"yes","payment:visa":"yes","phone":"+1 410 535 0259","reservation":"required","source":"esri_USDOT_Maryland","tents":"yes","toilets":"yes","website":"https://www.calvertcountymd.gov/3039/Breezy-Point-Beach-Campground"}},"7502148005":{"location":[38.7265105,-76.5423945],"ct":"US","tp":"SD","ts":"2020-05-09T23:25:58Z","tX":294,"tY":392,"tags":{"access":"customers","description":"A mobile pump-out boat is also available to provide a convenient \"in your slip\" pump-out option.","fee":"no","operator":"Herrington Harbor South","sanitary_dump_station:pump-out":"yes","seamark:small_craft_facility:category":"pump-out","seamark:type":"small_craft_facility"}}}