{"445406791":{"location":[-12.0801597,-76.5106512],"ct":"PE","tp":"CS","ts":"2018-11-06T01:35:38Z","tX":294,"tY":546,"tags":{"addr:city":"Antioquía","name":"Zona de camping"}},"585151468":{"location":[-11.9094124,-76.5960881],"ct":"PE","tp":"CS","ts":"2023-07-09T22:14:39Z","tX":294,"tY":546,"tags":{"addr:city":"Ricardo Palma","addr:full":"km 46.200 Carretera Central","addr:street":"Carretera Central","charge":"10 PEN","contact:email":"campingsolycampo@gmail.com","contact:instagram":"https://www.instagram.com/campingsolycampo/","contact:phone":"+51 927 744 472;+51 979 749 424","contact:twitter":"https://twitter.com/CampingSolyCamp","contact:website":"https://campingsolycampo.wixsite.com/club","facebook":"https://web.facebook.com/parqueclubsolycampope/?_rdc=1&_rdr","fee":"yes","name":"Camping Sol y Campo","opening_hours":"Mo-Su 08:00-18:00, 19:00-07:00","payment:cash":"yes","resort":"recreation_center","website":"https://campingsolycampo.wixsite.com/club"}},"643023169":{"location":[-12.1342737,-76.4346774],"ct":"PE","tp":"CS","ts":"2023-06-14T23:54:28Z","tX":294,"tY":546,"tags":{"access":"customers","addr:city":"San José de Los Chorrillos","email":"canopyperu1@yahoo.es","facebook":"https://web.facebook.com/pariacacamp/","fee":"yes","name":"Pariacaca Camp","payment:cash":"yes","phone":"+51950757848","surface":"grass","tents":"yes","website":"https://pariacacacamp.jimdo.com/"}}}