{"988639932":{"location":[46.423647,-85.5120859],"ct":"US","tp":"CR","ts":"2022-05-17T00:20:11Z","tX":268,"tY":362,"tags":{"addr:city":"Newberry","addr:housenumber":"13209","addr:postcode":"49868","addr:state":"MI","addr:street":"M 123","gnis:feature_id":"2360377","name":"Clementz's Northcountry Campground & Cabins","phone":"+1-906-293-8562","website":"https://www.northcountrycampground.com/"}},"1034299988":{"location":[46.4629099,-85.7087656],"ct":"US","tp":"CS","ts":"2023-11-15T00:15:12Z","tX":268,"tY":362,"tags":{"access":"yes","capacity:persons":"18","charge":"15 USD","county":"Luce","fee":"yes","midnr:park_id":"683","name":"Bass Lake State Forest Campground (Luce)","reservation":"no","source":"Michigan DNR","website":"https://www.michigandnr.com/parksandtrails/Details.aspx?id=683&type=SFCG"}},"1229050875":{"location":[46.3511276,-85.5789968],"ct":"US","tp":"CS","ts":"2023-12-06T12:56:34Z","tX":268,"tY":362,"tags":{"county":"Luce","midnr:park_id":"684","name":"Natalie State Forest Campground","source":"Michigan DNR","website":"https://www.michigandnr.com/parksandtrails/Details.aspx?id=684&type=SFCG"}},"12875600094":{"location":[46.4236511,-85.5120506],"ct":"US","tp":"CR","ts":"2025-05-30T16:08:25Z","tX":268,"tY":362,"tags":{"addr:city":"Newberry","addr:housenumber":"13209","addr:postcode":"49868","addr:state":"MI","addr:street":"Falls Road","name":"Kritters Campground"}}}