{"118817333":{"location":[44.7464457,-85.5510149],"ct":"US","tp":"CS","ts":"2024-07-19T17:46:04Z","tX":268,"tY":369,"tags":{"gnis:feature_id":"2496042","name":"Traverse City State Park Campground"}},"320519789":{"location":[44.7129025,-85.4909576],"ct":"US","tp":"CR","ts":"2024-11-05T16:12:12Z","tX":268,"tY":369,"tags":{"addr:city":"Traverse City","addr:housenumber":"4050","addr:postcode":"49696","addr:street":"Hammond Road East","area":"yes","gnis:feature_id":"2497226","name":"Timber Ridge Resort","website":"https://www.timberridgeresort.net/"}},"344593522":{"location":[44.6710926,-85.6734555],"ct":"US","tp":"CR","ts":"2023-10-29T03:04:52Z","tX":268,"tY":369,"tags":{"addr:city":"Traverse City","addr:housenumber":"4860","addr:postcode":"49685","addr:state":"MI","addr:street":"US 31 South","building":"yes","gnis:feature_id":"2496115","name":"Holiday Park Campground","phone":"+1-231-943-4410","website":"https://www.holidayparktc.com/"}},"346630405":{"location":[44.671367,-85.6791869],"ct":"US","tp":"CR","ts":"2025-01-25T04:22:08Z","tX":268,"tY":369,"tags":{"addr:city":"Traverse City","addr:housenumber":"4860","addr:postcode":"49685","addr:state":"MI","addr:street":"US-31","name":"Holiday Park Campground","website":"https://www.holidayparktc.com/"}},"894279204":{"location":[44.67272,-85.5222759],"ct":"US","tp":"CS","ts":"2024-11-01T01:56:40Z","tX":268,"tY":369,"tags":{"gnis:feature_id":"2496171","name":"Arbutus Number Four State Forest Campground"}},"894279220":{"location":[44.6525814,-85.4558856],"ct":"US","tp":"CS","ts":"2022-07-21T19:51:29Z","tX":268,"tY":369,"tags":{"gnis:feature_id":"2495777","name":"Scheck's Place State Forest Campground"}},"894279221":{"location":[44.6526981,-85.4468339],"ct":"US","tp":"CS","ts":"2021-01-11T14:55:58Z","tX":268,"tY":369,"tags":{"name":"Sheck's Place Trail Camp"}},"894425926":{"location":[44.7790259,-85.4625047],"ct":"US","tp":"CR","ts":"2024-11-16T23:37:40Z","tX":268,"tY":369,"tags":{"addr:city":"Williamsburg","addr:housenumber":"5555","addr:postcode":"49690","addr:state":"MI","addr:street":"M-72 East","name":"Traverse Bay RV Resort","phone":"+1-231-938-5800","website":"https://www.traversebayrv.com/"}},"894425937":{"location":[44.7881847,-85.4666528],"ct":"US","tp":"CS","ts":"2023-10-29T03:08:16Z","tX":268,"tY":369,"tags":{"addr:city":"Williamsburg","addr:housenumber":"5481","addr:postcode":"49690","addr:state":"MI","addr:street":"Brackett Road","gnis:feature_id":"2496185","name":"Everflowing Waters Campground","phone":"+1-231-938-0933","tents":"yes","website":"https://www.everflowingwaterscampground.com/"}},"899882895":{"location":[44.8348246,-85.7316572],"ct":"US","tp":"CS","ts":"2022-07-26T13:48:20Z","tX":268,"tY":369,"tags":{"name":"Coldbrook Beach Campground"}},"956680104":{"location":[44.7805054,-85.4478436],"ct":"US","tp":"CR","ts":"2021-06-21T17:33:11Z","tX":268,"tY":369,"tags":{}},"995752579":{"location":[44.6254043,-85.7661012],"ct":"US","tp":"CS","ts":"2021-10-23T00:20:43Z","tX":268,"tY":369,"tags":{"capacity":"52","gnis:feature_id":"2495765","name":"Interlochen Green Lake Rustic Campground","website":"https://www2.dnr.state.mi.us/parksandtrails/details.aspx?id=460&type=SPRK#overview"}},"995752580":{"location":[44.6220704,-85.7628859],"ct":"US","tp":"CS","ts":"2021-10-23T00:20:43Z","tX":268,"tY":369,"tags":{"capacity":"52","gnis:feature_id":"2495765","name":"Interlochen Green Lake Rustic Campground","website":"https://www2.dnr.state.mi.us/parksandtrails/details.aspx?id=460&type=SPRK#overview"}},"995752581":{"location":[44.6310535,-85.7628028],"ct":"US","tp":"CS","ts":"2023-07-29T21:44:00Z","tX":268,"tY":369,"tags":{"capacity":"392","caravans":"yes","gnis:feature_id":"2495766","name":"Interlochen Duck Lake Modern Campground","tents":"yes","website":"https://www2.dnr.state.mi.us/parksandtrails/details.aspx?id=460&type=SPRK#overview"}},"995752582":{"location":[44.6252595,-85.7599483],"ct":"US","tp":"CS","ts":"2023-07-29T16:17:43Z","tX":268,"tY":369,"tags":{"capacity":"392","caravans":"yes","gnis:feature_id":"2495766","name":"Interlochen Duck Lake Modern Campground","tents":"yes","website":"https://www2.dnr.state.mi.us/parksandtrails/details.aspx?id=460&type=SPRK#overview"}},"998029321":{"location":[44.6479488,-85.6469934],"ct":"US","tp":"CR","ts":"2025-02-01T16:34:12Z","tX":268,"tY":369,"tags":{"addr:city":"Traverse City","addr:housenumber":"3606","addr:postcode":"49685","addr:state":"MI","addr:street":"Blair Townhall Road","capacity":"133","fee":"yes","name":"Northwestern Michigan Fairgrounds Campground","phone":"+1-231-943-4150"}},"8291960572":{"location":[44.6271843,-85.76258],"ct":"US","tp":"SD","ts":"2021-01-05T01:36:17Z","tX":268,"tY":369,"tags":{}},"8413466955":{"location":[44.6298165,-85.7630586],"ct":"US","tp":"SD","ts":"2021-02-11T01:50:27Z","tX":268,"tY":369,"tags":{}},"9218562245":{"location":[44.6703598,-85.6745414],"ct":"US","tp":"SD","ts":"2021-11-02T13:01:09Z","tX":268,"tY":369,"tags":{}},"9958225827":{"location":[44.7467247,-85.5528461],"ct":"US","tp":"SD","ts":"2022-08-17T01:39:07Z","tX":268,"tY":369,"tags":{"access":"customers","fee":"yes"}}}