{"893346541":{"location":[44.4932869,-85.5237806],"ct":"US","tp":"CS","ts":"2024-05-20T15:03:04Z","tX":268,"tY":370,"tags":{"addr:city":"Manton","addr:housenumber":"6730","addr:postcode":"49663","addr:state":"MI","addr:street":"N 31 Road","gnis:feature_id":"2509098","name":"Baxter Bridge State Forest Campground"}},"893352383":{"location":[44.5461372,-85.6787272],"ct":"US","tp":"CS","ts":"2021-10-30T23:53:53Z","tX":268,"tY":370,"tags":{"addr:city":"Buckley","addr:housenumber":"9700","addr:postcode":"49620","addr:street":"South M37","gnis:feature_id":"2494019","name":"Traverse City KOA","website":"https://www.traversecitykoa.com/"}},"893353173":{"location":[44.4775771,-85.7503658],"ct":"US","tp":"CS","ts":"2023-10-29T03:12:19Z","tX":268,"tY":370,"tags":{"access":"private","addr:city":"Mesick","addr:housenumber":"8700","addr:postcode":"49668","addr:state":"MI","addr:street":"West 6 1/2 Road","gnis:feature_id":"2509196","name":"Spruce Hollow","phone":"+1-231-269-3209","tents":"yes","website":"https://sprucehollow.org/"}},"893357000":{"location":[44.4054145,-85.7429656],"ct":"US","tp":"CS","ts":"2021-01-08T14:31:42Z","tX":268,"tY":370,"tags":{"name":"Dennis Family Campground"}},"893357001":{"location":[44.4014448,-85.749081],"ct":"US","tp":"CS","ts":"2024-06-07T12:58:30Z","tX":268,"tY":370,"tags":{"addr:city":"Mesick","addr:housenumber":"285","addr:postcode":"49668","addr:state":"MI","addr:street":"Manistee River Dr","name":"Fletcher Creek (Primitive)","opening_hours":"Apr 30-Oct 17: sunrise-sunset","operator":"Northern Exposure Campground","phone":"+1-231-885-1199","tents":"yes","website":"https://northernexposureinc.com/information/"}},"893357002":{"location":[44.3949369,-85.7622617],"ct":"US","tp":"CS","ts":"2021-01-08T14:31:42Z","tX":268,"tY":370,"tags":{}},"893378706":{"location":[44.4511715,-85.6339435],"ct":"US","tp":"CS","ts":"2022-07-26T20:30:05Z","tX":268,"tY":370,"tags":{"fixme":"check official status of this campground with agency","name":"Indian River Crossing Campground","note":"This does not appear to be a recognized state forest campground anymore per MDNR website"}},"935429829":{"location":[44.3473742,-85.5636621],"ct":"US","tp":"CS","ts":"2021-04-26T13:39:05Z","tX":268,"tY":370,"tags":{"name":"Colfax Township Campground"}},"1010830523":{"location":[44.3817353,-85.7645941],"ct":"US","tp":"CR","ts":"2021-12-27T02:23:56Z","tX":268,"tY":370,"tags":{"addr:city":"Mesick","addr:housenumber":"2944","addr:postcode":"49668","addr:state":"MI","addr:street":"N Pat's Place","email":"patsrvparkllc@gmail.com","name":"Pat's RV Park","phone":"+1-231-885-2020","website":"https://patsrvparkllc.com/"}},"1026732027":{"location":[44.4792719,-85.4388312],"ct":"US","tp":"CS","ts":"2023-02-01T02:06:55Z","tX":268,"tY":370,"tags":{"addr:city":"Manton","addr:housenumber":"9909","addr:postcode":"49663","addr:state":"MI","addr:street":"North 39 Road","capacity:caravans":"146","name":"Manton Trails RV Park and Campground","phone":"+1-269-857-8700","website":"https://www.mantontrails.com/"}},"8303276564":{"location":[44.4526568,-85.6325028],"ct":"US","tp":"CS","ts":"2023-01-31T00:45:35Z","tX":268,"tY":370,"tags":{"backcountry":"yes","informal":"yes"}}}