{"894838780":{"location":[44.2374387,-85.4524048],"ct":"US","tp":"CS","ts":"2023-10-27T18:43:28Z","tX":268,"tY":371,"tags":{"name":"Mitchell State Park Campground"}},"894838794":{"location":[44.2298028,-85.4436687],"ct":"US","tp":"CR","ts":"2024-03-23T19:18:25Z","tX":268,"tY":371,"tags":{"addr:city":"Cadillac","addr:housenumber":"6545 E","addr:postcode":"49601","addr:street":"M 115","name":"Birchwood Resort & Campground","tents":"no","website":"http://www.birchwoodresortmi.com/"}},"894838796":{"location":[44.2318406,-85.503692],"ct":"US","tp":"CS","ts":"2021-01-13T07:35:47Z","tX":268,"tY":371,"tags":{"capacity":"19","fee":"yes","name":"Hemlock Campground","opening_hours":"May 3 - Sep 9 00:00-24:00","operator":"American Land and Leisure","owner":"U.S. Forest Service Huron-Manistee National Forests","reservation":"no"}},"935843621":{"location":[44.1871777,-85.7674772],"ct":"US","tp":"CR","ts":"2023-10-29T03:08:44Z","tX":268,"tY":371,"tags":{"addr:city":"Wellston","addr:housenumber":"9424","addr:postcode":"49689","addr:state":"MI","addr:street":"West 48 1/2 Road","gnis:feature_id":"2509265","name":"Coolwater Camp Grounds","phone":"+1-231-862-3481","tents":"yes","website":"https://coolwatercamp.com/"}},"940215611":{"location":[44.1329693,-85.6954408],"ct":"US","tp":"CS","ts":"2021-05-07T01:21:16Z","tX":268,"tY":371,"tags":{"gnis:feature_id":"2513268","name":"Lincoln Bridge State Forest Campground"}},"940215612":{"location":[44.1171602,-85.6850848],"ct":"US","tp":"CS","ts":"2021-11-09T16:55:33Z","tX":268,"tY":371,"tags":{"gnis:feature_id":"2513270","leisure":"park","name":"Silver Creek State Forest Campground","operator":"Michigan Department of Natural Resources","operator:short":"Michigan DNR","operator:type":"public","operator:wikidata":"Q6837532","operator:wikipedia":"en:Michigan Department of Natural Resources","phone":"+1-231-745-9465","website":"https://www2.dnr.state.mi.us/parksandtrails/Details.aspx?id=600&type=SFCG"}},"1005945203":{"location":[44.1804106,-85.6570054],"ct":"US","tp":"CS","ts":"2022-03-28T20:21:41Z","tX":268,"tY":371,"tags":{"capacity":"6","charge":"5.00 USD","fee":"yes","name":"Ravine Campground"}},"2932072169":{"location":[44.2296712,-85.4435936],"ct":"US","tp":"CR","ts":"2014-06-24T23:42:27Z","tX":268,"tY":371,"tags":{"addr:city":"Cadillac","addr:housenumber":"6545 E","addr:postcode":"49601","addr:street":"M 115","gnis:feature_id":"2509151","name":"Birchwood Resort & Campground","tents":"no","website":"http://www.birchwoodresortmi.com/"}},"2932072180":{"location":[44.2316667,-85.5033333],"ct":"US","tp":"CS","ts":"2018-10-09T18:18:18Z","tX":268,"tY":371,"tags":{"capacity":"19","fee":"yes","gnis:feature_id":"2509093","name":"Hemlock Campground","opening_hours":"May 3 - Sep 9 00:00-24:00","operator":"American Land and Leisure","owner":"U.S. Forest Service Huron-Manistee National Forests","reservation":"no"}}}