{"447256407":{"location":[44.0585213,-85.7185563],"ct":"US","tp":"CS","ts":"2020-12-08T22:28:22Z","tX":268,"tY":372,"tags":{"addr:state":"MI","name":"4 Seasons Campground","phone":"+1-231-942-8115"}},"447265247":{"location":[44.0359716,-85.7244616],"ct":"US","tp":"CS","ts":"2021-12-27T02:26:48Z","tX":268,"tY":372,"tags":{"name":"Carrieville State Forest Campground","operator":"Michigan Department of Natural Resources","ownership":"state","phone":"+1-231-745-9465","website":"https://www2.dnr.state.mi.us/parksandtrails/Details.aspx?id=601&type=SFCG"}},"1005619966":{"location":[43.884897,-85.5155901],"ct":"US","tp":"CS","ts":"2021-11-23T16:30:02Z","tX":268,"tY":372,"tags":{"capacity":"13","name":"Rambadt Park Campground"}},"1005623403":{"location":[43.8488774,-85.4353352],"ct":"US","tp":"CS","ts":"2023-11-14T13:12:42Z","tX":268,"tY":372,"tags":{"addr:city":"Hersey","addr:housenumber":"605","addr:postcode":"49639","addr:street":"East 3rd Street","name":"Blodgett Landing","tents":"yes","website":"http://blodgettlanding.com/"}}}