{"367247065":{"location":[42.7654452,-85.4624099],"ct":"US","tp":"CS","ts":"2015-08-24T12:32:55Z","tX":268,"tY":377,"tags":{"name":"Indian Valley Campground"}},"476398334":{"location":[42.616582,-85.5192383],"ct":"US","tp":"CS","ts":"2022-08-30T12:49:42Z","tX":268,"tY":377,"tags":{"addr:city":"Middleville","addr:housenumber":"2104","addr:postcode":"49333","addr:state":"MI","addr:street":"South Briggs Road","capacity":"200","fee":"no","internet_access":"yes","name":"Yankee Springs State Park"}},"1238114119":{"location":[42.6060032,-85.629841],"ct":"US","tp":"CR","ts":"2024-01-08T18:22:06Z","tX":268,"tY":377,"tags":{"access":"customers","addr:city":"Shelbyville","addr:housenumber":"897","addr:postcode":"49333","addr:state":"MI","addr:street":"125th Avenue","email":"shoresatselkirk@gmail.com","name":"The Shores at Selkirk Lake","website":"https://www.theshorescampground.com/"}},"1238135129":{"location":[42.5855928,-85.6681431],"ct":"US","tp":"CR","ts":"2024-07-19T02:16:48Z","tX":268,"tY":377,"tags":{"addr:city":"Hopkins","addr:housenumber":"2306","addr:postcode":"49348","addr:street":"12th Street","gnis:feature_id":"2574330","name":"Hidden Ridge RV Resort","website":"https://www.sunrvresorts.com/Community/HID"}},"2936088127":{"location":[42.6506952,-85.7653957],"ct":"US","tp":"CS","ts":"2023-11-06T02:33:54Z","tX":268,"tY":377,"tags":{"addr:city":"Hopkins","addr:housenumber":"3144","addr:postcode":"49328","addr:state":"MI","addr:street":"22nd Street","gnis:feature_id":"2105412","group_only":"yes","name":"Beechwood Hills Camp","phone":"+1-269-793-7565","website":"https://www.beechwoodhills.org/"}},"2936088131":{"location":[42.6698372,-85.5146222],"ct":"US","tp":"CS","ts":"2022-05-03T17:14:02Z","tX":268,"tY":377,"tags":{"addr:city":"Middleville","addr:housenumber":"1095","addr:postcode":"49333","addr:state":"MI","addr:street":"North Briggs Road","alt_name":"YMCA Camp Manitou-Lin","gnis:feature_id":"2105394","group_only":"yes","name":"Camp Manitou-Lin","phone":"+1-888-909-2267","website":"https://www.grymca.org/camp/overview"}},"2936088137":{"location":[42.6457559,-85.7685763],"ct":"US","tp":"CR","ts":"2020-12-08T00:22:04Z","tX":268,"tY":377,"tags":{"addr:city":"Hopkins","addr:housenumber":"3091","addr:postcode":"49328","addr:state":"MI","addr:street":"Weicks Drive","gnis:feature_id":"2574346","name":"East Lake Camping","phone":"+1-269-793-7177","website":"https://www.eastlakecamping.com/"}},"2936088143":{"location":[42.7221766,-85.7431796],"ct":"US","tp":"CR","ts":"2020-12-08T04:27:29Z","tX":268,"tY":377,"tags":{"addr:city":"Dorr","addr:housenumber":"2016","addr:postcode":"49323","addr:state":"MI","addr:street":"142nd Avenue","gnis:feature_id":"2574199","name":"Hungry Horse Campground","phone":"+1-616-681-9843","website":"https://www.hungryhorsecampground.com/"}},"2936088144":{"location":[42.7682151,-85.4625194],"ct":"US","tp":"CR","ts":"2023-11-07T15:39:35Z","tX":268,"tY":377,"tags":{"addr:city":"Middleville","addr:housenumber":"8200","addr:postcode":"49333","addr:state":"MI","addr:street":"108th Street Southeast","gnis:feature_id":"2572779","name":"Indian Valley Campground","phone":"+1-616-891-8579","tents":"yes","website":"https://www.indianvalleycampgroundandcanoe.com/"}},"2936296706":{"location":[42.6264797,-85.4581314],"ct":"US","tp":"CR","ts":"2023-11-06T02:33:48Z","tX":268,"tY":377,"tags":{"addr:city":"Middleville","addr:housenumber":"8551","addr:postcode":"49333","addr:state":"MI","addr:street":"Deep Lake Road","gnis:feature_id":"2572778","name":"Sharp Park Campground","phone":"+1-269-795-3856","tents":"yes","website":"https://campsharppark.com/"}},"2936296711":{"location":[42.6186898,-85.4553523],"ct":"US","tp":"CS","ts":"2014-06-28T02:49:55Z","tX":268,"tY":377,"tags":{"name":"Yankee Springs Deep Lake-Rustic"}},"2936296712":{"location":[42.6167213,-85.5189365],"ct":"US","tp":"CR","ts":"2014-06-28T02:49:55Z","tX":268,"tY":377,"tags":{"name":"Yankee Springs Gun Lake-Modern"}}}