{"16435495":{"location":[42.4640155,-85.476837],"ct":"US","tp":"CR","ts":"2023-10-04T18:14:13Z","tX":268,"tY":378,"tags":{}},"1204139820":{"location":[42.333741,-85.5856082],"ct":"US","tp":"CS","ts":"2023-09-01T11:25:54Z","tX":268,"tY":378,"tags":{}},"1223782114":{"location":[42.5013711,-85.4314113],"ct":"US","tp":"CR","ts":"2023-11-15T13:06:19Z","tX":268,"tY":378,"tags":{"name":"Y Waite Crooked Lake Resort"}},"2936296708":{"location":[42.394083,-85.7169444],"ct":"US","tp":"CR","ts":"2020-11-08T16:40:54Z","tX":268,"tY":378,"tags":{"addr:city":"Kalamazoo","addr:housenumber":"8368","addr:postcode":"49009","addr:state":"MI","addr:street":"West C Avenue","gnis:feature_id":"2627726","name":"Spring Lake Resort","phone":"+1-269-459-8307","tents":"yes","website":"https://springlakeresort.webs.com/"}},"4835838071":{"location":[42.3641309,-85.5835912],"ct":"US","tp":"CS","ts":"2022-06-08T14:15:48Z","tX":268,"tY":378,"tags":{"description":"Barn where Summer, Winter, Spring Camps take place. Also where Annie's Big Adventure program takes place.","group_only":"yes","name":"KNC Camp"}},"4975915088":{"location":[42.3337184,-85.5857215],"ct":"US","tp":"CR","ts":"2017-07-17T18:42:30Z","tX":268,"tY":378,"tags":{"name":"Markin Glen County Park Campground"}}}