{"252767034":{"location":[41.7255336,-85.5833425],"ct":"US","tp":"CR","ts":"2023-10-28T22:42:47Z","tX":268,"tY":381,"tags":{"name":"Amish Log Cabin Lodging & Campground","note":"Lodging and Camping","phone":"+1-260-768-7770","website":"https://www.shipshewanacampgroundnorth.com/"}},"689375729":{"location":[41.6618929,-85.5778897],"ct":"US","tp":"CR","ts":"2022-11-08T02:50:27Z","tX":268,"tY":381,"tags":{"website":"https://shipshewanacampground.com"}},"692892729":{"location":[41.7270242,-85.6853532],"ct":"US","tp":"CR","ts":"2025-01-13T00:39:59Z","tX":268,"tY":381,"tags":{"addr:city":"Middlebury","addr:housenumber":"52867","addr:postcode":"46540","addr:state":"IN","addr:street":"IN 13","brand":"KOA","brand:wikidata":"Q16988635","fee":"yes","internet_access":"wlan","name":"KOA Holiday","opening_hours":"Apr 1 - Oct 31 08:30-18:00","phone":"+1-574-825-5932","phone:reserve":"+1-800-562-5892","power_supply":"yes","short_name":"KOA","website":"https://koa.com/campgrounds/elkhart-co/"}},"762975628":{"location":[41.6698901,-85.5759098],"ct":"US","tp":"CR","ts":"2022-11-08T02:50:27Z","tX":268,"tY":381,"tags":{"name":"Shipshewana RV Park","website":"https://shipshewanatradingplace.com/rv/rv-park"}},"1028828556":{"location":[41.7214579,-85.458213],"ct":"US","tp":"CR","ts":"2022-11-13T21:28:45Z","tX":268,"tY":381,"tags":{"website":"https://twinmills.net"}},"1111930443":{"location":[41.721958,-85.7487626],"ct":"US","tp":"CR","ts":"2022-12-10T22:39:19Z","tX":268,"tY":381,"tags":{"internet_access":"wlan","internet_access:fee":"yes","name":"Eby Pines RV Park and Campground","reservation":"required","tents":"yes","website":"https://ebyspines.com"}},"5036920848":{"location":[41.7274775,-85.6840254],"ct":"US","tp":"CS","ts":"2019-02-18T11:08:34Z","tX":268,"tY":381,"tags":{"addr:city":"Middlebury","addr:housenumber":"52867","addr:postcode":"46540","addr:state":"IN","addr:street":"IN 13","fee":"yes","internet_access":"wlan","name":"Elkhart Co. / Middlebury KOA Holiday","opening_hours":"Apr 1 - Oct 31 08:30-18:00","phone":"+1-574-825-5932","phone:reserve":"+1-800-562-5892","website":"https://koa.com/campgrounds/elkhart-co/"}}}