{"482335704":{"location":[40.10648,-85.6156592],"ct":"US","tp":"CS","ts":"2017-03-24T00:35:02Z","tX":268,"tY":387,"tags":{"area":"yes","name":"Family Campground"}},"482335707":{"location":[40.107494,-85.619883],"ct":"US","tp":"CS","ts":"2017-03-24T00:35:03Z","tX":268,"tY":387,"tags":{"area":"yes","name":"Youth Tent Area"}},"518683769":{"location":[40.0187823,-85.5395186],"ct":"US","tp":"CS","ts":"2017-08-25T22:46:27Z","tX":268,"tY":387,"tags":{"name":"Spring Valley Campground"}},"564887401":{"location":[40.1121303,-85.6600095],"ct":"US","tp":"CS","ts":"2018-02-28T03:56:38Z","tX":268,"tY":387,"tags":{"operator":"Anderson University"}},"1300588712":{"location":[40.1193519,-85.6109957],"ct":"US","tp":"CS","ts":"2024-07-10T18:35:58Z","tX":268,"tY":387,"tags":{}},"1301540386":{"location":[40.00297,-85.7763159],"ct":"US","tp":"CS","ts":"2024-10-24T21:57:33Z","tX":268,"tY":387,"tags":{"access":"yes","addr:city":"Pendleton","addr:housenumber":"5435","addr:postcode":"46064","addr:state":"IN","addr:street":"W State Road 38","caravans":"yes","drinking_water":"yes","fee":"yes","name":"Mystic Waters Campground","shower":"yes","tents":"yes","website":"https://mysticwaterscampground.com/"}},"12214731293":{"location":[40.0021677,-85.7749649],"ct":"US","tp":"SD","ts":"2024-10-01T18:21:39Z","tX":268,"tY":387,"tags":{}}}