{"606829328":{"location":[33.7249028,-85.6030272],"ct":"US","tp":"CS","ts":"2021-02-14T14:36:15Z","tX":268,"tY":409,"tags":{"capacity":"21","charge":"3 USD/night","drinking_water":"no","fee":"yes","fixme":"the extent of this is a guess","internet_access":"no","name":"Pine Glen Recreation Area","operator":"United States Forest Service","shower":"no","tents":"yes","toilets":"yes","website":"https://www.fs.usda.gov/recarea/alabama/recreation/camping-cabins/recarea/?recid=30159"}},"671553841":{"location":[33.7856804,-85.5597701],"ct":"US","tp":"CS","ts":"2021-02-14T14:30:11Z","tX":268,"tY":409,"tags":{"capacity":"39","caravans":"yes","charge":"16 USD/night","drinking_water":"yes","fee":"yes","name":"Coleman Lake Recreation Area Campground","opening_hours":"Mar 15-Dec 01 unknown; Dec 02-Mar 14 closed","shower":"yes","tents":"yes","toilets":"yes","toilets:disposal":"flush","website":"https://www.fs.usda.gov/recarea/alabama/recreation/camping-cabins/recarea/?recid=30157&actid=29"}},"921290043":{"location":[33.7827355,-85.5812896],"ct":"US","tp":"CS","ts":"2021-03-23T11:55:26Z","tX":268,"tY":409,"tags":{"capacity":"45","drinking_water":"yes","fee":"yes","horse":"yes","name":"Warden Station Horse Camp","tents":"yes","website":"https://www.fs.usda.gov/recarea/alabama/recarea/?recid=30161"}},"4431893961":{"location":[33.9164256,-85.5041881],"ct":"US","tp":"CS","ts":"2021-02-14T18:21:09Z","tX":268,"tY":409,"tags":{"addr:city":"Borden Springs","addr:housenumber":"3108","addr:postcode":"36272","addr:state":"AL","addr:street":"County Road 94","caravans":"yes","email":"charliefagan@bellsouth.net","fee":"yes","name":"Chief Ladiga Trail Campground","phone":"+1-256-282-2370","tents":"yes","website":"https://www.chiefladigatrailcampground.com/"}}}