{"536093037":{"location":[32.5534925,-85.4782123],"ct":"US","tp":"CS","ts":"2019-02-19T12:57:29Z","tX":268,"tY":413,"tags":{"cabins":"yes","capacity":"45","caravans":"yes","drinking_water":"yes","fee":"yes","name":"Chewacla State Park Campground","power_supply":"yes","tents":"yes","website":"https://www.alapark.com/chewacla-state-park"}},"894539519":{"location":[32.5530584,-85.5118632],"ct":"US","tp":"CR","ts":"2017-10-27T15:57:04Z","tX":268,"tY":413,"tags":{"addr:city":"Auburn","addr:housenumber":"2670","addr:postcode":"36830","addr:state":"AL","addr:street":"South College Street","fee":"yes","internet_access":"wlan","name":"Leisure Time Campground","phone":"+1-334-821-2267","power_supply":"yes","website":"https://www.rvauburn.com/"}},"912907826":{"location":[32.606867,-85.5419066],"ct":"US","tp":"CR","ts":"2021-03-02T19:34:30Z","tX":268,"tY":413,"tags":{"name":"University Station RV park"}},"1013353098":{"location":[32.5490201,-85.4820108],"ct":"US","tp":"CR","ts":"2021-12-18T17:24:31Z","tX":268,"tY":413,"tags":{}}}