{"4172758689":{"location":[-18.7073908,-40.0814289],"ct":"BR","tp":"CS","ts":"2016-05-08T11:37:40Z","tX":397,"tY":566,"tags":{}},"8674678117":{"location":[-18.7703219,-40.3544124],"ct":"BR","tp":"CS","ts":"2021-04-28T15:16:05Z","tX":397,"tY":566,"tags":{"addr:housenumber":"J-6","addr:street":"Jazida"}},"8674678617":{"location":[-18.7832625,-40.3917062],"ct":"BR","tp":"CS","ts":"2021-04-28T02:45:15Z","tX":397,"tY":566,"tags":{"addr:street":"Bota Fora"}},"8676727619":{"location":[-18.6615111,-40.4096076],"ct":"BR","tp":"CS","ts":"2021-04-28T15:15:52Z","tX":397,"tY":566,"tags":{"addr:housenumber":"J-2","addr:street":"Jazida"}},"8676727620":{"location":[-18.6689474,-40.3735098],"ct":"BR","tp":"CS","ts":"2021-04-28T15:15:56Z","tX":397,"tY":566,"tags":{"addr:street":"Bota Fora"}},"8676733717":{"location":[-18.654104,-40.4165357],"ct":"BR","tp":"CS","ts":"2021-04-28T15:15:44Z","tX":397,"tY":566,"tags":{"addr:housenumber":"J-1","addr:street":"Jazida"}},"8676733817":{"location":[-18.6571395,-40.4242128],"ct":"BR","tp":"CS","ts":"2021-04-28T15:15:46Z","tX":397,"tY":566,"tags":{"addr:street":"Bota Fora"}},"8676733917":{"location":[-18.6630505,-40.421697],"ct":"BR","tp":"CS","ts":"2021-04-28T15:15:48Z","tX":397,"tY":566,"tags":{"addr:street":"Canteiro de Obra"}},"8676733918":{"location":[-18.6655221,-40.4004575],"ct":"BR","tp":"CS","ts":"2021-04-28T15:15:54Z","tX":397,"tY":566,"tags":{"addr:housenumber":"J-3","addr:street":"Jazida"}},"8676733919":{"location":[-18.7197767,-40.3360984],"ct":"BR","tp":"CS","ts":"2021-04-28T15:16:02Z","tX":397,"tY":566,"tags":{"addr:housenumber":"J-5","addr:street":"Jazida"}},"8676734117":{"location":[-18.6899974,-40.3617211],"ct":"BR","tp":"CS","ts":"2021-04-28T15:15:59Z","tX":397,"tY":566,"tags":{"addr:housenumber":"J-4","addr:street":"Jazida"}},"8676786517":{"location":[-18.713265,-40.340606],"ct":"BR","tp":"CS","ts":"2021-04-28T15:42:13Z","tX":397,"tY":566,"tags":{"addr:street":"Bota Fora"}}}