{"586931098":{"location":[-20.160643,-40.1850533],"ct":"BR","tp":"CS","ts":"2018-05-09T14:29:02Z","tX":397,"tY":570,"tags":{"name":"Colônia de Férias Presidente Paulo Pinto"}},"686636618":{"location":[-20.133108,-40.193907],"ct":"BR","tp":"CS","ts":"2019-04-29T12:47:36Z","tX":397,"tY":570,"tags":{}},"1199314659":{"location":[-20.1096413,-40.1739944],"ct":"BR","tp":"CS","ts":"2023-08-17T23:52:37Z","tX":397,"tY":570,"tags":{}},"5214866621":{"location":[-20.1077207,-40.1731802],"ct":"BR","tp":"CS","ts":"2017-11-06T19:19:49Z","tX":397,"tY":570,"tags":{"addr:street":"Rua Ida Bittencourt Feu","internet_access":"wlan","name":"Capuba Camping","opening_hours":"24/7","phone":"+55 27 99958-1639","website":"https://www.facebook.com/Campingcapuba"}},"5215159322":{"location":[-20.1098685,-40.1739032],"ct":"BR","tp":"CS","ts":"2019-03-16T05:03:03Z","tX":397,"tY":570,"tags":{"addr:housenumber":"977","addr:street":"Rodovia do Sol (Norte) ES-10","name":"Capuba Camping","website":"https://macamp.com.br/guia/guia/campings/brasil/espirito-santo/serra/camping-sitio-capuba/"}},"11124009412":{"location":[-20.1104685,-40.1736084],"ct":"BR","tp":"CS","ts":"2023-08-17T23:31:24Z","tX":397,"tY":570,"tags":{"addr:street":"Avenida Abido Saadi","name":"CAPUBA CAMPING"}}}