{"3383058293":{"location":[9.0307124,38.7533991],"ct":"ET","tp":"CR","ts":"2015-03-04T17:14:14Z","tX":622,"tY":486,"tags":{"caravans":"yes","drinking_water":"yes","name":"Baro Hotel (unofficial camping)","power_supply":"yes","tents":"no","trucks":"no"}},"3383058294":{"location":[9.0097919,38.7549865],"ct":"ET","tp":"CR","ts":"2020-02-21T12:20:34Z","tX":622,"tY":486,"tags":{"caravans":"yes","drinking_water":"yes","name":"Wim's Holland House (unofficial camping)","power_supply":"yes","tents":"yes","trucks":"no"}},"4624714290":{"location":[8.9932334,38.743658],"ct":"ET","tp":"CS","ts":"2017-01-23T05:43:55Z","tX":622,"tY":486,"tags":{"email":"geletademeke@gmail.com","name":"Ye xiruye beti","name:am":"Ye xiruye beti","operator":"Xiruye"}},"4681739995":{"location":[8.9835487,38.7457262],"ct":"ET","tp":"CS","ts":"2017-02-12T14:49:56Z","tX":622,"tY":486,"tags":{"name":"የቲም ቤት","name:am":"የቲም ቤት","name:en":"Teem House"}},"4762702158":{"location":[9.06447,38.879485],"ct":"ET","tp":"CS","ts":"2017-03-29T19:20:56Z","tX":622,"tY":486,"tags":{"name":"ye Girma wondimi beti","name:am":"ye Girma wondimi beti"}},"5170873923":{"location":[9.0616351,38.7417279],"ct":"ET","tp":"CS","ts":"2017-10-16T09:20:34Z","tX":622,"tY":486,"tags":{"name":"ሀብቴ","name:en":"Habte(aymen) home","phone":"0910512157"}},"5183070621":{"location":[9.0219552,38.8543173],"ct":"ET","tp":"CS","ts":"2018-05-09T17:34:13Z","tX":622,"tY":486,"tags":{"name":"ፀሀይ ሪል ስቴት","name:en":"Tsehay Real Estate"}},"5219501321":{"location":[8.9911084,38.83182],"ct":"ET","tp":"CS","ts":"2021-07-13T14:04:29Z","tX":622,"tY":486,"tags":{"email":"kebedeezana477@gmail.com","name:en":"Ezana house","phone":"+251921043062"}},"5230077424":{"location":[9.0250741,38.8791528],"ct":"ET","tp":"CS","ts":"2017-11-15T10:49:40Z","tX":622,"tY":486,"tags":{"name:en":"Getu's wife family house"}},"5308374221":{"location":[8.9919403,38.8340361],"ct":"ET","tp":"CS","ts":"2017-12-28T12:44:28Z","tX":622,"tY":486,"tags":{"name":"mubarik house"}},"6421238995":{"location":[9.0210596,38.6774736],"ct":"ET","tp":"CS","ts":"2019-04-22T14:28:20Z","tX":622,"tY":486,"tags":{"name":"Chairman Ali sufi square"}},"6898288585":{"location":[8.9809721,38.7343822],"ct":"ET","tp":"CS","ts":"2019-10-19T14:30:47Z","tX":622,"tY":486,"tags":{"name:en":"Abuye House"}},"7918819085":{"location":[8.9827993,38.6970989],"ct":"ET","tp":"CS","ts":"2020-09-18T03:01:13Z","tX":622,"tY":486,"tags":{"name:en":"Ayer tana round"}},"8571945329":{"location":[8.934525,38.7125307],"ct":"ET","tp":"CS","ts":"2021-03-29T14:13:51Z","tX":622,"tY":486,"tags":{"name:en":"Final lebi"}},"8571945330":{"location":[8.9345454,38.7126239],"ct":"ET","tp":"CS","ts":"2021-03-29T14:13:54Z","tX":622,"tY":486,"tags":{"name:en":"Final 3"}},"8571946225":{"location":[8.934566,38.7125525],"ct":"ET","tp":"CS","ts":"2021-03-29T14:13:53Z","tX":622,"tY":486,"tags":{"name:en":"Final 2"}},"10185548918":{"location":[9.0190913,38.7385293],"ct":"ET","tp":"CS","ts":"2022-11-15T10:29:28Z","tX":622,"tY":486,"tags":{"name:en":"Awol Site"}}}