{"148288136":{"location":[-37.0013798,175.8498554],"ct":"NZ","tp":"CS","ts":"2022-08-26T02:27:20Z","tX":1012,"tY":625,"tags":{"addr:city":"Tairua","addr:housenumber":"4","addr:street":"Manaia Road","addr:suburb":"Tairua","name":"Tairua Holiday Park","ref:linz:address_id":"744553","sanitary_dump_station":"yes"}},"154082258":{"location":[-37.1019881,175.8813657],"ct":"NZ","tp":"CS","ts":"2025-05-03T06:03:43Z","tX":1012,"tY":625,"tags":{"addr:city":"Opoutere","addr:housenumber":"460","addr:street":"Ohui Road","capacity":"85","capacity:powered":"32","caravans":"yes","email":"info@opouterebeach.co.nz","name":"Opoutere Coastal Camping","phone":"+64 7 212 9303","sanitary_dump_station":"yes","tents":"yes","website":"https://opouterebeach.co.nz/"}},"203142776":{"location":[-36.8903495,175.816543],"ct":"NZ","tp":"CS","ts":"2025-02-17T09:09:17Z","tX":1012,"tY":625,"tags":{"addr:city":"Hot Water Beach","addr:housenumber":"790","addr:street":"Hot Water Beach Road","fee":"yes","name":"Hot Water Beach Holiday Park","name:ja":"ホットウォータービーチ・ホリデーパーク","sanitary_dump_station":"yes","website":"https://www.hotwaterbeachtop10.co.nz"}},"351637454":{"location":[-37.0130155,175.8590454],"ct":"NZ","tp":"CS","ts":"2024-12-10T18:51:44Z","tX":1012,"tY":625,"tags":{"addr:city":"Pauanui","addr:housenumber":"58","addr:postcode":"3546","addr:street":"Vista Paku","name":"Pauanui Glade Holiday Park","phone":"+64 7 864 8559","website":"https://pauanuiglade.co.nz/"}},"2796541051":{"location":[-36.9959892,175.8609154],"ct":"NZ","tp":"CR","ts":"2018-05-23T05:38:35Z","tX":1012,"tY":625,"tags":{"capacity":"8","fee":"no"}},"4760844567":{"location":[-37.0280354,175.8723218],"ct":"NZ","tp":"CR","ts":"2025-02-24T09:29:11Z","tX":1012,"tY":625,"tags":{"capacity":"2","fee":"no","internet_access":"no","opening_hours":"Mo-Su 17:00-09:00","power_supply":"no","sanitary_dump_station":"no"}},"4760849756":{"location":[-37.0080617,175.8624056],"ct":"NZ","tp":"CR","ts":"2021-02-01T03:00:09Z","tX":1012,"tY":625,"tags":{"fee":"no"}},"6246061185":{"location":[-36.9946648,175.8576106],"ct":"NZ","tp":"CR","ts":"2021-01-13T02:53:56Z","tX":1012,"tY":625,"tags":{"name":"Caravan Site and Dump Station"}},"7892758086":{"location":[-37.0084175,175.8509647],"ct":"NZ","tp":"CR","ts":"2024-12-03T19:24:42Z","tX":1012,"tY":625,"tags":{"addr:street":"Tui Terrace","email":"customer.services@tcdc.govt.nz","name":"Mary Beach Reserve Freedo","name:en":"Mary Beach Reserve Freedom Camping","opening_hours":"24/7","operator":"Thames-Coromandel District Council","phone":"+64 7 868 0200","website":"https://www.tcdc.govt.nz/"}},"8163095106":{"location":[-37.1052866,175.8798168],"ct":"NZ","tp":"CR","ts":"2021-01-11T08:18:02Z","tX":1012,"tY":625,"tags":{"description":"Self-contained only, max 2 nights","fee":"no","maxstay":"2 nights","name":"Opoutere Beach Free Self-Contained Campground","opening_hours":"24/7","reservation":"no"}},"11337320811":{"location":[-37.0211335,175.8595415],"ct":"NZ","tp":"CR","ts":"2025-02-22T13:27:58Z","tX":1012,"tY":625,"tags":{"fee":"yes","name":"Pauanui Campervan parking","power_supply":"yes","sanitary_dump_station":"yes","shower":"yes","toilets":"yes","water_source":"yes"}},"8310617107":{"location":[-37.1014866,175.880329],"ct":"NZ","tp":"SD","ts":"2021-01-11T08:18:02Z","tX":1012,"tY":625,"tags":{}},"11357283047":{"location":[-37.0215552,175.8598657],"ct":"NZ","tp":"SD","ts":"2023-11-17T02:42:44Z","tX":1012,"tY":625,"tags":{}}}