{"146985854":{"location":[-37.7877254,175.8378962],"ct":"NZ","tp":"CS","ts":"2023-10-20T05:28:32Z","tX":1012,"tY":628,"tags":{"addr:city":"Okauia","addr:hamlet":"Okauia","addr:housenumber":"257","addr:street":"Okauia Springs Road","bath:open_air":"yes","bath:type":"hot_spring","fee":"yes","name":"Opal Hot Springs & Holiday Park","natural":"hot_spring","phone":"+64 7 888 8198","ref:linz:address_id":"744043","sanitary_dump_station":"yes","source":"LINZ","temperature":"hot","website":"https://www.opalhotsprings.co.nz/"}},"408581888":{"location":[-37.8147869,176.0449513],"ct":"NZ","tp":"CS","ts":"2021-01-11T22:59:21Z","tX":1012,"tY":628,"tags":{"fee":"yes","name":"Pin Oak Flat"}},"558054957":{"location":[-37.8156958,176.040116],"ct":"NZ","tp":"CS","ts":"2018-08-12T07:31:55Z","tX":1012,"tY":628,"tags":{"name":"Top Flat"}},"558054958":{"location":[-37.8135724,176.042303],"ct":"NZ","tp":"CS","ts":"2024-02-20T01:50:21Z","tX":1012,"tY":628,"tags":{"caravans":"no","drinking_water":"yes","name":"Hamilton Point","power_supply":"no","shower":"no","tents":"yes","toilets":"yes"}},"1068891072":{"location":[-37.9519619,175.8038694],"ct":"NZ","tp":"CS","ts":"2022-06-12T22:57:17Z","tX":1012,"tY":628,"tags":{"caravans":"yes","name":"Okoroire Hotel Campground","operator":"Okoroire Hotel"}},"1225298697":{"location":[-37.8051981,175.9937792],"ct":"NZ","tp":"CS","ts":"2021-09-24T06:20:55Z","tX":1012,"tY":628,"tags":{"source":"LINZ"}},"5495946800":{"location":[-37.8016199,175.8080314],"ct":"NZ","tp":"CR","ts":"2019-12-27T20:05:02Z","tX":1012,"tY":628,"tags":{"capacity":"20","fee":"yes","internet_access":"no","name":"Firth Tower Road Stop","opening_hours":"24/7","power_supply":"yes","sanitary_dump_station":"no","url":"http://www.firthtower.co.nz/motorhomes"}},"8421517890":{"location":[-37.7338724,175.9914275],"ct":"NZ","tp":"CR","ts":"2021-02-13T22:00:22Z","tX":1012,"tY":628,"tags":{"capacity":"3","fee":"no","maxstay":"3 nights","name":"Freedom Camping for self contained vehicles","opening_hours":"24/7","operator":"Western Bay of Plenty","reservation":"no","sanitary_dump_station":"no","tents":"no"}}}