{"90109159":{"location":[-38.703524,176.0981919],"ct":"NZ","tp":"CS","ts":"2022-06-12T06:20:05Z","tX":1012,"tY":631,"tags":{"addr:city":"Waipahihi","addr:housenumber":"76","addr:street":"State Highway 5","name":"Taupo DeBretts Spa Resort","sanitary_dump_station":"yes","website":"https://www.taupodebretts.co.nz/"}},"95204726":{"location":[-38.6747193,176.0977175],"ct":"NZ","tp":"CS","ts":"2024-06-10T09:47:11Z","tX":1012,"tY":631,"tags":{"addr:city":"Tauhara","addr:housenumber":"41","addr:street":"Centennial Drive","internet_access":"wlan","internet_access:fee":"no","name":"Lake Taupo Holiday Resort","sanitary_dump_station":"yes","website":"https://www.laketauporesort.co.nz/"}},"200088288":{"location":[-38.6830573,176.0892391],"ct":"NZ","tp":"CS","ts":"2025-05-03T06:03:43Z","tX":1012,"tY":631,"tags":{"addr:city":"Taupo","addr:country":"NZ","addr:housenumber":"16","addr:postcode":"3330","addr:street":"Rangatira Street","capacity:powered":"66","caravans":"yes","contact:phone":"+64 7 378 4272","internet_access":"wlan","internet_access:fee":"no","name":"Taupo TOP 10 Holiday Park","playground":"yes","sanitary_dump_station":"yes","swimming_pool":"yes","tents":"yes"}},"201374105":{"location":[-38.6907466,176.0455579],"ct":"NZ","tp":"CS","ts":"2015-04-01T16:31:15Z","tX":1012,"tY":631,"tags":{"addr:city":"Taupo","addr:housenumber":"406","addr:street":"Acacia Bay Road","caravans":"yes","name":"Great Lake Taupo Holiday Park","sanitary_dump_station":"yes"}},"219529286":{"location":[-38.6625228,176.0804091],"ct":"NZ","tp":"CS","ts":"2025-02-02T01:43:26Z","tX":1012,"tY":631,"tags":{"caravans":"yes","dog":"yes","drinking_water":"no","dryer":"no","fee":"no","kitchen":"no","maxstay":"3 nights","name":"Hipapatua/Reid's Farm Campsite","opening_hours":"24/7","operator":"Taupo District Council","power_supply":"no","shower":"no","tents":"yes","toilets":"yes","washing_machine":"no"}},"388364720":{"location":[-38.6168924,176.0842531],"ct":"NZ","tp":"CS","ts":"2019-01-20T22:50:27Z","tX":1012,"tY":631,"tags":{"name":"Wairakei Thermal Valley Camping"}},"915302611":{"location":[-38.7453485,176.0694957],"ct":"NZ","tp":"CR","ts":"2021-03-10T02:04:24Z","tX":1012,"tY":631,"tags":{"description":"Freedom campsite, for self-contained vehicles only","fee":"no","internet_access":"no","name":"Five Mile Bay Freedom Campsite","sanitary_dump_station":"no"}},"1183882045":{"location":[-38.7407482,176.0803911],"ct":"NZ","tp":"CR","ts":"2023-06-21T09:31:12Z","tX":1012,"tY":631,"tags":{}},"1228788890":{"location":[-38.6848794,175.9607732],"ct":"NZ","tp":"CR","ts":"2024-09-11T21:44:39Z","tX":1012,"tY":631,"tags":{"description":"for self-contained vehicles only","drinking_water":"no","fee":"no","maxstay":"4 nights","name":"Whakaip≈ç Bay Recreation Reserve","opening_hours":"24/7","power_supply":"no","sanitary_dump_station":"no","tents":"no","toilets":"yes"}},"6829490285":{"location":[-38.665232,176.0809313],"ct":"NZ","tp":"CS","ts":"2023-11-16T08:58:14Z","tX":1012,"tY":631,"tags":{"caravans":"yes","name":"Hipapatua Reid's Farm Campsite, Area B","tents":"yes"}},"11357362109":{"location":[-38.6260861,176.0880179],"ct":"NZ","tp":"SD","ts":"2023-11-17T03:38:57Z","tX":1012,"tY":631,"tags":{"water_supply":"yes"}},"12169253017":{"location":[-38.7054568,176.1044397],"ct":"NZ","tp":"SD","ts":"2024-09-11T04:34:51Z","tX":1012,"tY":631,"tags":{"fee":"no"}},"12651775055":{"location":[-38.6836132,176.0678828],"ct":"NZ","tp":"SD","ts":"2025-03-11T07:20:05Z","tX":1012,"tY":631,"tags":{"description":"Dumping station with drinking water.","drinking_water:refill":"yes","fee":"no","opening_hours":"24/7"}}}