{"17533631":{"location":[43.5121828,-82.5741628],"ct":"US","tp":"CS","ts":"2024-11-05T13:33:03Z","tX":277,"tY":374,"tags":{"access":"yes","addr:city":"Carsonville","addr:housenumber":"2820","addr:postcode":"48419","addr:state":"MI","addr:street":"North Lakeshore Road","ele":"178","email":"forestrv@hotmail.com","gnis:feature_id":"1618420","leisure":"park","name":"Forester Park","operator":"Sanilac County","operator:type":"public","operator:wikidata":"Q82510","phone":"+1-810-622-8715","website":"http://www.sanilaccountyparks.com/forester-park/#","wikidata":"Q49557608"}},"17533633":{"location":[43.5033473,-82.567767],"ct":"US","tp":"CS","ts":"2024-11-05T13:33:03Z","tX":277,"tY":374,"tags":{"fixme":"is it a camp site? name/operator needed"}},"852031208":{"location":[43.4971321,-82.5739601],"ct":"US","tp":"CR","ts":"2024-11-05T13:33:03Z","tX":277,"tY":374,"tags":{"addr:city":"Carsonville","addr:housenumber":"2353","addr:state":"MI","addr:street":"North Lakeshore Road","brand":"Yogi Bear's Jellystone Park","brand:wikidata":"Q8054389","name":"North Port Huron Jellystone Park","official_name":"Yogi Bear's Jellystone Park Camp-Resorts","phone":"+1-810-622-0110","tents":"yes","website":"https://www.northporthuronjellystone.com/"}},"1291885990":{"location":[43.389228,-82.5381592],"ct":"US","tp":"CS","ts":"2024-06-12T19:49:04Z","tX":277,"tY":374,"tags":{"access":"private","addr:city":"Carsonville","addr:housenumber":"7303","addr:postcode":"48419","addr:state":"MI","addr:street":"Walker Road","gnis:feature_id":"622620","group_only":"yes","name":"Camp Ozanam","operator":"Society of St. Vincent De Paul Detroit","website":"http://svdpdet.org/need-help/camps/"}},"1291885991":{"location":[43.3926496,-82.5390867],"ct":"US","tp":"CS","ts":"2024-06-12T19:49:04Z","tX":277,"tY":374,"tags":{"group_only":"yes","name":"CYO Camp","operator":"Catholic Youth Organization"}},"1330896722":{"location":[43.4424967,-82.5446222],"ct":"US","tp":"CR","ts":"2024-11-05T13:33:03Z","tX":277,"tY":374,"tags":{"addr:city":"Port Sanilac","addr:housenumber":"420","addr:postcode":"48469","addr:state":"MI","addr:street":"North Lakeshore Road","name":"Holiday Beach Resort","phone":"+1-810-622-8142"}},"2934996702":{"location":[43.3397146,-82.5326774],"ct":"US","tp":"CS","ts":"2024-07-03T00:06:59Z","tX":277,"tY":374,"tags":{"gnis:feature_id":"622622","group_only":"yes","name":"Camp Playfair","website":"http://www.gssemcamps.org/troop-camp/camp-playfair/"}}}