{"117949408":{"location":[42.846871,-82.4587485],"ct":"CA","tp":"CS","ts":"2023-01-11T10:48:35Z","tX":277,"tY":376,"tags":{"name":"Mooretown Campground","source":"NRCan-CanVec-7.0"}},"411218088":{"location":[42.9960717,-82.5841446],"ct":"US","tp":"CS","ts":"2016-04-18T03:42:58Z","tX":277,"tY":376,"tags":{"addr:city":"Clyde Township","addr:housenumber":"6350","addr:postcode":"48049","addr:street":"Lapeer Road","name":"Fort Trodd","phone":"+1 810 987 4889","website":"http://www.forttrodd.com/"}},"547128359":{"location":[42.9921116,-82.4569325],"ct":"US","tp":"CR","ts":"2017-12-15T20:51:31Z","tX":277,"tY":376,"tags":{"name":"Port Huron Township RV Park","operator":"Port Huron Twp"}},"755929347":{"location":[42.9022485,-82.5019018],"ct":"US","tp":"CS","ts":"2019-12-16T13:41:05Z","tX":277,"tY":376,"tags":{"name":"Moose Lake Campground"}},"807937810":{"location":[42.9817048,-82.5283176],"ct":"US","tp":"CS","ts":"2024-07-28T14:25:19Z","tX":277,"tY":376,"tags":{"addr:city":"Kimball","addr:housenumber":"5111","addr:postcode":"48074","addr:street":"Lapeer Road","gnis:feature_id":"2582150","name":"Port Huron KOA","phone":"+1 810 987 4070","website":"https://koa.com/campgrounds/port-huron/"}},"1228722647":{"location":[42.8181012,-82.4891846],"ct":"US","tp":"CS","ts":"2023-12-04T20:12:20Z","tX":277,"tY":376,"tags":{"access":"yes","capacity:caravans":"9","caravans":"yes","name":"Saint Clair Boat Harbor Campground","operator":"City of Saint Clair","operator:type":"public","operator:wikidata":"Q1936982"}}}