{"361682114":{"location":[40.1210959,-82.4922278],"ct":"US","tp":"CS","ts":"2021-05-06T19:08:26Z","tX":277,"tY":387,"tags":{"addr:city":"Granville","addr:housenumber":"2340","addr:postcode":"43023","addr:state":"OH","addr:street":"Dry Creek Road Northeast","name":"Lazy River at Granville","operator":"Lazy River at Granville","phone":"+1-740-366-4385","website":"https://lazyriveratgranville.com/"}},"454513578":{"location":[40.1716673,-82.3092969],"ct":"US","tp":"CS","ts":"2009-08-02T17:45:54Z","tX":277,"tY":387,"tags":{"name":"Camp Falling Rock Boy Scout Reservation","scout":"boy"}},"1024441238":{"location":[39.9312021,-82.4948653],"ct":"US","tp":"CR","ts":"2022-01-25T07:00:26Z","tX":277,"tY":387,"tags":{"alt_name":"KOA Campground","brand":"KOA","brand:wikidata":"Q16988635","brand:wikipedia":"en:Kampgrounds of America","name":"KOA Kampground","short_name":"KOA"}},"3661290687":{"location":[40.1234254,-82.4946282],"ct":"US","tp":"CS","ts":"2021-05-06T19:08:08Z","tX":277,"tY":387,"tags":{"addr:city":"Granville","addr:housenumber":"2340","addr:postcode":"43023","addr:state":"OH","addr:street":"dry Creek Road Northeast","name":"Lazy River at Granville","operator":"Lazy River at Granville","phone":"+1-740-366-4385","website":"https://lazyriveratgranville.com/"}}}