{"1144986088":{"location":[36.2081435,-82.3582906],"ct":"US","tp":"CS","ts":"2023-02-14T00:55:03Z","tX":277,"tY":401,"tags":{"addr:city":"Unicoi","addr:country":"US","addr:housenumber":"215","addr:postcode":"37692","addr:state":"TN","addr:street":"Woodsmoke Drive","caravans":"yes","internet_access":"wlan","name":"Woodsmoke Campground","opening_hours":"Su 13:00-20:30; Mo-Sa 10:00-20:30","phone":"+1 423 743 2116","reservation":"recommended","tents":"yes","website":"http://www.woodsmokecampground.com"}},"1230620215":{"location":[36.0984907,-82.4328457],"ct":"US","tp":"CS","ts":"2023-12-12T15:01:11Z","tX":277,"tY":401,"tags":{"name":"Nolichucky Gorge Campground and Cabins"}},"1255218017":{"location":[36.1970474,-82.4846927],"ct":"US","tp":"CR","ts":"2024-02-27T10:53:14Z","tX":277,"tY":401,"tags":{"name":"River View"}},"1376230743":{"location":[36.0606713,-82.5216243],"ct":"US","tp":"CR","ts":"2025-04-09T20:11:38Z","tX":277,"tY":401,"tags":{}},"5857306655":{"location":[36.1377402,-82.3507153],"ct":"US","tp":"CS","ts":"2019-08-18T14:40:26Z","tX":277,"tY":401,"tags":{"capacity":"37","description":"Rock Creek offers camping opportunities for tents and RVs. Each campsite is equipped with a picnic table, firering and lantern post. All sites except the 5 walk-in sites have electricity.","fee":"yes","internet_access":"no","name":"Rock Creek Campground","operator":"US Forest Service"}},"8326405776":{"location":[36.0323988,-82.4260886],"ct":"US","tp":"CS","ts":"2021-01-16T01:55:23Z","tX":277,"tY":401,"tags":{"name":"Spivey Gap Recreation Area"}},"10656252120":{"location":[36.1743566,-82.313631],"ct":"US","tp":"CS","ts":"2023-02-13T21:20:18Z","tX":277,"tY":401,"tags":{"name":"North Indian Creek Campground"}}}