{"358720037":{"location":[29.8745542,-82.5483055],"ct":"US","tp":"CR","ts":"2024-08-19T21:08:00Z","tX":277,"tY":422,"tags":{"ele":"29","gnis:feature_id":"300354","name":"Old Bellamy Camp Park","wikidata":"Q49534905"}},"841087536":{"location":[29.9209019,-82.6014742],"ct":"US","tp":"CS","ts":"2010-08-02T17:07:49Z","tX":277,"tY":422,"tags":{"name":"Dogwood Campsite"}},"841347555":{"location":[29.9137415,-82.5808319],"ct":"US","tp":"CS","ts":"2010-08-02T17:07:49Z","tX":277,"tY":422,"tags":{"name":"O'Kemp Group Camp"}},"1009226612":{"location":[29.8746445,-82.5483301],"ct":"US","tp":"CS","ts":"2021-12-05T06:47:23Z","tX":277,"tY":422,"tags":{"access":"customers","addr:city":"High Springs","addr:housenumber":"24004","addr:postcode":"32643","addr:state":"FL","addr:street":"Old Bellamy Road","contact:phone":"+1 (386) 454-1688","fee":"yes","name":"High Springs Campgrounc","phone":"+1 (386) 454-1688"}},"1183551446":{"location":[29.8750613,-82.548125],"ct":"US","tp":"CR","ts":"2023-06-20T00:07:35Z","tX":277,"tY":422,"tags":{}},"3241488485":{"location":[29.9253324,-82.4269235],"ct":"US","tp":"CS","ts":"2014-12-29T21:05:18Z","tX":277,"tY":422,"tags":{}},"3919171033":{"location":[29.9670026,-82.5730856],"ct":"US","tp":"CR","ts":"2016-03-24T00:12:30Z","tX":277,"tY":422,"tags":{"addr:state":"FL","addr:street":"Southeast October Road","name":"October Bend RV Park"}},"5503222841":{"location":[29.8878072,-82.5781493],"ct":"US","tp":"CS","ts":"2018-03-25T14:08:04Z","tX":277,"tY":422,"tags":{"internet_access":"no"}}}