{"586987014":{"location":[28.1882347,-82.4592206],"ct":"US","tp":"CR","ts":"2022-01-08T14:04:02Z","tX":277,"tY":428,"tags":{"addr:city":"Lutz","addr:housenumber":"21632","addr:postcode":"33549","addr:state":"FL","addr:street":"FL 54","contact:phone":"+1 (813) 949-6551","name":"Winter Quarters Pasco","phone":"+1 (813) 949-6551"}},"1067979482":{"location":[28.2573129,-82.3403361],"ct":"US","tp":"CR","ts":"2022-06-08T18:26:55Z","tX":277,"tY":428,"tags":{"addr:city":"Wesley Chapel","addr:housenumber":"6946","addr:postcode":"33544","addr:state":"FL","addr:street":"Old Pasco Road","internet_access":"yes","internet_access:fee":"customers","name":"Quail Run RV Resort","phone":"1-813-973-0999","power_supply":"yes","sanitary_dump_station":"yes"}},"1109016800":{"location":[28.1224779,-82.5141738],"ct":"US","tp":"CS","ts":"2024-01-23T20:39:26Z","tX":277,"tY":428,"tags":{"name":"Bobcat Campground"}},"1109016801":{"location":[28.1232183,-82.5141402],"ct":"US","tp":"CS","ts":"2022-11-01T13:05:18Z","tX":277,"tY":428,"tags":{"name":"Panther Campground"}},"1128100511":{"location":[28.257809,-82.4615468],"ct":"US","tp":"CR","ts":"2024-09-05T00:36:28Z","tX":277,"tY":428,"tags":{"addr:city":"Land O' Lakes","addr:country":"US","addr:housenumber":"6944","addr:postcode":"34637","addr:state":"FL","addr:street":"Amanda Vista Circle","clothing-optional":"yes","club":"nudism","internet_access":"wlan","leisure":"resort","name":"The Woods RV and Park Model Resort","nudism":"designated","phone":"+1 813-446-6312","power_supply":"yes","thong":"yes","topless":"yes","website":"https://thewoodsrv.com/"}},"1128100515":{"location":[28.2583613,-82.4595407],"ct":"US","tp":"CR","ts":"2024-09-04T23:14:52Z","tX":277,"tY":428,"tags":{"addr:city":"Land O' Lakes","addr:housenumber":"6901","addr:postcode":"34637","addr:state":"FL","addr:street":"Caliente Boulevard","club":"nudism","female_owner":"yes","leisure":"resort","name":"Bare RV Resort","nudism":"designated","opening_hours":"Su-Fr 10:00-18:00; Sa 10:00-22:00","phone":"+1 813-996-6008","power_supply":"yes","website":"https://barervresort.com/"}},"1344493890":{"location":[28.243622,-82.4192924],"ct":"US","tp":"CS","ts":"2024-12-21T06:53:26Z","tX":277,"tY":428,"tags":{"camp_site":"basic","website":"https://www.swfwmd.state.fl.us/recreation/cypress-creek-preserve"}},"1940346481":{"location":[28.0240269,-82.4591894],"ct":"US","tp":"CS","ts":"2012-09-30T19:18:29Z","tX":277,"tY":428,"tags":{"caravans":"yes","impromptu":"yes"}},"11465983591":{"location":[28.1170658,-82.5980286],"ct":"US","tp":"CS","ts":"2023-12-29T16:25:35Z","tX":277,"tY":428,"tags":{"name":"West"}},"11465983592":{"location":[28.1153403,-82.5983098],"ct":"US","tp":"CS","ts":"2023-12-29T16:25:35Z","tX":277,"tY":428,"tags":{"name":"Meninak"}},"11465983593":{"location":[28.1173281,-82.5973776],"ct":"US","tp":"CS","ts":"2023-12-29T16:25:35Z","tX":277,"tY":428,"tags":{"name":"Shuck"}},"11465983594":{"location":[28.1174695,-82.5986519],"ct":"US","tp":"CS","ts":"2023-12-29T16:25:35Z","tX":277,"tY":428,"tags":{"name":"Pioneer"}},"11465983595":{"location":[28.1158349,-82.5985375],"ct":"US","tp":"CS","ts":"2023-12-29T16:25:35Z","tX":277,"tY":428,"tags":{"name":"Indian"}},"11465983596":{"location":[28.1162043,-82.601882],"ct":"US","tp":"CS","ts":"2023-12-29T16:25:35Z","tX":277,"tY":428,"tags":{"name":"Eagle's Nest"}},"11465983597":{"location":[28.115981,-82.6024917],"ct":"US","tp":"CS","ts":"2023-12-29T16:25:35Z","tX":277,"tY":428,"tags":{"name":"Sagamore"}},"11465983598":{"location":[28.115409,-82.6010481],"ct":"US","tp":"CS","ts":"2023-12-29T16:25:35Z","tX":277,"tY":428,"tags":{"name":"Civitan"}},"11465983599":{"location":[28.1149472,-82.5987737],"ct":"US","tp":"CS","ts":"2023-12-29T16:25:35Z","tX":277,"tY":428,"tags":{"name":"Beard"}},"11465983600":{"location":[28.1148731,-82.5993006],"ct":"US","tp":"CS","ts":"2023-12-29T16:25:35Z","tX":277,"tY":428,"tags":{"name":"Seton"}},"11465983621":{"location":[28.1157384,-82.6034612],"ct":"US","tp":"CS","ts":"2023-12-29T16:25:35Z","tX":277,"tY":428,"tags":{"name":"Seneca"}},"11465983622":{"location":[28.117224,-82.6032151],"ct":"US","tp":"CS","ts":"2023-12-29T16:25:35Z","tX":277,"tY":428,"tags":{"name":"Baden Powell"}},"9806922067":{"location":[28.2584985,-82.3415189],"ct":"US","tp":"CR","ts":"2022-06-09T17:14:54Z","tX":277,"tY":428,"tags":{"addr:city":"Wesley Chapel","addr:housenumber":"6946","addr:postcode":"33544","addr:state":"FL","addr:street":"Old Pasco Road","description":"No rig too big! We are the nicest RV Resort close to Busch Gardens. We are a top rated resort. Our Good Sam Rating is 10 /9.5*/ 10. We are also a Selected By Big Rigs Best Bets resort. \nI75 State Road 52 Exit 285 or\nI75 State Road 54 Exit 279","email":"info@quailrunrv.com","internet_access":"yes","internet_access:fee":"customers","name":"Quail Run RV Resort","note":"Facebook - https://www.facebook.com/quailrunrv/","phone":"1-813-973-0999","power_supply":"yes","sanitary_dump_station":"yes","website":"http://www.quailrunrv.com/"}}}