{"144785007":{"location":[52.9561382,-6.0122256],"ct":"IE","tp":"CR","ts":"2023-10-28T02:10:54Z","tX":494,"tY":333,"tags":{"addr:city":"Wicklow","addr:housename":"Seaview House","addr:place":"Dunbur Upper","name":"Silver Strand Caravan Park","operator":"Silver Strand Caravan Park Ltd","phone":"+353-404-67615","power_supply":"yes","website":"https://www.silverstrandcaravanpark.ie/"}},"158111376":{"location":[52.9376971,-6.2274753],"ct":"IE","tp":"CS","ts":"2012-04-06T01:37:13Z","tX":494,"tY":333,"tags":{}},"158111393":{"location":[52.9381343,-6.2262388],"ct":"IE","tp":"CS","ts":"2012-04-06T01:37:16Z","tX":494,"tY":333,"tags":{}},"178361481":{"location":[52.9522178,-6.0157488],"ct":"IE","tp":"CS","ts":"2021-07-18T18:10:16Z","tX":494,"tY":333,"tags":{"addr:city":"Wicklow","addr:housename":"Silver Strand","addr:street":"Dunbur Upper","contact:facebook":"https://www.facebook.com/Wolohans-Silver-Strand-Caravan-and-Camping-Park-196367127067657","name":"Wolohan's Silver Strand","operator":"John Wolohan","phone":"+353 404 69404","website":"https://www.silverstrand.ie/"}},"234901423":{"location":[53.0688261,-6.2216782],"ct":"IE","tp":"CS","ts":"2023-10-28T02:11:40Z","tX":494,"tY":333,"tags":{"fee":"yes","name":"Roundwood Caravan & Camping Park","stars":"4","tents":"yes","website":"https://www.dublinwicklowcamping.com/"}},"767592853":{"location":[53.0125709,-6.2947704],"ct":"IE","tp":"CS","ts":"2020-01-28T14:13:03Z","tX":494,"tY":333,"tags":{"name":"Glendalough Glamping","website":"https://glendaloughglamping.ie/"}},"973238049":{"location":[53.0516557,-6.2777615],"ct":"IE","tp":"CS","ts":"2025-04-23T16:50:08Z","tX":494,"tY":333,"tags":{"capacity:tents":"10","caravans":"no","internet_access":"wlan","name":"Wicklow Way Camping","shower":"hot","tents":"yes","toilets":"yes","website":"https://www.wicklowwaycamping.com/"}},"1056935033":{"location":[53.0601636,-6.2755962],"ct":"IE","tp":"CS","ts":"2022-10-06T10:49:53Z","tX":494,"tY":333,"tags":{"name":"Lough Dan Scout Centre","operator":"Scouting Ireland","scout":"yes","wikipedia":"en:Scouts (Scouting Ireland)"}},"1231445133":{"location":[52.9977494,-6.0672245],"ct":"IE","tp":"CS","ts":"2024-04-18T20:16:29Z","tX":494,"tY":333,"tags":{"addr:city":"Tinakilly","contact:facebook":"https://www.facebook.com/knglamping/","email":"knglamping@gmail.com","fee":"yes","name":"Knockrobin Glamping","phone":"+353-89-252-7504","website":"https://www.knockrobinglamping.com/"}},"1332829617":{"location":[52.9327856,-6.295894],"ct":"IE","tp":"CR","ts":"2024-11-11T10:41:07Z","tX":494,"tY":333,"tags":{}},"2541388751":{"location":[52.9741905,-6.2171494],"ct":"IE","tp":"CR","ts":"2022-06-26T16:28:45Z","tX":494,"tY":333,"tags":{"fixme":"Probably the wrong tagging, since you wouldn't stay here with a caravan. And it shouldn't be positioned at the front gate either, where is it really?","name":"Clissmann Horse Caravans","phone":"+353 404 46920"}}}