{"170330295":{"location":[40.5094381,-6.1222791],"ct":"ES","tp":"CS","ts":"2023-10-28T19:00:18Z","tX":494,"tY":385,"tags":{"email":"turismo@albereka.com","name":"Camping Al-Bereka","phone":"+34 923 41 51 95","website":"https://www.albereka.com/"}},"176944703":{"location":[40.5212154,-6.138801],"ct":"ES","tp":"CS","ts":"2024-01-21T23:58:35Z","tX":494,"tY":385,"tags":{"barrier":"wall","name":"Camping Sierra de Francia","source":"PNOA","source:date":"2006","website":"https://www.campingsierradefrancia.com"}},"402656094":{"location":[40.5177089,-6.1013411],"ct":"ES","tp":"CS","ts":"2016-03-09T12:52:19Z","tX":494,"tY":385,"tags":{"barrier":"fence","name":"Campamento La Legoriza","phone":"+34 923 16 10 71"}},"410258838":{"location":[40.4748849,-5.9998529],"ct":"ES","tp":"CS","ts":"2016-04-14T11:03:21Z","tX":494,"tY":385,"tags":{"name":"Camping El Burro Blanco"}},"656697954":{"location":[40.5674491,-6.1346982],"ct":"ES","tp":"CS","ts":"2024-09-09T21:14:52Z","tX":494,"tY":385,"tags":{"addr:city":"El Cabaco","addr:country":"ES","addr:milestone":"80","addr:postcode":"37621","addr:province":"Salamanca","addr:street":"Carretera de Béjar a Ciudad Rodrigo","barrier":"wall","caravans":"yes","fee":"yes","height":"1","name":"Camping Las Cavenes","phone":"+34 923 454 105;+34 654 500 728;+34 654 500 730","power_supply":"yes","shower":"hot","tents":"yes","toilets":"yes","website":"https://www.campinglascavenes.com/"}},"667396677":{"location":[40.6519061,-6.0914947],"ct":"ES","tp":"CS","ts":"2019-07-18T08:18:31Z","tX":494,"tY":385,"tags":{"barrier":"fence","caravans":"yes","name":"Camping El Rebollar","phone":"+34 923 44 95 77; +34 652 94 56 72","wheelchair":"yes"}},"728750626":{"location":[40.4749505,-5.9985571],"ct":"ES","tp":"CS","ts":"2016-04-14T11:03:27Z","tX":494,"tY":385,"tags":{"addr:city":"Miranda del Castañar","addr:country":"ES","addr:postcode":"37660","addr:province":"Salamanca","addr:street":"Calle Perdiza","name":"El Burro Blanco","phone":"+34 626 227 646","website":"http://www.elburroblanco.net"}},"940708280":{"location":[40.4887407,-6.116531],"ct":"ES","tp":"CR","ts":"2024-05-04T12:15:30Z","tX":494,"tY":385,"tags":{"access":"yes","addr:city":"La Alberca","addr:postcode":"37624","addr:street":"Avenida de las Batuecas","capacity":"8","caravan_site":"motorhome_stopover","caravans":"no","covered":"no","drinking_water":"yes","fee":"no","maxstay":"48 hours","name":"Área de Autocaravanas La Alberca","opening_hours":"24/7","operator":"Ayuntamiento de La Alberca","power_supply":"no","sanitary_dump_station":"public","sanitary_dump_station:chemical_toilet":"yes","sanitary_dump_station:grey_water":"yes","sanitary_dump_station:round_drain":"yes","supervised":"no","surface":"asphalt","tents":"no","water_point":"yes"}},"1128093854":{"location":[40.6041647,-6.0066301],"ct":"ES","tp":"CR","ts":"2024-03-26T22:12:48Z","tX":494,"tY":385,"tags":{"addr:city":"Navarredonda de la Rinconada","addr:postcode":"37607","addr:street":"Calle Teso de las Corzas","capacity":"17","caravan_site":"motorhome_stopover","caravan_site:type":"hamlet","caravans":"yes","description":"very remote with beutiful view","fee":"no","internet_access":"wlan","internet_access:fee":"no","maxlength":"none","maxstay":"72 hours","name":"Area Autocaravanas \"Pico Cervero\"","power_supply":"no","sanitary_dump_station":"yes","sanitary_dump_station:chemical_toilet":"yes","sanitary_dump_station:grey_water":"yes","shower":"no","surface":"gravel","tents":"no","toilets":"no","website":"https://www.navarredondadelarinconada.es/ac/","wikimedia_commons":"Category:Pico Cervero motorhome stopover"}},"6151313116":{"location":[40.5678708,-6.1339921],"ct":"ES","tp":"SD","ts":"2018-12-21T10:17:07Z","tX":494,"tY":385,"tags":{}},"8712065568":{"location":[40.4888692,-6.1169008],"ct":"ES","tp":"SD","ts":"2024-05-04T12:15:30Z","tX":494,"tY":385,"tags":{"access":"yes","fee":"no","motorhome":"designated","operator":"Ayuntamiento de La Alberca","sanitary_dump_station":"public","sanitary_dump_station:chemical_toilet":"yes","sanitary_dump_station:grey_water":"yes","sanitary_dump_station:round_drain":"yes","water_point":"yes"}},"10313792255":{"location":[40.6039818,-6.0062874],"ct":"ES","tp":"SD","ts":"2024-02-25T12:49:11Z","tX":494,"tY":385,"tags":{"access":"yes","fee":"no","opening_hours":"24/7","water_point":"yes","wikimedia_commons":"File:Pico Cervero Sanitary dump station.jpg"}}}