{"936360153":{"location":[38.0280478,-6.2199412],"ct":"ES","tp":"CR","ts":"2024-04-14T21:29:04Z","tX":494,"tY":394,"tags":{"access":"yes","addr:city":"Monesterio","addr:postcode":"41250","addr:street":"Km.730 A-66","capacity":"10","caravan_site":"motorhome_stopover","caravan_site:type":"parking_lot;hotel","caravans":"yes","covered":"no","drinking_water":"yes","fee":"no","laundry":"yes","name":"Monesterio Complejo Leo 24 horas","operator":"LEO Grupo","power_supply":"yes","sanitary_dump_station":"yes","sanitary_dump_station:chemical_toilet":"yes","sanitary_dump_station:grey_water":"yes","sanitary_dump_station:round_drain":"yes","supervised":"yes","surface":"asphalt","tents":"no","water_point":"yes","website":"https://www.complejoleo.es/caravanas/"}},"937283525":{"location":[38.0941636,-6.2772008],"ct":"ES","tp":"CR","ts":"2024-05-16T21:43:48Z","tX":494,"tY":394,"tags":{"access":"yes","addr:city":"Monesterio","addr:postcode":"06260","addr:street":"8 N-630","camping_behaviour":"no","capacity":"16","caravan_site":"motorhome_stopover","caravan_site:type":"village","covered":"no","drinking_water":"yes","fee":"no","maxstay":"72 hours","name":"Área de Monesterio","opening_hours":"24/7","operator":"ciudad de Monesterio","power_supply":"yes","power_supply:capacity":"6","power_supply:fee":"no","sanitary_dump_station":"yes","sanitary_dump_station:chemical_toilet":"yes","sanitary_dump_station:grey_water":"yes","sanitary_dump_station:round_drain":"yes","supervised":"no","surface":"asphalt","water_point":"yes","website":"https://monesterio.es/plantilla.php?enlace=turismo_autocaravanas"}},"8676490623":{"location":[38.0297561,-6.2203035],"ct":"ES","tp":"SD","ts":"2024-01-26T01:26:38Z","tX":494,"tY":394,"tags":{"access":"yes","description":"Estación de vaciado de tanque para autocaravanas","description:en":"Tank emptying station for motorhomes","description:fr":"Station de vidange pour Camping-car.","fee":"yes","operator":"Repsol","sanitary_dump_station":"public","sanitary_dump_station:chemical_toilet":"yes","sanitary_dump_station:grey_water":"yes","sanitary_dump_station:round_drain":"yes","water_point":"yes"}},"8684480057":{"location":[38.093888,-6.2771271],"ct":"ES","tp":"SD","ts":"2024-05-16T21:43:48Z","tX":494,"tY":394,"tags":{"access":"yes","fee":"no","motorhome":"designated","operator":"Ayuntamiento de Monesterio","sanitary_dump_station":"public","sanitary_dump_station:chemical_toilet":"yes","sanitary_dump_station:grey_water":"yes","sanitary_dump_station:round_drain":"yes","water_point":"yes"}}}