{"53019978":{"location":[36.3123426,-6.1132711],"ct":"ES","tp":"CS","ts":"2025-03-01T20:29:08Z","tX":494,"tY":401,"tags":{"access":"permit","addr:city":"Conil de la Frontera","addr:postcode":"11140","addr:street":"Carril de Pilahito","cabins":"yes","capacity:caravans":"330","caravans":"yes","description":"Freibad, Imbiss, Bar.  Ca. 3 km zum Ort/zum Strand","dog":"yes","email":"info@campingroche.com","fee":"yes","internet_access":"wlan","internet_access:fee":"customers","name":"Camping Roche","permanent_camping":"yes","phone":"+34 956 442 216;+34 956 442 624","power_supply":"yes","shower":"hot","static_caravans":"yes","tents":"yes","toilets":"yes","washing_machine":"yes","website":"https://www.campingroche.com/"}},"222149835":{"location":[36.2017358,-6.0368386],"ct":"ES","tp":"CS","ts":"2019-03-19T07:39:00Z","tX":494,"tY":401,"tags":{"addr:city":"Barbate","addr:housenumber":"10","addr:postcode":"11159","addr:street":"Carretera Veger-Caños de Meca","fee":"yes","name":"Caños de Meca","phone":"+34 956 43 71 20","source":"survey +bing","website":"https://www.campingcm.com/"}},"271450454":{"location":[36.2344554,-6.0595223],"ct":"ES","tp":"CS","ts":"2023-10-16T19:24:57Z","tX":494,"tY":401,"tags":{"email":"campalmar@hotmail.com","internet_access":"wlan","name":"Camping El Palmar","phone":"+34 956 232 161","website":"https://www.campingelpalmar.es/"}},"273203674":{"location":[36.2879453,-6.0914776],"ct":"ES","tp":"CS","ts":"2023-10-16T19:26:14Z","tX":494,"tY":401,"tags":{"fax":"+34956441272","landuse":"forest","name":"Camping Los Eukaliptos","phone":"+34956441272","stars":"2","website":"https://www.campingloseucaliptos.com/"}},"276982553":{"location":[36.2929874,-6.0924427],"ct":"ES","tp":"CS","ts":"2025-02-10T19:48:20Z","tX":494,"tY":401,"tags":{"addr:city":"Conil de la Frontera","addr:country":"ES","addr:postcode":"11140","addr:street":"Ctra. del Pradillo, Km. 1.3","area":"yes","barrier":"fence","cabins":"yes","caravans":"yes","dog":"yes","drinking_water":"yes","dryer":"yes","email":"info@campinglarosaleda.com","fee":"yes","internet_access":"wlan","internet_access:fee":"no","name":"La Rosaleda","opening_hours":"Jan-Dec","payment:credit_card":"yes","phone":"+34 956 44 33 27","power_supply":"yes","reservation":"recommended","sanitary_dump_station":"yes","sauna":"yes","shower":"yes","stars":"4","tents":"yes","toilets":"yes","washing_machine":"yes","website":"https://campinglarosaleda.com/","wheelchair":"yes"}},"282116970":{"location":[36.2959884,-6.1085795],"ct":"ES","tp":"CS","ts":"2024-04-23T10:26:13Z","tX":494,"tY":401,"tags":{"addr:city":"Conil de la Frontera","addr:postcode":"11149","addr:street":"Carril el Palillero","contact:email":"camping@campingfuentedelgallo.com","contact:phone":"+34 956 440 137","name":"Camping Fuente del Gallo","tents":"yes","website":"https://campingfuentedelgallo.com"}},"332141380":{"location":[36.2010971,-6.0326791],"ct":"ES","tp":"CS","ts":"2022-09-23T18:54:49Z","tX":494,"tY":401,"tags":{"addr:postcode":"11159","addr:street":"Carretera de Vejer-Caños de Meca. Km 10,2","email":"info@campinpinarsanjose.com","internet_access":"wlan","name":"Camping Pinar San José","phone":"+34 956 437 030","website":"https://www.campingpinarsanjose.com/"}},"332527928":{"location":[36.1896799,-6.026867],"ct":"ES","tp":"CS","ts":"2022-09-23T18:54:49Z","tX":494,"tY":401,"tags":{"email":"campingfarotrafalgar@yahoo.es","internet_access":"wlan","name":"Faro de Trafalgar","phone":"+34 956 43 70 17","power_supply":"yes","website":"https://www.campingfarodetrafalgar.com/","wheelchair":"no"}},"473799710":{"location":[36.2995047,-6.1259876],"ct":"ES","tp":"CS","ts":"2018-07-30T22:44:07Z","tX":494,"tY":401,"tags":{"addr:postcode":"11400","addr:street":"Carretera a Conil Roche","email":"info@caladelaceite.com","internet_access":"wlan","name":"Camping Cala del aceite","opening_hours":"Mo-Su 09:00-22:00","phone":"+34 956442950","website":"http://www.caladelaceite.com"}},"612301439":{"location":[36.3019674,-6.1260038],"ct":"ES","tp":"CS","ts":"2018-07-30T14:04:13Z","tX":494,"tY":401,"tags":{"name":"El Faro"}},"731050645":{"location":[36.2166334,-6.058057],"ct":"ES","tp":"CS","ts":"2019-10-03T11:20:39Z","tX":494,"tY":401,"tags":{"caravans":"yes"}},"1245087291":{"location":[36.1896319,-6.0210462],"ct":"ES","tp":"CR","ts":"2024-11-17T19:31:40Z","tX":494,"tY":401,"tags":{"fee":"no","maxstay":"72 hours","sanitary_dump_station":"yes","surface":"asphalt","water_point":"yes"}},"5945104300":{"location":[36.1883217,-6.0138318],"ct":"ES","tp":"CS","ts":"2023-09-21T20:23:53Z","tX":494,"tY":401,"tags":{"name":"Camping Camaleón","phone":"+34 956 43 71 54","website":"https://www.campingcamaleon.com/"}},"6124187885":{"location":[36.2833512,-6.0836012],"ct":"ES","tp":"CR","ts":"2024-03-09T20:08:01Z","tX":494,"tY":401,"tags":{"opening_hours":"Sa-Th 00:00-24:00"}},"10552752509":{"location":[36.2287811,-6.0662539],"ct":"ES","tp":"CR","ts":"2024-01-31T22:17:16Z","tX":494,"tY":401,"tags":{"capacity":"158","charge":"20 EUR","charge:conditional":"14.80 EUR @(Sep 15-Jun 15)","fee":"yes","internet_access":"wlan","internet_access:fee":"no","name":"Caravan Área El Palmar Beach","power_supply":"yes","power_supply:charge":"5 EUR","sanitary_dump_station":"yes","seasonal":"no","shower":"yes","tents":"no","toilets":"yes","water_point":"yes","website":"https://parkingcaravanaselpalmar.com/"}},"11575024038":{"location":[36.2324532,-6.0689878],"ct":"ES","tp":"CR","ts":"2024-07-02T10:11:05Z","tX":494,"tY":401,"tags":{"capacity":"77","caravan_site":"motorhome_stopover","caravan_site:type":"beach","charge":"12 EUR","dog":"yes","fee":"yes","laundry":"yes","name":"Nomada El Palmar","power_supply":"yes","sanitary_dump_station":"yes","shower":"yes","toilets":"yes","website":"https://www.camperparknomada.com/"}},"11304815187":{"location":[36.3130231,-6.1133115],"ct":"ES","tp":"SD","ts":"2023-11-01T15:16:46Z","tX":494,"tY":401,"tags":{"access":"customers","water_point":"yes"}},"12370135876":{"location":[36.1894511,-6.0212602],"ct":"ES","tp":"SD","ts":"2024-11-24T15:54:52Z","tX":494,"tY":401,"tags":{}},"12370135877":{"location":[36.18946,-6.0212568],"ct":"ES","tp":"SD","ts":"2024-11-24T15:54:52Z","tX":494,"tY":401,"tags":{}},"12370135878":{"location":[36.189469,-6.0212518],"ct":"ES","tp":"SD","ts":"2024-11-24T15:54:52Z","tX":494,"tY":401,"tags":{}},"12370135881":{"location":[36.1894171,-6.0213234],"ct":"ES","tp":"SD","ts":"2024-11-24T15:54:52Z","tX":494,"tY":401,"tags":{}},"12370135882":{"location":[36.1894269,-6.0213644],"ct":"ES","tp":"SD","ts":"2024-11-24T15:54:52Z","tX":494,"tY":401,"tags":{}},"12596147727":{"location":[36.2936934,-6.0905215],"ct":"ES","tp":"SD","ts":"2025-02-17T16:46:19Z","tX":494,"tY":401,"tags":{"access":"customers","fee":"no","sanitary_dump_station:chemical_toilet":"yes","sanitary_dump_station:gravity":"yes","sanitary_dump_station:grey_water":"yes","sanitary_dump_station:round_drain":"yes","vehicle":"yes","wheelchair":"yes"}},"12596147728":{"location":[36.2938945,-6.09256],"ct":"ES","tp":"SD","ts":"2025-02-17T16:46:19Z","tX":494,"tY":401,"tags":{"access":"customers","fee":"no","sanitary_dump_station:chemical_toilet":"yes","sanitary_dump_station:fee":"no","sanitary_dump_station:gravity":"no","sanitary_dump_station:grey_water":"no","sanitary_dump_station:suction":"no"}},"12596147729":{"location":[36.2944447,-6.0928376],"ct":"ES","tp":"SD","ts":"2025-02-17T16:46:19Z","tX":494,"tY":401,"tags":{"access":"customers","fee":"no","sanitary_dump_station:chemical_toilet":"yes","sanitary_dump_station:fee":"no","sanitary_dump_station:gravity":"no","sanitary_dump_station:grey_water":"no","sanitary_dump_station:suction":"no"}},"12596147730":{"location":[36.2938372,-6.093716],"ct":"ES","tp":"SD","ts":"2025-02-17T16:46:19Z","tX":494,"tY":401,"tags":{"access":"customers","fee":"no","sanitary_dump_station:chemical_toilet":"yes","sanitary_dump_station:fee":"no","sanitary_dump_station:gravity":"no","sanitary_dump_station:grey_water":"no","sanitary_dump_station:suction":"no"}},"12596147731":{"location":[36.2942058,-6.094054],"ct":"ES","tp":"SD","ts":"2025-02-17T16:46:19Z","tX":494,"tY":401,"tags":{"access":"customers","fee":"no","sanitary_dump_station:chemical_toilet":"yes","sanitary_dump_station:fee":"no","sanitary_dump_station:gravity":"no","sanitary_dump_station:grey_water":"no","sanitary_dump_station:suction":"no"}}}