{"183932899":{"location":[47.5566635,-93.6530207],"ct":"US","tp":"CS","ts":"2012-10-03T02:13:57Z","tX":245,"tY":357,"tags":{"caravans":"yes","maxtents":"38","name":"North Star Campground","operator":"USFS","tents":"yes"}},"226111932":{"location":[47.608169,-93.5767535],"ct":"US","tp":"CS","ts":"2013-06-17T17:27:36Z","tX":245,"tY":357,"tags":{"name":"Clubhouse Campground","operator":"USFS"}},"1244485065":{"location":[47.6077242,-93.8470334],"ct":"US","tp":"CS","ts":"2011-04-14T16:11:40Z","tX":245,"tY":357,"tags":{"designation":"47405 County Road 135  Talmoon, MN","name":"Rising Eagle Resort"}},"1947417658":{"location":[47.7092778,-93.8252049],"ct":"US","tp":"CS","ts":"2012-10-05T12:35:59Z","tX":245,"tY":357,"tags":{"maxtents":"1"}},"1947417666":{"location":[47.7118734,-93.8274685],"ct":"US","tp":"CS","ts":"2012-10-05T12:35:59Z","tX":245,"tY":357,"tags":{"maxtents":"1"}},"3774394309":{"location":[47.7133254,-93.5696581],"ct":"US","tp":"CS","ts":"2020-03-02T12:51:03Z","tX":245,"tY":357,"tags":{"name":"Scenic State Park"}},"7140577349":{"location":[47.6082583,-93.5775418],"ct":"US","tp":"CS","ts":"2024-11-02T16:23:33Z","tX":245,"tY":357,"tags":{"addr:city":"Marcell","addr:housenumber":"34785","addr:state":"MN","addr:street":"Clubhouse Lake Road","capacity":"47","charge":"16 USD","drinking_water":"yes","fee":"yes","name":"Clubhouse Campground","operator":"USFS","seasonal":"spring;summer;autumn","toilets":"vault"}},"7140601587":{"location":[47.5565572,-93.6529741],"ct":"US","tp":"CS","ts":"2024-11-02T16:23:33Z","tX":245,"tY":357,"tags":{"addr:city":"Marcell,","addr:housenumber":"46891","addr:state":"MN","addr:street":"State Highway 38","capacity":"38","charge":"14 USD","drinking_water":"yes","fee":"yes","name":"North Star Campground","seasonal":"spring-summer","toilets":"vault","website":"https://www.fs.usda.gov/recarea/chippewa/recreation/camping-cabins/recarea/?recid=26784&actid=29"}},"9993070698":{"location":[47.5856619,-93.6754331],"ct":"US","tp":"CR","ts":"2022-09-01T15:31:31Z","tX":245,"tY":357,"tags":{"name":"Owen's Place RV Park"}}}