{"1081963688":{"location":[47.3990413,-93.6470368],"ct":"US","tp":"CS","ts":"2022-07-29T18:57:50Z","tX":245,"tY":358,"tags":{"addr:city":"Deer River","addr:housenumber":"36944","addr:postcode":"56636","addr:state":"MN","addr:street":"Camp Hiawatha Road","name":"Camp Hiawatha","website":"https://www.vlmcamps.org/"}},"7486715210":{"location":[47.42784,-93.6981043],"ct":"US","tp":"CS","ts":"2021-09-06T23:40:07Z","tX":245,"tY":358,"tags":{"addr:city":"Calumet","addr:state":"MN","capacity":"10","drinking_water":"yes","fee":"no","name":"Bowstring State Forest-- Cottonwood Lake","phone":"+1-218-743-3362","toilets":"vault"}},"7486715211":{"location":[47.4000468,-93.7131483],"ct":"US","tp":"CS","ts":"2024-11-02T16:23:33Z","tX":245,"tY":358,"tags":{"addr:city":"Deer River","addr:state":"MN","capacity":"11","charge":"15 USD","drinking_water":"yes","fee":"yes","name":"Bowstring State F -orest Moose Lake","phone":"+1-218-743-3362","toilets":"yes"}},"7504799741":{"location":[47.4111872,-93.5917893],"ct":"US","tp":"CS","ts":"2020-05-11T00:25:37Z","tX":245,"tY":358,"tags":{"addr:city":"Grand Rapids","addr:state":"MN","capacity":"2","drinking_water":"no","fee":"no","name":"Pug Hole Wayside Park","toilets":"unknown"}},"11514188327":{"location":[47.3944225,-93.6723237],"ct":"US","tp":"CS","ts":"2024-01-13T16:18:38Z","tX":245,"tY":358,"tags":{"camp_site":"basic","drinking_water":"yes","fee":"yes","name":"Moose Lake Campground","phone":"218-328-8982","source":"www.dnr.state.mn.us/state_forests/forest.html?id=sft00009#cmp00049","tents":"yes","toilets":"vault"}},"12407304835":{"location":[47.4653612,-93.5812096],"ct":"US","tp":"CS","ts":"2024-12-09T14:47:05Z","tX":245,"tY":358,"tags":{"backcountry":"yes"}},"12407304866":{"location":[47.4618153,-93.585188],"ct":"US","tp":"CS","ts":"2024-12-09T14:47:05Z","tX":245,"tY":358,"tags":{"backcountry":"yes"}}}