{"369004609":{"location":[45.3196725,-93.8157948],"ct":"US","tp":"CS","ts":"2024-11-03T02:13:17Z","tX":245,"tY":367,"tags":{"addr:state":"MN","ele":"282","gnis:feature_id":"660300","name":"River Terrace Park","source_ref":"geonames.usgs.gov"}},"603930312":{"location":[45.1853847,-93.6304323],"ct":"US","tp":"CS","ts":"2018-07-01T05:23:18Z","tX":245,"tY":367,"tags":{"name":"Drop-in Camping","tents":"yes"}},"605806724":{"location":[45.2021946,-93.6237666],"ct":"US","tp":"CS","ts":"2018-07-07T08:23:40Z","tX":245,"tY":367,"tags":{"group_only":"yes","name":"Riverbend","operator":"Crow-Hassan Park Reserve","tents":"yes"}},"761561431":{"location":[45.144609,-93.5194582],"ct":"US","tp":"CR","ts":"2024-01-17T09:40:01Z","tX":245,"tY":367,"tags":{"addr:city":"Maple Grove","addr:housenumber":"10410","addr:postcode":"55311","addr:state":"MN","addr:street":"County Road 101","alt_name":"KOA Campground","brand":"KOA","brand:wikidata":"Q16988635","name":"KOA Kampground","short_name":"KOA"}},"1306071942":{"location":[45.2972051,-93.8455553],"ct":"US","tp":"CS","ts":"2024-08-07T04:51:15Z","tX":245,"tY":367,"tags":{}},"7188335564":{"location":[45.3253487,-93.823248],"ct":"US","tp":"CS","ts":"2020-08-28T13:13:58Z","tX":245,"tY":367,"tags":{"backcountry":"yes","name":"Canoe-In Campsite"}},"10853599856":{"location":[45.2977224,-93.6728896],"ct":"US","tp":"CS","ts":"2023-04-28T23:11:57Z","tX":245,"tY":367,"tags":{"backcountry":"yes","name":"Dimmick Island Watercraft Campsite","operator":"Minnesota DNR"}}}