{"881163671":{"location":[44.2279865,-93.5567928],"ct":"US","tp":"CS","ts":"2024-08-19T21:23:44Z","tX":245,"tY":371,"tags":{"addr:city":"Waterville","addr:housenumber":"14842","addr:street":"Sakatah Lake Road","caravans":"yes","drinking_water":"yes","fee":"yes","internet_access":"yes","internet_access:fee":"customers","name":"Kamp Dels","openfire":"yes","phone":"+1 507 362 8616","power_supply":"yes","sanitary_dump_station":"yes","shower":"yes","static_caravans":"no","tents":"yes","website":"https://www.kampdels.com/"}},"1229855187":{"location":[44.2131246,-93.7445769],"ct":"US","tp":"CR","ts":"2023-12-11T15:52:28Z","tX":245,"tY":371,"tags":{"name":"Sakatah Trail Resort"}},"1290266360":{"location":[44.1853495,-93.7949119],"ct":"US","tp":"CS","ts":"2024-06-07T14:25:48Z","tX":245,"tY":371,"tags":{"capacity:caravans":"15","caravans":"yes","fee":"yes","name":"RV Sites","operator":"Blue Earth County","static_caravans":"no"}},"1290266361":{"location":[44.1847546,-93.7965095],"ct":"US","tp":"CS","ts":"2024-06-07T14:25:48Z","tX":245,"tY":371,"tags":{"capacity:caravans":"18","caravans":"yes","fee":"yes","name":"RV Back-in Sites","operator":"Blue Earth County","static_caravans":"no"}},"1290266362":{"location":[44.1824448,-93.7911823],"ct":"US","tp":"CS","ts":"2024-06-07T14:25:48Z","tX":245,"tY":371,"tags":{"capacity:tents":"11","caravans":"no","fee":"yes","name":"Overflow Campground","operator":"Blue Earth County","static_caravans":"no","tents":"yes"}},"1290266363":{"location":[44.1837353,-93.7961443],"ct":"US","tp":"CS","ts":"2024-06-07T14:25:48Z","tX":245,"tY":371,"tags":{"capacity:tents":"9","caravans":"no","fee":"yes","name":"Tent Camping","operator":"Blue Earth County","static_caravans":"no","tents":"yes"}},"1308853026":{"location":[44.2268652,-93.559567],"ct":"US","tp":"SD","ts":"2024-08-19T16:32:48Z","tX":245,"tY":371,"tags":{"access":"customers"}},"1359369951":{"location":[44.1386102,-93.7058641],"ct":"US","tp":"CS","ts":"2025-02-12T17:22:10Z","tX":245,"tY":371,"tags":{"name":"Sportsman's Campground"}},"7149110672":{"location":[44.2207257,-93.5354875],"ct":"US","tp":"CS","ts":"2024-12-01T06:45:16Z","tX":245,"tY":371,"tags":{"addr:city":"Waterville","addr:housenumber":"50499","addr:postcode":"56096","addr:state":"MN","addr:street":"Sakatah Lake State Park Road","capacity":"69","charge":"23 USD","description":"$17 - $23","drinking_water":"yes","fee":"yes","name":"Sakatah Lake State Park Campground","phone":"(866) 857-2757","power_supply":"yes","reservation":"accepted","sanitary_dump_station":"yes","toilets:type":"flush"}},"8195529679":{"location":[44.2203689,-93.5635507],"ct":"US","tp":"CS","ts":"2020-12-05T01:28:48Z","tX":245,"tY":371,"tags":{"addr:housenumber":"437","addr:street":"East Main Street","caravans":"yes","name":"Scotts Campground","phone":"+1 507 362 8800"}},"8195529682":{"location":[44.2213762,-93.5688025],"ct":"US","tp":"CR","ts":"2020-12-05T01:28:48Z","tX":245,"tY":371,"tags":{"addr:housenumber":"350","addr:street":"North 1st Street","capacity":"36","fee":"yes","internet_access":"wlan","name":"Cannon Gate Park","phone":"+1 507 362 8832","power_supply":"yes","website":"http://www.cannongatepark.com/"}},"8199231097":{"location":[44.2208942,-93.5369057],"ct":"US","tp":"SD","ts":"2020-12-06T16:59:29Z","tX":245,"tY":371,"tags":{}}}