{"6919483310":{"location":[-13.6542247,-48.1972109],"ct":"BR","tp":"CS","ts":"2019-10-27T05:25:41Z","tX":374,"tY":551,"tags":{"access":"private","addr:street":"Acesso à direita da GO-132, a 18 km do centro de Minaçu","capacity":"50","charge":"5 BRL","fee":"yes","internet_access":"no","name":"Cachoeira do Jorge","name:en":"Jorge's waterfall","payment:cash":"yes"}},"6919483311":{"location":[-13.6651922,-48.242154],"ct":"BR","tp":"CS","ts":"2019-10-27T05:25:41Z","tX":374,"tY":551,"tags":{"access":"private","addr:city":"Minaçu","addr:postcode":"76450000","capacity":"50","internet_access":"no","name":"Cachoeira do Lajeado","name:en":"Lajeado Waterfall"}},"6919483312":{"location":[-13.6173321,-48.2471402],"ct":"BR","tp":"CS","ts":"2023-07-07T19:17:43Z","tX":374,"tY":551,"tags":{"access":"private","addr:city":"Minaçu","addr:postcode":"76450-000","addr:street":"Estrada Usina Hidrelétrica Serra da Mesa","capacity":"100","charge":"10 BRL","fee":"yes","internet_access":"yes","internet_access:fee":"yes","name":"Eldorado Camping Club","payment:cash":"yes"}}}