{"976972025":{"location":[-25.6037773,-48.469068],"ct":"BR","tp":"CS","ts":"2010-11-04T22:43:10Z","tX":374,"tY":587,"tags":{"name":"Sambaqui"}},"3281283607":{"location":[-25.6577182,-48.4476788],"ct":"BR","tp":"CS","ts":"2015-01-10T23:36:20Z","tX":374,"tY":587,"tags":{"addr:housenumber":"77","addr:street":"Rua Paraná","name":"Camping Raio de Sol"}},"3318756618":{"location":[-25.6509445,-48.4457212],"ct":"BR","tp":"CS","ts":"2015-01-29T13:41:45Z","tX":374,"tY":587,"tags":{}},"4420687990":{"location":[-25.565976,-48.3155411],"ct":"BR","tp":"CS","ts":"2022-03-25T11:53:22Z","tX":374,"tY":587,"tags":{"internet_access":"wlan","name":"Camping do Gaucho"}},"7114853685":{"location":[-25.5685058,-48.3120343],"ct":"BR","tp":"CS","ts":"2020-01-07T16:29:36Z","tX":374,"tY":587,"tags":{"name":"camping do maninho","name:en":"maninho camping"}},"8267768718":{"location":[-25.6363834,-48.4284692],"ct":"BR","tp":"CR","ts":"2022-07-30T12:42:55Z","tX":374,"tY":587,"tags":{"addr:street":"Avenida Atlântica","internet_access":"wlan","name":"Camping Beira Mar","opening_hours":"24/7","phone":"+55 41 9 9974 7703","website":"https://www.campingbeiramar.com.br/"}}}