{"129584872":{"location":[-27.6742823,-48.5058461],"ct":"BR","tp":"CS","ts":"2024-04-25T10:53:52Z","tX":374,"tY":593,"tags":{"access":"private","addr:housenumber":"222","addr:street":"Servid√£o Jaborandi","name":"Acampamento Igreja do Nazareno","religion":"christian"}},"317667437":{"location":[-27.4384226,-48.4914346],"ct":"BR","tp":"CS","ts":"2017-09-02T23:02:07Z","tX":374,"tY":593,"tags":{"capacity":"64","name":"Camping APCEF"}},"405372387":{"location":[-27.5594399,-48.4368425],"ct":"BR","tp":"CS","ts":"2021-11-25T01:37:57Z","tX":374,"tY":593,"tags":{"building":"yes","name":"Camping Parque Estadual do Rio Vermelho"}},"4620527291":{"location":[-27.4278538,-48.4483989],"ct":"BR","tp":"CS","ts":"2017-01-22T14:50:36Z","tX":374,"tY":593,"tags":{"addr:housenumber":"2251","addr:street":"Rua Madre Maria Vilac","contact:email":"contato@campingcostadosol.com.br","contact:phone":"+55 48 3266-1799","contact:website":"http://www.campingcostadosol.com.br/","internet_access":"yes","name":"Costa do Sol","name:en":"Sun Coast","name:es":"Costa del Sol","toilets":"yes"}},"4756637423":{"location":[-27.407698,-48.424287],"ct":"BR","tp":"CS","ts":"2017-03-26T18:02:07Z","tX":374,"tY":593,"tags":{"name":"Camping Sindipres","name:pt":"Camping Sindipres"}},"4995301721":{"location":[-27.4311573,-48.4708997],"ct":"BR","tp":"CS","ts":"2020-07-18T05:22:28Z","tX":374,"tY":593,"tags":{"contact:phone":"+55 48 99177-4472","internet_access":"wlan","name":"Caminho do Rei","name:en":"Kings Way","name:es":"Camino del Rey"}},"5108005025":{"location":[-27.5841571,-48.4369377],"ct":"BR","tp":"CS","ts":"2017-09-15T17:52:04Z","tX":374,"tY":593,"tags":{}},"5108005522":{"location":[-27.5710313,-48.4293454],"ct":"BR","tp":"CS","ts":"2017-09-15T17:52:00Z","tX":374,"tY":593,"tags":{"name":"Elase Sede de Praia"}},"8957816818":{"location":[-27.5671389,-48.4814501],"ct":"BR","tp":"CS","ts":"2021-07-28T17:12:02Z","tX":374,"tY":593,"tags":{"name:en":"wild camping"}},"9956617129":{"location":[-27.5876068,-48.4265347],"ct":"BR","tp":"CS","ts":"2022-08-16T09:47:01Z","tX":374,"tY":593,"tags":{"name":"Camping Selvagem"}}}