{"5153690433":{"location":[55.6556817,23.1954176],"ct":"LT","tp":"CS","ts":"2022-07-31T04:44:56Z","tX":577,"tY":320,"tags":{"description":"Skirta ilgalaikiam poilsiui su nakvyne. Stovyklavietėje yra automobilių ir palapinių statymo vietos, laužavietės, pavėsinės, stalai, suolai, sūpynės vaikams. Stovyklavietė gausiai Iankoma apylinkių gyventojų ir svečių iš kitų rajonų.","name":"Gauštvinio ežero stovyklavietė","operator":"Valstybinė miškų urėdija","phone":"+370 428 71300"}},"6653409384":{"location":[55.7282817,22.964872],"ct":"LT","tp":"CS","ts":"2022-05-26T05:21:54Z","tX":577,"tY":320,"tags":{"access":"yes","email":"info@yurtos.lt","fee":"yes","internet_access":"wlan","internet_access:fee":"no","name":"Yurtos","website":"https://www.yurtos.lt/"}},"7677571285":{"location":[55.6086189,23.1919024],"ct":"LT","tp":"CS","ts":"2020-07-11T07:28:13Z","tX":577,"tY":320,"tags":{"addr:city":"Tytuvėnai","addr:housenumber":"8","addr:postcode":"86469","addr:street":"Miškininkų g.","email":"andriusal@gmail.com","name":"Kempingas „Gilius“","name:en":"Camping \"Gilius\"","name:lt":"Kempingas „Gilius“","opening_hours":"24/7","operator":"Andrius","phone":"+37060598899"}},"8822474760":{"location":[55.7722489,23.1256699],"ct":"LT","tp":"CS","ts":"2021-09-12T19:31:01Z","tX":577,"tY":320,"tags":{"description":"Dengtilčio stovyklavietė prie Dubysos upės, Šiaulių raj. Vietos palapinėms statyti, rengti renginius. Įrengtos 3 vietos su stalais, suolais ir laužavietėmis.","image":"https://saugoma.lt:8080/sites/default/files/objects/photos/2020-08/Dengtil%C4%8Dio%20stovyklaviet%C4%97.jpg","name":"Dengtilčio stovyklavietė","website":"https://saugoma.lt/lt/objektai/dengtilcio-stovyklaviete"}}}