{"12461373":{"location":[53.9565915,23.1117276],"ct":"PL","tp":"CS","ts":"2023-10-14T04:47:26Z","tX":577,"tY":328,"tags":{"addr:housenumber":"18","addr:place":"Danowskie","addr:postcode":"16-304","caravans":"yes","email":"lidia@danowskiewzatoce.pl","name":"Camping w Zatoce","opening_hours":"Sa-Su 07:00-23:00","phone":"+48 603 961 990","shower":"yes","tents":"yes","toilets":"yes","website":"https://danowskiewzatoce.pl/"}},"185752560":{"location":[54.0932422,22.915523],"ct":"PL","tp":"CR","ts":"2024-07-17T22:48:32Z","tX":577,"tY":328,"tags":{"addr:city":"Suwałki","addr:city:simc":"0977456","addr:housenumber":"26","addr:postcode":"16-400","addr:street":"Zarzecze","caravans":"yes","fee":"yes","internet_access":"yes","name":"Eurocamping nr 133","operator":"Ośrodek Sportu i Rekreacja w Suwałkach","phone":"+48 87 567 33 07; +48 87 566 72 20","shower":"yes","toilets":"yes","website":"https://osir.suwalki.pl/nasze-obiekty/eurocamping/"}},"294318144":{"location":[54.0173553,23.1319056],"ct":"PL","tp":"CS","ts":"2024-12-29T23:21:37Z","tX":577,"tY":328,"tags":{"addr:city":"Krasnopol","addr:postcode":"16-503","addr:street":"Zakąty","email":"turystyka@wigry.org.pl","landuse":"grass","name":"Jastrzęby","phone":"+48 703400440","website":"https://www.suwalszczyzna.net/camp,146,de.html"}},"357095156":{"location":[54.093413,22.9343874],"ct":"PL","tp":"CR","ts":"2025-01-12T06:45:44Z","tX":577,"tY":328,"tags":{"addr:city":"Suwałki","addr:housenumber":"9","addr:postcode":"16-400","addr:street":"Polna","capacity":"6","dish_washing":"yes","fee":"yes","internet_access":"yes","internet_access:fee":"no","kitchen":"no","name":"Zajazd Private","panoramax":"c58082f9-faa4-48fa-ae47-9f2579948271","panoramax:0":"d3f3b8ce-560c-4e6f-9c1d-ffc3fd217b62","power_supply":"yes","toilets":"yes"}},"357115380":{"location":[54.0931884,22.9341924],"ct":"PL","tp":"CS","ts":"2025-01-12T06:49:33Z","tX":577,"tY":328,"tags":{"addr:city":"Suwałki","addr:housenumber":"9","addr:postcode":"16-400","addr:street":"Polna","capacity":"20","caravans":"yes","dish_washing":"yes","fee":"yes","kitchen":"no","name":"Zajazd Private","nobrand":"yes","panoramax":"811a1856-022a-4c09-a378-2ee314dfcb22","panoramax:0":"a4fd2a41-5de6-4882-9349-ded19fc66450","payment:cash":"yes","payment:mastercard":"yes","payment:visa":"yes","phone":"+48 502 644 599","static_caravans":"yes","tents":"yes","website":"https://zajazdprivate.pl/"}},"395455479":{"location":[54.0644433,23.1851164],"ct":"PL","tp":"CS","ts":"2024-06-30T10:09:47Z","tX":577,"tY":328,"tags":{"access":"customers","addr:city":"Krasnopol","addr:housenumber":"2","addr:postcode":"16-503","addr:street":"Buda Ruska","area":"yes","caravans":"no","fee":"yes","name":"Zakole","phone":"+48 509 320 229","source":"geoportal.gov.pl:ortofoto","tents":"yes","website":"https://kajakiczarnahancza.com/"}},"425944086":{"location":[54.0234065,22.9935246],"ct":"PL","tp":"CS","ts":"2023-10-14T04:49:40Z","tX":577,"tY":328,"tags":{"addr:city":"Suwałki","addr:housenumber":"18","addr:postcode":"16-402","addr:street":"Gawrych Ruda","cabins":"yes","capacity:pitches":"30","caravans":"yes","internet_access":"wlan","name":"Green Velo Camp","phone":"+48 604 470 167","shower":"yes","tents":"yes","toilets":"yes","website":"https://www.nadwigrami.info/","wheelchair":"limited"}},"425945203":{"location":[54.0194417,23.0197943],"ct":"PL","tp":"CS","ts":"2023-04-29T07:13:01Z","tX":577,"tY":328,"tags":{"caravans":"yes","email":"ujawora2@op.pl","fax":"87563 93 36","name":"U Jawora","operator":"Kompleks Turystyczny \"U Jawora\" s.c.","phone":"+48 691 727 865; +48 87 563 93 36","ref:pfcc":"70","tents":"yes","website":"http://www.ujawora.pl/"}},"425950231":{"location":[54.0010055,23.0826551],"ct":"PL","tp":"CS","ts":"2019-03-26T15:17:12Z","tX":577,"tY":328,"tags":{"caravans":"yes","email":"widok@bryzgiel.pl","fixme":"Check address existence","name":"WIDOK","phone":"+48 502 304588","power_supply":"yes","tents":"yes","website":"https://bryzgiel.pl/"}},"426009713":{"location":[54.0697936,23.0846402],"ct":"PL","tp":"CS","ts":"2024-09-18T13:01:41Z","tX":577,"tY":328,"tags":{"addr:housenumber":"12","addr:postcode":"16-412","addr:street":"Wigry","caravans":"yes","email":"halina_000@op.pl","name":"u Haliny","phone":"+48 87 563 70 42","tents":"yes","website":"http://www.suwalszczyzna.com.pl/uhaliny/"}},"426009714":{"location":[54.0767979,23.074681],"ct":"PL","tp":"CS","ts":"2023-04-10T15:16:44Z","tX":577,"tY":328,"tags":{"cabins":"yes","caravans":"yes","email":"wigry@wigry.info","mobile":"+48 693 705 487","name":"Łukowy Kąt","phone":"+48 87 563 77 89","power_supply":"yes","tents":"yes","website":"http://wigry.info/"}},"514993197":{"location":[54.0503057,23.112537],"ct":"PL","tp":"CS","ts":"2017-08-12T11:36:23Z","tX":577,"tY":328,"tags":{"capacity":"10","caravans":"no","fee":"yes","openfire":"yes","tents":"yes"}},"596677078":{"location":[53.9653466,23.0452061],"ct":"PL","tp":"CS","ts":"2018-06-11T23:50:14Z","tX":577,"tY":328,"tags":{}},"1190150140":{"location":[54.0484045,23.1305365],"ct":"PL","tp":"CS","ts":"2024-09-15T18:32:21Z","tX":577,"tY":328,"tags":{"access":"customers","addr:housenumber":"37A","addr:street":"Mikołajewo","operator":"Jurkun","phone":"+48 602 344 711","website":"http://jurkun.wigry.pl/"}},"3689575987":{"location":[54.0583257,23.1930755],"ct":"PL","tp":"CS","ts":"2015-08-10T13:54:57Z","tX":577,"tY":328,"tags":{}},"3689587884":{"location":[54.061789,23.1798792],"ct":"PL","tp":"CS","ts":"2025-01-07T18:44:15Z","tX":577,"tY":328,"tags":{"name":"Za szkołą","operator":"Wigierski Park Narodowy"}},"3689587888":{"location":[54.0609558,23.1810339],"ct":"PL","tp":"CS","ts":"2023-07-14T10:04:50Z","tX":577,"tY":328,"tags":{"caravans":"no","drinking_water":"no","internet_access":"no","name:signed":"no","power_supply":"no","shower":"no","tents":"yes","toilets":"no"}},"3689587894":{"location":[54.0509424,23.1715786],"ct":"PL","tp":"CS","ts":"2015-08-10T14:03:37Z","tX":577,"tY":328,"tags":{}},"3689587896":{"location":[54.0550676,23.1755251],"ct":"PL","tp":"CS","ts":"2015-12-04T23:36:08Z","tX":577,"tY":328,"tags":{}},"3757988625":{"location":[54.0696038,23.0906268],"ct":"PL","tp":"CS","ts":"2023-10-29T11:50:54Z","tX":577,"tY":328,"tags":{"name":"Kapi Kajak"}},"4322766416":{"location":[54.0537208,23.1970871],"ct":"PL","tp":"CS","ts":"2016-07-28T06:06:24Z","tX":577,"tY":328,"tags":{"fee":"yes","name":"Pod Jesionem"}},"5809862603":{"location":[54.0630131,23.067409],"ct":"PL","tp":"CS","ts":"2018-08-05T07:23:21Z","tX":577,"tY":328,"tags":{}},"11053796614":{"location":[54.0519635,23.0622816],"ct":"PL","tp":"CS","ts":"2024-06-13T21:40:03Z","tX":577,"tY":328,"tags":{"addr:city":"Suwałki","addr:housenumber":"11","addr:place":"Cimochowizna","addr:postcode":"16-402","capacity:caravans":"30","capacity:persons":"200","capacity:tents":"50","caravans":"yes","description":"Osada na Cyplu to pole namiotowe i przestrzeń dla camperów oraz przyczep jakiej jeszcze nie było. Malownicze parcele wśród drzew zlokalizowane są na 4 poziomach jednego z najpiękniejszych zakątków Wigier a całość dopełnia przemyślany system leśnych duktów","name":"Osada na Cyplu pole namiotowe i kempingowe","payment:apple_pay":"yes","payment:blik":"yes","payment:cards":"yes","payment:coins":"yes","payment:contactless":"yes","payment:credit_cards":"yes","payment:diners_club":"yes","payment:discover_card":"yes","payment:gpay":"yes","payment:jcb":"yes","payment:maestro":"yes","payment:mastercard":"yes","payment:notes":"yes","payment:samsung_pay":"yes","payment:unionpay":"yes","payment:visa":"yes","payment:vpay":"yes","power_supply":"yes","static_caravans":"no","tents":"yes"}},"12192723325":{"location":[54.0658312,23.0690361],"ct":"PL","tp":"CS","ts":"2024-09-22T13:15:44Z","tX":577,"tY":328,"tags":{"name":"Agroturystyka"}},"5561079553":{"location":[54.0931127,22.9164897],"ct":"PL","tp":"SD","ts":"2018-08-14T18:59:10Z","tX":577,"tY":328,"tags":{"operator":"OSiR w Suwałkach"}}}