{"304696241":{"location":[51.5014079,22.8776962],"ct":"PL","tp":"CS","ts":"2023-09-02T11:28:41Z","tX":577,"tY":340,"tags":{"addr:city":"Ostrów Lubelski","addr:postcode":"21-110","surface":"grass"}},"307758458":{"location":[51.518594,23.0261117],"ct":"PL","tp":"CS","ts":"2023-01-09T13:21:02Z","tX":577,"tY":340,"tags":{"access":"yes","capacity":"100","fee":"yes","operator":"Lasy Państwowe"}},"819371653":{"location":[51.5021525,22.8842518],"ct":"PL","tp":"CS","ts":"2023-10-23T03:53:50Z","tX":577,"tY":340,"tags":{"addr:city":"Ostrów Lubelski","addr:postcode":"21-110","name":"Osada Indiańska","website":"https://osadaindianska.pl/"}},"1086371567":{"location":[51.4766735,23.003512],"ct":"PL","tp":"CS","ts":"2022-08-15T08:58:14Z","tX":577,"tY":340,"tags":{"addr:place":"Orzechów-Kolonia","addr:postcode":"21-109","contact:facebook":"https://www.facebook.com/pg/Tomaszne/","name":"Pole namiotowe Wyderka","phone":"+48 502 521 521","website":"http://tomaszne.pl"}},"1087192370":{"location":[51.4632902,22.9447483],"ct":"PL","tp":"CS","ts":"2022-09-02T20:02:05Z","tX":577,"tY":340,"tags":{}},"1091340402":{"location":[51.5312505,23.0157184],"ct":"PL","tp":"CS","ts":"2022-09-02T19:17:15Z","tX":577,"tY":340,"tags":{"access":"customers","fee":"yes","name":"Pokoje na Słonecznej","source":"https://slonecznabialka.pl/;survey","website":"https://slonecznabialka.pl/"}},"1307555532":{"location":[51.4309643,23.0313645],"ct":"PL","tp":"CS","ts":"2024-08-13T18:53:11Z","tX":577,"tY":340,"tags":{"access":"customers","caravans":"yes","fee":"yes","tents":"yes"}},"1307555539":{"location":[51.4327438,23.0303503],"ct":"PL","tp":"CS","ts":"2024-08-13T18:53:11Z","tX":577,"tY":340,"tags":{"access":"customers","caravans":"yes","fee":"yes","tents":"yes"}},"4768188938":{"location":[51.4888676,23.1671436],"ct":"PL","tp":"CS","ts":"2018-05-06T08:11:15Z","tX":577,"tY":340,"tags":{"name":"pole namiotowe PPN","operator":"Poleski Park Narodowy"}},"7817208985":{"location":[51.4240182,22.9662879],"ct":"PL","tp":"CS","ts":"2020-08-16T12:33:46Z","tX":577,"tY":340,"tags":{}},"11250455163":{"location":[51.497051,23.1690182],"ct":"PL","tp":"CS","ts":"2023-10-09T06:48:12Z","tX":577,"tY":340,"tags":{"contact:facebook":"https://www.facebook.com/kempingpolesie","contact:phone":"+48 533 614 250","name":"Kemping Polesie"}},"4960229223":{"location":[51.4454322,23.1219836],"ct":"PL","tp":"CR","ts":"2017-07-09T17:28:49Z","tX":577,"tY":340,"tags":{"name":"Pole wypoczynkowe","name:pl":"Pole wypoczynkowe","opening_hours":"24/7"}}}