{"8337258":{"location":[50.6092889,22.9621207],"ct":"PL","tp":"CS","ts":"2024-06-17T07:32:44Z","tX":577,"tY":344,"tags":{"cabins":"yes","caravans":"yes","fee":"yes","kitchen":"yes","lit":"yes","motorhome":"yes","name":"Echo","shower":"yes","tents":"yes"}},"203792975":{"location":[50.6089496,22.9887587],"ct":"PL","tp":"CS","ts":"2020-08-29T09:31:55Z","tX":577,"tY":344,"tags":{"access":"customers","capacity":"20","fee":"yes","name":"Rusałka","phone":"+48 607 988 630, +48 609 205 688","website":"http://www.polenamiotowe.cba.pl/"}},"517018035":{"location":[50.630077,22.9482032],"ct":"PL","tp":"CS","ts":"2022-05-26T21:26:00Z","tX":577,"tY":344,"tags":{"area":"yes","name":"Nad rzeką Wieprz","phone":"+48530702705","website":"https://nadrzekawieprz.infoturystyka.pl/"}},"519840981":{"location":[50.6034977,23.0089685],"ct":"PL","tp":"CS","ts":"2023-11-12T12:06:16Z","tX":577,"tY":344,"tags":{"barrier":"fence","email":"lesnyazyl@obrocz.pl","landuse":"recreation_ground","name":"Leśny Azyl - Domki Letniskowe","phone":"+48 511 142 866"}},"1421045864":{"location":[50.5429908,23.1960926],"ct":"PL","tp":"CS","ts":"2022-05-25T16:58:27Z","tX":577,"tY":344,"tags":{"addr:city":"Krasnobród","addr:city:simc":"0891281","addr:housenumber":"17","addr:postcode":"22-440","addr:street":"Wczasowa","source:addr":"gugik.gov.pl"}},"1421045874":{"location":[50.5428387,23.1966602],"ct":"PL","tp":"CR","ts":"2014-01-12T15:05:25Z","tX":577,"tY":344,"tags":{}},"12237358486":{"location":[50.5219079,23.0232024],"ct":"PL","tp":"CS","ts":"2024-10-09T07:48:26Z","tX":577,"tY":344,"tags":{"addr:city":"Majdan Kasztelański","addr:housenumber":"47","addr:postcode":"23-460","email":"kontakt@roztoczecamp.pl","facebook":"https://www.facebook.com/RoztoczeCamp","name":"RoztoczeCamp","phone":"+48601096036","website":"https://www.roztoczecamp.pl/"}},"11986964665":{"location":[50.6097108,22.9626313],"ct":"PL","tp":"SD","ts":"2024-06-17T07:32:44Z","tX":577,"tY":344,"tags":{"access":"customers","sanitary_dump_station:round_drain":"yes"}}}