{"26859929":{"location":[37.5306774,22.8839138],"ct":"GR","tp":"CS","ts":"2020-11-11T23:38:58Z","tX":577,"tY":396,"tags":{"name":"Assini Beach"}},"26859934":{"location":[37.6185456,23.1565406],"ct":"GR","tp":"CS","ts":"2020-02-03T22:26:20Z","tX":577,"tY":396,"tags":{"name":"Bekas Beach","phone":"+30 27530 99930","website":"https://bekas.gr"}},"26860055":{"location":[37.5322251,22.8914468],"ct":"GR","tp":"CS","ts":"2021-08-19T08:54:25Z","tX":577,"tY":396,"tags":{"caravan":"yes","name":"New Triton","pet":"yes","phone":"+30 27520 92128","start_date":"1984","tents":"yes","website":"www.newtriton.gr","wheelchair":"yes"}},"26860057":{"location":[37.616111,23.158611],"ct":"GR","tp":"CS","ts":"2020-02-03T21:41:32Z","tX":577,"tY":396,"tags":{"name":"Nicolas II","phone":"+30 27530 41445","website":"https://mouria.gr/en/nicolas-ii/","wlan":"yes"}},"129550462":{"location":[37.4971385,22.991231],"ct":"GR","tp":"CS","ts":"2024-06-27T13:57:31Z","tX":577,"tY":396,"tags":{"cabins":"yes","internet_access":"wlan","name":"Iria Beach Camping","payment:credit_cards":"yes","phone":"+30 27520 94253","website":"https://www.iriabeach.com/"}},"180336940":{"location":[37.5191649,22.9762236],"ct":"GR","tp":"CS","ts":"2023-08-25T14:14:09Z","tX":577,"tY":396,"tags":{"addr:city":"Nafplio","addr:postcode":"21060","addr:street":"Kandia","caravans":"yes","drinking_water":"no","email":"scalacamp@gmail.com","internet_access":"wlan","name":"Camping Scala","phone":"+30 2752 094366","power_supply":"yes","shower":"yes","start_date":"1972","tents":"yes","toilets":"yes","website":"http://www.scalacamping.gr"}},"281904652":{"location":[37.6191465,23.1569108],"ct":"GR","tp":"CS","ts":"2020-03-19T08:14:32Z","tX":577,"tY":396,"tags":{"name":"Camping site"}},"366983280":{"location":[37.5052838,22.9866485],"ct":"GR","tp":"CS","ts":"2023-03-12T21:23:34Z","tX":577,"tY":396,"tags":{"cabins":"yes","caravans":"yes","name":"Κάμπιγκ Ποσειδών","name:en":"Posidon","phone":"+30 2752 0 94091","shower":"yes","tents":"yes","toilets":"yes","website":"https://www.posidoncamping.gr"}},"387525301":{"location":[37.5282328,22.8761471],"ct":"GR","tp":"CS","ts":"2020-01-26T19:48:22Z","tX":577,"tY":396,"tags":{"area":"yes","name":"Kastraki","payment:cash":"only","pets":"yes","phone":"+30 27520 59386","start_date":"1977","website":"https://kastrakicamping.gr","wlan":"yes"}},"444627210":{"location":[37.5336747,22.9317138],"ct":"GR","tp":"CS","ts":"2023-10-17T18:33:14Z","tX":577,"tY":396,"tags":{"name":"Lefka Beach","phone":"+30 27520 92334","website":"https://camping-lefka.gr/"}},"511624790":{"location":[37.6780404,23.1491763],"ct":"GR","tp":"CS","ts":"2017-07-31T05:18:51Z","tX":577,"tY":396,"tags":{}},"513900358":{"location":[37.5326778,22.8902998],"ct":"GR","tp":"CS","ts":"2023-10-17T18:40:10Z","tX":577,"tY":396,"tags":{"name":"Triton II","phone":"+30 27520 92228","website":"https://www.tritonii.gr/"}},"766743513":{"location":[37.530285,22.8723892],"ct":"GR","tp":"CS","ts":"2023-10-18T19:27:37Z","tX":577,"tY":396,"tags":{"internet_access":"wlan","name":"Xeni","phone":"+30 27520 59338","website":"https://www.xeni.gr/"}},"898846842":{"location":[37.5290003,22.8662842],"ct":"GR","tp":"CS","ts":"2023-10-11T18:17:16Z","tX":577,"tY":396,"tags":{"internet_access":"wlan","name":"Lido","pet":"yes","phone":"+30 27520 59396","website":"http://www.lido.gr"}},"2460299252":{"location":[37.5301282,22.8650134],"ct":"GR","tp":"CS","ts":"2023-10-18T19:27:37Z","tX":577,"tY":396,"tags":{"email":"info@camping-sunset.gr","fax":"+302752059195","internet_access":"wlan","name":"Sunset","payment:mastercard":"yes","payment:visa":"yes","pet":"yes","phone":"+302752059566","website":"https://www.camping-sunset.gr/"}},"2860595929":{"location":[37.6796796,23.1495171],"ct":"GR","tp":"CS","ts":"2014-05-15T19:32:44Z","tX":577,"tY":396,"tags":{}},"3818724732":{"location":[37.6298703,23.1580187],"ct":"GR","tp":"CS","ts":"2023-08-28T11:23:25Z","tX":577,"tY":396,"tags":{"caravans":"yes","int_name":"Nikolas I","internet_access":"wlan","name":"Νικόλας I","phone":"+30 27530 41297","tents":"yes","website":"https://mouria.gr/en/nicolas-i/"}},"5950093004":{"location":[37.5330973,22.8924793],"ct":"GR","tp":"CS","ts":"2023-10-18T19:27:37Z","tX":577,"tY":396,"tags":{"addr:city":"Πλάκα Δρεπάνου","internet_access":"wlan","name":"Argolic Strand","phone":"+30 6976-998743","website":"https://www.argolic-strand.gr/"}},"5950106285":{"location":[37.5335891,22.8929937],"ct":"GR","tp":"CS","ts":"2018-10-02T23:47:45Z","tX":577,"tY":396,"tags":{"addr:city":"Πλάκα Δρεπάνου","name":"Πλάκα Beach"}},"6887069885":{"location":[37.5281953,22.8669582],"ct":"GR","tp":"CS","ts":"2019-10-16T20:01:35Z","tX":577,"tY":396,"tags":{"name:it":"Lido"}}}