{"9999187":{"location":[52.6980389,1.7010731],"ct":"GB","tp":"CR","ts":"2019-09-04T12:22:01Z","tX":516,"tY":334,"tags":{"addr:housename":"Hemsby Beach Holiday Park","addr:postcode":"NR29 4HR","addr:street":"Beach Road","internet_access":"wlan","name":"Hemsby Beach Holiday Park","source":"Bing"}},"75299479":{"location":[52.7072311,1.5389337],"ct":"GB","tp":"CS","ts":"2014-04-03T18:13:46Z","tX":516,"tY":334,"tags":{"name":"Broadlands"}},"108665108":{"location":[52.787773,1.5995652],"ct":"GB","tp":"CR","ts":"2025-03-05T18:02:54Z","tX":516,"tY":334,"tags":{"caravans":"yes","name":"Golden Sands Holiday Centre"}},"110404860":{"location":[52.7129936,1.5745909],"ct":"GB","tp":"CR","ts":"2024-05-23T06:14:40Z","tX":516,"tY":334,"tags":{"addr:city":"Norwich","addr:country":"GB","addr:postcode":"NR29 5JB","addr:street":"Bridge Road","caravans":"yes","name":"Norfolk Broads Caravan Park"}},"124553282":{"location":[52.8905176,1.4103736],"ct":"GB","tp":"CR","ts":"2023-10-28T03:38:54Z","tX":516,"tY":334,"tags":{"addr:city":"Norwich","addr:country":"GB","addr:postcode":"NR11 8DX","addr:street":"Beacon Road","email":"office@triminghamhousecaravanpark.com","fax":"+44 1263 721733","name":"Trimingham House Caravan Park","phone":"+44 1263 720421","website":"https://triminghamhousecaravanpark.com/"}},"129994858":{"location":[52.8068088,1.5694275],"ct":"GB","tp":"CR","ts":"2011-10-03T22:03:03Z","tX":516,"tY":334,"tags":{"name":"Eccles Beach Caravan Park"}},"159037231":{"location":[52.7002944,1.5144567],"ct":"GB","tp":"CR","ts":"2024-05-08T20:58:13Z","tX":516,"tY":334,"tags":{"name":"Broadlands","phone":"+44 1692 630357"}},"174153686":{"location":[52.8569253,1.471499],"ct":"GB","tp":"CR","ts":"2021-08-15T15:06:53Z","tX":516,"tY":334,"tags":{}},"174153701":{"location":[52.8543992,1.4751277],"ct":"GB","tp":"CR","ts":"2025-03-07T17:31:13Z","tX":516,"tY":334,"tags":{"name":"Cable Gap"}},"204925451":{"location":[52.7961045,1.5885789],"ct":"GB","tp":"CS","ts":"2022-08-24T12:36:42Z","tX":516,"tY":334,"tags":{"addr:postcode":"NR12 0SR","name":"Sea Breeze Campsite","phone":"+44 1692581784","website":"http://www.seabreezecampsite.com/"}},"217954977":{"location":[52.7066626,1.6985051],"ct":"GB","tp":"CR","ts":"2013-04-19T12:56:51Z","tX":516,"tY":334,"tags":{"name":"Winterton Holidays","note":"Actually self-catering shallets","url":"http://www.wintertonholidays.com/"}},"217955369":{"location":[52.7016958,1.7020572],"ct":"GB","tp":"CR","ts":"2013-04-19T13:02:13Z","tX":516,"tY":334,"tags":{"source":"Bing"}},"238041487":{"location":[52.8422088,1.500556],"ct":"GB","tp":"CR","ts":"2014-06-21T11:57:25Z","tX":516,"tY":334,"tags":{"addr:city":"Norwich","addr:country":"GB","addr:postcode":"NR12 0AP","addr:street":"Coast Road","email":"info@walcottpark.co.uk","name":"Walcott Caravan & Chalet Park","operator":"Mrs P. M. McCarthy","phone":"+44 1692 650020","website":"http://www.walcottpark.co.uk/"}},"238048479":{"location":[52.8853891,1.4217338],"ct":"GB","tp":"CR","ts":"2023-09-27T13:23:09Z","tX":516,"tY":334,"tags":{"addr:city":"Norwich","addr:country":"GB","addr:postcode":"NR11 8DF","addr:street":"Cromer Road","email":"info@kilncliffscaravanpark.co.uk","internet_access":"wlan","name":"Kiln Cliffs Caravan Park","phone":"+44 1263 720449","website":"http://www.kilncliffsholidayhomesmundesley.co.uk/"}},"238048480":{"location":[52.8766427,1.424585],"ct":"GB","tp":"CR","ts":"2017-04-07T11:41:18Z","tX":516,"tY":334,"tags":{"internet_access":"wlan","name":"Links Caravan Park","phone":"+44 1758613740","power_supply":"yes","sanitary_dump_station":"yes"}},"238048483":{"location":[52.8866888,1.4186925],"ct":"GB","tp":"CR","ts":"2022-01-27T19:20:49Z","tX":516,"tY":334,"tags":{"addr:city":"Norwich","addr:country":"GB","addr:postcode":"NR11 8DF","addr:street":"Cromer Road","email":"info@sandygulls.co.uk","internet_access":"wlan","name":"Sandy Gulls Caravan Park","phone":"+44 1263 720513","website":"https://www.sandygulls.co.uk/"}},"288487773":{"location":[52.7337915,1.4662549],"ct":"GB","tp":"CS","ts":"2015-08-05T22:07:16Z","tX":516,"tY":334,"tags":{"name":"Street Hill Camping","phone":"+44 1692630320"}},"304002817":{"location":[52.6994256,1.5718511],"ct":"GB","tp":"CS","ts":"2015-08-12T17:46:27Z","tX":516,"tY":334,"tags":{"name":"Willowcroft Farm","phone":"+44 1692670380"}},"353948710":{"location":[52.7624148,1.6423105],"ct":"GB","tp":"CS","ts":"2015-08-05T22:53:49Z","tX":516,"tY":334,"tags":{"name":"Waxham Sands Holiday Park","phone":"+44 1692598325"}},"594657501":{"location":[52.853152,1.4786633],"ct":"GB","tp":"CR","ts":"2023-10-28T03:39:48Z","tX":516,"tY":334,"tags":{"addr:city":"Norwich","addr:housename":"The Leas Beach Park","addr:postcode":"NR12 0HS","addr:street":"Mill Lane","addr:village":"Bacton","area":"yes","contact:email":"enquiry@theleasbeachpark.co.uk","contact:phone":"+441692652115","description":"Self catering holiday caravans","name":"The Leas Beach Park","website":"https://www.theleasbeachpark.co.uk/"}},"601093211":{"location":[52.7890055,1.6029198],"ct":"GB","tp":"CR","ts":"2020-06-22T14:34:10Z","tX":516,"tY":334,"tags":{"name":"Sandy Hills Holiday Park"}},"761581710":{"location":[52.7446074,1.5528954],"ct":"GB","tp":"CR","ts":"2020-01-07T22:33:31Z","tX":516,"tY":334,"tags":{"capacity":"5","name":"Heather House Farm","phone":"+44 1692598434"}},"818483623":{"location":[52.7884292,1.6021363],"ct":"GB","tp":"CR","ts":"2020-06-22T14:34:10Z","tX":516,"tY":334,"tags":{}},"827799207":{"location":[52.791588,1.4522401],"ct":"GB","tp":"CS","ts":"2020-07-19T07:35:35Z","tX":516,"tY":334,"tags":{"capacity":"35","name":"Canal Camping"}},"844633613":{"location":[52.8224786,1.528847],"ct":"GB","tp":"CR","ts":"2024-07-22T09:20:26Z","tX":516,"tY":334,"tags":{"name":"Manor Caravan Park","note":"Relocated here from former clifftop site","website":"https://manorcaravanpark.org/"}},"855314965":{"location":[52.8514777,1.4788391],"ct":"GB","tp":"CR","ts":"2024-09-03T15:45:38Z","tX":516,"tY":334,"tags":{"name":"Coast Road Chalet Estate","source":"Bing"}},"973436166":{"location":[52.7469089,1.5564736],"ct":"GB","tp":"CS","ts":"2021-08-16T06:47:51Z","tX":516,"tY":334,"tags":{"addr:street":"Heath Road","name":"Hickling Campsite"}},"974678033":{"location":[52.7505742,1.556513],"ct":"GB","tp":"CR","ts":"2021-08-19T14:36:24Z","tX":516,"tY":334,"tags":{"addr:street":"Sutton Road","name":"Heath Barn Certificated Location"}},"975337393":{"location":[52.7271506,1.5282986],"ct":"GB","tp":"CS","ts":"2021-08-22T05:43:44Z","tX":516,"tY":334,"tags":{"capacity":"5","name":"Grove Farm Barns","phone":"+44 1692670482"}},"977345171":{"location":[52.7564447,1.5679535],"ct":"GB","tp":"CR","ts":"2021-08-28T13:09:50Z","tX":516,"tY":334,"tags":{"name":"Pine Grove"}},"1025215399":{"location":[52.8753787,1.4390664],"ct":"GB","tp":"CR","ts":"2022-01-27T13:48:39Z","tX":516,"tY":334,"tags":{"name":"The Dell Chalet Park"}},"1025895646":{"location":[52.8519592,1.4783324],"ct":"GB","tp":"CR","ts":"2022-01-30T17:41:21Z","tX":516,"tY":334,"tags":{"name":"Beach Haven Caravan Park","source":"Bing"}},"1246154484":{"location":[52.7867443,1.5986814],"ct":"GB","tp":"CR","ts":"2011-04-15T19:59:44Z","tX":516,"tY":334,"tags":{}},"1337365466":{"location":[52.8315202,1.4217628],"ct":"GB","tp":"CR","ts":"2011-06-24T19:10:42Z","tX":516,"tY":334,"tags":{}},"1337365493":{"location":[52.831423,1.4222778],"ct":"GB","tp":"CS","ts":"2015-07-28T19:42:23Z","tX":516,"tY":334,"tags":{"name":"Stoney Brook"}},"1711402241":{"location":[52.7055641,1.5344553],"ct":"GB","tp":"CR","ts":"2012-04-28T17:14:21Z","tX":516,"tY":334,"tags":{"name":"Manor Lodge"}},"2920457464":{"location":[52.7337887,1.466223],"ct":"GB","tp":"CR","ts":"2014-06-17T15:23:05Z","tX":516,"tY":334,"tags":{}},"3657588264":{"location":[52.7632806,1.6318325],"ct":"GB","tp":"CS","ts":"2015-08-05T22:53:49Z","tX":516,"tY":334,"tags":{"name":"Walnut Farm","phone":"+44 1692598217"}},"3670790654":{"location":[52.8466301,1.4167255],"ct":"GB","tp":"CR","ts":"2015-07-28T19:42:17Z","tX":516,"tY":334,"tags":{"capacity":"5","name":"Parrs Farm"}},"3683086040":{"location":[52.7363874,1.4093499],"ct":"GB","tp":"CR","ts":"2015-08-05T22:07:15Z","tX":516,"tY":334,"tags":{"name":"Poplars Farm","phone":"+44 1603784006"}},"3683113839":{"location":[52.848805,1.4856977],"ct":"GB","tp":"CR","ts":"2015-08-05T22:29:40Z","tX":516,"tY":334,"tags":{"name":"Buttercup Meadow","phone":"+44 1692650965"}},"3683113840":{"location":[52.8317163,1.4802816],"ct":"GB","tp":"CR","ts":"2015-08-05T22:29:40Z","tX":516,"tY":334,"tags":{"name":"Commonwood","phone":"+44 1692650548"}},"3683127935":{"location":[52.7618054,1.5387035],"ct":"GB","tp":"CR","ts":"2015-08-05T22:53:47Z","tX":516,"tY":334,"tags":{"name":"Bush House Farm","phone":"+44 1692580365"}},"3683127936":{"location":[52.8041976,1.5204522],"ct":"GB","tp":"CR","ts":"2015-08-05T22:53:47Z","tX":516,"tY":334,"tags":{"name":"Gotrans","phone":"+44 1692651097"}},"3683127938":{"location":[52.8041218,1.5156203],"ct":"GB","tp":"CS","ts":"2015-08-05T22:53:47Z","tX":516,"tY":334,"tags":{"name":"Whittletons Farm","phone":"+44 1692650485"}},"3693832586":{"location":[52.7124361,1.5761428],"ct":"GB","tp":"CS","ts":"2015-08-12T17:46:24Z","tX":516,"tY":334,"tags":{"name":"Causeway Cottage","phone":"+44 1692670238"}},"3693832592":{"location":[52.7018756,1.5151134],"ct":"GB","tp":"CS","ts":"2015-08-12T17:46:25Z","tX":516,"tY":334,"tags":{"name":"The Dog Inn","phone":"+44 1692630321"}},"3693832593":{"location":[52.7052351,1.585097],"ct":"GB","tp":"CS","ts":"2015-08-12T17:46:25Z","tX":516,"tY":334,"tags":{"name":"White House","phone":"+44 1692670403"}},"3695106463":{"location":[52.6998974,1.7031132],"ct":"GB","tp":"CS","ts":"2015-08-13T11:25:34Z","tX":516,"tY":334,"tags":{"name":"Long Beach","phone":"+44 1493730023"}},"8932977569":{"location":[52.8274287,1.5024446],"ct":"GB","tp":"CR","ts":"2021-07-19T14:57:28Z","tX":516,"tY":334,"tags":{"addr:city":"North Walsham","addr:housename":"Bellevue","addr:postcode":"NR12 0PD","addr:street":"North Walsham Road","dog":"yes","email":"bellevue@tullihaugh.mu","image":"https://nnretreats.uk/our-location","name":"Bellevue C&C Quiet Site","opening_hours":"Mo-Su 08:00-22:00","operator":"Bellevue C&C Quiet Site","post_code":"NR12 0PD","website":"https://nnretreats.uk/"}}}