{"125800706":{"location":[52.4807806,1.6663127],"ct":"GB","tp":"CR","ts":"2022-02-06T13:45:11Z","tX":516,"tY":336,"tags":{"addr:city":"Burgh St Peter","addr:postcode":"NR34 0DE","addr:street":"Staithe Road","email":"info@waveneyrivercentre.co.uk","internet_access":"yes","internet_access:fee":"yes","internet_access:ssid":"MyFi_Waveney","name":"Waveney River Centre","phone":"+44 1502 677343","power_supply":"yes","sanitary_dump_station":"no","source":"Bing","website":"https://www.waveneyrivercentre.co.uk/"}},"242869786":{"location":[52.3166056,1.6724132],"ct":"GB","tp":"CR","ts":"2023-10-22T15:39:13Z","tX":516,"tY":336,"tags":{"addr:city":"Suffolk","addr:postcode":"IP18 6ND","addr:street":"Ferry Road","fhrs:id":"1075234","name":"Southwold Camping and Caravan Site","source":"surevy;bing"}},"297218948":{"location":[52.4310548,1.7242098],"ct":"GB","tp":"CS","ts":"2023-03-12T15:59:28Z","tX":516,"tY":336,"tags":{"cabins":"yes","caravans":"yes","email":"info@thehollieskessingland.co.uk","name":"The Hollies","phone":"+44 1502 50 70 30","shower":"yes","tents":"yes","toilets":"yes","website":"https://www.thehollieskessingland.co.uk/"}},"307007218":{"location":[52.2817271,1.5957412],"ct":"GB","tp":"CS","ts":"2014-10-09T12:30:36Z","tX":516,"tY":336,"tags":{"name":"Potton Hall Campsite"}},"357399288":{"location":[52.4054814,1.724697],"ct":"GB","tp":"CR","ts":"2022-04-17T22:06:11Z","tX":516,"tY":336,"tags":{"addr:city":"Lowestoft","addr:country":"GB","addr:postcode":"NR33 7RW","addr:street":"Beach Road","brand":"Parkdean Resorts","brand:wikidata":"Q7138226","brand:wikipedia":"en:Parkdean Resorts","contact:website":"https://www.parkdeanresorts.co.uk/location/east-anglia-lincolnshire/kessingland-beach/","name":"Kessingland Beach Holiday Park","operator":"Parkdean Resorts UK Limited","source:addr:postcode":"code-point_open"}},"357403939":{"location":[52.4098331,1.7272755],"ct":"GB","tp":"CR","ts":"2022-04-17T22:06:11Z","tX":516,"tY":336,"tags":{"name":"White House Beach"}},"357403944":{"location":[52.4109489,1.7257252],"ct":"GB","tp":"CR","ts":"2022-04-17T22:06:11Z","tX":516,"tY":336,"tags":{"name":"White House Beach"}},"380553624":{"location":[52.4610466,1.4332902],"ct":"GB","tp":"CR","ts":"2022-01-08T20:06:17Z","tX":516,"tY":336,"tags":{"name":"Outney Meadow Caravan Park"}},"391079473":{"location":[52.4699006,1.7048342],"ct":"GB","tp":"CR","ts":"2023-09-25T14:19:35Z","tX":516,"tY":336,"tags":{"name":"Broadlands Park & Marina","operator":"Tingdene"}},"487207571":{"location":[52.4145934,1.7020226],"ct":"GB","tp":"CR","ts":"2024-06-14T17:26:07Z","tX":516,"tY":336,"tags":{"drinking_water":"yes","fee":"yes","name":"Kessingland Club Site","power_supply":"yes","sanitary_dump_station":"yes","toilets":"yes"}},"488756749":{"location":[52.2878708,1.5539661],"ct":"GB","tp":"CR","ts":"2025-04-16T09:43:43Z","tX":516,"tY":336,"tags":{"description":"Tents, tourers and motor homes Welcome","email":"info@hawwoodfarm.co.uk","name":"Haw Wood Caravan Park","phone":"+44 1502 359550","website":"https://www.hawwoodfarm.co.uk/"}},"584774349":{"location":[52.429488,1.7240361],"ct":"GB","tp":"CR","ts":"2018-05-07T21:13:54Z","tX":516,"tY":336,"tags":{"name":"Heathland Beach Caravan Park"}},"800860776":{"location":[52.4472921,1.7313333],"ct":"GB","tp":"CR","ts":"2023-02-05T16:52:36Z","tX":516,"tY":336,"tags":{"addr:city":"Lowestoft","addr:postcode":"NR33 7BQ","addr:street":"Arbor Lane","name":"Pakefield Holiday Park","static_caravans":"yes","website":"https://www.parkholidays.com/our-parks/suffolk/pakefield/caravan-holidays"}},"821209930":{"location":[52.3779564,1.6693182],"ct":"GB","tp":"CS","ts":"2022-10-21T15:25:30Z","tX":516,"tY":336,"tags":{"name":"Five Bells"}},"842870184":{"location":[52.3822092,1.6503897],"ct":"GB","tp":"CS","ts":"2020-08-31T21:31:44Z","tX":516,"tY":336,"tags":{"name":"Marsh Farm"}},"865644278":{"location":[52.3110688,1.6621944],"ct":"GB","tp":"CR","ts":"2020-10-31T12:52:03Z","tX":516,"tY":336,"tags":{"name":"Walberswick Caravan Site"}},"870579706":{"location":[52.3574552,1.5137816],"ct":"GB","tp":"CS","ts":"2025-06-08T14:16:05Z","tX":516,"tY":336,"tags":{"addr:city":"Suffolk","addr:postcode":"IP19 8QW","addr:street":"Broadway, Halesworth","capacity:caravans":"11","capacity:tents":"6","caravans":"yes","charge":"Â£27.95","children":"no","dish_washing":"yes","drinking_water":"yes","email":"halesworthpark@outlook.com","fee":"yes","motor_vehicle":"yes","motorhome":"yes","name":"Halesworth  Holiday Park","phone":"+1986 874750","power_supply":"yes","reservation":"recommended","sanitary_dump_station":"yes","tents":"yes","toilets":"yes","website":"https://www.halesworthholidaypark.com/"}},"873139560":{"location":[52.4512024,1.6866413],"ct":"GB","tp":"CR","ts":"2020-11-17T17:19:51Z","tX":516,"tY":336,"tags":{"name":"Carlton Manor Holiday Park"}},"992713940":{"location":[52.4689033,1.5167731],"ct":"GB","tp":"CS","ts":"2023-10-28T03:39:54Z","tX":516,"tY":336,"tags":{"caravans":"yes","drinking_water":"yes","name":"Three Rivers Pitch & Paddle","phone":"+44 1508 518638","shower":"yes","tents":"yes","website":"https://threeriverscamping.co.uk/"}},"1030957279":{"location":[52.4357156,1.7207254],"ct":"GB","tp":"CS","ts":"2022-02-13T16:55:11Z","tX":516,"tY":336,"tags":{"addr:city":"Gisleham","addr:postcode":"NR33 7PG","addr:street":"London Road","email":"jaydenetouringpark@gmail.com","name":"Jaydene Touring Caravan Park","website":"https://www.jaydenetouringcaravanpark.co.uk"}},"1051149978":{"location":[52.3700539,1.6048824],"ct":"GB","tp":"CS","ts":"2022-04-11T21:45:24Z","tX":516,"tY":336,"tags":{"name":"Firs Glamping"}},"2996440531":{"location":[52.3435438,1.668664],"ct":"GB","tp":"CR","ts":"2014-08-04T19:34:32Z","tX":516,"tY":336,"tags":{"name":"Jubilee Certified Site"}},"7408024364":{"location":[52.328706,1.5278102],"ct":"GB","tp":"CS","ts":"2020-04-15T21:05:58Z","tX":516,"tY":336,"tags":{"name":"Melles Court Farm"}},"11003299894":{"location":[52.3424716,1.6800291],"ct":"GB","tp":"CS","ts":"2023-06-24T15:55:45Z","tX":516,"tY":336,"tags":{"addr:city":"Reydon","addr:housename":"Broadside Park Farm","addr:postcode":"IP18 6SX","addr:street":"Lowestoft Road","caravans":"yes","name":"Pigs in Blankets Campsite","operator":"Broadside Park Farm","tents":"yes"}},"9524928284":{"location":[52.2799233,1.4551749],"ct":"GB","tp":"CR","ts":"2022-08-07T11:22:57Z","tX":516,"tY":336,"tags":{"addr:city":"Saxmundham","addr:hamlet":"Sibton","addr:housename":"Sibton White Horse Inn","addr:postcode":"IP17 2JJ","capacity:caravans":"5","description":"Caravan & Motorhome Club Certificated Location. CAMC members only.","internet_access":"yes","name":"Sibton White Horse Inn CAMC CL","power_supply":"yes","sanitary_dump_station":"yes"}}}