{"38376657":{"location":[50.7607127,1.6083888],"ct":"FR","tp":"CS","ts":"2023-04-16T17:37:54Z","tX":516,"tY":343,"tags":{"addr:city":"Wimereux","addr:country":"FR","addr:housenumber":"49","addr:postcode":"62930","addr:street":"Rue de la Libération","cabins":"yes","caravans":"yes","email":"camping.municipal@mairie-wimereux.fr","name":"Camping Municipal l'Olympic","permanent_camping":"yes","phone":"+33 3 21 32 45 63","stars":"3","tents":"yes","website":"https://www.camping-wimereux.fr"}},"38613511":{"location":[50.8819565,1.7081663],"ct":"FR","tp":"CS","ts":"2023-04-16T16:46:30Z","tX":516,"tY":343,"tags":{"cabins":"yes","capacity:permanent_camping":"74","capacity:pitches":"30","caravans":"yes","name":"Les Voiles des 2 Caps","permanent_camping":"yes","phone":"+33 3 21 36 73 96","stars":"3","tents":"yes","website":"https://www.lesvoilesdes2caps.fr"}},"106738058":{"location":[50.8425874,1.6007183],"ct":"FR","tp":"CS","ts":"2023-04-13T20:28:23Z","tX":516,"tY":343,"tags":{"capacity":"161","caravans":"yes","name":"Camping municipal du Musée","phone":"+33 3 21 32 97 22","stars":"3","static_caravans":"yes","tents":"yes","website":"http://campings.audinghen-capgrisnez.fr/"}},"107169444":{"location":[50.911458,1.752581],"ct":"FR","tp":"CS","ts":"2024-06-26T21:02:55Z","tX":516,"tY":343,"tags":{"capacity":"96","name":"Les Épinettes","phone":"+33 321852139","source":"cadastre-dgi-fr source : Direction Générale des Impôts - Cadastre. Mise à jour : 2011","stars":"2","tents":"yes","website":"https://www.lesepinettes.fr/","wifi":"yes"}},"125173373":{"location":[50.8204688,1.5997381],"ct":"FR","tp":"CS","ts":"2024-10-06T17:13:13Z","tX":516,"tY":343,"tags":{"alt_name":"Camping municipal des Ajoncs","caravans":"yes","name":"Les Ajoncs","phone":"+33 3 21 32 97 40","stars":"2","static_caravans":"yes","tents":"yes","website":"https://camping-ajoncs.fr/"}},"154568188":{"location":[50.868071,1.5907394],"ct":"FR","tp":"CS","ts":"2023-04-13T20:31:56Z","tX":516,"tY":343,"tags":{"caravans":"no","name":"Camping Municipal du Cap Griz Nez","stars":"2","static_caravans":"only","tents":"no","website":"http://audinghen-capgrisnez.fr/camping-municipaux/camping-gris-nez/"}},"170013454":{"location":[50.7535567,1.6093442],"ct":"FR","tp":"CS","ts":"2023-10-26T06:41:44Z","tX":516,"tY":343,"tags":{"addr:city":"Wimereux","addr:country":"FR","addr:postcode":"62930","addr:street":"Chemin d'Honvault","email":"ete.indien@wanadoo.fr","internet_access":"wlan","internet_access:fee":"yes","name":"Camping de l'Été Indien","phone":"+33321302350","stars":"2","website":"https://www.eteindien.eu/"}},"241542689":{"location":[50.8872276,1.6707417],"ct":"FR","tp":"CR","ts":"2024-12-21T21:39:02Z","tX":516,"tY":343,"tags":{"access":"yes","caravan_site":"motorhome_stopover","charge":"11€","dog":"yes","fee":"yes","maxstay":"96 hours","name":"Wissant Camping Car Aire","opening_hours":"24/7","power_supply":"yes","power_supply:maxcurrent":"16","sanitary_dump_station":"yes","surface":"asphalt","toilets":"no","url":"https://www.aireparkreservation.com/aires-camping-cars/hauts-de-france/pas-de-calais/wissant","water_point":"yes","wheelchair":"yes"}},"267833719":{"location":[50.8695856,1.586788],"ct":"FR","tp":"PK","ts":"2021-07-21T22:36:02Z","tX":516,"tY":343,"tags":{"access":"yes","bus":"yes","caravans":"yes","fee":"no","motorcar":"no","parking":"surface","surface":"asphalt"}},"276737819":{"location":[50.8815931,1.6551768],"ct":"FR","tp":"CS","ts":"2024-05-18T15:24:12Z","tX":516,"tY":343,"tags":{"cabins":"yes","capacity":"391","caravans":"yes","drinking_water":"yes","email":"camping.wissant@wanadoo.fr","name":"Camping Municipal \"De La Source\"","phone":"+33321359246","power_supply":"yes","sanitary_dump_station":"yes","shower":"yes","stars":"2","tents":"yes","toilets":"yes","website":"https://www.ville-wissant.fr/15-camping-municipal-de-la-source.html"}},"282095958":{"location":[50.7432702,1.5965588],"ct":"FR","tp":"CR","ts":"2024-05-07T16:40:10Z","tX":516,"tY":343,"tags":{"capacity":"50","caravan_site":"motorhome_stopover","caravans":"no","charge":"10.50 EUR/48 hours","dog":"leashed","fee":"yes","motorhome":"designated","name":"Aire de Camping-cars - Boulogne-sur-Mer","power_supply":"no","sanitary_dump_station":"yes","tents":"no","water_point":"yes","water_point:charge":"4.40 EUR/100 liter","water_point:fee":"yes","website":"https://www.ville-boulogne-sur-mer.fr/vivre-a-boulogne/transport-et-stationnement/aire-de-camping-cars/joomlannuaire/fiche/130-aire-de-camping-cars"}},"351876157":{"location":[50.8126366,1.6047111],"ct":"FR","tp":"CS","ts":"2023-05-02T14:13:13Z","tX":516,"tY":343,"tags":{"addr:city":"Ambleteuse","addr:housenumber":"22","addr:postcode":"62164","addr:street":"Rue de Marquise","capacity":"240","capacity:persons":"250","caravans":"yes","fee":"yes","name":"Camping L'églantier Ambleteuse","payment:cash":"yes","payment:cheque":"yes","payment:credit_cards":"yes","payment:mastercard":"yes","phone":"+33 3 91 18 34 13","source":"cadastre-dgi-fr source : Direction Générale des Impôts - Cadastre. Mise à jour : 2015","stars":"3","static_caravans":"yes","tents":"yes","website":"https://www.camping-leglantier.fr"}},"352371182":{"location":[50.8185244,1.6353554],"ct":"FR","tp":"CS","ts":"2021-07-19T20:42:27Z","tX":516,"tY":343,"tags":{"caravans":"yes","name":"Camping Le Beaucamp","phone":"+33 3 21 32 62 10","source":"cadastre-dgi-fr source : Direction Générale des Impôts - Cadastre. Mise à jour : 2015","static_caravans":"yes","swimming_pool":"yes","tents":"yes","washing_machine":"yes","website":"https://www.camping-lebeaucamp.fr/"}},"352802488":{"location":[50.8193093,1.5981828],"ct":"FR","tp":"CR","ts":"2024-10-06T17:13:13Z","tX":516,"tY":343,"tags":{"caravan_site":"motorhome_stopover","caravan_site:type":"beach","dog":"yes","fee":"yes","name":"Les Ajoncs","sanitary_dump_station":"yes","surface":"grass"}},"451884028":{"location":[50.9117609,1.7206089],"ct":"FR","tp":"CS","ts":"2024-12-22T16:18:18Z","tX":516,"tY":343,"tags":{"capacity":"30","caravans":"yes","internet_access":"wlan","name":"Camping des Érables","phone":"+33 3 21 85 25 36","tents":"yes","website":"http://www.camping-les-erables.fr/"}},"451885824":{"location":[50.9190831,1.7108852],"ct":"FR","tp":"CS","ts":"2024-12-22T16:18:18Z","tX":516,"tY":343,"tags":{"addr:housenumber":"18","addr:street":"Rue de la Mer","cabins":"yes","capacity":"84","caravans":"yes","name":"Le Blanc-Nez","phone":"+33 3 21 85 27 38","stars":"2","tents":"yes","website":"https://www.camping-blancnez.fr"}},"454857582":{"location":[50.7816646,1.6695893],"ct":"FR","tp":"CS","ts":"2023-10-18T08:22:18Z","tX":516,"tY":343,"tags":{"addr:housenumber":"15","addr:street":"Route Nationale","cabins":"yes","caravans":"yes","name":"Camping l’Escale","phone":"+33 3 21 32 00 69","stars":"3","tents":"yes","website":"https://www.escale-camping.fr"}},"455499025":{"location":[50.7521696,1.7202674],"ct":"FR","tp":"CS","ts":"2020-09-06T14:23:48Z","tX":516,"tY":343,"tags":{"addr:city":"Pernes-lès-Boulogne","addr:country":"FR","addr:housenumber":"45","addr:postcode":"62126","addr:street":"Rue de la Fontaine","landuse":"recreation_ground","name":"Camping Manoir de Senlecques","phone":"+33 6 16 76 75 22","website":"https://m.facebook.com/senlecquesisa/"}},"467223984":{"location":[50.8243,1.5985967],"ct":"FR","tp":"CS","ts":"2023-02-13T16:22:40Z","tX":516,"tY":343,"tags":{"tents":"no"}},"494375197":{"location":[50.7459461,1.599111],"ct":"FR","tp":"CS","ts":"2017-05-18T08:40:33Z","tX":516,"tY":343,"tags":{"name":"Le Napoléon"}},"557431784":{"location":[50.8266728,1.5932175],"ct":"FR","tp":"CS","ts":"2024-10-06T17:02:07Z","tX":516,"tY":343,"tags":{"capacity":"10","caravans":"no","contact:website":"http://campinglenoirda.fr/","motorhome":"no","name":"Camping Le Noirda","ref:FR:SIRET":"79170007300012","source":"INSEE - 2024-03","static_caravans":"yes","tents":"no"}},"557437411":{"location":[50.8251692,1.5960181],"ct":"FR","tp":"CS","ts":"2023-02-13T16:28:39Z","tX":516,"tY":343,"tags":{"capacity":"18","name":"Camping Le Mont Asie","phone":"+33 321329413","stars":"2"}},"837915150":{"location":[50.8594734,1.7217031],"ct":"FR","tp":"CS","ts":"2023-11-19T21:16:29Z","tX":516,"tY":343,"tags":{"caravans":"yes","name":"Camping les Primevères","source":"data.gouv.fr:DATAtourisme - 05/2020","stars":"2","tents":"yes","website":"https://www.campinglesprimeveres.com"}},"865604598":{"location":[50.9410528,1.7414612],"ct":"FR","tp":"CR","ts":"2024-09-12T19:00:11Z","tX":516,"tY":343,"tags":{"caravan_site":"motorhome_stopover","caravan_site:type":"parking_lot;beach","caravans":"no","fee":"no","name":"Aire Hubert Latham","power_supply":"no","sanitary_dump_station":"no","surface":"asphalt","tents":"no","toilets":"yes"}},"965735176":{"location":[50.8173301,1.6841511],"ct":"FR","tp":"CS","ts":"2023-04-16T17:15:41Z","tX":516,"tY":343,"tags":{"caravans":"yes","email":"campingdestrolls@gmail.com","name":"Camping des Trolls","phone":"+33 3 91 21 86 08","tents":"yes","website":"https://www.facebook.com/campindestrolls/"}},"1087700330":{"location":[50.8494268,1.6392551],"ct":"FR","tp":"CS","ts":"2022-08-20T12:20:56Z","tX":516,"tY":343,"tags":{"fee":"yes","name":"Camping de la ferme équestre de Warincthun","operator":"Mme Allexandre","phone":"+33 6 50599995","website":"https://www.gitesdewarincthun.com/fr-FR/camping"}},"2491517765":{"location":[50.8869488,1.6704233],"ct":"FR","tp":"SD","ts":"2018-04-16T08:54:05Z","tX":516,"tY":343,"tags":{}},"2876684685":{"location":[50.7434497,1.5970709],"ct":"FR","tp":"SD","ts":"2024-05-07T16:40:10Z","tX":516,"tY":343,"tags":{"sanitary_dump_station:accepted":"black_water;grey_water;tank_chemicals","sanitary_dump_station:chemical_toilet":"yes","sanitary_dump_station:grey_water":"yes","water_point":"yes","water_point:fee":"yes"}},"10024443624":{"location":[50.8619103,1.6488086],"ct":"FR","tp":"CR","ts":"2025-03-31T21:44:09Z","tX":516,"tY":343,"tags":{"capacity:caravans":"18","caravan_site":"motorhome_stopover","caravan_site:type":"farm","fee":"yes","name":"Ferme de l'Horloge","power_supply":"yes","sanitary_dump_station":"yes","surface":"grass","toilets":"no","website":"https://www.facebook.com/Fermedelhorloge/?locale=fr_FR","wheelchair":"yes"}},"10978592868":{"location":[50.7604858,1.6091409],"ct":"FR","tp":"SD","ts":"2023-06-15T11:13:01Z","tX":516,"tY":343,"tags":{}},"10978612437":{"location":[50.7602752,1.6081778],"ct":"FR","tp":"SD","ts":"2023-06-15T11:13:02Z","tX":516,"tY":343,"tags":{"description":"Eaux grises et noires"}}}