{"80977359":{"location":[50.6799455,1.5674772],"ct":"FR","tp":"CR","ts":"2024-10-30T21:57:21Z","tX":516,"tY":344,"tags":{"caravan_site":"motorhome_stopover","caravan_site:type":"beach","fee":"yes","internet_access":"no","name":"d'Equihen-Plage","operator":"Mairie","power_supply":"yes","sanitary_dump_station":"customers","website":"https://ville-equihen-plage.fr/page/Aire_d%27accueil_pour_camping-car","wheelchair":"yes"}},"226309409":{"location":[50.5830604,1.5836983],"ct":"FR","tp":"CS","ts":"2023-11-02T13:37:16Z","tX":516,"tY":344,"tags":{"capacity":"636","email":"contact@campingdelamer.fr","internet_access":"wlan","name":"Parc résidentiel de la mer","phone":"+33 321849225","stars":"3","tents":"no","website":"https://www.campingdelamer.fr/"}},"283681269":{"location":[50.5327803,1.6243249],"ct":"FR","tp":"CS","ts":"2024-05-04T08:50:46Z","tX":516,"tY":344,"tags":{"addr:city":"Étaples","addr:postcode":"62630","addr:street":"Chemin Départemental 940","caravans":"yes","fee":"yes","name":"Domaine de la Pinède en Baie de Canche","operator":"Nature & Vacances","phone":"+33 3 21 05 17 84","stars":"3","static_caravans":"yes","tents":"yes","website":"https://www.domainelapinede.fr"}},"292526180":{"location":[50.5354708,1.5918147],"ct":"FR","tp":"CR","ts":"2024-09-24T07:24:56Z","tX":516,"tY":344,"tags":{"addr:city":"Le Touquet-Paris-Plage","addr:postcode":"62520","capacity":"70","caravan_site":"motorhome_stopover","caravan_site:type":"parking_lot","charge":"15.40 EUR/23 hours","fee":"yes","maxstay":"23 hours","name":"Aire Centre Nautique de la baie de Canche","power_supply":"yes","power_supply:charge":"2 EUR/55 minutes","sanitary_dump_station":"yes","water_point":"yes","water_point:charge":"2 EUR/100 liter","water_point:fee":"yes","website":"https://www.letouquet.com/campings/aire-pour-camping-car/"}},"373187244":{"location":[50.5657704,1.5817376],"ct":"FR","tp":"CS","ts":"2023-02-19T11:07:07Z","tX":516,"tY":344,"tags":{"capacity":"146","name":"Camp de Dunes","phone":"+33 321849177","stars":"1","website":"https://www.sainte-cecile-tourisme.fr/campings/camping-des-dunes/"}},"385437356":{"location":[50.701577,1.5651886],"ct":"FR","tp":"CS","ts":"2023-10-26T06:36:51Z","tX":516,"tY":344,"tags":{"cabins":"yes","caravans":"yes","name":"Le Phare d'Opale","operator":"Tohapi","stars":"1","tents":"yes","website":"https://www.campinglephare.com/"}},"546386024":{"location":[50.66161,1.5909568],"ct":"FR","tp":"CS","ts":"2024-08-21T17:00:30Z","tX":516,"tY":344,"tags":{"addr:city":"Saint-Étienne-au-Mont","addr:postcode":"62360","addr:street":"Chemin de la Warenne","addr:unit":"1, E1","caravans":"yes","fee":"yes","name":"Camping de la Warenne (Camping Municipal d'Ecault)","operator":"Ville de Saint-Étienne-au-Mont","tents":"yes","website":"https://www.saintetienneaumont.com/index.php/activites-loisirs/camping/"}},"605562906":{"location":[50.6711655,1.5759352],"ct":"FR","tp":"CS","ts":"2024-08-28T20:36:31Z","tX":516,"tY":344,"tags":{"addr:city":"Équihen-Plage","addr:country":"FR","addr:housenumber":"113 bis","addr:postcode":"62224","addr:street":"Rue Charles Cazin","caravans":"yes","contact:email":"camping.equihen.plage@orange.fr","contact:phone":"+33 32131 2261","contact:website":"https://www.camping-equihen-plage.fr/","drinking_water":"yes","fee":"yes","internet_access":"wlan","internet_access:fee":"no","name":"Camping Municipal La Falaise","nudism":"no","operator":"mairie d'equihen-Plage","power_supply":"yes","reservation":"recommended","sanitary_dump_station":"yes","shower":"yes","tents":"yes","toilets":"yes","wheelchair":"yes"}},"668104647":{"location":[50.6778637,1.6413447],"ct":"FR","tp":"CS","ts":"2023-02-13T14:47:23Z","tX":516,"tY":344,"tags":{"capacity":"96","capacity:pitches":"30","caravans":"yes","internet_access":"wlan","motorhome":"yes","name":"Camping Les Cytises","stars":"2","tents":"yes","website":"https://www.campinglescytises.com/"}},"669671218":{"location":[50.5582671,1.6164789],"ct":"FR","tp":"CS","ts":"2024-03-09T08:14:37Z","tX":516,"tY":344,"tags":{"capacity":"359","capacity:tents":"66","internet_access":"wlan","name":"Camping La Dune Blanche","stars":"2","tents":"yes","website":"https://www.campingladuneblanche.com/"}},"837917612":{"location":[50.6305467,1.6837674],"ct":"FR","tp":"CS","ts":"2023-02-13T15:51:26Z","tX":516,"tY":344,"tags":{"capacity":"58","motorhome":"yes","name":"Les Prairies de la Mer","phone":"+33 6 66 41 68 02","source":"data.gouv.fr:DATAtourisme - 05/2020","stars":"2","tents":"yes","website":"http://www.prairiesdelamer.fr"}},"958669219":{"location":[50.6401391,1.7358345],"ct":"FR","tp":"CS","ts":"2023-02-13T14:39:45Z","tX":516,"tY":344,"tags":{"capacity":"153","internet_access":"wlan","name":"Camping du stade","phone":"+33 3 21 30 34 91","stars":"3","tents":"yes","website":"https://campingdustade.wixsite.com/camping-de-samer/le-camping"}},"974401554":{"location":[50.5703429,1.6114216],"ct":"FR","tp":"CS","ts":"2023-07-30T17:46:49Z","tX":516,"tY":344,"tags":{"capacity":"52","caravans":"yes","email":"camiers@anas.asso.fr","name":"Centre de vacances Irénée Calas","operator":"Association Nationale d'Action Sociale des Personnels","phone":"+33 689738697","tents":"no","website":"https://www.anas.asso.fr/camiers"}},"1152699271":{"location":[50.5883599,1.6104445],"ct":"FR","tp":"CS","ts":"2023-06-07T21:58:36Z","tX":516,"tY":344,"tags":{"capacity":"54","capacity:tents":"10","email":"camping@dannes.fr","internet_access":"wlan","name":"Camping Municipal du Mont Saint-Frieux","phone":"+33 3 21 33 24 76","stars":"3","tents":"yes","website":"https://dannes.fr/fr/rb/1088102/camping-municipal-9"}},"1159308760":{"location":[50.6460658,1.6256739],"ct":"FR","tp":"CS","ts":"2023-04-05T12:06:25Z","tX":516,"tY":344,"tags":{"addr:city":"Condette","addr:housenumber":"21","addr:postcode":"62360","addr:street":"Rue Nouvelle","fee":"yes","name":"Camping-Caravaning du Château","phone":"+33 3 21 87 59 59","stars":"4","tents":"no","website":"https://www.camping-caravaning-du-chateau.com/"}},"1329489047":{"location":[50.7115338,1.5753901],"ct":"FR","tp":"CR","ts":"2024-10-30T22:06:14Z","tX":516,"tY":344,"tags":{"capacity":"40","caravan_site":"motorhome_stopover","caravan_site:type":"beach","charge":"8.50 EUR","fee":"yes","internet_access":"no","name":"Le Portel","power_supply":"yes","power_supply:charge":"3.50 EUR/4 hours","power_supply:fee":"yes","sanitary_dump_station":"yes","surface":"asphalt","water_point":"yes","water_point:charge":"2.50 EUR","water_point:fee":"yes","website":"https://www.ville-leportel.fr/laire-de-camping-caravaning/"}},"5633380240":{"location":[50.7309414,1.7162123],"ct":"FR","tp":"CS","ts":"2020-09-06T14:39:23Z","tX":516,"tY":344,"tags":{"addr:city":"La Capelle-lès-Boulogne","addr:housenumber":"2","addr:postcode":"62360","addr:street":"Route de Crémarest","camp_site":"standard","name":"Camping municipal Les Sapins","phone":"+33 6 75 16 63 61"}},"4699460189":{"location":[50.5269862,1.5995891],"ct":"FR","tp":"CR","ts":"2024-10-06T17:13:49Z","tX":516,"tY":344,"tags":{"caravan_site":"motorhome_stopover","caravan_site:type":"town","charge":"10.60 EUR/23 hours","fee":"yes","maxstay":"23 hours","name":"Parc Equestre du Touquet","power_supply":"yes","power_supply:charge":"2 EUR/55 minutes","sanitary_dump_station":"yes","water_point":"yes","water_point:charge":"2 EUR/100 liter","water_point:fee":"yes","website":"https://www.letouquet.com/campings/aire-pour-camping-car/"}},"6178115517":{"location":[50.6798683,1.5680328],"ct":"FR","tp":"SD","ts":"2024-05-07T15:04:31Z","tX":516,"tY":344,"tags":{"charge":"3 EUR","fee":"yes","motorhome":"designated","sanitary_dump_station:accepted":"black_water;grey_water;tank_chemicals","sanitary_dump_station:chemical_toilet":"yes","sanitary_dump_station:grey_water":"yes","water_point":"yes"}},"9591640522":{"location":[50.5267253,1.5995382],"ct":"FR","tp":"SD","ts":"2022-03-20T09:36:42Z","tX":516,"tY":344,"tags":{}},"12173898625":{"location":[50.5356948,1.5931007],"ct":"FR","tp":"SD","ts":"2024-09-12T22:50:12Z","tX":516,"tY":344,"tags":{"access":"yes","power_supply":"yes","power_supply:charge":"2 EUR/55 minutes","water_point":"yes","water_point:charge":"2 EUR/100 liter","water_point:fee":"yes"}}}