{"13706996":{"location":[50.4186123,1.5683869],"ct":"FR","tp":"CS","ts":"2022-01-22T17:38:16Z","tX":516,"tY":345,"tags":{"name":"Camping de l'Alouette"}},"236139146":{"location":[50.4722505,1.5785647],"ct":"FR","tp":"CS","ts":"2024-07-29T16:53:35Z","tX":516,"tY":345,"tags":{"backcountry":"no","capacity":"181","caravans":"yes","drinking_water":"yes","internet_access":"no","name":"Camping de la mer","phone":"+33 3 21 84 60 60","power_supply":"yes","shower":"yes","stars":"2","tents":"yes","toilets":"yes","website":"https://www.campingdelamer.com/"}},"239716194":{"location":[50.3220167,1.5638966],"ct":"FR","tp":"CS","ts":"2024-04-04T17:12:54Z","tX":516,"tY":345,"tags":{"contact:website":"https://www.boisdormant.fr","name":"Camping Le Bois Dormant"}},"239717588":{"location":[50.3185024,1.6066874],"ct":"FR","tp":"CS","ts":"2023-11-07T21:06:17Z","tX":516,"tY":345,"tags":{"cabins":"yes","capacity:pitches":"70","caravans":"yes","email":"contact@lesvertesfeuilles.com","name":"Les Vertes Feuilles","phone":"+33 3 22 23 55 12","shower":"yes","stars":"4","static_caravans":"yes","tents":"yes","toilets":"yes","website":"https://www.lesvertesfeuilles.com/"}},"239718924":{"location":[50.3092555,1.6043795],"ct":"FR","tp":"CS","ts":"2024-06-11T17:58:16Z","tX":516,"tY":345,"tags":{"addr:housenumber":"46","addr:street":"Route de Froise","caravans":"yes","name":"Camping de la Motte","phone":"+33 3 22 27 75 35","stars":"4","tents":"yes","website":"https://www.campingdelamotte.org"}},"239718927":{"location":[50.3284159,1.5909975],"ct":"FR","tp":"CS","ts":"2023-04-23T17:22:55Z","tX":516,"tY":345,"tags":{"addr:city":"Quend","addr:housenumber":"21","addr:street":"Rue des Pommiers","cabins":"yes","capacity:pitches":"128","caravans":"yes","email":"contact@camping-leclosdesgenets.com","fee":"yes","internet_access":"wlan","motorhome":"yes","name":"Clos des Genêts","opening_hours":"Apr 1 - Oct 31","phone":"+33 3 22 27 48 40","shower":"yes","stars":"2","tents":"yes","toilets":"yes","website":"https://www.camping-quend-baiedesomme.com/"}},"249388726":{"location":[50.334688,1.5815998],"ct":"FR","tp":"CS","ts":"2023-04-23T11:34:41Z","tX":516,"tY":345,"tags":{"addr:city":"Fort-Mahon-Plage","addr:housename":"Camping Le Royon","addr:housenumber":"1271","addr:postcode":"80120","addr:street":"Rue de Quend","cabins":"yes","caravans":"yes","name":"Camping Le Royon","operator":"SARL Caravaning Du Royon","phone":"+33 3 22 23 40 30","shower":"yes","source":"cadastre-dgi-fr source : Direction Générale des Impôts - Cadastre. Mise à jour : 2010","stars":"4","tents":"yes","toilets":"yes","website":"https://www.campingleroyon.com/","wheelchair":"yes"}},"268367392":{"location":[50.3228745,1.6605899],"ct":"FR","tp":"CS","ts":"2024-05-22T11:51:39Z","tX":516,"tY":345,"tags":{"capacity":"78","name":"Camping La Pierre d'Orge","phone":"+33 9 51 27 85 50","stars":"2"}},"274391011":{"location":[50.3384638,1.5560721],"ct":"FR","tp":"CR","ts":"2024-05-08T18:59:58Z","tX":516,"tY":345,"tags":{"capacity":"130","caravan_site":"motorhome_stopover","caravan_site:type":"beach","charge":"10.00 EUR","dog":"yes","fee":"yes","name":"Parking Camping-Car Fort Mahon Plage","opening_hours":"24/7","payment:coins":"yes","power_supply":"no","sanitary_dump_station":"yes","seasonal":"no","toilets":"yes","water_point":"yes","website":"https://www.somme-tourisme.com/aire-de-camping-cars-de-fort-mahon-plage/fort-mahon-plage/airccpic08000005"}},"274392832":{"location":[50.3242762,1.555888],"ct":"FR","tp":"CR","ts":"2024-05-08T17:24:30Z","tX":516,"tY":345,"tags":{"capacity":"50","caravan_site":"motorhome_stopover","caravan_site:type":"beach","charge":"10 EUR","fee":"yes","name":"Aire de camping de Quend","power_supply":"yes","seasonal":"no","services:charge":"2 EUR, water and power_supply","water_point":"yes","website":"https://www.somme-tourisme.com/aire-de-camping-car-de-quend-plage/quend/airccpic0800000n"}},"286402786":{"location":[50.3616287,1.6708525],"ct":"FR","tp":"CS","ts":"2023-01-21T14:51:06Z","tX":516,"tY":345,"tags":{"capacity":"762","caravans":"yes","name":"Camping le Village de la Vache Verte","phone":"+333 21812992","source":"cadastre-dgi-fr source : Direction Générale des Impôts - Cadastre. Mise à jour : 2014","stars":"4","tents":"no","website":"https://www.villagedelavacheverte.fr/"}},"287754052":{"location":[50.3765412,1.6160357],"ct":"FR","tp":"CS","ts":"2024-10-06T17:24:18Z","tX":516,"tY":345,"tags":{"capacity":"167","name":"Camping-Caravaning de la Molliere","phone":"+33 3 21 84 40 46","source":"cadastre-dgi-fr source : Direction Générale des Impôts - Cadastre. Mise à jour : 2014","stars":"2","tents":"no","website":"https://www.lamolliere.com/"}},"289034639":{"location":[50.4168714,1.5764966],"ct":"FR","tp":"CR","ts":"2024-05-08T13:23:04Z","tX":516,"tY":345,"tags":{"caravan_site":"motorhome_stopover","caravan_site:type":"town","charge":"14.20 EUR","fee":"yes","name":"Aire camping-car Berck - Chez Mireille","power_supply":"yes","power_supply:maxcurrent":"4","reservation":"no","sanitary_dump_station":"yes","sanitary_dump_station:chemical_toilet":"yes","sanitary_dump_station:grey_water":"yes","water_point":"yes","water_point:charge":"2 EUR/100 liter","water_point:fee":"yes","website":"https://www.chezmireille.fr/camping-car-berck/"}},"289278396":{"location":[50.4116239,1.6204938],"ct":"FR","tp":"CS","ts":"2024-10-02T12:34:49Z","tX":516,"tY":345,"tags":{"capacity":"197","caravans":"yes","internet_access":"wlan","name":"Camping La Gaieté","stars":"3","static_caravans":"yes","website":"https://www.campinglagaiete.fr/"}},"289278400":{"location":[50.4077123,1.6285987],"ct":"FR","tp":"CS","ts":"2024-10-06T17:23:30Z","tX":516,"tY":345,"tags":{"capacity":"148","internet_access":"wlan","name":"Camping Caravaning Les Cerisiers","phone":"+33 3 21 84 88 45","stars":"4","static_caravans":"yes","swimming_pool":"yes","website":"https://www.caravaninglescerisiers.com/"}},"374260889":{"location":[50.4775334,1.6066212],"ct":"FR","tp":"CS","ts":"2024-10-06T17:23:06Z","tX":516,"tY":345,"tags":{"capacity":"110","internet_access":"wlan","name":"Domaine de l'Abri Côtier","operator":"Nature & Vacances","phone":"+33 3 21 94 71 04","stars":"3","static_caravans":"yes","website":"https://www.camping-stella-plage.com/"}},"374260890":{"location":[50.4756908,1.6151197],"ct":"FR","tp":"CS","ts":"2023-02-17T15:48:42Z","tX":516,"tY":345,"tags":{"capacity":"210","internet_access":"wlan","maxtents":"30","name":"Camping Pomme de Pin","stars":"3","website":"https://www.pommedepin.fr/"}},"374260893":{"location":[50.4775958,1.6146231],"ct":"FR","tp":"CS","ts":"2024-09-28T07:35:21Z","tX":516,"tY":345,"tags":{"static_caravans":"yes"}},"394409172":{"location":[50.3969249,1.5675517],"ct":"FR","tp":"CS","ts":"2024-07-09T09:20:23Z","tX":516,"tY":345,"tags":{"addr:housenumber":"2","addr:street":"Chemin aux Raisins","caravans":"yes","fee":"yes","name":"Camping du Halloy","opening_hours":"Apr 1-Sep 30","phone":"+33 3 21 09 00 54","reservation":"no","tents":"yes","website":"https://www.campingduhalloy.fr/"}},"411448313":{"location":[50.3361144,1.711522],"ct":"FR","tp":"CS","ts":"2023-04-23T18:33:56Z","tX":516,"tY":345,"tags":{"cabins":"yes","email":"lesaulnes@clicochic.com","fixme":"Not sure if you can camp here, if not --> tourism=chalet, if so add tent/caravan=yes","name":"La Ferme des Aulnes","opening_hours":"May 12 - Sep 3","operator":"Capfun","phone":"+33 3 22 29 22 69","stars":"4","website":"https://www.fermedesaulnes.com/"}},"418115857":{"location":[50.3227779,1.6229563],"ct":"FR","tp":"CS","ts":"2024-06-08T19:44:05Z","tX":516,"tY":345,"tags":{"addr:housenumber":"13","addr:street":"Rue des Maisonnettes","cabins":"yes","caravans":"yes","name":"Les 2 Plages","permanent_camping":"yes","phone":"+33 3 22 23 48 96","tents":"yes","website":"https://www.camping2plages.com"}},"423103720":{"location":[50.3979333,1.5692458],"ct":"FR","tp":"CS","ts":"2023-05-14T14:24:56Z","tX":516,"tY":345,"tags":{"cabins":"yes","capacity":"94","caravans":"yes","name":"Camping la Guinguette","phone":"+33 3 21 09 04 22","stars":"2","tents":"yes","website":"https://www.camping-laguinguette.com"}},"423103722":{"location":[50.3969812,1.5639728],"ct":"FR","tp":"CR","ts":"2024-10-30T21:51:06Z","tX":516,"tY":345,"tags":{"area":"yes","capacity":"80","caravan_site":"motorhome_stopover","caravan_site:type":"town;beach","charge":"10 EUR","fee":"yes","name":"Aire Camping-Cars des Sternes","power_supply":"no"}},"437309519":{"location":[50.3412431,1.573247],"ct":"FR","tp":"CS","ts":"2021-05-30T12:54:14Z","tX":516,"tY":345,"tags":{"name":"Le Soleil"}},"437352952":{"location":[50.344189,1.5814906],"ct":"FR","tp":"CS","ts":"2016-08-15T19:39:19Z","tX":516,"tY":345,"tags":{"name":"Camping Ech Bosqué"}},"437352953":{"location":[50.3448724,1.5794338],"ct":"FR","tp":"CS","ts":"2024-04-03T04:10:34Z","tX":516,"tY":345,"tags":{"name":"Camping de L'Eden"}},"437352954":{"location":[50.3466695,1.5722238],"ct":"FR","tp":"CS","ts":"2021-03-29T13:48:01Z","tX":516,"tY":345,"tags":{"name":"Le Robinson","source":"cadastre-dgi-fr source : Direction Générale des Impôts - Cadastre. Mise à jour : 2010"}},"437423564":{"location":[50.3346899,1.5754321],"ct":"FR","tp":"CS","ts":"2021-03-28T16:09:36Z","tX":516,"tY":345,"tags":{"name":"Le Vert Gazon"}},"445437729":{"location":[50.4740195,1.5906022],"ct":"FR","tp":"CS","ts":"2024-08-19T10:03:50Z","tX":516,"tY":345,"tags":{"addr:city":"Cucq","addr:country":"FR","addr:housenumber":"149","addr:postcode":"62780","addr:street":"Boulevard de Berck","capacity":"154","capacity:tents":"3","email":"contact@laforetstella.fr","name":"Camping La Forêt","phone":"+33 3 21 94 75 01","stars":"3","static_caravans":"yes","website":"https://www.camping-touquet-parisplage.fr/"}},"445708773":{"location":[50.4713625,1.7392826],"ct":"FR","tp":"CS","ts":"2023-02-08T10:14:35Z","tX":516,"tY":345,"tags":{"addr:city":"La Calotterie","addr:country":"FR","addr:housenumber":"1056","addr:postcode":"62170","addr:street":"Rue de Montreuil","capacity":"101","capacity:tents":"40","email":"contact@domainedublancpignon.com","name":"Domaine du Blanc Pignon","phone":"+33 3 21 81 60 26","stars":"2","tents":"yes","website":"https://www.domainedublancpignon.com/"}},"449390758":{"location":[50.430067,1.6358237],"ct":"FR","tp":"CS","ts":"2023-11-02T09:31:25Z","tX":516,"tY":345,"tags":{"addr:city":"Rang-du-Fliers","addr:country":"FR","addr:housenumber":"500","addr:postcode":"62180","addr:street":"Rue des Robert","name":"Les Tourterelles","phone":"+33 3 21 89 01 01","website":"https://camping-lestourterelles.com/"}},"473037289":{"location":[50.4174881,1.6090141],"ct":"FR","tp":"CS","ts":"2023-02-15T13:12:10Z","tX":516,"tY":345,"tags":{"capacity":"617","internet_access":"wlan","name":"Caravaning Les Garennes & Domaine Le Fliers","stars":"4","website":"https://www.garennesfliers.com"}},"501779664":{"location":[50.4800752,1.7545554],"ct":"FR","tp":"CS","ts":"2024-10-01T11:51:02Z","tX":516,"tY":345,"tags":{"capacity":"104","email":"lesetangsfleuris@selacamp.fr","name":"Camping Les Étangs Fleuris","phone":"+33 3 21 06 01 01","stars":"2","website":"https://www.facebook.com/profile.php?id=100057065335809"}},"585504509":{"location":[50.4444496,1.619573],"ct":"FR","tp":"CS","ts":"2023-04-18T19:38:28Z","tX":516,"tY":345,"tags":{"capacity":"180","name":"Camping de l'Épy","phone":"+33 3 21 94 74 15","stars":"2","website":"http://www.campingdelepy.fr/"}},"596190568":{"location":[50.4608847,1.6007264],"ct":"FR","tp":"CS","ts":"2024-07-26T08:35:27Z","tX":516,"tY":345,"tags":{"addr:city":"Merlimont","addr:postcode":"62155","capacity":"292","check_date":"2024-07-26","name":"Les Jardins de le Mer","phone":"+33 3 21 94 18 18","stars":"4","website":"https://www.lesjardinsdelamer.com/"}},"648055738":{"location":[50.4173816,1.5878195],"ct":"FR","tp":"CS","ts":"2024-07-06T13:35:42Z","tX":516,"tY":345,"tags":{"capacity":"198","email":"campinginternational@selacamp.fr","name":"Camping International J.b. Club","phone":"+333 21 09 13 33","stars":"1","website":"https://www.facebook.com/profile.php?id=100057543666351"}},"648059966":{"location":[50.4205222,1.5753789],"ct":"FR","tp":"CS","ts":"2023-02-15T12:47:50Z","tX":516,"tY":345,"tags":{"capacity":"134","name":"Camping de la Pointe","phone":"+33 3 21 09 68 78","stars":"1","website":"https://www.facebook.com/profile.php?id=100054918182768"}},"648215523":{"location":[50.4247313,1.5727695],"ct":"FR","tp":"CS","ts":"2024-07-06T13:35:42Z","tX":516,"tY":345,"tags":{"name":"Camping Belle Dune","stars":"5","website":"https://camping-belledune.com/"}},"653352045":{"location":[50.4128592,1.615168],"ct":"FR","tp":"CS","ts":"2023-02-28T18:34:43Z","tX":516,"tY":345,"tags":{"capacity":"147","name":"Camping Le Paradis","phone":"+33 3 21 09 14 82","stars":"2","website":"http://www.camping-le-paradis.eu/"}},"653352066":{"location":[50.4168219,1.6150908],"ct":"FR","tp":"CS","ts":"2024-05-27T09:40:14Z","tX":516,"tY":345,"tags":{"capacity":"143","internet_access":"wlan","name":"Camping du Fliers"}},"653402944":{"location":[50.4137327,1.6214316],"ct":"FR","tp":"CS","ts":"2024-10-02T12:34:49Z","tX":516,"tY":345,"tags":{"capacity":"197","check_date":"2022-12-10","name":"Camping La Gaieté","stars":"3","static_caravans":"yes","tents":"no","website":"https://www.campinglagaiete.fr/"}},"674443341":{"location":[50.4328303,1.6040766],"ct":"FR","tp":"CS","ts":"2024-07-06T13:35:42Z","tX":516,"tY":345,"tags":{"name":"Camping Saint-Hubert","website":"https://www.sthubert62.com"}},"719030034":{"location":[50.4635069,1.5794331],"ct":"FR","tp":"CR","ts":"2024-06-07T15:51:44Z","tX":516,"tY":345,"tags":{"access":"customers","capacity":"29","caravan_site":"motorhome_stopover","caravan_site:type":"beach","caravans":"no","charge":"14.6 EUR","fee":"yes","name":"Aire Camping-Car Park de Merlimont, Au Coeur des Dunes","network":"CAMPING-CAR PARK","operator":"CAMPING-CAR PARK","reservation":"yes","sanitary_dump_station":"yes","surface":"gravel","tents":"no","water_point":"yes","website":"https://www.campingcarpark.com/fr_FR/sejour/aire-etape-camping-car/hauts-de-france/62-pas-de-calais/merlimont"}},"838625250":{"location":[50.4922863,1.6179608],"ct":"FR","tp":"CS","ts":"2023-02-08T10:42:12Z","tX":516,"tY":345,"tags":{"capacity":"140","caravans":"yes","email":"contact@lecotedopale.fr","name":"Le Côte d'Opale","phone":"+33 321946529","source":"data.gouv.fr:DATAtourisme - 05/2020","stars":"2","tents":"yes","website":"https://www.lecotedopale.fr"}},"838625798":{"location":[50.4317468,1.7155623],"ct":"FR","tp":"CS","ts":"2022-01-16T13:47:08Z","tX":516,"tY":345,"tags":{"capacity":"27","caravans":"yes","email":"campingduverger@nordnet.fr","internet_access":"yes","name":"Camping du Verger","phone":"+33 6 33101677","source":"data.gouv.fr:DATAtourisme - 05/2020","tents":"yes","website":"https://www.bienvenue-a-la-ferme.com/hautsdefrance/pas-de-calais/campigneulles-les-grandes/ferme/le-camping-du-verger/259124"}},"924446298":{"location":[50.3170522,1.58653],"ct":"FR","tp":"CS","ts":"2023-07-30T10:27:45Z","tX":516,"tY":345,"tags":{"access":"customers","addr:housenumber":"11","addr:street":"Avenue des Pins","caravans":"no","dog":"leashed","fee":"yes","internet_access":"wlan","internet_access:fee":"yes","name":"Dune Fleurie","operator":"Capfun","phone":"+33 3 22 23 40 41","reservation":"required","stars":"4","static_caravans":"yes","swimming_pool":"yes","tents":"no","washing_machine":"yes","website":"https://www.capfun.com/camping-france-picardie-dune_fleurie-FR.html"}},"939356255":{"location":[50.3810674,1.6074587],"ct":"FR","tp":"CS","ts":"2024-06-08T13:07:53Z","tX":516,"tY":345,"tags":{"capacity":"148","internet_access":"wlan","name":"Camping du Bec du Perroquet","phone":"+33 3 21 84 81 92","stars":"3","tents":"yes"}},"939361750":{"location":[50.404404,1.6323564],"ct":"FR","tp":"CS","ts":"2023-02-17T16:15:46Z","tX":516,"tY":345,"tags":{"capacity":"350","name":"Camping du Grand Marais","phone":"+33 3 21 84 36 09","stars":"2","static_caravans":"yes","swimming_pool":"yes","tents":"yes","website":"https://www.camping-grandmarais.com/"}},"939363441":{"location":[50.4040448,1.6545505],"ct":"FR","tp":"CS","ts":"2024-05-27T09:45:29Z","tX":516,"tY":345,"tags":{"capacity":"262","internet_access":"wlan","name":"Camping Autour du Moulin","phone":"+33 3 21 84 25 59","stars":"3","website":"https://www.campingautourdumoulin.fr/"}},"1023664336":{"location":[50.4203326,1.5684894],"ct":"FR","tp":"CS","ts":"2023-02-15T12:42:49Z","tX":516,"tY":345,"tags":{"capacity":"165","name":"Camping de la Manche","phone":"+33 3 21 09 36 29","stars":"1"}},"1031625998":{"location":[50.3731396,1.6708104],"ct":"FR","tp":"CS","ts":"2024-05-17T06:07:54Z","tX":516,"tY":345,"tags":{"capacity":"175","caravans":"yes","internet_access":"wlan","name":"Camping des 4 Plages","ref:FR:SIRET":"87926747400010","source":"INSEE - 2022-01","stars":"2","tents":"yes","website":"https://www.camping-4-plages.com/"}},"1164275608":{"location":[50.4281616,1.5714314],"ct":"FR","tp":"CS","ts":"2024-07-06T15:11:00Z","tX":516,"tY":345,"tags":{"name":"Camping Ami-Ami","phone":"+33 3 21 09 05 55","website":"https://www.campingamiamiberck.fr"}},"1243697903":{"location":[50.3729897,1.6689683],"ct":"FR","tp":"CS","ts":"2024-05-17T06:07:54Z","tX":516,"tY":345,"tags":{"access":"private","capacity:persons":"40","name":"Le clos des Lilas","operator":"Bernard Seninger","static_caravans":"yes"}},"1280924625":{"location":[50.3291053,1.6179862],"ct":"FR","tp":"CR","ts":"2024-05-08T17:24:56Z","tX":516,"tY":345,"tags":{"capacity":"10","caravan_site":"motorhome_stopover","caravan_site:type":"farm","charge":"10 EUR","fee":"yes","internet_access":"wlan","name":"Aire de camping-car Ferme de la Grande Retz","picnic_area":"yes","power_supply":"yes","power_supply:charge":"5 EUR","power_supply:fee":"yes","sanitary_dump_station":"yes","sanitary_dump_station:chemical_toilet":"yes","sanitary_dump_station:fee":"no","sanitary_dump_station:grey_water":"yes","seasonal":"no","water_point":"yes","water_point:fee":"no","website":"https://www.camping-car-baie-de-somme.com/"}},"1299509865":{"location":[50.4189864,1.5859924],"ct":"FR","tp":"CS","ts":"2024-08-10T14:40:06Z","tX":516,"tY":345,"tags":{"access":"yes","addr:city":"Berck","addr:postcode":"62600","addr:street":"Chemin de la Rampée","capacity:caravans":"10","capacity:persons":"500","capacity:tents":"45","caravans":"yes","fee":"yes","name":"Miny Park","operator":"Camping Minypark","payment:apple_pay":"yes","payment:cash":"yes","payment:google_pay":"yes","payment:mastercard":"yes","payment:visa":"yes","payment:visa_electron":"yes","static_caravans":"no","tents":"yes","website":"https://www.minypark.net/"}},"1315186430":{"location":[50.4885304,1.6942629],"ct":"FR","tp":"CR","ts":"2024-09-12T19:49:33Z","tX":516,"tY":345,"tags":{"caravan_site":"motorhome_stopover","caravan_site:type":"village","facebook":"https://www.facebook.com/people/Aire-De-Camping-car-Le-Val-De-Canche/100057663450361/","fee":"yes","name":"Aire de Camping-Cars Le Val de Canche","power_supply":"yes","sanitary_dump_station":"yes","water_point":"yes","website":"https://www.destinationmontreuilloisencotedopale.com/camping/aire-de-camping-cars-le-val-de-canche/"}},"1315218410":{"location":[50.4739541,1.5773452],"ct":"FR","tp":"CR","ts":"2024-09-12T23:01:46Z","tX":516,"tY":345,"tags":{"caravan_site":"motorhome_stopover","caravan_site:type":"beach","fee":"no","name":"Aire camping-cars Cucq Trépied Stella Plage","power_supply":"yes","power_supply:fee":"yes","sanitary_dump_station":"yes","water_point":"yes","water_point:fee":"yes","website":"https://cucq.fr/camping-cars/"}},"1318150774":{"location":[50.4157003,1.5768285],"ct":"FR","tp":"CS","ts":"2024-09-25T16:41:34Z","tX":516,"tY":345,"tags":{"name:fr":"Chez Mireille","website":"https://www.chezmireille.fr/"}},"1321654507":{"location":[50.5119059,1.5892222],"ct":"FR","tp":"CR","ts":"2024-10-06T17:20:55Z","tX":516,"tY":345,"tags":{"capacity":"36","caravan_site":"motorhome_stopover","caravan_site:type":"holiday_park","fee":"yes","name":"Caravaning Stoneham","website":"https://en.letouquet.com/campsites/caravaning-stoneham/"}},"2925850803":{"location":[50.4164991,1.5763948],"ct":"FR","tp":"SD","ts":"2024-05-08T13:23:04Z","tX":516,"tY":345,"tags":{"fee":"yes","sanitary_dump_station:accepted":"black_water;grey_water;tank_chemicals","sanitary_dump_station:chemical_toilet":"yes","sanitary_dump_station:grey_water":"yes","water_point":"yes","water_point:fee":"yes"}},"3713247996":{"location":[50.3386419,1.5550821],"ct":"FR","tp":"SD","ts":"2019-09-16T08:47:10Z","tX":516,"tY":345,"tags":{"access":"yes","fee":"no","sanitary_dump_station:basin":"yes"}},"4228018056":{"location":[50.3973367,1.5646054],"ct":"FR","tp":"SD","ts":"2016-06-06T09:48:59Z","tX":516,"tY":345,"tags":{}},"4989017470":{"location":[50.4758423,1.5775737],"ct":"FR","tp":"SD","ts":"2017-07-24T00:25:41Z","tX":516,"tY":345,"tags":{}},"12089577260":{"location":[50.4119499,1.6530226],"ct":"FR","tp":"SD","ts":"2024-08-02T21:02:05Z","tX":516,"tY":345,"tags":{}},"12089818642":{"location":[50.3962681,1.5631548],"ct":"FR","tp":"SD","ts":"2024-08-03T01:59:59Z","tX":516,"tY":345,"tags":{}}}