{"18174303":{"location":[50.2529445,1.639798],"ct":"FR","tp":"CR","ts":"2024-10-17T16:51:36Z","tX":516,"tY":346,"tags":{"caravan_site":"motorhome_stopover","caravan_site:type":"farm_shop;lake","fee":"yes","name":"Ferme de Bihem","power_supply":"yes","sanitary_dump_station":"yes"}},"33724062":{"location":[50.1509836,1.6340216],"ct":"FR","tp":"CS","ts":"2024-06-17T19:48:45Z","tX":516,"tY":346,"tags":{"cabins":"yes","capacity:pitches":"319","caravans":"yes","mobile":"+33 6 30 16 35 79","name":"Domaine de Drancourt","opening_hours":"Apr 14 - Sep 10","operator":"Europe Plein Air SAS (Yelloh! Village)","phone":"+33 3 22 26 93 45","shower":"yes","stars":"4","static_caravans":"yes","tents":"yes","toilets":"yes","website":"https://www.chateau-drancourt.fr/"}},"116080483":{"location":[50.2188494,1.6340732],"ct":"FR","tp":"CR","ts":"2024-05-08T17:07:17Z","tX":516,"tY":346,"tags":{"addr:city":"Le Crotoy","addr:housenumber":"6","addr:postcode":"80550","addr:street":"Avenue du Château d'Eau","capacity":"190","caravan_site":"motorhome_stopover","caravan_site:type":"beach","charge":"9 EUR/24 h","fee":"yes","internet_access":"no","motorhome":"designated","name":"Aire de camping-car - port de plaisance au Crotoy","power_supply":"yes","sanitary_dump_station":"yes","surface":"fine_gravel","water_point":"yes","wikimedia_commons":"Category:Aire de camping-car du Crotoy"}},"116080484":{"location":[50.218102,1.6270682],"ct":"FR","tp":"CS","ts":"2024-05-17T13:37:17Z","tX":516,"tY":346,"tags":{"capacity":"45","capacity:tents":"8","internet_access":"no","name":"Le Pré Fleuri","phone":"+33 6 72 65 83 02","tents":"yes","website":"https://www.camping-leprefleuri.com"}},"116169349":{"location":[50.2358201,1.6286443],"ct":"FR","tp":"CS","ts":"2023-03-12T13:01:07Z","tX":516,"tY":346,"tags":{"addr:city":"Le Crotoy","addr:postcode":"80550","cabins":"yes","caravans":"yes","name":"La Ferme de Mayocq","phone":"+33 3 22 27 09 99","shower":"yes","tents":"yes","toilets":"yes","website":"https://www.la-ferme-de-mayocq.com/"}},"116169354":{"location":[50.2224629,1.6344196],"ct":"FR","tp":"CS","ts":"2024-10-06T17:24:53Z","tX":516,"tY":346,"tags":{"cabins":"yes","capacity:caravans":"45","name":"La Côte Picarde","static_caravans":"yes","website":"https://www.campingbaiedesomme.com/camping-la-cote-picarde/"}},"116540519":{"location":[50.2283744,1.6121279],"ct":"FR","tp":"CR","ts":"2024-08-11T17:37:51Z","tX":516,"tY":346,"tags":{"capacity":"50","caravan_site":"motorhome_stopover","caravan_site:type":"beach","charge":"9 EUR","fee":"yes","lit":"no","name":"Aire de camping-car nord - Le Crotoy","opening_hours":"24/7","operator":"Mairie","payment:coins":"yes","payment:credit_cards":"yes","payment:debit_cards":"yes","power_supply":"limited","power_supply:capacity":"2","power_supply:charge":"2 EUR/24 hours","power_supply:fee":"yes","surface":"sand","water_point":"yes","water_point:fee":"yes","website":"https://villeducrotoy.fr/tourisme/camping-car/"}},"136593432":{"location":[50.182072,1.6160719],"ct":"FR","tp":"CS","ts":"2023-04-23T11:34:41Z","tX":516,"tY":346,"tags":{"cabins":"yes","caravans":"yes","email":"info@campinglewalric.com","name":"Le Walric","operator":"SARL Caravaning Du Royon","phone":"+33 3 22 26 81 97","shower":"yes","stars":"4","static_caravans":"yes","tents":"yes","toilets":"yes","website":"https://www.campinglewalric.com/"}},"158785488":{"location":[50.2532195,1.6668831],"ct":"FR","tp":"CS","ts":"2023-02-14T15:26:38Z","tX":516,"tY":346,"tags":{"capacity":"115","email":"contact@camping-baie-somme.fr","internet_access":"wlan","maxtents":"15","name":"Camping des Oiseaux","stars":"3","website":"https://www.campingbaiesomme.com/"}},"176867319":{"location":[50.1985007,1.5168655],"ct":"FR","tp":"CS","ts":"2023-04-23T11:34:41Z","tX":516,"tY":346,"tags":{"addr:city":"Cayeux-sur-Mer","addr:country":"FR","addr:postcode":"80410","addr:street":"Rue Guillaume le Conquérant","cabins":"yes","caravans":"yes","fax":"+33 3 22 26 60 81","name":"Camping Le Bois de Pins","operator":"SARL Caravaning Du Royon","phone":"+33 3 22 26 71 04","shower":"yes","stars":"3","tents":"yes","toilets":"yes","website":"https://www.campingleboisdepins.com/"}},"176867948":{"location":[50.1538976,1.6176814],"ct":"FR","tp":"CS","ts":"2024-08-13T18:37:55Z","tX":516,"tY":346,"tags":{"name":"Camping du plein air","stars":"2"}},"176869011":{"location":[50.0776443,1.4154246],"ct":"FR","tp":"CS","ts":"2023-10-10T19:51:48Z","tX":516,"tY":346,"tags":{"cabins":"yes","capacity":"123","caravans":"yes","internet_access":"wlan","internet_access:fee":"no","name":"Camping Le Rompval","opening_hours":"Apr 1 - Oct 31","operator":"Flower Campings","phone":"+33 2 35 84 43 21","shower":"yes","stars":"3","tents":"yes","toilets":"yes","website":"https://www.camping-lerompval.com"}},"199680314":{"location":[50.2030594,1.5268543],"ct":"FR","tp":"CR","ts":"2024-05-08T18:06:18Z","tX":516,"tY":346,"tags":{"access":"customers","addr:city":"Cayeux-sur-Mer","addr:street":"Rue Faidherbe","bakery_service":"yes","capacity":"32","caravan_site":"motorhome_stopover","caravan_site:type":"nature","caravans":"no","fee":"yes","internet_access":"wlan","internet_access:fee":"yes","maxstay":"24 hours","name":"Aire de camping-car \"les galets de la mollière\"","opening_hours":"24/7","power_supply":"no","sanitary_dump_station":"yes","seasonal":"no","source":"Bing","tents":"no","water_point":"yes","water_point:fee":"yes","website":"https://www.somme-tourisme.com/aire-de-camping-car-les-galets-de-la-molliere/cayeux-sur-mer/airccpic08000007"}},"217477454":{"location":[50.2699955,1.6088813],"ct":"FR","tp":"CS","ts":"2023-07-11T18:23:24Z","tX":516,"tY":346,"tags":{"name":"L'Espace Vert des Trémières"}},"221240440":{"location":[50.2667914,1.6023672],"ct":"FR","tp":"CS","ts":"2024-06-02T15:53:02Z","tX":516,"tY":346,"tags":{"cabins":"yes","capacity:pitches":"197","caravans":"yes","email":"contact@camping-lechampneuf.com","name":"Le Champ Neuf","phone":"+33 3 22 25 07 94","shower":"yes","stars":"4","tents":"yes","toilets":"yes","website":"https://www.camping-lechampneuf.com/"}},"239660363":{"location":[50.1827548,1.6287322],"ct":"FR","tp":"CR","ts":"2024-05-08T20:17:20Z","tX":516,"tY":346,"tags":{"capacity":"200","caravan_site":"motorhome_stopover","charge":"12 EUR","dog":"yes","fee":"yes","name":"Aire Camping Cars Saint-Valery-sur-Somme","opening_hours":"24/7","power_supply":"yes","power_supply:fee":"no","sanitary_dump_station":"yes","seasonal":"no","surface":"gravel","water_point":"yes","water_point:fee":"no","website":"https://www.saint-valery-sur-somme.fr/aire-de-camping-cars"}},"240653809":{"location":[50.2308334,1.6399999],"ct":"FR","tp":"CS","ts":"2023-07-14T22:03:30Z","tX":516,"tY":346,"tags":{"addr:city":"Le Crotoy","addr:housenumber":"13","addr:postcode":"80550","addr:street":"Route de Rue","cabins":"yes","caravans":"yes","name":"Le Tarteron","opening_hours":"Apr 1 - Oct 31","phone":"+33 3 22 27 06 75","shower":"yes","tents":"yes","toilets":"yes","website":"https://www.letarteron.fr/"}},"240657609":{"location":[50.2222708,1.6197587],"ct":"FR","tp":"CS","ts":"2024-05-17T13:41:49Z","tX":516,"tY":346,"tags":{"capacity":"152","caravans":"no","name":"Camping de la Prairie","operator":"SARL Caravaning Du Royon","phone":"+33 322270265","stars":"4","static_caravans":"yes","tents":"no","website":"https://www.camping-laprairie.fr/"}},"265983981":{"location":[50.1695632,1.4978203],"ct":"FR","tp":"CS","ts":"2023-06-24T11:46:25Z","tX":516,"tY":346,"tags":{"capacity":"348","fax":"+33322265207","internet_access":"wlan","internet_access:fee":"yes","name":"Camping La Vieille Eglise","phone":"+33 3 22 26 63 23","stars":"3","website":"http://www.camping-vieille-eglise.fr/"}},"265997076":{"location":[50.1617451,1.5523315],"ct":"FR","tp":"CS","ts":"2023-02-14T10:58:35Z","tX":516,"tY":346,"tags":{"capacity":"180","name":"Camping municipal Les Prairies","phone":"+33 3 22 60 71 87","stars":"2"}},"265998387":{"location":[50.0893676,1.4481922],"ct":"FR","tp":"CS","ts":"2024-06-17T19:35:13Z","tX":516,"tY":346,"tags":{"addr:city":"Ault","addr:street":"Rue d'Eu","capacity":"101","caravans":"yes","internet_access":"wlan","internet_access:fee":"no","name":"Camping Municipal La Cavée verte","operator":"municipal","phone":"+33322268088","stars":"2","tents":"yes","website":"https://www.campinglacaveeverte.fr/"}},"266894794":{"location":[50.1059509,1.4571109],"ct":"FR","tp":"CS","ts":"2022-03-25T16:48:21Z","tX":516,"tY":346,"tags":{"internet_access":"wlan","internet_access:fee":"no","name":"Camping Municipal de la Chapelle","website":"https://www.campingdelachapelle.fr"}},"268078958":{"location":[50.1841478,1.7060468],"ct":"FR","tp":"CS","ts":"2023-09-05T08:09:27Z","tX":516,"tY":346,"tags":{"capacity":"265","internet_access":"wlan","name":"Camping Le Riot","phone":"+33 3 22 23 28 38","stars":"2","website":"https://www.camping-lerio.fr/"}},"268088322":{"location":[50.2414867,1.6773307],"ct":"FR","tp":"CS","ts":"2023-02-14T15:14:44Z","tX":516,"tY":346,"tags":{"capacity":"164","internet_access":"wlan","maxtents":"4","name":"Parc Résidentiel de Loisirs Les Prairies de la Mer","phone":"+33 3 22 27 01 90","stars":"3","website":"https://www.lesprairiesdelamer.com/"}},"268161516":{"location":[50.2751367,1.6628293],"ct":"FR","tp":"CS","ts":"2019-08-15T15:25:12Z","tX":516,"tY":346,"tags":{"caravans":"yes","email":"campingdelamaye@orange.fr","internet_access":"wlan","name":"Camping de la Maye","operator":"Ville de Rue","sanitary_dump_station":"customers","source":"cadastre-dgi-fr source : Direction Générale des Impôts - Cadastre ; mise à jour : 2010","stars":"2","tents":"yes","website":"https://www.campingdelamaye.net/","wheelchair":"yes"}},"269619571":{"location":[50.2710855,1.5986391],"ct":"FR","tp":"CS","ts":"2016-05-16T18:46:11Z","tX":516,"tY":346,"tags":{}},"297575516":{"location":[50.1669426,1.6551749],"ct":"FR","tp":"CS","ts":"2023-04-23T13:11:43Z","tX":516,"tY":346,"tags":{"cabins":"yes","capacity:cabins":"5","capacity:pitches":"67","caravans":"yes","email":"contact@lepicardycamping.com","name":"Le Picardy","opening_hours":"Apr 1 - Oct 31","phone":"+33 3 22 60 85 59","shower":"yes","stars":"2","tents":"yes","toilets":"yes","website":"https://www.lepicardycamping.com/"}},"344439122":{"location":[50.1615566,1.5909321],"ct":"FR","tp":"CS","ts":"2018-04-29T14:11:03Z","tX":516,"tY":346,"tags":{"name":"Le Marais","stars":"2"}},"345557538":{"location":[50.0868395,1.7124245],"ct":"FR","tp":"CS","ts":"2023-10-17T19:27:13Z","tX":516,"tY":346,"tags":{"addr:housenumber":"12","addr:street":"Route de Bouillancourt","cabins":"yes","caravans":"yes","name":"Clos Cacheleux","opening_hours":"Apr 1 - Oct 31","phone":"+33 3 22 19 17 47","shower":"yes","stars":"4","static_caravans":"yes","tents":"yes","toilets":"yes","website":"https://camping-lecloscacheleux.fr"}},"406223784":{"location":[50.2383209,1.6317915],"ct":"FR","tp":"CS","ts":"2023-05-02T13:32:14Z","tX":516,"tY":346,"tags":{"cabins":"yes","caravans":"yes","email":"info@yellohvillage-le-ridin.com","name":"Camping Le Ridin","opening_hours":"Apr 7 - Nov 5","phone":"+33 3 22 27 03 22","reservation":"recommended","shower":"yes","stars":"4","tents":"yes","toilets":"yes","website":"https://www.campingleridin.com/"}},"418686740":{"location":[50.2741335,1.6202338],"ct":"FR","tp":"CS","ts":"2024-07-25T06:56:58Z","tX":516,"tY":346,"tags":{"check_date":"2024-07-25","name":"La Haie Penée","stars":"4"}},"453850128":{"location":[50.2495718,1.613231],"ct":"FR","tp":"CS","ts":"2024-07-25T13:02:51Z","tX":516,"tY":346,"tags":{"addr:city":"Le Crotoy","addr:housenumber":"800","addr:postcode":"80550","addr:street":"Rue de la Maye","check_date":"2024-07-25","name":"Les Aubépines","phone":"+33 3 22 27 01 34","stars":"4","website":"https://www.camping-lesaubepines.com/"}},"576402920":{"location":[50.1117095,1.4580272],"ct":"FR","tp":"CS","ts":"2024-05-29T13:42:54Z","tX":516,"tY":346,"tags":{"capacity":"243","caravans":"yes","internet_access":"wlan","name":"Camping Municipal d'Onival","phone":"+33 7 66 73 46 65","stars":"2","tents":"yes","website":"https://camping-woignarue.fr/"}},"584393527":{"location":[50.175433,1.5905798],"ct":"FR","tp":"CS","ts":"2023-03-31T06:34:11Z","tX":516,"tY":346,"tags":{"capacity":"111","caravans":"yes","email":"contact@campingdelabaie.eu","motorhome":"yes","name":"Camping de la Baie","phone":"+33 3 22607272","shower":"yes","stars":"3","tents":"yes","toilets":"yes","website":"https://www.campingdelabaie.eu/"}},"673695188":{"location":[50.210165,1.6932018],"ct":"FR","tp":"CS","ts":"2023-04-24T21:50:19Z","tX":516,"tY":346,"tags":{"cabins":"yes","capacity:cabins":"3","capacity:pitches":"125","caravans":"yes","motorhome":"yes","name":"La Safrière","opening_hours":"Apr 1 - Oct 31","phone":"+33 3 22 27 07 09","shower":"yes","stars":"3","static_caravans":"yes","tents":"yes","toilets":"yes","website":"http://www.campinglasafriere.com/"}},"729366944":{"location":[50.2223424,1.6168577],"ct":"FR","tp":"CS","ts":"2024-05-24T07:04:09Z","tX":516,"tY":346,"tags":{"addr:city":"Le Crotoy","addr:country":"FR","addr:housenumber":"12","addr:postcode":"80550","addr:street":"Rue Jean Vadicocq","capacity":"33","caravans":"yes","internet_access":"yes","name":"GCU Le Crotoy","operator":"Groupement des Campeurs Universitaires","sanitary_dump_station":"customers","stars":"2","tents":"yes","website":"https://www.gcu.asso.fr/terrains/le-crotoy-somme-80","wheelchair":"yes"}},"821121713":{"location":[50.2017718,1.5265655],"ct":"FR","tp":"CS","ts":"2023-04-23T11:34:41Z","tX":516,"tY":346,"tags":{"cabins":"yes","caravans":"yes","name":"Les Galets de la Mollière","operator":"SARL Caravaning Du Royon","phone":"+33 3 22 26 61 85","shower":"yes","source":"cadastre-dgi-fr source : Direction Générale des Impôts - Cadastre;mise à jour : 2010","stars":"3","tents":"yes","toilets":"yes","website":"https://www.campinglesgaletsdelamolliere.com/"}},"838626527":{"location":[50.2444157,1.731669],"ct":"FR","tp":"CS","ts":"2023-11-02T15:43:45Z","tX":516,"tY":346,"tags":{"caravans":"yes","name":"Camping La Verte Prairie","source":"data.gouv.fr:DATAtourisme - 05/2020","tents":"yes","website":"https://www.laverteprairie.com/"}},"838628737":{"location":[50.2475042,1.7448199],"ct":"FR","tp":"CS","ts":"2020-08-19T16:55:06Z","tX":516,"tY":346,"tags":{"name":"Château Gaillard","source":"data.gouv.fr:DATAtourisme - 05/2020"}},"838630200":{"location":[50.2488575,1.5987106],"ct":"FR","tp":"CS","ts":"2024-07-25T13:04:16Z","tX":516,"tY":346,"tags":{"addr:postcode":"80550","check_date":"2024-07-25","name":"Les Trois Sablières","source":"data.gouv.fr:DATAtourisme - 05/2020","stars":"4","website":"https://www.camping-les-trois-sablieres.com"}},"838631011":{"location":[50.1525447,1.5472497],"ct":"FR","tp":"CS","ts":"2020-08-19T17:00:04Z","tX":516,"tY":346,"tags":{"name":"La Ferme de Laleu","source":"data.gouv.fr:DATAtourisme - 05/2020"}},"838632862":{"location":[50.1175977,1.5716485],"ct":"FR","tp":"CS","ts":"2020-08-19T17:02:22Z","tX":516,"tY":346,"tags":{"caravans":"yes","name":"Camping Les Aillots","source":"data.gouv.fr:DATAtourisme - 05/2020","stars":"2","tents":"yes","website":"http://www.campingdesaintblimont.com"}},"1164834304":{"location":[50.2520748,1.7137227],"ct":"FR","tp":"CS","ts":"2024-06-04T15:44:26Z","tX":516,"tY":346,"tags":{"cabins":"yes","capacity":"73","maxtents":"25","mobile":"+33 6 72 85 73 77","motorhome":"yes","name":"Ferme de la Mottelette","phone":"+33 322283233","shower":"yes","stars":"2","tents":"yes","toilets":"yes","website":"https://www.la-mottelette.com/"}},"1164875511":{"location":[50.0841115,1.7140335],"ct":"FR","tp":"CS","ts":"2023-04-23T15:55:57Z","tX":516,"tY":346,"tags":{"cabins":"yes","caravans":"yes","name":"Val de Trie","operator":"SARL Camping Le Val de Trie","phone":"+33 3 22 31 48 88","shower":"yes","stars":"4","static_caravans":"yes","tents":"yes","toilets":"yes","website":"https://www.camping-levaldetrie.fr"}},"1186741491":{"location":[50.2003629,1.5294537],"ct":"FR","tp":"CS","ts":"2024-05-17T13:57:15Z","tX":516,"tY":346,"tags":{"capacity":"50","name":"Camping Aérospatiale"}},"1189750554":{"location":[50.2301908,1.6418867],"ct":"FR","tp":"CR","ts":"2024-06-19T06:03:35Z","tX":516,"tY":346,"tags":{"bbq":"no","capacity":"29","caravan_site":"motorhome_stopover","caravan_site:type":"camp_site","caravans":"no","charge":"14.04 EUR","dog":"leashed","fee":"yes","motorhome":"designated","name":"Aire Le Crotoy - Le Tarteron","network":"CAMPING-CAR PARK","power_supply":"yes","power_supply:fee":"no","power_supply:maxcurrent":"6","sanitary_dump_station":"yes","sanitary_dump_station:chemical_toilet":"yes","sanitary_dump_station:grey_water":"yes","tents":"no","trailer":"yes","water_point":"yes","website":"https://www.campingcarpark.com/fr_FR/sejour/aire-etape-camping-car/hauts-de-france/80-la-somme/le-crotoy-le-tarteron"}},"1280923189":{"location":[50.1728093,1.5525847],"ct":"FR","tp":"CR","ts":"2024-10-06T17:27:27Z","tX":516,"tY":346,"tags":{"caravan_site":"motorhome_stopover","caravan_site:type":"farm","charge":"10 EUR","fee":"yes","name":"Aire de la ferme de la baie","picnic_area":"yes","power_supply":"yes","power_supply:charge":"4 EUR","power_supply:fee":"yes","sanitary_dump_station":"yes","water_point":"yes","website":"https://www.somme-tourisme.com/bienvenue-la-ferme-de-la-baie/lancheres/airccpic080v50dfde"}},"1280962976":{"location":[50.1042311,1.5273678],"ct":"FR","tp":"CR","ts":"2024-05-08T20:07:55Z","tX":516,"tY":346,"tags":{"caravan_site":"motorhome_stopover","caravan_site:type":"village","charge":"6 EUR","dog":"yes","fee":"yes","laundry":"yes","name":"Aire de camping-cars de Bourseville","opening_hours":"24/7","power_supply":"yes","power_supply:capacity":"4","power_supply:charge":"4 EUR","power_supply:fee":"yes","sanitary_dump_station":"yes","sanitary_dump_station:chemical_toilet":"+33 03 22 51 44 42","sanitary_dump_station:grey_water":"yes","seasonal":"no","socket:cee_blue":"+33 03 22 51 44 42","socket:schuko":"yes","surface":"asphalt","toilets":"yes","water_point":"yes","water_point:fee":"yes","website":"https://www.mairie-bourseville.fr/tourisme-culture/plan-dacces"}},"1285669610":{"location":[50.1861657,1.501793],"ct":"FR","tp":"CR","ts":"2024-07-02T11:21:41Z","tX":516,"tY":346,"tags":{"bbq":"no","capacity":"20","caravan_site":"motorhome_stopover","caravan_site:type":"beach","caravans":"no","charge":"13.88 EUR","dog":"leashed","fee":"yes","internet_access":"wlan","maxlength":"none","name":"Aire Cayeux-sur-Mer, Centre","network":"CAMPING-CAR PARK","power_supply":"yes","power_supply:capacity":"20","power_supply:fee":"no","power_supply:maxcurrent":"6","sanitary_dump_station":"yes","tents":"no","trailer":"no","water_point":"yes","website":"https://www.campingcarpark.com/en_GB/stay/stopover-site-motorhome/hauts-de-france/80-la-somme/cayeux-sur-mer"}},"1293476078":{"location":[50.0901028,1.4774841],"ct":"FR","tp":"CS","ts":"2024-06-18T17:28:47Z","tX":516,"tY":346,"tags":{"name":"Camping Municipal aux Champs des Oiseaux","opening_hours":"May-Aug","phone":"+33 7 84 13 57 30","ref:FR:SIRET":"21800349900082","source":"INSEE - 2024-03","stars":"2","website":"https://www.friaucourt.fr/le-camping-municipal/"}},"1316356674":{"location":[50.0902865,1.4789359],"ct":"FR","tp":"CR","ts":"2024-10-17T16:29:03Z","tX":516,"tY":346,"tags":{"capacity":"8","caravan_site":"motorhome_stopover","caravan_site:type":"beach","caravans":"no","charge":"11 EUR","dog":"yes","fee":"yes","name":"Aire de stationnement Au chant des Oiseaux (Friaucourt)","power_supply":"yes","power_supply:fee":"yes","sanitary_dump_station":"yes","sanitary_dump_station:chemical_toilet":"yes","sanitary_dump_station:grey_water":"yes","tents":"no","water_point":"yes","website":"https://www.destination-letreport-mers.fr/offres/aire-de-stationnement-au-chant-des-oiseaux-friaucourt-fr-2711100/"}},"1676579172":{"location":[50.167508,1.7558844],"ct":"FR","tp":"SD","ts":"2015-04-21T02:12:31Z","tX":516,"tY":346,"tags":{}},"3260616158":{"location":[50.2285624,1.6123299],"ct":"FR","tp":"SD","ts":"2015-07-30T15:31:12Z","tX":516,"tY":346,"tags":{"drinking_water":"yes","drinking_water:fee":"yes","sanitary_dump_station:accepted":"black_water;tank_chemicals"}},"4189521659":{"location":[50.2874188,1.6853047],"ct":"FR","tp":"CS","ts":"2024-05-22T11:59:06Z","tX":516,"tY":346,"tags":{"capacity":"216","name":"La Garenne de Moncourt","stars":"4","static_caravans":"yes","tents":"no","website":"https://www.campinglagarennedemoncourt.com/"}},"6440387971":{"location":[50.1604586,1.6174186],"ct":"FR","tp":"CS","ts":"2023-04-23T12:08:02Z","tX":516,"tY":346,"tags":{"cabins":"yes","caravans":"yes","email":"camping.les.etangs@orange.fr","mobile":"+33 6 33 37 27 82","name":"Camping Les Etangs","opening_hours":"Apr 1 - Nov 15","phone":"+33 3 22 60 07 35","shower":"yes","stars":"2","tents":"yes","toilets":"yes","website":"https://www.campingbaiedesomme.net/"}},"10657819492":{"location":[50.1896612,1.7248295],"ct":"FR","tp":"CS","ts":"2023-03-31T06:31:35Z","tX":516,"tY":346,"tags":{"capacity":"45","maxtents":"5","name":"Camping Aux Haies de Nolette","phone":"+33 3 22 23 24 08","stars":"2"}},"10658015481":{"location":[50.2196171,1.6818483],"ct":"FR","tp":"CS","ts":"2023-02-14T15:12:25Z","tX":516,"tY":346,"tags":{"capacity":"30","name":"Camping La Randonnière"}},"5085657207":{"location":[50.2181559,1.6333796],"ct":"FR","tp":"SD","ts":"2023-12-07T09:53:30Z","tX":516,"tY":346,"tags":{"access":"yes","fee":"yes","operator":"Euro Relais","wikimedia_commons":"File:Motorhome stopopver near the port of Le Crotoy-2226.jpg"}},"6171083693":{"location":[50.1828772,1.6286078],"ct":"FR","tp":"SD","ts":"2018-12-29T16:19:39Z","tX":516,"tY":346,"tags":{"access":"customers","fee":"no","opening_hours":"24/7","sanitary_dump_station:basin":"yes","sanitary_dump_station:round_drain":"yes"}},"11047317204":{"location":[50.2299022,1.641465],"ct":"FR","tp":"SD","ts":"2023-07-14T22:03:30Z","tX":516,"tY":346,"tags":{"access":"customers"}},"12396096363":{"location":[50.2692863,1.6079813],"ct":"FR","tp":"SD","ts":"2024-12-04T15:15:59Z","tX":516,"tY":346,"tags":{"access":"customers"}}}