{"12078921":{"location":[49.9950032,1.5419677],"ct":"FR","tp":"CS","ts":"2023-10-15T19:12:39Z","tX":516,"tY":347,"tags":{"addr:street":"Rue Antonin Gombert","cabins":"yes","capacity:pitches":"152","caravans":"yes","motorhome":"yes","name":"Les Marguerites","opening_hours":"Apr 1 - Oct 31","phone":"+33 3 22 30 89 51","shower":"yes","stars":"3","tents":"yes","toilets":"yes","website":"https://www.camping-les-marguerites.com"}},"13009535":{"location":[50.0510405,1.408345],"ct":"FR","tp":"CS","ts":"2023-11-06T20:34:01Z","tX":516,"tY":347,"tags":{"alt_name":"Camping Muncipal Parc du Château","caravans":"yes","drinking_water":"yes","fee":"yes","internet_access":"wlan","internet_access:fee":"no","name":"Camping Municipal Eu","opening_hours":"Apr-Oct","power_supply":"yes","sanitary_dump_station":"yes","stars":"2","tents":"yes","website":"https://www.ville-eu.fr/tourisme-dormir-camping-municipal.php"}},"172438310":{"location":[50.0121248,1.5092641],"ct":"FR","tp":"CS","ts":"2024-07-26T08:18:38Z","tX":516,"tY":347,"tags":{"addr:postcode":"76117","barrier":"fence","check_date":"2024-07-26","name":"Camping Municipal de l'Étang","phone":"+33 2 35 50 30 17","stars":"3","website":"https://incheville.wixsite.com/incheville/camping"}},"182885728":{"location":[50.0231534,1.4925966],"ct":"FR","tp":"CS","ts":"2023-10-18T17:13:54Z","tX":516,"tY":347,"tags":{"addr:street":"rue de la forêt","name":"Les Grands Près","opening_hours":"Apr 1-Dec 31","operator":"Mairie","phone":"+33 3 22 30 86 87","stars":"2","website":"https://camping-lesgrandspres.fr"}},"367476380":{"location":[50.0136065,1.5043461],"ct":"FR","tp":"CR","ts":"2024-06-23T08:24:50Z","tX":516,"tY":347,"tags":{"bbq":"no","capacity":"18","caravan_site":"motorhome_stopover","caravan_site:type":"lake","caravans":"no","charge":"14.46 EUR","dog":"leashed","fee":"yes","internet_access":"wlan","name":"Aire de Camping-Car Park Incheville","network":"CAMPING-CAR PARK","power_supply":"yes","power_supply:capacity":"18","power_supply:fee":"no","power_supply:maxcurrent":"6","sanitary_dump_station":"yes","surface":"asphalt","tents":"no","trailer":"yes","water_point":"yes","website":"https://www.campingcarpark.com/fr_FR/sejour/aire-etape-camping-car/normandie/76-seine-maritime/incheville"}},"376798605":{"location":[49.9802847,1.4480658],"ct":"FR","tp":"CS","ts":"2024-07-03T17:55:27Z","tX":516,"tY":347,"tags":{"addr:housenumber":"101","addr:street":"Rue René Delcourt","capacity":"90","caravans":"yes","name":"La Berquerie","opening_hours":"Apr 01-Oct 31","phone":"+33 2 35 50 00 46","stars":"3","tents":"yes","website":"https://camping-la-berquerie.fr"}},"574875830":{"location":[49.9422895,1.614488],"ct":"FR","tp":"CS","ts":"2024-06-30T05:20:50Z","tX":516,"tY":347,"tags":{"addr:city":"Bouttencourt","addr:housenumber":"4","addr:postcode":"80220","addr:street":"Rue de Séry","cabins":"yes","drinking_water":"yes","name":"Domaine de Séry","permanent_camping":"yes","phone":"+33 9 77 78 66 41","shower":"yes","static_caravans":"yes","tents":"no","toilets":"yes","website":"https://www.domaine-de-sery.com/"}},"838634253":{"location":[49.9545851,1.5512301],"ct":"FR","tp":"CS","ts":"2024-06-12T13:50:10Z","tX":516,"tY":347,"tags":{"capacity":"19","capacity:tents":"14","name":"Camping Municipal La Forêt","source":"data.gouv.fr:DATAtourisme - 05/2020","tents":"yes","website":"https://www.normandie-tourisme.fr/camping/camping-la-foret"}},"838636378":{"location":[49.9236286,1.6582274],"ct":"FR","tp":"CS","ts":"2024-06-12T13:56:55Z","tX":516,"tY":347,"tags":{"capacity":"55","capacity:tents":"40","caravans":"yes","internet_access":"wlan","name":"Camping Aux Cygnes d'Opale","phone":"+33 235945565","source":"data.gouv.fr:DATAtourisme - 05/2020","stars":"3","tents":"yes","website":"https://www.auxcygnesdopale.fr"}},"1292132767":{"location":[50.0529609,1.4236568],"ct":"FR","tp":"CR","ts":"2024-10-06T15:40:33Z","tX":516,"tY":347,"tags":{"capacity":"19","caravan_site":"motorhome_stopover","charge":"9.50 EUR","dog":"yes","fee":"yes","name":"Aire de stationnement d’Eu","opening_hours":"24/7","picnic_table":"yes","power_supply":"yes","sanitary_dump_station":"yes","sanitary_dump_station:chemical_toilet":"yes","sanitary_dump_station:grey_water":"yes","services:charge":"2.30 EUR","surface":"asphalt","water_point":"yes","water_point:fee":"no","website":"https://www.seine-maritime-tourisme.com/diffusio/fr/je-choisis/un-hebergement/campings-cars/eu/aire-de-stationnement-et-de-service-d-eu_TFOHPANOR076V512S3P.php","wheelchair":"yes"}},"1316347114":{"location":[50.0239486,1.5658924],"ct":"FR","tp":"CR","ts":"2024-09-18T10:34:00Z","tX":516,"tY":347,"tags":{"capacity":"8","caravan_site":"motorhome_stopover","caravan_site:type":"farm_shop","charge":"5 EUR","dog":"yes","fee":"yes","name":"Aire Gites du Chant des Oiseaux","opening_hours":"24/7","power_supply":"yes","power_supply:fee":"yes","product":"apples","sanitary_dump_station":"yes","seasonal":"no","surface":"asphalt","water_point":"yes","water_point:fee":"yes","website":"https://www.gitesduchantdesoiseaux.fr/accueil-campingcaristes/"}},"3616195628":{"location":[50.0605974,1.4105999],"ct":"FR","tp":"SD","ts":"2020-09-27T04:55:52Z","tX":516,"tY":347,"tags":{"access":"yes","charge":"2 €","payment:token":"yes","sanitary_dump_station:basin":"yes","water_point":"yes","water_point:fee":"yes"}}}