{"222065204":{"location":[49.7367598,1.4283515],"ct":"FR","tp":"CS","ts":"2023-10-24T19:23:32Z","tX":516,"tY":348,"tags":{"access":"customers","addr:city":"Neufchâtel-en-Bray","addr:country":"FR","addr:housenumber":"19","addr:postcode":"76270","addr:street":"Rue de la Grande Flandre","capacity":"100","caravans":"yes","description":"Camping ouvert du 1er avril au 15 octobre.","fee":"yes","name":"Camping Sainte-Claire","nudism":"no","opening_hours":"Apr 01-Oct 15","operator":"M. et Mme ANCELOT","phone":"+33 2 35 93 03 93","power_supply":"yes","shower":"yes","stars":"3","tents":"yes","toilets":"yes","website":"http://camping-sainteclaire.com"}},"232539768":{"location":[49.7658645,1.7431425],"ct":"FR","tp":"CS","ts":"2024-07-05T21:02:05Z","tX":516,"tY":348,"tags":{"capacity":"35","caravans":"yes","drinking_water":"yes","fee":"yes","motor_vehicle":"yes","name":"Camping Municipal Le Grand Mail","phone":"+33 2 35 93 40 50","power_supply":"yes","sanitary_dump_station":"yes","shower":"yes","stars":"2","tents":"yes","toilets":"yes","website":"http://mairieaumale.free.fr/tourisme/hebergements.htm"}},"298309291":{"location":[49.7369825,1.4293216],"ct":"FR","tp":"CR","ts":"2024-08-06T22:51:34Z","tX":516,"tY":348,"tags":{"capacity":"14","caravan_site":"motorhome_stopover","caravan_site:type":"village","charge":"EUR 14.00/night","fee":"yes","name":"Aire de camping Cars de Sainte-Claire","opening_hours":"24/7","power_supply":"yes","reservation":"no","sanitary_dump_station":"customers","tents":"no","washing_machine":"yes"}},"1254483750":{"location":[49.6963017,1.4914383],"ct":"FR","tp":"CR","ts":"2024-10-10T21:28:14Z","tX":516,"tY":348,"tags":{"bbq":"yes","capacity":"6","caravan_site":"motorhome_stopover","caravan_site:type":"farm_shop","charge":"10 EUR","fee":"yes","name":"Aire de stationnement de La Ferme de Béthune","picnic_area":"yes","power_supply":"yes","seasonal":"no","water_point":"yes","website":"https://www.normandie-tourisme.fr/aires-camping-cars/aire-de-stationnement-et-de-service-de-la-ferme-de-bethune/"}},"1281865004":{"location":[49.6524043,1.7326527],"ct":"FR","tp":"CR","ts":"2024-05-17T20:07:27Z","tX":516,"tY":348,"tags":{"capacity":"6","caravan_site":"motorhome_stopover","caravans":"no","charge":"12.50 EUR","dog":"leashed","fee":"yes","internet_access":"wlan","internet_access:fee":"no","maxlength":"none","name":"AireFormerie","network":"CAMPING-CAR PARK","operator":"CAMPING-CAR PARK","power_supply":"yes","power_supply:maxcurrent":"6","sanitary_dump_station":"yes","surface":"asphalt","tents":"no","trailer":"yes","water_point":"yes","website":"https://www.campingcarpark.com/fr_FR/sejour/aire-etape-camping-car/hauts-de-france/60-oise/formerie"}},"7673397858":{"location":[49.6745749,1.4245573],"ct":"FR","tp":"CS","ts":"2023-10-24T19:25:59Z","tX":516,"tY":348,"tags":{"access":"customers","addr:city":"Fontaine-en-Bray","addr:housenumber":"167","addr:postcode":"76440","addr:street":"Rue du Bourg","capacity":"4","caravans":"no","description":"Camping de l'association I.C.Art. Pour tente uniquement.","email":"i.c.art@orange.fr","fee":"yes","name":"I.C. Art","phone":"+33 2 35 90 25 73","tents":"yes","website":"http://i.c.art.free.fr/index.php/hebergement"}},"9053753700":{"location":[49.6970627,1.4948663],"ct":"FR","tp":"CR","ts":"2024-10-10T21:28:14Z","tX":516,"tY":348,"tags":{"capacity":"5","caravan_site":"motorhome_stopover","caravan_site:type":"village","fee":"no","name":"Aire de stationnement Nesle-Hodeng","power_supply":"yes","sanitary_dump_station":"yes","sanitary_dump_station:chemical_toilet":"yes","sanitary_dump_station:grey_water":"yes","seasonal":"no","water_point":"yes","website":"https://www.normandie-tourisme.fr/aires-camping-cars/aire-de-stationnement-et-de-service-de-nesle-hodeng/"}},"6801378270":{"location":[49.6537606,1.614545],"ct":"FR","tp":"SD","ts":"2019-09-17T07:31:26Z","tX":516,"tY":348,"tags":{"access":"yes","fee":"no"}},"9053757449":{"location":[49.696894,1.4949867],"ct":"FR","tp":"SD","ts":"2024-10-10T21:28:14Z","tX":516,"tY":348,"tags":{"name":"Aire de service de Nesle-Hodeng"}},"9358711059":{"location":[49.7371839,1.4295356],"ct":"FR","tp":"SD","ts":"2021-12-22T16:52:50Z","tX":516,"tY":348,"tags":{"access":"customers","fee":"no","opening_hours":"24/7","sanitary_dump_station:basin":"yes","sanitary_dump_station:round_drain":"yes"}}}