{"674116032":{"location":[48.4356047,1.4988493],"ct":"FR","tp":"CS","ts":"2025-06-06T08:27:13Z","tX":516,"tY":354,"tags":{"addr:city":"Chartres","addr:country":"FR","addr:housenumber":"9","addr:postcode":"28000","addr:street":"Chemin des Bords de l'Eure","caravans":"yes","drinking_water":"yes","email":"camping@chartres-tourisme.com","internet_access":"wlan","internet_access:fee":"no","name":"Bord de l'Eure","nudism":"no","operator":"office de tourisme Chartres Métropole","phone":"+33 2 37 28 79 43","power_supply":"yes","sanitary_dump_station":"yes","shower":"yes","tents":"yes","toilets":"yes","website":"https://camping-de-chartres.com"}},"1323426700":{"location":[48.2721924,1.6340205],"ct":"FR","tp":"CR","ts":"2024-10-12T15:16:10Z","tX":516,"tY":354,"tags":{"bbq":"no","capacity":"20","caravan_site":"motorhome_stopover","caravan_site:type":"countryside","caravans":"no","charge":"12.88 EUR","dog":"leashed","fee":"yes","internet_access":"wlan","internet_access:fee":"no","maxlength":"9","name":"Camping Car-Park Les Villages Vovéen","network":"CAMPING-CAR PARK","operator":"Camping Car Park","power_supply":"yes","power_supply:capacity":"20","power_supply:fee":"no","power_supply:maxcurrent":"6","sanitary_dump_station":"yes","sanitary_dump_station:chemical_toilet":"yes","sanitary_dump_station:grey_water":"yes","tents":"no","trailer":"no","water_point":"yes","website":"https://www.campingcarpark.com/fr_FR/sejour/aire-etape-camping-car/centre-val-de-loire/28-eure-et-loir/les-villages-voveens#0"}},"10858192385":{"location":[48.4325656,1.4962299],"ct":"FR","tp":"CR","ts":"2023-12-18T20:09:47Z","tX":516,"tY":354,"tags":{"bbq":"no","caravan_site":"motorhome_stopover","caravan_site:type":"town","caravans":"no","dog":"no","fee":"no","internet_access":"no","maxweight":"3.5","name":"Aire camping-car Chartres","opening_hours":"24/7","power_supply":"no","sanitary_dump_station":"no","seasonal":"no","trailer":"no"}}}