{"153014002":{"location":[46.8939141,1.4166161],"ct":"FR","tp":"CS","ts":"2023-08-18T08:45:33Z","tX":516,"tY":360,"tags":{"addr:city":"Buzançais","addr:postcode":"36500","addr:street":"Allée des Sports","email":"campinglatetenoire@gmail.com","fee":"yes","name":"Camping La Tête Noire","phone":"+33 2 54 84 17 27","stars":"3","website":"http://www.camping-latetenoire.fr/"}},"185967551":{"location":[46.9843465,1.605272],"ct":"FR","tp":"CS","ts":"2019-07-04T00:34:59Z","tX":516,"tY":360,"tags":{"caravans":"yes","name":"Camping Municipal de Levroux","stars":"2","tents":"30"}},"187437046":{"location":[46.8232162,1.6934817],"ct":"FR","tp":"CS","ts":"2024-07-07T07:05:55Z","tX":516,"tY":360,"tags":{"caravans":"yes","drinking_water":"yes","email":"camping.lerochat@orange.fr","fee":"yes","internet_access":"wlan","name":"Camping du Rochat","phone":"+33254089629","power_supply":"yes","sanitary_dump_station":"yes","shower":"yes","source":"cadastre-dgi-fr source : Direction Générale des Impôts - Cadastre. Mise à jour : 2012","stars":"3","tents":"yes","toilets":"yes","website":"https://www.aquadis-loisirs.com/camping-le-rochat-belle-isle/"}},"506724963":{"location":[46.8225636,1.6946712],"ct":"FR","tp":"CR","ts":"2024-10-31T19:52:02Z","tX":516,"tY":360,"tags":{"addr:city":"Châteauroux","addr:street":"Avenue Daniel Bernardet","capacity":"5","caravan_site":"motorhome_stopover","caravan_site:type":"town","fee":"no","name":"Aire de Châteauroux","power_supply":"no","sanitary_dump_station":"yes","surface":"asphalt","water_point":"yes"}}}