{"292093943":{"location":[46.7691598,1.4737565],"ct":"FR","tp":"CR","ts":"2024-05-24T23:14:47Z","tX":516,"tY":361,"tags":{"capacity":"3","caravan_site":"motorhome_stopover","caravan_site:type":"village","description":"Aire Municipale","fee":"no","name":"Aire Camping car de Neuillay-les-Bois","power_supply":"yes","power_supply:fee":"no","sanitary_dump_station":"yes","toilets":"yes","water_point":"yes","water_point:fee":"no","website":"https://www.valdeloire-france.com/aire-camping-car/borne-de-camping-car-de-neuillay-les-bois/"}},"302241427":{"location":[46.7418302,1.6202626],"ct":"FR","tp":"CS","ts":"2017-09-18T16:19:20Z","tX":516,"tY":361,"tags":{"email":"contact@les-grans-pins.fr","name":"Les Grands Pins","phone":"+33 2 54 36 61 93","source":"MapBox","stars":"3","website":"http://www.les-grands-pins.fr/"}},"476553963":{"location":[46.6339774,1.4086978],"ct":"FR","tp":"CS","ts":"2023-06-10T18:47:50Z","tX":516,"tY":361,"tags":{"access":"customers","addr:city":"Saint-Gaultier","addr:housenumber":"3","addr:postcode":"36800","addr:street":"Rue de la Pierre Plate","capacity:persons":"24","internet_access":"wlan","name":"L'Oasis du Berry","operator":"Eloise & Sébastien Paulmier","stars":"4","tents":"no","website":"https://camping-oasisduberry.fr"}},"598214896":{"location":[46.6296706,1.4776196],"ct":"FR","tp":"CS","ts":"2018-06-15T23:18:58Z","tX":516,"tY":361,"tags":{"name":"Aux Rives de la Bouzanne","stars":"2"}},"765869931":{"location":[46.5958779,1.5054504],"ct":"FR","tp":"CS","ts":"2025-04-07T14:51:41Z","tX":516,"tY":361,"tags":{"addr:city":"Argenton-sur-Creuse","addr:housenumber":"37","addr:postcode":"36200","addr:street":"Rue des Chambons","email":"campingleschambons@gmail.com","fee":"yes","name":"Les Chambons","payment:cash":"yes","payment:visa":"yes","phone":"+33 9 66 84 06 01;+33 6 47 81 59 35","power_supply":"yes","sanitary_dump_station":"yes","shower":"yes","toilets":"yes","website":"https://www.campingleschambons.fr/"}},"765895909":{"location":[46.6324068,1.419653],"ct":"FR","tp":"CS","ts":"2023-07-28T12:38:52Z","tX":516,"tY":361,"tags":{"addr:postcode":"36800","addr:street":"Rue de Limage","capacity:caravans":"70","capacity:tents":"90","caravans":"yes","charge":"10 EUR","fee":"yes","mobile":"+33656751999","name":"Camping municipial de l'Ilon","operator":"Bénédicte Rousseau","payment:cash":"yes","payment:credit_cards":"yes","phone":"+33254471122","power_supply":"yes","reservation":"yes","shower":"yes","source":"https://www.parc-naturel-brenne.fr/sejournez/ou-dormir/campings-et-accueils-camping-cars/l-ilon-26","tents":"yes","toilets":"yes","website":"https://www.parc-naturel-brenne.fr/sejournez/ou-dormir/campings-et-accueils-camping-cars/l-ilon-26"}},"907460136":{"location":[46.6321753,1.4308659],"ct":"FR","tp":"CR","ts":"2023-12-29T19:27:42Z","tX":516,"tY":361,"tags":{"access":"yes","addr:city":"Thenay","addr:postcode":"36800","addr:street":"Rue de la Paix","capacity":"4","caravan_site":"parking_lot","caravan_site:type":"village","description":"Aire de Camping-car mixte","dog":"yes","fee":"no","maxstay":"no","name":"Aire de camping-car Thenay","operator":"Ville de Thenay","power_supply":"no","sanitary_dump_station:chemical_toilet":"yes","sanitary_dump_station:grey_water":"yes","sanitary_dump_station:round_drain":"yes","supervised":"no","water_point":"yes","website":"https://www.valdeloire-france.com/aire-camping-car/borne-de-camping-car-de-thenay/"}},"907658652":{"location":[46.7228108,1.5724228],"ct":"FR","tp":"CR","ts":"2024-05-25T00:06:41Z","tX":516,"tY":361,"tags":{"access":"yes","addr:city":"Luant","addr:postcode":"36350","addr:street":"D80","capacity":"12","caravan_site":"motorhome_stopover","caravan_site:type":"lake","caravans":"no","fee":"no","maxstay":"no","name":"Aire de camping-car Etang Duris","operator":"Ville de Luant","power_supply":"yes","power_supply:charge":"2 EUR","sanitary_dump_station":"yes","sanitary_dump_station:chemical_toilet":"yes","sanitary_dump_station:grey_water":"yes","sanitary_dump_station:round_drain":"yes","supervised":"no","water_point":"yes","website":"https://www.valdeloire-france.com/aire-camping-car/borne-camping-cars-a-letang-duris/"}},"907665618":{"location":[46.7055731,1.5230329],"ct":"FR","tp":"CR","ts":"2024-10-25T20:14:23Z","tX":516,"tY":361,"tags":{"access":"yes","addr:city":"La Pérouille","addr:postcode":"36350","addr:street":"Le Champ Perrot","capacity":"10","caravan_site":"motorhome_stopover","caravan_site:type":"countryside","description":"Aire de camping-car Le Champ Perrot. Services non disponible Janvier 2021 suite à du vendalisme.","fee":"no","maxstay":"no","name":"Aire de camping-car Le Champ Perrot - La Pérouille","opening_hours":"Apr-Oct","operator":"Ville de La Pérouille","power_supply":"no","power_supply:charge":"2 EUR","sanitary_dump_station":"yes","sanitary_dump_station:chemical_toilet":"yes","sanitary_dump_station:grey_water":"yes","sanitary_dump_station:round_drain":"yes","supervised":"no","surface":"grass","water_point":"yes"}},"1281940054":{"location":[46.5856916,1.7321142],"ct":"FR","tp":"CR","ts":"2024-07-02T10:00:14Z","tX":516,"tY":361,"tags":{"caravan_site":"motorhome_stopover","caravan_site:type":"village","charge":"7.70 EUR","fee":"yes","name":"AirePark Gournay","network":"AirePark","opening_hours":"24/7","operator":"AirePark","power_supply":"yes","power_supply:capacity":"4","power_supply:maxcurrent":"16","reservation":"yes","sanitary_dump_station":"yes","tents":"no","water_point":"yes","water_point:charge":"1 EUR/100 liter","water_point:fee":"yes","website":"https://www.aireparkreservation.com/aires-camping-cars/centre-val-de-loire/indre/gournay"}},"5089642323":{"location":[46.705167,1.5227608],"ct":"FR","tp":"SD","ts":"2023-12-19T20:36:37Z","tX":516,"tY":361,"tags":{"access":"yes","description":"Station de vidange pour Camping-car. Service non disponible en Janvier 2021 suite à vendalisme","fee":"no","operator":"Ville de La Petouille","sanitary_dump_station:chemical_toilet":"yes","sanitary_dump_station:grey_water":"yes","sanitary_dump_station:round_drain":"yes","water_point":"yes"}},"6109437538":{"location":[46.6889106,1.6538702],"ct":"FR","tp":"SD","ts":"2021-11-20T14:40:26Z","tX":516,"tY":361,"tags":{"access":"yes","description":"Station de vidange pour Camping-car.","fee":"no","operator":"Ville de Velles","sanitary_dump_station":"grey_water","sanitary_dump_station:chemical_toilet":"yes","sanitary_dump_station:round_drain":"yes","water_point":"yes"}},"8426301252":{"location":[46.6320154,1.430967],"ct":"FR","tp":"SD","ts":"2023-12-29T19:27:42Z","tX":516,"tY":361,"tags":{"access":"yes","description":"Station de vidange pour Camping-car.","fee":"no","operator":"Ville de Thenay","sanitary_dump_station:chemical_toilet":"yes","sanitary_dump_station:grey_water":"yes","sanitary_dump_station:round_drain":"yes","water_point":"yes"}},"8428203389":{"location":[46.7226945,1.5724716],"ct":"FR","tp":"SD","ts":"2023-12-19T20:36:37Z","tX":516,"tY":361,"tags":{"access":"yes","description":"Station de vidange pour Camping-car.","fee":"no","operator":"Ville de Luant","sanitary_dump_station:chemical_toilet":"yes","sanitary_dump_station:grey_water":"yes","sanitary_dump_station:round_drain":"yes","water_point":"yes"}},"11896747604":{"location":[46.5857382,1.7319278],"ct":"FR","tp":"SD","ts":"2024-05-11T12:27:58Z","tX":516,"tY":361,"tags":{}},"11931777141":{"location":[46.7158784,1.5945954],"ct":"FR","tp":"SD","ts":"2024-05-24T23:07:37Z","tX":516,"tY":361,"tags":{"access":"yes","fee":"no","name":"AIRE DE REPOS DES MILLE ETANGS","website":"https://www.valdeloire-france.com/aire-camping-car/aire-de-repos-des-mille-etangs/"}}}