{"261660657":{"location":[46.1143594,1.6331882],"ct":"FR","tp":"CR","ts":"2024-08-13T23:42:32Z","tX":516,"tY":363,"tags":{"capacity":"5","caravan_site":"motorhome_stopover","caravan_site:type":"village","fee":"no","lit":"yes","name":"Aire camping-car Bénévent-l'Abbaye","power_supply":"yes","power_supply:fee":"no","sanitary_dump_station:chemical_toilet":"yes","sanitary_dump_station:grey_water":"yes","surface":"fine_gravel","water_point":"yes","water_point:fee":"no","website":"https://www.tourisme-creuse.com/en/offers/aire-daccueil-camping-cars-benevent-labbaye-benevent-labbaye-en-3027391/"}},"461384928":{"location":[46.2429255,1.5073405],"ct":"FR","tp":"CS","ts":"2024-07-03T03:58:04Z","tX":516,"tY":363,"tags":{"addr:city":"La Souterraine","addr:postcode":"23300","addr:street":"Allée du Cheix","caravans":"yes","drinking_water":"yes","name":"Camping l'Aquarelle du Limousin","phone":"+33 5 55 63 59 71","shower":"yes","source":"knowledge","tents":"yes","website":"https://www.camping-creuse-limousin.com/"}},"900798274":{"location":[46.2455053,1.5917535],"ct":"FR","tp":"CR","ts":"2024-05-20T16:08:37Z","tX":516,"tY":363,"tags":{"addr:city":"Noth","addr:housenumber":"2","addr:place":"La Grande Cazine","addr:postcode":"23300","capacity":"27","caravan_site":"motorhome_stopover","caravan_site:type":"lake","caravans":"yes","caravans:conditional":"no @ (Nov 04-Mar 28)","charge":"14.44 EUR","charge:conditional":"13.44 EUR @ (Nov 04-Mar 28)","fee":"yes","internet_access":"wlan","name":"Aire Camping-Car Noth","network":"CAMPING-CAR PARK","opening_hours":"24/7","power_supply":"yes","power_supply:capacity":"28","power_supply:maxcurrent":"6","sanitary_dump_station":"yes","tents":"yes","tents:conditional":"no @ (Nov 04-Mar 28)","toilets":"yes","toilets:conditional":"no @ (Nov 04-Mar 28)","water_point":"yes","website":"https://www.campingcarpark.com/fr_FR/sejour/camping/nouvelle-aquitaine/23-creuse/noth"}},"1307617848":{"location":[46.1511972,1.5111599],"ct":"FR","tp":"CR","ts":"2024-08-13T23:52:49Z","tX":516,"tY":363,"tags":{"capacity":"45","caravan_site":"motorhome_stopover","caravan_site:type":"village","charge":"10 EUR","fee":"yes","maxstay":"3 nights","name":"Aire de camping car Fursac","power_supply":"yes","power_supply:fee":"no","sanitary_dump_station":"yes","sanitary_dump_station:chemical_toilet":"yes","sanitary_dump_station:grey_water":"yes","surface":"grass","water_point":"yes","water_point:charge":"2 EUR","water_point:fee":"yes","website":"https://www.commune-fursac.fr/article257.html"}},"2056227367":{"location":[46.0941948,1.4779177],"ct":"FR","tp":"CS","ts":"2012-12-08T16:57:55Z","tX":516,"tY":363,"tags":{"name":"Camping du Pont à l'Age"}},"2056370786":{"location":[46.0996954,1.5788564],"ct":"FR","tp":"CS","ts":"2023-10-28T07:42:20Z","tX":516,"tY":363,"tags":{"contact:phone":"+33 5 55 62 61 32","name":"Aire naturelle de camping de l’Ardour","opening_hours":"May-Oct","operator":"Mairie","website":"https://www.marsac-creuse.fr/?page_id=3369"}},"12109307509":{"location":[46.1145043,1.6331488],"ct":"FR","tp":"SD","ts":"2024-08-13T23:42:32Z","tX":516,"tY":363,"tags":{"access":"yes","operator":"Euro-relais","sanitary_dump_station:chemical_toilet":"yes","sanitary_dump_station:grey_water":"yes"}},"12109363319":{"location":[46.1512627,1.5116005],"ct":"FR","tp":"SD","ts":"2024-08-13T23:52:49Z","tX":516,"tY":363,"tags":{}}}