{"11200155":{"location":[44.8508654,1.7452664],"ct":"FR","tp":"CS","ts":"2020-06-13T14:37:25Z","tX":516,"tY":368,"tags":{"internet_access":"wlan","name":"Roca d'Amour","phone":"+33565336554","stars":"4","website":"https://www.capfun.com/camping-france-midi_pyrenees-roca_d_amour-FR.html"}},"26858922":{"location":[44.945556,1.441111],"ct":"FR","tp":"CS","ts":"2007-03-28T17:13:05Z","tX":516,"tY":368,"tags":{"created_by":"JOSM","name":"Paille Basse"}},"132417188":{"location":[44.8900574,1.4744352],"ct":"FR","tp":"CS","ts":"2024-09-26T07:51:18Z","tX":516,"tY":368,"tags":{"addr:city":"Souillac","addr:postcode":"46200","addr:street":"Rue des Ondines","caravans":"yes","email":"camping.les.ondines@flowercampings.com","internet_access":"yes","internet_access:fee":"no","name":"Camping Les Ondines","operator":"flower campings","phone":"+33 5 65 37 86 44","power_supply":"yes","sanitary_dump_station":"yes","swimming_pool":"yes","tents":"yes","website":"https://www.camping-lesondines.com/"}},"169581649":{"location":[44.8554747,1.5233309],"ct":"FR","tp":"CS","ts":"2022-12-26T10:18:15Z","tX":516,"tY":368,"tags":{"addr:city":"Pinsac","caravans":"yes","name":"Camping municipal Beauregard","opening_hours":"Jun 15 - Sep 7","phone":"+33 5 65 37 06 02","power_supply":"yes","shower":"yes","stars":"2","tents":"yes","toilets":"yes","website":"https://www.tourisme-lot.com/hebergement/campings/camping-municipal-beauregard-702010"}},"220441522":{"location":[44.9447263,1.7041547],"ct":"FR","tp":"CS","ts":"2024-05-13T14:45:49Z","tX":516,"tY":368,"tags":{"internet_access":"wlan","internet_access:fee":"no","landuse":"residential","name":"Camping La Palanquière","phone":"+33 5 65 32 43 67","stars":"2","website":"https://www.vayrac.fr/"}},"300288159":{"location":[44.9386731,1.6072947],"ct":"FR","tp":"CR","ts":"2024-10-18T23:56:38Z","tX":516,"tY":368,"tags":{"alt_name":"Camping municipal La Callopie","bbq":"no","capacity":"22","caravan_site":"motorhome_stopover","caravan_site:type":"village","caravans":"yes","caravans:conditional":"no @ (Nov 16-Apt 01)","charge":"13.58 EUR","dog":"leashed","fee":"yes","maxlength":"none","name":"Camping-Car Park Martel","network":"CAMPING-CAR PARK","power_supply":"yes","power_supply:capacity":"24","power_supply:maxcurrent":"6","sanitary_dump_station":"yes","sanitary_dump_station:chemical_toilet":"yes","sanitary_dump_station:grey_water":"yes","shower":"yes","shower:conditional":"no @ (Nov 16-Apt 01)","tents":"yes","tents:conditional":"no @ (Nov 16-Apt 01)","toilets":"yes","toilets:conditional":"no @ (Nov 16-Apt 01)","trailer":"yes","water_point":"yes","website":"https://www.campingcarpark.com/fr_FR/sejour/camping/occitanie/46-lot/martel"}},"302783228":{"location":[44.8830113,1.4833063],"ct":"FR","tp":"CS","ts":"2024-09-11T18:21:34Z","tX":516,"tY":368,"tags":{"contact:website":"http://lanzac.fr/vivre-a-lanzac/tourisme-et-loisirs/le-camping-municipal/","name":"Camping municipal du Pont de Lanzac","source":"survey"}},"333354694":{"location":[44.873034,1.4315094],"ct":"FR","tp":"CS","ts":"2023-11-06T02:11:08Z","tX":516,"tY":368,"tags":{"email":"campingcazoules@orange.fr","name":"La Borgne","phone":"+33553298164","website":"https://cazoules.pagesperso-orange.fr/mapage/index.html"}},"333354699":{"location":[44.8756733,1.5770944],"ct":"FR","tp":"CS","ts":"2024-06-09T09:42:25Z","tX":516,"tY":368,"tags":{"caravans":"yes","email":"contact@camping-laplage.com","name":"La Plage","opening_hours":"May 14 - Sep 14","phone":"+33 5 65 32 23 26","power_supply":"yes","shower":"yes","stars":"3","tents":"yes","toilets":"yes","website":"https://www.camping-laplage.com/"}},"373412521":{"location":[44.9373665,1.4324705],"ct":"FR","tp":"CS","ts":"2015-10-02T13:04:49Z","tX":516,"tY":368,"tags":{"name":"La Draille"}},"507054295":{"location":[44.9104048,1.7414349],"ct":"FR","tp":"CS","ts":"2024-05-30T10:27:18Z","tX":516,"tY":368,"tags":{"caravans":"yes","contact:website":"https://www.camping-lot-eauvive.com/","name":"Camping L'Eau Vive","opening_hours":"Apr 28-Sep 30","phone":"+33 5 65 10 97 39","power_supply":"yes","shower":"yes","source":"survey 2016;BDOrtho IGN 2017","stars":"4","tents":"yes","toilets":"yes","website":"https://www.camping-lot-eauvive.com/"}},"567908861":{"location":[45.059749,1.6639316],"ct":"FR","tp":"CS","ts":"2024-11-22T12:51:40Z","tX":516,"tY":368,"tags":{"cabins":"yes","caravans":"yes","email":"camping.collonges@aquadis-loisirs.com","motorhome":"yes","name":"Camping de Collonges-la-Rouge","old_name":"Le Moulin de la Valane","operator":"Aquadis Loisirs","phone":"+33 555254159","shower":"yes","stars":"3","tents":"yes","toilets":"yes","website":"https://www.aquadis-loisirs.com/camping-nature/camping-de-collonges-la-rouge"}},"626338627":{"location":[44.8838084,1.5985432],"ct":"FR","tp":"CS","ts":"2024-07-06T19:55:17Z","tX":516,"tY":368,"tags":{"addr:city":"Creysse","addr:postcode":"46600","addr:street":"La Souleille","caravans":"yes","drinking_water":"yes","email":"contact@campingduport.com","fee":"yes","internet_access":"wlan","internet_access:fee":"no","name":"Camping du Port","opening_hours":"Apr 22-Sep 30","phone":"+33 5 65 32 20 82","power_supply":"yes","sanitary_dump_station":"yes","shower":"yes","stars":"3","tents":"yes","toilets":"yes","website":"https://www.campingduport.com/"}},"627106511":{"location":[44.9910364,1.6519755],"ct":"FR","tp":"CS","ts":"2018-09-21T08:32:49Z","tX":516,"tY":368,"tags":{"name":"Le Vignon"}},"713349798":{"location":[44.8607081,1.5596197],"ct":"FR","tp":"CS","ts":"2023-11-06T02:11:01Z","tX":516,"tY":368,"tags":{"addr:street":"Le Bougayrou","name":"Camping La Rivière","phone":"+33 5 65 37 02 04","website":"https://www.campinglariviere.com/"}},"729681415":{"location":[44.9876833,1.6729877],"ct":"FR","tp":"CS","ts":"2019-09-29T16:02:19Z","tX":516,"tY":368,"tags":{}},"782117762":{"location":[44.9093185,1.6260069],"ct":"FR","tp":"CS","ts":"2020-03-17T15:12:07Z","tX":516,"tY":368,"tags":{"caravans":"yes","fee":"yes","name":"Camping des Falaises","phone":"+33 5 65 37 37 78","power_supply":"yes","shower":"yes","stars":"2","tents":"yes","toilets":"yes","website":"https://www.camping-lesfalaises.com/"}},"817984469":{"location":[45.0581112,1.6593273],"ct":"FR","tp":"CR","ts":"2024-01-21T16:12:14Z","tX":516,"tY":368,"tags":{"capacity":"30","caravan_site":"motorhome_stopover","caravan_site:type":"village","fee":"yes","name":"Le Marchadial","opening_hours":"24/7","power_supply":"yes","sanitary_dump_station":"yes","sanitary_dump_station:chemical_toilet":"yes","sanitary_dump_station:grey_water":"yes","toilets":"yes","water_point":"yes","website":"https://www.tourismecorreze.com/fr/tourisme_detail/aire_d_accueil_de_camping-cars_de_collonges_la_rouge.html"}},"832353054":{"location":[44.852643,1.7113593],"ct":"FR","tp":"CS","ts":"2024-07-12T09:53:12Z","tX":516,"tY":368,"tags":{"caravans":"yes","name":"Camping Le Pigeonnier","source":"data.gouv.fr:DATAtourisme - 05/2020","stars":"3","tents":"yes","website":"https://www.campinglepigeonnier.com"}},"847869378":{"location":[44.933701,1.609529],"ct":"FR","tp":"CR","ts":"2023-10-01T12:04:02Z","tX":516,"tY":368,"tags":{"capacity":"10","fee":"no","name":"Martel","toilets":"yes"}},"902220154":{"location":[44.8462197,1.7494131],"ct":"FR","tp":"CR","ts":"2024-08-19T12:38:11Z","tX":516,"tY":368,"tags":{"access":"yes","addr:city":"Padirac","addr:postcode":"46500","addr:street":"Tremoulières","capacity":"15","caravan_site":"motorhome_stopover","caravan_site:type":"swimming_pool;countryside","description":"Aire de Camping-car , dans la campagne, à 800m du village","fee":"no","name":"Aire camping-car à Padirac","operator":"Ville de Padirac","power_supply":"yes","sanitary_dump_station:chemical_toilet":"yes","sanitary_dump_station:grey_water":"yes","sanitary_dump_station:round_drain":"yes","water_point":"yes","website":"https://www.vallee-dordogne.com/offres/aire-camping-car-a-padirac-padirac-fr-1796009"}},"906993003":{"location":[45.0060115,1.4564449],"ct":"FR","tp":"CR","ts":"2024-10-23T20:18:27Z","tX":516,"tY":368,"tags":{"access":"yes","capacity":"5","caravan_site":"motorhome_stopover","caravan_site:type":"village","fee":"no","maxstay":"unlimited","name":"Place des Troubadours","operator":"Ville de Gignac","power_supply":"no","sanitary_dump_station:chemical_toilet":"yes","sanitary_dump_station:grey_water":"yes","sanitary_dump_station:round_drain":"yes","supervised":"no","water_point":"yes"}},"979542537":{"location":[44.9161697,1.7296084],"ct":"FR","tp":"CR","ts":"2024-10-25T00:45:55Z","tX":516,"tY":368,"tags":{"capacity":"15","caravan_site":"motorhome_stopover","caravan_site:type":"village","charge":"6 EUR","fee":"yes","name":"Aire de Stationnement et de Services de Carennac","power_supply":"yes","ref":"P3","sanitary_dump_station":"yes","surface":"gravel","toilets":"no","water_point":"yes","website":"https://www.vallee-dordogne.com/offres/aire-de-stationnement-et-de-services-de-carennac-carennac-fr-2250564"}},"1050737389":{"location":[44.8664092,1.4955178],"ct":"FR","tp":"CS","ts":"2022-12-27T09:23:19Z","tX":516,"tY":368,"tags":{"addr:city":"Pinsac","addr:housenumber":"50","addr:postcode":"46200","name":"La Verte Rive","phone":"+33 5 65 37 85 96","stars":"4","website":"https://www.camping-laverterive.com"}},"1050737390":{"location":[44.8652968,1.4948932],"ct":"FR","tp":"CS","ts":"2022-12-27T09:23:19Z","tX":516,"tY":368,"tags":{"addr:city":"Pinsac","addr:housenumber":"230","addr:postcode":"46200","camp_site:type:FR":"Aire Naturelle","name":"Les grands chênes","website":"https://www.facebook.com/airenaturellelesgrandschenes/"}},"1075124350":{"location":[44.8646891,1.5582957],"ct":"FR","tp":"CS","ts":"2024-11-20T17:57:32Z","tX":516,"tY":368,"tags":{"name":"Lodg'ing - Nature Camp Dordogne","phone":"+33763915932","website":"https://lodg-ing.com/"}},"1233670562":{"location":[44.8553627,1.7492302],"ct":"FR","tp":"CR","ts":"2023-12-24T00:08:20Z","tX":516,"tY":368,"tags":{"caravan_site":"motorhome_stopover","caravan_site:type":"cave","charge":"10 EUR","fee":"yes","name":"Aire Camping Car Padirac - Le Gouffre","power_supply":"no","sanitary_dump_station":"no","water_point":"no"}},"1281964686":{"location":[44.8860818,1.4093164],"ct":"FR","tp":"CR","ts":"2024-05-11T14:34:48Z","tX":516,"tY":368,"tags":{"capacity":"15","caravan_site":"motorhome_stopover","caravan_site:type":"village","charge":"14.32 EUR","dog":"yes","fee":"yes","internet_access":"wlan","maxstay":"4 days","name":"Aire Peyrillac-et-Millac","network":"AirePark","opening_hours":"24/7","operator":"AirePark","power_supply":"yes","power_supply:maxcurrent":"16","reservation":"yes","sanitary_dump_station":"yes","seasonal":"no","shower":"yes","tents":"no","toilets":"yes"}},"1282252535":{"location":[44.9401363,1.6079964],"ct":"FR","tp":"CR","ts":"2024-10-26T19:35:07Z","tX":516,"tY":368,"tags":{"caravan_site":"motorhome_stopover","caravan_site:type":"village","fee":"no","name":"Aire de service à Martel","power_supply":"no","sanitary_dump_station":"yes","tents":"no","website":"https://www.vallee-dordogne.com/la-vallee-de-la-dordogne/villes-et-villages/martel/informations-pratiques"}},"1282487471":{"location":[44.9444426,1.704132],"ct":"FR","tp":"CR","ts":"2024-05-13T14:45:49Z","tX":516,"tY":368,"tags":{"bbq":"no","capacity":"25","caravan_site":"motorhome_stopover","caravan_site:type":"camp_site","caravans":"no","charge":"13.80 EUR","dog":"leashed","fee":"yes","maxlength":"none","name":"Aire de camping-cars de Vayrac, La Palenquière","network":"CAMPING-CAR PARK","operator":"www.camping-car-park.com","power_supply:capacity":"26","power_supply:maxcurrent":"6","sanitary_dump_station":"yes","shower":"yes","shower:conditional":"no @ (Oct-Jun)","tents":"no","toilets":"yes","toilets:conditional":"no@(Oct-Jun)","trailer":"yes","water_point":"yes","website":"https://www.campingcarpark.com/fr_FR/sejour/aire-etape-camping-car/occitanie/46-lot/vayrac-la-palenquiere"}},"1318073496":{"location":[44.8915162,1.475629],"ct":"FR","tp":"CR","ts":"2024-10-08T11:07:08Z","tX":516,"tY":368,"tags":{"addr:city":"Souillac","addr:postcode":"46200","addr:street":"Rue des Ondines","caravan_site":"motorhome_stopover","caravan_site:type":"village","caravans":"yes","charge":"12 EUR","fee":"yes","internet_access":"yes","internet_access:fee":"no","name":"Aire de camping-cars de Souillac","network":"CAMPING-CAR PARK","opening_hours":"24/7","power_supply":"yes","tents":"no","website":"https://www.campingcarpark.com/fr_FR/sejour/aire-etape-camping-car/occitanie/46-lot/souillac#0"}},"1333492611":{"location":[45.0765512,1.6694606],"ct":"FR","tp":"CS","ts":"2024-11-22T12:51:40Z","tX":516,"tY":368,"tags":{"email":"contact@domaineducoqrouge.com","fee":"yes","name":"Domaine du Coq Rouge","nudism":"yes","phone":"+33 5 55 17 89 83","stars":"4","website":"https://domaineducoqrouge.com"}},"1338006719":{"location":[45.0153454,1.683819],"ct":"FR","tp":"CS","ts":"2024-11-26T14:22:30Z","tX":516,"tY":368,"tags":{"caravans":"yes","fee":"yes","name":"Au Bois Dormant","static_caravans":"yes","tents":"yes","website":"https://www.campingauboisdormant.fr/"}},"1376784659":{"location":[44.9341808,1.6802016],"ct":"FR","tp":"CS","ts":"2011-07-28T15:16:51Z","tX":516,"tY":368,"tags":{"name":"Camping Les Granges"}},"1388903847":{"location":[45.0699007,1.430003],"ct":"FR","tp":"CS","ts":"2011-08-06T20:42:01Z","tX":516,"tY":368,"tags":{"name":"La Magaudie"}},"1723311619":{"location":[45.076202,1.668677],"ct":"FR","tp":"CS","ts":"2016-07-14T07:40:12Z","tX":516,"tY":368,"tags":{"name":"Natco - Puy Bousquet","nudism":"yes"}},"1807476421":{"location":[44.850212,1.5136387],"ct":"FR","tp":"CS","ts":"2012-08-31T21:24:38Z","tX":516,"tY":368,"tags":{}},"1864701263":{"location":[44.9011841,1.5695236],"ct":"FR","tp":"CS","ts":"2025-01-03T23:16:32Z","tX":516,"tY":368,"tags":{"name":"Camping Le Pic","stars":"3"}},"1895087064":{"location":[44.8756221,1.5738103],"ct":"FR","tp":"CS","ts":"2019-12-27T13:39:55Z","tX":516,"tY":368,"tags":{"name":"Camping Les Borgnes","opening_hours":"Apr 25 - Sep 12","phone":"+33 2 35 21 69 63","stars":"2","website":"https://www.campinglesborgnes.fr"}},"11582434275":{"location":[45.0149241,1.6822659],"ct":"FR","tp":"CS","ts":"2024-02-04T22:19:38Z","tX":516,"tY":368,"tags":{"addr:city":"Chauffour-sur-Vell","addr:housenumber":"1437","addr:postcode":"19500","addr:street":"Route de Feneyrolles","caravans":"yes","fee":"yes","name":"Au Bois Dormant","static_caravans":"yes","tents":"yes","website":"https://www.campingauboisdormant.fr/"}},"11966017158":{"location":[45.0750089,1.676039],"ct":"FR","tp":"CS","ts":"2024-06-09T07:15:07Z","tX":516,"tY":368,"tags":{"name":"Village les châtaigniers"}},"6724101683":{"location":[44.9163516,1.729864],"ct":"FR","tp":"SD","ts":"2019-08-21T21:06:40Z","tX":516,"tY":368,"tags":{"sanitary_dump_station:chemical_toilet":"no","sanitary_dump_station:grey_water":"yes"}},"6726093327":{"location":[44.9445183,1.7036016],"ct":"FR","tp":"SD","ts":"2019-08-20T08:33:16Z","tX":516,"tY":368,"tags":{}},"7908581060":{"location":[45.0321587,1.5252777],"ct":"FR","tp":"SD","ts":"2020-09-15T12:03:19Z","tX":516,"tY":368,"tags":{"access":"yes","fee":"no"}},"8380257976":{"location":[44.8461893,1.7496379],"ct":"FR","tp":"SD","ts":"2023-12-24T00:08:20Z","tX":516,"tY":368,"tags":{"access":"yes","description":"Station de vidange pour Camping-car","fee":"yes","operator":"Borne Euro Relais","sanitary_dump_station:chemical_toilet":"yes","sanitary_dump_station:grey_water":"yes","sanitary_dump_station:round_drain":"yes","water_point":"yes"}},"8422161373":{"location":[45.0058236,1.4568055],"ct":"FR","tp":"SD","ts":"2024-10-23T20:18:27Z","tX":516,"tY":368,"tags":{"access":"yes","description":"Station de vidange pour Camping-car","fee":"no","operator":"Ville de Gignac","sanitary_dump_station:chemical_toilet":"yes","sanitary_dump_station:grey_water":"yes","sanitary_dump_station:round_drain":"yes","water_point":"yes"}},"11071712263":{"location":[44.9349526,1.6064588],"ct":"FR","tp":"SD","ts":"2023-07-27T17:51:19Z","tX":516,"tY":368,"tags":{"access":"yes","fee":"no","opening_hours":"24/7","sanitary_dump_station:accepted":"grey_water","sanitary_dump_station:gravity":"yes","survey:date":"2023-07-25","water_point":"no"}},"11119010205":{"location":[45.0314591,1.5246611],"ct":"FR","tp":"SD","ts":"2023-08-16T13:12:10Z","tX":516,"tY":368,"tags":{"access":"yes","fee":"no","survey:date":"2023-08-16","water_point":"yes"}},"11119010405":{"location":[45.0314604,1.524703],"ct":"FR","tp":"SD","ts":"2023-08-16T13:12:11Z","tX":516,"tY":368,"tags":{"access":"yes","fee":"no","survey:date":"2023-08-16","water_point":"yes"}},"12338974822":{"location":[45.0755184,1.6696572],"ct":"FR","tp":"SD","ts":"2024-11-14T08:41:32Z","tX":516,"tY":368,"tags":{}}}