{"134118347":{"location":[43.4864827,1.533669],"ct":"FR","tp":"CS","ts":"2023-10-12T20:53:02Z","tX":516,"tY":374,"tags":{"addr:city":"Deyme","addr:housenumber":"17","addr:postcode":"31450","addr:street":"Route Départementale 813","contact:phone":"+33 5 61 81 72 07","email":"campinglesviolettes@wanadoo.fr","fee":"yes","internet_access":"wlan","name":"Les Violettes","stars":"3","tents":"yes","website":"https://www.campinglesviolettes.com/"}},"333356312":{"location":[43.3541628,1.6496038],"ct":"FR","tp":"CS","ts":"2023-09-04T06:04:19Z","tX":516,"tY":374,"tags":{"email":"camping@thesauque.com","name":"Camping du lac de la Thesauque","phone":"+33 5 61 81 34 67","website":"https://www.campingthesauque.com/"}},"685191128":{"location":[43.4511866,1.5938812],"ct":"FR","tp":"CS","ts":"2022-09-16T11:48:48Z","tX":516,"tY":374,"tags":{"addr:city":"Ayguesvives","addr:postcode":"31450","addr:street":"RD 813","capacity":"9","contact:phone":"+33 6 64 94 48 11","fee":"yes","name":"Les Peupliers","opening_hours":"Mo-Su 08:00-20:00","payment:cash":"yes","payment:cheque":"yes","payment:mastercard":"yes","payment:visa":"yes","phone":"+33 6 64 94 48 11","website":"http://camping-lespeupliers.fr/","wheelchair":"yes"}},"885793815":{"location":[43.4306457,1.4358246],"ct":"FR","tp":"CS","ts":"2023-10-27T16:16:23Z","tX":516,"tY":374,"tags":{"caravans":"yes","fee":"yes","name":"Camping municipal du Ramier","tents":"yes"}},"891198543":{"location":[43.4335807,1.440401],"ct":"FR","tp":"CR","ts":"2024-09-01T06:49:44Z","tX":516,"tY":374,"tags":{"addr:city":"Venerque","addr:housenumber":"3-11","addr:postcode":"31810","addr:street":"Allée du Duc de Ventadour","caravan_site":"motorhome_stopover","fee":"no","name":"Aire de Camping Car Venerque","power_supply":"no","sanitary_dump_station":"yes","sanitary_dump_station:chemical_toilet":"yes","sanitary_dump_station:grey_water":"yes","toilets":"yes","water_point":"yes","website":"https://www.venerque.fr/venerque/decouvrir-venerque/aire-de-camping-car/"}},"1059129676":{"location":[43.5270512,1.7468257],"ct":"FR","tp":"CS","ts":"2024-02-27T15:53:52Z","tX":516,"tY":374,"tags":{"caravans":"yes","name":"Camping de l'Orme Blanc","phone":"+33 6 88 69 81 70","tents":"yes"}},"8283085981":{"location":[43.4335405,1.4401052],"ct":"FR","tp":"SD","ts":"2023-12-28T21:06:21Z","tX":516,"tY":374,"tags":{"access":"yes","fee":"no","operator":"Ville de Venerque","water_point":"yes"}},"8563232522":{"location":[43.3502392,1.47739],"ct":"FR","tp":"SD","ts":"2021-03-26T09:41:45Z","tX":516,"tY":374,"tags":{"access":"yes","fee":"no","water_point":"yes"}}}