{"158760759":{"location":[43.1373859,1.4439996],"ct":"FR","tp":"CS","ts":"2023-11-01T23:37:52Z","tX":516,"tY":375,"tags":{"barrier":"fence","caravans":"yes","fence_type":"wire","name":"Camping Les Eychecadous","phone":"+33 5 67 44 51 65","stars":"3","tents":"yes","website":"https://www.campingartigat.com/"}},"295968629":{"location":[43.1281944,1.528581],"ct":"FR","tp":"CS","ts":"2024-08-17T15:17:06Z","tX":516,"tY":375,"tags":{"addr:city":"Escosse","addr:postcode":"09100","addr:street":"Route de Saint-Michel","cabins":"yes","capacity:caravans":"25","capacity:tents":"25","caravans":"yes","dog":"yes","fee":"yes","motorhome":"yes","name":"Villa Mayari","phone":"+33 9 77 38 73 52","power_supply":"yes","shower":"yes","source":"GPS","tents":"yes","toilets":"yes","washing_machine":"yes","website":"https://www.villa-mayari.com/"}},"543836784":{"location":[43.1691268,1.522733],"ct":"FR","tp":"CS","ts":"2020-01-22T22:31:20Z","tX":516,"tY":375,"tags":{"name":"Camping du Lac de la Laure","phone":"+33 561 603 316","website":"https://campingdelalaure.fr.gd/"}},"624248297":{"location":[43.1721984,1.4118169],"ct":"FR","tp":"CR","ts":"2024-09-27T23:14:37Z","tX":516,"tY":375,"tags":{"capacity":"21","caravan_site":"motorhome_stopover","caravan_site:type":"camp_site","caravans":"no","charge":"13 EUR","fee":"yes","name":"Aire de camping-car du Fossat","power_supply":"yes","power_supply:fee":"no","sanitary_dump_station":"yes","shower":"yes","tent":"no","toilets":"yes","website":"http://camping-le-fossat.fr/Our-area-of-camping-car"}},"624248298":{"location":[43.1730806,1.4103706],"ct":"FR","tp":"CS","ts":"2020-02-24T23:38:18Z","tX":516,"tY":375,"tags":{"caravans":"yes","internet_access":"wlan","internet_access:fee":"no","name":"Camping du Fossat","tents":"yes","website":"http://camping-le-fossat.fr/"}},"836054831":{"location":[43.1249105,1.6034013],"ct":"FR","tp":"CS","ts":"2025-03-28T17:16:29Z","tX":516,"tY":375,"tags":{"addr:city":"Pamiers","addr:postcode":"09100","addr:street":"Route d'Escosse","cabins":"yes","caravans":"yes","dog":"yes","fee":"yes","motorhome":"yes","name":"Camping des Portes d’Ariège","phone":"+33 5 34 01 43 58","power_supply":"yes","power_supply:maxcurrent":"10","stars":"3","static_caravans":"yes","tents":"yes","website":"https://www.camping-portesdariege.com/"}},"836056336":{"location":[43.1681461,1.7215932],"ct":"FR","tp":"CS","ts":"2020-08-11T09:58:26Z","tX":516,"tY":375,"tags":{"name":"Le Parc des Oliviers","source":"data.gouv.fr:DATAtourisme - 05/2020"}},"875748196":{"location":[43.2495781,1.6832055],"ct":"FR","tp":"CS","ts":"2024-08-17T08:38:14Z","tX":516,"tY":375,"tags":{"addr:city":"Mazères","addr:postcode":"09270","addr:street":"Chemin de la Plage","cabins":"yes","caravans":"yes","dog":"yes","internet_access":"yes","laundry_service":"yes","motorhome":"yes","name":"Camping de Mazères","phone":"+33 967 737 241","power_supply":"yes","stars":"3","tents":"yes","website":"https://www.vap-camping.fr/camping-de-mazeres"}},"1308455957":{"location":[43.1899557,1.6016381],"ct":"FR","tp":"CS","ts":"2024-08-17T15:14:02Z","tX":516,"tY":375,"tags":{"bbq":"yes","caravans":"yes","motorhome":"yes","name":"Le Canteraines","phone":"yes","power_supply":"yes","shower":"yes","socket:typee":"yes","source":"data.gouv.fr:DATAtourisme - 05/2020","tents":"yes","toilets":"yes","website":"https://www.camping-ariege-pyrenees.fr"}},"1372483887":{"location":[43.2351364,1.4191601],"ct":"FR","tp":"CS","ts":"2025-03-28T19:09:04Z","tX":516,"tY":375,"tags":{"name":"Camping Vue Pyrénées","nudism":"yes","phone":"+33 7 70 27 25 21","website":"https://campingvuepyrenees.com/"}},"1757293750":{"location":[43.1923354,1.4570496],"ct":"FR","tp":"CS","ts":"2019-10-05T08:59:10Z","tX":516,"tY":375,"tags":{"name":"Le Bourdieu","phone":"+33 561 673 017","stars":"3","website":"https://www.vap-camping.fr/camping-durfort"}},"5894790069":{"location":[43.1961505,1.4064565],"ct":"FR","tp":"CS","ts":"2018-09-09T17:28:58Z","tX":516,"tY":375,"tags":{"name":"Camping à la ferme La Réoule"}},"11891650381":{"location":[43.1755151,1.4410217],"ct":"FR","tp":"CS","ts":"2024-05-09T15:00:04Z","tX":516,"tY":375,"tags":{"name":"Ferme de Castel Pouzouilh"}},"12117084984":{"location":[43.1246723,1.602015],"ct":"FR","tp":"SD","ts":"2024-08-17T15:27:25Z","tX":516,"tY":375,"tags":{"fee":"no"}}}