{"170080597":{"location":[42.8165227,1.6345331],"ct":"FR","tp":"CS","ts":"2019-10-05T08:59:10Z","tX":516,"tY":376,"tags":{"caravans":"yes","email":"contact@ariege-evasion.com","name":"Ariège Evasion","phone":"+33 561 051 111","stars":"3","tents":"yes","website":"https://www.ariege-evasion.com/"}},"221453456":{"location":[42.9611446,1.6111007],"ct":"FR","tp":"CR","ts":"2023-12-27T23:11:47Z","tX":516,"tY":376,"tags":{"addr:city":"Foix","addr:housenumber":"20","addr:postcode":"09000","addr:street":"Boulevard François Mitterrand","capacity":"9","caravan_site":"motorhome_stopover","fee":"no","name":"parking de la Vigne - Foix","opening_hours":"24/7","operator":"Ville de Foix","power_supply":"no","sanitary_dump_station":"yes","seasonal":"no","source:name":"https://www.ladepeche.fr/2023/02/22/foix-le-futur-parking-de-la-vigne-ne-convient-pas-a-tous-les-elus-11017079.php","water_point":"yes"}},"232022282":{"location":[42.9926306,1.678094],"ct":"FR","tp":"CS","ts":"2024-11-14T14:33:49Z","tX":516,"tY":376,"tags":{"Price":"€16.5-€29 2016","addr:city":"Gudas","addr:postcode":"09120","email":"info@camping-millefleurs.com","name":"Camping Millefleurs","nudism":"yes","open":"apr - nov 2016","operator":"Pascaline et Gaëtan","phone":"+33 5 61 60 77 56","stars":"3","website":"https://www.camping-millefleurs.com"}},"255612223":{"location":[42.8152795,1.5887106],"ct":"FR","tp":"CS","ts":"2018-09-09T22:04:02Z","tX":516,"tY":376,"tags":{"email":"info@campingdesgrottes.com","name":"Camping des Grottes","phone":"+33 5 61 05 88 21","stars":"4","website":"https://www.campingdesgrottes.com/"}},"370471252":{"location":[42.8385487,1.6102136],"ct":"FR","tp":"CS","ts":"2024-09-04T07:52:30Z","tX":516,"tY":376,"tags":{"caravans":"yes","email":"leprelombard@wanadoo.fr","fax":"+33 5 61 05 78 93","name":"Pré Lombard","phone":"+33 5 61 05 61 94","tents":"yes","website":"https://www.prelombard.com/"}},"624248296":{"location":[43.0016234,1.444739],"ct":"FR","tp":"CS","ts":"2023-09-15T17:03:37Z","tX":516,"tY":376,"tags":{"caravans":"yes","drinking_water":"yes","name":"Camping l'Arize","shower":"yes","stars":"4","tents":"yes","toilets":"yes","website":"https://www.camping-arize.com/"}},"624278612":{"location":[42.8557692,1.5874614],"ct":"FR","tp":"CS","ts":"2024-07-14T19:19:10Z","tX":516,"tY":376,"tags":{"caravans":"yes","drinking_water":"yes","email":"campinglesedour@orange.fr","internet_access":"wlan","name":"Le Sédour","phone":"+33 5 61 05 87 28","power_supply":"yes","sanitary_dump_station":"yes","shower":"yes","stars":"3","tents":"yes","toilets":"yes","website":"https://www.camping-lesedour.com/"}},"647036412":{"location":[42.9305069,1.6383181],"ct":"FR","tp":"CS","ts":"2024-08-17T15:59:02Z","tX":516,"tY":376,"tags":{"bbq":"yes","cabins":"yes","caravans":"yes","internet_access":"yes","internet_access:fee":"customers","motorhome":"yes","name":"Roucateille","power_supply":"yes","power_supply:maxcurrent":"10","shower":"yes","source":"cadastre-dgi-fr source : Direction Générale des Impôts - Cadastre. Mise à jour : 2011","tents":"yes","toilets":"yes","washing_machine":"yes","website":"https://www.camping-roucateille.com/","wheelchair":"yes"}},"875745422":{"location":[42.8714194,1.6219291],"ct":"FR","tp":"CS","ts":"2020-11-22T13:20:56Z","tX":516,"tY":376,"tags":{"addr:postcode":"09400","addr:street":"1 promenade du camping","internet_access":"wlan","name":"Camping du Lac Mercus","phone":"+33 561 059 061","stars":"3","website":"https://www.campingdulacmercus.com/"}},"875747120":{"location":[42.9893058,1.6150023],"ct":"FR","tp":"CS","ts":"2024-08-17T15:44:21Z","tX":516,"tY":376,"tags":{"cabins":"yes","capacity:caravans":"150","capacity:tents":"150","caravans":"yes","dog":"yes","internet_access":"wlan","internet_access:fee":"customers","motorhome":"yes","name":"Camping du Lac","phone":"+33 561 651 158","power_supply":"yes","stars":"3","tents":"yes","washing_machine":"yes","website":"https://www.vap-camping.fr/camping-foix"}},"875747518":{"location":[43.0617276,1.6224722],"ct":"FR","tp":"CS","ts":"2024-08-17T15:32:22Z","tX":516,"tY":376,"tags":{"addr:city":"Rieux-de-Pelleport","addr:postcode":"09120","cabins":"yes","capacity:tents":"61","caravans":"yes","dog":"yes","fee":"yes","motorhome":"yes","name":"Camping Les Mijeannes","phone":"+33 5 61 60 82 23","power_supply":"yes","power_supply:maxcurrent":"10","static_caravans":"yes","tents":"yes","website":"https://www.camping-les-mijeannes.fr"}},"1271768597":{"location":[43.0016622,1.4462559],"ct":"FR","tp":"CR","ts":"2024-04-11T16:09:58Z","tX":516,"tY":376,"tags":{"addr:city":"La Bastide-de-Sérou","addr:country":"FR","addr:postcode":"09240","addr:street":"Route de Nescus","bathing":"yes","bbq":"yes","capacity":"9","caravan_site":"motorhome_stopover","caravan_site:type":"camp_site","caravans":"no","charge":"19 € haute saison ou 16 € en basse saison","description":"Aire de services à l'intérieur du camping 4* l’Arize, forfait services 4,50 € - nuit entre 11 € et 25 € - piscine chauffée de juin à septembre, calme, verdoyant, accueillant, petite restauration locale pour camping-caristes, toilettes, douches, évier vais","description:de":"Servicebereich auf dem Campingplatz 4 * Arize, Servicepaket € 4,50 - Nacht zwischen € 15,10 und € 18,10 - Zwischenstopp außer 9/7 bis 17/8 - WIFI und Pool, ruhig, grün, einladend, lokale Snacks für Wohnmobile, Toiletten, Duschen, Waschbecken, Abflussberei","description:en":"Service area inside the campsite 4 * Arize, service package € 4.50 - night between € 15.10 and € 18.10 - stop home except 9/7 to 17/8 - WIFI and pool, quiet, green, welcoming, local snacks for motorhomes, toilets, showers, sink, draining area.","description:fr":"Aire de services à l'intérieur du camping 4* l’Arize, forfait services 4,50 € - nuit entre 11 € et 25 € - piscine chauffée de juin à septembre, calme, verdoyant, accueillant, petite restauration locale pour camping-caristes, toilettes, douches, évier vais","dog":"yes","drinking_water":"yes","fee":"no","laundry":"yes","name":"Aire de Stationnement de Camping Cars Arize","power_supply":"yes","sanitary_dump_station":"yes","services:charge":"forfait 4,50 €","shower":"yes","stars":"4","tents":"no","toilets":"yes","waste_basket":"yes","website":"https://www.camping-arize.com/places-stabilisees-emplacement-35m2-avec-electricite/"}},"1352920426":{"location":[42.9636856,1.514943],"ct":"FR","tp":"CS","ts":"2024-05-01T22:05:53Z","tX":516,"tY":376,"tags":{}},"1469621685":{"location":[42.9707057,1.5729595],"ct":"FR","tp":"CS","ts":"2024-02-27T13:22:12Z","tX":516,"tY":376,"tags":{"addr:ghanapostgps":"42.9707057, 1.5729595","caravans":"yes","contact:email":"campingcos09@orange.fr","drinking_water":"yes","email":"bblazy@sfr.fr","name":"Camping Municipal de Cos","phone":"+33 671 181 038","tents":"yes","website":"http://camping-municipal-cos09.fr/"}},"1890023025":{"location":[43.0057768,1.7300892],"ct":"FR","tp":"CS","ts":"2019-10-05T08:59:10Z","tX":516,"tY":376,"tags":{"name":"Camping à la ferme","phone":"+33 561 607 243"}},"2461333631":{"location":[42.9775136,1.6633228],"ct":"FR","tp":"CS","ts":"2014-07-10T14:47:09Z","tX":516,"tY":376,"tags":{"name":"Aire Naturelle La Clairiere","note":"http://www.tourisme-midi-pyrenees.com/camping-la-clairiere-a-l-herm/l-herm/tabid/2271/offreid/5648cd1f-c005-4ecb-a27f-66168a920fff/detail.aspx","phone":"+33 5 61016512"}},"7608071992":{"location":[43.008766,1.6277011],"ct":"FR","tp":"CS","ts":"2024-08-17T15:36:02Z","tX":516,"tY":376,"tags":{"addr:housenumber":"ldt","addr:street":"Encouloum-Marseillas","capacity:caravans":"taille limitée","capacity:persons":"6 emplacements","capacity:tents":"6","charge":"6 € /pers./nuit","description":"Camping \"La ferme de Marseillas\"","fee":"yes","name":"La ferme de Marseillas","operator":"Christine P","payment:cash":"yes","power_supply":"yes","power_supply:maxcurrent":"5","static_caravans":"no","tents":"yes","toilets":"yes","website":"https://marseillas.wixsite.com/v2017"}},"5060602394":{"location":[42.960857,1.6110232],"ct":"FR","tp":"SD","ts":"2021-01-02T10:28:04Z","tX":516,"tY":376,"tags":{"access":"yes","fee":"no","operator":"Ville de Foix","sanitary_dump_station:basin":"yes","water_point":"yes"}}}