{"14459890":{"location":[42.4271694,1.4624366],"ct":"ES","tp":"CS","ts":"2022-08-15T08:42:34Z","tX":516,"tY":378,"tags":{"name":"Camping Frontera-Park","website":"https://www.fronterapark.com/"}},"14461758":{"location":[42.3473637,1.4318834],"ct":"ES","tp":"CS","ts":"2022-11-26T06:20:20Z","tX":516,"tY":378,"tags":{"name":"Càmping Gran Sol","name:ca":"Càmping Gran Sol","website":"http://www.campinggransol.com"}},"171254702":{"location":[42.3733491,1.7353966],"ct":"ES","tp":"CS","ts":"2021-05-17T20:05:48Z","tX":516,"tY":378,"tags":{"addr:city":"Prullans de Cerdanya","addr:postcode":"25727","addr:street":"N 260","email":"info@cerdanyaecoresort.com","motorcycle:parking":"garage","motorcycle:tools":"yes","motorcycle:tours":"info","motorcycle_friendly":"yes","name":"Càmping La Cerdanya","phone":"+34 973 51 02 60","website":"https://www.cerdanyaecoresort.com/camping-la-cerdanya/"}},"222819428":{"location":[42.3736473,1.6375823],"ct":"ES","tp":"CS","ts":"2023-03-31T16:51:48Z","tX":516,"tY":378,"tags":{"email":"recepcio@pontdardaix.com","mapillary":"1276701442855259","name":"Pont d'Ardaix","name:ca":"Pont d'Ardaix","phone":"+34 973 384 098","website":"https://www.pontdardaix.com/"}},"306079838":{"location":[42.4155921,1.6737254],"ct":"ES","tp":"CS","ts":"2023-04-01T09:46:43Z","tX":516,"tY":378,"tags":{"addr:street":"Carretera del Cap de Rec","name":"Càmping El Cortal del Gral","name:ca":"Càmping El Cortal del Gral","website":"http://www.capdelrec.cat"}},"761684594":{"location":[42.3587,1.6967541],"ct":"ES","tp":"CR","ts":"2024-06-05T17:42:04Z","tX":516,"tY":378,"tags":{"access":"yes","fee":"no","name":"Àrea d'autocaravanes de Martinet","name:ca":"Àrea d'autocaravanes de Martinet","parking":"surface","sanitary_dump_station":"yes","supervised":"no"}},"1218140710":{"location":[42.35826,1.4664743],"ct":"ES","tp":"CR","ts":"2024-09-02T11:42:31Z","tX":516,"tY":378,"tags":{"cabins":"no","capacity":"29","caravan_site":"motorhome_stopover","caravan_site:type":"village","caravans":"no","charge":"11 EUR","fee":"yes","internet_access":"wlan","motorhome":"designated","name":"Àrea d'autocaravanes La Seu d'Urgell","name:ca":"Àrea d'autocaravanes La Seu d'Urgell","name:es":"Area Autocaravanas La Seu d'Urgell","network":"CAMPING-CAR PARK","nudism":"no","opening_hours":"24/7","operator":"CAMPING-CAR PARK","power_supply":"yes","power_supply:capacity":"36","power_supply:fee":"no","power_supply:maxcurrent":"6","sanitary_dump_station":"yes","seasonal":"no","shower":"no","static_caravans":"no","surface":"concrete","tents":"no","toilets":"no","water_point":"yes","website":"https://www.campingcarpark.com/en_GB/stay/stopover-site-motorhome/catalogne/25-lerida/la-seu-durgell"}},"1289714638":{"location":[42.3583356,1.6968163],"ct":"ES","tp":"CR","ts":"2024-06-05T17:42:04Z","tX":516,"tY":378,"tags":{"access":"yes","fee":"no","name":"Àrea d'autocaravanes de Martinet"}},"8742971918":{"location":[42.3590542,1.696621],"ct":"ES","tp":"SD","ts":"2021-09-11T07:49:40Z","tX":516,"tY":378,"tags":{"access":"yes","fee":"no","sanitary_dump_station:gravity":"yes"}},"11287423603":{"location":[42.3581832,1.4662564],"ct":"ES","tp":"SD","ts":"2023-10-24T23:53:39Z","tX":516,"tY":378,"tags":{"access":"customers"}}}