{"13140224":{"location":[42.1462342,1.5945658],"ct":"ES","tp":"CS","ts":"2022-11-26T04:40:54Z","tX":516,"tY":379,"tags":{"name":"Càmping Morunys","name:ca":"Càmping Morunys"}},"14143329":{"location":[42.2293905,1.6627354],"ct":"ES","tp":"CS","ts":"2023-09-21T20:26:55Z","tX":516,"tY":379,"tags":{"access":"customers","internet_access":"wlan","name":"Càmping Cadí Vacances","name:ca":"Càmping Cadí Vacances","phone":"+34 636 066 465","stars":"3","website":"https://www.cadivacances.com/"}},"14143988":{"location":[42.2439243,1.7439814],"ct":"ES","tp":"CS","ts":"2023-11-02T22:11:57Z","tX":516,"tY":379,"tags":{"access":"private","addr:city":"Saldes","capacity":"15","charge":"3 EUR","fee":"yes","group_only":"yes","name":"Terreny d'acampada El Camp del Faig","name:ca":"Terreny d'acampada El Camp del Faig","operator":"Campaments.cat","website":"https://campaments.cat/terreny/el-camp-del-faig"}},"14143989":{"location":[42.2432403,1.7451163],"ct":"ES","tp":"CS","ts":"2023-11-02T22:12:05Z","tX":516,"tY":379,"tags":{"access":"private","addr:city":"Saldes","capacity":"80","charge":"3 EUR","fee":"yes","group_only":"yes","name":"Terreny d'acampada Camp dels Cireres","name:ca":"Terreny d'acampada Camp dels Cireres","website":"https://campaments.cat/terreny/camp-dels-cirerers"}},"14359553":{"location":[42.2265876,1.7385384],"ct":"ES","tp":"CR","ts":"2022-11-26T07:27:18Z","tX":516,"tY":379,"tags":{"name":"Càmping Associació Caravanista del Bages","name:ca":"Càmping Associació Caravanista del Bages"}},"185553105":{"location":[42.1268977,1.7091265],"ct":"ES","tp":"CS","ts":"2023-11-22T16:36:23Z","tX":516,"tY":379,"tags":{"fee":"yes","name":"Aigua d'Ora","name:ca":"Aigua d'Ora"}},"193279442":{"location":[42.1364924,1.5928176],"ct":"ES","tp":"CR","ts":"2024-09-22T10:25:59Z","tX":516,"tY":379,"tags":{"capacity":"21","caravan_site":"motorhome_stopover","caravan_site:type":"village","caravans":"no","charge":"6 EUR","fee":"yes","maxstay":"48 hours","name":"Àrea d'autocaravanes de Sant Llorenç de Morunys","power_supply":"yes","power_supply:capacity":"6","sanitary_dump_station":"yes","sanitary_dump_station:chemical_toilet":"yes","sanitary_dump_station:grey_water":"yes","seasonal":"no","tents":"no","water_point":"yes","website":"http://turismesolsones.com/es/guia-practica/arees-daparcament-dautocaravanes/area-de-sant-llorenc-de-morunys/"}},"302137422":{"location":[42.2212277,1.7532523],"ct":"ES","tp":"CS","ts":"2022-11-26T07:27:19Z","tX":516,"tY":379,"tags":{"fixme":"limits","name":"Càmping Mirador al Pedraforca","name:ca":"Càmping Mirador al Pedraforca","website":"https://www.miradoralpedraforca.cat/"}},"330337540":{"location":[42.2419015,1.5280745],"ct":"ES","tp":"CS","ts":"2025-05-11T15:05:22Z","tX":516,"tY":379,"tags":{"addr:city":"Fornols del Cadi","addr:street":"Molí de Fornols","caravans":"yes","fee":"yes","name":"Càmping Molí de Fórnols","name:ca":"Càmping Molí de Fórnols","phone":"+34 613 397041","power_supply":"yes","shower":"yes","tents":"yes","toilets":"yes","website":"https://campingmolidefornols.com/"}},"966724537":{"location":[42.1237006,1.7111817],"ct":"ES","tp":"CS","ts":"2023-11-08T09:44:26Z","tX":516,"tY":379,"tags":{"access":"private","addr:city":"Castellar del Riu","capacity":"60","charge":"2.50 EUR","fee":"yes","group_only":"yes","name":"Terreny d'acampada Llinars d'Aigua d'Ora","name:ca":"Terreny d'acampada Llinars d'Aigua d'Ora","operator":"Campaments.cat","website":"https://campaments.cat/terreny/llinars-daigua-dora"}},"966724538":{"location":[42.1230011,1.463065],"ct":"ES","tp":"CS","ts":"2023-11-08T09:44:32Z","tX":516,"tY":379,"tags":{"access":"private","addr:city":"Odèn","capacity":"25","charge":"2.70 EUR","fee":"yes","group_only":"yes","name":"Terreny d'acampada El Molí del Solé de Baix","operator":"Campaments.cat","website":"https://campaments.cat/terreny/el-moli-del-sole-de-baix"}},"966724541":{"location":[42.2211457,1.647362],"ct":"ES","tp":"CS","ts":"2023-11-02T22:12:01Z","tX":516,"tY":379,"tags":{"access":"private","addr:city":"Gósol","capacity":"80","charge":"2.70 EUR","fee":"yes","group_only":"yes","name":"Terreny d'acampada El Verd","name:ca":"Terreny d'acampada El Verd","operator":"Campaments.cat","website":"https://campaments.cat/terreny/el-verd"}},"966724542":{"location":[42.221461,1.6487009],"ct":"ES","tp":"CS","ts":"2023-11-02T22:11:59Z","tX":516,"tY":379,"tags":{"access":"private","addr:city":"Gósol","capacity":"40","charge":"2.70 EUR","fee":"yes","group_only":"yes","name":"Terreny d'acampada El Peu del Grau","name:ca":"Terreny d'acampada El Peu del Grau","website":"https://campaments.cat/terreny/el-peu-del-grau"}},"966724543":{"location":[42.2223396,1.6478481],"ct":"ES","tp":"CS","ts":"2023-11-02T22:12:08Z","tX":516,"tY":379,"tags":{"access":"private","addr:city":"Gósol","capacity":"60","charge":"2.70 EUR","fee":"yes","group_only":"yes","name":"Terreny d'acampada La Plana","name:ca":"Terreny d'acampada La Plana","operator":"Campaments.cat","website":"https://campaments.cat/terreny/la-plana"}},"966724544":{"location":[42.2257555,1.6618405],"ct":"ES","tp":"CS","ts":"2023-11-02T22:11:49Z","tX":516,"tY":379,"tags":{"access":"private","addr:city":"Gósol","capacity":"40","charge":"2.70 EUR","fee":"yes","group_only":"yes","name":"Terreny d'acampada La Paguera","operator":"Campaments.cat","website":"https://campaments.cat/terreny/la-paguera"}},"966724545":{"location":[42.23012,1.6581031],"ct":"ES","tp":"CS","ts":"2023-11-02T22:12:06Z","tX":516,"tY":379,"tags":{"access":"private","addr:city":"Gósol","capacity":"80","charge":"2.70 EUR","fee":"yes","group_only":"yes","name":"Terreny d'acampada Les Fonts","name:ca":"Terreny d'acampada Les Fonts","operator":"Campaments.cat","website":"https://campaments.cat/terreny/les-fonts"}},"966724546":{"location":[42.2311744,1.6596281],"ct":"ES","tp":"CS","ts":"2023-11-02T22:11:48Z","tX":516,"tY":379,"tags":{"access":"private","addr:city":"Gósol","capacity":"50","charge":"2.70 EUR","fee":"yes","group_only":"yes","name":"Terreny d'acampada El Peu de la Costa","name:ca":"Terreny d'acampada El Peu de la Costa","operator":"Campaments.cat","website":"https://campaments.cat/terreny/el-peu-de-la-costa"}},"966724547":{"location":[42.2089117,1.6983981],"ct":"ES","tp":"CS","ts":"2023-11-02T22:11:52Z","tX":516,"tY":379,"tags":{"access":"private","addr:city":"Saldes","capacity":"120","charge":"2.70 EUR","fee":"yes","group_only":"yes","name":"Terreny d'acampada La Sort","name:ca":"Terreny d'acampada La Sort","operator":"Campaments.cat","website":"https://campaments.cat/terreny/la-sort"}},"966724548":{"location":[42.2081769,1.6989446],"ct":"ES","tp":"CS","ts":"2023-11-02T22:12:04Z","tX":516,"tY":379,"tags":{"access":"private","addr:city":"Saldes","capacity":"80","charge":"2.70 EUR","fee":"yes","group_only":"yes","name":"Terreny d'acampada La Canaleta","name:ca":"Terreny d'acampada La Canaleta","operator":"Campaments.cat","website":"https://campaments.cat/terreny/la-canaleta"}},"966724549":{"location":[42.2068153,1.6991645],"ct":"ES","tp":"CS","ts":"2023-11-02T22:12:00Z","tX":516,"tY":379,"tags":{"access":"private","addr:city":"Saldes","capacity":"60","charge":"2.70 EUR","fee":"yes","group_only":"yes","name":"Terreny d'acampada La Roureda","name:ca":"Terreny d'acampada La Roureda","operator":"Campaments-cat","website":"https://campaments.cat/terreny/la-roureda"}},"966724551":{"location":[42.2054986,1.6980803],"ct":"ES","tp":"CS","ts":"2023-11-02T22:12:02Z","tX":516,"tY":379,"tags":{"access":"private","addr:city":"Saldes","capacity":"30","charge":"2.70 EUR","fee":"yes","group_only":"yes","name":"Terreny d'acampada La Caseta","name:ca":"Terreny d'acampada La Caseta","operator":"Campaments.cat","website":"https://campaments.cat/terreny/la-caseta"}},"966724552":{"location":[42.2073164,1.697057],"ct":"ES","tp":"CS","ts":"2023-11-02T22:12:10Z","tX":516,"tY":379,"tags":{"access":"private","addr:city":"Saldes","capacity":"30","charge":"2.70 EUR","fee":"yes","group_only":"yes","name":"Terreny d'acampada El Pedraforca","name:ca":"Terreny d'acampada El Pedraforca","operator":"Campaments.cat","website":"https://campaments.cat/terreny/el-pedraforca"}},"966724553":{"location":[42.2057674,1.6963426],"ct":"ES","tp":"CS","ts":"2022-11-26T07:27:55Z","tX":516,"tY":379,"tags":{"access":"private","addr:city":"Saldes","capacity":"20","charge":"2.70 EUR","fee":"yes","group_only":"yes","name":"Terreny d'acampada Font de la Salamandra","name:ca":"Terreny d'acampada Font de la Salamandra","operator":"Campaments.cat","website":"https://campaments.cat/terreny/font-de-la-salamandra"}},"966724555":{"location":[42.240087,1.7433832],"ct":"ES","tp":"CS","ts":"2023-11-02T22:12:03Z","tX":516,"tY":379,"tags":{"access":"private","addr:city":"Saldes","capacity":"25","charge":"3 EUR","fee":"yes","group_only":"yes","name":"Terreny d'acampada Cal Bessó","name:ca":"Terreny d'acampada Cal Bessó","operator":"Campaments.cat","website":"https://campaments.cat/terreny/cal-besso"}},"1060500527":{"location":[42.2424521,1.7475282],"ct":"ES","tp":"CS","ts":"2023-11-02T22:12:09Z","tX":516,"tY":379,"tags":{"access":"private","addr:city":"Saldes","capacity":"180","charge":"3 EUR","fee":"yes","group_only":"yes","name":"Terreny d'acampada La Resclosa i la Plana","name:ca":"Terreny d'acampada La Resclosa i la Plana","operator":"Campaments.cat","website":"https://campaments.cat/terreny/la-resclosa-i-la-plana"}},"1060507198":{"location":[42.2065658,1.6981431],"ct":"ES","tp":"CS","ts":"2023-11-02T22:11:45Z","tX":516,"tY":379,"tags":{"access":"private","addr:city":"Saldes","capacity":"30","charge":"2.70 EUR","fee":"yes","group_only":"yes","name":"Terreny d'acampada El Pla","name:ca":"Terreny d'acampada El Pla","operator":"Campaments.cat","website":"https://campaments.cat/terreny/el-pla"}},"5853926065":{"location":[42.2486153,1.6641899],"ct":"ES","tp":"CR","ts":"2022-11-19T02:43:10Z","tX":516,"tY":379,"tags":{"access":"permissive","campers":"yes","description":"bad road","fee":"no","name":"Font Terrers","name:ca":"Font Terrers","power_supply":"no","sanitary_dump_station":"no","toilets":"no"}},"5855830456":{"location":[42.2583622,1.6170596],"ct":"ES","tp":"CR","ts":"2018-08-25T07:24:37Z","tX":516,"tY":379,"tags":{"access":"permissive","fee":"no","impromptu":"yes","power_supply":"no","sanitary_dump_station":"no","toilets":"no"}},"5867225952":{"location":[42.2070289,1.7478253],"ct":"ES","tp":"CR","ts":"2018-08-30T06:30:28Z","tX":516,"tY":379,"tags":{"access":"permissive","camper":"yes","fee":"no","impromptu":"yes","power_supply":"no","sanitary_dump_station":"no"}},"5859019205":{"location":[42.226731,1.7577428],"ct":"ES","tp":"SD","ts":"2018-08-26T13:34:43Z","tX":516,"tY":379,"tags":{"description":"very inclined","drinking_water":"no","fee":"no","sanitary_dump_station:chemical_toilet":"no","sanitary_dump_station:grey_water":"yes","water_point":"no"}},"12192515279":{"location":[42.1365809,1.593016],"ct":"ES","tp":"SD","ts":"2024-09-22T10:25:59Z","tX":516,"tY":379,"tags":{}}}