{"9681111":{"location":[41.9597406,1.6038792],"ct":"ES","tp":"CS","ts":"2022-12-11T21:17:58Z","tX":516,"tY":380,"tags":{"name":"Càmping La Ribera","name:ca":"Càmping La Ribera","website":"http://www.campinglaribera.com"}},"246517809":{"location":[42.0123129,1.5176933],"ct":"ES","tp":"CS","ts":"2023-10-14T12:12:01Z","tX":516,"tY":380,"tags":{"access":"customers","addr:city":"Solsona","cabins":"yes","cafeteria":"yes","caravans":"yes","contact:email":"info@campingsolsones.com","contact:facebook":"https://www.facebook.com/campingelsolsones","contact:instagram":"https://www.instagram.com/campingelsolsones/","contact:phone":"+34973482861","contact:twitter":"https://twitter.com/campingsolsones","contact:youtube":"https://www.youtube.com/user/campingelsolsones","fee":"yes","internet_access":"yes","name":"Camping el Solsonès","pets":"no","restaurant":"yes","supermarket":"yes","swimming_pool":"outdoor","tents":"yes","toilets":"yes","website":"https://www.campingsolsones.com/","wheelchair":"yes","wifi":"yes"}},"276957275":{"location":[41.8471352,1.6396151],"ct":"ES","tp":"CS","ts":"2024-07-01T09:08:36Z","tX":516,"tY":380,"tags":{"addr:full":"Carretera C-55 Km 50","addr:postcode":"08269","name":"Càmping Cal Paradís","name:ca":"Càmping Cal Paradís","nohousenumber":"yes","operator":"Càmping Cal Paradís","phone":"+34 93 8695652","website":"https://www.campingcalparadis.com/","wheelchair":"yes"}},"966724536":{"location":[41.9665664,1.7474378],"ct":"ES","tp":"CS","ts":"2023-11-07T15:22:03Z","tX":516,"tY":380,"tags":{"access":"private","addr:city":"Montmajor","capacity":"80","charge":"2.50 EUR","fee":"yes","group_only":"yes","name":"Terreny d'acampada Mas Pujol de Planès","name:ca":"Terreny d'acampada Mas Pujol de Planès","operator":"Campaments.cat","website":"https://campaments.cat/terreny/mas-pujol-de-planes"}},"7523000285":{"location":[42.0102809,1.6476238],"ct":"ES","tp":"CS","ts":"2020-05-15T15:30:09Z","tX":516,"tY":380,"tags":{"name":"Forest Days Glamping","website":"https://www.forestdaysglamping.com"}},"7798480460":{"location":[41.9118,1.68087],"ct":"ES","tp":"CR","ts":"2024-01-20T21:29:58Z","tX":516,"tY":380,"tags":{"capacity":"10","maxstay":"48 hours","sanitary_dump_station":"yes","water_point":"yes"}}}