{"11259296":{"location":[41.2079822,1.6909904],"ct":"ES","tp":"CS","ts":"2024-10-07T08:17:30Z","tX":516,"tY":383,"tags":{"caravans":"yes","fee":"yes","internet_access":"yes","motorhome":"yes","name":"Càmping Platja Vilanova","name:ca":"Càmping Platja Vilanova","power_supply":"yes","power_supply:maxcurrent":"4","shower":"hot","tents":"yes","toilets":"yes","washing_machine":"yes","website":"http://www.platjavilanova.com"}},"11259297":{"location":[41.2101299,1.7030238],"ct":"ES","tp":"CS","ts":"2022-12-11T22:15:40Z","tX":516,"tY":383,"tags":{"addr:postcode":"08800","addr:street":"Racó de Santa Llúcia (sector)","camp_site":"serviced","email":"info@campingelracodemar.com","name":"Càmping El Racó de Mar","name:ca":"Càmping El Racó de Mar","phone":"+34 938155245","stars":"2","website":"http://www.campingelracodemar.com"}},"12040111":{"location":[41.1500224,1.4223239],"ct":"ES","tp":"CS","ts":"2023-11-09T02:06:56Z","tX":516,"tY":383,"tags":{"addr:city":"Torredembarra","addr:housenumber":"278","addr:postcode":"43830","addr:street":"Passeig de Miramar","dog":"yes","name":"Càmping La Nòria","phone":"+ 34 977640453","website":"https://www.camping-lanoria.com/"}},"12040112":{"location":[41.1489657,1.4199656],"ct":"ES","tp":"CS","ts":"2022-11-26T09:06:27Z","tX":516,"tY":383,"tags":{"name":"Càmping Clarà","name:ca":"Càmping Clarà"}},"12040113":{"location":[41.1483911,1.4190298],"ct":"ES","tp":"CS","ts":"2022-12-11T22:10:01Z","tX":516,"tY":383,"tags":{"name":"Càmping Relax Sol","name:ca":"Càmping Relax Sol"}},"12040716":{"location":[41.1579603,1.4433915],"ct":"ES","tp":"CS","ts":"2023-04-01T19:31:33Z","tX":516,"tY":383,"tags":{"email":"contact@campinggavina.com","name":"Càmping La Gavina","name:ca":"Càmping La Gavina","phone":"+34 977 80 15 03","website":"https://campinggavina.com"}},"12040721":{"location":[41.1632712,1.4493097],"ct":"ES","tp":"CS","ts":"2024-01-29T09:33:40Z","tX":516,"tY":383,"tags":{"cabins":"yes","caravans":"yes","contact:email":"info@sirenadorada.com","contact:phone":"+34 977 80 13 03","motorhome":"yes","name":"Càmping la Sirena Dorada","name:ca":"Càmping la Sirena Daurada","name:es":"Càmping la Sirena Dorada","shower":"yes","tents":"yes","toilets":"yes","website":"https://www.sirenadorada.com"}},"12040733":{"location":[41.1604605,1.4419323],"ct":"ES","tp":"CS","ts":"2022-11-26T03:47:51Z","tX":516,"tY":383,"tags":{"name":"Càmping Creixell","name:ca":"Càmping Creixell","website":"http://cat.campingcreixell.com"}},"12040734":{"location":[41.1598505,1.4397315],"ct":"ES","tp":"CS","ts":"2023-04-01T19:31:35Z","tX":516,"tY":383,"tags":{"name":"Càmping L'Alba","name:ca":"Càmping L'Alba","website":"http://www.campinglalba.info"}},"12046419":{"location":[41.1707481,1.4709673],"ct":"ES","tp":"CS","ts":"2023-11-09T02:06:57Z","tX":516,"tY":383,"tags":{"name":"Càmping Park Playa Barà","website":"https://www.barapark.es/"}},"12046505":{"location":[41.177473,1.5009132],"ct":"ES","tp":"CS","ts":"2022-11-26T04:06:36Z","tX":516,"tY":383,"tags":{"name":"Càmping Francàs","name:ca":"Càmping Francàs","phone":"+34977680725","website":"https://www.campingfrancas.net"}},"12075546":{"location":[41.1867385,1.5559119],"ct":"ES","tp":"CS","ts":"2024-09-28T18:22:59Z","tX":516,"tY":383,"tags":{"name":"Vendrell Platja","name:ca":"Vendrell Platja","toilets:wheelchair":"no","website":"http://www.camping-vendrellplatja.com","wheelchair":"limited"}},"12188307":{"location":[41.233289,1.692955],"ct":"ES","tp":"CS","ts":"2024-10-07T08:20:53Z","tX":516,"tY":383,"tags":{"cabins":"yes","caravans":"yes","dog":"yes","email":"info@vilanovapark.com","fee":"yes","motorhome":"yes","name":"Càmping Vilanova Park","name:ca":"Càmping Vilanova Park","phone":"+34 938933402","power_supply":"yes","power_supply:maxcurrent":"6;10","stars":"4","tents":"yes","website":"https://www.vilanovapark.com/"}},"14637921":{"location":[41.1987835,1.6441392],"ct":"ES","tp":"CS","ts":"2022-09-29T17:39:18Z","tX":516,"tY":383,"tags":{"access":"private","name":"Rueda","website":"http://www.la-rueda.com/fr/#"}},"173909485":{"location":[41.1842978,1.5357924],"ct":"ES","tp":"CS","ts":"2012-08-01T20:44:50Z","tX":516,"tY":383,"tags":{"name":"Camping Sant Salvador"}},"237002377":{"location":[41.1947455,1.6379543],"ct":"ES","tp":"CS","ts":"2022-11-26T03:50:35Z","tX":516,"tY":383,"tags":{"name":"Càmping Mar de Cunit","name:ca":"Càmping Mar de Cunit"}},"356270304":{"location":[41.1693057,1.4676227],"ct":"ES","tp":"CS","ts":"2022-11-26T07:17:44Z","tX":516,"tY":383,"tags":{"name":"Càmping Arc de Bara","name:ca":"Càmping Arc de Bara","website":"http://www.campingarcdebara.com"}},"356270313":{"location":[41.1689645,1.4653862],"ct":"ES","tp":"CS","ts":"2023-11-09T02:06:58Z","tX":516,"tY":383,"tags":{"addr:city":"Roda de Berà","addr:street":"Ctra. N-340. Km. 1.182","contact:phone":"+34 977 80 20 02","image":"https://www.stel.es/rodadebara/wp-content/uploads/2014/08/Piscines_DSC_5641.jpg","name":"Càmping Stel","name:ca":"Càmping Stel","website":"https://www.stel.es/"}},"652068176":{"location":[41.1666965,1.4565183],"ct":"ES","tp":"CR","ts":"2024-07-10T18:02:46Z","tX":516,"tY":383,"tags":{"bakery_service":"yes","capacity":"40","charge":"20€ nit","dog":"yes","fee":"yes","internet_access":"wlan","laundry":"yes","name":"Area 340","name:en":"Area 340","permanent_camping":"no","phone":"+34 977 80 35 41","power_supply":"yes","sanitary_dump_station":"yes","seasonal":"no","shower":"yes","toilets":"yes","water_point":"yes","website":"https://area340.com/"}},"741350423":{"location":[41.2284245,1.55481],"ct":"ES","tp":"CR","ts":"2019-11-03T01:10:28Z","tX":516,"tY":383,"tags":{}},"886530646":{"location":[41.1458868,1.4122421],"ct":"ES","tp":"CS","ts":"2020-12-19T20:11:49Z","tX":516,"tY":383,"tags":{"name":"Càmping Miramar Playa"}},"1278093496":{"location":[41.1893311,1.6079549],"ct":"ES","tp":"CR","ts":"2024-04-29T12:21:48Z","tX":516,"tY":383,"tags":{}},"4856627921":{"location":[41.2125057,1.4384361],"ct":"ES","tp":"CS","ts":"2017-05-16T01:08:00Z","tX":516,"tY":383,"tags":{}},"12059522774":{"location":[41.1987882,1.6437443],"ct":"ES","tp":"CS","ts":"2024-07-17T15:27:19Z","tX":516,"tY":383,"tags":{"caravans":"yes","name":"Rueda","stars":"2","tents":"yes"}}}