{"1074127040":{"location":[49.9289391,-94.7026774],"ct":"CA","tp":"CS","ts":"2022-06-28T08:21:44Z","tX":242,"tY":347,"tags":{"addr:city":"Minaki","addr:housenumber":"11","addr:postcode":"P0X 1J0","addr:province":"ON","addr:street":"Big North Road","name":"Big North Lodge & Outposts"}},"1418509354":{"location":[49.9746904,-94.709712],"ct":"CA","tp":"CS","ts":"2011-08-30T19:27:35Z","tX":242,"tY":347,"tags":{"source":"NRCan-CanVec-7.0"}},"1418521323":{"location":[49.991024,-94.6621702],"ct":"CA","tp":"CS","ts":"2014-06-15T17:24:20Z","tX":242,"tY":347,"tags":{"source":"NRCan-CanVec-7.0"}},"2593527567":{"location":[49.8544758,-94.7916295],"ct":"CA","tp":"CS","ts":"2013-12-25T06:57:18Z","tX":242,"tY":347,"tags":{"source":"NRCan-CanVec-10.0"}},"3438091701":{"location":[50.0267812,-94.8956989],"ct":"CA","tp":"CS","ts":"2015-04-04T20:51:15Z","tX":242,"tY":347,"tags":{"source":"NRCan-CanVec-10.0"}},"5397028803":{"location":[49.9758182,-94.6990523],"ct":"CA","tp":"CS","ts":"2018-06-20T14:33:37Z","tX":242,"tY":347,"tags":{"addr:city":"Minaki","name":"Minaki Yurt Adventures","phone":"+1-807-466-1191","website":"http://www.minaki.ca/home.html"}}}