{"7132325818":{"location":[46.4566459,-94.8020853],"ct":"US","tp":"CS","ts":"2024-11-02T16:23:33Z","tX":242,"tY":362,"tags":{"addr:city":"Staples,","addr:housenumber":"27098","addr:postcode":"56479","addr:state":"MN","addr:street":"Bullard Bluff Road","charge":"14 USD","drinking_water":"yes","fee":"yes","name":"Bullardâ€™s Bluff Campground","picnic_table":"yes","toilets":"vault"}},"7132341222":{"location":[46.5335567,-94.8189819],"ct":"US","tp":"CS","ts":"2024-11-02T16:23:33Z","tX":242,"tY":362,"tags":{"access":"yes","charge":"12 USD","drinking_water":"yes","fee":"yes","name":"Knob Hill Campground","operator":"Wadena County, MN","phone":"+1-218-631-7604","picnic_table":"yes","source":"http://www.co.wadena.mn.us/222/Knob-Hill-Campground","toilets":"vault","website":"http://www.co.wadena.mn.us/222/Knob-Hill-Campground"}},"7132354246":{"location":[46.5054758,-94.8076745],"ct":"US","tp":"CS","ts":"2024-11-02T16:23:33Z","tX":242,"tY":362,"tags":{"charge":"14 USD","drinking_water":"yes","fee":"yes","internet_access":"no","name":"Cottingham Park Campground","operator":"Wadena County","picnic_table":"yes","toilets":"vault"}},"7132394049":{"location":[46.413584,-94.7983251],"ct":"US","tp":"CS","ts":"2024-11-02T16:23:33Z","tX":242,"tY":362,"tags":{"addr:city":"Thomaston","addr:state":"MN","capacity":"10","charge":"14 USD","drinking_water":"yes","fee":"yes","internet_access":"no","name":"McGivern Park Campground","operator":"Wadena County,mn","phone":"+1-218-631-7604,","picnic_table":"yes","reservation":"no","toilets":"vault","website":"http://www.co.wadena.mn.us/224/McGivern-Park-Campground"}},"7132401106":{"location":[46.4221026,-94.825791],"ct":"US","tp":"CS","ts":"2024-11-02T16:23:33Z","tX":242,"tY":362,"tags":{"charge":"12 USD","drinking_water":"yes","fee":"yes","internet_access":"no","name":"Old Wadena Park Campground","operator":"Wadena County, mn","picnic_table":"yes","shelter_type":"picnic_shelter","toilets":"yes","website":"http://www.co.wadena.mn.us/225/Old-Wadena-Park-Campground"}},"7603899874":{"location":[46.3488103,-94.8493466],"ct":"US","tp":"CS","ts":"2021-09-06T21:05:01Z","tX":242,"tY":362,"tags":{"addr:city":"Staples","addr:state":"MN","fee":"$15-$30","name":"Dower Lake Recreation Area","phone":"+1-218-894-2553","reservation":"no","sanitary_dump_station":"yes","shower":"no"}},"7656864524":{"location":[46.4902059,-94.7989096],"ct":"US","tp":"CS","ts":"2021-09-06T21:05:01Z","tX":242,"tY":362,"tags":{"addr:city":"Bullard","addr:state":"MN","backcountry":"yes","drinking_water":"yes","name":"Cottingham County Park Campground","phone":"+1-218-631-7604","reservation":"no","toilets":"vault"}},"7828866233":{"location":[46.3821107,-94.7366633],"ct":"US","tp":"CS","ts":"2020-08-21T12:30:10Z","tX":242,"tY":362,"tags":{"backcountry":"yes","drinking_water":"no","name":"Crow Wing River - Alice B. Marsh","tents":"only","toilets":"vault"}},"7828866234":{"location":[46.3795007,-94.7518667],"ct":"US","tp":"CS","ts":"2020-08-20T08:29:08Z","tX":242,"tY":362,"tags":{"backcountry":"yes","drinking_water":"no","name":"Crow Wing River - Peter Card","tents":"only","toilets":"vault"}}}