{"7140411344":{"location":[45.1902193,-94.8637344],"ct":"US","tp":"CS","ts":"2021-09-07T05:42:12Z","tX":242,"tY":367,"tags":{"capacity":"80","drinking_water":"yes","name":"Diamond Lake County Park Campgrounds","phone":"+1-320-974-8520","power_supply":"yes","seasonal":"spring-summer","shower":"yes","toilets:type":"flush"}},"7140452574":{"location":[45.2723656,-94.8716048],"ct":"US","tp":"CS","ts":"2021-09-07T05:12:27Z","tX":242,"tY":367,"tags":{"capacity":"61","drinking_water":"yes","fee":"yes","internet_access":"wlan","name":"Green Lake County Park Campground","phone":"+1-320-796-5564","power_supply":"yes","shower":"yes","toilets:type":"flush"}},"7142074962":{"location":[45.3247426,-94.7340262],"ct":"US","tp":"CS","ts":"2023-11-29T13:08:45Z","tX":242,"tY":367,"tags":{"capacity":"40","drinking_water":"yes","fee":"Tents $16, Rv's $30","name":"Lake Koronis Regional Park","phone":"+1-320-276-8843","power_supply":"yes","reservation":"yes","seasonal":"spring;summer;autumn","shower":"yes","toilets:type":"flush"}},"7278580790":{"location":[45.3290484,-94.7404076],"ct":"US","tp":"CS","ts":"2020-03-09T02:14:47Z","tX":242,"tY":367,"tags":{"addr:city":"Lakevile","addr:housenumber":"41699","addr:state":"MN","addr:street":"850th St","cabins":"yes","capacity":"12","fee":"$15-$50","name":"Sandy Point Park","reservation":"yes","tents":"yes"}},"7356072100":{"location":[45.1552628,-94.6813115],"ct":"US","tp":"CS","ts":"2020-04-01T17:55:34Z","tX":242,"tY":367,"tags":{"addr:city":"Grove City","addr:state":"MN","fee":"yes","name":"Grove City Park Campground","tents":"yes"}}}