{"617266378":{"location":[32.5821856,-94.8175277],"ct":"US","tp":"CR","ts":"2018-08-15T21:34:19Z","tX":242,"tY":413,"tags":{"addr:city":"Longview","addr:housenumber":"267","addr:postcode":"75604","addr:state":"TX","addr:street":"Mobil Road","name":"Secluded Acres RV Park","website":"https://www.secludedacresrvpark.com/"}},"637795140":{"location":[32.789579,-94.8475655],"ct":"US","tp":"CS","ts":"2019-02-17T07:31:01Z","tX":242,"tY":413,"tags":{"name":"camp Mabey","name:en":"Camp Mabey","website":"https://www.barnwellmountainra.com/"}},"663721544":{"location":[32.7730707,-94.8670445],"ct":"US","tp":"CS","ts":"2019-02-17T07:31:02Z","tX":242,"tY":413,"tags":{"name":"Old Camp","name:en":"Old Camp","website":"https://www.barnwellmountainra.com/"}},"1258708752":{"location":[32.7940101,-94.8692962],"ct":"US","tp":"CR","ts":"2011-04-24T20:19:52Z","tX":242,"tY":413,"tags":{}},"5298271319":{"location":[32.8017431,-94.883436],"ct":"US","tp":"CS","ts":"2017-12-21T20:21:32Z","tX":242,"tY":413,"tags":{"name":"Camp Gilmont"}}}