{"392700112":{"location":[29.2408311,-94.8817332],"ct":"US","tp":"CR","ts":"2018-07-06T14:55:38Z","tX":242,"tY":424,"tags":{"addr:city":"Galveston","addr:housenumber":"3418","addr:postcode":"77554","addr:state":"TX","addr:street":"Stella Mare Ln","email":"Stay@StellaMareRVResort.com","name":"Stella Mare RV Resort","opening_hours":"Mo-Su 09:00-17:00","payment:american_express":"yes","payment:cash":"yes","payment:credit_cards":"yes","payment:debit_cards":"yes","payment:discover_card":"yes","payment:mastercard":"yes","payment:visa":"yes","phone":"+1-409-632-7017","start_date":"2017","website":"https://www.stellamarervresort.com/"}},"520231780":{"location":[29.4949275,-94.9103361],"ct":"US","tp":"CR","ts":"2017-08-31T08:09:30Z","tX":242,"tY":424,"tags":{}},"520582185":{"location":[29.490045,-94.9213399],"ct":"US","tp":"CR","ts":"2017-09-01T15:35:57Z","tX":242,"tY":424,"tags":{}},"773890658":{"location":[29.4381019,-94.675905],"ct":"US","tp":"CR","ts":"2020-02-18T23:19:07Z","tX":242,"tY":424,"tags":{"addr:city":"Port Bolivar","addr:housenumber":"681","addr:postcode":"77650","addr:state":"TX","addr:street":"State Highway 87","name":"Lazy D&D RV Resort"}},"773890675":{"location":[29.4466791,-94.6576013],"ct":"US","tp":"CR","ts":"2020-02-18T23:19:07Z","tX":242,"tY":424,"tags":{"addr:city":"Port Bolivar","addr:housenumber":"1280","addr:postcode":"77650","addr:state":"TX","addr:street":"State Highway 87","name":"Beach Side RV Park"}},"881200413":{"location":[29.3023452,-94.9047391],"ct":"US","tp":"CR","ts":"2020-12-05T06:32:15Z","tX":242,"tY":424,"tags":{"addr:city":"Tiki Island","addr:housenumber":"333","addr:postcode":"77554","addr:state":"TX","addr:street":"Jones Lake Road","name":"Tiki Tom's RV Park"}},"881214014":{"location":[29.3091796,-94.7680785],"ct":"US","tp":"CR","ts":"2020-12-05T08:00:17Z","tX":242,"tY":424,"tags":{"addr:city":"Galveston","addr:housenumber":"201","addr:postcode":"77550","addr:state":"TX","addr:street":"Seawall Boulevard","name":"Sandpiper RV Resort"}},"927928498":{"location":[29.2407121,-94.8734448],"ct":"US","tp":"CR","ts":"2023-10-30T01:59:36Z","tX":242,"tY":424,"tags":{"addr:city":"Galveston","addr:housenumber":"10901","addr:postcode":"77554","addr:state":"TX","addr:street":"San Luis Pass Road","name":"Dellanera RV Park"}}}