{"13065753":{"location":[56.8972573,13.6447479],"ct":"SE","tp":"CS","ts":"2022-12-31T02:30:27Z","tX":550,"tY":314,"tags":{"access":"yes","addr:city":"Lidhult","addr:country":"SE","addr:housenumber":"8","addr:postcode":"341 72","addr:street":"Norregården","backcountry":"no","caravans":"yes","email":"lokna-camping@telia.com","fee":"yes","internet_access":"no","name":"Lökna Husvagnscamping och Stugby","openfire":"yes","phone":"+46 70 2392026","power_supply":"yes","sanitary_dump_station":"yes","shower":"yes","tents":"yes","toilets":"yes","website":"http://www.loknacamping.com/de/index-de.htm","wheelchair":"yes"}},"411671208":{"location":[56.8174747,13.6998402],"ct":"SE","tp":"CS","ts":"2024-10-18T15:17:59Z","tX":550,"tY":314,"tags":{"capacity":"40","caravans":"yes","drinking_water":"yes","name":"Bolmens Camping","power_supply":"yes","sanitary_dump_station":"yes","shower":"yes","tents":"yes","toilets":"yes","website":"https://www.bolmen.com/"}},"431825376":{"location":[56.9396319,13.5361274],"ct":"SE","tp":"CS","ts":"2014-09-17T20:06:28Z","tX":550,"tY":314,"tags":{"name":"Vallsnäs Camping"}},"1203098114":{"location":[56.7953019,13.6659242],"ct":"SE","tp":"CS","ts":"2023-12-22T16:48:17Z","tX":550,"tY":314,"tags":{"backcountry":"yes","camp_site":"basic","caravans":"no","fee":"yes","operator":"Ljungby kommun","shower":"no","tents":"yes","toilets":"yes","website":"https://www.ifiske.se/fiskekort-lagerplatser-lagaleden-ljungby-kommun.htm"}},"6433865009":{"location":[56.9027386,13.6483133],"ct":"SE","tp":"CS","ts":"2019-04-28T11:16:32Z","tX":550,"tY":314,"tags":{"backcountry":"yes"}},"6723422085":{"location":[56.7716966,13.5074664],"ct":"SE","tp":"CR","ts":"2022-05-27T02:37:29Z","tX":550,"tY":314,"tags":{"name":"Alpackagården","website":"https://www.alpackagarden.se/"}},"4448464531":{"location":[56.8161903,13.69718],"ct":"SE","tp":"SD","ts":"2017-09-23T18:46:21Z","tX":550,"tY":314,"tags":{"access":"yes","addr:place":"Bolmens hamnförening","boat":"yes","fee":"no","opening_hours":"24/7","sanitary_dump_station:accepted":"black_water","sanitary_dump_station:pump-out":"yes","seamark:small_craft_facility:category":"pump-out","seamark:type":"small_craft_facility","vehicle":"no","waterway":"sanitary_dump_station","website":"https://hamnkartan.azurewebsites.net"}},"5060887370":{"location":[56.8171789,13.7008551],"ct":"SE","tp":"SD","ts":"2024-10-18T18:46:02Z","tX":550,"tY":314,"tags":{"access":"customers","fee":"yes","sanitary_dump_station:chemical_toilet":"yes"}},"5060887371":{"location":[56.8177518,13.7004573],"ct":"SE","tp":"SD","ts":"2024-10-18T18:45:52Z","tX":550,"tY":314,"tags":{"access":"customers","fee":"yes","sanitary_dump_station:gravity":"yes","sanitary_dump_station:grey_water":"yes"}}}