{"31171801":{"location":[54.6713651,13.4078885],"ct":"DE","tp":"CR","ts":"2018-10-05T06:55:00Z","tX":550,"tY":325,"tags":{"fee":"yes","name":"Kap Arkona","note:DE":"Ist das hier wirklich ein Campinplatz oder bloß ein Parkplatz für Womos?","wheelchair":"limited"}},"38806813":{"location":[54.6102893,13.3780691],"ct":"DE","tp":"CS","ts":"2024-06-09T13:13:57Z","tX":550,"tY":325,"tags":{"addr:housenumber":"1","addr:street":"Wittower Straße","caravans":"yes","name":"Freizeitcamp Am Wasser","openfire":"no","phone":"+49 38391 43928","tents":"yes","website":"https://www.freizeitcampamwasser.m-vp.de/"}},"117837451":{"location":[54.5833396,13.6136578],"ct":"DE","tp":"CR","ts":"2021-10-25T19:00:23Z","tX":550,"tY":325,"tags":{"capacity":"35","contact:mobile":"+49 178 6314488","contact:phone":"+49 38302 889795","description":"17 Eur excl. extras","fee":"yes","name":"Stellplatz Lohme","power_supply":"yes","sanitary_dump_station":"yes","sanitary_dump_station:access":"customers","sanitary_dump_station:chemical_toilet":"yes","sanitary_dump_station:grey_water":"yes","water_point":"yes","website":"https://www.lohme.de/caravan/camping-ruegen.html"}},"184551308":{"location":[54.6384357,13.3768473],"ct":"DE","tp":"CS","ts":"2025-06-20T08:14:32Z","tX":550,"tY":325,"tags":{"addr:housenumber":"30","addr:postcode":"18556","addr:street":"Zittkower Weg","alt_name":"Knaus Campingpark Rügen","cabins":"yes","caravans":"yes","dog":"yes","fee":"yes","motorhome":"yes","name":"KNAUS Camping- und Ferienhauspark Rügen","operator":"Knaus Camping- und Ferienpark","static_caravans":"yes","tents":"yes","website":"https://www.knauscamp.de/ruegen"}},"186930627":{"location":[54.6374907,13.3768857],"ct":"DE","tp":"CR","ts":"2019-03-26T07:39:12Z","tX":550,"tY":325,"tags":{"capacity":"22","description":"Stellplätze vor der Schranke","fee":"yes","name":"Knaus Campingpark Rügen","operator":"Helmut Knaus KG","power_supply":"yes","sanitary_dump_station":"yes","water_point":"yes","website":"https://www.knauscamp.de/ruegen/"}},"186930629":{"location":[54.6341249,13.3748616],"ct":"DE","tp":"CS","ts":"2025-06-20T08:14:32Z","tX":550,"tY":325,"tags":{"addr:city":"Altenkirchen","addr:housenumber":"27","addr:postcode":"18556","addr:street":"Zittkower Weg","addr:suburb":"Drewoldke","cabins":"yes","caravans":"yes","motorhome":"yes","name":"Drewoldke","phone":"+49 38391 129 65","shower":"yes","tents":"yes","toilets":"yes","toilets:wheelchair":"yes","website":"https://www.camping-auf-ruegen.de/","wheelchair":"limited"}},"357193449":{"location":[54.6319578,13.3730853],"ct":"DE","tp":"CS","ts":"2025-06-20T07:08:39Z","tX":550,"tY":325,"tags":{"name":"Wochenendcampingplatz Drewoldke","wheelchair":"limited"}},"6979971353":{"location":[54.5738887,13.469784],"ct":"DE","tp":"CR","ts":"2021-10-25T19:24:05Z","tX":550,"tY":325,"tags":{"description":"20 Euro / 24h","fee":"yes","name":"Marina Glowe","power_supply":"yes","sanitary_dump_station":"yes","water_point":"yes"}},"8631556385":{"location":[54.5734357,13.4692184],"ct":"DE","tp":"SD","ts":"2021-10-25T19:24:05Z","tX":550,"tY":325,"tags":{"access":"customers","charge":"Nur für Gäste mit gültigem Parkschein für Wohnmobile","fee":"yes","operator":"Marina Glowe","water_point":"yes"}},"9031276302":{"location":[54.6095321,13.3785934],"ct":"DE","tp":"SD","ts":"2021-08-24T07:26:18Z","tX":550,"tY":325,"tags":{}},"9082673329":{"location":[54.5830105,13.6136481],"ct":"DE","tp":"SD","ts":"2021-09-11T19:38:40Z","tX":550,"tY":325,"tags":{"access":"customers","fee":"no","sanitary_dump_station:chemical_toilet":"yes","sanitary_dump_station:grey_water":"yes","water_point":"yes"}}}