{"23492915":{"location":[54.4230496,13.5781928],"ct":"DE","tp":"CS","ts":"2021-12-15T22:42:28Z","tX":550,"tY":326,"tags":{"addr:city":"Binz","addr:country":"DE","addr:housenumber":"30","addr:postcode":"18609","addr:street":"Proraer Chaussee","addr:suburb":"Prora","contact:phone":"+49 38393 2085","contact:website":"https://www.camping-prora-ruegen.de/","name":"Camping Prora • Rügen","toilets:wheelchair":"yes","wheelchair":"yes"}},"27918329":{"location":[54.4751688,13.5711384],"ct":"DE","tp":"PK","ts":"2025-06-02T21:17:24Z","tX":550,"tY":326,"tags":{"access":"yes","caravans":"yes","charge":"1h=1.50€, 12h=15€","fee":"yes","name":"Ostseeblick","parking":"surface","toilets:wheelchair":"no","wheelchair":"limited"}},"86210186":{"location":[54.4489775,13.5593278],"ct":"DE","tp":"CR","ts":"2025-06-02T21:17:24Z","tX":550,"tY":326,"tags":{"capacity":"100","contact:mobile":"+49 1577 4283715","email":"info@wohnmobilstellplatz-ruegen.de","fee":"yes","internet_access":"wlan","name":"Wohnmobil-Oase","opening_hours":"Apr - Oct","power_supply":"yes","sanitary_dump_station":"yes","tents":"no","water_point":"yes","website":"https://www.wohnmobiloase-ruegen.de/"}},"117892357":{"location":[54.4217064,13.5887883],"ct":"DE","tp":"CS","ts":"2024-02-17T10:23:53Z","tX":550,"tY":326,"tags":{"access":"customers","addr:city":"Binz","addr:country":"DE","addr:housenumber":"19","addr:postcode":"18609","addr:street":"Strandstraße","addr:suburb":"Prora","name":"Campingpark Rügen","opening_hours":"Apr-Oct","operator":"Sozialwerk der Inneren Verwaltung des Bundes e.V.","website":"https://www.sozialwerk.bund.de/erholung/erwachsene-familie/campingplatz-prora-insel-ruegen/"}},"121400810":{"location":[54.5177955,13.4111113],"ct":"DE","tp":"CS","ts":"2022-09-27T20:07:34Z","tX":550,"tY":326,"tags":{"addr:city":"Rappin","addr:country":"DE","addr:housenumber":"4","addr:postcode":"18528","addr:street":"Am Berg","addr:suburb":"Groß Banzelvitz","covid19:test":"required","email":"info@banzelvitz.de","internet_access":"wlan","name":"Banzelvitzer Berge","operator":"Campingbetrieb u. Ferienhausanlage Banzelvitzer Berge GmbH","phone":"+49 3838 31248","website":"https://ferienhaus-ruegen-ostsee.net/"}},"123524659":{"location":[54.4217155,13.5874781],"ct":"DE","tp":"CR","ts":"2024-02-16T20:55:59Z","tX":550,"tY":326,"tags":{"addr:city":"Binz","addr:housenumber":"96","addr:postcode":"18609","addr:street":"Südstrand","addr:suburb":"Prora"}},"160670362":{"location":[54.5239132,13.6308733],"ct":"DE","tp":"CR","ts":"2024-06-15T18:53:23Z","tX":550,"tY":326,"tags":{"caravans":"yes","contact:website":"http://www.naturerlebniscamp-ruegen.de/","drinking_water":"yes","maxweight":"7.5","name":"Naturerlebniscamp Rügen","power_supply":"yes","shower":"yes","tents":"yes","toilets":"yes"}},"171770159":{"location":[54.4850945,13.5109218],"ct":"DE","tp":"CS","ts":"2021-08-21T16:23:06Z","tX":550,"tY":326,"tags":{"access":"customers","addr:city":"Lietzow","addr:housenumber":"59a","addr:postcode":"18528","addr:street":"Waldstraße","capacity":"40","covid19:test":"required","description":"Kleiner Campingplatz mit 38 Stellplätzen für Wohnwagen, Wohnmobiele und Zelte mit PKW sowie Zeltmöglichkeiten für Zelter mit Rad oder zu Fuß. 3 Schlaf-Fässer und 2 Mietzelte. ","email":"info@lietzow.net","internet_access":"wlan","motor_vehicle":"yes","name":"Störtebeker Camp","operator":"Gästehaus Lietzow & Störtebeker Camp Rixa Engel","payment:cash":"yes","payment:maestro":"yes","phone":"+49 38302 2166","power_supply":"yes","tents":"yes","website":"https://lietzow.net/"}},"225213208":{"location":[54.4501145,13.5690568],"ct":"DE","tp":"CS","ts":"2025-06-18T08:04:16Z","tX":550,"tY":326,"tags":{"landuse":"grass"}},"225213209":{"location":[54.4534133,13.5674548],"ct":"DE","tp":"CS","ts":"2024-05-28T19:06:37Z","tX":550,"tY":326,"tags":{"addr:city":"Binz","addr:country":"DE","addr:housenumber":"12","addr:postcode":"18609","addr:street":"Mukraner Straße","caravans":"no","group_only":"yes","landuse":"grass","name":"Jugendzeltplatz Prora","tents":"yes","website":"https://www.jugendherberge.de/jugendherbergen/prora/"}},"225213211":{"location":[54.4523421,13.5674599],"ct":"DE","tp":"CS","ts":"2025-06-02T20:16:01Z","tX":550,"tY":326,"tags":{"caravans":"no","landuse":"grass","tents":"yes","toilets":"yes"}},"225213212":{"location":[54.4552309,13.567454],"ct":"DE","tp":"CS","ts":"2025-06-02T20:16:00Z","tX":550,"tY":326,"tags":{"caravans":"no","landuse":"grass","tents":"yes","toilets":"yes"}},"289884897":{"location":[54.5435788,13.5219006],"ct":"DE","tp":"CS","ts":"2023-01-21T17:21:35Z","tX":550,"tY":326,"tags":{"capacity":"25","contact:phone":"+491718357531","name":"Campingoase Boddenblick","url":"https://www.ruegen-naturcamping.de/index.php?c=campingoase%20polchow"}},"419328193":{"location":[54.5687462,13.6136016],"ct":"DE","tp":"CS","ts":"2024-12-26T18:52:09Z","tX":550,"tY":326,"tags":{"addr:housenumber":"5","addr:street":"Jasmunder Straße","internet_access":"wlan","motorhome":"yes","name":"Krüger Naturcamping","website":"https://www.ruegen-naturcamping.de/"}},"422847646":{"location":[54.3721836,13.7026395],"ct":"DE","tp":"CR","ts":"2025-02-25T22:54:25Z","tX":550,"tY":326,"tags":{"addr:city":"Sellin","addr:housenumber":"4B","addr:postcode":"18586","addr:street":"Kiefernweg","email":"info@reisemobilhafen-sellin.de","mobile":"03830392770","name":"Reisemobilhafen Sellin","power_supply":"yes","sanitary_dump_station":"yes"}},"434341461":{"location":[54.5624017,13.6264475],"ct":"DE","tp":"CR","ts":"2024-09-28T19:23:05Z","tX":550,"tY":326,"tags":{"area":"yes","drinking_water":"no","fee":"yes","name":"Wohnmobilstellplatz am Parkplatz Hagen","operator":"Touristik Lohme GmbH","power_supply":"yes","sanitary_dump_station":"customers","toilets":"yes","wheelchair":"yes"}},"608154946":{"location":[54.402462,13.4289154],"ct":"DE","tp":"CR","ts":"2023-12-09T13:55:38Z","tX":550,"tY":326,"tags":{"addr:housenumber":"32a","addr:postcode":"18528","addr:street":"Tilzower Weg","caravan_site:type":"town","charge":"14 EUR","fee":"yes","internet_access":"wlan","internet_access:fee":"no","laundry":"yes","name":"Caravanplatz Bergen auf Rügen","power_supply":"yes","sanitary_dump_station":"yes","shower":"yes","toilets":"yes","website":"https://www.wohnmobil-stellplatz-ruegen.de/"}},"1825375592":{"location":[54.5169228,13.4108441],"ct":"DE","tp":"SD","ts":"2015-04-21T02:12:31Z","tX":550,"tY":326,"tags":{}},"3750474519":{"location":[54.5619198,13.6257051],"ct":"DE","tp":"SD","ts":"2024-09-28T19:21:39Z","tX":550,"tY":326,"tags":{"fee":"yes"}},"7795995499":{"location":[54.531568,13.6106155],"ct":"DE","tp":"CS","ts":"2021-08-21T16:23:04Z","tX":550,"tY":326,"tags":{"name":"Landgut Dargast","phone":"+49 38392 34201","website":"https://www.landgut-dargast.de"}},"9173641418":{"location":[54.5693454,13.6101875],"ct":"DE","tp":"CR","ts":"2021-10-15T03:10:03Z","tX":550,"tY":326,"tags":{}},"10123146508":{"location":[54.5680783,13.4592383],"ct":"DE","tp":"CR","ts":"2024-12-26T18:41:40Z","tX":550,"tY":326,"tags":{"caravan_site":"motorhome_stopover","caravan_site:type":"beach;parking_lot","charge":"15 EUR + tax","fee":"yes","name":"Parkplatz Waldsiedlung Glowe","power_supply":"yes","power_supply:fee":"no","sanitary_dump_station":"yes","water_point":"yes","water_point:fee":"no"}},"9524223502":{"location":[54.5684902,13.6157935],"ct":"DE","tp":"SD","ts":"2022-02-21T12:12:49Z","tX":550,"tY":326,"tags":{"access":"customers","operator":"Krüger Naturcamping"}}}