{"25681716":{"location":[54.2775642,13.7015988],"ct":"DE","tp":"CS","ts":"2024-03-15T20:36:56Z","tX":550,"tY":327,"tags":{"addr:housenumber":"4","addr:street":"Hauptstraße","area":"yes","camp_site":"serviced","email":"surfoase@segelschule-ruegen.de","name":"Surfoase Klein-Zicker","phone":"+49 38308 30125","website":"https://segelschule-ruegen.de/de","wheelchair":"limited"}},"96183527":{"location":[54.3368423,13.6830179],"ct":"DE","tp":"CS","ts":"2024-05-28T19:06:37Z","tX":550,"tY":327,"tags":{"camp_site":"serviced","caravans":"yes","drinking_water":"yes","name":"Naturcampingplatz Alt Reddevitz","power_supply":"yes","sanitary_dump_station":"yes","shower":"yes","tents":"yes","toilets":"yes","website":"https://www.ruegen-camping.de/campingplatz/","wheelchair":"limited"}},"186933200":{"location":[54.34301,13.5041843],"ct":"DE","tp":"CR","ts":"2018-07-26T08:06:49Z","tX":550,"tY":327,"tags":{"capacity":"14","name":"Stellplatz Lauterbach \"Im-Jaich\"","wheelchair":"yes"}},"219271030":{"location":[54.2611361,13.4075892],"ct":"DE","tp":"CS","ts":"2023-08-18T18:33:35Z","tX":550,"tY":327,"tags":{"addr:city":"Garz/Rügen","addr:housenumber":"19","addr:postcode":"18574","addr:street":"Zicker","caravans":"yes","drinking_water":"yes","name":"Naturcampingplatz Pritzwald","naturism":"accepted","nudism":"permissive","phone":"+49383823179","power_supply":"cee_17_blue","shower":"yes","tents":"yes","toilets":"yes","washing_machine":"yes","website":"https://www.naturcamping-ruegen-pritzwald.de/"}},"269627854":{"location":[54.3095441,13.6857663],"ct":"DE","tp":"CS","ts":"2023-07-10T07:31:18Z","tX":550,"tY":327,"tags":{"caravans":"yes","contact:email":"info@campingplatz-ruegen.de","contact:fax":"+49 3830 834352","contact:phone":"+49 3830 830199","name":"Campingplatz \"Am Bodden\"","tents":"yes"}},"1074305800":{"location":[54.3474708,13.4983257],"ct":"DE","tp":"CR","ts":"2024-05-31T11:24:11Z","tX":550,"tY":327,"tags":{"addr:city":"Putbus","addr:housenumber":"14","addr:postcode":"18581","addr:street":"Chausseestraße","capacity":"36","caravan_site":"motorhome_stopover","caravan_site:type":"harbour","caravans":"no","charge":"18 EUR","fee":"yes","laundry":"yes","name":"Wohnmobil Stellplatz Lauterbach","operator":"Anke Heise","power_supply":"yes","reservation":"from 3 nights","sanitary_dump_station":"yes","seasonal":"yes","telecom":"038301 888329","tents":"no","water_point":"yes","website":"https://www.wohnmobilstellplatz-insel-ruegen.de/"}},"3509110413":{"location":[54.3525691,13.6533006],"ct":"DE","tp":"CR","ts":"2024-12-26T19:05:36Z","tX":550,"tY":327,"tags":{"capacity":"7","caravan_site":"motorhome_stopover","caravan_site:type":"harbour","caravans":"no","charge":"25.60 EUR","dog":"yes","fee":"yes","name":"Hafen Seedorg Wohnmobil-Stellplätze","opening_hours":"Mar-Oct","payment:description":"to Harbour Master","power_supply":"yes","power_supply:charge":"0.50 EUR/0.8 KWh","power_supply:fee":"yes","restaurant":"yes","sanitary_dump_station":"no","seasonal":"yes","shower":"yes","shower:charge":"0.50 EUR","shower:fee":"yes","tents":"no","toilets":"yes","water_point":"yes","water_point:charge":"1 EUR/100 liter","water_point:fee":"yes","website":"https://hafen-seedorf-fewo.de/unterkuenfte/wohnwagenstellplatz/"}},"9256438151":{"location":[54.2798213,13.7106057],"ct":"DE","tp":"SD","ts":"2021-11-16T12:48:04Z","tX":550,"tY":327,"tags":{"operator":"Fischereigenossenschaft e.G. Leuchtfeuer","wheelchair":"yes"}},"12183409652":{"location":[54.277292,13.7023272],"ct":"DE","tp":"SD","ts":"2024-09-18T06:21:06Z","tX":550,"tY":327,"tags":{"access":"customers","operator":"Surfoase Klein-Zicker"}}}