{"30805178":{"location":[54.1275184,13.5225967],"ct":"DE","tp":"CS","ts":"2023-07-12T07:11:53Z","tX":550,"tY":328,"tags":{"addr:city":"Loissin","addr:housenumber":"1","addr:postcode":"17509","addr:street":"Am Strandweg","area":"yes","capacity":"300","caravans":"yes","contact:email":"info@campingplatz-loissin.de","contact:fax":"+49 38352 725","contact:phone":"+49 38352 243","contact:website":"https://campingplatz-loissin.de/","drinking_water":"yes","fee":"yes","internet_access":"wlan","internet_access:fee":"yes","name":"Campingplatz Loissin","operator":"Ferien- und Freizeitpark GmbH","power_supply":"yes","shower":"yes","tents":"yes","toilets":"yes"}},"281500309":{"location":[54.0986707,13.3893258],"ct":"DE","tp":"CR","ts":"2023-01-27T17:15:04Z","tX":550,"tY":328,"tags":{"addr:city":"Greifswald","addr:country":"DE","addr:housenumber":"10 - 12","addr:postcode":"17489","addr:street":"Marienstraße","capacity":"20","fee":"yes","name":"Am Museumshafen","operator":"Karl-Ludwig & Michael Fasten","power_supply":"yes","sanitary_dump_station":"yes","website":"https://ferien-fasten.de/","wheelchair":"yes"}},"442909808":{"location":[54.0881405,13.4605962],"ct":"DE","tp":"CS","ts":"2023-01-27T17:15:04Z","tX":550,"tY":328,"tags":{"addr:city":"Greifswald","addr:housenumber":"47","addr:postcode":"17493","addr:street":"Wolgaster Landstraße","fax":"+4938345355281","fee":"yes","name":"Camping an der Dänischen Wiek","phone":"+4938345355280","website":"https://www.camping-greifswald.de/"}},"484009621":{"location":[54.1506916,13.6487512],"ct":"DE","tp":"CR","ts":"2024-12-26T21:20:47Z","tX":550,"tY":328,"tags":{"capacity":"6","caravan_site":"motorhome_stopover","caravan_site:type":"beach;harbour","charge":"18 EUR","fee":"yes","name":"Lubmin Stellplatz fur Wohnmobile","power_supply":"yes","power_supply:charge":"2 EUR/ kWh","power_supply:fee":"yes","website":"https://unser-lubmin.de/infos/parken-pkw/"}},"1069418460":{"location":[54.137153,13.621182],"ct":"DE","tp":"CR","ts":"2022-06-13T21:39:30Z","tX":550,"tY":328,"tags":{"capacity":"2","power_supply":"yes","reservation":"required","tents":"no"}},"11588945331":{"location":[54.0989685,13.4017541],"ct":"DE","tp":"CS","ts":"2024-02-18T20:01:34Z","tX":550,"tY":328,"tags":{"addr:street":"Hafenstraße 56","bicycle_parking":"nature","cabins":"no","capacity":"4","caravans":"no","contact:website":"https://www.kanu-greifswald.de/","description":"Zeltstellfläche für Radfahrer und Wanderkanuten","email":"info@kanu-greifswald.de","opening_hours":"24/7","operator":"Hochschulsportgemeinschaft Universität Greifswald e. V.","permanent_camping":"no","surface":"grass","tents":"yes"}},"10042792828":{"location":[54.0874365,13.4579387],"ct":"DE","tp":"SD","ts":"2022-09-21T14:14:02Z","tX":550,"tY":328,"tags":{"access":"customers","fee":"no","sanitary_dump_station:round_drain":"yes"}}}