{"54849217":{"location":[53.924477,13.4134227],"ct":"DE","tp":"CS","ts":"2023-04-16T13:03:41Z","tX":550,"tY":329,"tags":{"caravans":"no","drinking_water":"yes","fee":"yes","name":"Wasserwanderrastplatz Gützkow","openfire":"yes","operator":"Kanuverein Gützkow","phone":"+49 160 97221638; +49 38353 277","shower":"yes","tents":"yes","toilets":"yes","website":"https://kanuverein-guetzkow.de/gaeste-info/"}},"110892341":{"location":[53.8743089,13.5590208],"ct":"DE","tp":"CS","ts":"2024-06-15T10:37:20Z","tX":550,"tY":329,"tags":{"access":"yes","addr:city":"Stolpe an der Peene","addr:housenumber":"26","addr:postcode":"17391","addr:street":"Peeneblick","capacity:caravans":"0","capacity:persons":"100","capacity:tents":"40","drinking_water":"yes","email":"info@hafenstolpe.de","internet_access":"wlan","internet_access:fee":"no","name":"Wasserwanderrastplatz Stolpe","nudism":"no","opening_hours":"May 1-Oct 31","operator":"Frank Bretzke-Oertel","phone":"+4917621058588","power_supply":"yes","sanitary_dump_station":"no","shower":"yes","tents":"yes","toilets":"yes","website":"https://hafenstolpe.de/","wheelchair":"yes"}},"143689731":{"location":[53.8560746,13.6774956],"ct":"DE","tp":"CS","ts":"2025-05-02T10:00:38Z","tX":550,"tY":329,"tags":{"caravans":"yes","description":"moderne Schwimmstege, Bollwerk, Strom, Wasser","drinking_water":"yes","leisure":"marina","name":"Wasserwanderrastplatz Anklam","power_supply":"yes","shower":"yes","tents":"yes","toilets":"yes","url":"https://www.wasserwanderrastplatz-anklam.de/","wheelchair":"yes"}},"143689733":{"location":[53.8557214,13.6776449],"ct":"DE","tp":"CR","ts":"2025-05-02T09:58:25Z","tX":550,"tY":329,"tags":{"access":"yes","drinking_water":"no","fee":"no","name":"Wasserwanderrastplatz Anklam","parking":"street_side","power_supply":"no","sanitary_dump_station":"no","toilets":"no","wheelchair":"yes"}},"181021299":{"location":[53.8561295,13.6787386],"ct":"DE","tp":"CR","ts":"2020-06-12T15:19:48Z","tX":550,"tY":329,"tags":{"access":"private","name":"Caravan-Club Anklam e.V."}},"1022914893":{"location":[53.9324432,13.4255351],"ct":"DE","tp":"CR","ts":"2022-06-02T09:00:40Z","tX":550,"tY":329,"tags":{"addr:housenumber":"12","addr:street":"Zum Kosenowsee","contact:mobile":"+49 162 1322 000","name":"Caravan Resort Gützkow","website":"https://caravan-guetzkow.de/"}},"2377512615":{"location":[53.9222971,13.4238389],"ct":"DE","tp":"CS","ts":"2019-07-28T22:51:52Z","tX":550,"tY":329,"tags":{"fee":"yes","name":"Villa-Eden-Peene","tents":"yes","website":"https://www.villa-eden-peene.com/unser-angebot/"}},"12041447871":{"location":[53.8604099,13.6906537],"ct":"DE","tp":"CS","ts":"2025-01-28T21:11:26Z","tX":550,"tY":329,"tags":{"addr:city":"Anklam","addr:country":"DE","addr:housenumber":"3","addr:postcode":"17389","addr:street":"Werftstraße","caravans":"yes","name":"Boot & Bike Hansestadt","tents":"yes"}},"4759103042":{"location":[53.9182266,13.4677568],"ct":"DE","tp":"CR","ts":"2017-03-28T06:26:40Z","tX":550,"tY":329,"tags":{"addr:city":"Pentin","addr:housenumber":"11","addr:postcode":"17506","addr:street":"Zum Bollwerk","name":"Rittergut Schloss Pentin","website":"http://www.rittergut-schloss-pentin.de"}},"11982613621":{"location":[53.8685293,13.6202829],"ct":"DE","tp":"CS","ts":"2025-03-29T21:27:30Z","tX":550,"tY":329,"tags":{"backcountry":"yes","name":"Wasserwanderrastplatz Menzlin"}},"12710690774":{"location":[53.8933952,13.4761137],"ct":"DE","tp":"CS","ts":"2025-03-29T21:24:36Z","tX":550,"tY":329,"tags":{"backcountry":"yes","name":"Wasserwanderrastplatz Liepen"}}}