{"3310395":{"location":[53.3101379,13.4799587],"ct":"DE","tp":"CS","ts":"2025-01-29T20:07:37Z","tX":550,"tY":332,"tags":{"caravans":"yes","contact:email":"info@campingplatz-conow.de","contact:fax":"+49 3963 210291","contact:mobile":"+49 1704943469","contact:phone":"+49 39603 22600","contact:website":"https://campingplatz-conow.de/startseite","loc_name":"Campingplatz Conow","name":"Campingplatz C38 Conow","operator":"Campingplatzverein Conow e.V.","short_name":"C38","shower":"yes","tents":"yes","toilets":"yes"}},"39370910":{"location":[53.3002923,13.4409295],"ct":"DE","tp":"CS","ts":"2023-09-12T16:10:25Z","tX":550,"tY":332,"tags":{"addr:city":"Feldberger Seenlandschaft","addr:country":"DE","addr:housenumber":"80","addr:postcode":"17258","addr:street":"Carwitzer Straße","addr:suburb":"Carwitz","caravans":"yes","drinking_water":"yes","email":"info@campingplatz-carwitz.de","fax":"+49 39831 22 83 51","name":"Am Carwitzer See","phone":"+49 39831 21160","power_supply":"yes","sanitary_dump_station":"customers","shower":"yes","tents":"yes","toilets":"yes","website":"https://www.campingplatz-carwitz.de/"}},"169317536":{"location":[53.1278429,13.5510149],"ct":"DE","tp":"CS","ts":"2023-02-26T17:37:02Z","tX":550,"tY":332,"tags":{"addr:city":"Templin","addr:country":"DE","addr:housenumber":"1b","addr:postcode":"17268","addr:street":"Fährkrug","contact:email":"mail@camping-am-faehrsee-templin.de","contact:mobile":"+49 151 585 17460","contact:phone":"+49 3987 200 114","contact:website":"http://www.camping-am-faehrsee-templin.de/","designation":"C 83","name":"Camping am Fährsee - Templin","operator":"Karin Gottong","phone":"+49 39886 668 68"}},"208190533":{"location":[53.2835968,13.4343892],"ct":"DE","tp":"CS","ts":"2025-01-30T15:25:10Z","tX":550,"tY":332,"tags":{"addr:city":"Boitzenburger Land","addr:country":"DE","addr:housenumber":"51","addr:postcode":"17268","addr:street":"Am Dreetzsee","canoe_rental":"yes","capacity":"150","caravans":"yes","drinking_water":"yes","internet_access":"no","name":"Camping am Dreetzsee","operator":"Hans-Jürgen Döhring","phone":"+49 39889 746","power_supply":"yes","shower":"yes","tents":"yes","toilets":"yes","website":"https://dreetzseecamping.de/"}},"248659755":{"location":[53.1552586,13.5470793],"ct":"DE","tp":"CS","ts":"2022-12-08T12:30:50Z","tX":550,"tY":332,"tags":{"addr:city":"Klosterwalde","addr:country":"DE","addr:housenumber":"1","addr:postcode":"17268","addr:street":"Am Gleuensee","designation":"C 84","fee":"yes","name":"Naturcamp am Gleuensee","phone":"+49 1520 3375252","website":"https://www.naturcamp-gleuensee.de/"}},"393017815":{"location":[53.1233731,13.495938],"ct":"DE","tp":"CR","ts":"2023-12-03T21:59:52Z","tX":550,"tY":332,"tags":{"capacity":"47","charge":"5 EUR + 2 EUR/pax","description:payment":"apps or in tourist office Am Markt","fee":"yes","maxstay":"1 day","name":"Alte Knehdener Straße","sanitary_dump_station":"yes","sanitary_dump_station:chemical_toilet":"yes","sanitary_dump_station:grey_water":"no","seasonal":"no","shower":"no","surface":"paving_stones","toilets":"yes","water_point":"yes","water_point:fee":"yes","website":"https://www.templin.de/pois/wohnmobil-und-caravanstellplatz-templin/","wikimedia_commons":"Category:Templin Alte Knehdener Straße Motorhome stopover"}},"424476707":{"location":[53.2647358,13.3878093],"ct":"DE","tp":"CS","ts":"2025-01-30T15:32:53Z","tX":550,"tY":332,"tags":{"addr:city":"Feldberger Seenlandschaft","addr:country":"DE","addr:housenumber":"53","addr:postcode":"17258","addr:street":"Zum Waschsee","addr:suburb":"Mechow","caravans":"yes","contact:email":"anfrage@waldsiedlung-am-waschsee.com","contact:fax":"+49-39820-33864","contact:phone":"+49-39820-33863","contact:website":"http://www.waldsiedlung-am-waschsee.com/","drinking_water":"yes","name":"Waldsiedlung am Waschsee","power_supply":"yes","sanitary_dump_station":"no","shower":"yes","tents":"yes","toilets":"yes","wheelchair":"no"}},"701435606":{"location":[53.2216507,13.3772633],"ct":"DE","tp":"CS","ts":"2020-07-11T23:06:00Z","tX":550,"tY":332,"tags":{"backcountry":"yes","motor_vehicle":"no","name":"Biwakplatz Küstrinchen","shower":"no","tents":"yes","toilets":"no"}},"825282206":{"location":[53.2332602,13.3861099],"ct":"DE","tp":"CS","ts":"2021-08-19T08:56:08Z","tX":550,"tY":332,"tags":{"backcountry":"yes","bicycle":"yes","caravans":"no","motor_vehicle":"no","name":"Biwakplatz Schreibermühle","shower":"no","tents":"yes","toilets":"no","website":"https://www.jedermannsland.de/jm/?cm=Plaetze&a=Details&id=94"}},"7471856003":{"location":[53.1492071,13.4792247],"ct":"DE","tp":"CS","ts":"2023-01-21T17:49:37Z","tX":550,"tY":332,"tags":{"addr:city":"Templin","addr:housenumber":"1","addr:postcode":"17268","addr:street":"Lindenhof","caravans":"no","email":"buchungen@gestuet-lindenhof.eu","name":"Biwakplatz Gestüt Lindenhof","phone":"+49 3987 401618-0","tents":"yes","website":"https://gestuet-lindenhof.eu/"}},"11171613171":{"location":[53.2419931,13.393251],"ct":"DE","tp":"CS","ts":"2023-09-06T11:09:02Z","tX":550,"tY":332,"tags":{"name":"Kolbatzer Mühle"}},"5631072721":{"location":[53.123675,13.4962595],"ct":"DE","tp":"SD","ts":"2023-12-04T13:26:31Z","tX":550,"tY":332,"tags":{"access":"yes","check_date":"2023-11-24","fee":"no","opening_hours":"24/7","sanitary_dump_station:basin":"yes","sanitary_dump_station:round_drain":"yes","wikimedia_commons":"File:Templin motorhome samitary dump station.jpg"}},"8783771534":{"location":[53.2835914,13.429669],"ct":"DE","tp":"SD","ts":"2021-05-30T21:31:36Z","tX":550,"tY":332,"tags":{}},"8783771535":{"location":[53.2829091,13.439223],"ct":"DE","tp":"SD","ts":"2021-05-30T21:31:36Z","tX":550,"tY":332,"tags":{}},"9008565743":{"location":[53.298795,13.4317886],"ct":"DE","tp":"PK","ts":"2021-08-15T19:53:03Z","tX":550,"tY":332,"tags":{"caravans":"yes"}}}