{"66878192":{"location":[52.9120587,13.6655647],"ct":"DE","tp":"CS","ts":"2024-08-25T10:24:23Z","tX":550,"tY":333,"tags":{"addr:housenumber":"4","addr:street":"Am Spring","caravans":"yes","contact:phone":"+49 33363 4232","contact:website":"http://www.campingplatz-werbellinsee.de","drinking_water":"yes","name":"Camping Am Spring","operator":"JATOUR Joachimsthaler Tourismus GmbH & Co.KG","power_supply":"yes","shower":"yes","tents":"yes","toilets":"yes","wheelchair":"limited","wikidata":"Q123384324"}},"169317537":{"location":[53.0962232,13.4337559],"ct":"DE","tp":"CS","ts":"2023-03-03T12:22:12Z","tX":550,"tY":333,"tags":{"addr:city":"Templin","addr:country":"DE","addr:housenumber":"23a","addr:postcode":"17268","addr:street":"Röddeliner Dorfstraße","addr:suburb":"Röddelin","contact:phone":"+49 3987 54222","contact:website":"http://camping-templin.de","name":"Naturcamp e.V. Röddelin","operator":"Wassersport- Wander- und Campingverein „Naturcamp e.V.“ Röddelin"}},"190668614":{"location":[53.0492288,13.5330755],"ct":"DE","tp":"CS","ts":"2021-07-19T08:04:53Z","tX":550,"tY":333,"tags":{"addr:city":"Templin","addr:housenumber":"15","addr:postcode":"17268","addr:street":"Uhlenhof","addr:suburb":"Vietmannsdorf","capacity":"30","caravans":"yes","name":"Schorfheide Camp","phone":"+49 39882 4093","tents":"yes","url":"http://www.schorfheide-camp.de/","website":"http://www.schorfheide-camp.de/"}},"395546309":{"location":[53.090599,13.6026969],"ct":"DE","tp":"CS","ts":"2016-02-22T08:28:07Z","tX":550,"tY":333,"tags":{"area":"yes","name":"Kleine Hofwirtschaft"}},"504748275":{"location":[53.1021609,13.5230103],"ct":"DE","tp":"CR","ts":"2024-03-25T10:48:57Z","tX":550,"tY":333,"tags":{"capacity":"47","contact:website":"https://www.naturthermetemplin.de/wohnmobilstellplatz","internet_access":"wlan","internet_access:fee":"no","name":"Wohnmobilstellplatz an der NaturThermeTemplin","power_supply":"yes","sanitary_dump_station":"yes","toilets":"yes","wheelchair":"yes"}},"3561627639":{"location":[53.0737834,13.6211978],"ct":"DE","tp":"CS","ts":"2020-01-25T21:52:33Z","tX":550,"tY":333,"tags":{"caravans":"yes","name":"Gästehaus Ahlimbsmühle","tents":"yes","website":"https://www.ahlimbsmuehle.de/"}},"7329121818":{"location":[53.0746539,13.3928552],"ct":"DE","tp":"CS","ts":"2025-01-06T13:09:52Z","tX":550,"tY":333,"tags":{"addr:city":"Templin","addr:housenumber":"1","addr:postcode":"17268","addr:street":"Kannenburger Schleuse","alt_name":"Tinkerhof Kannenburg","backcountry":"yes","fee":"yes","name":"Biwakplatz Kannenburg","operator":"Bernd Berlin","phone":"+49 3987 709901","tents":"yes","website":"https://www.reiseland-brandenburg.de/poi/uckermark/wasserwanderrast-und-gastliegeplaetze/biwakplatz-schleuse-kannenburg/"}},"7329121819":{"location":[53.1003552,13.4465455],"ct":"DE","tp":"CS","ts":"2023-01-21T17:49:36Z","tX":550,"tY":333,"tags":{"addr:city":"Templin","addr:housenumber":"10","addr:postcode":"17268","addr:street":"Rotdornweg","backcountry":"no","caravans":"yes","contact:mobile":"+49 152 02005694","name":"Kanustation Decker am Röddelinsee","operator":"Frau Ewi Decker, Marina Klinghammer","phone":"+49 3987 3337","tents":"yes","website":"https://www.flussinfo.net/templiner-gewaesser/wwr/kanustation-decker-roeddelin/"}},"7605449015":{"location":[53.0745692,13.391038],"ct":"DE","tp":"CS","ts":"2023-01-21T17:49:37Z","tX":550,"tY":333,"tags":{"addr:housenumber":"1","addr:street":"Kannenburger Schleuse","description":"Am Ufer vom Kuhwallsee stellen wir Euch einen Biwakplatz zur Verfügung. Er ist sehr idyllisch gelegen und wird sehr gut von Paddlern und Radfahrern angenommen. Die Ruhe ist einfach erholsam! Es sind Toiletten vorhanden und eine Feuerschale.","fee":"2,5€-3,5€","fireplace":"yes","name":"Biwakplatz Schleuse Kannenburg","opening_hours":"Mo, Fr-Su 09:00-21:00","phone":"+493877099901","toilets":"yes","website":"https://www.tinkerhof-kannenburg.de/unser-kannenburg/biwakplatz/"}},"11178388198":{"location":[52.9458119,13.378163],"ct":"DE","tp":"CS","ts":"2023-09-09T09:21:31Z","tX":550,"tY":333,"tags":{"backcountry":"yes","caravans":"no","tents":"yes"}},"10293666361":{"location":[53.1023755,13.5237889],"ct":"DE","tp":"SD","ts":"2022-12-29T18:09:23Z","tX":550,"tY":333,"tags":{"access":"yes","operator":"Naturtherme Templin"}}}