{"11009287":{"location":[52.755233,13.5175775],"ct":"DE","tp":"CS","ts":"2025-01-15T09:25:30Z","tX":550,"tY":334,"tags":{"addr:city":"Wandlitz","addr:housenumber":"8a","addr:postcode":"16348","addr:street":"Am Liepnitzsee","addr:suburb":"Lanke","caravans":"yes","drinking_water":"yes","internet_access":"no","name":"Campingplatz am Liepnitzsee","operator":"Mecklenburg Touristik GmbH","power_supply":"yes","sanitary_dump_station":"yes","shower":"yes","tents":"yes","toilets":"yes","website":"http://www.mecklenburg-tourist.de/liepnitzsee/","wheelchair":"yes","wikidata":"Q123196955","wikimedia_commons":"File:19-09-28-Wandlitz-0865-0873.jpg"}},"39545273":{"location":[52.9028888,13.6621225],"ct":"DE","tp":"CS","ts":"2022-12-09T12:23:13Z","tX":550,"tY":334,"tags":{"backcountry":"no","name":"Berolina Camping"}},"592563554":{"location":[52.7361847,13.3792058],"ct":"DE","tp":"CS","ts":"2023-10-26T19:56:01Z","tX":550,"tY":334,"tags":{"addr:city":"Zühlsdorf, Mühlenbecker Land","addr:housenumber":"1","addr:postcode":"16515","addr:street":"Mühlenstraße","caravans":"yes","contact:email":"camping-zuehlsd.muehle@web.de","contact:fax":"+49 33397 612 37","contact:phone":"+49 33397 612 37","contact:website":"www.camping-zuehlsdorf.de","name":"Campingplatz \"Zühlsdorfer Mühle\"","tents":"yes","wikidata":"Q123196741"}},"606325692":{"location":[52.8450763,13.652534],"ct":"DE","tp":"CR","ts":"2023-11-23T22:56:26Z","tX":550,"tY":334,"tags":{"name":"Marina Eisvogel","seasonal":"spring:summer;autumn"}},"621806827":{"location":[52.7912727,13.5455856],"ct":"DE","tp":"CR","ts":"2020-05-24T15:23:20Z","tX":550,"tY":334,"tags":{"addr:city":"Wandlitz","addr:postcode":"16348","addr:street":"Am Krummen Pfuhl","capacity":"7","description":"3 Nights for free","fee":"no","internet_access":"no","name":"Wohnmobilstellplatz Prenden","power_supply":"yes","sanitary_dump_station":"no","website":"https://www.wandlitz-entdecken.de/seite/342784/unterk%C3%BCnfte.html"}},"627329778":{"location":[52.8569323,13.6654184],"ct":"DE","tp":"CS","ts":"2025-01-16T07:16:34Z","tX":550,"tY":334,"tags":{"addr:city":"Schorfheide","addr:housenumber":"1","addr:postcode":"16244","addr:street":"Am Üdersee","addr:suburb":"Finowfurt","alt_name":"Campingplatz Üdersee","caravans":"yes","fee":"yes","name":"Ferienpark Üdersee","operator":"Ferienpark Üdersee-Camp GbR","tents":"yes","website":"https://www.uedersee.de/","wikidata":"Q123235910"}},"801988362":{"location":[52.7807122,13.3957365],"ct":"DE","tp":"SD","ts":"2020-05-09T17:13:40Z","tX":550,"tY":334,"tags":{"building":"yes"}},"1206226682":{"location":[52.8664302,13.3978171],"ct":"DE","tp":"CR","ts":"2024-10-11T12:19:30Z","tX":550,"tY":334,"tags":{"capacity":"11","caravan_site:type":"harbour","description":"Dusche und WC (Gebühr) am Cafe Bistro Hafen","motorcar":"yes","name":"Wohnmobilstellplatz Stadthafen Liebenwalde","power_supply":"yes","sanitary_dump_station":"yes","sanitary_dump_station:chemical_toilet":"yes","shower":"yes","toilets":"yes","water_point":"yes","website":"http://www.stadthafen-liebenwalde.de/"}},"1782684037":{"location":[52.8460069,13.6815008],"ct":"DE","tp":"CR","ts":"2023-11-22T22:59:24Z","tX":550,"tY":334,"tags":{"name":"Wasserwanderrastplatz Finowfurt","phone":"+49 160 9333 7942","website":"https://bootsverleih-schorfheide.de"}},"2298362908":{"location":[52.8195136,13.5826888],"ct":"DE","tp":"CS","ts":"2023-10-29T13:34:45Z","tX":550,"tY":334,"tags":{"addr:city":"Marienwerder","addr:country":"DE","addr:housenumber":"25","addr:postcode":"16348","addr:street":"Biesenthaler Chaussee","addr:suburb":"Ruhlsdorf","alt_name":"wake & camp ruhlsdorf","capacity":"300","caravans":"yes","dog":"yes","dryer":"yes","fee":"yes","name":"Familiencamping Ruhlesee","operator":"Markus Gerlitzki","phone":"+49 3337 451635","power_supply":"yes","sanitary_dump_station":"yes","tents":"yes","washing_machine":"yes","website":"http://www.wake-and-camp.de","wikidata":"Q123235829"}},"2583119014":{"location":[52.8110708,13.5014207],"ct":"DE","tp":"CS","ts":"2019-05-26T18:17:16Z","tX":550,"tY":334,"tags":{"camp_site":"serviced","caravans":"yes","dog":"yes","name":"Schönmacher Camping","note":"many caravans","power_supply":"yes","tents":"yes","website":"www.schoenmacher-camping.de"}},"4727723194":{"location":[52.8043081,13.5796451],"ct":"DE","tp":"CS","ts":"2024-04-10T20:28:54Z","tX":550,"tY":334,"tags":{"addr:postcode":"16348","addr:street":"Zum Mittelprendener","name":"FKK Campingplatz Mittelprendener See","name:de":"FKK Campingplatz Mittelprendener See","name:en":"FKK Campingplatz Mittelprendener See","website":"https://www.familiencamping-barnim.de/anfahrt"}},"7740071393":{"location":[52.7441574,13.5041249],"ct":"DE","tp":"CS","ts":"2020-07-23T09:56:08Z","tX":550,"tY":334,"tags":{}},"11114597150":{"location":[52.8664159,13.3974042],"ct":"DE","tp":"CS","ts":"2023-09-09T09:20:48Z","tX":550,"tY":334,"tags":{"backcountry":"yes","caravans":"no","description":"Zeltplatz für Reisende, Bitte am Cafe Hafen Bistro melden. Duschen und WC (Gebühr) am Bistro","tents":"yes"}},"11805031085":{"location":[52.8656704,13.3974557],"ct":"DE","tp":"SD","ts":"2024-06-16T15:36:16Z","tX":550,"tY":334,"tags":{}}}