{"24337188":{"location":[52.3172148,13.7090936],"ct":"DE","tp":"CS","ts":"2023-10-27T22:10:44Z","tX":550,"tY":336,"tags":{"addr:city":"Königs Wusterhausen","addr:country":"DE","addr:housenumber":"159","addr:postcode":"15712","addr:street":"Friedrich-Engels-Straße","addr:suburb":"Zernsdorf","email":"info@camping-lankensee.de","name":"Campinplatz am Lankensee","operator":"Campingplatz Lankensee GmbH","phone":"+49 3375 295 069","ref":"D69","website":"https://camping-lankensee.de","wikidata":"Q123218345"}},"35614896":{"location":[52.3714437,13.699454],"ct":"DE","tp":"CS","ts":"2023-11-07T05:46:54Z","tX":550,"tY":336,"tags":{"addr:city":"Königs Wusterhausen","addr:country":"DE","addr:housenumber":"51","addr:postcode":"15713","addr:street":"Dorfstraße","addr:suburb":"Wernsdorf","capacity":"35","email":"info@dauercamping-wernsdorf.de","fax":"+4933628810073","name":"Dauercamping am Wernsdorfer See","operator":"Hartmut Schulze","phone":"+491737975821","power_supply":"yes","website":"https://www.dauercamping-wernsdorf.de/","wikidata":"Q123138721"}},"36131528":{"location":[52.3691482,13.6861458],"ct":"DE","tp":"CS","ts":"2025-03-24T10:08:59Z","tX":550,"tY":336,"tags":{"access":"permit","addr:city":"Berlin","addr:housenumber":"38","addr:postcode":"12527","addr:street":"Wernsdorfer Straße","addr:suburb":"Schmöckwitz","caravans":"yes","email":"anfrage@campingplatz-krossinsee.de","fax":"+493070761058","fee":"yes","image":"https://commons.wikimedia.org/wiki/File:Campingplatz_Krossinsee_-_Willkommen_(Krossinsee_Campsite_-_Welcome)_-_geo.hlipp.de_-_34912.jpg","layer":"1","name":"Campingplatz Krossinsee","operator":"Campingplatz Krossinsee 1930 GmbH","phone":"+49306758687","power_supply":"yes","sanitary_dump_station":"yes","tents":"yes","website":"https://campingplatz-berlin.de/","wikidata":"Q123136532","wikimedia_commons":"Category:Campingplatz Krossinsee (Berlin-Schmöckwitz)"}},"80728335":{"location":[52.3641861,13.3747392],"ct":"DE","tp":"CS","ts":"2024-02-15T11:39:38Z","tX":550,"tY":336,"tags":{"addr:city":"Blankenfelde-Mahlow","addr:housenumber":"56","addr:postcode":"15831","addr:street":"Teltower Straße","camper":"yes","caravans":"yes","drinking_water":"yes","dryer":"yes","email":"campingbeiberlin@t-online.de","fax":"+49 3379 3128921","fee":"yes","internet_access":"wlan","kitchen":"yes","name":"Campingplatz am Mahlower See","note":"new housenumber scheme 2022","old_addr:housenumber":"34","opening_hours":"Mo-Su 07:00-22:00","operator":"Andreas Schwabe","payment:cash":"yes","payment:girocard":"yes","payment:mastercard":"yes","payment:visa":"yes","phone":"+49 3379 3128920","power_supply":"yes","sanitary_dump_station":"yes","shower":"yes","tents":"yes","toilets":"yes","toilets:wheelchair":"yes","washing_machine":"yes","website":"https://www.camping-bei-berlin.de/","wheelchair":"yes","wikidata":"Q123186127"}},"224758381":{"location":[52.3898419,13.651164],"ct":"DE","tp":"CS","ts":"2025-02-15T22:16:36Z","tX":550,"tY":336,"tags":{"check_date":"2023-07-02","image":"https://commons.wikimedia.org/wiki/File:M%C3%BCggelheim_Stra%C3%9Fe_zur_Krampenburg_Camping_Kuhle_Wampe.JPG","name":"Kuhle Wampe","natural":"wood","website":"https://zeltplatz-kuhle-wampe.de/","wikidata":"Q123137380","wikimedia_commons":"Category:Kuhle Wampe (Berlin-Müggelheim)"}},"1157191859":{"location":[52.3945375,13.447344],"ct":"DE","tp":"CR","ts":"2024-12-09T13:43:25Z","tX":550,"tY":336,"tags":{"cabins":"no","caravan_site":"motorhome_stopover","caravans":"yes","charge":"20 EUR","email":"christine.springer@gmx.net","fee":"yes","internet_access":"wlan","operator":"Christine Springer","phone":"+49 177 2752871","power_supply":"yes","reservation":"required","sanitary_dump_station":"no","static_caravans":"no","water_point":"yes"}},"1195250095":{"location":[52.3710275,13.6519027],"ct":"DE","tp":"CS","ts":"2025-01-09T10:57:34Z","tX":550,"tY":336,"tags":{"drinking_water":"yes","name":"Campingplatz FSV Zeuthener See, Halbjahrescamp-Sommer","operator":"Campingplatz FSV Zeuthner See","stars":"2","tents":"yes","toilets":"yes","website":"http://fsv-zeuthener-see.com/","wikidata":"Q123138575"}},"3741424351":{"location":[52.4254452,13.5837607],"ct":"DE","tp":"CR","ts":"2025-03-05T17:44:10Z","tX":550,"tY":336,"tags":{"addr:city":"Berlin","addr:housenumber":"350–354","addr:postcode":"12557","addr:street":"Wendenschloßstraße","barbecue_grill":"yes","caravan_site":"motorhome_stopover","caravan_site:type":"harbour","charge":"30 EUR","drinking_water":"yes","email":"info@bwsg-berlin.de","fax":"+49 30 6519422","fee":"yes","internet_access":"yes","name":"Marina Wendenschloß","operator":"Berliner Wassersport und Service GmbH","phone":"+49 30 6513415","power_supply":"yes","power_supply:fee":"no","sanitary_dump_station":"yes","shower":"yes","tents":"no","toilets":"yes","water_point":"yes","water_point:fee":"no","website":"https://www.bwsg-berlin.de/de/marina/wohnmobilstellplaetze/"}},"3741438802":{"location":[52.4188774,13.5876912],"ct":"DE","tp":"CR","ts":"2025-03-05T17:53:33Z","tX":550,"tY":336,"tags":{"addr:city":"Berlin","addr:country":"DE","addr:housenumber":"1","addr:postcode":"12557","addr:street":"Müggelbergallee","addr:suburb":"Köpenick","charge":"29 EUR","dog":"leashed","drinking_water":"yes","email":"info@reisemobilstellplatz-berlin.de","fax":"+49 30 6555779","fee":"yes","internet_access":"wlan","internet_access:fee":"yes","name":"Historisches Fährhaus","operator":"Rainer Löber","phone":"+49 30 65474425","power_supply":"yes","power_supply:charge":"7 EUR","power_supply:fee":"yes","reservation":"yes","sanitary_dump_station":"customers","shower":"yes","tents":"no","waste_disposal":"yes","website":"https://www.reisemobilstellplatz-berlin.de/"}},"10744088812":{"location":[52.4308871,13.5709476],"ct":"DE","tp":"CR","ts":"2024-11-21T20:09:37Z","tX":550,"tY":336,"tags":{"caravan_site":"motorhome_stopover","caravan_site:type":"hotel","charge":"15 EUR","email":"contact@neohostel.com","fee":"yes","name":"Neohostel City Camping","operator":"Neohostel","phone":"+49 30509301550","power_supply":"no","sanitary_dump_station":"no","tents":"no","toilets":"yes","water_point":"no","website":"https://neohostel.com/"}},"6764113729":{"location":[52.3645927,13.3754939],"ct":"DE","tp":"SD","ts":"2019-09-01T15:32:39Z","tX":550,"tY":336,"tags":{"opening_hours":"24/7","sanitary_dump_station:pump-out":"no"}}}