{"26312600":{"location":[52.2660207,13.6554119],"ct":"DE","tp":"CS","ts":"2023-11-02T15:05:15Z","tX":550,"tY":337,"tags":{"addr:city":"Königs Wusterhausen","addr:housenumber":"34-38","addr:postcode":"15711","addr:street":"Senziger Straße","caravans":"yes","email":"koerbiskrug@campingdomizil.de","fax":"+4933755259570","fee":"yes","name":"Campingdomizil Körbiskrug","operator":"Roberto Heß","phone":"+493375902052","power_supply":"yes","tents":"yes","website":"https://www.campingdomizil.de/","wikidata":"Q123284099"}},"42343828":{"location":[52.2555791,13.6704161],"ct":"DE","tp":"CS","ts":"2021-02-16T22:37:06Z","tX":550,"tY":337,"tags":{"name":"Camping Tonsee FKK","nudism":"designated","website":"https://www.camping-bestensee.de/tonsee.html"}},"49617786":{"location":[52.1569348,13.6214851],"ct":"DE","tp":"CS","ts":"2021-07-29T20:12:36Z","tX":550,"tY":337,"tags":{"name":"Camping-Club Schweriner See","website":"https://www.camping-gross-koeris.de/"}},"61694239":{"location":[52.1579623,13.6832688],"ct":"DE","tp":"CS","ts":"2024-09-03T14:46:45Z","tX":550,"tY":337,"tags":{"addr:city":"Groß Köris","addr:country":"DE","addr:housenumber":"1","addr:postcode":"15746","addr:street":"Klein Köriser Weg","addr:suburb":"Löpten","barrier":"fence","contact:phone":"+49 173 6212092","contact:website":"https://www.tonseecamping.de/","name":"Wald- und Naturcampingplatz am Tonsee Süd","operator":"Görner","wheelchair":"no"}},"111807598":{"location":[52.2312574,13.6148582],"ct":"DE","tp":"CS","ts":"2023-11-03T08:26:50Z","tX":550,"tY":337,"tags":{"addr:city":"Bestensee","addr:housenumber":"68","addr:postcode":"15741","addr:street":"Motzener Straße","caravans":"yes","fee":"yes","name":"Naturcamping Kiessee","static_caravans":"yes","tents":"yes","website":"https://www.camping-bestensee.de/","wikidata":"Q123291973"}},"114007710":{"location":[52.2098905,13.5669347],"ct":"DE","tp":"CS","ts":"2023-11-07T05:46:02Z","tX":550,"tY":337,"tags":{"addr:city":"Zossen","addr:housenumber":"17","addr:postcode":"15806","addr:street":"Seestraße","caravans":"yes","email":"info@camping-kallinchen.de","fax":"+49 33769 20577","internet_access":"wlan","name":"Am Motzener See","official_name":"Campingplatz Kallinchen am Motzener See","operator":"Kalli GmbH","phone":"+49 33769 50381","sanitary_dump_station":"yes","tents":"yes","website":"https://www.camping-kallinchen.de/","wikidata":"Q123310425"}},"235617871":{"location":[52.2525187,13.6696236],"ct":"DE","tp":"CS","ts":"2013-08-29T11:12:52Z","tX":550,"tY":337,"tags":{"name":"Vereinsgelände Berliner Bär","nudism":"designated"}},"281412410":{"location":[52.1058166,13.5152151],"ct":"DE","tp":"CS","ts":"2019-03-13T03:59:36Z","tX":550,"tY":337,"tags":{"name":"Campingplatz Zesch am See","website":"https://campingplatzzeschamsee.de/"}},"339824907":{"location":[52.1286704,13.5935863],"ct":"DE","tp":"CS","ts":"2024-08-16T17:08:19Z","tX":550,"tY":337,"tags":{"addr:city":"Teupitz","addr:housenumber":"49","addr:postcode":"15755","addr:street":"Chausseestraße","name":"Relax Camping","website":"https://www.relaxcamping.de/"}},"388516239":{"location":[52.1652387,13.6347281],"ct":"DE","tp":"CS","ts":"2019-08-25T10:10:56Z","tX":550,"tY":337,"tags":{"access":"private","addr:city":"Groß Köris","addr:housenumber":"12","addr:postcode":"15746","addr:street":"Gartenstraße","caravans":"no","group_only":"yes","name":"Kinder- u. Jugenddorf Rankenheim","tents":"yes"}},"477469760":{"location":[52.2232525,13.5582168],"ct":"DE","tp":"CS","ts":"2024-02-15T12:22:36Z","tX":550,"tY":337,"tags":{"access":"customers","addr:city":"Zossen","addr:country":"DE","addr:housenumber":"7","addr:postcode":"15806","addr:street":"Zum Haidchen","alt_name":"AKK Birkenheide e.V.","area":"yes","caravans":"yes","email":"platzwart@akk-birkenheide.de","fax":"+49 33769 50267","fee":"yes","name":"Allgemeine Körperkultur Birkenheide","nudism":"obligatory","old_addr:street":"Haidchenweg","operator":"Allgemeine Körperkultur Birkenheide e.V.","phone":"+49 33769 50267","short_name":"AKK-B","shower":"yes","tents":"yes","website":"https://www.akk-birkenheide.org/","wikidata":"Q123301312"}},"600043602":{"location":[52.1946059,13.7033091],"ct":"DE","tp":"CS","ts":"2023-11-25T06:56:53Z","tX":550,"tY":337,"tags":{"addr:city":"Heidesee OT Gräbendorf","addr:housenumber":"2","addr:postcode":"15754","addr:street":"Weg zum Hölzernen See","name":"Campingplatz Hölzerner See","operator":"Mecklenburg Tourist GmbH","tents":"yes","wheelchair":"yes","wikidata":"Q123201068"}},"613036784":{"location":[52.1575242,13.4679342],"ct":"DE","tp":"CR","ts":"2019-09-25T09:49:20Z","tX":550,"tY":337,"tags":{"capacity":"6","charge":"15 EUR","fee":"yes","name":"Am Strandbad Wünsdorf","power_supply":"yes","tents":"no"}},"657021113":{"location":[52.1605007,13.6876625],"ct":"DE","tp":"CS","ts":"2024-09-03T14:46:45Z","tX":550,"tY":337,"tags":{"addr:city":"Groß Köris","addr:country":"DE","addr:housenumber":"15","addr:postcode":"15746","addr:street":"Am Hang","contact:instagram":"https://www.instagram.com/tonsee.duering","contact:phone":"+49 33766 41595","contact:website":"http://www.tonsee-düring.de/","name":"Dürings Campingplatz am Tonsee"}},"813709745":{"location":[52.1538993,13.6113649],"ct":"DE","tp":"CS","ts":"2021-04-22T19:11:19Z","tX":550,"tY":337,"tags":{"addr:city":"Teupitz","addr:housenumber":"2","addr:postcode":"15755","addr:street":"Weg zum großen Fenster","name":"Naturcamping Teupitz e.V."}},"933231538":{"location":[52.1598027,13.6886321],"ct":"DE","tp":"CS","ts":"2021-04-21T08:38:40Z","tX":550,"tY":337,"tags":{"access":"private","name":"Interessengemeinschaft Campingobjekt „Tonsee“ e.V."}},"2143204603":{"location":[52.1022216,13.3770282],"ct":"DE","tp":"PK","ts":"2024-12-03T17:55:01Z","tX":550,"tY":337,"tags":{"motorhome":"yes","parking":"surface"}},"5001629083":{"location":[52.1339084,13.3759713],"ct":"DE","tp":"CS","ts":"2023-01-04T05:03:02Z","tX":550,"tY":337,"tags":{"addr:city":"Am Mellensee","addr:country":"DE","addr:housenumber":"16a","addr:postcode":"15838","addr:street":"Neuendorfer Straße","addr:suburb":"Sperenberg","capacity:caravans":"2","capacity:tents":"3","caravans":"yes","fee":"yes","name":"Fahrradverleih Daske , Zelt - und Wohnmobilstellplatz","openfire":"yes","operator":"Bert Daske","power_supply":"yes","sanitary_dump_station":"yes","tents":"yes","website":"http://www.fahrradverleih-daske.de"}},"5766606343":{"location":[52.1694492,13.6822246],"ct":"DE","tp":"CS","ts":"2023-07-29T17:42:14Z","tX":550,"tY":337,"tags":{"name":"Campingplatz Jugendherberge"}},"4335191408":{"location":[52.1897172,13.4159268],"ct":"DE","tp":"CR","ts":"2016-08-04T09:21:52Z","tX":550,"tY":337,"tags":{}},"7767896295":{"location":[52.1017256,13.3771479],"ct":"DE","tp":"CR","ts":"2020-07-29T20:42:28Z","tX":550,"tY":337,"tags":{}},"7945307658":{"location":[52.2344063,13.4478955],"ct":"DE","tp":"CR","ts":"2020-09-29T13:52:36Z","tX":550,"tY":337,"tags":{"addr:city":"Zossen","addr:housenumber":"1a","addr:postcode":"15806","addr:street":"Machnower Chaussee","capacity":"6","capacity:charging":"no","fee":"yes","internet_access":"no","motorhome":"yes","name":"Wohnmobilstellplatz am Hotel Reuner in Zossen","parking":"surface","power_supply":"yes","sanitary_dump_station":"no","surface":"grass","tents":"no","traffic_sign":"DE:314","water_point":"yes","website":"https://www.hotel-reuner.de/"}},"9267668431":{"location":[52.1576213,13.4679846],"ct":"DE","tp":"CR","ts":"2024-12-30T11:52:59Z","tX":550,"tY":337,"tags":{"addr:city":"Zossen","addr:housenumber":"90","addr:postcode":"15806","addr:street":"Wünsdorfer Seestraße","addr:suburb":"Wünsdorf","capacity":"8","email":"vl-vorzimmer@svzossen.brandenburg.de","internet_access":"wlan","internet_access:fee":"customers","name":"Am Strandbad Wünsdorf in Zossen","phone":"+49 3377 3040 0","power_supply":"yes","sanitary_dump_station":"yes","website":"https://www.promobil.de/stellplatz/wohnmobilstellplatz-am-strandbad-wuensdorf-5f17142a80f4500800ad3c90.html"}},"9173643012":{"location":[52.1576716,13.4677184],"ct":"DE","tp":"SD","ts":"2021-10-15T03:10:58Z","tX":550,"tY":337,"tags":{"description":"Accessible only from the inside."}}}