{"30845422":{"location":[51.1435508,13.6750608],"ct":"DE","tp":"CS","ts":"2024-08-14T21:48:51Z","tX":550,"tY":342,"tags":{"addr:city":"Moritzburg","addr:country":"DE","addr:housenumber":"115","addr:postcode":"01468","addr:street":"Dresdner Straße","capacity":"140","caravans":"yes","drinking_water":"yes","email":"info@bad-sonnenland.de","fixme":"Umzäunung Bad Sonnenland ergänzen","internet_access":"wlan","name":"Ferienpark Bad Sonnenland","operator":"Kulturlandschaft Moritzburg GmbH","phone":"+49 351 8305495","power_supply":"yes","shower":"yes","source":"Yahoo;survev","tents":"yes","website":"https://www.bad-sonnenland.de/","website:en":"http://www.bad-sonnenland.de/lang/en/","wheelchair":"limited"}},"67151063":{"location":[51.1793153,13.6771901],"ct":"DE","tp":"CS","ts":"2019-02-07T22:42:53Z","tX":550,"tY":342,"tags":{"addr:city":"Moritzburg","addr:housenumber":"1B","addr:postcode":"01468","addr:street":"Kalkreuther Straße","contact:website":"http://dauercampingfreunde-moritzburg.de","email":"info@dauercampingfreunde-moritzburg.de","name":"Mittelteichbad Moritzburg","operator":"Dauercampingfreunde-Moritzburg e.V.","tents":"no","website":"http://dauercampingfreunde-moritzburg.de"}},"118174489":{"location":[51.1388256,13.496535],"ct":"DE","tp":"CS","ts":"2024-08-28T21:19:39Z","tX":550,"tY":342,"tags":{"access":"customers","addr:city":"Klipphausen","addr:country":"DE","addr:housenumber":"4","addr:postcode":"01665","addr:street":"Rehbocktal","addr:suburb":"Scharfenberg","cabins":"yes","capacity":"30","caravans":"yes","contact:phone":"+49 3521 404827","contact:website":"https://www.camping-rehbocktal.de/","drinking_water":"yes","email":"info@camping-rehbocktal.de","internet_access":"wlan","kitchen":"yes","motor_vehicle":"yes","motorhome":"yes","name":"Rehbocktal","operator":"Ramona Kaiser","picnic_table":"yes","power_supply":"yes","sanitary_dump_station":"customers","shower":"yes","tents":"yes","toilets":"yes","washing_machine":"yes"}},"118783635":{"location":[51.1198735,13.5636304],"ct":"DE","tp":"CS","ts":"2024-06-26T08:15:59Z","tX":550,"tY":342,"tags":{"addr:city":"Coswig","addr:country":"DE","addr:housenumber":"33","addr:postcode":"01640","addr:street":"Brockwitzer Straße","alt_name":"Campingplatz „Am Badesee Coswig-Kötitz“","area":"yes","capacity":"65","caravans":"yes","dog":"yes","drinking_water":"yes","email":"info@badesee-coswig.de","fee":"yes","hot_water":"yes","internet_access":"wlan","kitchen":"yes","lit":"yes","name":"Am Badesee Coswig-Kötitz","operator":"Technische Werke Coswig GmbH","phone":"+49 3523 700200 or 75 345","power_supply":"yes","shower":"hot","swimming_pool":"yes","tents":"yes","toilets":"yes","washing_machine":"yes","website":"https://www.badesee-coswig.de/","wheelchair":"yes"}},"166871048":{"location":[51.1678153,13.4733445],"ct":"DE","tp":"CR","ts":"2023-05-28T13:31:54Z","tX":550,"tY":342,"tags":{"addr:city":"Meißen","addr:postcode":"01662","addr:street":"Hochuferstraße","capacity":"30","fee":"yes","internet_access":"no","name":"Caravanplatz am Elbkai","power_supply":"no","sanitary_dump_station":"no","surface":"sett","toilets":"no","wheelchair":"yes"}},"194298486":{"location":[51.0850655,13.6809688],"ct":"DE","tp":"CR","ts":"2023-06-11T07:41:54Z","tX":550,"tY":342,"tags":{"addr:city":"Dresden","addr:housenumber":"125","addr:postcode":"01139","addr:street":"Kötzschenbroder Straße","capacity":"100","caravans":"yes","charge":"20€","contact:email":"schaffer@schaffer-mobil.de","contact:phone":"+49 351 83748-0","fee":"yes","name":"Schaffer-Mobil","opening_hours":"08:00-18:00","operator":"schaffer-mobil Wohnmobile GmbH","power_supply":"yes","sanitary_dump_station":"yes","tents":"no","water_point":"yes","website":"https://www.schaffer-mobil.de/stellplatz/caravaningpark/caravaningpark.html","wheelchair":"yes"}},"205773966":{"location":[51.1715195,13.5169326],"ct":"DE","tp":"CR","ts":"2021-01-02T14:01:56Z","tX":550,"tY":342,"tags":{"addr:city":"Meißen","addr:country":"DE","addr:housenumber":"1","addr:postcode":"01662","addr:street":"Nassauweg","addr:suburb":"Nassau","capacity":"20","name":"Wohnmobilstellplatz am Hotel Landhaus Nassau"}},"285882369":{"location":[51.1035307,13.6249505],"ct":"DE","tp":"CR","ts":"2021-08-17T20:53:26Z","tX":550,"tY":342,"tags":{"capacity":"14","caravans":"yes","contact:mobile":"+49 176 67032256","contact:phone":"+49 351 8386837","description":"Eine Ver-/Entsorgung mit Frisch-/Abwasser (in Tanks) und Toi ist nicht möglich, bitte Station an der BAB DD Neustadt nutzen.","email":"info@bootshaus-radebeul.de","fee":"yes","name":"SSV Planeta Radebeul","operator":"SSV Planeta Radebeul e.V.","phone":"+49 351 8386837","power_supply":"yes","sanitary_dump_station":"no","surface":"grass","water_point":"no","website":"http://www.kanu-radebeul.de/bootshaus/zeltplatz.html"}},"303387732":{"location":[51.1038901,13.6242615],"ct":"DE","tp":"CS","ts":"2020-02-18T18:02:55Z","tX":550,"tY":342,"tags":{"addr:city":"Radebeul","addr:country":"DE","addr:housenumber":"9","addr:postcode":"01445","addr:street":"An der Festwiese","contact:phone":"+49 176 67032256","name":"Bootshaus SSV Planeta","operator":"SSV Planeta Radebeul e.V.","phone":"+49 351 8386837","tents":"yes","website":"http://bootshaus-radebeul.de/"}},"361043915":{"location":[51.0028044,13.3596375],"ct":"DE","tp":"CS","ts":"2016-06-05T20:52:30Z","tX":550,"tY":342,"tags":{"contact:email":"campingplatz-reinsberg@web.de","contact:mobile":"+49 152 05602863","contact:phone":"+49 37324 82268","name":"Campingplatz Reinsberg","operator":"Kerstin Kopp","power_supply":"yes","url":"http://www.campingplatz-reinsberg.de/"}},"753326597":{"location":[50.9736416,13.6212237],"ct":"DE","tp":"CR","ts":"2025-01-08T01:47:10Z","tX":550,"tY":342,"tags":{"capacity":"6","caravan_site":"motorhome_stopover","caravan_site:type":"sports_centre","fee":"yes","maxheight":"4","name":"Caravanstellplätze \"Hains\" Freizeitzentrum - Freital","power_supply":"yes","sanitary_dump_station":"yes","shower":"yes","toilets":"yes","water_point":"yes","website":"https://www.hains.de/caravan","wheelchair":"yes"}},"852281396":{"location":[50.9928034,13.453984],"ct":"DE","tp":"CR","ts":"2023-03-23T19:40:23Z","tX":550,"tY":342,"tags":{"capacity":"5","fee":"yes","internet_access":"no","name":"Zur Platane","opening_hours":"24/7","operator":"J. Löbel","phone":"+491723735262","power_supply":"yes","reservation":"recommended","sanitary_dump_station":"yes"}},"1279686849":{"location":[51.1594638,13.5605495],"ct":"DE","tp":"CR","ts":"2024-05-04T16:12:22Z","tX":550,"tY":342,"tags":{"capacity":"3","fee":"no","power_supply":"no","sanitary_dump_station":"no"}},"1307474927":{"location":[51.1450685,13.6762244],"ct":"DE","tp":"CS","ts":"2024-08-15T01:11:59Z","tX":550,"tY":342,"tags":{"addr:city":"Moritzburg","addr:housenumber":"115","addr:postcode":"01468","addr:street":"Dresdner Straße","beds":"68","email":"info-kmd@gmx.de","group_only":"yes","guest_house":"self_catering","internet_access":"no","name":"Kinder- & Jugenddorf \"Karl May\"","operator":"Karl-May-Dorf e.V.","phone":"+49 351 79696546","power_supply":"yes","rooms":"19","shower":"yes","toilets":"yes","toilets:wheelchair":"no","website":"https://www.karl-may-dorf.net","wheelchair":"limited"}},"1316800276":{"location":[51.1630976,13.678011],"ct":"DE","tp":"CR","ts":"2024-09-19T20:59:31Z","tX":550,"tY":342,"tags":{"access":"yes","capacity:disabled":"yes","charge":"10€","fee":"yes","name":"Wohnmobilstellplatz Schloss Moritzburg","parking":"surface","power_supply":"yes","sanitary_dump_station":"no","tents":"no","toilets:wheelchair":"yes","water_point":"unset","wheelchair":"yes"}},"1399698097":{"location":[51.1745203,13.5007919],"ct":"DE","tp":"CR","ts":"2011-08-15T11:46:21Z","tX":550,"tY":342,"tags":{}},"2254141232":{"location":[51.1295092,13.435644],"ct":"DE","tp":"CS","ts":"2023-11-08T04:23:18Z","tX":550,"tY":342,"tags":{"email":"barth-muehle@t-online.de","name":"Barth-Mühle","phone":"+49 3521 400660","website":"https://www.barthmuehle.de/"}},"12095161701":{"location":[51.1234397,13.6486453],"ct":"DE","tp":"CS","ts":"2024-08-10T08:12:52Z","tX":550,"tY":342,"tags":{"internet_access":"wlan","website":"https://www.bilz-camping.de/"}},"8202147008":{"location":[51.0973243,13.6549124],"ct":"DE","tp":"CR","ts":"2020-12-07T14:43:43Z","tX":550,"tY":342,"tags":{"addr:city":"Radebeul","addr:housenumber":"64","addr:postcode":"01445","addr:street":"Kötzschenbrodaer Straße","charge":"9,80 € per day","fee":"yes","name":"Wohnmobilstellplatz Radebeul","operator":"https://www.m-rent2go.de/shop/Objekt/80-Stellpl%C3%A4tze","phone":"+49 179 3635074","website":"http://wohnmobilstellplatz-radebeul.de/"}},"9162202968":{"location":[51.111327,13.6192584],"ct":"DE","tp":"CR","ts":"2023-11-19T06:44:06Z","tX":550,"tY":342,"tags":{"contact:website":"https://www.schloss-wackerbarth.de/service/caravan-stellplatz","fee":"10 EUR","name":"Caravan-Stellplatz Schloss Wackerbarth","operator":"Sächsisches Staatsweingut Schloss Wackerbarth","power_supply":"no","sanitary_dump_station":"no","tents":"no","water_point":"no"}},"9533327655":{"location":[51.0309421,13.6951929],"ct":"DE","tp":"SD","ts":"2022-02-24T21:06:45Z","tX":550,"tY":342,"tags":{"access":"private"}},"12140925039":{"location":[51.1388021,13.4979685],"ct":"DE","tp":"SD","ts":"2024-08-27T22:07:02Z","tX":550,"tY":342,"tags":{"access":"customers","water_point":"yes"}}}