{"105643205":{"location":[50.6271991,13.4562374],"ct":"DE","tp":"CS","ts":"2023-11-03T06:58:40Z","tX":550,"tY":344,"tags":{"addr:city":"Seiffen/Erzgeb.","addr:country":"DE","addr:housenumber":"57","addr:postcode":"09548","addr:street":"Deutschneudorfer Straße","addr:suburb":"Oberseiffenbach","caravans":"yes","name":"Ferienpark Seiffen","phone":"+49 37362 150","tents":"yes","website":"https://ferienpark-seiffen.de/","wheelchair":"limited"}},"180736013":{"location":[50.7325049,13.6644399],"ct":"DE","tp":"CR","ts":"2023-11-03T06:57:59Z","tX":550,"tY":344,"tags":{"capacity":"4","email":"info@swf-sporthotel.de","fax":"+49 35057 54591","fee":"yes","name":"Reisemobilstellplatz SWF Ski- u. Sporthotel","phone":"+49 35057 54590","power_supply":"yes","website":"https://www.swf-sporthotel.de/"}},"256632170":{"location":[50.7012582,13.4912136],"ct":"DE","tp":"CR","ts":"2020-07-17T10:45:25Z","tX":550,"tY":344,"tags":{"name":"Ölmühle"}},"321181364":{"location":[50.6212357,13.6846332],"ct":"CZ","tp":"CS","ts":"2024-09-20T06:02:27Z","tX":550,"tY":344,"tags":{"caravans":"yes","drinking_water":"yes","fax":"+420-417 837 221","internet_access":"wlan","maxtents":"50","name":"Autocamp Osek","phone":"+420-603 523 489","power_supply":"yes","tents":"yes","website":"https://www.autocamposek.cz/"}},"399313151":{"location":[50.6262065,13.4577872],"ct":"DE","tp":"CR","ts":"2016-02-22T20:44:11Z","tX":550,"tY":344,"tags":{"name":"Ferienpark Seiffen"}},"1257170423":{"location":[50.6460699,13.4861479],"ct":"DE","tp":"CR","ts":"2025-01-08T17:20:49Z","tX":550,"tY":344,"tags":{"caravan_site":"motorhome_stopover","caravan_site:type":"restaurant","caravans":"yes","dog":"yes","ele":"750","fee":"yes","name":"Waldgasthof Bad Einsiedel Stellplätze","operator":"Waldgasthof Bad Einsiedel","power_supply":"yes","tents":"no","website":"https://waldgasthof-bad-einsiedel.de/freizeit-in-und-um-seiffen/camper-caravan-stellplatz-seiffen/"}},"2956982232":{"location":[50.5255249,13.6215182],"ct":"CZ","tp":"CS","ts":"2024-07-15T21:51:54Z","tX":550,"tY":344,"tags":{"caravans":"yes","description":"open 1.5. - 30.9.","name":"Kemp - tábořiště Matylda","phone":"+420 725 958 011","tents":"yes","website":"https://www.tsmost.cz/sluzby/matylda-kemp"}},"12466891377":{"location":[50.6465043,13.4863418],"ct":"DE","tp":"SD","ts":"2025-01-01T14:10:30Z","tX":550,"tY":344,"tags":{"access":"yes","fee":"yes","opening_hours":"24/7","operator":"Waldgasthof Bad Einsiedel"}}}