{"87828429":{"location":[48.9722047,13.675052],"ct":"CZ","tp":"CS","ts":"2022-08-27T10:41:20Z","tX":550,"tY":351,"tags":{"name":"Zahrádky"}},"127714565":{"location":[48.9419302,13.5725545],"ct":"DE","tp":"CR","ts":"2025-04-02T19:14:04Z","tX":550,"tY":351,"tags":{"access":"customers","addr:city":"Mauth","addr:country":"DE","addr:housenumber":"52","addr:postcode":"94151","addr:street":"Buchwaldstraße","addr:suburb":"Finsterau","capacity":"50","caravan_site":"motorhome_stopover","caravan_site:type":"camp_site","caravans":"yes","charge":"23.20 EUR","charge:conditional":"15.60 EUR @(\"low_season\")","check_date":"2024-05-14","check_in":"12:30","check_out":"11:00","description":"Das Anderswo Camp ist ein kleiner familiengeführter Campingplatz direkt am Nationalpark Bayerischer Wald. Momentan verfügen wir über ca. 50 unparzellierte Plätze für Wohnmobile, Wohnwägen, Campervans und Zelte.","dog":"yes","drinking_water":"yes","email":"buchung@anderswo-camp.de","fee":"yes","image":"https://anderswo-camp.de/wp-content/uploads/2021/05/Platz_Tag-1024x576.jpg","internet_access":"yes","name":"Anderswo Camp","openfire":"yes","opening_hours:reception":"Mo-Su 09:00-11:00, 16:00-18:00","operator":"Anderswo - Natur & Kultur GmbH (Inhaber: Steffen und Julia Lorenz)","payment:app":"Paypal","payment:cash":"yes","payment:contactless":"yes","payment:debit_cards":"yes","payment:girocard":"yes","payment:paypal":"yes","phone":"+49 8557 72780110","power_supply":"yes","power_supply:fee":"yes","reservation":"recommended","sanitary_dump_station":"yes","shower":"yes","start_date":"2021-06-18","tents":"yes","toilets":"yes","website":"https://anderswo-camp.de/"}},"233081072":{"location":[49.057461,13.5115153],"ct":"CZ","tp":"CS","ts":"2017-11-04T15:10:03Z","tX":550,"tY":351,"tags":{"building":"civic","building:ruian:type":"5","camp_site":"reception","name":"Antýgl","name:cs":"Antýgl","name:de":"Antigel","ref:ruian:building":"45155054","source":"cuzk:ruian"}},"233081075":{"location":[49.0582964,13.5112052],"ct":"CZ","tp":"CR","ts":"2023-11-25T06:54:35Z","tX":550,"tY":351,"tags":{"email":"kempantygl@sumava.net","fee":"yes","name":"Antýgl","name:cs":"Antýgl","name:de":"Antigel","openfire":"yes","phone":"+420 376 599 331","power_supply":"yes","tents":"yes","website":"http://www.sumava.net/antygl/"}},"283596292":{"location":[49.0240919,13.4909162],"ct":"CZ","tp":"CS","ts":"2023-11-07T03:28:31Z","tX":550,"tY":351,"tags":{"backcountry":"yes","caravans":"no","fee":"no","name":"Modrava","note:cs":"Nouzové nocoviště","note:de":"Notübernachtungsplätze","note:en":"Emergency night shelter","openfire":"no","surface":"grass","tents":"yes","website":"https://www.npsumava.cz/cz/1336/sekce/nouzova-nocoviste/"}},"283607142":{"location":[48.9714664,13.6758544],"ct":"CZ","tp":"CR","ts":"2011-01-14T16:19:05Z","tX":550,"tY":351,"tags":{}},"292875476":{"location":[49.1415526,13.5125179],"ct":"CZ","tp":"CS","ts":"2022-08-15T10:00:30Z","tX":550,"tY":351,"tags":{"cabins":"yes","caravans":"yes","email":"klasterskymlyn@ptnet.cz","motor_vehicle":"yes","name":"Klášterský Mlýn","openfire":"yes","phone":"+420 601 589 866","tents":"yes","website":"https://www.klasterskymlyn.cz/cz/autocamp"}},"473467160":{"location":[48.9712913,13.5974144],"ct":"CZ","tp":"CS","ts":"2023-11-07T03:28:20Z","tX":550,"tY":351,"tags":{"backcountry":"yes","caravans":"no","fee":"no","name":"Bučina, nouzové nocoviště","note:cs":"Nouzové nocoviště","note:de":"Notübernachtungsplätze","note:en":"Emergency night shelter","openfire":"no","surface":"grass","tents":"yes","website":"https://www.npsumava.cz/cz/1336/sekce/nouzova-nocoviste/"}},"518547823":{"location":[49.0580484,13.5129229],"ct":"CZ","tp":"CS","ts":"2025-06-21T14:43:39Z","tX":550,"tY":351,"tags":{"caravans":"yes","drinking_water":"yes","email":"kempantygl@sumava.net","fee":"yes","name":"Antýgl","name:cs":"Antýgl","name:de":"Antigel","phone":"+420 376 599 331","power_supply":"yes","sanitary_dump_station":"no","shower":"yes","tents":"yes","toilets":"yes","website":"http://www.sumava.net/antygl/"}},"828904644":{"location":[49.1380764,13.7039906],"ct":"CZ","tp":"CS","ts":"2010-07-22T15:20:00Z","tX":550,"tY":351,"tags":{"name":"Autokemp Rohanov"}},"954702666":{"location":[49.1177195,13.6715263],"ct":"CZ","tp":"CS","ts":"2015-04-08T16:58:32Z","tX":550,"tY":351,"tags":{"name":"Adolf Žižka - Kemp Úbislav"}},"963380363":{"location":[48.9409333,13.569444],"ct":"DE","tp":"CS","ts":"2021-07-11T11:06:17Z","tX":550,"tY":351,"tags":{"access":"permissive","area":"yes","capacity":"100","fee":"yes","operator":"Feriendorf Finsterau","surface":"grass"}},"1086494852":{"location":[49.1086925,13.3826589],"ct":"CZ","tp":"CS","ts":"2025-05-31T20:46:25Z","tX":550,"tY":351,"tags":{"cabins":"no","camp_site":"serviced","caravans":"yes","contact:phone":"+420 736 658 752","drinking_water":"yes","motor_vehicle":"yes","name":"Veřejné tábořiště Prášily","openfire":"yes","operator":"obec Prášily","permanent_camping":"no","power_supply":"yes","sanitary_dump_station":"no","shower":"yes","surface":"grass","tents":"yes","toilets":"yes"}},"1905900717":{"location":[49.1216377,13.4897468],"ct":"CZ","tp":"CS","ts":"2012-09-08T18:30:05Z","tX":550,"tY":351,"tags":{"name":"Pavlova Louka","source":"http://www.gps-data-team.com/where/Camping_Pavlova_Louka"}},"4011963920":{"location":[49.0240232,13.4891965],"ct":"CZ","tp":"CS","ts":"2022-12-28T13:10:52Z","tX":550,"tY":351,"tags":{"access":"yes","backcountry":"yes","capacity:caravans":"0","capacity:tents":"5","description:en":"\"emergency overnight campsite\"","maxstay":"1 night","name":"Nouzové nocoviste","opening_hours":"18:00-09:00","power_supply":"no","shower":"no","toilets":"yes"}},"4434144982":{"location":[49.0644292,13.3952902],"ct":"CZ","tp":"CS","ts":"2023-11-02T09:55:07Z","tX":550,"tY":351,"tags":{"backcountry":"yes","caravans":"no","fee":"no","name":"Poledník","name:de":"Notübernachtungsplatz","note:cs":"Nouzové nocoviště","note:en":"Emergency night shelter","openfire":"no","surface":"grass","tents":"yes","website":"https://www.npsumava.cz/cz/1336/sekce/nouzova-nocoviste/"}},"6602836686":{"location":[49.1523662,13.5126703],"ct":"CZ","tp":"CS","ts":"2019-07-10T13:48:40Z","tX":550,"tY":351,"tags":{"name":"Kemp Yukon","name:en":"Camping Yukon","name:nl":"Camping Yukon"}}}