{"17953326":{"location":[48.8906628,13.4542588],"ct":"DE","tp":"CS","ts":"2024-08-20T07:10:43Z","tX":550,"tY":352,"tags":{"group_only":"yes","name":"Jugendzeltplatz","website":"https://www.nationalpark-bayerischer-wald.bayern.de/lernort/jugendzeltplatz/index.htm"}},"144592196":{"location":[48.772784,13.4675277],"ct":"DE","tp":"CS","ts":"2023-08-16T15:25:43Z","tX":550,"tY":352,"tags":{"caravans":"no","fax":"+49 8555 406946","name":"Zeltplatz Messerschmidmühle","phone":"+49 8555 4668","tents":"yes","website":"https://jugendhaeuser.bistum-passau.de/jugendhaeuser/zeltplatz-messerschmidmuehle"}},"158758281":{"location":[48.7349157,13.4364167],"ct":"DE","tp":"CS","ts":"2023-11-04T01:00:51Z","tX":550,"tY":352,"tags":{"access":"customers","caravans":"no","description":"Only Tents on this side, no Cars on the Place allowed","email":"info@schrottenbaummuehle.de","name":"Camping Schrottenbaummühle","operator":"Gasthof Segl","phone":"+49 8504 1739","tents":"yes","website":"https://www.schrottenbaummuehle.de/"}},"175968518":{"location":[48.7342998,13.4371384],"ct":"DE","tp":"CR","ts":"2024-06-29T14:30:44Z","tX":550,"tY":352,"tags":{"caravans":"yes","email":"info@schrottenbaummuehle.de","fee":"yes","name":"Campingplatz Schrottenbaummühle","phone":"+49 8504 1739","power_supply":"yes","tents":"no","website":"https://www.schrottenbaummuehle.de/"}},"336964622":{"location":[48.8546357,13.4031936],"ct":"DE","tp":"CR","ts":"2024-08-04T09:07:18Z","tX":550,"tY":352,"tags":{"addr:city":"Grafenau","addr:country":"DE","addr:postcode":"94481","addr:street":"Freyunger Straße","area":"yes","capacity":"18","charge":"10 EUR + 3 EUR/pax","contact:email":"tourismus@grafenau.de","contact:phone":"+49 8552 962343","contact:website":"http://www.grafenau.de/urlaub-service/urlaub-mit-dem-wohnmobil.html","dog":"yes","drinking_water":"yes","fee":"yes","internet_access":"wlan","internet_access:fee":"no","lit":"yes","name":"Wohnmobil-Stellplatz Grafenau","operator":"Zweckverband Sport und Erholung Grafenau","power_supply":"yes","sanitary_dump_station":"yes","seasonal":"no","toilets":"no"}},"441592728":{"location":[48.7327368,13.4375303],"ct":"DE","tp":"CS","ts":"2021-11-28T14:00:47Z","tX":550,"tY":352,"tags":{"access":"customers","description":"Only for Mobile Homes...","dog":"yes","internet_access":"no","openfire":"yes","operator":"Gasthof Segl","power_supply":"no","reservation":"recommended","shower":"yes","toilets":"yes","wheelchair":"yes"}},"592356043":{"location":[48.8011974,13.5411157],"ct":"DE","tp":"CR","ts":"2024-02-12T12:28:02Z","tX":550,"tY":352,"tags":{"capacity":"10","charge":"8.00 EUR/1 night","contact:email":"touristinfo@freyung.de","contact:phone":"+49 8551 588150","description":"Gebühr 8€ (05/2022) laut HP - Offen Ganzjährig, Wasser Strom extra","fee":"yes","name":"Freizeitpark Solla","operator":"Stadt Freyung","power_supply":"yes","sanitary_dump_station":"yes","surface":"grass_paver","water_point":"yes","website":"https://www.freyung.de/de/gastgeber-und-service/gastgeber/campingplaetze.html"}},"803057791":{"location":[48.7226064,13.6029001],"ct":"DE","tp":"CR","ts":"2023-10-30T07:55:02Z","tX":550,"tY":352,"tags":{"capacity":"~7","name":"Wohnmobilstellplatz Waldkirchen","power_supply":"yes","sanitary_dump_station":"yes","surface":"sand","toilets":"no"}},"1080802360":{"location":[48.8554771,13.4037342],"ct":"DE","tp":"CR","ts":"2022-07-23T18:20:30Z","tX":550,"tY":352,"tags":{"capacity":"10","fee":"yes;10€"}},"2705673945":{"location":[48.790078,13.3846897],"ct":"DE","tp":"CS","ts":"2022-04-19T11:41:18Z","tX":550,"tY":352,"tags":{"access":"private"}},"3451768776":{"location":[48.8547539,13.4036112],"ct":"DE","tp":"SD","ts":"2022-07-23T18:20:30Z","tX":550,"tY":352,"tags":{"access":"yes","fee":"yes","operator":"Zweckverband Sport und Erholung Grafenau","payment:coins":"yes","sanitary_dump_station:accepted":"black_water;grey_water;tank_chemicals","water_point":"yes"}},"12272928332":{"location":[48.7146815,13.6298128],"ct":"DE","tp":"CS","ts":"2024-10-21T08:24:13Z","tX":550,"tY":352,"tags":{"addr:city":"Waldkirchen","addr:housenumber":"2","addr:postcode":"94065","addr:street":"Frauenwaldstraße","email":"info@campingresort-bayerwald.de","name":"Camping Resort Bayerwald","phone":"+498581989400","static_caravans":"yes","website":"https://campingresort-bayerwald.de/"}},"6606213743":{"location":[48.7778419,13.4498718],"ct":"DE","tp":"CR","ts":"2020-01-06T20:40:05Z","tX":550,"tY":352,"tags":{"capacity":"6","internet_access":"wlan","internet_access:fee":"no","name":"Wohnmobilstellplatz Perlesreut","power_supply":"yes","sanitary_dump_station":"yes"}},"9699465739":{"location":[48.8023223,13.5479158],"ct":"DE","tp":"CR","ts":"2024-04-22T06:55:53Z","tX":550,"tY":352,"tags":{"addr:city":"Freyung","addr:country":"DE","addr:housenumber":"43","addr:postcode":"94078","addr:street":"Bahnhofstraße","charge":"5.00 EUR/24 hours","fee":"yes","motorcar":"yes","power_supply":"no","sanitary_dump_station":"no","surface":"chipseal"}},"7547654260":{"location":[48.722515,13.6025639],"ct":"DE","tp":"SD","ts":"2020-05-22T08:49:16Z","tX":550,"tY":352,"tags":{}},"9905785890":{"location":[48.8557994,13.4039674],"ct":"DE","tp":"SD","ts":"2022-07-23T18:20:30Z","tX":550,"tY":352,"tags":{"access":"yes","fee":"yes","payment:coins":"yes","water_point":"yes"}}}