{"78147719":{"location":[47.881616,13.5284245],"ct":"AT","tp":"CS","ts":"2016-04-09T14:48:00Z","tX":550,"tY":356,"tags":{"name":"Seecamping Wiesinger","operator":"Wiesinger"}},"78147726":{"location":[47.8797105,13.5268812],"ct":"AT","tp":"CS","ts":"2017-03-02T09:15:12Z","tX":550,"tY":356,"tags":{"addr:city":"Nußdorf am Attersee","addr:country":"AT","addr:housenumber":"63","addr:postcode":"4865","addr:street":"Dorfstraße","caravans":"yes","dog":"yes","dryer":"yes","email":"office@camping-gruber.at","fax":"+43 7666 80456","internet_access":"wlan","internet_access:fee":"no","name":"Seecamping Gruber","opening_hours":"Apr 15-Oct 15, 08:00-12:00, 14:00-22:00","phone":"+43 7666 80450","power_supply":"yes","sauna":"yes","source":"geoimage.at","tents":"yes","washing_machine":"yes","website":"http://www.camping-gruber.at/"}},"84656681":{"location":[47.953645,13.5007276],"ct":"AT","tp":"CS","ts":"2024-10-10T07:35:48Z","tX":550,"tY":356,"tags":{"addr:city":"Berg im Attergau","addr:housenumber":"30","addr:place":"Eggenberg","addr:postcode":"4880","capacity":"500","internet_access":"yes","name":"Scout Camp Austria","operator":"Pfadfinderinnen und Pfadfinder Oberösterreich","scout":"yes","website":"http://www.scoutcampaustria.at/"}},"166056293":{"location":[47.8401652,13.5453033],"ct":"AT","tp":"CS","ts":"2023-04-28T22:03:14Z","tX":550,"tY":356,"tags":{"email":"E-Mailinfo@hotel-attersee.at","fax":"+43 7663 810042","name":"Camping Seefeld","phone":"+43 7663 8100","shower":"yes","stars":"4","tents":"yes","toilets":"yes","website":"https://www.hotel-attersee.at/index.php?id=24"}},"168111793":{"location":[47.8303301,13.3645759],"ct":"AT","tp":"CS","ts":"2024-05-13T11:39:12Z","tX":550,"tY":356,"tags":{"caravans":"yes","drinking_water":"yes","email":"office@austriacamp.at","fax":"+43 6232 2927 4","internet_access":"wlan","name":"AustriaCamp Mondsee","phone":"+43 6232 2927","shower":"yes","tents":"yes","website":"https://austriacamp.at"}},"169046173":{"location":[47.8369494,13.5455708],"ct":"AT","tp":"CS","ts":"2024-10-09T09:23:19Z","tX":550,"tY":356,"tags":{"addr:city":"Steinbach am Attersee","addr:housenumber":"47","addr:place":"Seefeld","addr:postcode":"4853","backcountry":"no","camp_site":"deluxe","caravans":"yes","dog":"leashed","drinking_water":"yes","email":"office@camping-grabner.at","fee":"yes","group_only":"no","hot_water":"yes","internet_access":"wlan","maxtents":"100","motor_vehicle":"yes","name":"Camping Grabner","nudism":"no","openfire":"no","permanent_camping":"yes","phone":"+43 7663 8940","power_supply":"yes","reservation":"recommended","sanitary_dump_station":"yes","shower":"yes","static_caravans":"yes","tents":"yes","toilets":"yes","website":"https://www.camping-grabner.at/"}},"219157335":{"location":[47.9144737,13.5289178],"ct":"AT","tp":"CS","ts":"2022-12-10T21:06:46Z","tX":550,"tY":356,"tags":{"caravans":"yes","fax":"+437666-7749","name":"Camping Wimroither Mühle","phone":"+437666-7749","tents":"yes","website":"https://www.eurocampings.de/de/europa/%D6sterreich/ober%F6sterreich/campingplatz-wimroither-muehle-106075/"}},"219288202":{"location":[47.9112965,13.531433],"ct":"AT","tp":"CS","ts":"2023-11-08T01:06:13Z","tX":550,"tY":356,"tags":{"name":"Seglercamping Häuplhof","website":"https://www.haeuplhof.at/"}},"228673385":{"location":[47.8050068,13.4311556],"ct":"AT","tp":"CS","ts":"2023-02-08T14:06:04Z","tX":550,"tY":356,"tags":{"name":"Camping Seestern"}},"230802718":{"location":[47.8187202,13.3635215],"ct":"AT","tp":"CS","ts":"2024-08-26T18:33:51Z","tX":550,"tY":356,"tags":{"caravans":"yes","email":"info@nussbaumer-mondsee.com","fee":"yes","name":"Seecamp Nussbaumer","phone":"+43 6232 2938","static_caravans":"yes","tents":"yes","website":"https://www.nussbaumer-mondsee.com/camping/"}},"256440133":{"location":[47.8590271,13.5265055],"ct":"AT","tp":"CS","ts":"2021-08-10T10:19:52Z","tX":550,"tY":356,"tags":{"email":"camping.bruckbacher@aon.at","internet_access":"yes","name":"Camping Bruckbacher","phone":"+43 7666 8570","source":"geoimage.at","website":"https://www.camping-bruckbacher.at/"}},"259911691":{"location":[47.7928668,13.509849],"ct":"AT","tp":"CS","ts":"2024-06-19T13:24:40Z","tX":550,"tY":356,"tags":{"access":"private","email":"jessika@camping-hideaway-attersee.at","landuse":"recreation_ground","name":"Camping hideaway Attersee","operator":"Familie Eitzinger","phone":"+436642440003","website":"https://camping-hideaway-attersee.at/"}},"717265051":{"location":[47.8008574,13.4825608],"ct":"AT","tp":"CS","ts":"2023-11-06T16:09:22Z","tX":550,"tY":356,"tags":{"caravans":"yes","fax":"+43 7665 8311 5","internet_access":"terminal","internet_access:fee":"yes","name":"Inselcamping Unterach/Attersee","openfire":"no","phone":"+43 7665 83 11","tents":"yes","website":"https://www.inselcamp.at/","wheelchair":"no"}},"876636030":{"location":[47.7977503,13.5360253],"ct":"AT","tp":"CS","ts":"2023-06-01T09:39:22Z","tX":550,"tY":356,"tags":{"caravans":"yes","name":"Europacamp (Großgruppen)","power_supply":"yes","source":"gpx 26.11.2020","tents":"yes","wheelchair":"limited"}},"877962618":{"location":[47.7979764,13.5344045],"ct":"AT","tp":"CS","ts":"2023-06-01T09:39:22Z","tX":550,"tY":356,"tags":{"caravans":"no","name":"Zeltplatz","tents":"yes","wheelchair":"yes"}},"877962626":{"location":[47.7982137,13.5341109],"ct":"AT","tp":"CR","ts":"2024-05-25T17:07:03Z","tX":550,"tY":356,"tags":{"caravans":"yes","name":"Europacamp (Dauercamping)","power_supply":"yes","smoking":"yes","tents":"no","wheelchair":"yes"}},"7817949411":{"location":[47.8369239,13.5455147],"ct":"AT","tp":"SD","ts":"2020-08-16T20:24:56Z","tX":550,"tY":356,"tags":{"access":"customers","level":"0","operator":"Camping Grabner"}}}