{"29192822":{"location":[47.7295679,13.4789534],"ct":"AT","tp":"CS","ts":"2023-08-21T09:44:38Z","tX":550,"tY":357,"tags":{"caravans":"yes","name":"Berau","source":"plan.at 2008,geoimage.at","tents":"yes"}},"29192823":{"location":[47.7321089,13.4645119],"ct":"AT","tp":"CS","ts":"2021-08-30T10:56:40Z","tX":550,"tY":357,"tags":{"addr:city":"St. Wolfgang im Salzkammergut","addr:country":"AT","addr:housenumber":"99","addr:place":"Au","addr:postcode":"5360","landuse":"meadow","name":"Seecamping Appesbach","source":"plan.at 2008","website":"https://www.appesbach.at/"}},"69602829":{"location":[47.7428075,13.4335769],"ct":"AT","tp":"CS","ts":"2024-12-13T21:53:21Z","tX":550,"tY":357,"tags":{"cabins":"yes","capacity:pitches":"40","caravans":"yes","contact:phone":"+43 664 73600 854","email":"camping-ried@aon.at","name":"Seeterrassencamping Ried","shower":"yes","tents":"yes","toilets":"yes","website":"https://www.seeterrassencamping-ried.at/"}},"166815387":{"location":[47.7297454,13.4364401],"ct":"AT","tp":"CS","ts":"2025-01-31T10:22:42Z","tX":550,"tY":357,"tags":{"name":"Campingplatz Weidingerbauer"}},"166817058":{"location":[47.736328,13.4324723],"ct":"AT","tp":"CS","ts":"2024-05-15T07:45:24Z","tX":550,"tY":357,"tags":{"name":"Camping Wolfgangblick","website":"https://wolfgangblick.at/"}},"228504599":{"location":[47.7348567,13.428065],"ct":"AT","tp":"CS","ts":"2020-05-10T15:16:09Z","tX":550,"tY":357,"tags":{"name":"Campingpark Eisl"}},"231702772":{"location":[47.7413004,13.4064326],"ct":"AT","tp":"CS","ts":"2020-05-05T16:03:53Z","tX":550,"tY":357,"tags":{"addr:city":"Sankt Gilgen","addr:country":"AT","addr:housenumber":"39","addr:postcode":"5342","addr:street":"Schwand","caravans":"yes","email":"info@seecamping-primus.at","fax":"+43622732284","internet_access":"wlan","internet_access:fee":"yes","name":"Seecamping Primus","operator":"Familie Appesbacher","phone":"+43622732280","shower":"yes","tents":"yes","toilets":"yes","website":"https://www.seecamping-primus.at/","wheelchair":"no"}},"232380754":{"location":[47.7417892,13.4086041],"ct":"AT","tp":"CS","ts":"2020-05-05T16:03:53Z","tX":550,"tY":357,"tags":{"name":"Camping Primusbauer","website":"http://www.camping-primusbauer.at/"}},"232577219":{"location":[47.7391236,13.4033328],"ct":"AT","tp":"CS","ts":"2024-07-23T06:32:08Z","tX":550,"tY":357,"tags":{"internet_access":"wlan","name":"Lindenstrand","stars":"4","website":"https://www.lindenstrand.at/campground.html","wheelchair":"yes"}},"238895905":{"location":[47.7247748,13.4376195],"ct":"AT","tp":"CS","ts":"2023-01-13T16:17:23Z","tX":550,"tY":357,"tags":{"name":"Schönblick","stars":"2"}},"238895906":{"location":[47.740339,13.4122635],"ct":"AT","tp":"CS","ts":"2021-07-12T12:47:44Z","tX":550,"tY":357,"tags":{"name":"Seegut Eisl - Camping Bio Hof","url":"http://www.seegut-eisl.at"}},"248984548":{"location":[47.722834,13.4396939],"ct":"AT","tp":"CS","ts":"2025-01-31T10:22:42Z","tX":550,"tY":357,"tags":{"addr:city":"Strobl","addr:country":"AT","addr:housenumber":"4","addr:postcode":"5350","addr:street":"Gschwendtnerstraße","at_bev:addr_date":"2024-10-01","email":"office@zirlerhof.at","fax":"+43 6137 7069","fee":"yes","name":"Camping Seewinkl","operator":"Zirlerhof","phone":"+43 6137 7069","shower":"yes","website":"http://www.zirlerhof.at/","wifi":"free"}},"373404455":{"location":[47.7148023,13.6249141],"ct":"AT","tp":"CR","ts":"2019-09-26T18:29:14Z","tX":550,"tY":357,"tags":{"capacity":"8","fee":"yes","power_supply":"cee_17_blue","sanitary_dump_station":"yes"}},"697848554":{"location":[47.7236556,13.4397391],"ct":"AT","tp":"CS","ts":"2025-01-31T10:22:42Z","tX":550,"tY":357,"tags":{"caravans":"yes","internet_access":"wlan","internet_access:fee":"no","sanitary_dump_station":"no","tents":"yes","website":"http://www.jurlerhof.at/"}},"800668516":{"location":[47.7386983,13.4089134],"ct":"AT","tp":"CS","ts":"2020-05-06T08:55:49Z","tX":550,"tY":357,"tags":{}},"841495105":{"location":[47.552555,13.6467968],"ct":"AT","tp":"CS","ts":"2020-08-27T21:11:08Z","tX":550,"tY":357,"tags":{"addr:city":"Hallstatt","addr:country":"AT","addr:postcode":"4830","caravans":"yes","dog":"yes","dryer":"yes","email":"camping@hallstatt.net","internet_access":"yes","kitchen":"yes","name":"Camping Klausner-Höll","phone":"+43 6134 8322","power_supply":"yes","sanitary_dump_station":"yes","tents":"yes","washing_machine":"yes","website":"http://camping.hallstatt.net"}},"963654807":{"location":[47.7392344,13.4010216],"ct":"AT","tp":"CS","ts":"2025-01-30T07:17:36Z","tX":550,"tY":357,"tags":{"capacity":"80","caravans":"yes","drinking_water":"yes","email":"camp@birkenstrand.at","name":"Paradiescamping Wolfgangsee Birkenstrand","opening_hours":"Apr-Oct 19: Mo-Su 08:00-12:00, 14:00-18:00","phone":"+43 664 9404879","power_supply":"yes","sanitary_dump_station":"yes","shower":"yes","tents":"yes","toilets":"yes","url":"https://paradiescamping.at","website":"https://paradiescamping.at","wheelchair":"limited"}},"2595392919":{"location":[47.5493451,13.6762963],"ct":"AT","tp":"CS","ts":"2013-12-26T15:12:28Z","tX":550,"tY":357,"tags":{"email":"camping.am.see@chello.at","name":"Camping am See","url":"http://campingamsee.blogspot.de/","website":"http://www.camping-am-see.at/"}},"9084636170":{"location":[47.5492957,13.6775851],"ct":"AT","tp":"CR","ts":"2021-09-12T19:14:05Z","tX":550,"tY":357,"tags":{"capacity":"10","fee":"yes","internet_access":"no","name":"Parkplatz Hallstätter See","operator":"Gemeinde Hallstatt","power_supply":"yes","sanitary_dump_station":"yes","wheelchair":"yes"}},"11133672732":{"location":[47.7303848,13.4787851],"ct":"AT","tp":"SD","ts":"2023-08-21T09:44:38Z","tX":550,"tY":357,"tags":{}},"12174370634":{"location":[47.5590081,13.6793194],"ct":"AT","tp":"CR","ts":"2024-11-07T08:43:29Z","tX":550,"tY":357,"tags":{"capacity":"24"}}}