{"119213164":{"location":[46.8158055,13.5203747],"ct":"AT","tp":"CS","ts":"2024-09-01T17:31:54Z","tX":550,"tY":360,"tags":{"addr:city":"Seeboden","addr:housenumber":"33","addr:postcode":"9871","addr:street":"Seepromenade","caravans":"yes","drinking_water":"yes","email":"strandcamping.winkler@gmail.com","fee":"yes","name":"Seecamping Winkler","phone":"+43 4762 81927","power_supply":"yes","sanitary_dump_station":"yes","shower":"yes","tents":"yes","toilets":"yes","website":"https://www.camping-winkler.at/"}},"178284954":{"location":[46.9496421,13.5111616],"ct":"AT","tp":"CS","ts":"2023-11-23T06:42:36Z","tX":550,"tY":360,"tags":{"access":"yes","addr:city":"Malta","addr:housenumber":"6","addr:place":"Malta","addr:postcode":"9854","alt_name":"Terassencamping Maltatal","caravans":"yes","dog":"leashed","drinking_water":"yes","email":"info@maltacamp.at","fee":"yes","name":"Maltatal","operator":"Familie Pirker","payment:account_cards":"yes","payment:cards":"yes","payment:cash":"yes","payment:coins":"yes","payment:contactless":"yes","payment:credit_cards":"yes","payment:debit_cards":"yes","payment:maestro":"yes","payment:mastercard":"yes","payment:notes":"yes","payment:visa":"yes","phone":"+43 4733 2340","power_supply":"yes","shower":"yes","static_caravans":"no","tents":"yes","toilets":"yes","website":"https://www.camping-maltatal.at"}},"241687309":{"location":[46.9353072,13.5211495],"ct":"AT","tp":"CS","ts":"2024-07-14T03:06:33Z","tX":550,"tY":360,"tags":{"access":"customers","addr:city":"Gmünd in Kärnten","addr:housenumber":"17","addr:postcode":"9853","addr:street":"Fischerztratten","backcountry":"no","cabins":"no","camp_site":"serviced","caravans":"yes","dog":"leashed","drinking_water":"yes","dryer":"no","email":"camping-zechner9853@gmx.at","fee":"yes","fixme":"2024, wenn das Sanitär renoviert ist, dryer und sanitary_dump_station nochmal prüfen und ggf aktualisieren.","internet_access":"wlan","internet_access:fee":"no","kitchen":"no","lit":"no","mobile":"+43 664 3699140","motor_vehicle":"yes","name":"Camping Zechner","opening_hours":"May-Oct","operator":"Kurt Zechner","payment:cash":"yes","phone":"+43 4732 2192","power_supply":"schuko","shower":"hot","static_caravans":"no","tents":"yes","toilets":"yes","washing_machine":"yes","waste_disposal":"yes","website":"https://www.camping-zechner.com/"}},"375502832":{"location":[46.8247499,13.5308433],"ct":"AT","tp":"CS","ts":"2020-06-24T07:04:30Z","tX":550,"tY":360,"tags":{"addr:city":"Seeboden","addr:housenumber":"19","addr:postcode":"9871","addr:street":"Im Winkel","cabins":"yes","caravans":"yes","fee":"yes","name":"Gold Camping Seeboden","phone":"+43 664 9113935","tents":"yes","website":"https://goldcampingseeboden.at/"}},"379367693":{"location":[47.032572,13.5945501],"ct":"AT","tp":"CS","ts":"2023-09-19T08:42:26Z","tX":550,"tY":360,"tags":{"email":"info@camp-ram.at","name":"Camping Ramsbacher","phone":"+43 4734663","source":"Geoimage.at MaxRes","website":"https://www.camp-ram.at/"}},"656349514":{"location":[46.8384154,13.3671162],"ct":"AT","tp":"CS","ts":"2020-10-05T18:52:30Z","tX":550,"tY":360,"tags":{"email":"lurnfeld.tourist@ktn.gde.at","fee":"yes","internet_access":"wlan","internet_access:fee":"no","name":"Möll-Camping","phone":"+43 4769 2211","website":"https://www.lurnfeld.gv.at/tourismus/campingplatz.html"}},"4126743362":{"location":[46.9301546,13.6314428],"ct":"AT","tp":"CS","ts":"2023-05-07T20:25:34Z","tX":550,"tY":360,"tags":{"caravans":"yes","email":"mail@helio-carinthia.at","name":"Helio-Carinthia naturistenpark","nudism":"designated","phone":"+43 699 11 219 216","shower":"yes","tents":"yes","toilets":"yes","website":"http://www.helio-carinthia.at/"}},"11165835507":{"location":[47.025787,13.4028221],"ct":"AT","tp":"CR","ts":"2023-09-03T21:11:34Z","tX":550,"tY":360,"tags":{"description":"Toilet & shower accessible 24/7.","fee":"yes","internet_access":"no","name":"Gmünder Hütte","shower":"yes","toilets":"yes"}}}