{"2668938":{"location":[46.7898467,13.6302648],"ct":"AT","tp":"CS","ts":"2020-06-25T13:49:43Z","tX":550,"tY":361,"tags":{"contact:website":"https://www.gauglerhof.com/camping","name":"Camping Gauglerhof","source":"bing","tents":"yes"}},"2760057":{"location":[46.7879607,13.6130853],"ct":"AT","tp":"CS","ts":"2020-06-25T13:52:28Z","tX":550,"tY":361,"tags":{"addr:city":"Millstatt am See","addr:housenumber":"3","addr:postcode":"9872","addr:street":"Dellach","caravans":"yes","contact:email":"info@camping-neubauer.at","contact:phone":"+43 4766 2532","contact:website":"https://camping-neubauer.at/","dog":"yes","name":"Camping Neubauer","tents":"yes"}},"38524068":{"location":[46.7965037,13.5977293],"ct":"AT","tp":"CS","ts":"2020-06-25T14:07:04Z","tX":550,"tY":361,"tags":{"cabins":"yes","caravans":"yes","contact:email":"camping@pesenthein.at","contact:phone":"+43 4766 2665","contact:website":"https://www.badehaus-millstaettersee.at/fkk-camping-pesenthein-04766-2665/","fee":"yes","name":"Terassencamping Pesenthein","shower":"yes","tents":"yes"}},"75009239":{"location":[46.7034666,13.4145435],"ct":"AT","tp":"CS","ts":"2024-08-11T18:32:10Z","tX":550,"tY":361,"tags":{"caravans":"yes","name":"Terrassencamping Ronacher","tents":"yes","website":"https://www.campingronacher.at"}},"85205762":{"location":[46.6298062,13.4539013],"ct":"AT","tp":"CS","ts":"2011-04-11T18:53:02Z","tX":550,"tY":361,"tags":{"landuse":"recreation_ground","name":"Camping Max"}},"96597392":{"location":[46.6322435,13.397327],"ct":"AT","tp":"CS","ts":"2023-11-25T18:22:04Z","tX":550,"tY":361,"tags":{"email":"office@flaschberger.at","name":"Camping Flaschberger","phone":"+43 4282 2020","website":"https://www.flaschberger.at/"}},"127409638":{"location":[46.7680135,13.6472293],"ct":"AT","tp":"CS","ts":"2024-08-06T21:59:17Z","tX":550,"tY":361,"tags":{"addr:city":"Döbriach","addr:housenumber":"108","addr:postcode":"9873","addr:street":"Glanzerstraße","cabins":"yes","caravans":"yes","contact:email":"office@camping-brunner.at","contact:phone":"+43 4246 7189","contact:website":"http://camping-brunner.at/","dog":"no","drinking_water":"yes","internet_access":"wlan","internet_access:fee":"no","name":"Camping Brunner","phone":"+4342467189","power_supply":"yes","sanitary_dump_station":"yes","shower":"yes","tents":"yes","toilets":"yes","toilets:wheelchair":"no","website":"http://www.campingbrunner.at/","wheelchair":"limited"}},"130280012":{"location":[46.6066778,13.5902683],"ct":"AT","tp":"CS","ts":"2024-03-12T16:24:48Z","tX":550,"tY":361,"tags":{"addr:city":"St. Georgen im Gailtal","addr:country":"AT","addr:housenumber":"27","addr:place":"Wertschach","addr:postcode":"9612","name":"Camping Alpenfreude","website":"http://members.aon.at/alpenfreude/"}},"130295903":{"location":[46.6083444,13.5862443],"ct":"AT","tp":"CS","ts":"2024-03-12T16:24:48Z","tX":550,"tY":361,"tags":{"addr:city":"St. Georgen im Gailtal","addr:country":"AT","addr:housenumber":"27","addr:place":"Wertschach","addr:postcode":"9612","name":"Camping Alpenfreude","website":"http://members.aon.at/alpenfreude/"}},"130295907":{"location":[46.6080641,13.590112],"ct":"AT","tp":"CS","ts":"2024-03-11T16:40:57Z","tX":550,"tY":361,"tags":{"addr:city":"St. Georgen im Gailtal","addr:country":"AT","addr:housenumber":"23","addr:place":"Wertschach","addr:postcode":"9612","name":"Camping am Bauernhof","website":"http://members.aon.at/campingbauernhof/"}},"175874410":{"location":[46.7718839,13.6509075],"ct":"AT","tp":"CS","ts":"2024-10-09T20:39:39Z","tX":550,"tY":361,"tags":{"addr:housenumber":"16","addr:street":"Seefeldstraße","caravans":"yes","drinking_water":"yes","name":"Camping Burgstaller","phone":"+4342467774","power_supply":"yes","sanitary_dump_station":"yes","shower":"yes","source":"bing","tents":"yes","toilets":"yes","toilets:wheelchair":"yes","website":"https://www.burgstaller.co.at/","wheelchair":"yes"}},"175874411":{"location":[46.7743144,13.653343],"ct":"AT","tp":"CS","ts":"2024-08-29T19:39:56Z","tX":550,"tY":361,"tags":{"addr:housenumber":"24","addr:street":"Glanzerstraße","cabins":"yes","camp_site":"deluxe","capacity":"200","caravans":"yes","designation":"ADAC Empfohlen 2012","drinking_water":"yes","email":"camping@moessler.at","fee":"yes","internet_access":"wlan","internet_access:fee":"no","lit":"yes","name":"Schwimmbad Camping Mössler","operator":"Camping Mößler GmbH","permanent_camping":"yes","phone":"+43 4246 7735","power_supply":"yes","sanitary_dump_station":"customers","shower":"hot","source":"bing","tents":"yes","toilets":"yes","washing_machine":"yes","website":"https://moessler.at/schwimmbad-camping","wheelchair":"limited"}},"175874412":{"location":[46.7687398,13.6484542],"ct":"AT","tp":"CS","ts":"2024-08-05T20:23:29Z","tX":550,"tY":361,"tags":{"addr:city":"Döbriach","addr:housenumber":"1","addr:postcode":"9873","addr:street":"Seefeldstraße","cabins":"yes","caravans":"yes","contact:email":"camping@moessler.at","contact:phone":"+43 4246 7310","designation":"ADAC Empfohlen 2012","dog":"yes","drinking_water":"yes","fee":"yes","internet_access":"wlan","internet_access:fee":"no","name":"Seecamping Mössler","power_supply":"yes","sanitary_dump_station":"yes","shower":"yes","source":"bing","static_caravans":"yes","swimming_pool":"yes","tents":"yes","toilets":"yes","website":"https://moessler.at/seecamping"}},"335615197":{"location":[46.7974018,13.5967737],"ct":"AT","tp":"CS","ts":"2020-06-25T14:07:04Z","tX":550,"tY":361,"tags":{"cabins":"yes","caravans":"yes","contact:email":"camping@pesenthein.at","contact:phone":"+43 4766 2665","contact:website":"https://www.badehaus-millstaettersee.at/fkk-camping-pesenthein-04766-2665/","fee":"yes","name":"Terassencamping Pesenthein","nudism":"yes","permanent_camping":"yes","shower":"yes","tents":"yes"}},"464130846":{"location":[46.6322757,13.393547],"ct":"AT","tp":"CS","ts":"2024-04-16T15:06:08Z","tX":550,"tY":361,"tags":{"caravans":"yes","name":"EuroParcs Hermagor - Nassfeld","opening_hours":"08:00-18:00","phone":"+43 4282 2051","website":"https://www.europarcs.at/ferienparks/oesterreich/kaernten/hermagor-nassfeld?utm_source=gmb&utm_medium=organic&utm_campaign=park"}},"493888237":{"location":[46.7709696,13.6521057],"ct":"AT","tp":"CS","ts":"2024-08-05T20:22:53Z","tX":550,"tY":361,"tags":{"addr:city":"Döbriach","addr:housenumber":"66","addr:postcode":"9873","addr:street":"Glanzerstraße","cabins":"yes","caravans":"yes","contact:email":"office@feriencamp-doebriach.at","contact:phone":"+43 4246 7704","drinking_water":"yes","group_only":"yes","name":"Falkencamp Döbriach","power_supply":"yes","sanitary_dump_station":"yes","shower":"yes","static_caravans":"yes","tents":"yes","toilets":"yes","website":"https://www.kinderfreunde.at/Kinderfreunde-Falkencamp-Doebriach/"}},"1088370481":{"location":[46.7839159,13.4882455],"ct":"AT","tp":"CS","ts":"2024-04-19T08:24:27Z","tX":550,"tY":361,"tags":{"access":"customers","addr:city":"Spittal an der Drau","addr:housenumber":"10","addr:place":"Schwaig","addr:postcode":"9800","caravans":"yes","contact:email":"drauwirt@aon.at","contact:phone":"+43 4762 2466","contact:website":"http://www.drauwirt.com/","email":"drauwirt@aon.at","fee":"yes","name":"Camping Draufluss","operator":"Herold A. Hartlieb","phone":"+43 4762 2466","shower":"yes","tents":"yes","website":"http://www.drauwirt.com/"}},"7826842105":{"location":[46.740905,13.5772905],"ct":"AT","tp":"CS","ts":"2020-08-19T18:15:09Z","tX":550,"tY":361,"tags":{"addr:street":"Ziebl","name":"Camping Camping","name:de":"Camping Nagelerhof","name:en":"Camping Nagelerhof"}},"7598651129":{"location":[46.7740421,13.6534523],"ct":"AT","tp":"SD","ts":"2024-08-29T19:39:42Z","tX":550,"tY":361,"tags":{"fee":"no"}}}