{"17856835":{"location":[46.330109,13.5725637],"ct":"SI","tp":"CS","ts":"2024-07-19T18:30:56Z","tX":550,"tY":362,"tags":{"caravans":"yes","email":"info@camp-vodenca.com","fee":"yes","name":"Camp Vodenca","phone":"+386 31 542 299","tents":"yes","website":"https://www.camp-vodenca.com/"}},"17856992":{"location":[46.3297845,13.5727524],"ct":"SI","tp":"CR","ts":"2024-08-29T09:23:12Z","tX":550,"tY":362,"tags":{"access":"private","description":"not for visitors' caravans, those are property of the camp and they are offered as accomodation","operator":"Camp Vodenca"}},"17919865":{"location":[46.3306918,13.6429706],"ct":"SI","tp":"CS","ts":"2024-08-08T16:02:28Z","tX":550,"tY":362,"tags":{"addr:city":"Soča","addr:country":"SI","addr:housenumber":"1","addr:postcode":"5232","addr:street":"Lepena","caravans":"yes","contact:fax":"+386 5 3889514","contact:phone":"+386 5 3889513","internet_access":"wlan","internet_access:fee":"no","name":"Kamp Klin","sanitary_dump_station":"yes","tents":"yes"}},"18125337":{"location":[46.3223019,13.5029499],"ct":"SI","tp":"CS","ts":"2024-10-05T15:53:52Z","tX":550,"tY":362,"tags":{"name":"Adrenaline-check Eco Place","website":"https://www.adrenaline-check.com/accommodation/"}},"75800792":{"location":[46.3314662,13.5740871],"ct":"SI","tp":"CS","ts":"2024-05-21T10:20:12Z","tX":550,"tY":362,"tags":{"addr:city":"Bovec","addr:housenumber":"1","addr:postcode":"5230","addr:street":"Vodenca","caravans":"yes","drinking_water":"yes","fee":"yes","name":"Kajak Camp Toni","power_supply":"yes","sanitary_dump_station":"yes","shower":"yes","tents":"yes","toilets":"yes","website":"http://slo.kajakkamptoni.com/"}},"223113126":{"location":[46.3322975,13.5737727],"ct":"SI","tp":"CS","ts":"2024-04-14T12:13:52Z","tX":550,"tY":362,"tags":{"addr:city":"Bovec","addr:housenumber":"4","addr:postcode":"5230","addr:street":"Vodenca","caravans":"yes","contact:email":"info@camp-liza.com","contact:fax":"+386 41 760651","contact:mobile":"+386 5 6205524","contact:phone":"+386 5 3896370","contact:website":"http://www.camp-liza.com/","description":"Among high peaks and green pastures lies the Bovec Valley, through which the wonderful, emerald-green Soča River, into which the clear and wild Koritnica River flows, blazes its way.","email":"info@camp-liza.com","fee":"yes","internet_access":"wlan","name":"Camp Liza","operator":"Maksim Mlekuž s.p.","phone":"+386 5 3896370","tents":"yes","website":"http://www.camp-liza.com/"}},"282432373":{"location":[46.3410263,13.6845657],"ct":"SI","tp":"CS","ts":"2023-06-21T15:23:11Z","tX":550,"tY":362,"tags":{"addr:city":"Soča","addr:housenumber":"38","addr:postcode":"5232","addr:street":"Soča","name":"Kamp Korita","phone":"+386 51 645 677","website":"https://www.camp-korita.com/"}},"351106654":{"location":[46.3362091,13.5574764],"ct":"SI","tp":"CS","ts":"2024-08-21T16:47:29Z","tX":550,"tY":362,"tags":{"addr:city":"Bovec","addr:country":"SI","addr:housenumber":"8","addr:postcode":"5230","addr:street":"Ledina","caravans":"yes","description":"Kamp Polovnik leži v lepem parku in je le pet minut hoda oddaljen od središča Bovca.","drinking_water":"yes","email":"kamp.polovnik@siol.net","fax":"+386 5 3896006","internet_access":"wlan","internet_access:fee":"no","name":"Kamp Polovnik","opening_hours":"Mo-Su 8:00-13:00,18:30-23:00","operator":"WES'M d.o.o.","phone":"+386 5 3896007","power_supply":"yes","ref:vatin":"SI24372404","sanitary_dump_station":"customers","shower":"yes","static_caravans":"no","tents":"yes","toilets":"yes","website":"http://www.kamp-polovnik.com"}},"351117006":{"location":[46.332813,13.5392752],"ct":"SI","tp":"CR","ts":"2024-09-15T07:09:18Z","tX":550,"tY":362,"tags":{"access":"yes","contact:website":"www.bovec-sc.si","fee":"interval","operator":"Bovec Sport Center","parking":"surface"}},"377726501":{"location":[46.3894603,13.4732911],"ct":"IT","tp":"CS","ts":"2015-10-31T14:16:09Z","tX":550,"tY":362,"tags":{}},"405062129":{"location":[46.3345229,13.6428858],"ct":"SI","tp":"CS","ts":"2024-08-07T11:16:58Z","tX":550,"tY":362,"tags":{"access":"yes","addr:city":"Soča","addr:housenumber":"8","addr:postcode":"5232","addr:street":"Soča","caravans":"yes","drinking_water":"yes","fee":"yes","name":"Kamp Soča","payment:cash":"yes","payment:credit_cards":"yes","payment:debit_cards":"yes","power_supply":"yes","sanitary_dump_station":"yes","shower":"yes","tents":"yes","website":"https://kamp-soca.si/"}},"477848183":{"location":[46.3346813,13.5909337],"ct":"SI","tp":"CS","ts":"2017-03-01T10:13:24Z","tX":550,"tY":362,"tags":{"landuse":"meadow","note":"For larger groups only.","raba:id":"1300","source":"RABA-KGZ","source:date":"2017-01-31"}},"601363562":{"location":[46.3302356,13.5746835],"ct":"SI","tp":"CS","ts":"2024-04-14T12:13:52Z","tX":550,"tY":362,"tags":{"camp_site":"serviced","caravans":"yes","dog":"leashed","drinking_water":"yes","email":"kamp.kovac@siol.net","fee":"yes","internet_access":"wlan","name":"Camp Kovač","payment:cash":"yes","payment:credit_cards":"yes","payment:debit_cards":"yes","power_supply":"yes","shower":"yes","static_caravans":"no","tents":"yes","website":"https://avtokampi.si/campsites/camping-kovac"}},"1256487510":{"location":[46.3354151,13.5535653],"ct":"SI","tp":"CS","ts":"2024-09-04T08:12:43Z","tX":550,"tY":362,"tags":{"addr:city":"Bovec","addr:postcode":"5230","addr:street":"Rupa","capacity:persons":"100","caravans":"no","charge":"15 EUR","description":"Spacious camp for your tent","email":"info@campbovec.com","fee":"yes","internet_access":"wlan","name":"Camp Bovec","operator":"Alpi Center d.o.o.","payment:cash":"yes","phone":"+386 31 783 074","reservation":"recommended","tents":"yes","website":"https://campbovec.com/"}},"1396411294":{"location":[46.32409,13.55397],"ct":"SI","tp":"CS","ts":"2017-07-13T04:57:44Z","tX":550,"tY":362,"tags":{"name":"Prijon Sport Center","website":"http://www.prijon-sportcenter.si"}},"2377668547":{"location":[46.3423998,13.6856147],"ct":"SI","tp":"CS","ts":"2024-09-16T09:49:27Z","tX":550,"tY":362,"tags":{"addr:city":"Soča","addr:country":"SI","addr:housename":"Turistična Kmetija Jelinčič","addr:housenumber":"50","addr:postcode":"5232","addr:street":"Soška pot","caravans":"yes","contact:email":"kmetija.kamp.jelincic@gmail.com","contact:fax":"+386 5 1222735","drinking_water":"yes","fee":"yes","internet_access":"wlan","internet_access:fee":"no","name":"Kamp Jelinčič","opening_hours":"Mo-Su 08:00-22:00","phone":"+386 5 388 95 10, +386 31 753 162, +386 51 222 735","power_supply":"yes","shower":"yes","tents":"yes","toilets":"yes","website":"https://kmetijakampjelincic.si"}},"12106864401":{"location":[46.4962888,13.689141],"ct":"IT","tp":"CR","ts":"2024-08-12T20:28:05Z","tX":550,"tY":362,"tags":{"name":"Area camper Tarvisio"}},"4871390002":{"location":[46.3359048,13.5573042],"ct":"SI","tp":"SD","ts":"2024-08-21T16:49:01Z","tX":550,"tY":362,"tags":{"access":"customers","sanitary_dump_station:chemical_toilet":"yes","sanitary_dump_station:grey_water":"yes","water_point":"yes"}},"9122306453":{"location":[46.3340024,13.6421499],"ct":"SI","tp":"SD","ts":"2024-11-12T18:16:09Z","tX":550,"tY":362,"tags":{"access":"customers","fee":"no","operator":"Camp Soca","panoramax":"50d2803d-8d2f-43a9-a71b-b0445352e340","power_supply":"no","sanitary_dump_station:chemical_toilet":"yes","sanitary_dump_station:grey_water":"yes","water_point":"yes"}},"10097964654":{"location":[46.3301745,13.643885],"ct":"SI","tp":"SD","ts":"2022-10-13T12:19:42Z","tX":550,"tY":362,"tags":{"access":"customers"}}}