{"75804047":{"location":[46.2513526,13.5871653],"ct":"SI","tp":"CS","ts":"2023-07-30T14:25:15Z","tX":550,"tY":363,"tags":{"addr:city":"Kobarid","addr:housenumber":"1b","addr:postcode":"5222","addr:street":"Ladra","cabins":"yes","capacity":"100","caravans":"yes","email":"info@kamp-koren.si","fee":"yes","internet_access":"wlan","internet_access:fee":"yes","name":"Kamp Koren","name:de":"Campingplatz Koren","operator":"Koren Lidija S.P.","payment:mastercard":"yes","payment:visa":"yes","phone":"+386 5 3891311","power_supply":"yes","reservation":"yes","sanitary_dump_station":"yes","sauna":"yes","shower":"yes","source":"local_knowledge","stars":"4","tents":"yes","washing_machine":"yes","website":"https://www.kamp-koren.si/"}},"175673134":{"location":[46.2844191,13.548491],"ct":"SI","tp":"CS","ts":"2021-06-09T17:37:28Z","tX":550,"tY":363,"tags":{"addr:city":"Kobarid","addr:housenumber":"64","addr:postcode":"5222","addr:street":"Trnovo ob Soči","email":"info@camp-trnovo.si","fee":"yes","name":"Kamp Trnovo","name:en":"Camp Trnovo","phone":"+386 5 384 55 83;+386 51 319 783","website":"http://www.camp-trnovo.si/domov/"}},"226059876":{"location":[46.1747374,13.4803704],"ct":"IT","tp":"CS","ts":"2023-06-15T06:04:09Z","tX":550,"tY":363,"tags":{"barrier":"fence","capacity":"16","capacity:persons":"60","contact:facebook":"kampnadiz","name":"Camping Natisone Pulfero","opening_hours":"May 01-Oct 30","stars":"2","toilets":"5","website":"https://www.camping-natisone-pulfero.it"}},"442026538":{"location":[46.0945676,13.4361452],"ct":"IT","tp":"CR","ts":"2024-03-25T12:16:57Z","tX":550,"tY":363,"tags":{"capacity":"5","caravans":"no","fee":"no","maxstay":"72 hours","noname":"yes","note":"motorhomes tag includes campervans","operator":"Comune di Cividale del Friuli","power_supply":"no","sanitary_dump_station":"yes","shower":"no","tents":"no","toilets":"no","water_point":"yes","water_point:description":"3/4\" plug"}},"448979229":{"location":[46.2020462,13.5409885],"ct":"IT","tp":"CR","ts":"2024-05-05T15:28:19Z","tX":550,"tY":363,"tags":{"capacity:caravans":"7","fee":"no","power_supply":"no","sanitary_dump_station":"no","shower":"no","surface":"asphalt","toilets":"no","water_point":"no"}},"478563109":{"location":[46.2392397,13.4474034],"ct":"SI","tp":"CS","ts":"2023-11-30T17:49:21Z","tX":550,"tY":363,"tags":{"caravans":"yes","fee":"yes","name":"Kamp Lebanc","name:en":"Camp Lebanc","name:sl":"Kamp Lebanc","phone":"+386 41 342 057","static_caravans":"yes","tents":"yes","website":"https://www.kamplebanc.com/"}},"479278310":{"location":[46.2555873,13.5855484],"ct":"SI","tp":"CS","ts":"2024-04-28T09:42:41Z","tX":550,"tY":363,"tags":{"addr:city":"Kobarid","addr:country":"SI","addr:housenumber":"1B","addr:postcode":"5222","addr:street":"Trnovo ob Soci","caravans":"yes","drinking_water":"yes","name":"Kamp Lazar","operator":"Edi Lazar","ref:vatin":"SI10816259","source":"local_knowledge","tents":"yes","website":"https://www.lazar.si/"}},"611125308":{"location":[46.2427303,13.4567418],"ct":"SI","tp":"CS","ts":"2023-11-30T17:32:40Z","tX":550,"tY":363,"tags":{"addr:city":"Breginj","addr:housenumber":"48","addr:postcode":"5223","addr:street":"Podbela","caravans":"yes","contact:youtube":"https://www.youtube.com/@kampnadiza7262/videos","name":"Camping Nadiža","phone":"+386 41 443 115","tents":"yes","website":"https://www.kamp-nadiza.com/en/"}},"710527968":{"location":[46.2067685,13.6809681],"ct":"SI","tp":"CS","ts":"2019-08-03T17:43:17Z","tX":550,"tY":363,"tags":{"addr:city":"Tolmin","addr:country":"SI","addr:housenumber":"64","addr:postcode":"5220","addr:street":"Volarje","name":"Kamp Vili","phone":"+386 5 3811313","website":"http://www.camp-vili.si/"}},"718404852":{"location":[46.1960131,13.6974782],"ct":"SI","tp":"CS","ts":"2019-08-26T14:32:09Z","tX":550,"tY":363,"tags":{"caravans":"yes","internet_access":"wlan","internet_access:fee":"no","name":"Camp Gabrje","sanitary_dump_station":"customers","tents":"yes","website":"https://www.camp-gabrje.com/"}},"832742230":{"location":[46.1156603,13.4801174],"ct":"IT","tp":"CR","ts":"2024-03-25T12:16:11Z","tX":550,"tY":363,"tags":{"capacity":"6","caravans":"no","fee":"yes","name":"Camping Natisone","power_supply":"yes","tents":"no"}},"1076403521":{"location":[46.2375125,13.6638223],"ct":"SI","tp":"CS","ts":"2023-10-08T12:57:36Z","tX":550,"tY":363,"tags":{"addr:housenumber":"22","addr:place":"Krn","bbq":"yes","cabins":"only","caravans":"no","contact:email":"dsicic@siol.net","contact:phone":"+38631236103","contact:website":"https://www.glamping.si/en/glamps/glamping-krn","electricity":"yes","fee":"yes","fixme":"exact area","internet_access":"wlan","motor_vehicle":"no","name":"Glamping Krn","permanent_camping":"no","pets":"yes","picnic_table":"yes","shower":"yes","static_caravans":"no","tents":"no","toilets":"yes","website":"https://glampingkrn.si/"}},"1092160175":{"location":[46.0961125,13.4213838],"ct":"IT","tp":"CR","ts":"2024-03-25T12:17:50Z","tX":550,"tY":363,"tags":{"barrier":"fence","capacity":"13","check_date":"2022-12-25","contact:whatsapp":"+39 0432 618658","fee":"yes","name":"Area Camper Cividale del Friuli","operator":"Comune di Cividale del Friuli","payment:bancomat":"no","payment:credit_cards":"yes","payment:debit_cards":"yes","phone":"+39 0432 631515","power_supply":"yes","sanitary_dump_station":"yes","toilets":"yes"}},"1217355220":{"location":[46.0769293,13.4428177],"ct":"IT","tp":"CS","ts":"2024-10-29T13:55:31Z","tX":550,"tY":363,"tags":{"caravans":"no","landuse":"tourism","name":"Alvearium Glamping Altùris","tents":"no"}},"1276458969":{"location":[46.2148999,13.6133984],"ct":"SI","tp":"CS","ts":"2024-04-26T17:26:27Z","tX":550,"tY":363,"tags":{"addr:city":"Kobarid","addr:housenumber":"1d","addr:postcode":"5222","addr:street":"Idrsko","building":"yes","construction_date":"1996","name":"Kamp Skalca","ref:gurs:hs_mid":"16170593","ref:gurs:sta_sid":"10146356"}},"1279180794":{"location":[46.0878877,13.6331071],"ct":"SI","tp":"CS","ts":"2022-08-29T09:14:26Z","tX":550,"tY":363,"tags":{"addr:city":"Kanal ob Soči","addr:housenumber":"10b","addr:postcode":"5213","addr:street":"Kidričeva cesta","caravans":"yes","name":"Autocamp Korada","source":"http://www.sloveniaholidays.com/deu/autocamp-korada-die-julischen-alpe.html","tents":"yes"}},"3652913152":{"location":[46.2443986,13.565877],"ct":"SI","tp":"CS","ts":"2023-07-29T09:18:48Z","tX":550,"tY":363,"tags":{"addr:city":"Kobarid","addr:housenumber":"1f","addr:postcode":"5222","addr:street":"Svino","bar":"yes","fee":"yes","internet_access":"wlan","mobile":"+386 31 755 263; +386 31 333 087","name":"Camp Rut","phone":"+386 599 15059","playground":"yes","shower":"yes","tents":"yes","website":"http://www.kamp-rut.si/"}},"9653341159":{"location":[46.1995895,13.5887369],"ct":"SI","tp":"CS","ts":"2022-04-09T08:51:00Z","tX":550,"tY":363,"tags":{"addr:city":"Kobarid","addr:country":"SI","addr:housenumber":"22","addr:place":"Avsa","addr:postcode":"5222","email":"medves.branko@gmail.com","mobile":"+386 5 384 40 40","name":"Jelenov Breg pod Matajurjem","operator":"Branko Medveš","phone":"+386 41 494560;+386 41 494 560","website":"https://www.turisticnekmetije.si/de/bauernhof/jelenov-breg-pod-matajurjem"}},"9885175389":{"location":[46.3142841,13.487317],"ct":"SI","tp":"CS","ts":"2023-06-30T14:04:20Z","tX":550,"tY":363,"tags":{"caravans":"yes","contact:email":"info.toprafting@gmail.com","contact:phone":"+386 31 620636","name":"TOP rafting Center","tents":"yes","website":"https://www.top.si/"}},"6746443834":{"location":[46.1970347,13.6964381],"ct":"SI","tp":"SD","ts":"2024-08-22T06:58:26Z","tX":550,"tY":363,"tags":{"fee":"yes","sanitary_dump_station:chemical_toilet":"yes"}}}