{"27254574":{"location":[45.9852835,13.484594],"ct":"IT","tp":"CR","ts":"2022-06-01T20:32:39Z","tX":550,"tY":364,"tags":{"parking":"surface","surface":"unpaved","tourist_bus":"yes"}},"177630689":{"location":[46.0037174,13.4770013],"ct":"IT","tp":"CR","ts":"2016-09-21T07:38:37Z","tX":550,"tY":364,"tags":{"capacity":"10","description":"SostaNotturna,220V,Carico,Scarico","fee":"yes","opening_hours":"Jan-Dec","operator":"Comune di Dolegna","picnic_site":"yes","power_supply":"yes","sanitary_dump_station":"yes","toilets":"no","water_point":"yes"}},"238092411":{"location":[45.9456672,13.5453501],"ct":"IT","tp":"CR","ts":"2019-01-24T22:35:29Z","tX":550,"tY":364,"tags":{"capacity":"6","fee":"no","parking":"surface","surface":"asphalt"}},"428172441":{"location":[45.9894716,13.4391849],"ct":"IT","tp":"CR","ts":"2024-03-27T17:01:37Z","tX":550,"tY":364,"tags":{"access":"yes","capacity":"8","caravan_site":"motorhome_stopover","caravan_site:type":"village","caravans":"no","fee":"no","maxstay":"72 hours","name":"Area Attrezzata Di Sosta Camper Via Dei Pini","opening_hours":"24/7","operator":"Comune di Corno di Rosazzo","parking":"surface","power_supply":"no","sanitary_dump_station":"yes","seasonal":"no","surface":"asphalt","water_point":"yes","website":"https://www.comune.corno-di-rosazzo.ud.it/media/files/030030/attachment/Regolamento_area_sosta_camper_01_1Vvtkn9.pdf"}},"428173820":{"location":[45.9667711,13.4734331],"ct":"IT","tp":"CR","ts":"2024-01-03T12:23:47Z","tX":550,"tY":364,"tags":{"capacity":"3","caravan_site":"motorhome_stopover","caravans":"yes","fee":"no","name":"Area Attrezzata Camper Cormons","opening_hours":"Jan-Dec","power_supply":"yes","sanitary_dump_station":"yes","water_supply":"yes"}},"428186059":{"location":[45.9466272,13.5118094],"ct":"IT","tp":"CR","ts":"2024-10-03T05:55:40Z","tX":550,"tY":364,"tags":{"access":"yes","capacity":"6","fee":"no","name":"Area Attrezzata Camper Capriva del Friuli","parking":"surface","power_supply":"yes","power_supply:fee":"yes","sanitary_dump_station":"yes","socket:cee_blue":"yes","water_point":"yes"}},"428191687":{"location":[45.9456859,13.5454837],"ct":"IT","tp":"CR","ts":"2023-07-26T07:09:21Z","tX":550,"tY":364,"tags":{"capacity":"5","fee":"no","internet_access":"no","internet_access:fee":"no","opening_hours":"Jan-Dec","power_supply":"yes","stars":"1"}},"428198978":{"location":[45.94589,13.6166079],"ct":"IT","tp":"CR","ts":"2024-10-02T11:45:00Z","tX":550,"tY":364,"tags":{"capacity":"20","fee":"no","maxstay":"48","opening_hours":"Jan-Dec","operator":"Area attrezzata camper","power_supply":"no","sanitary_dump_station":"yes","water_point":"yes"}},"428200305":{"location":[45.8858289,13.4953022],"ct":"IT","tp":"CR","ts":"2024-08-21T09:12:59Z","tX":550,"tY":364,"tags":{"capacity:caravans":"3","drinking_water":"yes","fee":"no","maxstay":"48","noname":"yes","sanitary_dump_station":"yes","shower":"no","tents":"no","toilets":"no","water_point":"yes","water_point:description":"presa 3/4 di pollice"}},"498879202":{"location":[45.9626446,13.4954933],"ct":"IT","tp":"CR","ts":"2017-06-07T15:29:40Z","tX":550,"tY":364,"tags":{"fee":"no","supervised":"no","surface":"unpaved"}},"1087174874":{"location":[45.9555676,13.6645731],"ct":"SI","tp":"CS","ts":"2024-07-02T21:33:26Z","tX":550,"tY":364,"tags":{"caravans":"yes","drinking_water":"yes","name":"Siesta","power_supply":"yes","shower":"yes","tents":"yes","toilets":"yes","website":"https://www.hotel-siesta.si/en/index_en.php"}},"1306356867":{"location":[45.8966141,13.6443261],"ct":"SI","tp":"CR","ts":"2024-08-14T18:35:42Z","tX":550,"tY":364,"tags":{"addr:city":"Renče","addr:housenumber":"149a","addr:postcode":"5292","addr:street":"Bilje","area":"yes","internet_access":"wlan","name":"PZA – Bilje","phone":"+386 386 5 93 44 601","power_supply":"yes"}},"4403910000":{"location":[46.0162105,13.3931325],"ct":"IT","tp":"CR","ts":"2024-03-25T12:18:28Z","tX":550,"tY":364,"tags":{"capacity":"10","caravans":"no","fee":"no","opening_hours":"Jan-Dec","playground":"no","power_supply":"yes","sanitary_dump_station":"yes","shower":"no","tents":"no","toilets":"no","water_point":"yes"}},"10074460425":{"location":[45.9893932,13.4389328],"ct":"IT","tp":"SD","ts":"2022-10-04T07:01:34Z","tX":550,"tY":364,"tags":{"access":"yes","fee":"no","water_point":"yes"}},"7726104242":{"location":[46.0556595,13.6897472],"ct":"SI","tp":"CS","ts":"2023-09-22T09:57:30Z","tX":550,"tY":364,"tags":{"addr:city":"Grgar","addr:housenumber":"12","addr:postcode":"5251","addr:street":"Banjšice","facebook":"https://www.facebook.com/stdmocnarave/?ref=bookmarks","name":"DS Camping","phone":"+386 51 214 912;+386 51 270 118","website":"https://www.dscamping.si/"}},"7922834085":{"location":[46.0037372,13.5395871],"ct":"SI","tp":"CS","ts":"2020-09-19T11:37:09Z","tX":550,"tY":364,"tags":{}},"8926470439":{"location":[45.9864939,13.6100637],"ct":"SI","tp":"CS","ts":"2023-07-15T19:36:40Z","tX":550,"tY":364,"tags":{"caravans":"yes","contact:email":"kampbrda@gmail.com","contact:phone":"+386 41 390 856","drinking_water":"yes","name":"Kamp Brda","power_supply":"yes","shower":"yes","tents":"yes","toilets":"yes","website":"https://www.kampbrda.com/"}}}