{"17283568":{"location":[45.6800389,13.412144],"ct":"IT","tp":"CR","ts":"2025-04-09T20:53:45Z","tX":550,"tY":365,"tags":{"capacity":"88","caravan_site:type":"beach","charge":"1,20 €/h ; 6,00 €/24h","check_date":"2025-04-09","drinking_water":"yes","fee":"yes","fee:conditional":"yes @ (08:00-22:00)","internet_access":"no","name":"Sacca dei Moreri 2","operator":"Città di Grado","power_supply":"no","reservation":"no","sanitary_dump_station":"no","smoking":"yes","surface":"asphalt","toilets":"no","wheelchair":"yes"}},"26978622":{"location":[45.6787397,13.4221517],"ct":"IT","tp":"CS","ts":"2024-10-02T08:39:46Z","tX":550,"tY":365,"tags":{"caravans":"yes","drinking_water":"yes","email":"info@campingalbosco.it","fax":"+39 0431 81008","fee":"yes","internet_access":"wlan","internet_access:fee":"no","name":"Al Bosco","nudism":"no","phone":"+39 0431 80485","power_supply":"yes","reservation":"recommended","sanitary_dump_station":"yes","shower":"yes","socket:cee_blue":"yes","stars":"2","start_date":"1956","survey:date":"2023-10-12","tents":"yes","toilets":"yes","website":"https://campingalbosco.it/","wheelchair":"yes"}},"42985055":{"location":[45.6822305,13.4128697],"ct":"IT","tp":"CR","ts":"2025-04-08T06:42:21Z","tX":550,"tY":365,"tags":{"capacity":"93","caravan_site:type":"beach","charge":"1,50 €/h ; 20,00 €/24h","check_date":"2025-03-21","drinking_water":"yes","fee":"yes","fee:conditional":"yes @ (08:00-22:00)","internet_access":"no","name":"Sacca dei Moreri 1","operator":"Città di Grado","power_supply":"yes","reservation":"no","sanitary_dump_station":"public","smoking":"yes","surface":"asphalt","survey:date":"2024-01-10","toilets":"no","wheelchair":"designated"}},"89978215":{"location":[45.7754355,13.3718885],"ct":"IT","tp":"CS","ts":"2024-10-15T06:32:37Z","tX":550,"tY":365,"tags":{"addr:city":"Aquileia","addr:housenumber":"10","addr:postcode":"33051","addr:street":"Via Gemina","alt_name:de":"Agley;Aglarn;Aglar","capacity":"115","capacity:caravans":"115","capacity:persons":"398","caravans":"yes","dog":"yes","drinking_water":"yes","email":"info@campingaquileia.it","fax":"+39 0431 917133","internet_access":"wlan","motorhome":"yes","name":"Aquileia","name:de":"Aquileja","name:fr":"Aquilée","name:fur":"Aquilee","name:it":"Aquileia","name:pl":"Akwileja","name:ru":"Аквилея","name:sl":"Oglej","name:uk":"Аквілея","official_name":"Camping Aquileia","opening_hours":"Mar 29-Oct 30 08:00-20:00","phone":"+39 0431 91042","phone:mobile":"+39 328 3310065","power_supply":"yes","power_supply:maxcurrent":"4;6;10","sanitary_dump_station":"yes","shower":"yes","socket:cee_blue":"yes","stars":"2","tents":"yes","toilets":"20","website":"https://www.campingaquileia.it/","wheelchair":"yes"}},"158852230":{"location":[45.7773072,13.52989],"ct":"IT","tp":"CS","ts":"2024-10-02T11:41:46Z","tX":550,"tY":365,"tags":{"addr:city":"Monfalcone","addr:housenumber":"65","addr:postcode":"34074","addr:street":"Via delle Giarrette","cabins":"yes","capacity":"1220","caravans":"yes","contact:facebook":"https://m.facebook.com/ClubdelSole","contact:instagram":"https://www.instagram.com/clubdelsole/","drinking_water":"yes","name":"Marina Julia Family Camping Village","old_name":"Albatros","opening_hours":"Jan-Dec","operator":"Club del Sole","phone":"+39 0481 40561","power_supply":"yes","power_supply:maxcurrent":"6","shower":"yes","socket:cee_blue":"yes","stars":"3","tents":"yes","website":"https://www.clubdelsole.com/it/destinazioni/friuli-venezia-giulia-alto-adriatico/marina-julia-family-camping-village"}},"166163788":{"location":[45.6932189,13.4538588],"ct":"IT","tp":"CS","ts":"2024-10-13T18:16:07Z","tX":550,"tY":365,"tags":{"addr:city":"Grado","addr:housenumber":"10","addr:postcode":"34073","addr:province":"Gorizia","addr:state":"Italia","addr:street":"Via Monfalcone","caravans":"yes","contact:email":"info@puntaspin.it","contact:fax":"+39 0431 83530","contact:phone":"+39 0431 80732;+39 0431 81780","contact:website":"https://www.puntaspin.it/it/","dog":"yes","drinking_water":"yes","fee":"yes","internet_access":"wlan","motorhome":"yes","name":"Punta Spin","nudism":"no","power_supply":"yes","power_supply:maxcurrent":"6;10","reservation":"recommended","sanitary_dump_station":"yes","shower":"yes","socket:cee_blue":"yes","stars":"3","tents":"yes","toilets":"yes","wheelchair":"yes"}},"295605025":{"location":[45.6950094,13.4575901],"ct":"IT","tp":"CS","ts":"2025-03-26T22:10:35Z","tX":550,"tY":365,"tags":{"addr:city":"Grado","addr:housenumber":"12","addr:postcode":"34073","addr:state":"Italia","addr:street":"Via Monfalcone","caravans":"yes","contact:email":"info@villaggioeuropa.com","contact:fax":"+39 0431 82284","contact:instagram":"https://www.instagram.com/villaggio_europa_grado/","contact:phone":"+39 0431 80877","drinking_water":"yes","fee":"yes","internet_access":"wlan","motorhome":"yes","name":"Villaggio Europa","nudism":"no","power_supply":"yes","power_supply:maxcurrent":"6","reservation":"recommended","sanitary_dump_station":"yes","shower":"yes","socket:cee_blue":"yes","stars":"4","tents":"yes","toilets":"yes","website":"https://www.villaggioeuropa.com","wheelchair":"yes"}},"295605200":{"location":[45.7294852,13.4033276],"ct":"IT","tp":"CS","ts":"2024-10-01T20:43:31Z","tX":550,"tY":365,"tags":{"caravans":"yes","dog":"yes","email":"info@belvederepineta.it","fax":"+39 0431 918641","fee":"yes","motorhome":"yes","name":"Belvedere Pineta","phone":"+39 0431 91007","power_supply":"yes","power_supply:maxcurrent":"3;6;10","socket:cee_blue":"yes","stars":"4","tents":"yes","website":"https://www.belvederepineta.com/"}},"416323535":{"location":[45.7715178,13.6238086],"ct":"IT","tp":"CS","ts":"2024-10-02T11:38:59Z","tX":550,"tY":365,"tags":{"caravans":"yes","dog":"yes","drinking_water":"yes","email":"info@marepineta.com","internet_access":"yes","name":"Camping Village Mare Pineta","phone":"+39 040 299264","power_supply":"yes","power_supply:maxcurrent":"6","sanitary_dump_station":"customers","shower":"yes","socket:cee_blue":"yes","tents":"yes","toilets":"yes","website":"https://www.marepineta.com/","wheelchair":"yes"}},"442421198":{"location":[45.8059827,13.4898081],"ct":"IT","tp":"CR","ts":"2024-10-01T06:03:19Z","tX":550,"tY":365,"tags":{"addr:city":"Staranzano","addr:housenumber":"17","addr:postcode":"34079","addr:street":"Strada delle Acacie","capacity":"8","maxstay":"48 hours","name":"Camper Club La foce dell'Isonzo","phone":"+39 0481 980041","power_supply":"yes","power_supply:fee":"yes","reservation":"no","sanitary_dump_station":"yes","socket:cee_blue":"yes","toilets":"yes","water_point":"yes","water_point:fee":"yes","website":"https://camper-club-la-foce-dellisonzo.mailchimpsites.com/"}},"607983800":{"location":[45.7624166,13.6530152],"ct":"IT","tp":"CS","ts":"2024-10-02T11:36:14Z","tX":550,"tY":365,"tags":{"addr:city":"Duino Aurisina / Devin - Nabrežina","addr:housenumber":"55","addr:place":"Aurisina Cave / Nabrežina Kamnolomi","addr:postcode":"34011","caravans":"yes","dog":"yes","email":"info.campingcarso@gmail.com","fee":"yes","internet_access":"wlan","internet_access:fee":"no","mobile":"+39 339 5472401","name":"Camping Agrituristico Carso","operator":"Azienda Agricola Carso di Aila Quadracci","phone":"+39 040 200459","power_supply":"yes","ref:vatin":"IT01212670325","sanitary_dump_station":"yes","shower":"yes","socket:cee_blue":"yes","tents":"yes","toilets":"yes","website":"https://www.campingcarso.com/"}},"788777874":{"location":[45.7035947,13.4654502],"ct":"IT","tp":"CS","ts":"2024-09-30T06:07:57Z","tX":550,"tY":365,"tags":{"access":"permissive","addr:city":"Grado","addr:housenumber":"14","addr:postcode":"34073","addr:province":"Gorizia","addr:state":"Italia","addr:street":"Via Monfalcone","caravans":"yes","contact:email":"info@tenutaprimero.com","contact:phone":"+39 0431 896900","contact:website":"https://www.tenutaprimero.com/it/","dog":"yes","drinking_water":"yes","fee":"yes","internet_access":"wlan","motorhome":"yes","name":"Camping Tenuta Primero","nudism":"no","opening_hours":"Mo-Su 08:00-18:00","power_supply":"yes","power_supply:maxcurrent":"6","reservation":"recommended","sanitary_dump_station":"yes","shower":"yes","socket:cee_blue":"yes","stars":"4","tents":"yes","toilets":"yes","wheelchair":"yes"}},"788777888":{"location":[45.7030328,13.4621126],"ct":"IT","tp":"CR","ts":"2020-04-07T07:45:41Z","tX":550,"tY":365,"tags":{}},"791727843":{"location":[45.6861696,13.4396396],"ct":"IT","tp":"CS","ts":"2024-04-22T20:04:54Z","tX":550,"tY":365,"tags":{"addr:city":"Grado","addr:housenumber":"6","addr:postcode":"34073","addr:province":"Gorizia","addr:state":"Italia","addr:street":"Via Monfalcone","contact:email":"info@calaguna.it","contact:facebook":"https://m.facebook.com/ca.laguna","contact:instagram":"https://www.instagram.com/ca.laguna/","contact:phone":"+39 0431 193 8004;+39 0431 198 0190","contact:website":"https://calaguna.it/","drinking_water":"yes","name":"Ca' Laguna","nudism":"no","power_supply":"yes","shower":"yes","toilets":"yes","wheelchair":"designated"}},"1103858263":{"location":[45.7713359,13.3682521],"ct":"IT","tp":"CR","ts":"2024-10-15T06:36:12Z","tX":550,"tY":365,"tags":{"drinking_water":"no","fee":"yes","internet_access":"no","name:signed":"no","power_supply":"no","reservation":"no","sanitary_dump_station":"no","smoking":"yes","toilets":"yes","wheelchair":"yes"}},"1202729778":{"location":[45.7745001,13.5236803],"ct":"IT","tp":"CS","ts":"2023-08-28T09:09:52Z","tX":550,"tY":365,"tags":{"addr:city":"Monfalcone","addr:housenumber":"2","addr:postcode":"34074","addr:street":"Via Punta Barene","capacity:persons":"130","email":"ferien@kinderfreunde-steiermark.at","name":"Centro Vacanze Kinderfreunde","operator":"Kinderfreunde Steiermark","phone":"+43 316 82 55 12-25","website":"https://www.ferien-kinderfreunde.at;https://kinderfreunde.at"}},"1205636680":{"location":[45.7227126,13.3776017],"ct":"IT","tp":"CS","ts":"2024-10-01T20:27:47Z","tX":550,"tY":365,"tags":{"addr:city":"Grado","addr:country":"IT","addr:hamlet":"Località Isola Volpera","addr:postcode":"34073","addr:province":"Gorizia","addr:state":"Italia","caravans":"yes","drinking_water":"yes","email":"info@isoladelparadiso.com","internet_access":"wlan","motorhome":"yes","name":"Isola del Paradiso","nudism":"no","phone":"+39 0431 82061","power_supply":"yes","shower":"yes","socket:cee_blue":"yes","tents":"yes","toilets":"yes","washing_machine":"yes","website":"https://isoladelparadiso.com/","wheelchair":"yes"}},"1246310316":{"location":[45.8197419,13.6153145],"ct":"SI","tp":"CS","ts":"2024-09-11T09:38:57Z","tX":550,"tY":365,"tags":{"addr:city":"Kostanjevica na Krasu","addr:place":"Sela na Krasu","addr:postcode":"5269","capacity:caravans":"14","capacity:tents":"15","caravans":"yes","fee":"yes","name":"PZA Sela na Krasu","payment:cashless":"yes","power_supply":"yes","tents":"yes"}},"3693161205":{"location":[45.6963383,13.4556029],"ct":"IT","tp":"SD","ts":"2018-06-11T09:26:14Z","tX":550,"tY":365,"tags":{"water_point":"yes"}},"6786738784":{"location":[45.7723528,13.6218962],"ct":"IT","tp":"SD","ts":"2019-09-10T22:19:35Z","tX":550,"tY":365,"tags":{"sanitary_dump_station:grey_water":"yes"}},"9963780253":{"location":[45.6826744,13.4123439],"ct":"IT","tp":"SD","ts":"2024-10-25T08:22:37Z","tX":550,"tY":365,"tags":{"access":"yes","fee":"no","opening_hours":"24/7","operator":"Città di Grado","sanitary_dump_station:round_drain":"yes","survey:date":"2023-10-12"}},"10118765250":{"location":[45.7657042,13.3698495],"ct":"IT","tp":"SD","ts":"2022-10-21T12:47:42Z","tX":550,"tY":365,"tags":{"access":"yes","fee":"yes","opening_hours":"24/7"}},"11080588095":{"location":[45.6826684,13.4123715],"ct":"IT","tp":"SD","ts":"2024-10-25T08:22:37Z","tX":550,"tY":365,"tags":{"access":"yes","fee":"no","opening_hours":"24/7","operator":"Città di Grado","sanitary_dump_station:round_drain":"yes","survey:date":"2023-10-12"}},"11172376440":{"location":[45.7237952,13.3778383],"ct":"IT","tp":"SD","ts":"2023-09-06T17:33:34Z","tX":550,"tY":365,"tags":{"access":"customers","fee":"no"}},"12214978830":{"location":[45.7758622,13.3719593],"ct":"IT","tp":"SD","ts":"2024-10-01T20:36:07Z","tX":550,"tY":365,"tags":{"access":"customers","fee":"no","water_point":"yes"}},"11586944386":{"location":[45.8197234,13.6156871],"ct":"SI","tp":"SD","ts":"2024-02-05T13:36:51Z","tX":550,"tY":365,"tags":{}},"12739925416":{"location":[45.7569531,13.7090728],"ct":"IT","tp":"SD","ts":"2025-04-08T20:43:23Z","tX":550,"tY":365,"tags":{"fee":"yes"}}}