{"26842381":{"location":[45.3691966,13.5418657],"ct":"HR","tp":"CS","ts":"2023-09-04T19:30:44Z","tX":550,"tY":366,"tags":{"addr:city":"Umag","addr:country":"HR","addr:housenumber":"132a","addr:postcode":"52470","addr:street":"Ladin gaj","backcountry":"no","cabins":"yes","caravans":"yes","email":"park.umag@istracamping.com","internet_access":"yes","internet_access:fee":"no","name":"Park Umag","old_name":"Ladin Gaj","operator":"Istra Camping","phone":"+385 52 713 740","shower":"yes","stars":"4","tents":"yes","website":"https://www.istracamping.com/de/campingplatze/park-umag"}},"28181311":{"location":[45.3416456,13.5472075],"ct":"HR","tp":"CS","ts":"2022-07-12T12:45:55Z","tX":550,"tY":366,"tags":{"camp_site":"deluxe","email":"reservations@aminess.com","fee":"yes","name":"Aminess Maravea Camping Resort","operator":"Aminess","payment:cash":"yes","payment:credit_cards":"yes","phone":"+38552858600","shower":"yes","stars":"4","toilets":"yes","website":"https://www.aminess.com/en/aminess-maravea-camping-resort"}},"69489488":{"location":[45.5023422,13.5957763],"ct":"SI","tp":"CS","ts":"2024-09-18T15:27:18Z","tX":550,"tY":366,"tags":{"addr:city":"Portorož","addr:housenumber":"204","addr:postcode":"6320","addr:street":"Seča","area":"yes","caravans":"yes","contact:email":"camp.lucija@h-bernardin.si","contact:phone":"+386 5 690 6000","contact:website":"https://www.hoteli-bernardin.si/en/campsite","drinking_water":"yes","name":"Camp Lucija","power_supply":"yes","shower":"yes","tents":"yes","toilets":"yes"}},"131962635":{"location":[45.531565,13.6310343],"ct":"SI","tp":"CS","ts":"2023-09-13T14:30:34Z","tX":550,"tY":366,"tags":{"caravans":"yes","name":"Kamp Belvedere","tents":"yes","toilets":"yes"}},"180563244":{"location":[45.5324684,13.6283148],"ct":"SI","tp":"CS","ts":"2023-08-17T16:12:34Z","tX":550,"tY":366,"tags":{"addr:city":"Izola","addr:housenumber":"1a","addr:postcode":"6310","addr:street":"Dobrava","alt_name":"Camp Belvedere","caravans":"yes","contact:email":"belvedere@belvedere.si","contact:phone":"+386 5 66 05 100","contact:website":"https://belvedere.si/sl/kamp/predstavitev","drinking_water":"yes","motorhome":"yes","name":"Camping Belvedere","power_supply":"no","shower":"yes","tents":"yes","toilets":"yes"}},"180563377":{"location":[45.5399967,13.6716365],"ct":"SI","tp":"CS","ts":"2024-10-03T21:51:34Z","tX":550,"tY":366,"tags":{"caravans":"yes","drinking_water":"yes","email":"freetimedoo@siol.net","fax":"+386 5 9095540","name":"Avtokamp Jadranka","phone":"+386 41 724230","power_supply":"yes","sanitary_dump_station":"yes","shower":"yes","tents":"yes","toilets":"yes","website":"https://www.jadranka-avtocamp.si/en/"}},"367466884":{"location":[45.4708606,13.5107248],"ct":"HR","tp":"CR","ts":"2024-05-26T22:23:19Z","tX":550,"tY":366,"tags":{"cabins":"yes","capacity:cabins":"4","fee":"yes","fixme":"could be more a caravan_park then a caravan_site","name":"Zak Mobile Homes","tents":"no"}},"397470588":{"location":[45.5236186,13.5793884],"ct":"SI","tp":"CS","ts":"2024-09-19T09:17:27Z","tX":550,"tY":366,"tags":{"addr:city":"Piran","addr:housenumber":"57b","addr:postcode":"6330","addr:street":"Fiesa","alt_name":"Kamp Fiesa","area":"yes","contact:website":"https://www.avtokampi.si/campsites/camping-fiesa","ele":"10","name":"Camp Fiesa","phone":"+386 51 323975;+386 567 462 30","sanitary_dump_station":"customers"}},"430969189":{"location":[45.4861626,13.4937611],"ct":"HR","tp":"CS","ts":"2020-08-29T05:45:01Z","tX":550,"tY":366,"tags":{"addr:city":"Savudrija","addr:housenumber":"19","addr:postcode":"52475","addr:street":"Istarska","contact:fax":"+385 52 709 559","contact:phone":"+385 52 709 550","contact:website":"https://www.istracamping.com/de/campingplatze/savudrija","name":"Camping Savudrija","source":"http://www.istracamping.com/camping/pineta/description"}},"431150485":{"location":[45.4521448,13.5224694],"ct":"HR","tp":"CS","ts":"2023-06-09T15:10:58Z","tX":550,"tY":366,"tags":{"caravans":"yes","drinking_water":"yes","name":"Stella Maris","shower":"yes","tents":"yes","website":"https://www.istracamping.com/camping/stella-maris/description"}},"431159371":{"location":[45.3927405,13.5397804],"ct":"HR","tp":"CS","ts":"2022-10-11T17:29:38Z","tX":550,"tY":366,"tags":{"addr:city":"Umag","addr:country":"HR","addr:housenumber":"55a","addr:postcode":"52470","addr:street":"Križine","caravans":"yes","charge":"19€","email":"finida@istracamping.com","name":"Finida","phone":"+385 52 713 950","tents":"yes","website":"https://www.istracamping.com/de/campingplatze/finida"}},"481824675":{"location":[45.4874024,13.5604209],"ct":"HR","tp":"CS","ts":"2024-08-23T09:12:55Z","tX":550,"tY":366,"tags":{"addr:city":"Umag","addr:country":"HR","addr:housenumber":"2","addr:postcode":"52470","addr:street":"Kanegra","capacity":"196","caravans":"yes","dog":"yes","email":"camp.kanegra@istraturist.hr","fax":"+385 52 709499","internet_access":"wlan","internet_access:fee":"no","name":"Camping Kanegra FKK","name:de":"FKK-Campingplatz Kanegra","nudism":"obligatory","operator":"Istraturist Umag","payment:mastercard":"yes","payment:visa":"yes","phone":"+385 52 709000","power_supply":"yes","sanitary_dump_station":"yes","stars":"4","tents":"yes","website":"https://www.istracamping.com/de/campingplatze/kanegra"}},"482517770":{"location":[45.4965094,13.501138],"ct":"HR","tp":"CS","ts":"2023-08-03T09:19:46Z","tX":550,"tY":366,"tags":{"cabins":"yes","caravans":"yes","dog":"yes","drinking_water":"yes","fee":"yes","group_only":"no","name":"Veli Jože","operator":"Zagrebački holding d.o.o., Podružnica Vladimir Nazor","payment:cash":"yes","payment:credit_cards":"yes","payment:mastercard":"yes","power_supply":"yes","shower":"yes","tents":"yes","toilets":"yes","website":"https://www.nazor.hr/kamp-veli-joze/","wheelchair":"yes"}},"482529239":{"location":[45.5027542,13.5037304],"ct":"HR","tp":"CS","ts":"2024-10-02T12:58:14Z","tX":550,"tY":366,"tags":{"caravans":"yes","dog":"yes","fee":"yes","name":"Tramontana","power_supply":"yes","stars":"1","tents":"yes","website":"https://ac-tramontana.eu/"}},"558430314":{"location":[45.4997753,13.5232085],"ct":"HR","tp":"CR","ts":"2024-01-22T14:56:55Z","tX":550,"tY":366,"tags":{"landuse":"meadow"}},"612066149":{"location":[45.5329343,13.6491767],"ct":"SI","tp":"CR","ts":"2022-01-04T12:15:35Z","tX":550,"tY":366,"tags":{"fee":"yes","power_supply":"cee_17_blue","sanitary_dump_station":"yes"}},"762329099":{"location":[45.5141522,13.5815793],"ct":"SI","tp":"PK","ts":"2021-10-14T09:21:50Z","tX":550,"tY":366,"tags":{"access":"yes","fee":"yes","motorhome":"yes","parking":"surface"}},"762329100":{"location":[45.5152176,13.5798422],"ct":"SI","tp":"PK","ts":"2024-02-10T19:12:51Z","tX":550,"tY":366,"tags":{"access":"yes","fee":"yes","motorhome":"yes","parking":"surface"}},"928650061":{"location":[45.4496011,13.5204357],"ct":"HR","tp":"CR","ts":"2024-05-16T10:34:01Z","tX":550,"tY":366,"tags":{"access":"yes","caravan_site":"motorhome_stopover","caravan_site:type":"parking","fee":"yes"}},"1000028853":{"location":[45.4903769,13.492625],"ct":"HR","tp":"CS","ts":"2024-09-09T19:49:55Z","tX":550,"tY":366,"tags":{"addr:city":"Savudrija","addr:housenumber":"16A","addr:postcode":"52475","addr:street":"Svjetionicarska ul.","capacity":"32","caravans":"yes","contact:instagram":"https://www.instagram.com/lighthouse_campsite/","drinking_water":"yes","email":"info@camp-lighthouse.hr","facebook":"https://www.facebook.com/CampsiteLighthouse/","fee":"yes","internet_access":"wlan","name":"Lighthouse","nudism":"no","payment:cash":"yes","payment:credit_cards":"yes","payment:debit_cards":"yes","phone":"+38552866943","power_supply":"yes","shower":"yes","static_caravans":"no","tents":"yes","toilets":"yes","website":"https://www.camp-lighthouse.hr/"}},"1268176623":{"location":[45.4225325,13.6773709],"ct":"HR","tp":"CS","ts":"2024-04-01T16:10:13Z","tX":550,"tY":366,"tags":{"camp_site":"deluxe","caravans":"yes","contact:website":"https://www.sanservoloresort.com/wellness-camping/","fee":"yes","motorhome":"yes","name":"San Servolo Wellness Camping","sanitary_dump_station":"yes","shower":"yes","swimming_pool":"yes"}},"1309823277":{"location":[45.5247809,13.6071566],"ct":"SI","tp":"CS","ts":"2024-08-22T12:53:33Z","tX":550,"tY":366,"tags":{"addr:city":"Portorož","addr:housenumber":"23","addr:place":"Strunjan","addr:postcode":"6320","email":"amd-piran@siol.net","name":"Avtokamp Strunjan","operator":"Avto-Moto društvo Pinko Tomažič","phone":"+386 5 678 20 76","website":"https://www.amdpiran-drustvo.si/en/camp/"}},"1909881766":{"location":[45.5324288,13.628324],"ct":"SI","tp":"CS","ts":"2023-08-17T16:12:28Z","tX":550,"tY":366,"tags":{"caravans":"no","drinking_water":"yes","name":"Kamp Belvedere","power_supply":"no","shower":"yes","tents":"yes"}},"3813049901":{"location":[45.5082962,13.6262213],"ct":"SI","tp":"CS","ts":"2023-08-31T10:33:42Z","tX":550,"tY":366,"tags":{"addr:city":"Portorož","addr:housenumber":"8","addr:postcode":"6320","addr:street":"Liminjan","contact:email":"info@kaki-plac.si","contact:phone":"+386 41 359 801","name":"Kaki plac","operator":"Adrenaline check","website":"https://www.kaki-plac.si/en/"}},"5007766875":{"location":[45.5312277,13.6335478],"ct":"SI","tp":"CS","ts":"2022-06-18T15:23:51Z","tX":550,"tY":366,"tags":{"email":"camping@belvedere.si","name":"Kamp Belvedere","name:en":"Camping Belvedere","phone":"+386 5 660 51 00","website":"https://belvedere.si/de/kamp"}},"5636598921":{"location":[45.5048348,13.5983147],"ct":"SI","tp":"CR","ts":"2018-05-23T06:21:51Z","tX":550,"tY":366,"tags":{"internet_access":"wlan"}},"5825370770":{"location":[45.5041173,13.5945895],"ct":"SI","tp":"CR","ts":"2018-08-11T14:51:30Z","tX":550,"tY":366,"tags":{"description":"Gebühr: Nebensaison 26,00 €; Hauptsaison 34,00 €\nZusätzlich: Anmeldegebühr 1,50 € und 0,63 € Kurtaxe/Person\nCheck out: 2 pm","name":"Stellplätze"}},"5794342533":{"location":[45.5326954,13.6490631],"ct":"SI","tp":"SD","ts":"2020-11-18T18:32:45Z","tX":550,"tY":366,"tags":{"fee":"yes"}},"7980725325":{"location":[45.5018812,13.596306],"ct":"SI","tp":"SD","ts":"2020-10-06T09:44:20Z","tX":550,"tY":366,"tags":{"access":"customers"}},"5940793886":{"location":[45.4041396,13.6931062],"ct":"HR","tp":"CS","ts":"2024-04-02T04:16:21Z","tX":550,"tY":366,"tags":{"addr:housenumber":"54","addr:place":"Triban","contact:mobile":"+385981906546","contact:website":"https://eco-gecko-camping.business.site/","name":"Eco gecko"}}}