{"8268454":{"location":[43.5242797,13.621511],"ct":"IT","tp":"CS","ts":"2020-09-03T16:53:16Z","tX":550,"tY":374,"tags":{"name":"Camping Club Internazionale"}},"8268459":{"location":[43.5185719,13.6169027],"ct":"IT","tp":"CS","ts":"2018-05-03T22:08:38Z","tX":550,"tY":374,"tags":{"name":"Green Garden Camping Village"}},"8268460":{"location":[43.5195799,13.6165304],"ct":"IT","tp":"CS","ts":"2018-05-03T22:08:38Z","tX":550,"tY":374,"tags":{"name":"Tobacco Road camping club Sirolo"}},"95296814":{"location":[43.4721052,13.6410291],"ct":"IT","tp":"CS","ts":"2024-09-04T20:27:56Z","tX":550,"tY":374,"tags":{"caravans":"yes","drinking_water":"yes","name":"Bellamare","power_supply":"yes","sanitary_dump_station":"yes","shower":"yes","tents":"yes","toilets":"yes"}},"122068424":{"location":[43.4800743,13.6361327],"ct":"IT","tp":"CS","ts":"2022-09-06T08:12:24Z","tX":550,"tY":374,"tags":{"caravans":"yes","email":"info@coneroazzurro.it","fax":"+39 071 7390986","name":"Camping Village Conero Azzurro","phone":"+39 071 7390507","stars":"4","tents":"yes","website":"https://www.coneroazzurro.it/"}},"169021246":{"location":[43.5190719,13.6194403],"ct":"IT","tp":"CS","ts":"2012-06-25T18:20:55Z","tX":550,"tY":374,"tags":{"name":"Camping Reno"}},"217287041":{"location":[43.4456558,13.6567059],"ct":"IT","tp":"CR","ts":"2024-10-07T16:09:42Z","tX":550,"tY":374,"tags":{"name":"Area Sosta Caravan Porto Recanati"}},"303079297":{"location":[43.4754928,13.631566],"ct":"IT","tp":"CS","ts":"2023-10-26T23:50:19Z","tX":550,"tY":374,"tags":{"addr:housenumber":"37","addr:postcode":"60026","addr:street":"Via Costa Verde","email":"info@numanablu.it","name":"Camping Village Numana Blu","phone":"+39 071 7390993","stars":"4","website":"https://www.numanablu.it/"}},"435763719":{"location":[43.5179047,13.6155049],"ct":"IT","tp":"CR","ts":"2018-05-03T22:08:41Z","tX":550,"tY":374,"tags":{"addr:city":"Sirolo","addr:street":"Via Aldo Davanzali","fee":"yes","internet_access":"no","name":"Area Sosta Camper Sirolo","operator":"tel +393313897765","power_supply":"yes","sanitary_dump_station":"yes"}},"435764404":{"location":[43.4706341,13.6428325],"ct":"IT","tp":"CR","ts":"2024-09-10T10:03:05Z","tX":550,"tY":374,"tags":{"addr:city":"Porto Recanati","addr:street":"Via Scossicci","capacity":"70","drinking_water":"yes","fee":"yes","name":"Area camper Scossicci","operator":"Privato","power_supply":"yes","sanitary_dump_station":"yes","toilets":"no"}},"435764797":{"location":[43.46593,13.6447248],"ct":"IT","tp":"CS","ts":"2024-09-10T14:02:25Z","tX":550,"tY":374,"tags":{"addr:city":"Porto Recanati","addr:postcode":"62017","addr:street":"Viale Ludovico Scarfiotti","caravans":"yes","drinking_water":"yes","fee":"yes","name":"Camping La Medusa","phone":"+39 071 750 0725","power_supply":"yes","sanitary_dump_station":"yes","shower":"yes","tents":"yes","toilets":"yes","website":"https://www.campinglamedusa.it/"}},"435764911":{"location":[43.4626531,13.6468275],"ct":"IT","tp":"CS","ts":"2024-09-10T14:13:55Z","tX":550,"tY":374,"tags":{"addr:city":"Porto Recanati","addr:hamlet":"Scossicci","addr:postcode":"62017","caravans":"yes","contact:email":"direttore@campeggioclubadriatico.it","contact:phone":"+39 071 977735","drinking_water":"yes","name":"Camping Adriatico","power_supply":"yes","sanitary_dump_station":"yes","shower":"yes","tents":"yes","toilets":"yes","website":"https://www.campeggioclubadriatico.it/"}},"463688037":{"location":[43.4416787,13.6143758],"ct":"IT","tp":"CR","ts":"2024-09-17T04:28:54Z","tX":550,"tY":374,"tags":{"addr:city":"Loreto","addr:housenumber":"33a","addr:postcode":"60025","addr:province":"Ancona","addr:street":"Via Cesare Maccari","capacity":"40","contact:email":"areacamper@prolocoloreto.com","contact:phone":"+39 071 750 1738","fee":"yes","internet_access":"wlan","name":"Area Sosta Camper Loreto","power_supply":"yes","reservation":"no","sanitary_dump_station":"yes","shower":"yes","toilets":"yes","water_supply":"yes","website":"https://prolocoloreto.com/area-camper-1.html"}},"585676708":{"location":[43.3617932,13.6928246],"ct":"IT","tp":"CR","ts":"2024-12-03T09:08:30Z","tX":550,"tY":374,"tags":{"addr:city":"Porto Potenza Picena","addr:housenumber":"21","addr:postcode":"62018","addr:street":"Via Togliatti","capacity":"45","contact:phone":"+39 0733 687927","contact:website":"https://www.prolocoportopotenza.it/index.php/area-sosta-camper","description":"Aperta da Giugno a Settembre","name":"Sosta Camper Attrezzata","power_supply":"yes","power_supply:maxcurrent":"2.5","sanitary_dump_station":"yes","shower":"yes","socket:cee_blue":"yes","toilets":"yes"}},"593509403":{"location":[43.512197,13.6181218],"ct":"IT","tp":"CS","ts":"2018-06-03T21:02:51Z","tX":550,"tY":374,"tags":{"name":"Camping Riviera Village"}},"614086773":{"location":[43.4200825,13.6613871],"ct":"IT","tp":"CS","ts":"2024-05-03T17:10:28Z","tX":550,"tY":374,"tags":{"addr:city":"Porto Recanati","addr:housenumber":"30a","addr:postcode":"62017","addr:street":"Contrada Santa Maria in Potenza","alt_name":"Paradise Vacanze","camp_site":"serviced","contact:website":"https://www.paradisevacanze.com","fee":"yes","name":"Camping Paradise","tents":"yes"}},"1096346584":{"location":[43.4707168,13.5550287],"ct":"IT","tp":"CR","ts":"2024-09-17T21:53:33Z","tX":550,"tY":374,"tags":{"addr:street":"Via delle Sgogge","capacity":"9","fee":"yes","name":"area camper a la Fisarmonica","power_supply":"yes","reservation":"yes","sanitary_dump_station":"yes","socket:cee_blue":"yes","website":"https://www.comune.castelfidardo.an.it/area-camper-sistema-automatizzato-di-accesso-con-qr/"}},"1112283489":{"location":[43.5645938,13.5940754],"ct":"IT","tp":"CS","ts":"2022-11-11T15:55:02Z","tX":550,"tY":374,"tags":{"name":"Campeggio La Torre","website":"https://campeggiolatorreportonovo.com/"}},"1251324663":{"location":[43.4829478,13.4849637],"ct":"IT","tp":"CR","ts":"2024-09-17T21:44:53Z","tX":550,"tY":374,"tags":{"addr:housenumber":"73","addr:street":"Via De Gasperi","capacity":"8","dog":"leashed","internet_access":"no","maxstay":"72 hours","name":"Area Camper Osimo","note":"Per accedere all'area Ã¨ obbligatorio registrarsi sul sito","operator":"Osimo Servizi","power_supply":"yes","power_supply:fee":"no","socket:cee_blue":"yes","toilets":"no","website":"https://w2ww.osimoservizi.it/area_camper"}},"1307470751":{"location":[43.4038734,13.5509549],"ct":"IT","tp":"CR","ts":"2024-08-13T11:42:44Z","tX":550,"tY":374,"tags":{"fee":"yes","power_supply":"yes","sanitary_dump_station":"yes","water_supply":"yes"}},"1873713537":{"location":[43.4660512,13.5558699],"ct":"IT","tp":"CR","ts":"2020-12-07T21:50:29Z","tX":550,"tY":374,"tags":{"capacity":"3","maxstay":"48 hours","sanitary_dump_station":"yes","toilets":"no","water_point":"yes"}},"2195746370":{"location":[43.3429707,13.5708399],"ct":"IT","tp":"CR","ts":"2013-03-11T14:16:02Z","tX":550,"tY":374,"tags":{}},"2761559605":{"location":[43.5252827,13.3858306],"ct":"IT","tp":"CR","ts":"2024-01-03T12:32:06Z","tX":550,"tY":374,"tags":{"fee":"no","name":"Polverigi","operator":"Comune","sanitary_dump_station":"yes","water_point":"yes","water_point:description":"diametro sconosciuto"}},"4292804889":{"location":[43.4039319,13.6777913],"ct":"IT","tp":"CS","ts":"2024-08-06T13:55:49Z","tX":550,"tY":374,"tags":{"caravans":"yes","name":"Regina Camping","tents":"yes","website":"https://www.campingregina.it/"}},"5971283449":{"location":[43.3492491,13.7025368],"ct":"IT","tp":"CS","ts":"2018-10-10T06:45:13Z","tX":550,"tY":374,"tags":{"addr:street":"Via Antonio Gramsci","name":"Camping Lido Asola Via Gramsci Potenza Picena"}},"10881659837":{"location":[43.4179801,13.6724413],"ct":"IT","tp":"CS","ts":"2024-08-06T13:52:21Z","tX":550,"tY":374,"tags":{"name":"Camping Pineta","website":"https://www.pinetacamping.it/"}},"5488291209":{"location":[43.4710984,13.641534],"ct":"IT","tp":"CR","ts":"2024-09-04T20:57:48Z","tX":550,"tY":374,"tags":{"addr:city":"Porto Recanati","addr:housenumber":"13","addr:postcode":"62017","addr:street":"Viale Ludovico Scarfiotti","drinking_water":"yes","fee":"yes","name":"Bellamare Camping","power_supply":"yes","sanitary_dump_station":"yes","toilets":"yes"}},"5488332244":{"location":[43.4664625,13.6455023],"ct":"IT","tp":"CR","ts":"2018-07-11T10:05:05Z","tX":550,"tY":374,"tags":{"addr:city":"Porto Recanati","addr:postcode":"62017","addr:street":"Viale Ludovico Scarfiotti","name":"La Medusa Ingresso Camping"}},"5488413029":{"location":[43.4115713,13.6754519],"ct":"IT","tp":"CR","ts":"2018-07-11T09:01:00Z","tX":550,"tY":374,"tags":{"addr:city":"Porto Recanati","addr:postcode":"62017","addr:street":"Via delle Nazioni","name":"Campeggio Regina 2"}},"5488413033":{"location":[43.4169215,13.6723191],"ct":"IT","tp":"CR","ts":"2018-07-11T09:01:00Z","tX":550,"tY":374,"tags":{"addr:city":"Porto Recanati","addr:postcode":"62017","addr:street":"Viale della Repubblica","name":"Pineta Camping"}},"5596163965":{"location":[43.348783,13.7015699],"ct":"IT","tp":"CR","ts":"2019-03-19T15:22:16Z","tX":550,"tY":374,"tags":{"addr:city":"Porto Potenza Picena","addr:housenumber":"358","addr:postcode":"62018","addr:street":"Viale Regina Margherita","name":"Costa Verde Camping"}},"6077175435":{"location":[43.52405,13.4368136],"ct":"IT","tp":"CR","ts":"2019-09-25T15:29:58Z","tX":550,"tY":374,"tags":{"addr:city":"Offagna","addr:street":"Via Martin Luther King","capacity":"5","fee":"no","internet_access":"no","name":"Area sosta camper Offagna","power_supply":"no"}},"11935283797":{"location":[43.363806,13.5497592],"ct":"IT","tp":"CR","ts":"2024-08-13T12:07:39Z","tX":550,"tY":374,"tags":{"sanitary_dump_station":"yes"}},"4405795593":{"location":[43.4764663,13.6329402],"ct":"IT","tp":"SD","ts":"2016-09-17T16:03:13Z","tX":550,"tY":374,"tags":{}},"9880538260":{"location":[43.4813508,13.5941106],"ct":"IT","tp":"SD","ts":"2022-07-11T08:44:15Z","tX":550,"tY":374,"tags":{"access":"yes","fee":"no","water_point":"yes"}},"10039875262":{"location":[43.470538,13.5549791],"ct":"IT","tp":"SD","ts":"2022-09-20T16:30:10Z","tX":550,"tY":374,"tags":{}},"11632201099":{"location":[43.4828847,13.4849864],"ct":"IT","tp":"SD","ts":"2024-09-17T21:43:35Z","tX":550,"tY":374,"tags":{"fee":"no","water_point":"yes"}}}