{"43001188":{"location":[43.2198742,13.4071577],"ct":"IT","tp":"CR","ts":"2017-04-30T10:26:27Z","tX":550,"tY":375,"tags":{"addr:postcode":"62010","capacity":"50","email":"info@meridianasrl.it","fee":"yes","internet_access":"yes","internet_access:fee":"no","operator":"Meridiana srl","phone":"+39 0733 202942","power_supply":"yes","sanitary_dump_station":"yes"}},"223396288":{"location":[43.3247446,13.7053793],"ct":"IT","tp":"CS","ts":"2024-06-27T16:49:20Z","tX":550,"tY":375,"tags":{"addr:city":"Civitanova Marche","addr:housename":"Camping Centro Turistico Belvedere","addr:housenumber":"19","addr:postcode":"62012","addr:street":"Strada Provinciale Civitanova Marche Fontespina","name":"Camping Centro Turistico Belvedere","phone":"+39 0733 70833","website":"https://www.campingbelvedere.net/"}},"1212197094":{"location":[43.0731597,13.6511372],"ct":"IT","tp":"CR","ts":"2023-10-01T09:45:29Z","tX":550,"tY":375,"tags":{"fee":"no","internet_access":"no","name":"Area Camper Petritoli","opening_hours":"24/7","operator":"Comune di Petritol","power_supply":"yes","reservation":"no","sanitary_dump_station":"yes","smoking":"yes","wheelchair":"yes"}},"1605108866":{"location":[43.0781176,13.567592],"ct":"IT","tp":"CS","ts":"2012-01-25T16:02:59Z","tX":550,"tY":375,"tags":{"name":"Foresta Camping"}},"9831945293":{"location":[43.1410012,13.6960595],"ct":"IT","tp":"CS","ts":"2022-06-20T01:56:53Z","tX":550,"tY":375,"tags":{"addr:city":"Fermo","addr:hamlet":"Contrada Madonna dâ€™Ete","addr:housenumber":"1","addr:postcode":"63900","addr:province":"Fermo","addr:state":"Italia","addr:street":"Strada Comunale Cecapalomba","caravans":"yes","contact:email":"info@agricampingtramontorosso.it","contact:mobile":"+39 333 362 4870","contact:website":"https://www.agricampingtramontorosso.it/","internet_access:fee":"yes","name":"Agri Camping Tramonto Rosso","tents":"yes"}},"10893542846":{"location":[43.158901,13.4159275],"ct":"IT","tp":"CS","ts":"2023-08-27T13:16:49Z","tX":550,"tY":375,"tags":{"caravans":"yes","contact:email":"info@camping44.com","contact:phone":"+39 331 748 8136","contact:website":"https://camping44.com/","contact:whatsapp":"+31 6 49909462","name":"Camping44","opening_hours":"Apr 22 - Sep 30","shower":"yes","swimming_pool":"yes","tents":"yes","toilets":"yes"}},"10893597151":{"location":[43.1067564,13.5777032],"ct":"IT","tp":"CS","ts":"2023-05-13T14:18:37Z","tX":550,"tY":375,"tags":{"caravans":"yes","name":"Casale Al Fiume","website":"https://alfiume.it/en/"}},"11949590181":{"location":[43.3151672,13.5844624],"ct":"IT","tp":"CR","ts":"2024-09-17T04:39:00Z","tX":550,"tY":375,"tags":{"addr:city":"Morrovalle","addr:postcode":"62010","addr:street":"Viale Cesare Battisti","dog":"yes","fee":"no","name":"Area sosta camper","power_supply":"yes","power_supply:fee":"yes","sanitary_dump_station":"yes"}},"12015693805":{"location":[43.0730801,13.6510312],"ct":"IT","tp":"SD","ts":"2024-06-27T21:12:09Z","tX":550,"tY":375,"tags":{"access":"yes","fee":"no"}}}