{"3222576":{"location":[41.2707322,13.4068327],"ct":"IT","tp":"CS","ts":"2024-10-15T08:51:57Z","tX":550,"tY":382,"tags":{"addr:city":"Sperlonga","addr:housenumber":"21","addr:postcode":"04029","addr:street":"Via Lago Lungo","cabins":"yes","capacity:caravans":"120","caravans":"yes","dog":"no","email":"info@campeggiolacaliffa.it","fee":"yes","motorhome":"yes","name":"La Califfa","phone":"+39 0771 557064;+39 0771 548189;+ 39 338 1071012;+39 0771 503113","tents":"yes","website":"http://www.campeggiolacaliffa.it"}},"59624038":{"location":[41.2812847,13.3814726],"ct":"IT","tp":"CS","ts":"2024-10-15T12:42:27Z","tX":550,"tY":382,"tags":{"addr:city":"Fondi","addr:housenumber":"8420","addr:postcode":"04022","addr:street":"Strada Regionale 213 Flacca","cabins":"yes","caravans":"yes","fee":"yes","motorhome":"yes","name":"Le Dune","phone":"+39 0771 555063;+39 0771 555381;+39 0771 555385","power_supply":"yes","power_supply:maxcurrent":"3;6;10","ref:vatin":"IT01359560594","reservation":"yes","shower":"hot","socket:cee_blue":"yes","tents":"yes","toilets":"yes","website":"https://www.ledune.it/"}},"207720888":{"location":[41.2871161,13.6269641],"ct":"IT","tp":"CR","ts":"2013-03-01T12:13:22Z","tX":550,"tY":382,"tags":{}},"216598290":{"location":[41.2922183,13.3682677],"ct":"IT","tp":"CS","ts":"2024-10-15T12:56:27Z","tX":550,"tY":382,"tags":{"addr:city":"Fondi","addr:postcode":"04022","addr:street":"Via Ponte Baratta II","barrier":"fence","caravans":"yes","fee":"yes","motorhome":"yes","name":"Orange Village","tents":"yes","website":"https://www.facebook.com/p/Camping-Orange-Village-100067104853851"}},"238943286":{"location":[41.254657,13.4451051],"ct":"IT","tp":"CS","ts":"2025-03-27T23:41:15Z","tX":550,"tY":382,"tags":{"addr:city":"Sperlonga","addr:housenumber":"Km 15.500","addr:postcode":"04029","addr:street":"Via Flacca","caravans":"yes","dog":"no","fee":"yes","motorhome":"yes","name":"Camping Nord Sud","phone":"+39 0771 548255;+39 0771 548797","power_supply":"yes","power_supply:maxcurrent":"3","socket:cee_blue":"yes","tents":"yes","website":"https://www.campingnordsud.it/","wheelchair":"yes"}},"285732142":{"location":[41.2826762,13.3739949],"ct":"IT","tp":"CS","ts":"2024-10-15T12:49:26Z","tX":550,"tY":382,"tags":{"addr:city":"Fondi","addr:housenumber":"km. 8,400","addr:street":"Strada Regionale 213 Flacca","caravans":"yes","contact:mobile":"+39 3314937160","dog":"yes","fee":"yes","motorhome":"yes","name":"Tahiti Club Fondi","phone":"+39 0771 555415","power_supply":"yes","socket:cee_blue":"yes","static_caravans":"yes","tents":"yes","website":"https://www.tahiticlubfondi.it/"}},"330369286":{"location":[41.385783,13.5335464],"ct":"IT","tp":"CR","ts":"2023-01-02T21:27:27Z","tX":550,"tY":382,"tags":{}},"728828204":{"location":[41.3050933,13.5932638],"ct":"IT","tp":"CS","ts":"2024-03-12T09:36:46Z","tX":550,"tY":382,"tags":{"name":"Area sosta Bellavista"}},"1323786620":{"location":[41.2548811,13.6712137],"ct":"IT","tp":"CS","ts":"2024-10-14T07:20:06Z","tX":550,"tY":382,"tags":{"addr:city":"Formia","addr:housenumber":"78","addr:street":"Via delle Vigne","area":"yes","caravans":"yes","fee":"yes","name":"Camping Gianola","phone":"+39 0771 720223","power_supply":"yes","shower":"hot","socket:cee_blue":"website","source":"error note","tents":"yes","toilets":"yes","website":"https://www.gianolacamping.com/"}},"1324057523":{"location":[41.2725549,13.4162956],"ct":"IT","tp":"CS","ts":"2024-10-15T08:48:16Z","tX":550,"tY":382,"tags":{"addr:city":"Sperlonga","addr:postcode":"04019","addr:street":"Via Fosselle","area":"yes","caravans":"yes","contact:whatsapp":"+393297915294","dog":"yes","email":"info@agrimaresperlonga.it","fee":"yes","name":"Agrimare Camping","phone":"+39 3297915294","power_supply":"yes","power_supply:maxcurrent":"4.5","reservation":"yes","socket:cee_blue":"yes","tents":"yes","website":"https://agrimaresperlonga.it/"}},"3373326309":{"location":[41.3856882,13.5335592],"ct":"IT","tp":"SD","ts":"2015-04-29T00:33:59Z","tX":550,"tY":382,"tags":{}},"5817489055":{"location":[41.2594748,13.6419569],"ct":"IT","tp":"CS","ts":"2024-04-09T12:02:44Z","tX":550,"tY":382,"tags":{"name":"Spiaggia pubblica","name:en":"Public beach","name:ru":"Публичный пляж"}},"5817497753":{"location":[41.2599273,13.6385751],"ct":"IT","tp":"CS","ts":"2024-04-09T12:02:25Z","tX":550,"tY":382,"tags":{"name":"Spiaggia pubblica","name:en":"Public beach","name:ru":"Публичный пляж"}}}