{"4685791189":{"location":[32.725822,13.6717886],"ct":"LY","tp":"CS","ts":"2021-12-15T23:35:46Z","tX":550,"tY":413,"tags":{"name":"الحوازة","name:ar":"الحوازة","name:en":"my farm"}},"4708682789":{"location":[32.8096998,13.5502844],"ct":"LY","tp":"CS","ts":"2020-09-09T21:25:30Z","tX":550,"tY":413,"tags":{"name":"مفوضية كشاف تاجوراء","name:ar":"مفوضية كشاف تاجوراء","name:en":"Tajoura Scouts Commission"}},"4803940569":{"location":[32.7773027,13.4107249],"ct":"LY","tp":"CS","ts":"2017-04-19T14:59:13Z","tX":550,"tY":413,"tags":{}},"4952643121":{"location":[32.788864,13.6743992],"ct":"LY","tp":"CS","ts":"2022-05-23T20:30:32Z","tX":550,"tY":413,"tags":{"addr:street":"طريق بحر فم الوادي","internet_access":"wlan","name":"قرية الخلة السياحية","name:ar":"قرية الخلة السياحية","name:en":"alkhalla tourism village","opening_hours":"24/7","phone":"0910976415","website":"https://www.facebook.com/Alkhallah/"}},"5349817523":{"location":[32.599171,13.4754432],"ct":"LY","tp":"CS","ts":"2020-11-24T03:28:03Z","tX":550,"tY":413,"tags":{"name":"حوازة القاضي","name:ar":"حوازة القاضي","name:en":"algadi’s farm"}},"7274198886":{"location":[32.7596505,13.3914203],"ct":"LY","tp":"CS","ts":"2020-03-07T13:58:36Z","tX":550,"tY":413,"tags":{"addr:street":"البواعيش....شارع الغاز","internet_access":"wlan","name":"أرض عبدالله و أحمد البي","name:ar":"أرض عبدالله و أحمد البيالبواعيش","operator":"ملك","phone":"0913085432"}},"11685290969":{"location":[32.7632917,13.403771],"ct":"LY","tp":"CR","ts":"2024-03-02T19:12:26Z","tX":550,"tY":413,"tags":{"internet_access":"wlan","name":"عماد شعبة"}}}