{"5124409922":{"location":[-8.8339615,13.4277119],"ct":"AO","tp":"CS","ts":"2017-09-23T14:09:38Z","tX":550,"tY":537,"tags":{"name":"ponto de partida LTI Lda/Quimbata","name:pt":"ponto de partida LTI Lda/Quimbata"}},"5124427421":{"location":[-8.8165365,13.4408063],"ct":"AO","tp":"CS","ts":"2021-02-02T22:47:29Z","tX":550,"tY":537,"tags":{"name":"Ponto 00/Ndalatando-Cuanza-Norte","name:pt":"ponto 00/Ndalatando-Cuanza-Norte"}},"5131455731":{"location":[-8.8341536,13.4292675],"ct":"AO","tp":"CS","ts":"2017-09-26T18:54:47Z","tX":550,"tY":537,"tags":{"name":"Cancela Base LTI","name:pt":"Cancela Base LTI"}},"11127386862":{"location":[-8.7924892,13.3989489],"ct":"AO","tp":"CS","ts":"2023-08-19T11:47:38Z","tX":550,"tY":537,"tags":{"access":"customers","addr:city":"Luanda","addr:district":"Cacuaco","caravans":"yes","drinking_water":"yes","email":"kakuakos.lodge.campingsite@gmail.com","internet_access":"wlan","internet_access:fee":"no","name":"Kakuako Lodge","opening_hours":"24/7","phone":"00244926722772","picnic_table":"yes","shower":"yes","tents":"yes","toilets":"yes"}}}