{"5736908122":{"location":[36.1742326,53.0586148],"ct":"IR","tp":"CS","ts":"2018-07-03T16:17:16Z","tX":662,"tY":401,"tags":{"name":"کارام","name:en":"carma","name:fa":"کارما"}},"7727701785":{"location":[36.2325681,52.9010208],"ct":"IR","tp":"CS","ts":"2020-07-19T03:03:20Z","tX":662,"tY":401,"tags":{"addr:street":"جوارم","name":"محل کمپ و شب مانی","name:en":"Camp Tent"}},"7728454086":{"location":[36.2023714,52.7985522],"ct":"IR","tp":"CS","ts":"2020-07-19T13:23:07Z","tX":662,"tY":401,"tags":{"name":"دشت کنار سد"}},"7783341793":{"location":[36.2325608,52.90106],"ct":"IR","tp":"CS","ts":"2020-08-04T08:44:35Z","tX":662,"tY":401,"tags":{"addr:street":"تهران-سوادکوه","name":"محل کمپ"}},"7783341796":{"location":[36.0667335,52.833698],"ct":"IR","tp":"CS","ts":"2020-08-04T08:44:50Z","tX":662,"tY":401,"tags":{"addr:street":"خیابان شهدا","name":"چادر زدن اجاره ایی","opening_hours":"24/7"}},"7845592235":{"location":[36.077808,52.8599895],"ct":"IR","tp":"CS","ts":"2020-08-26T07:45:31Z","tX":662,"tY":401,"tags":{"backcountry":"yes"}},"10937726555":{"location":[36.2147834,53.028166],"ct":"IR","tp":"CS","ts":"2023-05-29T17:33:42Z","tX":662,"tY":401,"tags":{"addr:city":"سی پی","name":"اردوگاه آموزش و پرورش"}}}