{"73925444":{"location":[51.3008281,-116.946275],"ct":"CA","tp":"CS","ts":"2018-02-09T14:56:52Z","tX":179,"tY":341,"tags":{"addr:city":"Golden","addr:housenumber":"1430","addr:postcode":"V0A 1H1","addr:street":"Golden View Road","capacity":"110","fee":"yes","landuse":"tourism","name":"Whispering Spruce Campground","phone":"+1-250-344-6680","website":"http://www.whisperingsprucecampground.com/"}},"301172665":{"location":[51.2970971,-116.9494948],"ct":"CA","tp":"CS","ts":"2024-08-13T12:35:16Z","tX":179,"tY":341,"tags":{"access":"yes","addr:city":"Golden","addr:housenumber":"1407","addr:postcode":"V0A 1H0","addr:province":"BC","addr:street":"9th Street South","capacity":"72","caravans":"yes","drinking_water":"yes","fee":"yes","informal":"no","internet_access":"yes","large_vehicles":"yes","laundry":"yes","maxlength":"unknown","mobile_reception":"unknown","name":"Golden Municipal Campground and RV Park","operator":"Town of Golden","phone":"+1-250-344-5412","power_supply":"yes","sanitary_dump_station":"yes","shower":"yes","tents":"yes","toilets":"yes","website":"https://www.goldenmunicipalcampground.com/"}},"302629171":{"location":[51.2638532,-116.9847568],"ct":"CA","tp":"CS","ts":"2022-11-13T15:45:22Z","tX":179,"tY":341,"tags":{"name":"Cedar Lake Recreation Site","website":"https://www.csrd.bc.ca/services/parks-recreation/parks-listing/cedar-lake-recreation-site"}},"602744164":{"location":[51.2976903,-116.948769],"ct":"CA","tp":"CR","ts":"2010-03-10T22:38:28Z","tX":179,"tY":341,"tags":{"name":"Golden Municipal Campground"}},"755639583":{"location":[51.3313498,-117.0081205],"ct":"CA","tp":"CR","ts":"2025-05-24T15:50:02Z","tX":179,"tY":341,"tags":{"name":"Golden Golf Club RV Park","website":"https://golfgolden.com/RVPark"}},"1052302465":{"location":[51.2430234,-116.9226602],"ct":"CA","tp":"CR","ts":"2019-03-04T01:00:07Z","tX":179,"tY":341,"tags":{"capacity":"95","drinking_water":"yes","email":"gear@persona.ca","fee":"yes","internet_access":"yes","name":"The Golden Eco-Adventure Ranch","phone":"+1-250-344-6825","power_supply":"yes","tents":"yes","toilets":"yes","website":"https://goldenadventurepark.com/"}},"1112719364":{"location":[51.2442476,-116.9227753],"ct":"CA","tp":"CS","ts":"2022-11-13T15:45:22Z","tX":179,"tY":341,"tags":{"name":"Golden Riverside Campground"}},"5894652506":{"location":[51.244869,-116.922437],"ct":"CA","tp":"SD","ts":"2018-09-09T15:35:04Z","tX":179,"tY":341,"tags":{}},"11875158150":{"location":[51.2972078,-116.9519157],"ct":"CA","tp":"SD","ts":"2024-05-24T21:07:29Z","tX":179,"tY":341,"tags":{"access":"yes","fee":"yes","large_vehicles":"yes","mobile_reception":"yes","operator":"Golden Municipal Campground and RV Park","phone":"+1-250-344-5412","water_point":"yes","website":"https://www.goldenmunicipalcampground.com/"}},"11931781658":{"location":[51.3096917,-116.9678256],"ct":"CA","tp":"SD","ts":"2024-05-24T23:13:45Z","tX":179,"tY":341,"tags":{"access":"yes","fee":"yes","large_vehicles":"yes","mobile_reception":"yes","operator":"Golden Visitor Centre","water_point":"yes"}}}