{"529869480":{"location":[49.9091258,-116.8988355],"ct":"CA","tp":"CR","ts":"2021-05-12T19:50:36Z","tX":179,"tY":347,"tags":{"addr:city":"Kaslo","addr:province":"BC","addr:street":"2nd Street","camp_site":"serviced","capacity":"40","internet_access":"wlan","internet_access:fee":"no","name":"Kaslo Municipal Campground","operator":"Village of Kaslo","power_supply":"yes","sanitary_dump_station":"yes","tents":"yes"}},"827994699":{"location":[50.0301689,-116.9059718],"ct":"CA","tp":"CS","ts":"2020-07-23T03:23:01Z","tX":179,"tY":347,"tags":{"access":"customers","addr:city":"Kaslo","addr:postcode":"V0G 1M0","addr:province":"BC","addr:street":"Bickel Road","dog":"leashed","email":"inquiries@schroedercreekresort.com","internet_access":"wlan","name":"Schroeder Creek Resort","openfire":"yes","operator":"Blackpaw Ventures Inc.","phone":"+12503537383","power_supply":"yes","reservation":"recommended","shower":"yes","toilets":"yes","website":"http://schroedercreekresort.com"}},"3385463604":{"location":[49.8604343,-116.8595118],"ct":"CA","tp":"CS","ts":"2022-04-07T00:57:48Z","tX":179,"tY":347,"tags":{"name":"Bernard Beaches"}},"3385463605":{"location":[49.8709445,-116.8600701],"ct":"CA","tp":"CS","ts":"2022-04-07T00:57:48Z","tX":179,"tY":347,"tags":{"name":"Garland Bay"}},"3385463620":{"location":[50.0124374,-116.9276939],"ct":"CA","tp":"CS","ts":"2015-03-06T04:21:31Z","tX":179,"tY":347,"tags":{}},"6699367829":{"location":[49.9098683,-116.8986697],"ct":"CA","tp":"SD","ts":"2023-08-12T19:51:58Z","tX":179,"tY":347,"tags":{"charge":"15 CAD","fee":"yes","note":"Contact the Campground Operator for Assistance","operator":"Village of Kaslo","payment:cash":"yes"}}}