{"18703580":{"location":[48.4515921,-116.9006505],"ct":"US","tp":"CS","ts":"2025-04-07T07:05:40Z","tX":179,"tY":354,"tags":{"addr:city":"Coolin","addr:housenumber":"1096","addr:postcode":"83821","addr:state":"ID","addr:street":"Dickensheet Road","camp_site":"standard","dog":"leashed","name":"Priest Lake State Park Dickensheet Unit Campground","operator":"Idaho Department of Parks and Recreation","website":"https://parksandrecreation.idaho.gov/parks/priest-lake/"}},"12387972687":{"location":[48.4514964,-116.9001873],"ct":"US","tp":"CS","ts":"2024-12-01T11:33:18Z","tX":179,"tY":354,"tags":{"addr:city":"Coolin","addr:housenumber":"1096","addr:postcode":"83821","addr:state":"ID","addr:street":"Dickensheet Road","camp_site":"standard","dog":"leashed","leisure":"park","name":"Priest Lake State Park Dickensheet Unit Campground","operator":"Idaho Department of Parks and Recreation","operator:short":"IDPR","operator:type":"government","operator:wikidata":"Q30258114","website":"https://parksandrecreation.idaho.gov/parks/priest-lake/"}}}