{"13666935":{"location":[47.5995254,-116.7721453],"ct":"US","tp":"CS","ts":"2022-01-12T21:48:11Z","tX":179,"tY":357,"tags":{"addr:city":"Harrison","addr:housenumber":"23516","addr:postcode":"83833","addr:state":"ID","addr:street":"South Highway 97","fee":"yes","group_only":"yes","name":"Camp Easton","operator":"Scouts BSA"}},"587467964":{"location":[47.7144081,-116.9140048],"ct":"US","tp":"CR","ts":"2024-05-30T06:04:36Z","tX":179,"tY":357,"tags":{"access":"permissive","addr:city":"Post Falls","addr:housenumber":"2652","addr:postcode":"83854","addr:state":"ID","addr:street":"East Mullan Avenue","capacity":"190","caravans":"yes","email":"cdarvparkmanager@gmail.com","fax":"+1-208-773-9232","fee":"yes","internet_access":"yes","internet_access:fee":"customers","name":"Coeur d'Alene RV Resort","phone":"+1-208-773-3527","power_supply":"yes","sanitary_dump_station":"yes"}},"653440327":{"location":[47.6821708,-116.802542],"ct":"US","tp":"CR","ts":"2024-03-28T16:05:45Z","tX":179,"tY":357,"tags":{"addr:city":"Coeur d'Alene","addr:housenumber":"800","addr:postcode":"83814","addr:state":"ID","addr:street":"South Marina Drive","capacity":"182","capacity:caravans":"182","caravans":"yes","drinking_water":"yes","email":"stay@idahorvpark.com","fee":"yes","informal":"no","internet_access":"yes","internet_access:fee":"customers","large_vehicles":"yes","laundry":"yes","maxlength":"19","name":"Blackwell Island RV Park","phone":"+1-208-665-1300","power_supply":"yes","sanitary_dump_station":"yes","shower":"yes","tents":"unknown","toilets":"yes","website":"https://idahorvpark.com"}},"1018879846":{"location":[47.7110575,-116.994996],"ct":"US","tp":"CR","ts":"2024-03-26T19:49:18Z","tX":179,"tY":357,"tags":{"addr:city":"Post Falls","addr:housenumber":"350","addr:state":"ID","addr:street":"North Idahline Road","name":"Suntree RV Park"}},"1074674973":{"location":[47.6317827,-117.0589053],"ct":"US","tp":"CS","ts":"2022-06-30T02:29:34Z","tX":179,"tY":357,"tags":{}},"1074674977":{"location":[47.6314685,-117.0578396],"ct":"US","tp":"CR","ts":"2022-06-30T02:29:34Z","tX":179,"tY":357,"tags":{"power_supply":"yes"}},"1074674979":{"location":[47.6318365,-117.0573217],"ct":"US","tp":"CS","ts":"2022-06-30T02:29:34Z","tX":179,"tY":357,"tags":{}},"1097521827":{"location":[47.7055127,-116.7871672],"ct":"US","tp":"CR","ts":"2022-09-24T16:13:38Z","tX":179,"tY":357,"tags":{"name":"Bambi RV Park"}},"1098118231":{"location":[47.7110969,-116.7851273],"ct":"US","tp":"CR","ts":"2022-09-27T16:04:37Z","tX":179,"tY":357,"tags":{"name":"Tamarack RV Park"}},"1106750048":{"location":[47.6997147,-117.0335855],"ct":"US","tp":"CR","ts":"2022-10-25T05:23:49Z","tX":179,"tY":357,"tags":{"name":"Post Falls RV Campground"}},"1190747078":{"location":[47.7420408,-116.8026617],"ct":"US","tp":"CR","ts":"2023-12-11T05:03:48Z","tX":179,"tY":357,"tags":{"access":"private","addr:city":"Coeur d'Alene","addr:housenumber":"1170","addr:postcode":"83815","addr:state":"ID","addr:street":"West Prairie Avenue","description":"Private RV Park for Elks Lodge members only.","internet_access":"wlan","name":"Coeur d'Alene Elks Lodge RV Park","phone":"+1-208-512-0691","power_supply":"yes","sanitary_dump_station":"yes","website":"https://www.elks.org/lodges/lodgefacilities.cfm?LodgeNumber=1254"}},"1211899027":{"location":[47.6904575,-116.8018031],"ct":"US","tp":"CR","ts":"2024-03-28T16:15:10Z","tX":179,"tY":357,"tags":{"addr:city":"Coeur d'Alene","addr:housenumber":"1214","addr:postcode":"83814","addr:state":"ID","addr:street":"West Mill Avenue","capacity":"55","capacity:caravans":"55","caravans":"yes","drinking_water":"yes","fee":"yes","informal":"no","internet_access":"yes","internet_access:fee":"customers","large_vehicles":"yes","laundry":"yes","maxlength":"11.5","name":"River Walk RV Park","phone":"+1-208-699-3490","power_supply":"yes","sanitary_dump_station":"yes","shower":"yes","tents":"unknown","toilets":"yes","website":"https://cdariverwalkrvpark.com"}},"1271273754":{"location":[47.7217562,-116.7804277],"ct":"US","tp":"CR","ts":"2024-04-09T21:59:28Z","tX":179,"tY":357,"tags":{"addr:city":"Coeur d'Alene","addr:housenumber":"482","addr:postcode":"83815","addr:state":"ID","addr:street":"East Dalton Avenue","internet_access":"wlan","internet_access:fee":"customers","name":"Kootenai County Fairgrounds RV Park","phone":"+1-208-765-4969","power_supply":"yes","website":"https://www.kcfairgrounds.com/p/rvpark1"}},"1308939183":{"location":[47.7114447,-117.0025362],"ct":"US","tp":"CR","ts":"2024-08-20T03:22:41Z","tX":179,"tY":357,"tags":{"capacity":"8","caravan_site":"motorhome_stopover"}},"1367208878":{"location":[47.5946662,-116.8564376],"ct":"US","tp":"CS","ts":"2025-03-14T02:00:20Z","tX":179,"tY":357,"tags":{"capacity:tents":"16","fee":"yes","name":"Mica Bay Boater Park","tents":"yes","website":"https://www.blm.gov/visit/mica-bay-boater-park"}}}