{"166990908":{"location":[36.4597476,-116.8624057],"ct":"US","tp":"CS","ts":"2024-07-18T09:59:07Z","tX":179,"tY":400,"tags":{"access":"yes","addr:city":"Furnace Creek","addr:postcode":"92328","addr:state":"CA","addr:street":"Texas Springs Road","capacity":"230","capacity:pitches":"230","caravans":"yes","charge":"14 USD","description":"Typically open mid October to mid April. All sites are first come/first served. Occupy a site and then pay using the automated fee machine using card, or head across the street to the visitor center to pay by check or cash.","drinking_water":"yes","fee":"yes","fixme":"Verify if entrance is on Texas Springs Road","internet_access":"no","lit":"no","mobile_reception":"yes","name":"Sunset Campground","nudism":"no","openfire":"no","opening_hours":"24/7; May 01-Oct 15 off","operator":"National Park Service","phone":"+1-760-786-3200","power_supply":"no","reservation":"no","sanitary_dump_station":"customers","shower":"no","tents":"yes","toilets":"yes","waste_disposal":"yes","website":"https://www.nps.gov/deva/planyourvisit/sunset-campground.htm","wheelchair":"designated","wikidata":"Q36022301"}},"166990910":{"location":[36.4590987,-116.8548235],"ct":"US","tp":"CS","ts":"2024-07-30T05:12:53Z","tX":179,"tY":400,"tags":{"backcountry":"no","capacity":"92","capacity:caravans":"66","capacity:pitches":"92","capacity:tents":"92","caravans":"yes","charge":"16 USD","fee":"yes","group_only":"no","internet_access":"no","name":"Texas Springs Campground","opening_hours":"Apr 18-Oct 14 closed","operator":"National Park Service","phone":"+1 760 786 3200","reservation":"no","sanitary_dump_station":"customers","shower":"no","tents":"yes","website":"https://www.nps.gov/deva/planyourvisit/texas-springs-campground.htm","wheelchair":"limited"}},"166990911":{"location":[36.4634478,-116.8702201],"ct":"US","tp":"CS","ts":"2023-03-06T04:16:08Z","tX":179,"tY":400,"tags":{"backcountry":"no","capacity":"136","capacity:caravans":"91","capacity:pitches":"136","capacity:tents":"136","caravans":"yes","fee":"yes","group_only":"no","internet_access":"no","name":"Furnace Creek Campground","opening_hours":"24/7","operator":"National Park Service","phone":"+1 760 786 3203","reservation":"recommended","sanitary_dump_station":"customers","tents":"yes","website":"https://www.nps.gov/deva/planyourvisit/furnace-creek-campground.htm"}},"354229658":{"location":[36.4605037,-116.8671277],"ct":"US","tp":"CS","ts":"2023-03-06T04:52:20Z","tX":179,"tY":400,"tags":{"caravans":"yes","charge":"29 USD Su-Th;34 USD Fr-Sa","fee":"yes","internet_access":"wlan","name":"Fiddlers' Campground","operator":"The Oasis at Death Valley","power_supply":"no","sanitary_dump_station":"no","tents":"yes","website":"https://www.oasisatdeathvalley.com/lodging/fiddlers-campground/"}},"10902927852":{"location":[36.4629702,-116.8680686],"ct":"US","tp":"SD","ts":"2023-05-16T18:34:19Z","tX":179,"tY":400,"tags":{}},"10924716654":{"location":[36.4608595,-116.8652465],"ct":"US","tp":"SD","ts":"2023-05-24T16:09:46Z","tX":179,"tY":400,"tags":{"access":"yes","water_point":"yes"}}}