{"44486294":{"location":[33.795519,-116.7451924],"ct":"US","tp":"CS","ts":"2024-08-27T11:47:08Z","tX":179,"tY":409,"tags":{"addr:city":"Idyllwild","addr:housenumber":"19751","addr:postcode":"92549","addr:state":"CA","addr:street":"State Highway 243","cabins":"yes","ele":"1615","gnis:feature_id":"1667774","name":"Lawler Lodge and Alpine Cabins","operator":"Riverside County Parks Dept","phone":"+1 800 234 7275","source":"bing_imagery_0.25m_201005;survey;image;TIGER09","source_ref":"AM909_DSCX1812","tiger:ALAND":"305921","tiger:AREAID":"110458305523","tiger:AWATER":"0","tiger:COUNTYFP":"065","tiger:MTFCC":"K2180","tiger:STATEFP":"06","url":"http://www.riversidecountyparks.org/locations/regional-parks/lawler/"}},"44486436":{"location":[33.7486886,-117.0116609],"ct":"US","tp":"CR","ts":"2021-04-02T16:07:12Z","tX":179,"tY":409,"tags":{"Tiger:MTFCC":"K1223","addr:city":"Hemet","addr:housenumber":"3600","addr:postcode":"92545","addr:state":"CA","addr:street":"West Florida Avenue","barrier":"wall","description":"RV Resort","name":"Golden Village Palms RV Resort","source":"Tiger2009","tiger:ALAND":"278165","tiger:AREAID":"110458305878","tiger:AWATER":"0","tiger:COUNTYFP":"065","tiger:STATEFP":"06","tiger:reviewed":"no"}},"103627770":{"location":[33.911979,-116.8783207],"ct":"US","tp":"CR","ts":"2011-03-11T08:06:46Z","tX":179,"tY":409,"tags":{"addr:city":"Banning","addr:housenumber":"1455","addr:postcode":"92220","addr:state":"CA","addr:street":"San Gorgonio Ave","addr:street_direction_prefix":"S","fee":"yes","name":"Stagecoach KOA RV Park and Storage","source":"bing_imagery_0.25m_201005;survey;image","source_ref":"AM909_DSCX1692"}},"104107044":{"location":[33.8479889,-116.85124],"ct":"US","tp":"CR","ts":"2011-03-14T07:09:25Z","tX":179,"tY":409,"tags":{"name":"Silent Valley Club RV Resort","source":"bing_imagery_0.25m_201005;survey;image","source_ref":"AM909_DSCX1746"}},"104225111":{"location":[33.8326165,-116.7949811],"ct":"US","tp":"CS","ts":"2023-08-07T04:19:51Z","tX":179,"tY":409,"tags":{"access":"private","addr:city":"Banning","addr:housenumber":"19750","addr:postcode":"92222","addr:state":"CA","addr:street":"State Highway 243","cabins":"yes","name":"Camp Skyland Ranch","operator":"Girl Scout of San Gorgonio","scout":"girl","source":"bing_imagery_0.25m_201005;survey;image;USFS","source_ref":"AM909_DSCX1769"}},"290993706":{"location":[33.7851225,-116.7479614],"ct":"US","tp":"CS","ts":"2015-09-25T05:40:10Z","tX":179,"tY":409,"tags":{"area":"yes","fee":"yes","name":"Stone Creek Campground","operator":"Mt. San Jacinto State Park","source":"http://www.idyllwild.com/stone.html","water":"yes"}},"370380408":{"location":[33.8582094,-117.0147152],"ct":"US","tp":"CS","ts":"2016-10-15T21:47:00Z","tX":179,"tY":409,"tags":{"access":"private","fee":"yes","name":"Victory Ranch"}},"394170694":{"location":[33.7447545,-116.9901919],"ct":"US","tp":"CR","ts":"2016-01-27T19:28:35Z","tX":179,"tY":409,"tags":{"name":"Hemet RV Resort"}},"485618061":{"location":[33.793088,-116.973669],"ct":"US","tp":"CR","ts":"2017-04-09T05:53:16Z","tX":179,"tY":409,"tags":{"name":"Diamond Valley RV Park"}},"506844610":{"location":[33.7404341,-116.7221138],"ct":"US","tp":"CS","ts":"2021-03-13T05:37:08Z","tX":179,"tY":409,"tags":{"addr:city":"Idyllwild","addr:postcode":"92549","addr:state":"CA","fixme":"area_approx.","name":"Idyllwild Pines Camp"}},"550029038":{"location":[33.7853327,-117.0320678],"ct":"US","tp":"CR","ts":"2019-01-07T09:48:02Z","tX":179,"tY":409,"tags":{"addr:city":"San Jacinto","addr:housenumber":"3440","addr:postcode":"92582","addr:state":"CA","addr:street":"Cotton Wood Ave","capacity":"150","fee":"yes","name":"Reflection Lake RV Park","power_supply":"yes","sanitary_dump_station":"yes"}},"880050006":{"location":[33.7923241,-116.7319472],"ct":"US","tp":"CS","ts":"2024-03-14T21:00:14Z","tX":179,"tY":409,"tags":{"name":"Marion Mountain Campground","operator":"USFS","source":"USGS Topo"}},"893194875":{"location":[33.7376075,-116.7351742],"ct":"US","tp":"CS","ts":"2021-01-31T03:36:18Z","tX":179,"tY":409,"tags":{"addr:city":"Idyllwild","addr:housenumber":"53155","addr:postcode":"92549","addr:state":"CA","addr:street":"Idyllbrook Drive","fee":"yes","fixme":"area_approx","name":"Camp Emerson","operator":"Boy Scouts of America, California Inland Empire Council","website":"https://www.bosekerscoutreservation.org/"}},"902164491":{"location":[33.7415849,-116.7333403],"ct":"US","tp":"CS","ts":"2021-01-31T03:36:18Z","tX":179,"tY":409,"tags":{"name":"Camp Brown"}},"903221484":{"location":[33.7497373,-116.7318456],"ct":"US","tp":"CS","ts":"2021-02-19T20:02:41Z","tX":179,"tY":409,"tags":{"name":"Buckhorn Camp"}},"908886624":{"location":[33.7438871,-116.7244195],"ct":"US","tp":"CS","ts":"2024-08-27T11:47:16Z","tX":179,"tY":409,"tags":{"addr:city":"Idyllwild","addr:postcode":"92549","addr:state":"CA","ele":"1614","fee":"yes","fixme":"correct geometry","gnis:feature_id":"1667767","name":"Idyllwild Park","operator":"Riverside County Parks"}},"1191945178":{"location":[33.9083596,-116.9663249],"ct":"US","tp":"CR","ts":"2023-10-18T23:20:55Z","tX":179,"tY":409,"tags":{"height":"3","name":"Country Hills Rv Park"}},"1818064590":{"location":[33.9572792,-117.0170653],"ct":"US","tp":"CS","ts":"2012-07-08T19:04:55Z","tX":179,"tY":409,"tags":{"name":"Cherry Valley Lakes"}},"2381900501":{"location":[33.8270193,-116.7557024],"ct":"US","tp":"CS","ts":"2019-02-17T05:10:58Z","tX":179,"tY":409,"tags":{"fee":"yes","name":"Boulder Basin Campground","operator":"USFS","website":"https://www.fs.usda.gov/recarea/sbnf/recarea/?recid=26447"}},"2381900805":{"location":[33.8040078,-116.731862],"ct":"US","tp":"CS","ts":"2013-07-12T00:12:09Z","tX":179,"tY":409,"tags":{"name":"Dark Canyon Campground","operator":"USFS"}},"2381901306":{"location":[33.7898309,-116.7377152],"ct":"US","tp":"CS","ts":"2020-08-11T03:35:48Z","tX":179,"tY":409,"tags":{"drinking_water":"yes","name":"Fern Basin Campground","operator":"USFS"}},"2673089977":{"location":[33.837199,-116.744762],"ct":"US","tp":"CS","ts":"2022-03-27T04:23:24Z","tX":179,"tY":409,"tags":{"backcountry":"no","caravans":"no","group_only":"no","name":"Black Mountain Yellow Post #4","openfire":"no","operator":"USDA Forest Service","source":"20140215 site visit.","tents":"yes","wheelchair":"limited"}},"2673090670":{"location":[33.837663,-116.74517],"ct":"US","tp":"CS","ts":"2022-03-27T04:23:24Z","tX":179,"tY":409,"tags":{"backcountry":"no","caravans":"no","group_only":"no","name":"Black Mountain Yellow Post #5","openfire":"no","operator":"USDA Forest Service","source":"20140215 site visit.","tents":"yes","wheelchair":"limited"}},"3966935649":{"location":[33.7665589,-116.7329558],"ct":"US","tp":"CR","ts":"2016-01-25T21:22:57Z","tX":179,"tY":409,"tags":{"addr:city":"Idyllwild","addr:housenumber":"24400","addr:postcode":"92549","addr:state":"CA","addr:street":"Canyon Trail","internet_access":"wlan","name":"Thousand Trails","website":"https://www.thousandtrails.com/california/idyllwild-rv-resort/"}},"4960689096":{"location":[33.7714032,-116.76708],"ct":"US","tp":"CS","ts":"2022-03-31T20:41:15Z","tX":179,"tY":409,"tags":{"name":"Yellow Post 2","operator":"USFS"}},"4960718413":{"location":[33.7711261,-116.768462],"ct":"US","tp":"CS","ts":"2022-03-31T20:41:15Z","tX":179,"tY":409,"tags":{"name":"Yellow Post 1","operator":"USFS"}},"8641993092":{"location":[33.8087717,-116.7282284],"ct":"US","tp":"CS","ts":"2021-04-19T01:29:08Z","tX":179,"tY":409,"tags":{"name":"Camp Azalea Trails","operator":"Girl Scouts of San Gorgonio"}},"9610158987":{"location":[33.8330405,-116.7400482],"ct":"US","tp":"CS","ts":"2022-03-27T04:23:24Z","tX":179,"tY":409,"tags":{"group_only":"yes","name":"Black Mountain Group Campground","operator":"USFS"}},"9610159000":{"location":[33.8277362,-116.744862],"ct":"US","tp":"CS","ts":"2022-03-27T04:40:15Z","tX":179,"tY":409,"tags":{"name":"Black Mountain Yellow Post #1","operator":"USFS"}},"9610159001":{"location":[33.8301479,-116.7422032],"ct":"US","tp":"CS","ts":"2022-03-27T04:23:24Z","tX":179,"tY":409,"tags":{"name":"Black Mountain Yellow Post #3","operator":"USFS"}},"9610200138":{"location":[33.8273866,-116.74491],"ct":"US","tp":"CS","ts":"2022-03-27T04:40:15Z","tX":179,"tY":409,"tags":{"name":"Black Mountain Yellow Post #2","operator":"USFS"}},"9610200139":{"location":[33.8390544,-116.7361317],"ct":"US","tp":"CS","ts":"2022-03-27T04:40:15Z","tX":179,"tY":409,"tags":{"name":"Black Mountain Yellow Post #6","operator":"USFS"}}}