{"293250415":{"location":[33.461546,-116.9709967],"ct":"US","tp":"CS","ts":"2024-05-16T01:44:17Z","tX":179,"tY":410,"tags":{"name":"Dripping Springs Campground","operator":"USFS"}},"294102866":{"location":[33.5864519,-117.0328824],"ct":"US","tp":"CS","ts":"2014-07-24T01:06:47Z","tX":179,"tY":410,"tags":{"name":"Campground C","ref":"C","source":"survey;bing_imagery","source_ref":"The Temecula Mapper"}},"294104559":{"location":[33.5886293,-117.0326481],"ct":"US","tp":"CS","ts":"2014-07-26T19:14:31Z","tX":179,"tY":410,"tags":{"name":"Overflow Camping","ref":"C","source":"survey;bing_imagery","source_ref":"The Temecula Mapper"}},"294104682":{"location":[33.5879231,-117.036846],"ct":"US","tp":"CS","ts":"2014-07-26T17:43:08Z","tX":179,"tY":410,"tags":{"name":"Campground A","ref":"A","source":"survey;bing_imagery","source_ref":"The Temecula Mapper"}},"294104683":{"location":[33.5852403,-117.036118],"ct":"US","tp":"CS","ts":"2014-07-26T17:43:09Z","tX":179,"tY":410,"tags":{"name":"Campground B","ref":"B","source":"survey;bing_imagery","source_ref":"The Temecula Mapper"}},"294434161":{"location":[33.5933156,-117.0376189],"ct":"US","tp":"CS","ts":"2014-07-26T19:47:16Z","tX":179,"tY":410,"tags":{"name":"Group Campground","source":"survey;bing_imagery","source_ref":"The Temecula Mapper"}},"364591015":{"location":[33.7113578,-116.7346184],"ct":"US","tp":"CS","ts":"2024-08-27T11:47:14Z","tX":179,"tY":410,"tags":{"addr:city":"Mountain Center","addr:postcode":"92561","addr:state":"CA","addr:street":"Vista Way","camping:access":"equestrian","closed":"yes","coverage:mobile_phone:att":"poor","coverage:mobile_phone:verizon":"good","ele":"1352","fee":"yes","gnis:feature_id":"1667781","internet_access":"no","name":"McCall Memorial Equestrian Park","operator":"Riverside County Regional Park and Open-Space District"}},"566242785":{"location":[33.5826997,-116.9259548],"ct":"US","tp":"CR","ts":"2018-03-04T04:46:54Z","tX":179,"tY":410,"tags":{"addr:city":"Hemet","addr:housenumber":"41601","addr:postcode":"92544","addr:street":"East Benton Road","capacity":"50","name":"Tucalota Springs RV Park","operator":"Tucalota Springs RV Park"}},"566242786":{"location":[33.5814321,-116.9257362],"ct":"US","tp":"CR","ts":"2021-02-25T11:58:26Z","tX":179,"tY":410,"tags":{"addr:city":"Hemet","addr:housenumber":"41601","addr:postcode":"92544","addr:state":"CA","addr:street":"East Benton Road","capacity":"20","name":"Tucalota Springs RV Park","operator":"Tucalota Springs RV Park"}},"566242788":{"location":[33.5810953,-116.9241791],"ct":"US","tp":"CR","ts":"2021-02-25T11:58:26Z","tX":179,"tY":410,"tags":{"addr:city":"Hemet","addr:housenumber":"41601","addr:postcode":"92544","addr:state":"CA","addr:street":"East Benton Road","capacity":"100","name":"Tucolota Springs RV Park","operator":"Tucolota Springs RV Park"}},"910155951":{"location":[33.5837694,-116.8183572],"ct":"US","tp":"CS","ts":"2010-09-13T02:48:14Z","tX":179,"tY":410,"tags":{}},"910156065":{"location":[33.5959548,-116.7998837],"ct":"US","tp":"CS","ts":"2010-09-13T02:48:18Z","tX":179,"tY":410,"tags":{}},"910156421":{"location":[33.5858854,-116.8129885],"ct":"US","tp":"CS","ts":"2010-09-13T02:48:31Z","tX":179,"tY":410,"tags":{}},"910156630":{"location":[33.5885713,-116.8101468],"ct":"US","tp":"CS","ts":"2010-09-13T02:48:44Z","tX":179,"tY":410,"tags":{}},"5452816495":{"location":[33.5815547,-116.924758],"ct":"US","tp":"CR","ts":"2021-02-25T11:58:26Z","tX":179,"tY":410,"tags":{"addr:city":"Hemet","addr:housenumber":"41601","addr:postcode":"92544","addr:state":"CA","addr:street":"East Benton Road","capacity":"100","name":"Tucalota Springs RV Park","operator":"Tucalota Springs RV Park"}}}