{"358808111":{"location":[33.254082,-116.9865596],"ct":"US","tp":"CS","ts":"2018-03-16T21:23:49Z","tX":179,"tY":411,"tags":{"gnis:feature_id":"1660716","name":"Broken Rock Ranch","old_name":"Happyland Sanitarium","phone":"+1 760 749 1278","website":"http://www.brrvalleycenter.com/"}},"597162510":{"location":[33.2944243,-116.8977056],"ct":"US","tp":"CR","ts":"2017-09-22T03:41:55Z","tX":179,"tY":411,"tags":{"addr:city":"Palomar Mountain","addr:country":"US","addr:housenumber":"31718","addr:postcode":"92060","addr:street":"South Grade Road","name":"Oak Knoll Campground","source":"SanGIS Addresses Public Domain (http://www.sangis.org/)"}},"822334880":{"location":[33.3434205,-116.8789196],"ct":"US","tp":"CS","ts":"2013-07-11T23:09:27Z","tX":179,"tY":411,"tags":{"name":"Observatory Campground - USFS","operator":"USFS"}},"822335980":{"location":[33.3452668,-116.8865156],"ct":"US","tp":"CS","ts":"2013-07-11T23:08:18Z","tX":179,"tY":411,"tags":{"name":"Fry Creek Campground","operator":"USFS"}},"1165567292":{"location":[33.3866479,-116.7904322],"ct":"US","tp":"CS","ts":"2023-04-26T06:22:16Z","tX":179,"tY":411,"tags":{"addr:state":"CA","addr:street":"CA-79","caravans":"yes","charge":"15","fee":"yes","name":"Oak Grove Campground","operator":"Cleveland National Forest","tents":"yes"}},"1408759999":{"location":[33.3313728,-116.9381839],"ct":"US","tp":"CS","ts":"2025-06-23T09:19:36Z","tX":179,"tY":411,"tags":{"addr:country":"US","addr:housenumber":"18187","addr:street":"Nate Harrison Grade","caravans":"yes","fee":"yes","name":"Harrison Serenity Ranch","phone":"+1-619-884-9431","source:address":"SanGIS Addresses Public Domain (http://www.sangis.org/)","static_caravans":"yes","tents":"yes","website":"https://www.harrisonserenityranch.com/"}},"4349290079":{"location":[33.3431237,-116.9015853],"ct":"US","tp":"CS","ts":"2016-08-14T02:45:20Z","tX":179,"tY":411,"tags":{"description":"2016:\nday use $8\novernight $30","name":"Doane valley camp ground"}},"4427383888":{"location":[33.3128959,-116.8637106],"ct":"US","tp":"CS","ts":"2016-10-02T08:00:44Z","tX":179,"tY":411,"tags":{"capacity":"50","fee":"yes","name":"Crestline Group Campground","operator":"USFS"}},"4742121295":{"location":[33.1579432,-117.0500996],"ct":"US","tp":"CS","ts":"2017-03-18T21:12:38Z","tX":179,"tY":411,"tags":{"name":"Group Camp Site"}}}