{"14873468":{"location":[32.650247,-116.8565648],"ct":"US","tp":"CS","ts":"2022-11-11T11:42:05Z","tX":179,"tY":413,"tags":{"addr:city":"Jamul","addr:housenumber":"14615","addr:postcode":"91935","addr:state":"CA","addr:street":"Otay Lakes Road","caravans":"yes","fee":"yes","name":"Pio Pico RV Resort & Campground","phone":"+16194210104","tents":"yes"}},"469970811":{"location":[32.6833129,-117.0047411],"ct":"US","tp":"CR","ts":"2017-01-29T15:51:54Z","tX":179,"tY":413,"tags":{"internet_access":"wlan","internet_access:fee":"no","name":"SweetwaterCampground","smoking":"no","tents":"yes"}},"612522557":{"location":[32.7260451,-116.8079556],"ct":"US","tp":"CR","ts":"2018-11-16T11:18:23Z","tX":179,"tY":413,"tags":{"name":"Diamond Jack RV Park"}},"673003921":{"location":[32.839959,-117.0341881],"ct":"US","tp":"CS","ts":"2019-02-26T01:02:05Z","tX":179,"tY":413,"tags":{"caravans":"yes","drinking_water":"yes","fee":"yes","name":"Kumeyaay Lake Campground","tents":"yes"}},"777220001":{"location":[32.772449,-117.0384222],"ct":"US","tp":"CR","ts":"2023-07-25T04:52:13Z","tX":179,"tY":413,"tags":{"addr:city":"La Mesa","addr:housenumber":"7407","addr:postcode":"91942","addr:street":"Alvarado Road","name":"San Diego RV Resort"}},"1124607001":{"location":[32.8356375,-117.0201674],"ct":"US","tp":"CR","ts":"2022-12-24T07:39:43Z","tX":179,"tY":413,"tags":{}},"1132632757":{"location":[32.8374949,-116.9020599],"ct":"US","tp":"CR","ts":"2024-01-31T04:43:17Z","tX":179,"tY":413,"tags":{}},"1202475495":{"location":[32.8057045,-116.9230371],"ct":"US","tp":"CR","ts":"2023-08-27T06:42:27Z","tX":179,"tY":413,"tags":{"addr:city":"El Cajon","addr:housenumber":"1581","addr:postcode":"92021","addr:state":"CA","addr:street":"East Main Street","name":"Vacationer RV Resort"}},"9978796245":{"location":[32.7200386,-116.8128753],"ct":"US","tp":"CS","ts":"2022-08-26T00:25:59Z","tX":179,"tY":413,"tags":{"addr:city":"Jamul","addr:housenumber":"15763","addr:postcode":"91935","addr:state":"CA","addr:street":"Lyons Valley Road","fee":"yes","name":"Indian Hills Camp","website":"https://www.indianhillscamp.com/"}},"4635860581":{"location":[32.810604,-116.9189193],"ct":"US","tp":"CR","ts":"2017-01-26T20:42:36Z","tX":179,"tY":413,"tags":{"name":"Carson Trailer"}},"4638765227":{"location":[32.6832317,-117.002436],"ct":"US","tp":"SD","ts":"2017-01-29T18:10:52Z","tX":179,"tY":413,"tags":{"access":"customers","fee":"no","sanitary_dump_station:round_drain":"yes"}},"4642454922":{"location":[32.6833016,-117.0026196],"ct":"US","tp":"SD","ts":"2017-01-29T18:10:52Z","tX":179,"tY":413,"tags":{"access":"customers","fee":"no","sanitary_dump_station:round_drain":"yes"}},"11378369744":{"location":[32.8393087,-117.0330746],"ct":"US","tp":"SD","ts":"2023-11-26T20:02:53Z","tX":179,"tY":413,"tags":{"operator":"Dump Station"}}}