{"823312607":{"location":[45.1630774,-85.2395303],"ct":"US","tp":"CS","ts":"2020-07-06T04:58:49Z","tX":269,"tY":367,"tags":{"name":"Wooden Shoe Park Campground"}},"893387463":{"location":[45.3042125,-85.3142233],"ct":"US","tp":"CS","ts":"2021-01-08T16:42:08Z","tX":269,"tY":367,"tags":{"fee":"yes","name":"Fisherman's Island State Park North Campground"}},"893387467":{"location":[45.2910483,-85.334605],"ct":"US","tp":"CS","ts":"2021-01-08T16:42:08Z","tX":269,"tY":367,"tags":{"fee":"yes","name":"Fisherman's Island State Park South Campground"}},"894768679":{"location":[45.1119867,-85.3602233],"ct":"US","tp":"CS","ts":"2021-12-27T02:20:45Z","tX":269,"tY":367,"tags":{"name":"Barnes County Park Campground","phone":"+1-231-599-2712","website":"https://www.antrimcounty.org/barnespark.asp"}},"958834131":{"location":[45.2352631,-85.0884762],"ct":"US","tp":"CS","ts":"2024-04-26T17:48:12Z","tX":269,"tY":367,"tags":{"access":"yes","addr:city":"Boyne City","addr:housenumber":"05820","addr:postcode":"49712","addr:state":"MI","addr:street":"Lake Shore Road","capacity:caravans":"54","caravans":"yes","name":"Whiting Park Campground","operator":"Charlevoix County","operator:type":"public","operator:wikidata":"Q498020","phone":"+1-231-582-7040","website":"https://www.charlevoixcounty.org/whitingpark/whiting_park_campground/whiting_park_campground.php"}},"9190969812":{"location":[45.1126217,-85.3606917],"ct":"US","tp":"SD","ts":"2021-10-21T17:02:11Z","tX":269,"tY":367,"tags":{}}}