{"803188237":{"location":[45.0685842,-85.2608046],"ct":"US","tp":"CS","ts":"2023-03-15T22:03:54Z","tX":269,"tY":368,"tags":{"access":"yes","addr:city":"Central Lake","addr:state":"MI","internet_access":"wlan","name":"Thurston Park Campground","phone":"+1-231-544-6483","website":"https://centrallakemi.org/thurston-park-campground/"}},"803240992":{"location":[44.9777052,-85.1905428],"ct":"US","tp":"CS","ts":"2020-05-13T07:49:05Z","tX":269,"tY":368,"tags":{"name":"Craven Park Campground"}},"893387439":{"location":[44.9067641,-85.3936192],"ct":"US","tp":"CR","ts":"2023-10-29T03:06:45Z","tX":269,"tY":368,"tags":{"addr:city":"Elk Rapids","addr:housenumber":"8988","addr:postcode":"49629","addr:state":"MI","addr:street":"Cairn Highway","name":"Honcho Rest Campground","phone":"+1-231-264-8548","website":"https://www.honchorestcampground.com/"}},"894768654":{"location":[44.8513254,-85.3093111],"ct":"US","tp":"CR","ts":"2023-02-01T00:25:11Z","tX":269,"tY":368,"tags":{"addr:city":"Rapid City","addr:housenumber":"6815","addr:postcode":"49676","addr:state":"MI","addr:street":"Crystal Beach Road Northwest","capacity":"54","name":"Torch Grove Campground","phone":"+1-231-322-2891","website":"https://www.torchgrove.com/"}},"894769996":{"location":[44.9257623,-85.1856068],"ct":"US","tp":"CS","ts":"2023-10-29T03:05:01Z","tX":269,"tY":368,"tags":{"addr:city":"Bellaire","addr:housenumber":"7231","addr:postcode":"49615","addr:street":"South M 88","gnis:feature_id":"2463704","name":"Chain O' Lakes Campground","tents":"yes","website":"https://www.chainolakescamp.com/"}},"2925319046":{"location":[44.9060179,-85.393638],"ct":"US","tp":"CR","ts":"2023-10-29T03:09:36Z","tX":269,"tY":368,"tags":{"addr:city":"Elk Rapids","addr:housenumber":"8988","addr:postcode":"49629","addr:state":"MI","addr:street":"Cairn Highway","gnis:feature_id":"2463265","name":"Honcho Rest Campground","phone":"+1-231-264-8548","website":"https://www.honchorestcampground.com/"}},"7660116133":{"location":[45.0738386,-85.1732873],"ct":"US","tp":"CS","ts":"2020-06-28T05:53:26Z","tX":269,"tY":368,"tags":{"group_only":"yes","name":"Pleasant Valley Bible Camp"}},"7513089530":{"location":[45.069664,-85.2604803],"ct":"US","tp":"SD","ts":"2020-05-13T04:40:30Z","tX":269,"tY":368,"tags":{}}}