{"893354198":{"location":[44.4820161,-85.3209832],"ct":"US","tp":"CS","ts":"2021-01-08T14:20:31Z","tX":269,"tY":370,"tags":{"name":"Hopkins Creek State Forest Campground"}},"893354199":{"location":[44.4834252,-85.3148524],"ct":"US","tp":"CS","ts":"2021-04-30T20:04:02Z","tX":269,"tY":370,"tags":{"gnis:feature_id":"2104173","name":"Hopkins Creek Equestrian State Forest Campground & Trail Camp"}},"894838799":{"location":[44.491853,-85.421464],"ct":"US","tp":"CS","ts":"2024-02-19T16:18:29Z","tX":269,"tY":370,"tags":{"capacity":"25","charge":"25 USD","fee":"yes","name":"Old US-131 State Forest Campground","website":"https://www2.dnr.state.mi.us/parksandtrails/Details.aspx?id=593&type=SFCG"}},"894838808":{"location":[44.4877518,-85.4026022],"ct":"US","tp":"CS","ts":"2021-01-13T07:35:47Z","tX":269,"tY":370,"tags":{"addr:city":"Manton","addr:housenumber":"10420","addr:postcode":"49663","addr:state":"MI","addr:street":"Chippewa Landing Trail","name":"Chippewa Landing","phone":"+1-231-313-0832","website":"http://www.chippewalanding.com/"}},"894846048":{"location":[44.4127096,-85.3934503],"ct":"US","tp":"CR","ts":"2021-01-13T08:00:17Z","tX":269,"tY":370,"tags":{"addr:city":"Manton","addr:housenumber":"221","addr:postcode":"49663","addr:state":"MI","addr:street":"East Elmore Street","area":"yes","name":"Lake Billings Campground","operator":"City of Manton","phone":"+1-231-824-6454","website":"http://mantonmi.com/rvCampground.html"}},"896059810":{"location":[44.4085648,-85.3857287],"ct":"US","tp":"CS","ts":"2022-06-29T21:30:27Z","tX":269,"tY":370,"tags":{"group_only":"yes","name":"Manton Christian Camp"}},"896060146":{"location":[44.4024964,-85.3718705],"ct":"US","tp":"CS","ts":"2021-01-17T03:44:52Z","tX":269,"tY":370,"tags":{"name":"Blue Spruce Campground","website":"https://bluesprucecampground.com/"}},"896061564":{"location":[44.3556295,-85.2536603],"ct":"US","tp":"CS","ts":"2021-11-29T19:55:52Z","tX":269,"tY":370,"tags":{"capacity":"11","charge":"20 USD","fee":"yes","name":"Long Lake State Forest Campground","reservation":"no","website":"https://www2.dnr.state.mi.us/parksandtrails/details.aspx?id=607&type=SFCG"}},"896061572":{"location":[44.3575898,-85.2448232],"ct":"US","tp":"CS","ts":"2021-11-29T19:55:52Z","tX":269,"tY":370,"tags":{"capacity":"30","charge":"20 USD","fee":"yes","name":"Goose Lake State Forest Campground","reservation":"no","website":"https://www2.dnr.state.mi.us/parksandtrails/details.aspx?id=598&type=SFCG"}},"937388903":{"location":[44.4821604,-85.3537416],"ct":"US","tp":"CS","ts":"2021-04-30T18:43:06Z","tX":269,"tY":370,"tags":{"name":"Chase Creek Campground"}},"965649311":{"location":[44.5149702,-85.4005024],"ct":"US","tp":"CS","ts":"2021-07-19T14:24:12Z","tX":269,"tY":370,"tags":{"name":"Fox Run Family Campground & RV Park"}},"971804852":{"location":[44.5637299,-85.36324],"ct":"US","tp":"CS","ts":"2021-12-26T22:45:12Z","tX":269,"tY":370,"tags":{"capacity":"32","charge":"20 USD","fee":"yes","gnis:feature_id":"2496169","name":"Spring Lake State Forest Campground","phone":"+1-231-775-7911","reservation":"no","website":"https://www2.dnr.state.mi.us/parksandtrails/details.aspx?id=595&type=SFCG"}},"1080071510":{"location":[44.3616883,-85.3208782],"ct":"US","tp":"CS","ts":"2022-07-20T16:01:33Z","tX":269,"tY":370,"tags":{"name":"Whitlock Lake Campground"}},"2930473242":{"location":[44.4126958,-85.3932523],"ct":"US","tp":"CR","ts":"2020-12-12T05:14:32Z","tX":269,"tY":370,"tags":{"addr:city":"Manton","addr:housenumber":"221","addr:postcode":"49663","addr:state":"MI","addr:street":"East Elmore Street","gnis:feature_id":"2509207","name":"Lake Billings Campground","phone":"+1-231-824-6454","website":"http://mantonmi.com/rvCampground.html"}},"2930473249":{"location":[44.5249353,-85.1790005],"ct":"US","tp":"CS","ts":"2023-10-29T03:13:06Z","tX":269,"tY":370,"tags":{"addr:city":"Fife Lake","addr:housenumber":"13177","addr:postcode":"49633","addr:street":"Old M-66 Southeast","gnis:feature_id":"2494736","name":"Smithville Landing","website":"https://www.smithvillelanding.com/"}},"2934612186":{"location":[44.4875951,-85.4023469],"ct":"US","tp":"CS","ts":"2021-01-13T07:35:47Z","tX":269,"tY":370,"tags":{"addr:city":"Manton","addr:housenumber":"10420","addr:postcode":"49663","addr:state":"MI","addr:street":"Chippewa Landing Trail","name":"Chippewa Landing","phone":"+1-231-313-0832","website":"http://www.chippewalanding.com/"}}}