{"505706727":{"location":[44.3390339,-85.2183991],"ct":"US","tp":"CS","ts":"2020-12-22T14:03:47Z","tX":269,"tY":371,"tags":{}},"505885999":{"location":[44.3298884,-85.2849801],"ct":"US","tp":"CS","ts":"2023-10-29T03:10:14Z","tX":269,"tY":371,"tags":{"capacity":"42","name":"Crooked Lake Park Campground","reservation":"no","website":"https://www.missaukee.org/departments/parks/index.html"}},"935643869":{"location":[44.2841879,-85.363908],"ct":"US","tp":"CR","ts":"2021-04-27T02:11:15Z","tX":269,"tY":371,"tags":{"addr:city":"Cadillac","addr:housenumber":"10621","addr:postcode":"49601","addr:state":"MI","addr:street":"East 34 Road","name":"Camp Cadillac","phone":"+1-231-775-9724","tents":"yes","website":"https://www.campcadillac.com/"}},"937411341":{"location":[44.3353611,-85.3798571],"ct":"US","tp":"CS","ts":"2021-04-30T20:04:02Z","tX":269,"tY":371,"tags":{"gnis:feature_id":"1622838","name":"Long Lake Campground"}},"993522825":{"location":[44.1492246,-85.324552],"ct":"US","tp":"CR","ts":"2023-10-29T03:07:51Z","tX":269,"tY":371,"tags":{"addr:city":"Tustin","addr:housenumber":"23163","addr:postcode":"49688","addr:state":"MI","addr:street":"M-115","gnis:feature_id":"2514701","name":"Cadillac Woods Campground","phone":"+1-231-825-2012","tents":"yes","website":"https://www.cadillacwoodscampground.com/"}},"8860111730":{"location":[44.1006034,-85.1489246],"ct":"US","tp":"CR","ts":"2021-07-30T18:16:51Z","tX":269,"tY":371,"tags":{"addr:city":"Marion","addr:country":"US","addr:housenumber":"230","addr:postcode":"49665","addr:state":"MI","addr:street":"South Mill Street","capacity":"38","email":"marionvillage@sbcglobal.net","name":"Veterans Memorial Park","phone":"+1-231-667-0100","power_supply":"yes","sanitary_dump_station":"customers"}},"12032133342":{"location":[44.1063199,-85.3896126],"ct":"US","tp":"CR","ts":"2024-07-03T23:31:52Z","tX":269,"tY":371,"tags":{}},"9294375946":{"location":[44.328107,-85.2844231],"ct":"US","tp":"SD","ts":"2021-11-29T19:47:47Z","tX":269,"tY":371,"tags":{}}}