{"363833029":{"location":[43.9018866,-85.2553659],"ct":"US","tp":"CR","ts":"2015-08-04T00:50:08Z","tX":269,"tY":372,"tags":{}},"894822169":{"location":[43.9312592,-85.286499],"ct":"US","tp":"CS","ts":"2024-04-01T17:15:50Z","tX":269,"tY":372,"tags":{"addr:city":"Evart","addr:housenumber":"7717","addr:postcode":"49631","addr:street":"95th Avenue","gnis:feature_id":"2106957","group_only":"yes","leisure":"summer_camp","name":"Spring Hill Camp","website":"https://www.springhillcamps.com/"}},"1037847164":{"location":[44.0259605,-85.3316531],"ct":"US","tp":"CS","ts":"2022-03-07T00:32:05Z","tX":269,"tY":372,"tags":{"capacity:caravans":"17","charge":"15 USD","fee":"yes","gnis:feature_id":"2106942","name":"Sunrise Lake State Forest Campground","ownership":"state","phone":"+1-989-539-3021","website":"https://www2.dnr.state.mi.us/parksandtrails/Details.aspx?id=604&type=SFCG"}},"1081224269":{"location":[44.0714619,-85.3814414],"ct":"US","tp":"CS","ts":"2022-07-26T18:38:45Z","tX":269,"tY":372,"tags":{"name":"Rose Lake Park Campground","operator":"Osceola County"}},"1081590122":{"location":[43.8665629,-85.1892413],"ct":"US","tp":"CS","ts":"2022-07-26T18:52:13Z","tX":269,"tY":372,"tags":{"name":"Crittenden Park Campground"}},"1202068768":{"location":[43.9041716,-85.2837047],"ct":"US","tp":"CS","ts":"2023-08-25T19:20:20Z","tX":269,"tY":372,"tags":{"addr:city":"Evart","addr:country":"US","addr:housenumber":"6170","addr:postcode":"49631","addr:state":"MI","addr:street":"100th Avenue","name":"Hillside Campground","phone":"+1 231 734 2643"}},"2934612702":{"location":[43.9072137,-85.0788486],"ct":"US","tp":"CS","ts":"2014-06-26T19:00:30Z","tX":269,"tY":372,"tags":{"gnis:feature_id":"2516445","name":"Mud Lake State Forest Campground"}},"2934612704":{"location":[43.9328772,-85.2077096],"ct":"US","tp":"CR","ts":"2023-10-29T03:07:39Z","tX":269,"tY":372,"tags":{"addr:city":"Evart","addr:housenumber":"6281","addr:postcode":"49631","addr:state":"MI","addr:street":"River Road","gnis:feature_id":"2514761","name":"River Country Campground","phone":"+1-231-734-3808","tents":"yes","website":"https://www.campandcanoe.com/"}},"2934612715":{"location":[43.9882509,-85.0908557],"ct":"US","tp":"CR","ts":"2020-12-10T05:24:02Z","tX":269,"tY":372,"tags":{"addr:city":"Marion","addr:housenumber":"12062","addr:postcode":"49665","addr:state":"MI","addr:street":"M-115","gnis:feature_id":"2514725","name":"The Old Log Resort","phone":"+1-231-743-2775","tents":"yes","website":"https://www.oldlogresort.com/"}},"7671662086":{"location":[43.8960369,-85.2566314],"ct":"US","tp":"CS","ts":"2020-06-30T19:11:48Z","tX":269,"tY":372,"tags":{"capacity":"5","caravans":"no","operator":"City of Evart","tents":"yes"}},"7671662090":{"location":[43.8966414,-85.2568493],"ct":"US","tp":"CS","ts":"2020-06-30T19:11:48Z","tX":269,"tY":372,"tags":{"capacity":"15","caravans":"yes","operator":"City of Evart","tents":"no"}},"7671662179":{"location":[43.8989515,-85.2527797],"ct":"US","tp":"CS","ts":"2020-06-30T19:11:48Z","tX":269,"tY":372,"tags":{"capacity":"15","operator":"City of Evart","tents":"yes"}},"7671662087":{"location":[43.8968642,-85.2574039],"ct":"US","tp":"SD","ts":"2020-06-30T19:11:48Z","tX":269,"tY":372,"tags":{}},"9913126351":{"location":[43.8663647,-85.1887894],"ct":"US","tp":"SD","ts":"2022-07-26T18:52:13Z","tX":269,"tY":372,"tags":{}}}