{"18063448":{"location":[43.8037773,-85.1564496],"ct":"US","tp":"CS","ts":"2024-09-18T17:35:30Z","tX":269,"tY":373,"tags":{"access":"yes","capacity:caravans":"146","caravans":"yes","email":"MerrillLake@MecostaCountyParks.com","name":"Merrill-Gorrel County Park Campground","operator":"Mecosta County","phone":"+1-989-382-7158","website":"https://www.mecostacountyparks.com/merrill-gorrel-campground.html"}},"1136583887":{"location":[43.7115335,-85.1993633],"ct":"US","tp":"CS","ts":"2024-09-18T18:09:52Z","tX":269,"tY":373,"tags":{"access":"yes","addr:city":"Mecosta","addr:housenumber":"16823","addr:postcode":"49332","addr:state":"MI","addr:street":"Birch Haven Drive","capacity:tents":"21","name":"Tubbs Lake Mainland State Forest Campground","operator":"Michigan Department of Natural Resources","tents":"yes","website":"https://www.michigan.org/property/tubbs-lake-campground"}},"1136671350":{"location":[43.7147904,-85.2095932],"ct":"US","tp":"CS","ts":"2024-09-18T18:09:52Z","tX":269,"tY":373,"tags":{"access":"yes","addr:city":"Mecosta","addr:housenumber":"17018","addr:postcode":"49332","addr:state":"MI","addr:street":"65th Avenue","capacity:tents":"12","gnis:feature_id":"2518830","name":"Tubbs Lake Island State Forest Campground","operator":"Michigan Department of Natural Resources","tents":"yes","website":"https://www.michigan.org/property/tubbs-lake-campground"}},"1221784355":{"location":[43.7208203,-85.3689196],"ct":"US","tp":"CS","ts":"2024-04-01T16:26:04Z","tX":269,"tY":373,"tags":{"addr:city":"Rodney","addr:housenumber":"14444","addr:postcode":"49342","addr:state":"MI","addr:street":"17 Mile Road","group_only":"yes","leisure":"summer_camp","name":"Cran Hill Ranch of the Reformed"}},"1268178054":{"location":[43.7075483,-85.2172252],"ct":"US","tp":"CS","ts":"2024-04-01T16:18:01Z","tX":269,"tY":373,"tags":{"addr:city":"Mecosta","addr:housenumber":"16621","addr:postcode":"49332","addr:state":"MI","addr:street":"65th Avenue","name":"Shooltz's Landing Campground","phone":"+1-989-382-5596","website":"https://shooltzslanding.wordpress.com/"}},"1268178081":{"location":[43.6963857,-85.2263523],"ct":"US","tp":"CR","ts":"2024-04-01T16:18:01Z","tX":269,"tY":373,"tags":{"addr:city":"Mecosta","addr:housenumber":"15854","addr:postcode":"49332","addr:state":"MI","addr:street":"Pretty Lake Drive","gnis:feature_id":"2519023","name":"Bluegill Lake Family Camping Resort","phone":"+1-231-972-4455","tents":"yes","website":"http://www.bluegillcamping.com/"}},"1316390862":{"location":[43.5998984,-85.2665238],"ct":"US","tp":"CS","ts":"2024-09-18T14:11:42Z","tX":269,"tY":373,"tags":{"access":"yes","addr:city":"Mecosta","addr:housenumber":"9003","addr:postcode":"49332","addr:state":"MI","addr:street":"90th Avenue","capacity:caravans":"162","caravans":"yes","email":"SchoolSection@MecostaCountyParks.com","name":"School Section Lake Veteran's Park Campground","operator":"Mecosta County","phone":"+1-231-972-7450","website":"https://www.mecostacountyparks.com/school-section-lake-veterans-park.html"}},"1316455872":{"location":[43.6238156,-85.3137362],"ct":"US","tp":"CS","ts":"2024-09-18T16:15:18Z","tX":269,"tY":373,"tags":{"addr:city":"Mecosta","addr:housenumber":"10845","addr:state":"MI","addr:street":"Percy Lane","name":"Holiday Terrace Mobile Home Park","operator":"Burke Holiday Terrace LLC"}},"12184192945":{"location":[43.5966464,-85.2708825],"ct":"US","tp":"CS","ts":"2024-09-20T12:16:52Z","tX":269,"tY":373,"tags":{"group_only":"yes","name":"Family Group Camp"}},"10737212683":{"location":[43.8046425,-85.1543748],"ct":"US","tp":"SD","ts":"2023-03-15T14:25:39Z","tX":269,"tY":373,"tags":{}}}