{"556901127":{"location":[43.5649325,-85.3080229],"ct":"US","tp":"CS","ts":"2024-04-01T15:21:58Z","tX":269,"tY":374,"tags":{"access":"private","addr:city":"Canadian Lakes","addr:housenumber":"6663","addr:postcode":"49336","addr:state":"MI","addr:street":"110th Avenue","internet_access":"yes","name":"Canadian Lakes Campground","phone":"+1-231-972-7180","website":"http://www.clpoc.org/amenity.asp?id=4"}},"1091083709":{"location":[43.4566243,-85.2134208],"ct":"US","tp":"CS","ts":"2022-09-01T19:50:00Z","tX":269,"tY":374,"tags":{"capacity":"4","leisure":"resort","name":"Camp Ford Lincoln","operator":"Montcalm County","resort":"recreation_center","website":"https://www.montcalm.us/284/Parks"}},"1230837893":{"location":[43.4356439,-85.1429487],"ct":"US","tp":"CS","ts":"2023-12-13T12:52:45Z","tX":269,"tY":374,"tags":{"access":"yes","addr:city":"Six Lakes","addr:housenumber":"9888","addr:postcode":"48886","addr:state":"MI","addr:street":"Park Road","charge":"35 USD","fee":"yes","name":"First Lake Park Campground","operator":"Belvidere Township","phone":"+1-989-365-355","website":"https://belvideretownshipmi.gov/parks/"}},"1230855407":{"location":[43.4384454,-85.1283062],"ct":"US","tp":"CR","ts":"2023-12-13T14:23:20Z","tX":269,"tY":374,"tags":{"name":"Pleasure Point RV Condominium Resort"}},"1268165808":{"location":[43.4515502,-85.2079967],"ct":"US","tp":"CR","ts":"2024-04-01T15:14:27Z","tX":269,"tY":374,"tags":{"addr:city":"Lakeview","addr:housenumber":"6223","addr:postcode":"48850","addr:state":"MI","addr:street":"Cutler Road","email":"tlcampmarina@gmail.com","name":"Townline Lake Campground and Marina","phone":"+1-989-352-7346","website":"http://tlcampground.com/"}},"2936088152":{"location":[43.4326119,-85.1068708],"ct":"US","tp":"CR","ts":"2023-10-29T18:33:26Z","tX":269,"tY":374,"tags":{"addr:city":"Six Lakes","addr:housenumber":"1136","addr:postcode":"48886","addr:state":"MI","addr:street":"West Fleck Road","gnis:feature_id":"2561722","name":"Nature's Chain of Lakes Campground","phone":"+1-989-365-3564","tents":"yes","website":"https://www.natureschain.com/"}}}