{"1233069455":{"location":[42.699792,-85.2763734],"ct":"US","tp":"CR","ts":"2023-12-21T20:06:18Z","tX":269,"tY":377,"tags":{"addr:city":"Hastings","addr:housenumber":"422","addr:postcode":"49058","addr:street":"Welcome Road","gnis:feature_id":"2572710","name":"Welcome Woods Campground","website":"http://www.welcomewoods.com/"}},"2936088165":{"location":[42.6783942,-85.3832693],"ct":"US","tp":"CR","ts":"2020-12-07T14:40:55Z","tX":269,"tY":377,"tags":{"addr:city":"Hastings","addr:housenumber":"1805","addr:postcode":"49058","addr:state":"MI","addr:street":"North Irving Road","gnis:feature_id":"2572720","name":"Whispering Waters Campground","phone":"+1-269-945-5166","website":"http://www.whisperingwatersonline.com/"}},"2972440256":{"location":[42.8047305,-85.3352573],"ct":"US","tp":"CR","ts":"2022-04-22T20:33:23Z","tX":269,"tY":377,"tags":{"addr:city":"Alto","addr:housenumber":"13495","addr:postcode":"49302","addr:state":"MI","addr:street":"92nd Street Southeast","name":"Tyler Creek Campground","phone":"+1-616-868-6751","tents":"yes"}},"4203632189":{"location":[42.6174025,-85.2838365],"ct":"US","tp":"CS","ts":"2024-02-17T15:26:41Z","tX":269,"tY":377,"tags":{"addr:city":"Hastings","addr:housenumber":"2349","addr:postcode":"49058","addr:state":"MI","addr:street":"Campground Road","caravans":"yes","fee":"yes","internet_access":"wlan","name":"Winding Creek Campground","operator":"Winding Creek Camp","source":"survey;http://www.windingcreekcamp.org/","tents":"yes","website":"https://windingcreekcamp.org/"}}}