{"18165794":{"location":[35.1705808,-85.1258811],"ct":"US","tp":"CS","ts":"2024-10-15T15:22:14Z","tX":269,"tY":405,"tags":{}},"193684211":{"location":[35.150848,-85.2721551],"ct":"US","tp":"CR","ts":"2021-04-16T14:44:47Z","tX":269,"tY":405,"tags":{}},"270260922":{"location":[34.9581658,-85.1664542],"ct":"US","tp":"CS","ts":"2018-06-02T06:28:56Z","tX":269,"tY":405,"tags":{"addr:city":"Ringgold","addr:housenumber":"188","addr:postcode":"30736","addr:street":"Trailer Lane","description":"Its a 60 Campground that accepts everything from manufactured homes to travel trailers. Free cable and WiFi laundry room, 30 & 50 amp full hook ups.","name":"Indian Springs Campgrounds","phone":"+1-423-920-0121","website":"www.indianspringscampgrounds.com"}},"690757319":{"location":[34.9315926,-85.1557193],"ct":"US","tp":"CS","ts":"2020-12-17T07:33:37Z","tX":269,"tY":405,"tags":{"addr:city":"Ringgold","addr:housenumber":"199","addr:state":"GA","addr:street":"KOA Boulevard","name":"Battlefield Campground & RV Park"}},"690757705":{"location":[34.9316779,-85.1561327],"ct":"US","tp":"CS","ts":"2020-12-17T07:33:37Z","tX":269,"tY":405,"tags":{"addr:city":"Ringgold","addr:housenumber":"199","addr:state":"GA","addr:street":"KOA Boulevard"}},"835945681":{"location":[34.9321011,-85.1559929],"ct":"US","tp":"CR","ts":"2020-08-11T03:27:51Z","tX":269,"tY":405,"tags":{}},"921098653":{"location":[35.0206097,-85.4064827],"ct":"US","tp":"CS","ts":"2021-03-22T23:26:31Z","tX":269,"tY":405,"tags":{"name":"Raccoon Mountain Campground"}},"1162673315":{"location":[34.9790645,-85.2136531],"ct":"US","tp":"CR","ts":"2023-04-15T02:02:50Z","tX":269,"tY":405,"tags":{"name":"Holiday Travel Park of Chattanooga"}},"10136730886":{"location":[35.1721003,-85.1239392],"ct":"US","tp":"SD","ts":"2022-10-29T04:18:44Z","tX":269,"tY":405,"tags":{}}}