{"4533361994":{"location":[27.6346037,85.0939796],"ct":"NP","tp":"CS","ts":"2016-12-02T07:44:14Z","tX":754,"tY":430,"tags":{"name:en":"My home"}},"4533362390":{"location":[27.6793558,85.3627863],"ct":"NP","tp":"CS","ts":"2017-01-02T09:21:41Z","tX":754,"tY":430,"tags":{"name:en":"Room"}},"4759732863":{"location":[27.6155474,85.15333],"ct":"NP","tp":"CS","ts":"2017-03-28T13:32:47Z","tX":754,"tY":430,"tags":{}},"4761179224":{"location":[27.6178185,85.1511963],"ct":"NP","tp":"CS","ts":"2017-03-29T05:46:00Z","tX":754,"tY":430,"tags":{}},"5149712523":{"location":[27.6352482,85.0935207],"ct":"NP","tp":"CS","ts":"2017-10-05T13:33:19Z","tX":754,"tY":430,"tags":{"addr:postcode":"44100","addr:street":"Tribhuvan Highway","internet_access":"wlan","name:en":"Pradhan's home","phone":"9823022886"}},"5614449123":{"location":[27.6133212,85.0915743],"ct":"NP","tp":"CS","ts":"2018-05-13T02:34:28Z","tX":754,"tY":430,"tags":{"name:en":"Free camping"}},"6802013386":{"location":[27.3812444,85.2897765],"ct":"NP","tp":"CS","ts":"2019-09-17T11:47:21Z","tX":754,"tY":430,"tags":{"name:en":"Kudule"}},"8344530017":{"location":[27.6289371,85.1970667],"ct":"NP","tp":"CS","ts":"2021-01-21T08:11:22Z","tX":754,"tY":430,"tags":{"addr:street":"Kulekhani-Matatirtha Road","name:en":"Kodo Bari"}},"8572238217":{"location":[27.6807846,85.3912099],"ct":"NP","tp":"CS","ts":"2021-03-29T16:16:13Z","tX":754,"tY":430,"tags":{"addr:street":"Purano Thimi - Bhaktapur","name:en":"New Everest Party Palace"}},"9296381617":{"location":[27.5869968,85.2814196],"ct":"NP","tp":"CS","ts":"2021-11-30T14:07:18Z","tX":754,"tY":430,"tags":{"name:en":"MAKKHUBESI"}},"9296381618":{"location":[27.5871676,85.2815254],"ct":"NP","tp":"CS","ts":"2021-11-30T14:07:20Z","tX":754,"tY":430,"tags":{"name:en":"MAKKHU BESI"}},"9296381817":{"location":[27.6006572,85.287721],"ct":"NP","tp":"CS","ts":"2021-11-30T14:07:22Z","tX":754,"tY":430,"tags":{"name:en":"PAKHA CHOKE"}},"9296388417":{"location":[27.6480966,85.2911454],"ct":"NP","tp":"CS","ts":"2021-11-30T14:09:43Z","tX":754,"tY":430,"tags":{"name:en":"KHOKANA CAMP"}},"9628516385":{"location":[27.6591703,85.2960764],"ct":"NP","tp":"CS","ts":"2022-04-01T09:18:09Z","tX":754,"tY":430,"tags":{"name":"Typical Rest Camp"}},"11402596369":{"location":[27.6421177,85.3586202],"ct":"NP","tp":"CS","ts":"2023-12-08T06:46:39Z","tX":754,"tY":430,"tags":{}},"11518836069":{"location":[27.6238538,85.4288429],"ct":"NP","tp":"CS","ts":"2024-01-15T11:41:50Z","tX":754,"tY":430,"tags":{}}}