{"387993366":{"location":[63.704678,22.7299802],"ct":"FI","tp":"CS","ts":"2023-03-31T19:47:31Z","tX":576,"tY":275,"tags":{"addr:city":"Jakobstad","addr:housenumber":"50","addr:postcode":"68600","addr:street":"Larsmovägen","caravans":"yes","email":"svanen@cou.fi","fax":"+358 6 781 0008","name":"Svanen Camping","name:fi":"Leirintäalue Joutsen","name:sv":"Svanen Camping","phone":"+358 6 723 0660","shower":"yes","tents":"yes","toilets":"yes","website":"https://www.svanen.fi/"}},"732894245":{"location":[63.6874707,22.6987663],"ct":"FI","tp":"CR","ts":"2023-06-11T22:36:29Z","tX":576,"tY":275,"tags":{"addr:city":"Jakobstad","addr:postcode":"68600","addr:street":"Alholmsvägen","caravans":"yes","name":"Old Harbor Park & Camping","tents":"no"}},"784478578":{"location":[63.6672538,22.5501139],"ct":"FI","tp":"CR","ts":"2025-03-23T08:58:14Z","tX":576,"tY":275,"tags":{"addr:city":"Pietarsaari","addr:housenumber":"268","addr:postcode":"68620","addr:street":"Pikkuhiekantie","name":"Pikkuhiekan matkaparkki","note":"Vakipaikkojen lisäksi 11 matkaparkki paikkaa.","power_supply":"yes","sanitary_dump_station":"yes"}},"11950635002":{"location":[63.6889075,22.6941185],"ct":"FI","tp":"CS","ts":"2024-07-20T06:08:26Z","tX":576,"tY":275,"tags":{"addr:housenumber":"1","addr:street":"Pavisvägen","name":"Old harbour camping","phone":"+358447950065","tents":"yes","website":"https://www.oldharbor.fi"}}}