{"505263280":{"location":[48.0625127,22.5187836],"ct":"HU","tp":"CS","ts":"2017-07-07T12:56:43Z","tX":576,"tY":355,"tags":{"name":"Diós Kemping"}},"2295895105":{"location":[48.0528118,22.6548003],"ct":"HU","tp":"CS","ts":"2023-04-22T10:03:58Z","tX":576,"tY":355,"tags":{"addr:city":"Túristvándi","addr:housenumber":"11","addr:postcode":"4944","addr:street":"Petőfi utca","email":"info@vizicsiga.hu","name":"Vízicsiga Kemping","phone":"+36 20 416 4142","tents":"yes","website":"http://www.vizicsiga.hu"}},"3465156319":{"location":[48.106946,22.824505],"ct":"HU","tp":"CS","ts":"2020-04-13T16:52:15Z","tX":576,"tY":355,"tags":{"addr:city":"Tiszabecs","addr:housenumber":"83","addr:postcode":"4951","addr:street":"Kis utca","email":"info@csiposztura.hu","name":"Albatrosz Kemping","phone":"+36 44 310 822;+36 30 976 9981","source":"turistautak.hu","source:date":"2013-04-21","url":"http://turistautak.hu/poi.php?id=15227","website":"http://www.csiposztura.hu"}},"3465156333":{"location":[48.105701,22.825329],"ct":"HU","tp":"CS","ts":"2023-11-16T17:57:24Z","tX":576,"tY":355,"tags":{"addr:city":"Tiszabecs","addr:housenumber":"53","addr:postcode":"4951","addr:street":"Kis utca","contact:fax":"+36 44 421 611","email":"gentlemen@gentlementours.t-online.hu","name":"Dióliget Kemping","phone":"+36 44 378 282;+36 30 945 0194","source":"turistautak.hu","source:date":"2014-07-28","url":"http://turistautak.hu/poi.php?id=15228","website":"http://www.gentlementours.hu"}},"3465156715":{"location":[48.096333,22.62235],"ct":"HU","tp":"CS","ts":"2015-04-19T11:41:04Z","tX":576,"tY":355,"tags":{"description":"Nyitvatartás: 05.01.-09.30. 70-387-2589 70-387-2591","fixme":"resurvey (source was old)","name":"Tiszapart ifjúsági szálló és kemping","source":"turistautak.hu","source:date":"2008-08-03","url":"http://turistautak.hu/poi.php?id=51300"}},"3465156726":{"location":[48.091583,22.678917],"ct":"HU","tp":"CS","ts":"2015-04-19T11:41:05Z","tX":576,"tY":355,"tags":{"name":"Túr-Bukó Camping","source":"turistautak.hu","source:date":"2013-04-21","url":"http://turistautak.hu/poi.php?id=8596"}},"3465156728":{"location":[48.049983,22.642917],"ct":"HU","tp":"CS","ts":"2015-04-19T11:41:05Z","tX":576,"tY":355,"tags":{"name":"Túr-Party Kemping","source":"turistautak.hu","source:date":"2011-09-23","url":"http://turistautak.hu/poi.php?id=124090"}},"3465156737":{"location":[48.105788,22.827448],"ct":"HU","tp":"CS","ts":"2023-11-16T17:57:24Z","tX":576,"tY":355,"tags":{"addr:city":"Tiszabecs","addr:housenumber":"23-25","addr:postcode":"4951","addr:street":"Kis utca","contact:fax":"+36 44 378 530","email":"videlfin@vidamdelfin.hu","fixme":"resurvey (source was old)","name":"Vidám Delfin Camping","phone":"+36 44 378 530","source":"turistautak.hu","source:date":"2007-02-05","url":"http://turistautak.hu/poi.php?id=18112","website":"https://www.vidamdelfin.hu/"}},"3873394958":{"location":[48.047288,22.642352],"ct":"HU","tp":"CS","ts":"2022-05-16T08:51:17Z","tX":576,"tY":355,"tags":{"addr:city":"Túristvándi","addr:housenumber":"3","addr:postcode":"4944","addr:street":"Malom utca","email":"szallas@turvizimalom.hu","name":"Vízimalom Kemping","phone":"+36 44 434 075;+36 30 289 9808","source":"turistautak.hu","url":"http://turistautak.hu/poi.php?id=18113","website":"https://www.turvizimalom.hu/"}},"4657172789":{"location":[48.0641015,22.5162649],"ct":"HU","tp":"CS","ts":"2017-02-14T08:52:24Z","tX":576,"tY":355,"tags":{"name":"Katica kemping","name:hu":"Katica kemping"}},"4952401713":{"location":[48.0629338,22.518558],"ct":"HU","tp":"CS","ts":"2017-07-05T10:44:08Z","tX":576,"tY":355,"tags":{"addr:city":"Tivadar","addr:postcode":"4921","addr:street":"Üdülőpart","name":"Diós Kemping"}},"11501067736":{"location":[48.0333537,22.7595654],"ct":"HU","tp":"CS","ts":"2024-03-02T14:11:10Z","tX":576,"tY":355,"tags":{"addr:city":"Sonkád","addr:conscriptionnumber":"0124/114","addr:postcode":"4954","contact:email":"matkrisz01@gmail.com","contact:facebook":"kisturkemping","contact:phone":"+36 30 244 3531","name":"Kis-Túr Kemping","tents":"yes"}}}