{"571871695":{"location":[10.6806641,103.2826335],"ct":"KH","tp":"CS","ts":"2019-02-22T02:56:54Z","tX":805,"tY":481,"tags":{"addr:city":"Koh Rong Island","addr:postcode":"18205","addr:street":"Longset / 4K beach","capacity":"22","description":"Sandbank Camping offers tents for rent on our beautiful Sandbank beetween the river and the sea","email":"enjoy@sandbank.life","fee":"yes","internet_access":"wlan","internet_access:fee":"no","name":"Sandbank Camping","operator":"Sai Chon","phone":"+855 10 84 22 00","start_date":"April 2017","website":"http://www.sandbank.life"}},"6148099568":{"location":[10.6833875,103.2920722],"ct":"KH","tp":"CS","ts":"2018-12-19T18:09:56Z","tX":805,"tY":481,"tags":{"name":"4K Camping"}},"6380071887":{"location":[10.6208125,103.2903177],"ct":"KH","tp":"CS","ts":"2019-11-24T10:40:50Z","tX":805,"tY":481,"tags":{"access":"yes","addr:city":"M'Pai Bay","addr:postcode":"18205","description":"On the Rocks teepee tents","name":"Rosemary Resort","operator":"Kunthea Yann","phone":"+855 70310126"}},"7293674685":{"location":[10.6806243,103.2803071],"ct":"KH","tp":"CS","ts":"2020-03-14T03:59:23Z","tX":805,"tY":481,"tags":{"internet_access":"wlan","name:en":"4K Beach Camping","operator":"Nang"}}}