{"146338906":{"location":[44.6556507,-111.1062694],"ct":"US","tp":"CR","ts":"2023-06-13T18:57:56Z","tX":195,"tY":369,"tags":{"addr:city":"West Yellowstone","addr:housenumber":"210","addr:postcode":"59758","addr:state":"MT","addr:street":"South Electric Street","capacity":"240","email":"camp@grizzlyrv.com","internet_access":"wlan","internet_access:fee":"customers","name":"Yellowstone Grizzly RV Park","phone":"(406) 646-4466","power_supply":"yes","sanitary_dump_station":"yes","tents":"no","website":"https://www.grizzlyrv.com/"}},"224146535":{"location":[44.6643605,-111.1119292],"ct":"US","tp":"CR","ts":"2024-09-29T03:51:50Z","tX":195,"tY":369,"tags":{"addr:city":"West Yellowstone","addr:housenumber":"637","addr:state":"MT","addr:street":"Highway 20 West","name":"Fox Den RV & Campground","phone":"+14065898517","website":"http://www.foxdenyellowstone.com/"}},"224146536":{"location":[44.6634881,-111.1070526],"ct":"US","tp":"CR","ts":"2024-03-26T20:14:07Z","tX":195,"tY":369,"tags":{"addr:city":"West Yellowstone","addr:housenumber":"408","addr:state":"MT","addr:street":"Gibbon Avenue","name":"Wagon Wheel","phone":"(406) 646-7872"}},"224149719":{"location":[44.7054202,-111.1001148],"ct":"US","tp":"CS","ts":"2023-10-23T07:50:06Z","tX":195,"tY":369,"tags":{"name":"Baker's Hole","operator":"Hebgen Basin Campgrounds","phone":"406-823-6961","website":"https://www.hebgenbasincampgrounds.com/"}},"224150942":{"location":[44.7785401,-111.1780738],"ct":"US","tp":"CS","ts":"2023-10-23T07:49:59Z","tX":195,"tY":369,"tags":{"name":"Rainbow Point","operator":"Hebgen Basin Campgrounds","phone":"(406) 823-6961","website":"https://www.hebgenbasincampgrounds.com/rainbow_point.html"}},"224154956":{"location":[44.7353863,-111.231516],"ct":"US","tp":"CS","ts":"2023-10-23T07:50:03Z","tX":195,"tY":369,"tags":{"name":"Lonesomehurst","operator":"Hebgen Basin Campgrounds","phone":"(406) 646-1012","website":"https://www.hebgenbasincampgrounds.com/lonesomehurst.html"}},"431574545":{"location":[44.6879131,-111.2167535],"ct":"US","tp":"CS","ts":"2021-06-24T15:14:54Z","tX":195,"tY":369,"tags":{"addr:housenumber":"3305","addr:state":"MT","addr:street":"Targhee Pass Highway","area":"yes","name":"Yellowstone Park KOA"}},"822947955":{"location":[44.6574115,-111.0978089],"ct":"US","tp":"CR","ts":"2024-03-26T20:14:45Z","tX":195,"tY":369,"tags":{"addr:housenumber":"101","addr:state":"MT","addr:street":"South Canyon Street","name":"Buffalo Crossing RV Park","phone":"+1 406-646-4300","website":"https://www.buffalocrossingrvpark.com/"}},"833973680":{"location":[44.6193016,-111.3702134],"ct":"US","tp":"CS","ts":"2024-08-20T13:58:46Z","tX":195,"tY":369,"tags":{"contact:facebook":"https://www.facebook.com/henryslake.statepark/","ele":"1977","fee":"yes","gnis:feature_id":"401390","leisure":"park","name":"Henrys Lake State Park","phone":"(208) 558-7532","website":"https://parksandrecreation.idaho.gov/parks/henrys-lake","wikidata":"Q49500087"}},"986938975":{"location":[44.736126,-111.1872964],"ct":"US","tp":"CS","ts":"2021-09-25T15:02:39Z","tX":195,"tY":369,"tags":{"addr:city":"West Yellowstone","addr:housenumber":"5475","addr:postcode":"59758","addr:state":"MT","addr:street":"Madison Arm Road","name":"Madison Arm Resort, Campground & Marina"}},"986950987":{"location":[44.8029651,-111.2164705],"ct":"US","tp":"CS","ts":"2021-09-25T15:23:31Z","tX":195,"tY":369,"tags":{"addr:city":"West Yellowstone","addr:housenumber":"16990","addr:postcode":"59758","addr:state":"MT","addr:street":"Hebgen Lake Road","name":"Yellowstone Holiday - Marina"}},"1204119818":{"location":[44.659089,-111.1093926],"ct":"US","tp":"CR","ts":"2023-09-01T09:32:28Z","tX":195,"tY":369,"tags":{}},"1268816058":{"location":[44.6499613,-111.4385004],"ct":"US","tp":"CR","ts":"2024-04-03T19:50:39Z","tX":195,"tY":369,"tags":{}},"1268816507":{"location":[44.626733,-111.3332941],"ct":"US","tp":"CR","ts":"2024-04-03T19:53:15Z","tX":195,"tY":369,"tags":{}},"1268817814":{"location":[44.6875716,-111.2534227],"ct":"US","tp":"CS","ts":"2024-04-03T19:58:16Z","tX":195,"tY":369,"tags":{}},"2329770098":{"location":[44.6644691,-111.1047192],"ct":"US","tp":"CR","ts":"2013-06-02T19:11:03Z","tX":195,"tY":369,"tags":{"addr:city":"West Yellowstone","addr:housenumber":"310","addr:street":"Electric Street","name":"Hideaway RV Park","phone":"(406) 646-9049"}},"3670839089":{"location":[44.7353411,-111.2314904],"ct":"US","tp":"CR","ts":"2023-10-23T07:50:12Z","tX":195,"tY":369,"tags":{"capacity":"27","fee":"yes","internet_access":"no","name":"Lonesomehurst Campground","operator":"Hebgen Basin Campgrounds","power_supply":"yes","sanitary_dump_station":"no","website":"https://hebgenbasincampgrounds.com/lonesomehurst.html"}},"4285451189":{"location":[44.7041386,-111.2113659],"ct":"US","tp":"CS","ts":"2022-09-18T00:14:54Z","tX":195,"tY":369,"tags":{"addr:street":"Bar N Ranch Road","contact:facebook":"https://www.facebook.com/yellowstoneundercanvas","contact:phone":"+1-406-219-0441","contact:tripadvisor":"https://www.tripadvisor.com/Hotel_Review-g45399-d2616785-Reviews-Under_Canvas_Yellowstone-West_Yellowstone_Montana.html","contact:website":"http://www.undercanvas.com/camps/yellowstone/","contact:yelp":"https://www.yelp.com/biz/under-canvas-west-yellowstone-west-yellowstone","name":"Under Canvas Glamping","opening_hours":"24/7"}},"11067307222":{"location":[44.7447159,-111.2600122],"ct":"US","tp":"CS","ts":"2023-07-25T16:07:47Z","tX":195,"tY":369,"tags":{}},"11067307223":{"location":[44.7445044,-111.259812],"ct":"US","tp":"CS","ts":"2023-07-25T16:07:47Z","tX":195,"tY":369,"tags":{}},"4500043291":{"location":[44.8031215,-111.2134758],"ct":"US","tp":"CR","ts":"2016-11-14T08:00:41Z","tX":195,"tY":369,"tags":{}},"8927144233":{"location":[44.656074,-111.1046193],"ct":"US","tp":"CR","ts":"2021-07-16T17:47:42Z","tX":195,"tY":369,"tags":{"internet_access":"wlan","power_supply":"20; 30; 50","ref":"303","reservation":"yes","sanitary_dump_station":"yes"}},"5578046062":{"location":[44.655278,-111.1051749],"ct":"US","tp":"SD","ts":"2021-07-20T15:08:33Z","tX":195,"tY":369,"tags":{"access":"customers","source":"https://grizzlyrv.com/wp-content/uploads/2015/03/Grizzly-RV-Park-Campground-Map.pdf"}}}