{"1207393":{"location":[51.5371487,3.489743],"ct":"NL","tp":"CS","ts":"2023-03-18T18:56:19Z","tX":521,"tY":340,"tags":{"cabins":"yes","caravans":"yes","email":"info@aandewaterspiegel.nl","landcover":"grass","name":"Aan de Waterspiegel","phone":"+31 118 583 999","shower":"yes","tents":"yes","toilets":"yes"}},"10341034":{"location":[51.5519542,3.4983599],"ct":"NL","tp":"CS","ts":"2023-03-18T17:44:00Z","tX":521,"tY":340,"tags":{"alt_name":"Minicamping Duinzicht","cabins":"yes","caravans":"yes","email":"info@minicampingduinzicht.nl","mobile":"+31 6 57149054","name":"Duinzicht","phone":"+31 118 581 494","shower":"yes","tents":"yes","toilets":"yes","website":"https://www.minicampingduinzicht.nl/"}},"24049526":{"location":[51.510212,3.4648188],"ct":"NL","tp":"CS","ts":"2024-11-02T10:06:25Z","tX":521,"tY":340,"tags":{"cabins":"yes","caravans":"yes","motorhome":"yes","name":"Janse","phone":"+31 118 561 359","shower":"yes","tents":"yes","toilets":"yes","website":"https://www.campingjanse.nl/"}},"24049527":{"location":[51.5086419,3.4668149],"ct":"NL","tp":"CR","ts":"2024-11-02T10:06:25Z","tX":521,"tY":340,"tags":{"cabins":"yes","caravans":"yes","email":"info@campingweltevreden.nl","fee":"yes","motorhome":"yes","name":"Weltevreden","phone":"+31 118 561 321","shower":"yes","toilets":"yes","website":"https://www.campingweltevreden.nl/"}},"62000233":{"location":[51.5146835,3.473483],"ct":"NL","tp":"CS","ts":"2023-08-13T14:11:34Z","tX":521,"tY":340,"tags":{"name":"Minicamping Boogaard"}},"80329232":{"location":[51.5153868,3.5076162],"ct":"NL","tp":"CS","ts":"2023-05-30T12:26:48Z","tX":521,"tY":340,"tags":{"email":"info@olmenzeeland.nl","name":"De Olmen","phone":"+31 118 562 521","website":"https://www.olmenzeeland.nl/"}},"80329606":{"location":[51.4986412,3.5050428],"ct":"NL","tp":"CS","ts":"2023-05-31T06:20:27Z","tX":521,"tY":340,"tags":{"landuse":"grass","name":"Minicamping Duinvliet","source":"3dShapes","website":"https://www.duinvliet.info"}},"80329955":{"location":[51.516886,3.4577932],"ct":"NL","tp":"CS","ts":"2023-08-13T14:11:34Z","tX":521,"tY":340,"tags":{"name":"Het Hoge Licht","source":"3dShapes"}},"80330205":{"location":[51.4931016,3.5118884],"ct":"NL","tp":"CS","ts":"2021-09-30T22:10:44Z","tX":521,"tY":340,"tags":{"designation":"Minicamping","landuse":"grass","name":"Minicamping Innerduyn"}},"80401020":{"location":[51.5358612,3.4417428],"ct":"NL","tp":"CS","ts":"2023-05-09T04:21:29Z","tX":521,"tY":340,"tags":{"name":"De zandbooi","source":"3dShapes"}},"80401289":{"location":[51.550572,3.4663907],"ct":"NL","tp":"CR","ts":"2023-01-04T17:26:42Z","tX":521,"tY":340,"tags":{"fee":"yes","landcover":"grass","landuse":"grass","name":"De Schelp","website":"https://www.campingdeschelp.nl/"}},"80401293":{"location":[51.5515491,3.468033],"ct":"NL","tp":"CS","ts":"2023-01-04T17:26:42Z","tX":521,"tY":340,"tags":{"landcover":"grass","landuse":"grass","name":"Noordduin","website":"https://www.campingnoordduin.nl/"}},"80401305":{"location":[51.5511528,3.4732983],"ct":"NL","tp":"CS","ts":"2023-03-13T22:20:16Z","tX":521,"tY":340,"tags":{"cabins":"yes","caravans":"yes","email":"info@veldehof.nl","landcover":"grass","name":"â€™t Veldehof","phone":"+31 118 582 557","shower":"yes","tents":"yes","toilets":"yes","website":"https://veldehof.nl/"}},"80401309":{"location":[51.5502569,3.473705],"ct":"NL","tp":"CS","ts":"2023-05-30T12:26:48Z","tX":521,"tY":340,"tags":{"cabins":"yes","caravans":"yes","contact:website":"https://www.driesprongdomburg.nl","email":"info@driesprongdomburg.nl","landcover":"grass","name":"De Driesprong","phone":"+31 6 82589410","shower":"yes","tents":"yes","toilets":"yes"}},"80401325":{"location":[51.5203288,3.4744117],"ct":"NL","tp":"CS","ts":"2023-06-13T05:58:41Z","tX":521,"tY":340,"tags":{"cabins":"yes","caravans":"yes","email":"info@minicampingdevisser.nl","mobile":"+31 6 50464082","name":"De Visser","phone":"+31 118 561 272","shower":"yes","tents":"yes","toilets":"yes","website":"https://www.minicampingdevisser.nl/"}},"80401336":{"location":[51.5250649,3.4826048],"ct":"NL","tp":"CS","ts":"2021-09-25T23:51:06Z","tX":521,"tY":340,"tags":{"name":"Minicamping D'ouwe ploeg"}},"80401339":{"location":[51.5295539,3.4815869],"ct":"NL","tp":"CS","ts":"2023-09-16T19:41:49Z","tX":521,"tY":340,"tags":{"cabins":"yes","caravans":"yes","email":"info@minicamping-dewittebaai.nl","landcover":"grass","name":"de Witte Baai","phone":"+31 118 571 695","shower":"yes","tents":"yes","toilets":"yes","website":"https://www.minicamping-dewittebaai.nl/"}},"80401389":{"location":[51.5328751,3.4583208],"ct":"NL","tp":"CS","ts":"2024-11-02T08:34:14Z","tX":521,"tY":340,"tags":{"cabins":"yes","caravans":"yes","name":"De Boomgaard","phone":"+31 118 571 377","shower":"yes","tents":"yes","toilets":"yes","website":"https://www.vakantieparkdeboomgaard.nl/nl/"}},"80401486":{"location":[51.5439753,3.4839671],"ct":"NL","tp":"CS","ts":"2023-03-11T17:49:49Z","tX":521,"tY":340,"tags":{"caravans":"yes","email":"adrihoumes@gmail.com","landcover":"grass","name":"Knorrenburg","phone":"+31 118 581 968","shower":"yes","tents":"yes","toilets":"yes","website":"https://www.inhetgroen.nl/bedrijf/206/Knorrenburg"}},"80401505":{"location":[51.5224371,3.4764404],"ct":"NL","tp":"CS","ts":"2020-06-15T20:48:37Z","tX":521,"tY":340,"tags":{"landuse":"grass","source":"3dShapes"}},"80401552":{"location":[51.5350464,3.4743138],"ct":"NL","tp":"CS","ts":"2023-09-16T19:41:49Z","tX":521,"tY":340,"tags":{"cabins":"yes","caravans":"yes","email":"info@minicampingfrancke.nl","landcover":"grass","name":"Francke","phone":"+31 6 21218194","shower":"yes","tents":"yes","toilets":"yes","website":"https://www.minicampingfrancke.nl/"}},"80401733":{"location":[51.5439082,3.5052242],"ct":"NL","tp":"CR","ts":"2024-03-06T20:32:10Z","tX":521,"tY":340,"tags":{"email":"info@nieuwerve.nl","name":"Nieuw-Erve","phone":"+31 6 18111904","source":"3dShapes","website":"https://nieuwerve.nl/"}},"80401742":{"location":[51.5445684,3.5061953],"ct":"NL","tp":"CS","ts":"2023-05-30T12:26:48Z","tX":521,"tY":340,"tags":{"caravans":"yes","facebook":"Mini-Camping-Molenzicht","name":"Molenzicht","phone":"+31 6 50284082","shower":"yes","tents":"yes","toilets":"yes","website":"http://www.minicampingmolenzicht.nl/"}},"80402013":{"location":[51.5530089,3.5114854],"ct":"NL","tp":"CS","ts":"2024-02-23T23:43:19Z","tX":521,"tY":340,"tags":{"caravans":"yes","email":"info@roosendoorn.com","landcover":"grass","mobile":"+31 6 14126408","name":"Roos en Doorn","phone":"+31 118 581 348","shower":"yes","tents":"yes","toilets":"yes","website":"https://www.roosendoorn.com/","wheelchair":"limited"}},"80402287":{"location":[51.5578704,3.4861435],"ct":"NL","tp":"CR","ts":"2021-10-10T22:06:04Z","tX":521,"tY":340,"tags":{"fee":"yes","landuse":"grass"}},"80665795":{"location":[51.5666868,3.5151223],"ct":"NL","tp":"CR","ts":"2024-03-21T21:52:22Z","tX":521,"tY":340,"tags":{"landcover":"grass","landuse":"grass","source":"3dShapes"}},"166014807":{"location":[51.4904247,3.5088012],"ct":"NL","tp":"CS","ts":"2023-11-16T14:31:03Z","tX":521,"tY":340,"tags":{"access":"customers","addr:city":"Biggekerke","addr:housenumber":"64","addr:postcode":"4373RR","addr:street":"Valkenisseweg","capacity:caravans":"30","caravans":"yes","name":"Strandcamping Valkenisse","phone":"+31 118 561 314","static_caravans":"yes","tents":"yes","website":"https://www.campingvalkenisse.nl/","wheelchair":"yes"}},"168746813":{"location":[51.4965356,3.5035425],"ct":"NL","tp":"CS","ts":"2024-11-02T10:06:25Z","tX":521,"tY":340,"tags":{"cabins":"yes","caravans":"yes","drinking_water":"yes","motorhome":"yes","name":"Camping de Meerpaal","phone":"+31 118 561 300","power_supply":"yes","shower":"yes","tents":"yes","toilets":"yes","website":"https://www.vakantieparkdemeerpaal.nl/nl/"}},"231738372":{"location":[51.5312305,3.448722],"ct":"NL","tp":"CS","ts":"2021-10-23T22:03:18Z","tX":521,"tY":340,"tags":{"internet_access":"wlan","internet_access:fee":"no","name":"Minicamping de Vuurtoren","operator":"Fam. L. Cijsouw","website":"https://www.minicampingdevuurtoren.nl/"}},"263018103":{"location":[51.5191377,3.4517958],"ct":"NL","tp":"CS","ts":"2024-11-02T08:34:14Z","tX":521,"tY":340,"tags":{"cabins":"yes","caravans":"yes","name":"Caravancamping Westkapelle","phone":"+31 118 571 238","shower":"yes","tents":"no","toilets":"yes","website":"https://www.caravancampingwestkapelle.nl/"}},"263018104":{"location":[51.5173854,3.4511719],"ct":"NL","tp":"CS","ts":"2023-09-07T06:46:54Z","tX":521,"tY":340,"tags":{"cabins":"yes","caravans":"yes","email":"info@camping-hoekje.nl","motorhome":"yes","name":"'t Hoekje","phone":"+31 118 571 798","shower":"yes","tents":"yes","toilets":"yes","website":"https://www.camping-hoekje.nl/"}},"263021460":{"location":[51.5190411,3.4529813],"ct":"NL","tp":"CS","ts":"2024-11-02T08:34:14Z","tX":521,"tY":340,"tags":{"name":"Kreekebos","operator":"Recron","phone":"+31 118 570 072","website":"https://www.recron.nl/campings/alle-campings-in-nederland/63050/camping-kreekebos/"}},"263021461":{"location":[51.5191471,3.4503919],"ct":"NL","tp":"CS","ts":"2024-11-02T08:34:14Z","tX":521,"tY":340,"tags":{"cabins":"yes","caravans":"yes","name":"Zuiderduin","phone":"+31 118 571 560","shower":"yes","toilets":"yes","website":"https://www.campingzuiderduin.nl/"}},"449112357":{"location":[51.5105298,3.4958042],"ct":"NL","tp":"CS","ts":"2016-10-23T18:36:44Z","tX":521,"tY":340,"tags":{"name":"De Wilde Flora"}},"513824279":{"location":[51.5394852,3.4882351],"ct":"NL","tp":"CS","ts":"2023-06-13T05:58:42Z","tX":521,"tY":340,"tags":{"cabins":"yes","caravans":"yes","email":"info@minicampingklaproosje.nl","mobile":"+31 6 46298826","name":"Minicamping Klaproosje","phone":"+31 118 581 585","shower":"yes","tents":"yes","toilets":"yes","website":"https://www.minicampingklaproosje.nl/nl/"}},"513864784":{"location":[51.5030954,3.5057397],"ct":"NL","tp":"CS","ts":"2023-05-31T06:20:38Z","tX":521,"tY":340,"tags":{"name":"Minicamping Werendijke","website":"https://www.werendijke.nl"}},"728034284":{"location":[51.5361299,3.4707141],"ct":"NL","tp":"CS","ts":"2019-09-25T11:05:56Z","tX":521,"tY":340,"tags":{"name":"Mini Camping de Arke","website":"https://www.minicampingdeark.nl/"}},"749870000":{"location":[51.5048309,3.4829142],"ct":"NL","tp":"CS","ts":"2023-08-25T21:10:18Z","tX":521,"tY":340,"tags":{"name":"Minicamping Pieternellahoeve","website":"https://www.pieternellahoeve.nl"}},"943987487":{"location":[51.5115919,3.4807838],"ct":"NL","tp":"CS","ts":"2021-05-17T18:09:03Z","tX":521,"tY":340,"tags":{"name":"Houtenburg"}},"943987499":{"location":[51.5119311,3.4823844],"ct":"NL","tp":"CS","ts":"2021-05-17T18:09:03Z","tX":521,"tY":340,"tags":{"name":"Waayenburg"}},"1153506939":{"location":[51.5437584,3.4844983],"ct":"NL","tp":"CS","ts":"2023-03-11T17:49:49Z","tX":521,"tY":340,"tags":{"caravans":"yes","email":"adrihoumes@gmail.com","landcover":"grass","name":"Knorrenburg","phone":"+31 118 581 968","shower":"yes","tents":"yes","toilets":"yes","website":"https://www.inhetgroen.nl/bedrijf/206/Knorrenburg"}},"1155273966":{"location":[51.5507085,3.5086666],"ct":"NL","tp":"CS","ts":"2024-02-23T22:42:10Z","tX":521,"tY":340,"tags":{"cabins":"yes","capacity":"20","caravans":"yes","email":"info@campingzeeuwsknoopje.nl","name":"Zeeuws Knoopje","phone":"+31 118 582 704","shower":"yes","tents":"yes","toilets":"yes","website":"https://www.campingzeeuwsknoopje.nl/kamperen/"}},"1155273969":{"location":[51.548834,3.49935],"ct":"NL","tp":"CS","ts":"2023-05-30T12:27:06Z","tX":521,"tY":340,"tags":{"alt_name":"Zuivelhoeve en mini-camping Aagtekerke","caravans":"yes","email":"fammaljaarskoppejan@gmail.com","name":"Aagtekerke","phone":"+31 118 582 247","shower":"yes","tents":"yes","toilets":"yes","website":"http://www.zuivelhoeveaagtekerke.nl/mini-camping"}},"1155285767":{"location":[51.5377716,3.4918178],"ct":"NL","tp":"CS","ts":"2024-02-24T21:03:14Z","tX":521,"tY":340,"tags":{"cabins":"yes","caravans":"yes","email":"info@campingdewesthoek.nl","landcover":"grass","mobile":"+31 6 57286538","name":"de Westhoek","phone":"+31 6 13724819","shower":"yes","tents":"yes","toilets":"yes","website":"https://campingdewesthoek.nl/"}},"1155285768":{"location":[51.5367521,3.4892068],"ct":"NL","tp":"CS","ts":"2023-03-18T18:56:19Z","tX":521,"tY":340,"tags":{"capacity":"5","caravans":"info@aandewaterspiegel.nl","email":"info@ponyhof.nl","name":"Ponyhof","shower":"yes","tents":"yes","toilets":"yes","website":"https://ponyhof.nl/camping/"}},"1155285769":{"location":[51.537085,3.4879601],"ct":"NL","tp":"CS","ts":"2023-03-18T18:56:19Z","tX":521,"tY":340,"tags":{"caravans":"yes","email":"houmesa@zeelandnet.nl","name":"'t Kalverweitje","phone":"+31 118 582 030","shower":"yes","tents":"yes","toilets":"yes","website":"https://www.inhetgroen.nl/bedrijf/210/t-Kalverweitje"}},"1155285770":{"location":[51.5394976,3.4858277],"ct":"NL","tp":"CS","ts":"2024-02-24T22:16:53Z","tX":521,"tY":340,"tags":{"cabins":"yes","capacity":"15","caravans":"yes","email":"info@campingdewalnoot.nl","name":"De Walnoot","phone":"+31 6 30036742","shower":"yes","tents":"yes","toilets":"yes","website":"https://www.campingdewalnoot.nl/nl/kamperen"}},"1155285773":{"location":[51.5385502,3.4846983],"ct":"NL","tp":"CS","ts":"2024-02-24T22:16:53Z","tX":521,"tY":340,"tags":{"cabins":"yes","capacity":"15","caravans":"yes","email":"info@campingsintjan.nl","name":"Sint Jan","phone":"+31 6 47919044","shower":"yes","tents":"yes","toilets":"yes","website":"https://www.campingsintjan.nl/nl/camping"}},"1257140615":{"location":[51.5453943,3.4986722],"ct":"NL","tp":"CS","ts":"2024-03-03T13:35:37Z","tX":521,"tY":340,"tags":{"cabins":"yes","caravans":"multi","email":"info@schoolzicht.nl","name":"Schoolzicht","phone":"+31 118 583 333","shower":"yes","tents":"yes","toilets":"yes","website":"https://www.campingschoolzicht.nl/camping/de-camping/"}},"1263480597":{"location":[51.5603209,3.5142719],"ct":"NL","tp":"CS","ts":"2024-03-17T14:07:12Z","tX":521,"tY":340,"tags":{"internet_access":"wlan","name":"Camping Louws","wheelchair":"limited"}},"1333569459":{"location":[51.5048722,3.4991033],"ct":"NL","tp":"CS","ts":"2024-11-13T20:42:38Z","tX":521,"tY":340,"tags":{"name":"Minicamping Koppejan","phone":"+31 118 561571"}},"1339238185":{"location":[51.5574479,3.4865894],"ct":"NL","tp":"CS","ts":"2024-12-01T14:43:03Z","tX":521,"tY":340,"tags":{"addr:city":"Domburg","addr:housenumber":"7","addr:postcode":"4357RD","addr:street":"Schelpweg","contact:website":"https://www.hofdomburg.nl","name":"Hof Domburg","operator":"Roompot","source":"BAG","source:date":"2016-04-10","wheelchair":"limited"}},"3630096359":{"location":[51.5046236,3.4990327],"ct":"NL","tp":"CS","ts":"2015-07-01T22:37:37Z","tX":521,"tY":340,"tags":{}},"4112307763":{"location":[51.5591255,3.4872947],"ct":"NL","tp":"CS","ts":"2022-07-10T05:08:12Z","tX":521,"tY":340,"tags":{"addr:city":"Domburg","addr:housenumber":"7","addr:postcode":"4357RD","addr:street":"Schelpweg","contact:website":"https://www.hofdomburg.nl","name":"Hof Domburg","source":"BAG","source:date":"2016-04-10","wheelchair":"limited"}}}