{"1148260":{"location":[51.3444364,3.4292866],"ct":"NL","tp":"CS","ts":"2018-07-12T20:27:40Z","tX":521,"tY":341,"tags":{"caravans":"yes","landuse":"grass","source":"3dShapes","tents":"yes"}},"6690819":{"location":[51.3666977,3.3843309],"ct":"NL","tp":"CS","ts":"2024-08-12T11:39:18Z","tX":521,"tY":341,"tags":{"caravans":"yes","check_date:opening_hours":"2024-08-12","contact:email":"info@cassandriabad.nl","contact:phone":"+31 117 392 300","contact:website":"https://www.cassandriabad.nl","internet_access":"wlan","internet_access:fee":"yes","name":"Cassandria Bad","opening_hours":"Mar 29-Oct 31","pets":"yes","pets:number":"1","power_supply:maxcurrent":"10","power_supply:voltage":"230","tents":"yes"}},"6690820":{"location":[51.3680207,3.3859716],"ct":"NL","tp":"CS","ts":"2023-05-31T06:20:45Z","tX":521,"tY":341,"tags":{"caravans":"yes","email":"info@campingdelangestrink.nl","name":"De Lange Strink","phone":"+31 117 391 345","shower":"yes","tents":"yes","toilets":"yes","website":"https://www.campingdelangestrink.nl"}},"6690821":{"location":[51.3620424,3.3857005],"ct":"NL","tp":"CS","ts":"2023-05-30T12:27:07Z","tX":521,"tY":341,"tags":{"caravans":"yes","email":"info@molinshoeve.nl","fax":"+31 117 392 375","name":"De Molinshoeve","opening_hours":"Apr 1-Oct 16","phone":"+31 117 391 674","tents":"yes","website":"https://www.molinshoeve.nl/"}},"26859253":{"location":[51.3844365,3.4141704],"ct":"NL","tp":"CS","ts":"2024-08-20T20:51:35Z","tX":521,"tY":341,"tags":{"caravans":"yes","contact:website":"https://www.molecaten.nl/hoogduin","name":"Hoogduin","tents":"yes"}},"33684243":{"location":[51.3135145,3.3914342],"ct":"NL","tp":"CS","ts":"2023-08-12T20:03:16Z","tX":521,"tY":341,"tags":{"caravans":"yes","contact:website":"https://www.campingdemeidoornsluis.nl","email":"info@campingdemeidoornsluis.nl","motorhome":"yes","name":"De Meidoorn","phone":"+31 117 461 662","shower":"yes","tents":"yes","toilets":"yes"}},"74443604":{"location":[51.3684506,3.4494613],"ct":"NL","tp":"CS","ts":"2023-05-31T06:20:27Z","tX":521,"tY":341,"tags":{"addr:city":"Nieuwvliet","addr:housenumber":"5","addr:postcode":"4504PB","addr:street":"Sint Jansdijk","caravans":"yes","email":"stjan@kpnmail.nl","internet_access":"wlan","landcover":"grass","mobile":"+31 6 15340433;+31 6 55152503","motorhome":"yes","name":"Minicamping St. Jan","name:nl":"Minicamping St. Jan","operator":"Jan & Marian Lucieer","phone":"+31 117 371 237","shower":"yes","source":"3dShapes","tents":"yes","toilets":"yes","website":"https://www.stjan.eu"}},"74443614":{"location":[51.3739829,3.4475203],"ct":"NL","tp":"CS","ts":"2023-05-30T12:26:46Z","tX":521,"tY":341,"tags":{"caravans":"yes","landcover":"grass","name":"Vrede en Rust","phone":"+31 117 371 672","shower":"yes","tents":"yes","toilets":"yes"}},"74443967":{"location":[51.3914931,3.4953468],"ct":"NL","tp":"CS","ts":"2024-11-02T13:54:22Z","tX":521,"tY":341,"tags":{"capacity":"25","dog":"no","dog:conditional":"yes @ (Sep 01-Jun 30)","landcover":"grass","name":"N.F.N. Het Zwarte Gat","nudism":"yes","website":"https://www.campinghetzwartegat.nl"}},"74444505":{"location":[51.3683736,3.4943969],"ct":"NL","tp":"CS","ts":"2023-11-01T19:45:48Z","tX":521,"tY":341,"tags":{"landuse":"grass","name":"Natuurkampeerterrein De Blikken","source":"3dShapes","website":"https://deblikken.nl/"}},"74444706":{"location":[51.378529,3.5032719],"ct":"NL","tp":"CS","ts":"2019-03-25T09:51:21Z","tX":521,"tY":341,"tags":{"addr:city":"Groede","addr:housenumber":"5","addr:postcode":"4503BD","addr:street":"Nieuwstraat","capacity":"22","name":"Dorpscamping Tussen de Tuinen","surface":"grass","website":"https://campingtussendetuinen.nl/"}},"74515880":{"location":[51.2677767,3.4126584],"ct":"NL","tp":"CS","ts":"2020-08-22T17:24:33Z","tX":521,"tY":341,"tags":{"internet_access":"wlan","internet_access:fee":"yes","landuse":"grass","name":"Oud Heille","operator":"Kamperen bij de boer","source":"3dShapes","stars":"2"}},"74590267":{"location":[51.3563882,3.3902067],"ct":"NL","tp":"CS","ts":"2023-07-10T17:53:53Z","tX":521,"tY":341,"tags":{"cabins":"yes","caravans":"yes","email":"info@decouter.nl","landcover":"grass","name":"De Couter","phone":"+31 117 391 245","shower":"yes","tents":"yes","toilets":"yes","website":"https://www.decouter.nl/"}},"74593463":{"location":[51.3711319,3.4100315],"ct":"NL","tp":"CS","ts":"2024-11-09T18:52:13Z","tX":521,"tY":341,"tags":{"name":"Minicamping De Putter","phone":"+31 117 391342","website":"https://www.inhetgroen.nl/nl/bedrijf/304/De-Putter"}},"74594163":{"location":[51.355509,3.4130991],"ct":"NL","tp":"CS","ts":"2023-08-10T20:10:57Z","tX":521,"tY":341,"tags":{"capacity:pitches":"30","caravans":"yes","email":"inekewilly@live.nl","landcover":"grass","name":"'t Hof Welkom","opening_hours":"Apr 1 - Oct 1","phone":"+31 117 391 255","shower":"yes","tents":"yes","toilets":"yes","website":"https://hofwelkom.nl"}},"74596857":{"location":[51.3849027,3.4468169],"ct":"NL","tp":"CR","ts":"2023-05-31T06:20:27Z","tX":521,"tY":341,"tags":{"caravans":"no","contact:website":"https://www.campingnieuwenhoven.nl","name":"Camping Nieuwenhoven","static_caravans":"only"}},"74596867":{"location":[51.3841176,3.4440158],"ct":"NL","tp":"CS","ts":"2023-05-30T12:26:46Z","tX":521,"tY":341,"tags":{"caravans":"yes","contact:website":"http://www.campingtschorre.nl","email":"trompet@zeelandnet.nl","name":"'t Schorre","phone":"+31 117 371 537","shower":"yes","static_caravans":"yes","tents":"yes","toilets":"yes"}},"74596988":{"location":[51.3704289,3.4344379],"ct":"NL","tp":"CS","ts":"2023-07-17T18:04:59Z","tX":521,"tY":341,"tags":{"addr:city":"Cadzand","addr:country":"NL","addr:housenumber":"5a","addr:postcode":"4506HN","addr:street":"Knokkertweg","caravans":"yes","email":"camping@deknockaerthof.nl","landcover":"grass","name":"De Knockaerthof","operator":"Familie Cornelis","phone":"+31 117 391 802","shower":"yes","tents":"yes","toilets":"yes","website":"https://deknockaerthof.nl"}},"88206036":{"location":[51.3305251,3.2359491],"ct":"BE","tp":"CS","ts":"2019-04-17T12:16:40Z","tX":521,"tY":341,"tags":{"addr:city":"Knokke-Heist","addr:housenumber":"168","addr:postcode":"8301","addr:street":"Heistlaan","email":"info@parkdevuurtoren.be","fee":"yes","internet_access":"wlan","name":"De Vuurtoren","phone":"+32 494 52 83 61","website":"https://www.parkdevuurtoren.be"}},"88206037":{"location":[51.3308183,3.2343114],"ct":"BE","tp":"CS","ts":"2022-07-10T05:31:35Z","tX":521,"tY":341,"tags":{"contact:website":"https://bvbacampingzilvermeeuw.be","name":"De Zilvermeeuw"}},"187021266":{"location":[51.2065188,3.2624989],"ct":"BE","tp":"CS","ts":"2024-06-22T23:55:26Z","tX":521,"tY":341,"tags":{"addr:city":"Brugge","addr:housenumber":"109","addr:postcode":"8310","addr:street":"Veltemweg","email":"info@camping-memling.be","internet_access":"wlan","internet_access:fee":"no","name":"Camping Memling","phone":"+32 50 35 58 45","power_supply":"yes","sanitary_dump_station":"customers","website":"https://www.brugescamping.be/"}},"233183170":{"location":[51.3942176,3.4869251],"ct":"NL","tp":"CS","ts":"2023-09-14T06:23:24Z","tX":521,"tY":341,"tags":{"addr:city":"Groede","addr:housenumber":"1","addr:postcode":"4503PA","addr:street":"Zeeweg","cabins":"yes","caravans":"yes","motorhome":"yes","name":"Strandcamping Groede","phone":"+31 117 371 384","shower":"yes","tents":"yes","toilets":"yes","website":"https://www.strandcampinggroede.nl"}},"262233113":{"location":[51.3800026,3.4647391],"ct":"NL","tp":"CR","ts":"2023-05-30T12:26:51Z","tX":521,"tY":341,"tags":{"addr:city":"Nieuwvliet","addr:housenumber":"8","addr:postcode":"4504SH","addr:street":"Mosseldijk","caravans":"yes","email":"vogelenzang@holiday.nl","fee":"yes","internet_access":"wlan","name":"Camping Vogelenzang","phone":"+31 117 371 296","power_supply":"yes","shower":"yes","static_caravans":"yes","swimming_pool":"yes","tents":"yes","toilets":"yes","website":"https://www.campingvogelenzang.nl/"}},"263499581":{"location":[51.3612324,3.3808192],"ct":"NL","tp":"CS","ts":"2023-07-11T09:39:51Z","tX":521,"tY":341,"tags":{"internet_access":"wlan","name":"Wachtsluis","website":"https://www.wachtsluis.nl/","wheelchair":"limited"}},"319622160":{"location":[51.1956427,3.2258625],"ct":"BE","tp":"CR","ts":"2024-04-11T21:29:09Z","tX":521,"tY":341,"tags":{"addr:city":"Brugge","addr:postcode":"8000","addr:street":"Bargeweg","capacity":"57","caravan_site":"motorhome_stopover","caravan_site:type":"parking_lot","caravans":"no","charge":"30 EUR/day","charge:conditional":"25 EUR@(low_season)","check_in":"08:00-22:00","fee":"yes","name":"Kampeerautoterrein (Brugge)","opening_hours":"24/7","operator":"Interparking nv","power_supply":"yes","sanitary_dump_station":"yes","tents":"no","website":"https://www.interparking.be/nl-BE/find-parking/Kampeerautoterreinen-1---2/"}},"346287943":{"location":[51.3339702,3.2893862],"ct":"BE","tp":"CS","ts":"2023-08-03T09:49:56Z","tX":521,"tY":341,"tags":{"name":"Europ"}},"372723957":{"location":[51.3832037,3.5153555],"ct":"NL","tp":"CS","ts":"2021-09-17T11:54:35Z","tX":521,"tY":341,"tags":{"fee":"yes","name":"Harderzee","website":"https://www.campingharderzee.nl/nl/contact"}},"372723958":{"location":[51.3828048,3.5113315],"ct":"NL","tp":"CS","ts":"2023-05-31T06:20:36Z","tX":521,"tY":341,"tags":{"name":"De Ploeg","website":"https://www.campingdeploeg.nl"}},"374426181":{"location":[51.2768618,3.3882152],"ct":"NL","tp":"CS","ts":"2022-07-10T05:31:35Z","tX":521,"tY":341,"tags":{"contact:website":"http://www.camping-polderzicht.nl","name":"Polderzicht"}},"433220829":{"location":[51.300586,3.5107545],"ct":"NL","tp":"CS","ts":"2022-07-10T05:31:35Z","tX":521,"tY":341,"tags":{"contact:website":"https://www.bontehoeve.nl","name":"De Bonte Hoeve"}},"507929729":{"location":[51.3820294,3.4542984],"ct":"NL","tp":"CS","ts":"2024-11-13T08:03:09Z","tX":521,"tY":341,"tags":{"caravans":"yes","email":"info@campingzonneweelde.nl","internet_access":"wlan","name":"Zonneweelde","phone":"+31 117 371 910","shower":"yes","static_caravans":"yes","tents":"yes","toilets":"yes","website":"https://www.campingzonneweelde.nl/"}},"511438022":{"location":[51.3832968,3.5135015],"ct":"NL","tp":"CS","ts":"2023-05-31T06:20:38Z","tX":521,"tY":341,"tags":{"name":"Het Platte Putje","website":"https://www.hetplatteputje.nl"}},"513737340":{"location":[51.3687342,3.4574062],"ct":"NL","tp":"CS","ts":"2023-08-10T19:56:57Z","tX":521,"tY":341,"tags":{"capacity:pitches":"55","caravans":"yes","email":"info@boerenhoeve.com","name":"Nieuwvliet","opening_hours":"Apr 1 - Oct 1","phone":"+31 117 371 427","shower":"yes","tents":"yes","toilets":"yes","website":"https://boerenhoeve.com/landschapscamping/"}},"513737342":{"location":[51.3625774,3.429119],"ct":"NL","tp":"CS","ts":"2023-07-17T18:04:59Z","tX":521,"tY":341,"tags":{"caravans":"yes","contact:whatsapp":"+31 6 17561484","landcover":"grass","mobile":"+31 6 17561484","name":"De Knokkert","operator":"Familie Manders Zoover","phone":"+31 117 391 243","shower":"yes","tents":"yes","toilets":"yes"}},"513737499":{"location":[51.3629507,3.3985285],"ct":"NL","tp":"CS","ts":"2023-11-11T09:17:42Z","tX":521,"tY":341,"tags":{"name":"Minicamping Koolswegje","website":"https://minicampingkoolswegje.nl"}},"513737502":{"location":[51.3503071,3.4023756],"ct":"NL","tp":"CS","ts":"2023-08-10T20:20:43Z","tX":521,"tY":341,"tags":{"caravans":"yes","email":"info@essenhoeve.nl","motorhome":"yes","name":"De Essenhoeve","opening_hours":"Feb 1 - Dec 1","phone":"+31 117 391 306","shower":"yes","tents":"yes","toilets":"yes","website":"https://essenhoeve.nl/"}},"513738402":{"location":[51.3616557,3.5070924],"ct":"NL","tp":"CS","ts":"2022-09-03T07:57:58Z","tX":521,"tY":341,"tags":{"name":"Kreekzicht"}},"513738403":{"location":[51.3619224,3.4721352],"ct":"NL","tp":"CS","ts":"2017-08-08T01:19:50Z","tX":521,"tY":341,"tags":{}},"513826679":{"location":[51.2867832,3.4382651],"ct":"NL","tp":"CS","ts":"2022-07-10T05:31:35Z","tX":521,"tY":341,"tags":{"contact:website":"https://www.oliepot.nl","name":"de Oliepot"}},"520496348":{"location":[51.3888636,3.4585769],"ct":"NL","tp":"CS","ts":"2024-08-23T14:25:38Z","tX":521,"tY":341,"tags":{"addr:city":"Nieuwvliet","addr:housenumber":"6","addr:postcode":"4504PT","addr:street":"Baanstpoldersedijk","capacity":"175","caravans":"yes","description":"Camping Schippers, camping aan zee, strand op 250 meter lopen.","dog":"leashed @ (May 01-Sep 30 10:00-18:00)","email":"info@campingschippers.nl","fee":"yes","name":"Camping Schippers","opening_hours":"Mo-Sa 09:00-12:30, 13:00-17:00","operator":"Camping Schippers","phone":"+31 117 371 250","shower":"yes","tents":"yes","toilets":"yes","website":"https://www.campingschippers.nl","wheelchair":"limited"}},"616378329":{"location":[51.3770473,3.4682379],"ct":"NL","tp":"CS","ts":"2019-03-25T09:51:33Z","tX":521,"tY":341,"tags":{"name":"Minicamping De Catshoek","website":"https://www.minicampingdecatshoek.nl/"}},"617756053":{"location":[51.2479144,3.4359005],"ct":"NL","tp":"CS","ts":"2023-05-30T12:27:00Z","tX":521,"tY":341,"tags":{"email":"info@spitsbroek.nl","name":"Camping Spitsbroek","phone":"+31 117 350 214","website":"https://spitsbroek.nl"}},"759228687":{"location":[51.3593262,3.3523809],"ct":"BE","tp":"CS","ts":"2024-02-29T18:19:29Z","tX":521,"tY":341,"tags":{}},"759228688":{"location":[51.3592691,3.3523984],"ct":"BE","tp":"CS","ts":"2024-02-29T18:19:29Z","tX":521,"tY":341,"tags":{}},"759228689":{"location":[51.3592119,3.3524158],"ct":"BE","tp":"CS","ts":"2024-02-29T18:19:29Z","tX":521,"tY":341,"tags":{}},"759228690":{"location":[51.3591548,3.3524332],"ct":"BE","tp":"CS","ts":"2024-02-29T18:19:29Z","tX":521,"tY":341,"tags":{}},"846195016":{"location":[51.3351071,3.2869307],"ct":"BE","tp":"CS","ts":"2023-08-03T09:49:56Z","tX":521,"tY":341,"tags":{"caravans":"yes","drinking_water":"yes","hot_water":"yes","internet_access":"wlan","internet_access:fee":"no","name":"Holiday Village Knokke","nudism":"no","power_supply":"yes","sanitary_dump_station":"yes","shower":"hot","tents":"yes","toilets":"yes"}},"1056604515":{"location":[51.3256791,3.4519946],"ct":"NL","tp":"CS","ts":"2022-05-02T11:09:33Z","tX":521,"tY":341,"tags":{"name":"Landschapscamping De Paardenwei","url":"https://www.campingdepaardenwei.nl/"}},"1156829039":{"location":[51.3236165,3.4048349],"ct":"NL","tp":"CS","ts":"2023-05-30T12:27:06Z","tX":521,"tY":341,"tags":{"cabins":"yes","capacity":"15","caravans":"yes","email":"creatrends@gmail.com","motorhome":"yes","name":"Crea-Trends","phone":"+31 117 420 142","shower":"yes","tents":"yes","toilets":"yes","website":"https://www.crea-trends.nl/camping/camperplaats/sluis/zeeland/"}},"1301157154":{"location":[51.3949061,3.4887761],"ct":"NL","tp":"SD","ts":"2024-07-13T19:03:12Z","tX":521,"tY":341,"tags":{"sanitary_dump_station":"yes"}},"1301157155":{"location":[51.3946952,3.488697],"ct":"NL","tp":"SD","ts":"2024-07-13T19:03:12Z","tX":521,"tY":341,"tags":{"sanitary_dump_station":"yes"}},"1330132636":{"location":[51.3830116,3.4329729],"ct":"NL","tp":"CS","ts":"2024-11-02T10:06:25Z","tX":521,"tY":341,"tags":{"caravans":"yes","drinking_water":"yes","email":"info@dehoogtecadzand.nl","name":"de Hoogte","phone":"+31 117 391 497","power_supply":"yes","sanitary_dump_station":"yes","shower":"yes","tents":"yes","toilets":"yes","website":"https://www.dehoogtecadzand.nl/"}},"1332075387":{"location":[51.3685233,3.4897591],"ct":"NL","tp":"CS","ts":"2024-11-08T22:14:45Z","tX":521,"tY":341,"tags":{"addr:city":"Groede","addr:housenumber":"5","addr:postcode":"4503GT","addr:street":"Barendijk","capacity":"25","contact:website":"https://viervaart.nl/minicamping-viervaart-zeeuws-vlaanderen","internet_access":"yes","name":"VierVaart"}},"1332176191":{"location":[51.3660074,3.3754306],"ct":"NL","tp":"CS","ts":"2024-11-09T11:28:15Z","tX":521,"tY":341,"tags":{"addr:city":"Retranchement","addr:housenumber":"1","addr:postcode":"4525LX","addr:street":"Duinweg","contact:website":"https://www.zwinhoeve.nl","name":"De Zwinhoeve","phone":"+31 117 392120"}},"1332431007":{"location":[51.3615849,3.4253063],"ct":"NL","tp":"CS","ts":"2024-11-09T15:37:05Z","tX":521,"tY":341,"tags":{"caravans":"yes","internet_access":"wlan","name":"De Wielewaal","phone":"+31 117 391 216","shower":"yes","tents":"yes","toilets":"yes","website":"https://www.campingwielewaal.nl/"}},"1332492343":{"location":[51.3710198,3.414892],"ct":"NL","tp":"CS","ts":"2024-11-09T21:21:27Z","tX":521,"tY":341,"tags":{"caravans":"yes","email":"info@campingwulpen.nl","motorhome":"yes","name":"Wulpen","phone":"+31 117 391 226","shower":"yes","tents":"yes","toilets":"yes","website":"https://www.campingwulpen.nl"}},"1332495127":{"location":[51.3708276,3.4187181],"ct":"NL","tp":"CS","ts":"2024-11-09T21:39:43Z","tX":521,"tY":341,"tags":{"capacity":"25","caravans":"yes","contact:website":"http://www.minicamping-debeerostie.nl","email":"debeerostie@gmail.com","name":"De Beerostie","phone":"+31 6 40727260","shower":"yes","tents":"yes","toilets":"yes"}},"1333851684":{"location":[51.3821664,3.4093094],"ct":"NL","tp":"CS","ts":"2024-11-14T21:27:22Z","tX":521,"tY":341,"tags":{"name":"Park Welgelegen","note":"hoort bij Park Welgelegen","website":"https://www.parkwelgelegen.nl"}},"1333919324":{"location":[51.3833532,3.4163363],"ct":"NL","tp":"CS","ts":"2024-11-14T21:27:22Z","tX":521,"tY":341,"tags":{"cabins":"yes","caravans":"yes","fee":"yes","name":"Hoogduin","shower":"yes","tents":"yes","toilets":"yes","website":"https://www.molecaten.nl/hoogduin"}},"1340023768":{"location":[51.3823905,3.4092288],"ct":"NL","tp":"CS","ts":"2022-07-10T05:08:12Z","tX":521,"tY":341,"tags":{"contact:website":"https://www.parkwelgelegen.nl","name":"Welgelegen"}},"1340023772":{"location":[51.3662556,3.3738274],"ct":"NL","tp":"CS","ts":"2022-07-10T05:08:12Z","tX":521,"tY":341,"tags":{"contact:website":"https://www.zwinhoeve.nl","name":"De Zwinhoeve"}},"2767718444":{"location":[51.3744003,3.4696218],"ct":"NL","tp":"CS","ts":"2022-08-19T10:42:11Z","tX":521,"tY":341,"tags":{"addr:city":"Nieuwvliet","addr:housenumber":"2D","addr:postcode":"4504AA","addr:street":"Sint Bavodijk","name":"Camping International Ardoer","source":"BAG","source:date":"2014-03-24","website":"https://international.ardoer.com/nl/"}},"2827660226":{"location":[51.3707163,3.415355],"ct":"NL","tp":"CS","ts":"2023-03-24T07:44:31Z","tX":521,"tY":341,"tags":{"caravans":"yes","contact:website":"https://www.campingwulpen.nl","email":"info@campingwulpen.nl","motorhome":"yes","name":"Wulpen","phone":"+31 117 391 226","shower":"yes","tents":"yes","toilets":"yes"}},"4114077689":{"location":[51.3610717,3.4250128],"ct":"NL","tp":"CS","ts":"2022-11-04T13:34:22Z","tX":521,"tY":341,"tags":{"internet_access":"wlan","name":"De Wielewaal","phone":"+31 117 391 216","website":"https://www.campingwielewaal.nl/"}},"4250435894":{"location":[51.3961025,3.4887247],"ct":"NL","tp":"CR","ts":"2021-09-05T16:26:31Z","tX":521,"tY":341,"tags":{"addr:street":"Zeeweg","fee":"yes","fee:conditional":"no @ (stay <1h AND Nov 01 - Mar 31)","name":"Strandcamping Groede","operator":"Strandcamping Groede"}},"11042368799":{"location":[51.2341966,3.1966207],"ct":"BE","tp":"CS","ts":"2024-08-04T16:07:54Z","tX":521,"tY":341,"tags":{"addr:street":"Blankenbergse Dijk, 8000 Brugge, Belgique","caravans":"no","drinking_water":"yes","email":"info@kamperenaandeplas.be","motorhome":"no","name":"Aan de Plas","opening_hours":"Jul, Aug","phone":"+32 469 15 59 44","power_supply":"yes","shower":"yes","tents":"yes","toilets":"yes","website":"https://kamperenaandeplas.be/"}},"12175333416":{"location":[51.2537738,3.3134238],"ct":"BE","tp":"CS","ts":"2024-09-13T18:18:23Z","tX":521,"tY":341,"tags":{"name":"Maisterplan","website":"https://www.maisterplan.be/glamping/"}},"7231302744":{"location":[51.2070801,3.2633515],"ct":"BE","tp":"SD","ts":"2020-02-20T19:26:59Z","tX":521,"tY":341,"tags":{"access":"customers","fee":"no","sanitary_dump_station:basin":"yes","sanitary_dump_station:round_drain":"yes"}},"8526229775":{"location":[51.3355893,3.2875743],"ct":"BE","tp":"SD","ts":"2021-03-16T21:26:14Z","tX":521,"tY":341,"tags":{}},"9800274409":{"location":[51.1962569,3.2264479],"ct":"BE","tp":"SD","ts":"2022-06-06T23:11:42Z","tX":521,"tY":341,"tags":{"access":"customers","water_point":"yes"}},"4534741080":{"location":[51.3683648,3.48972],"ct":"NL","tp":"CS","ts":"2022-07-10T05:08:12Z","tX":521,"tY":341,"tags":{"addr:city":"Groede","addr:housenumber":"5-001","addr:postcode":"4503GT","addr:street":"Barendijk","capacity":"25","contact:website":"https://viervaart.nl/minicamping-viervaart-zeeuws-vlaanderen","internet_access":"yes","name":"Viervaart","source":"BAG","source:date":"2016-12-02"}},"5590644279":{"location":[51.3968223,3.4773741],"ct":"NL","tp":"CS","ts":"2022-07-10T05:08:12Z","tX":521,"tY":341,"tags":{"name":"Panoramahuisjen (Strandcamping Groede)"}},"8932877521":{"location":[51.3713494,3.4100142],"ct":"NL","tp":"CS","ts":"2021-07-19T11:46:47Z","tX":521,"tY":341,"tags":{"name":"minicamping de Putter"}},"8932884825":{"location":[51.3700704,3.4177637],"ct":"NL","tp":"CS","ts":"2023-04-01T20:05:53Z","tX":521,"tY":341,"tags":{"capacity":"25","caravans":"yes","contact:website":"http://www.minicamping-debeerostie.nl","email":"debeerostie@gmail.com","name":"De Beerostie","phone":"+31 6 40727260","shower":"yes","tents":"yes","toilets":"yes"}},"12046645132":{"location":[51.3932036,3.4875558],"ct":"NL","tp":"SD","ts":"2024-07-14T18:46:09Z","tX":521,"tY":341,"tags":{"fee":"no","sanitary_dump_station:chemical_toilet":"yes"}}}