{"68831138":{"location":[43.6150746,3.493651],"ct":"FR","tp":"CS","ts":"2018-08-08T10:02:18Z","tX":521,"tY":373,"tags":{"contact:phone":"+33467967553","contact:website":"http://www.camping-lesrivieres.com","name":"Les Rivières","stars":"3"}},"118559018":{"location":[43.6398782,3.4962128],"ct":"FR","tp":"CS","ts":"2023-11-08T00:03:09Z","tX":521,"tY":373,"tags":{"addr:postcode":"34725","name":"Le Septimanien","website":"https://www.camping-leseptimanien.com/"}},"154417237":{"location":[43.6699316,3.356816],"ct":"FR","tp":"CS","ts":"2023-08-14T20:31:24Z","tX":521,"tY":373,"tags":{"addr:city":"Lodève","addr:postcode":"34700","addr:street":"Baie des Vailhès Lac du Salagou","contact:website":"http://www.campinglesvailhes.com","email":"camping@lodevoisetlarzac.fr","fax":"+33467446597","name":"Camping des Vailhès","phone":"+33 4 84 31 00 99","stars":"2"}},"264348544":{"location":[43.646395,3.3910154],"ct":"FR","tp":"CS","ts":"2024-08-19T19:26:18Z","tX":521,"tY":373,"tags":{"fee":"yes","name":"Camping et campotel Lac de Salagou","phone":"+33467961313","stars":"4","website":"https://www.campinglacdusalagou.fr/"}},"285202086":{"location":[43.6609409,3.3201463],"ct":"FR","tp":"CS","ts":"2024-05-15T13:54:52Z","tX":521,"tY":373,"tags":{"addr:city":"34800","addr:housenumber":"5","addr:postcode":"34800","addr:street":"Chemin de RICAZOULS","email":"r.villagedubosc@gmail.com","name":"Village du Bosc","nudism":"obligatory","opening_hours":"Mo-Su 09:00-12:30,14:00-19:00","phone":"+33618014626","stars":"2","website":"http://www.villagedubosc.net/","wheelchair":"limited"}},"286125260":{"location":[43.6476599,3.3213858],"ct":"FR","tp":"CS","ts":"2023-05-15T14:45:08Z","tX":521,"tY":373,"tags":{"addr:postcode":"34800","addr:street":"Chemin du Moulin","camp_site:type:FR":"Aire Naturelle","capacity":"25","caravans":"yes","contact:email":"camping-les-arcades@orange.fr","contact:website":"http://www.gites-de-france-herault.fr/camping-18661-octon.html","description":"2 épis","name":"Les Arcades","tents":"yes"}},"305980537":{"location":[43.6793577,3.4118564],"ct":"FR","tp":"CS","ts":"2019-03-05T01:12:20Z","tX":521,"tY":373,"tags":{"email":"relaisdusalagou@wanadoo.fr","fax":"+33467447029","name":"Relais du Salagou","phone":"+33467447644","source":"Bing","website":"https://www.relais-du-salagou.com/"}},"324986376":{"location":[43.6915803,3.3513662],"ct":"FR","tp":"CS","ts":"2017-09-16T01:54:23Z","tX":521,"tY":373,"tags":{"name":"Camping Les Peupliers","phone":"+33467443808","source":"Ortho SIG L-R 2012","stars":"2","website":"http://www.camping-les-peupliers-salagou.com"}},"387311712":{"location":[43.7917416,3.4574273],"ct":"FR","tp":"CS","ts":"2015-12-23T10:01:34Z","tX":521,"tY":373,"tags":{}},"481050241":{"location":[43.7622243,3.3571102],"ct":"FR","tp":"CS","ts":"2024-11-12T21:45:31Z","tX":521,"tY":373,"tags":{"name":"Camping des Sources","stars":"3"}},"575933206":{"location":[43.6435942,3.3886281],"ct":"FR","tp":"CR","ts":"2024-10-11T19:40:44Z","tX":521,"tY":373,"tags":{"caravan_site":"motorhome_stopover","caravan_site:type":"lake","fee":"no","maxstay":"1 night","name":"Lac-du-Salagou","power_supply":"no","sanitary_dump_station":"no","surface":"fine_gravel","water_supply":"no","wikimedia_commons":"File:Aire de Camping-Car Lac-du-Salagou - aerial view-0649.jpg"}},"591507279":{"location":[43.6503953,3.3250212],"ct":"FR","tp":"PK","ts":"2024-10-31T20:08:58Z","tX":521,"tY":373,"tags":{"access":"yes","fee":"no","motorhome":"yes","parking":"surface"}},"619001523":{"location":[43.6701221,3.3558984],"ct":"FR","tp":"CS","ts":"2024-07-04T14:04:44Z","tX":521,"tY":373,"tags":{"building":"yes","camp_site":"reception","name":"Accueil","opening_hours":"oct-mar closed;apr-may mo-su 9:00-12:00,15:30-18:00; jun-aug mo-su 8:30-12:00, 14:30-19:00; sep mo-su 9:00-12:00,15:30-18:00","phone":"+33484310099","source":"BDOrtho IGN - available 2018 at the latest"}},"772181065":{"location":[43.593648,3.5129146],"ct":"FR","tp":"CS","ts":"2020-02-13T15:26:07Z","tX":521,"tY":373,"tags":{"name":"L'Affenage","phone":"+33638133249"}},"814113563":{"location":[43.7115065,3.3215846],"ct":"FR","tp":"CS","ts":"2020-06-09T09:14:48Z","tX":521,"tY":373,"tags":{"internet_access":"wlan","name":"Camping Les Vals","phone":"+33430401780","stars":"3","website":"http://www.camping-les-vals.org"}},"824598932":{"location":[43.704762,3.1847025],"ct":"FR","tp":"CR","ts":"2024-01-01T17:18:01Z","tX":521,"tY":373,"tags":{"addr:city":"Lunas","addr:postcode":"34650","addr:street":"Chemin de Reigardi","capacity":"20","caravan_site":"motorhome_stopover","fee":"no","name":"Aire de Camping-Car Municipale Lunas","operator":"Ville de Lunas","power_supply":"no","sanitary_dump_station":"yes","sanitary_dump_station:chemical_toilet":"yes","sanitary_dump_station:grey_water":"yes","sanitary_dump_station:round_drain":"yes","water_point":"yes"}},"833196573":{"location":[43.6728645,3.1726637],"ct":"FR","tp":"CS","ts":"2024-03-07T16:45:47Z","tX":521,"tY":373,"tags":{"addr:city":"La Tour-sur-Orb","addr:housenumber":"6","addr:street":"Impasse de la Sièste","contact:email":"camping.sieste@orange.fr","contact:phone":"+33 4 67 23 72 96","name":"Camping La Sieste","source":"data.gouv.fr:DATAtourisme - 05/2020","website":"https://www.camping-lasieste.fr","wheelchair":"yes"}},"851602037":{"location":[43.766881,3.3487061],"ct":"FR","tp":"PK","ts":"2024-10-02T00:11:53Z","tX":521,"tY":373,"tags":{"fee":"no","motorhome":"yes","motorhome:overnight":"yes","parking":"surface","surface":"paved"}},"904480612":{"location":[43.6541641,3.3179954],"ct":"FR","tp":"CR","ts":"2024-10-16T20:53:40Z","tX":521,"tY":373,"tags":{"addr:city":"Octon","addr:postcode":"34800","addr:street":"Chemin de Ricazouls","capacity":"6","caravan_site":"motorhome_stopover","caravan_site:type":"countryside","fee":"no","name":"Aire de Camping-Car Municipale Octon","opening_hours":"24/7","operator":"Ville de Octon","power_supply":"no","sanitary_dump_station":"yes","sanitary_dump_station:chemical_toilet":"no","sanitary_dump_station:grey_water":"yes","sanitary_dump_station:round_drain":"yes","seasonal":"no"}},"904484523":{"location":[43.6987557,3.4999934],"ct":"FR","tp":"CR","ts":"2024-11-12T17:33:15Z","tX":521,"tY":373,"tags":{"addr:city":"Montpeyroux","addr:postcode":"34150","addr:street":"Rue de St Guilhem / Rue des Écoles","capacity":"6","caravan_site":"motorhome_stopover","fee":"no","internet_access":"no","name":"Aire de Camping-Car Municipale Montpeyroux","operator":"Ville de Montpeyroux","panoramax":"ebe4b198-0c4f-4e5f-969f-e52befba4d9c","permanent_camping":"no","power_supply":"no","sanitary_dump_station":"yes","sanitary_dump_station:chemical_toilet":"yes","sanitary_dump_station:grey_water":"yes","sanitary_dump_station:round_drain":"yes","toilets":"no"}},"943528828":{"location":[43.7234749,3.1995186],"ct":"FR","tp":"CS","ts":"2022-09-04T12:35:33Z","tX":521,"tY":373,"tags":{"addr:city":"Lunas","addr:postcode":"34650","addr:street":"Route de Joncels","description":"Pitch 13.30 €, tent rental, wooden cabins and inuit teepees","motorcycle:theme":"yes","motorcycle_friendly":"yes","name":"Camping Rendezvous Moto","opening_hours":"Apr 29-Sep 03","phone":"+33 467 234912","website":"http://www.camping-rendezvous-moto.com"}},"969883820":{"location":[43.6599505,3.3349858],"ct":"FR","tp":"CS","ts":"2021-08-02T19:33:03Z","tX":521,"tY":373,"tags":{"name":"Le Mas de Riri","opening_hours":"Oct-Mar off","phone":"+33 4 67 96 77 80","source":"survey","website":"https://lemasderiri.com/"}},"985799971":{"location":[43.7368604,3.2630568],"ct":"FR","tp":"CS","ts":"2024-07-31T15:25:53Z","tX":521,"tY":373,"tags":{"addr:city":"Les Plans","addr:postcode":"34700","addr:street":"Hameau de Lambeyran","description":"Camping-Caravaning naturiste confortable et très spacieux, au sein d'un domaine naturiste de 348 hectares,\nLe site est exceptionnel par la beauté des espaces naturels et paysages qu'il offre et est particulièrement adapté aux randonnées naturistes.","email":"lambeyran@wanadoo.fr","name":"Domaine de Lambeyran","nudism":"yes","phone":"+33467441399","stars":"3","website":"http://www.lambeyran.com"}},"1096314746":{"location":[43.6714102,3.3553812],"ct":"FR","tp":"CR","ts":"2024-11-11T18:43:44Z","tX":521,"tY":373,"tags":{"capacity":"20","caravan_site":"motorhome_stopover","caravan_site:type":"lake","charge":"15.60 EUR","charge:conditional":"10.60 @ (Sep-Jun)","fee":"yes","name":"Aire camping-car du Salagou","network":"Onlypark","power_supply":"yes","power_supply:capacity":"12","power_supply:maxcurrent":"10","reservation":"yes","sanitary_dump_station":"yes","seasonal":"yes","water_point":"yes"}},"1167123794":{"location":[43.6046183,3.3255234],"ct":"FR","tp":"CS","ts":"2024-05-15T13:25:51Z","tX":521,"tY":373,"tags":{"addr:city":"Mourèze","addr:postcode":"34800","addr:street":"RD 908 Nabes","caravans":"no","description":"Camping naturiste au Mas du Bois de Nabes","name":"Le Jardin de Gretuvs","nudism":"obligatory","phone":"+33 610 278 257","tents":"yes","website":"https://le-jardin-de-gretuvs9.webnode.fr"}},"1191938514":{"location":[43.646141,3.3929219],"ct":"FR","tp":"CR","ts":"2024-08-19T19:26:18Z","tX":521,"tY":373,"tags":{"capacity":"20","caravan_site":"motorhome_stopover","caravan_site:type":"camp_site","charge":"15.33 EUR","fee":"yes","name":"Aire de service Camping Club Lac du Salagou","opening_hours":"24/7","sanitary_dump_station:fee":"no","tents":"no","water_point:charge":"5 EUR","water_point:fee":"no@(Nov-Apr)","website":"https://www.destination-salagou.fr/annuaire/aire-de-service-lac-du-salagou"}},"10032090317":{"location":[43.7566193,3.1925735],"ct":"FR","tp":"CS","ts":"2022-09-17T17:32:29Z","tX":521,"tY":373,"tags":{"name":"Les Trois Granges"}},"5519941338":{"location":[43.6466255,3.3932381],"ct":"FR","tp":"SD","ts":"2024-08-19T19:26:18Z","tX":521,"tY":373,"tags":{"operator":"Camping Lac du Salagou","power_supply":"no"}},"8399773262":{"location":[43.7060164,3.1867847],"ct":"FR","tp":"SD","ts":"2021-11-20T14:40:26Z","tX":521,"tY":373,"tags":{"description":"Station de vidange pour Camping-car","fee":"no","operator":"Ville de Lunas","sanitary_dump_station:chemical_toilet":"yes","sanitary_dump_station:grey_water":"yes","sanitary_dump_station:round_drain":"yes","water_point":"yes"}},"8400015985":{"location":[43.6542645,3.3181199],"ct":"FR","tp":"SD","ts":"2024-10-16T20:53:40Z","tX":521,"tY":373,"tags":{"access":"yes","description":"Station de vidange pour Camping-car","fee":"no","operator":"Ville de Octon","sanitary_dump_station:chemical_toilet":"no","sanitary_dump_station:grey_water":"yes","sanitary_dump_station:round_drain":"yes","water_point":"no"}},"8400055882":{"location":[43.6988659,3.5000751],"ct":"FR","tp":"SD","ts":"2022-12-07T09:25:50Z","tX":521,"tY":373,"tags":{"access":"yes","description":"Station de vidange pour Camping-car","fee":"no","operator":"Ville de Montpeyroux","power_supply":"no","sanitary_dump_station:chemical_toilet":"yes","sanitary_dump_station:grey_water":"yes","sanitary_dump_station:round_drain":"yes","water_point":"yes"}},"8975288433":{"location":[43.6710821,3.3554851],"ct":"FR","tp":"SD","ts":"2024-10-11T19:40:44Z","tX":521,"tY":373,"tags":{"access":"yes"}},"12105919484":{"location":[43.6169609,3.361286],"ct":"FR","tp":"SD","ts":"2024-08-12T10:42:46Z","tX":521,"tY":373,"tags":{}}}