{"136589915":{"location":[43.4541572,3.4154935],"ct":"FR","tp":"CS","ts":"2023-11-19T12:20:19Z","tX":521,"tY":374,"tags":{"barrier":"fence","fence_type":"chain_link"}},"155074555":{"location":[43.5468349,3.4174819],"ct":"FR","tp":"CS","ts":"2024-09-28T21:41:24Z","tX":521,"tY":374,"tags":{"name":"Les Clairettes","phone":"+33 4 67 25 01 31","source":"ORTHO Express IGN 2024","stars":"3","website":"https://campinglesclairettes.fr"}},"182488297":{"location":[43.5370345,3.1868253],"ct":"FR","tp":"CS","ts":"2023-02-06T10:10:27Z","tX":521,"tY":374,"tags":{"addr:housenumber":"1600","addr:street":"Chemin de Bédarieux","email":"oliveraie.laurens@gmail.com","internet_access":"wlan","internet_access:fee":"yes","name":"L'Oliveraie","phone":"+33603937589","stars":"4","website":"https://www.oliveraie.com"}},"204091404":{"location":[43.3789007,3.4804803],"ct":"FR","tp":"CS","ts":"2022-02-14T14:22:48Z","tX":521,"tY":374,"tags":{"name":"Domaine les Belles","phone":"+33 4 67771395","source":"survey"}},"204091405":{"location":[43.3876316,3.4814734],"ct":"FR","tp":"CS","ts":"2021-12-23T19:56:11Z","tX":521,"tY":374,"tags":{"addr:city":"Florensac","addr:street":"Route de Pomerols","name":"Les chalets et le Camping du Rec de Rieu","phone":"+33 4 67779464","source":"survey","website":"http://freddy.ortiz.pagesperso-orange.fr/"}},"204364024":{"location":[43.3276225,3.4840395],"ct":"FR","tp":"CS","ts":"2018-06-27T14:56:27Z","tX":521,"tY":374,"tags":{"addr:city":"Agde","addr:street":"Route de Marseillan","name":"Camping Sud Loisirs","source":"Bing","website":"http://campingsudloisirs.com/"}},"204686647":{"location":[43.3881115,3.4224332],"ct":"FR","tp":"CS","ts":"2019-03-22T19:30:30Z","tX":521,"tY":374,"tags":{"contact:phone":"+33467778429","name":"Le Pin Parasol","source":"Bing","stars":"3","website":"https://campinglepinparasol.fr/"}},"205105777":{"location":[43.4311323,3.3646854],"ct":"FR","tp":"CS","ts":"2016-02-09T10:53:55Z","tX":521,"tY":374,"tags":{"contact:email":"contact@camping-montrose.com","contact:phone":"+33 4 67985210","contact:website":"http://www.camping-montrose.com/","name":"Camping de Montrose","stars":"3"}},"233149902":{"location":[43.5476419,3.3786822],"ct":"FR","tp":"CS","ts":"2021-12-06T13:05:35Z","tX":521,"tY":374,"tags":{"email":"campingevasion34@yahoo.fr","fax":"+33467253196","internet_access":"wlan","internet_access:fee":"no","name":"Camping L'Évasion","phone":"+33467253200","stars":"3","website":"http://camping.evasion.free.fr"}},"281415115":{"location":[43.4665082,3.4246766],"ct":"FR","tp":"CS","ts":"2022-11-05T20:49:41Z","tX":521,"tY":374,"tags":{"email":"campingsaintchristol@gmail.com","name":"Camping Saint-Christol","stars":"2","website":"https://www.campingsaintchristol.com"}},"290701507":{"location":[43.3981397,3.374687],"ct":"FR","tp":"CS","ts":"2023-12-22T20:34:54Z","tX":521,"tY":374,"tags":{"addr:city":"Montblanc","addr:postcode":"34290","caravans":"yes","email":"gilbert@camping-lerebau.fr","internet_access":"yes","internet_access:fee":"no","motorhome":"yes","name":"Camping Caravaning Le Rebau","phone":"+33 4 67 98 50 78","power_supply":"yes","shower":"yes","stars":"3","water_point":"yes","website":"https://www.camping-lerebau.fr/"}},"367285625":{"location":[43.568163,3.2466087],"ct":"FR","tp":"CS","ts":"2024-10-29T23:11:58Z","tX":521,"tY":374,"tags":{"addr:city":"Fos","addr:postcode":"34320","addr:street":"Chemin des Aires","contact:email":"contact@camping-melias.fr","contact:phone":"+33467329196","contact:website":"http://www.camping-melias.fr","internet_access":"wlan","internet_access:fee":"yes","name":"Les Mélias","stars":"3"}},"396875186":{"location":[43.3709184,3.4153624],"ct":"FR","tp":"CS","ts":"2020-02-09T00:29:51Z","tX":521,"tY":374,"tags":{"contact:fax":"+33 4 67 21 44 35","contact:phone":"+33 4 67 77 58 58","contact:website":"http://www.domainesainteveziane.com","name":"Domaine de Sainte-Veziane"}},"402575962":{"location":[43.4287196,3.4590485],"ct":"FR","tp":"CS","ts":"2024-09-27T07:50:05Z","tX":521,"tY":374,"tags":{"name":"La Pinède","phone":"+33 4 67 11 02 16","stars":"4","website":"https://www.residence-lapinede.com"}},"413197183":{"location":[43.4825692,3.4895087],"ct":"FR","tp":"CS","ts":"2020-10-25T09:41:38Z","tX":521,"tY":374,"tags":{"addr:housenumber":"9","addr:street":"Chemin de la Piboule","contact:phone":"+33467240131","name":"Camping municipal La Piboule","stars":"2","url":"http://www.pezenas-tourisme.fr/campings/camping-la-piboule-montagnac_HPALAR0340002026/"}},"643440343":{"location":[43.369506,3.4294525],"ct":"FR","tp":"CS","ts":"2019-03-23T15:34:35Z","tX":521,"tY":374,"tags":{"name":"Hortes Loisirs","phone":"+33612513883","source":"fr.ign.bdortho","website":"https://camping-hortes-loisirs.fr/"}},"711232318":{"location":[43.4341389,3.4313876],"ct":"FR","tp":"CS","ts":"2024-09-27T08:35:53Z","tX":521,"tY":374,"tags":{"email":"info@camping-les-amandiers.fr","name":"Les Amandiers","phone":"+33 4 67 98 92 51","stars":"3","website":"https://www.camping-les-amandiers.fr"}},"1042068116":{"location":[43.3311433,3.2268584],"ct":"FR","tp":"CR","ts":"2024-09-24T10:54:07Z","tX":521,"tY":374,"tags":{"caravan_site":"motorhome_stopover","caravan_site:type":"river;town","charge":"12.72 EUR","fee":"yes","internet_access":"wlan","maxstay":"72 hours","name":"Aire de Sauclières - Béziers","network":"AirePark","power_supply":"yes","reservation":"yes","sanitary_dump_station":"yes","sanitary_dump_station:chemical_toilet":"yes","sanitary_dump_station:grey_water":"yes","toilets":"no","water_point":"yes","website":"https://www.aireparkreservation.com/aires-camping-cars/occitanie/herault/beziers-aire-de-sauclieres-molto-loisirs"}},"1123673410":{"location":[43.3622477,3.3185045],"ct":"FR","tp":"CS","ts":"2022-12-20T16:03:15Z","tX":521,"tY":374,"tags":{}},"1197602213":{"location":[43.4091677,3.1917985],"ct":"FR","tp":"CR","ts":"2024-10-11T07:48:51Z","tX":521,"tY":374,"tags":{"capacity":"6","caravan_site":"motorhome_stopover","caravan_site:type":"countryside","charge":"10 EUR","fee":"yes","internet_access":"no","name":"Domaine de la Chartreusette","power_supply":"yes","power_supply:charge":"3 EUR/24 hours","power_supply:fee":"yes","sanitary_dump_station":"yes","seasonal":"no","surface":"fine_gravel","tents":"no","toilets":"no","water_point":"yes","water_point:fee":"no","website":"https://suedfrankreich.fr/de/reisemobil-stellplatz"}},"1262855043":{"location":[43.4738111,3.343737],"ct":"FR","tp":"CS","ts":"2024-03-15T09:37:25Z","tX":521,"tY":374,"tags":{"capacity":"33","email":"mairie.alignanduvent@orange.fr","name":"Camping municipal Le Moulin à Vent","operator":"Mairie d'Alignan-d-u-Vent","phone":"+33 4 67 24 91 12","stars":"2","website":"https://camping.ville-alignan-du-vent.fr"}},"1330872455":{"location":[43.4425746,3.4177524],"ct":"FR","tp":"CS","ts":"2024-11-05T10:42:50Z","tX":521,"tY":374,"tags":{"access":"customers","addr:city":"Pézeneas","addr:housenumber":"2","addr:postcode":"34120","addr:street":"Impasse des Cigalous, Hameau de Conas","capacity:tents":"8","fee":"yes","name":"Camping les Cigales","phone":"04 67 98 97 99","static_caravans":"yes","tents":"yes","website":"https://www.campinglescigales.com/"}},"1909938401":{"location":[43.3624109,3.3193296],"ct":"FR","tp":"CS","ts":"2017-07-27T19:45:24Z","tX":521,"tY":374,"tags":{"name":"Camping de Clairac","phone":"+33 4 67 76 78 97","website":"http://www.campingclairac.com/"}},"11499937828":{"location":[43.4982251,3.4720123],"ct":"FR","tp":"CR","ts":"2024-01-08T11:57:06Z","tX":521,"tY":374,"tags":{"caravan_site":"motorhome_stopover","caravan_site:type":"winery","fee":"no","name":"Domaine de la Conseillère","shower":"yes","shower:charge":"10 EUR","website":"http://www.domaine-de-la-conseillere.com/oenotourisme-et-location/"}},"8270120153":{"location":[43.3604258,3.3426141],"ct":"FR","tp":"SD","ts":"2024-10-15T12:40:22Z","tX":521,"tY":374,"tags":{"fee":"no","motorhome":"designated"}},"8400107488":{"location":[43.5012483,3.3200988],"ct":"FR","tp":"SD","ts":"2024-08-07T12:33:37Z","tX":521,"tY":374,"tags":{"fee":"no","motorhome":"designated","operator":"SuperU","sanitary_dump_station:chemical_toilet":"yes","sanitary_dump_station:grey_water":"yes","sanitary_dump_station:round_drain":"yes","water_point":"yes"}},"12013227483":{"location":[43.3592129,3.3463932],"ct":"FR","tp":"SD","ts":"2024-06-26T21:10:04Z","tX":521,"tY":374,"tags":{"access":"yes","fee":"no","network":"Flot Bleu","operator":"Shell Montblanc A9","website":"https://flotbleu.com/herault/aire-de-service/199"}}}