{"12771925":{"location":[43.2793489,3.3530812],"ct":"FR","tp":"CS","ts":"2021-05-29T15:31:00Z","tX":521,"tY":375,"tags":{"name":"Plage du Midi","operator":"Campéole","stars":"2"}},"13103706":{"location":[43.269027,3.3308523],"ct":"FR","tp":"CR","ts":"2024-05-18T01:38:33Z","tX":521,"tY":375,"tags":{"capacity":"49","caravan_site":"motorhome_stopover","caravan_site:type":"beach","caravans":"no","charge":"15.36 EUR","charge:conditional":"13.86 EUR @ (Oct-Apr)","fee":"yes","motorhome":"yes","name":"Camping-car Park de Sérignan-les-plages","network":"CAMPING-CAR PARK","operator":"CAMPING CAR-PARK","power_supply":"yes","power_supply:capacity":"50","power_supply:fee":"no","power_supply:maxcurrent":"6","sanitary_dump_station":"yes","tents":"no","water_point":"yes","website":"https://www.campingcarpark.com/fr_FR/sejour/aire-etape-camping-car/occitanie/34-herault/serignan-les-plages"}},"26437509":{"location":[43.2304771,3.2561688],"ct":"FR","tp":"CS","ts":"2020-12-31T10:56:08Z","tX":521,"tY":375,"tags":{"fee":"yes","name":"Domaine Monplaisir"}},"27395382":{"location":[43.3119762,3.3638664],"ct":"FR","tp":"CS","ts":"2021-12-29T10:50:01Z","tX":521,"tY":375,"tags":{"caravans":"yes","name":"Camping Sunêlia Domaine de la Dragonnière","phone":"+33 467010310","stars":"5","tents":"yes","website":"https://www.dragonniere.com"}},"50544239":{"location":[43.1878708,3.1993133],"ct":"FR","tp":"CS","ts":"2024-07-04T06:55:44Z","tX":521,"tY":375,"tags":{"caravans":"yes","drinking_water":"yes","fee":"yes","name":"Camping municipal de Pissevache","sanitary_dump_station":"yes","shower":"yes","source":"cadastre-dgi-fr source : Direction Générale des Impôts - Cadastre;mise à jour : 2010","tents":"yes","toilets":"yes","website":"https://www.camping-pissevaches.com/"}},"50725932":{"location":[43.2057386,3.2140452],"ct":"FR","tp":"CS","ts":"2021-11-01T16:21:57Z","tX":521,"tY":375,"tags":{"fee":"yes","name":"La Grande Cosse","source":"cadastre-dgi-fr source : Direction Générale des Impôts - Cadastre;mise à jour : 2010"}},"50726769":{"location":[43.222044,3.2156677],"ct":"FR","tp":"CS","ts":"2023-04-18T19:13:21Z","tX":521,"tY":375,"tags":{"fee":"yes","name":"La Guirlande","source":"cadastre-dgi-fr source : Direction Générale des Impôts - Cadastre;mise à jour : 2010"}},"64645467":{"location":[43.2353475,3.2589946],"ct":"FR","tp":"CS","ts":"2024-10-25T09:31:54Z","tX":521,"tY":375,"tags":{"addr:city":"Valras-Plage","addr:postcode":"34350","addr:street":"Avenue de la Méditerranée","camp_site":"deluxe","fee":"yes","name":"Domaine La Yole","phone":"+33 4 67 37 33 87","stars":"5","website":"https://www.campinglayole.fr"}},"72305777":{"location":[43.2879355,3.4706056],"ct":"FR","tp":"CS","ts":"2024-07-25T19:52:34Z","tX":521,"tY":375,"tags":{"access":"customers","backcountry":"no","caravans":"yes","dog":"leashed","drinking_water":"yes","fee":"yes","internet_access":"wlan","internet_access:fee":"customers","name":"Camping Les Jardines D’Agathe","picnic_table":"yes","power_supply":"yes","sanitary_dump_station":"yes","shower":"yes","source":"cadastre-dgi-fr source : Direction Générale des Impôts - Cadastre. Mise à jour : 2010","static_caravans":"yes","tents":"yes","toilets":"yes","wheelchair":"limited"}},"112586288":{"location":[43.2817127,3.4725838],"ct":"FR","tp":"CS","ts":"2023-11-08T02:29:58Z","tX":521,"tY":375,"tags":{"fax":"+33 4 67 94 35 12","name":"Les Sables d’Or","phone":"+33 4 67 94 25 34","website":"https://www.camping-sablesdor.com/"}},"115508121":{"location":[43.2647298,3.3251636],"ct":"FR","tp":"CS","ts":"2024-08-13T10:21:25Z","tX":521,"tY":375,"tags":{"camp_site":"deluxe","caravans":"yes","dog":"leashed","drinking_water":"yes","internet_access":"wlan","lit":"yes","motor_vehicle":"yes","name":"Le Sérignan Plage","opening_hours":"Mo-Su 00:00-24:00","power_supply":"yes","reservation":"recommended","sanitary_dump_station":"yes","shower":"yes","source":"cadastre-dgi-fr source : Direction Générale des Impôts - Cadastre. Mise à jour : 2011","stars":"5","static_caravans":"yes","swimming_pool":"outdoor","tents":"yes","toilets":"yes","washing_machine":"yes","waste_disposal":"yes","website":"https://www.leserignanplage.com/","wheelchair":"limited"}},"135195869":{"location":[43.2150073,3.2340679],"ct":"FR","tp":"CR","ts":"2024-10-05T16:05:13Z","tX":521,"tY":375,"tags":{"capacity":"50","caravan_site":"motorhome_stopover","charge":"10.34 EUR","charge:conditional":"6.34 EUR @ low_season","fee":"yes","name":"Aire de Camping-Cars Les Cabanes de Fleury","opening_hours":"24/7","parking":"surface","power_supply":"yes","sanitary_dump_station":"yes","sanitary_dump_station:chemical_toilet":"yes","sanitary_dump_station:grey_water":"yes","seasonal":"no","water_point":"yes","website":"https://www.audetourisme.com/fr/fiche/fleury/aire-de-services-pour-camping-cars-cabanes-de-fleury_TFOACCAMLAR011V500QFH/"}},"136977527":{"location":[43.2320054,3.2609166],"ct":"FR","tp":"CS","ts":"2020-12-31T10:56:08Z","tX":521,"tY":375,"tags":{"fee":"yes","internet_access":"wlan","internet_access:fee":"yes","name":"Lou Village","source":"cadastre-dgi-fr source : Direction Générale des Impôts - Cadastre. Mise à jour : 2011","stars":"4","website":"https://www.louvillage.com"}},"141415377":{"location":[43.291162,3.4183595],"ct":"FR","tp":"CS","ts":"2023-05-21T11:40:50Z","tX":521,"tY":375,"tags":{"access":"customers","addr:city":"Vias Plage","addr:postcode":"34450","addr:street":"Chemin des Rosses","caravans":"yes","email":"info@farret.com","fee":"yes","internet_access":"wlan","internet_access:fee":"yes","name":"Camping Le Club Farret","operator":"Yelloh! Village","payment:cash":"yes","payment:credit_cards":"yes","phone":"+33 4 67 21 64 45","static_caravans":"yes","tents":"yes","website":"https://www.camping-farret.com/"}},"146730070":{"location":[43.2908894,3.4232279],"ct":"FR","tp":"CS","ts":"2012-01-21T12:49:41Z","tX":521,"tY":375,"tags":{"name":"Camping Le Club Farret"}},"146730073":{"location":[43.2920448,3.4204603],"ct":"FR","tp":"CS","ts":"2019-03-23T15:32:42Z","tX":521,"tY":375,"tags":{"addr:city":"Vias Plage","addr:postcode":"34450","email":"farret@wanadoo.fr","internet_access":"wlan","internet_access:fee":"yes","name":"Camping Le Club Farret","operator":"Yelloh! Village","phone":"+33 467216445","website":"https://www.camping-farret.com/"}},"146745318":{"location":[43.2668376,3.3341053],"ct":"FR","tp":"CS","ts":"2023-11-08T02:30:04Z","tX":521,"tY":375,"tags":{"alt_name":"Aloha (Ouest)","internet_access":"wlan","internet_access:fee":"yes","name":"Aloha","old_name":"Le Grand Large","website":"https://www.alohacamping.com/"}},"146745327":{"location":[43.2675395,3.3356218],"ct":"FR","tp":"CS","ts":"2023-11-08T02:29:36Z","tX":521,"tY":375,"tags":{"alt_name":"Aloha (Est)","internet_access":"wlan","internet_access:fee":"yes","name":"Aloha","old_name":"Les Dunes","website":"https://www.alohacamping.com/"}},"147629478":{"location":[43.2815122,3.371357],"ct":"FR","tp":"CS","ts":"2024-08-17T23:48:56Z","tX":521,"tY":375,"tags":{"caravans":"yes","name":"Le Méditerranée","stars":"4","tents":"yes","website":"https://www.mediterranee-plage.com/fr/camping-vias/"}},"149404926":{"location":[43.2590263,3.2746766],"ct":"FR","tp":"CS","ts":"2023-11-08T02:30:23Z","tX":521,"tY":375,"tags":{"name":"Vignes d'Or","stars":"4","website":"https://www.vignesdor.com/"}},"158250297":{"location":[43.2918157,3.3747773],"ct":"FR","tp":"CS","ts":"2019-06-20T07:11:10Z","tX":521,"tY":375,"tags":{"email":"les.mimosas.portiragnes@wanadoo.fr","fax":"+33 4 67 90 85 39","internet_access":"wlan","internet_access:fee":"yes","name":"Les Mimosas","phone":"+33 4 67 90 92 92","stars":"4","website":"https://www.mimosas.com/","wheelchair":"yes"}},"158250511":{"location":[43.2841492,3.3758482],"ct":"FR","tp":"CS","ts":"2013-11-02T20:32:49Z","tX":521,"tY":375,"tags":{"name":"Jean Pérès"}},"159348042":{"location":[43.2498096,3.2892022],"ct":"FR","tp":"CS","ts":"2012-12-27T22:58:52Z","tX":521,"tY":375,"tags":{"name":"Camping Central","source":"office du tourisme"}},"177203824":{"location":[43.2695121,3.2861439],"ct":"FR","tp":"CS","ts":"2023-09-05T13:34:39Z","tX":521,"tY":375,"tags":{"name":"Le Paradis","stars":"4"}},"181094428":{"location":[43.2663692,3.3315304],"ct":"FR","tp":"CS","ts":"2021-08-18T14:05:44Z","tX":521,"tY":375,"tags":{"access":"customers","addr:city":"Sérignan-Plage","addr:postcode":"34410","addr:street":"La Maïre, Plage de la Séoune","dog":"leashed","email":"info@camping-beausejour.com","fee":"yes","internet_access":"wlan","internet_access:fee":"customers","name":"Beauséjour","phone":"+33 4 67 39 50 93","power_supply":"yes","reservation":"recommended","shower":"yes","stars":"4","toilets":"yes","website":"https://www.camping-beausejour.com/"}},"183124778":{"location":[43.2709813,3.3395888],"ct":"FR","tp":"CS","ts":"2021-12-01T11:09:56Z","tX":521,"tY":375,"tags":{"internet_access":"wlan","internet_access:fee":"no","name":"Camping Bleu Marine","old_name":"La Camargue"}},"183125993":{"location":[43.2725619,3.3304189],"ct":"FR","tp":"CS","ts":"2021-05-29T13:47:17Z","tX":521,"tY":375,"tags":{"name":"La Maïre","phone":"+33467397200","stars":"3","website":"https://www.camping-herault-lamaire.com/"}},"183125994":{"location":[43.2702817,3.3334151],"ct":"FR","tp":"CS","ts":"2023-05-03T09:28:36Z","tX":521,"tY":375,"tags":{"name":"L'Étoile de Mer","phone":"+33467774082","stars":"4","website":"https://www.eden-villages.fr/campings/etoiledemer/"}},"183125995":{"location":[43.2708527,3.3319923],"ct":"FR","tp":"CS","ts":"2021-11-29T13:17:18Z","tX":521,"tY":375,"tags":{"name":"Le Clos Virgile","stars":"4","website":"https://www.leclosvirgile.com/"}},"183346675":{"location":[43.2824673,3.3655693],"ct":"FR","tp":"CS","ts":"2024-09-23T09:03:15Z","tX":521,"tY":375,"tags":{"email":"contact@les-sablons.com","fax":"+33 4 67 90 82 91","internet_access":"wlan","internet_access:fee":"yes","name":"Camping Les Sablons","operator":"Sunêlia","phone":"+33 4 67 90 90 55","stars":"5","website":"https://www.les-sablons.com/","wheelchair":"yes"}},"183346687":{"location":[43.2890568,3.3605891],"ct":"FR","tp":"CS","ts":"2022-07-06T11:05:19Z","tX":521,"tY":375,"tags":{"name":"Capfun - l'Émeraude","website":"https://www.campinglemeraude.fr/"}},"198926898":{"location":[43.190728,3.1973592],"ct":"FR","tp":"CR","ts":"2024-10-01T13:04:21Z","tX":521,"tY":375,"tags":{"capacity":"150","caravan_site":"motorhome_stopover","caravan_site:type":"beach","charge":"11 EUR","fee":"yes","name":"Aire de Camping-Car Saint-Pierre-la-Mer","opening_hours":"24/7","power_supply":"yes","power_supply:charge":"2 EUR","power_supply:fee":"yes","sanitary_dump_station":"yes","seasonal":"no","surface":"ground","water_point":"yes","water_point:charge":"3 EUR","water_point:fee":"yes","website":"https://www.legrandnarbonne.com/annuaires/economie/detail/aire-de-services-pour-camping-cars-1","wikimedia_commons":"File:Aire de Camping-Car Saint-Pierre-la-Mer, Fleury, département Aude - aerial view-0614.jpg"}},"204396077":{"location":[43.3039873,3.4606717],"ct":"FR","tp":"CS","ts":"2023-11-08T02:29:27Z","tX":521,"tY":375,"tags":{"name":"Les Fleurs d'Agde","source":"Bing","website":"https://www.interdelherault.com/"}},"231498535":{"location":[43.2847866,3.4833597],"ct":"FR","tp":"CS","ts":"2019-03-22T18:53:32Z","tX":521,"tY":375,"tags":{"contact:email":"campinglespins@live.fr","contact:phone":"+33 6 62 66 74 91","name":"Les Pins","website":"http://www.lecampinglespins.com/"}},"233076881":{"location":[43.2798499,3.3622727],"ct":"FR","tp":"CS","ts":"2018-03-17T13:04:30Z","tX":521,"tY":375,"tags":{"alt_name":"Ville de Vénissieux","fax":"+33 4 67 90 92 44","fee":"yes","name":"Les Mûriers","operator":"APASEV","phone":"+33 4 67 90 92 44","stars":"2","website":"http://lesmuriers.apasev.fr"}},"233500077":{"location":[43.2785334,3.4630255],"ct":"FR","tp":"CS","ts":"2013-08-14T11:12:21Z","tX":521,"tY":375,"tags":{"area":"yes","name":"Les 4 Vents","source":"Office de Tourisme Cap d' Agde","wheelchair":"no"}},"236141179":{"location":[43.2142496,3.2318147],"ct":"FR","tp":"CS","ts":"2023-08-12T07:19:26Z","tX":521,"tY":375,"tags":{"caravans":"yes","drinking_water":"no","fee":"yes","name":"Camping municipal Rive d'Aude","power_supply":"no","shower":"yes","source":"cadastre-dgi-fr source : Direction Générale des Impôts - Cadastre;mise à jour : 2010","tents":"yes","toilets":"yes","website":"https://www.camping-rive-aude.com/"}},"244461997":{"location":[43.2830457,3.3750221],"ct":"FR","tp":"CS","ts":"2024-10-11T10:55:04Z","tX":521,"tY":375,"tags":{"addr:city":"Vias","addr:country":"FR","addr:housenumber":"246","addr:postcode":"34450","addr:street":"Chemin de la Kabylie","capacity":"122","caravans":"yes","fee":"yes","internet_access":"wlan","name":"GCU Vias Améthyste","operator":"Groupement des Campeurs Universitaires","phone":"+33 4 67 90 10 86","power_supply":"yes","power_supply:maxcurrent":"10","stars":"2","static_caravans":"yes","tents":"yes","website":"https://www.gcu.asso.fr/terrains/vias-am%C3%A9thyste-h%C3%A9rault-34","wheelchair":"limited"}},"244465754":{"location":[43.2856375,3.37532],"ct":"FR","tp":"CS","ts":"2020-08-05T19:40:35Z","tX":521,"tY":375,"tags":{"name":"Cayola","stars":"2"}},"244469727":{"location":[43.2933873,3.3989787],"ct":"FR","tp":"CS","ts":"2020-08-04T12:07:47Z","tX":521,"tY":375,"tags":{"name":"Cap Soleil","phone":"+33467216477","stars":"4","website":"https://www.capsoleil.fr"}},"265226907":{"location":[43.2880273,3.4390028],"ct":"FR","tp":"CS","ts":"2024-11-26T20:27:51Z","tX":521,"tY":375,"tags":{"addr:city":"Agde","addr:housenumber":"4","addr:postcode":"34300","addr:street":"Rue Commandant Malet","alt_name":"La Tama","cabins":"yes","caravans":"yes","contact:email":"contact@camping-latama.com","contact:fax":"+33 4 67 94 78 23","contact:phone":"+33 4 67 94 79 46","contact:website":"http://www.camping-latama.com","motorhome":"yes","name":"La Tamarissière","opening_hours":"Apr 14 - Oct 15","shower":"yes","stars":"3","tents":"yes","toilets":"yes"}},"268119294":{"location":[43.2935417,3.2654784],"ct":"FR","tp":"CS","ts":"2019-03-23T15:30:26Z","tX":521,"tY":375,"tags":{"addr:city":"Sauvian","addr:postcode":"34410","addr:street":"Avenue Paul Vidal","email":"info@lagabinelle.com","name":"La Gabinelle","phone":"+33467395087","stars":"3","website":"https://www.lagabinelle.com/"}},"276504994":{"location":[43.300388,3.4225968],"ct":"FR","tp":"CS","ts":"2023-08-11T18:57:02Z","tX":521,"tY":375,"tags":{"contact:phone":"+334 67 21 64 90","name":"Camping-club l'Air Marin","stars":"4","toilets:wheelchair":"no","website":"https://www.camping-air-marin.fr/","wheelchair":"limited"}},"280996575":{"location":[43.3126476,3.4970615],"ct":"FR","tp":"CS","ts":"2019-06-20T07:58:20Z","tX":521,"tY":375,"tags":{"name":"La Palmeraie"}},"280996579":{"location":[43.3112464,3.4993467],"ct":"FR","tp":"CS","ts":"2024-01-29T14:41:08Z","tX":521,"tY":375,"tags":{"email":"dir7fonts@vacanceselect.com","name":"Les Sept Fonts","stars":"7"}},"292355704":{"location":[43.3103249,3.508059],"ct":"FR","tp":"CS","ts":"2024-05-27T13:02:51Z","tX":521,"tY":375,"tags":{"barrier":"fence","name":"Capfun La Nina Cap Agathois","phone":"+33467940221","website":"https://www.capfun.com/camping-france-languedoc_roussillon-cap_agathois-FR.html"}},"292369388":{"location":[43.3011456,3.5039996],"ct":"FR","tp":"CS","ts":"2021-07-22T16:13:30Z","tX":521,"tY":375,"tags":{"name":"Résidence Les Pescalunes","source":"Bing","stars":"3"}},"292369404":{"location":[43.3021123,3.5016804],"ct":"FR","tp":"CS","ts":"2021-07-22T16:13:30Z","tX":521,"tY":375,"tags":{"addr:city":"Agde","addr:postcode":"34300","addr:street":"Rue de Luxembourg","name":"Odalys La Pinède","stars":"3","website":"https://www.odalys-vacances.com/location-mer/languedoc-roussillon/cap-d-agde/la-pinede.html"}},"293330963":{"location":[43.2959952,3.4746822],"ct":"FR","tp":"CS","ts":"2024-01-29T14:28:04Z","tX":521,"tY":375,"tags":{"name":"Les Champs Blancs"}},"293424720":{"location":[43.2855433,3.4779156],"ct":"FR","tp":"CS","ts":"2019-12-07T21:25:14Z","tX":521,"tY":375,"tags":{"name":"Camping Mer et Soleil","operator":"Yelloh!","website":"https://www.jetcamp.com/en/france/camping-spa-mer-et-soleil-yelloh/?cmp=75"}},"293857946":{"location":[43.295039,3.4537767],"ct":"FR","tp":"CS","ts":"2022-06-08T10:08:49Z","tX":521,"tY":375,"tags":{"addr:city":"Agde","addr:housenumber":"3","addr:postcode":"34300","addr:street":"rue du Grau","capacity:caravans":"105","internet_access":"wlan","name":"La Pépinière","stars":"3","website":"https://www.campinglapepiniere.com/"}},"293857969":{"location":[43.29728,3.4564353],"ct":"FR","tp":"CS","ts":"2014-07-22T13:41:06Z","tX":521,"tY":375,"tags":{"name":"Neptune"}},"293858081":{"location":[43.2910681,3.4473137],"ct":"FR","tp":"CS","ts":"2014-07-22T13:43:19Z","tX":521,"tY":375,"tags":{"name":"La Canotte"}},"294324255":{"location":[43.2790892,3.4831047],"ct":"FR","tp":"CS","ts":"2021-10-25T18:47:06Z","tX":521,"tY":375,"tags":{"name":"Le Rochelongue","stars":"4","website":"https://www.camping-le-rochelongue.fr"}},"294324995":{"location":[43.296405,3.4478897],"ct":"FR","tp":"CS","ts":"2023-11-08T02:29:48Z","tX":521,"tY":375,"tags":{"addr:city":"Agde","addr:postcode":"34300","addr:street":"Route de la Tamarissière","capacity:caravans":"215","fee":"yes","name":"L'Escale","stars":"3","website":"https://www.camping-lescale-agde.com/"}},"294325835":{"location":[43.299256,3.4517421],"ct":"FR","tp":"CS","ts":"2018-09-05T10:51:11Z","tX":521,"tY":375,"tags":{"name":"Les Peupliers","website":"http://www.camping-pinede-agde.com/"}},"294330791":{"location":[43.2887187,3.4738144],"ct":"FR","tp":"CS","ts":"2023-03-17T07:43:36Z","tX":521,"tY":375,"tags":{"cabins":"yes","caravans":"yes","email":"contact@camping-lesroches-agde.com","name":"Les Roches d’Agde","old_name":"Le Brouet","phone":"+33 4 67 21 57 92","shower":"yes","tents":"yes","toilets":"yes","website":"https://www.camping-lesroches-agde.com/"}},"294337539":{"location":[43.3066966,3.4999138],"ct":"FR","tp":"CS","ts":"2021-01-24T00:28:18Z","tX":521,"tY":375,"tags":{"addr:city":"Agde","addr:housenumber":"74","addr:postcode":"34300","addr:street":"Route de Sète","capacity":"140","description":"Le Camping Le Maridor a ouvert ses portes en mars 2017. Nous accueillons à présent camping-caristes et campeurs, sur emplacements délimités ainsi que dans nos différents hébergements.","email":"contact@camping-maridor.com","internet_access":"yes","internet_access:fee":"yes","internet_access:ssid":"hotzone","name":"Camping Le Maridor","operator":"BA Construction","phone":"+33467301015","website":"https://www.camping-maridor.com/"}},"294341674":{"location":[43.2799644,3.4644454],"ct":"FR","tp":"CS","ts":"2016-02-02T23:32:09Z","tX":521,"tY":375,"tags":{"name":"Le Perdigal","source":"Ortho SIG L-R 2012"}},"294342482":{"location":[43.2885284,3.4611752],"ct":"FR","tp":"CS","ts":"2023-03-10T22:42:41Z","tX":521,"tY":375,"tags":{"name":"Les Sablettes"}},"294344562":{"location":[43.2788193,3.4780006],"ct":"FR","tp":"CS","ts":"2023-10-27T08:34:50Z","tX":521,"tY":375,"tags":{"addr:city":"Agde","addr:postcode":"34300","addr:street":"Impasse des Camarines","name":"La Mer","website":"https://www.camping-de-la-mer.com/"}},"294347893":{"location":[43.299698,3.4554389],"ct":"FR","tp":"CS","ts":"2014-07-25T14:29:20Z","tX":521,"tY":375,"tags":{"name":"La Bohème"}},"301500753":{"location":[43.2608731,3.2817537],"ct":"FR","tp":"CS","ts":"2020-07-26T16:25:10Z","tX":521,"tY":375,"tags":{"name":"L'Hermitage","source":"Bing","stars":"5"}},"352349303":{"location":[43.2619751,3.3225879],"ct":"FR","tp":"CS","ts":"2023-06-12T04:49:25Z","tX":521,"tY":375,"tags":{"fee":"yes","name":"Le Sérignan Plage Nature","nudism":"yes","source":"cadastre-dgi-fr source : Direction Générale des Impôts - Cadastre. Mise à jour : 2011","website":"https://www.leserignannature.com/"}},"359219954":{"location":[43.2970648,3.4213477],"ct":"FR","tp":"CS","ts":"2023-11-08T02:30:31Z","tX":521,"tY":375,"tags":{"contact:email":"lacarabasse@siblu.fr","contact:phone":"+334 67 21 64 01","internet_access":"wlan","name":"La Carabasse","operator":"Siblu","stars":"4","website":"https://www.lacarabasse.fr/"}},"359219955":{"location":[43.2958638,3.4251734],"ct":"FR","tp":"CS","ts":"2024-11-16T22:50:40Z","tX":521,"tY":375,"tags":{"contact:email":"camping.elsa@orange.fr","contact:phone":"+334 67 01 69 00","name":"Les Jardins d'Elsa","stars":"3","website":"https://www.camping-jardinsdelsa.com/"}},"398621129":{"location":[43.2977885,3.4138893],"ct":"FR","tp":"CS","ts":"2023-11-08T02:29:41Z","tX":521,"tY":375,"tags":{"contact:phone":"+33467216407","name":"Camping Les Salisses","stars":"4","website":"https://www.salisses.com/"}},"405925826":{"location":[43.2320213,3.2584266],"ct":"FR","tp":"CS","ts":"2021-04-27T20:39:22Z","tX":521,"tY":375,"tags":{"fee":"yes","name":"Lou Village"}},"406329010":{"location":[43.2314181,3.251911],"ct":"FR","tp":"CS","ts":"2016-03-29T00:01:19Z","tX":521,"tY":375,"tags":{"fixme":"name"}},"406329013":{"location":[43.2256199,3.2444758],"ct":"FR","tp":"CS","ts":"2023-06-04T10:58:26Z","tX":521,"tY":375,"tags":{"caravans":"yes","contact:phone":"+33 4 67 37 41 97","drinking_water":"yes","fee":"yes","internet_access":"wlan","internet_access:fee":"yes","name":"Blue Bayou","nudism":"no","opening_hours":"24/7","operator":"Sandaya","power_supply":"yes","reservation":"yes","sanitary_dump_station":"customers","shower":"yes","stars":"5","tents":"yes","toilets":"yes","toilets:wheelchair":"limited","wheelchair":"limited"}},"406329017":{"location":[43.2230089,3.2392209],"ct":"FR","tp":"CS","ts":"2023-11-06T18:21:30Z","tX":521,"tY":375,"tags":{"fee":"yes","name":"Les Mûriers","operator":"L'ami Soleil & Campéole","phone":"+33467372579","website":"https://www.lamisoleil.com/fr/nos-domaines-de-vacances-france-belgique/domaine-de-vendres-france"}},"406329020":{"location":[43.2288348,3.2505357],"ct":"FR","tp":"CS","ts":"2020-12-31T10:56:08Z","tX":521,"tY":375,"tags":{"fee":"yes","name":"Les Sablines","stars":"4"}},"406329023":{"location":[43.2295337,3.2536745],"ct":"FR","tp":"CS","ts":"2020-12-31T10:56:08Z","tX":521,"tY":375,"tags":{"fee":"yes","name":"Les Vagues","stars":"4"}},"406329025":{"location":[43.2273908,3.2477563],"ct":"FR","tp":"CS","ts":"2021-11-14T19:54:44Z","tX":521,"tY":375,"tags":{"brand":"Cap Fun","contact:phone":"+33467942900","contact:website":"http://www.palmirabeach.fr","fee":"yes","name":"Palmira Beach","stars":"3"}},"406329028":{"location":[43.2270722,3.2470696],"ct":"FR","tp":"CS","ts":"2020-12-31T10:56:08Z","tX":521,"tY":375,"tags":{"contact:fax":"+33 4 99 41 03 50","contact:phone":"+33 4 99 41 03 51","contact:website":"http://camping-saint-meen.eu","fee":"yes","name":"Saint-Meen","stars":"4"}},"422054012":{"location":[43.2892955,3.4002817],"ct":"FR","tp":"CS","ts":"2023-06-04T13:15:34Z","tX":521,"tY":375,"tags":{"caravans":"yes","name":"Camping Californie Plage","stars":"4","tents":"yes","website":"https://www.californie-plage.fr"}},"422056209":{"location":[43.296443,3.4019433],"ct":"FR","tp":"CS","ts":"2023-07-15T21:32:22Z","tX":521,"tY":375,"tags":{"name":"Capfun Ondines"}},"422056210":{"location":[43.2947623,3.4079596],"ct":"FR","tp":"CS","ts":"2020-07-07T21:11:10Z","tX":521,"tY":375,"tags":{"contact:phone":"+334 67 21 63 70","name":"Domaine Sainte-Cécile","operator":"Yelloh! Village","stars":"4","website":"https://www.camping-sainte-cecile.com/"}},"427804115":{"location":[43.3177002,3.2845701],"ct":"FR","tp":"CS","ts":"2020-06-04T21:53:47Z","tX":521,"tY":375,"tags":{"addr:city":"Villeneuve-lès-Béziers","addr:postcode":"34420","addr:street":"Promenade des Vernets","contact:phone":"+33 4 67 39 36 09","email":"contact@campinglbdc.com","name":"Camping Les Berges du Canal","website":"https://www.campinglesbergesducanal.com/"}},"430518890":{"location":[43.2877778,3.4716552],"ct":"FR","tp":"CS","ts":"2024-07-28T15:19:43Z","tX":521,"tY":375,"tags":{"access":"customers","caravans":"yes","dog":"yes","email":"contact@camping-lesjardinsdagathe.com","fee":"yes","lit":"yes","motorhome":"yes","name":"Les Jardins d'Agathe","old_name":"Les Mimosas","phone":"+33 4 67 01 67 36","shower":"yes","static_caravans":"yes","tents":"yes","toilets":"yes","website":"https://www.camping-lesjardinsdagathe.com/"}},"493422767":{"location":[43.3106015,3.3632665],"ct":"FR","tp":"CR","ts":"2024-10-11T10:55:04Z","tX":521,"tY":375,"tags":{"capacity":"20","caravan_site":"motorhome_stopover","caravan_site:type":"natural_park","charge":"11 EUR","charge:conditional":"8 EUR @ (Sep-Jun)","check_in":"22:00","fee":"yes","internet_access":"wlan","internet_access:fee":"no","name":"Aire de Vias","name:fr":"Aire de Vias","phone":"+33 6 77377532","power_supply":"yes","power_supply:charge":"4 EUR","power_supply:charge:conditional":"5 EUR @ (Nov-Mar)","power_supply:fee":"yes","water_point":"yes","website":"https://www.aire-vias.fr/"}},"495637786":{"location":[43.2895102,3.4051528],"ct":"FR","tp":"CS","ts":"2023-11-08T02:29:55Z","tX":521,"tY":375,"tags":{"addr:city":"Vias","addr:postcode":"34450","addr:street":"Chemin des Blanquettes","email":"flots-bleus@capfun.com","internet_access":"wlan","internet_access:fee":"no","name":"Les Flots Bleus","operator":"Capfun","stars":"3","website":"https://www.camping-flots-bleus.com/"}},"540182977":{"location":[43.2874108,3.4535263],"ct":"FR","tp":"CS","ts":"2017-11-13T12:38:55Z","tX":521,"tY":375,"tags":{"name":"Le Anémones","source":"FR-Cadastre"}},"561366428":{"location":[43.2984633,3.4200234],"ct":"FR","tp":"CS","ts":"2023-08-11T15:00:26Z","tX":521,"tY":375,"tags":{"contact:email":"info@campinglenavarre.org","contact:phone":"+334 67 21 64 05","name":"Le Navarre","stars":"3","website":"http://www.campinglenavarre.org"}},"561368380":{"location":[43.2925281,3.4146287],"ct":"FR","tp":"CS","ts":"2023-11-08T02:29:30Z","tX":521,"tY":375,"tags":{"contact:phone":"+334 67 01 07 80","name":"Napoléon","stars":"5","website":"https://www.camping-napoleon.fr/"}},"561370202":{"location":[43.2917772,3.4085009],"ct":"FR","tp":"CS","ts":"2018-02-14T21:54:14Z","tX":521,"tY":375,"tags":{"contact:phone":"+334 67 21 63 66","name":"Hélios","stars":"4","website":"http://www.camping-helios.com/fr/accueil-sp1.php"}},"627774549":{"location":[43.2916737,3.4245707],"ct":"FR","tp":"CS","ts":"2018-09-24T12:48:20Z","tX":521,"tY":375,"tags":{"name":"Pleine Mer","source":"fr.ign.bdortho"}},"655206463":{"location":[43.2751827,3.3519421],"ct":"FR","tp":"CR","ts":"2024-05-18T09:49:12Z","tX":521,"tY":375,"tags":{"bbq":"no","capacity":"50","caravan_site":"motorhome_stopover","caravan_site:type":"beach","caravans":"no","charge":"16.22 EUR","charge:conditional":"14.82 EUR @ (Oct-Apr)","dog":"leashed","fee":"yes","internet_access":"wlan","maxlength":"none","name":"Aire Camping-car Portiragnes","network":"CAMPING-CAR PARK","operator":"CAMPING CAR-PARK","phone":"+33 2 98 53 99 39","power_supply":"yes","power_supply:capacity":"52","power_supply:fee":"no","power_supply:maxcurrent":"6","sanitary_dump_station":"customers","tents":"no","toilets":"yes","trailer":"yes","website":"https://www.campingcarpark.com/fr_FR/sejour/aire-etape-camping-car/occitanie/34-herault/portiragnes"}},"659916026":{"location":[43.3008901,3.441683],"ct":"FR","tp":"CS","ts":"2024-11-22T14:53:34Z","tX":521,"tY":375,"tags":{"source":"Mapbox"}},"659916034":{"location":[43.3007648,3.4410087],"ct":"FR","tp":"CS","ts":"2024-11-22T14:53:34Z","tX":521,"tY":375,"tags":{"source":"Mapbox"}},"659916056":{"location":[43.2987736,3.4414809],"ct":"FR","tp":"CS","ts":"2024-11-22T14:53:34Z","tX":521,"tY":375,"tags":{"source":"Mapbox"}},"730448974":{"location":[43.2295059,3.2521332],"ct":"FR","tp":"CS","ts":"2024-05-28T09:10:01Z","tX":521,"tY":375,"tags":{"addr:city":"Vendres","addr:housenumber":"19","addr:postcode":"34350","addr:street":"Chemin des Montilles","capacity":"184","caravans":"yes","fee":"yes","internet_access":"wlan","name":"GCU Vendres-Plage","operator":"Groupement des Campeurs Universitaires","phone":"+33 4 67 37 69 38","sanitary_dump_station":"customers","stars":"2","static_caravans":"yes","tents":"yes","website":"https://www.gcu.asso.fr/terrains/vendres-plage-h%C3%A9rault-34","wheelchair":"limited"}},"771171997":{"location":[43.2574592,3.2816414],"ct":"FR","tp":"CS","ts":"2020-07-26T16:25:10Z","tX":521,"tY":375,"tags":{"name":"Mas des Lavandes","stars":"4"}},"779158186":{"location":[43.239971,3.2648211],"ct":"FR","tp":"CS","ts":"2020-12-31T10:56:08Z","tX":521,"tY":375,"tags":{"email":"cote-du-soleil@campeole.com","fee":"yes","name":"Camping Côte du Soleil","operator":"Campéole","phone":"+33467373398","stars":"4","website":"https://www.campeole.com/camping/herault/cote-du-soleil-serignan"}},"779158187":{"location":[43.2418108,3.2611196],"ct":"FR","tp":"CS","ts":"2022-11-13T22:48:19Z","tX":521,"tY":375,"tags":{"email":"info@lebellevue.com","fee":"yes","name":"Camping Le Bellevue","phone":"+33467373394","stars":"4","website":"https://www.lebellevue.com"}},"826559838":{"location":[43.2842398,3.3798341],"ct":"FR","tp":"CS","ts":"2023-11-08T02:29:34Z","tX":521,"tY":375,"tags":{"addr:housenumber":"34","addr:street":"Vias Plage","name":"Le Petit Mousse","stars":"4","website":"https://www.campinglepetitmousse.com/"}},"826559839":{"location":[43.2828227,3.3764801],"ct":"FR","tp":"CS","ts":"2020-07-15T16:35:58Z","tX":521,"tY":375,"tags":{"name":"La Dune","stars":"3","website":"http://campingladune.com"}},"826559840":{"location":[43.2819026,3.3742753],"ct":"FR","tp":"CS","ts":"2024-10-11T10:55:04Z","tX":521,"tY":375,"tags":{"addr:city":"Vias","addr:country":"FR","addr:postcode":"34450","addr:street":"Chemin de la Dune","capacity":"197","caravans":"yes","fee":"yes","internet_access":"wlan","name":"GCU Vias La Kabylie","operator":"Groupement des Campeurs Universitaires","phone":"+33 4 67 98 47 29","power_supply":"yes","power_supply:maxcurrent":"10","stars":"2","static_caravans":"no","tents":"yes","website":"https://www.gcu.asso.fr/terrains/vias-la-kabylie-h%C3%A9rault-34","wheelchair":"limited"}},"827936514":{"location":[43.254608,3.2887554],"ct":"FR","tp":"CS","ts":"2021-06-29T14:41:28Z","tX":521,"tY":375,"tags":{"addr:street":"Avenue Charles Cauquil","name":"Camping Hello Summer Inn","operator":"Holiday Camp","stars":"4"}},"828969573":{"location":[43.3140085,3.3713858],"ct":"FR","tp":"CR","ts":"2024-10-11T09:47:21Z","tX":521,"tY":375,"tags":{"addr:city":"Vias","addr:postcode":"34450","addr:street":"3870 RD 612","bbq":"provided","capacity":"40","caravan_site":"motorhome_stopover","caravan_site:type":"countryside","charge":"13 EUR","dog":"leashed","email":"moulinlespagnac@sfr.fr","fee":"yes","internet_access":"no","laundry":"yes","name":"Aire de camping-car Moulin de l'Espagnac","phone":"+33 6 20 27 90 62","playground":"yes","power_supply":"yes","sanitary_dump_station":"yes","sanitary_dump_station:fee":"no","seasonal":"no","services:charge":"4 EUR: power_supply,shower,toilets","shower":"yes","toilets":"yes","water_point":"yes","water_point:fee":"no","website":"https://www.aire-camping-car-vias.com/"}},"829381543":{"location":[43.31364,3.3838282],"ct":"FR","tp":"CS","ts":"2021-08-16T08:25:33Z","tX":521,"tY":375,"tags":{"name":"Les Amandiers","stars":"3"}},"833839612":{"location":[43.2910737,3.4017101],"ct":"FR","tp":"CS","ts":"2020-08-04T11:57:31Z","tX":521,"tY":375,"tags":{"email":"campinglescigalesvias@yahoo.fr","name":"Les Cigales","phone":"+33467010707","stars":"3"}},"833839613":{"location":[43.28688,3.3956136],"ct":"FR","tp":"CS","ts":"2020-08-04T11:57:31Z","tX":521,"tY":375,"tags":{"email":"roucanplage@gmail.com","name":"Roucan Plage","phone":"+33467216465","stars":"2","website":"https://www.roucanplage.fr"}},"833839614":{"location":[43.2873521,3.3942054],"ct":"FR","tp":"CS","ts":"2023-11-08T02:30:24Z","tX":521,"tY":375,"tags":{"name":"Le Roucan West","phone":"+33467216464","stars":"3","website":"https://campingleroucan.com/"}},"853983042":{"location":[43.2901899,3.4628056],"ct":"FR","tp":"CS","ts":"2020-10-01T17:13:44Z","tX":521,"tY":375,"tags":{"name":"Le Baluffe","stars":"1"}},"857671026":{"location":[43.2803341,3.469434],"ct":"FR","tp":"CS","ts":"2020-10-11T01:06:57Z","tX":521,"tY":375,"tags":{"name":"Le Clos d'Esilda"}},"946876577":{"location":[43.2558492,3.2888857],"ct":"FR","tp":"CS","ts":"2024-03-07T11:13:39Z","tX":521,"tY":375,"tags":{"addr:city":"Valras Plage","caravans":"no","contact:phone":"+33 4 67 39 59 06","drinking_water":"yes","fee":"yes","name":"Les Sables du Midi","operator":"Siblu","stars":"4","static_caravans":"yes","tents":"no"}},"948452138":{"location":[43.3019635,3.5037683],"ct":"FR","tp":"CS","ts":"2023-11-08T02:30:09Z","tX":521,"tY":375,"tags":{"addr:street":"Route de Sète","email":"reservation@hautdebaldy.com","name":"Les Hauts de Baldy","phone":"+33663537058","website":"https://www.hautsdebaldy.com/"}},"961309234":{"location":[43.2918615,3.41324],"ct":"FR","tp":"CS","ts":"2021-07-04T13:50:19Z","tX":521,"tY":375,"tags":{"name":"Le Mas de la Plage","phone":"+33488917304","stars":"4","website":"https://www.lemasdelaplage.com"}},"985961091":{"location":[43.2365771,3.2669654],"ct":"FR","tp":"CS","ts":"2024-10-25T09:31:54Z","tX":521,"tY":375,"tags":{"name":"Le Méditerranée","phone":"+33467373429","stars":"2","website":"https://www.camping-le-mediterranee.com"}},"985961092":{"location":[43.2335464,3.2665345],"ct":"FR","tp":"CS","ts":"2024-07-05T18:50:25Z","tX":521,"tY":375,"tags":{"caravans":"yes","drinking_water":"yes","email":"RESERVATION@CAMPING-PLAGEETMER.COM","name":"La Plage et du bord de mer","phone":"+33467373438","power_supply":"yes","sanitary_dump_station":"yes","shower":"yes","tents":"yes","toilets":"yes","website":"https://www.camping-plageetmer.com"}},"1016603475":{"location":[43.2535029,3.288702],"ct":"FR","tp":"CR","ts":"2024-05-13T13:32:41Z","tX":521,"tY":375,"tags":{"capacity":"49","caravan_site":"motorhome_stopover","caravan_site:type":"beach","charge":"10.32 EUR","fee":"yes","name":"Valras- Sérignan Aire de stationnement Le Levant","network":"Réseau AireServices","opening_hours":"24/7","power_supply":"yes","sanitary_dump_station":"yes","sanitary_dump_station:chemical_toilet":"yes","sanitary_dump_station:grey_water":"yes","tents":"no","water_point":"yes"}},"1154916925":{"location":[43.2875181,3.4731626],"ct":"FR","tp":"CS","ts":"2024-07-31T20:38:40Z","tX":521,"tY":375,"tags":{"cabins":"yes","caravans":"yes","email":"contact@campingpedro.fr","mobile":"+33 6 16 90 40 03","name":"Pédro","phone":"+33 4 67 21 49 39","shower":"yes","tents":"yes","toilets":"yes","website":"https://www.campingpedro.fr/"}},"1319983535":{"location":[43.2696798,3.3357507],"ct":"FR","tp":"CR","ts":"2024-10-01T22:39:46Z","tX":521,"tY":375,"tags":{"bakery_service":"yes","bar":"yes","caravan_site":"motorhome_stopover","caravan_site:type":"miniature_golf","charge":"15 EUR","charge:conditional":"10 EUR @ (Oct-Apr)","fee":"yes","name":"Aire de camping-car Mini Golf du Lion","opening_hours":"24/7","power_supply":"yes","power_supply:charge":"5 EUR","power_supply:fee":"yes","sanitary_dump_station":"yes","seasonal":"no","shower":"yes","toilets":"yes","water_point":"yes","website":"https://www.mini-golf-du-lion.fr/aire-camping-car.php"}},"1336651977":{"location":[43.2999967,3.4292141],"ct":"FR","tp":"CS","ts":"2024-11-21T22:48:34Z","tX":521,"tY":375,"tags":{}},"1336857313":{"location":[43.2992483,3.4449872],"ct":"FR","tp":"CS","ts":"2024-11-22T14:53:34Z","tX":521,"tY":375,"tags":{}},"1623822289":{"location":[43.2502972,3.3005353],"ct":"FR","tp":"CS","ts":"2018-11-14T17:47:38Z","tX":521,"tY":375,"tags":{"access":"permissive","addr:city":"Valras-Plage","addr:postcode":"34350","addr:street":"Chemin des Orpellières","capacity":"32","internet_access":"no","name":"Marabouts","operator":"CentrMer et Soleil"}},"6555742711":{"location":[43.2961918,3.4802085],"ct":"FR","tp":"CS","ts":"2019-06-18T16:07:33Z","tX":521,"tY":375,"tags":{"access":"customers","addr:city":"Agde","addr:housenumber":"25","addr:postcode":"34300","addr:street":"Chemin Raymond Fages","fee":"no","internet_access":"wlan","internet_access:fee":"yes","name":"Camping Cap d'Agde - 123 SUD VACANCES","website":"https://campingcapdagde.com"}},"6743840446":{"location":[43.2771573,3.4801237],"ct":"FR","tp":"CS","ts":"2019-08-25T11:41:47Z","tX":521,"tY":375,"tags":{"name":"Résidence de vacances Nakara Odalys"}},"6001733776":{"location":[43.2797859,3.3516086],"ct":"FR","tp":"SD","ts":"2018-10-21T01:57:22Z","tX":521,"tY":375,"tags":{}},"9073787315":{"location":[43.1901418,3.196977],"ct":"FR","tp":"SD","ts":"2021-10-24T18:02:33Z","tX":521,"tY":375,"tags":{"access":"customers","fee":"no","sanitary_dump_station:basin":"yes","sanitary_dump_station:round_drain":"yes"}},"9215908287":{"location":[43.1901766,3.1969613],"ct":"FR","tp":"SD","ts":"2024-05-10T06:17:55Z","tX":521,"tY":375,"tags":{"fee":"yes"}},"9883184397":{"location":[43.274743,3.3521526],"ct":"FR","tp":"SD","ts":"2022-07-12T12:56:05Z","tX":521,"tY":375,"tags":{"access":"customers"}},"10250560655":{"location":[43.2690656,3.2837578],"ct":"FR","tp":"SD","ts":"2022-12-10T12:25:04Z","tX":521,"tY":375,"tags":{"access":"yes","charge":"2 eur","fee":"yes","power_supply":"yes","sanitary_dump_station:chemical_toilet":"yes","sanitary_dump_station:grey_water":"yes","water_point":"yes"}},"10897280963":{"location":[43.2150824,3.233403],"ct":"FR","tp":"SD","ts":"2023-05-14T21:27:03Z","tX":521,"tY":375,"tags":{}}}