{"2340861":{"location":[41.8886775,3.1786471],"ct":"ES","tp":"CS","ts":"2024-04-02T13:56:44Z","tX":521,"tY":380,"tags":{"access":"customers","addr:city":"Calella de Palafrugell","addr:housenumber":"16 - 28","addr:postcode":"17210","addr:street":"Carrer de la Costa Verde","cabins":"yes","caravans":"yes","check_date":"2024-03-30","contact:email":"info@campingmobydick.com","contact:facebook":"https://www.facebook.com/CampingMobyDick/","contact:instagram":"https://www.instagram.com/campingmobydick/","contact:whatsapp":"+34616909747","dog":"yes","drinking_water":"yes","email":"info@campingmobydick.com","fax":"+34 972 61 49 40","fee":"yes","internet_access":"wlan","internet_access:fee":"no","mobile":"+34616909747","motorhome":"yes","name":"Moby Dick","nudism":"no","openfire":"no","payment:cash":"yes","payment:credit_cards":"yes","payment:debit_cards":"yes","phone":"+34 972 61 43 07","picnic_table":"yes","power_supply":"yes","reservation":"yes","sanitary_dump_station":"yes","shower":"yes","source":"survey","static_caravans":"yes","tents":"yes","toilets":"yes","website":"https://www.campingmobydick.com/"}},"8297849":{"location":[41.9412061,3.1992188],"ct":"ES","tp":"CS","ts":"2024-04-02T13:53:14Z","tX":521,"tY":380,"tags":{"access":"yes","caravans":"yes","check_date":"2024-03-30","dog":"leashed","email":"info@campingbegur.com","internet_access":"wlan","name":"Càmping Begur","name:ca":"Càmping Begur","openfire":"no","phone":"+34 972623201","power_supply":"yes","reservation":"yes","shower":"yes","static_caravans":"yes","tents":"yes","toilets":"yes","website":"https://campingbegur.com/"}},"8454863":{"location":[42.0020555,3.1930612],"ct":"ES","tp":"CS","ts":"2023-09-03T10:58:11Z","tX":521,"tY":380,"tags":{"access":"customers","addr:city":"Platja de Pals","addr:housenumber":"1","addr:postcode":"17256","addr:street":"Av. del Grau","alt_name":"Camping & Bungalows Platja Brava","backcountry":"no","camp_site":"reception","caravans":"yes","check_date":"2023-09-03","contact:phone":"+34 972 63 68 94","contact:website":"https://escolapia.cat/","dog":"no","drinking_water":"yes","fee":"yes","group_only":"no","internet_access":"wlan","internet_access:fee":"customers","name":"Càmping Playa Brava","name:ca":"Càmping Playa Brava","name:de":"Camping Playa Brava","nudism":"no","payment:contactless":"yes","payment:credit_cards":"yes","payment:debit_cards":"yes","payment:girocard":"yes","payment:maestro":"yes","payment:mastercard":"yes","payment:visa":"yes","payment:visa_debit":"yes","picnic_table":"no","power_supply":"yes","reservation":"yes","sanitary_dump_station":"yes","shower":"yes","stars":"4","static_caravans":"no","tents":"yes","toilets":"yes","wheelchair":"limited"}},"9374950":{"location":[41.8993265,3.1871322],"ct":"ES","tp":"CS","ts":"2024-02-22T21:50:11Z","tX":521,"tY":380,"tags":{"addr:city":"Llafranc","addr:milestone":"2","addr:postcode":"17211","addr:street":"Avenida del Mar","alt_name":"Kim’s Camping","contact:email":"info@campingkims.com","contact:facebook":"https://www.facebook.com/kimscamping","contact:instagram":"https://www.instagram.com/campingkims/","contact:phone":"+34 972 30 11 56","contact:website":"https://www.campingkims.com/","name":"Càmping Kim's","name:ca":"Càmping Kim's","name:en":"Kims Camping","note":"Avenida del Mar Km2 17211 Llafranc (Palafrugell) Girona"}},"9721861":{"location":[42.0129376,3.1900811],"ct":"ES","tp":"CS","ts":"2019-06-25T09:52:11Z","tX":521,"tY":380,"tags":{"name":"Càmping Delfin Verde"}},"11243500":{"location":[41.9940007,3.1886605],"ct":"ES","tp":"CS","ts":"2022-09-21T07:03:29Z","tX":521,"tY":380,"tags":{"addr:city":"Platja de Pals","addr:housenumber":"23","addr:postcode":"17256","addr:street":"Rodors","name":"Camping Neptuno","phone":"+34 972 63 67 31","website":"https://www.campingneptuno.com"}},"11243504":{"location":[41.9876562,3.1836724],"ct":"ES","tp":"CS","ts":"2020-07-23T11:58:49Z","tX":521,"tY":380,"tags":{"name":"Camping Cypsela"}},"11250222":{"location":[41.967612,3.2112382],"ct":"ES","tp":"CS","ts":"2023-04-01T08:38:04Z","tX":521,"tY":380,"tags":{"name":"Càmping El Maset","name:ca":"Càmping El Maset","website":"https://www.campingelmaset.com"}},"14447326":{"location":[41.9211717,3.2015443],"ct":"ES","tp":"CS","ts":"2024-02-26T19:40:42Z","tX":521,"tY":380,"tags":{"access":"customers","addr:city":"Tamariu","addr:housenumber":"2","addr:postcode":"17212","addr:street":"Carrer de Costa Rica","caravans":"yes","contact:email":"info@campingtamariu.com","contact:mobile":"+34646116859","dog":"no","fee":"yes","name":"Càmping Tamariu","name:ca":"Càmping Tamariu","name:en":"Camping Tamariu","name:es":"Camping Tamariu","opening_hours":"May 1-Sep 30: Mo-Su 00:00-24:00","opening_hours:reception":"08:00-20:00","payment:cash":"yes","payment:contactless":"yes","payment:credit_cards":"yes","pets_allowed":"no","phone":"+34 972 62 04 22","static_caravans":"yes","tents":"yes","website":"http://www.campingtamariu.cat"}},"37090500":{"location":[41.9807416,3.1992546],"ct":"ES","tp":"CS","ts":"2025-06-09T07:43:21Z","tX":521,"tY":380,"tags":{"access":"customers","addr:city":"Pals","addr:postcode":"17256","addr:street":"Carrer del Mediterrani","alt_name":"Càmping Interpals","caravans":"yes","contact:email":"info@interpals.com","contact:facebook":"https://www.facebook.com/interpals","contact:instagram":"https://www.instagram.com/campinginterpals/","contact:phone":"+ 34 972 63 61 79","contact:youtube":"https://www.youtube.com/channel/UCEfqoEJZrgMavA5Ah64ofAA","fee":"yes","name":"Interpals Eco Resort","pets":"yes","power_supply":"yes","shower":"yes","tents":"yes","website":"https://www.interpals.com"}},"171042970":{"location":[41.8953035,3.1824059],"ct":"ES","tp":"CS","ts":"2024-02-22T21:44:37Z","tX":521,"tY":380,"tags":{"addr:city":"Calella de Palafrugell","addr:postcode":"17210","addr:street":"Carrer de Fuerteventura","alt_name":"Camping Calella de Palafrugell;Resort Calella de Palafrugell","contact:email":"info@campingcalelladepalafrugell.com","contact:phone":"+34972615116","contact:website":"https://www.campingcalelladepalafrugell.com/","name":"Camping La Siesta","operator":"C/ de Fuerteventura s/n - 17210"}},"782464645":{"location":[41.91189,3.1754016],"ct":"ES","tp":"CR","ts":"2020-03-18T18:20:05Z","tX":521,"tY":380,"tags":{"name":"Caravaning Palafrugell"}},"4144595690":{"location":[42.0291439,3.1695519],"ct":"ES","tp":"CR","ts":"2016-04-24T15:18:01Z","tX":521,"tY":380,"tags":{"name":"Parking Caravaning Ter"}},"11165587365":{"location":[42.0030864,3.1952289],"ct":"ES","tp":"SD","ts":"2023-09-03T19:01:07Z","tX":521,"tY":380,"tags":{"access":"customers","fee":"no","sanitary_dump_station:chemical_toilet":"yes"}},"11165587366":{"location":[42.0020863,3.1952905],"ct":"ES","tp":"SD","ts":"2023-09-03T19:01:07Z","tX":521,"tY":380,"tags":{"access":"customers","fee":"no","sanitary_dump_station:chemical_toilet":"yes","sanitary_dump_station:grey_water":"yes"}},"11169852957":{"location":[42.0030109,3.1936846],"ct":"ES","tp":"SD","ts":"2023-09-05T15:40:21Z","tX":521,"tY":380,"tags":{"access":"customers","fee":"no","water_point":"yes"}},"11773387728":{"location":[41.8887344,3.1783404],"ct":"ES","tp":"SD","ts":"2025-06-21T15:31:11Z","tX":521,"tY":380,"tags":{"access":"customers","fee":"no","survey:date":"2024-03-30"}}}