{"363706177":{"location":[36.7834743,3.3339074],"ct":"DZ","tp":"CS","ts":"2020-11-03T02:58:21Z","tX":521,"tY":399,"tags":{"name":"مخيم شباب","name:ar":"مخيم شباب"}},"4362949790":{"location":[36.7840483,3.338267],"ct":"DZ","tp":"CS","ts":"2016-08-23T14:59:25Z","tX":521,"tY":399,"tags":{}},"4375781698":{"location":[36.7281387,3.2192007],"ct":"DZ","tp":"CS","ts":"2017-03-13T16:10:26Z","tX":521,"tY":399,"tags":{"addr:housenumber":"023859602/03","email":"sarl-eph@hotmail.fr","name":"FPH EA","name:fr":"FPH EA","opening_hours":"Sa-Th 07:30-12:30, 13:30-04:00","phone":"0213055980907"}},"4558224990":{"location":[36.7321025,3.1932797],"ct":"DZ","tp":"CS","ts":"2023-05-08T18:41:45Z","tX":521,"tY":399,"tags":{"email":"bez@innovexalgerie.com","name":"شركة انوفاكس","name:ar":"شركة انوفاكس","name:fr":"SARL Innovex","office":"company","phone":"+2135 60050529"}},"6300931685":{"location":[36.6017386,3.2183558],"ct":"DZ","tp":"CS","ts":"2019-02-25T10:57:58Z","tX":521,"tY":399,"tags":{}},"6789414685":{"location":[36.7899326,3.2360207],"ct":"DZ","tp":"CS","ts":"2020-11-02T22:34:21Z","tX":521,"tY":399,"tags":{"name":"اقامة (نزل) المدرسة الوطنية للرياضات المائية وتحت المائية","name:ar":"اقامة (نزل) المدرسة الوطنية للرياضات المائية وتحت المائية","name:fr":"Camping Ecole nationale des sports aquatiques et sous-marins"}},"7873377185":{"location":[36.7548557,3.4478378],"ct":"DZ","tp":"CS","ts":"2020-09-03T18:17:00Z","tX":521,"tY":399,"tags":{"name":"mmmmmmmmmm"}},"9505576117":{"location":[36.7206873,3.2211171],"ct":"DZ","tp":"CS","ts":"2022-02-14T17:19:28Z","tX":521,"tY":399,"tags":{"name":"فاكوم","name:fr":"Facom"}},"5464479665":{"location":[36.7355618,3.2774474],"ct":"DZ","tp":"SD","ts":"2018-03-08T12:26:47Z","tX":521,"tY":399,"tags":{}}}