{"12810646":{"location":[-37.139454,142.5172286],"ct":"AU","tp":"CS","ts":"2024-12-30T03:00:23Z","tX":917,"tY":625,"tags":{"name":"Halls Gap Caravan Park","website":"https://hallsgapcaravanpark.com.au/"}},"36079601":{"location":[-37.1433144,142.6349296],"ct":"AU","tp":"CR","ts":"2019-03-04T23:17:38Z","tX":917,"tY":625,"tags":{"addr:city":"Lake Fyans","addr:housenumber":"650","addr:postcode":"3381","addr:street":"Mokepilly Road","name":"Lake Fyans Holiday Park","phone":"+61 3 5356 6230","website":"https://lakefyansholidaypark.com.au/"}},"241387990":{"location":[-37.1283693,142.5253781],"ct":"AU","tp":"CR","ts":"2023-11-13T10:33:21Z","tX":917,"tY":625,"tags":{"addr:city":"Halls Gap","addr:country":"AU","addr:housenumber":"2372","addr:postcode":"3381","addr:street":"Grampians Road","brand":"Big4;NRMA","name":"Halls Gap Holiday Park","opening_hours":"Mo-Su 08:00-18:00","phone":"+61 3 5356 4215","website":"https://www.nrmaparksandresorts.com.au/halls-gap/"}},"305408943":{"location":[-37.1488548,142.5225643],"ct":"AU","tp":"CS","ts":"2024-12-28T07:47:45Z","tX":917,"tY":625,"tags":{"building":"yes","group_only":"yes","name":"Silverband Lodge"}},"305408944":{"location":[-37.149502,142.5232202],"ct":"AU","tp":"CS","ts":"2024-12-28T07:47:45Z","tX":917,"tY":625,"tags":{"building":"yes","group_only":"yes","name":"Norval Lodge and House"}},"305408945":{"location":[-37.1495565,142.5231248],"ct":"AU","tp":"CS","ts":"2024-12-28T07:47:45Z","tX":917,"tY":625,"tags":{"building":"yes","group_only":"yes","name":"Norval Lodge and House"}},"316599210":{"location":[-37.1077451,142.423232],"ct":"AU","tp":"CS","ts":"2021-06-05T03:07:04Z","tX":917,"tY":625,"tags":{"capacity":"33","capacity:caravan":"11","capacity:tents":"22","caravans":"yes","fee":"yes","name":"Smiths Mill Campground","operator":"Parks Victoria","tents":"yes"}},"595572962":{"location":[-37.1412361,142.5185052],"ct":"AU","tp":"CR","ts":"2013-01-10T00:56:42Z","tX":917,"tY":625,"tags":{"name":"Halls Gap Caravan Park"}},"729925216":{"location":[-37.1299849,142.5400054],"ct":"AU","tp":"CR","ts":"2024-07-14T18:42:55Z","tX":917,"tY":625,"tags":{"name":"Breeze Holiday Parks - Grampians","website":"https://breezeholidayparks.com.au/parks/grampians/"}},"951339115":{"location":[-36.9866721,142.4305921],"ct":"AU","tp":"CS","ts":"2021-06-05T03:05:54Z","tX":917,"tY":625,"tags":{"capacity":"13","capacity:caravan":"6","capacity:tents":"7","caravans":"yes","fee":"yes","name":"Troopers Creek Campground","operator":"Parks Victoria","reservation":"required","tents":"yes"}},"951339147":{"location":[-36.9236747,142.3831477],"ct":"AU","tp":"CS","ts":"2021-06-05T03:05:59Z","tX":917,"tY":625,"tags":{"capacity":"19","capacity:caravan":"6","capacity:tents":"13","caravans":"yes","fee":"yes","name":"Stapylton Campground","operator":"Parks Victoria","reservation":"required","tents":"yes"}},"1245520603":{"location":[-37.0104936,142.6308646],"ct":"AU","tp":"CS","ts":"2024-02-02T12:42:58Z","tX":917,"tY":625,"tags":{"area":"yes","caravans":"yes","fee":"no","name":"Diggers Rest 4 Camping","operator":"GWMWater","static_caravans":"yes","tents":"yes"}},"1245520604":{"location":[-37.010338,142.6281135],"ct":"AU","tp":"CS","ts":"2024-02-04T01:22:05Z","tX":917,"tY":625,"tags":{"area":"yes","caravans":"yes","fee":"no","name":"Diggers Rest 3 Camping","operator":"GWMWater","static_caravans":"yes","tents":"yes"}},"1245520606":{"location":[-37.0106545,142.6349506],"ct":"AU","tp":"CS","ts":"2024-02-04T01:22:05Z","tX":917,"tY":625,"tags":{"area":"yes","caravans":"yes","fee":"no","name":"Tysers Camping","operator":"GWMWater","static_caravans":"yes","tents":"yes"}},"1245520607":{"location":[-37.0078879,142.6261296],"ct":"AU","tp":"CS","ts":"2024-02-04T01:22:05Z","tX":917,"tY":625,"tags":{"area":"yes","caravans":"yes","fee":"no","name":"Diggers Rest 2 Camping","operator":"GWMWater","static_caravans":"yes","tents":"yes"}},"1245520608":{"location":[-37.0080607,142.6241894],"ct":"AU","tp":"CS","ts":"2024-02-02T12:42:58Z","tX":917,"tY":625,"tags":{"area":"yes","caravans":"yes","fee":"no","name":"Diggers Rest 1 Camping","operator":"GWMWater","static_caravans":"yes","tents":"yes"}},"1246029314":{"location":[-37.009423,142.6196724],"ct":"AU","tp":"CS","ts":"2024-02-04T11:14:19Z","tX":917,"tY":625,"tags":{"area":"yes","caravans":"yes","fee":"no","name":"Flat Rock 2 Camping","operator":"GWMWater","static_caravans":"yes","tents":"yes"}},"1246031007":{"location":[-37.0079277,142.6173223],"ct":"AU","tp":"CS","ts":"2024-02-04T11:22:12Z","tX":917,"tY":625,"tags":{"area":"yes","caravans":"yes","fee":"no","name":"Flat Rock 1 Camping","operator":"GWMWater","static_caravans":"yes","tents":"yes"}},"1246031008":{"location":[-37.0083966,142.6116141],"ct":"AU","tp":"CS","ts":"2024-02-04T11:22:12Z","tX":917,"tY":625,"tags":{"area":"yes","caravans":"yes","fee":"no","name":"North Boat Ramp Camping","operator":"GWMWater","static_caravans":"yes","tents":"yes"}},"1246032226":{"location":[-37.0098633,142.6064449],"ct":"AU","tp":"CS","ts":"2024-02-04T11:30:59Z","tX":917,"tY":625,"tags":{"area":"yes","caravans":"yes","fee":"no","name":"Elliotts Camping","operator":"GWMWater","static_caravans":"yes","tents":"yes"}},"1251545762":{"location":[-37.0603457,142.5401312],"ct":"AU","tp":"CS","ts":"2024-02-17T10:20:59Z","tX":917,"tY":625,"tags":{}},"1251545763":{"location":[-37.0614323,142.5407597],"ct":"AU","tp":"CS","ts":"2024-02-17T10:20:59Z","tX":917,"tY":625,"tags":{}},"1251553943":{"location":[-37.0590013,142.5157617],"ct":"AU","tp":"CS","ts":"2024-02-17T11:35:20Z","tX":917,"tY":625,"tags":{"access":"yes","caravans":"yes","fee":"no","name":"Plantation Campground","operator":"Parks Victoria","static_caravans":"yes","tents":"yes","wikidata":"Q3365478","wikipedia":"en:Parks Victoria"}},"1808391758":{"location":[-37.0056095,142.7089398],"ct":"AU","tp":"CS","ts":"2024-02-18T09:15:03Z","tX":917,"tY":625,"tags":{"name":"Canadian Gully Bushland Reserve"}},"1808391793":{"location":[-36.95417,142.57917],"ct":"AU","tp":"CS","ts":"2012-07-01T04:20:35Z","tX":917,"tY":625,"tags":{"name":"Dadswells Bridge South Rest Area"}},"2241434690":{"location":[-36.9873136,142.4545826],"ct":"AU","tp":"CS","ts":"2017-09-01T22:45:52Z","tX":917,"tY":625,"tags":{"name":"Mud Creek bush campsite","source":"survey"}},"2241434767":{"location":[-36.9883694,142.4565643],"ct":"AU","tp":"CS","ts":"2021-11-04T06:51:08Z","tX":917,"tY":625,"tags":{"source":"survey"}},"2241434924":{"location":[-37.0018098,142.448239],"ct":"AU","tp":"CS","ts":"2024-02-06T21:18:20Z","tX":917,"tY":625,"tags":{"name":"Gar Hike-in Campground","operator":"Parks Victoria","source":"survey"}},"5365661721":{"location":[-37.1162908,142.5319442],"ct":"AU","tp":"CS","ts":"2019-12-09T23:52:17Z","tX":917,"tY":625,"tags":{"fee":"no","reservation":"no","shower":"no","toilets":"no"}},"6329905987":{"location":[-37.0150536,142.4536719],"ct":"AU","tp":"CS","ts":"2021-06-05T03:11:08Z","tX":917,"tY":625,"tags":{"backcountry":"yes","name":"Longpoint West"}},"8805692240":{"location":[-37.0140781,142.4680987],"ct":"AU","tp":"CS","ts":"2021-06-05T03:04:38Z","tX":917,"tY":625,"tags":{"name":"Longpoint East"}},"9225909984":{"location":[-36.9542041,142.4365159],"ct":"AU","tp":"CS","ts":"2021-11-05T06:35:35Z","tX":917,"tY":625,"tags":{"access":"yes","capacity":"24","fee":"yes","fixme":"Location is closed based on information from parks Vic, needs to be placed more accuratly. Thee is also a toilet, tent platforms and shelter","name":"Barigar Hike-in Campground"}},"9456884544":{"location":[-37.0664166,142.4843171],"ct":"AU","tp":"CS","ts":"2022-05-27T00:27:21Z","tX":917,"tY":625,"tags":{"name":"Werdug Walk-in Campground","power_supply":"yes","reservation":"recommended","shower":"no","toilets":"yes"}},"6334719185":{"location":[-36.9170173,142.5084033],"ct":"AU","tp":"CR","ts":"2019-12-25T06:04:54Z","tX":917,"tY":625,"tags":{"addr:housenumber":"20","addr:postcode":"3385","addr:street":"Krause Road","email":"info@grampiansedgecaravanpark.com.au","name":"Grampians edge caravan park","operator":"Steve & Jen","phone":"+61 3 5359 5241","website":"https://www.grampiansedgecaravanpark.com.au/"}}}