{"10142909":{"location":[46.0166562,-91.9995018],"ct":"US","tp":"CS","ts":"2019-10-12T00:21:33Z","tX":250,"tY":364,"tags":{"addr:city":"Trego","addr:housenumber":"N10884","addr:state":"WI","addr:street":"Hoinville Road","name":"Heartwood Conference Center and Retreat"}},"10162375":{"location":[45.9361866,-91.8861069],"ct":"US","tp":"CS","ts":"2019-10-16T02:25:13Z","tX":250,"tY":364,"tags":{"addr:city":"Trego","addr:housenumber":"N8347","addr:postcode":"54888","addr:state":"WI","addr:street":"Bay Park Road","email":"baypark@bayparkresort.com","fee":"yes","name":"Bay Park Resort & Campground","phone":"715-635-2840","website":"https://www.bayparkresort.com/"}},"11924905":{"location":[45.9095255,-91.8242976],"ct":"US","tp":"CR","ts":"2024-10-09T05:37:34Z","tX":250,"tY":364,"tags":{"addr:city":"Trego","addr:housenumber":"W5665","addr:postcode":"54888","addr:state":"WI","addr:street":"Trego Park Road","charge":"26 USD","drinking_water":"yes","fee":"yes","name":"Trego Town Park","phone":"+1-715-635-6075","power_supply":"yes","toilets":"yes","tourism_1":"camp_site","website":"http://www.washburncounty.org/service/392#"}},"13632003":{"location":[45.9066041,-91.8248997],"ct":"US","tp":"CR","ts":"2022-01-04T04:02:08Z","tX":250,"tY":364,"tags":{"addr:city":"Trego","addr:housenumber":"N7470","addr:postcode":"54888","addr:state":"WI","addr:street":"Log Cabin Drive","fee":"yes","name":"Log Cabin Resort","phone":"+1-715-635-2959","tourism_1":"camp_site","website":"https://www.logcabin-resort.com/"}},"6580763687":{"location":[45.9162327,-91.7652618],"ct":"US","tp":"CS","ts":"2019-07-01T01:29:45Z","tX":250,"tY":364,"tags":{"camp_site":"basic","source":"nps.gov/sacn"}},"6581675745":{"location":[46.0277003,-92.0130647],"ct":"US","tp":"CS","ts":"2019-07-01T13:12:52Z","tX":250,"tY":364,"tags":{"backcountry":"yes"}},"6581694385":{"location":[46.0275949,-92.0112629],"ct":"US","tp":"CS","ts":"2019-07-01T13:13:32Z","tX":250,"tY":364,"tags":{"backcountry":"yes","source":"nps.gov/sacn"}},"6712565795":{"location":[45.9757731,-91.9074905],"ct":"US","tp":"CS","ts":"2020-11-22T16:28:26Z","tX":250,"tY":364,"tags":{"backcountry":"yes","camp_site":"basic"}},"7158986356":{"location":[46.0530568,-91.9254201],"ct":"US","tp":"CS","ts":"2020-09-27T08:42:50Z","tX":250,"tY":364,"tags":{"addr:city":"Chicog","addr:state":"WI","name":"Chicog Town Park Campground","tents":"yes"}},"11149346705":{"location":[46.0569894,-91.9618918],"ct":"US","tp":"CS","ts":"2024-08-22T12:06:24Z","tX":250,"tY":364,"tags":{"addr:city":"Trego","addr:housenumber":"W8234","addr:postcode":"54888","addr:state":"WI","addr:street":"Bald Eagle Drive","caravans":"yes","fee":"yes","name":"Shangri-la Campground","tents":"yes","website":"https://shangrilatrego.com/"}}}