{"11030401":{"location":[45.6229855,-91.832182],"ct":"US","tp":"CS","ts":"2020-05-29T01:20:52Z","tX":250,"tY":365,"tags":{"addr:city":"Rice Lake","addr:housenumber":"2900","addr:postcode":"54868","addr:state":"WI","addr:street":"16th Street","name":"L.E. Phillips Scout Reservation","operator":"Chippewa Valley Council of Boy Scouts of America","website":"https://campphillips.org/"}},"2487459649":{"location":[45.7414129,-91.9231202],"ct":"US","tp":"CS","ts":"2024-10-09T05:37:34Z","tX":250,"tY":365,"tags":{"addr:city":"Shell Lake,","addr:state":"WI","addr:street":"Hwy. 63","capacity":"41","charge":"25 USD","drinking_water":"yes","fee":"yes","name":"Shell Lake Municipal Campground","operator":"Washburn County","phone":"(715) 468-7846","power_supply":"yes","shower":"yes","toilets":"yes"}},"5010361809":{"location":[45.6614678,-91.8728255],"ct":"US","tp":"CS","ts":"2017-08-02T23:23:07Z","tX":250,"tY":365,"tags":{"name":"WhitetailRidge Campground"}},"6542532514":{"location":[45.6008437,-92.0675332],"ct":"US","tp":"CS","ts":"2019-06-12T13:35:53Z","tX":250,"tY":365,"tags":{"camp_site":"basic","drinking_water":"no","name":"Kirby Lake Primitive","toilets":"pitlatrine"}},"7159027283":{"location":[45.6323781,-91.7681007],"ct":"US","tp":"CS","ts":"2024-10-09T05:37:34Z","tX":250,"tY":365,"tags":{"addr:city":"Rice Lake","addr:housenumber":"1876","addr:state":"WI","addr:street":"29 3/4 Avenue","charge":"43 USD","drinking_water":"yes","fee":"yes","internet":"wifi","name":"Northwood Shores","phone":"+1-715-234-1150","power_supply":"yes","reservation":"yes","shower":"yes","swimming_pool":"yes","toilets":"yes","website":"http://www.nwshores.com/"}},"8762837302":{"location":[45.6362447,-91.9909188],"ct":"US","tp":"CS","ts":"2021-05-25T00:57:02Z","tX":250,"tY":365,"tags":{"backcountry":"yes"}}}