{"785105562":{"location":[44.4202794,-92.0038302],"ct":"US","tp":"CR","ts":"2020-03-27T16:46:15Z","tX":250,"tY":370,"tags":{"addr:city":"Nelson","addr:housenumber":"E203","addr:postcode":"54756","addr:state":"WI","addr:street":"Cleveland Street","internet_access":"wlan","name":"Nelson's Landing RV Park","website":"http://nelsonslandingrvpark.com/"}},"994111946":{"location":[44.339855,-92.0742676],"ct":"US","tp":"CS","ts":"2024-11-02T16:23:33Z","tX":250,"tY":370,"tags":{"capacity":"19","charge":"17 USD","drinking_water":"yes","fee":"yes","name":"Richard J. Dorer State Forest- Kruger Campground","operator":"MN State Forest","phone":"+1-651-345-3401","reservation":"no","tents":"yes","toilets":"vault"}},"7144116221":{"location":[44.3535247,-91.9309076],"ct":"US","tp":"CS","ts":"2021-09-07T00:32:42Z","tX":250,"tY":370,"tags":{"capacity":"20","charge":"$20","drinking_water":"yes","name":"Reicks Lake Park Campground","phone":"+1-608-685-3330","power_supply":"yes","reservation":"no","shower":"yes","toilets:type":"flush"}}}