{"13231946":{"location":[43.712889,-92.0331612],"ct":"US","tp":"CS","ts":"2021-09-17T16:47:07Z","tX":250,"tY":373,"tags":{"name":"The Old Barn Resort"}},"590505519":{"location":[43.8041894,-91.7878985],"ct":"US","tp":"CS","ts":"2021-09-07T00:32:42Z","tX":250,"tY":373,"tags":{"addr:city":"rushford village","addr:housenumber":"43293","addr:postcode":"55971","addr:state":"MN","addr:street":"State Rd 16","name":"Trailside Campground","phone":"+1-507-429-5580"}},"1042660696":{"location":[43.6995751,-92.0997778],"ct":"US","tp":"CS","ts":"2022-03-22T14:59:06Z","tX":250,"tY":373,"tags":{"name":"Valleyview Campground"}},"1134826221":{"location":[43.7220589,-91.9654398],"ct":"US","tp":"CR","ts":"2023-01-24T15:00:35Z","tX":250,"tY":373,"tags":{"name":"Highway 250 Campground"}},"1134826232":{"location":[43.7163323,-91.9797207],"ct":"US","tp":"CS","ts":"2023-01-24T15:00:35Z","tX":250,"tY":373,"tags":{"name":"Riverview City Campground"}},"1134826235":{"location":[43.7419126,-91.9393728],"ct":"US","tp":"CR","ts":"2024-09-09T16:07:37Z","tX":250,"tY":373,"tags":{"landuse":"commercial","name":"Eagle Cliff Campground & Lodging"}},"1252731150":{"location":[43.6113527,-91.8474844],"ct":"US","tp":"CS","ts":"2024-02-20T04:40:22Z","tX":250,"tY":373,"tags":{"addr:city":"Canton","addr:housenumber":"40102","addr:postcode":"55922","addr:state":"MN","addr:street":"Camper Lane","name":"Backwoods Campground","phone":"507-743-8568"}},"1437992500":{"location":[43.7174418,-91.9734804],"ct":"US","tp":"CS","ts":"2024-12-01T06:45:16Z","tX":250,"tY":373,"tags":{"capacity":"25","charge":"20 USD/tent; 30 USD/RV","drinking_water":"no","fee":"yes","name":"Sylvan City Park","phone":"+1-507-467-3722","power_supply":"yes","reservation":"no","sanitary_dump_station":"yes","shower":"yes"}},"1897381095":{"location":[43.7164905,-91.979723],"ct":"US","tp":"CS","ts":"2024-12-01T06:45:16Z","tX":250,"tY":373,"tags":{"capacity":"20","charge":"20 USD/tent; 30 USD/RV","drinking_water":"no","fee":"yes","name":"Riverview City Campground","phone":"+1-507-467-3722","power_supply":"yes","reservation":"no","shower":"yes","toilets:disposal":"flush"}},"1897390272":{"location":[43.7103542,-92.060241],"ct":"US","tp":"CS","ts":"2020-10-06T11:11:00Z","tX":250,"tY":373,"tags":{"backcountry":"yes","drinking_water":"yes","name":"Isinours Campsite","toilets":"vault","website":"http://files.dnr.state.mn.us/maps/state_forests/fmu00003.pdf"}},"7148478754":{"location":[43.6724266,-92.0745866],"ct":"US","tp":"CS","ts":"2024-11-02T16:23:33Z","tX":250,"tY":373,"tags":{"charge":"15 USD","drinking_water":"yes","fee":"yes","name":"Fillmore County Fairgrounds Campgrounds","seasonal":"spring-autumn, closed JULY 20-26, 2020","toilets":"yes"}},"7159710945":{"location":[43.8041296,-91.7879004],"ct":"US","tp":"CS","ts":"2020-01-26T03:31:09Z","tX":250,"tY":373,"tags":{"addr:city":"City Of Rushford Village","addr:housenumber":"43293","addr:postcode":"55971","addr:state":"MN","addr:street":"MN-16","capacity":"48","drinking_water":"yes","name":"Trailside Campground","power_supply":"yes","shelter_type":"picnic_shelter","shower":"yes","toilets":"yes"}},"7190655031":{"location":[43.7109009,-92.0580359],"ct":"US","tp":"CS","ts":"2020-10-06T11:11:00Z","tX":250,"tY":373,"tags":{"backcountry":"yes","drinking_water":"yes","name":"Isinours Campsite","toilets":"yes","website":"http://files.dnr.state.mn.us/maps/state_forests/fmu00003.pdf"}},"7190724431":{"location":[43.7220442,-91.9635664],"ct":"US","tp":"CS","ts":"2024-11-02T16:23:33Z","tX":250,"tY":373,"tags":{"addr:city":"Lanesboro","addr:housenumber":"25276","addr:postcode":"55949","addr:state":"MN","addr:street":"Highway 250","capacity":"98","charge":"30 USD","fee":"yes","name":"Highway 250 Campground","power_supply":"yes","reservation":"accepted","sanitary_dump_station":"yes","shower":"yes","toilets":"yes"}},"7190764633":{"location":[43.7445617,-91.9387986],"ct":"US","tp":"CS","ts":"2024-12-01T06:45:16Z","tX":250,"tY":373,"tags":{"addr:city":"Lanesboro","addr:housenumber":"35455","addr:postcode":"55949","addr:state":"MN","addr:street":"State Highway 16","charge":"38 USD","description":"$28- $38","drinking_water":"yes","fee":"yes","name":"Eagle Cliff Campground & Lodging","phone":"+1-507-467-2598","power_supply":"yes","reservation":"yes","sanitary_dump_station":"yes","shower":"yes","toilets":"yes","website":"https://eagle-cliff.com/"}},"7191135933":{"location":[43.7839227,-91.8343113],"ct":"US","tp":"CS","ts":"2024-11-02T16:23:33Z","tX":250,"tY":373,"tags":{"addr:city":"Peterson","addr:housenumber":"330","addr:postcode":"55962","addr:state":"MN","addr:street":"Fillmore Street","capacity":"10","charge":"30 USD","drinking_water":"yes","fee":"yes","name":"Peterson RV Campground","phone":"+1-507-875-2222","power_supply":"yes","toilets":"yes","website":"https://www.petersonmn.com/rv-campground"}},"12070440059":{"location":[43.7120793,-92.0626017],"ct":"US","tp":"CS","ts":"2024-07-23T19:36:38Z","tX":250,"tY":373,"tags":{}}}