{"1206216030":{"location":[42.8991172,-91.7642788],"ct":"US","tp":"CS","ts":"2024-08-26T05:15:41Z","tX":250,"tY":376,"tags":{"capacity":"41","charge":"16 USD","fee":"yes","name":"Lakeview Campground","phone":"563-425-4161","power_supply":"yes","source":"Iowa DNR","toilets":"yes"}},"2473057214":{"location":[43.0089055,-91.956548],"ct":"US","tp":"CS","ts":"2024-08-26T05:15:41Z","tX":250,"tY":376,"tags":{"addr:city":"Hawkeye","addr:state":"IA","capacity":"26","charge":"15 USD","fee":"yes","name":"Gouldsburg County Park Campground","phone":"+1-563-427-5740","power_supply":"yes","shower":"yes","source":"http://fayettecountyiowa.org","tents":"yes","toilets:type":"flush"}},"2473068616":{"location":[42.9959258,-91.7705798],"ct":"US","tp":"CS","ts":"2024-08-26T05:15:41Z","tX":250,"tY":376,"tags":{"addr:city":"West Union","addr:state":"IA","capacity":"8","charge":"8 USD","fee":"yes","name":"Dutton Cave County Park Campground","phone":"+1-563-427-5740","source":"http://fayettecountyiowa.org"}},"2473068852":{"location":[43.0415907,-91.8374526],"ct":"US","tp":"CS","ts":"2024-08-26T05:15:41Z","tX":250,"tY":376,"tags":{"addr:city":"West Union","addr:state":"IA","capacity":"8","charge":"5 USD","fee":"yes","name":"Goeken County Park Campground","phone":"+1-563-427-5740","seasonal":"spring-summer","source":"http://fayettecountyiowa.org","toilets":"vault"}},"3218320581":{"location":[42.8678338,-92.0877658],"ct":"US","tp":"CS","ts":"2024-08-26T05:15:41Z","tX":250,"tY":376,"tags":{"addr:city":"Sumner","addr:state":"IA","capacity":"9","charge":"15 USD","fee":"yes","name":"North Woods Park Campground","reservation":"no","toilets":"yes"}},"7430342542":{"location":[42.9443029,-91.7763938],"ct":"US","tp":"CS","ts":"2024-08-26T05:15:41Z","tX":250,"tY":376,"tags":{"addr:city":"West Union","addr:state":"IA","backcountry":"yes","charge":"5 USD","drinking_water":"no","fee":"yes","name":"Echo Valley Park","toilets":"vault"}},"7430342544":{"location":[42.84325,-91.8174943],"ct":"US","tp":"CS","ts":"2024-08-26T05:15:41Z","tX":250,"tY":376,"tags":{"addr:city":"Fayette","addr:state":"IA","capacity":"20","charge":"10 USD","fee":"yes","name":"Klocks Island City Park Campground","phone":"+1-563-425-4316","power_supply":"yes","shower":"yes","toilets":"yes"}},"7430342545":{"location":[42.8187132,-91.8792173],"ct":"US","tp":"CS","ts":"2020-04-21T14:09:58Z","tX":250,"tY":376,"tags":{"addr:city":"Maynard","addr:state":"IA","drinking_water":"no","fee":"yes","name":"Twin Bridges Park Dispersed Camping","seasonal":"spring-summer","toilets":"vault"}},"12087690884":{"location":[42.8674422,-92.0877595],"ct":"US","tp":"SD","ts":"2024-08-01T18:18:32Z","tX":250,"tY":376,"tags":{}}}