{"3917536789":{"location":[39.4532915,-91.7609931],"ct":"US","tp":"CS","ts":"2015-12-29T23:17:05Z","tX":250,"tY":389,"tags":{}},"5881526283":{"location":[39.5331972,-91.8407406],"ct":"US","tp":"CR","ts":"2019-02-17T11:01:11Z","tX":250,"tY":389,"tags":{"addr:city":"Stoutsville","addr:housenumber":"34430","addr:postcode":"65283","addr:state":"MO","addr:street":"County Road 464","name":"Stoutsville Resort","payment:cash":"yes","payment:mastercard":"yes","payment:visa":"yes","phone":"+1-573-672-3345","website":"https://www.stoutsvilleresortrvpark.com/"}},"12661046249":{"location":[39.4660847,-91.7997362],"ct":"US","tp":"CS","ts":"2025-03-13T22:27:19Z","tX":250,"tY":389,"tags":{"name":"Badger"}},"12661046277":{"location":[39.4665479,-91.8037045],"ct":"US","tp":"CS","ts":"2025-03-13T22:27:19Z","tX":250,"tY":389,"tags":{"name":"Coyotte"}},"12661046289":{"location":[39.4660734,-91.806046],"ct":"US","tp":"CS","ts":"2025-03-13T22:27:19Z","tX":250,"tY":389,"tags":{"name":"Puma"}},"12661046327":{"location":[39.4673753,-91.8102895],"ct":"US","tp":"CS","ts":"2025-03-13T22:27:19Z","tX":250,"tY":389,"tags":{"name":"Scout Area"}},"12661046247":{"location":[39.4664773,-91.7997171],"ct":"US","tp":"SD","ts":"2025-03-13T22:27:19Z","tX":250,"tY":389,"tags":{}}}