{"480024190":{"location":[37.8928326,-92.0386888],"ct":"US","tp":"CS","ts":"2017-03-12T13:36:46Z","tX":250,"tY":395,"tags":{"name":"Boiling Springs Camp Groung"}},"734623729":{"location":[37.8191534,-91.7791771],"ct":"US","tp":"CS","ts":"2019-10-14T22:16:47Z","tX":250,"tY":395,"tags":{"addr:city":"Rolla","addr:housenumber":"11305","addr:postcode":"65401","addr:state":"MO","addr:street":"Private Drive 5316","name":"Camp David of the Ozarks","operator":"Camp David of the Ozarks Inc","website":"https://campdavidozarks.org/"}},"1116093860":{"location":[37.9462811,-91.8674881],"ct":"US","tp":"CS","ts":"2022-11-21T20:23:30Z","tX":250,"tY":395,"tags":{}},"6753426194":{"location":[37.8460643,-92.0596764],"ct":"US","tp":"CS","ts":"2019-08-30T08:02:22Z","tX":250,"tY":395,"tags":{"name":"Devils Elbow Campground","phone":"+15738554733","shower":"no","toilets":"yes","washing_machine":"no"}},"12727162302":{"location":[37.7974608,-91.8366869],"ct":"US","tp":"CS","ts":"2025-04-04T02:55:01Z","tX":250,"tY":395,"tags":{"name":"Lane Springs","operator":"Mark Twain National Forest"}}}