{"457853003":{"location":[35.1429815,-106.3683188],"ct":"US","tp":"CR","ts":"2023-10-24T13:23:17Z","tX":209,"tY":405,"tags":{"addr:city":"Cedar Crest","addr:housenumber":"22","addr:postcode":"87008","addr:state":"NM","addr:street":"Cavalry Road","email":"turquoisetrailrv@gmail.com","internet_access":"yes","internet_access:fee":"no","name":"Turquoise Trail Campground","phone":"+1 505 281 2005","tents":"yes","website":"https://turquoisetrailcampground.com/"}},"568612162":{"location":[35.0732906,-106.5084947],"ct":"US","tp":"CS","ts":"2018-03-11T05:33:02Z","tX":209,"tY":405,"tags":{"addr:city":"Albuquerque","addr:housenumber":"12400","addr:postcode":"87123","addr:state":"NM","addr:street":"Skyline Road Northeast","internet_access":"wlan","name":"Albuquerque KOA Journey"}},"996668995":{"location":[35.0590639,-106.1831662],"ct":"US","tp":"CR","ts":"2023-11-26T03:21:55Z","tX":209,"tY":405,"tags":{"addr:city":"Edgewood","addr:housenumber":"1981","addr:postcode":"87015","addr:state":"NM","addr:street":"Old Route 66","name":"Route 66 RV Park"}},"1009325396":{"location":[35.0998806,-106.3514125],"ct":"US","tp":"CR","ts":"2021-12-05T15:59:59Z","tX":209,"tY":405,"tags":{"name":"Leisure Mountain RV Park","residential":"trailer_park"}},"1123449480":{"location":[35.1043718,-106.3367202],"ct":"US","tp":"CR","ts":"2022-12-19T21:36:12Z","tX":209,"tY":405,"tags":{}},"1123449481":{"location":[35.1056249,-106.3365177],"ct":"US","tp":"CR","ts":"2022-12-19T21:36:12Z","tX":209,"tY":405,"tags":{}},"2332493698":{"location":[35.047206,-106.354495],"ct":"US","tp":"CS","ts":"2013-06-05T00:02:04Z","tX":209,"tY":405,"tags":{"name":"Cedro Peak Group Campground","operator":"USFS","source":"www.fs.usda.gov","uuid":"sonora_20130605"}},"3257134936":{"location":[35.0471291,-106.3503106],"ct":"US","tp":"CS","ts":"2019-12-30T22:46:22Z","tX":209,"tY":405,"tags":{"name":"Cedro Group Campground","source":"survey;gps"}},"4694290152":{"location":[35.1701347,-106.3674575],"ct":"US","tp":"CS","ts":"2017-02-19T22:07:57Z","tX":209,"tY":405,"tags":{"access":"private","fee":"yes","internet_access":"no","internet_access:fee":"no","name":"Campbell Scout Ranch","operator":"Boy Scouts of America"}},"6372984158":{"location":[35.0331156,-106.326785],"ct":"US","tp":"CS","ts":"2019-03-30T20:41:47Z","tX":209,"tY":405,"tags":{"camp_site":"basic","description":"Primitive campsite with no amenities","source":"GPS"}},"12160956791":{"location":[34.9710384,-106.3180966],"ct":"US","tp":"CS","ts":"2024-09-08T16:58:33Z","tX":209,"tY":405,"tags":{"access":"private","name":"Albuquerque Elks Refuge"}}}