{"46585583":{"location":[62.6439336,17.974201],"ct":"SE","tp":"CS","ts":"2022-12-31T03:04:02Z","tX":563,"tY":281,"tags":{"addr:city":"Härnösand","addr:country":"SE","addr:housenumber":"22","addr:postcode":"871 33","addr:street":"Sälsten","fee":"yes","group_only":"no","name":"Sälstens camping","phone":"+46 611 181 50","shower":"yes","toilets":"yes","website":"https://salstenscamping.se"}},"1154482197":{"location":[62.6375034,17.937094],"ct":"SE","tp":"CS","ts":"2023-03-15T11:05:04Z","tX":563,"tY":281,"tags":{"capacity:caravans":"10","caravans":"yes","charge":"200 SEK/day","fee":"yes","operator":"Härnösands bilmuseum","payment:swish":"yes","static_caravans":"no","tents":"no","website":"https://harnosandsbilmuseum.se/stallplatser/"}},"8972631914":{"location":[62.6371576,17.9393381],"ct":"SE","tp":"SD","ts":"2021-08-01T18:52:53Z","tX":563,"tY":281,"tags":{"access":"yes","fee":"no","name":"Septiktömningsstation","operator":"Härnösands Kommun","sanitary_dump_station:pump-out":"yes","website":"https://www.harnosand.se/kultur--fritid/skargard/batmack-och-battvatt.html"}}}