{"100295844":{"location":[54.8313338,18.1920367],"ct":"PL","tp":"CS","ts":"2020-07-28T20:23:21Z","tX":563,"tY":324,"tags":{"barrier":"fence"}},"108430053":{"location":[54.8281136,18.0786425],"ct":"PL","tp":"CS","ts":"2021-04-29T16:19:51Z","tX":563,"tY":324,"tags":{"fax":"+48606746002","name":"Kaszub","phone":"+48510400405","website":"http://camping-kaszub.com.pl/"}},"109464605":{"location":[54.8288217,18.0691485],"ct":"PL","tp":"CS","ts":"2023-04-30T08:11:16Z","tX":563,"tY":324,"tags":{"caravans":"yes","email":"biuro@debki.pl.pl","name":"Pole namiotowe \"Leśne\"","phone":"+48 665 016 800; +48 605 206 445; +48 605 207 063","shower":"yes","tents":"yes","toilets":"yes","website":"http://debki.pl.pl/"}},"112263415":{"location":[54.8283604,18.0909352],"ct":"PL","tp":"CS","ts":"2023-04-30T08:11:16Z","tX":563,"tY":324,"tags":{"addr:city":"Dębki","addr:city:simc":"0165391","addr:housenumber":"13","addr:postcode":"84-110","addr:street":"Spacerowa","addr:street:sym_ul":"20641","fax":"+48 502 547 306","name":"Camping Rodzinny Laguna","phone":"+48 502 547 306","source:addr":"krokowa.e-mapa.net"}},"298591051":{"location":[54.8155343,17.9506772],"ct":"PL","tp":"CS","ts":"2024-12-04T16:38:01Z","tX":563,"tY":324,"tags":{"addr:city":"Białogóra","addr:housenumber":"8","addr:postcode":"84-113","addr:street":"Lubiatowska","capacity:persons":"250","caravans":"yes","check_date":"2024-07-31","email":"bialogora@kpkspzoo.pl","fee":"yes","name":"Kaszubski Zakątek","operator":"Krokowskie Przedsiębiorstwo Komunalne","phone":"+48587741410","stars":"2","tents":"yes","tourism_1":"caravan_site","website":"https://kaszubski-zakatek.pl/"}},"353250872":{"location":[54.8302655,18.2266788],"ct":"PL","tp":"CS","ts":"2015-06-12T16:19:13Z","tX":563,"tY":324,"tags":{"landuse":"recreation_ground"}},"427979410":{"location":[54.8278541,18.0947962],"ct":"PL","tp":"CS","ts":"2021-08-09T11:19:30Z","tX":563,"tY":324,"tags":{"addr:city":"Dębki","addr:housenumber":"3a","addr:postcode":"84-110","addr:street":"Spacerowa","fee":"yes","name":"Camping Berszowisko","phone":"+48 58 673 70 24"}},"1276456025":{"location":[54.8277383,18.0933444],"ct":"PL","tp":"CS","ts":"2011-05-07T21:57:48Z","tX":563,"tY":324,"tags":{"name":"u Wacka"}},"1276456029":{"location":[54.8290689,18.0868883],"ct":"PL","tp":"CS","ts":"2011-05-07T21:57:49Z","tX":563,"tY":324,"tags":{"name":"Słoneczne"}},"1336652285":{"location":[54.8172824,17.9551338],"ct":"PL","tp":"CS","ts":"2024-12-04T16:38:01Z","tX":563,"tY":324,"tags":{"landuse":"grass","name":"Relaks"}},"1336652287":{"location":[54.8177583,17.9556976],"ct":"PL","tp":"CS","ts":"2024-12-02T18:33:43Z","tX":563,"tY":324,"tags":{"name":"Bryza"}},"1336815215":{"location":[54.8162857,17.9660655],"ct":"PL","tp":"CS","ts":"2024-11-23T20:46:18Z","tX":563,"tY":324,"tags":{"name":"HEEP"}},"1336815250":{"location":[54.8215098,17.9825727],"ct":"PL","tp":"CS","ts":"2024-11-22T12:01:39Z","tX":563,"tY":324,"tags":{"name":"Pole namiotowe Rezydencji Wilków Morskich"}},"1339945669":{"location":[54.8137818,17.9528526],"ct":"PL","tp":"CS","ts":"2024-12-03T22:07:16Z","tX":563,"tY":324,"tags":{"name":"Baza Hufca Karkonoskiego ZHP w Białogórze"}},"3431757157":{"location":[54.8198375,17.9522205],"ct":"PL","tp":"CS","ts":"2024-12-02T18:33:43Z","tX":563,"tY":324,"tags":{}},"3707833840":{"location":[54.8173862,17.955718],"ct":"PL","tp":"CS","ts":"2015-08-21T11:10:11Z","tX":563,"tY":324,"tags":{"name":"Relaks"}},"3707833841":{"location":[54.8176644,17.9556107],"ct":"PL","tp":"CS","ts":"2015-08-21T11:10:11Z","tX":563,"tY":324,"tags":{"name":"Bryza"}},"4338112649":{"location":[54.821201,17.9825918],"ct":"PL","tp":"CS","ts":"2022-01-08T13:23:26Z","tX":563,"tY":324,"tags":{"name":"Camping Mysliwski","operator":"Mysliwska"}},"5029154538":{"location":[54.8164118,17.9656698],"ct":"PL","tp":"CS","ts":"2017-08-11T17:04:58Z","tX":563,"tY":324,"tags":{"name":"Pole namiotowe Heep"}},"7684994761":{"location":[54.8127433,17.9546251],"ct":"PL","tp":"CS","ts":"2020-07-07T09:52:15Z","tX":563,"tY":324,"tags":{"addr:city":"Białogóra","addr:city:simc":"0164960","addr:housenumber":"5","addr:postcode":"84-113","addr:street":"Księdza Prałata Doktora Hilarego Jastaka","addr:street:sym_ul":"34439","cabins":"yes","caravans":"no","fee":"yes","name":"Domki Bosman","reservation":"required","source:addr":"survey","tents":"no","website":"http://www.bialogora-domki.pl/","wheelchair":"no"}},"12153466754":{"location":[54.8286244,18.2266108],"ct":"PL","tp":"CS","ts":"2024-09-03T10:51:02Z","tX":563,"tY":324,"tags":{"email":"pole-relaks@wp.pl","name":"Pole Namiotowe Relaks","phone":"+48692036526"}},"12365240119":{"location":[54.8189324,17.9557976],"ct":"PL","tp":"CS","ts":"2024-12-02T13:33:24Z","tX":563,"tY":324,"tags":{"name":"Kamperowisko"}}}