{"438798376":{"location":[53.8450325,18.0909289],"ct":"PL","tp":"CS","ts":"2017-10-01T11:12:02Z","tX":563,"tY":329,"tags":{"name":"Camping \"Pod Świerkami\""}},"631532668":{"location":[53.9357182,17.9416795],"ct":"PL","tp":"CS","ts":"2018-10-07T10:00:45Z","tX":563,"tY":329,"tags":{}},"633500980":{"location":[53.8854459,18.0979586],"ct":"PL","tp":"CS","ts":"2022-08-02T11:42:17Z","tX":563,"tY":329,"tags":{"addr:city:simc":"0162369","addr:housenumber":"4","addr:place":"Leśna Huta","addr:postcode":"83-262","name":"Leśna Stacja","operator":"Hufiec ZHP Sopot","source:addr":"gugik.gov.pl"}},"643079053":{"location":[53.8437653,18.2418457],"ct":"PL","tp":"CS","ts":"2018-11-11T12:00:22Z","tX":563,"tY":329,"tags":{"name":"Kamping Czarne","name:en":"Camping Czarne"}},"646585142":{"location":[53.8273186,18.1792429],"ct":"PL","tp":"CS","ts":"2022-11-17T17:22:51Z","tX":563,"tY":329,"tags":{"addr:city":"Czarna Woda","addr:country":"PL","addr:housenumber":"51","addr:place":"Klaniny","addr:postcode":"83-262","caravans":"yes","contact:email":"info@campingwyzwanie.com","contact:mobile":"+48 608 284 993; +48 604 555 191 ; +48 660 721 700","contact:website":"https://campingwyzwanie.com/","internet_access":"wlan","name":"Camping Wyzwanie","nudism":"no","reservation":"recommended","source":"http://campingwyzwanie.com/kontakt/","tents":"yes"}},"1088545636":{"location":[53.9415099,17.9338319],"ct":"PL","tp":"CS","ts":"2024-02-10T09:52:56Z","tX":563,"tY":329,"tags":{"addr:city":"Borsk"}},"1088599943":{"location":[53.8275223,18.1279385],"ct":"PL","tp":"CS","ts":"2024-07-29T05:29:19Z","tX":563,"tY":329,"tags":{"name":"Hydrostacja kemping","website":"https://www.kajaki.hydrostacja.pl/"}},"1088613525":{"location":[53.8628577,18.2652823],"ct":"PL","tp":"CS","ts":"2022-08-23T20:56:49Z","tX":563,"tY":329,"tags":{"name":"Dziki Brzeg","website":"https://www.dzikibrzeg.pl/"}},"1304595360":{"location":[53.8404456,18.0958146],"ct":"PL","tp":"CS","ts":"2024-07-30T07:42:57Z","tX":563,"tY":329,"tags":{"fee":"yes","name":"Kajaki Sękowski","operator":"Kajaki Sękowski","phone":"+48 501 057 550","tents":"yes","website":"https://kajakisekowski.pl/"}},"4360323390":{"location":[53.8306211,18.1057783],"ct":"PL","tp":"CS","ts":"2016-08-27T08:18:52Z","tX":563,"tY":329,"tags":{"capacity":"10 Zelte","description":"Naturplatz direkt am Wasser mit Toilette. Adam, der Besitzer, spricht leider kein deutsch, ist aber sehr gern behilflich und macht vieles möglich. Regenschutz vorhanden.","name":"Zle Mieso","name:de":"Schlechtes Fleisch","name:pl":"Zle Mieso","operator":"Adam Chabowski"}}}