{"439648951":{"location":[53.4253083,17.9322674],"ct":"PL","tp":"CS","ts":"2020-08-17T22:52:32Z","tX":563,"tY":331,"tags":{"barrier":"fence","leisure":"resort","name":"Stanica Wodna PTTK Sokole Kuźnica"}},"441404799":{"location":[53.3955671,17.9643644],"ct":"PL","tp":"CS","ts":"2024-09-20T09:12:02Z","tX":563,"tY":331,"tags":{"addr:housenumber":"69A","addr:place":"Sucha","addr:postcode":"89-525","barrier":"fence","name":"Ośrodek Wczasowy „Wrzos” w Wielonku","phone":"+48 785 444 719","resort":"guest_house","website":"https://wielonek.eu/"}},"441429573":{"location":[53.4105532,17.9463793],"ct":"PL","tp":"CS","ts":"2022-05-18T10:14:46Z","tX":563,"tY":331,"tags":{}},"441432652":{"location":[53.3927638,17.9657967],"ct":"PL","tp":"CS","ts":"2022-05-18T10:14:46Z","tX":563,"tY":331,"tags":{"name":"Ośrodek Wypoczynkowy Formet"}},"447476010":{"location":[53.4232353,17.9328427],"ct":"PL","tp":"CS","ts":"2016-10-13T13:24:30Z","tX":563,"tY":331,"tags":{}},"448153275":{"location":[53.4183091,17.9315436],"ct":"PL","tp":"CS","ts":"2023-09-15T11:03:30Z","tX":563,"tY":331,"tags":{"access":"permissive","camp_site":"basic","fee":"no","operator":"Lasy Państwoe","tents":"yes"}},"448155223":{"location":[53.4154138,17.9317466],"ct":"PL","tp":"CS","ts":"2022-10-26T19:12:35Z","tX":563,"tY":331,"tags":{}},"448155235":{"location":[53.411432,17.9366278],"ct":"PL","tp":"CS","ts":"2022-10-26T19:12:35Z","tX":563,"tY":331,"tags":{}},"448157374":{"location":[53.4135121,17.9444115],"ct":"PL","tp":"CS","ts":"2022-10-26T19:12:35Z","tX":563,"tY":331,"tags":{}},"448324657":{"location":[53.3502124,17.9660025],"ct":"PL","tp":"CS","ts":"2017-04-15T02:23:59Z","tX":563,"tY":331,"tags":{}},"449494697":{"location":[53.3544372,18.0084684],"ct":"PL","tp":"CS","ts":"2024-04-15T06:43:52Z","tX":563,"tY":331,"tags":{"name":"Ośrodek Wypoczynkowy Kręgiel","website":"http://www.kregiel.pl/"}},"1060045938":{"location":[53.3531955,17.9620842],"ct":"PL","tp":"CS","ts":"2022-05-18T10:02:35Z","tX":563,"tY":331,"tags":{"addr:city":"Koronowo","addr:housenumber":"1","addr:postcode":"86-010","addr:street":"Tylna Góra","email":"rezerwacja@nadzatoka.net","name":"Ośrodek Wypoczynkowy Nad Zatoką","phone":"+48735438776","website":"https://www.facebook.com/nadzatokakoronowo/"}},"1063606687":{"location":[53.5076512,17.9903682],"ct":"PL","tp":"CS","ts":"2022-05-25T12:28:39Z","tX":563,"tY":331,"tags":{"barrier":"fence"}},"1188577178":{"location":[53.4247737,18.090886],"ct":"PL","tp":"CR","ts":"2023-07-10T05:42:04Z","tX":563,"tY":331,"tags":{}},"1845175598":{"location":[53.4249586,17.9321965],"ct":"PL","tp":"CR","ts":"2012-07-31T11:16:15Z","tX":563,"tY":331,"tags":{}}}