{"3120722":{"location":[47.7230517,18.1462601],"ct":"HU","tp":"CS","ts":"2024-04-29T21:01:43Z","tX":563,"tY":357,"tags":{"addr:city":"Komárom","addr:housenumber":"24","addr:postcode":"2921","addr:street":"Puskaporosi út","addr:suburb":"Szőny","contact:fax":"+36 34 347 236","email":"wf.park@t-online.hu","landuse":"recreation_ground","leisure":"water_park","name":"WF - Szabadidőpark","phone":"+36 34 347 235;+36 30 664 9227","source":"turistautak.hu","source:date":"2015-01-30","url":"http://turistautak.hu/poi.php?id=15153","website":"https://wfpark.hu/"}},"11657640":{"location":[47.7435682,18.1332209],"ct":"HU","tp":"CS","ts":"2023-07-10T10:14:42Z","tX":563,"tY":357,"tags":{"caravans":"yes","fee":"yes","name":"Thermál Hotel ** & Camping***","payment:cash":"yes","payment:credit_cards":"yes","shower":"yes","tents":"yes","toilets":"yes","website":"http://www.komthermal.hu/home/"}},"508269084":{"location":[47.7237922,18.0392493],"ct":"HU","tp":"CS","ts":"2017-07-17T20:10:31Z","tX":563,"tY":357,"tags":{}},"1310885335":{"location":[47.7536562,18.0678608],"ct":"HU","tp":"CS","ts":"2024-08-24T16:59:07Z","tX":563,"tY":357,"tags":{"name":"Kajak-kenu pont Komárom"}},"1373749670":{"location":[47.7438355,18.1311269],"ct":"HU","tp":"CS","ts":"2023-07-10T10:14:42Z","tX":563,"tY":357,"tags":{"caravans":"yes","name":"Solaris Kemping és Üdülőházak","tents":"yes","website":"http://www.komthermal.hu/szallas/solaris-kemping-es-udulohazak"}},"3471787653":{"location":[47.748317,18.02382],"ct":"HU","tp":"CS","ts":"2015-04-22T18:47:24Z","tX":563,"tY":357,"tags":{"name":"Fenyves Tábor","source":"turistautak.hu","source:date":"2015-01-30","url":"http://turistautak.hu/poi.php?id=54807"}},"3471787675":{"location":[47.723067,18.0396],"ct":"HU","tp":"CS","ts":"2017-07-17T20:10:31Z","tX":563,"tY":357,"tags":{"addr:city":"Ács","addr:postcode":"2941","addr:street":"Országos 1-es főút 93,5 km","name":"Natura Kemping","phone":"+36 30 946 7361","source":"turistautak.hu","source:date":"2015-01-30","url":"http://turistautak.hu/poi.php?id=15016"}},"3471787678":{"location":[47.6749299,18.2057705],"ct":"HU","tp":"CS","ts":"2020-05-12T21:34:27Z","tX":563,"tY":357,"tags":{"addr:postcode":"2911","addr:street":"Kavicsbányatavak","name":"Oázis Szabadidőpark","phone":"+36 20 942 4894","source":"turistautak.hu","source:date":"2015-01-30","url":"http://turistautak.hu/poi.php?id=15171"}}}