{"2262305":{"location":[46.9758667,17.9574123],"ct":"HU","tp":"CS","ts":"2024-10-23T03:26:05Z","tX":563,"tY":360,"tags":{"addr:city":"Alsóörs","addr:housenumber":"19","addr:postcode":"8226","addr:street":"Camping utca","contact:email":"info@pelsocamping.hu","contact:facebook":"pelsocamping","contact:phone":"+36 20 667 3576","contact:website":"https://pelsocamping.hu/","fee":"yes","landuse":"recreation_ground","name":"Pelso Camping","note":"A campingnek Alsóörs és Palóznak területén is van része","operator":"Pelso Camping Kft."}},"2998141":{"location":[46.987038,17.9850603],"ct":"HU","tp":"CS","ts":"2016-01-26T14:29:53Z","tX":563,"tY":360,"tags":{"addr:city":"Alsóörs","addr:housenumber":"22","addr:postcode":"8226","addr:street":"Strand sétány","name":"Riviéra Kemping"}},"172395845":{"location":[46.9925085,17.9853011],"ct":"HU","tp":"CS","ts":"2022-11-07T10:15:38Z","tX":563,"tY":360,"tags":{"caravans":"yes","drinking_water":"yes","name":"Csendes Kemping","power_supply":"yes","shower":"yes","tents":"yes","toilets":"yes"}},"216656913":{"location":[47.0205775,18.0091744],"ct":"HU","tp":"CS","ts":"2021-08-01T20:45:25Z","tX":563,"tY":360,"tags":{"addr:city":"Balatonalmádi","addr:housenumber":"18","addr:postcode":"8220","addr:street":"Véghely Dezső utca","contact:email":"info@yachtcamping.hu","contact:phone":"+36 88 584 101","contact:website":"https://yachtcamping.hu","name":"Yacht Camping","stars":"4"}},"293037430":{"location":[46.9289038,18.1047187],"ct":"HU","tp":"CS","ts":"2020-06-28T17:58:55Z","tX":563,"tY":360,"tags":{"caravans":"yes","name":"Aranypart Üdülőfalu és Kemping","opening_hours":"Apr 18-Sep 14","tents":"yes","wheelchair":"limited"}},"678832518":{"location":[47.0083181,17.9971625],"ct":"HU","tp":"CS","ts":"2023-04-30T10:07:52Z","tX":563,"tY":360,"tags":{"addr:city":"Balatonalmádi","addr:housenumber":"3","addr:postcode":"8220","addr:street":"Somfa utca","addr:suburb":"Káptalanfüred","barrier":"fence","contact:email":"kaptalanfured@gesz.kispest.hu","contact:phone":"+36 30 309 6577","contact:website":"https://kaptalanfured.kispest.hu/","name":"Káptalanfüredi Üdülőtábor","official_name":"Budapest Főváros XIX. kerület Kispesti Önkormányzata Káptalafüredi Ifjúsági tábor","operator":"Budapest Főváros XIX. kerület Kispest Önkormányzat Gazdasági Ellátó Szervezet"}},"694785303":{"location":[47.0336472,18.0908204],"ct":"HU","tp":"CS","ts":"2023-06-13T06:52:21Z","tX":563,"tY":360,"tags":{"addr:city":"Balatonkenese","addr:housenumber":"138","addr:postcode":"8174","addr:street":"Kikötő utca","name":"Honvéd Kemping"}},"1138047611":{"location":[46.9365731,18.1334222],"ct":"HU","tp":"CS","ts":"2023-02-05T14:19:19Z","tX":563,"tY":360,"tags":{"group_only":"yes","source":"microsoft/BuildingFootprints"}},"1201540115":{"location":[46.9785402,17.9481503],"ct":"HU","tp":"CS","ts":"2023-08-23T20:24:18Z","tX":563,"tY":360,"tags":{"name":"Mágustanya"}},"3458341633":{"location":[46.983783,17.932517],"ct":"HU","tp":"CS","ts":"2023-11-16T17:57:24Z","tX":563,"tY":360,"tags":{"addr:city":"Paloznak","addr:housenumber":"5","addr:postcode":"8229","addr:street":"Görbe utca","contact:fax":"+36 87 446 830","email":"mandelcamping@t-online.hu","name":"Mandel Camping","phone":"+36 87 446 830;+36 20 342 0305","source":"turistautak.hu","source:date":"2008-02-12","url":"http://turistautak.hu/poi.php?id=15185","website":"https://www.mandelcamping.hu/"}},"4833449771":{"location":[46.9743143,17.9387275],"ct":"HU","tp":"CS","ts":"2023-11-16T17:57:24Z","tX":563,"tY":360,"tags":{"addr:city":"Csopak","addr:housenumber":"9","addr:postcode":"8229","addr:street":"Sport utca","capacity":"50","caravans":"yes","contact:fax":"+36 87 799 108","drinking_water":"yes","email":"udulofalu@csopak.hu","fee":"yes","internet_access":"wlan","internet_access:fee":"yes","name":"Csopaki Üdülőfalu és Kemping","operator":"Csopak Község Önkormányzata","phone":"+36 20 240 3894","power_supply":"yes","shower":"yes","tents":"yes","website":"http://csopakiudulofalu.hu/"}},"9905894847":{"location":[46.9386116,18.1301198],"ct":"HU","tp":"CS","ts":"2022-07-24T05:29:23Z","tX":563,"tY":360,"tags":{"caravans":"yes","drinking_water":"yes","internet_access":"wlan","name":"Siocamping","power_supply":"yes","shower":"yes","tents":"yes","wheelchair":"yes"}},"11113351961":{"location":[46.8899791,17.9708822],"ct":"HU","tp":"CS","ts":"2023-08-14T06:58:37Z","tX":563,"tY":360,"tags":{"name":"Camping"}},"11062890404":{"location":[46.8275693,18.1003375],"ct":"HU","tp":"SD","ts":"2023-07-23T08:48:32Z","tX":563,"tY":360,"tags":{"name":"4.sz. Szennyvízátemelő Ságvár","operator":"DRV"}}}