{"26861240":{"location":[46.4031503,18.1722235],"ct":"HU","tp":"CS","ts":"2015-03-04T09:20:50Z","tX":563,"tY":362,"tags":{"name":"Bad Gunaras"}},"354312274":{"location":[46.5444203,17.9447907],"ct":"HU","tp":"CS","ts":"2024-11-03T15:35:59Z","tX":563,"tY":362,"tags":{"name":"bezárt, eladó"}},"362862829":{"location":[46.5423742,17.9435631],"ct":"HU","tp":"CS","ts":"2023-11-16T17:57:24Z","tX":563,"tY":362,"tags":{"addr:city":"Igal","addr:housenumber":"1","addr:postcode":"7275","addr:street":"Acsai utca","contact:fax":"+36 82 372 025","email":"info@hoforrascamping.hu","name":"Hőforrás Kemping és Ifjúsági szálló","phone":"+36 82 372 025","source":"turistautak.hu","source:date":"2013-07-16","url":"http://turistautak.hu/poi.php?id=15784","website":"http://www.hoforrascamping.hu"}},"3485110198":{"location":[46.404633,18.169283],"ct":"HU","tp":"CS","ts":"2023-11-16T17:57:24Z","tX":563,"tY":362,"tags":{"addr:city":"Dombóvár","addr:housenumber":"5","addr:postcode":"7200","addr:street":"Tó utca","contact:fax":"+36 74 465 523","name":"Gunarasi Castrum Gyógykemping","phone":"+36 74 465 523","source":"turistautak.hu","source:date":"2013-08-02","url":"http://turistautak.hu/poi.php?id=15081","website":"http://www.castrum-group.hu"}}}