{"7070968":{"location":[46.1374749,18.1186629],"ct":"HU","tp":"CS","ts":"2023-12-21T21:10:58Z","tX":563,"tY":363,"tags":{"access":"yes","addr:city":"Abaliget","addr:housenumber":"187","addr:postcode":"7678","addr:street":"Üdülőterület","capacity:persons":"200","caravans":"yes","email":"onkormanyzat@abaliget.hu","name":"Autós kemping","operator":"Abaliget Önkormányzat","phone":"+3672598001","static_caravans":"yes","tents":"yes"}},"7070969":{"location":[46.1452472,18.136168],"ct":"HU","tp":"CS","ts":"2024-05-29T14:32:40Z","tX":563,"tY":363,"tags":{"caravans":"yes","contact:facebook":"https://www.facebook.com/PanoramaCampingOrfu","email":"info@panoramacamping.hu","name":"Panoráma Kemping","phone":"+36 20 341 1954","reservation":"recommended","tents":"yes","website":"http://www.panoramacamping.hu/"}},"14159422":{"location":[46.1823079,18.2200165],"ct":"HU","tp":"CS","ts":"2022-05-19T12:14:51Z","tX":563,"tY":363,"tags":{"name":"\"Vakáció\" KFT Ifjúsági és gyermektábor"}},"14159423":{"location":[46.1831462,18.2209862],"ct":"HU","tp":"CS","ts":"2022-05-19T12:14:51Z","tX":563,"tY":363,"tags":{"name":"Sikondai Gyermektábor"}},"623032799":{"location":[46.2018378,18.1095909],"ct":"HU","tp":"CS","ts":"2022-11-04T21:55:20Z","tX":563,"tY":363,"tags":{"access":"customers","addr:city":"Bodolyabér","addr:housenumber":"3","addr:postcode":"7394","addr:street":"Kossuth Lajos utca","fee":"yes","internet_access":"wlan","internet_access:fee":"no","leisure":"resort","name":"Hunza Ecolodge","resort":"resort","website":"https://www.hunza-ecolodge.com/","wheelchair":"no"}},"1130971165":{"location":[46.1903734,18.1428903],"ct":"HU","tp":"CS","ts":"2023-01-11T18:19:44Z","tX":563,"tY":363,"tags":{"access":"customers","addr:city":"Magyarhertelend","addr:postcode":"7394","capacity:caravans":"45","fee":"yes","name":"Forrás Camping","payment:cash":"yes"}},"1162872813":{"location":[46.1921792,18.1606784],"ct":"HU","tp":"CS","ts":"2023-04-15T19:14:32Z","tX":563,"tY":363,"tags":{"name":"Gazda-Sped  Kemping"}},"1208216235":{"location":[46.190015,18.1388502],"ct":"HU","tp":"CS","ts":"2023-09-16T07:06:58Z","tX":563,"tY":363,"tags":{"group_only":"yes","name":"Makói Ifjúsági Tábor"}},"2343121182":{"location":[46.1537216,18.1519607],"ct":"HU","tp":"CS","ts":"2016-01-28T14:52:42Z","tX":563,"tY":363,"tags":{"addr:city":"Orfű","addr:housenumber":"22","addr:postcode":"7677","addr:street":"Béke utca","name":"Orfü Private"}},"2344637781":{"location":[46.1907964,18.1418984],"ct":"HU","tp":"CS","ts":"2022-06-11T10:22:19Z","tX":563,"tY":363,"tags":{"addr:city":"Magyarhertelend","addr:housenumber":"105","addr:postcode":"7394","addr:street":"Bokréta utca","capacity":"45","caravans":"yes","contact:facebook":"https://www.facebook.com/Forr%C3%A1s-Camping-1793868077530801/","dog":"yes","email":"forrascamping@gmail.com","name":"Camping Forrás","phone":"+36 72 521 110","reservation":"recommended","sanitary_dump_station":"no","survey:date":"2022-06-10","tents":"yes","website":"http://www.forrascamping.hu/?lang=hu"}},"2344637782":{"location":[46.1748501,18.2232624],"ct":"HU","tp":"CS","ts":"2022-07-03T18:20:34Z","tX":563,"tY":363,"tags":{"addr:city":"Komló","addr:housenumber":"8","addr:postcode":"7300","addr:street":"Fürdő utca","addr:suburb":"Sikonda","name":"Mediano Thermal Camping"}},"3440859577":{"location":[46.0858299,18.2630014],"ct":"HU","tp":"CS","ts":"2018-06-02T08:32:58Z","tX":563,"tY":363,"tags":{"addr:city":"Pécs","addr:housenumber":"6","addr:postcode":"7629","addr:street":"Gyöngyösi István utca","name":"Família Kemping","phone":"+36 72 327 034","source":"turistautak.hu","source:date":"2015-01-12","url":"http://turistautak.hu/poi.php?id=15551"}},"3458289141":{"location":[46.190817,18.160733],"ct":"HU","tp":"CS","ts":"2015-04-15T21:28:34Z","tX":563,"tY":363,"tags":{"name":"G&N","source":"turistautak.hu","source:date":"2015-01-12","url":"http://turistautak.hu/poi.php?id=118234"}},"3634003091":{"location":[46.2955562,18.2024885],"ct":"HU","tp":"CS","ts":"2015-07-04T09:17:27Z","tX":563,"tY":363,"tags":{"addr:city":"Ág","fee":"yes","name":"Camping Klok","operator":"http://www.campingklok.nl/"}}}