{"694581776":{"location":[45.8362133,18.2261253],"ct":"HU","tp":"CS","ts":"2022-09-28T20:48:40Z","tX":563,"tY":364,"tags":{"abandoned":"yes","addr:city":"Harkány","addr:housenumber":"17/10","addr:postcode":"7815","addr:street":"Drávaszabolcsi út","area":"yes","barrier":"fence","name":"Arzenál Üdülőház és Sátorozóhely","phone":"+36 72 480 087;+36 70 513 6214"}},"696007158":{"location":[45.8545567,18.2546916],"ct":"HU","tp":"CS","ts":"2023-07-16T11:21:20Z","tX":563,"tY":364,"tags":{"disused":"yes","group_only":"yes","layer":"-1"}},"1259612350":{"location":[45.8561188,18.2386805],"ct":"HU","tp":"CS","ts":"2024-06-03T17:01:36Z","tX":563,"tY":364,"tags":{"addr:city":"Harkány","addr:housenumber":"6","addr:postcode":"7815","addr:street":"Bajcsy-Zsilinszky Endre utca","contact:email":"thermal@campingharkany.hu","contact:facebook":"apartman.camp","contact:fax":"+36 72 580 964","contact:phone":"+36 72 580 965","contact:website":"http://campingharkany.hu/","name":"Termál Kemping","operator":"Dráva Hotel"}},"3461967443":{"location":[46.058998,17.933828],"ct":"HU","tp":"CS","ts":"2021-04-06T12:16:07Z","tX":563,"tY":364,"tags":{"addr:city":"Nagyváty","addr:housenumber":"28","addr:postcode":"7912","addr:street":"Petőfi utca","email":"info@campingidyll.hu","name":"Camping Idyll","phone":"+36 73 546 612;+36 20 471 4654","source":"turistautak.hu","source:date":"2011-09-08","url":"http://turistautak.hu/poi.php?id=15552","website":"http://www.campingidyll.hu"}}}