{"17328507":{"location":[43.8389376,18.2647358],"ct":"BA","tp":"CS","ts":"2024-06-25T18:56:45Z","tX":563,"tY":372,"tags":{"addr:city":"Ilidža","addr:housenumber":"57","addr:postcode":"71210","addr:street":"Mratnjevače","caravans":"yes","drinking_water":"yes","fee":"yes","internet_access":"wlan","internet_access:fee":"no","name":"Camping Sarajevo","payment:cash":"yes","payment:credit_cards":"no","power_supply":"yes","sanitary_dump_station":"customers","shower":"yes","tents":"yes","toilets":"yes","website":"https://camping-sarajevo.com/"}},"5568553690":{"location":[43.8941751,18.2104726],"ct":"BA","tp":"CS","ts":"2018-04-21T09:01:43Z","tX":563,"tY":372,"tags":{"addr:city":"Sarajevo","addr:postcode":"71000","name":"Bajta Mahir","phone":"+38761208106"}},"10968979705":{"location":[44.0108635,18.1650878],"ct":"BA","tp":"CS","ts":"2024-07-07T14:19:52Z","tX":563,"tY":372,"tags":{"internet_access":"wlan","name:de":"Autokamp Visoko","name:en":"Autokamp Visoko"}},"11290486011":{"location":[43.9777444,18.1882976],"ct":"BA","tp":"CR","ts":"2024-08-09T06:52:48Z","tX":563,"tY":372,"tags":{"charge":"50 BAM","check_date":"2024-08-09","contact:phone":"+387 66 805 849","fee":"yes","internet_access":"wlan","internet_access:fee":"customers","name":"Auto kamp iCamp Visoko","power_supply":"yes","reservation":"yes","website":"https://tapqo.co/icamp/"}},"6869139423":{"location":[43.8388032,18.2642556],"ct":"BA","tp":"SD","ts":"2019-10-11T07:13:55Z","tX":563,"tY":372,"tags":{"access":"customers","sanitary_dump_station:chemical_toilet":"yes","sanitary_dump_station:grey_water":"yes"}}}