{"11103348":{"location":[40.07307,18.0067472],"ct":"IT","tp":"CS","ts":"2020-05-15T12:16:26Z","tX":563,"tY":387,"tags":{"name":"Glamping Area Luxury Tents","operator":"Camping Torre Sabea"}},"11103353":{"location":[40.081799,18.0114162],"ct":"IT","tp":"CS","ts":"2023-11-08T18:19:56Z","tX":563,"tY":387,"tags":{"name":"Vecchia Torre","phone":"+39 0833 209083","source":"Bing","website":"https://www.lavecchiatorregallipoli.com/"}},"129693063":{"location":[40.0005001,18.0299046],"ct":"IT","tp":"CS","ts":"2022-04-25T14:32:57Z","tX":563,"tY":387,"tags":{"contact:email":"info@baiadigallipoli.com","contact:facebook":"https://www.facebook.com/baiadigallipolicampingresort","contact:fax":"+39 0833 275405","contact:instagram":"https://www.instagram.com/baiadigallipoli/","contact:phone":"+39 0833 273210","contact:whatsapp":"+39 338 832 29 10","name":"Baia di Gallipoli Camping Resort","ref:vatin":"IT02424390751","website":"https://www.baiadigallipoli.com/"}},"170990391":{"location":[40.0728232,18.0073903],"ct":"IT","tp":"CS","ts":"2023-12-03T11:46:39Z","tX":563,"tY":387,"tags":{"addr:city":"Gallipoli","addr:country":"IT","addr:postcode":"73014","addr:province":"LE","addr:street":"Strada Provinciale Santa Maria al Bagno alla Lecce-Gallipoli","cabins":"yes","caravans":"yes","drinking_water":"yes","email":"info@torresabea.it","facebook":"http://www.facebook.com/AgricampeggioGlampingTorreSabeaGallipoli","fee":"yes","mobile":"+39 346 9473565","name":"AgriCampeggio & Glamping Torre Sabea","opening_hours":"week 1-53","operator":"Torre Sabea s.r.l.","phone":"+39 0833 298273","phone:en":"+39 338 4680876","power_supply":"yes","ref:vatin":"IT03595540752","shower":"yes","tents":"yes","toilets":"yes","website":"https://www.torresabea.it/"}},"171286209":{"location":[40.0819116,18.0102699],"ct":"IT","tp":"CS","ts":"2023-12-03T19:03:06Z","tX":563,"tY":387,"tags":{"caravans":"yes","drinking_water":"yes","name":"Camping Village La Vecchia Torre","natural":"wood","phone":"+39 0833 209083","power_supply":"yes","shower":"yes","source":"Bing","tents":"yes","toilets":"yes","website":"http://lavecchiatorregallipoli.com"}},"1052397935":{"location":[40.0015225,18.0324194],"ct":"IT","tp":"CR","ts":"2023-04-10T15:11:47Z","tX":563,"tY":387,"tags":{"addr:city":"Gallipoli","addr:country":"IT","addr:place":"Contrada L'Ari√≤","addr:postcode":"73014","addr:province":"LE","addr:state":"IT","contact:facebook":"https://www.facebook.com/AreaSostaGallipoliNuoviOrizzonti","email":"info.nuoviorizzontigallipoli@gmail.com","mobile":"+39 349 074 5913","motorhome":"designated","name":"Area Sosta Camper \"Nuovi Orizzonti\"","natural":"wood"}},"1228405038":{"location":[40.0942645,18.0145578],"ct":"IT","tp":"CR","ts":"2023-12-03T12:16:02Z","tX":563,"tY":387,"tags":{"name":"La Sosta"}},"4903691032":{"location":[40.07421,18.0092998],"ct":"IT","tp":"CS","ts":"2021-06-30T16:42:38Z","tX":563,"tY":387,"tags":{"addr:city":"Gallipoli","addr:country":"IT","addr:postcode":"73014","addr:province":"LE","addr:street":"Via Tenuta di Torre Sabea","email":"info@lamasseria.net","facebook":"https://www.facebook.com/camping.lamasseria","fax":"+39 0833 202295","name":"La Masseria Camping","phone":"+39 0833 202295","ref:vatin":"IT01155600750","stars":"4","website":"https://www.lamasseria.net/"}},"11065801708":{"location":[40.0384107,18.0235755],"ct":"IT","tp":"CR","ts":"2023-07-24T20:51:27Z","tX":563,"tY":387,"tags":{"name":"Agricamping Parco degli Ulivi","power_supply":"yes","website":"https://www.agricampingdegliulivi.it/servizi/"}},"6875943411":{"location":[40.0724301,18.0071048],"ct":"IT","tp":"SD","ts":"2019-10-13T17:39:59Z","tX":563,"tY":387,"tags":{"fee":"no","operator":"torre sabea","water_point":"yes"}}}