{"6449811":{"location":[39.8708697,18.142257],"ct":"IT","tp":"CS","ts":"2023-11-07T10:06:46Z","tX":563,"tY":388,"tags":{"addr:city":"Marina di Ugento","addr:country":"IT","addr:hamlet":"Fontanelle","addr:postcode":"73059","email":"info@rivadiugento.it","name":"Riva di Ugento","phone":"+39 0833 933600","website":"https://www.rivadiugento.it/","wheelchair":"yes","wheelchair:description":"Village4all for bungalows and all services of camping are fully wheelchairs ready"}},"26859561":{"location":[39.853333,18.2225],"ct":"IT","tp":"CS","ts":"2007-03-28T17:22:06Z","tX":563,"tY":388,"tags":{"created_by":"JOSM","name":"Ionian Club"}},"601633347":{"location":[39.843987,18.2680658],"ct":"IT","tp":"CS","ts":"2024-08-25T08:17:03Z","tX":563,"tY":388,"tags":{"addr:city":"Pescoluse","addr:country":"IT","addr:place":"Contrada Borgino","addr:postcode":"73050","addr:province":"LE","cabins":"yes","caravans":"yes","contact:facebook":"https://www.facebook.com/profile.php?id=100067455218284","contact:fax":"+39 0833 712111","contact:mobile":"+39 393 8982412","contact:phone":"+39 0833 712108","fixme":"Verifica se esiste ancora / Check if it still exists","motorhome":"yes","name":"Villaggio Camping Grotta Pescoluse","operator":"A.RE.FA. Srl","shower":"yes","tents":"yes","toilets":"yes"}},"1327466069":{"location":[39.8863724,18.1213904],"ct":"IT","tp":"CR","ts":"2024-10-23T08:13:52Z","tX":563,"tY":388,"tags":{"addr:street":"Lungolago Quinto Ennio","capacity":"116","contact:email":"acrivamare@gmail.com","contact:phone":"+39 324 7765680","dog":"leashed","fee":"yes","name":"Area Camper Rivamare","power_supply":"yes","sanitary_dump_station":"yes","shower":"yes","tents":"yes","toilets":"yes","website":"https://www.areacamperrivamare.it/"}},"1327468011":{"location":[39.8926418,18.1357548],"ct":"IT","tp":"CR","ts":"2024-10-23T08:27:14Z","tX":563,"tY":388,"tags":{"contact:mobile":"+39-349-2742614","contact:phone":"+39-0833-931311","dog":"yes","drinking_water":"yes","fee":"yes","name":"Area Camper Pista Salentina","power_supply":"yes","power_supply:maxcurrent":"10","sanitary_dump_station":"yes","shower":"y","socket:cee_blue":"yes","toilets":"yes","washing_machine":"yes","website":"https://www.pistasalentina.it/#area-camper"}},"11389767153":{"location":[39.8925501,18.1222097],"ct":"IT","tp":"CS","ts":"2023-12-02T13:00:26Z","tX":563,"tY":388,"tags":{"name":"Agriturismo Palese"}}}