{"10885768":{"location":[62.9729427,18.5288099],"ct":"SE","tp":"CS","ts":"2023-04-08T13:13:23Z","tX":564,"tY":279,"tags":{"cabins":"yes","capacity":"200","caravans":"yes","email":"info@norrfallsvikenscamping.com","fee":"yes","internet_access":"wlan","name":"Norrfällsvikens Camping & Stugby","phone":"+46 613 213 82","power_supply":"yes","sanitary_dump_station":"yes","shower":"yes","tents":"yes","toilets":"yes","website":"http://www.norrfallsvikenscamping.com/"}},"299919876":{"location":[63.0300438,18.3082888],"ct":"SE","tp":"CS","ts":"2020-07-09T09:31:17Z","tX":564,"tY":279,"tags":{"cabins":"yes","caravans":"yes","name":"Docksta Vandrarhem och Camping \"Kustlada","tents":"yes","website":"http://www.dockstavandrarhem.nu/"}},"359879844":{"location":[63.0656101,18.3365882],"ct":"SE","tp":"CS","ts":"2023-09-08T16:25:23Z","tX":564,"tY":279,"tags":{"capacity:caravans":"34","caravans":"yes","check_date":"2023-09-08","fee":"yes","internet_access":"no","phone":"+46 613 403 94","power_supply":"yes","tents":"no"}},"508294874":{"location":[62.9563342,18.3469483],"ct":"SE","tp":"CS","ts":"2010-10-10T18:19:52Z","tX":564,"tY":279,"tags":{"name":"Omneberget"}},"823579307":{"location":[63.066609,18.3660686],"ct":"SE","tp":"CR","ts":"2023-10-23T02:46:26Z","tX":564,"tY":279,"tags":{"access":"customers","addr:city":"Docksta","addr:country":"SE","addr:housenumber":"211","addr:postcode":"870 33","addr:street":"Veåsand","capacity":"39","charge":"290kr","email":"info@skulebergethavscamping.se","fee":"yes","name":"Skuleberget Havscamping","parking":"surface","power_supply":"yes","reservation":"yes","website":"https://www.skulebergethavscamping.se/"}},"1203863487":{"location":[63.0650379,18.3366707],"ct":"SE","tp":"CS","ts":"2023-09-08T16:25:23Z","tX":564,"tY":279,"tags":{"caravans":"no","check_date":"2023-09-08","drinking_water":"yes","name":"Tältplats Berg","shower":"yes","static_caravans":"no","tents":"yes"}},"1203863488":{"location":[63.0642819,18.3386387],"ct":"SE","tp":"CS","ts":"2023-08-31T06:40:44Z","tX":564,"tY":279,"tags":{"capacity:tents":"16","caravans":"no","name":"Tältplats Skog","static_caravans":"no","tents":"yes"}},"1203863489":{"location":[63.0639573,18.3357933],"ct":"SE","tp":"CS","ts":"2023-09-08T16:00:18Z","tX":564,"tY":279,"tags":{"caravans":"no","drinking_water":"yes","name":"Tältplats Vatten","static_caravans":"no","tents":"yes"}},"1203863515":{"location":[63.0646879,18.3372981],"ct":"SE","tp":"CS","ts":"2023-09-08T15:57:37Z","tX":564,"tY":279,"tags":{"caravans":"yes","drinking_water":"yes","name":"FriluftsByn","name:en":"The Outdoor Village","shower":"yes","static_caravans":"no","tents":"yes","website":"https://friluftsbyn.se/"}},"3668991153":{"location":[62.9714546,18.4255056],"ct":"SE","tp":"CS","ts":"2023-08-23T10:41:18Z","tX":564,"tY":279,"tags":{"addr:housenumber":"120","addr:postcode":"87397","addr:street":"Måviken","caravans":"yes","drinking_water":"yes","internet_access":"wlan","name":"Måviken Camping","opening_hours":"24/7","power_supply":"yes","shower":"yes","tents":"yes","toilets":"yes","website":"http://maviken.nu/","wheelchair":"yes"}},"9029617817":{"location":[63.0669127,18.3332229],"ct":"SE","tp":"CS","ts":"2024-07-12T18:16:36Z","tX":564,"tY":279,"tags":{"addr:country":"SE","addr:housenumber":"101","addr:postcode":"870 33","addr:street":"Nōrgällsta","caravans":"yes","drinking_water":"yes","name":"Ställplats Gällstasjōn","name:sv":"Ställplats Gällstasjön","opening_hours":"24/7","power_supply":"yes","sanitary_dump_station":"yes","shower":"yes","tents":"yes","toilets":"yes"}},"7689229559":{"location":[63.0653084,18.3377824],"ct":"SE","tp":"SD","ts":"2020-07-06T20:31:23Z","tX":564,"tY":279,"tags":{"access":"customers","sanitary_dump_station:round_drain":"yes"}},"7859546613":{"location":[63.0714315,18.3560573],"ct":"SE","tp":"SD","ts":"2022-07-08T22:11:15Z","tX":564,"tY":279,"tags":{"fee":"no","operator":"Trafikverket","water_point":"yes"}},"11176981106":{"location":[63.0652508,18.3378902],"ct":"SE","tp":"SD","ts":"2023-09-08T16:25:23Z","tX":564,"tY":279,"tags":{"access":"yes","fee":"yes","fee:conditional":"no @ customers","payment:swish":"yes"}}}