{"6201430":{"location":[59.3851349,18.5220918],"ct":"SE","tp":"CS","ts":"2022-05-23T09:48:53Z","tX":564,"tY":300,"tags":{"name":"Bolviks camping","website":"https://www.bolvikcamping.se/"}},"72716859":{"location":[59.4167576,18.5592628],"ct":"SE","tp":"CS","ts":"2021-08-13T15:26:31Z","tX":564,"tY":300,"tags":{"caravans":"no","fee":"yes","name":"Camping area","tents":"yes","wheelchair":"yes"}},"611713165":{"location":[59.3561053,18.5819672],"ct":"SE","tp":"CS","ts":"2018-07-28T03:49:30Z","tX":564,"tY":300,"tags":{"access":"private","capacity":"68","contact:email":"reception.storsved@cc-camping.se","contact:phone":"+46 727 445603","contact:website":"http://caravanclub.se/","dog":"yes","internet_access":"wlan","name":"Caravan Club Storsved","operator":"Caravan Club of Sweden","source:info":"caravanclub.se","source:location":"caravanclub.se","wheelchair":"no"}},"1064960045":{"location":[59.4056792,18.3066545],"ct":"SE","tp":"CS","ts":"2024-04-24T18:21:39Z","tX":564,"tY":300,"tags":{"addr:country":"SE","addr:housenumber":"46","addr:street":"Eriksövägen","caravans":"yes","fee":"yes","name":"Waxholms Camping","tents":"no","website":"https://www.waxholmscamping.se"}},"1373270007":{"location":[59.3949059,18.2979173],"ct":"SE","tp":"CR","ts":"2014-08-11T17:37:41Z","tX":564,"tY":300,"tags":{"access":"private","capacity":"95","contact:email":"reception.mista@cc-camping.se","contact:phone":"+46 727 445602","contact:website":"http://caravanclub.se/","dog":"yes","internet_access":"wlan","name":"Caravan Club Mista","operator":"Caravan Club of Sweden","source:info":"caravanclub.se","source:location":"caravanclub.se","wheelchair":"yes"}},"12057774287":{"location":[59.5196873,18.3443838],"ct":"SE","tp":"CS","ts":"2024-07-16T18:38:06Z","tX":564,"tY":300,"tags":{"tents":"yes","website":"https://www.osteraker.se/upplevagora/sevardheter/domarudden.4.5f4ce35f18ecbde71801fc3.html#h-Taltning"}},"12057774288":{"location":[59.5184057,18.3457625],"ct":"SE","tp":"CS","ts":"2024-07-16T18:38:06Z","tX":564,"tY":300,"tags":{"tents":"yes","website":"https://www.osteraker.se/upplevagora/sevardheter/domarudden.4.5f4ce35f18ecbde71801fc3.html#h-Taltning"}},"5732568035":{"location":[59.438637,18.3092551],"ct":"SE","tp":"CR","ts":"2020-05-11T11:45:41Z","tX":564,"tY":300,"tags":{"addr:street":"Björnholmsvägen","opening_hours":"24/7"}},"4448464161":{"location":[59.472776,18.512159],"ct":"SE","tp":"SD","ts":"2017-09-23T18:46:07Z","tX":564,"tY":300,"tags":{"access":"yes","addr:place":"Linanäs Gästhamn","boat":"yes","description":"Sugtömning och landtoalett","fee":"no","opening_hours":"24/7","sanitary_dump_station:accepted":"black_water","sanitary_dump_station:pump-out":"yes","seamark:small_craft_facility:category":"pump-out","seamark:type":"small_craft_facility","vehicle":"no","waterway":"sanitary_dump_station","website":"https://hamnkartan.azurewebsites.net"}},"4448465218":{"location":[59.35796,18.2904],"ct":"SE","tp":"SD","ts":"2017-09-23T18:46:46Z","tX":564,"tY":300,"tags":{"access":"yes","addr:place":"Risets Båtklubb","boat":"yes","fee":"no","opening_hours":"24/7","sanitary_dump_station:accepted":"black_water","sanitary_dump_station:pump-out":"yes","seamark:small_craft_facility:category":"pump-out","seamark:type":"small_craft_facility","vehicle":"no","waterway":"sanitary_dump_station","website":"https://hamnkartan.azurewebsites.net"}},"4448465226":{"location":[59.40073,18.35031],"ct":"SE","tp":"SD","ts":"2017-09-23T18:46:48Z","tX":564,"tY":300,"tags":{"access":"yes","addr:place":"Vaxholms Gästhamn","boat":"yes","description":"Gästhamn, vid kioskerna","fee":"no","opening_hours":"24/7","sanitary_dump_station:accepted":"black_water","sanitary_dump_station:pump-out":"yes","seamark:small_craft_facility:category":"pump-out","seamark:type":"small_craft_facility","vehicle":"no","waterway":"sanitary_dump_station","website":"https://hamnkartan.azurewebsites.net"}},"4448465228":{"location":[59.41483,18.55463],"ct":"SE","tp":"SD","ts":"2017-09-23T18:46:49Z","tX":564,"tY":300,"tags":{"access":"yes","addr:place":"Grinda","boat":"yes","description":"I gästhamnen","fee":"no","opening_hours":"24/7","sanitary_dump_station:accepted":"black_water","sanitary_dump_station:pump-out":"yes","seamark:small_craft_facility:category":"pump-out","seamark:type":"small_craft_facility","vehicle":"no","waterway":"sanitary_dump_station","website":"https://hamnkartan.azurewebsites.net"}},"4448465234":{"location":[59.455273,18.284115],"ct":"SE","tp":"SD","ts":"2017-09-23T18:46:50Z","tX":564,"tY":300,"tags":{"access":"yes","addr:place":"Svinninge Båtsällskap","boat":"yes","fee":"no","opening_hours":"24/7","sanitary_dump_station:accepted":"black_water","sanitary_dump_station:pump-out":"yes","seamark:small_craft_facility:category":"pump-out","seamark:type":"small_craft_facility","vehicle":"no","waterway":"sanitary_dump_station","website":"https://hamnkartan.azurewebsites.net"}},"4448465235":{"location":[59.457078,18.285005],"ct":"SE","tp":"SD","ts":"2017-09-23T18:46:50Z","tX":564,"tY":300,"tags":{"access":"customers","addr:place":"Svinninge marina","boat":"yes","description":"På bryggspetsen på en av de östligaste bryggorna. Avsedd för klubbmedlemmar och gäster. Går att tömma mot betalning.","fee":"no","opening_hours":"24/7","sanitary_dump_station:accepted":"black_water","sanitary_dump_station:pump-out":"yes","seamark:small_craft_facility:category":"pump-out","seamark:type":"small_craft_facility","vehicle":"no","waterway":"sanitary_dump_station","website":"https://hamnkartan.azurewebsites.net"}},"4448465237":{"location":[59.461225,18.574826],"ct":"SE","tp":"SD","ts":"2017-09-23T18:46:51Z","tX":564,"tY":300,"tags":{"access":"yes","addr:place":"Södra Ljusterö, Ramsmora varv och marina","boat":"yes","description":"Träsköfjärden","fee":"no","opening_hours":"24/7","sanitary_dump_station:accepted":"black_water","sanitary_dump_station:pump-out":"yes","seamark:small_craft_facility:category":"pump-out","seamark:type":"small_craft_facility","vehicle":"no","waterway":"sanitary_dump_station","website":"https://hamnkartan.azurewebsites.net"}},"4448465239":{"location":[59.47513,18.291389],"ct":"SE","tp":"SD","ts":"2017-09-23T18:46:52Z","tX":564,"tY":300,"tags":{"access":"yes","addr:place":"Trälhavets Båtklubb","boat":"yes","fee":"no","opening_hours":"24/7","sanitary_dump_station:accepted":"black_water","sanitary_dump_station:pump-out":"yes","seamark:small_craft_facility:category":"pump-out","seamark:type":"small_craft_facility","vehicle":"no","waterway":"sanitary_dump_station","website":"https://hamnkartan.azurewebsites.net"}},"5325685358":{"location":[59.4678575,18.2922532],"ct":"SE","tp":"SD","ts":"2018-01-07T16:08:22Z","tX":564,"tY":300,"tags":{"fixme":"exact location not known"}},"9780232932":{"location":[59.4053537,18.3052249],"ct":"SE","tp":"SD","ts":"2022-05-29T22:26:31Z","tX":564,"tY":300,"tags":{}},"11074593310":{"location":[59.4012952,18.350717],"ct":"SE","tp":"SD","ts":"2023-07-29T07:20:16Z","tX":564,"tY":300,"tags":{"access":"yes","addr:place":"Vaxhom Gästhamn","boat":"yes","fee":"no","opening_hours":"24/7","sanitary_dump_station:accepted":"black_water","sanitary_dump_station:pump-out":"yes","seamark:small_craft_facility:category":"pump-out","seamark:type":"small_craft_facility","vehicle":"no","waterway":"sanitary_dump_station","website":"https://hamnkartan.azurewebsites.net"}}}