{"427887880":{"location":[57.6554807,18.3082322],"ct":"SE","tp":"CS","ts":"2022-12-31T02:55:45Z","tX":564,"tY":310,"tags":{"addr:city":"Visby","addr:country":"SE","addr:housenumber":"32","addr:postcode":"621 41","addr:street":"Snäckgärdsvägen","cabins":"yes","caravans":"yes","drinking_water":"yes","email":"info@norderstrand.se","fee":"yes","internet_access":"wlan","internet_access:fee":"no","motor_vehicle":"yes","name":"Visby Strandby - Norderstrands Camping","phone":"+46 498 212157","reservation":"yes","tents":"yes","washing_machine":"yes","website":"https://visbystrandby.se"}},"468935656":{"location":[57.6747478,18.3360087],"ct":"SE","tp":"CS","ts":"2022-06-12T13:48:56Z","tX":564,"tY":310,"tags":{"access":"yes","fee":"yes","name":"Visby Strandby & Snäcks Camping","payment:cash":"yes","payment:swish":"yes","website":"https://visbystrandby.se/"}},"508436767":{"location":[57.6383139,18.3030189],"ct":"SE","tp":"PK","ts":"2024-06-25T12:44:39Z","tX":564,"tY":310,"tags":{"capacity:motorhome":"7","fee":"yes","motorhome":"yes","parking":"surface","payment:credit_cards":"yes","surface":"asphalt"}},"5711786374":{"location":[57.6618042,18.3216744],"ct":"SE","tp":"CS","ts":"2018-06-23T09:05:40Z","tX":564,"tY":310,"tags":{"entrance":"yes","internet_access":"wlan","name":"Visby Gustavsvik"}},"4448464561":{"location":[57.63914,18.28461],"ct":"SE","tp":"SD","ts":"2017-09-23T18:46:26Z","tX":564,"tY":310,"tags":{"access":"yes","addr:place":"Visby Gästhamn Sjömacken","boat":"yes","fee":"no","opening_hours":"24/7","sanitary_dump_station:accepted":"black_water","sanitary_dump_station:pump-out":"yes","seamark:small_craft_facility:category":"pump-out","seamark:type":"small_craft_facility","vehicle":"no","waterway":"sanitary_dump_station","website":"https://hamnkartan.azurewebsites.net"}},"5127021108":{"location":[57.6363845,18.2818253],"ct":"SE","tp":"SD","ts":"2019-06-30T17:23:53Z","tX":564,"tY":310,"tags":{"access":"yes","addr:place":"Visby Gästhamn Småbåtshamnen","boat":"yes","fee":"no","opening_hours":"24/7","sanitary_dump_station:accepted":"black_water","sanitary_dump_station:pump-out":"yes","seamark:small_craft_facility:category":"pump-out","seamark:type":"small_craft_facility","vehicle":"no","waterway":"sanitary_dump_station","website":"https://hamnkartan.azurewebsites.net"}},"12009553159":{"location":[57.6393286,18.2840578],"ct":"SE","tp":"PK","ts":"2024-06-25T13:08:39Z","tX":564,"tY":310,"tags":{"capacity:motorhome":"10","motorhome":"yes","parking":"surface","vehicle":"no"}}}