{"26860282":{"location":[54.7775282,18.4562213],"ct":"PL","tp":"CS","ts":"2024-07-31T22:08:59Z","tX":564,"tY":324,"tags":{"addr:city":"Władysławowo","addr:postcode":"84-120","addr:street":"Droga Helska","capacity:persons":"450","caravans":"yes","check_date":"2024-07-31","dog":"yes","fee":"yes","name":"Kaper","phone":"+48 666 367 397","stars":"3","static_caravans":"yes","tents":"no","website":"https://www.kaperkemping.pl"}},"89126064":{"location":[54.8074401,18.3699889],"ct":"PL","tp":"CS","ts":"2024-07-08T16:55:43Z","tX":564,"tY":324,"tags":{"caravans":"yes","email":"kontakt@baltickemping.pl","name":"Baltic Kemping Chłapowo","tents":"yes","website":"http://www.agakemp.pl/"}},"99872284":{"location":[54.8173845,18.3479062],"ct":"PL","tp":"CS","ts":"2023-04-03T09:27:28Z","tX":564,"tY":324,"tags":{"addr:city":"Władysławowo","addr:postcode":"84-120","addr:street":"Stefana Żeromskiego","description":"Pokoje nad morzem, Domki nad morzem, Pole namiotowe","name":"Rancho Oland","note":"detale z notki","website":"http://oland-wczasy.pl/"}},"166955722":{"location":[54.7967544,18.4062275],"ct":"PL","tp":"CS","ts":"2018-05-18T11:05:22Z","tX":564,"tY":324,"tags":{}},"167048404":{"location":[54.8057875,18.3863762],"ct":"PL","tp":"CS","ts":"2024-09-14T17:33:04Z","tX":564,"tY":324,"tags":{"addr:city":"Chłapowo","addr:housenumber":"12","addr:postcode":"84-120","addr:street":"Stefana Żeromskiego","caravans":"yes","check_date":"2024-08-06","drinking_water":"yes","email":"polehoryzont@gmail.com","fee":"yes","internet_access":"wlan","internet_access:fee":"customers","internet_access:ssid":"HORYZONT_1","name":"Horyzont","payment:cards":"yes","payment:cash":"yes","phone":"+48 500 256 556","picnic_table":"yes","power_supply":"yes","sanitary_dump_station":"yes","shower":"yes","static_caravans":"yes","tents":"yes","toilets":"yes","website":"https://pole-horyzont.pl"}},"167202305":{"location":[54.8090464,18.3735275],"ct":"PL","tp":"CS","ts":"2021-01-16T19:43:30Z","tX":564,"tY":324,"tags":{"leisure":"resort","name":"Keja"}},"167202306":{"location":[54.8084811,18.3768575],"ct":"PL","tp":"CS","ts":"2024-07-31T22:08:59Z","tX":564,"tY":324,"tags":{"addr:city":"Chłapowo","addr:housenumber":"44","addr:postcode":"84-120","addr:street":"Stefana Żeromskiego","capacity:persons":"450","caravans":"yes","check_date":"2024-07-31","email":"camping@alexa.gda.pl","fee":"yes","motorhome":"yes","name":"Alexa Camping","phone":"+48 58 674 24 13;+48 606 397 435","ref:pfcc":"250","stars":"4","static_caravans":"no","tents":"yes","toilets":"yes","website":"https://www.alexa.gda.pl/"}},"167210723":{"location":[54.8078967,18.3789863],"ct":"PL","tp":"CS","ts":"2024-07-24T22:55:54Z","tX":564,"tY":324,"tags":{"alt_name":"Pole namiotowe Mały Horyzont","caravans":"yes","email":"horyzontinfo@gmail.com","internet_access:fee":"yes","name":"Mały Horyzont","phone":"+48 58 774 50 50;+48570158188","shower":"yes","tents":"yes","toilets":"yes","website":"https://www.malyhoryzont.pl/"}},"178501975":{"location":[54.8306122,18.292603],"ct":"PL","tp":"CS","ts":"2021-03-19T15:17:57Z","tX":564,"tY":324,"tags":{"name":"Heban"}},"825455818":{"location":[54.8063229,18.3837435],"ct":"PL","tp":"CS","ts":"2024-06-26T18:31:05Z","tX":564,"tY":324,"tags":{"name":"Lazurowe"}},"1219730149":{"location":[54.8076057,18.379848],"ct":"PL","tp":"CR","ts":"2024-07-24T22:55:54Z","tX":564,"tY":324,"tags":{"addr:city":"Chłapowo","addr:housenumber":"52","addr:postcode":"84-120","addr:street":"Stefana Żeromskiego","check_date":"2023-10-31","internet_access":"wlan","internet_access:fee":"customers","name":"Camping Balticsport","power_supply":"yes","sanitary_dump_station":"no"}},"1219730951":{"location":[54.8077313,18.3799333],"ct":"PL","tp":"CS","ts":"2023-10-31T10:28:30Z","tX":564,"tY":324,"tags":{"access":"private","addr:city":"Chłapowo","addr:housenumber":"52","addr:postcode":"84-120","addr:street":"Stefana Żeromskiego","capacity:caravans":"50","capacity:persons":"200","capacity:tents":"200","caravans":"yes","fee":"yes","name":"Pole namiotowe Balticsport","operator":"Balticsport","payment:cash":"yes","static_caravans":"no","tents":"yes"}},"1389516990":{"location":[54.8065472,18.3814574],"ct":"PL","tp":"CS","ts":"2012-08-02T07:39:23Z","tX":564,"tY":324,"tags":{}},"3332537295":{"location":[54.7818349,18.4435644],"ct":"PL","tp":"CS","ts":"2024-07-28T15:34:53Z","tX":564,"tY":324,"tags":{"addr:city":"Władysławowo","addr:housenumber":"1","addr:postcode":"84-120","addr:street":"Droga Helska","caravans":"yes","fee":"yes","name":"Małe Morze","phone":"+48 602 700 300","static_caravans":"yes","website":"https://malemorze.pl/"}},"4283687216":{"location":[54.8192857,18.3143496],"ct":"PL","tp":"CS","ts":"2016-07-05T06:57:20Z","tX":564,"tY":324,"tags":{"name":"Pod Lasem"}},"12078596426":{"location":[54.787402,18.4111741],"ct":"PL","tp":"CS","ts":"2024-07-28T15:19:47Z","tX":564,"tY":324,"tags":{"addr:city":"Władysławowo","addr:housenumber":"20","addr:postcode":"84-120","addr:street":"Męczenników Wielkiej Wsi","caravans":"yes","fee":"yes","mobile":"+48 536 501 254","name":"Pole Namiotowe Owocowy Sad","tents":"yes","website":"http://pole-owocowy-sad.pl/"}},"12078615835":{"location":[54.7909855,18.4220231],"ct":"PL","tp":"CS","ts":"2024-07-28T15:30:43Z","tX":564,"tY":324,"tags":{"addr:city":"Władysławowo","addr:housenumber":"39","addr:postcode":"84-120","addr:street":"Starowiejska","caravans":"yes","email":"kotakt@campspot.pl","fee":"yes","name":"Camp Spot","phone":"+48 786 663 713","static_caravans":"yes","tents":"yes","website":"https://campspot.pl/"}}}