{"3920957":{"location":[54.7619129,18.4982324],"ct":"PL","tp":"CS","ts":"2024-07-28T15:54:55Z","tX":564,"tY":325,"tags":{"email":"recepcja.chalupy.6@gmail.com","name":"Chałupy 6","phone":"+48 512 152 996","website":"http://www.chalupy6.com"}},"3921551":{"location":[54.7636104,18.4932398],"ct":"PL","tp":"CS","ts":"2022-01-31T21:16:50Z","tX":564,"tY":325,"tags":{"name":"Albatros (Chałupy 5.5)"}},"3921609":{"location":[54.7649402,18.4897846],"ct":"PL","tp":"CS","ts":"2024-07-31T19:27:50Z","tX":564,"tY":325,"tags":{"addr:city":"Chałupy","addr:postcode":"84-131","addr:street":"Kaperska","capacity:persons":"200","caravans":"yes","dog":"yes","email":"ekolaguna@ekolaguna.com.pl","fee":"yes","name":"Ekolaguna","phone":"+48 601 677 973","stars":"2","static_caravans":"yes","tents":"no","website":"https://www.ekolaguna.com.pl"}},"3921622":{"location":[54.7673634,18.4832721],"ct":"PL","tp":"CS","ts":"2022-01-31T21:16:50Z","tX":564,"tY":325,"tags":{"name":"Polaris"}},"3921654":{"location":[54.7697615,18.4773056],"ct":"PL","tp":"CS","ts":"2024-07-28T15:47:31Z","tX":564,"tY":325,"tags":{"addr:city":"Chałupy","addr:housenumber":"4","addr:postcode":"84-120","addr:street":"Droga Helska","caravans":"yes","dog":"yes","email":"info@solar-windsurfing.pl","fee":"yes","name":"Solar","phone":"+48 602 53 83 95","static_caravans":"yes","tents":"no","website":"https://www.solar-windsurfing.pl"}},"3922591":{"location":[54.7736068,18.465004],"ct":"PL","tp":"CS","ts":"2024-07-28T15:40:51Z","tX":564,"tY":325,"tags":{"caravans":"yes","dog":"yes","email":"biuro@chalupy3.pl","fee":"yes","name":"Chałupy 3","operator":"Franciszek Andreskowski","phone":"+48 607 233 499","tents":"yes","website":"http://www.chalupy3.pl"}},"428754394":{"location":[54.611421,18.496797],"ct":"PL","tp":"CS","ts":"2016-07-02T15:22:56Z","tX":564,"tY":325,"tags":{}},"6547947682":{"location":[54.6322033,18.5101755],"ct":"PL","tp":"CS","ts":"2023-11-06T00:49:30Z","tX":564,"tY":325,"tags":{"addr:city":"Rewa","addr:housenumber":"13","addr:postcode":"81-198","addr:street":"Morska","description:de":"Campingplatz","name":"Noclegi \"Kotwica\"","phone":"+48 505 391 938","website":"https://kempingrewa.pl/"}},"11842475425":{"location":[54.7210687,18.4188237],"ct":"PL","tp":"CS","ts":"2024-07-28T15:14:39Z","tX":564,"tY":325,"tags":{"addr:city":"Puck","addr:housenumber":"3","addr:street":"Lipowa","email":"okonska@gd.pl","fee":"yes","name":"Na Fali","phone":"+48 795 620 782","static_caravans":"yes","tents":"yes","website":"https://okonska.pl"}},"4947145525":{"location":[54.7203501,18.4197842],"ct":"PL","tp":"CR","ts":"2017-07-02T15:27:07Z","tX":564,"tY":325,"tags":{}}}