{"1108025695":{"location":[54.1939744,18.3229667],"ct":"PL","tp":"CS","ts":"2022-10-29T19:07:04Z","tX":564,"tY":327,"tags":{"addr:city":"Przywidz","addr:housenumber":"19","addr:postcode":"83-047","addr:street":"Gdańska","alt_name":"Camping 20","caravans":"yes","email":"biuro@camping.vti.pl","fee":"yes","loc_name":"Kemping Przywidz","name":"Camping Przywidz","official_name":"Camping nr 20","phone":"+48 602 623 091; +48 58 682 52 65","power_supply":"yes","sanitary_dump_station":"yes","tents":"yes","website":"http://www.camping.vti.pl/"}},"4558283992":{"location":[54.2276324,18.3148203],"ct":"PL","tp":"CR","ts":"2016-12-17T10:50:00Z","tX":564,"tY":327,"tags":{"name":"jezioro Głębokie","name:pl":"jezioro Głębokie"}},"10669310046":{"location":[54.3608053,18.3889491],"ct":"PL","tp":"CR","ts":"2023-02-16T10:36:32Z","tX":564,"tY":327,"tags":{"capacity":"8","email":"info@vwmuzeum.pl","fee":"yes","mobile":"+48 604 704 050","name":"Galeria Pępowo","phone":"+48 58 681 82 05","tents":"yes","website":"http://vwmuseum.pl/pl/godziny-otwarcia/nocleg/"}},"12201412629":{"location":[54.1966709,18.3371583],"ct":"PL","tp":"SD","ts":"2024-09-26T11:48:30Z","tX":564,"tY":327,"tags":{"access":"unknown"}},"12600341477":{"location":[54.3483146,18.3796992],"ct":"PL","tp":"SD","ts":"2025-02-19T10:12:52Z","tX":564,"tY":327,"tags":{"fee":"yes","operator":"PSZOK Żukowo","sanitary_dump_station:round_drain":"yes"}}}