{"3518633":{"location":[47.2088928,18.6258944],"ct":"HU","tp":"CS","ts":"2021-06-13T01:45:34Z","tX":564,"tY":359,"tags":{"addr:city":"Gárdony","addr:housenumber":"2","addr:postcode":"2483","addr:street":"Harcsa utca","name":"Sirály Camping","phone":"+36 70 455 2090","website":"https://siralystrand.hu/kemping/"}},"17941921":{"location":[47.1891235,18.6257784],"ct":"HU","tp":"CS","ts":"2024-08-16T11:09:10Z","tX":564,"tY":359,"tags":{"caravans":"yes","name":"Termálkemping","tents":"yes"}},"294646529":{"location":[47.2111187,18.6297094],"ct":"HU","tp":"CS","ts":"2023-01-01T11:39:27Z","tX":564,"tY":359,"tags":{"addr:city":"Gárdony","addr:housenumber":"21-23","addr:postcode":"2483","addr:street":"Pisztráng utca","barrier":"fence","caravans":"yes","contact:facebook":"https://www.facebook.com/pisztrangkemping/","drinking_water":"yes","name":"Pisztráng Kemping","old_name":"Cerbona camping","tents":"yes"}},"496487643":{"location":[47.1941222,18.5922604],"ct":"HU","tp":"CS","ts":"2020-08-11T15:00:56Z","tX":564,"tY":359,"tags":{"access":"customers","barrier":"hedge","fee":"yes"}},"930536928":{"location":[47.204628,18.6153518],"ct":"HU","tp":"CS","ts":"2021-05-02T17:08:50Z","tX":564,"tY":359,"tags":{"fee":"yes","internet_access:ssid":"BrennerCamping","name":"Brenner Kemping"}},"973821227":{"location":[47.2039154,18.4002275],"ct":"HU","tp":"CS","ts":"2023-11-16T17:57:24Z","tX":564,"tY":359,"tags":{"addr:city":"Székesfehérvár","addr:housenumber":"1","addr:postcode":"8000","addr:street":"Bregyó köz","contact:fax":"+36 22 513 497","email":"isk.camping@varosgondnoksag.hu","name":"Bregyó-Közi Kemping","phone":"+36 22 513 480","website":"http://bregyokozi-kemping.internettudakozo.hu/"}},"2677066298":{"location":[47.1921559,18.5899345],"ct":"HU","tp":"CS","ts":"2020-08-12T03:00:31Z","tX":564,"tY":359,"tags":{"addr:city":"Gárdony","addr:housenumber":"51-52","addr:postcode":"2484","addr:street":"Chernel István utca","addr:suburb":"Agárd","contact:website":"https://parkkemping.hu/","name":"Park Strand Camping"}},"3485134520":{"location":[47.2029982,18.6130839],"ct":"HU","tp":"CS","ts":"2023-11-16T17:57:24Z","tX":564,"tY":359,"tags":{"addr:city":"Gárdony","addr:housenumber":"17","addr:postcode":"2484","addr:street":"Üdülők útja","addr:suburb":"Agárd","contact:facebook":"https://www.facebook.com/Brenner-Gold-Kemping-472140942862159/","contact:fax":"+36 22 579 188","email":"brennergold@freemail.hu","internet_access:ssid":"KEMPP free wifi","name":"Brenner Gold Kemping","phone":"+36 22 579 187;+36 70 547 8371","source":"turistautak.hu","source:date":"2011-06-29","url":"http://turistautak.hu/poi.php?id=15017"}},"3485134552":{"location":[47.199028,18.611445],"ct":"HU","tp":"CS","ts":"2023-11-16T17:57:24Z","tX":564,"tY":359,"tags":{"addr:city":"Gárdony","addr:housenumber":"2","addr:postcode":"2484","addr:street":"Akácfa utca","addr:suburb":"Agárd","contact:fax":"+36 22 370 016","name":"Nemeskócsag Kemping","phone":"+36 22 370 016","source":"turistautak.hu","source:date":"2011-06-29","url":"http://turistautak.hu/poi.php?id=17547"}},"3485134559":{"location":[47.1933,18.593617],"ct":"HU","tp":"CS","ts":"2023-11-16T17:57:24Z","tX":564,"tY":359,"tags":{"addr:city":"Gárdony","addr:housenumber":"54","addr:postcode":"2484","addr:street":"Chernel István utca","addr:suburb":"Agárd","contact:fax":"+36 22 271 053","email":"info@pakasz.hu","name":"Pákász Tanya Kemping","phone":"+36 22 271 053;+36 20 965 7331","source":"turistautak.hu","source:date":"2011-06-29","url":"http://turistautak.hu/poi.php?id=15019","website":"https://pakasz.hu/"}},"3485134575":{"location":[47.201583,18.609383],"ct":"HU","tp":"CS","ts":"2023-11-16T17:57:24Z","tX":564,"tY":359,"tags":{"access":"private","addr:postcode":"2484","addr:street":"Üdülők útja","addr:suburb":"Agárd","contact:fax":"+36 22 355 099","email":"velencetours@invitel.hu","name":"Tini Kemping","phone":"+36 22 355 075","source":"turistautak.hu","source:date":"2011-06-29","url":"http://turistautak.hu/poi.php?id=15022"}},"3901571015":{"location":[47.191442,18.5886954],"ct":"HU","tp":"CS","ts":"2015-12-20T16:14:01Z","tX":564,"tY":359,"tags":{"name":"Pákász Kemping"}},"5921062371":{"location":[47.212583,18.6291152],"ct":"HU","tp":"CS","ts":"2018-09-21T17:04:19Z","tX":564,"tY":359,"tags":{"access":"yes","backcountry":"yes","fee":"no","internet_access":"no","name":"(backcountry)"}},"5921062370":{"location":[47.2124319,18.6292986],"ct":"HU","tp":"CR","ts":"2018-09-21T17:04:19Z","tX":564,"tY":359,"tags":{"fee":"no","internet_access":"no","power_supply":"no","sanitary_dump_station":"no"}}}