{"15757241":{"location":[46.2508438,18.4185174],"ct":"HU","tp":"CS","ts":"2023-04-23T19:33:58Z","tX":564,"tY":363,"tags":{"name":"Váraljai Ifjúsági Tábor"}},"1882171500":{"location":[46.2339086,18.3086565],"ct":"HU","tp":"CS","ts":"2017-08-29T06:18:59Z","tX":564,"tY":363,"tags":{"addr:city":"Magyaregregy","addr:housenumber":"2","addr:postcode":"7332","addr:street":"Várvölgyi út","name":"Camping Máré Vára","toilets:wheelchair":"yes","wheelchair":"yes"}},"3411522301":{"location":[46.221233,18.461117],"ct":"HU","tp":"CS","ts":"2023-12-21T20:40:25Z","tX":564,"tY":363,"tags":{"addr:city":"Mecseknádasd","addr:housenumber":"5","addr:postcode":"7695","addr:street":"Zrínyi utca","contact:fax":"+36 72 463 029","description":"http://aktiv.itthon.hu/kempingek/-/netaview/63261/csillag-kemping-es-vendeghaz","disused:website":"http://www.csillagvendeghazak.ini.hu","email":"erdeihaz@freemail.hu","name":"Csillag Kemping és vendégház","opening_hours":"Jun 01-Aug 31","phone":"+36 72 463 029;+36 30 947 1198","source":"turistautak.hu","url":"http://turistautak.hu/poi.php?id=15164"}},"3414916351":{"location":[46.270263,18.627472],"ct":"HU","tp":"CS","ts":"2015-03-23T20:49:15Z","tX":564,"tY":363,"tags":{"name":"Kemping","source":"turistautak.hu","url":"http://turistautak.hu/poi.php?id=77997"}},"3464280005":{"location":[46.148963,18.396199],"ct":"HU","tp":"CS","ts":"2020-05-12T21:34:26Z","tX":564,"tY":363,"tags":{"addr:postcode":"7720","addr:street":"Tóvölgy 14.","email":"kotsch@freemail.hu","name":"Zengő Ifjúsági Tábor","phone":"+36 72 466 346;+36 70 382 6332","source":"turistautak.hu","source:date":"2015-01-12","url":"http://turistautak.hu/poi.php?id=15188","website":"http://www.zengotabor.hu"}},"3962040267":{"location":[46.1849338,18.3182026],"ct":"HU","tp":"CS","ts":"2024-04-11T20:52:41Z","tX":564,"tY":363,"tags":{"name":"Zobáki Nomád Táborhely","source":"survey","url":"http://turistautak.hu/poi.php?id=22543"}},"10725593724":{"location":[46.145208,18.3975844],"ct":"HU","tp":"CS","ts":"2023-03-10T10:17:36Z","tX":564,"tY":363,"tags":{"group_only":"yes","name":"Ifjúsági Tábor"}}}