{"3178831":{"location":[40.1678093,18.47675],"ct":"IT","tp":"CS","ts":"2016-07-29T18:04:46Z","tX":564,"tY":387,"tags":{"caravans":"yes","email":"info@mulinodacqua.it","fax":"+39 0836 802196","internet_access":"wlan","internet_access:fee":"no","name":"Camping Mulino D'Acqua","operator":"Boschetto Holiday srl","phone":"+39 0836 802191","tents":"yes","website":"http://www.mulinodacqua.it"}},"511059911":{"location":[40.0329723,18.4470962],"ct":"IT","tp":"CS","ts":"2023-11-30T15:34:02Z","tX":564,"tY":387,"tags":{"addr:city":"Santa Cesarea Terme","addr:housenumber":"1","addr:postcode":"73020","addr:street":"Via Umberto Primo","caravans":"yes","drinking_water":"yes","email":"info@campingportomiggiano.it","name":"Camping Porto Miggiano","phone":"+39 0836 944303","power_supply":"yes","shower":"yes","tents":"yes","toilets":"yes","website":"https://www.campingportomiggiano.it/"}},"898257460":{"location":[40.1491795,18.4729771],"ct":"IT","tp":"CS","ts":"2016-07-04T12:14:59Z","tX":564,"tY":387,"tags":{"name":"Camping L'Uliveto","phone":"+39 0836 801405","website":"http://www.agriturismoluliveto.net"}},"1081745772":{"location":[40.1440343,18.4953996],"ct":"IT","tp":"CS","ts":"2024-10-23T07:38:27Z","tX":564,"tY":387,"tags":{"addr:city":"Otranto","addr:housenumber":"1","addr:street":"Via Orte","cabins":"yes","capacity:caravans":"10","caravans":"yes","dog":"yes","email":"info@baiadeimicenei.it","fee":"yes","internet_access":"wlan","internet_access:fee":"no","leisure":"park","motorhome":"yes","name":"Baia dei Micenei","payment:cash":"yes","payment:credit_cards":"yes","payment:debit_cards":"yes","phone":"+39 345 4467629","power_supply":"yes","power_supply:maxcurrent":"10","reservation":"yes","shower":"yes","socket:cee_blue":"yes","stars":"4","website":"https://baiadeimicenei.it/"}},"5317006222":{"location":[40.138602,18.4888448],"ct":"IT","tp":"CS","ts":"2024-08-07T21:40:25Z","tX":564,"tY":387,"tags":{"description":"01/01 - 31/12","drinking_water":"yes","fee":"yes","internet_access":"wlan","name":"Área Sosta Oasy Park","name:es":"Área de autocaravanas Oasy Park","opening_hours":"24/7","phone":"+390836802226","power_supply":"yes","sanitary_dump_station":"yes","toilets":"yes","website":"http://www.oasypark.com"}},"5940746886":{"location":[40.0877678,18.4872755],"ct":"IT","tp":"CS","ts":"2018-10-04T20:42:24Z","tX":564,"tY":387,"tags":{"name":"Azienda Agrituristica Grotta dei Cervi"}},"6694632020":{"location":[40.0310631,18.4397012],"ct":"IT","tp":"CS","ts":"2023-10-29T06:59:58Z","tX":564,"tY":387,"tags":{"name":"Campeggio La Scogliera","website":"https://campinglascoglierasalento.com/"}},"7822487885":{"location":[39.915891,18.3914807],"ct":"IT","tp":"CS","ts":"2020-08-18T08:59:46Z","tX":564,"tY":387,"tags":{"addr:housenumber":"34.500","addr:street":"Strada Provinciale","name":"Camping Il Pointe"}},"11248459226":{"location":[39.9107733,18.3902778],"ct":"IT","tp":"CS","ts":"2024-08-25T08:30:58Z","tX":564,"tY":387,"tags":{"addr:housenumber":"26","addr:street":"Via Carlo Mirabello","caravan":"yes","contact:mobile":"+39 347 073 1664","contact:website":"http://www.salentodarare.it","dog":"yes","food":"yes","internet_access":"yes","motorhome":"yes","name":"Agri Campeggio Salento D'Arare","permanent_camping":"no","power_supply":"yes","reservation":"recommended","rooms":"yes","shower":"yes","tents":"yes","toilets":"yes","washing_machine":"yes","water_supply":"yes"}},"5317024321":{"location":[40.147761,18.4806179],"ct":"IT","tp":"CR","ts":"2024-10-23T07:31:41Z","tX":564,"tY":387,"tags":{"addr:housenumber":"76","addr:street":"Strada Statale 16 Adriatica","fee":"yes","name":"Nelson Parl","name:es":"Área de autocaravanas Nelson Mandela","opening_hours":"24/7","power_supply":"no","sanitary_dump_station":"no"}},"6436062285":{"location":[39.9110507,18.3903284],"ct":"IT","tp":"CR","ts":"2019-04-29T12:42:22Z","tX":564,"tY":387,"tags":{}},"6581302985":{"location":[40.0893686,18.4862537],"ct":"IT","tp":"CR","ts":"2019-08-22T16:23:53Z","tX":564,"tY":387,"tags":{"name":"Tenuta L'Alba di Monte Matino","opening_hours":"24/7","phone":"+39 347 1198974","website":"http://www.tenutamontematino.com/"}},"7522430915":{"location":[39.9929078,18.4115626],"ct":"IT","tp":"CR","ts":"2023-09-03T22:02:49Z","tX":564,"tY":387,"tags":{"survey:date":"2023-09-03"}},"10833541505":{"location":[40.0679972,18.47983],"ct":"IT","tp":"CR","ts":"2023-04-23T08:47:59Z","tX":564,"tY":387,"tags":{"name:de":"Parkplatz"}},"10839410172":{"location":[40.1328886,18.489253],"ct":"IT","tp":"CR","ts":"2023-04-25T10:29:08Z","tX":564,"tY":387,"tags":{"name":"Torre Pinta"}}}