{"327768320":{"location":[-33.7130194,18.4493196],"ct":"ZA","tp":"CR","ts":"2019-08-08T15:23:31Z","tX":564,"tY":613,"tags":{"landuse":"residential","name":"Ou Skip Karavaan Park"}},"1080329812":{"location":[-33.5874681,18.3611435],"ct":"ZA","tp":"CS","ts":"2024-10-23T11:09:18Z","tX":564,"tY":613,"tags":{"cabins":"yes","caravans":"yes","name":"Silwerstroomstrand Resort","openfire":"yes","reservation":"recommended","tents":"yes","toilets":"yes","website":"https://www.capetown.gov.za/Family%20and%20home/See-all-city-facilities/Our-recreational-facilities/Resorts/Silwerstroomstrand%20Resort"}},"1080333547":{"location":[-33.5221241,18.3224243],"ct":"ZA","tp":"CS","ts":"2023-10-17T13:42:29Z","tX":564,"tY":613,"tags":{"bbq":"yes","cabins":"yes","camping":"yes","name":"Ganzekraal Holiday Resort","openfire":"yes","website":"https://westcoastdm.co.za/resorts/ganzekraal-coastal-resort/"}},"3438850041":{"location":[-33.5786179,18.4827653],"ct":"ZA","tp":"CS","ts":"2023-11-09T09:56:19Z","tX":564,"tY":613,"tags":{"access":"customers","addr:city":"Capetown","addr:country":"ZA","addr:postcode":"7437","addr:street":"Christopher Starke Street","caravans":"yes","description":"Only for renters of motorhomes or storage","drinking_water":"yes","name":"Bobo Campers","power_supply":"yes","tents":"yes"}}}