{"336423062":{"location":[-33.9028924,18.6140215],"ct":"ZA","tp":"CS","ts":"2016-11-02T20:21:42Z","tX":564,"tY":614,"tags":{"addr:city":"Bellville","addr:country":"ZA","caravans":"yes","drinking_water":"yes","name":"Hardekraaltjie","openfire":"yes","power_supply":"yes","shower":"hot","tents":"yes","toilets":"yes"}},"389033543":{"location":[-34.0043687,18.3920667],"ct":"ZA","tp":"CS","ts":"2016-10-31T13:44:03Z","tX":564,"tY":614,"tags":{"name":"Orange Kloof tented camp","operator":"South African National Parks"}},"1128083044":{"location":[-33.7879916,18.5415714],"ct":"ZA","tp":"CS","ts":"2023-10-05T15:17:01Z","tX":564,"tY":614,"tags":{"access":"private","addr:city":"Cape Farms","addr:housenumber":"154","addr:postcode":"7435","addr:street":"Klein, Vissershok Road","capacity:caravans":"0","description":"Overnight Camping Area","name":"Camping Area","operator":"Shambala","surface":"ground"}},"10543013809":{"location":[-33.9152626,18.4191747],"ct":"ZA","tp":"CR","ts":"2023-01-12T14:30:08Z","tX":564,"tY":614,"tags":{"name":"parkhaus"}}}