{"9309565":{"location":[-27.021531,152.5614898],"ct":"AU","tp":"CS","ts":"2021-08-18T23:29:00Z","tX":945,"tY":591,"tags":{"addr:housenumber":"78","addr:postcode":"4515","addr:state":"QLD","addr:street":"Kirkleagh Road","addr:suburb":"Hazeldean","fee":"yes","name":"Lake Somerset Holiday Park","operator":"Escape Holiday Parks","power_supply":"yes","tents":"yes"}},"316606567":{"location":[-26.9422612,152.5680264],"ct":"AU","tp":"CS","ts":"2013-12-20T10:24:49Z","tX":945,"tY":591,"tags":{"name":"Kilcoy Anzac Memorial Park"}},"1035240252":{"location":[-26.7497321,152.2404485],"ct":"AU","tp":"CS","ts":"2022-02-26T02:40:11Z","tX":945,"tY":591,"tags":{"access":"customers","addr:housenumber":"117","addr:street":"Avoca Creek Road","name":"Camp Duckadang","operator":"Lions","phone":"+61 7 5424 8122","website":"https://campduckadang.com.au/"}},"1811175507":{"location":[-26.94722,152.56444],"ct":"AU","tp":"CS","ts":"2012-07-03T11:53:16Z","tX":945,"tY":591,"tags":{"name":"Fred Greensil Lake (yowie Park)"}},"1811180694":{"location":[-27.00472,152.5525],"ct":"AU","tp":"CS","ts":"2012-07-03T11:59:27Z","tX":945,"tY":591,"tags":{"name":"Kilcoy Farmstay"}},"1811180695":{"location":[-26.94361,152.54583],"ct":"AU","tp":"CS","ts":"2024-04-15T05:52:10Z","tX":945,"tY":591,"tags":{"name":"Kilcoy Showgrounds","tents":"yes"}},"1811183129":{"location":[-26.8426042,152.2745534],"ct":"AU","tp":"CS","ts":"2024-06-14T04:00:50Z","tX":945,"tY":591,"tags":{"caravans":"yes","drinking_water":"no","fee":"yes","name":"Linville Village Camping Area","opening_hours":"24/7","power_supply":"no","reservation":"no","sanitary_dump_station":"no","shower":"yes","tents":"yes","toilets":"yes","wheelchair":"yes"}},"1811187312":{"location":[-26.8939126,152.289481],"ct":"AU","tp":"CS","ts":"2024-07-26T02:45:31Z","tX":945,"tY":591,"tags":{"access":"yes","caravans":"yes","drinking_water":"yes","fee":"no","name":"Moore Rest Area","note":"Designated as an overnight rest area for up to 20 hours for self-contained recreational vehicles.","operator":"Somerset Regional Council","power_supply":"no","sanitary_dump_station":"no","shower":"yes","static_caravans":"yes","tents":"no","toilets":"yes"}},"1811194865":{"location":[-26.9760849,152.3598247],"ct":"AU","tp":"CS","ts":"2024-06-13T06:34:05Z","tX":945,"tY":591,"tags":{"caravans":"yes","name":"Simeon Lord Park","tents":"yes"}},"1811205285":{"location":[-26.7847321,152.5664013],"ct":"AU","tp":"CS","ts":"2019-11-02T14:55:21Z","tX":945,"tY":591,"tags":{"name":"Yandilla Station Camping & Farmstay"}}}