{"5138405":{"location":[-32.0654371,152.5321986],"ct":"AU","tp":"CR","ts":"2015-05-14T03:06:24Z","tX":945,"tY":608,"tags":{"source":"Bing"}},"133309897":{"location":[-32.1720268,152.5043848],"ct":"AU","tp":"CR","ts":"2024-10-08T06:19:43Z","tX":945,"tY":608,"tags":{"addr:housenumber":"32","addr:postcode":"2428","addr:state":"NSW","addr:street":"Beach Street","addr:suburb":"Tuncurry","drinking_water":"yes","fee":"yes","name":"Reflections Tuncurry - Holiday Park","phone":"+61 2 6554 6440","power_supply":"yes","sanitary_dump_station":"yes","stars":"4","toilets":"yes","website":"https://reflectionsholidays.com.au/parks/tuncurry/"}},"133319946":{"location":[-32.1834414,152.4928628],"ct":"AU","tp":"CR","ts":"2023-11-08T04:00:36Z","tX":945,"tY":608,"tags":{"email":"manager@greatlakes.com.au","fax":"+61 2 6557 5006","fee":"yes","name":"Great Lakes Holiday Park","phone":"+61 2 6554 6827","power_supply":"yes","stars":"4.5","tents":"yes","website":"https://www.greatlakes.com.au/"}},"134100501":{"location":[-32.197721,152.5122257],"ct":"AU","tp":"CR","ts":"2021-08-26T01:00:21Z","tX":945,"tY":608,"tags":{"name":"Lani's Holiday Island","stars":"4","website":"https://www.lanis.com.au"}},"134100503":{"location":[-32.2001633,152.5131462],"ct":"AU","tp":"CR","ts":"2021-08-26T01:00:21Z","tX":945,"tY":608,"tags":{"name":"Smugglers Cove Holiday Village","stars":"4.5","website":"https://www.smugglerscove.com.au"}},"134712940":{"location":[-32.1778067,152.5096185],"ct":"AU","tp":"CR","ts":"2024-09-14T02:36:23Z","tX":945,"tY":608,"tags":{"addr:housenumber":"1","addr:postcode":"2428","addr:state":"NSW","addr:street":"Reserve Road","addr:suburb":"Forster","email":"ForsterBeach@reflectionsholidays.com.au","fee":"yes","internet_access":"yes","internet_access:fee":"yes","name":"Reflections Forster Beach - Holiday Park","phone:AU":"1800 240 632","power_supply":"yes","stars":"3.5","tents":"yes","website":"https://reflectionsholidays.com.au/parks/forster-beach/"}},"134870143":{"location":[-32.2231857,152.5304385],"ct":"AU","tp":"CR","ts":"2025-04-26T12:14:44Z","tX":945,"tY":608,"tags":{"name":"Lakeside Forster Holiday Park","phone":"+61 2 6555 5511","website":"http://hampshireholidays.com.au/park/lakeside-forster-park/"}},"134989704":{"location":[-32.1740434,152.4833736],"ct":"AU","tp":"CR","ts":"2019-03-16T17:54:55Z","tX":945,"tY":608,"tags":{"name":"Twin Dolphins Holiday Park","website":"https://twindolphins.com.au/"}},"344910526":{"location":[-32.0925776,152.383952],"ct":"AU","tp":"CR","ts":"2019-03-08T00:12:46Z","tX":945,"tY":608,"tags":{"caravans":"yes","fee":"yes","name":"Nabiac Caravan Park","phone":"+61 2 6554 1213","power_supply":"yes","shower":"yes","tents":"yes","toilets":"yes"}},"399804373":{"location":[-32.0105782,152.4729043],"ct":"AU","tp":"CR","ts":"2025-05-09T12:05:55Z","tX":945,"tY":608,"tags":{"name":"Rainbow Flat Caravan Park","source":"NSW LPI Base Map","source:date":"2016-02"}},"658991222":{"location":[-32.0934422,152.4463137],"ct":"AU","tp":"CR","ts":"2018-12-29T07:29:43Z","tX":945,"tY":608,"tags":{"name":"Riverside Holiday Park"}},"1080468289":{"location":[-32.0635759,152.5082723],"ct":"AU","tp":"CR","ts":"2022-10-10T06:22:16Z","tX":945,"tY":608,"tags":{"name":"Hallidays Point Caravan Park & Cabin Accommodation"}},"1245228867":{"location":[-32.0985222,152.4704686],"ct":"AU","tp":"CR","ts":"2024-02-01T11:27:34Z","tX":945,"tY":608,"tags":{"cabins":"yes","name":"Discovery Parks Forster","power_supply":"yes","tents":"yes"}},"1550904503":{"location":[-32.2045696,152.5054915],"ct":"AU","tp":"CS","ts":"2011-12-17T20:34:38Z","tX":945,"tY":608,"tags":{"fee":"yes","name":"Lani's Holiday Island"}},"1550904511":{"location":[-32.2081161,152.5015966],"ct":"AU","tp":"CS","ts":"2011-12-17T20:34:38Z","tX":945,"tY":608,"tags":{"name":"Lani's Holiday Island"}},"1550904515":{"location":[-32.208867,152.5009463],"ct":"AU","tp":"CS","ts":"2011-12-17T20:34:38Z","tX":945,"tY":608,"tags":{"name":"Lani's Holiday Island"}},"1811181525":{"location":[-32.05167,152.26056],"ct":"AU","tp":"CS","ts":"2012-07-03T12:00:14Z","tX":945,"tY":608,"tags":{"name":"Krambach Park"}},"4333581354":{"location":[-32.0083965,152.5625125],"ct":"AU","tp":"CS","ts":"2018-12-31T03:35:16Z","tX":945,"tY":608,"tags":{"access":"permit","name":"Saltwater Reserve","note":"Aborignal camping only","source":"NSW LPI Base Map","source:date":"2016-06"}},"5632591921":{"location":[-32.2192945,152.3200798],"ct":"AU","tp":"CS","ts":"2018-05-21T12:47:50Z","tX":945,"tY":608,"tags":{}},"9494265902":{"location":[-32.029734,152.4692716],"ct":"AU","tp":"CS","ts":"2025-03-04T01:14:18Z","tX":945,"tY":608,"tags":{"addr:housenumber":"15510","addr:postcode":"2430","addr:state":"NSW","addr:street":"Pacific Highway","addr:suburb":"Rainbow Flat","caravans":"yes","name":"Manning Park Rest","phone":"+61 411 037 949","tents":"yes","website":"https://www.manningparkrest.com.au/"}}}