{"462278494":{"location":[49.0756395,-122.8167704],"ct":"CA","tp":"CR","ts":"2021-02-10T23:55:02Z","tX":162,"tY":351,"tags":{"addr:city":"Surrey","addr:housenumber":"14601","addr:street":"40 Avenue","capacity":"270","fee":"yes","internet_access":"wlan","internet_access:fee":"no","name":"Peace Arch RV Park","phone":"+1-604-594-7009","website":"http://peacearchrvpark.ca/"}},"784885280":{"location":[49.0250845,-122.7672554],"ct":"CA","tp":"CR","ts":"2020-03-26T19:05:58Z","tX":162,"tY":351,"tags":{"name":"Border RV Park"}},"831378934":{"location":[49.0202426,-122.7008899],"ct":"CA","tp":"CS","ts":"2020-07-28T19:52:49Z","tX":162,"tY":351,"tags":{"access":"yes","addr:city":"Surrey","addr:housenumber":"18843","addr:province":"BC","addr:street":"8 Avenue","name":"Hazelmere RV Park & Campground"}},"895761797":{"location":[49.0030248,-122.7384337],"ct":"CA","tp":"CR","ts":"2021-01-31T22:16:02Z","tX":162,"tY":351,"tags":{"addr:housenumber":"67","addr:street":"175A Street","name":"Pacific Border RV Park","website":"http://www.pacificborderrvpark.com/"}},"8066755363":{"location":[48.9257626,-122.7424357],"ct":"US","tp":"CR","ts":"2020-10-30T20:58:47Z","tX":162,"tY":351,"tags":{"name":"Beachcomber RV Park"}}}