{"11788979":{"location":[47.2256124,-122.8086273],"ct":"US","tp":"CS","ts":"2020-10-29T03:26:03Z","tX":162,"tY":359,"tags":{"addr:city":"Lakebay","addr:housenumber":"20001","addr:postcode":"98349","addr:state":"WA","addr:street":"Bay Road SW","backcountry":"no","caravans":"yes","description":"All primitive sites","group_only":"no","name":"Joemma Beach Campground","operator":"Washington State Parks","shower":"no","tents":"yes","toilets":"yes","website":"https://www.parks.state.wa.us/524/Joemma-Beach"}},"459509596":{"location":[47.0665237,-122.7235567],"ct":"US","tp":"CR","ts":"2024-11-04T17:40:04Z","tX":162,"tY":359,"tags":{"fee":"yes","name":"Nisqually RV Park","note":"For long-term stays, RVs must be year 2000 or newer","power_supply":"yes","website":"https://www.nisquallyrvpark.com/"}},"494325198":{"location":[47.0582331,-122.7071886],"ct":"US","tp":"CR","ts":"2017-05-18T04:46:32Z","tX":162,"tY":359,"tags":{"name":"Claudia's Mobile Park Estates"}},"668690424":{"location":[47.1705439,-122.7008181],"ct":"US","tp":"CS","ts":"2025-01-16T19:29:16Z","tX":162,"tY":359,"tags":{"access":"private","addr:postcode":"98303","name":"Riviera Community Club Campground","website":"https://rivieraclub.org/campground/"}},"1152733359":{"location":[47.2569797,-122.7506633],"ct":"US","tp":"CS","ts":"2025-05-17T19:31:19Z","tX":162,"tY":359,"tags":{"access":"yes","addr:city":"Home","addr:housenumber":"321","addr:postcode":"98349","addr:state":"WA","addr:street":"158th Avenue Southwest","capacity:persons":"82","caravans":"yes","closed":"2023","fee":"yes","name":"Penrose Point State Park Campgrounds","operator":"Washington State Parks and Recreation Commission","source":"https://www.parks.wa.gov/564/Penrose-Point","static_caravans":"no","tents":"yes","website":"https://www.parks.wa.gov/564/Penrose-Point"}},"1355924031":{"location":[47.0418526,-122.7016711],"ct":"US","tp":"CR","ts":"2025-02-01T11:25:30Z","tX":162,"tY":359,"tags":{"name":"Lost Lake Resort","sanitary_dump_station":"yes"}},"2340850905":{"location":[47.0413888,-122.9597305],"ct":"US","tp":"CR","ts":"2013-06-11T18:05:17Z","tX":162,"tY":359,"tags":{"name":"Coach Post Mobile Home Park"}},"2488904822":{"location":[47.1008918,-122.8918969],"ct":"US","tp":"CR","ts":"2013-10-09T00:42:23Z","tX":162,"tY":359,"tags":{"name":"Seashore Villa Mobile Home Park"}},"2889496086":{"location":[47.055165,-122.7675393],"ct":"US","tp":"CR","ts":"2014-05-30T17:07:43Z","tX":162,"tY":359,"tags":{"name":"Martin Way Mobile Home-Rv Park"}},"3656047806":{"location":[47.2593768,-122.746151],"ct":"US","tp":"CS","ts":"2023-03-08T17:34:30Z","tX":162,"tY":359,"tags":{"access":"yes","caravans":"no","name":"Cascade Marine Trail Campsite","operator":"Washington State Parks and Recreation Commission","static_caravans":"no","tents":"yes","website":"https://www.parks.wa.gov/564/Penrose-Point"}},"3656047807":{"location":[47.1464914,-122.7323917],"ct":"US","tp":"CS","ts":"2022-06-06T05:49:31Z","tX":162,"tY":359,"tags":{"caravans":"no","description":"(members only, by reservation)","name":"Cascadia Marine Trail","tents":"yes","website":"https://www.wwta.org/sites/andrew-anderson-marine-park/"}},"3666095127":{"location":[47.2722479,-122.950155],"ct":"US","tp":"CR","ts":"2015-07-25T16:12:06Z","tX":162,"tY":359,"tags":{"name":"Spencer Lake RV Park"}},"4017053312":{"location":[47.1838927,-122.9320688],"ct":"US","tp":"CS","ts":"2025-02-24T18:43:32Z","tX":162,"tY":359,"tags":{"backcountry":"yes","camp_site":"basic","caravans":"no","drinking_water":"no","highway":"service","internet_access":"no","name":"Hope Island Group Site","power_supply":"no","reservation":"no","sanitary_dump_station":"no","shower":"no","static_caravans":"no","tents":"yes","toilets":"yes"}},"4017053316":{"location":[47.1841823,-122.9293601],"ct":"US","tp":"CS","ts":"2025-02-24T18:43:32Z","tX":162,"tY":359,"tags":{"backcountry":"yes","camp_site":"basic","caravans":"no","drinking_water":"no","highway":"service","internet_access":"no","name":"Hope Island Campsite","power_supply":"no","reservation":"no","sanitary_dump_station":"no","shower":"no","static_caravans":"no","tents":"yes","toilets":"yes"}},"11033540661":{"location":[47.2564689,-122.7503116],"ct":"US","tp":"CS","ts":"2023-07-08T01:15:14Z","tX":162,"tY":359,"tags":{"addr:city":"Lakebay,","addr:housenumber":"321","addr:street":"158th Avenue Southwest","closed":"2023","name":"Penrose Point State Park Campgrounds","source":"https://www.parks.wa.gov/564/Penrose-Point"}},"11409698145":{"location":[47.0492092,-122.899608],"ct":"US","tp":"SD","ts":"2023-12-11T17:27:53Z","tX":162,"tY":359,"tags":{"access":"yes","fee":"no","note":"Free for RV users. Commercial user requires a permit. Unattended, with access instructions onsite. Rinse out water available, but it is non-potable","operator":"LOTT Clean Water Alliance","water_point":"no","website":"https://www.lottcleanwater.org/rv-dump-station/"}}}