{"539739448":{"location":[46.9126908,-122.9111802],"ct":"US","tp":"CR","ts":"2024-01-29T05:55:51Z","tX":162,"tY":360,"tags":{"fee":"yes","name":"Millersylvania State Park RV Campground","operator":"Washington State Parks","power_supply":"yes","sanitary_dump_station":"yes"}},"539739449":{"location":[46.912032,-122.9131139],"ct":"US","tp":"CS","ts":"2024-11-24T22:50:21Z","tX":162,"tY":360,"tags":{"fee":"yes","name":"Millersylvania State Park Campground","operator":"Washington State Parks"}},"1182964465":{"location":[46.9989044,-122.9820259],"ct":"US","tp":"CR","ts":"2023-06-18T18:52:25Z","tX":162,"tY":360,"tags":{"landuse":"recreation_ground","name":"Salmon Shores Resort"}},"1184561453":{"location":[46.9957543,-122.9824872],"ct":"US","tp":"CR","ts":"2023-06-24T00:49:04Z","tX":162,"tY":360,"tags":{"landuse":"recreation_ground","name":"Columbus Park","website":"https://columbuspark.net/"}},"1279195879":{"location":[46.9105739,-122.9096994],"ct":"US","tp":"CS","ts":"2024-11-24T22:50:21Z","tX":162,"tY":360,"tags":{"fee":"yes","group_only":"yes","name":"Millersylvania State Park Campground - Group Camp","operator":"Washington State Parks"}},"1337591624":{"location":[46.9078231,-122.90684],"ct":"US","tp":"CR","ts":"2024-11-24T22:50:21Z","tX":162,"tY":360,"tags":{"name":"Deep Lake Resort"}},"1373417418":{"location":[46.9900997,-122.9725321],"ct":"US","tp":"CS","ts":"2025-03-31T15:03:01Z","tX":162,"tY":360,"tags":{"access":"private","addr:city":"Olympia","addr:housenumber":"6521","addr:postcode":"98512","addr:state":"WA","addr:street":"Fairview Road Southwest","name":"Black Lake Bible Camp","phone":"+1-360-357-8425"}},"2352569299":{"location":[46.9485488,-122.9280096],"ct":"US","tp":"CS","ts":"2024-06-06T15:51:37Z","tX":162,"tY":360,"tags":{"addr:city":"Olympia","addr:housenumber":"9610","addr:postcode":"98512","addr:state":"WA","addr:street":"Kimmie Street Southwest","backcountry":"no","caravans":"yes","drinking_water":"yes","fee":"yes","internet_access":"wlan","internet_access:fee":"yes","name":"American Heritage Campground","nudism":"no","operator":"Heck Enterprises LLC","phone":"+1-360-943-8778","sanitary_dump_station":"yes","shower":"yes","static_caravans":"no","tents":"yes","toilets":"yes","website":"https://www.americanheritagecampground.com/ah_frontpage.htm"}},"2393443045":{"location":[46.820051,-122.8640614],"ct":"US","tp":"CR","ts":"2013-07-22T23:59:07Z","tX":162,"tY":360,"tags":{}},"3781091355":{"location":[47.0055436,-122.9672237],"ct":"US","tp":"CR","ts":"2015-10-10T17:56:40Z","tX":162,"tY":360,"tags":{}},"10910643711":{"location":[46.9898413,-122.9738245],"ct":"US","tp":"CS","ts":"2023-05-19T05:53:20Z","tX":162,"tY":360,"tags":{"access":"private","addr:city":"Olympia","addr:housenumber":"6521","addr:postcode":"98512","addr:state":"WA","addr:street":"Fairview Road Southwest","name":"Black Lake Bible Camp","phone":"+1-360-357-8425"}},"4883875330":{"location":[46.9830865,-122.7448032],"ct":"US","tp":"CR","ts":"2017-05-29T16:19:33Z","tX":162,"tY":360,"tags":{"name":"Glacier View Mobile Park"}},"5222320386":{"location":[46.9118595,-122.90995],"ct":"US","tp":"SD","ts":"2017-11-10T21:51:15Z","tX":162,"tY":360,"tags":{"access":"customers","operator":"Washington State Parks","water_point":"yes"}},"7022920981":{"location":[46.8347147,-122.9854253],"ct":"US","tp":"SD","ts":"2019-12-01T05:02:59Z","tX":162,"tY":360,"tags":{"name":"Dump Station"}},"12532252827":{"location":[46.8345771,-122.9857729],"ct":"US","tp":"SD","ts":"2025-01-25T18:44:20Z","tX":162,"tY":360,"tags":{}},"12532252828":{"location":[46.8345376,-122.9857253],"ct":"US","tp":"SD","ts":"2025-01-25T18:44:20Z","tX":162,"tY":360,"tags":{}},"12532252829":{"location":[46.8345028,-122.985677],"ct":"US","tp":"SD","ts":"2025-01-25T18:44:20Z","tX":162,"tY":360,"tags":{}},"12532252830":{"location":[46.834761,-122.9854678],"ct":"US","tp":"SD","ts":"2025-01-25T18:44:20Z","tX":162,"tY":360,"tags":{}},"12532252831":{"location":[46.8346963,-122.9853639],"ct":"US","tp":"SD","ts":"2025-01-25T18:44:20Z","tX":162,"tY":360,"tags":{}},"12682639685":{"location":[46.9668185,-122.9218487],"ct":"US","tp":"SD","ts":"2025-03-20T03:40:52Z","tX":162,"tY":360,"tags":{"access":"customers","water_point":"no"}}}