{"364588924":{"location":[44.0453284,-122.9582133],"ct":"US","tp":"SD","ts":"2025-01-29T20:50:45Z","tX":162,"tY":372,"tags":{"addr:city":"Springfield","addr:postcode":"97478","addr:state":"OR","addr:street":"Main Street","alt_name":"Gary's RV Store","building":"yes","fee":"yes","name":"The RV Store","sanitary_dump_station:access":"customers","sanitary_dump_station:fee":"yes","sanitary_dump_station:gravity":"yes","shop":"RV_accessories","source":"Bing"}},"1085612230":{"location":[43.8924099,-123.0175067],"ct":"US","tp":"CR","ts":"2022-11-11T15:54:51Z","tX":162,"tY":372,"tags":{"addr:city":"Creswell","addr:housenumber":"82149","addr:postcode":"97426","addr:state":"OR","addr:street":"North Pacific Highway","name":"Homestead Park"}},"1101668894":{"location":[43.9196114,-123.0139314],"ct":"US","tp":"CR","ts":"2024-01-18T02:27:46Z","tX":162,"tY":372,"tags":{"addr:city":"Creswell","addr:housenumber":"310","addr:postcode":"97426","addr:state":"OR","addr:street":"East Oregon Avenue","fixme":"borders approximate","name":"Meadowlark RV Park","phone":"+1 541 525 3348","website":"https://creswellrvpark.com"}},"1112302488":{"location":[43.8833808,-123.0105671],"ct":"US","tp":"CR","ts":"2023-03-15T09:58:51Z","tX":162,"tY":372,"tags":{"addr:city":"Creswell","addr:housenumber":"33838","addr:postcode":"97426","addr:state":"OR","addr:street":"East River Drive"}},"1247086078":{"location":[44.0446036,-122.9349992],"ct":"US","tp":"CR","ts":"2024-02-07T06:21:07Z","tX":162,"tY":372,"tags":{}},"1277665733":{"location":[43.9131452,-122.8096732],"ct":"US","tp":"CR","ts":"2024-04-28T00:15:54Z","tX":162,"tY":372,"tags":{"addr:city":"Dexter","addr:housenumber":"39140","addr:postcode":"97431","addr:state":"OR","addr:street":"Dexter Road","name":"Dexter Shores RV Park","phone":"+1 541 937 3711;+1 866 558 9777","power_supply":"yes","sanitary_dump_station":"yes","service:copy":"yes","service:fax":"yes","website":"http://dextershoresrv.com/"}},"4403789389":{"location":[43.9251867,-122.7820483],"ct":"US","tp":"CS","ts":"2018-09-12T04:05:22Z","tX":162,"tY":372,"tags":{"name":"Willamette National Forest","name:en":"Willamette National Forest"}}}