{"290875458":{"location":[43.670432,-122.706759],"ct":"US","tp":"CS","ts":"2024-11-26T17:38:20Z","tX":162,"tY":373,"tags":{"access":"yes","capacity:tents":"10","charge":"8 USD/night","dog":"leashed","fee":"yes","maxstay":"14 days","name":"Cedar Creek Campground","operator":"Umpqua National Forest Service","source_ref":"http://www.fs.fed.us/r6/data-library/gis/umpqua/documents/rec_site_pt.zip","static_caravans":"no","tents":"yes","toilets":"yes","toilets:disposal":"tank","website":"https://www.fs.usda.gov/recarea/umpqua/recreation/camping-cabins/recarea/?recid=63404"}},"290875459":{"location":[43.706159,-122.743343],"ct":"US","tp":"CS","ts":"2022-11-10T20:18:50Z","tX":162,"tY":373,"tags":{"addr:city":"Dorena","addr:housenumber":"40730","addr:postcode":"97434","addr:state":"OR","addr:street":"Rujada Campground Road","name":"Rujada Campground","source_ref":"http://www.fs.fed.us/r6/data-library/gis/umpqua/documents/rec_site_pt.zip"}},"290875461":{"location":[43.582567,-122.71349],"ct":"US","tp":"CS","ts":"2008-08-25T06:57:22Z","tX":162,"tY":373,"tags":{"created_by":"GPSBabel-1.3.5","name":"Mineral Campground","source_ref":"http://www.fs.fed.us/r6/data-library/gis/umpqua/documents/rec_site_pt.zip"}},"290875462":{"location":[43.625844,-122.702032],"ct":"US","tp":"CS","ts":"2008-08-25T06:57:22Z","tX":162,"tY":373,"tags":{"created_by":"GPSBabel-1.3.5","name":"Crawfish Lake Shelter","source_ref":"http://www.fs.fed.us/r6/data-library/gis/umpqua/documents/rec_site_pt.zip"}},"618304672":{"location":[43.7727072,-122.9370246],"ct":"US","tp":"CR","ts":"2025-01-20T04:58:35Z","tX":162,"tY":373,"tags":{"addr:city":"Dorena","addr:housenumber":"35635","addr:postcode":"97434","addr:state":"OR","addr:street":"Shoreview Drive","alcohol":"no","charge":"3 USD;20 USD/night","ele":"274","fee":"yes","gnis:feature_id":"1162185","leisure":"park","name":"Baker Bay County Park","note":"boundary is approximate","operator":"Lane County","operator:type":"government","operator:wikidata":"Q495409","payment:credit_cards":"yes","payment:debit_cards":"yes","phone":"+1 541 682 2000","shower":"yes","smoking":"no","toilets":"yes","toilets:access":"customers","toilets:disposal":"flush","website":"https://www.lanecounty.org/government/county_departments/public_works/parks/our_parks/baker_bay_park___alcohol_free_park___campground_"}},"1008641255":{"location":[43.7887006,-123.0264172],"ct":"US","tp":"CR","ts":"2022-11-06T06:48:56Z","tX":162,"tY":373,"tags":{"addr:city":"Cottage Grove","addr:housenumber":"33322","addr:postcode":"97424","addr:state":"OR","addr:street":"Row River Road","name":"Masonic RV Park"}},"1040094305":{"location":[43.8010833,-123.0419859],"ct":"US","tp":"CR","ts":"2024-02-26T23:51:32Z","tX":162,"tY":373,"tags":{"name":"Village Green RV Park","operator":"Sterling Management","operator:phone":"+1 541 684 8141","power_supply":"yes","sanitary_dump_station":"yes"}},"1254987850":{"location":[43.7866531,-122.9635877],"ct":"US","tp":"CS","ts":"2024-02-26T19:37:32Z","tX":162,"tY":373,"tags":{"backcountry":"no","caravans":"yes","charge":"22 USD/night","fee":"yes","fixme":"Area very approximate.","name":"Schwarz Campground","operator":"United States Army Corps of Engineers","operator:short":"USACE","operator:type":"government","operator:wikidata":"Q1049334","operator:wikipedia":"en:United States Army Corps of Engineers","phone":"+1 541 942 5631","power_supply":"no","shower":"yes","static_caravans":"no","tents":"yes","toilets":"yes","toilets:disposal":"flush","website":"https://www.recreation.gov/camping/campgrounds/233623"}}}