{"335227688":{"location":[37.8865857,-108.0566358],"ct":"US","tp":"CS","ts":"2019-02-17T08:04:15Z","tX":204,"tY":395,"tags":{"name":"Woods Lake Campground","operator":"United States Forest Service","website":"https://www.fs.usda.gov/recarea/gmug/recarea/?recid=32380"}},"913126067":{"location":[37.7372452,-108.1549818],"ct":"US","tp":"CS","ts":"2021-03-03T10:06:35Z","tX":204,"tY":395,"tags":{"addr:city":"Dolores","addr:housenumber":"50014","addr:postcode":"81323","addr:state":"CO","addr:street":"Road 38","name":"Dunton River Camp","website":"https://www.duntondestinations.com/river-camp/"}},"1468374918":{"location":[37.7715315,-107.9767267],"ct":"US","tp":"CS","ts":"2013-08-01T22:16:59Z","tX":204,"tY":395,"tags":{"name":"Cayton Campground","operator":"USFS"}},"2404180432":{"location":[37.7870172,-108.0676609],"ct":"US","tp":"CS","ts":"2013-08-05T15:29:27Z","tX":204,"tY":395,"tags":{"name":"Burro Bridge Campground ","operator":"USFS"}},"7633082186":{"location":[37.9835606,-107.9500442],"ct":"US","tp":"CS","ts":"2020-06-18T18:04:41Z","tX":204,"tY":395,"tags":{"name":"Secret Campsite"}},"8482351175":{"location":[37.7372576,-108.1550702],"ct":"US","tp":"CS","ts":"2021-03-03T10:06:35Z","tX":204,"tY":395,"tags":{"addr:city":"Dolores","addr:housenumber":"50014","addr:postcode":"81323","addr:state":"CO","addr:street":"Road 38","name":"Dunton River Camp","website":"https://www.duntondestinations.com/river-camp/"}},"11812688913":{"location":[37.9793059,-108.0306563],"ct":"US","tp":"CS","ts":"2024-04-12T22:00:21Z","tX":204,"tY":395,"tags":{}}}