{"10320232":{"location":[36.8061719,-108.181449],"ct":"US","tp":"CS","ts":"2019-11-21T03:26:12Z","tX":204,"tY":399,"tags":{"name":"Brown Springs Campground","operator":"BLM","tents":"yes"}},"631177578":{"location":[36.7309914,-108.2219496],"ct":"US","tp":"CR","ts":"2022-05-17T09:57:12Z","tX":204,"tY":399,"tags":{"addr:city":"Farmington","addr:housenumber":"219","addr:postcode":"87401","addr:state":"NM","addr:street":"Airport Drive","name":"Sundowner Mobile Home & RV Park"}},"680628574":{"location":[36.6921444,-108.097342],"ct":"US","tp":"CR","ts":"2019-03-30T23:02:22Z","tX":204,"tY":399,"tags":{"name":"Lee Acres RV Park","name:en":"Lee Acres RV Park"}},"680628576":{"location":[36.6936309,-108.0974298],"ct":"US","tp":"CR","ts":"2019-03-30T23:02:22Z","tX":204,"tY":399,"tags":{"name":"Lee Acres RV Park","name:en":"Lee Acres RV Park"}},"723025091":{"location":[36.8298529,-107.9995485],"ct":"US","tp":"CR","ts":"2022-05-17T09:03:38Z","tX":204,"tY":399,"tags":{"addr:city":"Aztec","addr:housenumber":"312","addr:postcode":"87410","addr:state":"NM","addr:street":"Ruins Road","name":"Ruins Road RV Park and Campground"}}}