{"229885462":{"location":[54.2406548,15.8607416],"ct":"PL","tp":"CS","ts":"2020-07-19T20:06:48Z","tX":557,"tY":327,"tags":{"area":"yes","name":"Wodnik","website":"http://www.wodnik.wczasy.pl"}},"296669339":{"location":[54.2437683,15.8883506],"ct":"PL","tp":"CS","ts":"2021-04-28T08:50:02Z","tX":557,"tY":327,"tags":{"landuse":"residential"}},"296669365":{"location":[54.2440104,15.894286],"ct":"PL","tp":"CS","ts":"2023-11-07T10:05:36Z","tX":557,"tY":327,"tags":{"name":"Pole namiotowe \"u Gienia\"","website":"https://ugienia.pl/"}},"296669390":{"location":[54.2443381,15.8998048],"ct":"PL","tp":"CS","ts":"2022-04-24T20:40:00Z","tX":557,"tY":327,"tags":{"name":"Kemp Arek"}},"329291409":{"location":[54.2439174,15.8935951],"ct":"PL","tp":"CS","ts":"2023-01-27T14:14:25Z","tX":557,"tY":327,"tags":{"caravans":"yes","name":"Pole Kempingowe BIAŁA PLAŻA","phone":"+48 601 312 227","tents":"yes","website":"https://www.kempingbialaplaza.pl/"}},"353202616":{"location":[54.2567515,16.053789],"ct":"PL","tp":"CS","ts":"2024-07-31T22:08:59Z","tX":557,"tY":327,"tags":{"addr:city":"Mielno","addr:country":"PL","addr:housenumber":"1","addr:postcode":"76-032","addr:province":"zachodniopomorskie","addr:street":"Północna","capacity:persons":"37","caravans":"yes","check_date":"2024-07-31","description":"Breakfast available","email":"zbigniewchoinski@wp.pl","fee":"yes","mobile":"+48 603 677 338","name":"Brawo","phone":"+48 94 318 91 43","phone:1":"+48603677338","ref:pfcc":"119","stars":"4","tents":"yes","website":"http://www.campingbrawo.com/"}},"435065804":{"location":[54.2932048,16.1678932],"ct":"PL","tp":"CS","ts":"2022-02-06T14:48:23Z","tX":557,"tY":327,"tags":{"barrier":"fence","club":"scout","name":"Harcerska Baza Obozowa w Łazach","operator":"Związek Harcerstwa Polskiego"}},"435382310":{"location":[54.2699234,16.0912156],"ct":"PL","tp":"CR","ts":"2023-11-07T10:05:28Z","tX":557,"tY":327,"tags":{"caravans":"yes","contact:facebook":"https://www.facebook.com/AdaRodzinnePolaNamiotowe","email":"recepcja@ada.strefa.pl","name":"Camp Ada","phone":"+48 601483197;+48 608 762 374","tents":"yes","website":"https://ada.strefa.pl/"}},"435382314":{"location":[54.2694163,16.0922256],"ct":"PL","tp":"CR","ts":"2020-07-30T05:37:15Z","tX":557,"tY":327,"tags":{"name":"Majka Pole Campingowe","phone":"+48 604375666"}},"493346723":{"location":[54.2525488,16.0214641],"ct":"PL","tp":"CS","ts":"2024-07-31T22:08:59Z","tX":557,"tY":327,"tags":{"addr:city":"Mielenko","addr:housenumber":"9","addr:postcode":"76-032","addr:street":"Plażowa","capacity:persons":"240","caravans":"yes","check_date":"2024-07-31","email":"info@campingara.eu","fee":"yes","mobile":"+48 664 430 945","name":"Camping „ARA” nr 107","ref:pfcc":"107","stars":"3","static_caravans":"yes","tents":"yes","website":"http://www.campingara.eu/"}},"588923783":{"location":[54.2503364,16.0640175],"ct":"PL","tp":"CS","ts":"2023-11-07T10:05:09Z","tX":557,"tY":327,"tags":{"caravans":"yes","email":"podzaglem@tlen.pl","name":"Camping Pod Żaglem StronaTrasa","phone":"+48 505 274 132; +48 502 081 412","shower":"yes","tents":"yes","toilets":"yes","website":"https://www.podzaglem.mielno.pl/"}},"727985383":{"location":[54.2401687,15.8561244],"ct":"PL","tp":"CS","ts":"2021-04-25T21:51:36Z","tX":557,"tY":327,"tags":{"landuse":"grass"}},"827953388":{"location":[54.2466542,15.9316171],"ct":"PL","tp":"CR","ts":"2023-07-13T12:08:21Z","tX":557,"tY":327,"tags":{"internet_access":"no","landuse":"residential","name":"Ada","toilets":"yes","wheelchair":"yes"}},"829096648":{"location":[54.2631027,16.0720382],"ct":"PL","tp":"CS","ts":"2024-07-31T22:08:59Z","tX":557,"tY":327,"tags":{"addr:city":"Mielno","addr:housenumber":"51","addr:postcode":"76-032","addr:street":"Bolesława Chrobrego","capacity:persons":"100","caravans":"yes","check_date":"2024-07-31","email":"recepcja@campingrodzinny.pl","fax":"+48 94 3189385","fee":"yes","internet_access":"wlan","internet_access:fee":"yes","name":"Camping Rodzinny","operator":"Elżbieta i Stanisław Kopczyńscy","phone":"+48 94 3189385","ref:pfcc":"105","stars":"4","static_caravans":"yes","tents":"yes","website":"https://www.campingrodzinny.pl/"}},"840645183":{"location":[54.262041,16.0745422],"ct":"PL","tp":"CS","ts":"2024-07-31T22:08:59Z","tX":557,"tY":327,"tags":{"addr:city":"Mielno","addr:city:simc":"0308353","addr:housenumber":"4i","addr:postcode":"76-032","addr:street":"6 Marca","addr:street:sym_ul":"12269","alt_name":"Camping Na Granicy nr 125","capacity:persons":"120","caravans":"yes","check_date":"2024-07-31","email":"info@nagranicy.pl","fee":"yes","name":"Camping Na Granicy","payment:american_express":"no","payment:coins":"yes","payment:credit_cards":"no","payment:debit_cards":"no","payment:maestro":"no","payment:mastercard":"no","payment:notes":"no","payment:telephone_cards":"no","payment:visa":"no","phone":"+48 608 451 854","power_supply":"yes","sanitary_dump_station":"yes","shower":"yes","source:addr":"mielno.e-mapa.net","stars":"4","tents":"yes","toilets":"yes","website":"http://www.nagranicy.pl/"}},"966315867":{"location":[54.2447658,15.9033988],"ct":"PL","tp":"CR","ts":"2021-07-21T23:09:25Z","tX":557,"tY":327,"tags":{"landuse":"residential"}},"1194032900":{"location":[54.2610734,16.0610957],"ct":"PL","tp":"CS","ts":"2023-08-09T22:03:15Z","tX":557,"tY":327,"tags":{"contact:email":"mielno.sosnowa1@wp.pl","name":"Rodzinne Pole Namiotowe","operator":"Małgorzata Margasińska","phone":"+48 601 262 965","website":"https://mielnososnowa1.pl/"}},"1311290034":{"location":[54.2477897,15.9556996],"ct":"PL","tp":"CS","ts":"2024-08-26T15:23:20Z","tX":557,"tY":327,"tags":{"addr:city":"Sarbinowo","addr:housenumber":"4A","addr:postcode":"76-034","addr:street":"Młyńska","barrier":"fence","name":"Kemping EWA","source:addr":"survey"}},"4338119048":{"location":[54.2438464,15.8854354],"ct":"PL","tp":"CS","ts":"2025-01-07T13:54:37Z","tX":557,"tY":327,"tags":{"addr:city":"Gąski","addr:housenumber":"3","addr:postcode":"76-034","addr:street":"Marynarzy","name":"Alfa Klif","operator":"Adam Gryczman","website":"https://www.alfa-klif.pl/"}},"4425354891":{"location":[54.1649409,16.056149],"ct":"PL","tp":"CS","ts":"2016-09-30T17:40:19Z","tX":557,"tY":327,"tags":{}},"4425363391":{"location":[54.1683939,16.0501466],"ct":"PL","tp":"CS","ts":"2018-08-06T06:46:48Z","tX":557,"tY":327,"tags":{}},"11116161315":{"location":[54.234965,15.8369233],"ct":"PL","tp":"CS","ts":"2023-08-15T10:58:39Z","tX":557,"tY":327,"tags":{"contact:facebook":"https://www.facebook.com/213416265424343/posts/httpplesnakuzniaraciborskazhpplzapraszamy-wszystkich-zdecydowanych-na-nadmorski-/113172178810320/","email":"plesna@kuzniaraciborska.zhp.pl","name":"Baza obozowa Hufca ZHP Ziemi Raciborskiej.","operator":"Związek Harcerstwa Polskiego Chorągiew Śląska Hufiec Ziemi Raciborskiej im. Alojzego Wilka","phone":"+48 602 104 798","tents":"yes","website":"http://kuzniaraciborska.zhp.pl/baza-obozowa/"}},"12041301438":{"location":[54.257005,16.0576404],"ct":"PL","tp":"CS","ts":"2024-07-08T09:24:45Z","tX":557,"tY":327,"tags":{"addr:city":"Mielno","addr:housenumber":"15","addr:postcode":"76-032","addr:street":"Północna","caravans":"yes","name":"Camping Mauritius","tents":"yes"}},"4338119046":{"location":[54.2428608,15.8861543],"ct":"PL","tp":"CR","ts":"2023-11-07T10:04:57Z","tX":557,"tY":327,"tags":{"addr:city":"Gąski","addr:housenumber":"3","addr:postcode":"76-034","addr:street":"Marynarzy","name":"Alfa Klif","operator":"Adam Gryczman","website":"https://www.alfa-klif.pl/"}},"5160411322":{"location":[54.2944561,16.1696071],"ct":"PL","tp":"CR","ts":"2017-10-11T08:52:09Z","tX":557,"tY":327,"tags":{}}}