{"16710967":{"location":[53.5897457,16.0365788],"ct":"PL","tp":"CS","ts":"2023-11-17T20:31:31Z","tX":557,"tY":330,"tags":{"description":"OSiR Złocieniec","name":"Gęsia Łączka"}},"16711605":{"location":[53.5853402,16.0186598],"ct":"PL","tp":"CS","ts":"2024-04-18T15:55:34Z","tX":557,"tY":330,"tags":{"cabins":"yes","caravans":"yes","email":"osrodek@ekoeden.pl","landuse":"recreation_ground","leisure":"resort","name":"Ekoeden","phone":"+48 501 026 520","shower":"yes","tents":"yes","toilets":"yes","website":"https://ekoeden.pl/"}},"16711606":{"location":[53.5885289,16.0158304],"ct":"PL","tp":"CS","ts":"2025-06-14T10:18:25Z","tX":557,"tY":330,"tags":{"landuse":"recreation_ground","leisure":"resort","name":"Ekoland","website":"https://ekoland.turystyka.pl/"}},"16712736":{"location":[53.5886926,16.0234539],"ct":"PL","tp":"CS","ts":"2024-04-18T15:55:34Z","tX":557,"tY":330,"tags":{"landuse":"recreation_ground","leisure":"resort","name":"Island Camp","website":"http://www.sharkdive.com.pl/index.php/osrodek-island-camp-siecino"}},"16714088":{"location":[53.6023066,16.0095143],"ct":"PL","tp":"CS","ts":"2023-11-18T20:04:55Z","tX":557,"tY":330,"tags":{"name":"Lesna Marina"}},"16719637":{"location":[53.6321935,16.0134903],"ct":"PL","tp":"CS","ts":"2024-04-18T15:55:34Z","tX":557,"tY":330,"tags":{"addr:housenumber":"4","addr:place":"Dobrosław","addr:postcode":"78-506","caravans":"yes","email":"ranczodobroslaw@wp.pl","fee":"yes","name":"Ranczo w Dolinie","phone":"+48 607 504 317; +48 694 915 836","power_supply":"yes","tents":"yes","website":"https://noclegisiecino.pl/"}},"620397421":{"location":[53.6310069,15.8625274],"ct":"PL","tp":"CS","ts":"2018-08-27T17:16:59Z","tX":557,"tY":330,"tags":{"name":"Agroturystyka Kosa"}},"1224915181":{"location":[53.5885289,16.0156087],"ct":"PL","tp":"CS","ts":"2024-04-18T15:55:34Z","tX":557,"tY":330,"tags":{"name":"Ekoland","source":"Bing","website":"www.ekoland.turystyka.pl"}},"1224992318":{"location":[53.5883955,16.0246814],"ct":"PL","tp":"CS","ts":"2024-04-18T15:55:34Z","tX":557,"tY":330,"tags":{"name":"Island Camp"}},"1225297325":{"location":[53.6316765,16.0138081],"ct":"PL","tp":"CS","ts":"2024-04-18T15:55:34Z","tX":557,"tY":330,"tags":{"addr:housenumber":"4","addr:place":"Dobrosław","addr:postcode":"78-506","caravans":"yes","email":"ranczodobroslaw@wp.pl","fee":"yes","name":"Ranczo w Dolinie","phone":"+48 607 504 317; +48 694 915 836","power_supply":"yes","tents":"yes","website":"https://noclegisiecino.pl/"}},"5363181444":{"location":[53.589231,16.0981495],"ct":"PL","tp":"CS","ts":"2024-08-16T09:18:07Z","tX":557,"tY":330,"tags":{"access":"yes","addr:city":"Rzepowo","addr:postcode":"78-551","addr:street":"Rzepowo","capacity":"80","charge":"5 PLN/person","fee":"yes","name":"mrowka.pl Pole namiotowe","operator":"Biuro Turystyczne \"Mrówka\"","payment:cash":"yes","website":"https://www.mrowka.pl"}},"5861495020":{"location":[53.6456703,15.8500685],"ct":"PL","tp":"CS","ts":"2018-08-27T17:16:53Z","tX":557,"tY":330,"tags":{}},"9056919061":{"location":[53.5777827,16.1473377],"ct":"PL","tp":"CS","ts":"2021-09-02T17:56:29Z","tX":557,"tY":330,"tags":{"caravans":"yes","email":"biuro@wajk.pl","internet_access":"wlan","internet_access:fee":"no","mobile":"+48 602 770 904","name":"Camping Wajk","official_name":"Ośrodek Wypoczynkowy Camping Wajk","opening_hours":"Apr-Sep","phone":"+48 94 37 58 624","power_supply":"yes","sanitary_dump_station":"yes","tents":"yes","website":"https://www.wajk.pl/"}},"12102020492":{"location":[53.6316676,16.155761],"ct":"PL","tp":"CS","ts":"2024-08-10T10:46:06Z","tX":557,"tY":330,"tags":{"backcountry":"yes","name":"Stanica ZHP"}},"12444448060":{"location":[53.6939633,16.050386],"ct":"PL","tp":"CS","ts":"2024-12-23T14:55:23Z","tX":557,"tY":330,"tags":{"name":"Przystań Motocyklowa Kuźnia"}}}