{"477241548":{"location":[53.0066625,15.9541998],"ct":"PL","tp":"CS","ts":"2024-03-10T17:40:08Z","tX":557,"tY":333,"tags":{"addr:city:simc":"0526908","addr:housenumber":"26","addr:place":"Przesieki","addr:postcode":"64-763","caravans":"yes","email":"info@drawskie-kajaki.pl","name":"Biwak Osieczno","official_name":"Camping przy Drawie","operator":"Stowarzyszenie Bydgoskie Kajaki","phone":"+48 790 224 205","source:addr":"emuia.gugik.gov.pl","tents":"yes","website":"https://drawskie-kajaki.pl/camping-przy-drawie"}},"477245959":{"location":[53.069867,16.0782966],"ct":"PL","tp":"CS","ts":"2009-08-30T10:36:28Z","tX":557,"tY":333,"tags":{}},"708895609":{"location":[53.102154,15.9198476],"ct":"PL","tp":"CS","ts":"2019-07-30T14:14:08Z","tX":557,"tY":333,"tags":{"name":"Miejsce biwakowania „Sitnica”","operator":"Drawieński Park Narodowy","tents":"yes"}},"1320155902":{"location":[53.0459913,15.8310612],"ct":"PL","tp":"CS","ts":"2024-10-02T19:11:00Z","tX":557,"tY":333,"tags":{"camp_site":"serviced","caravans":"yes","internet_access":"no","sanitary_dump_station":"yes","tents":"yes"}},"1390151516":{"location":[53.0153491,15.9843541],"ct":"PL","tp":"CS","ts":"2011-08-07T20:34:10Z","tX":557,"tY":333,"tags":{"caravans":"yes","tents":"yes"}},"2206349433":{"location":[52.9893927,15.9531667],"ct":"PL","tp":"CS","ts":"2023-11-11T05:07:23Z","tX":557,"tY":333,"tags":{"addr:housenumber":"1","addr:place":"Czarnolesie","addr:postcode":"66-520","name":"Miejsce Biwakowania Czarnolesie","operator":"Nadleśnictwo Głusko","source":"dobiegniew.e-mapa.net","website":"https://czaswlas.pl/obiekty/czarnolesie-480"}},"2469640998":{"location":[53.0307721,15.943492],"ct":"PL","tp":"CS","ts":"2013-09-24T05:33:45Z","tX":557,"tY":333,"tags":{"name":"miejsce biwakowania Kamienna","operator":"Drawieński Park Narodowy"}},"2469641015":{"location":[53.0708904,15.9264613],"ct":"PL","tp":"CS","ts":"2013-09-24T05:33:45Z","tX":557,"tY":333,"tags":{"name":"Miejsce biwakowania \"Pstrąg\"","operator":"Drawieński Park Narodowy"}},"2474837412":{"location":[53.1197133,15.8381254],"ct":"PL","tp":"CS","ts":"2013-09-28T07:16:38Z","tX":557,"tY":333,"tags":{"name":"Pole biwakowe","operator":"Nadleśnictwo Drawno"}},"2823377759":{"location":[53.0995478,15.8372829],"ct":"PL","tp":"CS","ts":"2014-05-16T16:42:31Z","tX":557,"tY":333,"tags":{"name":"Rokiet"}},"2849128988":{"location":[53.0915383,15.8371568],"ct":"PL","tp":"CS","ts":"2014-05-10T20:45:37Z","tX":557,"tY":333,"tags":{"name":"Kołki"}},"2987457219":{"location":[53.0842489,16.0617241],"ct":"PL","tp":"CS","ts":"2014-07-30T10:33:12Z","tX":557,"tY":333,"tags":{"source":"survey"}},"3676059700":{"location":[52.9680804,15.9117964],"ct":"PL","tp":"CS","ts":"2023-11-11T05:07:23Z","tX":557,"tY":333,"tags":{"name":"Miejsce Biwakowania Mierzęcin oddz.8a","operator":"Nadleśnictwo Smolarz","reservation":"required","tents":"yes","website":"https://czaswlas.pl/obiekty/?p=4&id_obiekt=8542"}},"3676059701":{"location":[52.9767915,16.0665319],"ct":"PL","tp":"CS","ts":"2023-11-11T05:07:21Z","tX":557,"tY":333,"tags":{"name":"Miejsce Biwakowania Radzyń","operator":"Nadleśnictwo Krzyż","website":"https://czaswlas.pl/obiekty/?p=4&id_obiekt=1695"}},"3677205726":{"location":[53.088425,16.066185],"ct":"PL","tp":"CS","ts":"2015-08-02T07:48:51Z","tX":557,"tY":333,"tags":{"name":"U Adama"}},"4119483246":{"location":[52.9271534,15.9736648],"ct":"PL","tp":"CS","ts":"2019-07-13T10:49:22Z","tX":557,"tY":333,"tags":{"name":"Agro Drawa"}},"6611606066":{"location":[52.9284107,15.9719919],"ct":"PL","tp":"CS","ts":"2023-11-11T05:07:22Z","tX":557,"tY":333,"tags":{"name":"Przystań Drawa","website":"https://www.przystan-drawa.pl/"}},"8701623134":{"location":[52.9691037,15.9115487],"ct":"PL","tp":"CS","ts":"2021-05-05T13:08:41Z","tX":557,"tY":333,"tags":{"name":"Miejsce Biwakowania","operator":"Nadleśnictwo Smolarz"}},"11711720864":{"location":[53.0170419,15.9567363],"ct":"PL","tp":"CS","ts":"2024-03-10T18:05:19Z","tX":557,"tY":333,"tags":{}}}