{"450657609":{"location":[52.891827,15.9043413],"ct":"PL","tp":"CS","ts":"2020-03-06T17:33:03Z","tX":557,"tY":334,"tags":{"fireplace":"yes","landuse":"meadow","name":"miejsce biwakowe \"Indiańska\"","source":"orto+photo"}},"477349692":{"location":[52.8958997,16.0150966],"ct":"PL","tp":"CS","ts":"2019-04-24T21:59:19Z","tX":557,"tY":334,"tags":{"caravans":"yes","email":"anita.mendlewska@o2.pl","name":"Świderek","official_name":"Ośrodek Wypoczynkowy Świderek","phone":"+48 517 228 513; +48 512 353 097","tents":"yes","website":"https://owswiderek.com.pl/"}},"1746470222":{"location":[52.8959214,16.0150099],"ct":"PL","tp":"CR","ts":"2019-04-24T21:59:19Z","tX":557,"tY":334,"tags":{}},"2469717848":{"location":[52.8861424,15.9773448],"ct":"PL","tp":"CS","ts":"2025-01-04T10:34:37Z","tX":557,"tY":334,"tags":{"name":"Przystań \"Pod Dębem\""}},"4921230039":{"location":[52.8855823,15.9779415],"ct":"PL","tp":"CS","ts":"2018-08-15T19:14:15Z","tX":557,"tY":334,"tags":{"caravans":"yes","drinking_water":"yes","fee":"yes","swimming_pool":"no","tents":"yes"}},"5044932423":{"location":[52.9016573,16.0744567],"ct":"PL","tp":"CS","ts":"2018-07-06T18:07:36Z","tX":557,"tY":334,"tags":{"addr:city:simc":"0526854","addr:housenumber":"17","addr:place":"Lubcz Mały","addr:postcode":"64-761","email":"legilubcz@wp.pl","name":"Gospodarstwo \"Na Legach\"","name:de":"Bio-Ziegenhof \"Na Legach\"","name:en":"Organic Goat Farm \"Na Legach\"","name:pl":"Gospodarstwo \"Na Legach\"","operator":"Piotr i Anna Paluszkiewicz","phone":"+48603302382","website":"http://www.ecotouristfarm.pl"}},"12369432246":{"location":[52.8886325,15.9048798],"ct":"PL","tp":"CS","ts":"2024-12-05T19:15:46Z","tX":557,"tY":334,"tags":{"caravans":"yes","name":"Kliwer","tents":"yes"}}}