{"222252608":{"location":[51.8597635,15.9884196],"ct":"PL","tp":"CS","ts":"2023-12-28T23:19:44Z","tX":557,"tY":338,"tags":{"addr:country":"PL","addr:housenumber":"10A","addr:place":"Tarnów Jezierny","camping":"yes","caravans":"yes","name":"OŚRODEK WYPOCZYNKOWY WRZOS","phone":"+48 508 170949","tents":"yes"}},"304258718":{"location":[51.880746,16.0577053],"ct":"PL","tp":"CS","ts":"2022-03-03T11:52:40Z","tX":557,"tY":338,"tags":{"addr:city":"Sława","addr:housenumber":"19","addr:postcode":"67-410","addr:street":"Odrodzonego Wojska Polskiego","alt_name":"Camping Słoneczny","caravans":"yes","email":"sckiw@slawa.pl","name":"Pole namiotowo-campingowe SCKiW","operator":"Sławskie Centrum Kultury i Wypoczynku","phone":"+48 68 356 64 52","tents":"yes","website":"http://www.sckiw.slawa.pl/"}},"608259352":{"location":[51.9091748,16.0022329],"ct":"PL","tp":"CS","ts":"2018-07-16T08:07:33Z","tX":557,"tY":338,"tags":{"caravans":"yes","name":"Sosenka","official_name":"Leśne Pole Biwakowe Sosenka","phone":"+48 664 048 017","tents":"yes"}},"3713659978":{"location":[51.9184983,15.9577892],"ct":"PL","tp":"CS","ts":"2015-08-25T13:40:36Z","tX":557,"tY":338,"tags":{"name":"Józefów"}},"3713659985":{"location":[51.8541428,15.9875084],"ct":"PL","tp":"CS","ts":"2015-08-25T13:40:36Z","tX":557,"tY":338,"tags":{}},"11124256578":{"location":[51.9986037,15.9790761],"ct":"PL","tp":"CS","ts":"2023-08-18T04:08:56Z","tX":557,"tY":338,"tags":{"name":"Jesionka","phone":"+48 68 352 41 80","website":"https://www.ow-jesionka.ta.pl/"}}}