{"26860340":{"location":[50.9044789,16.008726],"ct":"PL","tp":"CS","ts":"2012-11-04T11:59:08Z","tX":557,"tY":343,"tags":{"name":"Pod Bukami"}},"122261703":{"location":[50.8710503,15.8795592],"ct":"PL","tp":"CS","ts":"2023-07-07T22:44:18Z","tX":557,"tY":343,"tags":{"barrier":"fence","contact:website":"http://www.sokoliki.net/","internet_access":"wlan","name":"9up","openfire":"yes","tents":"yes"}},"235712280":{"location":[50.8740299,15.8628313],"ct":"PL","tp":"CS","ts":"2024-06-09T17:16:11Z","tX":557,"tY":343,"tags":{"contact:phone":"+48601786056","contact:website":"http://taborpodkrzywa.pl/","drinking_water":"yes","name":"Tabor pod Krzywą","openfire":"yes","shower":"yes","tents":"yes"}},"368027860":{"location":[50.93203,16.1163148],"ct":"PL","tp":"CS","ts":"2015-08-28T18:38:12Z","tX":557,"tY":343,"tags":{"name":"Camping Pod Lasem"}},"713311790":{"location":[50.8260793,15.8865775],"ct":"PL","tp":"CS","ts":"2023-11-11T05:33:17Z","tX":557,"tY":343,"tags":{"access":"permit","addr:city":"Łódź","addr:housenumber":"9","addr:postcode":"94-043","addr:street":"Olimpijska","name":"Baza Hufca ZHP Łódź-Polesie w Strużnicy","name:de":"Pfadfinderlager \"Baza Hufca ZHP Łódź-Polesie w Strużnicy\"","name:pl":"Baza Hufca ZHP Łódź-Polesie w Strużnicy","operator":"Hufiec ZHP Łódź-Polesie im. Powstańczej Poczty Harcerskiej","website":"https://bazy.lodzpolesie.zhp.pl/harcerska-polana-struznica/"}},"1794041355":{"location":[50.9163327,16.1030286],"ct":"PL","tp":"CS","ts":"2023-05-06T14:22:17Z","tX":557,"tY":343,"tags":{"addr:city":"Bolków","addr:country":"PL","addr:housenumber":"16","addr:postcode":"59-420","addr:street":"Polna","caravans":"yes","contact:fax":"+48 75 741 34 31","contact:phone":"+48 75 741 34 59","contact:website":"http://www.domkultury-bolkow.pl/","name":"Camping nr 92","operator":"Dom Kultury w Bolkowie","ref:pfcc":"92","shower":"yes","stars":"2","tents":"yes","toilets":"yes"}},"3868516998":{"location":[50.8300484,15.9728175],"ct":"PL","tp":"CS","ts":"2022-11-05T14:23:34Z","tX":557,"tY":343,"tags":{"description":"30 zł/namiot lub camper( bez dopłat do osób)--2015","fee":"yes","note":"Brak prądu i wody-(również w barze, prąd niebawem będzie ) -04.2014"}}}