{"175846954":{"location":[50.6176574,16.1112215],"ct":"CZ","tp":"CS","ts":"2024-09-15T21:43:31Z","tX":557,"tY":344,"tags":{"landuse":"meadow","name":"Meiers"}},"213206070":{"location":[50.6011015,16.1502949],"ct":"CZ","tp":"CS","ts":"2024-05-24T04:16:24Z","tX":557,"tY":344,"tags":{"caravans":"yes","drinking_water":"yes","email":"info@autokempbucnice.cz","fee":"yes","name":"Autokemp Bučnice","power_supply":"yes","sanitary_dump_station":"yes","shower":"yes","tents":"yes","toilets":"yes","website":"https://www.autokempbucnice.cz"}},"221135248":{"location":[50.5921354,16.1669462],"ct":"CZ","tp":"CS","ts":"2024-10-17T20:39:00Z","tX":557,"tY":344,"tags":{"barrier":"fence","caravans":"yes","drinking_water":"yes","name":"Camp Kamenec","power_supply":"yes","shower":"yes","tents":"yes","toilets":"yes","website":"https://www.adrspach-ubytovani.cz","wheelchair":"no"}},"221135267":{"location":[50.5943291,16.1602642],"ct":"CZ","tp":"CS","ts":"2013-05-12T22:46:55Z","tX":557,"tY":344,"tags":{"name":"penzion Metuje"}},"366713114":{"location":[50.6527059,16.1479607],"ct":"PL","tp":"CS","ts":"2021-10-01T17:10:16Z","tX":557,"tY":344,"tags":{}},"981468305":{"location":[50.5453409,15.8667958],"ct":"CZ","tp":"CS","ts":"2021-09-10T03:05:33Z","tX":557,"tY":344,"tags":{"contact:email":"recepce@camp-dolce.cz","contact:phone":"+420 774 233 342","contact:website":"https://www.camp-dolce.cz/","name":"Dolce Vita","source":"cuzk:km"}},"1292877598":{"location":[50.6147427,16.0248079],"ct":"PL","tp":"CS","ts":"2024-08-20T15:58:45Z","tX":557,"tY":344,"tags":{"addr:city:simc":"0190510","addr:housenumber":"122","addr:place":"Okrzeszyn","addr:postcode":"58-420","camp_site":"serviced","fee":"yes","name":"Tatra Glamp Okrzeszyn","phone":"+48717276010","website":"https://tatraglamp.pl/okrzeszyn"}},"1305512909":{"location":[50.6193376,16.1131977],"ct":"CZ","tp":"CR","ts":"2024-08-04T07:58:46Z","tX":557,"tY":344,"tags":{"caravans":"yes","dog":"yes","fee":"yes","internet_access":"no","tents":"no","water_point":"yes"}},"1420981525":{"location":[50.6768262,15.9688458],"ct":"CZ","tp":"CS","ts":"2019-02-23T15:39:31Z","tX":557,"tY":344,"tags":{"addr:housenumber":"68","addr:place":"Královec","addr:postcode":"542 03","email":"info@camping-kralovec.com","internet_access":"wlan","name":"Camping Kralovec","opening_hours":"Mo-Su 07:00-21:30","phone":"+420722515806","source":"http://www.camping-kralovec.com","website":"http://www.camping-kralovec.com/nl/"}},"2980725602":{"location":[50.6160639,16.1085254],"ct":"CZ","tp":"CS","ts":"2025-05-06T08:32:13Z","tX":557,"tY":344,"tags":{"camp_site":"serviced","name":"Ubytování U Stránských","static_caravans":"no"}},"8691656132":{"location":[50.5835663,15.8531201],"ct":"CZ","tp":"CS","ts":"2021-05-02T21:27:47Z","tX":557,"tY":344,"tags":{"name":"Peklo-Pension"}}}