{"206569395":{"location":[50.5075667,15.99919],"ct":"CZ","tp":"CS","ts":"2022-05-04T10:59:56Z","tX":557,"tY":345,"tags":{"name":"Radeč"}},"207053869":{"location":[50.465322,16.1024189],"ct":"CZ","tp":"CS","ts":"2023-06-10T13:35:53Z","tX":557,"tY":345,"tags":{"capacity":"500","email":"info@campbrodsky.cz","name":"Autokemp Brodský","phone":"+420 739 445 762","ref:nap":"15067","website":"https://www.campbrodsky.cz/"}},"231550958":{"location":[50.3964728,16.0630908],"ct":"CZ","tp":"CS","ts":"2019-03-26T04:52:25Z","tX":557,"tY":345,"tags":{"name":"Autocamping Rozkoš","website":"https://www.atcrozkos.cz/"}},"231901079":{"location":[50.4643241,15.9336419],"ct":"CZ","tp":"CS","ts":"2013-07-31T10:17:25Z","tX":557,"tY":345,"tags":{"landuse":"recreation_ground","name":"Autokemp Nesytá"}},"232529620":{"location":[50.367143,16.0511919],"ct":"CZ","tp":"CS","ts":"2023-10-31T02:04:35Z","tX":557,"tY":345,"tags":{"name":"Surfcentrum u Milana","website":"https://www.surfcentrum.cz/"}},"369606652":{"location":[50.4848181,16.0449015],"ct":"CZ","tp":"CS","ts":"2021-01-20T21:26:22Z","tX":557,"tY":345,"tags":{"access":"private","name":"táborová základna"}},"656284419":{"location":[50.3852672,16.0900814],"ct":"CZ","tp":"CS","ts":"2014-07-01T22:42:08Z","tX":557,"tY":345,"tags":{"addr:conscriptionnumber":"1","addr:country":"CZ","addr:housenumber":"1","addr:place":"Šeřeč","addr:postcode":"55203","name":"Camp Pohoda","ref:ruian:addr":"7337221"}},"2276023708":{"location":[50.4553387,16.1044289],"ct":"CZ","tp":"CS","ts":"2013-04-21T20:31:21Z","tX":557,"tY":345,"tags":{}},"2424057704":{"location":[50.4517757,15.93435],"ct":"CZ","tp":"CS","ts":"2013-08-19T12:44:22Z","tX":557,"tY":345,"tags":{"name":"Letní tábor Běluň"}},"6661361085":{"location":[50.4862574,15.980909],"ct":"CZ","tp":"CS","ts":"2019-07-30T15:33:08Z","tX":557,"tY":345,"tags":{"internet_access":"wlan","name":"Camping Tom"}},"11926550970":{"location":[50.4224223,16.0943829],"ct":"CZ","tp":"CS","ts":"2024-05-22T17:55:44Z","tX":557,"tY":345,"tags":{"name":"Pozemek U mlýna","website":"https://www.bezkempu.cz/4958"}},"11014070291":{"location":[50.3643858,16.0598854],"ct":"CZ","tp":"CR","ts":"2023-06-29T14:43:22Z","tX":557,"tY":345,"tags":{"name":"Stellplatz Rozkoš","website":"https://www.stellplatz.cz/"}}}