{"320223980":{"location":[46.5133512,16.0515617],"ct":"SI","tp":"CR","ts":"2022-02-08T21:23:11Z","tX":557,"tY":362,"tags":{"access":"customers","parking":"surface","surface":"grass"}},"734422177":{"location":[46.422793,15.8541207],"ct":"SI","tp":"CS","ts":"2023-09-07T14:30:12Z","tX":557,"tY":362,"tags":{"addr:city":"Ptuj","addr:housenumber":"9","addr:postcode":"2251","addr:street":"Pot v toplice","caravans":"yes","check_date:internet_access":"2022-07-19","drinking_water":"yes","internet_access":"wlan","internet_access:fee":"no","name":"Kamp Terme Ptuj","operator":"Sava Hotels & Resorts","power_supply":"yes","shower":"yes","tents":"yes","toilets":"yes","wheelchair":"limited"}},"1248221686":{"location":[46.3958952,15.9185786],"ct":"SI","tp":"CR","ts":"2024-04-04T11:25:50Z","tX":557,"tY":362,"tags":{"addr:city":"Markovci","addr:postcode":"2281","addr:street":"Zabovci","capacity":"8","name":"PZA Zabovci","power_supply":"yes","sanitary_dump_station":"yes","website":"https://avtokampi.si/kampi/pza-zabovci"}},"11076444346":{"location":[46.5152473,16.1558376],"ct":"SI","tp":"CS","ts":"2023-07-30T07:10:15Z","tX":557,"tY":362,"tags":{"addr:city":"Ljutomer","addr:housenumber":"8","addr:postcode":"9240","addr:street":"Cezanjevci","drinking_water":"yes","fee":"yes","name":"Kamp Silva","picnic_table":"yes","shower":"yes","tents":"yes","toilets":"yes","website":"https://www.apartmaji-silva.com/"}},"11552520016":{"location":[46.3328535,15.8816117],"ct":"SI","tp":"CS","ts":"2024-01-25T22:15:20Z","tX":557,"tY":362,"tags":{}},"11665792396":{"location":[46.4234326,15.8541755],"ct":"SI","tp":"CS","ts":"2024-10-15T17:21:10Z","tX":557,"tY":362,"tags":{"access":"customers","addr:city":"Ptuj","addr:housenumber":"9","addr:postcode":"2251","addr:street":"Pot v toplice","cabins":"yes","capacity:cabins":"8","email":"info@terme-ptuj.si","name":"Kamp Terme Ptuj - Glamping Vinska vas","operator":"Sava Hotels & Resorts","phone":"+386 2 749 45 00","website":"https://www.sava-hotels-resorts.com/sl/terme-ptuj/kampiranje/glamping-vinska-vas/"}},"6877768814":{"location":[46.4229621,15.8551061],"ct":"SI","tp":"SD","ts":"2019-10-14T10:52:55Z","tX":557,"tY":362,"tags":{"sanitary_dump_station:chemical_toilet":"yes","sanitary_dump_station:grey_water":"yes"}}}