{"516892092":{"location":[44.7828925,15.9251941],"ct":"BA","tp":"CS","ts":"2020-11-18T20:47:51Z","tX":557,"tY":369,"tags":{"addr:street":"Golubićka Put","caravans":"yes","email":"extreme@una-kiro-rafting.com","fee":"yes","internet_access":"wlan","internet_access:fee":"no @ customers","name":"Una RC Kiro Rafting Camp","opening_hours":"24/7","phone":"+387 61687421","shower":"yes","tents":"yes","toilets":"yes","website":"http://www.una-kiro-rafting.com"}},"697855118":{"location":[44.6365146,16.0435813],"ct":"BA","tp":"CS","ts":"2022-09-03T16:28:13Z","tX":557,"tY":369,"tags":{"fee":"yes","name":"Kamp Šefik","operator":"Šefik Dika","payment:cash":"yes","phone":"+387 62 180 392","sanitary_dump_station":"no"}},"698790333":{"location":[44.6383052,16.0421219],"ct":"BA","tp":"CS","ts":"2022-09-03T16:28:13Z","tX":557,"tY":369,"tags":{"access":"yes","addr:city":"Orasac","addr:housenumber":"476","addr:postcode":"77206","addr:street":"Celije","capacity":"10","fee":"yes","internet_access":"wlan","name":"Camping Vasva & Hazim","payment:cash":"yes"}},"698795898":{"location":[44.6352443,16.0435322],"ct":"BA","tp":"CS","ts":"2022-09-03T16:28:13Z","tX":557,"tY":369,"tags":{"access":"yes","addr:city":"orasac","addr:housenumber":"470","addr:postcode":"77206","addr:street":"Celije","capacity":"20","fee":"yes","internet_access":"no","name":"Camp Hamza","payment:cash":"yes"}},"698796265":{"location":[44.6356176,16.043554],"ct":"BA","tp":"CS","ts":"2022-09-03T16:28:13Z","tX":557,"tY":369,"tags":{"capacity":"20","fee":"yes","name":"Camp Nurka","payment:cash":"yes"}},"1094540100":{"location":[44.6378081,16.0423879],"ct":"BA","tp":"CS","ts":"2022-09-14T15:58:41Z","tX":557,"tY":369,"tags":{"access":"customers","area":"yes","fee":"yes","name":"Seosko domacinstvo Halil","payment:cash":"yes"}},"1417938468":{"location":[44.8015491,15.9052395],"ct":"BA","tp":"CS","ts":"2018-10-26T19:34:52Z","tX":557,"tY":369,"tags":{"caravans":"yes","fee":"yes","internet_access":"wlan","internet_access:fee":"no","name":"AdaCampsite","tents":"yes"}},"1417938469":{"location":[44.8009991,15.9049745],"ct":"BA","tp":"CR","ts":"2015-06-13T14:00:18Z","tX":557,"tY":369,"tags":{}},"3594216403":{"location":[44.7559502,15.8364135],"ct":"BA","tp":"CS","ts":"2015-06-14T10:46:49Z","tX":557,"tY":369,"tags":{}},"5246042941":{"location":[44.7482451,15.938077],"ct":"BA","tp":"CS","ts":"2017-11-24T17:51:11Z","tX":557,"tY":369,"tags":{}},"10009753407":{"location":[44.6587625,16.0365915],"ct":"BA","tp":"CS","ts":"2022-09-08T19:14:19Z","tX":557,"tY":369,"tags":{"description":"Between plum trees","fee":"no"}},"10943634461":{"location":[44.8219699,15.8230028],"ct":"BA","tp":"CS","ts":"2023-06-01T08:19:49Z","tX":557,"tY":369,"tags":{"internet_access":"yes","name":"Auto / Tent Camping","payment:debit_cards":"no","phone":"+387 61 972 869"}}}