{"164431822":{"location":[43.7049961,15.8686937],"ct":"HR","tp":"CS","ts":"2020-05-18T20:10:05Z","tX":557,"tY":373,"tags":{"landuse":"forest"}},"180816783":{"location":[43.6508799,15.9507501],"ct":"HR","tp":"CS","ts":"2024-08-09T06:55:31Z","tX":557,"tY":373,"tags":{"caravans":"yes","name":"Kamp Jasenovo","tents":"yes"}},"292172062":{"location":[43.6303948,15.9386419],"ct":"HR","tp":"CS","ts":"2025-06-15T11:15:26Z","tX":557,"tY":373,"tags":{"addr:city":"Grebaštica","addr:country":"HR","addr:housenumber":"1P, D8 1P","addr:postcode":"22010","addr:street":"Šparadići","caravans":"yes","drinking_water":"yes","email":"robertperkov@net.hr","name":"Camp Barinica","phone":"+385 22 332 811","power_supply":"yes","sanitary_dump_station":"yes","shower":"yes","tents":"yes","toilets":"yes","website":"https://camp-barinica.com/"}},"363605782":{"location":[43.8226164,15.9209923],"ct":"HR","tp":"CS","ts":"2023-02-26T12:01:21Z","tX":557,"tY":373,"tags":{"access":"customers","backcountry":"no","caravans":"yes","check_date":"2022-10-10","dog":"leashed","drinking_water":"yes","fee":"yes","group_only":"no","internet_access":"wlan","internet_access:fee":"customers","kitchen":"yes","name":"Skradinske delicije","openfire":"no","payment:cards":"no","payment:cash":"only","payment:credit_cards":"no","payment:debit_cards":"no","phone":"+385 91 520 9330","power_supply":"yes","reservation":"yes","shower":"yes","tents":"yes","toilets":"yes","toilets:wheelchair":"no"}},"364766320":{"location":[43.5912859,15.9242435],"ct":"HR","tp":"CS","ts":"2015-08-09T14:15:46Z","tX":557,"tY":373,"tags":{"capacity":"2","fee":"yes","name":"mini Camp"}},"364766321":{"location":[43.5908789,15.9243084],"ct":"HR","tp":"CS","ts":"2015-08-09T14:15:46Z","tX":557,"tY":373,"tags":{"fee":"yes","name":"mini Camp"}},"372201488":{"location":[43.6170944,15.9192887],"ct":"HR","tp":"CS","ts":"2022-10-28T13:43:00Z","tX":557,"tY":373,"tags":{"access":"customers","addr:city":"Primošten Burnji","backcountry":"no","capacity:caravans":"25","check_date":"2022-10-10","fee":"yes","group_only":"no","internet_access":"wlan","internet_access:fee":"customers","name":"Camp Horizont","power_supply":"yes","sanitary_dump_station":"yes","shower":"yes","toilets":"yes"}},"514774332":{"location":[43.7996031,15.9429052],"ct":"HR","tp":"CS","ts":"2022-07-04T15:13:47Z","tX":557,"tY":373,"tags":{"addr:city":"Lozovac","addr:housenumber":"6","addr:street":"Skocici","name":"Camp Marina","website":"http://www.camp-marina.hr","wheelchair":"limited"}},"684634006":{"location":[43.8243489,15.9112274],"ct":"HR","tp":"CR","ts":"2019-04-18T17:36:51Z","tX":557,"tY":373,"tags":{"name":"Auto-kamp Skradin-Skorići"}},"687648243":{"location":[43.6063684,15.9204854],"ct":"HR","tp":"CS","ts":"2023-05-06T14:12:25Z","tX":557,"tY":373,"tags":{"addr:city":"Primosten","addr:street":"Huljerat","email":"camp-adriatiq@adriatiq.com","fax":"+385 22 571 360","name":"Camping Adriatiq","phone":"+385 22 571 223","website":"https://autocamp-adriatiq.com"}},"729349764":{"location":[43.8003095,15.9414826],"ct":"HR","tp":"CS","ts":"2021-12-07T12:19:05Z","tX":557,"tY":373,"tags":{"addr:city":"Lozovac","addr:housenumber":"21","addr:street":"Skocici","name":"Camp Krka","website":"http://www.camp-krka.hr"}},"730014740":{"location":[43.6978569,15.8796631],"ct":"HR","tp":"CS","ts":"2023-10-29T04:12:10Z","tX":557,"tY":373,"tags":{"email":"camping@solaris.hr","name":"Camping Resort Solaris","phone":"+385 22 361 017","sanitary_dump_station":"customers","website":"https://www.campingsolaris.com/"}},"932726795":{"location":[43.5933482,15.925771],"ct":"HR","tp":"CS","ts":"2010-10-01T09:25:24Z","tX":557,"tY":373,"tags":{"name":"minicamp Kampiralište"}},"942206142":{"location":[43.6306422,15.9567278],"ct":"HR","tp":"CS","ts":"2021-05-12T11:48:15Z","tX":557,"tY":373,"tags":{"addr:city":"Šibenik","addr:housenumber":"71A","addr:postcode":"22105","addr:street":"Šparadići","name":"Auto Camp Legend","phone":"+385 98 336 435","website":"http://camplegend-zt.hr"}},"942206144":{"location":[43.6305478,15.9562178],"ct":"HR","tp":"CS","ts":"2021-05-12T11:48:15Z","tX":557,"tY":373,"tags":{"name":"Avtokamp Ante-Toni","name:en":"Mini-camping Ante & Toni"}},"1988256681":{"location":[43.6618578,15.9413748],"ct":"HR","tp":"CS","ts":"2022-08-08T11:53:49Z","tX":557,"tY":373,"tags":{"name":"Autocamp More"}},"2347344631":{"location":[43.6303898,15.9378233],"ct":"HR","tp":"CS","ts":"2025-06-15T11:15:09Z","tX":557,"tY":373,"tags":{"addr:city":"Primosten","addr:housenumber":"34/1","addr:street":"Bilo","caravans":"yes","drinking_water":"yes","name":"Mini-camping Tomas","power_supply":"yes","sanitary_dump_station":"yes","shower":"yes","tents":"yes","toilets":"yes"}},"2512756648":{"location":[43.6781834,15.9201022],"ct":"HR","tp":"CS","ts":"2017-07-05T23:28:01Z","tX":557,"tY":373,"tags":{"name":"auto camp\"Klaus'"}},"3024400909":{"location":[43.6333947,15.9668035],"ct":"HR","tp":"CS","ts":"2014-08-18T12:07:26Z","tX":557,"tY":373,"tags":{"name":"Camp Vala"}},"3671480052":{"location":[43.6820244,15.9185284],"ct":"HR","tp":"CS","ts":"2015-07-29T09:31:07Z","tX":557,"tY":373,"tags":{"addr:city":"Brodarica","addr:housenumber":"38","addr:postcode":"22010","addr:street":"Gomljanika","capacity":"10","fee":"yes","name":"Camp Sani"}},"3671512164":{"location":[43.6833013,15.9181746],"ct":"HR","tp":"CS","ts":"2015-07-29T09:35:24Z","tX":557,"tY":373,"tags":{"capacity":"20","caravans":"yes","fee":"yes","leisure":"swimming_pool","name":"Autocamp Verdana","tents":"yes"}},"5095425222":{"location":[43.7955486,15.9665497],"ct":"HR","tp":"CS","ts":"2023-04-01T15:48:17Z","tX":557,"tY":373,"tags":{"addr:housenumber":"2e","addr:postcode":"22221","addr:street":"Lozovac","email":"info@vrata-krke.hr","internet_access":"wlan","mobile":"+385 955 174 547","name:en":"Camping Vrata Krke","opening_hours":"24/7","phone":"+385 22 778 092","website":"http://vrata-krke.hr/campsite/"}},"8923034552":{"location":[43.7295373,15.8793336],"ct":"HR","tp":"CS","ts":"2021-07-15T16:53:53Z","tX":557,"tY":373,"tags":{}},"4466470589":{"location":[43.650239,15.9498487],"ct":"HR","tp":"CR","ts":"2019-01-06T17:03:26Z","tX":557,"tY":373,"tags":{"name":"Las nad morzem"}},"6723120485":{"location":[43.7916249,15.9710257],"ct":"HR","tp":"CR","ts":"2023-07-16T12:17:24Z","tX":557,"tY":373,"tags":{"name":"Camp \"Slapovi Krke\""}},"6832945663":{"location":[43.7994726,15.942581],"ct":"HR","tp":"SD","ts":"2019-09-28T15:39:07Z","tX":557,"tY":373,"tags":{}},"6832945699":{"location":[43.8001259,15.9418447],"ct":"HR","tp":"SD","ts":"2019-09-28T15:39:07Z","tX":557,"tY":373,"tags":{}},"6838689033":{"location":[43.7012811,15.875511],"ct":"HR","tp":"SD","ts":"2019-09-30T19:02:55Z","tX":557,"tY":373,"tags":{}}}