{"5372995":{"location":[41.9403128,16.0745437],"ct":"IT","tp":"CS","ts":"2022-07-06T18:07:52Z","tX":557,"tY":380,"tags":{"name":"Internazionale Manacore Village"}},"11278223":{"location":[41.9254673,15.8581806],"ct":"IT","tp":"CS","ts":"2020-07-06T21:43:29Z","tX":557,"tY":380,"tags":{}},"26859389":{"location":[41.9208598,16.1094435],"ct":"IT","tp":"CS","ts":"2021-09-15T11:04:19Z","tX":557,"tY":380,"tags":{"name":"Baia Lombardi"}},"26859484":{"location":[41.9120427,16.1239081],"ct":"IT","tp":"CS","ts":"2023-09-06T22:45:14Z","tX":557,"tY":380,"tags":{"addr:place":"Pantani","addr:postcode":"71019","addr:street":"SP 52","caravans":"yes","fee":"yes","name":"Diomedee","payment:bonifico":"yes","payment:cash":"yes","payment:credit_cards":"yes","ref:vatin":"IT00355850710","static_caravans":"yes","tents":"yes"}},"26859545":{"location":[41.935278,16.090556],"ct":"IT","tp":"CS","ts":"2015-12-03T11:21:32Z","tX":557,"tY":380,"tags":{"name":"Grotta dell'Acqua"}},"26859607":{"location":[41.919774,16.110063],"ct":"IT","tp":"CS","ts":"2021-09-15T11:04:19Z","tX":557,"tY":380,"tags":{"name":"Campeggio Spiaggia Lunga","name:en":"Long Beach","name:it":"Campeggio Spiaggia Lunga"}},"26859618":{"location":[41.936667,16.070556],"ct":"IT","tp":"CS","ts":"2007-03-28T17:22:17Z","tX":557,"tY":380,"tags":{"created_by":"JOSM","name":"Manacorre"}},"26859739":{"location":[41.925278,15.861111],"ct":"IT","tp":"CS","ts":"2007-03-28T17:22:34Z","tX":557,"tY":380,"tags":{"created_by":"JOSM","name":"Ripa"}},"26859793":{"location":[41.912222,16.134444],"ct":"IT","tp":"CS","ts":"2021-10-03T16:19:28Z","tX":557,"tY":380,"tags":{"created_by":"JOSM","internet_access":"wlan","name":"Scialmarino"}},"26859823":{"location":[41.9236415,15.839653],"ct":"IT","tp":"CS","ts":"2018-07-20T09:52:38Z","tX":557,"tY":380,"tags":{"name":"Stelle Sud"}},"26859850":{"location":[41.909167,16.123333],"ct":"IT","tp":"CS","ts":"2007-03-28T17:22:51Z","tX":557,"tY":380,"tags":{"created_by":"JOSM","name":"Touringo"}},"89583914":{"location":[41.9138966,16.1214079],"ct":"IT","tp":"CS","ts":"2024-08-07T10:28:38Z","tX":557,"tY":380,"tags":{"caravans":"yes","email":"info@terrazzasulmare.it","fax":"+39 0884705639","name":"Terrazza sul mare","phone":"+39 0884705639","stars":"3","tents":"yes","website":"http://www.terrazzasulmare.it"}},"175936097":{"location":[41.9443208,16.0055014],"ct":"IT","tp":"CR","ts":"2024-08-09T13:10:12Z","tX":557,"tY":380,"tags":{"dog":"yes","email":"info@sostacamperbaiadipeschici.it","name":"Sosta Camper Baia di Peschici","phone":"+39 3791244564","power_supply":"cee_17_blue","sanitary_dump_station":"yes","website":"https://www.sostacamperbaiadipeschici.it/"}},"204934512":{"location":[41.9340365,15.9560005],"ct":"IT","tp":"CS","ts":"2019-03-17T13:25:06Z","tX":557,"tY":380,"tags":{"leisure":"park","name":"Camping Villaggio Internazionale","phone":"+39 0884 968528","website":"https://www.villaggiointernazionale.net/index.php"}},"232688234":{"location":[41.9455488,16.0490082],"ct":"IT","tp":"CS","ts":"2024-08-07T09:03:04Z","tX":557,"tY":380,"tags":{"addr:city":"Peschici","addr:postcode":"71010","addr:street":"Località Manaccora","cabins":"yes","dog":"yes","email":"info@manaccora.it","motorhome":"yes","name":"Baia Di Manaccora","phone":"+39 0884911050","power_supply":"yes","shower":"yes","tents":"yes","toilets":"yes","website":"https://baiadimanaccora.it/"}},"233113270":{"location":[41.9448281,16.0032767],"ct":"IT","tp":"CS","ts":"2024-08-09T13:10:12Z","tX":557,"tY":380,"tags":{"caravans":"yes","dog":"yes","fee":"yes","motorhome":"yes","name":"Villaggio Ialillo","payment:cash":"yes","payment:credit_cards":"yes","payment:debit_cards":"yes","phone":"+39 0884 963406","power_supply":"cee_17_blue","power_supply:maxcurrent":"6","sanitary_dump_station":"yes","tents":"yes","website":"https://www.villaggioialillo.it/Camping_Jalillo.asp"}},"233113272":{"location":[41.945318,16.0067876],"ct":"IT","tp":"CS","ts":"2024-08-09T13:10:12Z","tX":557,"tY":380,"tags":{"caravans":"yes","dog":"yes","motorhome":"yes","name":"Villaggio Camping Bellariva","phone":"+39 0884 963423","power_supply":"cee_17_blue","tents":"yes","website":"https://www.villaggiobellariva.it/"}},"240305038":{"location":[41.9267002,15.8737407],"ct":"IT","tp":"CS","ts":"2024-08-09T08:35:02Z","tX":557,"tY":380,"tags":{"addr:city":"Rodi Garganico","addr:postcode":"71012","addr:street":"Via Belvedere","caravans":"yes","facebook":"frontemarevillage","name":"Frontemare","phone":"+39.0884 965579","source":"Survey","tents":"yes","website":"https://frontemarepuglia.it/"}},"288227954":{"location":[41.924539,15.962165],"ct":"IT","tp":"CS","ts":"2019-03-17T13:25:09Z","tX":557,"tY":380,"tags":{"name":"Camping Valle D'oro","phone":"+39 0884 991580","website":"https://www.campingvalledoro.it/"}},"359220851":{"location":[41.8995382,16.1524735],"ct":"IT","tp":"CS","ts":"2024-11-30T21:46:59Z","tX":557,"tY":380,"tags":{"caravans":"yes","fee":"yes","name":"Camping Punta Lunga","tents":"yes","website":"https://puntalunga.it"}},"406348692":{"location":[41.9135615,16.1238766],"ct":"IT","tp":"CS","ts":"2023-09-06T22:45:14Z","tX":557,"tY":380,"tags":{"access":"customers","caravans":"yes","fee":"yes","static_caravans":"no","tents":"yes"}},"406349402":{"location":[41.9139389,16.12281],"ct":"IT","tp":"CS","ts":"2023-09-06T22:45:14Z","tX":557,"tY":380,"tags":{"access":"customers","caravans":"yes","fee":"yes","static_caravans":"no","tents":"yes"}},"406349749":{"location":[41.9136194,16.1228476],"ct":"IT","tp":"CS","ts":"2023-09-06T22:45:14Z","tX":557,"tY":380,"tags":{"access":"customers","caravans":"yes","fee":"yes","static_caravans":"no","tents":"yes"}},"406350028":{"location":[41.9140271,16.1228407],"ct":"IT","tp":"CS","ts":"2023-09-06T22:45:14Z","tX":557,"tY":380,"tags":{"access":"customers","caravans":"yes","fee":"yes","static_caravans":"no","tents":"yes"}},"406351800":{"location":[41.9133188,16.1237306],"ct":"IT","tp":"CS","ts":"2023-09-06T22:45:14Z","tX":557,"tY":380,"tags":{"access":"customers","caravans":"yes","fee":"yes","static_caravans":"no","tents":"yes"}},"406352008":{"location":[41.9137436,16.1228475],"ct":"IT","tp":"CS","ts":"2023-09-06T22:45:14Z","tX":557,"tY":380,"tags":{"access":"customers","caravans":"yes","fee":"yes","static_caravans":"no","tents":"yes"}},"406353061":{"location":[41.9138827,16.122787],"ct":"IT","tp":"CS","ts":"2023-09-06T22:45:14Z","tX":557,"tY":380,"tags":{"access":"customers","caravans":"yes","fee":"yes","static_caravans":"no","tents":"yes"}},"406355286":{"location":[41.9134248,16.1238023],"ct":"IT","tp":"CS","ts":"2023-09-06T22:45:14Z","tX":557,"tY":380,"tags":{"access":"customers","caravans":"yes","fee":"yes","static_caravans":"no","tents":"yes"}},"406355383":{"location":[41.9136705,16.1238981],"ct":"IT","tp":"CS","ts":"2023-09-06T22:45:14Z","tX":557,"tY":380,"tags":{"access":"customers","caravans":"yes","fee":"yes","static_caravans":"no","tents":"yes"}},"442887055":{"location":[41.941383,16.0089673],"ct":"IT","tp":"CS","ts":"2024-08-09T11:26:20Z","tX":557,"tY":380,"tags":{"addr:city":"Peschici","addr:street":"Strada Provinciale","caravans":"yes","dog":"yes","motorhome":"yes","name":"Parco degli ulivi","power_supply":"yes","shower":"yes","tents":"yes","toilets":"yes"}},"445225300":{"location":[41.9080306,16.1497844],"ct":"IT","tp":"CS","ts":"2017-07-26T23:49:21Z","tX":557,"tY":380,"tags":{"addr:street":"Localita Molinella","fee":"yes","name":"Camping Molinella"}},"507372871":{"location":[41.9419355,15.9833798],"ct":"IT","tp":"CR","ts":"2024-08-29T11:48:00Z","tX":557,"tY":380,"tags":{"addr:street":"Strada Provinciale","capacity":"50","fee":"yes","internet_access":"wlan","motorhome":"designated","name":"Area Camper Lido Azzurro","phone":"+39 340 938 7104;+39 0345 477 7960","power_supply":"yes","sanitary_dump_station":"yes","shower":"yes","toilets":"yes","website":"www.azzurrocalenella.it"}},"507373732":{"location":[41.9403429,15.9784159],"ct":"IT","tp":"CS","ts":"2024-08-09T11:24:29Z","tX":557,"tY":380,"tags":{"cabins":"yes","capacity:caravans":"50","capacity:tents":"50","caravans":"yes","contact:whatsapp":"+393488273850","dog":"yes","email":"baiacalenella@baiacalenella.com","fee":"yes","motorhome":"yes","name":"Baia Calenella","phone":"+39 348 827 3855","power_supply":"yes","shower":"yes","tents":"yes","toilets":"yes","website":"https://baiacalenella.com/"}},"510894159":{"location":[41.9434208,16.033835],"ct":"IT","tp":"CS","ts":"2024-08-07T08:52:02Z","tX":557,"tY":380,"tags":{"addr:city":"Peschici","addr:street":"Litoranea","caravans":"yes","dog":"yes","drinking_water":"yes","fee":"yes","internet_access":"wlan","name":"Centro Touristico San Nicola","power_supply":"yes","power_supply:maxcurrent":"6;16","shower":"yes","tents":"no","toilets":"yes","website":"https://www.sannicola.it/"}},"510894236":{"location":[41.9447098,16.0308962],"ct":"IT","tp":"CS","ts":"2024-08-07T08:52:02Z","tX":557,"tY":380,"tags":{"addr:city":"Peschici","addr:street":"loc. S.Nicola","caravans":"yes","dog":"yes","drinking_water":"yes","fee":"yes","internet_access":"wlan","internet_access:fee":"no","name":"Camping Baia San Nicola","power_supply":"yes","shower":"yes","tents":"no","toilets":"yes","website":"https://www.baiasannicola.it/"}},"533634269":{"location":[41.9311304,16.0956958],"ct":"IT","tp":"CS","ts":"2024-08-07T09:29:39Z","tX":557,"tY":380,"tags":{"caravans":"yes","contact:facebook":"https://www.facebook.com/holidayvillagevieste.it","contact:instagram":"https://www.instagram.com/holiday_village_vieste/","dog":"yes","email":"info@holidayvillagevieste.it","fax":"+39 0884 705350","fee":"yes","internet_access":"wlan","name":"Camping Holiday Village","phone":"+39 0884 706138","power_supply":"yes","shower":"yes","tents":"yes","website":"https://holidayvillagevieste.it/"}},"560350310":{"location":[41.9204715,15.8214259],"ct":"IT","tp":"CS","ts":"2018-02-10T16:17:36Z","tX":557,"tY":380,"tags":{}},"560350321":{"location":[41.9228411,15.8354849],"ct":"IT","tp":"CS","ts":"2024-08-12T09:19:45Z","tX":557,"tY":380,"tags":{"cabins":"yes","caravans":"yes","name":"Jamaica","phone":"+39 347 629 1365","power_supply":"yes","shower":"yes","socket:cee_blue":"yes","tents":"yes","toilets":"yes"}},"611584735":{"location":[41.8987431,16.1505406],"ct":"IT","tp":"CS","ts":"2024-11-30T21:46:59Z","tX":557,"tY":380,"tags":{"addr:city":"Vieste","addr:postcode":"71019","addr:street":"Località Defensola","caravans":"yes","name":"Villaggio Punta Lunga","phone":"+39 0884 706031","tents":"yes","website":"https://www.puntalunga.it/","wheelchair":"yes"}},"1083748409":{"location":[41.9450866,16.0056001],"ct":"IT","tp":"CR","ts":"2024-08-09T13:10:12Z","tX":557,"tY":380,"tags":{"name":"Sosta Camper Marina Piccola","phone":"+39 340 732 5366","power_supply":"cee_17_blue","sanitary_dump_station":"yes","website":"https://www.facebook.com/sostacampermarinapiccolapeschici/"}},"1083748410":{"location":[41.9453991,16.0110279],"ct":"IT","tp":"CR","ts":"2024-08-07T08:46:32Z","tX":557,"tY":380,"tags":{"addr:city":"Peschici","addr:postcode":"71010","addr:street":"Strada Provinciale","name":"Area Camper Dattoli","phone":"+39 342 984 4458","power_supply":"yes","sanitary_dump_station":"yes","shower":"yes"}},"1155335508":{"location":[41.9212078,15.8294501],"ct":"IT","tp":"CS","ts":"2024-08-12T09:19:45Z","tX":557,"tY":380,"tags":{"cabins":"yes","caravans":"yes","description":"Camping Village","name":"Lido del Gargano","phone":"+39 333 866 0273","power_supply":"yes","shower":"yes","socket:cee_blue":"yes","tents":"yes","toilets":"yes","website":"https://www.lidodelgargano.it"}},"1155335509":{"location":[41.9218081,15.8309354],"ct":"IT","tp":"CS","ts":"2024-08-12T09:19:45Z","tX":557,"tY":380,"tags":{"cabins":"yes","caravans":"yes","dog":"yes","email":"serenellacamping@gmail.com","name":"Serenella","phone":"+39 0884 917054","power_supply":"yes","shower":"yes","socket:cee_blue":"yes","tents":"yes","toilets":"yes","website":"https://www.campingserenella.it"}},"1158551421":{"location":[41.9395147,16.0486651],"ct":"IT","tp":"CS","ts":"2024-08-07T09:03:04Z","tX":557,"tY":380,"tags":{"cabins":"yes","caravans":"yes","dog":"leashed","email":"info@la-gemma.it","name":"Camping La Gemma","phone":"+39 347 6300994;+39 347 291 0265","power_supply":"yes","tents":"yes","website":"https://la-gemma.it/"}},"1158551422":{"location":[41.9443946,16.0437017],"ct":"IT","tp":"CS","ts":"2024-08-07T09:03:04Z","tX":557,"tY":380,"tags":{"addr:street":"Località Baia di Manaccora","cabins":"yes","caravans":"yes","email":"info@valleolivo.it","name":"Camping Valle Olivo","phone":"+39 0884 911177","power_supply":"yes","shower":"yes","tents":"yes","toilets":"yes","website":"https://valleolivo.it/"}},"1205648603":{"location":[41.913141,16.1238755],"ct":"IT","tp":"CS","ts":"2023-09-06T22:45:14Z","tX":557,"tY":380,"tags":{"access":"customers","caravans":"yes","fee":"yes","static_caravans":"no","tents":"yes"}},"1205648604":{"location":[41.91307,16.123624],"ct":"IT","tp":"CS","ts":"2023-09-06T22:45:14Z","tX":557,"tY":380,"tags":{"access":"customers","caravans":"yes","fee":"yes","static_caravans":"no","tents":"yes"}},"1205648605":{"location":[41.9128558,16.1235932],"ct":"IT","tp":"CS","ts":"2023-09-06T22:45:14Z","tX":557,"tY":380,"tags":{"access":"customers","caravans":"yes","fee":"yes","static_caravans":"no","tents":"yes"}},"1292599613":{"location":[41.9291134,16.10026],"ct":"IT","tp":"CS","ts":"2024-08-07T09:29:39Z","tX":557,"tY":380,"tags":{"addr:city":"Vieste","addr:postcode":"71019","addr:street":"Litoranea Peschici-Vieste","name":"Crovatico","phone":"+39 0884 706487","website":"https://crovaticoclubvacanze.it/"}},"1306120125":{"location":[41.9293711,16.096326],"ct":"IT","tp":"CS","ts":"2024-08-07T09:29:39Z","tX":557,"tY":380,"tags":{"addr:city":"Vieste","addr:housenumber":"1","addr:postcode":"71019","addr:street":"Litorane Peschici Vieste Km 9","area":"yes","dog":"yes","name":"Camping Village San Michele","name_1":"Villaggio San Michele","phone":"+39 0884 705367","power_supply":"yes","power_supply:maxcurrent":"6","website":"https://www.campingvillagesanmichele.it/","wheelchair":"yes"}},"1306121892":{"location":[41.9245499,16.1079808],"ct":"IT","tp":"CS","ts":"2024-08-07T09:38:44Z","tX":557,"tY":380,"tags":{"addr:city":"Vieste","addr:postcode":"71019","addr:street":"Litoranea Peschici-Vieste","area":"yes","caravans":"yes","dog":"leashed","internet_access":"wlan","internet_access:fee":"customers","name":"Capo Vieste","phone":"+39 0884 706326","phone:mobile":"+39 3407245960","power_supply":"yes","tents":"yes","website":"https://capovieste.it/"}},"1306133236":{"location":[41.9151172,16.1147792],"ct":"IT","tp":"CS","ts":"2024-08-07T10:28:38Z","tX":557,"tY":380,"tags":{"addr:city":"Vieste","addr:postcode":"71019","addr:street":"Litoranea Peschici-Vieste","capacity:caravans":"300","capacity:tents":"300","caravans":"yes","dog":"yes","name":"Villaggio Merino","phone":"+39 088 4706194","power_supply":"yes","tents":"yes","website":"https://www.villaggiomerinovieste.it/it/"}},"1306133239":{"location":[41.9161192,16.1171645],"ct":"IT","tp":"CS","ts":"2024-08-07T10:28:38Z","tX":557,"tY":380,"tags":{"capacity:caravans":"80","capacity:tents":"80","caravans":"yes","dog":"no","email":"umbramarevieste@tiscali.it","internet_access":"wlan","internet_access:fee":"customers","name":"Umbramare","phone":"+39 088 4706174","tents":"yes"}},"1306133240":{"location":[41.9130809,16.1198506],"ct":"IT","tp":"CS","ts":"2024-08-07T10:28:38Z","tX":557,"tY":380,"tags":{"addr:city":"Vieste","addr:street":"Litoranea Vieste Peschici","caravans":"yes","dog":"no","dog:conditional":"yes @ sep 16-apr 30","email":"info@centrovacanzeoriente.it","internet_access":"wlan","name":"Centro vacanze Oriente","phone":"+39 0884 707709","phone:mobile":"+39 393 6025233","power_supply":"yes","tents":"yes"}},"1306139756":{"location":[41.9105691,16.1250405],"ct":"IT","tp":"CS","ts":"2024-08-07T11:04:25Z","tX":557,"tY":380,"tags":{"caravans":"yes","dog":"yes","name":"Vieste Marina","phone":"+39 0884706471","power_supply":"yes","power_supply:maxcurrent":"5","shower":"yes","stars":"3","tents":"yes"}},"1306139759":{"location":[41.9105471,16.1268059],"ct":"IT","tp":"CS","ts":"2024-08-07T11:03:34Z","tX":557,"tY":380,"tags":{"caravans":"yes","dog":"yes","name":"Villaggio San Pablo","phone":"+39 0884 706369","power_supply":"yes","stars":"3"}},"1306141895":{"location":[41.910272,16.129468],"ct":"IT","tp":"CR","ts":"2024-08-07T11:16:35Z","tX":557,"tY":380,"tags":{"email":"fusilloros@gmail.com","name":"Casa Vanze Fusillo Rosina","phone":"+39 0884 273747","phone:mobile":"+39 349 6077063","power_supply":"yes","sanitary_dump_station":"yes","shower":"yes","washing_machine":"yes"}},"1306141896":{"location":[41.9117026,16.129109],"ct":"IT","tp":"CS","ts":"2024-08-07T11:16:35Z","tX":557,"tY":380,"tags":{"caravans":"yes","email":"info@oasivieste.it","name":"Villaggio Oasi","phone":"+39 0884 706470","power_supply":"yes","power_supply:maxcurrent":"3","tents":"yes","website":"https://www.oasivieste.it/"}},"1306511145":{"location":[41.9233955,15.8400026],"ct":"IT","tp":"CS","ts":"2024-08-12T09:19:45Z","tX":557,"tY":380,"tags":{"addr:city":"Rodi Garganico","addr:postcode":"71012","addr:street":"Via delle more","caravans":"yes","email":"info@villagestelladelsud.it","name":"Stella del Sud","phone":"+39 0884 91702","phone:mobile":"+39 349 5574863","power_supply":"yes","socket:cee_blue":"yes","tents":"yes","website":"https://www.villagestelladelsud.it/"}},"1306514335":{"location":[41.9242561,15.8426567],"ct":"IT","tp":"CR","ts":"2024-08-09T08:19:58Z","tX":557,"tY":380,"tags":{"addr:city":"Rodi Garganico","addr:postcode":"71012","addr:street":"Via delle more","name":"Sosta Camper Sole"}},"1306514336":{"location":[41.9238705,15.842263],"ct":"IT","tp":"CS","ts":"2024-08-12T09:19:45Z","tX":557,"tY":380,"tags":{"caravans":"yes","dog":"yes","email":"info@sostacampergargano.it","internet_access":"yes","name":"Isola Bella Sosta Camper","phone":"+39 389.1368318","power_supply":"yes","socket:cee_blue":"yes","static_caravans":"yes","tents":"yes","website":"https://www.sostacampergargano.it/"}},"1306515623":{"location":[41.9225616,15.843504],"ct":"IT","tp":"CS","ts":"2024-08-12T09:19:45Z","tX":557,"tY":380,"tags":{"caravans":"yes","email":"info@siestacamping.it","name":"Siesta Villaggio Vacanze","phone":"+39 0884 917009","power_supply":"yes","power_supply:maxcurrent":"3;6","shower":"yes","socket:cee_blue":"yes","tents":"yes","toilets":"yes","website":"https://www.siestacamping.it/"}},"2108393993":{"location":[41.9109228,15.9213994],"ct":"IT","tp":"CS","ts":"2023-10-28T06:37:28Z","tX":557,"tY":380,"tags":{"email":"info@naturistgargano.it","name":"Parco del Gargano","nudism":"yes","phone":"+39 0884 965333","website":"https://www.naturistgargano.it/"}},"2149130547":{"location":[41.9339951,15.9557855],"ct":"IT","tp":"CR","ts":"2013-02-10T16:09:33Z","tX":557,"tY":380,"tags":{}},"2902801795":{"location":[41.9106261,16.1294287],"ct":"IT","tp":"CR","ts":"2019-04-17T06:37:41Z","tX":557,"tY":380,"tags":{"fixme":"This is a holiday village with chalets and an area for camper (RVs). ","name":"Fusilio Rosina"}},"2902808652":{"location":[41.9113187,16.1262825],"ct":"IT","tp":"CS","ts":"2024-08-07T11:03:34Z","tX":557,"tY":380,"tags":{"name":"1"}},"2902809159":{"location":[41.9107928,16.1128795],"ct":"IT","tp":"CS","ts":"2014-07-22T09:19:31Z","tX":557,"tY":380,"tags":{"name":"Il delfino"}},"2972877733":{"location":[41.9039859,16.1506093],"ct":"IT","tp":"CS","ts":"2014-07-21T10:44:23Z","tX":557,"tY":380,"tags":{"name":"Villaggio La Giara","source":"survey"}},"4238969189":{"location":[41.9103726,16.1321849],"ct":"IT","tp":"CS","ts":"2016-06-12T09:01:45Z","tX":557,"tY":380,"tags":{"internet_access":"wlan","name":"Malia Village"}},"7721404740":{"location":[41.9118547,16.1373574],"ct":"IT","tp":"CS","ts":"2020-07-16T15:14:05Z","tX":557,"tY":380,"tags":{"name":"Baia della Tufara"}},"7721412971":{"location":[41.9105078,16.1356249],"ct":"IT","tp":"CS","ts":"2023-10-18T09:32:34Z","tX":557,"tY":380,"tags":{"contact:phone":"+39 0884 706345","name":"Camping Village Baia Falcone","website":"https://www.baiafalcone.it/"}},"5160694621":{"location":[41.9437854,16.0309847],"ct":"IT","tp":"SD","ts":"2017-10-11T11:39:37Z","tX":557,"tY":380,"tags":{"access":"permissive","operator":"Camping Baya San Nicola","water_point":"yes"}},"5160760968":{"location":[41.9422662,15.9840597],"ct":"IT","tp":"SD","ts":"2017-10-11T12:15:39Z","tX":557,"tY":380,"tags":{"access":"permissive","water_point":"yes"}},"12096724441":{"location":[41.9448754,16.0028216],"ct":"IT","tp":"SD","ts":"2024-08-07T08:45:16Z","tX":557,"tY":380,"tags":{"access":"customers","water_point":"yes"}}}