{"11278322":{"location":[41.6570634,15.9766766],"ct":"IT","tp":"CS","ts":"2020-07-06T22:51:14Z","tX":557,"tY":381,"tags":{"name":"Baia del Monaco"}},"26859761":{"location":[41.7333352,16.114997],"ct":"IT","tp":"CS","ts":"2008-08-17T05:55:07Z","tX":557,"tY":381,"tags":{"created_by":"Potlatch 0.10b","name":"Fontana delle Rose"}},"36503980":{"location":[41.5553665,15.8939996],"ct":"IT","tp":"CS","ts":"2024-10-22T08:47:55Z","tX":557,"tY":381,"tags":{"addr:city":"Manfredonia","addr:housenumber":"km 6,2","addr:postcode":"71043","addr:street":"SP141 delle Saline","caravans":"yes","contact:mobile":"+39 349 7681817","contact:phone":"+39 0884 571160","dog":"yes","email":"info@lidosalpi.it","fee":"yes","motorhome":"yes","name":"Lido Salpi","power_supply":"yes","power_supply:maxcurrent":"6","sanitary_dump_station":"yes","shower":"hot","socket:cee_blue":"yes","tents":"yes","toilets":"yes","website":"https://campinglidosalpi.it/"}},"137547153":{"location":[41.5100356,15.9135777],"ct":"IT","tp":"CS","ts":"2024-09-23T08:43:39Z","tX":557,"tY":381,"tags":{"addr:city":"Manfredonia","addr:place":"Ippocampo","addr:postcode":"71043","cabins":"yes","caravans":"yes","motorhome":"yes","name":"Campeggio Ippocampo","payment:cash":"yes","payment:credit_cards":"yes","payment:debit_cards":"yes","phone":"+39 0884 571121","power_supply":"yes","tents":"yes","website":"https://www.campingippocampo.it/"}},"516232798":{"location":[41.7611742,16.159633],"ct":"IT","tp":"CS","ts":"2020-01-29T21:08:06Z","tX":557,"tY":381,"tags":{"email":"info@vignanotica.it","internet_access":"yes","internet_access:fee":"no","name":"Vignanotica Residece Camping","phone":"+39 0884550640","website":"https://www.vignanotica.it/"}},"1326660945":{"location":[41.7048567,16.0674371],"ct":"IT","tp":"CS","ts":"2024-10-21T14:46:55Z","tX":557,"tY":381,"tags":{"addr:street":"Contrada Funni","caravans":"yes","dog":"no","email":"info@mattinatacamping.it","fee":"yes","internet_access":"wlan","internet_access:fee":"no","motorhome":"yes","name":"Mattinata Camping","phone":"+390884550313","power_supply":"yes","sanitary_dump_station":"yes","shower":"yes","tents":"yes","toilets":"yes","washing_machine":"yes","website":"https://mattinatacamping.it/"}},"1326717474":{"location":[41.6976187,16.0638253],"ct":"IT","tp":"CR","ts":"2024-10-21T14:52:53Z","tX":557,"tY":381,"tags":{"addr:street":"Contrada Funni","dog":"yes","email":"elianti.mattinata@gmail.com","name":"Elianti Mare","phone":"+39 345 230 6682","power_supply":"yes","sanitary_dump_station":"yes","shower":"yes","toilets":"yes","website":"https://www.facebook.com/eliantimare/"}},"1327163960":{"location":[41.7079231,16.0668905],"ct":"IT","tp":"CS","ts":"2024-10-22T06:16:04Z","tX":557,"tY":381,"tags":{"cabins":"yes","caravans":"yes","contact:mobile":"+39 331.5367717","contact:phone":"+39 0884.550000","dog":"yes","fee":"yes","motorhome":"yes","name":"Degli Ulivi","phone":"+39 0187 816495","tents":"yes","washing_machine":"yes","website":"https://www.villagedegliulivi.it/"}},"1327163963":{"location":[41.7086881,16.0687959],"ct":"IT","tp":"CS","ts":"2024-10-22T06:16:04Z","tX":557,"tY":381,"tags":{"addr:street":"Contrada Funni","cabins":"yes","caravans":"yes","contact:phone":"+393312891155","contact:whatsapp":"+420608330419","dog":"yes","fee":"yes","motorhome":"yes","name":"Villaggio Riccio","tents":"yes","website":"https://www.villaggioriccio.it/"}},"1327169769":{"location":[41.7060707,16.0679301],"ct":"IT","tp":"CR","ts":"2024-10-22T07:03:43Z","tX":557,"tY":381,"tags":{"addr:street":"Contrada Funni","contact:phone":"+393475725142","dog":"yes","name":"Eden Park","power_supply":"yes","power_supply:maxcurrent":"6","sanitary_dump_station":"yes","shower":"yes","shower:fee":"yes","socket:cee_blue":"yes"}},"1327171804":{"location":[41.7105995,16.0722662],"ct":"IT","tp":"CR","ts":"2024-10-22T07:14:37Z","tX":557,"tY":381,"tags":{"addr:city":"Mattinata","addr:street":"SP53 Mattinata - Vieste","contact:email":"info@auliv.it","contact:phone":"+39 340 1715703","dog":"leashed","name":"Sosta Camper da Francesco","power_supply":"yes","sanitary_dump_station":"yes","socket:cee_blue":"yes","website":"https://www.auliv.it/prezzi-sosta-camper/"}},"5817179799":{"location":[41.662209,15.9863611],"ct":"IT","tp":"CS","ts":"2018-08-08T06:42:34Z","tX":557,"tY":381,"tags":{"description":"small \"private\" camp site managed by Michael, charge 12 EUR for 1 person+tent","name":"Camping"}}}