{"326388199":{"location":[38.6783813,15.8941317],"ct":"IT","tp":"CS","ts":"2024-08-13T07:49:52Z","tX":557,"tY":392,"tags":{"capacity:caravans":"52","capacity:tents":"54","caravans":"yes","dog":"leashed","internet_access":"wlan","internet_access:fee":"customers","name":"Marina dell'Isola","operator":"Da Ciccio Parking","phone":"+39 0963 61970","power_supply":"yes","shower":"hot","socket:cee_blue":"yes","static_caravans":"no","tents":"yes","washing_machine":"yes","website":"https://www.campingmarinaisola.it/"}},"702269257":{"location":[38.616115,15.8378233],"ct":"IT","tp":"CS","ts":"2024-08-13T06:43:50Z","tX":557,"tY":392,"tags":{"fee":"yes","name":"Quattro Scogli","parking":"surface","phone":"+39 096 3663115"}},"1100601744":{"location":[38.7176958,16.0590237],"ct":"IT","tp":"CS","ts":"2023-09-02T22:28:09Z","tX":557,"tY":392,"tags":{"name":"Villaggio Dolomiti Sul Mare","phone":"+39 0963 391355"}},"1193766392":{"location":[38.6778163,15.8930785],"ct":"IT","tp":"CS","ts":"2024-08-13T07:49:52Z","tX":557,"tY":392,"tags":{"addr:city":"Tropea","addr:postcode":"89861","addr:street":"Lungomare Sorrentino","capacity:caravans":"80","capacity:tents":"80","caravans":"yes","motorhome":"yes","name":"Marina del Convento","phone":"+39  0963 62501","power_supply":"yes","shower":"hot","socket:cee_blue":"yes","tents":"yes","toilets":"yes","washing_machine":"yes","website":"https://www.marinadelconvento.it/"}},"1195616742":{"location":[38.6670243,15.8651817],"ct":"IT","tp":"CS","ts":"2024-08-13T07:28:14Z","tX":557,"tY":392,"tags":{"caravans":"yes","dog":"yes","email":"info@villaggiomarcopolo.net","motorhome":"yes","name":"Villaggio Marco Polo","phone":"+39 0963 669054","power_supply":"yes","socket:cee_blue":"yes","tents":"yes","website":"https://villaggiomarcopolo.net/campeggio/"}},"1199229046":{"location":[38.7136412,16.0755343],"ct":"IT","tp":"CS","ts":"2023-12-29T23:11:49Z","tX":557,"tY":392,"tags":{"name":"Eden"}},"1199288378":{"location":[38.6800751,15.9152358],"ct":"IT","tp":"CR","ts":"2024-08-13T08:00:24Z","tX":557,"tY":392,"tags":{"addr:city":"Tropea","addr:street":"Via Cervo Sant'Antonio","capacity:persons":"40","internet_access":"wlan","name":"Borgo sul Porto camper","phone":"+39 340 334 1208","power_supply":"yes","sanitary_dump_station":"yes","shower":"yes","socket:cee_blue":"yes","toilets":"yes","website":"https://www.borgosulporto.com"}},"1200617414":{"location":[38.6263992,15.8296518],"ct":"IT","tp":"CS","ts":"2024-10-25T09:17:51Z","tX":557,"tY":392,"tags":{"access":"customers","addr:city":"Ricadi","addr:postcode":"89866","addr:street":"Contrada Punta Tono","capacity:caravans":"200","caravans":"yes","contact:mobile":"+39 3775772400","description":"Mattendächer. Ausgedehnter Sandstrand unterhalb des Platzes. Großes Restaurant. Laden. Appartements. Wlan.","dog":"yes","email":"info@villaggiocampinglascogliera.com","fee":"yes","internet_access":"yes","motorhome":"yes","name":"Villaggio Camping La Scogliera","opening_hours":"Jan 01-Dec 31","payment:cash":"yes","payment:credit_cards":"yes","phone":"+39 0963 663002","power_supply":"yes","socket:cee_blue":"yes","tents":"yes","toilets":"yes","washing_machine":"yes","website":"https://www.villaggiocampinglascogliera.com"}},"1200626120":{"location":[38.6350509,15.8328269],"ct":"IT","tp":"CS","ts":"2024-08-13T06:43:50Z","tX":557,"tY":392,"tags":{"caravans":"yes","email":"info@villaggiofiorina.com","motorhome":"yes","name":"Villaggio Camping Fiorina","name:it":"Villaggio Camping Fiorina","phone":"+39 0963.663140","power_supply":"yes","power_supply:maxcurrent":"2,5;6","socket:cee_blue":"yes","static_caravans":"no","tents":"yes","website":"https://www.villaggiofiorina.com/"}},"1200847787":{"location":[38.7186112,16.0759777],"ct":"IT","tp":"CS","ts":"2023-08-21T14:49:42Z","tX":557,"tY":392,"tags":{"name":"Baia di Trainiti"}},"1200957712":{"location":[38.6209673,15.8370631],"ct":"IT","tp":"CS","ts":"2024-08-13T06:43:50Z","tX":557,"tY":392,"tags":{"addr:city":"Ricadi","addr:postcode":"89866","addr:street":"Località Grotticelle","caravans":"yes","email":"info@campinguliveto.it","motorhome":"yes","name":"Camping Uliveto","phone":"+39 0963663882","power_supply":"yes","power_supply:maxcurrent":"6","shower":"hot","socket:cee_blue":"yes","tents":"yes","toilets":"yes","website":"https://www.campinguliveto.it/"}},"1202733348":{"location":[38.659765,15.8503371],"ct":"IT","tp":"CS","ts":"2024-08-16T15:42:53Z","tX":557,"tY":392,"tags":{"addr:city":"Ricadi","addr:street":"C.da Formìcoli","caravans":"yes","dog":"yes","fee":"yes","motorhome":"yes","name":"Villaggio Formicoli","power_supply":"yes","tents":"yes","website":"https://www.villaggioformicoli.it/"}},"1202747152":{"location":[38.6580456,15.8486912],"ct":"IT","tp":"CR","ts":"2024-08-13T07:19:08Z","tX":557,"tY":392,"tags":{"addr:city":"Ricadi","addr:street":"C.da Formìcoli","name":"Camper Stop Formicoli","phone":"+39 348 0101511","phone:mobile":"+39 340 2660302","sanitary_dump_station":"no"}},"1203880492":{"location":[38.7086851,15.97032],"ct":"IT","tp":"CS","ts":"2023-08-31T08:31:12Z","tX":557,"tY":392,"tags":{"name":"Il Calabriano"}},"1204429470":{"location":[38.7068382,15.9688124],"ct":"IT","tp":"CS","ts":"2023-09-02T14:34:38Z","tX":557,"tY":392,"tags":{"name":"Sambalon"}},"1212810476":{"location":[38.7098967,15.9714531],"ct":"IT","tp":"CS","ts":"2023-10-03T16:49:36Z","tX":557,"tY":392,"tags":{"name":"Camping Calabria Verde"}},"1307415336":{"location":[38.6389536,15.8344993],"ct":"IT","tp":"CS","ts":"2024-08-13T06:46:13Z","tX":557,"tY":392,"tags":{"capacity:caravans":"80","capacity:tents":"80","caravans":"yes","description":"Direkt angrenzender Sandstrand. Pinien und Mattendächer. Restuarant und Lädchen.","fee":"yes","motorhome":"yes","name":"Costa Verde","opening_hours":"Jan 01-Dec 31","phone":"+39 0963 663090","tents":"yes","website":"https://www.costaverde.org"}},"1307416766":{"location":[38.6461447,15.8384962],"ct":"IT","tp":"CS","ts":"2024-08-13T06:51:29Z","tX":557,"tY":392,"tags":{"email":"campingfuego@hotmail.it","facebook":"https://www.facebook.com/villaggiocampingFuego/","fixme":"confini approssimativi","name":"Camping Fuego","name:it":"Camping Fuego","phone":"+39 328 093 7170"}},"1307423591":{"location":[38.6784391,15.8946756],"ct":"IT","tp":"CR","ts":"2024-08-13T07:49:52Z","tX":557,"tY":392,"tags":{"addr:city":"Tropea","addr:postcode":"89861","addr:street":"Lungomare Sorrentino","capacity":"40","check_date":"2023-06-15","dog":"yes","internet_access":"yes","name":"Da Ciccio Parking","power_supply":"yes","sanitary_dump_station":"yes","socket:cee_blue":"yes","washing_machine":"yes","website":"https://www.daciccioparking.com/"}}}