{"278854813":{"location":[-19.1808054,15.9179312],"ct":"NA","tp":"CS","ts":"2025-05-27T23:51:04Z","tX":557,"tY":567,"tags":{"addr:city":"Windhoek","addr:country":"NA","addr:street":"Private bag 13378","bar":"yes","big_rigs":"yes","camp_type":"established","caravans":"yes","description":"Large stoney, dusty field with some trees.; little shadow. Ablutions be renovated/rebuilt. Waterhole nearby.","dish_washing":"yes","drinking_water":"no","dryer":"no","fee":"NAD 462 (2 adults, camper)","fireplace":"braai","general_room":"no","internet":"no","kitchen":"no","laundry":"sink","name":"Campsite Okaukuejo Camp","opening_hours":"Mo-Su 08:00-19:00","pets":"no","phone":"+264 61 285 7200","power_supply":"220V","restaurant":"yes","sanitary_dumpstation":"no","shower":"hot","source":"Survey","swimming_pool":"yes","tents":"yes","toilets":"yes","toilets:disposal":"longdrop","toilets:position":"seated","water:location":"at_sites","water:quality":"potable","website":"https://www.etoshanationalpark.org/accommodation/okaukuejo"}},"11843204218":{"location":[-19.1806424,15.9176188],"ct":"NA","tp":"CS","ts":"2024-04-24T07:43:53Z","tX":557,"tY":567,"tags":{"addr:housenumber":"C12"}},"11843204219":{"location":[-19.1804469,15.9177066],"ct":"NA","tp":"CS","ts":"2024-04-24T07:43:54Z","tX":557,"tY":567,"tags":{"addr:housenumber":"C13"}},"11843204220":{"location":[-19.1802409,15.917875],"ct":"NA","tp":"CS","ts":"2024-04-24T07:43:54Z","tX":557,"tY":567,"tags":{"addr:housenumber":"C15"}},"11843204851":{"location":[-19.1807138,15.9175227],"ct":"NA","tp":"CS","ts":"2024-04-24T07:43:53Z","tX":557,"tY":567,"tags":{"addr:housenumber":"C11"}},"11843221379":{"location":[-19.1808127,15.9174326],"ct":"NA","tp":"CS","ts":"2024-04-24T07:43:53Z","tX":557,"tY":567,"tags":{"addr:housenumber":"C10"}},"11843221502":{"location":[-19.1809759,15.9174662],"ct":"NA","tp":"CS","ts":"2024-04-24T07:43:54Z","tX":557,"tY":567,"tags":{"addr:housenumber":"C9"}},"11843221595":{"location":[-19.1803483,15.9177996],"ct":"NA","tp":"CS","ts":"2024-04-24T07:43:54Z","tX":557,"tY":567,"tags":{"addr:housenumber":"C14"}},"11843221596":{"location":[-19.1804925,15.918013],"ct":"NA","tp":"CS","ts":"2024-04-24T07:43:54Z","tX":557,"tY":567,"tags":{"addr:housenumber":"C1"}}}