{"363773670":{"location":[43.171968,-79.0629677],"ct":"CA","tp":"CR","ts":"2015-08-03T15:15:48Z","tX":287,"tY":375,"tags":{}},"370625100":{"location":[43.2553417,-79.0616941],"ct":"CA","tp":"SD","ts":"2015-09-14T19:27:10Z","tX":287,"tY":375,"tags":{"name":"boat waste pumpout."}},"542318640":{"location":[43.3062487,-78.8705135],"ct":"US","tp":"CS","ts":"2017-12-18T22:24:38Z","tX":287,"tY":375,"tags":{"addr:city":"Wilson","addr:housenumber":"3101","addr:postcode":"14172","addr:state":"NY","addr:street":"West Lake Road","internet_access":"wlan","name":"Daisy Barn Campground"}},"1047623502":{"location":[43.18611,-78.9159224],"ct":"US","tp":"CS","ts":"2022-04-03T12:30:27Z","tX":287,"tY":375,"tags":{"access":"private","addr:city":"Ransomville","addr:housenumber":"4670","addr:postcode":"14131","addr:state":"NY","addr:street":"Albright","addr:unit":"Road","name":"Camp Stonehaven","operator":"Greater Niagara Frontier Council, Boy Scouts of America"}},"2292342665":{"location":[43.2744846,-78.9958339],"ct":"US","tp":"CR","ts":"2024-07-29T21:13:33Z","tX":287,"tY":375,"tags":{"drinking_water":"yes","fee":"yes","name":"Fourmile Creek","power_supply":"yes","sanitary_dump_station":"yes","toilets":"yes"}},"5085118765":{"location":[43.24306,-78.8578464],"ct":"US","tp":"CS","ts":"2017-09-07T05:44:52Z","tX":287,"tY":375,"tags":{"name":"Niagra Woodlands"}},"8069920891":{"location":[43.2059813,-78.8567627],"ct":"US","tp":"CS","ts":"2020-10-31T22:19:50Z","tX":287,"tY":375,"tags":{"name":"Niagara Lakes Lazy Resort"}}}