{"6572120":{"location":[43.0254886,-78.9926234],"ct":"US","tp":"CS","ts":"2023-11-08T07:55:12Z","tX":287,"tY":376,"tags":{"name":"Branches of Niagara Campground & Resort","phone":"+1-877-321-2267","phone:mnemonic":"+1-877-321-CAMP","website":"https://www.branchesofniagara.com/"}},"56217379":{"location":[42.8817157,-79.002191],"ct":"CA","tp":"CR","ts":"2023-01-30T13:41:29Z","tX":287,"tY":376,"tags":{"attribution":"Natural Resources Canada","canvec:CODE":"2480012","canvec:UUID":"392f4058686c4974b45998fa40222305","name":"Windmill Point Park","source":"CanVec_Import_2009","tents":"yes"}},"56218141":{"location":[42.9059695,-79.0556199],"ct":"CA","tp":"CS","ts":"2023-08-26T15:43:28Z","tX":287,"tY":376,"tags":{"attribution":"Natural Resources Canada","canvec:CODE":"2480012","canvec:UUID":"2af320ec9e06471eab281c83f6a18de3","source":"CanVec_Import_2009;CanVec 6.0 - NRCan","tents":"yes"}},"67970447":{"location":[42.9395259,-78.9273156],"ct":"CA","tp":"CS","ts":"2010-07-16T02:50:26Z","tX":287,"tY":376,"tags":{"source":"CanVec 6.0 - NRCan"}},"67971263":{"location":[42.9548949,-78.9786051],"ct":"CA","tp":"CS","ts":"2010-07-16T02:52:06Z","tX":287,"tY":376,"tags":{"source":"CanVec 6.0 - NRCan"}},"179049463":{"location":[43.0296567,-78.9753609],"ct":"US","tp":"CS","ts":"2020-07-22T01:59:13Z","tX":287,"tY":376,"tags":{"source":"Bing"}},"817088482":{"location":[42.9851232,-79.0276328],"ct":"CA","tp":"CS","ts":"2021-07-07T22:27:47Z","tX":287,"tY":376,"tags":{"addr:city":"Niagara Falls","addr:housenumber":"13541","addr:province":"Ontario","addr:street":"Niagara Parkway","caravans":"yes","fee":"yes","name":"Riverside Park Motel and Campground","tents":"yes","website":"http://www.riversidepark.net/"}},"951748378":{"location":[43.0328047,-78.8281159],"ct":"US","tp":"CS","ts":"2021-06-06T17:21:16Z","tX":287,"tY":376,"tags":{"access":"private","addr:city":"North Tonawanda","addr:housenumber":"1601","addr:postcode":"14120","addr:state":"NY","addr:street":"Sweeney Street","name":"Donald F Miller Park","nysgissam:nysaddresspointid":"NIAG131548","operator":"Nor-Ton Red Jacket Club","short_name":"Don Miller Park"}},"1087327926":{"location":[43.0212996,-78.875591],"ct":"US","tp":"SD","ts":"2024-06-04T19:33:13Z","tX":287,"tY":376,"tags":{"access":"yes","building":"yes","fee":"yes","seamark:small_craft_facility:category":"pump-out","seamark:type":"small_craft_facility","water_point":"no"}}}