{"6634139":{"location":[35.7212125,-79.0124207],"ct":"US","tp":"CS","ts":"2021-02-14T19:10:04Z","tX":287,"tY":403,"tags":{"boundary":"protected_area","name":"Poplar Point Campground","note":"Owned by USACE; leased by NCDPR.","operator":"North Carolina Division of Parks and Recreation","ownership":"federal","protect_class":"4","protection_title":"State Recreation Area"}},"6634142":{"location":[35.706354,-79.0582176],"ct":"US","tp":"CS","ts":"2021-02-14T19:10:04Z","tX":287,"tY":403,"tags":{"boundary":"protected_area","name":"Vista Point Campground","note":"Owned by USACE; leased by NCDPR.","operator":"North Carolina Division of Parks and Recreation","ownership":"federal","protect_class":"4","protection_title":"State Recreation Area"}},"638439511":{"location":[35.4626155,-78.8831208],"ct":"US","tp":"CS","ts":"2018-10-27T05:36:37Z","tX":287,"tY":403,"tags":{}},"732431988":{"location":[35.7463855,-78.9923287],"ct":"US","tp":"CS","ts":"2019-10-07T19:17:59Z","tX":287,"tY":403,"tags":{"addr:city":"Apex","addr:country":"US","addr:housenumber":"389","addr:postcode":"27502","addr:state":"NC","addr:street":"Farrington Road","caravans":"yes","email":"jordan.lake@ncparks.gov","group_only":"no","name":"Crosswinds Campground Loop C","nudism":"no","phone":"+1 919 362 0586","tents":"yes","website":"https://www.ncparks.gov/jordan-lake-state-recreation-area/camping"}},"732431989":{"location":[35.7413897,-78.9938863],"ct":"US","tp":"CS","ts":"2019-10-07T19:17:59Z","tX":287,"tY":403,"tags":{"addr:city":"Apex","addr:country":"US","addr:housenumber":"389","addr:postcode":"27502","addr:state":"NC","addr:street":"Farrington Road","caravans":"yes","email":"jordan.lake@ncparks.gov","group_only":"no","name":"Crosswinds Campground Loop B","nudism":"no","phone":"+1 919 362 0586","tents":"yes","website":"https://www.ncparks.gov/jordan-lake-state-recreation-area/camping"}},"732431990":{"location":[35.7423931,-78.9994086],"ct":"US","tp":"CS","ts":"2019-10-07T19:17:59Z","tX":287,"tY":403,"tags":{"addr:city":"Apex","addr:country":"US","addr:housenumber":"389","addr:postcode":"27502","addr:state":"NC","addr:street":"Farrington Road","caravans":"yes","email":"jordan.lake@ncparks.gov","group_only":"no","name":"Crosswinds Campground Loop A","nudism":"no","phone":"+1 919 362 0586","tents":"yes","website":"https://www.ncparks.gov/jordan-lake-state-recreation-area/camping"}},"1287720009":{"location":[35.7278909,-79.0081776],"ct":"US","tp":"SD","ts":"2024-05-29T15:05:35Z","tX":287,"tY":403,"tags":{"access":"customers","water_point":"no"}},"2917802925":{"location":[35.4657204,-78.8896939],"ct":"US","tp":"CS","ts":"2024-04-04T14:53:25Z","tX":287,"tY":403,"tags":{"name":"Canoe Camp"}},"6017147813":{"location":[35.4624845,-78.8833139],"ct":"US","tp":"CS","ts":"2018-10-27T05:36:36Z","tX":287,"tY":403,"tags":{}},"10219953372":{"location":[35.6232962,-79.0794943],"ct":"US","tp":"CS","ts":"2022-11-26T16:25:07Z","tX":287,"tY":403,"tags":{"addr:city":"Moncure","addr:housenumber":"390","addr:postcode":"27559","addr:state":"NC","addr:street":"Cotton Acer Road","name":"Cotten's RV Campgrounds","phone":"+19195423812"}},"5609597093":{"location":[35.5875355,-79.0278295],"ct":"US","tp":"CR","ts":"2018-05-28T15:56:58Z","tX":287,"tY":403,"tags":{"name":"Dickens RV Park"}},"5785768322":{"location":[35.6279337,-79.0894389],"ct":"US","tp":"CR","ts":"2022-11-26T16:25:07Z","tX":287,"tY":403,"tags":{"addr:city":"Moncure","addr:housenumber":"7695","addr:postcode":"27559","addr:state":"NC","addr:street":"Moncure Pittsboro Road","name":"Chatham RV Park","phone":"+19199231586","source:addr":"Chatham County GIS"}},"6858632254":{"location":[35.7385431,-78.9970466],"ct":"US","tp":"SD","ts":"2019-10-07T18:12:27Z","tX":287,"tY":403,"tags":{"access":"customers","sanitary_dump_station:round_drain":"yes"}}}