{"406533618":{"location":[-0.0566698,-78.7804709],"ct":"EC","tp":"CS","ts":"2016-03-30T04:02:13Z","tX":287,"tY":512,"tags":{}},"455326088":{"location":[-0.2686105,-79.0867373],"ct":"EC","tp":"CR","ts":"2016-11-23T16:41:22Z","tX":287,"tY":512,"tags":{}},"2284430439":{"location":[-0.0577024,-78.7777562],"ct":"EC","tp":"CS","ts":"2013-04-28T15:46:20Z","tX":287,"tY":512,"tags":{"name":"La Aldea"}},"3047617931":{"location":[-0.0746098,-78.7545565],"ct":"EC","tp":"CS","ts":"2014-08-28T15:45:52Z","tX":287,"tY":512,"tags":{}},"3052393683":{"location":[-0.0514574,-78.7718664],"ct":"EC","tp":"CR","ts":"2014-08-31T19:05:29Z","tX":287,"tY":512,"tags":{"name":"San Vicente"}},"3073798597":{"location":[-0.0496002,-78.7742351],"ct":"EC","tp":"CS","ts":"2017-06-08T17:59:26Z","tX":287,"tY":512,"tags":{"addr:city":"Mindo","addr:street":"La Peña","capacity":"25","ele":"1255","fee":"yes","internet_access":"yes","name":"La Bicok Ecolodge","name:es":"La Bicok Ecolodge (Cabañas-Camping)","note":"Camping Labicok pour les voyageurs en camping-car, en tente, en voiture. Services: piscine,eau chaude sanitaire,repas plateau,wifi,rivière,langue:French y Espagnol. Le camping est tenu par un couple de Français !! et le tout à 500 mètres de la place centr","operator":"Une famille Française","phone":"0999421945","smoking":"separated","source":"Le gérant","website":"www.labicok.com","wheelchair":"yes"}},"3545976936":{"location":[-0.1769658,-78.8500968],"ct":"EC","tp":"CS","ts":"2015-05-26T03:40:49Z","tX":287,"tY":512,"tags":{}},"4564424190":{"location":[-0.2560461,-79.0089358],"ct":"EC","tp":"CS","ts":"2016-12-21T02:58:57Z","tX":287,"tY":512,"tags":{"addr:housenumber":"02-3616176","addr:street":"Calle pricipal km 17 + 300  margen derecho","email":"berma1997@outlook.com","internet_access":"wlan","name":"Finca los Anturios","name:en":"Vacation Specials","opening_hours":"24/7","operator":"CNT","phone":"023616176"}},"6214222885":{"location":[-0.1286275,-78.7544138],"ct":"EC","tp":"CS","ts":"2019-01-16T18:31:59Z","tX":287,"tY":512,"tags":{"name":"Camping 3"}},"6677805385":{"location":[-0.0514999,-78.7749661],"ct":"EC","tp":"CS","ts":"2019-08-02T20:49:00Z","tX":287,"tY":512,"tags":{"name:en":"Wild camping"}},"6802238761":{"location":[-0.067487,-78.7664419],"ct":"EC","tp":"CS","ts":"2019-09-17T13:17:12Z","tX":287,"tY":512,"tags":{}},"4517358691":{"location":[-0.2690289,-79.087106],"ct":"EC","tp":"CR","ts":"2016-11-23T16:41:22Z","tX":287,"tY":512,"tags":{}}}