{"248663273":{"location":[47.519005,40.8532357],"ct":"RU","tp":"CS","ts":"2018-03-16T17:21:54Z","tX":628,"tY":357,"tags":{"addr:city":"Семикаракорск","landuse":"residential"}},"251297716":{"location":[47.5344219,40.8140381],"ct":"RU","tp":"CS","ts":"2013-12-11T08:04:59Z","tX":628,"tY":357,"tags":{"leisure":"kids_camp"}},"331032050":{"location":[47.5670247,40.8460295],"ct":"RU","tp":"CS","ts":"2024-05-18T06:20:18Z","tX":628,"tY":357,"tags":{"addr:district":"Семикаракорский район","addr:place":"урочище \"Тополиха\" 1,5 км на север от г. Семикаракорска","addr:postcode":"346630","addr:province":"Ростовская область","check_date":"2024-05-18","email":"dsolsolnishko@yandex.ru","name":"МБУ детский спортивно-оздоровительный лагерь \"Солнышко\"","official_name":"Муниципальное бюджетное учреждение детский спортивно-оздоровительный лагерь \"Солнышко\"","phone":"+886 3 5640 288","scout":"yes"}},"4573130121":{"location":[47.7360153,41.0648418],"ct":"RU","tp":"CS","ts":"2016-12-26T13:04:54Z","tX":628,"tY":357,"tags":{}},"8364918784":{"location":[47.5958171,41.0163832],"ct":"RU","tp":"CS","ts":"2021-02-12T02:46:12Z","tX":628,"tY":357,"tags":{"source":"gps"}}}