{"271424745":{"location":[40.5909535,50.0626752],"ct":"AZ","tp":"CS","ts":"2024-10-23T14:13:18Z","tX":654,"tY":385,"tags":{"leisure":"park","name":"Amburan Bilgah Estates / Bilgəh Esteyts","name:az":"Amburan Bilgah Estates / Bilgəh Esteyts","name:ru":"Анбуран"}},"271428051":{"location":[40.57962,50.0629866],"ct":"AZ","tp":"CS","ts":"2023-01-27T21:07:18Z","tX":654,"tY":385,"tags":{"name":"Kardioloji Sanatoriya \\ Bilgəh","name:az":"Kardioloji Sanatoriya Bilgəh","name:en":"Cardiological Sanatorium Bilgah"}},"271428052":{"location":[40.5729031,50.0667172],"ct":"AZ","tp":"CS","ts":"2022-06-25T19:41:40Z","tX":654,"tY":385,"tags":{"leisure":"park","name":"DTX Sanatoriyası"}},"271431960":{"location":[40.5649754,50.0762788],"ct":"AZ","tp":"CS","ts":"2022-06-24T21:29:25Z","tX":654,"tY":385,"tags":{"name":"Milli Məclis Sanatoriyası"}},"271431962":{"location":[40.5624454,50.0815948],"ct":"AZ","tp":"CS","ts":"2022-06-24T21:05:40Z","tX":654,"tY":385,"tags":{"name":"DİN Xəzri İstirahət Mərkəzi"}},"387786968":{"location":[40.5877468,50.0566192],"ct":"AZ","tp":"CS","ts":"2023-02-03T21:40:27Z","tX":654,"tY":385,"tags":{"addr:street":"Dənizkənarı yol","name":"Metropoliten Sanatoriyası \\ Bilgəh"}},"1137693382":{"location":[40.5783927,50.0430451],"ct":"AZ","tp":"CS","ts":"2023-02-03T21:40:27Z","tX":654,"tY":385,"tags":{"leisure":"park"}},"4287394689":{"location":[40.4578739,50.2592099],"ct":"AZ","tp":"CS","ts":"2022-08-29T05:09:59Z","tX":654,"tY":385,"tags":{"name":"Дюбики"}},"4373510994":{"location":[40.5307536,50.1007172],"ct":"AZ","tp":"CS","ts":"2023-02-13T18:57:29Z","tX":654,"tY":385,"tags":{"addr:housenumber":"38","addr:street":"Puşkin","internet_access":"wlan","name":"Bağ","operator":"Bagirli A"}},"4795101221":{"location":[40.4701958,50.245068],"ct":"AZ","tp":"CS","ts":"2018-03-04T10:46:04Z","tX":654,"tY":385,"tags":{"email":"Shukurlukamran@gmail.com","name:en":"Forest Camp Camping Place","operator":"Kamran Shukurlu","phone":"+994513551400"}},"4869785321":{"location":[40.4880774,50.1614126],"ct":"AZ","tp":"CS","ts":"2023-03-10T21:21:16Z","tX":654,"tY":385,"tags":{}},"5534694424":{"location":[40.4601509,50.0551147],"ct":"AZ","tp":"CR","ts":"2022-08-02T21:25:00Z","tX":654,"tY":385,"tags":{"name":"Parkinq"}}}