{"933781339":{"location":[-8.467025,115.1623204],"ct":"ID","tp":"CS","ts":"2022-06-21T14:47:45Z","tX":839,"tY":536,"tags":{"access":"yes","addr:city":"Tabanan","addr:street":"Br. Kelaci, Desa Dauh Puri Marga, Kec. Marga","name":"Margarana Campground","name:id":"Bumi Perkemahan Pramuka Margarana"}},"4213226889":{"location":[-8.6593859,115.1460692],"ct":"ID","tp":"CR","ts":"2016-05-29T01:25:55Z","tX":839,"tY":536,"tags":{}},"7223874785":{"location":[-8.7389249,115.174053],"ct":"ID","tp":"CS","ts":"2020-02-19T02:54:48Z","tX":839,"tY":536,"tags":{"name:ru":"спуск к пляжу"}},"8703423361":{"location":[-8.5253354,114.9933002],"ct":"ID","tp":"CS","ts":"2021-05-06T02:07:50Z","tX":839,"tY":536,"tags":{"name":"Bumi Perkemahan Pura Srijong"}},"11665155469":{"location":[-8.6642143,115.1523592],"ct":"ID","tp":"CS","ts":"2024-02-26T12:36:48Z","tX":839,"tY":536,"tags":{"addr:postcode":"80361","name:en":"SHAKA CLAN SURF","name:ru":"Шака Клан Серфинг","opening_hours":"24/7","website":"https://shakaclansurf.com/"}},"5224272724":{"location":[-8.5286686,114.9959718],"ct":"ID","tp":"CR","ts":"2017-11-12T07:36:50Z","tX":839,"tY":536,"tags":{"name:en":"Soka Beach","name:ru":"Пляж Сока"}}}