{"55584037":{"location":[-21.6344775,115.1119381],"ct":"AU","tp":"CR","ts":"2023-06-21T08:43:47Z","tX":839,"tY":575,"tags":{"name":"Ocean View Caravan Park"}},"55764487":{"location":[-21.6458504,115.1279079],"ct":"AU","tp":"CR","ts":"2025-03-05T22:21:44Z","tX":839,"tY":575,"tags":{"addr:country":"AU","addr:housenumber":"557","addr:postcode":"6710","addr:street":"Beadon Creek Road","addr:suburb":"Onslow","internet_access":"yes","internet_access:fee":"customers","landuse":"residential","name":"Discovery Parks Onslow","phone":"+61 8 9184 6007","power_supply":"yes","sanitary_dump_station":"yes","website":"https://discoveryholidayparks.com.au"}},"694183252":{"location":[-21.6346091,115.1118426],"ct":"AU","tp":"CS","ts":"2024-08-27T11:18:19Z","tX":839,"tY":575,"tags":{"name":"Ocean View Caravan Park"}},"694183254":{"location":[-21.641445,115.113],"ct":"AU","tp":"SD","ts":"2015-04-28T07:05:37Z","tX":839,"tY":575,"tags":{"fixme":"position - veriify this is a motorhome dump"}},"10994238446":{"location":[-21.6428614,115.1150265],"ct":"AU","tp":"SD","ts":"2023-06-21T08:43:47Z","tX":839,"tY":575,"tags":{}}}