{"68678152":{"location":[-30.3041137,115.0386211],"ct":"AU","tp":"CS","ts":"2020-05-03T06:59:47Z","tX":839,"tY":602,"tags":{"addr:housenumber":"1","addr:postcode":"6516","addr:state":"WA","addr:street":"Roberts Street","addr:suburb":"Jurien Bay","contact:email":"stay@jurienbaytouristpark.com.au","contact:facebook":"https://www.facebook.com/SummerstarJurienBay","name":"Jurien Bay Tourist Park","operator":"Summerstar Tourist Parks","phone":"+61 8 9652 1595","website":"https://summerstar.com.au/caravan-parks/jurien-bay"}},"1202749843":{"location":[-30.2242098,115.2377589],"ct":"AU","tp":"CS","ts":"2023-11-16T10:59:06Z","tX":839,"tY":602,"tags":{"fee":"no","fire":"no","name":"Wandoo Reserve","name:en":"Wandoo Reserve"}},"1202749844":{"location":[-30.2006996,115.2525875],"ct":"AU","tp":"CS","ts":"2023-11-16T10:59:06Z","tX":839,"tY":602,"tags":{"name":"Karda Campground","operator":"Department of Parks and Wildlife","website":"dpaw.wa.gov.au"}},"1224298932":{"location":[-30.224503,115.2972805],"ct":"AU","tp":"CS","ts":"2023-11-16T10:57:07Z","tX":839,"tY":602,"tags":{"fee":"no","name":"Smoke Bush Reserve"}},"1811194302":{"location":[-30.1843878,114.9978552],"ct":"AU","tp":"CS","ts":"2012-11-08T05:52:05Z","tX":839,"tY":602,"tags":{"name":"Sandy Cape Recreational Park"}},"5275426423":{"location":[-30.1711231,115.0039592],"ct":"AU","tp":"CS","ts":"2018-11-24T08:42:18Z","tX":839,"tY":602,"tags":{"name":"Dengas Beach Camping"}},"5275438423":{"location":[-30.1748479,115.0012336],"ct":"AU","tp":"CS","ts":"2018-11-24T08:42:18Z","tX":839,"tY":602,"tags":{}},"5275468822":{"location":[-30.1602892,115.0057181],"ct":"AU","tp":"CS","ts":"2017-12-10T15:53:17Z","tX":839,"tY":602,"tags":{}},"12149216642":{"location":[-30.4176857,115.1393911],"ct":"AU","tp":"CS","ts":"2024-09-01T07:32:18Z","tX":839,"tY":602,"tags":{"addr:street":"Cervantes Road","name":"Tuarts Reserve","website":"https://www.dandaragan.wa.gov.au/camping-information.aspx"}},"12149325641":{"location":[-30.39314,115.1799905],"ct":"AU","tp":"CS","ts":"2024-09-08T01:02:17Z","tX":839,"tY":602,"tags":{"addr:street":"Cervantes Road","name":"Banksia Reserve","website":"https://www.dandaragan.wa.gov.au/camping-information"}},"10654271899":{"location":[-30.1897307,115.0021684],"ct":"AU","tp":"SD","ts":"2023-02-13T10:53:18Z","tX":839,"tY":602,"tags":{}}}