{"13643927":{"location":[46.2331799,-64.5005984],"ct":"CA","tp":"CR","ts":"2022-01-07T01:01:41Z","tX":328,"tY":363,"tags":{"name":"Ocean Surf RV Park","source":"CanVec 6.0 - NRCan;NRCan-CanVec-8.0"}},"73329891":{"location":[46.2302702,-64.5033945],"ct":"CA","tp":"CS","ts":"2024-06-27T07:36:30Z","tX":328,"tY":363,"tags":{"name":"Parlee Beach Provincial Park Camp Site","source":"CanVec 6.0 - NRCan"}},"150287445":{"location":[46.2210928,-64.3928123],"ct":"CA","tp":"CS","ts":"2023-02-06T02:10:48Z","tX":328,"tY":363,"tags":{"name":"Ocean View Park","source":"NRCan-CanVec-8.0"}},"516498267":{"location":[46.2178505,-64.5587794],"ct":"CA","tp":"CR","ts":"2025-06-20T21:58:32Z","tX":328,"tY":363,"tags":{"addr:housenumber":"205","addr:postcode":"E4P 2A5","addr:street":"Rue Main","name":"Camping Parasol / Parasol Camping","name:en":"Parasol Camping","name:fr":"Camping Parasol","website":"https://www.campingparasol.ca/"}},"516644327":{"location":[46.21966,-64.5576118],"ct":"CA","tp":"CR","ts":"2025-06-20T21:58:32Z","tX":328,"tY":363,"tags":{"addr:housenumber":"218","addr:postcode":"E4P 2A5","addr:street":"Rue Main","name":"Étoile Filante Wishing Star Camping","name:en":"Wishing Star Camping","name:fr":"Camping Étoile Filante","website":"http://www.wishingstar.ca"}},"517353582":{"location":[46.2166096,-64.503515],"ct":"CA","tp":"CS","ts":"2022-01-07T01:08:28Z","tX":328,"tY":363,"tags":{"addr:housenumber":"221","addr:street":"Ohio Road","name":"Camping Oceanic","website":"https://oceaniccamping.com"}},"558834700":{"location":[46.2246307,-64.5230917],"ct":"CA","tp":"CR","ts":"2022-01-07T01:01:41Z","tX":328,"tY":363,"tags":{"name":"South Cove Camping & Golf"}},"869834304":{"location":[46.2322692,-64.6167932],"ct":"CA","tp":"CS","ts":"2010-08-20T05:39:26Z","tX":328,"tY":363,"tags":{"source":"CanVec 6.0 - NRCan"}},"1018930192":{"location":[46.2296772,-64.500366],"ct":"CA","tp":"CR","ts":"2022-01-07T01:01:41Z","tX":328,"tY":363,"tags":{"name":"Vacation Village Horizon Park"}},"1018930210":{"location":[46.229616,-64.4975902],"ct":"CA","tp":"CR","ts":"2022-01-07T01:01:41Z","tX":328,"tY":363,"tags":{"name":"Ocean Surf RV Park"}},"1018930230":{"location":[46.2065365,-64.5003128],"ct":"CA","tp":"CS","ts":"2024-11-13T02:21:07Z","tX":328,"tY":363,"tags":{"addr:housenumber":"747","addr:postcode":"E4P 1Z5","addr:street":"Lino Road","name":"Camping Beauséjour","name:en":"Beauséjour Camping","name:fr":"Camping Beauséjour","source":"CanVec 6.0 - NRCan","website":"https://campingbeausejour.ca/"}},"3866319122":{"location":[46.2310091,-64.5059819],"ct":"CA","tp":"CS","ts":"2015-11-29T02:08:14Z","tX":328,"tY":363,"tags":{}}}