{"16836875":{"location":[48.1717713,-110.1150655],"ct":"US","tp":"CR","ts":"2023-12-18T19:17:27Z","tX":198,"tY":355,"tags":{"addr:city":"Big Sandy","addr:country":"US","addr:housenumber":"266","addr:postcode":"59520","addr:state":"MT","addr:street":"Judith Landing Road","name":"Big Sandy RV Park","power_supply":"yes","wheelchair":"yes"}},"1008714303":{"location":[48.0319805,-110.2368045],"ct":"US","tp":"CS","ts":"2024-02-10T02:51:39Z","tX":198,"tY":355,"tags":{"access":"yes","charge":"10 USD","fee":"yes","name":"Coal Banks Landing Recreation Site","operator":"Bureau of Land Management","payment:cash":"yes"}},"1248728091":{"location":[48.0159512,-110.2490373],"ct":"US","tp":"CS","ts":"2024-02-10T05:31:12Z","tX":198,"tY":355,"tags":{"addr:city":"Loma","addr:country":"US","addr:postcode":"59460","addr:street":"Virgelle Ferry Road North","building":"yes","cabins":"yes","caravans":"yes","smoking":"outside","tents":"yes","wheelchair":"limited"}},"1248728092":{"location":[48.0151586,-110.2487114],"ct":"US","tp":"CS","ts":"2024-02-10T05:31:12Z","tX":198,"tY":355,"tags":{"addr:city":"Loma","addr:country":"US","addr:postcode":"59460","addr:street":"Virgelle Ferry Road North","building":"yes","cabins":"yes","caravans":"yes","smoking":"outside","tents":"yes","wheelchair":"limited"}},"1248728093":{"location":[48.0150375,-110.2485531],"ct":"US","tp":"CS","ts":"2024-02-10T05:31:12Z","tX":198,"tY":355,"tags":{"addr:city":"Loma","addr:country":"US","addr:postcode":"59460","addr:street":"Virgelle Ferry Road North","building":"yes","cabins":"yes","caravans":"yes","smoking":"outside","tents":"yes","wheelchair":"limited"}},"1248728094":{"location":[48.014771,-110.2484431],"ct":"US","tp":"CS","ts":"2024-02-10T05:31:12Z","tX":198,"tY":355,"tags":{"addr:city":"Loma","addr:country":"US","addr:postcode":"59460","addr:street":"Virgelle Ferry Road North","building":"yes","cabins":"yes","caravans":"yes","smoking":"outside","tents":"yes","wheelchair":"limited"}},"1248728095":{"location":[48.0146876,-110.248596],"ct":"US","tp":"CS","ts":"2024-02-10T05:31:12Z","tX":198,"tY":355,"tags":{"addr:city":"Loma","addr:country":"US","addr:postcode":"59460","addr:street":"Virgelle Ferry Road North","building":"yes","cabins":"yes","caravans":"yes","smoking":"outside","tents":"yes","wheelchair":"limited"}},"1248728102":{"location":[48.0157211,-110.2490681],"ct":"US","tp":"CS","ts":"2024-02-10T05:31:12Z","tX":198,"tY":355,"tags":{"addr:city":"Loma","addr:country":"US","addr:postcode":"59460","addr:street":"Virgelle Ferry Road North","building":"yes","cabins":"yes","caravans":"yes","smoking":"outside","tents":"yes","wheelchair":"limited"}},"1248732204":{"location":[48.0159065,-110.2485905],"ct":"US","tp":"CS","ts":"2024-02-10T05:31:12Z","tX":198,"tY":355,"tags":{"addr:city":"Loma","addr:country":"US","addr:postcode":"59460","addr:street":"Virgelle Ferry Road North","building":"yes","cabins":"yes","caravans":"yes","smoking":"outside","tents":"yes","wheelchair":"limited"}},"1248732205":{"location":[48.0157689,-110.2486526],"ct":"US","tp":"CS","ts":"2024-02-10T05:31:12Z","tX":198,"tY":355,"tags":{"addr:city":"Loma","addr:country":"US","addr:postcode":"59460","addr:street":"Virgelle Ferry Road North","building":"yes","cabins":"yes","caravans":"yes","smoking":"outside","tents":"yes","wheelchair":"limited"}}}