{"17332583":{"location":[46.1757822,-85.7915164],"ct":"US","tp":"CS","ts":"2024-03-11T12:33:56Z","tX":267,"tY":363,"tags":{"access":"yes","capacity:tents":"30","charge":"20 USD","county":"Mackinac","drinking_water":"yes","fee":"yes","gnis:feature_id":"638383","midnr:park_id":"685","name":"South Manistique Lake State Forest Campground","operator":"Michigan Department of Natural Resources","payment:cash":"yes","payment:cheque":"yes","phone":"+1-906-492-3415","source":"Michigan DNR","tents":"yes","website":"https://www.michigandnr.com/parksandtrails/Details.aspx?id=685&type=SFCG"}},"436352475":{"location":[46.2191019,-85.7841284],"ct":"US","tp":"CR","ts":"2022-05-24T12:50:24Z","tX":267,"tY":363,"tags":{"addr:city":"Curtis","addr:state":"MI","gnis:feature_id":"2359929","name":"Log Cabin Resort and Campground","phone":"+1-906-586-9732","website":"https://www.uplogcabin.com/"}},"436356498":{"location":[46.2427898,-85.9249512],"ct":"US","tp":"CR","ts":"2022-05-24T12:49:48Z","tX":267,"tY":363,"tags":{"addr:city":"Germfask","addr:housenumber":"7936","addr:postcode":"49836","addr:state":"MI","addr:street":"M 77","name":"Big Cedar Campground","phone":"+1-906-586-6684","website":"https://www.bigcedarcampground.com/"}},"436357134":{"location":[46.2541772,-85.926146],"ct":"US","tp":"CR","ts":"2020-12-13T16:29:02Z","tX":267,"tY":363,"tags":{"addr:city":"Germfask","addr:housenumber":"8174","addr:postcode":"49836","addr:state":"MI","addr:street":"M 77","name":"Northland Outfitters","phone":"+1-906-586-9801"}},"983917215":{"location":[46.0842204,-85.7930896],"ct":"US","tp":"CS","ts":"2023-11-17T00:53:37Z","tX":267,"tY":363,"tags":{"county":"Mackinac","midnr:park_id":"686","name":"Milakokia Lake State Forest Campground","source":"Michigan DNR","website":"https://www.michigandnr.com/parksandtrails/Details.aspx?id=686&type=SFCG"}},"1260583722":{"location":[46.1826885,-85.9855103],"ct":"US","tp":"CS","ts":"2024-03-11T12:37:11Z","tX":267,"tY":363,"tags":{"access":"yes","capacity:tents":"9","charge":"20 USD","county":"Schoolcraft","drinking_water":"yes","fee":"yes","midnr:park_id":"666","name":"Mead Creek State Forest Campground","operator":"Michigan Department of Natural Resources","payment:cash":"yes","payment:cheque":"yes","phone":"+1-906-341-2355","source":"Michigan DNR","tents":"yes","website":"https://www.michigandnr.com/parksandtrails/Details.aspx?id=666&type=SFCG"}},"2919116105":{"location":[46.1702593,-85.7914869],"ct":"US","tp":"CR","ts":"2022-05-24T12:51:10Z","tX":267,"tY":363,"tags":{"addr:state":"MI","name":"Sherman's Resort","phone":"+1-906-586-6761","website":"https://www.shermansresort.com/"}}}