{"366677352":{"location":[44.7773051,-85.9390855],"ct":"US","tp":"CS","ts":"2023-10-27T22:27:08Z","tX":267,"tY":369,"tags":{"fee":"yes","name":"Garey Lake State Forest Campground","operator":"Michigan Department of Natural Resources","website":"https://www.michigandnr.com/parksandtrails/Details.aspx?id=732&type=SFCG"}},"424805362":{"location":[44.6584583,-85.945622],"ct":"US","tp":"CS","ts":"2023-11-16T16:17:54Z","tX":267,"tY":369,"tags":{"access":"yes","addr:state":"MI","capacity:tents":"24","caravans":"yes","charge":"20 USD","fee":"yes","name":"Veterans Memorial State Forest Campground","operator":"Michigan Department of Natural Resources","phone":"+1-231-276-9511","tents":"yes"}},"890831977":{"location":[44.7885067,-86.0052107],"ct":"US","tp":"CS","ts":"2023-01-31T00:20:08Z","tX":267,"tY":369,"tags":{"addr:city":"Empire","addr:housenumber":"7264","addr:postcode":"49630","addr:state":"MI","addr:street":"W Osborn Rd","phone":"+1-231-326-5285"}},"890837018":{"location":[44.644883,-85.980051],"ct":"US","tp":"CS","ts":"2021-09-26T00:39:52Z","tX":267,"tY":369,"tags":{"gnis:feature_id":"1852408","name":"Platte River State Forest Campground"}},"891079255":{"location":[44.6191509,-85.9107459],"ct":"US","tp":"CR","ts":"2022-04-15T19:07:23Z","tX":267,"tY":369,"tags":{"addr:city":"Beulah","addr:housenumber":"854","addr:postcode":"49617","addr:state":"MI","addr:street":"Miller Road","gnis:feature_id":"2494993","name":"Turtle Lake Campground","phone":"+1-231-275-7353","website":"http://turtlelakecampground.net/"}},"892082628":{"location":[44.6625157,-85.8218238],"ct":"US","tp":"CS","ts":"2021-01-04T21:06:56Z","tX":267,"tY":369,"tags":{"name":"Eagles Campground"}},"892388991":{"location":[44.7129169,-85.8620866],"ct":"US","tp":"CS","ts":"2021-12-27T02:21:20Z","tX":267,"tY":369,"tags":{"access":"yes","capacity":"30","gnis:feature_id":"2494853","name":"Lake Ann State Forest Campground","operator":"Interlochen State Park","phone":"+1-231-276-9511","reservation":"no","website":"https://www2.dnr.state.mi.us/parksandtrails/details.aspx?id=588&type=SFCG"}},"892390204":{"location":[44.7386239,-86.0849721],"ct":"US","tp":"CS","ts":"2023-01-23T12:07:00Z","tX":267,"tY":369,"tags":{"backcountry":"yes","capacity":"6","gnis:feature_id":"2494801","name":"Sleeping Bear National Lake Shore - White Pine Campground","reservation":"required","toilets":"no","website":"https://www.nps.gov/slbe/planyourvisit/backcountrycamping.htm"}},"892392119":{"location":[44.5922461,-85.8482676],"ct":"US","tp":"CS","ts":"2022-01-13T15:38:32Z","tX":267,"tY":369,"tags":{"gnis:feature_id":"2494777","name":"Grass Lake State Forest Campground","website":"http://colfaxtownship.org/grass_lake_campground.html"}},"892403119":{"location":[44.6277565,-86.0984417],"ct":"US","tp":"CS","ts":"2021-01-05T17:21:16Z","tX":267,"tY":369,"tags":{}},"892406594":{"location":[44.601887,-86.1007242],"ct":"US","tp":"CS","ts":"2021-01-05T17:31:04Z","tX":267,"tY":369,"tags":{"name":"Vacation Trailer Park"}},"892406597":{"location":[44.5912376,-86.104349],"ct":"US","tp":"CS","ts":"2021-01-05T17:31:04Z","tX":267,"tY":369,"tags":{"name":"Timberline Campground"}},"892408271":{"location":[44.7165047,-86.1169845],"ct":"US","tp":"CS","ts":"2023-08-12T06:08:11Z","tX":267,"tY":369,"tags":{"caravans":"yes","drinking_water":"yes","name":"Platte River Campground","power_supply":"yes","shower":"yes","tents":"yes","toilets":"yes"}},"893033297":{"location":[44.8096284,-85.9927021],"ct":"US","tp":"CR","ts":"2021-01-07T13:20:06Z","tX":267,"tY":369,"tags":{"addr:city":"Empire","addr:housenumber":"6760","addr:postcode":"49360","addr:state":"MI","addr:street":"West Empire Highway","name":"Indigo Bluffs RV Park"}},"893842644":{"location":[44.6580663,-85.9569232],"ct":"US","tp":"CR","ts":"2021-01-10T01:36:43Z","tX":267,"tY":369,"tags":{"addr:city":"Beulah","addr:housenumber":"14065","addr:postcode":"49617","addr:state":"MI","addr:street":"Honor Highway","area":"yes","name":"Sunnywoods Resort","phone":"+1-231-325-3952","website":"http://www.sunnywoodsresort.com/"}},"894028312":{"location":[44.6825926,-85.8011541],"ct":"US","tp":"CS","ts":"2024-02-17T18:44:53Z","tX":267,"tY":369,"tags":{"capacity":"50","charge":"15 USD","fee":"yes","name":"Lake Dubonnet State Forest Campground","reservation":"no","website":"https://www2.dnr.state.mi.us/parksandtrails/details.aspx?id=586&type=SFCG"}},"894028313":{"location":[44.6863557,-85.8027326],"ct":"US","tp":"CS","ts":"2021-10-22T23:21:59Z","tX":267,"tY":369,"tags":{"capacity":"50","name":"Lake Dubonnet Trail Camp","operator":"Michigan DNR","owner":"Michigan DNR","website":"https://forecast.weather.gov/MapClick.php?lat=44.7257&lon=-85.8445&unit=0&lg=english&FcstType=graphical"}},"977920578":{"location":[44.6950009,-86.0723553],"ct":"US","tp":"CR","ts":"2021-08-30T16:50:38Z","tX":267,"tY":369,"tags":{"name":"American Resort"}},"994094428":{"location":[44.8056787,-85.9319309],"ct":"US","tp":"CS","ts":"2021-10-19T23:16:24Z","tX":267,"tY":369,"tags":{"addr:city":"Maple City","addr:housenumber":"3805","addr:postcode":"49630","addr:state":"MI","addr:street":"West Empire Highway","capacity":"15","email":"info@backyardburdickville.com","name":"Backyard Burdickville","website":"https://www.hipcamp.com/en-US/discover/michigan/backyard-burdickville"}},"1039732906":{"location":[44.7759701,-85.9446566],"ct":"US","tp":"CS","ts":"2022-03-12T23:39:11Z","tX":267,"tY":369,"tags":{"capacity:persons":"200","name":"Garey Lake Trail Camp","reservation":"no","website":"https://www2.dnr.state.mi.us/parksandtrails/details.aspx?id=589&type=SFCG"}},"2925319038":{"location":[44.787491,-86.0043295],"ct":"US","tp":"CR","ts":"2016-08-24T17:59:12Z","tX":267,"tY":369,"tags":{"gnis:feature_id":"2492806","name":"Empire Township Campground"}},"2925319047":{"location":[44.8090126,-85.9932867],"ct":"US","tp":"CR","ts":"2020-12-11T01:03:44Z","tX":267,"tY":369,"tags":{"addr:city":"Empire","addr:housenumber":"6760","addr:postcode":"49360","addr:state":"MI","addr:street":"West Empire Highway","gnis:feature_id":"2492807","name":"Indigo Bluffs RV Park","old_name":"Sleepy Bear Campground","phone":"+1-231-326-5566","website":"http://www.indigobluffsrallypark.com/"}},"2925319061":{"location":[44.658305,-85.9569855],"ct":"US","tp":"CR","ts":"2020-12-08T22:43:07Z","tX":267,"tY":369,"tags":{"addr:city":"Beulah","addr:housenumber":"14065","addr:postcode":"49617","addr:state":"MI","addr:street":"Honor Highway","gnis:feature_id":"2495004","name":"Sunnywoods Resort","phone":"+1-231-325-3952","website":"http://www.sunnywoodsresort.com/"}},"2925319063":{"location":[44.5910816,-86.1029881],"ct":"US","tp":"CR","ts":"2020-12-08T22:41:26Z","tX":267,"tY":369,"tags":{"addr:city":"Benzonia","addr:housenumber":"2788","addr:postcode":"49616","addr:state":"MI","addr:street":"Benzie Highway","gnis:feature_id":"2495055","name":"Timberline Campground","phone":"+1-231-882-9548","website":"http://www.timberlinecampgroundinc.com/"}},"2925319069":{"location":[44.6023165,-86.0999414],"ct":"US","tp":"CR","ts":"2020-12-08T22:40:57Z","tX":267,"tY":369,"tags":{"addr:city":"Benzonia","addr:housenumber":"2080","addr:postcode":"49616","addr:state":"MI","addr:street":"Benzie Highway","gnis:feature_id":"2495056","name":"Vacation Trailer Park","phone":"+1-231-882-5101","website":"http://www.vacationtrailer.com/"}},"4456633751":{"location":[44.8090247,-85.9940189],"ct":"US","tp":"SD","ts":"2016-10-20T15:54:58Z","tX":267,"tY":369,"tags":{"access":"customers","sanitary_dump_station:round_drain":"yes"}}}