{"424809488":{"location":[44.5223587,-85.966116],"ct":"US","tp":"CS","ts":"2020-12-11T00:59:33Z","tX":267,"tY":370,"tags":{"addr:state":"MI","name":"Betsie River Canoes & Campground","phone":"+1-231-378-2386"}},"882173309":{"location":[44.5189235,-85.9395526],"ct":"US","tp":"CS","ts":"2020-12-08T01:07:29Z","tX":267,"tY":370,"tags":{"name":"Thompsonville Recreational Campground"}},"893357004":{"location":[44.3818421,-85.7827709],"ct":"US","tp":"CR","ts":"2023-10-27T22:25:52Z","tX":267,"tY":370,"tags":{"addr:city":"Mesick","addr:housenumber":"285","addr:postcode":"49668","addr:state":"MI","addr:street":"Manistee River Road","name":"Northern Exposure","phone":"+1-231-885-1199","tents":"yes","website":"https://www.northernexposureinc.com/"}},"893357955":{"location":[44.3580872,-85.8094287],"ct":"US","tp":"CS","ts":"2022-07-26T21:05:38Z","tX":267,"tY":370,"tags":{"capacity:caravans":"19","fee":"yes","gnis:feature_id":"1622882","name":"Seaton Creek Campground","opening_hours":"May 8 - Oct 21 00:00-24:00","operator":"American Land and Leisure","owner":"U.S. Forest Service Huron-Manistee National Forests","website":"https://www.fs.usda.gov/recarea/hmnf/recarea/?recid=18880"}},"894214862":{"location":[44.4374029,-85.9979085],"ct":"US","tp":"CS","ts":"2024-02-17T18:44:53Z","tX":267,"tY":370,"tags":{"addr:state":"MI","charge":"13 USD","fee":"yes","gnis:feature_id":"2499288","name":"Healy Lake State Forest Campground","opening_hours":"Nov 01 - Apr 30 closed; May 01-Oct 31 Mo-Su 00:00-24:00","operator":"Springdale Township","phone":"+1-231-864-2531","reservation":"no","website":"https://www.springdaletownship.org/healy-lake-campground/"}},"894219612":{"location":[44.4511971,-86.1265518],"ct":"US","tp":"CS","ts":"2021-01-11T12:07:58Z","tX":267,"tY":370,"tags":{"name":"Cystal Forest Campground"}},"894219613":{"location":[44.4828201,-86.1170039],"ct":"US","tp":"CR","ts":"2021-01-11T12:07:58Z","tX":267,"tY":370,"tags":{"name":"Kampvilla RV Park"}},"894219620":{"location":[44.4296779,-85.9971593],"ct":"US","tp":"CS","ts":"2021-08-23T16:43:29Z","tX":267,"tY":370,"tags":{"name":"Fuzzy Bear Campground"}},"996883237":{"location":[44.3711759,-86.0183133],"ct":"US","tp":"CS","ts":"2021-12-27T02:25:10Z","tX":267,"tY":370,"tags":{"name":"Kaleva Village Park Campground","phone":"+1-231-362-3366","website":"https://www.villageofkaleva.com/kaleva-roadside-park"}},"1079886709":{"location":[44.3526322,-85.8362205],"ct":"US","tp":"CS","ts":"2022-07-20T00:18:13Z","tX":267,"tY":370,"tags":{"backcountry":"yes"}},"1285679787":{"location":[44.5454544,-86.0322209],"ct":"US","tp":"CS","ts":"2024-05-31T17:30:24Z","tX":267,"tY":370,"tags":{"addr:city":"Thompsonville","addr:housenumber":"10422","addr:postcode":"49683","addr:state":"MI","addr:street":"Cadillac Highway","capacity:persons":"76","name":"Mountain Valley Lodge and Campground","phone":"+1-231-378-2990","website":"https://www.mountainvalleylodgemi.com/"}},"2909193968":{"location":[44.3815779,-85.7855097],"ct":"US","tp":"CR","ts":"2023-10-27T22:28:19Z","tX":267,"tY":370,"tags":{"addr:city":"Mesick","addr:housenumber":"285","addr:postcode":"49668","addr:state":"MI","addr:street":"Manistee River Road","name":"Northern Exposure","phone":"+1-231-885-1199","tents":"yes","website":"https://www.northernexposureinc.com/"}},"3545502672":{"location":[44.3648834,-85.8323377],"ct":"US","tp":"CS","ts":"2023-01-31T00:45:35Z","tX":267,"tY":370,"tags":{"backcountry":"yes","informal":"yes"}},"5851577530":{"location":[44.3620001,-85.8341673],"ct":"US","tp":"CS","ts":"2023-01-31T00:45:35Z","tX":267,"tY":370,"tags":{"backcountry":"yes","informal":"yes","note":"Dispersed camping on National Forest lands is permitted per 36 C.F.R. ยง 261.58 and HMNF order Occupancy and Use - Developed Recreation Areas, Dispersed Areas, Being Publicly Nude, Marine Prohibitions, Parking and Sanitation; R904-14-03","website":"https://www.fs.usda.gov/Internet/FSE_DOCUMENTS/stelprd3821079.pdf"}},"5851577531":{"location":[44.3549713,-85.8346921],"ct":"US","tp":"CS","ts":"2022-03-18T19:06:40Z","tX":267,"tY":370,"tags":{"backcountry":"yes"}},"5851577533":{"location":[44.3523682,-85.8360945],"ct":"US","tp":"CS","ts":"2022-03-18T19:06:40Z","tX":267,"tY":370,"tags":{"backcountry":"yes"}},"5851577534":{"location":[44.3521444,-85.8345537],"ct":"US","tp":"CS","ts":"2022-03-18T19:06:40Z","tX":267,"tY":370,"tags":{"backcountry":"yes"}},"5851577535":{"location":[44.3511502,-85.8341309],"ct":"US","tp":"CS","ts":"2022-03-18T19:06:40Z","tX":267,"tY":370,"tags":{"backcountry":"yes"}},"5851577536":{"location":[44.3457836,-85.8417508],"ct":"US","tp":"CS","ts":"2022-03-18T19:06:40Z","tX":267,"tY":370,"tags":{"backcountry":"yes"}},"9081260718":{"location":[44.3491305,-85.8360289],"ct":"US","tp":"CS","ts":"2021-09-11T01:45:27Z","tX":267,"tY":370,"tags":{}},"9081260817":{"location":[44.3514155,-85.8341538],"ct":"US","tp":"CS","ts":"2022-03-18T19:06:40Z","tX":267,"tY":370,"tags":{"backcountry":"yes"}}}