{"376564811":{"location":[44.1876637,-85.7974869],"ct":"US","tp":"CR","ts":"2020-12-12T03:06:20Z","tX":267,"tY":371,"tags":{"addr:city":"Wellston","addr:housenumber":"10860","addr:postcode":"49689","addr:state":"MI","addr:street":"West 48 1/2 Road","name":"Kestelwoods Campgrounds","phone":"+1-231-862-3476","tents":"yes","website":"http://www.kestelwoodscampground.com/"}},"703116861":{"location":[44.23345,-85.9095741],"ct":"US","tp":"CS","ts":"2022-02-23T00:50:01Z","tX":267,"tY":371,"tags":{"access":"private","addr:city":"Wellston","addr:housenumber":"19522","addr:postcode":"49689","addr:state":"MI","addr:street":"Husier Road","name":"Loomis Landing Campground and Marina","phone":"+1-231-848-7449","website":"http://www.loomislanding.com/index.html"}},"893378709":{"location":[44.2686442,-85.9514585],"ct":"US","tp":"CS","ts":"2022-03-18T19:06:40Z","tX":267,"tY":371,"tags":{"capacity":"8","name":"Sawdust Hole River Access","opening_hours":"24/7","operator":"U.S. Forest Service Huron-Manistee National Forests","reservation":"no","tents":"yes"}},"894850317":{"location":[44.2016792,-85.7974943],"ct":"US","tp":"CS","ts":"2021-01-13T08:14:08Z","tX":267,"tY":371,"tags":{"name":"Peterson Bridge South Campground","operator":"American Land and Leisure","reservation":"May 15 - Sep 15"}},"894850319":{"location":[44.1988813,-85.803882],"ct":"US","tp":"CR","ts":"2023-10-27T22:29:32Z","tX":267,"tY":371,"tags":{"addr:city":"Wellston","addr:housenumber":"9590","addr:postcode":"49689","addr:state":"MI","addr:street":"South Grandview Highway","name":"Pine River Paddlesport Center and Campground","phone":"+1-231-862-3471","website":"https://www.thepineriver.com/"}},"894854445":{"location":[44.2275581,-85.9628745],"ct":"US","tp":"CR","ts":"2021-01-13T08:28:16Z","tX":267,"tY":371,"tags":{"addr:city":"Wellston","addr:housenumber":"16992","addr:postcode":"49689","addr:street":"Caberfae Highway","area":"yes","name":"Heart of the Forest RV Park","website":"http://www.heartoftheforestrvpark.com"}},"894854456":{"location":[44.1668283,-85.9353805],"ct":"US","tp":"CS","ts":"2023-04-03T15:02:09Z","tX":267,"tY":371,"tags":{"gnis:feature_id":"1622772","name":"Sand Lake Recreation Area Campground","tents":"yes","website":"https://www.fs.usda.gov/recarea/hmnf/recarea/?recid=18906"}},"937478927":{"location":[44.1474023,-86.030919],"ct":"US","tp":"CS","ts":"2021-05-01T02:54:23Z","tX":267,"tY":371,"tags":{"gnis:feature_id":"2513273","name":"Bear Track Campground","operator":"United States Forest Service"}},"938579958":{"location":[44.2836456,-85.9825571],"ct":"US","tp":"CR","ts":"2021-05-03T20:28:21Z","tX":267,"tY":371,"tags":{"addr:city":"Brethren","addr:housenumber":"3070","addr:postcode":"49619","addr:state":"MI","addr:street":"Keith Road","name":"R & J Resort Campground","phone":"+1-231-477-5549","website":"http://www.rnjresort.com/"}},"944483649":{"location":[44.1954995,-86.009604],"ct":"US","tp":"CS","ts":"2021-05-19T02:13:21Z","tX":267,"tY":371,"tags":{"name":"Pine Lake Recreation Area","operator":"US Forest Service"}},"955887393":{"location":[44.2512716,-85.9206894],"ct":"US","tp":"CR","ts":"2022-04-05T15:49:58Z","tX":267,"tY":371,"tags":{"addr:city":"Wellston","addr:housenumber":"998","addr:postcode":"49689","addr:state":"MI","addr:street":"Emmons Road","name":"Camp Mana Pine","phone":"+1 231 848 4141","website":"http://www.campmana-pine.com/"}},"967858862":{"location":[44.254044,-85.9426848],"ct":"US","tp":"CR","ts":"2021-07-27T13:10:25Z","tX":267,"tY":371,"tags":{"addr:city":"Wellston","addr:housenumber":"17974","addr:postcode":"49689","addr:street":"Old House Road","gnis:feature_id":"2499846","name":"Tippy Dam Road Campgrounds"}},"982128181":{"location":[44.2837901,-85.862054],"ct":"US","tp":"CS","ts":"2021-09-12T00:51:09Z","tX":267,"tY":371,"tags":{"name":"Red Bridge River Access Site","note":"Tent only"}},"995278149":{"location":[44.2646336,-85.9375831],"ct":"US","tp":"CS","ts":"2021-10-21T16:15:31Z","tX":267,"tY":371,"tags":{"capacity":"40","gnis:feature_id":"1622425","name":"Tippy Dam North Recreation Area","website":"https://www2.dnr.state.mi.us/ParksandTrails/Details.aspx?id=696&type=SPRK#overview"}},"995280181":{"location":[44.2628119,-85.8877169],"ct":"US","tp":"CS","ts":"2021-10-21T16:25:41Z","tX":267,"tY":371,"tags":{"capacity":"3","fee":"no","name":"Government Landing","operator":"Huron-Manistee National Forests","tents":"yes"}},"1010989297":{"location":[44.2351952,-85.8887495],"ct":"US","tp":"CR","ts":"2023-10-27T22:26:30Z","tX":267,"tY":371,"tags":{"gnis:feature_id":"2499847","name":"Twin Oaks Campground & Cabins","website":"https://www.twinoakscamping.com/"}},"1057605014":{"location":[44.1381992,-85.8979548],"ct":"US","tp":"CS","ts":"2022-05-05T12:05:53Z","tX":267,"tY":371,"tags":{"name":"Irons RV Park & Campground"}},"2932072170":{"location":[44.2616973,-86.0362686],"ct":"US","tp":"CS","ts":"2021-10-21T16:05:17Z","tX":267,"tY":371,"tags":{"capacity":"6","gnis:feature_id":"1622464","name":"Blacksmith Bayou Campground","operator":"United States Forest Service","reservation":"no","website":"https://www.fs.usda.gov/recarea/hmnf/recarea/?recid=18590"}},"2932072197":{"location":[44.1991764,-85.8036571],"ct":"US","tp":"CR","ts":"2023-10-27T22:31:00Z","tX":267,"tY":371,"tags":{"addr:city":"Wellston","addr:housenumber":"9590","addr:postcode":"49689","addr:state":"MI","addr:street":"South Grandview Highway","gnis:feature_id":"2509095","name":"Pine River Paddlesport Center and Campground","phone":"+1-231-862-3471","website":"https://www.thepineriver.com/"}},"5851577537":{"location":[44.3306507,-85.8490885],"ct":"US","tp":"CS","ts":"2022-03-18T19:06:40Z","tX":267,"tY":371,"tags":{"backcountry":"yes"}},"5851577538":{"location":[44.3227392,-85.8480812],"ct":"US","tp":"CS","ts":"2022-03-18T19:06:40Z","tX":267,"tY":371,"tags":{"backcountry":"yes"}},"6772482419":{"location":[44.260724,-85.8857194],"ct":"US","tp":"CS","ts":"2019-09-04T16:13:07Z","tX":267,"tY":371,"tags":{"fee":"no","name":"Government Landing","operator":"Huron-Manistee National Forests","tents":"yes"}},"6772482420":{"location":[44.2606952,-85.8887583],"ct":"US","tp":"CS","ts":"2019-09-04T16:13:07Z","tX":267,"tY":371,"tags":{"fee":"no","name":"Government Landing","operator":"Huron-Manistee National Forests","tents":"yes"}},"6772482424":{"location":[44.2703528,-85.8826187],"ct":"US","tp":"CS","ts":"2023-07-12T16:37:55Z","tX":267,"tY":371,"tags":{"fee":"no","name":"Government Landing Site 21","operator":"Huron-Manistee National Forests","tents":"yes"}},"6772482553":{"location":[44.2678291,-85.8850783],"ct":"US","tp":"CS","ts":"2023-07-12T16:37:55Z","tX":267,"tY":371,"tags":{"capacity":"3","fee":"no","name":"Government Landing Sites","operator":"Huron-Manistee National Forests","tents":"yes"}},"9081260619":{"location":[44.3299789,-85.8493448],"ct":"US","tp":"CS","ts":"2022-03-18T19:06:40Z","tX":267,"tY":371,"tags":{"backcountry":"yes"}},"9081260719":{"location":[44.3020053,-85.8473402],"ct":"US","tp":"CS","ts":"2021-09-11T01:45:33Z","tX":267,"tY":371,"tags":{}},"9327325705":{"location":[44.2350297,-85.8894032],"ct":"US","tp":"SD","ts":"2021-12-10T13:46:23Z","tX":267,"tY":371,"tags":{}}}