{"159184165":{"location":[44.0174048,-86.1164666],"ct":"US","tp":"CR","ts":"2012-04-12T14:45:56Z","tX":267,"tY":372,"tags":{"name":"Timber Surf Camping Resort","source":"local_knowledge"}},"1005590575":{"location":[44.0604724,-85.9803876],"ct":"US","tp":"CS","ts":"2023-10-27T22:28:43Z","tX":267,"tY":372,"tags":{"fee":"yes","gnis:feature_id":"2513299","name":"Leisure Time Campground","phone":"+1-231-464-6614","website":"https://www.leisuretimecampground.com/"}},"1005955164":{"location":[43.9146782,-85.8244322],"ct":"US","tp":"CS","ts":"2021-11-24T19:56:41Z","tX":267,"tY":372,"tags":{"capacity":"9","charge":"9 USD","fee":"yes","gnis:feature_id":"1622317","name":"Bray Creek State Forest Campground","phone":"+1-231-745-9465","website":"https://www2.dnr.state.mi.us/parksandtrails/details.aspx?id=602&type=SFCG#overview"}},"1008896099":{"location":[43.8526018,-85.9216502],"ct":"US","tp":"CR","ts":"2021-12-03T15:47:23Z","tX":267,"tY":372,"tags":{"addr:city":"Baldwin","addr:housenumber":"6150","addr:postcode":"49304","addr:state":"MI","addr:street":"West 76th Street","name":"Pere Marquette Oaks","phone":"+1-231-898-2665","tents":"no","website":"https://www.peremarquettervpark.com/"}},"1037845774":{"location":[44.0607605,-85.8515126],"ct":"US","tp":"CS","ts":"2022-03-07T00:17:36Z","tX":267,"tY":372,"tags":{"capacity":"20","gnis:feature_id":"1622787","name":"Old Grade Campground","opening_hours":"Apr 27-Sep 09 open","operator":"American Land and Leisure","owner":"U.S. Forest Service","website":"https://www.fs.usda.gov/wps/portal/fsinternet/cs/recarea?ss=110904&navtype=BROWSEBYSUBJECT&cid=FSE_003738&navid=110240000000000&pnavid=110000000000000&recid=18872&actid=29&ttype=recarea&pname=Old%20Grade%20Campground"}},"1188522499":{"location":[43.9151992,-86.0325418],"ct":"US","tp":"CR","ts":"2023-07-09T21:30:25Z","tX":267,"tY":372,"tags":{"addr:city":"Branch","addr:housenumber":"11713","addr:postcode":"49402","addr:state":"MI","addr:street":"West 40th Street","brand":"KOA","brand:wikidata":"Q16988635","gnis:feature_id":"2500856","name":"Ludington East / Pere Marquette River KOA","opening_hours":"May 03-Oct 15: 00:00-24:00","operator":"KOA","phone":"+1-231-480-0303","short_name":"KOA","website":"https://koa.com/campgrounds/pere-marquette/"}},"1203986689":{"location":[43.8888353,-85.9436047],"ct":"US","tp":"CS","ts":"2023-08-31T17:12:16Z","tX":267,"tY":372,"tags":{"gnis:feature_id":"2038127","name":"Bowman Bridge Campground","opening_hours":"May 03-Oct 08 open","operator":"American Land and Leisure","owner":"USFS","tents":"yes"}},"1223434043":{"location":[43.9088542,-85.8188351],"ct":"US","tp":"CS","ts":"2023-11-14T12:08:06Z","tX":267,"tY":372,"tags":{"access":"yes","gnis:feature_id":"2513271","name":"Leverentz Lake State Forest Campground","operator":"Michigan Department of Natural Resources","ownership":"state","phone":"+1-231-745-9465","website":"https://www2.dnr.state.mi.us/parksandtrails/Details.aspx?id=603&type=SFCG"}},"1262550807":{"location":[43.924397,-86.0122212],"ct":"US","tp":"CS","ts":"2024-03-14T19:33:08Z","tX":267,"tY":372,"tags":{"access":"yes","capacity":"12","email":"sm.fs.hmnf@usda.gov","fee":"no","horse":"no","name":"Sulak Campground","opening_hours":"24/7","operator":"United States Forest Service","phone":"+1-231-745-4631","reservation":"no"}},"1265485070":{"location":[43.9477438,-85.9964509],"ct":"US","tp":"CS","ts":"2024-03-23T11:30:44Z","tX":267,"tY":372,"tags":{"access":"yes","capacity":"9","charge":"10 USD","drinking_water":"yes","email":"sm.fs.hmnf@usda.gov","fee":"yes","gnis:feature_id":"2513272","name":"Timber Creek Campground","opening_hours":"24/7","operator":"United States Forest Service","payment:cash":"yes","payment:cheque":"yes","phone":"+1-231-745-4631","reservation":"no","website":"https://www.fs.usda.gov/recarea/hmnf/recreation/recarea/?recid=18884"}},"2932072168":{"location":[43.8445075,-85.9312618],"ct":"US","tp":"CR","ts":"2014-06-24T23:42:27Z","tX":267,"tY":372,"tags":{"addr:city":"Baldwin","addr:housenumber":"9975","addr:postcode":"49304","addr:street":"South Star Lake Drive","name":"Big Star Lake RV Camping Resort","tents":"yes","website":"http://www.bigstarlakervresort.com/"}},"2932072178":{"location":[43.8717091,-85.9201668],"ct":"US","tp":"CS","ts":"2019-05-17T01:23:40Z","tX":267,"tY":372,"tags":{"gnis:feature_id":"1622329","name":"Gleasons Landing Campground","opening_hours":"24/7","reservation":"May 3 - Oct 7 00:00-24:00"}},"2932072183":{"location":[43.8773851,-85.8553289],"ct":"US","tp":"CR","ts":"2014-06-24T23:42:28Z","tX":267,"tY":372,"tags":{"addr:city":"Baldwin","addr:housenumber":"7332","addr:postcode":"49304","addr:street":"South M-37","gnis:feature_id":"2513329","name":"Ivan's Campground and Cabins","website":"http://www.ivanscanoe.com/"}},"2932073201":{"location":[43.8634308,-85.8508973],"ct":"US","tp":"CR","ts":"2020-12-08T22:21:44Z","tX":267,"tY":372,"tags":{"addr:city":"Baldwin","addr:housenumber":"8586","addr:postcode":"49304","addr:state":"MI","addr:street":"South M-37","gnis:feature_id":"2513328","name":"Whispering Oaks Campground","phone":"+1-231-745-7152","tents":"yes","website":"https://www.michigancampground.com/"}},"5960627231":{"location":[43.8708478,-85.8823369],"ct":"US","tp":"CS","ts":"2020-12-08T22:21:05Z","tX":267,"tY":372,"tags":{"addr:state":"MI","backcountry":"yes","capacity":"9","drinking_water":"no","email":"r9_hmnf_website@fs.fed.us","internet_access":"no","name":"Claybanks Campground","operator":"US Forest Service","phone":"+1-231-745-4631","reservation":"no","sanitary_dump_station":"no","tents":"yes","toilets":"yes","website":"https://www.fs.usda.gov/recarea/hmnf/recreation/camping-cabins/recarea/?recid=18616&actid=29","wheelchair":"no"}},"5965557459":{"location":[43.8913246,-85.9678406],"ct":"US","tp":"CS","ts":"2019-05-17T01:23:41Z","tX":267,"tY":372,"tags":{"capacity":"4","caravans":"no","name":"Bowman Lake Campground","opening_hours":"24/7","operator":"U.S. Forest Service Huron-Manistee National Forests","reservation":"no","tents":"yes"}},"5968845772":{"location":[43.928249,-86.029677],"ct":"US","tp":"CS","ts":"2019-05-17T01:23:41Z","tX":267,"tY":372,"tags":{"name":"Elk Canoe Campground","opening_hours":"24/7","operator":"U.S. Forest Service Huron-Manistee National Forests","reservation":"no","tents":"yes"}},"5968915356":{"location":[43.9375089,-86.0742925],"ct":"US","tp":"CS","ts":"2023-01-27T23:16:30Z","tX":267,"tY":372,"tags":{"access":"no","canoe":"yes","capacity":"4","fixme":"location is approximate","name":"Log Mark Rest Stop Canoe and Fishing Landing","note":"This site is canoe-in only","opening_hours":"Nov 01 - Apr 30 off","owner":"U.S. Forest Service Huron-Manistee National Forests","reservation":"no","website":"https://www.fs.usda.gov/recarea/hmnf/recarea/?recid=18630"}}}