{"1155134361":{"location":[43.7230578,-85.9037785],"ct":"US","tp":"CR","ts":"2023-03-17T23:44:27Z","tX":267,"tY":373,"tags":{"name":"Nichols Lake South Campground","opening_hours":"May 3 - Oct 8, 00:00-24:00","operator":"American Land and Leisure","tents":"yes","website":"https://www.fs.usda.gov/recarea/hmnf/recreation/camping-cabins/recarea/?recid=18896&actid=29","wikidata":"Q117195450"}},"1346681284":{"location":[43.6714829,-85.8222174],"ct":"US","tp":"CS","ts":"2024-12-27T18:19:34Z","tX":267,"tY":373,"tags":{"access":"yes","capacity":"6","capacity:tents":"6","charge":"10 USD","fee":"yes","name":"Indian Lake Campground","opening_hours":"24/7","operator":"United States Forest Service","tents":"yes","website":"https://www.fs.usda.gov/recarea/hmnf/recarea/?recid=18868&actid=78"}},"1357111958":{"location":[43.6168971,-85.8161344],"ct":"US","tp":"CS","ts":"2025-05-04T18:50:05Z","tX":267,"tY":373,"tags":{"group_only":"yes","operator":"Newaygo County Parks & Recreation","operator:type":"public/government"}},"1357112429":{"location":[43.6148907,-85.8173254],"ct":"US","tp":"CS","ts":"2025-06-07T14:48:08Z","tX":267,"tY":373,"tags":{"name":"Sites 17 - 27","operator":"Newaygo County Parks & Recreation","operator:type":"public"}},"1357112885":{"location":[43.6151858,-85.8159292],"ct":"US","tp":"CS","ts":"2025-05-05T16:38:30Z","tX":267,"tY":373,"tags":{"name":"Sites 1 - 16","operator":"Newaygo County Parks & Recreation","operator:type":"public"}},"1357113155":{"location":[43.6135739,-85.8199096],"ct":"US","tp":"CS","ts":"2025-05-05T16:33:20Z","tX":267,"tY":373,"tags":{"name":"Sites 30 - 62","operator":"Newaygo County Parks & Recreation","operator:type":"public"}},"1365976226":{"location":[43.7462154,-86.1191065],"ct":"US","tp":"CS","ts":"2025-03-10T12:57:00Z","tX":267,"tY":373,"tags":{"access":"yes","capacity:caravans":"11","capacity:tents":"3","caravans":"yes","name":"Black Lake County Park Campground","operator":"Oceana County","tents":"yes"}},"1383601697":{"location":[43.6146681,-85.8148474],"ct":"US","tp":"SD","ts":"2025-05-04T17:52:39Z","tX":267,"tY":373,"tags":{"operator":"Newaygo County Parks","water_point":"yes"}},"2933398127":{"location":[43.668987,-85.8898862],"ct":"US","tp":"CS","ts":"2018-10-26T17:12:58Z","tX":267,"tY":373,"tags":{"capacity":"25","name":"Benton Lake Campground","opening_hours":"May 3 - Sep 9, 00:00-24:00","operator":"American Land and Leisure"}},"2933398137":{"location":[43.6150278,-85.8146912],"ct":"US","tp":"CR","ts":"2014-06-25T20:29:35Z","tX":267,"tY":373,"tags":{"addr:city":"White Cloud","addr:housenumber":"3351","addr:postcode":"49349","addr:street":"Mundy Road","gnis:feature_id":"2542000","name":"Diamond Lake County Park"}},"2933398141":{"location":[43.7699028,-85.8894241],"ct":"US","tp":"CS","ts":"2019-04-30T05:07:13Z","tX":267,"tY":373,"tags":{"capacity":"9","gnis:feature_id":"1622450","name":"Highbank Lake Campground","opening_hours":"May 03-Sep 08, 00:00-24:00","operator":"American Land and Leisure"}},"2933398156":{"location":[43.7733173,-85.8122907],"ct":"US","tp":"CS","ts":"2014-06-25T20:29:37Z","tX":267,"tY":373,"tags":{"addr:city":"Bitely","addr:housenumber":"490","addr:postcode":"49309","addr:street":"Pettibone Drive","gnis:feature_id":"2542142","name":"Pettibone Lake County Park"}},"2933398157":{"location":[43.7832487,-85.846704],"ct":"US","tp":"CR","ts":"2023-10-27T22:26:11Z","tX":267,"tY":373,"tags":{"addr:city":"Bitely","addr:housenumber":"12666","addr:postcode":"49309","addr:state":"MI","addr:street":"North Woodbridge Avenue","gnis:feature_id":"2500853","name":"Pickerel Lakeside Campground and Cottages","phone":"+1-231-745-7268","website":"https://www.lakecamp-cottages.com/"}},"2933398167":{"location":[43.6323833,-85.9426645],"ct":"US","tp":"CR","ts":"2014-06-25T20:29:38Z","tX":267,"tY":373,"tags":{"addr:city":"Hesperia","addr:housenumber":"4345","addr:postcode":"49421","addr:street":"North Warner Avenue","gnis:feature_id":"2541791","name":"Timbers Edge Campground","tents":"yes"}},"5965417880":{"location":[43.671751,-85.822261],"ct":"US","tp":"CS","ts":"2019-05-17T01:23:40Z","tX":267,"tY":373,"tags":{"capacity":"6","fee":"yes","name":"Indian Lake Campground","opening_hours":"24/7","operator":"U.S. Forest Service Huron-Manistee National Forests"}},"5965449309":{"location":[43.73464,-85.905172],"ct":"US","tp":"CS","ts":"2018-10-08T04:19:17Z","tX":267,"tY":373,"tags":{"name":"Walkup Lake Campground","opening_hours":"May 3 - Oct 8, 00:00-24:00","operator":"U.S. Forest Service Huron-Manistee National Forests","sanitary_dump_station":"no","tents":"yes"}},"5965463931":{"location":[43.757958,-85.900061],"ct":"US","tp":"CS","ts":"2019-05-17T01:23:40Z","tX":267,"tY":373,"tags":{"capacity":"6","name":"Condon Lakes West","opening_hours":"24/7","operator":"U.S. Forest Service Huron-Manistee National Forests","tents":"yes"}},"6008631269":{"location":[43.630311,-85.89991],"ct":"US","tp":"CS","ts":"2019-05-17T01:23:41Z","tX":267,"tY":373,"tags":{"name":"Minnie Pond Campground","opening_hours":"24/7","operator":"United States Department of Agriculture Forest Service Huron-Manistee National Forests","tents":"yes"}},"6009057253":{"location":[43.712334,-85.810933],"ct":"US","tp":"CS","ts":"2024-12-27T19:49:49Z","tX":267,"tY":373,"tags":{"access":"yes","capacity":"8","capacity:tents":"8","charge":"10 USD","fee":"yes","name":"Shelley Lake Campground","opening_hours":"24/7","operator":"United States Forest Service","reservation":"no","tents":"yes","website":"https://www.fs.usda.gov/recarea/hmnf/recarea/?recid=18882"}},"6010600881":{"location":[43.7675338,-85.9091377],"ct":"US","tp":"CS","ts":"2018-10-24T16:59:47Z","tX":267,"tY":373,"tags":{"backcountry":"yes","name":"Kenosha Lake"}},"8742865074":{"location":[43.6356361,-85.8498598],"ct":"US","tp":"CS","ts":"2021-05-18T15:21:18Z","tX":267,"tY":373,"tags":{"access":"yes","capacity":"4"}},"12595640664":{"location":[43.6146364,-85.8146697],"ct":"US","tp":"SD","ts":"2025-06-07T14:48:08Z","tX":267,"tY":373,"tags":{}}}