{"17370091":{"location":[43.5734343,-86.0432852],"ct":"US","tp":"CR","ts":"2024-03-21T16:14:48Z","tX":267,"tY":374,"tags":{"access":"customers","addr:city":"Hesperia","addr:housenumber":"155","addr:postcode":"49421","addr:state":"MI","addr:street":"West Michigan Avenue","email":"riverrockcampgroundmi@gmail.com","name":"River Rock Campground","operator":"River Rock Campground LLC","phone":"+1-989-402-3025"}},"599469905":{"location":[43.4580981,-85.9605044],"ct":"US","tp":"CR","ts":"2018-06-19T21:08:05Z","tX":267,"tY":374,"tags":{}},"977053204":{"location":[43.4527729,-85.8094196],"ct":"US","tp":"CR","ts":"2021-08-27T18:57:59Z","tX":267,"tY":374,"tags":{"name":"Little Switzerland Resort and Campground"}},"977053206":{"location":[43.5488288,-85.7840956],"ct":"US","tp":"CR","ts":"2023-10-29T01:33:27Z","tX":267,"tY":374,"tags":{"addr:state":"MI","area":"yes","gnis:feature_id":"2541979","name":"White Cloud City Campground","phone":"+1-231-689-2021","tents":"yes","website":"https://www.cityofwhitecloud.org/WCc.htm"}},"1079887021":{"location":[43.333025,-86.0489192],"ct":"US","tp":"CS","ts":"2024-07-24T02:02:10Z","tX":267,"tY":374,"tags":{"addr:city":"Twin Lake","addr:housenumber":"4230","addr:postcode":"49457","addr:street":"Obenauf Road","alt_name":"YMCA Camp Pinewood","gnis:feature_id":"1619408","group_only":"yes","name":"Camp Pinewood","website":"https://www.ymcachicago.org/pinewood"}},"1156067811":{"location":[43.5287098,-86.1192969],"ct":"US","tp":"CS","ts":"2023-03-21T14:23:03Z","tX":267,"tY":374,"tags":{"gnis:feature_id":"1622775","name":"Pines Point Campground","operator":"United States Forest Serice","owner":"United States Forest Serice","wikidata":"Q117235693"}},"1685179689":{"location":[43.4212168,-85.7876728],"ct":"US","tp":"CR","ts":"2014-06-26T19:01:53Z","tX":267,"tY":374,"tags":{"alt_name":"Henning Park Campground","name":"Ed H. Henning Campground","tents":"yes"}},"2933398128":{"location":[43.4846908,-85.8543088],"ct":"US","tp":"CS","ts":"2023-10-29T01:32:52Z","tX":267,"tY":374,"tags":{"addr:city":"Fremont","addr:housenumber":"3782","addr:postcode":"49412","addr:street":"South Triangle Trail","gnis:feature_id":"1622324","group_only":"yes","name":"Camp Echo","website":"https://www.mcgawymca.org/campecho/"}},"2933398129":{"location":[43.4529689,-85.82236],"ct":"US","tp":"CS","ts":"2023-10-29T01:31:32Z","tX":267,"tY":374,"tags":{"addr:city":"Newaygo","addr:housenumber":"5575","addr:postcode":"49337","addr:street":"Gordon Avenue","gnis:feature_id":"1622287","group_only":"yes","name":"Camp Henry","website":"https://camphenry.org/"}},"2933398134":{"location":[43.3475415,-85.9361885],"ct":"US","tp":"CR","ts":"2020-12-08T05:27:15Z","tX":267,"tY":374,"tags":{"addr:city":"Grant","addr:housenumber":"5471","addr:postcode":"49327","addr:state":"MI","addr:street":"West 112th Street","gnis:feature_id":"2542081","name":"Chinook Campground","phone":"+1-231-834-7505","website":"https://chinookcampground.com/"}},"2933398138":{"location":[43.4575245,-85.960845],"ct":"US","tp":"CR","ts":"2023-10-29T01:28:23Z","tX":267,"tY":374,"tags":{"addr:state":"MI","gnis:feature_id":"2542127","name":"Fremont Lake Park Campground","phone":"+1-231-924-5227","tents":"yes","website":"https://www.cityoffremont.net/web/community_camp.htm"}},"2933398151":{"location":[43.3806309,-85.8709727],"ct":"US","tp":"CR","ts":"2020-12-08T05:27:52Z","tX":267,"tY":374,"tags":{"addr:city":"Newaygo","addr:housenumber":"9570","addr:postcode":"49337","addr:state":"MI","addr:street":"South Wisner Avenue","gnis:feature_id":"2542042","name":"Mystery Creek Campground","phone":"+1-231-652-6915","website":"https://chinookcampground.com/"}},"2933398159":{"location":[43.3895893,-85.837161],"ct":"US","tp":"CR","ts":"2020-12-08T05:28:19Z","tX":267,"tY":374,"tags":{"addr:city":"Grant","addr:housenumber":"8845","addr:postcode":"49327","addr:state":"MI","addr:street":"Felch Avenue","gnis:feature_id":"2542052","name":"Salmon Run Campground","phone":"+1-231-834-5494","tents":"yes","website":"https://www.salmonrunmi.com/"}},"2933398171":{"location":[43.5489139,-85.7842494],"ct":"US","tp":"CR","ts":"2023-10-29T01:32:27Z","tX":267,"tY":374,"tags":{"addr:state":"MI","gnis:feature_id":"2541979","name":"White Cloud City Campground","phone":"+1-231-689-2021","tents":"yes","website":"https://www.cityofwhitecloud.org/WCc.htm"}},"8693747857":{"location":[43.458687,-85.7964209],"ct":"US","tp":"CS","ts":"2021-05-03T13:24:21Z","tX":267,"tY":374,"tags":{"access":"private","name":"Chalet"}},"10043514682":{"location":[43.4639786,-86.1125928],"ct":"US","tp":"CS","ts":"2022-09-27T17:30:15Z","tX":267,"tY":374,"tags":{"access":"private","backcountry":"yes","name":"1994 OSR Trail Site","operator":"Owasippe Scout Reservation"}},"10056715223":{"location":[43.4807594,-86.1300551],"ct":"US","tp":"CS","ts":"2022-09-27T17:30:15Z","tX":267,"tY":374,"tags":{"access":"private","backcountry":"yes","name":"1994 OSR Trail Site - Deserters Cave","operator":"Owasippe Scout Reservation"}}}