{"1256100596":{"location":[42.9051311,-85.8988596],"ct":"US","tp":"CR","ts":"2024-02-29T16:23:17Z","tX":267,"tY":376,"tags":{"addr:city":"Hudsonville","addr:housenumber":"4700","addr:postcode":"49426","addr:state":"MI","addr:street":"Baldwin Street","gnis:feature_id":"2573310","name":"Baldwin Oaks Campground","phone":"+1-616-669-1600","tents":"yes","website":"http://www.baldwinoakscampground.com/"}},"2936088132":{"location":[43.0305556,-86.0338889],"ct":"US","tp":"CR","ts":"2023-10-29T01:33:54Z","tX":267,"tY":376,"tags":{"addr:city":"Coopersville","addr:housenumber":"9720","addr:postcode":"49404","addr:state":"MI","addr:street":"Oriole Drive","gnis:feature_id":"2573172","name":"Conestoga Grand River Campground","phone":"+1-616-837-6323","website":"https://conestogacampground.com/"}},"2936088134":{"location":[42.84726,-86.0999166],"ct":"US","tp":"CR","ts":"2020-12-08T04:46:11Z","tX":267,"tY":376,"tags":{"addr:city":"Holland","addr:housenumber":"12850","addr:postcode":"49424","addr:state":"MI","addr:street":"Ransom Street","gnis:feature_id":"2573112","name":"Drew's Country Camping","phone":"+1-616-399-1886"}},"2936088161":{"location":[42.9968793,-85.9911605],"ct":"US","tp":"CR","ts":"2020-12-08T04:50:51Z","tX":267,"tY":376,"tags":{"addr:city":"Allendale","addr:housenumber":"8275","addr:postcode":"49401","addr:state":"MI","addr:street":"Warner Street","gnis:feature_id":"2571617","name":"The Allendale/West Grand Rapids KOA","old_name":"River Pines RV Park and Campground","phone":"+1-616-895-6601","website":"https://koa.com/campgrounds/allendale/"}},"7317557706":{"location":[42.9370254,-85.8002364],"ct":"US","tp":"CR","ts":"2020-03-22T03:42:38Z","tX":267,"tY":376,"tags":{"addr:housenumber":"825","addr:street":"Taylor Street","contact:facebook":"https://www.facebook.com/Steamboat-Park-Campground-1488941224490790/","name":"Steamboat Park Campground","phone":"+1 616-457-4837","website":"https://steamboatpark.info/"}}}