{"3495894":{"location":[42.6851214,-85.8057424],"ct":"US","tp":"CS","ts":"2023-10-29T01:30:43Z","tX":267,"tY":377,"tags":{"addr:city":"Dorr","addr:housenumber":"3681","addr:postcode":"49323","addr:street":"28th Street","name":"Sandy Pines","phone":"+1 616 896 8315","website":"https://sandypines.com/"}},"34053475":{"location":[42.5923338,-85.9080042],"ct":"US","tp":"CS","ts":"2007-08-12T07:22:40Z","tX":267,"tY":377,"tags":{"created_by":"JOSM","name":"Tri-ponds Family Camp Resort"}},"1070810876":{"location":[42.6841474,-85.8139618],"ct":"US","tp":"SD","ts":"2022-06-18T00:39:31Z","tX":267,"tY":377,"tags":{}},"1207762014":{"location":[42.8026976,-86.0346524],"ct":"US","tp":"CS","ts":"2023-09-14T16:30:21Z","tX":267,"tY":377,"tags":{"addr:housenumber":"10300","addr:street":"Gordon Street","name":"Dutch Treat Camping & Reservation"}},"2936088158":{"location":[42.6616743,-85.9275267],"ct":"US","tp":"CS","ts":"2023-10-29T01:31:26Z","tX":267,"tY":377,"tags":{"gnis:feature_id":"637928","name":"Silver Creek Campground","website":"https://www.allegancounty.org/Government/PD/Parks/SilverCreek.asp?pt=government"}},"2936296392":{"location":[42.5972222,-85.8638889],"ct":"US","tp":"CS","ts":"2022-05-03T17:14:02Z","tX":267,"tY":377,"tags":{"addr:city":"Allegan","addr:housenumber":"3212","addr:postcode":"49010","addr:state":"MI","addr:street":"125th Avenue","gnis:feature_id":"2109202","group_only":"yes","name":"Camp Beechpoint","phone":"+1-800-991-2267","website":"http://beechpoint.com/"}},"2936296398":{"location":[42.6013889,-85.8555556],"ct":"US","tp":"CR","ts":"2024-06-29T05:00:39Z","tX":267,"tY":377,"tags":{"addr:city":"Allegan","addr:housenumber":"3106","addr:postcode":"49010","addr:state":"MI","addr:street":"125th Avenue","gnis:feature_id":"2574152","name":"Dumont Lake Campground","phone":"+1-269-673-6065","tents":"yes","website":"https://dumontlake.com/"}}}