{"1165957344":{"location":[42.5323461,-86.0367051],"ct":"US","tp":"CS","ts":"2023-04-26T18:35:57Z","tX":267,"tY":378,"tags":{"addr:city":"Allegan","addr:housenumber":"5020","addr:postcode":"49010","addr:street":"116th Avenue","gnis:feature_id":"2105452","name":"Ely Lake Campground","operator":"Allegan County Parks Commission","website":"https://www.allegancounty.org/Home/Components/FacilityDirectory/FacilityDirectory/11/"}},"1184217712":{"location":[42.3778857,-85.9579997],"ct":"US","tp":"CS","ts":"2023-06-22T13:04:41Z","tX":267,"tY":378,"tags":{"access":"yes","capacity:tents":"4","name":"Shady Brook Park Rustic Campground","operator":"Village of Bloomingdale","tents":"yes"}},"1184218976":{"location":[42.3541939,-85.8637269],"ct":"US","tp":"CS","ts":"2023-06-22T13:15:44Z","tX":267,"tY":378,"tags":{"capacity:tents":"4","caravans":"no","name":"Goddess Grove Campground","operator":"Michigan Department of Natural Resources","tents":"yes"}},"1237260827":{"location":[42.4670748,-85.9555639],"ct":"US","tp":"CR","ts":"2024-01-05T12:45:58Z","tX":267,"tY":378,"tags":{"gnis:feature_id":"2574155","name":"Swan Lake Campground"}},"1237260829":{"location":[42.4685017,-85.9662885],"ct":"US","tp":"CR","ts":"2024-01-05T12:45:58Z","tX":267,"tY":378,"tags":{"addr:city":"Allegan","addr:housenumber":"697","addr:postcode":"49010","addr:state":"MI","addr:street":"44th Street","gnis:feature_id":"2574276","name":"Giles Campground","phone":"+1-269-521-6171","tents":"yes","website":"http://www.gilescampground.com/"}},"1237260834":{"location":[42.4727355,-85.9627297],"ct":"US","tp":"CR","ts":"2024-01-05T12:45:58Z","tX":267,"tY":378,"tags":{"name":"Sand Harbor Motorcoach Resort"}},"2936296393":{"location":[42.4813889,-85.9152778],"ct":"US","tp":"CS","ts":"2022-05-10T19:08:35Z","tX":267,"tY":378,"tags":{"addr:city":"Allegan","addr:housenumber":"3799","addr:postcode":"49010","addr:state":"MI","addr:street":"108th Avenue","gnis:feature_id":"2109215","group_only":"yes","name":"Camp Kaskitowa","phone":"+1-262-422-6751","website":"https://www.campk.net/"}},"2936296705":{"location":[42.5460447,-85.9785982],"ct":"US","tp":"CS","ts":"2023-10-29T01:29:28Z","tX":267,"tY":378,"tags":{"addr:city":"Allegan","addr:housenumber":"1792","addr:postcode":"49010","addr:street":"44th Street","gnis:feature_id":"2574159","name":"Pine Point Campground","website":"https://www.allegancounty.org/Government/PD/Parks/PinePoint.asp?pt=Government"}},"2936296710":{"location":[42.4222446,-86.0816451],"ct":"US","tp":"CR","ts":"2020-12-07T05:55:36Z","tX":267,"tY":378,"tags":{"addr:city":"Grand Junction","addr:housenumber":"60","addr:postcode":"49056","addr:state":"MI","addr:street":"55th Street","name":"Warner Camp RV Park","phone":"+1-269-434-6844","tents":"yes","website":"https://www.warnercamp.com/"}},"9214811417":{"location":[42.4269985,-86.0716134],"ct":"US","tp":"CS","ts":"2021-10-31T18:43:00Z","tX":267,"tY":378,"tags":{"name":"Getaway Barber Creek"}}}