{"816734280":{"location":[42.1097627,-86.0140787],"ct":"US","tp":"CS","ts":"2020-06-17T05:08:31Z","tX":267,"tY":379,"tags":{"access":"customers","name":"Lake of the Woods and Greenwoods Camps"}},"816734281":{"location":[42.1115556,-86.0051283],"ct":"US","tp":"CS","ts":"2020-06-17T05:08:31Z","tX":267,"tY":379,"tags":{"access":"customers","name":"Lake of the Woods and Greenwoods Camps"}},"816734282":{"location":[42.1080356,-86.004412],"ct":"US","tp":"CS","ts":"2020-06-17T05:08:31Z","tX":267,"tY":379,"tags":{"access":"customers","group_only":"yes","name":"Timber Trails RV Park"}},"916273729":{"location":[42.1057622,-86.0516863],"ct":"US","tp":"CR","ts":"2023-10-28T16:13:34Z","tX":267,"tY":379,"tags":{"addr:city":"Decatur","addr:housenumber":"86232","addr:postcode":"49045","addr:state":"MI","addr:street":"County Road 215","gnis:feature_id":"2574948","name":"Oak Shores Campground","phone":"+1-269-423-7370","tents":"yes","website":"https://www.oakshorescampground.com/"}},"2937772743":{"location":[42.0604486,-85.8090418],"ct":"US","tp":"CR","ts":"2023-10-28T16:07:43Z","tX":267,"tY":379,"tags":{"addr:city":"Marcellus","addr:housenumber":"50821","addr:postcode":"49067","addr:state":"MI","addr:street":"Maple Road","gnis:feature_id":"2414375","name":"Hemlock Lake Campground","phone":"+1-574-276-8332","website":"https://hemlocklakecg.com/"}},"2937772746":{"location":[42.0722222,-85.9444444],"ct":"US","tp":"CR","ts":"2024-06-22T18:29:02Z","tX":267,"tY":379,"tags":{"addr:city":"Decatur","addr:housenumber":"40851","addr:postcode":"49045","addr:state":"MI","addr:street":"CR 669","gnis:feature_id":"2574945","name":"Leisure Valley R.V. Resort","phone":"+1-269-423-7122","tents":"yes","website":"https://www.leisurevalley.com/"}},"2937772750":{"location":[42.1336162,-85.7853878],"ct":"US","tp":"CR","ts":"2023-10-28T16:14:22Z","tX":267,"tY":379,"tags":{"addr:city":"Lawton","addr:housenumber":"23715","addr:postcode":"49065","addr:state":"MI","addr:street":"County Road 354","gnis:feature_id":"2574720","name":"Pioneer Point Campground","phone":"+1-269-624-1583","tents":"yes","website":"https://www.pioneerpoint.net/"}},"2937772756":{"location":[42.1087744,-86.0049087],"ct":"US","tp":"CR","ts":"2023-10-28T16:09:56Z","tX":267,"tY":379,"tags":{"addr:city":"Decatur","addr:housenumber":"84981","addr:postcode":"49045","addr:state":"MI","addr:street":"47 1/2 Street","gnis:feature_id":"2574946","name":"Timber Trails RV Park","phone":"+1-269-423-7311","tents":"yes","website":"https://www.timbertrailsrvpark.com/"}}}