{"2937772732":{"location":[41.9111111,-85.8498583],"ct":"US","tp":"CR","ts":"2014-06-28T17:32:29Z","tX":267,"tY":380,"tags":{"gnis:feature_id":"2402165","name":"Camelot Campground"}},"2937772737":{"location":[41.9866792,-85.9073389],"ct":"US","tp":"CS","ts":"2022-06-23T11:40:12Z","tX":267,"tY":380,"tags":{"addr:city":"Cassopolis","addr:housenumber":"17585","addr:postcode":"49031","addr:state":"MI","addr:street":"McKenzie Street","gnis:feature_id":"2109378","group_only":"yes","name":"Camp Manitou","phone":"+1-269-646-9136","website":"http://campmanitoucofc.org/"}},"2937772739":{"location":[41.8842142,-85.8561109],"ct":"US","tp":"CS","ts":"2023-10-28T16:10:28Z","tX":267,"tY":380,"tags":{"addr:city":"Vandalia","addr:housenumber":"14751","addr:postcode":"49095","addr:state":"MI","addr:street":"Harvey Street","gnis:feature_id":"622643","group_only":"yes","name":"Camp Tannadoonah","phone":"+1-574-387-6095","website":"https://www.tannadoonah.org/"}},"2937772745":{"location":[41.8944963,-85.8157721],"ct":"US","tp":"CR","ts":"2023-10-28T16:09:34Z","tX":267,"tY":380,"tags":{"addr:city":"Jones","addr:housenumber":"12808","addr:postcode":"49061","addr:state":"MI","addr:street":"Prang Street","gnis:feature_id":"2414391","name":"Lakeside Campground","phone":"+1-269-244-8490","tents":"yes","website":"https://www.lakesidecampground.org/"}},"2937772753":{"location":[41.8975,-85.8061111],"ct":"US","tp":"CR","ts":"2023-10-28T16:08:04Z","tX":267,"tY":380,"tags":{"addr:city":"Jones","addr:housenumber":"12377","addr:postcode":"49061","addr:state":"MI","addr:street":"Bair Lake Street","gnis:feature_id":"2414389","name":"Shady Point Campground","phone":"+1-269-244-5702","website":"https://www.shadypointcampground.com/"}},"10797354580":{"location":[41.8522306,-85.8655903],"ct":"US","tp":"CS","ts":"2023-09-27T00:37:46Z","tX":267,"tY":380,"tags":{"access":"customers","addr:city":"Cassopolis","addr:housenumber":"15406","addr:postcode":"49031","addr:state":"MI","addr:street":"Watercress Way","group_only":"yes","name":"Camp Friedenswald","website":"https://friedenswald.org"}}}