{"13400374":{"location":[40.767296,-86.0116731],"ct":"US","tp":"CS","ts":"2022-05-31T11:14:13Z","tX":267,"tY":384,"tags":{"addr:housenumber":"3411","addr:street":"East Wabash Road","backcountry":"no","caravans":"yes","fee":"yes","motor_vehicle":"yes","name":"Great Lakes Resort","phone":"+1 765-473-3336","static_caravans":"yes"}},"905108398":{"location":[40.7494804,-86.0931671],"ct":"US","tp":"CS","ts":"2023-05-22T00:00:49Z","tX":267,"tY":384,"tags":{"access":"private","addr:city":"Peru","addr:state":"IN","backcountry":"yes","barrier":"fence","boundary":"protected_area","club":"conservation","drinking_water":"no","fee":"yes","hot_water":"no","internet_access":"no","long_name":"Izaak Walton League of America","membership":"yes","name":"Izaak Walton League (Peru)","operator":"Izaak Walton League","power_supply":"no","sanitary_dump_station":"no","short_name":"IWLA","shower":"no","website":"https://www.iwla.org/"}},"931640132":{"location":[40.7966866,-86.0547366],"ct":"US","tp":"CS","ts":"2021-04-17T03:18:36Z","tX":267,"tY":384,"tags":{"access":"private","caravans":"yes","internet_access":"wlan","name":"Hidden Creek Campground","phone":"+1 765-480-2862","reservation":"members_only","sanitary_dump_station":"no","website":"https://hiddencreekcampground.com/"}},"1348002555":{"location":[40.7178852,-85.962236],"ct":"US","tp":"CR","ts":"2025-01-02T14:51:44Z","tX":267,"tY":384,"tags":{}},"5345412742":{"location":[40.7927396,-85.818462],"ct":"US","tp":"CS","ts":"2018-01-17T18:30:54Z","tX":267,"tY":384,"tags":{"addr:city":"Wabash","addr:postcode":"46992","addr:state":"IN","capacity":"4","description":"This area is only for 1 night stays for canoe camping","name":"Wabash River Camp"}},"5324285012":{"location":[40.7914167,-85.8232814],"ct":"US","tp":"CR","ts":"2018-01-08T05:13:54Z","tX":267,"tY":384,"tags":{"name":"RV Camping Park","operator":"Wabash City"}}}