{"358655613":{"location":[39.1510815,-86.1083541],"ct":"US","tp":"CS","ts":"2024-05-24T09:44:07Z","tX":267,"tY":390,"tags":{"ele":"241","gnis:feature_id":"435713","name":"Happy Hollow Camp"}},"556323744":{"location":[39.1200137,-85.9641489],"ct":"US","tp":"CS","ts":"2018-01-27T19:10:24Z","tX":267,"tY":390,"tags":{"addr:city":"Columbus","addr:housenumber":"8855","addr:postcode":"47201","addr:state":"IN","addr:street":"S 300 W","name":"Columbus Woods-N-Water"}},"1224619958":{"location":[39.3551999,-86.0261566],"ct":"US","tp":"CR","ts":"2023-11-16T20:53:59Z","tX":267,"tY":390,"tags":{}},"1271557613":{"location":[39.3611226,-85.9693398],"ct":"US","tp":"CR","ts":"2024-04-10T20:00:39Z","tX":267,"tY":390,"tags":{}},"1319366481":{"location":[39.3383083,-85.9836986],"ct":"US","tp":"CS","ts":"2024-09-30T00:23:50Z","tX":267,"tY":390,"tags":{}},"3301735850":{"location":[39.1665844,-85.8048181],"ct":"US","tp":"CR","ts":"2015-01-21T03:17:02Z","tX":267,"tY":390,"tags":{}},"6923486085":{"location":[39.1603431,-86.1148037],"ct":"US","tp":"CS","ts":"2022-06-14T01:01:12Z","tX":267,"tY":390,"tags":{"addr:postcode":"47448","addr:street":"Happy Hollow Road","name":"Happy Hollow Children's Camp","phone":"+18129884900","website":"https://www.happyhollowcamp.net"}}}