{"255222477":{"location":[37.1336548,-86.0230891],"ct":"US","tp":"CS","ts":"2014-01-04T14:32:01Z","tX":267,"tY":398,"tags":{"addr:city":"Cave City","addr:housenumber":"4110","addr:postcode":"42127","addr:state":"KY","addr:street":"Mammoth Cave Road","name":"Singing Hills RV Park & Campground","phone":"270-773-3789"}},"255264110":{"location":[37.1348581,-85.9688529],"ct":"US","tp":"CS","ts":"2014-01-04T17:33:27Z","tX":267,"tY":398,"tags":{"addr:city":"Cave City","addr:country":"US","addr:housenumber":"216","addr:postcode":"42127","addr:state":"KY","addr:street":"Gaunce Drive","name":"Cave Country RV Campground"}},"255268325":{"location":[37.1386554,-85.9926503],"ct":"US","tp":"CS","ts":"2020-05-05T14:26:28Z","tX":267,"tY":398,"tags":{}},"3416439626":{"location":[37.1065098,-86.0762863],"ct":"US","tp":"CS","ts":"2015-03-24T19:30:16Z","tX":267,"tY":398,"tags":{}},"7482396186":{"location":[37.1377225,-85.994806],"ct":"US","tp":"CS","ts":"2020-05-04T18:25:08Z","tX":267,"tY":398,"tags":{"addr:city":"Cave City","addr:housenumber":"950","addr:postcode":"42127","addr:state":"KY","addr:street":"Mammoth Cave Road","name":"Jellystone Park at Mammoth Cave","website":"https://www.jellystonemammothcave.com/"}}}