{"14523252":{"location":[34.5155656,-86.1092532],"ct":"US","tp":"CS","ts":"2022-08-31T00:43:34Z","tX":267,"tY":407,"tags":{"name":"South Sauty Creek Resort"}},"14523256":{"location":[34.5235795,-86.0960304],"ct":"US","tp":"CS","ts":"2022-08-31T01:04:55Z","tX":267,"tY":407,"tags":{"name":"Northshore Campground"}},"1090629534":{"location":[34.5326791,-86.0877213],"ct":"US","tp":"CS","ts":"2022-08-31T00:56:42Z","tX":267,"tY":407,"tags":{"addr:city":"Langston","addr:housenumber":"155","addr:state":"AL","addr:street":"Eagle's Lane","fee":"yes","name":"Eagle's Landing RV Resort","opening_hours":"Mo-Su 08:00-16:00","phone":"+1-256-706-3809","website":"http://www.eagleslandingrvresort.net/"}},"1090629851":{"location":[34.5325815,-86.0905386],"ct":"US","tp":"CS","ts":"2022-08-31T00:56:42Z","tX":267,"tY":407,"tags":{"addr:city":"Langston","addr:housenumber":"10174","addr:state":"AL","addr:street":"County Road 67","email":"windemerecove@aol.com","fee":"yes","name":"Windemere Cove","phone":"+1-256-228-3010","website":"https://www.windemerecove.com/"}}}