{"15404972":{"location":[30.2048341,-85.8235665],"ct":"US","tp":"CR","ts":"2023-01-29T03:20:31Z","tX":267,"tY":421,"tags":{}},"15404973":{"location":[30.183932,-85.7886275],"ct":"US","tp":"CR","ts":"2023-07-30T14:43:35Z","tX":267,"tY":421,"tags":{}},"15404974":{"location":[30.1710546,-85.792668],"ct":"US","tp":"CR","ts":"2023-01-29T03:20:31Z","tX":267,"tY":421,"tags":{}},"95855262":{"location":[30.2321109,-85.9070249],"ct":"US","tp":"CS","ts":"2022-10-17T14:19:15Z","tX":267,"tY":421,"tags":{}},"756385497":{"location":[30.1935859,-85.8301031],"ct":"US","tp":"CS","ts":"2024-09-10T16:43:48Z","tX":267,"tY":421,"tags":{"addr:city":"Panama City Beach","addr:housenumber":"12209","addr:postcode":"32407","addr:state":"FL","addr:street":"Hutchison Boulevard","name":"Raccoon River Campground","phone":"+1-(850) 234-0181","website":"http://raccoonriver.net/"}},"938494626":{"location":[30.4298666,-85.880838],"ct":"US","tp":"CS","ts":"2011-05-12T17:40:48Z","tX":267,"tY":421,"tags":{"landuse":"recreation_ground","name":"Sand Pond Recreation Area"}},"1136084313":{"location":[30.1813405,-85.7921422],"ct":"US","tp":"CR","ts":"2024-06-17T18:54:25Z","tX":267,"tY":421,"tags":{}},"1138222622":{"location":[30.4305522,-86.1165294],"ct":"US","tp":"CR","ts":"2023-02-06T05:22:08Z","tX":267,"tY":421,"tags":{}},"1280898102":{"location":[30.4298482,-85.8802373],"ct":"US","tp":"CR","ts":"2011-05-12T17:40:52Z","tX":267,"tY":421,"tags":{"name":"Pine Log State Forest"}},"1341079398":{"location":[30.1901783,-85.7820484],"ct":"US","tp":"CR","ts":"2024-12-08T19:41:35Z","tX":267,"tY":421,"tags":{"addr:city":"Panama City Beach","addr:housenumber":"9010","addr:postcode":"32407","addr:state":"FL","addr:street":"Panama City Beach Parkway","brand":"KOA","brand:wikidata":"Q16988635","name":"KOA Holiday RV Park and Campground","power_supply":"yes","sanitary_dump_station":"yes","short_name":"KOA","website":"https://koa.com/campgrounds/panama-city-beach/?utm_source=google&utm_medium=organic&utm_campaign=gbp"}},"8441792993":{"location":[30.3173609,-86.0988979],"ct":"US","tp":"CS","ts":"2021-02-21T00:48:35Z","tX":267,"tY":421,"tags":{"backcountry":"yes","name":"Campground 1"}},"8441839146":{"location":[30.3154182,-86.0929778],"ct":"US","tp":"CS","ts":"2021-02-22T22:02:07Z","tX":267,"tY":421,"tags":{"backcountry":"yes","name":"Campground 2"}}}