{"461983634":{"location":[-36.3614442,144.7046826],"ct":"AU","tp":"CR","ts":"2019-08-11T10:40:45Z","tX":923,"tY":623,"tags":{"name":"Rochester Riverside Holiday Park"}},"487256782":{"location":[-36.4586652,144.670798],"ct":"AU","tp":"CS","ts":"2017-04-17T03:26:25Z","tX":923,"tY":623,"tags":{"addr:city":"Burnewang","addr:housenumber":"799","addr:postcode":"3558","addr:street":"Burnewang Road","fee":"no","internet_access":"no","name":"Aysons Reserve"}},"1194880396":{"location":[-36.4376773,144.8293412],"ct":"AU","tp":"CS","ts":"2023-08-05T00:17:44Z","tX":923,"tY":623,"tags":{"name":"Greens Lake Camping Area","note":"camping boundary approximate","operator":"Goulburn-Murray Water","source:name":"signs at reserve, seen in August 2023"}},"1808392091":{"location":[-36.522803,144.6260403],"ct":"AU","tp":"CS","ts":"2014-03-05T11:04:30Z","tX":923,"tY":623,"tags":{"name":"Runnymede Highway Park"}},"1808392599":{"location":[-36.4591466,144.6706584],"ct":"AU","tp":"CS","ts":"2017-04-17T03:04:12Z","tX":923,"tY":623,"tags":{"addr:city":"Burnewang","addr:housenumber":"799","addr:postcode":"3558","addr:street":"Burnewang Road","fee":"yes","internet_access":"no","name":"Aysons Reserve (Campaspe River)"}},"11085005841":{"location":[-36.4387239,144.8284346],"ct":"AU","tp":"SD","ts":"2023-08-03T06:10:06Z","tX":923,"tY":623,"tags":{"source":"local knowledge, seen in August 2023"}}}