{"695555614":{"location":[-32.810329,151.3490711],"ct":"AU","tp":"CS","ts":"2024-04-21T04:20:19Z","tX":942,"tY":610,"tags":{"addr:housenumber":"3","addr:state":"NSW","addr:street":"O'Connors Road","addr:suburb":"Nulkaba","backcountry":"no","caravans":"yes","drinking_water":"yes","email":"reservations@winecountrytouristpark.com.au","fee":"yes","internet_access":"wlan","name":"Wine Country Tourist Park","power_supply":"yes","reservation":"recommended","sanitary_dump_station":"yes","shower":"yes","tents":"yes","toilets":"yes","website":"https://winecountrytouristpark.com.au/"}},"1090362995":{"location":[-32.8315632,151.3381411],"ct":"AU","tp":"CS","ts":"2022-08-30T01:22:19Z","tX":942,"tY":610,"tags":{"name":"Ingenia Holidays Hunter Valley","old_name":"Big4 Valley Vineyard Tourist Park","website":"https://www.big4.com.au/caravan-parks/nsw/hunter/ingenia-holidays-hunter-valley"}},"1811192784":{"location":[-32.65833,151.29222],"ct":"AU","tp":"CS","ts":"2012-07-03T12:11:27Z","tX":942,"tY":610,"tags":{"name":"Pothana Lane Rest Area"}},"5621059686":{"location":[-32.622996,151.3002162],"ct":"AU","tp":"CS","ts":"2023-10-19T04:58:03Z","tX":942,"tY":610,"tags":{"access":"customers","caravans":"yes","name":"Dashville","tents":"yes","toilets":"yes","website":"https://www.dashville.com.au/hunter-tent-stay/"}},"8379530976":{"location":[-32.6256476,151.351679],"ct":"AU","tp":"CS","ts":"2021-01-30T23:02:18Z","tX":942,"tY":610,"tags":{"access":"customers","addr:housenumber":"317","addr:state":"NSW","addr:street":"Elderslie Road","addr:suburb":"Branxton","charge":"$15 (01/2018)","fee":"yes","name":"Drovers Camp","shower":"yes","toilets":"yes"}},"8451223827":{"location":[-32.8072175,151.4269143],"ct":"AU","tp":"CS","ts":"2021-02-23T22:48:59Z","tX":942,"tY":610,"tags":{"access":"customers","charge":"$10 (2017)","fee":"yes","name":"Abermain Bowling Club - SC only 72 hrs","shower":"no","toilets":"no"}},"4486608892":{"location":[-32.6550097,151.3508082],"ct":"AU","tp":"SD","ts":"2016-11-07T09:53:06Z","tX":942,"tY":610,"tags":{"access":"yes","fee":"no","operator":"Cessnock City Council"}},"8451223826":{"location":[-32.8071348,151.4267574],"ct":"AU","tp":"SD","ts":"2023-08-28T09:23:05Z","tX":942,"tY":610,"tags":{"access":"customers","charge":"10 AUD/72 hours","fee":"yes","operator":"Abermain Bowling Club","water_point":"yes"}}}