{"274472525":{"location":[49.2380264,-121.9631139],"ct":"CA","tp":"CS","ts":"2022-05-16T23:21:30Z","tX":165,"tY":350,"tags":{"capacity":"35","email":"info@kilby.ca","fee":"yes","internet_access":"no","name":"Kilby Provincial Campground","operator":"Kilby General Store and Farm","phone":"+1-604-796-9576","power_supply":"no","sanitary_dump_station":"no","website":"https://www.env.gov.bc.ca/bcparks/explore/parkpgs/kilby/"}},"389488817":{"location":[49.3458222,-121.7074558],"ct":"CA","tp":"CS","ts":"2023-07-27T07:30:41Z","tX":165,"tY":350,"tags":{"access":"permit","capacity":"72","email":"sasquatchpark@hotmail.com","fee":"yes","internet_access":"no","name":"Hicks Lake Provincial Campground","operator":"Greenshades Enterprise","website":"https://bcparks.ca/explore/parkpgs/sasquatch/"}},"389488824":{"location":[49.3639004,-121.6852114],"ct":"CA","tp":"CS","ts":"2023-11-14T14:06:04Z","tX":165,"tY":350,"tags":{"capacity":"64","email":"info@seatoskyparks.com","fee":"yes","internet_access":"no","name":"Bench Campground","operator":"Sea to Sky Park Services Ltd.","phone":"+1-604-986-9371","website":"https://www.env.gov.bc.ca/bcparks/explore/parkpgs/sasquatch/"}},"389488825":{"location":[49.3682651,-121.6813958],"ct":"CA","tp":"CS","ts":"2023-11-14T14:06:08Z","tX":165,"tY":350,"tags":{"capacity":"42","email":"info@seatoskyparks.com","fee":"yes","internet_access":"no","name":"Lakeside Campground","operator":"Sea to Sky Park Services Ltd.","phone":"+1-604-986-9371","website":"https://www.env.gov.bc.ca/bcparks/explore/parkpgs/sasquatch/"}},"456484483":{"location":[49.1862031,-121.7454656],"ct":"CA","tp":"CR","ts":"2018-02-11T18:39:09Z","tX":165,"tY":350,"tags":{"addr:city":"Rosedale","addr:housenumber":"53610","addr:postcode":"V0X 1X0","addr:street":"Bridal Falls Rd","name":"Rainbow Ranch R.V. Park","phone":"+1-604-794-3001","source":"survey;yahoo"}},"498726691":{"location":[49.2950552,-121.9359588],"ct":"CA","tp":"CS","ts":"2023-12-30T06:52:25Z","tX":165,"tY":350,"tags":{"addr:housenumber":"16300","addr:street":"Morris Valley Road","caravans":"yes","fee":"yes","fee:amount":"$15.00","name":"Chehalis River Main Campground","operator":"Sts'ailes","tents":"yes","website":"http://westharrisonreservations.com/chehalis-river"}},"499334392":{"location":[49.3427497,-121.849419],"ct":"CA","tp":"CS","ts":"2024-08-22T16:44:40Z","tX":165,"tY":350,"tags":{"capacity":"4","description":"4x4 access only","fee":"no","internet_access":"no","name":"Francis Lake Campground","operator":"Four Wheel Drive Association of British Columbia"}},"499336884":{"location":[49.3463733,-121.868478],"ct":"CA","tp":"CS","ts":"2024-02-28T04:51:51Z","tX":165,"tY":350,"tags":{"fee":"yes","name":"Weaver Lake Campground","operator":"Sts'ailes"}},"576109579":{"location":[49.2474384,-121.9345269],"ct":"CA","tp":"CR","ts":"2018-10-26T20:32:02Z","tX":165,"tY":350,"tags":{"email":"harrisonriverrv@hotmail.ca","name":"Harrison River RV & Campground","phone":"+1-604-799-0319"}},"644156828":{"location":[49.2437771,-121.7905697],"ct":"CA","tp":"CR","ts":"2010-02-18T00:57:31Z","tX":165,"tY":350,"tags":{"name":"Pathfinder Campground/RV Park"}},"732470068":{"location":[49.3003263,-121.7873977],"ct":"CA","tp":"CR","ts":"2024-01-14T06:46:26Z","tX":165,"tY":350,"tags":{"addr:city":"Harrison Hot Springs","addr:housenumber":"400","addr:postcode":"V0M 1K0","addr:province":"BC","addr:street":"Hot Springs Road","name":"Harrison Country Club RV Resort"}},"854343592":{"location":[49.1926662,-121.734587],"ct":"CA","tp":"CR","ts":"2024-07-15T20:42:59Z","tX":165,"tY":350,"tags":{"name":"Camp Bridal"}},"1049397464":{"location":[49.3020997,-121.7845418],"ct":"CA","tp":"CS","ts":"2022-04-05T18:18:18Z","tX":165,"tY":350,"tags":{"addr:city":"Harrison Hot Springs","addr:housenumber":"259","addr:postcode":"V0M 1K0","addr:province":"BC","addr:street":"Hot Springs Road","capacity:caravans":"23","name":"Glencoe Campground","operator":"Glencoe Motel and Campground"}},"1049459123":{"location":[49.2930425,-121.7831263],"ct":"CA","tp":"CR","ts":"2024-01-16T07:43:34Z","tX":165,"tY":350,"tags":{"name":"Springs RV Resort"}},"1235302475":{"location":[49.2988153,-121.9368016],"ct":"CA","tp":"CS","ts":"2023-12-30T00:30:31Z","tX":165,"tY":350,"tags":{"access":"customers","fee":"yes","group_only":"yes","name":"Chehalis River Group Site","operator":"West Harrison Camping","reservation":"yes","website":"https://westharrisonreservations.com/chehalis-river-group-site/"}},"1238502886":{"location":[49.353123,-121.8649475],"ct":"CA","tp":"CS","ts":"2024-01-10T06:26:15Z","tX":165,"tY":350,"tags":{"access":"yes","fee":"yes","group_only":"yes","name":"North Weaver Lake Group Site","operator":"West Harrison Camping"}},"1238526172":{"location":[49.3495286,-121.8921808],"ct":"CA","tp":"CS","ts":"2024-01-10T09:26:00Z","tX":165,"tY":350,"tags":{"access":"yes","fee":"yes","group_only":"yes","name":"South Weaver Lake Group Site","operator":"West Harrison Camping"}},"1238986491":{"location":[49.3272519,-121.8613027],"ct":"CA","tp":"CS","ts":"2024-01-12T04:10:53Z","tX":165,"tY":350,"tags":{"access":"yes","alt_name":"Wolf Lake Group Site","backcountry":"no","bbq":"no","cabins":"no","capacity:caravans":"3","capacity:persons":"20","capacity:pitches":"3","caravans":"yes","dog":"yes","drinking_water":"no","fee":"yes","group_only":"yes","hot_water":"no","impromptu":"no","internet_access":"no","kitchen":"no","lit":"no","motor_vehicle":"yes","name":"Wolf Lake Group Campsite","nudism":"no","operator":"West Harrison Camping","permanent_camping":"no","picnic_table":"yes","power_supply":"no","reservation":"required","sanitary_dump_station":"no","scout":"no","shower":"no","static_caravans":"no","swimming_pool":"no","tents":"yes","toilets":"yes","washing_machine":"no","website":"https://westharrisonreservations.com/wolf-lake-group-site/"}},"1239011077":{"location":[49.3317088,-121.8642004],"ct":"CA","tp":"CS","ts":"2024-01-12T04:10:53Z","tX":165,"tY":350,"tags":{"access":"yes","backcountry":"no","bbq":"no","cabins":"no","capacity:pitches":"10","caravans":"yes","dog":"yes","drinking_water":"no","fee":"yes","group_only":"no","hot_water":"no","impromptu":"no","internet_access":"no","kitchen":"no","lit":"no","motor_vehicle":"yes","name":"Grace Lake Campground","nudism":"no","operator":"West Harrison Camping","payment:cash":"yes","permanent_camping":"no","picnic_table":"yes","power_supply":"no","reservation":"no","sanitary_dump_station":"no","scout":"no","shower":"no","static_caravans":"no","swimming_pool":"no","tents":"yes","toilets":"yes","washing_machine":"no","website":"https://westharrisonreservations.com/grace-lake/"}},"1239043680":{"location":[49.3722849,-121.8369699],"ct":"CA","tp":"CS","ts":"2024-01-12T08:25:17Z","tX":165,"tY":350,"tags":{"access":"yes","alt_name":"Wolf Lake Group Site","backcountry":"no","bbq":"no","cabins":"no","capacity:persons":"50","caravans":"yes","dog":"yes","drinking_water":"no","fee":"yes","group_only":"yes","hot_water":"no","impromptu":"no","internet_access":"no","kitchen":"no","lit":"no","motor_vehicle":"yes","name":"Camp Cove Group Campsite","nudism":"no","operator":"West Harrison Camping","permanent_camping":"no","picnic_table":"yes","power_supply":"no","reservation":"required","sanitary_dump_station":"no","scout":"no","shower":"no","static_caravans":"yes","swimming_pool":"no","tents":"yes","toilets":"yes","washing_machine":"no","website":"https://westharrisonreservations.com/camp-cove-group-site/"}},"1240007708":{"location":[49.302109,-121.7837932],"ct":"CA","tp":"CS","ts":"2024-01-15T22:13:27Z","tX":165,"tY":350,"tags":{"access":"yes","caravans":"yes","fee":"yes","landuse":"commercial","name":"Hot Spring RV","phone":"+1-604-796-3467","static_caravans":"yes"}},"1314738667":{"location":[49.2148212,-121.7534866],"ct":"CA","tp":"CS","ts":"2024-09-10T23:37:24Z","tX":165,"tY":350,"tags":{"addr:city":"Agassiz","addr:housenumber":"630","addr:postcode":"V0M 1A2","addr:street":"Appel Road","caravans":"yes","email":"bookings@cheamfishingvillage.ca","facebook":"https://www.facebook.com/Cheamfishingvillageandcampground","fee":"yes","instagram":"https://www.instagram.com/cheamfishingvillage/","name":"Cheam Fishing Village and Campground","phone":"+1-604-997-5533","static_caravans":"yes","website":"https://www.cheamfishingvillage.com/"}},"1324259956":{"location":[49.3186835,-121.893156],"ct":"CA","tp":"CS","ts":"2024-10-16T04:25:28Z","tX":165,"tY":350,"tags":{"access":"yes","addr:city":"Harrison Mills","addr:housenumber":"17575","addr:postcode":"V0M1L0","addr:province":"BC","addr:street":"Morris Valley Road","adult_only":"yes","alt_name":"Shadow Falls LGBTQ Campground","backcountry":"no","caravans":"yes","drinking_water":"yes","fee":"yes","group_only":"no","impromptu":"no","internet_access":"wlan","motor_vehicle":"yes","name":"Shadow Falls Campground","nudism":"yes","old_name":"Shadow Falls Gay Campground","openfire":"yes","permanent_camping":"no","picnic_table":"yes","power_supply":"yes","reservation":"yes","scout":"no","shower":"yes","static_caravans":"no","swimming_pool":"no","tents":"yes","toilets":"yes","washing_machine":"yes","website":"https://www.shadowfalls.ca/"}},"4230906774":{"location":[49.300473,-121.9353105],"ct":"CA","tp":"CS","ts":"2016-09-25T18:52:11Z","tX":165,"tY":350,"tags":{"group_only":"yes","name":"Chehalis North Group Campsite"}},"4408332989":{"location":[49.3478513,-121.6969665],"ct":"CA","tp":"CS","ts":"2022-07-11T01:17:33Z","tX":165,"tY":350,"tags":{"name":"Hicks Lake Group Campsite"}},"9548357221":{"location":[49.2475082,-121.918866],"ct":"CA","tp":"CS","ts":"2023-04-03T19:20:21Z","tX":165,"tY":350,"tags":{"group_only":"yes","name":"Camp Woodside","operator":"Scouts Canada"}},"11508144092":{"location":[49.36159,-121.8813101],"ct":"CA","tp":"CS","ts":"2024-01-11T09:23:24Z","tX":165,"tY":350,"tags":{"backcountry":"yes","impromptu":"yes"}},"12254447073":{"location":[49.3132932,-121.8957699],"ct":"CA","tp":"CS","ts":"2024-10-16T04:25:28Z","tX":165,"tY":350,"tags":{"access":"private","addr:city":"Harrison Mills","addr:housenumber":"17500","addr:province":"BC","addr:street":"Morris Valley Road","backcountry":"no","cabins":"yes","drinking_water":"yes","impromptu":"no","name":"Morris Valley Scout Camp","operator":"Scouts Canada","picnic_table":"yes","scout":"yes","tents":"yes","website":"https://scoutdocs.ca/Camps/Camps.php?camp=morrisvalley"}},"7189453219":{"location":[49.1882531,-121.7424792],"ct":"CA","tp":"CR","ts":"2020-02-06T05:44:25Z","tX":165,"tY":350,"tags":{"addr:housenumber":"53730","addr:street":"Bridal Falls Road","name":"Camperland Bridal Falls RV Resort & Cabins","phone":"+1-604-794-7361","website":"https://www.holidaytrailsresorts.com/camperland-rv-resort-cabins/"}},"5541697173":{"location":[49.2392285,-121.7752441],"ct":"CA","tp":"SD","ts":"2018-04-10T04:21:36Z","tX":165,"tY":350,"tags":{"sanitary_dump_station:round_drain":"yes"}}}