{"17943785":{"location":[49.0711404,-121.8385038],"ct":"CA","tp":"CS","ts":"2024-08-16T23:30:18Z","tX":165,"tY":351,"tags":{"access":"yes","caravans":"yes","fee":"yes","name":"Tamihi East Campground","static_caravans":"yes","tents":"yes","website":"https://www.sitesandtrailsbc.ca/search/search-result.aspx?type=Site&site=REC0002"}},"17943960":{"location":[49.0713028,-121.8366554],"ct":"CA","tp":"CS","ts":"2024-08-17T00:45:44Z","tX":165,"tY":351,"tags":{"access":"yes","caravans":"yes","name":"Tamihi Rapids Campground","static_caravans":"yes","tents":"yes"}},"17960389":{"location":[49.0770629,-121.8771392],"ct":"CA","tp":"CS","ts":"2024-08-22T01:32:58Z","tX":165,"tY":351,"tags":{"access":"yes","addr:city":"Chilliwack","addr:housenumber":"48701","addr:postcode":"V4Z1A7","addr:province":"BC","addr:street":"Tamahi Road","cabins":"yes","caravans":"yes","email":"d100@live.ca","facebook":"https://www.facebook.com/Tamihimeadows","fee":"yes","instagram":"https://www.instagram.com/tamihi_meadows/","name":"Tamihi Meadows","note":"The campground does not include the FSR so that is why it is split.","phone":"+1-604-530-1367","static_caravans":"yes","tents":"yes","website":"https://www.tamihimeadows.com/"}},"59668886":{"location":[49.0463065,-121.9787749],"ct":"CA","tp":"CS","ts":"2025-01-15T01:09:58Z","tX":165,"tY":351,"tags":{"capacity":"58","email":"info@seatoskyparks.com","name":"Delta Grove Campground","operator":"Sea to Sky Park Services Ltd.","phone":"+1-604-986-9371","website":"https://www.env.gov.bc.ca/bcparks/explore/parkpgs/cultus_lk/"}},"59668906":{"location":[49.0555029,-121.9686522],"ct":"CA","tp":"CS","ts":"2025-01-15T07:57:44Z","tX":165,"tY":351,"tags":{"capacity":"52","email":"info@seatoskyparks.com","name":"Entrance Bay Campground","operator":"Sea to Sky Park Services Ltd.","phone":"+1-604-986-9371","website":"https://www.env.gov.bc.ca/bcparks/explore/parkpgs/cultus_lk/"}},"59670900":{"location":[49.0450268,-121.9770681],"ct":"CA","tp":"CS","ts":"2025-01-14T22:46:25Z","tX":165,"tY":351,"tags":{"capacity":"82","email":"info@seatoskyparks.com","name":"Clear Creek Campground","operator":"Sea to Sky Park Services Ltd.","phone":"+1-604-986-9371","website":"https://www.env.gov.bc.ca/bcparks/explore/parkpgs/cultus_lk/"}},"472460339":{"location":[49.0758527,-121.7469052],"ct":"CA","tp":"CS","ts":"2024-08-23T02:22:49Z","tX":165,"tY":351,"tags":{"access":"yes","backcountry":"no","capacity":"51","caravans":"yes","fee":"yes","group_only":"no","name":"Thurston Meadows Campground","phone":"+1-604-824-0576","static_caravans":"yes","tents":"yes","website":"http://www.chilliwackvalleycampsites.ca/"}},"562832620":{"location":[49.0653705,-121.9697004],"ct":"CA","tp":"CS","ts":"2025-01-15T20:31:34Z","tX":165,"tY":351,"tags":{"addr:city":"Cultus Lake","addr:housenumber":"3395","addr:postcode":"V2R 5A3","addr:street":"Columbia Valley Highway","name":"Sunnyside Campground"}},"740239605":{"location":[49.0423681,-121.9855238],"ct":"CA","tp":"CS","ts":"2025-01-14T05:33:39Z","tX":165,"tY":351,"tags":{"name":"Honeymoon Bay Group Campground","operator":"BC Parks","operator:type":"government"}},"1121259588":{"location":[49.0723495,-121.8438847],"ct":"CA","tp":"CS","ts":"2024-08-17T03:00:45Z","tX":165,"tY":351,"tags":{"capacity":"102","email":"thurstonmeadows@yahoo.ca","fee":"yes","name":"Tamihi West Campground","phone":"+1-604-824-0576","website":"https://chilliwackvalleycampsites.ca/tamihi-west/"}},"1261363702":{"location":[49.0881569,-121.9399957],"ct":"CA","tp":"CR","ts":"2024-03-12T03:34:47Z","tX":165,"tY":351,"tags":{}},"1304772057":{"location":[49.101764,-121.6532261],"ct":"CA","tp":"CS","ts":"2024-07-31T05:51:53Z","tX":165,"tY":351,"tags":{"backcountry":"no","capacity":"22","caravans":"yes","email":"thurstonmeadows@yahoo.ca","fee":"yes","group_only":"no","lit":"no","motor_vehicle":"yes","name":"Chipmunk Peninsula Campground","permanent_camping":"no","phone":"+1-604-824-0576","reservation":"yes","scout":"no","tents":"yes","toilets":"yes","website":"http://www.chilliwackvalleycampsites.ca/chipmunk"}},"1304775533":{"location":[49.0784729,-121.793441],"ct":"CA","tp":"CS","ts":"2024-07-31T06:26:13Z","tX":165,"tY":351,"tags":{"access":"yes","backcountry":"no","capacity":"7","caravans":"yes","fee":"yes","group_only":"no","name":"Allison Pool Campground","reservation":"yes","scout":"no","tents":"yes","toilets":"yes","website":"https://chilliwackvalleycampsites.ca/allison-pool"}},"1309959529":{"location":[49.0882739,-121.961247],"ct":"CA","tp":"CS","ts":"2024-08-22T21:54:03Z","tX":165,"tY":351,"tags":{"access":"yes","addr:city":"Cultus Lake","addr:housenumber":"4745","addr:postcode":"V2R4Y2","addr:province":"BC","addr:street":"Sleepy Hollow Road","caravans":"yes","fee":"yes","name":"Sweltzer Creek Campground","phone":"+1-604-824-4023","static_caravans":"yes","tents":"yes","website":"https://www.sweltzercreekcampground.com/"}},"3475965307":{"location":[48.949231,-121.689545],"ct":"US","tp":"CS","ts":"2021-08-07T00:38:28Z","tX":165,"tY":351,"tags":{}},"9007276791":{"location":[48.9393998,-121.7970943],"ct":"US","tp":"CS","ts":"2021-08-14T22:52:00Z","tX":165,"tY":351,"tags":{"backcountry":"yes"}},"9007276804":{"location":[48.9356598,-121.795811],"ct":"US","tp":"CS","ts":"2022-07-31T22:30:02Z","tX":165,"tY":351,"tags":{"backcountry":"yes","fee":"no"}},"4896097761":{"location":[49.0963665,-121.6734074],"ct":"CA","tp":"CS","ts":"2024-07-31T05:05:09Z","tX":165,"tY":351,"tags":{"access":"yes","backcountry":"no","capacity":"28","caravans":"yes","email":"thurstonmeadows@yahoo.ca","fee":"yes","name":"Rapids Campground","phone":"+1-604-824-0576","tents":"yes","toilets":"yes","website":"http://www.chilliwackvalleycampsites.ca/"}},"8775272636":{"location":[49.0613266,-121.9913194],"ct":"CA","tp":"CS","ts":"2025-01-16T02:13:28Z","tX":165,"tY":351,"tags":{"capacity":"30","group_only":"yes","name":"Westside Site A","operator":"BC Parks"}},"9071232432":{"location":[49.0784228,-121.7959898],"ct":"CA","tp":"CS","ts":"2021-09-07T17:20:30Z","tX":165,"tY":351,"tags":{"access":"private","fee":"yes","name":"5 Cedars Campground"}},"12109327660":{"location":[49.1030767,-121.6615267],"ct":"CA","tp":"CS","ts":"2024-08-13T23:02:26Z","tX":165,"tY":351,"tags":{"backcountry":"yes","fee":"no","informal":"yes"}},"12109327678":{"location":[49.1000399,-121.6648384],"ct":"CA","tp":"CS","ts":"2024-08-13T23:02:26Z","tX":165,"tY":351,"tags":{"backcountry":"yes","fee":"no","informal":"yes"}}}