{"57404570":{"location":[47.6362922,-121.890707],"ct":"US","tp":"CS","ts":"2022-12-03T18:09:57Z","tX":165,"tY":357,"tags":{"name":"Camp River Ranch","operator":"Girl Scouts of Western Washington"}},"63057870":{"location":[47.6641975,-121.9270403],"ct":"US","tp":"CS","ts":"2022-11-10T03:46:01Z","tX":165,"tY":357,"tags":{"access":"private","addr:city":"Carnation","addr:housenumber":"30919","addr:postcode":"98014","addr:state":"WA","addr:street":"Northeast Carnation Farm Road","group_only":"yes","name":"Camp Gilead","phone":"+1-425-333-4311","website":"https://www.campgilead.org/"}},"410186339":{"location":[47.5978485,-121.9418542],"ct":"US","tp":"CR","ts":"2024-08-26T04:06:05Z","tX":165,"tY":357,"tags":{"addr:city":"Fall City","addr:housenumber":"29290","addr:postcode":"98014","addr:state":"WA","addr:street":"Southeast 8th Street","name":"Tall Chief RV Resort and Campground","website":"http://camp-tallchief.com/"}},"977453756":{"location":[47.6190352,-121.8987174],"ct":"US","tp":"CS","ts":"2021-09-01T15:57:09Z","tX":165,"tY":357,"tags":{"name":"Camp Don Bosco","operator":"Catholic Youth Organization"}},"1057782609":{"location":[47.7368159,-121.9290844],"ct":"US","tp":"CS","ts":"2022-05-06T02:36:07Z","tX":165,"tY":357,"tags":{"access":"private"}},"1057782610":{"location":[47.7364954,-121.9315256],"ct":"US","tp":"CS","ts":"2022-05-06T02:36:07Z","tX":165,"tY":357,"tags":{}},"1057782611":{"location":[47.7369936,-121.9310514],"ct":"US","tp":"CS","ts":"2022-05-06T02:36:07Z","tX":165,"tY":357,"tags":{}},"1087950525":{"location":[47.6501449,-121.9252031],"ct":"US","tp":"CS","ts":"2022-08-21T16:22:46Z","tX":165,"tY":357,"tags":{"group_only":"yes","name":"Group Campsite"}},"1177710721":{"location":[47.5464662,-121.8521832],"ct":"US","tp":"CS","ts":"2023-05-31T00:09:22Z","tX":165,"tY":357,"tags":{"access":"private","name":"Snoqualmie Falls Forest Theater Campsites"}},"1319912466":{"location":[47.5195157,-121.9345844],"ct":"US","tp":"CR","ts":"2024-10-01T16:19:52Z","tX":165,"tY":357,"tags":{}},"6606063652":{"location":[47.6428013,-121.9246493],"ct":"US","tp":"CS","ts":"2019-07-11T16:51:03Z","tX":165,"tY":357,"tags":{"name":"Tolt-MacDonald Park Campground"}},"9719579821":{"location":[47.7372011,-121.9314808],"ct":"US","tp":"CS","ts":"2022-05-06T02:36:07Z","tX":165,"tY":357,"tags":{"access":"private","addr:city":"Duvall","addr:housenumber":"15008","addr:postcode":"98019","addr:state":"WA","addr:street":"304th Ave NE","name":"Mountain Meadows"}}}