{"592218114":{"location":[40.4938945,-121.8502082],"ct":"US","tp":"CR","ts":"2020-12-29T13:47:04Z","tX":165,"tY":385,"tags":{"addr:city":"Shingletown","addr:housenumber":"7185","addr:postcode":"96088","addr:state":"CA","addr:street":"Mill Creek Road","name":"Living Springs RV and Lodging","phone":"+1(530) 474-1776","website":"http://www.livingspringsrv.com/"}},"1076981490":{"location":[40.5159216,-121.6794237],"ct":"US","tp":"CS","ts":"2023-09-16T16:09:50Z","tX":165,"tY":385,"tags":{"addr:city":"Viola","addr:housenumber":"8071","addr:state":"CA","addr:street":"Mineral Road","name":"Lassen Pines Camp"}},"5106546093":{"location":[40.5127703,-121.8105064],"ct":"US","tp":"CR","ts":"2025-06-15T21:02:29Z","tX":165,"tY":385,"tags":{"brand":"KOA","brand:wikidata":"Q16988635","name":"Mt. Lassen / Shingletown KOA Holiday","source":"EsriWorldImagery"}},"5652763735":{"location":[40.4943695,-121.851212],"ct":"US","tp":"CS","ts":"2020-12-29T13:47:04Z","tX":165,"tY":385,"tags":{"addr:city":"Shingletown","addr:housenumber":"7185","addr:postcode":"96088","addr:state":"CA","addr:street":"Mill Creek Road","name":"Living Springs Campground","phone":"+1 (530) 474-1776","website":"http://www.livingspringsrv.com/"}}}