{"27378277":{"location":[54.3849652,10.2058488],"ct":"DE","tp":"CS","ts":"2024-08-11T16:09:07Z","tX":541,"tY":326,"tags":{"addr:city":"Heikendorf","addr:country":"DE","addr:housenumber":"24","addr:postcode":"24226","addr:street":"Uferweg","caravans":"yes","drinking_water":"yes","email":"Campingplatz-Moeltenort@t-online.de","fax":"+49 431 2398561","fee":"yes","internet_access":"wlan","internet_access:fee":"yes","name":"Camping Möltenort","opening_hours":"Mar 29-Oct 31","phone":"+49 431 2394529","power_supply":"yes","shower":"yes","tents":"yes","url":"http://www.campingplatz-möltenort.de/","website":"http://www.campingplatz-möltenort.de/"}},"27419089":{"location":[54.4154407,10.2447282],"ct":"DE","tp":"CS","ts":"2023-11-09T00:08:26Z","tX":541,"tY":326,"tags":{"addr:city":"Stein","addr:country":"DE","addr:postcode":"24235","addr:street":"An der K 30","caravans":"yes","email":"info@camping-neustein.de","fax":"+49 4343 4242671","internet_access":"wlan","internet_access:fee":"yes","name":"Campingplatz Neustein","phone":"+49 4343 8122","power_supply":"yes","tents":"yes","website":"https://www.camping-neustein.de/"}},"27559713":{"location":[54.4275885,10.3621085],"ct":"DE","tp":"CS","ts":"2021-05-06T09:01:07Z","tX":541,"tY":326,"tags":{"addr:city":"Schönberg (Holstein)","addr:country":"DE","addr:housenumber":"26","addr:postcode":"24217","addr:street":"Große Heide","addr:suburb":"Kalifornien","area":"yes","caravans":"yes","dryer":"yes","email":"info@camping-california.de","fax":"+49 4344 4817","kitchen":"yes","name":"Camping Ferienpark California","phone":"+49 4344 9591","power_supply":"yes","tents":"yes","washing_machine":"yes","website":"https://www.camping-california.de/","wheelchair":"yes"}},"34083155":{"location":[54.3790496,10.5382947],"ct":"DE","tp":"CS","ts":"2011-06-10T08:35:27Z","tX":541,"tY":326,"tags":{}},"34083168":{"location":[54.3808513,10.521883],"ct":"DE","tp":"CS","ts":"2022-02-10T09:40:06Z","tX":541,"tY":326,"tags":{}},"34083169":{"location":[54.3814473,10.5197631],"ct":"DE","tp":"CS","ts":"2022-02-09T12:39:22Z","tX":541,"tY":326,"tags":{}},"39817694":{"location":[54.4227952,10.3936306],"ct":"DE","tp":"CR","ts":"2024-04-26T22:11:58Z","tX":541,"tY":326,"tags":{"capacity":"50","caravan_site":"motorhome_stopover","caravan_site:type":"beach","charge":"14 EUR","fee":"yes","name":"Stellplatz Brasilien","sanitary_dump_station":"yes","water_point":"yes"}},"39817696":{"location":[54.4220911,10.3951272],"ct":"DE","tp":"CR","ts":"2017-08-10T14:30:10Z","tX":541,"tY":326,"tags":{"capacity":"120","contact:phone":"+49 4344 9215","fee":"yes","name":"Wohnmobilstellplatz Mittelstrand","power_supply":"yes","sanitary_dump_station":"yes","tents":"no","water_point":"yes","website":"http://www.stellplatz-mittelstrand.de/","wheelchair":"yes"}},"39817699":{"location":[54.4189674,10.4014266],"ct":"DE","tp":"CS","ts":"2024-07-29T22:07:05Z","tX":541,"tY":326,"tags":{"addr:city":"Schönberg (Holstein)","addr:country":"DE","addr:housenumber":"70","addr:postcode":"24217","addr:street":"Korshagener Redder","addr:suburb":"Schönberger Strand","caravans":"yes","contact:email":"info@campingplatz-hasselkrug.de","contact:fax":"+49 4344 3674","contact:phone":"+49 4344 3911","contact:website":"https://www.campingplatz-hasselkrug.de/","drinking_water":"yes","name":"Campingplatz Hasselkrug","opening_hours":"Apr 1-Sep 30","power_supply":"yes","shower":"yes","tents":"yes","toilets":"yes"}},"42022066":{"location":[54.4084628,10.4227589],"ct":"DE","tp":"CS","ts":"2024-04-26T22:11:58Z","tX":541,"tY":326,"tags":{"caravans":"yes","dog":"yes","email":"info@felsenburg.de","motorhome":"designated","name":"Campingplatz Grasbleek","opening_hours":"Apr 01-Sep 30","operator":"ASBAHR GmbH & Co. KG","phone":"+49 4344 98 87","power_supply":"yes","tents":"yes","website":"https://www.haus-felsenburg.de/"}},"43890138":{"location":[54.4266966,10.2987966],"ct":"DE","tp":"CS","ts":"2024-06-08T08:00:18Z","tX":541,"tY":326,"tags":{"addr:city":"Wendtorf","addr:country":"DE","addr:postcode":"24235","caravans":"yes","dog":"yes","dryer":"yes","email":"urlaub@regenbogen.ag","fax":"+49 4343 9899","name":"Ferienanlage RegenBogen","operator":"RegenBogen AG","phone":"+49 4343 9688","power_supply":"yes","sauna":"yes","tents":"yes","washing_machine":"yes","website":"https://www.regenbogen.ag/ferienanlagen/wendtorf.html"}},"43890167":{"location":[54.4297146,10.2996158],"ct":"DE","tp":"CS","ts":"2022-08-14T23:31:02Z","tX":541,"tY":326,"tags":{"addr:city":"Wendtorf","addr:country":"DE","addr:housenumber":"26","addr:postcode":"24235","addr:street":"Schleusenweg","caravans":"yes","name":"Camping Bottsand","phone":"+49 170 2456799","power_supply":"yes","tents":"yes","website":"https://www.campingplatz-bottsand.de/"}},"43891714":{"location":[54.4318407,10.345564],"ct":"DE","tp":"CS","ts":"2021-05-06T09:01:07Z","tX":541,"tY":326,"tags":{"addr:city":"Wisch","addr:country":"DE","addr:housenumber":"114","addr:postcode":"24217","addr:street":"Mittelweg","addr:suburb":"Heidkate","caravans":"yes","dryer":"yes","email":"info@camping-heidkoppel.de","fax":"+49 4344 4257","internet_access":"wlan","internet_access:fee":"yes","name":"Campingplatz Heidkoppel","phone":"+49 4344 9098","power_supply":"yes","tents":"yes","washing_machine":"yes","website":"https://www.camping-heidkoppel.de/","wheelchair":"yes"}},"47899439":{"location":[54.3864148,10.4895313],"ct":"DE","tp":"CS","ts":"2022-01-06T09:31:13Z","tX":541,"tY":326,"tags":{"addr:city":"Hohenfelde","addr:housenumber":"21","addr:postcode":"24257","addr:street":"Strandstraße","name":"Campingpark Ostseestrand","operator":"CO-Camp GmbH","website":"https://www.campingostseestrand.de/"}},"47935641":{"location":[54.3826296,10.4951084],"ct":"DE","tp":"CS","ts":"2024-04-26T22:11:58Z","tX":541,"tY":326,"tags":{"addr:city":"Hohenfelde","addr:housenumber":"18","addr:postcode":"24257","addr:street":"Strandstraße","name":"Standcamping Radeland","operator":"OS-Strand GmbH","website":"https://strandcamping-radeland.de"}},"47935645":{"location":[54.3851173,10.5035421],"ct":"DE","tp":"CS","ts":"2023-09-18T20:24:31Z","tX":541,"tY":326,"tags":{"addr:city":"Hohenfelde","addr:housenumber":"3","addr:postcode":"24257","addr:street":"Hof Malmsteg","email":"campingplatz-seeblick@web.de","name":"Campingplatz Seeblick","operator":"Eugen u. Birgit Nipp","phone":"+49 179-6543457","website":"https://www.campingplatz-seeblick.de/"}},"66028955":{"location":[54.3852408,10.4912974],"ct":"DE","tp":"CR","ts":"2024-04-26T22:11:58Z","tX":541,"tY":326,"tags":{"capacity":"20","caravan_site":"motorhome_stopover","caravan_site:type":"beach","fee":"yes","name":"Wohnmobilpark Campingpark Ostseestrand"}},"93488113":{"location":[54.415565,10.2518632],"ct":"DE","tp":"CS","ts":"2019-03-21T06:06:51Z","tX":541,"tY":326,"tags":{"addr:city":"Stein","addr:country":"DE","addr:postcode":"24235","caravans":"yes","dryer":"yes","email":"info@ostsee-camp.de","fax":"+49 4343 499330","internet_access":"wlan","internet_access:fee":"yes","name":"Ostsee-Camp Kliff Ellernbrook","phone":"+49 4343 6222","power_supply":"yes","tents":"yes","washing_machine":"yes","website":"https://www.ostsee-camp.de/"}},"93488121":{"location":[54.4152657,10.2474912],"ct":"DE","tp":"CS","ts":"2021-08-05T08:52:24Z","tX":541,"tY":326,"tags":{"addr:city":"Stein","addr:country":"DE","addr:postcode":"24235","caravans":"yes","dog":"no","dryer":"yes","email":"info@camping-foerdeblick.de","fax":"+49 4343 7790","internet_access":"wlan","internet_access:fee":"yes","name":"Camping Fördeblick","phone":"+49 4343 7795","tents":"yes","washing_machine":"yes","website":"https://www.camping-foerdeblick.de/"}},"186262327":{"location":[54.4194588,10.3743946],"ct":"DE","tp":"CS","ts":"2017-02-19T11:14:11Z","tX":541,"tY":326,"tags":{"addr:city":"Schönberg (Holstein)","addr:country":"DE","addr:housenumber":"2","addr:postcode":"24217","addr:street":"Holm","caravans":"yes","email":"info@campingplatz-holm.de","fax":"+49 4344 4625","name":"Holm","phone":"+49 4344 6498","power_supply":"yes","tents":"yes","website":"http://campingplatz-holm.de"}},"298979126":{"location":[54.4103375,10.2318993],"ct":"DE","tp":"CR","ts":"2023-12-04T14:56:43Z","tX":541,"tY":326,"tags":{"addr:city":"Laboe","addr:postcode":"24235","addr:street":"Professor-Munzer-Ring","capacity":"20","fee":"yes","name":"Womo SP Laboe","power_supply":"no","sanitary_dump_station":"yes","sanitary_dump_station:chemical_toilet":"yes","sanitary_dump_station:grey_water":"no","tents":"no","water_point":"yes","website":"https://www.gemeinde.laboe.de/wohnmobil-stellplatz","wheelchair":"yes","wikimedia_commons":"Category:Wohnmobilstellplatz Laboe"}},"1276587491":{"location":[54.3825484,10.4938831],"ct":"DE","tp":"CR","ts":"2024-04-26T22:11:58Z","tX":541,"tY":326,"tags":{"caravan_site":"motorhome_stopover","fee":"yes","name":"Hohenfelde Strandstraße","power_supply":"yes","sanitary_dump_station":"yes","water_point":"yes"}},"8624949917":{"location":[54.4336185,10.3289143],"ct":"DE","tp":"SD","ts":"2024-10-01T12:41:07Z","tX":541,"tY":326,"tags":{"charge":"1.00 EUR","opening_hours":"24/7","payment:coins":"yes","payment:credit_cards":"no","payment:notes":"no","water_point":"yes"}}}