{"25811546":{"location":[54.146534,10.4004845],"ct":"DE","tp":"CS","ts":"2024-09-18T09:50:49Z","tX":541,"tY":328,"tags":{"addr:city":"Plön","addr:housenumber":"76","addr:postcode":"24306","addr:street":"Ascheberger Straße","caravans":"yes","drinking_water":"yes","email":"info@spitzenort.de","fax":"+49 4522 4574","fee":"yes","internet_access":"terminal","name":"Naturcamping Spitzenort","opening_hours":"Mo-Su 09:00-12:30, 13:30-18:00","phone":"+49 4522 27 69","power_supply":"yes","sanitary_dump_station":"yes","shower":"yes","static_caravans":"yes","tents":"yes","toilets":"yes","website":"https://www.spitzenort.de/"}},"29213119":{"location":[54.1424388,10.44788],"ct":"DE","tp":"CS","ts":"2020-08-07T05:04:33Z","tX":541,"tY":328,"tags":{"access":"customers","addr:city":"Bösdorf","addr:housenumber":"2","addr:postcode":"24306","addr:street":"Missionsweg","dog":"leashed","email":"campingplatz@camp-ruhleben.de","fee":"yes","internet_access":"wlan","internet_access:fee":"yes","name":"Campingpark Gut Ruhleben","operator":"Hans-Hinrich Westphal & Maria Siemen-Westphal","payment:cash":"yes","payment:debit_cards":"yes","phone":"+49 4522 8347","power_supply":"yes","reservation":"yes","sanitary_dump_station":"yes","shower":"yes","toilets":"yes","website":"https://www.camp-ruhleben.de/"}},"29213249":{"location":[54.1307393,10.4560766],"ct":"DE","tp":"CS","ts":"2024-07-22T09:41:35Z","tX":541,"tY":328,"tags":{"addr:city":"Bösdorf","addr:housenumber":"1","addr:postcode":"24306","addr:street":"Augstfelde","caravans":"yes","drinking_water":"yes","name":"Campingpark Augstfelde","power_supply":"yes","shower":"yes","tents":"yes"}},"29220343":{"location":[54.1029163,10.4240167],"ct":"DE","tp":"CS","ts":"2022-07-05T10:06:59Z","tX":541,"tY":328,"tags":{"addr:city":"Bosau","addr:housenumber":"16","addr:postcode":"23715","addr:street":"Strandweg","email":"info@camping-bosau.de","name":"Campingplatz Bosau","operator":"Hans-Hinrich Westphal","phone":"+49 4522 9490","website":"https://www.camping-bosau.de/"}},"37308405":{"location":[54.0751135,10.235063],"ct":"DE","tp":"CS","ts":"2024-10-03T14:17:51Z","tX":541,"tY":328,"tags":{"addr:city":"Bornhöved","addr:housenumber":"7","addr:postcode":"24619","addr:street":"Seeweg","caravans":"yes","dog":"yes","email":"info@campingplatz-idyll.de","image":"https://www.campingplatz-idyll.de/images/IMG_02381.JPG","name":"Campingplatz Idyll","opening_hours":"Mo-Su 08:00-18:00","operator":"Familie Curow","phone":"+49 4323 6427","shower":"yes","static_caravans":"yes","tents":"yes","toilets":"yes","website":"https://www.campingplatz-idyll.de"}},"49478307":{"location":[54.1525025,10.3576945],"ct":"DE","tp":"CS","ts":"2020-04-27T23:24:24Z","tX":541,"tY":328,"tags":{"name":"Seekamp"}},"49478309":{"location":[54.1456333,10.3420561],"ct":"DE","tp":"CS","ts":"2024-06-21T11:00:11Z","tX":541,"tY":328,"tags":{"caravans":"yes","drinking_water":"yes","name":"Campingplatz Lange Wisch","shower":"yes","tents":"yes","toilets":"yes"}},"82565554":{"location":[53.9606859,10.337649],"ct":"DE","tp":"CS","ts":"2024-02-11T13:54:00Z","tX":541,"tY":328,"tags":{"addr:city":"Klein Rönnau","addr:housenumber":"2","addr:postcode":"23795","addr:street":"Klüthseehof","caravans":"yes","email":"info@kluethseecamp.de","fax":"+45 4551 840638","name":"KlüthseeCamp & Seeblick","operator":"Evelin Erdmann","phone":"+49 4551 82368","tents":"yes","website":"https://www.kluethseecamp.de/"}},"94387424":{"location":[54.1109886,10.2507447],"ct":"DE","tp":"CS","ts":"2022-08-21T15:06:36Z","tX":541,"tY":328,"tags":{"name":"Perdoeler Muehle","source":"Bing","website":"https://www.george-glamp.com"}},"122373759":{"location":[54.1190597,10.3388682],"ct":"DE","tp":"CS","ts":"2025-02-10T12:56:48Z","tX":541,"tY":328,"tags":{"addr:city":"Dersau","addr:housenumber":"59","addr:postcode":"24326","addr:street":"Dorfstraße","caravans":"yes","dog":"no","drinking_water":"yes","email":"info@camping-dersau.de","name":"Campingplatz Seeblick","opening_hours":"Apr-Oct","phone":"+4945261211","power_supply":"yes","sanitary_dump_station":"yes","shower":"yes","tents":"yes","toilets":"yes","toilets:wheelchair":"limited","website":"https://camping-dersau.de/","wheelchair":"limited"}},"129753438":{"location":[54.0842065,10.4075637],"ct":"DE","tp":"CS","ts":"2023-11-01T17:39:02Z","tX":541,"tY":328,"tags":{"name":"Pehmer-Hörn","website":"https://campingplatz-bruene.de/"}},"206001489":{"location":[54.048933,10.4570049],"ct":"DE","tp":"CS","ts":"2021-07-14T19:08:20Z","tX":541,"tY":328,"tags":{"access":"customers","addr:city":"Seedorf","addr:housenumber":"3","addr:postcode":"23823","addr:street":"Zum Seekamper See","addr:suburb":"Seekamp","dog":"yes","email":"info@campingamsee-seekamp.de","fee":"yes","name":"Campingplatz am See","operator":"Horst Mohr","phone":"+49 4555 320","power_supply":"yes","website":"https://www.campingamsee-seekamp.de/"}},"227416168":{"location":[54.1223305,10.3929815],"ct":"DE","tp":"CS","ts":"2024-05-16T20:13:59Z","tX":541,"tY":328,"tags":{"caravans":"yes","contact:email":"iqevent@xitylight.de","contact:mobile":"+49 152 22972745","contact:website":"https://camping-ploener-see.com","drinking_water":"yes","fee":"yes","internet_access":"no","name":"Camping Godau","opening_hours":"Apr 01-Oct 22: 24/7","power_supply":"yes","sanitary_dump_station":"yes","shower":"yes","tents":"yes","toilets":"yes","wheelchair":"yes"}},"314409862":{"location":[54.123248,10.334371],"ct":"DE","tp":"CS","ts":"2021-06-20T16:03:13Z","tX":541,"tY":328,"tags":{}},"344359572":{"location":[54.0775112,10.3474837],"ct":"DE","tp":"CS","ts":"2024-03-12T21:56:31Z","tX":541,"tY":328,"tags":{"caravans":"no","fee":"yes","group_only":"yes","name":"Jugendzeltplatz am Stocksee","openfire":"yes","operator":"SVT Neumünster von 1911 e. V.","reservation":"required","tents":"yes","website":"https://www.svt-neumuenster.de/anderweitige-tatigkeiten/zeltlager-am-stocksee"}},"445545263":{"location":[54.0371178,10.2234141],"ct":"DE","tp":"CR","ts":"2024-05-01T20:35:44Z","tX":541,"tY":328,"tags":{"fee":"no","name":"Wohnmobilstellplatz Trappenkamp Hermannstädter Straße","picnic_area":"yes","sanitary_dump_station":"yes","seasonal":"no","water_point":"yes","water_point:fee":"yes"}},"681704371":{"location":[54.0384823,10.2261911],"ct":"DE","tp":"CR","ts":"2024-05-01T20:35:44Z","tX":541,"tY":328,"tags":{"addr:city":"Trappenkamp","addr:street":"Segeberger Straße","capacity":"10","caravan_site":"motorhome_stopover","caravan_site:type":"town","fee":"no","name":"Wohnmobilstellplatz Trappenkamp Segeberger Straße","power_supply":"yes"}},"719437875":{"location":[54.0279781,10.4776795],"ct":"DE","tp":"CS","ts":"2023-09-15T14:43:45Z","tX":541,"tY":328,"tags":{"backcountry":"yes","capacity:tents":"4","caravans":"no","contact:email":"meierhof@kaldewey.de","contact:phone":"+49 4556 388","fee":"no","name":"Trekkingplatz bei Blomnath","operator":"Meierhof Kaldewey","reservation":"required","tents":"yes","website":"https://www.naturschutz-sh.de/wildes-sh/trekkingplatz-blomnath"}},"833191202":{"location":[54.1444596,10.4502039],"ct":"DE","tp":"CR","ts":"2024-07-02T11:07:46Z","tX":541,"tY":328,"tags":{"caravan_site":"motorhome_stopover","caravan_site:type":"camp_site","charge":"19 EUR","fee":"yes","name":"Wohnmobil-stellplatz Gut Ruhleben","power_supply":"yes","power_supply:fee":"no","sanitary_dump_station":"yes","shower":"yes","website":"https://www.camp-ruhleben.de/"}},"849847281":{"location":[54.0772254,10.2342495],"ct":"DE","tp":"CS","ts":"2020-09-21T16:51:00Z","tX":541,"tY":328,"tags":{"caravans":"no","fee":"yes","fireplace":"yes","group_only":"yes","name":"Jugendzeltplatz Bornhöved","operator":"CVJM Lübeck e. V.","tents":"yes"}},"891420016":{"location":[53.9571937,10.2052952],"ct":"DE","tp":"CR","ts":"2025-03-05T14:27:38Z","tX":541,"tY":328,"tags":{"addr:city":"Wahlstedt","addr:housenumber":"4","addr:postcode":"23812","addr:street":"Scharnhorststraße","capacity:caravans":"6","caravan_site":"motorrhomee_stopover","check_date":"2024-10-04","disposal":"yes","drinking_water":"yes","fee":"Ja, 8€ pro Nacht","internet_access":"no","name":"Wohnmobilstellplatz am Aqua Fun","name:signed":"no","note":"Dusche & WCs im Hallenbad gegen Gebühr","operator":"Stadtwerke Wahlstedt","phone":"04554 90780","power_supply":"yes","sanitary_dump_station":"yes","shower":"yes","tents":"no","toilets":"yes","website":"https://wohnmobile-wahlstedt.de/"}},"975708949":{"location":[54.0800523,10.3386185],"ct":"DE","tp":"CS","ts":"2021-08-28T20:06:30Z","tX":541,"tY":328,"tags":{"addr:city":"Stocksee","addr:country":"DE","addr:housenumber":"4","addr:postcode":"24326","addr:street":"Holmweg","cabins":"no","caravans":"yes","drinking_water":"yes","email":"stockseecamping@t-online.de","fee":"yes","internet_access":"wlan","internet_access:fee":"no","mobile":"+49 172 1534050","motor_vehicle":"yes","name":"Naturcamping am Stocksee","payment:cash":"yes","payment:maestro":"yes","phone":"+49 4526 338792","picnic_table":"yes","reservation":"recommended","sanitary_dump_station":"customers","shower":"yes","static_caravans":"yes","tents":"yes","washing_machine":"yes","website":"https://www.naturcamping-am-stocksee.de"}},"1080805142":{"location":[54.1471014,10.3983601],"ct":"DE","tp":"CR","ts":"2022-08-14T14:45:48Z","tX":541,"tY":328,"tags":{"addr:city":"Plön","addr:country":"DE","addr:housenumber":"76","addr:postcode":"24306","addr:street":"Ascheberger Straße","capacity":"14","email":"info@spitzenort.de","fax":"+49 4522 4574","fee":"yes","internet_access":"terminal","name":"alter Wohnmobilhafen Spitzenort","phone":"+49 4522 2769","power_supply":"yes"}},"3170405993":{"location":[54.1536067,10.4053729],"ct":"DE","tp":"SD","ts":"2024-05-13T19:07:50Z","tX":541,"tY":328,"tags":{"motorhome":"designated"}},"6497017195":{"location":[54.0238952,10.2376005],"ct":"DE","tp":"CS","ts":"2025-03-16T09:38:27Z","tX":541,"tY":328,"tags":{"backcountry":"yes","caravans":"no","contact:email":"steffen.ahnert@forst-sh.de","contact:phone":"+49 4321 55 92 132","fee":"no","name":"Erlebniswald Trappenkamp","reservation":"no","static_caravans":"no","tents":"yes","website":"https://www.naturschutz-sh.de/wildes-sh/trekkingplatz-erlebniswald-trappenkamp"}},"8617290645":{"location":[54.098456,10.5186689],"ct":"DE","tp":"CS","ts":"2023-07-17T11:29:46Z","tX":541,"tY":328,"tags":{"access":"yes","backcountry":"yes","camp_site":"basic","capacity:tents":"2","caravans":"no","contact:phone":"+49 4527 9739996","fee":"no","maxstay":"1 day","motor_vehicle":"no","name":"Trekkingplatz \"Lueg\" ins Land","openfire":"no","operator":"Familie Mutter","reservation":"required","shower":"no","tents":"yes","toilets":"yes","website":"https://www.naturschutz-sh.de/wildes-sh/trekkingplatz-brackrade-bosau"}},"9262179429":{"location":[54.12892,10.50052],"ct":"DE","tp":"CS","ts":"2023-09-15T14:43:45Z","tX":541,"tY":328,"tags":{"caravans":"no","email":"olafbormann@yahoo.de","name":"Trekkingplatz Alte Schule / Kulturstern Kleinmeinsdorf e.V.","openfire":"yes","phone":"+49 170 8081578","reservation":"recommended","shower":"yes","tents":"yes","toilets":"yes","website":"https://www.naturschutz-sh.de/wildes-sh/trekkingplatz-alte-schule-/-kulturstern-kleinmeinsdorf-ev"}},"9952845410":{"location":[54.147126,10.3962636],"ct":"DE","tp":"CR","ts":"2022-08-14T14:45:48Z","tX":541,"tY":328,"tags":{"addr:city":"Plön","addr:country":"DE","addr:housenumber":"76","addr:postcode":"24306","addr:street":"Ascheberger Straße","capacity":"18","email":"info@spitzenort.de","fax":"+49 4522 4574","fee":"yes","internet_access":"terminal","name":"neuer Wohnmobilhafen Spitzenort","phone":"+49 4522 2769","power_supply":"yes"}},"11901888687":{"location":[54.1531809,10.4051471],"ct":"DE","tp":"CR","ts":"2024-05-13T19:07:50Z","tX":541,"tY":328,"tags":{"caravan_site":"motorhome_stopover","caravan_site:type":"parking_lot;lake","fee":"no","name":"Ascheberger Parkplatz","sanitary_dump_station":"yes","website":"https://www.holsteinischeschweiz.de/poi/parkplatz-ascheberger-strasse"}},"4429552837":{"location":[54.037024,10.2236491],"ct":"DE","tp":"SD","ts":"2019-01-21T13:38:58Z","tX":541,"tY":328,"tags":{"sanitary_dump_station:basin":"yes","sanitary_dump_station:round_drain":"yes","water_point":"yes","water_point:fee":"yes"}},"7777918144":{"location":[54.1444701,10.4493257],"ct":"DE","tp":"SD","ts":"2020-08-02T13:54:56Z","tX":541,"tY":328,"tags":{"access":"customers"}},"9524191068":{"location":[54.1471717,10.3985346],"ct":"DE","tp":"SD","ts":"2022-02-21T12:09:35Z","tX":541,"tY":328,"tags":{"access":"customers","operator":"Camping Spitzenort"}}}