{"26009139":{"location":[53.8666899,10.2865594],"ct":"DE","tp":"CS","ts":"2024-02-11T13:29:56Z","tX":541,"tY":329,"tags":{"access":"customers","addr:city":"Neversdorf","addr:housenumber":"69","addr:postcode":"23816","addr:street":"Hauptstraße","caravans":"yes","email":"info@gasthofwaidmannsruh.de","fax":"+49 4552 1343","fee":"yes","name":"Gasthof \"Waidmanns Ruh\"","operator":"Gasthof Waidmann's Ruh, Goldbohm GbR","phone":"+49 4552 278","tents":"yes","website":"https://www.gasthofwaidmannsruh.de/campingplatz.html"}},"65052437":{"location":[53.9208219,10.2347973],"ct":"DE","tp":"CS","ts":"2024-02-02T21:49:13Z","tX":541,"tY":329,"tags":{"access":"customers","addr:city":"Wittenborn","addr:housenumber":"12","addr:postcode":"23829","addr:street":"Seestraße","name":"Seecamping Weisser Brunnen","phone":"+49 4554 14 13","website":"https://www.weisser-brunnen.de/"}},"106827512":{"location":[53.9376575,10.3246386],"ct":"DE","tp":"CS","ts":"2023-11-10T19:03:53Z","tX":541,"tY":329,"tags":{"addr:city":"Bad Segeberg","addr:country":"DE","addr:housenumber":"8","addr:postcode":"23795","addr:street":"Kastanienweg","email":"info@seecamping-segeberg.de","fax":"+49 4551 963931","name":"See-Camping Segeberg","phone":"+49 4551 4713","source":"Bing","website":"https://www.seecamping-segeberg.de/","wheelchair":"no"}},"142587593":{"location":[53.9248223,10.2278866],"ct":"DE","tp":"CS","ts":"2022-07-11T08:20:32Z","tX":541,"tY":329,"tags":{"addr:city":"Wittenborn","addr:housenumber":"9","addr:postcode":"23829","addr:street":"Steindamm","name":"Campingplatz am Waldesrand","phone":"+49 4554 4868"}},"173215828":{"location":[53.9384644,10.3155465],"ct":"DE","tp":"CR","ts":"2025-01-24T10:27:12Z","tX":541,"tY":329,"tags":{"capacity":"25","caravan_site":"motorhome_stopover","charge":"14 EUR","check_out":"12:00","contact:phone":"+49 4551 1655","email":"brigittecords@web.de","fee":"yes","internet_access":"no","name":"Wohnmobilstellplatz Kalkbergblick","operator":"Brigitte & Jochen Cords","power_supply":"yes","power_supply:fee":"yes","power_supply:maxcurrent":"6","reservation":"no","sanitary_dump_station":"yes","seasonal":"no","website":"http://www.womostellplatz-badsegeberg.de","wheelchair":"limited"}},"258903444":{"location":[53.9188291,10.3867982],"ct":"DE","tp":"PK","ts":"2022-01-02T00:23:36Z","tX":541,"tY":329,"tags":{"access":"yes","bus":"yes","caravan":"yes","fee":"no","hgv":"designated","parking":"surface"}},"258903447":{"location":[53.9179075,10.3868941],"ct":"DE","tp":"PK","ts":"2022-01-02T00:23:37Z","tX":541,"tY":329,"tags":{"access":"yes","bus":"yes","caravan":"yes","fee":"no","hgv":"designated","parking":"surface"}},"292107380":{"location":[53.8110693,10.3690003],"ct":"DE","tp":"CR","ts":"2024-09-07T23:31:32Z","tX":541,"tY":329,"tags":{"capacity":"8","fee":"no","name":"Wohnmobilstellplatz Am Bürgerpark","power_supply":"yes","sanitary_dump_station":"no"}},"292112283":{"location":[53.82989,10.4837774],"ct":"DE","tp":"CR","ts":"2018-10-18T10:40:17Z","tX":541,"tY":329,"tags":{"capacity":"8","fee":"no","name":"Wohnmobilstellplatz Karpfenplatz","parking":"surface","power_supply":"yes","tents":"no"}},"2833488121":{"location":[53.9385623,10.3152626],"ct":"DE","tp":"SD","ts":"2015-04-29T00:43:30Z","tX":541,"tY":329,"tags":{"sanitary_dump_station:accepted":"black_water;tank_chemicals"}},"2956289531":{"location":[53.8110022,10.3691736],"ct":"DE","tp":"SD","ts":"2024-05-23T11:10:00Z","tX":541,"tY":329,"tags":{"sanitary_dump_station:accepted":"black_water;tank_chemicals"}},"2956352378":{"location":[53.829672,10.4836044],"ct":"DE","tp":"SD","ts":"2015-04-29T00:43:31Z","tX":541,"tY":329,"tags":{"fee":"yes","sanitary_dump_station:accepted":"black_water;tank_chemicals"}}}