{"27117239":{"location":[52.5241624,10.4842199],"ct":"DE","tp":"CS","ts":"2022-04-05T19:13:37Z","tX":541,"tY":335,"tags":{"name":"Campingplatz Seerosenteich","operator":"Marrone","website":"https://www.campingplatz-seerosenteich.de/"}},"27461256":{"location":[52.5203244,10.4921112],"ct":"DE","tp":"CS","ts":"2015-06-28T06:59:14Z","tX":541,"tY":335,"tags":{}},"37798305":{"location":[52.5796451,10.246176],"ct":"DE","tp":"CS","ts":"2025-01-28T05:50:59Z","tX":541,"tY":335,"tags":{"name":"Am Allerstrand","operator":"H. Cammann"}},"38162095":{"location":[52.5254291,10.4782748],"ct":"DE","tp":"CS","ts":"2020-05-31T18:45:21Z","tX":541,"tY":335,"tags":{"name":"Campingplatz Waldesruh","website":"https://www.waldesruh-gifhorn.de/"}},"88905138":{"location":[52.5776211,10.5285074],"ct":"DE","tp":"CS","ts":"2024-10-08T14:07:07Z","tX":541,"tY":335,"tags":{}},"202771200":{"location":[52.5660798,10.2617074],"ct":"DE","tp":"CS","ts":"2023-12-10T14:03:05Z","tX":541,"tY":335,"tags":{"caravans":"yes","drinking_water":"yes","motorhome":"yes","name":"Camping Resort Langlingen","power_supply":"yes","seasonal":"no","shower":"yes","source":"Bing","tents":"yes","toilets":"yes","website":"https://www.camping-resort-langlingen.de/"}},"310848468":{"location":[52.5307257,10.4945337],"ct":"DE","tp":"CS","ts":"2020-05-31T18:27:24Z","tX":541,"tY":335,"tags":{"addr:city":"Gifhorn","addr:country":"DE","addr:housenumber":"46","addr:postcode":"38518","addr:street":"Krümmeweg","name":"Campingplatz Marrone","operator":"Marrone","website":"https://www.campingplatz-seerosenteich.de/"}},"310848471":{"location":[52.5289088,10.4878712],"ct":"DE","tp":"CS","ts":"2020-05-31T18:34:22Z","tX":541,"tY":335,"tags":{"addr:city":"Gifhorn","addr:country":"DE","addr:housenumber":"38","addr:postcode":"38518","addr:street":"Krümmeweg","description":"Campingplatz mit 270 Stellplätzen für Wohnwagen, Wohnmobile, Zelte, Mobilheime, Wochenendhäuser, Ferienhäuser, Tinyhouses. Alle Stellplätze verfügen über Strom-, Frisch- und Abwasser- sowie Gasanschlüsse. Eine Anmeldung des Hauptwohnsitzes ist möglich.","name":"Campingplatz und Bungalowpark Seepark Südheide","operator":"Johann Wilhelm Rabben","payment:cash":"yes","payment:contactless":"yes","payment:credit_cards":"yes","payment:girocard":"yes","payment:maestro":"yes","payment:mastercard":"yes","payment:visa":"yes","phone":"+49 5371 75647","tents":"yes","website":"https://www.seepark-suedheide.de"}},"310848475":{"location":[52.5295229,10.4915581],"ct":"DE","tp":"CS","ts":"2024-08-17T00:50:35Z","tX":541,"tY":335,"tags":{"addr:city":"Gifhorn","addr:country":"DE","addr:housenumber":"40","addr:postcode":"38518","addr:street":"Krümmeweg","caravans":"yes","name":"Camping Waßmann","operator":"Waßmann","tents":"yes","website":"https://www.camping-wassmann.de/"}},"316527547":{"location":[52.6347918,10.4483376],"ct":"DE","tp":"CS","ts":"2021-11-19T09:26:26Z","tX":541,"tY":335,"tags":{"name":"Campingplatz Alte Wassermühle"}},"322871705":{"location":[52.5664577,10.2568562],"ct":"DE","tp":"CS","ts":"2020-06-14T10:06:46Z","tX":541,"tY":335,"tags":{}},"338096820":{"location":[52.5810384,10.1975465],"ct":"DE","tp":"CS","ts":"2024-07-14T17:23:34Z","tX":541,"tY":335,"tags":{"caravans":"yes","contact:phone":"+49 5149 212","motorhome":"yes","name":"Zum Alten Wehr","nudism":"no","power_supply":"yes","sanitary_dump_station":"yes","shower":"yes","tents":"yes","toilets":"yes","water_point":"yes"}},"372124333":{"location":[52.6297093,10.5323419],"ct":"DE","tp":"CS","ts":"2024-04-17T12:28:26Z","tX":541,"tY":335,"tags":{"addr:city":"Wahrenholz","addr:housenumber":"11","addr:postcode":"29399","addr:street":"Küsterberg","capacity:caravans":"10","capacity:tents":"30","caravans":"yes","contact:mobile":"+49 172 2510118","contact:website":"http://www.ferienpark24.de","fee":"yes","name":"Campingplatz und Wohnmobilstellplatz Heide-Eck","operator":"UMW eG","payment:cash":"yes","payment:contactless":"yes","payment:credit_cards":"yes","static_caravans":"yes","tents":"yes"}},"533166318":{"location":[52.6182533,10.4121368],"ct":"DE","tp":"CS","ts":"2017-10-24T17:41:14Z","tX":541,"tY":335,"tags":{"access":"private","capacity":"30"}},"815830939":{"location":[52.5661948,10.258791],"ct":"DE","tp":"CS","ts":"2023-12-10T15:28:38Z","tX":541,"tY":335,"tags":{"caravans":"yes","charge":"14 EUR","drinking_water":"no","fee":"yes","laundry":"yes","name":"Wohnmobilplatz Allerparadies","power_supply":"yes","power_supply:charge":"0.8 EUR/kWh","power_supply:fee":"yes","shower":"yes","tents":"no","toilets":"no","water_point":"yes","water_point:charge":"1 EUR/100 liter","website":"https://www.allerparadies.de/camping.html"}},"1127674476":{"location":[52.5330037,10.3518473],"ct":"DE","tp":"CR","ts":"2023-01-06T07:02:52Z","tX":541,"tY":335,"tags":{"capacity":"15","fee":"12","internet_access":"wlan","internet_access:fee":"no","name":"Wohnmobilstellplatz und Events Müden an der Aller","operator":"KUBE-Events","power_supply":"yes","sanitary_dump_station":"yes"}},"1277869872":{"location":[52.6887265,10.251942],"ct":"DE","tp":"CR","ts":"2024-04-30T13:56:14Z","tX":541,"tY":335,"tags":{"description":"Am Schacht Maria-Glück","fee":"no","opening_hours":"24/7","picnic_area":"yes","sanitary_dump_station":"no"}},"1280101749":{"location":[52.5803211,10.5318287],"ct":"DE","tp":"CS","ts":"2011-05-11T08:08:46Z","tX":541,"tY":335,"tags":{}},"1280101750":{"location":[52.5803081,10.5323222],"ct":"DE","tp":"CR","ts":"2011-05-11T08:08:47Z","tX":541,"tY":335,"tags":{"name":"Feriengebiet am Badesee"}},"1282592300":{"location":[52.5934254,10.3739821],"ct":"DE","tp":"CR","ts":"2024-05-13T20:23:18Z","tX":541,"tY":335,"tags":{"capacity":"4","caravan_site":"motorhome_stopover","caravan_site:type":"swimming_pool","charge":"10 EUR","fee":"yes","internet_access":"wlan","internet_access:fee":"no","name":"Wohnmobil - Waldbad Hohne","power_supply":"yes","power_supply:fee":"no","seasonal":"no","surface":"grass","water_point":"yes","water_point:fee":"no","website":"http://www.waldbad-hohne-spechtshorn.de/freizeit/wohnmobil"}},"1352320738":{"location":[52.580528,10.5308105],"ct":"DE","tp":"CS","ts":"2025-01-18T13:13:13Z","tX":541,"tY":335,"tags":{"caravans":"yes","name":"Feriengebiet am Badesee"}},"6797343171":{"location":[52.5933837,10.4973109],"ct":"DE","tp":"CS","ts":"2019-09-15T18:55:24Z","tX":541,"tY":335,"tags":{"access":"permit","name":"Campground","operator":"Offroadpark Südheide"}}}