{"34108900":{"location":[52.2588798,10.3153807],"ct":"DE","tp":"CS","ts":"2020-03-19T18:49:24Z","tX":541,"tY":337,"tags":{"addr:city":"Vechelde","addr:housenumber":"21","addr:postcode":"38159","addr:street":"Ohestraße","description":"only permanent stay","name":"Waldsee Camping Bettmar","phone":"+49 173 2006585","toilets:wheelchair":"no","website":"http://www.waldsee-camping-bettmar.de","wheelchair":"limited"}},"36891401":{"location":[52.152211,10.3129747],"ct":"DE","tp":"CR","ts":"2020-08-23T18:52:24Z","tX":541,"tY":337,"tags":{"addr:city":"Salzgitter","addr:postcode":"38226","addr:street":"Zum Salzgittersee","capacity":"20","fee":"yes","internet_access":"wlan","internet_access:fee":"no","name":"Wohnmobilparkplatz Salzgittersee","power_supply":"yes","sanitary_dump_station":"yes","water_point":"yes"}},"136699532":{"location":[52.2587346,10.4659876],"ct":"DE","tp":"CR","ts":"2012-10-24T23:42:24Z","tX":541,"tY":337,"tags":{"fee":"yes","name":"Städtischer Wohnwagenaufstellplatz (Landfahrerplatz)"}},"544971278":{"location":[52.1552825,10.5432166],"ct":"DE","tp":"CR","ts":"2022-02-01T20:46:52Z","tX":541,"tY":337,"tags":{"addr:city":"Wolfenbüttel","addr:country":"DE","addr:housenumber":"21","addr:postcode":"38300","addr:street":"Harztorwall","capacity":"44","contact:email":"info@stadtbad-okeraue.de","contact:fax":"+49 5331 6690","contact:phone":"+49 5331 408-690","fee":"yes","name":"Wohnmobilpark Okeraue","operator":"Stadtbetriebe Wolfenbüttel GmbH","power_supply":"yes","sanitary_dump_station":"yes","water_point":"yes","website":"https://www.stadtbad-okeraue.de/wohnmobilpark/","wheelchair":"yes"}},"564405935":{"location":[52.2497866,10.5194296],"ct":"DE","tp":"CR","ts":"2025-01-11T15:39:51Z","tX":541,"tY":337,"tags":{"capacity":"16","caravan_site":"motorhome_stopover","caravan_site:type":"city","charge":"5 EUR","fee":"yes","maxstay":"2 days","name":"Reisemobilstellplatz an der Theodor-Heuss-Straße","operator":"Stadt Braunschweig","power_supply":"yes","power_supply:charge":"1 EUR/8 hours","power_supply:fee":"yes","power_supply:maxcurrent":"6.5","reservation":"no","sanitary_dump_station":"yes","water_point":"yes","water_point:charge":"1 EUR/10 minutes","water_point:fee":"yes","website":"http://www.braunschweig.de/vv/produkte/VII/20/20_2/reisemobilstellplatz.php"}},"1208843130":{"location":[52.2353474,10.4976171],"ct":"DE","tp":"CR","ts":"2023-11-04T21:17:16Z","tX":541,"tY":337,"tags":{"addr:city":"Braunschweig","addr:country":"DE","addr:housenumber":"5c","addr:postcode":"38122","addr:street":"Marienberger Straße","cabins":"no","capacity":"12","caravans":"yes","charge":"10 EUR","email":"info@campingplatz-braunschweig.de","fee":"yes","name":"Campingplatz Braunschweig","operator":"Detlef Wesche","phone":"+49 159 04890105","power_supply":"yes","power_supply:charge":"4 EUR","sanitary_dump_station":"yes","water_point:charge":"2 EUR","website":"https://www.campingplatz-braunschweig.de"}},"1316033068":{"location":[52.2426569,10.5215545],"ct":"DE","tp":"CS","ts":"2020-01-18T09:41:56Z","tX":541,"tY":337,"tags":{"access":"destination","addr:city":"Braunschweig","addr:housenumber":"4","addr:postcode":"38122","addr:street":"Kennelweg","backcountry":"no","cabins":"no","caravans":"yes","drinking_water":"yes","email":"zeltwart@kennel-bad.de","fee":"yes","operator":"Kennel-Bad e.V.","tents":"yes","website":"https://www.kennel-bad.de/camping.html"}},"10920186561":{"location":[52.2496444,10.5185696],"ct":"DE","tp":"SD","ts":"2023-05-22T20:46:33Z","tX":541,"tY":337,"tags":{}}}