{"4424995":{"location":[51.7803769,10.3019656],"ct":"DE","tp":"CS","ts":"2014-12-25T16:24:41Z","tX":541,"tY":339,"tags":{"name":"Obere Innerste"}},"4874957":{"location":[51.7855637,10.3488004],"ct":"DE","tp":"CS","ts":"2024-06-28T03:07:06Z","tX":541,"tY":339,"tags":{"addr:city":"Clausthal-Zellerfeld","addr:housenumber":"4","addr:postcode":"38678","addr:street":"An den langen Brüchen","addr:suburb":"Buntenbock","caravans":"yes","internet_access":"wlan","name":"Campingplatz Prahljust","phone":"+49 5323 1300","tents":"yes","website":"https://www.prahljust.de/","wheelchair":"limited"}},"29285539":{"location":[51.7142076,10.516242],"ct":"DE","tp":"CR","ts":"2022-04-05T19:13:37Z","tX":541,"tY":339,"tags":{"capacity":"20","fee":"yes","name":"Grube Samson","power_supply":"yes","sanitary_dump_station":"yes","surface":"unpaved","water_point":"yes","website":"https://www.oberharz.de/info-service/wohnmobilstellplaetze/#c623"}},"37261407":{"location":[51.7997017,10.4163406],"ct":"DE","tp":"CS","ts":"2024-10-30T16:10:46Z","tX":541,"tY":339,"tags":{"addr:housenumber":"1","addr:place":"Polstertal","cabins":"yes","caravans":"yes","check_date":"2024-10-30","dog":"yes","drinking_water":"yes","ele":"530","email":"info@campingplatz-polstertal.de","fee":"yes","internet_access":"wlan","internet_access:fee":"no","internet_access:ssid":"Polstertal","name":"Waldcampingplatz Polstertal","openfire":"yes","opening_hours":"\"Anreise bis 19:00 Uhr. Abreise bis 12:00 Uhr\"","payment:cash":"yes","payment:visa":"yes","payment:visa_contactless":"yes","phone":"+49 5323 5582","power_supply":"yes","reservation":"yes","sanitary_dump_station":"yes","shower":"yes","smoking":"outside","tents":"yes","toilets":"yes","website":"https://www.campingplatz-polstertal.de/"}},"70410974":{"location":[51.6462175,10.5174575],"ct":"DE","tp":"CS","ts":"2024-08-24T16:04:31Z","tX":541,"tY":339,"tags":{"name":"Camping Glockental","operator":"Camping Glockental GmbH","phone":"+49 170 1731463","website":"https://www.camping-glockental.de/"}},"95117931":{"location":[51.8153304,10.2271626],"ct":"DE","tp":"CS","ts":"2021-12-05T15:17:49Z","tX":541,"tY":339,"tags":{}},"124758133":{"location":[51.8134557,10.336025],"ct":"DE","tp":"CR","ts":"2022-11-18T15:26:08Z","tX":541,"tY":339,"tags":{"area":"yes","capacity":"4","fee":"no","name":"Alter Bahnhof","power_supply":"no","sanitary_dump_station":"no","toilets":"yes","wheelchair":"yes"}},"148343569":{"location":[51.8025064,10.4346416],"ct":"DE","tp":"CR","ts":"2024-08-02T18:41:43Z","tX":541,"tY":339,"tags":{"capacity":"30","caravan_site":"motorhome_stopover","caravans":"yes","dog":"leashed","fee":"yes","internet_access":"wlan","internet_access:fee":"no","name":"Wohnmobilstellplatz Alter Bahnhof Altenau","operator":"Monique van Sweeden & Willem van Leewen","power_supply":"yes","sanitary_dump_station":"yes","tents":"yes","website":"https://www.alterbahnhofaltenau.info"}},"184724811":{"location":[51.7974503,10.4432333],"ct":"DE","tp":"CR","ts":"2021-08-26T12:03:59Z","tX":541,"tY":339,"tags":{"fee":"yes","name":"Stellplatz Kristall-Saunatherme","power_supply":"yes"}},"199505169":{"location":[51.759869,10.3246086],"ct":"DE","tp":"CS","ts":"2023-10-13T19:28:16Z","tX":541,"tY":339,"tags":{"addr:city":"Osterode am Harz","addr:housenumber":"6","addr:postcode":"37520","addr:street":"An der Mühlwiese","addr:suburb":"Lerbach","capacity:caravans":"25","capacity:persons":"100","capacity:tents":"15","caravans":"yes","contact:instagram":"greenretreat_harz","email":"info@greenretreat.de","fee":"yes","name":"Harz Hideaway","opening_hours":"Mo-Su 08:00-22:00","operator":"Krages Green Retreat Verwaltung, Inh. Louis Krages","payment:cash":"yes","payment:credit_cards":"yes","phone":"+49 5522 1299962","tents":"yes","website":"https://www.harzhideaway.de/"}},"205307760":{"location":[51.8221784,10.3182551],"ct":"DE","tp":"CS","ts":"2022-12-11T15:41:08Z","tX":541,"tY":339,"tags":{"addr:city":"Clausthal-Zellerfeld","addr:housenumber":"31","addr:postcode":"38678","addr:street":"Spiegelthaler Straße","addr:suburb":"Zellerfeld","name":"Waldweben","source":"Bing","url":"http://www.campingplatz-waldweben.de/"}},"241476196":{"location":[51.6360411,10.3866111],"ct":"DE","tp":"CS","ts":"2024-08-14T08:07:51Z","tX":541,"tY":339,"tags":{"addr:city":"Herzberg am Harz","addr:country":"DE","addr:housenumber":"35","addr:postcode":"37412","addr:street":"Bremkestraße","addr:suburb":"Scharzfeld","caravans":"yes","name":"Campingplatz am Blockhaus","phone":"+49 15156503284","tents":"yes","website":"https://www.restaurant-blockhaus.com/campingplatz/"}},"241647417":{"location":[51.6981088,10.3627049],"ct":"DE","tp":"CS","ts":"2024-10-17T07:16:17Z","tX":541,"tY":339,"tags":{"addr:city":"Herzberg am Harz","addr:country":"DE","addr:housenumber":"72","addr:postcode":"37412","addr:street":"Mariental","name":"Campingplatz & Waldschwimmbad Lonau","website":"https://www.campingplatz-lonau.de"}},"260784002":{"location":[51.6341641,10.2587926],"ct":"DE","tp":"CS","ts":"2014-02-17T18:25:54Z","tX":541,"tY":339,"tags":{}},"264799883":{"location":[51.653036,10.2112845],"ct":"DE","tp":"CS","ts":"2021-03-08T09:20:34Z","tX":541,"tY":339,"tags":{"access":"private","capacity":"1"}},"272268199":{"location":[51.6289482,10.2677995],"ct":"DE","tp":"CS","ts":"2023-08-26T20:44:22Z","tX":541,"tY":339,"tags":{"addr:city":"Hattorf am Harz","addr:housenumber":"1","addr:postcode":"37197","addr:street":"Oderbruecke","cabins":"yes","capacity:pitches":"80","caravans":"yes","name":"Lotje","old_name":"Camping Oderbruecke","phone":"+49 5521 4359","shower":"yes","tents":"yes","toilets":"yes","website":"https://www.camping-lotje.nl/"}},"272530596":{"location":[51.8189886,10.439595],"ct":"DE","tp":"CS","ts":"2024-06-13T13:02:59Z","tX":541,"tY":339,"tags":{"addr:city":"Clausthal-Zellerfeld","addr:housenumber":"2","addr:postcode":"38707","addr:street":"Kornhardtweg","addr:suburb":"Altenau","caravans":"yes","check_date":"2024-06-13","contact:email":"info@camping-okertalsperre.de","contact:phone":"+49 5328 702","contact:website":"https://www.camping-okertalsperre.de","dog":"yes","drinking_water":"yes","dryer":"yes","fee":"yes","internet_access":"wlan","internet_access:fee":"no","name":"Camping Okertalsperre","openfire":"no","power_supply":"yes","sanitary_dump_station":"yes","shower":"yes","static_caravans":"yes","tents":"yes","toilets":"yes","washing_machine":"yes"}},"274073501":{"location":[51.7275728,10.2834778],"ct":"DE","tp":"CR","ts":"2019-03-10T08:50:01Z","tX":541,"tY":339,"tags":{"capacity":"13","email":"ferien@eulenburg-camping.de","fee":"yes","internet_access":"wlan","name":"Reisemobilstellplatz \"Eulenburg Camping\"","phone":"+49 5522 6611","power_supply":"yes","sanitary_dump_station":"yes","website":"https://www.eulenburg-camping.de/"}},"474989056":{"location":[51.7271446,10.2849084],"ct":"DE","tp":"CS","ts":"2019-03-10T08:49:30Z","tX":541,"tY":339,"tags":{"name":"Campingplatz Eulenburg Osterode","website":"https://www.eulenburg-camping.de/"}},"669487156":{"location":[51.6183003,10.3083058],"ct":"DE","tp":"CS","ts":"2025-03-16T18:33:43Z","tX":541,"tY":339,"tags":{"access":"customers","addr:city":"Herzberg OT Pöhlde","addr:housenumber":"1","addr:postcode":"37412","addr:street":"Oderstraße","bbq":"yes","camp_site":"serviced","caravans":"no","drinking_water":"yes","email":"info@zeltplatz-poehlde.de","fee":"yes","group_only":"no","internet_access":"wlan","kitchen":"yes","mobile":"+49 151 418 54 247","motorcar":"no","motorcycle":"yes","motorhome":"no","name":"Jugendzeltplatz Pöhlde","note":"In den Sommerferien wird der Platz nur an große Gruppen vermietet. Außerhalb der Ferienzeiten vermieten wir auch an Einzel- oder Familien.","openfire":"yes","operator":"Stadt Herzberg","power_supply":"yes","reservation":"required","shower":"yes","static_caravans":"no","tents":"yes","toilets":"yes","website":"https://www.zeltplatz-poehlde.de"}},"702064590":{"location":[51.7227632,10.2500872],"ct":"DE","tp":"CR","ts":"2024-06-03T09:18:01Z","tX":541,"tY":339,"tags":{"capacity":"7","caravan_site":"motorhome_stopover","caravan_site:type":"swimming_pool","caravans":"no","charge":"12 EUR","charge:conditional":"8 EUR @ (Oct-Mar)","fee":"yes","name":"Aloha Aqualand","power_supply":"yes","power_supply:charge":"1.50 EUR / 8 hours","power_supply:fee":"yes","reservation":"no","sanitary_dump_station":"yes","sanitary_dump_station:charge":"1 EUR","sanitary_dump_station:fee":"yes","seasonal":"no","tents":"no","water_point:charge":"1.50 EUR/ 75 liter","website":"https://www.aqualand-osterode.de/index.php/information/wohnmobilstellplatz","wheelchair":"yes"}},"1357789237":{"location":[51.6337457,10.4874484],"ct":"DE","tp":"CR","ts":"2025-02-07T13:40:12Z","tX":541,"tY":339,"tags":{"capacity":"5","caravan_site":"motorhome_stopover","caravan_site:type":"swimming_pool","fee":"no","name":"Wohnmobilstellplatz Vitamar Bad Lauterberg","power_supply":"no","sanitary_dump_station":"no","seasonal":"no","surface":"paving_stones","water_point":"no","website":"https://www.vitamar.de/kontakt.html"}},"10298330803":{"location":[51.6337379,10.4873518],"ct":"DE","tp":"CR","ts":"2023-01-01T15:11:49Z","tX":541,"tY":339,"tags":{"description":"Stellplatz, Parkplatz für 5 Wohnmobile. Dumping außer Betrieb.","name":"Vitamar Stellplatz"}},"12100587177":{"location":[51.6943821,10.4187958],"ct":"DE","tp":"CR","ts":"2024-08-09T12:03:43Z","tX":541,"tY":339,"tags":{"capacity":"6","fee":"yes","name":"Wohnmobilstellplatz Sieber","power_supply":"yes","sanitary_dump_station":"no","surface":"concrete","toilets":"yes"}},"5561931568":{"location":[51.8013305,10.4343611],"ct":"DE","tp":"SD","ts":"2024-08-02T10:18:27Z","tX":541,"tY":339,"tags":{"sanitary_dump_station:chemical_toilet":"yes","sanitary_dump_station:gravity":"yes","sanitary_dump_station:grey_water":"yes","sanitary_dump_station:suction":"no"}},"5565963408":{"location":[51.7976747,10.4430158],"ct":"DE","tp":"SD","ts":"2018-04-20T07:07:22Z","tX":541,"tY":339,"tags":{"sanitary_dump_station:chemical_toilet":"yes","sanitary_dump_station:fee":"no","sanitary_dump_station:gravity":"yes","sanitary_dump_station:grey_water":"yes","sanitary_dump_station:suction":"no"}},"6593041894":{"location":[51.7227366,10.25011],"ct":"DE","tp":"SD","ts":"2019-07-06T10:57:25Z","tX":541,"tY":339,"tags":{"access":"yes","fee":"yes","sanitary_dump_station:basin":"yes","sanitary_dump_station:round_drain":"yes"}},"10273452410":{"location":[51.7128178,10.5144639],"ct":"DE","tp":"SD","ts":"2024-10-26T13:02:01Z","tX":541,"tY":339,"tags":{"fee":"no","sanitary_dump_station:chemical_toilet":"yes","sanitary_dump_station:fee":"no","sanitary_dump_station:gravity":"yes","sanitary_dump_station:grey_water":"yes","sanitary_dump_station:suction":"no"}},"11978103618":{"location":[51.8191963,10.4392098],"ct":"DE","tp":"SD","ts":"2024-06-13T11:48:02Z","tX":541,"tY":339,"tags":{}}}