{"61699583":{"location":[51.2003759,10.4312853],"ct":"DE","tp":"CS","ts":"2023-11-08T21:16:24Z","tX":541,"tY":341,"tags":{"addr:city":"Mühlhausen","addr:country":"DE","addr:housenumber":"2","addr:postcode":"99974","addr:street":"Popperöder Gasse","capacity:caravans":"40","caravans":"yes","email":"kontakt@campingplatz-schwanenteich.de","name":"Campingplatz am Schwanenteich","operator":"1. SGV Mühlhausen e.V.","phone":"+49 3601 4085830","source":"website","tents":"yes","website":"https://www.campingplatz-schwanenteich.de"}},"715314568":{"location":[51.2105809,10.46371],"ct":"DE","tp":"CR","ts":"2023-09-10T19:41:46Z","tX":541,"tY":341,"tags":{"capacity:caravans":"11","charge":"10€/24h","check_date":"2023-09-10","fee":"yes","internet_access":"no","name":"Engelsgarten","opening_hours":"24/7","payment:cards":"no","payment:coins":"yes","payment:credit_cards":"no","payment:debit_cards":"no","phone":"+49 3601 4520","power_supply":"yes","reservation":"no","sanitary_dump_station":"yes","smoking":"outside","source":"survey","wheelchair":"yes"}},"8248798523":{"location":[51.2757999,10.2520886],"ct":"DE","tp":"CS","ts":"2022-08-01T09:03:25Z","tX":541,"tY":341,"tags":{"backcountry":"yes","camp_site":"basic","capacity:caravans":"0","capacity:persons":"4","description":"Die Übernachtung ist bei der Gemeinde Küllstedt zu buchen. Dort bekommt man auch den Schlüssel für die Komposttoilette.","ele":"380","fee":"yes","information":"guidepost","name":"Biwak-Station Küllstedter Grund","operator":"Gemeinde Küllstedt & Naturpark Eichsfeld-Hainich-Werratal"}},"6722978020":{"location":[51.2104326,10.4642681],"ct":"DE","tp":"SD","ts":"2021-02-27T10:56:57Z","tX":541,"tY":341,"tags":{"access":"yes","charge":"1 Eur","fee":"yes","payment:coins":"yes","water_point":"yes"}},"10161173756":{"location":[51.2104153,10.4643274],"ct":"DE","tp":"SD","ts":"2022-11-06T08:33:26Z","tX":541,"tY":341,"tags":{"access":"yes","fee":"yes","opening_hours":"24/7","payment:coins":"yes","source":"survey","water_point":"yes"}},"10237838602":{"location":[51.2104038,10.4642922],"ct":"DE","tp":"SD","ts":"2022-12-04T13:39:45Z","tX":541,"tY":341,"tags":{"access":"yes","fee":"yes","opening_hours":"24/7","payment:coins":"yes","source":"survey","water_point":"yes"}},"11181889993":{"location":[51.210459,10.4642898],"ct":"DE","tp":"SD","ts":"2023-09-10T19:45:48Z","tX":541,"tY":341,"tags":{"access":"yes","fee":"no","opening_hours":"24/7","source":"survey","water_point":"yes"}}}