{"61843035":{"location":[51.1057625,10.2956703],"ct":"DE","tp":"CS","ts":"2025-01-01T10:29:41Z","tX":541,"tY":342,"tags":{"addr:city":"Amt Creuzburg","addr:country":"DE","addr:housenumber":"1","addr:postcode":"99831","addr:street":"Probsteizella","addr:suburb":"Frankenroda","capacity":"35","caravans":"yes","landuse":"recreation_ground","name":"Campingplatz Probstei Zella","phone":"+49 36924 41976","source":"url;survey","tents":"yes","website":"https://www.zella.de/"}},"62017807":{"location":[51.1028826,10.5075098],"ct":"DE","tp":"CS","ts":"2023-07-30T10:16:32Z","tX":541,"tY":342,"tags":{"capacity:caravans":"51","capacity:tents":"75","caravans":"yes","email":"nh@camping-hainich.de","fax":"+49 36022 98691","name":"Campingplatz am Tor zum Hainich","phone":"+49 36022 98690;+49 174 9578029","shower":"yes","source":"extrapolation","stars":"4","tents":"yes","toilets":"yes","website":"https://www.camping-hainich.de/","wheelchair":"yes"}},"65683520":{"location":[51.0495885,10.2330201],"ct":"DE","tp":"CS","ts":"2023-12-15T11:46:12Z","tX":541,"tY":342,"tags":{"addr:city":"Amt Creuzburg","addr:country":"DE","addr:housenumber":"1","addr:postcode":"99831","addr:street":"Am Troggenbagger","addr:suburb":"Creuzburg","image":"https://commons.wikimedia.org/wiki/File:WAK_Creuzburg_095.jpg","name":"Werratal Camping Creuzburg","phone":"+49 36926 72464","website":"https://www.werratal-tours.de/"}},"128340233":{"location":[51.0843219,10.3265232],"ct":"DE","tp":"CS","ts":"2022-12-01T11:22:59Z","tX":541,"tY":342,"tags":{"addr:city":"Amt Creuzburg","addr:country":"DE","addr:housenumber":"1","addr:postcode":"99831","addr:street":"Am Schwimmbad","addr:suburb":"Mihla","capacity":"15","caravans":"no","fixme":"Gemäß Webpage gibt es auch Caravan/Wohnwagenstellplätze ausserhalb vom Schwimmbad. Diese sollten als separater Node/Fläche eingetragen werden","name":"Freibad Mihla","phone":"+49 36924 42485","tents":"yes","website":"https://www.freibad-mihla.de/"}},"131508043":{"location":[50.9675606,10.3006038],"ct":"DE","tp":"CR","ts":"2024-05-08T11:45:12Z","tX":541,"tY":342,"tags":{"capacity":"4","name:signed":"no"}},"191898132":{"location":[51.0019232,10.327461],"ct":"DE","tp":"CR","ts":"2024-05-14T12:03:00Z","tX":541,"tY":342,"tags":{"capacity":"18","charge":"15 EUR","fee":"yes","name":"Wohnmobile A. Waldhelm","power_supply":"yes","power_supply:charge":"1 EUR/kWh","power_supply:fee":"yes","sanitary_dump_station":"yes","services:charge":"3 EUR @ water_supply and sanitary_dump_station","water_point":"yes","website":"https://www.wohnmobile-waldhelm.de/stellplaetze"}},"192051701":{"location":[50.9812429,10.3232018],"ct":"DE","tp":"CR","ts":"2017-07-23T16:37:53Z","tX":541,"tY":342,"tags":{"capacity":"3","name":"Automobile-Welt","toilets:wheelchair":"no","wheelchair":"no"}},"301137064":{"location":[51.1516885,10.4717065],"ct":"DE","tp":"CS","ts":"2023-07-12T06:42:25Z","tX":541,"tY":342,"tags":{"addr:city":"Niederdorla","addr:housenumber":"1","addr:postcode":"99986","addr:street":"Am Stausee","addr:suburb":"Niederdorla","caravans":"yes","contact:email":"info@palumpa-land.de","contact:phone":"+49 3601 888942","contact:website":"https://www.palumpa-land.de/","group_only":"no","name":"Palumpa-Land","openfire":"yes","power_supply":"cee_7_4","tents":"yes"}},"398251696":{"location":[51.0487733,10.2495466],"ct":"DE","tp":"CS","ts":"2016-05-08T19:01:52Z","tX":541,"tY":342,"tags":{"name":"Biwakplatz Werra-Kanu","website":"http://www.werra-kanu.de/zelten/aktiv-station-creuzburg"}},"398481775":{"location":[51.1334238,10.2364279],"ct":"DE","tp":"CR","ts":"2022-09-04T14:36:38Z","tX":541,"tY":342,"tags":{"fee":"yes","name":"Unter den Linden","operator":"Stadt Treffurt","power_supply":"yes","sanitary_dump_station":"yes","water_point":"yes","website":"https://www.treffurt.de/wohnmobilstellplatz.html"}},"449105311":{"location":[50.9788204,10.3207936],"ct":"DE","tp":"CR","ts":"2016-11-13T13:45:29Z","tX":541,"tY":342,"tags":{"addr:postcode":"99817","addr:street":"Karl-Marx-Straße","capacity":"5","description":"Übernachtungsparkplatz Wohnmobile - Bezahlen am Automat Max 24 Std","fee":"yes","internet_access":"no","power_supply":"no","sanitary_dump_station":"no"}},"484236138":{"location":[50.9788606,10.3236684],"ct":"DE","tp":"CR","ts":"2020-06-14T18:25:48Z","tX":541,"tY":342,"tags":{"addr:city":"Eisenach","addr:postcode":"99817","addr:street":"Karl-Marx-Straße","power_supply":"yes","sanitary_dump_station":"yes"}},"799085503":{"location":[50.9947788,10.4783907],"ct":"DE","tp":"CS","ts":"2022-12-30T15:10:12Z","tX":541,"tY":342,"tags":{"access":"permit","addr:city":"Hörselberg-Hainich","addr:postcode":"99820","addr:street":"Am Flugplatz","name":"DÄDALUS Club-Gelände","operator":"Dädalus Fallschirmsport"}},"806778364":{"location":[50.9614127,10.39304],"ct":"DE","tp":"CR","ts":"2020-05-21T10:25:29Z","tX":541,"tY":342,"tags":{}},"815250709":{"location":[51.008234,10.2244838],"ct":"DE","tp":"CS","ts":"2022-12-30T12:41:36Z","tX":541,"tY":342,"tags":{"access":"yes","name":"Kanu-Club Rennsteig e.V.","operator":"Kanu-Club Rennsteig e.V."}},"4173451127":{"location":[51.1256836,10.1955586],"ct":"DE","tp":"CS","ts":"2024-08-08T15:25:24Z","tX":541,"tY":342,"tags":{"caravans":"yes","drinking_water":"yes","name":"Biwakplatz Heldra","note":"Telefonnummern Vor Ort am Toilettenhäuschen","power_supply":"yes","shower":"yes","tents":"yes","toilets":"yes"}},"12271686195":{"location":[51.0038508,10.3582146],"ct":"DE","tp":"CS","ts":"2024-10-20T19:36:33Z","tX":541,"tY":342,"tags":{"addr:city":"Eisenach","addr:housenumber":"122","addr:postcode":"99817","addr:street":"Eisenacher Straße","capacity:caravans":"6","capacity:tents":"4","caravans":"yes","dog":"yes","name":"Camping im Garten","power_supply":"yes","tents":"yes","website":"http://www.campingimgarten.de/"}},"8957624413":{"location":[51.1066787,10.2968647],"ct":"DE","tp":"SD","ts":"2021-07-28T15:32:52Z","tX":541,"tY":342,"tags":{}},"9785388545":{"location":[50.9788455,10.3232297],"ct":"DE","tp":"SD","ts":"2022-05-31T12:13:46Z","tX":541,"tY":342,"tags":{"access":"yes","description":"Free access, no fee","fee":"no","opening_hours":"24/7"}},"9815419479":{"location":[50.9788513,10.3233022],"ct":"DE","tp":"SD","ts":"2022-06-13T18:43:56Z","tX":541,"tY":342,"tags":{}}}