{"17768918":{"location":[50.7614014,10.3165975],"ct":"DE","tp":"CS","ts":"2024-06-26T10:20:37Z","tX":541,"tY":343,"tags":{"addr:city":"Breitungen/Werra","addr:country":"DE","addr:housenumber":"24a","addr:postcode":"98597","addr:street":"Salzunger Straße","caravans":"yes","fee":"yes","name":"Strandbad Breitungen","operator":"Gemeinde Breitungen Eigenbetrieb Strandbad","phone":"+49 36848 409512","source":"website","static_caravans":"yes","tents":"yes","website":"https://strandbad-breitungen.de/"}},"34997757":{"location":[50.7430066,10.2028041],"ct":"DE","tp":"CS","ts":"2024-07-14T13:21:30Z","tX":541,"tY":343,"tags":{"addr:city":"Dermbach","addr:country":"DE","addr:housenumber":"147","addr:postcode":"36466","addr:street":"Bernshäuser Straße","caravans":"yes","drinking_water":"yes","internet_access":"wlan","name":"Campingplatz am Schönsee","power_supply":"yes","sanitary_dump_station":"yes","shower":"yes","tents":"yes","toilets":"yes","toilets:wheelchair":"yes","website":"https://www.rhoenline.de/schoensee.html","wheelchair":"limited"}},"51821485":{"location":[50.7956973,10.2892643],"ct":"DE","tp":"CS","ts":"2024-07-09T17:04:49Z","tX":541,"tY":343,"tags":{"addr:city":"Barchfeld-Immelborn","addr:country":"DE","addr:housenumber":"1","addr:postcode":"36456","addr:street":"An den Badeseen","caravans":"yes","drinking_water":"yes","name":"Campingplatz Kiesgrube Immelborn","phone":"+49 3695 622101","power_supply":"no","shower":"yes","source":"website + extrapolation","tents":"yes","toilets":"yes","website":"https://www.kiesgrube-immelborn.de/"}},"51821861":{"location":[50.9092458,10.3021298],"ct":"DE","tp":"CS","ts":"2023-11-02T18:32:20Z","tX":541,"tY":343,"tags":{"addr:city":"Gerstungen","addr:country":"DE","addr:housenumber":"1","addr:postcode":"99834","addr:street":"Altenberger See","addr:suburb":"Eckardtshausen","capacity:caravans":"60","capacity:tents":"40","caravans":"yes","contact:email":"Campingpark-Eisenach@t-online.de","contact:fax":"+49 3691 215607","contact:phone":"+49 3691 215637","drinking_water":"yes","fee":"yes","name":"Campingpark Eisenach","old_name":"Campingplatz Altenberger See","operator":"Ulrike Töpfer","shower":"yes","tents":"yes","website":"https://campingpark-eisenach.de/"}},"227556666":{"location":[50.7632586,10.4154267],"ct":"DE","tp":"CS","ts":"2025-01-10T15:06:25Z","tX":541,"tY":343,"tags":{"addr:city":"Fambach","addr:country":"DE","addr:housenumber":"20","addr:postcode":"98597","addr:street":"Nüßleser Straße","addr:suburb":"Heßles","contact:website":"https://campingplatz-nuessleshof.de/","internet_access":"wlan","internet_access:fee":"no","name":"Campingplatz Nüßleshof"}},"234253506":{"location":[50.7604575,10.319673],"ct":"DE","tp":"CR","ts":"2024-08-13T17:54:19Z","tX":541,"tY":343,"tags":{"fee":"no","name":"Wohnmobilstellplatz am Kiessee","power_supply":"yes","sanitary_dump_station":"yes","toilets":"yes"}},"275257658":{"location":[50.8156408,10.2387519],"ct":"DE","tp":"CR","ts":"2025-01-16T02:00:53Z","tX":541,"tY":343,"tags":{"addr:city":"Bad Salzungen","addr:housenumber":"2","addr:postcode":"36433","addr:street":"Flößrasen","alt_name":"Erlebnisinsel Flößrasen","capacity":"80","capacity:caravans":"80","caravan_site":"motorhome_stopover","caravan_site:type":"swimming_pool","charge":"19 EUR","contact:email":"info@sole-reisemobilhafen.de","contact:phone":"+49 3695 6934-0","description":"Gut angelegt aber WLAN funktioniert schlecht oder gar nicht. Strom über Token die in der Rezeption oder in der Therme erhältlich sind.","fee":"yes","internet_access":"wlan","internet_access:fee":"customers","name":"Sole Reisemobilhafen","operator":"Sole - Heilbad Kurverwaltungsgesellschaft mbH","power_supply":"yes","power_supply:charge":"2 EUR/2kWh","power_supply:fee":"yes","reservation":"no","sanitary_dump_station":"yes","tents":"no","toilets":"no","water_point":"yes","water_point:charge":"1 EUR/80 liter","water_point:fee":"yes","website":"https://sole-reisemobilhafen.de/","wheelchair":"limited"}},"292718013":{"location":[50.802584,10.4958],"ct":"DE","tp":"CR","ts":"2024-03-19T16:27:03Z","tX":541,"tY":343,"tags":{"capacity":"8","caravans":"no","contact:phone":"+49 3683 408848","fee":"yes","internet_access":"wlan","name":"Reisemobilstellplatz im Schneidmühlengrund","operator":"Gemeinde Floh-Seligenthal","power_supply":"yes","sanitary_dump_station":"yes","sanitary_dump_station:chemical_toilet":"yes","water_point":"yes","website":"https://floh-seligenthal.de/gastgeber/caravanstellplatz-im-schneidmuehlengrund/","wheelchair":"yes"}},"779022003":{"location":[50.8779893,10.5200798],"ct":"DE","tp":"CR","ts":"2010-06-21T09:48:24Z","tX":541,"tY":343,"tags":{"capacity":"4","name":"Caravanstellplatz"}},"783278221":{"location":[50.858913,10.3845994],"ct":"DE","tp":"CR","ts":"2024-11-05T10:32:46Z","tX":541,"tY":343,"tags":{"addr:city":"Bad Liebenstein","addr:country":"DE","addr:housenumber":"1","addr:postcode":"36448","addr:street":"Wallfahrt","addr:suburb":"Steinbach","capacity":"6","internet_access":"no","name":"Wohnmobilstellplatz Wallfahrt","power_supply":"yes","sanitary_dump_station":"yes","surface":"gravel","website":"https://www.alpacacamping.de/properties/9052"}},"817842115":{"location":[50.9166266,10.4161163],"ct":"DE","tp":"CR","ts":"2020-06-20T13:07:53Z","tX":541,"tY":343,"tags":{}},"1052310703":{"location":[50.8436143,10.3626805],"ct":"DE","tp":"PK","ts":"2025-01-10T14:16:46Z","tX":541,"tY":343,"tags":{"motorhome":"yes","parking":"surface","wheelchair":"limited"}},"1068303725":{"location":[50.7801971,10.5280359],"ct":"DE","tp":"CS","ts":"2022-12-21T17:18:02Z","tX":541,"tY":343,"tags":{"addr:city":"Floh-Seligenthal","addr:country":"DE","addr:housenumber":"7","addr:postcode":"98593","addr:street":"Ebertswiese","addr:suburb":"Floh","barrier":"fence","caravans":"yes","chalets":"yes","contact:email":"info@ferienparkebertswiese.de","contact:phone":"+4915155715796","contact:website":"https://www.ferienparkebertswiese.de/de/","name":"Ferienpark Ebertswiese","operator":"Familie Harmsma van Laar","permanent_camping":"no","tents":"yes"}},"1290922127":{"location":[50.7981807,10.4218453],"ct":"DE","tp":"CR","ts":"2025-01-10T14:54:23Z","tX":541,"tY":343,"tags":{"caravan_site":"motorhome_stopover","caravan_site:type":"theme_park","fee":"yes","name":"Klangpfad Trusepark Wohnmobilstellplatz","sanitary_dump_station":"yes","water_point":"yes"}},"1303699913":{"location":[50.8846913,10.4540154],"ct":"DE","tp":"CR","ts":"2025-03-19T01:14:37Z","tX":541,"tY":343,"tags":{"caravan_site":"motorhome_stopover","caravan_site:type":"village","fee":"no","name":"Stellplatz Winterstein","power_supply":"no","sanitary_dump_station":"no","surface":"asphalt","traffic_sign":"DE:314,1048-17","water_point":"no"}},"1330475911":{"location":[50.7428062,10.3235419],"ct":"DE","tp":"CR","ts":"2015-12-28T15:38:53Z","tX":541,"tY":343,"tags":{"capacity":"15","contact:email":"info@jagdhaus-seeblick.de","contact:phone":"+49 36848 2760","fee":"yes","name":"Reisemobilstellplatz Jagdhaus Seeblick","power_supply":"yes","sanitary_dump_station":"no","water_point":"no","website":"http://www.jagdhaus-seeblick.de/","wheelchair":"no"}},"1349972332":{"location":[50.9578494,10.4773902],"ct":"DE","tp":"CR","ts":"2025-01-10T12:37:00Z","tX":541,"tY":343,"tags":{"capacity":"5","caravan_site":"motorhome_stopover","caravan_site:type":"hiking","fee":"no","name":"Hörselberge","power_supply":"no","sanitary_dump_station":"no","surface":"grass_paver","water_point":"no"}},"1349988369":{"location":[50.8277928,10.3529419],"ct":"DE","tp":"CR","ts":"2025-01-30T13:55:47Z","tX":541,"tY":343,"tags":{"bbq":"no","caravan_site":"motorhome_stopover","caravan_site:type":"viewpoint","charge":"16.90 EUR","fee":"yes","name":"Dreieck Steinbach","network":"Alpaca Camping","power_supply":"no","sanitary_dump_station":"no","water_point":"no","website":"https://www.alpacacamping.de/properties/9058"}},"1349995751":{"location":[50.8781117,10.5194886],"ct":"DE","tp":"CR","ts":"2025-01-10T15:02:06Z","tX":541,"tY":343,"tags":{"capacity":"15","caravan_site":"motorhome_stopover","caravan_site:type":"swimming_pool","charge":"18 EUR","charge:conditional":"20 EUR @ (length>8m)","email":"womo_stellplatz.bad_tabarz@yahoo.com","fee":"yes","name":"Womo-Stellplatz Bad Tabarz","phone":"+49 176 24806941","power_supply":"yes","power_supply:charge":"3 EUR/day","power_supply:fee":"yes","sanitary_dump_station":"yes","seasonal":"no","shower":"yes","toilets":"yes","water_point":"yes","website":"https://www.bad-tabarz.de/unterkuenfte/womo-stellplatz-bad-tabarz"}},"1349997163":{"location":[50.762934,10.4151343],"ct":"DE","tp":"CR","ts":"2025-01-30T17:40:26Z","tX":541,"tY":343,"tags":{"capacity:caravans":"18","caravan_site":"motorhome_stopover","caravan_site:type":"camp_site","charge":"21 EUR","charge:conditional":"17 EUR @ (Nov-Mar)","fee":"yes","internet_access":"wlan","internet_access:fee":"no","name":"Campingplatz Nüßleshof Stellplatze","website":"https://campingplatz-nuessleshof.de/"}},"1350916245":{"location":[50.8226788,10.4532054],"ct":"DE","tp":"CR","ts":"2025-01-13T14:05:55Z","tX":541,"tY":343,"tags":{"caravan_site":"motorhome_stopover","caravan_site:type":"swimming_pool","caravans":"no","charge":"10 EUR","fee":"yes","maxstay":"28 days","name":"Wohnmobilstellplatz Inselbergbad Brotterode-Trusetal","power_supply":"yes","power_supply:charge":"2.50 EUR/24 hours","power_supply:fee":"yes","seasonal":"no","website":"https://brotterode-trusetal.de/Unterkunft/wohnmobilstellplatz-inselbergbad"}},"1495466760":{"location":[50.8157086,10.2289685],"ct":"DE","tp":"CR","ts":"2023-11-02T18:32:34Z","tX":541,"tY":343,"tags":{"addr:city":"Bad Salzungen","addr:postcode":"36433","addr:street":"Werrastraße","fee":"no","name":"WMP I Werrastraße","power_supply":"yes","sanitary_dump_station":"no","tents":"no","website":"https://www.badsalzungen.de/de/wohnmobile_basa.html","wheelchair":"yes"}},"2429435644":{"location":[50.7426787,10.2013824],"ct":"DE","tp":"CR","ts":"2025-01-09T17:22:12Z","tX":541,"tY":343,"tags":{"capacity":"12","caravan_site":"motorhome_stopover","caravan_site:type":"camp_site","charge":"21 EUR","email":"ordnung@vgs-dermbach.de","fee":"yes","internet_access":"no","name":"Stellplatz Urnshausen - Familienparadies Schönsee","opening_hours":"Apr-Oct","operator":"Gemeinde Urnshausen","phone":"+49 151 15852788","power_supply":"yes","sanitary_dump_station":"yes","website":"https://www.rhoenforum.de/tourismus-tipps/camping-reisemobil/sch%C3%B6nsee/"}},"3595140650":{"location":[50.7426096,10.2017827],"ct":"DE","tp":"SD","ts":"2024-07-14T13:21:24Z","tX":541,"tY":343,"tags":{"access":"customers","fee":"no","sanitary_dump_station:basin":"yes"}},"12047454312":{"location":[50.8881122,10.214638],"ct":"DE","tp":"CS","ts":"2025-02-08T13:20:27Z","tX":541,"tY":343,"tags":{"addr:city":"Gerstungen","addr:housenumber":"16","addr:postcode":"99834","addr:street":"Im Lindigshof","camp_site":"serviced","caravans":"yes","dog":"leashed","name":"Auszeit Lindigshof","operator":"Andrea Wölkner","power_supply":"yes","reservation":"yes","sanitary_dump_station":"yes","shower":"yes","static_caravans":"no","toilets":"yes","website":"http://www.auszeit-lindigshof.de"}},"9975043834":{"location":[50.7628757,10.4150383],"ct":"DE","tp":"CR","ts":"2022-08-24T14:25:32Z","tX":541,"tY":343,"tags":{"capacity:caravans":"18"}},"9680016891":{"location":[50.8155604,10.2376248],"ct":"DE","tp":"SD","ts":"2022-04-20T12:15:50Z","tX":541,"tY":343,"tags":{"access":"permit","description":"Zufahrt für zwei Reisemobile\nAbwasser über Bodeneinlass ebenso Toiletten - Wasser Entnahme mit 10 Cent ca 8-10 Ltr. 1€ 80-100 Ltr.\n\nFremdentsorgung Gebühr 2€","fee":"no","operator":"Wasser Entnahme mit 10 Cent ca 8-10 Ltr. 1€ 80-100 Ltr.","water_point":"yes"}}}