{"32000510":{"location":[50.5696116,10.4357821],"ct":"DE","tp":"CS","ts":"2023-07-30T10:19:40Z","tX":541,"tY":344,"tags":{"addr:street":"Rohrer Stirn","capacity:caravans":"30","capacity:tents":"15","caravans":"yes","motorhome":"yes","name":"Rohrer Stirn","opening_hours":"Apr 1 - Oct 31","operator":"Stadtwerke Meiningen","shower":"yes","tents":"yes","toilets":"yes","website":"https://www.stadtwerke-meiningen.de/freizeitbaeder/camping"}},"237264038":{"location":[50.5697137,10.4346374],"ct":"DE","tp":"CR","ts":"2019-05-14T07:59:10Z","tX":541,"tY":344,"tags":{"capacity":"6","fee":"no","name":"Reisemobilstellplatz Rohrer Stirn","operator":"Stadtwerke Meiningen","power_supply":"yes","tents":"no"}},"354861384":{"location":[50.7043793,10.212859],"ct":"DE","tp":"CS","ts":"2016-01-20T08:41:10Z","tX":541,"tY":344,"tags":{"name":"Camping Schloß Roßdorf"}},"402610166":{"location":[50.5702833,10.3045807],"ct":"DE","tp":"CR","ts":"2022-04-03T20:28:44Z","tX":541,"tY":344,"tags":{"addr:city":"Rhönblick","addr:postcode":"98617","addr:street":"Herpfer Straße","addr:suburb":"Seeba","capacity":"4","caravans":"yes","charge":"5 EUR","email":"stellplatz-seeba@gmx.de","fee":"yes","internet_access":"no","name":"Stellplatz Seeba","operator":"Ortschaft Seeba;Herr A. Morgenstern;Herpfer Str. 50","phone":"+49 36943 24725","power_supply":"cee_17_blue","sanitary_dump_station":"no","source":"local knowledge","tents":"yes","website":"https://spots.roadsurfer.com/de-de/shop/seeblick-seeba~p1354"}},"910621239":{"location":[50.6155326,10.389206],"ct":"DE","tp":"CR","ts":"2022-01-03T15:02:50Z","tX":541,"tY":344,"tags":{"capacity":"10","description":"Wohnmobilstellplatz in Walldorf/Werra am Radwegkreuz des Werratalradwegs mit dem Rhön-Rennsteig-Radweg","email":"walldorf@ortsteil.meiningen.de","fee":"no","internet_access":"no","operator":"Ortsteil Walldorf","power_supply":"no","sanitary_dump_station":"no"}},"977412412":{"location":[50.657967,10.3685874],"ct":"DE","tp":"CS","ts":"2021-08-28T19:31:22Z","tX":541,"tY":344,"tags":{"fee":"yes","name":"Zeltplatz an der Werra","operator":"Tourist-Information Wasungen"}},"2524797230":{"location":[50.589562,10.2710092],"ct":"DE","tp":"CR","ts":"2022-12-21T17:43:28Z","tX":541,"tY":344,"tags":{"capacity":"4","email":"kontakt@hohe-geba.de","fee":"yes","name":"Reisemobilstellplatz Hohe Geba","phone":"+49 36943 24702","power_supply":"yes","sanitary_dump_station":"yes","water_point":"yes","website":"https://www.rhoen.info/camping?detID=843"}},"2527113444":{"location":[50.6123074,10.4707902],"ct":"DE","tp":"CR","ts":"2023-04-11T06:04:20Z","tX":541,"tY":344,"tags":{"capacity":"20","contact:email":"info@flugschule-dolmar.de","contact:phone":"+49 172 8124344","contact:website":"https://flugschule-dolmar.de/","fee":"yes","internet_access":"no","name":"Flugschule Dolmar","operator":"Flugschule Dolmar","power_supply":"yes","wheelchair":"limited"}},"3720416546":{"location":[50.7148173,10.4683896],"ct":"DE","tp":"CR","ts":"2023-11-23T15:01:45Z","tX":541,"tY":344,"tags":{"addr:city":"Schmalkalden","addr:postcode":"98574","addr:street":"Am Schwimmbad","internet_access":"no","sanitary_dump_station":"no"}},"4331134457":{"location":[50.7203138,10.4388715],"ct":"DE","tp":"CR","ts":"2023-04-11T06:02:48Z","tX":541,"tY":344,"tags":{"capacity":"8","contact:email":"info@schmalkalden.de","contact:phone":"+49 3683 6097580","fee":"yes","name":"Stellplatz Am Westendpark","operator":"Stadt Schmalkalden","power_supply":"yes","sanitary_dump_station":"yes","tents":"no","water_point":"yes","website":"https://www.schmalkalden.com/gastgeber/reisemobil-parkplatz/","wheelchair":"yes"}},"9924654706":{"location":[50.5741038,10.4125634],"ct":"DE","tp":"CR","ts":"2022-08-01T12:23:53Z","tX":541,"tY":344,"tags":{}}}