{"52332360":{"location":[50.0753913,10.3892062],"ct":"DE","tp":"CS","ts":"2019-08-25T10:10:56Z","tX":541,"tY":346,"tags":{"addr:city":"Schonungen","addr:country":"DE","addr:housenumber":"4","addr:postcode":"97453","addr:street":"Bürgstraße","addr:suburb":"Abersfeld","caravans":"no","email":"info@djk-abersfeld.de","fax":"+49 9727 9079101","fixme":"location extrapolated","group_only":"yes","name":"Jugendzeltplatz Abersfeld","operator":"DJK Abersfeld","phone":"+49 9727 8903","scout":"yes","source":"website","tents":"yes","website":"http://www.jugendzeltplatz-abersfeld.de"}},"52332740":{"location":[50.1511872,10.3863449],"ct":"DE","tp":"CS","ts":"2023-04-30T22:50:06Z","tX":541,"tY":346,"tags":{"addr:city":"Stadtlauringen","addr:country":"DE","addr:housenumber":"1","addr:postcode":"97488","addr:street":"Birkenring","caravans":"yes","email":"info@camping-ellertshausen.de","fee":"yes","motorhome":"yes","name":"Campingplatz Ellertshäuser See","opening_hours":"Apr 1-Oct 31","phone":"+49 9724 9074538","power_supply":"yes","sanitary_dump_station":"yes","tents":"yes","website":"https://camping-ellertshausen.de/"}},"52333163":{"location":[50.2525952,10.4085875],"ct":"DE","tp":"CS","ts":"2024-10-25T09:49:48Z","tX":541,"tY":346,"tags":{"email":"camping@gemeindesulzfeld.de","name":"Campingplatz am Badesee","operator":"Gemeinde Sulzfeld","phone":"+49 9761 1402","website":"http://www.sulzfeld.rhoen-saale.net/Tourismus/Camping"}},"89641502":{"location":[50.2003672,10.3652356],"ct":"DE","tp":"CS","ts":"2023-10-30T15:46:33Z","tX":541,"tY":346,"tags":{"caravans":"no","email":"info@stadtlauringen.de","fax":"+49 9724 9104-50","group_only":"yes","name":"Jugendzeltplatz Lauergrund","operator":"Markt Stadtlauringen","phone":"+49 9724 9104-0","scout":"yes","smoking":"no","surface":"grass","tents":"yes","website":"https://www.stadtlauringen.de/"}},"235754869":{"location":[50.2566657,10.2087579],"ct":"DE","tp":"CS","ts":"2021-01-30T00:53:44Z","tX":541,"tY":346,"tags":{"caravans":"no","fee":"yes","group_only":"yes","name":"Jugendzeltplatz An der Zent","openfire":"yes","operator":"Landkreis Bad Kissingen","reservation":"required","tents":"yes","website":"https://www.landkreis-badkissingen.de"}},"304654870":{"location":[50.1419415,10.5177387],"ct":"DE","tp":"CR","ts":"2022-08-13T14:57:40Z","tX":541,"tY":346,"tags":{"capacity":"29","contact:mobile":"+49 160 1283151","fee":"yes","internet_access":"wlan","name":"Reisemobilstellplatz \"Am Freibad\"","power_supply":"yes","sanitary_dump_station":"yes","water_point":"yes","website":"https://stadt-hofheim.de/tourismus-freizeitgestaltung/wohnmobilstellplatz","wheelchair":"yes"}},"305990255":{"location":[50.1818524,10.460109],"ct":"DE","tp":"CS","ts":"2014-10-02T14:40:23Z","tX":541,"tY":346,"tags":{}},"1089867118":{"location":[50.1843387,10.2814083],"ct":"DE","tp":"CR","ts":"2025-01-07T23:40:06Z","tX":541,"tY":346,"tags":{"capacity":"8","caravan_site":"motorhome_stopover","caravan_site:type":"village","caravans":"no","fee":"no","internet_access":"wlan","internet_access:fee":"no","maxstay":"5 days","name":"Wohnmobilstellplatz Lauertalparkplatz - Maßbach","opening_hours":"24/7","operator":"Markt Maßbach","phone":"+49 170 1604337","power_supply":"yes","power_supply:charge":"1 EUR/KWh","power_supply:fee":"yes","sanitary_dump_station":"yes","surface":"asphalt","water_point":"yes","water_point:charge":"0.10 EUR/10 liter","water_point:fee":"yes","website":"https://www.massbach.de/tourismus/wohnmobilstellplatz/index.html"}},"9885553224":{"location":[50.0991757,10.2167222],"ct":"DE","tp":"CR","ts":"2025-01-07T23:31:31Z","tX":541,"tY":346,"tags":{"fee":"no","fixme":"might be closed","name":"Spielvereinigung Hambach Wohnmobilstellplatz","name:signed":"no","opening_hours":"24/7","operator":"Spielvereinigung 1933 Hambach e.V.","power_supply":"yes","reservation":"no","sanitary_dump_station":"no","seasonal":"no","tents":"no","wheelchair":"limited"}},"11203514390":{"location":[50.1049675,10.2071481],"ct":"DE","tp":"CR","ts":"2025-01-07T23:31:31Z","tX":541,"tY":346,"tags":{"capacity":"1","caravan_site":"motorhome_stopover","caravan_site:type":"farm_shop","fee":"no","maxstay":"24 hours","name":"Bauernhof Reck Wohnmobilstellplatz","network":"Landvergnügen"}},"4433403174":{"location":[50.1418831,10.5183569],"ct":"DE","tp":"SD","ts":"2018-01-21T14:20:22Z","tX":541,"tY":346,"tags":{"sanitary_dump_station:chemical_toilet":"yes","sanitary_dump_station:grey_water":"yes"}},"9983421676":{"location":[50.1842276,10.2812941],"ct":"DE","tp":"SD","ts":"2025-01-07T23:40:06Z","tX":541,"tY":346,"tags":{"fee":"no","sanitary_dump_station:basin":"yes","sanitary_dump_station:chemical_toilet":"yes","sanitary_dump_station:gravity":"yes","sanitary_dump_station:grey_water":"yes"}},"9983421678":{"location":[50.1842276,10.2812941],"ct":"DE","tp":"SD","ts":"2022-08-28T13:55:39Z","tX":541,"tY":346,"tags":{"fee":"no","sanitary_dump_station:gravity":"yes","sanitary_dump_station:grey_water":"yes"}}}