{"38045248":{"location":[50.0305994,10.5013864],"ct":"DE","tp":"CR","ts":"2024-03-11T08:47:49Z","tX":541,"tY":347,"tags":{"charge":"9€","fee":"yes","name":"Stellplatz Am Gries","power_supply":"yes","sanitary_dump_station":"yes","water_point":"yes","website":"https://hassfurt.de/tourismus-freizeit-und-kultur/tourismus/reisemobilstellplatz/"}},"42919301":{"location":[49.8683617,10.2153099],"ct":"DE","tp":"CS","ts":"2023-04-15T16:14:45Z","tX":541,"tY":347,"tags":{"addr:city":"Volkach","addr:housenumber":"7","addr:postcode":"97332","addr:street":"Fahrer Straße","caravans":"yes","email":"info@campingplatz-ankergrund.de","name":"Campingplatz Ankergrund","phone":"+49 9381 6713","shower":"yes","tents":"yes","toilets":"yes","website":"https://www.campingplatz-ankergrund.de/"}},"43394394":{"location":[49.8635212,10.2216394],"ct":"DE","tp":"CR","ts":"2024-05-15T22:52:27Z","tX":541,"tY":347,"tags":{"addr:city":"Volkach","addr:postcode":"97332","addr:street":"Mainstraße","capacity":"30","capacity:caravans":"23","caravan_site":"motorhome_stopover","caravan_site:type":"river","charge":"10€","email":"tourismus@volkach.de","fee":"yes","maxstay":"72 hours","name":"Reisemobilstellplatz Mainlände","note":"Entsorgung am Freibad","operator":"Stadt Volkach","phone":"+49 9381 40112","power_supply":"no","sanitary_dump_station":"no"}},"52331656":{"location":[50.0279786,10.2506977],"ct":"DE","tp":"CS","ts":"2023-11-20T22:59:11Z","tX":541,"tY":347,"tags":{"addr:city":"Sennfeld","addr:country":"DE","addr:housenumber":"6","addr:postcode":"97526","addr:street":"Am Tännig","mobile":"+49 152 25733122","name":"Campingplatz Naturfreunde Sennfeld","operator":"NaturFreunde Sennfeld","source":"website"}},"90645781":{"location":[50.01697,10.5258949],"ct":"DE","tp":"CS","ts":"2021-01-23T22:25:01Z","tX":541,"tY":347,"tags":{}},"160140107":{"location":[50.0086382,10.202659],"ct":"DE","tp":"CR","ts":"2024-05-16T11:55:05Z","tX":541,"tY":347,"tags":{"addr:city":"Grafenrheinfeld","addr:postcode":"97506","addr:street":"Hermasweg","capacity":"9","caravan_site":"motorhome_stopover","caravan_site:type":"lake","caravans":"no","charge":"6.00 EUR/1 day","email":"gemeinde@grafenrheinfeld.de","fee":"yes","maxstay":"6 days","name":"Wohnmobilstellplatz Hermasweg","object:city":"Grafenrheinfeld","object:postcode":"97506","object:street":"Hermasweg","operator":"Gemeinde Grafenrheinfeld","payment:coins":"yes","phone":"+49 9723 913329","power_supply":"yes","sanitary_dump_station":"yes","tents":"no","water_point":"yes","website":"https://www.grafenrheinfeld.de/kultur-freizeit/essen_schlafen/unsere-stellplaetze/"}},"244529801":{"location":[49.9020454,10.3823724],"ct":"DE","tp":"CS","ts":"2013-11-03T10:47:10Z","tX":541,"tY":347,"tags":{}},"260789828":{"location":[50.0165367,10.4477933],"ct":"DE","tp":"CS","ts":"2017-10-04T00:13:16Z","tX":541,"tY":347,"tags":{"internet_access":"no","internet_access:fee":"no","name":"Zeltplatz Obertheres"}},"269662294":{"location":[50.0632292,10.1980239],"ct":"DE","tp":"CS","ts":"2022-04-18T20:36:41Z","tX":541,"tY":347,"tags":{"addr:city":"Schweinfurt","addr:country":"DE","addr:housenumber":"3","addr:postcode":"97424","addr:street":"Gretel-Baumbach-Straße","barrier":"fence","capacity":"80","caravans":"yes","description":"Zelte nicht (mehr) erlaubt, nur Wohnmobil/Wohnwagen","email":"info@stadtcamping-sw.de","maxweight":"3.5","name":"Stadtcamping Schweinfurt","phone":"+49 9721 4998060","tents":"no","website":"http://www.stadtcamping-sw.de/"}},"295728819":{"location":[50.0384,10.234187],"ct":"DE","tp":"CR","ts":"2024-08-03T13:22:44Z","tX":541,"tY":347,"tags":{"access":"permit","addr:city":"Schweinfurt","addr:country":"DE","addr:postcode":"97424","addr:street":"Hutrasen","capacity":"21","caravans":"no","description":"Gebühr gestaffelt nach Aufenthaltsdauer und Personenanzahl bezahlbar beim Platzwart (Mo-So 19:00-21:00 Uhr) - Strom 50 Cent pro kWh","dog":"yes","email":"info@caravan-thein.de","fax":"+49 9721 87361","fee":"yes","name":"Wohnmobilpark Saumain","operator":"Wolfgang Thein GmbH","payment:app":"yes","payment:parkster":"yes","payment:paypal":"yes","phone":"+49 9721 87153","power_supply":"yes","sanitary_dump_station":"yes","water_point":"yes","website":"http://www.wohnmobilpark-saumain.de/"}},"432383430":{"location":[49.9872331,10.216081],"ct":"DE","tp":"CR","ts":"2023-04-01T17:48:18Z","tX":541,"tY":347,"tags":{"capacity":"4","description":"Ver- und Entsorgung in Schwebheim, Gottlieb Daimler Straße 3, bei Fa. Alde","fee":"no","internet_access":"no","operator":"Gemeinde Röthlein","power_supply":"no","sanitary_dump_station":"no","water_point":"no","website":"https://www.roethlein.de/index_main.php?unid=3036&websiteid=default&highlightquery=wohnmobil&PHPSESSID=e737424c73c5145829b28341fa4460cb"}},"670950607":{"location":[49.8444172,10.4813091],"ct":"DE","tp":"CS","ts":"2023-11-09T03:13:28Z","tX":541,"tY":347,"tags":{"addr:city":"Ebrach","addr:country":"DE","addr:housenumber":"21","addr:postcode":"96157","addr:street":"Schwimmbadweg","cabins":"yes","caravans":"yes","dog":"yes","email":"weihersee@t-online.de","mobile":"+49 175 7854814","name":"Campingplatz Weihersee","phone":"+49 9553 9890579","power_supply":"yes","shower":"yes","tents":"yes","toilets":"yes","website":"https://www.weihersee.de/"}},"710316100":{"location":[50.0259884,10.5162375],"ct":"DE","tp":"CR","ts":"2023-12-04T13:26:08Z","tX":541,"tY":347,"tags":{"addr:city":"Haßfurt","addr:housenumber":"6","addr:postcode":"97437","addr:street":"Am Hafen","capacity":"25","email":"info@naturfreunde-hassfurt.de","fee":"yes","internet_access":"wlan","mobile":"+ 49 (0) 175 7240039","motorhome":"yes","name":"Naturfreunde Haßfurt e.V.","operator":"Naturfreunde Deutschlands Ortsgruppe Haßfurt e.V.","power_supply":"yes","sanitary_dump_station":"yes","shower":"yes","tents":"yes","toilets":"yes","water_point":"yes","website":"https://naturfreunde-hassfurt.de/"}},"2586396014":{"location":[49.8993777,10.3602997],"ct":"DE","tp":"CR","ts":"2024-09-11T16:16:44Z","tX":541,"tY":347,"tags":{"capacity":"7","email":"info@gerolzhofen.de","fee":"no","name":"Reisemobilstellplatz Badeparadies Geomaris (P1)","operator":"Stadt Gerolzhofen","phone":"+49 9382 903512","power_supply":"no"}},"2586396017":{"location":[49.8984072,10.3506381],"ct":"DE","tp":"CR","ts":"2021-11-02T11:50:28Z","tX":541,"tY":347,"tags":{"capacity":"7","email":"info@gerolzhofen.de","fee":"no","internet_access":"no","name":"Reisemobilstellplatz an der Volkach (P3)","operator":"Stadt Gerolzhofen","phone":"+49 9382 903512","power_supply":"yes"}},"3451374025":{"location":[50.0590859,10.3288577],"ct":"DE","tp":"CS","ts":"2017-10-19T23:05:37Z","tX":541,"tY":347,"tags":{"operator":"Familien-Sportgemeinschaft Mainland Schweinfurt e.V."}},"3720537993":{"location":[50.0456672,10.2466192],"ct":"DE","tp":"CS","ts":"2019-03-09T11:46:05Z","tX":541,"tY":347,"tags":{"email":"kenterass@kabelmail.de","name":"DJK Schweinfurt","note":"nur DKV-Mitglieder","phone":"+49 9721 33082","website":"https://djk-kanu.de/bootshaus.html"}},"4142796896":{"location":[49.8682464,10.2220206],"ct":"DE","tp":"SD","ts":"2018-11-03T00:44:18Z","tX":541,"tY":347,"tags":{"access":"yes","fee":"no","name":"Holiday Clean","note":"1€ Münze oder Wertmarke für Frischwasser","operator":"Stadt Volkach","toilets:disposal":"chemical","water_point":"yes"}},"5916226486":{"location":[49.9633064,10.4559659],"ct":"DE","tp":"CS","ts":"2020-10-10T13:50:49Z","tX":541,"tY":347,"tags":{"caravans":"yes","name":"Schmittnhof","shower":"yes","tents":"yes","toilets":"yes","website":"https://schmittn-hof.de"}},"6282763272":{"location":[49.913375,10.464478],"ct":"DE","tp":"CS","ts":"2021-01-03T22:52:48Z","tX":541,"tY":347,"tags":{"backcountry":"yes","capacity:persons":"10","caravans":"no","fee":"yes","maxstay":"1 day","name":"Katzentännig, Hundelshausen","openfire":"yes","opening_hours":"Apr 1-Oct 31","ref":"10","reservation":"required","shower":"no","tents":"yes","website":"https://www.trekkingerlebnis.de/plaetze-und-buchung.html?ppp_resfilter=124236"}},"6282763273":{"location":[49.881722,10.502758],"ct":"DE","tp":"CS","ts":"2021-01-03T22:52:48Z","tX":541,"tY":347,"tags":{"backcountry":"yes","capacity:persons":"10","caravans":"no","fee":"yes","maxstay":"1 day","name":"Geusfeld, Rauhenebrach","openfire":"yes","opening_hours":"Apr 1-Oct 31","ref":"9","reservation":"required","shower":"no","tents":"yes","website":"https://www.trekkingerlebnis.de/plaetze-und-buchung.html?ppp_resfilter=123889"}},"6282763276":{"location":[49.961233,10.534279],"ct":"DE","tp":"CS","ts":"2021-01-03T22:52:48Z","tX":541,"tY":347,"tags":{"backcountry":"yes","capacity:persons":"10","caravans":"no","fee":"yes","maxstay":"1 day","name":"Hainach, Oberschwappach","openfire":"yes","opening_hours":"Apr 1-Oct 31","ref":"6","reservation":"required","shower":"no","tents":"yes","website":"https://www.trekkingerlebnis.de/plaetze-und-buchung.html?ppp_resfilter=123886"}},"6282763277":{"location":[49.857023,10.454092],"ct":"DE","tp":"CS","ts":"2021-01-03T22:52:48Z","tX":541,"tY":347,"tags":{"backcountry":"yes","capacity:persons":"10","caravans":"no","fee":"yes","maxstay":"1 day","name":"Radstein / Taubensee, Oberschwarzach","openfire":"yes","opening_hours":"Apr 1-Oct 31","ref":"4","reservation":"required","shower":"no","tents":"yes","website":"https://www.trekkingerlebnis.de/plaetze-und-buchung.html?ppp_resfilter=123883"}},"5760705855":{"location":[49.8654199,10.2175365],"ct":"DE","tp":"CR","ts":"2019-09-26T15:58:57Z","tX":541,"tY":347,"tags":{"fee":"yes"}},"4513848104":{"location":[50.0222156,10.2166453],"ct":"DE","tp":"SD","ts":"2024-09-03T18:20:40Z","tX":541,"tY":347,"tags":{"access":"yes","charge":"0.50 EUR","fee":"yes","name":"Sani Station","water_point":"yes"}},"5373017325":{"location":[50.0386087,10.2350741],"ct":"DE","tp":"SD","ts":"2021-09-30T09:01:36Z","tX":541,"tY":347,"tags":{"access":"customers","description":"Frischwasser 10 Cent 8 Ltr., 1€ 80 Ltr.","fee":"yes","manufacturer":"Holiday Clean","payment:coins":"only","water_point":"yes"}},"6677573613":{"location":[50.0262341,10.5164903],"ct":"DE","tp":"SD","ts":"2024-03-10T15:30:03Z","tX":541,"tY":347,"tags":{"fee":"yes"}},"6824385421":{"location":[49.9873035,10.2255357],"ct":"DE","tp":"SD","ts":"2019-09-26T02:14:41Z","tX":541,"tY":347,"tags":{}},"9680089029":{"location":[50.0081436,10.2030012],"ct":"DE","tp":"SD","ts":"2023-07-16T13:31:41Z","tX":541,"tY":347,"tags":{"fee":"no","note":"Wasser auch in Kleinmengen am Ticketautomat","water_point":"yes"}},"12100423800":{"location":[49.8986291,10.3513433],"ct":"DE","tp":"SD","ts":"2024-10-08T10:50:31Z","tX":541,"tY":347,"tags":{"description":"Frischwasser auch in Kleinmengen","name":"Holiday Clean"}}}