{"14383217":{"location":[49.6742904,10.4618074],"ct":"DE","tp":"CR","ts":"2024-06-28T15:27:45Z","tX":541,"tY":348,"tags":{"addr:city":"Scheinfeld","addr:housenumber":"6","addr:postcode":"91443","addr:street":"Badstraße","capacity":"12","contact:email":"info@camping-scheinfeld.de","contact:phone":"+49 9162 988748","fee":"yes","name":"Wohnmobil-Stellplatz Scheinfeld","operator":"Stadtwerke Scheinfeld","power_supply":"yes","sanitary_dump_station":"yes","tents":"yes","water_point":"yes","website":"https://camping-scheinfeld.de/"}},"14383390":{"location":[49.6729768,10.4581463],"ct":"DE","tp":"CR","ts":"2022-07-24T19:37:42Z","tX":541,"tY":348,"tags":{}},"16230448":{"location":[49.723477,10.3562426],"ct":"DE","tp":"CS","ts":"2023-08-22T12:54:56Z","tX":541,"tY":348,"tags":{"capacity:persons":"100","caravans":"no","group_only":"yes","name":"Jugendzeltplatz Christelried","tents":"yes"}},"16475125":{"location":[49.738784,10.4187792],"ct":"DE","tp":"CS","ts":"2023-10-12T09:56:31Z","tX":541,"tY":348,"tags":{"caravans":"no","group_only":"yes","name":"Jugendzeltplatz Herper","tents":"yes"}},"37341900":{"location":[49.8031634,10.2184622],"ct":"DE","tp":"CS","ts":"2024-02-06T12:05:28Z","tX":541,"tY":348,"tags":{"addr:city":"Schwarzach am Main","addr:country":"DE","addr:housenumber":"2","addr:postcode":"97359","addr:street":"Mainstraße","addr:suburb":"Schwarzenau","caravans":"yes","email":"camping.mainblick@t-online.de","fax":"+49 9324 3674","name":"Campingplatz Mainblick","operator":"Joachim Gerbig","phone":"+49 9324 605","sanitary_dump_station":"yes","tents":"yes","website":"https://www.camping-mainblick.de/","wheelchair":"yes"}},"200655349":{"location":[49.825036,10.2016161],"ct":"DE","tp":"CS","ts":"2023-04-29T16:30:05Z","tX":541,"tY":348,"tags":{"access":"customers","addr:city":"Sommerach","addr:country":"DE","addr:housenumber":"7","addr:postcode":"97334","addr:street":"Am See","caravans":"yes","description":"Offen April bis Oktober","fee":"yes","name":"Camping Katzenkopf","operator":"Andreas und Brigitte Kroll","phone":"+49 9381 9215","power_supply":"yes","shower":"yes","website":"https://www.camping-katzenkopf.de/"}},"425800416":{"location":[49.7475882,10.3524456],"ct":"DE","tp":"CR","ts":"2018-10-01T16:50:39Z","tX":541,"tY":348,"tags":{"capacity":"5","contact:phone":"+49 9325 401","fee":"no","power_supply":"no","sanitary_dump_station":"no","water_point":"no","website":"http://www.castell-gemeinde.de/tourismus/wandern-und-freizeit/31021.Wohnmobilstellplatz.html"}},"439241436":{"location":[49.7026859,10.2642057],"ct":"DE","tp":"CR","ts":"2023-09-17T08:52:14Z","tX":541,"tY":348,"tags":{"capacity":"10","contact:email":"tourist@iphofen.de","contact:phone":"+49 9323 870306","fee":"no","internet_access":"wlan","maxstay":"3 days","name":"Wohnmobilstellplatz am Einersheimer Tor","operator":"Stadt Iphofen","power_supply":"yes","sanitary_dump_station":"yes","toilets":"yes","water_point":"yes","website":"https://www.iphofen.de/urlaub/gastgeber/wohnmobilstellplaetze.html","wheelchair":"yes"}},"445453509":{"location":[49.8168427,10.3514398],"ct":"DE","tp":"CR","ts":"2024-03-11T09:26:18Z","tX":541,"tY":348,"tags":{"capacity":"4","charge":"7.5€","fee":"yes","note":"WoMo Stellplatz","operator":"Gemeinde Prichsenstadt","sanitary_dump_station":"no"}},"629546698":{"location":[49.7721608,10.3782215],"ct":"DE","tp":"CR","ts":"2024-05-16T12:02:56Z","tX":541,"tY":348,"tags":{"caravan_site":"motorhome_stopover","caravan_site:type":"swimming_pool","fee":"no","name":"Wohnmobilstellplatz Abtswinder Schwimmbad","toilets":"no","website":"https://www.fraenkisches-weinland.de/unterkunft/wohnmobilstellplatz_am_freibad-506/"}},"762449769":{"location":[49.7668887,10.5144037],"ct":"DE","tp":"CS","ts":"2020-01-11T12:11:56Z","tX":541,"tY":348,"tags":{"capacity":"120","fee":"yes","group_only":"yes","name":"Jugendzeltplatz Hutzelmühle","operator":"Kreisjugendring Kitzingen","website":"https://www.kjr-kitzingen.de/index.php/beschreibung.html"}},"762450880":{"location":[49.7809846,10.4495257],"ct":"DE","tp":"CS","ts":"2020-01-11T12:16:21Z","tX":541,"tY":348,"tags":{"email":"bauer@kvkitzingen.brk.de","group_only":"yes","name":"Jugendzeltplatz Datscha","operator":"BRK Kreisverband Kitzingen","website":"https://www.kvkitzingen.brk.de/angebote/kinder-jugend-und-familie/zeltplatz-datscha.html"}},"779362058":{"location":[49.8246946,10.2076877],"ct":"DE","tp":"CR","ts":"2024-05-04T14:05:45Z","tX":541,"tY":348,"tags":{"addr:city":"Sommerach","addr:country":"DE","addr:postcode":"97334","addr:street":"Gartenstraße","capacity":"22","charge":"12€ Winter 15 Sommer","description":"Bezahlung am Automat","fee":"yes","power_supply":"yes","sanitary_dump_station":"yes"}},"1364256391":{"location":[49.711547,10.2203572],"ct":"DE","tp":"CR","ts":"2018-09-06T12:09:48Z","tX":541,"tY":348,"tags":{"fee":"no","power_supply":"yes","sanitary_dump_station":"yes","sanitary_dump_station:gravity":"yes","water_point":"yes","website":"https://mainbernheim.de/page/?p=214"}},"6282763278":{"location":[49.795203,10.534175],"ct":"DE","tp":"CS","ts":"2023-12-31T11:36:46Z","tX":541,"tY":348,"tags":{"backcountry":"yes","capacity:persons":"10","caravans":"no","fee":"yes","maxstay":"1 day","name":"Klinge, Winkelhof","openfire":"yes","opening_hours":"Apr 1-Oct 31","payment:credit_cards":"yes","payment:paypal":"yes","payment:sofort":"yes","ref":"2","reservation":"required","shower":"no","tents":"yes","website":"https://trekkingerlebnis.de/plaetzeundbuchung/"}},"9163264153":{"location":[49.7174928,10.2442726],"ct":"DE","tp":"CR","ts":"2021-10-10T19:31:27Z","tX":541,"tY":348,"tags":{"capacity":"10","fee":"yes","operator":"Weingut Hemberger","power_supply":"yes","sanitary_dump_station":"yes"}},"4367950385":{"location":[49.7023824,10.2643215],"ct":"DE","tp":"SD","ts":"2023-06-15T15:14:24Z","tX":541,"tY":348,"tags":{"access":"yes","operator":"Stadt Iphofen","sanitary_dump_station:gravity":"yes","sanitary_dump_station:grey_water":"yes"}},"6617829396":{"location":[49.8030088,10.2169586],"ct":"DE","tp":"SD","ts":"2020-04-24T09:35:32Z","tX":541,"tY":348,"tags":{}},"10979117467":{"location":[49.702371,10.2643459],"ct":"DE","tp":"SD","ts":"2023-06-15T15:14:24Z","tX":541,"tY":348,"tags":{"description":"Holiday Clean Anlage zur Ver und Entsorgung","operator":"Stadt Iphofen","sanitary_dump_station:basin":"yes","water_point":"yes"}},"11903239306":{"location":[49.8249361,10.2076138],"ct":"DE","tp":"SD","ts":"2024-05-14T07:13:15Z","tX":541,"tY":348,"tags":{"name":"CleanStar Kassette","note":"Entsorgung nur mit Gültigen Parkschein"}}}