{"27412407":{"location":[49.3470817,10.3219442],"ct":"DE","tp":"CS","ts":"2024-10-26T18:03:44Z","tX":541,"tY":350,"tags":{"access":"customers","addr:city":"Geslau","addr:country":"DE","addr:housenumber":"2","addr:place":"Lauterbach","addr:postcode":"91608","caravans":"yes","contact:email":"info@mohrenhof-franken.de","contact:fax":"+49 9867 979344","contact:phone":"+49 9867 978609","contact:website":"https://www.mohrenhof-franken.de/","drinking_water":"yes","fee":"yes","name":"Mohrenhof Franken","operator":"Freizeitparadies Mohrenhof GmbH & Co. KG","power_supply":"yes","sanitary_dump_station":"yes","shower":"yes","source":"Datenquelle: Bayerische Vermessungsverwaltung – www.geodaten.bayern.de","static_caravans":"yes","tents":"yes","toilets":"yes"}},"29260500":{"location":[49.2732285,10.2655385],"ct":"DE","tp":"CS","ts":"2024-07-09T20:53:33Z","tX":541,"tY":350,"tags":{"addr:city":"Schillingsfürst","addr:housenumber":"2","addr:place":"Fischhaus","addr:postcode":"91583","caravans":"yes","internet_access":"wlan","internet_access:fee":"yes","name":"Campingplatz Frankenhöhe","nudism":"no","phone":"+49 9868 5111","sanitary_dump_station":"customers","shower":"yes","tents":"yes","toilets":"yes","website":"https://www.campingplatz-frankenhoehe.de/"}},"94692819":{"location":[49.2567091,10.2242085],"ct":"DE","tp":"CS","ts":"2023-11-01T22:09:18Z","tX":541,"tY":350,"tags":{"caravans":"no","fee":"yes","group_only":"yes","name":"Jugendzeltplatz Am Heinerberg","operator":"Gemeinde Wörnitz","reservation":"required","tents":"yes","website":"https://www.woernitz.de/index.php?id=503"}},"358584126":{"location":[49.1705123,10.2403971],"ct":"DE","tp":"CR","ts":"2019-02-01T10:14:00Z","tX":541,"tY":350,"tags":{"power_supply":"yes","tents":"no"}},"976023611":{"location":[49.1634457,10.3981454],"ct":"DE","tp":"CR","ts":"2023-01-21T16:53:00Z","tX":541,"tY":350,"tags":{"capacity":"5","contact:phone":"+49 9855 9797-0","fee":"yes","power_supply":"yes","sanitary_dump_station:gravity":"yes","water_point":"yes","website":"https://www.braeutigam-pension.de/de/wohnmobil.html"}},"1191259987":{"location":[49.1612426,10.3272211],"ct":"DE","tp":"CR","ts":"2024-05-03T07:50:21Z","tX":541,"tY":350,"tags":{"addr:city":"Feuchtwangen","addr:country":"DE","addr:postcode":"91555","addr:street":"Dinkelsbühler Straße","capacity":"7","fee":"no","name":"Wohnmobilstellplatz \"Schleifweiher\"","operator":"Stadt Feuchtwangen","power_supply":"yes","sanitary_dump_station":"no","sanitary_dump_station:fee":"yes","source":"http://www.tourismus-feuchtwangen.de/"}},"1490956810":{"location":[49.3225381,10.369212],"ct":"DE","tp":"CS","ts":"2020-03-13T10:29:18Z","tX":541,"tY":350,"tags":{"caravans":"no","group_only":"yes","name":"Pfetzendorfer Weiher","openfire":"yes","operator":"Stadt Leutershausen","tents":"yes","website":"https://www.leutershausen.de","wheelchair":"limited"}},"1825156279":{"location":[49.2315672,10.4955577],"ct":"DE","tp":"CR","ts":"2023-08-23T10:53:41Z","tX":541,"tY":350,"tags":{"fee":"no","fee:conditional":"yes @ (stay > 3 days)","internet_access":"no","name":"Stellplatz Herrieden","power_supply":"yes","sanitary_dump_station":"no","shower":"no","tents":"no","toilets":"no"}},"2951115219":{"location":[49.2971219,10.409757],"ct":"DE","tp":"CR","ts":"2014-07-06T16:02:17Z","tX":541,"tY":350,"tags":{}},"11197682302":{"location":[49.3449545,10.3239258],"ct":"DE","tp":"SD","ts":"2024-10-26T15:01:40Z","tX":541,"tY":350,"tags":{"access":"customers","fee":"no","sanitary_dump_station:basin":"yes","sanitary_dump_station:round_drain":"yes"}},"12290466624":{"location":[49.3462128,10.3202597],"ct":"DE","tp":"SD","ts":"2024-10-26T18:38:51Z","tX":541,"tY":350,"tags":{"fee":"yes","operator":"CamperClean"}}}