{"136139966":{"location":[49.0809618,10.3340931],"ct":"DE","tp":"CS","ts":"2023-09-12T14:46:31Z","tX":541,"tY":351,"tags":{"fenced":"yes","name":"Seecamping Dinkelsbühl","website":"http://www.campingplatz-dinkelsbuehl.de/"}},"136882489":{"location":[48.982656,10.223317],"ct":"DE","tp":"CS","ts":"2015-12-27T12:42:25Z","tX":541,"tY":351,"tags":{"email":"info@campingplatz-seestueble.de","fax":"+49 7965 8020004","name":"Campingplatz Seestüble","operator":"Dieter Pfisterer","phone":"+49 7965 587","tents":"yes","website":"http://www.campingplatz-seestueble.de"}},"167687228":{"location":[48.9749936,10.252801],"ct":"DE","tp":"CS","ts":"2018-11-27T12:38:02Z","tX":541,"tY":351,"tags":{"addr:city":"Ellwangen (Jagst)","addr:housenumber":"1","addr:postcode":"73479","addr:street":"Am Sonnenbach","caravans":"yes","name":"Campingplatz Am Sonnenbach","phone":"+49 7964 1232","power_supply":"yes","tents":"yes","washing_machine":"yes","website":"http://www.sonnenbach-camping.de"}},"167687231":{"location":[48.9744434,10.2502746],"ct":"DE","tp":"CS","ts":"2022-01-01T16:47:27Z","tX":541,"tY":351,"tags":{"addr:city":"Ellwangen (Jagst)","addr:housenumber":"1","addr:postcode":"73479","addr:street":"Sonnenhof","caravans":"yes","name":"Campingplatz Sonnenhof","phone":"+49 7964 566","power_supply":"yes","shower":"yes","tents":"yes","washing_machine":"yes","website":"http://www.camping-sonnenhof.de/"}},"256829594":{"location":[48.9872526,10.2236374],"ct":"DE","tp":"CS","ts":"2023-09-18T05:49:02Z","tX":541,"tY":351,"tags":{"capacity":"140","fee":"yes","name":"Campingplatz Waldeck","operator":"Fam. Uhl/Weiß","phone":"+49 7962 2714","website":"http://www.campingplatz-waldeck.de/"}},"256829609":{"location":[48.9874727,10.2267873],"ct":"DE","tp":"CS","ts":"2023-11-02T18:12:20Z","tX":541,"tY":351,"tags":{"addr:city":"Ellenberg","addr:housenumber":"6","addr:place":"Häsle","addr:postcode":"73488","caravans":"yes","name":"Campingplatz Häsle","operator":"Fam. Hammele","phone":"+49 7965 359","tents":"yes","website":"https://www.camping-haesle.de/"}},"307263882":{"location":[49.1357521,10.479849],"ct":"DE","tp":"CS","ts":"2024-10-03T20:19:57Z","tX":541,"tY":351,"tags":{"addr:city":"Burk","addr:postcode":"91596","addr:street":"Wiesether Straße","caravans":"yes","impromptu":"yes","name":"Festplatz","note":"Mehrzweckplatz, Anmeldung in der Gemeindeverwaltung Burk empfohlen","openfire":"yes","operator":"Gemeinde Burk","phone":"+49 9822 9989900","tents":"yes","website":"https://www.gemeinde-burk.de/kultur-freizeit/uebernachtung-gastronomie/grillplatz"}},"307263885":{"location":[49.136218,10.4790631],"ct":"DE","tp":"CS","ts":"2024-10-03T20:19:28Z","tX":541,"tY":351,"tags":{"addr:city":"Burk","addr:postcode":"91596","addr:street":"Meierndorfer Straße","area":"yes","camp_site":"reception","caravans":"yes","impromptu":"yes","note":"Mehrzweckplatz, Anmeldung in der Gemeindeverwaltung Burk","openfire":"yes","operator":"Gemeinde Burk","phone":"+49 9822 9989900","tents":"yes","website":"https://www.gemeinde-burk.de/kultur-freizeit/uebernachtung-gastronomie/grillplatz"}},"370327595":{"location":[49.1393475,10.5428816],"ct":"DE","tp":"CS","ts":"2020-01-06T12:05:08Z","tX":541,"tY":351,"tags":{"capacity":"100","caravans":"no","email":"andre.tietgen@bechhofen.com","group_only":"yes","name":"Jugendzeltplatz Krummweiher","operator":"Markt Bechhofen","tents":"yes","website":"https://www.krummweiher.de/zeltplatz"}},"381593925":{"location":[48.9868242,10.2162745],"ct":"DE","tp":"CS","ts":"2018-11-27T13:44:55Z","tX":541,"tY":351,"tags":{"addr:city":"Ellenberg","addr:housenumber":"12","addr:postcode":"73488","addr:street":"Haselbach","capacity":"120","fee":"yes","name":"Campingplatz Sonneneck","operator":"Fam. Uhl","phone":"+49 7965 2359","website":"http://www.camping-sonneneck.de/"}},"416570498":{"location":[49.0782418,10.3295598],"ct":"DE","tp":"CR","ts":"2023-09-12T15:32:34Z","tX":541,"tY":351,"tags":{"barrier":"fence","capacity":"10","fee":"12","power_supply":"yes"}},"466320826":{"location":[48.9859758,10.2174372],"ct":"DE","tp":"CS","ts":"2018-11-27T13:54:42Z","tX":541,"tY":351,"tags":{"addr:city":"Ellenberg","addr:housenumber":"11","addr:postcode":"73488","addr:street":"Haselbach","name":"Campingplatz Fuchs","operator":"Fam. Fuchs","phone":"+49 7965 2270","website":"http://www.camping-fuchs.de/"}},"572855501":{"location":[49.0638683,10.3271922],"ct":"DE","tp":"CR","ts":"2020-10-01T14:04:01Z","tX":541,"tY":351,"tags":{"addr:city":"Dinkelsbühl","addr:postcode":"91550","addr:street":"Mönchsrother Straße","capacity":"40","charge":"6€/24h","fee":"yes","internet_access":"no","name":"Wohnmobilstellplatz P2a Mönchsrother Straße","note":"Ganzjährig offen - Kosten 6€ für 24 Std. Auch Stundentarif möglich 1€ p angefangene Stunde","operator":"Stadt Dinkelsbühl","power_supply":"yes","reservation":"no","sanitary_dump_station":"yes"}},"682994096":{"location":[49.1252702,10.2084706],"ct":"DE","tp":"CS","ts":"2023-07-13T05:49:10Z","tX":541,"tY":351,"tags":{"access":"private","description":"nur für Seminargäste - nicht öffentlich","email":"seminarhaus@schloss-tempelhof.de","fee":"yes","internet_access":"wired","internet_access:fee":"no","operator":"Schloss Tempelhof eG","payment:cash":"yes","phone":"+49 7957 9239-030","power_supply":"yes","website":"https://www.schloss-tempelhof.de/veranstaltungen/gastehaus/","wheelchair":"limited"}},"761308431":{"location":[49.0961342,10.4161811],"ct":"DE","tp":"CS","ts":"2020-01-06T18:49:59Z","tX":541,"tY":351,"tags":{"email":"info@duerrwangen.de","group_only":"yes","name":"Jugendzeltplatz Haslach","operator":"Markt Dürrwangen","website":"https://www.duerrwangen.de/index.php?id=174"}},"853822360":{"location":[49.0746534,10.3224082],"ct":"DE","tp":"CR","ts":"2024-04-16T09:36:03Z","tX":541,"tY":351,"tags":{"capacity":"35","charge":"8€/24h","description":"Bezahlen am Automat mit Bargeld und EC Cart Auch mit Parkster App - WLAN Zugang zu Bayern WLAN kostenlos -","fee":"yes","internet_access":"yes","internet_access:type":"WLAN","name":"Wohnmobilstellplatz P5 Larrieder Straße","payment:cash":"yes","payment:debit_cards":"yes","power_supply":"yes","reservation":"no","sanitary_dump_station":"yes"}},"946023026":{"location":[49.0450033,10.4890882],"ct":"DE","tp":"CR","ts":"2024-07-11T17:23:27Z","tX":541,"tY":351,"tags":{"fee":"no","name":"Römerpark Ruffenhofen","operator":"Römerpark Ruffenhofen","parking":"surface","power_supply":"yes","reservation":"no","wheelchair":"yes"}},"1287436638":{"location":[49.1165158,10.5309761],"ct":"DE","tp":"CR","ts":"2024-05-28T16:03:29Z","tX":541,"tY":351,"tags":{"capacity":"50","fee":"yes","landuse":"meadow","name":"Zur Burgschänke","power_supply":"yes","sanitary_dump_station":"yes","tents":"yes","website":"https://www.zur-burgschaenke.com"}},"5503382478":{"location":[49.0638763,10.3268622],"ct":"DE","tp":"SD","ts":"2018-03-25T15:54:59Z","tX":541,"tY":351,"tags":{"access":"customers","fee":"no","operator":"Stadt Dinkelsbühl","payment:coins":"yes","water_point":"yes"}},"7573126791":{"location":[48.9866324,10.2149543],"ct":"DE","tp":"SD","ts":"2020-05-30T17:33:11Z","tX":541,"tY":351,"tags":{}},"7963601277":{"location":[49.074369,10.3220187],"ct":"DE","tp":"SD","ts":"2024-02-18T14:59:15Z","tX":541,"tY":351,"tags":{"fee":"no","name":"CleanStar","note":"Wasser auch in Kleinmengen erhältlich","water_point":"yes"}},"9937494621":{"location":[49.0447083,10.4881239],"ct":"DE","tp":"SD","ts":"2022-08-07T14:57:03Z","tX":541,"tY":351,"tags":{}},"11186023108":{"location":[49.0782742,10.3292875],"ct":"DE","tp":"SD","ts":"2023-09-12T14:46:31Z","tX":541,"tY":351,"tags":{"sanitary_dump_station:round_drain":"yes"}}}