{"27183981":{"location":[48.7797218,10.2713883],"ct":"DE","tp":"CS","ts":"2024-01-30T12:31:56Z","tX":541,"tY":352,"tags":{"bottle":"yes","drinking_water":"yes","internet_access":"wlan","internet_access:fee":"no","name":"Campingplatz Flugplatz Elchingen","operator":"Luftsportring Aalen e.V.","source":"bing"}},"27496295":{"location":[48.7799444,10.2690813],"ct":"DE","tp":"CR","ts":"2022-01-25T13:14:39Z","tX":541,"tY":352,"tags":{"access":"yes","fee":"no","noname":"yes","park_ride":"no","parking":"surface","supervised":"no","surface":"gravel"}},"42300112":{"location":[48.7021221,10.2373585],"ct":"DE","tp":"CR","ts":"2024-03-19T15:32:32Z","tX":541,"tY":352,"tags":{"capacity":"15","caravans":"no","drinking_water":"yes","fee":"no","maxstay":"3 days","motorhome":"designated","name":"Wohnmobilstellplatz Nattheim","operator":"Gemeinde Nattheim","power_supply":"yes","sanitary_dump_station":"yes","tents":"no","waste":"trash","website":"https://www.nattheim.de/freizeit-sport/camperstellplaetze","wheelchair":"limited"}},"94156307":{"location":[48.8265233,10.4086733],"ct":"DE","tp":"CS","ts":"2019-06-03T10:18:30Z","tX":541,"tY":352,"tags":{"caravans":"yes","name":"Campingplatz Ringlesmühle","sanitary_dump_station":"yes","shower":"yes","tents":"yes","toilets":"yes","website":"https://www.ringlesmuehle.de/"}},"129017565":{"location":[48.695562,10.3922632],"ct":"DE","tp":"CS","ts":"2024-06-12T10:45:42Z","tX":541,"tY":352,"tags":{"capacity":"120","caravans":"no","email":"info@dischingen.de","group_only":"yes","name":"Zeltplatz Karlsbrunnen","operator":"Gemeinde Dischingen","tents":"yes","website":"https://www.dischingen.de/zeltplatz-karlsbrunnen.html"}},"457491302":{"location":[48.8554673,10.4842248],"ct":"DE","tp":"CR","ts":"2024-11-02T17:30:25Z","tX":541,"tY":352,"tags":{"addr:city":"Nördlingen","addr:postcode":"86720","addr:street":"Innerer Ring","capacity":"30","caravan_site":"motorhome_stopover","caravan_site:type":"parking_lot","caravans":"no","charge":"7.50 EUR/24 hours","fee":"yes","name":"Wohnmobilstellplatz Kaiserwiese","note":"i.d.R. Ganzjährig geöffnet - Bezahlung am Automat -","operator":"Stadt Nördlingen","power_supply":"yes","power_supply:charge":"1.50 EUR/kWh","power_supply:fee":"yes","reservation":"no","sanitary_dump_station":"yes","toilets":"yes","water_point":"yes","website":"https://www.noerdlingen.de/tourismus/uebernachten-alle-betriebe?tx_rshotel_pi1%5Buid%5D=516&cHash=7e57e01eb33c7690b2bd34ed6250524e"}},"1127839395":{"location":[48.7507633,10.3395708],"ct":"DE","tp":"CR","ts":"2024-06-21T17:49:52Z","tX":541,"tY":352,"tags":{"addr:city":"Neresheim","addr:housenumber":"24","addr:postcode":"73450","addr:street":"Dischinger Straße","caravans":"no","fee":"no","internet_access":"no","name":"Stellplatz Neresheim","power_supply":"yes","sanitary_dump_station":"yes","shower":"no","tents":"no","toilets":"no","website":"https://www.neresheim.de/de/kulturtourismus/uebernachtung?c7-item=82240"}},"4536293044":{"location":[48.8554284,10.4835557],"ct":"DE","tp":"SD","ts":"2016-12-03T19:10:10Z","tX":541,"tY":352,"tags":{"access":"yes","name":"Holiday Clean Anlage","water_point":"yes"}},"5977587000":{"location":[48.7019795,10.2370384],"ct":"DE","tp":"SD","ts":"2018-10-12T06:22:48Z","tX":541,"tY":352,"tags":{"drinking_water":"yes","fee":"yes","fee:drinking_water":"1EUR/100l","fee:fresh_water":"0,20EUR/1min","opening_hours":"24/7","power_supply":"no","source":"Bing","water_point":"yes"}},"11825812955":{"location":[48.8557426,10.4849704],"ct":"DE","tp":"SD","ts":"2024-04-17T18:43:33Z","tX":541,"tY":352,"tags":{"access":"customers"}}}