{"132152657":{"location":[48.466318,10.2037151],"ct":"DE","tp":"CS","ts":"2023-03-24T00:15:21Z","tX":541,"tY":353,"tags":{"addr:city":"Leipheim","addr:housenumber":"2","addr:postcode":"89340","addr:street":"Schwarzfelder Weg","addr:suburb":"Riedheim","bbq":"yes","cabins":"yes","camp_site":"deluxe","caravans":"yes","dog":"leashed","drinking_water":"yes","email":"info@schwarzfelder-hof.de","fax":"+49 8221 71134","fee":"yes","internet_access":"no","name":"Schwarzfelder Hof Camping","phone":"+49 8221 72628","power_supply":"yes","sanitary_dump_station":"yes","shower":"yes","tents":"yes","toilets":"yes","washing_machine":"yes","website":"https://www.schwarzfelder-hof.de/"}},"172618135":{"location":[48.458387,10.3807997],"ct":"DE","tp":"CS","ts":"2023-11-04T00:32:39Z","tX":541,"tY":353,"tags":{"addr:city":"Rettenbach","addr:housenumber":"5","addr:postcode":"89364","addr:street":"Am Silbersee","bbq":"yes","camp_site":"serviced","dog":"leashed","email":"reservierung@campingfreunde-silbersee.de","fee":"yes","internet_access":"wlan","name":"Campingfreunde Silbersee","openfire":"no","opening_hours":"Apr 01-Oct 31","payment:cash":"yes","payment:girocard":"yes","phone":"+49 176 56928513","playground":"yes","power_supply":"yes","reservation":"yes","restaurant":"yes","sanitary_dump_station":"yes","shower":"yes","toilets":"yes","washing_machine":"yes","website":"https://campingfreunde-silbersee.de/"}},"220704734":{"location":[48.4631036,10.2700008],"ct":"DE","tp":"CR","ts":"2024-11-28T08:35:13Z","tX":541,"tY":353,"tags":{"barrier":"fence","capacity":"18","caravans":"no","charge":"14€","fee":"yes","name":"Waldbad","operator":"Stadtwerke Günzburg","power_supply":"yes","sanitary_dump_station":"yes","water_point":"yes","website":"https://stadtwerke-guenzburg.de/wohnmobilstellplaetze"}},"302317396":{"location":[48.5845024,10.2112125],"ct":"DE","tp":"CR","ts":"2024-08-25T17:18:01Z","tX":541,"tY":353,"tags":{"access":"customers","capacity":"10","drinking_water":"yes","fee":"yes","motorhome":"designated","name":"Wohnmobilstellplatz Charlottenhöhle","operator":"Stadtverwaltung Giengen/Brenz","phone":"+49 7322 952-2920","power_supply":"yes","sanitary_dump_station":"yes","surface":"gravel","tents":"no","toilets":"yes","website":"https://www.giengen.de/de/Freizeit-Tourismus/Schlemmen-Schlummern/Wohnmobilstellplaetze"}},"413067866":{"location":[48.6221116,10.5165069],"ct":"DE","tp":"CS","ts":"2023-09-09T17:04:30Z","tX":541,"tY":353,"tags":{"caravans":"yes","maxtents":"10","name":"Goldberg Camping","phone":"+49 9074 9583260","tents":"yes","website":"https://www.goldberg-camping.de"}},"451768868":{"location":[48.5690399,10.5019808],"ct":"DE","tp":"CS","ts":"2022-09-09T21:30:51Z","tX":541,"tY":353,"tags":{"addr:city":"Dillingen a.d.Donau","addr:housenumber":"45","addr:postcode":"89407","addr:street":"Georg-Schmid-Ring","bbq":"yes","camp_site":"deluxe","capacity:caravans":"40","capacity:tents":"30","caravans":"yes","dog":"yes","drinking_water":"yes","email":"info@donaucamping.de","fax":"+49 9071 7058144","fee":"yes","fixme":"bitte richtig positionieren","name":"Donaucamping Eichwaldstuben","operator":"Simone Hihler","phone":"+49 9071 728445","power_supply":"yes","restaurant":"yes","sanitary_dump_station":"yes","shower":"yes","tents":"yes","toilets":"yes","washing_machine":"yes","website":"http://www.donaucamping.de/"}},"856431998":{"location":[48.6185668,10.2446343],"ct":"DE","tp":"CR","ts":"2023-05-16T06:35:53Z","tX":541,"tY":353,"tags":{"access":"customers","addr:city":"Giengen an der Brenz","addr:housenumber":"11/1","addr:postcode":"89537","addr:street":"Hermaringer Straße","camp_site":"standard","capacity":"8","fee":"yes","lit":"yes","motor_vehicle":"yes","motorhome":"designated","name":"Wohnmobilstellplatz am Brenzufer","opening_hours":"24/7","operator":"Stadtverwaltung Giengen/Brenz","permanent_camping":"no","phone":"+49 7322 952-2920","power_supply":"yes","sanitary_dump_station":"yes","start_date":"2020-10-14","tents":"no","toilets":"no","water_point":"yes","website":"https://www.giengen.de/de/Freizeit-Tourismus/Schlemmen-Schlummern/Wohnmobilstellplaetze"}},"976002312":{"location":[48.5690875,10.5019998],"ct":"DE","tp":"SD","ts":"2024-12-03T16:14:33Z","tX":541,"tY":353,"tags":{"sanitary_dump_station:accepted":"black_water","water_point":"yes"}},"1180275485":{"location":[48.5844877,10.2096167],"ct":"DE","tp":"CS","ts":"2024-08-25T17:37:06Z","tX":541,"tY":353,"tags":{"addr:city":"Giengen an der Brenz","addr:housenumber":"61","addr:postcode":"89537","addr:street":"Lonetalstraße","addr:suburb":"Hürben","capacity:caravans":"14","caravans":"yes","drinking_water":"no","fee":"yes","name":"Zeltwiese Hürben","power_supply":"no","sanitary_dump_station":"no","shower":"no","tents":"yes","toilets":"no"}},"1293619690":{"location":[48.5728346,10.4225778],"ct":"DE","tp":"CR","ts":"2024-10-10T16:46:13Z","tX":541,"tY":353,"tags":{"addr:city":"Lauingen (Donau)","addr:housenumber":"14","addr:postcode":"89415","addr:street":"Ludwigstraße","capacity":"29","caravans":"no","description":"Zufahrt über Riedhauser Straße 60","dog":"yes","fee":"yes","internet_access":"wlan","internet_access:fee":"no","name":"E-Park","power_supply":"yes","sanitary_dump_station":"yes","shower":"yes","surface":"fine_gravel","toilets":"yes","water_point":"yes","website":"https://eepark.eu/html/reisemobile.html"}},"1338565907":{"location":[48.4610907,10.2736288],"ct":"DE","tp":"CS","ts":"2024-11-28T08:35:13Z","tX":541,"tY":353,"tags":{"access":"yes","addr:city":"Günzburg","addr:housenumber":"4a","addr:postcode":"89312","addr:street":"Heidenheimer Straße","caravans":"yes","drinking_water":"yes","fee":"yes","operator":"VFL Günzburg Kanuabteilung","shower":"yes","static_caravans":"no","tents":"yes","toilets":"yes","website":"https://www.kanu-guenzburg.de/campingplatz/"}},"1339870652":{"location":[48.5688732,10.5021314],"ct":"DE","tp":"CS","ts":"2024-12-03T16:14:33Z","tX":541,"tY":353,"tags":{"addr:city":"Dillingen a.d.Donau","addr:housenumber":"45","addr:postcode":"89407","addr:street":"Georg-Schmid-Ring","bbq":"yes","camp_site":"deluxe","capacity:caravans":"40","capacity:tents":"30","caravans":"yes","dog":"yes","drinking_water":"yes","email":"info@donaucamping.de","fax":"+49 9071 7058144","fee":"yes","name":"Donaucamping Eichwaldstuben","operator":"Simone Hihler","phone":"+49 9071 728445","power_supply":"yes","restaurant":"yes","sanitary_dump_station":"yes","shower":"yes","tents":"yes","toilets":"yes","washing_machine":"yes","website":"http://www.donaucamping.de/"}},"2755172757":{"location":[48.4873461,10.2564066],"ct":"DE","tp":"CS","ts":"2024-05-04T17:08:32Z","tX":541,"tY":353,"tags":{"addr:city":"Günzburg","addr:country":"DE","addr:housenumber":"115","addr:postcode":"89312","addr:street":"Heidenheimer Straße","fee":"yes","name":"Camping Gutshof Donauried","operator":"Uli & Gerlinde Gottschalk","phone":"+49 8221 2076946","website":"http://www.campingplatz-guenzburg.de"}},"5905228685":{"location":[48.4646265,10.2033545],"ct":"DE","tp":"CR","ts":"2024-04-05T09:07:53Z","tX":541,"tY":353,"tags":{"fee":"no","internet_access":"no","name":"Schwarzfelder Hof","toilets":"yes","website":"https://www.schwarzfelder-hof.de/"}},"8082575660":{"location":[48.6185047,10.2447229],"ct":"DE","tp":"SD","ts":"2020-11-04T21:46:09Z","tX":541,"tY":353,"tags":{"access":"customers","fee":"no"}},"9248376580":{"location":[48.4663696,10.2034713],"ct":"DE","tp":"SD","ts":"2021-11-13T14:53:10Z","tX":541,"tY":353,"tags":{"access":"customers","sanitary_dump_station:basin":"yes"}},"11178990314":{"location":[48.6223305,10.5169137],"ct":"DE","tp":"SD","ts":"2023-09-09T16:12:49Z","tX":541,"tY":353,"tags":{"access":"customers","sanitary_dump_station:basin":"yes"}},"11991780919":{"location":[48.57224,10.4222944],"ct":"DE","tp":"SD","ts":"2024-06-19T10:11:19Z","tX":541,"tY":353,"tags":{"access":"yes","operator":"E-Park","water_point":"yes"}}}