{"35991668":{"location":[48.4264491,10.3092688],"ct":"DE","tp":"CS","ts":"2023-04-21T14:18:07Z","tX":541,"tY":354,"tags":{"cabins":"yes","caravans":"yes","drinking_water":"yes","internet_access":"wlan","internet_access:fee":"no","name":"LEGO Feriendorf Camping","power_supply":"yes","sanitary_dump_station":"yes","shower":"yes","tents":"yes","toilets":"yes","website":"https://www.legoland.de/uebernachtung_1/legoland-feriendorf/legoland-campingplatz/","wheelchair":"yes"}},"395171138":{"location":[48.3753215,10.3598674],"ct":"DE","tp":"CS","ts":"2024-09-01T21:03:37Z","tX":541,"tY":354,"tags":{"addr:city":"Kammeltal","addr:country":"DE","addr:housenumber":"12","addr:postcode":"89358","addr:street":"Zum Sportplatz","addr:suburb":"Ettenbeuren","caravans":"yes","fee":"yes","internet_access":"wlan","name":"Wohnmobilcamping Kammelaue","opening_hours":"Mar 28-Sep 30: 09:00-12:00,15:30-22:00","phone":"+49 8223 3875","power_supply":"yes","sanitary_dump_station":"yes","shower":"yes","static_caravans":"no","tents":"yes","toilets":"yes","website":"http://www.wohnmobilstellplatz-kammelaue.de/","wheelchair":"no"}},"437059092":{"location":[48.2424575,10.3663618],"ct":"DE","tp":"CR","ts":"2022-02-03T20:18:43Z","tX":541,"tY":354,"tags":{"addr:city":"Krumbach (Schwaben)","addr:country":"DE","addr:postcode":"86381","addr:street":"Gärtnerweg","capacity":"3","fee":"no","maxstay":"3 nights","name":"Stellplatz an der Kammel","opening_hours":"Mar 1-Nov 30","operator":"Stadt Krumbach","power_supply":"yes","sanitary_dump_station":"yes","sanitary_dump_station:gravity":"yes","water_point":"yes"}},"437482737":{"location":[48.2881034,10.2220249],"ct":"DE","tp":"CR","ts":"2024-08-19T12:27:38Z","tX":541,"tY":354,"tags":{"addr:city":"Roggenburg","addr:housenumber":"24","addr:postcode":"89297","addr:street":"Weißenhorner Straße","capacity":"8","caravan":"no","contact:email":"info@brauerei-biberach.de","contact:fax":"+49 7300 9227657","contact:phone":"+49 7300 303","dog":"yes","fee":"yes","name":"Brauerei Biberach","operator":"Brauerei Biberach","power_supply":"yes","sanitary_dump_station":"yes","shower":"no","surface":"gravel","toilets":"no","water_point":"yes","website":"https://www.brauerei-biberach.de/wohnmobilstellplaetze.php"}},"499516879":{"location":[48.4109897,10.3416284],"ct":"DE","tp":"CS","ts":"2023-07-20T21:41:50Z","tX":541,"tY":354,"tags":{"access":"customers","addr:city":"Limbach","addr:country":"DE","addr:place":"Am Stubenweiher","addr:postcode":"89331","caravans":"yes","contact:email":"stubenweiher@gmx.de","contact:fax":"+49 8223 90045","contact:phone":"+49 8223 797","contact:phone:2":"+49 172 7311873","contact:website":"http://www.stubenweiher.de","name":"Stubenweiher","operator":"Helmuth Jehle","sanitary_dump_station":"yes","tents":"yes"}},"549934919":{"location":[48.227428,10.2937561],"ct":"DE","tp":"CS","ts":"2022-06-26T09:03:24Z","tX":541,"tY":354,"tags":{"addr:city":"Breitenthal","addr:country":"DE","addr:housenumber":"5","addr:postcode":"86488","addr:street":"OOberrieder Weiherstraße","backcountry":"no","bbq":"no","cabins":"yes","camp_site":"standard","capacity:caravans":"102","capacity:persons":"400","capacity:tents":"120","caravans":"yes","contact:email":"info@see-camping-guenztal.de","contact:facebook":"https://www.facebook.com/pages/See%20Camping%20G%C3%BCnztal/233168263390703","contact:fax":"+49 8282 881871","contact:phone":"+49 8282 881870","contact:website":"https://www.see-camping-guenztal.de/","dog":"leashed","drinking_water":"yes","fee":"yes","group_only":"no","hot_water":"yes","internet_access":"wlan","kitchen":"no","lit":"yes","motor_vehicle":"yes","name":"See Camping Günztal","nudism":"no","openfire":"yes","operator":"U. Kaiser-Uszkoreit","permanent_camping":"no","picnic_table":"no","power_supply":"yes","reservation":"recommended","sanitary_dump_station":"yes","scout":"no","shower":"yes","static_caravans":"no","swimming_pool":"no","tents":"yes","toilets:wheelchair":"yes","washing_machine":"yes","waste_disposal":"yes"}},"549947668":{"location":[48.2248321,10.2921198],"ct":"DE","tp":"CR","ts":"2023-08-09T22:00:41Z","tX":541,"tY":354,"tags":{"motorhome":"designated","name":"Wohnmobilstellplatz Oberrieder Weiher","phone":"+49 8282 881870","website":"https://www.see-camping-guenztal.de/de/der-wohnmobilstellplatz"}},"812278046":{"location":[48.4441322,10.2997279],"ct":"DE","tp":"CS","ts":"2024-05-04T17:08:32Z","tX":541,"tY":354,"tags":{"addr:city":"Günzburg","addr:country":"DE","addr:housenumber":"2","addr:postcode":"89312","addr:street":"Schmiedlweg","bbq":"yes","name":"Naturfreundehaus","tents":"yes","wheelchair":"no"}},"943953411":{"location":[48.2919289,10.4465633],"ct":"DE","tp":"CS","ts":"2023-09-17T21:52:06Z","tX":541,"tY":354,"tags":{"name":"Camping und Übernachtung","operator":"Turncable","website":"https://www.turncable.de/uebernachtung/camping/"}},"4352953945":{"location":[48.2876489,10.2215786],"ct":"DE","tp":"SD","ts":"2024-06-14T13:20:46Z","tX":541,"tY":354,"tags":{"access":"yes","fee":"yes","operator":"Bauerei Bieberach","water_point":"yes"}},"6314049325":{"location":[48.2423654,10.3663905],"ct":"DE","tp":"SD","ts":"2019-03-03T11:17:28Z","tX":541,"tY":354,"tags":{"sanitary_dump_station:gravity":"yes","water_point":"yes"}},"9741288416":{"location":[48.426102,10.3094757],"ct":"DE","tp":"SD","ts":"2022-07-08T23:19:56Z","tX":541,"tY":354,"tags":{"access":"customers","sanitary_dump_station:chemical_toilet":"yes","sanitary_dump_station:gravity":"yes","sanitary_dump_station:grey_water":"yes"}},"9833988750":{"location":[48.2278318,10.2937067],"ct":"DE","tp":"SD","ts":"2022-06-20T17:11:30Z","tX":541,"tY":354,"tags":{}},"9875506543":{"location":[48.4260839,10.3094248],"ct":"DE","tp":"SD","ts":"2022-07-08T23:19:56Z","tX":541,"tY":354,"tags":{"access":"customers","fee":"no","sanitary_dump_station:chemical_toilet":"yes","sanitary_dump_station:machine":"yes"}}}