{"144976823":{"location":[47.8249218,10.2237568],"ct":"DE","tp":"CS","ts":"2023-06-20T11:24:37Z","tX":541,"tY":356,"tags":{"access":"private","caravans":"yes","internet_access:fee":"no","name":"FKK-Gelände Haldenmühle","nudism":"yes","opening_hours":"Mo-Fr 09:00-12:00,14:00-18:30; Sa-Su 09:00-12:00,14:00-18:30","operator":"Familien-Sport-Gemeinschaft Allgäu e.V.","reservation":"recommended","sanitary_dump_station":"customers","tents":"yes","website":"https://www.fsg-allgaeu.de/","wheelchair":"limited"}},"232906094":{"location":[47.7994759,10.2197945],"ct":"DE","tp":"CR","ts":"2019-03-24T22:23:40Z","tX":541,"tY":356,"tags":{"fee":"yes","operator":"Markt Altusried","power_supply":"yes","website":"https://www.altusried.de/de/freizeit/gaesteinformation-urlaub/wohnmobilstellplatz.html"}},"760865000":{"location":[47.9475867,10.2947276],"ct":"DE","tp":"SD","ts":"2022-07-31T18:18:27Z","tX":541,"tY":356,"tags":{}},"852667590":{"location":[47.9514171,10.2869762],"ct":"DE","tp":"CS","ts":"2024-10-19T13:08:26Z","tX":541,"tY":356,"tags":{"addr:city":"Ottobeuren","addr:housenumber":"20","addr:postcode":"87724","addr:street":"Hawangerstraße","name":"Camping Ottobeurren","toilets:wheelchair":"yes","website":"https://www.camping-ottobeuren.de/","wheelchair":"yes"}},"2912534945":{"location":[47.799653,10.2199591],"ct":"DE","tp":"SD","ts":"2015-04-29T01:02:03Z","tX":541,"tY":356,"tags":{"sanitary_dump_station:accepted":"black_water;tank_chemicals"}},"9798175634":{"location":[47.9475879,10.2947091],"ct":"DE","tp":"SD","ts":"2022-06-06T09:13:38Z","tX":541,"tY":356,"tags":{}}}