{"2321388":{"location":[47.609933,10.4458365],"ct":"DE","tp":"CS","ts":"2021-04-04T07:23:58Z","tX":541,"tY":357,"tags":{"addr:city":"Wertach","addr:country":"DE","addr:housenumber":"41","addr:postcode":"87497","addr:street":"Grüntenseestraße","contact:email":"info@camping-gruentensee.de","contact:phone":"+49 8365 375","name":"Camping Grüntensee","opening_hours":"Jan-Dec","operator":"Brigitte Seefelder","source":"Unterkunftsverzeichnis Wertach 2021, S. 47, mit schriftlicher Erlaubnis der Tourist-Info Wertach vom 2019-11-04 für die Verwendung der Daten für OSM","source:date":"2021-04-04","website":"https://www.camping-gruentensee.de/"}},"24290686":{"location":[47.6198135,10.4980809],"ct":"DE","tp":"CR","ts":"2024-03-19T14:33:49Z","tX":541,"tY":357,"tags":{"addr:city":"Nesselwang","addr:country":"DE","addr:housenumber":"21a","addr:postcode":"87484","addr:street":"An der Riese","capacity":"58","caravans":"no","charge":"15€","contact:email":"info@nesselwang.de","contact:phone":"+49 8361 923040","contact:website":"https://www.nesselwang.de/wohnmobilstellplatz-nesselwang.html","dog":"yes","email":"info@nesselwang.de","fee":"yes","internet_access":"wlan","internet_access:fee":"no","internet_access:ssid":"Wohnmobil Nesselwang","lit":"yes","name":"Wohnmobilstellplatz Nesselwang im Allgäu","opening_hours":"24/7","operator":"Nesselwang im Allgäu","payment:coins":"yes","payment:notes":"yes","power_supply":"yes","reservation":"no","sanitary_dump_station":"yes","sanitary_dump_station:chemical_toilet":"yes","sanitary_dump_station:grey_water":"yes","tents":"no","water_point":"yes","website":"https://www.nesselwang.de","wheelchair":"yes"}},"32807859":{"location":[47.6283962,10.45827],"ct":"DE","tp":"CS","ts":"2023-06-30T21:41:51Z","tX":541,"tY":357,"tags":{"addr:city":"Oy-Mittelberg","addr:country":"DE","addr:housenumber":"12","addr:postcode":"87466","addr:street":"Grüntenseestraße","addr:suburb":"Haslach","fax":"+49 8361 9344","name":"Camping Wertacher Hof","phone":"+49 8361 770","website":"https://www.campingplatzwertacherhof.de/"}},"36054406":{"location":[47.6403739,10.2781475],"ct":"DE","tp":"CS","ts":"2023-11-09T23:38:21Z","tX":541,"tY":357,"tags":{"addr:city":"Waltenhofen","addr:country":"DE","addr:housename":"Insel-Camping am See","addr:housenumber":"32¾","addr:postcode":"87448","addr:street":"Insel","caravans":"yes","email":"info@insel-camping.de","fax":"+49 8379 7308","name":"Insel Camping","phone":"+49 8379 881","power_supply":"yes","source":"website","tents":"yes","website":"https://www.insel-camping.de/"}},"36054450":{"location":[47.6306642,10.2472254],"ct":"DE","tp":"CS","ts":"2024-10-16T14:55:20Z","tX":541,"tY":357,"tags":{"addr:city":"Waltenhofen","addr:country":"DE","addr:housenumber":"27","addr:postcode":"87448","addr:street":"Burgstraße","addr:suburb":"Niedersonthofen","caravans":"yes","email":"info@camping-zeh-am-see.de","fax":"+49 8379 728381","internet_access":"wlan","name":"Zeh am See","phone":"+49 8379 7077","power_supply":"yes","source":"extrapolation","tents":"yes","website":"https://www.camping-zeh-am-see.de/","wheelchair":"yes"}},"56451685":{"location":[47.7294483,10.3192625],"ct":"DE","tp":"CR","ts":"2024-04-02T00:05:11Z","tX":541,"tY":357,"tags":{"capacity":"9","caravan_site":"motorhome_stopover","caravan_site:type":"sports_centre","charge":"5 EUR","fee":"yes","maxstay":"3 days","name":"Stellplatz Illerstadion","power_supply":"no","sanitary_dump_station":"no","website":"https://www.kempten-tourismus.de/wohnmobilstellplatz"}},"85081492":{"location":[47.7101495,10.2732875],"ct":"DE","tp":"CS","ts":"2022-03-02T11:55:33Z","tX":541,"tY":357,"tags":{"access":"private","addr:city":"Kempten (Allgäu)","addr:country":"DE","addr:housenumber":"33","addr:postcode":"87439","addr:street":"Im Rothkreuz","caravans":"no","group_only":"yes","name":"Jugendzeltplatz Kempten","tents":"yes","website":"https://www.stadtjugendring-kempten.de/seiten/jugendzeltplatz.htm","wheelchair":"yes"}},"94086012":{"location":[47.5176178,10.4217761],"ct":"DE","tp":"CS","ts":"2024-10-24T20:00:40Z","tX":541,"tY":357,"tags":{"addr:city":"Bad Hindelang","addr:housenumber":"60","addr:postcode":"87541","addr:street":"Paßstraße","addr:suburb":"Oberjoch","caravans":"yes","name":"Campingplatz Bergheimat","power_supply":"yes","tents":"yes","website":"https://www.camping-bergheimat.de/"}},"108455332":{"location":[47.6736971,10.3328773],"ct":"DE","tp":"CS","ts":"2022-05-04T09:10:25Z","tX":541,"tY":357,"tags":{"addr:city":"Sulzberg","addr:country":"DE","addr:housenumber":"1","addr:postcode":"87477","addr:street":"Moos","caravans":"yes","dog":"yes","email":"info@camping-oeschlesee.de","fax":"+49 8376 93041","name":"Öschlesee","operator":"Dopfer GmbH","phone":"+49 8376 93040","power_supply":"yes","tents":"yes","website":"http://www.oeschlesee.de"}},"123096417":{"location":[47.6095584,10.4170257],"ct":"DE","tp":"CS","ts":"2022-02-14T10:29:14Z","tX":541,"tY":357,"tags":{"addr:city":"Wertach","addr:country":"DE","addr:housenumber":"19","addr:postcode":"87497","addr:street":"Bahnhofstraße","caravans":"yes","contact:email":"info@camping-wertach.de","contact:phone":"+49 8365 1004","fax":"+49 8365 706369","internet_access":"wlan","name":"Campingplatz Waldesruh","power_supply":"yes","source":"Unterkunftsverzeichnis Wertach 2021, S. 46, mit schriftlicher Erlaubnis der Tourist-Info Wertach vom 2019-11-04 für die Verwendung der Daten für OSM","start_date":"2021-04-04","tents":"yes","website":"https://www.camping-wertach.de/"}},"128407242":{"location":[47.6225188,10.4576166],"ct":"DE","tp":"CR","ts":"2024-08-25T14:54:35Z","tX":541,"tY":357,"tags":{"access":"yes","fee":"yes","operator":"Gemeinde","operator:type":"government","parking":"surface","power_supply":"no","sanitary_dump_station":"no","surface":"fine_gravel","water_point":"no"}},"161997819":{"location":[47.5763809,10.432988],"ct":"AT","tp":"CS","ts":"2023-11-05T07:42:27Z","tX":541,"tY":357,"tags":{"addr:city":"Jungholz","addr:country":"AT","addr:housenumber":"103","addr:place":"Jungholz","addr:postcode":"6691","caravans":"yes","email":"info@camping-jungholz.at","fax":"+43 5676 83511","name":"Camping Jungholz","note":"Adressdaten ergänzt da in AT-6691 Jungholz ist auch DE-87491 Jungholz zur Adressfindung vergeben.","phone":"+43 5676 8182","tents":"yes","website":"https://www.camping-jungholz.at/"}},"175780178":{"location":[47.5463276,10.2598475],"ct":"DE","tp":"CR","ts":"2024-08-26T23:49:10Z","tX":541,"tY":357,"tags":{"addr:city":"Blaichach","addr:country":"DE","addr:housenumber":"1","addr:postcode":"87544","addr:street":"Am Eichbichl","capacity":"55","caravan_site":"motorhome_stopover","caravan_site:type":"lake","caravans":"yes","change:conditional":"19 EUR @ (week 02-50)","charge":"21.50 EUR","dog":"leashed","dog:fee":"no","drinking_water":"yes","email":"info@alpen-rundblick.de","fax":"+49 8321 6185451","fee":"yes","internet_access":"wlan","internet_access:fee":"yes","mobile":"+49 176 64220781","motorhome":"designated","name":"Alpen-Rundblick Mobil Camping","phone":"+49 8321 88026","power_supply":"yes","sanitary_dump_station":"yes","toilets":"yes","website":"https://www.alpen-rundblick.de"}},"524866242":{"location":[47.6111754,10.4485237],"ct":"DE","tp":"CR","ts":"2023-08-08T23:50:49Z","tX":541,"tY":357,"tags":{"addr:city":"Wertach","addr:country":"DE","addr:housenumber":"44","addr:postcode":"87497","addr:street":"Grüntenseestraße","capacity":"36","fee":"yes","name":"Stellplatz am Buron Kinderpark & Skilift","operator":"BURON Kinderpark & Wintersport","power_supply":"yes","sanitary_dump_station":"yes","website":"https://www.buron-skilifte.de/"}},"679297067":{"location":[47.6356799,10.2791079],"ct":"DE","tp":"CS","ts":"2024-05-13T18:25:55Z","tX":541,"tY":357,"tags":{"capacity:persons":"40","caravans":"no","drinking_water":"no","fee":"yes","group_only":"yes","name":"Jugendzeltplatz Niedersonthofener See","operator":"Kreisjugendring Oberallgäu","phone":"+49 8321 612 111","power_supply":"yes","tents":"yes","website":"https://www.kjr-oberallgaeu.de/"}},"1219709943":{"location":[47.5617847,10.2087467],"ct":"DE","tp":"CR","ts":"2024-04-01T23:54:18Z","tX":541,"tY":357,"tags":{"fee":"yes","name":"Wohnmobilstellplatz Viehmarktplatz Immenstadt Allgäu","power_supply":"yes","sanitary_dump_station":"yes","toilets":"yes","water_point":"yes"}},"2134844451":{"location":[47.561976,10.2166258],"ct":"DE","tp":"CR","ts":"2013-01-30T12:59:33Z","tX":541,"tY":357,"tags":{"name":"Wohnmobil-Station"}},"3660214961":{"location":[47.6205283,10.4975618],"ct":"DE","tp":"SD","ts":"2021-10-22T21:37:08Z","tX":541,"tY":357,"tags":{"sanitary_dump_station:chemical_toilet":"yes","sanitary_dump_station:fee":"no","sanitary_dump_station:gravity":"yes"}},"4005462514":{"location":[47.6767997,10.3159304],"ct":"DE","tp":"CS","ts":"2023-01-21T16:53:06Z","tX":541,"tY":357,"tags":{"caravans":"yes","contact:phone":"+49 1512 8346 153","contact:website":"https://www.ferienhof-sommer.de","name":"Mini Hof Sommer","tents":"yes"}},"8806094730":{"location":[47.6982556,10.229918],"ct":"DE","tp":"CR","ts":"2024-12-28T22:34:45Z","tX":541,"tY":357,"tags":{"capacity":"4","caravan_site":"motorhome_stopover","caravan_site:type":"village","fee":"yes","name":"Wohnmobilstellplatz Buchenberg","power_supply":"no","reservation":"no","sanitary_dump_station":"no","water_point":"no","website":"https://www.buchenberg.de/tourismus-freizeit/wohnmobilstellplaetze"}},"5107042437":{"location":[47.6108088,10.4489505],"ct":"DE","tp":"SD","ts":"2017-09-15T08:43:21Z","tX":541,"tY":357,"tags":{"fee":"yes","operator":"BURON Kinderpark & Wintersport","sanitary_dump_station:chemical_toilet":"yes","sanitary_dump_station:fee":"yes","sanitary_dump_station:gravity":"yes","waste_disposal":"yes","water_point":"yes"}},"5764086401":{"location":[47.6303991,10.2465823],"ct":"DE","tp":"SD","ts":"2018-07-16T15:49:56Z","tX":541,"tY":357,"tags":{"access":"customers","operator":"Camping Zeh am See","sanitary_dump_station:basin":"yes"}},"12138831108":{"location":[47.5463271,10.2587659],"ct":"DE","tp":"SD","ts":"2024-08-26T23:49:10Z","tX":541,"tY":357,"tags":{"access":"yes","charge":"2 EUR","fee":"yes","fee:conditional":"no @ customers","operator":"Alpen-Rundblick Mobil Camping","payment:cash":"yes","water_point":"no"}},"12459624770":{"location":[47.622598,10.4578283],"ct":"DE","tp":"CR","ts":"2024-12-28T21:35:20Z","tX":541,"tY":357,"tags":{"caravan_site":"motorhome_stopover","caravan_site:type":"lake;zip_line;restaurant","charge":"17 EUR","fee":"yes","name":"Parkplatz am Kletterwald Grüntensee","power_supply":"no","sanitary_dump_station":"no","seasonal":"no","water_point":"no"}}}