{"1443767":{"location":[47.4232222,10.2787543],"ct":"DE","tp":"CS","ts":"2024-07-14T09:55:51Z","tX":541,"tY":358,"tags":{"access":"customers","addr:country":"DE","addr:housenumber":"34","addr:postcode":"87561","addr:street":"Rubinger Straße","capacity:persons":"400","caravans":"yes","name":"Rubi-Camp","phone":"+49 8322 959202","tents":"yes","website":"https://www.rubi-camp.de/"}},"10977378":{"location":[47.505534,10.2746451],"ct":"DE","tp":"CS","ts":"2024-10-11T19:06:37Z","tX":541,"tY":358,"tags":{"addr:city":"Sonthofen","addr:country":"DE","addr:housenumber":"2","addr:postcode":"87527","addr:street":"Sinwagstraße","caravans":"yes","dryer":"yes","email":"info@illercamping-sonthofen.de","name":"Illercamping in Sonthofen","phone":"+49 8321 8056 620","power_supply":"yes","tents":"yes","washing_machine":"yes","website":"https://illercamping-sonthofen.de/","wheelchair":"yes"}},"80283683":{"location":[47.5084253,10.4952208],"ct":"AT","tp":"CS","ts":"2023-11-05T07:43:51Z","tX":541,"tY":358,"tags":{"addr:city":"Tannheim","addr:country":"AT","addr:housenumber":"3","addr:postcode":"6675","addr:street":"Kienzerle","caravans":"yes","name":"Campingplatz Alpenwelt Tannheimer Tal","operator":"Alpenwelt - RinnBell GmbH","phone":"+43 5675 43070","shower":"yes","tents":"yes","toilets":"yes","website":"https://alpenwelt-tannheimertal.at/camping"}},"83987480":{"location":[47.3154061,10.4985374],"ct":"AT","tp":"CS","ts":"2024-05-23T07:21:44Z","tX":541,"tY":358,"tags":{"addr:city":"Häselgehr","addr:country":"AT","addr:housenumber":"122","addr:postcode":"6651","addr:street":"Luxnach","caravans":"yes","drinking_water":"yes","name":"Lechtal-Camping Rudi","phone":"+43 5634 6425","power_supply":"yes","sanitary_dump_station":"yes","shower":"yes","tents":"yes","toilets":"yes","website":"https://www.lechtal-camping-rudi.at/","wheelchair":"limited"}},"118587517":{"location":[47.4997893,10.3722764],"ct":"DE","tp":"CR","ts":"2023-11-28T05:29:15Z","tX":541,"tY":358,"tags":{"capacity":"30","contact:phone":"+49 8324 2284","description":"TV-Anschlüsse vorhanden.","fee":"yes","internet_access":"wlan","name":"Wohnmobilpark Bad Hindelang","power_supply":"yes","sanitary_dump_station":"yes","water_point":"yes","website":"https://www.wiesengrund.com/28-0-Wohnmobilpark.html"}},"171661169":{"location":[47.4494543,10.2692204],"ct":"DE","tp":"CR","ts":"2024-12-26T22:27:36Z","tX":541,"tY":358,"tags":{"capacity":"17","charge":"18.40 EUR","check_out":"16:00","dog":"yes","dog:fee":"no","email":"fischen@hoernerdoerfer.de","fee":"yes","internet_access":"wlan","internet_access:fee":"no","maxlength":"12","name":"Wohnmobilstellplatz Fischen","operator":"Gemeinde Fischen im Allgäu","phone":"+49 8326 36460","power_supply":"yes","power_supply:charge":"1 EUR/ kWh","power_supply:fee":"yes","power_supply:maxcurrent":"16","reservation":"no","sanitary_dump_station":"yes","sanitary_dump_station:fee":"no","water_point":"yes","water_point:fee":"yes","website":"https://www.hoernerdoerfer.de/wohnmobilstellplatz-fischen-allgaeu","wheelchair":"yes"}},"229447150":{"location":[47.4219525,10.2780221],"ct":"DE","tp":"CS","ts":"2025-02-13T16:51:46Z","tX":541,"tY":358,"tags":{"access":"customers","addr:city":"Oberstdorf","addr:country":"DE","addr:housenumber":"16","addr:postcode":"87561","addr:street":"Rubinger Straße","capacity:caravans":"60","capacity:persons":"300","caravans":"yes","email":"camping-oberstdorf@t-online.de","fax":"+49 8322 80 97 60","name":"Camping Oberstdorf","phone":"+49 8322 65 25","tents":"yes","website":"https://www.camping-oberstdorf.de/"}},"400605300":{"location":[47.4494607,10.2693541],"ct":"DE","tp":"CR","ts":"2018-05-14T09:53:27Z","tX":541,"tY":358,"tags":{"capacity":"9","fee":"yes","operator":"Gemeinde Fischen im Allgäu","power_supply":"yes","sanitary_dump_station":"yes","water_point":"yes","wheelchair":"yes"}},"402345429":{"location":[47.4439414,10.2433055],"ct":"DE","tp":"CR","ts":"2025-01-28T18:20:05Z","tX":541,"tY":358,"tags":{"addr:city":"Obermaiselstein","addr:housenumber":"3","addr:postcode":"87538","addr:street":"Am Goldbach","capacity":"30","capacity:caravans":"24","caravan_site":"motorhome_stopover","caravan_site:type":"restaurant","charge":"21 EUR","contact:email":"info@wohnmobilplatz-allgaeu.de","contact:phone":"+49 8326 7950","email":"info@wohnmobilplatz-allgaeu.de","fee":"yes","internet_access":"wlan","name":"Rieder Wiesen","phone":"+4983267950","power_supply":"yes","sanitary_dump_station":"yes","water_point":"yes","website":"https://www.wohnmobilplatz-allgaeu.de/"}},"418544327":{"location":[47.5042326,10.2772178],"ct":"DE","tp":"CR","ts":"2019-02-04T15:50:23Z","tX":541,"tY":358,"tags":{"addr:city":"Sonthofen","addr:country":"DE","fee":"yes","name":"Am Wonnemar","note":"Maximal Eine Nacht","power_supply":"no","sanitary_dump_station":"no"}},"544973308":{"location":[47.4080687,10.2854422],"ct":"DE","tp":"CR","ts":"2025-01-12T21:48:04Z","tX":541,"tY":358,"tags":{"addr:city":"Oberstdorf","addr:country":"DE","addr:housenumber":"9","addr:postcode":"87561","addr:street":"Hermann-von-Barth-Straße","area":"yes","drinking_water":"yes","fee":"yes","internet_access":"wlan","internet_access:fee":"no","name":"Wohnmobilstellplatz Oberstdorf","phone":"+49 8322 18-0","power_supply":"yes","sanitary_dump_station":"yes","toilets":"yes","website":"https://www.wohnmobilstellplatz-oberstdorf.de/"}},"711876487":{"location":[47.3671824,10.5463699],"ct":"AT","tp":"CS","ts":"2023-08-18T20:22:14Z","tX":541,"tY":358,"tags":{"access":"yes","addr:city":"Vorderhornbach","addr:housenumber":"113","addr:postcode":"6645","addr:street":"Vorderhornbach","camp_site":"serviced","caravans":"yes","dog":"no","fee":"yes","internet_access":"wlan","internet_access:fee":"no","name":"Lechtal Camping Vorderhornbach","note":"Rezeption im Hauptgebäude des Naturbades westlich des Campingplatzes.","nudism":"no","opening_hours":"24/7; Mar,Nov,Dec off","phone":"+43 676 4308480","shower":"yes","tents":"yes","toilets":"yes","website":"https://camping-vorderhornbach.at/"}},"1138356358":{"location":[47.4634384,10.2283323],"ct":"DE","tp":"CR","ts":"2025-01-30T17:19:55Z","tX":541,"tY":358,"tags":{"addr:city":"Bolsterlang","addr:housenumber":"12","addr:postcode":"87538","addr:street":"Hörnerstraße","capacity":"12","caravan_site":"motorhome_stopover","caravan_site:type":"ski_lift","charge":"17 EUR","email":"info@hoernerbahn.de","fee":"yes","name":"Wohnmobilstellplatz Hörnerbahn","phone":"+49 8326 364040","power_supply":"yes","reservation":"no","sanitary_dump_station":"yes","toilets":"yes","website":"https://www.hoernerdoerfer.de/hoernerbahn-wohnmobilstellplatz"}},"10837746812":{"location":[47.4974813,10.2346079],"ct":"DE","tp":"CR","ts":"2023-04-24T18:10:13Z","tX":541,"tY":358,"tags":{"capacity":"10","description":"Ticket an der Liftkasse lösen.","fee":"yes","name":"Wohnmobilstellplatz am Weltcup-Express Ofterschwang","website":"https://www.hoernerdoerfer.de/a-wohnmobilstellplatz-ofterschwang"}},"4509014390":{"location":[47.4997373,10.3722451],"ct":"DE","tp":"SD","ts":"2016-12-03T19:28:32Z","tX":541,"tY":358,"tags":{"fee":"no","water_point":"no"}},"5617044800":{"location":[47.4496001,10.2689927],"ct":"DE","tp":"SD","ts":"2024-12-26T22:27:36Z","tX":541,"tY":358,"tags":{"access":"yes","fee":"yes","fee:conditional":"no @ customers"}},"10092321258":{"location":[47.4440931,10.2429598],"ct":"DE","tp":"SD","ts":"2022-10-11T14:26:09Z","tX":541,"tY":358,"tags":{"water_point":"yes"}}}