{"1431362":{"location":[45.7398886,10.4678404],"ct":"IT","tp":"CS","ts":"2024-08-18T06:27:49Z","tX":541,"tY":365,"tags":{"addr:housenumber":"94","addr:street":"Via Trento","area":"yes","caravans":"yes","check_date":"2024-08-02","dog":"leashed","drinking_water":"yes","email":"info@campingvenus.it","facebook":"https://www.facebook.com/campingvenus/","fee":"yes","instagram":"https://www.instagram.com/camping_venus/","internet_access":"wlan","internet_access:fee":"customers","name":"Venus","nudism":"no","payment:cash":"yes","payment:credit_cards":"yes","payment:debit_cards":"yes","phone":"+39 0365 83190","power_supply":"yes","ref:vatin":"IT01967710987","reservation":"yes","shower":"yes","source":"survey","tents":"yes","toilets":"yes","website":"https://www.campingvenus.it/"}},"35418996":{"location":[45.7661935,10.495929],"ct":"IT","tp":"CS","ts":"2023-11-01T11:40:50Z","tX":541,"tY":365,"tags":{"addr:city":"Anfo","addr:postcode":"25070","addr:street":"Via Venturi","caravans":"yes","name":"Camping Pilù","source":"Regione Lombardia - La banca dati territoriali CTR10000 è prodotta da Regione Lombardia - Infrastruttura per l'Informazione Territoriale","tents":"yes","website":"https://www.pilu.it/","wheelchair":"yes"}},"39383605":{"location":[45.8026254,10.5349558],"ct":"IT","tp":"CS","ts":"2024-10-15T14:05:54Z","tX":541,"tY":365,"tags":{"caravans":"yes","drinking_water":"yes","name":"Camping Miralago","power_supply":"yes","sanitary_dump_station":"yes","shower":"yes","tents":"yes","toilets":"yes","website":"https://www.campingmiralago.it/"}},"129929957":{"location":[45.8120106,10.5221542],"ct":"IT","tp":"CS","ts":"2019-03-21T00:09:14Z","tX":541,"tY":365,"tags":{"name":"Campeggio Pian d'Oneda","website":"https://www.piandoneda.it/"}},"244491520":{"location":[45.7618582,10.3068401],"ct":"IT","tp":"CR","ts":"2022-12-04T18:06:05Z","tX":541,"tY":365,"tags":{"fee":"no","parking":"surface","surface":"fine_gravel"}},"348763900":{"location":[45.5958815,10.5331035],"ct":"IT","tp":"CS","ts":"2019-03-24T15:18:23Z","tX":541,"tY":365,"tags":{"addr:city":"San Felice","addr:housenumber":"2","addr:street":"via Vallone Della Selva","name":"Weekend","website":"https://www.weekend.it/"}},"372737333":{"location":[45.5962629,10.5236984],"ct":"IT","tp":"CR","ts":"2023-10-30T21:35:20Z","tX":541,"tY":365,"tags":{"addr:city":"Salo","addr:postcode":"25087","addr:street":"Via Tavine","capacity":"50","charge":"24 euro 24 ore","description":"Area situata in ottima posizione, da qui parte la passeggiata che costeggia tutta la sponda del lago davanti a Salò.","fee":"yes","internet_access":"no","name":"Parcheggio Paradiso","permanent_camping":"no","power_supply":"yes","sanitary_dump_station":"yes","toilets":"yes"}},"477315616":{"location":[45.8123579,10.5201273],"ct":"IT","tp":"CR","ts":"2020-10-06T16:50:08Z","tX":541,"tY":365,"tags":{"addr:suburb":"Ponte Caffaro","capacity":"20","fee":"yes","name":"Cafar by Campside","phone":"+39 348 8608267","power_supply":"yes","sanitary_dump_station":"yes"}},"700129874":{"location":[45.81022,10.5249225],"ct":"IT","tp":"CR","ts":"2024-08-24T20:27:17Z","tX":541,"tY":365,"tags":{"drinking_water":"yes","fee":"yes","name":"Ostello sul lago","power_supply":"yes","sanitary_dump_station":"yes","toilets":"yes"}},"1053274496":{"location":[45.7635506,10.4950643],"ct":"IT","tp":"CS","ts":"2022-04-20T09:17:24Z","tX":541,"tY":365,"tags":{"addr:city":"Anfo","addr:housenumber":"7-5","addr:postcode":"25070","addr:street":"Via Carlo Alberto della Chiesa","email":"info@lagoidroglampingboutique.com","fee":"yes","internet_access":"wlan","name":"Lake Idro Glamping Boutique","operator":"Vacanze col Cuore","phone":"+39 0365 388106","toilets":"yes","website":"https://www.lagoidroglampingboutique.com/"}},"1088519731":{"location":[45.7531728,10.4947465],"ct":"IT","tp":"CS","ts":"2023-11-01T11:40:08Z","tX":541,"tY":365,"tags":{"addr:city":"Idro","addr:housenumber":"33","addr:postcode":"25074","addr:street":"Via Vantone","caravans":"yes","drinking_water":"yes","internet_access":"wlan","internet_access:fee":"yes","name":"Camping Belvedere","phone":"+39 0365 83477","power_supply":"yes","sanitary_dump_station":"customers","shower":"yes","tents":"yes","toilets":"yes","website":"https://www.camping-belvedere.com/"}},"1158831944":{"location":[45.754748,10.4987829],"ct":"IT","tp":"CS","ts":"2024-07-21T11:57:29Z","tX":541,"tY":365,"tags":{"addr:housenumber":"45","addr:street":"Via Vantone","caravans":"yes","description":"Family Campsite at Lago d`Idro","name":"Azur Camping Rio Vantone","phone":"+39 0365 83125","shower":"yes","tents":"yes","toilets":"yes","website":"https://www.idrosee.eu/"}},"1158831945":{"location":[45.7544161,10.4957355],"ct":"IT","tp":"CS","ts":"2024-09-01T14:12:24Z","tX":541,"tY":365,"tags":{"addr:housenumber":"39","addr:street":"Via Vantone","caravans":"yes","drinking_water":"yes","email":"info@vantonepineta.it","name":"Camping Vantone Pineta","phone":"+39 365823385","power_supply":"yes","sanitary_dump_station":"yes","shower":"yes","source":"http://www.vantonepineta.it/","tents":"yes","toilets":"yes","website":"https://vantonepineta.it"}},"6501895220":{"location":[45.5962142,10.5233019],"ct":"IT","tp":"SD","ts":"2019-05-26T12:13:44Z","tX":541,"tY":365,"tags":{"access":"customers","fee":"no","water_point":"yes"}},"6598976684":{"location":[45.5960727,10.5231428],"ct":"IT","tp":"SD","ts":"2019-07-09T13:22:20Z","tX":541,"tY":365,"tags":{}},"11059803481":{"location":[45.8062913,10.5270119],"ct":"IT","tp":"SD","ts":"2023-07-21T16:28:35Z","tX":541,"tY":365,"tags":{}}}