{"7615070":{"location":[44.296034,10.431062],"ct":"IT","tp":"CS","ts":"2024-09-03T15:43:42Z","tX":541,"tY":371,"tags":{"addr:city":"Villa Minozzo","addr:postcode":"42030","addr:street":"Via Lama Golese","barrier":"fence","camp_site":"serviced","capacity:caravans":"87","caravans":"yes","dog":"yes","dryer":"yes","email":"info@futuralpe.it","fee":"yes","fence_type":"chain_link","internet_access":"wlan","internet_access:fee":"no","motorhome":"yes","name":"Camping Febbio 2000","operator":"Planeta srl","payment:cash":"yes","payment:credit_cards":"yes","payment:debit_cards":"yes","permanent_camping":"yes","phone":"+39 333 5282535","power_supply":"yes","power_supply:maxcurrent":"16","socket:cee_blue":"yes","tents":"yes","website":"https://alpedicusna.com/","wheelchair":"limited"}},"142883253":{"location":[44.159357,10.2468754],"ct":"IT","tp":"CS","ts":"2024-09-17T19:07:57Z","tX":541,"tY":371,"tags":{"access":"customers","caravans":"yes","drinking_water":"yes","fee":"yes","motorhome":"yes","name":"Camping Lago Apuane","note":"Chiuso https://www.facebook.com/CampingLagoApuane/posts/pfbid02UUhAN4pga4ePdeJTDYrNr8haGtzbGnFPBhvPMMkDopKSn4KXooMM98UKjVb9fsN8l","phone":"+39 0583 547018","power_supply":"yes","shower":"yes","tents":"yes","toilets":"yes","website":"https://www.facebook.com/CampingLagoApuane/?locale=it_IT"}},"165621442":{"location":[44.3000147,10.2284217],"ct":"IT","tp":"CS","ts":"2024-09-03T14:14:54Z","tX":541,"tY":371,"tags":{"addr:city":"Collagna","addr:housenumber":"2/1","addr:postcode":"42037","addr:street":"Via Provinciale","cabins":"yes","capacity":"116","capacity:tents":"15","caravans":"yes","email":"campeggioriobianco@hotmail.com","fee":"yes","motorhome":"yes","name":"Camping Rio Bianco","permanent_camping":"yes","phone":"+39 0522 714014","phone:mobile":"+39 335.7153166","power_supply":"yes","shower":"yes","socket:cee_blue":"yes","tents":"yes","toilets":"yes","washing_machine":"yes","website":"https://www.campingriobianco.it/"}},"206084331":{"location":[44.2749819,10.5333508],"ct":"IT","tp":"CS","ts":"2024-08-02T09:01:53Z","tX":541,"tY":371,"tags":{"caravans":"yes","fee":"yes","name":"Camping la Solgara","phone":"+39 0536 968184","stars":"2","tents":"yes"}},"382942830":{"location":[44.172932,10.341823],"ct":"IT","tp":"CR","ts":"2015-11-26T21:34:59Z","tX":541,"tY":371,"tags":{"drinking_water":"yes","fee":"no","power_supply":"yes","sanitary_dump_station":"yes","tents":"no"}},"387158874":{"location":[44.1917584,10.5359216],"ct":"IT","tp":"CS","ts":"2023-10-31T08:38:44Z","tX":541,"tY":371,"tags":{"barrier":"fence","email":"info@campingpoggiolo.it","fence_type":"chain_link","name":"Camping Poggiolo","phone":"+39 339 3724200","website":"https://www.campingpoggiolo.it/"}},"587928026":{"location":[44.1318133,10.1997651],"ct":"IT","tp":"CS","ts":"2024-09-17T19:04:05Z","tX":541,"tY":371,"tags":{"bbq":"yes","capacity:caravans":"20","caravans":"yes","drinking_water":"yes","motorhome":"yes","name":"Campeggio Val Serenaia","phone":"+39 379 269 6404","power_supply":"yes","sanitary_dump_station":"no","shower":"yes","socket:cee_blue":"yes","tents":"yes","toilets":"yes","website":"https://www.facebook.com/valserenaia"}},"611575617":{"location":[44.2156109,10.5155091],"ct":"IT","tp":"CS","ts":"2018-07-27T13:21:23Z","tX":541,"tY":371,"tags":{"name":"Camping Lo Scoiattolo"}},"629618579":{"location":[44.2067886,10.2357927],"ct":"IT","tp":"CS","ts":"2024-09-17T18:57:48Z","tX":541,"tY":371,"tags":{"addr:city":"Sillano Giuncugnano","addr:postcode":"55039","addr:street":"Via Don Piero Pierotti","cabins":"yes","capacity":"60","caravans":"yes","dog":"yes","drinking_water":"yes","ele":"1000","email":"info@campingargegna.it","fee":"yes","internet_access":"wlan","motorhome":"yes","name":"Camping Argegna","phone":"+39 0583 611182","power_supply":"yes","sanitary_dump_station":"yes","shower":"yes","tents":"yes","toilets":"yes","website":"https://www.campingargegna.it/"}},"977968365":{"location":[44.2049566,10.3695044],"ct":"IT","tp":"CS","ts":"2023-06-06T19:40:54Z","tX":541,"tY":371,"tags":{"barrier":"fence","caravans":"no","drinking_water":"yes","name":"Refugio de Isera","shower":"yes","tents":"yes"}},"1053653800":{"location":[44.1145142,10.4029652],"ct":"IT","tp":"CR","ts":"2024-01-03T12:32:06Z","tX":541,"tY":371,"tags":{"name":"Castelnuovo di Garfagnana","sanitary_dump_station":"yes"}},"2087784021":{"location":[44.1230403,10.3996619],"ct":"IT","tp":"CR","ts":"2012-12-29T22:11:43Z","tX":541,"tY":371,"tags":{}},"2131226559":{"location":[44.2198965,10.3515691],"ct":"IT","tp":"CR","ts":"2013-01-27T18:48:04Z","tX":541,"tY":371,"tags":{"name":"Casini di Corte"}},"3304379982":{"location":[44.121099,10.4204754],"ct":"IT","tp":"CS","ts":"2021-04-29T13:46:05Z","tX":541,"tY":371,"tags":{"addr:city":"Castelnuovo di Garfagnana","addr:housenumber":"250","addr:postcode":"55032","addr:street":"localit√† la Piella","caravans":"yes","ele":"480","mobile":"+39 335 6112530","name":"Camping Agriturismo la Piella","phone":"+39 0583 62916","tents":"yes","website":"https://www.campingagriturismolapiella.com"}},"5728763385":{"location":[44.1506927,10.4281577],"ct":"IT","tp":"CS","ts":"2018-06-29T17:04:59Z","tX":541,"tY":371,"tags":{"internet_access":"yes","internet_access:fee":"no","name":"Wild Camping Paladini","sanitary_dump_station":"public","tents":"yes"}},"11044055416":{"location":[44.2633714,10.3015187],"ct":"IT","tp":"CS","ts":"2023-07-13T12:49:53Z","tX":541,"tY":371,"tags":{"access":"yes","caravans":"no","check_date":"2023-07-13","fee":"yes","internet_access":"wlan","internet_access:fee":"no","name":"Villaggio Anemone","static_caravans":"no","tents":"no","wheelchair":"limited"}},"9041134140":{"location":[44.3166458,10.4185476],"ct":"IT","tp":"CR","ts":"2021-08-27T14:49:06Z","tX":541,"tY":371,"tags":{"addr:city":"Villa Minozzo","addr:housenumber":"66","addr:postcode":"42030","addr:street":"Via Pradancino","name":"Area Sosta Monte Orsaro","phone":"+39 329 6216576","website":"https://www.rifugiomonteorsaro.it/pernottare/"}}}