{"71447868":{"location":[43.9383246,10.3090882],"ct":"IT","tp":"CR","ts":"2024-05-15T15:54:01Z","tX":541,"tY":372,"tags":{"capacity:disabled":"1","fee":"no","parking":"surface","power_supply":"no","sanitary_dump_station":"yes"}},"121536608":{"location":[43.975228,10.2730645],"ct":"IT","tp":"CR","ts":"2025-05-12T10:54:28Z","tX":541,"tY":372,"tags":{"description":"Parcheggio utilizzabile anche per camper, senza servizi. Attenzione strada di accesso molto stretta, sconsigliato a camper i medio grandi dimensioni","name":"Piazzale Anna Pardini"}},"156518844":{"location":[43.8398888,10.4884236],"ct":"IT","tp":"CR","ts":"2022-11-09T04:18:49Z","tX":541,"tY":372,"tags":{"access":"yes","fee":"yes","internet_access":"no","name":"Parcheggio Luporini","parking":"surface","power_supply":"no","surface":"asphalt","toilets":"no"}},"176331787":{"location":[43.8504208,10.2602961],"ct":"IT","tp":"CS","ts":"2024-08-16T09:29:18Z","tX":541,"tY":372,"tags":{"addr:city":"Viareggio","addr:country":"IT","addr:housenumber":"1","addr:postcode":"55049","addr:street":"Via dei Comparini","caravans":"yes","dog":"leashed","fax":"+39 0584 395462","fee":"yes","internet_access":"yes","internet_access:fee":"yes","motorhome":"yes","name":"Camping Viareggio","operator":"Giannerini Francesco s.a.s.","phone":"+39 0584 391012","power_supply":"yes","power_supply:maxcurrent":"4","shower":"yes","socket:cee_blue":"yes","stars":"4","tents":"yes","toilets":"yes","website":"https://www.campingviareggio.it"}},"194899046":{"location":[43.8513,10.2674066],"ct":"IT","tp":"CS","ts":"2024-08-12T06:18:45Z","tX":541,"tY":372,"tags":{"addr:city":"Viareggio","addr:housenumber":"105","addr:postcode":"55049","addr:street":"Via dei Lecci","caravans":"yes","dog":"leashed","drinking_water":"yes","email":"info@campinglapineta.com","fee":"yes","motorhome":"yes","name":"Camping La Pineta","phone":"+39 0584 383397","power_supply":"yes","shower":"yes","socket:cee_blue":"yes","static_caravans":"yes","tents":"yes","toilets":"yes","website":"https://www.campinglapineta.com/"}},"194899047":{"location":[43.8498244,10.2643422],"ct":"IT","tp":"CS","ts":"2024-08-16T09:29:18Z","tX":541,"tY":372,"tags":{"addr:city":"Viareggio","addr:housenumber":"34","addr:street":"Viale dei Tigli","capacity:persons":"1600","caravans":"yes","email":"info@campingparadisoviareggio.com","fee":"yes","motorhome":"yes","name":"Camping Paradiso","payment:cash":"yes","payment:credit_cards":"yes","payment:debit_cards":"yes","phone":"+39 0584 392005","power_supply":"yes","power_supply:maxcurrent":"3;10","shower":"yes","socket:cee_blue":"yes","tents":"yes","toilets":"yes","website":"https://www.campingparadisoviareggio.com"}},"296461102":{"location":[44.0722632,10.4815715],"ct":"IT","tp":"CR","ts":"2022-06-08T16:43:46Z","tX":541,"tY":372,"tags":{"charge":"10 €","fee":"yes"}},"400801722":{"location":[43.907693,10.2192301],"ct":"IT","tp":"CR","ts":"2024-08-08T11:16:28Z","tX":541,"tY":372,"tags":{"charge":"30","email":"areacamper.parkamaiore@gmail.com","fee":"yes","name":"Area sosta Camper Parkamaiore","parking":"surface","phone":"+39 339 2416048","power_supply":"yes","sanitary_dump_station":"yes","website":"https://www.parkamaiore.it/area-sosta-camper-parkamaiore/"}},"543801595":{"location":[43.8775351,10.2561198],"ct":"IT","tp":"CS","ts":"2024-07-30T10:51:06Z","tX":541,"tY":372,"tags":{"access":"private","name":"Campo Scout Migliarina","operator":"Agesci Viareggio 5"}},"641216970":{"location":[43.8506257,10.4862564],"ct":"IT","tp":"CR","ts":"2025-01-02T16:43:37Z","tX":541,"tY":372,"tags":{"addr:city":"Lucca","addr:country":"IT","addr:housenumber":"704","addr:postcode":"55100","addr:street":"Via del Tiro a segno","capacity":"50","caravans":"yes","contact:email":"info@camperilserchio.it","contact:fax":"+39 0583 317385","contact:phone":"+39 0583 317385","contact:website":"http://www.camperilserchio.it","contact:whatsapp":"+39 335 8481153","dog":"yes","dryer":"yes","fee":"yes","internet_access":"yes","internet_access:fee":"no","lit":"yes","name":"Area Attrezzata Camper Il Serchio","power_supply":"yes","power_supply:maxcurrent":"4.5","sanitary_dump_station:grey_water":"yes","shower":"yes","socket:cee_blue":"yes","tents":"yes","toilets":"yes","washing_machine":"yes","water_point":"yes","wheelchair":"yes"}},"1304646924":{"location":[43.8665351,10.4811375],"ct":"IT","tp":"CS","ts":"2024-07-30T13:23:34Z","tX":541,"tY":372,"tags":{"addr:city":"Lucca","addr:postcode":"55100","addr:street":"Via del Caporale","area":"yes","caravans":"yes","drinking_water":"yes","internet_access":"wlan","name":"Agricampeggio Ai Linchi","phone":"+39 353 434 0582","power_supply":"yes","shower":"yes","tents":"yes","toilets":"yes","toilets:wheelchair":"no","website":"www.ailinchi.it","wheelchair":"limited"}},"1311078466":{"location":[43.8501027,10.4833484],"ct":"IT","tp":"CR","ts":"2024-10-15T15:50:40Z","tX":541,"tY":372,"tags":{"addr:city":"Lucca","addr:street":"Via del Tiro a Segno","bbq":"yes","charge":"30 EUR/Day","fee":"yes","internet_access":"wlan","name":"Area Camper Al Bersaglio 2","note":"Tariffa 50€ per Lucca Comics","phone":"+393517676216","power_supply":"yes","sanitary_dump_station":"customers","shower":"hot","socket:cee_blue":"yes","toilets":"yes","washing_machine":"yes","website":"https://www.albersaglio.it/"}},"1312170397":{"location":[43.8549757,10.2436123],"ct":"IT","tp":"CR","ts":"2024-08-30T15:43:25Z","tX":541,"tY":372,"tags":{"addr:city":"Viareggio","addr:housenumber":"7a","addr:postcode":"55049","addr:street":"Viale Europa","internet_access":"no","name":"Sosta camper La Sirenetta","phone":"343 7518661","power_supply":"yes","power_supply:maxcurrent":"2.5","sanitary_dump_station":"yes","shower":"yes","socket:cee_blue":"yes","toilets":"yes","washing_machine":"no"}},"1385762498":{"location":[44.0669787,10.529935],"ct":"IT","tp":"CS","ts":"2025-05-12T11:05:15Z","tX":541,"tY":372,"tags":{"addr:housenumber":"1","addr:street":"Via del Crocifisso","capacity:caravans":"10","capacity:tents":"50","caravans":"yes","contact:email":"info@campingpiandamora.nl","contact:phone":"+39 327 964 9046","dog":"yes","fee":"yes","motorhome":"yes","name":"Campeggio Pian D'Amora","name:it":"Campeggio Pian D'Amora","power_supply":"yes","reservation":"yes","tents":"yes","website":"https://campingpiandamora.nl/"}},"2587252299":{"location":[44.0552609,10.3596743],"ct":"IT","tp":"CS","ts":"2013-12-19T21:03:05Z","tX":541,"tY":372,"tags":{}},"3063142892":{"location":[43.9761532,10.5409007],"ct":"IT","tp":"CR","ts":"2014-09-06T14:15:08Z","tX":541,"tY":372,"tags":{"name":"Borgo a Mozzano","water":"charge,discharge"}},"4367948800":{"location":[44.066511,10.529038],"ct":"IT","tp":"CS","ts":"2019-08-22T14:42:16Z","tX":541,"tY":372,"tags":{"name":"Campeggio Pian D'Amora","name:it":"Campeggio Pian D'Amora"}},"4820118375":{"location":[44.0582447,10.3565796],"ct":"IT","tp":"CS","ts":"2017-04-27T12:16:02Z","tX":541,"tY":372,"tags":{}},"5893089529":{"location":[43.9055553,10.2203982],"ct":"IT","tp":"CR","ts":"2025-03-16T15:24:48Z","tX":541,"tY":372,"tags":{"name":"Park Camper Kennedy"}},"6039269435":{"location":[43.8510612,10.4866245],"ct":"IT","tp":"SD","ts":"2018-11-05T13:42:06Z","tX":541,"tY":372,"tags":{}},"11186056796":{"location":[43.9081178,10.2189896],"ct":"IT","tp":"SD","ts":"2023-09-12T14:53:55Z","tX":541,"tY":372,"tags":{"access":"yes","fee":"yes","water_point":"yes"}},"12145640682":{"location":[43.8547686,10.2434052],"ct":"IT","tp":"SD","ts":"2024-08-30T07:19:41Z","tX":541,"tY":372,"tags":{}},"12833610977":{"location":[43.8665558,10.4815346],"ct":"IT","tp":"SD","ts":"2025-05-13T12:39:07Z","tX":541,"tY":372,"tags":{}}}