{"32767201":{"location":[43.5870131,10.2980732],"ct":"IT","tp":"CS","ts":"2023-06-14T17:23:05Z","tX":541,"tY":373,"tags":{"name":"Camping Mare e Sole"}},"102579968":{"location":[43.5914577,10.3011538],"ct":"IT","tp":"CS","ts":"2019-02-11T12:32:08Z","tX":541,"tY":373,"tags":{"addr:city":"Calambrone","addr:housename":"Via delle Mimose","addr:postcode":"56128","addr:street":"Via delle Mimose","landuse":"village_green","name":"Camping Pineta","phone":"+39 05032038","website":"http://www.camping-pineta.it"}},"102868440":{"location":[43.6460963,10.2971335],"ct":"IT","tp":"CS","ts":"2024-09-24T08:55:12Z","tX":541,"tY":373,"tags":{"addr:city":"Tirrenia","addr:housenumber":"24","addr:postcode":"56128","addr:street":"Via della Bigattiera lato mare","caravans":"yes","fee":"yes","landuse":"village_green","name":"International Camping Saint Michael","phone":"+3905033041","static_caravans":"yes","tents":"yes","website":"https://www.campingstmichael.eu/"}},"120642307":{"location":[43.8213017,10.2788224],"ct":"IT","tp":"CS","ts":"2024-08-05T08:39:30Z","tX":541,"tY":373,"tags":{"addr:city":"Torre del lago Puccini","addr:postcode":"55049","addr:street":"Via Giovanni XXIII","caravans":"yes","dog":"leashed","drinking_water":"yes","email":"info@campingburlamacco.com","name":"Camping Burlamacco","phone":"+39 0584 359544","power_supply":"yes","power_supply:maxcurrent":"4","shower":"yes","tents":"yes","website":"https://www.campingburlamacco.com/"}},"138659327":{"location":[43.8311401,10.2724806],"ct":"IT","tp":"CS","ts":"2024-08-05T10:01:02Z","tX":541,"tY":373,"tags":{"addr:city":"Viareggio","addr:hamlet":"Torre del Lago Puccini","addr:housenumber":"51","addr:postcode":"55049","addr:province":"Lucca","addr:state":"Italia","addr:street":"Viale dei Tigli","capacity:caravans":"50","capacity:tents":"65","caravans":"yes","contact:facebook":"https://m.facebook.com/100063606008626/","contact:instagram":"https://www.instagram.com/campingeuropa/","dog":"yes","drinking_water":"yes","email":"mail@europacamp.it","name":"Camping Europa","phone":"+39 0584 350707","power_supply":"yes","power_supply:maxcurrent":"6","shower":"yes","tents":"yes","toilets":"yes","website":"https://www.europacamp.it/"}},"169347974":{"location":[43.6579494,10.2810811],"ct":"IT","tp":"CR","ts":"2024-07-19T14:34:28Z","tX":541,"tY":373,"tags":{"addr:city":"Marina di Pisa","addr:housenumber":"1","addr:postcode":"56128","addr:street":"Via Litoranea","area":"yes","capacity":"40","fee":"yes","name":"Area di sosta Marina di Pisa 2"}},"174153764":{"location":[43.7249539,10.3823991],"ct":"IT","tp":"CS","ts":"2024-10-03T09:33:10Z","tX":541,"tY":373,"tags":{"access":"yes","bbq":"yes","caravans":"yes","dog":"yes","drinking_water":"yes","dryer":"yes","email":"info@campingtorrependente.it","fee":"yes","internet_access":"wlan","internet_access:fee":"customers","internet_access:ssid":"TorrePendenteWiFi","motorhome":"yes","name":"Camping Village Torre Pendente","phone":"+39 050 561704","power_supply":"yes","reservation":"yes","sanitary_dump_station":"yes","shower":"yes","socket:cee_blue":"yes","static_caravans":"yes","tents":"yes","toilets":"yes","washing_machine":"yes","website":"https://www.campingtorrependente.it/"}},"174660467":{"location":[43.820923,10.2754692],"ct":"IT","tp":"CS","ts":"2024-08-05T08:39:30Z","tX":541,"tY":373,"tags":{"addr:housenumber":"5","addr:postcode":"55049","addr:street":"Viale John Fitzgerald Kennedy","caravans":"yes","fee":"yes","internet_access":"yes","name":"Campeggio Bosco Verde","phone":"+39 0584 358343","power_supply":"yes","power_supply:maxcurrent":"4","tents":"yes","website":"https://www.campeggioboscoverde.com/"}},"194899045":{"location":[43.8296199,10.2730267],"ct":"IT","tp":"CS","ts":"2024-08-28T19:46:52Z","tX":541,"tY":373,"tags":{"addr:city":"Viareggio","addr:hamlet":"Torre del Lago Puccini","addr:housenumber":"52","addr:postcode":"55049","addr:province":"Lucca","addr:state":"Italia","addr:street":"Viale dei Tigli","caravans":"yes","name":"Camping Italia","operator":"Club del Sole","phone":"+39 0584 359828","tents":"yes","website":"https://www.clubdelsole.com/villaggi-turistici-campeggi-toscana/italia-family-camping-village-viareggio/"}},"194899048":{"location":[43.8273934,10.2740734],"ct":"IT","tp":"CS","ts":"2024-08-05T10:01:02Z","tX":541,"tY":373,"tags":{"addr:city":"Viareggio","addr:country":"IT","addr:hamlet":"Torre del Lago Puccini","addr:housenumber":"54","addr:postcode":"55049","addr:province":"Lucca","addr:state":"Italia","addr:street":"Viale dei Tigli","cabins":"yes","caravans":"yes","email":"info@campingdeitigli.com","fax":"+39 0584 341278","mobile":"+39 347 379 6748","name":"Camping dei Tigli","phone":"+39 0584 359182","power_supply":"yes","shower":"yes","tents":"yes","toilets":"yes","website":"https://www.campingdeitigli.com/"}},"411033524":{"location":[43.678045,10.2791122],"ct":"IT","tp":"CR","ts":"2024-08-31T17:53:56Z","tX":541,"tY":373,"tags":{"addr:city":"Marina di Pisa","addr:postcode":"56128","addr:street":"Lungarno Gabriele D'Annunzio","bbq":"yes","name":"Marina di Pisa - Viale dâ€™Annunzio","operator":"Pisamo","power_supply":"no","sanitary_dump_station":"yes","toilets":"no","website":"https://camper.pisamo.net/"}},"433804252":{"location":[43.727186,10.5171008],"ct":"IT","tp":"CR","ts":"2024-09-19T04:39:43Z","tX":541,"tY":373,"tags":{"addr:street":"piazzale Giovanni Catanti","fee":"yes","name":"Area Camper Calci","power_supply":"yes","sanitary_dump_station":"yes","website":"https://www.comune.calci.pi.it/Servizi/Area-Camper-servizi-e-accesso"}},"559577806":{"location":[43.6355747,10.3652266],"ct":"IT","tp":"CS","ts":"2024-08-31T18:01:22Z","tX":541,"tY":373,"tags":{"bbq":"yes","caravans":"yes","fee":"yes","internet_access":"wlan","motorhome":"yes","name":"Agricamping le tamerici","power_supply":"yes","shower":"yes","socket:cee_blue":"yes","toilets":"yes","website":"https://www.lagoletamerici.it/campeggio/"}},"661604305":{"location":[43.8267469,10.425629],"ct":"IT","tp":"CS","ts":"2019-01-08T22:29:54Z","tX":541,"tY":373,"tags":{"name":"Agricampeggio la valle","website":"http://www.agricampeggiolavalle.it/"}},"723074059":{"location":[43.8172297,10.2608629],"ct":"IT","tp":"CR","ts":"2019-09-09T09:01:39Z","tX":541,"tY":373,"tags":{"fee":"yes"}},"1101775858":{"location":[43.743587,10.3880434],"ct":"IT","tp":"CR","ts":"2024-08-31T14:30:11Z","tX":541,"tY":373,"tags":{"capacity:caravans":"15","fee":"yes","name":"Fattoria Olmetto","power_supply":"yes","sanitary_dump_station":"no","socket:cee_blue":"yes","website":"https://www.fattoriaolmetto.com/la-sosta-camper/"}},"1244524907":{"location":[43.7218267,10.4203202],"ct":"IT","tp":"CR","ts":"2024-08-31T14:38:57Z","tX":541,"tY":373,"tags":{"charge":"12","fee":"yes","internet_access":"no","name":"Via Pratale","permanent_camping":"no","power_supply":"yes","power_supply:maxcurrent":"2,3","sanitary_dump_station":"yes","socket:cee_blue":"yes","toilets":"no"}},"1284437807":{"location":[43.8234531,10.2584366],"ct":"IT","tp":"PK","ts":"2024-05-18T16:32:24Z","tX":541,"tY":373,"tags":{"motorhome":"yes","parking":"surface","surface":"unpaved"}},"1297414993":{"location":[43.6496525,10.2867705],"ct":"IT","tp":"CS","ts":"2024-09-24T08:53:36Z","tX":541,"tY":373,"tags":{"caravans":"yes","fee":"yes","name":"Campeggio internazionale","name:en":"Camping International","tents":"yes"}},"2283466746":{"location":[43.7059034,10.5000752],"ct":"IT","tp":"CR","ts":"2014-03-13T10:17:47Z","tX":541,"tY":373,"tags":{}},"2584019499":{"location":[43.7195405,10.4867981],"ct":"IT","tp":"CR","ts":"2013-12-17T18:19:15Z","tX":541,"tY":373,"tags":{}},"11215874308":{"location":[43.7701624,10.4283716],"ct":"IT","tp":"CS","ts":"2024-07-17T07:04:28Z","tX":541,"tY":373,"tags":{"addr:city":"San Giuliano Terme","addr:postcode":"56017","addr:street":"Via Domenico Cimarosa","fee":"yes","name":"Il Pruno","phone":"+39 335 65 55 327","website":"https://ilpruno.net/il-glamping/"}},"11215874307":{"location":[43.7700943,10.4282274],"ct":"IT","tp":"CR","ts":"2023-11-12T12:06:16Z","tX":541,"tY":373,"tags":{"mobile":"+39 335 6555327","name":"Il Pruno","website":"https://ilpruno.net/sosta-camper/"}},"11742043299":{"location":[43.6689545,10.3596685],"ct":"IT","tp":"SD","ts":"2024-11-12T18:16:09Z","tX":541,"tY":373,"tags":{"access":"yes","fee":"no","panoramax":"34e8974d-40b7-4c20-8f57-4a6fe20b1397","power_supply":"yes","sanitary_dump_station:chemical_toilet":"yes","sanitary_dump_station:grey_water":"yes","water_point":"yes"}},"12215661875":{"location":[43.7250967,10.382929],"ct":"IT","tp":"SD","ts":"2024-10-02T09:11:53Z","tX":541,"tY":373,"tags":{"access":"customers","fee":"no","sanitary_dump_station:chemical_toilet":"no","sanitary_dump_station:grey_water":"yes","water_point":"yes"}},"12215675303":{"location":[43.7258435,10.3828532],"ct":"IT","tp":"SD","ts":"2024-10-02T09:12:32Z","tX":541,"tY":373,"tags":{"fee":"no","sanitary_dump_station:chemical_toilet":"yes","sanitary_dump_station:grey_water":"no"}}}