{"1178262":{"location":[43.3439718,10.4571011],"ct":"IT","tp":"CS","ts":"2020-08-29T18:55:01Z","tX":541,"tY":374,"tags":{"addr:city":"Vada","addr:housenumber":"88","addr:postcode":"57016","addr:street":"Via Cavalleggeri","cabins":"yes","caravans":"yes","contact:email":"info@campingtripesce.it","contact:phone":"+39 0586 788167","contact:webcam":"http://www.meteosystem.com/wlip/vada/webcam.php","contact:website":"https://www.campingtripesce.it","name":"Tripesce","openfire":"no","tents":"yes"}},"1188228":{"location":[43.3400484,10.4583199],"ct":"IT","tp":"CS","ts":"2024-09-18T14:18:01Z","tX":541,"tY":374,"tags":{"addr:city":"Vada","addr:housenumber":"28","addr:postcode":"57016","addr:street":"Via Nuova dei Cavalleggeri","caravans":"yes","contact:email":"info@radaetrusca.it","contact:facebook":"campingradaetrusca","contact:phone":"+39 0586 788344","name":"Rada Etrusca","tents":"yes","website":"https://www.radaetrusca.com"}},"14139502":{"location":[43.3338999,10.4675316],"ct":"IT","tp":"CR","ts":"2022-05-14T21:58:27Z","tX":541,"tY":374,"tags":{"name":"Campo Dei Fiori","power_supply":"yes","tents":"yes"}},"14139506":{"location":[43.3338566,10.4623799],"ct":"IT","tp":"CS","ts":"2022-05-14T23:33:01Z","tX":541,"tY":374,"tags":{"addr:city":"Vada","addr:country":"IT","addr:housenumber":"157","addr:street":"Via Nuova dei Cavalleggeri","name":"Camping Village Baia del Marinaio","phone":"+39 0586 770164","website":"https://www.baiadelmarinaio.it"}},"14141915":{"location":[43.332107,10.4591878],"ct":"IT","tp":"CS","ts":"2022-05-15T21:35:37Z","tX":541,"tY":374,"tags":{"addr:city":"Vada","addr:country":"IT","addr:housenumber":"32","addr:street":"Via Nuova dei Cavalleggeri","name":"Camping Village Molino a Fuoco","phone":"+39 0586 770150","website":"https://www.campingmolinoafuoco.com"}},"153219363":{"location":[43.3285142,10.4600152],"ct":"IT","tp":"CR","ts":"2022-05-16T21:48:00Z","tX":541,"tY":374,"tags":{"charge":"10 EUR/day","fee":"yes","operator":"Comune di Rosignano Marittimo","power_supply":"no","sanitary_dump_station":"yes","source":"bing"}},"159901416":{"location":[43.3985416,10.4284054],"ct":"IT","tp":"CR","ts":"2023-07-20T20:43:12Z","tX":541,"tY":374,"tags":{"access":"yes","fee":"yes"}},"229014136":{"location":[43.5138939,10.3246631],"ct":"IT","tp":"CR","ts":"2024-07-23T15:13:02Z","tX":541,"tY":374,"tags":{"addr:city":"Livorno","addr:housenumber":"1","addr:postcode":"57128","addr:street":"Via Voltolino Fontani","area":"yes","email":"info@parcodelmulino.it","fee":"yes","name":"Parco del Mulino","phone":"+39 334 5969241","power_supply":"yes","website":"https://www.parcodelmulino.it/area-sosta-camper/"}},"242392700":{"location":[43.5560602,10.3042536],"ct":"IT","tp":"PK","ts":"2022-06-28T15:41:49Z","tX":541,"tY":374,"tags":{"caravans":"yes","hgv":"no","parking":"surface","surface":"asphalt"}},"408704049":{"location":[43.4295553,10.3980426],"ct":"IT","tp":"CR","ts":"2024-07-23T15:13:01Z","tX":541,"tY":374,"tags":{"name":"Area Camper Il Fortullino","phone":"+39 346 2773006","power_supply":"yes","website":"https://www.ilfortullino.it/it/home.html"}},"486977706":{"location":[43.4814487,10.3325357],"ct":"IT","tp":"CS","ts":"2024-11-10T08:15:34Z","tX":541,"tY":374,"tags":{"contact:facebook":"https://www.facebook.com/miramare.me","description":"Campeggio Miramare, Livorno","name":"Miramare","website":"https://miramare.me","wheelchair":"yes"}},"1059700802":{"location":[43.3322856,10.4647484],"ct":"IT","tp":"CS","ts":"2022-05-12T23:15:28Z","tX":541,"tY":374,"tags":{"addr:housenumber":"100","addr:place":"localit√† I Mozzi","barrier":"fence","name":"Camping Toscana Bella","phone":"+39 0586 770091","website":"https://www.campingtoscanabella.com/"}},"1302523707":{"location":[43.3839676,10.4326228],"ct":"IT","tp":"CR","ts":"2024-07-19T14:56:30Z","tX":541,"tY":374,"tags":{"addr:city":"Rosignano Marittimo","addr:postcode":"57016","addr:street":"Via Fratelli Gigli","area":"yes","fee":"yes","power_supply":"no","sanitary_dump_station":"no"}},"2078455523":{"location":[43.5007029,10.3216876],"ct":"IT","tp":"CR","ts":"2016-09-24T10:12:19Z","tX":541,"tY":374,"tags":{"fee":"no","power_supply":"no","tents":"no","water_point":"no"}},"9733640757":{"location":[43.3525024,10.4510571],"ct":"IT","tp":"CR","ts":"2022-05-11T22:54:13Z","tX":541,"tY":374,"tags":{"alt_name":"Campo del Mare","fee":"yes","name":"ASD Vada Camper parking","opening_hours":"Jun-Aug; Sep-May off","operator":"Associazione Sportiva Vada"}},"6899894414":{"location":[43.4249955,10.4904598],"ct":"IT","tp":"SD","ts":"2019-10-20T09:57:41Z","tX":541,"tY":374,"tags":{"fee":"no"}},"6899894415":{"location":[43.4249449,10.4905859],"ct":"IT","tp":"SD","ts":"2019-10-20T09:57:41Z","tX":541,"tY":374,"tags":{"fee":"no"}},"6899894416":{"location":[43.4248845,10.4907361],"ct":"IT","tp":"SD","ts":"2019-10-20T09:57:41Z","tX":541,"tY":374,"tags":{"fee":"no"}},"6899894417":{"location":[43.4248046,10.490897],"ct":"IT","tp":"SD","ts":"2019-10-20T09:57:41Z","tX":541,"tY":374,"tags":{"fee":"no"}},"6918630653":{"location":[43.3437191,10.4577474],"ct":"IT","tp":"SD","ts":"2019-10-26T16:11:22Z","tX":541,"tY":374,"tags":{"access":"customers","fee":"no","operator":"Camping Tripesce","water_point":"yes"}},"8784407455":{"location":[43.5032495,10.3257719],"ct":"IT","tp":"SD","ts":"2024-11-12T18:16:09Z","tX":541,"tY":374,"tags":{"access":"yes","fee":"no","panoramax":"a4a2ddbe-c598-49d3-be96-eeefe102e067","power_supply":"no","sanitary_dump_station:chemical_toilet":"yes","sanitary_dump_station:grey_water":"yes","water_point":"yes"}},"9331745643":{"location":[43.459633,10.4918467],"ct":"IT","tp":"SD","ts":"2022-05-19T12:02:00Z","tX":541,"tY":374,"tags":{}},"9747467743":{"location":[43.3278908,10.4606567],"ct":"IT","tp":"SD","ts":"2022-05-16T21:47:58Z","tX":541,"tY":374,"tags":{"access":"yes","fee":"yes","opening_hours":"Mo-Su 09:30-12:30, 16:00-19:30"}},"9754425669":{"location":[43.4598863,10.4914297],"ct":"IT","tp":"SD","ts":"2022-05-19T12:02:00Z","tX":541,"tY":374,"tags":{}},"9754425670":{"location":[43.4597938,10.4915746],"ct":"IT","tp":"SD","ts":"2022-05-19T12:02:00Z","tX":541,"tY":374,"tags":{}},"9754425671":{"location":[43.459714,10.4917113],"ct":"IT","tp":"SD","ts":"2022-05-19T12:02:00Z","tX":541,"tY":374,"tags":{}},"9786870361":{"location":[43.555814,10.3039782],"ct":"IT","tp":"SD","ts":"2022-11-05T15:25:31Z","tX":541,"tY":374,"tags":{"access":"yes","fee":"no","maxaxleload":"8 t","power_supply":"no","sanitary_dump_station:chemical_toilet":"yes","sanitary_dump_station:grey_water":"yes","water_point":"yes"}}}