{"13298902":{"location":[43.0881577,10.5414893],"ct":"IT","tp":"CR","ts":"2021-10-07T03:14:18Z","tX":541,"tY":375,"tags":{"surface":"unpaved"}},"14156946":{"location":[43.3178841,10.4735317],"ct":"IT","tp":"CS","ts":"2024-10-25T10:21:03Z","tX":541,"tY":375,"tags":{"addr:city":"Cecina","addr:country":"IT","addr:street":"Via dei Campilunghi","caravans":"yes","email":"info@campingmareblu.com","fee":"yes","motorhome":"yes","name":"Mareblu","phone":"+390586629191","power_supply":"yes","power_supply:maxcurrent":"6","reservation":"yes","socket:cee_blue":"yes","stars":"3","website":"https://campingmareblu.com"}},"14164837":{"location":[43.312643,10.4828854],"ct":"IT","tp":"CS","ts":"2024-10-25T10:18:18Z","tX":541,"tY":375,"tags":{"addr:city":"Cecina","addr:country":"IT","addr:street":"Via dei Campilunghi","cabins":"yes","caravans":"yes","dog":"yes","fee":"yes","motorhome":"yes","name":"Le Gorette","official_name":"Camping Residence & Village Delle Gorette","phone":"+39 0586 622460","static_caravans":"yes","tents":"yes","website":"https://gorette.it"}},"26859833":{"location":[43.2919952,10.5105778],"ct":"IT","tp":"CS","ts":"2013-06-10T10:42:23Z","tX":541,"tY":375,"tags":{"name":"Tamerici"}},"53804217":{"location":[43.242855,10.5299398],"ct":"IT","tp":"CR","ts":"2022-04-30T17:07:02Z","tX":541,"tY":375,"tags":{"fee":"yes","name":"Piazza dei Ciclamini","parking":"surface"}},"149937946":{"location":[43.3039692,10.4867406],"ct":"IT","tp":"CS","ts":"2024-10-25T10:05:56Z","tX":541,"tY":375,"tags":{"addr:city":"Cecina","addr:housenumber":"7","addr:postcode":"57023","addr:street":"Via Volterra","cabins":"yes","caravans":"yes","contact:phone":"+390586620509","contact:whatsapp":"+393331540849","fee":"yes","motorhome":"yes","name":"Bocca di Cecina","power_supply":"yes","power_supply:maxcurrent":"10","socket:cee_blue":"yes","tents":"yes","washing_machine":"yes","website":"https://www.campingboccadicecina.it/"}},"206394490":{"location":[43.2497558,10.5358906],"ct":"IT","tp":"CS","ts":"2024-09-13T11:23:55Z","tX":541,"tY":375,"tags":{"addr:street":"Via dei Cipressi","cabins":"yes","dog":"yes","fee":"yes","name":"Camping Arcobaleno","stars":"3","website":"https://arcobalenocamping.it/"}},"236107929":{"location":[43.235222,10.5358218],"ct":"IT","tp":"CS","ts":"2024-09-13T12:39:25Z","tX":541,"tY":375,"tags":{"addr:housenumber":"56","addr:street":"Via dei Platani","name":"Camping Village Il Gineprino","phone":"+39 0586 600550"}},"251675561":{"location":[43.2354008,10.5337357],"ct":"IT","tp":"CS","ts":"2024-09-13T12:39:25Z","tX":541,"tY":375,"tags":{"addr:housenumber":"58","addr:street":"Via dei Platani","cabins":"yes","caravans":"yes","email":"info@campeggiodelforte.it","fee":"yes","name":"Campeggio del Forte","phone":"+39 0586/600155","static_caravans":"yes","tents":"yes","website":"https://www.campeggiodelforte.it/"}},"251675868":{"location":[43.235894,10.5348141],"ct":"IT","tp":"CS","ts":"2024-09-13T12:39:25Z","tX":541,"tY":375,"tags":{"caravans":"yes","motorhome":"yes","name":"Il Gineprino","phone":"+39 0586 600550","tents":"yes"}},"370398180":{"location":[43.1886291,10.5412047],"ct":"IT","tp":"CS","ts":"2024-09-13T12:50:49Z","tX":541,"tY":375,"tags":{"addr:city":"Castagneto Carducci","addr:postcode":"57022","addr:street":"Via del Dentice","cabins":"yes","caravans":"yes","email":"info@campingetruria.it","fax":"+39 0565 744494","fee":"yes","internet_access":"wlan","internet_access:fee":"no","motorhome":"yes","name":"International Camping Village Etruria","operator":"Vacanze Di Charme","phone":"+39 0565 744254","power_supply":"yes","power_supply:maxcurrent":"6;16","socket:cee_blue":"yes","tents":"yes","website":"https://www.campingetruria.it/","wheelchair":"yes"}},"404572116":{"location":[43.325149,10.4587511],"ct":"IT","tp":"CS","ts":"2019-09-09T08:34:29Z","tX":541,"tY":375,"tags":{"access":"private","contact:website":"http://www.caritasfirenze.it/le-strutture/campeggio-san-frediano_servizi-solid.html","denomination":"catholic","name":"campeggio Caritas San Frediano","operator":"Caritas Firenze","religion":"christian"}},"411099727":{"location":[43.2526559,10.5335041],"ct":"IT","tp":"CS","ts":"2024-09-13T12:24:21Z","tX":541,"tY":375,"tags":{"addr:city":"Marina di Bibbona","addr:postcode":"57020","addr:street":"Via dei Cipressi","cabins":"yes","caravans":"no","email":"info@freetimecamping.it","fee":"yes","motorhome":"yes","name":"FreeTime","phone":"+39 0586 600934","phone:mobile":"+39 334 3847704","power_supply":"yes","power_supply:maxcurrent":"3","socket:cee_blue":"yes","stars":"3","tents":"yes","website":"https://www.freetimecamping.it/"}},"431220569":{"location":[43.301054,10.5012862],"ct":"IT","tp":"CR","ts":"2016-07-15T15:02:08Z","tX":541,"tY":375,"tags":{"fee":"yes"}},"438424996":{"location":[43.2482991,10.5321121],"ct":"IT","tp":"CS","ts":"2024-09-13T11:23:55Z","tX":541,"tY":375,"tags":{"addr:city":"Marina di Bibbona","addr:housenumber":"11","addr:postcode":"57020","addr:street":"Via dei Cipressi","caravans":"yes","email":"info@campingimelograni.it","fax":"+39 0586 602717","fee":"yes","motorhome":"yes","name":"Camping i Melograni","operator":"Azienda Speciale Pluriservizi Comune di Bibbona A.S.Bi","phone":"+39 0586 600222","power_supply":"yes","ref:vatin":"IT01493680498","socket:cee_blue":"yes","tents":"yes","website":"https://www.campingimelograni.it/"}},"438427161":{"location":[43.2509826,10.5296244],"ct":"IT","tp":"CS","ts":"2024-09-13T11:23:55Z","tX":541,"tY":375,"tags":{"addr:city":"Marina di Bibbona","addr:housenumber":"88","addr:postcode":"57020","addr:street":"Via Cavalleggeri Nord","cabins":"yes","caravans":"yes","dog":"yes","email":"info@campingfreebeach.it","fax":"+39 0586 602984;+39 0586 696041","motorhome":"yes","name":"Free Beach","note":"Dog Beach","operator":"Camping Free Beach srl","phone":"+39 0586 600388;+39 0586 696855","power_supply":"yes","ref:vatin":"IT00965020506","shower":"yes","socket:cee_blue":"yes","stars":"3","tents":"yes","toilets":"yes","website":"https://www.campingfreebeach.it/"}},"521547457":{"location":[43.2493627,10.5258892],"ct":"IT","tp":"CS","ts":"2024-09-13T11:31:30Z","tX":541,"tY":375,"tags":{"caravans":"yes","dog":"yes","drinking_water":"yes","internet_access":"wlan","motorhome":"yes","name":"Le Esperidi","phone":"+39 0586-600196","power_supply":"yes","shower":"yes","socket:cee_blue":"yes","tents":"yes","website":"https://www.esperidi.it/"}},"715198013":{"location":[43.3132711,10.4882735],"ct":"IT","tp":"CS","ts":"2024-09-01T15:45:17Z","tX":541,"tY":375,"tags":{"addr:city":"Cecina","addr:street":"Via Francesco Domenico Guerrazzi","name":"Agricampeggio Ippocampo","website":"https://www.agricampeggioippocampo.it/"}},"850080768":{"location":[43.2474038,10.5264893],"ct":"IT","tp":"CS","ts":"2024-09-13T11:31:30Z","tX":541,"tY":375,"tags":{"addr:city":"Marina di Bibbona","addr:housenumber":"40","addr:postcode":"57020","addr:street":"Via del Mare","caravans":"yes","dog":"yes","email":"info@campingcasadicaccia.it","fax":"+39 0586 600000","fee":"yes","motorhome":"yes","name":"Casa di Caccia","phone":"+39 0586 600000","power_supply":"yes","power_supply:maxcurrent":"6","socket:cee_blue":"yes","tents":"yes","website":"https://www.campingcasadicaccia.com/"}},"850398390":{"location":[43.2497763,10.534632],"ct":"IT","tp":"CR","ts":"2020-09-23T07:54:09Z","tX":541,"tY":375,"tags":{"fee":"yes","name":"Barsotti"}},"1056876436":{"location":[43.3089077,10.4872529],"ct":"IT","tp":"CS","ts":"2024-10-25T10:13:30Z","tX":541,"tY":375,"tags":{"addr:city":"Cecina","addr:housenumber":"7","addr:postcode":"57023","addr:street":"Via Volterra","cabins":"yes","caravans":"yes","contact:phone":"+390586620509","contact:whatsapp":"+393331540849","fee":"yes","motorhome":"yes","name":"Bocca di Cecina","power_supply":"yes","power_supply:maxcurrent":"10","socket:cee_blue":"yes","tents":"yes","washing_machine":"yes","website":"https://www.campingboccadicecina.it/"}},"1181828766":{"location":[43.1750697,10.5419092],"ct":"IT","tp":"CS","ts":"2024-11-05T20:19:44Z","tX":541,"tY":375,"tags":{"addr:city":"Castagneto Carducci","addr:postcode":"57022","addr:street":"Via della Marina","cabins":"yes","caravans":"yes","drinking_water":"yes","email":"info@campingbelmare.it","fee":"yes","internet_access":"yes","internet_access:fee":"no","motorhome":"yes","name":"Belmare","phone":"+39.0565.744264","power_supply":"yes","sanitary_dump_station":"yes","shower":"yes","socket:cee_blue":"yes","tents":"yes","toilets":"yes","website":"https://campingbelmare.it"}},"1181828767":{"location":[43.1717115,10.5422438],"ct":"IT","tp":"CS","ts":"2024-09-15T19:52:27Z","tX":541,"tY":375,"tags":{"cabins":"yes","caravans":"yes","dog":"yes","drinking_water":"yes","fee":"yes","motorhome":"yes","name":"Continental","power_supply":"yes","sanitary_dump_station":"yes","shower":"yes","socket:cee_blue":"yes","tents":"yes","toilets":"yes","website":"https://www.campingcontinental.it/"}},"1282623763":{"location":[43.2331637,10.5343055],"ct":"IT","tp":"CR","ts":"2024-05-13T21:20:24Z","tX":541,"tY":375,"tags":{"capacity":"6","caravan_site":"motorhome_stopover","caravan_site:type":"parking_lot;beach","surface":"asphalt"}},"1315319242":{"location":[43.2364695,10.5301364],"ct":"IT","tp":"CS","ts":"2024-09-13T12:39:25Z","tX":541,"tY":375,"tags":{"addr:housenumber":"48","addr:street":"Via dei Cavalleggeri Sud","cabins":"yes","caravans":"yes","contact:whatsapp":"+39 335 1779294","drinking_water":"yes","fee":"yes","fixme":"geometry","motorhome":"yes","name":"Il Capannino","phone":"+39 0586 512595","power_supply":"yes","shower":"yes","socket:cee_blue":"yes","stars":"3","tents":"yes","website":"https://www.capannino.it/"}},"1390610049":{"location":[43.1934076,10.5416704],"ct":"IT","tp":"CR","ts":"2019-11-01T18:22:17Z","tX":541,"tY":375,"tags":{"fee":"yes"}},"11016778467":{"location":[43.2474046,10.5263856],"ct":"IT","tp":"SD","ts":"2023-07-01T11:50:17Z","tX":541,"tY":375,"tags":{"access":"customers","sanitary_dump_station:gravity":"yes"}},"11208818501":{"location":[43.1715916,10.5438426],"ct":"IT","tp":"SD","ts":"2023-09-21T19:54:06Z","tX":541,"tY":375,"tags":{}}}