{"12423281":{"location":[42.9251514,10.5431008],"ct":"IT","tp":"CR","ts":"2024-03-27T13:16:37Z","tX":541,"tY":376,"tags":{"bar":"yes","caravan_site":"motorhome_stopover","caravan_site:type":"hotel","caravans":"no","fee":"yes","name":"Area Sosta Camper ALVIN Piombino","operator":"alvin","parking":"surface","sanitary_dump_station":"no","surface":"unpaved","tents":"no","toilets":"yes"}},"13221027":{"location":[43.0261362,10.5399757],"ct":"IT","tp":"CS","ts":"2024-09-13T14:57:29Z","tX":541,"tY":376,"tags":{"access":"customers","addr:street":"Localita Pineta di Torrenuova","email":"parkalbatros@ecvacanze.it","fax":"+39 0565 703589","fee":"yes","internet_access":"wlan","internet_access:fee":"no","name":"Camping Village Park Albatros","payment:credit_cards":"yes","payment:debit_cards":"yes","pets":"yes","phone":"+39 0565 701018","power_supply":"yes","reservation":"yes","socket:cee_blue":"yes","website":"https://parkalbatros.humancompany.com/"}},"15953799":{"location":[42.9929658,10.5223536],"ct":"IT","tp":"CS","ts":"2024-09-13T15:21:29Z","tX":541,"tY":376,"tags":{"bbq":"yes","caravans":"yes","dog":"yes","internet_access":"yes","internet_access:fee":"no","motorhome":"yes","name":"Agricampeggio Podere Etrusco","power_supply":"yes","sanitary_dump_station":"yes","socket:cee_blue":"yes","tents":"yes","washing_machine":"yes","website":"https://www.podereetrusco.it/"}},"15959281":{"location":[43.0015986,10.528621],"ct":"IT","tp":"CR","ts":"2024-10-04T08:37:51Z","tX":541,"tY":376,"tags":{"capacity":"94","fee":"yes @ (Mo-Su,PH 08:00-20:00)","name":"Parcheggio Scambiatore Caldanelle","operator":"Comune di Piombino","phone":"+39 0565 261142","sanitary_dump_station":"yes","tents":"no","website":"https://www.parchivaldicornia.it/info-e-servizi/mobilita-e-parcheggi/"}},"15962501":{"location":[42.998039,10.528577],"ct":"IT","tp":"CS","ts":"2024-09-13T15:21:29Z","tX":541,"tY":376,"tags":{"alt_name":"Agricampeggio Sant'Ignazio","alt_name_2":"Agricampeggio Rosa dei Venti","caravans":"yes","description":"camping","name":"Agricampeggio Baratti","power_supply":"yes","sanitary_dump_station":"yes","socket:cee_blue":"yes","tents":"yes","website":"https://www.agricampeggiobaratti.it"}},"15962502":{"location":[42.9917166,10.5284515],"ct":"IT","tp":"CS","ts":"2024-09-13T15:24:14Z","tX":541,"tY":376,"tags":{"addr:city":"Piombino","addr:country":"IT","addr:place":"Fabbricciane","addr:postcode":"57025","caravans":"yes","fee":"yes","motorhome":"yes","name":"Agricampeggio La Piaggia","phone":"+39 0565 29638","phone:mobile":"+393316132372","power_supply":"yes","sanitary_dump_station":"yes","shower":"yes","socket:cee_blue":"yes","tents":"yes","toilets":"yes","website":"https://www.agricampeggiolapiaggia.it/"}},"41276681":{"location":[42.8243713,10.2707039],"ct":"IT","tp":"CS","ts":"2024-08-31T07:43:04Z","tX":541,"tY":376,"tags":{"addr:city":"Portoferraio","addr:postcode":"57037","addr:street":"Località Enfola","caravans":"yes","email":"info@campingenfola.com","internet_access":"wlan","internet_access:fee":"customers","name":"Camping Enfola","phone":"+39 0565 939001","power_supply":"yes","reservation":"yes","shower":"yes","tents":"yes","toilets":"yes","website":"https://www.campingenfola.com"}},"65202719":{"location":[42.8223915,10.2811723],"ct":"IT","tp":"CS","ts":"2023-11-15T15:26:44Z","tX":541,"tY":376,"tags":{"addr:city":"Portoferraio","addr:postcode":"57037","caravans":"yes","email":"info@campinglasorgente.it","name":"La Sorgente","phone":"+39 0565 917139","tents":"yes","website":"https://www.campinglasorgente.it/"}},"372478853":{"location":[42.8247349,10.3804854],"ct":"IT","tp":"CS","ts":"2015-12-17T13:56:14Z","tX":541,"tY":376,"tags":{"name":"Sole e Mare","url":"http://www.soleemare.it/"}},"703129976":{"location":[42.9565103,10.5201329],"ct":"IT","tp":"CS","ts":"2024-09-13T15:30:31Z","tX":541,"tY":376,"tags":{"addr:city":"Fiorentina","addr:housenumber":"19","addr:postcode":"57025","addr:street":"Località Asca","capacity":"48","dog":"yes","internet_access":"no","name":"Agricamping Giro di Boa","operator":"Azienda Agricola Oasi Oppedisano","power_supply":"yes","sanitary_dump_station":"yes","shower":"yes","socket:cee_blue":"yes","toilets":"yes","washing_machine":"yes","website":"https://www.agricampinggirodiboa.com/"}},"1315344938":{"location":[43.0158455,10.5258803],"ct":"IT","tp":"CR","ts":"2024-09-13T15:09:22Z","tX":541,"tY":376,"tags":{"addr:housenumber":"11","addr:postcode":"57025","addr:street":"Localita Sant Albinia","dog":"yes","email":"info@oasi.toscana.it","name":"Agricampeggio Oasi","phone":"+39 347.1154759","power_supply":"yes","socket:cee_blue":"yes","washing_machine":"yes","website":"https://oasi.toscana.it/"}},"1315344939":{"location":[43.0174739,10.5289379],"ct":"IT","tp":"CS","ts":"2024-09-13T15:09:22Z","tX":541,"tY":376,"tags":{"addr:street":"Via della Principessa","name":"Camping Sant'Albinia","note":"closed"}},"1322593781":{"location":[42.8543708,10.4222026],"ct":"IT","tp":"CR","ts":"2024-10-09T14:10:00Z","tX":541,"tY":376,"tags":{"addr:street":"Via Valle dei Baccetti","name":"Area camper Cavo","power_supply":"yes","shower":"yes","website":"https://www.areacampercavo.it/prezzi-area.html"}},"1714392864":{"location":[43.0497841,10.5446436],"ct":"IT","tp":"CS","ts":"2012-04-13T13:34:06Z","tX":541,"tY":376,"tags":{"name":"Elite"}},"7580219712":{"location":[42.966291,10.5369155],"ct":"IT","tp":"CS","ts":"2024-09-13T15:30:31Z","tX":541,"tY":376,"tags":{"addr:city":"Piombino","addr:country":"IT","addr:housenumber":"30","addr:postcode":"57025","caravans":"yes","name":"Agricampeggio Princess","phone":"+39 3396913357","power_supply":"yes","socket:cee_blue":"yes","tents":"yes","website":"https://www.agricampeggioprincess.com/"}},"9115921670":{"location":[42.8219241,10.2864677],"ct":"IT","tp":"CS","ts":"2023-11-08T23:48:35Z","tX":541,"tY":376,"tags":{"addr:city":"Portoferraio","addr:postcode":"57037","addr:street":"Spiaggia dell'Acquaviva","name":"Acquaviva Village Camping","phone":"+39 0565 919103","website":"https://campingacquaviva.it/"}},"9915363882":{"location":[42.8552634,10.4233824],"ct":"IT","tp":"CR","ts":"2022-07-27T18:54:01Z","tX":541,"tY":376,"tags":{}},"11809361920":{"location":[42.996019,10.5382685],"ct":"IT","tp":"CR","ts":"2024-04-11T10:48:16Z","tX":541,"tY":376,"tags":{"capacity":"3","power_supply":"no","sanitary_dump_station":"no"}}}