{"28494256":{"location":[42.7574124,10.3599458],"ct":"IT","tp":"CS","ts":"2024-05-26T09:43:03Z","tX":541,"tY":377,"tags":{"addr:city":"Capoliveri","addr:postcode":"57031","caravans":"yes","email":"info@lecalanchiole.it","name":"Le Calanchiole","phone":"+390565933488","stars":"3","tents":"yes","website":"https://www.lecalanchiole.it/"}},"70561747":{"location":[42.7708497,10.4091228],"ct":"IT","tp":"CS","ts":"2023-11-08T23:48:31Z","tX":541,"tY":377,"tags":{"backcountry":"no","capacity":"500","dog":"yes","fee":"yes","group_only":"no","internet_access":"wlan","internet_access:fee":"customers","name":"Camping Arrighi","power_supply":"yes","reservation":"yes","sanitary_dump_station":"yes","shower":"yes","stars":"3","toilets":"yes","website":"https://www.campingarrighi.it/"}},"82715802":{"location":[42.7557815,10.3133699],"ct":"IT","tp":"CS","ts":"2024-10-14T14:29:52Z","tX":541,"tY":377,"tags":{"caravans":"yes","contact:city":"Capoliveri","contact:email":"info@stellamare.it","contact:housenumber":"426c","contact:phone":"+39 0565 964007","contact:postcode":"57031","contact:street":"Via del Moletto","contact:website":"https://www.stellamare.it/","drinking_water":"yes","name":"Camping Village Stella Mare","operator":"Sambuco e Sevecek & Co.","power_supply":"yes","sanitary_dump_station":"yes","shower":"yes","tents":"yes","toilets":"yes"}},"114513699":{"location":[42.7608825,10.3027472],"ct":"IT","tp":"CS","ts":"2022-09-01T23:51:48Z","tX":541,"tY":377,"tags":{"caravans":"yes","drinking_water":"no","name":"Santa Maria","power_supply":"yes","shower":"yes","tents":"yes","toilets":"yes"}},"114513700":{"location":[42.760417,10.3005693],"ct":"IT","tp":"CS","ts":"2024-10-13T17:10:41Z","tX":541,"tY":377,"tags":{"access":"private","addr:city":"Lacona","addr:housenumber":"213","addr:postcode":"57031","addr:street":"Via del Mare","caravans":"yes","fee":"yes","internet_access":"wlan","name":"Tallinucci","tents":"yes","website":"https://www.campingtallinucci.it"}},"117043873":{"location":[42.7611321,10.3580542],"ct":"IT","tp":"CS","ts":"2011-06-29T20:58:30Z","tX":541,"tY":377,"tags":{"internet_access":"wlan","internet_access:fee":"yes","name":"Europa","stars":"3"}},"119680582":{"location":[42.7613606,10.3568664],"ct":"IT","tp":"CS","ts":"2011-06-29T20:57:49Z","tX":541,"tY":377,"tags":{"name":"Lido","stars":"3"}},"120915631":{"location":[42.7724004,10.4155986],"ct":"IT","tp":"CS","ts":"2022-02-20T12:34:04Z","tX":541,"tY":377,"tags":{"name":"Camping Reale"}},"281805014":{"location":[42.7584827,10.2974887],"ct":"IT","tp":"CS","ts":"2024-10-13T21:20:39Z","tX":541,"tY":377,"tags":{"addr:housenumber":"431","addr:postcode":"57031","addr:street":"Via di Laconella","caravans":"yes","name":"Laconella","tents":"yes","website":"https://www.campinglaconella.it/"}},"281805015":{"location":[42.75923,10.3138707],"ct":"IT","tp":"CS","ts":"2023-06-25T16:51:23Z","tX":541,"tY":377,"tags":{"addr:city":"Capoliveri","addr:housenumber":"249","addr:place":"Lacona","addr:postcode":"57031","addr:street":"Via dei Golfi","contact:email":"info@campinglaconapineta.com","contact:fax":"+390565964087","contact:phone":"+390565964322","contact:website":"http://www.campinglaconapineta.com","name":"Camping Lacona Pineta"}},"294863332":{"location":[42.7333087,10.3750696],"ct":"IT","tp":"CS","ts":"2008-09-07T19:56:19Z","tX":541,"tY":377,"tags":{"name":"Camping Croce del Sud"}},"304775406":{"location":[42.8038252,10.2707853],"ct":"IT","tp":"CS","ts":"2023-05-07T14:23:15Z","tX":541,"tY":377,"tags":{"name":"Camping Scaglieri","website":"https://www.campingscaglieri.it/de/home"}},"356559052":{"location":[42.8019809,10.3678458],"ct":"IT","tp":"CS","ts":"2022-07-15T16:36:45Z","tX":541,"tY":377,"tags":{"addr:city":"Portoferraio","addr:country":"IT","addr:housenumber":"3","addr:postcode":"57037","addr:street":"Localit√† Ottone","name":"Rosselba le Palme","phone":"+390565933101","website":"https://www.rosselbalepalme.it/"}},"369262819":{"location":[42.7700366,10.4066131],"ct":"IT","tp":"CS","ts":"2021-02-25T09:25:15Z","tX":541,"tY":377,"tags":{"alt_name":"Barbarossa Camping Da Mario","capacity":"100","fee":"yes","internet_access":"wlan","internet_access:fee":"no","internet_access:ssid":"Camping Da Mario","name":"Camping Da Mario","toilets:wheelchair":"no","wheelchair":"yes"}},"419278667":{"location":[42.7647394,10.3020805],"ct":"IT","tp":"CR","ts":"2024-11-07T14:49:45Z","tX":541,"tY":377,"tags":{"addr:city":"Lacona","addr:postcode":"57031","addr:street":"Via dei Vigneti","name":"Rimessaggio Lacona Nord"}},"444906281":{"location":[42.758962,10.3157101],"ct":"IT","tp":"CS","ts":"2020-02-15T13:27:32Z","tX":541,"tY":377,"tags":{"addr:city":"Capoliveri","addr:housenumber":"71","addr:place":"Lacona","addr:postcode":"57031","addr:street":"Via dei Golfi","contact:email":"info@camping-lacona.it","contact:fax":"+390565964330","contact:phone":"+390565964161","contact:website":"http://camping-lacona.it","name":"Camping Lacona"}},"502197065":{"location":[42.7636988,10.3095018],"ct":"IT","tp":"CS","ts":"2024-05-16T19:47:46Z","tX":541,"tY":377,"tags":{"addr:housenumber":"522","addr:street":"Via dei Vigneti","caravans":"yes","name":"Orti di mare","tents":"yes","website":"https://www.ortidimare.it/"}},"550642054":{"location":[42.7516196,10.2468342],"ct":"IT","tp":"CS","ts":"2022-10-07T09:41:10Z","tX":541,"tY":377,"tags":{"addr:city":"Campo nell'Elba","addr:hamlet":"Marina di Campo","addr:housenumber":"89","addr:postcode":"57035","addr:street":"Via della Foce","caravans":"yes","drinking_water":"no","email":"info@villedegliulivi.it","internet_access":"wlan","internet_access:fee":"yes","name":"Ville degli Ulivi","phone":"+390565976098","shower":"yes","tents":"yes","toilets:wheelchair":"yes","website":"https://villedegliulivi.it/","wheelchair":"yes"}},"988108366":{"location":[42.7513629,10.2442937],"ct":"IT","tp":"CS","ts":"2022-10-10T19:17:02Z","tX":541,"tY":377,"tags":{"caravans":"yes","drinking_water":"yes","name":"Camping del Mare","power_supply":"yes","shower":"yes","tents":"yes","toilets":"yes"}},"1054820912":{"location":[42.7847277,10.2989028],"ct":"IT","tp":"CS","ts":"2024-10-24T14:22:10Z","tX":541,"tY":377,"tags":{"landuse":"farmyard"}},"1092579711":{"location":[42.7498249,10.2460973],"ct":"IT","tp":"CS","ts":"2022-09-07T09:37:27Z","tX":541,"tY":377,"tags":{"name":"La Foce"}},"1193585916":{"location":[42.7948776,10.4187171],"ct":"IT","tp":"CS","ts":"2024-05-18T16:37:17Z","tX":541,"tY":377,"tags":{"email":"info@campingcanapai.it","fee":"yes","name":"Camping Village Canapai","website":"https://www.campingcanapai.it/"}},"1894590650":{"location":[42.744663,10.4087314],"ct":"IT","tp":"CS","ts":"2018-05-26T16:18:15Z","tX":541,"tY":377,"tags":{"name":"Agriturismo Agricampeggio BioElba"}},"4155343687":{"location":[42.771501,10.4057876],"ct":"IT","tp":"CS","ts":"2018-06-04T08:26:36Z","tX":541,"tY":377,"tags":{"name":"Camping il Gabbiano"}},"7972926743":{"location":[42.7633511,10.3239492],"ct":"IT","tp":"CS","ts":"2024-07-18T12:45:32Z","tX":541,"tY":377,"tags":{"addr:housenumber":"1040","addr:street":"Via Capo ai Pini","caravans":"yes","description":"Agriturismo Golfo Stella","drinking_water":"yes","name":"Agricampeggio La Riccia","phone":"+39 0565 964356","power_supply":"yes","sanitary_dump_station":"yes","shower":"yes","tents":"yes","toilets":"yes","website":"https://www.agriturismogolfostella.it/"}},"5158419321":{"location":[42.7890176,10.2488265],"ct":"IT","tp":"CR","ts":"2024-10-11T21:20:15Z","tX":541,"tY":377,"tags":{"bbq":"yes","dog":"yes","email":"laperla.procchio@gmail.com","internet_access":"yes","name":"la Perla","name:de":"la Perla","phone":"+39 339.1725879","power_supply":"yes","socket:cee_blue":"yes","toilets":"yes","website":"https://www.elbaincamper.it/"}},"6103916585":{"location":[42.7646268,10.3112671],"ct":"IT","tp":"CR","ts":"2021-09-12T20:17:31Z","tX":541,"tY":377,"tags":{"name":"Orti di mare"}},"11962214787":{"location":[42.7614133,10.3087574],"ct":"IT","tp":"CR","ts":"2024-06-07T07:22:17Z","tX":541,"tY":377,"tags":{"addr:housenumber":"544/B","addr:street":"Via dei Golfi","name":"Parco delle Dune","opening_hours":"Mo-Sa 09:00-12:00, 15:30-18:00; Su 09:00-12:00","phone":"338 108 9127"}}}