{"135032709":{"location":[55.5998901,-1.7698021],"ct":"GB","tp":"CS","ts":"2024-04-27T10:48:11Z","tX":506,"tY":320,"tags":{"addr:city":"Warren Mill","addr:postcode":"NE70 7EE","internet_access":"no","name":"Budle Bay Campsite","website":"https://budlebaycampsite.com/","wheelchair":"limited"}},"174371601":{"location":[55.7548968,-2.0303302],"ct":"GB","tp":"CR","ts":"2024-12-23T08:24:27Z","tX":506,"tY":320,"tags":{"addr:city":"East Ord, Berwick upon Tweed","addr:postcode":"TD15 2NS","fee":"yes","internet_access":"wlan","internet_access:fee":"no","name":"Ord House Country Park","operator":"Maguires Country Parks","power_supply":"yes","sanitary_dump_station":"yes"}},"178229890":{"location":[55.5994999,-1.832349],"ct":"GB","tp":"CR","ts":"2019-01-28T08:42:35Z","tX":506,"tY":320,"tags":{}},"227718021":{"location":[55.7493812,-2.103995],"ct":"GB","tp":"CR","ts":"2023-02-20T18:14:56Z","tX":506,"tY":320,"tags":{"name":"Chainbridge Touring Caravan Site","website":"https://www.chainbridgecaravansite.co.uk/"}},"239310674":{"location":[55.7581517,-1.9985911],"ct":"GB","tp":"CR","ts":"2025-01-15T12:13:16Z","tX":506,"tY":320,"tags":{"caravans":"yes","name":"Berwick Seaview Caravan and Motorhome Club Campsite","name:en":"Berwick Seaview Caravan and Motorhome Club Campsite","tents":"yes","website":"https://www.caravanclub.co.uk/club-sites/england/north-east-england/northumberland/berwick-seaview-club-campsite/?utm_source=localsearch&utm_medium=organic&utm_campaign=gmb"}},"254006458":{"location":[55.7516091,-1.9928211],"ct":"GB","tp":"CR","ts":"2021-02-18T06:56:09Z","tX":506,"tY":320,"tags":{"addr:postcode":"TD15 2QR","addr:street":"Cow Road","name":"Elm Bank Coastal Retreat","tents":"no"}},"292622230":{"location":[55.7113638,-2.0445912],"ct":"GB","tp":"CR","ts":"2014-07-13T17:18:46Z","tX":506,"tY":320,"tags":{}},"300932364":{"location":[55.6511287,-2.00697],"ct":"GB","tp":"CR","ts":"2020-09-10T07:23:14Z","tX":506,"tY":320,"tags":{"name":"Barmoor Castle Coutry Park","source":"Bing"}},"345545702":{"location":[55.6574284,-1.9277769],"ct":"GB","tp":"CR","ts":"2018-12-12T08:21:17Z","tX":506,"tY":320,"tags":{"name":"West Kyloe Farm Old Mill"}},"414763975":{"location":[55.5913508,-1.823123],"ct":"GB","tp":"CR","ts":"2024-02-17T17:55:08Z","tX":506,"tY":320,"tags":{"addr:city":"Belford","addr:postcode":"NE70 7DP","addr:street":"South Road","name":"South Meadows Caravan Park","phone":"+44 1668 213326"}},"641142514":{"location":[55.7004473,-2.0114878],"ct":"GB","tp":"CR","ts":"2020-09-10T07:23:14Z","tX":506,"tY":320,"tags":{"landuse":"grass","name":"Raglan Caravan Park","source":"Bing"}},"663716603":{"location":[55.7690214,-2.0737083],"ct":"GB","tp":"CR","ts":"2019-01-16T06:54:21Z","tX":506,"tY":320,"tags":{"source":"Bing"}},"916488240":{"location":[55.7640423,-2.1092597],"ct":"GB","tp":"CR","ts":"2021-03-12T23:10:55Z","tX":506,"tY":320,"tags":{"surface":"grass"}},"1087906305":{"location":[55.6789788,-1.8950826],"ct":"GB","tp":"CS","ts":"2024-06-23T15:51:30Z","tX":506,"tY":320,"tags":{"caravans":"yes","name":"Barn at Beal campsite","opening_hours":"Mo-We, Fr, Sa 09:00-16:00","tents":"yes","website":"https://barnatbeal.com/camping/"}},"1376672263":{"location":[55.6888289,-1.9339575],"ct":"GB","tp":"CS","ts":"2024-02-26T19:22:57Z","tX":506,"tY":320,"tags":{"fee":"yes","name":"Haggerston Campsite","note":"electric pitches yes","operator":"Havon","tents":"no","website":"https://www.haven.com/touring-camping/parks/northumberland/haggerston-castle"}},"2420940809":{"location":[55.6860164,-1.906085],"ct":"GB","tp":"CR","ts":"2022-08-21T12:05:24Z","tX":506,"tY":320,"tags":{"name":"Brock Mill Farm CL","website":"https://www.caravanclub.co.uk/certificated-locations/england/northumberland/berwick-upon-tweed/brock-mill-farm/"}},"10982718707":{"location":[55.5926784,-1.8221944],"ct":"GB","tp":"SD","ts":"2023-06-17T16:07:21Z","tX":506,"tY":320,"tags":{}}}