{"111222037":{"location":[55.558727,-1.7910583],"ct":"GB","tp":"CR","ts":"2019-01-21T08:44:01Z","tX":506,"tY":321,"tags":{"addr:city":"Belford","addr:postcode":"NE70 7JA","fee":"yes","name":"Adderstone Caravan Park"}},"114161279":{"location":[55.4522859,-1.9111203],"ct":"GB","tp":"CS","ts":"2021-01-16T18:14:29Z","tX":506,"tY":321,"tags":{"building":"yes","name":"Powburn Scout Adventure Centre","operator":"Tynemouth Scouts"}},"114161285":{"location":[55.4452248,-1.9212992],"ct":"GB","tp":"CR","ts":"2011-05-20T18:30:09Z","tX":506,"tY":321,"tags":{"name":"River Breamish - Caravan Club site"}},"160144041":{"location":[55.540111,-2.0081619],"ct":"GB","tp":"CR","ts":"2023-03-23T08:56:54Z","tX":506,"tY":321,"tags":{"addr:city":"Wooler","addr:postcode":"NE71 6NJ","addr:street":"South Road","capacity:static_caravan":"560","name":"Riverside Leisure Park","phone":"+44 1668 281 447","source":"Bing","website":"http://www.riverside-wooler.co.uk/"}},"239947471":{"location":[55.444153,-1.9058415],"ct":"GB","tp":"CR","ts":"2013-09-30T01:33:12Z","tX":506,"tY":321,"tags":{}},"240117609":{"location":[55.542221,-2.0071422],"ct":"GB","tp":"CR","ts":"2023-03-23T08:22:49Z","tX":506,"tY":321,"tags":{"addr:city":"Wooler","addr:postcode":"NE71 6QG","addr:street":"Bridgend Park","name":"Bridgend Park","phone":"+44 844 567 0011","website":"https://www.wyldecrestparks.co.uk/property_location/bridgend-park/"}},"240265875":{"location":[55.5479596,-2.0266296],"ct":"GB","tp":"CR","ts":"2021-02-10T08:23:13Z","tX":506,"tY":321,"tags":{"addr:city":"Wooler","addr:postcode":"NE71 6EE","addr:street":"Burnhouse Road","name":"Highburn House Country Holiday Park","phone":"+44 1668 281344"}},"421035667":{"location":[55.5636405,-1.7601311],"ct":"GB","tp":"CR","ts":"2024-07-08T14:50:24Z","tX":506,"tY":321,"tags":{"name":"Orchard Caravan Park"}},"653827229":{"location":[55.4571129,-1.7697611],"ct":"GB","tp":"CR","ts":"2018-12-09T23:44:30Z","tX":506,"tY":321,"tags":{}},"667625606":{"location":[55.462513,-1.7761672],"ct":"GB","tp":"CR","ts":"2019-02-01T08:12:59Z","tX":506,"tY":321,"tags":{}},"670864604":{"location":[55.5312771,-1.9150181],"ct":"GB","tp":"CR","ts":"2019-02-16T07:32:18Z","tX":506,"tY":321,"tags":{}},"1213791794":{"location":[55.471413,-1.8163514],"ct":"GB","tp":"CS","ts":"2023-10-07T09:34:14Z","tX":506,"tY":321,"tags":{}},"7314542385":{"location":[55.380465,-2.1029054],"ct":"GB","tp":"CS","ts":"2020-03-21T08:05:21Z","tX":506,"tY":321,"tags":{"name":"Firing Point  - Farm"}}}