{"117006967":{"location":[54.9746735,-1.8509553],"ct":"GB","tp":"CR","ts":"2022-06-02T08:52:20Z","tX":506,"tY":324,"tags":{"name":"High Hermitage Caravan Park","power_supply":"yes","source":"Bing","stars":"3","website":"https://www.highhermitagecaravanpark.co.uk/"}},"117006968":{"location":[54.9739843,-1.8505706],"ct":"GB","tp":"CS","ts":"2011-06-09T21:57:06Z","tX":506,"tY":324,"tags":{}},"117006973":{"location":[54.9737401,-1.8503291],"ct":"GB","tp":"CS","ts":"2011-06-09T21:57:07Z","tX":506,"tY":324,"tags":{}},"117007261":{"location":[54.9742958,-1.8507223],"ct":"GB","tp":"CS","ts":"2011-06-09T22:04:18Z","tX":506,"tY":324,"tags":{"name":"High Hermitage Caravan Park"}},"145591837":{"location":[54.8990563,-2.0641358],"ct":"GB","tp":"CR","ts":"2020-05-01T07:11:34Z","tX":506,"tY":324,"tags":{"name":"Springhouse Caravan Park"}},"253896560":{"location":[54.8990883,-1.8100732],"ct":"GB","tp":"CR","ts":"2024-03-04T09:01:42Z","tX":506,"tY":324,"tags":{"addr:city":"Hamsterley","addr:postcode":"NE17 7RT","capacity":"43","caravans":"yes","name":"Byreside Caravan Site","phone":"+44 1207 560280","source":"OS_OpenData_StreetView;Bing","website":"http://www.byresidecaravansite.co.uk/"}},"349596924":{"location":[54.9678016,-2.0152912],"ct":"GB","tp":"CR","ts":"2020-04-01T07:31:34Z","tX":506,"tY":324,"tags":{}},"449386451":{"location":[54.9354872,-1.7781368],"ct":"GB","tp":"CR","ts":"2016-10-25T14:50:59Z","tX":506,"tY":324,"tags":{"name":"RV Storage"}},"505825816":{"location":[54.9773718,-2.1088195],"ct":"GB","tp":"CR","ts":"2020-03-30T07:27:24Z","tX":506,"tY":324,"tags":{"addr:housename":"Tyne Green Holiday Park","addr:street":"Tyne Green","landuse":"commercial","name":"Tyne Green Holiday Park"}},"786128580":{"location":[54.9644327,-2.0430024],"ct":"GB","tp":"CS","ts":"2020-03-31T07:21:14Z","tX":506,"tY":324,"tags":{"access":"private","addr:city":"Hexham","addr:street":"Corbridge Road","contact:email":"d.hawkins52@btinternet.com","contact:phone":"+44 1434 633908","landuse":"grass","name":"Dilston Scout Camp","note":"Private Grid ref. NY 974 634 - 54.965N 2.041W","operator":"Association of Scout & Guide Centres"}},"792800507":{"location":[54.8659305,-1.9370263],"ct":"GB","tp":"CR","ts":"2024-09-20T12:19:30Z","tX":506,"tY":324,"tags":{"name":"Bolbec Manor Campsite","website":"https://www.pitchup.com/campsites/England/North_East/Northumberland/shotley_bridge/bolbec_manor_campsite/"}},"796787953":{"location":[54.9162426,-2.0288318],"ct":"GB","tp":"CR","ts":"2020-04-27T07:09:16Z","tX":506,"tY":324,"tags":{}},"837456859":{"location":[54.8447728,-1.9730398],"ct":"GB","tp":"CR","ts":"2024-02-14T23:39:35Z","tX":506,"tY":324,"tags":{"addr:city":"Consett","addr:postcode":"DH8 9NL","capacity":"30","name":"Struthers Farm Caravan Site","static_caravans":"yes"}},"837983721":{"location":[54.8380962,-1.8477075],"ct":"GB","tp":"CR","ts":"2025-02-15T09:04:29Z","tX":506,"tY":324,"tags":{"addr:city":"Consett","addr:postcode":"DH8 9AA","capacity":"13","name":"Hownsgill Caravan Park","website":"https://www.c2cstopoff.co.uk/caravanpark/"}},"889220019":{"location":[54.7801638,-1.7705945],"ct":"GB","tp":"CR","ts":"2024-01-03T14:28:37Z","tX":506,"tY":324,"tags":{"addr:city":"Durham","addr:postcode":"DH7 9EH","addr:street":"Cornsay Lane","capacity":"60","caravan_site:type":"holiday_park","club":"nudism","fhrs:id":"1282741","name":"Greenacres Sun Club","operator":"Greenacres Naturist Club","static_caravans":"yes","website":"https://www.greenacresclub.org/"}},"889220022":{"location":[54.8091155,-1.8390365],"ct":"GB","tp":"CR","ts":"2024-02-14T23:39:35Z","tX":506,"tY":324,"tags":{"addr:city":"Consett","addr:postcode":"DH8 9HD","addr:street":"Eliza Lane","capacity":"30","name":"Manor Park Caravan Park","tents":"yes"}},"889552001":{"location":[54.8585702,-1.9830935],"ct":"GB","tp":"CR","ts":"2022-11-16T21:08:28Z","tX":506,"tY":324,"tags":{"name":"Derwent View","website":"https://www.derwentviewglamping.com/touring"}},"890960721":{"location":[54.801066,-1.8971452],"ct":"GB","tp":"CR","ts":"2024-02-14T23:39:35Z","tX":506,"tY":324,"tags":{"addr:city":"Consett","addr:postcode":"DH8 9HW","name":"Bonners Lodge Caravan Park","tents":"no","website":"https://www.bonnerslodge.co.uk/caravan-park"}},"4244037950":{"location":[54.9772486,-1.8137978],"ct":"GB","tp":"CS","ts":"2016-06-15T08:41:52Z","tX":506,"tY":324,"tags":{"name":"Stephensons Arms"}},"7237593826":{"location":[54.8591866,-1.9825789],"ct":"GB","tp":"CS","ts":"2024-09-13T08:43:51Z","tX":506,"tY":324,"tags":{"addr:city":"Consett","addr:postcode":"DH8 9NU","cabins":"yes","capacity":"7","name":"Derwent View","source:postcode":"website","website":"https://www.derwentviewglamping.com/"}}}