{"136977651":{"location":[54.7404642,-2.0043719],"ct":"GB","tp":"CR","ts":"2023-11-06T22:46:32Z","tX":506,"tY":325,"tags":{"addr:city":"Bishop Auckland","addr:postcode":"DL13 2PS","addr:street":"Woodcroft Lane","addr:suburb":"Stanhope","capacity":"296","fhrs:id":"351936","name":"Heather View Country and Leisure Park","note":"Open all year. Takes holiday bookings, so tourism tag appropriate","operator":"Verdant Leisure","permanent_camping":"yes","static_caravans":"only","tents":"no","website":"https://www.verdantleisure.co.uk/heather-view/"}},"136977786":{"location":[54.7458863,-2.0061931],"ct":"GB","tp":"CR","ts":"2023-11-06T22:46:32Z","tX":506,"tY":325,"tags":{"addr:city":"Bishop Auckland","addr:postcode":"DL13 2UQ","addr:street":"The Butts","addr:suburb":"Stanhope","capacity":"70","name":"Stanhope Caravan Park","note":"Open Mar - Oct","permanent_camping":"only","static_caravans":"only","tents":"no","website":"https://www.stanhopecaravanpark.co.uk/"}},"249475145":{"location":[54.7259387,-1.9142942],"ct":"GB","tp":"CR","ts":"2023-11-06T22:56:31Z","tX":506,"tY":325,"tags":{"addr:city":"Bishop Auckland","addr:postcode":"DL13 3BG","addr:suburb":"Wolsingham","capacity":"30","name":"Holebeck Touring Caravan Park","tents":"no","website":"https://www.holebecktouringpark.co.uk/"}},"272736163":{"location":[54.6180519,-2.0827269],"ct":"GB","tp":"CR","ts":"2023-11-06T16:41:43Z","tX":506,"tY":325,"tags":{"addr:city":"Barnard Castle","addr:postcode":"DL12 0NG","addr:suburb":"Middleton in Teesdale","capacity":"102","name":"Daleview Holiday Park","source":"Bing","tents":"yes","website":"https://daleviewcaravanpark.com/"}},"346832014":{"location":[54.7283639,-1.9566581],"ct":"GB","tp":"CR","ts":"2023-11-06T22:46:32Z","tX":506,"tY":325,"tags":{"addr:city":"Bishop Auckland","addr:postcode":"DL13 2RH","addr:suburb":"Frosterley","capacity":"40","contact:facebook":"BetsdalecaravanPark","name":"Betsdale Caravan Park","phone":"+44 1388 528861","static_caravans":"only","website":"http://www.weardaleholidaycottages.co.uk/index.php/betsdale-caravan-park"}},"429551223":{"location":[54.7749592,-2.0920791],"ct":"GB","tp":"CS","ts":"2009-06-26T15:55:07Z","tX":506,"tY":325,"tags":{"name":"The Vicarage"}},"442531979":{"location":[54.5773347,-1.9941221],"ct":"GB","tp":"CR","ts":"2023-11-06T17:12:04Z","tX":506,"tY":325,"tags":{"addr:city":"Barnard Castle","addr:postcode":"DL12 9UQ","addr:suburb":"Cotherstone","capacity":"70","name":"Doe Park Caravan Site","website":"https://www.doepark.co.uk/"}},"450801975":{"location":[54.5787405,-1.9783218],"ct":"GB","tp":"CR","ts":"2023-11-06T16:57:51Z","tX":506,"tY":325,"tags":{"addr:city":"Barnard Castle","addr:postcode":"DL12 8RL","capacity":"60","name":"Marwood Caravan Park"}},"470730530":{"location":[54.5831077,-1.9118669],"ct":"GB","tp":"CS","ts":"2023-11-06T16:57:51Z","tX":506,"tY":325,"tags":{"addr:city":"Barnard Castle","addr:postcode":"DL12 8QX","capacity":"127","fhrs:id":"708192","name":"Hetherick Caravan Park","source":"ACSI","website":"https://www.hetherickcaravanpark.co.uk/"}},"602257537":{"location":[54.6773056,-1.8247269],"ct":"GB","tp":"CS","ts":"2024-01-03T14:19:02Z","tX":506,"tY":325,"tags":{"addr:city":"Bishop Auckland","addr:postcode":"DL13 3PY","capacity":"37","caravans":"no","motorhome":"no","name":"Green Acres Hamsterley","note":"Open Mar - Oct","permanent_camping":"only","static_caravans":"only","website":"http://greenacreshamsterley.co.uk/"}},"777180554":{"location":[54.7418726,-1.8933855],"ct":"GB","tp":"CR","ts":"2023-11-06T22:56:31Z","tX":506,"tY":325,"tags":{"addr:city":"Bishop Auckland","addr:postcode":"DL13 3LR","addr:street":"Leazes Lane","addr:suburb":"Wolsingham","capacity":"45","name":"High Doctor Pasture Caravan Park","note":"Open Mar - Oct","permanent_camping":"only","static_caravans":"yes","tents":"no","website":"http://www.pasturecaravanpark.co.uk/"}},"836547690":{"location":[54.7565577,-2.0331218],"ct":"GB","tp":"CR","ts":"2023-11-06T22:42:24Z","tX":506,"tY":325,"tags":{"addr:city":"Bishop Auckland","addr:postcode":"DL13 2EZ","addr:suburb":"Stanhope","capacity":"4","name":"Belle Vue Caravan Site","tents":"no"}},"889035203":{"location":[54.7251615,-1.9618924],"ct":"GB","tp":"CR","ts":"2020-12-27T22:16:52Z","tX":506,"tY":325,"tags":{}},"889035206":{"location":[54.7280058,-1.9553104],"ct":"GB","tp":"CR","ts":"2023-11-06T22:46:32Z","tX":506,"tY":325,"tags":{"addr:city":"Bishop Auckland","addr:postcode":"DL13 2RH","addr:suburb":"Frosterley","capacity":"21","name":"Frosterley Inn Caravan Park","static_caravans":"only"}},"890736632":{"location":[54.6191812,-2.0636678],"ct":"GB","tp":"CR","ts":"2024-01-06T14:42:44Z","tX":506,"tY":325,"tags":{"addr:city":"Barnard Castle","addr:postcode":"DL12 0TL","capacity":"29","drinking_water":"yes","fee":"yes","fhrs:id":"908384","name":"Leekworth Caravan and Camping Park","power_supply":"yes","tents":"yes"}},"890960731":{"location":[54.6257103,-1.771897],"ct":"GB","tp":"CR","ts":"2024-04-04T15:30:57Z","tX":506,"tY":325,"tags":{"addr:city":"Bishop Auckland","addr:postcode":"DL14 0NS","addr:street":"Gordon Lane","addr:suburb":"Ramshaw","capacity":"40","caravan_site":"motorhome_stopover","caravan_site:type":"countryside","fhrs:id":"304303","name":"Craggwood Holiday Home Park Riverside Touring Park","operator":"Craggwood Leisure Ltd","surface":"grass","website":"http://www.craggwoodcaravanpark.co.uk/page/riverside-touring-park"}},"891226357":{"location":[54.7295187,-1.8782242],"ct":"GB","tp":"CR","ts":"2023-11-06T22:56:31Z","tX":506,"tY":325,"tags":{"addr:city":"Bishop Auckland","addr:postcode":"DL13 3HU","addr:street":"Durham Road","addr:suburb":"Wolsingham","capacity":"18","name":"The Paddock Touring Park","operator":"Robsons Caravans & Motorhomes","tents":"no","website":"https://www.robsonsofwolsingham.co.uk/paddock-touring-park/"}},"999276160":{"location":[54.6079566,-2.0515216],"ct":"GB","tp":"CR","ts":"2021-11-04T21:37:50Z","tX":506,"tY":325,"tags":{"capacity":"5","operator":"The Crown at Mickleton","reservation":"members_only","tents":"no","website":"https://thecrownatmickleton.co.uk/cl-sites/"}},"1110403831":{"location":[54.6150943,-2.0724363],"ct":"GB","tp":"CS","ts":"2022-11-04T21:37:44Z","tX":506,"tY":325,"tags":{"name":"Lonton South Farm","website":"https://www.caravanclub.co.uk/certificated-locations/england/county-durham/middleton-in-teesdale/lonton-south-farm/"}},"1113173051":{"location":[54.7217905,-1.8388843],"ct":"GB","tp":"CR","ts":"2022-11-14T22:14:30Z","tX":506,"tY":325,"tags":{"capacity":"5","name":"Bradley Burn Farm Touring site","operator":"Bradley Burn Farm","website":"https://www.bradleyburn.co.uk/touring-park.php"}},"9225393186":{"location":[54.6153171,-2.0068905],"ct":"GB","tp":"CS","ts":"2023-11-06T16:41:43Z","tX":506,"tY":325,"tags":{"addr:city":"Barnard Castle","addr:postcode":"DL12 0AU","cabins":"only","fhrs:id":"1383621","name":"Hill Top Huts","operator":"Moorcock Inn","website":"https://www.hilltophuts.co.uk/hill-top-huts.htm"}},"10155690824":{"location":[54.6086395,-2.056168],"ct":"GB","tp":"CS","ts":"2022-11-03T22:19:43Z","tX":506,"tY":325,"tags":{"caravans":"yes","name":"Newton Lodge campsite","tents":"yes","website":"https://www.campingandcaravanningclub.co.uk/campsites/uk/county-durham/barnard-castle/newtonlodge/"}},"5760878321":{"location":[54.6409674,-1.7580426],"ct":"GB","tp":"CR","ts":"2023-11-07T22:45:53Z","tX":506,"tY":325,"tags":{"addr:city":"Bishop Auckland","addr:postcode":"DL14 0NB","addr:street":"Ramshaw Lane","addr:suburb":"Toft Hill","capacity":"34","name":"Meadow Farm Caravan Park and Campsite","phone":"+44 7840828617","tents":"yes"}}}