{"164103393":{"location":[54.5471555,-1.9603298],"ct":"GB","tp":"CS","ts":"2023-11-06T17:04:13Z","tX":506,"tY":326,"tags":{"addr:city":"Barnard Castle","addr:postcode":"DL12 9DG","addr:street":"Dockenflatts Lane","caravans":"yes","name":"Barnard Castle Camping and Caravanning Club Site","operator":"The Camping and Caravan Club","website":"https://www.campingandcaravanningclub.co.uk/campsites/uk/county-durham/barnard-castle/barnard-castle-camping-and-caravanning-club-site/"}},"164103395":{"location":[54.5461083,-1.9410071],"ct":"GB","tp":"CR","ts":"2023-11-06T17:04:13Z","tX":506,"tY":326,"tags":{"addr:city":"Barnard Castle","addr:postcode":"DL12 9BD","addr:street":"Lartington Lane","fhrs:id":"973346","name":"Teesdale Barnard Castle Caravan & Motorhome Club Campsite","operator":"Caravan Club","website":"https://www.caravanclub.co.uk/club-sites/england/north-east-england/county-durham/teesdale-barnard-castle-caravan-club-site/"}},"250528286":{"location":[54.385112,-1.9417971],"ct":"GB","tp":"CS","ts":"2015-07-03T17:50:12Z","tX":506,"tY":326,"tags":{"name":"Orchard Caravan And Camping Park","source":"bing","tents":"yes"}},"277707058":{"location":[54.5464372,-1.7851379],"ct":"GB","tp":"CR","ts":"2021-03-05T21:57:00Z","tX":506,"tY":326,"tags":{}},"380747065":{"location":[54.4738889,-1.7740438],"ct":"GB","tp":"CR","ts":"2015-11-17T11:21:30Z","tX":506,"tY":326,"tags":{}},"380770009":{"location":[54.5127999,-1.8576181],"ct":"GB","tp":"CS","ts":"2023-11-06T17:12:04Z","tX":506,"tY":326,"tags":{"addr:city":"Barnard Castle","addr:housename":"Thorpe Farm","addr:postcode":"DL12 9TY","capacity":"124","name":"Thorpe Farm Centre Campsite","phone":"+44 1833 627242","tents":"yes","website":"https://www.thorpefarm.co.uk/"}},"546125188":{"location":[54.4863452,-1.8371498],"ct":"GB","tp":"CR","ts":"2023-04-14T15:09:00Z","tX":506,"tY":326,"tags":{"name":"Tavern House Caravan Park"}},"660166272":{"location":[54.4208416,-1.9227269],"ct":"GB","tp":"CR","ts":"2019-01-03T14:08:40Z","tX":506,"tY":326,"tags":{}},"889220027":{"location":[54.5554742,-1.9570665],"ct":"GB","tp":"CR","ts":"2025-02-07T21:15:28Z","tX":506,"tY":326,"tags":{"addr:city":"Barnard Castle","addr:postcode":"DL12 9DF","addr:street":"Towler Hill","capacity":"39","name":"Pecknell Farm Caravan Site","power_supply":"yes","sanitary_dump_station":"yes","tents":"no","website":"http://www.pecknell.co.uk/"}},"891226374":{"location":[54.5339368,-1.7691918],"ct":"GB","tp":"CR","ts":"2023-11-06T16:32:11Z","tX":506,"tY":326,"tags":{"addr:city":"Richmond","addr:postcode":"DL11 7UD","capacity":"20","name":"Hillcrest Caravan Park","website":"https://hillcrestpark.co.uk/touring-caravans"}},"1021452319":{"location":[54.553911,-1.9555857],"ct":"GB","tp":"CR","ts":"2023-04-22T07:50:31Z","tX":506,"tY":326,"tags":{"note":"This is a static caravan park"}},"1021452320":{"location":[54.5540931,-1.9555988],"ct":"GB","tp":"CR","ts":"2023-04-22T07:50:31Z","tX":506,"tY":326,"tags":{"note":"Part of Pecknell Farm site?"}},"1098370788":{"location":[54.5082455,-1.9476229],"ct":"GB","tp":"CR","ts":"2023-11-06T17:12:04Z","tX":506,"tY":326,"tags":{"addr:city":"Barnard Castle","addr:postcode":"DL12 9SU","name":"Bowfield Farm Camping and Caravaning","note":"Now has hard standing for anumber of caravans/campervans.","website":"https://www.bowfieldfarm.co.uk/"}},"1110086286":{"location":[54.5206312,-2.0092073],"ct":"GB","tp":"CS","ts":"2022-11-03T19:13:10Z","tX":506,"tY":326,"tags":{"caravans":"yes","name":"The Old Armoury Campsite","website":"https://www.campingandcaravanningclub.co.uk/campsites/uk/county-durham/barnard-castle/theoldarmourycampsite/"}},"1163464283":{"location":[54.5699296,-1.9292589],"ct":"GB","tp":"CS","ts":"2023-04-17T19:36:32Z","tX":506,"tY":326,"tags":{}},"1308675329":{"location":[54.3734424,-1.9267321],"ct":"GB","tp":"CS","ts":"2024-08-18T21:30:24Z","tX":506,"tY":326,"tags":{"operator":"YHA","tents":"yes"}},"1319737118":{"location":[54.5164135,-2.0174015],"ct":"GB","tp":"CS","ts":"2024-09-30T22:43:38Z","tX":506,"tY":326,"tags":{"access":"customers","addr:city":"Barnard Castle","addr:housename":"Bowes","addr:postcode":"DL12 9LL","capacity:caravans":"30","capacity:tents":"20","caravans":"yes","charge":"18 per pitch","fee":"yes","name":"Ivy Hall Farm Campsite","operator":"Ivy Hall Farm","static_caravans":"no","surface":"grass","tents":"yes"}},"1789141542":{"location":[54.5462996,-1.7849113],"ct":"GB","tp":"CS","ts":"2022-11-15T21:06:01Z","tX":506,"tY":326,"tags":{"fixme":"Closed?","name":"Winston Caravan Park","source":"ACSI"}},"2412182896":{"location":[54.5644245,-1.8074523],"ct":"GB","tp":"CS","ts":"2022-11-03T22:19:43Z","tX":506,"tY":326,"tags":{"name":"Bevanstead campsite","website":"https://www.campingandcaravanningclub.co.uk/campsites/uk/county-durham/darlington/bevanstead/"}},"3793796421":{"location":[54.4117065,-1.9947451],"ct":"GB","tp":"CR","ts":"2015-10-20T06:59:48Z","tX":506,"tY":326,"tags":{}},"3883456656":{"location":[54.4070544,-1.7948908],"ct":"GB","tp":"CS","ts":"2015-12-08T15:57:49Z","tX":506,"tY":326,"tags":{"name":"Swaleview Caravan Park","tents":"no"}},"4614531269":{"location":[54.3815128,-1.9926847],"ct":"GB","tp":"CS","ts":"2017-01-17T18:10:36Z","tX":506,"tY":326,"tags":{"name":"Scabba Wath Campsite","url":"http://www.lowrowbunkhouses.co.uk"}},"10831422467":{"location":[54.5554282,-1.956418],"ct":"GB","tp":"SD","ts":"2023-04-22T07:32:19Z","tX":506,"tY":326,"tags":{"access":"customers","fee":"no","water_point":"no"}}}