{"195760740":{"location":[54.1919017,-2.0886499],"ct":"GB","tp":"CS","ts":"2024-07-12T19:44:09Z","tX":506,"tY":327,"tags":{"farmland":"field","source":"Bing"}},"307905972":{"location":[54.2893279,-1.9741367],"ct":"GB","tp":"CR","ts":"2016-02-12T18:48:16Z","tX":506,"tY":327,"tags":{}},"364849395":{"location":[54.3152582,-1.9373857],"ct":"GB","tp":"CS","ts":"2015-08-10T05:31:59Z","tX":506,"tY":327,"tags":{"name":"Swan Farm Camp Site"}},"383600144":{"location":[54.307641,-1.8078597],"ct":"GB","tp":"CR","ts":"2023-10-31T21:43:00Z","tX":506,"tY":327,"tags":{"name":"Caravan & Motorhome Club Lower Wensleydale","source":"Caravan & Motorhome Club","website":"https://www.caravanclub.co.uk/club-sites/england/yorkshire/north-yorkshire/lower-wensleydale-club-campsite"}},"383635547":{"location":[54.2702072,-2.002912],"ct":"GB","tp":"CS","ts":"2023-07-14T06:31:33Z","tX":506,"tY":327,"tags":{"caravans":"yes","name":"Streethead Caravan Park","opening_hours":"Mar 1 - Oct 30","phone":"+44 1969 663472","shower":"yes","static_caravans":"yes","tents":"yes","toilets":"yes","website":"https://www.streetheadcaravanpark.co.uk/"}},"430307618":{"location":[54.3167236,-1.7956918],"ct":"GB","tp":"CR","ts":"2016-07-11T09:21:55Z","tX":506,"tY":327,"tags":{}},"524027838":{"location":[54.2898511,-1.8113838],"ct":"GB","tp":"CR","ts":"2017-09-12T09:40:37Z","tX":506,"tY":327,"tags":{}},"989370635":{"location":[54.311318,-1.8357906],"ct":"GB","tp":"CR","ts":"2024-04-03T23:31:00Z","tX":506,"tY":327,"tags":{"addr:city":"Leyburn","addr:postcode":"DL8 5DQ","addr:street":"Riseber Lane","motorhome":"no","name":"Leyburn Caravan Park","note":"Probably fixed static caravans only i.e. not strictly a caravan site?","source:addr":"website","tents":"no","website":"https://www.leyburncaravanpark.co.uk/"}},"1094340021":{"location":[54.1642718,-1.8614702],"ct":"GB","tp":"CS","ts":"2022-09-13T20:50:04Z","tX":506,"tY":327,"tags":{"operator":"The Crown Hotel"}},"1178625536":{"location":[54.3212271,-1.8165632],"ct":"GB","tp":"CS","ts":"2023-06-03T19:46:53Z","tX":506,"tY":327,"tags":{"name":"Cow Close Camping And Caravan"}},"1184047364":{"location":[54.2913573,-1.9848991],"ct":"GB","tp":"CS","ts":"2023-07-14T06:31:33Z","tX":506,"tY":327,"tags":{"capacity:caravans":"12","capacity:tents":"15","caravans":"yes","email":"info@aysgarthfallshotel.com","name":"Aysgarth Falls","phone":"+44 1969 663775","shower":"yes","tents":"yes","toilets":"yes","website":"https://www.aysgarthfallshotel.com/camping/"}},"1227964043":{"location":[54.3014453,-1.8147774],"ct":"GB","tp":"CS","ts":"2023-12-01T08:26:29Z","tX":506,"tY":327,"tags":{"name":"Craken House"}},"1290233848":{"location":[54.3130378,-1.8341451],"ct":"GB","tp":"CS","ts":"2024-06-07T15:12:54Z","tX":506,"tY":327,"tags":{"access":"restricted","caravans":"yes","dog":"yes","fee":"yes","name":"Hilltop Farm","operator":"Camping & Caravan Club CS Site","static_caravans":"no","tents":"yes"}},"3790446413":{"location":[54.3049565,-1.8055829],"ct":"GB","tp":"CR","ts":"2015-10-17T16:10:51Z","tX":506,"tY":327,"tags":{"name":"Pheasant Inn Caravan Park"}},"5222219648":{"location":[54.1905327,-2.09161],"ct":"GB","tp":"CS","ts":"2017-11-10T20:49:29Z","tX":506,"tY":327,"tags":{"fixme":"exact position needed","name":"Buckden Camping And Pods"}},"6853373520":{"location":[54.3135949,-2.0836159],"ct":"GB","tp":"CS","ts":"2023-11-07T13:35:57Z","tX":506,"tY":327,"tags":{"addr:city":"Hawes","addr:housename":"Lowlands Farm","addr:postcode":"DL8 3HZ","addr:street":"Station Road","addr:suburb":"Askrigg","name":"Askrigg Camping","phone":"+447811851584","website":"https://askrigg-camping.com/"}},"11375943684":{"location":[54.3017159,-1.8149381],"ct":"GB","tp":"SD","ts":"2023-11-25T20:47:50Z","tX":506,"tY":327,"tags":{"access":"customers"}}}