{"16198880":{"location":[54.037802,-1.9319656],"ct":"GB","tp":"CS","ts":"2023-08-14T09:35:13Z","tX":506,"tY":328,"tags":{"access":"customers","drinking_water":"yes","farmland":"field","fee":"yes","hot_water":"yes","name":"Masons Campsite","shower":"yes","source":"Bing;OS sheet 151,1853","tents":"yes","url":"http://www.masonscampsite.co.uk/","washing_machine":"yes"}},"27363587":{"location":[54.129745,-2.0792407],"ct":"GB","tp":"CS","ts":"2017-05-30T08:05:27Z","tX":506,"tY":328,"tags":{"fixme":"this may have closed in 2014"}},"27367591":{"location":[54.0379321,-1.9303246],"ct":"GB","tp":"CS","ts":"2023-08-23T07:23:04Z","tX":506,"tY":328,"tags":{"name":"Mason's Campsite"}},"27528238":{"location":[54.0123608,-1.7741599],"ct":"GB","tp":"CS","ts":"2019-03-29T18:22:03Z","tX":506,"tY":328,"tags":{"addr:city":"Harrogate","addr:housename":"Breaks Fold Farm","addr:housenumber":"West End","addr:postcode":"HG3 4BB","email":"info@breaksfoldfarm.co.uk","name":"Breaks Fold Farm Campsite","operator":"Richard Pullan"}},"59735924":{"location":[54.1561518,-1.8531278],"ct":"GB","tp":"CS","ts":"2021-06-14T23:42:08Z","tX":506,"tY":328,"tags":{"name":"Studfold Farm Caravan and Camping Park","website":"https://www.studfold.com/caravan-camp-glamp/"}},"92064413":{"location":[54.145642,-2.0493483],"ct":"GB","tp":"CS","ts":"2023-03-22T06:49:21Z","tX":506,"tY":328,"tags":{"caravans":"yes","landcover":"grass","landuse":"meadow","name":"Low Hall Farm","phone":"+447970843981","shower":"yes","tents":"yes","toilets":"yes"}},"92651243":{"location":[54.0874571,-1.7659828],"ct":"GB","tp":"CR","ts":"2010-12-31T08:46:16Z","tX":506,"tY":328,"tags":{"source":"Bing;survey"}},"94759458":{"location":[54.1548372,-1.8499976],"ct":"GB","tp":"CR","ts":"2021-06-14T23:42:08Z","tX":506,"tY":328,"tags":{"internet_access":"wlan","name":"Studfold Farm Static Caravan Park","source":"Bing","website":"https://www.studfold.com/static-caravans/"}},"97353620":{"location":[54.0739634,-2.030495],"ct":"GB","tp":"CR","ts":"2022-05-06T19:09:06Z","tX":506,"tY":328,"tags":{"name":"Wharfedale Caravan Club Site","source":"survey,bing"}},"153862082":{"location":[53.9874673,-2.1007983],"ct":"GB","tp":"CR","ts":"2024-08-22T17:03:48Z","tX":506,"tY":328,"tags":{"addr:city":"Skipton","addr:postcode":"BD23 3PN","addr:street":"Eshton Road","addr:village":"Gargrave","fee":"yes","name":"Eshton Road Caravan Park","phone":"+44 1756 749229"}},"176711245":{"location":[54.0296517,-1.9038215],"ct":"GB","tp":"CR","ts":"2023-10-25T04:06:13Z","tX":506,"tY":328,"tags":{"addr:city":"Skipton","addr:housename":"Howgill Lodge","addr:postcode":"BD23 6DJ","addr:village":"Barden","name":"Howgill Lodge","website":"https://www.howgill-lodge.co.uk/"}},"176714132":{"location":[54.0341456,-1.9034916],"ct":"GB","tp":"CR","ts":"2019-09-01T10:22:24Z","tX":506,"tY":328,"tags":{"fixme":"name? operator? tents OK?"}},"190011339":{"location":[53.9824959,-1.905263],"ct":"GB","tp":"CS","ts":"2022-09-05T20:59:21Z","tX":506,"tY":328,"tags":{"farmland":"field","landuse":"meadow","name":"Catgill Campsite","source":"Bing;OS sheet 151,publ. 1853","url":"https://www.catgillfarm.co.uk/","wheelchair":"yes"}},"207149987":{"location":[54.0429304,-2.0248468],"ct":"GB","tp":"CR","ts":"2023-10-25T04:06:46Z","tX":506,"tY":328,"tags":{"name":"Threaplands Caravan & Camping Park","source":"Bing","tents":"yes","website":"https://threaplandshousefarm.wordpress.com/"}},"209148130":{"location":[54.1450711,-2.0450989],"ct":"GB","tp":"CS","ts":"2024-06-29T06:42:19Z","tX":506,"tY":328,"tags":{"addr:city":"Skipton","addr:postcode":"BD23 5RE","addr:street":"Conistone Lane","addr:village":"Kettlewell","caravans":"no","cash_withdrawal:purchase_required":"yes","fee":"yes","internet_access":"wlan","landcover":"grass","name":"Kettlewell Camping","phone":"+44 7930 379079","shower":"yes","tents":"yes","toilets":"yes","website":"https://www.kettlewellcamping.co.uk/"}},"209746378":{"location":[54.1478716,-2.0496667],"ct":"GB","tp":"CR","ts":"2023-03-22T06:49:21Z","tX":506,"tY":328,"tags":{"caravans":"yes","landcover":"grass","name":"Causeway Croft","shower":"yes","tents":"no","toilets":"yes"}},"279496249":{"location":[53.9690339,-1.8807186],"ct":"GB","tp":"CR","ts":"2014-05-05T06:40:55Z","tX":506,"tY":328,"tags":{"fixme":"name?","source":"Bing"}},"281431302":{"location":[54.0934626,-1.8006814],"ct":"GB","tp":"CS","ts":"2015-11-15T20:53:52Z","tX":506,"tY":328,"tags":{}},"294227529":{"location":[54.0733856,-2.0432137],"ct":"GB","tp":"CR","ts":"2022-05-08T17:52:51Z","tX":506,"tY":328,"tags":{"addr:city":"Skipton","addr:postcode":"BD23 5NU","addr:village":"Threshfield","chalets":"yes","name":"Wood Nook Caravan & Camping Park","source":"survey;Bing","tents":"yes","website":"https://www.woodnook.net/"}},"294343177":{"location":[54.0752462,-2.0426279],"ct":"GB","tp":"CR","ts":"2014-07-25T13:58:08Z","tX":506,"tY":328,"tags":{"fixme":"From Bing only. Is this temporary or permanent?","source":"Bing"}},"306544074":{"location":[54.0931981,-1.7878438],"ct":"GB","tp":"CR","ts":"2019-05-23T08:25:23Z","tX":506,"tY":328,"tags":{}},"375918004":{"location":[54.0355751,-1.9034093],"ct":"GB","tp":"CR","ts":"2019-05-14T07:09:11Z","tX":506,"tY":328,"tags":{"fixme":"name? operator? tents OK?"}},"380467298":{"location":[54.0933687,-1.7973885],"ct":"GB","tp":"CR","ts":"2015-11-15T20:53:48Z","tX":506,"tY":328,"tags":{}},"470536693":{"location":[54.0935008,-1.78324],"ct":"GB","tp":"CR","ts":"2009-08-18T19:59:29Z","tX":506,"tY":328,"tags":{"name":"Heathfield Farm"}},"470536697":{"location":[54.0934253,-1.7936685],"ct":"GB","tp":"CR","ts":"2009-08-18T19:59:29Z","tX":506,"tY":328,"tags":{"name":"Low Wood Farm"}},"470536698":{"location":[54.0937525,-1.8018224],"ct":"GB","tp":"CR","ts":"2009-08-18T19:59:29Z","tX":506,"tY":328,"tags":{"name":"Westfield Farm"}},"502033329":{"location":[53.9759686,-2.0358238],"ct":"GB","tp":"CR","ts":"2024-12-27T23:59:42Z","tX":506,"tY":328,"tags":{"addr:city":"Stirton","addr:postcode":"BD23 3FF","name":"Tarn House Leisure Park and Country Inn"}},"708620558":{"location":[54.0862657,-1.7652552],"ct":"GB","tp":"CS","ts":"2010-12-31T09:11:11Z","tX":506,"tY":328,"tags":{}},"977374822":{"location":[54.1496746,-2.0396665],"ct":"GB","tp":"CS","ts":"2021-08-28T18:49:54Z","tX":506,"tY":328,"tags":{"group_only":"yes","name":"Kettlewell Camping Top Field","operator":"Kettlewell Camping"}},"986994323":{"location":[54.0767267,-2.0326395],"ct":"GB","tp":"CR","ts":"2021-09-26T18:52:31Z","tX":506,"tY":328,"tags":{}},"990258187":{"location":[54.0033941,-1.9095745],"ct":"GB","tp":"CR","ts":"2024-03-28T18:16:17Z","tX":506,"tY":328,"tags":{"addr:city":"Skipton","addr:postcode":"BD23 6AN","addr:suburb":"Bolton Abbey","name":"Bolton Abbey Estate Caravan Club Site","old_name":"Strid Wood Caravan Club Site","phone":"+44 1756 710433","tents":"no","website":"https://www.caravanclub.co.uk"}},"1025834039":{"location":[53.9593857,-2.0491372],"ct":"GB","tp":"CS","ts":"2022-01-29T14:22:21Z","tX":506,"tY":328,"tags":{}},"1156210733":{"location":[54.1497047,-2.0520768],"ct":"GB","tp":"CS","ts":"2023-03-22T06:49:21Z","tX":506,"tY":328,"tags":{"cabins":"yes","caravans":"no","email":"info@wharfecamp.co.uk","landcover":"grass","name":"Wharfe Camp","phone":"+44 7825737080","shower":"yes","tents":"yes","toilets":"yes","website":"https://www.wharfecamp.co.uk/"}},"1789140670":{"location":[54.02934,-1.90315],"ct":"GB","tp":"CS","ts":"2023-10-25T04:06:04Z","tX":506,"tY":328,"tags":{"name":"Howgill Lodge","source":"ACSI","website":"https://www.howgill-lodge.co.uk/"}},"8783714142":{"location":[54.1574515,-1.8587923],"ct":"GB","tp":"CS","ts":"2021-05-30T20:44:40Z","tX":506,"tY":328,"tags":{}},"11760963296":{"location":[53.9872012,-2.1018558],"ct":"GB","tp":"CS","ts":"2024-12-29T23:20:21Z","tX":506,"tY":328,"tags":{"addr:city":"Skipton","addr:country":"GB","addr:postcode":"BD23 3PN","addr:street":"Eshton Road","addr:suburb":"Gargrave","name":"Eshton Road Caravan Site","phone":"+44 01756 749229","tents":"yes"}}}