{"12264104":{"location":[53.8423511,-1.9310033],"ct":"GB","tp":"CR","ts":"2021-02-01T21:29:26Z","tX":506,"tY":329,"tags":{}},"92016817":{"location":[53.8844854,-1.8677534],"ct":"GB","tp":"CR","ts":"2018-09-09T16:52:21Z","tX":506,"tY":329,"tags":{"source":"Bing"}},"95195262":{"location":[53.9249073,-1.9123869],"ct":"GB","tp":"CR","ts":"2025-02-15T02:04:17Z","tX":506,"tY":329,"tags":{"addr:city":"Keighley","addr:postcode":"BD20 0NN","addr:street":"Brownbank Lane","caravans":"yes","description":"Mainly static park with room for 10 touring caravans & 10 tents","name":"Brown Bank Caravan Park","source":"Bing","tents":"yes","website":"https://brownbankcaravanpark.wordpress.com/"}},"108154526":{"location":[53.8341923,-1.852086],"ct":"GB","tp":"CS","ts":"2021-09-17T15:15:07Z","tX":506,"tY":329,"tags":{"access":"private","name":"Blackhills","operator":"Scout Association"}},"110339876":{"location":[53.855786,-1.7938417],"ct":"GB","tp":"CR","ts":"2011-04-25T22:00:48Z","tX":506,"tY":329,"tags":{"name":"Dobrudden Farm Caravan Park","source":"Bing"}},"112462466":{"location":[53.949013,-1.8772247],"ct":"GB","tp":"CR","ts":"2023-10-23T19:33:29Z","tX":506,"tY":329,"tags":{"addr:city":"Ilkley","addr:postcode":"LS29 0RD","addr:street":"High Mill Lane","addr:suburb":"Addingham","name":"Olicana Caravan Park","source":"Bing","website":"https://www.olicanapark.co.uk/"}},"156833881":{"location":[53.7496977,-2.0585514],"ct":"GB","tp":"CS","ts":"2024-01-22T05:28:25Z","tX":506,"tY":329,"tags":{"caravans":"no","name":"Hebden Bridge Camping","phone":"07763574060","tents":"yes","website":"https://www.hebdenbridge-camping.co.uk/"}},"175332115":{"location":[53.8896311,-1.9074354],"ct":"GB","tp":"CS","ts":"2022-03-16T20:04:25Z","tX":506,"tY":329,"tags":{"name":"Low Wood Scout Activity Centre","operator":"Keighley District Scout Council","source":"OS_OpenData_StreetView;Bing","sport":"golf","website":"https://www.lowwoodactivitycentre.co.uk/"}},"182554133":{"location":[53.8510181,-1.7948114],"ct":"GB","tp":"CR","ts":"2024-03-30T21:55:35Z","tX":506,"tY":329,"tags":{"addr:city":"Shipley","addr:postcode":"BD17 5ED","addr:street":"Glen Road","addr:village":"Baildon","name":"Crook Farm Caravan Park"}},"200408069":{"location":[53.9297102,-1.8868325],"ct":"GB","tp":"CR","ts":"2025-02-12T02:28:32Z","tX":506,"tY":329,"tags":{"addr:city":"Ilkley","addr:postcode":"LS29 9JU","addr:street":"Straight Lane","addr:suburb":"Addingham","name":"School Wood Farm Holiday Home Park","operator":"School Wood Farm Holiday Home Park LLP","source":"Bing","website":"https://www.schoolwoodfarmholidaypark.co.uk"}},"213926322":{"location":[53.9210486,-2.0122775],"ct":"GB","tp":"CR","ts":"2025-05-28T19:12:09Z","tX":506,"tY":329,"tags":{"name":"Cononley caravan park"}},"318442404":{"location":[53.8681878,-1.7688431],"ct":"GB","tp":"CR","ts":"2023-03-10T00:38:31Z","tX":506,"tY":329,"tags":{"name":"Moor Valley Caravan Park"}},"561225082":{"location":[53.8328303,-1.8788023],"ct":"GB","tp":"CR","ts":"2018-12-02T11:50:32Z","tX":506,"tY":329,"tags":{"name":"Harden Park Homes","phone":"+44 1535 273810","website":"http://www.hardenparkhomes.co.uk/"}},"603971286":{"location":[53.7587188,-2.0333971],"ct":"GB","tp":"CS","ts":"2023-12-19T14:04:13Z","tX":506,"tY":329,"tags":{"caravans":"no","group_only":"yes","name":"Hebden Hey Scout Centre","scout":"yes","static_caravans":"no","website":"http://hebdenhey.org.uk/"}},"638036464":{"location":[53.8278406,-1.9270208],"ct":"GB","tp":"CR","ts":"2018-10-25T23:43:52Z","tX":506,"tY":329,"tags":{"name":"Topfield"}},"759451150":{"location":[53.9051868,-1.7748214],"ct":"GB","tp":"CS","ts":"2017-01-17T17:44:23Z","tX":506,"tY":329,"tags":{"access":"private","name":"Robin Hole Camping Site","scout":"yes","url":"http://www.girlguidingleeds.org.uk/properties/"}},"1082381965":{"location":[53.9316327,-1.9254822],"ct":"GB","tp":"CR","ts":"2025-02-18T01:00:24Z","tX":506,"tY":329,"tags":{"addr:city":"Keighley","addr:postcode":"BD20 0NS","addr:street":"Bolton Road","addr:suburb":"Silsden","name":"Cringles Park Home estate"}},"1266106144":{"location":[53.8823082,-2.0506673],"ct":"GB","tp":"CS","ts":"2024-03-25T13:11:15Z","tX":506,"tY":329,"tags":{"caravans":"no","name":"Winter House Farm Campsite","static_caravans":"no","tents":"yes"}},"2261990769":{"location":[53.7748032,-1.8969228],"ct":"GB","tp":"CS","ts":"2013-04-10T20:03:42Z","tX":506,"tY":329,"tags":{"name":"Smithy House"}},"2450984417":{"location":[53.7724245,-2.0476945],"ct":"GB","tp":"CS","ts":"2013-09-08T20:28:30Z","tX":506,"tY":329,"tags":{}}}