{"11137535":{"location":[53.3889063,-2.0397412],"ct":"GB","tp":"CS","ts":"2023-10-23T09:45:16Z","tX":506,"tY":331,"tags":{"name":"Linnet Clough Scout Camp","scout":"yes","website":"https://www.linnetclough.org.uk/facilities/camping/"}},"61092271":{"location":[53.3660598,-1.8465468],"ct":"GB","tp":"CS","ts":"2023-06-08T21:00:13Z","tX":506,"tY":331,"tags":{"addr:city":"Hope Valley","addr:postcode":"S33 7ZJ","addr:suburb":"Upper Booth","capacity":"40","dog":"yes","name":"Upper Booth Farm Campsite","shower":"yes","website":"https://www.nationaltrust.org.uk/holidays/upper-booth-farm-campsite"}},"75136482":{"location":[53.3480056,-1.7670863],"ct":"GB","tp":"CR","ts":"2023-01-08T17:58:34Z","tX":506,"tY":331,"tags":{"name":"Castleton Caravan and Motorhome Club Site","phone":"+44 1433 620636"}},"79088236":{"location":[53.4906853,-1.8942875],"ct":"GB","tp":"CS","ts":"2024-05-24T02:42:38Z","tX":506,"tY":331,"tags":{"addr:city":"Crowden","addr:postcode":"SK13 1HZ","addr:street":"Woodhead Road","name":"Crowden Campsite","tents":"yes","website":"https://www.campingandcaravanningclub.co.uk/siteseekerlite/aspx/details.aspx?id=8060"}},"123875232":{"location":[53.3676471,-1.8147644],"ct":"GB","tp":"CS","ts":"2024-07-25T12:01:40Z","tX":506,"tY":331,"tags":{"addr:city":"Hope Valley","addr:housename":"Fieldhead Campsite, Edale, Hope Valley S33 7ZA","addr:postcode":"S33 7ZA","addr:street":"Marys Lane","addr:suburb":"Edale","dog":"yes","fee":"yes","name":"Fieldhead Campsite","phone":"+44 1433 670386","shower":"yes","toilets":"yes","website":"http://www.fieldhead-campsite.co.uk/","wheelchair":"yes"}},"124086259":{"location":[53.3695917,-1.8191171],"ct":"GB","tp":"CS","ts":"2024-05-06T20:58:16Z","tX":506,"tY":331,"tags":{"addr:city":"Hope Valley","addr:country":"GB","addr:housename":"Newfold Farm","addr:postcode":"S33 7ZD","addr:street":"Grindsbrook Booth","addr:suburb":"Edale","caravans":"yes","email":"campsite@newfoldfarmedale.com","fee":"yes","name":"Newfold Farm Campsite","phone":"+44 1433 670 401","tents":"yes","toilets":"yes","website":"https://www.newfoldfarmedale.com"}},"203521129":{"location":[53.462586,-1.9437793],"ct":"GB","tp":"CR","ts":"2013-05-21T18:55:36Z","tX":506,"tY":331,"tags":{"name":"Windy Harbour Hotel Caravan and Camping Site","source":"Bing","tents":"yes","website":"http://www.peakdistrict-hotel.co.uk/Caravanning.htm"}},"222821355":{"location":[53.3597361,-1.8343926],"ct":"GB","tp":"CS","ts":"2015-06-09T13:47:39Z","tX":506,"tY":331,"tags":{"caravans":"no","drinking_water":"yes","fee":"yes","name":"Whitmore Lea Campsite","openfire":"no","tents":"yes"}},"260358237":{"location":[53.4214107,-2.0605899],"ct":"GB","tp":"CR","ts":"2014-02-06T21:55:35Z","tX":506,"tY":331,"tags":{"name":"Far Benfield Farm Caravan Storage"}},"352588869":{"location":[53.3609593,-1.8382108],"ct":"GB","tp":"CS","ts":"2024-08-19T15:58:32Z","tX":506,"tY":331,"tags":{"caravans":"no","drinking_water":"yes","fee":"yes","name":"Whitmore Lea Campsite","openfire":"no","tents":"yes"}},"364795561":{"location":[53.3777801,-1.9307195],"ct":"GB","tp":"CS","ts":"2024-02-28T09:13:19Z","tX":506,"tY":331,"tags":{"access":"customers","addr:city":"High Peak","addr:country":"GB","addr:housename":"Hayfield Camping and Caravanning Club Site","addr:postcode":"SK22 2LE","addr:street":"Kinder Road","addr:suburb":"Hayfield","cabins":"yes","caravans":"yes","dog":"leashed","fee":"yes","internet_access":"wlan","name":"Hayfield Campsite","operator":"The Camping and Caravanning Club","phone":"+44 1663 745394","tents":"yes","website":"https://www.campingandcaravanningclub.co.uk/campsites/uk/derbyshire/high-peak/hayfield-camping-and-caravanning-club-site"}},"366628743":{"location":[53.4334427,-2.0116675],"ct":"GB","tp":"CR","ts":"2023-01-21T08:40:19Z","tX":506,"tY":331,"tags":{}},"429151146":{"location":[53.3530095,-1.7706419],"ct":"GB","tp":"CS","ts":"2023-03-17T14:13:15Z","tX":506,"tY":331,"tags":{"camp_site":"Camping and Caravan Club Certificated","name":"Fields Farm"}},"544965038":{"location":[53.3414387,-2.0840553],"ct":"GB","tp":"CR","ts":"2023-04-30T14:03:41Z","tX":506,"tY":331,"tags":{"name":"Elm Beds Caravan Park","source":"Bing"}},"548511619":{"location":[53.3738292,-2.0351637],"ct":"GB","tp":"CR","ts":"2022-06-03T07:47:08Z","tX":506,"tY":331,"tags":{"source":"Bing"}},"789300651":{"location":[53.4894932,-1.9975042],"ct":"GB","tp":"CS","ts":"2020-04-08T13:02:52Z","tX":506,"tY":331,"tags":{"name":"Swineshore","operator":"Tame Valley Scouts"}},"971796967":{"location":[53.5326452,-2.0228619],"ct":"GB","tp":"CS","ts":"2023-06-25T12:45:22Z","tX":506,"tY":331,"tags":{"access":"customers","addr:postcode":"OL3 7HY","addr:street":"Well-i-Hole Road","caravans":"yes","drinking_water":"yes","name":"Well-i-Hole Farm Caravan and Camping","tents":"yes","website":"https://www.well-i-holefarm.co.uk/"}},"971796993":{"location":[53.5317366,-2.024615],"ct":"GB","tp":"CR","ts":"2023-04-23T16:28:03Z","tX":506,"tY":331,"tags":{}},"1081933101":{"location":[53.3385184,-1.9940104],"ct":"GB","tp":"CR","ts":"2022-07-27T21:49:49Z","tX":506,"tY":331,"tags":{"name":"Ringstones Caravan Park"}},"1122087181":{"location":[53.3702712,-1.7884985],"ct":"GB","tp":"CS","ts":"2022-12-14T16:28:52Z","tX":506,"tY":331,"tags":{"name":"Greenacres Campsite"}},"1188599181":{"location":[53.3617151,-1.8243893],"ct":"GB","tp":"CS","ts":"2023-07-10T08:00:20Z","tX":506,"tY":331,"tags":{"name":"Waterside Farm Camp Site"}},"1714365978":{"location":[53.3764432,-2.0167639],"ct":"GB","tp":"CR","ts":"2012-04-13T13:16:46Z","tX":506,"tY":331,"tags":{"designation":"Shaw Farm - Static Caravans","name":"Shaw Farm - Static Caravans","source":"www.shawfarmholidays.co.uk"}},"2294526210":{"location":[53.3362399,-1.8024251],"ct":"GB","tp":"CS","ts":"2013-05-07T09:50:52Z","tX":506,"tY":331,"tags":{"name":"Rowter Farm Campsite","source:tents":"survey","tents":"yes"}},"10604535931":{"location":[53.430783,-2.0202626],"ct":"GB","tp":"CS","ts":"2023-02-03T17:29:23Z","tX":506,"tY":331,"tags":{"name":"Boarfold Scout Camp"}},"11954424290":{"location":[53.350018,-1.7707281],"ct":"GB","tp":"CS","ts":"2024-06-03T19:15:17Z","tX":506,"tY":331,"tags":{"addr:city":"Hope Valley","addr:housename":"Losehill Hall","addr:postcode":"S33 8WB","addr:street":"How Lane","addr:suburb":"Castleton","brand":"YHA","brand:wikidata":"Q8059214","caravans":"no","contact:website":"https://www.yha.org.uk/hostel/yha-castleton-losehill-hall","email":"castleton@yha.org.uk","fee":"yes","internet_access":"yes","internet_access:fee":"customers","internet_access:ssid":"_The Cloud","name":"YHA Castleton Losehill Hall","operator":"YHA","phone":"+44 345 371 9628","reservation":"yes","smoking":"no","static_caravans":"no","tents":"yes"}},"12060885348":{"location":[53.3521821,-1.896563],"ct":"GB","tp":"CS","ts":"2024-07-18T09:14:14Z","tX":506,"tY":331,"tags":{"name":"chapel view campsite","phone":"+4407807681948","website":"https://www.hipcamp.com/en-US/land/derbyshire-chapel-view-wild-campsite-9mxhl6e9"}},"9165677494":{"location":[53.4956159,-2.0391608],"ct":"GB","tp":"SD","ts":"2021-10-11T19:15:54Z","tX":506,"tY":331,"tags":{"access":"customers","centralkey":"crt_watermate","name":"Grove Road Elsan Point","operator":"Canal and River Trust","sanitary_dump_station":"yes","sanitary_dump_station:accepted":"black_water","sanitary_dump_station:basin":"yes","sanitary_dump_station:pump-out":"no","waste":"toilet","waterway":"sanitary_dump_station"}},"9374458872":{"location":[53.3321982,-1.9834337],"ct":"GB","tp":"SD","ts":"2021-12-28T21:12:59Z","tX":506,"tY":331,"tags":{"access":"customers","centralkey":"crt_watermate","name":"Whaley Bridge Elsan Point","operator":"Canal and River Trust","sanitary_dump_station":"yes","sanitary_dump_station:accepted":"black_water","sanitary_dump_station:basin":"yes","sanitary_dump_station:pump-out":"no","waste":"toilet","waterway":"sanitary_dump_station"}},"9374458887":{"location":[53.3920764,-2.0606289],"ct":"GB","tp":"SD","ts":"2021-12-28T21:12:59Z","tX":506,"tY":331,"tags":{"access":"customers","centralkey":"crt_watermate","name":"Marple Elsan Point","operator":"Canal and River Trust","sanitary_dump_station":"yes","sanitary_dump_station:accepted":"black_water","sanitary_dump_station:basin":"yes","sanitary_dump_station:pump-out":"yes","waste":"toilet","waterway":"sanitary_dump_station"}}}