{"97279544":{"location":[52.4111459,-2.0681137],"ct":"GB","tp":"CS","ts":"2024-02-04T12:32:37Z","tX":506,"tY":336,"tags":{"addr:city":"Romsley","addr:country":"GB","addr:postcode":"B62 0NH","addr:street":"Fieldhouse Lane","cabins":"no","caravans":"yes","dog":"yes","dryer":"yes","internet_access":"wlan","internet_access:fee":"yes","name":"Clent Hills Camping and Caravanning Club Site","phone":"+44 1562 710015","power_supply":"yes","sanitary_dump_station":"yes","tents":"yes","washing_machine":"yes","wikidata":"Q5131622","wikipedia":"en:Clent Hills"}},"192219121":{"location":[52.3662487,-1.8498115],"ct":"GB","tp":"CS","ts":"2020-04-26T08:10:53Z","tX":506,"tY":336,"tags":{"name":"The Log Cabin","source":"bing"}},"201564760":{"location":[52.3738238,-1.8934784],"ct":"GB","tp":"CR","ts":"2021-09-12T19:19:49Z","tX":506,"tY":336,"tags":{"addr:city":"Wythall","addr:housenumber":"1","addr:postcode":"B47 6JX","addr:street":"Chapel Lane","fhrs:id":"1038951","name":"Caravan Club Chapel Lane","source":"visual survey;bing"}},"260766093":{"location":[52.3430713,-2.012916],"ct":"GB","tp":"CS","ts":"2024-08-18T18:19:10Z","tX":506,"tY":336,"tags":{"access":"private","addr:city":"Bromsgrove","addr:postcode":"B60 1PX","addr:street":"Agmore Road","description":"Outdoor activity centre, camp site, indoor accommodation. Available for Schools, Youth Organisations (Scouts), company activities and birthday parties.","dog":"no","fee":"yes","internet_access":"yes","name":"Blackwell Adventure Outdoor Activity Centre","operator":"Blackwell Adventure","phone":"+44 121 4451285","website":"https://www.blackwelladventure.co.uk/"}},"937322890":{"location":[52.3390187,-1.8320737],"ct":"GB","tp":"CR","ts":"2021-04-30T15:55:26Z","tX":506,"tY":336,"tags":{"source":"survey","tourism:certifier":"Caravan & Motorhome Club","website":"https://www.caravanclub.co.uk/certificated-locations/england/west-midlands/solihull/Brookhouse-Farm-1/"}},"1223263401":{"location":[52.3362137,-1.8240072],"ct":"GB","tp":"CS","ts":"2023-11-13T17:06:54Z","tX":506,"tY":336,"tags":{}},"1268236299":{"location":[52.3735444,-1.8330808],"ct":"GB","tp":"CR","ts":"2024-04-01T21:49:45Z","tX":506,"tY":336,"tags":{"sanitary_dump_station":"yes"}},"1305288700":{"location":[52.3432118,-2.0123526],"ct":"GB","tp":"CS","ts":"2024-08-02T17:26:10Z","tX":506,"tY":336,"tags":{"access":"customers","capacity:persons":"40","caravans":"no","fee":"yes","group_only":"yes","name":"Roberts Podded Village","static_caravans":"no","tents":"no"}},"7880710198":{"location":[52.4750716,-1.9079773],"ct":"GB","tp":"SD","ts":"2020-09-06T10:21:39Z","tX":506,"tY":336,"tags":{"access":"customers","centralkey":"crt_watermate","name":"Gas Street Basin Elsan Point","operator":"Canal and River Trust","sanitary_dump_station":"yes","sanitary_dump_station:accepted":"black_water","sanitary_dump_station:basin":"yes","sanitary_dump_station:pump-out":"no","waste":"toilet","waterway":"sanitary_dump_station"}}}