{"120328168":{"location":[51.7302814,-1.9309927],"ct":"GB","tp":"CS","ts":"2022-03-11T16:56:30Z","tX":506,"tY":339,"tags":{"name":"abbey farm camping area"}},"371527619":{"location":[51.714252,-1.9860249],"ct":"GB","tp":"CR","ts":"2024-09-07T17:21:51Z","tX":506,"tY":339,"tags":{"addr:city":"Cirencester","addr:postcode":"GL7 1UT","addr:street":"Stroud Road","drinking_water":"yes","fee":"yes","internet_access":"wlan","name":"Cirencester Park Club Campsite","operator":"Caravan and Motorhome Club","operator:wikidata":"Q1652702","phone":"+44 1285 651546","power_supply":"yes","website":"https://www.caravanclub.co.uk/club-sites/england/cotswolds/gloucestershire/cirencester-park-club-campsite/"}},"439151186":{"location":[51.7631729,-2.0652365],"ct":"GB","tp":"CS","ts":"2024-05-21T16:14:38Z","tX":506,"tY":339,"tags":{"name":"Jackbarrow Camping"}},"563694591":{"location":[51.747418,-1.9727793],"ct":"GB","tp":"CS","ts":"2023-11-07T16:03:21Z","tX":506,"tY":339,"tags":{"addr:city":"Cirencester","addr:housename":"Mayfield Park","addr:postcode":"GL7 7BH","addr:street":"Cheltenham Road","addr:suburb":"Bagendon","caravans":"yes","email":"enquiries@mayfieldpark.co.uk","name":"Mayfield Park Touring & Camping","phone":"+441285831301","source":"ACSI","static_caravans":"yes","tents":"yes","website":"https://www.mayfieldpark.co.uk/"}},"826242194":{"location":[51.6796633,-1.790466],"ct":"GB","tp":"CS","ts":"2010-07-20T15:46:44Z","tX":506,"tY":339,"tags":{"name":"Kempsford Camping (July Only)"}},"1191902397":{"location":[51.6870353,-2.0288549],"ct":"GB","tp":"CS","ts":"2024-06-30T01:05:09Z","tX":506,"tY":339,"tags":{"caravans":"yes","description":"Run by The Thames Head Inn","fee":"yes","operator":"The Thames Head Inn","phone":"+44 1285 770259","static_caravans":"yes","tents":"no","website":"https://www.thamesheadinn.co.uk/camping-caravan-sites-cirencester-glos.html"}},"1201815923":{"location":[51.6637527,-1.8015743],"ct":"GB","tp":"CS","ts":"2023-08-24T23:28:10Z","tX":506,"tY":339,"tags":{"caravans":"yes","fee":"yes","name":"Second Chance Touring & Residential Park","static_caravans":"yes","tents":"yes","website":"https://www.secondchanceholidaypark.co.uk/"}},"1266807195":{"location":[51.6627111,-1.9133899],"ct":"GB","tp":"CR","ts":"2024-07-29T21:35:36Z","tX":506,"tY":339,"tags":{}},"1266830222":{"location":[51.6597174,-1.9214111],"ct":"GB","tp":"CR","ts":"2024-03-27T16:40:19Z","tX":506,"tY":339,"tags":{"addr:city":"Cirencester","addr:postcode":"GL7 5UQ","addr:street":"Broadway Lane","addr:village":"South Cerney","fhrs:id":"5050","name":"Hoburne Cotswold","source":"ACSI","source:addr":"FHRS Open Data"}},"1275379200":{"location":[51.6618351,-1.9712367],"ct":"GB","tp":"CS","ts":"2024-04-23T19:09:11Z","tX":506,"tY":339,"tags":{"addr:city":"Cirencester","addr:postcode":"GL7 6DH","addr:street":"Elm View","addr:village":"Somerford Keynes","name":"Cotswold Lakes Camping"}},"1318160386":{"location":[51.6774585,-1.7667279],"ct":"GB","tp":"CS","ts":"2024-09-25T17:22:45Z","tX":506,"tY":339,"tags":{}},"1318160394":{"location":[51.6773405,-1.7643133],"ct":"GB","tp":"CS","ts":"2024-09-25T17:22:45Z","tX":506,"tY":339,"tags":{"name":"Wayside Camping"}},"1807709594":{"location":[51.7304171,-1.9319943],"ct":"GB","tp":"CS","ts":"2022-03-11T16:56:30Z","tX":506,"tY":339,"tags":{}},"3763822373":{"location":[51.8172002,-1.8624731],"ct":"GB","tp":"CS","ts":"2023-02-18T11:02:48Z","tX":506,"tY":339,"tags":{"addr:city":"Cheltenham","addr:postcode":"GL54 3JL","name":"Far Peak Camping","website":"https://www.farpeakcamping.co.uk/"}},"9001439621":{"location":[51.7441305,-1.9016647],"ct":"GB","tp":"CS","ts":"2021-08-12T12:29:23Z","tX":506,"tY":339,"tags":{"dog":"no","drinking_water":"yes","fee":"yes","group_only":"no","hot_water":"yes","internet_access":"no","kitchen":"no","lit":"no","name":"The T Barn","openfire":"no","power_supply":"no","sanitary_dump_station":"no","shower":"hot","source":"survey","tents":"yes","toilets":"yes","washing_machine":"no","website":"https://www.pitchup.com/campsites/England/Central/Gloucestershire/Cirencester/t-barn/"}},"12006757728":{"location":[51.7608654,-1.8491118],"ct":"GB","tp":"CS","ts":"2024-06-25T08:50:43Z","tX":506,"tY":339,"tags":{"caravans":"yes","drinking_water":"yes","name":"Bibury Camping","tents":"yes","website":"https://www.biburycamping.co.uk/"}}}