{"294839795":{"location":[51.5789092,-2.0972816],"ct":"GB","tp":"CS","ts":"2024-07-19T20:02:22Z","tX":506,"tY":340,"tags":{"name":"Burton Hill Caravan Park"}},"301763242":{"location":[51.5809653,-2.0745524],"ct":"GB","tp":"CR","ts":"2022-07-05T18:15:05Z","tX":506,"tY":340,"tags":{"addr:city":"Malmesbury","addr:housename":"Southfield Farm","addr:postcode":"SN16 9NF","addr:street":"Crab Mill Lane","name":"Southfield Farm Caravan Site","power_supply":"yes","sanitary_dump_station":"yes","website":"http://www.southfieldfarm.co.uk/results.php?id=84"}},"342969046":{"location":[51.5904353,-2.0927144],"ct":"GB","tp":"CS","ts":"2024-05-23T17:09:51Z","tX":506,"tY":340,"tags":{"name":"Whychurch Farm Camping"}},"854192459":{"location":[51.4195974,-1.9918125],"ct":"GB","tp":"CS","ts":"2020-10-02T11:45:15Z","tX":506,"tY":340,"tags":{}},"982210108":{"location":[51.5176978,-1.8191297],"ct":"GB","tp":"CS","ts":"2023-04-17T16:51:40Z","tX":506,"tY":340,"tags":{"access":"permit","addr:city":"Swindon","addr:housename":"Chilton Farm","addr:locality":"Wroughton","addr:postcode":"SN4 9LU","group_only":"yes","name":"Chilton Farm County Guide Campsite","operator":"Girl Guiding Wiltshire North","start_date":"1952","website":"https://www.girlguidingwiltshirenorth.org.uk/chilton-farm-3/"}},"1219404944":{"location":[51.5132679,-1.8755811],"ct":"GB","tp":"CS","ts":"2023-10-31T07:38:07Z","tX":506,"tY":340,"tags":{"access":"customers","addr:postcode":"SN4 7RB","fee":"yes","name":"Escape To The Fields","website":"https://escapetothefields.com/"}},"4934147421":{"location":[51.520761,-2.1010791],"ct":"GB","tp":"CR","ts":"2017-06-24T14:06:11Z","tX":506,"tY":340,"tags":{"name":"Clanville Fields CS","name:en":"Clanville Fields CS"}}}