{"41258318":{"location":[51.2075784,-1.9146958],"ct":"GB","tp":"CS","ts":"2023-10-18T05:51:59Z","tX":506,"tY":341,"tags":{"access":"customers","addr:city":"Orcheston","addr:housename":"Stonehenge Park","addr:postcode":"SP3 4SH","addr:street":"Whatcombe Brow","fixme":"West side may be inaccurate as it didn't walk this boundary","name":"Stonehenge Touring Park","website":"https://www.stonehengetouringpark.com/"}},"57359952":{"location":[51.3560351,-2.0743903],"ct":"GB","tp":"CR","ts":"2019-03-19T17:47:48Z","tX":506,"tY":341,"tags":{"internet_access":"no","name":"Devizes Camping and Caravanning Club Site","website":"https://www.campingandcaravanningclub.co.uk/siteseeker/aspx/details.aspx?id=6120"}},"162567879":{"location":[51.357686,-2.0739941],"ct":"GB","tp":"CS","ts":"2023-03-12T15:11:57Z","tX":506,"tY":341,"tags":{"addr:city":"Sells Green","addr:postcode":"SN12 6RN","addr:street":"Bath Road","capacity":"14","caravans":"yes","name":"The Three Magpies","note":"Phone pub for bookings (same number)","phone":"+44 1380 828389","shower":"yes","tents":"yes","toilets":"yes","website":"https://www.threemagpies.co.uk/accommodation"}},"162610770":{"location":[51.3481592,-1.7957766],"ct":"GB","tp":"CS","ts":"2019-01-28T19:25:00Z","tX":506,"tY":341,"tags":{"surface":"grass"}},"300036753":{"location":[51.3132478,-1.8112949],"ct":"GB","tp":"CS","ts":"2021-03-30T10:11:55Z","tX":506,"tY":341,"tags":{"name":"The Woodbridge Camp SIte","operator":"The Woodbridge Public House"}},"438407539":{"location":[51.3193764,-2.0006424],"ct":"GB","tp":"CS","ts":"2016-08-28T17:11:31Z","tX":506,"tY":341,"tags":{"building":"yes","name":"Wiltshire County Scout Centre"}},"886456661":{"location":[51.3545578,-1.9436604],"ct":"GB","tp":"CS","ts":"2020-12-19T14:12:41Z","tX":506,"tY":341,"tags":{}},"925256693":{"location":[51.3532053,-1.8580812],"ct":"GB","tp":"CS","ts":"2021-04-02T16:17:45Z","tX":506,"tY":341,"tags":{}},"1184511806":{"location":[51.3054099,-1.8376476],"ct":"GB","tp":"CR","ts":"2023-06-23T18:00:23Z","tX":506,"tY":341,"tags":{"name":"Charlton Manor","website":"https://www.caravanclub.co.uk/certificated-locations/england/wiltshire/pewsey/charlton-manor/"}},"1301309695":{"location":[51.2279753,-1.9516186],"ct":"GB","tp":"CS","ts":"2024-07-14T14:44:41Z","tX":506,"tY":341,"tags":{}},"1795561666":{"location":[51.3532295,-2.046639],"ct":"GB","tp":"CS","ts":"2012-06-20T11:24:35Z","tX":506,"tY":341,"tags":{}},"4960659722":{"location":[51.330992,-2.0462007],"ct":"GB","tp":"CS","ts":"2019-03-22T18:15:39Z","tX":506,"tY":341,"tags":{"addr:postcode":"SN10 1RZ","addr:street":"Poulshot Road","name":"Mill Farm Glamping","website":"https://www.millfarmglamping.co.uk/"}},"10302680291":{"location":[51.2278296,-1.9509938],"ct":"GB","tp":"CS","ts":"2023-01-04T11:49:52Z","tX":506,"tY":341,"tags":{"access":"yes","addr:city":"Tilshead","addr:postcode":"SP3 4RX","addr:street":"High Street","capacity:caravans":"20","capacity:persons":"100","charge":"20 GBP","fee":"yes","name":"Brades Acre","operator":"https://bradesacre.co.uk/","payment:cash":"yes","payment:credit_cards":"yes","payment:notes":"yes"}},"4313270548":{"location":[51.3516295,-2.1001224],"ct":"GB","tp":"SD","ts":"2021-10-28T20:46:46Z","tX":506,"tY":341,"tags":{"access":"yes","opening_hours":"24/7","operator":"Canal and River Trust","sanitary_dump_station:basin":"yes","sanitary_dump_station:pump-out":"yes","water_point":"yes"}}}