{"28141436":{"location":[51.0852993,-1.8027282],"ct":"GB","tp":"CR","ts":"2019-09-11T16:18:53Z","tX":506,"tY":342,"tags":{"addr:postcode":"SP1 3SA","addr:street":"Castle Road","name":"Camping & Caravan Club Salisbury","operator":"The Caravan and Camping Club","phone":"+44 1722 320713"}},"110994161":{"location":[51.0117757,-1.8437294],"ct":"GB","tp":"CR","ts":"2024-06-30T01:04:59Z","tX":506,"tY":342,"tags":{"addr:city":"Coombe Bissett","addr:postcode":"SP5 4LP","name":"Summerlands Caravan Park Salisbury","power_supply":"yes","sanitary_dump_station":"yes","tents":"yes","website":"https://www.summerlandscaravanpark.co.uk/"}},"222870419":{"location":[51.0538072,-1.8620164],"ct":"GB","tp":"CR","ts":"2024-08-28T09:18:48Z","tX":506,"tY":342,"tags":{"name":"Coombe Caravan Park"}},"276279333":{"location":[51.1641404,-1.8956197],"ct":"GB","tp":"CS","ts":"2025-05-20T07:54:14Z","tX":506,"tY":342,"tags":{"name":"Stonehenge Campsite & Glamping","website":"https://www.stonehengecampsite.co.uk/"}},"1187377289":{"location":[50.98242,-1.8987131],"ct":"GB","tp":"CR","ts":"2023-07-06T11:50:34Z","tX":506,"tY":342,"tags":{"name":"Cherwell Leys Farm","website":"https://www.caravanclub.co.uk/certificated-locations/england/hampshire/fordingbridge/cherwell-leys-farm/"}},"1282764892":{"location":[51.0484791,-1.8323282],"ct":"GB","tp":"CS","ts":"2024-05-16T11:40:44Z","tX":506,"tY":342,"tags":{"name":"Salisbury Campsite at Bake Farm","url":"https://www.salisburycampsite.co.uk/"}},"12849068777":{"location":[51.0933587,-1.9930461],"ct":"GB","tp":"CS","ts":"2025-05-19T14:39:23Z","tX":506,"tY":342,"tags":{"addr:city":"Salisbury","addr:housename":"Marshwood Farm","addr:postcode":"SP3 5ET","addr:street":"Marshwood","capacity:tents":"5","caravans":"no","name":"Marshwood Farm Camping","static_caravans":"no","tents":"yes"}},"12850429159":{"location":[51.0152502,-1.8405464],"ct":"GB","tp":"CS","ts":"2025-05-20T07:55:26Z","tX":506,"tY":342,"tags":{"name":"Salisbury Penning's Farm Campsite"}}}