{"27205421":{"location":[50.6043497,-1.9749676],"ct":"GB","tp":"CR","ts":"2015-06-18T20:44:41Z","tX":506,"tY":344,"tags":{"addr:city":"Swanage","addr:postcode":"BH19 2RS","addr:street":"Priest's Way","name":"Swanage Coastal Park","phone":"+44 1929 421822","website":"https://www.shorefield.co.uk/"}},"27248045":{"location":[50.6184516,-1.9690832],"ct":"GB","tp":"CR","ts":"2018-09-27T17:10:10Z","tX":506,"tY":344,"tags":{"addr:city":"Swanage","addr:postcode":"BH19 1QQ","addr:street":"Cauldron Barn Road","fee":"yes","internet_access":"wlan","internet_access:fee":"no","name":"Cauldron Barn Caravan Park","operator":"Cauldron Barn Caravan Park","phone":"+44 1929 422080","power_supply":"yes","source":"bing;local knowledge","website":"http://www.cauldronbarncaravanpark.co.uk"}},"29686904":{"location":[50.7198828,-2.0293643],"ct":"GB","tp":"CR","ts":"2012-02-12T12:47:18Z","tX":506,"tY":344,"tags":{"name":"Rockley Park"}},"126074329":{"location":[50.6268512,-1.9722723],"ct":"GB","tp":"CR","ts":"2023-07-31T13:55:36Z","tX":506,"tY":344,"tags":{"addr:city":"Swanage","addr:postcode":"BH19 3DG","addr:street":"Ulwell Road","email":"enq@ulwellcottagepark.co.uk","name":"Ulwell Cottage Caravan Park","phone":"+44 1929 422823","website":"https://www.ulwellcottagepark.co.uk/"}},"143629017":{"location":[50.7197605,-2.0903901],"ct":"GB","tp":"CR","ts":"2021-06-26T09:21:13Z","tX":506,"tY":344,"tags":{"addr:country":"GB","addr:postcode":"BH16 6JZ","brand":"Parkdean Resorts","brand:wikidata":"Q7138226","contact:website":"https://www.parkdeanresorts.co.uk/location/dorset/sandford/","name":"Sandford Holiday Park","operator":"Parkdean Resorts UK Limited"}},"175410118":{"location":[50.6440785,-2.0986522],"ct":"GB","tp":"CS","ts":"2023-10-23T17:25:36Z","tX":506,"tY":344,"tags":{"addr:postcode":"BH20 5AP","cabins":"yes","caravans":"yes","kitchen":"no","motor_vehicle":"yes","motorhome":"yes","name":"East Creech Farm Campsite","phone":"+44 1929 480519","power_supply":"yes","shower":"yes","static_caravans":"no","tents":"yes","toilets":"yes","website":"https://www.eastcreechfarm.co.uk/"}},"179751735":{"location":[50.6204571,-1.9872405],"ct":"GB","tp":"CR","ts":"2023-10-17T11:04:14Z","tX":506,"tY":344,"tags":{"addr:city":"Wareham","addr:country":"GB","addr:county":"Dorset","addr:postcode":"BH20 5JB","addr:street":"Burnhams Lane","addr:suburb":"Corfe Castle","name":"Knitson Farm Tourers Site","phone":"+44 1929 425121","website":"https://www.knitsonfarm.co.uk/"}},"179751737":{"location":[50.6170754,-1.9774852],"ct":"GB","tp":"CR","ts":"2018-09-27T17:10:10Z","tX":506,"tY":344,"tags":{"addr:city":"Swanage","addr:postcode":"BH19 3DJ","addr:street":"Washpond Lane","name":"Herston Caravan and Camp Site","phone":"+44 1929 422932","website":"http://www.herstonleisure.co.uk"}},"220777585":{"location":[50.6799693,-2.0925076],"ct":"GB","tp":"CS","ts":"2024-03-08T09:28:22Z","tX":506,"tY":344,"tags":{"addr:postcode":"BH20 5BE","name":"Red Cliff","website":"http://www.redcliffefarmcamping.co.uk"}},"243027574":{"location":[50.7197839,-2.0334828],"ct":"GB","tp":"CR","ts":"2022-11-17T17:36:42Z","tX":506,"tY":344,"tags":{}},"257037659":{"location":[50.6201166,-2.0372235],"ct":"GB","tp":"CS","ts":"2024-05-21T05:29:44Z","tX":506,"tY":344,"tags":{"name":"Woodyhyde Camp Site","size":"13 acres","website":"https://www.woodyhyde.co.uk/"}},"262952373":{"location":[50.6794646,-2.0878467],"ct":"GB","tp":"CS","ts":"2024-07-31T18:59:41Z","tX":506,"tY":344,"tags":{"addr:city":"Wareham","addr:country":"GB","addr:county":"Dorset","addr:postcode":"BH20 5BG","caravans":"yes","drinking_water":"yes","internet_access":"no","name":"Ridge Farm","payment:cash":"yes","power_supply:conditional":"yes @ (when shop is open)","sanitary_dump_station":"yes","shower":"yes","source":"bing","tents":"yes","toilets":"yes","website":"https://www.ridgefarm.co.uk/"}},"265886972":{"location":[50.6058479,-2.0084072],"ct":"GB","tp":"CS","ts":"2024-04-01T13:04:47Z","tX":506,"tY":344,"tags":{"addr:city":"Langton Matravers","addr:postcode":"BH19 3HN","addr:street":"Toms Field Road","campers":"no","capacity":"100","caravans":"no","dog":"yes","drinking_water":"yes","email":"tomsfield@hotmail.com","fee":"yes","motorhome":"yes","name":"Tom's Field","payment:cash":"yes","payment:credit_cards":"yes","payment:debit_cards":"yes","phone":"+441929 427110","power_supply":"yes","sanitary_dump_station":"yes","shower":"yes","static_caravans":"no","tents":"yes","toilets":"yes","website":"https://www.tomsfieldcamping.co.uk/"}},"267145727":{"location":[50.6045964,-1.9715945],"ct":"GB","tp":"CR","ts":"2023-12-13T01:53:18Z","tX":506,"tY":344,"tags":{"addr:city":"Swanage","addr:postcode":"BH19 2QS","addr:street":"Panorama Road","brand":"Aria Resorts","brand:wikidata":"Q107920199","contact:website":"https://www.ariaresortshomes.co.uk/our-locations/dorset/swanage-bay-view/","name":"Swanage Bay View"}},"268046638":{"location":[50.6266074,-1.9681982],"ct":"GB","tp":"CR","ts":"2023-07-31T09:44:56Z","tX":506,"tY":344,"tags":{"addr:city":"Swanage","addr:postcode":"BH19 3DG","addr:street":"Ulwell Road","phone":"+44 1929 422825","source":"bing","website":"http://www.ulwellfarm.co.uk"}},"269751115":{"location":[50.6370041,-2.0723544],"ct":"GB","tp":"CS","ts":"2024-06-22T13:17:41Z","tX":506,"tY":344,"tags":{"caravans":"yes","drinking_water":"yes","name":"Corfe Castle Camping and Caravanning Club Site","power_supply":"yes","sanitary_dump_station":"yes","shower":"yes","tents":"yes","toilets":"yes"}},"271553113":{"location":[50.6149032,-2.0293319],"ct":"GB","tp":"CR","ts":"2023-12-13T23:19:57Z","tX":506,"tY":344,"tags":{"addr:city":"Swanage","addr:housename":"Downshay Farm","addr:postcode":"BH19 3EB","addr:street":"Haycrafts Lane","email":"downshayfarm@tiscali.co.uk","name":"Downshay Caravan and Camping","operator":"Martin & Justine Pike","phone":"+44 1929 480316","website":"https://www.downshayfarm.co.uk/"}},"271553115":{"location":[50.6152272,-2.0187535],"ct":"GB","tp":"CS","ts":"2022-09-20T21:55:11Z","tX":506,"tY":344,"tags":{"name":"Primrose Hill Farm"}},"271554166":{"location":[50.6166729,-2.022191],"ct":"GB","tp":"CR","ts":"2022-09-20T21:55:11Z","tX":506,"tY":344,"tags":{"name":"Haycraft Caravan Club Site"}},"271560183":{"location":[50.6060553,-2.0139717],"ct":"GB","tp":"CS","ts":"2024-09-09T13:04:38Z","tX":506,"tY":344,"tags":{"addr:city":"Langton Matravers","addr:postcode":"BH19 3BN","capacity":"80","caravans":"yes","drinking_water":"yes","email":"enquiries@actonfieldcampsite.co.uk","name":"Acton Field Campsite","phone":"+44 1929 424184; +44 7592 560159","power_supply":"yes","sanitary_dump_station":"yes","shower":"yes","source":"bing","tents":"yes","toilets":"yes","website":"https://www.actonfieldcampsite.co.uk/"}},"354676301":{"location":[50.6215104,-1.9873676],"ct":"GB","tp":"CR","ts":"2023-10-17T11:04:20Z","tX":506,"tY":344,"tags":{"addr:city":"Wareham","addr:country":"GB","addr:county":"Dorset","addr:postcode":"BH20 5JB","addr:street":"Burnhams Lane","addr:suburb":"Corfe Castle","name":"Knitson Farm Tourers Site","phone":"+44 1929 425121","website":"https://www.knitsonfarm.co.uk/"}},"406630450":{"location":[50.7237803,-2.0878883],"ct":"GB","tp":"CS","ts":"2016-03-30T17:10:24Z","tX":506,"tY":344,"tags":{"source":"bing","surveillance":"public"}},"406630451":{"location":[50.7215622,-2.08781],"ct":"GB","tp":"CS","ts":"2016-03-30T17:10:24Z","tX":506,"tY":344,"tags":{"source":"bing"}},"526185559":{"location":[50.6450229,-2.0758769],"ct":"GB","tp":"CS","ts":"2023-04-14T13:25:58Z","tX":506,"tY":344,"tags":{"caravans":"yes","drinking_water":"yes","name":"Norden Farm","power_supply":"yes","shower":"yes","tents":"yes","toilets":"yes","website":"https://nordenfarmcampsite.com/"}},"594335250":{"location":[50.6788639,-2.095792],"ct":"GB","tp":"CR","ts":"2018-06-05T20:16:57Z","tX":506,"tY":344,"tags":{"name":"TreeTops","website":"http://www.cliffordtreetops.co.uk"}},"612081028":{"location":[50.6677756,-2.0856056],"ct":"GB","tp":"CS","ts":"2022-04-12T10:37:01Z","tX":506,"tY":344,"tags":{"addr:street":"Soldiers Road","alt_name":"Barnes' Field","cabins":"no","caravans":"no","motorhome":"no","name":"Knoll Farm Campsite","opening_hours":"Jul-Aug","permanent_camping":"no","static_caravans":"no","tents":"yes"}},"614974281":{"location":[50.6516697,-2.0085611],"ct":"GB","tp":"CS","ts":"2023-08-01T09:15:30Z","tX":506,"tY":344,"tags":{"addr:postcode":"BH20 5JH","capacity":"130","caravans":"yes","fee":"yes","fixme":"check boundaries","name":"Burnbake Campsite","openfire":"no","phone":"+441929 480570","source":"https://www.openstreetmap.org/node/271387002 and partial survey","source:openfire":"sign","tents":"yes","website":"https://www.burnbake.com/"}},"698009172":{"location":[50.6880245,-1.9797864],"ct":"GB","tp":"CS","ts":"2022-09-09T16:10:07Z","tX":506,"tY":344,"tags":{"access":"yes","caravans":"no","drinking_water":"yes","fee":"yes","fixme":"Rough area of campsite needs to be refined.","internet_access":"no","name":"Baden Powell Outdoor Centre","operator":"Scouts & Guides","shower":"yes","tents":"yes"}},"767262087":{"location":[50.6330607,-2.0730348],"ct":"GB","tp":"CS","ts":"2020-01-27T14:57:29Z","tX":506,"tY":344,"tags":{"access":"customers","fee":"yes","name":"Bucknowle Farm campsite","operator":"Bucknowle Farm","surface":"grass"}},"767289126":{"location":[50.6375702,-2.0832303],"ct":"GB","tp":"CS","ts":"2023-07-19T22:30:46Z","tX":506,"tY":344,"tags":{"access":"customers","caravans":"yes","drinking_water":"yes","fee":"yes","name":"Church Farm Campsite","shower":"yes","surface":"grass","tents":"yes","toilets":"yes"}},"1040343542":{"location":[50.6032864,-2.1028968],"ct":"GB","tp":"CR","ts":"2022-03-14T19:58:38Z","tX":506,"tY":344,"tags":{}},"1117676610":{"location":[50.6345055,-2.0886519],"ct":"GB","tp":"CS","ts":"2022-11-27T21:41:36Z","tX":506,"tY":344,"tags":{"source":"Bing;seen from pub"}},"1123099489":{"location":[50.6075624,-1.9989789],"ct":"GB","tp":"CS","ts":"2022-12-18T12:11:40Z","tX":506,"tY":344,"tags":{"name":"Putlake Adventure Farm","website":"https://putlakeadventurefarm.co.uk/swanage-campsites/"}},"1299550938":{"location":[50.6701321,-2.1021091],"ct":"GB","tp":"CR","ts":"2024-07-06T17:17:28Z","tX":506,"tY":344,"tags":{"name":"The Lookout Park"}},"3603582228":{"location":[50.6122403,-1.9677499],"ct":"GB","tp":"CS","ts":"2023-10-17T11:07:56Z","tX":506,"tY":344,"tags":{"name":"Swanage Bijou Camping at Kirkwood Park","phone":"+44 1929 426809","website":"https://www.swanagecamping.com/"}},"10811273886":{"location":[50.6516029,-2.0844829],"ct":"GB","tp":"CS","ts":"2023-04-14T13:08:16Z","tX":506,"tY":344,"tags":{}},"11937891069":{"location":[50.6876646,-1.9790114],"ct":"GB","tp":"CS","ts":"2024-05-27T17:57:12Z","tX":506,"tY":344,"tags":{"name":"Brownsea Island Campsite"}}}