{"167203977":{"location":[47.5978893,-2.1012859],"ct":"FR","tp":"CS","ts":"2024-03-15T15:08:59Z","tX":506,"tY":357,"tags":{"addr:city":"Rieux","addr:postcode":"56350","addr:street":"Rue du Château","capacity:tents":"45","caravans":"yes","contact:phone":"+33 2 99 91 97 85","email":"campingderieux56@gmail.com","name":"Le Parc du château","operator":"Commune de Rieux","stars":"2","static_caravans":"no","tents":"yes","website":"https://www.campingderieux.com/","wheelchair":"yes"}},"189535221":{"location":[47.633144,-2.0978467],"ct":"FR","tp":"CS","ts":"2023-11-09T08:14:47Z","tX":506,"tY":357,"tags":{"addr:city":"Redon","addr:postcode":"35600","addr:street":"Rue de la Goule d'Eau","capacity":"45","caravans":"yes","contact:phone":"+33 2 99 72 47 92","email":"viecommerciale@mairie-redon.fr","internet_access":"no","name":"Camping municipal de la Goule d'eau","operator":"Mairie de Redon","phone":"+33 2 99 72 47 92","picnic_shelter":"yes","picnic_table":"yes","swimming_pool":"no","tents":"yes","website":"https://www.redon.fr/tourisme/r10-camping-municipal.html"}},"250569987":{"location":[47.5229581,-1.9489501],"ct":"FR","tp":"CS","ts":"2023-07-22T16:32:06Z","tX":506,"tY":357,"tags":{"caravans":"yes","drinking_water":"yes","name":"Camping Saint Clair","phone":"+33240876152","power_supply":"yes","shower":"yes","tents":"yes","toilets":"yes","website":"https://www.campingsaintclair.com/"}},"421985310":{"location":[47.702619,-1.8652314],"ct":"FR","tp":"CS","ts":"2023-05-29T06:19:40Z","tX":506,"tY":357,"tags":{"addr:city":"Guémené-Penfao","addr:place":"Beslé","addr:postcode":"44290","capacity":"40","caravans":"yes","drinking_water":"yes","email":"campingduportdebesle@orange.fr","name":"Camping du Port","operator":"Municipalité","phone":"+33 2 40 87 23 18","power_supply":"yes","shower":"yes","static_caravans":"yes","tents":"yes","toilets":"yes","website":"http://www.mairie-guemene-penfao.fr/camping-municipal/"}},"835834594":{"location":[47.6266492,-1.8184915],"ct":"FR","tp":"CS","ts":"2020-08-10T16:51:58Z","tX":506,"tY":357,"tags":{"addr:city":"Guéméné-Penfao","addr:country":"FR","addr:housenumber":"46","addr:postcode":"44290","addr:street":"Avenue du paradis","capacity":"90","caravans":"yes","name":"Camping de l'hermitage","phone":"+33 2 40 79 23 48","stars":"3","tents":"yes","website":"https://www.campinglhermitage.com/"}},"1280869944":{"location":[47.521918,-1.9497115],"ct":"FR","tp":"CR","ts":"2024-05-08T13:01:19Z","tX":506,"tY":357,"tags":{"caravan_site":"motorhome_stopover","caravan_site:type":"village","fee":"no","name":"Aire de camping cars de Guenrouet","power_supply":"no","sanitary_dump_station":"yes","services:charge":"2 EUR","services:fee":"yes","tents":"no","water_point":"yes","website":"https://www.pontchateau-saintgildasdesbois.com/aire-de-camping-cars-de-guenrouet.html"}},"1317577004":{"location":[47.6962037,-1.8904626],"ct":"FR","tp":"CR","ts":"2024-09-23T12:49:55Z","tX":506,"tY":357,"tags":{"capacity":"6","caravan_site":"motorhome_stopover","caravan_site:type":"village","fee":"no","internet_access":"no","name":"Aire Brain-sur-Vilaine","opening_hours":"24/7","operator":"municipal","power_supply":"no","sanitary_dump_station":"no","seasonal":"no","surface":"ground","water_point":"no"}},"1317579738":{"location":[47.5869529,-2.0469499],"ct":"FR","tp":"CR","ts":"2024-10-08T10:41:22Z","tX":506,"tY":357,"tags":{"caravan_site":"motorhome_stopover","caravan_site:type":"village","caravans":"no","fee":"no","name":"Aire de service de Fégréac","power_supply":"no","sanitary_dump_station":"yes","sanitary_dump_station:chemical_toilet":"yes","sanitary_dump_station:fee":"no","sanitary_dump_station:grey_water":"yes","tents":"no","water_point":"yes","water_point:fee":"no","website":"https://www.enpaysdelaloire.com/hebergements/aires-de-camping-car/aire-de-service-a-fegreac"}},"1317592363":{"location":[47.5997691,-2.0907893],"ct":"FR","tp":"CR","ts":"2024-09-23T13:42:53Z","tX":506,"tY":357,"tags":{"caravan_site":"motorhome_stopover","caravan_site:type":"river","caravans":"no","fee":"no","internet_access":"no","maxstay":"48 hours","name":"Aire Fégréac - Le Bellion","operator":"Communal","picnic_table":"yes","power_supply":"no","sanitary_dump_station":"no","surface":"grass","tents":"no","water_point":"no"}},"9957292589":{"location":[47.680556,-2.0771421],"ct":"FR","tp":"CS","ts":"2023-07-30T14:33:10Z","tX":506,"tY":357,"tags":{"name":"La Morinais","phone":"+33 6 45 74 24 78"}},"10968188302":{"location":[47.6466193,-2.0844068],"ct":"FR","tp":"CR","ts":"2024-09-23T13:54:45Z","tX":506,"tY":357,"tags":{"caravan_site":"motorhome_stopover","caravan_site:type":"parking_lot","fee":"no","name":"Parking de Saint-Nicolas-De-Redon","power_supply":"no","sanitary_dump_station":"no","seasonal":"no","water_point":"no"}},"11786823109":{"location":[47.5387497,-1.8867993],"ct":"FR","tp":"CR","ts":"2024-10-15T19:19:11Z","tX":506,"tY":357,"tags":{"capacity":"10","caravan_site":"motorhome_stopover","caravan_site:type":"lake","fee":"no","name":"Parking Camping Car Plessé","power_supply":"no","sanitary_dump_station":"no","surface":"grass","water_point":"no"}},"6252087680":{"location":[47.5219135,-1.9497713],"ct":"FR","tp":"SD","ts":"2024-05-08T12:43:51Z","tX":506,"tY":357,"tags":{"water_point":"yes"}},"9881442779":{"location":[47.6336668,-2.0980641],"ct":"FR","tp":"SD","ts":"2022-07-11T16:53:12Z","tX":506,"tY":357,"tags":{"name":"Camping municipal de la Goule d'eau"}},"12194463874":{"location":[47.5868253,-2.046789],"ct":"FR","tp":"SD","ts":"2024-09-23T12:57:17Z","tX":506,"tY":357,"tags":{"access":"yes","fee":"no","sanitary_dump_station:chemical_toilet":"yes","sanitary_dump_station:grey_water":"yes"}}}