{"33996154":{"location":[47.2873594,-1.8814962],"ct":"FR","tp":"CS","ts":"2022-12-14T17:40:24Z","tX":506,"tY":358,"tags":{"caravans":"yes","name":"Camping des Salorges","phone":"+33 2 40 02 16 46","reservation":"yes","source":"cadastre-dgi-fr source : Direction Générale des Impôts - Cadastre ; mise à jour : 2008","stars":"3","tents":"yes","website":"https://www.camping-gite-les-salorges.fr/"}},"92905758":{"location":[47.2897914,-2.0412921],"ct":"FR","tp":"CS","ts":"2024-07-20T11:00:22Z","tX":506,"tY":358,"tags":{"access":"customers","addr:street":"Quai Éole","cabins":"yes","caravans":"yes","drinking_water":"yes","email":"contact@campinglestuaire.fr","email2":"camping-lestuaire@orange.fr","facebook":"https://www.facebook.com/camp.lestuaire/","fee":"yes","name":"Camping l'Estuaire","phone":"+33 2 40 27 84 53","power_supply":"yes","shower":"yes","stars":"3","tents":"yes","toilets":"yes","website":"https://www.campinglestuaire.fr/"}},"196325017":{"location":[47.2806302,-1.7790609],"ct":"FR","tp":"CS","ts":"2014-03-06T21:07:26Z","tX":506,"tY":358,"tags":{"name":"Camping La Colleterie"}},"244185106":{"location":[47.3553603,-1.9203773],"ct":"FR","tp":"CS","ts":"2025-01-26T10:38:17Z","tX":506,"tY":358,"tags":{"cabins":"yes","caravans":"yes","name":"Camping du Lac","tents":"yes","website":"https://www.camping-lac-savenay.fr/"}},"584386812":{"location":[47.4678489,-1.7667143],"ct":"FR","tp":"CS","ts":"2022-09-18T09:17:52Z","tX":506,"tY":358,"tags":{"addr:city":"Blain","addr:country":"FR","addr:postcode":"44130","addr:street":"Rue Henri de Rohan","email":"bonjour@campingducanal.fr","internet_access":"wlan","internet_access:fee":"no","name":"Camping du Canal de Blain","phone":"+33 2 40 51 03 51","website":"https://campingducanal.fr/"}},"824236451":{"location":[47.4742754,-2.0602335],"ct":"FR","tp":"CR","ts":"2024-10-08T16:04:23Z","tX":506,"tY":358,"tags":{"addr:city":"Drefféac","addr:postcode":"44530","capacity":"7","caravan_site":"motorhome_stopover","caravan_site:type":"village","caravans":"no","fee":"no","internet_access":"no","name":"Aire de camping cars de Drefféac","power_supply":"no","sanitary_dump_station":"no","seasonal":"no","tents":"no","water_point":"no","website":"https://www.pontchateau-saintgildasdesbois.com/aire-de-camping-cars-de-dreffeac.html"}},"909634620":{"location":[47.3667489,-2.0120785],"ct":"FR","tp":"CR","ts":"2024-05-05T15:11:40Z","tX":506,"tY":358,"tags":{"access":"yes","addr:city":"Prinquiau","addr:postcode":"44260","addr:street":"Rue du Champoulain","capacity":"5","caravan_site":"motorhome_stopover","caravan_site:type":"village","fee":"no","maxstay":"48 hours","name":"Aire de service de Prinquiau","opening_hours":"Apr-Sep","operator":"Ville de Prinquiau","power_supply":"no","sanitary_dump_station":"yes","sanitary_dump_station:chemical_toilet":"yes","sanitary_dump_station:grey_water":"yes","sanitary_dump_station:round_drain":"yes","supervised":"no","water_point":"yes","website":"https://www.enpaysdelaloire.com/hebergements/aires-de-camping-car/aire-de-service-de-prinquiau"}},"909637849":{"location":[47.4401723,-2.0900019],"ct":"FR","tp":"CR","ts":"2024-09-23T10:27:02Z","tX":506,"tY":358,"tags":{"access":"yes","addr:city":"Pontchâteau","addr:postcode":"44160","addr:street":"Allée du Brivet","capacity":"6","caravan_site":"motorhome_stopover","fee":"no","maxstay":"48 hours","name":"Aire de camping cars de Pont-Château","opening_hours":"24/7","picnic_table":"yes","power_supply":"no","sanitary_dump_station":"yes","sanitary_dump_station:chemical_toilet":"yes","sanitary_dump_station:fee":"no","sanitary_dump_station:grey_water":"yes","sanitary_dump_station:round_drain":"yes","seasonal":"no","supervised":"no","water_point":"yes","water_point:fee":"no","website":"https://www.pontchateau-saintgildasdesbois.com/aire-de-camping-cars-de-pont-chateau.html"}},"1233275292":{"location":[47.2863538,-2.0165545],"ct":"FR","tp":"CR","ts":"2023-12-22T12:10:11Z","tX":506,"tY":358,"tags":{"capacity":"25","caravan_site":"motorhome_stopover","caravan_site:type":"river","description":"next to park Jardin Etoilé","dog":"yes","fee":"no","name":"Aire de stationnement Paimboeuf","opening_hours":"24/7","sanitary_dump_station":"no","seasonal":"no","water_point":"no","website":"https://www.saint-brevin.com/aire-de-stationnement-paimboeuf.html"}},"5681319526":{"location":[47.4735169,-1.8865547],"ct":"FR","tp":"CS","ts":"2020-03-22T21:37:36Z","tX":506,"tY":358,"tags":{"addr:city":"Guenrouët","addr:housenumber":"07","addr:postcode":"44530","addr:street":"La Gannelais","description":"Accueil vélo","name":"Les Pensions de la Baraque","phone":"+33966867621","website":"http://lespensionsdelabaraque.fr"}},"4586047866":{"location":[47.41479,-1.7874074],"ct":"FR","tp":"SD","ts":"2017-01-02T21:24:52Z","tX":506,"tY":358,"tags":{"name":"Étangs de la Madeleine"}},"7741699720":{"location":[47.3188963,-2.079855],"ct":"FR","tp":"SD","ts":"2020-07-23T19:44:41Z","tX":506,"tY":358,"tags":{}},"8445827301":{"location":[47.4695479,-1.7617313],"ct":"FR","tp":"SD","ts":"2023-12-20T12:24:23Z","tX":506,"tY":358,"tags":{"description":"Station de vidange pour Camping-car Ville de Blain","fee":"no","operator":"Ville de Blain","sanitary_dump_station:chemical_toilet":"yes","sanitary_dump_station:grey_water":"yes","sanitary_dump_station:round_drain":"yes","water_point":"yes"}},"8445850440":{"location":[47.3669547,-2.0121481],"ct":"FR","tp":"SD","ts":"2024-05-05T15:11:40Z","tX":506,"tY":358,"tags":{"fee":"no","operator":"Ville de Prinquiau","sanitary_dump_station:chemical_toilet":"yes","sanitary_dump_station:grey_water":"yes","sanitary_dump_station:round_drain":"yes","water_point":"yes"}},"8445882105":{"location":[47.4401866,-2.0901962],"ct":"FR","tp":"SD","ts":"2021-11-12T11:26:02Z","tX":506,"tY":358,"tags":{"fee":"no","operator":"Ville de Pontchâteau","sanitary_dump_station:chemical_toilet":"yes","sanitary_dump_station:grey_water":"yes","sanitary_dump_station:round_drain":"yes","water_point":"yes"}}}