{"38784679":{"location":[47.0414507,-1.9563275],"ct":"FR","tp":"CR","ts":"2024-04-04T12:22:27Z","tX":506,"tY":359,"tags":{"addr:city":"Bourgneuf-en-Retz","caravan_site":"motorhome_stopover","caravan_site:type":"village","fee":"no","maxstay":"3 nights","name":"La Salorge","opening_hours":"24/7","sanitary_dump_station":"yes","seasonal":"no","shower":"no","surface":"asphalt","toilets":"yes","water_point":"yes","water_point:charge":"2 EUR/100 liter","website":"https://en.pornic.com/la-salorge-motorhome-parking-and-service-area.html","wheelchair":"yes"}},"38845213":{"location":[47.0576807,-1.9602895],"ct":"FR","tp":"CS","ts":"2022-08-28T09:01:40Z","tX":506,"tY":359,"tags":{"access":"customers","addr:street":"La Guérivière- Bourgneuf","cabins":"yes","caravans":"yes","contact:email":"contact@camping-baie-doree.fr","fee":"yes","name":"La Baie Dorée","phone":"+33 2 40 21 41 14","source":"cadastre-dgi-fr source : Direction Générale des Impôts - Cadastre. Mise à jour : 2009","stars":"3","swimming_pool":"yes","tents":"yes","website":"https://www.camping-baie-doree.fr"}},"96143943":{"location":[47.2569797,-1.912446],"ct":"FR","tp":"CS","ts":"2024-05-25T20:23:31Z","tX":506,"tY":359,"tags":{"access":"customers","addr:city":"Frossay","addr:postcode":"44320","addr:street":"Square de la Chaussée","cabins":"yes","caravans":"yes","email":"camping@la-cale-sauvage.com","fee":"yes","name":"La Cale Sauvage","operator":"Sq. de la Chaussée","phone":"+33 09 52 38 35 58","tents":"yes","website":"https://www.la-cale-sauvage.com/"}},"115655943":{"location":[47.0412307,-1.9890623],"ct":"FR","tp":"PK","ts":"2024-10-31T18:11:26Z","tX":506,"tY":359,"tags":{"access":"yes","capacity":"20","fee":"no","motorhome":"yes","parking":"surface","surface":"fine_gravel"}},"174687988":{"location":[47.1195532,-2.0718249],"ct":"FR","tp":"CS","ts":"2022-08-28T09:01:40Z","tX":506,"tY":359,"tags":{"cabins":"yes","capacity":"216","caravans":"yes","name":"Camping Le Pâtisseau","phone":"+33 2 40 82 10 39","tents":"yes"}},"224088864":{"location":[47.0630407,-1.9572086],"ct":"FR","tp":"CS","ts":"2023-05-11T09:28:43Z","tX":506,"tY":359,"tags":{"access":"customers","addr:street":"La Guérivière","cabins":"yes","capacity":"56","caravans":"yes","email":"lehameaudulac@gmail.com","fee":"yes","internet_access":"wlan","internet_access:fee":"yes","leisure":"playground","name":"Le Hameau du Lac","opening_hours":"Jul-Aug 08:00-12:00,15:00-18:00; Sep-Jun 09:00-12:00","phone":"+33 2 40 21 46 15; +33 6 32 79 56 87","sanitary_dump_station":"yes","shower":"yes","sport":"table_tennis","stars":"3","swimming_pool":"inground","tents":"yes","toilets":"yes","washing_machine":"yes","website":"https://hameaudulac.fr"}},"300378183":{"location":[47.0784309,-2.0337507],"ct":"FR","tp":"PK","ts":"2019-10-06T09:35:09Z","tX":506,"tY":359,"tags":{"access":"customers","fee":"yes","motorhome":"yes"}},"300636496":{"location":[47.0974879,-2.051634],"ct":"FR","tp":"CS","ts":"2023-05-04T11:36:18Z","tX":506,"tY":359,"tags":{"addr:housenumber":"23","addr:street":"Rue de la Plage de la Boutinardière","cabins":"yes","caravans":"yes","name":"La Boutinardière","phone":"+33 2 40 82 05 68","stars":"4","swimming_pool":"yes","tents":"yes","website":"https://www.camping-boutinardiere.com/"}},"300799230":{"location":[47.0858523,-2.0371242],"ct":"FR","tp":"CS","ts":"2022-09-06T10:24:52Z","tX":506,"tY":359,"tags":{"cabins":"yes","caravans":"yes","name":"Camping Les Écureuils","name:br":"Takad-kampiñ ar C'hazhoù-koad","operator":"Chadotel","phone":"+33 2 51 33 05 05","source:name:br":"proper translation","stars":"4","swimming_pool":"yes","tents":"yes","website":"https://www.chadotel.com/fr/camping/loire-atlantique/la-bernerie-en-retz/camping-les-ecureuils"}},"300989538":{"location":[47.0859418,-2.0270529],"ct":"FR","tp":"CS","ts":"2022-08-28T09:01:40Z","tX":506,"tY":359,"tags":{"access":"customers","addr:housenumber":"48","addr:street":"Rue René Guy Cadou","cabins":"yes","caravans":"yes","contact:email":"contact@camping-lepoteau.com","fee":"yes","name":"Le Poteau","phone":"+33 9 79 71 69 06","stars":"2","swimming_pool":"yes","tents":"yes","website":"https://www.camping-lepoteau.com/"}},"300989540":{"location":[47.0817644,-2.0128971],"ct":"FR","tp":"CS","ts":"2023-10-28T01:23:04Z","tX":506,"tY":359,"tags":{"addr:city":"La Bernerie-en-Retz","addr:housenumber":"4","addr:postcode":"44760","addr:street":"Route du Moulin Neuf","cabins":"yes","caravans":"no","contact:email":"closmoulin@gmail.com","name":"Le Clos du Moulin","phone":"+33 2 40 64 60 50","stars":"4","swimming_pool":"yes","tents":"no","website":"https://www.closdumoulin.com/"}},"301283599":{"location":[47.062669,-1.995632],"ct":"FR","tp":"CS","ts":"2023-11-10T11:59:31Z","tX":506,"tY":359,"tags":{"access":"customers","addr:street":"Route de Moraudeau","cabins":"yes","caravans":"yes","fee":"yes","internet_access":"wlan","internet_access:fee":"customers","name":"Prigny","name:br":"Prigny","opening_hours":"Apr-Oct 09:00-12:00,14:30-19:00; Nov-Mar 10:00-12:00,14:30-17:30","phone":"+33 2 40 64 73 81; +33 6 24 67 05 14","shower":"yes","source:name:br":"ofis publik ar brezhoneg","stars":"3","swimming_pool":"yes","tents":"yes","toilets":"yes","washing_machine":"yes","website":"https://www.campingdeprigny.fr"}},"302765641":{"location":[47.1178317,-2.0686207],"ct":"FR","tp":"CS","ts":"2020-08-15T09:49:08Z","tX":506,"tY":359,"tags":{"cabins":"yes","caravans":"yes","contact:email":"chenaie@capfun.com","name":"La Chênaie","operator":"Cap Fun","phone":"+33 2 40 82 07 31","stars":"4","tents":"yes","website":"https://www.campinglachenaie.com/"}},"358330796":{"location":[47.2036526,-2.0364666],"ct":"FR","tp":"CS","ts":"2021-10-14T16:42:51Z","tX":506,"tY":359,"tags":{"name":"Camping du Grand Fay"}},"440848562":{"location":[47.0653862,-2.0131449],"ct":"FR","tp":"CS","ts":"2022-08-28T09:01:40Z","tX":506,"tY":359,"tags":{"addr:street":"Rue du Bois Millet","cabins":"yes","caravans":"yes","contact:email":"hermitagedesdunes@gmail.com","name":"L'Hermitage des Dunes","phone":"+33 2 40 64 64 00","pool":"yes","stars":"3","swimming_pool":"yes","tents":"yes","website":"https://www.hermitagedesdunes.com/"}},"440848563":{"location":[47.0706336,-2.0251192],"ct":"FR","tp":"CS","ts":"2024-08-13T16:55:23Z","tX":506,"tY":359,"tags":{"addr:housenumber":"48","addr:street":"Rue de la Sennetière","caravans":"yes","contact:mobile":"+33 6 81 67 12 17","contact:phone":"+33 9 60 01 10 82","name":"La Goélette","name:br":"Ar Oueletenn","source:name:br":"proper translation","stars":"2","tents":"yes","website":"https://www.campinglagoelette.com"}},"440848564":{"location":[47.068943,-2.0153466],"ct":"FR","tp":"CS","ts":"2022-08-28T09:01:40Z","tX":506,"tY":359,"tags":{"addr:housenumber":"53","addr:street":"Route de la Bernerie","cabins":"yes","capacity":"100","caravans":"yes","name":"La Plage","phone":"+33 2 40 82 71 43","stars":"3","swimming_pool":"yes","tents":"yes"}},"440848565":{"location":[47.0677902,-2.0162933],"ct":"FR","tp":"CS","ts":"2020-06-23T08:10:13Z","tX":506,"tY":359,"tags":{"name":"La Plage","phone":"+33 2 40 82 71 43"}},"440848566":{"location":[47.0665333,-2.0156824],"ct":"FR","tp":"CS","ts":"2020-06-23T08:10:13Z","tX":506,"tY":359,"tags":{"name":"La Plage","phone":"+33 2 40 82 71 43"}},"440848567":{"location":[47.0748604,-2.0077258],"ct":"FR","tp":"CS","ts":"2024-06-01T15:09:16Z","tX":506,"tY":359,"tags":{"caravans":"yes","contact:phone":"+33 2 40 82 79 78","email":"info@campinglesbrillas.com","fax":"+33 2 40 64 79 60","internet_access":"wlan","name":"Camping Les Brillas","ref:FR:SIRET":"44780689400039","reservation":"yes","stars":"3","tents":"yes","website":"https://www.campinglesbrillas.com/"}},"504786705":{"location":[47.1379439,-1.9419958],"ct":"FR","tp":"CS","ts":"2017-07-03T14:07:34Z","tX":506,"tY":359,"tags":{"name":"Camping du Pas Moreau"}},"769028612":{"location":[47.1202634,-2.0918414],"ct":"FR","tp":"CR","ts":"2024-09-24T15:35:19Z","tX":506,"tY":359,"tags":{"capacity":"7","caravan_site":"motorhome_stopover","caravan_site:type":"town;sports_centre","caravans":"no","name":"Aire de Ravitaillement du Val Saint-Martin","sanitary_dump_station":"yes","tents":"no","water_point":"yes","website":"https://www.enpaysdelaloire.com/hebergements/aires-de-camping-car/aire-de-ravitaillement-du-val-saint-martin"}},"818690873":{"location":[47.0517744,-1.9669374],"ct":"FR","tp":"CS","ts":"2024-09-08T19:24:50Z","tX":506,"tY":359,"tags":{"access":"customers","addr:city":"Bourgneuf-en-Retz","addr:housenumber":"215","addr:postcode":"44580","addr:street":"Rue des Prés Morins","cabins":"yes","caravans":"yes","contact:email":"campingleschenesverts@wanadoo.fr","fee":"yes","name":"Les Chênes Verts","phone":"+33 2 40 21 48 16","stars":"4","swimming_pool":"yes","tents":"yes","website":"https://www.leschenesverts.info"}},"835231255":{"location":[47.0637013,-1.9835464],"ct":"FR","tp":"CS","ts":"2022-09-08T07:03:42Z","tX":506,"tY":359,"tags":{"access":"customers","addr:city":"Les Moutiers-en-Retz","addr:postcode":"44760","addr:street":"Route de Moraudeau","name":"Camping de Prigny","name:br":"Takad-kampiñ Prigny","phone":"+33 2 40 64 73 81","power_supply":"yes","shower":"yes","source:name:br":"proper translation","website":"https://www.campingdeprigny.fr/"}},"837397825":{"location":[47.1194118,-2.0753905],"ct":"FR","tp":"CS","ts":"2023-10-02T14:32:41Z","tX":506,"tY":359,"tags":{"cabins":"yes","caravans":"yes","drinking_water":"yes","email":"portcheri@wanadoo.fr","internet_access":"no","name":"Le Port Chéri","phone":"+33 2 40 82 34 57","power_supply":"yes","shower":"hot","stars":"3","tents":"yes","toilets":"yes","website":"https://www.camping-leportcheri.com/"}},"968122079":{"location":[47.2654642,-1.9431008],"ct":"FR","tp":"CS","ts":"2024-09-08T11:39:47Z","tX":506,"tY":359,"tags":{"backcountry":"yes","landuse":"forest"}},"993572341":{"location":[47.2596709,-2.0174698],"ct":"FR","tp":"CR","ts":"2023-12-21T00:19:14Z","tX":506,"tY":359,"tags":{"caravan_site":"motorhome_stopover","caravan_site:type":"lake","caravans":"no","fee":"no","name":"Aire de stationnement Saint-Viaud","opening_hours":"24/7","seasonal":"no","tents":"no","toilets":"yes","website":"https://www.saint-brevin.com/aire-de-stationnement-saint-viaud.html"}},"1136356092":{"location":[47.1043088,-1.8664982],"ct":"FR","tp":"CS","ts":"2020-09-15T06:57:06Z","tX":506,"tY":359,"tags":{"name":"Camping municipal L'étoile"}},"1232804505":{"location":[47.2435021,-1.9544446],"ct":"FR","tp":"CR","ts":"2023-12-21T00:19:14Z","tX":506,"tY":359,"tags":{"bbq":"yes","capacity":"4","caravan_site":"motorhome_stopover","caravan_site:type":"farm","charge":"12 EUR","dog":"yes","fee":"no","name":"Aire Camping Car Le Welcome Frossay","opening_hours":"24/7","power_supply":"yes","power_supply:charge":"2 EUR","sanitary_dump_station":"no","seasonal":"no","shower":"yes","tents":"yes","toilets":"yes","water_point":"yes","water_point:charge":"2 EUR","water_point:fee":"yes"}},"1281254053":{"location":[47.1097454,-2.0665756],"ct":"FR","tp":"CR","ts":"2024-05-09T19:15:07Z","tX":506,"tY":359,"tags":{"bbq":"no","capacity":"6","caravan_site":"motorhome_stopover","caravan_site:type":"village","caravans":"no","charge":"9.50 EUR","dog":"leashed","fee":"yes","internet_access":"wlan","internet_access:fee":"no","maxlength":"9","name":"Aire Pornic","network":"CAMPING-CAR PARK","note":"9.50 EUR charge ends 2025","power_supply":"yes","power_supply:capacity":"6","power_supply:maxcurrent":"6","sanitary_dump_station":"yes","tents":"no","trailer":"yes","water_point":"yes"}},"1284908858":{"location":[47.1937703,-1.854313],"ct":"FR","tp":"CR","ts":"2024-10-26T19:07:02Z","tX":506,"tY":359,"tags":{"addr:city":"Rouans","addr:postcode":"44640","addr:street":"Messan","bbq":"no","capacity":"20","caravan_site":"motorhome_stopover","caravan_site:type":"river","caravans":"no","charge":"14.66 EUR","charge:conditional":"12.66 @ (Oct-Apr)","description":"Tranquille, le long d'un canal","dog":"leashed","fee":"yes","internet_access":"wlan","maxlength":"9","name":"Aire de Rouans","network":"CAMPING-CAR PARK","opening_hours":"24/7","power_supply":"yes","power_supply:capacity":"26","power_supply:maxcurrent":"6","sanitary_dump_station":"yes","tents":"no","toilets":"yes","trailer":"no","water_point":"yes","website":"https://www.campingcarpark.com/fr_FR/sejour/aire-etape-camping-car/pays-de-la-loire/44-loire-atlantique/rouans"}},"1288872149":{"location":[47.072441,-2.006515],"ct":"FR","tp":"CS","ts":"2024-06-02T09:26:40Z","tX":506,"tY":359,"tags":{"name":"Centre de Vacances ANAS Les Moutiers"}},"1323469438":{"location":[47.2614928,-2.0537238],"ct":"FR","tp":"CR","ts":"2024-10-12T19:16:32Z","tX":506,"tY":359,"tags":{"capacity":"6","caravan_site":"motorhome_stopover","caravan_site:type":"farm_shop","fee":"no","name":"Ferme de la Goguillais","operator":"Bouyer Annie et Daniel","phone":"+33 679684622","website":"http://lagoguillais.free.fr/index.php?pg=dormir"}},"3146048161":{"location":[47.2581702,-2.0141692],"ct":"FR","tp":"CS","ts":"2016-12-31T19:07:11Z","tX":506,"tY":359,"tags":{"name":"Aire de Camping"}},"9176017553":{"location":[47.2045167,-2.0875499],"ct":"FR","tp":"CS","ts":"2021-10-16T07:46:05Z","tX":506,"tY":359,"tags":{"name":"Aire Naturelle de Camping Le Ranch","operator":"Madame Sibuet Nicole","tents":"yes"}},"9908212871":{"location":[47.1046075,-1.8682757],"ct":"FR","tp":"CS","ts":"2023-01-11T17:11:42Z","tX":506,"tY":359,"tags":{"addr:street":"place, Rue Eloi Guitteny, 44680 Saint-Hilaire-de-Chaléons","name":"Camping de l'Étoile","operator:type":"public","phone":"+33 7 56 38 05 45","website":"https://www.saint-hilaire-de-chaleons.fr/"}},"4694212865":{"location":[47.1931551,-1.8544534],"ct":"FR","tp":"SD","ts":"2017-02-19T21:20:44Z","tX":506,"tY":359,"tags":{"name":"Messan"}},"11920145983":{"location":[47.2548656,-2.022505],"ct":"FR","tp":"SD","ts":"2024-05-20T16:30:39Z","tX":506,"tY":359,"tags":{"access":"yes","charge":"6 EUR","fee":"yes","name":"Borne de service Saint-Viaud","network":"CAMPING-CAR PARK","opening_hours":"24/7","operator":"CAMPING CAR-PARK","sanitary_dump_station":"yes","sanitary_dump_station:chemical_toilet":"yes","sanitary_dump_station:grey_water":"yes","website":"https://www.campingcarpark.com/fr_FR/sejour/aire-services-camping-car/pays-de-la-loire/44-loire-atlantique/as-st-viaud"}},"11926407376":{"location":[47.1201771,-2.0917931],"ct":"FR","tp":"SD","ts":"2024-05-22T17:42:10Z","tX":506,"tY":359,"tags":{"charge":"6 EUR","fee":"yes","name":"Borne Pornic","network":"CAMPING-CAR PARK","operator":"CAMPING CAR-PARK","water_point":"yes","website":"https://www.campingcarpark.com/fr_FR/sejour/aire-services-camping-car/pays-de-la-loire/44-loire-atlantique/pornic-flot-bleu"}}}