{"126488271":{"location":[46.8085333,-2.1050324],"ct":"FR","tp":"CS","ts":"2024-11-13T19:42:02Z","tX":506,"tY":360,"tags":{"addr:housenumber":"223","addr:street":"Route de Notre-Dame-de-Monts","name":"Les Amiaux","ref:FR:NAF":"5530Z","ref:FR:SIREN":"329654743","ref:FR:SIRET":"32965474300015","source":"INSEE - 2024-11","stars":"4"}},"126489364":{"location":[46.8060599,-2.1007744],"ct":"FR","tp":"CS","ts":"2024-11-13T19:42:46Z","tX":506,"tY":360,"tags":{"name":"Camping La Davière Plage","ref:FR:NAF":"5530Z","ref:FR:SIREN":"388252132","ref:FR:SIRET":"38825213200013","source":"INSEE - 2024-11","stars":"4"}},"126491099":{"location":[46.800381,-2.0813344],"ct":"FR","tp":"CS","ts":"2023-07-31T17:29:15Z","tX":506,"tY":360,"tags":{"access":"customers","addr:city":"Saint Jean De Monts","addr:housenumber":"79","addr:postcode":"85160","addr:street":"Rue Notre-Dame de Mont","cabins":"yes","caravans":"yes","contact:email":"info@buzeliere.com","drinking_water":"yes","fee":"yes","internet_access":"wlan","internet_access:fee":"no","name":"La Buzelière","phone":"+33 2 51 58 64 80","shower":"yes","sport":"table_tennis","stars":"4","swimming_pool":"inground","tents":"yes","toilets":"yes","washing_machine":"yes","website":"https://www.buzeliere.com/","wheelchair":"yes"}},"171887659":{"location":[46.8008022,-2.083084],"ct":"FR","tp":"CS","ts":"2024-11-07T17:13:25Z","tX":506,"tY":360,"tags":{"access":"customers","addr:housenumber":"62","addr:street":"Rue du Moulin Casse","bbq":"yes","drinking_water":"yes","email":"info@camping-leboisverdon.com","fee":"yes","internet_access":"wlan","internet_access:fee":"yes","name":"Le Bois Verdon","opening_hours":"May-Sep 08:30-13:00,14:00-19:30","phone":"+33 2 51 58 10 61","ref:FR:NAF":"5530Z","ref:FR:SIREN":"800970402","ref:FR:SIRET":"80097040200015","sanitary_dump_station":"yes","shower":"yes","source":"INSEE - 2024-11","stars":"2","toilets":"yes","washing_machine":"yes","website":"https://www.camping-leboisverdon.com/"}},"367290132":{"location":[46.9894834,-1.8170583],"ct":"FR","tp":"CS","ts":"2024-09-04T05:00:06Z","tX":506,"tY":360,"tags":{"caravans":"yes","drinking_water":"yes","name":"Camping La Rabine","name:br":"Takad-kampiñ ar Rabin","shower":"yes","source:name:br":"proper translation","stars":"2","tents":"yes","website":"https://www.camping-la-rabine.com"}},"373245103":{"location":[46.914344,-1.9610344],"ct":"FR","tp":"CS","ts":"2022-07-23T14:41:15Z","tX":506,"tY":360,"tags":{"name":"Camping La Fresnerie","phone":"+33 2 52 61 48 24","stars":"3","website":"https://www.camping-la-fresnerie.fr/"}},"396502191":{"location":[46.8193755,-1.8894793],"ct":"FR","tp":"CS","ts":"2022-01-13T16:58:13Z","tX":506,"tY":360,"tags":{"access":"yes","addr:city":"Challans","addr:postcode":"85300","addr:street":"Chemin de la Fradinière","dog":"leashed","email":"info@camping-leragis.com","fee":"yes","internet_access":"wlan","internet_access:fee":"yes","name":"Le Ragis","operator":"Thérèse et Joseph Guyon","phone":"+33 2 51 68 08 49","reservation":"required","sanitary_dump_station":"yes","shower":"yes","stars":"3","toilets":"yes","website":"https://www.camping-leragis.com/","wheelchair":"yes"}},"413169545":{"location":[46.8014859,-2.0802629],"ct":"FR","tp":"CS","ts":"2022-08-30T20:39:44Z","tX":506,"tY":360,"tags":{"access":"customers","addr:housenumber":"84","addr:street":"Rue Notre-Dame de Mont","cabins":"yes","contact:email":"camping.lecormier@orange.fr","drinking_water":"yes","fee":"yes","name":"Le Cormier","opening_hours":"Apr-Oct","phone":"+33 2 28 11 09 49","shower":"yes","stars":"2","swimming_pool":"inground","website":"http://www.campinglecormier.com/","wheelchair":"yes"}},"413169547":{"location":[46.8001723,-2.078698],"ct":"FR","tp":"CS","ts":"2022-08-30T20:39:44Z","tX":506,"tY":360,"tags":{"access":"customers","addr:housenumber":"64","addr:street":"Rue Notre-Dame de Mont","cabins":"yes","caravans":"yes","contact:email":"info@campinglocean.com","fee":"yes","internet_access":"wlan","internet_access:fee":"no","name":"L'océan","phone":"+33 2 51 58 03 88","shower":"yes","stars":"4","swimming_pool":"inground","tents":"yes","toilets":"yes","website":"https://www.campinglocean.com/","wheelchair":"yes"}},"435293399":{"location":[46.8997452,-2.0013106],"ct":"FR","tp":"CR","ts":"2024-10-11T21:47:34Z","tX":506,"tY":360,"tags":{"capacity":"10","caravan_site":"motorhome_stopover","caravan_site:type":"village","fee":"no","name":"Aire de stationnement Saint-Gervais","picnic_area":"yes","power_supply":"yes","sanitary_dump_station":"yes","surface":"asphalt","water_point":"yes","website":"https://www.gochallansgois.fr/aires-camping-cars/aire-de-camping-cars/"}},"440848561":{"location":[47.0346399,-1.9820309],"ct":"FR","tp":"CS","ts":"2022-08-28T09:01:40Z","tX":506,"tY":360,"tags":{"access":"customers","addr:street":"Route Verte","cabins":"yes","caravans":"yes","contact:email":"contact@domaine-du-collet.com","fee":"yes","name":"Domaine Du Collet","phone":"+33 2 40 21 40 92","stars":"4","swimming_pool":"yes","tents":"yes","website":"https://www.domaine-du-collet.com/"}},"625800060":{"location":[46.9155249,-1.9041618],"ct":"FR","tp":"CS","ts":"2018-09-15T18:14:27Z","tX":506,"tY":360,"tags":{"name":"L'Orée des Iles","stars":"2"}},"661694224":{"location":[46.9347015,-1.889691],"ct":"FR","tp":"CS","ts":"2023-04-02T09:32:38Z","tX":506,"tY":360,"tags":{"name":"Camping Le Bois Joli","stars":"3","website":"https://www.camping-leboisjoli.com"}},"693877779":{"location":[46.8037755,-2.0931268],"ct":"FR","tp":"CS","ts":"2024-11-10T18:10:09Z","tX":506,"tY":360,"tags":{"access":"customers","addr:housenumber":"146","addr:street":"Rue du Moulin Casse","cabins":"yes","caravans":"yes","contact:email":"contact@campingprairie.com","fee":"yes","name":"Camping La Prairie","opening_hours":"Apr,May,Jun,Sep Mo-Sa 09:00-12:30,14:00-18:00, Su 10:00-12:30,14:00-17:00; Jul,Aug Mo-Sa 09:00-12:30,14:30-19:00, Su 10:00-12:30,14:00-17:00","operator":"Mr et Mme Vrignaud","phone":"+33 2 51 58 16 04","ref:FR:NAF":"5530Z","ref:FR:SIREN":"401062187","ref:FR:SIRET":"40106218700018","shower":"yes","source":"INSEE - 2024-11","sport":"table_tennis","stars":"4","swimming_pool":"inground","tents":"yes","toilets":"yes","website":"https://www.campingprairie.com/"}},"693877780":{"location":[46.8043351,-2.094366],"ct":"FR","tp":"CS","ts":"2024-11-09T17:55:36Z","tX":506,"tY":360,"tags":{"access":"customers","addr:housenumber":"168","addr:street":"Rue du Moulin Casse","cabins":"yes","caravans":"yes","drinking_water":"yes","email":"contact@camping-lefief-vendee.com","fee":"yes","name":"Camping Le Fief","opening_hours":"Apr-Oct 08:30-13:00,17:00-20:00","phone":"+33 2 51 58 63 77; +33 6 60 51 99 61","ref:FR:NAF":"5530Z","ref:FR:SIREN":"392190344","ref:FR:SIRET":"39219034400011","shop":"convenience","shower":"yes","source":"INSEE - 2024-11","stars":"2","swimming_pool":"inground","tents":"yes","toilets":"yes","washing_machine":"yes","website":"http://camping-lefief-vendee.com/"}},"704525937":{"location":[46.8740289,-2.006865],"ct":"FR","tp":"CS","ts":"2024-11-07T17:01:25Z","tX":506,"tY":360,"tags":{"addr:city":"Saint Urbain","addr:postcode":"85230","addr:street":"Rue des Hautes Rouches","caravans":"yes","drinking_water":"yes","email":"mairie.sturbain@wanadoo.fr","internet_access":"wlan","name":"Camping Municipal Les Rouches","operator":"Mairie de Saint Urbain","phone":"+33 2 51 93 03 40","power_supply":"yes","ref:FR:NAF":"5530Z","ref:FR:SIREN":"510843444","ref:FR:SIRET":"51084344400025","shower":"yes","source":"INSEE - 2024-11","tents":"yes","toilets":"yes","website":"https://campinglesrouches.fr/"}},"722723770":{"location":[46.8033102,-2.0911319],"ct":"FR","tp":"CS","ts":"2023-07-31T17:29:15Z","tX":506,"tY":360,"tags":{}},"724086440":{"location":[46.9168551,-2.0471383],"ct":"FR","tp":"CR","ts":"2024-09-27T22:20:46Z","tX":506,"tY":360,"tags":{"capacity":"22","caravan_site":"motorhome_stopover","caravan_site:type":"village","caravans":"no","fee":"no","name":"Aire Camping-cars Beauvoir-sur-Mer","power_supply":"yes","power_supply:maxcurrent":"10","sanitary_dump_station":"yes","surface":"asphalt","tent":"no","tents":"no","water_point":"yes","website":"https://www.in-vendee.com/aires-de-camping-car-en-vendee/aire-de-camping-cars/beauvoir-sur-mer/accampdl085v51rvyg"}},"742903724":{"location":[46.8191831,-1.997199],"ct":"FR","tp":"CS","ts":"2024-11-07T17:00:02Z","tX":506,"tY":360,"tags":{"addr:housenumber":"22","addr:street":"Rue de la Maison Blanche","name":"Camping de la Maison Blanche","ref:FR:NAF":"5520Z","ref:FR:SIREN":"497576991","ref:FR:SIRET":"49757699100192","source":"INSEE - 2024-11","stars":"2"}},"800476963":{"location":[46.815218,-1.775739],"ct":"FR","tp":"CS","ts":"2020-05-05T17:35:10Z","tX":506,"tY":360,"tags":{"name":"Domaine de Bellevue"}},"818829663":{"location":[46.8114848,-2.1084884],"ct":"FR","tp":"CS","ts":"2024-05-16T18:55:23Z","tX":506,"tY":360,"tags":{"access":"customers","addr:housenumber":"246","cabins":"yes","caravans":"yes","contact:email":"info@campingpleinsud.com","fee":"yes","internet_access":"wlan","internet_access:fee":"customers","name":"Plein Sud","note":"Limite entre Les Places Dorées et Plein Sud déterminée à partir des images aériennes","phone":"+33 2 51 59 10 40","stars":"4","swimming_pool":"inground","tents":"yes","website":"https://www.campingpleinsud.com/"}},"992116468":{"location":[46.8611717,-1.9606988],"ct":"FR","tp":"CR","ts":"2024-07-02T11:24:11Z","tX":506,"tY":360,"tags":{"capacity":"30","caravan_site":"motorhome_stopover","caravan_site:type":"river","caravans":"no","charge":"14.90 EUR","charge:conditional":"13.90 EUR @ (Oct-Apr)","dog":"leashed","fee":"yes","internet_access":"wlan","maxlength":"none","name":"camping-car park Sallertaine","network":"CAMPING-CAR PARK","opening_hours":"24/7","power_supply:capacity":"32","power_supply:maxcurrent":"6","sanitary_dump_station":"yes","tents":"no","toilets":"yes","trailer":"yes","water_point":"yes","website":"https://www.campingcarpark.com/fr_FR/sejour/aire-etape-camping-car/pays-de-la-loire/85-vendee/sallertaine"}},"1007218083":{"location":[46.8882689,-1.8355993],"ct":"FR","tp":"CR","ts":"2024-09-24T11:26:46Z","tX":506,"tY":360,"tags":{"capacity":"10","caravan_site":"motorhome_stopover","caravan_site:type":"village","caravans":"yes","fee":"no","maxstay":"72 hours","name":"Aire camping-cars de La Garnache","picnic_area":"yes","power_supply":"no","sanitary_dump_station":"yes","sanitary_dump_station:chemical_toilet":"yes","sanitary_dump_station:grey_water":"yes","tents":"no","water_point":"yes"}},"1102852661":{"location":[46.9225736,-1.9890745],"ct":"FR","tp":"CS","ts":"2022-10-11T11:15:39Z","tX":506,"tY":360,"tags":{"name":"Camping Le Fief Angibaud"}},"1283717732":{"location":[46.8087649,-2.1091793],"ct":"FR","tp":"CS","ts":"2024-11-13T19:42:35Z","tX":506,"tY":360,"tags":{"addr:housenumber":"247","addr:street":"Route de Notre-Dame-de-Monts","name":"L'Abri des Pins","phone":"+33 2 51 58 83 86","ref:FR:NAF":"5530Z","ref:FR:SIREN":"354078511","ref:FR:SIRET":"35407851100012","source":"INSEE - 2024-11","stars":"4","website":"https://www.abridespins.com"}},"1317853364":{"location":[46.8218128,-1.7666148],"ct":"FR","tp":"CR","ts":"2024-09-24T11:36:54Z","tX":506,"tY":360,"tags":{"capacity":"10","caravan_site":"motorhome_stopover","caravans":"no","fee":"no","name":"Aire de camping-cars Saint-Christophe-du-Ligneron","picnic_area":"yes","power_supply":"no","sanitary_dump_station":"no","tents":"no","toilets":"yes","water_point":"yes","website":"https://www.gochallansgois.fr/aires-camping-cars/aire-de-camping-cars-6/"}},"2421162411":{"location":[46.8010881,-2.0869893],"ct":"FR","tp":"CS","ts":"2022-02-08T12:18:14Z","tX":506,"tY":360,"tags":{"addr:street":"Rue du Moulin Cassé","name":"Camping du Moulin Cassé"}},"2990170663":{"location":[46.8337729,-1.9831927],"ct":"FR","tp":"CS","ts":"2024-11-09T17:50:16Z","tX":506,"tY":360,"tags":{"addr:city":"Le Perrier","addr:housenumber":"60","addr:postcode":"85300","addr:street":"Chemin de la Jalonnière","capacity":"20","fee":"yes","name":"La Loire Fleurie","payment:cash":"yes","payment:credit_cards":"yes","ref:FR:NAF":"5530Z","ref:FR:SIREN":"835242983","ref:FR:SIRET":"83524298300020","source":"survey","website":"https://www.camping-laloirefleurie.com/"}},"8890793588":{"location":[47.0058769,-1.9799469],"ct":"FR","tp":"CS","ts":"2021-07-03T18:25:10Z","tX":506,"tY":360,"tags":{"addr:city":"Bouin","addr:postcode":"85230","addr:street":"La Grande Réjouie","fee":"yes","name":"Yourte à la Ferme","operator":"La Grande Réjouie","phone":"+33 6 70 83 78 30","website":"http://yourtealaferme.com/"}},"9190971647":{"location":[46.8376386,-2.1088319],"ct":"FR","tp":"CS","ts":"2021-10-21T17:04:11Z","tX":506,"tY":360,"tags":{"name":"Camping à la ferme"}},"9907784800":{"location":[46.8991828,-1.9892186],"ct":"FR","tp":"CS","ts":"2023-06-30T17:51:13Z","tX":506,"tY":360,"tags":{"addr:city":"Saint Gervais","addr:postcode":"85230","addr:street":"Rue de la Marne","capacity:caravans":"50","name":"Camping municipal Saint-Gervais","operator":"Commune Saint Gervais","shower":"yes","toilets":"yes"}},"11057114839":{"location":[46.8540931,-1.8721321],"ct":"FR","tp":"CR","ts":"2024-05-17T22:05:29Z","tX":506,"tY":360,"tags":{"bbq":"no","capacity":"45","caravan_site":"motorhome_stopover","caravan_site:type":"town","caravans":"no","charge":"13.70 EUR","charge:conditional":"12.90 EUR @ (Oct-Apr)","fee":"yes","internet_access":"wlan","maxlength":"none","name":"Camping-car Park de Challans","network":"CAMPING-CAR PARK","operator":"Camping-car Park","power_supply":"yes","sanitary_dump_station":"yes","tents":"no","trailer":"no","website":"https://www.campingcarpark.com/fr_FR/sejour/aire-etape-camping-car/pays-de-la-loire/85-vendee/challans"}},"4332243160":{"location":[46.8998333,-2.0013442],"ct":"FR","tp":"SD","ts":"2024-09-24T11:25:39Z","tX":506,"tY":360,"tags":{"fee":"yes"}},"9180374893":{"location":[46.9169175,-2.0473456],"ct":"FR","tp":"SD","ts":"2024-09-23T23:03:29Z","tX":506,"tY":360,"tags":{}},"11498546715":{"location":[46.9370259,-2.071739],"ct":"FR","tp":"SD","ts":"2024-01-08T00:14:05Z","tX":506,"tY":360,"tags":{"water_point":"yes"}}}