{"15697009":{"location":[46.7694202,-2.0280791],"ct":"FR","tp":"CS","ts":"2023-04-08T13:50:30Z","tX":506,"tY":361,"tags":{"cabins":"yes","caravans":"yes","email":"camping.pinedes.caillauderie@gmail.com","internet_access":"wlan","internet_access:fee":"yes","motorhome":"yes","name":"Les Pinèdes de la Caillauderie","opening_hours":"Apr 1-Sep 30","phone":"+33 2 51 58 23 76","shower":"yes","stars":"2","tents":"yes","toilets":"yes","website":"https://www.camping-pinedes-caillauderie.com/"}},"15697010":{"location":[46.7706115,-2.0286822],"ct":"FR","tp":"CS","ts":"2023-04-08T13:50:30Z","tX":506,"tY":361,"tags":{"email":"info@camping-jardins-atlantique.com","name":"Les Jardins de l'Atlantique","phone":"+33251580574","shower":"yes","stars":"4","tents":"yes","toilets":"yes","website":"https://www.camping-jardins-atlantique.com/"}},"18791093":{"location":[46.7532408,-2.0100068],"ct":"FR","tp":"CS","ts":"2025-03-07T09:41:01Z","tX":506,"tY":361,"tags":{"access":"customers","cabins":"yes","caravans":"yes","fee":"yes","motorhome":"yes","name":"Acapulco","operator":"Sunmarina","phone":"+33 2 51 59 20 64","shower":"yes","stars":"5","static_caravans":"yes","swimming_pool":"yes","tents":"yes","toilets":"yes","website":"https://www.camping-acapulco.net/"}},"25606623":{"location":[46.6052584,-1.8492844],"ct":"FR","tp":"CS","ts":"2024-10-04T13:30:55Z","tX":506,"tY":361,"tags":{"access":"customers","addr:housenumber":"50","addr:street":"Avenue des Dunes","area":"yes","cabins":"yes","caravans":"yes","contact:phone":"+33 2 51 90 55 32","drinking_water":"yes","fee":"yes","name":"Camping les Dunes","opening_hours":"Mo-Su 09:00-19:00","phone":"+33 2 51 90 55 32","shower":"yes","stars":"5","swimming_pool":"inground","tents":"yes","toilets":"yes","website":"https://www.campinglesdunes.fr/"}},"90504042":{"location":[46.7399108,-1.9806023],"ct":"FR","tp":"CS","ts":"2020-06-26T09:10:06Z","tX":506,"tY":361,"tags":{"access":"customers","addr:city":"Saint-Hilaire-de-Riez","addr:postcode":"85270","addr:street":"Avenue de la Parée Préneau","cabins":"yes","caravans":"no","fee":"yes","name":"L'Étang de Besse","operator":"Odalys","source":"cadastre-dgi-fr source : Direction Générale des Impôts - Cadastre. Mise à jour : 2010","tents":"no","website":"https://www.odalys-vacances.com/location-mer/pays-de-la-loire/saint-hilaire-de-riez/l-etang-de-besse.html"}},"96254393":{"location":[46.7397287,-2.0046965],"ct":"FR","tp":"CS","ts":"2023-06-19T08:37:52Z","tX":506,"tY":361,"tags":{"addr:city":"St-Hilaire-de-Riez","addr:country":"FR","addr:housenumber":"61","addr:postcode":"85270","caravans":"no","email":"info@solagogo.com","fax":"+33 2 51 54 88 74","internet_access":"wlan","internet_access:fee":"yes","motorhome":"yes","name":"Sol à Gogo","phone":"+33 2 51 54 29 00","smoking":"yes","stars":"4","static_caravans":"yes","tents":"no","website":"https://www.solagogo.com/","wheelchair":"limited"}},"96254414":{"location":[46.7219178,-1.9826963],"ct":"FR","tp":"CR","ts":"2024-07-02T12:03:39Z","tX":506,"tY":361,"tags":{"capacity":"45","caravan_site":"motorhome_stopover","caravan_site:type":"beach","charge":"8.50 EUR","fee":"yes","maxstay":"96 hours","maxstay:conditional":"none @ (Oct-May)","name":"Plage de Riez","opening_hours":"24/7","seasonal":"no","source:name":"survey","surface":"sand","water_point":"yes","water_point:charge":"2.75 EUR","water_point:fee":"yes","website":"https://www.sainthilairederiez.fr/aires-de-camping-cars/"}},"96254482":{"location":[46.7217299,-1.9775437],"ct":"FR","tp":"CS","ts":"2024-08-15T16:42:53Z","tX":506,"tY":361,"tags":{"access":"customers","cabins":"yes","caravans":"yes","contact:phone":"+33 2 51543659","drinking_water":"yes","fee":"yes","internet_access":"wlan","internet_access:fee":"yes","name":"La Plage de Riez","payment:cash":"yes","payment:cheque":"yes","payment:credit_cards":"yes","payment:visa":"yes","shower":"yes","source:name":"survey","stars":"3","swimming_pool":"inground","tents":"yes","toilets":"yes","washing_machine":"yes","website":"https://www.campingplagederiez.com","wheelchair":"yes"}},"105145839":{"location":[46.7319275,-1.8782527],"ct":"FR","tp":"CS","ts":"2022-04-20T09:54:00Z","tX":506,"tY":361,"tags":{"name":"Spring Harvest Holidays: Le Pas Opton","stars":"4"}},"107236243":{"location":[46.6961515,-1.8347087],"ct":"FR","tp":"CS","ts":"2023-11-30T10:52:01Z","tX":506,"tY":361,"tags":{"capacity":"6","caravans":"yes","email":"camping.pontrouge@wanadoo.fr","name":"Le Pont Rouge","phone":"+33 2 51 54 68 50","source":"cadastre-dgi-fr source : Direction Générale des Impôts - Cadastre. Mise à jour : 2011","stars":"3","tents":"yes","website":"https://www.camping-lepontrouge.com"}},"115905273":{"location":[46.657893,-1.7666369],"ct":"FR","tp":"CS","ts":"2024-11-03T18:39:38Z","tX":506,"tY":361,"tags":{"name":"Camping du Lac du Jaunay","ref:FR:NAF":"5530Z","ref:FR:SIREN":"434372678","ref:FR:SIRET":"43437267800020","source":"INSEE - 2024-11","stars":"3"}},"115978465":{"location":[46.6345657,-1.7981817],"ct":"FR","tp":"CS","ts":"2023-01-24T10:30:26Z","tX":506,"tY":361,"tags":{"name":"L'Évasion","phone":"+33251229014","stars":"4","website":"https://www.camping-levasion.fr/"}},"122372061":{"location":[46.7313518,-1.9118973],"ct":"FR","tp":"CR","ts":"2024-07-02T12:03:10Z","tX":506,"tY":361,"tags":{"capacity":"10","caravan_site":"motorhome_stopover","caravan_site:type":"lake","charge":"8.50 EUR","fee":"yes","maxstay":"96 hours","maxstay:conditional":"none @ (Oct-May)","name":"Aire de la Base des Vallées","opening_hours":"24/7","power_supply":"no","sanitary_dump_station":"yes","seasonal":"no","surface":"asphalt","water_point":"yes","water_point:charge":"2.75 EUR","water_point:fee":"yes","website":"https://www.sainthilairederiez.fr/aires-de-camping-cars/"}},"126486861":{"location":[46.7997805,-2.0721337],"ct":"FR","tp":"CS","ts":"2022-08-30T20:39:44Z","tX":506,"tY":361,"tags":{"access":"customers","addr:housenumber":"46","addr:street":"Rue Notre-Dame de Mont","cabins":"yes","caravans":"yes","contact:email":"info@camping-leboisjoly.com","drinking_water":"yes","fee":"yes","internet_access":"wlan","internet_access:fee":"no","name":"Le bois Joly","opening_hours":"Apr-Sep","phone":"+33 2 51 59 11 63","shower":"yes","stars":"4","swimming_pool":"inground","tents":"yes","toilets":"yes","washing_machine":"yes","website":"https://www.camping-leboisjoly.com/","wheelchair":"yes"}},"126488110":{"location":[46.7800618,-2.0179801],"ct":"FR","tp":"CS","ts":"2022-08-30T20:39:44Z","tX":506,"tY":361,"tags":{"addr:street":"Route des Sables","cabins":"yes","caravans":"yes","contact:email":"zagarella@zagarella.fr","name":"Zagarella","phone":"+33 2 51 58 19 82","stars":"4","swimming_pool":"inground","tents":"yes","website":"https://www.zagarella.fr/"}},"126489187":{"location":[46.7540547,-2.0096004],"ct":"FR","tp":"CS","ts":"2023-06-19T07:52:21Z","tX":506,"tY":361,"tags":{"access":"customers","cabins":"yes","caravans":"yes","fee":"yes","motorhome":"yes","name":"Acapulco","operator":"Sunmarina","phone":"+33 2 51 59 20 64","shower":"yes","stars":"5","static_caravans":"yes","swimming_pool":"yes","tents":"yes","toilets":"yes","website":"https://www.camping-acapulco.net/"}},"126490545":{"location":[46.7855023,-2.0311187],"ct":"FR","tp":"CS","ts":"2023-10-27T19:33:34Z","tX":506,"tY":361,"tags":{"name":"Le Bois Dormant","operator":"Siblu","stars":"4","website":"https://www.leboisdormant.fr/"}},"126492548":{"location":[46.7561709,-1.9776197],"ct":"FR","tp":"CS","ts":"2023-06-16T16:58:41Z","tX":506,"tY":361,"tags":{"name":"Le California","stars":"4"}},"126519938":{"location":[46.7586151,-2.0106002],"ct":"FR","tp":"CS","ts":"2023-06-19T07:52:21Z","tX":506,"tY":361,"tags":{"access":"customers","cabins":"yes","caravans":"yes","fee":"yes","motorhome":"yes","name":"Les Genêts","operator":"Sunmarina","phone":"+33 2 51 58 93 94","stars":"4","static_caravans":"yes","tents":"yes","website":"https://www.camping-lesgenets.net/"}},"133956441":{"location":[46.5669483,-1.7757053],"ct":"FR","tp":"CS","ts":"2023-07-26T08:08:23Z","tX":506,"tY":361,"tags":{"addr:city":"L'Ile d'Olonne","addr:postcode":"85340","addr:street":"Rue du Pré Neuf","caravans":"yes","drinking_water":"yes","name":"Camping L'Île aux Oiseaux","phone":"+33 2 51 90 89 96","shower":"yes","tents":"yes","website":"https://www.ile-aux-oiseaux.fr/"}},"198420887":{"location":[46.7890046,-2.0793198],"ct":"FR","tp":"CR","ts":"2024-09-24T11:59:31Z","tX":506,"tY":361,"tags":{"capacity":"44","caravan_site":"motorhome_stopover","caravan_site:type":"village","charge":"14 EUR","charge:conditional":"11 EUR @(Sep-Jun)","facebook":"https://www.facebook.com/airedespimprenelles","fee":"yes","name":"Aire de Camping Car des Pimprenelles","opening_hours":"Apr 01-Nov 03","power_supply":"yes","power_supply:capacity":"24","power_supply:fee":"no","power_supply:maxcurrent":"10","sanitary_dump_station":"yes","surface":"asphalt","water_point":"yes","water_point:fee":"no","website":"https://www.atlantic-loire-valley.com/accommodation/campervan-sites/aire-de-service-des-pimprenelles"}},"228652823":{"location":[46.7173629,-1.9733694],"ct":"FR","tp":"CS","ts":"2022-12-29T17:49:12Z","tX":506,"tY":361,"tags":{"access":"customers","cabins":"yes","caravans":"yes","contact:email":"campingsion85@gmail.com","contact:phone":"+33 2 51543423","drinking_water":"yes","fee":"yes","internet_access":"wlan","name":"Camping de Sion","shower":"yes","stars":"3","swimming_pool":"inground","tents":"yes","toilets":"yes","website":"https://www.campingdesion.com/","wheelchair":"yes"}},"232781006":{"location":[46.5899357,-1.8365467],"ct":"FR","tp":"CS","ts":"2022-08-28T09:16:56Z","tX":506,"tY":361,"tags":{"addr:housenumber":"1","addr:street":"Allée des Écureuils","capacity":"38","name":"Camping U.S.J.A.","phone":"+33 2 51 20 13 74","source":"survey;Ortho HR","website":"http://usja.omnisport.free.fr/camping.html"}},"286277045":{"location":[46.7463269,-2.0087039],"ct":"FR","tp":"CS","ts":"2023-06-19T07:52:21Z","tX":506,"tY":361,"tags":{"access":"customers","cabins":"yes","caravans":"yes","drinking_water":"yes","fee":"yes","internet_access":"wlan","internet_access:fee":"no","name":"La Plage","operator":"campingscollinet","phone":"+33 2 51 54 33 93","shower":"yes","smoking":"yes","stars":"4","static_caravans":"yes","swimming_pool":"inground","tents":"yes","toilets":"yes","washing_machine":"yes","website":"https://www.campingscollinet.com/campinglaplage/"}},"286954969":{"location":[46.676102,-1.9143712],"ct":"FR","tp":"CS","ts":"2024-11-05T16:39:48Z","tX":506,"tY":361,"tags":{"addr:housenumber":"2","addr:street":"Rue du Pont Jaunay","name":"Les Marines de Saint-Gilles","ref:FR:NAF":"5530Z","ref:FR:SIREN":"414617274","ref:FR:SIRET":"41461727400025","source":"cadastre-dgi-fr source : Direction Générale des Impôts - Cadastre. Mise à jour : 2014","stars":"4","static_caravans":"yes"}},"307332162":{"location":[46.7606663,-2.0230872],"ct":"FR","tp":"CS","ts":"2023-06-17T14:22:36Z","tX":506,"tY":361,"tags":{"access":"customers","addr:housenumber":"22","cabins":"yes","caravans":"yes","contact:email":"contact@campingalizes.com","drink_water":"yes","fee":"yes","internet_access":"wlan","internet_access:fee":"yes","name":"Les Alizées","phone":"+33 2 28 11 42 90","shower":"yes","swimming_pool":"inground","tents":"yes","toilets":"yes","washing_machine":"yes","website":"https://www.campingalizes.com/","wheelchair":"yes"}},"307344624":{"location":[46.7400353,-1.9878195],"ct":"FR","tp":"CS","ts":"2024-11-05T16:46:59Z","tX":506,"tY":361,"tags":{"addr:housenumber":"39","addr:street":"Avenue de la Parée Préneau","cabins":"yes","capacity":"96","caravans":"yes","contact:email":"contact@campingpareeduboth.com","drinking_water":"yes","group_only":"no","internet_access":"wlan","name":"La Parée du Both","opening_hours":"Apr-Sep","phone":"+33 2 51 54 78 27","ref:FR:NAF":"5530Z","ref:FR:SIREN":"828347807","ref:FR:SIRET":"82834780700012","shower":"yes","source":"cadastre-dgi-fr source : Direction Générale des Impôts - Cadastre. Mise à jour : 2014","stars":"3","swimming_pool":"inground","tents":"yes","toilets":"yes","website":"https://www.campingpareeduboth.com/","wheelchair":"yes"}},"307352369":{"location":[46.7387642,-1.9852912],"ct":"FR","tp":"CS","ts":"2024-08-13T10:27:22Z","tX":506,"tY":361,"tags":{"cabins":"yes","caravans":"yes","contact:email":"contact@campinglapareepreneau.com","internet_access":"wlan","name":"La Parée Préneau","phone":"+33 2 51 54 33 84","source":"cadastre-dgi-fr source : Direction Générale des Impôts - Cadastre. Mise à jour : 2014","stars":"3","tents":"yes","washing_machine":"yes","website":"https://www.campinglapareepreneau.com","wheelchair":"yes"}},"307352373":{"location":[46.7386715,-1.9835501],"ct":"FR","tp":"CS","ts":"2024-11-05T16:54:50Z","tX":506,"tY":361,"tags":{"addr:housenumber":"9","addr:street":"Avenue de la Parée-Preneau","cabins":"yes","caravans":"yes","contact:city":"Saint Hilaire-de-Riez","contact:housenumber":"9","contact:postcode":"85270","contact:street":"Avenue de la Parée Préneau","drinking_water":"yes","name":"Riez à la Vie","phone":"+33 2 85 52 91 18","ref:FR:NAF":"5530Z","ref:FR:SIREN":"310612114","ref:FR:SIRET":"31061211400010","shower":"yes","source":"cadastre-dgi-fr source : Direction Générale des Impôts - Cadastre. Mise à jour : 2014","tents":"yes","toilets":"yes","website":"https://www.riezalavie.com/"}},"400673579":{"location":[46.602138,-1.8331647],"ct":"FR","tp":"CS","ts":"2023-01-14T16:59:07Z","tX":506,"tY":361,"tags":{"cabins":"yes","caravans":"yes","contact:email":"contact@le-chaponnet.com","drinking_water":"yes","internet_access":"wlan","name":"Le Chaponnet","operator":"Yelloh!","phone":"+33 2 51 90 55 56","sanitary_dump_station":"yes","shower":"yes","stars":"4","swimming_pool":"inground","tents":"yes","toilets":"yes","washing_machine":"yes","website":"https://www.le-chaponnet.com/","wheelchair":"yes"}},"401004085":{"location":[46.7428673,-1.9957303],"ct":"FR","tp":"CS","ts":"2023-06-19T07:52:21Z","tX":506,"tY":361,"tags":{"access":"customers","addr:city":"Saint-Hilaire-de-Riez","addr:postcode":"85270","cabins":"yes","caravans":"yes","contact:email":"contact@campinglaconge.com","drinking_water":"yes","fee":"yes","internet_access":"wlan","internet_access:fee":"yes","name":"La Conge","phone":"+33 2 51 54 32 47","shower":"yes","stars":"3","static_caravans":"yes","swimming_pool":"inground","tents":"yes","toilets":"yes","washing_machine":"yes","website":"https://www.campinglaconge.com/","wheelchair":"yes"}},"401622114":{"location":[46.6017588,-1.8422371],"ct":"FR","tp":"CS","ts":"2024-03-11T09:11:20Z","tX":506,"tY":361,"tags":{"access":"customers","cabins":"yes","capacity":"525","caravans":"yes","contact:phone":"+33 2 51 90 59 16","drinking_water":"yes","fee":"yes","internet_access":"wlan","internet_access:fee":"yes","name":"Camping L'océan","phone":"+33 2 51 90 59 16","ref:FR:SIRET":"48065319500028","shower":"yes","source":"survey;BDOrtho IGN","stars":"5","static_caravans":"yes","swimming_pool":"inground","tents":"yes","toilets":"yes","website":"https://www.campingdelocean.fr/"}},"402757646":{"location":[46.6302777,-1.8610513],"ct":"FR","tp":"CS","ts":"2023-08-10T10:06:17Z","tX":506,"tY":361,"tags":{"access":"customers","cabins":"yes","caravans":"yes","drinking_water":"yes","email":"contact@campinglesvagues.fr","fee":"yes","internet_access":"wlan","internet_access:fee":"no","name":"Les Vagues","phone":"+33 2 51 90 19 48; +33 2 40 02 46 10","power_supply":"yes","shower":"yes","stars":"4","swimming_pool":"yes","tents":"yes","toilets":"yes","website":"https://www.campinglesvagues.fr/"}},"402757679":{"location":[46.6314568,-1.8642501],"ct":"FR","tp":"CS","ts":"2024-11-03T18:45:23Z","tX":506,"tY":361,"tags":{"access":"customers","addr:housenumber":"20","addr:street":"Rue du Pregneau","cabins":"yes","caravans":"yes","drinking_water":"yes","fee":"yes","name":"Les Marsouins","phone":"+33 2 51 90 14 57","ref:FR:NAF":"5530Z","ref:FR:SIREN":"385101340","ref:FR:SIRET":"38510134000029","sanitary_dump_station":"yes","shower":"yes","source":"INSEE - 2024-11","swimming_pool":"inground","tents":"yes","toilets":"yes","washing_machine":"yes","website":"https://lesmarsouins.com/","wheelchair":"yes"}},"403401885":{"location":[46.6083242,-1.770418],"ct":"FR","tp":"CS","ts":"2019-06-08T05:26:09Z","tX":506,"tY":361,"tags":{"name":"Le Roc","stars":"3"}},"403459575":{"location":[46.635198,-1.8595779],"ct":"FR","tp":"CS","ts":"2023-08-08T15:57:37Z","tX":506,"tY":361,"tags":{"access":"customers","cabins":"yes","caravans":"yes","drinking_water":"yes","fee":"yes","name":"La Trévillière","phone":"+33 2 51 33 05 05","power_supply":"yes","shower":"yes","stars":"4","tents":"yes","toilets":"yes","website":"https://www.chadotel.com/camping-la-trevilliere-bretignolles-sur-mer/"}},"415144578":{"location":[46.6382428,-1.8076816],"ct":"FR","tp":"CS","ts":"2025-02-06T13:14:14Z","tX":506,"tY":361,"tags":{"contact:phone":"+33 2 51 22 96 36","contact:website":"https://www.camping-oreedelocean.com/","name":"Slow Village Orée de l’Océan","source":"survey;BDOrtho IGN","stars":"4"}},"424944809":{"location":[46.6040819,-1.8390929],"ct":"FR","tp":"CS","ts":"2023-06-19T14:30:24Z","tX":506,"tY":361,"tags":{"cabins":"no","caravans":"no","drinking_water":"yes","internet_access":"wlan","motorhome":"no","name":"Camping Le Brandais","phone":"+33 2 51 28 10 20","shower":"yes","static_caravans":"yes","tents":"no","toilets":"yes","washing_machine":"yes","website":"https://www.camping-vagues-oceanes.com/camping-vendee/brandais.html"}},"440858564":{"location":[46.6697105,-1.9103138],"ct":"FR","tp":"CS","ts":"2024-08-17T18:52:38Z","tX":506,"tY":361,"tags":{"addr:street":"Rue du Pont du Jaunay","cabins":"yes","capacity":"294","caravans":"yes","contact:email":"contact@camping-lescypres85.com","drinking_water":"yes","internet_access":"wlan","name":"Camping Les Cypres","phone":"+33 2 51 55 38 98","shower":"yes","stars":"4","tents":"yes","toilets":"yes","washing_machine":"yes","website":"https://www.camping-lescypres85.com/","wheelchair":"yes"}},"440912850":{"location":[46.7490317,-2.0117597],"ct":"FR","tp":"CS","ts":"2023-06-19T07:52:21Z","tX":506,"tY":361,"tags":{"caravans":"no","motorhome":"no","name":"Le Village de la Mer","static_caravans":"yes","tents":"no"}},"440912851":{"location":[46.7447675,-2.0066429],"ct":"FR","tp":"CS","ts":"2023-06-19T07:52:21Z","tX":506,"tY":361,"tags":{"caravans":"no","motorhome":"no","name":"Les Écureuils","stars":"4","static_caravans":"yes","tents":"no"}},"440912852":{"location":[46.7415496,-2.003639],"ct":"FR","tp":"CS","ts":"2023-06-19T08:37:52Z","tX":506,"tY":361,"tags":{"access":"customers","addr:housenumber":"62","cabins":"yes","caravans":"yes","contact:email":"camping@lebosquet.fr","drinking_water":"yes","fee":"yes","name":"Le Bosquet","phone":"+33 2 51 54 34 61","shower":"yes","stars":"3","static_caravans":"yes","swimming_pool":"inground","tents":"yes","toilets":"yes","website":"https://www.lebosquet.fr/","wheelchair":"yes"}},"440912854":{"location":[46.7436195,-2.0072883],"ct":"FR","tp":"CS","ts":"2024-11-07T16:58:42Z","tX":506,"tY":361,"tags":{"addr:housenumber":"84","addr:street":"Avenue de la Pège","caravans":"no","motorhome":"no","name":"Holiday Parc Le Bois Tordu","ref:FR:NAF":"5530Z","ref:FR:SIREN":"854024536","ref:FR:SIRET":"85402453600013","source":"INSEE - 2024-11","static_caravans":"yes","tents":"no"}},"440912855":{"location":[46.7452851,-2.0048433],"ct":"FR","tp":"CS","ts":"2024-11-09T17:46:20Z","tX":506,"tY":361,"tags":{"access":"customers","addr:housenumber":"66","addr:street":"Chemin des Roselières","cabins":"yes","capacity":"146","caravans":"yes","drinking_water":"yes","email":"campingdelaningle@wanadoo.fr","fee":"yes","internet_access":"wlan","internet_access:fee":"no","name":"La Ningle","opening_hours":"Sep-Jun 10:00-17:30; Jul-Aug 09:30-13:00,15:00-19:00","phone":"+33 2 51 54 07 11; +33 6 80 22 70 07","ref:FR:NAF":"5530Z","ref:FR:SIREN":"428786743","ref:FR:SIRET":"42878674300016","shower":"yes","source":"INSEE - 2024-11","stars":"4","static_caravans":"yes","swimming_pool":"inground","tents":"yes","toilets":"yes","washing_machine":"yes","website":"https://www.campinglaningle.com/"}},"440912856":{"location":[46.7434839,-2.0034753],"ct":"FR","tp":"CS","ts":"2023-06-19T08:37:52Z","tX":506,"tY":361,"tags":{"access":"customers","addr:housenumber":"91","cabins":"yes","caravans":"yes","drinking_water":"yes","fee":"yes","internet_access":"wlan","internet_access:fee":"no","name":"La Prairie","opening_hours":"Apr-Sep","phone":"+33 2 51 54 08 56","shower":"yes","stars":"4","static_caravans":"yes","tents":"yes","toilets":"yes","washing_machine":"yes","website":"https://www.campingscollinet.com/campinglaprairie/"}},"440912857":{"location":[46.7411301,-2.0061498],"ct":"FR","tp":"CS","ts":"2024-11-09T17:46:07Z","tX":506,"tY":361,"tags":{"access":"customers","addr:housenumber":"67","addr:street":"Avenue de la Pège","cabins":"yes","caravans":"yes","contact:email":"info@camping-mahana.fr","drinking_water":"yes","fee":"yes","motorhome":"yes","name":"Mahana by la Pège","opening_hours":"Apr-Oct","phone":"+33 2 51 54 34 52","ref:FR:NAF":"5530Z","ref:FR:SIREN":"843117334","ref:FR:SIRET":"84311733400014","shower":"yes","source":"INSEE - 2024-11","stars":"4","static_caravans":"yes","tents":"yes","toilets":"yes","washing_machine":"yes","website":"https://www.camping-mahana.fr/"}},"440912864":{"location":[46.7472408,-1.9999477],"ct":"FR","tp":"CS","ts":"2024-11-09T17:45:59Z","tX":506,"tY":361,"tags":{"addr:postcode":"85270","caravans":"no","motorhome":"no","name":"Le Clos des Pins","ref:FR:NAF":"5530Z","ref:FR:SIREN":"351232186","ref:FR:SIRET":"35123218600038","source":"INSEE - 2024-11","stars":"4","static_caravans":"yes","tents":"no"}},"452105430":{"location":[46.7499583,-1.880289],"ct":"FR","tp":"CS","ts":"2022-08-02T18:41:34Z","tX":506,"tY":361,"tags":{"capacity":"85","caravans":"yes","internet_access":"wlan","internet_access:fee":"no","name":"La Fonteclose","phone":"+33 2 51 55 22 22","stars":"3","tents":"yes","website":"https://camping-fonteclose.com"}},"491533266":{"location":[46.6771224,-1.9159223],"ct":"FR","tp":"CS","ts":"2024-11-06T17:45:35Z","tX":506,"tY":361,"tags":{"access":"customers","addr:housenumber":"168","addr:street":"Route des Sables","cabins":"yes","caravans":"yes","drinking_water":"yes","fee":"yes","internet_access":"wlan","internet_access:fee":"no","motorhome":"yes","name":"Le Bahamas beach","operator":"Chadotel","ref:FR:NAF":"5530Z","ref:FR:SIREN":"408501070","ref:FR:SIRET":"40850107000010","shower":"yes","source":"cadastre-dgi-fr source : Direction Générale des Impôts - Cadastre. Mise à jour : 2014","stars":"4","static_caravans":"yes","tents":"yes","toilets":"yes","website":"https://www.chadotel.com/fr/camping/vendee/saint-gilles-croix-de-vie/camping-le-bahamas-beach"}},"494806059":{"location":[46.6005701,-1.832771],"ct":"FR","tp":"CS","ts":"2022-11-16T08:37:33Z","tX":506,"tY":361,"tags":{"name":"Camping l'Auzance","stars":"3"}},"494811839":{"location":[46.7342319,-1.9723778],"ct":"FR","tp":"CS","ts":"2022-08-30T20:41:29Z","tX":506,"tY":361,"tags":{"cabins":"yes","capacity":"235","caravans":"yes","contact:email":"info@camping-leschouans.com","drinking_water":"yes","internet_access":"wlan","name":"Les Chouans","phone":"+33 2 51 54 34 90","shower":"yes","stars":"5","tents":"yes","toilets":"yes","washing_machine":"yes","website":"https://www.camping-leschouans.com/"}},"494811840":{"location":[46.7345287,-1.9765659],"ct":"FR","tp":"CS","ts":"2024-08-11T15:24:31Z","tX":506,"tY":361,"tags":{"name":"Domaine des Pins","stars":"4","website":"https://www.ledomainedespins.com/"}},"498178577":{"location":[46.6360671,-1.8672386],"ct":"FR","tp":"CS","ts":"2024-11-03T18:45:47Z","tX":506,"tY":361,"tags":{"access":"customers","addr:city":"Bretignolles-sur-Mer","addr:housenumber":"24","addr:postcode":"85470","addr:street":"Route de Saint-Gilles-Croix-de-Vie","cabins":"yes","camp_site":"deluxe","caravans":"yes","drinking_water":"yes","name":"Cabestan","phone":"+33 2 51 90 15 92","ref:FR:NAF":"5530Z","ref:FR:SIREN":"539944371","ref:FR:SIRET":"53994437100027","sanitary_dump_station":"customers","shower":"yes","source":"INSEE - 2024-11","stars":"3","tents":"yes","toilets":"yes","washing_machine":"yes","website":"https://www.campingcabestan.com/"}},"498178578":{"location":[46.6366915,-1.870624],"ct":"FR","tp":"CS","ts":"2018-08-14T09:25:02Z","tX":506,"tY":361,"tags":{"name":"Le Marina","source":"survey;BDOrtho IGN","source:name":"survey","stars":"3"}},"513701078":{"location":[46.6732937,-1.8934874],"ct":"FR","tp":"CS","ts":"2023-10-28T06:09:26Z","tX":506,"tY":361,"tags":{"access":"customers","cabins":"yes","caravans":"no","contact:email":"dauphins-bleus@capfun.com","fee":"yes","internet_access":"wlan","internet_access:fee":"no","name":"Les Dauphins Bleus","operator":"Capfun","phone":"+33 2 51 55 59 34","stars":"4","tents":"no","website":"https://www.domaine-dauphins-bleus.fr/"}},"513701081":{"location":[46.6728492,-1.9031296],"ct":"FR","tp":"CS","ts":"2023-06-19T11:00:09Z","tX":506,"tY":361,"tags":{"access":"customers","cabins":"yes","caravans":"yes","drinking_water":"yes","fee":"yes","internet_access":"wlan","internet_access:fee":"no","name":"Le Domaine de Beaulieu","phone":"+33 2 51 55 59 46","shower":"yes","stars":"4","static_caravans":"yes","swimming_pool":"inground","tents":"yes","toilets":"yes","website":"https://www.chadotel.com/fr/camping/vendee/saint-gilles-croix-de-vie/camping-le-domaine-de-beaulieu"}},"538995518":{"location":[46.7529983,-2.0177586],"ct":"FR","tp":"CS","ts":"2022-11-28T11:22:37Z","tX":506,"tY":361,"tags":{"access":"customers","addr:housenumber":"6","cabins":"yes","caravans":"no","drinking_water":"yes","fee":"yes","internet_access":"wlan","internet_access:fee":"yes","name":"La Pomme de Pin","phone":"+33 2 51 58 21 26","shower":"yes","stars":"4","swimming_pool":"inground","tents":"no","toilets":"yes","washing_machine":"yes","website":"https://www.campingpommedepin.fr"}},"570021218":{"location":[46.7653455,-2.0310549],"ct":"FR","tp":"CS","ts":"2022-08-30T20:44:13Z","tX":506,"tY":361,"tags":{"addr:street":"Avenue des Becs","cabins":"yes","caravans":"yes","name":"Les Ombrages","phone":"+33 2 51 58 91 14","stars":"2","swimming_pool":"inground","tents":"yes","website":"http://www.camping-les-ombrages.com"}},"570021229":{"location":[46.7685841,-2.0381359],"ct":"FR","tp":"CS","ts":"2025-05-08T01:53:05Z","tX":506,"tY":361,"tags":{"access":"customers","addr:city":"Saint-Hilaire-de-Riez","addr:housenumber":"100","addr:postcode":"85270","addr:street":"Avenue des Becs","camp_site":"deluxe","capacity:persons":"1200","caravans":"yes","check_date":"2025-05-08","description":"Camping 3 étoiles labellisé ONF, Clef verte et Accueil Vélo. Dispose de 154 Mobile-Home, 10 Lodges et 90 emplacements de camping dont la majorité avec électricité.","dog":"leashed","fee":"yes","internet_access":"wlan","name":"Les Demoiselles","openfire":"no","operator":"Flower Exploitation Campings","reservation":"recommended","sanitary_dump_station":"customers","shower":"yes","stars":"3","static_caravans":"yes","tents":"yes","website":"https://www.camping-demoiselles-plage.fr/"}},"602159482":{"location":[46.6430564,-1.7994478],"ct":"FR","tp":"CS","ts":"2020-07-22T18:14:55Z","tX":506,"tY":361,"tags":{"name":"VVF SNCF"}},"608831901":{"location":[46.7641215,-2.0257491],"ct":"FR","tp":"CS","ts":"2022-11-27T15:03:59Z","tX":506,"tY":361,"tags":{"access":"customers","addr:housenumber":"43","bbq":"yes","cabins":"yes","caravans":"yes","contact:email":"contact@domainedessalins.com","drinking_water":"yes","fee":"yes","internet_access":"wlan","internet_access:fee":"yes","name":"Domaine des Salins","opening_hours":"Apr-Oct","phone":"+33 2 51 59 36 28","shower":"yes","stars":"4","swimming_pool":"inground","tents":"yes","toilets":"yes","washing_machine":"yes","website":"https://www.domainedessalins.com/","wheelchair":"yes"}},"609767818":{"location":[46.6815486,-1.8961984],"ct":"FR","tp":"CS","ts":"2022-02-18T07:21:47Z","tX":506,"tY":361,"tags":{"name":"Domaine de la Michelière","operator":"Sunêlia","stars":"4"}},"609808031":{"location":[46.6756086,-1.8869679],"ct":"FR","tp":"CS","ts":"2023-01-25T12:37:29Z","tX":506,"tY":361,"tags":{"name":"Camping de la Rousselotière","stars":"1"}},"609819856":{"location":[46.6671262,-1.9027993],"ct":"FR","tp":"CS","ts":"2023-04-10T21:38:26Z","tX":506,"tY":361,"tags":{"access":"customers","addr:housenumber":"122","addr:street":"Route des Sables","cabins":"yes","caravans":"yes","drinking_water":"yes","fee":"yes","internet_access":"wlan","internet_access:fee":"yes","name":"Le Jaunay","phone":"+33 2 51 55 14 77; +33 6 85 83 16 50","shower":"yes","stars":"2","tents":"yes","toilets":"yes","washing_machine":"yes","website":"https://www.camping-du-jaunay.com/"}},"609994613":{"location":[46.6286255,-1.862085],"ct":"FR","tp":"CS","ts":"2023-01-22T13:58:49Z","tX":506,"tY":361,"tags":{"access":"customers","addr:city":"Bretignolles-sur-Mer","addr:housenumber":"21","addr:postcode":"85470","cabins":"yes","caravans":"no","contact:email":"contact@edenbretignolles.com","fee":"yes","name":"L'Eden","phone":"+33 2 51 90 16 43","tents":"no","website":"https://www.edenbretignolles.com/"}},"612628567":{"location":[46.7121001,-1.916496],"ct":"FR","tp":"CS","ts":"2023-01-27T11:20:11Z","tX":506,"tY":361,"tags":{"cabins":"yes","caravans":"no","internet_access":"wlan","internet_access:fee":"yes","name":"Camping Domaine Le Chatelier","phone":"+33 2 28 10 50 75","stars":"4","tents":"no","website":"https://www.domainelechatelier.fr/"}},"628733585":{"location":[46.7888409,-2.0315185],"ct":"FR","tp":"CS","ts":"2023-10-27T19:33:31Z","tX":506,"tY":361,"tags":{"access":"customers","fee":"yes","name":"Le Bois Masson","operator":"Siblu","website":"https://www.leboismasson.fr/"}},"694008486":{"location":[46.7499557,-2.0114965],"ct":"FR","tp":"CS","ts":"2023-06-19T07:52:21Z","tX":506,"tY":361,"tags":{"cabins":"yes","caravans":"no","motorhome":"no","name":"Les Mouettes","phone":"+33 2 51 58 10 24","stars":"3","static_caravans":"yes","tents":"no","website":"https://www.domaine-du-clarys.com/camping-les-mouettes/"}},"694008487":{"location":[46.7526319,-2.013098],"ct":"FR","tp":"CS","ts":"2023-06-19T07:52:21Z","tX":506,"tY":361,"tags":{"access":"customers","cabins":"yes","caravans":"no","fee":"yes","motorhome":"no","name":"Le Clarys Plage","phone":"+33 2 51 58 10 24","stars":"5","static_caravans":"yes","swimming_pool":"inground","tents":"no","website":"https://www.domaine-du-clarys.com"}},"694008538":{"location":[46.7452376,-2.009387],"ct":"FR","tp":"CS","ts":"2022-09-04T15:02:59Z","tX":506,"tY":361,"tags":{"access":"customers","addr:housenumber":"100","cabins":"yes","capacity":"215","caravans":"yes","drinking_water":"yes","fee":"yes","internet_access":"wlan","name":"Les Écureuils","opening_hours":"Jun-Aug","phone":"+33 2 51 54 33 71","shower":"yes","stars":"4","tents":"yes","toilets":"yes","washing_machine":"yes","website":"https://www.camping-aux-ecureuils.com/"}},"701511936":{"location":[46.7994066,-2.0728449],"ct":"FR","tp":"CR","ts":"2024-09-24T12:14:18Z","tX":506,"tY":361,"tags":{"bakery_service":"yes","capacity":"98","caravan_site":"motorhome_stopover","caravan_site:type":"beach;village","charge":"15 EUR","fee":"yes","internet_access":"wlan","laundry":"yes","name":"Le Repos des Tortues","opening_hours":"24/7","power_supply:capacity":"98","power_supply:maxcurrent":"6","reservation":"no","sanitary_dump_station":"yes","socket:cee_blue":"yes","surface":"asphalt","water_point":"yes","website":"https://lereposdestortues.com/"}},"702425973":{"location":[46.7150106,-1.909122],"ct":"FR","tp":"CS","ts":"2024-11-06T17:47:06Z","tX":506,"tY":361,"tags":{"addr:housenumber":"7","addr:street":"Rue du Centre","name":"Domaine Oyat","phone":"+33 251551135","ref:FR:NAF":"5530Z","ref:FR:SIREN":"539136093","ref:FR:SIRET":"53913609300017","source":"INSEE - 2024-11","website":"https://www.domaineoyat.com/","wheelchair":"yes"}},"702425974":{"location":[46.7109838,-1.9081705],"ct":"FR","tp":"CS","ts":"2023-07-25T06:50:04Z","tX":506,"tY":361,"tags":{"caravans":"yes","name":"Le Petit Beauregard","tents":"no"}},"702425975":{"location":[46.7096016,-1.9090435],"ct":"FR","tp":"CS","ts":"2022-09-26T10:26:48Z","tX":506,"tY":361,"tags":{"cabins":"yes","caravans":"no","contact:facebook":"https://www.facebook.com/Villa-Landreau-1689753174594011/","drinking_water":"yes","fee":"yes","name":"Villa Landreau","phone":"+33 251930120","shower":"yes","stars":"3","tents":"no","toilets":"yes","website":"https://www.villa-landreau.fr/"}},"702425979":{"location":[46.6905464,-1.8798479],"ct":"FR","tp":"CS","ts":"2019-09-04T05:38:11Z","tX":506,"tY":361,"tags":{"name":"Europa","stars":"4"}},"717049023":{"location":[46.7548808,-2.0147842],"ct":"FR","tp":"CS","ts":"2022-09-15T11:03:07Z","tX":506,"tY":361,"tags":{"addr:city":"Saint-Jean-de-Monts","addr:country":"FR","addr:housenumber":"87","addr:postcode":"85160","capacity":"71","caravans":"yes","internet_access":"wlan","name":"Camping GCU Le Chenal de Saint-Jean-de-Monts","operator":"Groupement des Campeurs Universitaires","phone":"+33 2 51 59 86 92","sanitary_dump_station":"customers","stars":"2","tents":"yes","website":"https://www.gcu.asso.fr/"}},"721797361":{"location":[46.6930726,-1.865689],"ct":"FR","tp":"CS","ts":"2024-11-05T15:47:09Z","tX":506,"tY":361,"tags":{"name":"La Mouette","ref:FR:NAF":"5530Z","ref:FR:SIREN":"489926170","ref:FR:SIRET":"48992617000015","source":"INSEE - 2024-11","stars":"2"}},"723324258":{"location":[46.7554063,-1.8979284],"ct":"FR","tp":"CS","ts":"2023-01-28T17:29:19Z","tX":506,"tY":361,"tags":{"name":"Domaine des Renardières","stars":"3"}},"723324261":{"location":[46.7496299,-1.9053648],"ct":"FR","tp":"CS","ts":"2019-09-10T07:24:18Z","tX":506,"tY":361,"tags":{"name":"Le Sableau","stars":"2"}},"723324272":{"location":[46.7320819,-1.9110313],"ct":"FR","tp":"CS","ts":"2019-09-10T07:24:18Z","tX":506,"tY":361,"tags":{"name":"Les Vallées","stars":"2"}},"723324275":{"location":[46.7347144,-1.9301016],"ct":"FR","tp":"CS","ts":"2022-02-17T09:40:03Z","tX":506,"tY":361,"tags":{"name":"Camping de la Sapinière"}},"723324277":{"location":[46.7397235,-1.9303449],"ct":"FR","tp":"CS","ts":"2024-11-05T16:46:26Z","tX":506,"tY":361,"tags":{"addr:housenumber":"13","addr:street":"Chemin de la Marzelle à l'Oisson","name":"La Marzelle","ref:FR:NAF":"5530Z","ref:FR:SIREN":"502515760","ref:FR:SIRET":"50251576000010","source":"INSEE - 2024-11","stars":"3"}},"724168030":{"location":[46.7601987,-2.0267599],"ct":"FR","tp":"CR","ts":"2024-10-05T16:32:57Z","tX":506,"tY":361,"tags":{"access":"yes","capacity":"25","caravan_site":"motorhome_stopover","caravan_site:type":"beach","charge":"6.50 EUR","fee":"yes","maxstay":"96 hours","maxstay:conditional":"none @ (Oct-May)","name":"Aire Les Becs","sanitary_dump_station":"yes","seasonal":"no","surface":"asphalt","water_point":"yes","water_point:charge":"2.75 EUR","water_point:fee":"yes","website":"https://www.sainthilairederiez.fr/aires-de-camping-cars/"}},"756072501":{"location":[46.6275881,-1.8654645],"ct":"FR","tp":"CS","ts":"2023-01-20T13:57:32Z","tX":506,"tY":361,"tags":{"access":"customers","addr:city":"Brétignolles-sur-mer","addr:housenumber":"4","addr:postcode":"85470","addr:street":"Rue des Morinières","cabins":"yes","caravans":"yes","drinking_water":"yes","email":"lamotine@free.fr","fee":"yes","name":"La Motine","phone":"+33 2 51 90 04 42","shower":"yes","stars":"3","tents":"yes","toilets":"yes","website":"https://www.lamotine.com/","wheelchair":"yes"}},"783042883":{"location":[46.7013002,-1.9730914],"ct":"FR","tp":"CS","ts":"2024-11-05T16:46:46Z","tX":506,"tY":361,"tags":{"addr:city":"Saint Hilaire-de-Riez","addr:housenumber":"1","addr:postcode":"85270","addr:street":"Rue du Prévôt","cabins":"yes","caravans":"yes","drinking_water":"yes","name":"La Padrelle","phone":"+33 2 51 55 32 03","ref:FR:NAF":"5530Z","ref:FR:SIREN":"538793100","ref:FR:SIRET":"53879310000016","shower":"yes","source":"INSEE - 2024-11","stars":"2","tents":"yes","toilets":"yes","website":"https://www.camping-la-padrelle.fr"}},"800796994":{"location":[46.7610383,-1.8202974],"ct":"FR","tp":"CS","ts":"2023-03-20T14:57:37Z","tX":506,"tY":361,"tags":{"caravans":"yes","email":"contact@campinglavie.com","internet_access":"wlan","internet_access:fee":"no","name":"Camping la Vie","phone":"+33 2 51 54 90 04","stars":"3","tents":"yes","website":"https://www.campinglavie.com"}},"809053008":{"location":[46.6491458,-1.8339953],"ct":"FR","tp":"CS","ts":"2020-05-28T07:11:25Z","tX":506,"tY":361,"tags":{"name":"Les Alouettes"}},"810386614":{"location":[46.792844,-2.0410806],"ct":"FR","tp":"CS","ts":"2022-09-15T11:10:48Z","tX":506,"tY":361,"tags":{"access":"customers","addr:housenumber":"27","contact:email":"laroussiere@orange.fr","drinking_water":"yes","fee":"yes","name":"Camping de la Roussière","opening_hours":"Jul-Aug","phone":"+33 2 51 58 65 73","shower":"yes","stars":"2","swimming_pool":"yes","toilets":"yes","website":"https://paysdesaintjeandemonts.fr/fiche/camping-la-roussiere/"}},"812396206":{"location":[46.7796106,-2.0136637],"ct":"FR","tp":"CS","ts":"2023-10-27T19:33:28Z","tX":506,"tY":361,"tags":{"addr:housenumber":"4","addr:street":"Chemin du Logis","cabins":"yes","capacity":"44","caravans":"yes","contact:email":"camping-lelogis@orange.fr","internet_access":"wlan","internet_access:fee":"customers","name":"Le Logis","phone":"+33 2 51 58 60 67","stars":"3","tents":"yes","website":"https://www.camping-saintjeandemonts.com/"}},"814829315":{"location":[46.6336968,-1.8653986],"ct":"FR","tp":"CS","ts":"2024-05-27T09:21:47Z","tX":506,"tY":361,"tags":{}},"814829325":{"location":[46.6266374,-1.8593736],"ct":"FR","tp":"CS","ts":"2023-04-10T21:38:26Z","tX":506,"tY":361,"tags":{"access":"customers","addr:housenumber":"17","addr:street":"Avenue de Verdun","cabins":"yes","caravans":"yes","drinking_water":"yes","email":"calypsolesgatinelles@gmail.com","fee":"yes","internet_access":"wlan","internet_access:fee":"no","name":"Les Gâtinelles","phone":"+33 2 51 90 15 80; +33 7 71 14 59 94","sanitary_dump_station":"yes","shower":"yes","stars":"2","tents":"yes","toilets":"yes","washing_machine":"yes","website":"https://www.les-gatinelles.fr/"}},"815803343":{"location":[46.6055578,-1.8467801],"ct":"FR","tp":"CS","ts":"2023-05-11T07:22:55Z","tX":506,"tY":361,"tags":{"access":"customers","caravans":"yes","drinking_water":"yes","email":"campingamitieetnature@orange.fr","fee":"yes","name":"Amitié et Nature","opening_hours":"Apr 01-Oct 15","phone":"+33 2 51 90 50 04; +33 6 48 59 10 93","shower":"yes","stars":"2","swimming_pool":"inground","tents":"yes","toilets":"yes","website":"https://www.camping-amitie-nature.fr/"}},"819579018":{"location":[46.7570216,-2.0137392],"ct":"FR","tp":"CS","ts":"2022-08-30T20:44:13Z","tX":506,"tY":361,"tags":{"access":"customers","addr:housenumber":"78","addr:street":"Avenue des Epines","cabins":"yes","caravans":"yes","fee":"yes","internet_access":"wlan","internet_access:fee":"yes","name":"Le Chenal","operator":"TLC Vacances","phone":"+33 2 35 21 69 63","shower":"yes","tents":"yes","toilets":"yes","washing_machine":"yes","website":"https://www.campinglechenal.fr"}},"819581230":{"location":[46.7578457,-2.0066698],"ct":"FR","tp":"CS","ts":"2023-06-19T07:52:21Z","tX":506,"tY":361,"tags":{"access":"customers","addr:housenumber":"13","cabins":"yes","caravans":"yes","contact:email":"contact@la-yole.com","dog":"yes","drinking_water":"yes","fee":"yes","internet_access":"wlan","internet_access:fee":"yes","motorhome":"yes","name":"La Yole","operator":"La Yole","payment:apple_pay":"yes","payment:cash":"yes","payment:contactless":"yes","payment:credit_cards":"yes","payment:debit_cards":"yes","phone":"+33 2 51 58 67 17","power_supply":"yes","shower":"yes","stars":"4","static_caravans":"yes","tents":"yes","toilets":"yes","washing_machine":"yes","website":"https://www.vendee-camping.eu/"}},"819609575":{"location":[46.7402458,-2.0023358],"ct":"FR","tp":"CS","ts":"2024-11-07T16:58:56Z","tX":506,"tY":361,"tags":{"access":"customers","addr:housenumber":"59","addr:street":"Avenue de la Pège","cabins":"yes","caravans":"no","fee":"yes","name":"La Grande Dune","operator":"ULVF","ref:FR:NAF":"5510Z","ref:FR:SIREN":"378433411","ref:FR:SIRET":"37843341100196","source":"INSEE - 2024-11","tents":"no","website":"https://www.vacances-ulvf.com/nos-villages/la-grande-dune"}},"820290187":{"location":[46.5895954,-1.8332051],"ct":"FR","tp":"CS","ts":"2024-11-10T17:57:27Z","tX":506,"tY":361,"tags":{"access":"customers","addr:city":"Olonne-sur-Mer","addr:postcode":"85340","cabins":"yes","caravans":"yes","contact:email":"contact@camping-gachere.com","drinking_water":"yes","fee":"yes","internet_access":"wlan","internet_access:fee":"yes","name":"La Gachère","opening_hours":"Apr 01-Sep 30","phone":"+33 2 51 22 65 82","ref:FR:NAF":"5530Z","ref:FR:SIREN":"453273583","ref:FR:SIRET":"45327358300014","shower":"yes","source":"INSEE - 2024-11","stars":"4","swimming_pool":"inground","tents":"yes","toilets":"yes","washing_machine":"yes","website":"https://www.camping-gachere.com/","wheelchair":"yes"}},"878086283":{"location":[46.7153098,-1.9081161],"ct":"FR","tp":"CR","ts":"2024-05-17T22:10:18Z","tX":506,"tY":361,"tags":{"bbq":"no","capacity":"41","caravan_site":"motorhome_stopover","caravan_site:type":"beach","caravans":"no","charge":"15.72 EUR","charge:conditional":"14.22 EUR @ (Oct-Apr)","description":"3 km to the beach","dog":"leashed","fee":"yes","internet_access":"yes","maxlength":"none","name":"Aire Fenouiller, Saint-Gilles-Croix-de-Vie","network":"CAMPING-CAR PARK","power_supply":"yes","power_supply:capacity":"41","power_supply:fee":"no","power_supply:maxcurrent":"6","sanitary_dump_station":"yes","tents":"no","trailer":"yes","water_point":"yes","website":"https://www.campingcarpark.com/fr_FR/sejour/aire-etape-camping-car/pays-de-la-loire/85-vendee/le-fenouiller"}},"897602842":{"location":[46.7992117,-1.8956557],"ct":"FR","tp":"CS","ts":"2024-11-05T16:58:27Z","tX":506,"tY":361,"tags":{"addr:housenumber":"9","addr:street":"Rue Saint-Christophe","capacity":"80","internet_access":"wlan","internet_access:fee":"no","name":"Camping Le Moulin Neuf","operator":"Mairie","phone":"+33 2 44 51 00 37","ref:FR:NAF":"5530Z","ref:FR:SIREN":"218502847","ref:FR:SIRET":"21850284700070","source":"INSEE - 2024-11","stars":"2","website":"https://www.campinglemoulinneuf.com"}},"916801328":{"location":[46.728145,-1.9557212],"ct":"FR","tp":"CS","ts":"2022-01-18T11:27:30Z","tX":506,"tY":361,"tags":{"name":"Camping Le Château","operator":"Sun Marina","stars":"5"}},"988443103":{"location":[46.560824,-1.809506],"ct":"FR","tp":"CS","ts":"2021-09-30T22:36:54Z","tX":506,"tY":361,"tags":{"caravans":"yes"}},"993704267":{"location":[46.7707345,-1.959805],"ct":"FR","tp":"CS","ts":"2021-10-19T05:34:44Z","tX":506,"tY":361,"tags":{"name":"Villa Campista","stars":"3"}},"993704290":{"location":[46.7625064,-1.9582674],"ct":"FR","tp":"CS","ts":"2024-11-05T16:46:28Z","tX":506,"tY":361,"tags":{"addr:housenumber":"7","addr:street":"Chemin des Hommeaux","caravans":"yes","name":"Camping La Puerta del Sol","ref:FR:NAF":"5530Z","ref:FR:SIREN":"330230343","ref:FR:SIRET":"33023034300015","sanitary_dump_station":"yes","source":"INSEE - 2024-11","stars":"4","tents":"yes"}},"993815140":{"location":[46.7260056,-1.959695],"ct":"FR","tp":"CS","ts":"2024-11-05T16:46:39Z","tX":506,"tY":361,"tags":{"addr:housenumber":"62","addr:street":"Avenue de la Faye","name":"Camping La Prévoté","ref:FR:NAF":"5530Z","ref:FR:SIREN":"501622427","ref:FR:SIRET":"50162242700018","source":"INSEE - 2024-11","stars":"3"}},"993815164":{"location":[46.7259844,-1.9577592],"ct":"FR","tp":"CS","ts":"2021-10-19T05:34:44Z","tX":506,"tY":361,"tags":{"name":"Camping Le Château","operator":"Sun Marina","stars":"5"}},"993815179":{"location":[46.7407388,-1.9458233],"ct":"FR","tp":"CS","ts":"2021-10-19T05:34:44Z","tX":506,"tY":361,"tags":{"name":"Camping Les Biches","stars":"5"}},"993815186":{"location":[46.7412934,-1.9532671],"ct":"FR","tp":"CS","ts":"2024-11-05T16:46:07Z","tX":506,"tY":361,"tags":{"addr:housenumber":"1","addr:street":"Chemin de la Noivière","name":"Camping de Buette","ref:FR:NAF":"5530Z","ref:FR:SIREN":"949946768","ref:FR:SIRET":"94994676800023","source":"INSEE - 2024-11"}},"993815208":{"location":[46.7455967,-1.9529546],"ct":"FR","tp":"CS","ts":"2021-10-19T05:34:44Z","tX":506,"tY":361,"tags":{"name":"Camping Résidéa","stars":"2"}},"994837085":{"location":[46.7646653,-2.0309794],"ct":"FR","tp":"CS","ts":"2021-10-20T07:42:54Z","tX":506,"tY":361,"tags":{"name":"Camping Les Salines","stars":"3"}},"1083797850":{"location":[46.7644737,-1.9975778],"ct":"FR","tp":"CS","ts":"2025-06-21T20:41:49Z","tX":506,"tY":361,"tags":{"addr:housenumber":"77","addr:street":"Avenue d'Orouet","capacity":"70","caravans":"yes","contact:city":"Saint-Jean-de-Monts","contact:housenumber":"77","contact:postcode":"85160","dog":"leashed","drinking_water":"yes","fee":"yes","internet_access":"wlan","name":"Camping Le Both d'Orouet","operator":"SAS Le Both d'Orouet","payment:credit_cards":"yes","power_supply":"yes","ref:FR:NAF":"5530Z","ref:FR:SIREN":"407872837","ref:FR:SIRET":"40787283700015","reservation":"recommended","sanitary_dump_station":"yes","shower":"yes","source":"INSEE - 2024-11","stars":"3","tents":"yes","toilets":"yes","website":"https://www.camping-lebothdorouet.com/","wheelchair":"yes"}},"1084004484":{"location":[46.7558143,-1.9797586],"ct":"FR","tp":"CS","ts":"2024-11-05T16:46:34Z","tX":506,"tY":361,"tags":{"name":"Les Samaras","ref:FR:NAF":"5530Z","ref:FR:SIREN":"788505824","ref:FR:SIRET":"78850582400029","source":"INSEE - 2024-11"}},"1086384802":{"location":[46.6754575,-1.76916],"ct":"FR","tp":"CS","ts":"2022-08-15T09:55:52Z","tX":506,"tY":361,"tags":{"capacity":"218","internet_access":"yes","name":"Camping la Ferme du Latois","openfire":"yes","operator":"RCN Holidays Parks","phone":"+33 9 70 73 10 38","stars":"4","washing_machine":"yes","website":"https://www.rcn.nl/fr/camping/france/vendee/rcn-la-ferme-du-latois"}},"1106549691":{"location":[46.737151,-1.9836437],"ct":"FR","tp":"CS","ts":"2024-08-11T15:24:31Z","tX":506,"tY":361,"tags":{"name":"Le Hameau de l'Océan","source:name":"survey","stars":"4"}},"1122880332":{"location":[46.665895,-1.8260258],"ct":"FR","tp":"CS","ts":"2024-11-05T16:39:54Z","tX":506,"tY":361,"tags":{"addr:housenumber":"5","addr:street":"Rue des Sables","contact:city":"L'Aiguillon-sur-Vie","contact:housenumber":"5","contact:phone":"+33 2 51 22 86 23","contact:postcode":"85220","contact:street":"Rue Des Sables","name":"Camping Ushuaïa Villages Le Parc De La Grève","opening_hours":"Mo-Su 09:00-21:00","operator":"Maeva","ref:FR:NAF":"5530Z","ref:FR:SIREN":"811209568","ref:FR:SIRET":"81120956800021","source":"INSEE - 2024-11","website":"https://www.leparcdelagreve.com/"}},"1127960882":{"location":[46.6390619,-1.8868852],"ct":"FR","tp":"CR","ts":"2024-05-27T09:31:55Z","tX":506,"tY":361,"tags":{"capacity":"30","caravan_site":"motorhome_stopover","caravan_site:type":"beach","charge":"6.50 EUR","fee":"yes","name":"Aire de camping-car de Bretignolles Sur Mer","opening_hours":"24/7","sanitary_dump_station":"yes","seasonal":"no","water_point":"yes","website":"https://uk.payssaintgilles-tourisme.fr/aires-camping-cars/aire-de-camping-car-de-bretignolles-sur-mer/"}},"1135176925":{"location":[46.6944506,-1.8351907],"ct":"FR","tp":"CS","ts":"2023-01-25T14:19:06Z","tX":506,"tY":361,"tags":{"name":"Le Domaine du Moulin"}},"1281989969":{"location":[46.6106851,-1.8263611],"ct":"FR","tp":"CR","ts":"2024-05-11T16:34:18Z","tX":506,"tY":361,"tags":{"capacity":"28","caravan_site":"motorhome_stopover","caravan_site:type":"village","charge":"14.17 EUR","fee":"yes","name":"Aire des Chênes Verts","opening_hours":"24/7","power_supply":"yes","sanitary_dump_station":"yes","tents":"no","water_point":"yes"}},"1287015707":{"location":[46.6332894,-1.8642946],"ct":"FR","tp":"CR","ts":"2024-05-27T09:21:47Z","tX":506,"tY":361,"tags":{"caravan_site":"motorhome_stopover","caravan_site:type":"camp_site","fee":"yes","laundry":"yes","name":"Camping Les Marsouins Aire de camping-car","power_supply":"yes","sanitary_dump_station":"yes","water_point":"yes","website":"https://www.lesmarsouins.com/"}},"1287030159":{"location":[46.7033817,-1.9456643],"ct":"FR","tp":"CR","ts":"2024-08-15T15:07:29Z","tX":506,"tY":361,"tags":{"addr:city":"Saint-Gilles-Croix-de-Vie","addr:postcode":"85800","addr:street":"Rue de la Rabalette","capacity":"68","caravan_site":"motorhome_stopover","caravan_site:type":"harbour","charge":"6.50 EUR","fee":"yes","fee:conditional":"no @ (Nov 15-Mar 15)","name":"Aire de Camping Car de la Rabalette","sanitary_dump_station":"yes","seasonal":"no","water_point":"yes","water_point:charge":"2.60 EUR","water_point:fee":"yes","website":"https://www.payssaintgilles-tourisme.fr/aires-camping-cars/aire-de-camping-car-de-la-rabalette/"}},"1316363248":{"location":[46.7757624,-1.8307894],"ct":"FR","tp":"CR","ts":"2024-10-26T18:29:55Z","tX":506,"tY":361,"tags":{"caravan_site":"motorhome_stopover","caravan_site:type":"countryside","caravans":"no","charge":"4 EUR","fee":"yes","name":"Le Robillon - Le champs des Oiseaux","opening_hours":"24/7","seasonal":"no","tents":"no","water_point":"yes","water_point:fee":"yes"}},"1317034807":{"location":[46.6969553,-1.7646655],"ct":"FR","tp":"CR","ts":"2024-09-20T23:27:00Z","tX":506,"tY":361,"tags":{"caravan_site":"motorhome_stopover","caravan_site:type":"village","fee":"no","name":"Aire de Coëx","power_supply":"no","sanitary_dump_station":"yes","tents":"no","water_point":"yes","water_point:fee":"no"}},"1365264390":{"location":[46.7550545,-2.0075389],"ct":"FR","tp":"CS","ts":"2025-03-07T09:49:09Z","tX":506,"tY":361,"tags":{"area":"yes","name":"Le Tropicana","operator":"Sunêlia","stars":"5"}},"9148482771":{"location":[46.7573933,-1.7857875],"ct":"FR","tp":"CS","ts":"2021-10-05T13:47:19Z","tX":506,"tY":361,"tags":{"addr":"La jouère, 85220 Commequiers","bbq":"yes","caravans":"yes","dog":"yes","drinking_water":"yes","fee":"yes","motor_vehicle":"yes","name":"Le trèfle à 4 feuilles","openfire":"no","phone":"+33251548754","power_supply":"yes","swimming_pool":"yes","tents":"yes","washing_machine":"yes"}},"6588201445":{"location":[46.7988963,-2.0731612],"ct":"FR","tp":"SD","ts":"2019-07-04T06:51:58Z","tX":506,"tY":361,"tags":{}},"7486460048":{"location":[46.7953221,-2.0466274],"ct":"FR","tp":"SD","ts":"2020-05-05T16:30:56Z","tX":506,"tY":361,"tags":{"sanitary_dump_station:basin":"yes"}},"8275005939":{"location":[46.7312437,-1.9121264],"ct":"FR","tp":"SD","ts":"2020-12-30T19:41:11Z","tX":506,"tY":361,"tags":{"access":"yes","fee":"yes","payment:credit_cards":"yes","water_point":"yes"}},"9965929344":{"location":[46.7583752,-2.0048358],"ct":"FR","tp":"SD","ts":"2024-04-06T14:17:00Z","tX":506,"tY":361,"tags":{"access":"yes","fee":"no","water_point":"yes"}},"11936719088":{"location":[46.6393066,-1.8863842],"ct":"FR","tp":"SD","ts":"2024-05-27T09:31:55Z","tX":506,"tY":361,"tags":{}},"12189147795":{"location":[46.6968105,-1.7651322],"ct":"FR","tp":"SD","ts":"2024-09-20T23:27:00Z","tX":506,"tY":361,"tags":{"access":"yes","sanitary_dump_station:chemical_toilet":"yes","sanitary_dump_station:grey_water":"yes"}},"12408888946":{"location":[46.6990747,-1.9293228],"ct":"FR","tp":"CS","ts":"2024-12-10T08:31:34Z","tX":506,"tY":361,"tags":{"access":"permissive","backcountry":"yes","caravans":"yes","name":"aire camping - car toléré","static_caravans":"no","tents":"no"}},"12818305894":{"location":[46.7684545,-2.0382889],"ct":"FR","tp":"CS","ts":"2025-05-10T17:41:11Z","tX":506,"tY":361,"tags":{"access":"customers","addr:city":"Saint-Hilaire-de-Riez","addr:housenumber":"100","addr:postcode":"85270","addr:street":"Avenue des Becs","camp_site":"deluxe","capacity:persons":"1200","caravans":"yes","description":"Camping 3 étoiles labellisé ONF, Clef verte et Accueil Vélo. Dispose de 154 Mobile-Home, 10 Lodges et 90 emplacements de camping dont la majorité avec électricité.","dog":"leashed","drinking_water":"yes","fee":"yes","internet_access":"wlan","name":"Camping Demoiselles Plage","operator":"Flower Exploitation Campings","payment:ancv":"yes","payment:cash":"yes","payment:credit_cards":"yes","payment:debit_cards":"yes","payment:mastercard":"yes","payment:visa":"yes","phone":"02 51 58 10 71","power_supply":"yes","reservation":"recommended","sanitary_dump_station":"yes","shower":"yes","stars":"3","static_caravans":"yes","tents":"yes"}}}