{"222064599":{"location":[46.5328792,-1.7944574],"ct":"FR","tp":"CS","ts":"2024-11-09T16:44:38Z","tX":506,"tY":362,"tags":{"addr:housenumber":"2","addr:street":"Rue de la Vigne Verte","name":"Camping Le Nid d'Été","ref:FR:NAF":"5530Z","ref:FR:SIREN":"378355721","ref:FR:SIRET":"37835572100028","source":"INSEE - 2024-11","stars":"4"}},"222064600":{"location":[46.5325264,-1.792435],"ct":"FR","tp":"CS","ts":"2024-06-28T12:59:30Z","tX":506,"tY":362,"tags":{"caravans":"yes","name":"Camping Le Nid d'Été","stars":"4","tents":"yes"}},"231717953":{"location":[46.5124792,-1.8154453],"ct":"FR","tp":"CS","ts":"2024-07-26T06:12:49Z","tX":506,"tY":362,"tags":{"access":"customers","cabins":"yes","capacity":"250","caravans":"yes","drinking_water":"yes","fee":"yes","name":"Camping La Dune des Sables","operator":"Chadotel.com","phone":"+33 2 51 33 05 05","power_supply":"yes","sanitary_dump_station":"yes","shower":"yes","stars":"5","tents":"yes","toilets":"yes","website":"https://www.chadotel.com/fr/camping/vendee/les-sables-dolonne/camping-la-dune-des-sables"}},"271907976":{"location":[46.5451009,-1.8057391],"ct":"FR","tp":"CS","ts":"2023-10-28T00:08:10Z","tX":506,"tY":362,"tags":{"addr:city":"Olonne-sur-Mer","addr:housenumber":"1","name":"Camping La Loubine","phone":"+33 2 51 33 12 92","stars":"4","website":"https://www.la-loubine.fr/"}},"271911434":{"location":[46.5476688,-1.806449],"ct":"FR","tp":"CS","ts":"2023-06-22T12:05:41Z","tX":506,"tY":362,"tags":{"addr:city":"Olonne-sur-Mer","addr:housenumber":"3","addr:postcode":"85340","name":"Camping de Sauveterre","phone":"+33 2 51 33 10 58","website":"https://www.campingsauveterre.com/"}},"271917477":{"location":[46.5489372,-1.8091641],"ct":"FR","tp":"CS","ts":"2023-10-28T00:08:00Z","tX":506,"tY":362,"tags":{"addr:street":"Route des Amis de la Nature","name":"Domaine de l'Orée","phone":"+33 2 51 33 10 59","website":"https://www.l-oree.com/camping-vendee/olonne-sur-mer.php"}},"281480152":{"location":[46.5289308,-1.7910619],"ct":"FR","tp":"CS","ts":"2024-11-05T15:50:55Z","tX":506,"tY":362,"tags":{"name":"Camping Moulin de la Salle","ref:FR:NAF":"5530Z","ref:FR:SIREN":"447966722","ref:FR:SIRET":"44796672200012","source":"INSEE - 2024-11","stars":"4"}},"281480372":{"location":[46.5321176,-1.7903223],"ct":"FR","tp":"CS","ts":"2023-06-22T12:05:41Z","tX":506,"tY":362,"tags":{"name":"Camping des Ormeaux"}},"384659989":{"location":[46.5078435,-1.7883384],"ct":"FR","tp":"CR","ts":"2024-09-23T21:52:53Z","tX":506,"tY":362,"tags":{"capacity":"38","caravan_site":"motorhome_stopover","caravan_site:type":"beach","caravans":"no","charge":"8.50 EUR","dog":"yes","fee":"yes","name":"Aire camping-Cars Port Olona","network":"AirePark","power_supply":"yes","sanitary_dump_station":"yes","seasonal":"no","surface":"asphalt","tents":"no","water_point":"yes","website":"https://www.lessablesdolonne-tourisme.com/fiche/detail/7519/Sejourner~Campings-car/Aire-camping-cars-Port-Olona"}},"661532561":{"location":[46.5244586,-1.8059554],"ct":"FR","tp":"PK","ts":"2024-09-24T14:01:54Z","tX":506,"tY":362,"tags":{"access":"private","contact:facebook":"https://m.facebook.com/groups/421903781334685/","motorhome":"yes","operator":"APCPO"}},"1088711395":{"location":[46.5555335,-1.8062566],"ct":"FR","tp":"CS","ts":"2024-11-05T15:51:25Z","tX":506,"tY":362,"tags":{"addr:housenumber":"94","addr:street":"Chemin des Barres","name":"Camping Bois Soleil","ref:FR:NAF":"5530Z","ref:FR:SIREN":"421824285","ref:FR:SIRET":"42182428500017","source":"INSEE - 2024-11","stars":"4","website":"https://camping-bois-soleil.fr/"}},"1127723479":{"location":[46.5378946,-1.7747784],"ct":"FR","tp":"CR","ts":"2024-09-23T21:52:53Z","tX":506,"tY":362,"tags":{"capacity":"20","caravan_site":"tow","charge":"8.50 EUR","dog":"yes","fee":"yes","name":"Aire camping-cars OlonnEscale","opening_hours":"24/7","operator":"AirePark","power_supply":"yes","reservation":"no","sanitary_dump_station":"yes","seasonal":"no","tents":"no","water_point":"yes","website":"https://www.lessablesdolonne-tourisme.com/fiche/detail/2074/Sejourner~Campings-car/Aire-camping-cars-OlonnEscale"}}}