{"169279149":{"location":[43.3041493,-2.0456764],"ct":"ES","tp":"CS","ts":"2023-06-15T08:00:55Z","tX":506,"tY":375,"tags":{"alt_name":"We Camp San Sebastian","branch":"Igueldo","brand":"We Camp","caravans":"yes","dog":"yes","fee":"yes","internet_access":"wlan","internet_access:fee":"no","name":"Igeldo Camping","name:es":"Igueldo","website":"https://wecamp.net/en/locations/san-sebastian"}},"205241065":{"location":[43.3202851,-1.8641565],"ct":"ES","tp":"CS","ts":"2016-10-16T09:41:51Z","tX":506,"tY":375,"tags":{"access":"private","name":"Camping Arrosaleda"}},"226421245":{"location":[43.2695234,-1.9626671],"ct":"ES","tp":"CR","ts":"2024-03-21T17:44:35Z","tX":506,"tY":375,"tags":{"access":"yes","addr:city":"Hernani","addr:postcode":"20120","addr:street":"Ibaiondo Industrialdea","capacity":"20","caravan_site":"motorhome_stopover","caravan_site:type":"parking_lot","fee":"no","maxweight":"3.5","name":"Hernaniko autokarabana gunea","name:es":"Hernani area de autocaravanas","name:eu":"Hernaniko autokarabana gunea","opening_hours":"24/7","operator":"ciudad de Hernani","power_supply":"no","sanitary_dump_station":"yes","sanitary_dump_station:chemical_toilet":"yes","sanitary_dump_station:grey_water":"yes","sanitary_dump_station:round_drain":"yes","supervised":"no","surface":"asphalt","water_point":"yes","website":"https://turismoa.hernani.eus/eu/autokarabanentzako-aparkalekua"}},"260145635":{"location":[43.3149102,-1.8735397],"ct":"ES","tp":"CS","ts":"2024-09-23T21:37:16Z","tX":506,"tY":375,"tags":{"addr:city":"Oiartzun","addr:country":"ES","addr:housenumber":"2","addr:postcode":"20180","addr:street":"N-1 Errepidea","bbq":"yes","caravans":"yes","dog":"yes","email":"campingoliden@hotmail.com","fee":"yes","internet_access":"wlan","internet_access:fee":"no","motorhome":"yes","name":"Camping Oliden","phone":"+34 943 49 07 28","playground":"yes","power_supply":"yes","shower":"yes","source":"b5m","swimming_pool":"yes","tents":"yes","toilets":"yes","washing_machine":"yes","website":"http://www.campingoliden.com/"}},"343095315":{"location":[43.3079119,-2.0145183],"ct":"ES","tp":"CR","ts":"2023-05-17T18:56:37Z","tX":506,"tY":375,"tags":{"access":"yes","addr:street":"Berio pasealekua","charge":"€3.30","dog":"yes","fee":"yes","name:en":"San Sebastian","opening_hours":"24/7","operator":"Parking Municipal de Autocaravanas","parking":"surface","payment:coins":"yes","payment:credit_cards":"yes","payment:debit_cards":"yes"}},"359499193":{"location":[43.1343364,-2.0834708],"ct":"ES","tp":"CR","ts":"2015-07-09T07:03:18Z","tX":506,"tY":375,"tags":{"fee":"no","internet_access":"no","sanitary_dump_station":"no"}},"629135186":{"location":[43.1965688,-1.8558726],"ct":"ES","tp":"CS","ts":"2018-09-30T02:21:38Z","tX":506,"tY":375,"tags":{"name":"Iskibi Kanpina"}},"679604131":{"location":[43.2974071,-2.0382758],"ct":"ES","tp":"CS","ts":"2024-09-23T21:04:11Z","tX":506,"tY":375,"tags":{"bbq":"yes","cabins":"yes","caravans":"yes","dish_washing":"yes","emergency":"defibrillator","fee":"yes","internet_access":"wlan","name":"Camping Igara de San Sebastian","phone":"+34 943 358 812","power_supply":"yes","restaurant":"yes","sanitary_dump_station":"yes","sanitary_dump_station:grey_water":"yes","stars":"3","swimming_pool":"yes","tents":"yes","washing_machine":"yes","website":"https://campingigara.com/"}},"759015263":{"location":[43.1869301,-1.8581464],"ct":"ES","tp":"CS","ts":"2019-12-27T17:57:29Z","tX":506,"tY":375,"tags":{"name":"Telleri Kanpina"}},"895678296":{"location":[43.3079493,-1.7588077],"ct":"ES","tp":"CS","ts":"2021-01-15T19:39:20Z","tX":506,"tY":375,"tags":{"barrier":"fence","fence_type":"split_rail","name":"Soroeta - Zona de Acampada Controlada","name:en":"Soroeta - Controlled Camping Area"}},"900156892":{"location":[43.133437,-2.0830915],"ct":"ES","tp":"SD","ts":"2021-01-25T22:06:11Z","tX":506,"tY":375,"tags":{"water_point":"yes"}},"919663769":{"location":[43.268091,-1.9015823],"ct":"ES","tp":"CR","ts":"2024-05-16T19:30:28Z","tX":506,"tY":375,"tags":{"access":"yes","addr:city":"Listorreta","addr:postcode":"20100","addr:street":"Aldura Gunea Aldea","capacity":"10","caravan_site":"motorhome_stopover","caravan_site:type":"parking_lot","description":"Área de autocaravanas mixtas con estacionamiento para autos","description:fr":"Aire de camping-car mixte avec parking voiture","fee":"no","name":"Listorreta","operator":"ciudad de Listorreta","power_supply":"no","sanitary_dump_station":"yes","sanitary_dump_station:chemical_toilet":"yes","sanitary_dump_station:grey_water":"yes","sanitary_dump_station:round_drain":"yes","supervised":"no","water_point":"yes"}},"1182182033":{"location":[43.304091,-2.0466515],"ct":"ES","tp":"CR","ts":"2024-01-10T22:21:42Z","tX":506,"tY":375,"tags":{"caravan_site":"motorhome_stopover","caravan_site:type":"camp_site","fee":"yes","internet_access":"yes","name":"Igeldo Camping","name:es":"Igueldo Camping","operator":"We Camp","power_supply":"yes","reservation":"yes","sanitary_dump_station":"yes","sanitary_dump_station:chemical_toilet":"yes","sanitary_dump_station:grey_water":"yes","wikimedia_commons":"File:Igueldo motorhome site.jpg"}},"1195131733":{"location":[43.318959,-1.8388009],"ct":"ES","tp":"CR","ts":"2024-09-15T07:37:50Z","tX":506,"tY":375,"tags":{"access":"customers","caravans":"only","description":"parking lot","drinking_water":"yes","email":"info@parkingjaizubia.eus","fee":"yes","name":"Parking Jaizubia","parking":"surface","phone":"+34623020259","website":"https://www.parkingjaizubia.eus/"}},"1195131739":{"location":[43.3192072,-1.8383679],"ct":"ES","tp":"SD","ts":"2024-09-15T07:37:42Z","tX":506,"tY":375,"tags":{"fee":"no"}},"3642029742":{"location":[43.167747,-2.0653919],"ct":"ES","tp":"SD","ts":"2019-08-28T12:31:17Z","tX":506,"tY":375,"tags":{"access":"yes","fee":"no"}},"3642029749":{"location":[43.1343061,-2.0833367],"ct":"ES","tp":"SD","ts":"2019-08-28T12:31:17Z","tX":506,"tY":375,"tags":{"access":"yes","fee":"no"}},"6002886091":{"location":[43.2967659,-1.9690892],"ct":"ES","tp":"CR","ts":"2023-05-17T18:26:06Z","tX":506,"tY":375,"tags":{"description":"parking lot","fee":"no","opening_hours":"24/7","surface":"paved"}},"5639934941":{"location":[43.2976526,-1.9716613],"ct":"ES","tp":"SD","ts":"2024-09-09T14:53:59Z","tX":506,"tY":375,"tags":{"water_point":"yes"}},"7190056802":{"location":[43.307874,-2.0148024],"ct":"ES","tp":"SD","ts":"2020-02-06T08:25:43Z","tX":506,"tY":375,"tags":{"access":"customers","charge":"3.30 EUR","fee":"yes","operator":"Donostiako Udala","payment:coins":"yes","payment:credit_cards":"yes","water_point":"yes"}},"8540470082":{"location":[43.2692278,-1.9623458],"ct":"ES","tp":"SD","ts":"2024-03-21T17:44:35Z","tX":506,"tY":375,"tags":{"access":"yes","fee":"no","motorhome":"designated","operator":"ciudad de Hernani","sanitary_dump_station":"public","sanitary_dump_station:chemical_toilet":"yes","sanitary_dump_station:grey_water":"yes","sanitary_dump_station:round_drain":"yes","water_point":"yes"}},"8540550507":{"location":[43.2679846,-1.9011772],"ct":"ES","tp":"SD","ts":"2024-05-16T19:30:28Z","tX":506,"tY":375,"tags":{"access":"yes","fee":"no","motorhome":"designated","operator":"ciudad de Listorreta","sanitary_dump_station":"public","sanitary_dump_station:chemical_toilet":"yes","sanitary_dump_station:grey_water":"yes","sanitary_dump_station:round_drain":"yes","water_point":"yes"}},"10978339102":{"location":[43.3037387,-2.0461325],"ct":"ES","tp":"SD","ts":"2023-06-15T13:55:29Z","tX":506,"tY":375,"tags":{"access":"customers","opening_hours":"24/7","operator":"We Camp","sanitary_dump_station:basin":"yes","sanitary_dump_station:round_drain":"yes","water_point":"yes"}}}