{"39542132":{"location":[38.2114038,-1.9480161],"ct":"ES","tp":"CS","ts":"2024-06-18T08:13:38Z","tX":506,"tY":394,"tags":{"addr:city":"Moratalla","addr:street":"Carretera La Puerta","cabins":"yes","caravans":"yes","contact:instagram":"https://www.instagram.com/camping_la_puerta/?hl=es","contact:whatsapp":"+34 608 004 031","dog":"leashed","dryer":"yes","email":"info@campinglapuerta.com","fax":"+34 968 706 365","fee":"yes","name":"Camping La Puerta","opening_hours":"Jan-Dec","payment:credit_card":"yes","phone":"+34 968 730 008","power_supply":"yes","sanitary_dump_station":"yes","shower":"yes","tents":"yes","washing_machine":"yes","website":"https://www.campinglapuerta.com","wheelchair":"yes"}},"1246451463":{"location":[38.0956669,-1.7832927],"ct":"ES","tp":"CR","ts":"2024-02-05T18:34:50Z","tX":506,"tY":394,"tags":{"addr:city":"Ceheg√≠n","addr:housenumber":"9","addr:postcode":"30430","addr:street":"carretera del campillo","internet_access":"wlan","internet_access:fee":"customers","name":"Maravilla Parking","power_supply":"yes","sanitary_dump_station":"yes","website":"https://secure.parkingverde.com/redir.php?token=QUJ5cldsMWRCUzdiWGtRVFhST0xhWDk4cTlvRVczcFNUM05yS1hRR3lCUTd3dmZ6TUo1WmR5MWozYTc5TG5HTDVqWE04SGJXejdmUkNydnNscDVFVmdyUUVrakRBZm5MMlBUMEppVXBCUlNYaXVEZmdiTmNBV1dwcUdRaXo2am0="}},"12415411602":{"location":[38.1102552,-1.8643943],"ct":"ES","tp":"SD","ts":"2024-12-12T10:14:05Z","tX":506,"tY":394,"tags":{}}}