{"26860966":{"location":[37.1844686,-1.9240222],"ct":"ES","tp":"CS","ts":"2019-03-19T09:12:18Z","tX":506,"tY":397,"tags":{"addr:city":"Los Gallardos","addr:country":"ES","addr:place":"Exit 525 A7-Autovia","addr:postcode":"04288","email":"reception@campinglosgallardos.com","fax":"+34 950 469 596","image":"http://campinglosgallardos.com/wp-content/uploads/2015/04/IMG_0935.jpg","internet_access":"yes","internet_access:fee":"yes","name":"Los Gallardos","operator":"Antjony & Shirley Jackson","phone":"+34 950 528 324","sanitary_dump_station":"yes","smoking":"outside","stars":"2","website":"https://campinglosgallardos.com/"}},"179984604":{"location":[37.2369267,-1.7979745],"ct":"ES","tp":"CS","ts":"2020-01-22T12:09:45Z","tX":506,"tY":397,"tags":{"name":"Camping Cuevas Mar"}},"466516753":{"location":[37.2265619,-1.8276242],"ct":"ES","tp":"CR","ts":"2018-12-31T01:02:41Z","tX":506,"tY":397,"tags":{}},"1110289747":{"location":[37.2610246,-1.8530828],"ct":"ES","tp":"CR","ts":"2022-11-04T14:39:34Z","tX":506,"tY":397,"tags":{"name":"AC Indalo","website":"http://www.acindalo.com"}},"1116291490":{"location":[37.2400759,-1.8637592],"ct":"ES","tp":"CR","ts":"2022-11-22T14:38:13Z","tX":506,"tY":397,"tags":{"fee":"yes","landuse":"commercial","name":"Area de Autocaravanas Carpe Diem"}},"1191561096":{"location":[37.4119774,-1.9418844],"ct":"ES","tp":"CS","ts":"2023-07-24T10:53:03Z","tX":506,"tY":397,"tags":{}},"2085003254":{"location":[37.2274501,-1.8281668],"ct":"ES","tp":"CR","ts":"2023-10-20T03:47:49Z","tX":506,"tY":397,"tags":{"capacity:motorhome":"40","fee":"yes","mobile":"+34 629 456 407","motorhome":"designated","name":"oasis al mar","shower":"yes","toilets":"yes","website":"https://www.oasis-al-mar.com/"}},"4128957089":{"location":[37.2645523,-1.8572339],"ct":"ES","tp":"CR","ts":"2023-12-23T11:01:46Z","tX":506,"tY":397,"tags":{"addr:street":"Carretera de Vera a Cuevas de Almanzora","internet_access":"wlan"}},"5299657222":{"location":[37.258749,-1.8653063],"ct":"ES","tp":"CS","ts":"2017-12-22T18:05:24Z","tX":506,"tY":397,"tags":{"addr:postcode":"04620","addr:street":"San Anton Viejo","name":"Camping VerdeVeras"}}}