{"1196278564":{"location":[40.7091058,46.2849007],"ct":"AZ","tp":"CR","ts":"2023-08-09T06:45:08Z","tX":643,"tY":385,"tags":{}},"1350048336":{"location":[40.4608664,46.0947865],"ct":"AZ","tp":"CS","ts":"2025-01-10T19:48:18Z","tX":643,"tY":385,"tags":{"landuse":"farmyard","name":"Yaylaq"}},"1350048342":{"location":[40.4539837,46.0724478],"ct":"AZ","tp":"CS","ts":"2025-01-10T19:48:18Z","tX":643,"tY":385,"tags":{"landuse":"farmyard","name":"Yaylaq"}},"1350436076":{"location":[40.5149717,46.1205116],"ct":"AZ","tp":"CS","ts":"2025-01-11T20:02:43Z","tX":643,"tY":385,"tags":{"landuse":"farmyard","name":"Yaylaq"}},"1356006045":{"location":[40.5020924,46.3250716],"ct":"AZ","tp":"CS","ts":"2025-02-01T19:47:21Z","tX":643,"tY":385,"tags":{"landuse":"farmyard","name":"Yaylaq"}},"1356006048":{"location":[40.5000345,46.3105944],"ct":"AZ","tp":"CS","ts":"2025-02-01T19:47:21Z","tX":643,"tY":385,"tags":{"landuse":"farmyard","name":"Yaylaq"}},"1358399902":{"location":[40.4484564,46.2865532],"ct":"AZ","tp":"CS","ts":"2025-02-09T18:40:20Z","tX":643,"tY":385,"tags":{"landuse":"farmyard","name":"Yaylaq"}},"5923254085":{"location":[40.4903881,46.3465382],"ct":"AZ","tp":"CS","ts":"2018-09-23T03:14:27Z","tX":643,"tY":385,"tags":{"name:en":"Yeni Zod kendi"}}}