{"855250724":{"location":[40.3437046,46.1343625],"ct":"AZ","tp":"CS","ts":"2025-01-14T19:09:11Z","tX":643,"tY":386,"tags":{"landuse":"farmyard","name":"Yaylaq"}},"1348730455":{"location":[40.4413762,46.057439],"ct":"AZ","tp":"CS","ts":"2025-01-05T16:32:38Z","tX":643,"tY":386,"tags":{"landuse":"farmyard","name":"Yaylaq"}},"1348730456":{"location":[40.4415631,46.0826414],"ct":"AZ","tp":"CS","ts":"2025-01-05T16:32:38Z","tX":643,"tY":386,"tags":{"landuse":"farmyard","name":"Yaylaq"}},"1351292437":{"location":[40.4157179,46.0938263],"ct":"AZ","tp":"CS","ts":"2025-01-14T20:01:46Z","tX":643,"tY":386,"tags":{"landuse":"farmyard","name":"Yaylaq Qaraqullar"}},"1353222735":{"location":[40.3819772,46.2310831],"ct":"AZ","tp":"CS","ts":"2025-01-21T20:01:06Z","tX":643,"tY":386,"tags":{"landuse":"farmyard","name":"Yaylaq"}},"1353222738":{"location":[40.4180118,46.2715759],"ct":"AZ","tp":"CS","ts":"2025-01-21T20:01:06Z","tX":643,"tY":386,"tags":{"landuse":"farmyard","name":"Yaylaq"}},"1353771868":{"location":[40.3735154,46.274461],"ct":"AZ","tp":"CS","ts":"2025-01-23T20:58:10Z","tX":643,"tY":386,"tags":{"landuse":"farmyard","name":"Yaylaq"}},"1355441965":{"location":[40.3575667,46.1388002],"ct":"AZ","tp":"CS","ts":"2025-01-30T19:13:51Z","tX":643,"tY":386,"tags":{"landuse":"farmyard","name":"Ferma"}},"1357850669":{"location":[40.4178427,46.3939237],"ct":"AZ","tp":"CS","ts":"2025-02-07T18:57:29Z","tX":643,"tY":386,"tags":{"landuse":"farmyard","name":"Yaylaq"}},"1357850670":{"location":[40.4106252,46.3927669],"ct":"AZ","tp":"CS","ts":"2025-02-07T18:57:29Z","tX":643,"tY":386,"tags":{"landuse":"farmyard","name":"Yaylaq"}},"1357850671":{"location":[40.4071144,46.385259],"ct":"AZ","tp":"CS","ts":"2025-02-07T18:57:29Z","tX":643,"tY":386,"tags":{"landuse":"farmyard","name":"Yaylaq"}},"1357850672":{"location":[40.3990474,46.3804865],"ct":"AZ","tp":"CS","ts":"2025-02-07T18:57:29Z","tX":643,"tY":386,"tags":{"landuse":"farmyard","name":"Yaylaq"}},"1357850673":{"location":[40.4148871,46.4057843],"ct":"AZ","tp":"CS","ts":"2025-02-07T18:57:29Z","tX":643,"tY":386,"tags":{"landuse":"farmyard","name":"Yaylaq"}},"1357850675":{"location":[40.3960381,46.3930821],"ct":"AZ","tp":"CS","ts":"2025-02-07T18:57:29Z","tX":643,"tY":386,"tags":{"landuse":"farmyard"}},"1357850677":{"location":[40.3638771,46.361668],"ct":"AZ","tp":"CS","ts":"2025-02-07T18:57:29Z","tX":643,"tY":386,"tags":{"landuse":"farmyard","name":"Yaylaq"}},"1357850678":{"location":[40.3774022,46.379733],"ct":"AZ","tp":"CS","ts":"2025-02-07T18:57:29Z","tX":643,"tY":386,"tags":{"landuse":"farmyard","name":"Yaylaq"}},"1357850679":{"location":[40.3968192,46.3963048],"ct":"AZ","tp":"CS","ts":"2025-02-07T18:57:29Z","tX":643,"tY":386,"tags":{"landuse":"farmyard","name":"Yaylaq"}},"1358184562":{"location":[40.3813736,46.2997497],"ct":"AZ","tp":"CS","ts":"2025-02-08T19:14:03Z","tX":643,"tY":386,"tags":{"landuse":"farmyard","name":"Yaylaq"}},"1358184563":{"location":[40.3339237,46.3343492],"ct":"AZ","tp":"CS","ts":"2025-02-08T19:14:03Z","tX":643,"tY":386,"tags":{"landuse":"farmyard","name":"Yaylaq"}},"1358184570":{"location":[40.3754379,46.3013138],"ct":"AZ","tp":"CS","ts":"2025-02-08T19:14:03Z","tX":643,"tY":386,"tags":{"landuse":"farmyard","name":"Yaylaq"}},"1358778748":{"location":[40.3862323,46.2757551],"ct":"AZ","tp":"CS","ts":"2025-02-10T19:07:22Z","tX":643,"tY":386,"tags":{"landuse":"farmyard","name":"Yaylaq"}},"1358784211":{"location":[40.3513254,46.252487],"ct":"AZ","tp":"CS","ts":"2025-02-10T19:31:34Z","tX":643,"tY":386,"tags":{"landuse":"farmyard","name":"Yaylaq"}}}