{"4933939622":{"location":[39.1437539,46.3698966],"ct":"AM","tp":"CS","ts":"2021-02-26T18:33:35Z","tX":643,"tY":390,"tags":{"backcountry":"yes","camp_site":"basic","name":"Վրանային ճամբար","name:en":"Camping area","name:hy":"Վրանային ճամբար"}},"8364768905":{"location":[39.2163202,46.3344312],"ct":"AM","tp":"CS","ts":"2021-01-26T16:02:35Z","tX":643,"tY":390,"tags":{"note":"Informal"}},"8446539864":{"location":[39.3468195,46.3290641],"ct":"AM","tp":"CS","ts":"2021-02-22T20:02:32Z","tX":643,"tY":390,"tags":{"addr:full":"4 Charents Street, 4/2, Kapan Community, 3301, Kapan, Armenia","alt_name:en":"ARK Touristic Bridge","email":"arkarmenia@gmail.com","facebook":"https://www.facebook.com/tandzaverecocamp/","name":"Tandzaver Eco Camp","operator":"ARK Armenia","phone":"+374 93 812683"}},"10940189205":{"location":[39.1836166,46.3877572],"ct":"AM","tp":"CS","ts":"2023-05-30T15:44:00Z","tX":643,"tY":390,"tags":{"addr:housenumber":"171","addr:street":"Ghurchik","email":"navadardresort@gmail.com","name:en":"Navadard Resort","name:ru":"Навасард Ресорт","phone":"+37455990777","website":"https://m.facebook.com/navasardresort"}}}