{"6823989":{"location":[38.022368,46.363877],"ct":"IR","tp":"CS","ts":"2017-03-24T22:02:26Z","tX":643,"tY":394,"tags":{"natural":"scrub"}},"415411698":{"location":[38.0299112,46.3365414],"ct":"IR","tp":"CS","ts":"2023-03-06T10:40:18Z","tX":643,"tY":394,"tags":{"name":"کمپ عباس میرزا"}},"461994032":{"location":[38.0216131,46.3640305],"ct":"IR","tp":"CS","ts":"2016-12-29T00:00:10Z","tX":643,"tY":394,"tags":{"natural":"scrub"}},"461994033":{"location":[38.0217537,46.3650271],"ct":"IR","tp":"CS","ts":"2016-12-30T13:10:47Z","tX":643,"tY":394,"tags":{"natural":"scrub"}},"461994034":{"location":[38.0211705,46.3656842],"ct":"IR","tp":"CS","ts":"2023-01-24T16:18:46Z","tX":643,"tY":394,"tags":{"natural":"scrub"}},"461994035":{"location":[38.0212138,46.3666095],"ct":"IR","tp":"CS","ts":"2016-12-27T01:26:29Z","tX":643,"tY":394,"tags":{"natural":"scrub"}},"461994046":{"location":[38.0220791,46.3661589],"ct":"IR","tp":"CS","ts":"2016-12-27T01:36:01Z","tX":643,"tY":394,"tags":{"natural":"scrub"}},"4247819192":{"location":[38.0661438,46.3317078],"ct":"IR","tp":"CS","ts":"2016-06-17T04:34:44Z","tX":643,"tY":394,"tags":{}},"4751680422":{"location":[38.0741949,46.3591995],"ct":"IR","tp":"CS","ts":"2017-03-25T23:44:54Z","tX":643,"tY":394,"tags":{"name":"مرکز تجاری و مسکونى ترلان","name:en":"Tarlan Resıdentıal & Tradıng Center"}},"4986286776":{"location":[38.0743708,46.2966016],"ct":"IR","tp":"CS","ts":"2024-02-11T21:38:14Z","tX":643,"tY":394,"tags":{"name":"ایستگاه مترو","name:ar":"محطه مترو ميدان ساعت","name:tr":"Saat Meydanı Metro İstasyonu","railway":"subway_entrance","ref":"1"}},"5056802624":{"location":[38.0982159,46.3275053],"ct":"IR","tp":"CS","ts":"2017-08-24T17:48:04Z","tX":643,"tY":394,"tags":{}},"5056807925":{"location":[38.1009603,46.3183939],"ct":"IR","tp":"CS","ts":"2017-08-24T17:48:09Z","tX":643,"tY":394,"tags":{}},"5056808223":{"location":[38.0998456,46.327619],"ct":"IR","tp":"CS","ts":"2017-08-24T17:48:03Z","tX":643,"tY":394,"tags":{}},"5056808621":{"location":[38.098306,46.3261555],"ct":"IR","tp":"CS","ts":"2017-08-24T17:48:05Z","tX":643,"tY":394,"tags":{}},"5197900892":{"location":[38.0654423,46.3308524],"ct":"IR","tp":"CS","ts":"2019-06-26T05:15:26Z","tX":643,"tY":394,"tags":{"name":"اردوگاه آزاد تبریز","name:en":"Tebriz Free Camping"}},"6239148286":{"location":[38.0714008,46.2692334],"ct":"IR","tp":"CS","ts":"2019-01-27T06:46:02Z","tX":643,"tY":394,"tags":{"name":"باشگاه قطران"}},"6355377786":{"location":[38.0654947,46.2363303],"ct":"IR","tp":"CS","ts":"2023-05-15T19:03:08Z","tX":643,"tY":394,"tags":{"name:fa":"بهرام عدیلی"}},"6374127585":{"location":[38.1185086,46.2347976],"ct":"IR","tp":"CS","ts":"2019-03-31T15:42:06Z","tX":643,"tY":394,"tags":{}},"6429623786":{"location":[38.118727,46.2349503],"ct":"IR","tp":"CS","ts":"2019-04-26T03:27:30Z","tX":643,"tY":394,"tags":{"name:en":"Free camping huts"}},"9804471418":{"location":[38.0513695,46.3245957],"ct":"IR","tp":"CS","ts":"2022-06-08T18:06:53Z","tX":643,"tY":394,"tags":{"name:ar":"اقسام بنات تبريز"}},"9806759317":{"location":[38.0775199,46.2920424],"ct":"IR","tp":"CS","ts":"2023-01-24T16:18:46Z","tX":643,"tY":394,"tags":{"fixme":"resurvey","name:ar":"شارع جمیل سوق تبریز شعبی"}},"9831621717":{"location":[38.0599081,46.3180985],"ct":"IR","tp":"CS","ts":"2022-06-19T19:30:14Z","tX":643,"tY":394,"tags":{"name:ar":"حسینیه فی تبریز قرب الجامعه"}},"11408283269":{"location":[38.0855851,46.3527573],"ct":"IR","tp":"CS","ts":"2023-12-10T20:42:33Z","tX":643,"tY":394,"tags":{"name":"پارک هاشم چاووشی","name:en":"Hashem Chavoshi Park","opening_hours":"24/7"}}}