{"5242678327":{"location":[31.0430778,46.2594988],"ct":"IQ","tp":"CS","ts":"2017-11-22T13:16:07Z","tX":643,"tY":419,"tags":{"name":"مدرسه امنه"}},"7366203685":{"location":[31.0317361,46.2020695],"ct":"IQ","tp":"CS","ts":"2020-04-04T10:20:44Z","tX":643,"tY":419,"tags":{"name":"مركز تدريب ذي قار"}},"11379338669":{"location":[31.0295948,46.2276996],"ct":"IQ","tp":"CS","ts":"2023-11-27T10:41:15Z","tX":643,"tY":419,"tags":{"addr:housenumber":"07804302656","addr:postcode":"64001","addr:street":"شارع مابين المحطه والثوره","name":"الاخوين علي وعقيل للنجاره","opening_hours":"24/7","phone":"07804302656"}},"11380583269":{"location":[31.0404044,46.2469946],"ct":"IQ","tp":"CS","ts":"2023-11-28T00:58:19Z","tX":643,"tY":419,"tags":{"name":"نزلتي"}},"12278228601":{"location":[31.0284113,46.2265531],"ct":"IQ","tp":"CS","ts":"2024-10-24T20:15:20Z","tX":643,"tY":419,"tags":{"addr:housenumber":"3/7/495","addr:postcode":"64001","addr:street":"حي الثورة","email":"aanss727@gmail.com","name":"حيدر عدي النصراللة","phone":"07864729218","website":"http://aanss727@gmail.com"}},"4819929022":{"location":[30.9948312,46.2815252],"ct":"IQ","tp":"CR","ts":"2021-01-30T09:58:57Z","tX":643,"tY":419,"tags":{"name":"مستودع غاز","name:ar":"شركة تعبئة الغاز - الناصرية","name:en":"gas filling company-nasryia","office":"government"}}}