{"10931179907":{"location":[10.1310461,124.8315142],"ct":"PH","tp":"CS","ts":"2023-05-27T08:01:39Z","tX":867,"tY":483,"tags":{"name":"Yhopix and vienna"}},"12151169680":{"location":[10.1315747,124.8407882],"ct":"PH","tp":"CS","ts":"2024-09-09T01:54:51Z","tX":867,"tY":483,"tags":{"addr:city":"Maasin City","addr:housename":"TRISKELION DE ABGAO","addr:postcode":"6600","addr:province":"Southern Leyte","addr:street":"Espina Street","capacity:persons":"30","capacity:tents":"25","fee":"no","group_only":"yes","name":"Triskelion de Abgao Meeting Place","operator":"JC Timkang","static_caravans":"yes","tents":"yes"}},"12211140371":{"location":[10.1336726,124.8434777],"ct":"PH","tp":"CS","ts":"2024-10-02T01:20:22Z","tX":867,"tY":483,"tags":{"access":"private","addr:city":"Maasin City","addr:housename":"Cnayr's Place","addr:postcode":"6600","addr:province":"Southern Leyte","addr:street":"R. Kangleon Street","capacity:persons":"5","club":"frat_house","description":"Best Place to be","name":"Cnayr's Place","operator":"Ryan Gary Sacro","operator:type":"private"}},"12257737784":{"location":[10.1279754,124.872603],"ct":"PH","tp":"CS","ts":"2024-10-17T05:33:06Z","tX":867,"tY":483,"tags":{"access":"private","addr:city":"Maasin City","addr:postcode":"6600","addr:province":"Southern Leyte","addr:street":"R. Kangleon Street","capacity:persons":"10","drinking_water":"yes","ele":"5.75 m. ellip.Ht.","internet_access":"yes","name":"Baning's Home","static_caravans":"yes"}},"12257739649":{"location":[10.0961525,124.9024118],"ct":"PH","tp":"CS","ts":"2024-10-17T05:29:02Z","tX":867,"tY":483,"tags":{"access":"private","addr:city":"Macrohon","addr:postcode":"6601","addr:province":"Southern Leyte","addr:street":"Maasin – Macrohon – Sogod Road","capacity:persons":"5","description":"Household Owner: Anastacio R. Dante, Jr.","fee":"no","name":"Balay Ni OTEW","static_caravans":"yes"}},"12670335940":{"location":[10.0243944,125.0138203],"ct":"PH","tp":"CS","ts":"2025-03-16T15:48:31Z","tX":867,"tY":483,"tags":{"access":"yes","camp_site":"serviced","fee":"yes","name":"Camp Punay","payment:cash":"yes","tents":"yes"}}}