{"6005347739":{"location":[6.0967757,124.8827673],"ct":"PH","tp":"CS","ts":"2018-10-22T16:02:18Z","tX":867,"tY":494,"tags":{"name":"Lake Holon Camp"}},"10888578055":{"location":[6.2905738,124.9585902],"ct":"PH","tp":"CS","ts":"2023-05-15T16:43:34Z","tX":867,"tY":494,"tags":{"access":"customers","addr:city":"Tupi","addr:housenumber":"extension 11","addr:postcode":"9505","addr:street":"Barangay polonuling","bar":"yes","brewery":"no","capacity:caravans":"3","capacity:persons":"200","capacity:tents":"80","caravans":"yes","charge":"150","cuisine":"filipino","diet:local":"yes","diet:organic":"yes","fee":"yes","fixme":"add proper tags:  Car_Camping = Yes;  Cold_Spring = Yes;  Huts = Yes;  Kubo_Home = Yes;  Tent_Rental = Yes","name":"El Oma Lufo Camping Resort","opening_hours":"24/7","operator":"Marissa Kronick","payment:american_express":"yes","payment:cash":"yes","payment:gcash":"yes","payment:mastercard":"yes","payment:paypal":"yes","payment:visa":"yes","phone":"+639271537110","picnic_table":"yes","resort":"camping","restaurant":"yes","static_caravans":"no","swimming_pool":"yes","tents":"yes","website":"https://www.elomalufo.com/"}},"4760872422":{"location":[6.0849392,125.1330831],"ct":"PH","tp":"CR","ts":"2017-03-29T00:15:53Z","tX":867,"tY":494,"tags":{"name":"Credomus Inc.","name:en":"Credomus Inc."}}}