{"436501046":{"location":[63.9669815,-18.3243628],"ct":"IS","tp":"CS","ts":"2021-07-22T17:07:12Z","tX":459,"tY":273,"tags":{"name":"Blágil"}},"485054825":{"location":[63.9070586,-18.6041765],"ct":"IS","tp":"CS","ts":"2024-09-30T23:53:00Z","tX":459,"tY":273,"tags":{"addr:city":"Kirkjubæjarklaustur","addr:housenumber":"1","addr:postcode":"881","addr:street":"Flaga","caravans":"yes","email":"holaskjol@holaskjol.com","fee":"yes","fixme":"Area may not me exact","name":"Hólaskjól","phone":"+354 855 5812;+354 855 5813","sanitary_dump_station":"no","shower":"yes","tents":"yes","toilets":"yes","website":"https://www.eldgja.is/"}},"2260042976":{"location":[63.9805886,-18.5223326],"ct":"IS","tp":"CS","ts":"2021-07-22T18:55:43Z","tX":459,"tY":273,"tags":{"access":"yes","internet_access":"no","name":"Skælingar","sanitary_dump_station":"no","tents":"yes"}},"4370113492":{"location":[63.9664432,-18.3214532],"ct":"IS","tp":"CS","ts":"2018-05-13T11:57:03Z","tX":459,"tY":273,"tags":{"name":"Blagil","name:en":"Blagil"}},"12083560648":{"location":[63.9803851,-18.5248927],"ct":"IS","tp":"CS","ts":"2024-07-30T15:53:40Z","tX":459,"tY":273,"tags":{}}}