{"8705490":{"location":[53.4237538,0.1892666],"ct":"GB","tp":"CR","ts":"2018-09-16T23:46:45Z","tX":512,"tY":331,"tags":{"addr:city":"Louth","addr:postcode":"LN11 7RP","addr:street":"Sea Lane","name":"Tuxworth Caravan Sites"}},"66276053":{"location":[53.3325256,0.2615851],"ct":"GB","tp":"CR","ts":"2021-07-28T20:02:24Z","tX":512,"tY":331,"tags":{"name":"Seahaven Springs"}},"82862985":{"location":[53.5314024,0.0052367],"ct":"GB","tp":"CR","ts":"2024-08-18T13:35:55Z","tX":512,"tY":331,"tags":{"addr:city":"Cleethorpes","addr:country":"GB","addr:postcode":"DN35 0PW","name":"Cleethorpes Beach Park","operator":"Thorpe Park (Haven Holidays)","source":"OS OpenData StreetView"}},"126882311":{"location":[53.3350315,0.2598953],"ct":"GB","tp":"CR","ts":"2021-07-28T20:02:24Z","tX":512,"tY":331,"tags":{"name":"Towervans Caravan Park","source":"Bing"}},"126882318":{"location":[53.3345093,0.2559516],"ct":"GB","tp":"CR","ts":"2021-07-28T20:02:24Z","tX":512,"tY":331,"tags":{"name":"Mermaid Holiday Park","source":"Bing"}},"126901876":{"location":[53.3311284,0.2583499],"ct":"GB","tp":"CR","ts":"2024-04-03T15:00:33Z","tX":512,"tY":331,"tags":{"name":"Blue Dolphin Holiday Park Mablethorpe","website":"https://www.springfieldcaravans.co.uk/blue-dolphin.php"}},"126984780":{"location":[53.3509868,0.2442189],"ct":"GB","tp":"CR","ts":"2012-02-17T15:35:55Z","tX":512,"tY":331,"tags":{"source":"Bing"}},"126985114":{"location":[53.3595349,0.2469749],"ct":"GB","tp":"CR","ts":"2020-11-14T10:47:33Z","tX":512,"tY":331,"tags":{"name":"Golden Sands","source":"Bing"}},"150781476":{"location":[53.4410511,0.1560397],"ct":"GB","tp":"CR","ts":"2025-06-08T09:37:39Z","tX":512,"tY":331,"tags":{}},"150791479":{"location":[53.3591993,0.2441238],"ct":"GB","tp":"CR","ts":"2020-11-14T10:47:52Z","tX":512,"tY":331,"tags":{"name":"Swallow Park"}},"231854237":{"location":[53.3529135,0.2491093],"ct":"GB","tp":"CR","ts":"2013-07-30T19:20:12Z","tX":512,"tY":331,"tags":{"name":"Haven"}},"231855084":{"location":[53.3508962,0.2493225],"ct":"GB","tp":"CR","ts":"2013-07-30T19:26:48Z","tX":512,"tY":331,"tags":{}},"304711038":{"location":[53.3569224,0.2172604],"ct":"GB","tp":"CR","ts":"2014-09-23T20:22:14Z","tX":512,"tY":331,"tags":{"name":"Arklow House Farm","source":"Bing"}},"329139631":{"location":[53.3751957,0.130988],"ct":"GB","tp":"CS","ts":"2024-04-13T11:08:33Z","tX":512,"tY":331,"tags":{"landuse":"grass"}},"330221037":{"location":[53.3929305,0.1921884],"ct":"GB","tp":"CR","ts":"2025-05-28T11:32:06Z","tX":512,"tY":331,"tags":{"landuse":"meadow","name":"The Vines Campsite","phone":"+44 1507 339 003"}},"625775065":{"location":[53.4260137,0.1870569],"ct":"GB","tp":"CR","ts":"2023-03-11T15:47:53Z","tX":512,"tY":331,"tags":{"addr:city":"Louth","addr:country":"GB","addr:postcode":"LN11 7RP","addr:street":"Sea Lane","brand":"Parkdean Resorts","brand:wikidata":"Q7138226","caravans":"yes","contact:website":"https://www.parkdeanresorts.co.uk/location/east-anglia-lincolnshire/sunnydale/","name":"Sunnydale Holiday Park","operator":"Parkdean Resorts UK Limited","shower":"yes","static_caravans":"yes","tents":"yes","toilets":"yes"}},"625775070":{"location":[53.4220425,0.191995],"ct":"GB","tp":"CR","ts":"2023-09-22T20:07:20Z","tX":512,"tY":331,"tags":{"access":"private","description":"New Inn Caravan Park","fee":"no","internet_access":"wlan","internet_access:fee":"yes","name":"New Inn Caravan Park","note":"This is a caravan park for privately owned static caravans, not tourers.","power_supply":"yes","source":"OS_OpenData_StreetView;local knowledge"}},"1268524326":{"location":[53.3509488,0.0232112],"ct":"GB","tp":"CS","ts":"2024-04-02T23:56:05Z","tX":512,"tY":331,"tags":{}},"1270242002":{"location":[53.3784863,0.1397916],"ct":"GB","tp":"CS","ts":"2024-04-05T23:15:43Z","tX":512,"tY":331,"tags":{"name":"Lakeside Camping & Fisheries"}},"1272515680":{"location":[53.3581429,0.0628469],"ct":"GB","tp":"CR","ts":"2024-04-14T12:26:52Z","tX":512,"tY":331,"tags":{"name":"Furze Farm Estate","website":"https://furzefarmestate.co.uk/"}},"1416988666":{"location":[53.4304773,0.1417075],"ct":"GB","tp":"CR","ts":"2011-08-29T10:10:08Z","tX":512,"tY":331,"tags":{"name":"Brickyard Fisheries","source":"OS_OpenData_StreetView"}},"12176691117":{"location":[53.4561445,0.1215255],"ct":"GB","tp":"CS","ts":"2024-09-14T12:48:45Z","tX":512,"tY":331,"tags":{"addr:city":"Louth","addr:country":"GB","addr:postcode":"LN11 7LN","addr:street":"Eau Bank","addr:suburb":"North Somercotes","caravans":"yes","mobile":"+44 7958 805 286","motorhome":"yes","name":"Lowis Farm Camp Site","nohousenumber":"yes"}},"12412688895":{"location":[53.3369622,0.2440314],"ct":"GB","tp":"CR","ts":"2024-12-11T14:16:00Z","tX":512,"tY":331,"tags":{"addr:city":"Mablethorpe","addr:country":"GB","addr:postcode":"LN12 1PX","addr:street":"Alford Road","name":"Ivydene Caravan Site","tents":"no"}},"12623992377":{"location":[53.4865039,0.0073975],"ct":"GB","tp":"CR","ts":"2025-02-27T20:03:17Z","tX":512,"tY":331,"tags":{"addr:city":"Grimsby","addr:country":"GB","addr:postcode":"DN36 5PA","addr:street":"New Delights","addr:suburb":"Tetney","mobile":"+44 7989 819 478","name":"Windy Ridge Caravan Site & Fishing Lakes","nohousenumber":"yes","power_supply":"yes","tents":"yes","website":"https://www.windyridgecaravans.co.uk/"}}}