{"145555744":{"location":[53.0748744,0.1678078],"ct":"GB","tp":"CR","ts":"2020-01-13T18:58:36Z","tX":512,"tY":333,"tags":{"capacity":"5","name":"Manor Bungalow CL","website":"https://www.caravanclub.co.uk/certificated-locations/england/lincolnshire/skegness/manor-bungalow/"}},"149428763":{"location":[53.0582103,0.0031922],"ct":"GB","tp":"CR","ts":"2023-12-30T17:35:35Z","tX":512,"tY":333,"tags":{"name":"Bridge Farm Caravan Park","source":"Bing"}},"294164546":{"location":[52.9704405,0.0211774],"ct":"GB","tp":"CS","ts":"2011-09-30T22:58:12Z","tX":512,"tY":333,"tags":{"name":"Pilgrims Way","tents":"yes"}},"602220893":{"location":[53.0581646,0.0667194],"ct":"GB","tp":"CR","ts":"2024-04-06T12:03:24Z","tX":512,"tY":333,"tags":{"addr:city":"Boston","addr:country":"GB","addr:postcode":"PE22 9RF","addr:street":"Station Road","addr:suburb":"Old Leake","name":"Long Acres Touring Park"}},"10990383576":{"location":[53.1020187,0.2352458],"ct":"GB","tp":"CS","ts":"2023-06-19T21:58:08Z","tX":512,"tY":333,"tags":{}},"8984286818":{"location":[53.0570915,0.1839834],"ct":"GB","tp":"CR","ts":"2022-02-12T23:01:45Z","tX":512,"tY":333,"tags":{"addr:city":"Boston","addr:country":"GB","addr:postcode":"PE22 8QS","addr:street":"Main Road","addr:village":"Friskney","fhrs:authority":"East Lindsey","fhrs:id":"984835","fhrs:local_authority_id":"EHFDI/05254/16","name":"Green Haven Holidays"}}}