{"363345750":{"location":[52.7994015,0.1284795],"ct":"GB","tp":"CR","ts":"2015-07-31T16:17:45Z","tX":512,"tY":334,"tags":{}},"415615800":{"location":[52.8254158,0.0712137],"ct":"GB","tp":"CR","ts":"2024-04-19T11:23:39Z","tX":512,"tY":334,"tags":{"addr:city":"Spalding","addr:country":"GB","addr:postcode":"PE12 8JN","addr:suburb":"Holbeach Hurn","name":"Dougie's Caravan and Camping","website":"https://dougiescaravanandcamping.co.uk/"}},"421004165":{"location":[52.7634874,0.0193034],"ct":"GB","tp":"CR","ts":"2016-05-26T07:00:50Z","tX":512,"tY":334,"tags":{}},"438474671":{"location":[52.7785119,0.080419],"ct":"GB","tp":"CS","ts":"2024-08-16T17:40:42Z","tX":512,"tY":334,"tags":{"addr:city":"Spalding","addr:country":"GB","addr:place":"Gedney Broadgate","addr:postcode":"PE12 0DJ","addr:street":"Huntsgate","caravans":"yes","drinking_water":"yes","fee":"yes","name":"Laurel Park Caravan & Camp Site","openfire":"no","opening_hours":"Mar-Oct: 00:00-24:00","phone":"+44 1406 364862","tents":"yes","website":"https://www.laurelparkcampsite.co.uk/"}},"659932579":{"location":[52.7392947,0.144073],"ct":"GB","tp":"CR","ts":"2010-03-03T20:46:46Z","tX":512,"tY":334,"tags":{"name":"Eau Dyke Bank Caravan Park"}},"1789141058":{"location":[52.73292,0.14697],"ct":"GB","tp":"CS","ts":"2012-06-15T22:06:12Z","tX":512,"tY":334,"tags":{"name":"Parklands","source":"ACSI"}},"4083623483":{"location":[52.7634925,0.0184099],"ct":"GB","tp":"CR","ts":"2016-03-28T20:05:20Z","tX":512,"tY":334,"tags":{"name":"Heron's Gate"}},"12097538051":{"location":[52.721404,0.0648208],"ct":"GB","tp":"CS","ts":"2024-08-07T18:20:30Z","tX":512,"tY":334,"tags":{"addr:street":"Black Lane","contact:email":"hawthornefarmwisbech@gmail.com","name":"Hawthorne Farm Wisbech","phone":"+44 7936 475526"}}}