{"4295726":{"location":[51.7702054,0.009013],"ct":"GB","tp":"CR","ts":"2023-05-21T13:26:37Z","tX":512,"tY":339,"tags":{"name":"Rye House Showmen's Caravan Park and Amusement Depot"}},"28947268":{"location":[51.7461234,0.1088802],"ct":"GB","tp":"CR","ts":"2021-06-22T12:41:33Z","tX":512,"tY":339,"tags":{"name":"Fern Hill Caravan Park","source":"yahoo"}},"84657073":{"location":[51.650418,0.0019139],"ct":"GB","tp":"CS","ts":"2024-07-24T11:03:08Z","tX":512,"tY":339,"tags":{"access":"private","addr:city":"London","addr:postcode":"E4 7QW","alt_name":"Gilwell Park","name":"Gilwell Park Scout Activity Centre","operator":"The Scout Association","website":"https://www.scoutadventures.org.uk/centre/gilwell-park","wikidata":"Q1524709","wikipedia":"en:Gilwell Park"}},"181751901":{"location":[51.654108,0.277225],"ct":"GB","tp":"CS","ts":"2024-06-19T16:30:29Z","tX":512,"tY":339,"tags":{"caravans":"yes","drinking_water":"yes","name":"Kelvedon Hatch Camping and Caravanning Club","power_supply":"yes","sanitary_dump_station":"yes","shower":"yes","tents":"yes","toilets":"yes"}},"207792679":{"location":[51.6512103,0.0050333],"ct":"GB","tp":"CS","ts":"2024-02-24T01:55:44Z","tX":512,"tY":339,"tags":{"access":"private","landuse":"grass","name":"Branchett Field","operator":"Scout Adventures","surface":"grass"}},"219246685":{"location":[51.667129,0.0772356],"ct":"GB","tp":"CS","ts":"2016-10-28T23:05:17Z","tX":512,"tY":339,"tags":{"area":"yes","name":"Debden House Holiday Park","source":"bing;OS StreetView","website":"http://www.debdenhouse.com/campsite-epping-forest.html"}},"229050051":{"location":[51.742526,0.2207033],"ct":"GB","tp":"CR","ts":"2023-06-03T23:01:26Z","tX":512,"tY":339,"tags":{"name":"Lakeview Caravan Park"}},"237910005":{"location":[51.652307,0.0019929],"ct":"GB","tp":"CS","ts":"2024-01-28T23:53:33Z","tX":512,"tY":339,"tags":{"access":"private","landuse":"grass","name":"Woodlands","operator":"Scout Adventures","surface":"grass"}},"237910009":{"location":[51.6513245,0.0004783],"ct":"GB","tp":"CS","ts":"2022-09-06T21:28:36Z","tX":512,"tY":339,"tags":{"access":"private","landuse":"grass","name":"Mallinson","operator":"Scout Adventures","surface":"grass"}},"241614963":{"location":[51.7533782,0.0016238],"ct":"GB","tp":"CS","ts":"2024-08-10T01:34:03Z","tX":512,"tY":339,"tags":{"internet_access":"wlan","name":"Lee Valley Dobbs Weir","tourism_1":"caravan_site"}},"243824180":{"location":[51.8215847,0.1585561],"ct":"GB","tp":"CS","ts":"2023-02-07T23:28:54Z","tX":512,"tY":339,"tags":{"addr:city":"Sawbridgeworth","addr:postcode":"CM21 9BZ","addr:street":"Cambridge Road","name":"Kecksy's Farm Campsite","operator":"Kecksy's Farm"}},"316376515":{"location":[51.7081618,0.2634294],"ct":"GB","tp":"CR","ts":"2024-06-16T06:33:14Z","tX":512,"tY":339,"tags":{}},"344009467":{"location":[51.6553858,0.0237663],"ct":"GB","tp":"CS","ts":"2025-02-05T16:27:37Z","tX":512,"tY":339,"tags":{"area":"yes","name":"The Elms Campsite"}},"369932190":{"location":[51.6514608,0.0018496],"ct":"GB","tp":"CS","ts":"2022-09-06T21:28:36Z","tX":512,"tY":339,"tags":{"access":"private","alt_name":"Malinson Paddock","landuse":"grass","name":"The Paddock","operator":"Scout Adventures","surface":"grass"}},"671823707":{"location":[51.7633688,0.012833],"ct":"GB","tp":"SD","ts":"2023-05-21T13:26:37Z","tX":512,"tY":339,"tags":{"access":"customers","centralkey":"no","name":"Feildes Lock Elsan Point","operator":"Canal and River Trust","sanitary_dump_station":"yes","sanitary_dump_station:accepted":"black_water","sanitary_dump_station:basin":"yes","sanitary_dump_station:pump-out":"no","waste":"toilet","waterway":"sanitary_dump_station"}},"815747654":{"location":[51.6267526,0.024309],"ct":"GB","tp":"CR","ts":"2020-06-13T21:32:14Z","tX":512,"tY":339,"tags":{}},"868015749":{"location":[51.6518217,0.0009524],"ct":"GB","tp":"CS","ts":"2022-09-06T21:28:36Z","tX":512,"tY":339,"tags":{"access":"private","alt_name":"The Chez","landuse":"grass","name":"Chez","operator":"Scout Adventures","surface":"grass"}},"868015750":{"location":[51.652967,0.0012474],"ct":"GB","tp":"CS","ts":"2022-09-06T21:28:36Z","tX":512,"tY":339,"tags":{"access":"private","landuse":"grass","name":"Ferryman Field","operator":"Scout Adventures","surface":"grass"}},"868015751":{"location":[51.6524701,0.0007987],"ct":"GB","tp":"CS","ts":"2022-09-06T21:28:36Z","tX":512,"tY":339,"tags":{"access":"private","landuse":"grass","name":"Woodlands Paddock","operator":"Scout Adventures","surface":"grass"}},"891333847":{"location":[51.6313688,0.1423926],"ct":"GB","tp":"CS","ts":"2024-02-02T16:29:24Z","tX":512,"tY":339,"tags":{"access":"private","name":"Lambourne End Centre for Outdoor Learning","website":"https://www.lambourne-end.org.uk/"}},"891333875":{"location":[51.6322631,0.1363873],"ct":"GB","tp":"CS","ts":"2024-02-02T16:30:59Z","tX":512,"tY":339,"tags":{"access":"private","name":"Woodland Camp Event Centre","website":"https://woodlandcamp.co.uk/"}},"1331648987":{"location":[51.7916595,0.1157365],"ct":"GB","tp":"CS","ts":"2024-11-07T15:43:52Z","tX":512,"tY":339,"tags":{"name":"Glamping at Redricks","surface":"grass"}},"1373671404":{"location":[51.6642472,0.0781685],"ct":"GB","tp":"CR","ts":"2022-07-01T06:32:43Z","tX":512,"tY":339,"tags":{"designation":"Campsite, adult learning and conference centre","name":"Debden House Centre","source":"http://www.debdenhouse.com/","wikidata":"Q5248031","wikipedia":"en:Debden House"}},"6638798994":{"location":[51.782563,0.0962851],"ct":"GB","tp":"SD","ts":"2019-07-22T20:53:42Z","tX":512,"tY":339,"tags":{"access":"customers","centralkey":"no","name":"Harlow Marina Elsan Point","operator":"Canal and River Trust","sanitary_dump_station":"yes","sanitary_dump_station:accepted":"black_water","sanitary_dump_station:basin":"yes","sanitary_dump_station:pump-out":"yes","waste":"toilet","waterway":"sanitary_dump_station"}},"11658457666":{"location":[51.6514077,0.0022019],"ct":"GB","tp":"SD","ts":"2024-02-24T01:55:44Z","tX":512,"tY":339,"tags":{}},"11658500576":{"location":[51.6503776,0.0035939],"ct":"GB","tp":"SD","ts":"2024-02-24T01:55:44Z","tX":512,"tY":339,"tags":{}}}