{"30096937":{"location":[50.8059785,0.3411083],"ct":"GB","tp":"CR","ts":"2021-07-15T10:18:24Z","tX":512,"tY":343,"tags":{"addr:city":"Pevensey Bay","addr:postcode":"BN24 6DH","addr:street":"Eastbourne Road","internet_access":"yes","internet_access:fee":"customers","name":"Pevensey Bay Holiday Park","operator":"Park Holidays","power_supply":"yes","website":"https://www.parkholidays.com/our-parks/sussex/pevensey-bay/caravan-holidays"}},"30343683":{"location":[50.8820739,0.1728769],"ct":"GB","tp":"CR","ts":"2023-06-30T23:54:41Z","tX":512,"tY":343,"tags":{"name":"Deanland Wood Park"}},"38444538":{"location":[50.856042,0.2756075],"ct":"GB","tp":"CR","ts":"2009-08-02T17:30:25Z","tX":512,"tY":343,"tags":{}},"105026382":{"location":[50.7861098,0.0261355],"ct":"GB","tp":"CR","ts":"2023-03-14T16:54:29Z","tX":512,"tY":343,"tags":{"addr:postcode":"BN10 8XH","name":"Rushey Hill Caravan Park","phone":"+44 1273 582344","source":"Bing","website":"https://islandmeadow.co.uk/parks/rushey-hill/"}},"105199122":{"location":[50.7789359,0.0832912],"ct":"GB","tp":"CR","ts":"2023-08-15T10:04:05Z","tX":512,"tY":343,"tags":{"name":"Sunnyside Caravan Park","source":"Bing"}},"105771913":{"location":[50.8120226,0.0548823],"ct":"GB","tp":"CR","ts":"2023-03-25T22:49:35Z","tX":512,"tY":343,"tags":{"contact:email":"info@threepondspark.co.uk","contact:phone":"+44 1273 513 530","contact:website":"http://www.threepondspark.co.uk/","name":"Three Ponds Holiday Park and Fishery"}},"106289147":{"location":[50.8041563,0.1493379],"ct":"GB","tp":"CR","ts":"2011-06-03T20:15:54Z","tX":512,"tY":343,"tags":{"addr:postcode":"BN26 5TN","name":"Alfriston Camping Park"}},"106289153":{"location":[50.8040568,0.1473121],"ct":"GB","tp":"CS","ts":"2011-06-03T20:15:54Z","tX":512,"tY":343,"tags":{"addr:postcode":"BN26 5TN","name":"Alfriston Camping Park"}},"135152925":{"location":[50.9086708,0.2138469],"ct":"GB","tp":"CS","ts":"2022-02-23T17:41:42Z","tX":512,"tY":343,"tags":{"addr:city":"Hailsham","addr:postcode":"BN8 6HQ","addr:street":"Hale Green","designation":"Merrylands @ Chiddingly","name":"Merrylands Eco Campsite","phone":"+44 7522 006 040","source":"http://www.ukcampsite.co.uk/sites/details.asp?revid=8027","website":"http://www.ukcampsite.co.uk/sites/details.asp?revid=8027"}},"164652970":{"location":[50.8482878,0.2541377],"ct":"GB","tp":"CR","ts":"2018-12-02T19:54:49Z","tX":512,"tY":343,"tags":{"capacity":"5","internet_access":"no","name":"The Homestead","phone":"+44 1323 840346","power_supply":"yes"}},"166408455":{"location":[50.9314273,0.2380701],"ct":"GB","tp":"CS","ts":"2021-10-12T19:32:11Z","tX":512,"tY":343,"tags":{"addr:postcode":"TN21 0YD","name":"Horam Manor Touring Park","website":"http://www.horam-manor.co.uk"}},"288300604":{"location":[50.9325602,0.2027314],"ct":"GB","tp":"CS","ts":"2017-04-03T22:28:35Z","tX":512,"tY":343,"tags":{"name":"Dernwood Farm Campsite"}},"300855653":{"location":[50.7539857,0.2513384],"ct":"GB","tp":"CR","ts":"2015-03-01T11:33:23Z","tX":512,"tY":343,"tags":{"capacity":"5","fee":"yes","internet_access":"no","power_supply":"yes"}},"499881581":{"location":[50.860271,0.2389582],"ct":"GB","tp":"CS","ts":"2023-07-09T17:21:00Z","tX":512,"tY":343,"tags":{"access":"customers","addr:city":"Hailsham","addr:housename":"Bushy Wood Activity Centre","addr:postcode":"BN27 3LZ","addr:street":"Hailsham Bypass A22","name":"Bushy Wood Activity Centre","operator":"Eastbourne District Scout Council","phone":"+44 1323 843713","tents":"yes","website":"https://www.bushywood.org.uk"}},"508466844":{"location":[50.9146013,0.1228855],"ct":"GB","tp":"CR","ts":"2017-07-18T16:39:24Z","tX":512,"tY":343,"tags":{}},"566431425":{"location":[50.7796945,0.0803749],"ct":"GB","tp":"CR","ts":"2009-11-17T21:22:48Z","tX":512,"tY":343,"tags":{"name":"Buckle Holiday Park"}},"571821930":{"location":[50.9343031,0.1383445],"ct":"GB","tp":"CR","ts":"2019-05-27T16:23:04Z","tX":512,"tY":343,"tags":{"addr:city":"Halland","addr:postcode":"TN22 5GJ","name":"Honeys Green Caravan Park"}},"592184306":{"location":[50.9318373,0.0616459],"ct":"GB","tp":"CR","ts":"2018-05-30T20:11:04Z","tX":512,"tY":343,"tags":{}},"661582620":{"location":[50.9409745,0.1704079],"ct":"GB","tp":"CR","ts":"2019-01-08T20:44:29Z","tX":512,"tY":343,"tags":{}},"681103466":{"location":[50.9244264,0.1930752],"ct":"GB","tp":"CR","ts":"2020-11-17T10:51:50Z","tX":512,"tY":343,"tags":{"name":"Broomfield Farm"}},"681679219":{"location":[50.9096833,0.1886852],"ct":"GB","tp":"CS","ts":"2019-04-04T17:06:46Z","tX":512,"tY":343,"tags":{"addr:street":"Highlands Lane","name":"Latchetts","phone":"+441825872316"}},"821625236":{"location":[50.8001316,0.3381714],"ct":"GB","tp":"CS","ts":"2020-06-30T19:14:17Z","tX":512,"tY":343,"tags":{"name":"Bay View Park"}},"821625237":{"location":[50.8037507,0.3412758],"ct":"GB","tp":"CR","ts":"2021-07-15T13:07:34Z","tX":512,"tY":343,"tags":{"addr:city":"Pevensey Bay","addr:housename":"Grey Tower","addr:postcode":"BN24 6DP","addr:street":"Eastbourne Road","name":"Grey Tower Caravan Park"}},"821889838":{"location":[50.8047429,0.3351607],"ct":"GB","tp":"CR","ts":"2024-03-22T14:33:52Z","tX":512,"tY":343,"tags":{"addr:city":"Pevensey Bay","addr:postcode":"BN24 6DT","addr:street":"Eastbourne Road","name":"Castle View Caravan Site"}},"1150149538":{"location":[50.7803419,0.079415],"ct":"GB","tp":"CR","ts":"2023-02-28T12:33:15Z","tX":512,"tY":343,"tags":{}},"1177989621":{"location":[50.8406937,0.2552384],"ct":"GB","tp":"CR","ts":"2023-06-01T01:11:03Z","tX":512,"tY":343,"tags":{}},"1484543316":{"location":[50.9080906,0.2140741],"ct":"GB","tp":"CS","ts":"2014-03-09T11:17:58Z","tX":512,"tY":343,"tags":{"designation":"Campsite","name":"Merrylands @ Chiddingly","source":"http://www.ukcampsite.co.uk/sites/details.asp?revid=8027"}},"4346409616":{"location":[50.804056,0.1473109],"ct":"GB","tp":"CS","ts":"2016-08-11T20:55:52Z","tX":512,"tY":343,"tags":{}},"7658304685":{"location":[50.9394434,0.0094429],"ct":"GB","tp":"CS","ts":"2021-08-03T19:59:56Z","tX":512,"tY":343,"tags":{"addr:city":"Lewes","addr:locality":"Cooksbridge","addr:place":"Town Littleworth","addr:postcode":"BN8 4TD","addr:street":"Town Littleworth Road","internet_access":"wlan","name":"The Secret Campsite","phone":"+44 1273 401 100","website":"https://thesecretcampsite.co.uk/"}},"11768633092":{"location":[50.8459392,0.2742134],"ct":"GB","tp":"CS","ts":"2024-03-28T10:33:23Z","tX":512,"tY":343,"tags":{"contact:facebook":"LittleDownash","email":"littledownash@hotmail.com","name":"Little Downash","phone":"07763514566","website":"https://www.littledownash.co.uk/"}},"12098364538":{"location":[50.83127,0.0333402],"ct":"GB","tp":"CS","ts":"2024-08-12T13:50:42Z","tX":512,"tY":343,"tags":{"addr:city":"Lewes","addr:housename":"YHA South Downs","addr:postcode":"BN8 6JS","addr:street":"Itford Farm Lane","addr:village":"Beddingham","brand":"YHA","brand:wikidata":"Q8059214","cabins":"yes","caravans":"no","email":"southdowns@yha.org.uk","fee":"yes","internet_access":"wlan","internet_access:fee":"no","name":"YHA South Downs","note":"Four camping pods and two permanent bell tents. No pitches for other tents or caravans etc.","operator":"YHA","operator:wikidata":"Q8059214","phone":"+44 345 371 9574","static_caravans":"no","tents":"no","website":"https://www.yha.org.uk/hostel/yha-south-downs"}}}