{"12029869":{"location":[49.7374799,0.3076921],"ct":"FR","tp":"CS","ts":"2023-01-29T18:32:42Z","tX":512,"tY":348,"tags":{"addr:city":"Yport","addr:country":"FR","addr:postcode":"76111","addr:street":"Rue André Toutain","cabins":"yes","caravans":"yes","email":"campinglerivage@orange.fr","internet_access":"wlan","name":"Le Rivage","phone":"+33 2 35 27 33 78","scout":"no","tents":"yes","website":"https://www.camping-lerivage.com"}},"17248691":{"location":[49.7107222,0.3086045],"ct":"FR","tp":"CS","ts":"2024-02-21T17:35:42Z","tX":512,"tY":348,"tags":{"addr:city":"Saint-Léonard","addr:country":"FR","addr:housenumber":"190","addr:postcode":"76400","addr:street":"Rue Des Pommiers","mobile":"+33 6 65 23 36 63","name":"Les pommiers","phone":"+33 2 35 27 69 96","stars":"2","website":"https://www.camping-les-pommiers.com"}},"225772294":{"location":[49.7009503,0.2164029],"ct":"FR","tp":"CS","ts":"2024-09-18T18:30:55Z","tX":512,"tY":348,"tags":{"access":"customers","addr:city":"Étretat","addr:housenumber":"69","addr:postcode":"76790","addr:street":"Rue Guy de Maupassant","capacity":"72","fee":"yes","name":"Camping Municipal Étretat","opening_hours":"Apr 01 - Oct 15","phone":"+33 2 35 27 07 67"}},"250276914":{"location":[49.630365,0.1582144],"ct":"FR","tp":"CS","ts":"2021-05-04T20:00:40Z","tX":512,"tY":348,"tags":{"addr:city":"Saint-Jouin-Bruneval","addr:country":"FR","addr:housenumber":"20","addr:postcode":"76280","addr:street":"Rue des Oeillets","name":"Le Grand Hameau","phone":"+33 2 35 55 88 41","stars":"3","website":"https://www.camping-le-grand-hameau.fr"}},"463316374":{"location":[49.7004109,0.2162142],"ct":"FR","tp":"CR","ts":"2024-10-08T23:04:25Z","tX":512,"tY":348,"tags":{"addr:city":"Étretat","addr:postcode":"76790","addr:street":"Rue Guy de Maupassant","capacity":"30","caravan_site":"motorhome_stopover","caravan_site:type":"camp_site","charge":"13 EUR","fee":"yes","internet_access":"no","maxstay":"24 hours","name":"Aire Maupassant","opening_hours":"24/7","payment:coins":"yes","payment:mastercard":"yes","payment:visa":"yes","power_supply":"yes","power_supply:charge":"4 EUR","power_supply:fee":"yes","sanitary_dump_station":"customers","seasonal":"no","water_point":"yes","water_point:charge":"3 EUR","water_point:fee":"yes","website":"https://www.lehavre-etretat-tourisme.com/fr/fiche/etretat/aire-de-stationnement-et-de-service-a-proximite-du-camping-municipal-d-etretat_TFOHPANOR076FS0002T/","wheelchair":"yes"}},"520104347":{"location":[49.697829,0.2758679],"ct":"FR","tp":"CS","ts":"2023-02-13T06:37:46Z","tX":512,"tY":348,"tags":{"addr:city":"Les Loges","addr:housenumber":"24","addr:postcode":"76790","addr:street":"Résidence de l'Aiguille Creuse","capacity":"135","description":"Labellisé Accueil Vélo, nous mettons à leur disposition un grand espace prévu spécialement pour eux afin de leur apporter le bien-être nécessaire à une bonne nuit de récupération. Cet espace commun de 200m² dispose notamment d’une terrasse couverte avec t","email":"camping@aiguillecreuse.com","fee":"yes","internet_access":"wlan","maxtents":"91","name":"L'Aiguille Creuse","operator":"Sunêlia","phone":"+33235295210","stars":"4","website":"https://www.campingaiguillecreuse.com/"}},"557487539":{"location":[49.6649924,0.2024851],"ct":"FR","tp":"CR","ts":"2024-10-10T14:58:56Z","tX":512,"tY":348,"tags":{"capacity":"5","caravan_site":"motorhome_stopover","caravan_site:type":"farm_shop","caravans":"no","fee":"yes","name":"Ferme Guillaume le Conquérant","power_supply":"no","sanitary_dump_station":"no","tents":"no"}},"622835290":{"location":[49.7354212,0.3070608],"ct":"FR","tp":"CS","ts":"2021-10-18T12:41:04Z","tX":512,"tY":348,"tags":{"addr:city":"Yport","addr:country":"FR","addr:postcode":"76111","addr:street":"Rue André Toutain","email":"contact@lapature.fr","name":"Aire naturelle de camping La Pâture","phone":"+33 2 27 30 68 03","website":"https://www.lapature.fr"}},"691230047":{"location":[49.7319526,0.3211842],"ct":"FR","tp":"CS","ts":"2023-08-29T23:48:15Z","tX":512,"tY":348,"tags":{"addr:city":"Yport","addr:country":"FR","addr:postcode":"76111","addr:street":"Rue Henry Simon","email":"camping.yport@flowercampings.com","name":"La Chênaie","phone":"+33 2 35 27 33 56","ref:FR:SIRET":"51244588300063","stars":"3","website":"https://www.camping-normandie-yport.com"}},"693154094":{"location":[49.6824608,0.2125536],"ct":"FR","tp":"CS","ts":"2022-09-27T19:56:02Z","tX":512,"tY":348,"tags":{"access":"customers","addr:city":"Le Tilleul","addr:housenumber":"2","addr:postcode":"76790","addr:street":"Impasse Dom Fillastre","contact:mobile":"+33 6 49 00 41 48","email":"contact@camping-abijune.com","fee":"yes","internet_access":"wlan","name":"Camping Abijune","phone":"+33 2 27 43 42 91","shower":"yes","stars":"2","swimming_pool":"yes","tents":"yes","toilets":"yes","website":"https://www.camping-abijune.com/"}},"758997888":{"location":[49.6508132,0.1629426],"ct":"FR","tp":"CR","ts":"2024-09-18T18:43:36Z","tX":512,"tY":348,"tags":{"capacity":"22","caravan_site":"motorhome_stopover","caravan_site:type":"beach","caravans":"no","fee":"no","internet_access":"no","name":"Aire de camping-car Saint-Jouin de Brunnval","name:de":"Wohnmobilstellplatz","power_supply":"no","sanitary_dump_station":"yes","surface":"compacted","tents":"no","website":"https://en.normandie-tourisme.fr/campers-and-caravans-service-stop-overs/aire-de-stationnement-et-de-service-de-saint-jouin-bruneval/"}},"827426067":{"location":[49.7281047,0.3088094],"ct":"FR","tp":"CS","ts":"2020-11-15T10:38:42Z","tX":512,"tY":348,"tags":{"access":"customers","addr:city":"Yport","addr:postcode":"76111","addr:street":"Terrain Bois des 40 Acres","capacity":"120","caravans":"yes","email":"accueil-rg@cspo-lehavre.org","internet_access":"wlan","internet_access:fee":"no","name":"CSPO camping naturiste","name:en":"CSPO naturist camping","operator":"CSPO : Club du Soleil de la Porte Océane","phone":"+33 6 02 24 45 10; +33 2 35 27 30 64","sanitary_dump_station":"yes","tents":"yes","website":"http://www.cspo-lehavre.org/Cspo%20FR/2%20Terrain.htm","wheelchair":"yes"}},"12242492032":{"location":[49.696892,0.3291231],"ct":"FR","tp":"CR","ts":"2024-10-17T17:46:06Z","tX":512,"tY":348,"tags":{"capacity":"1","caravan_site":"motorhome_stopover","caravan_site:type":"village","dog":"yes","fee":"no","maxweight":"3.5","name":"Aire de stationnement de Gerville","picnic_area":"yes","power_supply":"no","sanitary_dump_station":"no","tents":"no","website":"https://www.fecamptourisme.com/offres/aire-de-stationnement-de-gerville-gerville-fr-3754634/"}},"7089255707":{"location":[49.6508345,0.1632768],"ct":"FR","tp":"SD","ts":"2019-12-27T16:21:28Z","tX":512,"tY":348,"tags":{"access":"yes","fee":"yes","opening_hours":"24/7","sanitary_dump_station:basin":"yes","sanitary_dump_station:round_drain":"yes"}},"7705376357":{"location":[49.7002006,0.2160441],"ct":"FR","tp":"SD","ts":"2024-09-18T18:30:55Z","tX":512,"tY":348,"tags":{"access":"customers","fee":"no"}},"12184624839":{"location":[49.7002629,0.2158092],"ct":"FR","tp":"SD","ts":"2024-09-18T18:30:55Z","tX":512,"tY":348,"tags":{"access":"yes"}}}