{"68701378":{"location":[49.4248345,0.2251083],"ct":"FR","tp":"CS","ts":"2024-11-23T13:11:21Z","tX":512,"tY":349,"tags":{"addr:city":"Honfleur","addr:postcode":"14600","email":"campingduphare@orange.fr","name":"Camping Du Phare","phone":"+33 2 31 89 10 26","source":"ortho littorale 2000","stars":"2","website":"https://www.normandie-sur-mer.fr/campings/camping-phare-honfleur","wheelchair":"yes"}},"156954655":{"location":[49.504588,0.1717205],"ct":"FR","tp":"CR","ts":"2024-10-10T23:27:24Z","tX":512,"tY":349,"tags":{"access":"yes","addr:city":"Le Havre","addr:housenumber":"74","addr:postcode":"76610","addr:street":"Rue Andreï Sakharov","capacity":"13","caravan_site":"motorhome_stopover","caravan_site:type":"city","caravans":"no","charge":"6 EUR","fee":"yes","name":"Aire de camping-car du Havre","opening_hours":"24/7","power_supply":"yes","recycling_type":"centre","sanitary_dump_station":"yes","surface":"asphalt","tents":"no","water_point":"yes","website":"https://www.lehavre.fr/annuaire/aire-de-camping-cars"}},"248981792":{"location":[49.401664,0.3044065],"ct":"FR","tp":"CS","ts":"2021-08-25T21:07:43Z","tX":512,"tY":349,"tags":{"addr:city":"Fiquefleur-Équainville","addr:country":"FR","addr:housenumber":"910","addr:postcode":"27210","addr:street":"Route de la Morelle","caravans":"yes","email":"info@camping-catiniere.com","name":"Domaine de la Catinière","phone":"+33 232 576 351","stars":"4","static_caravans":"yes","swimming_pool":"yes","tents":"yes","website":"https://www.camping-honfleur.com"}},"249687281":{"location":[49.5960856,0.1290888],"ct":"FR","tp":"PK","ts":"2024-10-28T23:23:09Z","tX":512,"tY":349,"tags":{"access":"yes","fee":"no","motorhome":"yes","parking":"surface"}},"263111478":{"location":[49.3884823,0.1203995],"ct":"FR","tp":"CS","ts":"2022-10-07T13:35:07Z","tX":512,"tY":349,"tags":{"access":"customers","addr:city":"Villerville","addr:postcode":"14113","addr:street":"Route du Val","cabins":"yes","capacity:static_caravans":"450","caravans":"no","fee":"yes","internet_access":"wlan","name":"Camping Le Château d'Arvid","opening_hours":"Apr 09-30,May-Sep Mo-Su","operator":"Capfun","stars":"4","static_caravans":"yes","swimming_pool":"yes","tents":"no","website":"https://www.capfun.com/camping-france-basse_normandie-chateau_arvid-FR.html","wheelchair":"yes"}},"263175821":{"location":[49.4191227,0.2428239],"ct":"FR","tp":"CR","ts":"2024-10-10T21:57:43Z","tX":512,"tY":349,"tags":{"capacity":"180","caravan_site":"motorhome_stopover","caravan_site:type":"river","charge":"14 EUR","fee":"yes","internet_access":"no","name":"Aire de Camping Car de Honfleur","opening_hours":"24/7","operator":"Mairie de Honfleur","power_supply":"yes","power_supply:capacity":"140","power_supply:fee":"no","reservation":"no","sanitary_dump_station":"yes","sanitary_dump_station:chemical_toilet":"yes","sanitary_dump_station:fee":"no","sanitary_dump_station:grey_water":"yes","surface":"asphalt","tents":"no","water_point":"yes","water_point:fee":"no","website":"https://www.normandie-tourisme.fr/aires-camping-cars/aire-de-stationnement-camping-cars-de-honfleur/","wheelchair":"yes","wikimedia_commons":"File:Motorhome stopover in Honfleur, aerial view-0547.jpg"}},"462561451":{"location":[49.3985309,0.2074944],"ct":"FR","tp":"CS","ts":"2022-10-06T11:08:01Z","tX":512,"tY":349,"tags":{"addr:city":"Honfleur","addr:postcode":"14600","internet_access":"wlan","name":"La Briquerie","phone":"+33 2 31 89 28 32","stars":"5","tents":"no","website":"https://www.campinglabriquerie.com"}},"512784936":{"location":[49.5210175,0.3469614],"ct":"FR","tp":"CR","ts":"2024-09-18T18:36:28Z","tX":512,"tY":349,"tags":{"addr:city":"Saint-Romain-de-Colbosc","addr:postcode":"76430","addr:street":"Route d'Oudalle","capacity":"3","caravan_site":"motorhome_stopover","caravan_site:type":"village","caravans":"no","dog":"yes","fee":"no","name":"Aire de camping-car Caux Estuaire","opening_hours":"24/7","operator":"Caux Estuaire","seasonal":"no","tents":"no","website":"https://www.lehavre-etretat-tourisme.com/fr/fiche/saint-romain-de-colbosc/aire-de-stationnement-et-de-service-caux-estuaire_TFOHPANOR076FS0006G/"}},"597934632":{"location":[49.4090714,0.2682463],"ct":"FR","tp":"CR","ts":"2024-05-20T17:06:53Z","tX":512,"tY":349,"tags":{"bbq":"no","capacity":"16","caravan_site":"motorhome_stopover","caravan_site:type":"village","caravans":"no","charge":"14.20 EUR","charge:conditional":"12.20 EUR @ (Oct 01-Apr 18)","dog":"leashed","fee":"yes","internet_access":"wlan","maxlength":"9","name":"Aire Camping-Car Park La Rivière-Saint-Sauveur","network":"CAMPING-CAR PARK","opening_hours":"24/7","power_supply":"yes","power_supply:capacity":"16","power_supply:maxcurrent":"6","sanitary_dump_station":"yes","tents":"no","trailer":"no","water_point":"yes","water_supply":"yes","website":"https://www.campingcarpark.com/fr_FR/sejour/aire-etape-camping-car/normandie/14-calvados/la-riviere-saint-sauveur"}},"1214390448":{"location":[49.5297134,0.3457464],"ct":"FR","tp":"SD","ts":"2023-10-09T18:00:38Z","tX":512,"tY":349,"tags":{}},"12242462505":{"location":[49.3993964,0.2146733],"ct":"FR","tp":"CR","ts":"2024-10-10T22:46:46Z","tX":512,"tY":349,"tags":{"caravan_site":"motorhome_stopover","caravan_site:type":"restaurant","dog":"yes","fee":"no","name":"Aire L'Assiette des Mondes d'Equemauville","network":"France Passion","website":"https://www.ot-honfleur.fr/camping/aire-de-camping-car-privee-dequemauville/"}},"9982048338":{"location":[49.4189931,0.2435097],"ct":"FR","tp":"SD","ts":"2022-08-27T18:50:21Z","tX":512,"tY":349,"tags":{"access":"customers","fee":"no","opening_hours":"24/7","sanitary_dump_station:basin":"yes","sanitary_dump_station:round_drain":"yes"}},"11251560472":{"location":[49.5297108,0.3457316],"ct":"FR","tp":"SD","ts":"2023-10-09T18:01:47Z","tX":512,"tY":349,"tags":{}}}