{"111171330":{"location":[49.3343403,0.022549],"ct":"FR","tp":"CS","ts":"2022-03-25T15:03:22Z","tX":512,"tY":350,"tags":{"addr:city":"Blonville-sur-Mer","addr:housenumber":"109","addr:postcode":"14910","addr:street":"Avenue Michel d'Ornano","cabins":"yes","caravans":"yes","fee":"yes","name":"Camping de la Plage","opening_hours":"Apr-Sep Mo-Su","phone":"+33 2 31 87 92 46","source":"https://campingblonville.fr/","stars":"3","tents":"yes","website":"https://campingblonville.fr/"}},"111319083":{"location":[49.3222426,0.0220933],"ct":"FR","tp":"CS","ts":"2023-11-17T16:48:08Z","tX":512,"tY":350,"tags":{"name":"Lieu Pieugé","phone":"+33 6 81 18 60 52","website":"https://blonville.fr/fr/tr/1050012/18033/le-lieu-pieuge"}},"112670144":{"location":[49.3222654,0.0595288],"ct":"FR","tp":"CS","ts":"2024-11-11T21:56:30Z","tX":512,"tY":350,"tags":{"addr:street":"Lieu dit 'Le Lieu Roti'","caravans":"yes","name":"L'Orée de Deauville","phone":"+33 2 31 87 96 22","stars":"3","tents":"yes","website":"https://www.camping-normandie-loreededeauville.com"}},"113384776":{"location":[49.3299485,0.0908868],"ct":"FR","tp":"CS","ts":"2023-11-11T17:24:43Z","tX":512,"tY":350,"tags":{"addr:street":"Avenue de la Vallée","caravans":"yes","name":"La Vallée de Deauville","phone":"+33 2 31 88 58 17","stars":"5","website":"https://camping-deauville.com"}},"170449341":{"location":[49.2751222,0.2051111],"ct":"FR","tp":"CS","ts":"2024-10-13T11:56:49Z","tX":512,"tY":350,"tags":{"addr:city":"Pont-l'Évêque","addr:postcode":"14130","caravans":"yes","motorhome":"yes","name":"Camping du Lac Terre d'Auge","phone":"+33 2 31 65 47 15","static_caravans":"yes","tents":"yes","website":"https://www.terredauge-camping.fr"}},"189823781":{"location":[49.3156591,0.0231313],"ct":"FR","tp":"CS","ts":"2020-02-11T14:21:27Z","tX":512,"tY":350,"tags":{"addr:city":"Blonville-sur-Mer","addr:country":"FR","addr:postcode":"14910","addr:street":"Route de Villers","email":"info@villageclub.fr","fax":"+33 2 31 81 47 15","name":"Village Club","phone":"+33 2 31 87 97 27","stars":"4","website":"http://www.villageclub.fr"}},"263095948":{"location":[49.3780658,0.0921096],"ct":"FR","tp":"CS","ts":"2024-09-17T07:13:10Z","tX":512,"tY":350,"tags":{"addr:city":"Trouville-sur-Mer","addr:housenumber":"11","addr:postcode":"14360","addr:street":"Route de Honfleur","cabins":"yes","caravans":"yes","drinking_water":"yes","fee":"yes","mobile":"+33 6 70 53 07 43","name":"Camping du Chant des Oiseaux","opening_hours":"Apr-Oct,Nov 01 Mo-Su","operator":"Le chant des oiseaux","phone":"+33 2 31 88 06 42","power_supply":"yes","sanitary_dump_station":"yes","shower":"yes","source":"https://campingtrouville.com/","tents":"yes","toilets":"yes","website":"https://campingtrouville.com/"}},"366570116":{"location":[49.2260394,0.3046177],"ct":"FR","tp":"CS","ts":"2025-02-26T04:43:48Z","tX":512,"tY":350,"tags":{"caravans":"yes","contact:email":"contact@campinglebrevedent.com","contact:phone":"+33 2 31 64 72 88","contact:website":"https://www.campinglebrevedent.com/","motor_vehicle":"yes","name":"Le Brévedent","stars":"4","static_caravans":"yes","tents":"yes"}},"496532217":{"location":[49.2785285,0.0529015],"ct":"FR","tp":"CS","ts":"2024-08-07T09:44:40Z","tX":512,"tY":350,"tags":{}},"616344153":{"location":[49.3289225,0.0132476],"ct":"FR","tp":"CR","ts":"2024-06-26T08:44:12Z","tX":512,"tY":350,"tags":{"capacity":"14","caravan_site":"motorhome_stopover","caravan_site:type":"beach","charge":"12 EUR","dog":"yes","fee":"yes","name":"Aire Camping-cars Villers-sur-Mer","power_supply":"yes","sanitary_dump_station":"yes","sanitary_dump_station:chemical_toilet":"yes","sanitary_dump_station:grey_water":"yes","surface":"fine_gravel","water_point":"yes","website":"https://www.indeauville.fr/hotellerie-de-plein-air/aire-de-camping-cars-communale-de-villers-sur-mer#prettyPhoto"}},"720295224":{"location":[49.1643238,0.2207109],"ct":"FR","tp":"CS","ts":"2023-05-28T09:39:26Z","tX":512,"tY":350,"tags":{"addr:housenumber":"9","addr:street":"Rue de la Vallée","contact:email":"contact@camping-lisieux.fr","name":"Camping municipale de la Vallée","operator":"Ville de Lisieux","phone":"+33 2 31 623637","stars":"2","website":"https://camping-lisieux.fr"}},"1044709279":{"location":[49.348652,0.1121803],"ct":"FR","tp":"CS","ts":"2022-10-03T13:36:58Z","tX":512,"tY":350,"tags":{"capacity:static_caravans":"202","caravans":"no","name":"Camping Des Haras","operator":"Capfun","phone":"+33 2 31 88 44 84","stars":"4","static_caravans":"yes","tents":"no","website":"https://www.capfun.com/camping-france-basse_normandie-haras-FR.html"}},"1044755330":{"location":[49.2980213,0.1764593],"ct":"FR","tp":"CS","ts":"2022-04-02T10:26:36Z","tX":512,"tY":350,"tags":{"addr:city":"Pont-l'Évêque","addr:postcode":"14130","addr:street":"Route de Trouville","capacity:persons":"40","caravans":"yes","fee":"yes","name":"Aire Naturelle de camping Le Lieu Joly","phone":"+33 2 31 64 12 91","shower":"yes","tents":"yes","toilets":"yes","website":"https://www.terredauge-tourisme.fr/fr/preparer/mon-hebergement/camping/aire-naturelle-de-camping-le-lieu-joly"}},"1083282983":{"location":[49.2696031,0.1839093],"ct":"FR","tp":"CS","ts":"2024-07-07T17:30:54Z","tX":512,"tY":350,"tags":{"camp_site":"basic"}},"1101936654":{"location":[49.3729843,0.1295654],"ct":"FR","tp":"CS","ts":"2022-10-08T12:52:41Z","tX":512,"tY":350,"tags":{}},"1226593346":{"location":[49.2686666,0.1414627],"ct":"FR","tp":"CS","ts":"2023-11-24T19:44:02Z","tX":512,"tY":350,"tags":{"mobile":"+33 6 42 41 34 07","name":"Aire Naturelle de Camping Legrix","phone":"+33 2 31 64 84 63","website":"https://www.calvados-tourisme.com/offre/aire-naturelle-de-camping-de-reux/"}},"1247606741":{"location":[49.2446749,0.2775487],"ct":"FR","tp":"CR","ts":"2024-10-22T10:35:18Z","tX":512,"tY":350,"tags":{"caravan_site":"motorhome_stopover","caravan_site:type":"village","caravans":"no","fee":"no","name":"Aire de camping-car de Blangy-le-Château","picnic_table":"yes","power_supply":"yes","power_supply:charge":"2 EUR/hour","power_supply:fee":"yes","sanitary_dump_station":"yes","surface":"grass","tents":"no","toilets":"yes","website":"https://www.calvados-tourisme.com/offre/aire-de-camping-car-de-blangy-le-chateau/"}},"1247626620":{"location":[49.2475546,0.2761715],"ct":"FR","tp":"CS","ts":"2024-02-08T12:31:54Z","tX":512,"tY":350,"tags":{"name":"Domaine du Lac"}},"1296299448":{"location":[49.1837156,0.2057335],"ct":"FR","tp":"CR","ts":"2024-10-10T22:55:39Z","tX":512,"tY":350,"tags":{"capacity":"4","caravan_site":"motorhome_stopover","caravan_site:type":"winery","fee":"no","name":"Aire de camping-car privée Le Lieu Chéri","network":"France Passion","power_supply":"yes","power_supply:charge":"3 EUR/day","power_supply:fee":"yes","product":"calvados","seasonal":"no","water_point":"yes","website":"https://www.lelieucheri.fr/"}},"12186034818":{"location":[49.3517163,0.1141754],"ct":"FR","tp":"CR","ts":"2024-09-19T11:49:51Z","tX":512,"tY":350,"tags":{"capacity":"10","caravan_site":"motorhome_stopover","caravan_site:type":"countryside","charge":"15 EUR","fee":"yes","name":"Aire Le pressoir Marie Claire","power_supply":"yes","sanitary_dump_station":"yes"}},"12242444661":{"location":[49.3029467,0.3108922],"ct":"FR","tp":"CR","ts":"2024-10-13T11:56:49Z","tX":512,"tY":350,"tags":{"addr:city":"Saint-André-d'Hébertot","addr:country":"FR","addr:housenumber":"370","addr:postcode":"14130","addr:street":"Route de la Garenne","alt_name":"Etape France Passion à Saint-André-d'Hebertot","capacity":"5","caravan_site":"motorhome_stopover","caravan_site:type":"winery","fee":"no","name":"Aire Boissel Père & Fils - Saint-André-d'Hébertot","network":"France Passion","product":"calvados","seasonal":"no","water_point":"yes","website":"http://boissel-pere-et-fils.fr/sejours-camping-car/"}},"5827495402":{"location":[49.329047,0.0124214],"ct":"FR","tp":"SD","ts":"2020-08-26T07:33:05Z","tX":512,"tY":350,"tags":{"charge":"2€","fee":"yes"}},"11598732882":{"location":[49.2447742,0.2774888],"ct":"FR","tp":"SD","ts":"2024-09-18T19:23:37Z","tX":512,"tY":350,"tags":{}}}