{"173041444":{"location":[45.7821003,0.1177659],"ct":"FR","tp":"CS","ts":"2024-01-13T15:25:27Z","tX":512,"tY":365,"tags":{"name":"Les Platanes","operator":"Municipalité","phone":"+33 5 45 39 89 16","source":"Bing","website":"https://montignac-charente.fr/culture-et-loisirs/camping-de-montignac/"}},"300782399":{"location":[45.6259541,0.0501671],"ct":"FR","tp":"CR","ts":"2024-10-12T14:51:45Z","tX":512,"tY":365,"tags":{"access":"yes","caravan_site":"motorhome_stopover","caravan_site:type":"village","description":"Aire de camping-car, électricité, eau gratuit","drinking_water":"yes","fee":"no","name":"Nerzac Aire","operator":"Nersac Campingcar","power_supply":"yes","sanitary_dump_station":"yes","toilets":"no","website":"https://www.angouleme-tourisme.com/hotellerie-plein-air/aire-de-services-camping-cars-nersac/"}},"441169827":{"location":[45.5847175,0.1546132],"ct":"FR","tp":"CR","ts":"2024-10-13T09:53:20Z","tX":512,"tY":365,"tags":{"capacity":"3","caravan_site":"motorhome_stopover","caravan_site:type":"village","caravans":"no","fee":"no","name":"Aire camping-cars Voeuil et Giget","power_supply":"yes","sanitary_dump_station":"yes","seasonal":"no","services:charge":"2 EUR:water_point,power_supply","tents":"no","water_point":"yes","website":"https://www.angouleme-tourisme.com/hotellerie-plein-air/aire-de-services-camping-cars-voeuil-et-giget/"}},"609931904":{"location":[45.6025372,0.248846],"ct":"FR","tp":"CR","ts":"2024-10-08T17:50:05Z","tX":512,"tY":365,"tags":{"area":"yes","capacity":"4","caravan_site":"motorhome_stopover","caravan_site:type":"village","fee":"no","maxstay":"72 hours","name":"Aire de camping-car Dirac","opening_hours":"24/7","power_supply":"no","sanitary_dump_station":"yes","sanitary_dump_station:chemical_toilet":"yes","sanitary_dump_station:grey_water":"yes","seasonal":"no","source":"survey","toilets":"yes"}},"683344859":{"location":[45.6609076,0.2582652],"ct":"FR","tp":"CR","ts":"2024-10-04T10:21:53Z","tX":512,"tY":365,"tags":{"capacity":"7","caravan_site":"motorhome_stopover","caravan_site:type":"village","caravans":"no","fee":"no","name":"Aire de services camping-cars Touvre","opening_hours":"24/7","power_supply":"no","sanitary_dump_station":"yes","seasonal":"no","source":"survey","tents":"no","water_point":"yes","website":"https://www.angouleme-tourisme.com/hotellerie-plein-air/aire-de-services-camping-cars-touvre/"}},"1098689260":{"location":[45.6918698,0.1448675],"ct":"FR","tp":"CR","ts":"2024-10-23T20:27:21Z","tX":512,"tY":365,"tags":{"capacity":"14","caravan_site":"motorhome_stopover","caravan_site:type":"camp_site","dog":"yes","fee":"yes","name":"Aire de services camping-cars camping du Plan d’eau","opening_hours":"Apr 01-Nov 15","operator":"Camping du Plan d'eau","power_supply":"yes","sanitary_dump_station":"yes","tents":"no","toilets":"yes","water_point":"yes","website":"https://camping-angouleme.fr/hebergement/emplacement-sans-electricite/"}},"1098689273":{"location":[45.6913555,0.1439467],"ct":"FR","tp":"CS","ts":"2024-07-20T07:31:58Z","tX":512,"tY":365,"tags":{"addr:housenumber":"1","addr:postcode":"16710","addr:street":"Rue du Camping","name":"Le Plan d'Eau","phone":"+33 5 45 92 14 64","stars":"3","website":"https://www.camping-angouleme.fr/"}},"1114749152":{"location":[45.799198,0.0651383],"ct":"FR","tp":"CS","ts":"2024-10-25T13:11:08Z","tX":512,"tY":365,"tags":{"name":"Marco de Bignac","phone":"+33 5 45 21 78 41","stars":"3","website":"https://www.marcodebignac.com/"}},"1316251453":{"location":[45.799633,0.1377197],"ct":"FR","tp":"CR","ts":"2024-09-17T22:40:41Z","tX":512,"tY":365,"tags":{"capacity":"6","caravan_site":"motorhome_stopover","caravan_site:type":"village","fee":"no","name":"Aire de camping-car Saint-Amant-de-Boixe","opening_hours":"24/7","power_supply":"no","sanitary_dump_station":"yes","sanitary_dump_station:chemical_toilet":"yes","sanitary_dump_station:grey_water":"yes","seasonal":"no","surface":"grass_paver","water_point":"yes","website":"https://www.destination-nordcharente.com/hebergements/campings-et-aires-de-camping-cars/6989607_aire-de-camping-car/"}},"1323423369":{"location":[45.6210844,0.1332843],"ct":"FR","tp":"CR","ts":"2024-10-12T14:50:05Z","tX":512,"tY":365,"tags":{"addr:city":"La Couronne","addr:housenumber":"19","addr:postcode":"16400","addr:street":"Chemin de la Petite Tourette","capacity":"6","caravan_site":"motorhome_stopover","caravan_site:type":"town","caravans":"no","charge":"3.50 EUR","email":"pommiers.tourette@gmail.com","fee":"yes","name":"Aire de service camping-cars La Tourette","opening_hours":"24/7","phone":"+33 6 16 47 96 63","power_supply":"yes","sanitary_dump_station":"yes","sanitary_dump_station:chemical_toilet":"yes","sanitary_dump_station:grey_water":"yes","seasonal":"no","tents":"no","website":"https://www.angouleme-tourisme.com/hotellerie-plein-air/aire-de-service-camping-cars-la-tourette/"}},"3094218245":{"location":[45.6076223,0.0246274],"ct":"FR","tp":"CS","ts":"2022-10-19T11:36:51Z","tX":512,"tY":365,"tags":{"addr:city":"Sireuil","addr:housenumber":"2","addr:postcode":"16440","addr:street":"route de la Charente","email":"campingdunizour@gmail.com","name":"Le Nizour","phone":"+33 5 45 90 56 27","stars":"3","website":"https://www.campingdunizour.com/"}},"6280267089":{"location":[45.6062519,0.1001995],"ct":"FR","tp":"CR","ts":"2024-10-10T13:19:20Z","tX":512,"tY":365,"tags":{"access":"yes","caravan_site":"motorhome_stopover","caravan_site:type":"parking_lot;village","caravans":"no","description":"closed on market days (We,Sa)","fee":"no","name":"Aire de services camping-cars La Couronne","opening_hours":"00:00-24:00; We,Sa 00:00-18:00 off","power_supply":"no","sanitary_dump_station":"yes","sanitary_dump_station:chemical_toilet":"yes","sanitary_dump_station:grey_water":"check exacpt position","seasonal":"no","tents":"no","toilets":"yes","water_point":"yes","website":"https://www.angouleme-tourisme.com/hotellerie-plein-air/aire-de-services-camping-cars-la-couronne/","wheelchair":"yes"}},"6592844323":{"location":[45.660864,0.2581733],"ct":"FR","tp":"SD","ts":"2023-12-20T18:48:08Z","tX":512,"tY":365,"tags":{"access":"yes","fee":"no","opening_hours":"24/7","seasonal":"no","water_point":"yes"}},"11435538667":{"location":[45.6025672,0.2487072],"ct":"FR","tp":"SD","ts":"2023-12-20T18:48:08Z","tX":512,"tY":365,"tags":{"access":"yes","fee":"no","sanitary_dump_station:chemical_toilet":"yes","sanitary_dump_station:grey_water":"yes"}},"12152466418":{"location":[45.6259794,0.0500058],"ct":"FR","tp":"SD","ts":"2024-09-02T21:45:34Z","tX":512,"tY":365,"tags":{"access":"yes"}},"12182993353":{"location":[45.7995262,0.1374967],"ct":"FR","tp":"SD","ts":"2024-09-17T22:40:41Z","tX":512,"tY":365,"tags":{}}}