{"37049695":{"location":[45.2574436,0.3408426],"ct":"FR","tp":"CS","ts":"2023-08-28T18:52:06Z","tX":512,"tY":367,"tags":{"caravans":"yes","drinking_water":"yes","name":"Camping de la Dronne","shower":"yes","tents":"yes"}},"173151682":{"location":[45.2671545,0.1746903],"ct":"FR","tp":"CS","ts":"2023-07-21T15:21:31Z","tX":512,"tY":367,"tags":{"access":"yes","caravans":"yes","fee":"yes","name":"Camping municipal","operator":"Municipalité","phone":"+33 5 45 98 60 17","source":"Bing","stars":"3","tents":"yes","website":"https://www.camping-aubeterre.fr"}},"471793173":{"location":[45.1911044,0.0265157],"ct":"FR","tp":"CS","ts":"2023-11-05T23:23:53Z","tX":512,"tY":367,"tags":{"name":"Camping Le Paradou","stars":"3","website":"https://www.camping-paradou.com/"}},"473591852":{"location":[45.25686,0.3424166],"ct":"FR","tp":"CR","ts":"2025-04-05T07:16:38Z","tX":512,"tY":367,"tags":{"access":"customers","surface":"gravel"}},"512470296":{"location":[45.2698158,0.1765792],"ct":"FR","tp":"CR","ts":"2025-03-19T11:25:14Z","tX":512,"tY":367,"tags":{"caravan_site":"motorhome_stopover","caravan_site:type":"river","caravans":"no","fee":"no","name":"Aire de camping-cars Aubeterre-sur-Dronne","opening_hours":"24/7","picnic_area":"yes","sanitary_dump_station":"yes","sanitary_dump_station:chemical_toilet":"yes","sanitary_dump_station:grey_water":"yes","seasonal":"no","surface":"gravel","tents":"no","website":"https://www.sudcharentetourisme.fr/planifier-votre-hebergement/aire-de-services-camping-cars-5708037/"}},"1033560469":{"location":[45.2078723,0.1324951],"ct":"FR","tp":"CS","ts":"2022-02-20T16:35:41Z","tX":512,"tY":367,"tags":{"addr:city":"Saint-Aulaye","addr:postcode":"24410","addr:street":"Avenue François Mitterrand","cabins":"yes","caravans":"yes","name":"La Dordogne verte","opening_hours":"May-Sep","phone":"+33 553906220","stars":"3","tents":"yes","website":"https://camping-dordogneverte.fr"}},"1278824069":{"location":[45.271826,0.0417647],"ct":"FR","tp":"CR","ts":"2024-05-01T16:14:52Z","tX":512,"tY":367,"tags":{"caravan_site":"motorhome_stopover","caravan_site:type":"village","caravans":"no","fee":"no","maxstay":"48 hours","name":"Aire De Camping-car Chalais","picnic_area":"yes","seasonal":"no","tents":"no","toilets":"yes","water_point":"yes","website":"https://www.sudcharentetourisme.fr/planifier-votre-hebergement/aire-de-services-camping-cars-5708463/"}},"1278863904":{"location":[45.3127345,0.2552501],"ct":"FR","tp":"CR","ts":"2024-05-01T18:58:30Z","tX":512,"tY":367,"tags":{"capacity":"2","caravan_site":"motorhome_stopover","caravan_site:type":"village","caravans":"no","fee":"no","name":"Aire de Camping-cars de Saint-Séveri","power_supply":"yes","power_supply:fee":"no","sanitary_dump_station":"yes","seasonal":"no","tents":"no","water_point":"yes","website":"https://www.sudcharentetourisme.fr/planifier-votre-hebergement/aire-de-services-camping-cars-5707897/"}},"1314888943":{"location":[45.2118778,0.283958],"ct":"FR","tp":"CR","ts":"2024-09-11T15:55:01Z","tX":512,"tY":367,"tags":{"capacity":"3","caravan_site":"motorhome_stopover","caravan_site:type":"village","caravans":"no","fee":"no","name":"Aire communale de Vanxains","power_supply":"yes","power_supply:fee":"no","sanitary_dump_station":"yes","sanitary_dump_station:fee":"no","tents":"no","water_point":"yes","water_point:fee":"no"}},"1314985289":{"location":[45.1562013,0.0033494],"ct":"FR","tp":"CR","ts":"2024-09-12T03:32:39Z","tX":512,"tY":367,"tags":{"capacity":"4","caravan_site":"motorhome_stopover","caravan_site:type":"river","fee":"no","name":"Aire de camping-car de la halte nautique La Roche-chalais","water_point":"yes","website":"https://www.dordogne-perigord-tourisme.fr/offres/aire-de-camping-car-de-la-halte-nautique-la-roche-chalais-fr-2941880/"}},"1363687590":{"location":[45.2695014,0.1759336],"ct":"FR","tp":"CR","ts":"2025-02-28T23:01:15Z","tX":512,"tY":367,"tags":{"caravan_site":"motorhome_stopover","caravan_site:type":"river","caravans":"no","fee":"no","name":"Aire de services","picnic_area":"yes","power_supply":"no","sanitary_dump_station":"yes","sanitary_dump_station:chemical_toilet":"yes","sanitary_dump_station:grey_water":"yes","seasonal":"no","surface":"gravel","tents":"no","website":"https://www.sudcharentetourisme.fr/planifier-votre-hebergement/aire-de-services-camping-cars-5708037/"}},"1691127344":{"location":[45.1587581,0.27311],"ct":"FR","tp":"CS","ts":"2022-02-13T20:45:42Z","tX":512,"tY":367,"tags":{"addr:city":"La Jemaye","addr:postcode":"24410","addr:street":"Au Grand Étang","caravans":"yes","name":"Camping du Lac","phone":"+33 5 53 91 51 78","stars":"2","tents":"yes","website":"https://www.campingdulac-dordogne.com"}},"2428275662":{"location":[45.239423,0.153879],"ct":"FR","tp":"CS","ts":"2014-09-23T15:48:13Z","tX":512,"tY":367,"tags":{"name":"Camping de Bonnes","operator":"Municipalité","phone":"+33 5 45 98 51 74","website":"www.bonnes.fr/pages/fr/hebergements.php"}},"3092604236":{"location":[45.2130374,0.1285751],"ct":"FR","tp":"CS","ts":"2023-11-05T23:23:52Z","tX":512,"tY":367,"tags":{"name":"La Petite Grange","phone":"+33 5 45 98 54 28","website":"https://www.poitou-charentes-vacances.com/Mon-voyage/Ou-dormir/Camping-La-Petite-Grange"}},"11872097260":{"location":[45.2718239,0.0418304],"ct":"FR","tp":"SD","ts":"2024-05-01T16:14:15Z","tX":512,"tY":367,"tags":{"access":"yes","fee":"no"}},"11937244950":{"location":[45.237875,0.3478457],"ct":"FR","tp":"SD","ts":"2024-11-12T17:33:15Z","tX":512,"tY":367,"tags":{"access":"yes","charge":"2€","fee":"yes","network":"\"Flot Bleu\" Oceane","operator":"Intermarché","panoramax":"8b16710e-d072-47dc-bba1-931b0a3b98b0","power_supply":"no","sanitary_dump_station:chemical_toilet":"yes","sanitary_dump_station:grey_water":"yes","water_point":"yes"}},"12170269205":{"location":[45.2117905,0.2839346],"ct":"FR","tp":"SD","ts":"2024-09-11T15:55:01Z","tX":512,"tY":367,"tags":{}}}