{"300615314":{"location":[44.5238187,0.0360362],"ct":"FR","tp":"CS","ts":"2024-08-28T11:33:00Z","tX":512,"tY":370,"tags":{"addr:city":"Meilhan-sur-Garonne","area":"yes","caravans":"yes","email":"communedemeilhan.47@wanadoo.fr","name":"Camping municipal Au Jardin","phone":"+33553943004;+33608035477","tents":"yes"}},"452415922":{"location":[44.4064452,0.2201998],"ct":"FR","tp":"CR","ts":"2024-08-19T23:06:13Z","tX":512,"tY":370,"tags":{"capacity":"8","caravan_site":"motorhome_stopover","caravan_site:type":"village","caravans":"yes","dog":"yes","fee":"no","name":"Aire de stationnement du Mas-d'Agenais","tents":"no","website":"https://www.valdegaronne-tourisme.com/aires-camping-cars/aire-de-stationnement-du-mas-dagenais/"}},"739755094":{"location":[44.4944955,0.164246],"ct":"FR","tp":"CR","ts":"2024-01-05T13:32:34Z","tX":512,"tY":370,"tags":{"access":"customers","addr:city":"Marmande","addr:postcode":"47200","addr:street":"Rue de la Fihole","capacity":"50","caravan_site":"motorhome_stopover","caravan_site:type":"town","dog":"yes","fee":"10.20 EUR","internet_access":"no","name":"Aire de camping-car de la Filhole à Marmande","opening_hours":"24/7","power_supply":"yes","sanitary_dump_station":"yes","seasonal":"no"}},"899170111":{"location":[44.3838651,0.3173281],"ct":"FR","tp":"CR","ts":"2024-01-05T23:32:16Z","tX":512,"tY":370,"tags":{"addr:city":"Tonneins","addr:postcode":"47400","addr:street":"Quai Saint-Pierre","capacity":"7","caravan_site":"motorhome_stopover","description":"Aire de camping car. electricité payante, Autres services gratuits.","drinking_water":"yes","fee":"no","maxstay":"7 nights","name":"Aire de camping-car de Tonneins","opening_hours":"24/7","operator":"Ville de Tonneins","power_supply":"yes","power_supply:charge":"2 EUR/5 hours","sanitary_dump_station":"yes","sanitary_dump_station:chemical_toilet":"yes","sanitary_dump_station:grey_water":"yes","seasonal":"no","surface":"asphalt","water_point":"yes","website":"https://www.tourisme-lotetgaronne.com/aires-de-camping-car/aire-de-camping-car-de-tonneins/"}},"899187953":{"location":[44.4417939,0.1781488],"ct":"FR","tp":"CR","ts":"2024-05-13T00:15:26Z","tX":512,"tY":370,"tags":{"addr:city":"Caumont-sur-Garonne","addr:postcode":"47430","addr:street":"D143","capacity":"15","caravan_site":"motorhome_stopover","caravan_site:type":"river","description":"electricité et eau payant","drinking_water":"yes","fee":"no","name":"Aire de camping car de Caumont-sur-Garonne","opening_hours":"24/7","operator":"Ville de Caumont-sur-Garonne","power_supply":"yes","power_supply:charge":"2 EUR/4 hours","power_supply:fee":"yes","sanitary_dump_station":"yes","sanitary_dump_station:chemical_toilet":"yes","sanitary_dump_station:grey_water":"yes","seasonal":"no","water_point":"yes","water_point:charge":"2 EUR","water_point:fee":"yes","website":"https://www.tourisme-lotetgaronne.com/aires-de-camping-car/aire-de-camping-car-de-caumont-sur-garonne/"}},"1737659369":{"location":[44.4107483,0.2198909],"ct":"FR","tp":"CS","ts":"2023-10-05T06:48:49Z","tX":512,"tY":370,"tags":{"addr:city":"Le-Mas-d'Agenais","addr:postcode":"47430","addr:street":"Rue du Château","fee":"yes","name":"Aire naturelle Les Allées","operator":"Municipal","phone":"+33 5 53 89 50 37","tents":"yes","website":"http://www.lemasdagenais.fr/fr/information/16252/ou-loger"}},"9758084643":{"location":[44.4118867,0.1335677],"ct":"FR","tp":"CS","ts":"2024-04-30T16:29:28Z","tX":512,"tY":370,"tags":{"addr:city":"Bouglon","addr:housenumber":"661","addr:postcode":"47250","addr:street":"Route de Birac","caravans":"no","description":"Depuis décembre 2022, le camping Syl-Vallée Western Village vous accueille dans son village western avec des hébergements insolites cow-boys et amérindiens : \n\n- Trois chambres à thème western, amérindien et Route 66 \n\n- Des hébergements insolites comme 2","name":"Camping Syl vallée western village"}},"11838363371":{"location":[44.4604551,0.1312814],"ct":"FR","tp":"CS","ts":"2025-05-17T15:25:25Z","tX":512,"tY":370,"tags":{"addr:street":"Coussoulat, 47200 Marmande","name":"La ferme coussoulat","phone":"06 77 73 92 24","website":"https://www.lafermecoussoulat.fr/notre-ferme"}},"8354764027":{"location":[44.3839001,0.3172929],"ct":"FR","tp":"SD","ts":"2021-01-23T13:45:43Z","tX":512,"tY":370,"tags":{"description":"Station de vidange pour Camping-car","fee":"no","operator":"Ville de Tonneins","sanitary_dump_station:chemical_toilet":"yes","sanitary_dump_station:grey_water":"yes","water_point":"yes"}},"8354885896":{"location":[44.4419647,0.1791992],"ct":"FR","tp":"SD","ts":"2024-05-13T00:15:26Z","tX":512,"tY":370,"tags":{"fee":"no","motorhome":"designated","operator":"Ville de Caumont-sur-Garonne","sanitary_dump_station:chemical_toilet":"yes","sanitary_dump_station:grey_water":"yes","water_point":"yes"}},"8356696805":{"location":[44.4606409,0.138862],"ct":"FR","tp":"SD","ts":"2021-11-20T14:40:26Z","tX":512,"tY":370,"tags":{"description":"Station de vidange pour Camping-car","fee":"no","operator":"Ville de Fourques-sur-Garonne","sanitary_dump_station:chemical_toilet":"yes","sanitary_dump_station:grey_water":"yes","water_point":"yes"}},"9002419832":{"location":[44.3638434,0.2726976],"ct":"FR","tp":"SD","ts":"2024-01-23T10:02:53Z","tX":512,"tY":370,"tags":{}},"12115981292":{"location":[44.4064446,0.2203428],"ct":"FR","tp":"SD","ts":"2024-08-17T00:52:37Z","tX":512,"tY":370,"tags":{"access":"yes"}},"12662879501":{"location":[44.4903138,0.0762056],"ct":"FR","tp":"CS","ts":"2025-05-17T14:43:34Z","tX":512,"tY":370,"tags":{"addr:postcode":"47200","addr:street":"rue des écoles","name":"Domaine Quiescis - Lieu dit Campot","phone":"06 09 05 28 74;06 10 90 27 56"}},"12684942501":{"location":[44.393557,0.2514842],"ct":"FR","tp":"CS","ts":"2025-05-08T13:45:10Z","tX":512,"tY":370,"tags":{"addr:housenumber":"80","addr:postcode":"47400","addr:street":"Rue de la Briquetterie","name":"Chez Marcel"}}}