{"222001185":{"location":[43.8723257,0.1068389],"ct":"FR","tp":"CS","ts":"2023-05-01T16:22:14Z","tX":512,"tY":372,"tags":{"addr:city":"Eauze","addr:country":"FR","addr:postcode":"32800","addr:street":"Allée Jean Desque","internet_access":"wlan","internet_access:fee":"no","mobile":"+33 660 954 571","name":"Camping Municipal d'Eauze","phone":"+33 9 50 75 76 58","website":"https://lebistrotdechouchou.fr/repas-autocariste"}},"305914013":{"location":[44.0730192,0.2074923],"ct":"FR","tp":"CS","ts":"2024-06-07T07:01:50Z","tX":512,"tY":372,"tags":{"access":"customers","addr:city":"Réaup-Lisse","addr:housenumber":"3224","addr:postcode":"47170","addr:street":"route de Mézin","cabins":"yes","capacity:caravans":"69","capacity:persons":"384","capacity:tents":"69","caravans":"yes","description":"Boulodrome # Branchements d'eau # Branchements électriques # Emplacement camping car # Jeux pour enfants # Piscine # Restauration # Salle de jeux # Salon de télévision # Terrain de sports","description_2":"Alimentation/Point alimentation # Bar # Club Enfants # Dépôt de glace # Location de bungalow / HLL # Location de mobil home # Location de tentes # Location de vélos/VTT # Plats à emporter # Surveillance de nuit # Terrain fermé la nuit","email":"contact@camping-lac-lislebonne.com","fee":"yes","internet_access":"wlan","name":"Camping Naturiste du Lac de Lislebonne","nudism":"obligatory","operator":"# Sourire du Lot-et-Garonne","payment:cash":"yes","payment:debit_cards":"yes","payment:mastercard":"yes","payment:visa":"yes","phone":"+33 5 53 65 65 28","power_supply":"yes","ref:FR:CRTA":"HPAAQU047FS0000K","source:ref:FR:CRTA":"Sirtaqui","stars":"3","static_caravans":"yes","tents":"yes","toilets:wheelchair":"yes","website":"https://www.camping-lac-lislebonne.com/","wheelchair":"yes"}},"443973687":{"location":[43.9453271,0.0859291],"ct":"FR","tp":"CS","ts":"2024-04-12T11:04:20Z","tX":512,"tY":372,"tags":{"name":"Le Coucut"}},"444773786":{"location":[43.8816353,0.2378155],"ct":"FR","tp":"CS","ts":"2016-09-28T16:30:58Z","tX":512,"tY":372,"tags":{"fee":"yes","name":"Camping le Pardaillan"}},"896110712":{"location":[43.8589563,0.1038071],"ct":"FR","tp":"CR","ts":"2024-05-12T23:48:30Z","tX":512,"tY":372,"tags":{"access":"yes","addr:city":"Eauze","addr:housenumber":"4","addr:postcode":"32800","addr:street":"Rue de Rochefort","capacity":"4","caravan_site":"motorhome_stopover","caravan_site:type":"village","fee":"no","name":"Aire de Camping-car Eauze","operator":"Ville de Eauze","power_supply":"no","sanitary_dump_station":"yes","sanitary_dump_station:chemical_toilet":"yes","sanitary_dump_station:grey_water":"yes","surface":"paved","water_point":"yes"}},"1321451090":{"location":[43.9540697,0.197264],"ct":"FR","tp":"CR","ts":"2024-10-05T16:55:04Z","tX":512,"tY":372,"tags":{"capacity":"20","caravan_site":"parking_lot","caravan_site:type":"village","description":"Aire de stationnement de Camping-car gratuits mixte avec voitures","dog":"yes","fee":"no","name":"Aire de Camping-car Communale Montréal du Gers","opening_hours":"24/7","operator":"Ville de Montréal du Gers","power_supply":"no","sanitary_dump_station":"yes","sanitary_dump_station:chemical_toilet":"yes","sanitary_dump_station:grey_water":"yes","seasonal":"no","surface":"gravel","water_point":"yes","website":"https://www.tourisme-gers.com/aire-de-camping-car-communale-montreal-du-gers-54112"}},"3051507455":{"location":[43.869813,0.2582319],"ct":"FR","tp":"CS","ts":"2019-03-05T00:42:51Z","tX":512,"tY":372,"tags":{"addr:city":"Gondrin","addr:postcode":"32330","name":"La Brouquere","phone":"+33 562 29 19 44","website":"https://www.brouquere.com/"}},"3137428599":{"location":[43.9636541,0.1845293],"ct":"FR","tp":"CS","ts":"2023-04-07T08:22:31Z","tX":512,"tY":372,"tags":{"addr:city":"Montréal","addr:country":"FR","addr:hamlet":"Les Mouliérous","addr:postcode":"32250","name":"La Rose d'Armagnac"}},"6407529354":{"location":[43.9826584,0.0163303],"ct":"FR","tp":"CS","ts":"2023-06-21T16:35:19Z","tX":512,"tY":372,"tags":{"addr:city":"Gabarret","addr:country":"FR","addr:housenumber":"454","addr:postcode":"40310","addr:street":"Avenue de la Chêneraie","caravans":"yes","drinking_water":"yes","name":"Camping municipal La Chêneraie","opening_hours":"Mar 1- Oct 31","phone":"+33 5 58 44 92 62","power_supply":"yes","shower":"yes","stars":"2","tents":"yes","toilets":"yes","website":"https://mairie-gabarret.fr/votre-mairie/camping-municipal.html"}},"6985425571":{"location":[43.9941595,0.3428534],"ct":"FR","tp":"CS","ts":"2019-11-17T18:20:26Z","tX":512,"tY":372,"tags":{"name":"Camping de Bordeneuve","website":"http://www.campingdebordeneuve.fr"}},"11146979890":{"location":[43.9491256,0.0770035],"ct":"FR","tp":"CS","ts":"2023-08-26T21:06:43Z","tX":512,"tY":372,"tags":{"cabins":"yes","caravans":"yes","email":"hello@le-poteau.com","motorhome":"yes","name":"Domaine le Poteau","phone":"+33 6 48 08 16 27","shower":"yes","tents":"yes","toilets":"yes","website":"https://le-poteau.com"}},"5312359825":{"location":[43.9939157,0.2299255],"ct":"FR","tp":"CR","ts":"2024-10-12T15:06:50Z","tX":512,"tY":372,"tags":{"caravan_site":"motorhome_stopover","caravan_site:type":"village","charge":"10 EUR","fee":"yes","name":"Aire Campingcars Fources","power_supply":"no","sanitary_dump_station":"yes","water_point":"yes"}},"5641311511":{"location":[44.0500151,0.2523094],"ct":"FR","tp":"CR","ts":"2024-10-08T17:29:33Z","tX":512,"tY":372,"tags":{"capacity":"3","caravan_site":"motorhome_stopover","caravan_site:type":"farm","description":"Foie gras farm","fee":"no","name":"La Ferme de Gagnet","phone":"+33 5 53 65 73 76; +33 6 82 36 19 82","power_supply":"yes","ref:FR:CRTA":"ACCAMAQU0470000H","source":"BDOrtho IGN; Cadastre MàJ 2015; Sirtaqui","source:ref:FR:CRTA":"Sirtaqui","website":"https://gagnet.jimdo.com/"}},"8329830247":{"location":[43.8591088,0.1038332],"ct":"FR","tp":"SD","ts":"2024-05-12T23:48:30Z","tX":512,"tY":372,"tags":{"access":"yes","fee":"no","operator":"Ville de Eauze","power_supply":"no","sanitary_dump_station:chemical_toilet":"yes","sanitary_dump_station:grey_water":"yes","sanitary_dump_station:round_drain":"yes","water_point":"yes"}},"8329837091":{"location":[43.9537503,0.1972453],"ct":"FR","tp":"SD","ts":"2024-05-13T00:42:27Z","tX":512,"tY":372,"tags":{"access":"yes","fee":"no","motorhome":"designated","operator":"Ville de Montréal du Gers","power_supply":"no","sanitary_dump_station:chemical_toilet":"yes","sanitary_dump_station:grey_water":"yes","sanitary_dump_station:round_drain":"yes","water_point":"yes"}},"11962122679":{"location":[44.0728917,0.2092225],"ct":"FR","tp":"SD","ts":"2025-03-27T10:03:06Z","tX":512,"tY":372,"tags":{}}}