{"227172261":{"location":[43.1181534,0.2783741],"ct":"FR","tp":"CR","ts":"2023-12-30T00:06:38Z","tX":512,"tY":375,"tags":{"access":"yes","addr:city":"Mauvezin","addr:housenumber":"20","addr:postcode":"65130","addr:street":"Rue du chateau","caravan_site":"parking_lot","caravan_site:type":"chateau","description":"Aire de camping car mixte avec voitures","fee":"no","name":"Aire Du Château De Mauvezin","opening_hours":"24/7","operator":"Ville de Mauvezin","power_supply":"no","sanitary_dump_station":"no","seasonal":"no","source":"Bing","surface":"asphalt","water_point":"no","website":"https://www.tourisme-bastidesdelomagne.fr/campings/aire-camping-car/","wheelchair":"yes"}},"239241890":{"location":[43.0805507,0.1408918],"ct":"FR","tp":"CS","ts":"2023-10-26T22:49:55Z","tX":512,"tY":375,"tags":{"internet_access":"wlan","internet_access:fee":"no","name":"Camping le Bigourdan","phone":"+33 5 62 95 12 57","stars":"3","website":"https://www.camping-bigourdan.com/"}},"239335129":{"location":[43.086792,0.1315515],"ct":"FR","tp":"CS","ts":"2013-09-25T17:27:31Z","tX":512,"tY":375,"tags":{"internet_access":"no","name":"Le Bedat","phone":"+33 562955817"}},"239360276":{"location":[43.0816645,0.1518684],"ct":"FR","tp":"CS","ts":"2019-06-02T22:04:27Z","tX":512,"tY":375,"tags":{"email":"campingmonloo@yahoo.com","internet_access":"wlan","name":"Camping le Monlôo","phone":"+33 5 62 95 19 65","stars":"4","wheelchair":"yes"}},"239551042":{"location":[43.0715824,0.1567091],"ct":"FR","tp":"CS","ts":"2023-10-26T23:07:53Z","tX":512,"tY":375,"tags":{"email":"info@camping-les-fruitiers.com","name":"Camping Les Fruitiers","phone":"+33 5 62 95 25 97","stars":"3","website":"https://www.camping-les-fruitiers.com/"}},"239639414":{"location":[43.075014,0.1680882],"ct":"FR","tp":"CS","ts":"2015-09-12T22:13:09Z","tX":512,"tY":375,"tags":{"fax":"+33 5 62 95 54 84","internet_access":"yes","name":"Camping Caravaneige Bellevue des Palomières","phone":"+33 5 62 91 03 97","stars":"3","website":"http://bellevue-des-palomieres.chez-alice.fr/"}},"239639415":{"location":[43.0787828,0.1667946],"ct":"FR","tp":"CS","ts":"2020-02-13T07:16:07Z","tX":512,"tY":375,"tags":{"addr:city":"Bagnères-de-Bigorre","addr:housenumber":"38","addr:postcode":"65203","addr:street":"Route des Palomières","description":"Passez des vacances relaxantes, paisibles et inoubliables grâce à camping-bellevue-des-palomieres.com. Avec notre grand choix d'offres, vous pouvez avoir la certitude de trouver celle qui vous convient. ","name":"Camping Caravaneige Les Palomières","phone":"+33 562 91 03 97;+33 6 08 94 73 90;+33 6 66 80 07 19","stars":"2","website":"https://www.camping-bellevue-des-palomieres.com/"}},"239639774":{"location":[43.0828109,0.1571519],"ct":"FR","tp":"CS","ts":"2013-09-27T20:50:33Z","tX":512,"tY":375,"tags":{"name":"Le Mesnil","phone":"+33 5 62910009"}},"243170213":{"location":[43.1121947,0.0500111],"ct":"FR","tp":"CS","ts":"2018-01-12T14:10:04Z","tX":512,"tY":375,"tags":{"fax":"+33 5 62 42 99 32","name":"Camping Le Cerf Volant","phone":"+33 5 62 42 99 32"}},"243333933":{"location":[43.0943805,0.1236914],"ct":"FR","tp":"CS","ts":"2015-09-12T22:13:52Z","tX":512,"tY":375,"tags":{"name":"Camping du Parc des Oiseaux","phone":"+33 5 62 95 30 26","stars":"2"}},"247932829":{"location":[43.170254,0.0006517],"ct":"FR","tp":"CS","ts":"2023-10-26T23:06:40Z","tX":512,"tY":375,"tags":{"email":"contact@camping-la-bergerie.com","fax":"+33 5 62 45 40 05","name":"Camping la Bergerie","phone":"+33 5 62 45 40 05","stars":"3","website":"https://www.camping-la-bergerie.com/index.htm","wheelchair":"yes"}},"261304171":{"location":[43.0862935,0.2795814],"ct":"FR","tp":"CS","ts":"2017-12-08T09:11:05Z","tX":512,"tY":375,"tags":{"email":"maison.baronnies@wanadoo.fr","fax":"+33 5 62 40 93 00","name":"Camping Le Moulin des Baronnies","phone":"+33 5 62 39 05 14","website":"http://www.campings-midi-pyrenees.com/fr/camping/3122-aire_naturelle_le_moulin_des_baronnies.html"}},"262941709":{"location":[43.1057854,0.3226604],"ct":"FR","tp":"CS","ts":"2023-10-26T23:09:54Z","tX":512,"tY":375,"tags":{"name":"Camping Les Craouès","phone":"+33 5 62 39 02 54","stars":"3","website":"https://www.camping-les-craoues.net/"}},"263140484":{"location":[43.1181383,0.3126579],"ct":"FR","tp":"CS","ts":"2019-03-20T05:27:12Z","tX":512,"tY":375,"tags":{"name":"Camping La Plénitude","phone":"+33 5 62 39 14 53","stars":"3","website":"https://www.camping-capvern.com/index.html"}},"893921109":{"location":[43.0733678,0.1523082],"ct":"FR","tp":"CR","ts":"2024-05-17T23:43:21Z","tX":512,"tY":375,"tags":{"access":"yes","bbq":"no","capacity":"28","caravan_site":"motorhome_stopover","caravan_site:type":"river;village","caravans":"no","charge":"14.80 EUR","description":"Aire de camping car","fee":"no","internet_access":"wlan","internet_access:fee":"no","maxlength":"none","motorhome":"designated","name":"Aire CAMPING-CAR PARK de Bagnères-de-Bigorre","network":"CAMPING-CAR PARK","opening_hours":"24/7","operator":"CAMPING-CAR Park","power_supply":"yes","power_supply:maxcurrent":"6","sanitary_dump_station:chemical_toilet":"yes","sanitary_dump_station:grey_water":"yes","seasonal":"no","tents":"no","trailer":"no","water_point":"yes","website":"https://www.campingcarpark.com/fr_FR/sejour/aire-etape-camping-car/occitanie/65-hautes-pyrenees/bagneres-de-bigorre"}},"1284646668":{"location":[43.1886925,0.2408765],"ct":"FR","tp":"CR","ts":"2024-05-19T14:25:47Z","tX":512,"tY":375,"tags":{"bbq":"no","capacity":"45","caravan_site":"motorhome_stopover","caravans":"no","charge":"14.08 EUR","charge:conditional":"13.38 EUR @ (Oct-Apr)","dog":"leashed","fee":"yes","landuse":"grass","maxlength":"none","name":"Aire Tournay, Porte des Hautes Pyrénées","network":"CAMPING-CAR PARK","opening_hours":"24/7","operator":"CAMPING CAR-PARK","power_supply":"yes","power_supply:capacity":"68","power_supply:maxcurrent":"6","sanitary_dump_station":"yes","tents":"no","trailer":"yes","website":"https://www.campingcarpark.com/fr_FR/sejour/aire-etape-camping-car/occitanie/65-hautes-pyrenees/tournay"}},"1310928525":{"location":[43.2430081,0.0679658],"ct":"FR","tp":"CR","ts":"2024-10-25T00:29:31Z","tX":512,"tY":375,"tags":{"capacity":"30","caravan_site":"motorhome_stopover","caravan_site:type":"town","charge":"10 EUR","dog":"yes","fee":"yes","name":"Aire De Camping-cars Tarbes Avenue de la Libération","power_supply":"yes","power_supply:capacity":"4","power_supply:charge":"2 EUR","power_supply:fee":"yes","power_supply:maxcurrent":"6","sanitary_dump_station":"yes","sanitary_dump_station:chemical_toilet":"yes","sanitary_dump_station:grey_water":"yes","socket:cee_blue":"yes","toilets":"no","water_point":"yes","water_point:charge":"2 EUR/100 liter","water_point:fee":"yes","website":"https://www.tarbes-tourisme.fr/commerces-services/aire-de-camping-cars-payante-M6511MIP065V5010IW/"}},"12085298384":{"location":[43.2874818,0.0878118],"ct":"FR","tp":"CR","ts":"2024-10-07T18:18:11Z","tX":512,"tY":375,"tags":{"bbq":"no","capacity":"22","caravan_site":"motorhome_stopover","caravan_site:type":"lake","caravans":"no","charge":"14.90 EUR","dog":"leashed","fee":"yes","internet_access":"wlan","internet_access:fee":"no","maxlength":"none","name":"Camping-Car Park Bours","network":"CAMPING-CAR PARK","opening_hours":"24/7","operator":"CAMPING-CAR PARK","power_supply":"yes","power_supply:capacity":"22","power_supply:fee":"no","power_supply:maxcurrent":"6","sanitary_dump_station":"yes","tents":"no","trailer":"yes","water_point":"yes","water_point:fee":"no","website":"https://www.campingcarpark.com/en_GB/stay/stopover-site-motorhome/occitanie/65-hautes-pyrenees/bours"}},"8308463058":{"location":[43.0732431,0.1524303],"ct":"FR","tp":"SD","ts":"2021-01-10T12:33:42Z","tX":512,"tY":375,"tags":{"description":"Station de vidange pour Camping-car","fee":"no","operator":"Ville de Bagnères-de-Bigorre","sanitary_dump_station:chemical_toilet":"yes","sanitary_dump_station:grey_water":"yes","water_point":"yes"}}}