{"346972446":{"location":[40.9201296,0.2668166],"ct":"ES","tp":"CS","ts":"2023-11-02T17:52:00Z","tX":512,"tY":384,"tags":{"addr:full":"Carretera de Prat de Compte a Arnes, km. 12","barrier":"hedge","cabins":"yes","caravans":"yes","email":"contacto@camping-elsports.com","lit":"yes","name":"Els Ports","name:ca":"Els Ports","phone":"+34977435560","static_caravans":"yes","tents":"yes","website":"https://www.camping-elsports.com/"}},"594312262":{"location":[40.8089509,0.06931],"ct":"ES","tp":"CS","ts":"2024-07-15T21:09:27Z","tX":512,"tY":384,"tags":{"addr:city":"Fuentespalda","addr:country":"ES","addr:postcode":"44587","addr:street":"Empeguera la Font","contact:phone":"+34 666 180 037","contact:website":"https://www.lafontcamping.com","name":"Camping La Font","nohousenumber":"yes"}},"1052858688":{"location":[40.8736782,0.3036361],"ct":"ES","tp":"CS","ts":"2022-11-26T04:42:44Z","tX":512,"tY":384,"tags":{"name":"Els Ateus","name:ca":"Els Ateus"}},"1069976018":{"location":[40.8820195,0.1257604],"ct":"ES","tp":"CS","ts":"2023-04-30T20:43:21Z","tX":512,"tY":384,"tags":{"name":"El Roble"}},"1088151923":{"location":[40.8349735,0.1790978],"ct":"ES","tp":"PK","ts":"2024-04-28T22:21:51Z","tX":512,"tY":384,"tags":{"access":"yes","fee":"no","motorhome":"yes","parking":"surface","surface":"compacted"}},"1163552798":{"location":[40.8272241,0.1832632],"ct":"ES","tp":"CS","ts":"2023-04-18T07:30:06Z","tX":512,"tY":384,"tags":{"addr:city":"Beceite","addr:country":"ES","addr:postcode":"44588","addr:street":"Carrer de la Planeta","caravans":"yes","contact:email":"info@beceitecamping.com","contact:phone":"+34 683 544 918","contact:website":"http://www.beceitecamping.com","name":"Camping Beceite","opening_hours":"08:00-22:00","tents":"yes"}},"1263933686":{"location":[40.9304905,0.2111658],"ct":"ES","tp":"CR","ts":"2024-03-18T23:48:17Z","tX":512,"tY":384,"tags":{"drinking_water":"yes","name":"Área de Autocaravanas Cretas","opening_hours":"24/7","power_supply":"no","sanitary_dump_station":"yes"}},"1277937862":{"location":[40.7584556,0.0422689],"ct":"ES","tp":"CR","ts":"2024-04-28T22:21:51Z","tX":512,"tY":384,"tags":{"capacity":"10","caravan_site":"motorhome_stopover","caravan_site:type":"village","fee":"no","name":"Área-Parking de Peñarroya de Tastavins","name:es":"Área-Parking de Peñarroya de Tastavins","opening_hours":"24/7","sanitary_dump_station":"yes","water_point":"yes","website":"https://www.xn--pearroyadetastavins-w3b.es/turismo/directorio-servicios-turisticos/areas-autocaravanas/"}},"1277937863":{"location":[40.8737351,0.1485138],"ct":"ES","tp":"CR","ts":"2024-04-28T22:21:51Z","tX":512,"tY":384,"tags":{"capacity":"30","caravan_site":"motorhome_stopover","caravan_site:type":"village","fee":"yes","maxstay":"24 hours","name":"Área municipal de Valderrobres","sanitary_dump_station":"yes","sanitary_dump_station:chemical_toilet":"yes","sanitary_dump_station:grey_water":"yes","seasonal":"no","water_point":"yes","website":"https://www.valderrobres.es/turismo/area-de-servicio-de-autocaravanas/"}},"3708308452":{"location":[40.90658,0.0626397],"ct":"ES","tp":"CS","ts":"2019-03-20T04:34:48Z","tX":512,"tY":384,"tags":{"addr:city":"La Fresneda","addr:postcode":"44596","capacity":"25","ele":"565","internet_access":"wlan","name":"La Fresneda","phone":"+34 978 85 40 85","website":"https://www.campinglafresneda.com/","wheelchair":"yes"}},"7888036720":{"location":[40.9629645,0.3182066],"ct":"ES","tp":"CS","ts":"2023-10-30T22:13:57Z","tX":512,"tY":384,"tags":{"name":"Mas Karmel B&B & Camping","website":"https://mas-karmel.eu/"}},"9165512225":{"location":[40.9555175,0.3175109],"ct":"ES","tp":"CR","ts":"2023-11-21T00:33:01Z","tX":512,"tY":384,"tags":{"fee":"3euro/24h","maxstay":"72 hours"}},"11564896569":{"location":[40.8039934,0.0636835],"ct":"ES","tp":"CR","ts":"2024-05-29T23:47:25Z","tX":512,"tY":384,"tags":{"opening_hours":"24/7","sanitary_dump_station":"yes","water_point":"yes"}},"11591533769":{"location":[40.8381997,0.1824548],"ct":"ES","tp":"CR","ts":"2024-04-28T22:21:51Z","tX":512,"tY":384,"tags":{"caravan_site":"motorhome_stopover","caravan_site:type":"parking_lot","fee":"no","maxstay":"24 hours","name":"Aparcamiento Autocaravanas Beceite - Calle Afueras","opening_hours":"24/7","seasonal":"no"}},"9165504092":{"location":[40.9559195,0.3172221],"ct":"ES","tp":"SD","ts":"2021-10-11T17:55:19Z","tX":512,"tY":384,"tags":{}},"9187582988":{"location":[40.9196642,0.2665848],"ct":"ES","tp":"SD","ts":"2021-10-20T14:58:59Z","tX":512,"tY":384,"tags":{}},"10291034642":{"location":[40.7585171,0.0421734],"ct":"ES","tp":"SD","ts":"2024-04-28T22:21:51Z","tX":512,"tY":384,"tags":{}},"11943369747":{"location":[40.8039393,0.0636552],"ct":"ES","tp":"SD","ts":"2024-05-29T23:47:25Z","tX":512,"tY":384,"tags":{"access":"yes","fee":"no"}}}