{"5699215":{"location":[38.6492822,0.0667912],"ct":"ES","tp":"CR","ts":"2022-05-21T14:42:01Z","tX":512,"tY":392,"tags":{"addr:city":"Calpe","addr:housenumber":"9","addr:postcode":"03710","addr:street":"Urbanización Los Almendros","capacity":"60","internet_access":"wlan","name":"Paraiso Camper Area","opening_hours":"Jan-Dec","phone":"+34 965 875 348","power_supply":"yes","sanitary_dump_station":"yes","start_date":"2011-10-07","tents":"no","washing_machine":"yes","website":"https://paraisocamper.com/"}},"5699630":{"location":[38.6516503,0.0694657],"ct":"ES","tp":"CR","ts":"2024-07-16T02:39:18Z","tX":512,"tY":392,"tags":{"addr:city":"Calpe","addr:housenumber":"2","addr:postcode":"03710","addr:street":"Avinguda Jaume I el Conqueridor","internet_access":"wlan","internet_access:fee":"customers","name":"Mediterráneo Camper Area","phone":"+34 656 424477","power_supply":"yes","sanitary_dump_station":"yes","shower":"yes","toilets":"yes","website":"https://mediterraneocamper.com/"}},"5703711":{"location":[38.6543964,0.0688326],"ct":"ES","tp":"CS","ts":"2021-07-19T19:46:31Z","tX":512,"tY":392,"tags":{"addr:city":"Calpe","addr:housenumber":"32","addr:postcode":"03710","addr:street":"Avinguda Jaume I el Conqueridor","fee":"yes","internet_access":"wlan","internet_access:fee":"yes","name":"Camping La Merced","opening_hours":"Jan-Dec","phone":"+34 965 830097","website":"http://www.lamerced.eu"}},"99602783":{"location":[38.771028,0.181423],"ct":"ES","tp":"CS","ts":"2021-07-17T21:21:21Z","tX":512,"tY":392,"tags":{"internet_access":"wlan","name":"El Naranjal","phone":"+34 965 792 989","website":"https://www.campingelnaranjal.com"}},"101598814":{"location":[38.7830672,0.1728349],"ct":"ES","tp":"CS","ts":"2022-03-28T11:31:24Z","tX":512,"tY":392,"tags":{"addr:city":"Xàbia/Jávea","addr:housenumber":"10","addr:postcode":"03730","addr:street":"Camí de la Fontana","cabins":"yes","camp_site":"deluxe","caravans":"yes","dog":"yes","email":"info@campingjavea.es","fee":"yes","motor_vehicle":"yes","name":"Camping Jávea","phone":"+34 965 791070","reservation":"yes","stars":"4","static_caravans":"yes","tents":"yes","website":"https://www.campingjavea.es"}},"178750309":{"location":[38.6586311,0.026034],"ct":"ES","tp":"CS","ts":"2016-01-28T10:26:39Z","tX":512,"tY":392,"tags":{}},"376363005":{"location":[38.6436934,0.0602927],"ct":"ES","tp":"CR","ts":"2024-08-21T23:33:14Z","tX":512,"tY":392,"tags":{"addr:city":"Calpe","addr:housenumber":"6","addr:postcode":"03710","addr:street":"Calle Estonia","fee":"yes","internet_access":"yes","internet_access:fee":"customers","name":"Camping Sol de Calpe Austral","phone":"+34 689 547 749","power_supply":"yes","sanitary_dump_station":"yes","water_point":"yes","website":"https://www.campingsoldecalpe.com/"}},"376488650":{"location":[38.6452885,0.0562809],"ct":"ES","tp":"CS","ts":"2021-07-25T09:28:12Z","tX":512,"tY":392,"tags":{"addr:city":"Calpe","addr:housenumber":"3","addr:postcode":"03710","addr:street":"Calle Eslovenia","fee":"yes","name":"CalpeMar","opening_hours":"Jan-Dec","phone":"+34 965 875 576","website":"https://www.campingcalpemar.com/"}},"442081135":{"location":[38.6543964,0.0688326],"ct":"ES","tp":"CS","ts":"2016-09-12T15:58:01Z","tX":512,"tY":392,"tags":{}},"673094445":{"location":[38.8131018,0.0259293],"ct":"ES","tp":"CS","ts":"2021-04-22T10:50:25Z","tX":512,"tY":392,"tags":{}},"1037070441":{"location":[38.6494634,0.0683738],"ct":"ES","tp":"CR","ts":"2022-11-18T09:19:59Z","tX":512,"tY":392,"tags":{"addr:city":"Calpe","addr:housenumber":"4","addr:postcode":"03710","addr:street":"Avenida Bulgaria","capacity":"88","dog":"yes","fee":"yes","internet_access":"wlan","name":"Sol de Calpe Boreal","phone":"+34 900 103 787","power_supply":"yes","sanitary_dump_station":"yes","tents":"no","toilets":"yes","website":"https://www.campingsoldecalpe.com/camper-park#is-camper-boreal"}},"1164184679":{"location":[38.721491,0.0603749],"ct":"ES","tp":"CR","ts":"2023-04-20T14:19:24Z","tX":512,"tY":392,"tags":{}},"1164184680":{"location":[38.7208526,0.0599122],"ct":"ES","tp":"CR","ts":"2023-04-20T14:19:24Z","tX":512,"tY":392,"tags":{}},"4763602622":{"location":[38.6863497,0.1192292],"ct":"ES","tp":"CS","ts":"2022-07-14T14:44:32Z","tX":512,"tY":392,"tags":{"addr:city":"Teulada","addr:housenumber":"50","addr:postcode":"03724","addr:street":"Camino del Paellero","dog":"yes","internet_access":"wlan","name":"Camping Moraira","name:ca":"Camping Moraira","name:en":"Camping  Moraira","phone":"+34 965 745249","website":"http://campingmoraira.com"}},"5046611822":{"location":[38.6484,0.0592221],"ct":"ES","tp":"CS","ts":"2017-08-20T17:30:21Z","tX":512,"tY":392,"tags":{"internet_access":"wlan","name:en":"sol Calpe"}},"5663817522":{"location":[38.6578782,0.0776201],"ct":"ES","tp":"CS","ts":"2018-06-04T13:36:18Z","tX":512,"tY":392,"tags":{"addr:housenumber":"1J","addr:postcode":"03710","addr:street":"Partida Los Pinos","internet_access":"wlan","name":"Estrella Polar","name:es":"Calpe camping estrella polar","opening_hours":"Mo-Su 09:00-21:00"}},"10207636859":{"location":[38.6500671,0.0627118],"ct":"ES","tp":"CR","ts":"2023-07-13T22:08:45Z","tX":512,"tY":392,"tags":{"name":"MarySol Camperpark","toilets":"yes"}},"9388560674":{"location":[38.7210793,0.0599686],"ct":"ES","tp":"SD","ts":"2022-01-03T16:20:03Z","tX":512,"tY":392,"tags":{"access":"yes","fee":"no","image":"https://i.imgur.com/Wi2zRsd.jpg","operator":"Ajuntament de Benissa","power_supply":"yes","sanitary_dump_station:chemical_toilet":"yes","sanitary_dump_station:grey_water":"yes","water_point":"yes"}},"9620980677":{"location":[38.7823868,0.1734814],"ct":"ES","tp":"SD","ts":"2024-04-25T21:20:31Z","tX":512,"tY":392,"tags":{"access":"customers","fee":"yes"}}}