{"992915953":{"location":[44.6091446,33.7909523],"ct":"UA","tp":"CS","ts":"2023-05-02T22:54:32Z","tX":608,"tY":369,"tags":{"name":"Т/с Мангуп","name:en":"Camp place Mangup","name:uk":"Т/с Мангуп"}},"1210703870":{"location":[44.68328,33.9058042],"ct":"UA","tp":"CS","ts":"2015-12-11T15:06:05Z","tX":608,"tY":369,"tags":{"name":"Баштановка","name:ru":"Баштановка","name:uk":"Баштанівка"}},"1210703921":{"location":[44.6286722,33.9536595],"ct":"UA","tp":"CS","ts":"2023-03-10T15:08:43Z","tX":608,"tY":369,"tags":{"backcountry":"yes","name":"Высокое","name:ru":"Высокое","name:uk":"Високе"}},"1210704051":{"location":[44.59672,33.76],"ct":"UA","tp":"CS","ts":"2023-05-02T22:54:32Z","tX":608,"tY":369,"tags":{"name":"Пятая Балка","name:uk":"П'ята Балка"}},"1210704090":{"location":[44.6396575,34.094807],"ct":"UA","tp":"CS","ts":"2023-04-03T12:40:15Z","tX":608,"tY":369,"tags":{"name":"Шелковичное","name:ru":"Шелковичное","name:uk":"Шовковичне"}},"1210704680":{"location":[44.73055,33.90917],"ct":"UA","tp":"CS","ts":"2023-05-02T22:54:32Z","tX":608,"tY":369,"tags":{"name":"Бешик-Тау","name:uk":"Бешик-Тау"}},"1210704794":{"location":[44.70223,34.05232],"ct":"UA","tp":"CS","ts":"2023-05-02T22:54:32Z","tX":608,"tY":369,"tags":{"name":"Финарос","name:uk":"Фінарос"}},"1210706137":{"location":[44.72667,34.03076],"ct":"UA","tp":"CS","ts":"2023-05-02T22:54:32Z","tX":608,"tY":369,"tags":{"name":"Научный","name:ru":"Научный","name:uk":"Науковий"}},"1210706266":{"location":[44.7578162,33.9288367],"ct":"UA","tp":"CS","ts":"2023-05-02T22:54:32Z","tX":608,"tY":369,"tags":{"name":"Кучук-Ашлама","name:uk":"Кучук-Ашлама"}},"1210707470":{"location":[44.6070542,34.09164],"ct":"UA","tp":"CS","ts":"2023-05-02T22:54:32Z","tX":608,"tY":369,"tags":{"name":"Лесниково","name:uk":"Лісникове"}},"1217486961":{"location":[44.7076262,33.9070871],"ct":"UA","tp":"CS","ts":"2017-05-22T14:13:14Z","tX":608,"tY":369,"tags":{"impromptu":"yes"}},"1918956489":{"location":[44.7394377,33.9167572],"ct":"UA","tp":"CS","ts":"2017-05-23T10:20:40Z","tX":608,"tY":369,"tags":{"impromptu":"yes","source_ref":"http://www.poiplaza.com/"}},"2193398950":{"location":[44.6854493,33.8721739],"ct":"UA","tp":"CS","ts":"2023-05-02T22:54:32Z","tX":608,"tY":369,"tags":{"name":"Алимова балка","name:uk":"Алімова балка"}},"2193412539":{"location":[44.694058,34.0578625],"ct":"UA","tp":"CS","ts":"2023-05-02T22:54:32Z","tX":608,"tY":369,"tags":{"name":"Финарос-2","name:uk":"Фінарос-2"}},"3480736032":{"location":[44.7220706,33.9499482],"ct":"UA","tp":"CS","ts":"2023-05-02T22:54:32Z","tX":608,"tY":369,"tags":{"backcountry":"yes","name":"Сарабей","name:uk":"Сарабей","operator":"ГП \"Бахчисарайское ЛХ\""}},"3514374649":{"location":[44.6327944,33.8350676],"ct":"UA","tp":"CS","ts":"2015-05-13T09:43:12Z","tX":608,"tY":369,"tags":{}},"4039499622":{"location":[44.7377563,34.0018246],"ct":"UA","tp":"CS","ts":"2023-05-02T22:54:32Z","tX":608,"tY":369,"tags":{"name":"Открытый офис","name:uk":"Відкритий офіс","phone":"+79781035829"}},"4397767932":{"location":[44.7403184,34.0665735],"ct":"UA","tp":"CS","ts":"2017-04-23T06:36:19Z","tX":608,"tY":369,"tags":{}},"4420158891":{"location":[44.7315526,33.9227691],"ct":"UA","tp":"CS","ts":"2018-12-02T19:56:36Z","tX":608,"tY":369,"tags":{"impromptu":"yes"}},"4869972793":{"location":[44.6003757,33.8550091],"ct":"UA","tp":"CS","ts":"2017-05-22T14:13:05Z","tX":608,"tY":369,"tags":{"impromptu":"yes"}},"4869973457":{"location":[44.600696,33.8513892],"ct":"UA","tp":"CS","ts":"2017-05-22T14:13:06Z","tX":608,"tY":369,"tags":{"impromptu":"yes"}},"4869973925":{"location":[44.723317,33.9479483],"ct":"UA","tp":"CS","ts":"2017-05-22T14:13:09Z","tX":608,"tY":369,"tags":{"impromptu":"yes"}},"5072875179":{"location":[44.6185404,33.7882125],"ct":"UA","tp":"CS","ts":"2023-05-02T22:54:32Z","tX":608,"tY":369,"tags":{"name":"У дяди Вани","name:uk":"У дядька Вані"}},"5368746021":{"location":[44.8078501,34.0072019],"ct":"UA","tp":"CS","ts":"2023-05-02T22:54:32Z","tX":608,"tY":369,"tags":{"name":"Бакла","name:uk":"Бакла"}},"5939154790":{"location":[44.6705697,34.0212703],"ct":"UA","tp":"CS","ts":"2023-04-03T12:13:29Z","tX":608,"tY":369,"tags":{"name":"Кемпинг на озере","name:en":"camping of the lake","name:ru":"Кемпинг на озере","name:uk":"Кемпінг на озері"}},"6699807886":{"location":[44.737594,33.9167143],"ct":"UA","tp":"CS","ts":"2023-05-02T22:54:32Z","tX":608,"tY":369,"tags":{"name":"у родника","name:uk":"Біля джерела"}},"6709862085":{"location":[44.6976023,34.0946244],"ct":"UA","tp":"CS","ts":"2023-05-02T22:54:32Z","tX":608,"tY":369,"tags":{"name":"У озера","name:uk":"Біля озера"}},"6717928187":{"location":[44.6359817,33.8280343],"ct":"UA","tp":"CS","ts":"2023-05-02T22:54:32Z","tX":608,"tY":369,"tags":{"internet_access":"wlan","name":"Логово Шрека","name:en":"Syrenian castle camp","name:ru":"Тур база около Сюйренськой крепости","name:uk":"Логове Шрека","opening_hours":"24/7","phone":"+79787277906","website":"http://djip-tur.com.ua"}},"6727275385":{"location":[44.5941272,33.7986116],"ct":"UA","tp":"CS","ts":"2020-09-18T19:07:36Z","tX":608,"tY":369,"tags":{"description":"Лагерь археологов (раскопки)"}},"6853775636":{"location":[44.7460808,33.8962988],"ct":"UA","tp":"CS","ts":"2023-05-02T22:54:32Z","tX":608,"tY":369,"tags":{"name":"BakchiCamp","name:uk":"BakchiCamp"}},"6867184186":{"location":[44.7461713,33.8962524],"ct":"UA","tp":"CS","ts":"2023-05-02T22:54:32Z","tX":608,"tY":369,"tags":{"name":"Сергей Черевко","name:uk":"Сергій Черевко"}},"7110363985":{"location":[44.8110231,33.9881875],"ct":"UA","tp":"CS","ts":"2023-05-02T22:54:32Z","tX":608,"tY":369,"tags":{"name":"Место для палатки и кострище","name:uk":"Місце для намету та вогнище"}},"7568970730":{"location":[44.6171177,33.9448662],"ct":"UA","tp":"CS","ts":"2023-05-02T22:54:32Z","tX":608,"tY":369,"tags":{"fee":"yes","name":"Частный кемпинг \"Аиргуль\"","name:uk":"Приватний кемпінг \"Аїргуль\""}},"7572080094":{"location":[44.7461075,33.8963445],"ct":"UA","tp":"CS","ts":"2023-05-02T22:54:32Z","tX":608,"tY":369,"tags":{"internet_access":"wlan","name":"Бахчикамп","name:uk":"Бахчикамп"}},"7717163585":{"location":[44.7535706,33.9172287],"ct":"UA","tp":"CS","ts":"2023-05-02T22:54:32Z","tX":608,"tY":369,"tags":{"addr:housenumber":"90В","addr:street":"улица Басенко","email":"robertdanif@gmail.com","name":"Прохладный","name:en":"Coolcamp","name:uk":"Прохолодний","phone":"+79125930901"}},"7717163685":{"location":[44.7537918,33.9175911],"ct":"UA","tp":"CS","ts":"2023-05-02T22:54:32Z","tX":608,"tY":369,"tags":{"addr:housenumber":"90В","addr:street":"улица Басенко","email":"robertdanif@gmail.com","name":"Прохладный","name:en":"Coolcamp","name:uk":"Прохолодний","phone":"+79125930901"}},"9025958117":{"location":[44.7531242,33.9165611],"ct":"UA","tp":"CS","ts":"2023-05-02T22:54:32Z","tX":608,"tY":369,"tags":{"addr:housenumber":"90Б","addr:street":"улица Басенко","name":"Прохладный","name:uk":"Прохолодний","phone":"+7 912 593-09-01"}},"9139236117":{"location":[44.5924429,33.768864],"ct":"UA","tp":"CS","ts":"2023-05-02T22:54:32Z","tX":608,"tY":369,"tags":{"name":"Грот с иконой","name:uk":"Грот з іконою"}},"9248681778":{"location":[44.5998838,33.7885816],"ct":"UA","tp":"CS","ts":"2021-12-02T19:16:47Z","tX":608,"tY":369,"tags":{}},"9248681782":{"location":[44.6265901,33.7870856],"ct":"UA","tp":"CS","ts":"2023-05-02T22:54:32Z","tX":608,"tY":369,"tags":{"name":"Отдых на природе","name:uk":"Відпочинок на природі"}},"9251198732":{"location":[44.7296031,34.0125708],"ct":"UA","tp":"CS","ts":"2021-12-02T19:16:47Z","tX":608,"tY":369,"tags":{}},"9447774194":{"location":[44.6577593,34.0034535],"ct":"UA","tp":"CS","ts":"2023-05-02T22:54:32Z","tX":608,"tY":369,"tags":{"name":"Глэмпинг \"Аскеза\"","name:uk":"Глемпінг \"Аскеза\""}},"9710733117":{"location":[44.7728857,33.9883728],"ct":"UA","tp":"CS","ts":"2022-05-03T06:57:20Z","tX":608,"tY":369,"tags":{"opening_hours":"Mo-Su 09:00-18:00"}},"9777850992":{"location":[44.5928483,33.7914016],"ct":"UA","tp":"CS","ts":"2022-05-28T21:04:44Z","tX":608,"tY":369,"tags":{"backcountry":"yes","fee":"no"}},"9802028718":{"location":[44.6481148,33.9452242],"ct":"UA","tp":"CS","ts":"2025-02-11T21:20:51Z","tX":608,"tY":369,"tags":{"backcountry":"yes","name":"Место для стоянки","name:uk":"Місце для стоянки"}},"9884435517":{"location":[44.618745,33.9443659],"ct":"UA","tp":"CS","ts":"2023-05-02T22:54:32Z","tX":608,"tY":369,"tags":{"internet_access":"wlan","name":"Чаир Глемпинг","name:en":"Chaeer Glamping","name:uk":"Чаїр Глемпінг","opening_hours":"Mo-Su 08:00-22:00","phone":"+7 978 554-99-66","website":"https://instagram.com/chaeer.camp?igshid=YmMyMTA2M2Y="}},"10719519941":{"location":[44.6563415,33.9562822],"ct":"UA","tp":"CS","ts":"2025-02-11T21:20:51Z","tX":608,"tY":369,"tags":{"backcountry":"yes","name":"Место для стоянки","name:uk":"Місце для стоянки"}},"11116763405":{"location":[44.6654126,34.0208439],"ct":"UA","tp":"CS","ts":"2023-08-15T14:57:04Z","tX":608,"tY":369,"tags":{"name":"Типпи-глэмпинг «Тишина»"}},"11116992905":{"location":[44.6653995,34.020841],"ct":"UA","tp":"CS","ts":"2023-08-15T15:06:07Z","tX":608,"tY":369,"tags":{}},"4458861792":{"location":[44.5977092,33.7598297],"ct":"UA","tp":"CR","ts":"2023-05-02T22:54:32Z","tX":608,"tY":369,"tags":{"name":"Пятая Балка","name:uk":"П'ята Балка"}},"12580264003":{"location":[44.6451718,33.9398634],"ct":"UA","tp":"CS","ts":"2025-02-11T21:20:51Z","tX":608,"tY":369,"tags":{"backcountry":"yes","name":"Место для стоянки","name:uk":"Місце для стоянки"}}}