{"1156874666":{"location":[42.1742021,77.0264554],"ct":"KG","tp":"CS","ts":"2023-03-24T06:49:24Z","tX":731,"tY":379,"tags":{"email":"maatkerimov.bk@gmail.com","landuse":"retail","name:en":"Sayakat yurt camp","name:fr":"Sayakat yurt camp","phone":"0703440030"}},"1159390422":{"location":[42.1460483,77.0948691],"ct":"KG","tp":"CS","ts":"2023-04-03T12:36:53Z","tX":731,"tY":379,"tags":{"landuse":"commercial","name":"Yurt Camp \"Manjyly-Ata\""}},"1323049296":{"location":[42.0922232,77.1305157],"ct":"KG","tp":"CS","ts":"2024-10-11T01:19:29Z","tX":731,"tY":379,"tags":{"name":"yurtcamp"}},"1857059026":{"location":[42.1579225,77.1247355],"ct":"KG","tp":"CS","ts":"2012-08-08T12:04:00Z","tX":731,"tY":379,"tags":{"service":"no"}},"5809798903":{"location":[42.035094,77.2230613],"ct":"KG","tp":"CS","ts":"2018-08-05T06:17:50Z","tX":731,"tY":379,"tags":{"backcountry":"yes","ele":"3200"}},"6576762596":{"location":[42.164822,77.0284675],"ct":"KG","tp":"CS","ts":"2019-06-28T13:28:14Z","tX":731,"tY":379,"tags":{"name":"Арт Мурас","name:en":"Art Muras Yurt Camp"}},"6590163372":{"location":[42.1713953,77.0467812],"ct":"KG","tp":"CS","ts":"2019-07-05T03:21:57Z","tX":731,"tY":379,"tags":{"backcountry":"yes"}},"6630469485":{"location":[42.1725762,77.0265392],"ct":"KG","tp":"CS","ts":"2023-03-24T06:49:24Z","tX":731,"tY":379,"tags":{"email":"gulzat.kadyrali@gmail.com","name":"Щербет","name:en":"Sherbet","phone":"+996558980990"}},"11173476437":{"location":[42.1704923,77.0419519],"ct":"KG","tp":"CR","ts":"2023-09-07T06:39:07Z","tX":731,"tY":379,"tags":{"name":"Видовое место на озеро"}}}