{"831594438":{"location":[46.8869504,-88.2084137],"ct":"US","tp":"CS","ts":"2024-03-08T13:45:41Z","tX":261,"tY":360,"tags":{"addr:city":"Skanee","addr:housenumber":"12793","addr:postcode":"49962","addr:state":"MI","addr:street":"Witz Road","leisure":"marina","name":"Witzs Marina & Campsites","phone":"+1 906 524 7795","seamark:harbour:category":"marina","seamark:type":"harbour","website":"http://www.witzmarina.com/"}},"1119860804":{"location":[46.8651437,-88.0847014],"ct":"US","tp":"CS","ts":"2024-03-08T13:48:17Z","tX":261,"tY":360,"tags":{"access":"yes","capacity":"21","capacity:tents":"21","charge":"20 USD","county":"Baraga","drinking_water":"yes","fee":"yes","midnr:park_id":"640","name":"Big Eric's Bridge State Forest Campground","operator":"Michigan Department of Natural Resources","payment:cash":"yes","payment:cheque":"yes","source":"Michigan DNR","tents":"yes","website":"https://www.michigandnr.com/parksandtrails/Details.aspx?id=640&type=SFCG"}},"1119865588":{"location":[46.9106629,-88.0417843],"ct":"US","tp":"CS","ts":"2022-12-06T14:06:05Z","tX":261,"tY":360,"tags":{"description":"this appears to be an unregulated state forest dispersed camping area","name":"Huron River Beach and Campground","operator":"Michigan Department of Natural Resources"}}}