{"265875927":{"location":[45.5780612,-88.0988805],"ct":"US","tp":"CS","ts":"2022-11-02T15:16:48Z","tX":261,"tY":366,"tags":{"addr:city":"Dunbar","addr:housenumber":"W10085","addr:postcode":"54119","addr:state":"WI","addr:street":"Pike Plains Road","alt_name":"Northland Campus","name":"Northland Camp & Conference Center","old_name":"Northland International University","operator":"Northland International, Inc","phone":"+1 715 324 4200","religion":"christian","website":"https://www.northlandcamp.org/","wheelchair":"yes","wikidata":"Q15402042","wikipedia":"en:Northland Scholars Academy"}},"1068697709":{"location":[45.3419257,-88.2371132],"ct":"US","tp":"CS","ts":"2022-06-11T03:11:24Z","tX":261,"tY":366,"tags":{"access":"yes","fee":"yes","name":"Governor Thompson State Park Campground","operator":"Wisconsin DNR"}},"1464293027":{"location":[45.3486736,-88.1997113],"ct":"US","tp":"CS","ts":"2011-10-12T19:07:09Z","tX":261,"tY":366,"tags":{"name":"Old Veterans State Camp Ground"}},"9800328186":{"location":[45.3429045,-88.2413538],"ct":"US","tp":"SD","ts":"2022-06-06T22:42:49Z","tX":261,"tY":366,"tags":{}}}