{"2449826":{"location":[43.025543,-88.0087225],"ct":"US","tp":"CR","ts":"2022-03-28T11:27:06Z","tX":261,"tY":376,"tags":{"name":"Wisconsin State Fair Park RV Park","parking":"surface"}},"362689475":{"location":[43.0268605,-87.9017143],"ct":"US","tp":"PK","ts":"2025-01-15T05:41:47Z","tX":261,"tY":376,"tags":{"access":"yes","addr:city":"Milwaukee","addr:housenumber":"921","addr:postcode":"53202","addr:state":"WI","addr:street":"East Erie Street","alt_name":"SP Plus","brand":"SP+","brand:wikidata":"Q7598289","fee":"yes","hgv":"yes","maxheight":"18'","maxlength":"30'","motorcycle":"yes","motorhome":"yes","name":"SP+","opening_hours":"24/7","operator":"SP+","operator:type":"private","operator:wikidata":"Q7598289","owner":"City of Milwaukee","parking":"surface","payment:american_express":"yes","payment:cash":"yes","payment:mastercard":"yes","payment:visa":"yes","phone":"+1 414-291-3685","ref":"P","surface":"asphalt","website":"https://parking.com/milwaukee/lot/921-east-erie-street"}},"508246552":{"location":[42.8356705,-87.9092305],"ct":"US","tp":"CR","ts":"2024-01-17T03:51:07Z","tX":261,"tY":376,"tags":{"addr:city":"Caledonia","addr:housenumber":"8425","addr:state":"WI","addr:street":"Hwy 38","brand":"Yogi Bear's Jellystone Park","brand:wikidata":"Q8054389","name":"Yogi Bear's Jellystone Park Camp Resort","official_name":"Yogi Bear's Jellystone Park Camp-Resorts"}},"722809287":{"location":[42.899863,-88.1663011],"ct":"US","tp":"CS","ts":"2021-03-23T20:29:55Z","tX":261,"tY":376,"tags":{}},"769768362":{"location":[42.9338434,-88.2406687],"ct":"US","tp":"CS","ts":"2022-01-25T12:33:03Z","tX":261,"tY":376,"tags":{"addr:city":"Waukesha","addr:housenumber":"S62W24528","addr:state":"WI","addr:street":"Townline Road","name":"Chinook Program Center","operator":"Girl Scouts of Wisconsin Southeast"}},"7967027021":{"location":[43.0238241,-88.0091221],"ct":"US","tp":"CS","ts":"2020-10-02T19:06:11Z","tX":261,"tY":376,"tags":{"group_only":"yes","name":"Camp Ammon"}}}