{"495565769":{"location":[42.6338649,-88.1860837],"ct":"US","tp":"CS","ts":"2020-05-19T05:15:08Z","tX":261,"tY":377,"tags":{"name":"Sunset Campground","operator":"Richard Bong State Recreation Area"}},"495565770":{"location":[42.6332991,-88.1156221],"ct":"US","tp":"CS","ts":"2024-09-15T18:50:14Z","tX":261,"tY":377,"tags":{"area":"yes","name":"Sunrise Campground","operator":"Richard Bong State Recreation Area"}},"508294889":{"location":[42.6953254,-87.9607384],"ct":"US","tp":"CR","ts":"2019-03-22T19:13:35Z","tX":261,"tY":377,"tags":{"name":"Travelers Inn Campground"}},"676934971":{"location":[42.7509456,-88.2295675],"ct":"US","tp":"CS","ts":"2019-03-15T00:03:47Z","tX":261,"tY":377,"tags":{"name":"W.R. Wadewitz Nature Camp"}},"1127849671":{"location":[42.6010098,-88.0779193],"ct":"US","tp":"CR","ts":"2023-01-06T17:54:33Z","tX":261,"tY":377,"tags":{"addr:city":"Bristol","addr:housenumber":"22230","addr:postcode":"53104","addr:state":"WI","addr:street":"45th Street","name":"Happy Acres Kampground","phone":"+1-262-857-7373","website":"https://www.happyacres.com/"}}}