{"1215608831":{"location":[42.2025609,-88.0265456],"ct":"US","tp":"CS","ts":"2023-10-14T17:11:07Z","tX":261,"tY":379,"tags":{"access":"customers","caravans":"no","fee":"no","group_only":"yes","name":"Elaine Frank Apachi Day Camp","static_caravans":"no","tents":"no","website":"https://daycamp.jccchicago.org/our-camps/elaine-frank-apachi/"}},"4593092690":{"location":[42.1423367,-88.0626704],"ct":"US","tp":"CS","ts":"2023-11-02T19:27:48Z","tX":261,"tY":379,"tags":{"addr:city":"Palatine","addr:housenumber":"1801","addr:postcode":"60074","addr:state":"IL","addr:street":"North Quentin Road","fee":"yes","leisure":"park","name":"Camp Reinberg","operator":"Forest Preserve District of Cook County","operator:type":"public","operator:wikidata":"Q5469080","operator:wikipedia":"en:Forest Preserve District of Cook County","owner":"Forest Preserve District of Cook County","website":"https://fpdcc.com/camping"}},"4593110176":{"location":[42.1503214,-87.8973647],"ct":"US","tp":"CS","ts":"2024-08-04T16:33:52Z","tX":261,"tY":379,"tags":{"addr:city":"Northbrook","addr:housenumber":"200","addr:postcode":"60062","addr:state":"IL","addr:street":"Portwine Road","fee":"yes","group_only":"yes","name":"Camp Dan Beard","operator":"Billy Casper Golf","owner":"Forest Preserve District of Cook County","website":"https://fpdcc.com/camping"}},"4772071448":{"location":[42.2363199,-88.2075491],"ct":"US","tp":"CS","ts":"2017-04-03T03:51:58Z","tX":261,"tY":379,"tags":{}},"12099704350":{"location":[42.0743783,-87.8918385],"ct":"US","tp":"CS","ts":"2024-08-08T23:35:26Z","tX":261,"tY":379,"tags":{"group_only":"yes","name":"Camp Baden Powell (Defunct)","operator":"Forest Preserve District of Cook County"}},"12398239026":{"location":[42.2372336,-88.1773073],"ct":"US","tp":"CS","ts":"2024-12-05T17:00:39Z","tX":261,"tY":379,"tags":{"group_only":"yes","name":"Fox River Youth Group Camping Area","operator":"Lake County Forest Preserves"}}}