{"723587485":{"location":[40.2847242,-88.1495497],"ct":"US","tp":"CS","ts":"2019-09-10T21:17:31Z","tX":261,"tY":386,"tags":{"addr:city":"Rantoul","addr:housenumber":"711","addr:postcode":"61866","addr:state":"IL","addr:street":"E Chandler Road","capacity":"95","charge":"Campground fees are $26.50 per day, and $150 per week (from April to October) and there is a two week limit. Off-season prices (from November to March) are $20 per day. Water is not available in the off season.","description":"Prairie Pines Campground features 95 lots, each with hookups for water, sewage and electric. The campground is open year round with handicap accessible restroom, shower, and laundry facilities. ","fee":"yes","name":"Prairie Pines Campground","phone":"+1-217-893-0438","reservation":"yes","website":"http://www.myrantoul.com/373/Campground"}},"806461442":{"location":[40.3340553,-87.9322844],"ct":"US","tp":"CS","ts":"2020-05-21T23:03:51Z","tX":261,"tY":386,"tags":{}},"824249942":{"location":[40.3769499,-87.9606507],"ct":"US","tp":"CS","ts":"2025-04-26T04:33:43Z","tX":261,"tY":386,"tags":{}},"7925871444":{"location":[40.3759163,-87.9623915],"ct":"US","tp":"CS","ts":"2020-09-20T18:21:19Z","tX":261,"tY":386,"tags":{"group_only":"yes"}},"7925824189":{"location":[40.3782818,-87.9574618],"ct":"US","tp":"SD","ts":"2020-09-20T17:41:08Z","tX":261,"tY":386,"tags":{}}}