{"505960434":{"location":[36.7349679,-88.0028552],"ct":"US","tp":"CR","ts":"2019-02-17T15:31:07Z","tX":261,"tY":399,"tags":{"addr:city":"Golden Pond","addr:housenumber":"5100","addr:postcode":"42211","addr:street":"Laura Furnace Road","alt_name":"Wranglers Campground at Land Between The Lakes","capacity":"232","horse":"designated","name":"Wranglers Campground","operator":"United States Forest Service","phone":"+1-270-924-2201","website":"https://www.landbetweenthelakes.us/seendo/camping/wranglers-campground/"}},"505968704":{"location":[36.855658,-88.021047],"ct":"US","tp":"CS","ts":"2019-02-18T12:59:34Z","tX":261,"tY":399,"tags":{"addr:city":"Golden Pond","addr:housenumber":"5501","addr:postcode":"42211","addr:state":"KY","addr:street":"Energy Lake Drive","alt_name":"Energy Lake Campground at Land Between The Lakes","fee":"yes","name":"Energy Lake Campground","opening_hours":"Mar 1-Nov 30 open","phone":"+1-270-924-2270","website":"https://www.landbetweenthelakes.us/seendo/camping/energy-lake-campground/"}},"589567523":{"location":[36.6143958,-87.9159686],"ct":"US","tp":"CS","ts":"2018-05-20T06:06:19Z","tX":261,"tY":399,"tags":{}},"848656194":{"location":[36.7730856,-88.1350087],"ct":"US","tp":"CS","ts":"2020-09-17T22:34:11Z","tX":261,"tY":399,"tags":{}},"882164050":{"location":[36.7713291,-88.0605572],"ct":"US","tp":"CS","ts":"2020-12-07T23:42:24Z","tX":261,"tY":399,"tags":{"name":"Golden Pond Visitor Center FREE"}},"3007793458":{"location":[36.7744837,-88.1064676],"ct":"US","tp":"CS","ts":"2019-02-17T15:31:14Z","tX":261,"tY":399,"tags":{"name":"Fenton Campground & Boat Ramp at Land Between The Lakes","operator":"USDA Forest Service","phone":"270-924-2000","website":"https://www.landbetweenthelakes.us/seendo/camping/backcountry/"}}}