{"7381561":{"location":[36.487196,-88.037465],"ct":"US","tp":"CS","ts":"2019-02-18T03:18:38Z","tX":261,"tY":400,"tags":{"addr:city":"Dover","addr:housenumber":"621","addr:postcode":"37157","addr:state":"TN","addr:street":"Fort Henry Road","alt_name":"Piney Campground at Land Between The Lakes","capacity":"384","caravans":"yes","fee":"yes","name":"Piney Campground","operator":"United States Forest Service","phone":"+1-931-232-5331","tents":"yes","website":"https://www.landbetweenthelakes.us/seendo/camping/piney-campground/"}},"384870488":{"location":[36.4316915,-88.1071661],"ct":"US","tp":"CR","ts":"2015-12-07T18:29:45Z","tX":261,"tY":400,"tags":{}},"535291130":{"location":[36.4408174,-88.0864001],"ct":"US","tp":"CS","ts":"2019-02-17T15:11:44Z","tX":261,"tY":400,"tags":{"caravans":"yes","fee":"yes","name":"Paris Landing State Park Campground","power_supply":"yes","tents":"yes","website":"https://tnstateparks.com/parks/campground/paris-landing-campgrounds"}},"589564650":{"location":[36.5577168,-87.9045047],"ct":"US","tp":"CS","ts":"2023-01-12T16:04:31Z","tX":261,"tY":400,"tags":{"name":"Gatlin Point Campground at Land Between The Lakes","operator":"USDA Forest Service","phone":"270-924-2000","website":"https://www.landbetweenthelakes.us/seendo/camping/backcountry/"}},"649727112":{"location":[36.4799502,-87.9284762],"ct":"US","tp":"CS","ts":"2018-11-27T21:47:17Z","tX":261,"tY":400,"tags":{}},"670033436":{"location":[36.4144191,-88.1319955],"ct":"US","tp":"CS","ts":"2019-02-12T18:39:27Z","tX":261,"tY":400,"tags":{"addr:city":"Buchanan","addr:housenumber":"6290","addr:postcode":"38222","addr:state":"TN","addr:street":"East Antioch Road","cabins":"yes","caravans":"yes","drinking_water":"yes","fee":"yes","internet_access":"wlan","name":"Paris Landing / Kentucky Lake KOA","phone":"+1-731-642-6895","power_supply":"yes","tents":"yes","website":"https://koa.com/campgrounds/paris-landing/"}}}