{"1262253187":{"location":[33.0331276,130.0199814],"ct":"JP","tp":"CS","ts":"2024-03-13T16:50:50Z","tX":881,"tY":412,"tags":{"name":"広川原キャンプ場","name:ja":"広川原キャンプ場","name:ja-Hira":"ひろこうらきゃんぷじょう","operator":"嬉野市","website":"https://www.city.ureshino.lg.jp/shisetsu/hirokora.html"}},"1387992110":{"location":[32.9967797,130.0610398],"ct":"JP","tp":"CS","ts":"2025-05-19T11:39:09Z","tX":881,"tY":412,"tags":{"access":"yes","addr:city":"鹿島市","addr:postcode":"849-1314","addr:province":"佐賀県","addr:quarter":"山浦本城国有林内","camp_site":"serviced","capacity:persons":"150","capacity:tents":"5","name":"奥平谷キャンプ場","operator":"鹿島市","tents":"yes"}},"1841320883":{"location":[32.9105249,129.7538455],"ct":"JP","tp":"CS","ts":"2012-07-28T13:28:01Z","tX":881,"tY":412,"tags":{}},"4773807036":{"location":[32.8633433,129.8806407],"ct":"JP","tp":"CS","ts":"2022-12-26T16:17:43Z","tX":881,"tY":412,"tags":{}},"5575272628":{"location":[33.0537755,129.821471],"ct":"JP","tp":"CS","ts":"2018-04-24T06:32:09Z","tX":881,"tY":412,"tags":{"name":"川棚教育キャンプ場","operator":"川棚教育委員会"}},"7979513647":{"location":[32.8986056,129.7651755],"ct":"JP","tp":"CS","ts":"2020-10-06T04:01:35Z","tX":881,"tY":412,"tags":{"addr:block_number":"2224","addr:city":"長崎市","addr:postcode":"8513103","addr:province":"長崎","addr:quarter":"琴海戸根町","capacity":"50","name":"清流と棚田の里"}}}