{"3495842560":{"location":[27.9365462,84.7027116],"ct":"NP","tp":"CS","ts":"2015-05-03T21:12:14Z","tX":752,"tY":429,"tags":{}},"4659784093":{"location":[27.8610526,84.6417427],"ct":"NP","tp":"CS","ts":"2017-05-23T09:39:11Z","tX":752,"tY":429,"tags":{"internet_access":"wlan","name":"Gorkha Beach Resort","name:en":"Gorkha Beach Resort"}},"4796444522":{"location":[27.8669507,84.6354059],"ct":"NP","tp":"CS","ts":"2018-01-04T12:53:00Z","tX":752,"tY":429,"tags":{"name":"Adrenaline Rush Rafting Camp","name:de":"Adrenaline Rush Rafting Camp","name:en":"Adrenaline Rush Rafting Camp"}},"5289258123":{"location":[27.7989507,84.7263002],"ct":"NP","tp":"CS","ts":"2017-12-17T09:32:09Z","tX":752,"tY":429,"tags":{"name:en":"Camp Springwood"}},"5544427722":{"location":[27.6899478,84.4455435],"ct":"NP","tp":"CS","ts":"2018-04-11T07:14:05Z","tX":752,"tY":429,"tags":{"name:en":"Sunil vanja Home"}},"5762624154":{"location":[27.6884357,84.4387976],"ct":"NP","tp":"CS","ts":"2018-07-16T02:07:03Z","tX":752,"tY":429,"tags":{"name:en":"Mamghar"}},"5781638953":{"location":[27.693776,84.4203394],"ct":"NP","tp":"CS","ts":"2018-07-24T11:32:08Z","tX":752,"tY":429,"tags":{"name:en":"Ghadiwlal uncle"}},"6673363085":{"location":[27.6845711,84.4481452],"ct":"NP","tp":"CS","ts":"2019-08-02T06:27:02Z","tX":752,"tY":429,"tags":{"name:en":"Daiko Sasurali"}},"6871406285":{"location":[27.6849008,84.4491646],"ct":"NP","tp":"CS","ts":"2019-10-11T16:03:18Z","tX":752,"tY":429,"tags":{"name:en":"Rachna Vanji"}},"6871406286":{"location":[27.8271775,84.3841188],"ct":"NP","tp":"CS","ts":"2019-10-11T16:03:19Z","tX":752,"tY":429,"tags":{"name:en":"yam maya didi"}},"6954047885":{"location":[27.7023074,84.4545204],"ct":"NP","tp":"CS","ts":"2019-11-07T11:57:59Z","tX":752,"tY":429,"tags":{"name:en":"Dinesh kafle"}},"7257199485":{"location":[27.7092674,84.4146442],"ct":"NP","tp":"CS","ts":"2020-03-02T06:50:01Z","tX":752,"tY":429,"tags":{"name:en":"Gaidakot Ghar"}},"7669203800":{"location":[27.6900737,84.430519],"ct":"NP","tp":"CS","ts":"2020-06-30T09:21:20Z","tX":752,"tY":429,"tags":{"group_only":"yes","name":"Ground (Open space)"}}}