{"4540632691":{"location":[19.5329492,73.7698021],"ct":"IN","tp":"CS","ts":"2023-10-22T22:00:03Z","tX":721,"tY":455,"tags":{"addr:postcode":"422604","addr:street":"bhandardra Maharashtra","email":"khade.shivram639@gmail.com","name:en":"Bhandardra lake camping","opening_hours":"Mo-Su 09:00-12:00","operator":"shivram khade","phone":"8796815328","website":"https://www.incrediblebhandardara.com/"}},"5095242821":{"location":[19.5334195,73.7712603],"ct":"IN","tp":"CS","ts":"2017-09-10T15:51:57Z","tX":721,"tY":455,"tags":{"addr:postcode":"422604","addr:street":"State Highway 44","email":"khade.shivram639@gmail.com","name:en":"Bhandardara Camping and guide","opening_hours":"24/7","operator":"shivram khade","phone":"917517219556","website":"http://www.increddiblebhandardaa.com"}},"12464812985":{"location":[19.5950027,73.6216331],"ct":"IN","tp":"CS","ts":"2024-12-31T08:04:10Z","tX":721,"tY":455,"tags":{"name":"Shepherd Camp"}},"12464879052":{"location":[19.6036928,73.6767071],"ct":"IN","tp":"CS","ts":"2024-12-31T08:03:43Z","tX":721,"tY":455,"tags":{"name":"Shepherd House"}},"12464885301":{"location":[19.5799716,73.6922269],"ct":"IN","tp":"CS","ts":"2024-12-31T08:03:41Z","tX":721,"tY":455,"tags":{"name":"Campsite (no water)"}},"12553509501":{"location":[19.5054492,73.7016128],"ct":"IN","tp":"CS","ts":"2025-02-03T09:32:01Z","tX":721,"tY":455,"tags":{"name":"Camping place for the tent with a nice view"}},"12555764101":{"location":[19.4985218,73.7041776],"ct":"IN","tp":"CS","ts":"2025-02-04T04:37:16Z","tX":721,"tY":455,"tags":{"name":"Good place for tent"}},"12555764203":{"location":[19.4977647,73.7047654],"ct":"IN","tp":"CS","ts":"2025-02-04T04:37:26Z","tX":721,"tY":455,"tags":{}}}