{"119083732":{"location":[53.371343,5.2362877],"ct":"NL","tp":"CS","ts":"2024-07-15T16:55:50Z","tX":526,"tY":331,"tags":{"email":"info@campingcnossen.nl","landcover":"grass","name":"Camping Cnossen","phone":"+31 562 442 321","source":"3dShapes","website":"https://www.campingcnossen.nl/"}},"119084418":{"location":[53.3698231,5.2145596],"ct":"NL","tp":"CS","ts":"2023-08-20T15:04:09Z","tX":526,"tY":331,"tags":{"caravans":"yes","motorhome":"yes","name":"Natuurkampeerterrein West-Terschelling","operator":"Staatsbosbeheer","shower":"yes","tents":"yes","toilets":"yes","website":"https://www.logerenbijdeboswachter.nl/natuurkampeerterreinen/west-terschelling#parkMap"}},"119090768":{"location":[53.373738,5.2421476],"ct":"NL","tp":"CS","ts":"2024-07-16T20:42:45Z","tX":526,"tY":331,"tags":{"email":"info@campingwulp.nl","landcover":"grass","name":"Camping Wulp","phone":"+31 562 442 056","source":"3dShapes","website":"https://www.camping-wulp.nl"}},"514250527":{"location":[53.3790078,5.2565342],"ct":"NL","tp":"CS","ts":"2024-01-25T21:32:05Z","tX":526,"tY":331,"tags":{"caravans":"yes","fee":"yes","name":"Camping Cupido","static_caravans":"yes","tents":"yes"}},"515160222":{"location":[53.372421,5.2205749],"ct":"NL","tp":"CS","ts":"2018-01-06T23:32:14Z","tX":526,"tY":331,"tags":{"name":"Eend"}},"828902128":{"location":[53.3722871,5.2386955],"ct":"NL","tp":"CS","ts":"2024-07-16T20:42:45Z","tX":526,"tY":331,"tags":{"email":"info@campinglandzicht.nl","landcover":"grass","name":"Camping Landzicht","phone":"+31 562 442 023","source":"3dShapes","website":"https://campinglandzicht.nl"}},"828902129":{"location":[53.3751984,5.2470387],"ct":"NL","tp":"CS","ts":"2024-07-16T22:02:02Z","tX":526,"tY":331,"tags":{"landcover":"grass"}},"1175778429":{"location":[53.3824479,5.2574371],"ct":"NL","tp":"CS","ts":"2023-06-17T17:57:56Z","tX":526,"tY":331,"tags":{"addr:city":"Hee","addr:housenumber":"20","addr:postcode":"8882HE","addr:street":"Heester Kooiweg","caravans":"yes","mobile":"+31 6 25003648","name":"De Kooi","phone":"+31 562 442 743","shower":"yes","tents":"yes","toilets":"yes","website":"https://campingdekooi.nl/"}},"2757783810":{"location":[53.3741149,5.2456565],"ct":"NL","tp":"CS","ts":"2016-05-15T10:27:36Z","tX":526,"tY":331,"tags":{"addr:city":"West-Terschelling","addr:housenumber":"19","addr:postcode":"8881HA","addr:street":"Hoofdweg","name":"Caravan en Chaletverhuur Schittrum Eldorado","source":"BAG","source:date":"2014-03-24"}},"2757783836":{"location":[53.3747034,5.2445765],"ct":"NL","tp":"CS","ts":"2016-05-15T10:27:36Z","tX":526,"tY":331,"tags":{"addr:city":"West-Terschelling","addr:housenumber":"2","addr:postcode":"8881HE","addr:street":"Duinweg Halfweg","name":"R. en P. Schroo","source":"BAG","source:date":"2014-03-24"}},"2757783845":{"location":[53.3765033,5.2695251],"ct":"NL","tp":"CS","ts":"2016-05-15T10:27:37Z","tX":526,"tY":331,"tags":{"addr:city":"Kaard","addr:housenumber":"2","addr:postcode":"8883HD","addr:street":"Kaard","name":"Duinland Kampeerterrein","source":"BAG","source:date":"2014-03-24"}},"2757784369":{"location":[53.3785338,5.2534898],"ct":"NL","tp":"CS","ts":"2016-05-15T10:27:36Z","tX":526,"tY":331,"tags":{"addr:city":"Hee","addr:housenumber":"7","addr:postcode":"8882HA","addr:street":"Duinweg Hee","name":"Bungalowpark de Riesen","source":"BAG","source:date":"2014-03-24"}}}