{"90261563":{"location":[52.7232808,5.0225094],"ct":"NL","tp":"CS","ts":"2025-01-30T12:11:52Z","tX":526,"tY":334,"tags":{"name":"Camping Rovers","source":"local survey & PDOK 0.07 18-08-22","surface":"grass"}},"90262258":{"location":[52.7122598,5.0649798],"ct":"NL","tp":"CS","ts":"2023-06-13T05:56:36Z","tX":526,"tY":334,"tags":{"cabins":"yes","capacity:cabins":"4","capacity:pitches":"25","caravans":"yes","email":"r.houter@quicknet.nl","landcover":"grass","mobile":"+31 6 47054992","name":"Camping Ruimzicht","phone":"+31 229 201 553","shower":"yes","tents":"yes","toilets":"yes","website":"https://www.camping-ruimzicht.nl/"}},"107861598":{"location":[52.7421368,4.9484481],"ct":"NL","tp":"CS","ts":"2023-03-03T19:00:21Z","tX":526,"tY":334,"tags":{"name":"Manuelhoeve","source":"3dShapes","website":"https://www.manuelhoeve.nl"}},"107862184":{"location":[52.7219158,4.9505207],"ct":"NL","tp":"CS","ts":"2023-08-21T17:00:10Z","tX":526,"tY":334,"tags":{"caravans":"yes","drinking_water":"yes","name":"Camping Boven 't Maaiveld","power_supply":"yes","shower":"yes","source":"3dShapes","tents":"yes","toilets":"yes"}},"225118262":{"location":[52.8990998,5.0196339],"ct":"NL","tp":"CS","ts":"2024-02-27T16:18:23Z","tX":526,"tY":334,"tags":{"addr:city":"Slootdorp","addr:housenumber":"12","addr:postcode":"1774NB","addr:street":"Den Oeverseweg","caravans":"yes","email":"info@hetbosroept.nl","motorhome":"yes","name":"Natuurkampeerterrein Het Bos Roept","phone":"+31 6 42708416","shower":"yes","tents":"yes","toilets":"yes","website":"https://www.hetbosroept.nl/nl/home/"}},"300516008":{"location":[52.758055,5.1092316],"ct":"NL","tp":"CS","ts":"2023-06-22T21:08:34Z","tX":526,"tY":334,"tags":{"addr:city":"Medemblik","addr:housenumber":"61","addr:postcode":"1671LP","addr:street":"Brakeweg","caravans":"yes","email":"info@lodge61.nl","motorhome":"yes","name":"Lodge 61","phone":"+31 227 541 671","shower":"yes","tents":"yes","toilets":"yes","website":"https://lodge61.nl/"}},"387384256":{"location":[52.7241621,4.9594962],"ct":"NL","tp":"CS","ts":"2023-06-13T05:56:36Z","tX":526,"tY":334,"tags":{"caravans":"yes","mobile":"+31 6 51520721","motorhome":"yes","name":"Camping de Gouw","phone":"+31 229 581 473","shower":"yes","tents":"yes","toilets":"yes","website":"https://www.campingdegouw.nl"}},"483466333":{"location":[52.8228659,4.9326124],"ct":"NL","tp":"CS","ts":"2017-03-29T14:51:49Z","tX":526,"tY":334,"tags":{}},"497852443":{"location":[52.7243075,4.996408],"ct":"NL","tp":"CS","ts":"2023-05-30T21:05:03Z","tX":526,"tY":334,"tags":{"contact:website":"https://www.hetstammeland.nl/page7.html","name":"Het Stammeland"}},"514568998":{"location":[52.7032043,5.0623084],"ct":"NL","tp":"CS","ts":"2020-07-22T23:46:06Z","tX":526,"tY":334,"tags":{"access":"private","caravans":"yes","name":"Naturistenvereniging 'De Vrije Vogels'","nudism":"designated","tents":"yes","website":"https://www.devrijevogelsnfn.nl/"}},"825946040":{"location":[52.6982811,4.9428867],"ct":"NL","tp":"CR","ts":"2025-01-23T23:18:52Z","tX":526,"tY":334,"tags":{"capacity":"6","caravan_site":"motorhome_stopover","caravan_site:type":"village","drinking_water":"no","fee":"yes","internet_access":"wlan","maxlength":"10","name":"Camperplaats Parking De Wijzend - Opmeer","power_supply":"yes","sanitary_dump_station":"yes","surface":"grass_paver","tents":"no","toilets":"no","wheelchair":"yes"}},"849781391":{"location":[52.728877,5.0321126],"ct":"NL","tp":"CS","ts":"2020-09-21T13:00:03Z","tX":526,"tY":334,"tags":{}},"1160525401":{"location":[52.8898368,5.0470125],"ct":"NL","tp":"CS","ts":"2023-04-07T17:05:33Z","tX":526,"tY":334,"tags":{"caravans":"yes","email":"info@catharinahoeve.nl","facebook":"https://www.facebook.com/people/Mini-Camping-Catharina-Hoeve","mobile":"+31 6 21533046","name":"Catharina Hoeve","old_name":"Schapenhoeve","phone":"+31 227 511 404","shower":"yes","tents":"yes","toilets":"yes"}},"1189989099":{"location":[52.8051787,5.0203534],"ct":"NL","tp":"CS","ts":"2023-07-17T18:02:45Z","tX":526,"tY":334,"tags":{"capacity:motorhome":"18","caravans":"no","email":"nt.sijm@gmail.com","motorhome":"designated","name":"Bij Sijm","phone":"+31 6 44430497;+31 6 50605042","shower":"yes","toilets":"yes"}},"1272897606":{"location":[52.8561938,5.0103362],"ct":"NL","tp":"CR","ts":"2025-02-14T11:18:30Z","tX":526,"tY":334,"tags":{"addr:city":"Slootdorp","addr:housenumber":"7","addr:postcode":"1774NH","addr:street":"Wierweg","caravan_site":"motorhome_stopover","caravan_site:type":"flower_farm","caravans":"no","charge":"17.10 EUR","contact:phone":"+31 6 54325008","contact:website":"https://munsterflowers.nl/camperplaats-de-tulpentuin/","fee":"yes","fee:description":"Price includes €1,55 tourist tax per person.","internet_access":"wlan","internet_access:fee":"no","motorhome":"designated","name":"Camperplaats de Tulpentuin","operator":"Munster Flowers","operator:type":"business","permanent_camping":"no","power_supply":"yes","power_supply:charge":"4 EUR","power_supply:fee":"yes","sanitary_dump_station":"yes","static_caravans":"no","surface":"paving_stones","tents":"no"}},"1334994594":{"location":[52.7361809,5.1299718],"ct":"NL","tp":"CS","ts":"2024-11-18T09:11:26Z","tX":526,"tY":334,"tags":{"addr:city":"Wervershoof","addr:housenumber":"19","addr:postcode":"1693HM","addr:street":"Dirk Bijvoetweg","name":"Camping Ariënstocht","website":"https://arienstocht.nl/"}},"1353803374":{"location":[52.7465148,5.1849613],"ct":"NL","tp":"CR","ts":"2025-01-23T23:32:56Z","tX":526,"tY":334,"tags":{"addr:city":"Andijk","addr:housenumber":"1","addr:postcode":"1619JW","addr:street":"Nieuwe Haven","capacity":"5","caravan_site":"motorhome_stopover","caravan_site:type":"harbour","charge":"20.70 EUR","email":"info@jachthaven.nl","fee":"yes","internet_access":"wlan","name":"Jachthaven en Watersport Andijk","opening_hours":"24/7","phone":"+31 228 593 075","power_supply":"yes","reservation":"yes","shower":"yes","toilets":"yes","vhf":"31","water_point":"yes","water_point:charge":"0.05 EUR/10 liter","water_point:fee":"yes","website":"https://www.jachthavenandijk.nl/jachthaven/camperplaatsen/"}},"1353806850":{"location":[52.769177,5.1167668],"ct":"NL","tp":"CR","ts":"2025-01-24T00:58:48Z","tX":526,"tY":334,"tags":{"addr:city":"Medemblik","addr:housenumber":"3","addr:postcode":"1671SG","addr:street":"Vooroever","caravan_site":"motorhome_stopover","caravan_site:type":"harbour","email":"infi@regattacenter.com","fee":"yes","name":"Regatta Centrum Medemblik","opening_hours":"24/7","phone":"+31 227 547 781","website":"https://regattacenter.com"}},"1353818647":{"location":[52.8121424,4.9914469],"ct":"NL","tp":"CR","ts":"2025-01-24T01:03:45Z","tX":526,"tY":334,"tags":{"capacity":"12","caravan_site":"motorhome_stopover","caravan_site:type":"harbour","fee":"yes","internet_access":"wlan","name":"camperplaats Jachthaven Middenmeer","opening_hours":"24/7","sanitary_dump_station":"yes","seasonal":"no","shower":"yes","surface":"paving_stones","tents":"no","toilets":"yes","waterpoint":"yes","website":"https://www.jachthaven.nl/noord-holland/jachthaven-middenmeer"}},"2339392087":{"location":[52.7280439,5.0964301],"ct":"NL","tp":"CS","ts":"2022-06-06T07:49:54Z","tX":526,"tY":334,"tags":{"addr:city":"Oostwoud","addr:housenumber":"4","addr:postcode":"1678HW","addr:street":"Vereweg","email":"info@campingveerhof.nl","name":"Veerhof","operator":"Familie Spijker","phone":"+31 229 201 575","source":"BAG","source:date":"2014-03-24","website":"https://www.natuurkampeerterreinen.nl/terreinen/noord-holland/veerhof/"}},"2886624301":{"location":[52.907317,5.0275721],"ct":"NL","tp":"CR","ts":"2014-05-29T06:51:49Z","tX":526,"tY":334,"tags":{"name":"Aquacamping"}},"4207658198":{"location":[52.8121576,4.9915631],"ct":"NL","tp":"CR","ts":"2023-06-20T05:28:43Z","tX":526,"tY":334,"tags":{"capacity":"7","fee":"yes","internet_access":"wlan","name":"camperplaats Jachthaven Middenmeer","opening_hours":"24/7","sanitary_dump_station":"yes","tents":"no","waterpoint":"yes"}},"5743962311":{"location":[52.7282162,5.0336266],"ct":"NL","tp":"CS","ts":"2022-07-09T12:52:20Z","tX":526,"tY":334,"tags":{"addr:city":"Twisk","addr:housenumber":"17","addr:street":"Bennemeersweg","contact:website":"https://www.hettwiskerveld.nl","name":"Het Twiskerveld"}},"6361064864":{"location":[52.7513864,5.194857],"ct":"NL","tp":"CS","ts":"2022-07-29T18:34:30Z","tX":526,"tY":334,"tags":{"email":"info@campingdijkenmeer.nl","name":"Camping Dijk & Meer","phone":"+31 6 15675671","website":"https://www.campingdijkenmeer.nl/"}},"6559825588":{"location":[52.7078969,5.2540504],"ct":"NL","tp":"CS","ts":"2023-05-28T07:49:45Z","tX":526,"tY":334,"tags":{"addr:city":"Bovenkarspel","addr:housenumber":"11","addr:postcode":"1611BS","addr:street":"De Gouw","email":"info@degouwestek.nl","name":"Camping de Gouwe Stek","phone":"+31 228 516 958","website":"https://degouwestek.nl"}},"10793258050":{"location":[52.8579072,5.0248235],"ct":"NL","tp":"CS","ts":"2023-04-07T16:39:26Z","tX":526,"tY":334,"tags":{"cabins":"yes","caravans":"yes","email":"info@campinglanduitzee.nl","motorhome":"yes","name":"Land uit Zee","phone":"+31 6 53223265","tents":"yes","toilets":"yes","website":"https://www.campinglanduitzee.nl/"}},"10822901276":{"location":[52.7295678,5.1869539],"ct":"NL","tp":"CS","ts":"2023-04-27T09:14:12Z","tX":526,"tY":334,"tags":{"cabins":"yes","caravans":"no","name":"Bij BlokVis","phone":"+31 6 20013249","reservation":"recommended","shower":"yes","tents":"yes","toilets":"yes","website":"https://bijblokvis.wordpress.com/about/bb-plaats-voor-een-tent/"}},"11074705990":{"location":[52.8425099,4.9527697],"ct":"NL","tp":"CS","ts":"2023-07-29T09:43:33Z","tX":526,"tY":334,"tags":{"caravans":"yes","email":"info.campingonderdedam@gmail.com","motorhome":"yes","name":"Onder De Dam","phone":"+31 6 38068420","shower":"yes","tents":"yes","toilets":"yes","website":"http://www.campingonderdedam.nl/"}},"12127184142":{"location":[52.7268972,5.0650379],"ct":"NL","tp":"CS","ts":"2024-08-22T11:01:46Z","tX":526,"tY":334,"tags":{"addr:city":"Oostwoud","addr:housenumber":"39","addr:postcode":"1678HA","addr:street":"Broerdijk","email":"info@campingvalkenhof.nl","name":"Valkenhof","phone":"+31 229 202 484","source":"BAG","source:date":"2014-03-24","website":"https://www.campingvalkenhof.nl"}},"4385051992":{"location":[52.7716076,5.1135381],"ct":"NL","tp":"CR","ts":"2025-04-27T10:50:06Z","tX":526,"tY":334,"tags":{"capacity":"5","caravan_site":"motorhome_stopover","caravan_site:type":"harbour","fee":"yes","internet_access":"wlan","internet_access:fee":"no","name":"Camperplaatsen ‌ Pekelharinghaven - Medemblik","name:nl":"Medemblik","operator":"Jachthaven Camperplaatsen","phone":"+31 227 609886","power_supply":"yes","sanitary_dump_station":"yes","stars":"5","website":"https://stadshavensmedemblik.nl/reserveren/camperplek"}},"5796462764":{"location":[52.7464655,5.1850265],"ct":"NL","tp":"CR","ts":"2022-06-06T08:45:19Z","tX":526,"tY":334,"tags":{"addr:city":"Andijk","addr:housenumber":"1","addr:postcode":"1619JW","addr:street":"Nieuwe Haven","email":"info@jachthaven.nl","fee":"yes","internet_access":"wlan","name":"Jachthaven en Watersport Andijk","opening_hours":"24/7","phone":"+31 228 593 075","power_supply":"yes","vhf":"31","website":"https://www.jachthavenandijk.nl/"}},"5796473256":{"location":[52.7692115,5.1168211],"ct":"NL","tp":"CR","ts":"2023-05-28T07:48:22Z","tX":526,"tY":334,"tags":{"addr:city":"Medemblik","addr:housenumber":"3","addr:postcode":"1671SG","addr:street":"Vooroever","email":"infi@regattacenter.com","name":"Regatta Centrum Medemblik","opening_hours":"24/7","phone":"+31 227 547 781","website":"https://regattacenter.com"}},"9919766628":{"location":[52.7518591,5.1960294],"ct":"NL","tp":"SD","ts":"2022-07-29T18:34:30Z","tX":526,"tY":334,"tags":{"access":"customers"}},"12902228501":{"location":[52.8890156,5.0715107],"ct":"NL","tp":"CS","ts":"2025-06-10T13:29:53Z","tX":526,"tY":334,"tags":{"addr:housenumber":"23a","addr:street":"Noorderdijkweg","name":"De Snippenwei"}}}