{"17945095":{"location":[52.6249759,5.1548005],"ct":"NL","tp":"CS","ts":"2024-08-17T15:36:45Z","tX":526,"tY":335,"tags":{"name":"Roompot Wijdenes","website":"https://www.roompot.nl/bestemmingen/nederland/noord-holland/roompot-park-wijdenes/"}},"17945476":{"location":[52.6241426,5.1441887],"ct":"NL","tp":"CS","ts":"2024-08-17T15:28:41Z","tX":526,"tY":335,"tags":{"name":"De Appelhoek","website":"https://www.appelhoek.nl/"}},"42360932":{"location":[52.6332719,5.0109462],"ct":"NL","tp":"CS","ts":"2023-05-30T21:04:54Z","tX":526,"tY":335,"tags":{"addr:city":"Berkhout","addr:country":"NL","addr:housenumber":"6a","addr:postcode":"1647DR","addr:street":"De Hulk","name":"'t Venhop","website":"https://venhop.nl"}},"71327421":{"location":[52.5245486,4.9447623],"ct":"NL","tp":"CS","ts":"2022-08-25T11:22:53Z","tX":526,"tY":335,"tags":{"landuse":"orchard","source":"local survey & PDOK 0.7 22-08-22"}},"75045140":{"location":[52.6316621,5.0087705],"ct":"NL","tp":"CS","ts":"2023-05-30T21:05:30Z","tX":526,"tY":335,"tags":{"addr:city":"Berkhout","addr:country":"NL","addr:housenumber":"1","addr:postcode":"1647DB","addr:street":"Venneweg","name":"Résidence Markermeer","old_name":"Camping De Hulk","operator":"EuroParcs","website":"https://www.residenceberkhout.nl"}},"75094950":{"location":[52.6346234,4.9892474],"ct":"NL","tp":"CS","ts":"2025-04-05T07:54:14Z","tX":526,"tY":335,"tags":{"addr:city":"Berkhout","addr:country":"NL","addr:housenumber":"7","addr:postcode":"1647LE","addr:street":"Lijsbeth Tijsweg","name":"Park Westerkogge","operator":"TopParken","website":"https://www.topparken.nl/park-westerkogge","website:map":"https://www.topparken.nl/park-westerkogge/plattegrond"}},"88353592":{"location":[52.6864559,5.2518005],"ct":"NL","tp":"CS","ts":"2022-11-27T14:58:42Z","tX":526,"tY":335,"tags":{"name":"Resort Markermeer"}},"90072307":{"location":[52.6654624,5.2301424],"ct":"NL","tp":"CS","ts":"2023-04-06T19:22:22Z","tX":526,"tY":335,"tags":{"caravans":"yes","email":"roland@tuingoedbonater.nl","landcover":"grass","motorhome":"yes","name":"TuinGoed Bonatèr","phone":"+31 6 20859720","shower":"yes","tents":"yes","toilets":"yes"}},"90102393":{"location":[52.6547051,5.1581801],"ct":"NL","tp":"CS","ts":"2025-03-13T12:47:50Z","tX":526,"tY":335,"tags":{"source":"3dShapes"}},"90165154":{"location":[52.686931,5.0473715],"ct":"NL","tp":"CS","ts":"2025-01-18T21:10:06Z","tX":526,"tY":335,"tags":{"addr:city":"Wognum","addr:housenumber":"83","addr:postcode":"1687AB","addr:street":"Oosteinderweg","caravans":"yes","contact:website":"https://molenwurf.nl","internet_access":"yes","internet_access:fee":"yes","name":"De Molenwurf","tents":"yes"}},"106948798":{"location":[52.5186497,5.0721245],"ct":"NL","tp":"CS","ts":"2023-05-30T21:05:05Z","tX":526,"tY":335,"tags":{"addr:city":"Edam","addr:housenumber":"7a","addr:postcode":"1135PZ","addr:street":"Zeevangszeedijk","name":"Camping Strandbad Edam","website":"https://www.campingstrandbad.nl"}},"136655504":{"location":[52.4894465,5.060009],"ct":"NL","tp":"CR","ts":"2025-01-23T15:20:42Z","tX":526,"tY":335,"tags":{"capacity":"24","caravan_site":"motorhome_stopover","caravan_site:type":"harbour","dog":"yes","fee":"yes","name":"Marina Park Volendam","power_supply":"yes","sanitary_dump_station":"yes","water_point":"yes"}},"217589421":{"location":[52.5943966,5.0192144],"ct":"NL","tp":"CS","ts":"2025-01-23T18:41:01Z","tX":526,"tY":335,"tags":{"name":"Voor Anker"}},"217589926":{"location":[52.592964,5.0206691],"ct":"NL","tp":"CS","ts":"2022-07-09T13:32:52Z","tX":526,"tY":335,"tags":{"addr:city":"Schardam","addr:housenumber":"1","addr:postcode":"1476NE","addr:street":"Burgerwoudweg","contact:website":"https://www.campingdeeenhoorn.nl","fee":"yes","internet_access":"yes","internet_access:fee":"yes","name":"De Eenhoorn","power_supply":"yes","sanitary_dump_station":"yes"}},"540380036":{"location":[52.5224076,5.0652499],"ct":"NL","tp":"CS","ts":"2019-09-14T20:44:05Z","tX":526,"tY":335,"tags":{"name":"Camping De Dijk"}},"540380037":{"location":[52.5252995,5.0640422],"ct":"NL","tp":"CS","ts":"2023-08-29T05:21:40Z","tX":526,"tY":335,"tags":{"contact:website":"https://www.zeevangshoeve.nl","name":"Zeevangshoeve","phone":"+31 6 17864374"}},"540380047":{"location":[52.5269282,5.062895],"ct":"NL","tp":"CS","ts":"2019-09-14T20:02:15Z","tX":526,"tY":335,"tags":{"name":"Camping Kleine Weel Edam"}},"680998218":{"location":[52.5327573,4.9955106],"ct":"NL","tp":"CS","ts":"2024-10-15T09:13:22Z","tX":526,"tY":335,"tags":{"caravans":"yes","contact:website":"https://www.weidevogelzicht.nl","drinking_water":"yes","fee":"yes","name":"Weidevogelzicht","picnic_table":"no","power_supply":"yes","shower":"yes","tents":"yes","toilets":"yes"}},"1071070729":{"location":[52.6337597,5.0580906],"ct":"NL","tp":"CR","ts":"2025-01-23T18:02:51Z","tX":526,"tY":335,"tags":{"capacity":"27","caravan_site":"motorhome_stopover","caravan_site:type":"harbour","charge":"21.70 EUR","email":"info@grashavenhoorn.nl","fee":"yes","laundry":"yes","name":"De Grashaven","opening_hours":"Apr 16-Oct 01","power_supply":"yes","power_supply:fee":"no","sanitary_dump_station":"yes","shower":"yes","toilets":"yes","water_point":"yes","website":"https://grashavenhoorn.nl/campers-en-camperplaats/"}},"1353698711":{"location":[52.5067048,4.9503393],"ct":"NL","tp":"CR","ts":"2025-01-23T15:30:55Z","tX":526,"tY":335,"tags":{"capacity":"5","caravan_site":"motorhome_stopover","caravan_site:type":"parking_lot","charge":"9.45 EUR","fee":"yes","internet_access":"wlan","name":"Camperplaats het Bolwerk Purmerend","power_supply":"yes","sanitary_dump_station":"harbour_office","water_point":"yes","water_point:seasonal":"yes","website":"https://purmerend.nl/in-purmerend-en-de-beemster/bezoek-purmerend-en-de-beemster/camperplaats-het-bolwerk"}},"2015352705":{"location":[52.5759833,4.9972405],"ct":"NL","tp":"CR","ts":"2012-11-15T17:34:55Z","tX":526,"tY":335,"tags":{"capacity":"2","name":"Oosthuizen"}},"2471523725":{"location":[52.488015,5.0344208],"ct":"NL","tp":"CR","ts":"2025-02-13T20:37:33Z","tX":526,"tY":335,"tags":{"access:conditional":"yes @ (17:00-09:30)","campers":"yes","caravan_site":"motorhome_stopover","caravan_site:type":"dairy;restaurant","email":"info@simonehoeve.com","fee":"no","name":"Kaasboerderij Simonehoeve","opening_hours":"Mo-Su 17:00-09:30","phone":"+31 299365828","power_supply":"no","sanitary_dump_station":"no","water_point":"no","website":"https://simonehoeve.com/nl/camperplaatsen/"}},"2636638807":{"location":[52.5066702,4.9504562],"ct":"NL","tp":"CR","ts":"2021-02-22T20:35:08Z","tX":526,"tY":335,"tags":{"fee":"yes","name":"Bolwerk","power_supply":"yes","website":"https://www.purmerend.nl/betaald-parkeren"}},"2797344742":{"location":[52.6546981,5.1564717],"ct":"NL","tp":"CS","ts":"2019-03-28T03:50:28Z","tX":526,"tY":335,"tags":{"addr:city":"Wijdenes","addr:housenumber":"4","addr:postcode":"1608HL","addr:street":"Hemweg","name":"De Kampeertuin","phone":"+31 6 21401301","source":"BAG","source:date":"2018-04-08","website":"https://www.dekampeertuin.nl/"}},"6176621385":{"location":[52.4890855,5.0602634],"ct":"NL","tp":"CR","ts":"2021-02-22T20:35:08Z","tX":526,"tY":335,"tags":{"fee":"yes","name":"Marina Park","website":"https://www.roompot.nl/aanbiedingen/camperplaats/camping/"}},"11049358272":{"location":[52.6842898,5.0393817],"ct":"NL","tp":"CR","ts":"2025-01-23T23:08:14Z","tX":526,"tY":335,"tags":{"capacity:motorhome":"8","caravan_site":"motorhome_stopover","caravan_site:type":"winery","charge":"23.50","dog":"no","email":"info@saalhof.nl","fee":"yes","name":"Wijngaard Saalhof","opening_hours":"Apr-Oct","phone":"+31 229 572 487","power_supply":"yes","power_supply:fee":"no","sanitary_dump_station:chemical_toilet":"yes","sanitary_dump_station:fee":"no","sanitary_dump_station:grey_water":"yes","water_point":"yes","website":"https://www.saalhof.nl/logies/camperplaats/"}},"4724029503":{"location":[52.593637,5.019952],"ct":"NL","tp":"SD","ts":"2021-06-22T18:05:56Z","tX":526,"tY":335,"tags":{"access":"customers","operator":"Camping de Eenhoorn","water_point":"yes"}},"9828682195":{"location":[52.6321572,5.0116725],"ct":"NL","tp":"SD","ts":"2022-06-18T17:29:15Z","tX":526,"tY":335,"tags":{"sanitary_dump_station:basin":"yes","sanitary_dump_station:round_drain":"yes"}}}