{"13767894":{"location":[52.3123543,4.9918708],"ct":"NL","tp":"CS","ts":"2024-11-09T10:18:47Z","tX":526,"tY":336,"tags":{"caravans":"yes","drinking_water":"yes","internet_access":"wlan","internet_access:fee":"no","layer":"1","name":"Gaasper Camping","power_supply":"yes","sanitary_dump_station":"customers","shower":"yes","tents":"yes","toilets":"yes","website":"https://www.gaaspercamping.nl/","wheelchair":"yes"}},"17424053":{"location":[52.3320411,5.2169481],"ct":"NL","tp":"CR","ts":"2025-01-23T15:05:48Z","tX":526,"tY":336,"tags":{"addr:place":"Almere Haven","addr:street":"Sluiskade","capacity":"26","caravan_site":"motorhome_stopover","caravan_site:type":"harbour","charge":"22 EUR","fee":"yes","landuse":"grass","laundry":"yes","name":"WSV Almere Haven","opening_hours":"Apr-Sep","power_supply":"yes","restaurant":"yes","sanitary_dump_station":"yes","shower":"yes","shower:fee":"no","toilets":"yes","website":"https://wsvalmerehaven.nl/campers-en-kampeerders/"}},"26859315":{"location":[52.4266757,5.0740884],"ct":"NL","tp":"CS","ts":"2022-06-26T08:16:11Z","tX":526,"tY":336,"tags":{"contact:website":"https://www.europarcs.nl/vakantieparken/nederland/noord-holland/camping-en-jachthaven-uitdam","name":"Uitdam"}},"75133039":{"location":[52.411448,4.9602724],"ct":"NL","tp":"CS","ts":"2024-06-16T21:59:57Z","tX":526,"tY":336,"tags":{"addr:city":"Amsterdam","addr:housenumber":"1","addr:postcode":"1027AD","addr:street":"Termietergouw","contact:phone":"+31 6 24226106","contact:website":"https://www.uilenstekkie.nl","name":"'t Uilenstekkie"}},"216229459":{"location":[52.4493781,4.9961736],"ct":"NL","tp":"CS","ts":"2024-12-20T08:14:53Z","tX":526,"tY":336,"tags":{"name":"Kampeervereniging De Leek","website":"http://kvdeleek.com"}},"331972300":{"location":[52.2857887,5.2250179],"ct":"NL","tp":"CS","ts":"2022-01-12T14:36:46Z","tX":526,"tY":336,"tags":{"name":"seizoencamping Kampgenot","operator":"Amsterdamse kampeervereniging Kampgenot","website":"https://kvkampgenot.nl/"}},"465255064":{"location":[52.3644841,4.9618418],"ct":"NL","tp":"CS","ts":"2024-05-11T14:14:44Z","tX":526,"tY":336,"tags":{"caravans":"yes","drinking_water":"yes","internet_access":"wlan","internet_access:fee":"no","name":"Camping Zeeburg","power_supply":"yes","shower":"yes","tents":"yes","toilets":"yes","website":"https://www.campingzeeburg.nl/","wheelchair":"yes"}},"466963514":{"location":[52.3907843,4.930072],"ct":"NL","tp":"CS","ts":"2024-10-04T19:24:06Z","tX":526,"tY":336,"tags":{"addr:city":"Amsterdam","addr:housenumber":"138","addr:postcode":"1022AM","addr:street":"Meeuwenlaan","caravans":"yes","drinking_water":"yes","email":"vliegenbos.sdn@amsterdam.nl","internet_access":"wlan","internet_access:fee":"no","motorhome":"yes","name":"Camping Vliegenbos","phone":"+31 20 636 8855","shower":"yes","tents":"yes","toilets":"yes","toilets:wheelchair":"yes","website":"https://www.amsterdam.nl/vliegenbos/","wheelchair":"limited"}},"497853034":{"location":[52.2866303,5.0725378],"ct":"NL","tp":"CR","ts":"2025-01-23T14:59:10Z","tX":526,"tY":336,"tags":{"capacity":"12","caravan_site":"motorhome_stopover","caravan_site:type":"countryside;river","charge":"25 EUR","charge:conditional":"20 EUR @ (MAr 15-Oct 14)","email":"info@vechtenweide.nl","fee":"yes","internet_access":"yes","internet_access:fee":"no","laundry":"yes","name":"Camperplaats Vecht & Weide","phone":"+31 6 30 007 825","power_supply":"yes","power_supply:fee":"no","power_supply:maxcurrent":"10","sanitary_dump_station":"yes","seasonal":"no","toilets":"yes","website":"https://www.vechtenweide.nl/en/accommodatie/camperplaatsen/"}},"502140000":{"location":[52.4715162,5.0202281],"ct":"NL","tp":"CS","ts":"2020-06-14T23:00:02Z","tX":526,"tY":336,"tags":{"name":"Camping Katwoude","website":"https://www.campingkatwoude.nl/"}},"513915567":{"location":[52.3857314,5.0121191],"ct":"NL","tp":"CS","ts":"2025-01-15T15:05:46Z","tX":526,"tY":336,"tags":{"caravans":"yes","drinking_water":"yes","fee":"yes","name":"Camping De Badhoeve","phone":"+31 20 490 4294","scout":"no","tents":"yes","website":"https://campingdebadhoeve.nl/"}},"538969078":{"location":[52.308716,5.2397293],"ct":"NL","tp":"CR","ts":"2024-07-30T23:09:50Z","tX":526,"tY":336,"tags":{"capacity":"8","caravan_site":"motorhome_stopover","caravan_site:type":"harbour","charge":"10 EUR","check_out":"12:00","fee":"yes","maxstay":"3 nights","name":"Camperplaats van Huizen","phone":"+35 06 27 30 80 84","sanitary_dump_station":"yes","sanitary_dump_station:chemical_toilet":"yes","sanitary_dump_station:grey_water":"yes","toilets":"yes","toilets:fee":"yes","water_point":"yes","website":"https://www.huizen.nl/camperplaatsen"}},"587956270":{"location":[52.3088913,5.2209453],"ct":"NL","tp":"CS","ts":"2023-04-14T09:17:23Z","tX":526,"tY":336,"tags":{"access":"private","addr:city":"Naarden","addr:housenumber":"2","addr:postcode":"1411ZX","addr:street":"Zeeweg","caravans":"yes","description":"Dit kampeerterrein is alleen toegankelijk voor leden van de NTKC","dog":"leashed","internet_access":"no","name":"NTKC Huizen","operator":"Nederlandse Toeristen Kampeer Club","power_supply":"yes","tents":"yes","website":"https://www.kampeerclub.nl/terrein/kampeerterrein-huizen"}},"709260789":{"location":[52.4018387,5.2241597],"ct":"NL","tp":"CS","ts":"2022-05-16T12:26:36Z","tX":526,"tY":336,"tags":{"addr:city":"Almere","addr:housenumber":"10","addr:postcode":"1316AM","addr:street":"Trekvogelweg","name":"Waterhout","website":"https://www.waterhout.nl"}},"844779769":{"location":[52.3864671,5.0111772],"ct":"NL","tp":"CR","ts":"2020-09-06T15:18:26Z","tX":526,"tY":336,"tags":{}},"933303836":{"location":[52.3433945,5.2682967],"ct":"NL","tp":"CS","ts":"2024-02-29T00:21:48Z","tX":526,"tY":336,"tags":{"addr:city":"Almere","addr:housenumber":"5","addr:postcode":"1358AC","addr:street":"Kemphaanpad","caravans":"yes","email":"info@camping-almere.nl","name":"Natuurcamping de Kemphaan","phone":"+31 6 53704075","tents":"yes","website":"https://www.camping-almere.nl"}},"1353692213":{"location":[52.333581,5.2216706],"ct":"NL","tp":"CR","ts":"2025-01-23T15:05:48Z","tX":526,"tY":336,"tags":{"capacity":"2","caravan_site":"motorhome_stopover","caravan_site:type":"harbour","fee":"yes","name":"Parking Almere Haven","sanitary_dump_station":"yes"}},"1707402065":{"location":[52.4534576,4.9946283],"ct":"NL","tp":"CS","ts":"2020-06-23T19:17:19Z","tX":526,"tY":336,"tags":{"addr:city":"Monnickendam","addr:housenumber":"13","addr:street":"Overleek","name":"De Boerenhemel","website":"http://www.boerenhemel.nl"}},"3700248198":{"location":[52.3906145,4.9276734],"ct":"NL","tp":"SD","ts":"2015-08-16T20:19:41Z","tX":526,"tY":336,"tags":{"access":"customers","fee":"no","opening_hours":"24/7","sanitary_dump_station:basin":"yes","sanitary_dump_station:round_drain":"yes"}},"3843052130":{"location":[52.2752537,5.0994496],"ct":"NL","tp":"CS","ts":"2023-05-31T16:44:59Z","tX":526,"tY":336,"tags":{"name":"Amsterdamse Lichtbond Naturistenvereniging Dagrecreatie","phone":"+31 35 656 3493","website":"http://www.alb-naturisme.nfn.nl"}},"5935257214":{"location":[52.3336042,5.2216514],"ct":"NL","tp":"CR","ts":"2024-04-03T19:13:59Z","tX":526,"tY":336,"tags":{"capacity":"2","fee":"yes","name":"Parking Almere Haven","sanitary_dump_station":"yes"}},"6178191885":{"location":[52.3085643,5.1461722],"ct":"NL","tp":"CR","ts":"2024-07-31T10:40:29Z","tX":526,"tY":336,"tags":{"bbq":"no","capacity":"20","caravan_site":"motorhome_stopover","caravan_site:type":"harbour","caravans":"no","charge":"20 EUR","charge:conditional":"16 EUR @ (Oct-Mar)","description":"two location, 8+12 pitches","dog":"leashed","fee":"yes","internet_access":"wlan","maxlength":"none","name":"Jachthaven Naarden","network":"CAMPING CAR-PARK","operator":"CAMPING CAR-PARK","power_supply":"yes","power_supply:capacity":"20","power_supply:fee":"no","power_supply:maxcurrent":"6","sanitary_dump_station":"yes","tents":"no","toilets":"yes","trailer":"n","water_point":"yes","water_point:fee":"no","website":"https://www.campingcarpark.com/en_GB/stay/stopover-site-motorhome/hollande-septentrionale/14-hollande-septentionale/naarden"}},"4686839323":{"location":[52.3079173,5.243608],"ct":"NL","tp":"SD","ts":"2017-02-15T12:43:55Z","tX":526,"tY":336,"tags":{"access":"yes","operator":"Gemeente Huizen"}},"11878628670":{"location":[52.3643993,4.9609561],"ct":"NL","tp":"SD","ts":"2024-05-04T10:24:19Z","tX":526,"tY":336,"tags":{"access":"customers","fee":"no","sanitary_dump_station:pump-out":"no"}},"11878628673":{"location":[52.364421,4.9609863],"ct":"NL","tp":"SD","ts":"2024-05-04T10:24:19Z","tX":526,"tY":336,"tags":{"access":"customers","fee":"no","sanitary_dump_station:pump-out":"no"}},"11878628674":{"location":[52.3643952,4.9609166],"ct":"NL","tp":"SD","ts":"2024-05-04T10:24:19Z","tX":526,"tY":336,"tags":{"access":"customers","fee":"no","sanitary_dump_station:pump-out":"no"}},"12529012342":{"location":[52.2949194,4.9317275],"ct":"NL","tp":"CS","ts":"2025-01-24T10:04:52Z","tX":526,"tY":336,"tags":{"access":"yes","caravans":"yes","fee":"no","loc_name":"Dagcamping Ouderkerkerplas","note":"exact campsite area is not described, therefore for now only a pointlocation.","opening_hours":"Apr 15 - Oct 15: sunrise-sunset","tents":"yes","website":"https://www.recreatienoordholland.nl/activiteiten/dagkamperen/vakantiepret-aan-de-plas/12"}}}