{"9093654":{"location":[52.1937062,5.1581835],"ct":"NL","tp":"CS","ts":"2018-12-10T14:19:05Z","tX":526,"tY":337,"tags":{"barrier":"fence","landuse":"forest","name":"Kampeerterrein ATKV","website":"https://www.atkv.nl/"}},"9093655":{"location":[52.1940232,5.1559941],"ct":"NL","tp":"CS","ts":"2023-05-30T21:05:46Z","tX":526,"tY":337,"tags":{"barrier":"fence","caravans":"yes","email":"info@campingzonnehoek.com","landuse":"forest","name":"Camping Zonnehoek","opening_hours":"Mar-Oct","tents":"yes","website":"https://www.campingzonnehoek.com"}},"26859196":{"location":[52.0998574,5.1486299],"ct":"NL","tp":"CS","ts":"2018-10-12T10:20:30Z","tX":526,"tY":337,"tags":{"name":"Budget Camping Utrecht"}},"49001323":{"location":[52.1506628,5.0513203],"ct":"NL","tp":"CR","ts":"2022-05-24T13:04:21Z","tX":526,"tY":337,"tags":{"name":"Recreatieoord De Wilgenplas"}},"52994722":{"location":[52.1303264,5.22408],"ct":"NL","tp":"CS","ts":"2022-07-31T17:11:11Z","tX":526,"tY":337,"tags":{"addr:city":"Bilthoven","addr:housenumber":"7","addr:postcode":"3722GZ","addr:street":"Burgemeester Van der Borchlaan","name":"Camping Bos Park Bilthoven","website":"https://www.greenspiritparken.nl/kamperen/bos-park-bilthoven/kampeer-aanbod"}},"71581848":{"location":[52.1072274,5.2396423],"ct":"NL","tp":"CS","ts":"2020-07-12T16:12:43Z","tX":526,"tY":337,"tags":{"addr:city":"Zeist","addr:housenumber":"1","addr:postcode":"3705GJ","addr:street":"Badmeester Schenkpad","name":"Recreatiepark Dijnselburg","source":"3dShapes","website":"https://dijnselburg.com/home/"}},"72289634":{"location":[52.1967637,5.2451479],"ct":"NL","tp":"CS","ts":"2025-01-10T15:34:03Z","tX":526,"tY":337,"tags":{"addr:city":"Baarn","addr:housenumber":"4","addr:postcode":"3744BC","addr:street":"Zevenlindenweg","caravans":"yes","internet_access":"yes","name":"Allurepark de Zeven Linden","phone":"+31 35 666 8330","shower":"yes","source":"3dShapes","tents":"yes","toilets":"yes","toilets:wheelchair":"yes","website":"https://www.dezevenlinden.nl/nl"}},"72517164":{"location":[52.1995609,4.9602631],"ct":"NL","tp":"CS","ts":"2024-11-04T21:31:21Z","tX":526,"tY":337,"tags":{"cabins":"yes","caravans":"yes","email":"info@boerderijcampingdemmerik.nl","mobile":"+31 6 15584095","motorhome":"yes","name":"Boerderijcamping Demmerik","phone":"+31 297 264 465","shower":"yes","surface":"grass","tents":"yes","toilets":"yes","website":"https://boerderijcampingdemmerik.nl/"}},"72517563":{"location":[52.1938749,4.9687729],"ct":"NL","tp":"CS","ts":"2024-05-14T21:21:37Z","tX":526,"tY":337,"tags":{"capacity:caravans":"20","caravans":"yes","fee":"yes","mobile":"+31 6-30603360","name":"Oukoop 46","source":"pdok","static_caravans":"yes","tents":"yes"}},"75869244":{"location":[52.1614542,5.2371225],"ct":"NL","tp":"CS","ts":"2025-01-23T13:43:15Z","tX":526,"tY":337,"tags":{"name":"Caravanpark Prinsenburg","static_caravans":"only"}},"234146122":{"location":[52.253176,4.9537892],"ct":"NL","tp":"CS","ts":"2022-09-15T18:06:06Z","tX":526,"tY":337,"tags":{"addr:city":"Vinkeveen","addr:housenumber":"20a","addr:postcode":"3645AP","addr:street":"Winkeldijk","landuse":"grass","name":"Winkeloord","phone":"+31 294 281 426","source":"3dShapes","website":"http://www.CampingWinkeloord.nl"}},"246053043":{"location":[52.1293299,4.9689878],"ct":"NL","tp":"CS","ts":"2023-09-02T20:11:19Z","tX":526,"tY":337,"tags":{"caravans":"yes","email":"info@boerderijhazenveld.nl","name":"Boerderij Hazenveld","opening_hours":"Apr 28 - Oct 1","phone":"+31 6 21804650","shower":"yes","tents":"yes","toilets":"yes","website":"https://boerderijhazenveld.nl/camping/"}},"309427415":{"location":[52.2568559,5.1471471],"ct":"NL","tp":"CS","ts":"2023-11-03T11:24:47Z","tX":526,"tY":337,"tags":{"caravans":"yes","name":"De Fransche Kamp","opening_hours":"Mo-Su 09:00-17:00 May-Sep","shower":"yes","tents":"yes","toilets":"yes","website":"https://www.defranschekamp.nl"}},"390194245":{"location":[52.0570883,5.200067],"ct":"NL","tp":"CS","ts":"2023-05-30T12:26:19Z","tX":526,"tY":337,"tags":{"addr:city":"Bunnik","addr:country":"NL","addr:housenumber":"9","addr:postcode":"3981HG","addr:street":"Parallelweg","caravans":"yes","drinking_water":"yes","email":"info@campingdeboomgaard.nl","internet_access":"wlan","internet_access:fee":"yes","name":"Camping De Boomgaard","phone":"+31 30 656 3896","shower":"yes","tents":"yes","website":"https://www.campingdeboomgaard.nl/"}},"390688870":{"location":[52.1249024,5.1275077],"ct":"NL","tp":"CS","ts":"2025-05-23T21:32:20Z","tX":526,"tY":337,"tags":{"addr:city":"Groenekan","addr:housenumber":"7","addr:postcode":"3737MS","addr:street":"Kanonsdijk","name":"Tussen Hemel en Aarde","note":"http://www.tussenhemelenaarde.info","phone":"+31 30 262 6798"}},"439356964":{"location":[52.2076154,5.143383],"ct":"NL","tp":"CS","ts":"2022-01-09T16:02:00Z","tX":526,"tY":337,"tags":{"barrier":"fence","name":"Kampeervereniging Licht & Lucht","website":"http://lichtlucht.nl/"}},"710708694":{"location":[52.1780039,5.2000933],"ct":"NL","tp":"CS","ts":"2023-06-15T20:42:24Z","tX":526,"tY":337,"tags":{"caravans":"yes","drinking_water":"yes","internet_access":"yes","name":"Natuurcamping Fazantenhof","opening_hours":"Apr-Oct","power_supply":"yes","shower":"yes","tents":"yes","toilets":"yes","website":"https://www.campingfazantenhof.nl"}},"782055575":{"location":[52.1935589,5.1294361],"ct":"NL","tp":"CS","ts":"2022-05-23T15:08:37Z","tX":526,"tY":337,"tags":{"source":"3dShapes"}},"785456721":{"location":[52.0934131,4.9442939],"ct":"NL","tp":"CR","ts":"2025-01-23T12:52:40Z","tX":526,"tY":337,"tags":{"bicycle_rental":"yes","capacity":"25","caravan_site":"motorhome_stopover","caravan_site:type":"village","charge":"25 EUR","dog":"leashed","dog:fee":"no","email":"info@polderhaan.nl","fee":"yes","internet_access":"wlan","internet_access:fee":"no","laundry":"yes","maxlength":"10","name":"Polderhaan","opening_hours":"Mar 15-Oct 31","phone":"+31 6 38756035","power_supply":"yes","power_supply:fee":"no","power_supply:maxcurrent":"6","reservation":"yes","sanitary_dump_station":"yes","sanitary_dump_station:chemical_toilet":"yes","sanitary_dump_station:fee":"no","sanitary_dump_station:grey_water":"yes","shower":"yes","toilets":"yes","water_point":"yes","water_point:fee":"no","website":"https://polderhaan.nl/"}},"785457559":{"location":[52.0834514,4.9609831],"ct":"NL","tp":"CR","ts":"2023-08-19T20:46:41Z","tX":526,"tY":337,"tags":{"capacity:motorhome":"3","motorhome":"designated","name":"H2O"}},"853008311":{"location":[52.1533219,5.150863],"ct":"NL","tp":"CS","ts":"2023-05-21T17:05:31Z","tX":526,"tY":337,"tags":{"name":"Boerderijcamping Hofstede de Twaalfgaarden","website":"https://hofstededetwaalfgaarden.nl/"}},"949171927":{"location":[52.2504708,4.9462575],"ct":"NL","tp":"CS","ts":"2023-05-30T12:26:23Z","tX":526,"tY":337,"tags":{"caravans":"no","email":"info@jachthavenbon.nl","group_only":"yes","name":"Eiland 9","phone":"+31 294 281 395","tents":"yes","url":"https://recreatiemiddennederland.nl/eiland-9"}},"1002799250":{"location":[52.2130933,5.2629854],"ct":"NL","tp":"CS","ts":"2025-01-23T13:54:06Z","tX":526,"tY":337,"tags":{"addr:city":"Baarn","addr:housenumber":"51","addr:postcode":"3744MA","addr:street":"Amsterdamsestraatweg","caravans":"no","contact:email":"buitenzorg@buitenzorgbaarn.nl","contact:phone":"+31 6 21973370","contact:website":"https://buitenzorg.scouting.nl/","fee":"yes","name":"Scoutcentrum Buitenzorg","opening_hours":"Dec-Jan OFF","operator":"Scouting Nederland","shower":"yes","static_caravans":"no","tents":"yes"}},"1163101185":{"location":[52.1880775,5.0201804],"ct":"NL","tp":"CS","ts":"2023-04-16T20:17:02Z","tX":526,"tY":337,"tags":{"description":"farm camping","dish_washing":"yes","drinking_water":"yes","fee":"yes","internet_access":"wlan","motor_vehicle":"yes","name":"Camping Doornenbal","power_supply":"yes;cee_blue","sanitary_dump_station":"yes","shower":"yes;warm","tents":"yes","toilets":"yes"}},"1353531833":{"location":[52.0721661,5.1494516],"ct":"NL","tp":"CR","ts":"2025-04-28T20:30:41Z","tX":526,"tY":337,"tags":{"caravan_site":"motorhome_stopover","charge":"19.50 EUR","email":"zorgvoorelkaarhuis@kleinarmelisweerd.nl","fee":"yes","name":"Minicamping Utrecht","phone":"+31 6 14153157","power_supply":"yes","power_supply:fee":"no","reservation":"yes","shower":"yes","shower:fee":"no","surface":"paving_stones","toilets":"yes","toilets:fee":"no","water_point":"yes","water_point:fee":"no","website":"https://kleinarmelisweerd.nl/"}},"1768987371":{"location":[52.1661788,4.9492728],"ct":"NL","tp":"CS","ts":"2023-05-31T18:13:48Z","tX":526,"tY":337,"tags":{"contact:website":"https://www.campingvdpanne.nl","name":"Onder de panne"}},"2339536130":{"location":[52.2010252,5.0431997],"ct":"NL","tp":"CS","ts":"2022-06-26T15:55:01Z","tX":526,"tY":337,"tags":{"addr:city":"Loosdrecht","addr:housenumber":"9","addr:postcode":"1231AZ","addr:street":"Bloklaan","contact:website":"https://fortspion.nl","name":"Fort Spion","source":"BAG","source:date":"2014-05-07","url":"https://www.natuurkampeerterreinen.nl/terreinen/noord-holland/fort-spion/"}},"3569367794":{"location":[52.0852673,5.1186513],"ct":"NL","tp":"SD","ts":"2024-04-05T21:17:12Z","tX":526,"tY":337,"tags":{"boat":"designated","operator":"Gemeente Utrecht","website":"https://www.utrecht.nl/wonen-en-leven/verkeer/boot/recreatievaart-plezierboten"}},"3836201363":{"location":[52.1790927,5.0433024],"ct":"NL","tp":"CS","ts":"2025-06-09T20:16:14Z","tX":526,"tY":337,"tags":{"name":"Naturistenvereniging De 4 Elementen Z&L","operator":"Zon en Leven","phone":"+31 6 13691414","website":"https://devierelementen.zonenleven.nl/"}},"3843227119":{"location":[52.1438985,5.0929766],"ct":"NL","tp":"CS","ts":"2025-02-01T16:34:06Z","tX":526,"tY":337,"tags":{"access":"private","caravans":"no","name":"Z&L Naturistenvereniging Gravingen dagrecreatie","nudism":"designated","operator":"Zon en Leven","phone":"+31 6 42429746","private":"members","website":"https://www.zonenleven.nl/gravingen"}},"9263720194":{"location":[52.1944797,5.1291293],"ct":"NL","tp":"CS","ts":"2023-04-14T09:39:40Z","tX":526,"tY":337,"tags":{"addr:city":"Loosdrecht","addr:housenumber":"105A","addr:postcode":"1231KN","addr:street":"Nieuw-Loosdrechtsedijk","contact:website":"http://www.hollandmencamp.nl","description:en":"man-only full service camping","name":"HollandMenCamp","source":"BAG","source:date":"2021-11-08"}},"10914232537":{"location":[52.1469174,5.1433182],"ct":"NL","tp":"CS","ts":"2023-07-10T20:11:55Z","tX":526,"tY":337,"tags":{"caravans":"yes","name":"Poldercamping de Kooi","phone":"+31 6 23296050","shower":"yes","start_date":"2022-06-23","tents":"yes","toilets":"yes","website":"https://www.poldercamping.nl/"}},"4948814930":{"location":[52.0716667,5.0236593],"ct":"NL","tp":"CR","ts":"2017-07-03T12:37:01Z","tX":526,"tY":337,"tags":{}},"6178455785":{"location":[52.0722458,5.1494014],"ct":"NL","tp":"CR","ts":"2023-11-01T07:57:45Z","tX":526,"tY":337,"tags":{"fee":"yes","name":"Minicamping Utrecht","toilets":"yes"}},"10816920779":{"location":[52.1880876,5.0187917],"ct":"NL","tp":"SD","ts":"2023-04-16T20:17:02Z","tX":526,"tY":337,"tags":{"access":"customers","water_point":"yes"}},"12921379241":{"location":[52.1006009,5.1483409],"ct":"NL","tp":"CS","ts":"2025-06-17T13:27:17Z","tX":526,"tY":337,"tags":{"name":"City Camping Utrecht","website":"https://soloist.ai/citycampingutrecht"}}}