{"1169503":{"location":[51.8844145,4.9608403],"ct":"NL","tp":"CS","ts":"2023-05-30T12:25:36Z","tX":526,"tY":338,"tags":{"caravans":"yes","email":"camping@groenewaard.nl","landuse":"grass","name":"De Groene Waard","phone":"+31 183 581 286","shower":"yes","source":"3dShapes","tents":"yes","toilets":"yes","website":"http://www.groenewaard.nl/"}},"15592813":{"location":[51.9674664,5.0332389],"ct":"NL","tp":"CS","ts":"2023-06-13T05:58:17Z","tX":526,"tY":338,"tags":{"landcover":"grass","mobile":"+31 6 20747465","name":"De Uiterwaard","phone":"+31 6 14682489","shower":"yes","tents":"yes","toilets":"yes","website":"https://campingdeuiterwaard.nl"}},"15752655":{"location":[52.0013562,4.9533384],"ct":"NL","tp":"CS","ts":"2023-05-30T12:26:25Z","tX":526,"tY":338,"tags":{"caravans":"yes","contact:website":"https://www.recreatielandschaprosenboom.nl/boerencamping","email":"thijs@recreatielandschaprosenboom.nl","internet_access":"wlan","internet_access:fee":"no","motorhome":"yes","name":"Recreatie Landschap Rosenboom","opening_hours":"Mar 15-Oct 31","phone":"+31 6 18032051;+31 6 20984120","power_supply":"yes","shower":"yes","tents":"yes","toilets":"yes"}},"26859200":{"location":[51.8984215,5.1838575],"ct":"NL","tp":"CS","ts":"2010-04-28T17:39:53Z","tX":526,"tY":338,"tags":{"name":"Betuwestrand"}},"68773256":{"location":[51.9864927,5.0477455],"ct":"NL","tp":"CS","ts":"2025-01-22T21:40:33Z","tX":526,"tY":338,"tags":{"camp_site":"reception","contact:email":"info@campingkleinscheveningen.nl","contact:fax":"+31 30 688 8544","contact:phone":"+31 30 688 3360","contact:website":"http://www.campingkleinscheveningen.nl/site/camping.html","name":"Klein Scheveningen"}},"68776990":{"location":[51.9945447,5.054229],"ct":"NL","tp":"CS","ts":"2023-08-13T12:27:24Z","tX":526,"tY":338,"tags":{"caravans":"yes","landcover":"grass","mobile":"+31 6 26112491","name":"De Bruin","phone":"+31 30 688 5637","shower":"yes","tents":"yes","toilets":"yes","website":"http://www.svrcampingdebruin.nl/"}},"68794917":{"location":[51.9355489,4.964019],"ct":"NL","tp":"CS","ts":"2023-05-31T06:08:56Z","tX":526,"tY":338,"tags":{"brand":"SVR","caravans":"yes","email":"info@campingdevictorie.nl","name":"De Victorie","phone":"+31 183 352 741","shower":"yes","tents":"yes","toilets":"yes","website":"https://www.campingdevictorie.nl"}},"71398048":{"location":[52.0387214,5.229707],"ct":"NL","tp":"CS","ts":"2023-10-30T15:25:53Z","tX":526,"tY":338,"tags":{"addr:city":"Odijk","addr:housenumber":"12a","addr:postcode":"3984LG","addr:street":"Werkhovenseweg","email":"info@campingprinsenhof.nl","name":"Camping Prinsenhof","phone":"+31 343 551 457","website":"https://www.campingprinsenhof.nl/"}},"76666698":{"location":[51.884341,5.1233796],"ct":"NL","tp":"CS","ts":"2020-09-08T08:18:34Z","tX":526,"tY":338,"tags":{"landuse":"grass","name":"Felis Hoeve","source":"3dShapes","website":"https://www.felishoeve.nl/route/"}},"76743407":{"location":[51.9057638,5.0626206],"ct":"NL","tp":"CS","ts":"2023-05-31T06:08:48Z","tX":526,"tY":338,"tags":{"caravans":"yes","email":"reserveren@campingterleede.nl","name":"Ter Leede","phone":"+31 6 53605661;+31 6 53754944","shower":"yes","tents":"yes","toilets":"yes","website":"https://www.campingterleede.nl"}},"76747380":{"location":[51.902111,5.0732881],"ct":"NL","tp":"CS","ts":"2022-05-06T12:07:42Z","tX":526,"tY":338,"tags":{"addr:city":"Leerdam","addr:housenumber":"25","addr:postcode":"4143LN","addr:street":"Recht van ter Leede","email":"kampeerbosje@planet.nl","landuse":"forest","name":"Natuurkampeerterrein Kampeerbosje Leerdam","phone":"+31 6 12360441","source":"3dShapes","website":"https://kampeerbosje.nl"}},"118080150":{"location":[51.9032317,5.1359497],"ct":"NL","tp":"CS","ts":"2020-04-21T15:11:45Z","tX":526,"tY":338,"tags":{"name":"De Kooise"}},"118612764":{"location":[51.8778324,5.1897978],"ct":"NL","tp":"CS","ts":"2023-05-30T12:18:36Z","tX":526,"tY":338,"tags":{"addr:city":"Rumpt","addr:housenumber":"9","addr:postcode":"4156JG","addr:street":"Polderdijk","caravans":"yes","email":"contact@campingdepit.nl","landuse":"orchard","name":"Camping De Pit","phone":"+31 345 682 741","tents":"yes","website":"https://www.campingdepit.nl"}},"177555821":{"location":[51.8717638,5.2615586],"ct":"NL","tp":"CS","ts":"2024-04-13T09:55:47Z","tX":526,"tY":338,"tags":{"addr:city":"Deil","addr:housenumber":"6a","addr:postcode":"4158LE","addr:street":"Hooiweg","name":"De Kijfakker","phone":"+31 345 651 203","surface":"grass","website":"https://www.kijfakker.nl/"}},"254469832":{"location":[51.9619485,5.2211457],"ct":"NL","tp":"CS","ts":"2023-04-14T06:36:53Z","tX":526,"tY":338,"tags":{"addr:city":"Culemborg","addr:housenumber":"2","addr:postcode":"4101AE","addr:street":"De helling","capacity:caravans":"20","caravans":"yes","fee":"yes","name":"Camping Jachthaven De Helling","tents":"no"}},"340710381":{"location":[51.8455544,5.040174],"ct":"NL","tp":"CS","ts":"2022-09-05T20:21:32Z","tX":526,"tY":338,"tags":{"name":"Kampeerterrein De Lievelinge","source":"http://www.lievelinge.nl"}},"350044927":{"location":[51.9861199,5.0572959],"ct":"NL","tp":"CS","ts":"2009-02-23T14:35:52Z","tX":526,"tY":338,"tags":{"name":"Clementie"}},"350340298":{"location":[51.959579,4.9394538],"ct":"NL","tp":"CS","ts":"2023-05-30T12:26:19Z","tX":526,"tY":338,"tags":{"capacity":"350","caravans":"yes","email":"info@camping-dekoekoek.nl","landcover":"grass","name":"De Koekoek","phone":"+31 183 601 491","shower":"yes","tents":"yes","toilets":"yes","website":"https://www.campingdekoekoek.nl/de-camping/"}},"375776450":{"location":[51.835987,5.2214107],"ct":"NL","tp":"CS","ts":"2024-08-10T20:32:28Z","tX":526,"tY":338,"tags":{"addr:city":"Tuil","addr:country":"NL","addr:housenumber":"1","addr:postcode":"4176LV","addr:street":"Katijfweg","capacity:motorhome":"16","capacity:pitches":"35","caravans":"yes","email":"nicolette@hogeharen.nl","fee":"15â‚¬","mobile":"+31 6 30356552;+31 6 50431975","motorhome":"yes","name":"De Hoge Haren","phone":"+31 418 591 270","power_supply":"yes","shower":"yes","tents":"yes","toilets":"yes","website":"https://www.hogeharen.nl/"}},"400985127":{"location":[51.9416754,5.189603],"ct":"NL","tp":"CR","ts":"2022-02-08T11:41:20Z","tX":526,"tY":338,"tags":{"area":"yes","name":"Parc Beaugarde","tents":"no"}},"575267274":{"location":[51.8769463,5.2152921],"ct":"NL","tp":"CS","ts":"2025-03-21T09:13:53Z","tX":526,"tY":338,"tags":{"access":"customers","addr:city":"Enspijk","addr:housenumber":"1","addr:postcode":"4157PB","addr:street":"Panweg","cabins":"yes","camp_site":"deluxe","caravans":"yes","email":"rotonde@capfun.com","fee":"yes","name":"Vakantiepark De Rotonde","operator":"Capfun","operator:wikidata":"Q128893727","phone":"+31 345 651 315","static_caravans":"yes","tents":"yes","website":"https://www.capfun.nl/camping-nederland-gelderland-de_rotonde-NL.html"}},"785464740":{"location":[52.0174843,5.2429248],"ct":"NL","tp":"CR","ts":"2025-01-15T13:04:29Z","tX":526,"tY":338,"tags":{"addr:city":"Werkhoven","addr:housenumber":"98","addr:street":"Herenstraat","caravan_site":"motorhome_stopover","caravan_site:type":"village","charge":"21.80 EUR","check_in":"12:00","check_out":"11:00","drinking_water":"yes","email":"welkom@aanhetdorp.nl","fee":"yes","internet_access":"wlan","internet_access:fee":"no","motorhome_wash":"yes","name":"Aan het Dorp","phone":"+31 6 53386326","power_supply":"yes","power_supply:charge":"0.50 EUR/kWh, minimum 1 EUR","power_supply:fee":"yes","power_supply:maxcurrent":"6","reservation":"recommended","sanitary_dump_station":"yes","toilets":"yes","website":"https://aanhetdorp.nl"}},"1024904170":{"location":[52.0359919,5.0294805],"ct":"NL","tp":"CS","ts":"2025-01-22T22:36:15Z","tX":526,"tY":338,"tags":{"cabins":"yes","caravans":"yes","charge":"EUR 22","contact:email":"info@devoormolen.nl","contact:phone":"+31 6 12481062","contact:website":"https://www.devoormolen.nl","fee":"yes","name":"De Voormolen","static_caravans":"yes"}},"1110491547":{"location":[51.8978039,4.9355015],"ct":"NL","tp":"CR","ts":"2025-01-21T22:26:44Z","tX":526,"tY":338,"tags":{"caravan_site":"motorhome_stopover","caravan_site:type":"countryside","charge":"24 EUR","fee":"yes","internet_access":"wlan","internet_access:fee":"no","landuse":"grass","name":"Minicamping Giessenwaard","phone":"+31 6 123 215 45","power_supply":"yes","power_supply:capacity":"4 EUR","power_supply:fee":"yes","power_supply:maxcurrent":"10","shower":"yes","shower:fee":"no","toilets":"yes","toilets:fee":"no","website":"https://www.giessenwaard.nl/"}},"1128221588":{"location":[51.9007739,5.0266395],"ct":"NL","tp":"CS","ts":"2023-05-30T12:26:23Z","tX":526,"tY":338,"tags":{"caravans":"yes","email":"receptie@degrienduil.nl","name":"De Grienduil","phone":"+31 183 351 512","shower":"yes","tents":"yes","toilets":"yes","website":"https://degrienduil.nl/"}},"1142394654":{"location":[52.0459841,5.0186559],"ct":"NL","tp":"CR","ts":"2025-01-15T13:10:59Z","tX":526,"tY":338,"tags":{"caravan_site":"motorhome_stopover","caravan_site:type":"harbour","charge":"27 EUR","charge:conditional":"24 EUR@(\"low_season\")","check_in":"14:00","check_out":"13:00","fee":"yes","internet_access":"wlan","name":"Jachthaven Marnemoende Camperplaatsen","reservation":"yes","toilets":"yes","website":"https://www.marnemoende.nl/camperplaatsen"}},"1154988241":{"location":[52.0477985,5.1882285],"ct":"NL","tp":"CS","ts":"2024-11-15T16:59:38Z","tX":526,"tY":338,"tags":{"addr:city":"Bunnik","addr:housenumber":"2","addr:postcode":"3981HN","addr:street":"Rijsbruggerweg","bin":"yes","cabins":"yes","capacity:cabins":"3","capacity:pitches":"106","caravans":"yes","drinking_water":"yes","email":"mail@campingdevliert.nl","hot_water":"yes","internet_access":"yes","motorhome":"yes","name":"Camping de Vliert","phone":"+31 6 41518581","picnic_table":"yes","power_supply":"yes","sanitary_dump_station":"customers","shower":"yes","static_caravans":"yes","swimming_pool":"no","tents":"yes","toilets":"yes","washing_machine":"yes","website":"https://www.campingdevliert.nl/"}},"1155312349":{"location":[51.9319325,4.9658911],"ct":"NL","tp":"CS","ts":"2023-05-30T12:26:24Z","tX":526,"tY":338,"tags":{"caravans":"yes","email":"info@campingboogert.nl","landcover":"grass","name":"Boogert","phone":"+31 183 352 270","shower":"yes","tents":"yes","toilets":"yes","website":"https://www.campingboogert.nl/"}},"1157074045":{"location":[51.899543,5.0295505],"ct":"NL","tp":"CS","ts":"2023-05-30T12:26:24Z","tX":526,"tY":338,"tags":{"camp_site":"basic","capacity":"5","caravans":"yes","email":"boerderij@degroenegeer.nl","mobile":"+31 6 28161715;+31 6 41440572","name":"De Groene Geer","phone":"+31 183 353 276","shower":"yes","tents":"yes","toilets":"yes","website":"https://degroenegeer.nl/kamperen/"}},"1157423794":{"location":[51.9879048,5.1305733],"ct":"NL","tp":"CS","ts":"2023-11-28T21:50:16Z","tX":526,"tY":338,"tags":{"cabins":"yes","caravans":"yes","name":"Camping Everstein","phone":"+31 347 351 785","shower":"yes","static_caravans":"yes","tents":"yes","toilets":"yes","website":"https://www.campingeverstein.nl/"}},"1165491250":{"location":[51.8397869,5.2441428],"ct":"NL","tp":"CS","ts":"2023-04-25T21:41:23Z","tX":526,"tY":338,"tags":{"cabins":"yes","caravans":"yes","motorhome":"yes","name":"De Eendenkooi","opening_hours":"Apr 1 - Oct 1","phone":"+31 6 20268488","shower":"yes","tents":"yes","toilets":"yes","website":"https://campingdeeendenkooi.nl/"}},"1267596375":{"location":[51.9454541,5.0470636],"ct":"NL","tp":"CS","ts":"2024-03-30T13:13:02Z","tX":526,"tY":338,"tags":{"caravans":"yes","dog":"yes","internet_access":"wlan","name":"Camping \"Bij Nader Inzien\"","phone":"+31 6 49740571","shower":"yes","tents":"yes","toilets":"yes","url":"http://www.campingbijnaderinzien.nl/"}},"1351552980":{"location":[51.9981278,5.0900604],"ct":"NL","tp":"CR","ts":"2025-01-22T22:23:07Z","tX":526,"tY":338,"tags":{"capacity":"2","caravan_site":"motorhome_stopover","caravan_site:type":"river","charge":"11.95 EUR","fee":"yes","fixme":"verify if there is a power_supply (city website says no)","maxstay":"3 nights","name":"Parking Ponthoeve","shower":"no","surface":"asphalt","toilets":"no","water_supply":"yes","website":"https://www.vijfheerenlanden.nl/campers/2/parking-ponthoeve"}},"1351556100":{"location":[51.8865398,5.0870183],"ct":"NL","tp":"CR","ts":"2025-01-15T12:40:46Z","tX":526,"tY":338,"tags":{"caravan_site":"motorhome_stopover","caravan_site:type":"river;town","charge":"10.50 EUR","fee":"yes","name":"Parking Lingedijk","power_supply":"no","sanitary_dump_station":"no","tents":"no","website":"https://www.vijfheerenlanden.nl/campers/4/parking-lingedijk"}},"1351559265":{"location":[52.0346431,5.2406183],"ct":"NL","tp":"CR","ts":"2025-05-13T18:11:26Z","tX":526,"tY":338,"tags":{"capacity":"11","caravan_site":"motorhome_stopover","caravan_site:type":"farm","charge":"22.40 EUR","dog":"leashed","email":"info@camperplaatsdekersenpit.nl","fee":"yes","internet_access":"wlan","name":"Camperplaats de Kersenpit","phone":"+31 6 57868180","power_supply":"yes","power_supply:fee":"no","power_supply:maxcurrent":"8","reservation":"yes","sanitary_dump_station":"yes","shower":"yes","shower:fee":"no","surface":"pebblestone","toilets":"yes","toilets:fee":"no","water_point":"yes","water_point:fee":"no","website":"https://www.camperplaatsdekersenpit.nl/"}},"1353526875":{"location":[51.9628067,5.1773416],"ct":"NL","tp":"CR","ts":"2025-01-22T22:20:06Z","tX":526,"tY":338,"tags":{"caravan_site":"motorhome_stopover","caravan_site:type":"fort","charge":"15 EUR + tourist_tax","check_in":"14:00-18:00","check_out":"14:00","dog":"leashed","fee":"yes","name":"Fort Everdingen","power_supply":"yes","power_supply:charge":"2.50 EUR","power_supply:fee":"yes","reservation":"yes","sanitary_dump_station":"yes","shower":"yes","toilets":"yes","website":"http://forteverdingen.com/accommodaties/"}},"1353530877":{"location":[52.0344527,5.0318548],"ct":"NL","tp":"CR","ts":"2025-01-22T22:36:15Z","tX":526,"tY":338,"tags":{"caravan_site":"motorhome_stopover","caravan_site:type":"camp_site","fee":"yes","name":"Caravanpark de Voormolen","opening_hours":"Apr 01-Oct 15","website":"https://www.devoormolen.nl/"}},"2877716295":{"location":[52.0339243,5.2656496],"ct":"NL","tp":"CS","ts":"2023-05-28T09:25:40Z","tX":526,"tY":338,"tags":{"addr:city":"Driebergen-Rijsenburg","addr:housenumber":"23a","addr:postcode":"3972NC","addr:street":"Langbroekerdijk","email":"camping@strosteeg.nl","name":"Strosteeg","phone":"+31 6 28570895","source":"BAG","source:date":"2014-05-24","website":"https://www.strosteeg.nl"}},"3833268687":{"location":[51.9981171,5.0900499],"ct":"NL","tp":"CR","ts":"2015-12-10T21:16:13Z","tX":526,"tY":338,"tags":{"capacity":"campers:4","fee":"no","power_supply":"cee_17_blue","water_supply":"yes"}},"4652670734":{"location":[51.9860047,5.1597763],"ct":"NL","tp":"CS","ts":"2023-05-31T21:09:05Z","tX":526,"tY":338,"tags":{"name":"Natuurcamping Fort WKU","nudism":"no","tents":"yes","website":"https://www.fortwku.nl/kamperen"}},"5859336925":{"location":[51.9615966,5.1739451],"ct":"NL","tp":"CS","ts":"2023-09-11T18:03:16Z","tX":526,"tY":338,"tags":{"caravans":"yes","contact:website":"http://forteverdingen.com/camping","drinking_water":"yes","name":"Camping fort Everdingen","power_supply":"yes","shower":"yes","tents":"yes","toilets":"yes"}},"4300844702":{"location":[52.0136668,5.1012998],"ct":"NL","tp":"CR","ts":"2016-07-13T16:30:04Z","tX":526,"tY":338,"tags":{"name":"Trigano Campers Caravan","operator":"Dealer"}},"5062006969":{"location":[51.8836218,4.9461249],"ct":"NL","tp":"CR","ts":"2020-06-09T15:45:59Z","tX":526,"tY":338,"tags":{"name":"'t Spulletje"}},"6851206740":{"location":[51.9629199,5.1773469],"ct":"NL","tp":"CR","ts":"2023-09-11T07:50:31Z","tX":526,"tY":338,"tags":{"charge":"EUR 15","fee":"yes","name":"Fort Everdingen","reservation":"yes","website":"http://forteverdingen.com/"}},"11300218488":{"location":[52.0346279,5.2406039],"ct":"NL","tp":"CR","ts":"2023-10-30T15:21:02Z","tX":526,"tY":338,"tags":{}},"12122506550":{"location":[52.0476624,5.1894321],"ct":"NL","tp":"SD","ts":"2024-08-22T17:38:41Z","tX":526,"tY":338,"tags":{"access":"customers","sanitary_dump_station:gravity":"yes","sanitary_dump_station:grey_water":"yes"}},"12122506551":{"location":[52.0477697,5.1887635],"ct":"NL","tp":"SD","ts":"2024-08-22T17:38:41Z","tX":526,"tY":338,"tags":{"access":"customers","sanitary_dump_station:gravity":"yes","sanitary_dump_station:grey_water":"yes"}},"12128220324":{"location":[52.0480761,5.1875733],"ct":"NL","tp":"SD","ts":"2024-08-22T17:38:41Z","tX":526,"tY":338,"tags":{"access":"customers","sanitary_dump_station:chemical_toilet":"yes"}},"12128220325":{"location":[52.048154,5.1891169],"ct":"NL","tp":"SD","ts":"2024-08-24T10:06:56Z","tX":526,"tY":338,"tags":{"access":"customers","sanitary_dump_station:chemical_toilet":"yes","sanitary_dump_station:gravity":"yes"}},"12504367499":{"location":[51.8828798,5.0867611],"ct":"NL","tp":"CR","ts":"2025-01-15T12:40:46Z","tX":526,"tY":338,"tags":{"attraction":"Nationaal Glasmuseum","capacity":"2","caravan_site":"motorhome_stopover","caravan_site:type":"museum","caravans":"no","charge":"10.50 EUR","fee":"yes","maxstay":"3 nights","name":"Parking Glasmuseum Leerdam","power_supply":"no","sanitary_dump_station":"no","toilets":"no","water_point":"no","website":"https://www.vijfheerenlanden.nl/campers/3/parking-glasmuseum"}}}