{"39386396":{"location":[51.7547071,5.1531081],"ct":"NL","tp":"CS","ts":"2023-05-30T12:18:26Z","tX":526,"tY":339,"tags":{"email":"w.pluim@planet.nl","name":"Natuurkampeerterrein Kasteel Nederhemert Zuid","phone":"+31 6 53968077","website":"https://www.natuurkampeerterreinen.nl/terreinen/gelderland/kasteel-nederhemert-zuid"}},"76861726":{"location":[51.8185306,5.1249633],"ct":"NL","tp":"CS","ts":"2025-05-19T20:25:48Z","tX":526,"tY":339,"tags":{"name":"Camping De Zwaan"}},"86741424":{"location":[51.6589679,5.0869587],"ct":"NL","tp":"CS","ts":"2025-04-19T07:33:04Z","tX":526,"tY":339,"tags":{"alt_name":"Het Genieten","caravans":"yes","name":"Kaatsheuvel","operator":"Marvilla Parks","tents":"yes"}},"86742164":{"location":[51.6599289,5.0546208],"ct":"NL","tp":"CS","ts":"2022-12-23T19:32:16Z","tX":526,"tY":339,"tags":{"name":"Mini Camping De Hoefstal","website":"https://www.campingdehoefstal.nl"}},"126147577":{"location":[51.6254073,5.1704013],"ct":"NL","tp":"CS","ts":"2023-05-30T12:21:43Z","tX":526,"tY":339,"tags":{"contact:email":"info@hoevedemertel.nl","internet_access":"wlan","internet_access:fee":"no","landuse":"grass","name":"Hoeve De Mertel","phone":"+31 13 511 1764","website":"https://www.hoevedemertel.nl/"}},"253152381":{"location":[51.8173364,4.9976483],"ct":"NL","tp":"CS","ts":"2023-05-30T20:10:44Z","tX":526,"tY":339,"tags":{"landuse":"grass","name":"De Mosterdpot","website":"https://demosterdpot.nl"}},"367616142":{"location":[51.6293516,5.0142775],"ct":"NL","tp":"CS","ts":"2025-04-18T13:42:01Z","tX":526,"tY":339,"tags":{"caravans":"yes","name":"Minicamping Le Silence","tents":"yes","website":"https://le-silence.nl"}},"470070840":{"location":[51.6409645,5.1786631],"ct":"NL","tp":"CS","ts":"2019-10-13T16:11:02Z","tX":526,"tY":339,"tags":{"description":"Kleine camping","name":"Camping Weideblik","website":"https://www.weideblik.nl"}},"504618886":{"location":[51.6513393,5.2150396],"ct":"NL","tp":"CS","ts":"2017-07-02T21:05:15Z","tX":526,"tY":339,"tags":{}},"556485297":{"location":[51.6248673,5.2125272],"ct":"NL","tp":"CS","ts":"2018-01-28T14:45:18Z","tX":526,"tY":339,"tags":{"name":"De Gijzel"}},"633052943":{"location":[51.7380979,5.2354562],"ct":"NL","tp":"CS","ts":"2021-05-19T19:24:04Z","tX":526,"tY":339,"tags":{"addr:city":"'s-Hertogenbosch","addr:housenumber":"3A","addr:postcode":"5221BS","addr:street":"Driekoningenplein","capacity":"10","fee":"yes","name":"Minicamping Bokhoven","operator":"kamperen bij de boer","phone":"+31 6 34135002","website":"https://www.minicampingbokhoven.nl/"}},"705471254":{"location":[51.7910025,5.0927051],"ct":"NL","tp":"CS","ts":"2010-04-24T19:32:31Z","tX":526,"tY":339,"tags":{"name":"Boeren camping"}},"705471260":{"location":[51.7744242,5.0665809],"ct":"NL","tp":"CS","ts":"2010-04-25T18:13:36Z","tX":526,"tY":339,"tags":{"addr:city":"Andel","addr:country":"NL","addr:housenumber":"16","addr:postcode":"4281KH","addr:street":"Middenweg","name":"Minicamping 't Wài-ke"}},"752295900":{"location":[51.6303942,5.1173088],"ct":"NL","tp":"CS","ts":"2019-12-04T10:51:44Z","tX":526,"tY":339,"tags":{}},"753350306":{"location":[51.638819,5.1599172],"ct":"NL","tp":"CS","ts":"2019-12-06T16:22:49Z","tX":526,"tY":339,"tags":{}},"754048473":{"location":[51.6385136,5.1788252],"ct":"NL","tp":"CS","ts":"2021-05-16T11:53:13Z","tX":526,"tY":339,"tags":{"name":"Minicamping de Stamhoeve","website":"https://www.stamhoeve.nl/"}},"949102049":{"location":[51.6356771,5.1167241],"ct":"NL","tp":"CS","ts":"2023-05-30T12:22:03Z","tX":526,"tY":339,"tags":{"addr:city":"Udenhout","addr:housenumber":"4","addr:postcode":"5071RR","addr:street":"Oude Bosschebaan","cabins":"yes","caravans":"yes","email":"info@duinhoeve.nl","name":"Recreatiepark Duinhoeve","phone":"+31 13 511 1363","tents":"yes","website":"https://www.duinhoeve.nl"}},"1030011165":{"location":[51.664097,5.1904724],"ct":"NL","tp":"CS","ts":"2023-05-30T12:22:03Z","tX":526,"tY":339,"tags":{"addr:city":"Helvoirt","addr:housenumber":"1","addr:postcode":"5268LW","addr:street":"Margrietweg","email":"camping@distelloo.nl","fee":"yes","internet_access":"wlan","internet_access:fee":"no","name":"Distelloo","phone":"+31 411 642 154","website":"https://www.camping-bungalows-distelloo.nl/"}},"1058467723":{"location":[51.714855,5.0889558],"ct":"NL","tp":"CS","ts":"2022-05-12T07:15:26Z","tX":526,"tY":339,"tags":{"addr:city":"Waalwijk","addr:housenumber":"31","addr:postcode":"5145PM","addr:street":"Valkenvoortweg","camping":"yes","name":"Waleuk","phone":"+31 6 20710292","website":"https://www.waleuk.nl/mini-camping"}},"1060513152":{"location":[51.7821424,5.1071649],"ct":"NL","tp":"CS","ts":"2023-05-30T12:22:04Z","tX":526,"tY":339,"tags":{"addr:city":"Veen","addr:housenumber":"108","addr:postcode":"4264AP","addr:street":"Maasdijk","area":"yes","email":"vanwijgerden@campingdeherberg.nl","name":"Camping de Herberg","phone":"+31 416 692 906","website":"https://campingdeherberg.nl"}},"1165238253":{"location":[51.7842554,4.9389192],"ct":"NL","tp":"CS","ts":"2023-05-30T12:22:05Z","tX":526,"tY":339,"tags":{"capacity:pitches":"15","caravans":"yes","landcover":"grass","name":"’t Hulpgat","opening_hours":"Apr 15 - Sep 30","phone":"+31 6 53301912","shower":"yes","tents":"yes","toilets":"yes","website":"https://www.hulpgat.nl/"}},"1182826091":{"location":[51.7802331,5.0939774],"ct":"NL","tp":"CS","ts":"2023-06-18T08:14:27Z","tX":526,"tY":339,"tags":{"capacity:pitches":"8","caravans":"yes","email":"c.a.vos@hetnet.nl","landcover":"grass","name":"de Kaaie Paole","phone":"+31 6 51806386","shower":"yes","tents":"yes","toilets":"yes","website":"http://www.kaaiepaole.net/"}},"1182841406":{"location":[51.7231927,5.0885595],"ct":"NL","tp":"CS","ts":"2023-06-18T10:33:54Z","tX":526,"tY":339,"tags":{"capacity:pitches":"34","caravans":"yes","email":"info@boederijcampingdelinde.nl","internet_access":"wlan","internet_access:fee":"no","landcover":"grass","name":"Camping de Linde","phone":"+31 6 17103468","shower":"yes","tents":"yes","toilets":"yes","website":"https://boerderijcampingdelinde.nl/"}},"1186326986":{"location":[51.8106896,5.2399318],"ct":"NL","tp":"CR","ts":"2025-01-20T00:53:11Z","tX":526,"tY":339,"tags":{"capacity":"6","caravan_site":"motorhome_stopover","caravan_site:type":"town","description":"next to parking lot. 500m walk to Zaltbommel Binnenstad","dog":"leashed","fee":"no","maxstay":"48 hours","name":"Camperplaats De Beersteeg","power_supply":"no","sanitary_dump_station":"no","surface":"paving_stones","water_point":"no","wikimedia_commons":"File:Caperplaats De Beersteeg 2.jpg"}},"1188438998":{"location":[51.6269935,5.0982885],"ct":"NL","tp":"CS","ts":"2023-07-09T12:16:28Z","tX":526,"tY":339,"tags":{"capacity:pitches":"5","motorhome":"yes","name":"Moonen","phone":"+31 6 25048192"}},"1195173483":{"location":[51.6626591,5.1435918],"ct":"NL","tp":"CS","ts":"2023-08-06T06:14:26Z","tX":526,"tY":339,"tags":{"cabins":"yes","capacity:pitches":"25","caravans":"yes","email":"info@de-schaapskooi.nl","motorhome":"yes","name":"De Schaapskooi","opening_hours":"Mar 17 - Oct 29","phone":"+31 6 41933861","shower":"yes","start_date":"1997","tents":"yes","toilets":"yes","website":"https://www.de-schaapskooi.nl/"}},"1195176104":{"location":[51.6559517,5.1501198],"ct":"NL","tp":"CS","ts":"2023-08-06T06:47:45Z","tX":526,"tY":339,"tags":{"cabins":"yes","capacity:cabins":"1","capacity:pitches":"14","caravans":"yes","email":"info@campinghetsmitske.nl","motorhome":"yes","name":"'t Smitske","shower":"yes","tents":"yes","toilets":"yes","website":"https://www.campinghetsmitske.nl/"}},"1250227378":{"location":[51.826851,4.9649139],"ct":"NL","tp":"CR","ts":"2025-01-21T17:30:39Z","tX":526,"tY":339,"tags":{"capacity":"24","caravan_site":"motorhome_stopover","caravan_site:type":"harbour","charge:conditional":"22.50 EUR @ (Oct 15-Apr 14)","check_in":"09:00-21:00","check_out":"12:00","email":"ofni@wvdemerwede.nl","fee":"yes","internet_access":"wlan","internet_access:fee":"customers","maxstay":"72 hours","name":"De Punt","operator":"W.V. De Merwede","power_supply":"yes","power_supply:fee":"no","reservation":"no","sanitary_dump_station":"yes","water_point":"yes","water_point:fee":"no","website":"https://www.camperplaatsdepunt.nl/"}},"1352963246":{"location":[51.7382743,5.1405904],"ct":"NL","tp":"CR","ts":"2025-01-20T17:32:54Z","tX":526,"tY":339,"tags":{"capacity":"40","caravan_site":"motorhome_stopover","caravan_site:type":"harbour","charge":"25.70 EUR","email":"info@camperplaatsheusden.nl","fee":"yes","internet_access":"yes","internet_access:fee":"customers","name":"Camperplaats Heusden","opening_hours":"24/7","power_supply":"yes","power_supply:maxcurrent":"16","reservation":"yes","restaurant":"yes","sanitary_dump_station":"yes","seasonal":"no","shower":"yes","static_caravans":"no","tents":"no","toilets":"yes","website":"https://www.nauticalservicesheusden.nl/camperplaats-heusden/"}},"1353045097":{"location":[51.7628823,5.2241814],"ct":"NL","tp":"CR","ts":"2025-01-21T01:35:36Z","tX":526,"tY":339,"tags":{"caravan_site":"motorhome_stopover","caravan_site:type":"countryside","charge":"17.50 EUR","email":"info@hoppies.nl","fee":"yes","internet_access":"wlan","name":"de Hoppies","opening_hours":"May 01-Oct 15","phone":"+31 6 27137354","power_supply":"yes","power_supply:fee":"no","reservation":"required","sanitary_dump_station":"yes","seasonal":"yes","shower":"yes","toilets":"yes","website":"https://hoppies.nl/index.php/camperlocatie"}},"2757275883":{"location":[51.7849534,5.1133658],"ct":"NL","tp":"CR","ts":"2024-04-20T15:39:14Z","tX":526,"tY":339,"tags":{"addr:city":"Aalst","addr:housenumber":"3","addr:postcode":"5308JK","addr:street":"Zaaiwaard","name":"Recreatiepark het Esmeer","source":"BAG","source:date":"2014-03-24","website":"https://www.topparken.nl/recreatiepark-het-esmeer"}},"2840122394":{"location":[51.6327151,5.0789707],"ct":"NL","tp":"CS","ts":"2022-03-18T12:56:23Z","tX":526,"tY":339,"tags":{"addr:city":"Loon op Zand","addr:housenumber":"6A","addr:postcode":"5175BT","addr:street":"Land van Kleef","source":"BAG","source:date":"2014-05-01"}},"2840172049":{"location":[51.629654,5.1161237],"ct":"NL","tp":"CS","ts":"2025-05-30T10:22:46Z","tX":526,"tY":339,"tags":{"addr:city":"Udenhout","addr:housenumber":"30","addr:postcode":"5071RC","addr:street":"Schoorstraat","email":"camping@dezandley.nl","name":"Camping De Zandley","phone":"+31 13 511 0022","source":"BAG","source:date":"2014-03-24","website":"https://www.dezandley.nl/"}},"2907429606":{"location":[51.8115225,4.9417595],"ct":"NL","tp":"CS","ts":"2019-08-10T08:57:57Z","tX":526,"tY":339,"tags":{"addr:city":"Sleeuwijk","addr:housenumber":"42D","addr:postcode":"4254BC","addr:street":"Transvaal","name":"Camping de la rue","source":"BAG","source:date":"2019-04-20","website":"https://www.campingdelarue.nl"}},"2912051668":{"location":[51.7781055,5.0799717],"ct":"NL","tp":"CS","ts":"2020-03-24T11:08:45Z","tX":526,"tY":339,"tags":{"addr:city":"Andel","addr:housenumber":"57","addr:postcode":"4281NE","addr:street":"Hoge Maasdijk","name":"De Hoge Waard","source":"BAG","source:date":"2014-03-24","url":"http://www.dehogewaard.nl/"}},"3715256583":{"location":[51.6308114,5.0379499],"ct":"NL","tp":"CS","ts":"2019-08-22T10:34:31Z","tX":526,"tY":339,"tags":{"name":"De Kraanvensche Berg","website":"https://www.dekraanvenscheberg.nl/"}},"4068972390":{"location":[51.8143765,5.0274707],"ct":"NL","tp":"CR","ts":"2025-02-15T09:52:18Z","tX":526,"tY":339,"tags":{"attraction":"Rijksmuseum Slot Loevestein","capacity":"4","caravan_site":"motorhome_stopover","caravan_site:type":"museum;castle","designation":"camper","fee":"no","maxstay":"48 hours","name":"Camperplaats Loevestein","power_supply":"no","sanitary_dump_station":"no","source":"survey","tents":"no","toilets":"no","water_point":"no","website":"https://www.slotloevestein.nl/camperplaats/"}},"4887298621":{"location":[51.7503346,5.1347683],"ct":"NL","tp":"CS","ts":"2020-06-23T19:53:10Z","tX":526,"tY":339,"tags":{"addr:city":"Wijk en Aalburg","addr:housenumber":"16","addr:street":"Maasdijk","name":"'t Wertje","name:nl":"'t Wertje"}},"4956143422":{"location":[51.7257604,5.1287351],"ct":"NL","tp":"CS","ts":"2022-11-04T12:24:09Z","tX":526,"tY":339,"tags":{"addr:city":"Oudheusden","addr:postcode":"5256KB","addr:street":"Westakker","email":"info@campingdereekens.nl","internet_access":"wlan","name":"Minicamping De Reekens","phone":"+31 416 662 247","website":"https://www.campingheusden.nl/"}},"5018398322":{"location":[51.629644,5.1161343],"ct":"NL","tp":"CS","ts":"2022-11-04T12:17:48Z","tX":526,"tY":339,"tags":{"addr:city":"Udenhout","addr:housenumber":"30","addr:postcode":"5071RC","addr:street":"Schoorstraat","email":"camping@dezandley.nl","name":"Camping De Zandley","phone":"+31 13 511 0022","website":"https://www.dezandley.nl/"}},"5509093524":{"location":[51.6282764,5.0115928],"ct":"NL","tp":"CS","ts":"2025-04-18T13:42:02Z","tX":526,"tY":339,"tags":{"addr:city":"De Moer","addr:housenumber":"20","addr:postcode":"5176NG","addr:street":"Zijstraat","caravans":"yes","email":"info@dezwammenberg.nl","name":"Camping De Zwammenberg","phone":"+31 13 515 6010","tents":"yes","website":"https://www.dezwammenberg.nl"}},"7761614485":{"location":[51.6372222,5.1916667],"ct":"NL","tp":"CS","ts":"2020-08-19T18:16:55Z","tX":526,"tY":339,"tags":{"name":"Runsvoort","website":"https://www.runsvoort.nl"}},"7762322685":{"location":[51.756906,5.019365],"ct":"NL","tp":"CS","ts":"2020-07-28T18:27:22Z","tX":526,"tY":339,"tags":{"website":"https://www.oldershof.nl/"}},"8977902229":{"location":[51.7645116,5.2190857],"ct":"NL","tp":"CS","ts":"2023-05-21T17:16:24Z","tX":526,"tY":339,"tags":{"name":"Minicamping de Spijken","website":"https://www.despijken.nl/"}},"9308671748":{"location":[51.7753352,5.1341104],"ct":"NL","tp":"CS","ts":"2021-12-03T14:20:34Z","tX":526,"tY":339,"tags":{"camp_site":"reception"}},"9308671749":{"location":[51.7767558,5.1305017],"ct":"NL","tp":"CS","ts":"2021-12-03T14:20:34Z","tX":526,"tY":339,"tags":{"addr:city":"Aalst","addr:housenumber":"15","addr:postcode":"5308JA","addr:street":"Maasdijk","name":"Camping De Rietschoof","website":"https://www.rietschoof.nl/"}},"12128546311":{"location":[51.8221626,5.030455],"ct":"NL","tp":"CS","ts":"2024-08-22T20:51:26Z","tX":526,"tY":339,"tags":{"caravans":"No","description":"Tents only, toilet and showers","name":"Fort Vurig","shower":"yes","tents":"only","toilets":"yes","website":"https://www.fortvurig.nl/#blijven"}},"9162773976":{"location":[51.7816188,4.9651156],"ct":"NL","tp":"CR","ts":"2025-01-21T16:53:35Z","tX":526,"tY":339,"tags":{"caravan_site":"motorhome_stopover","caravan_site:type":"farm_shop","fee":"yes","name":"Landgoed Clootwijck","website":"https://www.clootwijck.nl/"}},"9635315636":{"location":[51.7384993,5.1404189],"ct":"NL","tp":"CR","ts":"2022-04-04T09:59:44Z","tX":526,"tY":339,"tags":{"internet_access":"yes","internet_access:fee":"customers","name":"Camperplaats Heusden","power_supply":"yes","sanitary_dump_station":"yes","static_caravans":"no","tents":"no","website":"https://www.nauticalservicesheusden.nl/camperplaats-heusden/"}},"11891388193":{"location":[51.7631277,5.2253125],"ct":"NL","tp":"CR","ts":"2024-05-09T14:22:32Z","tX":526,"tY":339,"tags":{"name":"de Hoppies"}}}