{"7076292":{"location":[51.5701789,5.1557869],"ct":"NL","tp":"CS","ts":"2023-05-30T20:11:07Z","tX":526,"tY":340,"tags":{"addr:city":"Heukelom","addr:housenumber":"5","addr:postcode":"5059AN","addr:street":"Laag Heukelomseweg","alt_name":"Kampeerboerderij Heukeloms Hoefke","email":"info@heukelomshoefke.nl","facebook":"https://www.facebook.com/heukelomshoefke","name":"Heukeloms Hoefke","phone":"+31 13 533 1830","reservation":"yes","website":"https://www.heukelomshoefke.nl"}},"26859195":{"location":[51.528243,5.1247698],"ct":"NL","tp":"CS","ts":"2021-02-23T17:15:03Z","tX":526,"tY":340,"tags":{"name":"Beekse Bergen"}},"77341937":{"location":[51.4598599,4.9419534],"ct":"NL","tp":"CS","ts":"2023-04-27T17:33:07Z","tX":526,"tY":340,"tags":{"cabins":"yes","capacity:cabins":"1","caravans":"yes","email":"info@venneweide.nl","internet_access":"wlan","internet_access:fee":"no","landcover":"grass","name":"De Venneweide","opening_hours":"Apr 1 - Sep 31","phone":"+31 6 20122461","shower":"yes","tents":"yes","toilets":"yes","website":"https://www.venneweide.nl/"}},"77432466":{"location":[51.5011964,5.0634397],"ct":"NL","tp":"CS","ts":"2018-09-17T20:39:39Z","tX":526,"tY":340,"tags":{}},"77455382":{"location":[51.5066963,5.1184846],"ct":"NL","tp":"CS","ts":"2024-09-01T20:24:08Z","tX":526,"tY":340,"tags":{"landuse":"grass","name":"PietershoeK","source":"3dShapes","website":"https://pietershoek.nl/"}},"77455753":{"location":[51.5032615,5.1628698],"ct":"NL","tp":"CS","ts":"2023-05-30T12:21:41Z","tX":526,"tY":340,"tags":{"addr:city":"Biest-Houtakker","addr:housenumber":"2","addr:postcode":"5084HE","addr:street":"Biestsestraat","cabins":"yes","capacity":"26","caravans":"yes","email":"info@delanderijenrecreatie.nl","fee":"yes","internet_access":"wlan","internet_access:fee":"no","name":"Minicamping de Landerijen","phone":"+31 13 505 4861","shower":"yes","tents":"yes","toilets":"yes","website":"https://www.delanderijenrecreatie.nl/"}},"77469014":{"location":[51.4598654,5.1299889],"ct":"NL","tp":"CS","ts":"2014-12-19T13:52:55Z","tX":526,"tY":340,"tags":{"landuse":"grass","name":"De Tramhalte","note":"mini camping","source":"3dShapes"}},"77485927":{"location":[51.4083455,5.1680701],"ct":"NL","tp":"CS","ts":"2020-07-28T14:58:28Z","tX":526,"tY":340,"tags":{"landuse":"grass","name":"Hoeve Heikant","source":"3dShapes","website":"https://www.hoeveheikant.nl/"}},"84058720":{"location":[51.5427169,5.2458897],"ct":"NL","tp":"CS","ts":"2023-05-30T20:10:43Z","tX":526,"tY":340,"tags":{"addr:city":"Oisterwijk","addr:housenumber":"11a","addr:postcode":"5062TH","addr:street":"Kollenburgsebaan","camp_site":"deluxe","caravans":"yes","description":"Boerderijcamping","email":"info@gerrithoeve.nl","internet_access":"yes","internet_access:fee":"no","name":"De Gerrithoeve","phone":"+31 411 673 189","power_supply":"yes","website":"https://www.gerrithoeve.nl"}},"84092908":{"location":[51.5422084,5.2362152],"ct":"NL","tp":"CS","ts":"2023-05-30T12:21:42Z","tX":526,"tY":340,"tags":{"addr:city":"Oisterwijk","addr:country":"NL","addr:housenumber":"23","addr:postcode":"5062TG","addr:street":"Oirschotsebaan 23","email":"janopthoog1958@gmail.com","name":"'t Kruispunt","phone":"+31 13 513 3324","source":"survey","website":"http://www.het-kruispunt.tk/"}},"85883971":{"location":[51.4463099,5.1860669],"ct":"NL","tp":"CS","ts":"2021-06-27T09:32:45Z","tX":526,"tY":340,"tags":{"landuse":"grass","name":"de Heibloem","source":"3dShapes","website":"https://www.deheibloem.nl/"}},"85939626":{"location":[51.3996296,5.1982745],"ct":"NL","tp":"CS","ts":"2023-06-13T05:55:56Z","tX":526,"tY":340,"tags":{"caravans":"yes","internet_access":"wlan","internet_access:fee":"no","landcover":"grass","mobile":"+31 6 27135423","name":"De Tureluur","phone":"+31 497 682 365","shower":"yes","tents":"yes","toilets":"yes","website":"https://www.detureluur.com/minicamping/"}},"86764774":{"location":[51.6100885,5.0759188],"ct":"NL","tp":"CS","ts":"2020-06-06T06:55:33Z","tX":526,"tY":340,"tags":{"name":"De Kommer","source":"3dShapes","website":"https://www.dekommer.nl"}},"225158551":{"location":[51.4852976,4.9908101],"ct":"NL","tp":"CS","ts":"2023-05-30T12:21:44Z","tX":526,"tY":340,"tags":{"addr:city":"Alphen","addr:housenumber":"4","addr:postcode":"5131RG","addr:street":"Goorstraat","camp_site":"serviced","caravans":"yes","email":"camping@dehoevens.nl","fax":"+31 13 508 2608","fee":"yes","name":"Natuurkampeerterrein Landgoed De Hoevens","opening_hours":"Nov-Mar off","phone":"+31 6 53266307","shower":"yes","tents":"yes","toilets":"yes","website":"https://dehoevens.nl/"}},"235049124":{"location":[51.5590404,5.2385195],"ct":"NL","tp":"CS","ts":"2025-01-28T13:23:50Z","tX":526,"tY":340,"tags":{"caravans":"yes","drinking_water":"yes","name":"Rozephoeve","shower":"yes","tents":"yes","toilets":"yes"}},"266582911":{"location":[51.4291854,4.9575251],"ct":"NL","tp":"CS","ts":"2008-05-24T03:17:49Z","tX":526,"tY":340,"tags":{"created_by":"JOSM","name":"De Kievit"}},"442469820":{"location":[51.5531377,5.1892698],"ct":"NL","tp":"CS","ts":"2023-05-30T12:21:56Z","tX":526,"tY":340,"tags":{"addr:city":"Moergestel","addr:housenumber":"11","addr:postcode":"5066CC","addr:province":"Noord-Brabant","addr:street":"Stokske","caravans":"yes","contact:facebook":"https://www.facebook.com/delindehoef","email":"info@delindehoef.nl","mobile":"+31 6 12129415;+31 6 12905381","name":"De Lindehoef","operator":"Jan en Willy Mutsaars","shower":"yes","tents":"yes","toilets":"yes","website":"http://delindehoef.nl"}},"515466830":{"location":[51.4408428,4.9621725],"ct":"NL","tp":"CS","ts":"2021-09-16T11:37:07Z","tX":526,"tY":340,"tags":{"addr:city":"Baarle-Nassau","addr:housenumber":"9a","addr:postcode":"5111HH","addr:street":"Veldbraak","caravans":"yes","drinking_water":"yes","email":"minicamping@veldrust.nl","fee":"yes","internet_access":"wlan","internet_access:fee":"no","name":"Minicamping Veldrust","phone":"+31 13 507 9845","sanitary_dump_station":"customers","tents":"yes","website":"https://veldrust.nl/"}},"529032805":{"location":[51.5683817,5.2358778],"ct":"NL","tp":"CS","ts":"2025-01-29T16:54:46Z","tX":526,"tY":340,"tags":{"addr:city":"Oisterwijk","addr:housenumber":"15","addr:postcode":"5062TM","addr:street":"Scheibaan","barrier":"no","big_rigs":"yes","camp_type":"established","caravans":"yes","charge":"EUR 19.80 (2 adults, camper)","credit_card:uplift":"no","description":"Basic campsite. Small fields in forest.","dish_washing":"yes","fee":"yes","fireplace":"no","guarded":"no","internet":"wifi","name":"NIVON-(natuur)kampeerterrein Morgenrood","payment:credit_card":"yes","pets":"yes","picnic_benches":"yes","power_supply":"yes","power_supply:voltage":"220","shower":"hot","source":"Survey","tents":"yes","toilets:disposal":"flush","toilets:position":"sitting","water:location":"central","water:quality":"potable"}},"540082716":{"location":[51.5019621,5.0528248],"ct":"NL","tp":"CS","ts":"2019-07-15T16:40:20Z","tX":526,"tY":340,"tags":{}},"542672508":{"location":[51.4838096,5.1711709],"ct":"NL","tp":"CS","ts":"2023-05-30T12:21:58Z","tX":526,"tY":340,"tags":{"addr:city":"Diessen","addr:housenumber":"5","addr:postcode":"5087BE","addr:street":"Hoekje","email":"uthuukske@gmail.com","internet_access":"wlan","name":"UT Huukske","phone":"+31 13 504 1659","source":"BAG","source:date":"2014-03-24","website":"https://ut-huukske.nl/"}},"543150430":{"location":[51.602443,5.1673477],"ct":"NL","tp":"CS","ts":"2017-11-27T17:46:47Z","tX":526,"tY":340,"tags":{}},"614822033":{"location":[51.5582148,5.0243543],"ct":"NL","tp":"CS","ts":"2018-08-07T13:38:49Z","tX":526,"tY":340,"tags":{}},"821967103":{"location":[51.5555464,4.9763895],"ct":"NL","tp":"CS","ts":"2023-04-27T16:49:13Z","tX":526,"tY":340,"tags":{"cabins":"yes","capacity:pitches":"13","caravans":"yes","email":"info@petit013.nl","name":"Minicamping Petit013","opening_hours":"Mar 24 - Oct 28","phone":"+31 6 19800444","shower":"yes","tents":"yes","toilets":"yes","website":"https://petit013.nl"}},"967366143":{"location":[51.4485633,5.0877834],"ct":"BE","tp":"CS","ts":"2023-05-26T21:17:33Z","tX":526,"tY":340,"tags":{"cabins":"yes","caravans":"yes","name":"Tulderheyde","opening_hours":"Apr 1 - Oct 31","phone":"+32 14 65 56 12","shower":"yes","tents":"yes","toilets":"yes","website":"https://www.tulderheyde.be/"}},"984590739":{"location":[51.4893768,5.2236107],"ct":"NL","tp":"CS","ts":"2021-09-18T05:53:31Z","tX":526,"tY":340,"tags":{"addr:city":"Haghorst","addr:housenumber":"4","addr:postcode":"5089NA","addr:street":"Oirschotsedijk","caravans":"yes","email":"stichtingnar@gmail.com","name":"De Ontginner","phone":"+31 6 21220034","tents":"yes","website":"https://deontginner.deontginner.nl"}},"1060016847":{"location":[51.5609173,5.0718113],"ct":"NL","tp":"CS","ts":"2023-05-30T12:22:04Z","tX":526,"tY":340,"tags":{"email":"info@stadscampingtilburg.nl","name":"Stadscamping Tilburg","phone":"+31 6 30582889","website":"https://stadscampingtilburg.nl"}},"1060016848":{"location":[51.5608795,5.0695121],"ct":"NL","tp":"CS","ts":"2022-05-14T07:00:43Z","tX":526,"tY":340,"tags":{"name":"Stadscamping Tilburg","website":"https://stadscampingtilburg.nl"}},"1077752437":{"location":[51.5711436,5.2327109],"ct":"NL","tp":"CS","ts":"2023-08-31T08:12:00Z","tX":526,"tY":340,"tags":{"fixme":"Probably should be resort but currently not rendered. Issue 2290.","name":"vakantiepark KampinaStaete","website":"https://www.kampinastaete.nl"}},"1077765739":{"location":[51.5702826,5.2328722],"ct":"NL","tp":"CS","ts":"2024-01-07T21:33:31Z","tX":526,"tY":340,"tags":{"fixme":"Probably should be resort but currently not rendered. Issue 2290.","name":"chaletpark Rustiek","website":"https://www.rustiek.info"}},"1083027215":{"location":[51.4142692,5.1596166],"ct":"NL","tp":"CS","ts":"2023-05-30T12:22:04Z","tX":526,"tY":340,"tags":{"brand":"SVR","cabins":"yes","capacity:cabins":"3","capacity:pitches":"30","caravans":"yes","name":"D'n Aanloop","phone":"+31 13 509 1082","shower":"yes","tents":"yes","toilets":"yes","website":"http://www.campingdenaanloop.nl"}},"1156829879":{"location":[51.4343838,4.9463408],"ct":"NL","tp":"CS","ts":"2024-06-24T08:48:56Z","tX":526,"tY":340,"tags":{"addr:city":"Baarle-Nassau","addr:housenumber":"14","addr:postcode":"5111HC","addr:street":"Reth","cabins":"yes","caravans":"yes","name":"Minicamping de Wielewaal","phone":"+31 6 21910883","shower":"yes","tents":"yes","toilets":"yes","website":"https://www.minicampingdewielewaal.nl/"}},"1166192095":{"location":[51.462434,4.9460052],"ct":"NL","tp":"CS","ts":"2023-05-30T12:22:05Z","tX":526,"tY":340,"tags":{"capacity":"10","caravans":"yes","email":"info@campingboshoven.nl","motorhome":"yes","name":"Boshoven","phone":"+31 13 508 6109","shower":"yes","tents":"yes","toilets":"yes","website":"https://www.campingboshoven.nl/"}},"1166211931":{"location":[51.5213292,4.9826252],"ct":"NL","tp":"CS","ts":"2023-06-13T05:55:56Z","tX":526,"tY":340,"tags":{"capacity:pitches":"16","caravans":"yes","email":"pvbavel@elda.nl","mobile":"+31 6 22986026","name":"De Vergulde Hand","phone":"+31 13 518 1869","shower":"yes","tents":"yes","toilets":"yes"}},"1166213361":{"location":[51.4541964,4.9613591],"ct":"NL","tp":"CS","ts":"2023-05-30T12:22:05Z","tX":526,"tY":340,"tags":{"capacity:pitches":"25","caravans":"yes","email":"info@hardelhoeve.nl","name":"De Hardel Hoeve","phone":"+31 6 10586788;+31 6 13655556","shower":"yes","start_date":"May 2014","tents":"yes","toilets":"yes","website":"https://www.hardelhoeve.nl/camping/"}},"1166216566":{"location":[51.4912055,4.9811842],"ct":"NL","tp":"CS","ts":"2023-05-30T12:22:05Z","tX":526,"tY":340,"tags":{"caravans":"yes","email":"julia@minicampingdeklaverweide.nl","landuse":"grass","mobile":"+31 6 25002402","name":"Minicamping De Klaverweide","opening_hours":"Apr 1 - Sep 30","phone":"+31 13 508 2998","shower":"yes","source":"3dShapes","tents":"yes","toilets":"yes","website":"https://www.minicampingdeklaverweide.nl/"}},"1169665558":{"location":[51.4915639,5.2318977],"ct":"NL","tp":"CS","ts":"2023-05-30T12:22:05Z","tX":526,"tY":340,"tags":{"brand":"Natuurkampeerterreinen","capacity:pitches":"15","caravans":"yes","email":"info@kleinbaest.nl","landcover":"grass","motorhome":"yes","name":"Kleinbaest","phone":"+31 6 10367669;+31 6 51849246","shower":"yes","tents":"yes","toilets":"yes","website":"https://kleinbaest.nl/"}},"1176414005":{"location":[51.4874201,5.1109824],"ct":"NL","tp":"CS","ts":"2023-05-26T21:27:08Z","tX":526,"tY":340,"tags":{"capacity:pitches":"20","caravans":"yes","email":"info@hetachtersteloo.nl","landcover":"grass","name":"Het Achterste Loo","phone":"+31 13 505 3663","shower":"yes","toilets":"yes","website":"https://www.hetachtersteloo.nl/accommodatie"}},"1176423996":{"location":[51.592623,5.155157],"ct":"NL","tp":"CS","ts":"2023-05-30T12:22:05Z","tX":526,"tY":340,"tags":{"caravans":"yes","email":"Info@de-heikant.nl","landcover":"grass","name":"De-Heikant","phone":"+31 13 533 2994","shower":"yes","tents":"yes","toilets":"yes","website":"https://www.de-heikant.nl"}},"1176440353":{"location":[51.6170901,5.0709827],"ct":"NL","tp":"CS","ts":"2023-05-30T12:22:05Z","tX":526,"tY":340,"tags":{"caravans":"yes","landcover":"grass","name":"De Klokkenweide","phone":"+31 416 362 034","shower":"yes","tents":"yes","toilets":"yes","website":"https://klokkenweide.nl/property/de-minicamping/"}},"1193315847":{"location":[51.5325746,5.0180614],"ct":"NL","tp":"CS","ts":"2023-07-30T12:54:58Z","tX":526,"tY":340,"tags":{"cabins":"yes","capacity:cabins":"1","capacity:pitches":"15","caravans":"yes","email":"info@vanhetzandeind.nl","landuse":"grass","mobile":"+31 6 83654661","name":"Van 't Zandeind","phone":"+31 13 518 1883","shower":"yes","tents":"yes","toilets":"yes","website":"https://www.vanhetzandeind.nl/boerderij_camping"}},"1197601151":{"location":[51.4638535,5.1287695],"ct":"NL","tp":"CS","ts":"2023-08-13T08:52:54Z","tX":526,"tY":340,"tags":{"caravans":"yes","email":"info@minicampingdunhendrik.nl","landcover":"grass","name":"d'n Hendrik","phone":"+31 6 55733154","shower":"yes","tents":"yes","toilets":"yes","website":"https://www.minicampingdunhendrik.nl/"}},"1197603366":{"location":[51.4671358,5.1288862],"ct":"NL","tp":"CS","ts":"2023-08-13T09:12:11Z","tX":526,"tY":340,"tags":{"capacity:pitches":"76","capacity:static_caravans":"258","caravans":"yes","email":"info@spaendershorst.nl","name":"De Spaendershorst","operator":"Eldorado","phone":"+31 13 516 9361","shower":"yes","static_caravans":"yes","tents":"yes","toilets":"yes","website":"https://www.spaendershorst.nl/"}},"1210938918":{"location":[51.4935795,4.9818316],"ct":"NL","tp":"CS","ts":"2023-09-30T15:35:42Z","tX":526,"tY":340,"tags":{"landuse":"grass"}},"1290635629":{"location":[51.5432914,5.2201256],"ct":"NL","tp":"CS","ts":"2024-06-14T00:53:14Z","tX":526,"tY":340,"tags":{"addr:city":"Moergestel","addr:housenumber":"6","addr:postcode":"5066CR","addr:street":"Heikant","name":"Minicamping Oisterwijk","website":"https://minicampingoisterwijk.nl/"}},"1304128905":{"location":[51.6043227,5.2378665],"ct":"NL","tp":"CS","ts":"2024-07-27T18:55:38Z","tX":526,"tY":340,"tags":{"access":"customers","addr:city":"Haaren","addr:housenumber":"20","addr:postcode":"5076PM","addr:street":"Roonsestraat","caravans":"yes","contact:mobile":"+31 6 15345944;+31 6 48010347","fee":"yes","name":"Pergama Landjuweel","payment:cash":"yes","payment:credit_cards":"yes","payment:debit_cards":"yes","phone":"+31 411 622 724","shower":"yes","static_caravans":"yes","tents":"yes","toilets":"yes","website":"https://pergama.nl/"}},"1352944707":{"location":[51.5107431,5.0142529],"ct":"NL","tp":"CR","ts":"2025-01-20T16:00:10Z","tX":526,"tY":340,"tags":{"capacity":"15","caravan_site":"motorhome_stopover","caravan_site:type":"farm_shop","charge":"12.70 EUR","dog":"leashed","fee":"yes","name":"Koeienbedrijf de Regte Heijden","phone":"+31 135182631","power_supply":"yes","power_supply:charge":"0.75 EUR/kWh","power_supply:fee":"yes","power_supply:maxcurrent":"16","product":"milk;butter;cream","reservation":"no","surface":"grass","website":"https://www.deregteheijden.nl/kamperen-en-logeren/"}},"1354294460":{"location":[51.4115127,5.017371],"ct":"BE","tp":"CR","ts":"2025-01-25T23:32:15Z","tX":526,"tY":340,"tags":{"capacity":"6","caravan_site":"motorhome_stopover","caravan_site:type":"village","fee":"no","internet_access":"wlan","internet_access:fee":"no","name":"Camperplaats De Brouwerij","operator":"Provincie Antwerpen","power_supply":"no","reservation":"no","sanitary_dump_station":"no","water_point":"no","website":"https://www.uitinravels.be/camperplaats-de-brouwerij","wheelchair":"yes"}},"1496637527":{"location":[51.4141401,5.1999502],"ct":"NL","tp":"CS","ts":"2022-11-04T12:31:23Z","tX":526,"tY":340,"tags":{"addr:city":"Netersel","addr:country":"NL","addr:housenumber":"9A","addr:postcode":"5534AP","addr:street":"De Ruttestraat","name":"De Couwenberg","phone":"+31 497 682 233","website":"https://www.decouwenberg.nl/"}},"2367788011":{"location":[51.5491557,5.2326179],"ct":"NL","tp":"CS","ts":"2023-11-08T03:47:47Z","tX":526,"tY":340,"tags":{"addr:city":"Oisterwijk","addr:housenumber":"4","addr:postcode":"5062TD","addr:street":"Fransebaan","email":"info@hoevearbeidadelt.nl","name":"Arbeid Adelt","operator":"Familie Claassen","phone":"+31 13 521 7141","website":"https://www.hoevearbeidadelt.nl/"}},"2528474759":{"location":[51.4479226,5.2090033],"ct":"NL","tp":"CS","ts":"2013-11-11T20:40:48Z","tX":526,"tY":340,"tags":{"name":"Rakelbos"}},"2748554866":{"location":[51.4761391,4.9392265],"ct":"NL","tp":"CS","ts":"2020-07-29T07:45:55Z","tX":526,"tY":340,"tags":{"addr:city":"Alphen","addr:housenumber":"19","addr:postcode":"5131NC","addr:street":"Kwaalburg","name":"Camping de Kwaalburg","source":"BAG","source:date":"2014-03-24","website":"https://www.kwaalburg.nl/"}},"2748658810":{"location":[51.4931379,4.9503917],"ct":"NL","tp":"CS","ts":"2023-08-10T19:00:12Z","tX":526,"tY":340,"tags":{"addr:city":"Alphen","addr:housenumber":"1","addr:postcode":"5131NZ","addr:street":"Maastrichtsebaan","caravans":"yes","name":"Recreatiepark 't Zand","reservation":"recommended","sanitary_dump_station":"yes","source":"BAG","source:date":"2014-03-24","stars":"4","tents":"yes","website":"https://www.tzand.nl/"}},"2782003882":{"location":[51.6042901,5.2366453],"ct":"NL","tp":"CS","ts":"2023-06-13T05:55:55Z","tX":526,"tY":340,"tags":{"addr:city":"Haaren","addr:housenumber":"20","addr:postcode":"5076PM","addr:street":"Roonsestraat","caravans":"yes","contact:mobile":"+31 6 15345944;+31 6 48010347","name":"Pergama Landjuweel","phone":"+31 411 622 724","shower":"yes","source":"BAG","source:date":"2014-03-24","tents":"yes","toilets":"yes","website":"https://pergama.nl/"}},"2820376659":{"location":[51.4589367,5.1886088],"ct":"NL","tp":"CS","ts":"2022-11-04T11:56:20Z","tX":526,"tY":340,"tags":{"addr:city":"Diessen","addr:housenumber":"6","addr:postcode":"5087KT","addr:street":"Van Dijcklaan","name":"minicamping ArcheryFarm","phone":"+31 6 51449736","source":"BAG","source:date":"2014-03-24","website":"https://www.archeryfarm.nl/"}},"2824123530":{"location":[51.5453087,5.2514891],"ct":"NL","tp":"CS","ts":"2022-11-04T12:15:56Z","tX":526,"tY":340,"tags":{"addr:city":"Oisterwijk","addr:housenumber":"9A","addr:postcode":"5062TK","addr:street":"de Logt","name":"Anne Marie Hoeve","phone":"+31 6 51339174","source":"BAG","source:date":"2019-09-15","website":"https://www.campingannemariehoeve.nl/","wheelchair":"yes"}},"2824142506":{"location":[51.5722306,5.1549516],"ct":"NL","tp":"CS","ts":"2023-04-18T07:32:23Z","tX":526,"tY":340,"tags":{"addr:city":"Heukelom","addr:housenumber":"3A","addr:postcode":"5059AN","addr:street":"Laag Heukelomseweg","name":"Camping Het Karrewiel","phone":"+31 13 533 3659","source":"BAG","source:date":"2014-03-24"}},"2825993771":{"location":[51.4344149,5.2340005],"ct":"NL","tp":"CS","ts":"2023-04-01T14:59:17Z","tX":526,"tY":340,"tags":{"addr:city":"Oost West en Middelbeers","addr:housenumber":"10","addr:postcode":"5091KN","addr:street":"Ontginningsweg","caravans":"no","contact:mobile":"+31 6 30057466","contact:phone":"+31 13 514 1509","name":"De Roerdomp","source":"BAG","source:date":"2014-03-24","tents":"yes","website":"https://www.deroerdomp.nl/"}},"2833852057":{"location":[51.5093779,5.0116774],"ct":"NL","tp":"CS","ts":"2023-03-10T13:26:12Z","tX":526,"tY":340,"tags":{"addr:city":"Riel","addr:housenumber":"3","addr:postcode":"5133NA","addr:street":"Het Hoefke","name":"Manege Groepsaccomodatie Het Hoefke","source":"BAG","source:date":"2014-03-24","website":"https://www.manegehoefke.nl/"}},"2837312376":{"location":[51.501496,5.0534227],"ct":"NL","tp":"CS","ts":"2023-02-14T18:53:13Z","tX":526,"tY":340,"tags":{"addr:city":"Goirle","addr:housenumber":"11","addr:postcode":"5051PL","addr:street":"Poppelseweg","name":"ut Paradeske","source":"BAG","source:date":"2014-03-24","website":"https://www.paradeske.nl/"}},"3050534246":{"location":[51.5117663,5.0131073],"ct":"NL","tp":"CR","ts":"2014-08-30T14:57:02Z","tX":526,"tY":340,"tags":{"name":"Koeienbedrijf de Regte Heijden"}},"3544038313":{"location":[51.46677,5.067727],"ct":"BE","tp":"CS","ts":"2023-07-17T08:55:24Z","tX":526,"tY":340,"tags":{"backcountry":"yes","bicycle":"yes","camp_site":"basic","capacity":"10","caravans":"no","description":"minimalistic bivouac site","description:nl":"site voor paalkamperen","drinking_water":"no","fee":"no","image":"http://www.bivakzone.be/images/molenheide/bivakzone_molenheide.jpg","maxtents":"3","motor_vehicle":"no","name":"Molenheide Poppel","opening_hours":"24/7","operator":"Flemish Agency for Nature and Forests (ANB)","overnight_stay":"18:00-10:00","reservation":"no","source:nl":"http://www.bivakzone.be/molenheide.html","tents":"yes","website":"https://www.bivakzone.be/molenheide.html"}},"3752776186":{"location":[51.4011775,5.1747688],"ct":"NL","tp":"CS","ts":"2015-09-21T12:07:30Z","tX":526,"tY":340,"tags":{"name":"Camping Op de Veranda"}},"12023398517":{"location":[51.4115805,5.0175835],"ct":"BE","tp":"CR","ts":"2024-07-01T09:53:07Z","tX":526,"tY":340,"tags":{"capacity":"6","internet_access":"wlan","internet_access:fee":"no","name":"Camperplaats De Brouwerij","operator":"Provincie Antwerpen","power_supply":"no","reservation":"no","sanitary_dump_station":"no","wheelchair":"yes"}},"5804865750":{"location":[51.4720742,5.1416955],"ct":"NL","tp":"CS","ts":"2022-11-04T12:18:04Z","tX":526,"tY":340,"tags":{"name":"Natuurkampeerterrein Buitenhof","phone":"+31 6 15164313","website":"https://www.buitenhofhilvarenbeek.nl"}},"7762273286":{"location":[51.552033,5.217356],"ct":"NL","tp":"CS","ts":"2020-07-28T17:59:13Z","tX":526,"tY":340,"tags":{"website":"https://www.camping-irenehoeve.nl/"}},"7762282486":{"location":[51.541246,5.211212],"ct":"NL","tp":"CS","ts":"2020-07-28T17:57:51Z","tX":526,"tY":340,"tags":{"website":"https://www.stellophoeve.nl/"}},"7762305486":{"location":[51.508627,5.216299],"ct":"NL","tp":"CS","ts":"2020-07-28T18:15:52Z","tX":526,"tY":340,"tags":{"website":"https://www.brabantsbuitenleven.nl/"}},"7762305586":{"location":[51.519036,4.946022],"ct":"NL","tp":"CS","ts":"2020-07-28T18:20:54Z","tX":526,"tY":340,"tags":{}},"7777788116":{"location":[51.5140879,5.1217014],"ct":"NL","tp":"CS","ts":"2020-08-02T13:14:12Z","tX":526,"tY":340,"tags":{}},"8231848209":{"location":[51.4543903,5.2442276],"ct":"NL","tp":"CS","ts":"2020-12-15T18:11:07Z","tX":526,"tY":340,"tags":{"access":"private","addr:city":"Oost West en Middelbeers","addr:housenumber":"11","addr:postcode":"5091SP","addr:street":"Kromvensedijk","capacity":"50","fee":"yes","name":"Naturistenvereniging Zon en Leven","nudism":"obligatory","website":"https://www.zonenleven.nl/kuikseind"}}}