{"7184237":{"location":[51.2880373,5.2353053],"ct":"NL","tp":"CS","ts":"2019-07-08T11:34:39Z","tX":526,"tY":341,"tags":{"landcover":"grass","name":"Camping Het Ven","website":"https://www.het-ven.nl/"}},"8669770":{"location":[51.2293588,4.9796955],"ct":"BE","tp":"CR","ts":"2024-04-04T07:41:19Z","tX":526,"tY":341,"tags":{"landuse":"recreation_ground","name":"Domein De Putten","website":"https://campinghoutum.be/kampeerplaatsen/"}},"15696679":{"location":[51.2621615,5.1352956],"ct":"BE","tp":"CS","ts":"2023-04-08T11:19:08Z","tX":526,"tY":341,"tags":{"caravans":"yes","email":"Info@campinastrand.be","landuse":"camping","name":"Campina Strand","phone":"+32 14 37 70 75","shower":"yes","static_caravans":"yes","tents":"yes","toilets":"yes","website":"https://www.campinastrand.be/"}},"55694786":{"location":[51.2744259,5.1311454],"ct":"BE","tp":"CS","ts":"2022-02-07T23:25:10Z","tX":526,"tY":341,"tags":{"email":"info@berkenstrand.be","name":"Berkenstrand","website":"http://berkenstrand.be/"}},"77503668":{"location":[51.3498438,5.1444898],"ct":"NL","tp":"CS","ts":"2023-06-13T05:55:56Z","tX":526,"tY":341,"tags":{"capacity:pitches":"25","caravans":"yes","email":"dekorenschoof@hetnet.nl","landcover":"grass","mobile":"+31 6 20357761","motorhome":"yes","name":"De Korenshoof","opening_hours":"Apr 1 - Sep 30","operator":"Familie Dirkx","phone":"+31 497 644 069","shower":"yes","start_date":"2000","tents":"yes","toilets":"yes","website":"https://www.minicampingdekorenschoof.nl/"}},"93131209":{"location":[51.2109411,5.1726416],"ct":"BE","tp":"CR","ts":"2022-11-23T10:54:05Z","tX":526,"tY":341,"tags":{"internet_access":"wlan","leisure":"resort","name":"EuroParcs Zilverstrand","static_caravans":"yes","website":"https://www.europarcs.nl/vakantieparken/belgie/antwerpen/zilverstrand"}},"119059252":{"location":[51.358826,4.9622839],"ct":"BE","tp":"CS","ts":"2022-12-17T15:30:40Z","tX":526,"tY":341,"tags":{"addr:city":"Turnhout","addr:housenumber":"10","addr:postcode":"2300","addr:street":"Roodhuisstraat","cabins":"yes","caravans":"yes","email":"info@baalsehei.be","fax":"+32 14 44 84 74","internet_access":"yes","internet_access:fee":"no","name":"Baalse Hei","permanent_camping":"yes","phone":"+32 14 44 84 70","shower":"yes","static_caravans":"yes","tents":"yes","toilets":"yes","website":"https://www.baalsehei.be"}},"196575129":{"location":[51.3267084,4.927817],"ct":"BE","tp":"CR","ts":"2025-01-12T15:17:27Z","tX":526,"tY":341,"tags":{"access":"yes","capacity":"4","caravan_site":"motorhome_stopover","caravan_site:type":"canal;harbour;town","caravans":"no","fee":"no","maxstay":"48 hours","name":"Camperplaats Hertoginnedal","seasonal":"no","surface":"paving_stones","tents":"no","website":"https://toerismeturnhout.turnhout.be/camperplaatsen"}},"232270112":{"location":[51.2788549,5.1604713],"ct":"BE","tp":"CS","ts":"2024-07-19T17:10:42Z","tX":526,"tY":341,"tags":{"name":"Kampeerverblijfpark Familiestrand","website":"https://www.familiestrand.be/"}},"486874945":{"location":[51.2228825,5.1770053],"ct":"BE","tp":"CS","ts":"2023-05-26T21:17:33Z","tX":526,"tY":341,"tags":{"cabins":"yes","caravans":"yes","email":"camping@zilvermeer.be","motorhome":"yes","name":"Camping Zilvermeer","phone":"+32 14 82 95 00","shower":"yes","stars":"4","tents":"yes","toilets":"yes","website":"https://www.zilvermeer.be/overnachten/camping.html"}},"608518368":{"location":[51.369085,5.0840456],"ct":"BE","tp":"CS","ts":"2023-08-27T07:47:07Z","tX":526,"tY":341,"tags":{"backcountry":"yes","bicycle":"yes","camp_site":"basic","capacity":"10","capacity:persons":"10","capacity:tents":"3","caravans":"no","description":"minimalistic bivouac site","description:nl":"site voor paalkamperen","drinking_water":"no","fee":"no","image":"http://www.bivakzone.be/images/hogevijvers/arendonkplatform.jpg","image:1":"http://www.bivakzone.be/images/hogevijvers/arendonk3.jpg","maxstay":"1 night","maxtents":"3","motor_vehicle":"no","name":"Hoge Vijvers - Arendonk","openfire":"yes","opening_hours":"24/7","operator":"Flemish Agency for Nature and Forests","operator:wikidata":"Q2556513","reservation":"required","source:nl":"http://www.bivakzone.be/hogevijvers.html","surface":"grass","tents":"yes","website":"https://www.bivakzone.be/hogevijvers.html"}},"649652389":{"location":[51.2210495,5.1810821],"ct":"BE","tp":"CS","ts":"2018-11-27T18:09:00Z","tX":526,"tY":341,"tags":{"cabins":"yes"}},"720417399":{"location":[51.2316601,4.9791291],"ct":"BE","tp":"CS","ts":"2023-05-26T20:50:22Z","tX":526,"tY":341,"tags":{"addr:city":"Kasterlee","addr:housenumber":"39","addr:postcode":"2460","addr:street":"Houtum","caravans":"yes","email":"Vic.van.eyck@groepvaneyck.be","fee":"yes","internet_access":"wlan","internet_access:fee":"no","internet_access:ssid":"Camping Houtum","motorhome":"yes","name":"Camping Houtum","name:de":"Camping Houtum","name:en":"Camping Houtum","name:fr":"Camping Houtum","name:nl":"Camping Houtum","opening_hours":"24/7","operator":"Houtum bvba","phone":"+32 14 85 92 16","shower":"yes","tents":"yes","toilets":"yes","website":"https://campinghoutum.be"}},"863394515":{"location":[51.2191618,5.1774585],"ct":"BE","tp":"SD","ts":"2020-10-24T20:41:48Z","tX":526,"tY":341,"tags":{}},"965170789":{"location":[51.2077007,4.9586218],"ct":"BE","tp":"CS","ts":"2023-08-25T09:45:48Z","tX":526,"tY":341,"tags":{"access":"customers","addr:city":"Geel","addr:housenumber":"2","addr:postcode":"2440","addr:street":"Roerdompstraat","capacity":"6","contact:instagram":"glampingjosephine","dog":"yes","email":"info@glamping-josephine.be","fee":"yes","landcover":"grass","name":"Glamping Josephine","openfire":"yes","phone":"+32 473 84 72 06","power_supply":"yes","reservation":"required","seasonal":"yes","shower":"yes","toilets":"yes","website":"https://glamping-josephine.be/"}},"1031325804":{"location":[51.3232815,4.9804102],"ct":"BE","tp":"CR","ts":"2025-01-12T15:17:27Z","tX":526,"tY":341,"tags":{"caravan_site":"motorhome_stopover","caravan_site:type":"sports_centre","maxstay":"2 nights","name":"Parking aan Sportpark De Hoogt"}},"1060514908":{"location":[51.3898114,5.2724307],"ct":"NL","tp":"CS","ts":"2023-05-30T12:22:04Z","tX":526,"tY":341,"tags":{"addr:city":"Hoogeloon","addr:housenumber":"1","addr:postcode":"5528NG","addr:street":"Molenweg","email":"mayashoefke@msn.com","fee":"yes","name":"Maya's Hoefke","phone":"+31 497 682 620","power_supply":"yes","website":"https://mayashoefke.nl"}},"1164674529":{"location":[51.3863032,5.1175938],"ct":"NL","tp":"CS","ts":"2023-04-22T14:47:52Z","tX":526,"tY":341,"tags":{"email":"minicampingdunezel@upcmail.nl","name":"Mini Camping Dun Ezel","phone":"+31 6 18869208","website":"https://www.minicampingdunezel.nl/"}},"1176861349":{"location":[51.3451851,5.1688387],"ct":"NL","tp":"CS","ts":"2023-05-30T12:22:05Z","tX":526,"tY":341,"tags":{"bicycle":"designated","email":"5541ne6@hetnet.nl","name":"Kampeerboerderij van Gompel","phone":"+31 497 642 535;+32 497 64 25 35","tents":"yes","website":"https://kampeerboerderijreusel.webs.com/"}},"1345111877":{"location":[51.2655055,5.1167954],"ct":"BE","tp":"CS","ts":"2024-12-23T12:56:11Z","tX":526,"tY":341,"tags":{"addr:housenumber":"99","addr:street":"Hodonk","contact:website":"https://www.oplaadpnt.com","name":"Oplaadpnt"}},"1350679448":{"location":[51.3130165,4.9453226],"ct":"BE","tp":"CR","ts":"2025-01-12T15:17:27Z","tX":526,"tY":341,"tags":{"caravan_site":"motorhome_stopover","caravan_site:type":"town","caravans":"no","fee":"no","maxstay":"48 hours","name":"Camperplaats Stadspark Turnhout","seasonal":"no","tents":"no"}},"2316882974":{"location":[51.3532775,5.2240955],"ct":"NL","tp":"CS","ts":"2024-06-24T08:48:55Z","tX":526,"tY":341,"tags":{"addr:city":"Bladel","addr:housenumber":"20","addr:postcode":"5531NB","addr:street":"Bredasebaan","name":"De Hooiberg","phone":"+31 6 54341822","website":"https://www.hooibergcamping.nl"}},"2316886721":{"location":[51.3859503,5.2306004],"ct":"NL","tp":"CS","ts":"2023-05-28T06:39:38Z","tX":526,"tY":341,"tags":{"addr:city":"Bladel","addr:housenumber":"14","addr:postcode":"5531PN","addr:street":"Molenweg","internet_access":"wlan","name":"De Ganzenhof","phone":"+31 497 382 277","website":"https://www.ganzenhof.nl"}},"2316888441":{"location":[51.3615424,5.2294361],"ct":"NL","tp":"CS","ts":"2023-05-28T06:39:43Z","tX":526,"tY":341,"tags":{"addr:city":"Bladel","addr:housenumber":"12","addr:postcode":"5531NM","addr:street":"De Uitgang","name":"De Karpermolen","phone":"+31 497 381 985","website":"https://www.dekarpermolen.nl"}},"2827271123":{"location":[51.3434035,5.2278062],"ct":"NL","tp":"CS","ts":"2019-04-22T19:47:56Z","tX":526,"tY":341,"tags":{"addr:city":"Bladel","addr:housenumber":"10","addr:postcode":"5531NA","addr:street":"Troprijt","internet_access":"wlan","name":"De Achterste Hoef","phone":"+31 497 381 579","source":"BAG","source:date":"2014-03-24","website":"https://www.achterstehoef.nl/"}},"3728217865":{"location":[51.3117536,5.2665542],"ct":"NL","tp":"CR","ts":"2017-05-07T11:19:25Z","tX":526,"tY":341,"tags":{"name":"Camperplaats SBP Outdoor"}},"4836665353":{"location":[51.2506845,5.1432144],"ct":"BE","tp":"CS","ts":"2023-08-27T07:46:23Z","tX":526,"tY":341,"tags":{"group_only":"yes","name":"Bivak Catico","scout":"yes","website":"https://www.jeugdverblijven.be/nld/Details.aspx?d=757"}},"10172020129":{"location":[51.3225498,5.0862097],"ct":"BE","tp":"CR","ts":"2022-11-09T20:16:28Z","tX":526,"tY":341,"tags":{"capacity":"10","fee":"no","internet_access":"no","name":"Camperplaats Zwembad Arendonk","permanent_camping":"no","sanitary_dump_station":"no"}},"4443432211":{"location":[51.3501611,5.2168732],"ct":"NL","tp":"CS","ts":"2021-11-02T13:56:40Z","tX":526,"tY":341,"tags":{"access":"private","addr:city":"Bladel","addr:housenumber":"50","addr:street":"Park de Tipmast","description":"Dit kampeerterrein is alleen toegankelijk voor leden van de NTKC","dog":"leashed","internet_access":"no","name":"NTKC De Smagten","operator":"Nederlandse Touristen Kampeer Club","power_supply":"yes","source":"BAG","source:date":"2016-10-12","website":"https://www.kampeerclub.nl/terrein/kampeerterrein-de-smagten"}},"4298954904":{"location":[51.3667888,5.1613074],"ct":"NL","tp":"SD","ts":"2016-07-12T19:58:10Z","tX":526,"tY":341,"tags":{"description":"Incontinentiemateriaal"}},"4299002789":{"location":[51.3605886,5.1640236],"ct":"NL","tp":"SD","ts":"2016-07-12T20:01:39Z","tX":526,"tY":341,"tags":{"description":"Incontinentiemateriaal"}},"6421850928":{"location":[51.3415874,5.2302752],"ct":"NL","tp":"SD","ts":"2019-04-22T19:47:55Z","tX":526,"tY":341,"tags":{}}}