{"115717871":{"location":[51.0922474,5.0909171],"ct":"BE","tp":"CR","ts":"2020-02-12T10:07:06Z","tX":526,"tY":342,"tags":{}},"117830063":{"location":[51.1783828,5.2222425],"ct":"BE","tp":"CS","ts":"2023-08-16T19:26:17Z","tX":526,"tY":342,"tags":{"caravans":"yes","name":"Camping GT","static_caravans":"yes","tents":"yes","website":"https://www.gtkeiheuvel.be/"}},"220908658":{"location":[51.0193157,5.0237818],"ct":"BE","tp":"CS","ts":"2021-11-18T15:10:17Z","tX":526,"tY":342,"tags":{"addr:city":"Molenstede-Diest","addr:housenumber":"37","addr:postcode":"3294","addr:street":"Heide","email":"campinghetswinnenbos@hotmail.com","name":"Het Swinnenbos","phone":"+32 499 40 47 93","website":"https://hetswinnenbos.be/"}},"232461547":{"location":[51.0151339,5.2348413],"ct":"BE","tp":"CR","ts":"2024-06-25T08:26:19Z","tX":526,"tY":342,"tags":{"permanent_camping":"only"}},"303514322":{"location":[51.1619512,4.9886918],"ct":"BE","tp":"PK","ts":"2023-05-22T13:09:41Z","tX":526,"tY":342,"tags":{"bus":"yes","capacity":"3","fee":"yes","maxstay:bus":"8 hours","maxstay:motorhome":"8 hours","motorhome":"yes","name":"P autobus/motorhome","parking":"street_side"}},"373706270":{"location":[50.984358,5.0639295],"ct":"BE","tp":"CR","ts":"2024-07-13T08:20:09Z","tX":526,"tY":342,"tags":{"capacity:caravans":"4","name":"Kampeerautoterrein Halve Maan","phone":"+32 13 31 15 28","power_supply":"yes","reservation":"yes","sanitary_dump_station":"yes","seasonal":"yes","website":"https://www.diest.be/contact-kampeerautoterrein-halve-maan"}},"444633111":{"location":[50.9942844,5.2619993],"ct":"BE","tp":"CS","ts":"2022-06-30T20:34:38Z","tX":526,"tY":342,"tags":{"addr:city":"Heusden-Zolder","addr:country":"BE","addr:housenumber":"30","addr:postcode":"3550","addr:street":"Terlaemen","addr:suburb":"Zolder","contact:phone":"+32 11 85 88 88","contact:website":"https://www.circuit-zolder.be/","name":"Camping Circuit Zolder","operator":"Circuit Zolder","wheelchair":"no"}},"685708428":{"location":[51.1576849,4.9918485],"ct":"BE","tp":"CR","ts":"2024-06-29T09:23:26Z","tX":526,"tY":342,"tags":{"addr:city":"Geel","addr:postcode":"2440","addr:street":"Fehrenbachstraat","capacity":"7","caravan_site":"motorhome_stopover","caravan_site:type":"town","charge":"6 EUR","fee":"yes","internet_access":"wlan","maxstay":"48 hours","name":"Mobilhomeparkings Geel Pas","opening_hours":"24/7","operator":"Stad Geel","payment:cash":"no","payment:credit_cards":"yes","payment:debit_cards":"yes","payment:mobile_app":"yes","payment:sms":"yes","permanent_camping":"no","picnic_area":"yes","power_supply":"yes","reservation":"no","sanitary_dump_station":"yes","toilets":"no","water_point":"yes","website":"https://www.visit-geel.be/mobilhome-overnachting"}},"1095587866":{"location":[50.964422,5.1466803],"ct":"BE","tp":"CR","ts":"2024-06-08T06:36:46Z","tX":526,"tY":342,"tags":{"capacity:caravans":"8","charge":"5 EUR","fee":"yes","name":"Camperparking","website":"http://www.schulensmeer.be/toerisme/camperparking"}},"1167500451":{"location":[51.0688316,5.2254289],"ct":"BE","tp":"CR","ts":"2023-12-07T10:15:33Z","tX":526,"tY":342,"tags":{"capacity":"4","fee":"no","maxstay":"48 hours","name":"Kampeerautoparking be-MINE","permanent_camping":"no","power_supply":"no","sanitary_dump_station":"no","water_point":"no","website":"https://www.visitberingen.be/camperparkings"}},"1167500452":{"location":[51.0908795,5.2177799],"ct":"BE","tp":"CR","ts":"2023-04-30T09:18:22Z","tX":526,"tY":342,"tags":{"capacity":"3","fee":"no","maxstay":"48 hours","name":"Kampeerautoparking Beverlo","website":"https://www.visitberingen.be/camperparkings"}},"1297323687":{"location":[51.1619743,4.988831],"ct":"BE","tp":"CR","ts":"2024-06-29T09:23:26Z","tX":526,"tY":342,"tags":{"capacity":"2","caravan_site":"motorhome_stopover","caravan_site:type":"parking_lot;town","fee":"yes","maxstay":"48 hours","name":"Mobilhomeparking Geel Havermarkt","power_supply":"no","reservation":"no","sanitary_dump_station":"no","surface":"asphalt","water_point":"no","website":"https://www.visit-geel.be/mobilehomeparkings"}},"2509490772":{"location":[50.9862021,5.2686848],"ct":"BE","tp":"CR","ts":"2024-11-06T14:54:59Z","tX":526,"tY":342,"tags":{"capacity:caravans":"10","fee":"no","internet_access":"no","name":"Domein Bovy Heusden-Zolder","permanent_camping":"no","power_supply":"yes","sanitary_dump_station":"no","toilets":"yes","website":"https://www.visitlimburg.be/nl/wat-te-doen/domein-bovy-heusden-zolder"}},"11331597889":{"location":[51.1354398,5.2439204],"ct":"BE","tp":"CR","ts":"2023-11-07T18:21:55Z","tX":526,"tY":342,"tags":{"addr:city":"Leopoldsburg","addr:housenumber":"171","addr:postcode":"3970","addr:street":"Lidostraat","name":"Camperplaats De Lido","power_supply":"yes","sanitary_dump_station":"yes"}},"9023828326":{"location":[51.157324,4.9909365],"ct":"BE","tp":"SD","ts":"2021-08-22T10:59:44Z","tX":526,"tY":342,"tags":{"access":"yes","fee":"no","mapillary":"124867859869856","opening_hours":"24/7","operator":"Stad Geel","sanitary_dump_station:chemical_toilet":"yes","sanitary_dump_station:grey_water":"yes","water_point":"yes"}},"9907134265":{"location":[51.1263667,4.9426396],"ct":"BE","tp":"SD","ts":"2024-10-28T20:58:43Z","tX":526,"tY":342,"tags":{"access":"yes","charge":"1 EUR","fee":"yes","mapillary":"1525668671263053","opening_hours":"24/7","panoramax":"7cf3df91-f792-4ac6-b9b5-0fb7eeae683e","panoramax:0":"b52775cf-62dd-4551-8ec2-6a99bec34b78","panoramax:1":"8a451542-687b-4668-a668-bb1d5ccf01ba","payment:cash":"no","payment:contactless":"only","power_supply":"no","sanitary_dump_station:chemical_toilet":"yes","sanitary_dump_station:gravity":"yes","sanitary_dump_station:grey_water":"yes","survey:date":"2022-11-26","water_point":"yes"}},"10102139747":{"location":[50.9861953,5.2685814],"ct":"BE","tp":"SD","ts":"2024-10-28T20:58:43Z","tX":526,"tY":342,"tags":{"access":"yes","charge":"2 EUR","fee":"yes","panoramax":"694e7071-32b9-4413-beb5-27836341944d","panoramax:0":"410dd830-7022-43c5-b93b-9d5c1a50d2d8","panoramax:1":"072f2cc9-6c10-43f3-8099-936a155a00f8","payment:coins":"yes","payment:credit_cards":"no","payment:debit_cards":"no","payment:notes":"no","power_supply":"yes","sanitary_dump_station:chemical_toilet":"yes","sanitary_dump_station:grey_water":"yes","water_point":"yes"}}}