{"126217250":{"location":[49.8550107,4.9543685],"ct":"BE","tp":"CS","ts":"2024-09-25T14:25:40Z","tX":526,"tY":347,"tags":{"addr:housenumber":"50","addr:street":"Rue de Lingue","name":"Le Héron"}},"126500379":{"location":[49.8734943,4.9240431],"ct":"BE","tp":"CS","ts":"2024-05-17T06:58:30Z","tX":526,"tY":347,"tags":{"name":"Le Gué"}},"126501617":{"location":[49.8500824,4.9418807],"ct":"BE","tp":"CS","ts":"2017-12-29T21:02:57Z","tX":526,"tY":347,"tags":{"addr:housenumber":"17","addr:street":"Rue du Rivage","name":"Le Trou du Cheval"}},"128856101":{"location":[49.9442595,5.0094588],"ct":"BE","tp":"CS","ts":"2025-03-05T10:45:10Z","tX":526,"tY":347,"tags":{"addr:housenumber":"20","addr:street":"Rue de la Wiaule","name":"Camping des 3 Sources","website":"https://www.3sources.be"}},"130850187":{"location":[49.9754076,4.9262273],"ct":"BE","tp":"CS","ts":"2020-10-25T16:26:02Z","tX":526,"tY":347,"tags":{"addr:housenumber":"10","addr:street":"Petit Rot","capacity":"204","email":"contact@campingcroixscaille.be","name":"Camping Croix-Scaille","phone":"+32 61 58 85 17","website":"https://campingcroixscaille.be/fr/"}},"146894256":{"location":[49.9536198,5.1910239],"ct":"BE","tp":"CS","ts":"2016-11-02T09:19:49Z","tX":526,"tY":347,"tags":{"addr:housenumber":"35A","addr:street":"Rue du 19e-R-I-de-Brest","name":"Camping Trois Fontaines"}},"154483499":{"location":[49.8643539,5.0793807],"ct":"BE","tp":"CS","ts":"2016-11-15T11:55:59Z","tX":526,"tY":347,"tags":{"addr:housenumber":"3","addr:street":"Croix Blanche","name":"Camping Le Rhodès"}},"171887945":{"location":[49.8382603,5.2512315],"ct":"BE","tp":"CS","ts":"2019-03-24T05:28:49Z","tX":526,"tY":347,"tags":{"addr:housenumber":"1","addr:street":"Route de Mortehan","name":"Ardennen camping Bertrix","phone":"+32 61 41 22 81","website":"https://www.campingbertrix.be/"}},"285745841":{"location":[49.8418647,5.0105826],"ct":"BE","tp":"CR","ts":"2023-12-15T12:20:35Z","tX":526,"tY":347,"tags":{"addr:city":"Rochehaut","addr:housenumber":"25","addr:postcode":"6830","addr:street":"Le Routi","capacity":"32","caravan_site":"motorhome_stopover","charge":"15 EUR / 24 hours","contact:facebook":"LePalis","dog":"yes","fee":"yes","image":"https://imgur.com/a/Z1VSL8R","internet_access":"wlan","name":"Le Palis","phone":"+32 495 04 24 97","power_supply":"yes","sanitary_dump_station":"yes","seasonal":"no","water_point":"yes","website":"https://www.paysdebouillon.be/hebergement-aire-pour-motor-homes/HBG-A0-006R-2JA0&type=26"}},"482443907":{"location":[49.8465082,4.9685893],"ct":"BE","tp":"CS","ts":"2024-05-05T18:28:10Z","tX":526,"tY":347,"tags":{"name":"L’Ami Pierre"}},"584595421":{"location":[49.9841862,4.9352045],"ct":"BE","tp":"CR","ts":"2025-01-25T18:24:12Z","tX":526,"tY":347,"tags":{"addr:city":"Gedinne","addr:postcode":"5575","addr:street":"Rue de la Morie","capacity":"20","caravan_site":"motorhome_stopover","caravan_site:type":"village","fee":"no","maxstay":"72 hours","name":"Aire de Gedinne 1","power_supply":"no","sanitary_dump_station":"yes","sanitary_dump_station:chemical_toilet":"yes","sanitary_dump_station:grey_water":"yes","water_point":"yes"}},"839554763":{"location":[50.0344677,5.2499858],"ct":"BE","tp":"CS","ts":"2020-08-22T07:48:35Z","tX":526,"tY":347,"tags":{"backcountry":"yes","camp_site":"basic","capacity":"10","dog":"leashed","drinking_water":"no","fee":"no","maxstay":"1 day","motor_vehicle":"no","name":"Aire de bivouac du Biolin","note":"https://www.libin.be/sites/default/files/uploads/faq_mis_a_jour_entre_lesse_et_lomme.pdf","openfire":"yes","opening_hours":"17:00-09:00","toilets":"no"}},"839596008":{"location":[49.9887672,5.1812683],"ct":"BE","tp":"CS","ts":"2020-08-22T09:48:18Z","tX":526,"tY":347,"tags":{"backcountry":"yes","camp_site":"basic","capacity":"10","dog":"leashed","drinking_water":"no","fee":"no","maxstay":"1 day","motor_vehicle":"no","name":"Aire de bivouac de Virée à Chêne","note":"https://www.libin.be/sites/default/files/uploads/faq_mis_a_jour_entre_lesse_et_lomme.pdf","openfire":"yes","opening_hours":"17:00-09:00","toilets":"yes"}},"914222568":{"location":[50.0086907,5.163652],"ct":"BE","tp":"CR","ts":"2025-01-25T18:23:16Z","tX":526,"tY":347,"tags":{"alt_name":"Aire de Redu","capacity":"6","caravan_site":"motorhome_stopover","caravan_site:type":"parking_lot","fee":"no","internet_access":"no","name":"Aire de camping-cars de Redu","panoramax":"b9871bdd-199a-487a-8f42-3f240b1be3bb","permanent_camping":"no","power_supply":"yes","power_supply:fee":"yes","sanitary_dump_station":"yes","sanitary_dump_station:chemical_toilet":"yes","sanitary_dump_station:grey_water":"yes","seasonal":"no","toilets":"no","water_point":"yes","water_point:fee":"yes","website":"https://www.foretdesainthubert-tourisme.be/details/HBG-A0-0066-4638&type=26/"}},"1231458491":{"location":[49.9059766,5.141026],"ct":"BE","tp":"CR","ts":"2023-12-15T20:12:21Z","tX":526,"tY":347,"tags":{"addr:housenumber":"5","addr:postcode":"6850","addr:street":"Rue de Maissin","caravan_site":"motorhome_stopover","caravan_site:type":"town","charge":"8 EUR / 24 huors","fee":"yes","name":"Paliseul","opening_hours":"24/7","power_supply":"yes","sanitary_dump_station":"yes","seasonal":"no","source:name":"visitWallonia","water_point":"yes","website":"https://www.paliseul.be/loisirs/tourisme/aire-de-mobil-home"}},"1298145880":{"location":[49.8464781,4.9757874],"ct":"BE","tp":"CR","ts":"2024-11-12T17:33:15Z","tX":526,"tY":347,"tags":{"caravan_site":"motorhome_stopover","caravan_site:type":"miniature_golf","fee":"no","internet_access":"no","maxstay":"48 hours","name":"Aire de camping car de Recrealle - Alle sur Semois","panoramax":"444a82e9-7a44-405f-9c33-8c30576282cb","power_supply":"no","surface":"gravel","toilets":"no","website":"https://www.ardennebelge.be/diffusio/fr/p/aire-pour-motor-homes/aire-de-camping-car-de-recrealle-alle-sur-semois-vresse-sur-semois_TFOHBG-A0-0073-0S6H/"}},"8492137188":{"location":[50.0087733,5.1639009],"ct":"BE","tp":"SD","ts":"2024-11-12T17:33:15Z","tX":526,"tY":347,"tags":{"access":"yes","fee":"no","panoramax":"cb9c1618-5d6c-4123-a2b7-7bb267d4bc26","panoramax:0":"bdd725de-afda-4cb2-916b-605efecc73be","panoramax:1":"e72829bc-82cd-49f2-a6c0-aa273fd215ad","sanitary_dump_station:chemical_toilet":"yes","sanitary_dump_station:grey_water":"yes","water_point":"yes"}},"8822257852":{"location":[49.9841057,4.9354236],"ct":"BE","tp":"SD","ts":"2021-06-10T20:54:14Z","tX":526,"tY":347,"tags":{"access":"yes","fee":"no","water_point":"yes"}},"10050619481":{"location":[49.841574,5.0103021],"ct":"BE","tp":"SD","ts":"2022-09-25T09:43:06Z","tX":526,"tY":347,"tags":{}}}