{"103651366":{"location":[49.7116851,5.2605726],"ct":"BE","tp":"CS","ts":"2025-01-25T17:57:40Z","tX":526,"tY":348,"tags":{"addr:housenumber":"28","addr:street":"Rue de la Semois","fee":"€9/place;€3/person;€1.5/child","fireplace":"no","name":"Les Cabrettes","phone":"+32 61 31 29 94","static_caravans":"only"}},"122754985":{"location":[49.8201822,4.9950693],"ct":"BE","tp":"CS","ts":"2023-08-25T09:47:51Z","tX":526,"tY":348,"tags":{"addr:city":"Poupehan","addr:housenumber":"49","addr:postcode":"6830","addr:street":"Chemin de Snéviot","dog":"leashed","email":"info@houlifontaine.be","fee":"yes","name":"Camping d'Houlifontaine","phone":"+32 61 46 73 15","power_supply":"yes","shower":"yes","stars":"2","tents":"yes","toilets":"yes","website":"https://www.houlifontaine.be"}},"129016714":{"location":[49.8291725,4.9849109],"ct":"BE","tp":"CS","ts":"2023-08-25T09:47:11Z","tX":526,"tY":348,"tags":{"addr:city":"Rochehaut","addr:housenumber":"52","addr:postcode":"6830","addr:street":"Laviot","contact:facebook":"campingsagittairerochehaut","contact:instagram":"camping.sagittaire","dog":"leashed","email":"info@campingsagittaire.be","fee":"yes","image":"https://www.campingsagittaire.be/uploads/1/2/9/8/129857925/published/logo-sagittaire-png.png","name":"Camping le Sagittaire","openfire":"no","phone":"+32 61 46 41 33","power_supply":"yes","shower":"yes","toilets":"yes","website":"https://www.campingsagittaire.be/"}},"129023417":{"location":[49.8155249,5.0161808],"ct":"BE","tp":"CS","ts":"2016-11-16T19:02:36Z","tX":526,"tY":348,"tags":{"addr:housenumber":"54","addr:street":"Rue de la Chérizelle","name":"Île de Faigneul"}},"129023421":{"location":[49.8101566,5.0018858],"ct":"BE","tp":"CS","ts":"2011-09-05T19:50:40Z","tX":526,"tY":348,"tags":{}},"129023429":{"location":[49.8098374,5.008234],"ct":"BE","tp":"CS","ts":"2024-10-31T17:17:18Z","tX":526,"tY":348,"tags":{"addr:city":"Bouillon","addr:housenumber":"2","addr:postcode":"6830","addr:street":"Rue du Pont","caravans":"yes","email":"infos@aupetitbengneur.com","internet_access":"wlan","name":"Au petit \"BEN\"gneur","permanent_camping":"yes","static_caravans":"yes","tents":"yes","website":"https://aupetitbengneur.com/"}},"129023432":{"location":[49.8129485,5.0134031],"ct":"BE","tp":"CS","ts":"2024-09-12T08:18:31Z","tX":526,"tY":348,"tags":{"addr:housenumber":"48","addr:street":"Rue de la Chérizelle","caravans":"yes","contact:facebook":"https://www.facebook.com/campingleprahay","contact:instagram":"https://www.instagram.com/campingleprahay/","email":"info@camping-leprahay.com","name":"Camping Le Prahay","phone":"+32 468 42 28 66","tents":"yes","website":"https://camping-leprahay.com/nl/","website:de":"https://camping-leprahay.com/de/","website:en":"https://camping-leprahay.com/en/","website:fr":"https://camping-leprahay.com/fr/","website:nl":"https://camping-leprahay.com/nl/"}},"129297574":{"location":[49.794615,5.0126656],"ct":"BE","tp":"CS","ts":"2022-01-04T22:18:23Z","tX":526,"tY":348,"tags":{"name":"Le Panorama"}},"129651778":{"location":[49.7913961,5.0463177],"ct":"BE","tp":"CS","ts":"2024-07-27T07:05:01Z","tX":526,"tY":348,"tags":{"access":"permissive","addr:housenumber":"1","addr:street":"Halliru","caravans":"no","disused":"yes","fee":"no","name":"Le Hameau de la Semois","note:en":"may open in summer 2025","operator":"Floreal Holidays","static_caravans":"no","website":"https://www.florealgroup.be/"}},"129654752":{"location":[49.7812565,5.0638516],"ct":"BE","tp":"CS","ts":"2018-09-12T14:25:55Z","tX":526,"tY":348,"tags":{"addr:housenumber":"64","addr:street":"Vieille Route de France","name":"Camping Moulin de la Falize"}},"131120940":{"location":[49.8087061,5.1660904],"ct":"BE","tp":"CS","ts":"2024-02-16T23:25:26Z","tX":526,"tY":348,"tags":{"addr:city":"Bertrix","addr:street":"Route du Maka","name":"Camping Maka"}},"131138507":{"location":[49.8093683,5.204572],"ct":"BE","tp":"CS","ts":"2024-12-06T17:08:54Z","tX":526,"tY":348,"tags":{"name":"Camping Saint-Remacle","website":"https://www.camping-saint-remacle.be/"}},"162134971":{"location":[49.6698138,5.2191255],"ct":"FR","tp":"CS","ts":"2024-07-08T08:13:16Z","tX":526,"tY":348,"tags":{"caravans":"yes","dog":"leashed","fee":"yes","name":"Le Banel","nudism":"no","phone":"+33 3 24 27 15 89","power_supply":"yes","reservation":"yes","shower":"hot","stars":"3","swimming_pool":"no","toilets":"yes","website":"https://www.dubanel.com/"}},"176565505":{"location":[49.6607726,5.0493379],"ct":"FR","tp":"CS","ts":"2024-05-02T10:37:02Z","tX":526,"tY":348,"tags":{"cabins":"yes","caravans":"yes","contact:email":"campingdouzy@orange.fr","dog":"yes","fee":"yes","internet_access":"wlan","lit":"yes","name":"Camping Le Lac","phone":"+33 3 24 27 23 25","power_supply":"yes","stars":"3","tents":"yes","website":"https://domaine-du-lac-de-douzy.jimdosite.com/","wheelchair":"yes"}},"176871599":{"location":[49.6984919,4.9375506],"ct":"FR","tp":"CR","ts":"2024-12-29T18:34:40Z","tX":526,"tY":348,"tags":{"bbq":"no","capacity":"20","caravan_site":"motorhome_stopover","caravan_site:type":"river;village","caravans":"no","charge":"14.64 EUR","charge:conditional":"12.44 @ (Oct-Apr)","dog":"leashed","fee":"yes","maxlength":"none","name":"Aire camping-car park de Sedan","network":"CAMPING-CAR PARK","opening_hours":"24/7","operator":"CAMPING-CAR PARK","phone":"+33 1 83 64 69 21","power_supply":"yes","power_supply:capacity":"20","power_supply:maxcurrent":"6","sanitary_dump_station":"yes","tents":"no","trailer":"no","water_point":"yes","website":"https://www.campingcarpark.com/fr_FR/sejour/aire-etape-camping-car/grand-est/08-ardennnes/sedan"}},"184996883":{"location":[49.801865,5.205754],"ct":"BE","tp":"CS","ts":"2018-03-02T16:17:49Z","tX":526,"tY":348,"tags":{"addr:housenumber":"20","addr:street":"Rue de la Chapelle","name":"Camping La Charbonnière","website":"http://www.camping-la-charbonniere.be/"}},"184996958":{"location":[49.8023169,5.2168511],"ct":"BE","tp":"CS","ts":"2021-12-29T17:01:42Z","tX":526,"tY":348,"tags":{"addr:city":"Herbeumont","addr:housenumber":"13","addr:street":"Linglé","name":"Cote d'Aise"}},"185082643":{"location":[49.7869367,5.2320344],"ct":"BE","tp":"CS","ts":"2023-06-19T13:27:12Z","tX":526,"tY":348,"tags":{"addr:housenumber":"20","addr:street":"Rue de la Garenne","name":"Camping La Garenne","website":"http://www.campinglagarenne.be/"}},"265783521":{"location":[49.7711722,5.2407683],"ct":"BE","tp":"CS","ts":"2024-06-24T12:50:30Z","tX":526,"tY":348,"tags":{"addr:housenumber":"45","addr:street":"Rue de Bravy","name":"Champ Le Monde","website":"https://www.retro-camping.be"}},"286401390":{"location":[49.7769054,5.237039],"ct":"BE","tp":"CR","ts":"2024-11-12T17:33:15Z","tX":526,"tY":348,"tags":{"addr:city":"Herbeumont","addr:postcode":"6887","addr:street":"Avenue René Demarteau","capacity":"33","caravan_site":"motorhome_stopover","caravan_site:type":"town","charge":"14 EUR","drinking_water":"yes","fee":"yes","internet_access":"yes","internet_access:fee":"customers","name":"Aire de Herbeumont","network":"CAMPING-CAR PARK","panoramax":"34fe5c58-f232-456a-a1e0-c596c3f27e32","panoramax:0":"494a04e6-b493-46c6-867f-7b8fb1cdca26","panoramax:1":"835e4221-396f-4925-a7e7-882dedebd4c7","permanent_camping":"no","power_supply":"yes","sanitary_dump_station":"yes","sanitary_dump_station:chemical_toilet":"yes","sanitary_dump_station:grey_water":"yes","tents":"no","website":"https://www.campingcarpark.com/fr_FR/sejour/aire-etape-camping-car/wallonie/68-luxembourg/herbeumont"}},"312046691":{"location":[49.7119083,5.1692346],"ct":"BE","tp":"CR","ts":"2025-01-25T18:04:14Z","tX":526,"tY":348,"tags":{"capacity":"10","caravan_site":"motorhome_stopover","caravan_site:type":"countryside","fee":"no","name":"Aire de Muno","power_supply":"no","sanitary_dump_station":"no","seasonal":"no","surface":"asphalt","water_point":"no","website":"https://visitwallonia.be/fr-be/content/aire-de-motor-homes-muno-province-de-luxembourg"}},"319248341":{"location":[49.7232191,5.2566481],"ct":"BE","tp":"CS","ts":"2022-06-03T21:09:12Z","tX":526,"tY":348,"tags":{"access":"yes","addr:housenumber":"25","addr:street":"Rue de Chassepierre","caravans":"yes","contact:facebook":"Camping.de.la.Semois","contact:twitter":"Campingsemois","email":"info@campingdelasemois.be","fee":"yes","group_only":"no","internet_access":"wlan","name":"Camping de la Semois","openfire":"yes","phone":"+32 63 31 21 87","power_supply":"yes","reservation":"yes","shower":"yes","tents":"yes","toilets":"yes","website":"https://campingdelasemois.be"}},"365342177":{"location":[49.8047181,5.2142563],"ct":"BE","tp":"CS","ts":"2024-04-18T09:23:37Z","tX":526,"tY":348,"tags":{"addr:street":"Rue de Linglé","name":"Les Ochay"}},"416550582":{"location":[49.8261533,4.987861],"ct":"BE","tp":"CS","ts":"2023-08-27T09:14:51Z","tX":526,"tY":348,"tags":{"addr:city":"Rochehaut","addr:housenumber":"54","addr:postcode":"6830","addr:street":"Laviot","contact:facebook":"campinglebandelaviot","email":"info@bandelaviot.be","fee":"yes","image":"http://www.bandelaviot.be/wp-content/uploads/2020/05/Logo3x.png","name":"Camping Le Ban de Laviot","phone":"+32 61 46 63 14","shower":"yes","stars":"3","toilets":"yes","website":"https://www.bandelaviot.be"}},"416551696":{"location":[49.8329526,4.9856251],"ct":"BE","tp":"CS","ts":"2023-08-25T09:47:56Z","tX":526,"tY":348,"tags":{"addr:city":"Rochehaut","addr:housenumber":"24","addr:postcode":"6830","addr:street":"Laviot","email":"info@campingdelavallee.be","fee":"yes","group_only":"no","image":"https://www.campingdelavallee.be/public/images/layout/logo-camping-de-la-vallee.png","name":"Camping de la Vallée","phone":"+32 61 46 83 19","power_supply":"yes","reservation":"yes","shower":"yes","toilets":"yes","website":"https://www.campingdelavallee.be/"}},"442786676":{"location":[49.7287174,5.2497202],"ct":"BE","tp":"CS","ts":"2023-07-05T17:34:24Z","tX":526,"tY":348,"tags":{"name":"Waai - La Rochette","phone":"+32 63 31 24 60"}},"448456875":{"location":[49.7735328,5.232698],"ct":"BE","tp":"CS","ts":"2021-06-11T20:05:29Z","tX":526,"tY":348,"tags":{"addr:street":"Moulin Willaime","name":"Camping Moulin Willaime"}},"704129146":{"location":[49.8089053,5.0041822],"ct":"BE","tp":"CR","ts":"2024-07-29T17:36:10Z","tX":526,"tY":348,"tags":{"access":"yes","addr:city":"Poupehan","addr:postcode":"6830","addr:street":"Rue du Pon","capacity":"20","caravan_site":"motorhome_stopover","caravan_site:type":"river","charge":"17 EUR","description":"Aire de camping-car","fee":"yes","maxstay":"24 hours","name":"Aire pour camping car de Poupehan","operator":"Ville de Poupehan","payment:cash":"no","payment:credit_cards":"yes","power_supply":"yes","power_supply:capacity":"12","power_supply:charge":"3 EUR","sanitary_dump_station":"yes","sanitary_dump_station:chemical_toilet":"yes","sanitary_dump_station:grey_water":"yes","sanitary_dump_station:round_drain":"yes","seasonal":"no","supervised":"no","water_point":"yes","website":"https://www.paysdebouillon.be/details/HBG-A0-006P-199V&type=26","wheelchair":"yes"}},"1231361586":{"location":[49.7903406,5.0571361],"ct":"BE","tp":"CR","ts":"2024-04-11T16:14:17Z","tX":526,"tY":348,"tags":{"access":"yes","addr:city":"Boullion","addr:postcode":"6830","addr:street":"Rue de la Poulie","capacity":"10","caravan_site":"motorhome_stopover","caravan_site:type":"river","description:fr":"Aire de camping-car. Electricité avec jeton a l'office de tourisme.","fee":"no","maxstay":"24 hours","name":"Aire de camping car de Bouillon","name:fr":"Aire de camping car de Bouillon","operator":"Ville de Boullion","power_supply":"yes","sanitary_dump_station":"yes","sanitary_dump_station:chemical_toilet":"yes","sanitary_dump_station:grey_water":"yes","sanitary_dump_station:round_drain":"yes","seasonal":"no","supervised":"no","water_point":"yes"}},"3779601422":{"location":[49.7772419,5.2372768],"ct":"BE","tp":"SD","ts":"2023-11-29T16:03:50Z","tX":526,"tY":348,"tags":{"access":"customers"}},"6611534450":{"location":[49.8088823,5.0043957],"ct":"BE","tp":"SD","ts":"2021-11-20T14:40:26Z","tX":526,"tY":348,"tags":{"description":"Station de vidange pour Camping-car.","fee":"no","operator":"Ville de Poupehan","sanitary_dump_station:chemical_toilet":"yes","sanitary_dump_station:grey_water":"yes","sanitary_dump_station:round_drain":"yes","water_point":"yes"}},"8437204868":{"location":[49.7906307,5.0580408],"ct":"BE","tp":"SD","ts":"2021-11-20T14:40:26Z","tX":526,"tY":348,"tags":{"description:fr":"Station de vidange pour Camping-car.","fee":"no","operator":"City of Bouillon","sanitary_dump_station:chemical_toilet":"yes","sanitary_dump_station:grey_water":"yes","sanitary_dump_station:round_drain":"yes","water_point":"yes"}},"12461364025":{"location":[49.6987614,4.9380125],"ct":"FR","tp":"SD","ts":"2024-12-29T18:34:40Z","tX":526,"tY":348,"tags":{"access":"customers","fee":"no","opening_hours":"24/7","sanitary_dump_station:basin":"yes","sanitary_dump_station:round_drain":"yes"}}}