{"322942461":{"location":[48.7740319,5.1736774],"ct":"FR","tp":"CS","ts":"2020-08-22T19:41:58Z","tX":526,"tY":352,"tags":{"addr:city":"Bar-le-Duc","addr:country":"FR","addr:postcode":"55000","addr:street":"Rue Jean Bernard","caravans":"yes","email":"camping@tourisme-barleduc.fr","fax":"+33 3 29 79 21 95","internet_access":"wlan","name":"Camping du Château","nudism":"no","operator":"Ville de Bar-le-Duc","phone":"+33 3 29 79 17 33","stars":"2","tents":"yes","website":"https://www.tourisme-barleduc.fr/CAMPING_DU_CHATEAU-754001624-38"}},"430754817":{"location":[48.8267565,4.9825749],"ct":"FR","tp":"CS","ts":"2020-09-06T18:15:21Z","tX":526,"tY":352,"tags":{"name":"Camping municipal","website":"https://www.revigny-sur-ornain.fr/camping-aire-camping-car.php"}},"696183306":{"location":[48.8777321,4.9404654],"ct":"FR","tp":"CR","ts":"2024-04-23T17:25:51Z","tX":526,"tY":352,"tags":{"caravan_site":"motorhome_stopover","caravan_site:type":"village","fee":"no","name":"Aire Camping-cars Nettancourt"}},"730650897":{"location":[48.7753163,5.1665565],"ct":"FR","tp":"CR","ts":"2024-10-03T12:40:47Z","tX":526,"tY":352,"tags":{"addr:city":"Bar le Duc","addr:country":"FR","addr:postcode":"55000","addr:street":"Rue du Débarcadère","caravan_site":"motorhome_stopover","caravan_site:type":"town;canal","fee":"no","name":"Aire de camping-car de Bar-le-Duc","operator":"Bar-le-Duc","power_supply":"yes","sanitary_dump_station":"yes"}},"1219019997":{"location":[48.82634,4.9833553],"ct":"FR","tp":"CR","ts":"2024-10-03T16:43:14Z","tX":526,"tY":352,"tags":{"addr:city":"Revigny-sur-Ornain","addr:postcode":"55800","addr:street":"Rue du Stade","capacity":"2","caravan_site":"motorhome_stopover","caravan_site:type":"village","description":"2 Emplacements/sites/Stellplätze <=24h = 0,- EUR >24h = x,- EUR","fee":"no","internet_access":"no","maxstay":"24 hours","name":"Aire de camping-car - Revigny-sur-Ornain","power_supply":"yes","reservation":"no","sanitary_dump_station":"yes","surface":"asphalt","water_point":"yes","website":"https://www.revigny-sur-ornain.fr/camping-aire-camping-car.php"}},"2486768223":{"location":[48.7752411,5.1665419],"ct":"FR","tp":"SD","ts":"2020-09-20T11:08:01Z","tX":526,"tY":352,"tags":{"operator":"Euro Relais","payment":"Jetton (2€)","sanitary_dump_station:accepted":"black_water;grey_water;tank_chemicals"}},"2502762860":{"location":[48.7196534,5.2301485],"ct":"FR","tp":"CR","ts":"2024-04-23T17:20:00Z","tX":526,"tY":352,"tags":{"caravan_site":"motorhome_stopover","caravan_site:type":"forest","caravans":"no","fee":"no","internet_access":"no","name":"Aire de stationnement du Belvédère","power_supply":"no","sanitary_dump_station":"no","surface":"gravel","tents":"no","water_point":"no"}},"11295567553":{"location":[48.8261798,4.9833549],"ct":"FR","tp":"SD","ts":"2024-04-23T17:16:55Z","tX":526,"tY":352,"tags":{"access":"yes","fee":"no","water_point":"yes"}}}