{"129117355":{"location":[47.3198187,5.0127481],"ct":"FR","tp":"CS","ts":"2024-11-07T16:21:48Z","tX":526,"tY":358,"tags":{"addr:city":"Dijon","addr:country":"FR","addr:housenumber":"3","addr:postcode":"21000","addr:street":"Boulevard Chanoine Kir","capacity":"121","caravans":"yes","drinking_water":"yes","email":"contact@camping-du-lac-dijon.com","fee":"yes","mobile":"+33 6 66 96 56 26","name":"Camping du Lac Kir","operator":"SERCOL Campings","phone":"+33 3 80 30 54 01","power_supply":"yes","shower":"yes","source":"cadastre-dgi-fr source : Direction Générale des Impôts - Cadastre;mise à jour : 2011","stars":"2","tents":"yes","toilets":"yes","website":"https://www.camping-du-lac-dijon.com/"}},"1208750581":{"location":[47.3036934,5.0561681],"ct":"FR","tp":"CS","ts":"2023-09-18T10:39:19Z","tX":526,"tY":358,"tags":{"caravans":"no","name":"Camping des Lentillères","operator":"Quartier Libre des Lentillères","static_caravans":"no","tents":"yes"}},"1288020698":{"location":[47.3214011,5.011183],"ct":"FR","tp":"CR","ts":"2025-06-07T11:08:43Z","tX":526,"tY":358,"tags":{"addr:city":"Dijon","addr:country":"FR","addr:housenumber":"3","addr:postcode":"21000","addr:street":"Boulevard Chanoine Kir","caravan_site":"motorhome_stopover","caravan_site:type":"camp_site","charge":"14.11 EUR","charge:conditional":"13 EUR @ (Sep-Jun)","drinking_water":"yes","fee":"yes","name":"Aire de camping-cars Camping du Lac Kir","network":"AirePark","power_supply":"yes","reservation":"yes","sanitary_dump_station":"yes","toilets":"yes","website":"https://www.aireparkreservation.com/aires-camping-cars/bourgogne-franche-comte/cote-or/dijon"}},"1289233690":{"location":[47.512996,5.1123809],"ct":"FR","tp":"CR","ts":"2024-06-04T01:41:03Z","tX":526,"tY":358,"tags":{"bbq":"no","capacity":"16","caravan_site":"motorhome_stopover","caravan_site:type":"village","caravans":"no","charge":"13.94 EUR","dog":"leashed","fee":"yes","internet_access":"wired","maxlength":"9","name":"Aire Is-sur-Tille","network":"CAMPING-CAR PARK","opening_hours":"24/7","power_supply":"yes","power_supply:capacity":"16","power_supply:maxcurrent":"6","sanitary_dump_station":"yes","tents":"no","trailer":"no","water_point":"yes"}},"1320205742":{"location":[47.4344664,5.0455758],"ct":"FR","tp":"CR","ts":"2024-10-03T10:08:38Z","tX":526,"tY":358,"tags":{"caravan_site":"motorhome_stopover","caravan_site:type":"village","charge":"5 EUR","dog":"yes","fee":"yes","name":"Aire de camping-car Savigny-le-Sec","sanitary_dump_station":"yes","surface":"gravel","toilets":"yes","water_point":"yes","website":"https://savigny-le-sec.fr/aire-de-camping-car"}},"7328299526":{"location":[47.4226714,5.1713312],"ct":"FR","tp":"SD","ts":"2020-03-25T11:03:56Z","tX":526,"tY":358,"tags":{}},"7328299527":{"location":[47.4215209,5.1703468],"ct":"FR","tp":"SD","ts":"2020-03-25T11:03:56Z","tX":526,"tY":358,"tags":{}},"12217077662":{"location":[47.4343897,5.0452452],"ct":"FR","tp":"SD","ts":"2024-10-03T00:34:41Z","tX":526,"tY":358,"tags":{"access":"yes","fee":"yes"}}}