{"38517579":{"location":[46.1984554,5.2376636],"ct":"FR","tp":"PK","ts":"2024-10-30T08:03:16Z","tX":526,"tY":363,"tags":{"addr:city":"Bourg-en-Bresse","addr:postcode":"01000","addr:street":"Allée Loys Van Boghem","fee":"no","internet_access":"no","motorhome":"yes","parking":"surface","power_supply":"no","sanitary_dump_station":"no","source":"cadastre-dgi-fr source : Direction Générale des Impôts - Cadastre. Mise à jour : 2009"}},"166212191":{"location":[46.2224431,4.9867684],"ct":"FR","tp":"CS","ts":"2023-11-09T12:28:13Z","tX":526,"tY":363,"tags":{"name":"Le Renom","operator":"Municipalité","phone":"+33 4 74 50 02 75","stars":"3","website":"https://www.camping-renom.com/"}},"234804143":{"location":[46.2089805,5.2397875],"ct":"FR","tp":"PK","ts":"2024-11-01T20:04:15Z","tX":526,"tY":363,"tags":{"motorhome":"yes","surface":"asphalt"}},"257419593":{"location":[46.1151664,4.9607288],"ct":"FR","tp":"CR","ts":"2024-05-18T10:56:10Z","tX":526,"tY":363,"tags":{"bbq":"no","capacity":"11","caravan_site":"motorhome_stopover","caravan_site:type":"river","caravans":"no","charge":"13.61 EUR","charge:conditional":"12.01 @ (Nov-Apr)","dog":"leashed","fee":"yes","maxlength":"none","name":"Aire Camping-car Park Châtillon-sur-Chalaronne","network":"CAMPING-CAR PARK","opening_hours":"24/7","power_supply":"yes","power_supply:capacity":"12","power_supply:fee":"no","power_supply:maxcurrent":"6","sanitary_dump_station":"yes","sanitary_dump_station:chemical_toilet":"yes","sanitary_dump_station:grey_water":"yes","seasonal":"no","tents":"no","trailer":"no","water_point":"yes"}},"257420608":{"location":[46.1156993,4.9631564],"ct":"FR","tp":"CS","ts":"2024-09-04T14:08:41Z","tX":526,"tY":363,"tags":{"area":"yes","name":"Le Vieux Moulin","opening_hours":"09:00-12:00,16:00-19:00","operator":"Municipalité","phone":"+33 4 74 55 04 79","stars":"4","website":"https://www.chatillon-sur-chalaronne.fr/-Camping-.html"}},"424892230":{"location":[46.1028723,4.9467409],"ct":"FR","tp":"CS","ts":"2019-11-26T18:10:41Z","tX":526,"tY":363,"tags":{"name":"Curnillon","operator":"Gilbert Curnillon","phone":"+33 4 74 55 25 44","stars":"2","website":"https://www.gites-de-france-ain.com/camping-curnillon-gilbert-a-relevant-dans-DOMBES-G319624.html"}},"542440141":{"location":[46.082539,5.1529111],"ct":"FR","tp":"CS","ts":"2023-06-10T14:10:50Z","tX":526,"tY":363,"tags":{"caravans":"yes","drinking_water":"yes","name":"Domaine de la Dombes","phone":"+33 4 74 30 32 32","power_supply":"yes","shower":"yes","stars":"4","tents":"yes","toilets":"yes","website":"https://domainedeladombes.com/"}},"1263812019":{"location":[46.2336289,5.0403081],"ct":"FR","tp":"CR","ts":"2024-05-17T22:22:40Z","tX":526,"tY":363,"tags":{"bbq":"no","capacity":"16","caravan_site":"motorhome_stopover","caravan_site:type":"village","caravans":"no","charge":"14.20 EUR","charge:conditional":"12.60 EUR @ (Oct-Apr)","description":"700 to town center","fee":"yes","internet_access":"wlan","internet_access:fee":"no","maxlength":"none","name":"Aire CAMPING-CAR PARK de Mézériat","network":"CAMPING-CAR PARK","opening_hours":"24/7","operator":"CAMPING-CAR PARK","power_supply":"yes","power_supply:maxcurrent":"6","sanitary_dump_station":"yes","sanitary_dump_station:chemical_toilet":"yes","sanitary_dump_station:grey_water":"yes","tents":"no","trailer":"no","website":"https://www.campingcarpark.com/fr_FR/sejour/aire-etape-camping-car/auvergne-rhone-alpes/01-ain/mezeriat"}},"1712696058":{"location":[46.2563208,5.0767956],"ct":"FR","tp":"CS","ts":"2014-09-15T11:47:40Z","tX":526,"tY":363,"tags":{"name":"La Ferme de Cornaton","phone":"+33 4 74 30 25 63","website":"marieclaudebasset.free.fr"}},"3081550012":{"location":[46.2519708,5.2658721],"ct":"FR","tp":"CS","ts":"2014-09-17T10:44:34Z","tX":526,"tY":363,"tags":{"name":"Aire Naturelle Chatard","operator":"Louis CHATARD","phone":"+33 4 74 25 87 55"}},"3081586443":{"location":[46.2069252,4.9823156],"ct":"FR","tp":"CS","ts":"2014-09-17T11:16:46Z","tX":526,"tY":363,"tags":{"name":"Ferme Marchand","note":"pas sûr de la position","operator":"Henri MARCHAND","phone":"+33 4 74 50 15 08"}},"6001734511":{"location":[46.2088903,5.2403658],"ct":"FR","tp":"SD","ts":"2024-11-01T20:00:58Z","tX":526,"tY":363,"tags":{"access":"yes","fee":"no"}},"7090253482":{"location":[46.255437,5.0594012],"ct":"FR","tp":"SD","ts":"2019-12-28T08:02:47Z","tX":526,"tY":363,"tags":{"note":"merci de déplacer au bon emplacement","sanitary_dump_station:basin":"yes"}}}