{"14280087":{"location":[44.1307495,5.1869099],"ct":"FR","tp":"CS","ts":"2024-05-19T19:53:17Z","tX":526,"tY":371,"tags":{"addr:housenumber":"132","addr:postcode":"84410","addr:street":"Chemin de Maraval","camp_site":"deluxe","description":"Camping naturiste en Provence Le camping naturiste de Bélézy est situé au cœur de la Provence, entre Mont Ventoux et Lubéron. Bélézy, c’est un camping naturiste attaché à une pratique respectueuse et familiale du naturisme. Respect de soi, respect des au","dog":"no","email":"info@belezy.com","internet_access":"yes","internet_access:fee":"yes","motor_vehicle":"no","name":"Camping Domaine de Bélézy","nudism":"yes","operator":"Cap Fun","phone":"+33 4 90 65 60 18","website":"https://belezy.com/"}},"34929032":{"location":[44.2690538,5.1061215],"ct":"FR","tp":"CS","ts":"2025-04-18T14:44:06Z","tX":526,"tY":371,"tags":{"addr:city":"Saint-Romain-en-Viennois","fee":"yes","name":"Le Soleil de Provence","website":"https://www.camping-vagues-oceanes.com/camping-vaucluse/soleil-de-provence.html"}},"55995114":{"location":[44.328934,5.0653812],"ct":"FR","tp":"CS","ts":"2020-09-06T18:14:48Z","tX":526,"tY":371,"tags":{"name":"Camping municipal"}},"160742900":{"location":[44.1608104,4.9365076],"ct":"FR","tp":"CS","ts":"2023-11-22T09:55:35Z","tX":526,"tY":371,"tags":{"addr:city":"Violès","addr:housenumber":"1335","addr:postcode":"84150","addr:street":"Route d'Orange","capacity":"49","caravans":"yes","contact:city":"Violès","contact:country":"FR","contact:housenumber":"1335","contact:postcode":"84150","contact:street":"Route d'Orange","email":"campingfavards@gmail.com","fee":"yes","internet_access":"wlan","landuse":"tourism","name":"Camping des Favards","pets":"allowed","phone":"+33 4 90 70 90 93","playground":"yes","ref:FR:SIRET":"43795397900014","sanitary_dump_station":"no","stars":"4","start_date":"2001-04-10","static_caravans":"yes","swimming_pool":"covered","tents":"yes","website":"https://www.camping-favards.com/","wheelchair":"yes"}},"164392289":{"location":[44.2890721,5.1911305],"ct":"FR","tp":"CS","ts":"2022-06-09T08:59:34Z","tX":526,"tY":371,"tags":{"name":"Domaine de l’Écluse","stars":"3"}},"167983330":{"location":[44.2351777,5.0898665],"ct":"FR","tp":"CS","ts":"2024-07-29T21:58:29Z","tX":526,"tY":371,"tags":{"caravans":"no","fee":"yes","landuse":"tourism","name":"Carpe Diem","operator":"Capfun","phone":"+33 4 90 36 02 02","static_caravans":"yes","tents":"no","website":"https://www.capfun.com/camping-france-provence_alpes_cote_d_azur-carpe_diem-FR.html"}},"167997314":{"location":[44.2454672,5.0787898],"ct":"FR","tp":"CS","ts":"2019-05-12T10:27:51Z","tX":526,"tY":371,"tags":{"addr:city":"Vaison-la-Romaine","addr:postcode":"84110","addr:street":"Chemin du Brusquet","contact:email":"info@camping-theatre.com","contact:fax":"+33 4 90 28 78 76","contact:phone":"+33 4 90 28 78 66","contact:website":"http://www.camping-theatre.com","internet_access":"yes","landuse":"tourism","name":"Théâtre Romain","source":"cadastre-dgi-fr source : Direction Générale des Impôts - Cadastre. Mise à jour : 2012"}},"170433721":{"location":[44.1684454,5.0687612],"ct":"FR","tp":"PK","ts":"2024-10-04T12:11:31Z","tX":526,"tY":371,"tags":{"access":"yes","fee":"no","motorhome":"yes","motorhome:overnight":"yes","name":"Parking de Suzette","parking":"surface","surface":"gravel"}},"175591602":{"location":[44.1792055,5.1247686],"ct":"FR","tp":"CS","ts":"2025-05-15T04:46:47Z","tX":526,"tY":371,"tags":{"addr:city":"Malaucène","addr:housenumber":"428","addr:postcode":"84340","addr:street":"Route de Suzette","capacity":"60","capacity:caravans":"70","capacity:tents":"80","caravans":"yes","dog":"leashed","drinking_water":"yes","email":"lebosquet84@gmail.com","fax":"+33 4 90 65 12 52","fee":"yes","landuse":"tourism","name":"Camping Le Bosquet","opening_hours":"Apr 6-Oct 16","payment:cash":"yes","payment:cheque":"yes","payment:cheques_vacances":"yes","payment:credit_cards":"yes","phone":"+33 4 90 65 29 09","playground":"yes","ref:FR:SIRET":"42263501100014","stars":"2","static_caravans":"yes","swimming_pool":"yes","tents":"yes","washing_machine":"yes","website":"http://www.campinglebosquet84.com"}},"177326481":{"location":[44.2424966,5.2114301],"ct":"FR","tp":"CS","ts":"2023-07-23T19:23:37Z","tX":526,"tY":371,"tags":{"name":"Les Castors","website":"https://www.campinglescastors.fr/"}},"181623682":{"location":[44.2009968,5.1235092],"ct":"FR","tp":"CS","ts":"2019-03-22T20:05:23Z","tX":526,"tY":371,"tags":{"internet_access":"no","landuse":"tourism","name":"Aire Naturelle de la Saousse"}},"182157258":{"location":[44.2529147,5.2423715],"ct":"FR","tp":"CS","ts":"2024-04-16T22:51:24Z","tX":526,"tY":371,"tags":{"contact:phone":"+ 334 75 28 02 68","motorhome":"yes","name":"Domaine de la Gautière","power_supply":"yes","stars":"3","website":"https://www.camping-lagautiere.com/fr/"}},"184252629":{"location":[44.2678457,5.2679687],"ct":"FR","tp":"CS","ts":"2023-05-04T16:47:05Z","tX":526,"tY":371,"tags":{"contact:email":"ephelides@wanadoo.fr","contact:phone":"+336 15 64 54 96","name":"Les Éphélides","stars":"3","website":"https://www.ephelides.com/"}},"188093408":{"location":[44.0977259,5.0367344],"ct":"FR","tp":"CS","ts":"2024-09-05T09:11:30Z","tX":526,"tY":371,"tags":{"addr:city":"Aubignan","addr:country":"FR","addr:housenumber":"410","addr:postcode":"84810","addr:street":"Chemin du Vas","caravans":"yes","email":"info@camping-lebregoux.fr","fee":"yes","internet_access":"wlan","internet_access:fee":"no","landuse":"tourism","name":"Camping Le Brégoux","phone":"+33 4 90 62 62 50","shower":"yes","static_caravans":"yes","tents":"yes","toilets":"yes","website":"https://www.camping-lebregoux.fr"}},"191189334":{"location":[44.2767944,5.2470232],"ct":"FR","tp":"CS","ts":"2024-11-15T00:30:04Z","tX":526,"tY":371,"tags":{"contact:phone":"+336 72 01 90 87","email":"marcelbonifacy@outlook.fr","name":"La savoillane"}},"218595687":{"location":[44.2267488,5.1276396],"ct":"FR","tp":"CS","ts":"2024-07-29T21:58:29Z","tX":526,"tY":371,"tags":{"landuse":"tourism","name":"Camping du Bon Crouzet","tents":"yes","website":"http://du.bon.crouzet.free.fr/"}},"224724622":{"location":[44.3276092,5.0815596],"ct":"FR","tp":"CS","ts":"2023-11-02T15:32:08Z","tX":526,"tY":371,"tags":{"landuse":"tourism","name":"Domaine le Sagittaire","source":"local knowledge","website":"https://www.le-sagittaire.com/"}},"229263886":{"location":[44.224022,5.1045693],"ct":"FR","tp":"CS","ts":"2025-04-17T21:48:22Z","tX":526,"tY":371,"tags":{"landuse":"tourism","name":"Camping le Voconce","website":"http://camping-voconce.com/"}},"230540569":{"location":[44.2462122,5.0739218],"ct":"FR","tp":"CR","ts":"2024-10-04T13:26:14Z","tX":526,"tY":371,"tags":{"access":"yes","caravan_site":"motorhome_stopover","caravan_site:type":"town","caravans":"asphalt","charge":"9.60 EUR","fee":"yes","name":"Aire de Camping-Car de Colombier - Vaison-la-Romaine","power_supply":"no","sanitary_dump_station":"yes","tents":"no","water_point":"yes","water_point:fee":"no"}},"232104810":{"location":[44.3029771,5.2721483],"ct":"FR","tp":"CS","ts":"2024-08-09T15:20:52Z","tX":526,"tY":371,"tags":{"access":"customers","addr:city":"Buis-les-Baronnies","addr:postcode":"26170","addr:street":"Route du col d'Ey","capacity":"120","caravans":"yes","contact:email":"info@loree-de-provence.com","contact:mobile":"+33 6 68 66 28 75","contact:website":"https://www.loree-de-provence.com/","description":"Dans un domaine de 130 hectares, profitez d’un environnement préservé et du calme envoutant de ce paradis naturel.","email":"info@loree-de-provence","fee":"yes","laundry_service":"yes","name":"L'Orée de Provence","phone":"+33 4 75 28 10 78","static_caravans":"yes","tents":"yes","website":"https://www.loree-de-provence.com/"}},"232449779":{"location":[44.1431105,4.9855504],"ct":"FR","tp":"CS","ts":"2025-05-26T09:02:30Z","tX":526,"tY":371,"tags":{"addr:city":"Vacqueyras","addr:street":"Route de Vaison","capacity:caravans":"40","capacity:tents":"40","caravans":"yes","fee":"yes","landuse":"tourism","name":"Camping Municipal Les Queyrades","note":"FERMÉ ?","operator":"Mairie de Vacqueyras","phone":"+33490628730","stars":"2","static_caravans":"no","tents":"yes"}},"233166221":{"location":[44.2268363,5.1265068],"ct":"FR","tp":"CS","ts":"2024-07-29T21:58:29Z","tX":526,"tY":371,"tags":{"landuse":"tourism","mobile":"+33 7 61 83 30 90","name":"Camping Le Puyseby","tents":"yes","website":"https://campinglepuyseby.com/"}},"240604969":{"location":[44.2482351,5.2613644],"ct":"FR","tp":"CS","ts":"2024-11-15T00:30:04Z","tX":526,"tY":371,"tags":{"addr:city":"Buis-les-Baronnies","addr:housenumber":"972","addr:postcode":"26170","addr:street":"Route d'Eygaliers","caravans":"yes","contact:phone":"+ 334 75 28 09 82","email":"campingcost@gmail.com","fee":"yes","name":"Le Moulin de Cost","static_caravans":"yes","tents":"yes","website":"https://www.camping-moulindecost.com/"}},"256967306":{"location":[44.1233882,5.1104288],"ct":"FR","tp":"CS","ts":"2024-03-12T17:49:02Z","tX":526,"tY":371,"tags":{"caravans":"yes","drinking_water":"yes","internet_access":"wlan","internet_access:fee":"no","landuse":"tourism","name":"Le Bouquier","phone":"+33 4 90 62 30 13","power_supply":"yes","shower":"yes","source":"Bing","tents":"yes","toilets":"yes","website":"http://www.campinglebouquier.com/"}},"438558834":{"location":[44.2879722,4.9336688],"ct":"FR","tp":"CS","ts":"2025-05-11T12:38:21Z","tX":526,"tY":371,"tags":{"caravans":"yes","fee":"yes","internet_access":"no","name":"Camping Municipal de Tulette","source":"cadastre-dgi-fr source : Direction Générale des Impôts - Cadastre;mise à jour : 2011","stars":"2","tents":"yes","website":"https://www.campingtulette.com/"}},"451039700":{"location":[44.120775,5.0280729],"ct":"FR","tp":"PK","ts":"2025-01-25T21:06:50Z","tX":526,"tY":371,"tags":{"access":"yes","fee":"no","motorhome":"yes","motorhome:overnight":"yes","parking":"surface","surface":"asphalt"}},"451039741":{"location":[44.122165,5.0344117],"ct":"FR","tp":"CS","ts":"2025-05-18T15:11:30Z","tX":526,"tY":371,"tags":{"addr:city":"Beaumes-de-Venise","addr:housenumber":"120","addr:postcode":"84190","addr:street":"Chemin des Moulins","capacity:caravans":"63","capacity:tents":"63","caravans":"yes","email":"camping@beaumes-de-venise.fr","fee":"yes","internet_access":"wlan","internet_access:fee":"no","landuse":"tourism","name":"Camping municipal Roquefiguier","phone":"+33 4 90 62 95 07","stars":"2","static_caravans":"no","tents":"yes","website":"https://www.beaumes-de-venise.fr/vie-pratique/saisonnier-camping-piscine.html"}},"499498914":{"location":[44.2644574,4.9331626],"ct":"FR","tp":"CS","ts":"2024-06-11T18:13:27Z","tX":526,"tY":371,"tags":{"addr:housenumber":"142","addr:postcode":"26790","addr:street":"Chemin des Rives de l'Eygues","caravans":"yes","drinking_water":"yes","email":"camping.aygues@wanadoo.fr","internet_access":"wlan","name":"Les Rives de l'Aygues","name:nl":"Tulette","phone":"+33475983750","power_supply":"yes","sanitary_dump_station":"yes","shower":"yes","tents":"yes","toilets":"yes","website":"https://www.lesrivesdelaygues.com/"}},"590739744":{"location":[44.1775303,5.1302075],"ct":"FR","tp":"CR","ts":"2024-11-20T12:10:47Z","tX":526,"tY":371,"tags":{"addr:city":"Malaucène","addr:postcode":"84340","addr:street":"Place des Palivettes","bbq":"no","capacity":"35","caravan_site":"motorhome_stopover","caravan_site:type":"village","caravans":"no","charge":"14.70 EUR","contact:phone":"+33183646921","dog":"leashed","ele":"350","fee":"yes","internet_access":"wlan","internet_access:fee":"yes","maxlength":"none","maxstay":"21 days","name":"Camping-Car Park Malaucène","network":"CAMPING-CAR PARK","power_supply":"yes","power_supply:fee":"no","power_supply:maxcurrent":"6","sanitary_dump_station":"yes","sanitary_dump_station:chemical_toilet":"yes","sanitary_dump_station:grey_water":"yes","surface":"fine_gravel","tents":"no","toilets":"no","trailer":"no","water_point":"yes","water_point:fee":"no","website":"https://www.campingcarpark.com/fr_FR/sejour/aire-etape-camping-car/provence-alpes-cote-dazur/84-vaucluse/malaucene","wikimedia_commons":"Category:Camping-Car Park Malaucène"}},"655602436":{"location":[44.1250994,5.171938],"ct":"FR","tp":"CR","ts":"2024-04-17T10:06:19Z","tX":526,"tY":371,"tags":{"bbq":"no","capacity":"58","caravan_site":"motorhome_stopover","caravan_site:type":"village","caravans":"no","charge":"14.15 EUR","dog":"leashed","fee":"yes","internet_access":"wlan","internet_access:fee":"no","maxlength":"none","name":"Aire CAMPING-CAR PARK de Bédoin, Mont Ventoux","network":"CAMPING-CAR PARK","opening_hours":"24/7","power_supply":"yes","power_supply:current":"6","sanitary_dump_station":"yes","seasonal":"no","tents":"no","trailer":"yes","water_point":"yes","website":"https://www.campingcarpark.com/fr_FR/sejour/aire-etape-camping-car/provence-alpes-cote-dazur/84-vaucluse/bedoin-mont-ventoux"}},"655653778":{"location":[44.1201317,5.1824696],"ct":"FR","tp":"CS","ts":"2023-09-01T10:45:36Z","tX":526,"tY":371,"tags":{"caravans":"yes","drinking_water":"yes","landuse":"tourism","name":"Camping de la Garenne","power_supply":"yes","shower":"yes","tents":"yes","toilets":"yes"}},"655665035":{"location":[44.1131778,5.1826427],"ct":"FR","tp":"CS","ts":"2024-09-28T09:55:39Z","tX":526,"tY":371,"tags":{"capacity":"100","caravans":"yes","fee":"yes","internet_access":"wlan","internet_access:fee":"no","motorhome":"yes","name":"Camping Le Ménèque","sanitary_dump_station":"yes","sanitary_dump_station:fee":"no","swimming_pool":"yes","tents":"yes","toilets":"yes","website":"https://www.lemeneque.eu/"}},"736905847":{"location":[44.1257085,5.1740988],"ct":"FR","tp":"CS","ts":"2024-08-01T07:50:03Z","tX":526,"tY":371,"tags":{"caravans":"yes","drinking_water":"yes","name":"Camping municipal La Pinède","name:oc":"Campatge municipau de La Pineda","shower":"yes","source:name:oc":"ieo-bdtopoc","stars":"3","tents":"yes","website":"https://www.camping-lapinede-ventoux.fr/"}},"832203352":{"location":[44.3108347,4.9357573],"ct":"FR","tp":"CS","ts":"2024-04-20T22:16:29Z","tX":526,"tY":371,"tags":{"caravans":"yes","dog":"yes","fee":"yes","internet_access":"wlan","motorhome":"yes","name":"Camping de l'Hérein","shower":"yes","source":"data.gouv.fr:DATAtourisme - 05/2020","static_caravans":"yes","tents":"yes","toilets":"yes","website":"https://www.campingvisan.com"}},"911839901":{"location":[44.3130041,5.1000167],"ct":"FR","tp":"CR","ts":"2024-11-20T11:42:29Z","tX":526,"tY":371,"tags":{"access":"yes","addr:street":"Flogeres","capacity":"8","caravan_site":"motorhome_stopover","caravan_site:type":"village","fee":"no","name":"Mirabel aux Baronnies","operator":"Ville de Mirabel-aux-Baronnies","power_supply":"no","sanitary_dump_station":"yes","sanitary_dump_station:chemical_toilet":"yes","sanitary_dump_station:grey_water":"yes","sanitary_dump_station:round_drain":"yes","seasonal":"no","supervised":"no","tents":"no","water_point":"yes","website":"https://www.mirabel-aux-baronnies.fr/s2/histoire-de-mirabel/aire-de-camping-car/","wheelchair":"yes","wikimedia_commons":"Category:Mirabel aux Baronnies Motorhome Stopover"}},"1064702871":{"location":[44.2376252,5.1493411],"ct":"FR","tp":"CS","ts":"2024-04-21T21:10:20Z","tX":526,"tY":371,"tags":{"addr:housenumber":"2933","addr:street":"Chemin de l'Ancienne Voie Ferrée","caravans":"yes","drinking_water":"yes","email":"3riv@free.fr","internet_access":"wlan","internet_access:fee":"no","name":"Les 3 Rivières","phone":"+33 4 90 46 01 72","power_supply":"yes","shower":"yes","stars":"2","tents":"yes","toilets":"yes","website":"https://www.camping-les3rivieres.com/"}},"1085031633":{"location":[44.2644908,5.0534104],"ct":"FR","tp":"CS","ts":"2024-06-04T18:52:19Z","tX":526,"tY":371,"tags":{"addr:city":"Vaison-la-Romaine","addr:street":"Domaine de la Cambuse, route de Villedieu","name":"Camping La Cambuse","phone":"+33 6 32 18 15 54"}},"1115681681":{"location":[44.1609291,5.0172048],"ct":"FR","tp":"CR","ts":"2024-05-29T00:27:18Z","tX":526,"tY":371,"tags":{"caravan_site":"motorhome_stopover","caravan_site:type":"parking_lot","fee":"no","name":"Les Florêts"}},"1115827980":{"location":[44.2173706,5.1389751],"ct":"FR","tp":"PK","ts":"2024-09-28T10:14:12Z","tX":526,"tY":371,"tags":{"motorhome":"yes","name":"Parking Entrechaux"}},"1184539749":{"location":[44.0994894,5.2439299],"ct":"FR","tp":"CS","ts":"2023-06-23T21:35:26Z","tX":526,"tY":371,"tags":{"capacity:persons":"22","caravans":"yes","charge":"14 EUR","dog":"yes","drinking_water":"yes","fee":"yes","hot_water":"yes","name":"Camping Municipal Aqui Sian Ben","opening_hours":"Jun 1-Aug 31","power_supply":"yes","shower":"hot","swimming_pool":"no","tents":"yes","toilets":"yes"}},"1193250674":{"location":[44.3157039,4.9839186],"ct":"FR","tp":"CR","ts":"2024-10-02T20:21:38Z","tX":526,"tY":371,"tags":{"caravan_site":"motorhome_stopover","caravan_site:type":"winery","charge":"5 EUR","description":"park between olive trees","fee":"yes","maxstay":"2 days","name":"Domaine de Lucena","power_supply":"customers","power_supply:fee":"no","sanitary_dump_station":"customers","seasonal":"no","water_point":"yes","website":"https://www.domainedelucena.fr/aires-de-camping-cars/"}},"1273195828":{"location":[44.2847796,5.2535529],"ct":"FR","tp":"CR","ts":"2024-04-16T21:49:33Z","tX":526,"tY":371,"tags":{"caravan_site":"motorhome_stopover","caravan_site:type":"farm_shop","fee":"no","fee:conditional":"yes@(stay>1 night)","maxstay":"1 night","name":"Aire de camping-cars Lou Pitchot Maximénet","seasonal":"no"}},"3057705699":{"location":[44.2621641,5.1295752],"ct":"FR","tp":"CS","ts":"2014-09-03T17:18:59Z","tX":526,"tY":371,"tags":{"addr:city":"Faucon","addr:postcode":"84110","addr:street":"D86","alt_name":"L'Ayguette","name":"Camping de l'Ayguette"}},"3751880187":{"location":[44.1316581,5.1708073],"ct":"FR","tp":"CS","ts":"2015-09-20T18:06:24Z","tX":526,"tY":371,"tags":{"name":"Camping le Pastory"}},"8990512963":{"location":[44.3107547,5.0707107],"ct":"FR","tp":"CS","ts":"2021-08-08T18:20:47Z","tX":526,"tY":371,"tags":{"description":"camping à la ferme"}},"6608965014":{"location":[44.2387004,5.1880869],"ct":"FR","tp":"CR","ts":"2024-04-28T22:50:40Z","tX":526,"tY":371,"tags":{"capacity":"5","caravan_site":"motorhome_stopover","caravan_site:type":"village","fee":"no","internet_access":"no","name":"Stade de Mollans-sur-Ouvèze","opening_hours":"Jul-Aug","operator":"Mairie de Mollans-sur-Ouvèze","sanitary_dump_station":"no","website":"https://mollans.info/hebergement-et-restauration/","wheelchair":"yes"}},"7929090191":{"location":[44.2081305,5.0245327],"ct":"FR","tp":"CR","ts":"2024-10-02T20:25:03Z","tX":526,"tY":371,"tags":{"caravan_site":"motorhome_stopover","caravan_site:type":"village","drinking_water":"no","fee":"no","opening_hours":"24/7","power_supply":"no","sanitary_dump_station":"no","toilets":"no"}},"11823009998":{"location":[44.3353351,5.1152448],"ct":"FR","tp":"CR","ts":"2024-11-05T17:14:50Z","tX":526,"tY":371,"tags":{"capacity":"5","caravan_site":"motorhome_stopover","caravan_site:type":"winery","description":"parking in the shade of the olive trees.","name":"Aire de camping-cars privée Domaine de la Taurelle","opening_hours":"Mar 15-Nov 15","product":"olive;wine","seasonal":"yes","shadow":"yes","website":"https://provencecoterhone-tourisme.com/apidae/aire-de-camping-cars-privee-domaine-de-la-taurelle/"}},"11935740546":{"location":[44.1935033,4.9953407],"ct":"FR","tp":"CR","ts":"2024-05-26T21:24:02Z","tX":526,"tY":371,"tags":{"caravan_site":"motorhome_stopover","caravan_site:type":"winery","charge":"2 EUR","fee":"non-members","name":"Aire de stationnement camping-cars Domaine le Parandou","network":"France Passion","seasonal":"no","services:charge":"3 EUR","website":"https://parandou.com/"}},"11935758635":{"location":[44.101317,4.9706241],"ct":"FR","tp":"CR","ts":"2024-05-26T21:27:29Z","tX":526,"tY":371,"tags":{"caravan_site":"motorhome_stopover","caravan_site:type":"winery","fee":"no","name":"Domaine de l'Oiselet","network":"France Passion","phone":"+33 6 18 74 17 68","power_supply":"yes","sanitary_dump_station":"yes","water_point":"yes","website":"https://www.provenceguide.com/campings/mont-ventoux/aire-france-passion-de-loiselet/provence-6058386-1.html"}},"12206751272":{"location":[44.328386,4.994811],"ct":"FR","tp":"CR","ts":"2024-09-28T11:12:20Z","tX":526,"tY":371,"tags":{"caravan_site":"motorhome_stopover","caravan_site:type":"farm_shop","fee":"no","name":"Les escargots de l'enclave","product":"snails","website":"http://lesescargotsdelenclave.over-blog.com/"}},"12215086326":{"location":[44.1997043,5.0077593],"ct":"FR","tp":"CR","ts":"2024-10-01T21:50:25Z","tX":526,"tY":371,"tags":{"capacity":"4","caravan_site":"motorhome_stopover","caravan_site:type":"winery","caravans":"no","fee":"no","name":"Aire de stationnement camping-cars Les Vignerons de Gravillas","power_supply":"no","reservation":"recommended","sanitary_dump_station":"no","tents":"no","tourism:website":"https://www.provenceguide.com/campings/mont-ventoux/aire-de-stationnement-camping-cars-les-vignerons-de-gravillas/provence-6152494-1.html","website":"https://www.legravillas.fr/"}},"8467302149":{"location":[44.3131347,5.1001026],"ct":"FR","tp":"SD","ts":"2024-11-20T11:42:29Z","tX":526,"tY":371,"tags":{"access":"yes","description":"Services non disponible durant l'hivers.","fee":"no","operator":"Ville de Mirabel-aux-Baronnies","sanitary_dump_station:chemical_toilet":"yes","sanitary_dump_station:grey_water":"yes","sanitary_dump_station:round_drain":"yes","seasonal":"yes","water_point":"yes","wikimedia_commons":"File:Mirabel aux Baronnies Motorhome Stopover service area.jpg"}},"9421722358":{"location":[44.1776554,5.1298792],"ct":"FR","tp":"SD","ts":"2024-11-20T12:10:47Z","tX":526,"tY":371,"tags":{"access":"customers","addr:street":"Place des Palivettes","description":"free for motorhome stopover customers","fee":"yes","opening_hours":"Mo-Su 12:00-23:58","operator":"Camping-car Park","payment:credit_cards":"yes","water_point":"yes","wikimedia_commons":"File:Camping-Car Park Malaucène service area.jpg"}},"9890472986":{"location":[44.2621712,5.2622178],"ct":"FR","tp":"SD","ts":"2022-07-15T19:58:27Z","tX":526,"tY":371,"tags":{"access":"yes","fee":"no","opening_hours":"24/7","water_point":"yes"}},"12222373354":{"location":[44.2463932,5.073959],"ct":"FR","tp":"SD","ts":"2024-10-04T13:26:14Z","tX":526,"tY":371,"tags":{"access":"yes","fee":"no"}}}