{"9853347":{"location":[43.9150302,5.0734527],"ct":"FR","tp":"CS","ts":"2023-12-01T21:58:37Z","tX":526,"tY":372,"tags":{"caravans":"yes","contact:phone":"+33 4 90 38 05 71","landuse":"tourism","name":"La Sorguette","stars":"3","tents":"yes","toilets:wheelchair":"yes","website":"https://www.camping-sorguette.com","wheelchair":"yes"}},"41738846":{"location":[43.9287406,4.9827719],"ct":"FR","tp":"CS","ts":"2023-02-08T12:05:56Z","tX":526,"tY":372,"tags":{"landuse":"tourism","name":"Le Jantou","source":"Union européenne - SOeS, CORINE Land Cover, 2006."}},"118475203":{"location":[43.9993523,5.0570769],"ct":"FR","tp":"PK","ts":"2024-11-07T17:40:22Z","tX":526,"tY":372,"tags":{"fee":"no","motorhome":"yes","name":"Parking Frédéric Mistral","opening_hours":"00:00-24:00; We 15:00-20:00 off; Sa 07:00-13:00 off","parking":"surface","ref:FR:commune":"84088P000004","wheelchair":"yes"}},"118507404":{"location":[43.901043,5.1926975],"ct":"FR","tp":"CR","ts":"2024-05-27T20:05:15Z","tX":526,"tY":372,"tags":{"caravan_site":"motorhome_stopover","caravan_site:type":"countryside","fee":"no","name":"Parking des Bories","power_supply":"no","sanitary_dump_station":"no","surface":"ground","water_point":"no"}},"149394065":{"location":[43.9990895,5.0622681],"ct":"FR","tp":"PK","ts":"2024-09-28T10:49:41Z","tX":526,"tY":372,"tags":{"motorhome":"yes","motorhome:overnight":"yes","name":"Parking Place René Cassin","parking":"surface","ref:FR:commune":"84088P000003","website":"https://porteduventoux.com/camping-cars"}},"156621248":{"location":[43.9178617,5.046323],"ct":"FR","tp":"PK","ts":"2024-10-02T21:52:22Z","tX":526,"tY":372,"tags":{"capacity":"200","fee":"no","motorhome":"yes","motorhome:overnight":"yes","name":"Parking de la gare L'Isle-sur-la-Sorgue","park_ride":"yes","parking":"surface","supervised":"no"}},"215356246":{"location":[44.0063391,5.0370637],"ct":"FR","tp":"CS","ts":"2024-03-14T13:42:15Z","tX":526,"tY":372,"tags":{"contact:phone":"+33 4 90 46 82 55","fee":"yes","internet_access":"yes","internet_access:fee":"no","landuse":"tourism","name":"Camping Les Fontaines - Ciela Village - Vaucluse","opening_hours":"Mo-Fr 09:00-18:00; Sa 09:00-13:00","operator":"Ciela Village","phone":"+33 4 90 46 82 55","ref:FR:SIRET":"51201113100012","survey:date":"2020-07-15","website":"https://www.campingfontaines.com/"}},"216482894":{"location":[43.8400795,5.1316388],"ct":"FR","tp":"CS","ts":"2024-06-03T10:21:17Z","tX":526,"tY":372,"tags":{"addr:city":"Maubec","addr:housenumber":"52","addr:postcode":"84660","addr:street":"Chemin de la Combe Saint-Pierre","alt_name":"Camping municipal de Maubec","area":"yes","caravans":"yes","drinking_water":"yes","email":"camping.maubec@c-lmv.fr","internet_access":"yes","internet_access:fee":"no","landuse":"tourism","name":"Camping les Royères du Prieuréalt","phone":"+33 4 90 76 50 34","power_supply":"yes","sanitary_dump_station":"yes","shower":"yes","source":"cadastre-dgi-fr source : Direction Générale des Impôts - Cadastre. Mise à jour : 2013","stars":"2","tents":"yes","toilets":"yes","website":"https://www.campingmaubec-luberon.com/"}},"224125631":{"location":[43.9259186,5.2017715],"ct":"FR","tp":"CS","ts":"2021-10-07T17:47:13Z","tX":526,"tY":372,"tags":{"contact:email":"contact@campingdessources.com","contact:phone":"+33 4 90 72 12 48","contact:street":"Route de Murs","contact:website":"https://www.campingdessources.com/","description:de":"Campingplatz bei Gordes","landuse":"tourism","name":"Camping des Sources","opening_hours":"Mo-Su 08:30-22:00"}},"229733878":{"location":[44.028725,5.2001644],"ct":"FR","tp":"CS","ts":"2019-03-22T20:05:33Z","tX":526,"tY":372,"tags":{"landuse":"tourism"}},"284810947":{"location":[43.9199165,5.1225923],"ct":"FR","tp":"CS","ts":"2023-08-01T16:03:11Z","tX":526,"tY":372,"tags":{"addr:postcode":"84800","landuse":"tourism","name":"Les Prés","phone":"+33 4 90 20 32 38","power_supply":"yes","stars":"2","tents":"yes"}},"284810954":{"location":[43.9204662,5.1244878],"ct":"FR","tp":"CR","ts":"2024-05-17T22:47:32Z","tX":526,"tY":372,"tags":{"addr:city":"Fontaine-de-Vaucluse","addr:housenumber":"84","addr:postcode":"84800","addr:street":"route de Cavaillon","bbq":"no","capacity":"21","caravan_site":"motorhome_stopover","caravan_site:type":"river","caravans":"no","charge":"15.16 EUR","charge:conditional":"13.16 @ (Oct-Apr)","dog":"leashed","email":"contact@campingcarpark.com","fee":"yes","internet_access":"wlan","maxlength":"9","motorhome":"designated","name":"Fontaine de Vaucluse - Parking Camping Car","network":"CAMPING-CAR PARK","operator":"Camping Car Park","phone":"+33 1 83 64 69 21","power_supply":"yes","power_supply:capacity":"28","power_supply:fee":"no","power_supply:maxcurrent":"6","sanitary_dump_station:chemical_toilet":"yes","sanitary_dump_station:grey_water":"yes","surface":"gravel","tents":"no","trailer":"no","water_point":"yes","website":"https://www.campingcarpark.com/fr_FR/sejour/aire-etape-camping-car/provence-alpes-cote-dazur/84-vaucluse/fontaine-de-vaucluse"}},"285884178":{"location":[44.0143634,5.1696014],"ct":"FR","tp":"CS","ts":"2023-10-06T20:47:18Z","tX":526,"tY":372,"tags":{"addr:housenumber":"660","addr:postcode":"84570","addr:street":"Chemin de l'Annonciade","email":"contact@campingfontneuve.com","internet_access":"wlan","landuse":"tourism","name":"Camping Font Neuve","phone":"+33 4 90 69 90 00","restaurant":"yes","stars":"3","website":"http://www.campingfontneuve.com"}},"294324273":{"location":[44.0789882,4.9775622],"ct":"FR","tp":"CS","ts":"2019-03-22T20:05:40Z","tX":526,"tY":372,"tags":{"landuse":"tourism","name":"La Sainte-Croix","operator":"Commune de Sarrians","ref:FR:SIRET":"21840122200110","source":"INSEE - 07/2017","start_date":"2008-02-12"}},"297105993":{"location":[43.9283112,4.9325554],"ct":"FR","tp":"CS","ts":"2024-06-30T04:07:28Z","tX":526,"tY":372,"tags":{"email":"info@campingfontisson.com","internet_access":"yes","internet_access:fee":"yes","landuse":"tourism","name":"Fontisson","phone":"+33 4 90 22 59 77","website":"https://www.campingfontisson.com/"}},"359875820":{"location":[43.889675,5.1503521],"ct":"FR","tp":"PK","ts":"2024-10-02T20:35:32Z","tX":526,"tY":372,"tags":{"fee":"no","motorhome":"yes","name":"Cabrières-d'Avignon","parking":"surface","power_supply":"no"}},"364031615":{"location":[43.9156884,5.1979425],"ct":"FR","tp":"CR","ts":"2024-07-02T11:25:59Z","tX":526,"tY":372,"tags":{"capacity":"10","caravan_site":"motorhome_stopover","caravan_site:type":"parking_lot","charge":"15 EUR","fee":"yes","internet_access":"no","name":"Aire Municipale Gordes","power_supply":"no","sanitary_dump_station":"yes","tents":"no","wheelchair":"yes"}},"425981085":{"location":[43.8664838,5.1032806],"ct":"FR","tp":"CS","ts":"2024-05-23T16:38:06Z","tX":526,"tY":372,"tags":{"addr:city":"Robion","addr:housenumber":"454","addr:postcode":"84440","addr:street":"Route de Lagnes","email":"campinglescerisiers@free.fr","internet_access":"wlan","landuse":"tourism","name":"Les Cerisiers","phone":"+33 6 88 39 08 59","website":"https://www.lescerisiers-luberon.com/"}},"429430804":{"location":[44.0388607,5.0007075],"ct":"FR","tp":"CS","ts":"2021-12-10T10:53:31Z","tX":526,"tY":372,"tags":{"landuse":"tourism","name":"Camping municipal de Bellerive"}},"490640722":{"location":[44.0557276,5.2282435],"ct":"FR","tp":"CS","ts":"2024-04-08T13:05:30Z","tX":526,"tY":372,"tags":{"internet_access":"wlan","internet_access:fee":"yes","landuse":"tourism","name":"Les Verguettes","stars":"4"}},"687514098":{"location":[43.8436486,5.1139319],"ct":"FR","tp":"PK","ts":"2024-10-01T22:12:36Z","tX":526,"tY":372,"tags":{"motorhome":"yes","name":"Robion"}},"814488870":{"location":[44.0594157,5.1832811],"ct":"FR","tp":"CS","ts":"2020-06-10T08:15:36Z","tX":526,"tY":372,"tags":{}},"833677769":{"location":[43.8811472,5.1062877],"ct":"FR","tp":"CS","ts":"2024-10-07T08:49:41Z","tX":526,"tY":372,"tags":{"addr:city":"Lagnes","addr:postcode":"84800","addr:street":"Route de Robion","email":"domiflorent@wanadoo.fr","name":"Aire Naturelle La Folie","operator":"Dominique FLORENT","phone":"+33 4 90 20 20 02","tents":"25"}},"838483363":{"location":[44.055705,5.2363469],"ct":"FR","tp":"CS","ts":"2020-12-20T21:02:15Z","tX":526,"tY":372,"tags":{"name":"Camping municipal"}},"840654577":{"location":[43.9995657,5.0671734],"ct":"FR","tp":"CS","ts":"2024-04-07T07:14:54Z","tX":526,"tY":372,"tags":{"internet_access":"wlan","internet_access:fee":"no","name":"Camping municipal Coucourelle","source":"data.gouv.fr:DATAtourisme - 05/2020","stars":"2","website":"https://www.camping-pernes.com"}},"961410647":{"location":[43.85825,5.228524],"ct":"FR","tp":"CR","ts":"2024-05-17T22:44:56Z","tX":526,"tY":372,"tags":{"bbq":"no","capacity":"32","caravan_site":"motorhome_stopover","caravan_site:type":"village","charge":"15.18 EUR","charge:conditional":"13,78 @ (Oct-Apr)","dog":"leashed","fee":"yes","maxlength":"none","name":"Aire CAMPING-CAR PARK de Goult","network":"CAMPING-CAR PARK","power_supply":"yes","power_supply:maxcurrent":"6","sanitary_dump_station":"yes","surveillance":"yes","tents":"no","trailer":"yes","water_point":"yes","website":"https://www.campingcarpark.com/fr_FR/sejour/aire-etape-camping-car/provence-alpes-cote-dazur/84-vaucluse/goult"}},"1030396097":{"location":[44.0811802,5.1132567],"ct":"FR","tp":"CS","ts":"2022-02-11T14:35:53Z","tX":526,"tY":372,"tags":{"internet_access:fee":"yes","name":"Le Ventoux"}},"1057545129":{"location":[44.06273,5.1841732],"ct":"FR","tp":"CR","ts":"2024-05-26T21:12:08Z","tX":526,"tY":372,"tags":{"capacity":"6","caravan_site":"motorhome_stopover","caravan_site:type":"village","fee":"no","name":"Aire de stationnement camping car Mormoiron","power_supply":"yes","sanitary_dump_station":"yes","sanitary_dump_station:grey_water":"yes","seasonal":"no","water_point":"yes","website":"https://www.provenceguide.com/campings/mont-ventoux/aire-de-stationnement-camping-car/provence-5090538-1.html"}},"1084308950":{"location":[43.9098678,5.1061694],"ct":"FR","tp":"CS","ts":"2024-04-08T12:27:35Z","tX":526,"tY":372,"tags":{"addr:city":"Lagnes","addr:housenumber":"2765","addr:postcode":"84800","addr:street":"Route de Fontaine","email":"couteliere@wanadoo.fr","name":"Camping La Coutelière","phone":"+33 4 90 20 33 97","stars":"4","website":"https://www.camping-la-couteliere.com/"}},"1116517209":{"location":[43.9992617,5.0571819],"ct":"FR","tp":"CR","ts":"2024-11-20T12:53:40Z","tX":526,"tY":372,"tags":{"caravan_site":"motorhome_stopover","caravan_site:type":"parking_lot","caravans":"no","description":"power outlets not for motorhomes. Closed on market days","fee":"no","name":"Pernes-les-Fontaines","opening_hours":"24/7; Sa 07:00-13:00 off; Apr-Oct We 15:00-20:00 off","power_supply":"no","sanitary_dump_station":"no","tents":"no","toilets":"yes","water_point":"no","website":"https://porteduventoux.com/camping-cars","wheelchair":"yes","wikimedia_commons":"Category:Pernes-les-Fontaines Motorhome Parking"}},"1165341725":{"location":[44.0723092,5.1953559],"ct":"FR","tp":"CR","ts":"2024-05-17T23:29:03Z","tX":526,"tY":372,"tags":{"bbq":"no","capacity":"20","caravan":"no","caravan_site":"motorhome_stopover","caravan_site:type":"lake","charge":"13.55 EUR","dog":"leashed","fee":"yes","internet_access":"wlan","maxlength":"none","motorhome":"designated","name":"Mororiron Lac des Salettes","network":"CAMPING-CAR PARK","operator":"CAMPING-CAR PARK","power_supply":"yes","power_supply:capacity":"20","power_supply:fee":"no","power_supply:maxcurrent":"6","sanitary_dump_station":"customers","sanitary_dump_station:chemical_toilet":"yes","sanitary_dump_station:grey_water":"yes","seasonal":"no","service:fee":"yes","surface":"fine_gravel","tents":"no","toilets":"yes","trailer":"no","water_point":"customers","website":"https://mobile.campingcarpark.com/en_GB/stay/stopover-site-motorhome/provence-alpes-cote-dazur/84-vaucluse/mormoiron"}},"1186482448":{"location":[43.9397711,5.2284119],"ct":"FR","tp":"CS","ts":"2023-10-29T22:46:14Z","tX":526,"tY":372,"tags":{"addr:city":"Murs","addr:postcode":"84220","capacity:pitches":"50","caravans":"yes","contact:email":"camping@communedemurs-vaucluse.fr","internet_access":"wlan","name":"Camping municipal Les Chalottes","phone":"+33 4 90 72 60 00; +33 4 90 72 60 84","shower":"yes","stars":"2","tents":"yes","toilets":"yes","website":"https://www.communedemurs-vaucluse.fr/","wheelchair":"yes"}},"1238132232":{"location":[44.086091,5.090647],"ct":"FR","tp":"CR","ts":"2024-10-02T20:25:41Z","tX":526,"tY":372,"tags":{"caravan_site":"motorhome_stopover","caravan_site:type":"winery","fee":"no","name":"Domaine les Dominicains","seasonal":"no"}},"1306730268":{"location":[44.0419581,5.2201126],"ct":"FR","tp":"CS","ts":"2024-08-10T07:04:44Z","tX":526,"tY":372,"tags":{"caravans":"yes","drinking_water":"yes","name":"Camping de l'Aube","power_supply":"yes","sanitary_dump_station":"no","shower":"yes","tents":"yes","toilets":"yes"}},"1320172872":{"location":[43.8900788,5.1441014],"ct":"FR","tp":"CR","ts":"2024-10-02T20:32:19Z","tX":526,"tY":372,"tags":{"caravan_site":"motorhome_stopover","charge":"12 EUR","dog":"yes","fee":"yes","name":"Aire naturelle Cabrières-d'Avignon","seasonal":"no"}},"1320181952":{"location":[43.8617842,5.2456083],"ct":"FR","tp":"CR","ts":"2024-10-02T21:33:33Z","tX":526,"tY":372,"tags":{"addr:street":"Rue Lucien Montret","capacity":"4","caravan_site":"motorhome_stopover","caravan_site:type":"village","fee":"no","name":"Camping-car Goult","power_supply":"no","sanitary_dump_station":"no","shower":"no","surface":"gravel","toilets":"no","water_point":"no"}},"1320479392":{"location":[43.9942293,5.1479046],"ct":"FR","tp":"PK","ts":"2024-10-03T21:48:20Z","tX":526,"tY":372,"tags":{"fee":"no","motorhome":"yes","name":"Venasque","parking":"street_side"}},"3640644115":{"location":[43.9197583,5.1224448],"ct":"FR","tp":"SD","ts":"2015-07-08T10:37:40Z","tX":526,"tY":372,"tags":{"access":"customers","fee":"no","opening_hours":"24/7","sanitary_dump_station:round_drain":"yes"}},"3640803270":{"location":[43.920487,5.124266],"ct":"FR","tp":"SD","ts":"2017-11-29T09:48:03Z","tX":526,"tY":372,"tags":{"access":"customers","opening_hours":"24/7","sanitary_dump_station:basin":"yes","sanitary_dump_station:round_drain":"yes"}},"3681400294":{"location":[43.9148916,5.1977428],"ct":"FR","tp":"SD","ts":"2015-08-04T21:32:25Z","tX":526,"tY":372,"tags":{"access":"yes","opening_hours":"24/7","sanitary_dump_station:basin":"yes","sanitary_dump_station:round_drain":"yes"}},"11197181737":{"location":[43.8562903,5.168138],"ct":"FR","tp":"CS","ts":"2023-09-24T19:31:40Z","tX":526,"tY":372,"tags":{"addr:city":"Oppède","addr:housenumber":"3353B","addr:postcode":"84580","addr:street":"Route de Ménerbes","capacity:caravans":"18","capacity:persons":"18","capacity:tents":"18","caravans":"yes","charge":"8,8","contact:instagram":"https://www.instagram.com/la_ferme_des_boudougnes/","email":"campinglesboudougnes@gmail.com","fee":"yes","name":"Camping Les Boudougnes","opening_hours":"Mo-Su 16:00-19:00","payment:cash":"yes","phone":"+33 7 66 84 03 48","static_caravans":"yes","tents":"yes","website":"https://www.campinglesboudougnes.fr/"}},"6122216501":{"location":[44.0795829,4.9778709],"ct":"FR","tp":"CR","ts":"2024-05-26T20:59:26Z","tX":526,"tY":372,"tags":{"addr:city":"Sarrians","addr:street":"Avenue de la Camargue","caravan_site":"motorhome_stopover","caravan_site:type":"camp_site","description":"terre battue, peut recevoir quelques camping-cars, vidange eaux grises et noires gratuite, eau potable jeton 2€. A côté, camping Sainte Croix.","dog":"yes","fee":"no","name":"Camping Sainte-Croix","sanitary_dump_station":"yes","water_point":"yes","website":"https://www.provenceguide.com/campings/mont-ventoux/aire-camping-car-municipale/provence-5021222-1.html"}},"11935405764":{"location":[44.0564256,5.041578],"ct":"FR","tp":"CR","ts":"2024-11-20T12:43:25Z","tX":526,"tY":372,"tags":{"caravan_site":"motorhome_stopover","caravan_site:type":"parking_lot;town","fee":"no","name":"Parking des Amandiers / espace Auzon","power_supply":"no","sanitary_dump_station":"no","surface":"asphalt","tents":"no","water_point":"no","website":"https://www.carpentras.fr/venir-a-carpentras-1.html","wikimedia_commons":"File:Parking des Amandiers Motorhome Stopover.jpg"}},"11935721670":{"location":[44.0216683,5.1569532],"ct":"FR","tp":"CR","ts":"2024-09-28T11:13:48Z","tX":526,"tY":372,"tags":{"caravan_site":"motorhome_stopover","caravan_site:type":"village","caravans":"no","dog":"yes","fee":"no","name":"Aire Camping car Malemort-du-Comtat","opening_hours":"Mar-Oct","tents":"no","website":"https://www.provenceguide.com/campings/mont-ventoux/aire-de-stationnement-camping-car/provence-4598203-1.html"}},"9344884350":{"location":[44.0796278,4.9778616],"ct":"FR","tp":"SD","ts":"2023-12-14T01:12:11Z","tX":526,"tY":372,"tags":{"addr:street":"Avenue de la Camargue","description":"water 2€","opening_hours":"Mo-Su 00:00-23:57"}},"11053914791":{"location":[44.062915,5.184295],"ct":"FR","tp":"SD","ts":"2023-07-18T22:42:25Z","tX":526,"tY":372,"tags":{"fee":"no"}},"11725086665":{"location":[44.0442578,5.0546571],"ct":"FR","tp":"SD","ts":"2024-09-28T11:54:10Z","tX":526,"tY":372,"tags":{"access":"yes","fee":"no","motorhome:overnight":"no","power_supply":"no","water_point":"yes","website":"https://www.provenceguide.co.uk/outdoor-accommodation/mont-ventoux/aire-camping-car-municipale/provence-4931485-1.html"}},"11801750148":{"location":[43.9998125,5.0683291],"ct":"FR","tp":"SD","ts":"2024-09-28T10:49:41Z","tX":526,"tY":372,"tags":{"access":"yes","name":"Camping municipal Coucourelle"}},"11935721671":{"location":[44.0217841,5.1569639],"ct":"FR","tp":"SD","ts":"2024-05-26T20:56:57Z","tX":526,"tY":372,"tags":{"fee":"no"}}}