{"54860529":{"location":[43.7809038,5.0393508],"ct":"FR","tp":"CS","ts":"2024-05-02T16:44:45Z","tX":526,"tY":373,"tags":{"access":"customers","addr:postcode":"13660","addr:street":"Impasse Lavau","caravans":"yes","dog":"yes","drinking_water":"yes","email":"contact@valleeheureuse.com","fee":"yes","landuse":"tourism","name":"La Vallée Heureuse","opening_hours":"Apr 01-Nov 05 00:00-24:00","phone":"+33 4 84 80 01 71","power_supply":"yes","shower":"yes","stars":"4","static_caravans":"yes","tents":"yes","toilets":"yes","website":"https://www.provence-camping.net/"}},"154656717":{"location":[43.8216573,5.0396107],"ct":"FR","tp":"CS","ts":"2024-05-26T18:20:57Z","tX":526,"tY":373,"tags":{"addr:city":"Cavaillon","addr:country":"FR","addr:housenumber":"495","addr:postcode":"84300","addr:street":"Avenue Boscodomini","email":"contact@camping-durance.com","internet_access":"wlan","internet_access:fee":"no","landuse":"tourism","name":"La Durance","note":"Camping intercommunal","operator":"CCPLD","phone":"+33 4 90 71 11 78","stars":"3","website":"https://www.camping-durance.com/"}},"155420123":{"location":[43.7970712,5.0924681],"ct":"FR","tp":"PK","ts":"2024-10-02T16:59:37Z","tX":526,"tY":373,"tags":{"motorhome":"yes","motorhome:overnight":"no","name":"aire de détente","parking":"surface"}},"182184036":{"location":[43.7610093,4.9472935],"ct":"FR","tp":"PK","ts":"2024-05-29T19:32:04Z","tX":526,"tY":373,"tags":{"motorhome":"yes","motorhome:overnight":"yes","parking":"surface"}},"218093023":{"location":[43.7784951,5.0853114],"ct":"FR","tp":"CS","ts":"2024-05-14T05:43:30Z","tX":526,"tY":373,"tags":{"landuse":"tourism","name":"Camping Les Rives du Luberon","stars":"4","static_caravans":"yes","website":"https://www.camping-rives-du-luberon.com/"}},"227225744":{"location":[43.759783,4.9519942],"ct":"FR","tp":"CS","ts":"2023-04-04T12:07:47Z","tX":526,"tY":373,"tags":{"access":"yes","addr:city":"Eygalières","addr:housenumber":"114","addr:postcode":"13810","addr:street":"Avenue Jean Jaurès","capacity:persons":"30","caravans":"yes","dog":"yes","drinking_water":"yes","fee":"yes","internet_access":"wlan","landuse":"tourism","name":"Les Oliviers","opening_hours":"Apr 01-Sep 15 24/7","phone":"+33 4 90 95 91 86","shower":"yes","stars":"2","static_caravans":"yes","tents":"yes","toilets":"yes","website":"https://www.campingfrance.com/recherchez-votre-camping/provence-alpes-cote-dazur/bouches-du-rhone/eygalieres/les-oliviers4","wheelchair":"yes"}},"274279279":{"location":[43.6282621,5.1531947],"ct":"FR","tp":"CR","ts":"2024-11-09T11:38:49Z","tX":526,"tY":373,"tags":{"capacity":"22","caravan_site":"motorhome_stopover","caravan_site:type":"village","description":"Aire de Camping-car Municipal Pélissanne","fee":"no","internet_access":"no","name":"Aire d'accueil Pélissanne","operator":"Mairie de Pélissanne","power_supply":"no","sanitary_dump_station":"yes","sanitary_dump_station:fee":"no","seasonal":"no","toilets":"yes","water_point":"yes","water_point:fee":"no","website":"https://www.marseille-tourisme.com/organisez-votre-sejour/hebergements/campings-a-marseille/aire-de-stationnement-pour-camping-cars-pelissanne-fr-3628540/"}},"302927113":{"location":[43.757031,5.1727296],"ct":"FR","tp":"CS","ts":"2023-07-29T08:23:42Z","tX":526,"tY":373,"tags":{"addr:city":"Mérindol","addr:postcode":"84360","landuse":"tourism","name":"Les Argiles","phone":"+33 4 90 72 81 02"}},"330855151":{"location":[43.7767788,4.933602],"ct":"FR","tp":"CS","ts":"2023-03-26T11:44:23Z","tX":526,"tY":373,"tags":{"access":"permit","addr:city":"Eygalieres","addr:postcode":"13810","addr:street":"Route du Mas Daubergue","caravans":"yes","email":"lepesquie84@orange.fr","landuse":"tourism","name":"Le Pesquié","operator":"Yvelise Perret","phone":"+33 4 90 95 99 50","tents":"yes","website":"https://www.camping-pesquie.com/"}},"414771471":{"location":[43.6559802,5.0654475],"ct":"FR","tp":"CS","ts":"2024-03-28T13:33:10Z","tX":526,"tY":373,"tags":{"description":"Camping à la Ferme","internet_access":"wlan","internet_access:fee":"yes","landuse":"tourism","name":"Les Biens Neufs, Camping à la Ferme","website":"https://www.campinglesbiensneufs.com/"}},"463631120":{"location":[43.8317306,5.2080149],"ct":"FR","tp":"PK","ts":"2024-05-29T16:17:53Z","tX":526,"tY":373,"tags":{"access":"yes","fee":"yes","maxweight":"7","motorhome":"yes","parking":"surface"}},"665414666":{"location":[43.7202823,5.1619766],"ct":"FR","tp":"CS","ts":"2024-06-23T13:46:42Z","tX":526,"tY":373,"tags":{"addr:city":"Mallemort","addr:postcode":"13370","addr:street":"D71A","caravans":"yes","drinking_water":"yes","email":"contact@camping-fontenelle.fr","name":"Camping Fontenelle","opening_hours":"Mo-Su 09:00-13:00,16:00-21:00","phone":"+33 4 90 59 11 54","power_supply":"yes","shower":"yes","tents":"yes","website":"https://camping-fontenelle.fr/"}},"696979933":{"location":[43.7205292,5.2065274],"ct":"FR","tp":"CS","ts":"2020-08-25T20:03:20Z","tX":526,"tY":373,"tags":{"addr:city":"Mallemort","addr:postcode":"13370","addr:street":"Domaine du Vergon","name":"Durance Luberon","phone":"+33 4 90 59 13 36","stars":"4","website":"https://campingduranceluberon.fr/"}},"858083864":{"location":[43.7129571,5.2446137],"ct":"FR","tp":"CS","ts":"2024-07-22T08:57:49Z","tX":526,"tY":373,"tags":{"addr:city":"Charleval","addr:postcode":"13350","addr:street":"Avenue du Bois","landuse":"tourism","name":"Camping Luberon Parc","operator":"Yelloh Village Provence","phone":"+33 4 42 96 60 60","website":"https://www.campingluberonparc.fr/fr/"}},"1104433380":{"location":[43.833302,4.9460437],"ct":"FR","tp":"CS","ts":"2022-10-03T07:12:02Z","tX":526,"tY":373,"tags":{}},"1124998987":{"location":[43.7644113,4.9463707],"ct":"FR","tp":"PK","ts":"2024-05-29T19:32:04Z","tX":526,"tY":373,"tags":{"motorhome":"yes","parking":"surface"}},"1222676364":{"location":[43.6402533,5.0600061],"ct":"FR","tp":"CR","ts":"2024-10-09T23:23:35Z","tX":526,"tY":373,"tags":{"capacity":"4","caravan_site":"motorhome_stopover","caravan_site:type":"town","caravans":"no","fee":"no","internet_access":"no","name":"Aire Camping-car Salon-de-Provence","operator":"Mairie de Salon-de-Provence","power_supply":"yes","reservation":"no","sanitary_dump_station":"yes","tents":"no","water_point":"yes"}},"1286875984":{"location":[43.8203595,5.0380396],"ct":"FR","tp":"CR","ts":"2024-11-06T15:25:44Z","tX":526,"tY":373,"tags":{"capacity":"22","caravan_site":"motorhome_stopover","caravan_site:type":"camp_site","caravans":"no","charge":"13.30 EUR","dog":"yes","fee":"yes","internet_access":"wlan","name":"Aire de Camping-car La Durence","opening_hours":"24/7","operator":"Aires Services","sanitary_dump_station":"yes","seasonal":"no","tents":"no","water_point":"yes","website":"https://www.provenceguide.com/campings/luberon/aire-de-camping-cars-la-durance/provence-2995941-1.html"}},"1335779249":{"location":[43.676952,5.063446],"ct":"FR","tp":"CS","ts":"2024-11-19T21:04:30Z","tX":526,"tY":373,"tags":{"contact:phone":"+33 4 90 56 08 36","contact:website":"https://www.camping-nostradamus.com","name":"Nostradamus"}},"1678302239":{"location":[43.7439379,5.0800264],"ct":"FR","tp":"SD","ts":"2023-11-11T06:32:10Z","tX":526,"tY":373,"tags":{"fee":"yes","sanitary_dump_station:accepted":"black_water;grey_water;tank_chemicals","sanitary_dump_station:basin":"yes"}},"1938465457":{"location":[43.6778123,5.0649389],"ct":"FR","tp":"CS","ts":"2012-09-29T19:30:12Z","tX":526,"tY":373,"tags":{"name":"Nostradamus"}},"11339428861":{"location":[43.6284048,5.1534175],"ct":"FR","tp":"SD","ts":"2023-11-14T20:54:40Z","tX":526,"tY":373,"tags":{"access":"yes","opening_hours":"24/7","operator":"Mairie de Pélissanne","sanitary_dump_station:basin":"yes","sanitary_dump_station:chemical_toilet":"yes","sanitary_dump_station:grey_water":"yes"}},"11340736798":{"location":[43.640188,5.0599559],"ct":"FR","tp":"SD","ts":"2023-11-14T20:58:10Z","tX":526,"tY":373,"tags":{"access":"yes","fee":"no","opening_hours":"24/7","operator":"Mairie de Salon-de-Provence","sanitary_dump_station:basin":"yes","sanitary_dump_station:chemical_toilet":"yes","sanitary_dump_station:grey_water":"yes"}},"11886690316":{"location":[43.8207541,5.0373788],"ct":"FR","tp":"SD","ts":"2024-05-09T14:22:32Z","tX":526,"tY":373,"tags":{"access":"yes","fee":"yes","opening_hours":"24/7"}}}