{"72156038":{"location":[43.3320061,5.1378161],"ct":"FR","tp":"CS","ts":"2024-12-04T10:39:23Z","tX":526,"tY":374,"tags":{"contact:phone":"+33 4 42 44 75 75","fee":"yes","landuse":"tourism","name":"Lou Souleï","seasonal":"no","source":"cadastre-dgi-fr source : Direction Générale des Impôts - Cadastre. Mise à jour : 2010","stars":"4","website":"https://www.lousoulei.com/","wheelchair":"limited"}},"189993107":{"location":[43.468126,5.0247491],"ct":"FR","tp":"CS","ts":"2019-03-22T20:05:24Z","tX":526,"tY":374,"tags":{"email":"info@campingfelix.com","internet_access":"wlan","internet_access:fee":"no","landuse":"tourism","name":"Camping Félix de la Bastide","smoking":"no","stars":"2","website":"http://www.campingfelix.com","wheelchair":"yes"}},"223965883":{"location":[43.3345115,5.0690032],"ct":"FR","tp":"CS","ts":"2023-11-10T01:15:20Z","tX":526,"tY":374,"tags":{"addr:city":"Martigues","landuse":"tourism","name":"Camping Le Pascalounet","openfire":"no","phone":"+33 413680285","stars":"2","website":"https://www.camping-marseille.fr/"}},"223965884":{"location":[43.3345786,5.067008],"ct":"FR","tp":"CS","ts":"2023-05-16T05:26:58Z","tX":526,"tY":374,"tags":{"addr:city":"Martigues","addr:street":"Route de la Saulce","email":"contact@camping-marius.com","fee":"yes","internet_access":"wlan","landuse":"tourism","name":"Camping Marius","phone":"+33 4 42 80 70 29","stars":"3","website":"https://www.camping-marius.com/"}},"229225803":{"location":[43.5265088,5.0934394],"ct":"FR","tp":"CS","ts":"2025-02-19T21:15:32Z","tX":526,"tY":374,"tags":{"landuse":"tourism","name":"Camping Le Canet"}},"252381552":{"location":[43.4688902,5.2302586],"ct":"FR","tp":"CS","ts":"2019-03-22T20:05:37Z","tX":526,"tY":374,"tags":{"addr:city":"Vitrolles","addr:postcode":"13127","addr:street":"Allee David Guillermet","landuse":"tourism","name":"Camping Marina Plage","source":"cadastre-dgi-fr source : Direction Générale des Impôts - Cadastre. Mise à jour : 2013","washing_machine":"yes"}},"259504676":{"location":[43.3287917,5.0406918],"ct":"FR","tp":"CR","ts":"2024-11-12T17:33:15Z","tX":526,"tY":374,"tags":{"capacity":"78","caravan_site":"motorhome_stopover","caravan_site:type":"harbour;beach","charge":"12.50 EUR","charge:conditional":"10.50 EUR @ (Apr,May,Jun,Sep,Oct); 8.50 EUR @ (Ja,Feb,Mar,Nov,Dec)","fee":"yes","maxstay":"72 hours","name":"Aire de camping-cars de Carro","opening_hours":"24/7","panoramax":"e73f6951-daa4-48e2-9211-19638c07df93","panoramax:0":"02aa5aea-4ec7-4c33-99bb-7700d8a55d6e","sanitary_dump_station":"yes","seasonal":"no","toilets":"no","website":"https://www.marseille-tourisme.com/en/organize-your-stay/finding-accommodations-in-marseille/find-a-campsite-around-marseille/carro-campervan-area-martigues-en-3628523/"}},"282397917":{"location":[43.4172381,4.9747496],"ct":"FR","tp":"CS","ts":"2019-03-22T20:05:39Z","tX":526,"tY":374,"tags":{"landuse":"tourism","name":"Camping municipal de Bottaï","opening_hours":"Jul-Aug","phone":"+33 4 42 06 00 30","website":"http://www.portdebouc-tourisme.fr/hebergements/campings/"}},"289335651":{"location":[43.4228713,4.9783807],"ct":"FR","tp":"CS","ts":"2017-09-16T01:59:49Z","tX":526,"tY":374,"tags":{"name":"La Mérindole","openfire":"no","opening_hours":"Jun-Sep","operator":"Mairie de Port-de-Bouc","phone":"+33 4 42 06 26 89","scout":"no","tents":"yes","website":"http://www.portdebouc-tourisme.fr/hebergements/campings/"}},"332937038":{"location":[43.4268296,5.1842473],"ct":"FR","tp":"CS","ts":"2024-09-19T09:30:05Z","tX":526,"tY":374,"tags":{"caravans":"yes","landuse":"tourism","name":"Camping Le Jaï","tents":"yes","website":"https://www.campinglejai.com/"}},"418613476":{"location":[43.3351278,5.0706266],"ct":"FR","tp":"CS","ts":"2021-08-29T16:44:42Z","tX":526,"tY":374,"tags":{"addr:city":"Martigues","landuse":"tourism","name":"Camping La Source"}},"418619936":{"location":[43.3308152,5.0737952],"ct":"FR","tp":"CS","ts":"2022-10-02T14:10:54Z","tX":526,"tY":374,"tags":{"addr:city":"Martigues","addr:country":"FR","addr:postcode":"13500","addr:street":"Plage de Sainte-Croix","barrier":"fence","caravans":"yes","drinking_water":"yes","email":"camping.le-mas@wanadoo.fr","fee":"yes","internet_access":"wlan","landuse":"tourism","name":"Le Mas","phone":"+33 4 42 80 70 34","power_supply":"yes","shower":"yes","stars":"4","tents":"yes","toilets":"yes","url":"http://www.camping-le-mas.com","website":"https://www.camping-le-mas.com/"}},"436535639":{"location":[43.3298204,5.0574322],"ct":"FR","tp":"CS","ts":"2023-01-19T10:37:47Z","tX":526,"tY":374,"tags":{"contact:email":"contact@larquet.fr","contact:phone":"+334 42 42 81 00","landuse":"tourism","name":"L'Arquet","stars":"4","website":"https://www.larquet.fr/"}},"533980404":{"location":[43.3312643,5.0812429],"ct":"FR","tp":"CS","ts":"2022-10-22T19:53:30Z","tX":526,"tY":374,"tags":{"access":"no","addr:city":"Martigues","addr:postcode":"13500","addr:street":"Chemin des Tamaris","email":"resa@loucigalon.com","fee":"yes","internet_access":"wlan","landuse":"tourism","name":"Camping Lou Cigalon","phone":"+33 6 25 89 23 09","website":"https://www.loucigalon.com/"}},"586122353":{"location":[43.3298038,5.0757889],"ct":"FR","tp":"CS","ts":"2022-04-03T07:42:49Z","tX":526,"tY":374,"tags":{"addr:city":"Martigues","addr:country":"FR","addr:housenumber":"16","addr:postcode":"13500","addr:street":"Chemin de la Quiétude","fee":"yes","landuse":"tourism","name":"Les Mouettes","phone":"+33 4 42 80 70 01","url":"http://www.campinglesmouettes.fr"}},"589010175":{"location":[43.3342733,5.0417634],"ct":"FR","tp":"CS","ts":"2023-02-06T12:39:11Z","tX":526,"tY":374,"tags":{"addr:city":"Martigues","addr:postcode":"13500","addr:street":"Rue de la Tramontane","cabins":"yes","caravans":"no","landuse":"tourism","motorhome":"no","name":"Parc Résidentiel de loisirs Les Chatels de la Mer","tents":"no"}},"772241799":{"location":[43.5697276,5.0714672],"ct":"FR","tp":"CS","ts":"2020-02-13T20:39:45Z","tX":526,"tY":374,"tags":{"name":"La Pinède","payment:cash":"yes","stars":"3","swimming_pool":"yes","website":"https://www.campingpinede.fr/"}},"992325380":{"location":[43.5154159,4.9931019],"ct":"FR","tp":"CR","ts":"2024-10-03T13:11:33Z","tX":526,"tY":374,"tags":{"capacity":"12","caravan_site":"motorhome_stopover","caravan_site:type":"lake","charge":"8 EUR","dog":"yes","drinking_water":"yes","fee":"yes","name":"Istres Aire de stationnement pour campings-cars","power_supply":"no","sanitary_dump_station":"yes","toilets":"no","website":"https://www.istres-tourisme.com/aire-de-stationnement-pour-campings-cars.html"}},"1043486557":{"location":[43.4674943,5.0198949],"ct":"FR","tp":"CS","ts":"2023-05-06T13:12:37Z","tX":526,"tY":374,"tags":{"internet_access:fee":"yes","name":"Camping Le Neptune","stars":"3"}},"1043487527":{"location":[43.5242705,5.0042486],"ct":"FR","tp":"CS","ts":"2022-05-29T21:50:51Z","tX":526,"tY":374,"tags":{"addr:city":"Istres","addr:country":"FR","addr:housenumber":"31","addr:postcode":"13800","addr:street":"Route de Saint-Chamas","bathing":"yes","capacity:caravans":"100","charge":"De 4 à 5 € pour 16A suivant la période","description":"Camping \"Le Vallon des Cigales\" en bordure de l'étang de Berre, à 2 km du centre ville d'Istres. En cours de rénovation suite au changement de propriétaire en 2015. Ouvert toute l'année et accepte les camping-cars. Accueil chaleureux. Wifi gratuit dans la","description:de":"Campingplatz \"Le Vallon des Cigales\" am Rande des Etang de Berre, 2 km vom Stadtzentrum Istres entfernt. Nach Eigentümerwechsel im Jahr 2015 im Umbau. Ganzjährig geöffnet und Reisemobilaufnahme möglich. Herzliches Willkommen. Kostenloses WLAN im Rezeption","description:en":"Camping \"Vallon des Cigales\" on the edge of the pond Berre, 2 km from the city center of Istres. Undergoing renovations following the change of ownership in 2015. Open all year and accept motorhomes. Heartwarming welcome. Free Wifi in the reception area a","description:fr":"Camping \"Le Vallon des Cigales\" en bordure de l'étang de Berre, à 2 km du centre ville d'Istres. En cours de rénovation suite au changement de propriétaire en 2015. Ouvert toute l'année et accepte les camping-cars. Accueil chaleureux. Wifi gratuit dans la","dog":"yes","drinking_water":"yes","fee":"yes","name":"Camping Vallon des Cigales","official_name":"Le Vallon des Cigales","opening_hours":"Jan-Dec: 09:00-19:00","parking:fee":"De 12 à 23 € suivant la période","power_supply":"yes","ref:FR:SIRET":"80903286500010","source":"INSEE - 2022-05;data.gouv.fr:DATAtourisme - 05/2020","stars":"4","toilets":"yes","wasching_machine":"yes","waste_basket":"yes"}},"1191425096":{"location":[43.3380646,5.1089793],"ct":"FR","tp":"CR","ts":"2024-10-05T16:02:58Z","tX":526,"tY":374,"tags":{"bbq":"no","capacity":"17","caravan_site":"motorhome_stopover","caravan_site:type":"town","caravans":"no","charge":"14.86 EUR","dog":"leashed","fee":"yes","internet_access":"yes","maxlength":"9","name":"Aire CAMPING-CAR PARK de Sausset-Les-Pins, Côte Bleue","network":"CAMPING-CAR PARK","opening_hours":"24/7","operator":"Camping-Car Park","power_supply":"yes","power_supply:maxcurrent":"6","sanitary_dump_station":"yes","seasonal":"no","surface":"asphalt","tents":"no","trailer":"yes","water_point":"yes","website":"https://www.campingcarpark.com/fr_FR/sejour/aire-etape-camping-car/provence-alpes-cote-dazur/13-bouches-du-rhone/sausset-les-pins"}},"1203921728":{"location":[43.335267,5.0687924],"ct":"FR","tp":"CR","ts":"2024-05-20T18:41:15Z","tX":526,"tY":374,"tags":{"bbq":"no","capacity":"9","caravan_site":"motorhome_stopover","caravan_site:type":"beach","charge":"16.72 EUR","charge:conditional":"15.72 EUR @ (Oct-Apr)","dog":"leashed","fee":"yes","internet_access":"wlan","maxlength":"none","name":"Aire Martigues, Camping de la Source","network":"CAMPING-CAR PARK","opening_hours":"24/7","power_supply":"yes","power_supply:capacity":"10","power_supply:maxcurrent":"6","sanitary_dump_station":"yes","self_service":"yes","tents":"no","trailer":"no","water_point":"yes","website":"https://www.campingcarpark.com/fr_FR/sejour/aire-etape-camping-car/provence-alpes-cote-dazur/13-bouches-du-rhone/martigues-camping-de-la-source"}},"12301472189":{"location":[43.3553378,5.1891048],"ct":"FR","tp":"CR","ts":"2024-10-31T18:01:33Z","tX":526,"tY":374,"tags":{"caravan_site":"motorhome_stopover","caravan_site:type":"village","fee":"no","name":"Ensuès-la-Redonne","power_supply":"no","sanitary_dump_station":"yes","water_point":"yes"}},"8315211190":{"location":[43.3552972,5.1891035],"ct":"FR","tp":"SD","ts":"2024-11-12T17:33:15Z","tX":526,"tY":374,"tags":{"access":"yes","fee":"no","operator":"Mairie","panoramax":"4f3d9fdc-0caf-4d58-8bf1-1e8316150d9c","power_supply":"no","sanitary_dump_station:chemical_toilet":"no","sanitary_dump_station:grey_water":"yes","water_point":"yes"}},"10539247168":{"location":[43.3291563,5.0405867],"ct":"FR","tp":"SD","ts":"2023-01-11T12:32:26Z","tX":526,"tY":374,"tags":{"access":"customers","fee":"no","sanitary_dump_station:chemical_toilet":"yes","sanitary_dump_station:grey_water":"yes","water_point":"yes"}},"11343387779":{"location":[43.4300785,4.9416707],"ct":"FR","tp":"SD","ts":"2023-11-12T13:21:59Z","tX":526,"tY":374,"tags":{"access":"yes","fee":"no","opening_hours":"24/7","sanitary_dump_station:accepted":"black_water;grey_water;tank_chemicals","sanitary_dump_station:basin":"yes","water_point":"yes"}}}