{"11341019":{"location":[56.6260156,-2.8652728],"ct":"GB","tp":"CR","ts":"2020-07-23T20:38:16Z","tX":503,"tY":315,"tags":{"name":"Caldhame Caravan Park"}},"389203417":{"location":[56.6183857,-2.9017376],"ct":"GB","tp":"CR","ts":"2021-08-13T10:09:12Z","tX":503,"tY":315,"tags":{"addr:city":"Forfar","addr:postcode":"DD8 1XF","addr:street":"Dundee Road","name":"Lochlands Leisure Park","website":"https://www.lochlandsholidaypark.co.uk/"}},"406090634":{"location":[56.6436688,-2.8984774],"ct":"GB","tp":"CR","ts":"2024-08-23T18:49:29Z","tX":503,"tY":315,"tags":{"name":"Lochside Caravan Park","operator":"Angus Council","owner":"Forfar Common Good"}},"412171383":{"location":[56.6472695,-2.8254858],"ct":"GB","tp":"CR","ts":"2024-05-12T20:45:54Z","tX":503,"tY":315,"tags":{"name":"Foresterseat Caravan Park"}},"423179246":{"location":[56.6450626,-3.0091459],"ct":"GB","tp":"CR","ts":"2023-08-22T00:05:50Z","tX":503,"tY":315,"tags":{"addr:city":"Forfar","addr:place":"Roundyhill","addr:postcode":"DD8 1QT","email":"holidays@drumshademuir.com","image":"http://drumshademuir.com/images/drumshademuir_logo.gif","name":"Drumshademuir Caravan & Camping Park","phone":"+44 1575 573284","power_supply":"yes","tents":"yes","website":"https://drumshademuir.com/"}},"546179666":{"location":[56.5623834,-2.8362987],"ct":"GB","tp":"CS","ts":"2024-04-04T15:46:30Z","tX":503,"tY":315,"tags":{"addr:city":"Dundee","addr:housename":"Douglaswood Scout Centre","addr:postcode":"DD5 3QH","addr:street":"By Kirkbuddo","addr:suburb":"Monikie","fee":"yes","group_only":"yes","name":"Douglaswood Scout Centre","operator":"Dundee District Scouts","tents":"yes","website":"https://www.douglaswood.org.uk/"}},"599488301":{"location":[56.5883185,-2.8171453],"ct":"GB","tp":"CS","ts":"2022-05-13T19:04:27Z","tX":503,"tY":315,"tags":{"addr:city":"Kirkbuddo","fee":"yes","name":"Greenhillock Glamping","tents":"yes","website":"https://greenglamping.co.uk/"}},"992298822":{"location":[56.6167286,-2.8528705],"ct":"GB","tp":"CS","ts":"2021-10-12T19:08:54Z","tX":503,"tY":315,"tags":{"group_only":"yes","name":"Ladenford Den","operator":"Girlguiding Angus"}}}