{"26119432":{"location":[56.4789558,-2.820202],"ct":"GB","tp":"CR","ts":"2024-06-07T09:35:37Z","tX":503,"tY":316,"tags":{"caravans":"yes","contact:email":"enquiries@tayview.info","name":"TayView Caravan & Camping Park","phone":"01382 532837","tents":"no","website":"https://tayview.info"}},"50288643":{"location":[56.4443104,-2.8694456],"ct":"GB","tp":"CR","ts":"2023-10-24T12:48:03Z","tX":503,"tY":316,"tags":{"addr:city":"Tayport","addr:postcode":"DD6 9ES","caravans":"no","fee":"yes","name":"Tayport Links Caravan Park","phone":"+44 1382 552334","source":"yahoo","static_caravans":"only","tents":"no","website":"https://www.tayportlinkscaravanpark.co.uk/"}},"100507342":{"location":[56.423901,-2.8867518],"ct":"GB","tp":"CS","ts":"2024-06-06T20:33:40Z","tX":503,"tY":316,"tags":{"caravans":"yes","drinking_water":"yes","name":"The Beeches","payment:cash":"yes","phone":"07976 303095","power_supply":"no","sanitary_dump_station":"yes","shower":"no","tents":"yes","toilets":"yes","website":"https://thebeechescaravansite.co.uk"}},"418573669":{"location":[56.5004303,-3.0542893],"ct":"GB","tp":"CR","ts":"2020-01-08T21:55:21Z","tX":503,"tY":316,"tags":{"name":"Caravan Storage Compound"}},"1195271879":{"location":[56.4419092,-2.8706729],"ct":"GB","tp":"CS","ts":"2024-08-09T15:08:50Z","tX":503,"tY":316,"tags":{"access":"customers","addr:city":"Tayport","addr:housename":"Larick Campsite","addr:postcode":"DD6 9EA","addr:street":"Shanwell Road","caravans":"yes","name":"Larick Campsite","operator":"Tayport Community Enterprises Ltd.","static_caravans":"no","tents":"yes","website":"https://larickcampsite.org.uk/"}},"11916621370":{"location":[56.502928,-3.0658716],"ct":"GB","tp":"CR","ts":"2024-05-18T21:16:01Z","tX":503,"tY":316,"tags":{"addr:postcode":"DD2 5QR","email":"lorainemillar@hotmail.com","name":"Greenacres","phone":"07740506076","website":"https://www.caravanclub.co.uk/certified-locations/scotland/perthshire-kinross/Dundee/Greenacres"}}}