{"29995129":{"location":[56.3223172,-2.8147764],"ct":"GB","tp":"CR","ts":"2023-04-07T16:25:50Z","tX":503,"tY":317,"tags":{"email":"cairnsmill@aol.com","name":"Cairnsmill Caravan Park","phone":"+44 1334 473604","power_supply":"yes","website":"https://www.cairnsmill.co.uk/"}},"123891674":{"location":[56.3519523,-2.9203265],"ct":"GB","tp":"CR","ts":"2024-08-26T15:04:06Z","tX":503,"tY":317,"tags":{"addr:postcode":"KY16 9YB","name":"Clayton Caravan Park","website":"https://www.clayton-caravan-park.com/"}},"124185545":{"location":[56.1950376,-2.8650792],"ct":"GB","tp":"CR","ts":"2023-10-15T21:55:47Z","tX":503,"tY":317,"tags":{"addr:place":"Shell Bay","addr:postcode":"KY9 1HB","caravans":"yes","name":"Elie Holiday Park","phone":"+441333 330 283","tents":"yes","website":"https://www.abbeyford.com/our-parks/elie-holiday-park/"}},"133758285":{"location":[56.2017951,-2.9804487],"ct":"GB","tp":"CR","ts":"2022-04-18T14:11:09Z","tX":503,"tY":317,"tags":{"addr:postcode":"KY8 4HY","caravans":"yes","name":"Leven Beach Holiday Park","tents":"yes","website":"https://www.pettycur.co.uk/leven.asp"}},"260732848":{"location":[56.2047793,-3.1398155],"ct":"GB","tp":"CR","ts":"2022-04-18T14:36:20Z","tX":503,"tY":317,"tags":{"addr:city":"Glenrothes","addr:postcode":"KY7 6NR","capacity:tents":"3","caravans":"yes","name":"Balbirnie Park Caravan Site","phone":"+441592 759130","tents":"yes","website":"https://www.caravanclub.co.uk/club-sites/scotland/fife/balbirnie-park-club-campsite/"}},"343859943":{"location":[56.2917483,-3.1148849],"ct":"GB","tp":"CR","ts":"2023-08-20T11:38:12Z","tX":503,"tY":317,"tags":{"name":"Annsmuir Caravan Park"}},"368983507":{"location":[56.2314035,-3.0181634],"ct":"GB","tp":"CR","ts":"2019-07-14T22:12:51Z","tX":503,"tY":317,"tags":{"name":"Letham Feus Caravan Park"}},"411471155":{"location":[56.3247317,-2.8409096],"ct":"GB","tp":"CR","ts":"2019-07-12T20:07:17Z","tX":503,"tY":317,"tags":{"addr:city":"St Andrews","addr:postcode":"KY16 8PQ","name":"Craigtoun Meadows Holiday Park","phone":"+44 1334 475959","website":"https://craigtounmeadows.co.uk/"}},"433804138":{"location":[56.2090175,-3.0021617],"ct":"GB","tp":"CR","ts":"2016-07-27T09:42:53Z","tX":503,"tY":317,"tags":{"name":"Glenview Caravan Park"}},"445947395":{"location":[56.2227412,-2.9402886],"ct":"GB","tp":"CS","ts":"2021-10-10T22:03:30Z","tX":503,"tY":317,"tags":{"addr:city":"Lundin Links","addr:postcode":"KY8 5QG","addr:street":"Blindwell Road","name":"Woodland Gardens Caravan & Camping","phone":"+44 1333 360319","website":"http://www.woodland-gardens.co.uk/"}},"445947397":{"location":[56.2198888,-2.9400686],"ct":"GB","tp":"CR","ts":"2021-10-10T22:03:30Z","tX":503,"tY":317,"tags":{"addr:postcode":"KY8 6EF","name":"Largo House Caravan Park"}},"471961017":{"location":[56.3367043,-2.8995117],"ct":"GB","tp":"CS","ts":"2024-05-23T12:42:40Z","tX":503,"tY":317,"tags":{"addr:city":"Strathkinness","addr:postcode":"KY16 9SL","fee":"yes","name":"Nydie Caravan And Camping Site","phone":"+44 1334 850828"}},"850168529":{"location":[56.224486,-2.9132982],"ct":"GB","tp":"CR","ts":"2022-04-18T14:11:09Z","tX":503,"tY":317,"tags":{"addr:postcode":"KY8 5QS","caravans":"yes","name":"Monturpie Caravan Park","tents":"no","website":"https://www.monturpie.co.uk/"}},"1052692068":{"location":[56.2351306,-2.895607],"ct":"GB","tp":"CS","ts":"2023-10-15T21:55:03Z","tX":503,"tY":317,"tags":{"addr:postcode":"KY8 6JE","caravans":"yes","drinking_water":"yes","internet_access":"wlan","name":"Forth House","phone":"+447718788317","power_supply":"yes","shower":"yes","tents":"yes","toilets":"yes","website":"https://www.forthhousecaravansite.co.uk/"}},"1085350717":{"location":[56.230087,-2.9372605],"ct":"GB","tp":"CS","ts":"2024-08-18T19:32:07Z","tX":503,"tY":317,"tags":{"access":"customers","cabins":"yes","dog":"leashed","name":"Largo Law","tents":"no"}},"1288965843":{"location":[56.2881891,-2.8351885],"ct":"GB","tp":"CR","ts":"2024-06-02T19:13:22Z","tX":503,"tY":317,"tags":{"name":"Stewart's Resort","website":"https://stewartsresort.com/"}},"3611611096":{"location":[56.3375144,-2.8904174],"ct":"GB","tp":"CR","ts":"2015-06-22T21:52:39Z","tX":503,"tY":317,"tags":{"capacity":"5","name":"Knockhill"}},"11939446993":{"location":[56.2755442,-3.0228807],"ct":"GB","tp":"CS","ts":"2024-05-28T11:29:01Z","tX":503,"tY":317,"tags":{"name":"Ring Farm Camping","website":"https://therings.co.uk/camping/"}}}