{"96897207":{"location":[55.9699974,-2.9300065],"ct":"GB","tp":"CR","ts":"2021-08-16T20:12:23Z","tX":503,"tY":319,"tags":{"internet_access":"wlan","name":"Seton Sands","source":"Bing"}},"96959141":{"location":[55.9493025,-3.0090065],"ct":"GB","tp":"CS","ts":"2024-08-24T21:13:17Z","tX":503,"tY":319,"tags":{"caravans":"yes","drinking_water":"yes","name":"Drummohr Camping Ground","power_supply":"yes","sanitary_dump_station":"yes","shower":"yes","tents":"yes","toilets":"yes"}},"393877267":{"location":[55.88113,-3.1175888],"ct":"GB","tp":"CR","ts":"2019-09-07T19:59:49Z","tX":503,"tY":319,"tags":{"name":"Kevock Vale Park Retirement Living"}},"487531524":{"location":[55.8266885,-3.0048316],"ct":"GB","tp":"CS","ts":"2024-05-11T19:39:03Z","tX":503,"tY":319,"tags":{"contact:email":"borthwick@midlothianscouts.org.uk","name":"Borthwick","operator":"Midlothian Scouts","phone":"+44 7771 733086","scout":"yes","website":"https://www.midlothianscouts.org.uk/borthwick/"}},"519443516":{"location":[55.8714438,-3.0761822],"ct":"GB","tp":"CS","ts":"2024-05-13T20:03:32Z","tX":503,"tY":319,"tags":{"addr:city":"Newtongrange","addr:housename":"Craigesk","addr:postcode":"EH22 4TP","caravans":"yes","contact:email":"lothianbridge@tiscali.co.uk","drinking_water":"yes","name":"Lothian Bridge Caravan Park","phone":"+44 131 6636120","power_supply":"yes","sanitary_dump_station":"yes","shower":"yes","tents":"yes","toilets":"yes"}},"9923925799":{"location":[55.9039247,-3.0575531],"ct":"GB","tp":"CS","ts":"2024-05-11T10:53:14Z","tX":503,"tY":319,"tags":{"access":"customers","check_date":"2024-04-03","name":"Dalkeith Country Park Camping","opening_hours":"7th June to 1st September","tents":"yes","website":"https://www.dalkeithcountrypark.co.uk/stay/camping/"}},"5117769245":{"location":[55.8568347,-3.1567454],"ct":"GB","tp":"CR","ts":"2024-06-29T08:12:55Z","tX":503,"tY":319,"tags":{"addr:city":"Roslin","addr:postcode":"EH25 9PU","addr:street":"Chapel Loan","name":"Slatebarns Caravan Park","website":"https://www.slatebarnscaravanpark.co.uk/"}}}