{"17934748":{"location":[54.625382,-3.0301792],"ct":"GB","tp":"CS","ts":"2024-08-14T11:44:32Z","tX":503,"tY":325,"tags":{"fee":"yes","name":"Low Hollows","static_caravans":"no","tents":"yes"}},"36881221":{"location":[54.6325519,-2.9640655],"ct":"GB","tp":"CS","ts":"2025-05-11T10:27:56Z","tX":503,"tY":325,"tags":{"name":"Gill Head Farm","shower":"yes","tents":"yes","toilets":"yes","website":"https://www.gillheadfarm.co.uk/"}},"36881222":{"location":[54.6336559,-2.9618786],"ct":"GB","tp":"CR","ts":"2019-03-23T00:20:43Z","tX":503,"tY":325,"tags":{"addr:city":"Troutbeck","addr:housename":"Gill Head Farm","addr:postcode":"CA11 0ST","alt_name":"Ghyll Head Farm Caravan and Camping","fhrs:id":"307119","name":"Gill Head Farm Caravan and Camping","phone":"+44 17687 79652","website":"https://www.gillheadfarm.co.uk/"}},"96833152":{"location":[54.593251,-3.1144255],"ct":"GB","tp":"CS","ts":"2024-01-24T10:28:45Z","tX":503,"tY":325,"tags":{"addr:city":"Keswick","addr:postcode":"CA12 4TE","caravans":"yes","name":"Castlerigg Hall Caravan & Camping Park","phone":"+44 17687 74499","tents":"yes","website":"https://www.castlerigg.co.uk/"}},"96834497":{"location":[54.6089883,-3.0742841],"ct":"GB","tp":"CS","ts":"2019-03-23T00:19:02Z","tX":503,"tY":325,"tags":{"caravans":"yes","name":"Burns Farm Caravan Site","tents":"yes","website":"https://www.burns-farm.co.uk/"}},"126950975":{"location":[54.651137,-2.9213334],"ct":"GB","tp":"CR","ts":"2024-04-12T19:15:36Z","tX":503,"tY":325,"tags":{"addr:city":"Berrier","addr:postcode":"CA11 0XB","name":"Whitbarrow Hall","operator":"Hopkinsons","phone":"+44 1768 483456","website":"http://www.hopkinsons-caravanpark.co.uk/"}},"146982827":{"location":[54.5988392,-3.1454822],"ct":"GB","tp":"CR","ts":"2024-10-08T16:11:57Z","tX":503,"tY":325,"tags":{"access":"private","drinking_water":"yes","name":"Lakeside Holiday Park"}},"148625291":{"location":[54.6003824,-3.1502476],"ct":"GB","tp":"CR","ts":"2021-09-28T08:42:39Z","tX":503,"tY":325,"tags":{"name":"Keswick Camping and Caravanning Club Site","operator":"The Camping and Caravanning Club","website":"https://www.campingandcaravanningclub.co.uk/campsites/uk/cumbria/keswick/keswick-camping-and-caravanning-club-site"}},"166050821":{"location":[54.6179688,-2.8156521],"ct":"GB","tp":"CR","ts":"2017-01-24T13:07:24Z","tX":503,"tY":325,"tags":{"name":"Mill Moor Caravan Park"}},"166054261":{"location":[54.6134875,-2.8344094],"ct":"GB","tp":"CR","ts":"2022-11-14T11:10:20Z","tX":503,"tY":325,"tags":{"addr:city":"Ullswater","addr:postcode":"CA11 0LL","name":"Waterfoot Caravan Park","phone":"+44 17684 86302","website":"https://www.waterfootpark.co.uk/"}},"217349126":{"location":[54.6110224,-3.1395731],"ct":"GB","tp":"CR","ts":"2021-10-05T17:14:19Z","tX":503,"tY":325,"tags":{"addr:city":"Keswick","addr:postcode":"CA12 4PF","name":"Burnside Caravan Park","website":"https://www.burnsidepark.co.uk/"}},"295849947":{"location":[54.6747519,-2.8623746],"ct":"GB","tp":"CR","ts":"2019-03-23T00:22:18Z","tX":503,"tY":325,"tags":{"name":"Woodside","phone":"+44 17684 83253","website":"https://www.woodside-caravanpark.com/"}},"320484390":{"location":[54.7715336,-3.1237753],"ct":"GB","tp":"CR","ts":"2024-07-20T08:18:03Z","tX":503,"tY":325,"tags":{"addr:city":"Westward","addr:postcode":"CA7 8NQ","name":"Clea Hall Holiday Park","phone":"+44 16973 42880","website":"https://www.cleahall.co.uk/"}},"327783004":{"location":[54.6569978,-2.8445596],"ct":"GB","tp":"CR","ts":"2019-03-23T00:21:44Z","tX":503,"tY":325,"tags":{"addr:city":"Flusco","addr:postcode":"CA11 0JB","name":"Flusco Wood","phone":"+44 17684 80020","website":"https://www.fluscowood.co.uk/"}},"327942060":{"location":[54.6491678,-2.8140886],"ct":"GB","tp":"CR","ts":"2017-09-04T10:05:55Z","tX":503,"tY":325,"tags":{"addr:city":"Newbiggin","addr:postcode":"CA11 0HP","name":"Stonefold Cottages","phone":"+44 1768 866383","website":"http://www.stonefold.co.uk/"}},"327942064":{"location":[54.6628715,-2.8262601],"ct":"GB","tp":"CR","ts":"2017-09-04T10:05:55Z","tX":503,"tY":325,"tags":{"addr:postcode":"CA11 0HS","name":"Tymparon Hall","phone":"+44 1768 483236"}},"328534679":{"location":[54.6401611,-2.9045083],"ct":"GB","tp":"CR","ts":"2023-03-24T10:22:37Z","tX":503,"tY":325,"tags":{"addr:city":"Penruddock","addr:postcode":"CA11 0RX","name":"Beckses Caravan and Camping","phone":"+44 1768 483224"}},"328565406":{"location":[54.7065022,-2.9360044],"ct":"GB","tp":"CR","ts":"2020-03-05T21:29:28Z","tX":503,"tY":325,"tags":{"addr:city":"Greystoke","addr:postcode":"CA11 0XX","name":"Thanet Well Lodge Retreat","phone":"+44 1768 484262","website":"https://www.darwinescapes.co.uk/parks/thanet-well-lodge-retreat/"}},"328581387":{"location":[54.728249,-2.990226],"ct":"GB","tp":"CR","ts":"2024-04-04T15:30:57Z","tX":503,"tY":325,"tags":{"addr:city":"Millhouse","addr:housename":"Rose Garth","addr:postcode":"CA7 8HR","caravan_site":"motorhome_stopover","caravan_site:type":"countryside","children":"no","description":"adults only","name":"Riverside Touring Park","phone":"+44 16974 78571","sanitary_dump_station":"yes","seasonal":"no","shower":"yes","toilets":"yes","website":"https://www.riverside-tourer-park.com/"}},"328764578":{"location":[54.6127176,-3.0518552],"ct":"GB","tp":"CS","ts":"2025-05-11T10:27:56Z","tX":503,"tY":325,"tags":{"addr:city":"Threlkeld","addr:postcode":"CA12 4TT","caravans":"yes","motorhome":"yes","name":"Setmabanning Caravan Park","phone":"+44 17687 79229","tents":"yes","website":"https://www.setmabanningcaravanpark.co.uk"}},"328765855":{"location":[54.6343107,-2.9847539],"ct":"GB","tp":"CS","ts":"2023-03-24T09:46:21Z","tX":503,"tY":325,"tags":{"addr:city":"Troutbeck","addr:postcode":"CA11 0SX","name":"Troutbeck Camping and Caravanning","phone":"+44 1768 779149","website":"https://www.campingandcaravanningclub.co.uk/campsites/uk/cumbria/penrith/troutbeck"}},"332104101":{"location":[54.6017472,-2.8207393],"ct":"GB","tp":"CR","ts":"2024-07-27T18:40:13Z","tX":503,"tY":325,"tags":{"addr:city":"Pooley Bridge","addr:postcode":"CA10 2NA","addr:street":"Howtown Road","alt_name":"Park Foot","name":"Park Foot Holiday Park","phone":"+44 17684 86309","website":"https://www.parkfootullswater.co.uk/"}},"332104353":{"location":[54.6021183,-2.8253365],"ct":"GB","tp":"CS","ts":"2022-07-19T20:29:54Z","tX":503,"tY":325,"tags":{"name":"Park Foot Camping"}},"332104354":{"location":[54.6054003,-2.8230549],"ct":"GB","tp":"CS","ts":"2022-07-19T20:29:54Z","tX":503,"tY":325,"tags":{"name":"Park Foot Camping","operator":"Park Foot Holiday Park"}},"332106389":{"location":[54.6012082,-2.8320741],"ct":"GB","tp":"CS","ts":"2024-07-30T15:20:56Z","tX":503,"tY":325,"tags":{"addr:city":"Howtown","addr:housename":"Waterside House","addr:postcode":"CA10 2NA","name":"Waterside House Camp Site","phone":"+44 17684 86332","website":"https://www.watersidefarm-campsite.co.uk/"}},"332106759":{"location":[54.5937071,-2.8334954],"ct":"GB","tp":"CR","ts":"2022-07-19T18:43:10Z","tX":503,"tY":325,"tags":{"addr:city":"Cross Dormont","addr:postcode":"CA10 2NA","fixme":"Unclear whether this static caravan site is managed separately from camp site","name":"Cross Dormont Caravan Site","phone":"+44 17684 86537","website":"https://www.crossdormont.co.uk/"}},"332142522":{"location":[54.5888007,-2.8752523],"ct":"GB","tp":"CR","ts":"2017-09-04T10:06:05Z","tX":503,"tY":325,"tags":{"name":"Knotts Hill Lodge Park","phone":"+44 17684 86309","website":"http://www.knottshill.co.uk/"}},"332151019":{"location":[54.5998048,-2.8742969],"ct":"GB","tp":"CS","ts":"2022-09-11T17:48:43Z","tX":503,"tY":325,"tags":{"addr:city":"Watermillock","addr:postcode":"CA11 0LR","name":"Ullswater Holiday Park","phone":"+44 17684 86666","website":"https://ullswaterholidaypark.co.uk/"}},"332380894":{"location":[54.6051651,-2.8832403],"ct":"GB","tp":"CR","ts":"2021-05-25T08:34:23Z","tX":503,"tY":325,"tags":{"addr:city":"Ullswater","addr:postcode":"CA11 0LS","name":"The Quiet Site","phone":"+44 7768 727016","tents":"yes","website":"https://www.thequietsite.co.uk/"}},"332381712":{"location":[54.6161483,-2.9569367],"ct":"GB","tp":"CR","ts":"2019-03-23T00:20:31Z","tX":503,"tY":325,"tags":{"addr:city":"Troutbeck","addr:postcode":"CA11 0SS","fee":"yes","fhrs:id":"307112","internet_access":"no","internet_access:fee":"no","name":"Troutbeck Head (Caravan & Motorhome Club)","phone":"+44 1768 483521","power_supply":"yes","tents":"no","website":"https://www.caravanclub.co.uk/caravanclubapps/applications/uk-caravan-sites-and-parks/SiteDetails.aspx?csid=22006","wheelchair":"yes"}},"332389134":{"location":[54.5874134,-3.0907054],"ct":"GB","tp":"CR","ts":"2022-05-24T19:25:40Z","tX":503,"tY":325,"tags":{"addr:city":"Dale Bottom","addr:postcode":"CA12 4TF","name":"Dalebottom Farm Camping Site and Caravan Park","phone":"+44 17687 74713","website":"https://www.dalebottomfarm.co.uk/"}},"335753719":{"location":[54.5917568,-3.1100137],"ct":"GB","tp":"CR","ts":"2023-09-10T19:40:16Z","tX":503,"tY":325,"tags":{"addr:city":"Keswick","addr:postcode":"CA12 4TE","name":"Castlerigg Farm Camping and Caravan Site","toilets":"yes","website":"https://www.castleriggfarm.com/"}},"336048216":{"location":[54.6001343,-3.1460405],"ct":"GB","tp":"CR","ts":"2021-09-28T08:53:38Z","tX":503,"tY":325,"tags":{"addr:city":"Keswick","addr:street":"Crow Park Road","name":"Derwent Water Caravan Park"}},"365427093":{"location":[54.6033802,-2.882364],"ct":"GB","tp":"CR","ts":"2020-01-28T10:23:39Z","tX":503,"tY":325,"tags":{"addr:city":"Ullswater","addr:postcode":"CA11 0LS","name":"Cove Park","phone":"+44 1768 486549","website":"https://www.cove-park.co.uk/"}},"510147271":{"location":[54.5958757,-2.8357689],"ct":"GB","tp":"CS","ts":"2022-07-19T18:43:10Z","tX":503,"tY":325,"tags":{"addr:city":"Cross Dormont","addr:postcode":"CA10 2NA","name":"Cross Dormont Camp Site","phone":"+44 17684 86537","website":"https://www.crossdormont.co.uk/"}},"512867369":{"location":[54.6415195,-2.976039],"ct":"GB","tp":"CR","ts":"2017-08-04T13:32:12Z","tX":503,"tY":325,"tags":{}},"573076961":{"location":[54.6208927,-3.0388728],"ct":"GB","tp":"CR","ts":"2018-05-07T20:16:01Z","tX":503,"tY":325,"tags":{"name":"Threlkeld Hall Touring Site","service":"driveway"}},"828253152":{"location":[54.7629354,-3.0249375],"ct":"GB","tp":"CS","ts":"2022-09-06T20:35:18Z","tX":503,"tY":325,"tags":{"access":"customers","addr:city":"Welton","addr:housename":"Fell Hill Farm","addr:postcode":"CA5 7HH","group_only":"yes","name":"Fellhill Pods","operator":"Fellhill Pods"}},"973117040":{"location":[54.6620781,-2.8340824],"ct":"GB","tp":"CR","ts":"2021-08-14T16:21:14Z","tX":503,"tY":325,"tags":{"name":"Ullswater Heights","website":"https://leisureresorts.co.uk/parks/ullswater-heights/"}},"1082091985":{"location":[54.749849,-3.0468472],"ct":"GB","tp":"CS","ts":"2022-07-28T13:29:33Z","tX":503,"tY":325,"tags":{"name":"Caldbeck Camping","tents":"yes","website":"https://www.caldbeckcamping.co.uk/"}},"1433131038":{"location":[54.5919653,-3.1109818],"ct":"GB","tp":"CS","ts":"2023-09-10T19:40:09Z","tX":503,"tY":325,"tags":{"caravans":"yes","name":"Castlerigg Farm","tents":"yes"}},"1601789154":{"location":[54.5990066,-3.1435836],"ct":"GB","tp":"CR","ts":"2020-08-18T06:16:43Z","tX":503,"tY":325,"tags":{"name":"Derwentwater Oval / Walker Park","website":"https://www.campingandcaravanningclub.co.uk/campsites/uk/cumbria/keswick/derwentwater-camping-and-caravanning-club-site/"}},"5115454326":{"location":[54.762605,-3.0249349],"ct":"GB","tp":"CS","ts":"2019-04-01T21:49:22Z","tX":503,"tY":325,"tags":{"name":"Fellhill pods"}},"5153296735":{"location":[54.7377929,-3.0225643],"ct":"GB","tp":"CS","ts":"2017-10-07T10:38:56Z","tX":503,"tY":325,"tags":{"name":"Greenhill Camping"}}}