{"78441832":{"location":[54.3673607,-2.9231824],"ct":"GB","tp":"CR","ts":"2025-03-24T22:33:17Z","tX":503,"tY":327,"tags":{"addr:city":"Windermere","addr:country":"GB","addr:postcode":"LA23 3DL","addr:street":"Rayrigg Road","brand":"Parkdean Resorts","brand:wikidata":"Q7138226","fee":"yes","name":"Fallbarrow Holiday Park","operator":"Parkdean Resorts UK Limited","website":"https://www.parkdeanresorts.co.uk/location/lake-district/fallbarrow/"}},"121120132":{"location":[54.3472293,-3.0796835],"ct":"GB","tp":"CS","ts":"2024-07-16T18:10:14Z","tX":503,"tY":327,"tags":{"addr:postcode":"LA21 8AX","fee":"yes","name":"Hoathwaite Campsite","operator":"National Trust","source":"survey","source:geometry":"Bing"}},"177949907":{"location":[54.1795478,-3.0881689],"ct":"GB","tp":"CR","ts":"2021-10-08T14:17:50Z","tX":503,"tY":327,"tags":{"addr:city":"Ulverston","addr:postcode":"LA12 9QE","addr:street":"Priory Road","name":"Bardsea Leisure Park","phone":"+44 1229 584712","source":"Bing","website":"https://www.bardsealeisure.co.uk/"}},"303369613":{"location":[54.3519372,-3.0813726],"ct":"GB","tp":"CR","ts":"2024-07-15T18:43:10Z","tX":503,"tY":327,"tags":{"addr:city":"Coniston","addr:postcode":"LA21 8LA","fhrs:id":"299222","name":"Coniston Park Coppice Caravan Club Site","phone":"+44 1342 326 944","tents":"yes","website":"https://www.caravanclub.co.uk/club-sites/england/cumbria/cumbria/coniston-park-coppice-caravan-club-site/"}},"303374658":{"location":[54.3534162,-3.0739094],"ct":"GB","tp":"CS","ts":"2025-06-16T17:13:02Z","tX":503,"tY":327,"tags":{"addr:city":"Coniston","addr:postcode":"LA21 8AS","addr:street":"Haws Bank","name":"Coniston Hall Campsite","phone":"+44 1539 441223","website":"https://conistonhallcampsite.wordpress.com/contact-us/"}},"307827164":{"location":[54.182256,-2.8421162],"ct":"GB","tp":"CR","ts":"2018-10-16T17:19:55Z","tX":503,"tY":327,"tags":{"name":"Holgates Holiday Park: Hollins Farm"}},"320520574":{"location":[54.1691626,-2.9693933],"ct":"GB","tp":"CR","ts":"2016-03-31T07:58:46Z","tX":503,"tY":327,"tags":{"name":"Willow Tree Holiday Park"}},"320526156":{"location":[54.1766334,-2.9840614],"ct":"GB","tp":"CR","ts":"2015-01-05T15:28:29Z","tX":503,"tY":327,"tags":{}},"320527812":{"location":[54.2095502,-2.9799586],"ct":"GB","tp":"CR","ts":"2024-05-20T17:55:54Z","tX":503,"tY":327,"tags":{}},"320528173":{"location":[54.2380758,-3.0063405],"ct":"GB","tp":"CR","ts":"2022-05-24T19:16:41Z","tX":503,"tY":327,"tags":{"addr:city":"Haverthwaite","addr:postcode":"LA12 8PJ","name":"Bigland Hall Caravan Park","phone":"+44 15395 31702","website":"https://www.biglandhallcaravanpark.co.uk/"}},"407207848":{"location":[54.2619002,-2.8139181],"ct":"GB","tp":"CR","ts":"2023-08-23T05:54:04Z","tX":503,"tY":327,"tags":{"name":"Gilpin Bridge Caravan Park"}},"412465869":{"location":[54.2613726,-2.9622726],"ct":"GB","tp":"CR","ts":"2023-01-28T09:11:28Z","tX":503,"tY":327,"tags":{"addr:city":"Newby Bridge","addr:postcode":"LA12 8NF","name":"Newby Bridge Caravan Park","phone":"+44 15395 31030","website":"https://www.newbybridgecaravanpark.co.uk/"}},"412643997":{"location":[54.3039759,-2.9472569],"ct":"GB","tp":"CR","ts":"2023-07-23T07:54:41Z","tX":503,"tY":327,"tags":{"addr:city":"Windermere","addr:postcode":"LA12 8NR","name":"Hill Of Oaks","phone":"+44 15395 31578","website":"https://www.hillofoaks.co.uk/"}},"412648568":{"location":[54.2987554,-2.9475364],"ct":"GB","tp":"CR","ts":"2022-05-24T19:24:21Z","tX":503,"tY":327,"tags":{"addr:city":"Newby Bridge","addr:postcode":"LA12 8NR","name":"Avon Wood","operator":"Hoseasons","phone":"+44 844 847 1356","website":"https://www.avonwoodholidayhomepark.co.uk/"}},"412648570":{"location":[54.3103511,-2.9390373],"ct":"GB","tp":"CS","ts":"2024-03-09T15:57:42Z","tX":503,"tY":327,"tags":{"addr:city":"Windermere","addr:postcode":"LA23 3PG","addr:street":"Birks Road","area":"yes","name":"Park Cliffe","phone":"+44 15395 31344","website":"https://www.parkcliffe.co.uk/"}},"414101608":{"location":[54.1801137,-2.8483056],"ct":"GB","tp":"CR","ts":"2018-10-16T17:19:55Z","tX":503,"tY":327,"tags":{"name":"Holgates Holiday Park: Bay View"}},"414104080":{"location":[54.180107,-2.8327935],"ct":"GB","tp":"CR","ts":"2022-01-14T22:47:57Z","tX":503,"tY":327,"tags":{}},"414120756":{"location":[54.2163249,-2.8625467],"ct":"GB","tp":"CR","ts":"2024-07-28T13:41:22Z","tX":503,"tY":327,"tags":{"addr:city":"Meathop","addr:postcode":"LA11 6RB","fhrs:id":"299103","internet_access":"yes","internet_access:fee":"yes","name":"Meathop Fell Caravan Club Site","power_supply":"yes","sanitary_dump_station":"yes"}},"424759458":{"location":[54.3669793,-2.9987035],"ct":"GB","tp":"CR","ts":"2018-04-24T18:45:34Z","tX":503,"tY":327,"tags":{"name":"Lakes Lodges - Esthwaite View","phone":"+44 15394 36544","website":"http://www.lakeslodges.com/lodges_hawkshead.html"}},"429321011":{"location":[54.3563121,-2.9242746],"ct":"GB","tp":"CR","ts":"2024-10-08T16:12:26Z","tX":503,"tY":327,"tags":{"addr:city":"Bowness-on-Windermere","addr:postcode":"LA23 3HB","addr:street":"Glebe Road","drinking_water":"yes","fee":"yes","fhrs:id":"299093","name":"Braithwaite Fold","power_supply":"yes","sanitary_dump_station":"yes","toilets":"yes","website":"https://www.campingandcaravanningclub.co.uk/campsites/uk/cumbria/bownessonwindermere/braithwaitefold"}},"436371239":{"location":[54.3386921,-3.1009813],"ct":"GB","tp":"CR","ts":"2022-11-14T11:52:39Z","tX":503,"tY":327,"tags":{}},"436371244":{"location":[54.3357897,-3.1033093],"ct":"GB","tp":"CR","ts":"2016-08-09T10:12:57Z","tX":503,"tY":327,"tags":{"addr:city":"Torver","addr:postcode":"LA21 8BQ","area":"yes","name":"Shepherd's View Caravan Site","source":"survey","website":"http://www.browsideconiston.co.uk/caravan.html"}},"436569727":{"location":[54.1972342,-3.0205784],"ct":"GB","tp":"CR","ts":"2019-08-26T16:06:53Z","tX":503,"tY":327,"tags":{"addr:city":"Holker","addr:postcode":"LA11 7PP","fhrs:id":"298909","name":"Old Park Wood","phone":"+44 1539 558266","website":"https://www.oldparkwood.co.uk/"}},"459192698":{"location":[54.1901719,-2.8595942],"ct":"GB","tp":"CR","ts":"2019-03-22T23:58:23Z","tX":503,"tY":327,"tags":{"addr:city":"Arnside","addr:postcode":"LA5 0BN","addr:street":"New Barns Road","area":"yes","name":"New Barns Caravan Park","website":"https://www.newbarnscaravanpark.co.uk/index.html"}},"468742355":{"location":[54.3300064,-2.872854],"ct":"GB","tp":"CR","ts":"2022-02-13T17:30:16Z","tX":503,"tY":327,"tags":{"name":"Bulman Strads"}},"471108078":{"location":[54.3677352,-3.0734745],"ct":"GB","tp":"CR","ts":"2024-07-14T21:32:31Z","tX":503,"tY":327,"tags":{"addr:postcode":"LA21 8EW","fee":"yes","name":"Beckthwaite","opening_hours":"Sa-Su,PH","operator":"Caravan and Motorhome Club","picnic_area":"yes","surface":"asphalt","website":"https://www.caravanclub.co.uk/certificated-locations/england/cumbria/coniston/beckthwaite/"}},"471121884":{"location":[54.357247,-3.0744605],"ct":"GB","tp":"CR","ts":"2024-07-15T20:38:29Z","tX":503,"tY":327,"tags":{}},"474780683":{"location":[54.1764944,-2.835581],"ct":"GB","tp":"CR","ts":"2022-01-15T09:16:44Z","tX":503,"tY":327,"tags":{"name":"Holgates Holiday Park: Silverdale"}},"484440573":{"location":[54.2574737,-2.8825507],"ct":"GB","tp":"CS","ts":"2017-04-03T00:14:08Z","tX":503,"tY":327,"tags":{"name":"Moss Howe Farm campsite","source":"survey"}},"506755046":{"location":[54.3133339,-2.8880044],"ct":"GB","tp":"CR","ts":"2022-05-24T19:17:54Z","tX":503,"tY":327,"tags":{"name":"Lambhowe Caravan Park","website":"https://www.lambhowecaravanpark.co.uk/"}},"512360838":{"location":[54.2499713,-2.9354534],"ct":"GB","tp":"CR","ts":"2023-03-25T22:49:35Z","tX":503,"tY":327,"tags":{"addr:city":"Grange Over Sands","addr:postcode":"LA11 6JD","name":"Whitestone Caravan Park","phone":"+44 15395 31770","static_caravans":"only","website":"https://www.whitestonecaravan.co.uk"}},"518410380":{"location":[54.3163096,-3.0200241],"ct":"GB","tp":"CS","ts":"2025-05-25T10:30:22Z","tX":503,"tY":327,"tags":{"access":"customers","addr:city":"Ulverston","addr:housename":"Bowkerstead Farm","addr:place":"Satterthwaite","addr:postcode":"LA12 8LL","camp_site":"standard","caravans":"yes","drinking_water":"yes","email":"info@grizedale-camping.co.uk","fee":"yes","name":"Grizedale Camp Site","openfire":"yes","payment:cash":"yes","phone":"+4401229860208","shower":"yes","static_caravans":"no","tents":"yes","toilets":"yes","website":"http://www.grizedale-camping.co.uk"}},"665106170":{"location":[54.3624034,-2.9954743],"ct":"GB","tp":"CS","ts":"2019-01-21T16:11:01Z","tX":503,"tY":327,"tags":{"addr:city":"Hawkshead","addr:postcode":"LA22 0QD","fee":"yes","name":"YHA Hawkshead camp site","operator":"YHA"}},"672990017":{"location":[54.3155005,-2.9322785],"ct":"GB","tp":"CS","ts":"2023-07-31T15:41:16Z","tX":503,"tY":327,"tags":{"access":"private","addr:city":"Windermere","addr:postcode":"LA23 3PQ","addr:street":"Birks Road","drinking_water":"yes","fhrs:id":"299996","name":"Great Tower Scout Activity Centre","operator":"WOSM","power_supply":"yes","shower":"yes","toilets":"yes","website":"https://www.scoutactivitycentres.org.uk/locations/greattower/"}},"739076515":{"location":[54.2456493,-2.937893],"ct":"GB","tp":"CR","ts":"2019-10-27T12:42:31Z","tX":503,"tY":327,"tags":{"addr:city":"Ayside","addr:postcode":"LA11 6JA","name":"Oak Head Caravan Park","website":"http://www.oakheadcaravanpark.co.uk/"}},"979129257":{"location":[54.2778324,-3.1365645],"ct":"GB","tp":"CR","ts":"2012-05-05T20:12:19Z","tX":503,"tY":327,"tags":{"name":"Birch Bank"}},"991721791":{"location":[54.1639522,-3.0623562],"ct":"GB","tp":"CR","ts":"2021-10-10T16:26:58Z","tX":503,"tY":327,"tags":{"caravan_site":"storage"}},"1013868019":{"location":[54.2629902,-3.0215034],"ct":"GB","tp":"CR","ts":"2010-11-30T19:49:27Z","tX":503,"tY":327,"tags":{"name":"Black Beck Caravan Park"}},"1069633939":{"location":[54.2664947,-3.1008097],"ct":"GB","tp":"CR","ts":"2022-06-24T22:41:50Z","tX":503,"tY":327,"tags":{}},"1149138399":{"location":[54.2489194,-2.8159994],"ct":"GB","tp":"CR","ts":"2023-02-24T12:56:06Z","tX":503,"tY":327,"tags":{}},"1149210388":{"location":[54.3220953,-2.8187745],"ct":"GB","tp":"CR","ts":"2023-02-24T17:02:01Z","tX":503,"tY":327,"tags":{}},"1158822745":{"location":[54.1917034,-2.934163],"ct":"GB","tp":"CR","ts":"2023-03-31T21:06:14Z","tX":503,"tY":327,"tags":{}},"1191358680":{"location":[54.3314833,-2.9528066],"ct":"GB","tp":"CS","ts":"2023-07-22T08:16:45Z","tX":503,"tY":327,"tags":{"name":"Glaythwaite Glamping","website":"https://graythwaite.com/holidays-at-graythwaite/glamping/"}},"1191545120":{"location":[54.2941213,-2.9584454],"ct":"GB","tp":"CS","ts":"2023-07-23T07:32:51Z","tX":503,"tY":327,"tags":{}},"1300343062":{"location":[54.1751565,-2.8365772],"ct":"GB","tp":"CR","ts":"2024-07-09T19:50:31Z","tX":503,"tY":327,"tags":{"addr:postcode":"LA5 0SJ","caravans":"no","motorhome":"no","static_caravans":"only","tents":"no"}},"1390022626":{"location":[54.2319406,-2.9373951],"ct":"GB","tp":"CR","ts":"2025-05-27T10:27:59Z","tX":503,"tY":327,"tags":{}},"1447472168":{"location":[54.1860826,-2.9235432],"ct":"GB","tp":"CS","ts":"2011-09-27T21:41:26Z","tX":503,"tY":327,"tags":{"name":"Low Fell Gate Caravan Park","tents":"yes"}},"1542905836":{"location":[54.3024021,-2.9493921],"ct":"GB","tp":"CR","ts":"2011-12-12T17:54:53Z","tX":503,"tY":327,"tags":{"name":"Hill of Oaks"}},"4719818089":{"location":[54.365265,-3.0635397],"ct":"GB","tp":"CS","ts":"2021-04-12T21:30:28Z","tX":503,"tY":327,"tags":{"name":"Pier Cottage Caravan Park"}},"5066713243":{"location":[54.2773366,-3.136956],"ct":"GB","tp":"CS","ts":"2017-08-29T14:05:07Z","tX":503,"tY":327,"tags":{"name":"Birch Bank Campsite"}},"5398612978":{"location":[54.2760799,-2.9486366],"ct":"GB","tp":"CS","ts":"2018-02-08T15:48:09Z","tX":503,"tY":327,"tags":{"addr:city":"Newby Bridge","addr:place":"Fell Foot Wood","addr:postcode":"LA12 8NN","fhrs:id":"300039","name":"Fell Foot Wood Campsite","phone":"+44 15395 31014","website":"http://www.fellfootwood.co.uk/index.htm"}},"8851300990":{"location":[54.3052728,-2.9000465],"ct":"GB","tp":"CS","ts":"2021-06-20T20:19:48Z","tX":503,"tY":327,"tags":{"camp_site":"basic","capacity":"5","fee":"no","name":"Borderside Farm","website":"https://www.campingandcaravanningclub.co.uk/campsites/uk/cumbria/kendal/bordersidefarm/"}},"9422154009":{"location":[54.1808528,-2.8341796],"ct":"GB","tp":"SD","ts":"2022-01-16T09:42:47Z","tX":503,"tY":327,"tags":{"access":"customers","fee":"no","water_point":"yes"}}}