{"23713667":{"location":[54.0635118,-2.8629466],"ct":"GB","tp":"CR","ts":"2025-01-05T19:30:50Z","tX":503,"tY":328,"tags":{"addr:city":"Morecambe","addr:postcode":"LA4 4TQ","addr:street":"Langridge Way","area":"yes","caravans":"yes","fee":"yes","name":"Venture Caravan Park","phone":"+44 1524 412986","power_supply":"yes","static_caravans":"yes","tents":"no","website":"https://www.venturecaravanpark.co.uk/"}},"23713922":{"location":[54.0589384,-2.8666304],"ct":"GB","tp":"CR","ts":"2024-04-20T17:04:56Z","tX":503,"tY":328,"tags":{"addr:city":"Morecambe","addr:postcode":"LA3 3DE","addr:street":"Westgate","fee":"yes","name":"Westgate Caravan Park","phone":"+44 1524 411448","website":"https://www.westgatecaravanpark.co.uk"}},"23713924":{"location":[54.0593808,-2.8720847],"ct":"GB","tp":"CR","ts":"2022-02-11T15:08:51Z","tX":503,"tY":328,"tags":{"addr:city":"Morecambe","addr:country":"GB","addr:postcode":"LA3 3DF","addr:street":"Westgate","brand":"Parkdean Resorts","brand:wikidata":"Q7138226","name":"Regent Bay Holiday Park","operator":"Parkdean Resorts UK Limited","phone":"+44 843 309 2546","website":"https://www.parkdeanresorts.co.uk/location/lancashire/regent-bay/"}},"24322679":{"location":[54.0218662,-2.9050829],"ct":"GB","tp":"CR","ts":"2024-07-14T22:59:28Z","tX":503,"tY":328,"tags":{"addr:city":"Heysham","addr:country":"GB","addr:postcode":"LA3 2XA","brand":"Parkdean Resorts","brand:wikidata":"Q7138226","brand:wikipedia":"en:Parkdean Resorts","contact:website":"https://www.parkdeanresorts.co.uk/location/lancashire/ocean-edge/","name":"Ocean Edge Holiday Park","operator":"Parkdean Resorts UK Limited"}},"100533002":{"location":[54.0589377,-2.8639797],"ct":"GB","tp":"CR","ts":"2024-04-20T17:04:56Z","tX":503,"tY":328,"tags":{"addr:city":"Morecambe","addr:postcode":"LA3 3EL","addr:street":"Westgate","fee":"yes","name":"Glen Caravan Park","phone":"+44 1524 423896","website":"http://glencaravans.mwanet.com/"}},"126100509":{"location":[54.0157225,-2.8919699],"ct":"GB","tp":"CR","ts":"2023-03-26T21:07:04Z","tX":503,"tY":328,"tags":{"caravans":"no","email":"admin@middletonholidaypark.co.uk","phone":"+44 1524 851915","static_caravans":"only","tents":"no","website":"https://www.middletonholidaypark.co.uk/"}},"157057177":{"location":[53.9953654,-2.8348531],"ct":"GB","tp":"CR","ts":"2022-11-01T17:12:06Z","tX":503,"tY":328,"tags":{"addr:postcode":"LA2 0BP","name":"Glasson Marina Holiday Park","source":"visual survey;bing","website":"https://www.park-resorts.com/holiday-parks/north-west/glasson-marina/"}},"178409254":{"location":[54.0083436,-2.893779],"ct":"GB","tp":"CR","ts":"2024-07-16T20:05:40Z","tX":503,"tY":328,"tags":{"name":"Hawthorn Sands","phone":"+44 1524 852074","website":"https://hill-brothers.com/"}},"178409335":{"location":[54.0103779,-2.8981468],"ct":"GB","tp":"CR","ts":"2024-06-30T11:41:16Z","tX":503,"tY":328,"tags":{"name":"Shorefields"}},"179426999":{"location":[54.0477758,-2.8432411],"ct":"GB","tp":"CR","ts":"2024-04-04T21:02:14Z","tX":503,"tY":328,"tags":{"name":"Riverside Holiday Park","operator":"Hill Brothers","website":"https://hill-brothers.com/parks/riverside/"}},"179602242":{"location":[54.0175191,-2.8928945],"ct":"GB","tp":"CS","ts":"2016-08-16T12:28:35Z","tX":503,"tY":328,"tags":{}},"179608638":{"location":[54.053646,-2.8392063],"ct":"GB","tp":"CR","ts":"2022-08-30T23:05:05Z","tX":503,"tY":328,"tags":{"name":"Mellishaw Park Traveler Site","operator":"Lancaster City Council"}},"179652751":{"location":[54.0184783,-2.8902073],"ct":"GB","tp":"CS","ts":"2023-03-26T21:07:04Z","tX":503,"tY":328,"tags":{"name":"Melbreak Caravan Park","phone":"+44 1524 852430"}},"179652752":{"location":[54.0169711,-2.8882939],"ct":"GB","tp":"CR","ts":"2023-03-26T21:07:04Z","tX":503,"tY":328,"tags":{"name":"Greendales Farm Caravan Park","old_name":"Bowland View Caravan Park","static_caravans":"only","website":"https://greendalesfarm.co.uk/"}},"179668381":{"location":[53.9922022,-2.8544818],"ct":"GB","tp":"CR","ts":"2021-10-13T15:52:58Z","tX":503,"tY":328,"tags":{}},"179669982":{"location":[53.969185,-2.8524035],"ct":"GB","tp":"CR","ts":"2021-10-07T08:20:17Z","tX":503,"tY":328,"tags":{}},"179669988":{"location":[53.9705283,-2.8648527],"ct":"GB","tp":"CR","ts":"2019-03-09T18:36:39Z","tX":503,"tY":328,"tags":{"name":"Cockerham Sands Country Park"}},"179670002":{"location":[53.9707917,-2.86862],"ct":"GB","tp":"CR","ts":"2019-03-09T18:36:38Z","tX":503,"tY":328,"tags":{}},"179671915":{"location":[53.9679086,-2.8559196],"ct":"GB","tp":"CR","ts":"2021-10-07T08:20:17Z","tX":503,"tY":328,"tags":{}},"367250214":{"location":[54.0945506,-2.8134702],"ct":"GB","tp":"CR","ts":"2025-01-12T15:30:11Z","tX":503,"tY":328,"tags":{"addr:city":"Hest Bank","addr:postcode":"LA2 6HW","addr:street":"The Shore","fee":"yes"}},"384593707":{"location":[54.0956628,-3.1472346],"ct":"GB","tp":"CR","ts":"2022-04-16T15:22:57Z","tX":503,"tY":328,"tags":{"name":"White Hall Caravan Park Ltd"}},"384593709":{"location":[54.099367,-3.1432731],"ct":"GB","tp":"CR","ts":"2022-04-12T16:40:42Z","tX":503,"tY":328,"tags":{"name":"Meadowlands Caravan Park"}},"384593713":{"location":[54.0996888,-3.1413369],"ct":"GB","tp":"CR","ts":"2015-12-05T22:46:08Z","tX":503,"tY":328,"tags":{}},"395256480":{"location":[54.0572232,-2.8672373],"ct":"GB","tp":"CS","ts":"2023-03-23T11:43:16Z","tX":503,"tY":328,"tags":{"addr:city":"Morecambe","addr:street":"Oxcliffe Road","name":"Sunnyside Camping & Caravan Site"}},"395263423":{"location":[54.0588045,-2.8686793],"ct":"GB","tp":"CR","ts":"2020-06-29T14:48:06Z","tX":503,"tY":328,"tags":{"addr:city":"Morecambe","addr:street":"Westcliffe Drive","name":"Westcliffe Caravan Park"}},"406727315":{"location":[54.1566533,-2.9614335],"ct":"GB","tp":"CR","ts":"2024-03-14T20:49:05Z","tX":503,"tY":328,"tags":{"addr:city":"Flookburgh","addr:postcode":"LA11 7LT","addr:street":"Moor Lane","name":"Lakeland Leisure Park","operator":"Haven","website":"https://www.haven.com/parks/lake-district/lakeland"}},"412445046":{"location":[54.1165958,-3.1140111],"ct":"GB","tp":"CR","ts":"2022-05-24T19:34:30Z","tX":503,"tY":328,"tags":{"addr:city":"Newbiggin","addr:postcode":"LA12 0RJ","name":"Seacroft Caravan Park","phone":"+44 1539 823659","website":"https://www.seacroftpark.co.uk/"}},"412445056":{"location":[54.1146698,-3.1227282],"ct":"GB","tp":"CR","ts":"2022-01-05T23:06:45Z","tX":503,"tY":328,"tags":{"addr:city":"Newbiggin","name":"High Farm Holiday Site"}},"554692693":{"location":[54.1603247,-2.8282285],"ct":"GB","tp":"CR","ts":"2024-05-08T22:11:17Z","tX":503,"tY":328,"tags":{"addr:city":"Silverdale","addr:postcode":"LA5 0UA","drinking_water":"yes","fee":"yes","name":"Gibraltar Farm"}},"689652805":{"location":[54.0700811,-2.8128027],"ct":"GB","tp":"CR","ts":"2019-05-13T12:44:40Z","tX":503,"tY":328,"tags":{}},"689756519":{"location":[54.0049662,-2.8259562],"ct":"GB","tp":"CR","ts":"2024-06-24T03:27:09Z","tX":503,"tY":328,"tags":{"name":"Ashton Hall Caravan Park","website":"https://ashtonhallcaravanpark.co.uk/"}},"706229497":{"location":[54.0516394,-2.8777995],"ct":"GB","tp":"CR","ts":"2022-09-30T12:41:16Z","tX":503,"tY":328,"tags":{}},"856409042":{"location":[54.0509098,-2.8815256],"ct":"GB","tp":"CR","ts":"2020-10-07T13:54:54Z","tX":503,"tY":328,"tags":{}},"1009553578":{"location":[54.0023393,-2.821218],"ct":"GB","tp":"CS","ts":"2021-12-06T09:37:16Z","tX":503,"tY":328,"tags":{}},"1009553579":{"location":[54.0017877,-2.8214748],"ct":"GB","tp":"CS","ts":"2021-12-06T09:37:16Z","tX":503,"tY":328,"tags":{}},"1013416544":{"location":[54.1236047,-3.1139842],"ct":"GB","tp":"CR","ts":"2022-01-02T14:23:53Z","tX":503,"tY":328,"tags":{"name":"Doe Wood Lodges"}},"1101759180":{"location":[54.0551255,-2.8494249],"ct":"GB","tp":"CR","ts":"2023-08-03T15:18:04Z","tX":503,"tY":328,"tags":{}},"1167975104":{"location":[54.1605426,-2.8296667],"ct":"GB","tp":"CS","ts":"2023-05-02T14:13:28Z","tX":503,"tY":328,"tags":{"addr:city":"Silverdale","addr:housename":"Jenny Brown's Point","addr:postcode":"LA5 0UA","caravans":"yes","name":"Gibraltar Farm","tents":"yes","website":"http://gibfarm.weebly.com/"}}}