{"55740795":{"location":[52.9295873,-3.0674259],"ct":"GB","tp":"CR","ts":"2022-08-11T07:44:14Z","tX":503,"tY":333,"tags":{}},"139749003":{"location":[52.9739646,-3.1581897],"ct":"GB","tp":"CS","ts":"2024-07-17T05:53:00Z","tX":503,"tY":333,"tags":{"addr:city":"LLangollen","addr:country":"GB","addr:postcode":"LL20 8DU","addr:street":"Wern Road","caravans":"yes","email":"info@wernisaf.co.uk","motorhome_stopover":"yes","name":"Wern Isaf Campsite","permanent_camping":"yes","phone":"+44 1978 860632","static_caravans":"yes","tents":"yes","website":"www.wernisaf.co.uk/"}},"267404848":{"location":[53.0989749,-2.8994582],"ct":"GB","tp":"CR","ts":"2008-05-29T20:56:49Z","tX":503,"tY":333,"tags":{"created_by":"JOSM"}},"460389201":{"location":[53.0979632,-2.9936858],"ct":"GB","tp":"SD","ts":"2016-12-18T19:35:52Z","tX":503,"tY":333,"tags":{}},"460389218":{"location":[53.0975205,-2.994252],"ct":"GB","tp":"CR","ts":"2022-12-22T21:42:18Z","tX":503,"tY":333,"tags":{}},"513701010":{"location":[52.9506977,-3.0463546],"ct":"GB","tp":"CR","ts":"2024-05-27T20:10:13Z","tX":503,"tY":333,"tags":{}},"523085231":{"location":[53.1045654,-2.9248202],"ct":"GB","tp":"CS","ts":"2017-09-09T22:16:05Z","tX":503,"tY":333,"tags":{}},"526184659":{"location":[52.9252515,-3.0432919],"ct":"GB","tp":"CR","ts":"2024-07-15T08:58:49Z","tX":503,"tY":333,"tags":{"caravans":"yes","fee":"yes","motorhome_stopover":"yes","name":"Foxtails","permanent_camping":"no","power_supply":"yes","sanitary_dump_station":"yes","static_caravans":"no","tents":"no"}},"576272447":{"location":[53.0543424,-2.9391059],"ct":"GB","tp":"CS","ts":"2022-02-13T12:45:18Z","tX":503,"tY":333,"tags":{}},"607495540":{"location":[53.0879271,-2.8324631],"ct":"GB","tp":"CS","ts":"2018-07-12T21:28:41Z","tX":503,"tY":333,"tags":{"name":"Manor Wood Country Caravan Park"}},"652417255":{"location":[52.999576,-2.9009836],"ct":"GB","tp":"CR","ts":"2024-04-03T14:10:49Z","tX":503,"tY":333,"tags":{"addr:city":"Bangor on Dee","addr:postcode":"LL13 0BD","addr:street":"Whitchurch Road","capacity":"15","charge":"15 GBP","dog":"yes","fee":"yes","motorhome":"yes","name":"Bank Farm Caravan Park","power_supply":"yes","power_supply:fee":"no","sanitary_dump_station":"yes","surface":"grass","tents":"yes","toilets":"yes","website":"https://www.caravancampingsites.co.uk/denbighshire/bankfarm/bankfarm.html"}},"736552957":{"location":[52.9425394,-2.9267304],"ct":"GB","tp":"CR","ts":"2021-12-24T17:48:41Z","tX":503,"tY":333,"tags":{"name":"The Trotting Mare Caravan Park"}},"758106513":{"location":[52.9823147,-3.1552025],"ct":"GB","tp":"CS","ts":"2019-12-23T13:05:14Z","tX":503,"tY":333,"tags":{"caravans":"no","landuse":"grass","name":"Tan Y Castell","tents":"yes"}},"801905938":{"location":[52.9569731,-2.90347],"ct":"GB","tp":"CR","ts":"2025-04-17T18:59:04Z","tX":503,"tY":333,"tags":{"drinking_water":"yes","fee":"yes","name":"Rosedale Caravan Park","power_supply":"yes","sanitary_dump_station":"yes","toilets":"yes"}},"1100565706":{"location":[52.9187076,-2.8227508],"ct":"GB","tp":"CS","ts":"2024-06-15T16:12:23Z","tX":503,"tY":333,"tags":{"meadow":"pasture"}},"1135939424":{"location":[52.9254903,-2.9352911],"ct":"GB","tp":"CR","ts":"2023-01-28T15:13:26Z","tX":503,"tY":333,"tags":{"name":"Gadlas Park Holiday Cabins"}},"1184048476":{"location":[53.003714,-2.9715668],"ct":"GB","tp":"CR","ts":"2024-05-25T10:18:41Z","tX":503,"tY":333,"tags":{"addr:city":"Wrexham","addr:hamlet":"Eyton","addr:place":"The Plassey","addr:postcode":"LL13 0SP","alt_name":"Plassey Leisure Park","alt_name:cy":"Parc Hamdden Plassey;Park Gwyliau Plassey;Plassey Leisure Park","alt_name:en":"Plassey Leisure Park","cabins":"yes","caravans":"yes","fee":"yes","leisure":"resort","name":"Plassey Holiday Park","name:cy":"Parc Gwyliau Plassey","name:en":"Plassey Holiday Park","resort":"resort","short_name":"The Plassey","short_name:cy":"Y Plassey","short_name:en":"The Plassey","source:area":"website map","website":"https://plassey.com"}},"10685815330":{"location":[52.971421,-3.1488088],"ct":"GB","tp":"CS","ts":"2023-02-22T13:17:11Z","tX":503,"tY":333,"tags":{"addr:city":"Llangollen","addr:postcode":"LL20 7UH","caravans":"yes","name":"Llandyn Holiday Park","tents":"yes"}}}