{"7588062":{"location":[52.9015819,-2.9163458],"ct":"GB","tp":"CR","ts":"2023-04-10T22:08:24Z","tX":503,"tY":334,"tags":{"addr:city":"Ellesmere","addr:housename":"No. 2 Old Newnes Cottage","addr:unit":"SY12 9HH","email":"info@thenewnes.co.uk","name":"Newnes Touring Caravan Park","note":"Adults only","phone":"+44 7941 602331; +44 7972 066291","website":"https://www.thenewnes.co.uk/"}},"11379441":{"location":[52.7506099,-2.9995447],"ct":"GB","tp":"CS","ts":"2020-08-04T07:47:18Z","tX":503,"tY":334,"tags":{"name":"Big Bear Lodge"}},"13848425":{"location":[52.7024666,-3.0434735],"ct":"GB","tp":"CR","ts":"2024-04-03T14:10:49Z","tX":503,"tY":334,"tags":{"addr:city":"Middletown","addr:postcode":"SY21 8EJ","name":"Bank Farm Caravan Park Welshpool","shower":"yes","tents":"yes","toilets":"yes","website":"https://www.bankfarmcaravans.co.uk/"}},"219269220":{"location":[52.7839841,-3.1182285],"ct":"GB","tp":"CR","ts":"2013-04-28T16:29:03Z","tX":503,"tY":334,"tags":{"name":"Tanat Caravan Park"}},"219269301":{"location":[52.7778179,-3.1352741],"ct":"GB","tp":"CR","ts":"2013-04-28T16:29:09Z","tX":503,"tY":334,"tags":{"name":"Byn-Vyrnwy Caravan Park"}},"315434771":{"location":[52.7508327,-2.9612359],"ct":"GB","tp":"CR","ts":"2018-12-02T12:39:17Z","tX":503,"tY":334,"tags":{"addr:city":"Edgerley","addr:postcode":"SY10 8ES","name":"Royal Hill Campsite","phone":"+44 7968 656724"}},"336442187":{"location":[52.7715403,-2.9821042],"ct":"GB","tp":"CR","ts":"2015-04-12T09:45:10Z","tX":503,"tY":334,"tags":{"name":"Brookside Mobile Home Park"}},"337762299":{"location":[52.7434073,-2.9903955],"ct":"GB","tp":"CR","ts":"2015-04-10T08:12:30Z","tX":503,"tY":334,"tags":{"name":"Church House Caravan & Camping Site"}},"386347652":{"location":[52.7830445,-2.9412155],"ct":"GB","tp":"CR","ts":"2024-03-12T21:44:19Z","tX":503,"tY":334,"tags":{"addr:city":"Oswestry","addr:country":"GB","addr:postcode":"SY10 8DY","addr:street":"Knockin Heath","capacity:caravans":"60","caravans":"yes","fhrs:authority":"Shropshire","fhrs:id":"1413401","fhrs:local_authority_id":"21/00353/COMM","internet_access":"wlan","internet_access:fee":"customers","name":"Cranbery Moss Caravan Park","power_supply":"yes","tents":"yes","website":"https://cranberrymosscaravanpark.co.uk/"}},"399436040":{"location":[52.9000283,-2.8177604],"ct":"GB","tp":"CR","ts":"2023-02-03T18:14:55Z","tX":503,"tY":334,"tags":{"name":"Fernwood Caravan Park"}},"437807809":{"location":[52.7332781,-2.8401198],"ct":"GB","tp":"CS","ts":"2023-06-12T17:38:03Z","tX":503,"tY":334,"tags":{"addr:postcode":"SY4 1ED","name":"Severn House Camp Site","website":"http://www.severnhousecampsite.co.uk"}},"437807811":{"location":[52.7310781,-2.8425144],"ct":"GB","tp":"CS","ts":"2023-06-12T17:38:03Z","tX":503,"tY":334,"tags":{"addr:city":"Shrewsbury","addr:postcode":"SY4 1EB","addr:street":"Holyhead Road","name":"The Wingfield Caravan Park","phone":"+44 7853 934379","website":"https://www.thewingfieldcaravanpark.co.uk/"}},"491884048":{"location":[52.768459,-3.1302447],"ct":"GB","tp":"CR","ts":"2017-05-07T10:38:06Z","tX":503,"tY":334,"tags":{}},"491884049":{"location":[52.7658091,-3.1226854],"ct":"GB","tp":"CR","ts":"2023-01-25T11:53:57Z","tX":503,"tY":334,"tags":{"name":"Woodside Holiday Park"}},"491884050":{"location":[52.7679697,-3.1169619],"ct":"GB","tp":"CR","ts":"2023-01-25T11:21:35Z","tX":503,"tY":334,"tags":{}},"734630120":{"location":[52.6973092,-2.8663561],"ct":"GB","tp":"CR","ts":"2024-05-26T20:05:56Z","tX":503,"tY":334,"tags":{"name":"Cartref Caravan and Camping"}},"833783043":{"location":[52.7339236,-2.994434],"ct":"GB","tp":"CS","ts":"2024-07-17T09:07:38Z","tX":503,"tY":334,"tags":{"caravans":"yes"}},"846431857":{"location":[52.8431954,-3.0470538],"ct":"GB","tp":"CR","ts":"2020-11-27T22:40:40Z","tX":503,"tY":334,"tags":{}},"856797020":{"location":[52.8643501,-3.1041209],"ct":"GB","tp":"CR","ts":"2020-10-08T13:24:52Z","tX":503,"tY":334,"tags":{}},"857830691":{"location":[52.8282649,-3.0311331],"ct":"GB","tp":"CR","ts":"2023-01-17T10:35:24Z","tX":503,"tY":334,"tags":{"capacity":"18","internet_access":"no","name":"Fairhaven Camping And Glamping","power_supply":"no","sanitary_dump_station":"yes"}},"955123639":{"location":[52.7953334,-2.9155061],"ct":"GB","tp":"CR","ts":"2021-06-16T21:18:07Z","tX":503,"tY":334,"tags":{"addr:city":"Ruyton Xi Towns","addr:housename":"Barncroft Caravans","addr:postcode":"SY4 1JD","addr:street":"Olden Lane","name":"Barncroft Caravan Touring Site","website":"https://www.shropshirecaravansites.co.uk/"}},"993395318":{"location":[52.7278573,-3.1066244],"ct":"GB","tp":"CR","ts":"2023-05-19T16:37:01Z","tX":503,"tY":334,"tags":{"name":"The Vine Touring Park"}},"1137656847":{"location":[52.9054124,-2.8198882],"ct":"GB","tp":"CS","ts":"2023-02-03T18:14:55Z","tX":503,"tY":334,"tags":{"name":"Hampton Bank Farm Campsite"}},"1178638071":{"location":[52.6964797,-2.9638745],"ct":"GB","tp":"CR","ts":"2023-06-08T11:09:00Z","tX":503,"tY":334,"tags":{"name":"Wigmore Lakes"}},"1183767714":{"location":[52.8116014,-2.827898],"ct":"GB","tp":"CS","ts":"2023-06-20T20:43:21Z","tX":503,"tY":334,"tags":{}},"1826418505":{"location":[52.8823103,-3.0416116],"ct":"GB","tp":"CR","ts":"2012-07-15T14:05:53Z","tX":503,"tY":334,"tags":{"name":"Pentreclawdd Caravan Park","source":"survey"}},"9842334534":{"location":[52.7659026,-3.0027701],"ct":"GB","tp":"CS","ts":"2022-06-23T18:39:59Z","tX":503,"tY":334,"tags":{"addr:city":"Shropshire","addr:housename":"Crosslanes","addr:postcode":"SY10 8PB","addr:street":"Melverley","name":"Crosslanes Campsite"}},"9920641717":{"location":[52.7451328,-2.9477424],"ct":"GB","tp":"CS","ts":"2022-07-30T09:37:44Z","tX":503,"tY":334,"tags":{}},"11835137170":{"location":[52.732663,-2.995332],"ct":"GB","tp":"CS","ts":"2024-04-21T15:10:13Z","tX":503,"tY":334,"tags":{"contact:instagram":"BROOK_HOUSE_FARM","name":"Brook House Farm","phone":"+44 1743 884024","website":"https://brookhousefarmonli.wixsite.com/brookhousefarm"}},"8263939378":{"location":[52.9022141,-2.8925938],"ct":"GB","tp":"SD","ts":"2020-12-27T13:16:46Z","tX":503,"tY":334,"tags":{"access":"customers","centralkey":"crt_watermate","name":"Ellesmere Elsan Point","operator":"Canal and River Trust","sanitary_dump_station":"yes","sanitary_dump_station:accepted":"black_water","sanitary_dump_station:basin":"yes","sanitary_dump_station:pump-out":"no","waste":"toilet","waterway":"sanitary_dump_station"}},"8522389774":{"location":[52.8182766,-3.0201238],"ct":"GB","tp":"SD","ts":"2021-03-15T21:43:05Z","tX":503,"tY":334,"tags":{"access":"customers","centralkey":"crt_watermate","name":"Maesbury Elsan Point","operator":"Canal and River Trust","sanitary_dump_station":"yes","sanitary_dump_station:accepted":"black_water","sanitary_dump_station:basin":"yes","sanitary_dump_station:pump-out":"yes","waste":"toilet","waterway":"sanitary_dump_station"}},"8522389782":{"location":[52.8734779,-2.938056],"ct":"GB","tp":"SD","ts":"2021-03-15T21:43:05Z","tX":503,"tY":334,"tags":{"access":"customers","centralkey":"crt_watermate","name":"Weston Arm Elsan Point","operator":"Canal and River Trust","sanitary_dump_station":"yes","sanitary_dump_station:accepted":"black_water","sanitary_dump_station:basin":"yes","sanitary_dump_station:pump-out":"yes","waste":"toilet","waterway":"sanitary_dump_station"}}}