{"116935019":{"location":[51.8329133,-3.0659991],"ct":"GB","tp":"CR","ts":"2022-10-24T08:02:16Z","tX":503,"tY":339,"tags":{"name":"Pyscodlyn Camping and Caravan Site","source":"Bing;survey"}},"157866220":{"location":[51.8329133,-3.0659991],"ct":"GB","tp":"CS","ts":"2022-10-24T08:02:16Z","tX":503,"tY":339,"tags":{"name":"Pyscodlyn Camping and Caravan Site"}},"417002051":{"location":[51.63523,-3.1122533],"ct":"GB","tp":"CS","ts":"2009-11-26T14:51:28Z","tX":503,"tY":339,"tags":{"name":"Cwmcarn Forest Drive Campsite"}},"626280890":{"location":[51.7477835,-2.9452901],"ct":"GB","tp":"CS","ts":"2023-06-18T14:36:54Z","tX":503,"tY":339,"tags":{"access":"customers","addr:city":"Usk","addr:postcode":"NP7 9DS","addr:suburb":"Kemeys Commander","backcountry":"no","caravans":"yes","dog":"yes","drinking_water":"yes","fee":"yes","name":"Pont Kemys Caravan & Camping Park","nudism":"no","opening_hours":"Jan 01-Apr 30 off; Mar 01-Oct 31 Mo-Su 24/7; Nov 01-Dec 31 off","phone":"+44 1873 880 688","picnic_table":"yes","power_supply":"yes","reservation":"required","shower":"yes","static_caravans":"no","tents":"yes","toilets":"yes","website":"https://pontkemys.co.uk","wheelchair":"yes"}},"951644703":{"location":[51.8328073,-2.9885946],"ct":"GB","tp":"CR","ts":"2021-07-31T12:41:15Z","tX":503,"tY":339,"tags":{"name":"Wernddu Caravan Park"}},"969235697":{"location":[51.8311005,-2.981528],"ct":"GB","tp":"CR","ts":"2021-07-31T12:41:15Z","tX":503,"tY":339,"tags":{"name":"Blossom Touring Caravan Park"}},"986933051":{"location":[51.783492,-3.1194629],"ct":"GB","tp":"CS","ts":"2021-09-25T14:30:24Z","tX":503,"tY":339,"tags":{}},"1228125267":{"location":[51.6698873,-3.1513959],"ct":"GB","tp":"CS","ts":"2023-12-02T02:06:24Z","tX":503,"tY":339,"tags":{"access":"private","addr:street":"Maes-yr-Haf Lane","group_only":"yes","name":"CRAI Scout Activity Centre","operator":"CRAI District Scouts"}},"1306400295":{"location":[51.8318938,-2.852816],"ct":"GB","tp":"CS","ts":"2024-08-08T16:53:47Z","tX":503,"tY":339,"tags":{"surface":"grass"}},"11246875025":{"location":[51.761888,-2.9501052],"ct":"GB","tp":"CS","ts":"2023-10-07T20:23:29Z","tX":503,"tY":339,"tags":{"access":"customers","addr:city":"Abergavenny","addr:postcode":"NP7 9DY","addr:street":"Llanover Road","addr:suburb":"Llanfair Kilgeddin","cabins":"yes","caravans":"no","email":"glamping@medleymeadow.com","fee":"yes","name":"Medley Meadow","static_caravans":"no"}}}