{"337542585":{"location":[51.4651228,-2.8276665],"ct":"GB","tp":"CR","ts":"2021-07-20T08:33:18Z","tX":503,"tY":340,"tags":{"addr:city":"Clevedon","addr:postcode":"BS21 7AT","addr:street":"Walton Bay","name":"Coast Caravan Park"}},"389387294":{"location":[51.5243343,-3.03892],"ct":"GB","tp":"CS","ts":"2018-07-29T10:19:53Z","tX":503,"tY":340,"tags":{"addr:city":"St Brides Wentlooge","addr:housename":"Ty Coch Farm","addr:street":"St Brides Road","caravans":"yes","internet_access":"wlan","name":"Ty Coch Camping & Caravanning","phone":"+447983615984","wheelchair":"limited"}},"845461065":{"location":[51.4092765,-2.8589522],"ct":"GB","tp":"CS","ts":"2020-09-08T17:53:50Z","tX":503,"tY":340,"tags":{"addr:city":"Kingston Seymour","addr:housename":"Bullock Farm","addr:postcode":"BS21 6XA","addr:street":"Back Lane","caravans":"yes","name":"Bullock Farm Camping","phone":"+44 1934 835020","shower":"yes/hot","tents":"yes","toilets":"yes","website":"https://www.bullockfarm.co.uk/"}},"851174558":{"location":[51.4231043,-2.8575109],"ct":"GB","tp":"CR","ts":"2020-09-24T20:23:17Z","tX":503,"tY":340,"tags":{"name":"Colehouse Farm Caravan Park"}},"990605312":{"location":[51.5615738,-3.0330749],"ct":"GB","tp":"CR","ts":"2021-10-07T00:05:10Z","tX":503,"tY":340,"tags":{"addr:postcode":"NP10 8SB","addr:street":"Pencarn Way","name":"Tredegar House","name:de":"Tredegar House Country Park Club Site","name:en":"Tredegar House Country Park Club Site","power_supply":"yes","sanitary_dump_station":"yes","website":"https://www.caravanclub.co.uk/club-sites/wales/newport/tredegar-house-country-park-caravan-club-site/"}},"1311063249":{"location":[51.560737,-2.907084],"ct":"GB","tp":"CR","ts":"2025-06-23T12:23:11Z","tX":503,"tY":340,"tags":{"addr:city":"Newport","addr:country":"GB","addr:postcode":"NP18 2AY","addr:street":"Whitson Common Road","addr:suburb":"Whitson"}},"4874179471":{"location":[51.4029419,-2.8586024],"ct":"GB","tp":"CS","ts":"2022-02-18T13:12:38Z","tX":503,"tY":340,"tags":{"addr:city":"Bristol","addr:postcode":"BS21 6XA","name":"Cranmoor Campsite","phone":"+44 1934 838 397","website":"https://www.cranmoorcampsite.co.uk/"}},"11896763300":{"location":[51.420854,-2.8752478],"ct":"GB","tp":"CS","ts":"2024-05-11T12:36:47Z","tX":503,"tY":340,"tags":{"access":"customers","name":"Dowlais Farm","note":"Members only"}}}