{"9446955":{"location":[51.2984144,-2.9994423],"ct":"GB","tp":"CR","ts":"2019-04-08T13:55:47Z","tX":503,"tY":341,"tags":{"name":"Diamond Farm Caravan Park"}},"9448731":{"location":[51.2999933,-2.9951853],"ct":"GB","tp":"CR","ts":"2019-04-01T05:43:04Z","tX":503,"tY":341,"tags":{"name":"Diamond Farm Touring Park"}},"9448756":{"location":[51.280085,-3.0075034],"ct":"GB","tp":"CR","ts":"2019-04-02T10:36:34Z","tX":503,"tY":341,"tags":{"name":"Brean Sands"}},"9451783":{"location":[51.2765328,-3.0098347],"ct":"GB","tp":"CR","ts":"2019-10-28T13:31:36Z","tX":503,"tY":341,"tags":{"name":"Sandy Glade Holiday Park"}},"9451829":{"location":[51.2841663,-3.0132101],"ct":"GB","tp":"CR","ts":"2019-04-08T16:26:54Z","tX":503,"tY":341,"tags":{}},"9451830":{"location":[51.2821195,-3.0141364],"ct":"GB","tp":"CR","ts":"2020-01-01T22:18:52Z","tX":503,"tY":341,"tags":{"addr:city":"Burnham-on-Sea","addr:country":"GB","addr:housename":"Beachside Holiday Park","addr:postcode":"TA8 2QZ","addr:street":"Coast Road","name":"Beachside Holiday Park","phone":"+44 1278 751346","website":"https://www.beachsideholidaypark.co.uk"}},"9452461":{"location":[51.2423547,-2.9895403],"ct":"GB","tp":"CR","ts":"2019-04-04T22:31:42Z","tX":503,"tY":341,"tags":{}},"9452647":{"location":[51.2274947,-2.9964883],"ct":"GB","tp":"CR","ts":"2023-08-19T15:39:58Z","tX":503,"tY":341,"tags":{"addr:city":"Burnham-on-Sea","addr:housename":"Haven Burnham-on-Sea Holiday Village","addr:postcode":"TA8 1LA","addr:street":"Marine Drive","contact:facebook":"https://www.haven.com/parks/somerset/burnham-on-sea?utm_source=google&utm_medium=organic&utm_campaign=gmb","internet_access":"yes","internet_access:fee":"customers","name":"Haven Burnham-on-Sea Holiday Village","power_supply":"yes","sanitary_dump_station":"yes","wheelchair":"yes"}},"9455293":{"location":[51.2499096,-3.0041795],"ct":"GB","tp":"CR","ts":"2023-02-28T16:12:44Z","tX":503,"tY":341,"tags":{"static_caravans":"yes"}},"15640813":{"location":[51.3143118,-3.0095485],"ct":"GB","tp":"CS","ts":"2023-03-25T11:09:12Z","tX":503,"tY":341,"tags":{"alt_name":"Channel View Caravan Park","caravans":"yes","email":"info@somersetleisure.co.uk","name":"Channel View","operator":"Somerset Leisure","phone":"+44 1278 751055","shower":"yes","tents":"yes","toilets":"yes","website":"https://somersetleisure.co.uk/channel-view-caravan-park/"}},"18958067":{"location":[51.2274947,-2.9964883],"ct":"GB","tp":"CR","ts":"2025-04-07T23:08:18Z","tX":503,"tY":341,"tags":{"addr:city":"Burnham-on-Sea","addr:housename":"Haven Burnham-on-Sea Holiday Village","addr:postcode":"TA8 1LA","addr:street":"Marine Drive","contact:facebook":"https://www.haven.com/parks/somerset/burnham-on-sea?utm_source=google&utm_medium=organic&utm_campaign=gmb","internet_access":"yes","internet_access:fee":"customers","name":"Haven Burnham-on-Sea Holiday Village","power_supply":"yes","sanitary_dump_station":"yes","wheelchair":"yes"}},"55489967":{"location":[51.3336956,-2.9288902],"ct":"GB","tp":"CR","ts":"2023-06-12T21:50:47Z","tX":503,"tY":341,"tags":{"addr:postcode":"BS24 8RH","name":"West End Farm Caravan Park","source":"OS_OpenSource_StreetView"}},"55822566":{"location":[51.3320721,-2.8863376],"ct":"GB","tp":"CR","ts":"2011-08-25T09:56:07Z","tX":503,"tY":341,"tags":{"name":"Summer Lane Parkhomes","source":"OS_OpenData_StreetView"}},"77380795":{"location":[51.371004,-2.8208857],"ct":"GB","tp":"CR","ts":"2021-02-13T20:10:40Z","tX":503,"tY":341,"tags":{"area":"yes","name":"Oak Farm Touring Park"}},"122057026":{"location":[51.2352452,-2.9511398],"ct":"GB","tp":"CR","ts":"2025-06-05T12:29:02Z","tX":503,"tY":341,"tags":{"landuse":"residential"}},"125983962":{"location":[51.3235378,-2.9893491],"ct":"GB","tp":"CR","ts":"2020-03-29T15:14:39Z","tX":503,"tY":341,"tags":{"source":"Bing"}},"134892699":{"location":[51.2755016,-3.0097584],"ct":"GB","tp":"CR","ts":"2011-10-27T11:20:02Z","tX":503,"tY":341,"tags":{}},"134892700":{"location":[51.2778576,-3.0074721],"ct":"GB","tp":"CR","ts":"2011-10-27T11:20:02Z","tX":503,"tY":341,"tags":{}},"135038987":{"location":[51.2253235,-2.9132181],"ct":"GB","tp":"CR","ts":"2011-10-28T14:52:25Z","tX":503,"tY":341,"tags":{"name":"Coombes Cider Mill Caravan & Camping Park"}},"171196689":{"location":[51.3688113,-2.9587326],"ct":"GB","tp":"CR","ts":"2021-06-08T09:25:48Z","tX":503,"tY":341,"tags":{"addr:postcode":"BS22 9XE","addr:street":"Crookes Lane","name":"Hazelwood Caravan Park"}},"171196690":{"location":[51.3687657,-2.9603987],"ct":"GB","tp":"CR","ts":"2021-06-04T10:42:36Z","tX":503,"tY":341,"tags":{"name":"Sun Valley Caravan Park"}},"171196691":{"location":[51.3664225,-2.963112],"ct":"GB","tp":"CR","ts":"2021-06-07T08:56:43Z","tX":503,"tY":341,"tags":{"addr:housenumber":"12","addr:postcode":"BS22 9UZ","addr:street":"Beach Road","name":"Carefree Holiday Park"}},"171196692":{"location":[51.3767618,-2.9551137],"ct":"GB","tp":"CR","ts":"2022-05-23T15:53:33Z","tX":503,"tY":341,"tags":{"addr:city":"Weston-super-Mare","addr:postcode":"BS22 9UJ","addr:street":"Sand Road","name":"Country View Holiday Park","phone":"+44 1934 627595","power_supply":"yes","sanitary_dump_station":"yes","website":"https://www.cvhp.co.uk/"}},"238133712":{"location":[51.2392574,-2.9669783],"ct":"GB","tp":"CR","ts":"2016-12-06T10:18:42Z","tX":503,"tY":341,"tags":{"name":"Home Farm Holiday Park"}},"258849776":{"location":[51.3349867,-2.8785817],"ct":"GB","tp":"CS","ts":"2014-01-29T00:51:18Z","tX":503,"tY":341,"tags":{"name":"Stonebridge Farm Campsite","source":"Bing","source:tourism":"Survey"}},"261170778":{"location":[51.3396361,-2.8872519],"ct":"GB","tp":"CR","ts":"2022-12-29T10:18:40Z","tX":503,"tY":341,"tags":{"name":"Myrtle Farm Touring Park","source":"Bing"}},"281236674":{"location":[51.2999933,-2.9951853],"ct":"GB","tp":"CR","ts":"2025-04-07T23:08:18Z","tX":503,"tY":341,"tags":{"name":"Diamond Farm Touring Park"}},"297243380":{"location":[51.2071749,-2.9450527],"ct":"GB","tp":"CS","ts":"2020-12-21T15:59:02Z","tX":503,"tY":341,"tags":{"addr:city":"East Huntspill","addr:country":"GB","fee":"yes","name":"Phippins Farm","power_supply":"yes","wheelchair":"yes"}},"427460960":{"location":[51.3830349,-2.9608341],"ct":"GB","tp":"CR","ts":"2021-07-13T12:39:19Z","tX":503,"tY":341,"tags":{"addr:postcode":"BS22 9UG","addr:street":"Beach Road","email":"info@swallowpoint.co.uk","name":"Swallow Point Holiday Park","phone":"+44 1934 412680","static_caravans":"yes","tents":"no","website":"http://www.swallowpoint.co.uk/"}},"458749031":{"location":[51.3583114,-2.8500952],"ct":"GB","tp":"CR","ts":"2021-01-01T10:43:21Z","tX":503,"tY":341,"tags":{"addr:street":"Puxton Lane","name":"Winter Meadows","note":"Apprximate position","source":"GPS"}},"469405086":{"location":[51.3025451,-3.0096365],"ct":"GB","tp":"CS","ts":"2009-08-16T21:03:28Z","tX":503,"tY":341,"tags":{"name":"Warren Farm Holiday Centre"}},"469405087":{"location":[51.2945846,-3.0096944],"ct":"GB","tp":"CS","ts":"2009-08-16T21:03:28Z","tX":503,"tY":341,"tags":{"name":"Northam Farm Caravan & Touring Park"}},"471356817":{"location":[51.34038,-2.8697748],"ct":"GB","tp":"CR","ts":"2009-08-28T15:13:08Z","tX":503,"tY":341,"tags":{"addr:housename":"Moorland Farm","addr:housenumber":"Moorland Farm","addr:street":"Moors Road","source":"GPS"}},"576881024":{"location":[51.3072181,-2.8245449],"ct":"GB","tp":"CS","ts":"2023-03-02T17:58:11Z","tX":503,"tY":341,"tags":{"addr:housename":"N","name":"Netherdale Caravan & Camping Site"}},"620853552":{"location":[51.1895658,-3.1223352],"ct":"GB","tp":"CR","ts":"2010-01-26T19:37:57Z","tX":503,"tY":341,"tags":{"name":"Farringdon Hill Caravan Park"}},"681073432":{"location":[51.280085,-3.0075034],"ct":"GB","tp":"CR","ts":"2025-04-07T23:08:18Z","tX":503,"tY":341,"tags":{"name":"Brean Sands"}},"681073434":{"location":[51.2765328,-3.0098347],"ct":"GB","tp":"CR","ts":"2025-04-07T23:08:18Z","tX":503,"tY":341,"tags":{"name":"Sandy Glade Holiday Park"}},"681074302":{"location":[51.2821195,-3.0141364],"ct":"GB","tp":"CR","ts":"2025-04-07T23:08:18Z","tX":503,"tY":341,"tags":{"addr:city":"Burnham-on-Sea","addr:country":"GB","addr:housename":"Beachside Holiday Park","addr:postcode":"TA8 2QZ","addr:street":"Coast Road","name":"Beachside Holiday Park","phone":"+44 1278 751346","website":"https://www.beachsideholidaypark.co.uk"}},"681089070":{"location":[51.2841663,-3.0132101],"ct":"GB","tp":"CR","ts":"2025-04-07T23:08:18Z","tX":503,"tY":341,"tags":{}},"681354832":{"location":[51.2499096,-3.0041795],"ct":"GB","tp":"CR","ts":"2025-04-07T23:08:18Z","tX":503,"tY":341,"tags":{"static_caravans":"yes"}},"681742832":{"location":[51.2423547,-2.9895403],"ct":"GB","tp":"CR","ts":"2025-04-07T23:08:21Z","tX":503,"tY":341,"tags":{}},"682433325":{"location":[51.2984144,-2.9994423],"ct":"GB","tp":"CR","ts":"2025-04-07T23:08:21Z","tX":503,"tY":341,"tags":{"name":"Diamond Farm Caravan Park"}},"739555302":{"location":[51.275389,-3.0075084],"ct":"GB","tp":"CR","ts":"2025-04-08T18:00:44Z","tX":503,"tY":341,"tags":{"name":"Sandy Meadows Lodge Park","operator":"John Fowler Holidays"}},"890936239":{"location":[51.2716082,-3.0035074],"ct":"GB","tp":"CR","ts":"2021-01-01T10:24:00Z","tX":503,"tY":341,"tags":{}},"894286446":{"location":[51.2741094,-2.9363423],"ct":"GB","tp":"CR","ts":"2021-01-11T15:23:11Z","tX":503,"tY":341,"tags":{"area":"yes"}},"915577459":{"location":[51.3069737,-2.9613341],"ct":"GB","tp":"CR","ts":"2021-05-07T17:53:46Z","tX":503,"tY":341,"tags":{"name":"Purn Caravan Park"}},"950034801":{"location":[51.3801526,-2.9579673],"ct":"GB","tp":"CR","ts":"2021-06-03T11:48:05Z","tX":503,"tY":341,"tags":{}},"950393914":{"location":[51.3717065,-2.9609433],"ct":"GB","tp":"CR","ts":"2021-06-04T10:03:37Z","tX":503,"tY":341,"tags":{"addr:housenumber":"52","addr:postcode":"BS22 9UU","addr:street":"Beach Road","name":"Sand Bay Caravan Park"}},"951036047":{"location":[51.3193349,-3.0102844],"ct":"GB","tp":"CR","ts":"2023-10-21T17:08:03Z","tX":503,"tY":341,"tags":{"addr:city":"Burnham-on-Sea","addr:housename":"Brean Down Caravan Park","addr:housenumber":"Brean Down Caravan Park","addr:postcode":"TA8 2RS","addr:street":"Brean Down Road","addr:village":"Brean","internet_access":"wlan","internet_access:fee":"customers","name":"Brean Down Caravan Park","power_supply":"yes","sanitary_dump_station":"yes"}},"951036056":{"location":[51.3204839,-3.0104426],"ct":"GB","tp":"CR","ts":"2021-06-04T12:22:26Z","tX":503,"tY":341,"tags":{"capacity":"5","permanent_camping":"only","static_caravans":"yes"}},"951938564":{"location":[51.3667666,-2.9631043],"ct":"GB","tp":"CR","ts":"2021-06-07T08:56:43Z","tX":503,"tY":341,"tags":{"addr:housenumber":"14","addr:postcode":"BS22 9UZ","addr:street":"Beach Road","name":"Quex Caravan Park"}},"952286356":{"location":[51.3672171,-2.95871],"ct":"GB","tp":"CR","ts":"2021-06-08T09:25:48Z","tX":503,"tY":341,"tags":{"name":"Meadow Lee Caravan Park"}},"952339359":{"location":[51.1896211,-3.1518162],"ct":"GB","tp":"CS","ts":"2022-01-10T09:40:14Z","tX":503,"tY":341,"tags":{"name":"Burton Springs"}},"965139860":{"location":[51.2817529,-3.0030146],"ct":"GB","tp":"CR","ts":"2021-07-17T10:38:57Z","tX":503,"tY":341,"tags":{}},"991455448":{"location":[51.1895801,-3.1223145],"ct":"GB","tp":"CR","ts":"2021-10-09T12:18:16Z","tX":503,"tY":341,"tags":{}},"1016413757":{"location":[51.1969087,-2.9619044],"ct":"GB","tp":"CR","ts":"2023-04-28T13:43:31Z","tX":503,"tY":341,"tags":{"addr:city":"Highbridge","addr:postcode":"TA9 3NP","addr:street":"Withy Road","addr:village":"East Huntspill","email":"withywater@gmail.com","name":"Withy Water Caravan Park","tents":"yes","website":"https://www.withywatercaravanpark.co.uk"}},"1072995823":{"location":[51.2015259,-2.9174539],"ct":"GB","tp":"CR","ts":"2022-06-24T10:23:12Z","tX":503,"tY":341,"tags":{"name":"Cripps Farm Holidays"}},"1148061596":{"location":[51.244698,-2.8451417],"ct":"GB","tp":"CR","ts":"2023-02-20T21:47:03Z","tX":503,"tY":341,"tags":{"name":"Ashton Drove Motorhome Park"}},"1159102767":{"location":[51.2935527,-3.00187],"ct":"GB","tp":"CR","ts":"2011-02-18T14:27:17Z","tX":503,"tY":341,"tags":{"name":"Northam Farm Caravan Park and Camp Site"}},"1159104245":{"location":[51.291836,-3.0096242],"ct":"GB","tp":"CR","ts":"2019-04-02T11:25:17Z","tX":503,"tY":341,"tags":{}},"1247950427":{"location":[51.3454869,-2.9324275],"ct":"GB","tp":"CR","ts":"2024-02-09T01:19:35Z","tX":503,"tY":341,"tags":{"internet_access":"yes","internet_access:fee":"yes","name":"Willow Down Caravan Park","operator":"North Somerset Council","power_supply":"yes","smoking":"yes"}},"1392647557":{"location":[51.2696573,-2.9179042],"ct":"GB","tp":"CR","ts":"2025-06-06T11:01:17Z","tX":503,"tY":341,"tags":{"addr:postcode":"BS26 2UG","name":"Lost Hope Farm"}},"4147442221":{"location":[51.2765167,-3.0118657],"ct":"GB","tp":"CS","ts":"2020-01-01T22:18:52Z","tX":503,"tY":341,"tags":{"addr:city":"Burnham-on-Sea","addr:country":"GB","addr:county":"Somerset","addr:postcode":"TA8 2QX","addr:street":"Coast Road","addr:village":"Berrow","name":"Sandy Glade Holiday Park","phone":"+44 1271 866766","website":"https://www.johnfowlerholidays.com/somerset-holiday-park/sandy-glade-holiday-park"}},"4323680593":{"location":[51.3832912,-2.9143833],"ct":"GB","tp":"CS","ts":"2016-07-28T14:00:04Z","tX":503,"tY":341,"tags":{"addr:street":"Wicks Road","name":"Cyprus Farm"}},"8773826462":{"location":[51.2800234,-2.8564423],"ct":"GB","tp":"CS","ts":"2021-05-27T21:10:27Z","tX":503,"tY":341,"tags":{"name":"Watersmeet farm campsite"}}}