{"121023957":{"location":[51.0807659,-3.0154608],"ct":"GB","tp":"CR","ts":"2016-11-03T13:54:59Z","tX":503,"tY":342,"tags":{}},"132195672":{"location":[50.9997627,-3.0110683],"ct":"GB","tp":"CR","ts":"2022-10-26T19:26:40Z","tX":503,"tY":342,"tags":{"addr:city":"Taunton","addr:hamlet":"Stoneyhead","addr:postcode":"TA3 6BZ","addr:street":"Solomon's Hollow","addr:village":"Wrantage","name":"Stoneyhead Caravan Park"}},"136576604":{"location":[51.096949,-2.8865371],"ct":"GB","tp":"CR","ts":"2019-07-16T21:23:55Z","tX":503,"tY":342,"tags":{"addr:city":"Bridgwater","addr:country":"GB","addr:county":"Somerset","addr:postcode":"TA7 0PH","addr:street":"Moor Road","addr:village":"Middlezoy","name":"Broadfield Park","source":"OS OpenData Streetview"}},"194027864":{"location":[51.1192039,-3.128254],"ct":"GB","tp":"CR","ts":"2012-12-01T23:55:00Z","tX":503,"tY":342,"tags":{"fee":"yes","landuse":"grass"}},"224945326":{"location":[50.9913494,-3.0233431],"ct":"GB","tp":"CS","ts":"2022-05-21T13:38:33Z","tX":503,"tY":342,"tags":{"access":"private","addr:city":"Taunton","addr:country":"GB","addr:county":"Somerset","addr:hamlet":"West Hatch","addr:postcode":"TA3 5RH","addr:street":"Huish Woods Lane","email":"info@huishwoods.org.uk","name":"Huish Woods","operator":"The Scout Association","operator:wikidata":"Q849740","phone":"+44 1823 480768","website":"https://www.huishwoods.org.uk/"}},"251065006":{"location":[51.0310511,-3.0643617],"ct":"GB","tp":"CR","ts":"2023-10-14T10:49:26Z","tX":503,"tY":342,"tags":{"addr:city":"Taunton","addr:country":"GB","addr:county":"Somerset","addr:postcode":"TA2 8BZ","addr:street":"Dyers Lane","addr:village":"Bathpool","name":"Tanpits Cider Farm Caravan & Camping Park","phone":"+44 1823 974845","sanitary_dump_station":"customers","website":"https://www.tanpitsfarmcampsite.co.uk/welcome-to-tanpits-cider-farm-camping-caravaning/"}},"300182988":{"location":[51.0269318,-3.0600368],"ct":"GB","tp":"CS","ts":"2014-08-26T07:49:38Z","tX":503,"tY":342,"tags":{}},"370201644":{"location":[51.0464453,-3.0350535],"ct":"GB","tp":"CR","ts":"2022-12-30T13:31:03Z","tX":503,"tY":342,"tags":{"addr:city":"Taunton","addr:country":"GB","addr:parentstreet":"Walford Cross","addr:place":"Walford Cross","addr:postcode":"TA2 8QR","addr:street":"Old Lipe Lane","name":"Somerset Camping & Caravans"}},"411477007":{"location":[51.1031369,-3.0805118],"ct":"GB","tp":"CS","ts":"2024-06-20T15:17:35Z","tX":503,"tY":342,"tags":{"caravans":"yes","drinking_water":"yes","name":"Secret Valley","power_supply":"yes","shower":"yes","tents":"yes","toilets":"yes","website":"https://www.secret-valley.co.uk/"}},"464756523":{"location":[51.1611546,-3.1172119],"ct":"GB","tp":"CR","ts":"2021-07-28T16:20:59Z","tX":503,"tY":342,"tags":{"name":"Mill Farm Caravan & Camping Park"}},"478867071":{"location":[50.9992852,-3.0274437],"ct":"GB","tp":"CS","ts":"2018-10-20T16:51:13Z","tX":503,"tY":342,"tags":{"addr:city":"Taunton","addr:postcode":"TA3 5NW","addr:street":"Ash Road","name":"Ashe Farm Camp Site"}},"667923513":{"location":[51.0156482,-2.9769669],"ct":"GB","tp":"CS","ts":"2019-06-22T21:51:36Z","tX":503,"tY":342,"tags":{"access":"customers","addr:city":"Taunton","addr:country":"GB","addr:county":"Somerset","addr:postcode":"TA3 6NH","addr:street":"Oxen Lane","addr:village":"North Curry","fee":"yes","internet_access":"wlan","name":"Dolittles Campsite"}},"686309576":{"location":[51.0575544,-2.8396434],"ct":"GB","tp":"CR","ts":"2019-10-29T12:32:53Z","tX":503,"tY":342,"tags":{"addr:city":"Langport","addr:hamlet":"Bodens","addr:postcode":"TA10 0DD","addr:street":"Wood Drove","name":"Bodens Crest Caravan Site"}},"687977888":{"location":[51.086061,-2.8775555],"ct":"GB","tp":"CR","ts":"2019-06-23T11:19:33Z","tX":503,"tY":342,"tags":{"addr:city":"Bridgwater","addr:country":"GB","addr:county":"Somerset","addr:postcode":"TA7 0QL","addr:street":"Townsend","addr:village":"Othery","name":"Thornhills Farm"}},"774670484":{"location":[51.1511357,-3.1338396],"ct":"GB","tp":"CR","ts":"2024-08-09T13:26:17Z","tX":503,"tY":342,"tags":{}},"775215897":{"location":[51.1507303,-3.0707091],"ct":"GB","tp":"CR","ts":"2022-04-13T15:47:06Z","tX":503,"tY":342,"tags":{}},"787954561":{"location":[50.9856296,-3.0362495],"ct":"GB","tp":"CR","ts":"2020-04-04T15:44:38Z","tX":503,"tY":342,"tags":{"addr:city":"Taunton","addr:country":"GB","addr:county":"Somerset","addr:hamlet":"West Hatch","addr:postcode":"TA3 5RW","addr:street":"Higher West Hatch Lane","name":"Slough Green Park"}},"812934432":{"location":[51.0047381,-2.8148406],"ct":"GB","tp":"CS","ts":"2020-07-02T19:54:09Z","tX":503,"tY":342,"tags":{"addr:city":"Langport","addr:country":"GB","addr:county":"Somerset","addr:postcode":"TA10 0DW","addr:street":"Thorney Road","addr:village":"Thorney","name":"Thorney Lakes Caravan & Camping Park"}},"945166536":{"location":[51.139885,-3.0996644],"ct":"GB","tp":"CS","ts":"2021-05-20T15:33:10Z","tX":503,"tY":342,"tags":{}},"980916989":{"location":[51.1570798,-2.9334993],"ct":"GB","tp":"CR","ts":"2022-08-15T11:38:22Z","tX":503,"tY":342,"tags":{"addr:city":"Bridgwater","addr:parentstreet":"Bath Road","addr:postcode":"TA7 8PP","addr:street":"Woolavington Hill","addr:village":"Bawdrip","internet_access":"wlan","name":"Fairways Holiday Park","website":"https://www.westcountryparks.co.uk/fairways-holiday-park"}},"981196388":{"location":[51.1041137,-3.0798099],"ct":"GB","tp":"CS","ts":"2021-09-09T10:31:31Z","tX":503,"tY":342,"tags":{"name":"Secret Valley"}},"981196392":{"location":[51.1029619,-3.0781397],"ct":"GB","tp":"CS","ts":"2021-09-09T10:31:31Z","tX":503,"tY":342,"tags":{}},"981196438":{"location":[51.1021742,-3.0782459],"ct":"GB","tp":"CS","ts":"2024-06-21T09:11:46Z","tX":503,"tY":342,"tags":{"name":"Secret Valley Bell Tents"}},"1051576551":{"location":[51.1373962,-3.0996176],"ct":"GB","tp":"CR","ts":"2022-04-13T15:47:06Z","tX":503,"tY":342,"tags":{}},"1051576559":{"location":[51.1319112,-3.0401711],"ct":"GB","tp":"CS","ts":"2022-04-13T15:47:06Z","tX":503,"tY":342,"tags":{}},"1117142395":{"location":[51.099026,-3.0482609],"ct":"GB","tp":"CS","ts":"2022-11-25T13:16:43Z","tX":503,"tY":342,"tags":{}},"1789140355":{"location":[50.99222,-3.09278],"ct":"GB","tp":"CS","ts":"2019-05-18T17:31:35Z","tX":503,"tY":342,"tags":{"addr:city":"Taunton","addr:hamlet":"Shoreditch","addr:postcode":"TA3 7BS","addr:street":"Killams Avenue","name":"Cornish Farm Touring Park","source":"ACSI"}},"8346856054":{"location":[51.0985443,-3.0497319],"ct":"GB","tp":"CS","ts":"2021-01-21T21:23:18Z","tX":503,"tY":342,"tags":{"description":"camping, B&B, catering, food","name":"Huntstile organic farm","website":"https://www.huntstileorganicfarm.co.uk/"}}}