{"38028319":{"location":[50.8587774,-2.936157],"ct":"GB","tp":"CS","ts":"2009-07-24T09:59:29Z","tX":503,"tY":343,"tags":{"name":"Alpine Grove"}},"69708443":{"location":[50.7426808,-2.9119584],"ct":"GB","tp":"CR","ts":"2023-06-14T14:01:35Z","tX":503,"tY":343,"tags":{"addr:city":"Charmouth","addr:postcode":"DT6 6BT","addr:street":"Axminster Road","name":"Wood Farm"}},"104997473":{"location":[50.7365895,-2.9343871],"ct":"GB","tp":"CR","ts":"2022-11-26T15:31:13Z","tX":503,"tY":343,"tags":{"capacity":"153","fee":"yes","name":"Timber Vale Caravan Park","operator":"The Eaton Family","phone":"+44 1297 442585","power_supply":"yes","sanitary_dump_station":"yes","website":"http://timbervale.co.uk/Introduction.htm"}},"131654830":{"location":[50.736596,-2.8973908],"ct":"GB","tp":"CR","ts":"2023-06-13T17:28:08Z","tX":503,"tY":343,"tags":{"name":"Seadown Holiday Park"}},"131655626":{"location":[50.7381731,-2.8888353],"ct":"GB","tp":"CR","ts":"2023-06-13T17:28:08Z","tX":503,"tY":343,"tags":{"name":"Newlands Holiday Camp"}},"131709378":{"location":[50.743268,-2.897133],"ct":"GB","tp":"CS","ts":"2017-07-23T21:34:36Z","tX":503,"tY":343,"tags":{"name":"Manor Farm Caravan and Camping Site","source":"OS OpenData StreetView"}},"131709379":{"location":[50.7406682,-2.8970928],"ct":"GB","tp":"CR","ts":"2020-05-06T11:22:07Z","tX":503,"tY":343,"tags":{"addr:city":"Charmouth","addr:housename":"Manor Farm","addr:postcode":"DT6 6LX","name":"Manor Farm Holiday Centre","source":"OS OpenData StreetView"}},"131709406":{"location":[50.740138,-2.893047],"ct":"GB","tp":"CR","ts":"2016-07-27T18:19:51Z","tX":503,"tY":343,"tags":{}},"131710169":{"location":[50.742447,-2.8809119],"ct":"GB","tp":"CR","ts":"2011-09-30T06:10:24Z","tX":503,"tY":343,"tags":{"name":"Dolphins River"}},"133261544":{"location":[50.879849,-3.0282447],"ct":"GB","tp":"CR","ts":"2011-10-14T09:10:17Z","tX":503,"tY":343,"tags":{"name":"Turnpike Caravan Park","source":"OS OpenData StreetView"}},"133268428":{"location":[50.9067769,-3.0351101],"ct":"GB","tp":"CR","ts":"2023-10-01T04:15:54Z","tX":503,"tY":343,"tags":{}},"290376874":{"location":[50.7420235,-2.97896],"ct":"GB","tp":"CS","ts":"2014-07-24T18:21:28Z","tX":503,"tY":343,"tags":{}},"290433147":{"location":[50.7588183,-3.0017911],"ct":"GB","tp":"CS","ts":"2023-08-23T14:50:37Z","tX":503,"tY":343,"tags":{"name":"Trill Farm"}},"293243441":{"location":[50.7636209,-2.9523949],"ct":"GB","tp":"CS","ts":"2023-12-17T18:47:07Z","tX":503,"tY":343,"tags":{"addr:postcode":"DT6 6DB","addr:street":"Scott's Lane","contact:facebook":"https://www.facebook.com/MonktonWyldHolidayPark","contact:instagram":"https://www.instagram.com/monktonwyldholidaypark/","email":"stay@monktonwyld.co.uk","internet_access":"yes","internet_access:fee":"no","name":"Monkton Wyld Holiday Farm Park","phone":"01297 631 131","tents":"yes","website":"https://www.monktonwyld.co.uk/"}},"298825491":{"location":[50.8942584,-2.820522],"ct":"GB","tp":"CS","ts":"2022-12-09T04:03:56Z","tX":503,"tY":343,"tags":{"addr:city":"Crewkerne","addr:country":"GB","addr:county":"Somerset","addr:hamlet":"Fordscroft","addr:postcode":"TA18 7TU","area":"yes","name":"The Yurt Retreat","phone":"+44 7773 505671","website":"https://www.theyurtretreat.co.uk/"}},"299415415":{"location":[50.8467902,-2.8466514],"ct":"GB","tp":"CS","ts":"2014-08-22T07:49:21Z","tX":503,"tY":343,"tags":{"area":"yes"}},"299415416":{"location":[50.8455285,-2.8469008],"ct":"GB","tp":"CS","ts":"2014-08-22T07:49:21Z","tX":503,"tY":343,"tags":{"area":"yes"}},"300934024":{"location":[50.7523729,-2.9606763],"ct":"GB","tp":"CS","ts":"2014-08-30T13:24:58Z","tX":503,"tY":343,"tags":{}},"379676766":{"location":[50.7832603,-3.0680526],"ct":"GB","tp":"CS","ts":"2024-07-08T19:16:22Z","tX":503,"tY":343,"tags":{"addr:postcode":"EX13 7DY","camp_site":"deluxe","caravans":"yes","contact:facebook":"https://www.facebook.com/Andrewshayes.Devon/","contact:instagram":"https://www.instagram.com/andrewshayes_holiday_park/","contact:twitter":"https://twitter.com/andrewshayesA35","contact:youtube":"https://www.youtube.com/channel/UCzGK_I0cub6RrwGftDOb53Q","dog":"yes","email":"holidays@andrewshayes.co.uk","internet_access":"wlan","internet_access:fee":"no","name":"Andrewshayes Holiday Park","phone":"+44 1404 831225","source":"ACSI","stars":"4","tents":"yes","website":"https://www.andrewshayes.co.uk/"}},"525177030":{"location":[50.93383,-2.8161109],"ct":"GB","tp":"CR","ts":"2022-01-29T21:17:26Z","tX":503,"tY":343,"tags":{"name":"Westdown Orchard"}},"555412602":{"location":[50.9395649,-3.1122435],"ct":"GB","tp":"CR","ts":"2024-04-16T03:17:13Z","tX":503,"tY":343,"tags":{"capacity":"40","caravans":"yes","dog":"yes","email":"info@hollybushpark.com","fee":"yes","internet_access":"wlan","internet_access:fee":"no","name":"Holly Bush Park Camping & Caravan Site","operator":"Holly Bush Park Camping & Caravan Site","phone":"+44 1823 421515","postal_code":"TA3 7EA","power_supply":"yes","sanitary_dump_station":"customers","smoking":"outside","tents":"yes","website":"https://www.hollybushpark.com/"}},"689365462":{"location":[50.7839273,-2.9316663],"ct":"GB","tp":"CS","ts":"2024-03-18T13:38:30Z","tX":503,"tY":343,"tags":{"addr:city":"Axminster","addr:country":"GB","addr:postcode":"EX13 5UL","addr:suburb":"Hawkchurch","contact:facebook":"https://www.facebook.com/HawkchurchResortAndSpa/","contact:instagram":"https://instagram.com/darwinescapes/","contact:pinterest":"https://www.pinterest.com/DarwinEscapes/hawkchurch/","contact:twitter":"https://twitter.com/HawkchurchSpa","contact:youtube":"https://www.youtube.com/channel/UCvzyAZfJ3YKsg7jxLSUVonQ/","name":"Hawkchurch Country Park","shower":"yes","source":"ACSI","swimming_pool":"yes","website":"https://darwinescapes.co.uk/hawkchurch-resort-spa/"}},"744664703":{"location":[50.7518191,-3.039556],"ct":"GB","tp":"CR","ts":"2019-11-12T15:47:24Z","tX":503,"tY":343,"tags":{}},"5066091627":{"location":[50.8557507,-2.8327043],"ct":"GB","tp":"CS","ts":"2017-08-29T10:45:09Z","tX":503,"tY":343,"tags":{"name":"Oathill Campsite","name:en":"Oathill Campsite"}},"6666479053":{"location":[50.7774742,-2.8538282],"ct":"GB","tp":"CS","ts":"2019-07-31T17:06:34Z","tX":503,"tY":343,"tags":{"name":"The Dorset Hideaway","phone":"+441297480851","website":"https://thedorsethideaway.co.uk"}},"6666479054":{"location":[50.7757424,-2.8128826],"ct":"GB","tp":"CS","ts":"2019-07-31T17:06:34Z","tX":503,"tY":343,"tags":{"name":"Pilsdon View Camping","phone":"+447850348092","website":"http://www.pilsdonviewcamping.co.uk"}},"6666479055":{"location":[50.7431327,-3.0656244],"ct":"GB","tp":"CS","ts":"2019-07-31T17:06:34Z","tX":503,"tY":343,"tags":{}},"9038785090":{"location":[50.9342561,-2.8161071],"ct":"GB","tp":"CS","ts":"2021-08-26T19:09:05Z","tX":503,"tY":343,"tags":{}},"9238533312":{"location":[50.941307,-2.8127313],"ct":"GB","tp":"CS","ts":"2022-09-18T14:34:43Z","tX":503,"tY":343,"tags":{"name":"Hideaway camping"}},"9838311417":{"location":[50.9122398,-2.9268222],"ct":"GB","tp":"CS","ts":"2022-08-01T19:34:42Z","tX":503,"tY":343,"tags":{"addr:city":"Ilminster","addr:hamlet":"Sea","addr:postcode":"TA19 0SB","addr:street":"Old A3037","name":"Higher Sea House CL","phone":"+44 1460250787"}},"9006889573":{"location":[50.934358,-2.8158998],"ct":"GB","tp":"SD","ts":"2021-08-16T20:46:13Z","tX":503,"tY":343,"tags":{}}}