{"26418320":{"location":[48.7845402,-3.0460548],"ct":"FR","tp":"CR","ts":"2024-10-05T16:41:17Z","tX":503,"tY":352,"tags":{"capacity":"20","caravan_site":"motorhome_stopover","caravan_site:type":"harbour","caravans":"no","charge":"6.10 EUR","fee":"yes","fee:conditional":"no @ (Oct-May)","name":"Aire Pierre Loti","note":"75 places, autorisé aux camping-car","tents":"no"}},"26488467":{"location":[48.7692749,-3.0208991],"ct":"FR","tp":"CS","ts":"2023-10-23T21:44:11Z","tX":503,"tY":352,"tags":{"area":"yes","caravans":"yes","fee":"yes","internet_access":"wlan","internet_access:fee":"yes","name":"Camping du Cruckin","name:br":"Takad-kampañ Krukin","power_supply":"yes","sanitary_dump_station":"yes","source:name:br":"proper translation","stars":"2","tents":"yes","website":"https://www.camping-paimpol.com/"}},"39274348":{"location":[48.8394968,-3.0080525],"ct":"FR","tp":"CS","ts":"2024-05-26T19:34:38Z","tX":503,"tY":352,"tags":{"addr:city":"Île-de-Bréhat","addr:postcode":"22870","caravans":"yes","fee":"yes","name":"Camping municipal La Pointe de Goareva","name:br":"Tachenn-gampiñ kêr Enez-Vriad","operator":"Mairie de Bréhat","phone":"+33 2 96 20 02 46","reservation":"no","source:name:br":"proper translation","static_caravans":"no","tents":"yes","website":"https://www.iledebrehat.fr/que-faire-a-brehat/camping-municipal/"}},"39274349":{"location":[48.8390878,-3.0072149],"ct":"FR","tp":"CS","ts":"2024-05-26T19:34:38Z","tX":503,"tY":352,"tags":{"addr:city":"Île-de-Bréhat","addr:postcode":"22870","caravans":"yes","fee":"yes","name":"Camping municipal La Pointe de Goareva","name:br":"Tachenn-gampiñ kêr Enez-Vriad","phone":"+33 2 96 20 02 46","reservation":"no","source:name:br":"proper translation","static_caravans":"no","tents":"yes","website":"https://www.iledebrehat.fr/que-faire-a-brehat/camping-municipal/"}},"161863276":{"location":[48.8145055,-3.0542895],"ct":"FR","tp":"CS","ts":"2021-05-26T20:05:18Z","tX":503,"tY":352,"tags":{"email":"mairie.ploubazlanec@wanadoo.fr","name":"Camping municipal Le Ouern","name:br":"Tachenn-gampiñ Kêr","phone":"+33 2 96 55 80 36","source":"http://www.ploubazlanec.bzh/decouvrir-ploubazlanec/plan-de-la-commune/;https://data.datatourisme.gouv.fr/38/26d5b947-b338-3316-a9f0-d4800c497a8d","source:name:br":"proper translation","website":"https://www.ploubazlanec.bzh"}},"181675333":{"location":[48.7948893,-3.0241298],"ct":"FR","tp":"CS","ts":"2023-10-23T21:47:00Z","tX":503,"tY":352,"tags":{"name":"Camping municipal de Pors Don","website":"https://www.ploubazlanec.bzh/vie-municipale-de-ploubazlanec/les-tarifs-municipaux/"}},"208687338":{"location":[48.7608158,-2.9642376],"ct":"FR","tp":"CS","ts":"2024-05-14T13:03:40Z","tX":503,"tY":352,"tags":{"alt_name":"Camping Cap Horn","caravans":"yes","name":"Camping Cap de Bréhat","source":"Bing","stars":"4","tents":"yes","website":"https://www.eden-villages.fr/campings/capdebrehat/","wheelchair":"yes"}},"218699617":{"location":[48.8576929,-3.0787031],"ct":"FR","tp":"CR","ts":"2024-10-05T16:16:14Z","tX":503,"tY":352,"tags":{"capacity":"4","caravan_site":"motorhome_stopover","fee":"no","maxstay":"24 hours","name":"Aire de Pen Lan","power_supply":"no","sanitary_dump_station":"no","surface":"asphalt","water_point":"no","website":"https://www.bretagne-cotedegranitrose.com/offres/aire-de-stationnement-de-pen-lan-pleubian-fr-2714643/"}},"221551018":{"location":[48.8167636,-3.0137583],"ct":"FR","tp":"CS","ts":"2024-05-26T19:44:54Z","tX":503,"tY":352,"tags":{"addr:city":"Ploubazlanec","addr:postcode":"22620","addr:street":"Chemin du Paou","capacity":"36","caravans":"yes","check_date":"2024-05-26","fee":"yes","name":"Camping du Paou","phone":"+33 6 19 66 76 65","static_caravans":"no","tents":"yes","website":"https://www.campingdupaou.com/"}},"230632240":{"location":[48.8191547,-3.0160575],"ct":"FR","tp":"CS","ts":"2024-07-20T06:13:37Z","tX":503,"tY":352,"tags":{"addr:city":"Ploubazlanec","addr:housenumber":"17","addr:place":"L'Arcouest","addr:postcode":"22620","addr:street":"Chemin du Rohou","capacity":"65","check_date":"2024-05-26","email":"arcouest22@gmail.com","fee":"yes","name":"Camping Panorama du Rohou","phone":"+33 6 12 30 38 64","static_caravans":"yes","tents":"yes","website":"https://www.campingpanorama.com/"}},"255679908":{"location":[48.6955784,-3.1635722],"ct":"FR","tp":"CS","ts":"2019-09-07T16:50:57Z","tX":503,"tY":352,"tags":{"addr:city":"Pontrieux","addr:postcode":"22260","addr:street":"Rue de Traou Meledern","name":"Camping Traou Mélédern","phone":"+33 2 96 95 69 27","website":"http://www.camping-pontrieux.com/"}},"255679909":{"location":[48.7793148,-3.1141465],"ct":"FR","tp":"CS","ts":"2024-08-11T11:25:06Z","tX":503,"tY":352,"tags":{"addr:city":"Lézardrieux","addr:housenumber":"23","addr:postcode":"22740","addr:street":"Rue de Kermarquer","caravans":"yes","check_date":"2024-05-26","fee":"yes","name":"Camping municipal de Kermarquer","name:br":"Tachenn-gampiñ ar gumun - Kervarker","operator":"Mairie de Lézardrieux","phone":"+33 2 96 20 17 22","static_caravans":"no","tents":"yes","website":"https://www.mairie-lezardrieux.fr/tourisme/camping.html","wheelchair":"no"}},"266235312":{"location":[48.7130428,-2.9674879],"ct":"FR","tp":"CS","ts":"2019-03-19T14:21:33Z","tX":503,"tY":352,"tags":{"name":"Le Neptune","phone":"+33296223335","source":"cadastre-dgi-fr source : Direction Générale des Impôts - Cadastre. Mise à jour : 2014","stars":"4","website":"https://www.leneptune.com/"}},"266239146":{"location":[48.7364098,-3.0246378],"ct":"FR","tp":"CS","ts":"2017-09-18T16:04:30Z","tX":503,"tY":352,"tags":{"name":"Camping de Kerbignious","phone":"+33296205062","source":"cadastre-dgi-fr source : Direction Générale des Impôts - Cadastre. Mise à jour : 2014","stars":"2","website":"http://www.camping-kerbignious.com"}},"348832807":{"location":[48.7196498,-2.9548281],"ct":"FR","tp":"CS","ts":"2020-07-04T21:37:52Z","tX":503,"tY":352,"tags":{"name":"Le Varquès","website":"https://www.camping-le-varquez.com/"}},"359162249":{"location":[48.8570078,-3.1324514],"ct":"FR","tp":"CS","ts":"2022-07-29T21:47:23Z","tX":503,"tY":352,"tags":{"name":"Domaine Résidentiel de Plein Air Odalys Port la Chaîne","source":"Bing","website":"https://www.odalys-vacances.com/location-mer/bretagne/pleubian/le-port-de-la-chaine.html"}},"360161074":{"location":[48.8304017,-3.0818769],"ct":"FR","tp":"CR","ts":"2024-10-17T14:13:19Z","tX":503,"tY":352,"tags":{"capacity":"5","caravan_site":"motorhome_stopover","caravan_site:type":"beach","check_in":"09:00","dog":"yes","fee":"no","maxstay":"24 hours","name":"Aire de stationnement de Kermouster","power_supply":"no","sanitary_dump_station":"no","sanitary_dump_station:chemical_toilet":"no","website":"https://www.cotesdarmor.com/fr/fiche/aires/aire-de-stationnement-de-kermouster-lezardrieux_TFOB0018BRE0220003I/"}},"433051539":{"location":[48.7127316,-3.1364747],"ct":"FR","tp":"CS","ts":"2023-10-23T21:49:43Z","tX":503,"tY":352,"tags":{"caravans":"yes","name":"Camping du Bois d’Amour","operator":"Mairie de Quemper-Guézennec","phone":"+33 2 96 95 62 62","tents":"yes","website":"https://www.quemper-guezennec.com/site/spip.php?article15"}},"450582741":{"location":[48.7364159,-3.0023005],"ct":"FR","tp":"CS","ts":"2023-10-23T21:45:05Z","tX":503,"tY":352,"tags":{"name":"Camping du domaine du Launay","website":"https://www.domaine-du-launay.com/"}},"451766758":{"location":[48.7205712,-2.9479776],"ct":"FR","tp":"CS","ts":"2023-08-29T15:55:07Z","tX":503,"tY":352,"tags":{"addr:street":"26 route du vieux Bréhec","capacity":"67","name":"Les Tamaris","name:br":"An Tamariskl","phone":"+33 2 96 22 60 01","source:name:br":"proper translation","website":"https://www.falaisesdarmor.com/camping-plouha-HPABRE0220Y00174.html#.XwD1dBE6-Pc"}},"724144022":{"location":[48.8059824,-3.0324745],"ct":"FR","tp":"CR","ts":"2024-10-30T23:10:37Z","tX":503,"tY":352,"tags":{"capacity":"6","caravan_site":"motorhome_stopover","caravan_site:type":"countryside","fee":"no","power_supply":"no","sanitary_dump_station":"no","water_point":"no"}},"891068860":{"location":[48.8565821,-3.1419532],"ct":"FR","tp":"CR","ts":"2024-10-05T16:15:29Z","tX":503,"tY":352,"tags":{"capacity":"20","caravan_site":"motorhome_stopover","caravan_site:type":"beach","fee":"no","name":"Aire de stationnement de Kermagen","opening_hours":"Jul-Aug off","seasonal":"yes","surface":"grass","website":"https://www.cotesdarmor.com/fr/fiche/aires/aire-de-stationnement-de-kermagen-pleubian_TFOB0018BRE0220003M/"}},"972968327":{"location":[48.8185914,-3.0403833],"ct":"FR","tp":"CR","ts":"2024-10-30T23:39:59Z","tX":503,"tY":352,"tags":{"access":"yes","capacity":"6","caravan_site":"motorhome_stopover","caravan_site:type":"beach","covered":"no","fee":"no","internet_access":"no","name":"Aire Beg Nod","power_supply":"no","sanitary_dump_station":"no"}},"1133083545":{"location":[48.7545398,-2.9855749],"ct":"FR","tp":"CS","ts":"2023-12-05T22:17:10Z","tX":503,"tY":352,"tags":{"name":"Ancien camping La Pépinière (fermé)"}},"1202841139":{"location":[48.7764405,-3.0464031],"ct":"FR","tp":"CR","ts":"2024-05-13T11:12:25Z","tX":503,"tY":352,"tags":{"addr:housenumber":"4","addr:postcode":"22500","addr:street":"Avenue Chateaubriand","capacity":"32","caravan_site":"motorhome_stopover","caravan_site:type":"village","charge":"14.60 EUR / 24h","fee":"yes","internet_access":"no","maxstay":"6 days","name":"Aire Chateaubriant - Paimpol","opening_hours":"24/7","operator":"Marie Paimpol","power_supply":"yes","sanitary_dump_station":"yes","tents":"no","water_point":"yes"}},"1303462488":{"location":[48.6913448,-3.007714],"ct":"FR","tp":"CS","ts":"2024-08-10T10:30:30Z","tX":503,"tY":352,"tags":{"name":"Aire de camping","name:br":"Takad-kampiñ"}},"1317988750":{"location":[48.7290621,-2.9455695],"ct":"FR","tp":"CR","ts":"2024-09-24T22:20:01Z","tX":503,"tY":352,"tags":{"capacity":"5","caravan_site":"motorhome_stopover","caravan_site:type":"countryside","dog":"yes","fee":"no","internet_access":"no","maxstay":"24 hours","name":"Aire de stationnement de Bréhec","power_supply":"no","sanitary_dump_station":"no","tents":"no"}},"1318355758":{"location":[48.8201082,-3.0200406],"ct":"FR","tp":"CR","ts":"2024-09-26T10:54:13Z","tX":503,"tY":352,"tags":{"capacity":"50","caravan_site":"motorhome_stopover","caravan_site:type":"beach","charge":"12 EUR","fee":"yes","fee:conditional":"no@(Nov 16-Mar 31)","name":"Aire Camping Car Pointe de l'Arcouest","surface":"dirt","toilets":"yes","water_point":"yes"}},"1562247930":{"location":[48.7397089,-3.0990913],"ct":"FR","tp":"CS","ts":"2011-12-26T09:32:10Z","tX":503,"tY":352,"tags":{"name":"CSCA"}},"3827143317":{"location":[48.7150917,-3.0514832],"ct":"FR","tp":"CR","ts":"2024-09-26T10:24:22Z","tX":503,"tY":352,"tags":{"caravan_site":"motorhome_stopover","caravan_site:type":"parking_lot;village","fee":"no","name":"Aire camping-car Yvias","picnic_area":"yes","power_supply":"no","sanitary_dump_station":"no","surface":"asphalt","water_point":"no"}},"6421749187":{"location":[48.8636596,-3.0917448],"ct":"FR","tp":"CS","ts":"2023-05-24T20:51:32Z","tX":503,"tY":352,"tags":{"addr:housenumber":"85","addr:postcode":"22610","addr:street":"Rue de Laneros","caravans":"yes","drinking_water":"yes","email":"contact@camping-laneros.com","name":"Camping Domine de Laneros","phone":"+33 2 96 55 58 63","power_supply":"yes","shower":"yes","tents":"yes","toilets":"yes","website":"https://www.camping-laneros.com/"}},"7840905653":{"location":[48.79172,-3.08402],"ct":"FR","tp":"CS","ts":"2023-10-23T21:44:48Z","tX":503,"tY":352,"tags":{"bbq":"yes","cabins":"yes","capacity":"10","caravans":"yes","dog":"yes","email":"kerloury22@orange.fr","fee":"yes","hot_water":"yes","internet_access":"no","kitchen":"no","lit":"no","motor_vehicle":"yes","name":"Camping de Kerloury","operator":"La Ferme de Kerloury","phone":"+33 6 45 39 03 05","power_supply":"yes","shower":"hot","swimming_pool":"no","tents":"yes","toilets":"yes","washing_machine":"no","waste_disposal":"yes","website":"https://www.lafermedekerloury.fr/"}},"7148183092":{"location":[48.8203304,-3.0631465],"ct":"FR","tp":"CR","ts":"2024-10-08T16:15:51Z","tX":503,"tY":352,"tags":{"capacity":"6","caravan_site":"motorhome_stopover","caravan_site:type":"harbour","description":"08.01.2020 parking gratuit calme et bloc sanitaire ouvert en hiver.","fee":"no","tents":"no","toilets":"no","website":"https://www.cotesdarmor.com/fr/fiche/aires/aire-de-stationnement-port-de-loguivy-de-la-mer-ploubazlanec_TFOB0018BRE022V50OO5J/","wheelchair":"yes"}},"7804483148":{"location":[48.8057847,-3.0264221],"ct":"FR","tp":"SD","ts":"2020-08-11T16:59:10Z","tX":503,"tY":352,"tags":{"access":"yes","description":"2 parks","fee":"no","water_point":"yes"}},"11150682048":{"location":[48.7762121,-3.0469955],"ct":"FR","tp":"SD","ts":"2023-08-28T18:08:06Z","tX":503,"tY":352,"tags":{"access":"customers","name":"Aire Avenue Chateaubriant"}}}