{"26673380":{"location":[47.5594227,-2.9387251],"ct":"FR","tp":"CS","ts":"2022-07-01T14:07:59Z","tX":503,"tY":357,"tags":{"caravans":"no","fee":"yes","landuse":"residential","name":"Domaine de Kerpenhir","name:br":"Domani Kerpenhir","phone":"+33 6 73 93 26 48","residential":"trailer_park","source:name:br":"proper translation","tents":"no"}},"26673381":{"location":[47.556589,-2.9421863],"ct":"FR","tp":"CS","ts":"2023-12-24T17:32:43Z","tX":503,"tY":357,"tags":{"caravans":"yes","fee":"yes","name":"Camping municipal La Falaise","name:br":"Tachad-kampiñ Tevenn Bras","opening_hours":"Mar-Oct","phone":"+33 2 97 57 31 59","source:name:br":"proper translation","stars":"2","tents":"yes","website":"https://www.campingmunicipallafalaise.com/"}},"75731840":{"location":[47.5958223,-3.0590146],"ct":"FR","tp":"CS","ts":"2019-11-18T07:53:44Z","tX":503,"tY":357,"tags":{"addr:city":"Carnac","addr:street":"Route de Kerlescan","internet_access":"wlan","name":"Camping La Grande Métairie","name:br":"Tachenn-gampiñ Ar Veiteri Vras","phone":"+33 2 97 52 24 01","source:name:br":"proper translation","stars":"5","url":"http://www.lagrandemetairie.com","website":"https://www.lagrandemetairie.com"}},"95943741":{"location":[47.6104086,-3.1303142],"ct":"FR","tp":"CS","ts":"2022-08-13T21:46:49Z","tX":503,"tY":357,"tags":{"email":"camping.kersily@wanadoo.fr","name":"Camping de Kersily","name:br":"Tacehnn-gampiñ Kersili","source:name:br":"proper translation","stars":"3","website":"https://www.camping-kersily.com/"}},"95949609":{"location":[47.6146263,-3.1376484],"ct":"FR","tp":"CS","ts":"2022-08-13T21:46:49Z","tX":503,"tY":357,"tags":{"email":"loperhet@camping-loperhet.com","name":"Camping de Loperhet","name:br":"Tachenn-gampiñ Loperc'hed","source:name:br":"proper translation","stars":"3","website":"https://www.camping-loperhet.com/"}},"95958426":{"location":[47.5729714,-3.1211165],"ct":"FR","tp":"CS","ts":"2022-09-16T11:22:29Z","tX":503,"tY":357,"tags":{"caravans":"yes","email":"campingsablesblancs@plouharnel.fr","internet_access":"wlan","name":"Les Sables Blancs","phone":"+33297523715","stars":"2","website":"http://mairie-plouharnel.com/camping"}},"96064923":{"location":[47.5951654,-3.0960323],"ct":"FR","tp":"CS","ts":"2021-08-12T08:41:58Z","tX":503,"tY":357,"tags":{"email":"contact@camping-lesgoelands.com","name":"Les Goëlands","source":"cadastre-dgi-fr source : Direction Générale des Impôts - Cadastre. Mise à jour : 2011","stars":"2","website":"https://www.camping-lesgoelands.com/"}},"122161086":{"location":[47.595078,-3.0641326],"ct":"FR","tp":"CS","ts":"2019-11-18T07:53:44Z","tX":503,"tY":357,"tags":{"name":"Domaine de Kermario","name:br":"Domani Kervarioù","source:name:br":"proper translation"}},"155699474":{"location":[47.6146411,-3.1590323],"ct":"FR","tp":"CR","ts":"2024-09-26T15:37:12Z","tX":503,"tY":357,"tags":{"addr:city":"Erdeven","addr:postcode":"56410","addr:street":"Boulevard de l'Atlantique","caravan_site":"motorhome_stopover","caravan_site:type":"beach","caravans":"no","charge":"15.30 EUR","email":"mairieaccueil@erdeven.fr","fee":"yes","name":"Erdeven - Aire de Kerhillio","name:nl":"Camperplaats Ederven","operator":"Mairie","permanent_camping":"yes","phone":"+33 2 97 55 64 62","power_supply":"yes","sanitary_dump_station":"yes","tents":"no","website":"http://www.erdeven.fr/fr/information/108252/aire-campings-cars"}},"155781169":{"location":[47.6117285,-3.1620807],"ct":"FR","tp":"CS","ts":"2023-08-07T20:33:48Z","tX":503,"tY":357,"tags":{"caravans":"yes","name":"Camping municipal de Kerhillio","opening_hours":"Jun-Sep","operator":"Munucipal Erdeven","phone":"+33 2 97 55 69 23","sanitary_dump_station":"yes","stars":"1","tents":"yes","website":"http://www.erdeven.fr/fr/information/72395/camping-municipal"}},"160935568":{"location":[47.6549108,-3.135156],"ct":"FR","tp":"CS","ts":"2024-06-26T17:19:39Z","tX":503,"tY":357,"tags":{"Price":"€19-23 2016","addr:city":"Belz","addr:housenumber":"89","addr:postcode":"56550","addr:street":"route de Keryargon","email":"cnbs56@gmail.com","internet_access":"yes","internet_access:fee":"no","name":"La Pinède","nudism":"yes","opening_hours":"jun 15-sep 15","operator":"Club","phone":"+33 2 97 55 61 55","website":"https://www.cnbs56.com/"}},"173319172":{"location":[47.5986019,-3.1150392],"ct":"FR","tp":"PK","ts":"2024-08-31T10:56:45Z","tX":503,"tY":357,"tags":{"access":"yes","maxweight":"3.5","motorhome":"yes","name":"Aires de camping car Plouharnel","parking":"surface","wikimedia_commons":"File:Plouharnel - motorhome parking (48590757637).jpg"}},"173828718":{"location":[47.6141816,-2.9265352],"ct":"FR","tp":"CS","ts":"2022-07-01T13:37:45Z","tX":503,"tY":357,"tags":{"caravans":"yes","email":"info@camping-baden.com","fax":"+33 2 97 57 15 43","fee":"yes","internet_access":"no","name":"Mané Guernehué","name:br":"Mane ar Gernevez","opening_hours":"Apr-Sep","phone":"+33 2 97 57 02 06","source:name:br":"proper translation","stars":"4","swimming_pool":"covered","tents":"yes","website":"https://www.camping-baden.com/"}},"175200545":{"location":[47.6436967,-2.9366356],"ct":"FR","tp":"CS","ts":"2024-11-30T22:51:41Z","tX":503,"tY":357,"tags":{"addr:housenumber":"52","addr:street":"Rue Thiers","cabins":"yes","caravans":"yes","fee":"yes","mobile":"+33 7 88 00 79 47","name":"Camping du Parc Lann","name:br":"Tachenn-gampiñ Park Lann","opening_hours":"May-Sep","phone":"+33 2 97 57 93 93","shower":"yes","source:name:br":"ofis publik ar brezhoneg","tents":"yes","toilets":"yes","website":"https://www.campingduparclann.fr/"}},"175796351":{"location":[47.6983498,-2.9620556],"ct":"FR","tp":"CS","ts":"2025-01-06T13:59:27Z","tX":503,"tY":357,"tags":{"addr:street":"Allée des Pins","internet_access":"no","name":"Camping municipal du Motten","name:br":"Tachenn-gampiñ kê","opening_hours":"Jul 01 - Aug 29","phone":"+33 2 97 57 60 27","source:name:br":"ofis publik ar brezhoneg","stars":"2","website":"https://campingmotten.wixsite.com/campingsteannedauray"}},"180501857":{"location":[47.5401858,-3.1335449],"ct":"FR","tp":"CS","ts":"2020-11-01T16:53:37Z","tX":503,"tY":357,"tags":{"name":"Camping municipal de Kerhostin","name:br":"Tachenn-gampiñ Kêr Kerhostin","source:name:br":"proper translation","stars":"2"}},"180742434":{"location":[47.6078592,-2.8740712],"ct":"FR","tp":"CS","ts":"2024-12-18T11:34:25Z","tX":503,"tY":357,"tags":{"capacity:caravans":"72","caravans":"yes","email":"pennmar@vacances-andretrigano.com","fee":"yes","motor_vehicle":"no","name":"Camping de Penn Mar","opening_hours":"Apr-Sep","phone":"+33297574990","stars":"3","tents":"yes","website":"https://vacances-andretrigano.com/camping/morbihan/penn-mar-baden"}},"180751292":{"location":[47.6065648,-2.8732222],"ct":"FR","tp":"CR","ts":"2024-12-18T11:34:25Z","tX":503,"tY":357,"tags":{"capacity":"50","caravan_site":"motorhome_stopover","caravan_site:type":"coastal","charge":"15.25 EUR","charge:conditional":"11.35 EUR @(Nov-Mar); 13.65 @(Apr,Jun,Sep,Oct)","drinking_water":"yes","fee":"yes","name":"Aire des Iles","power_supply":"yes","sanitary_dump_station":"yes","shower":"yes","toilets":"yes","water_point":"yes","website":"https://www.airedesiles.fr/"}},"181229945":{"location":[47.6247529,-2.8258427],"ct":"FR","tp":"CS","ts":"2023-12-23T18:29:32Z","tX":503,"tY":357,"tags":{"addr:city":"Arradon","addr:postcode":"56610","addr:street":"Rue de la mairie","backcountry":"no","caravans":"yes","drinking_water":"yes","fee":"yes","internet_access":"wlan","internet_access:ssid":"WIFI CAMPING MINICIPAL","name":"Camping municipal Park Priol","name:br":"Tachad-kampiñ kêr Park Priol","nudism":"no","opening_hours":"Jun-Sep","operator":"Ville d'Arradon","phone":"+33 2 97 44 01 56","power_supply":"yes","source":"Mairie","stars":"2","tents":"yes","washing_machine":"yes","website":"http://www.camping-parcpriol.com/"}},"181231992":{"location":[47.6220732,-2.8398037],"ct":"FR","tp":"CS","ts":"2024-12-18T23:09:08Z","tX":503,"tY":357,"tags":{"capacity:caravans":"162","caravans":"yes","fee":"yes","name":"Camping de l'Allée","opening_hours":"Apr-Sep","phone":"+33 2 97 44 01 98","stars":"3","swimming_pool":"covered","tents":"yes","website":"https://www.camping-allee.com/"}},"181914633":{"location":[47.593464,-2.8442872],"ct":"FR","tp":"CS","ts":"2025-02-12T14:05:38Z","tX":503,"tY":357,"tags":{"capacity:caravans":"41","caravans":"yes","fee":"yes","name":"Camping du Vieux Moulin","name:br":"Tachenn-gampiñ Ar Gozh Velin","opening_hours":"Apr-Sep","operator":"Commune Ile aux Moines","phone":"+33 2 97263068","source":"cadastre-dgi-fr source : Direction Générale des Impôts - Cadastre. Mise à jour : 2010","stars":"2","tents":"yes","website":"https://www.mairie-ileauxmoines.fr/tourisme-services/camping-municipal/"}},"198363951":{"location":[47.6657235,-2.9901868],"ct":"FR","tp":"PK","ts":"2024-04-16T12:35:51Z","tX":503,"tY":357,"tags":{"bus":"yes","motorhome":"yes","parking":"street_side"}},"222547862":{"location":[47.6023251,-3.0384349],"ct":"FR","tp":"CS","ts":"2019-11-18T07:53:44Z","tX":503,"tY":357,"tags":{"email":"ebideau@camping-kervilor.com","fax":"+33297558726","internet_access":"wlan","name":"Camping Kervilor","name:br":"Tachenn-gampiñ Kervilor","phone":"+33297557675","source:name:br":"proper translation","stars":"4","website":"https://www.camping-kervilor.com/"}},"222608573":{"location":[47.6431847,-3.0527928],"ct":"FR","tp":"CS","ts":"2024-08-21T22:32:57Z","tX":503,"tY":357,"tags":{"name":"Camping de Kergo","stars":"3","website":"https://www.campingkergo.com"}},"222818310":{"location":[47.57736,-3.069634],"ct":"FR","tp":"CS","ts":"2023-07-30T11:39:33Z","tX":503,"tY":357,"tags":{"name":"Camping des Menhirs","name:br":"Tachenn-gampiñ ar Mein-hir","phone":"+33 2 97522538","source:name:br":"proper translation","stars":"4","website":"https://lesmenhirs.com/","wikidata":"Q118555626"}},"228706015":{"location":[47.6026823,-3.0785861],"ct":"FR","tp":"CS","ts":"2023-03-16T21:39:24Z","tX":503,"tY":357,"tags":{"caravans":"yes","email":"contact@camping-les-ombrages.fr","mobile":"+33 6 11 27 87 24","name":"Les Ombrages","phone":"+33 2 97 52 16 52","shower":"yes","tents":"yes","toilets":"yes","website":"https://www.camping-les-ombrages.fr/"}},"228706016":{"location":[47.6008873,-3.0830024],"ct":"FR","tp":"CS","ts":"2023-03-16T21:39:24Z","tX":503,"tY":357,"tags":{"caravans":"yes","email":"contact@camping-etang.fr","name":"l’Etang","phone":"+33 2 97 52 14 06","shower":"yes","tents":"yes","toilets":"yes","website":"https://www.camping-etang.fr/"}},"229078358":{"location":[47.5790314,-3.0589807],"ct":"FR","tp":"CS","ts":"2021-11-17T15:39:09Z","tX":503,"tY":357,"tags":{"name":"Les Druides","stars":"3","website":"https://www.camping-les-druides.com/"}},"231174886":{"location":[47.5862568,-3.0736339],"ct":"FR","tp":"PK","ts":"2024-10-06T20:21:55Z","tX":503,"tY":357,"tags":{"caravans":"yes","fee":"no"}},"231178725":{"location":[47.5786189,-2.9753192],"ct":"FR","tp":"CS","ts":"2023-05-17T08:58:11Z","tX":503,"tY":357,"tags":{"caravans":"yes","fee":"yes","mobile":"+33 6 42 22 29 69","name":"Camping Lann Brick","phone":"+33 2 97 57 32 79","stars":"3","tents":"yes","website":"https://www.camping-lannbrick.com/"}},"231178729":{"location":[47.5793209,-2.9782171],"ct":"FR","tp":"CS","ts":"2023-05-17T08:58:11Z","tX":503,"tY":357,"tags":{"capacity:caravans":"44","caravans":"yes","fee":"yes","name":"Camping de La Tour","opening_hours":"Apr-Sep","phone":"+33 2 97 57 40 62","stars":"2","tents":"yes","website":"https://www.camping-delatour.com/"}},"239848541":{"location":[47.596267,-3.078329],"ct":"FR","tp":"CS","ts":"2018-08-25T20:17:04Z","tX":503,"tY":357,"tags":{"addr:housenumber":"13","addr:postcode":"56340","addr:street":"Allée des Alouettes","capacity":"107","fee":"yes","internet_access":"wlan","internet_access:fee":"yes","name":"Kerabus","website":"https://www.camping-kerabus.com/","wheelchair":"yes"}},"242509945":{"location":[47.6439795,-2.8996612],"ct":"FR","tp":"CS","ts":"2023-04-10T14:43:37Z","tX":503,"tY":357,"tags":{"caravans":"yes","fee":"yes","internet_access":"yes","mobile":"+33 6 16 30 08 33","name":"Camping la Fontaine du Hallate en Morbihan","opening_hours":"Apr-Oct","stars":"2","tents":"yes","website":"https://camping-morbihan.bzh/","wheelchair":"yes"}},"262556103":{"location":[47.5578453,-3.1300517],"ct":"FR","tp":"CS","ts":"2024-08-08T18:11:24Z","tX":503,"tY":357,"tags":{"caravans":"yes","drinking_water":"yes","name":"Camping municipal de Penthièvre","power_supply":"yes","sanitary_dump_station":"yes","shower":"yes","tents":"yes","toilets":"yes"}},"280250976":{"location":[47.6644716,-3.099236],"ct":"FR","tp":"CS","ts":"2024-08-21T22:32:57Z","tX":503,"tY":357,"tags":{"barrier":"fence","name":"Saint-Laurent","name:br":"Sant Laorañs","source:name:br":"proper translation","stars":"3","website":"https://www.camping-saint-laurent.fr","wheelchair":"limited"}},"289692587":{"location":[47.6312684,-3.1499737],"ct":"FR","tp":"CS","ts":"2024-09-07T15:06:22Z","tX":503,"tY":357,"tags":{"cabins":"yes","caravans":"yes","drinking_water":"yes","email":"info@camping-kerzerho.com","name":"Camping Kerzerho","phone":"+33 2 97 55 63 17","power_supply":"yes","shower":"yes","tents":"yes","toilets":"yes","website":"https://www.camping-kerzerho.com/"}},"340708929":{"location":[47.593249,-2.9043419],"ct":"FR","tp":"CS","ts":"2024-12-17T17:58:05Z","tX":503,"tY":357,"tags":{"cabins":"yes","capacity:pitches":"100","caravans":"yes","fee":"yes","mobile":"+33 6 73 42 46 09","motorhome":"yes","name":"Le Diben","opening_hours":"May-Sep","phone":"+33 2 97 57 29 12","shower":"yes","stars":"3","swimming_pool":"heated","tents":"yes","toilets":"yes","website":"https://www.campinglediben.com/"}},"362714795":{"location":[47.5821154,-3.05569],"ct":"FR","tp":"CS","ts":"2021-11-17T14:53:57Z","tX":503,"tY":357,"tags":{"name":"Le Dolmen","name:br":"Tachenn-gampiñ An Daol-Vaen","source:name:br":"proper translation","website":"https://www.campingledolmen.com"}},"365054167":{"location":[47.5926936,-2.9072974],"ct":"FR","tp":"CS","ts":"2024-12-17T17:58:05Z","tX":503,"tY":357,"tags":{"caravans":"yes","fee":"yes","internet_access":"wlan","name":"Ker Eden","opening_hours":"May-Sep","payment:cheques_vacances":"yes","phone":"+33 2 97 57 05 23","swimming_pool":"heated","tents":"yes","website":"https://camping-larmorbaden.com/"}},"421614129":{"location":[47.5748193,-3.0300809],"ct":"FR","tp":"CS","ts":"2023-08-02T15:57:26Z","tX":503,"tY":357,"tags":{"capacity:caravans":"118","caravans":"yes","fee":"yes","name":"Camping de la plage","opening_hours":"May-Sep","phone":"+33 2 97 55 73 28","stars":"4","tents":"yes","website":"https://www.camping-plage.com/"}},"436272581":{"location":[47.5957539,-3.06124],"ct":"FR","tp":"CS","ts":"2016-08-08T17:32:19Z","tX":503,"tY":357,"tags":{"name":"Le Moulin de Kermaux"}},"458610523":{"location":[47.6022008,-3.0365915],"ct":"FR","tp":"CS","ts":"2019-11-18T07:53:44Z","tX":503,"tY":357,"tags":{"name":"Kervilor","name:br":"Kervilor","source":"survey","source:name:br":"ofis publik ar brezhoneg"}},"496493937":{"location":[47.6099045,-3.029148],"ct":"FR","tp":"CS","ts":"2022-08-27T09:05:14Z","tX":503,"tY":357,"tags":{"capacity:caravans":"132","caravans":"yes","fee":"yes","internet_access":"wlan","internet_access:fee":"no","name":"Camping Le Lac","opening_hours":"Apr-Sep","phone":"+33 2 97 55 78 78","sanitary_dump_station":"customers","stars":"3","swimming_pool":"heated","tents":"yes","website":"https://www.lelac-carnac.com/","wheelchair":"yes"}},"501211953":{"location":[47.5795514,-3.0528125],"ct":"FR","tp":"CS","ts":"2021-11-17T14:43:31Z","tX":503,"tY":357,"tags":{"addr:housenumber":"22 bis","addr:street":"Chemin de Beaumer","name":"Camping le Men-Du **","name:br":"Tachenn-gampiñ Ar Mein Du","phone":"+33297520423","source:name:br":"proper translation","stars":"2","website":"http://www.camping-mendu.net/tarifs/"}},"501211954":{"location":[47.5784365,-3.0529319],"ct":"FR","tp":"CS","ts":"2024-06-26T17:19:40Z","tX":503,"tY":357,"tags":{"addr:housenumber":"2","addr:street":"Impasse des Gabelous","caravans":"yes","mobile":"+33 6 31 65 00 75","name":"Camping de l'océan","name:br":"Tachenn-gampiñ ar Mor-bras","opening_hours":"Apr-Oct","phone":"+33 2 97520398","source:name:br":"proper translation","tents":"yes","website":"https://camping-delocean.com/"}},"501213309":{"location":[47.5894525,-3.0444119],"ct":"FR","tp":"CS","ts":"2023-08-02T20:04:35Z","tX":503,"tY":357,"tags":{"name":"Plijadur"}},"507843678":{"location":[47.5330117,-3.1395158],"ct":"FR","tp":"CS","ts":"2021-07-31T09:10:16Z","tX":503,"tY":357,"tags":{"addr:street":"Avenue de Groix","name":"Camping de l'océan / Relais saint Joseph","name:br":"Tachenn-gampiñ ar Meurvor","phone":"+33297309129","source:name:br":"proper translation","stars":"2"}},"511735703":{"location":[47.6019483,-3.0687394],"ct":"FR","tp":"CS","ts":"2022-04-17T09:21:54Z","tX":503,"tY":357,"tags":{"name":"Le Rosnual","name:br":"Rosnual","source:name:br":"ofis publik ar brezhoneg"}},"511735705":{"location":[47.6095319,-3.0677014],"ct":"FR","tp":"CS","ts":"2017-07-31T12:00:02Z","tX":503,"tY":357,"tags":{"name":"Moustoir","stars":"4"}},"560029097":{"location":[47.5738279,-2.95721],"ct":"FR","tp":"CS","ts":"2022-08-27T09:05:14Z","tX":503,"tY":357,"tags":{"capacity:caravans":"24","caravans":"yes","fee":"yes","name":"La Ferme Fleurie","phone":"+33 2 97 57 34 06","tents":"yes","website":"https://camping-lafermefleurie.fr/"}},"636400677":{"location":[47.5601641,-2.8777293],"ct":"FR","tp":"CS","ts":"2022-08-27T09:05:14Z","tX":503,"tY":357,"tags":{"addr:street":"Rue de la Pointe","capacity:caravans":"40","caravans":"yes","email":"campingbilouris@gmail.com","fee":"yes","internet_access":"wlan","name":"Camping de Bilouris","opening_hours":"Apr-Sep: Mo-Su 10:00-12:00, 16:00-19:00","phone":"+33297537055","stars":"3","tents":"yes","website":"https://campingdebilouris.com/"}},"639224814":{"location":[47.5236487,-2.8585356],"ct":"FR","tp":"CS","ts":"2022-08-27T09:05:14Z","tX":503,"tY":357,"tags":{"capacity:caravans":"128","caravans":"yes","fee":"yes","name":"Camping du Kerver","name:br":"Kampva Kerver","phone":"+33 2 97 45 21 21","tents":"yes","website":"https://www.campingkerver.com/"}},"656751499":{"location":[47.6322683,-3.1606964],"ct":"FR","tp":"CS","ts":"2022-04-16T10:11:19Z","tX":503,"tY":357,"tags":{"name":"Parc Foenn","name:br":"Park Foenn","source:name:br":"proper translation","stars":"2"}},"656751501":{"location":[47.6324158,-3.1590519],"ct":"FR","tp":"CS","ts":"2024-04-25T20:53:22Z","tX":503,"tY":357,"tags":{"name":"La Croez Villieu","stars":"3"}},"660983785":{"location":[47.5642969,-2.9676966],"ct":"FR","tp":"CS","ts":"2022-08-27T09:05:14Z","tX":503,"tY":357,"tags":{"addr:housenumber":"2","addr:street":"Route de Saint-Pierre","caravans":"yes","fee":"yes","name":"Camping de Saint-Pierre","opening_hours":"May-Sep","phone":"+33 2 97 57 30 48","tents":"yes","website":"https://www.camping-saint-pierre.com"}},"665357476":{"location":[47.5437116,-2.9087885],"ct":"FR","tp":"CS","ts":"2022-08-27T09:05:14Z","tX":503,"tY":357,"tags":{"addr:housenumber":"20","addr:street":"Chemin du Toulassais","camp_site":"basic","capacity:caravans":"199","caravans":"yes","fee":"yes","landcover":"grass","name":"Camping Port Sable - Port Navalo","opening_hours":"Apr-Sep","phone":"+33 2 97 53 71 98","tents":"yes","website":"https://www.camping-arzon.fr"}},"667622976":{"location":[47.528618,-2.8487818],"ct":"FR","tp":"CS","ts":"2024-11-07T16:13:03Z","tX":503,"tY":357,"tags":{"capacity:caravans":"128","caravans":"yes","fee":"yes","mobile":"+33 7 82 59 87 60","name":"Du Menhir","name:br":"Ar Peulvan","phone":"+33 297452288","stars":"4","swimming_pool":"heated","tents":"yes","website":"https://www.campingdumenhir.com/"}},"667630552":{"location":[47.5546209,-2.8835584],"ct":"FR","tp":"CS","ts":"2024-08-07T08:57:29Z","tX":503,"tY":357,"tags":{"addr:housenumber":"2","addr:street":"Rue de Bilouris","camp_site":"basic","capacity:caravans":"172","caravans":"yes","drinking_water":"yes","fee":"yes","name":"Camping municipal Le Tindio","opening_hours":"Apr-Oct","phone":"+33 2 97 53 75 59","power_supply":"yes","shower":"yes","stars":"3","static_caravans":"yes","tents":"yes","toilets":"yes","website":"https://www.camping-golfedumorbihan.com/"}},"668408686":{"location":[47.5357131,-2.8734149],"ct":"FR","tp":"CR","ts":"2024-10-08T10:23:18Z","tX":503,"tY":357,"tags":{"caravan_site":"motorhome_stopover","caravan_site:type":"river","caravans":"no","fee":"yes","name":"Hovia Arzon","power_supply":"yes","sanitary_dump_station":"no","surface":"grass","tents":"no","water_supply":"yes","website":"https://esatarzon.hovia.fr/nos-activites-commerciales/camping-100-places/?doing_wp_cron=1728382914.3850710391998291015625"}},"708951255":{"location":[47.7446862,-3.0913756],"ct":"FR","tp":"CS","ts":"2023-10-25T09:53:38Z","tX":503,"tY":357,"tags":{"internet_access":"wlan","name":"Pied à terre","phone":"+33 2 97 24 52 70","website":"https://www.lepiedaterre.net/","wheelchair":"yes"}},"845070625":{"location":[47.6642226,-2.9733666],"ct":"FR","tp":"CR","ts":"2024-10-30T23:36:00Z","tX":503,"tY":357,"tags":{"access":"yes","caravan":"only","caravan_site":"motorhome_stopover","caravan_site:type":"village","caravans":"no","fee":"yes","name":"Aire Chemin de Bellevue Saint-Goustan - Auray","picnic_table":"yes","power_supply":"yes","seasonal":"no","shower":"yes","surface":"asphalt","tents":"no","water_point":"yes"}},"847081949":{"location":[47.6427397,-3.0511126],"ct":"FR","tp":"CS","ts":"2020-10-05T01:26:44Z","tX":503,"tY":357,"tags":{"contact:email":"bonjour@labellefolie.fr","contact:phone":"+33 2 97 06 02 38","contact:website":"https://labellefolie.fr","name":"La Belle Folie"}},"871626110":{"location":[47.6270496,-3.1462138],"ct":"FR","tp":"CS","ts":"2023-08-27T14:58:57Z","tX":503,"tY":357,"tags":{"caravans":"yes","email":"campingdesmegalithes@orange.fr","name":"Camping des Mégalithes","phone":"+33 297556876","shower":"yes","tents":"yes","toilets":"yes","website":"http://campingdesmegalithes.fr/"}},"884824005":{"location":[47.5414741,-2.8176042],"ct":"FR","tp":"CR","ts":"2024-09-23T12:51:32Z","tX":503,"tY":357,"tags":{"capacity":"7","caravan_site":"motorhome_stopover","caravan_site:type":"village","caravans":"no","charge":"5.60 EUR","fee":"yes","maxstay":"48 hours","name":"Aire de stationnement de Brillac","opening_hours":"24/7","power_supply":"no","sanitary_dump_station":"no","surface":"asphalt","tents":"no","water_point":"no","website":"https://www.golfedumorbihan.bzh/fiche/aire-de-stationnement-de-brillac/"}},"907279319":{"location":[47.5221965,-2.8585227],"ct":"FR","tp":"CR","ts":"2025-02-11T15:36:09Z","tX":503,"tY":357,"tags":{"capacity":"35","caravan_site":"motorhome_stopover","caravan_site:type":"beach","charge":"10 EUR","check_in":"12:00","check_out":"12:00","fee":"yes","name":"Aire de Camping-Car municipale du Kerver","opening_hours":"May-Sep 00:00-24:00; 24/7","sanitary_dump_station":"yes","website":"https://www.golfedumorbihan.bzh/fiche/aire-de-stationnement-du-kerver/"}},"911469937":{"location":[47.7191234,-3.0018813],"ct":"FR","tp":"CR","ts":"2024-10-17T14:00:36Z","tX":503,"tY":357,"tags":{"access":"yes","addr:city":"Brech","addr:postcode":"56400","addr:street":"Rue du Pont Douar","capacity":"2","caravan_site":"motorhome_stopover","caravan_site:type":"lake","description":"Aire de camping-car.","fee":"no","internet_access":"no","maxstay":"no","name":"Aire de camping-car de Pont Douar","operator":"Ville de Brech","power_supply":"no","sanitary_dump_station":"yes","sanitary_dump_station:chemical_toilet":"yes","sanitary_dump_station:grey_water":"yes","sanitary_dump_station:round_drain":"yes","seasonal":"no","supervised":"no","toilets":"no","water_point":"yes","website":"https://www.baiedequiberon.bzh/preparer-son-sejour-en-baie-de-quiberon/ou-dormir/aires-de-camping-cars-en-baie-de-quiberon/aire-de-camping-car-de-pont-douar","wheelchair":"yes","wikidata":"Q116766258","wikimedia_commons":"Category:Aire de camping-car de Pont Douar"}},"911475750":{"location":[47.6041566,-2.9966356],"ct":"FR","tp":"CR","ts":"2024-10-25T22:20:41Z","tX":503,"tY":357,"tags":{"access":"yes","addr:city":"Crac'h","addr:postcode":"56400","addr:street":"Kerdreven","capacity":"5","caravan_site":"motorhome_stopover","caravan_site:type":"supermarket","fee":"no","maxstay":"no","name":"Crac'h - Kerdreven","operator":"Intermarché","power_supply":"yes","sanitary_dump_station":"yes","sanitary_dump_station:chemical_toilet":"yes","sanitary_dump_station:grey_water":"no","sanitary_dump_station:round_drain":"no","supervised":"no","surface":"asphalt","water_point":"yes"}},"968844370":{"location":[47.524639,-3.1449571],"ct":"FR","tp":"CS","ts":"2021-07-30T14:59:31Z","tX":503,"tY":357,"tags":{"name":"Le Port Blanc"}},"972320949":{"location":[47.6005399,-3.1225875],"ct":"FR","tp":"CS","ts":"2022-08-27T09:05:14Z","tX":503,"tY":357,"tags":{"email":"contact@campingdelalande.com","fixme":"Tentes et caravanes acceptées ?","name":"Camping La Lande","name:br":"Tacehnn-gampiñ ar Lann","opening_hours":"Jun-Sep","phone":"+33 2 97 52 31 48","source:name:br":"proper translation","stars":"2","website":"https://www.campingdelalande.com/"}},"1010943184":{"location":[47.6995402,-2.9627023],"ct":"FR","tp":"CR","ts":"2024-08-16T13:27:27Z","tX":503,"tY":357,"tags":{"capacity":"19","caravan_site":"motorhome_stopover","caravan_site:type":"village","charge":"13.20 EUR","charge:conditional":"10.20 EUR @ (Oct-May)","fee":"yes","fixme":"emplacement à préciser","name":"Aire camping-car Sainte-Anne d’Auray","opening_hours":"24/7","payment:mastercard":"yes","payment:visa":"yes","power_supply":"yes","reservation":"yes"}},"1015814560":{"location":[47.599426,-2.8657866],"ct":"FR","tp":"CR","ts":"2024-10-11T20:07:37Z","tX":503,"tY":357,"tags":{"addr:city":"Baden","addr:street":"Route de Port Jakez","capacity":"30","caravan_site":"motorhome_stopover","caravan_site:type":"coastal","drinking_water":"no","fee":"no","internet_access":"no","name":"Aire Route de Port Jakez","power_supply":"no","sanitary_dump_station":"no","surface":"grass","toilets":"no","website":"https://www.golfedumorbihan.bzh/fiche/aire-route-de-port-jakez/?geol"}},"1107909114":{"location":[47.5994603,-3.1206548],"ct":"FR","tp":"CS","ts":"2021-08-18T17:14:49Z","tX":503,"tY":357,"tags":{"name":"Camping à la Ferme"}},"1144431064":{"location":[47.7192809,-3.0014517],"ct":"FR","tp":"SD","ts":"2023-02-12T17:27:13Z","tX":503,"tY":357,"tags":{"description":"Station de vidange pour Camping-car.","fee":"no","operator":"Ville de Brech","sanitary_dump_station:chemical_toilet":"yes","sanitary_dump_station:grey_water":"yes","sanitary_dump_station:round_drain":"yes","water_point":"yes"}},"1173898215":{"location":[47.588691,-3.0139533],"ct":"FR","tp":"CS","ts":"2023-05-18T09:18:06Z","tX":503,"tY":357,"tags":{"addr:hamlet":"Lieu-dit Kernivilit","addr:housenumber":"2","capacity:caravans":"32","caravans":"yes","fee":"yes","name":"Camping Les Palmiers","name:br":"Tachenn-gampiñ ar Palmez","opening_hours":"Apr-Oct","phone":"+33 2 97550117","power_supply":"yes","source:name:br":"proper translation","swimming_pool":"heated","tents":"yes","website":"https://www.campinglespalmiers.com/"}},"1175719465":{"location":[47.6149466,-2.9880506],"ct":"FR","tp":"CS","ts":"2023-05-24T16:44:15Z","tX":503,"tY":357,"tags":{"name":"Camping du Fort Espagnol"}},"1175982560":{"location":[47.5732369,-3.0256686],"ct":"FR","tp":"CS","ts":"2023-05-25T18:45:31Z","tX":503,"tY":357,"tags":{"addr:street":"Rue de Kervillen","capacity:caravans":"167","caravans":"yes","fee":"yes","name":"Camping de la Baie","opening_hours":"May-Sep","phone":"+33 297557342","tents":"yes","website":"https://www.campingdelabaie.com/"}},"1193307851":{"location":[47.5811749,-3.0824076],"ct":"FR","tp":"CS","ts":"2023-07-30T11:39:33Z","tX":503,"tY":357,"tags":{"name":"Les Salines"}},"1233584725":{"location":[47.6246579,-2.827444],"ct":"FR","tp":"CR","ts":"2024-05-17T20:41:04Z","tX":503,"tY":357,"tags":{"bbq":"no","capacity":"49","caravan_site":"motorhome_stopover","caravan_site:type":"village","caravans":"no","charge":"15.10 EUR","charge:conditional":"12.80 EUR @ (Oct-Apr)","dog":"leashed","fee":"yes","maxlength":"none","name":"Aire d'Arradon","network":"CAMPING-CAR PARK","opening_hours":"24/7","operator":"Camping-Car Park","power_supply":"yes","reservation":"yes","sanitary_dump_station":"customers","tents":"no","trailer":"yes","website":"https://www.campingcarpark.com/fr_FR/sejour/aire-etape-camping-car/bretagne/56-morbihan/arradon"}},"1233853171":{"location":[47.5555014,-2.9406264],"ct":"FR","tp":"CR","ts":"2024-10-07T12:29:33Z","tX":503,"tY":357,"tags":{"capacity":"41","caravan_site":"motorhome_stopover","caravan_site:type":"beach","caravans":"no","charge":"18.20 EUR","charge:conditional":"11 EUR @ (Sep-Jun)","fee":"yes","maxlength":"9","maxstay":"Mar 15-Oct 15: 72 hours; Oct 16-Mar 14: 7 days","maxweight":"7.5","name":"Aire de Camping-Cars La Falaise - Locmariaquer","opening_hours":"24/7","phone":"+33 6 45 75 25 92","power_supply":"yes","sanitary_dump_station":"yes","seasonal":"no","surface":"grass_paver","tents":"no","water_point":"yes","wheelchair":"yes"}},"1266217031":{"location":[47.5955489,-3.0773118],"ct":"FR","tp":"CR","ts":"2024-03-25T17:21:16Z","tX":503,"tY":357,"tags":{"addr:street":"Kerabus","caravan_site":"motorhome_stopover","caravan_site:type":"parking_lot","fee":"no","motor_vehicle:conditional":"no@(20:00-09:00)","motorhome":"designated","name":"Parking de Kérabus et zone de stationnement des camping-cars","tents":"no","website":"https://www.carnac.fr/Annuaire-des-services-et-equipements/Parking-de-Kerabus-et-zone-de-stationnement-des-camping-cars"}},"1317711669":{"location":[47.6658836,-2.9900189],"ct":"FR","tp":"CR","ts":"2024-09-23T22:28:34Z","tX":503,"tY":357,"tags":{"caravan_site":"motorhome_stopover","caravan_site:type":"town","caravans":"no","fee":"no","name":"Aire Communale Auray","power_supply":"no","sanitary_dump_station:chemical_toilet":"yes","sanitary_dump_station:grey_water":"no","surface":"asphalt","tents":"no","water_point":"yes","website":"https://www.sainte-anne-auray.com/aire-de-camping-car/"}},"1327985235":{"location":[47.5433053,-2.8794156],"ct":"FR","tp":"CR","ts":"2024-10-24T23:17:25Z","tX":503,"tY":357,"tags":{"access":"yes","caravan_site":"motorhome_stopover","caravan_site:type":"village","fee":"yes","motorhome":"designated","name":"Aire du Sanso","name:br":"Parklec'h ar Sañso","opening_hours":"Apr-Sep","power_supply":"no","sanitary_dump_station":"no","surface":"grass","tents":"no","water_point":"no","website":"https://www.golfedumorbihan.co.uk/fiche/aire-de-stationnement-du-sanso-en/"}},"3059290934":{"location":[47.6118992,-3.1512451],"ct":"FR","tp":"CS","ts":"2014-09-04T13:44:17Z","tX":503,"tY":357,"tags":{"name":"Keravel"}},"4389488091":{"location":[47.5958312,-2.9977247],"ct":"FR","tp":"CS","ts":"2022-08-27T09:05:14Z","tX":503,"tY":357,"tags":{"addr:housenumber":"22","addr:street":"Route de la Trinité sur mer, lieu dit le congre","capacity:caravans":"86","caravans":"yes","fee":"yes","name":"Camping L'Evasion","phone":"+33297550490","swimming_pool":"covered","tents":"yes","website":"https://www.campinglevasion.com/"}},"7448719523":{"location":[47.7509436,-3.0197774],"ct":"FR","tp":"CS","ts":"2025-02-03T11:00:02Z","tX":503,"tY":357,"tags":{"alt_name":"Camping la Clé des Prés et des Roulottes","cabins":"yes","caravans":"no","mobile":"+33 6 72 92 36 86","name":"La Clé des Roulottes","tents":"no","toilets":"yes","website":"https://la-cle-des-roulottes.com/","wheelchair":"yes"}},"8463283432":{"location":[47.6639353,-2.973336],"ct":"FR","tp":"SD","ts":"2024-10-30T23:36:00Z","tX":503,"tY":357,"tags":{"access":"yes","fee":"no","operator":"Ville de Auray","sanitary_dump_station:chemical_toilet":"yes","sanitary_dump_station:grey_water":"yes","sanitary_dump_station:round_drain":"yes","water_point":"yes"}},"8463288804":{"location":[47.6041192,-2.9968154],"ct":"FR","tp":"SD","ts":"2021-11-20T14:40:26Z","tX":503,"tY":357,"tags":{"description":"Station de vidange pour Camping-car. Eau de rinçage disponible que si les eau claire ont été payé (2€/10min)","fee":"yes","operator":"Intermarché","sanitary_dump_station:chemical_toilet":"yes","sanitary_dump_station:grey_water":"no","sanitary_dump_station:round_drain":"no","water_point":"yes"}},"9169996643":{"location":[47.5225103,-2.8584754],"ct":"FR","tp":"SD","ts":"2021-10-13T16:09:15Z","tX":503,"tY":357,"tags":{}},"9326869349":{"location":[47.6996106,-2.9629952],"ct":"FR","tp":"SD","ts":"2025-01-06T13:36:51Z","tX":503,"tY":357,"tags":{"access":"yes","charge":"3","fee":"yes","opening_hours":"24/7","sanitary_dump_station:basin":"yes"}},"9890058963":{"location":[47.5952502,-3.0963925],"ct":"FR","tp":"SD","ts":"2022-07-15T15:39:54Z","tX":503,"tY":357,"tags":{}},"10019189324":{"location":[47.543839,-2.9087403],"ct":"FR","tp":"SD","ts":"2022-09-12T19:00:44Z","tX":503,"tY":357,"tags":{"access":"customers","fee":"no","opening_hours":"24/7","sanitary_dump_station:basin":"yes"}},"10019189325":{"location":[47.5441549,-2.9092674],"ct":"FR","tp":"SD","ts":"2022-09-12T19:00:44Z","tX":503,"tY":357,"tags":{"access":"customers","fee":"no","opening_hours":"24/7","sanitary_dump_station:round_drain":"yes"}},"10028104743":{"location":[47.622664,-2.8396614],"ct":"FR","tp":"SD","ts":"2022-09-15T18:44:03Z","tX":503,"tY":357,"tags":{"access":"customers","fee":"no","opening_hours":"24/7","sanitary_dump_station:basin":"yes","sanitary_dump_station:round_drain":"yes"}},"11446846297":{"location":[47.6244212,-2.8269357],"ct":"FR","tp":"SD","ts":"2023-12-23T18:29:32Z","tX":503,"tY":357,"tags":{"access":"customers","sanitary_dump_station:basin":"yes","sanitary_dump_station:round_drain":"yes"}},"11449803762":{"location":[47.5555176,-2.9399559],"ct":"FR","tp":"SD","ts":"2023-12-24T17:32:43Z","tX":503,"tY":357,"tags":{"access":"customers","fee":"no","opening_hours":"24/7","sanitary_dump_station:basin":"yes","sanitary_dump_station:round_drain":"yes"}},"11848401146":{"location":[47.6323029,-3.158888],"ct":"FR","tp":"SD","ts":"2024-04-25T20:53:22Z","tX":503,"tY":357,"tags":{"source":"Bing"}},"12096648222":{"location":[47.5534696,-2.8829334],"ct":"FR","tp":"SD","ts":"2024-08-07T08:07:04Z","tX":503,"tY":357,"tags":{}},"12195620230":{"location":[47.6655987,-2.9902527],"ct":"FR","tp":"SD","ts":"2025-01-03T07:22:39Z","tX":503,"tY":357,"tags":{"access":"yes","fee":"no","sanitary_dump_station:chemical_toilet":"yes","sanitary_dump_station:grey_water":"no"}},"12195634071":{"location":[47.5866666,-3.0031823],"ct":"FR","tp":"SD","ts":"2024-09-23T22:36:06Z","tX":503,"tY":357,"tags":{"access":"yes","opening_hours":"00:00-24:00; Sa 09:00-15:00 off","sanitary_dump_station:chemical_toilet":"yes","sanitary_dump_station:grey_water":"yes","water_point":"yes"}},"12198676462":{"location":[47.5849939,-3.0824005],"ct":"FR","tp":"SD","ts":"2024-09-25T09:28:26Z","tX":503,"tY":357,"tags":{"fee":"no","sanitary_dump_station:basin":"yes","sanitary_dump_station:round_drain":"yes"}}}