{"297437907":{"location":[43.2600946,-2.964523],"ct":"ES","tp":"CR","ts":"2024-03-26T21:21:44Z","tX":503,"tY":375,"tags":{"addr:housenumber":"33","addr:street":"Kobeta mendia","capacity":"80","caravan_site":"motorhome_stopover","caravan_site:type":"parking_lot","charge":"17 EUR","check_out":"12:00","fee":"yes","internet_access":"wlan","internet_access:fee":"no","maxstay":"48 hours","name":"Parque de Autocaravanas Kobeta / Kobeta autokarabanen parkea","name:es":"Parque de Autocaravanas Kobeta","name:eu":"Kobeta autokarabanen parkea","operator":"Bilbao Hostel","phone":"+34 94 4795760","power_supply":"yes","power_supply:charge":"4 EUR","sanitary_dump_station":"yes","supervised":"yes","surface":"grass_paver","tents":"no","toilets":"yes","water_point":"yes","website":"https://bilbaohostel.net/area-autocaravanas-bilbao/","wikimedia_commons":"Category:Kobeta motorhome stopover"}},"417899337":{"location":[43.2707404,-2.9026313],"ct":"ES","tp":"CR","ts":"2016-05-13T14:46:35Z","tX":503,"tY":375,"tags":{"name":"Aparcamiento Caravanas"}},"423131977":{"location":[43.2621055,-2.9606468],"ct":"ES","tp":"CR","ts":"2024-03-11T22:34:37Z","tX":503,"tY":375,"tags":{"capacity":"8","caravan_site":"motorhome_stopover","caravan_site:type":"parking_lot","charge":"17 EUR","fee":"yes","name":"Área de autocaravanas en Bilbao Hostel","operator":"Bilbao Hostel","power_supply":"yes","surface":"asphalt","water_point":"yes","website":"https://bilbaohostel.net/area-autocaravanas-bilbao/","wikimedia_commons":"File:Bilbao hostel motorhome stopover.jpg"}},"453299626":{"location":[43.3067942,-3.0458546],"ct":"ES","tp":"CR","ts":"2016-11-14T14:40:42Z","tX":503,"tY":375,"tags":{}},"638580974":{"location":[43.1538418,-2.9762362],"ct":"ES","tp":"CR","ts":"2024-03-25T14:56:12Z","tX":503,"tY":375,"tags":{"capacity":"13","caravans":"no","fee":"no","maxstay":"72 hours","name":"Area de Autocaravanas de Laudio/Llodio","sanitary_dump_station":"yes","sanitary_dump_station:chemical_toilet":"yes","sanitary_dump_station:grey_water":"yes","surface":"asphalt","website":"https://furgoneteate.com/area-de-autocaravanas-de-laudio/"}},"680620739":{"location":[43.2856182,-2.8652783],"ct":"ES","tp":"CR","ts":"2024-12-29T17:47:43Z","tX":503,"tY":375,"tags":{"capacity":"16","description":"También tiene vaciado de aguas negras. A fecha de Diciembre de 2024 aun no hay disponibilidad de agua potable","fee":"no","name":"Zamudioko autokarabanen eremua","power_supply":"no","sanitary_dump_station":"yes","water_supply":"yes"}},"919842562":{"location":[43.1182754,-3.1306345],"ct":"ES","tp":"CR","ts":"2024-03-25T14:57:10Z","tX":503,"tY":375,"tags":{"addr:city":"Artziniega","addr:postcode":"01474","addr:street":"A-4624","capacity":"10","caravans":"no","description":"Área de autocaravanas mixtas con estacionamiento para autos","description:fr":"Aire de camping-car mixte avec parking voiture","fee":"no","maxstay":"72 hours","name":"Área de autocaravanas La Bárcena","opening_hours":"24/7","operator":"ciudad de Artziniega","payment:description":"buy tokens at town hall, ethnographic museum, and stores","power_supply":"yes","power_supply:charge":"3 EUR/12 hours","power_supply:fee":"yes","sanitary_dump_station":"yes","sanitary_dump_station:chemical_toilet":"yes","sanitary_dump_station:grey_water":"yes","sanitary_dump_station:round_drain":"yes","supervised":"no","surface":"asphalt","water_point":"yes","website":"https://artziniegakoudala.eus/es/parking-autocaravanas"}},"1265206515":{"location":[43.2076988,-3.1305387],"ct":"ES","tp":"CR","ts":"2024-03-22T15:40:34Z","tX":503,"tY":375,"tags":{"access":"yes","addr:city":"Mimetiz","addr:postcode":"48860","addr:street":"Avenida Lanzagorta","capacity":"4","caravan_site":"motorhome_stopover","caravan_site:type":"village","covered":"no","fee":"no","maxstay":"48 hours","name":"Área de autocaravanas Zalla","opening_hours":"24/7","operator":"ciudad de Mimetiz","power_supply":"no","sanitary_dump_station":"yes","sanitary_dump_station:chemical_toilet":"yes","sanitary_dump_station:grey_water":"yes","sanitary_dump_station:round_drain":"yes","supervised":"no","surface":"asphalt","water_point":"yes"}},"8541889149":{"location":[43.2077015,-3.1303078],"ct":"ES","tp":"SD","ts":"2024-03-22T15:40:34Z","tX":503,"tY":375,"tags":{"access":"yes","fee":"no","motorhome":"designated","operator":"ciudad de Mimetiz","sanitary_dump_station":"public","sanitary_dump_station:chemical_toilet":"yes","sanitary_dump_station:grey_water":"yes","sanitary_dump_station:round_drain":"yes","water_point":"yes"}},"8541975421":{"location":[43.1182927,-3.1305333],"ct":"ES","tp":"SD","ts":"2024-03-22T15:33:02Z","tX":503,"tY":375,"tags":{"access":"yes","fee":"no","operator":"ciudad de Artziniega","sanitary_dump_station":"public","sanitary_dump_station:chemical_toilet":"yes","sanitary_dump_station:grey_water":"yes","sanitary_dump_station:round_drain":"yes","water_point":"yes"}}}