{"199231272":{"location":[41.987652,-3.0261469],"ct":"ES","tp":"CS","ts":"2020-11-03T21:09:06Z","tX":503,"tY":380,"tags":{"name":"Campamento Rodrigo Díaz"}},"481455426":{"location":[41.8363459,-3.0137623],"ct":"ES","tp":"CS","ts":"2022-03-02T14:35:39Z","tX":503,"tY":380,"tags":{"addr:city":"Navaleno","addr:postcode":"42149","addr:street":"Carretera de Sagunto a Burgos","name":"Camping Fuente del Botón","phone":"+34 975 374 338","stars":"2","website":"http://campingfuentedelboton.es/"}},"511931419":{"location":[41.9248905,-2.8756794],"ct":"ES","tp":"CS","ts":"2022-12-09T16:29:53Z","tX":503,"tY":380,"tags":{"barrier":"fence","name":"Camping Refugio de Pescadores","phone":"+34 975370166","website":"https://covaleda.com/"}},"553653027":{"location":[41.8439367,-3.1639166],"ct":"ES","tp":"CR","ts":"2024-04-15T14:02:16Z","tX":503,"tY":380,"tags":{"addr:city":"Hontoria del Pinar","addr:postcode":"09660","addr:street":"Calle Lavadero","capacity":"80","caravan_site":"motorhome_stopover","description":"Contacto Raúl. 649460215","internet_access":"yes","internet_access:fee":"no","name":"Area de Autocaravanas Cañón del Río Lobos","picnic_area":"yes","power_supply":"no","sanitary_dump_station":"yes","shower":"no","toilets":"no","water_point":"yes","website":"https://www.hontoriadelpinar.es/area-de-autocaravanas-hontoria-del-pinar-canon-del-rio-lobos","wheelchair":"yes"}},"688142411":{"location":[41.8670573,-2.898301],"ct":"ES","tp":"CS","ts":"2019-05-06T12:08:57Z","tX":503,"tY":380,"tags":{"name":"Campamento Juvenil Sotolengo"}},"861204251":{"location":[41.9528217,-2.9276536],"ct":"ES","tp":"CR","ts":"2024-03-22T02:04:15Z","tX":503,"tY":380,"tags":{"addr:city":"Duruelo de la Sierra","capacity:caravans":"16","charge:services":"1 EUR","fee":"no","name":"Área de Autocaravanas de Duruelo de la Sierra","power_supply":"no","sanitary_dump_station":"yes","shower":"no","surface":"paving_stones","toilets":"no","website":"https://www.duruelodelasierra.es/servicios"}},"1160652448":{"location":[41.9277595,-2.8833735],"ct":"ES","tp":"CR","ts":"2024-04-16T12:26:07Z","tX":503,"tY":380,"tags":{"capacity":"10","covered":"no","fee":"no","name":"Área de autocaravanas de Covaleda","opening_hours":"24/7","operator":"Ayuntamiento de Covaleda","power_supply":"no","sanitary_dump_station":"yes","sanitary_dump_station:chemical_toilet":"yes","sanitary_dump_station:grey_water":"yes","seasonal":"no","supervised":"no","surface":"fine_gravel","water_point":"yes"}},"7875663170":{"location":[41.9383049,-2.91037],"ct":"ES","tp":"CS","ts":"2020-09-04T13:30:46Z","tX":503,"tY":380,"tags":{"name":"Campamento Juvenil Raso de la Nava"}},"8997738821":{"location":[41.8664454,-2.8997429],"ct":"ES","tp":"CS","ts":"2021-08-11T06:32:59Z","tX":503,"tY":380,"tags":{"name":"Rock Camp España","name:en":"Rock Camp Spain","website":"https://www.rockcamp.es"}},"6491422601":{"location":[41.8330595,-3.0531014],"ct":"ES","tp":"CR","ts":"2021-04-23T12:12:38Z","tX":503,"tY":380,"tags":{"name":"Parque de autocaravanas"}},"8528463688":{"location":[41.9582474,-3.0130836],"ct":"ES","tp":"CR","ts":"2023-07-01T11:52:25Z","tX":503,"tY":380,"tags":{}},"10794927074":{"location":[41.9278211,-2.8836672],"ct":"ES","tp":"SD","ts":"2023-04-08T10:36:43Z","tX":503,"tY":380,"tags":{"fee":"no","sanitary_dump_station":"public","sanitary_dump_station:chemical_toilet":"yes","sanitary_dump_station:grey_water":"yes"}}}