{"584949247":{"location":[39.397503,-3.1303795],"ct":"ES","tp":"CR","ts":"2024-04-28T15:46:58Z","tX":503,"tY":389,"tags":{"capacity":"16","caravan_site":"motorhome_stopover","fee":"yes","maxstay":"48 hours","name":"Área Campo de Criptana","name:signed":"no","power_supply":"yes","sanitary_dump_station":"yes","water_point":"yes"}},"933866491":{"location":[39.5134182,-2.9904659],"ct":"ES","tp":"CR","ts":"2024-05-16T21:47:42Z","tX":503,"tY":389,"tags":{"access":"yes","addr:city":"El Toboso","addr:postcode":"45820","addr:street":"Camino Belmonte","capacity":"4","caravan_site":"motorhome_stopover","caravan_site:type":"village","covered":"no","fee":"no","name":"El Toboso Área de autocaravanas","opening_hours":"24/7","operator":"ciudad de El Toboso","power_supply":"no","sanitary_dump_station":"yes","sanitary_dump_station:chemical_toilet":"yes","sanitary_dump_station:grey_water":"yes","sanitary_dump_station:round_drain":"yes","supervised":"no","surface":"unpaved","water_point":"yes"}},"4413391989":{"location":[39.4108938,-3.1227649],"ct":"ES","tp":"CR","ts":"2024-04-28T15:46:58Z","tX":503,"tY":389,"tags":{"addr:street":"Camino Viejo del Cristo","caravan_site":"motorhome_stopover","caravan_site:type":"museum","fee":"no","name":"Parking de Molinos de Campo de Criptana","opening_hours":"24/7","power_supply":"no","sanitary_dump_station":"no","water_point":"no"}},"9719037317":{"location":[39.3981641,-3.1305425],"ct":"ES","tp":"CR","ts":"2022-05-05T20:30:09Z","tX":503,"tY":389,"tags":{"addr:housenumber":"85","addr:postcode":"13610","addr:street":"Calle Colón","name":"CIUDAD REAL"}},"8655519832":{"location":[39.5132758,-2.9902267],"ct":"ES","tp":"SD","ts":"2024-05-16T21:47:42Z","tX":503,"tY":389,"tags":{"access":"yes","fee":"no","motorhome":"designated","operator":"Ayuntamiento de El Toboso","sanitary_dump_station":"public","sanitary_dump_station:chemical_toilet":"yes","sanitary_dump_station:grey_water":"yes","sanitary_dump_station:round_drain":"yes","water_point":"yes"}},"11555267116":{"location":[39.3974597,-3.1301379],"ct":"ES","tp":"SD","ts":"2024-01-26T22:45:02Z","tX":503,"tY":389,"tags":{"access":"customers"}}}