{"222934440":{"location":[35.6735815,139.2767179],"ct":"JP","tp":"CS","ts":"2018-12-23T14:40:02Z","tX":908,"tY":403,"tags":{"name":"高尾の森わくわくビレッジ","name:en":"Takaonomori Wakuwaku Village","source":"Bing"}},"310593097":{"location":[35.6346319,139.241374],"ct":"JP","tp":"CS","ts":"2014-10-31T23:59:04Z","tX":908,"tY":403,"tags":{"name":"日影沢キャンプ場","name:en":"Hikagesawa Campsite","openfire":"yes","scout":"yes","source":"survey","tents":"yes"}},"694625827":{"location":[35.7251462,139.4441599],"ct":"JP","tp":"CS","ts":"2019-06-05T03:42:53Z","tX":908,"tY":403,"tags":{"name":"きつねっぱら公園子どもキャンプ場","operator":"小平市"}},"887996887":{"location":[35.4611353,139.2856958],"ct":"JP","tp":"CS","ts":"2020-12-23T22:37:05Z","tX":908,"tY":403,"tags":{"name":"ふれあい広場"}},"888166667":{"location":[35.4608295,139.2857901],"ct":"JP","tp":"CS","ts":"2020-12-24T12:13:25Z","tX":908,"tY":403,"tags":{"name":"すぎのき広場"}},"1154699933":{"location":[35.6125464,139.2743438],"ct":"JP","tp":"CS","ts":"2023-03-31T14:46:00Z","tX":908,"tY":403,"tags":{"name":"屋外ステージ広場","operator":"町田市"}},"1154699934":{"location":[35.6125555,139.2737727],"ct":"JP","tp":"CS","ts":"2023-03-31T14:46:00Z","tX":908,"tY":403,"tags":{"name":"テントサイト","operator":"町田市"}},"2078550077":{"location":[35.6623965,139.5578354],"ct":"JP","tp":"CS","ts":"2015-05-24T06:40:08Z","tX":908,"tY":403,"tags":{"name":"カニ山キャンプ場","operator":"調布市"}},"2138415181":{"location":[35.5749159,139.3108432],"ct":"JP","tp":"CS","ts":"2018-06-10T15:20:57Z","tX":908,"tY":403,"tags":{"name":"上大島キャンプ場"}},"2327838891":{"location":[35.7223821,139.2555438],"ct":"JP","tp":"CS","ts":"2019-04-02T06:58:35Z","tX":908,"tY":403,"tags":{"addr:housenumber":"あきる野市網代西峰３１２","name":"山田大橋キャンプ場","website":"www.akiruno.ne.jp/vsm/logvillage/"}},"3108338696":{"location":[35.6848888,139.5228107],"ct":"JP","tp":"CS","ts":"2023-01-17T13:25:10Z","tX":908,"tY":403,"tags":{"name":"少年デイキャンプ場"}},"4451189490":{"location":[35.675874,139.5167944],"ct":"JP","tp":"CS","ts":"2016-10-17T02:13:34Z","tX":908,"tY":403,"tags":{"addr:housenumber":"府中市朝日町２丁目"}},"5884405626":{"location":[35.4880226,139.2221334],"ct":"JP","tp":"CS","ts":"2018-09-05T09:45:23Z","tX":908,"tY":403,"tags":{"addr:block_number":"1700","addr:city":"清川村","addr:county":"愛甲郡","addr:postcode":"243-0111","addr:province":"神奈川県","addr:quarter":"宮ケ瀬","name":"唐沢キャンプ場","phone":"046-288-1318","website":"https://karasawa-camp.sakura.ne.jp/"}},"5884405627":{"location":[35.4923741,139.2201388],"ct":"JP","tp":"CS","ts":"2022-02-26T07:06:39Z","tX":908,"tY":403,"tags":{"addr:block_number":"1695","addr:city":"清川村","addr:county":"愛甲郡","addr:housenumber":"1","addr:postcode":"243-0111","addr:province":"神奈川県","addr:quarter":"宮ケ瀬","description":"2022年現在台風の影響により休止中","name":"国際一ノ瀬キャンプ場","phone":"046-288-2527","website":"http://www.town.kiyokawa.kanagawa.jp/Sightseeing/kankojouho/outdoor/712.html"}},"5884405628":{"location":[35.4977645,139.2258682],"ct":"JP","tp":"CS","ts":"2020-06-25T16:27:42Z","tX":908,"tY":403,"tags":{"addr:block_number":"1644","addr:city":"清川村","addr:county":"愛甲郡","addr:postcode":"243-0111","addr:province":"神奈川県","addr:quarter":"宮ケ瀬","name":"長者屋敷キャンプ場","name:en":"Chojayashiki Camp Site","name:ja":"長者屋敷キャンプ場","name:ja-Hira":"ちょうじゃやしききゃんぷじょう","phone":"046-288-1743","website":"http://www.town.kiyokawa.kanagawa.jp/Sightseeing/kankojouho/outdoor/712.html"}},"6216276721":{"location":[35.5653682,139.4934793],"ct":"JP","tp":"CS","ts":"2019-01-17T14:04:08Z","tX":908,"tY":403,"tags":{}},"7837422929":{"location":[35.5386772,139.3384333],"ct":"JP","tp":"CS","ts":"2020-08-23T15:14:01Z","tX":908,"tY":403,"tags":{"name":"望地弁天キャンプ場"}},"8949026288":{"location":[35.7155351,139.2648055],"ct":"JP","tp":"CR","ts":"2021-07-25T16:50:14Z","tX":908,"tY":403,"tags":{"name":"ヒルトップ"}},"8949036651":{"location":[35.7168399,139.262958],"ct":"JP","tp":"CR","ts":"2021-07-25T16:50:14Z","tX":908,"tY":403,"tags":{"name":"レイクサイド"}}}