{"168357002":{"location":[52.240602,0.8240414],"ct":"GB","tp":"CR","ts":"2023-08-19T15:10:32Z","tX":514,"tY":337,"tags":{"addr:city":"Bury St Edmunds","addr:postcode":"IP31 3RB","addr:street":"Beyton Road","addr:village":"Thurston","caravans":"yes","internet_access":"wlan","internet_access:fee":"no","name":"Bright Meadow Caravan Park","phone":"+44 1359 270121","power_supply":"yes","sanitary_dump_station":"yes","tents":"yes","url":"www.thedellcaravanpark.co.uk"}},"1083278681":{"location":[52.1539894,0.7102226],"ct":"GB","tp":"CS","ts":"2024-08-20T12:53:24Z","tX":514,"tY":337,"tags":{"access":"customers","addr:city":"Bury St Edmunds","addr:country":"GB","addr:housename":"Brighthouse Farm","addr:postcode":"IP29 4PX","addr:street":"Melford Road","bbq":"bring_your_own","cabins":"no","caravans":"yes","dog":"yes","drinking_water":"yes","group_only":"no","hot_water":"yes","motor_vehicle":"yes","name":"Brighthouse Farm Caravan & Campsite","nudism":"no","opening_hours":"24/7","operator":"Brighthouse Farm Caravan & Campsite","permanent_camping":"no","phone":"+44 1284 830385","picnic_table":"yes","power_supply":"yes","sanitary_dump_station":"yes","shower":"hot","static_caravans":"no","tents":"yes","toilets":"yes","waste_disposal":"yes","website":"https://brighthousefarm.co.uk/caravan-camping/"}},"1235472916":{"location":[52.1895005,0.9615364],"ct":"GB","tp":"CS","ts":"2023-12-30T10:11:13Z","tX":514,"tY":337,"tags":{"capacity":"25","caravans":"yes","internet_access":"no","name":"Lakeside Fishing and Caravan Park","nudism":"no","reservation":"required","sanitary_dump_station":"customers","tents":"yes","wheelchair":"limited"}},"1299693404":{"location":[52.187917,0.9701757],"ct":"GB","tp":"CS","ts":"2024-07-07T07:15:57Z","tX":514,"tY":337,"tags":{"addr:city":"Onehouse","addr:postcode":"IP14 3BT","addr:street":"Wash Lane","caravans":"yes","contact:mobile":"+44 7855 531915","fishing":"catch_and_release","leisure":"fishing","name":"Riverside Fisheries","reservation":"required","sanitary_dump_station":"customers","swimming_pool":"no","tents":"yes"}},"1948043213":{"location":[52.2212813,0.9834108],"ct":"GB","tp":"CR","ts":"2012-10-05T19:36:42Z","tX":514,"tY":337,"tags":{"name":"Red House Farm Caravan Site"}},"11128254273":{"location":[52.240592,0.8237822],"ct":"GB","tp":"SD","ts":"2023-08-19T15:10:32Z","tX":514,"tY":337,"tags":{"access":"customers","fee":"no","water_point":"no"}}}