{"35268078":{"location":[51.8084195,1.0202658],"ct":"GB","tp":"CS","ts":"2023-06-02T13:47:31Z","tX":514,"tY":339,"tags":{"addr:city":"Brightlingsea","addr:housename":"Brightlingsea Touring Park","addr:postcode":"CO7 0HJ","addr:street":"Promenade Way","caravans":"yes","motorhome":"yes","name":"Brightlingsea Touring Park","shower":"yes","tents":"no","toilets":"yes","website":"https://www.pitchup.com/campsites/England/South_East/Essex/Colchester/brightlingsea-touring-park/"}},"35304350":{"location":[51.8087894,1.0180901],"ct":"GB","tp":"CR","ts":"2011-01-27T12:04:10Z","tX":514,"tY":339,"tags":{"name":"Brightlingsea Leisure Village"}},"35823950":{"location":[51.7744584,0.9365745],"ct":"GB","tp":"CS","ts":"2022-08-23T12:44:50Z","tX":514,"tY":339,"tags":{}},"104283220":{"location":[51.7354931,0.7242293],"ct":"GB","tp":"CR","ts":"2023-08-11T10:13:48Z","tX":514,"tY":339,"tags":{"addr:city":"Maldon","addr:country":"GB","addr:postcode":"CM9 4RF","addr:street":"Goldhanger Road","barrier":"fence","capacity":"290","email":"enquiries@millbeach.com","fee":"yes","fence_type":"wood","name":"Mill Beach Caravan Park","phone":"+44 1621 853539","power_supply":"yes","website":"https://www.millbeachcaravanpark.co.uk"}},"157109253":{"location":[51.7033994,0.7791176],"ct":"GB","tp":"CR","ts":"2019-03-25T06:18:51Z","tX":514,"tY":339,"tags":{"email":"steeple@parkholidaysuk.com","fee":"yes","internet_access":"wlan","internet_access:fee":"no","name":"Steeple Bay Holiday Park","phone":"+44845 8159766","power_supply":"yes","tents":"yes","website":"https://www.parkholidays.com/steeple-bay"}},"157112273":{"location":[51.7148745,0.8303695],"ct":"GB","tp":"CR","ts":"2023-03-02T20:48:16Z","tX":514,"tY":339,"tags":{"addr:city":"St Lawrence","addr:postcode":"CM0 7LY","addr:street":"Main Road","fee":"yes","internet_access":"wlan","internet_access:fee":"yes","name":"St Lawrence Holiday Park","phone":"+44 1621 779434","power_supply":"yes","website":"https://www.stlawrenceholidaypark.co.uk/"}},"157112275":{"location":[51.712932,0.8358514],"ct":"GB","tp":"CR","ts":"2023-03-02T20:48:16Z","tX":514,"tY":339,"tags":{"addr:city":"St Lawrence","addr:postcode":"CM0 7LY","addr:street":"Main Road","contact:website":"https://www.parkdeanresorts.co.uk/location/essex/","fee":"yes","internet_access":"wlan","internet_access:fee":"yes","name":"Waterside Holiday Park","tents":"yes"}},"161865780":{"location":[51.6235895,0.8293405],"ct":"GB","tp":"CR","ts":"2023-11-15T02:01:09Z","tX":514,"tY":339,"tags":{"name":"Sea End Caravan Park"}},"162376777":{"location":[51.6255329,0.823927],"ct":"GB","tp":"CR","ts":"2021-01-23T16:13:24Z","tX":514,"tY":339,"tags":{"fee":"yes","name":"Silver Road Caravan Park"}},"297567084":{"location":[51.7857675,0.9756245],"ct":"GB","tp":"CR","ts":"2024-07-15T21:00:39Z","tX":514,"tY":339,"tags":{"addr:country":"GB","addr:postcode":"CO5 8TN","brand":"Parkdean Resorts","brand:wikidata":"Q7138226","contact:website":"https://www.parkdeanresorts.co.uk/location/essex/coopers-beach/","name":"Coopers Beach Holiday Park","operator":"Parkdean Resorts UK Limited"}},"297618657":{"location":[51.7896638,0.9852426],"ct":"GB","tp":"CR","ts":"2014-08-13T20:14:24Z","tX":514,"tY":339,"tags":{}},"392294952":{"location":[51.7382374,0.7221094],"ct":"GB","tp":"CR","ts":"2023-08-05T22:44:44Z","tX":514,"tY":339,"tags":{"addr:city":"Maldon","addr:country":"GB","addr:postcode":"CM9 4RA","addr:street":"Goldhanger Road","barrier":"fence","capacity":"129","fee":"yes","fence_type":"wood","name":"Barrow Marsh Caravan Park","phone":"+44 1621 852859","website":"http://www.barrowmarsh.co.uk/"}},"392295397":{"location":[51.7352418,0.7288998],"ct":"GB","tp":"CS","ts":"2019-08-07T18:15:33Z","tX":514,"tY":339,"tags":{"caravans":"yes","dog":"yes","internet_access":"wlan","name":"Osea Leisure Park","sanitary_dump_station":"customers","tents":"yes"}},"519249237":{"location":[51.7770626,0.9464571],"ct":"GB","tp":"CR","ts":"2024-08-03T13:45:09Z","tX":514,"tY":339,"tags":{"fee":"no"}},"1195116918":{"location":[51.7329488,0.7320481],"ct":"GB","tp":"CR","ts":"2023-08-05T21:40:56Z","tX":514,"tY":339,"tags":{"addr:city":"Maldon","addr:postcode":"CM9 4SA","addr:street":"Goldhanger Road","email":"info@osealeisure.com","name":"Osea Lesuire Park","phone":"+44 1621 854695","power_supply":"yes","website":"https://osealeisure.com/"}},"1195124755":{"location":[51.7379268,0.7145404],"ct":"GB","tp":"CR","ts":"2023-08-05T22:44:44Z","tX":514,"tY":339,"tags":{"addr:city":"Maldon","addr:postcode":"CM9 4QX","addr:street":"Goldhanger Road","name":"Happy Days Caravan Park"}},"1264755413":{"location":[51.7869022,1.0522821],"ct":"GB","tp":"CR","ts":"2024-03-21T10:20:16Z","tX":514,"tY":339,"tags":{"caravans":"yes","tents":"no","website":"https://leewickfarm.co.uk/touring/"}},"1264755417":{"location":[51.7863522,1.0527298],"ct":"GB","tp":"CS","ts":"2024-03-21T10:20:16Z","tX":514,"tY":339,"tags":{"caravans":"no","tents":"yes"}},"2107136690":{"location":[51.7778201,0.9466241],"ct":"GB","tp":"CR","ts":"2024-08-03T13:45:14Z","tX":514,"tY":339,"tags":{"fee":"no","name":"Waldegraves"}},"2107136693":{"location":[51.7903908,0.9882198],"ct":"GB","tp":"CR","ts":"2017-11-15T14:22:33Z","tX":514,"tY":339,"tags":{"name":"Mersea Island Holiday Park","website":"https://www.awayresorts.co.uk/mersea-island/"}},"2107136694":{"location":[51.7891366,0.9859238],"ct":"GB","tp":"CR","ts":"2013-01-12T14:59:50Z","tX":514,"tY":339,"tags":{"name":"Fen Farm"}},"2107136696":{"location":[51.7759149,0.9353266],"ct":"GB","tp":"CR","ts":"2013-01-12T14:59:50Z","tX":514,"tY":339,"tags":{"name":"Seaview"}},"11879472921":{"location":[51.7420176,0.7168299],"ct":"GB","tp":"CS","ts":"2024-05-04T18:46:48Z","tX":514,"tY":339,"tags":{"caravans":"yes","drinking_water":"yes","email":"chigborofisheries@gmail.com","name":"Chigborough Farm","nudism":"no","phone":"+44 7702244440","picnic_table":"yes","power_supply":"yes","shower":"yes","tents":"yes","toilets":"yes"}}}