{"23377257":{"location":[51.4330844,0.7730802],"ct":"GB","tp":"CR","ts":"2024-02-23T02:54:12Z","tX":514,"tY":340,"tags":{"addr:city":"Minster-on-Sea","addr:postcode":"ME12 3AA","addr:street":"Halfway Road","email":"info@sheernesshols.com","fax":"+44 843 320 2930","maxstay":"10 months","name":"Sheerness Holiday Park","phone":"+44 1795 582890","power_supply":"yes","source":"local_knowledge","website":"https://sheerness-holiday-park.webflow.io/contact"}},"31344331":{"location":[51.4132265,0.9014167],"ct":"GB","tp":"CR","ts":"2024-01-11T19:37:53Z","tX":514,"tY":340,"tags":{"addr:city":"Eastchurch","addr:postcode":"ME12 4HF","addr:street":"Warden Point","name":"Warden Springs","operator":"Spreyer Holiday Parks","phone":"+44 1795 880888","power_supply":"yes","website":"https://www.wardenspringscaravanpark.com/"}},"91394917":{"location":[51.418875,0.8372568],"ct":"GB","tp":"CR","ts":"2023-09-18T19:08:41Z","tX":514,"tY":340,"tags":{"addr:city":"Minster-on-Sea","addr:postcode":"ME12 4JF","addr:street":"Plough Road","email":"enquiries@goldenleasholidaypark.com","name":"Golden Leas Holiday Park","phone":"+44 1795 874874","source":"Bing","website":"https://goldenleasholidaypark.com/"}},"91394919":{"location":[51.4212966,0.8467904],"ct":"GB","tp":"CR","ts":"2024-01-13T16:59:51Z","tX":514,"tY":340,"tags":{"addr:city":"Minster-on-Sea","addr:postcode":"ME12 4JH","addr:street":"Plough Road","name":"Ashcroft Coast Holiday Park"}},"1182080099":{"location":[51.3999436,0.9193975],"ct":"GB","tp":"CR","ts":"2023-06-21T18:20:12Z","tX":514,"tY":340,"tags":{"addr:city":"Leysdown-on-Sea","addr:housenumber":"8","addr:street":"Grove Avenue","name":"Central Beach Holiday Park","power_supply":"yes"}},"1182080100":{"location":[51.401648,0.9141341],"ct":"GB","tp":"CR","ts":"2024-01-11T19:37:53Z","tX":514,"tY":340,"tags":{"addr:city":"Leysdown-on-Sea","addr:postcode":"ME12 4LL","addr:street":"Leysdown Road","name":"Little Groves Leisure Park","phone":"+44 1795 510316"}},"1182080101":{"location":[51.4004824,0.9117334],"ct":"GB","tp":"CR","ts":"2023-07-05T22:22:48Z","tX":514,"tY":340,"tags":{"addr:city":"Leysdown-on-Sea","addr:postcode":"ME12 4LX","addr:street":"Warden Bay Road","email":"admin@isvh.co.uk","name":"Isle of Sheppy Holiday Village","phone":"+44 1795 510351","power_supply":"yes","website":"https://isleofsheppeyholidayvillage.co.uk/"}},"1182080102":{"location":[51.4004599,0.9071224],"ct":"GB","tp":"CR","ts":"2024-01-11T14:39:46Z","tX":514,"tY":340,"tags":{"addr:city":"Leysdown-on-Sea","addr:postcode":"ME12 4LT","addr:street":"Warden Bay Road","email":"info@saddlebrookpark.co.uk","name":"Saddlebrook Park","phone":"+44 1795 510094","power_supply":"yes","website":"https://saddlebrookpark.co.uk/"}},"1182080103":{"location":[51.4015221,0.9065382],"ct":"GB","tp":"CR","ts":"2023-07-17T15:20:52Z","tX":514,"tY":340,"tags":{"addr:city":"Leysdown-on-Sea","addr:postcode":"ME12 4LX","addr:street":"Warden Bay Road","email":"info@seaview-leysdown.co.uk","name":"Warden Bay Park","phone":"+44 1795 510275","website":"http://www.seaview-leysdown.co.uk/warden-bay"}},"1188772705":{"location":[51.3993608,0.907092],"ct":"GB","tp":"CR","ts":"2024-01-11T14:39:46Z","tX":514,"tY":340,"tags":{"addr:city":"Leysdown-on-Sea","addr:street":"Warden Bay Road","name":"Happy Valley Chalet Park"}},"1190179667":{"location":[51.4025884,0.9062792],"ct":"GB","tp":"CR","ts":"2023-07-17T13:34:25Z","tX":514,"tY":340,"tags":{"addr:city":"Leysdown-on-Sea","addr:postcode":"ME12 4NB","addr:street":"Warden Bay Road","email":"info@seaview-leysdown.co.uk","name":"Seaview Park","phone":"+44 1795 510275","website":"http://www.seaview-leysdown.co.uk/"}},"1207820564":{"location":[51.4144872,0.8836627],"ct":"GB","tp":"CR","ts":"2024-01-11T19:37:53Z","tX":514,"tY":340,"tags":{"name":"Rides Caravan Park"}},"1207864661":{"location":[51.4156778,0.8754356],"ct":"GB","tp":"CR","ts":"2024-04-03T14:54:12Z","tX":514,"tY":340,"tags":{"addr:city":"Eastchurch","addr:postcode":"ME12 4ES","addr:street":"Warden Road","name":"Beverley Park"}},"1207877924":{"location":[51.4185787,0.8766862],"ct":"GB","tp":"CR","ts":"2024-01-11T19:37:53Z","tX":514,"tY":340,"tags":{"addr:city":"Eastchurch","addr:postcode":"ME12 4ER","addr:street":"Second Avenue","contact:website":"https://www.palmtreemanagement.co.uk/palm-trees","name":"Palm Trees Holiday Park","operator":"Palm Tree Management","phone":"+44 1795 880080","website":"https://www.palmtreemanagement.co.uk/"}},"1208100038":{"location":[51.4146634,0.8729826],"ct":"GB","tp":"CR","ts":"2023-09-16T03:38:04Z","tX":514,"tY":340,"tags":{"addr:city":"Eastchurch","addr:postcode":"ME12 4EW","addr:street":"Hazeldene Close","name":"Hazeldene Chalet Park"}},"1208100039":{"location":[51.4142793,0.8635758],"ct":"GB","tp":"CR","ts":"2023-09-16T02:51:40Z","tX":514,"tY":340,"tags":{"addr:city":"Eastchurch","addr:street":"First Avenue","name":"Sunnyside Caravan Park"}},"1208100040":{"location":[51.4160087,0.8657093],"ct":"GB","tp":"CR","ts":"2023-09-16T02:54:11Z","tX":514,"tY":340,"tags":{"addr:city":"Eastchurch","addr:street":"First Avenue","email":"enquiries@royaleresorts.co.uk","name":"Pleasant View Holiday Park","operator":"Royale Resorts","phone":"+44 1945 223573","website":"https://royaleresorts.co.uk/our-resorts/eastchurch/"}},"1208100041":{"location":[51.4171198,0.8667745],"ct":"GB","tp":"CR","ts":"2024-01-11T19:37:53Z","tX":514,"tY":340,"tags":{"addr:city":"Eastchurch","addr:street":"First Avenue","name":"Seafields Leisure Park"}},"1208100042":{"location":[51.417941,0.8679672],"ct":"GB","tp":"CR","ts":"2023-09-16T02:51:40Z","tX":514,"tY":340,"tags":{"addr:city":"Eastchurch","addr:postcode":"ME12 4JN","addr:street":"First Avenue","email":"enquiries@royaleresorts.co.uk","name":"Brookside Holiday Park","operator":"Royale Resorts","phone":"+44 1945 223573","website":"https://royaleresorts.co.uk/our-resorts/brookside/"}},"1208100043":{"location":[51.417237,0.868781],"ct":"GB","tp":"CR","ts":"2023-09-16T02:54:11Z","tX":514,"tY":340,"tags":{"addr:city":"Eastchurch","addr:postcode":"ME12 4EW","addr:street":"Fourth Avenue","email":"enquiries@royaleresorts.co.uk","name":"Cliff Cottages Holiday Park","operator":"Royale Resorts","phone":"+44 1945 223573","website":"https://royaleresorts.co.uk/our-resorts/eastchurch/"}},"1208100044":{"location":[51.4165752,0.8690353],"ct":"GB","tp":"CR","ts":"2023-09-16T03:38:04Z","tX":514,"tY":340,"tags":{"addr:city":"Eastchurch","addr:postcode":"ME12 4EW","addr:street":"Fourth Avenue","name":"The Coppice Caravan Park"}},"1208100045":{"location":[51.4173288,0.8713922],"ct":"GB","tp":"CR","ts":"2024-01-11T19:37:53Z","tX":514,"tY":340,"tags":{"addr:city":"Eastchurch","addr:postcode":"ME12 4ER","addr:street":"Second Avenue","email":"enquiries@royaleresorts.co.uk","name":"Elmhurst Holiday Park","operator":"Royale Resorts","phone":"+44 1945 223573"}},"1208100046":{"location":[51.4157839,0.8721783],"ct":"GB","tp":"CR","ts":"2023-09-16T03:25:26Z","tX":514,"tY":340,"tags":{"addr:city":"Eastchurch","addr:postcode":"ME12 4EW","addr:street":"Fourth Avenue","email":"enquiries@royaleresorts.co.uk","name":"Sunnymead 1 Holiday Park","operator":"Royale Resorts","phone":"+44 1945 223573","website":"https://royaleresorts.co.uk/our-resorts/eastchurch/"}},"1208100047":{"location":[51.416639,0.8736931],"ct":"GB","tp":"CR","ts":"2023-09-16T02:51:40Z","tX":514,"tY":340,"tags":{"addr:city":"Eastchurch","addr:street":"Second Avenue","name":"The World Caravan Park"}},"1208100048":{"location":[51.4167448,0.8749644],"ct":"GB","tp":"CR","ts":"2023-09-16T03:35:05Z","tX":514,"tY":340,"tags":{"addr:city":"Eastchurch","addr:postcode":"ME12 4ES","addr:street":"Warden Road","name":"Eden Leisure Park","phone":"+44 1795 880232","website":"https://edenleisurepark.business.site/"}},"1208100049":{"location":[51.4141731,0.8654161],"ct":"GB","tp":"CR","ts":"2023-09-16T02:51:40Z","tX":514,"tY":340,"tags":{"addr:city":"Eastchurch","addr:street":"First Avenue","name":"Sunnyside Chalet Park"}},"1208100050":{"location":[51.413049,0.8659282],"ct":"GB","tp":"CR","ts":"2023-09-16T03:39:17Z","tX":514,"tY":340,"tags":{"addr:city":"Eastchurch","addr:postcode":"ME12 4EN","addr:street":"Warden Road","email":"enquiries@royaleresorts.co.uk","name":"Shurland Dale Holiday Park","operator":"Royale Resorts","phone":"+44 1945 223573","website":"https://royaleresorts.co.uk/our-resorts/shurland-dale/"}},"1208100051":{"location":[51.4139685,0.8698598],"ct":"GB","tp":"CR","ts":"2023-09-16T03:25:26Z","tX":514,"tY":340,"tags":{"addr:city":"Eastchurch","addr:postcode":"ME12 4EW","addr:street":"Fourth Avenue","email":"enquiries@royaleresorts.co.uk","name":"Sunnymead 2 Holiday Park","operator":"Royale Resorts","phone":"+44 1945 223573","website":"https://royaleresorts.co.uk/our-resorts/eastchurch/"}},"1208100052":{"location":[51.4138289,0.8715372],"ct":"GB","tp":"CR","ts":"2023-09-16T03:38:04Z","tX":514,"tY":340,"tags":{"addr:city":"Eastchurch","addr:postcode":"ME12 4EW","addr:street":"Fourth Avenue","name":"Copperfields Holiday Park"}},"1208100053":{"location":[51.4151139,0.8676382],"ct":"GB","tp":"CR","ts":"2023-09-16T02:51:40Z","tX":514,"tY":340,"tags":{"addr:city":"Eastchurch","addr:postcode":"ME12 4EN","addr:street":"Warden Road","email":"enquiries@royaleresorts.co.uk","name":"Shurland Dale Bramley Holiday Park","operator":"Royale Resorts","phone":"+44 1945 223573","website":"https://royaleresorts.co.uk/our-resorts/shurland-dale/"}},"1208100054":{"location":[51.4160051,0.868596],"ct":"GB","tp":"CR","ts":"2023-09-15T22:34:21Z","tX":514,"tY":340,"tags":{}},"1208100055":{"location":[51.4163011,0.8762235],"ct":"GB","tp":"CR","ts":"2023-09-16T03:35:05Z","tX":514,"tY":340,"tags":{"addr:city":"Eastchurch","addr:postcode":"ME12 4ES","addr:street":"Warden Road","facebook":"https://www.facebook.com/Theretreateastchurch/","name":"The Retreat Holiday Park","phone":"+44 1795 881710"}},"1208342023":{"location":[51.4224103,0.8311414],"ct":"GB","tp":"CR","ts":"2024-01-13T16:59:51Z","tX":514,"tY":340,"tags":{"addr:city":"Minster-on-Sea","addr:postcode":"ME12 4JA","addr:street":"Bell Farm Lane","email":"enquiries@royaleresorts.co.uk","name":"Hollybush Farm Holiday Park","operator":"Royale Resorts","phone":"+44 1945 223573","website":"https://royaleresorts.co.uk/"}},"1208352198":{"location":[51.4179836,0.8356358],"ct":"GB","tp":"CR","ts":"2024-01-13T16:59:51Z","tX":514,"tY":340,"tags":{"name":"Plough Leisure Park"}},"1208356388":{"location":[51.4190449,0.8351428],"ct":"GB","tp":"CR","ts":"2023-09-16T19:29:25Z","tX":514,"tY":340,"tags":{"addr:city":"Minster-on-Sea","addr:street":"Bell Farm Lane","name":"Kingsbury Holiday Park","phone":"+44 1795 871896"}},"1208392835":{"location":[51.4230633,0.8390701],"ct":"GB","tp":"CR","ts":"2024-01-13T16:59:51Z","tX":514,"tY":340,"tags":{"addr:city":"Minster-on-Sea","addr:street":"Bell Farm Lane","name":"Lazy Days Holiday Park"}},"1208392867":{"location":[51.4223024,0.8366631],"ct":"GB","tp":"CR","ts":"2024-01-13T16:59:51Z","tX":514,"tY":340,"tags":{"addr:city":"Minster-on-Sea","addr:street":"Bell Farm Lane","name":"Horseshoe Holiday Park"}},"1208877277":{"location":[51.4232028,0.8375185],"ct":"GB","tp":"CR","ts":"2023-09-18T18:58:48Z","tX":514,"tY":340,"tags":{}},"1208919585":{"location":[51.4238874,0.8268088],"ct":"GB","tp":"CR","ts":"2023-12-02T00:42:13Z","tX":514,"tY":340,"tags":{"addr:city":"Minster-on-Sea","addr:postcode":"ME12 3QR","addr:street":"Oak Lane","contact:website":"https://www.palmtreemanagement.co.uk/willow-trees","name":"Willow Tree Holiday Park","operator":"Palm Tree Management","phone":"+44 1795 880080","website":"https://www.palmtreemanagement.co.uk/"}},"1208919586":{"location":[51.4233542,0.823873],"ct":"GB","tp":"CR","ts":"2024-01-14T16:38:48Z","tX":514,"tY":340,"tags":{"addr:city":"Minster-on-Sea","addr:postcode":"ME12 3QS","addr:street":"Oak Lane","email":"sales@seacliffholidayestates.co.uk","facebook":"https://www.facebook.com/SeacliffHoliday/","name":"Seacliff Holiday Park","phone":"+44 1795 872262"}},"1208922929":{"location":[51.4232372,0.8400699],"ct":"GB","tp":"CR","ts":"2023-09-18T23:31:48Z","tX":514,"tY":340,"tags":{"addr:city":"Minster-on-Sea","addr:postcode":"ME12 4JB","addr:street":"Bell Farm Lane","name":"Redcot Resort World"}},"1240727768":{"location":[51.4097704,0.7385767],"ct":"GB","tp":"CR","ts":"2024-01-22T20:09:05Z","tX":514,"tY":340,"tags":{"fee":"yes","name":"Leo Bay"}},"1255098650":{"location":[51.4398173,0.784384],"ct":"GB","tp":"CR","ts":"2024-02-27T01:52:21Z","tX":514,"tY":340,"tags":{"addr:city":"Sheerness","addr:street":"Marine Parade","name":"Seabreeze Caravan Park","phone":"+44 1795 669260","power_supply":"yes"}},"1255114311":{"location":[51.4394327,0.7873048],"ct":"GB","tp":"CR","ts":"2024-07-19T13:03:50Z","tX":514,"tY":340,"tags":{"addr:city":"Sheerness","addr:postcode":"ME12 2BX","addr:street":"Marine Parade","name":"CYC Coastal Club","phone":"+44 1795 663031","power_supply":"yes"}},"12076809300":{"location":[51.4199715,0.859126],"ct":"GB","tp":"CS","ts":"2024-07-27T12:21:02Z","tX":514,"tY":340,"tags":{"access":"customers","addr:city":"Eastchurch, Sheerness","addr:housename":"Spiders Castle Farm","addr:postcode":"ME12 4JL","addr:street":"Plough Rd,","caravans":"yes","charge":"Â£15 per person per night","drinking_water":"yes","email":"clifftopcamping@gmail.com","fee":"yes","name":"Clifftop camping at Spiders Castle Farm","phone":"07453 639230","reservation":"yes","sanitary_dump_station":"no","shower":"no","static_caravans":"no","tents":"yes","toilets":"yes","website":"https://www.clifftopcamping.co.uk/"}}}