{"14072204":{"location":[51.278121,0.8815145],"ct":"GB","tp":"CS","ts":"2022-04-24T14:29:05Z","tX":514,"tY":341,"tags":{"access":"private","drinking_water":"yes","kitchen":"yes","name":"Shepherd Park Scout Campsite","operator":"Faversham District Scouts","scout":"yes","shower":"yes","tents":"yes","toilets":"yes","website":"https://www.shepherdpark.org.uk/"}},"57119435":{"location":[51.3868595,0.9352916],"ct":"GB","tp":"CR","ts":"2023-07-05T22:56:49Z","tX":514,"tY":341,"tags":{"addr:city":"Leysdown-on-Sea","addr:postcode":"ME12 4RJ","addr:street":"Shellness Road","email":"info@muswellmanor.co.uk","name":"Muswell Manor Holiday Park","phone":"+44 1795 510245","power_supply":"yes","website":"https://muswellmanor.co.uk/"}},"79620852":{"location":[51.394717,0.9250148],"ct":"GB","tp":"CR","ts":"2023-06-20T21:31:16Z","tX":514,"tY":341,"tags":{"name":"Priory Hill Chalet Park","wheelchair":"no"}},"79620853":{"location":[51.3965972,0.9154562],"ct":"GB","tp":"CR","ts":"2023-06-18T23:08:45Z","tX":514,"tY":341,"tags":{"addr:city":"Leysdown-on-Sea","addr:postcode":"ME12 4LE","addr:street":"Leysdown Road","contact:website":"http://www.seaview-leysdown.co.uk/vanity-park","email":"info@seaview-leysdown.co.uk","name":"Vanity Village Park","phone":"+44 1795 510275","power_supply":"yes","website":"http://www.seaview-leysdown.co.uk/"}},"79620854":{"location":[51.3954511,0.9182676],"ct":"GB","tp":"CR","ts":"2024-01-09T16:15:18Z","tX":514,"tY":341,"tags":{"addr:city":"Leysdown-on-Sea","addr:postcode":"ME12 4RG","addr:street":"Leysdown Road","check_date":"2023-06-15","email":"harts@parkholidays.com","internet_access":"wlan","internet_access:fee":"yes","name":"Harts Holiday Park","operator":"Park Holidays","phone":"+44 1795 507255","power_supply":"yes","website":"https://www.parkholidays.com/our-parks/kent/harts/caravan-holidays"}},"120289983":{"location":[51.340806,1.0042949],"ct":"GB","tp":"CS","ts":"2024-12-04T18:57:37Z","tX":514,"tY":341,"tags":{"addr:city":"Whitstable","addr:country":"GB","addr:county":"Kent","addr:postcode":"CT5 4BU","addr:street":"Church Lane","addr:suburb":"Seasalter","caravans":"yes","contact:phone":"+44 1227 771777","contact:website":"http://www.homingpark.co.uk/","fixme":"Move FHRS ID to the club house, once the correct building is identified.","name":"Homing Park","source:addr:postcode":"Website","tents":"yes"}},"123229276":{"location":[51.3937172,0.923575],"ct":"GB","tp":"CR","ts":"2024-01-11T14:39:46Z","tX":514,"tY":341,"tags":{"name":"Park Avenue Holiday Village"}},"167363250":{"location":[51.3466823,1.0403714],"ct":"GB","tp":"CS","ts":"2020-02-13T14:58:24Z","tX":514,"tY":341,"tags":{"name":"Primrose Cottage Caravan Park"}},"403342474":{"location":[51.2959743,0.8526733],"ct":"GB","tp":"CS","ts":"2024-05-26T14:25:01Z","tX":514,"tY":341,"tags":{"addr:city":"Faversham","addr:country":"GB","addr:county":"Kent","addr:housename":"Painters Farm","addr:postcode":"ME13 0EG","addr:street":"Painter's Forstal Road","caravans":"yes","motorhome":"yes","name":"Painters Farm Campsite","power_supply":"yes","sanitary_dump_station":"yes","shower":"yes","tents":"yes","toilets":"yes","website":"https://paintersfarmcampsite.com/"}},"510739522":{"location":[51.2429059,0.9946369],"ct":"GB","tp":"CS","ts":"2019-02-13T14:17:09Z","tX":514,"tY":341,"tags":{"access":"private","name":"Mystole Campsite","operator":"Girlguiding Kent East"}},"579886244":{"location":[51.315838,1.0212501],"ct":"GB","tp":"CS","ts":"2024-01-02T10:46:05Z","tX":514,"tY":341,"tags":{}},"633935497":{"location":[51.2424191,0.7981904],"ct":"GB","tp":"CR","ts":"2018-10-14T16:12:44Z","tX":514,"tY":341,"tags":{"addr:city":"Faversham","addr:postcode":"ME13 0HY","addr:street":"Stalisfield Road","fee":"yes","name":"The Plough Inn","operator":"The Plough Inn","power_supply":"yes","website":"https://www.campingandcaravanningclub.co.uk/campsites/uk/kent/faversham/theploughinn"}},"684805298":{"location":[51.2853221,0.772405],"ct":"GB","tp":"CS","ts":"2022-01-08T11:12:57Z","tX":514,"tY":341,"tags":{"addr:city":"Sittingbourne","addr:country":"GB","addr:county":"Kent","addr:postcode":"ME9 0AU","addr:street":"Down Court Road","caravans":"no","name":"Palace Farm Campsite","phone":"+44 1795 886200","shower":"yes","source:shape":"bing","tents":"yes","toilets":"yes","website":"https://www.palacefarm.com/campsite-kent-downs/"}},"918998307":{"location":[51.1986187,0.8495308],"ct":"GB","tp":"CS","ts":"2024-05-28T21:52:00Z","tX":514,"tY":341,"tags":{"addr:city":"Westwell","addr:postcode":"TN25 4NJ","caravans":"yes","fee":"yes","name":"Dunn Street Farm Campsite","sanitary_dump_station":"yes","shower":"yes","source":"survey","static_caravans":"yes","tents":"yes","toilets":"yes","website":"https://www.dunnstreetfarm.co.uk"}},"1054866620":{"location":[51.3026673,0.7187931],"ct":"GB","tp":"CS","ts":"2022-04-25T19:13:55Z","tX":514,"tY":341,"tags":{"access":"private","addr:city":"Sittingbourne","addr:country":"GB","addr:postcode":"ME9 8HG","addr:street":"Bexon Lane","fixme":"placed simple boundry of campsite but requires more detailed knowledge of area to correctly place","kitchen":"yes","name":"Bexon Lane Scout Campsite","operator":"Sittingbourne, Milton & District Scouts","power_supply":"yes","sanitary_dump_station":"yes","scout":"yes","shower":"yes","toilets":"yes","website":"https://www.sittingbournescouts.org.uk/page-campsite.html"}},"1182080097":{"location":[51.3968103,0.9264218],"ct":"GB","tp":"CR","ts":"2023-06-20T22:52:47Z","tX":514,"tY":341,"tags":{"name":"Nutts Farm Holiday Park"}},"1182609017":{"location":[51.3967432,0.9227376],"ct":"GB","tp":"CR","ts":"2023-07-11T03:10:05Z","tX":514,"tY":341,"tags":{}},"1182927425":{"location":[51.398774,0.9178388],"ct":"GB","tp":"CR","ts":"2023-06-20T23:29:41Z","tX":514,"tY":341,"tags":{"name":"Eastern Holiday Park"}},"1183775028":{"location":[51.3954724,0.9263831],"ct":"GB","tp":"CR","ts":"2023-06-20T21:31:16Z","tX":514,"tY":341,"tags":{"name":"Priory Hills Caravan Park"}},"1183775029":{"location":[51.395061,0.9273634],"ct":"GB","tp":"CR","ts":"2023-06-20T21:31:16Z","tX":514,"tY":341,"tags":{"name":"Priory Hills Touring Park"}},"1183790461":{"location":[51.395041,0.9269288],"ct":"GB","tp":"SD","ts":"2023-06-20T22:48:37Z","tX":514,"tY":341,"tags":{"access":"private","building":"yes"}},"1223531737":{"location":[51.3864497,0.7303155],"ct":"GB","tp":"CS","ts":"2023-11-14T17:34:33Z","tX":514,"tY":341,"tags":{}},"1234851469":{"location":[51.3068924,0.933961],"ct":"GB","tp":"CS","ts":"2024-04-09T08:18:57Z","tX":514,"tY":341,"tags":{}},"1236266951":{"location":[51.3089246,1.0019795],"ct":"GB","tp":"CS","ts":"2024-01-02T10:46:05Z","tX":514,"tY":341,"tags":{}},"1236266957":{"location":[51.309832,1.0072193],"ct":"GB","tp":"CS","ts":"2024-01-02T10:46:05Z","tX":514,"tY":341,"tags":{}},"1236266958":{"location":[51.3089911,1.0074997],"ct":"GB","tp":"CS","ts":"2024-01-02T10:46:05Z","tX":514,"tY":341,"tags":{"static_caravans":"no","surface":"grass"}},"1236281459":{"location":[51.3129045,1.0325906],"ct":"GB","tp":"CS","ts":"2024-01-02T12:21:46Z","tX":514,"tY":341,"tags":{}},"1293589998":{"location":[51.2075468,0.8310316],"ct":"GB","tp":"CR","ts":"2024-06-19T08:31:45Z","tX":514,"tY":341,"tags":{"name":"Kent Gliding Club Caravan Park"}}}