{"61696069":{"location":[50.9790617,0.9184352],"ct":"GB","tp":"CR","ts":"2020-11-27T20:21:07Z","tX":514,"tY":342,"tags":{"name":"Romney Motorhomes Caravans"}},"61696071":{"location":[50.9787472,0.9174014],"ct":"GB","tp":"CS","ts":"2010-06-10T23:06:18Z","tX":514,"tY":342,"tags":{"name":"Romney Tent Site"}},"92347747":{"location":[51.1066255,0.8679588],"ct":"GB","tp":"CS","ts":"2023-08-21T09:55:19Z","tX":514,"tY":342,"tags":{"addr:city":"Ashford","addr:country":"GB","addr:postcode":"TN26 1NQ","addr:street":"Steeds Lane","caravans":"yes","dog":"yes","dryer":"yes","email":"holidaypark@broadhembury.co.uk","internet_access":"wlan","internet_access:fee":"yes","kitchen":"yes","name":"Broadhembury Caravan & Camping Park","phone":"+44 1233 620859","power_supply":"yes","source":"Bing","tents":"yes","washing_machine":"yes","website":"https://www.broadhembury.co.uk","wheelchair":"yes"}},"115399675":{"location":[51.1131902,0.7425267],"ct":"GB","tp":"CS","ts":"2011-05-28T20:13:39Z","tX":514,"tY":342,"tags":{"caravans":"yes","name":"Chequertree Trout & Coarse Fishery","scout":"no","tents":"yes","website":"http://www.chequertreefishery.co.uk/"}},"145591165":{"location":[50.9976274,0.9558111],"ct":"GB","tp":"CR","ts":"2024-11-24T09:53:10Z","tX":514,"tY":342,"tags":{"name":"Marlie Farm Holiday Park"}},"147288523":{"location":[51.0580799,1.0132749],"ct":"GB","tp":"CS","ts":"2024-08-31T20:34:35Z","tX":514,"tY":342,"tags":{"access":"yes","caravans":"yes","drinking_water":"yes","internet_access":"wlan","name":"Daleacres","network":"Caravan and Motorhome Club","opening_hours":"Mar 11-Nov 07","power_supply":"yes","sanitary_dump_station":"yes","shower":"yes","tents":"yes","toilets":"yes","website":"https://www.caravanclub.co.uk/club-sites/england/south-east-england/kent/daleacres-club-campsite/"}},"147337548":{"location":[51.0485917,1.034011],"ct":"GB","tp":"CR","ts":"2023-11-21T14:31:19Z","tX":514,"tY":342,"tags":{}},"155965763":{"location":[51.0638304,1.0541397],"ct":"GB","tp":"CR","ts":"2023-11-07T11:17:37Z","tX":514,"tY":342,"tags":{"name":"Prince of Wales Residential Park"}},"293742751":{"location":[51.1590021,1.036778],"ct":"GB","tp":"CS","ts":"2024-12-18T10:17:25Z","tX":514,"tY":342,"tags":{"name":"The Sunny Field","phone":"+44 1233 750024","source":"survey;bing","website":"https://www.thesunnyfield.co.uk/"}},"298985570":{"location":[51.0378351,0.9191717],"ct":"GB","tp":"CS","ts":"2022-06-27T07:52:54Z","tX":514,"tY":342,"tags":{"access":"members","caravans":"yes","charge":"16 GBP or more","fee":"yes","name":"Norwood Farm Campsite","network":"Camping and Caravanning Club","power_supply":"yes","tents":"yes","website":"http://norwoodfarmnewchurch.co.uk/"}},"737670554":{"location":[50.9793689,0.9200808],"ct":"GB","tp":"CS","ts":"2010-05-17T16:45:29Z","tX":514,"tY":342,"tags":{"addr:postcode":"TN29 9LS","addr:street":"Romney Road","name":"Romney Farm Camp Site","source":"survey"}},"806411001":{"location":[50.9999684,0.9540999],"ct":"GB","tp":"CS","ts":"2022-05-15T21:24:29Z","tX":514,"tY":342,"tags":{"name":"Marlie Farm Holiday Park"}},"838833651":{"location":[50.9783817,0.9607639],"ct":"GB","tp":"CR","ts":"2020-09-27T21:06:32Z","tX":514,"tY":342,"tags":{"addr:city":"Greatstone","addr:country":"GB","addr:postcode":"TN28 8BP","addr:street":"Clark Road","email":"info@newromneycaravanpark.co.uk","internet_access":"wlan","name":"New Romney Caravan Park","operator":"New Romney Caravan Park","phone":"+44 1797 362247","power_supply":"yes","source":"bing","tents":"yes","website":"https://www.newromneycaravanpark.co.uk"}},"965702371":{"location":[50.9887282,0.8965348],"ct":"GB","tp":"CR","ts":"2021-07-19T17:55:18Z","tX":514,"tY":342,"tags":{}},"1182954243":{"location":[51.1050877,1.03989],"ct":"GB","tp":"CS","ts":"2023-06-18T17:33:27Z","tX":514,"tY":342,"tags":{"name":"The Drum Inn"}},"1343028517":{"location":[51.1788957,1.0481793],"ct":"GB","tp":"CS","ts":"2024-12-17T18:08:42Z","tX":514,"tY":342,"tags":{}},"1343028562":{"location":[51.1607302,1.0361551],"ct":"GB","tp":"CS","ts":"2024-12-17T18:08:42Z","tX":514,"tY":342,"tags":{}},"1343028563":{"location":[51.1609405,1.0324943],"ct":"GB","tp":"CS","ts":"2024-12-17T18:08:42Z","tX":514,"tY":342,"tags":{}},"1343532284":{"location":[51.1465486,1.03418],"ct":"GB","tp":"CR","ts":"2024-12-18T17:03:48Z","tX":514,"tY":342,"tags":{}},"1348964521":{"location":[51.1550737,0.9441854],"ct":"GB","tp":"CS","ts":"2025-01-06T10:24:26Z","tX":514,"tY":342,"tags":{}},"7312224175":{"location":[51.0288711,0.7933406],"ct":"GB","tp":"CS","ts":"2020-03-20T11:41:30Z","tX":514,"tY":342,"tags":{}},"9702396022":{"location":[50.9714095,0.7054297],"ct":"GB","tp":"CS","ts":"2023-11-08T19:59:06Z","tX":514,"tY":342,"tags":{"addr:city":"Rye Foreign","addr:housename":"The Hare & Hounds","addr:postcode":"TN31 7ST","addr:street":"Rye Road","name":"Hare and Hounds Campsite","source":"survey","website":"https://www.hareandhoundsrye.co.uk/"}},"10048690393":{"location":[51.0560385,0.9473079],"ct":"GB","tp":"CS","ts":"2022-09-24T08:19:18Z","tX":514,"tY":342,"tags":{"access":"members","name":"Bellfield Farm","network":"Caravan and Motorhome Club"}}}