{"91003178":{"location":[50.9340854,0.8049623],"ct":"GB","tp":"CR","ts":"2025-06-14T11:03:22Z","tX":514,"tY":343,"tags":{"addr:city":"Camber","addr:country":"GB","addr:postcode":"TN31 7RT","bar":"yes","big_rigs":"yes","brand":"Parkdean Resorts","brand:wikidata":"Q7138226","brand:wikipedia":"en:Parkdean Resorts","camp_type":"established","caravans":"yes","credit_card:uplift":"no","description":"Large holiday resort at the coast with many entertainment facilities. Mainly fixed caravans, but als toring caravans, tents and campers.","dish_washing":"yes","dryer":"yes","fee":"GBP 49 (2 adults, camper)","fenced":"non_protecting","fireplace":"no","general_room":"no","guarded":"daytime","internet_access":"wlan","internet_access:fee":"yes","kitchen":"no","laundry":"yes","name":"Camber Sands Holiday Park","payment:credit_cards":"yes","pets":"yes","picnic_benches":"no","power_supply":"yes","power_supply:voltage":"220","restaurant":"yes","sanitary_dumpstation":"yes","shower":"hot","source":"survey","swimming_pool":"yes","tents":"no","toilets":"yes","toilets:disposal":"flush","toilets:position":"seated","washing_machine":"yes","water:location":"central","water:quality":"potable","website":"https://www.parkdeanresorts.co.uk/location/kent-sussex/camber-sands/"}},"93641300":{"location":[50.9349424,0.7611229],"ct":"GB","tp":"CR","ts":"2024-06-12T09:26:40Z","tX":514,"tY":343,"tags":{"alt_name":"Frenchman's Beach Holiday Park","campers":"no","caravans":"no","description":"Only fixed holiday homes and caravans, no space for touring tents, campers or caravans.","name":"Rye Harbour Holiday Park","source":"Bing","tents":"no"}},"95707401":{"location":[50.9332912,0.9044875],"ct":"GB","tp":"CR","ts":"2025-05-22T12:41:38Z","tX":514,"tY":343,"tags":{"addr:city":"Lydd","addr:postcode":"TN29 9JH","addr:street":"Dengemarsh Road","flats":"1 - 34","name":"Herons Park","source":"Bing"}},"165359471":{"location":[50.9141352,0.7208591],"ct":"GB","tp":"CR","ts":"2024-06-24T12:03:34Z","tX":514,"tY":343,"tags":{"name":"Winchelsea Sands"}},"165359472":{"location":[50.9122037,0.7234236],"ct":"GB","tp":"CR","ts":"2021-07-11T18:45:40Z","tX":514,"tY":343,"tags":{"name":"Rye Bay"}},"165359473":{"location":[50.9095118,0.7205606],"ct":"GB","tp":"CR","ts":"2021-07-11T18:45:30Z","tX":514,"tY":343,"tags":{"name":"Winchelsea Beach"}},"165359513":{"location":[50.9168316,0.7256824],"ct":"GB","tp":"CR","ts":"2023-04-06T22:11:23Z","tX":514,"tY":343,"tags":{"name":"Windmill Caravan Park"}},"167920280":{"location":[50.958386,0.9606394],"ct":"GB","tp":"CR","ts":"2022-07-31T00:44:43Z","tX":514,"tY":343,"tags":{"addr:postcode":"TN28 8RN","brand":"Parkdean Resorts","brand:wikidata":"Q7138226","brand:wikipedia":"en:Parkdean Resorts","name":"Romney Sands Holiday Park","operator":"Parkdean Resorts UK Limited","phone":"+44 1797 363877","website":"https://www.parkdeanresorts.co.uk/location/kent-sussex/romney-sands/"}},"1389112149":{"location":[50.9443463,0.8837255],"ct":"GB","tp":"CR","ts":"2025-05-23T18:09:52Z","tX":514,"tY":343,"tags":{"addr:city":"Lydd","addr:postcode":"TN29 9JN","addr:street":"Jury's Gap Road","name":"Lydd Caravan Park","phone":"07850329855"}},"10280272709":{"location":[50.9056035,0.7150425],"ct":"GB","tp":"CS","ts":"2022-12-22T13:35:00Z","tX":514,"tY":343,"tags":{"name":"Free Camping","opening_hours":"24/7"}}}