{"14011264":{"location":[49.8717211,1.042362],"ct":"FR","tp":"CS","ts":"2023-11-01T18:23:50Z","tX":514,"tY":347,"tags":{"addr:city":"Offranville","addr:housenumber":"453","addr:postcode":"76550","addr:street":"Rue Louis Loucheur","email":"camping@offranville.fr","name":"Camping du Colombier","operator":"Municipal","phone":"+33 2 35 85 21 14","stars":"2","website":"https://www.offranville.fr/2019-05-28-11-57-57/le-camping-municipal"}},"16935859":{"location":[49.8750983,0.7918323],"ct":"FR","tp":"PK","ts":"2025-03-06T06:25:57Z","tX":514,"tY":347,"tags":{"capacity":"40","charge":"2 EUR","fee":"yes","maxstay":"1 day","motorhome":"yes","motorhome:overnight":"no","name":"Parking des Falaises","parking":"surface","power_supply":"no","sanitary_dump_station":"no","surface":"grass","toilets":"no"}},"71038376":{"location":[49.8749437,0.8026396],"ct":"FR","tp":"CS","ts":"2024-10-31T11:30:56Z","tX":514,"tY":347,"tags":{"addr:city":"Veules-les-Roses","addr:country":"FR","addr:housenumber":"24","addr:postcode":"76980","addr:street":"Avenue Jean Moulin","email":"contact@camping-lesmouettes-normandie.com","name":"Les Mouettes","phone":"+33 2 35 97 61 98","stars":"3","website":"https://vacances-seasonova.com/fr/camping/camping-les-mouettes/"}},"90497255":{"location":[49.883927,0.8516125],"ct":"FR","tp":"CS","ts":"2021-05-04T20:00:40Z","tX":514,"tY":347,"tags":{"addr:city":"Saint-Aubin-sur-Mer","addr:country":"FR","addr:postcode":"76740","addr:street":"Route de Sotteville","email":"contact@campinglemesnil.com","name":"Le Mesnil","phone":"+33 2 35 83 02 83","stars":"3","website":"https://www.campinglemesnil.com"}},"117637076":{"location":[49.8785682,0.8288644],"ct":"FR","tp":"CS","ts":"2023-03-09T07:46:28Z","tX":514,"tY":347,"tags":{"addr:city":"Sotteville-sur-Mer","addr:country":"FR","addr:housenumber":"240","addr:postcode":"76740","addr:street":"Rue Jean Antheaume","capacity":"61","caravans":"yes","email":"contact@campinglespommiers.fr","name":"Les Pommiers","phone":"+33 2 35 97 62 12","shower":"yes","stars":"3","tents":"yes","toilets":"yes","website":"https://www.campinglespommiers.fr"}},"117815844":{"location":[49.8578246,0.7596578],"ct":"FR","tp":"CS","ts":"2025-04-01T06:00:07Z","tX":514,"tY":347,"tags":{"addr:city":"Manneville-ès-Plains","addr:country":"FR","addr:postcode":"76460","addr:street":"Rue du Bois","name":"Aire naturelle Le Bois"}},"163559524":{"location":[49.8723568,0.7088496],"ct":"FR","tp":"CR","ts":"2024-10-17T17:50:39Z","tX":514,"tY":347,"tags":{"capacity":"40","caravan_site":"motorhome_stopover","caravan_site:type":"beach","charge":"9 EUR","dog":"yes","fee":"yes","name":"Aire de camping-cars Saint-Valery-en-Caux","sanitary_dump_station":"yes","seasonal":"no","services:charge":"3.50 EUR","water_point":"yes","website":"https://www.normandie-tourisme.fr/aires-camping-cars/aire-de-stationnement-et-de-service-de-saint-valery-en-caux/"}},"233232154":{"location":[49.8758419,0.8023471],"ct":"FR","tp":"CR","ts":"2024-10-10T23:21:23Z","tX":514,"tY":347,"tags":{"capacity":"14","caravan_site":"motorhome_stopover","caravan_site:type":"beach","charge":"16 EUR/day","fee":"yes","name":"Les Mouettes","sanitary_dump_station":"yes","shower":"yes","toilets":"yes","website":"https://www.seine-maritime-tourisme.com/diffusio/fr/je-choisis/un-hebergement/hebergements/veules-les-roses/aire-de-stationnement-a-proximite-du-camping-les-mouettes_TFOHPANOR076V503M2I.php"}},"319124178":{"location":[49.8513846,0.9584811],"ct":"FR","tp":"CS","ts":"2023-10-26T18:39:34Z","tX":514,"tY":347,"tags":{"addr:housenumber":"101","addr:street":"rue de la Vallée","name":"Camping de la Vallée","phone":"+33 2 35 83 08 94","stars":"2","website":"https://www.camping-de-la-vallee.com"}},"398929071":{"location":[49.9093403,1.041562],"ct":"FR","tp":"CS","ts":"2021-05-04T20:00:40Z","tX":514,"tY":347,"tags":{"addr:city":"Hautot-sur-Mer","addr:country":"FR","addr:postcode":"76550","addr:street":"Rue de la Mer","email":"contact@campinglemarqueval.com","fee":"yes","name":"Le Marqueval","phone":"+33 2 35 82 66 46","source":"cadastre-dgi-fr source : Direction Générale des Impôts - Cadastre. Mise à jour : 2009","stars":"4","website":"https://www.campinglemarqueval.com","wheelchair":"yes"}},"510097606":{"location":[49.8619088,0.8884861],"ct":"FR","tp":"CS","ts":"2024-09-20T16:54:49Z","tX":514,"tY":347,"tags":{"addr:city":"Le Bourg-Dun","addr:country":"FR","addr:housenumber":"12","addr:postcode":"76740","addr:street":"Route De Luneray","email":"info@lesgarennes.fr","fee":"yes","name":"Les Garennes De La Mer","phone":"+33 2 35 83 10 44","stars":"3","website":"https://lesgarennes.fr"}},"528185300":{"location":[49.8928637,0.8700619],"ct":"FR","tp":"CS","ts":"2021-05-04T20:00:40Z","tX":514,"tY":347,"tags":{"addr:city":"Saint-Aubin-sur-Mer","addr:country":"FR","addr:postcode":"76740","addr:street":"Rue de la Mer","email":"camping.de.la.plage@orange.fr","name":"Camping Municipal du Grand Sable","phone":"+33 2 35 04 03 55","stars":"2","website":"https://www.campingdugrandsable.com"}},"729366947":{"location":[49.8982559,0.9142618],"ct":"FR","tp":"CS","ts":"2024-05-24T07:27:41Z","tX":514,"tY":347,"tags":{"addr:city":"Quiberville","addr:country":"FR","addr:housenumber":"291","addr:postcode":"76860","addr:street":"Rue du Faux Port","capacity":"33","caravans":"yes","name":"GCU Quiberville","operator":"Groupement des Campeurs Universitaires","phone":"+33 2 35 85 75 57","sanitary_dump_station":"customers","stars":"2","static_caravans":"no","tents":"yes","website":"https://www.gcu.asso.fr/terrains/quiberville-seine-maritime-76"}},"1122583662":{"location":[49.8988343,0.9289084],"ct":"FR","tp":"CS","ts":"2023-11-01T18:29:35Z","tX":514,"tY":347,"tags":{"addr:street":"Route de la Vallée","caravans":"yes","name":"Domaine Saâne et Mer","operator":"Seasonova","phone":"+33 236810001","stars":"4","start_date":"2023-04","tents":"yes","website":"https://vacances-seasonova.com/fr/camping/normandie-quiberville/"}},"1321651296":{"location":[49.8579731,0.8797693],"ct":"FR","tp":"CR","ts":"2024-10-06T16:57:28Z","tX":514,"tY":347,"tags":{"addr:city":"Saint-Pierre-le-Vieux","addr:housenumber":"21","addr:postcode":"76740","addr:street":"Route de la Vallée du Dun","capacity":"6","caravan_site":"motorhome_stopover","caravan_site:type":"village;river","name":"Le Relais de la Vallée","opening_hours":"24/7","operator":"Sr. Dufour Pascal","phone":"+33 2 35 83 04 59"}},"2380594174":{"location":[49.8721675,0.7094151],"ct":"FR","tp":"SD","ts":"2015-03-28T01:35:03Z","tX":514,"tY":347,"tags":{}},"7660655900":{"location":[49.8965,1.0544697],"ct":"FR","tp":"SD","ts":"2024-10-30T23:22:24Z","tX":514,"tY":347,"tags":{"access":"yes","fee":"no","name":"Aire de Service Camping car du Plessis","power_supply":"no","sanitary_dump_station":"yes","sanitary_dump_station:chemical_toilet":"yes","sanitary_dump_station:gravity":"no","water_point":"yes"}}}