{"504389324":{"location":[49.6323701,0.8418627],"ct":"FR","tp":"CS","ts":"2021-08-18T13:05:52Z","tX":514,"tY":348,"tags":{"addr:city":"Flamanville","addr:housenumber":"21","addr:postcode":"76970","addr:street":"Rue Verte","fee":"yes","internet_access":"no","name":"Camping à la ferme de Flamanville","phone":"+33235968127","power_supply":"yes","shower":"yes","toilets":"yes","website":"https://www.normandie-tourisme.fr/camping/camping-a-la-ferme-de-flamanville/"}},"971959973":{"location":[49.7357255,0.9750561],"ct":"FR","tp":"CR","ts":"2024-10-12T16:12:34Z","tX":514,"tY":348,"tags":{"addr:city":"saint pierre benouville","capacity":"6","caravan_site":"motorhome_stopover","caravan_site:type":"countryside","caravans":"no","fee":"no","name":"Aire de camping car de Saint Pierre Benouville","power_supply":"yes","power_supply:capacity":"6","sanitary_dump_station":"yes","sanitary_dump_station:chemical_toilet":"yes","sanitary_dump_station:grey_water":"yes","seasonal":"no","shower":"yes","tents":"no","toilets":"yes","water_point":"yes","website":"https://www.seine-maritime-tourisme.com/diffusio/en/i-choose/an-accommodation/motorhomes/saint-pierre-benouville/aire-de-stationnement-et-de-service-de-saint-pierre-benouville_TFOHPANOR076V51A51S.php"}},"1086164625":{"location":[49.7038891,0.9650625],"ct":"FR","tp":"CR","ts":"2024-10-30T22:29:17Z","tX":514,"tY":348,"tags":{"capacity":"6","caravan_site":"motorhome_stopover","fee":"no","name":"Aire de stationnement et de services Val-de-Saäne","opening_hours":"24/7","operator":"Communauté de communes Terroir de Caux","picnic_area":"yes","power_supply":"yes","power_supply:fee":"yes","reservation":"no","sanitary_dump_station":"yes","seasonal":"no","water_point":"yes","water_point:fee":"yes","wheelchair":"yes"}},"1323444975":{"location":[49.7199516,0.7877165],"ct":"FR","tp":"CR","ts":"2024-10-26T21:04:50Z","tX":514,"tY":348,"tags":{"addr:postcode":"76560","addr:street":"Rue du Mont Criquet","capacity":"12","caravan_site":"motorhome_stopover","caravan_site:type":"village","caravans":"no","fee":"no","maxstay":"48 hours","name":"Aire de stationnement de Doudeville","opening_hours":"24/7","phone":"+33 2 35 95 07 25","sanitary_dump_station":"yes","sanitary_dump_station:chemical_toilet":"yes","sanitary_dump_station:grey_water":"yes","services:charge":"2 EUR","tents":"no","water_point":"yes","website":"https://www.normandie-tourisme.fr/aires-camping-cars/aire-de-stationnement-et-de-service-de-doudeville/"}},"6089438025":{"location":[49.6161621,0.7619704],"ct":"FR","tp":"SD","ts":"2022-01-10T22:01:03Z","tX":514,"tY":348,"tags":{"addr:housenumber":"54","addr:postcode":"76190","addr:street":"Rue de l'Étang","opening_hours":"24/7","phone":"+33 2 35 95 08 40"}},"9952391138":{"location":[49.703926,0.9649267],"ct":"FR","tp":"SD","ts":"2024-10-30T22:29:17Z","tX":514,"tY":348,"tags":{}}}