{"12871054":{"location":[49.4128681,0.8424856],"ct":"FR","tp":"CS","ts":"2021-06-21T20:53:06Z","tX":514,"tY":349,"tags":{"addr:city":"Le Mesnil-sous-Jumièges","addr:country":"FR","addr:housenumber":"4","addr:postcode":"76480","addr:street":"Route du Manoir","capacity":"115","email":"contact@campinglacjumieges.fr","name":"Camping du lac","phone":"+33 2 32 13 30 05","stars":"3","website":"https://www.campinglacjumieges.fr"}},"12875007":{"location":[49.4109814,0.8107797],"ct":"FR","tp":"CS","ts":"2024-10-28T18:47:21Z","tX":514,"tY":349,"tags":{"addr:city":"Jumièges","addr:country":"FR","addr:housenumber":"2699","addr:postcode":"76480","email":"campingdelaseine@gmail.com","name":"Camping de la Seine","phone":"+33 6 60 22 84 22","stars":"4","website":"https://www.campingdelaseine.com"}},"13643568":{"location":[49.5066682,0.9849864],"ct":"FR","tp":"CS","ts":"2023-10-29T19:43:39Z","tX":514,"tY":349,"tags":{"name":"Les Nénuphars","stars":"2","website":"https://www.camping-les-nenuphars.com/"}},"14720619":{"location":[49.4310783,0.814564],"ct":"FR","tp":"CR","ts":"2024-08-12T12:41:43Z","tX":514,"tY":349,"tags":{"addr:city":"Jumièges","addr:postcode":"76480","addr:street":"Rue Alphonse Callaïs","bus":"yes","capacity":"20","caravan_site":"motorhome_stopover","caravan_site:type":"village","fee":"no","hgv":"yes","lit":"no","motor_vehicle":"yes","name":"Aire de stationnement de Jumièges","sanitary_dump_station":"yes","sanitary_dump_station:chemical_toilet":"yes","sanitary_dump_station:grey_water":"yes","surface":"gravel","water_point:conditional":"no@(Dec-Feb)","website":"https://www.normandie-tourisme.fr/aires-camping-cars/aire-de-stationnement-et-de-service-de-jumieges/"}},"17018154":{"location":[49.4478521,0.8142121],"ct":"FR","tp":"CR","ts":"2024-04-04T07:35:17Z","tX":514,"tY":349,"tags":{"addr:city":"Heurteauville","addr:postcode":"76940","addr:street":"Quai Édouard Salmon","capacity":"20","caravan_site":"motorhome_stopover","caravan_site:type":"river","charge":"12 EUR","fee":"yes","internet_access":"no","name":"La Palmeraie","power_supply":"yes","power_supply:charge":"4 EUR","sanitary_dump_station":"yes","services:charge":"4 EUR","water_point":"yes"}},"17459961":{"location":[49.4844833,0.7711843],"ct":"FR","tp":"CS","ts":"2024-04-11T17:22:56Z","tX":514,"tY":349,"tags":{"addr:city":"Arelaune-en-Seine","addr:housenumber":"65","addr:postcode":"76940","addr:street":"Rue Victor Hugo","capacity":"30","description":"Situé agréablement en bordure de Seine, dans le bourg à proximité des commerces, le camping municipal du parc vous attend pour un séjour au calme, entre Seine et forêt sur la rive sud de la Seine. Le terrain municipal s'étend dans l'ancien parc du Château","email":"mairie-sg.lamaillerayesurseine@wanadoo.fr","name":"Camping municipal Le Parc","operator":"Commune de la Mailleraie-sur-Seine","phone":"+33 2 35 37 12 04","website":"https://www.seine-maritime-tourisme.com/diffusio/fr/je-choisis/un-hebergement/campings/arelaune-en-seine/camping-le-parc_TFOHPANOR076FS0003N.php"}},"284872736":{"location":[49.4343834,0.8300334],"ct":"FR","tp":"CS","ts":"2023-07-17T21:36:40Z","tX":514,"tY":349,"tags":{"access":"private","addr:city":"Jumièges","addr:country":"FR","addr:postcode":"76480","addr:street":"Rue Mainberte","capacity":"110","description":"Label Normandie qualité tourisme et Accueil vélo","email":"info@campinglaforet.com","fee":"yes","name":"Camping de la Forêt","phone":"+33 2 35 37 93 43","stars":"4","website":"https://www.campinglaforet.com"}},"336277669":{"location":[49.5210057,0.7272239],"ct":"FR","tp":"CR","ts":"2024-09-18T14:20:53Z","tX":514,"tY":349,"tags":{"capacity":"8","caravan_site":"motorhome_stopover","caravan_site:type":"river","fee":"no","image":"https://i.imgur.com/rBZaEir.jpg","image:0":"https://i.imgur.com/TpFZyRP.jpg","image:1":"https://i.imgur.com/6zCGvZf.jpg","internet_access":"no","name":"Aire camping-car Saint-Nicolas-de-Bliquetuit","picnic_area":"yes","sanitary_dump_station":"yes","surface":"asphalt"}},"356955335":{"location":[49.5221217,0.7032685],"ct":"FR","tp":"CS","ts":"2021-05-04T20:00:40Z","tX":514,"tY":349,"tags":{"addr:city":"Rives-en-Seine","addr:country":"FR","addr:housenumber":"16","addr:postcode":"76490","addr:street":"Route de Villequier","email":"campingbarreyva@orange.fr","name":"Barre y va","phone":"+33 2 35 96 26 38","stars":"4","website":"https://www.camping-barre-y-va.com"}},"613917473":{"location":[49.4456765,0.892604],"ct":"FR","tp":"CS","ts":"2024-06-06T12:14:35Z","tX":514,"tY":349,"tags":{"addr:city":"Anneville-Ambourville","addr:housenumber":"306","addr:postcode":"76480","addr:street":"Chemin d'Ambourville","camp_site":"standard","description":"Camping naturiste, adhésion préalable au club.","email":"accueilcnr@gmail.com","name":"Camping naturistes rouennais La Chesnaie","nudism":"yes","operator":"Club des naturistes rouennais","phone":"+33 9 81 90 51 28","stars":"2","website":"https://www.campingnaturistelachenaie.com/"}},"688649365":{"location":[49.4839987,0.773612],"ct":"FR","tp":"CR","ts":"2024-10-28T22:37:52Z","tX":514,"tY":349,"tags":{"capacity":"34","capacity:caravans":"40","caravan_site":"motorhome_stopover","caravan_site:type":"river","charge":"7.50 EUR","fee":"yes","name":"Aire de stationnement de La Mailleraye sur Seine","power_supply":"no","sanitary_dump_station":"yes","surface":"grass","website":"https://www.normandie-tourisme.fr/aires-camping-cars/aire-de-stationnement-et-de-service-de-la-mailleraye-sur-seine/"}},"1323008723":{"location":[49.5407161,0.7672492],"ct":"FR","tp":"CR","ts":"2024-10-10T21:36:21Z","tX":514,"tY":349,"tags":{"capacity":"4","caravan_site":"motorhome_stopover","caravan_site:type":"farm","caravans":"yes","charge":"7 EUR","email":"fermedelamarestw@nordnet.fr","fee":"yes","internet_access":"wlan","name":"Aire de La Ferme de La Mare","phone":"+33 6 09853103","power_supply":"yes","power_supply:charge":"2 EUR","power_supply:fee":"yes","seasonal":"no","shower":"yes","toilets":"yes","toilets:charge":"2 EUR","water_point":"yes","water_point:fee":"no","website":"https://www.fermedelamarestwandrille.com/aire-camping-cars"}},"4584335175":{"location":[49.4308452,0.8149726],"ct":"FR","tp":"SD","ts":"2023-06-17T10:39:34Z","tX":514,"tY":349,"tags":{"access":"yes","description":"Jetons à L'Épicerie de Jumièges, 259, Rue Guillaume le Conquérant","fee":"no","opening_hours":"24/7","sanitary_dump_station:basin":"yes","sanitary_dump_station:round_drain":"yes"}}}