{"438286797":{"location":[48.4268859,0.766565],"ct":"FR","tp":"CS","ts":"2024-07-21T19:03:24Z","tX":514,"tY":354,"tags":{"addr:housenumber":"2","addr:street":"Rue Husine","name":"Camping des Bords de l'Huisne","phone":"+33 2 33 73 71 23","website":"https://remalardenperche.fr/vie-de-la-commune/camping/"}},"1040064709":{"location":[48.4359369,0.8867848],"ct":"FR","tp":"CR","ts":"2024-10-18T16:20:39Z","tX":514,"tY":354,"tags":{"capacity":"4","caravan_site":"motorhome_stopover","caravan_site:type":"village","caravans":"no","fee":"no","name":"Aire de service de la Croix des Chênes - Bretoncelles","opening_hours":"24/7","power_supply":"no","power_supply:fee":"yes","sanitary_dump_station":"yes","seasonal":"no","tents":"no","water_point":"yes","water_point:fee":"yes","website":"https://www.parc-naturel-perche.fr/ou-dormir-0/campings/aire-de-service-de-la-croix-des-chenes-768218"}},"1286405295":{"location":[48.3119935,0.9969476],"ct":"FR","tp":"CR","ts":"2024-05-24T21:17:32Z","tX":514,"tY":354,"tags":{"capacity":"5","caravan_site":"motorhome_stopover","caravan_site:type":"village","fee":"no","name":"Aire de camping-car de Thiron-Gardais","seasonal":"no","website":"https://www.tourisme-orleansmetropole.com/en/accomodation/camping-car-area-thiron-gardais/"}},"6461567722":{"location":[48.3246654,0.9256933],"ct":"FR","tp":"CS","ts":"2023-11-11T17:33:56Z","tX":514,"tY":354,"tags":{"addr:city":"Brunelles","addr:postcode":"28400","caravans":"yes","name":"Camping Le Bois Jahan","phone":"+33 2 37 52 14 73","shower":"yes","tents":"yes","toilets":"yes","website":"https://www.leboisjahan.com/"}},"6734395061":{"location":[48.3116349,0.9873511],"ct":"FR","tp":"CS","ts":"2023-04-24T06:58:59Z","tX":514,"tY":354,"tags":{"cabins":"yes","caravans":"yes","email":"or@campingdeletang.fr","mobile":"+33 7 83 37 11 65","name":"Camping de l’Étang","note":"L’accueil est fermé mais l'exploitant est joignable via l'office de tourisme.","shower":"yes","tents":"yes","toilets":"yes","website":"http://campingdeletang.fr"}},"10815178172":{"location":[48.3250088,0.8156195],"ct":"FR","tp":"CR","ts":"2024-02-29T11:29:53Z","tX":514,"tY":354,"tags":{"addr:city":"Nogent-le-Rotrou","addr:postcode":"28400","addr:street":"Rue des Viennes","caravan_site":"motorhome_stopover","caravan_site:type":"town","charge":"7.40 EUR","fee":"yes","motorhome":"designated","name":"Aire de camping-cars des Viennes","power_supply":"yes","sanitary_dump_station":"yes","water_point":"yes"}},"8553777091":{"location":[48.3246919,0.8162239],"ct":"FR","tp":"SD","ts":"2021-03-23T12:45:43Z","tX":514,"tY":354,"tags":{"access":"yes","fee":"no","operator":"mairie nogent le rotrou"}},"11931664204":{"location":[48.3119249,0.9966432],"ct":"FR","tp":"SD","ts":"2024-05-24T21:17:32Z","tX":514,"tY":354,"tags":{"access":"yes"}}}