{"42033845":{"location":[47.9268697,0.7452129],"ct":"FR","tp":"CS","ts":"2018-03-21T21:37:34Z","tX":514,"tY":356,"tags":{"name":"Camping du Lac"}},"129302645":{"location":[47.8798613,0.8014648],"ct":"FR","tp":"CS","ts":"2024-05-21T16:31:13Z","tX":514,"tY":356,"tags":{"access":"customers","addr:city":"Savigny sur Braye","addr:housenumber":"3","addr:street":"Avenue de la Gare","cabins":"no","capacity:pitches":"70","caravans":"yes","contact:email":"arnolanglais41@gmail.com","contact:phone":"+33 649151296","drinking_water":"yes","fee":"yes","hot_water":"yes","name":"Le Pré aux Moines","opening_hours":"Jun-Oct","operator":"Arnaud Langlais","power_supply":"yes","shower":"yes","source":"survey","static_caravans":"no","tents":"yes","toilets":"yes","website":"https://www.vendome-tourisme.fr/offres/camping-le-pre-aux-moines-savigny-sur-braye-fr-4270075/","wheelchair":"yes"}},"178204306":{"location":[47.8314424,0.7553885],"ct":"FR","tp":"CS","ts":"2024-06-27T13:37:01Z","tX":514,"tY":356,"tags":{"access":"yes","addr:city":"Bessé-sur-Braye","addr:housenumber":"25","addr:postcode":"72310","addr:street":"Rue du Val de Braye","capacity:caravans":"60","capacity:persons":"200","capacity:tents":"50","caravans":"yes","charge":"16","fee":"yes","landuse":"commercial","name":"Resort & Camping Val De Braye","payment:cash":"yes","payment:checks":"yes","payment:cheques_vacances":"yes","payment:credit_cards":"yes","payment:debit_cards":"yes","source":"Bing Sat","static_caravans":"yes","tents":"yes"}},"297289475":{"location":[47.9834757,0.8924365],"ct":"FR","tp":"CR","ts":"2024-05-22T12:30:04Z","tX":514,"tY":356,"tags":{"caravan_site":"motorhome_stopover","caravan_site:type":"village","charge":"9 EUR","charge:conditional":"7 EUR @ (Oct-Apr)","dog":"yes","fee":"yes","name":"Aire Park de Mondoubleau","network":"AirePark","old_name":"Camping de Mondoubleau","opening_hours":"24/7","power_supply":"yes","power_supply:capacity":"40","reservation":"yes","sanitary_dump_station":"yes","tents":"no","water_point":"yes","website":"https://www.aireparkreservation.com/aires-camping-cars/centre-val-de-loire/loir-et-cher/mondoubleau"}},"361504043":{"location":[47.7576907,0.8697321],"ct":"FR","tp":"CR","ts":"2024-10-24T20:07:41Z","tX":514,"tY":356,"tags":{"addr:city":"Montoire sur le Loir","addr:postcode":"41800","addr:street":"Avenue de la République","capacity":"6","caravan_site":"motorhome_stopover","caravan_site:type":"village","fee":"no","name":"Aire de stationnement et services - Montoire-sur-le-Loir","opening_hours":"24/7","power_supply":"yes","sanitary_dump_station":"yes","seasonal":"no","website":"https://www.valdeloire-france.com/aires-camping-cars/aire-de-stationnement-et-services-montoire-sur-le-loir/"}},"377725341":{"location":[47.8319829,0.7553765],"ct":"FR","tp":"CS","ts":"2024-06-27T13:37:01Z","tX":514,"tY":356,"tags":{"access":"yes","addr:city":"Bessé-sur-Braye","addr:housenumber":"25","addr:postcode":"72310","addr:street":"Rue du Val de Braye","capacity:caravans":"60","capacity:persons":"200","capacity:tents":"50","caravans":"yes","charge":"16","fee":"yes","landuse":"commercial","name":"Resort & Camping Val De Braye","payment:cash":"yes","payment:checks":"yes","payment:cheques_vacances":"yes","payment:credit_cards":"yes","payment:debit_cards":"yes","source":"Bing Sat","static_caravans":"yes","tents":"yes"}},"765896153":{"location":[47.8022234,0.9578007],"ct":"FR","tp":"CS","ts":"2020-01-23T07:01:05Z","tX":514,"tY":356,"tags":{"name":"La Bonne Aventure"}},"918668127":{"location":[47.9245647,0.7421969],"ct":"FR","tp":"CR","ts":"2023-12-21T18:06:47Z","tX":514,"tY":356,"tags":{"caravan_site":"motorhome_stopover","caravan_site:type":"parking_lot","dog":"yes","fee":"yes","name":"Aire Communale Saint-Calais","opening_hours":"24/7","power_supply":"yes","sanitary_dump_station":"yes","sanitary_dump_station:chemical_toilet":"yes","sanitary_dump_station:grey_water":"yes","seasonal":"no","tents":"no","water_point":"yes"}},"1017832562":{"location":[47.7781895,0.8925177],"ct":"FR","tp":"CR","ts":"2024-05-21T15:00:08Z","tX":514,"tY":356,"tags":{"caravan_site":"motorhome_stopover","caravan_site:type":"river;village","fee":"no","name":"Aire Les Roches-L'eveque","sanitary_dump_station":"yes","website":"https://www.valdeloire-france.com/aire-camping-car/aire-de-stationnement-et-services-les-roches-leveque/"}},"1285164012":{"location":[47.8648792,0.9779428],"ct":"FR","tp":"CR","ts":"2024-05-21T11:55:10Z","tX":514,"tY":356,"tags":{"capacity":"6","caravan_site":"motorhome_stopover","caravan_site:type":"farm","charge":"12 EUR","fee":"yes","name":"Les petites places","power_supply":"yes","sanitary_dump_station":"yes","water_point":"yes","website":"https://www.val-de-loire-41.com/camping-car/aire-d-accueil-de-stationnement-et-de-service-camping-cars-a-aze-acccen0000001v/"}},"1296634663":{"location":[47.8316633,0.7533319],"ct":"FR","tp":"CS","ts":"2024-06-27T13:37:01Z","tX":514,"tY":356,"tags":{"access":"yes","addr:city":"Bessé-sur-Braye","addr:housenumber":"25","addr:postcode":"72310","addr:street":"Rue du Val de Braye","capacity:caravans":"60","capacity:persons":"200","capacity:tents":"50","caravans":"yes","charge":"16","fee":"yes","landuse":"commercial","name":"Resort & Camping Val De Braye","payment:cash":"yes","payment:checks":"yes","payment:cheques_vacances":"yes","payment:credit_cards":"yes","payment:debit_cards":"yes","source":"Bing Sat","static_caravans":"yes","tents":"yes"}},"4045639230":{"location":[47.9253815,0.8452431],"ct":"FR","tp":"CS","ts":"2023-07-02T11:39:08Z","tX":514,"tY":356,"tags":{"caravans":"yes","fee":"yes","mobile":"+33 6 60 73 22 17","name":"Camping municipal Sargé-sur-Braye","opening_hours":"May-Sep","operator":"commune de Sargé-sur-Braye","phone":"+33 2 54 72 72 65","shower":"yes","tents":"yes","toilets":"yes","website":"https://www.sargesurbraye.com/page/camping_municipal"}},"11922378843":{"location":[47.9034485,0.9047078],"ct":"FR","tp":"CR","ts":"2024-05-21T14:33:11Z","tX":514,"tY":356,"tags":{"capacity":"5","caravan_site":"motorhome_stopover","caravan_site:type":"farm_shop","check_in":"20:00","dog":"yes","fee":"no","name":"La Ferme de l’Etang","network":"France Passion","product":"terrines","website":"https://www.ferme-etang.com/"}},"11432760173":{"location":[47.757873,0.8696279],"ct":"FR","tp":"SD","ts":"2023-12-19T20:36:37Z","tX":514,"tY":356,"tags":{"access":"yes","fee":"no","sanitary_dump_station:chemical_toilet":"yes","sanitary_dump_station:grey_water":"yes"}},"11922514817":{"location":[47.7778004,0.892375],"ct":"FR","tp":"SD","ts":"2024-05-21T15:00:08Z","tX":514,"tY":356,"tags":{"access":"yes","fee":"yes"}},"11925502984":{"location":[47.7750425,0.7885346],"ct":"FR","tp":"SD","ts":"2024-05-22T11:59:20Z","tX":514,"tY":356,"tags":{"access":"yes","fee":"yes","water_point":"yes","website":"https://www.valdeloire-france.com/aire-camping-car/aire-de-services-troo/"}}}