{"26858755":{"location":[44.976111,1.046944],"ct":"FR","tp":"CS","ts":"2012-12-02T14:37:00Z","tX":514,"tY":368,"tags":{"name":"Camping Le Vézère Périgord"}},"26858793":{"location":[44.8808723,0.8855581],"ct":"FR","tp":"CS","ts":"2019-12-27T18:48:50Z","tX":514,"tY":368,"tags":{"email":"contact@leportdelimeuil.com","name":"Le Port de Limeuil ****","opening_hours":"Apr 30 - Sep 23","phone":"+33 553 632 976","stars":"4","website":"https://www.leportdelimeuil.com/"}},"74757567":{"location":[44.9449096,0.9593387],"ct":"FR","tp":"CS","ts":"2011-08-25T10:14:55Z","tX":514,"tY":368,"tags":{"name":"Camping Brin d'Amour","source":"extrapolation"}},"206293417":{"location":[44.8521374,1.0485691],"ct":"FR","tp":"CS","ts":"2020-09-13T21:22:04Z","tX":514,"tY":368,"tags":{"addr:city":"Castels","addr:place":"Les Masseries","addr:postcode":"24220","capacity":"129","caravans":"yes","internet_access":"wlan","name":"Camping GCU de Castels","operator":"Groupement des Campeurs Universitaires","phone":"+33 5 53 30 30 14","stars":"2","tents":"yes","washing_machine":"yes","website":"https://www.gcu.asso.fr","wheelchair":"yes"}},"207342670":{"location":[44.9385851,1.0096057],"ct":"FR","tp":"CR","ts":"2024-10-07T18:28:28Z","tX":514,"tY":368,"tags":{"bbq":"yes","capacity":"42","caravan_site":"motorhome_stopover","caravan_site:type":"river","caravans":"no","charge":"15 EUR","charge:conditional":"13 EUR @(Oct 15-Apr 30)","dog":"leashed","fee":"yes","internet_access":"wlan","maxlength":"9","name":"Camping-Car Park Les Eyzies","name:signed":"no","network":"CAMPING-CAR PARK","power_supply:capacity":"42","power_supply:fee":"no","power_supply:maxcurrent":"6","tents":"no","toilets":"yes","trailer":"no","water_point":"yes","water_point:fee":"no","website":"https://www.campingcarpark.com/en_GB/stay/stopover-site-motorhome/nouvelle-aquitaine/24-dordogne/les-eyzies-de-tayac-sireuil"}},"223436315":{"location":[44.9095386,0.9328729],"ct":"FR","tp":"CS","ts":"2019-07-11T10:48:02Z","tX":514,"tY":368,"tags":{"contact:website":"http://www.camping-des-trois-caupain.com/","name":"Les Trois Caupain","source":"survey; bing","stars":"3"}},"232037600":{"location":[45.0708959,0.9709676],"ct":"FR","tp":"CS","ts":"2024-11-25T09:04:46Z","tX":514,"tY":368,"tags":{"access":"customers","addr:city":"Rouffignac-Saint-Cernin-de-Reilhac","addr:housenumber":"1323","addr:postcode":"24580","addr:street":"Route de l'Herm","caravans":"yes","description":"Dans le paysage verdoyant et vallonné du Périgord Noir, avec ses forêts, ses prairies, ses rivières, ses châteaux et ses grottes, se niche le sympathique camping naturiste Le Coteau de l’Herm.","email":"info@naturisme-dordogne.com","fee":"yes","name":"Le Coteau de l'Herm","nudism":"yes","phone":"+33 7 81 55 15 48","static_caravans":"yes","tents":"yes","website":"https://www.naturisme-dordogne.com"}},"232038263":{"location":[45.0656153,0.8874342],"ct":"FR","tp":"CS","ts":"2024-06-03T16:57:24Z","tX":514,"tY":368,"tags":{"addr:city":"La Douze","addr:postcode":"24330","addr:street":"Lieu Dit Laulurie","fee":"yes","name":"Camping Le Domaine du Bois Coquet","operator":"Virginie et Anthony Gaudet"}},"290370035":{"location":[44.8766008,0.7398972],"ct":"FR","tp":"CS","ts":"2014-06-29T13:53:32Z","tX":514,"tY":368,"tags":{"name":"Camping de La Finou"}},"296014548":{"location":[44.8840241,0.8912106],"ct":"FR","tp":"PK","ts":"2023-08-02T13:51:47Z","tX":514,"tY":368,"tags":{"access":"yes","caravans":"yes","fee":"yes","name":"P4","parking":"surface","surface":"gravel"}},"399957542":{"location":[44.9436032,0.847949],"ct":"FR","tp":"CS","ts":"2016-02-25T14:30:09Z","tX":514,"tY":368,"tags":{"name":"Le Diamant Noir"}},"410572412":{"location":[44.8932566,0.913651],"ct":"FR","tp":"CS","ts":"2023-06-24T16:26:10Z","tX":514,"tY":368,"tags":{"addr:city":"Limeuil","addr:country":"FR","addr:postcode":"24510","caravans":"yes","email":"accueil@perdigat.com","internet_access":"wlan","internet_access:fee":"yes","name":"Camping La Ferme De Perdigat","phone":"+33 5 53 63 31 54","power_supply":"yes","sanitary_dump_station":"customers","website":"https://www.perdigat.com/"}},"422854911":{"location":[44.853998,0.911887],"ct":"FR","tp":"CS","ts":"2019-12-27T16:19:01Z","tX":514,"tY":368,"tags":{"name":"Le Pont de Vic","opening_hours":"Apr 1 - Oct 31","phone":"+33 553 220173","stars":"3","website":"https://www.campinglepontdevicq.com/camping-pont-de-vicq-tarifs.html"}},"426161922":{"location":[44.978055,1.0485035],"ct":"FR","tp":"CS","ts":"2023-11-08T17:05:26Z","tX":514,"tY":368,"tags":{"name":"Fournet","website":"https://ferme-fournet.fr/"}},"443167607":{"location":[44.9805951,1.0445412],"ct":"FR","tp":"CS","ts":"2023-11-08T17:05:32Z","tX":514,"tY":368,"tags":{"addr:city":"Tursac","addr:postcode":"24620","contact:email":"campingbouyssou@wanadoo.fr","name":"Bouyssou","phone":"+33553069808","website":"https://campingbouyssou24.pagesperso-orange.fr/camping.html"}},"443168471":{"location":[44.9837928,1.0473264],"ct":"FR","tp":"CS","ts":"2016-09-19T10:17:18Z","tX":514,"tY":368,"tags":{}},"452434235":{"location":[44.8565413,1.0373255],"ct":"FR","tp":"CS","ts":"2019-04-26T23:16:27Z","tX":514,"tY":368,"tags":{"name":"Camping du Garrit","phone":"+33553292056","website":"https://www.campingdugarritendordogneperigord.com/"}},"481592497":{"location":[45.0235977,0.9973412],"ct":"FR","tp":"CS","ts":"2023-04-10T18:51:38Z","tX":514,"tY":368,"tags":{"camp_site":"deluxe","caravans":"yes","email":"contact@lanouvellecroze.com","fee":"yes","internet_access":"wlan","internet_access:fee":"yes","mobile":"+33 6 37 65 29 90","name":"Camping La Nouvelle Croze","phone":"+33 5 53 05 38 90","ref:FR:CRTA":"HPAAQU024FS00044","ref:FR:NAF":"5530Z","ref:FR:SIREN":"834868325","ref:FR:SIRET":"83486832500012","shower":"yes","source":"Réseau SIRTAQUI - Comité Régional de Tourisme d'Aquitaine - www.sirtaqui-aquitaine.com - 06/2016","stars":"4","tents":"yes","toilets":"yes","website":"https://www.lanouvellecroze.com/"}},"483094219":{"location":[44.9561693,1.0444969],"ct":"FR","tp":"CS","ts":"2023-01-18T13:42:40Z","tX":514,"tY":368,"tags":{"camp_site":"basic","caravans":"yes","name":"Camping La Ferme du Pelou","ref:FR:CRTA":"HPAAQU024FS0006Q","source":"Réseau SIRTAQUI - Comité Régional de Tourisme d'Aquitaine - www.sirtaqui-aquitaine.com - 06/2016","stars":"2","tents":"yes","website":"https://www.lafermedupelou.com/"}},"491637881":{"location":[45.0322217,1.0493727],"ct":"FR","tp":"CS","ts":"2019-06-15T10:40:35Z","tX":514,"tY":368,"tags":{"camp_site":"serviced","caravans":"yes","name":"Camping Domaine du Lac","ref:FR:CRTA":"HPAAQU024FS0002B","source":"Réseau SIRTAQUI - Comité Régional de Tourisme d'Aquitaine - www.sirtaqui-aquitaine.com - 06/2016","stars":"3","tents":"yes","website":"https://www.domainedulac-dordogne.com/","wheelchair":"yes"}},"528830343":{"location":[44.9373771,1.0065928],"ct":"FR","tp":"CS","ts":"2023-08-04T10:44:09Z","tX":514,"tY":368,"tags":{"caravans":"yes","drinking_water":"yes","email":"la-riviere@wanadoo.fr","name":"Camping La Rivière","opening_hours":"Apr 4 - Oct 11","phone":"+33 5 53 06 97 14","power_supply":"yes","shower":"yes","stars":"4","tents":"yes","toilets":"yes","website":"https://lariviereleseyzies.com/camping-lariviere-eyzies-dordogne-2"}},"836901296":{"location":[44.9857972,0.994891],"ct":"FR","tp":"CS","ts":"2020-08-13T19:18:07Z","tX":514,"tY":368,"tags":{"contact:email":"accueil@coste-jaubert.com","contact:phone":"+33 5 53 05 49 19","name":"Camping à la ferme La Coste Jaubert","ref:FR:CRTA":"HPAAQU024FS00083","source":"data.gouv.fr:DATAtourisme - 05/2020","website":"http://www.coste-jaubert.com"}},"1160192559":{"location":[44.9532827,0.8538695],"ct":"FR","tp":"CS","ts":"2023-04-08T11:00:59Z","tX":514,"tY":368,"tags":{"cabins":"yes","caravans":"yes","motorhome":"yes","name":"Saint-Avit-Loisirs","phone":"+33 5 53 02 64 00","shower":"yes","stars":"5","tents":"yes","toilets":"yes","website":"https://www.saint-avit-loisirs.com/"}},"1190552146":{"location":[44.8737646,0.8311252],"ct":"FR","tp":"CR","ts":"2024-10-28T13:53:52Z","tX":514,"tY":368,"tags":{"addr:postcode":"24510","addr:street":"Place du Grenier","caravan_site":"motorhome_stopover","caravan_site:type":"village","fee":"no","name":"Trémolat Place du Grenier","opening_hours":"24/7","sanitary_dump_station":"yes","sanitary_dump_station:chemical_toilet":"yes","sanitary_dump_station:grey_water":"yes","water_point":"yes","water_point:fee":"yes"}},"1232733383":{"location":[44.9159565,0.9279142],"ct":"FR","tp":"CR","ts":"2024-09-10T04:50:13Z","tX":514,"tY":368,"tags":{"capacity":"50","caravan_site":"motorhome_stopover","caravan_site:type":"river","charge":"7 EUR","fee":"yes","name":"Aire de Camping-Car le Bugue","opening_hours":"24/7","power_supply":"no","sanitary_dump_station":"yes","seasonal":"no","surface":"grass","toilets":"yes","water_point":"yes","website":"https://www.lascaux-dordogne.com/camping-cars/aire-communale-de-camping-car-du-bugue/"}},"1309081239":{"location":[44.9108669,0.915908],"ct":"FR","tp":"CS","ts":"2024-08-20T16:36:17Z","tX":514,"tY":368,"tags":{"addr:city":"Le Bugue","addr:housenumber":"1078","addr:postcode":"24260","addr:street":"Route de la Borie","caravans":"yes","fee":"yes","name":"Le rocher de la Granelle","operator":"Camping Paradis","static_caravans":"yes","tents":"yes","website":"https://www.lagranelle.com"}},"1314894572":{"location":[44.8429304,1.0336402],"ct":"FR","tp":"CR","ts":"2024-09-11T16:31:13Z","tX":514,"tY":368,"tags":{"addr:street":"Lieu-dit Merculot","capacity":"6","caravan_site":"motorhome_stopover","caravan_site:type":"countryside","fee":"5 euro","name":"Les Terrasses de Merculot","power_supply":"yes","power_supply:charge":"2.50 EUR","power_supply:fee":"yes","sanitary_dump_station":"yes","sanitary_dump_station:chemical_toilet":"yes","sanitary_dump_station:grey_water":"yes","water_point":"yes","website":"https://www.dordogne-perigord-tourisme.fr/offres/aire-privee-de-camping-car-des-terrasses-de-merculot-marnac-fr-2940064/"}},"1331904372":{"location":[44.968299,1.0475681],"ct":"FR","tp":"CS","ts":"2024-11-08T09:30:53Z","tX":514,"tY":368,"tags":{"addr:city":"Tursac","addr:housenumber":"102","addr:postcode":"24620","addr:street":"Chemin de la Combe","contact:email":"campingeaunaturelle@gmail.com","contact:facebook":"https://www.facebook.com/profile.php?id=100088506956286","contact:instagram":"https://www.instagram.com/campingeaunaturelle/","contact:mobile":"+33 6 66 31 80 26","contact:tiktok":"https://www.tiktok.com/@campingeaunaturelle","contact:twitter":"https://twitter.com/EauNaturelle24","fee":"yes","name":"Camping Eau Naturelle","phone":"+33 5 53 43 89 44","ref:FR:SIRET":"91483311600017","stars":"2","tents":"yes","was:name":"Le Pigeonnier","website":"https://www.campingeaunaturelle.com"}},"1411137723":{"location":[44.9064879,0.9742628],"ct":"FR","tp":"CS","ts":"2019-12-24T15:32:31Z","tX":514,"tY":368,"tags":{"caravans":"yes","email":"contact@levaldelamarquise.com","name":"Le Val de la Marquise","opening_hours":"Apr 13 - Sep 29","phone":"+33 5 53 54 74 10","stars":"4","tents":"yes","website":"https://www.camping-dordogne-marquise.com/"}},"1882590034":{"location":[44.8415738,0.7846717],"ct":"FR","tp":"CS","ts":"2025-03-03T15:31:03Z","tX":514,"tY":368,"tags":{"name":"Les bo-bains"}},"2739791845":{"location":[44.8788294,0.8247812],"ct":"FR","tp":"CS","ts":"2014-03-24T16:55:09Z","tX":514,"tY":368,"tags":{"name":"Camping du Bassin Nautique"}},"2844182574":{"location":[44.9338874,0.9360495],"ct":"FR","tp":"CS","ts":"2014-05-08T15:41:36Z","tX":514,"tY":368,"tags":{"name":"La Linotte"}},"3607807439":{"location":[44.8737373,0.859837],"ct":"FR","tp":"CS","ts":"2020-10-22T10:18:26Z","tX":514,"tY":368,"tags":{"name":"Camping La Pénétie","phone":"+33 630424624","website":"https://www.campingdirect.com/fr/reservation-emplacement-mobil-home/dordogne/camping-pauant/camping-ferme-de-la-penetie"}},"3623254976":{"location":[44.9130682,1.0154141],"ct":"FR","tp":"CS","ts":"2021-12-24T09:00:12Z","tX":514,"tY":368,"tags":{"name":"La Combe","phone":"+33 5 53 06 91 52","website":"https://www.lacombe.be"}},"3993747791":{"location":[44.923888,1.029723],"ct":"FR","tp":"CS","ts":"2021-12-24T09:00:12Z","tX":514,"tY":368,"tags":{"description":"ACSI","email":"info@lepech.com","name":"Le Pech Charmant ***","opening_hours":"May 03 - Nov 07 09:00-12:00,14:30-18:30","phone":"+33 5 53 35 97 08","stars":"3","website":"https://www.lepech.com"}},"4005695407":{"location":[44.8604053,0.9638095],"ct":"FR","tp":"CS","ts":"2025-02-06T13:14:15Z","tX":514,"tY":368,"tags":{"contact:city":"Coux et Bigaroque-Mouzens","contact:phone":"+33 9 71 36 55 84","contact:postcode":"24220","contact:street":"Coux-Et-Bigaroque","name":"Slow Village Séveilles","website":"https://www.inspire-villages.com/destinations/seveilles"}},"4223805056":{"location":[45.0276652,0.9713594],"ct":"FR","tp":"CS","ts":"2019-05-07T15:13:17Z","tX":514,"tY":368,"tags":{"name":"Château Le Verdoyer"}},"4355677754":{"location":[44.8628684,0.981276],"ct":"FR","tp":"CS","ts":"2021-12-29T16:08:28Z","tX":514,"tY":368,"tags":{"contact:housenumber":"3655","contact:street":"Route de Saint-Georges","email":"info@camping-le-clou.com","name":"Le Clou","phone":"+33 5 24 15 19 75","website":"https://www.camping-le-clou.com/fr/"}},"4407920296":{"location":[44.9686505,1.0475194],"ct":"FR","tp":"CS","ts":"2017-10-07T18:41:39Z","tX":514,"tY":368,"tags":{"addr:city":"Tursac","addr:postcode":"24620","addr:street":"Le Bourg","name":"Le Pigeonnier","phone":"+33 5 53 06 96 90","website":"http://www.campinglepigeonnier.fr"}},"4736059324":{"location":[44.8639279,0.7974918],"ct":"FR","tp":"CS","ts":"2019-09-04T21:08:53Z","tX":514,"tY":368,"tags":{"addr:city":"Mauzac-et-Grand-Castang","addr:country":"FR","addr:place":"Le Bourg","addr:postcode":"24150","email":"mairie.de.mauzac.et.grand-castang@wanadoo.fr","name":"Camping de Mauzac","operator":"Municipalité","payment:coins":"yes","payment:notes":"yes","phone":"+33 5 53 22 50 57","website":"https://www.pays-bergerac-tourisme.com/fr/diffusio/fr/campings_mauzac-et-grand-castang/camping-municipal-de-mauzac_TFOHPAAQU024FS00059"}},"5025772521":{"location":[44.8486788,0.7757448],"ct":"FR","tp":"CS","ts":"2017-08-10T07:43:41Z","tX":514,"tY":368,"tags":{"name":"Camping le parc"}},"6455514422":{"location":[45.0083144,0.9300801],"ct":"FR","tp":"CS","ts":"2019-05-07T15:06:29Z","tX":514,"tY":368,"tags":{"name":"Camping Roc de Lavandre"}},"6455530314":{"location":[45.0547292,0.9867418],"ct":"FR","tp":"CS","ts":"2022-04-09T07:21:20Z","tX":514,"tY":368,"tags":{"alt_name":"Domaine Touvent","name":"Camping Bleu Soleil"}},"6455562047":{"location":[44.916333,0.8195356],"ct":"FR","tp":"CS","ts":"2019-06-23T12:29:26Z","tX":514,"tY":368,"tags":{"name":"La Forêt"}},"9729377843":{"location":[44.8932031,0.8793377],"ct":"FR","tp":"CS","ts":"2022-05-10T08:44:28Z","tX":514,"tY":368,"tags":{"access":"customers","addr:city":"Limeuil","addr:postcode":"24510","addr:street":"Route des Poutiroux","capacity:caravans":"26","fee":"yes","name":"CAMPING LES POUTIROUX","operator":"PASCAL COUVEZ"}},"4502347211":{"location":[44.9450966,0.8051535],"ct":"FR","tp":"CR","ts":"2024-09-11T16:53:12Z","tX":514,"tY":368,"tags":{"caravan_site":"motorhome_stopover","caravan_site:type":"countryside","fee":"no","name":"Aire de stationnement de Sainte-Alvère","ref:FR:CRTA":"ACCAMAQU02400044","sanitary_dump_station":"yes","website":"https://www.valdelouyre-et-caudeau.fr/actualites/information-aire-de-stationnement-camping-cars-sainte-alvere"}},"10186112317":{"location":[44.8684608,1.0436539],"ct":"FR","tp":"CR","ts":"2024-09-12T04:01:15Z","tX":514,"tY":368,"tags":{"capacity":"10","caravan_site":"motorhome_stopover","caravan_site:type":"village","charge":"7 EUR","dog":"yes","fee":"yes","name":"Saint-Cyprien","power_supply":"yes","power_supply:fee":"no","sanitary_dump_station":"yes","water_point":"yes","water_point:fee":"no","website":"https://www.dordogne-perigord-tourisme.fr/offres/aire-communale-de-saint-cyprien-saint-cyprien-fr-2939054/"}},"11988336009":{"location":[45.0495003,0.9741488],"ct":"FR","tp":"CR","ts":"2024-06-17T19:05:48Z","tX":514,"tY":368,"tags":{"caravan_site":"motorhome_stopover","caravan_site:type":"village","fee":"no","name":"Aire de service pour camping-cars de Rouffignac-St Cernin","network":"AirePark","power_supply":"yes","sanitary_dump_station":"yes","website":"https://www.aireparkreservation.com/aires-camping-cars/nouvelle-aquitaine/dordogne/rouffignac-saint-cernin-de-reilhac"}},"5138202548":{"location":[44.9380464,1.0101655],"ct":"FR","tp":"SD","ts":"2017-09-29T19:33:28Z","tX":514,"tY":368,"tags":{"sanitary_dump_station:chemical_toilet":"yes","sanitary_dump_station:fee":"no","sanitary_dump_station:gravity":"yes","sanitary_dump_station:grey_water":"yes","sanitary_dump_station:suction":"no"}},"8939122586":{"location":[44.9163826,0.9284421],"ct":"FR","tp":"SD","ts":"2021-07-21T14:35:31Z","tX":514,"tY":368,"tags":{}},"11003345230":{"location":[44.8934068,0.9147406],"ct":"FR","tp":"SD","ts":"2023-06-24T16:26:10Z","tX":514,"tY":368,"tags":{"access":"customers","fee":"no","sanitary_dump_station:basin":"yes","sanitary_dump_station:round_drain":"yes"}},"11988336010":{"location":[45.0494652,0.9740227],"ct":"FR","tp":"SD","ts":"2024-06-17T19:05:48Z","tX":514,"tY":368,"tags":{"access":"yes","sanitary_dump_station:basin":"yes"}},"12170346422":{"location":[44.9451915,0.8052675],"ct":"FR","tp":"SD","ts":"2024-09-11T16:53:12Z","tX":514,"tY":368,"tags":{"access":"yes","fee":"no","name":"Aire de services de Sainte-Alvère","website":"https://www.dordogne-perigord-tourisme.fr/offres/aire-de-services-de-sainte-alvere-sainte-alvere-val-de-louyre-et-caudeau-fr-2940077/"}},"12170422001":{"location":[44.8432965,0.7913429],"ct":"FR","tp":"SD","ts":"2024-09-11T17:49:11Z","tX":514,"tY":368,"tags":{"access":"yes","fee":"no","name":"Aire communale de Badefols-sur-Dordogne","water_point":"yes","website":"https://www.pays-bergerac-tourisme.com/fr/diffusio/badefols-sur-dordogne/aire-communale-de-badefols-sur-dordogne_TFOACCAMAQU0240004G"}}}