{"26858877":{"location":[44.658889,0.879167],"ct":"FR","tp":"CS","ts":"2022-04-18T22:27:38Z","tX":514,"tY":369,"tags":{"created_by":"JOSM","name":"Le Moulin de David","website":"https://www.moulindedavid.com"}},"26859039":{"location":[44.740556,1.044167],"ct":"FR","tp":"CS","ts":"2013-10-05T22:32:44Z","tX":514,"tY":369,"tags":{"name":"Ratebout"}},"298001112":{"location":[44.7952238,0.8338163],"ct":"FR","tp":"CS","ts":"2019-03-05T00:55:31Z","tX":514,"tY":369,"tags":{"email":"la-grande-veyiere@wanadoo.fr","internet_access":"yes","internet_access:fee":"yes","name":"La Grande Veyiére","operator":"Griet & Philippe","phone":"+33553632584","website":"https://www.lagrandeveyiere.com/"}},"434580346":{"location":[44.6090853,0.7608718],"ct":"FR","tp":"CS","ts":"2016-07-28T20:36:01Z","tX":514,"tY":369,"tags":{"name":"Camping Les Ormes"}},"439655030":{"location":[44.659104,0.7279326],"ct":"FR","tp":"CS","ts":"2016-08-29T08:20:51Z","tX":514,"tY":369,"tags":{"internet_access":"wlan","internet_access:fee":"yes","name":"Camping Château de Fonrives","operator":"Yelloh","sanitary_dump_station":"yes","smoking":"yes","stars":"4","wheelchair":"yes"}},"439856288":{"location":[44.8253522,0.7053669],"ct":"FR","tp":"CS","ts":"2016-08-30T09:03:13Z","tX":514,"tY":369,"tags":{"name":"Camping des Moulins","stars":"3"}},"439856289":{"location":[44.8254793,0.9877193],"ct":"FR","tp":"CS","ts":"2019-03-05T00:56:15Z","tX":514,"tY":369,"tags":{"name":"Camping du Port","ref:FR:CRTA":"HPAAQU024FS0004Q","source":"Réseau SIRTAQUI - Comité Régional de Tourisme d'Aquitaine - www.sirtaqui-aquitaine.com - 06/2016","stars":"2","website":"https://www.campingduport.net/"}},"516108760":{"location":[44.6849162,0.8945393],"ct":"FR","tp":"CR","ts":"2023-12-26T10:39:15Z","tX":514,"tY":369,"tags":{"access":"yes","addr:city":"Monpazier","addr:postcode":"24540","addr:street":"D53","capacity":"11","caravan_site":"motorhome_stopover","caravan_site:type":"village","fee":"no","name":"Aire communale de camping-car de Monpazier","operator":"Ville de Monpazier","power_supply":"no","sanitary_dump_station:chemical_toilet":"yes","sanitary_dump_station:grey_water":"yes","sanitary_dump_station:round_drain":"yes","water_point":"yes","website":"https://www.pays-bergerac-tourisme.com/fr/diffusio/monpazier/aire-communale-de-camping-car-de-monpazier_TFOACCAMAQU02400021"}},"520471496":{"location":[44.6139824,0.8344495],"ct":"FR","tp":"CS","ts":"2024-06-03T14:36:49Z","tX":514,"tY":369,"tags":{"caravans":"yes","description":"Situé à la limite du Périgord entre Lot et Garonne et Dordogne, le camping naturiste Domaine Laborde séduira les amoureux de nature qui souhaitent se déconnecter dans un environnement exceptionnel et calme.","email":"reception@domainelaborde.com","fee":"yes","internet_access":"wlan","name":"Domaine naturiste Laborde","nudism":"yes","phone":"+33 5 53 63 14 88","sanitary_dump_station":"customers","stars":"4","static_caravans":"yes","tents":"yes","website":"https://www.domainelaborde.com/","wheelchair":"limited"}},"732421425":{"location":[44.7582158,0.9014222],"ct":"FR","tp":"CS","ts":"2024-07-26T11:55:01Z","tX":514,"tY":369,"tags":{"access":"customers","addr:postcode":"24540","addr:street":"Terme d'Astor","capacity":"100","charge":"30 EUR","contact:email":"camping@termedastor.com","contact:phone":"+33553632452","fee":"yes","internet_access":"wlan","internet_access:fee":"no","name":"Le Terme d'Astor","nudism":"yes","payment:cash":"yes","payment:credit_cards":"yes","payment:visa":"yes","website":"https://www.termedastor.com/"}},"837296331":{"location":[44.75374,0.983605],"ct":"FR","tp":"CS","ts":"2023-10-31T04:07:10Z","tX":514,"tY":369,"tags":{"caravans":"yes","contact:email":"campinglesnauves@hotmail.com","contact:phone":"+33 5 53 29 12 64","name":"Les Nauves","operator":"Flower Camping","ref:FR:CRTA":"HPAAQU024FS0000O","source":"data.gouv.fr:DATAtourisme - 05/2020","stars":"3","tents":"yes","website":"https://www.lesnauves.com/","wheelchair":"yes"}},"837393892":{"location":[44.7033312,0.9267957],"ct":"FR","tp":"CS","ts":"2020-08-15T15:24:40Z","tX":514,"tY":369,"tags":{"contact:email":"enquiries@campingmonpazier.com","contact:phone":"+33 9 67 33 67 51","contact:website":"https://www.campingmonpazier.com","name":"Camping Lune sur le Lac","ref:FR:CRTA":"HPAAQU024V504ZWT","source":"data.gouv.fr:DATAtourisme - 05/2020","wheelchair":"yes"}},"837402364":{"location":[44.6521655,0.7226501],"ct":"FR","tp":"CS","ts":"2020-08-15T16:05:23Z","tX":514,"tY":369,"tags":{"name":"Camping de Bergougne","ref:FR:CRTA":"HPAAQU047FS0000A","source":"Réseau SIRTAQUI - Comité Régional de Tourisme d'Aquitaine - www.sirtaqui-aquitaine.com - 08/2018","stars":"3","website":"https://www.camping-de-bergougne.fr"}},"837402722":{"location":[44.7642068,0.7636329],"ct":"FR","tp":"CS","ts":"2020-08-15T16:07:55Z","tX":514,"tY":369,"tags":{"name":"Domaine de la Colombière","ref:FR:CRTA":"HPAAQU024FS0003V","source":"Réseau SIRTAQUI - Comité Régional de Tourisme d'Aquitaine - www.sirtaqui-aquitaine.com - 08/2018","stars":"3","website":"https://www.campingdelacolombiere.fr"}},"876636852":{"location":[44.8106692,0.8717633],"ct":"FR","tp":"CS","ts":"2022-09-17T15:09:00Z","tX":514,"tY":369,"tags":{"caravans":"yes","drinking_water":"yes","name":"Camping les jardins de l'abbaye","phone":"+33 5 53 61 89 30","shower":"yes","tents":"yes","website":"https://www.jardinsabbaye.com/"}},"902198125":{"location":[44.6384659,0.7404183],"ct":"FR","tp":"CR","ts":"2023-12-24T00:32:16Z","tX":514,"tY":369,"tags":{"access":"yes","addr:city":"VILLEREAL","addr:postcode":"47210","addr:street":"Boulevard Alphonse de Poitiers","capacity":"15","caravan_site":"motorhome_stopover","caravan_site:type":"town","description":"Aire de Camping-car","fee":"no","name":"Aire de camping-cars de Villeréal","operator":"Ville de Villereal","power_supply":"no","sanitary_dump_station:chemical_toilet":"yes","sanitary_dump_station:grey_water":"yes","water_point":"yes"}},"902199753":{"location":[44.6304799,0.8712768],"ct":"FR","tp":"CR","ts":"2024-09-11T17:29:15Z","tX":514,"tY":369,"tags":{"access":"yes","addr:city":"Biron","addr:postcode":"24540","addr:street":"D53","capacity":"10","caravan_site":"motorhome_stopover","caravan_site:type":"village","fee":"no","maxstay":"no","name":"Aire communale de Biron","operator":"Ville de Biron","power_supply":"no","sanitary_dump_station:chemical_toilet":"yes","sanitary_dump_station:grey_water":"no","water_point":"yes"}},"1022987528":{"location":[44.8392868,0.7636247],"ct":"FR","tp":"CS","ts":"2020-10-22T10:39:12Z","tX":514,"tY":369,"tags":{"addr:city":"Lalinde","addr:postcode":"24150","name":"Camping municipal du Moulin de la Guillou","phone":"+33 5 53 58 31 84"}},"1087538750":{"location":[44.614226,0.8180623],"ct":"FR","tp":"CS","ts":"2022-08-19T16:17:57Z","tX":514,"tY":369,"tags":{"addr:housenumber":"945","addr:street":"Route d'Estrade","name":"Fontaine du Roc","phone":"+33 5 53 36 08 16","stars":"3","website":"https://camping-fontaine-roc.com/"}},"1170402993":{"location":[44.6998242,0.8825253],"ct":"FR","tp":"CS","ts":"2023-05-19T07:00:50Z","tX":514,"tY":369,"tags":{"cabins":"yes","caravans":"yes","email":"vakantie@lacdeveronne.com","mobile":"+33 6 34 59 62 05","name":"Lac de Veronne","operator":"Richard Smeets en Margot Boetes","phone":"+33 5 53 22 65 50","ref:FR:CRTA":"HPAAQU024FS00072","shower":"yes","source":"Réseau SIRTAQUI - Comité Régional de Tourisme d'Aquitaine - www.sirtaqui-aquitaine.com - 06/2016","stars":"1","tents":"yes","toilets":"yes","website":"https://www.lacdeveronne.com"}},"1181708204":{"location":[44.6076964,0.8438665],"ct":"FR","tp":"CS","ts":"2023-06-13T08:20:19Z","tX":514,"tY":369,"tags":{"addr:city":"Vergt-de-Biron","addr:postcode":"24540","email":"campinglaspatrasses@gmail.com","name":"Las Patrasse","website":"https://www.camping-dordogne-laspatrasses.com"}},"1271547978":{"location":[44.7625574,1.0153469],"ct":"FR","tp":"CS","ts":"2024-04-10T19:24:10Z","tX":514,"tY":369,"tags":{"addr:city":"Pays de Belvès","addr:country":"FR","addr:place":"La Pique","addr:postcode":"24170","capacity":"181","caravans":"yes","email":"contact@rcn.nl","internet_access":"wlan","internet_access:fee":"no","name":"RCN le Moulin de la Pique","nohousenumber":"yes","nudism":"no","opening_hours":"Mo-Su 09:00-18:00","operator":"Recreatiecentra Nederland BV","payment:cash":"yes","payment:coins":"yes","payment:maestro":"yes","payment:mastercard":"yes","payment:notes":"yes","payment:visa":"yes","payment:visa_debit":"yes","phone":"+31 85 0400 700","reservation":"recommended","sanitary_dump_station":"yes","stars":"5","tents":"yes","website":"https://www.rcn.nl/de/camping/frankreich/dordogne/rcn-le-moulin-de-la-pique"}},"1302211890":{"location":[44.6435575,0.7443681],"ct":"FR","tp":"CS","ts":"2024-07-18T08:01:51Z","tX":514,"tY":369,"tags":{"name":"Village de vacances de Pesquié"}},"1303698040":{"location":[44.6527338,0.8103928],"ct":"FR","tp":"CS","ts":"2024-07-25T13:26:01Z","tX":514,"tY":369,"tags":{"name":"Moulin de Mandassagne"}},"1305505853":{"location":[44.7972234,1.0073586],"ct":"FR","tp":"CS","ts":"2024-08-04T06:38:15Z","tX":514,"tY":369,"tags":{"name":"Camping La Lenotte","phone":"+33 5 53 30 25 80","website":"https://www.la-lenotte.com/"}},"1312107896":{"location":[44.7770434,0.9972554],"ct":"FR","tp":"CR","ts":"2024-08-29T21:49:30Z","tX":514,"tY":369,"tags":{"capacity":"18","caravan_site":"motorhome_stopover","caravan_site:type":"village","dog":"yes","fee":"no","name":"Parking camping car Pays-de-Belvès","opening_hours":"24/7","phone":"+33 5 53 29 10 20","sanitary_dump_station":"yes","sanitary_dump_station:chemical_toilet":"yes","sanitary_dump_station:grey_water":"yes","surface":"asphalt","water_point":"yes","water_point:fee":"no","website":"https://www.perigordnoir-valleedordogne.com/fr/hebergements/aires-campings-cars/parking-pour-camping-car-de-belves"}},"1588117821":{"location":[44.7848734,0.7561011],"ct":"FR","tp":"CS","ts":"2019-03-05T00:55:33Z","tX":514,"tY":369,"tags":{"addr:city":"Beaumont-du-Périgord","addr:postcode":"24440","name":"Le moulin de Surier","phone":"+33 5 53 24 91 98","source":"Bing ; cadastre-dgi-fr source : Direction Générale des Impôts - Cadastre. Mise à jour : 2012","website":"https://www.lemoulindesurier.com/accueil/"}},"1933413956":{"location":[44.7587998,0.746513],"ct":"FR","tp":"CS","ts":"2012-09-26T08:56:28Z","tX":514,"tY":369,"tags":{"name":"Camping Les pierres blanches"}},"12170344734":{"location":[44.7746629,0.7658069],"ct":"FR","tp":"CR","ts":"2024-09-11T16:46:56Z","tX":514,"tY":369,"tags":{"capacity":"5","caravan_site":"motorhome_stopover","caravan_site:type":"village;parking_lot","fee":"no","name":"Aire communale de Beaumont-du-Périgord","opening_hours":"24/7","sanitary_dump_station":"yes","seasonal":"no","surface":"asphalt","water_point":"yes"}},"7387141785":{"location":[44.7747566,0.7655306],"ct":"FR","tp":"SD","ts":"2024-09-05T23:51:14Z","tX":514,"tY":369,"tags":{}},"8380085697":{"location":[44.6386881,0.7401407],"ct":"FR","tp":"SD","ts":"2023-12-24T00:32:16Z","tX":514,"tY":369,"tags":{"access":"yes","description":"Station de vidange pour Camping-car","fee":"no","operator":"Ville de Villereal","sanitary_dump_station:chemical_toilet":"yes","sanitary_dump_station:grey_water":"yes","sanitary_dump_station:round_drain":"yes","water_point":"yes"}},"8380094108":{"location":[44.6307203,0.8706866],"ct":"FR","tp":"SD","ts":"2021-11-20T14:40:26Z","tX":514,"tY":369,"tags":{"description":"Station de vidange pour Camping-car , uniquement les eau noires.","fee":"no","operator":"Ville de Biron","sanitary_dump_station:chemical_toilet":"yes","sanitary_dump_station:grey_water":"no","sanitary_dump_station:round_drain":"no"}},"8380124871":{"location":[44.6848419,0.8942953],"ct":"FR","tp":"SD","ts":"2021-11-20T14:40:26Z","tX":514,"tY":369,"tags":{"description":"Station de vidange pour Camping-car","fee":"no","operator":"Ville de Monpazier","sanitary_dump_station:chemical_toilet":"yes","sanitary_dump_station:grey_water":"yes","sanitary_dump_station:round_drain":"yes","water_point":"yes"}},"12145042262":{"location":[44.7769896,0.997649],"ct":"FR","tp":"SD","ts":"2024-08-29T21:49:30Z","tX":514,"tY":369,"tags":{"access":"yes","fee":"no","water_point":"yes"}}}