{"105866621":{"location":[44.4882496,0.9957977],"ct":"FR","tp":"CS","ts":"2022-12-09T21:05:15Z","tX":514,"tY":370,"tags":{"email":"contact@lescatalpas.fr","internet_access":"wlan","internet_access:fee":"no","name":"Camping Les Catalpas","phone":"+33 5 53 71 11 99","source":"Cadastre; Ortho HR 2019","stars":"2","website":"https://www.les-catalpas.com/"}},"170018677":{"location":[44.3847794,0.8075908],"ct":"FR","tp":"CS","ts":"2021-06-09T09:24:23Z","tX":514,"tY":370,"tags":{"name":"Camping Lac de Ferrié"}},"231999256":{"location":[44.3586885,0.9236087],"ct":"FR","tp":"CS","ts":"2024-07-31T14:32:07Z","tX":514,"tY":370,"tags":{"access":"customers","addr:city":"Valeilles","addr:place":"Lieu-dit Les Manoques","addr:postcode":"82150","capacity:caravans":"66","capacity:tents":"66","caravans":"yes","contact:facebook":"https://www.facebook.com/LesManoques","description":"Aux portes du Quercy blanc, sur l’axe Agen-Cahors, Fabienne et Xavier seront heureux de vous accueillir aux Manoques. Tel une presqu’île, le terrain est relié au reste du monde par un court chemin très carrossable.","dog":"leashed","drinking_water":"yes","email":"xavier.fabienne@lesmanoques.com","fee":"yes","group_only":"no","internet_access":"wlan","mobile":"+33 6 87 12 67 92","name":"Camping naturiste Les Manoques","nudism":"yes","opening_hours":"May Sa[-3]-Sep Wo[3]: Mo-Su 08:00-23:00","phone":"+33 5 63 95 24 06","picnic_table":"yes","power_supply":"yes","reservation":"recommended","sanitary_dump_station":"yes","shower":"yes","stars":"4","static_caravans":"yes","tents":"yes","toilets":"yes","website":"https://lesmanoques.fr","wheelchair":"yes"}},"254540089":{"location":[44.3966755,0.7868162],"ct":"FR","tp":"CS","ts":"2013-12-31T15:54:54Z","tX":514,"tY":370,"tags":{"source":"Bing ; DGFiP - Cadastre 2013"}},"343076967":{"location":[44.3788967,1.0182306],"ct":"FR","tp":"CS","ts":"2020-10-24T21:31:52Z","tX":514,"tY":370,"tags":{"name":"Camping le Pouchou"}},"343076972":{"location":[44.3780793,1.0191203],"ct":"FR","tp":"CS","ts":"2015-05-05T20:43:23Z","tX":514,"tY":370,"tags":{}},"425524739":{"location":[44.5458268,0.9496082],"ct":"FR","tp":"PK","ts":"2024-10-31T18:15:22Z","tX":514,"tY":370,"tags":{"access":"yes","fee":"no","motorhome":"yes","parking":"surface"}},"442438533":{"location":[44.3956191,0.804225],"ct":"FR","tp":"CS","ts":"2025-05-26T18:36:20Z","tX":514,"tY":370,"tags":{"area":"yes","name":"Camping municipal Les berges du Lot","source":"cadastre-dgi-fr source : Direction Générale des Impôts - Cadastre. Mise à jour : 2013","survey:date":"2025-05-26"}},"517463746":{"location":[44.4059583,0.9984617],"ct":"FR","tp":"CS","ts":"2017-08-21T22:19:24Z","tX":514,"tY":370,"tags":{"name":"Domaine de Ullule","ref:FR:CRTA":"HPAAQU047V504HY3","source":"Réseau SIRTAQUI - Comité Régional de Tourisme d'Aquitaine - www.sirtaqui-aquitaine.com - 06/2016","stars":"3","website":"https://www.franceloc.fr/camping-france-aquitaine-ullule-FR.html"}},"604989535":{"location":[44.4330329,0.8828946],"ct":"FR","tp":"CS","ts":"2022-10-25T23:10:08Z","tX":514,"tY":370,"tags":{"caravans":"yes","email":"campingdelustrac@gmail.com","internet_access":"wlan","name":"Camping Hameau de Lustrac","phone":"+33 785 080 937","stars":"3","tents":"yes","website":"https://campingdelustrac.jimdo.com/camping/"}},"604993228":{"location":[44.4660923,0.8233798],"ct":"FR","tp":"CS","ts":"2018-07-04T13:37:20Z","tX":514,"tY":370,"tags":{"email":"campingdemonredon@wanadoo.fr","name":"Ferme de Monredon","phone":"+33 667 532 158","website":"www.fermedemonredon.com"}},"605214101":{"location":[44.4892978,1.0211599],"ct":"FR","tp":"CS","ts":"2022-12-09T21:05:23Z","tX":514,"tY":370,"tags":{"caravans":"yes","email":"campingdevalenty@gmail.com","name":"Le Valenty","operator":"Camping à la ferme","phone":"+33 6 88 10 78 55","source":"Cadastre; Ortho HR 2019","tents":"yes","website":"https://le-valenty.jimdo.com/"}},"648148189":{"location":[44.5516975,0.883429],"ct":"FR","tp":"CS","ts":"2020-10-22T10:45:24Z","tX":514,"tY":370,"tags":{"addr:street":"Terres Rouges, 47150 Salles, France","name":"Camping des Bastides"}},"901990094":{"location":[44.4985669,0.9717529],"ct":"FR","tp":"CR","ts":"2023-12-28T17:09:12Z","tX":514,"tY":370,"tags":{"access":"yes","addr:city":"Fumel","addr:postcode":"47500","addr:street":"Place Saulou","capacity":"10","caravan_site":"motorhome_stopover","caravan_site:type":"parking_lot","description":"Aire de Camping-car","fee":"no","name":"Aire de camping-car de Fumel","opening_hours":"Mar-Nov","operator":"Ville de Fumel","power_supply":"no","sanitary_dump_station:chemical_toilet":"yes","sanitary_dump_station:grey_water":"yes","seasonal":"yes","water_point":"yes"}},"901996970":{"location":[44.3962932,0.8046228],"ct":"FR","tp":"CR","ts":"2023-12-28T17:09:12Z","tX":514,"tY":370,"tags":{"access":"yes","addr:city":"Saint-Sylvestre-sur-Lot","addr:housenumber":"7","addr:postcode":"47140","addr:street":"Avenue Jean Moulin","capacity":"12","caravan_site":"motorhome_stopover","caravan_site:type":"village","description":"Aire de Camping-car. Services situés à la station service intermarché","fee":"no","maxstay":"48 hours","name":"Aire de camping-car de Saint-Sylvestre","opening_hours":"24/7","operator":"Ville de Saint-Sylvestre-sur-Lot","power_supply":"no","sanitary_dump_station:chemical_toilet":"yes","sanitary_dump_station:grey_water":"yes","seasonal":"no","water_point":"yes"}},"901996971":{"location":[44.4415176,0.9385757],"ct":"FR","tp":"CR","ts":"2024-10-17T09:30:50Z","tX":514,"tY":370,"tags":{"access":"yes","addr:city":"Saint-Georges","addr:postcode":"47370","addr:street":"D243","capacity":"8","caravan_site":"motorhome_stopover","caravan_site:type":"village","description":"Aire de Camping-car et parking de l'aire multi service epicerie","fee":"no","internet_access":"wlan","maxstay":"7 nights","name":"Aire de camping-car de Saint-Georges (Lot-et-Garonne)","operator":"Ville de Saint-Georges et espace multi services epicerie","power_supply":"yes","sanitary_dump_station:chemical_toilet":"yes","sanitary_dump_station:grey_water":"yes","water_point":"yes","website":"https://www.tourisme-lotetgaronne.com/aires-de-camping-car/aire-de-camping-car-de-saint-georges/"}},"1037130677":{"location":[44.5898655,1.0484731],"ct":"FR","tp":"CS","ts":"2022-09-16T11:40:16Z","tX":514,"tY":370,"tags":{"addr:housenumber":"2932","addr:street":"Route de Loubejac","name":"Le Moulin du Périé"}},"1202902687":{"location":[44.4790935,1.0503638],"ct":"FR","tp":"CS","ts":"2024-05-14T19:07:08Z","tX":514,"tY":370,"tags":{"caravans":"yes","name":"Le Clos Bouyssac","phone":"+33 752044344","stars":"3","tents":"yes","website":"https://www.leclosbouyssac.eu/"}},"12144770493":{"location":[44.452062,1.0475703],"ct":"FR","tp":"CR","ts":"2024-08-29T18:19:33Z","tX":514,"tY":370,"tags":{"bbq":"yes","capacity":"10","caravan_site":"motorhome_stopover","caravan_site:type":"forest","fee":"no","name":"Aire de Mauroux","picnic_table":"yes","playground":"yes","sanitary_dump_station":"yes","surface":"dirt","toilets":"yes","website":"https://www.cahorsvalleedulot.com/hebergements/aire-daccueil-et-de-services-de-mauroux/"}},"8378399397":{"location":[44.5246432,0.7564068],"ct":"FR","tp":"SD","ts":"2021-11-20T14:40:26Z","tX":514,"tY":370,"tags":{"description":"Station de vidange pour Camping-car","fee":"no","operator":"Ville de Monflanquin","sanitary_dump_station:chemical_toilet":"yes","sanitary_dump_station:grey_water":"yes","sanitary_dump_station:round_drain":"yes","water_point":"yes"}},"8378438920":{"location":[44.4986791,0.9715976],"ct":"FR","tp":"SD","ts":"2023-12-28T17:09:12Z","tX":514,"tY":370,"tags":{"access":"yes","description":"Station de vidange pour Camping-car","fee":"no","operator":"Ville de Fumel","sanitary_dump_station:chemical_toilet":"yes","sanitary_dump_station:grey_water":"yes","sanitary_dump_station:round_drain":"yes","water_point":"yes"}},"8378506417":{"location":[44.395618,0.8056784],"ct":"FR","tp":"SD","ts":"2021-11-20T14:40:26Z","tX":514,"tY":370,"tags":{"description":"Station de vidange pour Camping-car","fee":"no","operator":"Intermarché","sanitary_dump_station:chemical_toilet":"yes","sanitary_dump_station:grey_water":"yes","sanitary_dump_station:round_drain":"yes","water_point":"yes"}},"8378506424":{"location":[44.4415052,0.9375169],"ct":"FR","tp":"SD","ts":"2021-11-20T14:40:26Z","tX":514,"tY":370,"tags":{"description":"Station de vidange pour Camping-car","fee":"no","operator":"Ville de Saint-Georges","sanitary_dump_station:chemical_toilet":"yes","sanitary_dump_station:grey_water":"yes","sanitary_dump_station:round_drain":"yes","water_point":"yes"}}}