{"154535851":{"location":[44.0840412,1.0282598],"ct":"FR","tp":"CS","ts":"2023-12-18T19:05:18Z","tX":514,"tY":372,"tags":{"addr:city":"Saint-Nicolas-de-la-Grave","addr:postcode":"82210","addr:street":"Avenue du Plan d'Eau","name":"Camping Le Plan D'eau","phone":"+33 5 63 95 50 00","source":"cadastre-dgi-fr source : Direction Générale des Impôts - Cadastre. Mise à jour : 2012"}},"201723378":{"location":[44.0835059,1.0301238],"ct":"FR","tp":"CS","ts":"2015-06-23T16:45:26Z","tX":514,"tY":372,"tags":{}},"231995407":{"location":[43.8917518,0.8286438],"ct":"FR","tp":"CS","ts":"2024-07-31T14:11:47Z","tX":514,"tY":372,"tags":{"WLAN":"yes","access":"customers","addr:city":"Gaudonville","addr:postcode":"32380","addr:street":"lieu dit Deveze","capacity":"130","contact:email":"deveze@deveze-nat.com","contact:phone":"+33562664386","contact:website":"https://deveze.eu/","description":"Le camping Devèze, 137 emplacements, s’étend sur 20 hectares semi-ombragés incluant un lac d’agrément de 1.7Ha. où vous pourrez pratiquer la pêche ainsi que le canotage.","email":"deveze@deveze-nat.com","fee":"yes","internet_access":"yes","laundry_service":"yes","name":"Camping Naturiste Devèze","note":"Camping naturiste","nudism":"yes","opening_hours":"May 01-Sep 30 00:00-24:00","operator":"SARL Camping Deveze-Nat","phone":"+33562664386","website":"https://deveze.eu/","wifi":"yes"}},"231995937":{"location":[43.8977409,0.8097182],"ct":"FR","tp":"CS","ts":"2024-11-25T09:02:33Z","tX":514,"tY":372,"tags":{"name":"Le Neri","nudism":"no"}},"600787795":{"location":[43.9874097,1.0443251],"ct":"FR","tp":"CS","ts":"2024-06-30T13:18:07Z","tX":514,"tY":372,"tags":{"addr:city":"Garganvillar","addr:housenumber":"2315","addr:postcode":"82100","addr:street":"Route d'Angeville","caravans":"yes","drinking_water":"yes","email":"camping-des-etangs@orange.fr","fee":"yes","mobile":"+33 6 78 20 38 14","name":"Camping des Étangs","operator":"Flower Campings","payment:cards":"yes","payment:cash":"yes","phone":"+33 5 63 29 02 28","static_caravans":"yes","tents":"yes","toilets":"yes","website":"https://www.camping-des-etangs.com/"}},"896185719":{"location":[43.8915999,0.7732287],"ct":"FR","tp":"CR","ts":"2024-05-13T00:41:16Z","tX":514,"tY":372,"tags":{"access":"yes","addr:city":"Saint-Clar","addr:housenumber":"2-8","addr:postcode":"32380","addr:street":"Chemin de Ronde","capacity":"10","caravan_site":"motorhome_stopover","caravan_site:type":"village","fee":"no","name":"L'aire de camping cars Saint Clar","opening_hours":"24/7","operator":"Ville de Saint-Clar","power_supply":"yes","sanitary_dump_station":"yes","sanitary_dump_station:chemical_toilet":"yes","sanitary_dump_station:grey_water":"yes","seasonal":"no","water_point":"yes","website":"https://www.mairie-st-clar.com/aire-campingcar"}},"1232240764":{"location":[44.0841882,1.0274212],"ct":"FR","tp":"CR","ts":"2024-05-17T23:05:30Z","tX":514,"tY":372,"tags":{"bbq":"no","capacity":"18","caravan_site":"motorhome_stopover","caravan_site:type":"recreational","caravans":"no","charge":"14.80 EUR","charge:conditional":"12.80 EUR@(Nov-Apr)","dog":"leashed","fee":"yes","internet_access":"wlan","internet_access:fee":"no","maxlength":"none","name":"CAMPING-CAR PARK area of Saint-Nicolas-de-la-Grave","network":"CAMPING-CAR PARK","opening_hours":"24/7","operator":"CAMPING-CAR PARK","power_supply":"yes","power_supply:capacity":"12","power_supply:fee":"no","power_supply:maxcurrent":"6","sanitary_dump_station":"yes","surface":"gravel","tents":"no","trailer":"yes","website":"https://www.campingcarpark.com/fr_FR/sejour/aire-etape-camping-car/occitanie/82-tarn-et-garonne/st-nicolas-de-la-grave"}},"1287378614":{"location":[44.0384326,0.8924435],"ct":"FR","tp":"CR","ts":"2024-12-26T11:02:08Z","tX":514,"tY":372,"tags":{"capacity":"4","caravan_site":"motorhome_stopover","caravan_site:type":"village","caravans":"no","dog":"yes","fee":"no","name":"Aire de Camping-Car Bardigues","sanitary_dump_station":"yes","sanitary_dump_station:chemical_toilet":"yes","sanitary_dump_station:grey_water":"yes","seasonal":"no","tents":"no","water_point":"yes","water_point:fee":"yes","website":"https://www.tourisme-tarnetgaronne.fr/offres/aire-de-camping-cars-bardigues-bardigues-fr-2498892/"}},"2620285259":{"location":[43.8849191,0.9981275],"ct":"FR","tp":"CS","ts":"2014-01-12T21:40:49Z","tX":514,"tY":372,"tags":{"name":"Le Lomagnol","source":"cadastre-dgi-fr source : Direction Générale des Impôts - Cadastre. Mise à jour : 2014"}},"10913755503":{"location":[44.0719775,0.8989185],"ct":"FR","tp":"CS","ts":"2023-05-20T09:02:15Z","tX":514,"tY":372,"tags":{"access":"permit","addr:city":"Auvillar","addr:postcode":"82340","addr:street":"Chemin du Peyrat","capacity:persons":"10","capacity:tents":"3","caravans":"no","fee":"yes","name":"Le Nid du Peyrat","payment:cash":"yes","phone":"+33 6 48 57 87 46","static_caravans":"no","tents":"yes"}},"8330415714":{"location":[43.8918957,0.7731892],"ct":"FR","tp":"SD","ts":"2024-05-13T00:41:16Z","tX":514,"tY":372,"tags":{"fee":"no","motorhome":"designated","operator":"Ville de Saint-Clar","sanitary_dump_station:chemical_toilet":"yes","sanitary_dump_station:grey_water":"yes","sanitary_dump_station:round_drain":"yes","water_point":"yes"}},"12113610252":{"location":[44.0383605,0.8925339],"ct":"FR","tp":"SD","ts":"2024-08-16T00:24:22Z","tX":514,"tY":372,"tags":{"access":"yes","sanitary_dump_station:chemical_toilet":"yes","sanitary_dump_station:grey_water":"yes","water_point":"yes"}},"12356327019":{"location":[44.0061701,0.7689089],"ct":"FR","tp":"CS","ts":"2024-11-19T18:34:32Z","tX":514,"tY":372,"tags":{"name":"Camping Biran"}}}