{"64232706":{"location":[43.7759448,0.9286921],"ct":"FR","tp":"CS","ts":"2010-06-26T14:44:43Z","tX":514,"tY":373,"tags":{"source":"cadastre-dgi-fr source : Direction Générale des Impôts - Cadastre. Mise à jour : 2010"}},"169980125":{"location":[43.6300912,0.8697077],"ct":"FR","tp":"CR","ts":"2025-05-02T17:20:55Z","tX":514,"tY":373,"tags":{"caravan_site":"motorhome_stopover","caravan_site:type":"lake","fee":"no","name":"Aire Communale du Lac","sanitary_dump_station":"yes","seasonal":"no","water_point":"yes","website":"http://www.tourisme-3cag-gers.com/fiche/detail/8/Je-prepare~Mon-hebergement~Aires-de-camping-car/AIRE-COMMUNALE-DU-LAC","wheelchair":"limited"}},"372770564":{"location":[43.6865553,1.0025357],"ct":"FR","tp":"CS","ts":"2019-03-05T00:46:22Z","tX":514,"tY":373,"tags":{"name":"Lac de Thoux Saint-Cricq","website":"https://www.camping-lacdethoux.com/"}},"410504676":{"location":[43.6860511,1.0043852],"ct":"FR","tp":"CS","ts":"2025-06-18T12:11:34Z","tX":514,"tY":373,"tags":{"addr:city":"Saint-Cricq","addr:postcode":"32430","addr:street":"Lieu dit la Téoulère, RD 654","contact:phone":"+33 5 64 08 00 14","leisure":"park","name":"Camping Le Lac de Thoux - Ciela Village - Gers","opening_hours":"Mo-Su 09:00-19:00","ref:FR:SIRET":"49323142700011","website":"https://www.camping-lac-thoux.fr/fr"}},"621240393":{"location":[43.7964341,0.8228266],"ct":"FR","tp":"CS","ts":"2021-06-13T15:58:02Z","tX":514,"tY":373,"tags":{"name":"Camping municipal Monfort"}},"896192883":{"location":[43.7321886,0.8762258],"ct":"FR","tp":"CR","ts":"2024-10-11T20:51:58Z","tX":514,"tY":373,"tags":{"access":"yes","addr:city":"Mauvezin","addr:housenumber":"4","addr:postcode":"32120","addr:street":"Rue des Petites Garennes","capacity":"4","caravan_site":"motorhome_stopover","caravan_site:type":"village","description":"Aire de stationnement de Camping-car gratuit","fee":"no","name":"Aire Camping-Cars Mauvezin","operator":"Ville de Mauvezin","power_supply":"yes","sanitary_dump_station":"yes","sanitary_dump_station:chemical_toilet":"yes","sanitary_dump_station:grey_water":"yes","tents":"no","water_point":"yes","website":"https://www.tourisme-bastidesdelomagne.fr/campings/aire-camping-car/"}},"1160942051":{"location":[43.7509303,0.9766752],"ct":"FR","tp":"CS","ts":"2011-05-31T16:49:43Z","tX":514,"tY":373,"tags":{"name":"Camping du Mouton Noir","website":"http://www.lapagana.fr/camping-du-mouton-noir","wheelchair":"yes"}},"1312064897":{"location":[43.8245274,0.9574326],"ct":"FR","tp":"CR","ts":"2024-09-26T23:03:31Z","tX":514,"tY":373,"tags":{"caravan_site":"motorhome_stopover","caravan_site:type":"village","caravans":"no","fee":"no","name":"Aire de Camping-Car Faudoas","picnic_area":"yes","power_supply":"no","sanitary_dump_station":"no","tents":"no","toilets":"yes","water_point":"no","website":"https://www.tourisme-tarnetgaronne.fr/offres/aire-de-stationnement-camping-car-faudoas-fr-3857641/"}},"1318533594":{"location":[43.7229852,1.0484644],"ct":"FR","tp":"CR","ts":"2024-09-26T22:57:56Z","tX":514,"tY":373,"tags":{"capacity":"5","caravan_site":"motorhome_stopover","caravan_site:type":"village","caravans":"no","dog":"leashed","fee":"no","name":"Aire de Cadours","opening_hours":"24/7","sanitary_dump_station":"yes","sanitary_dump_station:chemical_toilet":"village","sanitary_dump_station:grey_water":"yes","seasonal":"no","tents":"no","water_point":"yes","website":"https://tourisme.hautstolosans.fr/fr/diffusio/hotellerie-de-plein-air/aire-de-services-de-cadours-cadours_TFOHPAMID031V50HXJZ"}},"10178896162":{"location":[43.6596301,0.7337545],"ct":"FR","tp":"CS","ts":"2024-05-11T10:00:30Z","tX":514,"tY":373,"tags":{"addr:city":"Marsan","addr:housenumber":"587","addr:postcode":"32270","addr:street":"Route d'Aubiet","email":"domaine.aramis@gmail.com","facebook":"https://www.facebook.com/domainearamis32","name":"Domaine Aramis","phone":"+33 5 62 65 60 11","website":"https://www.domaine-aramis.com/"}},"11896644275":{"location":[43.7796671,0.7343043],"ct":"FR","tp":"CS","ts":"2024-05-11T11:08:15Z","tX":514,"tY":373,"tags":{"addr:city":"Taybosc","addr:postcode":"32120","email":"camping.gre.du.vent@wanadoo.fr","facebook":"https://www.facebook.com/campingaugreduvent/","fixme":"Check location","name":"Camping Au Gré Du Vent","phone":"+33 5 62 65 17 59","phone:mobile":"+33 6 74 92 06 567","website":"https://www.camping-greduvent.fr/"}},"12144548277":{"location":[43.7929646,0.9443736],"ct":"FR","tp":"CR","ts":"2024-08-29T16:11:01Z","tX":514,"tY":373,"tags":{"caravan_site":"motorhome_stopover","caravan_site:type":"farm_shop","dog":"yes","fee":"no","name":"Ferme de la Mude","reservation":"required","website":"https://www.fermedelamude.fr/"}},"12144548280":{"location":[43.8094732,0.916541],"ct":"FR","tp":"CR","ts":"2024-08-29T16:11:01Z","tX":514,"tY":373,"tags":{"caravan_site":"motorhome_stopover","caravan_site:type":"village","caravans":"no","dog":"yes","fee":"no","name":"Aire Village Maubec","opening_hours":"24/7","seasonal":"no","tents":"no","website":"https://www.tourisme-tarnetgaronne.fr/offres/aire-de-stationnement-camping-car-maubec-fr-3857647/"}},"8330442859":{"location":[43.7322425,0.8760385],"ct":"FR","tp":"SD","ts":"2024-05-12T23:09:02Z","tX":514,"tY":373,"tags":{"access":"yes","fee":"no","opening_hours":"24/7","operator":"Ville de Mauvezin","phone":"+33 5 62 06 81 45","power_supply":"cee_7_5","sanitary_dump_station:chemical_toilet":"yes","sanitary_dump_station:grey_water":"yes","sanitary_dump_station:round_drain":"yes","seasonal":"no","water_point":"yes"}},"12202833478":{"location":[43.7231788,1.048611],"ct":"FR","tp":"SD","ts":"2024-09-26T22:57:56Z","tX":514,"tY":373,"tags":{"access":"yes","fee":"yes","sanitary_dump_station:chemical_toilet":"village","sanitary_dump_station:grey_water":"yes","water_point":"yes"}}}