{"7211012":{"location":[42.7002648,0.8682966],"ct":"ES","tp":"CS","ts":"2024-08-03T23:11:26Z","tX":514,"tY":377,"tags":{"email":"info@yerla.net","name":"Càmping Era Ièrla","phone":"+34 973 64 16 02","website":"https://campingartieserayerla.com"}},"10398405":{"location":[42.736391,0.7438654],"ct":"ES","tp":"CS","ts":"2023-04-01T11:02:10Z","tX":514,"tY":377,"tags":{"cabins":"yes","name":"Verneda","name:ca":"Verneda","name:oc":"Verneda"}},"10398419":{"location":[42.736152,0.7615719],"ct":"ES","tp":"CS","ts":"2023-09-21T20:26:55Z","tX":514,"tY":377,"tags":{"access":"yes","addr:postcode":"25537","addr:street":"Artigane, Carretera N-230, km 168, Eth Pont D'Arròs","capacity":"200","email":"admin@campingartigane.es","fee":"yes","internet_access":"yes","internet_access:fee":"yes","name":"Camping Artigané","payment:cash":"yes","payment:contactless":"yes","phone":"+34973642610","website":"https://www.campingartigane.com/","wheelchair":"yes"}},"248295478":{"location":[42.8051406,0.7067515],"ct":"ES","tp":"CS","ts":"2023-04-01T10:49:02Z","tX":514,"tY":377,"tags":{"name":"Camping Cauarca","name:ca":"Camping Cauarca","name:oc":"Camping Cauarca","source":"gps,survey"}},"968213641":{"location":[42.7128173,0.7978118],"ct":"ES","tp":"CR","ts":"2021-07-28T15:23:48Z","tX":514,"tY":377,"tags":{"name":"Val d'Aran camper park"}},"9208005225":{"location":[42.7924012,0.9071129],"ct":"ES","tp":"CS","ts":"2021-10-28T15:43:31Z","tX":514,"tY":377,"tags":{"access":"permissive","capacity":"2","name":"Bivouac possible"}},"8290975674":{"location":[42.7365024,0.7459607],"ct":"ES","tp":"SD","ts":"2021-01-04T19:16:35Z","tX":514,"tY":377,"tags":{"description":"Station de vidange pour Camping-car","fee":"yes","operator":"Unknow","sanitary_dump_station:chemical_toilet":"yes","sanitary_dump_station:grey_water":"yes","water_point":"yes"}}}