{"8777768":{"location":[42.3269506,0.9416912],"ct":"ES","tp":"CS","ts":"2024-05-11T19:06:14Z","tX":514,"tY":378,"tags":{"addr:city":"Senterada","addr:postcode":"25514","caravans":"yes","contact:website":"http://www.campingsenterada.cat","name":"Càmping Senterada","name:ca":"Càmping Senterada","phone":"+34 973 66 18 18","tents":"yes"}},"17678946":{"location":[42.4481037,0.7110169],"ct":"ES","tp":"CS","ts":"2024-08-01T13:13:39Z","tX":514,"tY":378,"tags":{"name":"Càmping Alta Ribagorça","name:ca":"Càmping Alta Ribagorça","tents":"yes","website":"www.campingaltaribagorça.es"}},"197867116":{"location":[42.5178426,0.8463817],"ct":"ES","tp":"CS","ts":"2024-02-09T15:45:10Z","tX":514,"tY":378,"tags":{"addr:city":"Taüll","addr:postcode":"25528","addr:street":"Carretera de Taüll, Km. 3, ,","name":"Càmping Taüll","name:ca":"Càmping Taüll","phone":"+34 973 69 61 74","website":"http://www.campingtaull.com/"}},"198350099":{"location":[42.3801587,0.8665213],"ct":"ES","tp":"CS","ts":"2022-11-26T08:31:59Z","tX":514,"tY":378,"tags":{"name":"Càmping Sol i Fred","name:ca":"Càmping Sol i Fred","phone":"+34 973 666 007"}},"198437545":{"location":[42.4303984,0.7396772],"ct":"ES","tp":"CS","ts":"2022-11-19T02:23:30Z","tX":514,"tY":378,"tags":{"contact:facebook":"https://www.facebook.com/camping.canroig","name":"Can Roig","name:ca":"Can Roig","phone":"+34 973 690 502"}},"198437551":{"location":[42.4349149,0.7439274],"ct":"ES","tp":"CS","ts":"2023-10-26T23:12:14Z","tX":514,"tY":378,"tags":{"addr:city":"El Pont de Suert","addr:postcode":"25520","addr:street":"Crta.Vall de Boi (L-500), km. 1’5","caravans":"yes","cash_withdrawal":"mastercard;visa","email":"campingdelremei@gmail.com","internet_access":"wlan","internet_access:fee":"no","name":"Càmping del Remei","name:ca":"Càmping del Remei","phone":"+34 676 45 84 12","sanitary_dump_station":"customers","stars":"2","tents":"yes","website":"https://www.campingdelremei.com/"}},"395260112":{"location":[42.4260365,0.982702],"ct":"ES","tp":"CS","ts":"2024-02-09T15:35:33Z","tX":514,"tY":378,"tags":{"addr:city":"La Torre de Capdella","addr:postcode":"25515","addr:street":"Carretera Senterada – La Torre de Capdella, Km. 14","email":"info@camping-vallfosca.cat","name":"Càmping Vall Fosca","name:ca":"Càmping Vall Fosca","phone":"+34 973 66 30 80","website":"https://www.camping-vallfosca.cat/"}},"396834161":{"location":[42.5033948,0.8014713],"ct":"ES","tp":"CS","ts":"2022-11-26T05:20:12Z","tX":514,"tY":378,"tags":{"name":"Càmping Boneta","name:ca":"Càmping Boneta"}},"465470061":{"location":[42.517962,0.8466272],"ct":"ES","tp":"CR","ts":"2009-08-14T13:39:39Z","tX":514,"tY":378,"tags":{}},"4587214590":{"location":[42.4793256,0.8700505],"ct":"ES","tp":"CR","ts":"2022-11-26T05:20:52Z","tX":514,"tY":378,"tags":{"addr:street":"pistas de boi-tahull","name":"Pàrquing pistes d'esquí","name:ca":"Pàrquing pistes d'esquí","name:es":"Parquing pistas de esqui"}},"4640266089":{"location":[42.5165329,0.8560477],"ct":"ES","tp":"CR","ts":"2023-11-06T19:31:37Z","tX":514,"tY":378,"tags":{}},"4640266289":{"location":[42.4875358,0.8634768],"ct":"ES","tp":"CR","ts":"2021-08-31T20:01:40Z","tX":514,"tY":378,"tags":{"name:signed":"no"}},"10977537930":{"location":[42.3393982,0.9571861],"ct":"ES","tp":"CR","ts":"2024-05-11T19:06:14Z","tX":514,"tY":378,"tags":{"name":"Àrea de serveis per a autocaravanes","power_supply":"no","sanitary_dump_station":"yes","source":"survey"}}}