{"182938553":{"location":[41.3153044,0.8804557],"ct":"ES","tp":"CS","ts":"2023-03-31T19:43:44Z","tX":514,"tY":382,"tags":{"barrier":"fence","name":"Càmping Montsant Park","name:ca":"Càmping Montsant Park","website":"http://campingmontsantpark.com/"}},"287236529":{"location":[41.2973717,0.7836407],"ct":"ES","tp":"CS","ts":"2024-05-26T09:17:05Z","tX":514,"tY":382,"tags":{"caravans":"yes","charge":"3 EUR (vehicle); 1.5 EUR (tent); 1.5 EUR/person","drinking_water":"no","fee":"yes","motorhome":"yes","name":"La Presa","name:ca":"La Presa","opening_hours":"24/7","parking":"surface","power_supply":"no","sanitary_dump_station":"no","shower":"no","tents":"yes","toilets":"yes"}},"287328716":{"location":[41.349814,0.9588765],"ct":"ES","tp":"CS","ts":"2023-11-10T02:47:16Z","tX":514,"tY":382,"tags":{"name":"Serra de Prades","name:ca":"Serra de Prades","website":"https://www.serradeprades.com/"}},"309547990":{"location":[41.3131449,0.9802224],"ct":"ES","tp":"CS","ts":"2024-10-19T19:53:07Z","tX":514,"tY":382,"tags":{"access":"permit","addr:city":"Prades","addr:postcode":"43364","addr:street":"Carretera T-701 Km. 6,850","caravans":"yes","dog":"leashed","fee":"yes","name":"Camping Prades Park","shower":"yes","static_caravans":"yes","tents":"yes","website":"https://www.campingprades.com/"}},"500062047":{"location":[41.2618873,0.9420228],"ct":"ES","tp":"CS","ts":"2023-11-19T06:32:35Z","tX":514,"tY":382,"tags":{"alt_name":"Camping Siurana","caravans":"yes","drinking_water":"yes","name":"Càmping Siurana","name:ca":"Càmping Siurana","shower":"yes","tents":"yes","website":"https://www.campingsiurana.com/"}},"966487516":{"location":[41.3951075,0.9280214],"ct":"ES","tp":"CS","ts":"2023-11-10T02:47:19Z","tX":514,"tY":382,"tags":{"capacity":"50","charge":"3.50 EUR","fee":"yes","group_only":"yes","name":"Terreny d'acampada Camí de Llops","name:ca":"Terreny d'acampada Camí de Llops","operator":"Campaments.cat","website":"https://campaments.cat/terreny/cami-de-llops"}},"972649687":{"location":[41.28478,0.7508374],"ct":"ES","tp":"CS","ts":"2023-11-30T20:00:42Z","tX":514,"tY":382,"tags":{"addr:street":"Carrer de la Bisbal","caravans":"yes","drinking_water":"yes","internet_access":"wlan","name":"elPont","opening_hours":"Th-Tu 09:00-13:00, 18:00-22:00","power_supply":"yes","shower":"yes","tents":"yes","toilets":"yes"}},"1235022959":{"location":[41.4240163,1.0235551],"ct":"ES","tp":"CR","ts":"2024-03-20T17:04:04Z","tX":514,"tY":382,"tags":{"bbq":"no","capacity":"5","caravans":"no","description":"area outside pitches can be used when full","dog":"leashed","internet_access":"wlan","maxstay":"72 hours","name":"La Sort","power_supply":"yes","sanitary_dump_station":"yes","sanitary_dump_station:chemical_toilet":"yes","sanitary_dump_station:grey_water":"yes","tents":"no","water_point":"yes","website":"https://www.tarres.cat/el-municipi/turisme/parquing-dautocaravanes"}},"1280389741":{"location":[41.3086773,0.8647858],"ct":"ES","tp":"CS","ts":"2024-05-06T22:48:13Z","tX":514,"tY":382,"tags":{"email":"aj.ulldemolins@altanet.org","fee":"yes","mobile":"+34626292979","name":"Àrea d'acampada de Santa Magdalena","operator":"Ajuntament d'Ulldemolins","phone":"+34977561578"}},"1344839576":{"location":[41.2613461,0.9058625],"ct":"ES","tp":"CR","ts":"2025-04-07T06:22:38Z","tX":514,"tY":382,"tags":{"name":"Àrea d'autocaravanes Montsant","sanitary_dump_station":"yes"}}}