{"14485980":{"location":[41.0243725,0.9592117],"ct":"ES","tp":"CS","ts":"2022-08-22T13:07:35Z","tX":514,"tY":383,"tags":{"access":"customers","caravans":"yes","fee":"yes","internet_access":"yes","motor_vehicle":"yes","name":"Camping Miramar","phone":"+34 977 811 203","surface":"ground","tents":"yes","toilets":"yes","website":"https://www.camping-miramar.es/"}},"14486281":{"location":[41.0354394,0.9746016],"ct":"ES","tp":"CS","ts":"2022-12-11T21:45:22Z","tX":514,"tY":383,"tags":{"name":"Càmping La Torre del Sol","name:ca":"Càmping La Torre del Sol","website":"https://www.latorredelsol.com/"}},"14486283":{"location":[41.032366,0.9693742],"ct":"ES","tp":"CS","ts":"2022-10-09T12:12:08Z","tX":514,"tY":383,"tags":{"addr:city":"Montroig del Camp","addr:postcode":"43300","addr:street":"Carretera N-340 Km 1.136","name":"Càmping Resort Playa Montroig","phone":"+34977810637","website":"https://www.playamontroig.com"}},"14486301":{"location":[41.0347256,0.968329],"ct":"ES","tp":"CS","ts":"2022-08-22T14:31:49Z","tX":514,"tY":383,"tags":{"name":"Playa Montroig Camping Resort \"Sports Centre\"","website":"https://www.playamontroig.com"}},"14519662":{"location":[41.0439217,0.9946649],"ct":"ES","tp":"CS","ts":"2023-09-21T20:26:55Z","tX":514,"tY":383,"tags":{"alt_name":"Càmping Platja i Festa","name":"Camping Playa y Fiesta","website":"https://www.campingplayayfiesta.com/"}},"14519746":{"location":[41.046109,1.0046576],"ct":"ES","tp":"CS","ts":"2022-11-26T06:12:22Z","tX":514,"tY":383,"tags":{"name":"Càmping Oasis Mar","name:ca":"Càmping Oasis Mar"}},"14519760":{"location":[41.0394419,0.982359],"ct":"ES","tp":"CS","ts":"2022-08-29T21:07:22Z","tX":514,"tY":383,"tags":{"fee":"yes","name":"Càmping Alannia Els Prats","payment:cash":"yes","payment:credit_cards":"yes","website":"https://www.marjalresorts.com/de/camping-alannia-els-prats"}},"130786697":{"location":[41.0573963,1.0267873],"ct":"ES","tp":"CS","ts":"2023-10-31T04:41:02Z","tX":514,"tY":383,"tags":{"addr:city":"Tarragona","addr:country":"ES","addr:housenumber":"88","addr:postcode":"43850","addr:street":"Passeig Marítim","alt_name":"Camping Joan bungalow park","barrier":"fence","email":"info@campingjoan.com","fax":"+34977794214","fee":"yes","name":"Camping Joan","phone":"+34977364604","toilets:wheelchair":"yes","website":"https://campingjoan.com/","wheelchair":"yes"}},"170771455":{"location":[41.0655756,1.0458256],"ct":"ES","tp":"CS","ts":"2024-08-21T19:20:15Z","tX":514,"tY":383,"tags":{"caravans":"yes","drinking_water":"yes","name":"Càmping La Llosa","name:ca":"Càmping La Llosa","power_supply":"yes","sanitary_dump_station":"yes","shower":"yes","tents":"yes","toilets":"yes","toilets:wheelchair":"yes","wheelchair":"limited"}},"488457134":{"location":[41.1116769,1.0468202],"ct":"ES","tp":"CS","ts":"2023-02-20T18:06:05Z","tX":514,"tY":383,"tags":{"addr:city":"Vinyols i els Arcs","addr:housenumber":"13","addr:postcode":"43391","addr:street":"Camí de Barenys","barrier":"fence","email":"hola@ecocampvinyols.cat","fence_type":"chain_link","height":"2","name":"Ecocamp Vinyols","phone":"+34 977850409","website":"https://ecocampvinyols.cat"}},"966422916":{"location":[41.1502429,0.9290662],"ct":"ES","tp":"CS","ts":"2021-07-22T10:02:09Z","tX":514,"tY":383,"tags":{"access":"private","capacity":"80","charge":"4.50 EUR","fee":"yes","group_only":"yes","name":"Terreny d'acampada Puigmarí","operator":"Campaments.cat","website":"https://www.campaments.cat/terreny/puigmari"}},"966422917":{"location":[41.1361893,0.9096144],"ct":"ES","tp":"CS","ts":"2022-07-01T09:06:41Z","tX":514,"tY":383,"tags":{"access":"private","capacity":"50","charge":"4.50 EUR","fee":"yes","group_only":"yes","name":"L'Hort de l'Abadia","operator":"Campaments.cat","website":"https://www.campaments.cat/terreny/lhort-de-labadia"}},"1004385559":{"location":[40.9859096,0.9078541],"ct":"ES","tp":"CR","ts":"2021-11-19T15:05:36Z","tX":514,"tY":383,"tags":{"capacity":"20","sanitary_dump_station":"yes"}},"1324475086":{"location":[41.1429178,0.8176824],"ct":"ES","tp":"CR","ts":"2024-10-17T07:52:31Z","tX":514,"tY":383,"tags":{"capacity:caravans":"12","check_date":"2024-10-16","name":"Àrea d'acollida d'autocaravanes Falset","power_supply":"yes"}},"4847679659":{"location":[41.0981289,0.8897438],"ct":"ES","tp":"CS","ts":"2025-05-10T07:06:34Z","tX":514,"tY":383,"tags":{"drinking_water":"yes","fee":"no","name":"Zona de Lleure L'Acampada","operator":"Ajuntament de Colldejou","shower":"cold"}},"4847681811":{"location":[41.0415795,0.7382778],"ct":"ES","tp":"CS","ts":"2017-09-30T17:38:37Z","tX":514,"tY":383,"tags":{"name":"Camping-Alberg Tivissa"}},"10287415398":{"location":[41.1271216,0.7340909],"ct":"ES","tp":"CR","ts":"2022-12-26T11:36:12Z","tX":514,"tY":383,"tags":{"fee":"no","permanent_camping":"no","toilets":"no"}},"10811734881":{"location":[41.2171562,0.7637029],"ct":"ES","tp":"CR","ts":"2023-04-14T16:11:25Z","tX":514,"tY":383,"tags":{}},"10287385979":{"location":[41.1266535,0.7338306],"ct":"ES","tp":"SD","ts":"2024-11-11T12:39:06Z","tX":514,"tY":383,"tags":{"access":"yes","panoramax":"b5f89c7e-b8a7-439a-a418-d1049454a3a1","power_supply":"no","sanitary_dump_station:chemical_toilet":"yes","sanitary_dump_station:grey_water":"yes","water_point":"yes"}},"12126870801":{"location":[41.0657317,1.0455822],"ct":"ES","tp":"SD","ts":"2024-08-22T11:34:09Z","tX":514,"tY":383,"tags":{"access":"customers","fee":"yes","water_point":"yes"}}}