{"15773263":{"location":[-22.8921746,150.6181469],"ct":"AU","tp":"CS","ts":"2023-04-28T08:22:38Z","tX":940,"tY":578,"tags":{"name":"Upper Stony Campground"}},"316605465":{"location":[-22.8734227,150.6856338],"ct":"AU","tp":"CS","ts":"2022-12-13T10:33:43Z","tX":940,"tY":578,"tags":{"caravans":"yes","drinking_water":"no","name":"Red Rock Campground - Byfield SF","power_supply":"no","shower":"no","tents":"yes","toilets":"yes"}},"1811203652":{"location":[-22.83556,150.67222],"ct":"AU","tp":"CS","ts":"2012-07-03T12:19:58Z","tX":940,"tY":578,"tags":{"name":"Waterpark Creek Campground"}},"7944191904":{"location":[-22.8082362,150.8034637],"ct":"AU","tp":"CS","ts":"2020-09-26T05:58:26Z","tX":940,"tY":578,"tags":{"fee":"yes","name":"Five Rocks camping area","website":"https://parks.des.qld.gov.au/parks/byfield/camping/five-rocks"}},"8111727876":{"location":[-22.8242863,150.661777],"ct":"AU","tp":"CS","ts":"2022-03-04T12:49:26Z","tX":940,"tY":578,"tags":{"addr:housenumber":"67","addr:postcode":"4703","addr:state":"QLD","addr:street":"Cahills Road","addr:suburb":"Byfield","fee":"yes","name":"Ferns Hideaway Resort and Caravan Park","phone":"+61 408 351 235"}}}