{"16228538":{"location":[-34.2396106,150.8140667],"ct":"AU","tp":"CS","ts":"2023-08-22T01:33:46Z","tX":940,"tY":615,"tags":{"group_only":"yes","name":"Ground #4"}},"117330745":{"location":[-34.2425877,150.8179768],"ct":"AU","tp":"CS","ts":"2024-06-10T00:30:52Z","tX":940,"tY":615,"tags":{"caravans":"yes","fee":"yes","group_only":"yes","name":"Ground #8","operator":"Cataract Scout Camp","shower":"yes","tents":"yes","toilets":"yes","website":"https://cataract.nsw.scouts.com.au/facility/accommodation/"}},"117330750":{"location":[-34.2380498,150.817419],"ct":"AU","tp":"CS","ts":"2024-06-10T00:30:52Z","tX":940,"tY":615,"tags":{"caravans":"yes","fee":"yes","group_only":"yes","name":"Ground #6","operator":"Cataract Scout Camp","shower":"yes","tents":"yes","toilets":"yes","website":"https://cataract.nsw.scouts.com.au/facility/accommodation/"}},"117330764":{"location":[-34.2452464,150.8180392],"ct":"AU","tp":"CS","ts":"2024-06-10T00:30:52Z","tX":940,"tY":615,"tags":{"caravans":"yes","fee":"yes","group_only":"yes","name":"Ground #2","operator":"Cataract Scout Camp","shower":"yes","tents":"yes","toilets":"yes","website":"https://cataract.nsw.scouts.com.au/facility/accommodation/"}},"117330767":{"location":[-34.2405332,150.8164888],"ct":"AU","tp":"CS","ts":"2024-06-10T00:30:52Z","tX":940,"tY":615,"tags":{"caravans":"yes","fee":"yes","group_only":"yes","name":"Ground #7","operator":"Cataract Scout Camp","shower":"yes","tents":"yes","toilets":"yes","website":"https://cataract.nsw.scouts.com.au/facility/accommodation/"}},"117330769":{"location":[-34.2396106,150.8140667],"ct":"AU","tp":"CS","ts":"2024-06-10T00:30:52Z","tX":940,"tY":615,"tags":{"caravans":"yes","fee":"yes","group_only":"yes","name":"Ground #4","operator":"Cataract Scout Camp","shower":"yes","tents":"yes","toilets":"yes","website":"https://cataract.nsw.scouts.com.au/facility/accommodation/"}},"117330772":{"location":[-34.2434673,150.8157481],"ct":"AU","tp":"CS","ts":"2024-06-10T00:30:52Z","tX":940,"tY":615,"tags":{"caravans":"yes","fee":"yes","group_only":"yes","name":"Ground #3","operator":"Cataract Scout Camp","shower":"yes","tents":"yes","toilets":"yes","website":"https://cataract.nsw.scouts.com.au/facility/accommodation/"}},"161035437":{"location":[-34.0555658,150.706339],"ct":"AU","tp":"CR","ts":"2025-03-03T21:36:16Z","tX":940,"tY":615,"tags":{"addr:country":"AU","addr:housenumber":"21","addr:postcode":"2570","addr:street":"MacArthur Road","addr:suburb":"Elderslie","email":"info@poplartouristparkcamden.com.au","fax":"+61 2 4658 0475","fee":"yes","internet_access":"yes","internet_access:fee":"yes","name":"Poplar Caravan Park","phone":"+61 2 4658 0485","power_supply":"yes","source":"bing","tents":"yes","website":"https://www.poplartouristparkcamden.com.au/","wheelchair":"yes"}},"251751996":{"location":[-34.1566605,150.7383434],"ct":"AU","tp":"PK","ts":"2022-02-15T02:51:51Z","tX":940,"tY":615,"tags":{"access":"yes","bus":"yes","caravans":"yes","hgv":"yes","motorcar":"no","name":"Truck Parking","parking":"surface","source":"Bing","surface":"asphalt"}},"377579369":{"location":[-34.218925,150.7992183],"ct":"AU","tp":"CS","ts":"2015-11-08T07:15:41Z","tX":940,"tY":615,"tags":{"access":"unknown","operator":"Cataract Scout Camp","source":"survey"}},"1200972448":{"location":[-34.2377391,150.8129065],"ct":"AU","tp":"CS","ts":"2024-06-10T00:30:52Z","tX":940,"tY":615,"tags":{"caravans":"yes","fee":"yes","group_only":"yes","name":"Ground #5","operator":"Cataract Scout Camp","shower":"yes","tents":"yes","toilets":"yes","website":"https://cataract.nsw.scouts.com.au/facility/accommodation/"}},"1347235994":{"location":[-34.3006359,150.5901544],"ct":"AU","tp":"CR","ts":"2024-12-30T04:01:13Z","tX":940,"tY":615,"tags":{"name":"Avon Caravanpark Village","source":"bing"}},"3823962015":{"location":[-34.232567,150.807939],"ct":"AU","tp":"CS","ts":"2017-03-12T09:24:16Z","tX":940,"tY":615,"tags":{"access":"unknown","name":"Sandy Plateau","operator":"Cataract Scout Camp","source":"survey"}},"3823962024":{"location":[-34.2335329,150.8073656],"ct":"AU","tp":"CS","ts":"2015-11-08T07:15:30Z","tX":940,"tY":615,"tags":{"access":"unknown","operator":"Cataract Scout Camp","source":"survey"}},"3994291093":{"location":[-34.2409768,150.6057154],"ct":"AU","tp":"CS","ts":"2017-03-25T06:46:13Z","tX":940,"tY":615,"tags":{"name":"Warrabunda Scouts Campsite","source":"NSW LPI Imagery","source:name":"LPI Base Map Aug 2016"}},"10922877505":{"location":[-34.1963616,150.7185686],"ct":"AU","tp":"CS","ts":"2023-05-23T21:57:44Z","tX":940,"tY":615,"tags":{"addr:housenumber":"17","addr:postcode":"2569","addr:street":"Dredge Avenue"}},"5290573121":{"location":[-34.3006333,150.5898867],"ct":"AU","tp":"CR","ts":"2017-12-17T22:48:11Z","tX":940,"tY":615,"tags":{"name":"Avon Caravanpark Village"}},"12707438496":{"location":[-34.1530648,150.8054101],"ct":"AU","tp":"CS","ts":"2025-03-28T12:16:20Z","tX":940,"tY":615,"tags":{"access":"customers","addr:housenumber":"208","addr:street":"Minerva Road","camp_site":"deluxe","caravans":"yes","drinking_water":"yes","email":"office@wedderburn.org.au","fee":"yes","group_only":"yes","name":"Wedderburn Christian Campsite","operator":"Wedderburn Christian Campsite","phone":"+61 2 4634 1265","reservation":"required","shower":"yes","tents":"yes","toilets":"yes","website":"https://www.wedderburn.org.au/"}}}