{"7564897":{"location":[52.9234078,1.1688719],"ct":"GB","tp":"CS","ts":"2018-09-16T08:01:23Z","tX":515,"tY":333,"tags":{"name":"Woodland","phone":"+44 1263823802"}},"39491359":{"location":[52.9240445,1.1480306],"ct":"GB","tp":"CS","ts":"2023-07-13T19:50:21Z","tX":515,"tY":333,"tags":{"addr:city":"Holt","addr:district":"Weybourne","addr:postcode":"NR25 6QL","caravans":"yes","contact:email":"camping@breckfarm.co.uk","contact:facebook":"https://www.facebook.com/Breck-Farm-128285073887925/","dog":"yes","internet_access":"no","motorhome":"yes","name":"Breck Farm","opening_hours":"Apr-Oct","phone":"+44 1263 588236","power_supply":"yes","shower":"yes","tents":"yes","toilets":"yes","washing_machine":"yes","website":"https://www.breckfarm.co.uk/"}},"71957219":{"location":[52.9345898,1.2819931],"ct":"GB","tp":"CR","ts":"2023-09-15T15:34:55Z","tX":515,"tY":333,"tags":{"addr:city":"Cromer","addr:country":"GB","addr:postcode":"NR27 9NH","addr:street":"Runton Road","name":"Wyndham Holiday Park","website":"https://www.wyndhamholidaypark.com/"}},"82576471":{"location":[52.9354621,1.2349271],"ct":"GB","tp":"CS","ts":"2015-07-23T22:20:34Z","tX":515,"tY":333,"tags":{"capacity":"5","phone":"+44 1263837251"}},"118343432":{"location":[52.9153331,1.3468652],"ct":"GB","tp":"CR","ts":"2023-08-11T10:31:09Z","tX":515,"tY":333,"tags":{"barn_conversion_units":"yes","caravans":"yes","name":"Ivy Farm Holiday Park","tents":"no","touring_caravans":"no"}},"166563650":{"location":[52.9414129,1.2320195],"ct":"GB","tp":"CR","ts":"2018-07-01T19:14:31Z","tX":515,"tY":333,"tags":{"name":"Beeston Regis","phone":"+44 1263823614","source":"Bing"}},"166563651":{"location":[52.9420032,1.2356589],"ct":"GB","tp":"CR","ts":"2012-06-08T08:33:47Z","tX":515,"tY":333,"tags":{"source":"Bing"}},"166563652":{"location":[52.9409382,1.2432504],"ct":"GB","tp":"CR","ts":"2023-08-29T10:48:45Z","tX":515,"tY":333,"tags":{"name":"Laburnum Caravan Park","phone":"+44 1263837473"}},"175975042":{"location":[52.9330092,1.2783143],"ct":"GB","tp":"CR","ts":"2023-08-18T07:02:23Z","tX":515,"tY":333,"tags":{"name":"Seacroft Caravan Club Site","phone":"+44 1263514938"}},"175976232":{"location":[52.9356662,1.2770896],"ct":"GB","tp":"CR","ts":"2024-02-11T01:54:03Z","tX":515,"tY":333,"tags":{}},"187425665":{"location":[52.9317109,1.2711149],"ct":"GB","tp":"CR","ts":"2012-11-09T20:34:17Z","tX":515,"tY":333,"tags":{}},"230297480":{"location":[52.9274618,1.1398268],"ct":"GB","tp":"CR","ts":"2024-04-10T12:02:09Z","tX":515,"tY":333,"tags":{"addr:city":"Holt","addr:district":"Weybourne","addr:postcode":"NR25 7HW","addr:street":"Kelling Heath","cabins":"yes","caravans":"yes","contact:email":"info@kellingheath.co.uk","fee":"yes","motorhome":"yes","name":"Kelling Heath Holiday Park","phone":"+44 1263 588181","shower":"yes","static_caravans":"yes","tents":"yes","toilets":"yes","washing_machine":"yes","water_point":"yes","website":"https://www.kellingheath.co.uk/","wikidata":"Q18160836"}},"303441218":{"location":[52.930298,1.255944],"ct":"GB","tp":"CS","ts":"2023-08-15T08:01:27Z","tX":515,"tY":333,"tags":{"name":"West Runton","operator":"The Camping and Caravanning Club","phone":"+44 1263 837544","shower":"yes","surface":"grass","tents":"yes","toilets":"yes","website":"https://www.campingandcaravanningclub.co.uk/campsites/uk/norfolk/cromer/west-runton-camping-and-caravanning-club-site/"}},"303441223":{"location":[52.9329571,1.2535303],"ct":"GB","tp":"CR","ts":"2015-07-23T22:20:31Z","tX":515,"tY":333,"tags":{"name":"Incleborough Fields","phone":"+44 1263837419"}},"303441226":{"location":[52.9322393,1.2491469],"ct":"GB","tp":"CS","ts":"2014-09-15T09:55:08Z","tX":515,"tY":333,"tags":{}},"372434068":{"location":[52.925922,1.3109914],"ct":"GB","tp":"CS","ts":"2015-09-26T08:06:34Z","tX":515,"tY":333,"tags":{}},"374866531":{"location":[52.9425084,1.1380603],"ct":"GB","tp":"CS","ts":"2023-04-16T09:15:47Z","tX":515,"tY":333,"tags":{"addr:postcode":"NR25 7TD","name":"Malting's Hotel Campsite","phone":"+44 1263 588731"}},"382786885":{"location":[52.9246052,1.296058],"ct":"GB","tp":"CS","ts":"2023-08-17T08:16:37Z","tX":515,"tY":333,"tags":{"access":"customers","addr:city":"Cromer","addr:postcode":"NR27 9JG","addr:street":"Hall Road","dog":"leashed","drinking_water":"yes","email":"info@cromercamping.com","fee":"yes","name":"Cromer Camping","phone":"+447771 971933","power_supply":"no","reservation":"recommended","sanitary_dump_station":"no","seasonal":"summer","shower":"yes","static_caravans":"no","tents":"yes","toilets":"yes","website":"https://www.cromercamping.com"}},"396781274":{"location":[52.9375168,1.2638147],"ct":"GB","tp":"CS","ts":"2021-06-13T08:59:09Z","tX":515,"tY":333,"tags":{"addr:city":"East Runton","addr:postcode":"NR27 9PX","addr:street":"Cromer Road","name":"Woodhill Park","phone":"+44 1263512242","source":"ACSI","website":"https://www.woodhill-park.com/"}},"396781276":{"location":[52.9372173,1.2714272],"ct":"GB","tp":"CR","ts":"2024-09-25T11:10:20Z","tX":515,"tY":333,"tags":{"addr:city":"East Runton","addr:postcode":"NR27 9PA","addr:street":"Beach Road","name":"Seaview Caravan Park"}},"396781277":{"location":[52.9374498,1.2656024],"ct":"GB","tp":"CR","ts":"2021-02-24T09:02:23Z","tX":515,"tY":333,"tags":{}},"427633990":{"location":[52.930781,1.2766374],"ct":"GB","tp":"CR","ts":"2024-06-16T02:38:47Z","tX":515,"tY":333,"tags":{"source":"Bing"}},"427633998":{"location":[52.928358,1.2785713],"ct":"GB","tp":"CS","ts":"2023-11-30T18:16:00Z","tX":515,"tY":333,"tags":{"access":"customers","backcountry":"no","dog":"yes","email":"stay@manorfarmcampsite.co.uk","fee":"yes","name":"Manor Farm Campsite","openfire":"yes","phone":"+44 1263 512858","sanitary_dump_station":"yes","shower":"yes","source":"Bing","toilets":"yes","website":"https://www.manorfarmcampsite.co.uk/"}},"467627060":{"location":[52.92017,1.3390855],"ct":"GB","tp":"CS","ts":"2017-09-11T10:38:44Z","tX":515,"tY":333,"tags":{"name":"Overstrand Campsite (Summer Only)","phone":"+44 1507343909"}},"855339562":{"location":[52.9251014,1.2471792],"ct":"GB","tp":"CR","ts":"2023-10-08T11:20:38Z","tX":515,"tY":333,"tags":{"fee":"no","name":"Roman Camp Caravan Park"}},"1162986348":{"location":[52.9424529,1.1319212],"ct":"GB","tp":"CS","ts":"2024-09-28T16:28:48Z","tX":515,"tY":333,"tags":{"caravans":"yes","internet_access":"wlan","internet_access:fee":"no","motorhome":"yes","name":"Foxhills Camping","opening_hours":"10:00-17:00","phone":"+44 1263 588253","reservation":"recommended","shower":"yes","tents":"yes","toilets":"yes","website":"http://www.foxhillscamping.co.uk/"}},"1314375403":{"location":[52.9155854,1.3214332],"ct":"GB","tp":"CS","ts":"2019-03-25T07:47:38Z","tX":515,"tY":333,"tags":{"caravans":"yes","name":"Forest Park","phone":"+44 1263513290","website":"https://www.forest-park.co.uk/"}},"3663575088":{"location":[52.9096219,1.0835189],"ct":"GB","tp":"CR","ts":"2015-07-23T20:34:27Z","tX":515,"tY":333,"tags":{"capacity":"5","name":"Blickling Caravan Site","phone":"+44 1263712174"}},"3663575101":{"location":[52.9461623,1.0575861],"ct":"GB","tp":"CS","ts":"2015-07-23T20:34:28Z","tX":515,"tY":333,"tags":{"capacity":"5","name":"Rectory Hill","phone":"+44 1263741138"}},"3663575102":{"location":[52.9159681,1.1613722],"ct":"GB","tp":"CR","ts":"2015-07-23T20:34:28Z","tX":515,"tY":333,"tags":{"capacity":"5","name":"Red Hart Inn","phone":"+44 1263588270"}},"3663575103":{"location":[52.9128006,1.1714922],"ct":"GB","tp":"CS","ts":"2015-07-23T20:34:28Z","tX":515,"tY":333,"tags":{"capacity":"5","name":"Rookery Farm","phone":"+44 1263821232"}},"3663575104":{"location":[52.9146436,1.0820294],"ct":"GB","tp":"CR","ts":"2015-07-23T20:34:28Z","tX":515,"tY":333,"tags":{"capacity":"5","name":"Rose Cottage","phone":"+44 1263713069"}},"3663823663":{"location":[52.9187082,1.3165716],"ct":"GB","tp":"CR","ts":"2015-07-23T22:20:26Z","tX":515,"tY":333,"tags":{"capacity":"5","name":"Antonia Villa","phone":"+44 1263511860"}},"3663823664":{"location":[52.9124393,1.2894615],"ct":"GB","tp":"CR","ts":"2015-07-23T22:20:26Z","tX":515,"tY":333,"tags":{"capacity":"5","name":"Bramble Park","phone":"+44 1263511870"}},"3663823668":{"location":[52.9120019,1.2819655],"ct":"GB","tp":"CR","ts":"2015-07-23T22:20:27Z","tX":515,"tY":333,"tags":{"capacity":"5","name":"Drift Cottage","phone":"+44 1263513765"}},"3663823670":{"location":[52.9193546,1.2421609],"ct":"GB","tp":"CR","ts":"2015-07-23T22:20:27Z","tX":515,"tY":333,"tags":{"capacity":"5","name":"Grove Farm","phone":"+44 1263837255"}},"3663823671":{"location":[52.9286247,1.2680668],"ct":"GB","tp":"CS","ts":"2015-07-23T22:20:27Z","tX":515,"tY":333,"tags":{"name":"Manor Farm","phone":"+44 1263512858"}},"3663823672":{"location":[52.9205737,1.2437844],"ct":"GB","tp":"CS","ts":"2015-07-23T22:20:27Z","tX":515,"tY":333,"tags":{"name":"Moorland Park","phone":"+44 1263837508"}},"3663823674":{"location":[52.9130172,1.2886121],"ct":"GB","tp":"CS","ts":"2015-07-23T22:20:27Z","tX":515,"tY":333,"tags":{"capacity":"5","name":"Oakwood","phone":"+44 1263519054"}},"3663823676":{"location":[52.9274542,1.2204479],"ct":"GB","tp":"CR","ts":"2015-07-23T22:20:27Z","tX":515,"tY":333,"tags":{"capacity":"5","name":"Sheringwood","phone":"+44 1263822799"}},"3663823677":{"location":[52.932413,1.2697324],"ct":"GB","tp":"CS","ts":"2015-07-23T22:20:27Z","tX":515,"tY":333,"tags":{"capacity":"5","name":"Wyld Flowers","phone":"+44 1263512529"}},"11026452214":{"location":[52.9285401,1.1351886],"ct":"GB","tp":"CS","ts":"2023-07-04T19:45:17Z","tX":515,"tY":333,"tags":{"caravans":"no","tents":"yes"}},"11026452234":{"location":[52.9297107,1.1327049],"ct":"GB","tp":"CS","ts":"2023-07-04T19:45:17Z","tX":515,"tY":333,"tags":{"caravans":"yes","tents":"no"}},"11026452235":{"location":[52.9293059,1.1341774],"ct":"GB","tp":"CS","ts":"2023-07-04T19:45:17Z","tX":515,"tY":333,"tags":{"caravans":"no","tents":"yes"}},"11026452252":{"location":[52.9287125,1.1332727],"ct":"GB","tp":"CS","ts":"2023-07-04T19:45:17Z","tX":515,"tY":333,"tags":{"caravans":"no","tents":"yes"}},"11030720088":{"location":[52.9274455,1.1302882],"ct":"GB","tp":"CS","ts":"2023-07-06T20:08:33Z","tX":515,"tY":333,"tags":{"caravans":"yes","tents":"no"}},"11030720089":{"location":[52.9283735,1.1310822],"ct":"GB","tp":"CS","ts":"2023-07-06T20:08:33Z","tX":515,"tY":333,"tags":{"caravans":"yes","tents":"no"}}}