{"121230050":{"location":[52.7696026,1.3327281],"ct":"GB","tp":"CS","ts":"2019-03-28T23:06:39Z","tX":515,"tY":334,"tags":{"name":"Goat Inn","phone":"+44 1692538600","website":"https://www.skeytongoatinn.co.uk/"}},"208260852":{"location":[52.8074472,1.3965426],"ct":"GB","tp":"CR","ts":"2015-07-28T19:42:23Z","tX":515,"tY":334,"tags":{"name":"Two Mills","phone":"+44 1692405829"}},"357213959":{"location":[52.8268664,1.4027643],"ct":"GB","tp":"CR","ts":"2019-03-25T07:46:56Z","tX":515,"tY":334,"tags":{"name":"Norfolk Park","website":"https://www.thedreamlodgegroup.co.uk/our-locations/norfolk-park/overview/"}},"372434067":{"location":[52.8946252,1.3024177],"ct":"GB","tp":"CR","ts":"2015-09-26T08:06:34Z","tX":515,"tY":334,"tags":{"name":"Six Acres Caravan Site"}},"440330881":{"location":[52.8896856,1.1428475],"ct":"GB","tp":"CS","ts":"2024-01-15T18:00:07Z","tX":515,"tY":334,"tags":{"name":"Baconsthorpe Meadows","phone":"+44 7786628079"}},"467946081":{"location":[52.8429044,1.2706348],"ct":"GB","tp":"CS","ts":"2017-01-23T10:35:08Z","tX":515,"tY":334,"tags":{"name":"Deer Mead","phone":"+44 1263768959"}},"504803039":{"location":[52.7471974,1.1853007],"ct":"GB","tp":"CR","ts":"2021-05-26T16:34:52Z","tX":515,"tY":334,"tags":{"landuse":"residential","name":"Charmbeck Park"}},"509617457":{"location":[52.892295,1.1131597],"ct":"GB","tp":"CR","ts":"2024-07-09T22:00:59Z","tX":515,"tY":334,"tags":{"name":"Hempstead Hall","phone":"+44 1263712224"}},"522884000":{"location":[52.8323164,1.4060862],"ct":"GB","tp":"CS","ts":"2023-10-28T03:41:27Z","tX":515,"tY":334,"tags":{"website":"https://www.mikethurston.org.uk/"}},"1176871185":{"location":[52.7490755,1.1874281],"ct":"GB","tp":"CS","ts":"2023-05-28T09:31:15Z","tX":515,"tY":334,"tags":{"addr:street":"Woodlands Park","name":"Moat Island Glamping"}},"1225225835":{"location":[52.8204551,1.2967476],"ct":"GB","tp":"CR","ts":"2023-11-26T16:32:52Z","tX":515,"tY":334,"tags":{"access":"permit","caravans":"yes","motorhome":"yes","name":"Spring Meadow","operator":"Richard and Alison Hall","phone":"+44 1263734005","shower":"yes","tents":"no","toilets":"yes","website":"http://www.springmeadowcl.co.uk/"}},"1284830927":{"location":[52.7305731,1.3418944],"ct":"GB","tp":"CS","ts":"2024-05-20T10:26:07Z","tX":515,"tY":334,"tags":{"name":"Two Jays Farm","tents":"yes","website":"https://twojaysfarm.co.uk"}},"1318758844":{"location":[52.8611052,1.4042306],"ct":"GB","tp":"CS","ts":"2024-09-27T10:14:30Z","tX":515,"tY":334,"tags":{"description":"Camping & Caravaning Site","name":"Meadow View","phone":"+44 7780 838374"}},"1318758907":{"location":[52.8624485,1.3730456],"ct":"GB","tp":"CS","ts":"2024-09-27T10:14:30Z","tX":515,"tY":334,"tags":{"caravans":"yes","name":"Camping Caravanning Club","tents":"yes"}},"1714383863":{"location":[52.7304257,1.2762862],"ct":"GB","tp":"CR","ts":"2012-04-13T13:27:16Z","tX":515,"tY":334,"tags":{}},"1789140381":{"location":[52.8545341,1.29173],"ct":"GB","tp":"CS","ts":"2021-01-22T23:29:16Z","tX":515,"tY":334,"tags":{"name":"Deer's Glade Car. & Camp. Park","phone":"+44 1263768633","source":"ACSI"}},"2110591899":{"location":[52.7334205,1.3551703],"ct":"GB","tp":"CS","ts":"2013-01-14T12:50:09Z","tX":515,"tY":334,"tags":{"name":"Hautbois Residential & Activities Centre","source":"OS Open Data"}},"3587237222":{"location":[52.8446482,1.1787932],"ct":"GB","tp":"CR","ts":"2015-07-23T22:20:34Z","tX":515,"tY":334,"tags":{"capacity":"5","name":"Mannington Hall","phone":"+44 1263584175"}},"3663571313":{"location":[52.8521903,1.0563602],"ct":"GB","tp":"CS","ts":"2018-12-03T17:54:44Z","tX":515,"tY":334,"tags":{"name":"Pineview","phone":"+44 1263862166"}},"3663571318":{"location":[52.7523267,1.099181],"ct":"GB","tp":"CS","ts":"2015-07-23T20:34:25Z","tX":515,"tY":334,"tags":{"capacity":"5","name":"Whitwell and Reepham Railway Camping","phone":"+44 1603871694"}},"3663575098":{"location":[52.9002712,1.082901],"ct":"GB","tp":"CR","ts":"2015-07-23T19:51:12Z","tX":515,"tY":334,"tags":{"name":"Hawthorn Farm","phone":"+44 1263712859"}},"3663575100":{"location":[52.8842535,1.0803227],"ct":"GB","tp":"CR","ts":"2015-07-23T19:51:12Z","tX":515,"tY":334,"tags":{"name":"Pippin Heath","phone":"+44 1263713751"}},"3663575110":{"location":[52.8983916,1.0810641],"ct":"GB","tp":"CR","ts":"2015-07-23T19:51:13Z","tX":515,"tY":334,"tags":{"name":"Westholm","phone":"+44 1263711122"}},"3663575112":{"location":[52.902269,1.0869018],"ct":"GB","tp":"CR","ts":"2015-07-23T19:51:13Z","tX":515,"tY":334,"tags":{"name":"Whitehouse Farm","phone":"+44 1263713106"}},"3663823665":{"location":[52.8907472,1.1590434],"ct":"GB","tp":"CR","ts":"2015-07-23T22:20:26Z","tX":515,"tY":334,"tags":{"capacity":"5","name":"Chestnut Farm","phone":"+44 1263577459"}},"3663823666":{"location":[52.8994581,1.2275449],"ct":"GB","tp":"CR","ts":"2015-07-23T22:20:26Z","tX":515,"tY":334,"tags":{"capacity":"5","name":"Church Farm","phone":"+44 1263570052"}},"3663823669":{"location":[52.870306,1.1609053],"ct":"GB","tp":"CS","ts":"2015-07-23T22:20:27Z","tX":515,"tY":334,"tags":{"capacity":"5","name":"Green Farm","phone":"+44 1263577376"}},"3663823673":{"location":[52.8598527,1.1228257],"ct":"GB","tp":"CR","ts":"2015-07-23T22:20:27Z","tX":515,"tY":334,"tags":{"capacity":"5","name":"Oak Farm","phone":"+44 1263584260"}},"3663823675":{"location":[52.8330574,1.1025806],"ct":"GB","tp":"CS","ts":"2015-07-23T22:20:27Z","tX":515,"tY":334,"tags":{"capacity":"5","name":"Pee Wit Farm","phone":"+44 1263587878"}},"3663834434":{"location":[52.9026011,1.3600438],"ct":"GB","tp":"CS","ts":"2015-07-23T22:31:53Z","tX":515,"tY":334,"tags":{"name":"Pond Farm","phone":"+44 1263579326"}},"3663834435":{"location":[52.9043952,1.3396154],"ct":"GB","tp":"CS","ts":"2017-01-22T16:48:14Z","tX":515,"tY":334,"tags":{"name":"Shrublands Farm","phone":"+44 1263579297"}},"3670790650":{"location":[52.8548549,1.3693975],"ct":"GB","tp":"CR","ts":"2015-07-28T19:42:16Z","tX":515,"tY":334,"tags":{"capacity":"5","name":"Bradfield Hall Farm","phone":"+44 1263833200"}},"3670790651":{"location":[52.818529,1.2784775],"ct":"GB","tp":"CR","ts":"2015-07-28T19:42:16Z","tX":515,"tY":334,"tags":{"capacity":"5","name":"Holly Farm","phone":"+44 1263733287"}},"3670790652":{"location":[52.803054,1.3501354],"ct":"GB","tp":"CS","ts":"2023-03-28T11:25:01Z","tX":515,"tY":334,"tags":{"addr:city":"Skeyton","addr:postcode":"NR10 5AN","addr:street":"Cross Road","capacity":"5","name":"Model Farm","phone":"+44 1692405887"}},"3670790653":{"location":[52.8124355,1.3545078],"ct":"GB","tp":"CR","ts":"2015-07-28T19:42:17Z","tX":515,"tY":334,"tags":{"capacity":"5","name":"Old Bridge Farm","phone":"+44 1692407352"}},"3670790655":{"location":[52.8744603,1.3269694],"ct":"GB","tp":"CS","ts":"2015-07-28T19:42:17Z","tX":515,"tY":334,"tags":{"name":"Poppyland","phone":"+44 1263833219"}},"3670790656":{"location":[52.8865415,1.295506],"ct":"GB","tp":"CR","ts":"2018-08-15T07:44:44Z","tX":515,"tY":334,"tags":{"addr:city":"Norwich","addr:country":"GB","addr:housename":"Southerly (CL) - Roughton","addr:postcode":"NR11 8AF","addr:street":"Chapel Road","capacity":"5","name":"Southerly (CL) - Roughton","website":"https://www.outandaboutlive.co.uk/campsites/campsite-finder/norfolk/norwich/southerly-cl"}},"3670790658":{"location":[52.7995932,1.3510567],"ct":"GB","tp":"CR","ts":"2015-07-28T19:42:17Z","tX":515,"tY":334,"tags":{"capacity":"5","name":"Tanglewood","phone":"+44 1692538659"}},"3670790659":{"location":[52.8489119,1.3482185],"ct":"GB","tp":"CR","ts":"2015-07-28T19:42:17Z","tX":515,"tY":334,"tags":{"capacity":"5","name":"The Old Rectory","phone":"+44 1263833375"}},"3670790660":{"location":[52.8231353,1.365514],"ct":"GB","tp":"CR","ts":"2015-07-28T19:42:17Z","tX":515,"tY":334,"tags":{"capacity":"5","name":"The Old Stables","phone":"+44 1692406697"}},"3670790661":{"location":[52.8711922,1.3276753],"ct":"GB","tp":"CR","ts":"2015-07-28T19:42:17Z","tX":515,"tY":334,"tags":{"capacity":"5","name":"Thorpewood","phone":"+44 1263834493"}},"3670790662":{"location":[52.8826168,1.3118609],"ct":"GB","tp":"CR","ts":"2015-07-28T19:42:17Z","tX":515,"tY":334,"tags":{"capacity":"5","name":"Wood View","phone":"+44 1263833444"}},"3670850154":{"location":[52.7830028,1.3294366],"ct":"GB","tp":"CR","ts":"2015-07-28T20:08:29Z","tX":515,"tY":334,"tags":{"capacity":"5","name":"Brick Kiln","phone":"+44 1692538451"}},"3670850155":{"location":[52.73955,1.24568],"ct":"GB","tp":"CS","ts":"2015-07-28T20:08:29Z","tX":515,"tY":334,"tags":{"name":"Cobbleacre Park Lakes","phone":"+44 1603754331"}},"3670850156":{"location":[52.7504557,1.2299279],"ct":"GB","tp":"CS","ts":"2015-07-28T20:08:29Z","tX":515,"tY":334,"tags":{"name":"Hevingham Lakes","phone":"+44 1603754368"}},"3670850157":{"location":[52.7621273,1.1823726],"ct":"GB","tp":"CR","ts":"2015-07-28T20:08:29Z","tX":515,"tY":334,"tags":{"capacity":"5","name":"Martintole Farm","phone":"+44 1603871294"}},"3670850158":{"location":[52.7724796,1.2314434],"ct":"GB","tp":"CS","ts":"2015-07-28T20:08:29Z","tX":515,"tY":334,"tags":{"name":"Top Farm","phone":"+44 1263733962"}},"3670859373":{"location":[52.7434051,1.2543657],"ct":"GB","tp":"CR","ts":"2015-07-28T20:13:56Z","tX":515,"tY":334,"tags":{"name":"Pound Farm","phone":"+44 1603754639"}},"3683081502":{"location":[52.7139716,1.149509],"ct":"GB","tp":"CS","ts":"2015-08-05T21:57:14Z","tX":515,"tY":334,"tags":{"name":"The Station","phone":"+44 1603261510"}},"3683081503":{"location":[52.7215852,1.059875],"ct":"GB","tp":"CS","ts":"2015-08-05T21:57:14Z","tX":515,"tY":334,"tags":{"name":"Utopia Paradise","phone":"+44 1603870812"}},"3683086038":{"location":[52.7173526,1.3473912],"ct":"GB","tp":"CR","ts":"2015-08-05T22:07:14Z","tX":515,"tY":334,"tags":{"name":"Beverley Farm","phone":"+44 1603737279"}},"3683086039":{"location":[52.703332,1.3142784],"ct":"GB","tp":"CS","ts":"2015-08-05T22:07:14Z","tX":515,"tY":334,"tags":{"name":"New Farm","phone":"+44 1603897732"}},"6298944588":{"location":[52.8446778,1.2780429],"ct":"GB","tp":"CS","ts":"2019-02-24T12:17:01Z","tX":515,"tY":334,"tags":{"addr:street":"Cromer Road","name":"Downtide Caravans","opening_hours":"Mo-Sa 10:00-17:00"}}}