{"332067047":{"location":[52.4158289,1.3523778],"ct":"GB","tp":"CR","ts":"2018-01-23T17:07:14Z","tX":515,"tY":336,"tags":{"addr:postcode":"IP20 0EL","addr:street":"High Road","addr:village":"Wortwell","name":"Little Lakeland Caravan Park","source":"Bing","url":"http://www.littlelakeland.co.uk/"}},"534540913":{"location":[52.2930368,1.3965539],"ct":"GB","tp":"CS","ts":"2017-10-23T12:44:08Z","tX":515,"tY":336,"tags":{"addr:place":"Ubbeston","addr:postcode":"IP19 0HB","name":"The Croft Campsite","source":"Bing;OS-OpenData_StreetView","url":"http://www.thecroftcampsite.com/"}},"629262859":{"location":[52.2941035,1.2367419],"ct":"GB","tp":"CR","ts":"2023-04-23T21:47:07Z","tX":515,"tY":336,"tags":{"name":"Atherlington Hall","source":"Bing;aerial imagery","website":"https://www.hoseasons.co.uk/lodges/england/suffolk/athelington-hall-farm-lodges-athe"}},"785082379":{"location":[52.3651395,1.1483391],"ct":"GB","tp":"CR","ts":"2021-04-11T12:20:15Z","tX":515,"tY":336,"tags":{"fee":"yes","name":"The Willows Campsite","power_supply":"yes","tents":"yes","website":"http://willowscampingpark.co.uk/index.html"}},"797036526":{"location":[52.3909363,1.1083465],"ct":"GB","tp":"CR","ts":"2020-04-27T16:14:36Z","tX":515,"tY":336,"tags":{"addr:city":"Diss","addr:postcode":"IP22 4XX","addr:street":"Shelfanger Road","name":"Westbrook Green Farm","source:addr":"website","website":"https://www.caravanclub.co.uk/certificated-locations/england/norfolk/diss/westbrook-green-farm/"}},"844358751":{"location":[52.3031814,1.3595996],"ct":"GB","tp":"CS","ts":"2020-09-04T17:59:18Z","tX":515,"tY":336,"tags":{"addr:postcode":"IP13 8HF","addr:street":"Station Road","addr:village":"Laxfield","caravans":"yes","internet_access":"no","name":"Little Klabang Camping Farm","sanitary_dump_station":"no","source:addr":"website","tents":"yes","website":"https://klabangcamping.com/suffolk-campsite/"}},"984808055":{"location":[52.3839135,1.2704745],"ct":"GB","tp":"CR","ts":"2021-09-19T06:43:41Z","tX":515,"tY":336,"tags":{"fee":"yes","name":"Red Lion Campsite","power_supply":"yes","tents":"yes","website":"https://theredlionneedham.co.uk/campsite/"}},"9042589018":{"location":[52.3041162,1.0606474],"ct":"GB","tp":"CS","ts":"2021-08-28T09:37:43Z","tX":515,"tY":336,"tags":{"addr:city":"Thornham Magna","addr:postcode":"IP23 8HH","addr:street":"Gislingham Road","email":"swattesfield@gmail.com","name":"Swattesfield Campsite","reservation":"required","sanitary_dump_station":"no","tents":"yes","website":"https://www.swattesfieldcampsite.co.uk/"}}}