{"23414313":{"location":[52.0622004,1.2952841],"ct":"GB","tp":"CR","ts":"2020-10-01T14:38:46Z","tX":515,"tY":337,"tags":{"name":"Moon and Sixpence"}},"51851654":{"location":[52.0569216,1.3167279],"ct":"GB","tp":"CS","ts":"2024-07-21T19:42:49Z","tX":515,"tY":337,"tags":{"name":"Low Farm"}},"487690492":{"location":[52.1887692,1.1348486],"ct":"GB","tp":"CR","ts":"2024-04-07T14:07:15Z","tX":515,"tY":337,"tags":{}},"497414144":{"location":[52.1769693,1.3283032],"ct":"GB","tp":"CS","ts":"2017-06-01T12:54:32Z","tX":515,"tY":337,"tags":{}},"806564265":{"location":[52.1534738,1.3712337],"ct":"GB","tp":"CS","ts":"2020-05-20T21:55:54Z","tX":515,"tY":337,"tags":{"fee":"yes","name":"The Orchard Campsite"}},"840814745":{"location":[52.1589637,1.3947462],"ct":"GB","tp":"CS","ts":"2023-10-29T22:39:48Z","tX":515,"tY":337,"tags":{"addr:city":"Woodbridge","addr:housename":"Brick Kiln Farm Cottage","addr:postcode":"IP13 0QL","dog":"leashed","email":"brickkilncamp@gmail.com","name":"Brick Kiln Farm","phone":"+44 7807 181602","website":"https://www.brickkilnfarmsuffolk.co.uk/"}},"989065340":{"location":[52.0865859,1.1105267],"ct":"GB","tp":"CR","ts":"2021-10-03T12:58:25Z","tX":515,"tY":337,"tags":{}},"1091570997":{"location":[52.0968501,1.3479737],"ct":"GB","tp":"CS","ts":"2022-09-03T10:55:51Z","tX":515,"tY":337,"tags":{}},"1908961535":{"location":[52.1337171,1.3156411],"ct":"GB","tp":"CS","ts":"2012-09-10T19:49:57Z","tX":515,"tY":337,"tags":{}},"2875756576":{"location":[52.192341,1.1189641],"ct":"GB","tp":"CS","ts":"2023-10-29T22:40:10Z","tX":515,"tY":337,"tags":{"addr:city":"Stowmarket","addr:postcode":"IP14 6AD","addr:street":"Stowmarket Road","addr:village":"Stonham Aspal","name":"Broughton Hall Caravan Club CL","operator":"Private","website":"https://www.broughtonhallfarm.co.uk/"}},"8423285517":{"location":[52.0959615,1.3487976],"ct":"GB","tp":"CS","ts":"2021-02-14T18:20:11Z","tX":515,"tY":337,"tags":{"name":"Sutton Hoo Holidays Campsite"}},"9056591117":{"location":[52.0967815,1.3477808],"ct":"GB","tp":"CS","ts":"2021-09-02T15:52:34Z","tX":515,"tY":337,"tags":{"name":"Sutton Hoo Campsite"}}}