{"55342347":{"location":[51.8166298,1.1508814],"ct":"GB","tp":"CR","ts":"2023-06-02T09:59:56Z","tX":515,"tY":339,"tags":{"addr:city":"Clacton-on-Sea","addr:country":"GB","addr:postcode":"CO16 9QY","addr:street":"London Road","brand":"Parkdean Resorts","brand:wikidata":"Q7138226","contact:website":"https://www.parkdeanresorts.co.uk/location/essex/highfield-grange/","name":"Highfield Grange Holiday Park","operator":"Parkdean Resorts UK Limited","phone":"+44 1255 424244"}},"75528952":{"location":[51.8052381,1.1709935],"ct":"GB","tp":"CR","ts":"2022-07-16T16:49:46Z","tX":515,"tY":339,"tags":{"addr:city":"Clacton-on-Sea","addr:postcode":"CO15 6LY","brand":"Parkdean Resorts","brand:wikidata":"Q7138226","brand:wikipedia":"en:Parkdean Resorts","name":"Valley Farm Holiday Park","operator":"Parkdean Resorts UK Limited","website":"https://www.parkdeanresorts.co.uk/location/essex/valley-farm/"}},"1103408952":{"location":[51.8234914,1.1048841],"ct":"GB","tp":"CS","ts":"2023-06-02T13:51:20Z","tX":515,"tY":339,"tags":{"addr:city":"St Osyth","addr:housename":"The Pretty Thing","addr:postcode":"CO16 9BP","addr:street":"Heath Road","caravans":"yes","motorhome":"yes","name":"The Pretty Thing","shower":"yes","tents":"yes","toilets":"yes","website":"https://www.theprettything.co.uk"}},"1178319239":{"location":[51.8347659,1.1683362],"ct":"GB","tp":"CS","ts":"2023-06-02T14:18:33Z","tX":515,"tY":339,"tags":{"addr:city":"Little Clacton","addr:housename":"Glamping at Lodge Farm","addr:postcode":"CO16 9QD","addr:street":"Lodge Road","cabins":"yes","caravans":"no","description":"cabins are glamping tents","motorhome":"no","name":"Glamping at Lodge Farm","shower":"yes","tents":"no","toilets":"yes","website":"https://glampingatlodgefarm.com"}},"1283551403":{"location":[51.8168146,1.0946999],"ct":"GB","tp":"CS","ts":"2024-05-16T08:33:52Z","tX":515,"tY":339,"tags":{"cabins":"no","camp_site":"glamping","caravans":"no","facebook":"https://www.facebook.com/profile.php?id=61556881860326","glamping":"pods","motorhome":"no","name":"The Partridge Retreat","static_caravans":"no","tents":"no","website":"https://thepartridgeretreat.co.uk"}},"11001418311":{"location":[51.7958417,1.0662331],"ct":"GB","tp":"CS","ts":"2023-06-23T10:16:54Z","tX":515,"tY":339,"tags":{"addr:city":"St Osyth","addr:housename":"Harbour Lodge","addr:housenumber":"5","addr:postcode":"CO16 8EP","addr:street":"Point Clear Road","motorhome":"yes","name":"Harbour Lodge","shower":"no","tents":"yes","toilets":"no","website":"https://www.pitchup.com/campsites/England/South_East/Essex/st-osyth/harbour-lodge/"}}}