{"4596645":{"location":[51.3775655,1.2806923],"ct":"GB","tp":"PK","ts":"2023-11-24T15:26:36Z","tX":515,"tY":341,"tags":{"access":"yes","caravans":"yes","fee":"yes","motorhome":"yes","parking":"surface","surface":"asphalt"}},"27220884":{"location":[51.2752843,1.3313338],"ct":"GB","tp":"CR","ts":"2024-06-12T08:26:10Z","tX":515,"tY":341,"tags":{"addr:city":"Sandwich","addr:postcode":"CT13 0AA","addr:street":"Woodnesborough Road","contact:facebook":"sandwichleisurepark","contact:phone":"+44 1304 612681","contact:twitter":"SandwichLeisure","contact:website":"http://www.sandwich-leisurepark.co.uk/","name":"Sandwich Leisure Park","note":"Shape is approximate"}},"29518413":{"location":[51.2162329,1.0585027],"ct":"GB","tp":"CS","ts":"2023-02-13T13:52:56Z","tX":515,"tY":341,"tags":{"addr:postcode":"CT4 5PL","contact:phone":"+44 1227 700306","contact:website":"https://www.darwinescapes.co.uk/parks/canterbury-reach-lodge-retreat/","internet_access":"wlan","name":"Canterbury Reach Lodge Retreat","old_name":"Canterbury Fields Holiday Park","old_name_2":"Yew Tree Park","source:addr:postcode":"http://www.yewtreepark.com/","source:phone":"http://www.yewtreepark.com/"}},"89670500":{"location":[51.2766699,1.1111317],"ct":"GB","tp":"CS","ts":"2024-08-16T19:09:49Z","tX":515,"tY":341,"tags":{"addr:city":"Canterbury","addr:country":"GB","addr:county":"Kent","addr:postcode":"CT3 4AB","addr:street":"Bekesbourne Lane","caravans":"yes","drinking_water":"yes","dryer":"yes","name":"Canterbury Camping and Caravanning Club Site","phone":"+44 1227 463216","power_supply":"yes","sanitary_dump_station":"yes","shower":"yes","tents":"yes","toilets":"yes","washing_machine":"yes","website":"https://www.campingandcaravanningclub.co.uk/campsites/uk/kent/canterbury/canterbury"}},"91580257":{"location":[51.349474,1.3665208],"ct":"GB","tp":"CR","ts":"2023-11-06T23:32:30Z","tX":515,"tY":341,"tags":{"addr:postcode":"CT12 5AU","addr:street":"Manston Court Road","camping":"yes","name":"Manston Caravan & Camping Park","phone":"+44 1843 823442","source":"Bing","website":"https://www.manstoncaravanpark.co.uk/"}},"93139602":{"location":[51.366495,1.0771462],"ct":"GB","tp":"CR","ts":"2024-09-09T00:40:00Z","tX":515,"tY":341,"tags":{"addr:city":"Whitstable","addr:housename":"Seaview Holiday Park","addr:postcode":"CT5 2RY","addr:street":"St John's Road","addr:suburb":"Swalecliffe","caravans":"yes","name":"Seaview Holiday Park","tents":"yes","website":"https://www.parkholidays.com/seaview-caravan-holiday-park-whitstable"}},"113242172":{"location":[51.3388168,1.1610789],"ct":"GB","tp":"CR","ts":"2023-12-09T10:47:16Z","tX":515,"tY":341,"tags":{"addr:postcode":"CT3 4LL","name":"South View Caravan Park"}},"145618410":{"location":[51.3033181,1.2927371],"ct":"GB","tp":"CS","ts":"2024-06-14T17:03:36Z","tX":515,"tY":341,"tags":{"surface":"grass"}},"146918215":{"location":[51.3553399,1.2504096],"ct":"GB","tp":"CS","ts":"2023-12-04T11:26:40Z","tX":515,"tY":341,"tags":{"name":"St Nicholas Camping Site"}},"148598088":{"location":[51.2093053,1.187128],"ct":"GB","tp":"CR","ts":"2024-07-18T16:07:47Z","tX":515,"tY":341,"tags":{}},"161602838":{"location":[51.2188402,1.2114968],"ct":"GB","tp":"CR","ts":"2024-07-17T10:16:06Z","tX":515,"tY":341,"tags":{"name":"Snowdon Caravan Site"}},"194937914":{"location":[51.3302758,1.3028157],"ct":"GB","tp":"CS","ts":"2023-12-01T15:54:31Z","tX":515,"tY":341,"tags":{"access":"private","addr:city":"Ramsgate","addr:postcode":"CT12 4DA","addr:street":"Watchester Lane","fee":"yes","internet_access":"no","name":"Marshside Scout Camp","operator":"Thanet Scouts","phone":"+44 1843 822345","scout":"yes","source":"bing","source:addr:postcode":"code-point_open","website":"https://www.thanetscouts.org.uk/campsite/"}},"283322316":{"location":[51.2269346,1.0923281],"ct":"GB","tp":"CS","ts":"2024-12-07T10:02:55Z","tX":515,"tY":341,"tags":{"addr:city":"Canterbury","addr:place":"Pett Bottom","addr:postcode":"CT4 5PB","caravans":"yes","contact:phone":"+44 1227 830351","contact:website":"http://www.sunnysidecamping.co.uk/","name":"Sunnyside Farm","note":"The Camping and Caravanning Club - Members only"}},"301660722":{"location":[51.2144637,1.3638077],"ct":"GB","tp":"CS","ts":"2024-08-28T09:30:22Z","tX":515,"tY":341,"tags":{"name":"Solleys Farm"}},"364640662":{"location":[51.1812239,1.1352015],"ct":"GB","tp":"CS","ts":"2024-11-14T13:30:32Z","tX":515,"tY":341,"tags":{"addr:postcode":"CT4 6LP","name":"The Palm Tree","opening_hours":"Jan-Dec","phone":"+44 1227 831463","source:addr:postcode":"Sign at entrance to site.","source:phone":"Sign at entrance to site.","wikidata":"Q26534393"}},"519447539":{"location":[51.2258084,1.3218916],"ct":"GB","tp":"CS","ts":"2024-08-27T13:51:13Z","tX":515,"tY":341,"tags":{"name":"Betteshanger Scout Camp Site"}},"550730335":{"location":[51.362741,1.0646064],"ct":"GB","tp":"CR","ts":"2023-11-22T17:12:47Z","tX":515,"tY":341,"tags":{}},"609801122":{"location":[51.3634543,1.0644003],"ct":"GB","tp":"CR","ts":"2023-11-22T17:12:47Z","tX":515,"tY":341,"tags":{}},"695959877":{"location":[51.3387115,1.1126562],"ct":"GB","tp":"CS","ts":"2024-01-04T16:10:29Z","tX":515,"tY":341,"tags":{"addr:city":"Herne Bay","addr:country":"GB","addr:county":"Kent","addr:postcode":"CT6 7NP","addr:street":"Braggs Lane","caravans":"yes","email":"braggslanefarmcamping@hotmail.co.uk","name":"Braggs Lane Farm Camping and Caravan Site","phone":"+44 1227 367261","shower":"yes","tents":"yes","toilets":"yes","website":"https://www.braggslanefarmcamping.co.uk/","wheelchair":"yes"}},"738637083":{"location":[51.3523048,1.1761844],"ct":"GB","tp":"CS","ts":"2023-12-05T10:52:57Z","tX":515,"tY":341,"tags":{"access":"customers","fee":"yes","name":"Highstead Farm"}},"738650826":{"location":[51.3647153,1.0911395],"ct":"GB","tp":"CS","ts":"2023-12-14T10:58:33Z","tX":515,"tY":341,"tags":{"name":"Hampton Bay Park"}},"840907399":{"location":[51.179365,1.0636504],"ct":"GB","tp":"CS","ts":"2024-11-27T10:56:19Z","tX":515,"tY":341,"tags":{"addr:city":"Stelling Minnis","addr:housename":"Knowler Farm","addr:postcode":"CT4 6BT","name":"Knowler Farm","website":"https://www.facebook.com/pg/KnowlerFarm/"}},"895385627":{"location":[51.335088,1.3956156],"ct":"GB","tp":"CR","ts":"2024-07-18T20:26:18Z","tX":515,"tY":341,"tags":{"addr:city":"Ramsgate","addr:country":"GB","addr:postcode":"CT11 0RX","addr:street":"Nethercourt Hill","caravans":"yes","dryer":"yes","email":"nethercourtcamp@aol.com","fee":"yes","internet_access":"wlan","internet_access:fee":"no","mobile":"+44 7981 029517","name":"Nethercourt Touring Park","phone":"+44 1843 595485","power_supply":"yes","sanitary_dump_station":"yes","shower":"yes","tents":"yes","toilets":"yes","washing_machine":"yes","website":"http://www.nethercourt.com/"}},"899973368":{"location":[51.3567031,1.3112462],"ct":"GB","tp":"CR","ts":"2022-01-08T17:06:14Z","tX":515,"tY":341,"tags":{"addr:city":"Birchington","addr:country":"GB","addr:county":"Kent","addr:district":"Thanet","addr:hamlet":"Acol","addr:postcode":"CT7 0JA","addr:street":"The Street","name":"Acol Farm","source":"FHRS Open Data","source:addr:postcode":"code-point_open"}},"969853696":{"location":[51.3271542,1.3930875],"ct":"GB","tp":"CR","ts":"2024-05-28T20:24:31Z","tX":515,"tY":341,"tags":{"name":"Pegwell Bay Caravan Park"}},"1227178087":{"location":[51.3611524,1.3752834],"ct":"GB","tp":"CS","ts":"2023-11-27T15:51:52Z","tX":515,"tY":341,"tags":{}},"1228611300":{"location":[51.3520488,1.2465844],"ct":"GB","tp":"CS","ts":"2023-12-04T11:26:40Z","tX":515,"tY":341,"tags":{"name":"The Field"}},"1228622511":{"location":[51.3402031,1.2428429],"ct":"GB","tp":"CS","ts":"2023-12-04T12:31:00Z","tX":515,"tY":341,"tags":{}},"1228900248":{"location":[51.3287249,1.1942791],"ct":"GB","tp":"CS","ts":"2023-12-05T18:06:08Z","tX":515,"tY":341,"tags":{"name":"Nethergong Camping"}},"1228900251":{"location":[51.3286274,1.1973632],"ct":"GB","tp":"CS","ts":"2023-12-05T18:06:08Z","tX":515,"tY":341,"tags":{"name":"Puddledock Woods"}},"1231941385":{"location":[51.3563994,1.0897514],"ct":"GB","tp":"CS","ts":"2023-12-17T17:06:58Z","tX":515,"tY":341,"tags":{}},"1236882328":{"location":[51.3103868,1.0650457],"ct":"GB","tp":"CS","ts":"2024-06-07T06:09:52Z","tX":515,"tY":341,"tags":{"addr:postcode":"CT2 9LZ","addr:street":"Fleets Lane","name":"Fleets Paddock Glamping & Camping","phone":"+447859039564","surface":"grass"}},"1284808111":{"location":[51.2678602,1.1372354],"ct":"GB","tp":"CS","ts":"2024-05-20T08:12:34Z","tX":515,"tY":341,"tags":{}},"1291008482":{"location":[51.2287336,1.3715781],"ct":"GB","tp":"CS","ts":"2024-06-10T16:48:38Z","tX":515,"tY":341,"tags":{}},"1291008483":{"location":[51.2278766,1.3751724],"ct":"GB","tp":"CS","ts":"2024-06-10T16:48:38Z","tX":515,"tY":341,"tags":{}},"1291008513":{"location":[51.2374835,1.3614865],"ct":"GB","tp":"CS","ts":"2024-06-10T16:48:38Z","tX":515,"tY":341,"tags":{"name":"Lillyroo's"}},"1291320630":{"location":[51.2658303,1.3417069],"ct":"GB","tp":"CS","ts":"2024-06-11T13:13:08Z","tX":515,"tY":341,"tags":{}},"1292580518":{"location":[51.2805166,1.3116179],"ct":"GB","tp":"CS","ts":"2024-06-15T09:05:36Z","tX":515,"tY":341,"tags":{}},"1292580521":{"location":[51.2830374,1.31077],"ct":"GB","tp":"CS","ts":"2024-06-15T09:05:36Z","tX":515,"tY":341,"tags":{}},"1293390066":{"location":[51.3084113,1.2294199],"ct":"GB","tp":"CR","ts":"2024-06-18T10:45:29Z","tX":515,"tY":341,"tags":{}},"1293390075":{"location":[51.3062158,1.2302801],"ct":"GB","tp":"CS","ts":"2024-06-18T10:45:29Z","tX":515,"tY":341,"tags":{}},"1293390127":{"location":[51.2998671,1.2148835],"ct":"GB","tp":"CS","ts":"2024-06-21T13:01:07Z","tX":515,"tY":341,"tags":{}},"1294737106":{"location":[51.3015623,1.2162964],"ct":"GB","tp":"CS","ts":"2024-06-21T13:01:07Z","tX":515,"tY":341,"tags":{}},"1295363222":{"location":[51.2875092,1.1914271],"ct":"GB","tp":"CS","ts":"2024-06-24T15:10:53Z","tX":515,"tY":341,"tags":{}},"1298732441":{"location":[51.2662087,1.125963],"ct":"GB","tp":"CS","ts":"2024-07-03T08:39:25Z","tX":515,"tY":341,"tags":{"surface":"grass"}},"1300186545":{"location":[51.2524128,1.2969586],"ct":"GB","tp":"CS","ts":"2024-07-09T08:42:53Z","tX":515,"tY":341,"tags":{"surface":"grass"}},"1300186546":{"location":[51.2552132,1.3022333],"ct":"GB","tp":"CS","ts":"2024-07-09T08:42:53Z","tX":515,"tY":341,"tags":{"surface":"grass"}},"1301452487":{"location":[51.2430683,1.2994147],"ct":"GB","tp":"CS","ts":"2024-07-15T07:57:09Z","tX":515,"tY":341,"tags":{}},"1302878604":{"location":[51.2270641,1.2506507],"ct":"GB","tp":"CS","ts":"2024-07-21T14:55:46Z","tX":515,"tY":341,"tags":{}},"1303672871":{"location":[51.1828552,1.2326933],"ct":"GB","tp":"CS","ts":"2024-07-25T10:45:02Z","tX":515,"tY":341,"tags":{}},"1310433672":{"location":[51.2113947,1.2990902],"ct":"GB","tp":"CS","ts":"2024-08-23T10:37:46Z","tX":515,"tY":341,"tags":{}},"1311726700":{"location":[51.202774,1.3659451],"ct":"GB","tp":"CS","ts":"2024-08-28T09:30:22Z","tX":515,"tY":341,"tags":{"name":"Solley's Farm"}},"1312262970":{"location":[51.1969469,1.3441538],"ct":"GB","tp":"CS","ts":"2024-08-30T15:44:15Z","tX":515,"tY":341,"tags":{}},"1313544930":{"location":[51.1806967,1.4010022],"ct":"GB","tp":"CS","ts":"2024-09-05T17:10:17Z","tX":515,"tY":341,"tags":{}},"1334312845":{"location":[51.1872412,1.1548736],"ct":"GB","tp":"CS","ts":"2024-11-15T18:06:40Z","tX":515,"tY":341,"tags":{}},"1338622863":{"location":[51.1810402,1.1346964],"ct":"GB","tp":"CR","ts":"2024-11-28T14:01:39Z","tX":515,"tY":341,"tags":{}},"1340238174":{"location":[51.2120426,1.1368956],"ct":"GB","tp":"CS","ts":"2024-12-05T08:55:24Z","tX":515,"tY":341,"tags":{}},"1340495972":{"location":[51.2000334,1.1083846],"ct":"GB","tp":"CS","ts":"2024-12-06T08:58:26Z","tX":515,"tY":341,"tags":{}},"1340717257":{"location":[51.2267078,1.0925206],"ct":"GB","tp":"CS","ts":"2024-12-07T10:02:55Z","tX":515,"tY":341,"tags":{"surface":"grass"}},"1701693205":{"location":[51.1823025,1.3999535],"ct":"GB","tp":"CS","ts":"2024-08-13T15:11:16Z","tX":515,"tY":341,"tags":{"addr:city":"Kingsdown","addr:housename":"Kingsdown International Camping Centre","addr:postcode":"CT14 8DU","addr:street":"The Avenue","camp_site":"reception","caravans":"yes","contact:email":"customerservice@kingsdowncamping.co.uk","contact:phone":"+44 1304 373713","contact:website":"https://www.kingsdowncamping.co.uk","drinking_water":"yes","internet_access":"wlan","internet_access:fee":"no","name":"Kingsdown International Camping Centre","operator":"Kingsdown Holiday Park","power_supply":"yes","sanitary_dump_station":"yes","shower":"yes","tents":"yes","toilets":"yes"}},"2380003999":{"location":[51.2660843,1.1260194],"ct":"GB","tp":"CR","ts":"2013-07-16T06:55:05Z","tX":515,"tY":341,"tags":{"name":"Cobb's Meadow","source":"local_knowledge_2013"}},"6535092943":{"location":[51.3349588,1.1155629],"ct":"GB","tp":"CS","ts":"2019-06-09T12:38:42Z","tX":515,"tY":341,"tags":{"name":"Ross Wood Scout Campsite","scout":"yes","website":"https://www.rosswoods.org.uk/"}},"6699310793":{"location":[51.2616078,1.1002257],"ct":"GB","tp":"CR","ts":"2019-08-10T18:40:16Z","tX":515,"tY":341,"tags":{"fee":"yes","internet_access":"no","power_supply":"no","sanitary_dump_station":"yes","tents":"no"}}}