{"14219166":{"location":[49.8724076,1.1426766],"ct":"FR","tp":"CS","ts":"2023-11-04T21:35:24Z","tX":515,"tY":347,"tags":{"addr:city":"Martigny","addr:country":"FR","addr:postcode":"76880","addr:street":"RD 154","alt_name":"Camping des 2 Rivières","capacity":"116","description":"La réception est ouverte du lundi au dimanche de 8H à 12H30 et de 13H30 à 20H30 (en basse saison, de 8h à 12H et de 14h à 19H). La Basse-saison s’étend du 28 mars au 31 juin et du 01 septembre au 06 octobre, La Haute-saison du 01 juillet au 31 août","email":"martigny.76@orange.fr","fee":"yes","name":"Camping des Deux Rivières","phone":"+33 2 35 85 60 82","stars":"3","website":"https://www.camping-2-rivieres.com/"}},"16227641":{"location":[50.0352365,1.3608919],"ct":"FR","tp":"CR","ts":"2025-03-09T06:35:10Z","tX":515,"tY":347,"tags":{"bbq":"no","capacity":"30","caravan_site":"motorhome_stopover","caravan_site:type":"beach","caravans":"no","charge":"14.98 EUR","charge:conditional":"13.88 EUR @(Oct-May)","dog":"leashed","fee":"yes","internet_access":"wlan","internet_access:fee":"customers","maxlength":"9","name":"Aire Camping-Car Park","network":"CAMPING-CAR PARK","opening_hours":"24/7","operator":"Camping-car Park","power_supply":"yes","power_supply:maxcurrent":"6","sanitary_dump_station":"yes","sanitary_dump_station:chemical_toilet":"yes","sanitary_dump_station:grey_water":"yes","surface":"asphalt","tents":"no","trailer":"yes","website":"https://www.campingcarpark.com/fr_FR/sejour/aire-etape-camping-car/normandie/76-seine-maritime/flocques"}},"176952952":{"location":[50.0577335,1.3904915],"ct":"FR","tp":"CS","ts":"2025-03-26T18:38:36Z","tX":515,"tY":347,"tags":{"access":"customers","addr:housenumber":"4","addr:street":"Rue Pierre Mendès France","cabins":"yes","capacity":"172","caravans":"yes","fee":"yes","internet_access":"wlan","maxtents":"122","name":"Camping Les Boucaniers","phone":"+33 2 35 86 35 47","stars":"3","tents":"yes","website":"https://www.camping-lesboucaniers.com/"}},"181035991":{"location":[50.0255115,1.3080671],"ct":"FR","tp":"CS","ts":"2024-09-10T14:34:01Z","tX":515,"tY":347,"tags":{"addr:city":"Criel sur Mer","addr:housenumber":"29","addr:street":"Rue sur la Plage","check_date":"2024-07-25","email":"camping.criel@wanadoo.fr","name":"Camping Le Mont Joli-Bois","opening_hours":"Feb 15 - Nov 30","operator":"municipal","phone":"+33 235 508119;+33 629 696041","stars":"3","website":"https://camping-lemontjolibois.com/"}},"181035992":{"location":[50.0303332,1.3072302],"ct":"FR","tp":"CS","ts":"2024-07-25T13:12:16Z","tX":515,"tY":347,"tags":{"addr:city":"Criel-sur-Mer","addr:postcode":"76910","addr:street":"rue de la plage","check_date":"2024-07-25","email":"contact@camping-lesmouettes.fr","name":"Camping Les Mouettes","opening_hours":"Apr 01 - Nov 01","phone":"+33 235 867073","stars":"3","website":"https://camping-lesmouettes.fr/"}},"181666948":{"location":[49.9941189,1.3337825],"ct":"FR","tp":"CS","ts":"2023-10-19T19:42:17Z","tX":515,"tY":347,"tags":{"addr:housenumber":"2","addr:street":"Impasse des Acacias","name":"Les Acacias","operator":"Mairie","phone":"+33 2 35 50 66 33","stars":"1","website":"https://www.camping-acacias.fr"}},"192109667":{"location":[49.9307465,1.0868274],"ct":"FR","tp":"CR","ts":"2024-09-18T12:18:12Z","tX":515,"tY":347,"tags":{"capacity":"50","caravan_site":"motorhome_stopover","caravan_site:type":"town;harbour","charge":"6 EUR","fee":"yes","motorhome":"designated","name":"Aire Pollet à Dieppe","opening_hours":"24/7","power_supply":"yes","sanitary_dump_station":"yes","services:charge":"8.30 EUR","surface":"asphalt","water_point":"yes","website":"https://www.dieppetourisme.com/offres/aire-de-stationnement-et-de-service-du-pollet-a-dieppe-dieppe-fr-3027832/"}},"229464680":{"location":[49.9322246,1.0836423],"ct":"FR","tp":"CR","ts":"2024-10-23T17:13:55Z","tX":515,"tY":347,"tags":{"bicycle_rental":"yes","capacity":"51","capacity:disabled":"2","caravan_site":"motorhome_stopover","caravan_site:type":"beach;town","charge":"6 EUR","drinking_water":"yes","fee":"yes","maxstay":"48 hours","name":"Front de Mer - Dieppe","operator":"Indigo","power_supply":"yes","power_supply:fee":"yes","sanitary_dump_station":"yes","seasonal":"no","surface":"paved","water_point":"yes","water_point:fee":"yes","website":"https://www.seine-maritime-tourisme.com/diffusio/en/i-choose/an-accommodation/motorhomes/dieppe/aire-de-stationnement-et-de-service-du-front-de-mer_TFOHPANOR076FS00063.php","wheelchair":"yes"}},"238215482":{"location":[50.0328075,1.315967],"ct":"FR","tp":"PK","ts":"2023-05-30T06:55:02Z","tX":515,"tY":347,"tags":{"access":"no","description":"Parking (camping Cars 09-19h seulement)","motorhome":"yes","opening_hours":"Mo-Su 09:00-19:00","parking":"surface"}},"245113699":{"location":[49.9004221,1.0724805],"ct":"FR","tp":"CS","ts":"2021-05-04T20:00:40Z","tX":515,"tY":347,"tags":{"addr:city":"Saint-Aubin-sur-Scie","addr:country":"FR","addr:housenumber":"865","addr:postcode":"76550","addr:street":"Chemin des Vertus","barrier":"fence","email":"contact@camping-vitamin.com","fax":"+33 9 70 61 47 90","internet_access":"wlan","name":"Vitamin'","opening_hours":"Apr 01-Oct 15 Mo-Su 08:30-12:00,14:00-19:00","phone":"+33 2 35 82 11 11","stars":"4","website":"https://www.camping-vitamin.com"}},"245128821":{"location":[50.0576557,1.3619444],"ct":"FR","tp":"CR","ts":"2025-02-28T18:07:27Z","tX":515,"tY":347,"tags":{"addr:city":"Le Tréport","capacity":"12","caravan_site":"motorhome_stopover","caravan_site:type":"beach","caravans":"no","charge":"10 EUR","drinking_water":"yes","fee":"yes","internet_access":"no","maxstay":"48 hours","name":"Aire de Services Camping-Cars du Funiculaire Le Treport (petite aire)","opening_hours":"24/7","operator":"Ville du Treport","picnic_area":"yes","power_supply":"yes","power_supply:fee":"no","sanitary_dump_station":"yes","sanitary_dump_station:fee":"no","sanitary_dump_station:grey_water":"yes","seasonal":"no","tents":"no","water_point":"yes","water_point:fee":"no","website":"https://www.seine-maritime-tourisme.com/diffusio/en/i-choose/an-accommodation/motorhomes/le-treport/aire-de-stationnement-et-de-service-du-funiculaire-petite-aire_TFOHPANOR076V51EGK7.php","wheelchair":"yes"}},"245128822":{"location":[50.059267,1.3900851],"ct":"FR","tp":"CR","ts":"2024-10-10T15:00:14Z","tX":515,"tY":347,"tags":{"capacity":"61","caravan_site":"motorhome_stopover","caravan_site:type":"beach","charge":"12 EUR","drinking_water":"yes","fee":"yes","name":"Aire Sainte-Croix","opening_hours":"24/7","picnic_table":"yes","power_supply":"yes","power_supply:fee":"no","sanitary_dump_station":"yes","sanitary_dump_station:chemical_toilet":"yes","sanitary_dump_station:fee":"no","sanitary_dump_station:grey_water":"yes","seasonal":"no","surface":"asphalt","water_point":"yes","water_point:fee":"no","website":"https://www.seine-maritime-tourisme.com/diffusio/en/i-choose/an-accommodation/motorhomes/le-treport/aire-sainte-croix_TFOHPANOR076FS00061.php"}},"399054880":{"location":[49.8996467,1.0559209],"ct":"FR","tp":"CS","ts":"2021-05-04T20:00:40Z","tX":515,"tY":347,"tags":{"addr:city":"Hautot-sur-Mer","addr:country":"FR","addr:housenumber":"63","addr:postcode":"76550","addr:street":"Rue des Tisserands","capacity":"120","email":"info@camping-la-source.fr","name":"La Source","phone":"+33 2 35 84 27 04","sanitary_dump_station":"yes","stars":"3","website":"https://camping-la-source.fr","wheelchair":"yes"}},"442397885":{"location":[49.9611888,1.1939236],"ct":"FR","tp":"CS","ts":"2025-04-02T05:54:25Z","tX":515,"tY":347,"tags":{"addr:city":"Berneval-le-Grand","addr:housenumber":"56","addr:postcode":"76370","addr:street":"Avenue du Captain Porthéous","caravans":"yes","name":"Le Val Boisé","opening_hours":"Apr 1-Oct 31","phone":"+33 2 35 82 32 68","stars":"2","tents":"yes","website":"https://camping-levalboise.fr"}},"524196590":{"location":[50.0615028,1.4018363],"ct":"FR","tp":"CR","ts":"2024-10-10T23:34:54Z","tX":515,"tY":347,"tags":{"capacity":"40","caravan_site":"motorhome_stopover","caravan_site:type":"beach;harbour;village","caravans":"no","charge":"11 EUR","dog":"yes","fee":"yes","internet_access":"no","laundry":"yes","name":"Aire CCar Mers","opening_hours":"24/7","picnic_area":"yes","power_supply":"yes","power_supply:maxcurrent":"4","sanitary_dump_station":"yes","sanitary_dump_station:chemical_toilet":"yes","sanitary_dump_station:grey_water":"yes","seasonal":"no","tents":"no","water_point":"yes","water_point:charge":"2 EUR","water_point:fee":"yes","website":"https://sites.google.com/site/campingcarmonamour/"}},"838633498":{"location":[50.0512911,1.3758784],"ct":"FR","tp":"CS","ts":"2020-08-19T17:05:23Z","tX":515,"tY":347,"tags":{"caravans":"yes","description":"Aire naturelle de camping","name":"La Ferme des Granges","source":"data.gouv.fr:DATAtourisme - 05/2020","tents":"yes"}},"838636862":{"location":[49.9810988,1.2578428],"ct":"FR","tp":"CS","ts":"2023-10-20T17:05:48Z","tX":515,"tY":347,"tags":{"addr:housenumber":"4","addr:street":"Chemin du Clos Savoye","caravans":"yes","name":"Camping Le Clos Savoye","phone":"+33 2 35 83 61 06","stars":"3","tents":"yes","website":"https://camping-leclossavoye.fr"}},"844676565":{"location":[50.0519192,1.3656279],"ct":"FR","tp":"CS","ts":"2025-03-07T19:06:47Z","tX":515,"tY":347,"tags":{"addr:housenumber":"102","addr:street":"Route de Dieppe","capacity":"59","internet_access":"wlan","name":"Camping du Golf","phone":"+33 2 27 28 01 50","stars":"2","tents":"yes","website":"https://www.campings-treport.com/campings/golf-camping/"}},"854952941":{"location":[49.96572,1.2059627],"ct":"FR","tp":"CS","ts":"2023-10-20T17:11:57Z","tX":515,"tY":347,"tags":{"addr:housenumber":"11","addr:street":"Rue des Grèbes","caravans":"yes","name":"Camping Les Goélands","phone":"+33 2 35 83 82 90","stars":"3","tents":"yes","website":"https://www.camping-les-goelands.fr"}},"1180054382":{"location":[50.0248834,1.3084875],"ct":"FR","tp":"CR","ts":"2024-10-06T15:41:28Z","tX":515,"tY":347,"tags":{"capacity":"19","caravan_site":"motorhome_stopover","caravan_site:type":"camp_site","caravans":"no","charge":"15.90 EUR","fee":"yes","maxstay":"3 nights","name":"Aire de stationnement du Camping Le Mont Joli-Bois","power_supply":"yes","sanitary_dump_station":"yes","sanitary_dump_station:chemical_toilet":"yes","sanitary_dump_station:grey_water":"yes","shower":"yes","surface":"asphalt","tents":"no","toilets":"yes","website":"https://www.destination-letreport-mers.fr/offres/aire-de-stationnement-et-de-service-du-camping-le-mont-joli-bois-criel-sur-mer-fr-2682447/"}},"1293281811":{"location":[49.8801686,1.220782],"ct":"FR","tp":"CR","ts":"2024-06-17T21:04:54Z","tX":515,"tY":347,"tags":{"capacity":"2","caravan_site":"motorhome_stopover","caravan_site:type":"village","fee":"no","name":"Aire Camping-car Saint-Nicolas-d'Aliermont","power_supply":"yes","sanitary_dump_station":"yes","water_point":"yes","water_point:fee":"yes","website":"https://en.normandie-tourisme.fr/campers-and-caravans-service-stop-overs/aire-de-stationnement-et-de-service-de-saint-nicolas-daliermont/"}},"1316345868":{"location":[50.0581612,1.3636758],"ct":"FR","tp":"CR","ts":"2025-02-28T18:07:27Z","tX":515,"tY":347,"tags":{"addr:city":"Le Tréport","capacity":"50","caravan_site":"motorhome_stopover","caravan_site:type":"beach","caravans":"no","charge":"8 EUR","drinking_water":"yes","fee":"yes","internet_access":"no","maxstay":"48 hours","name":"Aire de Services Camping-Cars du Funiculaire Le Treport (grande aire)","opening_hours":"24/7","operator":"Ville du Treport","power_supply":"yes","sanitary_dump_station":"yes","sanitary_dump_station:grey_water":"yes","seasonal":"no","services:charge":"3 EUR","tents":"no","website":"https://www.seine-maritime-tourisme.com/diffusio/fr/je-choisis/un-hebergement/campings-cars/le-treport/aire-de-stationnement-et-de-service-du-funiculaire-grande-aire_TFOHPANOR076FS0005G.php","wheelchair":"yes"}},"6083093403":{"location":[50.0433882,1.3295009],"ct":"FR","tp":"CS","ts":"2023-10-09T20:03:50Z","tX":515,"tY":347,"tags":{"addr:housenumber":"1","addr:street":"rue de la mer","name":"Parc Val d'Albion","phone":"+33 2 35 86 21 42","website":"https://www.campings-treport.com/campings/albion-camping/"}},"4579735594":{"location":[50.0594914,1.3893815],"ct":"FR","tp":"SD","ts":"2016-12-29T15:56:20Z","tX":515,"tY":347,"tags":{"access":"customers","sanitary_dump_station:basin":"yes","sanitary_dump_station:round_drain":"yes"}},"5812171053":{"location":[50.0255091,1.3086521],"ct":"FR","tp":"SD","ts":"2024-09-18T10:48:53Z","tX":515,"tY":347,"tags":{"fee":"yes"}},"7084135617":{"location":[50.0577432,1.3622993],"ct":"FR","tp":"SD","ts":"2019-12-25T16:17:08Z","tX":515,"tY":347,"tags":{"access":"yes","fee":"no","opening_hours":"24/7","sanitary_dump_station:basin":"yes","sanitary_dump_station:round_drain":"yes"}},"10054691382":{"location":[49.9318696,1.0837936],"ct":"FR","tp":"SD","ts":"2022-09-26T21:25:21Z","tX":515,"tY":347,"tags":{"access":"customers"}},"11127285927":{"location":[50.0356409,1.3612164],"ct":"FR","tp":"SD","ts":"2023-08-19T10:35:08Z","tX":515,"tY":347,"tags":{"access":"customers","fee":"yes","operator":"Camping car Park","water_point":"yes"}},"11988951621":{"location":[49.8804128,1.2208155],"ct":"FR","tp":"SD","ts":"2024-06-17T21:01:42Z","tX":515,"tY":347,"tags":{"access":"yes","fee":"yes"}}}