{"14117645":{"location":[49.793881,1.2183307],"ct":"FR","tp":"CS","ts":"2022-05-08T10:34:15Z","tX":515,"tY":348,"tags":{"addr:city":"Les Grandes-Ventes","addr:country":"FR","addr:housenumber":"885","addr:postcode":"76950","addr:street":"Rue d'Orival","name":"Camping de l'Orival","phone":"+33 235 834 590","source":"data.gouv.fr:DATAtourisme - 05/2020","stars":"3","website":"https://www.camping-de-lorival.fr"}},"618081990":{"location":[49.7720127,1.1837786],"ct":"FR","tp":"CS","ts":"2023-01-12T23:23:23Z","tX":515,"tY":348,"tags":{"addr:city":"Muchedent","addr:country":"FR","addr:place":"Le Prieuré du Bois de la Belle","addr:postcode":"76590","caravans":"no","email":"info@revedebisons.com","name":"Rêve de Bisons","phone":"+33 2 35 04 15 04","tents":"no","website":"https://www.revedebisons.com"}},"845792787":{"location":[49.7740261,1.3593096],"ct":"FR","tp":"CS","ts":"2022-04-13T21:49:52Z","tX":515,"tY":348,"tags":{"backcountry":"yes","camp_site":"basic","capacity":"4","caravans":"no","fee":"no","name":"Bivouac","opening_hours":"sunrise-sunset","shower":"no","tents":"yes"}},"1316025302":{"location":[49.7663371,1.3808274],"ct":"FR","tp":"CR","ts":"2024-10-18T17:27:17Z","tX":515,"tY":348,"tags":{"capacity":"10","caravan_site":"motorhome_stopover","caravan_site:type":"village","fee":"no","name":"Aire de stationnement et de service de Mesnières-en-Bray","sanitary_dump_station":"yes","sanitary_dump_station:chemical_toilet":"yes","sanitary_dump_station:grey_water":"yes","seasonal":"no","surface":"gravel","water_point":"yes","website":"https://www.normandie-tourisme.fr/aires-camping-cars/aire-de-stationnement-et-de-service-de-mesnieres-en-bray/"}},"7673258509":{"location":[49.762777,1.3824358],"ct":"FR","tp":"CS","ts":"2023-01-06T06:19:38Z","tX":515,"tY":348,"tags":{"access":"customers","addr:city":"Mesnières-en-Bray","addr:country":"FR","addr:postcode":"76270","addr:street":"Château de Mesnières","charge":"3,20 €","description":"Possibilité de camping au château, se renseigner auprès du Château.","fee":"yes","name":"Château de Mesnières","phone":"+33 2 35 93 10 04","website":"https://www.chateau-mesnieres-76.com/hebergement-chateaumesnieres.html"}},"11694631665":{"location":[49.7378626,1.2978639],"ct":"FR","tp":"CS","ts":"2024-03-05T17:36:59Z","tX":515,"tY":348,"tags":{"name":"Ferme équestre de Pommeréval","source":"data.gouv.fr:DATAtourisme - 05/2020"}}}