{"97872356":{"location":[49.3081507,1.2256219],"ct":"FR","tp":"CS","ts":"2022-01-01T05:01:54Z","tX":515,"tY":350,"tags":{"addr:city":"Poses","addr:country":"FR","addr:postcode":"27740","addr:street":"Rue des Masures","email":"info@camping-ile-adeline.com","fee":"yes","mobile":"+33 7 60 15 13 84","name":"Camping l'Île Adeline","payment:cash":"yes","phone":"+33 2 32 25 45 33","stars":"2","website":"https://www.camping-ile-adeline.com"}},"117504437":{"location":[49.2287876,1.3308908],"ct":"FR","tp":"CS","ts":"2023-02-17T07:39:24Z","tX":515,"tY":350,"tags":{"addr:city":"Bernières-sur-Seine","addr:country":"FR","addr:housenumber":"13","addr:postcode":"27700","addr:street":"Route de la Mare","internet_access":"wlan","internet_access:fee":"yes","name":"Caravaning Château-Gaillard","phone":"+33 2 32 54 18 20","stars":"4","tents":"yes","website":"https://www.caravaningchateaugaillard.com"}},"279600895":{"location":[49.306183,1.1545721],"ct":"FR","tp":"CS","ts":"2023-06-11T11:09:25Z","tX":515,"tY":350,"tags":{"addr:city":"Pont-de-l'Arche","addr:country":"FR","addr:postcode":"27340","addr:street":"Quai Maréchal Foch","capacity":"57","caravans":"yes","email":"campeure@pontdelarche.fr","mobile":"+33 6 81 62 68 75","name":"Camp' Eure","operator":"municipal","phone":"+33 2 35 23 06 71","stars":"2","tents":"yes","website":"https://www.normandie-tourisme.fr/camping/campeure/"}},"310828782":{"location":[49.3230964,1.1472186],"ct":"FR","tp":"CS","ts":"2021-05-04T20:00:40Z","tX":515,"tY":350,"tags":{"addr:city":"Igoville","addr:country":"FR","addr:housenumber":"2","addr:postcode":"27460","addr:street":"Rue de Rouen","email":"lesterrasses27@gmail.com","name":"Les terrasses","phone":"+33 2 35 23 08 15","stars":"2","website":"https://www.rouentourisme.com/campings-camping-cars/camping-les-terrasses-185"}},"596327907":{"location":[49.2328063,1.3988604],"ct":"FR","tp":"CS","ts":"2023-08-24T05:50:07Z","tX":515,"tY":350,"tags":{"addr:city":"Les Andelys","addr:country":"FR","addr:housenumber":"1","addr:postcode":"27700","addr:street":"Rue Gilles Nicolle","alt_name":"Ile Trois Rois","email":"contact@camping-troisrois.com","internet_access":"wlan","internet_access:fee":"yes","name":"Camping de l'Ile des Trois Rois","operator":"Flower Campings","phone":"+33 2 32 54 23 79","stars":"3","website":"https://www.camping-troisrois.com"}},"731844284":{"location":[49.3379812,1.0919077],"ct":"FR","tp":"CR","ts":"2024-09-18T14:11:43Z","tX":515,"tY":350,"tags":{"capacity":"2","caravan_site":"motorhome_stopover","caravan_site:type":"town","fee":"no","name":"Aire de Camping-car Oissel","power_supply":"yes","sanitary_dump_station":"yes","water_point":"yes","website":"https://www.ville-oissel.fr/au-quotidien/environnement/aire-de-camping-car/"}},"782680586":{"location":[49.2150829,1.3855889],"ct":"FR","tp":"CS","ts":"2022-10-04T19:10:23Z","tX":515,"tY":350,"tags":{"addr:city":"Bouafles","addr:country":"FR","addr:postcode":"27700","addr:street":"Rue des Mousseaux","caravans":"yes","fee":"yes","name":"Camping du Château de Bouafles","phone":"+33 2 32 54 03 15","power_supply":"yes","shower":"yes","stars":"4","tents":"yes","toilets":"yes","website":"https://www.chateaudebouafles.com"}},"785593700":{"location":[49.2942776,1.2580271],"ct":"FR","tp":"CS","ts":"2021-05-04T20:00:40Z","tX":515,"tY":350,"tags":{"addr:city":"Poses","addr:housenumber":"11","addr:postcode":"27740","addr:street":"Route de Saint-Pierre","email":"camping.smb@hotmail.fr","name":"Camping Léry-Poses","phone":"+33 2 32 59 11 86","stars":"3","website":"http://www.lery-poses.fr/hebergement-restauration/camping"}},"1301459798":{"location":[49.3062738,1.1101687],"ct":"FR","tp":"CS","ts":"2024-07-15T08:31:33Z","tX":515,"tY":350,"tags":{}},"1328429509":{"location":[49.3059618,1.1563155],"ct":"FR","tp":"CR","ts":"2024-10-26T18:12:27Z","tX":515,"tY":350,"tags":{"capacity":"10","caravan_site":"motorhome_stopover","caravan_site:type":"village","charge":"8.50 EUR / 24h","fee":"yes","name":"Aire de camping cars Pont-de-l'Arche","operator":"municipal","sanitary_dump_station":"yes","sanitary_dump_station:chemical_toilet":"yes","sanitary_dump_station:grey_water":"yes","water_point":"yes","website":"https://www.normandie-tourisme.fr/aires-camping-cars/aire-de-camping-car-de-pont-de-larche/"}},"8911426362":{"location":[49.2581791,1.2084641],"ct":"FR","tp":"SD","ts":"2021-07-11T12:26:09Z","tX":515,"tY":350,"tags":{"access":"yes","fee":"no","water_point":"yes"}},"8912358217":{"location":[49.2582009,1.2084118],"ct":"FR","tp":"SD","ts":"2021-07-11T22:10:33Z","tX":515,"tY":350,"tags":{"access":"yes","fee":"no","survey:date":"2021-07-11","water_point":"yes"}},"10967713965":{"location":[49.3060307,1.1560908],"ct":"FR","tp":"SD","ts":"2024-10-26T18:12:27Z","tX":515,"tY":350,"tags":{"access":"yes","operator":"Commune","sanitary_dump_station:chemical_toilet":"yes","sanitary_dump_station:grey_water":"yes"}},"11734654412":{"location":[49.165633,1.3502824],"ct":"FR","tp":"SD","ts":"2024-08-30T06:21:23Z","tX":515,"tY":350,"tags":{"access":"yes","drinking_water":"yes","fee":"no","motorhome":"designated","name":"Aire de service de Gaillon","opening_hours":"Ouvert de début avril à fin octobre","sanitary_dump_station:basin":"yes","sanitary_dump_station:chemical_toilet":"yes","sanitary_dump_station:grey_water":"yes","sanitary_dump_station:round_drain":"yes","water_point":"yes","website":"https://en.normandie-tourisme.fr/campers-and-caravans-service-stop-overs/aire-de-service-de-gaillon/"}},"12184146755":{"location":[49.3380056,1.0919186],"ct":"FR","tp":"SD","ts":"2024-09-18T14:11:43Z","tX":515,"tY":350,"tags":{"access":"yes"}}}