{"478476519":{"location":[48.7614332,1.289395],"ct":"FR","tp":"CS","ts":"2023-03-12T21:42:41Z","tX":515,"tY":352,"tags":{"addr:city":"Vert-en-Drouais","addr:country":"FR","addr:housenumber":"3","addr:postcode":"28500","addr:street":"Place Charles de Gaulle","capacity":"65","email":"camping.etangs.de.marsalin@wanadoo.fr","internet_access":"wlan","internet_access:fee":"no","name":"Camping des Etangs de Marsalin","nudism":"no","phone":"+33 2 37 82 92 23","stars":"3","website":"http://www.campingdemarsalin.fr/camping-eure-et-loir.html"}},"947702207":{"location":[48.9066945,1.2688264],"ct":"FR","tp":"CR","ts":"2024-05-09T19:49:52Z","tX":515,"tY":352,"tags":{"bbq":"no","capacity":"10","caravan_site":"motorhome_stopover","caravan_site:type":"village","caravans":"no","charge":"13.10 EUR","dog":"leashed","fee":"yes","maxlength":"none","name":"Aire de camping-car de Saint-André-de-l’Eure","network":"CAMPING-CAR PARK","opening_hours":"24/7","operator":"CAMPING-CAR Park","power_supply":"yes","power_supply:maxcurrent":"6","sanitary_dump_station":"yes","sanitary_dump_station:chemical_toilet":"yes","sanitary_dump_station:grey_water":"yes","seasonal":"no","surface":"grass","tents":"no","toilets":"no","trailer":"yes","water_point":"yes","website":"https://www.campingcarpark.com/fr_FR/sejour/aire-etape-camping-car/normandie/27-eure/st-andre-de-l-eure#0"}},"1153899277":{"location":[48.7642285,1.2364125],"ct":"FR","tp":"CS","ts":"2023-03-12T21:51:35Z","tX":515,"tY":352,"tags":{"name":"Camping du Pré de l’Église","name:fr":"Camping du Pré de l’Église"}},"1284844269":{"location":[48.7396641,1.3323164],"ct":"FR","tp":"CR","ts":"2024-05-20T11:34:57Z","tX":515,"tY":352,"tags":{"bbq":"yes","capacity":"9","caravan_site":"motorhome_stopover","caravan_site:type":"town","caravans":"no","dog":"leashed","fee":"yes","internet_access":"wlan","maxlength":"none","name":"Aire Camping-Car Park Dreux","network":"CAMPING-CAR PARK","opening_hours":"24/7","power_supply":"yes","power_supply:capacity":"8","power_supply:maxcurrent":"6","sanitary_dump_station":"yes","sanitary_dump_station:chemical_toilet":"yes","sanitary_dump_station:grey_water":"yes","seasonal":"no","tents":"no","toilets":"no","trailer":"no","water_point":"yes","website":"https://www.campingcarpark.com/fr_FR/sejour/aire-etape-camping-car/centre-val-de-loire/28-eure-et-loir/dreux"}},"1286334484":{"location":[48.6909728,1.0694606],"ct":"FR","tp":"CR","ts":"2024-05-24T16:31:57Z","tX":515,"tY":352,"tags":{"caravan_site":"motorhome_stopover","caravan_site:type":"village","fee":"no","name":"Aire Cc Brézolles","sanitary_dump_station":"yes","water_point":"yes","website":"https://www.valdeloire-france.com/aire-camping-car/aire-de-camping-car-de-brezolles/"}},"1324453703":{"location":[48.7724344,1.1921876],"ct":"FR","tp":"CR","ts":"2024-10-16T19:07:37Z","tX":515,"tY":352,"tags":{"addr:street":"op 400 km van Tielt","capacity":"7","caravan_site":"motorhome_stopover","caravan_site:type":"village","fee":"no","name":"Aire camping-cars Nonancourt","sanitary_dump_station":"yes","surface":"asphalt","water_point":"yes"}},"12255893160":{"location":[48.7724062,1.1922868],"ct":"FR","tp":"SD","ts":"2024-10-16T19:07:37Z","tX":515,"tY":352,"tags":{}}}