{"8388428":{"location":[45.7986523,1.1387706],"ct":"FR","tp":"CS","ts":"2025-01-11T14:31:09Z","tX":515,"tY":365,"tags":{"access":"fermeture_annuelle_du_camping_du_1er_octobre_2024_au_30_avril_2025.","addr:city":"Aixe-sur-Vienne","addr:postcode":"87700","addr:street":"Rue Jean-Claude Papon","camp_site":"serviced","caravans":"yes","email":"camping@mairie-aixesurvienne.fr","fee":"yes","name":"Les Grèves","opening_hours":"May 01-Sep 30","operator":"Commune d'Aixe-sur-Vienne","phone":"+33 643179283 (de mai à septembre)","ref:FR:SIRET":"21870010200013","stars":"2","static_caravans":"yes","tents":"yes","website":"https://www.mairie-aixesurvienne.fr/decouvrir-sortir/culture-sports-et-loisirs/camping-municipal/"}},"203129686":{"location":[45.6344269,1.1599662],"ct":"FR","tp":"CS","ts":"2024-05-09T14:21:37Z","tX":515,"tY":365,"tags":{"addr:city":"Saint-Hilaire-les-Places","addr:postcode":"87800","addr:street":"Impasse du Lac Plaisance","internet_access":"wlan","name":"Camping L'air du Lac","phone":"+33 5 55 58 12 14","stars":"3","website":"https://www.campinglairdulac.com/"}},"302935362":{"location":[45.5914711,1.1123844],"ct":"FR","tp":"CS","ts":"2022-11-13T16:51:02Z","tX":515,"tY":365,"tags":{"name":"Camping de Bel-Air"}},"708136697":{"location":[45.6699617,1.1805616],"ct":"FR","tp":"CS","ts":"2020-10-22T10:30:59Z","tX":515,"tY":365,"tags":{"addr:city":"Nexon","addr:housenumber":"2","addr:postcode":"87800","addr:street":"Étang de la Lande","contact:phone":"+33 5 55 58 35 44","contact:website":"http://www.camping-nexon.fr/","name":"Camping municipal de la Lande"}},"840884580":{"location":[45.7676091,1.0789931],"ct":"FR","tp":"CR","ts":"2024-10-25T00:33:47Z","tX":515,"tY":365,"tags":{"caravan_site":"motorhome_stopover","caravan_site:type":"village","dog":"yes","fee":"no","name":"Aire de Camping-Car Sereilhac","power_supply":"yes","sanitary_dump_station":"yes","seasonal":"no","surface":"gravel","water_point":"yes","website":"https://www.visitlimousin.com/sejourner/ou-dormir/campings/aire-daccueil-camping-car-sereilhac-sereilhac-fr-4128706/"}},"1281183240":{"location":[45.6345412,1.1611222],"ct":"FR","tp":"CR","ts":"2024-08-15T12:52:35Z","tX":515,"tY":365,"tags":{"bbq":"no","capacity":"16","caravan_site":"motorhome_stopover","caravan_site:type":"lake","charge":"13.70 EUR","charge:conditional":"11.70 @ (Oct-Apr)","dog":"leashed","fee":"yes","internet_access:fee":"no","maxlength":"none","name":"Aire de Saint-Hilaire-les-Places","network":"CAMPING-CAR PARK","power_supply":"yes","power_supply:capacity":"20","power_supply:fee":"no","power_supply:maxcurrent":"6","sanitary_dump_station":"yes","tents":"no","trailer":"no","water_point":"yes","website":"https://www.campingcarpark.com/fr_FR/sejour/aire-etape-camping-car/nouvelle-aquitaine/87-haute-vienne/saint-hilaire-les-places"}},"1304844808":{"location":[45.6886716,1.3722768],"ct":"FR","tp":"CR","ts":"2024-10-07T18:27:36Z","tX":515,"tY":365,"tags":{"bbq":"no","capacity":"58","caravan_site":"motorhome_stopover","caravan_site:type":"camp_site","caravans":"yes","caravans:conditional":"no @ (Sep-Jun)","charge":"13.90 EUR","charge:conditional":"12.40 EUR @ (Oct-Apr)","dog":"leashed","fee":"yes","internet_access":"wlan","internet_access:fee":"no","maxlength":"none","name":"Camping-car Park Pierre-Buffière","network":"CAMPING-CAR PARK","opening_hours":"24/7","operator":"CAMPING-CAR PARK","power_supply":"yes","power_supply:capacity":"58","power_supply:fee":"no","power_supply:maxcurrent":"6","sanitary_dump_station":"yes","shower":"yes","shower:conditional":"no @ (Sep-Jun)","tents":"yes","tents:conditional":"no @ (Sep-Jun)","toilets":"yes","toilets:conditional":"no @ (Sep-Jun)","trailer":"yes","water_point":"yes","water_point:fee":"no"}},"1304856346":{"location":[45.6400382,1.0869145],"ct":"FR","tp":"CS","ts":"2024-07-31T14:51:01Z","tX":515,"tY":365,"tags":{"addr:city":"Brumas","addr:postcode":"87230","addr:street":"Bos redon","description":"Terrain du Club du Soleil de Limoges, partiellement boisé il a une superficie de 8 ha , dont un tiers environ permet la pratique du camping et d’activités de plein air.","name":"Espace Naturiste de Bos Redon","nudism":"yes","operator":"Club du Soleil de Limoges","phone":"+33555788202","website":"https://www.cslimoges.fr/"}},"11928063049":{"location":[45.7004267,1.0946432],"ct":"FR","tp":"CS","ts":"2024-05-23T10:33:07Z","tX":515,"tY":365,"tags":{"addr:city":"Flavignac","addr:housenumber":"15","addr:postcode":"87230","addr:street":"Rue du 19 Mars 1962","caravans":"yes","fee":"yes","name":"Camping Municipal","tents":"yes"}},"12202366637":{"location":[45.6085278,1.1423139],"ct":"FR","tp":"CS","ts":"2024-09-26T18:50:09Z","tX":515,"tY":365,"tags":{"camp_site:type":"farm","website":"http://www.lanoyeraie.fr/camping.html"}},"12301966451":{"location":[45.7988162,1.1394642],"ct":"FR","tp":"CS","ts":"2024-11-01T11:07:17Z","tX":515,"tY":365,"tags":{"addr:city":"Aixe-sur-Vienne","addr:postcode":"87700","addr:street":"Rue Jean-Claude Papon","caravans":"yes","fee":"yes","name":"Les Grèves","operator":"Commune d'Aixe-sur-Vienne","phone":"+33 643179283 (de mai às eptembre)","static_caravans":"yes","tents":"yes","website":"https://www.mairie-aixesurvienne.fr/decouvrir-sortir/culture-sports-et-loisirs/camping-municipal/"}},"12301966452":{"location":[45.7991342,1.1390189],"ct":"FR","tp":"CS","ts":"2024-10-31T16:24:26Z","tX":515,"tY":365,"tags":{}},"10299261807":{"location":[45.7570977,1.2687433],"ct":"FR","tp":"CR","ts":"2024-10-26T21:00:49Z","tX":515,"tY":365,"tags":{"capacity":"6","caravan_site":"motorhome_stopover","caravan_site:type":"river","dog":"yes","fee":"no","internet_access":"no","laundry":"yes","name":"Aire de camping-car de Solignac - Stade Raymond Breuil","operator":"La commune de Solignac","permanent_camping":"no","power_supply":"no","sanitary_dump_station":"yes","toilets":"yes","water_point":"yes","website":"https://www.visitlimousin.com/sejourner/ou-dormir/campings/aire-de-camping-car-solignac-fr-4128705/"}},"12112562126":{"location":[45.8183843,1.1013526],"ct":"FR","tp":"CR","ts":"2024-08-15T13:10:44Z","tX":515,"tY":365,"tags":{"capacity":"3","caravan_site":"motorhome_stopover","caravan_site:type":"village","dog":"yes","fee":"no","name":"Aire Marie Saint Priest sous Aixe","sanitary_dump_station":"yes","sanitary_dump_station:chemical_toilet":"yes","sanitary_dump_station:grey_water":"yes","water_point":"yes","water_point:fee":"no","website":"https://www.visitlimousin.com/sejourner/ou-dormir/campings/aire-daccueil-camping-cars-de-saint-priest-sous-aixe-saint-priest-sous-aixe-fr-4128699/"}},"10299280321":{"location":[45.7574093,1.2679608],"ct":"FR","tp":"SD","ts":"2023-01-05T13:50:07Z","tX":515,"tY":365,"tags":{"access":"yes","fee":"no","operator":"La commune de Solignac","power_supply":"no","sanitary_dump_station:chemical_toilet":"yes","sanitary_dump_station:grey_water":"yes","water_point":"yes"}},"11884905934":{"location":[45.7675342,1.0788368],"ct":"FR","tp":"SD","ts":"2024-05-06T20:28:18Z","tX":515,"tY":365,"tags":{"access":"yes"}},"12112562129":{"location":[45.8183465,1.1012734],"ct":"FR","tp":"SD","ts":"2024-08-15T13:10:44Z","tX":515,"tY":365,"tags":{"access":"yes","sanitary_dump_station:basin":"yes","sanitary_dump_station:chemical_toilet":"yes","sanitary_dump_station:grey_water":"yes"}},"12376837622":{"location":[45.7988359,1.1391191],"ct":"FR","tp":"CS","ts":"2024-11-26T18:13:48Z","tX":515,"tY":365,"tags":{"operator":"Commune d'Aixe-sur-Vienne"}}}