{"127004353":{"location":[44.8392813,1.1502659],"ct":"FR","tp":"PK","ts":"2024-08-07T14:07:32Z","tX":515,"tY":369,"tags":{"access":"yes","description":"Payant tous les jours de 8h à 19h, y compris dimanche et jours fériés min 2h30 = 3 € , 4h00 = 4€ , 6h00 = 5€, 8h00 = 6€ max 11h00 = 25€ durée limitée à 11h camping car: forfait nuit de 19h à 10h = 8€ Forfait post stationnement = 25€","fee":"yes","motorhome":"yes","name":"Parking d'Alsace","parking":"surface","payment:app":"yes","payment:coins":"yes","payment:contactless":"yes","payment:credit_cards":"yes","payment:debit_cards":"yes","payment:mastercard":"yes","payment:visa":"yes"}},"133041875":{"location":[44.749345,1.375406],"ct":"FR","tp":"CS","ts":"2022-03-13T20:19:05Z","tX":515,"tY":369,"tags":{"access":"customers","building":"yes","caravans":"yes","email":"domainequercy@orange.fr","internet_access":"wlan","name":"Domaine Le Querçy","phone":"+33 5 65 41 06 19","source":"cadastre-dgi-fr source : Direction Générale des Impôts - Cadastre. Mise à jour : 2011","stars":"4","tents":"yes","website":"https://www.domainequercy.com/"}},"176178479":{"location":[44.7911169,1.1644541],"ct":"FR","tp":"CS","ts":"2024-11-06T20:27:18Z","tX":515,"tY":369,"tags":{"caravans":"yes","contact:phone":"+33 5 53 28 34 14","drinking_water":"yes","fee":"yes","internet_access":"wlan","name":"Slow Village Périgord","opening_hours":"Mo-Su 08:30-12:00, 14:00-19:00","power_supply":"yes","shower":"yes","source":"cadastre-dgi-fr source : Direction Générale des Impôts - Cadastre. Mise à jour : 2012","stars":"3","tents":"yes","toilets":"yes","toilets:wheelchair":"yes","website":"https://www.slow-village.fr/perigord","wheelchair":"limited"}},"176178480":{"location":[44.7797335,1.1741146],"ct":"FR","tp":"CS","ts":"2023-11-11T02:24:57Z","tX":515,"tY":369,"tags":{"name":"Camping Le Céou","source":"cadastre-dgi-fr source : Direction Générale des Impôts - Cadastre. Mise à jour : 2012","stars":"3","website":"https://www.camping-le-ceou.com/"}},"176178486":{"location":[44.7795368,1.1802705],"ct":"FR","tp":"CS","ts":"2023-11-11T02:24:53Z","tX":515,"tY":369,"tags":{"email":"les-cascades@wanadoo.fr","name":"Les Cascades","source":"cadastre-dgi-fr source : Direction Générale des Impôts - Cadastre. Mise à jour : 2012","stars":"2","website":"https://www.lescascadesdordogne.com/"}},"256024186":{"location":[44.7296367,1.239082],"ct":"FR","tp":"CS","ts":"2024-01-17T15:00:53Z","tX":515,"tY":369,"tags":{"caravans":"yes","name":"Le Douzou","website":"https://www.campingledouzou.fr/"}},"298792890":{"location":[44.7979335,1.131165],"ct":"FR","tp":"CS","ts":"2019-05-23T21:12:53Z","tX":515,"tY":369,"tags":{"addr:city":"Castelnaud-la-Chapelle","addr:postcode":"24250","addr:street":"Prente Garde","name":"Lou Castel"}},"318951905":{"location":[44.8048927,1.2066827],"ct":"FR","tp":"CS","ts":"2023-04-28T15:14:12Z","tX":515,"tY":369,"tags":{"caravans":"yes","email":"mairie.cenac@orange.fr","name":"Camping municipal Cénac-et-Saint-Julien","opening_hours":"Jun 1 - Sep 30","phone":"+33 5 53 28 31 91","shower":"yes","tents":"yes","toilets":"yes","website":"https://cenac-en-perigord.fr/decouvrir/camping-municipal/"}},"333354689":{"location":[44.8367972,1.1489822],"ct":"FR","tp":"CS","ts":"2021-08-15T15:38:28Z","tX":515,"tY":369,"tags":{"drinking_water":"yes","email":"contact@campinglecapeyrou.com","fee":"yes","name":"Camping Le Capeyrou","opening_hours":"May 15 - Sep 30","phone":"+33 5 53 29 54 95","power_supply":"yes","sanitary_dump_station":"customers","shower":"yes","stars":"3","toilets":"yes","website":"https://www.campinglecapeyrou.com/"}},"333354691":{"location":[44.8249282,1.2524397],"ct":"FR","tp":"CS","ts":"2021-10-21T08:55:11Z","tX":515,"tY":369,"tags":{"name":"Domaine de Soleil Plage","phone":"+33 5 53283333","website":"https://www.soleilplage.fr/"}},"333354697":{"location":[44.8246739,1.2512914],"ct":"FR","tp":"CS","ts":"2023-11-02T07:00:35Z","tX":515,"tY":369,"tags":{"fee":"yes","lit":"yes","name":"La Bouysse","phone":"+33 5 53283305","source":"cadastre-dgi-fr source : Direction Générale des Impôts - Cadastre. Mise à jour : 2011;Bing","website":"https://www.labouysse.com/"}},"337589678":{"location":[44.8400083,1.2740249],"ct":"FR","tp":"CR","ts":"2024-05-17T23:56:16Z","tX":515,"tY":369,"tags":{"bbq":"no","capacity":"32","caravan_site":"motorhome_stopover","caravan_site:type":"village","caravans":"no","charge":"14.32 EUR","charge:conditional":"12.32 EUR@(Oct-Apr)","dog":"leashed","fee":"yes","maxlength":"9","name":"Aire CAMPING-CAR PARK de Carsac-Aillac","network":"CAMPING-CAR PARK","opening_hours":"24/7","operator":"Camping-car Park","power_supply":"yes","power_supply:maxcurrent":"6","sanitary_dump_station":"yes","seasonal":"no","tents":"no","toilets":"yes","toilets:conditional":"no@(Jan-Feb)","trailer":"no","website":"https://www.campingcarpark.com/fr_FR/sejour/aire-etape-camping-car/nouvelle-aquitaine/24-dordogne/carsac-aillac"}},"415082549":{"location":[44.6836258,1.2726682],"ct":"FR","tp":"CS","ts":"2022-09-16T11:40:01Z","tX":515,"tY":369,"tags":{"addr:city":"Salviac","addr:postcode":"46340","addr:street":"La Réquillou","fee":"yes","name":"Camping de Salviac","operator":"Evert et Eva van de Linde","website":"https://www.campingdesalviac.com"}},"427960198":{"location":[44.7504511,1.1558268],"ct":"FR","tp":"CS","ts":"2023-11-11T02:24:50Z","tX":515,"tY":369,"tags":{"name":"Le Daguet","website":"https://www.campingledaguet.fr/"}},"435064170":{"location":[44.8159698,1.0998192],"ct":"FR","tp":"CS","ts":"2023-04-28T14:43:35Z","tX":515,"tY":369,"tags":{"cabins":"yes","capacity":"70","caravans":"yes","email":"camping@lespastourels.com","mobile":"+33 6 80 13 37 64","name":"Les Pastourels","phone":"+33 5 53 29 42 17","shower":"yes","stars":"3","tents":"yes","toilets":"yes","website":"https://www.lespastourels.com/"}},"477753354":{"location":[44.8015252,1.2960098],"ct":"FR","tp":"CS","ts":"2021-11-07T10:51:44Z","tX":515,"tY":369,"tags":{"addr:city":"Groléjac","addr:postcode":"24250","addr:street":"Le Roc Percé","camp_site":"basic","name":"Camping du Lac","ref:FR:CRTA":"HPAAQU024FS0002L","source":"Réseau SIRTAQUI - Comité Régional de Tourisme d'Aquitaine - www.sirtaqui-aquitaine.com - 06/2016","website":"https://www.camping-dulac-dordogne.com/"}},"477761875":{"location":[44.8195077,1.3090648],"ct":"FR","tp":"CS","ts":"2019-05-25T18:58:22Z","tX":515,"tY":369,"tags":{"camp_site":"basic","name":"Camping La Noyeraie"}},"477932517":{"location":[44.8223841,1.2251171],"ct":"FR","tp":"CS","ts":"2019-05-25T20:08:03Z","tX":515,"tY":369,"tags":{"camp_site":"deluxe","name":"Camping Le Bosquet","ref:FR:CRTA":"HPAAQU024FS0000D","source":"Réseau SIRTAQUI - Comité Régional de Tourisme d'Aquitaine - www.sirtaqui-aquitaine.com - 06/2016","stars":"3","website":"https://www.lebosquet.com/"}},"477932519":{"location":[44.8217377,1.2496329],"ct":"FR","tp":"CS","ts":"2022-09-16T11:39:18Z","tX":515,"tY":369,"tags":{"camp_site":"serviced","name":"Camping Campéole Les Rives de la Dordogne","ref:FR:CRTA":"HPAAQU024V5071AP","source":"Réseau SIRTAQUI - Comité Régional de Tourisme d'Aquitaine - www.sirtaqui-aquitaine.com - 06/2016","stars":"2","website":"https://www.campeole.com/fr/camping/les-rives-de-la-dordogne"}},"478496437":{"location":[44.8211192,1.346002],"ct":"FR","tp":"CS","ts":"2020-10-22T11:17:38Z","tX":515,"tY":369,"tags":{"addr:city":"Sainte-Mondane","addr:postcode":"24370","addr:street":"Le Cuzou","camp_site":"standard","capacity":"10","caravans":"yes","contact:email":"jpc.lavergne@wanadoo.fr","contact:mobile":"+33 6 88 60 76 84","fee":"yes","name":"Camping à la ferme Les Charmes","operator":"Jean-Pierre Lavergne","phone":"+33 5 53 29 75 62","ref:FR:CRTA":"HPAAQU024FS0009P","source":"Réseau SIRTAQUI - Comité Régional de Tourisme d'Aquitaine - www.sirtaqui-aquitaine.com - 06/2016","tents":"yes","website":"http://lescharmes24.free.fr/"}},"478497418":{"location":[44.820049,1.3176113],"ct":"FR","tp":"CS","ts":"2017-03-04T19:52:35Z","tX":515,"tY":369,"tags":{"addr:city":"Veyrignac","addr:postcode":"24370","addr:street":"Les Chauprières","name":"Camping Les Pierres Chaudes","phone":"+33 5 53 28 12 90","ref:FR:CRTA":"HPAAQU024FS0002Q","source":"Réseau SIRTAQUI - Comité Régional de Tourisme d'Aquitaine - www.sirtaqui-aquitaine.com - 06/2016","stars":"2"}},"499261042":{"location":[44.804463,1.1585805],"ct":"FR","tp":"CS","ts":"2023-04-28T14:36:15Z","tX":515,"tY":369,"tags":{"caravans":"yes","email":"contact@campingmaisonneuve.com","name":"Camping Maisonneuve","opening_hours":"Apr - Oct","phone":"+31 5 53 29 51 29","shower":"yes","stars":"4","start_date":"1964","tents":"yes","toilets":"yes","website":"https://www.campingmaisonneuve.com"}},"528823843":{"location":[44.8243131,1.184147],"ct":"FR","tp":"CR","ts":"2024-08-16T10:10:31Z","tX":515,"tY":369,"tags":{"capacity":"20","caravan_site":"motorhome_stopover","caravan_site:type":"river","charge":"5 EUR","dog":"yes","fee":"yes","name":"Aire communale de La Roque-Gageac","power_supply":"yes","power_supply:capacity":"20","power_supply:charge":"2 EUR","power_supply:fee":"yes","sanitary_dump_station":"yes","surface":"asphalt","tents":"no","water_point":"yes","water_point:charge":"2 EUR","water_point:fee":"yes","website":"https://en.sarlat-tourisme.com/offers/aire-communale-de-la-roque-gageac-la-roque-gageac-en-1942236/"}},"603117768":{"location":[44.6447595,1.3334979],"ct":"FR","tp":"CS","ts":"2024-07-29T09:59:14Z","tX":515,"tY":369,"tags":{"addr:city":"Dégagnac","addr:housenumber":"La Goudalie","addr:postcode":"46340","caravans":"yes","email":"campinglagoudalie@gmail.com","name":"Camping Lagoudalie","phone":"+33 565416416","static_caravans":"no","tents":"yes","website":"https://www.lagoudalie.com/"}},"618812981":{"location":[44.8295106,1.267738],"ct":"FR","tp":"CS","ts":"2023-11-02T06:59:37Z","tX":515,"tY":369,"tags":{"addr:postcode":"24200","email":"rocherdelacave@orange.fr","internet_access":"wlan","name":"Le Rocher de la Cave","phone":"+33 553281426","stars":"3","website":"https://www.rocherdelacave.com/"}},"715059712":{"location":[44.7524523,1.1869338],"ct":"FR","tp":"CS","ts":"2019-08-18T13:42:22Z","tX":515,"tY":369,"tags":{"access":"customers","addr:city":"Daglan","addr:postcode":"24250","addr:street":"La Peyrugue","drinking_water":"yes","fee":"yes","internet_access":"wlan","internet_access:fee":"no","name":"Camping La Peyrugue","phone":"+33 5 53 28 40 26","reservation":"recommended","stars":"3","static_caravans":"yes","swimming_pool":"outdoor","tents":"yes","toilets:handwashing":"yes","website":"https://www.peyrugue.com/"}},"770982165":{"location":[44.8288906,1.1503174],"ct":"FR","tp":"CS","ts":"2024-08-15T15:46:08Z","tX":515,"tY":369,"tags":{"cabins":"yes","capacity:cabins":"6","capacity:pitches":"73","caravans":"yes","drinking_water":"yes","internet_access":"wlan","internet_access:fee":"no","name":"Les Magnanas","opening_hours":"May 15 - Sep 30","phone":"+33 5 53 29 51 79","power_supply":"yes","ref:FR:CRTA":"HPAAQU024FS0004T","sanitary_dump_station":"yes","shower":"yes","stars":"2","tents":"yes","toilets":"yes","website":"https://www.sarlat-camping.com/"}},"770982817":{"location":[44.8355806,1.1576843],"ct":"FR","tp":"CS","ts":"2023-04-28T13:33:22Z","tX":515,"tY":369,"tags":{"cabins":"yes","capacity:pitches":"110","caravans":"yes","email":"contact@campingles2vallees.com","landcover":"grass","name":"Les Deux Vallées","phone":"+33 6 08 40 61 58","shower":"yes","stars":"3","tents":"yes","toilets":"yes","website":"https://www.campingles2vallees.com/"}},"782134674":{"location":[44.83283,1.2673382],"ct":"FR","tp":"CS","ts":"2024-04-16T16:31:56Z","tX":515,"tY":369,"tags":{"caravans":"yes","email":"contact@camping-desbories.com","name":"Le Plein Air des Bories","phone":"+33 5 53 28 15 67","power_supply":"yes","shower":"yes","stars":"3","tents":"yes","toilets":"yes","website":"https://camping-desbories.com/"}},"782137144":{"location":[44.8154095,1.2193799],"ct":"FR","tp":"CS","ts":"2024-09-19T06:26:44Z","tX":515,"tY":369,"tags":{"cabins":"yes","capacity":"120","caravans":"yes","drinking_water":"yes","fee":"yes","name":"Camping Le Perpetuum","phone":"+33 553283518","power_supply":"yes","sanitary_dump_station":"yes","shower":"yes","stars":"4","tents":"yes","toilets":"yes","website":"https://www.campingleperpetuum.com/"}},"833347565":{"location":[44.7247733,1.1632016],"ct":"FR","tp":"CS","ts":"2020-08-02T21:50:57Z","tX":515,"tY":369,"tags":{"contact:email":"le-trel@wanadoo.fr","contact:phone":"+33 5 53 28 43 78","contact:website":"http://www.campingletrel.com/","name":"Camping le Trel","ref:FR:CRTA":"HPAAQU024FS0000G","source":"data.gouv.fr:DATAtourisme - 05/2020","stars":"2","wheelchair":"yes"}},"836904882":{"location":[44.8378581,1.1125427],"ct":"FR","tp":"CS","ts":"2024-08-29T21:42:57Z","tX":515,"tY":369,"tags":{"access":"customers","addr:city":"Saint Vincent de Cosse","addr:housenumber":"208","addr:postcode":"24220","addr:street":"Route de Combejolie","caravans":"yes","contact:email":"contact@camping-le-tiradou.com","contact:phone":"+33 5 53 30 30 73","fee":"yes","name":"Camping Dordogne Le Tiradou - Périgord","operator":"Jean-Yves et Patricia","ref:FR:CRTA":"HPAAQU024FS0005C","shower":"yes","source":"data.gouv.fr:DATAtourisme - 05/2020","stars":"3","static_caravans":"yes","tents":"yes","toilets":"yes","website":"https://camping-le-tiradou.fr/","wheelchair":"yes"}},"837346109":{"location":[44.6595691,1.3855921],"ct":"FR","tp":"CS","ts":"2023-07-29T16:26:41Z","tX":515,"tY":369,"tags":{"contact:facebook":"https://www.facebook.com/campingmoulin.desdonnes?ref=ts&fref=ts","contact:instagram":"https://www.instagram.com/campingmoulindesdonnes/","contact:tripadvisor":"https://www.tripadvisor.fr/Hotel_Review-g11951839-d9810953-Reviews-Camping_Le_Moulin_des_Donnes-Concores_Lot_Occitanie.html","email":"info@camping-moulindesdonnes.com","name":"Le Moulin des Donnes","phone":"+33 565 310 390","stars":"3","website":"https://www.camping-moulindesdonnes.com"}},"837398215":{"location":[44.7430146,1.2651853],"ct":"FR","tp":"CS","ts":"2023-09-11T09:04:41Z","tX":515,"tY":369,"tags":{"caravans":"yes","contact:email":"lecarbonnier@aol.com","contact:phone":"+33 5 53 28 42 53","contact:website":"http://www.lecarbonnier.fr","drinking_water":"yes","name":"Camping Le Carbonnier","power_supply":"yes","ref:FR:CRTA":"HPAAQU024FS0000M","shower":"yes","source":"data.gouv.fr:DATAtourisme - 05/2020","stars":"4","tents":"yes","toilets":"yes","wheelchair":"yes"}},"837399826":{"location":[44.7352673,1.2939003],"ct":"FR","tp":"CS","ts":"2024-07-18T14:54:35Z","tX":515,"tY":369,"tags":{"addr:city":"Saint-Aubin-de-Nabirat","addr:housenumber":"655","addr:postcode":"24250","addr:street":"Route des Pièces Grandes","contact:email":"campinglemarcassin@gmail.com","contact:phone":"+33 5 53 28 57 30","name":"Le Marcassin","nudism":"yes","ref:FR:CRTA":"HPAAQU024FS0007B","source":"data.gouv.fr:DATAtourisme - 05/2020","stars":"1","website":"https://www.lemarcassin.fr/","wheelchair":"yes"}},"902204699":{"location":[44.6312511,1.0767726],"ct":"FR","tp":"CR","ts":"2023-12-27T22:07:59Z","tX":515,"tY":369,"tags":{"access":"yes","addr:city":"Villefranche-du-Périgord","addr:postcode":"24550","addr:street":"Boulevard Charles Maurial","capacity":"15","caravan_site":"motorhome_stopover","caravan_site:type":"village","description":"Aire de Camping-car. Stationnement gratuit, eau et electricité payantes","fee":"no","name":"Aire de services de Villefranche-du-Perigord","operator":"Ville de Villefranche-du-Périgord","phone":"+33 5 53 29 91 44","power_supply":"yes","power_supply:charge":"2.50 EUR","power_supply:fee":"yes","sanitary_dump_station:chemical_toilet":"yes","sanitary_dump_station:grey_water":"yes","sanitary_dump_station:round_drain":"yes","water_point":"yes","water_point:charge":"2.5 EUR","water_point:fee":"yes","website":"https://www.perigordnoir-valleedordogne.com/fr/hebergements/aires-campings-cars/aire-de-services-de-villefranche-du-perigord"}},"902206522":{"location":[44.6436319,1.2192965],"ct":"FR","tp":"CR","ts":"2024-10-25T00:47:21Z","tX":515,"tY":369,"tags":{"access":"yes","addr:city":"Cazals","addr:postcode":"46250","addr:street":"D25","capacity":"6","caravan_site":"motorhome_stopover","caravan_site:type":"village;lake","fee":"no","name":"Aire de Camping-car Cazals","operator":"Ville de Cazals","power_supply":"no","sanitary_dump_station:chemical_toilet":"yes","sanitary_dump_station:grey_water":"yes","sanitary_dump_station:round_drain":"yes","seasonal":"yes","water_point":"yes"}},"902273419":{"location":[44.6830461,1.270216],"ct":"FR","tp":"CR","ts":"2023-12-24T00:08:20Z","tX":515,"tY":369,"tags":{"access":"yes","addr:city":"Salviac","addr:postcode":"46340","capacity":"8","caravan_site":"motorhome_stopover","caravan_site:type":"swimming_pool","description":"Aire de Camping-car. Services payants. jeton 2€ chez au camping voisin,, mairie, musée agricole et automobile","fee":"no","name":"Aire de Camping-car Salviac","operator":"Ville de Salviac","power_supply":"yes","sanitary_dump_station:chemical_toilet":"yes","sanitary_dump_station:grey_water":"yes","seasonal":"no","water_point":"yes"}},"965379684":{"location":[44.8038851,1.2049262],"ct":"FR","tp":"CR","ts":"2024-11-02T17:31:42Z","tX":515,"tY":369,"tags":{"capacity":"11","caravan_site":"motorhome_stopover","caravan_site:type":"river","charge":"11.50 EUR / 24 hours","internet_access":"no","name":"Aire d'Etape et de Services de la Plage","power_supply":"yes","services:charge":"3 EUR / hour","tents":"no"}},"982168198":{"location":[44.8204569,1.289448],"ct":"FR","tp":"CR","ts":"2024-08-29T21:35:03Z","tX":515,"tY":369,"tags":{"capacity":"15","caravan_site":"motorhome_stopover","caravan_site:type":"village","fee":"no","internet_access":"no","maxstay":"3 days","name":"Aire camping-cars de Groléjac","opening_hours":"24/7","power_supply":"yes","power_supply:charge":"5 EUR","power_supply:fee":"yes","sanitary_dump_station":"yes","sanitary_dump_station:charge":"2 EUR","sanitary_dump_station:fee":"yes","water_point":"yes","water_point:charge":"5 EUR","water_point:fee":"yes","wheelchair":"yes"}},"1005342840":{"location":[44.8158492,1.2923948],"ct":"FR","tp":"CS","ts":"2021-11-22T17:21:50Z","tX":515,"tY":369,"tags":{"name":"Les Granges"}},"1024049700":{"location":[44.8235278,1.1712181],"ct":"FR","tp":"CS","ts":"2023-04-28T13:59:45Z","tX":515,"tY":369,"tags":{"cabins":"yes","capacity:pitches":"80","caravans":"yes","email":"campinglaplage24@orange.fr","mobile":"+33 683364168","motorhome":"yes","name":"La Plage","opening_hours":"Mar 18- Oct 14","phone":"+33 5 53 29 50 83","shower":"yes","stars":"3","tents":"yes","toilets":"yes","website":"https://www.camping-laplage.fr/"}},"1095135234":{"location":[44.8213988,1.2454475],"ct":"FR","tp":"CS","ts":"2022-09-16T11:39:18Z","tX":515,"tY":369,"tags":{"addr:postcode":"24250","addr:street":"Route de la Plage de Caudon","email":"camping.moulin.caudon@wanadoo.fr","internet_access":"wlan","name":"Camping le Moulin de Caudon","name:en":"Camping Le Moulin de Caudon","name:fr":"Camping Le Moulin de Caudon","opening_hours":"Mo-Su 08:00-20:00","phone":"+33 5 53 31 03 69","website":"https://www.moulindecaudon.fr/"}},"1167101661":{"location":[44.8241387,1.1496628],"ct":"FR","tp":"CS","ts":"2023-04-28T13:05:22Z","tX":515,"tY":369,"tags":{"alt_name":"Camping La Cabane","cabins":"yes","capacity:cabins":"24","capacity:pitches":"98","caravans":"yes","email":"camping@les5chateaux.com","internet_access":"wlan","name":"Les Cinq Châteaux","opening_hours":"Apr 5 - Oct 1","phone":"+33 553295228","shower":"yes","tents":"yes","toilets":"yes","website":"https://www.campingles5chateaux.com/"}},"1167117254":{"location":[44.8199968,1.2146397],"ct":"FR","tp":"CS","ts":"2023-04-28T14:16:26Z","tX":515,"tY":369,"tags":{"cabins":"yes","email":"contact@camping-la-butte.com","mobile":"+33 6 80 00 78 69","motorhome":"yes","name":"Camping La Butte","opening_hours":"Apr 29 - Oct 1","phone":"+33 5 53 28 30 28","shower":"yes","stars":"3","website":"https://www.camping-la-butte.com"}},"1167126481":{"location":[44.8261116,1.2414141],"ct":"FR","tp":"CS","ts":"2023-04-28T14:56:33Z","tX":515,"tY":369,"tags":{"cabins":"yes","capacity:cabins":"61","capacity:pitches":"44","caravans":"yes","email":"info@camping-la-sagne.com","mobile":"+33 6 33 20 11 81","name":"Camping La Sagne","phone":"+33 5 53 28 18 36","shower":"yes","stars":"3","tents":"yes","toilets":"yes"}},"1167128441":{"location":[44.8158862,1.2230873],"ct":"FR","tp":"CS","ts":"2023-04-28T15:08:03Z","tX":515,"tY":369,"tags":{"cabins":"yes","caravans":"yes","internet_access":"wlan","internet_access:fee":"yes","mobile":"+33 6 07 96 77 38","motorhome":"yes","name":"La Rivière de Domme","phone":"+33 5 53 28 33 46","shower":"yes","smoking":"outside","tents":"yes","toilets":"yes","website":"https://www.camping-riviere-domme.com/"}},"1234962304":{"location":[44.8373375,1.2590296],"ct":"FR","tp":"CR","ts":"2024-10-22T20:53:23Z","tX":515,"tY":369,"tags":{"capacity":"20","caravan_site":"motorhome_stopover","caravan_site:type":"farm_shop","description":"tours and testings on the farm","fee":"no","name":"La Ferme de Turnac","phone":"+33 05 53 28 10 84","power_supply":"yes","product":"foies_gras","sanitary_dump_station":"yes","water_point":"yes","website":"https://fermedeturnac.com/visites-a-la-ferme/"}},"1234962306":{"location":[44.8005823,1.2216745],"ct":"FR","tp":"CR","ts":"2023-12-28T16:56:43Z","tX":515,"tY":369,"tags":{"capacity":"24","caravan_site":"motorhome_stopover","caravan_site:type":"village","dog":"yes","fee":"yes","name":"Aire communale de Domme","opening_hours":"24/7","operator":"24/7","power_supply":"yes","sanitary_dump_station":"yes","seasonal":"no","water_point":"yes"}},"1235239460":{"location":[44.8309097,1.1510874],"ct":"FR","tp":"CR","ts":"2024-10-08T19:35:37Z","tX":515,"tY":369,"tags":{"bbq":"no","caravan_site":"motorhome_stopover","caravan_site:type":"village","caravans":"no","charge":"14.82 EUR","charge:conditional":"13.32 @ (Oct-Apr)","dog":"leashed","fee":"yes","internet_access":"wlan","maxlength":"none","name":"Aire CAMPING-CAR PARK de Vézac, châteaux en Périgord","network":"CAMPING-CAR PARK","opening_hours":"24/7","operator":"CAMPING-CAR Park","power_supply":"yes","power_supply:maxcurrent":"6","sanitary_dump_station":"yes","seasonal":"no","tents":"no","toilets":"no","trailer":"yes","water_point":"yes","website":"https://www.campingcarpark.com/fr_FR/sejour/aire-etape-camping-car/nouvelle-aquitaine/24-dordogne/vezac-route-de-beynac-et-cazenac#0"}},"1235248493":{"location":[44.8242269,1.1699548],"ct":"FR","tp":"CR","ts":"2024-05-20T15:06:40Z","tX":515,"tY":369,"tags":{"addr:postcode":"24220","bbq":"no","capacity":"18","caravan_site":"motorhome_stopover","caravan_site:type":"village","caravans":"no","charge":"14.82 EUR","charge:conditional":"13.32 @ (Oct-Apr)","dog":"leashed","fee":"yes","internet_access":"wlan","name":"Aire Camping-Car Park de Vézac","name:es":"Área de autocaravanas de Vézac","network":"CAMPING-CAR PARK","opening_hours":"24/7","operator":"CAMPING-CAR Park","power_supply":"yes","power_supply:maxcurrent":"6","sanitary_dump_station":"yes","sanitary_dump_station:chemical_toilet":"yes","sanitary_dump_station:grey_water":"yes","tents":"no","trailer":"no","water_point":"yes","website":"https://www.campingcarpark.com/fr_FR/sejour/aire-etape-camping-car/nouvelle-aquitaine/24-dordogne/vezac#0"}},"1247311074":{"location":[44.8155546,1.1431777],"ct":"FR","tp":"CR","ts":"2024-05-11T19:29:38Z","tX":515,"tY":369,"tags":{"capacity":"8","caravan_site":"motorhome_stopover","caravan_site:type":"chateau","fee":"yes","name":"Parking Chateau de Castelnaud","opening_hours":"24/7","power_supply":"yes","sanitary_dump_station":"yes","seasonal":"no","water_point":"yes","website":"https://www.perigordnoir-valleedordogne.com/fr/hebergements/aires-campings-cars/aire-communale-de-castelnaud-la-chapelle"}},"1312105452":{"location":[44.7342948,1.3852866],"ct":"FR","tp":"CR","ts":"2024-08-29T21:23:39Z","tX":515,"tY":369,"tags":{"capacity":"8","caravan_site":"motorhome_stopover","caravan_site:type":"village","fee":"no","name":"Aire d'Accueil et de Service de Gourdon","power_supply":"yes","power_supply:charge":"2 EUR","power_supply:fee":"yes","seasonal":"no","water_point":"yes","water_point:charge":"2 EUR","water_point:fee":"yes","website":"https://www.tourisme-gourdon.com/je-prepare/ou-dormir/campings-et-aire-de-camping-cars/aire-d-accueil-et-de-service-de-gourdon-819082"}},"1432543964":{"location":[44.831202,1.1489147],"ct":"FR","tp":"CS","ts":"2011-09-14T10:55:04Z","tX":515,"tY":369,"tags":{"name":"Le Pont de Fayrac"}},"2154754401":{"location":[44.7814641,1.288889],"ct":"FR","tp":"CS","ts":"2022-02-01T21:40:59Z","tX":515,"tY":369,"tags":{"access":"yes","addr:city":"Nabirat","addr:postcode":"24250","addr:street":"L'Étang","capacity":"80","fee":"yes","internet_access":"yes","internet_access:fee":"no","name":"Camping Les Pialades","operator":"SAS EVTL","payment:cash":"yes","payment:contactless":"yes","payment:credit_cards":"yes","source":"Bing;cadastre-dgi-fr source : Direction Générale des Impôts - Cadastre. Mise à jour : 2013;local knowledge"}},"2213244498":{"location":[44.6422507,1.220712],"ct":"FR","tp":"CS","ts":"2024-01-17T14:44:32Z","tX":515,"tY":369,"tags":{"name":"Tente Simone","website":"https://www.tente-simone.com/"}},"2510222631":{"location":[44.7680816,1.1762192],"ct":"FR","tp":"CS","ts":"2014-03-27T20:56:02Z","tX":515,"tY":369,"tags":{"name":"Le Moulin De Paulhiac","website":"http://www.moulin-de-paulhiac.com"}},"3826345781":{"location":[44.704161,1.1857597],"ct":"FR","tp":"SD","ts":"2020-08-15T15:44:33Z","tX":515,"tY":369,"tags":{"ref:FR:CRTA":"ACCAMAQU0240004R"}},"4708870362":{"location":[44.7548055,1.2394587],"ct":"FR","tp":"CS","ts":"2019-03-05T00:57:02Z","tX":515,"tY":369,"tags":{"name":"Camping Le convivial","ref:FR:CRTA":"HPAAQU024FS0000T","source":"Réseau SIRTAQUI - Comité Régional de Tourisme d'Aquitaine - www.sirtaqui-aquitaine.com - 06/2016","stars":"2","website":"https://www.campingleconvivial.com/"}},"4712506229":{"location":[44.7383634,1.2759803],"ct":"FR","tp":"CS","ts":"2022-01-24T14:04:58Z","tX":515,"tY":369,"tags":{"addr:city":"Saint-Aubin-de-Nabirat","addr:postcode":"24250","addr:street":"La Vieille Église","contact:email":"info@motocamp.com","contact:phone":"+33 5 53 31 24 06","description":"Camping 13 €, Cabins, Caravans, Rent a tent, Mobil-home, La Vieille Eglise","motorcycle:theme":"yes","motorcycle_friendly":"yes","name":"Camping Moto Dordogne","phone":"+33 5 53 31 24 06","ref:FR:CRTA":"HPAAQU024FS000C1","source":"data.gouv.fr:DATAtourisme - 05/2020","stars":"2","website":"https://www.motocamp.com"}},"5764455388":{"location":[44.7222225,1.3746616],"ct":"FR","tp":"CS","ts":"2018-07-16T19:51:25Z","tX":515,"tY":369,"tags":{"name":"Le Paradis"}},"6516955660":{"location":[44.8168644,1.2147268],"ct":"FR","tp":"CS","ts":"2019-12-27T14:11:10Z","tX":515,"tY":369,"tags":{"name":"Beau Rivage","opening_hours":"Jun 13 - Sep 6","phone":"+33251204194","stars":"3","website":"https://www.olela.fr/campings/camping-beau-rivage"}},"7079783878":{"location":[44.7863271,1.2086239],"ct":"FR","tp":"CS","ts":"2023-11-11T02:24:56Z","tX":515,"tY":369,"tags":{"name":"Camping Pech de Caumont","phone":"+33553282163","stars":"3","website":"https://www.pech-de-caumont.com/fr/bienvenue/"}},"7392095285":{"location":[44.6277945,1.0824199],"ct":"FR","tp":"CS","ts":"2023-11-08T18:33:19Z","tX":515,"tY":369,"tags":{"addr:postcode":"24550","addr:street":"Route de Cahors","email":"contact@camping-la-bastide.com","internet_access":"wlan","name":"Camping La Bastide","name:es":"Camping La Bastide","phone":"+33553289457","website":"https://www.camping-la-bastide.com/"}},"7814472209":{"location":[44.6475753,1.0809475],"ct":"FR","tp":"CS","ts":"2020-08-15T06:20:34Z","tX":515,"tY":369,"tags":{"contact:email":"info@lepeyretbas.nl","contact:phone":"+33 5 53 30 52 51","contact:website":"https://www.lepeyretbas.nl","name":"Camping Le Peyret Bas","ref:FR:CRTA":"HPAAQU024V508A7W","source":"data.gouv.fr:DATAtourisme - 05/2020"}},"7904319793":{"location":[44.8083303,1.1998726],"ct":"FR","tp":"CS","ts":"2020-09-14T08:11:45Z","tX":515,"tY":369,"tags":{"name":"Camping Verte Rive"}},"9024731764":{"location":[44.7452884,1.3773059],"ct":"FR","tp":"CS","ts":"2022-03-13T20:19:05Z","tX":515,"tY":369,"tags":{"addr:housenumber":"415","addr:street":"Chemin de Montmarsis","email":"info@montmarsis.com","name":"Village de Montmarsis","phone":"+33 565411766","website":"https://www.montmarsis.com/"}},"11180897437":{"location":[44.7912978,1.1622569],"ct":"FR","tp":"CS","ts":"2023-09-10T11:26:55Z","tX":515,"tY":369,"tags":{"internet_access":"wlan","name":"Camping Slow Village","website":"https://www.slow-village.fr/perigord/"}},"12114513264":{"location":[44.8255434,1.2253632],"ct":"FR","tp":"CR","ts":"2024-08-16T11:06:26Z","tX":515,"tY":369,"tags":{"capacity":"10","caravan_site":"motorhome_stopover","caravan_site:type":"river;countryside","dog":"yes","name":"Aire de la halte nautique Vitrac","water_point":"yes","website":"https://www.sarlat-tourisme.com/offres/aire-de-la-halte-nautique-vitrac-fr-1941958/"}},"12170279257":{"location":[44.7038078,1.1862016],"ct":"FR","tp":"CR","ts":"2024-09-11T16:07:06Z","tX":515,"tY":369,"tags":{"capacity":"20","caravan_site":"motorhome_stopover","caravan_site:type":"countryside","dog_park":"yes","fee":"no","name":"Aire de camping-car de Campagnac-les-Quercy","sanitary_dump_station":"yes","sanitary_dump_station:grey_water":"yes","water_point":"yes","website":"https://www.perigordnoir-valleedordogne.com/fr/hebergements/aires-campings-cars/aire-de-camping-car-de-campagnac-les-quercy"}},"4370364584":{"location":[44.8380792,1.1483431],"ct":"FR","tp":"SD","ts":"2016-08-27T22:04:11Z","tX":515,"tY":369,"tags":{"access":"private"}},"4370364585":{"location":[44.8374401,1.1490646],"ct":"FR","tp":"SD","ts":"2016-08-27T22:04:11Z","tX":515,"tY":369,"tags":{"access":"private"}},"5138175638":{"location":[44.8243753,1.1838493],"ct":"FR","tp":"SD","ts":"2024-08-29T21:36:30Z","tX":515,"tY":369,"tags":{"access":"yes","fee":"no","sanitary_dump_station:chemical_toilet":"yes","sanitary_dump_station:fee":"no","sanitary_dump_station:gravity":"yes","sanitary_dump_station:grey_water":"yes","sanitary_dump_station:suction":"no"}},"8380130011":{"location":[44.6312559,1.0763383],"ct":"FR","tp":"SD","ts":"2021-11-20T14:40:26Z","tX":515,"tY":369,"tags":{"description":"Station de vidange pour Camping-car","fee":"no","operator":"Ville de Villefranche-du-Périgord","sanitary_dump_station:chemical_toilet":"yes","sanitary_dump_station:grey_water":"yes","sanitary_dump_station:round_drain":"yes","water_point":"yes"}},"8380162108":{"location":[44.6436124,1.2195213],"ct":"FR","tp":"SD","ts":"2023-12-24T00:08:20Z","tX":515,"tY":369,"tags":{"access":"yes","caravan_site":"motorhome_stopover","description":"Station de vidange pour Camping-car","fee":"no","operator":"Ville de Cazals","sanitary_dump_station:chemical_toilet":"yes","sanitary_dump_station:grey_water":"yes","sanitary_dump_station:round_drain":"yes","water_point":"yes"}},"8380738936":{"location":[44.683009,1.2704037],"ct":"FR","tp":"SD","ts":"2021-11-20T14:40:26Z","tX":515,"tY":369,"tags":{"description":"Station de vidange pour Camping-car","fee":"yes","operator":"Borne Euro Relais","sanitary_dump_station:chemical_toilet":"yes","sanitary_dump_station:grey_water":"yes","sanitary_dump_station:round_drain":"yes","water_point":"yes"}},"8900144154":{"location":[44.7497325,1.3736849],"ct":"FR","tp":"SD","ts":"2021-07-07T07:07:35Z","tX":515,"tY":369,"tags":{"access":"customers","description":"Aire de vidange camping-car"}},"8926988466":{"location":[44.8402568,1.2743322],"ct":"FR","tp":"SD","ts":"2021-07-16T16:10:30Z","tX":515,"tY":369,"tags":{}},"8930318746":{"location":[44.8045974,1.2058664],"ct":"FR","tp":"SD","ts":"2021-07-18T14:23:54Z","tX":515,"tY":369,"tags":{"access":"customers","charge":"3 € (Jeton)","fee":"yes","name":"Camping municipal Cénac-et-Saint-Julien","operator":"Euro-Relais"}},"8930580139":{"location":[44.8041406,1.204795],"ct":"FR","tp":"SD","ts":"2021-07-18T14:21:06Z","tX":515,"tY":369,"tags":{"name":"Aire d'Etape et de Services de la Plage","operator":"Euro-Relais"}},"9200006485":{"location":[44.8204327,1.2898092],"ct":"FR","tp":"SD","ts":"2024-08-29T21:33:28Z","tX":515,"tY":369,"tags":{"access":"yes"}},"11595269207":{"location":[44.8155599,1.1431561],"ct":"FR","tp":"SD","ts":"2024-02-07T16:27:11Z","tX":515,"tY":369,"tags":{"access":"yes"}}}