{"118353859":{"location":[44.1839205,1.1527085],"ct":"FR","tp":"CS","ts":"2011-06-19T17:41:56Z","tX":515,"tY":371,"tags":{"internet_access":"wlan","internet_access:fee":"no","smoking":"yes"}},"134242923":{"location":[44.0953456,1.0917133],"ct":"FR","tp":"CS","ts":"2021-09-22T13:53:33Z","tX":515,"tY":371,"tags":{"backcountry":"no","caravans":"yes","email":"info@camping-moissac.com","group_only":"no","internet_access":"wlan","name":"Le Moulin de Bidounet","opening_hours":"Apr 1-Sep 30","operator":"Commune de Moissac","phone":"+33563325252","stars":"3","tents":"yes","website":"https://www.camping-moissac.com/"}},"380508350":{"location":[44.1257831,1.246666],"ct":"FR","tp":"CS","ts":"2024-08-31T19:00:06Z","tX":515,"tY":371,"tags":{"addr:city":"Lafrançaise","addr:country":"FR","addr:housenumber":"20","addr:postcode":"82130","addr:street":"Rue Jean Moulin","capacity":"41","caravans":"yes","email":"theolor@orange.fr","fee":"yes","internet_access":"wlan","internet_access:fee":"no","mobile":"+33 6 16 35 00 82","name":"Camping du Lac","opening_hours":"24/7","operator":"SARL Theolor","phone":"+33 5 63 65 89 69","reservation":"required","sanitary_dump_station":"customers","source":"cadastre-dgi-fr source : Direction Générale des Impôts - Cadastre. Mise à jour : 2021; BD ORTHO® 2019","stars":"3","tents":"yes","website":"http://www.campings82.fr/"}},"407537048":{"location":[44.0985821,1.0937284],"ct":"FR","tp":"CR","ts":"2024-10-25T16:03:59Z","tX":515,"tY":371,"tags":{"addr:city":"Moissac","addr:housenumber":"281","addr:postcode":"82200","addr:street":"Chemin de la Rhode","capacity":"44","caravan_site":"motorhome_stopover","caravan_site:type":"river;town","charge":"9.50 EUR","fee":"yes","name":"Aire de camping-car des \"Berges du Tarn\"","operator":"Commune de Moissac","power_supply":"yes","sanitary_dump_station":"yes","seasonal":"no","surface":"compacted","water_point":"yes","website":"https://www.tourisme-tarnetgaronne.fr/offres/aire-de-stationnement-camping-car-les-berges-du-tarn-a-moissac-moissac-fr-2498578/"}},"490946139":{"location":[44.1878393,1.3665247],"ct":"FR","tp":"CS","ts":"2017-05-02T16:00:52Z","tX":515,"tY":371,"tags":{"name":"La Base de Loisirs et Camping du Malivert"}},"772869599":{"location":[44.190767,1.2992201],"ct":"FR","tp":"CS","ts":"2020-02-16T10:20:47Z","tX":515,"tY":371,"tags":{"addr:city":"Vazerac","addr:country":"FR","addr:place":"Latapie","addr:postcode":"82220","email":"info@campinglatapie.com","internet_access":"yes","internet_access:fee":"no","name":"Camping Latapie","opening_hours":"Jun-Sep: Mo-Su 09:30-18:00","phone":"+33 5 63 67 70 92","reservation":"recommended","source":"local knowledge; BD ORTHO® 2016","stars":"3","swimming_pool":"yes","tents":"yes","washing_machine":"yes","website":"https://www.campinglatapie.com/"}},"1232234994":{"location":[44.2738338,1.3516455],"ct":"FR","tp":"CR","ts":"2024-05-17T22:57:52Z","tX":515,"tY":371,"tags":{"capacity":"26","caravan_site":"motorhome_stopover","caravan_site:type":"town","caravans:conditional":"no@(Sep-Jun)","charge":"14:58 EUR","charge:conditional":"12.78 EUR @ (Oct-Apr)","dog":"yes","fee":"yes","internet_access":"wlan","internet_access:fee":"no","name":"Camping de Castelnau-Montratier","network":"CAMPING-CAR PARK","opening_hours":"24/7","operator":"CAMPING-CAR PARK","power_supply":"yes","sanitary_dump_station":"yes","shower":"yes","shower:conditional":"no@(Sep-Jun)","tents":"yes","toilets":"yes","toilets:conditional":"no@(Sep-Jun)","water_point":"yes","website":"https://www.campingcarpark.com/en_GB/stay/camping/occitanie/46-lot/castelnau-montratier"}},"1312063066":{"location":[44.2671617,1.1407435],"ct":"FR","tp":"CR","ts":"2024-08-29T16:19:39Z","tX":515,"tY":371,"tags":{"bbq":"yes","caravan_site":"motorhome_stopover","caravan_site:type":"village","caravans":"no","fee":"no","name":"Aire de Camping Car - Vignals Lauzerte","picnic_area":"yes","sanitary_dump_station":"yes","sanitary_dump_station:chemical_toilet":"yes","sanitary_dump_station:grey_water":"yes","tents":"no","toilets":"yes","water_point":"yes","website":"https://www.tourisme-tarnetgaronne.fr/offres/aire-de-camping-car-vignals-lauzerte-lauzerte-fr-2497806/"}},"1318544846":{"location":[44.1898556,1.2861702],"ct":"FR","tp":"CR","ts":"2024-10-08T19:37:52Z","tX":515,"tY":371,"tags":{"caravan_site":"motorhome_stopover","caravan_site:type":"village","caravans":"no","fee":"no","name":"Aire de stationnement pour camping-cars à Vazerac","opening_hours":"24/7","seasonal":"no","tents":"no","toilets":"yes","water_point":"yes","website":"https://www.tourisme-tarnetgaronne.fr/offres/aire-de-stationnement-pour-camping-cars-a-vazerac-vazerac-fr-2497977/"}},"3657046284":{"location":[44.0963112,1.0885651],"ct":"FR","tp":"SD","ts":"2020-08-25T09:46:04Z","tX":515,"tY":371,"tags":{"access":"yes","source":"cadastre-dgi-fr source : Direction Générale des Impôts - Cadastre. Mise à jour : 2015"}},"4307480089":{"location":[44.1845393,1.3885192],"ct":"FR","tp":"CS","ts":"2016-07-17T15:29:59Z","tX":515,"tY":371,"tags":{"name":"Camping Domaine De Merlanes"}},"4358035689":{"location":[44.318463,1.1945894],"ct":"FR","tp":"CS","ts":"2016-08-19T21:23:35Z","tX":515,"tY":371,"tags":{"name":"tursac"}},"12106094407":{"location":[44.101603,1.3210121],"ct":"FR","tp":"CR","ts":"2024-08-12T12:33:55Z","tX":515,"tY":371,"tags":{"caravan_site":"motorhome_stopover","caravan_site:type":"village","fee":"no","name":"Aire de camping-car Piquecos","opening_hours":"24/7","power_supply":"no","tents":"no","water_point":"yes","water_point:fee":"no","website":"https://www.tourisme-tarnetgaronne.fr/en/offers/aire-de-stationnement-pour-camping-cars-a-piquecos-piquecos-en-4615008/"}},"12144590846":{"location":[44.2269686,1.2027548],"ct":"FR","tp":"CR","ts":"2024-08-29T16:30:16Z","tX":515,"tY":371,"tags":{"caravan_site":"motorhome_stopover","caravan_site:type":"museum","fee":"no","name":"Aire privée de camping-car à Cazes Mondenard","seasonal":"no"}},"12106094408":{"location":[44.1014951,1.3206862],"ct":"FR","tp":"SD","ts":"2024-08-12T12:33:55Z","tX":515,"tY":371,"tags":{"access":"yes","fee":"no"}}}