{"427451677":{"location":[44.0075038,1.341412],"ct":"FR","tp":"CR","ts":"2024-09-26T22:30:01Z","tX":515,"tY":372,"tags":{"capacity":"10","caravan_site":"motorhome_stopover","caravan_site:type":"harbour;river","charge":"9 EUR","fee":"yes","laundry":"yes","name":"Aire de camping car Montauban - Port Canal","opening_hours":"24/7","power_supply":"yes","restaurant":"yes","sanitary_dump_station":"yes","seasonal":"no","shower":"yes","shower:charge":"2.50 EUR","shower:fee":"yes","website":"https://www.montauban-tourisme.com/offres/aire-de-camping-car-montauban-port-canal-montauban-fr-3151904/"}},"685193715":{"location":[43.8402181,1.2997817],"ct":"FR","tp":"CS","ts":"2025-04-23T19:01:56Z","tX":515,"tY":372,"tags":{"addr:city":"Grisolles","addr:housenumber":"470","addr:postcode":"82170","addr:street":"Chemin de Campemengard","caravans":"yes","contact:phone":"+33 5 63 67 33 22","drinking_water":"yes","name":"Aquitaine Camping","power_supply":"yes","shower":"yes","tents":"yes","toilets":"yes","website":"https://camping-aquitaine82.com/"}},"806889451":{"location":[44.0424106,1.110693],"ct":"FR","tp":"CR","ts":"2024-10-25T00:19:30Z","tX":515,"tY":372,"tags":{"addr:city":"Castelsarrasin","addr:postcode":"82100","addr:street":"Chemin des Deux Ponts","capacity":"24","caravan_site":"motorhome_stopover","caravan_site:type":"canal","charge":"10 EUR","fee":"yes","maxstay":"172 hours","name":"Aire de camping-car Castelsarrasin","opening_hours":"24/7","power_supply":"yes","power_supply:fee":"no","sanitary_dump_station":"yes","seasonal":"no","water_point":"yes","water_point:fee":"no","website":"https://www.ville-castelsarrasin.fr/tourisme-et-patrimoine/laire-de-camping-car"}},"1127615357":{"location":[43.9651995,1.2404939],"ct":"FR","tp":"CS","ts":"2023-10-31T13:17:18Z","tX":515,"tY":372,"tags":{"addr:housenumber":"520","addr:street":"Avenue de Montauban","caravans":"yes","contact:email":"contact@camping-montech.fr","contact:phone":"+335 63 31 14 29","name":"Camping municipal de Montech","note":"Accueil Vélo","stars":"3","tents":"yes","website":"https://www.camping-montech.fr/"}},"1232240765":{"location":[43.9655485,1.2399971],"ct":"FR","tp":"CR","ts":"2024-05-17T23:52:06Z","tX":515,"tY":372,"tags":{"bbq":"no","capacity":"18","caravan_site":"motorhome_stopover","caravan_site:type":"parking_lot","caravans":"no","charge":"14.03 EUR","dog":"yes","fee":"yes","internet_access":"wlan","internet_access:fee":"no","maxlength":"none","name":"CAMPING-CAR PARK area of Montech","network":"CAMPING-CAR PARK","opening_hours":"24/7","operator":"CAMPING-CAR PARK","power_supply":"yes","power_supply:capacity":"20","power_supply:maxcurrent":"6","sanitary_dump_station":"yes","surface":"asphalt","tents":"no","trailer":"no","website":"https://www.campingcarpark.com/fr_FR/sejour/aire-etape-camping-car/occitanie/82-tarn-et-garonne/montech"}},"1233057357":{"location":[43.9453615,1.1707262],"ct":"FR","tp":"CR","ts":"2023-12-21T19:29:20Z","tX":515,"tY":372,"tags":{"access":"yes","addr:city":"Bourret","addr:postcode":"82700","addr:street":"Allée de Garonne","capacity:caravans":"11","caravan_site":"motorhome_stopover","caravan_site:type":"river","caravans":"yes","charge":"8 EUR","dog":"yes","drinking_water":"yes","fee":"yes","name":"Aire de camping-car de Bourret","openfire":"no","opening_hours":"24/7","operator":"Commune de Bourret","payment:credit_cards":"yes","power_supply":"yes","sanitary_dump_station":"yes","shower":"no","start_date":"2019-04-01","tents":"no","toilets":"yes","water_point":"yes","wheelchair":"yes"}},"1312041927":{"location":[43.9639563,1.3985654],"ct":"FR","tp":"CR","ts":"2024-09-26T22:26:06Z","tX":515,"tY":372,"tags":{"capacity":"4","caravan_site":"motorhome_stopover","caravan_site:type":"farm_shop","caravans":"no","description":"fee with farm shop purchase","facebook":"https://www.facebook.com/lapaillote82","fee":"yes","fee:conditional":"no@customers","name":"La Paillote Aire de Camping car","network":"France Passion","produce":"fruit","tents":"no","website":"https://www.montauban-tourisme.com/offres/la-paillote-montauban-fr-5011758/"}},"1318529841":{"location":[43.966881,1.3422778],"ct":"FR","tp":"CR","ts":"2024-09-26T22:45:19Z","tX":515,"tY":372,"tags":{"caravan_site":"motorhome_stopover","caravan_site:type":"river","caravans":"no","fee":"no","name":"Aire de camping-car Bressols","opening_hours":"24/7","sanitary_dump_station":"yes","sanitary_dump_station:fee":"no","sanitary_dump_station:grey_water":"no","seasonal":"no","tents":"no","water_point":"yes","water_point:fee":"no","website":"https://www.montauban-tourisme.com/offres/aire-de-camping-car-bressols-bressols-fr-3151901/"}},"2918516152":{"location":[43.8956137,1.3009493],"ct":"FR","tp":"CS","ts":"2017-10-21T01:11:01Z","tX":515,"tY":372,"tags":{"addr:city":"Campsas","addr:housenumber":"451","addr:postcode":"82370","addr:street":"Chemin de la Tisarne","name":"La Tisarne","phone":"+33 5 63 64 02 75"}},"4103900159":{"location":[44.0739099,1.3683517],"ct":"FR","tp":"CS","ts":"2020-10-24T21:36:02Z","tX":515,"tY":372,"tags":{"name":"Camping municipal"}},"12202637386":{"location":[43.966937,1.3420755],"ct":"FR","tp":"SD","ts":"2024-09-26T22:45:19Z","tX":515,"tY":372,"tags":{"access":"yes","fee":"no","sanitary_dump_station:fee":"no","sanitary_dump_station:grey_water":"no"}},"12670724001":{"location":[43.8402241,1.2994521],"ct":"FR","tp":"CS","ts":"2025-05-28T19:13:26Z","tX":515,"tY":372,"tags":{"addr:housenumber":"470","addr:postcode":"82170","addr:street":"Chemin de Campemengard","name":"Les Terrasses Occitanes","phone":"05 63 67 33 22;07 64 54 71 58","website":"https://www.camping-les-terrasses-occitanes.fr/"}}}