{"7058990":{"location":[42.5829072,1.0766564],"ct":"ES","tp":"CS","ts":"2023-10-26T22:49:28Z","tX":515,"tY":377,"tags":{"name":"Càmping Voraparc","name:ca":"Càmping Voraparc","website":"https://www.voraparc.com/"}},"7059025":{"location":[42.5793317,1.0846766],"ct":"ES","tp":"CS","ts":"2023-10-26T23:05:16Z","tX":515,"tY":377,"tags":{"name":"Càmping Solau","name:ca":"Càmping Solau","website":"https://www.camping-solau.com/"}},"7212752":{"location":[42.5914502,1.1319841],"ct":"ES","tp":"CS","ts":"2022-11-26T05:02:51Z","tX":515,"tY":377,"tags":{"name":"Càmping Vall d'Àneu","name:ca":"Càmping Vall d'Àneu"}},"7212753":{"location":[42.5927743,1.1305611],"ct":"ES","tp":"CS","ts":"2019-03-20T05:25:39Z","tX":515,"tY":377,"tags":{"name":"Càmping Nou Camping","phone":"+34 973626266","website":"https://www.noucamping.com/"}},"7212828":{"location":[42.6154503,1.1234114],"ct":"ES","tp":"CS","ts":"2022-09-20T06:14:05Z","tX":515,"tY":377,"tags":{"addr:city":"Esterri d'Àneu","addr:postcode":"25580","addr:street":"Carretera C-13 Km. 159","name":"Aigüestortes Càmping Resort","website":"https://www.aiguestortescampingresort.com"}},"14158935":{"location":[42.591386,1.3267524],"ct":"ES","tp":"CS","ts":"2022-11-26T01:03:26Z","tX":515,"tY":377,"tags":{"name":"Càmping Pica d'Estats","name:ca":"Càmping Pica d'Estats","website":"http://www.picadestats.com"}},"14336876":{"location":[42.6700624,1.2358434],"ct":"ES","tp":"CS","ts":"2022-11-26T05:29:06Z","tX":515,"tY":377,"tags":{"name":"Càmping Bordes de Graus","name:ca":"Càmping Bordes de Graus","website":"https://www.bordesdegraus.com/"}},"202803243":{"location":[42.7975738,1.2629333],"ct":"FR","tp":"CS","ts":"2023-11-08T08:37:04Z","tX":515,"tY":377,"tags":{"email":"ustoucampingmunicipal@gmail.com","name":"Camping municipal","phone":"+33 688859447","source":"Bing","stars":"2","website":"https://ustou-camping-municipal.com/"}},"227529751":{"location":[42.7942135,1.3314518],"ct":"FR","tp":"CS","ts":"2024-07-15T17:52:18Z","tX":515,"tY":377,"tags":{"caravans":"yes","drinking_water":"yes","fee":"yes","name":"Camping Aulus le Coluedous","power_supply":"yes","sanitary_dump_station":"yes","shower":"yes","tents":"yes","toilets":"yes","website":"http://www.camping-aulus-couledous.com/"}},"303638044":{"location":[42.5687942,1.2287568],"ct":"ES","tp":"CS","ts":"2017-11-27T16:48:09Z","tX":515,"tY":377,"tags":{"fixme":"position","name":"La Borda del Pubill","source":"extrapolation"}},"333385401":{"location":[42.5690642,1.1082613],"ct":"ES","tp":"CS","ts":"2024-08-10T18:39:44Z","tX":515,"tY":377,"tags":{"fee":"yes","name":"Càmping La Mola","name:ca":"Càmping La Mola","tents":"yes","website":"https://www.campinglamola.com/"}},"333385986":{"location":[42.572495,1.096047],"ct":"ES","tp":"CS","ts":"2022-11-26T04:12:33Z","tX":515,"tY":377,"tags":{"name":"Càmping Sol i Neu","name:ca":"Càmping Sol i Neu","website":"https://www.solineu.com/"}},"333386341":{"location":[42.5741281,1.0855111],"ct":"ES","tp":"CS","ts":"2023-04-01T12:41:07Z","tX":515,"tY":377,"tags":{"name":"Càmping La Torre","name:ca":"Càmping La Torre","website":"https://campinglatorre.com"}},"361038462":{"location":[42.789123,1.3359224],"ct":"FR","tp":"CR","ts":"2024-05-07T15:44:35Z","tX":515,"tY":377,"tags":{"caravan_site":"motorhome_stopover","caravan_site:type":"river","caravans":"yes","description":"Parking for RV or campingcar","fee":"no","maxstay":"72 hours","name":"Commune d'Aulus Aire POUR camping-cars","opening_hours":"24/7","operator":"Ville de Aulus les bains","sanitary_dump_station":"no","seasonal":"no","supervised":"no"}},"372566175":{"location":[42.6129851,1.2469462],"ct":"ES","tp":"CS","ts":"2023-10-26T22:57:11Z","tX":515,"tY":377,"tags":{"name":"Càmping Serra","name:ca":"Càmping Serra","website":"https://www.campingserra.com/"}},"372566176":{"location":[42.5589238,1.2292439],"ct":"ES","tp":"CS","ts":"2023-10-26T22:56:27Z","tX":515,"tY":377,"tags":{"name":"Càmping Del Cardós","name:ca":"Càmping Del Cardós","website":"https://www.campingdelcardos.com/"}},"372566221":{"location":[42.5891852,1.2381002],"ct":"ES","tp":"CS","ts":"2019-03-16T22:53:55Z","tX":515,"tY":377,"tags":{"name":"les Contioles","website":"https://www.campinglescontioles.com/"}},"702188812":{"location":[42.6745658,1.3991721],"ct":"FR","tp":"CS","ts":"2019-09-25T10:53:53Z","tX":515,"tY":377,"tags":{"backcountry":"yes","ele":"2835","internet_access":"no","name":"Bivouac 1 petite tente sur rochers","operator":"Bivouac libre","tents":"yes","wheelchair":"no"}},"5564829126":{"location":[42.7902222,1.1779618],"ct":"FR","tp":"CS","ts":"2023-05-07T08:41:28Z","tX":515,"tY":377,"tags":{"caravans":"yes","drinking_water":"yes","email":"fermelesbouries@wanadoo.fr","name":"Les Bouriès","opening_hours":"Jun 15-Sep 15","phone":"+33 5 61 04 85 84","power_supply":"yes","shower":"yes","tents":"yes","toilets":"yes","website":"https://www.ariege.com/campings/les-bouries"}},"6859024185":{"location":[42.6799334,1.393961],"ct":"FR","tp":"CS","ts":"2020-09-09T11:50:57Z","tX":515,"tY":377,"tags":{"backcountry":"yes","camp_site":"basic","name":"Bivouac"}},"7947484228":{"location":[42.6911342,1.396924],"ct":"FR","tp":"CS","ts":"2020-09-27T10:23:44Z","tX":515,"tY":377,"tags":{"camp_site":"basic","name":"Aire de bivouac du Refuge du Pinet"}},"11545751761":{"location":[42.7964491,1.0734315],"ct":"FR","tp":"CS","ts":"2024-04-23T07:43:07Z","tX":515,"tY":377,"tags":{"backcountry":"yes","name":"Aire de bivouac des Estagnous"}},"12309768436":{"location":[42.6799097,1.3981509],"ct":"FR","tp":"CS","ts":"2024-12-18T12:33:47Z","tX":515,"tY":377,"tags":{"description":"Emplacement herbeux protégé pour une tente.","name":"Bivouac"}},"7925366782":{"location":[42.7954533,1.3306935],"ct":"FR","tp":"SD","ts":"2024-05-07T15:44:35Z","tX":515,"tY":377,"tags":{"access":"yes","fee":"no","name":"Aire d’accueil/services camping-cars d’Alus-les-Bains","water_point":"yes"}}}