{"13277374":{"location":[42.4957974,1.2152344],"ct":"ES","tp":"CS","ts":"2025-04-20T17:57:33Z","tX":515,"tY":378,"tags":{"name":"Camping Llavorsí","old_name":"Càmping Riberies","website":"https://campingllavorsi.com/"}},"13277607":{"location":[42.502956,1.2038504],"ct":"ES","tp":"CS","ts":"2023-10-26T23:02:32Z","tX":515,"tY":378,"tags":{"caravans":"yes","internet_access":"yes","internet_access:fee":"no","name":"Càmping Aigües Braves","name:ca":"Càmping Aigües Braves","tents":"yes","website":"https://www.campingaiguesbraves.com/"}},"13292186":{"location":[42.3804483,1.1141111],"ct":"ES","tp":"CS","ts":"2021-10-05T07:18:49Z","tX":515,"tY":378,"tags":{"email":"camping@bordadefarrero.es","name":"Camping Borda d'en Farreró","phone":"+34 97 362 0250","website":"http://www.bordadefarrero.es/"}},"13292188":{"location":[42.3724409,1.1097541],"ct":"ES","tp":"CS","ts":"2023-10-26T23:07:57Z","tX":515,"tY":378,"tags":{"name":"Càmping L'Orri del Pallars","name:ca":"Càmping L'Orri del Pallars","website":"https://www.orridelpallars.cat/ca/camping/"}},"26860899":{"location":[42.3730906,1.3578384],"ct":"ES","tp":"CS","ts":"2019-10-05T08:59:10Z","tX":515,"tY":378,"tags":{"name":"Buchaca","phone":"+34 973 352 155"}},"227464202":{"location":[42.4190052,1.1338124],"ct":"ES","tp":"CS","ts":"2024-05-27T10:29:40Z","tX":515,"tY":378,"tags":{"access":"yes","bbq":"yes","caravans":"yes","dog":"yes","drinking_water":"yes","fee":"yes","internet_access":"wlan","internet_access:fee":"no","name":"Càmping Noguera Pallaresa","name:ca":"Càmping Noguera Pallaresa","power_supply":"yes","restaurant":"yes","shower":"hot","swimming_pool":"yes","tents":"yes","toilets":"yes","website":"www.noguera-pallaresa.com"}},"227481384":{"location":[42.5505376,1.3177435],"ct":"ES","tp":"CS","ts":"2022-11-26T01:03:27Z","tX":515,"tY":378,"tags":{"name":"Càmping Vall Ferrera","name:ca":"Càmping Vall Ferrera"}},"410458760":{"location":[42.3589987,1.0820305],"ct":"ES","tp":"CS","ts":"2025-05-11T17:51:12Z","tX":515,"tY":378,"tags":{"addr:city":"Baro","addr:postcode":"25593","caravans":"yes","dog":"yes","fee":"yes","internet_access":"wlan","internet_access:fee":"no","name":"Càmping Beta","name:ca":"Càmping Beta","phone":"+34 647 35 70 64","power_supply":"yes","shower":"hot","static_caravans":"yes","tents":"yes","toilets":"yes","toilets:wheelchair":"yes","washing_machine":"yes","website":"https://www.camping-beta.com/"}},"484665144":{"location":[42.4390431,1.1338092],"ct":"ES","tp":"CR","ts":"2023-02-03T07:54:56Z","tX":515,"tY":378,"tags":{"addr:city":"Rialb","capacity":"20","fee":"yes","name":"Àrea d'autocaravanes de Rialb","name:ca":"Àrea d'autocaravanes de Rialb","power_supply":"yes","sanitary_dump_station":"yes"}},"1316321827":{"location":[42.5500763,1.3198916],"ct":"ES","tp":"CR","ts":"2024-09-18T07:30:53Z","tX":515,"tY":378,"tags":{"fee":"no","maxstay":"48 hours","name":"Àrea d'autocaravanes","parking":"surface"}},"2505065758":{"location":[42.3751417,1.0757671],"ct":"ES","tp":"CS","ts":"2021-11-16T19:43:19Z","tX":515,"tY":378,"tags":{"addr:city":"Escos (Lleida)","addr:housename":"Borda Castell","addr:postcode":"25593","ele":"1000","name":"Borda Castell","note":"Borda Castell is a small campsite (15 spots) with basic facilities for those who like to camp in the middle of nature with excellent views. Access is via dirt road, suitable for normal cars","phone":"+34 636542286","website":"http://www.bordacastell.com/"}}}