{"259875339":{"location":[42.1385672,1.3876325],"ct":"ES","tp":"CS","ts":"2024-09-15T14:08:01Z","tX":515,"tY":379,"tags":{"caravans":"yes","name":"Càmping La Comella","name:ca":"Càmping La Comella","tents":"yes","website":"http://www.campinglacomella.net/"}},"336630254":{"location":[42.0770095,1.3047843],"ct":"ES","tp":"CS","ts":"2022-11-26T06:33:41Z","tX":515,"tY":379,"tags":{"name":"Càmping Oliana","name:ca":"Càmping Oliana","website":"https://www.campingoliana.cat/"}},"336630255":{"location":[42.0949887,1.3484669],"ct":"ES","tp":"CS","ts":"2022-11-26T06:29:15Z","tX":515,"tY":379,"tags":{"name":"Càmping Valldan","name:ca":"Càmping Valldan"}},"338268656":{"location":[42.2156279,1.3320123],"ct":"ES","tp":"CS","ts":"2024-09-08T13:00:59Z","tX":515,"tY":379,"tags":{"caravans":"yes","drinking_water":"yes","fixme":"camping limits","name":"Càmping Organyà","name:ca":"Càmping Organyà","shower":"yes","tents":"yes","website":"http://www.organyacamping.com"}},"1223189859":{"location":[42.2147157,1.330554],"ct":"ES","tp":"CR","ts":"2023-11-13T12:01:10Z","tX":515,"tY":379,"tags":{"name":"Aparcament d'autocaravanes Organyà","name:ca":"Aparcament d'autocaravanes Organyà"}},"11405152086":{"location":[42.0608689,1.2764161],"ct":"ES","tp":"CR","ts":"2023-12-09T10:35:28Z","tX":515,"tY":379,"tags":{"power_supply":"yes","sanitary_dump_station":"yes"}}}