{"14486925":{"location":[41.0783457,1.1133795],"ct":"ES","tp":"CS","ts":"2024-10-10T14:12:10Z","tX":515,"tY":383,"tags":{"access":"customers","addr:city":"Salou","addr:housenumber":"123","addr:postcode":"43840","addr:street":"Passeig Miramar / Plaça Venus","dog":"yes","email":"info@sangulisalou.com","fee":"yes","internet_access":"wlan","internet_access:fee":"customers","name":"Camping & Resort Sangulí Salou","phone":"+34977381641","website":"https://www.sangulisalou.com/","wheelchair":"yes"}},"14498826":{"location":[41.1270356,1.3433677],"ct":"ES","tp":"CS","ts":"2022-12-11T22:07:04Z","tX":515,"tY":383,"tags":{"name":"Càmping Torre de la Móra","name:ca":"Càmping Torre de la Móra"}},"14499326":{"location":[41.1324327,1.3633797],"ct":"ES","tp":"CS","ts":"2023-03-31T20:24:04Z","tX":515,"tY":383,"tags":{"contact:facebook":"https://www.facebook.com/CampingTamaritBeachResort/","contact:flickr":"https://www.flickr.com/photos/tamaritpark/","contact:instagram":"https://instagram.com/TamaritBeachResort/","contact:youtube":"https://www.youtube.com/user/TamaritParkResort","name":"Càmping Tamarit Park","name:ca":"Càmping Tamarit Park","phone":"+34 977 650128","website":"https://tamarit.com/","wheelchair":"yes"}},"14499480":{"location":[41.1349295,1.3584235],"ct":"ES","tp":"CS","ts":"2022-08-24T18:01:27Z","tX":515,"tY":383,"tags":{"name":"Camping Trillas"}},"14499481":{"location":[41.1316264,1.3599965],"ct":"ES","tp":"CS","ts":"2023-03-31T20:24:05Z","tX":515,"tY":383,"tags":{"name":"Càmping Tamarit Park","name:ca":"Càmping Tamarit Park"}},"14499484":{"location":[41.1330285,1.3579704],"ct":"ES","tp":"CS","ts":"2023-11-10T12:17:50Z","tX":515,"tY":383,"tags":{"name":"Càmping Trillas Platja Tamarit","website":"https://www.campingtrillas.com/"}},"14500039":{"location":[41.0897566,1.1810306],"ct":"ES","tp":"CS","ts":"2022-12-11T22:13:36Z","tX":515,"tY":383,"tags":{"name":"Càmping La Pineda de Salou","name:ca":"Càmping La Pineda de Salou"}},"142539203":{"location":[41.0685089,1.0819944],"ct":"ES","tp":"CS","ts":"2019-03-20T04:38:58Z","tX":515,"tY":383,"tags":{"barrier":"fence","name":"Càmping Platja Cambrils Don Camilo","website":"https://www.playacambrils.com/","wheelchair":"yes"}},"142592697":{"location":[41.0779228,1.0674958],"ct":"ES","tp":"CS","ts":"2022-09-21T07:53:44Z","tX":515,"tY":383,"tags":{"addr:city":"Cambrils","addr:postcode":"43850","addr:street":"Carretera N-340 Km. 1145","name":"Càmping Capfun Mirmanda","phone":"+34 977 36 12 11","website":"https://www.mirmanda.es/","wheelchair":"limited"}},"152401706":{"location":[41.1380181,1.3854258],"ct":"ES","tp":"CS","ts":"2023-03-31T20:26:03Z","tX":515,"tY":383,"tags":{"name":"Càmping Don Quijote","name:ca":"Càmping Don Quijote","source":"Bing aerial imagery"}},"172181193":{"location":[41.0759429,1.1049247],"ct":"ES","tp":"CS","ts":"2023-03-31T17:26:28Z","tX":515,"tY":383,"tags":{"name":"Càmping La Corona","name:ca":"Càmping La Corona"}},"194275265":{"location":[41.0785104,1.1391642],"ct":"ES","tp":"CS","ts":"2022-12-19T09:57:35Z","tX":515,"tY":383,"tags":{"contact:phone":"+34977380852","contact:website":"https://www.camping-lasiesta.com/","name":"La Siesta Salou Resort & Camping"}},"204128850":{"location":[41.1304574,1.3169878],"ct":"ES","tp":"CS","ts":"2024-06-20T16:35:16Z","tX":515,"tY":383,"tags":{"caravans":"yes","drinking_water":"yes","name":"Las Palmeras","power_supply":"yes","sanitary_dump_station":"yes","shower":"yes","source":"Bing","tents":"yes","toilets":"yes","website":"https://www.laspalmeras.com/"}},"283612650":{"location":[41.0719493,1.0839998],"ct":"ES","tp":"CS","ts":"2022-11-26T03:02:17Z","tX":515,"tY":383,"tags":{"barrier":"fence","name":"Càmping Baix Camp","name:ca":"Càmping Baix Camp","wheelchair":"yes"}},"383531756":{"location":[41.1392235,1.381229],"ct":"ES","tp":"CS","ts":"2022-11-26T01:09:14Z","tX":515,"tY":383,"tags":{"name":"Càmping Santa Eulàlia","name:ca":"Càmping Santa Eulàlia"}},"608058976":{"location":[41.2098701,1.1396639],"ct":"ES","tp":"CR","ts":"2024-01-20T08:42:43Z","tX":515,"tY":383,"tags":{"capacity":"10","charge":"5 EUR","drinking_water":"yes","fee":"yes","maxstay":"48 hours","payment:credit_cards":"only","phone":"+34 977 13 44 46","power_supply":"yes","reservation":"no","sanitary_dump_station":"yes","sanitary_dump_station:chemical_toilet":"yes","sanitary_dump_station:grey_water":"yes","water_point":"yes"}},"625533509":{"location":[41.1391545,1.3558996],"ct":"ES","tp":"CS","ts":"2018-09-14T10:47:02Z","tX":515,"tY":383,"tags":{"contact:phone":"+34977650098","contact:website":"https://www.campingcaledonia.com","name":"Camping Caledonia"}},"1181794922":{"location":[41.1298273,1.3067188],"ct":"ES","tp":"CS","ts":"2023-06-13T15:38:06Z","tX":515,"tY":383,"tags":{"name":"Las Salinas","website":"http://www.campinglasalinas.com/"}},"1854100731":{"location":[41.1304758,1.3035907],"ct":"ES","tp":"CS","ts":"2012-08-06T11:06:51Z","tX":515,"tY":383,"tags":{"name":"Camping Las Palmeras"}},"4395398192":{"location":[41.1385505,1.3826719],"ct":"ES","tp":"CR","ts":"2016-09-10T21:48:40Z","tX":515,"tY":383,"tags":{"name":"Santa Eulalia","name:es":"Santa Eulalia"}},"4395403990":{"location":[41.1378983,1.3838111],"ct":"ES","tp":"CR","ts":"2024-05-20T10:59:12Z","tX":515,"tY":383,"tags":{"fee":"yes","name":"Don Quijote","name:es":"Don Quijote"}},"6065981785":{"location":[41.1766237,1.3271023],"ct":"ES","tp":"CR","ts":"2023-11-21T00:33:01Z","tX":515,"tY":383,"tags":{"contact:website":"https://www.elcatllar.cat/","maxstay":"72 hours","opening_hours":"24/7"}},"4569331381":{"location":[41.140409,1.3477471],"ct":"ES","tp":"SD","ts":"2016-12-23T20:29:42Z","tX":515,"tY":383,"tags":{"fee":"no"}},"11779011295":{"location":[41.1409999,1.3455629],"ct":"ES","tp":"SD","ts":"2024-04-01T21:46:29Z","tX":515,"tY":383,"tags":{"fee":"no"}}}