{"11380041":{"location":[58.1993064,11.4812487],"ct":"SE","tp":"CS","ts":"2024-03-24T17:30:47Z","tX":544,"tY":307,"tags":{"access":"customers","addr:city":"Ellös","addr:country":"SE","addr:housenumber":"203","addr:place":"Malön","addr:postcode":"474 91","fee":"yes","name":"Malö Camping","payment:cash":"yes","payment:credit_cards":"yes","payment:mastercard":"yes","payment:visa":"yes","website":"https://malo.se/"}},"17689924":{"location":[58.1461324,11.4196725],"ct":"SE","tp":"CS","ts":"2024-06-08T12:48:58Z","tX":544,"tY":307,"tags":{"access":"customers","addr:city":"Ellös","addr:country":"SE","addr:housenumber":"101","addr:place":"Stockens camping","addr:postcode":"474 92","capacity:pitches":"134","caravans":"yes","contact:phone":"+46 304-511 00","contact:website":"http://www.stocken.nu","drinking_water":"yes","fee":"yes","internet_access":"wlan","internet_access:fee":"no","name":"Stocken Camping","power_supply":"yes","reservation":"no","sanitary_dump_station":"yes","shower":"yes","tents":"yes","toilets":"yes","website":"https://www.stockencamping.se/"}},"298774843":{"location":[58.1184141,11.4667251],"ct":"SE","tp":"CS","ts":"2024-03-21T21:15:08Z","tX":544,"tY":307,"tags":{"access":"private","addr:city":"Hälleviksstrand","addr:country":"SE","addr:housenumber":"320","addr:place":"Sollid","addr:postcode":"474 94","contact:phone":"+46 739 635888","contact:website":"https://www.caravanclub.se/","fee":"yes","name":"Caravan Club Sollid","operator":"Caravan Club of Sweden","website":"https://caravanclub.se/camping/sollid/","wheelchair":"yes"}},"4021619908":{"location":[58.1847545,11.4667105],"ct":"SE","tp":"SD","ts":"2017-09-23T11:45:35Z","tX":544,"tY":307,"tags":{"access":"yes","boat":"yes","description":"Ellös (Kommun: Orust Longitud: 11.46639 Latitud: 58.18325)","fee":"no","name":"Tömningsstation","opening_hours":"24/7","sanitary_dump_station:accepted":"black_water","sanitary_dump_station:pump-out":"yes","seamark:small_craft_facility:category":"pump-out","seamark:type":"small_craft_facility","vehicle":"no","waterway":"sanitary_dump_station","website":"https://hamnkartan.azurewebsites.net"}},"4277568890":{"location":[58.2149086,11.4161332],"ct":"SE","tp":"SD","ts":"2017-09-23T11:45:36Z","tX":544,"tY":307,"tags":{"access":"yes","boat":"yes","description":"Grundsunds Gästhamn (Kommun: Lysekil Longitud: 11.416450 Latitud: 58.215082 Info: Sugtömning + Utslagsvask)","fee":"no","name":"Tömningsstation","opening_hours":"24/7","sanitary_dump_station:accepted":"black_water","sanitary_dump_station:pump-out":"yes","seamark:small_craft_facility:category":"pump-out","seamark:type":"small_craft_facility","vehicle":"no","waterway":"sanitary_dump_station","website":"https://hamnkartan.azurewebsites.net"}},"4278561898":{"location":[58.1172145,11.4565012],"ct":"SE","tp":"SD","ts":"2017-09-23T11:45:39Z","tX":544,"tY":307,"tags":{"access":"yes","boat":"yes","description":"Hällevik Yacht club (Kommun: Orust Longitud: 11.45630 Latitud: 58.11724 Info: Utslagsvask finns)","fee":"no","name":"Tömningsstation","opening_hours":"24/7","sanitary_dump_station:accepted":"black_water","sanitary_dump_station:pump-out":"yes","seamark:small_craft_facility:category":"pump-out","seamark:type":"small_craft_facility","vehicle":"no","waterway":"sanitary_dump_station","website":"https://hamnkartan.azurewebsites.net"}},"4278590916":{"location":[58.1133274,11.3660744],"ct":"SE","tp":"SD","ts":"2017-09-23T11:45:39Z","tX":544,"tY":307,"tags":{"access":"yes","boat":"yes","description":"Käringöns Hamn (Kommun: Orust Longitud: 11.36612 Latitud: 58.11332)","fee":"no","name":"Tömningsstation","opening_hours":"24/7","sanitary_dump_station:accepted":"black_water","sanitary_dump_station:pump-out":"yes","seamark:small_craft_facility:category":"pump-out","seamark:type":"small_craft_facility","vehicle":"no","waterway":"sanitary_dump_station","website":"https://hamnkartan.azurewebsites.net"}},"4278596307":{"location":[58.1759747,11.4036539],"ct":"SE","tp":"SD","ts":"2017-09-23T11:45:39Z","tX":544,"tY":307,"tags":{"access":"yes","boat":"yes","description":"Gullholmens Gästhamn (Kommun: Orust Longitud: 11.40367 Latitud: 58.17591)","fee":"no","name":"Tömningsstation","opening_hours":"24/7","sanitary_dump_station:accepted":"black_water","sanitary_dump_station:pump-out":"yes","seamark:small_craft_facility:category":"pump-out","seamark:type":"small_craft_facility","vehicle":"no","waterway":"sanitary_dump_station","website":"https://hamnkartan.azurewebsites.net"}},"4278604140":{"location":[58.24382,11.46018],"ct":"SE","tp":"SD","ts":"2020-01-24T11:24:52Z","tX":544,"tY":307,"tags":{"access":"yes","boat":"yes","description":"Lyckans Slip Marina (Kommun: Lysekil Longitud: 11.46018 Latitud: 58.24382 Info: Sugtömning + Utslagsvask)","fee":"no","name":"Tömningsstation","opening_hours":"24/7","operator":"Lyckans Slip Marina","sanitary_dump_station:accepted":"black_water","sanitary_dump_station:pump-out":"yes","seamark:small_craft_facility:category":"pump-out","seamark:type":"small_craft_facility","vehicle":"no","waterway":"sanitary_dump_station","website":"https://hamnkartan.azurewebsites.net"}}}