{"71439279":{"location":[54.0278279,11.519809],"ct":"DE","tp":"CS","ts":"2024-02-09T16:47:39Z","tX":544,"tY":328,"tags":{"addr:city":"Boiensdorf","addr:country":"DE","addr:housenumber":"1","addr:postcode":"23974","addr:street":"Zeltplatz","caravans":"yes","contact:website":"https://haffcamp-werder.de/","name":"Haffcamp Boiensdorfer Werder","opening_hours":"Apr 01 - Oct 31: Mo-Su,PH 00:00-24:00","operator":"Haffcamp Boiensdorfer Werder KGT","tents":"yes"}},"92986776":{"location":[53.995774,11.3795897],"ct":"DE","tp":"CS","ts":"2021-01-24T10:14:04Z","tX":544,"tY":328,"tags":{"addr:city":"Insel Poel","addr:country":"DE","addr:housenumber":"25","addr:postcode":"23999","addr:street":"Lotsenstieg","addr:suburb":"Timmendorf","barrier":"fence","caravans":"yes","contact:phone":"+49 38425 20224","contact:website":"https://www.campingplatz-leuchtturm.com/","name":"Campingplatz Leuchtturm","opening_hours":"apr 01 - oct 31 Mo-Su 00:00-24:00; jun 15 - aug 31 Mo-Su 00:00-24:00","opening_hours:reception":"09:00-13:00, 15:00-20:00","operator":"Sandra Junghans","wheelchair":"yes"}},"93051157":{"location":[53.9944352,11.446057],"ct":"DE","tp":"CR","ts":"2021-04-17T07:19:12Z","tX":544,"tY":328,"tags":{"name":"Wohnmobil-Stellplatz Poeler Forellenhof"}},"102536264":{"location":[54.0378017,11.5849389],"ct":"DE","tp":"CR","ts":"2024-08-30T18:27:07Z","tX":544,"tY":328,"tags":{"addr:city":"Am Salzhaff","addr:housenumber":"1","addr:postcode":"18233","addr:street":"Seeweg","capacity":"34","email":"info-pepelow@campingtour-mv.de","fax":"+49 38294 78687","fee":"yes","internet_access":"wlan","internet_access:fee":"no","name":"Wohnmobilhafen Pepelow","phone":"+49 38294 78686","power_supply":"yes","sanitary_dump_station":"yes","toilets":"yes","water_point":"yes","website":"https://www.ostseecamping-am-salzhaff.de/"}},"143260147":{"location":[54.0379037,11.5820306],"ct":"DE","tp":"CS","ts":"2025-05-24T11:26:26Z","tX":544,"tY":328,"tags":{"addr:housenumber":"19c","addr:street":"Strandweg","camp_site":"serviced","caravans":"yes","drinking_water":"yes","internet_access":"wlan","maxtents":"300","name":"Am Salzhaff","power_supply":"yes","sanitary_dump_station":"yes","shower":"yes","tents":"yes","toilets":"yes","website":"https://www.ostseecamping-am-salzhaff.de/"}},"364307624":{"location":[54.0240179,11.5461149],"ct":"DE","tp":"CR","ts":"2025-01-30T01:10:07Z","tX":544,"tY":328,"tags":{"capacity":"36","caravan_site":"motorhome_stopover","caravan_site:type":"beach","charge":"15 EUR","check_out":"12:00","fee":"yes","name":"Wohnmobilhafen Boiensdorf","permanent_camping":"no","power_supply":"yes","power_supply:charge":"2 EUR","power_supply:fee":"yes","power_supply:maxcurrent":"16","sanitary_dump_station":"yes","tents":"no","toilets":"yes"}},"437713696":{"location":[53.9932465,11.3798921],"ct":"DE","tp":"CR","ts":"2023-06-07T04:18:23Z","tX":544,"tY":328,"tags":{"capacity":"60","fee":"yes","name":"Reisemobilplatz Am Hafen","wheelchair":"limited"}},"1083337356":{"location":[54.0325225,11.5729891],"ct":"DE","tp":"CS","ts":"2022-08-02T22:04:03Z","tX":544,"tY":328,"tags":{"fee":"yes","name":"Falkencamp Pepelow","operator":"Doberaner Falken-Projekt (DFP) e.V.","website":"https://www.falken-mv.de/wir-uber-uns/falkencamp-pepelow/"}},"1083337360":{"location":[54.0332056,11.5745208],"ct":"DE","tp":"CS","ts":"2022-08-02T22:04:03Z","tX":544,"tY":328,"tags":{"addr:city":"Am Salzhaff","addr:housenumber":"1","addr:postcode":"18233","addr:street":"Haffweg","email":"info@camping-salzhaff.de","fax":"+49 38294 156 94","fee":"yes","name":"Ferienh√§user & Campingplatz Weymann","operator":"Karsten Weymann","phone":"+49 38294 788 25","website":"https://www.camping-salzhaff.de/"}},"5127970625":{"location":[54.0379483,11.5843007],"ct":"DE","tp":"SD","ts":"2017-09-25T08:43:48Z","tX":544,"tY":328,"tags":{}},"6753254587":{"location":[54.0245162,11.5474852],"ct":"DE","tp":"SD","ts":"2023-06-07T04:15:48Z","tX":544,"tY":328,"tags":{"access":"yes","charge":"2 EUR","fee":"yes","payment:cash":"yes","power_supply":"no","sanitary_dump_station:chemical_toilet":"yes","sanitary_dump_station:grey_water":"yes","water_point":"yes"}},"7881947278":{"location":[53.9943019,11.3787069],"ct":"DE","tp":"SD","ts":"2020-09-06T20:20:18Z","tX":544,"tY":328,"tags":{"access":"customers"}},"11021405961":{"location":[53.9933243,11.3805979],"ct":"DE","tp":"SD","ts":"2023-07-03T05:43:49Z","tX":544,"tY":328,"tags":{}}}