{"41238153":{"location":[53.603957,11.4966108],"ct":"DE","tp":"CS","ts":"2025-02-07T15:38:19Z","tX":544,"tY":330,"tags":{"area":"yes","internet_access":"wlan","name":"Campingplatz \"Süduferperle\"","toilets:wheelchair":"yes","wheelchair":"yes"}},"42375692":{"location":[53.6959465,11.439241],"ct":"DE","tp":"CS","ts":"2024-08-25T22:10:53Z","tX":544,"tY":330,"tags":{"caravans":"yes","drinking_water":"yes","email":"info@ferienpark-seehof.de","fax":"+49 385 5814170","name":"Ferienpark Seehof","operator":"Campingplatz Seehof GmbH","phone":"+49 385 512540","power_supply":"cee_17_blue","shower":"yes","tents":"yes","website":"https://www.ferienpark-seehof.de/"}},"46963806":{"location":[53.6845641,11.4841192],"ct":"DE","tp":"CR","ts":"2024-01-17T16:12:22Z","tX":544,"tY":330,"tags":{"addr:city":"Leezen","addr:housenumber":"5","addr:postcode":"19067","addr:street":"Leezener Straße","addr:suburb":"Rampe","contact:mobile":"+491523 1783021","internet_access":"no","name":"Rastplatz No. 5 Wohnmobilstellplatz","power_supply":"yes"}},"92936218":{"location":[53.7284226,11.5007572],"ct":"DE","tp":"CS","ts":"2025-01-29T20:07:37Z","tX":544,"tY":330,"tags":{"addr:city":"Dobin am See","addr:housenumber":"7a","addr:postcode":"19067","addr:street":"Seestraße","addr:suburb":"Retgendorf","caravans":"yes","drinking_water":"yes","name":"Campingplatz Retgendorf","phone":"+49 3866 400 040","shower":"yes","tents":"yes"}},"187172283":{"location":[53.6108782,11.3921208],"ct":"DE","tp":"CR","ts":"2019-06-06T20:22:22Z","tX":544,"tY":330,"tags":{"fee":"yes","leisure":"sports_centre","name":"Freizeitanlage Kaspelwerder","phone":"+49 173 8305016","power_supply":"yes","sanitary_dump_station":"yes","sport":"swimming","water_point":"yes","website":"http://www.freizeitanlage-kaspelwerder.de"}},"304892407":{"location":[53.6476852,11.4280137],"ct":"DE","tp":"CR","ts":"2025-01-20T12:52:51Z","tX":544,"tY":330,"tags":{"addr:city":"Schwerin","addr:country":"DE","addr:housenumber":"88","addr:postcode":"19055","addr:street":"Güstrower Straße","capacity":"7","dryer":"yes","email":"info@sportbootzentrum.de","fee":"12","name":"Sportbootzentrum Ziegelsee","picnic_site":"yes","power_supply":"yes","sanitary_dump_station":"yes","shower":"yes","toilets":"yes","washing_machine":"yes","waste_disposal":"yes","website":"https://www.sportbootzentrum.de/wohnmobilstellplatz/"}},"304964645":{"location":[53.627594,11.4249189],"ct":"DE","tp":"CR","ts":"2024-05-19T05:05:44Z","tX":544,"tY":330,"tags":{"capacity":"3","drinking_water":"yes","fee":"yes","name":"Schweriner Segler-Verein","note":"April - Oktober geöffnet, sonst Boots-Lager","power_supply":"yes","toilets":"yes","toilets:wheelchair":"no","wheelchair":"limited"}},"386128267":{"location":[53.6640873,11.5405477],"ct":"DE","tp":"CS","ts":"2022-05-23T19:38:11Z","tX":544,"tY":330,"tags":{"name":"Seeoase Langen Brütz"}},"652439167":{"location":[53.59875,11.4804141],"ct":"DE","tp":"CR","ts":"2025-01-29T20:07:37Z","tX":544,"tY":330,"tags":{"check_date":"2023-06-20","contact:email":"info@feriendorf-muess.de","contact:fax":"+49 385 20846222","contact:phone":"+49 385 208460","fee":"yes","name":"Feriendorf Mueß","operator":"AWO-Soziale Dienste gGmbH-Westmecklenburg","power_supply":"yes","sanitary_dump_station":"yes","water_point":"yes"}},"824982934":{"location":[53.7011213,11.4226686],"ct":"DE","tp":"CS","ts":"2024-09-04T17:53:20Z","tX":544,"tY":330,"tags":{"addr:city":"Seehof","addr:housenumber":"4","addr:postcode":"19069","addr:street":"Holunderweg","addr:suburb":"Hundorf","backcountry":"yes","bbq":"no","cabins":"no","camp_site":"basic","capacity":"3","caravans":"yes","changing_table":"no","contact:facebook":"https://www.facebook.com/profile.php?id=100088595058414","contact:instagram":"https://www.instagram.com/tannenhofmeisser/","contact:website":"https://www.tannenhof-meisser.de/wildes-zelten-am-tannenhof.php","description":"Nur nach telefonischer Anmeldung, siehe website","dog":"yes","drinking_water":"no","fee":"no","hot_water":"no","internet_access":"no","kitchen":"no","lit":"no","maxtents":"6","motor_vehicle":"yes","name":"Wildes Zelten am Tannenhof","nudism":"no","openfire":"no","opening_hours":"24/7","operator":"Tannenhof Meisser","payment:coins":"yes","payment:notes":"yes","picnic_table":"no","power_supply":"no","reservation":"required","sanitary_dump_station":"no","scout":"no","shower":"no","static_caravans":"no","tents":"yes","toilets":"yes","toilets:access":"yes","toilets:description":"Komposttoilette","toilets:fee":"no","toilets:handwashing":"no","toilets:paper_supplied":"yes","toilets:position":"seated","toilets:wheelchair":"no","washing_machine":"no","waste_disposal":"no","wheelchair":"no"}},"1057666839":{"location":[53.6381487,11.4077943],"ct":"DE","tp":"CR","ts":"2020-11-23T18:48:24Z","tX":544,"tY":330,"tags":{"addr:city":"Schwerin","addr:country":"DE","addr:housenumber":"196","addr:postcode":"19053","addr:street":"Wismarsche Straße","capacity":"4","fee":"yes","name":"Am Hauptbahnhof","power_supply":"yes","sanitary_dump_station":"yes","website":"https://www.nahverkehr-schwerin.de/parkplaetze/am-hauptbahnhof.html","wheelchair":"limited"}},"1215174789":{"location":[53.637593,11.4336438],"ct":"DE","tp":"CR","ts":"2023-10-13T09:42:51Z","tX":544,"tY":330,"tags":{"addr:city":"Schwerin","addr:country":"DE","addr:housenumber":"95","addr:postcode":"19055","addr:street":"Bornhövedstraße","description":"Ferienanlage am Schweriner See mit WOhnmobilstellplätzen, Ferienwohnung, Charterbooten und Liegeplätzen in einer kleinen Marina","email":"info@hangar19.de","internet_access":"yes","internet_access:fee":"customers","name":"Hangar 19","operator":"Hangar19 GmbH","phone":"+49 385 58979817","power_supply":"yes","sanitary_dump_station":"yes","toilets":"yes","website":"https://hangar-19.de","wheelchair":"yes"}},"3114504139":{"location":[53.6472127,11.4286002],"ct":"DE","tp":"SD","ts":"2015-04-29T00:43:31Z","tX":544,"tY":330,"tags":{"sanitary_dump_station:accepted":"black_water;tank_chemicals"}},"3408522678":{"location":[53.629957,11.420489],"ct":"DE","tp":"CR","ts":"2025-01-22T11:31:53Z","tX":544,"tY":330,"tags":{"capacity":"10","drinking_water":"no","fee":"yes","name":"Wohnmobil-Stellplatz Am Stadthafen","object:city":"Schwerin","object:postcode":"19055","object:street":"Werderstraße","operator":"Schweriner Nahverkehr GmbH","power_supply":"yes","sanitary_dump_station":"no","toilets":"no","website":"https://www.nahverkehr-schwerin.de/parkplaetze/am-stadthafen.html","wheelchair":"yes"}},"3700108767":{"location":[53.6196948,11.4125123],"ct":"DE","tp":"CR","ts":"2025-03-10T12:59:59Z","tX":544,"tY":330,"tags":{"capacity":"10","charge":"30 EUR","drinking_water":"no","fee":"yes","name":"Parkplatz Am Jägerweg","name:signed":"yes","power_supply":"yes","power_supply:capacity":"8","power_supply:charge":"0.50 EUR/kWh","power_supply:fee":"yes","reservation":"no","sanitary_dump_station":"no","socket":"cee_blue","toilets":"no","website":"https://www.nahverkehr-schwerin.de/parkplaetze/am-jaegerweg.html","wheelchair":"yes"}},"11906827569":{"location":[53.5586618,11.4461969],"ct":"DE","tp":"CS","ts":"2025-02-01T15:17:33Z","tX":544,"tY":330,"tags":{"internet_access":"wlan","name:ar":"کەمپی پەنابەران - شڤێرین","opening_hours":"24/7"}},"5712011421":{"location":[53.6458982,11.4325433],"ct":"DE","tp":"CR","ts":"2025-01-20T12:52:51Z","tX":544,"tY":330,"tags":{"addr:city":"Schwerin","addr:country":"DE","addr:housenumber":"19","addr:postcode":"19055","addr:street":"Buchenweg","capacity":"25","email":"info@marina-nord.de","internet_access":"yes","name":"Marina Nord","power_supply":"yes","sanitary_dump_station":"yes"}},"10923560616":{"location":[53.66927,11.4232375],"ct":"DE","tp":"CR","ts":"2025-01-18T08:09:17Z","tX":544,"tY":330,"tags":{"addr:city":"Schwerin","addr:country":"DE","addr:housenumber":"2","addr:postcode":"19055","addr:street":"Wendenhof","name":"Wonhmobil Stellplatz"}}}