{"17897332":{"location":[53.392776,11.5798447],"ct":"DE","tp":"CS","ts":"2025-01-11T23:46:56Z","tX":544,"tY":331,"tags":{"access":"customers","addr:city":"Neustadt-Glewe","addr:country":"DE","addr:postcode":"19306","caravans":"yes","dog":"yes","drinking_water":"yes","email":"info@barracuda-beach.de","fee":"yes","fenced":"yes","internet_access":"wlan","internet_access:fee":"customers","name":"Campingplatz Neustädter See - Barracuda Beach","operator":"Barracuda Beach GmbH & Co. KG","payment:cash":"yes","payment:debit_cards":"yes","phone":"+49 38757 595424","power_supply":"yes","reservation":"yes","sanitary_dump_station":"yes","shower":"yes","static_caravans":"no","tents":"yes","toilets":"yes","website":"https://www.barracuda-beach.de/"}},"397332706":{"location":[53.3925119,11.5816032],"ct":"DE","tp":"CS","ts":"2024-08-05T10:22:48Z","tX":544,"tY":331,"tags":{"access":"customers","building":"bungalow","caravans":"yes","drinking_water":"yes","name":"Barracuda Beach Camping","power_supply":"yes","sanitary_dump_station":"yes","shower":"yes","tents":"yes","toilets":"yes"}},"979875142":{"location":[53.4255364,11.5076932],"ct":"DE","tp":"CS","ts":"2025-01-12T01:44:30Z","tX":544,"tY":331,"tags":{"addr:city":"Wöbbelin","addr:country":"DE","addr:housenumber":"1","addr:postcode":"19288","addr:street":"Dreenkrögener Kiessee","addr:suburb":"Dreenkrögen","capacity:caravans":"15","capacity:tents":"30","caravans":"yes","contact:email":"j.wilsdorf@web.de","contact:facebook":"https://www.facebook.com/Urlaub.Mecklenburg.Vorpommern","contact:instagram":"https://www.instagram.com/moinmvp/","contact:phone":"+49 175 2987632","contact:website":"https://www.campingplatz-dreenkroegen.de/","dog":"yes","fee":"yes","lit":"no","motor_vehicle":"yes","name":"Campingplatz Silbersee Dreenkrögen","openfire":"yes","operator":"Jürgen Wilsdorf","permanent_camping":"no","power_supply":"yes","shower":"1","surface":"grass","tents":"yes","toilets":"yes"}},"989678080":{"location":[53.4395817,11.2501731],"ct":"DE","tp":"CR","ts":"2025-01-12T15:22:06Z","tX":544,"tY":331,"tags":{"addr:city":"Kirch Jesar","addr:country":"DE","addr:housenumber":"1","addr:postcode":"19230","addr:street":"Texas","name":"Wohnmobilstellplatz Texas MV","power_supply":"yes","sanitary_dump_station":"yes"}}}