{"110533011":{"location":[53.0404425,11.4170032],"ct":"DE","tp":"CS","ts":"2023-03-29T07:19:54Z","tX":544,"tY":333,"tags":{"addr:city":"Gartow","addr:country":"DE","addr:housenumber":"13","addr:postcode":"29471","addr:street":"Laasche","addr:suburb":"Laasche","caravans":"yes","name":"Campingplatz Laascher See","phone":"+49 5846 342 or 980093","tents":"yes","website":"https://www.elbtalaue-camping.de/"}},"110533228":{"location":[53.0264448,11.439561],"ct":"DE","tp":"CS","ts":"2024-06-24T03:42:28Z","tX":544,"tY":333,"tags":{"addr:city":"Gartow","addr:country":"DE","addr:housenumber":"3","addr:postcode":"29471","addr:street":"Am Helk","caravans":"yes","name":"Campingpark Gartow","phone":"+49 5846 8250","stars":"4","tents":"yes","website":"https://www.campingpark-gartow.de/"}},"330210906":{"location":[52.909764,11.4910438],"ct":"DE","tp":"CS","ts":"2015-02-25T12:15:08Z","tX":544,"tY":333,"tags":{"name":"Pferde- und Freizeitparadies"}},"486288000":{"location":[53.0498599,11.351363],"ct":"DE","tp":"CR","ts":"2025-01-05T17:34:34Z","tX":544,"tY":333,"tags":{"addr:city":"Gorleben","addr:country":"DE","addr:housenumber":"7-9","addr:postcode":"29475","addr:street":"Ringstraße","mobile":"+49 151 42418345","name":"Wohnmobilstellplatz Gorleben","operator":"Hafenmeister"}},"917697246":{"location":[53.0288225,11.4526241],"ct":"DE","tp":"CR","ts":"2024-12-07T15:23:17Z","tX":544,"tY":333,"tags":{"caravan_site":"motorhome_stopover","caravan_site:type":"parking_lot;lake;restaurant","charge":"10 EUR","fee":"yes","name":"Imbiss am See Stellplatz","operator":"Campingpark Gartow","power_supply":"no","sanitary_dump_station":"no","surface":"compacted","water_point":"no"}},"1226271864":{"location":[53.0973598,11.4923386],"ct":"DE","tp":"CR","ts":"2023-11-23T20:40:51Z","tX":544,"tY":333,"tags":{"landuse":"commercial"}},"1340798040":{"location":[53.0971736,11.4920989],"ct":"DE","tp":"CR","ts":"2025-01-05T17:44:48Z","tX":544,"tY":333,"tags":{"addr:city":"Lenzen (Elbe)","addr:country":"DE","addr:housenumber":"1","addr:postcode":"19309","addr:street":"Rekener Straße","capacity":"20","caravan_site":"motorhome_stopover","caravan_site:type":"lake;restaurant","caravans":"yes","charge":"20 EUR","fee":"yes","name":"Caravanstellplatz Haus am See Lenzen","phone":"+49 152 52454161","power_supply":"yes","power_supply:charge":"4 EUR","power_supply:fee":"yes","reservation":"yes","sanitary_dump_station":"yes","shower":"yes","shower:charge":"2.50 EUR","shower:fee":"yes","tents":"no","water_point":"yes","water_point:fee":"yes","website":"https://www.amtlenzen.de/seite/572835/caravanstellplatz-lenzen-elbe.html"}},"1488568918":{"location":[53.0301571,11.3081623],"ct":"DE","tp":"CS","ts":"2025-01-13T19:58:02Z","tX":544,"tY":333,"tags":{"caravans":"yes","name":"Zeltwiese Gasthaus Wiese","operator":"Gasthaus Wiese","phone":"+49 5848 1259","tents":"yes","website":"https://www.gasthaus-wiese.de/zeltwiese.html"}},"1885934956":{"location":[53.0971614,11.4920213],"ct":"DE","tp":"CR","ts":"2023-01-08T18:41:59Z","tX":544,"tY":333,"tags":{"addr:city":"Lenzen (Elbe)","addr:housenumber":"1","addr:postcode":"19309","addr:street":"Rekener Straße","capacity":"20","caravans":"yes","fee":"yes","name":"Wohnmobilstellplatz Haus am See","power_supply":"yes","sanitary_dump_station":"yes","tents":"no","website":"https://hausamsee-lenzen.de/stellplatz.html"}},"3779366953":{"location":[53.097077,11.4928574],"ct":"DE","tp":"SD","ts":"2024-12-07T15:12:10Z","tX":544,"tY":333,"tags":{"fee":"yes","water_point":"yes"}},"7523957393":{"location":[53.0709251,11.4124374],"ct":"DE","tp":"CS","ts":"2025-01-05T17:30:27Z","tX":544,"tY":333,"tags":{"caravans":"yes","fee":"yes","name":"Hütten-Hotel-Elbhöhe","phone":"+49 5846 1707","source":"Website","tents":"yes","website":"https://www.huetten-hotel.de/index.php/uebernachtung"}},"9278980085":{"location":[52.9931171,11.5729558],"ct":"DE","tp":"CS","ts":"2024-12-26T11:19:16Z","tX":544,"tY":333,"tags":{"access":"private","cabins":"no","capacity:persons":"12","capacity:tents":"3","caravans":"no","charge":"6.00 EUR/person/night","contact:instagram":"https://www.instagram.com/evelyn.bura/","description":"A very simple campsite with a drinking water tap, compost toilet and a garden shower.","email":"evelynbura@gmail.com","fee":"yes","name":"einfachlosmachen","openfire":"yes","operator":"Evelyn Bura","permanent_camping":"no","phone":"+49 171 1785005","static_caravans":"yes","tents":"yes","website":"https://www.einfachlosmachen.de/%C3%BCbernachtung/"}},"6044368512":{"location":[52.9892108,11.3319297],"ct":"DE","tp":"CR","ts":"2024-05-31T10:11:06Z","tX":544,"tY":333,"tags":{"capacity":"10","caravan_site":"motorhome_stopover","caravan_site:type":"restaurant","charge":"14 EUR","charge:conditional":"12.50 EUR @(low_season)","fee":"yes","maxstay":"24 hours","name":"Nemitzer Heidehaus","power_supply":"yes","water_point":"yes","website":"https://www.nemitzer-heidehaus.de/aktivit%C3%A4ten"}},"12408040848":{"location":[53.0904128,11.2925465],"ct":"DE","tp":"CR","ts":"2024-12-09T20:15:20Z","tX":544,"tY":333,"tags":{"capacity":"3","caravan_site":"motorhome_stopover","caravan_site:type":"restaurant","caravans":"no","charge":"23 EUR","fee":"yes","maxlength":"7.5","maxweight":"4.5","name":"Alter Hof am Elbdeich Wohnmobil Stellplätze","power_supply":"yes","power_supply:charge":"1 EUR/KWh","sanitary_dump_station":"no","water_point":"yes","water_point:charge":"1 EUR/10 liter","water_point:fee":"yes","website":"https://www.alter-hof-am-elbdeich.de/wohnmobile/"}}}