{"297619784":{"location":[52.8771473,11.4622388],"ct":"DE","tp":"CS","ts":"2023-03-13T12:58:53Z","tX":544,"tY":334,"tags":{"caravans":"yes","dog":"leashed","drinking_water":"yes","fee":"yes","internet_access":"wlan","name":"Im Kleinen Elsebusch","operator":"Udo Matuschek","phone":"+49 3938427363","sanitary_dump_station":"yes","shower":"yes","tents":"yes","toilets":"yes","website":"https://campingplatzarendsee.de/"}},"329282324":{"location":[52.8925554,11.5049554],"ct":"DE","tp":"CS","ts":"2023-04-15T13:19:29Z","tX":544,"tY":334,"tags":{"cabins":"yes","caravans":"yes","email":"camping@luftkurort-arendsee.de","name":"Am See","phone":"+49 39384 25 87","tents":"yes","toilets":"yes","website":"https://luftkurort-arendsee.de/unterk%C3%BCnfte/campingplaetze/"}},"12180050284":{"location":[52.781355,11.3781142],"ct":"DE","tp":"CS","ts":"2024-09-16T11:33:55Z","tX":544,"tY":334,"tags":{"group_only":"yes","name":"Pfadfinderlager Fleetmark","toilets":"yes"}},"10271091315":{"location":[52.7049466,11.2902021],"ct":"DE","tp":"CR","ts":"2024-08-09T21:06:29Z","tX":544,"tY":334,"tags":{"addr:city":"Kalbe (Milde)","addr:housenumber":"30b","addr:postcode":"39624","addr:street":"Dorfstra√üe","addr:suburb":"Zethlingen","animal":"yes","fee":"yes","internet_access":"wlan","internet_access:fee":"no","name":"Rast ohne Hast","power_supply":"yes","sanitary_dump_station":"yes","smoking":"outside","start_date":"2021"}}}