{"60963183":{"location":[50.9243412,11.3469311],"ct":"DE","tp":"CS","ts":"2020-05-22T15:40:56Z","tX":544,"tY":343,"tags":{"addr:city":"Oettern","addr:country":"DE","addr:housenumber":"1","addr:postcode":"99438","addr:street":"Auf dem Butterberge","alt_name":"Campingplatz Mittleres Ilmtal","caravans":"yes","name":"Campingplatz Oettern","operator":"Hans-Jürgen Weil","phone":"+49 36453 80264","source":"extrapolation","surface":"grass","tents":"yes","website":"https://www.campingplatzimgruenen.de/"}},"68313636":{"location":[50.7383623,11.4640966],"ct":"DE","tp":"CS","ts":"2023-06-20T04:59:11Z","tX":544,"tY":343,"tags":{"addr:city":"Uhlstädt-Kirchhasel","addr:country":"DE","name":"Zeltplatz Sport- und Freizeitzentrum Uhlstädt","operator":"Gemeinde Uhlstädt-Kirchhasel","phone":"+49 36742 63534","source":"survey","url":"https://www.uhlstaedt-kirchhasel.de/zeltplatz-uhlstaedt/"}},"192997023":{"location":[50.8992875,11.2860817],"ct":"DE","tp":"CR","ts":"2023-11-03T09:16:18Z","tX":544,"tY":343,"tags":{"addr:city":"Bad Berka","addr:postcode":"99438","addr:street":"Bleichstraße","capacity":"3","contact:email":"info@bad-berka.de","fee":"no","internet_access":"no","name":"Bleichstraße","power_supply":"yes","sanitary_dump_station":"yes","water_point":"yes","website":"https://www.bad-berka.de/"}},"746790157":{"location":[50.7560463,11.4375399],"ct":"DE","tp":"CS","ts":"2023-11-10T21:42:11Z","tX":544,"tY":343,"tags":{"access":"customers","addr:city":"Uhlstädt-Kirchhasel","addr:postcode":"07407","addr:street":"Partschefeld","name":"Feriencamp","operator":"Schützenhof","phone":"+49 3674261134","website":"https://www.schuetzenhof-partschefeld.de/feriencamp.php"}},"767761604":{"location":[50.7738867,11.5363965],"ct":"DE","tp":"CS","ts":"2020-08-27T09:40:49Z","tX":544,"tY":343,"tags":{"addr:city":"Orlamünde","addr:housenumber":"1","addr:postcode":"07768","addr:street":"Am Sportplatz","fee":"yes","name":"Bootshaus Orlamünde","website":"https://www.abenteuer-in-thueringen.de/start/"}},"2035270903":{"location":[50.8996028,11.2855259],"ct":"DE","tp":"SD","ts":"2021-04-30T09:52:12Z","tX":544,"tY":343,"tags":{"addr:city":"Bad Berka","addr:street":"Bleichstraße","fee":"yes","name":"Sani-Station","sanitary_dump_station:chemical_toilet":"yes","sanitary_dump_station:grey_water":"yes","water_point":"yes"}},"4916804072":{"location":[50.7389047,11.4637],"ct":"DE","tp":"CS","ts":"2023-11-10T21:42:52Z","tX":544,"tY":343,"tags":{"fee":"yes","name":"Sport- und Freizeitzentrum Uhlstädt","operator":"Tom Greiner-Perth","power_supply":"yes","sanitary_dump_station":"no","shower":"yes","tents":"yes","toilets":"yes","website":"https://www.kommaraus.de/"}}}