{"2151669":{"location":[50.6160937,11.5548987],"ct":"DE","tp":"CS","ts":"2022-08-28T19:35:26Z","tX":544,"tY":344,"tags":{"addr:city":"Wilhelmsdorf","addr:country":"DE","addr:housenumber":"37b","addr:postcode":"07389","addr:street":"Ortsstraße","caravans":"60","name":"Campingplatz Portenschmiede","phone":"+49 3647 413945","tents":"yes","website":"https://www.portenschmiede-saale.de"}},"26220868":{"location":[50.6741078,11.2683467],"ct":"DE","tp":"CS","ts":"2025-01-01T19:08:13Z","tX":544,"tY":344,"tags":{"addr:city":"Bad Blankenburg","addr:housenumber":"236a","addr:postcode":"07422","addr:street":"Dittersdorfer Weg","capacity":"23","caravans":"yes","contact:mobile":"+49 176 23216089","fee":"yes","name":"Caravanpark Schwarzatal","phone":"+49 36741 2695","power_supply":"yes","sanitary_dump_station":"yes","shower":"yes","tents":"yes","toilets":"yes","url":"https://www.thueringen.info/caravanpark-schwarzatal.html","water_point":"yes","website":"https://www.thueringen.info/caravanpark-schwarzatal.html"}},"56227577":{"location":[50.6373172,11.3680885],"ct":"DE","tp":"CR","ts":"2024-10-11T09:46:53Z","tX":544,"tY":344,"tags":{"capacity":"11","fee":"no","name":"Wohnmobilstellplatz am Freibad, Saalfeld","power_supply":"no","sanitary_dump_station":"no","surface":"compacted","toilets":"no","water_point":"no"}},"60964150":{"location":[50.6186059,11.5089783],"ct":"DE","tp":"CS","ts":"2023-07-30T10:28:49Z","tX":544,"tY":344,"tags":{"addr:city":"Unterwellenborn","addr:country":"DE","addr:housenumber":"7","addr:postcode":"07333","addr:street":"Saaltahl","cabins":"yes","capacity:caravans":"32","capacity:tents":"50","caravans":"20","motorhome":"yes","name":"Campingplatz Saalthal Alter","opening_hours":"Apr - Sep","phone":"+49 36732 77777","shower":"yes","source":"website","tents":"yes","toilets":"yes","url":"http://www.camping-saalthal-alter.de/"}},"60965133":{"location":[50.5974406,11.5635745],"ct":"DE","tp":"CS","ts":"2020-09-25T08:48:27Z","tX":544,"tY":344,"tags":{"addr:city":"Drognitz","addr:country":"DE","addr:housenumber":"1","addr:postcode":"07338","addr:street":"Mutschwiese","caravans":"350","landuse":"recreation_ground","name":"Camping Thüringer Wald","operator":"Michael und Patricia Telgenhof","phone":"+49 3673 7230420","source":"website","tents":"yes","website":"https://www.thueringen.info/camping-thueringer-wald.html"}},"61868932":{"location":[50.6572269,11.3615729],"ct":"DE","tp":"CS","ts":"2019-10-06T12:35:36Z","tX":544,"tY":344,"tags":{"addr:city":"Saalfeld/Saale","addr:country":"DE","addr:housenumber":"3","addr:postcode":"07318","addr:street":"Am Weidig","email":"info@strand-24.de","name":"Strand 24","phone":"+49 3671 52 54 220","tents":"yes","website":"https://www.strand-24.de"}},"118759482":{"location":[50.6004299,11.5921614],"ct":"DE","tp":"CS","ts":"2020-08-06T07:56:55Z","tX":544,"tY":344,"tags":{"addr:city":"Gössitz","addr:country":"DE","addr:housenumber":"4","addr:postcode":"07389","addr:street":"Neumannshof","capacity:caravans":"50","caravans":"yes","contact:email":"info@camping-neumannshof.de","contact:phone":"+49 36483 7420","contact:website":"http://www.camping-neumannshof.de/","landuse":"recreation_ground","maxtents":"50","name":"Campingplatz Neumannshof","power_supply":"yes","sanitary_dump_station":"yes","tents":"yes"}},"136879814":{"location":[50.6003008,11.5870379],"ct":"DE","tp":"CS","ts":"2020-08-06T07:56:55Z","tX":544,"tY":344,"tags":{"addr:city":"Altenbeuthen","addr:country":"DE","addr:postcode":"07338","capacity:caravans":"15","caravans":"yes","maxtents":"40","name":"Camping & Freizeitanlage Droschkau e.V.","phone":"+49 36737 3310","power_supply":"yes","source":"website","tents":"yes","website":"https://www.thueringen.info/camping-droschkau.html"}},"159900393":{"location":[50.7042929,11.4898323],"ct":"DE","tp":"CS","ts":"2020-10-29T15:03:39Z","tX":544,"tY":344,"tags":{"access":"private","name":"Campingplatz Friedebach"}},"160986057":{"location":[50.6067053,11.5588089],"ct":"DE","tp":"CS","ts":"2024-07-17T06:27:27Z","tX":544,"tY":344,"tags":{"addr:city":"Drognitz","addr:country":"DE","addr:postcode":"07338","capacity:caravans":"40","capacity:tents":"80","caravans":"yes","contact:website":"https://www.campingplatz-hopfenmuehle.de/","mobile":"+49 170 4155633","name":"Campingplatz Hopfenmühle Drognitz","opening_hours":"Apr 15 - Oct 16","phone":"+49 36737 30070","shower":"yes","tents":"yes","toilets":"yes"}},"548634594":{"location":[50.705042,11.316772],"ct":"DE","tp":"CR","ts":"2023-07-11T09:52:32Z","tX":544,"tY":344,"tags":{"addr:city":"Rudolstadt","addr:housenumber":"6","addr:postcode":"07407","addr:street":"Hugo-Trinckler-Straße","name":"Saalemaxx"}},"700048519":{"location":[50.5914612,11.5200389],"ct":"DE","tp":"CS","ts":"2024-07-21T13:18:53Z","tX":544,"tY":344,"tags":{"access":"private","operator":"SV Turbone Hohenwartha"}},"883786777":{"location":[50.63465,11.3393668],"ct":"DE","tp":"CR","ts":"2020-12-11T12:13:00Z","tX":544,"tY":344,"tags":{"capacity":"10","caravans":"yes","contact:email":"kundenservice@feengrotten.de","contact:phone":"+49 3671 55040","fee":"yes","name":"Reisemobilplatz Saalfelder Feengrotten","operator":"Saalfelder Feengrotten und Tourismus GmbH","power_supply":"yes","sanitary_dump_station":"yes","sanitary_dump_station:gravity":"no","tents":"no","toilets":"yes","water_point":"yes","website":"https://www.feengrotten.de/Park-entdecken/Feengrottenpark/Caravanstellplatz/","wheelchair":"yes"}},"1042738324":{"location":[50.5562233,11.4656939],"ct":"DE","tp":"CS","ts":"2024-05-10T20:30:14Z","tX":544,"tY":344,"tags":{"addr:city":"Leutenberg","addr:housenumber":"16","addr:postcode":"07338","addr:street":"Wurzbacher Straße","capacity:persons":"31","name":"Natur-Erlebnis-Zentrum","website":"https://elanev.de/"}},"1213298595":{"location":[50.5190487,11.3509208],"ct":"DE","tp":"CS","ts":"2023-10-05T13:39:01Z","tX":544,"tY":344,"tags":{"backcountry":"yes","capacity":"4","caravans":"no","name":"Trekkingplatz Thüringer Warte","reservation":"required","tents":"only","website":"https://www.frankenwald-tourismus.de/draussen/trekking/trekkingplaetze/trekkingplatz-frankenwald-thueringer-warte"}},"1302862833":{"location":[50.5898141,11.5210265],"ct":"DE","tp":"CS","ts":"2024-07-21T13:18:53Z","tX":544,"tY":344,"tags":{"caravans":"yes","operator":"Sommerfrische Lothramühle","reservation":"recommended","sanitary_dump_station":"no","tents":"yes"}},"1348295069":{"location":[50.7092322,11.570107],"ct":"DE","tp":"CR","ts":"2025-01-03T17:03:54Z","tX":544,"tY":344,"tags":{"cabins":"no","capacity":"4","caravans":"yes","fee":"no","motorhome":"yes","power_supply":"yes","power_supply:fee":"yes","static_caravans":"no","tents":"no"}},"7749467744":{"location":[50.719323,11.3650599],"ct":"DE","tp":"CR","ts":"2023-04-10T17:37:35Z","tX":544,"tY":344,"tags":{"addr:city":"Rudolstadt","addr:housenumber":"4","addr:postcode":"07407","addr:street":"An den Katzenlöchern","capacity":"5","description":"GPS: 50.719352, 11.364944 50°43’09.7″N 11°21’53.8″E","email":"info@saalestrand-rudolstadt.de","fee":"yes","internet_access":"wlan","internet_access:fee":"no","mobile":"+49 151 40 529 932","motorhome":"designated","name":"Stellplatz SaaleStrand","phone":"+49 3672 41 47 55","power_supply":"yes","sanitary_dump_station":"yes","tents":"unset","water_point":"yes","website":"https://www.saalestrand-rudolstadt.de/"}},"8219559576":{"location":[50.6347715,11.3398647],"ct":"DE","tp":"SD","ts":"2020-12-11T12:13:00Z","tX":544,"tY":344,"tags":{"fee":"yes","sanitary_dump_station:chemical_toilet":"yes","sanitary_dump_station:gravity":"no","sanitary_dump_station:grey_water":"yes","water_point":"yes"}}}