{"31454057":{"location":[49.8509703,11.3413635],"ct":"DE","tp":"CS","ts":"2022-06-28T21:13:22Z","tX":544,"tY":347,"tags":{"addr:city":"Waischenfeld","addr:country":"DE","addr:housenumber":"54","addr:postcode":"91344","addr:street":"Hauptstraße","caravans":"yes","description":"Use of adjacent swimming pool included in fee","description:de":"Benutzung des angrenzenden Freibads im Preis inbegriffen.","email":"mai.roland@t-online.de","fax":"+49 9202 1796","name":"Campingplatz Waischenfeld \"Steinerner Beutel\"","opening_hours":"08:00-13:00, 15:00-22:00","phone":"+49 9202 359","power_supply":"yes","tents":"yes","website":"https://campingplatz-waischenfeld.de/"}},"129490387":{"location":[49.9165794,11.3783737],"ct":"DE","tp":"CR","ts":"2024-07-03T15:37:47Z","tX":544,"tY":347,"tags":{"addr:city":"Mistelgau","addr:housenumber":"1","addr:postcode":"95490","addr:street":"An der Therme","addr:suburb":"Obernsees","capacity":"40","caravans":"yes","charge":"18 EUR","dog":"yes","fee":"yes","internet_access":"wlan","internet_access:fee":"no","name":"Stellplatz Obernsees Therme","note":"Die Plätze 29-36 sind Wohnwagen Gespannen Vorbehalten","operator":"Therme Obernsees","power_supply":"yes","sanitary_dump_station":"yes","toilets":"yes","water_point":"yes","website":"https://www.therme-obernsees.de/kontakt-infos/touristinfo","wheelchair":"yes"}},"134201529":{"location":[49.9310162,11.4202317],"ct":"DE","tp":"CS","ts":"2022-08-17T08:49:41Z","tX":544,"tY":347,"tags":{"addr:city":"Eckersdorf","addr:housenumber":"10","addr:postcode":"95488","addr:street":"Lochau","caravans":"yes","email":"sonnland_bayreuth@gmx.de","name":"Sonnland Bayreuth","naturism":"yes","nudism":"yes","operator":"Sonnland Bayreuth e.V.","phone":"+49 921 9515123","power_supply":"yes","tents":"yes","website":"https://www.sonnland-bayreuth.de/"}},"136395640":{"location":[49.9455294,11.289744],"ct":"DE","tp":"CS","ts":"2021-01-30T00:53:44Z","tX":544,"tY":347,"tags":{"addr:city":"Hollfeld","addr:country":"DE","addr:housenumber":"28","addr:postcode":"96142","addr:street":"Kulmbacher Straße","caravans":"no","email":"kreisjugendring@lra-bt.bayern.de","fax":"+49 921 728 199","fee":"yes","group_only":"yes","name":"Jugendzeltplatz Hollfeld","openfire":"yes","operator":"Kreisjugendring Hollfeld","phone":"+49 921 728 198","reservation":"required","scout":"yes","tents":"yes","website":"https://kjr-bayreuth.de/jugendzeltplatz-hollfeld-0"}},"136979094":{"location":[49.8844522,11.2664374],"ct":"DE","tp":"CR","ts":"2021-05-13T08:55:49Z","tX":544,"tY":347,"tags":{"addr:city":"Aufseß","addr:housenumber":"24","addr:place":"Hochstahl","addr:postcode":"91347","capacity":"38","contact:email":"gasthof@reichold.de","contact:phone":"+49 9204 271","fee":"yes","name":"Brauereigasthof Reichold","operator":"Hilmar Reichold","power_supply":"yes","sanitary_dump_station":"yes","water_point":"yes","website":"https://www.brauerei-reichold.de/wohnmobilstellplaetze","wheelchair":"limited"}},"349598149":{"location":[49.9319119,11.5884022],"ct":"DE","tp":"CS","ts":"2022-07-12T07:51:41Z","tX":544,"tY":347,"tags":{"access":"private","caravans":"no","group_only":"yes","landuse":"grass","name":"Jugendzeltplatz","tents":"yes"}},"409074326":{"location":[49.9774154,11.5604425],"ct":"DE","tp":"CS","ts":"2016-04-09T14:43:58Z","tX":544,"tY":347,"tags":{"landuse":"recreation_ground","name":"Oberfränkischer Indianerzeltplatz"}},"409446644":{"location":[50.0121498,11.4961875],"ct":"DE","tp":"CR","ts":"2016-04-11T08:35:51Z","tX":544,"tY":347,"tags":{}},"409448397":{"location":[49.9473842,11.5767535],"ct":"DE","tp":"CR","ts":"2023-01-07T17:40:45Z","tX":544,"tY":347,"tags":{"access":"yes","capacity":"4","fee":"yes","internet_access":"no","name":"Wohnmobilstellplatz Innenstadt","parking":"surface","toilets":"no","wheelchair":"yes"}},"425001125":{"location":[49.8485539,11.3446545],"ct":"DE","tp":"CR","ts":"2025-01-09T01:14:52Z","tX":544,"tY":347,"tags":{"capacity":"3","caravan_site":"motorhome_stopover","caravan_site:type":"town","fee":"no","maxstay":"1 night","name":"Wohnmobilstellplatz Waischenfeld","operator":"Stadt Waischenfeld","power_supply":"no","sanitary_dump_station":"no","water_point":"no","website":"https://www.fraenkische-schweiz.com/detail/id=6390791ef88035507f185661"}},"479007529":{"location":[49.916406,11.3781665],"ct":"DE","tp":"SD","ts":"2018-09-01T06:49:00Z","tX":544,"tY":347,"tags":{"access":"customers","description":"Sani Service Station","fee":"no","operator":"Therme Obernsees","sanitary_dump_station:basin":"yes","sanitary_dump_station:round_drain":"yes","water_point":"yes"}},"820236907":{"location":[49.9592138,11.2501033],"ct":"DE","tp":"CS","ts":"2023-11-04T18:49:44Z","tX":544,"tY":347,"tags":{"addr:city":"Hollfeld","addr:country":"DE","addr:housenumber":"31","addr:place":"Freienfels","addr:postcode":"96142","caravans":"yes","drinking_water":"yes","email":"info@waldmuehle.net","name":"Campingplatz Waldmühle","phone":"+49 9274 255","power_supply":"yes","shower":"yes","source":"website","tents":"yes","toilets":"yes","website":"https://www.waldmuehle.net/"}},"962242296":{"location":[49.9443852,11.5935927],"ct":"DE","tp":"CR","ts":"2022-01-07T02:37:08Z","tX":544,"tY":347,"tags":{"access":"yes","description":"Wohnmobilstellplatz Grünewaldstraße","fee":"no","parking":"surface"}},"1055034668":{"location":[49.8427533,11.341263],"ct":"DE","tp":"CS","ts":"2022-05-03T19:49:26Z","tX":544,"tY":347,"tags":{"caravans":"no","group_only":"yes","name":"Jugendzeltplatz","operator":"1.Tennisclub Waischenfeld","shower":"yes","tents":"yes","toilets":"yes","website":"http://www.tennisclub-waischenfeld.de/jugendzeltplatz.html"}},"1074326473":{"location":[49.8506566,11.3416515],"ct":"DE","tp":"SD","ts":"2022-06-28T20:31:27Z","tX":544,"tY":347,"tags":{"building":"yes"}},"1178713050":{"location":[49.9000916,11.3301586],"ct":"DE","tp":"PK","ts":"2025-01-09T01:26:24Z","tX":544,"tY":347,"tags":{"access":"customers","motorhome":"yes"}},"1349697106":{"location":[49.9443771,11.5935008],"ct":"DE","tp":"CR","ts":"2025-06-17T17:40:33Z","tX":544,"tY":347,"tags":{"access":"yes","capacity":"26","caravan_site":"motorhome_stopover","caravan_site:type":"town","description:de":"Wohnmobilstellplatz Grünewaldstraße","fee":"no","maxstay":"72 hours","name":"Parkplatz Grünewaldstraße","power_supply":"yes","power_supply:charge":"1 EUR/2 hours","power_supply:fee":"yes","reservation":"no","sanitary_dump_station":"yes","toilets":"no","water_point":"yes","water_point:fee":"yes","website":"https://www.bayreuth-tourismus.de/uebernachten/wohnmobilstellplaetze/#h-parkplatz-grunewaldstrasse"}},"3427562465":{"location":[49.884037,11.2668393],"ct":"DE","tp":"SD","ts":"2018-01-21T14:20:18Z","tX":544,"tY":347,"tags":{"description":"WC-Entsorgungsanlage","sanitary_dump_station:chemical_toilet":"yes","sanitary_dump_station:grey_water":"yes"}},"4042204106":{"location":[50.0274082,11.3967464],"ct":"DE","tp":"CR","ts":"2025-01-09T20:42:25Z","tX":544,"tY":347,"tags":{"capacity":"8","caravan_site":"motorhome_stopover","caravan_site:type":"village","charge":"5 EUR","fee":"yes","name":"Wohnmobilstellplatz „Jägerstraße“ - Thurnau","picnic_table":"yes","power_supply":"yes","sanitary_dump_station":"yes","seasonal":"no","water_point":"yes","website":"https://www.thurnau.de/gastgewerbebetriebe/wohnmobil/"}},"4061484432":{"location":[49.9002546,11.3300775],"ct":"DE","tp":"CR","ts":"2016-03-15T11:37:10Z","tX":544,"tY":347,"tags":{}},"5223940900":{"location":[50.0151839,11.5097092],"ct":"DE","tp":"CR","ts":"2025-01-09T20:37:22Z","tX":544,"tY":347,"tags":{"caravan_site":"motorhome_stopover","caravan_site:type":"village","fee":"no","name":"Wohnmobilstellplatz Neudrossenfeld","note":"temporarily closed due to constructions","payment:coins":"yes","power_supply":"yes","power_supply:capacity":"8","power_supply:charge":"1 EUR/2 KWh","power_supply:fee":"yes","socket:cee_blue":"yes"}},"12921844761":{"location":[49.944421,11.5935605],"ct":"DE","tp":"SD","ts":"2025-06-17T17:40:54Z","tX":544,"tY":347,"tags":{}}}