{"10550160":{"location":[49.77879,11.384557],"ct":"DE","tp":"CS","ts":"2020-01-06T14:01:54Z","tX":544,"tY":348,"tags":{"addr:city":"Pottenstein","addr:housenumber":"1","addr:postcode":"91278","addr:street":"Bärenschlucht","caravans":"yes","email":"info@baerenschlucht-camping.de","fee":"yes","name":"Campingplatz Bärenschlucht","phone":"+49 9243 206","tents":"yes","url":"http://www.baerenschlucht-camping.de","website":"http://www.baerenschlucht-camping.de","wheelchair":"yes"}},"26359712":{"location":[49.7400919,11.3458682],"ct":"DE","tp":"CS","ts":"2024-09-07T16:15:15Z","tX":544,"tY":348,"tags":{"addr:city":"Gößweinstein","addr:housenumber":"10","addr:place":"Allersdorf","addr:postcode":"91327","addr:suburb":"Allersdorf","caravans":"no","drinking_water":"yes","name":"Kormershof","phone":"+49 9242 1041","power_supply":"yes","shower":"yes","tents":"yes","toilets":"yes","website":"http://www.kormershof.de"}},"28939977":{"location":[49.8246597,11.3309117],"ct":"DE","tp":"CS","ts":"2021-08-22T13:17:00Z","tX":544,"tY":348,"tags":{"addr:city":"Waischenfeld","addr:country":"DE","addr:housenumber":"34","addr:place":"Eichenbirkig","addr:postcode":"91344","caravans":"no","name":"Zeltplatz Waldesruh","openfire":"yes","operator":"Erika und Jürgen Schmidt","permanent_camping":"no","phone":"+49 9202 970463","shower":"yes","source":"Yahoo","static_caravans":"no","tents":"yes","toilets":"yes","website":"http://www.zeltplatz-waldesruh.de/"}},"35545068":{"location":[49.7816452,11.3660611],"ct":"DE","tp":"CS","ts":"2023-07-14T18:33:19Z","tX":544,"tY":348,"tags":{"addr:city":"Pottenstein","addr:country":"DE","addr:housenumber":"1a","addr:postcode":"91278","addr:street":"Im Tal","addr:suburb":"Tüchersfeld","name":"Campingplatz Fränkische Schweiz","phone":"+49 9242 1788","website":"http://www.campingplatz-fraenkische-schweiz.info"}},"35545713":{"location":[49.7980285,11.3741884],"ct":"DE","tp":"CS","ts":"2023-11-11T18:42:51Z","tX":544,"tY":348,"tags":{"backcountry":"no","cabins":"no","camp_site":"serviced","caravans":"yes","description":"Anreise ab 14:30, Abreise bis 11:30","drinking_water":"yes","email":"jurahoehe@gmx.de","fee":"yes","internet_access":"wlan","internet_access:fee":"no","motor_vehicle":"yes","name":"Campingplatz Jurahöhe","phone":"+49 9243 9173","power_supply":"yes","quiet_time":"Mo-Su,PH 22:00-07:00","sanitary_dump_station":"yes","shower":"yes","source":"website","tents":"yes","toilets":"yes","waste_disposal":"yes","website":"https://campingplatz-jurahoehe.de","wheelchair":"limited"}},"35546264":{"location":[49.6853717,11.4019578],"ct":"DE","tp":"CS","ts":"2024-05-24T08:19:18Z","tX":544,"tY":348,"tags":{"addr:city":"Betzenstein","addr:housenumber":"69","addr:postcode":"91282","addr:street":"Hauptstraße","name":"Camping Betzenstein","source":"website","tents":"yes","website":"https://camping-betzenstein.com/"}},"35546869":{"location":[49.7805891,11.3090529],"ct":"DE","tp":"CS","ts":"2021-08-22T13:17:00Z","tX":544,"tY":348,"tags":{"caravans":"yes","drinking_water":"yes","fee":"yes","name":"Campingplatz Pfaffenstein","openfire":"yes","opening_hours":"Mar-Sep","phone":"+49 9242 359","shower":"yes","source":"extrapolation","static_caravans":"yes","tents":"yes","toilets":"yes","website":"https://www.zum-pfaffenstein.de/"}},"53081225":{"location":[49.6840351,11.3008498],"ct":"DE","tp":"CS","ts":"2016-07-21T11:09:33Z","tX":544,"tY":348,"tags":{"addr:city":"Obertrubach","addr:country":"DE","addr:housenumber":"43","addr:postcode":"91286","addr:street":"Wolfsberg","capacity":"200","loc_name":"Oma Eichler","name":"Gasthof Eichler Zeltplatz","phone":"+49 9245 383","website":"http://www.gasthof-eichler.de/"}},"222555073":{"location":[49.6809648,11.3882845],"ct":"DE","tp":"CS","ts":"2024-06-21T22:10:53Z","tX":544,"tY":348,"tags":{"caravans":"yes","operator":"Landgasthof Fischer","tents":"yes","website":"https://www.gasthof-pension-fischer.de/home.html"}},"275894238":{"location":[49.8215795,11.340029],"ct":"DE","tp":"CR","ts":"2019-07-28T16:44:34Z","tX":544,"tY":348,"tags":{"fee":"yes","name":"Gut Schönhof","power_supply":"yes","sanitary_dump_station":"yes","water_point":"yes","website":"https://www.gut-schoenhof.de/landgasthof-apartments/wohnmobilstellplaetze.html","wheelchair":"limited"}},"293672199":{"location":[49.7573117,11.2677101],"ct":"DE","tp":"CS","ts":"2022-12-02T16:54:33Z","tX":544,"tY":348,"tags":{"caravans":"no","contact:phone":"+49 9194 4636","contact:website":"http://www.gute-einkehr.de/","landuse":"meadow","name":"Zur guten Einkehr","shower":"yes","tents":"yes","toilets":"yes"}},"360929779":{"location":[49.7630614,11.4085183],"ct":"DE","tp":"CR","ts":"2015-07-16T19:00:18Z","tX":544,"tY":348,"tags":{"name":"Wohnmobilpark Pottenstein"}},"398103489":{"location":[49.7854727,11.4179322],"ct":"DE","tp":"CS","ts":"2022-06-13T12:39:49Z","tX":544,"tY":348,"tags":{"capacity":"80","caravans":"no","email":"info@zeltplatz-haselbrunn.de","group_only":"yes","name":"Kinder- & Jugendzeltplatz Haselbrunn","operator":"Förderverein des 1. Judo-Club Münchberg \"Die Zeltplatzfreunde\"","tents":"yes","toilets":"yes","website":"https://zeltplatz-haselbrunn.de/"}},"415566128":{"location":[49.7730088,11.3745133],"ct":"DE","tp":"CS","ts":"2022-03-20T12:52:02Z","tX":544,"tY":348,"tags":{"group_only":"yes","name":"Zeltplatz der Kolpingsfamilie Münchberg","operator":"Kolpingsfamilie Münchberg","website":"http://kolpingsfamilie-muenchberg.de/7/zeltplatz_in_huehnerloh"}},"511747216":{"location":[49.6179585,11.5135941],"ct":"DE","tp":"CR","ts":"2023-10-31T12:30:22Z","tX":544,"tY":348,"tags":{"email":"tourist-info@velden.de","fee":"no","name":"Stellplatz Velden - Toni-Wolf-Platz","phone":"+49 9152 7195","website":"https://www.velden.de/"}},"611458724":{"location":[49.7695548,11.4930809],"ct":"DE","tp":"CS","ts":"2024-09-11T07:17:06Z","tX":544,"tY":348,"tags":{"caravans":"no","contact:website":"https://www.dpb-landesheimfranken.de/","group_only":"yes","name":"Zeltplatz Deutscher Pfadfinderbund","scout":"yes","tents":"yes"}},"611782750":{"location":[49.7688213,11.4916799],"ct":"DE","tp":"CS","ts":"2024-09-11T07:17:06Z","tX":544,"tY":348,"tags":{"caravans":"no","contact:website":"https://www.dpb-landesheimfranken.de/","group_only":"yes","name":"Zeltplatz Deutscher Pfadfinderbund","scout":"yes","tents":"yes"}},"667217832":{"location":[49.745531,11.4268914],"ct":"DE","tp":"CS","ts":"2023-06-09T09:01:15Z","tX":544,"tY":348,"tags":{"caravans":"no","group_only":"yes","name":"Jugendzeltplatz Altenhof","operator":"Stadt Pottenstein","phone":"+49 9243 70841","tents":"yes","website":"https://www.pottenstein.de/"}},"761226208":{"location":[49.7817986,11.3853311],"ct":"DE","tp":"CS","ts":"2024-06-10T12:01:57Z","tX":544,"tY":348,"tags":{"caravans":"no","group_only":"yes","name":"Jugendzeltplatz Scholz Weidmannsgesees","phone":"+49 9243 1631","tents":"yes","website":"https://www.landkreis-bayreuth.de/familie-freizeit/freizeit/zelten-und-campen/jugendzeltplatz-scholz-weidmannsgesees/"}},"1071934596":{"location":[49.779754,11.4440225],"ct":"DE","tp":"CR","ts":"2025-05-31T21:14:34Z","tX":544,"tY":348,"tags":{"addr:city":"Pottenstein","addr:country":"DE","addr:housenumber":"1","addr:postcode":"91278","addr:street":"Prüllsbirkig","addr:suburb":"Prüllsbirkig","ele":"453","email":"info@berner-hof.de","fee":"yes","name":"Wohnmobilstellplatz Berner-Hof","phone":"+49 9243 1810","website":"http://berner-hof.de"}},"1349213649":{"location":[49.7692422,11.3397547],"ct":"DE","tp":"CR","ts":"2025-01-07T13:22:33Z","tX":544,"tY":348,"tags":{"capacity":"8","caravan_site":"motorhome_stopover","caravan_site:type":"parking_lot;town","charge":"13 EUR","fee":"yes","name":"Wohnmobilstellplatz Gößweinstein Friedhof","operator":"Markt Gößweinstein","phone":"+49 9242 456","power_supply":"no","sanitary_dump_station":"no","toilets":"no","water_point":"yes","website":"https://www.fraenkische-schweiz.com/de/gastgeber/detail/599ae6eb975a7c73da1dd5fa"}},"1907346796":{"location":[49.8226583,11.3603561],"ct":"DE","tp":"CR","ts":"2018-06-13T13:21:46Z","tX":544,"tY":348,"tags":{"name":"Fuchshof"}},"7920959437":{"location":[49.7691932,11.3397825],"ct":"DE","tp":"CR","ts":"2023-09-22T10:00:38Z","tX":544,"tY":348,"tags":{"capacity":"8","charge":"10.00 EUR/day","fee":"yes","name":"Wohnmobilstellplatz am Friedhof","operator":"Markt Gößweinstein","phone":"+49 9242 456","power_supply":"no","sanitary_dump_station":"no","toilets":"no","water_point":"no","website":"https://www.fraenkische-schweiz.com/de/gastgeber/detail/599ae6eb975a7c73da1dd5fa"}},"7920959438":{"location":[49.7682603,11.3331371],"ct":"DE","tp":"CR","ts":"2025-01-07T13:22:33Z","tX":544,"tY":348,"tags":{"caravan_site":"motorhome_stopover","caravan_site:type":"parking_lot","fee":"yes","name":"Wohnmobilstellplatz Pezoldstraße - Gößweinstein","power_supply":"no","ref":"P7","sanitary_dump_station":"no","water_point":"no"}},"5005052740":{"location":[49.6179934,11.5135565],"ct":"DE","tp":"SD","ts":"2017-07-31T12:42:23Z","tX":544,"tY":348,"tags":{"sanitary_dump_station:chemical_toilet":"yes","sanitary_dump_station:fee":"no","sanitary_dump_station:gravity":"yes","sanitary_dump_station:grey_water":"yes","sanitary_dump_station:suction":"no"}},"12096757669":{"location":[49.7690498,11.3391685],"ct":"DE","tp":"SD","ts":"2025-01-07T13:22:33Z","tX":544,"tY":348,"tags":{"access":"yes"}}}