{"7391266":{"location":[49.518152,11.4930962],"ct":"DE","tp":"CS","ts":"2023-07-13T16:02:46Z","tX":544,"tY":349,"tags":{"access":"no","access:note":"Dauerhaft geschlossen","addr:city":"Pommelsbrunn","addr:housenumber":"4","addr:postcode":"91224","addr:street":"Eschenbacher Weg","caravans":"yes","contact:email":"camping.mueller@t-online.de","contact:fax":"+49 9154 91200","contact:phone":"+49 9154 1500","fee":"yes","name":"Pegnitz-Camping","operator":"Familie Müller","permanent_camping":"only","postal_code":"91224","shower":"yes","tents":"yes","toilets":"yes"}},"11740422":{"location":[49.4424501,11.3032701],"ct":"DE","tp":"CS","ts":"2020-10-10T13:40:54Z","tX":544,"tY":349,"tags":{"addr:city":"Leinburg","addr:postcode":"91227","caravans":"yes","name":"Campingplatz Heiligenmühle","phone":"+49 9120 222","shower":"yes","tents":"yes","toilets":"yes","website":"http://www.campingplatz-heiligenmühle.de/"}},"25382324":{"location":[49.5899488,11.2679146],"ct":"DE","tp":"CS","ts":"2023-08-06T07:37:09Z","tX":544,"tY":349,"tags":{"caravans":"yes","drinking_water":"yes","email":"penning@camping-bergesruh.de","name":"Campingplatz Bergesruh","phone":"+49 9126 8956","power_supply":"yes","shower":"yes","tents":"yes","toilets":"yes","website":"https://www.camping-bergesruh.de/"}},"31571985":{"location":[49.5243432,11.5813729],"ct":"DE","tp":"CS","ts":"2024-12-26T09:51:17Z","tX":544,"tY":349,"tags":{"addr:city":"Etzelwang","addr:country":"DE","addr:housenumber":"5","addr:postcode":"92268","addr:street":"Nürnberger Straße","caravans":"yes","email":"frankenalb-camping@web.de","name":"Frankenalb-Camping Etzelwang","phone":"+49 9663 91900","tents":"yes","website":"http://frankenalb-camping.de"}},"32387474":{"location":[49.5111938,11.4424613],"ct":"DE","tp":"CR","ts":"2022-12-17T18:40:24Z","tX":544,"tY":349,"tags":{"capacity":"6","fee":"yes","internet_access":"no","name":"Fackelmann-Therme","power_supply":"yes","sanitary_dump_station":"yes","toilets":"no","water_point":"yes","website":"https://www.fackelmanntherme.de/touristinfo/wohnmobilstellplatz/"}},"47982854":{"location":[49.4743189,11.2987405],"ct":"DE","tp":"CS","ts":"2023-10-26T18:09:09Z","tX":544,"tY":349,"tags":{"addr:city":"Röthenbach a.d.Pegnitz","addr:country":"DE","addr:housenumber":"24","addr:postcode":"90552","addr:street":"Friedrich-von-Fürer-Straße","name":"Camping Haimendorf","phone":"+49 9120 9226","wikidata":"Q123196181"}},"136096650":{"location":[49.4266503,11.3647079],"ct":"DE","tp":"CS","ts":"2023-05-19T08:22:29Z","tX":544,"tY":349,"tags":{"access":"private","name":"Campingplatz \"Märchendorf\"","website":"https://campingfreunde-mittelfranken.de/"}},"294822115":{"location":[49.6026056,11.2809351],"ct":"DE","tp":"CS","ts":"2018-08-08T20:37:42Z","tX":544,"tY":349,"tags":{"name":"Campingplatz des Segelflug Club Lauf e.V.","note":"Der Campingplatz ist nur für Mitglieder. Es ist mir unklar wie dies korrekt getaggt werden kann.","website":"https://www.sfc-lauf.de"}},"427459293":{"location":[49.5089454,11.283325],"ct":"DE","tp":"CR","ts":"2024-04-09T13:22:05Z","tX":544,"tY":349,"tags":{"addr:city":"Lauf a.d.Pegnitz","addr:postcode":"91207","capacity":"4","charge":"6 EUR/day","drinking_water":"yes","fee":"yes","name":"Pegnitzwiesen","power_supply":"yes","sanitary_dump_station":"yes","toilets":"yes"}},"761300026":{"location":[49.4705704,11.4397119],"ct":"DE","tp":"CS","ts":"2020-10-10T13:42:47Z","tX":544,"tY":349,"tags":{"caravans":"no","fee":"yes","group_only":"yes","name":"Jugendzeltplatz Edelweißhütte","shower":"yes","tents":"yes","toilets":"yes","website":"https://www.die-edelweisshuette.de/de/unsere-einrichtung/der-zeltplatz.html"}},"2161078968":{"location":[49.5088308,11.2834092],"ct":"DE","tp":"SD","ts":"2024-01-07T07:43:13Z","tX":544,"tY":349,"tags":{"fee":"no","sanitary_dump_station:accepted":"black_water;tank_chemicals"}},"12075480350":{"location":[49.5516592,11.5230784],"ct":"DE","tp":"CS","ts":"2024-07-26T14:58:28Z","tX":544,"tY":349,"tags":{"name":"Zeltplatz Freibad","website":"https://www.freibad-hirschbach.de/zeltplatz.html"}},"11144445421":{"location":[49.5848796,11.4100615],"ct":"DE","tp":"CR","ts":"2023-08-25T17:39:35Z","tX":544,"tY":349,"tags":{"addr:city":"Kirchensittenbach","addr:country":"DE","addr:housenumber":"1","addr:place":"Obermühle","addr:postcode":"91241","name":"Gut Obermühle","operator":"Alexander Schalber-Müller","phone":"+49 9151 9052650","source":"https://www.gutobermuehle.de/","website":"https://www.gutobermuehle.de/"}}}