{"30969514":{"location":[49.1799076,11.5362193],"ct":"DE","tp":"CS","ts":"2024-09-12T16:34:16Z","tX":544,"tY":350,"tags":{"addr:city":"Deining","addr:country":"DE","addr:housenumber":"1","addr:place":"Sippelmühle","addr:postcode":"92364","caravans":"yes","dog":"leashed","email":"camping@sippelmuehle.de","fax":"+49 9184 1627","fee":"yes","internet_access":"wlan","name":"Campingplatz Sippelmühle","phone":"+49 9184 1646","power_supply":"yes","sanitary_dump_station":"yes","shower":"hot","static_caravans":"yes","tents":"yes","toilets":"yes","website":"https://www.sippelmuehle.de/"}},"31312121":{"location":[49.2016788,11.427521],"ct":"DE","tp":"CS","ts":"2020-05-01T11:14:32Z","tX":544,"tY":350,"tags":{"addr:city":"Sengenthal","addr:housenumber":"4","addr:postcode":"92369","addr:street":"Dietlhof","caravans":"yes","name":"Campingplatz Dietlhof","tents":"yes","website":"https://campingplatz-dietlhof.jimdofree.com/"}},"57019200":{"location":[49.2360649,11.4513866],"ct":"DE","tp":"CS","ts":"2024-09-22T13:54:00Z","tX":544,"tY":350,"tags":{"name":"Ölkuchenmühle","phone":"09181/6545"}},"57375759":{"location":[49.3301528,11.4283637],"ct":"DE","tp":"CS","ts":"2023-11-04T17:27:13Z","tX":544,"tY":350,"tags":{"addr:city":"Berg b.Neumarkt i.d.OPf.","addr:housenumber":"31","addr:postcode":"92348","addr:street":"Hausheimer Straße","backcountry":"no","cabins":"no","caravans":"yes","contact:phone":"+49 9189 158","contact:website":"https://www.camping-in-berg.de/","dog":"yes","fee":"yes","group_only":"no","motor_vehicle":"yes","name":"Camping in Berg","opening_hours":"24/7","opening_hours:reception":"07:00-22:00","permanent_camping":"yes","power_supply":"yes","sanitary_dump_station":"yes","shower":"hot","stars":"4","swimming_pool":"no","tents":"yes","toilets":"yes","washing_machine":"yes"}},"408443268":{"location":[49.3069447,11.4839564],"ct":"DE","tp":"CR","ts":"2024-09-16T07:18:00Z","tX":544,"tY":350,"tags":{"addr:city":"Neumarkt in der Oberpfalz","addr:country":"DE","addr:postcode":"92318","addr:street":"Fritz-Berger-Straße","capacity":"14","caravans":"no","dog":"yes","fee":"no","name":"Stellplatz Fritz Berger","note":"Zu und Abfahrt nur während der Geschäftszeiten möglich","operator":"Fritz Berger Megastore","power_supply":"yes","sanitary_dump_station":"yes","tents":"no"}},"473406052":{"location":[49.1979658,11.4187158],"ct":"DE","tp":"CS","ts":"2023-07-10T08:06:59Z","tX":544,"tY":350,"tags":{"addr:city":"Mühlhausen","addr:country":"DE","addr:housenumber":"4","addr:postcode":"92360","addr:street":"Zur Richt","addr:suburb":"Rocksdorf","caravans":"yes","name":"Campingplatz Rocksdorf","phone":"+49 9185-330","tents":"yes"}},"1269097998":{"location":[49.1972199,11.3276183],"ct":"DE","tp":"CR","ts":"2024-04-04T16:47:19Z","tX":544,"tY":350,"tags":{"capacity":"12","caravan_site":"motorhome_stopover","caravan_site:type":"village","fee":"no","name":"Stellplatz am Festplatz Freystadt","power_supply":"yes","sanitary_dump_station":"yes","shower":"no","toilets":"no","water_point":"yes"}},"1355174629":{"location":[49.3798138,11.3569179],"ct":"DE","tp":"CR","ts":"2025-01-29T13:44:16Z","tX":544,"tY":350,"tags":{"addr:city":"Altdorf b. Nürnberg","addr:postcode":"90518","addr:street":"Weidentalstraße","capacity":"4","caravan_site":"motorhome_stopover","caravan_site:type":"sports_centre;town","charge":"10 EUR/24 hours","fee":"yes","maxstay":"3 days","name":"Wohnmobilstellplatz Altdorf","opening_hours":"24/7","operator":"Stadt Altdorf","power_supply":"yes","power_supply:fee":"no","sanitary_dump_station":"yes","seasonal":"no","surface":"asphalt","water_point":"yes","water_point:fee":"no","website":"http://www.altdorf.de/seite/de/stadt/079:4021/c_5/Wohnmobil-Stellplatz.html"}},"1798166134":{"location":[49.2727796,11.4842464],"ct":"DE","tp":"CS","ts":"2024-09-16T07:18:00Z","tX":544,"tY":350,"tags":{"access":"customers","addr:city":"Neumarkt in der Oberpfalz","addr:country":"DE","addr:postcode":"92318","addr:street":"Am Höhenberg","caravans":"no","group_only":"yes","name":"Pfadfinderzentrum Neumarkt i.d.OPf.","operator":"DPSG Neumarkt i.d.OPf.","scout":"yes","static_caravans":"no","tents":"yes","website":"http://www.zeltplatz-neumarkt.de/"}},"4076444847":{"location":[49.3798802,11.3567911],"ct":"DE","tp":"CR","ts":"2023-05-22T17:44:51Z","tX":544,"tY":350,"tags":{"addr:city":"Altdorf b. Nürnberg","addr:postcode":"90518","addr:street":"Weidentalstraße","capacity":"8","charge":"10€   - 24Std","description":"4 Plätze für Wohnmobile","fee":"yes","name":"Altdorf","operator":"Stadt Altdorf","power_supply":"yes","sanitary_dump_station":"yes","website":"http://www.altdorf.de/seite/de/stadt/079:4021/c_5/Wohnmobil-Stellplatz.html"}},"7098207988":{"location":[49.2816058,11.4439206],"ct":"DE","tp":"CR","ts":"2024-09-16T07:21:09Z","tX":544,"tY":350,"tags":{"addr:city":"Neumarkt in der Oberpfalz","addr:country":"DE","addr:postcode":"92318","addr:street":"Volksfestplatz","cabins":"no","capacity:caravans":"30","caravans":"yes","dog":"yes","fee":"no","internet_access":"no","name":"Wohnmobil-Hafen Neumarkt","opening_hours":"24/7","permanent_camping":"no","power_supply":"no","sanitary_dump_station":"no","static_caravans":"no","toilets":"no"}},"5306890509":{"location":[49.3066127,11.48349],"ct":"DE","tp":"SD","ts":"2017-12-27T18:33:43Z","tX":544,"tY":350,"tags":{"access":"customers","fee":"no","operator":"Fritz Berger","water_point":"yes"}}}