{"28966893":{"location":[49.1100177,11.4386773],"ct":"DE","tp":"CR","ts":"2025-01-11T15:36:21Z","tX":544,"tY":351,"tags":{"addr:city":"Berching","addr:country":"DE","addr:housenumber":"3","addr:postcode":"92334","addr:street":"Uferpromenade","alt_name":"Wohnmobilstellplatz an der Schiffsanlegestelle Berching","capacity":"31","charge":"7 EUR","dog":"yes","fee":"yes","internet_access":"wlan","internet_access:fee":"no","name":"Wohnmobilstellplatz Berching","note":"Gebühr für Wohnmobile 1 Nacht 7€ - 2 Nächte 14€ 3 Nächte 18€ - Bezahlung am Automat - Entsorgungsstation über die Straße am Festplatz","opening_hours:sanitary_dump_station":"May-Oct","phone":"+498462 20513","power_supply":"yes","power_supply:charge":"1 EUR/1KWh","power_supply:fee":"yes","reservation":"no","sanitary_dump_station":"yes","water_point":"yes","water_point:charge":"1 EUR/100 liter","water_point:fee":"yes","website":"https://www.berching.de/poi/wohnmobilstellplatz_an_der_sch-89/"}},"28980700":{"location":[49.0257921,11.4696005],"ct":"DE","tp":"CS","ts":"2024-12-09T23:16:04Z","tX":544,"tY":351,"tags":{"cabins":"yes","caravans":"yes","dryer":"yes","landuse":"recreation_ground","name":"Naturama","operator":"mt marketing GmbH","power_supply":"yes","static_caravans":"yes","tents":"yes","toilets:wheelchair":"no","washing_machine":"yes","website":"http://naturama-beilngries.de","wheelchair":"limited"}},"29906983":{"location":[48.9476035,11.3869985],"ct":"DE","tp":"CS","ts":"2025-02-21T10:01:30Z","tX":544,"tY":351,"tags":{"addr:city":"Kipfenberg","addr:housenumber":"1","addr:postcode":"85110","addr:street":"Campingstraße","cabins":"yes","caravans":"yes","drinking_water":"yes","internet_access":"wlan","name":"Azur Camping Altmühltal","phone":"+49 711 4093-510","power_supply":"yes","sanitary_dump_station":"yes","shower":"yes","tents":"yes","toilets":"yes","website":"https://www.azur-camping.com/camp/Camp-Altmuehltal"}},"35535434":{"location":[49.0041648,11.4527661],"ct":"DE","tp":"CS","ts":"2024-05-25T05:13:18Z","tX":544,"tY":351,"tags":{"addr:city":"Kinding","addr:country":"DE","addr:housenumber":"2","addr:postcode":"85125","addr:street":"Mühlweg","caravans":"yes","description":"AB- UND ANREISE Campingplatz: Abreise bis 11:00 Uhr, Anreise ab 11:00 Uhr Ferienhäuser: Abreise bis 10:00 Uhr, Anreise ab 16:00 Uhr PLATZRUHE Jeweils von 13:00 Uhr bis 15:00 Uhr Nachtruhe von 22:00 Uhr bis 7:00 Uhr","email":"info@kratzmuehle.de","fax":"+498461641717","name":"Kratzmühle","operator":"J. B. Prinstner GmbH & Co.KG, Bräuhausstraße 36, 92339 Beilngries","phone":"+49 8461 64 17 0","sanitary_dump_station":"yes","shower":"yes","stars":"4","tents":"yes","website":"https://www.kratzmuehle.de"}},"35535573":{"location":[49.0406425,11.349254],"ct":"DE","tp":"CS","ts":"2024-04-26T17:33:57Z","tX":544,"tY":351,"tags":{"addr:city":"Greding","addr:country":"DE","addr:housenumber":"1","addr:postcode":"91171","addr:street":"Kraftsbucher Straße","caravans":"yes","name":"Bauer-Keller","phone":"+49 8463 64000","shower":"yes","tents":"yes","toilets":"yes","website":"https://www.hotel-bauer-keller.de/"}},"36685749":{"location":[49.151829,11.3143118],"ct":"DE","tp":"CS","ts":"2025-02-24T14:30:24Z","tX":544,"tY":351,"tags":{"addr:city":"Hilpoltstein","addr:country":"DE","addr:housenumber":"4","addr:place":"Kauerlach","addr:postcode":"91161","caravans":"yes","dog":"yes","email":"naturcampkauerlach@online.de","fax":"+49 9179 965096","name":"Campingplatz Kauerlach","phone":"+49 9179 965091","power_supply":"yes","source":"website","tents":"yes","toilets:wheelchair":"no","website":"https://www.naturcamp-kauerlach.de/","wheelchair":"yes"}},"228459675":{"location":[48.9808387,11.3860687],"ct":"DE","tp":"CS","ts":"2024-12-09T23:16:04Z","tX":544,"tY":351,"tags":{"backcountry":"yes","caravans":"no","maxstay":"2 nights","name":"Bootsrastplatz Ilbling","openfire":"yes","opening_hours":"May-Oct; Nov-Apr: Off","phone":"+49 8421 987 60","shower":"no","tents":"yes","toilets":"yes","website":"https://www.naturpark-altmuehltal.de/camping-wohnmobil/bootsrastplatz_ilbling-2225/"}},"228459933":{"location":[48.9996361,11.3879513],"ct":"DE","tp":"CS","ts":"2024-12-09T23:16:04Z","tX":544,"tY":351,"tags":{"backcountry":"yes","caravans":"no","drinking_water":"no","maxstay":"2 nights","name":"Bootsrastplatz Kinding","openfire":"yes","opening_hours":"May-Oct; Nov-Apr: Off","phone":"+49 8421 987 60","power_supply":"no","shower":"no","tents":"yes","toilets":"yes","website":"https://www.naturpark-altmuehltal.de/camping-wohnmobil/bootsrastplatz_kinding-2223/"}},"353902517":{"location":[49.0275163,11.5823436],"ct":"DE","tp":"CR","ts":"2024-11-02T20:26:18Z","tX":544,"tY":351,"tags":{"addr:city":"Dietfurt","addr:postcode":"92345","addr:street":"Schiffsanlegestelle","fee":"no","internet_access":"no","name":"Reisemobilstellplatz Dietfurt","note":"Trinkwasser und Toilettenentsorgung an der Kläranlage ca. 1 km entfernt","power_supply":"no","sanitary_dump_station":"no","website":"https://www.dietfurt.de/poi/wohnmobilstellplatz_an_der_sch-993/"}},"405713290":{"location":[49.132279,11.4458765],"ct":"DE","tp":"CS","ts":"2024-04-27T15:23:18Z","tX":544,"tY":351,"tags":{"addr:city":"Berching","addr:country":"DE","addr:postcode":"92334","addr:street":"Breitenfurt A 13","contact:phone":"+49 8462 205-0","description":"Grill- und Zeltplatz der Stadt Berching mit Sanitärgebäude. Anmeldung für Nutzung unter: https://www.berching.de/freizeit/grill-_und_zeltplatz_berching-30333/","group_only":"yes","image":"https://www.berching.de/freizeit/grill-_und_zeltplatz_berching-30333/","name":"Grill- und Zeltplatz der Stadt Berching","operator":"Stadt Berching","phone":"+49 8462 2050","reservation":"required","tents":"yes","website":"https://www.berching.de/freizeit/grill-_und_zeltplatz_berching-30333/","wheelchair":"yes"}},"4152075848":{"location":[49.0356361,11.5455461],"ct":"DE","tp":"CS","ts":"2023-11-06T17:16:39Z","tX":544,"tY":351,"tags":{"addr:housenumber":"11","addr:street":"Ottmaring","cabins":"yes","capacity:caravans":"25","capacity:tents":"20","caravans":"yes","email":"kosack@camping-ottmaring.de","internet_access":"wlan","name":"7 Täler Campingplatz","opening_hours":"Mar 31 - Oct 15","phone":"+498464605212","shower":"yes","tents":"yes","toilets":"yes","website":"https://www.camping-ottmaring.de/"}},"4885761942":{"location":[49.0033431,11.4525725],"ct":"DE","tp":"SD","ts":"2017-05-30T14:42:33Z","tX":544,"tY":351,"tags":{"access":"customers","sanitary_dump_station:chemical_toilet":"yes","sanitary_dump_station:fee":"no","sanitary_dump_station:gravity":"no","sanitary_dump_station:grey_water":"no","sanitary_dump_station:suction":"no"}},"4885761945":{"location":[49.0042853,11.4524598],"ct":"DE","tp":"SD","ts":"2021-09-10T08:03:54Z","tX":544,"tY":351,"tags":{"access":"yes","charge":"2 EUR","fee":"yes","payment:coins":"yes","sanitary_dump_station:fee":"yes","sanitary_dump_station:grey_water":"yes"}},"7726925168":{"location":[49.1107892,11.4396956],"ct":"DE","tp":"SD","ts":"2020-07-18T17:30:34Z","tX":544,"tY":351,"tags":{"description":"Entsorgungsstation mit Frischwasser Versorgung - 1€ ca 4 Minuten etwa 100 ltr.","name":"ST - san"}},"9078714788":{"location":[49.0043165,11.4524706],"ct":"DE","tp":"SD","ts":"2021-09-10T08:03:54Z","tX":544,"tY":351,"tags":{"access":"yes","fee":"no","sanitary_dump_station:gravity":"yes"}}}