{"15962349":{"location":[48.1880778,11.2980066],"ct":"DE","tp":"CS","ts":"2023-09-07T14:48:41Z","tX":544,"tY":355,"tags":{"addr:city":"Emmering","addr:country":"DE","addr:housenumber":"18","addr:postcode":"82275","addr:street":"Siedlerstraße","name":"Freie Sportgemeinschaft Amperland e. V.","nudism":"yes","website":"https://www.fsamperland.de/"}},"26973679":{"location":[48.198613,11.4103276],"ct":"DE","tp":"CS","ts":"2022-10-21T18:49:32Z","tX":544,"tY":355,"tags":{"caravans":"yes","fee":"yes","name":"Campingplatz Langwieder See","opening_hours":"24/7","reservation":"no","shower":"yes","tents":"yes","toilets":"yes","washing_machine":"yes","website":"http://www.camping-langwieder-see.de/"}},"33510742":{"location":[48.1741742,11.446298],"ct":"DE","tp":"CS","ts":"2024-10-15T09:35:20Z","tX":544,"tY":355,"tags":{"addr:city":"München","addr:country":"DE","addr:housenumber":"59","addr:postcode":"81247","addr:street":"Lochhausener Straße","name":"Campingplatz Obermenzing","toilets:wheelchair":"yes","website":"https://www.campingplatz-muenchen.de/","wheelchair":"yes"}},"35630848":{"location":[48.0926355,11.5453705],"ct":"DE","tp":"CS","ts":"2024-08-31T16:37:45Z","tX":544,"tY":355,"tags":{"addr:city":"München","addr:housenumber":"49","addr:postcode":"81379","addr:street":"Zentralländstraße","caravans":"yes","contact:email":"info@campingmuenchen.de","contact:phone":"+49 89 7231707","contact:website":"https://campingplatz-thalkirchen.de/","drinking_water":"yes","name":"Campingplatz Thalkirchen","power_supply":"yes","sanitary_dump_station":"yes","shower":"yes","tents":"yes","toilets":"yes"}},"46962320":{"location":[48.2219951,11.2575384],"ct":"DE","tp":"CR","ts":"2024-08-02T16:27:26Z","tX":544,"tY":355,"tags":{"addr:city":"Maisach","addr:postcode":"82216","addr:street":"Badweg","caravans":"no","drinking_water":"no","fee":"no","internet_access":"no","maxstay":"3 day","name":"Wohnmobilstellplatz Freibad","power_supply":"no","sanitary_dump_station":"no","surface":"grass_paver","tents":"no","toilets":"yes","wheelchair":"limited"}},"88908484":{"location":[48.191316,11.491632],"ct":"DE","tp":"CR","ts":"2024-08-26T15:46:13Z","tX":544,"tY":355,"tags":{"addr:city":"München","addr:housenumber":"33","addr:postcode":"80997","addr:street":"Am Neubruch","caravans":"yes","dog":"yes","fee":"yes","internet_access":"yes","internet_access:fee":"customers","lit":"yes","motorhome":"yes","name":"Wohnwagenstellplatz am Neubruch","operator":"Madhouse gemeinnützige GmbH","phone":"+49 89 28803473","power_supply":"yes","reservation":"yes","sanitary_dump_station":"yes","shower":"yes","tents":"no","toilets":"yes","toilets:wheelchair":"yes","website":"https://www.camping-munich.com/","wheelchair":"yes"}},"108935612":{"location":[48.1990686,11.4962714],"ct":"DE","tp":"CS","ts":"2023-04-15T16:14:45Z","tX":544,"tY":355,"tags":{"addr:city":"München","addr:housenumber":"3","addr:postcode":"80995","addr:street":"Auf den Schrederwiesen","caravans":"yes","fee":"yes","name":"Campingplatz Nord-West","opening_hours":"24/7","operator":"Hans Merkl Gastronomie GmbH","phone":"+49 89 1506936","shower":"yes","tents":"yes","toilets":"yes","website":"https://campingplatz-nord-west.de/"}},"2411422644":{"location":[48.2070661,11.322257],"ct":"DE","tp":"CR","ts":"2019-03-01T09:42:53Z","tX":544,"tY":355,"tags":{"capacity":"4","name":"Wohnmobilstellplatz Olching"}},"2812576002":{"location":[48.1684134,11.5021082],"ct":"DE","tp":"CS","ts":"2023-09-09T21:23:11Z","tX":544,"tY":355,"tags":{"addr:housenumber":"30","addr:street":"In den Kirschen","caravans":"no","drinking_water":"yes","fee":"yes","internet_access":"wlan","internet_access:fee":"no","name":"The Tent","opening_hours":"2022 Jun 01-2022 Oct 04: Mo-Su,PH 00:00-24:00","phone":"+49 89 1414300","power_supply":"yes","shower":"yes","tents":"yes","toilets":"yes","toilets:wheelchair":"limited","website":"https://www.the-tent.com/camping","wheelchair":"limited"}}}