{"27863667":{"location":[47.9083038,11.418283],"ct":"DE","tp":"CS","ts":"2024-05-02T10:43:55Z","tX":544,"tY":356,"tags":{"addr:city":"Wolfratshausen","addr:country":"DE","addr:housenumber":"2","addr:postcode":"82515","addr:street":"Badstraße","area":"yes","caravans":"yes","dog":"yes","email":"contact@campingbayern.de","fax":"+49 8171 910226","name":"Campingplatz Wolfratshausen","phone":"+49 8171 78795","power_supply":"yes","tents":"yes","website":"http://www.campingbayern.de/"}},"35428485":{"location":[47.8204552,11.3235962],"ct":"DE","tp":"CS","ts":"2022-12-19T00:33:06Z","tX":544,"tY":356,"tags":{"addr:city":"Seeshaupt","addr:country":"DE","addr:housenumber":"127","addr:postcode":"82402","addr:street":"St. Heinricher Straße","cabins":"yes","caravans":"yes","dog":"yes","dryer":"yes","email":"info@camping-seeshaupt.com","fax":"+49 8801 911807","internet_access":"wlan","name":"Campingplatz Seeshaupt","permanent_camping":"yes","phone":"+49 8801 1528","power_supply":"yes","shower":"yes","tents":"yes","toilets":"yes","washing_machine":"yes","website":"https://camping-seeshaupt.com/","wheelchair":"limited"}},"38094416":{"location":[47.7646621,11.3479611],"ct":"DE","tp":"CS","ts":"2021-08-07T21:36:42Z","tX":544,"tY":356,"tags":{"caravans":"yes","name":"Campingplatz Huber See","operator":"Stadt Penzberg","permanent_camping":"only","phone":"+49 8856 598","tents":"no"}},"38269509":{"location":[47.8386168,11.4685417],"ct":"DE","tp":"CS","ts":"2019-08-18T12:29:29Z","tX":544,"tY":356,"tags":{"addr:city":"Königsdorf","addr:housenumber":"8","addr:postcode":"82549","addr:street":"Zum Lindenrain","caravans":"yes","email":"mail@camping-koenigsdorf.de","fax":"+49 8171 81165","name":"Campingplatz Königsdorf","phone":"+49 8171 81580","power_supply":"yes","tents":"yes","website":"https://www.camping-koenigsdorf.de/"}},"38300952":{"location":[47.8543543,11.3384165],"ct":"DE","tp":"CS","ts":"2022-12-19T00:33:06Z","tX":544,"tY":356,"tags":{"caravans":"yes","dog":"yes","motorhome":"yes","name":"Camping Ambach am See","operator":"Dürr-Betriebs-UG; Henning Dürr","sanitary_dump_station":"yes","shower":"yes","start_date":"2019-06-01","tents":"yes","toilets":"yes","website":"https://www.camping-ambach.de/"}},"38301271":{"location":[47.8268803,11.3397271],"ct":"DE","tp":"CS","ts":"2024-06-25T06:14:34Z","tX":544,"tY":356,"tags":{"addr:city":"Münsing","addr:country":"DE","addr:housenumber":"10","addr:postcode":"82541","addr:street":"Buchscharnstraße","addr:suburb":"Sankt Heinrich","caravans":"yes","dog":"yes","motorhome":"yes","name":"Camping beim Fischer","permanent_camping":"yes","phone":"+49 8801 802","shower":"yes","tents":"yes","toilets":"yes","washing_machine":"yes","website":"http://www.camping-beim-fischer.de/"}},"38560889":{"location":[47.7846087,11.3641658],"ct":"DE","tp":"CS","ts":"2021-03-21T20:35:58Z","tX":544,"tY":356,"tags":{"access":"permissive","caravans":"no","group_only":"yes","name":"Jugendzeltplatz Eizenberger Weiher","operator":"Stadt Penzberg","phone":"+49 8856 813 0","scout":"yes","tents":"yes","website":"https://penzberg.de/stadtleben/kinder-jugend/jugendzeltplatz/"}},"90967004":{"location":[47.7631433,11.5500674],"ct":"DE","tp":"CR","ts":"2024-03-26T17:06:29Z","tX":544,"tY":356,"tags":{"addr:city":"Bad Tölz","addr:country":"DE","addr:postcode":"83646","addr:street":"Bürgermeister-Stollreither-Promenade","capacity":"30","fee":"yes","internet_access":"no","maxstay":"48 hours","name":"Wohnmobilstellplatz Bad Tölz","operator":"Stadt Bad Tölz","power_supply":"no","sanitary_dump_station":"yes","source":"survey","tents":"no","toilets":"yes","water_point":"yes","website":"https://www.bad-toelz.de/de/uebernachten/unterkunfte.html","wheelchair":"yes"}},"157270411":{"location":[47.7815761,11.316071],"ct":"DE","tp":"CS","ts":"2024-08-26T07:58:08Z","tX":544,"tY":356,"tags":{"caravans":"yes","email":"info@campingplatz-fohnsee.de","fax":"+49 8856 9936","name":"Campingplatz Fohnsee","phone":"+49 8856 7874","power_supply":"yes","tents":"yes","website":"https://www.campingplatz-fohnsee.de/"}},"319250905":{"location":[47.7783648,11.3161895],"ct":"DE","tp":"CS","ts":"2020-09-23T21:58:54Z","tX":544,"tY":356,"tags":{"caravans":"yes","email":"info@campingplatz-fohnsee.de","fax":"+49 8856 9936","name":"Campingplatz Fohnsee 2","phone":"+49 8856 7874","power_supply":"yes","tents":"yes","website":"https://www.campingplatz-fohnsee.de/"}},"448356399":{"location":[47.7628139,11.5506249],"ct":"DE","tp":"SD","ts":"2019-03-03T12:39:14Z","tX":544,"tY":356,"tags":{"access":"customers","description":"Entsorgungsanlage Wohnmobile","operator":"Stadt Bad Tölz","water_point":"yes"}},"748971587":{"location":[47.8282007,11.5168311],"ct":"DE","tp":"CS","ts":"2023-11-01T14:12:03Z","tX":544,"tY":356,"tags":{"capacity":"1500","capacity:persons":"2000","caravans":"no","group_only":"yes","name":"Jugendsiedlung Hochland","tents":"yes","website":"https://jugendsiedlung-hochland.de/","wheelchair":"limited"}},"1195130024":{"location":[47.854024,11.4996209],"ct":"DE","tp":"CS","ts":"2023-09-30T14:23:35Z","tX":544,"tY":356,"tags":{"access":"customers","addr:city":"Geretsried","addr:housenumber":"47A","addr:postcode":"82538","addr:street":"Elbestraße","description":"Zeltplatz für Jugendgruppen der freiwilligen Feuerwehren.","name":"Jugendcampingplatz der Freiwillige Feuerwehr Geretsried","operator":"Freiwillige Feuerwehr Geretsried","website":"https://www.feuerwehr-geretsried.de/"}},"1302756362":{"location":[47.960722,11.3137908],"ct":"DE","tp":"CS","ts":"2024-07-20T20:18:14Z","tX":544,"tY":356,"tags":{"name":"Campingplatz Jugendherberge Possenhofen","operator":"DJH Jugendherberge Possenhofen"}},"1350430342":{"location":[47.7582805,11.3873703],"ct":"DE","tp":"CR","ts":"2025-01-11T19:28:46Z","tX":544,"tY":356,"tags":{"capacity":"12","fee":"yes","internet_access":"no","name":"Wohmobilstellplatz Berghalde","operator":"Stadt Penzberg","power_supply":"yes","reservation":"no","sanitary_dump_station":"yes","tents":"no","water_point":"yes"}},"12492922238":{"location":[47.7585411,11.387305],"ct":"DE","tp":"SD","ts":"2025-01-11T19:28:46Z","tX":544,"tY":356,"tags":{"operator":"Stadt Penzberg"}}}