{"42744445":{"location":[47.750708,11.4999226],"ct":"DE","tp":"CS","ts":"2024-06-28T22:06:34Z","tX":544,"tY":357,"tags":{"backcountry":"no","capacity:pitches":"90","caravans":"yes","contact:email":"info@campingplatz-demmelhof.de","contact:phone":"+49 8041 8121","contact:website":"https://www.campingplatz-demmelhof.de","dog":"yes","drinking_water":"yes","fee":"yes","group_only":"no","internet_access":"wlan","internet_access:fee":"yes","motorhome":"yes","name":"Campingplatz Demmelhof","payment:cash":"yes","payment:coins":"yes","payment:contactless":"yes","payment:credit_cards":"yes","payment:debit_cards":"yes","payment:mastercard":"yes","payment:notes":"yes","payment:visa":"yes","permanent_camping":"yes","power_supply":"yes","sanitary_dump_station":"yes","shower":"yes","stars":"4","start_date":"1959","static_caravans":"yes","tents":"yes","toilets":"yes","washing_machine":"yes"}},"45111340":{"location":[47.6375576,11.3479772],"ct":"DE","tp":"CS","ts":"2024-07-30T15:50:11Z","tX":544,"tY":357,"tags":{"addr:city":"Kochel am See","addr:country":"DE","addr:housenumber":"2 ½","addr:postcode":"82431","addr:street":"Altjoch","caravans":"yes","drinking_water":"yes","email":"mailto@campingplatz-kesselberg.de","internet_access":"wlan","name":"Campingplatz Kesselberg","opening_hours":"Apr 1-Oct 9","phone":"+49 8851 464","power_supply":"yes","sanitary_dump_station":"yes","shower":"yes","source":"website","tents":"yes","toilets":"yes","website":"https://www.campingplatz-kesselberg.de/"}},"45122799":{"location":[47.6397231,11.3542066],"ct":"DE","tp":"CS","ts":"2023-11-02T05:05:38Z","tX":544,"tY":357,"tags":{"addr:city":"Kochel am See","addr:country":"DE","addr:housenumber":"106","addr:postcode":"82431","addr:street":"Mittenwalder Straße","caravans":"yes","email":"info@campingplatz-renken.de","fax":"+49 8851 615541","internet_access":"wlan","internet_access:access":"customers","internet_access:fee":"no","name":"Campingplatz Renken","phone":"+49 8851 615505","power_supply":"yes","sanitary_dump_station":"customers","source":"website","tents":"yes","website":"https://www.campingplatz-renken.de/"}},"45283194":{"location":[47.5833442,11.310762],"ct":"DE","tp":"CS","ts":"2024-10-28T19:04:46Z","tX":544,"tY":357,"tags":{"addr:city":"Walchensee","addr:country":"DE","addr:postcode":"82432","addr:street":"Lobisau","addr:suburb":"Walchensee","capacity:caravans":"76","capacity:tents":"35","caravans":"yes","drinking_water":"yes","email":"info@camping-walchensee.de","fee":"yes","motorhome":"yes","name":"Camping Walchensee","opening_hours":"Apr 27-Oct 3: 07:30-13:00,15:00-22:00","phone":"+49 8858 929168","power_supply":"yes","sanitary_dump_station":"yes","shower":"yes","source":"website","tents":"yes","toilets":"yes","website":"https://www.camping-walchensee.de/"}},"108971123":{"location":[47.7077324,11.5493359],"ct":"DE","tp":"CS","ts":"2022-12-14T00:45:41Z","tX":544,"tY":357,"tags":{"addr:city":"Wackersberg","addr:country":"DE","addr:housenumber":"20","addr:postcode":"83646","addr:street":"Alpenbadstraße","addr:suburb":"Arzbach","capacity:pitches":"100","caravans":"yes","dog":"yes","email":"info@alpen-campingplatz.de","fax":"+49 8042 8570","fee":"yes","internet_access":"wlan","motor_vehicle":"yes","motorhome":"yes","name":"Alpen-Campingplatz","permanent_camping":"yes","phone":"+49 8042 8408","power_supply":"yes","shower":"yes","source":"http://www.bayregio.de","tents":"yes","toilets":"yes","washing_machine":"yes","website":"http://www.alpen-campingplatz.de/"}},"109281516":{"location":[47.6804187,11.5630992],"ct":"DE","tp":"CS","ts":"2024-03-10T16:11:20Z","tX":544,"tY":357,"tags":{"caravans":"yes","fee":"yes","internet_access":"wlan","internet_access:fee":"no","landuse":"recreation_ground","motorhome":"yes","name":"Bergcamping Lenggries","power_supply":"yes","sanitary_dump_station":"yes","shower":"yes","tents":"yes","toilets":"yes","washing_machine":"yes","website":"https://www.lenggrieser-bergcamping.de/"}},"115793403":{"location":[47.5712546,11.5335857],"ct":"DE","tp":"CR","ts":"2023-10-04T17:44:29Z","tX":544,"tY":357,"tags":{"addr:city":"Lenggries","addr:country":"DE","addr:housenumber":"1","addr:postcode":"83661","addr:street":"Dürrachstraße","addr:suburb":"Fall","caravans":"yes","fee":"yes","name":"Wohnmobilstellplatz Lenggries-Fall/Sylvensteinsee","power_supply":"no","sanitary_dump_station":"yes","toilets:access":"yes","trailer":"no","website":"https://www.lenggries.de/staemme/nachtparkplatz-fall-1","wheelchair":"yes"}},"252164536":{"location":[47.5689466,11.3035729],"ct":"DE","tp":"CR","ts":"2023-01-02T21:26:36Z","tX":544,"tY":357,"tags":{"capacity":"80","caravans":"yes","contact:email":"info@nachtparkplatz-einsiedl.de","fee":"yes","maxstay":"3 days","motor_vehicle":"yes","motorhome":"yes","name":"Wohnmobil Nachtparkplatz","openfire":"no","operator":"Camping Walchensee","power_supply":"yes","reservation":"no","sanitary_dump_station":"no","shower":"no","tents":"no","toilets":"pitlatrin","water_point":"yes","website":"https://www.nachtparkplatz-einsiedl.de/"}},"399248608":{"location":[47.6990794,11.4162186],"ct":"DE","tp":"CR","ts":"2023-01-18T18:08:54Z","tX":544,"tY":357,"tags":{"capacity:pitches":"15","caravans":"no","dog":"yes","fee":"yes","internet_access":"wlan","internet_access:fee":"no","maxstay":"3 days","motorhome":"yes","name":"Wohnmobilstellplatz Benediktbeuern","operator":"Gemeinde Benediktbeuern","power_supply":"yes","sanitary_dump_station":"yes","shower":"no","tents":"no","toilets":"no","website":"https://www.benediktbeuern.de/wohnmobilstellplatz/"}},"624182225":{"location":[47.7217551,11.3324361],"ct":"DE","tp":"CS","ts":"2023-01-15T13:17:38Z","tX":544,"tY":357,"tags":{"access":"private","barrier":"fence","construction:tourism":"attraction","description":"Hier wird ein bajuvarisches Gehöft nachgebaut","group_only":"yes","name":"Baiuvarenhof Sindolvesdorf","website":"https://www.merkur.de/lokales/weilheim/sindelsdorf-ort77949/sindelsdorf-dorf-alten-baiuvaren-wie-vorfahren-in-sindelsdorf-lebten-13837232.html","wheelchair":"no"}},"9269865223":{"location":[47.5739669,11.3622046],"ct":"DE","tp":"CS","ts":"2023-07-13T09:51:14Z","tX":544,"tY":357,"tags":{"access":"private","cabins":"yes","capacity:persons":"100","caravans":"no","description":"Das Walchenseecamp wird von Mai bis Mitte Oktober an Großgruppen ab 75 Personen an Träger der Jugendarbeit vermietet. Der Preis für eine Übernachtung beträgt 9,90 € / Person. Strom wird mit 0,28 € / Kilowattstunde in Rechnung gestellt.","fee":"yes","group_only":"yes","motorhome":"no","name":"Walchenseecamp","operator":"Walchenseeverein e.V.","shower":"yes","tents":"no","toilets":"yes","website":"https://walchenseezeltlager.de"}},"5652033123":{"location":[47.6641704,11.2842459],"ct":"DE","tp":"CR","ts":"2024-12-27T17:48:11Z","tX":544,"tY":357,"tags":{"capacity":"14","caravan_site":"motorhome_stopover","caravan_site:type":"museum","charge":"15 EUR","email":"freilichtmuseum@glentleiten.de","fee":"yes","name":"Glentleiten Freilichtmuseum Parking","seasonal":"yes"}},"5907617649":{"location":[47.6989757,11.4158125],"ct":"DE","tp":"SD","ts":"2018-09-17T20:32:07Z","tX":544,"tY":357,"tags":{"sanitary_dump_station:chemical_toilet":"yes","sanitary_dump_station:fee":"yes","sanitary_dump_station:gravity":"yes","sanitary_dump_station:grey_water":"yes","sanitary_dump_station:suction":"no"}},"6807732225":{"location":[47.6393707,11.354318],"ct":"DE","tp":"SD","ts":"2019-09-19T11:01:17Z","tX":544,"tY":357,"tags":{"access":"customers","fee":"no"}}}