{"30676947":{"location":[47.4903901,11.2570143],"ct":"DE","tp":"CS","ts":"2020-09-10T00:02:46Z","tX":544,"tY":358,"tags":{"addr:city":"Krün","addr:country":"DE","addr:housenumber":"1","addr:postcode":"82494","addr:street":"Am Tennsee","area":"yes","camp_site":"serviced","caravans":"yes","email":"info@camping-tennsee.de","fax":"+49 8825 17236","fee":"yes","internet_access":"wlan","internet_access:fee":"yes","name":"Alpen-Caravanpark Tennsee","operator":"Armin und Andreas Zick oHG","phone":"+49 8825 170","power_supply":"yes","source":"website","stars":"5","tents":"yes","website":"https://www.camping-tennsee.de/"}},"38898628":{"location":[47.3848852,11.2622841],"ct":"AT","tp":"CS","ts":"2024-07-18T16:57:24Z","tX":544,"tY":358,"tags":{"addr:city":"Scharnitz","addr:country":"AT","addr:housenumber":"390","addr:postcode":"6108","addr:street":"Oberdorf","caravans":"yes","contact:phone":"+43 676 70 19 144","email":"office@karwendelcamp.at","name":"Karwendelcamp Scharnitz","operator":"Johann Schallhart","phone":"+43 5213 5119","shower":"yes","source":"website","tents":"yes","toilets":"yes","website":"https://www.karwendelcamp.com/"}},"55221556":{"location":[47.2866212,11.5726642],"ct":"AT","tp":"CS","ts":"2023-04-20T23:22:40Z","tX":544,"tY":358,"tags":{"addr:city":"Volders","addr:housenumber":"2","addr:postcode":"6111","addr:street":"Hochschwarzweg","caravans":"yes","email":"info@schlosscamping.com","fax":"+43 5224 52333-4","name":"Schloss Camping Aschach","phone":"+43 5224 52333","shower":"yes","tents":"yes","toilets":"yes","website":"https://www.schlosscamping.com"}},"146219979":{"location":[47.2850321,11.4965648],"ct":"AT","tp":"CS","ts":"2022-09-20T19:05:06Z","tX":544,"tY":358,"tags":{"addr:city":"Hall in Tirol","addr:country":"AT","addr:housenumber":"24","addr:postcode":"6060","addr:street":"Scheidensteinstraße","caravans":"yes","email":"h.niedrist@hall.ag","internet_access":"wlan","name":"Schwimmbad-Camping Hall","opening_hours":"May-Sep","phone":"+43 5223 5855 550","shower":"yes","tents":"yes","toilets":"yes","website":"http://www.camping-hall.at/"}},"146392440":{"location":[47.4733656,11.2758287],"ct":"DE","tp":"CS","ts":"2024-07-03T09:09:33Z","tX":544,"tY":358,"tags":{"addr:city":"Mittenwald","addr:country":"DE","addr:housenumber":"4","addr:postcode":"82481","addr:street":"Am Horn","cabins":"yes","caravans":"yes","drinking_water":"yes","email":"camping-isarhorn@t-online.de","fax":"+49 8823 8091","fee":"yes","internet_access":"wlan","internet_access:fee":"no","motorcycle_friendly":"yes","name":"Naturcampingpark Isarhorn","phone":"+49 8823 5216","power_supply":"yes","sanitary_dump_station":"yes","shower":"yes","tents":"yes","toilets":"yes","website":"https://www.camping-isarhorn.de/"}},"312828827":{"location":[47.4375237,11.2687207],"ct":"DE","tp":"PK","ts":"2024-12-26T22:08:06Z","tX":544,"tY":358,"tags":{"access":"yes","capacity":"50","fee":"yes","motorhome":"yes","name":"Parkplatz Ried","note":"3 EUR/Tag","operator":"Gemeinde Scharnitz","parking":"surface","ref":"P1","surface":"unpaved"}},"579638242":{"location":[47.4377971,11.2642511],"ct":"DE","tp":"CR","ts":"2024-12-26T22:08:06Z","tX":544,"tY":358,"tags":{"addr:city":"Mittenwald","addr:country":"DE","addr:housenumber":"35","addr:postcode":"82481","addr:street":"Albert-Schott-Straße","caravan_site":"motorhome_stopover","caravan_site:type":"skiing;town","charge":"20 EUR","fee":"yes","name":"Wohnmobilstellplatz Mittenwald","phone":"+49 8823 5216","power_supply":"yes","reservation":"no","sanitary_dump_station":"yes","water_point":"yes","water_point:charge":"1 EUR","water_point:fee":"yes","website":"https://www.alpenwelt-karwendel.de/wohnmobilstellplatz-mittenwald"}},"9016312685":{"location":[47.4377319,11.2687225],"ct":"DE","tp":"CR","ts":"2024-07-12T21:47:54Z","tX":544,"tY":358,"tags":{"fee":"yes"}},"5550776128":{"location":[47.4374858,11.2640206],"ct":"DE","tp":"SD","ts":"2018-04-13T17:51:14Z","tX":544,"tY":358,"tags":{"water_point":"yes"}}}