{"27386864":{"location":[47.2599149,11.5059631],"ct":"AT","tp":"CS","ts":"2023-10-31T14:20:01Z","tX":544,"tY":359,"tags":{"addr:city":"Rinn","addr:housenumber":"40","addr:place":"Judenstein","addr:postcode":"6074","caravans":"yes","drinking_water":"yes","email":"info@camping-judenstein.at","internet_access":"wlan","name":"Campingplatz Judenstein","operator":"Kommunalbetriebe Rinn GmbH","phone":"+43 664 2428500","power_supply":"yes","shower":"yes","tents":"yes","toilets":"yes","website":"https://www.camping-judenstein.at/wp/"}},"33571654":{"location":[47.2534852,11.3267845],"ct":"AT","tp":"CS","ts":"2023-12-23T01:28:36Z","tX":544,"tY":359,"tags":{"addr:city":"Völs","addr:country":"AT","addr:housenumber":"10","addr:postcode":"6176","addr:street":"Bahnhofstraße","barrier":"fence","caravans":"yes","drinking_water":"yes","email":"campingvoels@aon.at","name":"Camping Stigger Innsbruck - Völs","phone":"+43 512 30 35 33","shower":"yes","tents":"yes","toilets":"yes","website":"http://www.camping-stigger.at/"}},"44998020":{"location":[47.2601134,11.2551538],"ct":"AT","tp":"CS","ts":"2022-09-06T11:24:21Z","tX":544,"tY":359,"tags":{"addr:city":"Unterperfuss","addr:housenumber":"32","addr:postcode":"6178","addr:street":"Unterperfuss","caravans":"yes","email":"info@brangeralm.at","loc_name":"Campingplatz Branger Alm","name":"Campingplatz Farmcamping Branger Alm","operator":"Branger Alm","phone":"+43 5232 2209","shower":"yes","tents":"yes","toilets":"yes","website":"https://brangeralm.at/#camping"}},"145920925":{"location":[47.2371419,11.3376208],"ct":"AT","tp":"CS","ts":"2022-09-07T10:00:40Z","tX":544,"tY":359,"tags":{"addr:city":"Natters","addr:housenumber":"1","addr:postcode":"6161","addr:street":"Natterer See","alt_name":"Ferienparadies Natterer See","caravans":"yes","email":"info@natterersee.com","internet_access":"wlan","internet_access:fee":"yes","name":"Camping Natterersee","phone":"+43 512 54 67 32","shower":"yes","stars":"5","tents":"yes","toilets":"yes","toilets:wheelchair":"yes","website":"https://www.natterersee.com/","wheelchair":"yes","wheelchair:description":"Rollstuhlgängige Sanitäreinrichtungen vorhanden, Gebäude barrierefrei zugänglich"}},"147206070":{"location":[47.0685359,11.2525229],"ct":"AT","tp":"CS","ts":"2024-04-21T10:09:53Z","tX":544,"tY":359,"tags":{"addr:city":"Neustift im Stubaital","addr:housenumber":"29","addr:postcode":"6167","addr:street":"Volderau","caravans":"yes","email":"info@camping-edelweiss.at","fax":"+43 5226 3484","name":"Camping Edelweiss","phone":"+43 5226 3484","shower":"yes","tents":"yes","toilets":"yes","website":"https://camping-edelweiss.at"}},"150271083":{"location":[47.109707,11.308573],"ct":"AT","tp":"CS","ts":"2024-04-04T15:36:34Z","tX":544,"tY":359,"tags":{"addr:city":"Neustift im Stubaital","addr:housenumber":"94","addr:postcode":"6167","addr:street":"Stubaitalstraße","cabins":"yes","caravans":"yes","drinking_water":"yes","email":"info@campingstubai.at","fax":"+43 5226 29342","internet_access":"wlan","name":"Camping Stubai","phone":"+43 5226 2537","power_supply":"yes","sanitary_dump_station":"yes","shower":"yes","tents":"yes","toilets":"yes","website":"https://www.campingstubai.at/","wheelchair":"yes"}},"467774258":{"location":[47.1606271,11.3542214],"ct":"AT","tp":"CS","ts":"2023-10-31T14:17:18Z","tX":544,"tY":359,"tags":{"addr:city":"Telfes im Stubai","addr:housenumber":"3","addr:postcode":"6165","addr:street":"Landesstraße","caravans":"yes","drinking_water":"yes","email":"info@sonnencamping-stubai.at","fee":"yes","mobile":"+43 664 184 2401","name":"Sonnencamping Stubai","phone":"+43 5225 64042","power_supply":"yes","shower":"yes","tents":"yes","toilets":"yes","website":"https://www.sonnencamping-stubai.at/"}},"481382429":{"location":[47.2643209,11.3259165],"ct":"AT","tp":"CS","ts":"2023-04-24T20:23:24Z","tX":544,"tY":359,"tags":{"addr:city":"Innsbruck","addr:country":"AT","addr:housenumber":"216","addr:postcode":"6020","addr:street":"Kranebitter Allee","addr:suburb":"Hötting","caravans":"yes","fax":"+43 512 281958130","name":"Kranebitterhof","phone":"+43 512 281958","shower":"yes","tents":"yes","toilets":"yes","website":"https://www.kranebitterhof.at/de/"}},"1095163730":{"location":[47.0748604,11.4039519],"ct":"AT","tp":"CS","ts":"2022-11-07T22:55:57Z","tX":544,"tY":359,"tags":{"addr:city":"Trins","addr:hamlet":"Galtschein","addr:housenumber":"62","addr:place":"Siedlung Galtschein","addr:postcode":"6152","caravans":"yes","fee":"yes","name":"Zentralalpen-Stellplatz Trins im Gschnitztal","phone":"+43 5275 5210","shower":"yes","tents":"no","toilets":"yes","website":"https://stellplatz-trins.tirol/"}},"7294793843":{"location":[47.2515093,11.3109578],"ct":"AT","tp":"CS","ts":"2024-02-04T12:43:01Z","tX":544,"tY":359,"tags":{"addr:city":"Völs","addr:housenumber":"2","addr:street":"Buch","caravans":"yes","email":"info@liga-voels.com","fee":"yes","internet_access":"wlan","internet_access:fee":"no","name":"FKK-Camping Liga Völs","nudism":"yes","official_name":"Liga Völs, für Sport und Freikörperkultur","phone":"+4367764066006","reservation":"yes","shower":"yes","website":"https://www.liga-voels.com","wheelchair":"no"}},"11809117215":{"location":[47.1095801,11.3083544],"ct":"AT","tp":"SD","ts":"2024-04-11T08:29:10Z","tX":544,"tY":359,"tags":{}}}