{"3223145":{"location":[46.5331276,11.5345964],"ct":"IT","tp":"CS","ts":"2019-03-21T07:51:55Z","tX":544,"tY":362,"tags":{"addr:city":"Völs am Schlern - Fiè allo Sciliar","addr:city:de":"Völs am Schlern","addr:city:it":"Fiè allo Sciliar","addr:housenumber":"10","addr:postcode":"39050","addr:street":"Dolomitenweg","description":"Tent 8 € - 12,50 €, Person 11€ - 12,50 €","internet_access":"wlan","internet_access:fee":"no","name":"Camping Seiser Alm","opening_hours":"Dec 20-Sep 2","phone":"+39 0471 706459","website":"https://www.camping-seiseralm.com/"}},"15792649":{"location":[46.3210617,11.274252],"ct":"IT","tp":"CR","ts":"2025-01-21T13:59:33Z","tX":544,"tY":362,"tags":{"access":"yes","camp_site":"basic","caravans":"yes","fee":"yes","lit":"yes","parking":"surface","parking:right:motorhome":"parking_aisle","surface":"asphalt"}},"31661335":{"location":[46.4305368,11.3441036],"ct":"IT","tp":"CS","ts":"2024-09-03T18:07:50Z","tX":544,"tY":362,"tags":{"access":"customers","addr:city":"Leifers (BZ) Italien","addr:housenumber":"32/34","addr:postcode":"39055","addr:street":"Via John Fitzgerald Kennedy - John-Fitzgerald-Kennedy-Straße","addr:street:de":"John-Fitzgerald-Kennedy-Straße","addr:street:it":"Via John Fitzgerald Kennedy","caravans":"yes","drinking_water":"yes","internet_access":"wlan","name":"Camping Steiner","operator":"Steinerhof KG des Peter Pfeifer & Co.","phone":"+390471950105","power_supply":"yes","shower":"yes","tents":"yes","toilets":"yes","toilets:wheelchair":"yes","website":"https://www.campingsteiner.com/de/camping-stellplaetze-suedtirol.html","wheelchair":"limited"}},"36820795":{"location":[46.3721358,11.2529307],"ct":"IT","tp":"CS","ts":"2025-06-15T06:31:24Z","tX":544,"tY":362,"tags":{"caravans":"yes","email":"info@camping-kalterersee.com","name":"Camping St. Josef am See - Camping San Giuseppe al Lago","name:de":"Camping St. Josef am See","name:it":"Camping San Giuseppe al Lago","phone":"+39 0471 960170","tents":"yes","website":"https://www.camping-kalterersee.com/"}},"38151687":{"location":[46.3824322,11.2580041],"ct":"IT","tp":"CS","ts":"2024-09-02T05:12:50Z","tX":544,"tY":362,"tags":{"caravans":"yes","drinking_water":"yes","email":"info@Camping-Gretl.it","internet_access":"wlan","name":"Gretl am See","name:de":"Gretl am See","phone":"+39 0471 960244","power_supply":"yes","sanitary_dump_station":"yes","shower":"yes","tents":"yes","toilets":"yes","toilets:wheelchair":"yes","website":"http://www.camping-gretl.it/","wheelchair":"limited"}},"74760787":{"location":[46.3829429,11.2572219],"ct":"IT","tp":"CR","ts":"2023-09-29T23:20:09Z","tX":544,"tY":362,"tags":{"check_date:internet_access":"2022-09-08","fee":"yes","internet_access":"wlan","name":"Wohnmobilstellplatz Morandell","name:de":"Wohnmobilstellplatz Morandell","wheelchair":"yes"}},"155225484":{"location":[46.5029969,11.2990503],"ct":"IT","tp":"CS","ts":"2024-09-03T18:02:57Z","tX":544,"tY":362,"tags":{"name":"Camping Moosbauer","phone":"+39 0471 91 84 92","website":"https://www.moosbauer.com"}},"265283004":{"location":[46.4072464,11.5890479],"ct":"IT","tp":"CR","ts":"2022-08-05T16:35:55Z","tX":544,"tY":362,"tags":{"capacity":"14","charge":"1€/h","description":"No facilities. 1 Euro per hour.","fee":"yes","permanent_camping":"no","power_supply":"no","sanitary_dump_station":"no","shower":"no","surface":"compacted","toilets":"no"}},"344370453":{"location":[46.4732133,11.3371967],"ct":"IT","tp":"SD","ts":"2015-05-11T22:05:51Z","tX":544,"tY":362,"tags":{"access":"yes","fee":"no","opening_hours":"24/7","sanitary_dump_station:basin":"yes"}},"344370454":{"location":[46.4732226,11.3370376],"ct":"IT","tp":"CR","ts":"2021-07-02T18:54:24Z","tX":544,"tY":362,"tags":{"capacity":"8","fee":"yes","fee:price":"1€/h","surface":"asphalt"}},"468255304":{"location":[46.3477823,11.3012201],"ct":"IT","tp":"CS","ts":"2024-10-15T07:05:20Z","tX":544,"tY":362,"tags":{"addr:city":"Auer - Ora","addr:housenumber":"1","addr:postcode":"39040","addr:street":"Truidn","capacity":"78","capacity:caravans":"56","caravans":"yes","email":"info@hotelmarkushof.it","fax":"+39 0471 810603","internet_access":"wlan","internet_access:fee":"no","name":"Camping Markushof","phone":"+39 0471 810025","ref:vatin":"IT01250280219","reservation":"yes","shower":"yes","tents":"yes","website":"http://www.campingmarkushof.it"}},"519170112":{"location":[46.3518956,11.4846975],"ct":"IT","tp":"CR","ts":"2018-07-01T17:36:45Z","tX":544,"tY":362,"tags":{"name":"Area attrezzata per camper - Lavazè"}},"667233399":{"location":[46.439157,11.2820702],"ct":"IT","tp":"CS","ts":"2024-07-22T14:23:35Z","tX":544,"tY":362,"tags":{"addr:housenumber":"62a","addr:postcode":"39057","addr:street":"Montiggler Straße - Via Monticolo","addr:street:de":"Montiggler Straße","addr:street:it":"Via Monticolo","camp_site":"deluxe","caravans":"yes","ele":"470","email":"info@campingmontiggl.com","internet_access":"wlan","mobile":"+39 339 1708223","name":"Camping Montiggl","phone":"+39 0471 662320","shower":"yes","start_date":"2019-04-19","tents":"no","toilets":"yes","website":"https://www.campingmontiggl.com"}},"979565173":{"location":[46.3851057,11.2941998],"ct":"IT","tp":"CR","ts":"2024-10-25T12:58:28Z","tX":544,"tY":362,"tags":{"capacity":"5","power_supply":"yes","sanitary_dump_station":"yes"}},"1212443054":{"location":[46.5254083,11.2508349],"ct":"IT","tp":"CR","ts":"2024-12-20T10:28:24Z","tX":544,"tY":362,"tags":{"access":"customers","addr:city":"Terlan - Terlano","addr:street":"Niederthorstraße - Via Niederthor","drinking_water":"yes","fee":"yes","internet_access":"wlan","name":"Camper Park Terlan","parking":"surface","power_supply":"yes","sanitary_dump_station":"yes","toilets":"yes"}},"1296264023":{"location":[46.5460455,11.4586889],"ct":"IT","tp":"CS","ts":"2024-12-26T13:23:12Z","tX":544,"tY":362,"tags":{"capacity:caravans":"40","caravans":"yes","contact:email":"camping@schartneralm.info","contact:phone":"+39 0471 1421291","drinking_water":"yes","motorhome":"yes","name":"Camping SchartnerAlm","operator":"SchartnerAlm","power_supply":"yes","reservation":"yes","sanitary_dump_station":"yes","shower":"yes","tents":"yes","toilets":"yes","washing_machine":"footway","waste_disposal":"yes","website":"https://www.schartneralm.info/"}},"1346284839":{"location":[46.5457166,11.4589817],"ct":"IT","tp":"SD","ts":"2024-12-26T01:18:30Z","tX":544,"tY":362,"tags":{"fee":"yes","image":"https://www.schartneralm.info/cache/img-fotos-img-2920-570c-400c.jpeg","surface":"concrete"}},"7021263666":{"location":[46.4397584,11.2819642],"ct":"IT","tp":"CR","ts":"2024-02-02T14:27:50Z","tX":544,"tY":362,"tags":{"addr:housenumber":"62a","addr:street":"Montiggler Straße - Via Monticolo","addr:street:de":"Montiggler Straße","addr:street:it":"Via Monticolo","fee":"yes","internet_access":"yes","name":"Camping Montiggl","power_supply":"yes","sanitary_dump_station":"yes","toilets":"yes","website":"https://www.campingmontiggl.com/"}},"10853044805":{"location":[46.4734059,11.3270236],"ct":"IT","tp":"CR","ts":"2023-04-28T17:12:55Z","tX":544,"tY":362,"tags":{"opening_hours":"24/7"}},"10853044808":{"location":[46.4776824,11.3265397],"ct":"IT","tp":"CR","ts":"2023-05-02T10:06:25Z","tX":544,"tY":362,"tags":{"description:es":"Punto de Servicios para Autocaravanas","opening_hours":"24/7"}},"11233222339":{"location":[46.5254784,11.2507841],"ct":"IT","tp":"CR","ts":"2024-12-17T19:05:54Z","tX":544,"tY":362,"tags":{"addr:housenumber":"10","addr:street":"Niederthorstraße","contact:email":"info@camperparkterlan.com","drinking_water":"yes","fee":"yes","internet_access":"wlan","name":"Camper Park Terlan","phone":"+39 338 9210855","power_supply":"yes","sanitary_dump_station":"yes","toilets":"yes"}},"12232149462":{"location":[46.5336852,11.5328698],"ct":"IT","tp":"CR","ts":"2024-10-07T16:54:45Z","tX":544,"tY":362,"tags":{"charge":"39€","fee":"yes","name":"Seiser Alm"}},"4818872065":{"location":[46.5030342,11.2998665],"ct":"IT","tp":"SD","ts":"2021-10-02T20:58:15Z","tX":544,"tY":362,"tags":{"access":"customers","fee":"no","operator":"Camping Moosbauer","sanitary_dump_station:chemical_toilet":"yes","sanitary_dump_station:grey_water":"yes","water_point":"yes"}},"9062269176":{"location":[46.38538,11.2941548],"ct":"IT","tp":"SD","ts":"2025-01-01T13:32:06Z","tX":544,"tY":362,"tags":{"access":"yes","water_point":"yes"}},"9275085597":{"location":[46.3599458,11.287787],"ct":"IT","tp":"SD","ts":"2021-12-07T20:41:43Z","tX":544,"tY":362,"tags":{"water_supply":"yes"}},"12232149463":{"location":[46.5335622,11.5326852],"ct":"IT","tp":"SD","ts":"2024-10-07T16:54:45Z","tX":544,"tY":362,"tags":{"access":"customers"}},"12252319077":{"location":[46.3477317,11.3016005],"ct":"IT","tp":"SD","ts":"2024-10-15T07:05:20Z","tX":544,"tY":362,"tags":{"access":"customers"}},"12252319080":{"location":[46.3483504,11.3008555],"ct":"IT","tp":"SD","ts":"2024-10-15T07:05:20Z","tX":544,"tY":362,"tags":{"access":"customers"}}}