{"24154770":{"location":[46.284531,11.4728272],"ct":"IT","tp":"CR","ts":"2023-07-19T12:10:09Z","tX":544,"tY":363,"tags":{"contact:website":"https://www.alpecermis.it/area-sosta-camper.php","fee":"yes","lit":"yes","name":"Area sosta camper Cermis","power_supply":"yes","sanitary_dump_station":"yes","water_point":"yes"}},"40699834":{"location":[46.1200505,11.2615244],"ct":"IT","tp":"CS","ts":"2020-02-14T21:04:59Z","tX":544,"tY":363,"tags":{"addr:city":"Baselga di Piné","addr:country":"IT","addr:housenumber":"241/1","addr:postcode":"38042","addr:street":"Località Canè","contact:email":"info@caneinfiore.it","contact:fax":"+39 0461 557676","contact:phone":"+39 0461 558270","contact:website":"http://www.caneinfiore.it/","name":"Camping Cane' in Fiore","ref:vatin":"IT00504130220"}},"332920975":{"location":[46.0787217,11.4478665],"ct":"IT","tp":"CS","ts":"2015-03-15T18:29:08Z","tX":544,"tY":363,"tags":{"fee":"yes","name":"Campeggio ai Castagni"}},"341938426":{"location":[46.1436221,11.2753009],"ct":"IT","tp":"CS","ts":"2015-05-01T01:58:44Z","tX":544,"tY":363,"tags":{"name":"Campo Majo"}},"393187759":{"location":[46.1062054,11.3033812],"ct":"IT","tp":"CR","ts":"2022-12-08T21:27:48Z","tX":544,"tY":363,"tags":{}},"404737766":{"location":[46.1527361,11.2867704],"ct":"IT","tp":"CS","ts":"2023-05-09T14:45:16Z","tX":544,"tY":363,"tags":{"addr:city":"Bedollo di Piné","addr:hamlet":"Loc. Lago delle Piazze","addr:housenumber":"38","addr:postcode":"38043","addr:street":"Via Verdi","name":"Camping Verde blu","phone":"+39 0461 556718"}},"404737767":{"location":[46.1538965,11.2861945],"ct":"IT","tp":"CS","ts":"2023-05-09T14:45:16Z","tX":544,"tY":363,"tags":{"addr:city":"Bedollo di Piné","addr:hamlet":"Lago delle Piazze","addr:postcode":"38043","email":"info@infopineta.it","fax":"+39 0461 556058","name":"Camping Pineta","phone":"+39 0461 556642","ref:vatin":"IT01150640223","website":"https://www.infopineta.it/"}},"463411108":{"location":[46.2927653,11.4859149],"ct":"IT","tp":"CS","ts":"2023-11-01T00:57:45Z","tX":544,"tY":363,"tags":{"addr:city":"Cavalese","addr:country":"IT","addr:housenumber":"5","addr:postcode":"38033","addr:street":"Via Dolomiti","caravans":"yes","email":"info@agriturperlaie.it","name":"Le Perlaie","payment:cash":"yes","phone":"+39 0462 342211","tents":"yes","toilets":"yes","website":"https://www.agriturperlaie.it/index.asp"}},"1105030657":{"location":[46.2979689,11.4253709],"ct":"IT","tp":"CS","ts":"2022-10-18T18:42:16Z","tX":544,"tY":363,"tags":{"addr:city":"Carano","addr:country":"IT","addr:housenumber":"10","addr:place":"Calvello","addr:postcode":"38099","capacity":"16","caravans":"no","email":"info@campeggiocalvello.it","mobile":"+39 333 7830954","name":"Campeggio Calvello","phone":"+39 0462 341694","website":"http://www.campeggiocalvello.it/"}},"1183930151":{"location":[46.1799308,11.3229854],"ct":"IT","tp":"CR","ts":"2024-07-07T09:57:09Z","tX":544,"tY":363,"tags":{"fee":"yes","parking":"surface"}},"9551518791":{"location":[46.0894851,11.5986461],"ct":"IT","tp":"CS","ts":"2024-10-01T11:04:07Z","tX":544,"tY":363,"tags":{"name":"Camping Lagorai"}}}