{"6388762":{"location":[46.0014299,11.2544711],"ct":"IT","tp":"CS","ts":"2021-06-30T16:42:54Z","tX":544,"tY":364,"tags":{"addr:city":"Calceranica al Lago","addr:country":"IT","addr:housenumber":"70","addr:postcode":"38050","addr:province":"TN","addr:street":"Via Lungo Lago","camp_site":"serviced","caravans":"yes","contact:email":"info@campingpuntalago.com","contact:phone":"+39 0461 723229","contact:website":"http://www.campingpuntalago.com","name":"Punta Lago","tents":"yes"}},"6388816":{"location":[46.0017965,11.2563289],"ct":"IT","tp":"CS","ts":"2023-04-08T11:44:24Z","tX":544,"tY":364,"tags":{"addr:city":"Calceranica al Lago","addr:country":"IT","addr:housenumber":"1","addr:postcode":"38050","addr:province":"TN","addr:street":"Via dei Pescatori","contact:email":"trentino@campingpescatore.it","contact:fax":"+39 0461 724212","contact:phone":"+39 0461 724212","contact:website":"http://www.campingpescatore.it","internet_access":"wlan","name":"Al Pescatore"}},"96864336":{"location":[45.9363357,11.2594482],"ct":"IT","tp":"CS","ts":"2024-08-01T20:12:42Z","tX":544,"tY":364,"tags":{"caravans":"yes","email":"info@campinglagodilavarone.it","fax":"+39 0464 780724","name":"Lago di Lavarone","phone":"+39 0464 783300","stars":"2","tents":"yes","website":"https://campinglagodilavarone.it/"}},"104721609":{"location":[46.0071462,11.2885102],"ct":"IT","tp":"CS","ts":"2024-08-21T14:56:02Z","tX":544,"tY":364,"tags":{"caravans":"yes","name":"Jolly","tents":"yes"}},"123319768":{"location":[45.8590619,11.5527535],"ct":"IT","tp":"CS","ts":"2024-09-18T11:01:23Z","tX":544,"tY":364,"tags":{"caravans":"yes","fax":"+39 0424 455161","fee":"yes","name":"Camping Ekar","phone":"+39 0424 455157","power_supply":"yes","socket:cee_blue":"yes","tents":"yes","website":"https://www.campingasiagoekar.com/"}},"127192241":{"location":[45.8775606,11.4539581],"ct":"IT","tp":"CR","ts":"2015-05-15T20:04:01Z","tX":544,"tY":364,"tags":{"name":"Campeggio Riviera"}},"131849606":{"location":[46.0076556,11.2853625],"ct":"IT","tp":"CS","ts":"2024-08-18T14:59:08Z","tX":544,"tY":364,"tags":{"addr:city":"Levico Terme","addr:postcode":"38056","addr:street":"Strada Provinciale 16 del Colle di Tenna","caravans":"yes","contact:phone":"+39 0461 706491","drinking_water":"yes","email":"info@campinglevico.com","internet_access":"no","name":"Lago Levico Camping Village","power_supply":"yes","shower":"yes","tents":"yes","toilets":"yes","website":"https://www.campinglevico.com/"}},"220186058":{"location":[46.0028808,11.2592755],"ct":"IT","tp":"CS","ts":"2024-04-19T10:33:00Z","tX":544,"tY":364,"tags":{"addr:city":"Calceranica al Lago","addr:country":"IT","addr:housenumber":"10","addr:postcode":"38050","addr:province":"TN","addr:street":"Viale Venezia","contact:website":"https://camping-riviera.net","name":"Camping Riviera"}},"220186097":{"location":[46.0031853,11.2603743],"ct":"IT","tp":"CS","ts":"2022-09-01T23:53:11Z","tX":544,"tY":364,"tags":{"addr:city":"Caldonazzo","addr:country":"IT","addr:housenumber":"14","addr:postcode":"38052","addr:province":"TN","addr:street":"Viale Venezia","caravans":"yes","contact:email":"info@campingspiaggia.net","contact:fax":"+39 0461 723037","contact:phone":"+39 0461 723037","contact:website":"http://www.campingspiaggia.net","drinking_water":"yes","email":"info@campingspiaggia.net","fax":"+39 0461 723037","internet_access":"yes","internet_access:fee":"no","name":"Camping Spiaggia","payment:bancomat":"yes","phone":"+39 0461 723037","power_supply":"yes","shower":"yes","stars":"2","tents":"yes","toilets":"yes","website":"http://www.campingspiaggia.net"}},"220186098":{"location":[46.0043955,11.287267],"ct":"IT","tp":"CS","ts":"2024-04-19T10:30:11Z","tX":544,"tY":364,"tags":{"addr:city":"Levico Terme","addr:country":"IT","addr:housenumber":"3","addr:postcode":"38056","addr:street":"Località Costa","email":"duelaghi@camping.it","fax":"+39 0461 707381","internet_access":"terminal","internet_access:fee":"yes","name":"Due Laghi","phone":"+39 0461 706290","website":"https://www.campingclub.it/index.php?option=com_content&task=view&id=12&Itemid=19","wheelchair":"yes"}},"235955715":{"location":[46.003672,11.2881564],"ct":"IT","tp":"CR","ts":"2024-04-19T10:30:11Z","tX":544,"tY":364,"tags":{}},"255072061":{"location":[45.9272811,11.2841611],"ct":"IT","tp":"CS","ts":"2024-07-27T21:10:43Z","tX":544,"tY":364,"tags":{"addr:city":"Oseli","caravans":"yes","name":"Campeggio","tents":"yes"}},"256629929":{"location":[45.8534312,11.3322689],"ct":"IT","tp":"CS","ts":"2014-07-05T14:45:24Z","tX":544,"tY":364,"tags":{"addr:city":"Tonezza del Cimone","addr:housename":"Contrà Vallà","addr:housenumber":"3","addr:postcode":"36040","name":"Camping Amabile","phone":"+39 0445 749108"}},"298285514":{"location":[46.0034222,11.2614208],"ct":"IT","tp":"CS","ts":"2023-08-27T13:56:07Z","tX":544,"tY":364,"tags":{"addr:city":"Caldonazzo","addr:country":"IT","addr:housenumber":"4","addr:postcode":"38052","addr:province":"TN","addr:street":"Via Lungo Lago","caravans":"yes","contact:email":"info@campingmario.com","contact:fax":"+39 0461 723106","contact:phone":"+39 0461 723341","contact:website":"http://www.campingmario.com","drinking_water":"yes","internet_access":"wlan","name":"Camping Mario Village","shower":"yes","tents":"yes"}},"591656998":{"location":[46.0469403,11.4115347],"ct":"IT","tp":"CS","ts":"2024-04-19T10:28:57Z","tX":544,"tY":364,"tags":{"caravans":"yes","name":"Agriturismo Montibeller","tents":"yes"}},"1274058899":{"location":[46.0028334,11.2581195],"ct":"IT","tp":"CS","ts":"2024-04-19T10:33:00Z","tX":544,"tY":364,"tags":{"addr:city":"Calceranica al Lago","addr:country":"IT","addr:housenumber":"10","addr:postcode":"38050","addr:province":"TN","addr:street":"Viale Venezia","contact:website":"https://www.campingbelvedere.it","name":"Camping Belvedere"}},"1386319340":{"location":[46.0077548,11.3337961],"ct":"IT","tp":"CS","ts":"2025-05-13T22:28:45Z","tX":544,"tY":364,"tags":{"name":"Agritur Airone Bed and Camping"}},"4926845523":{"location":[46.0545425,11.4638382],"ct":"IT","tp":"CR","ts":"2024-02-10T15:27:23Z","tX":544,"tY":364,"tags":{"addr:city":"Borgo Valsugana","addr:country":"IT","addr:postcode":"38051","addr:province":"TN","addr:street":"Via Temanza","internet_access":"no","name":"P3 Area sosta camper","power_supply":"yes","sanitary_dump_station":"yes"}},"11273005409":{"location":[46.0294727,11.3750067],"ct":"IT","tp":"CR","ts":"2023-10-18T19:52:43Z","tX":544,"tY":364,"tags":{"addr:city":"Novaledo","addr:housenumber":"7","addr:postcode":"38050","addr:street":"Via Belvedere","contact:instagram":"https://instagram.com/sosta.camper.trentino?igshid=MzMyNGUyNmU2YQ==","description":"Camping per soste e campeggio di: camper, roulotte, bikepackers, bikers. Piazzole e servizi per la tua vacanza in Trentino plein air.","name":"Sosta Camper Trentino","opening_hours":"PH,Mo-Su 08:00-22:00","phone":"+39 344 8305 4908","website":"https://www.sostacampertrentino.it"}},"11619085868":{"location":[46.0544762,11.4639388],"ct":"IT","tp":"SD","ts":"2024-02-13T16:57:02Z","tX":544,"tY":364,"tags":{"access":"customers","charge":"2,00 EUR","fee":"yes","operator":"Valsugana Sport","payment:cash":"yes","payment:coins":"yes","water_point":"yes"}}}