{"136253270":{"location":[44.3793017,11.278332],"ct":"IT","tp":"CS","ts":"2024-04-16T06:37:45Z","tX":544,"tY":370,"tags":{"backcountry":"yes","name":"Il Balcone di Lali Garden Sharing & Giamping"}},"228908274":{"location":[44.4057461,11.2622272],"ct":"IT","tp":"CR","ts":"2023-08-31T20:31:51Z","tX":544,"tY":370,"tags":{"addr:city":"Sasso Marconi","addr:housenumber":"9","addr:postcode":"40037","addr:street":"Via Maranina","capacity":"12","drinking_water":"yes","fee":"yes","name":"area sosta camper Sasso Marconi","parking":"surface","power_supply":"yes","sanitary_dump_station":"yes","website":"http://www.infosasso.it/ita/blog/993926"}},"265892092":{"location":[44.524613,11.3751302],"ct":"IT","tp":"CS","ts":"2023-12-09T21:13:02Z","tX":544,"tY":370,"tags":{"name":"Centro Turistico Città di Bologna","operator":"Città di Bologna","ref:corine_land_cover":"1421","source":"http://dati.emilia-romagna.it/dato/item/11-11-uso-del-suolo-2008.html","website":"https://www.hotelcamping.com/"}},"265893603":{"location":[44.5241843,11.3337619],"ct":"IT","tp":"CR","ts":"2023-12-11T16:26:20Z","tX":544,"tY":370,"tags":{"addr:city":"Bologna","addr:housenumber":"157","addr:postcode":"40131","addr:street":"Via della Beverara","name":"Bottega del campeggiatore","operator":"Bottega del campeggiatore","phone":"+39 051 6341504","ref:corine_land_cover":"1212","sanitary_dump_station":"yes","website":"https://www.bottegacampeggiatore.com/area-di-sosta.php"}},"354903613":{"location":[44.5863934,11.4221578],"ct":"IT","tp":"CR","ts":"2024-08-02T16:04:14Z","tX":544,"tY":370,"tags":{"addr:city":"Granarolo dell'Emilia","addr:street":"Via G. Rodari","fee":"no","name":"Parcheggio camper Lovoleto","power_supply":"no","sanitary_dump_station":"no"}},"1021990809":{"location":[44.3405456,11.3038103],"ct":"IT","tp":"CS","ts":"2024-06-29T18:13:26Z","tX":544,"tY":370,"tags":{"addr:housenumber":"1","addr:postcode":"40036","addr:street":"Via dello Sport","contact:facebook":"https://www.facebook.com/Circolo-MONTE-ADONE-1544115162526694/","drinking_water":"yes","email":"monteadonecircolo@gmail.com","name":"Circolo Monte Adone","outdoor_seating":"yes","phone":"+39 0516 775125","tents":"yes"}},"1304153151":{"location":[44.3977993,11.5931122],"ct":"IT","tp":"CR","ts":"2024-07-27T21:54:34Z","tX":544,"tY":370,"tags":{"fee":"no","power_supply":"no","reservation":"no","tents":"no"}},"4197860912":{"location":[44.5589141,11.2694848],"ct":"IT","tp":"SD","ts":"2016-05-20T22:14:45Z","tX":544,"tY":370,"tags":{"access":"yes","fee":"no","name":"Camper Service Calderara di Reno","operator":"Comune di Calderara di Reno","water_point":"yes"}},"10300285509":{"location":[44.5242535,11.3327924],"ct":"IT","tp":"CR","ts":"2023-12-05T12:02:10Z","tX":544,"tY":370,"tags":{"addr:housenumber":"157","addr:postcode":"40131","addr:street":"Via della Beverara","email":"info@camperopoli.it","name":"Camperopoli Area di Sosta Camper","phone":"+39051641504","website":"https://www.camperopoli.it/"}},"4913517215":{"location":[44.3937868,11.3387127],"ct":"IT","tp":"SD","ts":"2017-06-13T19:37:43Z","tX":544,"tY":370,"tags":{"access":"yes","fee":"no","name":"CS Pian di Macina","wheelchair":"yes"}},"4913527401":{"location":[44.4706183,11.4194705],"ct":"IT","tp":"SD","ts":"2024-03-28T22:01:26Z","tX":544,"tY":370,"tags":{"access":"permissive","fee":"yes","name":"Camper Service San Lazzaro di Savena","water_point":"yes","wheelchair":"yes"}},"5626802863":{"location":[44.3971615,11.5924306],"ct":"IT","tp":"SD","ts":"2024-07-27T21:54:34Z","tX":544,"tY":370,"tags":{"access":"yes","fee":"no","opening_hours":"24/7"}},"9076581992":{"location":[44.427205,11.6006704],"ct":"IT","tp":"SD","ts":"2021-09-09T12:43:39Z","tX":544,"tY":370,"tags":{"access":"yes","fee":"no","water_point":"yes"}}}