{"12215436":{"location":[44.141728,11.4476994],"ct":"IT","tp":"CR","ts":"2021-01-20T20:00:15Z","tX":544,"tY":371,"tags":{"fee":"no","name":"Area sosta camper Lido Serena","power_supply":"no","tents":"yes"}},"66568119":{"location":[44.1420697,11.5783369],"ct":"IT","tp":"CS","ts":"2021-10-17T08:27:59Z","tX":544,"tY":371,"tags":{"building":"yes","name":"Campeggio La Giraffa"}},"207898209":{"location":[44.31183,11.4647624],"ct":"IT","tp":"CS","ts":"2024-03-10T22:50:41Z","tX":544,"tY":371,"tags":{}},"226879606":{"location":[44.2199675,11.3589875],"ct":"IT","tp":"CS","ts":"2024-11-07T06:48:30Z","tX":544,"tY":371,"tags":{"addr:city":"Monghidoro","addr:housenumber":"11","addr:postcode":"40063","addr:street":"Via la Martina","capacity":"80","caravans":"yes","email":"campinglamartina2021@gmail.com","fee":"yes","motorhome":"yes","name":"Campeggio \"La Martina\"","phone":"+39 338 406 9442","tents":"yes","website":"https://www.facebook.com/campinglamartina/"}},"237768842":{"location":[44.21636,11.5041809],"ct":"IT","tp":"CR","ts":"2024-01-05T23:35:47Z","tX":544,"tY":371,"tags":{"fee":"no","name":"Area Sosta Camper Castel del Rio","power_supply":"no","surface":"grass"}},"328401483":{"location":[44.3109171,11.4643648],"ct":"IT","tp":"CR","ts":"2015-02-15T16:12:40Z","tX":544,"tY":371,"tags":{}},"440930152":{"location":[44.0979904,11.2676755],"ct":"IT","tp":"CS","ts":"2024-09-18T14:04:00Z","tX":544,"tY":371,"tags":{"addr:city":"Firenzuola","addr:country":"IT","addr:housenumber":"889 h","addr:place":"Passo della Futa","addr:postcode":"50033","addr:street":"Via Bruscoli - Futa","cabins":"yes","caravans":"yes","contact:facebook":"campinglafuta","email":"info@campinglafuta.it","image":"http://www.campinglafuta.it/images/logo-colorato.png","internet_access":"wlan","internet_access:fee":"no","mobile":"+39 333 1148501","motorhome":"yes","name":"Camping La Futa","operator":"Andrea & Alessandra Lupo","phone":"+39 055 0330351","sanitary_dump_station":"yes","shower":"yes","smoking":"outside","stars":"2","tents":"yes","toilets":"yes","washing_machine":"yes","website":"http://www.campinglafuta.it","wheelchair":"limited"}},"524022189":{"location":[44.1106082,11.5493151],"ct":"IT","tp":"CR","ts":"2024-03-30T11:17:16Z","tX":544,"tY":371,"tags":{"access":"yes","caravan":"designated","fee":"no","motorhome":"designated","name":"Area Sosta Camper Palazzuolo sul Senio","power_supply":"yes","power_supply:fee":"yes","sanitary_dump_station":"yes","seasonal":"no","water_point":"yes"}},"629211677":{"location":[44.1164057,11.373827],"ct":"IT","tp":"CR","ts":"2024-08-06T10:45:31Z","tX":544,"tY":371,"tags":{"caravans":"no","fee":"no","name":"Le Fornaci Firenzuola","picnic_area":"yes","power_supply":"yes","sanitary_dump_station":"yes","tents":"no","water_point":"yes","website":"http://www.comune.firenzuola.fi.it/eventi-notizie/chiusura-area-sosta-camper-in-loc-le-fornaci-firenzuola-1"}},"765317905":{"location":[44.2120244,11.4723729],"ct":"IT","tp":"CS","ts":"2022-01-23T08:43:14Z","tX":544,"tY":371,"tags":{"access":"customers","bbq":"yes","fee":"yes","fixme":"position","shower":"yes","toilets":"yes"}},"1035311669":{"location":[44.3172481,11.2796025],"ct":"IT","tp":"CS","ts":"2022-03-24T12:42:07Z","tX":544,"tY":371,"tags":{"name":"Garden Sharing Arcobaleno","operator":"347-5969620 Susanna","phone":"+39 347-5969620"}},"1086349292":{"location":[44.2008603,11.2609757],"ct":"IT","tp":"CS","ts":"2022-08-15T06:45:29Z","tX":544,"tY":371,"tags":{"backcountry":"yes"}},"1230386629":{"location":[44.1166539,11.5352304],"ct":"IT","tp":"CS","ts":"2024-11-07T07:20:38Z","tX":544,"tY":371,"tags":{"addr:city":"Palazzuolo sul Senio","addr:housenumber":"19","addr:postcode":"50035","addr:street":"Via Faggiola","alt_name":"Le Sorgenti Camping Relax","caravans":"yes","contact:housenumber":"19","contact:street":"Via della Faggiola","email":"info@campinglesorgenti.it","mobile":"+39 348 3615182","motorhome":"yes","name":"Le Sorgenti","phone":"+39 055 8046106","power_supply":"yes","socket:cee_blue":"yes","tents":"yes","website":"http://www.campinglesorgenti.it/"}},"1238685447":{"location":[44.2128555,11.5067303],"ct":"IT","tp":"CS","ts":"2024-01-10T19:53:17Z","tX":544,"tY":371,"tags":{"addr:city":"Castel del Rio","addr:housenumber":"4-1","addr:postcode":"40022","addr:street":"Via Ponte Alidosi","dog":"yes","email":"info@campeggioalidosi.it","name":"Alidosi","phone":"+39 327 795 9315","website":"https://campeggioalidosi.it/"}},"1288602696":{"location":[44.2696585,11.2707085],"ct":"IT","tp":"CR","ts":"2024-06-01T07:52:53Z","tX":544,"tY":371,"tags":{}},"2108376389":{"location":[44.2981448,11.4358287],"ct":"IT","tp":"CS","ts":"2024-05-26T09:08:41Z","tX":544,"tY":371,"tags":{"access":"customers","addr:city":"Monterenzio","addr:housenumber":"52","addr:place":"Via Sillaro","name":"Oasi termale di Zello FKK","nudism":"yes","operator":"Gruppo Monti Salute Pi√π","phone":"+39 051 929791","website":"https://www.villaggiodellasalutepiu.it/it/natura-world-val-sillaro/oasi-termale-zello-naturismo/"}},"4778358451":{"location":[44.2198188,11.3580914],"ct":"IT","tp":"CS","ts":"2021-09-07T06:06:17Z","tX":544,"tY":371,"tags":{"addr:city":"Monghidoro","addr:housenumber":"3","addr:street":"Via Ca` Della Selva","name":"La Martina"}},"9536591357":{"location":[44.3172362,11.279668],"ct":"IT","tp":"CS","ts":"2022-02-26T09:08:43Z","tX":544,"tY":371,"tags":{"name":"Garden Sharing Arcobaleno","operator":"347-5969620 Susanna"}},"9682656717":{"location":[44.2696958,11.270698],"ct":"IT","tp":"CS","ts":"2024-06-01T07:52:53Z","tX":544,"tY":371,"tags":{"name":"Centro sportivo L.Bacci di Monzuno","website":"https://www.parkfornight.com"}},"9441735442":{"location":[44.2124514,11.4727673],"ct":"IT","tp":"CR","ts":"2022-01-23T08:43:14Z","tX":544,"tY":371,"tags":{"power_supply":"yes"}},"4830270220":{"location":[44.2181272,11.5052763],"ct":"IT","tp":"SD","ts":"2017-05-02T07:40:09Z","tX":544,"tY":371,"tags":{}},"6420384193":{"location":[44.110393,11.5496708],"ct":"IT","tp":"SD","ts":"2023-07-14T00:42:14Z","tX":544,"tY":371,"tags":{}}}