{"47069711":{"location":[43.4732271,11.2877317],"ct":"IT","tp":"PK","ts":"2024-08-06T12:59:33Z","tX":544,"tY":374,"tags":{"access":"yes","fee":"yes","hgv":"no","long_name":"Parcheggio 2 Il Colombaio","motorhome":"yes","name":"Parcheggio Il Colombaio","parking":"surface","ref":"P2"}},"165819665":{"location":[43.3361278,11.330706],"ct":"IT","tp":"CS","ts":"2024-08-09T13:50:51Z","tX":544,"tY":374,"tags":{"access":"customers","addr:city":"Siena","addr:country":"IT","addr:housenumber":"47","addr:postcode":"53100","addr:street":"Strada di Scacciapensieri","cabins":"yes","caravans":"yes","fee":"yes","internet_access":"wlan","landuse":"residential","motorhome":"yes","name":"Colleverde","payment:coins":"yes","payment:notes":"yes","phone":"+39 0577 332545","power_supply":"cee_17_blue","static_caravans":"yes","tents":"yes","website":"https://www.sienacamping.com/"}},"617425277":{"location":[43.5384504,11.4137773],"ct":"IT","tp":"CS","ts":"2019-03-20T10:53:34Z","tX":544,"tY":374,"tags":{"name":"Camping Village Orlando","website":"https://www.campingorlandoinchianti.it/"}},"1216287863":{"location":[43.4269944,11.2677497],"ct":"IT","tp":"CR","ts":"2023-10-17T16:22:18Z","tX":544,"tY":374,"tags":{"mobile":"+39 366 4297000","name":"Vallechiara"}},"1216497141":{"location":[43.3527755,11.2931956],"ct":"IT","tp":"CR","ts":"2024-11-01T15:43:43Z","tX":544,"tY":374,"tags":{"email":"info@campingsiena.eu","name":"Il Sambuco","phone":"+39 0577 1653011","phone:mobile":"+39 339 6896611","power_supply":"cee_17_blue","shower":"yes","toilets":"yes","website":"https://campingsiena.eu/"}},"1314397437":{"location":[43.4858275,11.3755098],"ct":"IT","tp":"CR","ts":"2024-09-09T15:21:28Z","tX":544,"tY":374,"tags":{"capacity":"8","caravans":"yes","fee":"yes","surface":"asphalt"}},"1316624399":{"location":[43.4682634,11.4317047],"ct":"IT","tp":"CR","ts":"2024-09-19T09:24:57Z","tX":544,"tY":374,"tags":{"addr:city":"Gaiole in Chianti","addr:postcode":"53013","addr:street":"Via Alcide de Gasperi","capacity":"8","fee":"yes","maxstay":"72 hours","name":"Area di sosta temporanea caravan","phone":"+39 0577 749411","power_supply":"yes","reservation":"required","socket:cee_blue":"yes","website":"https://www.comune.gaiole.si.it/novita/area-di-sosta-temporanea-caravan-informazioni-per-accedere-allarea/"}},"1333220589":{"location":[43.3973522,11.4227563],"ct":"IT","tp":"CR","ts":"2024-11-12T13:47:48Z","tX":544,"tY":374,"tags":{"addr:place":"Monti di Sotto","contact:phone":"+39 0577545301","contact:website":"https://www.lamontaninaaziendaagricola.it/it/area-camper.php","contact:whatsapp":"+39 338 4250815","dog":"yes","drinking_water":"yes","dryer":"yes","internet_access":"wlan","name":"Azienda Agricola La Montanina","power_supply":"yes","reservation":"yes","sanitary_dump_station":"yes","shower":"yes","socket:cee_blue":"yes","toilets":"yes","washing_machine":"yes"}},"4443771689":{"location":[43.4733103,11.2871464],"ct":"IT","tp":"CR","ts":"2021-09-16T14:05:23Z","tX":544,"tY":374,"tags":{"name:signed":"no"}},"12185788601":{"location":[43.46806,11.431765],"ct":"IT","tp":"SD","ts":"2024-09-19T09:24:57Z","tX":544,"tY":374,"tags":{"fee":"yes","water_point":"yes"}}}