{"861198485":{"location":[41.86033,75.26693],"ct":"KG","tp":"CS","ts":"2024-07-24T14:37:39Z","tX":726,"tY":380,"tags":{"ele":"3026","name":"CBT Kochkor Yurt Camp","name:ko":"유르트 캠프 단지"}},"4994427021":{"location":[41.8016227,75.3937066],"ct":"KG","tp":"CS","ts":"2024-07-24T14:37:39Z","tX":726,"tY":380,"tags":{"name:en":"Sheperd's life - kairat's yurts camp"}},"5746677021":{"location":[41.9462322,75.5491426],"ct":"KG","tp":"CS","ts":"2018-09-13T14:20:33Z","tX":726,"tY":380,"tags":{"name":"Warm homestay","name:en":"warm homestay"}},"6732430487":{"location":[41.8625254,75.2623083],"ct":"KG","tp":"CS","ts":"2019-08-21T16:34:22Z","tX":726,"tY":380,"tags":{"name:en":"Main yurt camp- get ride back to Kochkor"}},"6741747309":{"location":[41.8553173,75.2855799],"ct":"KG","tp":"CS","ts":"2019-08-24T06:51:17Z","tX":726,"tY":380,"tags":{"name:en":"Osmon Almira yurt camp"}},"6741747310":{"location":[41.8595168,75.2732583],"ct":"KG","tp":"CS","ts":"2019-08-24T06:51:28Z","tX":726,"tY":380,"tags":{"name:en":"Murat Anara yurt camp"}},"6741747413":{"location":[41.8593756,75.2765453],"ct":"KG","tp":"CS","ts":"2019-08-24T06:52:45Z","tX":726,"tY":380,"tags":{"name:en":"Aibek yurt camp"}},"9060164017":{"location":[41.8689978,75.2502813],"ct":"KG","tp":"CS","ts":"2021-09-03T12:10:09Z","tX":726,"tY":380,"tags":{"name":"Арууке еко юрт","name:en":"Aruuke eco yurt","phone":"+996772939789"}},"12071790277":{"location":[41.8592047,75.3381875],"ct":"KG","tp":"CS","ts":"2024-07-24T14:37:39Z","tX":726,"tY":380,"tags":{"name":"Юрты","name:ru":"Yurt camp"}}}