{"223779296":{"location":[46.2759526,-60.5430047],"ct":"CA","tp":"CR","ts":"2023-05-28T06:04:59Z","tX":339,"tY":363,"tags":{"addr:city":"Englishtown","addr:housenumber":"938","addr:postcode":"B0C 1H0","addr:province":"Nova Scotia","addr:street":"Highway 312","email":"kluskapridge@gmail.com","name":"Kluskap Ridge RV and Campground","phone":"+1 902-929-2598","source":"NRCan-CanVec-10.0","website":"https://www.kluskapridge.ca/"}},"224042700":{"location":[46.0792203,-60.8196215],"ct":"CA","tp":"CS","ts":"2013-06-02T02:14:42Z","tX":339,"tY":363,"tags":{"name":"Bras d'Or Campground","source":"NRCan-CanVec-10.0"}},"224132312":{"location":[46.2392355,-60.4994913],"ct":"CA","tp":"CS","ts":"2022-01-03T10:54:52Z","tX":339,"tY":363,"tags":{"addr:city":"New Harris","addr:housenumber":"3779","addr:street":"New Harris Road","capacity":"158","internet_access":"wlan","name":"North Sydney / Cabot Trail KOA","opening_hours":"May 15-Oct 15","power_supply":"yes","source":"NRCan-CanVec-10.0+8.0","website":"https://koa.com/campgrounds/north-sydney/"}},"11154772705":{"location":[46.3160786,-60.5464072],"ct":"CA","tp":"CS","ts":"2023-08-29T22:18:15Z","tX":339,"tY":363,"tags":{"addr:postcode":"b0c1h0","name":"joyful journeys"}}}