{"1262257659":{"location":[46.4839813,-89.9452811],"ct":"US","tp":"CS","ts":"2024-03-13T17:03:00Z","tX":256,"tY":362,"tags":{"access":"yes","addr:city":"Wakefield","addr:housenumber":"300","addr:postcode":"49968","addr:state":"MI","addr:street":"Eddy Park Road","capacity:caravans":"71","caravans":"yes","drinking_water":"yes","email":"clerk@cityofwakefieldmi.gov","name":"Eddy Park Campground","operator":"City of Wakefield","phone":"+1-906-229-5131","tents":"yes"}},"1262259291":{"location":[46.3307002,-89.7910154],"ct":"US","tp":"CS","ts":"2024-03-29T05:27:42Z","tX":256,"tY":362,"tags":{"access":"yes","capacity:caravans":"11","caravans":"yes","charge":"13 USD","drinking_water":"yes","fee":"yes","gnis:feature_id":"1622309","name":"Henry Lake Campground","operator":"Scenic Canyons Recreational Services","owner":"USFS","payment:cash":"yes","payment:cheque":"yes","phone":"+1-906-932-1330","website":"https://www.fs.usda.gov/recarea/ottawa/recreation/camping-cabins/recarea/?recid=12339&actid=42"}},"1262261506":{"location":[46.358875,-89.6726464],"ct":"US","tp":"CS","ts":"2024-03-29T05:27:42Z","tX":256,"tY":362,"tags":{"capacity:tents":"11","charge":"13 USD","drinking_water":"yes","fee":"yes","gnis:feature_id":"1622300","name":"Bobcat Lake Campground","operator":"Scenic Canyons Recreational Services","owner":"United States Forest Service","payment:cash":"yes","payment:cheque":"yes","phone":"+1-906-932-1330","tents":"yes","website":"https://www.fs.usda.gov/recarea/ottawa/recarea/?recid=12338"}}}