{"10228531":{"location":[46.0392473,-89.7032486],"ct":"US","tp":"CS","ts":"2019-10-29T13:41:44Z","tX":256,"tY":364,"tags":{"addr:city":"Woodruff","addr:housenumber":"3980","addr:postcode":"54568","addr:state":"WI","addr:street":"Day Lake Road","name":"Red Arrow Camp","website":"https://redarrowcamp.com/"}},"11168665":{"location":[45.8917505,-89.6506855],"ct":"US","tp":"CS","ts":"2020-06-03T20:45:41Z","tX":256,"tY":364,"tags":{}},"11172750":{"location":[45.8585914,-89.734784],"ct":"US","tp":"CS","ts":"2021-10-18T23:47:17Z","tX":256,"tY":364,"tags":{"addr:city":"Minocqua","addr:housenumber":"10000","addr:postcode":"54548","addr:state":"WI","addr:street":"Kawaga Road","name":"Camp Kawaga"}},"11172752":{"location":[45.8452047,-89.7539393],"ct":"US","tp":"CS","ts":"2025-01-21T18:18:57Z","tX":256,"tY":364,"tags":{"addr:city":"Minocqua","addr:housenumber":"7851","addr:postcode":"54548","addr:state":"WI","addr:street":"Agawak Road","name":"Camp Agawak"}},"11175276":{"location":[45.9153874,-89.6550556],"ct":"US","tp":"CS","ts":"2020-06-05T17:47:17Z","tX":256,"tY":364,"tags":{}},"13383211":{"location":[45.9381955,-89.7168215],"ct":"US","tp":"CS","ts":"2023-06-16T12:29:08Z","tX":256,"tY":364,"tags":{"access":"private","fee":"yes","name":"Camp Timberland for Boys","website":"https://camptimberlane.com/"}},"13592936":{"location":[46.0311784,-89.8580373],"ct":"US","tp":"CS","ts":"2021-12-25T15:24:36Z","tX":256,"tY":364,"tags":{"access":"private","addr:city":"Lac du Flambeau","addr:housenumber":"13400","addr:postcode":"54538","addr:state":"WI","addr:street":"Camp Nawakwa Lane","fee":"yes","name":"YMCA Family Camp Nawakwa","operator":"YMCA of Metro Chicago","website":"https://www.ymcachicago.org/nawakwa/"}},"14033249":{"location":[45.9699859,-89.9131369],"ct":"US","tp":"CS","ts":"2025-06-06T14:48:54Z","tX":256,"tY":364,"tags":{"caravans":"yes","drinking_water":"yes","fee":"yes","name":"Lac du Flambeau Tribal Campground","operator":"Lac du Flambeau Band of Lake Superior Chippewa Indians","reservation":"yes","shower":"yes","source":"Local knowledge","tents":"yes","toilets":"yes"}},"433403944":{"location":[45.9154645,-89.6986016],"ct":"US","tp":"CS","ts":"2025-06-05T13:33:52Z","tX":256,"tY":364,"tags":{"access":"customers","addr:city":"Arbor Vitae","addr:housenumber":"11165","addr:postcode":"54568","addr:state":"WI","addr:street":"Fox Fire Road","name":"Fox Fire Campground","website":"https://www.foxfirecampground.com/"}},"1182462586":{"location":[45.8772639,-89.7545537],"ct":"US","tp":"CS","ts":"2025-06-05T13:33:52Z","tX":256,"tY":364,"tags":{"access":"customers","name":"Patricia Lake Campground","website":"https://www.patricialakecampground.com/"}},"1392690688":{"location":[46.0224378,-89.6539428],"ct":"US","tp":"CS","ts":"2025-06-06T13:48:22Z","tX":256,"tY":364,"tags":{"bin":"yes","camp_site":"standard","capacity:pitches":"23","caravans":"yes","drinking_water":"yes","fee":"yes","name":"South Trout Lake Campground","openfire":"yes","operator":"Wisconsin Department of Natural Resources","reservation":"required","shower":"no","static_caravans":"no","tents":"yes","toilets":"yes"}},"2418589236":{"location":[45.9714224,-89.9112126],"ct":"US","tp":"CS","ts":"2020-07-07T12:36:42Z","tX":256,"tY":364,"tags":{"name":"Lac du Flambeau Tribal Campground","operator":"Lac du Flambeau Band of Lake Superior Chippewa Indians","source":"local_knowledge"}},"7164807985":{"location":[46.0329781,-89.8647062],"ct":"US","tp":"CS","ts":"2021-12-25T15:24:36Z","tX":256,"tY":364,"tags":{"addr:housenumber":"13400","addr:postcode":"54538","addr:street":"Camp Nawakwa Lane","name":"Camp Nawakwa"}},"7687864604":{"location":[45.8649482,-89.6502749],"ct":"US","tp":"CS","ts":"2020-07-06T13:29:36Z","tX":256,"tY":364,"tags":{"name":"Clear Lake Campground"}},"12902325272":{"location":[46.0687196,-89.7329696],"ct":"US","tp":"CS","ts":"2025-06-10T14:16:30Z","tX":256,"tY":364,"tags":{"backcountry":"yes","bin":"no","canoe":"yes","caravans":"no","fee":"no","name":"Upper Gresham Canoe 1","openfire":"yes","operator":"Wisconsin Department of Natural Resources","ref":"UG1","reservation":"no","shower":"no","static_caravans":"no","tents":"yes","toilets":"yes"}},"12902325273":{"location":[46.0538006,-89.743677],"ct":"US","tp":"CS","ts":"2025-06-10T14:16:30Z","tX":256,"tY":364,"tags":{"backcountry":"yes","bin":"no","canoe":"yes","caravans":"no","fee":"no","name":"Middle Gresham Canoe 1","openfire":"yes","operator":"Wisconsin Department of Natural Resources","ref":"MG1","reservation":"no","shower":"no","static_caravans":"no","tents":"yes","toilets":"yes"}},"12902325274":{"location":[46.0459151,-89.751906],"ct":"US","tp":"CS","ts":"2025-06-10T14:16:30Z","tX":256,"tY":364,"tags":{"backcountry":"yes","bin":"no","canoe":"yes","caravans":"no","fee":"no","name":"Lower Gresham Canoe 1","openfire":"yes","operator":"Wisconsin Department of Natural Resources","ref":"LG1","reservation":"no","shower":"no","static_caravans":"no","tents":"yes","toilets":"yes"}},"12902325275":{"location":[46.0267515,-89.7383447],"ct":"US","tp":"CS","ts":"2025-06-10T14:16:30Z","tX":256,"tY":364,"tags":{"backcountry":"yes","bin":"no","canoe":"yes","caravans":"no","fee":"no","name":"Trout River Canoe 27","openfire":"yes","operator":"Wisconsin Department of Natural Resources","ref":"TR27","reservation":"no","shower":"no","static_caravans":"no","tents":"yes","toilets":"yes"}},"12902357133":{"location":[46.0657644,-89.7072096],"ct":"US","tp":"CS","ts":"2025-06-10T14:24:44Z","tX":256,"tY":364,"tags":{"backcountry":"yes","bin":"no","canoe":"yes","caravans":"no","fee":"yes","openfire":"yes","operator":"Wisconsin Department of Natural Resources","ref":"621","reservation":"required","shower":"no","static_caravans":"no","tents":"yes","toilets":"yes"}},"12902357134":{"location":[46.0640076,-89.7060938],"ct":"US","tp":"CS","ts":"2025-06-10T14:24:44Z","tX":256,"tY":364,"tags":{"backcountry":"yes","bin":"no","canoe":"yes","caravans":"no","fee":"yes","openfire":"yes","operator":"Wisconsin Department of Natural Resources","ref":"622","reservation":"required","shower":"no","static_caravans":"no","tents":"yes","toilets":"yes"}},"12907963440":{"location":[46.0614202,-89.6703925],"ct":"US","tp":"CS","ts":"2025-06-11T19:51:53Z","tX":256,"tY":364,"tags":{"backcountry":"yes","bin":"no","canoe":"yes","caravans":"no","fee":"no","name":"Trout Lake Canoe 6","openfire":"yes","operator":"Wisconsin Department of Natural Resources","ref":"T6","reservation":"no","shower":"no","static_caravans":"no","tents":"yes","toilets":"yes"}},"12907963441":{"location":[46.0525273,-89.6769958],"ct":"US","tp":"CS","ts":"2025-06-11T19:51:53Z","tX":256,"tY":364,"tags":{"backcountry":"yes","bin":"no","canoe":"yes","caravans":"no","fee":"no","name":"Trout Lake Canoe 5","openfire":"yes","operator":"Wisconsin Department of Natural Resources","ref":"T5","reservation":"no","shower":"no","static_caravans":"no","tents":"yes","toilets":"yes"}},"12907963442":{"location":[46.0499755,-89.6750159],"ct":"US","tp":"CS","ts":"2025-06-11T19:51:53Z","tX":256,"tY":364,"tags":{"backcountry":"yes","bin":"no","canoe":"yes","caravans":"no","fee":"no","name":"Trout Lake Canoe 4","openfire":"yes","operator":"Wisconsin Department of Natural Resources","ref":"T4","reservation":"no","shower":"no","static_caravans":"no","tents":"yes","toilets":"yes"}},"12907963443":{"location":[46.0465703,-89.6796828],"ct":"US","tp":"CS","ts":"2025-06-11T19:51:53Z","tX":256,"tY":364,"tags":{"backcountry":"yes","bin":"no","canoe":"yes","caravans":"no","fee":"no","name":"Trout Lake Canoe 3","openfire":"yes","operator":"Wisconsin Department of Natural Resources","ref":"T3","reservation":"no","shower":"no","static_caravans":"no","tents":"yes","toilets":"yes"}},"12907963444":{"location":[46.0446599,-89.6806184],"ct":"US","tp":"CS","ts":"2025-06-11T19:51:53Z","tX":256,"tY":364,"tags":{"backcountry":"yes","bin":"no","canoe":"yes","caravans":"no","fee":"no","name":"Trout Lake Canoe 2","openfire":"yes","operator":"Wisconsin Department of Natural Resources","ref":"T2","reservation":"no","shower":"no","static_caravans":"no","tents":"yes","toilets":"yes"}},"12907963445":{"location":[46.0430667,-89.6822175],"ct":"US","tp":"CS","ts":"2025-06-11T19:51:53Z","tX":256,"tY":364,"tags":{"backcountry":"yes","bin":"no","canoe":"yes","caravans":"no","fee":"no","name":"Trout Lake Canoe 1","openfire":"yes","operator":"Wisconsin Department of Natural Resources","ref":"T1","reservation":"no","shower":"no","static_caravans":"no","tents":"yes","toilets":"yes"}}}