{"585936366":{"location":[44.7090324,-89.695009],"ct":"US","tp":"CS","ts":"2018-05-05T17:49:02Z","tX":256,"tY":369,"tags":{"addr:city":"Mosinee","addr:housenumber":"1713","addr:postcode":"54455","addr:state":"WI","addr:street":"Dubay Drive","name":"Lake DuBay Shores Campground"}},"1169765643":{"location":[44.7408341,-89.8502764],"ct":"US","tp":"CS","ts":"2023-05-08T02:13:22Z","tX":256,"tY":369,"tags":{"caravans":"yes","fee":"yes","name":"Group Campsite"}},"3900770344":{"location":[44.743544,-89.8518758],"ct":"US","tp":"CS","ts":"2023-05-08T02:13:22Z","tX":256,"tY":369,"tags":{"caravans":"yes","name":"West Unit Campground","operator":"Marathon County","static_caravans":"no","tents":"no"}},"3900770345":{"location":[44.7368574,-89.8362505],"ct":"US","tp":"CS","ts":"2023-05-08T02:13:22Z","tX":256,"tY":369,"tags":{"caravans":"yes","name":"South Unit Campground","operator":"Marathon County","tents":"yes"}},"10876887660":{"location":[44.7578468,-89.8583761],"ct":"US","tp":"SD","ts":"2023-05-08T02:14:40Z","tX":256,"tY":369,"tags":{"access":"yes","charge":"7 USD (All Users)","fee":"yes","payment:cash":"yes","water_point":"yes"}}}