{"10831070":{"location":[44.3381033,-89.8236412],"ct":"US","tp":"CS","ts":"2020-03-14T03:00:12Z","tX":256,"tY":371,"tags":{"addr:city":"Wisconsin Rapids","addr:housenumber":"1053","addr:postcode":"54494","addr:state":"WI","addr:street":"Camp Road","name":"YMCA Camp Alexander","operator":"South Wood County YMCA"}},"4482637395":{"location":[44.1254616,-89.8060559],"ct":"US","tp":"CS","ts":"2016-11-04T19:41:38Z","tX":256,"tY":371,"tags":{"name":"Pineland Camping","name:en":"Pineland Camping"}},"7233193719":{"location":[44.1572126,-89.982913],"ct":"US","tp":"CS","ts":"2024-10-09T05:37:34Z","tX":256,"tY":371,"tags":{"capacity":"127","charge":"23 USD","fee":"yes","name":"Juneau County Wilderness Park Campground","operator":"Juneau County","phone":"+1-608-565-7285.","power_supply":"yes","reservation":"yes","shower":"yes","website":"https://www.co.juneau.wi.gov/wilderness.html"}},"7462946124":{"location":[44.1198858,-89.9617165],"ct":"US","tp":"CS","ts":"2024-10-09T05:37:34Z","tX":256,"tY":371,"tags":{"addr:city":"Arkdale","addr:state":"WI","capacity":"149","charge":"20 USD","fee":"yes","name":"Petenwell County Park Main Campground","phone":"+1-608-564-7513","power_supply":"yes","reservation":"yes","shower":"yes","toilets":"yes"}},"7462946125":{"location":[44.1160854,-89.9672514],"ct":"US","tp":"CS","ts":"2024-10-09T05:37:34Z","tX":256,"tY":371,"tags":{"addr:city":"Arkdale","addr:state":"WI","capacity":"124","charge":"28 USD","fee":"yes","name":"Petenwell County Park Annex Campground","phone":"+1-608-564-7513","power_supply":"yes","shower":"yes"}},"9923444195":{"location":[44.1169332,-89.9534522],"ct":"US","tp":"CS","ts":"2022-08-01T00:42:22Z","tX":256,"tY":371,"tags":{"name":"Petenwell County ATV/UTV Campground","operator":"Petenwell County"}},"4430082396":{"location":[44.1189715,-89.9568208],"ct":"US","tp":"SD","ts":"2016-10-04T02:17:24Z","tX":256,"tY":371,"tags":{}},"9923444189":{"location":[44.1166983,-89.9528492],"ct":"US","tp":"SD","ts":"2022-08-01T00:42:22Z","tX":256,"tY":371,"tags":{}},"12468284932":{"location":[44.1218065,-89.9578925],"ct":"US","tp":"CS","ts":"2025-01-02T15:15:09Z","tX":256,"tY":371,"tags":{"name":"BATURA"}}}