{"12332012":{"location":[43.5766598,-89.8000709],"ct":"US","tp":"CR","ts":"2023-04-25T17:11:16Z","tX":256,"tY":374,"tags":{"addr:city":"Baraboo","addr:housenumber":"S1915","addr:postcode":"53913","addr:state":"WI","addr:street":"Ishnala Road","brand":"Yogi Bear's Jellystone Park","brand:wikidata":"Q8054389","name":"Yogi Bear's Jellystone Park","official_name":"Yogi Bear's Jellystone Park Camp-Resorts","phone":"+1-800-462-9644","source":"Yogi Bear's Jellystone Campground","website":"https://dellsjellystone.com/","wikipedia":"en:Yogi Bear's Jellystone Park Camp-Resorts"}},"287659410":{"location":[43.3928782,-89.6785877],"ct":"US","tp":"CS","ts":"2023-02-22T14:50:21Z","tX":256,"tY":374,"tags":{"addr:city":"Merrimac","addr:housenumber":"E12995","addr:postcode":"53561","addr:street":"Halweg Road","name":"Merry Mac's Campground","website":"https://www.merrymacscampground.com/"}},"292218092":{"location":[43.4561599,-89.7022057],"ct":"US","tp":"CS","ts":"2024-05-31T18:48:27Z","tX":256,"tY":374,"tags":{"addr:city":"Baraboo","addr:housenumber":"E12442","addr:state":"WI","addr:street":"County Road W","capacity":"50","drinking_water":"yes","name":"Double K-D Ranch Campground","power_supply":"yes","tents":"yes","toilets":"yes"}},"292226196":{"location":[43.5287956,-89.7550626],"ct":"US","tp":"CR","ts":"2025-06-18T19:08:56Z","tX":256,"tY":374,"tags":{"addr:city":"Baraboo","addr:housenumber":"E11371","addr:postcode":"53913","addr:street":"North Reedsburg Road","name":"Fox Hill RV Park & Campground","phone":"888-860-5977","tents":"yes","website":"https://www.foxhillrvpark.com/"}},"292226198":{"location":[43.5488642,-89.7954137],"ct":"US","tp":"CS","ts":"2023-10-30T01:27:53Z","tX":256,"tY":374,"tags":{"addr:city":"Baraboo","addr:housenumber":"E10562","addr:state":"WI","addr:street":"Shady Lane Road","name":"Dell Pines Campground","website":"https://www.dellpines.com/"}},"292759305":{"location":[43.4947915,-89.7954069],"ct":"US","tp":"CS","ts":"2024-11-09T16:52:14Z","tX":256,"tY":374,"tags":{"addr:city":"Baraboo","addr:housenumber":"E10545","addr:postcode":"53913","addr:street":"Terrytown Road","name":"Baraboo Hills Campground","website":"http://www.baraboohillscampground.com/"}},"321560050":{"location":[43.4291723,-89.7750331],"ct":"US","tp":"CS","ts":"2020-03-15T14:22:22Z","tX":256,"tY":374,"tags":{"contact:facebook":"https://www.facebook.com/Green-Valley-Campground-692111220822942/","contact:phone":"608-355-0090","contact:tripadvisor":"http://www.tripadvisor.com/Hotel_Review-g59686-d1644820-Reviews-Green_Valley_Campground-Baraboo_Wisconsin.html","fee":"yes","internet_access":"no","name":"Green Valley Campground"}},"496380608":{"location":[43.4320679,-89.7286851],"ct":"US","tp":"CS","ts":"2025-05-29T11:48:34Z","tX":256,"tY":374,"tags":{"caravans":"yes","drinking_water":"yes","name":"Northern Lights Campground","operator":"Devil's Lake State Park","power_supply":"yes","sanitary_dump_station":"yes","shower":"yes","tents":"yes","toilets":"yes"}},"515983906":{"location":[43.4098948,-89.7112338],"ct":"US","tp":"CS","ts":"2023-02-07T15:37:53Z","tX":256,"tY":374,"tags":{"name":"Group Campground"}},"549417535":{"location":[43.5646426,-89.7960307],"ct":"US","tp":"CR","ts":"2023-10-30T01:43:08Z","tX":256,"tY":374,"tags":{"access":"private","name":"Pioneer Park","website":"https://www.pioneerparkltd.com/"}},"575031699":{"location":[43.566839,-89.8050162],"ct":"US","tp":"CS","ts":"2023-11-13T03:27:28Z","tX":256,"tY":374,"tags":{"group_only":"yes","name":"Group Camp","power_supply":"no"}},"754404770":{"location":[43.5416761,-89.8155148],"ct":"US","tp":"CS","ts":"2019-12-10T22:10:13Z","tX":256,"tY":374,"tags":{"addr:city":"Reedsburg","addr:housenumber":"E1021","addr:postcode":"53959","addr:state":"WI","addr:street":"Shady Lane Road","name":"Camp Gray"}},"795534914":{"location":[43.5643467,-89.8064144],"ct":"US","tp":"CS","ts":"2023-11-13T03:27:28Z","tX":256,"tY":374,"tags":{"name":"Bluewater Bay Campground","power_supply":"no"}},"795534920":{"location":[43.5692796,-89.8081372],"ct":"US","tp":"CS","ts":"2023-11-13T03:27:28Z","tX":256,"tY":374,"tags":{"name":"Sandstone Ridge Campground","power_supply":"yes"}},"795534929":{"location":[43.5719946,-89.8078949],"ct":"US","tp":"CS","ts":"2023-11-13T03:27:28Z","tX":256,"tY":374,"tags":{"name":"Cliffwood Campground","power_supply":"yes"}},"807921757":{"location":[43.435886,-89.7562878],"ct":"US","tp":"CS","ts":"2021-11-13T23:23:26Z","tX":256,"tY":374,"tags":{"addr:city":"Baraboo","addr:housenumber":"E11329","addr:postcode":"53913","addr:state":"WI","addr:street":"State Highway 159","fee":"yes","name":"Wheeler's Campground","website":"http://wheelerscampground.com/"}},"823014144":{"location":[43.531147,-89.7716817],"ct":"US","tp":"CR","ts":"2020-07-05T01:48:36Z","tX":256,"tY":374,"tags":{"name":"Ho-Chunk Gaming RV Park","operator":"Ho-Chunk Nation","website":"https://www.ho-chunkgaming.com/wisconsindells/"}},"983638383":{"location":[43.5605272,-89.776212],"ct":"US","tp":"CR","ts":"2021-09-15T14:39:09Z","tX":256,"tY":374,"tags":{}},"1138378077":{"location":[43.4341833,-89.7205498],"ct":"US","tp":"CS","ts":"2023-02-06T20:10:55Z","tX":256,"tY":374,"tags":{"name":"Ice Age Campground","operator":"WI DNR"}},"1141349053":{"location":[43.4321034,-89.7346431],"ct":"US","tp":"CS","ts":"2023-02-09T15:05:26Z","tX":256,"tY":374,"tags":{"name":"Quartzite Campground","operator":"Devil's Lake State Park"}},"7158261116":{"location":[43.4293614,-89.7318886],"ct":"US","tp":"CS","ts":"2025-05-29T11:52:10Z","tX":256,"tY":374,"tags":{"capacity":"423","caravans":"yes","charge":"40 USD","drinking_water":"yes","fee":"yes","name":"Devilâ€™s Lake State Park Campgrounds","power_supply":"yes","reservation":"required","shower":"yes","tents":"yes","toilets":"yes","website":"https://dnr.wisconsin.gov/topic/parks/devilslake/recreation/camping"}},"12235408217":{"location":[43.409573,-89.7131668],"ct":"US","tp":"CS","ts":"2024-10-08T14:57:36Z","tX":256,"tY":374,"tags":{"check_date":"2024-10-05","group_only":"yes","name":"G3"}},"5518543880":{"location":[43.5627502,-89.804307],"ct":"US","tp":"SD","ts":"2023-11-16T03:47:31Z","tX":256,"tY":374,"tags":{}}}