{"443636692":{"location":[42.7622176,-89.9506944],"ct":"US","tp":"CR","ts":"2016-09-21T17:17:54Z","tX":256,"tY":377,"tags":{"addr:city":"Blanchardville","addr:housenumber":"18472","addr:postcode":"53516","addr:state":"WI","addr:street":"North Lake Road","name":"Yellowstone Lake Chalet Campground","phone":"608-523-4121"}},"443636699":{"location":[42.7595818,-89.951285],"ct":"US","tp":"CR","ts":"2016-09-21T17:17:54Z","tX":256,"tY":377,"tags":{"addr:city":"Blanchardville","addr:housenumber":"18272","addr:postcode":"53516","addr:state":"WI","addr:street":"South Lake Road","name":"Yellowstone Outdoor Camp & Resort"}},"858655546":{"location":[42.7723366,-89.9708691],"ct":"US","tp":"CS","ts":"2020-10-13T18:20:20Z","tX":256,"tY":377,"tags":{"area":"yes","name":"Yellowstone Lake State Park Campground"}},"3638766891":{"location":[42.8102987,-89.8592263],"ct":"US","tp":"CS","ts":"2024-10-09T05:37:34Z","tX":256,"tY":377,"tags":{"addr:city":"Blanchardville","addr:state":"WI","capacity":"15","charge":"20 USD","drinking_water":"yes","fee":"yes","name":"McKellar Park Campground","reservation":"no","toilets":"no","tourism_1":"camp_site"}},"7471934933":{"location":[42.6616883,-89.87926],"ct":"US","tp":"CS","ts":"2024-10-09T05:37:34Z","tX":256,"tY":377,"tags":{"addr:city":"Woodford","addr:state":"WI","capacity":"38","charge":"10 USD","fee":"yes","name":"Blackhawk Memoreial Park Campground","phone":"608-465-3472","reservation":"no","toilets:type":"pit"}},"8004319696":{"location":[42.7753026,-89.9684643],"ct":"US","tp":"SD","ts":"2020-10-13T18:00:12Z","tX":256,"tY":377,"tags":{}}}