{"3496206884":{"location":[-27.4105255,-55.9771078],"ct":"AR","tp":"CS","ts":"2023-12-04T12:14:56Z","tX":352,"tY":593,"tags":{"addr:city":"Posadas","addr:postcode":"3300","addr:street":"Ruta Nacional 12","name":"Nuevo Acapulco","phone":"+54 376 4767343","tents":"yes"}},"5191936625":{"location":[-27.4601674,-56.0521266],"ct":"AR","tp":"CS","ts":"2017-10-26T20:29:22Z","tX":352,"tY":593,"tags":{"name":"Carmen del Itaembe"}},"8119557174":{"location":[-27.4340806,-55.9347774],"ct":"AR","tp":"CS","ts":"2024-12-06T12:38:38Z","tX":352,"tY":593,"tags":{"access":"yes","addr:city":"Posadas","addr:housenumber":"4015","addr:postcode":"3300","addr:street":"Avenida Juan Manuel Fangio","caravans":"yes","contact:facebook":"https://www.facebook.com/camping.sanisidro","contact:phone":"+54 376 4905931","fee":"yes","name":"Camping San Isidro","payment:debit_cards":"yes","payment:prepaid_ticket":"yes","static_caravans":"yes","tents":"yes"}},"9124128617":{"location":[-27.4021011,-56.1759674],"ct":"AR","tp":"CS","ts":"2021-09-26T11:58:39Z","tX":352,"tY":593,"tags":{"name":"Puerto Mbigua"}}}