{"561648599":{"location":[-32.4172848,-63.2763858],"ct":"AR","tp":"CS","ts":"2018-02-16T00:52:48Z","tX":332,"tY":609,"tags":{"addr:city":"Villa María","addr:postcode":"5900","addr:street":"Laguna Blanca","name":"Predio \"Jose Riesco\" CEC Villa María"}},"643979408":{"location":[-32.4337478,-63.1789591],"ct":"AR","tp":"CS","ts":"2023-05-03T03:50:57Z","tX":332,"tY":609,"tags":{"name":"Camping SMATA"}},"643995744":{"location":[-32.4332275,-63.1835286],"ct":"AR","tp":"CS","ts":"2023-05-08T03:10:30Z","tX":332,"tY":609,"tags":{"addr:city":"Villa María","addr:postcode":"5900","addr:street":"Ruta Nacional 1V09","name":"Vialidad Nacional Campamento VM"}},"1235852849":{"location":[-32.4252999,-63.2525408],"ct":"AR","tp":"CS","ts":"2023-12-31T16:39:38Z","tX":332,"tY":609,"tags":{}},"5965346595":{"location":[-32.4255738,-63.2326108],"ct":"AR","tp":"CS","ts":"2022-05-20T04:03:30Z","tX":332,"tY":609,"tags":{"name":"Complejo Deportivo y Recreativo S.U.O.E.M."}},"11473298108":{"location":[-32.425112,-63.2523691],"ct":"AR","tp":"CS","ts":"2023-12-31T16:39:38Z","tX":332,"tY":609,"tags":{"name":"Circulos de Suboficiales y Agentes Asociacion Mutual Policía de Córdoba - Camping Villa Nueva"}},"9347421562":{"location":[-32.394413,-63.2422867],"ct":"AR","tp":"CR","ts":"2023-10-23T09:41:40Z","tX":332,"tY":609,"tags":{"addr:housenumber":"2040","addr:street":"Sucre","name":"Grassani y Cía SRL","opening_hours":"Mo-Fr 08:00-14:00","phone":"0353 4533100","website":"https://grassani.com/"}},"9347428287":{"location":[-32.4215088,-63.2149773],"ct":"AR","tp":"CR","ts":"2022-09-11T20:49:07Z","tX":332,"tY":609,"tags":{"addr:housenumber":"2255","addr:street":"Avenida Presidente Juan Domingo Perón","name":"Vigna Furgones y Carrocerías","opening_hours":"Mo-Fr 07:30-12:00, 14:30-19:00","phone":"0353 4533327","website":"https://mvigna.com.ar/"}}}