{"16650858":{"location":[46.796556,-90.6736422],"ct":"US","tp":"CS","ts":"2025-06-22T06:06:04Z","tX":254,"tY":361,"tags":{"access":"yes","area":"yes","drinking_water":"yes","fee":"yes","name":"Big Bay State Park Campground","operator":"Wisconsin Department of Natural Resources","operator:short":"Wisconsin DNR","operator:type":"government","operator:website":"https://dnr.wisconsin.gov/topic/Parks","operator:wikidata":"Q1467508","operator:wikipedia":"en:Wisconsin Department of Natural Resources","power_supply":"yes","reservation":"required","shower":"yes","toilets":"yes"}},"165130392":{"location":[46.5589394,-90.4383074],"ct":"US","tp":"CR","ts":"2021-06-21T01:48:13Z","tX":254,"tY":361,"tags":{"source":"Bing"}},"7154273867":{"location":[46.5608897,-90.4406368],"ct":"US","tp":"CS","ts":"2023-07-24T16:25:51Z","tX":254,"tY":361,"tags":{"addr:city":"Saxon","addr:housenumber":"272","addr:postcode":"54559","addr:state":"WI","addr:street":"Co Highway A","drinking_water":"yes","name":"Driftwood Campground","power_supply":"yes","tents":"yes","toilets":"yes"}},"10263168543":{"location":[46.788424,-90.6686323],"ct":"US","tp":"CS","ts":"2025-06-22T20:15:40Z","tX":254,"tY":361,"tags":{"drinking_water":"yes","group_only":"yes","name":"Big Bay State Park Group Camp Site 1","operator":"Wisconsin Department of Natural Resources","reservation":"required"}}}