{"967052120":{"location":[46.5122895,-90.505453],"ct":"US","tp":"CS","ts":"2021-07-24T17:04:15Z","tX":254,"tY":362,"tags":{"addr:city":"Saxon","addr:housenumber":"11296W","addr:postcode":"54559","addr:state":"WI","addr:street":"US 2","name":"Frontier Campground"}},"1943750209":{"location":[46.3848506,-90.6387765],"ct":"US","tp":"CS","ts":"2022-08-01T19:34:59Z","tX":254,"tY":362,"tags":{"fee":"yes","name":"BP1 - Sandy Ledges Campsite","operator":"Copper Falls State Park"}},"2531722205":{"location":[46.3593099,-90.6454306],"ct":"US","tp":"CS","ts":"2019-08-07T03:10:00Z","tX":254,"tY":362,"tags":{"name":"South Camp Area","operator":"Copper Falls State Park"}},"6690011001":{"location":[46.3663453,-90.646744],"ct":"US","tp":"CS","ts":"2020-01-24T20:03:31Z","tX":254,"tY":362,"tags":{"cabins":"1","capacity":"24","name":"North Camp Area","operator":"Copper Falls State Park","power_supply":"yes","reservation":"recommended","shower":"yes","toilets":"yes"}},"6690011002":{"location":[46.3608515,-90.6496594],"ct":"US","tp":"CS","ts":"2025-01-06T04:49:34Z","tX":254,"tY":362,"tags":{"fee":"yes","name":"Group Camp","operator":"Copper Falls State Park"}},"7354881521":{"location":[46.391543,-90.4770928],"ct":"US","tp":"CS","ts":"2020-04-01T15:15:00Z","tX":254,"tY":362,"tags":{"backcountry":"yes","name":"Gold Mine West"}},"7354881751":{"location":[46.3979433,-90.5071417],"ct":"US","tp":"CS","ts":"2020-04-01T15:15:00Z","tX":254,"tY":362,"tags":{"backcountry":"yes","name":"Wren Falls"}},"7660958633":{"location":[46.4086888,-90.3932757],"ct":"US","tp":"CS","ts":"2020-06-28T15:32:39Z","tX":254,"tY":362,"tags":{}},"9045499722":{"location":[46.4618235,-90.5278199],"ct":"US","tp":"CS","ts":"2021-08-29T16:08:59Z","tX":254,"tY":362,"tags":{"operator":"Iron County"}}}