{"525400973":{"location":[45.9403068,-90.4405403],"ct":"US","tp":"CS","ts":"2017-09-17T16:06:16Z","tX":254,"tY":364,"tags":{"operator":"City of Park Falls"}},"7157053972":{"location":[45.9025182,-90.5004438],"ct":"US","tp":"CS","ts":"2024-10-09T05:37:34Z","tX":254,"tY":364,"tags":{"addr:city":"Park Falls","addr:housenumber":"N14763","addr:postcode":"54452","addr:state":"WI","addr:street":"Omaha Road","capacity":"30","charge":"25 USD","drinking_water":"yes","fee":"yes","name":"Smith Lake County Park & Campground","power_supply":"yes","sanitary_dump_station":"yes","shelter_type":"picnic_shelter","shower":"yes","toilets:type":"flush","website":"https://co.price.wi.us/Facilities/Facility/Details/Smith-Lake-County-Park-Campground-2"}},"7157134740":{"location":[45.9402565,-90.4404612],"ct":"US","tp":"CS","ts":"2024-10-09T05:37:34Z","tX":254,"tY":364,"tags":{"addr:city":"Park Fals","addr:housenumber":"1019","addr:postcode":"54552","addr:state":"WI","addr:street":"Saunders Ave.","charge":"25 USD","drinking_water":"yes","fee":"yes","power_supply":"yes","shelter_type":"picnic_shelter","shower":"yes","toilets":"yes","website":"https://co.price.wi.us/Facilities/Facility/Details/Hines-Park-Campground-10"}}}