{"380508942":{"location":[42.4367604,-90.4457858],"ct":"US","tp":"CS","ts":"2020-09-01T10:58:52Z","tX":254,"tY":378,"tags":{"addr:city":"Galena","addr:postcode":"61036","addr:state":"IL"}},"7157473822":{"location":[42.5217587,-90.6407812],"ct":"US","tp":"CS","ts":"2024-08-26T05:15:41Z","tX":254,"tY":378,"tags":{"addr:city":"Dubuque","addr:housenumber":"1851","addr:state":"IA","addr:street":"Admiral Sheehy Drive","charge":"18 USD","fee":"yes","internet_access":"no","name":"Miller Riverview Park & Campground","phone":"+1-563-589-4238","power_supply":"yes","reservation":"yes","seasonal":"spring;summer;autumn","wheelchair":"yes"}},"7442084001":{"location":[42.4333088,-90.5867544],"ct":"US","tp":"CS","ts":"2024-08-26T05:15:41Z","tX":254,"tY":378,"tags":{"addr:city":"Dubuque","addr:state":"IA","charge":"17 USD","fee":"yes","name":"Massey Marina and Park Campgrounds","phone":"+1-563-556-6745","power_supply":"yes","reservation":"yes","shower":"yes"}},"7447873968":{"location":[42.3034598,-90.434477],"ct":"US","tp":"CS","ts":"2024-08-26T05:15:41Z","tX":254,"tY":378,"tags":{"access":"yes","addr:city":"Bellevue","addr:postcode":"52031","addr:state":"IA","capacity":"85","caravans":"yes","charge":"22 USD","fee":"yes","name":"Spruce Creek Park Campground","operator":"Jackson County Conservation","phone":"+1-563-652-3783","reservation":"yes","sanitary_dump_station":"yes","static_caravans":"no","tents":"yes","toilets":"yes"}}}