{"670589437":{"location":[39.0067246,-90.5138916],"ct":"US","tp":"CS","ts":"2019-02-14T22:41:31Z","tX":254,"tY":391,"tags":{"name":"Camp Potawatomi"}},"670589438":{"location":[39.0052929,-90.5394122],"ct":"US","tp":"CS","ts":"2019-02-14T22:41:31Z","tX":254,"tY":391,"tags":{"name":"Camp Quatoga"}},"670589439":{"location":[39.021032,-90.5441866],"ct":"US","tp":"CS","ts":"2019-02-14T22:41:31Z","tX":254,"tY":391,"tags":{"name":"Camp Piasa"}},"10130580874":{"location":[38.9723702,-90.5380567],"ct":"US","tp":"CS","ts":"2023-05-25T16:28:03Z","tX":254,"tY":391,"tags":{"addr:city":"Grafton","addr:postcode":"62037","addr:state":"IL","addr:street":"Park Road","name":"Tent Camping (Class B)","website":"https://www2.illinois.gov/dnr/Parks/Camp/Pages/PereMarquette.aspx"}},"10130580873":{"location":[38.9696972,-90.5382366],"ct":"US","tp":"CR","ts":"2022-10-26T15:28:40Z","tX":254,"tY":391,"tags":{"addr:city":"Grafton","addr:postcode":"62037","addr:state":"IL","addr:street":"Park Road","website":"https://www2.illinois.gov/dnr/Parks/Camp/Pages/PereMarquette.aspx"}}}