{"649176336":{"location":[21.1346726,105.9474968],"ct":"VN","tp":"SD","ts":"2018-11-26T14:39:47Z","tX":813,"tY":450,"tags":{}},"1051466849":{"location":[21.0784083,105.8352103],"ct":"VN","tp":"CS","ts":"2025-03-17T10:28:09Z","tX":813,"tY":450,"tags":{"fee":"yes","name":"Bãi đá Sông Hồng","payment:cash":"yes"}},"1208213136":{"location":[21.0156872,105.8798339],"ct":"VN","tp":"CS","ts":"2023-09-16T06:36:30Z","tX":813,"tY":450,"tags":{"name":"Long Bien Longan Garden","name:en":"Long Bien Longan Garden","name:vi":"Vườn Nhãn Long Biên"}},"1226943911":{"location":[21.0057421,105.8859705],"ct":"VN","tp":"CS","ts":"2023-11-26T13:42:03Z","tX":813,"tY":450,"tags":{"access":"permissive","name":"Red River Camping","name:en":"Red River Camping","name:vi":"Bãi Cắm Trại Sông Hồng","phone":"+84776220879"}},"10839117352":{"location":[21.0878006,105.8210713],"ct":"VN","tp":"CS","ts":"2025-03-17T10:28:09Z","tX":813,"tY":450,"tags":{"addr:city":"Tây Hồ","addr:housenumber":"139","addr:province":"Hà Nội","addr:street":"Ngõ 464 Âu Cơ","addr:subdistrict":"Phú Thượng","name":"Cắm trại chân cầu NT"}},"12672794655":{"location":[21.0782583,105.8370925],"ct":"VN","tp":"CS","ts":"2025-03-17T10:28:09Z","tX":813,"tY":450,"tags":{"group_only":"yes"}}}