{"4682834394":{"location":[14.0183391,105.8799749],"ct":"LA","tp":"CS","ts":"2017-02-21T07:03:15Z","tX":813,"tY":471,"tags":{"description":"Wild campsite place","name:fr":"Spot de bivouac"}},"5336122522":{"location":[14.1058504,105.8522092],"ct":"LA","tp":"CS","ts":"2018-01-13T05:01:35Z","tX":813,"tY":471,"tags":{"name:en":"Camping spot w view on the Mekong","name:fr":"Bivouac avec vue sur le Mekong"}},"7005523886":{"location":[13.9562344,105.9166702],"ct":"LA","tp":"CS","ts":"2019-11-24T05:39:03Z","tX":813,"tY":471,"tags":{"name:en":"Secret campsite - from here go along the river to the waterfalls (cross before 7 and you'll have it for free to yourself)"}},"7037505585":{"location":[13.9847215,105.9176962],"ct":"LA","tp":"CS","ts":"2020-02-11T15:07:25Z","tX":813,"tY":471,"tags":{"name:en":"Camp place behind the private building","name:ru":"Место для палатки. С дороги ныряете в проулок, и там тихое место. Рядом есть розетки и кран с водой."}},"7128716185":{"location":[13.9496867,105.9194342],"ct":"LA","tp":"CS","ts":"2020-01-13T15:19:59Z","tX":813,"tY":471,"tags":{"name:en":"Camping without drinkable water"}}}