{"4621599419":{"location":[19.3359982,102.3714056],"ct":"LA","tp":"CS","ts":"2017-02-08T07:49:51Z","tX":803,"tY":455,"tags":{"name:en":"Organized campsite with access to springs","name:fr":"Camping aménagé avec accès aux sources","opening_hours":"24/7"}},"4864117321":{"location":[19.437181,102.4215269],"ct":"LA","tp":"CS","ts":"2021-01-07T06:34:33Z","tX":803,"tY":455,"tags":{"addr:street":"13N road","internet_access":"wlan","name:en":"Phoukoun Strawberry Farm","opening_hours":"24/7","operator":"Anouphon","phone":"02097888870","website":"http://www.facebook.com/Phoukounstrawberry"}},"7152821185":{"location":[19.4185158,102.4284313],"ct":"LA","tp":"CS","ts":"2020-01-23T02:39:29Z","tX":803,"tY":455,"tags":{"internet_access":"wlan","name:en":"At the rear of Salaphoukhoun"}},"7542857586":{"location":[19.5623081,102.3421184],"ct":"LA","tp":"CS","ts":"2020-05-21T00:45:15Z","tX":803,"tY":455,"tags":{"name:en":"Wild camp spot with water","name:fr":"Camping sauvage près d'une cascade"}},"10175634617":{"location":[19.4379479,102.4201297],"ct":"LA","tp":"CS","ts":"2022-11-11T11:55:58Z","tX":803,"tY":455,"tags":{"contact:facebook":"Phoukounstrawberry","email":"anouphon1@gmail.com","name:en":"Phoukoun Strawberry Farm","phone":"+8562076692331"}},"10704286205":{"location":[19.4377454,102.4211427],"ct":"LA","tp":"CS","ts":"2023-03-02T12:39:15Z","tX":803,"tY":455,"tags":{"email":"anouphon1@gmail.com","name:en":"Phoukhoun Strawberry and Camping","opening_hours":"24/7","phone":"+8562078999967"}}}