{"964262173":{"location":[36.7512676,43.9768964],"ct":"IQ","tp":"CS","ts":"2021-07-14T10:38:46Z","tX":637,"tY":399,"tags":{"access":"yes","addr:city":"akre","addr:street":"ڕێگای گەلی زەنتێ","capacity":"500","name":"Pirs Waterfall","name:ar":"مصيف بيرس كلي زنته","name:ckb":"پیرس گەلی زنتە","phone":"07507242421 , 07514416188"}},"5823501255":{"location":[36.7290007,43.9718153],"ct":"IQ","tp":"CS","ts":"2022-06-27T20:54:48Z","tX":637,"tY":399,"tags":{"name":"تاڤگەی گەلی زەنتا"}},"6855900085":{"location":[36.8400437,44.0777547],"ct":"IQ","tp":"CS","ts":"2020-05-29T07:38:50Z","tX":637,"tY":399,"tags":{"name":"Zoregwan","name:en":"zoragvan","name:ku":"زۆرەگڤان"}},"8919214406":{"location":[36.7514683,43.9769912],"ct":"IQ","tp":"CS","ts":"2021-07-14T10:32:21Z","tX":637,"tY":399,"tags":{"access":"yes","addr:city":"akre","capacity":"500","name":"Pirs Waterfall","name:ar":"مصيف بيرس كلي زنته","name:ckb":"پیرس گەلی زنتە","phone":"07507242421 , 07514416188"}},"9331643117":{"location":[36.8491806,44.0770523],"ct":"IQ","tp":"CS","ts":"2021-12-12T10:13:44Z","tX":637,"tY":399,"tags":{"name":"زوركفان","name:en":"Zoragvan","name:ku":"زورەگڤان"}}}