{"5827841185":{"location":[36.355976,44.0961283],"ct":"IQ","tp":"CS","ts":"2018-08-12T20:06:01Z","tX":637,"tY":400,"tags":{}},"6396568886":{"location":[36.4185089,44.2912022],"ct":"IQ","tp":"CS","ts":"2022-05-20T20:57:28Z","tX":637,"tY":400,"tags":{"name":"شقلاوة ستي","name:en":"New Shaqlawa City"}},"6969669186":{"location":[36.3902608,44.2442023],"ct":"IQ","tp":"CS","ts":"2019-11-12T17:01:08Z","tX":637,"tY":400,"tags":{"name":"كامپی پڕۆژەی شەقامی كۆڕێ","name:ar":"مخيم مشروع طريق كورى","name:en":"kore project  camp"}},"9889146543":{"location":[36.4627092,44.0477524],"ct":"IQ","tp":"CS","ts":"2024-01-08T11:45:56Z","tX":637,"tY":400,"tags":{"access":"private","addr:city":"Kawanyan","addr:country":"IQ","addr:street":"ڕێگای کاوانیان","group_only":"yes","name":"Camp"}},"9142448318":{"location":[36.4052209,44.2495778],"ct":"IQ","tp":"CR","ts":"2021-10-03T15:09:37Z","tX":637,"tY":400,"tags":{"name":"مەزرەعەی مامۆستا كاظم"}},"10969221305":{"location":[36.3176654,44.1666187],"ct":"IQ","tp":"CR","ts":"2023-06-11T13:53:21Z","tX":637,"tY":400,"tags":{}}}