{"4918538221":{"location":[36.2032762,43.9853944],"ct":"IQ","tp":"CS","ts":"2017-06-16T09:37:47Z","tX":637,"tY":401,"tags":{}},"5040666522":{"location":[36.2639988,43.9927867],"ct":"IQ","tp":"CS","ts":"2024-01-08T10:57:58Z","tX":637,"tY":401,"tags":{"addr:city":"أربيل","addr:country":"IQ","addr:district":"قضاء أربيل","addr:postcode":"44003","addr:state":"محافظة أربيل","addr:street":"Bahrka - Ainkawa Road","addr:subdistrict":"ناحية عنكاوا","addr:town":"عنكاوا","name:en":"ICE KING","opening_hours":"24/7"}},"5161242222":{"location":[36.1724756,43.9601083],"ct":"IQ","tp":"CS","ts":"2017-10-11T16:17:42Z","tX":637,"tY":401,"tags":{"name":"Diwan","name:ar":"Diwan"}},"5182091224":{"location":[36.2928188,43.9928782],"ct":"IQ","tp":"CS","ts":"2017-10-22T17:08:59Z","tX":637,"tY":401,"tags":{"addr:housenumber":"1-255","addr:postcode":"44001","addr:street":"Bahrka - Ainkawa Road","name":"کامپی ئاوارەکان لە بەحرکە","name:en":"Baharka IDP Camp"}},"6178200586":{"location":[36.1881649,44.0402433],"ct":"IQ","tp":"CS","ts":"2024-01-08T11:59:38Z","tX":637,"tY":401,"tags":{"addr:city":"أربيل","addr:country":"IQ","addr:district":"قضاء أربيل","addr:postcode":"44001","addr:state":"محافظة أربيل","name":"ديكرات شار للسقف ثانوي"}},"9820263217":{"location":[36.2997783,44.1245074],"ct":"IQ","tp":"CS","ts":"2022-06-15T15:26:13Z","tX":637,"tY":401,"tags":{"name":"طريق شقلاوة -اربيل"}},"10019743617":{"location":[36.2566031,43.9942558],"ct":"IQ","tp":"CS","ts":"2022-09-13T01:03:55Z","tX":637,"tY":401,"tags":{"addr:street":"Bahrka Old Road","name":"مخيم هرشم","name:en":"Camp hrsham","name:ku":"كه مب هي رشم"}},"10121051518":{"location":[36.1894418,43.9899102],"ct":"IQ","tp":"CS","ts":"2022-10-22T13:07:22Z","tX":637,"tY":401,"tags":{}},"11627139969":{"location":[36.2864502,44.0930772],"ct":"IQ","tp":"CS","ts":"2024-02-15T14:54:32Z","tX":637,"tY":401,"tags":{"name":"بيت حجي غانم 277"}},"5302313124":{"location":[36.1498659,44.0143828],"ct":"IQ","tp":"CR","ts":"2024-01-08T11:59:38Z","tX":637,"tY":401,"tags":{"addr:city":"أربيل","addr:country":"IQ","addr:district":"قضاء أربيل","addr:postcode":"44001","addr:state":"محافظة أربيل","name":"مارکت شاخی","name:en":"Market Shaxe","name:fa":"مارکیت شاخی","opening_hours":"Mo-Su 08:05-12:45","phone":"07504042239"}},"5694844921":{"location":[36.2193824,43.9874449],"ct":"IQ","tp":"CR","ts":"2018-06-16T14:07:22Z","tX":637,"tY":401,"tags":{"name":"کافی"}},"6465634085":{"location":[36.1663266,44.0272589],"ct":"IQ","tp":"CR","ts":"2024-06-18T04:37:09Z","tX":637,"tY":401,"tags":{"addr:street":"شارع كباب مام عبد الله","name":"مبيت مؤقت خاص","name:ar":"مبيت مؤقت خاص بالخاصكي"}},"6611569985":{"location":[36.2036653,44.0441521],"ct":"IQ","tp":"CR","ts":"2019-07-13T10:09:42Z","tX":637,"tY":401,"tags":{"name":"Altem"}},"6703761491":{"location":[36.2119593,44.047512],"ct":"IQ","tp":"CR","ts":"2019-08-12T18:03:51Z","tX":637,"tY":401,"tags":{"internet_access":"wlan","name":"هولير نوى","name:en":"New Holler","phone":"‭٠٠٩٦٤٧٥٠ ١٣٩ ٩٥٥٦‬"}},"6703761494":{"location":[36.2146734,44.0474665],"ct":"IQ","tp":"CR","ts":"2019-08-12T18:04:36Z","tX":637,"tY":401,"tags":{"internet_access":"wlan","name":"هولير نوى","name:en":"New Holler"}},"7257405285":{"location":[36.1844014,44.0742912],"ct":"IQ","tp":"CR","ts":"2020-03-02T09:05:05Z","tX":637,"tY":401,"tags":{"name":"حارث قانونية"}},"8044456885":{"location":[36.1846717,44.0775435],"ct":"IQ","tp":"CR","ts":"2020-10-25T16:06:24Z","tX":637,"tY":401,"tags":{"addr:street":"شەقامی ١٢٠ مەتری","name":"5 حصاروك"}},"8124536417":{"location":[36.2461287,44.0989573],"ct":"IQ","tp":"CR","ts":"2020-11-16T13:08:50Z","tX":637,"tY":401,"tags":{"name":"محمد العزاوي"}},"9316219318":{"location":[36.2173382,44.0508307],"ct":"IQ","tp":"CR","ts":"2024-01-08T11:59:38Z","tX":637,"tY":401,"tags":{"addr:city":"أربيل","addr:country":"IQ","addr:district":"قضاء أربيل","addr:postcode":"44001","addr:state":"محافظة أربيل","name":"جيهاني فلتر"}},"9316219319":{"location":[36.2184717,44.0476383],"ct":"IQ","tp":"CR","ts":"2024-01-08T11:59:38Z","tX":637,"tY":401,"tags":{"addr:city":"أربيل","addr:country":"IQ","addr:district":"قضاء أربيل","addr:postcode":"44001","addr:state":"محافظة أربيل","name":"عبدالصمد ريباز"}},"9316219320":{"location":[36.2177383,44.04534],"ct":"IQ","tp":"CR","ts":"2021-12-06T19:26:21Z","tX":637,"tY":401,"tags":{"name":"لوي الفيتر"}},"9316221117":{"location":[36.217875,44.0485167],"ct":"IQ","tp":"CR","ts":"2024-01-08T11:59:38Z","tX":637,"tY":401,"tags":{"addr:city":"أربيل","addr:country":"IQ","addr:district":"قضاء أربيل","addr:postcode":"44001","addr:state":"محافظة أربيل","name":"محل تارين"}},"9316221118":{"location":[36.1914986,44.138098],"ct":"IQ","tp":"CR","ts":"2021-12-06T19:26:10Z","tX":637,"tY":401,"tags":{"name":"محطة زياد"}},"9316221121":{"location":[36.1915817,44.13819],"ct":"IQ","tp":"CR","ts":"2021-12-06T19:26:15Z","tX":637,"tY":401,"tags":{"name":"محطك زياد"}},"9316221122":{"location":[36.2154332,44.0469267],"ct":"IQ","tp":"CR","ts":"2021-12-06T19:26:16Z","tX":637,"tY":401,"tags":{"name":"عبدالباسط"}},"9316221123":{"location":[36.2188086,44.0459089],"ct":"IQ","tp":"CR","ts":"2024-01-08T11:59:38Z","tX":637,"tY":401,"tags":{"addr:city":"أربيل","addr:country":"IQ","addr:district":"قضاء أربيل","addr:postcode":"44001","addr:state":"محافظة أربيل","name":"عبدالصمد"}},"9316221124":{"location":[36.18072,44.0596283],"ct":"IQ","tp":"CR","ts":"2021-12-06T19:26:18Z","tX":637,"tY":401,"tags":{"name":"سهند"}},"9316221126":{"location":[36.1987326,44.0252176],"ct":"IQ","tp":"CR","ts":"2021-12-06T19:26:24Z","tX":637,"tY":401,"tags":{"name":"فريدون راستي"}},"9316221129":{"location":[36.2187996,44.0459178],"ct":"IQ","tp":"CR","ts":"2024-01-08T11:59:38Z","tX":637,"tY":401,"tags":{"addr:city":"أربيل","addr:country":"IQ","addr:district":"قضاء أربيل","addr:postcode":"44001","addr:state":"محافظة أربيل","name":"عبدالباسط ريباز"}},"9316221418":{"location":[36.2249397,44.0464667],"ct":"IQ","tp":"CR","ts":"2021-12-06T19:26:20Z","tX":637,"tY":401,"tags":{"name":"محل اسيا"}},"9316221420":{"location":[36.1882009,44.0416716],"ct":"IQ","tp":"CR","ts":"2024-01-08T11:59:38Z","tX":637,"tY":401,"tags":{"addr:city":"أربيل","addr:country":"IQ","addr:district":"قضاء أربيل","addr:postcode":"44001","addr:state":"محافظة أربيل","name":"وستا قارمان ريباز"}},"9316221618":{"location":[36.1987166,44.0252215],"ct":"IQ","tp":"CR","ts":"2021-12-06T19:26:38Z","tX":637,"tY":401,"tags":{"name":"فريدون راستي 2222"}},"9791747918":{"location":[36.2154825,44.0032724],"ct":"IQ","tp":"CR","ts":"2024-01-08T11:59:38Z","tX":637,"tY":401,"tags":{"addr:city":"أربيل","addr:country":"IQ","addr:district":"قضاء أربيل","addr:postcode":"44001","addr:state":"محافظة أربيل","name":"MRF quatro"}},"10250908109":{"location":[36.1170173,44.0784306],"ct":"IQ","tp":"CR","ts":"2023-07-08T22:22:24Z","tX":637,"tY":401,"tags":{"addr:city":"هەولێر","name":"SHAHAB"}},"11173368537":{"location":[36.1261947,43.9684807],"ct":"IQ","tp":"CR","ts":"2023-09-07T04:16:43Z","tX":637,"tY":401,"tags":{}},"11369167570":{"location":[36.15684,44.0413625],"ct":"IQ","tp":"CR","ts":"2023-11-22T17:54:24Z","tX":637,"tY":401,"tags":{"addr:street":"339-66","name":"ملا رشاد سورجى","phone":"07504344171"}},"11373177969":{"location":[36.2198952,44.0170803],"ct":"IQ","tp":"CR","ts":"2023-11-24T11:36:53Z","tX":637,"tY":401,"tags":{}},"11383737370":{"location":[36.1650294,44.0349309],"ct":"IQ","tp":"CR","ts":"2023-11-29T14:21:20Z","tX":637,"tY":401,"tags":{}},"11395934369":{"location":[36.2157066,44.0176612],"ct":"IQ","tp":"CR","ts":"2023-12-05T11:52:46Z","tX":637,"tY":401,"tags":{"name":"عيجامه اسو عيجامه"}},"11494153969":{"location":[36.1579636,44.0185195],"ct":"IQ","tp":"CR","ts":"2024-01-06T10:38:20Z","tX":637,"tY":401,"tags":{}},"11775354469":{"location":[36.1904911,44.0473883],"ct":"IQ","tp":"CR","ts":"2024-03-31T13:06:30Z","tX":637,"tY":401,"tags":{"name":"مالى دايه فيم"}},"11839195769":{"location":[36.2746068,43.9932551],"ct":"IQ","tp":"CR","ts":"2024-04-22T20:52:03Z","tX":637,"tY":401,"tags":{"addr:housenumber":"4444","addr:postcode":"44001","addr:street":"طريق بحركه القديم","email":"yaseraalhebe@gmail.com","internet_access":"wlan","name":"بيت حكمت","name:en":"Beit Hekmat","phone":"07512095340","website":"http://yaseraalhebe@gmail.com"}},"11935223169":{"location":[36.1275048,43.9684767],"ct":"IQ","tp":"CR","ts":"2024-05-26T16:07:38Z","tX":637,"tY":401,"tags":{"name":"مالى ماموستا عبدالرحمن"}}}