{"6332624085":{"location":[35.9461106,44.0417159],"ct":"IQ","tp":"CS","ts":"2021-03-31T20:10:32Z","tX":637,"tY":402,"tags":{"addr:street":"ڕێگای کۆنی کەرکوک هەولێر","name":"قرية قولتبة عمر","name:ar":"گوندی قوڵتەپەی عومەر","name:en":"qultapa humar","name:ku":"گوندی قوڵتەپەی عومەر"}},"7719655086":{"location":[35.9825803,44.032351],"ct":"IQ","tp":"CS","ts":"2020-07-16T07:44:45Z","tX":637,"tY":402,"tags":{"name:en":"E-14-5"}},"7719727185":{"location":[35.9825005,44.0352494],"ct":"IQ","tp":"CS","ts":"2020-07-16T07:53:27Z","tX":637,"tY":402,"tags":{"name:en":"F-6-14"}},"7719727186":{"location":[35.9821997,44.0353121],"ct":"IQ","tp":"CS","ts":"2020-07-16T07:53:28Z","tX":637,"tY":402,"tags":{"name:en":"F-6-2"}},"7719844485":{"location":[35.9832613,44.0375926],"ct":"IQ","tp":"CS","ts":"2021-09-26T13:13:38Z","tX":637,"tY":402,"tags":{"name:en":"G-11-9"}},"7719886985":{"location":[35.9832145,44.0377552],"ct":"IQ","tp":"CS","ts":"2021-09-26T13:13:38Z","tX":637,"tY":402,"tags":{"name:en":"G-10-8"}},"7719942985":{"location":[35.9835193,44.0380874],"ct":"IQ","tp":"CS","ts":"2021-09-26T13:13:38Z","tX":637,"tY":402,"tags":{"name:en":"G-9-16"}},"7719942986":{"location":[35.9834387,44.0380737],"ct":"IQ","tp":"CS","ts":"2021-09-26T13:13:38Z","tX":637,"tY":402,"tags":{"name:en":"G-9-14"}},"7719943185":{"location":[35.9833235,44.0380955],"ct":"IQ","tp":"CS","ts":"2021-09-26T13:13:38Z","tX":637,"tY":402,"tags":{"name:en":"G-9-10"}},"7720754585":{"location":[35.9836858,44.0314721],"ct":"IQ","tp":"CS","ts":"2020-07-16T10:59:18Z","tX":637,"tY":402,"tags":{"name:en":"C-10-10"}},"7720754685":{"location":[35.984175,44.0327814],"ct":"IQ","tp":"CS","ts":"2020-07-16T10:59:20Z","tX":637,"tY":402,"tags":{"name:en":"C-12-1"}},"7756420285":{"location":[35.9837641,44.0322526],"ct":"IQ","tp":"CS","ts":"2020-07-27T11:35:41Z","tX":637,"tY":402,"tags":{"name:en":"C-8-12"}},"8756290418":{"location":[36.0220588,44.0482177],"ct":"IQ","tp":"CS","ts":"2022-07-30T09:26:17Z","tX":637,"tY":402,"tags":{"addr:street":"ڕێگای هەولێر-کەرکووک","name":"Baban","name:ar":"قریة بابان","name:ckb":"گوندی بابان","opening_hours":"24/7"}},"4758566421":{"location":[35.9956021,44.0333912],"ct":"IQ","tp":"CR","ts":"2019-07-01T20:02:08Z","tX":637,"tY":402,"tags":{"addr:street":"ڕێگای کۆنی  هەولێر کەرکوک","name":"کۆمەڵگای کاوە"}},"4758566521":{"location":[35.9295311,43.9744981],"ct":"IQ","tp":"CR","ts":"2017-03-27T20:12:53Z","tX":637,"tY":402,"tags":{"addr:street":"ڕێگای نێوان گوندی دووکەڵە و سۆربەش","name":"گۆڕستانی گوندی دوکەڵە","name:ar":"مقبرة قرية دوكةلة","name:en":"Gorstani gundi dukalla","name:ku":"گۆڕستانی گوندی دوکەڵە"}}}