{"4581306989":{"location":[15.385774,44.2303091],"ct":"YE","tp":"CS","ts":"2019-06-18T06:01:16Z","tX":637,"tY":467,"tags":{"addr:street":"شارع النصر","name":"شمسان لمواد البناء","name:ar":"شمسان لمواد البناء","operator":"شمسان و اخوانه"}},"4582799490":{"location":[15.3831816,44.2304166],"ct":"YE","tp":"CS","ts":"2018-11-20T12:51:32Z","tX":637,"tY":467,"tags":{"name":"للبلاط","name:ar":"للبلاط"}},"9859347217":{"location":[15.3686869,44.1923989],"ct":"YE","tp":"CS","ts":"2022-06-30T23:59:29Z","tX":637,"tY":467,"tags":{"addr:street":"شارع القاهرة","name":"قاعة تاج صنعاء"}},"9867243917":{"location":[15.3678771,44.1923975],"ct":"YE","tp":"CS","ts":"2022-07-05T04:07:42Z","tX":637,"tY":467,"tags":{"addr:street":"شارع القاهرة","name":"قاعة تاج صنعاء"}},"9893851917":{"location":[15.3479974,44.1691839],"ct":"YE","tp":"CS","ts":"2022-07-17T19:39:48Z","tX":637,"tY":467,"tags":{"addr:street":"شارع الستين","name":"صالة قصر السعيدة"}},"9913189717":{"location":[15.3419892,44.1861359],"ct":"YE","tp":"CS","ts":"2022-07-26T19:26:04Z","tX":637,"tY":467,"tags":{"addr:street":"شارع الزبيري","name":"قاعة البتول"}},"9949589618":{"location":[15.4231379,44.1536759],"ct":"YE","tp":"CS","ts":"2022-08-12T15:12:17Z","tX":637,"tY":467,"tags":{"addr:street":"14","name":"أرضية الصهير أبو الفضل الشاوش"}},"11081642405":{"location":[15.3062316,44.1784214],"ct":"YE","tp":"CS","ts":"2023-08-01T17:58:24Z","tX":637,"tY":467,"tags":{"name":"وهيب بداح"}},"11470413269":{"location":[15.3401908,44.1566814],"ct":"YE","tp":"CS","ts":"2023-12-30T18:43:40Z","tX":637,"tY":467,"tags":{"addr:street":"طريق الحديده صنعاء","name":"استراحة الذهبية"}},"6953977485":{"location":[15.4734626,44.2417464],"ct":"YE","tp":"CR","ts":"2019-11-07T11:28:11Z","tX":637,"tY":467,"tags":{}},"8420513617":{"location":[15.3908863,44.2823172],"ct":"YE","tp":"CR","ts":"2021-02-13T14:25:42Z","tX":637,"tY":467,"tags":{"name":"بيت عمي خالد"}},"8695327117":{"location":[15.314917,44.2317405],"ct":"YE","tp":"CR","ts":"2021-05-03T23:13:41Z","tX":637,"tY":467,"tags":{"name":"بيت الصادق"}},"8930159917":{"location":[15.3949731,44.1602568],"ct":"YE","tp":"CR","ts":"2021-07-18T07:51:06Z","tX":637,"tY":467,"tags":{"name":"منزل عبدالله عزي عامر","name:ar":"منزل عبدالله عزي عامر  حي السلام"}},"8930163617":{"location":[15.3398342,44.080309],"ct":"YE","tp":"CR","ts":"2021-07-18T07:54:02Z","tX":637,"tY":467,"tags":{"addr:street":"شارع ال100 متر","name":"أرضية في حصن الرأس"}},"9020146221":{"location":[15.3151589,44.2377758],"ct":"YE","tp":"CR","ts":"2021-08-19T13:36:15Z","tX":637,"tY":467,"tags":{"name":"منزل احمد الشعبي ( Sh )","name:en":"Ahmed ALshapi"}},"9382432617":{"location":[15.3622359,44.2214742],"ct":"YE","tp":"CR","ts":"2021-12-31T18:17:30Z","tX":637,"tY":467,"tags":{"name":"بيت رغد"}},"9879883018":{"location":[15.3006643,44.2536407],"ct":"YE","tp":"CR","ts":"2022-07-10T23:36:39Z","tX":637,"tY":467,"tags":{"addr:street":"شارع خولان","email":"gmdn1987@gmail.com","name":"منزل غمدان صلوي","phone":"775603910"}},"9919470617":{"location":[15.4352625,44.2196262],"ct":"YE","tp":"CR","ts":"2022-07-29T15:33:16Z","tX":637,"tY":467,"tags":{"addr:street":"شارع السايلة","name":"منزل عبدالله الصعر"}},"10963992205":{"location":[15.3484948,44.1840632],"ct":"YE","tp":"CR","ts":"2023-06-08T17:33:32Z","tX":637,"tY":467,"tags":{"addr:housenumber":"3","addr:street":"شارع هائل","name":"طلال الزمر","name:en":"Talal Alzomor"}},"11092758705":{"location":[15.364102,44.2063649],"ct":"YE","tp":"CR","ts":"2023-08-06T04:18:52Z","tX":637,"tY":467,"tags":{"addr:street":"شارع الحرية","name":"بيت فهد خصروف"}},"11188191139":{"location":[15.3185783,44.2253133],"ct":"YE","tp":"CR","ts":"2023-09-13T14:48:12Z","tX":637,"tY":467,"tags":{"name":"بيت الأسودي"}},"11413193269":{"location":[15.4049759,44.2123166],"ct":"YE","tp":"CR","ts":"2023-12-12T18:11:15Z","tX":637,"tY":467,"tags":{}},"11579323969":{"location":[15.4608612,44.2272616],"ct":"YE","tp":"CR","ts":"2024-02-02T15:00:19Z","tX":637,"tY":467,"tags":{}},"11819938870":{"location":[15.3485535,44.1840605],"ct":"YE","tp":"CR","ts":"2024-04-15T19:30:11Z","tX":637,"tY":467,"tags":{"name":"طلال الزمر","name:en":"Talal Alzomur"}}}