{"7715952585":{"location":[47.9814929,37.8568428],"ct":"UA","tp":"CS","ts":"2021-06-18T06:44:18Z","tX":619,"tY":356,"tags":{"addr:housenumber":"15","addr:street":"Бессарабская","operator":"ЧП Фирма Кололер"}},"7980419385":{"location":[47.9570749,37.8443859],"ct":"UA","tp":"CS","ts":"2023-10-23T02:09:26Z","tX":619,"tY":356,"tags":{"addr:housenumber":"1е","addr:street":"Малова вулиця","name":"ТОВ \"Т.П.К\"","name:ru":"ООО \"Т.П.К\"","name:uk":"ТОВ \"Т.П.К\""}},"5101171321":{"location":[47.9714493,37.8901833],"ct":"UA","tp":"CR","ts":"2023-10-23T02:09:34Z","tX":619,"tY":356,"tags":{"name":"Покинутий будинок","name:ru":"Заброшенный дом","name:uk":"Покинутий будинок"}},"5105762021":{"location":[47.9662173,37.9072068],"ct":"UA","tp":"CR","ts":"2023-10-23T02:09:34Z","tX":619,"tY":356,"tags":{"name":"Автокооператив Зірочка","name:ru":"Автокооператив Звездочка","name:uk":"Автокооператив Зірочка"}},"5108802025":{"location":[47.9774972,37.8912896],"ct":"UA","tp":"CR","ts":"2023-10-23T02:09:34Z","tX":619,"tY":356,"tags":{"name":"Гаражний кооператив","name:ru":"Гаражный кооператив","name:uk":"Гаражний кооператив"}},"7710189085":{"location":[47.981139,37.845294],"ct":"UA","tp":"CR","ts":"2023-10-23T02:09:26Z","tX":619,"tY":356,"tags":{"addr:housenumber":"2","addr:street":"Бехтерєва вулиця","name":"АГК Будівельник","name:ru":"АГК Строитель","name:uk":"АГК Будівельник"}},"7715952685":{"location":[47.9811988,37.8569438],"ct":"UA","tp":"CR","ts":"2023-10-23T02:09:26Z","tX":619,"tY":356,"tags":{"addr:housenumber":"201","addr:street":"Бессарабская","name":"ОАГК Мережевик","name:ru":"ОАГК Сетевик","name:uk":"ОАГК Мережевик"}},"8182468417":{"location":[47.9892878,37.9218629],"ct":"UA","tp":"CR","ts":"2023-03-03T23:33:10Z","tX":619,"tY":356,"tags":{"name":"ФЛП Москвина М А","name:uk":"ФЛП Москвина М А"}},"8189666317":{"location":[47.9892737,37.9218995],"ct":"UA","tp":"CR","ts":"2023-10-23T02:09:26Z","tX":619,"tY":356,"tags":{"addr:housenumber":"39","addr:street":"230-ї Стрілецької Дивізії вулиця","name":"ФОП Москвина М А","name:ru":"ФЛП Москвина М А","name:uk":"ФОП Москвина М А"}}}