{"442477732":{"location":[46.6526181,37.7976316],"ct":"RU","tp":"CS","ts":"2022-09-13T10:51:19Z","tX":619,"tY":361,"tags":{"fee":"yes","name":"База отдыха \"Тамбов\"","operator":"ОАО \"Севкавдорстрой\""}},"1091918015":{"location":[46.6520637,37.7998312],"ct":"RU","tp":"CS","ts":"2022-09-04T18:54:05Z","tX":619,"tY":361,"tags":{}},"1092290195":{"location":[46.6530457,37.7960019],"ct":"RU","tp":"CS","ts":"2022-09-13T10:51:19Z","tX":619,"tY":361,"tags":{"addr:city":"Должанская","addr:housenumber":"2Л","addr:street":"Делегатская улица","name":"База отдыха \"Бетта\""}},"1092290227":{"location":[46.6538501,37.7952179],"ct":"RU","tp":"CS","ts":"2022-10-04T06:52:36Z","tX":619,"tY":361,"tags":{"name":"Кемпинг \"Ассоль\""}},"1093194189":{"location":[46.6552974,37.7917697],"ct":"RU","tp":"CS","ts":"2022-09-12T18:21:21Z","tX":619,"tY":361,"tags":{"name":"Кемпинг \"Якорь\""}},"1097542997":{"location":[46.6074083,37.7812541],"ct":"RU","tp":"CS","ts":"2022-09-24T18:05:00Z","tX":619,"tY":361,"tags":{}},"4821660225":{"location":[46.6761361,37.7412846],"ct":"RU","tp":"CS","ts":"2023-02-24T07:18:47Z","tX":619,"tY":361,"tags":{"addr:city":"Должанская","name":"Кемпинг \"Приют странника\""}},"4859975421":{"location":[46.6590935,37.756402],"ct":"RU","tp":"CS","ts":"2023-02-24T07:18:47Z","tX":619,"tY":361,"tags":{"addr:city":"Должанская","name":"Кемпинг \"Лазурный берег\""}},"10022537151":{"location":[46.6224071,37.7729952],"ct":"RU","tp":"CS","ts":"2023-02-24T07:18:47Z","tX":619,"tY":361,"tags":{"addr:city":"Должанская","name":"Кемпинг \"Коралл\""}},"10049568694":{"location":[46.6121541,37.778713],"ct":"RU","tp":"CS","ts":"2023-02-24T07:18:47Z","tX":619,"tY":361,"tags":{"addr:city":"Должанская","name":"Кемпинг \"Ривьера\"","phone":"+7 918 263 86 96"}},"10049748549":{"location":[46.6156866,37.7765053],"ct":"RU","tp":"CS","ts":"2023-02-24T07:18:47Z","tX":619,"tY":361,"tags":{"addr:city":"Должанская","name":"Кемпинг \"Золотые пески\""}},"10063616826":{"location":[46.6378337,37.766318],"ct":"RU","tp":"CS","ts":"2023-02-24T07:18:47Z","tX":619,"tY":361,"tags":{"addr:city":"Должанская","name":"Кемпинг \"Золотой берег\"","phone":"+7 985 1444925"}},"10063616912":{"location":[46.6344197,37.7680372],"ct":"RU","tp":"CS","ts":"2022-10-03T18:30:57Z","tX":619,"tY":361,"tags":{"name":"Кемпинг \"Берег \"Южный\"","phone":"+7 953 0775367"}},"10079652146":{"location":[46.6131834,37.7779682],"ct":"RU","tp":"CS","ts":"2023-02-24T07:18:47Z","tX":619,"tY":361,"tags":{"addr:city":"Должанская","name":"Кемпинг \"Чайка\"","phone":"+7 928 2472333"}},"10080414822":{"location":[46.6087388,37.7801805],"ct":"RU","tp":"CS","ts":"2023-10-28T08:47:26Z","tX":619,"tY":361,"tags":{"fee":"yes","name":"Кемринг \"Villa Born\"","phone":"+7 915 718 89 98","website":"https://villaborn.ru/"}},"10090336240":{"location":[46.6495937,37.7613901],"ct":"RU","tp":"CS","ts":"2023-02-24T07:18:47Z","tX":619,"tY":361,"tags":{"addr:city":"Должанская","name":"Кемпинг  \"Адмиральский причал\""}},"10090337763":{"location":[46.6537163,37.7596745],"ct":"RU","tp":"CS","ts":"2023-02-24T07:18:47Z","tX":619,"tY":361,"tags":{"addr:city":"Должанская","name":"Кемпинг \"Пляж \"Азовский\"","phone":"+7 989 126-22-65"}},"10090337829":{"location":[46.6516509,37.7600738],"ct":"RU","tp":"CS","ts":"2023-02-24T07:18:47Z","tX":619,"tY":361,"tags":{"addr:city":"Должанская","name":"Пляж-кемпинг \"Рубин\""}},"10113395338":{"location":[46.6647432,37.7520458],"ct":"RU","tp":"CS","ts":"2023-02-24T07:18:47Z","tX":619,"tY":361,"tags":{"addr:city":"Должанская","fee":"yes","name":"Кемпинг \"Пляж Ростовский\"","phone":"+7 953 107-61-61"}},"10113637639":{"location":[46.6671876,37.7501934],"ct":"RU","tp":"CS","ts":"2023-02-24T07:18:47Z","tX":619,"tY":361,"tags":{"addr:city":"Должанская","name":"Кемпинг \"Чистый берег\""}},"10113637641":{"location":[46.6082409,37.7804405],"ct":"RU","tp":"CS","ts":"2022-10-19T09:35:49Z","tX":619,"tY":361,"tags":{"name":"Кемпинг \"Дарья\""}},"10113637642":{"location":[46.6605155,37.7817049],"ct":"RU","tp":"CS","ts":"2022-10-19T09:35:49Z","tX":619,"tY":361,"tags":{}},"10171326701":{"location":[46.6323373,37.7687825],"ct":"RU","tp":"CS","ts":"2022-11-09T17:31:02Z","tX":619,"tY":361,"tags":{"name":"Кемпинг \"Солнечный берег\"","phone":"+7 918 3727233"}},"10171895234":{"location":[46.6261957,37.7712673],"ct":"RU","tp":"CS","ts":"2023-02-24T07:18:47Z","tX":619,"tY":361,"tags":{"addr:city":"Должанская","name":"Кемпинг \"Феникс\""}},"10171895259":{"location":[46.63045,37.7697619],"ct":"RU","tp":"CS","ts":"2023-02-24T07:18:47Z","tX":619,"tY":361,"tags":{"addr:city":"Должанская","name":"Кемпинг \"Посейдон\""}},"10067229829":{"location":[46.6445482,37.7635601],"ct":"RU","tp":"CR","ts":"2022-10-01T17:14:50Z","tX":619,"tY":361,"tags":{}},"10071865116":{"location":[46.6455885,37.7642768],"ct":"RU","tp":"CR","ts":"2022-10-03T08:26:18Z","tX":619,"tY":361,"tags":{}},"11171782337":{"location":[46.676241,37.7413855],"ct":"RU","tp":"CR","ts":"2023-09-06T12:34:40Z","tX":619,"tY":361,"tags":{}},"10075753625":{"location":[46.6448413,37.7638547],"ct":"RU","tp":"SD","ts":"2022-10-04T19:32:05Z","tX":619,"tY":361,"tags":{}}}