{"18141849":{"location":[3.2812658,101.6230468],"ct":"MY","tp":"CS","ts":"2024-10-09T03:41:58Z","tX":801,"tY":502,"tags":{"fee":"yes","fireplace":"no","leisure":"nature_reserve","name":"Taman Eko-Rimba Komanwel","name:en":"Commonwealth Forest Eco Park","name:ms":"Taman Eko-Rimba Komanwel","nudism":"no","tents":"yes","website":"https://www.forestry.gov.my/my/selangor/taman-eko-rimba-komanwel"}},"18813471":{"location":[3.3287018,101.85368],"ct":"MY","tp":"CS","ts":"2025-03-12T12:45:01Z","tX":801,"tY":502,"tags":{"group_only":"yes","name":"Hijrah Farm","name:en":"Hijrah Farm"}},"544722958":{"location":[3.466216,101.6963853],"ct":"MY","tp":"CS","ts":"2024-05-18T17:32:22Z","tX":801,"tY":502,"tags":{}},"544723093":{"location":[3.4517371,101.6839198],"ct":"MY","tp":"CS","ts":"2017-12-05T08:53:45Z","tX":801,"tY":502,"tags":{}},"773573760":{"location":[3.3287018,101.85368],"ct":"MY","tp":"CS","ts":"2024-02-28T15:48:11Z","tX":801,"tY":502,"tags":{"group_only":"yes","name":"Hijrah Farm","name:en":"Hijrah Farm"}},"1122709222":{"location":[3.4226925,101.7543898],"ct":"MY","tp":"CS","ts":"2023-08-01T03:21:02Z","tX":801,"tY":502,"tags":{"contact:facebook":"https://www.facebook.com/fathersorganicfarm/","group_only":"yes","name":"Father's Organic Farm","name:en":"Father's Organic Farm"}},"1189732860":{"location":[3.3790433,101.6807616],"ct":"MY","tp":"CS","ts":"2024-05-20T03:46:11Z","tX":801,"tY":502,"tags":{}},"1189732861":{"location":[3.3847648,101.6793049],"ct":"MY","tp":"CS","ts":"2023-07-14T19:47:35Z","tX":801,"tY":502,"tags":{}},"1189732864":{"location":[3.2977578,101.6951983],"ct":"MY","tp":"CS","ts":"2024-02-27T01:46:50Z","tX":801,"tY":502,"tags":{"name":"Kem Flintstone","name:en":"Flintstone Camp","name:ms":"Kem Flintstone","source:name":"https://www.bing.com/maps?cp=3.29837~101.695736&lvl=17&dir=304.719&style=x&v=2&sV=1"}},"1264011206":{"location":[3.2165344,101.7904705],"ct":"MY","tp":"CS","ts":"2024-03-19T08:19:13Z","tX":801,"tY":502,"tags":{"name":"KGB Camp"}},"1287315222":{"location":[3.2168723,101.8832079],"ct":"MY","tp":"CS","ts":"2024-05-28T09:24:54Z","tX":801,"tY":502,"tags":{"backcountry":"no","cabins":"yes","camp_site":"serviced","capacity:persons":"150","capacity:tents":"30","fee":"yes","leisure":"nature_reserve","musalla":"yes","name":"Taman Eko Rimba Gunung Nuang","operator":"Jabatan Perhutanan Negeri Selangor","tents":"yes","toilets":"yes","website":"https://forestry.selangor.gov.my/portal/index.php/perkhidmatan/kawasan-ekoperlancongan/40-hutan-lipur-gunung-nuang"}},"1366245154":{"location":[3.3294766,101.8240986],"ct":"MY","tp":"CS","ts":"2025-03-11T15:33:15Z","tX":801,"tY":502,"tags":{"leisure":"resort","name":"Tiarasa Escapes Glamping Resort"}},"1769203931":{"location":[3.2262323,101.7812005],"ct":"MY","tp":"CS","ts":"2024-05-27T13:22:06Z","tX":801,"tY":502,"tags":{"name":"Isi Rimba","name:ms":"Isi Rimba","sport":"paintball"}},"1924458246":{"location":[3.2347895,101.9018257],"ct":"MY","tp":"CS","ts":"2024-02-27T01:46:50Z","tX":801,"tY":502,"tags":{"ele":"480","name":"Kem Lolo","name:en":"Camp Lolo","name:ms":"Kem Lolo","shelter_type":"weather_shelter"}},"4467291298":{"location":[3.2316426,101.6261433],"ct":"MY","tp":"CS","ts":"2023-06-18T02:57:06Z","tX":801,"tY":502,"tags":{"name":"Perah Camp Site","name:en":"Perah Camp Site"}},"4780331321":{"location":[3.31505,101.6990781],"ct":"MY","tp":"CS","ts":"2017-04-07T04:42:30Z","tX":801,"tY":502,"tags":{"name":"state park with camping","opening_hours":"24/7"}},"5083056526":{"location":[3.2638766,101.9058375],"ct":"MY","tp":"CS","ts":"2024-02-27T01:46:50Z","tX":801,"tY":502,"tags":{"ele":"1445","name":"Kem Pengasih (Puncak Palsu)","name:en":"Lovers' Peak (False Peak)","name:ms":"Kem Pengasih (Puncak Palsu)"}},"5280058824":{"location":[3.4038226,101.8400805],"ct":"MY","tp":"CS","ts":"2023-08-01T03:21:02Z","tX":801,"tY":502,"tags":{"name":"دهکده فرانسوی","name:fa":"دهکده فرانسوی"}},"5528053240":{"location":[3.4504144,101.8813661],"ct":"MY","tp":"CS","ts":"2018-04-04T14:01:12Z","tX":801,"tY":502,"tags":{"name":"Kebun Ayah"}},"6249717093":{"location":[3.4618626,101.7039277],"ct":"MY","tp":"CS","ts":"2019-03-18T02:24:16Z","tX":801,"tY":502,"tags":{"name":"Dusun Bonda","website":"https://www.dusunbonda.com/"}},"8260821617":{"location":[3.3575861,101.6489216],"ct":"MY","tp":"CS","ts":"2022-11-27T05:38:58Z","tX":801,"tY":502,"tags":{"name":"GG Buragas","name:en":"GG Retreat Bukit Tasik Serendah"}},"8874210318":{"location":[3.3173667,101.8774905],"ct":"MY","tp":"CS","ts":"2024-02-28T15:48:11Z","tX":801,"tY":502,"tags":{"name":"WQ3","name:en":"WQ3","name:ms":"WQ3"}},"8874262817":{"location":[3.3210787,101.840015],"ct":"MY","tp":"CS","ts":"2024-02-28T15:48:11Z","tX":801,"tY":502,"tags":{"name":"WQ2","name:en":"WQ2","name:ms":"WQ2"}},"10188307619":{"location":[3.2567265,101.9052342],"ct":"MY","tp":"CS","ts":"2024-02-27T01:46:50Z","tX":801,"tY":502,"tags":{"ele":"1075","name":"Kem Pacat","name:en":"Pacat Camp","name:ms":"Kem Pacat"}},"10253215130":{"location":[3.1742446,101.8247357],"ct":"MY","tp":"CS","ts":"2022-12-11T14:09:40Z","tX":801,"tY":502,"tags":{"name":"Lata Beringin Sungai Resam Semungkis Campsite","website":"https://www.facebook.com/profile.php?id=100027303836713"}},"10253227423":{"location":[3.16895,101.826404],"ct":"MY","tp":"CS","ts":"2024-02-27T01:46:50Z","tX":801,"tY":502,"tags":{"name":"Jeram Tinggi Campsite","name:en":"Jeram Tinggi Campsite","website":"https://www.facebook.com/jeramtinggi.campsite/"}},"10271096261":{"location":[3.3172293,101.7328814],"ct":"MY","tp":"CS","ts":"2022-12-18T11:30:39Z","tX":801,"tY":502,"tags":{}},"10601614559":{"location":[3.2595637,101.7838226],"ct":"MY","tp":"CS","ts":"2023-02-03T15:03:49Z","tX":801,"tY":502,"tags":{"building":"roof","name":"Kem Sleh"}},"10601631316":{"location":[3.256748,101.8021166],"ct":"MY","tp":"CS","ts":"2024-05-26T05:34:10Z","tX":801,"tY":502,"tags":{"name":"Lubuk Tedung Campsite","name:en":"Lubuk Tedung Campsite"}},"10603614936":{"location":[3.2499548,101.8658023],"ct":"MY","tp":"CS","ts":"2024-02-27T01:46:50Z","tX":801,"tY":502,"tags":{"name":"Kem HPA","name:en":"HPA Camp","name:ms":"Kem HPA"}},"10604513256":{"location":[3.2221546,101.8397373],"ct":"MY","tp":"CS","ts":"2024-02-27T01:46:50Z","tX":801,"tY":502,"tags":{"name":"Zone 5 Camping Site","name:en":"Zone 5 Camping Site"}},"11263105898":{"location":[3.4163454,101.7869397],"ct":"MY","tp":"CS","ts":"2023-10-14T18:04:57Z","tX":801,"tY":502,"tags":{"group_only":"yes","name":"Peacehaven"}}}