{"682799044":{"location":[2.6752061,101.6727264],"ct":"MY","tp":"CS","ts":"2021-09-27T19:55:27Z","tX":801,"tY":504,"tags":{"access":"private","inscription":"KEM KHIDMAT NEGARA","name":"Kem PLKN Princess Haliza"}},"954213826":{"location":[2.8095821,101.6273011],"ct":"MY","tp":"CS","ts":"2021-06-14T10:36:58Z","tX":801,"tY":504,"tags":{"group_only":"yes","name":"Tadom Hill Resorts","name:zh":"大同岭度假村","website":"https://tadomhillresorts.com/"}},"1588367610":{"location":[2.5975872,101.6923184],"ct":"MY","tp":"CS","ts":"2012-01-13T14:30:06Z","tX":801,"tY":504,"tags":{}},"4839930321":{"location":[2.5103311,101.8275683],"ct":"MY","tp":"CS","ts":"2017-05-16T14:48:56Z","tX":801,"tY":504,"tags":{"addr:city":"Port Dickson","fee":"no","name":"Tapak Perkhemahan Pantai Bagan Pinang","name:en":"Bagan Pinang Beach Campground"}},"4839930322":{"location":[2.5011325,101.8371417],"ct":"MY","tp":"CS","ts":"2017-05-15T07:23:19Z","tX":801,"tY":504,"tags":{"addr:city":"Port Dickson","fee":"no","name":"Tapak Perkhemahan Pantai Saujana","name:en":"Saujana Beach Campground"}},"6087294185":{"location":[2.5969827,101.6930477],"ct":"MY","tp":"CS","ts":"2024-06-05T14:10:29Z","tX":801,"tY":504,"tags":{"addr:housenumber":"888","addr:postcode":"43950","addr:street":"Jalan Sri Bayu","name":"Buy U Campground","name:en":"Buy U Campground","opening_hours":"24/7","phone":"+60133294636"}}}