{"101907431":{"location":[46.6633525,-71.3957454],"ct":"CA","tp":"CR","ts":"2025-02-03T21:08:23Z","tX":308,"tY":361,"tags":{"addr:city":"St-Nicolas","addr:housenumber":"1932","addr:street":"Chemin Filteau","backcountry":"no","name":"Camping Au Sous-Bois Du Campeur","source":"NRCan-CanVec-7.0","website":"https://www.campingausousboisducampeur.ca/"}},"101909786":{"location":[46.6014231,-71.4351887],"ct":"CA","tp":"CS","ts":"2021-06-11T14:01:47Z","tX":308,"tY":361,"tags":{"backcountry":"no","name":"Camping Les Pierres à Feu","source":"NRCan-CanVec-7.0","website":"http://lespierresafeu.com/"}},"101998564":{"location":[46.699866,-71.6100728],"ct":"CA","tp":"CR","ts":"2022-03-23T19:26:31Z","tX":308,"tY":361,"tags":{"addr:city":"Neuville","addr:housenumber":"1069","addr:street":"Route 138","name":"Camping Légaré","source":"NRCan-CanVec-7.0"}},"104430442":{"location":[46.7738863,-71.6244977],"ct":"CA","tp":"CS","ts":"2021-05-18T01:02:21Z","tX":308,"tY":361,"tags":{"addr:housenumber":"459","addr:street":"Route Grand-Capsa","name":"Camping Un air d'été","source":"NRCan-CanVec-7.0"}},"104436247":{"location":[46.7865793,-71.5519876],"ct":"CA","tp":"CR","ts":"2022-04-10T12:42:51Z","tX":308,"tY":361,"tags":{"addr:city":"Sainte-Catherine-de-la-Jacques-Cartier","addr:housenumber":"83","addr:street":"Route Grand-Capsa","name":"Domaine Notre-Dame","resort":"tourist_camp","source":"NRCan-CanVec-7.0"}},"227364174":{"location":[46.748053,-71.3981797],"ct":"CA","tp":"CS","ts":"2014-09-01T20:26:22Z","tX":308,"tY":361,"tags":{"source":"NRCan-CanVec-7.0"}},"487219554":{"location":[46.7473317,-71.4370632],"ct":"CA","tp":"CR","ts":"2017-04-16T21:51:41Z","tX":308,"tY":361,"tags":{}},"655728477":{"location":[46.6333699,-71.417754],"ct":"CA","tp":"CR","ts":"2024-09-24T15:22:51Z","tX":308,"tY":361,"tags":{"addr:city":"Saint-Apollinaire","addr:housenumber":"74","addr:street":"Chemin de la Chute","backcountry":"no","name":"Domaine de la Chute","operator":"Parkbridge"}},"1043115632":{"location":[46.718023,-71.6613191],"ct":"CA","tp":"CS","ts":"2022-03-23T19:26:31Z","tX":308,"tY":361,"tags":{"addr:city":"Neuville","addr:housenumber":"632","addr:street":"Route 365","name":"Camping du Domaine de la Rivière aux pommes"}},"5620931012":{"location":[46.7491113,-71.3996626],"ct":"CA","tp":"CR","ts":"2018-05-16T01:00:34Z","tX":308,"tY":361,"tags":{"fee":"43$","internet_access":"wlan","internet_access:fee":"no","name":"Juneau et chalets","power_supply":"yes","sanitary_dump_station":"customers"}}}