{"99821483":{"location":[46.2218294,-71.3866086],"ct":"CA","tp":"CR","ts":"2016-11-13T22:49:27Z","tX":308,"tY":363,"tags":{"source":"NRCan-CanVec-7.0"}},"99912615":{"location":[46.242327,-71.6316184],"ct":"CA","tp":"CS","ts":"2011-02-15T20:50:43Z","tX":308,"tY":363,"tags":{"source":"NRCan-CanVec-7.0"}},"99921801":{"location":[46.1276172,-71.5821961],"ct":"CA","tp":"CS","ts":"2021-12-27T12:45:19Z","tX":308,"tY":363,"tags":{"addr:city":"Saint-Ferdinand","addr:housenumber":"3120","addr:postcode":"G0N 1N0","addr:province":"Québec","addr:street":"Rue Principale","name":"Camping Plage de la baie","phone":"+1-418-428-3505","source":"NRCan-CanVec-7.0"}},"99926438":{"location":[46.0873605,-71.5118681],"ct":"CA","tp":"CS","ts":"2011-02-15T21:17:11Z","tX":308,"tY":363,"tags":{"source":"NRCan-CanVec-7.0"}},"99928454":{"location":[46.175701,-71.559215],"ct":"CA","tp":"CS","ts":"2022-04-24T10:37:21Z","tX":308,"tY":363,"tags":{"addr:city":"Saint-Ferdinand","addr:housenumber":"824","addr:street":"Chemin Gosford","email":"chassepechemousquetaires@bellnet.ca","internet_access":"wlan","name":"Camping Les Mousquetaires","phone":"+1-418-428-9491","source":"NRCan-CanVec-7.0","website":"http://campinglesmousquetaires.com"}},"99932848":{"location":[46.2090692,-71.5448003],"ct":"CA","tp":"CS","ts":"2021-12-27T13:07:33Z","tX":308,"tY":363,"tags":{"name":"Camping de L'Association Chasse Et Pêche De Plessisville","source":"NRCan-CanVec-7.0"}},"99935659":{"location":[46.1821508,-71.5575219],"ct":"CA","tp":"CS","ts":"2017-11-28T13:53:06Z","tX":308,"tY":363,"tags":{"name":"Camping des Bois Francs","source":"NRCan-CanVec-7.0"}},"99936529":{"location":[46.1495542,-71.5678547],"ct":"CA","tp":"CS","ts":"2019-08-02T15:44:47Z","tX":308,"tY":363,"tags":{"addr:city":"Saint-Ferdinand","addr:housenumber":"6470","addr:postcode":"G0N 1N0","addr:province":"Québec","addr:street":"Route du Domaine-du-Lac","name":"Domaine du Lac William","source":"NRCan-CanVec-7.0"}}}