{"13915608":{"location":[45.6693515,-71.525283],"ct":"CA","tp":"CS","ts":"2023-03-20T22:37:28Z","tX":308,"tY":365,"tags":{"addr:city":"Weedon","addr:housenumber":"1225","addr:street":"Route 112","name":"Camping Beau-Soleil"}},"13958536":{"location":[45.7691454,-71.376881],"ct":"CA","tp":"CR","ts":"2022-03-26T12:11:13Z","tX":308,"tY":365,"tags":{"fee":"yes","name":"Camping les berges du lac"}},"941799551":{"location":[45.8067768,-71.5811754],"ct":"CA","tp":"CS","ts":"2024-09-07T10:47:25Z","tX":308,"tY":365,"tags":{"name":"Camping Mont Ham-Sud","source":"NRCan-CanVec-7.0"}},"1014940170":{"location":[45.6355358,-71.4197343],"ct":"CA","tp":"CR","ts":"2022-04-24T10:37:21Z","tX":308,"tY":365,"tags":{"addr:city":"Lingwick","addr:housenumber":"20","addr:street":"Route 257","name":"Domaine Sevigny"}},"9006724102":{"location":[45.7905587,-71.6346188],"ct":"CA","tp":"CS","ts":"2024-09-06T14:26:59Z","tX":308,"tY":365,"tags":{"access":"private","backcountry":"yes","name":"Camping au sommet (Mont Ham)","operator":"Parc régional du Mont Ham","website":"https://montham.ca/camping-au-sommet/"}},"9133666061":{"location":[45.7809266,-71.6402974],"ct":"CA","tp":"CS","ts":"2024-09-06T14:26:59Z","tX":308,"tY":365,"tags":{"access":"yes","addr:city":"Ham-Sud","addr:housenumber":"103","addr:street":"Route 257 Ouest","name":"Camping Mont-Ham","operator":"Parc Régional du Mont Ham","phone":"+1 819-828-3608","tents":"yes"}},"9791411345":{"location":[45.7790574,-71.6423365],"ct":"CA","tp":"CS","ts":"2024-09-06T14:26:59Z","tX":308,"tY":365,"tags":{"capacity:caravans":"8","caravans":"yes","fee":"yes","name":"Espace VR Mont-Ham","operator":"Parc Régional du Mont Ham","static_caravans":"no","tents":"no"}},"10749560311":{"location":[45.6679987,-71.5227255],"ct":"CA","tp":"SD","ts":"2023-03-20T22:37:28Z","tX":308,"tY":365,"tags":{}}}