{"291788963":{"location":[44.1427429,-71.6846045],"ct":"US","tp":"CS","ts":"2021-06-07T17:58:32Z","tX":308,"tY":371,"tags":{"addr:city":"Franconia","addr:housenumber":"9","addr:street":"Franconia Notch Parkway","alt_name":"Lafayette Place Campground","name":"Lafayette Campground","operator":"Franconia Notch State Park"}},"1004215385":{"location":[44.2646615,-71.4987703],"ct":"US","tp":"CS","ts":"2021-11-19T15:16:11Z","tX":308,"tY":371,"tags":{"capacity":"11","name":"Zealand Campground","operator":"US Forest Service"}},"1004215386":{"location":[44.2605152,-71.5039596],"ct":"US","tp":"CS","ts":"2022-03-13T04:56:15Z","tX":308,"tY":371,"tags":{"capacity":"29","name":"Sugarloaf I Campground","operator":"US Forest Service","toilets":"yes","water":"faucet"}},"1004215387":{"location":[44.2574317,-71.5038593],"ct":"US","tp":"CS","ts":"2024-10-23T13:16:06Z","tX":308,"tY":371,"tags":{"capacity":"32","name":"Sugarloaf II Campground","operator":"US Forest Service","phone":"+1 603 536 6100"}},"1004215388":{"location":[44.2681254,-71.5364034],"ct":"US","tp":"CS","ts":"2021-12-30T00:42:42Z","tX":308,"tY":371,"tags":{"access":"yes","addr:city":"Twin Mountain","addr:housenumber":"100","addr:postcode":"03595","addr:state":"NH","addr:street":"US 302 East","email":"info@twinmountaincampground.com","fee":"yes","name":"Twin Mountain Campground","phone":"+1-603-846-5513","website":"https://www.twinmountaincampground.com"}},"1004428883":{"location":[44.2690994,-71.5594461],"ct":"US","tp":"CR","ts":"2021-11-19T17:01:04Z","tX":308,"tY":371,"tags":{"addr:city":"Twin Mountain","addr:housenumber":"554","addr:postcode":"03595","addr:state":"NH","addr:street":"Route 3 South","name":"Twin Mountain Motor Court & RV Park"}},"1004506194":{"location":[44.3045111,-71.5317922],"ct":"US","tp":"CR","ts":"2024-01-17T03:31:33Z","tX":308,"tY":371,"tags":{"addr:city":"Twin Mountain","addr:housenumber":"372","addr:postcode":"03595","addr:state":"NH","addr:street":"State Route 115","brand":"KOA","brand:wikidata":"Q16988635","description":"We feature Big-Rig friendly 50-amp pull-through RV sites with full hookups. Our wilderness tent sites are placed among the scenic tall pines. Want to \"rough it\" a little easier? We have cozy and comfortable cabins, cottages, and lodges. A Boston & Maine R","email":"twinmountain@koa.com","internet_access":"yes","internet_access:fee":"customers","name":"Twin Mountain / Mt. Washington KOA Holiday","phone":"+1-603-838-8008","power_supply":"yes","reservation":"required","sanitary_dump_station":"yes","short_name":"KOA","website":"https://koa.com/campgrounds/twin-mountain"}},"1004616476":{"location":[44.2740232,-71.5755191],"ct":"US","tp":"CS","ts":"2021-12-30T00:46:00Z","tX":308,"tY":371,"tags":{"description":"Come and relax with us, there is something for everyone to enjoy. From a simple campfire, swimming in the indoor pool to hiking Mount Washington.\n\nFor fishing or swimming the Ammonoosuc River is located only 100 yards from the camp entrance. For the hiker","email":"camping@beechhill.com","fee":"yes","name":"Beech Hill Campground and Cabins","openfire":"yes","payment:cash":"yes","payment:credit_cards":"yes","phone":"+1-603-846-5521","power_supply":"yes","reservation":"required","sanitary_dump_station":"yes","shower":"yes","toilets":"yes","website":"https://beechhillcampground.com/"}},"1006806230":{"location":[44.2721584,-71.5539815],"ct":"US","tp":"CS","ts":"2021-12-30T00:47:33Z","tX":308,"tY":371,"tags":{"access":"yes","addr:city":"Twin Mountain","addr:housenumber":"373","addr:postcode":"03595","addr:state":"NH","addr:street":"US 302","description":"The campground is mostly grassy. Some sites have trees, but we are not heavily wooded. We are a small campground, flat and easy to get around, with both sunny and shady sites. Riverfront sites sit up from the river (so no flooding) and come with electric,","email":"Stay@AlongTheRiverNH.com","fee":"yes","internet_access":"wlan","name":"Along the River Campground & Cabins","phone":"+1-603-846-1026","website":"https://alongtherivernh.com/"}},"1125166131":{"location":[44.2709611,-71.4704527],"ct":"US","tp":"CS","ts":"2022-12-27T10:51:51Z","tX":308,"tY":371,"tags":{"name":"Mount Deception Camping Area"}},"1125166151":{"location":[44.2674174,-71.5439746],"ct":"US","tp":"CS","ts":"2024-06-23T22:54:51Z","tX":308,"tY":371,"tags":{"addr:city":"Twin Mountain","addr:housenumber":"149","addr:street":"US Route 3 South","name":"Ammonoosuc Campground"}},"1287750957":{"location":[44.1775042,-71.6964928],"ct":"US","tp":"CR","ts":"2024-05-29T17:01:53Z","tX":308,"tY":371,"tags":{"capacity":"7","drinking_water":"yes","fee":"yes","name":"Cannon Mountain RV Park","opening_hours":"24/7","operator":"Franconia Notch State Park","power_supply":"yes","reservation":"recommended","sanitary_dump_station":"yes","seasonal":"no","tents":"no","water_point":"yes"}},"1348551789":{"location":[44.1652241,-71.5948594],"ct":"US","tp":"CS","ts":"2011-07-03T20:54:14Z","tX":308,"tY":371,"tags":{"fee":"yes","maxtents":"10","name":"Thirteen Falls","operator":"AMC","tents":"yes"}},"1351418027":{"location":[44.2191069,-71.3700502],"ct":"US","tp":"CS","ts":"2021-09-10T06:20:19Z","tX":308,"tY":371,"tags":{"fee":"yes","name":"Naumann Tentsite"}},"1880265250":{"location":[44.1175449,-71.6467217],"ct":"US","tp":"CS","ts":"2021-09-06T20:36:36Z","tX":308,"tY":371,"tags":{"camp_site":"basic","fee":"yes","name":"Liberty Spring Tentsite","operator":"AMC","tents":"yes"}},"2491481282":{"location":[44.22649,-71.6271405],"ct":"US","tp":"CS","ts":"2024-06-23T22:54:51Z","tX":308,"tY":371,"tags":{"fee":"no"}},"2491481285":{"location":[44.2266385,-71.6157267],"ct":"US","tp":"CS","ts":"2024-06-23T22:54:51Z","tX":308,"tY":371,"tags":{"fee":"no"}},"2491481288":{"location":[44.226982,-71.6224546],"ct":"US","tp":"CS","ts":"2013-10-10T18:51:29Z","tX":308,"tY":371,"tags":{"fee":"no"}},"2491481290":{"location":[44.2286403,-71.6290363],"ct":"US","tp":"CS","ts":"2013-10-10T18:51:29Z","tX":308,"tY":371,"tags":{"fee":"no"}},"2491481292":{"location":[44.2306279,-71.6128693],"ct":"US","tp":"CS","ts":"2013-10-10T18:51:29Z","tX":308,"tY":371,"tags":{"fee":"no"}},"2491481295":{"location":[44.2331446,-71.610752],"ct":"US","tp":"CS","ts":"2013-10-10T18:51:29Z","tX":308,"tY":371,"tags":{"fee":"no"}},"2491481297":{"location":[44.2341677,-71.6058281],"ct":"US","tp":"CS","ts":"2013-10-10T18:51:29Z","tX":308,"tY":371,"tags":{"fee":"no"}},"2491481300":{"location":[44.2353672,-71.6075843],"ct":"US","tp":"CS","ts":"2013-10-10T18:51:29Z","tX":308,"tY":371,"tags":{"fee":"no"}},"2491481304":{"location":[44.2397769,-71.6184334],"ct":"US","tp":"CS","ts":"2013-10-10T18:51:29Z","tX":308,"tY":371,"tags":{"fee":"no"}},"2491481306":{"location":[44.2400592,-71.6201075],"ct":"US","tp":"CS","ts":"2013-10-10T18:51:29Z","tX":308,"tY":371,"tags":{"fee":"no"}},"6185263278":{"location":[44.1001182,-71.5714912],"ct":"US","tp":"CS","ts":"2019-06-17T10:15:31Z","tX":308,"tY":371,"tags":{"name":"Franconia Brook Tentsite"}},"6395307911":{"location":[44.2705297,-71.538364],"ct":"US","tp":"CS","ts":"2019-04-10T05:20:44Z","tX":308,"tY":371,"tags":{"addr:city":"Twin Mountain","addr:housenumber":"100","addr:postcode":"03595","addr:state":"NH","addr:street":"U.S. 302 East","name":"Living Water Campground","phone":"+1 603-846-5513","website":"http://livingwatercampground.com/"}},"11133026533":{"location":[44.2522991,-71.5792301],"ct":"US","tp":"CS","ts":"2023-08-21T00:03:13Z","tX":308,"tY":371,"tags":{"access":"yes","backcountry":"yes","capacity:persons":"15","caravans":"no","description":"Max 3 cars","name":"camping1","tents":"yes"}},"11942671114":{"location":[44.1782025,-71.6959418],"ct":"US","tp":"SD","ts":"2024-05-29T17:01:53Z","tX":308,"tY":371,"tags":{"access":"customers"}}}