{"830156481":{"location":[43.251609,-71.3697586],"ct":"US","tp":"CS","ts":"2021-07-31T20:41:29Z","tX":308,"tY":375,"tags":{"addr:city":"Epsom","addr:housenumber":"427","addr:postcode":"03234","addr:state":"NH","addr:street":"Goboro Road","fee":"yes","name":"Lazy River Family Campground","phone":"+1-603-798-5900","website":"https://www.lazyriverfamilycampground.com/"}},"830160993":{"location":[43.2412895,-71.3937799],"ct":"US","tp":"CS","ts":"2020-07-26T00:08:36Z","tX":308,"tY":375,"tags":{"addr:city":"Chichester","addr:housenumber":"78","addr:postcode":"03258","addr:state":"NH","addr:street":"Dover Road","name":"Great Meadow Campground","phone":"+1-603-798-5124"}},"837971442":{"location":[43.2606194,-71.4536767],"ct":"US","tp":"CS","ts":"2020-08-17T20:01:07Z","tX":308,"tY":375,"tags":{"name":"Cascade Campground"}},"841496125":{"location":[43.1343713,-71.4341611],"ct":"US","tp":"CS","ts":"2022-04-25T00:48:56Z","tX":308,"tY":375,"tags":{"name":"Suncook River Family Camp Resort","website":"https://campsuncookriver.com/"}},"969304243":{"location":[43.223216,-71.3699891],"ct":"US","tp":"CS","ts":"2021-09-29T22:35:40Z","tX":308,"tY":375,"tags":{"addr:city":"Epsom","addr:housenumber":"39","addr:postcode":"03234","addr:state":"NH","addr:street":"Windymere Drive","fee":"yes","name":"Circle 9 Ranch","payment:discover_card":"yes","payment:mastercard":"yes","payment:visa":"yes","website":"https://www.c9rc.com/"}},"976787381":{"location":[43.1633131,-71.4048905],"ct":"US","tp":"CR","ts":"2021-08-26T21:48:58Z","tX":308,"tY":375,"tags":{"addr:city":"Pembroke","addr:housenumber":"615","addr:postcode":"03275","addr:state":"NH","addr:street":"Route 28","name":"Maple Grove Park","website":"https://www.maplegrovenh.com/"}},"7993180902":{"location":[43.2523992,-71.614996],"ct":"US","tp":"CS","ts":"2020-10-09T19:10:56Z","tX":308,"tY":375,"tags":{"access":"private","name":"Camp Spaulding","operator":"The YMCA"}}}