{"481501021":{"location":[43.0530491,-71.6869517],"ct":"US","tp":"CS","ts":"2023-11-02T21:50:12Z","tX":308,"tY":376,"tags":{"addr:city":"Weare","addr:housenumber":"62","addr:postcode":"03281","addr:state":"NH","addr:street":"Barnard Hill Road","email":"info@coldspringscampresort.com","fax":"+1-603-529-1155","fee":"yes","internet_access":"wlan","internet_access:fee":"no","name":"Cold Springs Camp Resort","phone":"+1-603-529-2528","website":"https://www.coldspringscampresort.com/"}},"11922833154":{"location":[42.950113,-71.3834685],"ct":"US","tp":"CS","ts":"2024-05-21T17:10:05Z","tX":308,"tY":376,"tags":{"contact:facebook":"https://www.facebook.com/campcarpenternh/","leisure":"summer_camp","name":"Camp Carpenter","operator":"Daniel Webster Council","scout":"yes","website":"https://nhscouting.org/outdoor-programs/camp-carpenter/"}},"4744312061":{"location":[43.0493534,-71.6869203],"ct":"US","tp":"CR","ts":"2019-02-22T15:28:02Z","tX":308,"tY":376,"tags":{"addr:city":"Weare","addr:housenumber":"530","addr:postcode":"03281","addr:state":"NH","addr:street":"South Stark Highway","name":"Cold Spring RV","phone":"+1-888-277-8948","website":"https://coldspringsrv.com/"}}}