{"29768917":{"location":[42.6494256,-71.5005862],"ct":"US","tp":"CS","ts":"2023-11-10T00:07:28Z","tX":308,"tY":377,"tags":{"access":"customers","leisure":"summer_camp","name":"Camp Massapoag","owner":"YMCA Of Lowell","website":"https://greaterlowellymca.org/index.php/camp-massapoag/"}},"234899047":{"location":[42.7083969,-71.4868149],"ct":"US","tp":"CS","ts":"2013-08-28T00:08:21Z","tX":308,"tY":377,"tags":{"addr:city":"Nashua","addr:housenumber":"124","addr:postcode":"03062","addr:street":"Ridge Road","name":"Camp Doucet","operator":"Boys and Girls Club of Nashua"}},"845408836":{"location":[42.7354121,-71.6063618],"ct":"US","tp":"CS","ts":"2023-01-09T18:09:23Z","tX":308,"tY":377,"tags":{"group_only":"yes","operator":"Beaver Brook Association"}},"885125133":{"location":[42.7420733,-71.6851832],"ct":"US","tp":"CR","ts":"2023-08-22T02:38:45Z","tX":308,"tY":377,"tags":{"addr:city":"Brookline","addr:housenumber":"7","addr:postcode":"03033","addr:state":"NH","addr:street":"Dupaw Gould Road","gnis:feature_id":"1915346","name":"Field & Stream RV Park","website":"https://www.fsrvp.com/"}},"1983851686":{"location":[42.632751,-71.6564233],"ct":"US","tp":"CS","ts":"2014-09-28T22:44:41Z","tX":308,"tY":377,"tags":{"internet_access":"no","operator":"Groton Conservation Commission","smoking":"no","wheelchair":"no"}},"1983851780":{"location":[42.6336146,-71.6572405],"ct":"US","tp":"CS","ts":"2014-09-28T22:44:41Z","tX":308,"tY":377,"tags":{"internet_access":"no","internet_access:fee":"no","operator":"Groton Conservation Commission","smoking":"no","wheelchair":"no"}},"2085358724":{"location":[42.5962304,-71.5321498],"ct":"US","tp":"CS","ts":"2019-02-20T16:16:42Z","tX":308,"tY":377,"tags":{"addr:housenumber":"67","addr:street":"Prescott Street","name":"Grotonwood","website":"https://grotonwood.org/"}}}