{"29769280":{"location":[42.5499093,-71.5364838],"ct":"US","tp":"CS","ts":"2023-12-25T21:36:10Z","tX":308,"tY":378,"tags":{"addr:housenumber":"264","addr:street":"Ayer Road","alt_name":"Boston Minuteman Campground","area":"yes","internet_access":"yes","name":"Spacious Skies Campground","phone":"+1 978-772-0042","website":"http://www.minutemancampground.com/"}},"324571731":{"location":[42.4240607,-71.5886292],"ct":"US","tp":"CS","ts":"2015-01-26T20:43:36Z","tX":308,"tY":378,"tags":{"name":"Maggi Staff Village"}},"674511786":{"location":[42.4232199,-71.5906959],"ct":"US","tp":"CS","ts":"2019-03-04T18:40:26Z","tX":308,"tY":378,"tags":{"name":"Staff Heights"}},"2169262377":{"location":[42.50224,-71.39177],"ct":"US","tp":"CS","ts":"2017-01-01T23:02:31Z","tX":308,"tY":378,"tags":{"name":"1"}},"2169262543":{"location":[42.50309,-71.3926],"ct":"US","tp":"CS","ts":"2017-01-01T23:02:31Z","tX":308,"tY":378,"tags":{"name":"3"}},"2169262634":{"location":[42.50339,-71.39628],"ct":"US","tp":"CS","ts":"2017-01-01T23:02:31Z","tX":308,"tY":378,"tags":{"name":"6"}},"2169262652":{"location":[42.50347,-71.3941],"ct":"US","tp":"CS","ts":"2017-01-01T23:02:31Z","tX":308,"tY":378,"tags":{"name":"4"}},"2169262703":{"location":[42.5038,-71.3948],"ct":"US","tp":"CS","ts":"2017-01-01T23:02:31Z","tX":308,"tY":378,"tags":{"name":"5"}},"2169262743":{"location":[42.50406,-71.39755],"ct":"US","tp":"CS","ts":"2017-01-01T23:02:31Z","tX":308,"tY":378,"tags":{"name":"7"}},"4584515404":{"location":[42.5021119,-71.3922071],"ct":"US","tp":"CS","ts":"2017-01-01T23:02:31Z","tX":308,"tY":378,"tags":{"name":"2"}},"9255031543":{"location":[42.5021121,-71.3911809],"ct":"US","tp":"CS","ts":"2021-11-16T03:28:16Z","tX":308,"tY":378,"tags":{"name":"0"}},"10154290567":{"location":[42.5498377,-71.5365981],"ct":"US","tp":"CS","ts":"2022-11-05T07:09:00Z","tX":308,"tY":378,"tags":{"addr:city":"Littleton","addr:housenumber":"264","addr:postcode":"01460","addr:state":"MA","addr:street":"Ayer Road","description":"Spacious Skies Minute Man Campground is a peaceful campground located in a piney forest grove in historic Littleton, Massachusetts.","name":"Spacious Skies Campgrounds - Minute Man","opening_hours":"Mo-Fr 09:00-18:00","phone":"+1-978-772-0042","website":"https://campatminuteman.com"}}}