{"4619707089":{"location":[-33.1077507,-71.6635573],"ct":"CL","tp":"CS","ts":"2025-02-19T20:05:40Z","tX":308,"tY":611,"tags":{"name":"Camping Los Olivos","name:en":"Camping Los Olivos","name:es":"Camping Los Olivos","name:fr":"Camping Los Olivos"}},"4621193690":{"location":[-33.1204474,-71.6812464],"ct":"CL","tp":"CS","ts":"2020-05-25T10:44:39Z","tX":308,"tY":611,"tags":{"name":"Camping Refugio Laguna Verde","name:en":"Campsite Refugio Laguna Verde","name:es":"Camping Refugio Laguna Verde","name:fr":"Camping Refugio Laguna Verde"}},"6419850465":{"location":[-32.9311039,-71.4344654],"ct":"CL","tp":"CS","ts":"2019-04-22T00:04:54Z","tX":308,"tY":611,"tags":{"name":"Camping Parque La Victoria"}},"11505938769":{"location":[-33.0143384,-71.4793584],"ct":"CL","tp":"CS","ts":"2024-01-14T02:52:58Z","tX":308,"tY":611,"tags":{"caravans":"yes","drinking_water":"yes","fee":"yes","name":"Los √Årboles Nativos","openfire":"yes","power_supply":"yes","shower":"yes","static_caravans":"yes","swimming_pool":"yes","tents":"yes","toilets":"yes"}},"11812897569":{"location":[-32.8794945,-71.4986654],"ct":"CL","tp":"CS","ts":"2024-04-13T00:43:09Z","tX":308,"tY":611,"tags":{"name":"Rancho Kawell"}}}