{"224655316":{"location":[38.9487971,-112.3357361],"ct":"US","tp":"CR","ts":"2023-10-11T07:38:58Z","tX":192,"tY":391,"tags":{"addr:city":"Fillmore","addr:housenumber":"410","addr:postcode":"84631","addr:state":"UT","addr:street":"West 900 South","fee":"yes","internet_access":"wlan","internet_access:fee":"customers","large_vehicles":"yes","name":"Fillmore KOA Journey","phone":"+1-435-743-4420","power_supply":"yes","shower":"yes","tents":"yes","website":"https://koa.com/campgrounds/fillmore"}},"1063754517":{"location":[38.9809486,-112.3248187],"ct":"US","tp":"CR","ts":"2023-10-14T16:46:05Z","tX":192,"tY":391,"tags":{"addr:city":"Fillmore","addr:housenumber":"545","addr:postcode":"84631","addr:state":"UT","addr:street":"North Main Street","charge":"45 USD/night;200 USD/week;500 USD/month","email":"wagonswestrvpark@hotmail.com","fee":"yes","internet_access":"wlan","internet_access:fee":"customers","large_vehicles":"yes","name":"Wagons West RV Park & Campground","phone":"+1-435-743-6188","power_supply":"yes","sanitary_dump_station":"yes","website":"https://wagonswestrv.weebly.com"}},"1206027454":{"location":[38.9917203,-112.3280467],"ct":"US","tp":"CR","ts":"2023-10-14T16:38:14Z","tX":192,"tY":391,"tags":{"addr:city":"Fillmore","addr:housenumber":"75","addr:postcode":"84631","addr:state":"UT","addr:street":"West 1075 North","capacity:caravans":"90","charge":"45 USD/night;300 USD/week;850 USD/month","fee":"yes","fixme":"Need survey of boundaries and internal roads","internet_access":"wlan","internet_access:fee":"customers","name":"Cedar Mountain RV Resort","phone":"+1-385-476-0994","power_supply":"yes","sanitary_dump_station":"yes","website":"https://www.cedarmountainrvresort.com"}},"2344691941":{"location":[39.061656,-112.171783],"ct":"US","tp":"CS","ts":"2013-06-14T18:27:41Z","tX":192,"tY":391,"tags":{"name":"Maple Hollow Rec Site","operator":"USFS","source":"www.fs.usda.gov","uuid":"sonora_20130614"}},"9493000611":{"location":[38.9321992,-112.2296029],"ct":"US","tp":"CS","ts":"2022-02-09T18:01:42Z","tX":192,"tY":391,"tags":{"name":"Copley's Cove Campground"}},"9493000612":{"location":[38.925889,-112.219684],"ct":"US","tp":"CS","ts":"2022-04-19T15:32:26Z","tX":192,"tY":391,"tags":{"name":"Shingle Mill Canyon"}},"9493000613":{"location":[38.9232013,-112.2176749],"ct":"US","tp":"CS","ts":"2022-02-09T18:01:42Z","tX":192,"tY":391,"tags":{"name":"Buckskin Charley Campground"}},"9493000614":{"location":[38.9221079,-112.215818],"ct":"US","tp":"CS","ts":"2022-04-19T15:32:26Z","tX":192,"tY":391,"tags":{"name":"South Fork Chalk Creek"}},"11897544593":{"location":[38.9485055,-112.3444905],"ct":"US","tp":"SD","ts":"2024-05-11T22:12:24Z","tX":192,"tY":391,"tags":{"large_vehicles":"yes","mobile_reception":"yes","operator":"Maverik","water_point":"yes"}}}