{"334879799":{"location":[38.1745811,-112.3612035],"ct":"US","tp":"CS","ts":"2019-02-17T21:07:16Z","tX":192,"tY":394,"tags":{"name":"Birch Creek Group Campground","operator":"United States Forest Service","source":"www.fs.usda.gov","uuid":"sonora_20130614","website":"https://www.fs.usda.gov/recarea/fishlake/recarea/?recid=12125"}},"1082776317":{"location":[38.1723858,-112.2712996],"ct":"US","tp":"CR","ts":"2024-03-26T19:39:17Z","tX":192,"tY":394,"tags":{"addr:city":"Circleville","addr:housenumber":"85","addr:postcode":"84723","addr:state":"UT","addr:street":"East Main Street","capacity":"5","fee":"yes","name":"Piute Trail RV Park","power_supply":"yes","website":"http://www.piutetrailrvpark.com"}},"2344691799":{"location":[38.210888,-112.43155],"ct":"US","tp":"CS","ts":"2019-02-17T07:57:44Z","tX":192,"tY":394,"tags":{"name":"Anderson Meadow Rec Site","operator":"United States Forest Service","source":"www.fs.usda.gov","uuid":"sonora_20130614","website":"https://www.fs.usda.gov/recarea/fishlake/recarea/?recid=12110"}},"2344691807":{"location":[38.238608,-112.3869],"ct":"US","tp":"CS","ts":"2013-06-14T18:27:35Z","tX":192,"tY":394,"tags":{"name":"Betenson Flat Trailhead","operator":"USFS","source":"www.fs.usda.gov","uuid":"sonora_20130614"}},"2344691826":{"location":[38.2694868,-112.3107228],"ct":"US","tp":"CS","ts":"2019-02-17T07:57:42Z","tX":192,"tY":394,"tags":{"name":"City Creek Rec Site","operator":"United States Forest Service","source":"www.fs.usda.gov","uuid":"sonora_20130614","website":"https://www.fs.usda.gov/recarea/fishlake/recarea/?recid=12136"}},"2344691869":{"location":[38.236967,-112.459073],"ct":"US","tp":"CS","ts":"2019-02-17T21:07:17Z","tX":192,"tY":394,"tags":{"name":"Kents Lake Rec Site","operator":"United States Forest Service","source":"www.fs.usda.gov","uuid":"sonora_20130614","website":"https://www.fs.usda.gov/recarea/fishlake/recarea/?recid=12181"}},"2344691914":{"location":[38.226742,-112.392757],"ct":"US","tp":"CS","ts":"2019-02-17T07:57:44Z","tX":192,"tY":394,"tags":{"name":"LeBaron Lake","operator":"United States Forest Service","source":"www.fs.usda.gov","uuid":"sonora_20130614","website":"https://www.fs.usda.gov/recarea/fishlake/recarea/?recid=12185"}},"2344691927":{"location":[38.26139,-112.489831],"ct":"US","tp":"CS","ts":"2019-02-17T07:57:43Z","tX":192,"tY":394,"tags":{"name":"Little Reservoir Rec Site","operator":"United States Forest Service","source":"www.fs.usda.gov","uuid":"sonora_20130614","website":"https://www.fs.usda.gov/recarea/fishlake/recarea/?recid=12195"}},"2344691936":{"location":[38.269409,-112.485368],"ct":"US","tp":"CS","ts":"2019-02-17T07:57:43Z","tX":192,"tY":394,"tags":{"name":"Mahogany Cove Rec Site","operator":"United States Forest Service","source":"www.fs.usda.gov","uuid":"sonora_20130614","website":"https://www.fs.usda.gov/recarea/fishlake/recarea/?recid=12202"}},"2344691993":{"location":[38.237975,-112.46894],"ct":"US","tp":"CS","ts":"2019-02-17T21:07:17Z","tX":192,"tY":394,"tags":{"name":"Tushar Lakeside Rec Site","operator":"United States Forest Service","source":"www.fs.usda.gov","uuid":"sonora_20130614","website":"https://www.fs.usda.gov/recarea/fishlake/recarea/?recid=12261"}}}