{"529588645":{"location":[34.0679831,-112.1522719],"ct":"US","tp":"CR","ts":"2017-10-16T05:12:03Z","tX":192,"tY":408,"tags":{"name":"Stage Coach Mobile Home Park"}},"529597980":{"location":[34.0670891,-112.1490338],"ct":"US","tp":"CR","ts":"2024-03-26T18:44:56Z","tX":192,"tY":408,"tags":{"addr:city":"Black Canyon City","addr:housenumber":"19200","addr:postcode":"85324","addr:state":"AZ","addr:street":"East K-Mine Road","name":"Midway RV & Mobile Home Park","phone":"(623) 374-9740"}},"529597983":{"location":[34.0707685,-112.1551013],"ct":"US","tp":"CR","ts":"2023-10-19T15:37:31Z","tX":192,"tY":408,"tags":{"addr:city":"Black Canyon City","addr:housenumber":"18801","addr:postcode":"85324","addr:state":"AZ","addr:street":"East School House Road","name":"Rivers Edge RV Resort","phone":"(623) 374-9448"}},"529597986":{"location":[34.0721327,-112.1538597],"ct":"US","tp":"CR","ts":"2023-10-19T04:53:59Z","tX":192,"tY":408,"tags":{"addr:city":"Black Canyon City","addr:housenumber":"33900","addr:postcode":"85324","addr:state":"AZ","addr:street":"South Old Black Canyon Highway","name":"Black Canyon Ranch RV Resort","phone":"(623) 374-9800"}},"529787913":{"location":[34.0712359,-112.1498151],"ct":"US","tp":"CR","ts":"2020-11-27T13:22:12Z","tX":192,"tY":408,"tags":{"addr:city":"Black Canyon City","addr:housenumber":"19061","addr:postcode":"85324","addr:state":"AZ","addr:street":"East Palm Lane","name":"Green 'N' Lush RV Park","phone":"(623) 374-9123"}},"529787914":{"location":[34.0713697,-112.1487597],"ct":"US","tp":"CR","ts":"2020-11-26T12:19:34Z","tX":192,"tY":408,"tags":{"addr:city":"Black Canyon City","addr:housenumber":"19101","addr:postcode":"85324","addr:state":"AZ","addr:street":"East Palm Lane","name":"Tractors of the West RV Park","phone":"(623) 374-5611"}},"2330847201":{"location":[34.1700722,-112.2854088],"ct":"US","tp":"CS","ts":"2013-06-03T18:00:48Z","tX":192,"tY":408,"tags":{"name":"Hazlett Hollow Campground","operator":"USFS","source":"www.fs.usda.gov","uuid":"sonora_20130603"}},"2333632708":{"location":[34.1740344,-112.2885546],"ct":"US","tp":"CS","ts":"2016-11-21T23:12:58Z","tX":192,"tY":408,"tags":{"name":"Turney Gulch Group Campground","operator":"USFS","source":"www.fs.usda.gov","uuid":"sonora_20130605"}},"4503117628":{"location":[34.2015662,-112.3385475],"ct":"US","tp":"CS","ts":"2016-11-15T21:12:50Z","tX":192,"tY":408,"tags":{}},"4514508400":{"location":[34.1752577,-112.2772473],"ct":"US","tp":"CS","ts":"2016-11-21T23:12:52Z","tX":192,"tY":408,"tags":{"name":"Kentuck Spring Campground"}}}