{"254694398":{"location":[33.8067074,-112.167834],"ct":"US","tp":"CS","ts":"2014-01-01T20:22:02Z","tX":192,"tY":409,"tags":{"name":"Shooter's Campground (West)"}},"665671448":{"location":[33.8465148,-112.2510326],"ct":"US","tp":"CR","ts":"2019-01-23T18:44:47Z","tX":192,"tY":409,"tags":{"name":"Pleasant Harbor RV Park"}},"2730490754":{"location":[33.848155,-112.2803758],"ct":"US","tp":"CS","ts":"2014-06-22T04:00:07Z","tX":192,"tY":409,"tags":{"name":"Rooadrunner Campground"}},"2730490755":{"location":[33.8489458,-112.2792881],"ct":"US","tp":"CS","ts":"2014-06-22T04:00:07Z","tX":192,"tY":409,"tags":{"name":"Rooadrunner Campground"}},"2730509554":{"location":[33.8627998,-112.3014399],"ct":"US","tp":"CS","ts":"2024-03-30T01:30:56Z","tX":192,"tY":409,"tags":{"addr:housenumber":"176","addr:state":"AZ","addr:street":"Pallet Loop Road"}},"2730509555":{"location":[33.8627003,-112.3017041],"ct":"US","tp":"CS","ts":"2024-03-30T01:30:56Z","tX":192,"tY":409,"tags":{"addr:housenumber":"175","addr:state":"AZ","addr:street":"Pallet Loop Road"}},"2730509556":{"location":[33.8626716,-112.3019521],"ct":"US","tp":"CS","ts":"2024-03-30T01:30:56Z","tX":192,"tY":409,"tags":{"addr:housenumber":"174","addr:state":"AZ","addr:street":"Pallet Loop Road"}},"2730509557":{"location":[33.8625905,-112.3023525],"ct":"US","tp":"CS","ts":"2024-03-30T01:30:56Z","tX":192,"tY":409,"tags":{"addr:housenumber":"170T","addr:state":"AZ","addr:street":"Pallet Loop Road"}},"2730509558":{"location":[33.8629315,-112.3025131],"ct":"US","tp":"CS","ts":"2024-03-30T01:30:56Z","tX":192,"tY":409,"tags":{"addr:housenumber":"173","addr:state":"AZ","addr:street":"Pallet Loop Road"}},"2730509559":{"location":[33.8628319,-112.3026514],"ct":"US","tp":"CS","ts":"2024-03-30T01:30:56Z","tX":192,"tY":409,"tags":{"addr:housenumber":"172","addr:state":"AZ","addr:street":"Pallet Loop Road"}},"2730509560":{"location":[33.8627796,-112.302999],"ct":"US","tp":"CS","ts":"2024-03-30T01:30:56Z","tX":192,"tY":409,"tags":{"addr:housenumber":"171","addr:state":"AZ","addr:street":"Pallet Loop Road"}},"2730509561":{"location":[33.8627424,-112.3031982],"ct":"US","tp":"CS","ts":"2024-03-30T01:30:56Z","tX":192,"tY":409,"tags":{"addr:housenumber":"165","addr:state":"AZ","addr:street":"Pallet Loop Road"}},"2730509562":{"location":[33.8622428,-112.3023383],"ct":"US","tp":"CS","ts":"2024-03-30T01:30:56Z","tX":192,"tY":409,"tags":{"addr:housenumber":"167T","addr:state":"AZ","addr:street":"Pallet Loop Road"}},"2730509563":{"location":[33.8622107,-112.3019338],"ct":"US","tp":"CS","ts":"2024-03-30T01:30:56Z","tX":192,"tY":409,"tags":{"addr:housenumber":"169T","addr:state":"AZ","addr:street":"Pallet Loop Road"}},"2730509564":{"location":[33.8622327,-112.3022225],"ct":"US","tp":"CS","ts":"2024-03-30T01:30:56Z","tX":192,"tY":409,"tags":{"addr:housenumber":"168T","addr:state":"AZ","addr:street":"Pallet Loop Road"}},"2730509565":{"location":[33.8621939,-112.3025599],"ct":"US","tp":"CS","ts":"2024-03-30T01:30:56Z","tX":192,"tY":409,"tags":{"addr:housenumber":"166T","addr:state":"AZ","addr:street":"Pallet Loop Road"}},"2730509566":{"location":[33.8627391,-112.3035092],"ct":"US","tp":"CS","ts":"2024-03-30T01:30:56Z","tX":192,"tY":409,"tags":{"addr:housenumber":"164","addr:state":"AZ","addr:street":"Pallet Loop Road"}},"2730509568":{"location":[33.8626901,-112.3036942],"ct":"US","tp":"CS","ts":"2024-03-30T01:30:56Z","tX":192,"tY":409,"tags":{"addr:housenumber":"163","addr:state":"AZ","addr:street":"Pallet Loop Road"}},"2730509573":{"location":[33.8609388,-112.3027766],"ct":"US","tp":"CS","ts":"2024-03-30T01:30:56Z","tX":192,"tY":409,"tags":{"addr:housenumber":"158","addr:state":"AZ","addr:street":"Den Loop Road"}},"2730509574":{"location":[33.8608612,-112.3027673],"ct":"US","tp":"CS","ts":"2024-03-30T01:30:56Z","tX":192,"tY":409,"tags":{"addr:housenumber":"157","addr:state":"AZ","addr:street":"Den Loop Road"}},"2730509575":{"location":[33.8606421,-112.3025875],"ct":"US","tp":"CS","ts":"2024-03-30T01:30:56Z","tX":192,"tY":409,"tags":{"addr:housenumber":"155","addr:state":"AZ","addr:street":"Den Loop Road"}},"2730509576":{"location":[33.86058,-112.3028373],"ct":"US","tp":"CS","ts":"2024-03-30T01:30:56Z","tX":192,"tY":409,"tags":{"addr:housenumber":"156","addr:state":"AZ","addr:street":"Den Loop Road"}},"2730509578":{"location":[33.8605839,-112.3024731],"ct":"US","tp":"CS","ts":"2024-03-30T01:30:56Z","tX":192,"tY":409,"tags":{"addr:housenumber":"153","addr:state":"AZ","addr:street":"Den Loop Road"}},"2730509579":{"location":[33.8604075,-112.3023423],"ct":"US","tp":"CS","ts":"2024-03-30T01:30:56Z","tX":192,"tY":409,"tags":{"addr:housenumber":"151","addr:state":"AZ","addr:street":"Den Loop Road"}},"2730509580":{"location":[33.8602679,-112.3019664],"ct":"US","tp":"CS","ts":"2024-03-30T01:30:56Z","tX":192,"tY":409,"tags":{"addr:housenumber":"147","addr:state":"AZ","addr:street":"Den Loop Road"}},"2730509581":{"location":[33.8608437,-112.301971],"ct":"US","tp":"CS","ts":"2024-03-30T01:30:56Z","tX":192,"tY":409,"tags":{"addr:housenumber":"161T","addr:state":"AZ","addr:street":"Den Loop Road"}},"2730509582":{"location":[33.8610221,-112.3012635],"ct":"US","tp":"CS","ts":"2024-03-30T01:30:56Z","tX":192,"tY":409,"tags":{"addr:housenumber":"160T","addr:state":"AZ","addr:street":"Den Loop Road"}},"2730509583":{"location":[33.8603881,-112.3020131],"ct":"US","tp":"CS","ts":"2024-03-30T01:30:56Z","tX":192,"tY":409,"tags":{"addr:housenumber":"149","addr:state":"AZ","addr:street":"Den Loop Road"}},"2730509584":{"location":[33.8607739,-112.3020294],"ct":"US","tp":"CS","ts":"2024-03-30T01:30:56Z","tX":192,"tY":409,"tags":{"addr:housenumber":"162t","addr:state":"AZ","addr:street":"Den Loop Road"}},"2730509585":{"location":[33.8598762,-112.3022886],"ct":"US","tp":"CS","ts":"2024-03-30T01:30:56Z","tX":192,"tY":409,"tags":{"addr:housenumber":"148","addr:state":"AZ","addr:street":"Den Loop Road"}},"2730509586":{"location":[33.8599751,-112.3024497],"ct":"US","tp":"CS","ts":"2024-03-30T01:30:56Z","tX":192,"tY":409,"tags":{"addr:housenumber":"150","addr:state":"AZ","addr:street":"Den Loop Road"}},"2730509587":{"location":[33.8600856,-112.3026155],"ct":"US","tp":"CS","ts":"2024-03-30T01:30:56Z","tX":192,"tY":409,"tags":{"addr:housenumber":"152","addr:state":"AZ","addr:street":"Den Loop Road"}},"2730509588":{"location":[33.860136,-112.3026879],"ct":"US","tp":"CS","ts":"2024-03-30T01:30:56Z","tX":192,"tY":409,"tags":{"addr:housenumber":"154","addr:state":"AZ","addr:street":"Den Loop Road"}},"2730509589":{"location":[33.8611714,-112.3010137],"ct":"US","tp":"CS","ts":"2024-03-30T01:30:56Z","tX":192,"tY":409,"tags":{"addr:housenumber":"159T","addr:state":"AZ","addr:street":"Den Loop Road"}},"2730509590":{"location":[33.8592363,-112.3012799],"ct":"US","tp":"CS","ts":"2024-03-30T01:30:56Z","tX":192,"tY":409,"tags":{"addr:housenumber":"133T","addr:state":"AZ","addr:street":"Bajada Loop Road"}},"2730509591":{"location":[33.8597211,-112.3006588],"ct":"US","tp":"CS","ts":"2024-03-30T01:30:56Z","tX":192,"tY":409,"tags":{"addr:housenumber":"145","addr:state":"AZ","addr:street":"Bajada Loop Road"}},"2730509592":{"location":[33.859754,-112.3010254],"ct":"US","tp":"CS","ts":"2024-03-30T01:30:56Z","tX":192,"tY":409,"tags":{"addr:housenumber":"146","addr:state":"AZ","addr:street":"Bajada Loop Road"}},"2730509593":{"location":[33.8596222,-112.300542],"ct":"US","tp":"CS","ts":"2024-03-30T01:30:56Z","tX":192,"tY":409,"tags":{"addr:housenumber":"144","addr:state":"AZ","addr:street":"Bajada Loop Road"}},"2730509594":{"location":[33.8594865,-112.3003645],"ct":"US","tp":"CS","ts":"2024-03-30T01:30:56Z","tX":192,"tY":409,"tags":{"addr:housenumber":"143","addr:state":"AZ","addr:street":"Bajada Loop Road"}},"2730509595":{"location":[33.8593973,-112.3002338],"ct":"US","tp":"CS","ts":"2024-03-30T01:30:56Z","tX":192,"tY":409,"tags":{"addr:housenumber":"142","addr:state":"AZ","addr:street":"Bajada Loop Road"}},"2730509596":{"location":[33.8593178,-112.3000563],"ct":"US","tp":"CS","ts":"2024-03-30T01:30:56Z","tX":192,"tY":409,"tags":{"addr:housenumber":"141","addr:state":"AZ","addr:street":"Bajada Loop Road"}},"2730509597":{"location":[33.8591297,-112.2994819],"ct":"US","tp":"CS","ts":"2024-03-30T01:30:56Z","tX":192,"tY":409,"tags":{"addr:housenumber":"140","addr:state":"AZ","addr:street":"Bajada Loop Road"}},"2730509598":{"location":[33.8591394,-112.2992157],"ct":"US","tp":"CS","ts":"2024-03-30T01:30:56Z","tX":192,"tY":409,"tags":{"addr:housenumber":"139","addr:state":"AZ","addr:street":"Bajada Loop Road"}},"2730509599":{"location":[33.8589629,-112.2990429],"ct":"US","tp":"CS","ts":"2024-03-30T01:30:56Z","tX":192,"tY":409,"tags":{"addr:housenumber":"138","addr:state":"AZ","addr:street":"Bajada Loop Road"}},"2730509600":{"location":[33.858641,-112.2992134],"ct":"US","tp":"CS","ts":"2024-03-30T01:30:56Z","tX":192,"tY":409,"tags":{"addr:housenumber":"136","addr:state":"AZ","addr:street":"Bajada Loop Road"}},"2730509601":{"location":[33.8587419,-112.2990546],"ct":"US","tp":"CS","ts":"2024-03-30T01:30:56Z","tX":192,"tY":409,"tags":{"addr:housenumber":"137","addr:state":"AZ","addr:street":"Bajada Loop Road"}},"2730509602":{"location":[33.8588078,-112.2996244],"ct":"US","tp":"CS","ts":"2024-03-30T01:30:56Z","tX":192,"tY":409,"tags":{"addr:housenumber":"134","addr:state":"AZ","addr:street":"Bajada Loop Road"}},"2730509603":{"location":[33.8586527,-112.2994796],"ct":"US","tp":"CS","ts":"2024-03-30T01:30:56Z","tX":192,"tY":409,"tags":{"addr:housenumber":"135","addr:state":"AZ","addr:street":"Bajada Loop Road"}},"2730512309":{"location":[33.8605942,-112.3110162],"ct":"US","tp":"CS","ts":"2014-06-22T04:47:17Z","tX":192,"tY":409,"tags":{"name":"Raccoon Camp"}},"2730512310":{"location":[33.8604344,-112.3065436],"ct":"US","tp":"CS","ts":"2024-03-30T01:30:56Z","tX":192,"tY":409,"tags":{"addr:housenumber":"101","addr:state":"AZ","addr:street":"Scute Loop Road"}},"2730512311":{"location":[33.8604189,-112.3069057],"ct":"US","tp":"CS","ts":"2024-03-30T01:30:56Z","tX":192,"tY":409,"tags":{"addr:housenumber":"102","addr:state":"AZ","addr:street":"Scute Loop Road"}},"2730512312":{"location":[33.8602652,-112.30719],"ct":"US","tp":"CS","ts":"2024-03-30T01:30:56Z","tX":192,"tY":409,"tags":{"addr:housenumber":"103","addr:state":"AZ","addr:street":"Scute Loop Road"}},"2730512313":{"location":[33.8599667,-112.3073134],"ct":"US","tp":"CS","ts":"2024-03-30T01:30:56Z","tX":192,"tY":409,"tags":{"addr:housenumber":"104","addr:state":"AZ","addr:street":"Scute Loop Road"}},"2730512314":{"location":[33.8598865,-112.3072598],"ct":"US","tp":"CS","ts":"2024-03-30T01:30:56Z","tX":192,"tY":409,"tags":{"addr:housenumber":"105","addr:state":"AZ","addr:street":"Scute Loop Road"}},"2730512315":{"location":[33.8595489,-112.3065514],"ct":"US","tp":"CS","ts":"2024-03-30T01:30:56Z","tX":192,"tY":409,"tags":{"addr:housenumber":"129","addr:state":"AZ","addr:street":"Scute Loop Road"}},"2730512319":{"location":[33.8594669,-112.3070089],"ct":"US","tp":"CS","ts":"2024-03-30T01:30:56Z","tX":192,"tY":409,"tags":{"addr:housenumber":"106","addr:state":"AZ","addr:street":"Scute Loop Road"}},"2730512320":{"location":[33.8592379,-112.3062187],"ct":"US","tp":"CS","ts":"2024-03-30T01:30:56Z","tX":192,"tY":409,"tags":{"addr:housenumber":"128","addr:state":"AZ","addr:street":"Scute Loop Road"}},"2730512321":{"location":[33.8593467,-112.3068268],"ct":"US","tp":"CS","ts":"2024-03-30T01:30:56Z","tX":192,"tY":409,"tags":{"addr:housenumber":"107","addr:state":"AZ","addr:street":"Scute Loop Road"}},"2730512322":{"location":[33.8589166,-112.3059133],"ct":"US","tp":"CS","ts":"2024-03-30T01:30:56Z","tX":192,"tY":409,"tags":{"addr:housenumber":"126","addr:state":"AZ","addr:street":"Scute Loop Road"}},"2730512324":{"location":[33.8590705,-112.3060437],"ct":"US","tp":"CS","ts":"2024-03-30T01:30:56Z","tX":192,"tY":409,"tags":{"addr:housenumber":"127","addr:state":"AZ","addr:street":"Scute Loop Road"}},"2730512325":{"location":[33.8587877,-112.3057228],"ct":"US","tp":"CS","ts":"2024-03-30T01:30:56Z","tX":192,"tY":409,"tags":{"addr:housenumber":"125","addr:state":"AZ","addr:street":"Scute Loop Road"}},"2730512326":{"location":[33.858797,-112.3054431],"ct":"US","tp":"CS","ts":"2024-03-30T01:30:56Z","tX":192,"tY":409,"tags":{"addr:housenumber":"124","addr:state":"AZ","addr:street":"Scute Loop Road"}},"2730512327":{"location":[33.8588495,-112.3052309],"ct":"US","tp":"CS","ts":"2024-03-30T01:30:56Z","tX":192,"tY":409,"tags":{"addr:housenumber":"123","addr:state":"AZ","addr:street":"Scute Loop Road"}},"2730512329":{"location":[33.858542,-112.3056266],"ct":"US","tp":"CS","ts":"2024-03-30T01:30:56Z","tX":192,"tY":409,"tags":{"addr:housenumber":"109","addr:state":"AZ","addr:street":"Scute Loop Road"}},"2730512330":{"location":[33.8585052,-112.3057177],"ct":"US","tp":"CS","ts":"2024-03-30T01:30:56Z","tX":192,"tY":409,"tags":{"addr:housenumber":"108","addr:state":"AZ","addr:street":"Scute Loop Road"}},"2730512331":{"location":[33.8589519,-112.3046888],"ct":"US","tp":"CS","ts":"2024-03-30T01:30:56Z","tX":192,"tY":409,"tags":{"addr:housenumber":"122","addr:state":"AZ","addr:street":"Scute Loop Road"}},"2730512332":{"location":[33.8589258,-112.3049913],"ct":"US","tp":"CS","ts":"2024-03-30T01:30:56Z","tX":192,"tY":409,"tags":{"addr:housenumber":"121","addr:state":"AZ","addr:street":"Scute Loop Road"}},"2730512333":{"location":[33.8588758,-112.3043578],"ct":"US","tp":"CS","ts":"2024-03-30T01:30:56Z","tX":192,"tY":409,"tags":{"addr:housenumber":"120","addr:state":"AZ","addr:street":"Scute Loop Road"}},"2730512334":{"location":[33.8587504,-112.3040557],"ct":"US","tp":"CS","ts":"2024-03-30T01:30:56Z","tX":192,"tY":409,"tags":{"addr:housenumber":"119","addr:state":"AZ","addr:street":"Scute Loop Road"}},"2730512335":{"location":[33.8586931,-112.3038853],"ct":"US","tp":"CS","ts":"2024-03-30T01:30:56Z","tX":192,"tY":409,"tags":{"addr:housenumber":"118","addr:state":"AZ","addr:street":"Scute Loop Road"}},"2730512338":{"location":[33.858636,-112.3045649],"ct":"US","tp":"CS","ts":"2024-03-30T01:30:56Z","tX":192,"tY":409,"tags":{"addr:housenumber":"110","addr:state":"AZ","addr:street":"Scute Loop Road"}},"2730512339":{"location":[33.8586309,-112.3044501],"ct":"US","tp":"CS","ts":"2024-03-30T01:30:56Z","tX":192,"tY":409,"tags":{"addr:housenumber":"111","addr:state":"AZ","addr:street":"Scute Loop Road"}},"2730512340":{"location":[33.8586484,-112.303578],"ct":"US","tp":"CS","ts":"2024-03-30T01:30:56Z","tX":192,"tY":409,"tags":{"addr:housenumber":"117","addr:state":"AZ","addr:street":"Scute Loop Road"}},"2730512341":{"location":[33.8582258,-112.303589],"ct":"US","tp":"CS","ts":"2024-03-30T01:30:56Z","tX":192,"tY":409,"tags":{"addr:housenumber":"115","addr:state":"AZ","addr:street":"Scute Loop Road"}},"2730512342":{"location":[33.8584372,-112.3034935],"ct":"US","tp":"CS","ts":"2024-03-30T01:30:56Z","tX":192,"tY":409,"tags":{"addr:housenumber":"116","addr:state":"AZ","addr:street":"Scute Loop Road"}},"2730512343":{"location":[33.8584572,-112.3041825],"ct":"US","tp":"CS","ts":"2024-03-30T01:30:56Z","tX":192,"tY":409,"tags":{"addr:housenumber":"112","addr:state":"AZ","addr:street":"Scute Loop Road"}},"2730512344":{"location":[33.8582627,-112.3040646],"ct":"US","tp":"CS","ts":"2024-03-30T01:30:56Z","tX":192,"tY":409,"tags":{"addr:housenumber":"113","addr:state":"AZ","addr:street":"Scute Loop Road"}},"2730512345":{"location":[33.8581921,-112.3038086],"ct":"US","tp":"CS","ts":"2024-03-30T01:30:56Z","tX":192,"tY":409,"tags":{"addr:housenumber":"114","addr:state":"AZ","addr:street":"Scute Loop Road"}},"2926911911":{"location":[33.8587679,-112.3058479],"ct":"US","tp":"CS","ts":"2014-06-22T04:31:43Z","tX":192,"tY":409,"tags":{"name":"Desert Tortoise Campground"}},"2926926175":{"location":[33.8613823,-112.3085359],"ct":"US","tp":"SD","ts":"2019-01-12T22:31:22Z","tX":192,"tY":409,"tags":{}},"2926926176":{"location":[33.8615542,-112.3102732],"ct":"US","tp":"CS","ts":"2014-06-22T04:47:17Z","tX":192,"tY":409,"tags":{"name":"Javelina Camp"}},"2926926177":{"location":[33.8613827,-112.3110376],"ct":"US","tp":"CS","ts":"2014-06-22T04:47:17Z","tX":192,"tY":409,"tags":{"name":"Coyote Camp"}},"3396316904":{"location":[33.8609105,-112.3095898],"ct":"US","tp":"SD","ts":"2015-03-13T03:43:12Z","tX":192,"tY":409,"tags":{}},"6204275229":{"location":[33.8601088,-112.305977],"ct":"US","tp":"CS","ts":"2019-01-12T21:58:15Z","tX":192,"tY":409,"tags":{"addr:street":"Scute Loop Road","name":"Host"}},"6204275238":{"location":[33.8597703,-112.3068759],"ct":"US","tp":"CS","ts":"2024-03-30T01:30:56Z","tX":192,"tY":409,"tags":{"addr:housenumber":"131","addr:state":"AZ","addr:street":"Scute Loop Road"}},"6204275239":{"location":[33.8596758,-112.3067034],"ct":"US","tp":"CS","ts":"2024-03-30T01:30:56Z","tX":192,"tY":409,"tags":{"addr:housenumber":"130","addr:state":"AZ","addr:street":"Scute Loop Road"}},"6204346734":{"location":[33.8626228,-112.3038232],"ct":"US","tp":"CS","ts":"2019-01-12T22:31:18Z","tX":192,"tY":409,"tags":{"addr:street":"Pallet Loop Road","name":"Host"}},"6204347694":{"location":[33.8614096,-112.3084691],"ct":"US","tp":"SD","ts":"2019-01-12T22:31:19Z","tX":192,"tY":409,"tags":{}}}