{"317613451":{"location":[33.6557926,-112.2954577],"ct":"US","tp":"CR","ts":"2023-12-19T17:21:11Z","tX":192,"tY":410,"tags":{"name":"Paradise RV Resort"}},"590652976":{"location":[33.4531968,-112.4368207],"ct":"US","tp":"CR","ts":"2023-04-28T03:17:37Z","tX":192,"tY":410,"tags":{"addr:city":"Goodyear","addr:housenumber":"17506","addr:postcode":"85338","addr:state":"AZ","addr:street":"West Van Buren Street","landuse":"residential","min_age":"55","name":"Cotton Lane RV Resort","phone":"623-853-4000","residential":"trailer_park"}},"595916947":{"location":[33.5764225,-112.2707526],"ct":"US","tp":"CR","ts":"2023-10-23T01:24:34Z","tX":192,"tY":410,"tags":{"addr:city":"Peoria","addr:housenumber":"10201","addr:postcode":"85345","addr:state":"AZ","addr:street":"North 99th Avenue","name":"Sun City Townhouse Mobile Estates","source":"esri_USDOT_Arizona"}},"1073460956":{"location":[33.6291991,-112.3392785],"ct":"US","tp":"CR","ts":"2025-01-18T22:31:56Z","tX":192,"tY":410,"tags":{"addr:city":"Surprise","addr:housenumber":"12959","addr:postcode":"85374","addr:state":"AZ","addr:street":"West Grand Avenue","name":"Desertaire Adult RV Park","residential":"mobile","source":"esri/USA_NAD_Addresses"}},"1160604055":{"location":[33.5891917,-112.2516459],"ct":"US","tp":"CR","ts":"2023-04-08T03:20:16Z","tX":192,"tY":410,"tags":{}},"1166279640":{"location":[33.4512684,-112.4475172],"ct":"US","tp":"CR","ts":"2024-02-14T21:37:46Z","tX":192,"tY":410,"tags":{"addr:city":"Goodyear","addr:housenumber":"416","addr:postcode":"85338","addr:state":"AZ","addr:street":"North Citrus Road","internet_access":"wlan","landuse":"residential","name":"Destiny RV Resort","phone":"6238530537","residential":"trailer_park","website":"https://www.destinyrv.com/"}}}