{"103585970":{"location":[49.2044355,-99.1102516],"ct":"CA","tp":"CS","ts":"2011-03-10T22:08:33Z","tX":230,"tY":350,"tags":{"source":"NRCan-CanVec-7.0"}},"747452854":{"location":[49.370508,-98.8874378],"ct":"CA","tp":"CS","ts":"2019-11-20T23:21:56Z","tX":230,"tY":350,"tags":{"name":"SLFN Powwow Grounds"}},"1194863424":{"location":[49.3490999,-98.9366067],"ct":"CA","tp":"CS","ts":"2011-03-10T01:49:26Z","tX":230,"tY":350,"tags":{"source":"NRCan-CanVec-7.0"}},"11055693856":{"location":[49.2089245,-99.1383653],"ct":"CA","tp":"CS","ts":"2023-07-19T22:05:57Z","tX":230,"tY":350,"tags":{"access":"yes","addr:city":"Rural Municipality of Argyle","addr:province":"Manitoba","group_only":"yes","name":"Rock Lake United Church Camp","website":"https://www.rocklake.com"}},"12199242033":{"location":[49.2080091,-99.1332314],"ct":"CA","tp":"CS","ts":"2024-09-25T15:39:35Z","tX":230,"tY":350,"tags":{"addr:city":"RM of Argyle","addr:housenumber":"3120","addr:postcode":"R0K 0Y0","addr:province":"MB","addr:street":"Northen Ave","caravans":"yes","drinking_water":"yes","name":"Rock Lake Ministries","shower":"yes","tents":"yes"}}}