{"271789196":{"location":[30.2237852,-98.8025904],"ct":"US","tp":"CR","ts":"2024-02-14T15:18:18Z","tX":230,"tY":421,"tags":{"addr:city":"Fredericksburg","addr:housenumber":"5681","addr:postcode":"78624","addr:state":"TX","addr:street":"East US Highway 290","alt_name":"KOA Campground","brand":"KOA","brand:wikidata":"Q16988635","name":"KOA Kampground","phone":"+1 830-997-4796","short_name":"KOA","website":"https://koa.com/campgrounds/fredericksburg/"}},"366250132":{"location":[30.240808,-98.9104033],"ct":"US","tp":"CS","ts":"2024-02-17T03:51:42Z","tX":230,"tY":421,"tags":{"description":"Has primitive tent camping in very nice park. No reservations for tent camping.","phone":"+1 830-997-4202","website":"https://www.fbgtx.org/343/Lady-Bird-Johnson-RV-Park"}},"366250136":{"location":[30.241184,-98.9105078],"ct":"US","tp":"CR","ts":"2024-02-17T03:51:42Z","tX":230,"tY":421,"tags":{"addr:city":"Fredericksburg","addr:housenumber":"432","addr:postcode":"78624","addr:street":"Lady Bird Drive","name":"Lady Bird Johnson RV Park","phone":"+1 830-997-4796","website":"https://www.fbgtx.org/index.aspx?NID=343"}},"759748860":{"location":[30.2534602,-98.8950362],"ct":"US","tp":"CR","ts":"2019-12-31T02:03:35Z","tX":230,"tY":421,"tags":{"addr:city":"Fredericksburg","addr:housenumber":"78","addr:postcode":"78624","addr:state":"TX","addr:street":"FM 2093","name":"Oakwood RV Resort"}},"904437624":{"location":[30.2604452,-98.8737439],"ct":"US","tp":"CR","ts":"2023-02-04T04:55:18Z","tX":230,"tY":421,"tags":{"addr:city":"Fredericksburg","addr:housenumber":"305","addr:postcode":"78624","addr:state":"TX","addr:street":"East Highway Street","name":"Fredericksburg RV Park"}},"1136325262":{"location":[30.2290659,-98.8211277],"ct":"US","tp":"CR","ts":"2023-08-11T21:37:37Z","tX":230,"tY":421,"tags":{"addr:city":"Fredericksburg","addr:housenumber":"4584","addr:postcode":"78624","addr:state":"TX","addr:street":"East US Highway 290","email":"info@archrayresort.com","name":"Arch Ray RV Resort","phone":"+1-830-304-2900","website":"https://archrayresort.com/"}}}