{"704428584":{"location":[30.0145496,-99.1258334],"ct":"US","tp":"CR","ts":"2019-07-15T04:21:57Z","tX":230,"tY":422,"tags":{"addr:city":"Kerrville","addr:housenumber":"2171","addr:postcode":"78028","addr:state":"TX","addr:street":"Bandera Highway","name":"Happy Days RV Park"}},"704428585":{"location":[30.0147099,-99.124281],"ct":"US","tp":"CR","ts":"2020-01-01T02:14:28Z","tX":230,"tY":422,"tags":{"addr:city":"Kerrville","addr:housenumber":"2141","addr:postcode":"78028","addr:state":"TX","addr:street":"Old FM 689","name":"Tio RV Park"}},"800229221":{"location":[29.9481694,-99.1107487],"ct":"US","tp":"CR","ts":"2022-06-15T20:10:25Z","tX":230,"tY":422,"tags":{"addr:city":"Kerrville","addr:housenumber":"3900","addr:postcode":"78028","addr:state":"TX","addr:street":"Bandera Highway","name":"Triple T Resort & Conference Center"}},"940007123":{"location":[29.9576746,-99.0782878],"ct":"US","tp":"CR","ts":"2021-05-06T15:30:24Z","tX":230,"tY":422,"tags":{"addr:city":"Kerrville","addr:housenumber":"310","addr:postcode":"78028","addr:state":"TX","addr:street":"Center Point River Road","capacity":"244","name":"The Old River Road RV Resort"}},"960122117":{"location":[29.932574,-99.0395163],"ct":"US","tp":"CR","ts":"2022-06-16T04:26:01Z","tX":230,"tY":422,"tags":{"addr:city":"Center Point","addr:housenumber":"634","addr:postcode":"78010","addr:state":"TX","addr:street":"Ranch Road 480","name":"Serenity Hills"}},"1135763862":{"location":[29.8807521,-98.800558],"ct":"US","tp":"CR","ts":"2023-01-27T18:49:08Z","tX":230,"tY":422,"tags":{"addr:city":"Boerne","addr:housenumber":"12","addr:postcode":"78006","addr:state":"TX","addr:street":"Green Cedar Road","name":"Top of the Hill RV Resort & Cabins"}},"1385947205":{"location":[29.9537101,-98.9268837],"ct":"US","tp":"CR","ts":"2025-05-12T20:29:36Z","tX":230,"tY":422,"tags":{"addr:city":"Comfort","addr:housenumber":"145","addr:postcode":"78031","addr:state":"TX","addr:street":"Hermann Sons Road East","internet_access":"wlan","name":"Comfort RV Resort","power_supply":"yes","sanitary_dump_station":"yes","website":"https://comfortrvresort.com/"}},"11943092795":{"location":[30.0541897,-99.0271236],"ct":"US","tp":"SD","ts":"2024-06-01T16:50:31Z","tX":230,"tY":422,"tags":{"fee":"no"}},"12161971447":{"location":[30.0520804,-99.0266311],"ct":"US","tp":"SD","ts":"2024-09-07T14:40:24Z","tX":230,"tY":422,"tags":{"fee":"no","water_point":"yes"}}}