{"14706312":{"location":[29.737924,-99.1270576],"ct":"US","tp":"CR","ts":"2022-10-17T21:49:13Z","tX":230,"tY":423,"tags":{"addr:city":"Bandera","addr:housenumber":"4300","addr:postcode":"78003","addr:state":"TX","addr:street":"State Highway 16 North","name":"Bandera Crossing Riverfront RV Park"}},"474849458":{"location":[29.7244642,-99.0681178],"ct":"US","tp":"CR","ts":"2019-06-29T22:13:28Z","tX":230,"tY":423,"tags":{"addr:city":"Bandera","addr:housenumber":"1202","addr:postcode":"78003","addr:state":"TX","addr:street":"Maple Street","name":"Pioneer RV Resort","power_supply":"yes","sanitary_dump_station":"yes"}},"714604992":{"location":[29.7286661,-99.0942374],"ct":"US","tp":"CR","ts":"2022-10-13T23:54:24Z","tX":230,"tY":423,"tags":{"addr:city":"Bandera","addr:housenumber":"2231","addr:postcode":"78003","addr:state":"TX","addr:street":"State Highway 16 North","name":"Skyline Ranch RV Park"}},"714604995":{"location":[29.7308083,-99.0831335],"ct":"US","tp":"CR","ts":"2022-10-13T23:54:24Z","tX":230,"tY":423,"tags":{"addr:city":"Bandera","addr:housenumber":"1425","addr:postcode":"78003","addr:state":"TX","addr:street":"State Highway 16 North","name":"Bandera RV Park"}},"714614451":{"location":[29.7366972,-99.0749005],"ct":"US","tp":"CR","ts":"2019-08-16T22:48:57Z","tX":230,"tY":423,"tags":{"addr:city":"Bandera","addr:housenumber":"223","addr:postcode":"78003","addr:state":"TX","addr:street":"Bandera Boulevard","name":"DD Texas Ranch & RV"}},"794276288":{"location":[29.7305182,-99.0613703],"ct":"US","tp":"CR","ts":"2020-04-27T03:59:15Z","tX":230,"tY":423,"tags":{"addr:city":"Bandera","addr:housenumber":"760","addr:postcode":"78003","addr:state":"TX","addr:street":"State Highway 16 South","name":"Riverside RV Park"}},"796789165":{"location":[29.7411624,-99.1202607],"ct":"US","tp":"CR","ts":"2023-01-17T16:54:25Z","tX":230,"tY":423,"tags":{"addr:city":"Bandera","addr:housenumber":"3862","addr:postcode":"78003","addr:state":"TX","addr:street":"State Highway 16 North","name":"Antler Oaks Lodge and RV Resort"}},"842017340":{"location":[29.7384441,-99.0406325],"ct":"US","tp":"CR","ts":"2020-08-28T21:40:57Z","tX":230,"tY":423,"tags":{"addr:city":"Bandera","addr:housenumber":"313","addr:postcode":"78003","addr:state":"TX","addr:street":"Frontier Town Loop","name":"Bandera Frontier CAbins and RV Park"}},"916036026":{"location":[29.7287418,-99.0643426],"ct":"US","tp":"CR","ts":"2021-03-11T23:18:03Z","tX":230,"tY":423,"tags":{"addr:city":"Bandera","addr:housenumber":"115","addr:postcode":"78003","addr:state":"TX","addr:street":"Pops Road","name":"Pop's RV Resort"}},"916493356":{"location":[29.7161057,-98.901121],"ct":"US","tp":"CR","ts":"2021-03-12T23:47:14Z","tX":230,"tY":423,"tags":{"addr:city":"Pipe Creek","addr:housenumber":"12246","addr:postcode":"78063","addr:state":"TX","addr:street":"State Highway 16 South","name":"Roadhouse RV Park"}},"1189227857":{"location":[29.7123732,-98.940191],"ct":"US","tp":"CR","ts":"2023-07-12T18:48:03Z","tX":230,"tY":423,"tags":{"addr:city":"Pipe Creek","addr:housenumber":"818","addr:postcode":"78063","addr:state":"TX","addr:street":"FM 1283","name":"Lightning Ranch RV Park"}}}