{"795799020":{"location":[35.2128204,-100.7379395],"ct":"US","tp":"CR","ts":"2020-04-24T20:50:05Z","tX":225,"tY":404,"tags":{"addr:city":"Alanreed","addr:housenumber":"13112","addr:postcode":"79002","addr:state":"TX","addr:street":"3rd Avenue","name":"Longhorn RV Park"}},"2333697961":{"location":[35.2121795,-100.864771],"ct":"US","tp":"CS","ts":"2019-08-11T05:02:40Z","tX":225,"tY":404,"tags":{"name":"East Bluff #1 Campground","operator":"USFS","source":"www.fs.usda.gov","uuid":"sonora_20130605"}},"2333697962":{"location":[35.206211,-100.857724],"ct":"US","tp":"CS","ts":"2013-06-05T21:21:49Z","tX":225,"tY":404,"tags":{"name":"East Bluff #2 Campground","operator":"USFS","source":"www.fs.usda.gov","uuid":"sonora_20130605"}},"2333697964":{"location":[35.204536,-100.859403],"ct":"US","tp":"CS","ts":"2013-06-05T21:21:49Z","tX":225,"tY":404,"tags":{"name":"East Bluff #3 Campground","operator":"USFS","source":"www.fs.usda.gov","uuid":"sonora_20130605"}},"2333697983":{"location":[35.2049733,-100.8736514],"ct":"US","tp":"CS","ts":"2019-08-11T05:02:40Z","tX":225,"tY":404,"tags":{"name":"Lake McClellan Campground","operator":"USFS","source":"www.fs.usda.gov","uuid":"sonora_20130605"}},"2333697989":{"location":[35.21,-100.864008],"ct":"US","tp":"CS","ts":"2013-06-05T21:21:51Z","tX":225,"tY":404,"tags":{"name":"Mcdowell Campground","operator":"USFS","source":"www.fs.usda.gov","uuid":"sonora_20130605"}}}