{"6657451988":{"location":[36.9483013,43.4149848],"ct":"IQ","tp":"CS","ts":"2019-07-29T12:09:46Z","tX":635,"tY":398,"tags":{"name":"مصيف يخبل"}},"7865802485":{"location":[36.9488732,43.4150144],"ct":"IQ","tp":"CS","ts":"2020-09-01T16:19:29Z","tX":635,"tY":398,"tags":{"name":"مصيف جمانكي","name:en":"chamanki resort"}},"9017483018":{"location":[37.0373553,43.3411124],"ct":"IQ","tp":"CS","ts":"2021-08-18T15:13:13Z","tX":635,"tY":398,"tags":{"addr:street":"Riya Dihok - Amediyê","name":"٧٠٦، كومه لگاى سه رسنگى گه شتيارى","name:en":"706, Sarsink Tourist Complex","opening_hours":"24/7","phone":"07508435352"}},"9017489818":{"location":[37.0348788,43.3385799],"ct":"IQ","tp":"CS","ts":"2021-08-18T15:13:14Z","tX":635,"tY":398,"tags":{"addr:street":"Riya Dihok - Amediyê","name":"كومه لگاى سه رسنگى گه شتيارى","name:en":"Sarsink Tourist Complex","opening_hours":"24/7","phone":"0750 843 5352"}},"11831293269":{"location":[36.9162096,43.3497415],"ct":"IQ","tp":"CS","ts":"2024-04-19T16:08:37Z","tX":635,"tY":398,"tags":{"name":"مرتفعات كيري - نسرا","name:en":"keri - nesra"}}}