{"4452002489":{"location":[36.6700897,43.4352153],"ct":"IQ","tp":"CS","ts":"2016-10-17T14:51:57Z","tX":635,"tY":399,"tags":{"addr:street":"شارع رئيسي","internet_access":"wlan","name":"مام ره شانشاعرع","name:en":"Mam Rshan","name:ku":"مام ره شانشاعرع"}},"4865995721":{"location":[36.7370733,43.4340755],"ct":"IQ","tp":"CS","ts":"2021-07-21T12:42:12Z","tX":635,"tY":399,"tags":{"name":"كمپ بافيان","name:ar":"كمپ بافيان"}},"5069038123":{"location":[36.6706628,43.4342152],"ct":"IQ","tp":"CS","ts":"2021-07-17T14:18:27Z","tX":635,"tY":399,"tags":{"addr:street":"شارع رئيسي","internet_access":"wlan","name":"كارگيريا كةمپا مام ره شان","name:ar":"ادارة المخيم مام رشان","name:en":"Management of Mamrashan camp","name:ku":"كارگيريا كةمپا مام ره شان"}},"7775861887":{"location":[36.7189929,43.2821067],"ct":"IQ","tp":"CS","ts":"2020-08-01T17:14:29Z","tX":635,"tY":399,"tags":{"name":"مخيم ايسيان للنازحين"}},"7867260185":{"location":[36.7189569,43.2820327],"ct":"IQ","tp":"CS","ts":"2020-09-02T06:29:27Z","tX":635,"tY":399,"tags":{"addr:housenumber":"1699","addr:street":"شارع ايسيان","name":"خيمة ابو ريمون","name:ar":"خيمة ابو الياس","name:en":"Aburimon tent","name:ku":"Aburimon tent"}},"11174326937":{"location":[36.7058287,43.3170163],"ct":"IQ","tp":"CS","ts":"2023-09-07T11:18:41Z","tX":635,"tY":399,"tags":{"name":"اسيان كمب","name:en":"isyan kamp","name:ku":"کەمپا ئیسیان"}},"4812237225":{"location":[36.7152219,43.5549446],"ct":"IQ","tp":"CR","ts":"2017-04-23T21:15:40Z","tX":635,"tY":399,"tags":{"addr:street":"طريق جاسم","name":"كرمشان","name:ar":"كرمشان"}}}