{"4907364923":{"location":[36.4917736,43.5828461],"ct":"IQ","tp":"CS","ts":"2018-11-27T19:39:46Z","tX":635,"tY":400,"tags":{"name":"كمب بردرش (مخيم)","name:ar":"كمب بردرش (مخيم)","name:ku":"كمبى برده ره ش1"}},"5023497151":{"location":[36.4640783,43.4716984],"ct":"IQ","tp":"CS","ts":"2017-08-09T06:38:18Z","tX":635,"tY":400,"tags":{"name":"قرية دوبردان صالح اغا","name:ar":"قرية دوبردان صالح اغا"}},"5060349222":{"location":[36.5962036,43.3476559],"ct":"IQ","tp":"CS","ts":"2017-08-26T14:42:57Z","tX":635,"tY":400,"tags":{"name":"كمب زيلكان","name:ar":"كمب زيلكان"}},"4451298489":{"location":[36.3617248,43.3525239],"ct":"IQ","tp":"CR","ts":"2016-10-26T17:51:50Z","tX":635,"tY":400,"tags":{"addr:street":"مفرق خزنه تبه - طريق بعشيقه","email":"raadameery@gmail.com","internet_access":"wlan","name":"الاستاذ رعد أمير الشبكي","name:ar":"الاستاذ رعد أمير الشبكي","name:en":"Raad ameer","name:fa":"اِِغا رعد أمير شبكي","name:ku":"الشبكي","phone":"07707441759"}},"4665229590":{"location":[36.5133778,43.268466],"ct":"IQ","tp":"CR","ts":"2018-09-13T18:49:04Z","tX":635,"tY":400,"tags":{"historic":"castle","name":"شارع المركز الصحي","name:ar":"فاضلية"}},"7557282585":{"location":[36.4538686,43.3518404],"ct":"IQ","tp":"CR","ts":"2020-05-25T21:41:39Z","tX":635,"tY":400,"tags":{"name":"عايد نوشي"}},"9316219317":{"location":[36.3556367,43.278025],"ct":"IQ","tp":"CR","ts":"2021-12-06T19:26:06Z","tX":635,"tY":400,"tags":{"name":"عالم الفلتر"}},"9316219322":{"location":[36.3492916,43.2727673],"ct":"IQ","tp":"CR","ts":"2021-12-06T19:26:32Z","tX":635,"tY":400,"tags":{"name":"معمل بلوك الشامل"}},"9316219323":{"location":[36.3496233,43.2734533],"ct":"IQ","tp":"CR","ts":"2021-12-06T19:26:33Z","tX":635,"tY":400,"tags":{"name":"معمل بلوك راكان"}},"9316221131":{"location":[36.3434654,43.2750549],"ct":"IQ","tp":"CR","ts":"2021-12-06T19:26:30Z","tX":635,"tY":400,"tags":{"name":"معمل الحيالي"}},"9316221132":{"location":[36.342634,43.2743352],"ct":"IQ","tp":"CR","ts":"2021-12-06T19:26:31Z","tX":635,"tY":400,"tags":{"name":"شركة الاعتدال"}},"9316221133":{"location":[36.3466668,43.2731002],"ct":"IQ","tp":"CR","ts":"2021-12-06T19:26:31Z","tX":635,"tY":400,"tags":{"name":"معمل بلوك العربية"}},"9316221217":{"location":[36.3464503,43.2809289],"ct":"IQ","tp":"CR","ts":"2021-12-06T19:26:12Z","tX":635,"tY":400,"tags":{"name":"كسارة الرافدين"}},"9316221518":{"location":[36.3509759,43.2741617],"ct":"IQ","tp":"CR","ts":"2021-12-06T19:26:34Z","tX":635,"tY":400,"tags":{"name":"معمل بلوك الريان"}},"9316221617":{"location":[36.3551886,43.2728715],"ct":"IQ","tp":"CR","ts":"2021-12-06T19:26:35Z","tX":635,"tY":400,"tags":{"name":"محلات الثقة"}},"10588794905":{"location":[36.4929964,43.306883],"ct":"IQ","tp":"CR","ts":"2023-01-28T11:40:23Z","tX":635,"tY":400,"tags":{}},"10652364405":{"location":[36.3564988,43.3271982],"ct":"IQ","tp":"CR","ts":"2023-02-12T17:48:25Z","tX":635,"tY":400,"tags":{"name":"علي ملا حمزة البياتي"}},"11951994669":{"location":[36.5007764,43.5907388],"ct":"IQ","tp":"CR","ts":"2024-06-18T04:37:09Z","tX":635,"tY":400,"tags":{"addr:housenumber":"K-17","addr:postcode":"42001","addr:street":"ڕێگای بەردەڕەش","email":"abdallahkamal663@yahoo.com","internet_access":"wlan","name":"بيت ابو عزيز","name:en":"House abo azez","name:ku":"مالی ابو عەزیز","opening_hours":"Mo-Fr 09:00-18:00","phone":"07507609621"}}}