{"4737492923":{"location":[36.1681237,43.2440454],"ct":"IQ","tp":"CS","ts":"2017-03-16T05:21:58Z","tX":635,"tY":401,"tags":{"addr:street":"ناحية حمام العليل ..موقع كلية الزراعة والغابات سابقا","name":"مخيم حمام العليل للنازحين","name:ar":"مخيم حمام العليل للنازحين","name:en":"hamam alallil camps","operator":"WHO"}},"7059963118":{"location":[36.308425,43.523798],"ct":"IQ","tp":"CS","ts":"2020-06-26T06:25:25Z","tX":635,"tY":401,"tags":{"name":"Hasansham U2 IDP Camp"}},"7616092985":{"location":[36.1555578,43.3249799],"ct":"IQ","tp":"CS","ts":"2020-06-12T15:33:21Z","tX":635,"tY":401,"tags":{"name":"مخيم السلامية","name:en":"Al Salamiya Refugee Camp","name:ku":"کامپی سەلامیه"}},"8158205028":{"location":[36.1550692,43.3332247],"ct":"IQ","tp":"CS","ts":"2020-11-24T13:16:12Z","tX":635,"tY":401,"tags":{"name":"مخيم السلامية","name:en":"AL-Sallamiyah camp"}},"5998725920":{"location":[36.2644026,43.384558],"ct":"IQ","tp":"CR","ts":"2018-10-19T18:28:06Z","tX":635,"tY":401,"tags":{"addr:housenumber":"4","email":"wesam.cake@yahoo.com","internet_access":"wlan","opening_hours":"24/7","phone":"07703003823"}},"11503362569":{"location":[36.2710891,43.3835351],"ct":"IQ","tp":"CR","ts":"2024-01-09T15:12:24Z","tX":635,"tY":401,"tags":{"name":"بيت سكن فادي"}}}