{"99609684":{"location":[46.0978931,-72.8984114],"ct":"CA","tp":"CR","ts":"2022-03-23T19:26:31Z","tX":304,"tY":363,"tags":{"name":"Campng de l'Amitié","source":"NRCan-CanVec-7.0"}},"1025033868":{"location":[46.2251157,-72.9252081],"ct":"CA","tp":"CR","ts":"2022-01-26T23:45:12Z","tX":304,"tY":363,"tags":{"name":"Camping et Marina Louiseville","phone":"+1-877-228-3861"}},"1036403014":{"location":[46.0785471,-72.8098779],"ct":"CA","tp":"CS","ts":"2023-07-17T14:17:51Z","tX":304,"tY":363,"tags":{"access":"yes","addr:city":"Odanak","addr:housenumber":"2424","addr:postcode":"J0G 1H0","addr:province":"Qc","addr:street":"Rue Asban","capacity:caravans":"40","contact:phone":"+1 (450) 954 3461","contact:website":"https://abenakiaventure.com/","fee":"yes","group_only":"no","name":"Abenaki Aventure"}},"1043115594":{"location":[46.0822371,-72.8647099],"ct":"CA","tp":"CR","ts":"2022-03-23T19:26:31Z","tX":304,"tY":363,"tags":{"name":"Domaine Émeraude","source":"NRCan-CanVec-7.0"}},"1052733362":{"location":[46.078018,-73.0938652],"ct":"CA","tp":"CR","ts":"2022-04-18T15:56:55Z","tX":304,"tY":363,"tags":{"addr:housenumber":"1389","addr:street":"Rang Saint-Michel","name":"Camping et hébergement MJM"}},"1052989936":{"location":[46.0994991,-72.8605722],"ct":"CA","tp":"CS","ts":"2022-04-19T13:32:21Z","tX":304,"tY":363,"tags":{"addr:city":"Saint-François-du-Lac","addr:housenumber":"120","addr:street":"Rang de l'Île","capacity:caravans":"120","name":"Camping Île du fort","source":"NRCan-CanVec-7.0"}}}