{"4814588":{"location":[45.4707454,-72.8137672],"ct":"CA","tp":"CS","ts":"2022-01-24T18:24:48Z","tX":304,"tY":366,"tags":{"name":"Camping Oasis"}},"8118215":{"location":[45.4056577,-73.0634088],"ct":"CA","tp":"CS","ts":"2022-04-20T00:15:28Z","tX":304,"tY":366,"tags":{"addr:city":"Sainte-Angèle-de-Monnoir","addr:housenumber":"75","addr:street":"Rue des Camping","name":"Camping Domaine du Rêve"}},"8128637":{"location":[45.4901573,-73.0846189],"ct":"CA","tp":"CS","ts":"2022-04-20T00:15:28Z","tX":304,"tY":366,"tags":{"addr:housenumber":"3225","addr:street":"Rang du Cordon","name":"Camping au Pied du Mont"}},"76867532":{"location":[45.3375668,-72.9114806],"ct":"CA","tp":"CS","ts":"2018-06-12T01:18:12Z","tX":304,"tY":366,"tags":{"name":"Camping Mon Repos","source":"CanVec 6.0 - NRCan"}},"76918468":{"location":[45.4244693,-72.8196882],"ct":"CA","tp":"CS","ts":"2019-07-22T19:47:50Z","tX":304,"tY":366,"tags":{"contact:email":"info@campingtropicana.com","contact:phone":"+1-450-378-9410","contact:website":"http://www.campingtropicana.com/","name":"Camping l'EstriVal","source":"CanVec 6.0 - NRCan"}},"76918755":{"location":[45.4294761,-72.8150314],"ct":"CA","tp":"CS","ts":"2023-04-03T18:42:16Z","tX":304,"tY":366,"tags":{"addr:housenumber":"1633","addr:postcode":"J2G 8C8","addr:street":"Rue Principale","contact:email":"campingbonjour@hotmail.com","contact:phone":"+1-450-378-0213","contact:website":"http://www.campingbonjour.com/","name":"Camping Bon-Jour","source":"CanVec 6.0 - NRCan"}},"100555703":{"location":[45.5382824,-72.8511807],"ct":"CA","tp":"CR","ts":"2022-04-20T00:15:28Z","tX":304,"tY":366,"tags":{"addr:city":"Saint-Pie","addr:housenumber":"105","addr:street":"Chemin de Saint-Dominique","name":"Camping au Vieux Foyer","source":"NRCan-CanVec-7.0"}},"100557578":{"location":[45.5344669,-72.8794401],"ct":"CA","tp":"CS","ts":"2022-04-20T00:15:28Z","tX":304,"tY":366,"tags":{"addr:housenumber":"824","addr:street":"Grand Rang Saint-François","name":"Camping Saint-Pie","source":"NRCan-CanVec-7.0"}},"100560816":{"location":[45.5266485,-72.8758957],"ct":"CA","tp":"CS","ts":"2022-04-20T00:15:28Z","tX":304,"tY":366,"tags":{"addr:housenumber":"289","addr:street":"Chemin de Saint-Dominique","name":"Camping Aqua Parc St-Pie","source":"NRCan-CanVec-7.0"}},"114797379":{"location":[45.460904,-73.088599],"ct":"CA","tp":"CS","ts":"2018-03-24T22:08:02Z","tX":304,"tY":366,"tags":{"source":"NRCan-CanVec-7.0"}},"114797398":{"location":[45.4423017,-73.0408983],"ct":"CA","tp":"CR","ts":"2023-04-03T18:42:16Z","tX":304,"tY":366,"tags":{"addr:housenumber":"545","addr:street":"La Grande-Caroline","name":"Terrasse Rougemont","source":"NRCan-CanVec-7.0"}}}