{"107756422":{"location":[45.057159,-72.8833978],"ct":"CA","tp":"CS","ts":"2024-10-10T01:06:33Z","tX":304,"tY":368,"tags":{"addr:housenumber":"40","addr:street":"Chemin des Bouleaux","name":"Camping La Forêt de Freli","source":"NRCan-CanVec-7.0"}},"107756486":{"location":[45.0659067,-72.8782559],"ct":"CA","tp":"CS","ts":"2024-06-14T19:54:59Z","tX":304,"tY":368,"tags":{"addr:housenumber":"18","addr:street":"Chemin des Chutes","name":"Camping des chutes Hunter","source":"NRCan-CanVec-7.0"}},"108176899":{"location":[45.0210421,-72.8273135],"ct":"CA","tp":"CS","ts":"2024-07-26T14:52:14Z","tX":304,"tY":368,"tags":{"addr:city":"Frelighsburg","addr:housenumber":"174","addr:street":"Route 237 Sud","caravans":"yes","drinking_water":"yes","name":"Camping Écologique de Frelighsburg","phone":"+1-450-298-5259","power_supply":"yes","sanitary_dump_station":"yes","shower":"yes","source":"NRCan-CanVec-7.0","tents":"yes","toilets":"yes","website":"https://campingecologique.com/","wheelchair":"limited"}},"115016327":{"location":[45.0741898,-73.1156482],"ct":"CA","tp":"CS","ts":"2024-06-07T20:50:53Z","tX":304,"tY":368,"tags":{"addr:housenumber":"272","addr:street":"23e Avenue Est","name":"Camping Domaine Florent","source":"NRCan-CanVec-7.0"}},"115086724":{"location":[45.0595742,-73.0775617],"ct":"CA","tp":"CS","ts":"2024-03-09T00:24:21Z","tX":304,"tY":368,"tags":{"name":"Camping Philipsburg","source":"NRCan-CanVec-7.0"}},"1039468076":{"location":[44.9562508,-72.8800671],"ct":"US","tp":"CS","ts":"2023-12-21T02:26:26Z","tX":304,"tY":368,"tags":{"name":"Lake Carmi State Park Campground"}},"1039468081":{"location":[44.9887734,-72.848573],"ct":"US","tp":"CS","ts":"2022-03-12T01:05:11Z","tX":304,"tY":368,"tags":{"name":"Mill Pond Campground"}}}