{"14592734":{"location":[41.874928,-73.0513612],"ct":"US","tp":"CS","ts":"2025-01-08T01:28:43Z","tX":304,"tY":380,"tags":{"addr:city":"New Hartford","addr:housenumber":"791","addr:postcode":"06057","addr:state":"CT","addr:street":"West Hill Road","leisure":"nature_reserve","name":"Camp Sequassen","operator":"Connecticut Yankee Council","phone":"(860) 379-2009","scout":"yes","website":"http://www.ctyankee.org/camping/camps/sequassen"}},"18321899":{"location":[41.8919231,-73.0462209],"ct":"US","tp":"CS","ts":"2024-11-24T00:56:56Z","tX":304,"tY":380,"tags":{"addr:city":"New Hartford","addr:housenumber":"169","addr:postcode":"06057","addr:state":"CT","addr:street":"Camp Workcoeman Road","leisure":"nature_reserve","name":"Camp Workcoeman","operator":"Boy Scouts of America","phone":"(860) 379-2207","scout":"yes","website":"https://campworkcoeman.org/"}},"18364374":{"location":[42.0268024,-73.1063989],"ct":"US","tp":"CS","ts":"2024-12-03T12:37:39Z","tX":304,"tY":380,"tags":{"description":"Private, Members Or Owners Only","leisure":"nature_reserve","magic:CATEGORY":"General Recreation","name":"Camp Jewell","operator":"YMCA of Metrpolitan Hartford","source":"University of Connecticut (http://magic.lib.uconn.edu/connecticut_data.html)"}},"43435806":{"location":[41.9894419,-72.8989646],"ct":"US","tp":"CS","ts":"2024-12-04T12:34:44Z","tX":304,"tY":380,"tags":{"addr:city":"Hartland","addr:housenumber":"167","addr:postcode":"06027","addr:state":"CT","addr:street":"Hartland Boulevard","description":"Private, Members Or Owners Only","leisure":"nature_reserve","magic:CATEGORY":"General Recreation","name":"Camp Alice Merritt","operator":"Town of Hartland","source":"University of Connecticut (http://magic.lib.uconn.edu/connecticut_data.html)"}},"43436243":{"location":[41.9978262,-72.879296],"ct":"US","tp":"CS","ts":"2024-11-23T21:24:16Z","tX":304,"tY":380,"tags":{"addr:city":"Hartland","addr:housenumber":"222","addr:postcode":"06027","addr:state":"CT","addr:street":"Mountain Road","description":"Private, Members Or Owners Only","leisure":"nature_reserve","magic:CATEGORY":"General Recreation","name":"Camp Mary Dean Vreeland (Girl Scouts)","operator":"Connecticut Valley Girl Scouts","source":"University of Connecticut (http://magic.lib.uconn.edu/connecticut_data.html)"}},"43438864":{"location":[42.0265559,-73.1083801],"ct":"US","tp":"CS","ts":"2023-08-23T16:02:59Z","tX":304,"tY":380,"tags":{"description":"Private, Members Or Owners Only","leisure":"nature_reserve","magic:CATEGORY":"General Recreation","name":"Camp Jewell Outdoor Center (Ymca Of Hartford, Inc.","source":"University of Connecticut (http://magic.lib.uconn.edu/connecticut_data.html)"}},"43442262":{"location":[41.7853858,-72.9684134],"ct":"US","tp":"CS","ts":"2024-12-03T03:55:18Z","tX":304,"tY":380,"tags":{"alt_name":"City of New Britain Fresh Air Camp","description":"Municipal, Open To Public Without Fee","magic:CATEGORY":"Existing Preserved Open Space","name":"Fresh Air Camp","source":"University of Connecticut (http://magic.lib.uconn.edu/connecticut_data.html)"}},"1089189865":{"location":[41.8880312,-73.0409736],"ct":"US","tp":"CS","ts":"2021-08-29T02:37:26Z","tX":304,"tY":380,"tags":{"addr:city":"New Hartford","addr:housenumber":"169","addr:postcode":"06057","addr:state":"CT","addr:street":"Camp Workcoeman Road","name":"Camp Workcoeman","operator":"Connecticut Rivers Council, BSA","phone":"(860) 379-2207","scout":"yes","website":"https://campworkcoeman.org/"}},"1323299502":{"location":[41.9349305,-73.003042],"ct":"US","tp":"CS","ts":"2024-10-12T00:28:50Z","tX":304,"tY":380,"tags":{"alt_name":"American Legion State Forest Campground","name":"Austin F. Hawes Memorial Campground","operator":"Connecticut Department of Energy and Environmental Protection"}},"2485504929":{"location":[41.8770784,-73.0487719],"ct":"US","tp":"CS","ts":"2021-08-29T02:37:26Z","tX":304,"tY":380,"tags":{"addr:city":"New Hartford","addr:housenumber":"791","addr:postcode":"06057","addr:state":"CT","addr:street":"West Hill Road","name":"Camp Sequassen","operator":"Connecticut Yankee Council, BSA","phone":"(860) 379-2009","scout":"yes","website":"http://www.ctyankee.org/camping/camps/sequassen"}},"4224657735":{"location":[41.9543969,-72.9302512],"ct":"US","tp":"CS","ts":"2016-06-04T00:14:59Z","tX":304,"tY":380,"tags":{"name":"Roaring Brook Camp Area"}},"4353950901":{"location":[41.8453098,-72.9632825],"ct":"US","tp":"CS","ts":"2020-06-19T06:07:00Z","tX":304,"tY":380,"tags":{"name":"DEEP campsite"}},"7840493773":{"location":[41.9397088,-73.0381311],"ct":"US","tp":"CS","ts":"2023-11-07T18:35:49Z","tX":304,"tY":380,"tags":{"addr:city":"Barkhamsted","addr:housenumber":"232","addr:postcode":"06063","addr:state":"CT","addr:street":"Old North Road","name":"White Pines Campsites","phone":"860-379-0124","website":"https://www.whitepinescampsites.com/"}},"7940315111":{"location":[41.9311723,-72.9929817],"ct":"US","tp":"CS","ts":"2020-09-25T00:27:42Z","tX":304,"tY":380,"tags":{"name":"James Stocking Youth Group Camping Area"}},"8603057987":{"location":[41.9399805,-73.0102202],"ct":"US","tp":"CS","ts":"2024-02-03T17:59:07Z","tX":304,"tY":380,"tags":{"name":"Camp White Youth Group Camping Area"}}}