{"236465981":{"location":[51.9434593,-114.2436819],"ct":"CA","tp":"CS","ts":"2023-12-08T18:40:19Z","tX":187,"tY":338,"tags":{"drinking_water":"yes","internet_access":"no","name":"Red Lodge Provincial Park","power_supply":"yes","washing_machine":"no"}},"539767471":{"location":[51.9372369,-114.2486029],"ct":"CA","tp":"CR","ts":"2017-11-11T03:39:56Z","tX":187,"tY":338,"tags":{"name":"River Ridge R.V. Park"}},"755673658":{"location":[52.0335276,-113.9619622],"ct":"CA","tp":"CR","ts":"2019-12-15T17:07:42Z","tX":187,"tY":338,"tags":{"addr:housenumber":"5639","addr:street":"53 Avenue","name":"Anthony Henday Campground","source":"NRCan-CanVec-8.0"}},"1051855089":{"location":[52.0403857,-113.9262823],"ct":"CA","tp":"CS","ts":"2022-04-14T14:54:40Z","tX":187,"tY":338,"tags":{"addr:city":"Innisfail","addr:housenumber":"5400","addr:postcode":"T4G 1P9","addr:province":"AB","addr:street":"42 Avenue","name":"Discovery Wildlife Campground"}},"5220589338":{"location":[51.9409875,-114.242543],"ct":"CA","tp":"SD","ts":"2017-11-09T22:55:39Z","tX":187,"tY":338,"tags":{"operator":"RV Wastewater"}}}