{"620202441":{"location":[47.6943983,-114.1767622],"ct":"US","tp":"CR","ts":"2018-08-27T01:26:01Z","tX":187,"tY":357,"tags":{"name":"Flathead River RV Resort"}},"620202462":{"location":[47.6994324,-114.1875168],"ct":"US","tp":"CR","ts":"2024-10-31T19:37:56Z","tX":187,"tY":357,"tags":{"addr:city":"Polson","addr:housenumber":"200","addr:postcode":"59860","addr:state":"MT","addr:street":"Irvine Flats Road","brand":"KOA","brand:wikidata":"Q16988635","email":"polsonkoa@polsonrvresort.com","name":"Polson / Flathead Lake KOA Holiday","short_name":"KOA","website":"https://koa.com/campgrounds/polson/"}},"707080622":{"location":[47.5396054,-114.1031694],"ct":"US","tp":"CR","ts":"2021-04-12T22:38:26Z","tX":187,"tY":357,"tags":{"addr:city":"Ronan","addr:housenumber":"46711","addr:postcode":"59864","addr:state":"MT","addr:street":"Old US Highway 93","name":"Diamond S RV Park"}},"1329706027":{"location":[47.6984319,-114.1858707],"ct":"US","tp":"CR","ts":"2024-10-31T19:37:56Z","tX":187,"tY":357,"tags":{"addr:city":"Polson","addr:housenumber":"200","addr:postcode":"59860","addr:state":"MT","addr:street":"Irvine Flats Road","internet_access":"wlan","internet_access:fee":"customers","name":"Polson Motorcoach Resort","website":"https://www.polsonrvresort.com/"}},"1346972748":{"location":[47.6922006,-114.1200024],"ct":"US","tp":"CR","ts":"2024-12-28T23:21:37Z","tX":187,"tY":357,"tags":{"addr:city":"Polson","addr:housenumber":"35800","addr:postcode":"59860","addr:state":"MT","addr:street":"Eagle Nest Drive","name":"Eagle Nest RV Resort","website":"https://eaglenestrv.com/"}},"4317883890":{"location":[47.6921997,-114.1198179],"ct":"US","tp":"CS","ts":"2016-07-24T06:55:04Z","tX":187,"tY":357,"tags":{}}}