{"354327783":{"location":[36.8092656,-114.0617287],"ct":"US","tp":"CR","ts":"2018-02-07T06:05:54Z","tX":187,"tY":399,"tags":{"addr:city":"Mesquite","addr:country":"US","addr:housenumber":"401","addr:postcode":"89027","addr:state":"NV","addr:street":"East Old Mill Road","building":"office","name":"Sun Resort RV Park","phone":"+1 702-346-6666","source":"visit 06-2015","website":"www.sunresortrv.com"}},"354327786":{"location":[36.8089011,-114.0613861],"ct":"US","tp":"CR","ts":"2020-10-07T18:05:12Z","tX":187,"tY":399,"tags":{"addr:city":"Mesquite","addr:country":"US","addr:housenumber":"401","addr:postcode":"89027","addr:state":"NV","addr:street":"East Old Mill Road","area":"yes","fee":"yes","internet_access":"wlan","internet_access:fee":"no","name":"Sunresort RV","phone":"+1 702-346-2222","power_supply":"yes","sanitary_dump_station":"customers","tents":"no","website":"www.sunresortrv.com"}},"966442095":{"location":[36.8045883,-114.072795],"ct":"US","tp":"CR","ts":"2023-02-08T00:47:35Z","tX":187,"tY":399,"tags":{"addr:city":"Mesquite","addr:housenumber":"283","addr:postcode":"89027","addr:state":"NV","addr:street":"West Mesquite Boulevard","landuse":"residential","name":"Mesquite RV and Trailer Park","residential":"trailer_park","source":"survey"}},"973033118":{"location":[36.8098182,-114.1268287],"ct":"US","tp":"CR","ts":"2024-04-30T23:46:24Z","tX":187,"tY":399,"tags":{"addr:city":"Mesquite","addr:housenumber":"345","addr:postcode":"89034","addr:state":"NV","addr:street":"Mystic Drive","large_vehicles":"yes","name":"Solstice Motorcoach RV Resort","phone":"+1-702-346-8522","power_supply":"yes","sanitary_dump_station":"yes","source":"Bing","website":"https://www.solsticemotorcoachresort.com"}},"1177663275":{"location":[36.8176319,-114.0434122],"ct":"US","tp":"CR","ts":"2023-10-14T18:05:21Z","tX":187,"tY":399,"tags":{"addr:city":"Mesquite","addr:housenumber":"350","addr:postcode":"86432","addr:state":"AZ","addr:street":"East Highway 91","charge":"65 USD/night;320 USD/night;660 USD/month","description":"Park address on web site is Mesquite, NV, but park is located on Arizona side of state line.  Nightly and weekly rates listed here are representative, not exact.","fee":"yes","internet_access":"wlan","internet_access:fee":"customers","name":"Desert Skies RV Resort","phone":"+1-928-347-6000","power_supply":"yes","sanitary_dump_station":"yes","shower":"yes","toilets":"yes","website":"https://www.desertskiesresorts.com"}},"1209524064":{"location":[36.7974477,-114.1135346],"ct":"US","tp":"CR","ts":"2023-10-19T03:16:24Z","tX":187,"tY":399,"tags":{"addr:city":"Mesquite","addr:housenumber":"1225","addr:postcode":"89027","addr:state":"NV","addr:street":"West Hafen Lane","email":"info@mesquitetrailsrvresort.com","fee":"yes","internet_access":"wlan","internet_access:fee":"customers","large_vehicles":"yes","name":"Mesquite Trails RV Resort","phone":"+1-702-344-0497","power_supply":"yes","reservation":"yes","sanitary_dump_station":"yes","shower":"yes","toilets":"yes","website":"https://www.mesquitetrailsrvresort.com"}},"1216675944":{"location":[36.7865064,-113.9946372],"ct":"US","tp":"CR","ts":"2023-10-19T03:14:01Z","tX":187,"tY":399,"tags":{"addr:city":"Littlefield","addr:housenumber":"3520","addr:postcode":"86432","addr:state":"AZ","addr:street":"Scenic Boulevard","charge":"45 USD/night;280 USD/week;525 USD/month","email":"orchardrvpark@gmail.com","fee":"yes","large_vehicles":"yes","name":"Orchard RV Park","phone":"+1-928-347-1234","power_supply":"yes","reservation":"yes","sanitary_dump_station":"yes","website":"https://orchardrvpark.com"}},"10683247225":{"location":[36.8145381,-114.0642925],"ct":"US","tp":"SD","ts":"2023-02-21T12:52:19Z","tX":187,"tY":399,"tags":{"access":"yes","charge":"15 USD","fee":"yes","operator":"Virgin Valley Food Mart","sanitary_dump_station:round_drain":"yes","water_point":"yes"}}}