{"254434746":{"location":[33.6803481,-113.9449041],"ct":"US","tp":"CR","ts":"2022-09-10T07:08:07Z","tX":187,"tY":410,"tags":{"addr:city":"Salome","addr:country":"US","addr:housenumber":"46751","addr:postcode":"85348","addr:state":"AZ","addr:street":"East Highway 60","name":"Black Rock RV Village","website":"https://www.blackrockrv.com/"}},"457539466":{"location":[33.6852848,-114.2181715],"ct":"US","tp":"CR","ts":"2019-12-30T15:15:14Z","tX":187,"tY":410,"tags":{"access":"customers","addr:city":"Quartzsite","addr:country":"US","addr:housenumber":"1258","addr:postcode":"85346","addr:state":"AZ","addr:street":"Central Boulevard","camp_site":"deluxe","capacity":"80","dog":"yes","drinking_water":"yes","fee":"yes","internet_access":"wlan","motor_vehicle":"yes","name":"Split Rail RV Park","permanent_camping":"yes","phone":"+1-928-927-5296","power_supply":"yes","sanitary_dump_station":"yes","shower":"yes","toilets":"yes","washing_machine":"yes","website":"http://www.splitrailrvparkquartzsite.com/"}},"580288247":{"location":[33.6643186,-114.2228898],"ct":"US","tp":"CR","ts":"2019-02-17T02:51:44Z","tX":187,"tY":410,"tags":{"addr:city":"Quartzsite","addr:housenumber":"365","addr:postcode":"85369","addr:state":"AZ","addr:street":"West Main Street","fee":"yes","name":"Holiday Palms RV Park","operator":"Grapevine 7 Inc.","website":"https://www.g7rvresorts.com/arizona/holiday-palms/"}},"580288745":{"location":[33.6639391,-114.2247053],"ct":"US","tp":"CR","ts":"2023-10-15T10:34:04Z","tX":187,"tY":410,"tags":{"addr:city":"Quartzsite","addr:housenumber":"575","addr:postcode":"85346","addr:state":"AZ","addr:street":"West Main Street","fee":"yes","name":"88 Shades RV Park","phone":"+1-928-927-6336","website":"https://88shadesquartzsitervpark.com/"}},"580289688":{"location":[33.6634663,-114.227597],"ct":"US","tp":"CR","ts":"2020-01-01T14:22:25Z","tX":187,"tY":410,"tags":{"addr:city":"Quartzsite","addr:housenumber":"615","addr:postcode":"85346","addr:state":"AZ","addr:street":"West Main Street","camp_site":"serviced","campers":"yes","capacity":"120","caravans":"yes","drinking_water":"yes","ele":"267","fee":"yes","internet_access":"wlan","internet_access:fee":"no","laundry_service":"yes","motor_vehicle":"yes","name":"B10 RV Park and Campground","phone":"+1-928-927-4393","power_supply":"yes","sanitary_dump_station":"yes","tents":"yes","toilets":"yes","website":"http://www.b10campground.com/"}},"580292664":{"location":[33.6695366,-114.2162365],"ct":"US","tp":"CR","ts":"2020-01-01T14:22:25Z","tX":187,"tY":410,"tags":{"addr:city":"Quartzsite","addr:housenumber":"185","addr:postcode":"85346","addr:state":"AZ","addr:street":"Central Boulevard","fee":"yes","name":"Shady Lane RV Park","website":"https://www.shadylanequartzsite.com/"}},"580292665":{"location":[33.6699652,-114.2178285],"ct":"US","tp":"CR","ts":"2018-04-16T02:59:29Z","tX":187,"tY":410,"tags":{"addr:city":"Quartzsite","addr:housenumber":"170","addr:postcode":"85346","addr:state":"AZ","addr:street":"Central Boulevard","fee":"yes","name":"Kofa Mountain RV Park"}},"580292670":{"location":[33.6667603,-114.2238902],"ct":"US","tp":"CR","ts":"2019-11-25T14:31:20Z","tX":187,"tY":410,"tags":{"addr:city":"Quartzsite","addr:housenumber":"400","addr:postcode":"85346","addr:state":"AZ","addr:street":"West Main Street","dog":"yes","fee":"yes","internet_access":"wlan","internet_access:fee":"no","name":"Hassler's RV Park","phone":"+1-928-927-6950","power_supply":"yes","shower":"yes","toilets":"yes","website":"https://hasslersrvpark.com/"}},"753519449":{"location":[33.5801175,-114.2452557],"ct":"US","tp":"CR","ts":"2023-10-15T10:34:34Z","tX":187,"tY":410,"tags":{"access":"customers","addr:city":"Quartzsite","addr:housenumber":"29620","addr:postcode":"85346","addr:state":"AZ","addr:street":"La Paz Valley Road","camp_site":"deluxe","caravans":"yes","drinking_water":"yes","fee":"yes","motor_vehicle":"yes","name":"Burwood RV Park","permanent_camping":"yes","phone":"+1-928-927-6661","website":"https://burrwoodrvpark.com/"}},"753519450":{"location":[33.6607583,-114.2023015],"ct":"US","tp":"CR","ts":"2019-12-07T14:09:47Z","tX":187,"tY":410,"tags":{"access":"customers","addr:city":"Quartzsite","addr:housenumber":"855","addr:postcode":"85346","addr:state":"AZ","addr:street":"Rogers Place","camp_site":"deluxe","caravans":"yes","drinking_water":"yes","fee":"yes","motor_vehicle":"yes","name":"Desert Edge RV Park","permanent_camping":"yes","phone":"+1-928-927-6605","power_supply":"yes","reservation":"recommended","website":"http://www.desertedgervpark.com/"}},"753519451":{"location":[33.5776795,-114.2452114],"ct":"US","tp":"CR","ts":"2019-12-07T14:09:47Z","tX":187,"tY":410,"tags":{"access":"customers","addr:city":"Quartzsite","addr:housenumber":"52301","addr:state":"AZ","addr:street":"Century","camp_site":"deluxe","drinking_water":"yes","fee":"yes","name":"La Paz RV Park","permanent_camping":"yes","phone":"+1-928 927 9754"}},"754346640":{"location":[33.680027,-114.2193415],"ct":"US","tp":"CR","ts":"2019-12-10T18:08:19Z","tX":187,"tY":410,"tags":{"addr:city":"Quartzsite","addr:housenumber":"918","addr:postcode":"85346","addr:state":"AZ","camp_site":"deluxe","campers":"yes","caravans":"yes","dog":"yes","drinking_water":"yes","fee":"yes","internet_access":"wlan","motor_vehicle":"yes","name":"Quail Run RV Park","permanent_camping":"yes","phone":"+1-928-927-8810","power_supply":"yes","reservation":"required","sanitary_dump_station":"yes","shower":"yes","tents":"no","toilets":"yes","washing_machine":"yes","website":"https://www.quailrv.com/"}},"754346641":{"location":[33.6815585,-114.2194854],"ct":"US","tp":"CR","ts":"2019-12-30T15:57:03Z","tX":187,"tY":410,"tags":{"addr:city":"Quartzsite","addr:housenumber":"982","addr:postcode":"85346","addr:state":"AZ","addr:street":"Central Boulevard","campers":"yes","caravans":"yes","drinking_water":"yes","motor_vehicle":"yes","name":"Jr's RV Park","permanent_camping":"yes","phone":"+1-928-927-5774","power_supply":"yes","sanitary_dump_station":"yes","shower":"yes","tents":"no","toilets":"yes","washing_machine":"yes"}},"759435882":{"location":[33.6663215,-114.2120299],"ct":"US","tp":"CR","ts":"2024-06-12T21:07:40Z","tX":187,"tY":410,"tags":{"addr:city":"Quartzsite","addr:country":"US","addr:housenumber":"315","addr:postcode":"85346","addr:state":"AZ","addr:street":"East Main Street","dog":"yes","drinking_water":"yes","email":"CrawfordsRV@gmail.com","gnis:feature_id":"2669660","internet_access":"wlan","internet_access:fee":"no","name":"Crawford's RV Park","phone":"+1-928-927-6594","power_supply":"yes","sanitary_dump_station":"yes","shower":"yes","toilets":"yes","washing_machine":"yes","website":"https://www.crawfordsrvpark.com/"}},"759435884":{"location":[33.6662445,-114.2091472],"ct":"US","tp":"CR","ts":"2019-12-29T20:47:08Z","tX":187,"tY":410,"tags":{"addr:city":"Quartzsite","addr:country":"US","addr:housenumber":"455","addr:postcode":"85346","addr:state":"AZ","addr:street":"East Main Street","name":"Pattie's RV Park","phone":"+1-928-927-4223","power_supply":"yes"}},"1093292130":{"location":[33.686244,-113.9242921],"ct":"US","tp":"CR","ts":"2022-11-20T23:12:48Z","tX":187,"tY":410,"tags":{"name":"Gateway Ranch RV Resort"}},"1093292134":{"location":[33.676815,-113.9454846],"ct":"US","tp":"CR","ts":"2022-09-10T07:08:07Z","tX":187,"tY":410,"tags":{}},"1259580909":{"location":[33.587967,-114.2267576],"ct":"US","tp":"CR","ts":"2024-03-10T20:29:08Z","tX":187,"tY":410,"tags":{"access":"permissive","camp_site":"basic","caravans":"yes","drinking_water":"no","fee":"no","maxstay":"14 days","name":"Road Runner Camping Area","openfire":"yes","operator":"US Bureau of Land Management","power_supply":"no","sanitary_dump_station":"no","tents":"yes","toilets":"no"}},"1259580910":{"location":[33.6607743,-114.1675239],"ct":"US","tp":"CR","ts":"2024-03-10T23:20:35Z","tX":187,"tY":410,"tags":{"access":"permissive","camp_site":"basic","caravans":"yes","drinking_water":"no","fee":"no","maxstay":"14 days","name":"Scaddan Wash Camping Area","openfire":"yes","operator":"US Bureau of Land Management","power_supply":"no","reservation":"no","sanitary_dump_station":"no","tents":"yes","toilets":"no"}},"1259786326":{"location":[33.6484217,-114.2243826],"ct":"US","tp":"CR","ts":"2024-03-10T20:29:08Z","tX":187,"tY":410,"tags":{"access":"permit","camp_site":"basic","caravans":"yes","dog":"leashed","drinking_water":"no","fee":"yes","internet_access":"no","name":"La Posa West Long Term Visitor Area","openfire":"yes","operator":"US Bureau of Land Management","permanent_camping":"yes","power_supply":"no","reservation":"no","sanitary_dump_station":"no","tents":"no","toilets":"no","website":"https://www.blm.gov/visit/la-posa-long-term-visitor-area"}},"1259786332":{"location":[33.6132236,-114.228158],"ct":"US","tp":"CR","ts":"2024-03-10T23:20:35Z","tX":187,"tY":410,"tags":{"access":"permit","camp_site":"basic","caravans":"yes","dog":"leashed","drinking_water":"no","fee":"yes","internet_access":"no","name":"La Posa Tyson Wash Long Term Visitor Area","openfire":"yes","operator":"US Bureau of Land Management","permanent_camping":"yes","power_supply":"no","reservation":"no","sanitary_dump_station":"no","tents":"yes","toilets":"yes","website":"https://www.blm.gov/visit/la-posa-long-term-visitor-area"}},"1259828592":{"location":[33.6098606,-114.1893679],"ct":"US","tp":"CR","ts":"2024-03-10T23:20:35Z","tX":187,"tY":410,"tags":{"access":"permit","camp_site":"basic","caravans":"yes","dog":"leashed","drinking_water":"yes","fee":"yes","internet_access":"no","name":"La Posa South Long Term Visitor Area","openfire":"yes","operator":"US Bureau of Land Management","permanent_camping":"yes","power_supply":"no","reservation":"no","sanitary_dump_station":"yes","tents":"yes","toilets":"yes","website":"https://www.blm.gov/visit/la-posa-long-term-visitor-area"}},"1259828593":{"location":[33.6497495,-114.1897596],"ct":"US","tp":"CR","ts":"2024-03-16T22:51:17Z","tX":187,"tY":410,"tags":{"access":"permit","camp_site":"basic","caravans":"yes","dog":"leashed","drinking_water":"no","fee":"yes","internet_access":"no","name":"La Posa North Long Term Visitor Area","openfire":"yes","operator":"US Bureau of Land Management","permanent_camping":"yes","power_supply":"no","reservation":"no","sanitary_dump_station":"no","tents":"yes","toilets":"yes","website":"https://www.blm.gov/visit/la-posa-long-term-visitor-area"}},"1262004052":{"location":[33.7056555,-114.2063748],"ct":"US","tp":"CR","ts":"2024-03-12T22:58:38Z","tX":187,"tY":410,"tags":{"access":"permissive","camp_site":"basic","caravans":"yes","drinking_water":"no","fee":"no","maxstay":"14 days","name":"Hi Jolly/MM112 Camping Area","openfire":"yes","operator":"US Bureau of Land Management","power_supply":"no","reservation":"no","sanitary_dump_station":"no","tents":"yes","toilets":"no"}},"1340353311":{"location":[33.6740765,-114.2030133],"ct":"US","tp":"CR","ts":"2024-12-05T18:50:11Z","tX":187,"tY":410,"tags":{}},"1340353312":{"location":[33.6722561,-114.2008349],"ct":"US","tp":"CR","ts":"2024-12-05T18:50:11Z","tX":187,"tY":410,"tags":{}},"1698196788":{"location":[33.6737525,-114.2166109],"ct":"US","tp":"SD","ts":"2015-04-14T18:12:03Z","tX":187,"tY":410,"tags":{"fee":"yes","name":"RV Pit Stop","sanitary_dump_station:pump-out":"no","sanitary_dump_station:round_drain":"yes"}},"2422613070":{"location":[33.5239817,-114.1195115],"ct":"US","tp":"CS","ts":"2020-11-20T22:22:38Z","tX":187,"tY":410,"tags":{"access":"permissive","camp_site":"basic","campers":"yes","caravans":"yes","drinking_water":"no","ele":"453","fee":"no","internet_access":"no","maxstay":"14 days","motor_vehicle":"yes","name":"Crystal Hill Free Campsites","openfire":"yes","operator":"US Forest Service","power_supply":"no","reservation":"no","sanitary_dump_station":"no","shower":"no","source":"http://www.boondocking.org/","tents":"yes","toilets":"no","website":"https://www.fws.gov/refuge/Kofa/"}},"5766683437":{"location":[33.6003898,-114.1977753],"ct":"US","tp":"CS","ts":"2021-01-30T01:01:16Z","tX":187,"tY":410,"tags":{"access":"permit","camp_site":"basic","campers":"yes","caravans":"yes","dog":"leashed","drinking_water":"yes","ele":"299","fee":"yes","internet_access":"no","motor_vehicle":"yes","name":"The Magic Circle","nudism":"yes","openfire":"yes","permanent_camping":"yes","power_supply":"no","reservation":"no","shower":"no","tents":"yes","toilets":"no"}},"7008476757":{"location":[33.6633314,-114.227725],"ct":"US","tp":"SD","ts":"2019-11-25T14:31:20Z","tX":187,"tY":410,"tags":{"access":"customers","fee":"no"}},"11712515933":{"location":[33.613828,-114.2047235],"ct":"US","tp":"SD","ts":"2024-03-16T22:51:17Z","tX":187,"tY":410,"tags":{"access":"permit"}},"11712515934":{"location":[33.6138489,-114.2047567],"ct":"US","tp":"SD","ts":"2024-03-16T22:51:17Z","tX":187,"tY":410,"tags":{"access":"permit"}},"11712515935":{"location":[33.6138699,-114.2047939],"ct":"US","tp":"SD","ts":"2024-03-16T22:51:17Z","tX":187,"tY":410,"tags":{"access":"permit"}},"11737805259":{"location":[33.6230189,-114.2130213],"ct":"US","tp":"SD","ts":"2024-03-16T22:51:17Z","tX":187,"tY":410,"tags":{"name":"Portable Dry Dump","water_point":"no"}}}