{"452814136":{"location":[32.673945,-114.1195494],"ct":"US","tp":"CR","ts":"2019-02-17T04:34:30Z","tX":187,"tY":413,"tags":{"addr:city":"Wellton","addr:housenumber":"30115","addr:postcode":"85356","addr:state":"AZ","addr:street":"Wellton Mohawk Drive","capacity":"154","fee":"yes","name":"Arrowhead RV Park","operator":"All Our Parks","power_supply":"yes","sanitary_dump_station":"yes","website":"https://www.arrowheadrvparkaz.com/"}},"452814346":{"location":[32.6755399,-114.1186469],"ct":"US","tp":"CR","ts":"2016-11-12T05:08:02Z","tX":187,"tY":413,"tags":{"addr:city":"Wellton","addr:housenumber":"30333","addr:postcode":"85356","addr:state":"AZ","addr:street":"Wellton Mohawk Drive","capacity":"182","fee":"yes","name":"Coach Stop RV Park","power_supply":"yes","sanitary_dump_station":"yes"}},"545129242":{"location":[32.6881342,-113.9552768],"ct":"US","tp":"CR","ts":"2017-12-07T01:10:59Z","tX":187,"tY":413,"tags":{"addr:city":"Tacna","addr:housenumber":"39886","addr:postcode":"85352","addr:state":"AZ","addr:street":"East County 9 1/2 St","capacity":"204","fee":"yes","name":"Copper Mountain RV Park","website":"https://coppermountainrvpark.com/"}}}