{"913956518":{"location":[48.8944069,-115.1353539],"ct":"US","tp":"CS","ts":"2021-03-05T19:22:32Z","tX":184,"tY":352,"tags":{"access":"yes","fee":"no","name":"Tobacco River Campground"}},"1283529188":{"location":[48.900104,-115.1575985],"ct":"US","tp":"CS","ts":"2024-06-13T17:22:16Z","tX":184,"tY":352,"tags":{"access":"yes","addr:city":"Rexford","addr:housenumber":"316","addr:postcode":"59930","addr:state":"MT","addr:street":"Rexford Bench Loop","capacity:caravans":"54","caravans":"yes","drinking_water":"yes","fee":"yes","informal":"no","internet_access":"wlan","internet_access:fee":"yes","large_vehicles":"yes","laundry":"unknown","mobile_reception":"yes","name":"Rexford Bench Campground","operator":"USFS","phone":"+1-406-296-2536","power_supply":"no","reservation":"yes","sanitary_dump_station":"yes","shower":"unknown","tents":"yes","toilets":"yes","water_point":"unknown","website":"https://www.recreation.gov/camping/campgrounds/232251"}},"1283531275":{"location":[48.922163,-115.0537611],"ct":"US","tp":"CR","ts":"2024-05-16T06:38:43Z","tX":184,"tY":352,"tags":{"addr:city":"Eureka","addr:housenumber":"1790","addr:postcode":"59917","addr:state":"MT","addr:street":"Blacktail Drive","name":"Indian Springs RV Resort","power_supply":"yes","sanitary_dump_station":"yes","website":"https://www.indianspringsmontana.com/rv-resort"}},"1320406410":{"location":[48.7238677,-115.3075794],"ct":"US","tp":"CS","ts":"2024-10-03T14:59:24Z","tX":184,"tY":352,"tags":{"name":"Peck Gulch Camprground","operator":"USFS","source":"https://www.fs.usda.gov/recarea/kootenai/recarea/?recid=71214","website":"https://www.fs.usda.gov/recarea/kootenai/recreation/camping-cabins/recarea/?recid=71214&actid=29"}},"2580134660":{"location":[48.8366635,-115.1923718],"ct":"US","tp":"CS","ts":"2019-02-17T12:41:51Z","tX":184,"tY":352,"tags":{"name":"Camp 32","operator":"USFS","website":"https://www.fs.usda.gov/recarea/kootenai/recreation/camping-cabins/recarea/?recid=71233&actid=29"}},"11175879312":{"location":[48.8778027,-115.0530774],"ct":"US","tp":"CS","ts":"2023-09-27T22:33:23Z","tX":184,"tY":352,"tags":{"fee":"no","name":"Tent camping only","water_source":"river"}},"11923816743":{"location":[48.8999521,-115.163763],"ct":"US","tp":"SD","ts":"2024-05-22T16:25:46Z","tX":184,"tY":352,"tags":{"fee":"no","large_vehicles":"yes","operator":"Rexford Bench Campground","water_point":"yes"}}}