{"196512273":{"location":[36.0401146,-115.178547],"ct":"US","tp":"CR","ts":"2021-03-08T05:21:54Z","tX":184,"tY":401,"tags":{"addr:city":"Las Vegas","addr:housenumber":"2711","addr:postcode":"89123","addr:state":"NV","addr:street":"West Windmill Lane","name":"Oasis Las Vegas RV Resort"}},"312344632":{"location":[36.1099899,-115.0589217],"ct":"US","tp":"CR","ts":"2023-06-08T16:31:38Z","tX":184,"tY":401,"tags":{"addr:city":"Las Vegas","addr:country":"US","addr:housenumber":"5225","addr:postcode":"89122","addr:state":"NV","addr:street":"Boulder Highway","brand":"KOA","brand:wikidata":"Q16988635","name":"Las Vegas KOA at Sam's Town","short_name":"KOA","website":"https://koa.com/campgrounds/las-vegas/"}},"319325706":{"location":[36.1437686,-115.0875256],"ct":"US","tp":"CR","ts":"2023-09-26T21:13:50Z","tX":184,"tY":401,"tags":{"addr:city":"Las Vegas","addr:housenumber":"4001","addr:postcode":"89104","addr:state":"NV","addr:street":"East Sahara Avenue","name":"Maycliff Mini Storage and RV Park","phone":"+1-702-457-3553","power_supply":"yes","sanitary_dump_station":"yes","shower":"yes","website":"https://maycliff.com/mini-storage-and-rv-park"}},"385741428":{"location":[36.0411176,-115.2026022],"ct":"US","tp":"CS","ts":"2015-12-13T19:03:11Z","tX":184,"tY":401,"tags":{"source":"Bing"}},"397861266":{"location":[36.1757085,-115.1419489],"ct":"US","tp":"CR","ts":"2020-09-21T04:06:42Z","tX":184,"tY":401,"tags":{"addr:city":"Las Vegas","addr:housenumber":"425","addr:postcode":"89101","addr:state":"NV","addr:street":"North Main Street","charge":"19 USD","fee":"yes","internet_access":"wlan","name":"Main Street Station RV Park","power_supply":"yes","sanitary_dump_station":"yes"}},"543015574":{"location":[36.0664025,-115.0087881],"ct":"US","tp":"CR","ts":"2023-09-26T21:09:48Z","tX":184,"tY":401,"tags":{"addr:city":"Henderson","addr:housenumber":"1940","addr:postcode":"89011","addr:state":"NV","addr:street":"North Boulder Highway","name":"Desert Sands RV Park","phone":"+1-702-565-1945","power_supply":"yes","sanitary_dump_station":"yes","website":"https://www.desertsandsnv.com"}},"568597575":{"location":[36.1408206,-115.1636242],"ct":"US","tp":"CR","ts":"2023-09-26T21:16:40Z","tX":184,"tY":401,"tags":{"addr:city":"Las Vegas","addr:housenumber":"2880","addr:postcode":"89109","addr:state":"NV","addr:street":"South Las Vegas Boulevard","name":"The RV Park at Circus Circus","phone":"+1-800-444-2472","power_supply":"yes","sanitary_dump_station":"yes","website":"https://www.circuscircus.com/hotels/rv-park"}},"847040582":{"location":[36.2227398,-115.0841004],"ct":"US","tp":"CR","ts":"2024-09-28T05:41:56Z","tX":184,"tY":401,"tags":{"addr:city":"Las Vegas","addr:housenumber":"3640","addr:postcode":"89115","addr:state":"NV","addr:street":"Las Vegas Boulevard North","drinking_water":"yes","fee":"yes","internet_access":"wlan","internet_access:fee":"customers","name":"Hitchin' Post RV Park and Motel","phone":"+1-888-433-8402","power_supply":"yes","sanitary_dump_station":"yes","toilets":"yes","website":"https://www.hprvp.com"}},"1052316288":{"location":[36.1286483,-115.0793036],"ct":"US","tp":"CR","ts":"2023-09-26T23:36:34Z","tX":184,"tY":401,"tags":{"addr:city":"Las Vegas","addr:housenumber":"4925","addr:postcode":"89121","addr:state":"NV","addr:street":"Boulder Highway","brand":"Thousand Trails","brand:wikidata":"Q7797073","internet_access":"wlan","internet_access:fee":"customers","name":"Thousand Trails Las Vegas","power_supply":"yes","sanitary_dump_station":"yes","shower":"yes","toilets":"yes","website":"https://thousandtrails.com/nevada/thousand-trails-las-vegas-rv-resort"}},"1180487517":{"location":[36.1172697,-115.0638509],"ct":"US","tp":"CR","ts":"2023-06-08T16:31:38Z","tX":184,"tY":401,"tags":{"addr:city":"Las Vegas","addr:housenumber":"4040","addr:postcode":"89121","addr:state":"NV","addr:street":"South Nellis Boulevard","brand":"KOA","brand:wikidata":"Q16988635","name":"Las Vegas KOA Journey North Section","short_name":"KOA","website":"https://koa.com/campgrounds/las-vegas/map/"}},"1212143075":{"location":[36.1200827,-115.0625871],"ct":"US","tp":"CR","ts":"2023-10-14T19:08:51Z","tX":184,"tY":401,"tags":{"addr:city":"Las Vegas","addr:housenumber":"3890","addr:postcode":"89121","addr:state":"NV","addr:street":"South Nellis Boulevard","email":"info@LasVegasRVResort.com","internet_access":"wlan","internet_access:fee":"customers","name":"Las Vegas RV Resort","phone":"+1-702-451-8005","power_supply":"yes","sanitary_dump_station":"yes","shower":"yes","toilets":"yes","website":"https://www.lasvegasrvresort.com"}},"1215628399":{"location":[36.1251116,-115.076358],"ct":"US","tp":"CR","ts":"2023-10-14T19:08:51Z","tX":184,"tY":401,"tags":{"name":"Arizona Charlie's Boulder RV Park","website":"https://www.arizonacharliesboulder.com/RV-Park"}},"4308331117":{"location":[36.1175284,-115.1379511],"ct":"US","tp":"CS","ts":"2016-07-18T05:31:40Z","tX":184,"tY":401,"tags":{"access":"no","internet_access":"no","operator":"Homeless People","stars":"1","wheelchair":"no"}},"12040188442":{"location":[36.0405566,-115.1793374],"ct":"US","tp":"CR","ts":"2024-07-07T16:44:04Z","tX":184,"tY":401,"tags":{"name":"115","picnic_table":"yes","power_supply":"yes","reservation":"yes","sanitary_dump_station":"yes","tents":"no","water_point":"yes"}}}