{"13929770":{"location":[-25.1841192,152.6123119],"ct":"AU","tp":"CR","ts":"2022-03-16T12:07:23Z","tX":946,"tY":586,"tags":{"addr:housenumber":"42","addr:postcode":"4659","addr:state":"QLD","addr:street":"Burrum Street","addr:suburb":"Burrum Heads","dog":"no","name":"Burrum Heads Beachfront Caravan Park.","power_supply":"yes","sanitary_dump_station":"yes","website":"https://www.beachfronttouristparks.com.au/our-parks/burrum-heads-caravan-park","wheelchair":"yes"}},"182846976":{"location":[-25.2780434,152.8372004],"ct":"AU","tp":"CR","ts":"2023-03-22T08:55:31Z","tX":946,"tY":586,"tags":{"name":"Beachfront Tourist Park"}},"308341719":{"location":[-25.2922188,152.8382059],"ct":"AU","tp":"CR","ts":"2020-02-26T10:35:05Z","tX":946,"tY":586,"tags":{"name":"Coconut Grove Caravan Park"}},"308343393":{"location":[-25.2839263,152.8573324],"ct":"AU","tp":"CR","ts":"2023-09-14T06:25:37Z","tX":946,"tY":586,"tags":{"name":"Scarness Beachfront Tourist Park"}},"308344366":{"location":[-25.2836677,152.873744],"ct":"AU","tp":"CR","ts":"2014-10-18T07:02:44Z","tX":946,"tY":586,"tags":{"name":"Beachfront  Tourist Park"}},"316605511":{"location":[-25.3297522,152.5786186],"ct":"AU","tp":"CR","ts":"2012-03-23T02:11:43Z","tX":946,"tY":586,"tags":{"name":"Burrum River Caravan Park"}},"324053434":{"location":[-25.2909138,152.8502788],"ct":"AU","tp":"CS","ts":"2024-03-30T04:51:06Z","tX":946,"tY":586,"tags":{}},"442137088":{"location":[-25.1855027,152.6083678],"ct":"AU","tp":"CR","ts":"2022-03-16T14:45:00Z","tX":946,"tY":586,"tags":{"name":"Hillcrest Holiday Park","power_supply":"yes","tents":"yes","website":"https://burrumheadshillcrestholidaypark.com/"}},"567770242":{"location":[-25.2548469,152.8217295],"ct":"AU","tp":"CS","ts":"2025-03-05T09:46:40Z","tX":946,"tY":586,"tags":{"addr:country":"AU","addr:housenumber":"26","addr:postcode":"4655","addr:street":"Corser Street","addr:suburb":"Point Vernon","email":"pvhp@bigpond.com","fax":"+61 7 4128 1421","name":"Point Vernon Holiday Park","phone":"+61 7 4128 1423","stars":"4","website":"www.pvhp.com.au"}},"568068436":{"location":[-25.248367,152.8093995],"ct":"AU","tp":"CS","ts":"2025-03-05T09:46:40Z","tX":946,"tY":586,"tags":{"addr:country":"AU","addr:housenumber":"26","addr:postcode":"4655","addr:street":"Mant Street","addr:suburb":"Point Vernon","name":"Sun Lodge Ocean Front Tourist Park","phone":"+61 7 4128 1692","website":"beachfronttouristpark.com.au"}},"685557844":{"location":[-25.2860597,152.9007764],"ct":"AU","tp":"CR","ts":"2024-10-23T14:05:42Z","tX":946,"tY":586,"tags":{"fee":"yes","name":"Pier Caravan Park","power_supply":"yes","sanitary_dump_station":"yes"}},"855741550":{"location":[-25.2946284,152.9078813],"ct":"AU","tp":"CR","ts":"2024-10-25T04:30:27Z","tX":946,"tY":586,"tags":{"name":"Harbour View","power_supply":"yes","website":"https://www.caravanparkherveybay.net.au/"}},"1024737963":{"location":[-25.2832165,152.897494],"ct":"AU","tp":"CS","ts":"2024-04-26T11:25:19Z","tX":946,"tY":586,"tags":{"access":"customers","addr:housenumber":"17","addr:postcode":"4655","addr:state":"QLD","addr:street":"Elizabeth Street","addr:suburb":"Urangan","cabins":"yes","caravans":"yes","fee":"yes","name":"Windmill Caravan Park","phone":"+61 7 4128 9267","tents":"yes","website":"https://www.windmillpark.com.au/"}},"3742187825":{"location":[-25.2945908,152.9077891],"ct":"AU","tp":"CS","ts":"2024-10-25T04:30:27Z","tX":946,"tY":586,"tags":{"access":"customers","caravans":"yes","fee":"yes","tents":"yes"}},"4774093880":{"location":[-25.2869049,152.8770785],"ct":"AU","tp":"CS","ts":"2017-04-04T06:10:35Z","tX":946,"tY":586,"tags":{"internet_access":"wlan","name":"The Palms"}},"5492615221":{"location":[-25.2899779,152.8887484],"ct":"AU","tp":"CS","ts":"2018-03-21T04:43:46Z","tX":946,"tY":586,"tags":{"addr:housenumber":"85","addr:postcode":"4655","addr:street":"Margaret Street","name":"Hervey Bay Caravan Park"}},"5767931653":{"location":[-25.3454933,152.6006488],"ct":"AU","tp":"CS","ts":"2018-07-18T10:28:33Z","tX":946,"tY":586,"tags":{"addr:street":"Torbanlea Road","name":"Torbanlea Racecourse Campground"}},"7076850285":{"location":[-25.2850903,152.9014649],"ct":"AU","tp":"CS","ts":"2024-10-23T14:05:42Z","tX":946,"tY":586,"tags":{"addr:housenumber":"11","addr:postcode":"4655","addr:street":"Pier Street","caravans":"yes","fee":"yes","internet_access":"wlan","name":"Pier","name:en":"Pier Caravan Park Hervey Bay","static_caravans":"yes","tents":"yes","website":"https://www.caravanparkherveybay.com.au/"}},"10732542020":{"location":[-25.295942,152.9034228],"ct":"AU","tp":"CS","ts":"2024-04-26T11:25:19Z","tX":946,"tY":586,"tags":{"access":"yes","addr:housenumber":"820","addr:postcode":"4655","addr:state":"QLD","addr:street":"Boat Harbour Drive","addr:suburb":"Urangan","name":"Colonial Village Resort","operator":"YHA Hervey Bay"}},"11958112069":{"location":[-25.2872423,152.8725043],"ct":"AU","tp":"CR","ts":"2024-06-05T09:58:00Z","tX":946,"tY":586,"tags":{"addr:housenumber":"20","addr:street":"Fraser Street","name":"Discovery Parks Fraser Coast"}},"9448996582":{"location":[-25.2832216,152.8974828],"ct":"AU","tp":"SD","ts":"2022-01-26T05:24:48Z","tX":946,"tY":586,"tags":{"access":"customers"}},"12917159233":{"location":[-25.2861996,152.8804932],"ct":"AU","tp":"CR","ts":"2025-06-15T10:26:36Z","tX":946,"tY":586,"tags":{"addr:housenumber":"Truro street","addr:street":"105","name":"ingelia Holidays Hervey Bay","phone":"(07) 4125 1103","website":"https://www.ingeniaholidays.com.au/our-parks/queensland/ingenia-holidays-hervey-bay"}}}