{"43332982":{"location":[-27.6389071,152.5993014],"ct":"AU","tp":"CS","ts":"2023-12-19T08:10:31Z","tX":946,"tY":593,"tags":{"landuse":"recreation_ground","name":"Rosewood Showgrounds","power_supply":"yes","recreation_ground":"showground","sanitary_dump_station":"yes","tents":"yes","wheelchair":"yes"}},"289569365":{"location":[-27.4319177,152.8281498],"ct":"AU","tp":"CS","ts":"2015-12-22T08:00:50Z","tX":946,"tY":593,"tags":{"caravans":"no","fee":"yes","name":"Scrub Road Bush Camp","openfire":"no","source":"http://www.nprsr.qld.gov.au/parks/daguilar/camping.html#scrub_road_bush_camp","surface":"dirt","tents":"yes"}},"307965720":{"location":[-27.3853029,152.7558708],"ct":"AU","tp":"CS","ts":"2015-12-22T08:00:50Z","tX":946,"tY":593,"tags":{"caravans":"no","fee":"yes","name":"Dundas Road Bush Camp","openfire":"no","source":"http://www.nprsr.qld.gov.au/parks/daguilar/camping.html#dundas_road_bush_camp","surface":"dirt","tents":"yes"}},"420669787":{"location":[-27.3753933,152.893619],"ct":"AU","tp":"CS","ts":"2024-10-19T02:57:43Z","tX":946,"tY":593,"tags":{"access":"private","addr:housenumber":"68","addr:postcode":"4520","addr:state":"QLD","addr:street":"Cash Avenue","addr:suburb":"Samford Valley","fee":"yes","name":"Baden Powell Park Scout Campsight","operator":"Scouts Australia Queensland Branch","scout":"yes"}},"571400145":{"location":[-27.4132976,152.7775269],"ct":"AU","tp":"CS","ts":"2015-12-22T08:00:50Z","tX":946,"tY":593,"tags":{"caravans":"no","fee":"yes","name":"Light Line Road Bush Camp","openfire":"no","source":"http://www.nprsr.qld.gov.au/parks/daguilar/camping.html#light_line_road_bush_camp","surface":"dirt","tents":"yes"}},"607566417":{"location":[-27.666024,152.6929344],"ct":"AU","tp":"CR","ts":"2023-12-19T08:10:31Z","tX":946,"tY":593,"tags":{"name":"Amberley Caravan Park"}},"607566418":{"location":[-27.6689357,152.688692],"ct":"AU","tp":"CR","ts":"2023-12-19T08:10:31Z","tX":946,"tY":593,"tags":{"name":"Willowbank Caravan Park"}},"902352919":{"location":[-27.6275514,152.7581613],"ct":"AU","tp":"CR","ts":"2021-08-22T06:23:08Z","tX":946,"tY":593,"tags":{"addr:housenumber":"81","addr:postcode":"4305","addr:state":"QLD","addr:street":"Warwick Road","addr:suburb":"Ipswich","fee":"yes","internet_access":"no","operator":"Ipswich Show Society","phone":"+61 7 3812 2011","power_supply":"yes","reservation":"no","sanitary_dump_station":"yes","website":"https://ipswichshow.com.au/caravan-park/"}},"931703195":{"location":[-27.550344,152.7854085],"ct":"AU","tp":"CS","ts":"2024-10-19T02:57:43Z","tX":946,"tY":593,"tags":{"access":"permit","name":"Allawah Scout Campsite","operator":"Scouts Australia Queensland Branch - Moreton Region","scout":"yes"}},"946426030":{"location":[-27.5855516,152.7776168],"ct":"AU","tp":"CR","ts":"2021-05-24T11:07:09Z","tX":946,"tY":593,"tags":{"addr:housenumber":"95","addr:postcode":"4305","addr:state":"QLD","addr:street":"Mount Crosby Road","addr:suburb":"Tivoli","cabins":"yes","internet_access":"no","name":"Ipswich Caravan Village","power_supply":"yes","reservation":"yes"}},"982776730":{"location":[-27.3780697,152.8924986],"ct":"AU","tp":"CS","ts":"2024-07-08T07:57:16Z","tX":946,"tY":593,"tags":{"name":"Jumbuck Nixon Glade","surface":"grass"}},"982776741":{"location":[-27.3758431,152.8913745],"ct":"AU","tp":"CS","ts":"2024-07-08T07:57:16Z","tX":946,"tY":593,"tags":{"caravans":"yes","name":"Racoola Sherlock Glade","static_caravans":"yes","surface":"grass","tents":"yes"}},"1043645152":{"location":[-27.5216675,152.8444771],"ct":"AU","tp":"CS","ts":"2022-09-10T07:41:19Z","tX":946,"tY":593,"tags":{"access":"private","name":"Tyamolum Scout Campground","operator":"Scouts Australia Queensland Branch INC","scout":"yes"}},"1151408128":{"location":[-27.3721313,152.8903393],"ct":"AU","tp":"CS","ts":"2023-03-05T09:50:04Z","tX":946,"tY":593,"tags":{"caravans":"no","name":"Kulgun Glade","static_caravans":"no","surface":"grass","tents":"yes"}},"1151408129":{"location":[-27.3734263,152.8907523],"ct":"AU","tp":"CS","ts":"2023-03-05T07:31:11Z","tX":946,"tY":593,"tags":{"caravans":"no","name":"Cub Scout Glade","static_caravans":"no","surface":"grass","tents":"yes"}},"1151430097":{"location":[-27.3727467,152.8911338],"ct":"AU","tp":"CS","ts":"2023-03-05T09:50:04Z","tX":946,"tY":593,"tags":{"name":"Chernobyl Glade","surface":"grass"}},"1151430827":{"location":[-27.3736092,152.8915344],"ct":"AU","tp":"CS","ts":"2024-07-08T07:57:16Z","tX":946,"tY":593,"tags":{"name":"The Drum Glade","surface":"grass"}},"1285979468":{"location":[-27.4733038,152.7867559],"ct":"AU","tp":"CS","ts":"2018-08-13T02:49:05Z","tX":946,"tY":593,"tags":{"name":"Blue Gum Flat","operator":"Seqwater"}},"1299938044":{"location":[-27.3767008,152.8908925],"ct":"AU","tp":"CS","ts":"2024-07-08T07:57:16Z","tX":946,"tY":593,"tags":{"name":"O'Brien Glade","surface":"grass"}},"1299938045":{"location":[-27.3751252,152.8922015],"ct":"AU","tp":"CS","ts":"2024-07-08T07:57:16Z","tX":946,"tY":593,"tags":{"name":"Skip Clarke Glade","surface":"grass"}},"1299938046":{"location":[-27.376967,152.8920804],"ct":"AU","tp":"CS","ts":"2024-07-08T07:57:16Z","tX":946,"tY":593,"tags":{"name":"Warra Cora Glade","surface":"grass"}},"1811177086":{"location":[-27.50889,152.62722],"ct":"AU","tp":"CS","ts":"2024-06-24T04:16:08Z","tX":946,"tY":593,"tags":{"name":"Bottletree Hotel Glamorgan Vale"}},"1811185368":{"location":[-27.57139,152.59722],"ct":"AU","tp":"CS","ts":"2012-07-03T12:03:50Z","tX":946,"tY":593,"tags":{"name":"Marburg Showground"}},"1811203172":{"location":[-27.5660099,152.6125757],"ct":"AU","tp":"CS","ts":"2015-04-27T23:00:10Z","tX":946,"tY":593,"tags":{"name":"Warrego Wines"}},"3483018819":{"location":[-27.4626907,152.5836846],"ct":"AU","tp":"CS","ts":"2025-01-05T09:57:55Z","tX":946,"tY":593,"tags":{"access":"customers","caravans":"yes","drinking_water":"yes","fee":"yes","name":"Lowood Showground","power_supply":"yes","sanitary_dump_station":"yes","shower":"yes","tents":"yes","toilets":"yes","website":"https://www.lowoodshow.com/caravan-park"}},"10005926003":{"location":[-27.523415,152.8427919],"ct":"AU","tp":"CS","ts":"2022-09-07T07:43:51Z","tX":946,"tY":593,"tags":{"access":"customers","caravans":"yes","name":"Tyamolum Campsite 5","operator":"Scouts Australia Queensland Branch INC","tents":"yes"}},"10005926007":{"location":[-27.5249257,152.8418091],"ct":"AU","tp":"CS","ts":"2022-09-07T07:43:51Z","tX":946,"tY":593,"tags":{"access":"customers","caravans":"yes","drinking_water":"yes","name":"Tyamolum Campsite 2","operator":"Scouts Australia Queensland Branch INC","power_supply":"yes","surface":"unpaved","tents":"yes"}},"10005926013":{"location":[-27.5236676,152.841711],"ct":"AU","tp":"CS","ts":"2022-09-07T07:43:51Z","tX":946,"tY":593,"tags":{"access":"customers","caravans":"yes","name":"Tyamolum Campsite 3","operator":"Scouts Australia Queensland Branch INC","tents":"yes"}},"6762554236":{"location":[-27.4544647,152.6501592],"ct":"AU","tp":"SD","ts":"2022-07-06T01:33:15Z","tX":946,"tY":593,"tags":{"access":"yes","fee":"no","opening_hours":"24/7","sanitary_dump_station:basin":"yes","sanitary_dump_station:round_drain":"yes","water_point":"no"}},"8381361136":{"location":[-27.6277885,152.7574052],"ct":"AU","tp":"SD","ts":"2021-01-31T17:49:03Z","tX":946,"tY":593,"tags":{"access":"customers","fee":"no","operator":"Ipswich Show Society"}},"10849306966":{"location":[-27.4624649,152.5837178],"ct":"AU","tp":"SD","ts":"2023-04-28T09:55:23Z","tX":946,"tY":593,"tags":{"access":"customers","fee":"yes","sanitary_dump_station:basin":"yes","sanitary_dump_station:round_drain":"yes"}}}