{"316607394":{"location":[-28.1688718,152.8908093],"ct":"AU","tp":"CS","ts":"2011-04-26T00:48:08Z","tX":946,"tY":595,"tags":{"name":"Langdon Reserve"}},"430293246":{"location":[-28.1979588,152.780216],"ct":"AU","tp":"CR","ts":"2023-01-18T18:31:21Z","tX":946,"tY":595,"tags":{"addr:city":"Rathdowney","addr:housenumber":"196","addr:postcode":"4287","addr:street":"Bigriggan Road","caravans":"yes","dog":"yes","drinking_water":"yes","fee":"yes","internet_access":"no","kitchen":"no","name":"Bigriggen Camping & Caravan Park","openfire":"yes","phone":"+61 7 5463 6190","power_supply":"yes","sanitary_dump_station":"yes","shower":"hot","tents":"yes","washing_machine":"no","website":"https://www.bigriggen.com.au/"}},"430450783":{"location":[-28.2148731,152.76517],"ct":"AU","tp":"CS","ts":"2024-08-18T19:38:14Z","tX":946,"tY":595,"tags":{"access":"customers","addr:city":"Barney View","addr:housenumber":"135","addr:postcode":"4287","addr:street":"Flanagan Reserve Road","caravans":"yes","dog":"yes","fee":"yes","name":"Flanagan Reserve Bush Camping","openfire":"yes","phone":"+61 7 5544 3128","phone_1":"+61 456 999 241","power_supply":"no","sanitary_dump_station":"yes","shower":"yes","tents":"yes","website":"https://flanaganreservebushcamping.com.au/"}},"440615858":{"location":[-28.281837,152.6909576],"ct":"AU","tp":"CS","ts":"2015-10-17T01:18:02Z","tX":946,"tY":595,"tags":{"capacity":"12","fee":"yes","name":"Rum Jungle","note":"A sheltered site in a tiny pocket of rainforest in the saddle between Mount Barney’s east and west peaks.","operator":"Department of National Parks, Sport and Racing","website":"http://www.nprsr.qld.gov.au/parks/mount-barney/camping.html#rum_jungle_bush_camp_site"}},"442564690":{"location":[-28.2049388,152.6679027],"ct":"AU","tp":"CS","ts":"2019-03-04T04:19:37Z","tX":946,"tY":595,"tags":{"addr:city":"Maroon","addr:housenumber":"132","addr:postcode":"4310","addr:street":"Waterfall Creek Road","capacity":"48","fee":"yes","name":"Waterfall Creek Reserve","operator":"Scenic Rim Regional Council","tourism_1":"camp_site","website":"https://www.scenicrim.qld.gov.au/national-parks-and-camping","wheelchair":"limited"}},"451675156":{"location":[-28.1576082,152.8403233],"ct":"AU","tp":"CS","ts":"2016-11-06T07:01:14Z","tX":946,"tY":595,"tags":{"landuse":"grass","name":"Camp Site 4"}},"451675160":{"location":[-28.1558965,152.8395938],"ct":"AU","tp":"CS","ts":"2016-11-06T07:01:14Z","tX":946,"tY":595,"tags":{"landuse":"grass","name":"Camp site 7"}},"451675161":{"location":[-28.1561383,152.8403502],"ct":"AU","tp":"CS","ts":"2016-11-06T07:01:14Z","tX":946,"tY":595,"tags":{"landuse":"grass","name":"Camp Site 6"}},"451675164":{"location":[-28.1560059,152.843642],"ct":"AU","tp":"CS","ts":"2016-11-06T07:10:31Z","tX":946,"tY":595,"tags":{"landuse":"grass","name":"Camp Site 8"}},"451675166":{"location":[-28.1668781,152.8367485],"ct":"AU","tp":"CS","ts":"2016-11-06T07:01:14Z","tX":946,"tY":595,"tags":{"landuse":"grass","name":"Camp Site 13"}},"451676931":{"location":[-28.1675038,152.8363774],"ct":"AU","tp":"CS","ts":"2016-11-06T07:01:14Z","tX":946,"tY":595,"tags":{"landuse":"grass","name":"Camp Site 14"}},"451791827":{"location":[-28.1666504,152.8407841],"ct":"AU","tp":"CS","ts":"2016-11-06T22:27:21Z","tX":946,"tY":595,"tags":{"landuse":"grass","name":"Camp Site 1"}},"451791828":{"location":[-28.1587429,152.8397812],"ct":"AU","tp":"CS","ts":"2022-10-11T08:58:34Z","tX":946,"tY":595,"tags":{"landuse":"grass","name":"Camp Site 2"}},"451794370":{"location":[-28.1516434,152.8489212],"ct":"AU","tp":"CS","ts":"2016-11-06T22:51:38Z","tX":946,"tY":595,"tags":{"landuse":"grass","name":"Camp Site 10"}},"596096271":{"location":[-28.2812388,152.6916212],"ct":"AU","tp":"CS","ts":"2015-10-17T01:18:02Z","tX":946,"tY":595,"tags":{"capacity":"6","fee":"yes","name":"Old Hut Site","note":"An exposed site in the saddle between Mount Barney’s east and west peaks.","operator":"Department of National Parks, Sport and Racing","website":"http://www.nprsr.qld.gov.au/parks/mount-barney/camping.html#old_hut_site_bush_camp"}},"596098699":{"location":[-28.2960064,152.7150813],"ct":"AU","tp":"CS","ts":"2020-08-18T09:35:51Z","tX":946,"tY":595,"tags":{"access":"permit","capacity":"12","fee":"yes","name":"Forestry","note":"A shaded area located on the bank of Cronan Creek near the base of Mount Barney.","openfire":"no","operator":"Queensland Parks and Wildlife Service","toilets":"no","website":"https://parks.des.qld.gov.au/parks/mount-barney/camping/forestry"}},"596098700":{"location":[-28.2989939,152.7198341],"ct":"AU","tp":"CS","ts":"2020-08-18T09:35:51Z","tX":946,"tY":595,"tags":{"access":"permit","capacity":"12","fee":"yes","name":"Burbank","note":"A shaded area located on the bank of Cronan Creek near the base of Mount Barney.","openfire":"no","operator":"Queensland Parks and Wildlife Service","toilets":"no","website":"https://parks.des.qld.gov.au/parks/mount-barney/camping/burbank"}},"871775565":{"location":[-28.1979058,152.7405136],"ct":"AU","tp":"CS","ts":"2024-04-21T08:06:14Z","tX":946,"tY":595,"tags":{"access":"customers","addr:housenumber":"356","addr:postcode":"4310","addr:state":"QLD","addr:street":"Cotswold Road","addr:suburb":"Maroon","contact:facebook":"https://www.facebook.com/kingslandcampingmtmaroon/","fee":"yes","name":"Kingsland Camping","phone":"+61 402 455 520"}},"878537223":{"location":[-28.2345321,152.6350092],"ct":"AU","tp":"CS","ts":"2021-06-13T02:14:10Z","tX":946,"tY":595,"tags":{"access":"customers","addr:postcode":"4310","addr:state":"QLD","addr:street":"Waterfall Creek Road","addr:suburb":"Maroon","name":"Mounty Barney Wilderness Camping campground","operator":"Mount Barney Wilderness Retreat"}},"889533393":{"location":[-28.1942976,152.6489057],"ct":"AU","tp":"CS","ts":"2020-12-29T11:55:41Z","tX":946,"tY":595,"tags":{"name":"Pointro Camp Ground"}},"1811163059":{"location":[-27.9975,152.685],"ct":"AU","tp":"CR","ts":"2012-10-30T02:15:31Z","tX":946,"tY":595,"tags":{"name":"Boonah Showgrounds"}},"3700601381":{"location":[-28.2115115,152.8656702],"ct":"AU","tp":"CR","ts":"2024-05-24T20:40:39Z","tX":946,"tY":595,"tags":{"fee":"yes","name":"Rathdowney Memorial Grounds Caravan Park","phone":"+61 4 1952 2475","power_supply":"yes","tents":"yes"}},"3993420636":{"location":[-28.2594109,152.6847492],"ct":"AU","tp":"CS","ts":"2019-12-19T05:18:00Z","tX":946,"tY":595,"tags":{"addr:city":"Maroon","addr:postcode":"4310","capacity":"15","fee":"yes","name":"Barney Gorge Junction","operator":"Queensland Parks and Wildlife Service","phone:AU":"13 74 68","website":"http://www.nprsr.qld.gov.au/parks/mount-barney/camping.html"}},"3993426754":{"location":[-28.2184073,152.6691091],"ct":"AU","tp":"CS","ts":"2023-10-04T05:09:51Z","tX":946,"tY":595,"tags":{"access":"customers","backcountry":"yes","capacity":"12","capacity:persons":"12","caravans":"no","ele":"836","fee":"yes","name":"Mt May Saddle","operator":"Queensland Parks and Wildlife Service","phone:AU":"13 74 68","static_caravans":"no","tents":"yes","water":"no","website":"https://parks.des.qld.gov.au/parks/mount-barney/camping/mount-may-saddle-remote"}},"8269896212":{"location":[-28.1953285,152.6542229],"ct":"AU","tp":"CS","ts":"2020-12-29T11:55:41Z","tX":946,"tY":595,"tags":{"name":"Lake Maroon Camp Ground"}},"9404456142":{"location":[-28.2494894,152.6985937],"ct":"AU","tp":"CS","ts":"2024-10-20T22:53:19Z","tX":946,"tY":595,"tags":{"name":"Lower Portals Bush Camp"}},"11609706032":{"location":[-27.9957725,152.8935509],"ct":"AU","tp":"CS","ts":"2024-02-11T08:45:18Z","tX":946,"tY":595,"tags":{}},"11609706035":{"location":[-27.9968241,152.8926594],"ct":"AU","tp":"CS","ts":"2024-02-11T08:45:18Z","tX":946,"tY":595,"tags":{}},"11609706036":{"location":[-27.9965563,152.8931688],"ct":"AU","tp":"CS","ts":"2024-02-11T08:45:18Z","tX":946,"tY":595,"tags":{}},"11609706037":{"location":[-27.995455,152.8947382],"ct":"AU","tp":"CS","ts":"2024-02-11T08:45:18Z","tX":946,"tY":595,"tags":{}},"4295713218":{"location":[-28.1975905,152.7807168],"ct":"AU","tp":"SD","ts":"2022-08-24T05:12:34Z","tX":946,"tY":595,"tags":{"access":"customers"}}}