{"1078697181":{"location":[-29.923775,152.7489082],"ct":"AU","tp":"CS","ts":"2024-10-19T21:23:11Z","tX":946,"tY":601,"tags":{"access":"customers","addr:housenumber":"3520","addr:postcode":"2460","addr:state":"NSW","addr:street":"Armidale Road","addr:suburb":"Nymboida","bbq":"yes","cabins":"yes","caravans":"yes","contact:facebook":"https://www.facebook.com/nymboidacampingandcanoeing","dog":"yes","drinking_water":"yes","dryer":"yes","email":"office@nymcan.com","fee":"yes","group_only":"no","hot_water":"yes","internet_access":"wlan","internet_access:fee":"customers","kitchen":"yes","motor_vehicle":"yes","name":"Nymboida Camping and Canoeing","nudism":"no","openfire":"yes","operator":"Nymboida Camping and Canoeing Inc.","payment:cash":"yes","payment:credit_cards":"yes","payment:debit_cards":"yes","permanent_camping":"no","phone":"+61 2 6649 4155","picnic_table":"yes","power_supply":"yes","reservation":"recommended","sanitary_dump_station":"no","shower":"hot","smoking":"outside","static_caravans":"no","swimming_pool":"no","tents":"yes","toilet":"yes","toilets":"yes","washing_machine":"yes","website":"https://www.ncandc.com.au/"}},"1210178951":{"location":[-30.0003798,152.6809986],"ct":"AU","tp":"CS","ts":"2011-03-20T09:22:35Z","tX":946,"tY":601,"tags":{"name":"Hortens Creek"}},"1833946327":{"location":[-30.0699321,152.7577252],"ct":"AU","tp":"CS","ts":"2012-07-22T09:13:25Z","tX":946,"tY":601,"tags":{"name":"Junction Camping Grounds"}},"4813472621":{"location":[-29.9079199,152.7866849],"ct":"AU","tp":"CS","ts":"2023-09-28T06:15:02Z","tX":946,"tY":601,"tags":{"access":"yes","addr:street":"Armidale Road","caravans":"yes","fee":"no","static_caravans":"no","tents":"yes","toilets":"no"}}}