{"435602647":{"location":[50.0263305,-124.8249],"ct":"CA","tp":"CS","ts":"2023-09-13T04:22:45Z","tX":156,"tY":347,"tags":{"backcountry":"yes","capacity:tents":"21","fee":"yes","name":"North Copeland Campsite","operator":"BC Parks","tents":"yes"}},"453442055":{"location":[49.8456659,-125.0972457],"ct":"CA","tp":"CS","ts":"2024-06-06T22:19:33Z","tX":156,"tY":347,"tags":{"capacity":"202","caravans":"yes","drinking_water":"yes","email":"info@explorebcparks.ca","fee":"yes","internet_access":"no","name":"Miracle Beach Campground","operator":"Quality Recreation Ltd.","phone":"+1-250-337-8020","power_supply":"no","sanitary_dump_station":"yes","tents":"yes","website":"https://www.env.gov.bc.ca/bcparks/explore/parkpgs/miracle_bch/"}},"592901921":{"location":[50.0316238,-124.9932563],"ct":"CA","tp":"CS","ts":"2022-05-26T23:36:43Z","tX":156,"tY":347,"tags":{"capacity":"24","email":"info@explorebcparks.ca","fee":"yes","internet_access":"no","name":"Smelt Bay Campground","operator":"Quality Recreation Ltd.","phone":"+1-250-308-4479","website":"https://www.env.gov.bc.ca/bcparks/explore/parkpgs/smelt_bay/"}},"1855197577":{"location":[49.8705627,-125.1189505],"ct":"CA","tp":"CS","ts":"2014-01-13T06:42:04Z","tX":156,"tY":347,"tags":{"name":"Pacific Playgrounds"}},"2331889792":{"location":[49.8886694,-125.1238432],"ct":"CA","tp":"CR","ts":"2013-06-04T15:43:15Z","tX":156,"tY":347,"tags":{"name":"Salmon Point Resort RV Park"}},"3719040729":{"location":[50.0618262,-124.84251],"ct":"CA","tp":"CS","ts":"2023-09-13T04:22:45Z","tX":156,"tY":347,"tags":{"access":"yes","backcountry":"yes","capacity:tents":"4","caravans":"no","fee":"yes","name":"Sarah Point Campsite","operator":"BC Parks","tents":"yes"}},"5686355422":{"location":[50.062296,-124.820744],"ct":"CA","tp":"CS","ts":"2023-09-13T04:22:45Z","tX":156,"tY":347,"tags":{"access":"yes","backcountry":"yes","capacity:tents":"9","caravans":"no","fee":"yes","name":"Feather Cove Campsite","tents":"yes"}},"8694269384":{"location":[50.058137,-124.8373881],"ct":"CA","tp":"CS","ts":"2023-09-13T04:22:45Z","tX":156,"tY":347,"tags":{"access":"yes","capacity:tents":"4","caravans":"no","fee":"no","name":"Sarah Point Campsite","operator":"PRPAWS","source":"gps","tents":"yes"}},"9033685283":{"location":[50.0199943,-124.817845],"ct":"CA","tp":"CS","ts":"2023-09-13T04:22:45Z","tX":156,"tY":347,"tags":{"backcountry":"yes","capacity:tents":"10","fee":"yes","name":"Middle Copeland Campsite","operator":"BC Parks","tents":"yes"}},"6680805656":{"location":[49.8631902,-125.1161248],"ct":"CA","tp":"CR","ts":"2019-08-04T04:22:26Z","tX":156,"tY":347,"tags":{"addr:housenumber":"8926","addr:street":"Clarkson Avenue","name":"Sea-Esta"}},"6680811998":{"location":[49.8647774,-125.1164871],"ct":"CA","tp":"CR","ts":"2019-08-04T04:22:17Z","tX":156,"tY":347,"tags":{"addr:housenumber":"8958","addr:street":"Clarkson Avenue","name":"Saratoga Beach Resort"}},"6680820188":{"location":[49.862413,-125.1158172],"ct":"CA","tp":"CR","ts":"2019-09-02T17:44:42Z","tX":156,"tY":347,"tags":{"addr:housenumber":"8914","addr:street":"Clarkson Avenue","name":"Coastal Sands Resort","phone":"+1-778-428-8885","website":"https://coastalsands.ca/"}},"5196222865":{"location":[49.8474268,-125.096454],"ct":"CA","tp":"SD","ts":"2017-10-28T13:38:10Z","tX":156,"tY":347,"tags":{"fee":"5"}}}