{"15956493":{"location":[49.7749319,-124.9752156],"ct":"CA","tp":"CR","ts":"2023-06-06T22:05:42Z","tX":156,"tY":348,"tags":{"addr:housenumber":"5726","addr:street":"Coral Road","name":"Bates Beach Oceanfront Resort","phone":"+1-250-334-4154"}},"30821838":{"location":[49.6862045,-124.8802197],"ct":"CA","tp":"CR","ts":"2024-06-27T17:11:05Z","tX":156,"tY":348,"tags":{"addr:housenumber":"685","addr:street":"Lazo Road","name":"Cape Lazo RV Park","phone":"+1-250-339-3946","power_supply":"yes","website":"https://capelazo.com/"}},"256407152":{"location":[49.7503352,-124.9638114],"ct":"CA","tp":"CR","ts":"2024-11-02T19:04:45Z","tX":156,"tY":348,"tags":{"name":"Seal Bay RV Park"}},"292496749":{"location":[49.6271691,-125.0856717],"ct":"CA","tp":"CS","ts":"2018-02-09T15:05:50Z","tX":156,"tY":348,"tags":{"building":"yes","internet_access":"no","name":"Cumberland Campground","phone":"+1-250-336-2144","website":"http://www.cumberlandcampground.com"}},"453445712":{"location":[49.7275767,-124.8968622],"ct":"CA","tp":"CS","ts":"2022-05-26T23:30:17Z","tX":156,"tY":348,"tags":{"capacity":"18","fee":"yes","internet_access":"no","name":"Kin Beach Provincial Campground","phone":"+1-250-339-6365","website":"https://www.env.gov.bc.ca/bcparks/explore/parkpgs/kin_bch/"}},"504125244":{"location":[49.6987172,-125.0037141],"ct":"CA","tp":"CR","ts":"2024-06-26T17:19:23Z","tX":156,"tY":348,"tags":{"addr:housenumber":"4624","addr:street":"Condensory Road","name":"Puntledge RV Park and Campground","phone":"+1-250-334-3773","power_supply":"yes","website":"https://www.puntledgerv.ca/"}},"565994403":{"location":[49.7027549,-124.9957091],"ct":"CA","tp":"CR","ts":"2018-06-20T15:16:24Z","tX":156,"tY":348,"tags":{"addr:housenumber":"4685","addr:street":"Headquarters Road","name":"Maple Pool Campsite","phone":"+1-250-338-9386"}},"799251987":{"location":[49.6925249,-125.0745192],"ct":"CA","tp":"CS","ts":"2020-05-03T01:02:21Z","tX":156,"tY":348,"tags":{"access":"permissive","fee":"yes","group_only":"yes","name":"Camp Gilwell","note":"Scouts Canada website is offline: http://campgilwell.ca","operator":"Scouts Canada","website":"https://www.firemaker.org/site.html"}},"5733571404":{"location":[49.7238528,-124.8905477],"ct":"CA","tp":"CS","ts":"2018-07-02T08:51:31Z","tX":156,"tY":348,"tags":{"name":"Air Force Beach Campground"}},"5983902989":{"location":[49.7887351,-124.995775],"ct":"CA","tp":"CS","ts":"2022-05-26T23:31:30Z","tX":156,"tY":348,"tags":{"capacity":"65","name":"Kitty Coleman Campground","operator":"local community board.","phone":"+1-250-338-1332","website":"https://www.env.gov.bc.ca/bcparks/explore/parkpgs/kitty_coleman_bch/"}}}