{"3488440797":{"location":[42.1653319,79.8171322],"ct":"KG","tp":"CS","ts":"2015-04-30T13:16:29Z","tX":739,"tY":379,"tags":{}},"3541171243":{"location":[42.0754341,80.0962379],"ct":"KG","tp":"CS","ts":"2022-11-25T23:22:25Z","tX":739,"tY":379,"tags":{"ele":"4600","name":"Лагерь 1","name:en":"camp 1"}},"3541171244":{"location":[42.0685714,80.0798716],"ct":"KG","tp":"CS","ts":"2022-11-25T23:22:25Z","tX":739,"tY":379,"tags":{"description":"в хорошей мульде","ele":"5200","name":"Лагерь 2","name:en":"camp 2"}},"3541171245":{"location":[42.0570169,80.076697],"ct":"KG","tp":"CS","ts":"2022-11-25T23:22:25Z","tX":739,"tY":379,"tags":{"description":"Ниже скал, пещеры","ele":"5700","name":"Лагерь 3","name:en":"camp 3","natural":"cave_entrance"}},"3541171246":{"location":[42.0544234,80.0773077],"ct":"KG","tp":"CS","ts":"2022-11-25T23:22:25Z","tX":739,"tY":379,"tags":{"description":"под большой скальной плитой","ele":"6100","name":"Лагерь 6100"}},"3541171247":{"location":[42.0515633,80.0772128],"ct":"KG","tp":"CS","ts":"2022-11-25T23:22:25Z","tX":739,"tY":379,"tags":{"ele":"6400","name":"Лагерь 4"}},"3541171248":{"location":[42.0438266,80.0819505],"ct":"KG","tp":"CS","ts":"2022-11-25T23:22:25Z","tX":739,"tY":379,"tags":{"ele":"6900","name":"Лагерь 5","natural":"cave_entrance"}},"3541171250":{"location":[42.0382649,80.106758],"ct":"CN","tp":"CS","ts":"2022-11-28T20:05:29Z","tX":739,"tY":379,"tags":{"ele":"7100","name":"Лагерь 6"}},"3541512198":{"location":[42.0503565,80.0774539],"ct":"KG","tp":"CS","ts":"2018-01-12T19:58:01Z","tX":739,"tY":379,"tags":{"description":"Возможное место под палатку или пещеру","natural":"cave_entrance"}},"3541512216":{"location":[42.047218,80.0786253],"ct":"KG","tp":"CS","ts":"2022-11-25T23:22:25Z","tX":739,"tY":379,"tags":{"description":"Есть места под палатки"}},"3541550058":{"location":[42.0377427,80.1113436],"ct":"CN","tp":"CS","ts":"2022-11-28T20:05:29Z","tX":739,"tY":379,"tags":{"description":"Подняться вверх. Удобное место для обеда и палатки"}},"3541786039":{"location":[42.1412988,80.1038431],"ct":"KG","tp":"CS","ts":"2024-02-24T03:55:41Z","tX":739,"tY":379,"tags":{"fee":"no","name":"БЛ Южный Иныльчек","name:en":"Ak-Sai South Inylchek Base Camp","name:zh":"阿克赛-南伊尔谢营地","operator":"Ak-Sai"}},"3541814826":{"location":[42.2023596,80.1489116],"ct":"KG","tp":"CS","ts":"2022-11-28T15:38:39Z","tX":739,"tY":379,"tags":{"ele":"5200","name":"Лагерь 2"}},"3541814827":{"location":[42.2166886,80.1531342],"ct":"KG","tp":"CS","ts":"2022-12-25T12:29:12Z","tX":739,"tY":379,"tags":{"description":"возможны пещеры","ele":"5700","int_name":"Lager 3","name":"Лагерь 3","name:en":"camp 3","name:ky":"Лагерь","name:ru":"Лагерь 3"}},"5940399137":{"location":[42.058423,80.0764197],"ct":"KG","tp":"CS","ts":"2018-09-30T10:05:01Z","tX":739,"tY":379,"tags":{"description":"Возможное место под палатку или пещеру","natural":"cave_entrance"}},"8989476318":{"location":[42.2461557,80.1387438],"ct":"KG","tp":"CS","ts":"2021-08-08T08:55:19Z","tX":739,"tY":379,"tags":{"name":"Базовый лагерь Хан-Тенгри","name:en":"Khan-Tegri bace camp"}},"8989476417":{"location":[42.2230262,80.1522359],"ct":"KG","tp":"CS","ts":"2022-12-23T10:27:18Z","tX":739,"tY":379,"tags":{"int_name":"Lager 2","name":"Лагерь 2","name:en":"Camp 2","name:ky":"Лагерь 2","name:ru":"Лагерь 2"}}}