{"102831460":{"location":[46.279945,-74.5294065],"ct":"CA","tp":"CS","ts":"2022-05-03T20:50:12Z","tX":300,"tY":363,"tags":{"name":"La Sablonnière"}},"437232847":{"location":[46.3076769,-74.5269757],"ct":"CA","tp":"CS","ts":"2022-09-21T00:07:05Z","tX":300,"tY":363,"tags":{"name":"Camping Lac Chat"}},"459597371":{"location":[46.106781,-74.3823158],"ct":"CA","tp":"CS","ts":"2021-09-12T19:56:50Z","tX":300,"tY":363,"tags":{"addr:housenumber":"150","addr:street":"route 117 nord","name":"Camping du Domaine Lausanne","website":"https://www.campingdudomainelausanne.ca/"}},"460592425":{"location":[46.1184462,-74.4860058],"ct":"CA","tp":"CS","ts":"2022-09-21T00:07:05Z","tX":300,"tY":363,"tags":{"name":"Camping Desjardins","tents":"no"}},"1087349847":{"location":[46.1036297,-74.1865808],"ct":"CA","tp":"CS","ts":"2022-08-18T22:14:05Z","tX":300,"tY":363,"tags":{"addr:city":"Sainte-Lucie-des-Laurentides","addr:housenumber":"2211","addr:street":"Chemin des Menhirs","name":"Domaine Vacances Doncaster"}},"1180003513":{"location":[46.1774992,-74.229137],"ct":"CA","tp":"CS","ts":"2023-06-06T13:37:34Z","tX":300,"tY":363,"tags":{"addr:city":"Lantier","addr:housenumber":"281","addr:street":"Chemin du Lac Cloutier","name":"Camping Lantier"}},"4563398027":{"location":[46.1904991,-74.439559],"ct":"CA","tp":"CS","ts":"2016-12-20T20:59:30Z","tX":300,"tY":363,"tags":{"capacity":"6","name":"Camping des Chutes","operator":"Centre d'Accès à la Nature de l'UQAM"}},"4563398028":{"location":[46.1919112,-74.4347742],"ct":"CA","tp":"CS","ts":"2016-12-20T20:59:30Z","tX":300,"tY":363,"tags":{"capacity":"6","name":"Camping du Canyon","operator":"Centre d'Accès à la Nature de l'UQAM"}},"5616307568":{"location":[46.3080738,-74.5284107],"ct":"CA","tp":"SD","ts":"2022-09-19T21:15:53Z","tX":300,"tY":363,"tags":{}}}