{"10867635":{"location":[45.5616153,-74.411803],"ct":"CA","tp":"CS","ts":"2024-05-22T17:49:33Z","tX":300,"tY":366,"tags":{"name":"Iroquois Campground","name:en":"Iroquois Campground","name:fr":"Terrain de camping Iroquois","source":"NRCan-CanVec-10.0"}},"92657478":{"location":[45.430948,-74.289432],"ct":"CA","tp":"CS","ts":"2018-11-08T22:04:28Z","tX":300,"tY":366,"tags":{"name":"Camping Plein Bois","source":"NRCan-CanVec-7.0"}},"92666524":{"location":[45.3958511,-74.3842487],"ct":"CA","tp":"CS","ts":"2024-01-09T14:47:45Z","tX":300,"tY":366,"tags":{"name":"Camping Sainte-Justine","source":"NRCan-CanVec-7.0"}},"176681417":{"location":[45.511051,-74.3483496],"ct":"CA","tp":"CS","ts":"2023-08-21T20:48:26Z","tX":300,"tY":366,"tags":{"addr:city":"Rigaud","addr:housenumber":"960","addr:province":"QC","addr:street":"Chemin de la Baie","flats":"3","name":"Camping Trans-Canadien"}},"176681870":{"location":[45.5325573,-74.2495497],"ct":"CA","tp":"CR","ts":"2022-05-22T15:05:33Z","tX":300,"tY":366,"tags":{"name":"Camping Paquin","source":"NRCan-CanVec-10.0;NRCan-CanVec-7.0"}},"176690770":{"location":[45.5590421,-74.4023677],"ct":"CA","tp":"CS","ts":"2024-05-22T21:37:10Z","tX":300,"tY":366,"tags":{"name":"Portage Campground","name:en":"Portage Campground","name:fr":"Terrain de camping Portage"}},"176698126":{"location":[45.5569317,-74.4297009],"ct":"CA","tp":"CS","ts":"2024-05-22T19:41:58Z","tX":300,"tY":366,"tags":{"name":"Champlain Campground","name:en":"Champlain Campground","name:fr":"Terrain de camping Champlain","source":"NRCan-CanVec-10.0"}},"415075359":{"location":[45.5769652,-74.387138],"ct":"CA","tp":"CS","ts":"2021-07-25T12:13:09Z","tX":300,"tY":366,"tags":{"capacity":"59","description":"Le camping rustique Vita Per Aquam offre plus de 59 sites de camping rustique dont certains sont aux abords de la magnifique rivière des Outaouais. Situé à même le Parc de Carillon, le lieu est propice à plusieurs activités familiales de plein air.","name":"Camping municipal du Parc Carillon","operator":"Municipalité de St-André-d'Argenteuil","phone":"+1-450-537-7272","website":"https://stada.ca/citoyens/parcs-et-camping/"}},"572738259":{"location":[45.5258081,-74.4156334],"ct":"CA","tp":"CR","ts":"2024-06-04T13:55:37Z","tX":300,"tY":366,"tags":{"addr:housenumber":"400","addr:street":"Domaine Road"}},"689719754":{"location":[45.5802185,-74.3796137],"ct":"CA","tp":"CS","ts":"2018-02-05T23:43:02Z","tX":300,"tY":366,"tags":{"capacity":"10","fee":"yes","name":"Camping rustique","phone":"+1-450-537-7272"}},"1019839927":{"location":[45.4352153,-74.2330284],"ct":"CA","tp":"CS","ts":"2022-03-09T00:54:50Z","tX":300,"tY":366,"tags":{"addr:city":"Rigaud","addr:housenumber":"209","addr:province":"QC","addr:street":"Route 201","flats":"61","name":"Camping Choisy"}},"10918275724":{"location":[45.4771671,-74.2846209],"ct":"CA","tp":"SD","ts":"2023-05-22T12:43:47Z","tX":300,"tY":366,"tags":{}}}