{"91997130":{"location":[45.0973932,-74.5234003],"ct":"CA","tp":"CS","ts":"2019-01-28T12:14:42Z","tX":300,"tY":367,"tags":{"name":"T & I Campground Resort","source":"NRCan-CanVec-7.0"}},"92555936":{"location":[45.2882126,-74.193229],"ct":"CA","tp":"CS","ts":"2024-03-20T19:14:17Z","tX":300,"tY":367,"tags":{"name":"Camping KOA Montr√©al-Ouest","source":"NRCan-CanVec-7.0"}},"92558220":{"location":[45.2554458,-74.2241729],"ct":"CA","tp":"CS","ts":"2019-06-13T21:28:23Z","tX":300,"tY":367,"tags":{"addr:city":"Saint-Zotique","addr:housenumber":"250","addr:postcode":"J0P 1Z0","addr:street":"Rue Principale","name":"Camping Tepee","phone":"+1-450-267-9843","source":"NRCan-CanVec-7.0","website":"http://www.guidecamping.ca/tepee/"}},"92667352":{"location":[45.25854,-74.3366046],"ct":"CA","tp":"CS","ts":"2022-01-25T23:52:45Z","tX":300,"tY":367,"tags":{"addr:housenumber":"1400","addr:street":"Chemin Saint-Philippe","name":"Camping St-Polycarpe","source":"NRCan-CanVec-7.0"}},"92667701":{"location":[45.2627104,-74.3512052],"ct":"CA","tp":"CS","ts":"2022-01-25T23:52:45Z","tX":300,"tY":367,"tags":{"addr:city":"Saint-Polycarpe","addr:housenumber":"1360","addr:street":"Chemin Saint-Philippe","name":"Le Sablon Plage et Camping","source":"NRCan-CanVec-7.0"}},"123163565":{"location":[45.1186507,-74.3991136],"ct":"CA","tp":"CS","ts":"2011-07-26T02:14:17Z","tX":300,"tY":367,"tags":{"source":"NRCan-CanVec-7.0"}},"123281954":{"location":[45.1316552,-74.3781865],"ct":"CA","tp":"CR","ts":"2023-01-16T14:39:38Z","tX":300,"tY":367,"tags":{"name":"Camping St-Anicet","source":"NRCan-CanVec-7.0"}},"123282004":{"location":[45.1492524,-74.4685827],"ct":"CA","tp":"CS","ts":"2023-08-14T02:13:03Z","tX":300,"tY":367,"tags":{"addr:city":"Lancaster","addr:housenumber":"20716","addr:postcode":"K0C 1N0","addr:street":"South Service Road","name":"Lancaster Park Outdoor Resort","source":"NRCan-CanVec-7.0","website":"https://lancasterpark.ca/"}},"123285745":{"location":[45.2167474,-74.3965597],"ct":"CA","tp":"CS","ts":"2011-07-27T04:03:11Z","tX":300,"tY":367,"tags":{"source":"NRCan-CanVec-7.0"}},"420152923":{"location":[45.2588353,-74.2004659],"ct":"CA","tp":"CS","ts":"2016-05-23T02:53:08Z","tX":300,"tY":367,"tags":{"name":"Camping Coteau-Landing"}},"475085543":{"location":[45.1508057,-74.4640131],"ct":"CA","tp":"CS","ts":"2023-08-14T02:17:23Z","tX":300,"tY":367,"tags":{"addr:city":"Lancaster","addr:housenumber":"20800","addr:postcode":"K0C 1N0","addr:street":"South Service Road","name":"Glengarry Campground","website":"https://www.stlawrenceparks.com/to-do/beaches/"}},"864487323":{"location":[45.2637029,-74.1962535],"ct":"CA","tp":"CS","ts":"2022-07-25T01:42:56Z","tX":300,"tY":367,"tags":{}},"1379102309":{"location":[45.1705466,-74.2930912],"ct":"CA","tp":"CS","ts":"2011-07-30T18:55:17Z","tX":300,"tY":367,"tags":{"source":"NRCan-CanVec-7.0"}},"1379103236":{"location":[45.17348,-74.2789722],"ct":"CA","tp":"CS","ts":"2011-07-30T18:55:34Z","tX":300,"tY":367,"tags":{"source":"NRCan-CanVec-7.0"}},"6584418217":{"location":[45.2640357,-74.3506837],"ct":"CA","tp":"SD","ts":"2019-07-02T15:57:42Z","tX":300,"tY":367,"tags":{"fee":"no","operator":"camping le sablon","water_point":"yes"}}}