{"10907399":{"location":[39.628458,-74.308833],"ct":"US","tp":"CS","ts":"2021-07-29T17:40:49Z","tX":300,"tY":389,"tags":{"name":"Sea Pirate Campground"}},"13034332":{"location":[39.634647,-74.3179432],"ct":"US","tp":"CS","ts":"2021-07-29T17:40:49Z","tX":300,"tY":389,"tags":{"name":"Baker's Acres Campground","source":"NJ2002LULC"}},"28376218":{"location":[39.6292154,-74.4812113],"ct":"US","tp":"CS","ts":"2022-03-12T20:30:02Z","tX":300,"tY":389,"tags":{"name":"Timberline Lake Campground"}},"28376229":{"location":[39.626406,-74.4729751],"ct":"US","tp":"CS","ts":"2008-11-13T02:46:22Z","tX":300,"tY":389,"tags":{"created_by":"Potlatch 0.10f","name":"Buttonwood Campground"}},"34227847":{"location":[39.6117291,-74.4087524],"ct":"US","tp":"CS","ts":"2022-12-31T19:48:00Z","tX":300,"tY":389,"tags":{"name":"Atlantic Shore Pines Campground","website":"https://atlanticshorepines.com/"}},"40276276":{"location":[39.5376757,-74.4946985],"ct":"US","tp":"CR","ts":"2023-01-03T02:29:16Z","tX":300,"tY":389,"tags":{"source":"NJ2002LULC"}},"40536698":{"location":[39.6265782,-74.4191891],"ct":"US","tp":"CS","ts":"2019-02-20T13:18:19Z","tX":300,"tY":389,"tags":{"description":"6 group campsites.  Water and toilets within walking distance. Max 25 campers per site. Parking on each site.","drinking_water":"yes","fee":"yes","group_only":"yes","landuse":"recreation_ground","name":"Group Campground","operator":"NJ State Park Service, Bass River State Forest","phone":"+1 609 296 1114","source":"NJ2002LULC","website":"https://www.state.nj.us/dep/parksandforests/parks/bass.html"}},"40541506":{"location":[39.529746,-74.5086432],"ct":"US","tp":"CR","ts":"2019-12-13T22:46:58Z","tX":300,"tY":389,"tags":{"source":"NJ2002LULC"}},"40582460":{"location":[39.4619624,-74.5075341],"ct":"US","tp":"CR","ts":"2023-06-11T22:34:46Z","tX":300,"tY":389,"tags":{"name":"Shady Pines","source":"NJ2002LULC"}},"76887771":{"location":[39.5046131,-74.5129245],"ct":"US","tp":"CS","ts":"2022-04-09T03:17:22Z","tX":300,"tY":389,"tags":{"name":"Swan Lake Resort"}},"79443028":{"location":[39.6341697,-74.4975493],"ct":"US","tp":"CS","ts":"2010-09-27T01:16:58Z","tX":300,"tY":389,"tags":{"name":"Chips Folly Campground"}},"393070918":{"location":[39.6240881,-74.4333913],"ct":"US","tp":"CS","ts":"2019-02-18T08:13:24Z","tX":300,"tY":389,"tags":{"description":"83 tent/trailer sites (no hookups) and 9 enclosed lean-tos","fee":"yes","name":"South Shore Campground","note":"Boundary is not well defined, just encloses all the facilities","operator":"NJ State Park Service, Bass River State Forest","phone":"+1 609 296 1114","website":"https://www.state.nj.us/dep/parksandforests/parks/bass.html"}},"393080177":{"location":[39.6304755,-74.4253474],"ct":"US","tp":"CS","ts":"2019-02-18T08:13:22Z","tX":300,"tY":389,"tags":{"description":"93 tent/trailer sites (no hookups), 6 lake-side shelters, and 6 lake-front cabins.","fee":"yes","name":"North Shore Campground","note":"Boundary is not well defined, just encloses all the facilities.","operator":"NJ State Park Service, Bass River State Forest","phone":"+1 609 296 1114","website":"https://www.state.nj.us/dep/parksandforests/parks/bass.html"}},"1127560183":{"location":[39.5415194,-74.4683252],"ct":"US","tp":"CR","ts":"2025-01-03T00:10:49Z","tX":300,"tY":389,"tags":{"addr:city":"Port Republic","addr:housenumber":"631","addr:postcode":"08241","addr:state":"NJ","addr:street":"Chestnut Neck Road","brand":"Thousand Trails","brand:wikidata":"Q7797073","camp_site":"deluxe","capacity:pitches":"189","dog":"leashed","internet_access":"wlan","name":"Chestnut Lake RV Resort","old_name":"Naco Recreational Vehicle Park","operator":"Thousand Trails","phone":"609-568-6337","power_supply":"yes","sanitary_dump_station":"yes","shower":"yes","source":"NJ2002LULC; Bing; local knowledge","swimming_pool":"yes","tents":"yes","toilets":"yes","washing_machine":"yes","website":"https://thousandtrails.com/new-jersey/chestnut-lake-rv-campground/"}},"10676113115":{"location":[39.6265981,-74.4454736],"ct":"US","tp":"CS","ts":"2023-02-18T12:18:51Z","tX":300,"tY":389,"tags":{"addr:city":"New Gretna","addr:housenumber":"940","addr:postcode":"08224","addr:state":"NJ","addr:street":"Stage Rd","name":"Pilgrim Lake Camp Grounds","operator":"Richard Hazard","payment:american_express":"yes","payment:cash":"yes","payment:discover_card":"yes","payment:mastercard":"yes","payment:visa":"yes","phone":"+1-609-296-4725","website":"https://pilgrimlakecampgroundsnj.com"}}}