{"368871078":{"location":[37.31773,128.260271],"ct":"KR","tp":"CS","ts":"2019-01-06T16:54:19Z","tX":876,"tY":397,"tags":{"name":"금방아 민박 야영장","name:en":"Geumbanga Homestay Camping Site","name:ko":"금방아 민박 야영장","name:ko-Latn":"Geumbanga Minbak Yayeongjang","ncat":"야영장","source":"http://kr.open.gugi.yahoo.com"}},"1112479696":{"location":[37.4078925,128.0455396],"ct":"KR","tp":"CS","ts":"2022-11-12T13:23:51Z","tX":876,"tY":397,"tags":{}},"1160808047":{"location":[37.1930658,128.1920587],"ct":"KR","tp":"CS","ts":"2023-04-09T05:39:39Z","tX":876,"tY":397,"tags":{"name":"용두산오토캠핑장"}},"1187214410":{"location":[37.2378336,128.1639652],"ct":"KR","tp":"CS","ts":"2023-07-04T08:57:37Z","tX":876,"tY":397,"tags":{"name":"아리울캠핑장"}},"1230247090":{"location":[37.2938709,128.018617],"ct":"KR","tp":"CS","ts":"2023-12-11T04:55:09Z","tX":876,"tY":397,"tags":{}},"1254635147":{"location":[37.2008646,127.9796586],"ct":"KR","tp":"CS","ts":"2024-02-25T16:27:37Z","tX":876,"tY":397,"tags":{}},"1254635152":{"location":[37.1864183,127.9930669],"ct":"KR","tp":"CS","ts":"2024-02-25T16:27:37Z","tX":876,"tY":397,"tags":{"name":"덕동계곡초록꿈체험마을오토캠핑장"}},"1307145218":{"location":[37.1753188,128.0886984],"ct":"KR","tp":"CS","ts":"2024-08-12T00:04:59Z","tX":876,"tY":397,"tags":{"leisure":"park","name":"옥전자연휴양림"}},"1307145219":{"location":[37.1800887,128.0830255],"ct":"KR","tp":"CS","ts":"2024-08-12T00:04:59Z","tX":876,"tY":397,"tags":{"name":"옥전캠핑장"}},"9936565136":{"location":[37.3784968,128.2716602],"ct":"KR","tp":"CS","ts":"2022-08-07T04:22:06Z","tX":876,"tY":397,"tags":{"addr:city":"강원도 영월군 무릉도원면","addr:housenumber":"158","addr:postcode":"26201","addr:street":"백년계곡길","name":"산골캠핑장"}},"10685066487":{"location":[37.3696794,128.1780601],"ct":"KR","tp":"CS","ts":"2023-02-22T07:23:24Z","tX":876,"tY":397,"tags":{"access":"customers","addr:city":"강림면","addr:housenumber":"251","addr:postcode":"25272","addr:street":"월안길","name":"월현 포레스트 캠핑장"}}}