{"368871203":{"location":[36.722188,128.303838],"ct":"KR","tp":"CS","ts":"2019-01-01T15:15:32Z","tX":876,"tY":399,"tags":{"name":"문경학생야영장","name:en":"Mungyeong Student Camping Site","name:ko":"문경학생야영장","name:ko-Latn":"Mungyeonghaksaengyayeongjang","ncat":"야영장","source":"http://kr.open.gugi.yahoo.com"}},"368871226":{"location":[36.7177107,128.3043349],"ct":"KR","tp":"CS","ts":"2019-01-01T15:15:32Z","tX":876,"tY":399,"tags":{"name":"문경학생야영장","name:en":"Mungyeong Student Camping Site","name:ko":"문경학생야영장","name:ko-Latn":"Mungyeonghaksaengyayeongjang","ncat":"야영장","source":"http://kr.open.gugi.yahoo.com"}},"1189876628":{"location":[36.6601721,128.1229717],"ct":"KR","tp":"CS","ts":"2023-07-15T18:51:24Z","tX":876,"tY":399,"tags":{"name":"문경오토캠핑장"}},"5078023413":{"location":[36.6911522,128.1177227],"ct":"KR","tp":"CS","ts":"2019-01-01T15:20:12Z","tX":876,"tY":399,"tags":{"name":"소야 솔밭캠프장","name:ko":"소야 솔밭캠프장"}},"6836095185":{"location":[36.6541844,128.1292166],"ct":"KR","tp":"CS","ts":"2019-09-30T02:02:47Z","tX":876,"tY":399,"tags":{"name:en":"Free Camping"}}}