{"1021380696":{"location":[34.918622,128.020415],"ct":"KR","tp":"CS","ts":"2025-02-04T14:50:02Z","tX":876,"tY":405,"tags":{"addr:city":"남해군","addr:housenumber":"1455-10","addr:postcode":"52449","addr:province":"경상남도","addr:street":"서부로","addr:subdistrict":"대벽리","addr:town":"창선면","name":"버드하우스 캠핑장"}},"1281053898":{"location":[35.1152463,128.2490356],"ct":"KR","tp":"CS","ts":"2024-05-09T03:33:26Z","tX":876,"tY":405,"tags":{"name":"영오반딧불이캠핑장"}},"1286708170":{"location":[34.9098635,128.155898],"ct":"KR","tp":"CS","ts":"2024-05-26T02:41:36Z","tX":876,"tY":405,"tags":{"caravans":"no","fee":"yes","name":"상족암오토캠핑장 제2캠핑장","static_caravans":"no"}},"1286708171":{"location":[34.9108339,128.1561597],"ct":"KR","tp":"CS","ts":"2024-05-26T02:41:36Z","tX":876,"tY":405,"tags":{"name":"상족암오토캠핑장 제1캠핑장"}},"1388908395":{"location":[35.1287725,128.0225363],"ct":"KR","tp":"CS","ts":"2025-05-23T02:50:54Z","tX":876,"tY":405,"tags":{}},"11671456070":{"location":[35.0582098,128.1248236],"ct":"KR","tp":"CS","ts":"2024-02-28T04:40:06Z","tX":876,"tY":405,"tags":{"name":"농장"}}}