{"1382920":{"location":[-28.8439878,153.6030343],"ct":"AU","tp":"CS","ts":"2019-03-23T10:28:17Z","tX":948,"tY":597,"tags":{"name":"Flat Rock Tent Park","source":"bing","website":"https://www.flatrockcamping.com.au/"}},"191331519":{"location":[-28.6731876,153.6126664],"ct":"AU","tp":"CR","ts":"2012-11-18T03:47:42Z","tX":948,"tY":597,"tags":{"source":"Bing"}},"300588229":{"location":[-28.8684626,153.5848462],"ct":"AU","tp":"CR","ts":"2025-01-24T10:42:24Z","tX":948,"tY":597,"tags":{"addr:housenumber":"25","addr:street":"Fenwick Drive","internet_access":"wlan","name":"Discovery Parks - Ballina","old_name":"Lakeside Ballina","phone":"+61 2 6686 3953","power_supply":"yes","sanitary_dump_station":"yes","shower":"yes","tents":"yes","website":"https://www.discoveryholidayparks.com.au/caravan-parks/new-south-wales/north-coast-ballina"}},"300588384":{"location":[-28.8674744,153.5805339],"ct":"AU","tp":"CS","ts":"2024-05-27T06:07:36Z","tX":948,"tY":597,"tags":{"addr:housenumber":"1","addr:postcode":"2478","addr:state":"NSW","addr:street":"Brighton Street","addr:suburb":"East Ballina","name":"Reflections Shaws Bay - Holiday Park","operator":"Reflections Holidays","phone":"+61 2 6686 2326","power_supply":"yes","sanitary_dump_station":"yes","website":"https://reflectionsholidays.com.au/parks/shaws-bay/"}},"300590646":{"location":[-28.8859019,153.5682832],"ct":"AU","tp":"CR","ts":"2019-04-25T03:06:07Z","tX":948,"tY":597,"tags":{"addr:housenumber":"440","addr:postcode":"2478","addr:state":"NSW","addr:street":"South Ballina Beach Road","addr:suburb":"South Ballina","name":"Ballina Beach Village","phone":"+61 2 6686 3347","power_supply":"yes","sanitary_dump_station":"yes","website":"https://www.ballinabeachvillage.com.au/"}},"300590647":{"location":[-28.8841506,153.5612349],"ct":"AU","tp":"CR","ts":"2019-04-24T05:24:01Z","tX":948,"tY":597,"tags":{"addr:housenumber":"344","addr:postcode":"2478","addr:state":"NSW","addr:street":"South Ballina Beach Road","addr:suburb":"South Ballina","description":"Caravan park closed 2015","name":"Seabreeze Holiday Park","website":"www.ballinaseabreeze.com.au"}},"320454754":{"location":[-28.6911079,153.6127996],"ct":"AU","tp":"CS","ts":"2020-07-18T07:38:38Z","tX":948,"tY":597,"tags":{"bbq":"yes","caravans":"yes","kitchen":"yes","name":"Suffolk Beachfront Holiday Park","sanitary_dump_station":"yes","tents":"yes","toilets":"yes"}},"323347660":{"location":[-28.666808,153.612637],"ct":"AU","tp":"CS","ts":"2015-01-20T22:04:13Z","tX":948,"tY":597,"tags":{"name":"Red Devil Camping"}},"342072912":{"location":[-28.8654787,153.5240112],"ct":"AU","tp":"CR","ts":"2024-06-08T00:09:29Z","tX":948,"tY":597,"tags":{"addr:street":"River Street","internet_access":"no","name":"Ballina Waterfront Village","power_supply":"yes","sanitary_dump_station":"yes","shower":"yes","toilets":"yes"}},"342072916":{"location":[-28.7058826,153.6139777],"ct":"AU","tp":"CR","ts":"2023-08-17T06:09:15Z","tX":948,"tY":597,"tags":{"fee":"yes","name":"Broken Head Holiday Park","power_supply":"no"}},"366750645":{"location":[-28.640164,153.5915749],"ct":"AU","tp":"CR","ts":"2017-05-08T03:55:08Z","tX":948,"tY":597,"tags":{"name":"Belongil Fields Caravan Park"}},"366750646":{"location":[-28.6354886,153.5944541],"ct":"AU","tp":"CR","ts":"2024-08-03T08:09:08Z","tX":948,"tY":597,"tags":{"addr:housenumber":"399","addr:postcode":"2481","addr:state":"NSW","addr:street":"Ewingsdale Road","addr:suburb":"Byron Bay","email":"byron@discoveryparks.com.au","name":"Discovery Parks Byron Bay","old_name":"Byron Bay Tourist Village","phone":"+61 2 6687 3700","website":"https://discoveryparks.com.au"}},"370122386":{"location":[-28.8079131,153.2828638],"ct":"AU","tp":"CR","ts":"2015-09-11T02:28:30Z","tX":948,"tY":597,"tags":{"name":"Lismore Tourist Caravan Park","source":"bing for outline, Blissmapper for the rest"}},"571838021":{"location":[-28.6411306,153.6111753],"ct":"AU","tp":"CR","ts":"2020-04-11T10:40:03Z","tX":948,"tY":597,"tags":{"area":"yes","name":"First Sun Holiday Park"}},"684038180":{"location":[-28.8630951,153.5340001],"ct":"AU","tp":"CR","ts":"2019-04-16T01:10:12Z","tX":948,"tY":597,"tags":{"addr:housenumber":"491","addr:postcode":"2478","addr:state":"NSW","addr:street":"River Street","addr:suburb":"West Ballina","name":"Hibiscus Gardens Caravan Park","phone":"+61 2 6686 2394","power_supply":"yes"}},"916203063":{"location":[-28.8018483,153.2871017],"ct":"AU","tp":"CR","ts":"2024-12-18T18:15:20Z","tX":948,"tY":597,"tags":{"name":"Lismore Palms Caravan Park","phone":"+61 2 6622 3904","tents":"yes","website":"https://www.luckycountryleisureparks.com.au/"}},"925064360":{"location":[-28.7852392,153.5908736],"ct":"AU","tp":"CS","ts":"2024-05-27T01:42:55Z","tX":948,"tY":597,"tags":{"caravans":"yes","email":"lennoxhead@reflectionsholidays.com.au","name":"Reflections Lennox Head - Holiday Park","operator":"Reflections Holidays","phone":"+61 2 6687 7249","static_caravans":"yes","tents":"yes","website":"https://reflectionsholidays.com.au/parks/lennox-head/"}},"1229026499":{"location":[-28.8727913,153.5670459],"ct":"AU","tp":"CS","ts":"2024-05-03T04:36:14Z","tX":948,"tY":597,"tags":{"addr:housenumber":"1","addr:postcode":"2478","addr:state":"NSW","addr:street":"River Street","addr:suburb":"Ballina","caravans":"yes","email":"ballina@reflectionsholidays.com.au","name":"Reflections Ballina - Holiday Park","phone":"+61 2 6686 2220","power_supply":"yes","static_caravans":"yes","tents":"yes","website":"https://reflectionsholidays.com.au/parks/ballina/"}},"1364515876":{"location":[-28.6445043,153.6049319],"ct":"AU","tp":"CS","ts":"2025-03-04T15:30:04Z","tX":948,"tY":597,"tags":{"name":"Arts Factory Jungle Camping Retreat"}},"1682656557":{"location":[-28.6410757,153.6115104],"ct":"AU","tp":"CR","ts":"2014-10-12T21:15:28Z","tX":948,"tY":597,"tags":{"name":"First Sun"}},"2401271722":{"location":[-28.8082397,153.2824641],"ct":"AU","tp":"CR","ts":"2015-09-11T02:28:32Z","tX":948,"tY":597,"tags":{"name":"Lismore Tourist Caravan Park"}},"4333556784":{"location":[-28.620814,153.3661777],"ct":"AU","tp":"CS","ts":"2017-03-25T06:46:20Z","tX":948,"tY":597,"tags":{"source":"NSW LPI Base Map","source:date":"2016-06"}},"4418591389":{"location":[-28.6426989,153.6244885],"ct":"AU","tp":"CS","ts":"2024-05-03T04:42:54Z","tX":948,"tY":597,"tags":{"addr:housenumber":"1","addr:postcode":"2481","addr:state":"NSW","addr:street":"Lighthouse Road","addr:suburb":"Byron Bay","caravans":"yes","email":"ByronBay@reflectionsholidays.com.au","fee":"yes","name":"Reflections Byron Bay - Holiday Park","static_caravans":"yes","tents":"yes","website":"https://reflectionsholidays.com.au/parks/byron-bay/"}},"11365479037":{"location":[-28.8393442,153.4408649],"ct":"AU","tp":"CS","ts":"2023-11-21T02:45:43Z","tX":948,"tY":597,"tags":{"access":"customers","caravans":"yes","contact:mobile":"+61 4 2771 1512","contact:phone":"+61 2 6628 0358","fee":"yes","kitchen":"yes","laundry":"yes","name":"Alstonville Showground Camping","operator":"The Alstonville Agricultural Society Incorporated","payment:cash":"yes","payment:credit_cards":"yes","payment:debit_cards":"yes","power_supply":"yes","shower":"yes","static_caravans":"no","tents":"yes","toilets":"yes"}},"10177897051":{"location":[-28.6475903,153.609764],"ct":"AU","tp":"CR","ts":"2022-11-12T10:34:00Z","tX":948,"tY":597,"tags":{"addr:housenumber":"80-86","addr:postcode":"2481","addr:state":"NSW","addr:street":"Butler Street","addr:suburb":"Byron Bay","fee":"yes","internet_access":"wlan","name":"Glen Villa Resort","power_supply":"yes","sanitary_dump_station":"yes","website":"https://www.glenvillaresort.com.au/"}},"6363896249":{"location":[-28.8680507,153.5845869],"ct":"AU","tp":"SD","ts":"2019-03-27T03:25:41Z","tX":948,"tY":597,"tags":{"access":"customers"}},"6363896264":{"location":[-28.8692271,153.5844949],"ct":"AU","tp":"SD","ts":"2019-03-27T03:25:41Z","tX":948,"tY":597,"tags":{"access":"customers"}},"11963604506":{"location":[-28.8652384,153.5240477],"ct":"AU","tp":"SD","ts":"2024-06-08T00:09:29Z","tX":948,"tY":597,"tags":{"access":"customers","fee":"no","water_point":"no"}}}