{"1348498378":{"location":[28.0062366,86.9298976],"ct":"CN","tp":"CS","ts":"2024-06-04T15:38:47Z","tX":759,"tY":428,"tags":{"ele":"7790","name":"二号营地","name:en":"Camp 2N North ridge","name:zh":"二号营地","source":"2bulu"}},"1348498379":{"location":[28.0163695,86.923316],"ct":"CN","tp":"CS","ts":"2024-10-14T02:52:58Z","tX":759,"tY":428,"tags":{"ele":"7028","name":"一号营地","name:en":"Camp 1N","name:zh":"一号营地","source":"2bulu","source:date":"2022-04-06"}},"1348498380":{"location":[28.0304568,86.9403576],"ct":"CN","tp":"CS","ts":"2024-06-04T15:38:47Z","tX":759,"tY":428,"tags":{"ele":"6500","name":"前进营地","name:en":"ABC Advanced base camp","name:zh":"前进营地","source":"https://k.sina.com.cn/article_7080540369_1a60878d100100p46q.html","source2":"http://outdoor.travel.sohu.com/20070215/n248262654.shtml"}},"5971401522":{"location":[27.9968219,87.1711922],"ct":"CN","tp":"CS","ts":"2018-10-10T07:53:31Z","tX":759,"tY":428,"tags":{}},"5971408320":{"location":[27.9987876,87.1613967],"ct":"CN","tp":"CS","ts":"2018-10-10T07:56:16Z","tX":759,"tY":428,"tags":{}},"11956009447":{"location":[28.1365307,86.8554744],"ct":"CN","tp":"CS","ts":"2025-06-12T01:16:15Z","tX":759,"tY":428,"tags":{"ele":"5200","name":"珠峰大本营 ཇོ་མོ་གླང་མའི་སྒར་ས་ཆེན་པོ།","name:bo":"ཇོ་མོ་གླང་མའི་སྒར་ས་ཆེན་པོ།","name:en":"Everset Base Camp","name:zh":"珠峰大本营","note":"This base camp is exclusively for climbers of Mount Everest, and tourists are unable to reach it.","place":"locality"}},"11956078353":{"location":[28.0821484,86.9193867],"ct":"CN","tp":"CS","ts":"2024-06-04T15:38:47Z","tX":759,"tY":428,"tags":{"ele":"5800","name":"中间营地","name:en":"Intermediate Camp","name:zh":"中间营地"}},"11956078759":{"location":[27.9990239,86.9321909],"ct":"CN","tp":"CS","ts":"2024-06-04T15:38:47Z","tX":759,"tY":428,"tags":{"ele":"8300","name":"三号营地","name:en":"Camp 3N North ridge","name:zh":"三号营地","source":"2bulu"}},"5225912921":{"location":[27.9996646,86.8487946],"ct":"NP","tp":"CS","ts":"2024-08-21T10:40:07Z","tX":759,"tY":428,"tags":{"ele":"5364","name":"Everest Base Camp","name:en":"Everest Base Camp","name:fr":"Everest Camp de base","name:ja":"エベレスト ベースキャンプ","name:ka":"ევერესტის საბაზო ბანაკი","name:ko":"에베레스트 베이스 캠프","name:zh":"珠峰大本营","wikidata":"Q99671286"}},"12771599701":{"location":[27.9983698,86.8488755],"ct":"NP","tp":"CS","ts":"2025-04-21T06:44:06Z","tX":759,"tY":428,"tags":{"name":"Asian Trekking"}}}