{"316033105":{"location":[27.9045615,86.8722749],"ct":"NP","tp":"CS","ts":"2022-12-23T16:10:31Z","tX":759,"tY":429,"tags":{}},"494843641":{"location":[27.9027831,86.9317735],"ct":"NP","tp":"CS","ts":"2022-05-01T02:51:08Z","tX":759,"tY":429,"tags":{"internet_access:fee":"no","name":"Island Peak Base Camp","name:ja":"アイランドピークベースキャンプ"}},"576713400":{"location":[27.9733654,86.9302508],"ct":"NP","tp":"CS","ts":"2024-08-21T10:40:07Z","tX":759,"tY":429,"tags":{"ele":"7920","fee":"no","name":"Camp 4S South Col","name:en":"Camp 4S South Col","name:ja":"エベレスト キャンプ4S","name:ka":"მე-4 ბანაკი","name:ko":"에베레스트 캠프 4S","name:zh":"南线4号营地 - 南坳","source:position":"SRTM-Version 3.0-SRTMGL1-Void Filled-10m"}},"2679535324":{"location":[27.8353373,87.0760664],"ct":"NP","tp":"CS","ts":"2023-09-19T13:29:10Z","tX":759,"tY":429,"tags":{"ele":"4830","name":"Makalu Base Camp"}},"2804767847":{"location":[27.7361014,86.8424363],"ct":"NP","tp":"CS","ts":"2014-04-20T20:48:42Z","tX":759,"tY":429,"tags":{"name":"Thangnag"}},"3186647123":{"location":[27.8615231,86.9206932],"ct":"NP","tp":"CS","ts":"2022-11-05T15:38:01Z","tX":759,"tY":429,"tags":{"name":"Amphu Laptsa La BC South 1","note":"as of 2022 there are two campsites withing 500m of each other. Both offer food and tents, 1 also offers blankets"}},"3203680261":{"location":[27.7418282,86.9229639],"ct":"NP","tp":"CS","ts":"2021-09-22T10:26:56Z","tX":759,"tY":429,"tags":{"name":"Kongme Dingma"}},"5971401505":{"location":[27.9875021,87.089189],"ct":"CN","tp":"CS","ts":"2018-10-10T07:53:31Z","tX":759,"tY":429,"tags":{}},"5971401507":{"location":[27.9896883,87.1125564],"ct":"CN","tp":"CS","ts":"2018-10-10T07:53:31Z","tX":759,"tY":429,"tags":{}},"5971401509":{"location":[27.9923125,87.1491069],"ct":"CN","tp":"CS","ts":"2018-10-10T07:53:31Z","tX":759,"tY":429,"tags":{}},"4577908832":{"location":[27.7181943,86.8864619],"ct":"NP","tp":"CS","ts":"2022-11-05T15:26:42Z","tX":759,"tY":429,"tags":{"ele":"5805","name":"Mera Peak High Camp","place":"locality"}},"4880806685":{"location":[27.9815643,86.8991408],"ct":"NP","tp":"CS","ts":"2024-08-21T10:40:07Z","tX":759,"tY":429,"tags":{"ele":"6400","fee":"no","name":"Camp 2S","name:en":"Camp 2S","name:ja":"エベレスト キャンプ2S","name:ka":"მე-2 ბანაკი","name:ko":"캠프 2S","name:zh":"南线2号营地","source:location":"SRTM-Version 3.0-SRTMGL1-Void Filled","website":"https://en.m.wikivoyage.org/wiki/Everest_Base_Camp_Trek"}},"4880806686":{"location":[27.9864173,86.8765224],"ct":"NP","tp":"CS","ts":"2024-08-21T10:40:07Z","tX":759,"tY":429,"tags":{"ele":"6060","fee":"no","name":"Camp 1S","name:en":"Camp 1S","name:ja":"エベレスト キャンプ1S","name:ka":"1-ლი ბანაკი","name:ko":"캠프 1S","name:zh":"南线1号营地","source:location":"SRTM-Version 3.0-SRTMGL1-Void Filled","website":"https://en.m.wikivoyage.org/wiki/Everest_Base_Camp_Trek"}},"5058632244":{"location":[27.9688883,86.9178104],"ct":"NP","tp":"CS","ts":"2024-08-21T10:40:07Z","tX":759,"tY":429,"tags":{"ele":"7100","fee":"no","name":"Camp 3S","name:ja":"エベレスト キャンプ3S","name:ka":"მე-3 ბანაკი","name:ko":"캠프 3S","name:zh":"南线3号营地","source:location":"SRTM-Version 3.0-SRTMGL1-Void Filled","website":"https://en.m.wikivoyage.org/wiki/Everest_Base_Camp_Trek","wheelchair":"no"}},"5786165781":{"location":[27.9089791,86.9347668],"ct":"NP","tp":"CS","ts":"2022-05-01T02:51:44Z","tX":759,"tY":429,"tags":{"name":"Island Peak High Camp","name:ja":"アイランドピークハイキャンプ"}},"6468145106":{"location":[27.8099939,87.0807481],"ct":"NP","tp":"CS","ts":"2022-08-25T15:06:39Z","tX":759,"tY":429,"tags":{}},"8365456320":{"location":[27.8556084,87.059778],"ct":"NP","tp":"CS","ts":"2021-01-26T21:24:51Z","tX":759,"tY":429,"tags":{"name:en":"Swiss Base Camp"}},"9293673017":{"location":[27.8007524,86.9436386],"ct":"NP","tp":"CS","ts":"2022-11-05T14:57:58Z","tX":759,"tY":429,"tags":{"name:en":"Seto Pokhari","name:ru":"Сето Покхари","notice":"Open in high season, has tents and blankets for hire and food. There iare also two wodden huts for the stuaff and kitchen"}},"10159602690":{"location":[27.8581765,86.9237581],"ct":"NP","tp":"CS","ts":"2023-10-06T14:20:39Z","tX":759,"tY":429,"tags":{"name":"Amphu Laptsa La BC South 2"}},"5550023322":{"location":[27.9025637,86.9281069],"ct":"NP","tp":"CR","ts":"2018-04-13T11:42:36Z","tX":759,"tY":429,"tags":{"name:zh":"島峰基地營"}}}