{"418635082":{"location":[-43.4375131,147.2467186],"ct":"AU","tp":"CS","ts":"2024-03-28T10:17:27Z","tX":930,"tY":649,"tags":{"access":"yes","caravans":"yes","fee":"no","name":"The Pines Camp Site","operator":"Parks and Wildlife","shower":"no","tents":"yes"}},"1267614137":{"location":[-43.4247056,146.9737055],"ct":"AU","tp":"CS","ts":"2024-04-02T07:12:56Z","tX":930,"tY":649,"tags":{"access":"customers","addr:housenumber":"8777","addr:postcode":"7109","addr:state":"TAS","addr:street":"Huon Highway","addr:suburb":"Southport","caravans":"yes","fee":"yes","name":"Southport Hotel Caravan Park","phone":"+61 3 6298 3144","sanitary_dump_station":"no","shower":"yes","toilets":"yes","website":"http://southportcaravanpark.com.au/"}},"1595898899":{"location":[-43.4596083,147.1533775],"ct":"AU","tp":"CS","ts":"2023-01-02T00:18:18Z","tX":930,"tY":649,"tags":{"caravans":"yes","name":"Jetty Beach Camp Area","operator":"Parks and Wildlife","shower":"no","tents":"yes"}},"1811165195":{"location":[-43.4661988,147.2521889],"ct":"AU","tp":"CS","ts":"2023-01-02T00:18:18Z","tX":930,"tY":649,"tags":{"caravans":"yes","name":"Cloudy Bay Camp Area","operator":"Parks and Wildlife","shower":"no","tents":"yes"}}}