{"1088634984":{"location":[46.9253545,-123.0600672],"ct":"US","tp":"CS","ts":"2025-02-01T20:13:40Z","tX":161,"tY":360,"tags":{"access":"yes","name":"Margaret McKenny Campground","operator":"Washington State Department of Natural Resources","operator:wikidata":"Q7971840"}},"1190623616":{"location":[46.9554638,-123.0798353],"ct":"US","tp":"CR","ts":"2023-07-19T15:00:07Z","tX":161,"tY":360,"tags":{"landuse":"recreation_ground","name":"Tacoma Trail Cruisers","website":"https://www.tacomatrailcruisers.org/"}},"1191692229":{"location":[46.9371024,-123.0757088],"ct":"US","tp":"CS","ts":"2023-07-24T00:05:49Z","tX":161,"tY":360,"tags":{"access":"yes","name":"Middle Waddell Campground","operator":"Washington State Department of Natural Resources","operator:wikidata":"Q7971840"}},"1252185634":{"location":[46.810146,-123.056134],"ct":"US","tp":"CR","ts":"2024-02-19T02:13:45Z","tX":161,"tY":360,"tags":{"name":"Outback RV Park"}},"1269853520":{"location":[46.941835,-123.1279816],"ct":"US","tp":"CS","ts":"2024-12-17T19:29:49Z","tX":161,"tY":360,"tags":{"name":"Fall Creek Campground","operator":"Washington Department of Natural Resources"}},"1313150512":{"location":[47.0094844,-123.3854019],"ct":"US","tp":"CR","ts":"2024-09-04T05:57:28Z","tX":161,"tY":360,"tags":{"addr:city":"Elma","addr:housenumber":"801","addr:postcode":"98541","addr:state":"WA","addr:street":"East Main Street","name":"Maplewood RV Resort"}},"1313150513":{"location":[47.0084086,-123.3856881],"ct":"US","tp":"CR","ts":"2024-09-04T05:57:28Z","tX":161,"tY":360,"tags":{"addr:city":"Elma","addr:housenumber":"801","addr:postcode":"98541","addr:state":"WA","addr:street":"East Main Street","addr:unit":"101","name":"Travel Inn Resort"}},"1343952917":{"location":[47.0014063,-123.3875263],"ct":"US","tp":"CR","ts":"2025-03-10T20:50:24Z","tX":161,"tY":360,"tags":{"addr:city":"Elma","addr:housenumber":"4730","addr:postcode":"98541","addr:state":"WA","addr:street":"US Highway 12","landuse":"recreation_ground","name":"Elma RV Park"}},"2393510885":{"location":[46.8475583,-123.0483553],"ct":"US","tp":"SD","ts":"2024-12-03T02:10:00Z","tX":161,"tY":360,"tags":{}},"2409324499":{"location":[46.8259497,-123.1592331],"ct":"US","tp":"CR","ts":"2013-08-06T22:19:22Z","tX":161,"tY":360,"tags":{"name":"Chehalis Tribal Eagle RV Park"}},"2410184094":{"location":[46.9778508,-123.256017],"ct":"US","tp":"CS","ts":"2018-05-17T19:37:07Z","tX":161,"tY":360,"tags":{"name":"Porter Falls Campground"}},"2410242975":{"location":[47.0014162,-123.3878471],"ct":"US","tp":"CR","ts":"2013-08-07T19:11:32Z","tX":161,"tY":360,"tags":{"name":"Elma RV Park"}},"2458645618":{"location":[46.8958725,-123.1572104],"ct":"US","tp":"CS","ts":"2013-09-14T22:58:58Z","tX":161,"tY":360,"tags":{"name":"Sherman Valley Campground"}},"2458645631":{"location":[46.8894726,-123.2028548],"ct":"US","tp":"CS","ts":"2025-02-05T23:16:46Z","tX":161,"tY":360,"tags":{"name":"North Creek Campground"}},"3781133746":{"location":[46.8353824,-123.0508008],"ct":"US","tp":"CR","ts":"2015-10-10T18:27:46Z","tX":161,"tY":360,"tags":{"name":"Whispering Woods Mobile Home Park"}},"4673803476":{"location":[46.8187182,-123.1035473],"ct":"US","tp":"CR","ts":"2017-02-08T01:16:56Z","tX":161,"tY":360,"tags":{"name":"Tanglewood Mobile Home Park"}},"12299785040":{"location":[47.016461,-123.353253],"ct":"US","tp":"SD","ts":"2025-03-09T05:29:57Z","tX":161,"tY":360,"tags":{}},"12646990063":{"location":[47.0163311,-123.3534729],"ct":"US","tp":"SD","ts":"2025-03-09T05:29:57Z","tX":161,"tY":360,"tags":{}},"12646990064":{"location":[47.0163997,-123.3533549],"ct":"US","tp":"SD","ts":"2025-03-09T05:29:57Z","tX":161,"tY":360,"tags":{}},"12646990065":{"location":[47.0165305,-123.3531296],"ct":"US","tp":"SD","ts":"2025-03-09T05:29:57Z","tX":161,"tY":360,"tags":{}}}