{"311080271":{"location":[45.6109473,-123.3488593],"ct":"US","tp":"CS","ts":"2024-06-27T19:05:31Z","tX":161,"tY":365,"tags":{"addr:state":"OR","ele":"479","gnis:feature_id":"1118492","landuse":"recreation_ground","name":"Browns Camp OHV Staging Area"}},"357286616":{"location":[45.7065227,-123.3331418],"ct":"US","tp":"CS","ts":"2024-06-27T19:05:06Z","tX":161,"tY":365,"tags":{"addr:state":"OR","ele":"346","gnis:feature_id":"1125931","name":"Reeher Forest Park"}},"359031515":{"location":[45.7444376,-123.1856997],"ct":"US","tp":"CS","ts":"2019-01-10T19:20:19Z","tX":161,"tY":365,"tags":{"name":"Mountain Dale Cabin Village","operator":"Oregon State Parks"}},"359246254":{"location":[45.7475824,-123.1828282],"ct":"US","tp":"CS","ts":"2018-03-27T06:42:46Z","tX":161,"tY":365,"tags":{"name":"Hares Canyon Horse Camp","opening_hours":"Mar 1-Oct 31","operator":"Oregon State Parks"}},"359675788":{"location":[45.7393513,-123.1896756],"ct":"US","tp":"CS","ts":"2018-03-27T06:42:46Z","tX":161,"tY":365,"tags":{"name":"Dairy Creek Campground East","opening_hours":"Mar 1-Oct 31","operator":"Oregon State Parks"}},"359675789":{"location":[45.7395622,-123.1923397],"ct":"US","tp":"CS","ts":"2018-03-27T06:42:47Z","tX":161,"tY":365,"tags":{"name":"Dairy Creek Campground West","operator":"Oregon State Parks"}},"480976456":{"location":[45.6460723,-123.2687669],"ct":"US","tp":"CS","ts":"2017-09-16T04:47:39Z","tX":161,"tY":365,"tags":{"access":"customers","fixme":"Unknown name. Unknown if public, open to customers, or just private.","internet_access":"no","leisure":"park"}},"518410793":{"location":[45.6502204,-123.2906671],"ct":"US","tp":"CS","ts":"2020-06-19T06:51:48Z","tX":161,"tY":365,"tags":{"access":"private","addr:city":"Gales Creek","addr:housenumber":"59425","addr:postcode":"97117","addr:state":"OR","addr:street":"Northwest Cedarbrook Lane","name":"Gales Creek Camp","operator":"Gales Creek Camp Foundation","phone":"(503) 357-1793"}},"3638045805":{"location":[45.7324433,-123.1897224],"ct":"US","tp":"CS","ts":"2015-07-06T23:05:23Z","tX":161,"tY":365,"tags":{"name":"Brooke Creek Hike-in Camp","operator":"Oregon State Parks"}},"5099414481":{"location":[45.6525773,-123.3147309],"ct":"US","tp":"CS","ts":"2017-09-11T22:53:01Z","tX":161,"tY":365,"tags":{"name":"Camp R&R"}},"7634349560":{"location":[45.6431331,-123.3596313],"ct":"US","tp":"CS","ts":"2020-06-19T06:51:48Z","tX":161,"tY":365,"tags":{"name":"Gales Creek Campground"}},"8936787748":{"location":[45.7154875,-123.06551],"ct":"US","tp":"CS","ts":"2021-07-20T21:56:37Z","tX":161,"tY":365,"tags":{"access":"customers","name":"Mountindale Sun Resort"}},"10905953066":{"location":[45.7406833,-123.1926799],"ct":"US","tp":"CS","ts":"2023-05-17T20:10:13Z","tX":161,"tY":365,"tags":{"description":"Tent loop, walk in sites. Wheelbarrow available to borrow"}}}