{"45074986":{"location":[44.285368,-123.0637849],"ct":"US","tp":"CR","ts":"2009-11-26T18:38:27Z","tX":161,"tY":371,"tags":{}},"47472488":{"location":[44.1316029,-123.0493748],"ct":"US","tp":"CR","ts":"2018-08-19T19:55:39Z","tX":161,"tY":371,"tags":{"name":"Premier RV Resort"}},"244501997":{"location":[44.1332235,-123.0563328],"ct":"US","tp":"CR","ts":"2019-07-11T04:43:01Z","tX":161,"tY":371,"tags":{}},"679559119":{"location":[44.2286625,-123.2043638],"ct":"US","tp":"CR","ts":"2019-03-26T18:28:01Z","tX":161,"tY":371,"tags":{}},"679611468":{"location":[44.3136887,-123.2973005],"ct":"US","tp":"CR","ts":"2019-03-26T23:11:42Z","tX":161,"tY":371,"tags":{"name":"Monroe RV Park"}},"702980806":{"location":[44.1134668,-123.0612912],"ct":"US","tp":"CS","ts":"2019-07-10T06:46:35Z","tX":161,"tY":371,"tags":{"access":"permissive","capacity":"120","fee":"no","internet_access":"yes","name":"Camp Harlow"}},"872050514":{"location":[44.1119219,-123.0517192],"ct":"US","tp":"CS","ts":"2023-09-30T14:32:42Z","tX":161,"tY":371,"tags":{"access":"yes","addr:city":"Eugene","addr:housenumber":"90064","addr:postcode":"97408","addr:state":"OR","addr:street":"Coburg Road","capacity":"32","fee":"yes","name":"Armitage County Park Campground","operator":"Lane County Parks","payment:cash":"yes","phone":"5416822000","website":"https://reservations.lanecounty.org/"}},"6448260269":{"location":[44.0963889,-123.1126651],"ct":"US","tp":"SD","ts":"2021-09-09T09:29:33Z","tX":161,"tY":371,"tags":{"access":"yes","drinking_water":"no","fee":"no","opening_hours":"24/7","operator":"City of Eugene","sanitary_dump_station:gravity":"yes","sanitary_dump_station:round_drain":"yes","water_point":"yes"}},"9076022490":{"location":[44.0963878,-123.1127364],"ct":"US","tp":"SD","ts":"2021-09-09T09:29:33Z","tX":161,"tY":371,"tags":{"access":"yes","drinking_water":"no","fee":"no","opening_hours":"24/7","operator":"City of Eugene","sanitary_dump_station:gravity":"yes","sanitary_dump_station:round_drain":"yes","water_point":"yes"}},"9821224890":{"location":[44.1196405,-123.319977],"ct":"US","tp":"SD","ts":"2022-06-15T23:23:30Z","tX":161,"tY":371,"tags":{}}}