{"1135557406":{"location":[43.7626187,-123.0863882],"ct":"US","tp":"CR","ts":"2024-04-03T06:53:13Z","tX":161,"tY":373,"tags":{"addr:city":"Cottage Grove","addr:housenumber":"77440","addr:postcode":"97424","addr:state":"OR","addr:street":"Highway 99","contact:facebook":"LeGacy-Park-RV-Park-102378588137096/","contact:instagram":"legacypark_oregon_","name":"Legacy Park","phone":"+1 541 767 0797","power_supply":"yes","sanitary_dump_station":"yes"}},"1154406021":{"location":[43.7767772,-123.0747808],"ct":"US","tp":"CR","ts":"2023-08-15T20:37:29Z","tX":161,"tY":373,"tags":{"addr:city":"Cottage Grove","addr:housenumber":"77940","addr:postcode":"97424","addr:state":"OR","addr:street":"South Pacific Highway"}},"1154463451":{"location":[43.7212377,-123.2138586],"ct":"US","tp":"CS","ts":"2023-03-15T09:40:19Z","tX":161,"tY":373,"tags":{"addr:city":"Cottage Grove","addr:housenumber":"1435","addr:postcode":"97424","addr:state":"OR","addr:street":"Curtin Road","name":"Lucky Duck Campground","phone":"+1 541 767 3385"}},"1267471432":{"location":[43.6957281,-123.0652054],"ct":"US","tp":"CS","ts":"2024-03-29T15:03:25Z","tX":161,"tY":373,"tags":{"static_caravans":"no"}},"1267478606":{"location":[43.7019955,-123.0565226],"ct":"US","tp":"CS","ts":"2024-03-29T15:25:49Z","tX":161,"tY":373,"tags":{"static_caravans":"no"}}}