{"253274103":{"location":[38.4505654,-123.0548886],"ct":"US","tp":"CR","ts":"2024-03-27T18:59:32Z","tX":161,"tY":393,"tags":{"addr:city":"Duncans Mills","addr:country":"US","addr:housenumber":"25387","addr:postcode":"95430","addr:state":"CA","addr:street":"Steelhead Boulevard","capacity":"125","name":"Duncans Mills Camping Club on the Russian River","phone":"888-422-6736","website":"http://duncanscampclub.com/"}},"253277756":{"location":[38.4614084,-123.0486702],"ct":"US","tp":"CR","ts":"2023-09-18T14:50:40Z","tX":161,"tY":393,"tags":{"addr:city":"Duncans Mills","addr:country":"US","addr:housenumber":"22855","addr:state":"CA","addr:street":"Moscow Road","capacity":"225","email":"reservations@casiniranch.com","fee":"yes","internet_access":"yes","name":"Casini Ranch Family Campground","phone":"800-451-8400","toilets:wheelchair":"no","website":"https://casiniranch.com/","wheelchair":"limited"}},"318155070":{"location":[38.4234687,-123.0671847],"ct":"US","tp":"CS","ts":"2020-12-21T17:57:12Z","tX":161,"tY":393,"tags":{"name":"Pomo Canyon Environmental Campground"}},"836642278":{"location":[38.3080336,-123.0542019],"ct":"US","tp":"CS","ts":"2024-05-26T02:48:45Z","tX":161,"tY":393,"tags":{"access":"permit","capacity:caravans":"47","caravans":"yes","name":"Jetty Campground","tents":"no"}},"836642280":{"location":[38.3134421,-123.0482579],"ct":"US","tp":"CS","ts":"2020-10-22T23:27:34Z","tX":161,"tY":393,"tags":{}},"968653409":{"location":[38.3399083,-123.050027],"ct":"US","tp":"CR","ts":"2023-09-02T04:29:58Z","tX":161,"tY":393,"tags":{"name":"Bodega Bay RV Park"}},"976700194":{"location":[38.3342139,-123.050952],"ct":"US","tp":"CR","ts":"2023-07-16T20:59:42Z","tX":161,"tY":393,"tags":{"name":"Porto Bodega Marina"}},"1181496393":{"location":[38.5153251,-123.0717369],"ct":"US","tp":"CS","ts":"2023-06-12T22:51:28Z","tX":161,"tY":393,"tags":{"addr:city":"Cazadero","addr:housenumber":"4600","addr:postcode":"95421","addr:state":"CA","addr:street":"Scanlon Road","name":"Camp Royaneh","website":"CAMPROYANEH.ORG"}},"1438451149":{"location":[38.3218454,-123.0558393],"ct":"US","tp":"CS","ts":"2019-10-30T01:56:49Z","tX":161,"tY":393,"tags":{"addr:housenumber":"400","addr:street":"Westshore Road","name":"Westside Regional Park Campground"}},"3474106925":{"location":[38.3419935,-123.0568162],"ct":"US","tp":"CS","ts":"2018-08-11T21:28:01Z","tX":161,"tY":393,"tags":{"addr:housenumber":"2485","addr:postcode":"94923","addr:street":"Coast Highway","name":"Bodega Dunes Campground","operator":"Sonoma Coast State Park"}},"8942293918":{"location":[38.5455228,-123.2946905],"ct":"US","tp":"CS","ts":"2021-07-22T18:46:31Z","tX":161,"tY":393,"tags":{"name":"Hiker biker campsite"}},"9797502681":{"location":[38.4001449,-123.0950133],"ct":"US","tp":"CS","ts":"2023-12-31T07:18:21Z","tX":161,"tY":393,"tags":{"caravans":"yes","fee":"yes","name":"Wright's Beach Campground","tents":"yes"}},"8961841609":{"location":[38.3418145,-123.0570598],"ct":"US","tp":"SD","ts":"2022-03-30T17:53:36Z","tX":161,"tY":393,"tags":{}},"9624920845":{"location":[38.3111046,-123.0527019],"ct":"US","tp":"SD","ts":"2022-03-30T20:59:00Z","tX":161,"tY":393,"tags":{}}}