{"409636594":{"location":[34.7058542,135.2757408],"ct":"JP","tp":"SD","ts":"2019-11-11T23:33:22Z","tX":896,"tY":406,"tags":{"name":"神戸市役所環境局 事業部東クリーンセンター"}},"431204419":{"location":[34.7143325,135.1122103],"ct":"JP","tp":"CS","ts":"2024-10-10T04:20:39Z","tX":896,"tY":406,"tags":{"name":"オートキャンプ場","name:en":"Auto-Campground","name:ko":"오토 캠핑장","name:zh-Hans-CN":"房车露营地","name:zh-Hant-TW":"房車露營地"}},"431324774":{"location":[34.7080417,135.1084099],"ct":"JP","tp":"CS","ts":"2024-10-10T04:20:39Z","tX":896,"tY":406,"tags":{"name":"テントキャンプ場","name:en":"Campground","name:ko":"텐트 캠핑장","name:zh-Hans-CN":"帐篷露营地","name:zh-Hant-TW":"帳篷露營地"}},"1223990981":{"location":[34.7725404,135.1433706],"ct":"JP","tp":"CS","ts":"2023-11-16T02:22:51Z","tX":896,"tY":406,"tags":{}},"4476444891":{"location":[34.7027407,135.0437266],"ct":"JP","tp":"CS","ts":"2016-11-02T09:47:33Z","tX":896,"tY":406,"tags":{"name":"井吹の森","name:ja":"井吹の森"}},"5572907024":{"location":[34.7105842,135.1952536],"ct":"JP","tp":"CS","ts":"2018-04-23T07:53:46Z","tX":896,"tY":406,"tags":{"name:en":"wild camping (pure cats tho)"}}}