{"11193138253":{"location":[30.1535798,78.3445983],"ct":"IN","tp":"CS","ts":"2023-09-15T11:29:26Z","tX":734,"tY":421,"tags":{"access":"customers","addr:city":"Rishikesh","addr:district":"Dehradun","addr:housenumber":"01","addr:postcode":"249175","addr:street":"Neer to Hindolakhal road Amordhar","backcountry":"yes","capacity:caravans":"10","capacity:persons":"400","capacity:tents":"60","caravans":"yes","description":"This is the most unique campsite of Rishikesh. One who stay here never believes that they are in Rishikesh. Our location is one of the best picturesque area with the Sunrise and Sunset point on the highest peak of Rishikesh.","dog":"leashed","drinking_water":"yes","ele":"1000","email":"mountainwhisper1812@gmail.com","fee":"yes","mobile":"+919811735342","name":"Camp Mountain Whisper, Most Unique Location in Rishikesh","operator":"Gaurav Piplani","payment:app":"yes","payment:cash":"yes","payment:contactless":"yes","payment:electronic_purses":"yes","static_caravans":"yes","tents":"yes"}},"11738716702":{"location":[30.403341,78.3524546],"ct":"IN","tp":"CS","ts":"2024-03-17T11:49:24Z","tX":734,"tY":421,"tags":{"access":"customers","addr:city":"Kanatal","addr:district":"Uttarakhand","addr:housenumber":"Saud, Village Jadipani,","addr:postcode":"249130","addr:street":"Chamba - Mussoorie Rd","capacity:persons":"30","capacity:tents":"10","caravans":"no","drinking_water":"yes","email":"info@bookacamp.in","image":"https://bookacamp.in/wp-content/uploads/2023/10/MG_5818-FILEminimizer.webp","mobile":"+91 7827719704","name":"Camp Awara","operator":"Book A Camp","power_supply":"yes","reservation":"required","static_caravans":"no","tents":"yes","toilets":"yes","website":"https://bookacamp.in/Campsites/Camp-Awara/"}}}