{"1186473275":{"location":[30.0960725,78.3857393],"ct":"IN","tp":"CS","ts":"2023-07-02T10:39:25Z","tX":734,"tY":422,"tags":{}},"4600301989":{"location":[30.0815915,78.3835228],"ct":"IN","tp":"CS","ts":"2019-03-04T06:43:07Z","tX":734,"tY":422,"tags":{"email":"info@adventuria.in","name":"Adventuria Animal Path","name:en":"Adventuria Animal Path","phone":"9716013332","website":"https://www.adventuria.in/"}},"11019700163":{"location":[30.0962391,78.3862249],"ct":"IN","tp":"CS","ts":"2023-07-02T10:39:25Z","tX":734,"tY":422,"tags":{"access":"customers","addr:city":"Rishikesh","addr:postcode":"249201","addr:street":"Ghattu Ghat, Neelkanth Temple Road, Paliyal Gaon, Uttarakhand","capacity:persons":"120","capacity:tents":"40","caravans":"no","charge":"20 USD","fee":"yes","name":"Soul Tree Camp and Resort","operator":"www.pmnindia.com","payment:american_express":"yes","payment:cash":"yes","payment:visa":"yes","static_caravans":"no","tents":"yes"}},"11738628156":{"location":[30.1090927,78.3801087],"ct":"IN","tp":"CS","ts":"2024-03-17T10:59:40Z","tX":734,"tY":422,"tags":{"access":"customers","addr:city":"Rishikesh","addr:district":"Uttarakhand","addr:housenumber":"Garud Chatti River Resort","addr:postcode":"249302","addr:street":"Ratta Pani, Neelkanth Temple Rd","capacity:persons":"59","capacity:tents":"17","caravans":"no","drinking_water":"yes","email":"info@bookacamp.in","image":"https://bookacamp.in/wp-content/uploads/2023/10/MG_6337-_FILEminimizer_.webp","mobile":"+91 7827719704","name":"Garud Chatti River Resort, Book A Camp 003","operator":"Book A Camp","power_supply":"yes","reservation":"required","static_caravans":"no","tents":"yes","toilets":"yes","website":"https://bookacamp.in/Campsites/Garud-Chatti-River-Resort/"}},"11740072807":{"location":[30.1408022,78.3821012],"ct":"IN","tp":"CS","ts":"2024-03-18T02:35:05Z","tX":734,"tY":422,"tags":{"access":"customers","addr:city":"Rishikesh","addr:district":"Uttarakhand","addr:housenumber":"Village badal","addr:postcode":"249175","addr:street":"Shivpuri","capacity:persons":"150","capacity:tents":"30","caravans":"no","drinking_water":"yes","email":"info@bookacamp.in","fee":"no","image":"https://bookacamp.in/wp-content/uploads/2023/10/MG_6007-FILEminimizer-1.webp","mobile":"+91 7827719704","name":"Stay in Camp, Book A Camp 007","operator":"Book A Camp","power_supply":"yes","reservation":"required","static_caravans":"no","tents":"yes","toilets":"yes","website":"https://bookacamp.in/Campsites/Stay-In-Camp/"}},"11775316624":{"location":[30.1374413,78.3921432],"ct":"IN","tp":"CS","ts":"2024-03-31T12:37:30Z","tX":734,"tY":422,"tags":{"access":"customers","addr:city":"Rishikesh","addr:district":"Uttarakhand","addr:housenumber":"Nearear Ganga zip line","addr:postcode":"249192","addr:street":"Shivpuri","capacity:persons":"40","capacity:tents":"10","drinking_water":"yes","email":"info@bookacamp.in","image":"https://bookacamp.in/wp-content/uploads/2024/03/lawn-1.webp","mobile":"+91 7827719704","name":"Himalayan Walker, Book A Camp 006","operator":"Book A Camp","power_supply":"yes","reservation":"required","tents":"yes","toilets":"yes","website":"https://bookacamp.in/hotels/himalayan-walker/"}}}