{"466311096":{"location":[-37.5914755,147.3528155],"ct":"AU","tp":"CS","ts":"2024-01-20T10:25:28Z","tX":931,"tY":627,"tags":{"addr:city":"Angusvale","addr:place":"Angusvale Camp Site","addr:street":"Angusvale Track","internet_access":"no","internet_access:fee":"no","name":"Angusvale Camp Ground"}},"823380388":{"location":[-37.7115595,147.364365],"ct":"AU","tp":"CS","ts":"2020-07-06T09:35:28Z","tX":931,"tY":627,"tags":{"addr:housenumber":"345","addr:postcode":"3875","addr:state":"VIC","addr:street":"Dunbars Road","addr:suburb":"Iguana Creek","name":"Echo Bend Camp Site"}},"1022225853":{"location":[-37.4463517,147.5270395],"ct":"AU","tp":"CS","ts":"2022-03-18T10:25:10Z","tX":931,"tY":627,"tags":{"access":"yes","description":"This site contains an historic hut built in the 1950's for timber workers accommodation (was burnt in fires and rebuilt). The hut is located next to the Nicholson River and has a toilet, picnic table and fire pit. There is plenty of space for camping. The","fee":"no","name":"Marthavale Hut","operator":"DELWP Bairnsdale","source":"DELWP"}},"1240332843":{"location":[-37.5706,147.3513236],"ct":"AU","tp":"CS","ts":"2024-01-17T01:01:54Z","tX":931,"tY":627,"tags":{"access":"yes","caravans":"no","fee":"no","name":"Scotts Homstead Camping Area","operator":"Parks Victoria","static_caravans":"no","tents":"no"}},"2612749250":{"location":[-37.6672372,147.3687018],"ct":"AU","tp":"CS","ts":"2017-04-02T07:26:39Z","tX":931,"tY":627,"tags":{"name":"Billy Goat Bend Camp Site","operator":"Parks Victoria","sanitary_dump_station":"no","wheelchair":"no"}},"4756269402":{"location":[-37.6324769,147.3698108],"ct":"AU","tp":"CS","ts":"2024-01-16T23:56:14Z","tX":931,"tY":627,"tags":{"access":"yes","backcountry":"yes","caravans":"no","fee":"no","name":"Jurgensons Point Campsite","sanitary_dump_station":"no","static_caravans":"no","tents":"yes","wheelchair":"no"}},"4756284375":{"location":[-37.6023091,147.3388734],"ct":"AU","tp":"CS","ts":"2024-01-16T23:56:14Z","tX":931,"tY":627,"tags":{"internet_access":"no","internet_access:fee":"no","name":"Slalom Rapids Campsite","operator":"Parks Victoria","sanitary_dump_station":"no","smoking":"no","source":"knowledge","wheelchair":"no"}},"9587512132":{"location":[-37.7030908,147.5836976],"ct":"AU","tp":"CS","ts":"2022-03-18T10:25:10Z","tX":931,"tY":627,"tags":{"access":"yes","description":"Open camping and picnic area set amongst tall eucalypt trees. This location is central to the Mt Taylor mountain bike trails.","fee":"no","name":"Mount Taylor","operator":"DELWP Bairnsdale","source":"DELWP"}}}