{"261011063":{"location":[-42.8312233,147.4937383],"ct":"AU","tp":"CR","ts":"2019-10-14T11:09:50Z","tX":931,"tY":647,"tags":{"addr:housenumber":"2","addr:postcode":"7170","addr:state":"TAS","addr:street":"Flight Street","addr:suburb":"Cambridge","name":"Hobart Airport Big4 Caravan Park","website":"https://www.big4.com.au/caravan-parks/tas/hobart-surrounds/hobart-airport-tourist-park"}},"317913191":{"location":[-42.8326548,147.4454449],"ct":"AU","tp":"CR","ts":"2023-02-06T10:56:25Z","tX":931,"tY":647,"tags":{"addr:housenumber":"75","addr:postcode":"7170","addr:state":"TAS","addr:street":"Richmond Road","addr:suburb":"Cambridge","name":"Barilla Holiday Park"}},"715661722":{"location":[-42.814918,147.3376983],"ct":"AU","tp":"CR","ts":"2022-01-20T05:32:47Z","tX":931,"tY":647,"tags":{"name":"Hobart Discovery Holiday Park"}},"1180552342":{"location":[-42.891659,147.4980009],"ct":"AU","tp":"CS","ts":"2023-06-09T00:09:04Z","tX":931,"tY":647,"tags":{"addr:housenumber":"146","addr:postcode":"7170","addr:state":"TAS","addr:street":"Roches Beach Road","addr:suburb":"Roches Beach","name":"Orana Girls Guides"}},"1811195791":{"location":[-43.02944,147.42806],"ct":"AU","tp":"CS","ts":"2012-07-03T12:14:33Z","tX":931,"tY":647,"tags":{"name":"South Arm Rsl"}},"5416287822":{"location":[-42.8557621,147.6552208],"ct":"AU","tp":"CS","ts":"2023-11-14T04:17:34Z","tX":931,"tY":647,"tags":{"addr:housenumber":"179","addr:postcode":"7173","addr:state":"TAS","addr:street":"Josephs Road","addr:suburb":"Carlton","contact:facebook":"https://m.facebook.com/EldeeCampSpot/","name":"Eldee Campspot","name_1":"Eldee Camp Spot","phone":"+61 438 135 647"}},"6141469595":{"location":[-43.0267814,147.4282739],"ct":"AU","tp":"CS","ts":"2018-12-17T02:01:31Z","tX":931,"tY":647,"tags":{"name":"South Arm Cabin Retreat"}},"7129500987":{"location":[-42.9485173,147.3277594],"ct":"AU","tp":"CS","ts":"2021-11-06T09:30:36Z","tX":931,"tY":647,"tags":{"access":"permissive","name":"Top of the Lea"}},"9100123992":{"location":[-42.9743036,147.3137663],"ct":"AU","tp":"SD","ts":"2021-10-23T06:31:37Z","tX":931,"tY":647,"tags":{}}}