{"161920603":{"location":[47.4426117,-64.9346653],"ct":"CA","tp":"CS","ts":"2025-03-20T19:13:45Z","tX":327,"tY":358,"tags":{"addr:city":"Rivi√®re-du-Portage","addr:country":"CA","addr:housenumber":"5903","addr:postcode":"E9H 1W7","addr:street":"Route 11","caravans":"yes","motorhome":"yes","name":"Tracadie-Beach Camping","phone":"+1 506 3954010","source":"NRCan-CanVec-10.0","tents":"no"}},"1369766850":{"location":[47.4726264,-64.8733888],"ct":"CA","tp":"CS","ts":"2025-03-20T20:30:32Z","tX":327,"tY":358,"tags":{"addr:city":"Val-Comeau","addr:country":"CA","addr:housenumber":"504","addr:postcode":"E1X 1H1","addr:street":"Chemin du Parc de Val-Comeau","email":"campingvalcomeau@nb.aibn.com","fax":"+1 506 3936240","name":"Camping Val-Comeau","phone":"+1 506 3937150; +1 855 3937150","website":"http://camping-valcomeau.sn2000.nb.ca"}},"1369795696":{"location":[47.3477774,-65.0294429],"ct":"CA","tp":"CS","ts":"2025-03-20T22:26:53Z","tX":327,"tY":358,"tags":{"addr:city":"Tabusintac","addr:country":"CA","addr:housenumber":"119","addr:postcode":"E9H 2B8","addr:street":"J. McKenzie Road","cabins":"yes","caravans":"yes","email":"info@campoceanriver.com","motorhome":"yes","name":"Ocean River RV Resort","phone":"+1 855 5501558","tents":"yes","website":"https://www.campoceanriver.com"}},"1737821822":{"location":[47.348164,-65.0291383],"ct":"CA","tp":"CS","ts":"2012-05-01T23:17:56Z","tX":327,"tY":358,"tags":{"source":"NRCan-CanVec-10.0"}},"1738700562":{"location":[47.471014,-64.8741554],"ct":"CA","tp":"CS","ts":"2012-05-02T21:48:28Z","tX":327,"tY":358,"tags":{"source":"NRCan-CanVec-10.0"}},"1738700946":{"location":[47.4732518,-64.8728193],"ct":"CA","tp":"CS","ts":"2012-05-02T21:48:40Z","tX":327,"tY":358,"tags":{"source":"NRCan-CanVec-10.0"}},"12685865135":{"location":[47.3481536,-65.0287655],"ct":"CA","tp":"SD","ts":"2025-03-20T22:26:53Z","tX":327,"tY":358,"tags":{}}}