{"19224051":{"location":[45.6030265,-64.9382686],"ct":"CA","tp":"CR","ts":"2025-06-08T02:45:55Z","tX":327,"tY":365,"tags":{"addr:city":"Alma","addr:country":"CA","addr:housenumber":"41","addr:street":"Forest Drive","email":"vistaridgecottages@hotmail.com","internet_access":"wlan","name":"Vista Ridge","phone":"+1 506 8872808; +1 877 8872808","power_supply":"yes","sanitary_dump_station":"yes","website":"https://www.fundyparkchalets.com"}},"73564964":{"location":[45.606018,-64.9828233],"ct":"CA","tp":"CS","ts":"2024-05-29T16:58:22Z","tX":327,"tY":365,"tags":{"addr:city":"Fundy National Park","addr:country":"CA","addr:housenumber":"882","addr:postcode":"E4H 4V5","addr:street":"Route 114","capacity:pitches":"263","caravans":"yes","motorhome":"yes","name":"Chignecto Campground","operator":"Parks Canada","phone":"+1 519 8265391","tents":"yes","website":"https://parks.canada.ca/pn-np/nb/fundy/activ/camping/chignecto"}},"148160516":{"location":[45.5988101,-64.9511785],"ct":"CA","tp":"CS","ts":"2023-05-30T12:28:14Z","tX":327,"tY":365,"tags":{"addr:city":"Fundy National Park","addr:housenumber":"11","addr:postcode":"E4H 4S7","addr:province":"NB","addr:street":"Headquarters Campground Road","capacity":"117","caravans":"yes","fee":"yes","name":"Headquarters Campground","operator":"Fundy National Park","source":"NRCan-CanVec-8.0","tents":"yes","website":"https://parks.canada.ca/pn-np/nb/fundy/activ/camping/administration-headquarters"}},"850677281":{"location":[45.603026,-64.9382825],"ct":"CA","tp":"CR","ts":"2024-05-26T13:22:29Z","tX":327,"tY":365,"tags":{"addr:city":"Alma","addr:country":"CA","addr:housenumber":"41","addr:street":"Forest Drive","email":"vistaridgecottages@hotmail.com","internet_access":"wlan","name":"Vista Ridge","phone":"+1 506 8872808; +1 877 8872808","power_supply":"yes","sanitary_dump_station":"yes","website":"https://www.fundyparkchalets.com"}},"1136751261":{"location":[45.5926766,-64.9549302],"ct":"CA","tp":"CS","ts":"2023-01-31T16:00:28Z","tX":327,"tY":365,"tags":{"name":"Cannontown Campground"}},"1370888593":{"location":[45.645774,-64.8360262],"ct":"CA","tp":"CS","ts":"2025-03-24T14:15:03Z","tX":327,"tY":365,"tags":{"name":"West River Camping"}},"3647855480":{"location":[45.5995945,-64.9516394],"ct":"CA","tp":"SD","ts":"2015-07-12T19:52:46Z","tX":327,"tY":365,"tags":{"sanitary_dump_station:round_drain":"yes"}},"3781536764":{"location":[45.8242121,-64.8906664],"ct":"CA","tp":"CS","ts":"2015-10-11T01:32:57Z","tX":327,"tY":365,"tags":{}},"4947583921":{"location":[45.6923991,-64.707248],"ct":"CA","tp":"CR","ts":"2017-07-02T20:16:20Z","tX":327,"tY":365,"tags":{"name":"The Shire","name:en":"The Shire"}},"11942492638":{"location":[45.6044155,-64.9847637],"ct":"CA","tp":"SD","ts":"2024-05-29T15:32:32Z","tX":327,"tY":365,"tags":{}}}