{"148121673":{"location":[45.553091,-65.0170069],"ct":"CA","tp":"CS","ts":"2024-05-26T08:06:09Z","tX":327,"tY":366,"tags":{"addr:city":"Fundy National Park","addr:housenumber":"810","addr:postcode":"E4H 4T7","addr:province":"NB","addr:street":"Point Wolfe Road","capacity":"155","caravans":"yes","fee":"yes","name":"Point Wolfe Campground","operator":"Fundy National Park","source":"NRCan-CanVec-8.0","tents":"yes","website":"https://parks.canada.ca/pn-np/nb/fundy/activ/camping/pointwolfe"}},"241735759":{"location":[45.3393207,-64.7743942],"ct":"CA","tp":"CS","ts":"2020-08-06T14:38:13Z","tX":327,"tY":366,"tags":{"source":"NRCan-CanVec-10.0"}},"3612708877":{"location":[45.5707075,-65.0347053],"ct":"CA","tp":"CS","ts":"2024-05-30T07:10:37Z","tX":327,"tY":366,"tags":{"backcountry":"yes","name":"Foster Brook BackCountry Site"}},"7702045056":{"location":[45.4013186,-64.9239049],"ct":"CA","tp":"CS","ts":"2020-07-10T10:37:35Z","tX":327,"tY":366,"tags":{}},"7702047429":{"location":[45.3558098,-64.9350782],"ct":"CA","tp":"CS","ts":"2020-07-10T10:37:35Z","tX":327,"tY":366,"tags":{}},"7702051153":{"location":[45.3400552,-64.9071857],"ct":"CA","tp":"CS","ts":"2020-07-10T10:37:36Z","tX":327,"tY":366,"tags":{"name":"Refugee Cove"}},"5081613721":{"location":[45.3556816,-64.7104104],"ct":"CA","tp":"CR","ts":"2018-06-20T14:47:11Z","tX":327,"tY":366,"tags":{"name":"Old Shipyard Beach Campground","name:en":"Old Shipyard Beach Campground","phone":"+1-902-392-2487"}}}