{"81344510":{"location":[39.418672,-86.8966351],"ct":"US","tp":"CS","ts":"2021-05-23T21:44:37Z","tX":264,"tY":389,"tags":{"addr:city":"Poland","addr:housenumber":"7301","addr:postcode":"47868","addr:state":"IN","addr:street":"Wasatch Lake Rd","cabins":"yes","name":"Wasatch Lake","phone":"+1-317-488-7373","tents":"no","website":"https://www.wasatchlake.com/"}},"775339420":{"location":[39.6392162,-87.0589609],"ct":"US","tp":"CS","ts":"2020-02-21T16:57:27Z","tX":264,"tY":389,"tags":{}},"969126924":{"location":[39.3995458,-86.8573093],"ct":"US","tp":"CS","ts":"2013-02-21T03:58:50Z","tX":264,"tY":389,"tags":{"name":"Cataract Void Campground"}},"1220667610":{"location":[39.3691251,-86.8571021],"ct":"US","tp":"CS","ts":"2023-11-04T04:08:16Z","tX":264,"tY":389,"tags":{"name":"Horseman's Campground"}},"1308690710":{"location":[39.4831022,-86.8852037],"ct":"US","tp":"CS","ts":"2024-08-18T23:29:19Z","tX":264,"tY":389,"tags":{}},"1308690721":{"location":[39.4827913,-86.8782227],"ct":"US","tp":"CS","ts":"2024-08-18T23:29:19Z","tX":264,"tY":389,"tags":{}},"1685443703":{"location":[39.4846455,-86.8823453],"ct":"US","tp":"CS","ts":"2012-03-22T05:44:03Z","tX":264,"tY":389,"tags":{"name":"Campground Entrance"}},"12119276187":{"location":[39.4839507,-86.8800327],"ct":"US","tp":"CS","ts":"2024-08-18T23:29:19Z","tX":264,"tY":389,"tags":{}}}