{"1299608355":{"location":[38.1243842,-86.9168222],"ct":"US","tp":"CS","ts":"2024-07-06T23:06:34Z","tX":264,"tY":394,"tags":{"addr:city":"Santa Claus","addr:housenumber":"78","addr:postcode":"47579","addr:state":"IN","addr:street":"Holiday Blvd","caravans":"yes","fee":"yes","name":"Sun Outdoors Lake Rudolph","operator":"Sun Outdoors","static_caravans":"no","tents":"yes"}},"1699105062":{"location":[38.1072238,-86.9927896],"ct":"US","tp":"CS","ts":"2024-08-12T13:24:18Z","tX":264,"tY":394,"tags":{"name":"Lincoln State Park campground gatehouse"}},"1699119131":{"location":[38.1048769,-86.9921512],"ct":"US","tp":"CS","ts":"2012-03-31T04:58:55Z","tX":264,"tY":394,"tags":{"name":"Lake Lincoln Campground"}},"1699119136":{"location":[38.1062908,-86.9900915],"ct":"US","tp":"CS","ts":"2012-03-31T04:58:55Z","tX":264,"tY":394,"tags":{"name":"Buckhorn Primitive Campground/ Youth Tent Area"}},"1699119140":{"location":[38.1094863,-86.9934068],"ct":"US","tp":"CS","ts":"2012-03-31T04:58:55Z","tX":264,"tY":394,"tags":{"name":"Gobbler's Run Non-electric Campground"}}}