{"7656986":{"location":[34.697472,-87.1570348],"ct":"US","tp":"CS","ts":"2019-02-18T13:28:47Z","tX":264,"tY":406,"tags":{"addr:city":"Hillsboro","addr:housenumber":"44","addr:state":"AL","addr:street":"County Road 443","caravans":"yes","fee":"yes","name":"Wheeler Lake Campground at Mallard Creek KOA","old_name":"Mallard Creek Campground","opening_hours":"Mar-Nov unknown; Dec-Feb closed","phone":"+1-256-280-4390","tents":"yes","website":"https://www.wheelerlakecampground.com/"}},"11646639":{"location":[34.6241825,-87.0086128],"ct":"US","tp":"CR","ts":"2020-09-20T05:46:35Z","tX":264,"tY":406,"tags":{"addr:city":"Decatur","addr:housenumber":"1600","addr:postcode":"35601","addr:state":"AL","addr:street":"AL Highway 20","capacity":"33","contact:email":"jlmarina@aol.com","contact:phone":"+1-256-350-4722","fee":"yes","internet_access":"wlan","internet_access:fee":"no","name":"Jay Landings RV Park","power_supply":"yes","website":"https://www.jaylandingsrvpark.com/"}},"441629215":{"location":[34.687171,-87.0703082],"ct":"US","tp":"CR","ts":"2023-10-27T20:27:32Z","tX":264,"tY":406,"tags":{"addr:city":"Athens","addr:housenumber":"8700","addr:postcode":"35611","addr:state":"AL","addr:street":"Cowford Road","capacity":"52","dog":"leashed;clean","drinking_water":"yes","facebook":"https://www.facebook.com/Cowford-Campground-168768816476128/","fee":"yes","name":"Cowford Campground","operator":"Limestone County Parks and Recreation Department","power_supply":"yes","tents":"no","website":"https://limestonecounty-al.gov/departments/parks-and-recreation/cowford-campground/"}},"441641077":{"location":[34.8474204,-87.115873],"ct":"US","tp":"CR","ts":"2016-10-07T19:39:47Z","tX":264,"tY":406,"tags":{"addr:city":"Athens","addr:housenumber":"11155","addr:state":"AL","addr:street":"Elk River Mills Road","capacity":"23","name":"Sportsman's Park"}},"442636370":{"location":[34.8238784,-86.9435754],"ct":"US","tp":"CR","ts":"2017-06-09T20:42:28Z","tX":264,"tY":406,"tags":{"addr:city":"Athens","addr:housenumber":"1757","addr:postcode":"35611","addr:state":"AL","addr:street":"US Highway 31 North","capacity":"23","dog":"leashed","fee":"yes","internet_access":"wlan","name":"Northgate RV Travel Park","payment:cash":"yes","payment:cheque":"yes","payment:credit_cards":"no","payment:debit_cards":"no","phone":"+1-256-232-8800","power_supply":"yes","website":"http://www.alabamarvtravel.com/"}},"534660205":{"location":[34.7082335,-86.9546507],"ct":"US","tp":"CR","ts":"2017-10-23T21:06:02Z","tX":264,"tY":406,"tags":{"addr:city":"Tanner","addr:housenumber":"10420","addr:postcode":"35671","addr:state":"AL","addr:street":"US Highway 31","fee":"yes","internet_access":"wlan","name":"Swan Creek Manufactured Home Community RV Park"}},"534666020":{"location":[34.8018133,-87.1382633],"ct":"US","tp":"CR","ts":"2019-02-07T20:54:06Z","tX":264,"tY":406,"tags":{"addr:city":"Athens","addr:housenumber":"10211","addr:state":"AL","addr:street":"US Highway 72","name":"T's Outback","phone":"+1-256-431-4761"}}}