{"431336837":{"location":[34.0738997,-86.8636124],"ct":"US","tp":"PK","ts":"2017-06-04T15:02:01Z","tX":264,"tY":408,"tags":{"capacity:hgv":"yes","fee":"no","goods":"yes","hgv":"yes","motorhome":"yes","name":"Truck/RV Parking","operator":"AL DOT","park_ride":"no","parking":"surface","surface":"paved","tourist_bus":"yes"}},"431336840":{"location":[34.0750733,-86.8643603],"ct":"US","tp":"PK","ts":"2017-06-04T15:02:01Z","tX":264,"tY":408,"tags":{"capacity:hgv":"yes","fee":"no","goods":"yes","hgv":"yes","motorhome":"yes","name":"Truck/RV Parking","park_ride":"no","parking":"surface","surface":"asphalt","tourist_bus":"yes"}},"533918608":{"location":[34.2136373,-86.9052783],"ct":"US","tp":"CS","ts":"2017-10-21T00:02:39Z","tX":264,"tY":408,"tags":{"addr:city":"Cullman","addr:housenumber":"220","addr:postcode":"35057","addr:state":"AL","addr:street":"County Road 1185","caravans":"yes","fee":"yes","internet_access":"wlan","name":"Cullman Campground","tents":"yes"}},"601322983":{"location":[34.0785726,-86.953247],"ct":"US","tp":"CS","ts":"2022-05-24T17:14:34Z","tX":264,"tY":408,"tags":{"cabins":"yes","capacity":"30","caravans":"yes","drinking_water":"yes","fee":"yes","name":"Smith Lake Park Campground","sanitary_dump_station":"yes","shelter_type":"pavilion","shower":"yes","tents":"yes","toilets":"yes","website":"http://www.cullmancountyparks.com/smithlake.html"}},"1080976229":{"location":[34.0904615,-86.95079],"ct":"US","tp":"CS","ts":"2022-07-24T16:47:04Z","tX":264,"tY":408,"tags":{"addr:housenumber":"277","addr:street":"County Road 307","name":"Ryans Creek RV Resort","website":"https://ryans-creek-rv-resort.edan.io/"}},"1080977766":{"location":[34.0802368,-86.9735783],"ct":"US","tp":"CS","ts":"2022-07-24T16:54:12Z","tX":264,"tY":408,"tags":{"name":"Speegle's Campground"}},"1080977906":{"location":[34.0776847,-86.9791797],"ct":"US","tp":"CS","ts":"2022-07-24T16:55:14Z","tX":264,"tY":408,"tags":{"name":"Brag Patch RV Park"}},"4404500592":{"location":[34.0733079,-86.8632222],"ct":"US","tp":"SD","ts":"2016-09-16T17:34:08Z","tX":264,"tY":408,"tags":{}},"4404500593":{"location":[34.075754,-86.8645881],"ct":"US","tp":"SD","ts":"2016-09-16T17:34:08Z","tX":264,"tY":408,"tags":{}}}