{"416679238":{"location":[47.7931861,-117.5681405],"ct":"US","tp":"CS","ts":"2021-06-23T07:42:27Z","tX":177,"tY":356,"tags":{"addr:city":"Nine Mile Falls","addr:housenumber":"11226","addr:postcode":"99026","addr:state":"WA","addr:street":"West Charles Road","capacity":"23","caravans":"yes","internet_access":"no","name":"Nine Mile Campground","operator":"Washington State Parks","phone":"+1-509-468-2286","tents":"yes"}},"427324279":{"location":[47.8874615,-117.4394882],"ct":"US","tp":"CS","ts":"2024-09-03T02:00:34Z","tX":177,"tY":356,"tags":{"capacity":"22","caravans":"yes","ele":"586","fee":"yes","gnis:feature_id":"1504531","internet_access":"no","name":"Dragoon Creek Campground","operator":"Washington Department of Natural Resources","phone":"+1-509-684-7474","sanitary_dump_station":"no","tents":"yes","website":"http://www.dnr.wa.gov/LittlePendOreille#dragoon"}},"438250247":{"location":[47.8352924,-117.7647377],"ct":"US","tp":"CS","ts":"2016-08-21T09:03:45Z","tX":177,"tY":356,"tags":{"capacity":"11","internet_access":"no","name":"Lake Spokane Campground","operator":"Riverside State Park","tents":"yes"}},"813810614":{"location":[47.8813683,-117.657999],"ct":"US","tp":"CR","ts":"2020-06-08T07:39:33Z","tX":177,"tY":356,"tags":{"name":"Willow Bay Resort and Marina"}},"1189908294":{"location":[47.971413,-117.4486201],"ct":"US","tp":"CR","ts":"2023-07-15T23:28:07Z","tX":177,"tY":356,"tags":{"name":"Deer Park RV Resort"}},"4826424536":{"location":[47.7928244,-117.5674452],"ct":"US","tp":"SD","ts":"2017-04-30T06:09:02Z","tX":177,"tY":356,"tags":{"access":"yes","fee":"yes","operator":"Washington State Parks"}}}