{"5849951":{"location":[47.6954276,-117.4909459],"ct":"US","tp":"CS","ts":"2019-08-19T06:51:59Z","tX":177,"tY":357,"tags":{"caravans":"yes","fee":"yes","internet_access":"no","name":"Bowl and Pitcher Campground","operator":"Riverside State Park","sanitary_dump_station":"yes","tents":"yes"}},"393296025":{"location":[47.6889653,-117.4901632],"ct":"US","tp":"CS","ts":"2024-03-18T19:52:10Z","tX":177,"tY":357,"tags":{"capacity":"20","fee":"yes","internet_access":"no","name":"Equestrian Campground","operator":"Riverside State Park","sanitary_dump_station":"no","smoking":"no"}},"442979705":{"location":[47.6237456,-117.6641635],"ct":"US","tp":"CR","ts":"2023-11-17T15:16:48Z","tX":177,"tY":357,"tags":{"access":"private","addr:housenumber":"1310","addr:state":"WA","addr:street":"West El Paso Avenue","name":"FamCamp","website":"https://fairchildfun.com/famcamp.html"}},"443834801":{"location":[47.5832252,-117.542908],"ct":"US","tp":"CS","ts":"2023-11-04T04:08:49Z","tX":177,"tY":357,"tags":{}},"470484031":{"location":[47.5733793,-117.6522652],"ct":"US","tp":"CS","ts":"2017-01-31T15:51:17Z","tX":177,"tY":357,"tags":{"addr:city":"Medical Lake","addr:housenumber":"17207","addr:postcode":"99022","addr:state":"WA","addr:street":"West Medical Lake Four Lakes Road","building":"yes","name":"Ruby's"}},"470484032":{"location":[47.5734539,-117.6521917],"ct":"US","tp":"CS","ts":"2019-01-02T22:32:05Z","tX":177,"tY":357,"tags":{"addr:city":"Medical Lake","addr:housenumber":"17207","addr:postcode":"99022","addr:state":"WA","addr:street":"West Medical Lake Four Lakes Road","name":"Ruby's On Silver Lake"}},"884572154":{"location":[47.6530325,-117.5650655],"ct":"US","tp":"CR","ts":"2024-01-15T01:56:34Z","tX":177,"tY":357,"tags":{"addr:city":"Airway Heights","addr:housenumber":"303","addr:postcode":"99001","addr:state":"WA","addr:street":"South Kalispel Way","internet_access":"wlan","internet_access:fee":"customers","name":"Nothern Quest RV Resort","power_supply":"yes","reservation":"required","sanitary_dump_station":"yes"}},"910104850":{"location":[47.5940202,-117.5642186],"ct":"US","tp":"CR","ts":"2021-02-23T18:22:31Z","tX":177,"tY":357,"tags":{"addr:city":"Spokane","addr:housenumber":"10711","addr:state":"WA","addr:street":"West Geiger Boulevard","capacity":"30","name":"Overland Station RV Park","power_supply":"yes"}},"3938830976":{"location":[47.6961168,-117.4940334],"ct":"US","tp":"SD","ts":"2022-03-12T23:07:45Z","tX":177,"tY":357,"tags":{"operator":"Riverside State Park"}}}