{"397516589":{"location":[34.2599739,-117.4926524],"ct":"US","tp":"CS","ts":"2022-06-22T20:12:57Z","tX":177,"tY":408,"tags":{"camp_site":"standard","caravans":"yes","drinking_water":"yes","impromptu":"yes","name":"Applewhite Campground","operator":"USFS","reservation":"yes","toilets":"yes"}},"408075798":{"location":[34.0895426,-117.7680085],"ct":"US","tp":"CR","ts":"2024-05-20T03:46:55Z","tX":177,"tY":408,"tags":{"addr:city":"Pomona","addr:housenumber":"2209","addr:postcode":"91786","addr:state":"CA","addr:street":"North White Avenue","name":"Fairplex RV Park"}},"408076195":{"location":[34.0893362,-117.7629599],"ct":"US","tp":"CR","ts":"2025-05-13T23:28:24Z","tX":177,"tY":408,"tags":{"addr:city":"Pomona","addr:housenumber":"2200","addr:postcode":"91768","addr:state":"CA","addr:street":"North White Avenue","name":"Fairplex RV Park","phone":"+1 909 593 8915"}},"1102476970":{"location":[34.2518293,-117.4906312],"ct":"US","tp":"CR","ts":"2022-10-10T02:57:25Z","tX":177,"tY":408,"tags":{}},"1174933338":{"location":[34.2422624,-117.76147],"ct":"US","tp":"CS","ts":"2023-05-22T06:17:01Z","tX":177,"tY":408,"tags":{}},"2140972916":{"location":[34.2427476,-117.5798135],"ct":"US","tp":"CS","ts":"2025-05-11T06:30:40Z","tX":177,"tY":408,"tags":{"access":"yes","backcountry":"yes","camp_site":"basic","capacity:persons":"4","capacity:tents":"2","caravans":"no","drinking_water":"no","fee":"no","name":"Commanche","operator":"USFS","static_caravans":"no","tents":"yes"}},"2140972917":{"location":[34.2517789,-117.5514592],"ct":"US","tp":"CS","ts":"2025-05-11T06:30:40Z","tX":177,"tY":408,"tags":{"access":"yes","backcountry":"yes","camp_site":"basic","capacity:persons":"12","capacity:tents":"6","caravans":"no","drinking_water":"no","fee":"no","name":"Stonehouse","operator":"USFS","static_caravans":"no","tents":"yes"}},"2140972918":{"location":[34.2538221,-117.571441],"ct":"US","tp":"CS","ts":"2025-05-11T06:30:40Z","tX":177,"tY":408,"tags":{"access":"yes","backcountry":"yes","camp_site":"basic","capacity:persons":"10","capacity:tents":"4","caravans":"no","drinking_water":"no","fee":"no","name":"Third Stream Crossing","operator":"USFS","static_caravans":"no","tents":"yes"}},"2330729477":{"location":[34.2650721,-117.6309688],"ct":"US","tp":"CS","ts":"2014-11-12T23:39:22Z","tX":177,"tY":408,"tags":{"name":"Manker Flat"}},"3686212311":{"location":[34.2557005,-117.6195673],"ct":"US","tp":"CS","ts":"2019-07-10T15:48:21Z","tX":177,"tY":408,"tags":{"backcountry":"yes","bbq":"no","description":"Water available a little down hill at a (seasonal?) spring. Permits are required.","name":"Cedar Glen Campground","openfire":"no","tents":"yes"}},"4418325698":{"location":[34.2338084,-117.6054205],"ct":"US","tp":"CS","ts":"2018-10-24T15:23:09Z","tX":177,"tY":408,"tags":{"name":"Kelly Camp","place":"locality"}},"6679941649":{"location":[34.2372038,-117.5000511],"ct":"US","tp":"CS","ts":"2023-11-17T03:49:39Z","tX":177,"tY":408,"tags":{"access":"customers","addr:city":"Lytle Creek","addr:housenumber":"900","addr:postcode":"92358","addr:state":"CA","addr:street":"South Fork Road","email":"895bonitaranch@gmail.com","name":"Bonita Ranch Campground","phone":"+1-909-887-3643","website":"https://bonitaranchcampground.com/"}},"9847165963":{"location":[34.2967832,-117.5902319],"ct":"US","tp":"CS","ts":"2022-06-25T23:54:30Z","tX":177,"tY":408,"tags":{"camp_site":"basic","drinking_water":"no","fee":"no","impromptu":"yes","name":"Stockton Flats Yellow Post Sites","openfire":"permit","operator":"US Forest Service","reservation":"no","toilets":"no","website":"https://www.fs.usda.gov/recarea/sbnf/recarea/?recid=34161"}},"11450612841":{"location":[34.2176857,-117.5525765],"ct":"US","tp":"CS","ts":"2023-12-25T00:17:06Z","tX":177,"tY":408,"tags":{"access":"yes","addr:city":"Lytle Creek","addr:postcode":"92358","addr:state":"CA","addr:street":"Big Tree Cucamonga Road","caravans":"no","fee":"no","name":"Joe Elliot Yellow Post Sites","operator":"United States Forest Service","static_caravans":"no","tents":"yes","website":"https://www.fs.usda.gov/recarea/sbnf/recarea/?recid=79407"}}}