{"549747721":{"location":[25.2276438,121.6407762],"ct":"TW","tp":"CS","ts":"2025-03-07T13:53:43Z","tX":858,"tY":437,"tags":{}},"847899808":{"location":[25.1922179,121.6789689],"ct":"TW","tp":"CS","ts":"2025-01-03T02:36:46Z","tX":858,"tY":437,"tags":{"addr:city":"新北市","addr:country":"TW","addr:district":"萬里區","addr:full":"新北市萬里區玉田路25號","addr:housenumber":"25","addr:street":"玉田路","emergency":"assembly_point","emergency:amenity":"social_facility","emergency:shelter_type":"水災,震災,土石流,海嘯","emergency:social_facility":"shelter","emergency:social_facility:association_villages":"龜吼里玉田","emergency:social_facility:for":"displaced_people","emergency:social_facility:id":"3727","emergency:social_facility:source":"內政部消防署","evacuation_center":"yes","name":"基督教芥菜種營地","name:zh":"基督教芥菜種營地","official_name":"孫理蓮紀念營地"}},"905517175":{"location":[25.1939616,121.6825056],"ct":"TW","tp":"CS","ts":"2025-04-23T15:34:42Z","tX":858,"tY":437,"tags":{"access":"permissive","addr:city":"新北市","addr:country":"TW","addr:district":"萬里區","addr:housenumber":"61-1","addr:place":"龜吼里","addr:postcode":"207004","addr:street":"玉田路","name":"天主教達義營地","old_name":"達義康樂中心","operator":"天主教台北總教區牧靈福傳處","short_name":"達義營地"}},"1231281784":{"location":[25.2083314,121.6421685],"ct":"TW","tp":"CS","ts":"2023-12-16T02:43:10Z","tX":858,"tY":437,"tags":{"access":"private","addr:city":"新北市","addr:country":"TW","addr:district":"萬里區","addr:housenumber":"111","addr:place":"大鵬里","addr:postcode":"207","addr:street":"大鵬街","caravans":"yes","fee":"yes","name":"皇后鎮森林金山","static_caravans":"yes","tents":"yes"}}}