{"5392656":{"location":[24.8483827,121.8278471],"ct":"TW","tp":"CS","ts":"2023-08-21T10:09:45Z","tX":858,"tY":438,"tags":{"addr:city":"宜蘭縣","addr:country":"TW","addr:district":"頭城鎮","addr:full":"宜蘭縣頭城鎮協天路288號","addr:housenumber":"288","addr:province":"台灣省","addr:street":"協天路","fax":"+886-3-977-6590","name":"YWCA聽濤營","operator":"台北基督教女青會","operator:en":"YWMC","phone":"+886-3-977-1746","website":"http://camp.ywca-taipei.org.tw/LT/index.html"}},"234849856":{"location":[25.0199445,121.9357471],"ct":"TW","tp":"CS","ts":"2023-08-08T07:46:55Z","tX":858,"tY":438,"tags":{"addr:city":"新北市","addr:country":"TW","addr:district":"貢寮區","addr:housenumber":"100","addr:street":"興隆街","name":"龍門露營度假基地","phone":"+886 2 24991791","website":"http://www.lonmen.tw/"}},"297858251":{"location":[25.0131595,121.9251761],"ct":"TW","tp":"CS","ts":"2015-07-22T03:54:19Z","tX":858,"tY":438,"tags":{"name":"虫二露營渡假村"}},"329246027":{"location":[24.9729739,121.930741],"ct":"TW","tp":"CS","ts":"2022-07-16T11:58:25Z","tX":858,"tY":438,"tags":{"name":"台灣東北角基督教禱告山(YMCA石城營地)"}},"351172641":{"location":[24.9157976,121.6822069],"ct":"TW","tp":"CS","ts":"2023-10-28T19:52:57Z","tX":858,"tY":438,"tags":{"addr:city":"新北市","addr:country":"TW","addr:district":"坪林區","addr:housenumber":"13之2","addr:place":"金瓜寮","name":"金溪露營區","website":"https://www.jinsi.com.tw/"}},"436339894":{"location":[25.0762768,121.7555013],"ct":"TW","tp":"CS","ts":"2021-02-21T07:34:29Z","tX":858,"tY":438,"tags":{"name":"拉波波村","operator":"中華民國童軍總會"}},"442389090":{"location":[25.0776297,121.8531803],"ct":"TW","tp":"CS","ts":"2019-05-12T10:06:54Z","tX":858,"tY":438,"tags":{"name":"十三層營地"}},"515182629":{"location":[24.9987481,121.8667332],"ct":"TW","tp":"CS","ts":"2017-08-13T13:22:42Z","tX":858,"tY":438,"tags":{"name":"露營區"}},"545355198":{"location":[25.0143654,121.6436327],"ct":"TW","tp":"CS","ts":"2018-01-08T12:31:35Z","tX":858,"tY":438,"tags":{}},"700995993":{"location":[25.0184993,121.9457933],"ct":"TW","tp":"CS","ts":"2019-07-02T05:00:55Z","tX":858,"tY":438,"tags":{"barrier":"wall","name":"基督教青年會營地"}},"975880109":{"location":[24.9289679,121.8166],"ct":"TW","tp":"CS","ts":"2021-08-24T10:21:24Z","tX":858,"tY":438,"tags":{"name":"田螺山露營區"}},"995213844":{"location":[24.9493886,121.7342646],"ct":"TW","tp":"CS","ts":"2021-10-21T11:17:29Z","tX":858,"tY":438,"tags":{"name":"新石門營地"}},"995213845":{"location":[24.948102,121.7316612],"ct":"TW","tp":"CS","ts":"2021-10-21T11:17:29Z","tX":858,"tY":438,"tags":{"name":"坪安潭營地"}},"995213848":{"location":[24.9491655,121.7396805],"ct":"TW","tp":"CS","ts":"2021-10-21T11:17:29Z","tX":858,"tY":438,"tags":{"name":"虎寮潭渡假山莊"}},"995424135":{"location":[24.9614089,121.766833],"ct":"TW","tp":"CS","ts":"2021-10-21T23:23:04Z","tX":858,"tY":438,"tags":{"name":"茄苳潭露營地"}},"1022459984":{"location":[24.95042,121.7950904],"ct":"TW","tp":"CS","ts":"2022-01-19T04:16:34Z","tX":858,"tY":438,"tags":{"building":"yes","name":"張家莊渡假露營中心"}},"1217046620":{"location":[24.904418,121.8465428],"ct":"TW","tp":"CS","ts":"2023-10-20T09:56:34Z","tX":858,"tY":438,"tags":{"name":"頭城休閒農場"}},"1284310488":{"location":[25.1621158,121.7640832],"ct":"TW","tp":"CS","ts":"2024-05-18T06:11:22Z","tX":858,"tY":438,"tags":{"name":"點點營區","surface":"grass"}},"2078495973":{"location":[24.8502237,121.8288146],"ct":"TW","tp":"CS","ts":"2012-12-22T11:37:36Z","tX":858,"tY":438,"tags":{}},"2085916796":{"location":[24.9142576,121.7058208],"ct":"TW","tp":"CS","ts":"2012-12-28T15:40:17Z","tX":858,"tY":438,"tags":{"name":"老地方露營區"}},"2085916797":{"location":[24.9134792,121.7079559],"ct":"TW","tp":"CS","ts":"2012-12-28T15:40:18Z","tX":858,"tY":438,"tags":{"name":"大溪地露營區"}},"3609130403":{"location":[24.9560132,121.7885726],"ct":"TW","tp":"CS","ts":"2015-06-21T16:01:09Z","tX":858,"tY":438,"tags":{"name":"雙水黑龍潭營地"}},"4201277368":{"location":[24.9289127,121.8112878],"ct":"TW","tp":"CS","ts":"2024-07-22T04:28:03Z","tX":858,"tY":438,"tags":{"name":"灣潭營地"}},"4275227494":{"location":[24.9352814,121.8873842],"ct":"TW","tp":"CS","ts":"2016-07-01T08:15:49Z","tX":858,"tY":438,"tags":{"name":"暑假露營地"}},"4511423788":{"location":[24.9549263,121.7930209],"ct":"TW","tp":"CS","ts":"2020-02-11T23:57:02Z","tX":858,"tY":438,"tags":{"name":"雙溪口營地"}},"7927090444":{"location":[24.9766884,121.6849365],"ct":"TW","tp":"CS","ts":"2023-08-06T00:33:29Z","tX":858,"tY":438,"tags":{"addr:city":"新北市","addr:country":"TW","addr:district":"石碇區","addr:housenumber":"35號","addr:street":"石碇路二段","name":"言之居","phone":"+886 921 160 940"}},"9103137718":{"location":[24.8665521,121.8084188],"ct":"TW","tp":"CS","ts":"2021-09-18T08:59:09Z","tX":858,"tY":438,"tags":{"name:en":"Toucheng Free Riverside Campground","opening_hours":"24/7"}},"9888921477":{"location":[24.9969263,121.9870723],"ct":"TW","tp":"CS","ts":"2022-07-15T06:03:16Z","tX":858,"tY":438,"tags":{"name":"萊野營"}},"10676036105":{"location":[24.8951355,121.7415726],"ct":"TW","tp":"CS","ts":"2023-02-18T11:29:21Z","tX":858,"tY":438,"tags":{"addr:postcode":"232","name":"月牙灣"}},"11386812945":{"location":[24.8939059,121.7345886],"ct":"TW","tp":"CS","ts":"2023-12-01T02:20:48Z","tX":858,"tY":438,"tags":{"name":"綠野山林"}}}