{"320364192":{"location":[24.4510978,121.7898596],"ct":"TW","tp":"CS","ts":"2015-01-04T12:00:51Z","tX":858,"tY":440,"tags":{"name":"天芎露營區"}},"320364193":{"location":[24.451509,121.7888094],"ct":"TW","tp":"CR","ts":"2015-01-04T12:00:51Z","tX":858,"tY":440,"tags":{"name":"汽車露營區"}},"320365760":{"location":[24.4502949,121.7897897],"ct":"TW","tp":"CS","ts":"2015-01-04T12:20:08Z","tX":858,"tY":440,"tags":{"name":"木板露營區"}},"427743011":{"location":[24.4501069,121.7879167],"ct":"TW","tp":"CS","ts":"2016-06-28T04:50:35Z","tX":858,"tY":440,"tags":{"name":"吊床露營區"}},"514066939":{"location":[24.436911,121.7502714],"ct":"TW","tp":"CS","ts":"2025-05-09T15:55:47Z","tX":858,"tY":440,"tags":{"name":"摩諾營地"}},"514066940":{"location":[24.4369951,121.7492846],"ct":"TW","tp":"CS","ts":"2025-05-09T15:55:47Z","tX":858,"tY":440,"tags":{"name":"那山那谷休閒農場"}},"559042724":{"location":[24.5256566,121.8343635],"ct":"TW","tp":"CS","ts":"2018-02-06T09:19:06Z","tX":858,"tY":440,"tags":{"name":"露境東岳"}},"3033881563":{"location":[24.4534402,121.7903098],"ct":"TW","tp":"CR","ts":"2015-01-04T09:59:44Z","tX":858,"tY":440,"tags":{"name":"南澳農場"}},"3157911183":{"location":[24.4515096,121.7889798],"ct":"TW","tp":"CS","ts":"2017-02-18T17:23:35Z","tX":858,"tY":440,"tags":{}},"4275213940":{"location":[24.521227,121.8330619],"ct":"TW","tp":"CS","ts":"2016-07-01T08:08:27Z","tX":858,"tY":440,"tags":{"name":"暑假露營區"}},"4275213946":{"location":[24.4741158,121.7849363],"ct":"TW","tp":"CS","ts":"2016-07-01T08:08:27Z","tX":858,"tY":440,"tags":{"name":"暑假露營地"}},"4275213952":{"location":[24.444723,121.7786057],"ct":"TW","tp":"CS","ts":"2022-03-17T16:02:45Z","tX":858,"tY":440,"tags":{"addr:city":"宜蘭縣","addr:country":"TW","addr:district":"南澳鄉","addr:province":"台灣省","name":"假日露營區"}},"4275213965":{"location":[24.4260878,121.7494797],"ct":"TW","tp":"CS","ts":"2016-07-01T08:08:27Z","tX":858,"tY":440,"tags":{"name":"暑假露營區"}},"10731722405":{"location":[24.5162856,121.835309],"ct":"TW","tp":"CS","ts":"2023-03-13T05:17:39Z","tX":858,"tY":440,"tags":{"addr:city":"宜蘭縣","addr:country":"TW","addr:district":"南澳鄉","addr:housenumber":"19","addr:postcode":"270","addr:province":"台灣省","addr:street":"東澳路101巷","name":"睡海邊"}}}