{"189772713":{"location":[-33.8327848,121.8895399],"ct":"AU","tp":"CR","ts":"2015-12-04T12:28:12Z","tX":858,"tY":614,"tags":{"name":"Acclaim Pine Grove","old_name":"Crockers Caravanpark","website":"http://www.acclaimparks.com.au/gallery/esperance/pine-grove-holiday-park/"}},"189772715":{"location":[-33.8398253,121.8560512],"ct":"AU","tp":"CR","ts":"2016-10-04T05:01:10Z","tX":858,"tY":614,"tags":{"name":"Bushlands Holiday Park"}},"208669565":{"location":[-33.845448,121.9015333],"ct":"AU","tp":"CR","ts":"2025-02-22T07:02:27Z","tX":858,"tY":614,"tags":{"name":"Seafront Caravan Park","operator":"Top Tourist Parks","phone":"+61 8 9071 1251","power_supply":"yes","website":"http://www.esperanceseafront.com/"}},"220464813":{"location":[-33.8694137,121.8911822],"ct":"AU","tp":"CR","ts":"2019-12-24T10:04:36Z","tX":858,"tY":614,"tags":{"name":"Esperance Bay Holiday Park","operator":"Top Tourist Parks","phone":"+61 8 9071 2237","phone:AU":"1800 999 923","website":"http://www.esperancebayholidaypark.com.au/","wikidata":"Q2879757","wikipedia":"en:Esperance Bay"}},"382743732":{"location":[-33.8573687,121.8697304],"ct":"AU","tp":"CR","ts":"2025-03-06T09:25:30Z","tX":858,"tY":614,"tags":{"addr:housenumber":"113","addr:postcode":"6450","addr:street":"Pink Lake Road","email":"pinklake@westnet.com.au","internet_access":"wlan","name":"Pink Lake Tourist Park","phone":"+61 8 9071 2424","phone:AU":"1800 011 311","power_supply":"yes","website":"http://www.pinklakepark.com.au/"}},"12555867601":{"location":[-33.8359612,121.9149673],"ct":"AU","tp":"CR","ts":"2025-03-24T18:06:47Z","tX":858,"tY":614,"tags":{"addr:housenumber":"45","addr:postcode":"6450","addr:street":"Westmacott Street","email":"admin@bathersparadise.com.au","internet_access":"wlan","name":"Bathers Paradise","opening_hours":"Mo-Su 09:00-17:00","phone":"+61 499 149 520","website":"https://www.bathersparadise.com.au"}}}