{"132922397":{"location":[39.8537499,-104.9088552],"ct":"US","tp":"CR","ts":"2020-05-19T22:49:13Z","tX":213,"tY":388,"tags":{"addr:city":"Henderson","addr:housenumber":"6500","addr:postcode":"80640","addr:state":"CO","addr:street":"East 88th Avenue","name":"Wikiup","phone":"+1-303-288-2038","website":"https://www.bayshorehomesales.com/communities/Wikiup"}},"221643194":{"location":[39.7841172,-104.9056494],"ct":"US","tp":"CR","ts":"2022-07-18T05:18:06Z","tX":213,"tY":388,"tags":{"addr:city":"Commerce City","addr:housenumber":"7120","addr:postcode":"80022","addr:state":"CO","addr:street":"East 49th Avenue","fax":"+1-303-289-3935","name":"Sapp Brothers Travel Centers - Denver","phone":"+1-303-289-3900","source":"http://www.sappbros.net/travel-centers/locations/denver/"}},"583798228":{"location":[39.727255,-104.7870457],"ct":"US","tp":"CR","ts":"2020-05-13T15:14:45Z","tX":213,"tY":388,"tags":{}},"620915811":{"location":[39.8775459,-105.1079416],"ct":"US","tp":"CR","ts":"2018-08-29T15:23:09Z","tX":213,"tY":388,"tags":{}},"627674578":{"location":[39.7493676,-104.8271602],"ct":"US","tp":"CR","ts":"2018-09-24T02:55:36Z","tX":213,"tY":388,"tags":{"source":"Bing"}},"828243429":{"location":[39.6499366,-104.839097],"ct":"US","tp":"CS","ts":"2021-12-04T17:42:51Z","tX":213,"tY":388,"tags":{"addr:city":"Aurora","addr:housenumber":"4210","addr:postcode":"80014","addr:state":"CO","addr:street":"S Parker Rd","fee":"yes","leisure":"park","name":"Cherry Creek State Park Campground","operator":"Colorado Parks & Wildlife","operator:short":"CPW","operator:type":"public","operator:wikidata":"Q5148857","operator:wikipedia":"en:Colorado Parks and Wildlife","website":"https://cpw.state.co.us/placestogo/parks/CherryCreek/Pages/Camping.aspx"}},"1069093450":{"location":[39.7411559,-104.8012724],"ct":"US","tp":"CR","ts":"2024-06-02T22:55:14Z","tX":213,"tY":388,"tags":{"name":"Skyview RV Park"}},"1163067834":{"location":[39.652019,-105.0162792],"ct":"US","tp":"CR","ts":"2024-03-26T20:54:44Z","tX":213,"tY":388,"tags":{"addr:city":"Sheridan","addr:housenumber":"2500","addr:postcode":"80110","addr:state":"CO","addr:street":"West Hampden Avenue","name":"Flying Saucer RV Park","phone":"303-789-1707","source":"Bing","website":"http://flyingsaucerrvpark.com"}},"2328587201":{"location":[39.6519607,-104.8432285],"ct":"US","tp":"CS","ts":"2020-07-20T05:24:27Z","tX":213,"tY":388,"tags":{"group_only":"yes","name":"Cherokee Group Site","source":"bing"}},"2328587229":{"location":[39.6516861,-104.8445133],"ct":"US","tp":"CS","ts":"2020-07-20T05:24:27Z","tX":213,"tY":388,"tags":{"group_only":"yes","name":"Chief Ouray Group Site","source":"bing"}},"2328645599":{"location":[39.6514237,-104.841139],"ct":"US","tp":"CS","ts":"2020-07-20T05:24:27Z","tX":213,"tY":388,"tags":{"group_only":"yes","name":"Arapahoe Group Site","source":"bing"}},"9074597368":{"location":[39.7515916,-105.0583344],"ct":"US","tp":"CR","ts":"2021-09-08T19:02:06Z","tX":213,"tY":388,"tags":{"addr:city":"Edgewater","addr:housenumber":"2411","addr:postcode":"80214","addr:state":"CO","addr:street":"Depew Street","name":"Private Owner"}}}