{"466717763":{"location":[38.3661749,-104.9141628],"ct":"US","tp":"CR","ts":"2024-08-22T03:26:47Z","tX":213,"tY":393,"tags":{}},"504084366":{"location":[38.2728716,-104.7804684],"ct":"US","tp":"CS","ts":"2017-12-15T22:16:11Z","tX":213,"tY":393,"tags":{"name":"Northern Plains Campground"}},"1016597674":{"location":[38.4784751,-105.094033],"ct":"US","tp":"CS","ts":"2021-12-29T16:03:58Z","tX":213,"tY":393,"tags":{"access":"customers","addr:city":"Penrose","addr:housenumber":"1969","addr:postcode":"81240","addr:state":"CO","addr:street":"Upper Beaver Creek Road","addr:unit":"#1603","name":"Les Huston Geology Field Camp","operator":"Boone Pickens School of Geology, Oklahoma State University","website":"https://geology.okstate.edu/field-camp"}},"5286664490":{"location":[38.2729931,-104.7810555],"ct":"US","tp":"CS","ts":"2017-12-15T22:16:10Z","tX":213,"tY":393,"tags":{"name":"Yucca Flat Campground"}},"5286664491":{"location":[38.2760057,-104.7840276],"ct":"US","tp":"CS","ts":"2017-12-15T22:16:10Z","tX":213,"tY":393,"tags":{"name":"Kettle Creek Campground"}},"5286664492":{"location":[38.2737484,-104.7777835],"ct":"US","tp":"CS","ts":"2017-12-15T22:16:10Z","tX":213,"tY":393,"tags":{"name":"Eagle View Campground"}}}