{"550295243":{"location":[38.0028196,-105.039092],"ct":"US","tp":"CS","ts":"2021-05-28T03:52:08Z","tX":213,"tY":394,"tags":{"addr:city":"Beulah","addr:housenumber":"18353","addr:postcode":"81023","addr:state":"CO","addr:street":"Highway 165","name":"San Isabel Scout Ranch","operator":"Rocky Mountain Council Boy Scouts of America","phone":"+1-719-485-3473","website":"http://www.rmcbsa.org/sanisabel"}},"550336133":{"location":[38.0124214,-105.0706677],"ct":"US","tp":"CR","ts":"2018-01-02T00:07:22Z","tX":213,"tY":394,"tags":{"name":"Aspen Acres Campground"}},"577615603":{"location":[38.055052,-105.0693409],"ct":"US","tp":"CS","ts":"2018-04-08T18:03:28Z","tX":213,"tY":394,"tags":{"name":"Davenport Campground"}},"2003867371":{"location":[38.0614231,-105.105426],"ct":"US","tp":"CS","ts":"2022-01-20T01:39:57Z","tX":213,"tY":394,"tags":{"access":"yes","fee":"yes","name":"Ophir Creek Campground"}},"5286664493":{"location":[38.2716511,-104.7764745],"ct":"US","tp":"CS","ts":"2017-12-15T22:16:10Z","tX":213,"tY":394,"tags":{"name":"Prairie Ridge Campground"}}}