{"259289402":{"location":[31.8955048,-104.8260847],"ct":"US","tp":"CS","ts":"2024-03-28T03:52:26Z","tX":213,"tY":416,"tags":{"addr:city":"Salt Flat","addr:housenumber":"400","addr:postcode":"79847","addr:state":"TX","addr:street":"Pine Springs Campground Road","caravans":"no","name":"Pine Springs Campground","operator":"National Park Service","operator:wikipedia":"en:National Park Service","tents":"yes"}},"994113280":{"location":[31.8995098,-104.7997074],"ct":"US","tp":"CS","ts":"2025-01-20T14:37:48Z","tX":213,"tY":416,"tags":{"name":"Public Coral Campground","operator":"National Park Service"}},"1266999095":{"location":[31.8965345,-104.8277064],"ct":"US","tp":"CS","ts":"2024-03-28T03:52:26Z","tX":213,"tY":416,"tags":{"access":"yes","capacity:caravans":"13","caravans":"yes","fee":"yes","name":"Pine Springs Campground","operator":"National Park Service","static_caravans":"no","tents":"no"}},"2646603884":{"location":[31.8935724,-104.851513],"ct":"US","tp":"CS","ts":"2023-05-11T15:38:24Z","tX":213,"tY":416,"tags":{"capacity:tents":"5","caravans":"no","fee":"yes","name":"Guadalupe Peak Campground","operator":"National Park Service","static_caravans":"no","tents":"yes","website":"https://www.nps.gov/gumo/planyourvisit/bccamp.htm"}},"5734841454":{"location":[31.9265727,-104.876382],"ct":"US","tp":"CS","ts":"2025-04-30T13:28:42Z","tX":213,"tY":416,"tags":{"access":"permit","backcountry":"yes","camp_site":"basic","capacity:tents":"5","caravans":"no","fee":"yes","name":"Bush Mountain Wilderness Campground","operator":"National Park Service","static_caravans":"no","tents":"yes","website":"https://nps.gov/gumo/planyourvisit/bm_wcg.htm"}},"8022631785":{"location":[31.8896546,-104.8853048],"ct":"US","tp":"CS","ts":"2025-01-19T01:03:34Z","tX":213,"tY":416,"tags":{"name":"Shumard Canyon Backcountry Campground"}},"8022631786":{"location":[31.9192671,-104.8455166],"ct":"US","tp":"CS","ts":"2025-04-30T13:25:05Z","tX":213,"tY":416,"tags":{"access":"permit","backcountry":"yes","camp_site":"basic","capacity:tents":"8","caravans":"no","fee":"yes","name":"Pine Top Wilderness Campground","operator":"National Park Service","static_caravans":"no","tents":"yes","website":"https://nps.gov/gumo/planyourvisit/pt_wcg.htm"}},"8022631886":{"location":[31.9483884,-104.8716066],"ct":"US","tp":"CS","ts":"2025-04-30T13:17:55Z","tX":213,"tY":416,"tags":{"access":"permit","backcountry":"yes","camp_site":"basic","capacity:tents":"5","caravans":"no","fee":"yes","name":"Blue Ridge Wilderness Campground","operator":"National Park Service","static_caravans":"no","tents":"yes","website":"https://nps.gov/gumo/planyourvisit/br_wcg.htm"}},"8022631887":{"location":[31.950926,-104.848417],"ct":"US","tp":"CS","ts":"2023-05-12T23:43:28Z","tX":213,"tY":416,"tags":{"backcountry":"yes","capacity:tents":"8","caravans":"no","fee":"yes","name":"Mescalero Backcountry Campground","operator":"National Park Service","static_caravans":"no","tents":"yes","website":"https://www.nps.gov/gumo/planyourvisit/bccamp.htm"}},"8022631985":{"location":[31.9390752,-104.851595],"ct":"US","tp":"CS","ts":"2023-05-11T15:38:24Z","tX":213,"tY":416,"tags":{"capacity:tents":"5","caravans":"no","fee":"yes","name":"Tejas Backcountry Campground","operator":"National Park Service","static_caravans":"no","tents":"yes","website":"https://www.nps.gov/gumo/planyourvisit/bccamp.htm"}}}