{"184584814":{"location":[44.4759236,-83.5943076],"ct":"US","tp":"CS","ts":"2024-04-23T11:12:14Z","tX":274,"tY":370,"tags":{"backcountry":"yes"}},"1091040425":{"location":[44.4490774,-83.4953618],"ct":"US","tp":"CS","ts":"2022-09-01T16:11:32Z","tX":274,"tY":370,"tags":{"access":"yes","group_only":"yes","name":"Blue Group Camping Area","operator":"Old Orchard Campground"}},"1091040426":{"location":[44.4490793,-83.4938733],"ct":"US","tp":"CS","ts":"2022-09-01T16:11:32Z","tX":274,"tY":370,"tags":{"access":"yes","group_only":"yes","name":"White Group Camping Area","operator":"Old Orchard Campground"}},"1155132209":{"location":[44.4343012,-83.6201018],"ct":"US","tp":"CS","ts":"2024-03-07T18:54:04Z","tX":274,"tY":370,"tags":{"access":"yes","charge":"15 USD","drinking_water":"yes","email":"sm.fs.hmnf@usda.gov","fee":"yes","gnis:feature_id":"1617107","name":"Monument Campground","operator":"United States Forest Service","payment:cash":"yes","payment:cheque":"yes","phone":"+1-989-739-0728","website":"https://www.fs.usda.gov/recarea/hmnf/recarea/?recid=18836","wikidata":"Q117195404"}},"1155389960":{"location":[44.5631554,-83.5994841],"ct":"US","tp":"CS","ts":"2023-03-19T10:07:44Z","tX":274,"tY":370,"tags":{"access":"yes","gnis:feature_id":"2498701","name":"Pine River Campground","operator":"United States Forest Service","website":"https://www.fs.usda.gov/recarea/hmnf/recreation/camping-cabins/recarea/?recid=18682&actid=29","wikidata":"Q117210415"}},"1258794604":{"location":[44.4707933,-83.3723043],"ct":"US","tp":"CS","ts":"2024-03-29T05:35:08Z","tX":274,"tY":370,"tags":{"access":"yes","capacity:tents":"49","charge":"20 USD","fee":"yes","gnis:feature_id":"2513883","name":"Van Etten Lake State Forest Campground","operator":"Michigan Department of Natural Resources","payment:cash":"yes","payment:cheque":"yes","phone":"+1-989-362-5041","tents":"yes"}},"1265114912":{"location":[44.3430279,-83.6601395],"ct":"US","tp":"CS","ts":"2024-03-29T05:35:08Z","tX":274,"tY":370,"tags":{"access":"yes","charge":"14 USD","drinking_water":"yes","email":"sm.fs.hmnf@usda.gov","fee":"yes","gnis:feature_id":"1617112","name":"Round Lake Campground","operator":"United States Forest Service","payment:cash":"yes","payment:checks":"yes","phone":"+1-989-739-0728","reservation":"no","website":"https://www.fs.usda.gov/recarea/hmnf/recreation/recarea/?recid=18840="}},"1275251692":{"location":[44.4653071,-83.596559],"ct":"US","tp":"CS","ts":"2024-04-23T11:12:14Z","tX":274,"tY":370,"tags":{}},"2928623614":{"location":[44.4449045,-83.483146],"ct":"US","tp":"CR","ts":"2020-12-13T04:12:54Z","tX":274,"tY":370,"tags":{"addr:city":"Oscoda","addr:housenumber":"883","addr:postcode":"48750","addr:state":"MI","addr:street":"East River Road","gnis:feature_id":"2513839","name":"Old Orchard Park Campground","phone":"+1-989-739-7814","website":"https://www.oscodatownshipmi.gov/1/322/old_orchard_campground.asp"}},"2928623615":{"location":[44.3852729,-83.3479293],"ct":"US","tp":"CR","ts":"2020-12-13T04:11:51Z","tX":274,"tY":370,"tags":{"addr:city":"Oscoda","addr:housenumber":"3591","addr:postcode":"48750","addr:state":"MI","addr:street":"Forest Road","gnis:feature_id":"2513832","name":"Oscoda KOA","phone":"+1-989-739-5115","website":"https://koa.com/campgrounds/oscoda/"}},"4353333509":{"location":[44.4664913,-83.5314418],"ct":"US","tp":"CS","ts":"2024-04-23T11:12:14Z","tX":274,"tY":370,"tags":{}},"4353333510":{"location":[44.4631802,-83.5342152],"ct":"US","tp":"CS","ts":"2024-04-23T11:12:14Z","tX":274,"tY":370,"tags":{"name":"090W"}},"4353333511":{"location":[44.4669127,-83.5372176],"ct":"US","tp":"CS","ts":"2024-04-23T11:12:14Z","tX":274,"tY":370,"tags":{"name":"088D"}},"4353333512":{"location":[44.4624539,-83.5351256],"ct":"US","tp":"CS","ts":"2024-04-23T11:12:14Z","tX":274,"tY":370,"tags":{"name":"089D"}},"4353340002":{"location":[44.4685638,-83.5420886],"ct":"US","tp":"CS","ts":"2024-04-23T11:12:14Z","tX":274,"tY":370,"tags":{"backcountry":"yes","name":"087W"}},"4353340003":{"location":[44.4650233,-83.5465828],"ct":"US","tp":"CS","ts":"2024-04-23T11:12:14Z","tX":274,"tY":370,"tags":{"backcountry":"yes","name":"085W"}},"4360798269":{"location":[44.4658675,-83.534739],"ct":"US","tp":"CS","ts":"2024-04-23T11:12:14Z","tX":274,"tY":370,"tags":{}},"4902934350":{"location":[44.4780427,-83.5932905],"ct":"US","tp":"CS","ts":"2024-04-23T11:12:14Z","tX":274,"tY":370,"tags":{"backcountry":"yes","name":"070D"}},"4902934351":{"location":[44.4807054,-83.5919786],"ct":"US","tp":"CS","ts":"2024-04-23T11:12:14Z","tX":274,"tY":370,"tags":{"backcountry":"yes","name":"071D"}},"6770530448":{"location":[44.4705517,-83.5921849],"ct":"US","tp":"CS","ts":"2024-04-23T11:12:14Z","tX":274,"tY":370,"tags":{"backcountry":"yes"}},"6770530449":{"location":[44.4690663,-83.5910385],"ct":"US","tp":"CS","ts":"2023-01-31T00:45:35Z","tX":274,"tY":370,"tags":{"backcountry":"yes"}},"9993140334":{"location":[44.4438878,-83.4821318],"ct":"US","tp":"SD","ts":"2022-09-01T16:11:32Z","tX":274,"tY":370,"tags":{}},"9993140371":{"location":[44.438135,-83.4725329],"ct":"US","tp":"SD","ts":"2022-09-01T16:11:32Z","tX":274,"tY":370,"tags":{}}}