{"421891069":{"location":[44.2785038,-83.4925447],"ct":"US","tp":"CR","ts":"2024-02-29T21:09:48Z","tX":274,"tY":371,"tags":{"name":"East Tawas City Park Campground","website":"https://www.easttawascitypark.com/camping"}},"1173170027":{"location":[44.258145,-83.4428837],"ct":"US","tp":"SD","ts":"2023-05-15T22:43:27Z","tX":274,"tY":371,"tags":{"operator":"Michigan Department of Natural Resources"}},"2928623619":{"location":[44.2577778,-83.4444444],"ct":"US","tp":"CR","ts":"2024-06-30T15:36:45Z","tX":274,"tY":371,"tags":{"check_date":"2023-05-15","fee":"yes","gnis:feature_id":"2513881","internet_access":"no","name":"Tawas Point State Park Campground","operator":"Michigan Department of Natural Resources","power_supply":"yes","website":"https://www2.dnr.state.mi.us/parksandtrails/details.aspx?id=221&type=spcg"}},"2928623620":{"location":[44.279503,-83.5154601],"ct":"US","tp":"CR","ts":"2023-10-27T23:40:52Z","tX":274,"tY":371,"tags":{"addr:city":"Tawas City","addr:housenumber":"560","addr:postcode":"48763","addr:street":"East M-55","name":"Tawas River RV Park","website":"https://www.tawasriverrvpark.com/"}},"2934612179":{"location":[44.1630652,-83.567091],"ct":"US","tp":"CR","ts":"2023-10-27T23:46:06Z","tX":274,"tY":371,"tags":{"addr:city":"Tawas City","addr:housenumber":"1187","addr:postcode":"48763","addr:state":"MI","addr:street":"Dyer Road","gnis:feature_id":"2496857","name":"Brown's Landing RV Park","phone":"+1-989-362-3737","website":"https://brownslandingrvpark.com/"}},"2934612713":{"location":[44.2494671,-83.5811508],"ct":"US","tp":"CR","ts":"2020-12-13T04:14:48Z","tX":274,"tY":371,"tags":{"addr:city":"Tawas City","addr:housenumber":"1453","addr:postcode":"48763","addr:state":"MI","addr:street":"Townline Road","gnis:feature_id":"2513806","name":"Tawas RV Park","phone":"+1-989-362-0005","website":"http://www.tawasrvpark.com/"}}}