{"409893004":{"location":[43.7357529,-83.4576972],"ct":"US","tp":"CS","ts":"2024-11-06T14:42:30Z","tX":274,"tY":373,"tags":{"access":"customers","email":"SRCCamp@aol.com","name":"Sebewaing River Campground","operator:type":"private","phone":"+1-989-883-9192","website":"http://sebewaingriver.com"}},"1331397584":{"location":[43.7374301,-83.4614519],"ct":"US","tp":"CS","ts":"2024-11-06T14:42:30Z","tX":274,"tY":373,"tags":{"access":"yes","addr:city":"Sebewaing","addr:housenumber":"759","addr:postcode":"48759","addr:state":"MI","addr:street":"Union Street","capacity:caravans":"54","capacity:tents":"10","caravans":"yes","name":"Sebewaing County Park Campground","operator":"Huron County","phone":"+1-888-265-2583","tents":"yes","website":"https://huroncountyparks.com/sebewaing-county-park"}},"1331403973":{"location":[43.5936702,-83.6599723],"ct":"US","tp":"CS","ts":"2024-11-06T15:25:03Z","tX":274,"tY":373,"tags":{"access":"yes","addr:city":"Fairgrove","addr:housenumber":"4446","addr:postcode":"48733","addr:state":"MI","addr:street":"Bath Road","capacity:caravans":"24","capacity:tents":"8","caravans":"yes","name":"Vanderbilt County Park Campground","operator":"Tuscola County","operator:wikidata":"Q82367","tents":"yes","website":"https://www.tuscolacounty.org/parks/"}},"7953053788":{"location":[43.6677182,-83.5787224],"ct":"US","tp":"CR","ts":"2020-09-29T02:06:29Z","tX":274,"tY":373,"tags":{"addr:city":"Unionville","addr:housenumber":"5825","addr:postcode":"48767","addr:state":"MI","addr:street":"Loomis Road","name":"Sunset Bay Marina & RV Park","phone":"+1 989 674 2668","website":"https://sunsetbaymarinarv.com/"}},"12318802276":{"location":[43.7371792,-83.4591387],"ct":"US","tp":"SD","ts":"2024-11-06T14:42:30Z","tX":274,"tY":373,"tags":{}}}