{"683008750":{"location":[43.070402,-83.5489583],"ct":"US","tp":"CR","ts":"2023-06-06T00:07:32Z","tX":274,"tY":375,"tags":{"addr:city":"Davison","addr:housenumber":"4392","addr:postcode":"48423","addr:state":"MI","addr:street":"North Irish Road","description":"Outdoor Adventures Lake Shore Resort offers camping and cabins in a beautiful natural setting of nature trails and a spring-fed lake. With a beach area and snack bar, indoor and outdoor pools, water park with a lazy river & splash pad and wading pool, fit","internet_access":"wlan","name":"Outdoor Adventures Lake Shore Resort","phone":"+1 989 671 1125","power_supply":"yes","reservation":"required","sanitary_dump_station":"yes","website":"https://www.outdooradventuresinc.com/lake-shore/"}},"1077482658":{"location":[43.1425761,-83.3628514],"ct":"US","tp":"CS","ts":"2024-12-11T19:52:39Z","tX":274,"tY":375,"tags":{"access":"private","name":"Wolverine Christian Service Camp","religion":"christian","website":"https://www.wolverinechristiancamp.com/"}},"1077486920":{"location":[43.1773517,-83.3949329],"ct":"US","tp":"CS","ts":"2024-12-11T19:52:39Z","tX":274,"tY":375,"tags":{"access":"private","name":"Camp Taha","operator":"Tawheed Institute","religion":"muslim","resort":"resort","website":"https://tawheedcamp.org/"}},"2934996704":{"location":[43.1978404,-83.5069641],"ct":"US","tp":"CR","ts":"2023-10-31T08:40:38Z","tX":274,"tY":375,"tags":{"addr:city":"Otisville","addr:housenumber":"10359","addr:postcode":"48463","addr:state":"MI","addr:street":"East Farrand Road","gnis:feature_id":"2611397","name":"Covenant Hills Campground","operator":"East Michigan Free Methodist Church","phone":"+1-810-631-4531","tents":"yes","website":"https://www.covenanthills.org/rv-camping"}},"2934996706":{"location":[43.1924117,-83.4698823],"ct":"US","tp":"CR","ts":"2020-12-12T04:24:22Z","tX":274,"tY":375,"tags":{"addr:city":"Otter Lake","addr:housenumber":"12260","addr:postcode":"48464","addr:state":"MI","addr:street":"Farrand Road","gnis:feature_id":"2572309","name":"Genesee-Otter Lake Campground","phone":"+1-810-793-2725","website":"https://geneseeotterlakecampground.com/"}},"2934996711":{"location":[43.21453,-83.458815],"ct":"US","tp":"CR","ts":"2020-12-12T04:23:49Z","tX":274,"tY":375,"tags":{"addr:city":"Otter Lake","addr:housenumber":"5902","addr:postcode":"48464","addr:state":"MI","addr:street":"Genesee Street","gnis:feature_id":"2575615","name":"Otter Lake Village Campground","phone":"+1-810-793-4258","tents":"yes","website":"http://www.villageofotterlake.com/campground.php"}},"2934996719":{"location":[43.121889,-83.462869],"ct":"US","tp":"CR","ts":"2023-10-31T08:40:34Z","tX":274,"tY":375,"tags":{"addr:city":"Columbiaville","addr:housenumber":"7698","addr:postcode":"48421","addr:state":"MI","addr:street":"North Baxter Road","gnis:feature_id":"2611464","name":"Wolverine Campground","phone":"+1-800-648-7275","tents":"yes","website":"https://www.geneseecountyparks.org/pages/wolverinecampground"}},"9581768932":{"location":[43.1405466,-83.360005],"ct":"US","tp":"CS","ts":"2022-03-15T22:25:36Z","tX":274,"tY":375,"tags":{"name":"Oxbow Campground","operator":"State of Michigan"}}}