{"425692180":{"location":[42.1930347,-83.5671624],"ct":"US","tp":"CR","ts":"2024-09-01T03:39:23Z","tX":274,"tY":379,"tags":{"addr:city":"Ypsilanti","addr:housenumber":"6680","addr:postcode":"48197","addr:state":"MI","addr:street":"Bunton Road","gnis:feature_id":"2647667","name":"Detroit Greenfield RV Park","phone":"+1-734-482-7722","tents":"yes","website":"http://www.detroitgreenfield.com/"}},"460319416":{"location":[42.2249383,-83.4900373],"ct":"US","tp":"CR","ts":"2016-12-18T11:32:31Z","tX":274,"tY":379,"tags":{"tents":"yes","website":"http://www.waynecountyfairgrounds.net/Camping.html"}},"460319421":{"location":[42.2256288,-83.4927132],"ct":"US","tp":"CR","ts":"2016-12-18T11:32:31Z","tX":274,"tY":379,"tags":{"tents":"yes","website":"http://www.waynecountyfairgrounds.net/Camping.html"}},"491442000":{"location":[42.0621449,-83.6382621],"ct":"US","tp":"CS","ts":"2024-03-06T17:20:19Z","tX":274,"tY":379,"tags":{"addr:city":"Milan","addr:housenumber":"14048","addr:postcode":"48160","addr:state":"MI","addr:street":"Sherman Road","gnis:feature_id":"2633961","name":"KC Campground","phone":"+1-734-439-1076","website":"https://www.kccampgroundmilan.com/"}},"1079887803":{"location":[42.1685991,-83.4180822],"ct":"US","tp":"CS","ts":"2022-07-20T00:34:41Z","tX":274,"tY":379,"tags":{"name":"East Bend Group Camp"}},"5109225183":{"location":[42.1905159,-83.4297681],"ct":"US","tp":"CR","ts":"2017-09-16T11:39:33Z","tX":274,"tY":379,"tags":{"name":"Walnut Grove Campground"}},"5123211907":{"location":[42.1918672,-83.4290653],"ct":"US","tp":"SD","ts":"2025-04-14T23:22:14Z","tX":274,"tY":379,"tags":{"fee":"no"}}}