{"269020852":{"location":[41.8859781,-83.3993431],"ct":"US","tp":"CR","ts":"2020-12-07T15:38:09Z","tX":274,"tY":380,"tags":{"addr:city":"Monroe","addr:housenumber":"14931","addr:postcode":"48161","addr:state":"MI","addr:street":"LaPlaisance Road","gnis:feature_id":"2438698","name":"Harbortown RV Resort","phone":"+1-734-384-4700","website":"https://www.harbortownrv.com/"}},"278667035":{"location":[41.9021374,-83.3597401],"ct":"US","tp":"CR","ts":"2018-01-14T20:52:28Z","tX":274,"tY":380,"tags":{"name":"River Raisin Marina & Campground"}},"457680114":{"location":[41.9051813,-83.337126],"ct":"US","tp":"CR","ts":"2018-07-15T21:49:16Z","tX":274,"tY":380,"tags":{"capacity":"256","fee":"yes","power_supply":"yes","sanitary_dump_station":"yes","tents":"no","wheelchair":"yes"}},"698038861":{"location":[41.8459459,-83.6629779],"ct":"US","tp":"CR","ts":"2020-12-07T15:28:54Z","tX":274,"tY":380,"tags":{"addr:state":"MI","name":"Monroe County / Toledo North KOA","phone":"+1-734-856-4972","website":"https://koa.com/campgrounds/monroe-co/"}},"2916748445":{"location":[41.84555,-83.6617686],"ct":"US","tp":"CR","ts":"2020-12-07T15:29:18Z","tX":274,"tY":380,"tags":{"addr:city":"Petersburg","addr:housenumber":"15600","addr:postcode":"49270","addr:state":"MI","addr:street":"Tunnicliff Road","gnis:feature_id":"2438809","name":"Monroe County / Toledo North KOA","phone":"+1-734-856-4972","website":"https://koa.com/campgrounds/monroe-co/"}},"2942682596":{"location":[41.9823556,-83.3939727],"ct":"US","tp":"CR","ts":"2020-12-07T15:34:39Z","tX":274,"tY":380,"tags":{"addr:city":"Monroe","addr:housenumber":"1600","addr:postcode":"48162","addr:state":"MI","addr:street":"Stumpmier Road","gnis:feature_id":"2438701","name":"Camp Lord Willing Management RV Park & Campground","phone":"+1-877-210-8700","short_name":"Camp Lord Willing","tents":"yes","website":"http://www.clwrvpark.com/"}},"2942685220":{"location":[41.9359767,-83.6151933],"ct":"US","tp":"CR","ts":"2024-06-19T22:32:37Z","tX":274,"tY":380,"tags":{"addr:city":"Dundee","addr:housenumber":"1350","addr:postcode":"48131","addr:state":"MI","addr:street":"Meanwell Road","gnis:feature_id":"2438903","name":"Wilderness Campground","phone":"+1-734-529-5122","tents":"yes","website":"https://wildernesscampgroundmi.com/"}}}