{"428043043":{"location":[46.8905045,-88.8612992],"ct":"US","tp":"CS","ts":"2024-08-13T20:47:59Z","tX":259,"tY":360,"tags":{"addr:city":"Toivola","addr:housenumber":"6204","addr:postcode":"49965","addr:state":"MI","addr:street":"E. Poyhonen Road","ele":"366","gnis:feature_id":"1615282","leisure":"park","name":"Twin Lakes State Park","operator":"Michigan Department of Natural Resources","operator:short":"Michigan DNR","operator:type":"public","operator:website":"http://www.michigandnr.com/parksandtrails/details.aspx?id=429&type=SPRK","operator:wikidata":"Q6837532","protect_class":"5","protected":"perpetuity","protection_title":"State Park","website":"http://www.shorelinevisitorsguide.com/select-michigan-state-park-maps-and-guides/twin-lakes-state-park","wikidata":"Q7858220","wikipedia":"en:Twin Lakes State Park (Michigan)"}},"2412121663":{"location":[46.8568262,-88.8560832],"ct":"US","tp":"CS","ts":"2023-10-05T06:21:40Z","tX":259,"tY":360,"tags":{"county":"Houghton","midnr:park_id":"639","name":"Emily Lake State Forest Campground","source":"Michigan DNR","website":"https://www.michigandnr.com/parksandtrails/Details.aspx?id=639&type=SFCG"}},"4271966422":{"location":[46.8891205,-88.8584926],"ct":"US","tp":"CR","ts":"2022-05-02T13:51:31Z","tX":259,"tY":360,"tags":{}},"9709275637":{"location":[46.890037,-88.8568954],"ct":"US","tp":"SD","ts":"2022-05-02T13:51:31Z","tX":259,"tY":360,"tags":{}}}