{"760398504":{"location":[46.0902115,-88.63658],"ct":"US","tp":"CR","ts":"2023-11-18T09:15:39Z","tX":259,"tY":363,"tags":{"addr:city":"Iron River","addr:housenumber":"50","addr:postcode":"49935","addr:state":"MI","addr:street":"East Genesee Street","alt_name":"Klint Safford Memorial RV Park","gnis:feature_id":"2129415","name":"Iron River RV Park","phone":"+1-906-265-3822","tents":"yes","website":"https://www.ironriver.org/community/attractions/rvpark.htm"}},"1346745871":{"location":[46.0795206,-88.7604275],"ct":"US","tp":"CS","ts":"2024-12-27T21:49:51Z","tX":259,"tY":363,"tags":{"gnis:feature_id":"1622438","name":"Lake Ottawa Recreation Area","operator":"Scenic Canyons Recreational Services"}},"2446592931":{"location":[46.2325725,-88.7185803],"ct":"US","tp":"CS","ts":"2014-06-13T20:54:34Z","tX":259,"tY":363,"tags":{"gnis:feature_id":"1622350","name":"Paint River Forks Campground","operator":"United States Forest Service"}},"2911956849":{"location":[46.2416166,-88.6331906],"ct":"US","tp":"CS","ts":"2014-06-11T20:28:20Z","tX":259,"tY":363,"tags":{"gnis:feature_id":"1622351","name":"Blockhouse Campground","operator":"United States Forest Service"}},"2915040881":{"location":[46.1711526,-88.882937],"ct":"US","tp":"CS","ts":"2014-06-13T20:53:57Z","tX":259,"tY":363,"tags":{"gnis:feature_id":"1622331","name":"Golden Lake Campground","operator":"Scenic Canyons Recreational Services"}},"2915040884":{"location":[46.0796226,-88.7609441],"ct":"US","tp":"CS","ts":"2014-06-13T20:53:57Z","tX":259,"tY":363,"tags":{"gnis:feature_id":"1622438","name":"Lake Ottawa Recreation Area","operator":"Scenic Canyons Recreational Services"}},"12457185604":{"location":[46.0784057,-88.7609323],"ct":"US","tp":"SD","ts":"2024-12-27T21:49:51Z","tX":259,"tY":363,"tags":{}}}