{"7079904":{"location":[45.1300502,-88.6948465],"ct":"US","tp":"CS","ts":"2019-02-18T06:38:07Z","tX":259,"tY":367,"tags":{"access":"private","addr:city":"White Lake","addr:housenumber":"N2992","addr:postcode":"54491","addr:street":"Gardner Dam Road","name":"Gardner Dam Scout Camp","operator":"Boy Scouts of America","scout":"yes","website":"https://www.baylakesbsa.org/camping/gardner-dam-scout-camp/52141"}},"10409841":{"location":[45.1215027,-88.8989078],"ct":"US","tp":"CS","ts":"2019-12-14T17:26:36Z","tX":259,"tY":367,"tags":{"addr:city":"Elton","addr:housenumber":"N2674","addr:postcode":"54430","addr:state":"WI","addr:street":"Blackhawk Road","name":"Camp Black Hawk","operator":"Girl Scouts of Wisconsin - Badgerland Council"}},"279454695":{"location":[45.1353118,-88.6353442],"ct":"US","tp":"CS","ts":"2020-10-04T23:50:12Z","tX":259,"tY":367,"tags":{"group_only":"yes","name":"Large Group Sites"}},"279454696":{"location":[45.1378244,-88.6330328],"ct":"US","tp":"CS","ts":"2014-05-04T22:05:07Z","tX":259,"tY":367,"tags":{"name":"Boulder Lake Campground"}},"280496729":{"location":[45.2690355,-88.6647086],"ct":"US","tp":"CS","ts":"2008-07-23T16:41:28Z","tX":259,"tY":367,"tags":{}},"280497122":{"location":[45.2682478,-88.6672301],"ct":"US","tp":"CS","ts":"2008-07-23T16:43:02Z","tX":259,"tY":367,"tags":{}},"280497123":{"location":[45.2657357,-88.6667961],"ct":"US","tp":"CS","ts":"2008-07-23T16:43:03Z","tX":259,"tY":367,"tags":{}},"280497124":{"location":[45.2666502,-88.6646508],"ct":"US","tp":"CS","ts":"2008-07-23T16:43:03Z","tX":259,"tY":367,"tags":{}},"337750855":{"location":[45.2659256,-88.6675009],"ct":"US","tp":"CS","ts":"2009-01-26T17:43:59Z","tX":259,"tY":367,"tags":{}},"337750862":{"location":[45.2660718,-88.6653834],"ct":"US","tp":"CS","ts":"2009-01-26T17:43:59Z","tX":259,"tY":367,"tags":{}},"480960920":{"location":[45.1335478,-88.6929321],"ct":"US","tp":"CS","ts":"2019-02-18T06:38:07Z","tX":259,"tY":367,"tags":{"access":"private","addr:city":"White Lake","addr:housenumber":"N2992","addr:postcode":"54491","addr:street":"Gardner Dam Road","name":"Gardner Dam Scout Camp","operator":"Boy Scouts of America","scout":"yes","website":"https://baylakescamps.org/summer-camp-gardner-dam-scout-camp"}},"2956737377":{"location":[45.2685794,-88.6456619],"ct":"US","tp":"CS","ts":"2020-01-18T19:10:01Z","tX":259,"tY":367,"tags":{"capacity":"36","drinking_water":"yes","gnis:feature_id":"1578839","name":"Boot Lake Campground","operator":"USFS","reservation":"accepted","toilets":"vault","website":"https://www.fs.usda.gov/recarea/cnnf/recreation/camping-cabins/recarea/?recid=27929&actid=29"}},"7141563914":{"location":[45.1382829,-88.632849],"ct":"US","tp":"CS","ts":"2020-01-18T19:18:41Z","tX":259,"tY":367,"tags":{"capacity":"95","drinking_water":"yes","fee":"yes","name":"Boulder Lake Recreation Area Campgrounds","operator":"USFS","power_supply":"yes","reservation":"recommended","shower":"yes","toilets":"yes"}}}