{"545572261":{"location":[47.4287643,-94.5523473],"ct":"US","tp":"CS","ts":"2023-07-24T15:25:16Z","tX":243,"tY":358,"tags":{"addr:city":"Cass Lake","addr:housenumber":"25816","addr:postcode":"56633","addr:state":"MN","addr:street":"Star Island Southeast","name":"Camp UniStar"}},"7139787197":{"location":[47.3795863,-94.5295671],"ct":"US","tp":"CS","ts":"2023-08-14T10:57:42Z","tX":243,"tY":358,"tags":{"addr:city":"Cass Lake","addr:housenumber":"15888","addr:state":"MN","addr:street":"Norway Beach RD NW","capacity":"12","drinking_water":"yes","fee":"yes","name":"Cass Lake Campground Loop","operator":"USFS","phone":"877-444-6777","reservation":"accepted","toilets:disposal":"flush","website":"https://www.fs.usda.gov/recarea/chippewa/recreation/camping-cabins/recarea/?recid=26710&actid=29"}},"7139824429":{"location":[47.379758,-94.516762],"ct":"US","tp":"CS","ts":"2023-08-14T10:57:42Z","tX":243,"tY":358,"tags":{"addr:city":"Cass Lake","addr:housenumber":"5899","addr:state":"MN","addr:street":"Norway Beach RD SW","drinking_water":"yes","fee":"yes","name":"Norway Beach Campground Loop","toilets:disposal":"flush"}},"7139980102":{"location":[47.3820525,-94.5078225],"ct":"US","tp":"CS","ts":"2023-08-14T10:57:42Z","tX":243,"tY":358,"tags":{"drinking_water":"yes","name":"Chippewa Campground","operator":"USDA","tents":"yes","toilets":"yes"}},"7139980109":{"location":[47.3860824,-94.5099977],"ct":"US","tp":"CS","ts":"2023-08-14T10:57:42Z","tX":243,"tY":358,"tags":{"addr:city":"Cass Lake","addr:housenumber":"16089","addr:state":"MN","addr:street":"Norway Beach Road Northwest","drinking_water":"yes","name":"Wanaki Campground Loop","seasonal":"spring-summer","tents":"yes","toilets:disposal":"flush"}},"7140103934":{"location":[47.4507458,-94.4834731],"ct":"US","tp":"CS","ts":"2023-08-14T10:57:42Z","tX":243,"tY":358,"tags":{"capacity":"14","drinking_water":"yes","fee":"yes","name":"Knutson Dam Campground","operator":"USDA","tents":"yes","toilets":"vault","website":"https://www.fs.usda.gov/recarea/chippewa/recreation/camping-cabins/recarea/?recid=26684&actid=29"}},"7140135841":{"location":[47.4183016,-94.3219568],"ct":"US","tp":"CS","ts":"2020-01-20T13:09:50Z","tX":243,"tY":358,"tags":{"capacity":"35","drinking_water":"yes","fee":"yes","name":"Winnie Campground","operator":"USFS","seasonal":"spring-summer","toilets":"vault","website":"https://www.fs.usda.gov/recarea/chippewa/recreation/camping-cabins/recarea/?recid=26688&actid=29"}}}