{"458601917":{"location":[44.2968446,-94.4763158],"ct":"US","tp":"CS","ts":"2016-12-09T02:48:54Z","tX":243,"tY":371,"tags":{"name":"Flandrau Rustic Campground","source":"Bing"}},"458601919":{"location":[44.2946032,-94.4695618],"ct":"US","tp":"CS","ts":"2025-04-13T22:16:21Z","tX":243,"tY":371,"tags":{"capacity":"17","charge":"23 USD","drinking_water":"yes","fee":"yes","name":"Flandrau Semi-Modern Campground;Flandrau State Park- Non-Electric Campground","phone":"+1-507-233-9800","reservation":"yes","sanitary_dump_station":"yes","shower":"yes","source":"Bing","toilets:disposal":"flush"}},"7143352428":{"location":[44.2944749,-94.4696757],"ct":"US","tp":"CS","ts":"2024-11-02T16:23:33Z","tX":243,"tY":371,"tags":{"capacity":"17","charge":"23 USD","drinking_water":"yes","fee":"yes","name":"Flandrau State Park- Non-Electric Campground","phone":"+1-507-233-9800","reservation":"yes","sanitary_dump_station":"yes","shower":"yes","toilets:type":"flush"}},"7143395664":{"location":[44.2968363,-94.4763162],"ct":"US","tp":"CS","ts":"2024-11-02T16:23:33Z","tX":243,"tY":371,"tags":{"charge":"19 USD","drinking_water":"yes","fee":"yes","name":"Flandrau State Park- Rustic Campground","phone":"+1-507-233-9800","reservation":"yes","sanitary_dump_station":"yes","shower":"yes","toilets:type":"flush"}},"7335487996":{"location":[44.1275693,-94.5553742],"ct":"US","tp":"CS","ts":"2021-08-24T23:22:23Z","tX":243,"tY":371,"tags":{"addr:city":"Hanska","addr:housenumber":"10956","addr:state":"MN","addr:street":"CR-11","charge":"$10-$20","fee":"yes","name":"Lake Hanska Park","phone":"+1-507-439-6411","power_supply":"yes","reservation":"yes","shelter_type":"picnic_shelter","tents":"yes","toilets":"yes"}},"4511358686":{"location":[44.3286194,-94.4349231],"ct":"US","tp":"CR","ts":"2021-09-07T04:53:44Z","tX":243,"tY":371,"tags":{"addr:city":"New Ulm","addr:housenumber":"58167","addr:postcode":"56073","addr:state":"MN","addr:street":"428th Lane","fax":"+1-507-354-5365","name":"Finstad's Oak Haven Campground","phone":"+1-507-354-3094","source":"Bing","website":"http://business.newulm.com/list/member/finstad-s-oak-haven-campground-new-ulm-1150"}}}