{"591182818":{"location":[25.6638151,89.8520702],"ct":"BD","tp":"CS","ts":"2020-09-23T11:06:38Z","tX":767,"tY":436,"tags":{"building":"yes","name":"BGB camp"}},"5642267076":{"location":[25.6079493,89.8756769],"ct":"BD","tp":"CS","ts":"2018-08-31T10:07:47Z","tX":767,"tY":436,"tags":{"addr:district":"Kurigram","addr:union":"Shoul Mari","addr:ward":"1","address":"goytapara Ward 1","description":"one Semi pucca building. Click here more information- https://www.openstreetmap.org/user/aHaSaN/diary.","name":"বিজিবি ক্যাম্প","source":"survey","source:date":"2018-15-05","source:name":"logic_undp"}},"5647976027":{"location":[25.4940982,89.7790182],"ct":"BD","tp":"CS","ts":"2018-08-30T15:16:45Z","tX":767,"tY":436,"tags":{"addr:district":"Kurigram","addr:union":"Kodal Kathi","address":"sajai purbo para_ward 7","building":"yes","description":"temporary Tika center_etir nirdistho kono dhoroner vobon gothito nei_jekono karo basay eti obosthito, Click here more information- https://www.openstreetmap.org/user/aHaSaN/diary.","name":"EPI Tika Center ( ই পি আই টিকা সেন্টার )","source":"survey","source:date":"2018-11-05","source:name":"logic_undp"}}}