{"128910888":{"location":[57.4866645,-4.0572671],"ct":"GB","tp":"CR","ts":"2020-08-08T06:46:17Z","tX":500,"tY":311,"tags":{"addr:city":"Inverness","addr:hamlet":"Newlands","addr:postcode":"IV2 5EF","fee":"yes","fhrs:id":"453732","name":"Culloden Moor Caravan Club Site","power_supply":"yes"}},"415342721":{"location":[57.4200962,-4.0969141],"ct":"GB","tp":"CS","ts":"2024-03-17T09:48:49Z","tX":500,"tY":311,"tags":{"caravans":"yes","name":"Touring and camping pitches","operator":"Auchnahillin Holiday Park","tents":"yes","website":"https://www.auchnahillin.co.uk/"}},"512720675":{"location":[57.4202102,-4.0987945],"ct":"GB","tp":"CR","ts":"2019-03-19T20:19:42Z","tX":500,"tY":311,"tags":{"addr:city":"Inverness","addr:country":"GB","addr:housename":"Auchnahillin Holiday Park","addr:place":"Daviot East","addr:postcode":"IV2 5XQ","email":"iinfo@auchnahillin.co.uk","internet_access":"wlan","internet_access:fee":"yes","name":"Auchnahillin Holiday Park","phone":"+44 1463 772 286","tents":"yes","website":"https://www.auchnahillin.co.uk/"}},"536977044":{"location":[57.4697029,-4.1494782],"ct":"GB","tp":"CR","ts":"2024-08-16T18:56:10Z","tX":500,"tY":311,"tags":{"addr:street":"Culloden Road","caravans":"yes","description":"Campsite with view on Moray Firth","name":"Ardtower Caravan Park","phone":"+44 1463 790555","tents":"yes","website":"http://www.ardtower-caravanpark.com/"}}}