{"119049879":{"location":[54.9362989,-3.9284072],"ct":"GB","tp":"CS","ts":"2024-04-23T13:40:37Z","tX":500,"tY":324,"tags":{"capacity:caravans":"100","capacity:tents":"53","caravans":"yes","email":"lochside.caravan@dumgal.gov.uk","fee":"yes","name":"Lochside Caravan and Camping Site","phone":"+44 1556 504682","power_supply":"yes","sanitary_dump_station":"yes","tents":"yes","website":"https://www.dumgal.gov.uk/lochsidecs","wheelchair":"yes"}},"380985002":{"location":[54.8456484,-4.2174822],"ct":"GB","tp":"CR","ts":"2022-09-20T17:20:07Z","tX":500,"tY":324,"tags":{"addr:city":"Gatehouse of Fleet","addr:district":"Sandgreen","addr:postcode":"DG7 2DU","cabins":"yes","caravans":"no","contact:email":"info@sandgreencaravanpark.co.uk","contact:facebook":"https://www.facebook.com/sandgreencaravanpark","motorhome":"no","name":"Sandgreen Caravan Park","phone":"+44 1557 814351","static_caravans":"yes","tents":"no","website":"https://www.sandgreencaravanpark.co.uk/"}},"380989781":{"location":[54.8194909,-4.0849489],"ct":"GB","tp":"CR","ts":"2022-09-20T17:25:09Z","tX":500,"tY":324,"tags":{"addr:city":"Kirkcudbright","addr:hamlet":"Borgue","addr:place":"Dhoon Bay","addr:postcode":"DG6 4TJ","caravans":"yes","contact:email":"info@gillespie-leisure.co.uk","dog":"yes","fee":"yes","motorhome":"yes","name":"Seaward Caravan Park","operator":"Gillespie Leisure","phone":"+44 1557 870267","shower":"yes","tents":"yes","toilets":"yes","washing_machine":"yes","website":"https://www.seawardcaravanpark.co.uk/"}},"402839405":{"location":[54.8804339,-4.1904236],"ct":"GB","tp":"CS","ts":"2019-04-27T18:00:49Z","tX":500,"tY":324,"tags":{"addr:city":"Gatehouse of Fleet","addr:postcode":"DG7 2JU","addr:street":"Garden Street","camping":"yes","name":"Anwoth Caravan Site","phone":"+44 1557 814333"}},"723323534":{"location":[54.8352378,-4.0473456],"ct":"GB","tp":"CR","ts":"2023-10-02T14:22:41Z","tX":500,"tY":324,"tags":{"addr:city":"Kirkcudbright","addr:postcode":"DG6 4BH","addr:street":"Silvercraigs Road","caravans":"yes","contact:email":"info.silvercraigs@gmail.com","fee":"yes","kitchen":"yes","motorhome":"yes","name":"Silvercraigs Caravan Park","phone":"+44 1557 337068","power_supply":"yes","shower":"yes","tents":"yes","toilets":"yes","washing_machine":"yes","waste_disposal":"yes","website":"https://www.silvercraigscaravanpark.co.uk/"}},"850475827":{"location":[54.7837996,-4.1349092],"ct":"GB","tp":"CS","ts":"2023-10-26T16:49:47Z","tX":500,"tY":324,"tags":{"caravans":"yes","drinking_water":"yes","motor_vehicle":"yes","motorhome":"yes","name":"Brighouse Bay Hol. Park AA","power_supply":"yes","shower":"yes","source":"ACSI","static_caravans":"yes","tents":"yes","toilets":"yes","website":"https://www.brighousebayholidaypark.co.uk"}},"850475840":{"location":[54.7870453,-4.0981525],"ct":"GB","tp":"CS","ts":"2020-09-23T11:59:51Z","tX":500,"tY":324,"tags":{"addr:postcode":"DG6 4TR","email":"n.picken@btconnect.com","name":"Solway View Holidays/Balmangan Farm","operator":"Neil & Patricia Picken","phone":"+44 1557870206","website":"https://solwayviewholidays.co.uk/"}}}