{"110347958":{"location":[53.0652169,-4.1414774],"ct":"GB","tp":"CS","ts":"2023-10-02T09:34:09Z","tX":500,"tY":333,"tags":{"email":"snowdoninn@aol.com","internet_access":"no","name":"Cwellyn Arms Campsite","phone":"+44 1766 890321","website":"https://www.snowdoninn.co.uk/campsite.asp"}},"126705590":{"location":[53.0936183,-4.1884986],"ct":"GB","tp":"CS","ts":"2022-05-19T19:39:44Z","tX":500,"tY":333,"tags":{"name":"Bryn Gloch","website":"https://www.bryngloch.co.uk/"}},"157576032":{"location":[53.0524086,-4.0170066],"ct":"GB","tp":"CS","ts":"2024-06-27T10:34:07Z","tX":500,"tY":333,"tags":{"addr:city":"Caernarfon","addr:housename":"Llyn Gwynant Campsite","addr:postcode":"LL55 4NW","addr:street":"Nantgwynant","capacity":"1000","caravans":"yes","drinking_water":"yes","fee":"yes","internet_access":"wlan","name":"Llyn Gwynant Campsite","operator":"Private","power_supply":"yes","shower":"yes","tents":"yes","toilets":"yes","website":"https://www.gwynant.com/"}},"200359790":{"location":[52.9117038,-4.0501804],"ct":"GB","tp":"CR","ts":"2015-07-05T13:40:52Z","tX":500,"tY":333,"tags":{"addr:city":"Gwynedd","addr:housename":"Barcdy Caravan & Camping Park ,","addr:postcode":"LL47 6YG","addr:street":"Talsarnau","name":"Barcdy Caravan & Camping Park ,"}},"229717102":{"location":[52.9374058,-4.0545544],"ct":"GB","tp":"CS","ts":"2015-09-25T16:44:03Z","tX":500,"tY":333,"tags":{"name":"Blaen-cefn Camp Site"}},"230576274":{"location":[53.0415738,-4.0468846],"ct":"GB","tp":"CS","ts":"2021-11-16T16:49:13Z","tX":500,"tY":333,"tags":{"addr:postcode":"LL55 4NQ","caravans":"no","internet_access":"no","motor_vehicle":"no","name":"Macs Pebyll Hafod Y Llan","openfire":"yes","operator":"National Trust","sanitary_dump_station":"no","tents":"yes","website":"http://www.hafodyllancampsite.co.uk"}},"236132660":{"location":[52.9310588,-4.1223906],"ct":"GB","tp":"CR","ts":"2013-09-01T21:02:23Z","tX":500,"tY":333,"tags":{"source":"OS_OpenData_StreetView"}},"239183702":{"location":[53.0172207,-4.0912742],"ct":"GB","tp":"CS","ts":"2024-08-20T20:43:20Z","tX":500,"tY":333,"tags":{"addr:postcode":"LL55 4NE","caravans":"yes","email":"stay@caeducampsite.co.uk","fee":"yes","name":"Cae Du Campsite","phone":"+44 1766 890345","power_supply":"yes","source":"Bing","tents":"yes","website":"https://www.caeducampsite.co.uk/"}},"273019048":{"location":[53.0533478,-3.9053753],"ct":"GB","tp":"CS","ts":"2019-07-24T14:31:36Z","tX":500,"tY":333,"tags":{"name":"Bryn Tirion Farm","source":"Bing","website":"http://www.croeso-betws.org.uk/acc/bb/tirion2.htm"}},"274568892":{"location":[53.0954352,-3.9408329],"ct":"GB","tp":"CS","ts":"2023-03-31T06:01:09Z","tX":500,"tY":333,"tags":{"addr:housenumber":"LL24 0ES Betws-y-Coed","addr:street":"Capel Curig","caravans":"yes","email":"stay@garthfarmcampsite.co.uk","name":"Garth Farm","phone":"+44 1690 720212","shower":"yes","tents":"yes","toilets":"yes","website":"https://www.garthfarmcampsite.co.uk/"}},"289038795":{"location":[52.935681,-3.958662],"ct":"GB","tp":"CR","ts":"2024-06-27T19:42:58Z","tX":500,"tY":333,"tags":{"addr:city":"Gellilydan","addr:country":"GB","addr:postcode":"LL41 4EN","fee":"yes","fhrs:authority":"Gwynedd","fhrs:id":"1646978","fhrs:local_authority_id":"771797","internet_access":"wlan","internet_access:fee":"yes","name":"Coed-y-Llwyn Caravan and Motorhome Club Site","operator":"Caravan and Motorhome Club","power_supply":"yes","sanitary_dump_station":"yes"}},"292722643":{"location":[52.9346164,-3.9985007],"ct":"GB","tp":"CR","ts":"2015-09-20T11:03:13Z","tX":500,"tY":333,"tags":{"name":"Felinrhyd Fach"}},"299832206":{"location":[52.9236913,-4.1426836],"ct":"GB","tp":"CR","ts":"2014-08-24T14:50:33Z","tX":500,"tY":333,"tags":{"name":"Tyddyn Llwyn Caravan Park"}},"305040140":{"location":[52.912785,-4.1485862],"ct":"GB","tp":"CR","ts":"2018-08-13T19:22:28Z","tX":500,"tY":333,"tags":{}},"356688406":{"location":[52.913576,-4.0508881],"ct":"GB","tp":"CS","ts":"2015-07-05T13:40:53Z","tX":500,"tY":333,"tags":{"name":"Barcdy Caravan & Camping Park ,"}},"357902750":{"location":[52.9155394,-4.1922013],"ct":"GB","tp":"CS","ts":"2023-08-08T06:36:13Z","tX":500,"tY":333,"tags":{"addr:city":"Porthmadog","addr:postcode":"LL49 9YH","addr:street":"Morfa Bychan","caravans":"yes","drinking_water":"yes","email":"blackrocksandscampingpark@gmail.com","fee":"yes","name":"Black Rock Sands Camping & Touring","phone":"+44 1766513919","sanitary_dump_station":"yes","shower":"yes","source":"ACSI","tents":"yes","toilets":"yes","website":"https://blackrocksandstouringandcampingpark.com/","wheelchair":"yes"}},"357902763":{"location":[52.9122155,-4.1855028],"ct":"GB","tp":"CS","ts":"2023-08-08T06:28:55Z","tX":500,"tY":333,"tags":{"addr:city":"Porthmadog","addr:postcode":"LL49 9YH","addr:street":"Morfa Bychan","caravans":"yes","dog":"leashed","drinking_water":"yes","fee":"yes","internet_access":"no","name":"Glan y Mor Camping Park","payment:cash":"yes","phone":"+44 7419330307","power_supply":"no","sanitary_dump_station":"yes","shower":"yes","tents":"yes","toilets":"yes","website":"https://glanymorcampingporthmadog.com/","wheelchair":"no"}},"357902781":{"location":[52.9149153,-4.1964694],"ct":"GB","tp":"CR","ts":"2015-09-01T19:02:08Z","tX":500,"tY":333,"tags":{}},"374977550":{"location":[53.0981342,-3.8773139],"ct":"GB","tp":"CS","ts":"2022-02-27T15:16:32Z","tX":500,"tY":333,"tags":{"bbq":"yes","camp_site":"standard","caravans":"no","dog":"no","name":"Dolgam Campsite","openfire":"no","phone":"+441690720228","website":"https://www.dolgam-snowdonia.co.uk","wheelchair":"yes"}},"376294987":{"location":[52.9326612,-4.0826277],"ct":"GB","tp":"CR","ts":"2015-10-21T20:04:31Z","tX":500,"tY":333,"tags":{}},"402522497":{"location":[53.1050327,-4.0811019],"ct":"GB","tp":"CS","ts":"2024-09-18T17:53:11Z","tX":500,"tY":333,"tags":{"addr:city":"Nant Peris","addr:postcode":"LL55 4UN","name":"Pritchard's Campsite","operator":"Mrs R Pritchard","phone":"+44 1286 870494","source":"survey"}},"402759620":{"location":[53.1050478,-4.0836035],"ct":"GB","tp":"CS","ts":"2016-03-09T19:25:17Z","tX":500,"tY":333,"tags":{}},"426652995":{"location":[53.1035793,-3.9032346],"ct":"GB","tp":"CS","ts":"2016-06-22T20:15:27Z","tX":500,"tY":333,"tags":{"name":"Gwersyllu"}},"477094900":{"location":[53.1060821,-4.1915306],"ct":"GB","tp":"CS","ts":"2023-05-06T19:45:14Z","tX":500,"tY":333,"tags":{"cabins":"yes","caravans":"yes","drinking_water":"yes","email":"info@tynyronnen.co.uk","internet_access":"wlan","internet_access:fee":"no","motorhome":"+44 7798 733939","name":"Tyn-Yr-Onnen Farm & Campsite","phone":"+44 1286 650281","power_supply":"yes","short_name":"Tyn-Yr-Onnen","shower":"yes","tents":"yes","toilets":"yes","website":"https://www.tyn-yr-onnen.co.uk/"}},"477114031":{"location":[53.0877289,-4.1734402],"ct":"GB","tp":"CS","ts":"2017-02-25T13:03:05Z","tX":500,"tY":333,"tags":{"fee":"yes","name":"Silver Birches Camping","note":"No children under age 15","source":"survey"}},"480921888":{"location":[53.0988651,-4.1963184],"ct":"GB","tp":"CS","ts":"2023-04-08T19:22:21Z","tX":500,"tY":333,"tags":{"backcountry":"no","camp_site":"serviced","caravans":"no","charge":"£6pppn","drinking_water":"yes","fee":"yes","group_only":"no","name":"Pentre Bach campsite","phone":"+44 7798 733939","shower":"yes","surface":"grass","tents":"yes","toilets":"yes","website":"http://www.pentrebachbunkhouse.co.uk/accommodation/"}},"543480829":{"location":[53.1057465,-4.2010684],"ct":"GB","tp":"CS","ts":"2022-05-19T19:38:11Z","tX":500,"tY":333,"tags":{"caravans":"yes","email":"info@snowdonia-park.co.uk","name":"Snowdonia Parc Campsite","phone":"+44 1286 650409","tents":"yes","website":"https://www.snowdonia-park.co.uk/campsite"}},"1041254187":{"location":[53.0547138,-4.1920051],"ct":"GB","tp":"CS","ts":"2022-09-25T20:34:31Z","tX":500,"tY":333,"tags":{"addr:postcode":"LL54 6BT","name":"Talymignedd Campsite","website":"http://talymignedd.co.uk/"}},"1041254194":{"location":[53.0550784,-4.1913633],"ct":"GB","tp":"CS","ts":"2022-09-25T20:34:31Z","tX":500,"tY":333,"tags":{"addr:postcode":"LL54 6BT","name":"Talymignedd Campsite","website":"http://talymignedd.co.uk/"}},"1082585458":{"location":[52.9152214,-4.1768522],"ct":"GB","tp":"CS","ts":"2023-03-20T17:41:09Z","tX":500,"tY":333,"tags":{"name":"Glam Morfa Mawr"}},"1236592572":{"location":[52.9135651,-4.1715187],"ct":"GB","tp":"CR","ts":"2024-05-26T08:43:03Z","tX":500,"tY":333,"tags":{"caravan_site":"motorhome_stopover","caravan_site:type":"holiday_park","fee":"yes","name":"Greenacres Holiday Park, Porthmadog","power_supply":"yes","sanitary_dump_station":"yes","water_point":"yes","website":"https://www.haven.com/touring-camping/parks/north-wales/greenacres?accommodation=pitches"}},"1270290857":{"location":[53.1141953,-4.1331365],"ct":"GB","tp":"CS","ts":"2017-02-14T12:46:45Z","tX":500,"tY":333,"tags":{"name":"Llwyn Celyn bach","wheelchair":"no"}},"1297653955":{"location":[52.9246716,-4.2134962],"ct":"GB","tp":"CR","ts":"2024-07-01T08:01:06Z","tX":500,"tY":333,"tags":{"name":"Meldrum Leisure Holiday Homes","website":"https://meldrumleisure.co.uk/"}},"1298033749":{"location":[52.9310002,-4.2062171],"ct":"GB","tp":"CR","ts":"2024-07-01T07:59:08Z","tX":500,"tY":333,"tags":{"name":"Eisteddfa Caravan and Camping Site"}},"1298033751":{"location":[52.9315597,-4.2093976],"ct":"GB","tp":"CR","ts":"2024-07-01T08:02:18Z","tX":500,"tY":333,"tags":{"name":"Mynydd Du Caravan Site"}},"4282171989":{"location":[52.9524971,-3.969163],"ct":"GB","tp":"CS","ts":"2016-07-04T16:34:11Z","tX":500,"tY":333,"tags":{"name":"Llechwyd Farm Campsite"}},"11917580069":{"location":[52.9106586,-4.1712806],"ct":"GB","tp":"CR","ts":"2024-05-19T10:26:30Z","tX":500,"tY":333,"tags":{"addr:housenumber":"59","addr:street":"Iris","name":"Greenacres (Haven.com)","operator":"Haven Holidays","website":"https://www.haven.com/parks/north-wales/greenacres"}},"11921941269":{"location":[52.9107232,-4.1712048],"ct":"GB","tp":"CR","ts":"2024-05-21T10:30:21Z","tX":500,"tY":333,"tags":{"addr:housenumber":"59","addr:street":"Iris","name":"Haven caravan park (Green acres)"}},"12512704950":{"location":[52.97662,-4.2000998],"ct":"GB","tp":"CS","ts":"2025-01-18T18:30:27Z","tX":500,"tY":333,"tags":{"caravans":"yes","mobile":"+44 7774 834483","name":"Ty’n Llan Campsite","phone":"+44 1766 530408","tents":"yes","website":"https://tynllan-camping.co.uk/"}}}