{"1783534":{"location":[51.5515199,-4.1749527],"ct":"GB","tp":"CR","ts":"2021-09-12T06:35:42Z","tX":500,"tY":340,"tags":{"name":"Sealands Farm"}},"1783535":{"location":[51.5558248,-4.1741452],"ct":"GB","tp":"CR","ts":"2023-09-10T18:41:37Z","tX":500,"tY":340,"tags":{"name":"Greenways of Gower","operator":"Premier Leisure Parks","website":"https://www.premierleisureparks.com/our-holiday-parks/greenways-of-gower"}},"1785160":{"location":[51.5495821,-4.1717136],"ct":"GB","tp":"CR","ts":"2011-10-12T12:56:23Z","tX":500,"tY":340,"tags":{}},"1867860":{"location":[51.5557493,-4.2031184],"ct":"GB","tp":"CR","ts":"2011-11-28T13:53:37Z","tX":500,"tY":340,"tags":{}},"6803629":{"location":[51.5683613,-4.0854741],"ct":"GB","tp":"CR","ts":"2016-12-19T16:52:04Z","tX":500,"tY":340,"tags":{"capacity":"62","name":"Fairfield Caravan Park"}},"48611603":{"location":[51.5772007,-4.1130808],"ct":"GB","tp":"CS","ts":"2023-10-15T00:03:23Z","tX":500,"tY":340,"tags":{"addr:city":"Swansea","addr:country":"GB","addr:postcode":"SA3 2HB","addr:street":"North Hill Lane","caravans":"yes","name":"Three Cliffs Bay Holiday Park","phone":"+44 1792 371218","tents":"yes","website":"https://threecliffsbay.com/"}},"101617167":{"location":[51.5421091,-4.2114682],"ct":"GB","tp":"CS","ts":"2024-08-22T16:17:22Z","tX":500,"tY":340,"tags":{}},"101617172":{"location":[51.5491292,-4.2045826],"ct":"GB","tp":"CS","ts":"2023-10-04T17:50:30Z","tX":500,"tY":340,"tags":{}},"101617199":{"location":[51.5480964,-4.2120267],"ct":"GB","tp":"CR","ts":"2023-10-04T17:50:30Z","tX":500,"tY":340,"tags":{}},"132808826":{"location":[51.5515199,-4.1749527],"ct":"GB","tp":"CR","ts":"2025-04-14T23:59:35Z","tX":500,"tY":340,"tags":{"name":"Sealands Farm"}},"132808841":{"location":[51.5558248,-4.1741452],"ct":"GB","tp":"CR","ts":"2025-04-14T23:59:35Z","tX":500,"tY":340,"tags":{"name":"Greenways of Gower","operator":"Premier Leisure Parks","website":"https://www.premierleisureparks.com/our-holiday-parks/greenways-of-gower"}},"132808842":{"location":[51.5495821,-4.1717136],"ct":"GB","tp":"CR","ts":"2025-04-14T23:59:35Z","tX":500,"tY":340,"tags":{}},"203383731":{"location":[51.5487035,-4.2076465],"ct":"GB","tp":"CR","ts":"2023-10-04T17:50:30Z","tX":500,"tY":340,"tags":{}},"374884133":{"location":[51.5741472,-4.1331742],"ct":"GB","tp":"CS","ts":"2025-05-13T11:27:48Z","tX":500,"tY":340,"tags":{"addr:city":"Swansea","addr:postcode":"SA3 2HL","name":"Nicholaston Farm","phone":"+44 1792 371209","toilets:wheelchair":"yes","website":"https://www.nicholastonfarm.co.uk/","wheelchair":"yes"}},"458092967":{"location":[51.6041718,-4.0485766],"ct":"GB","tp":"CR","ts":"2016-12-06T14:38:01Z","tX":500,"tY":340,"tags":{"name":"Blackhills Caravan Park","website":"http://blackhillsleisure.co.uk/"}},"957269124":{"location":[51.5517208,-4.1810387],"ct":"GB","tp":"CS","ts":"2023-09-29T17:07:56Z","tX":500,"tY":340,"tags":{"email":"tynrheol@hotmail.com","fee":"yes","name":"Eastern Slade Farm Campsite","phone":"+44 1792 391374","shower":"no","toilets":"yes","website":"http://www.easternsladecampsite.freeservers.com/"}},"1077641250":{"location":[51.6108641,-4.1982598],"ct":"GB","tp":"CS","ts":"2022-07-11T09:57:02Z","tX":500,"tY":340,"tags":{"name":"Weobley Castle camp site","phone":"+44 1792 390012"}},"1195939635":{"location":[51.5603932,-4.1719682],"ct":"GB","tp":"CS","ts":"2023-08-07T23:26:48Z","tX":500,"tY":340,"tags":{"addr:city":"Gower","addr:housename":"Oxwich Camping Park","addr:postcode":"SA3 1LS","addr:street":"Oxwich","mobile":"+44 7594 995701","name":"Oxwich Camping Park","opening_hours":"Mo-Su 07:00-23:00","phone":"+44 1792 390777","website":"https://richardwilliam2000.wixsite.com/oxwichcamping"}},"1206698983":{"location":[51.556452,-4.1636061],"ct":"GB","tp":"CR","ts":"2025-04-14T23:59:35Z","tX":500,"tY":340,"tags":{"fee":"yes","name":"Beach Walk Parc","static_caravans":"yes"}},"1213099787":{"location":[51.5531558,-4.2095045],"ct":"GB","tp":"CS","ts":"2023-10-04T17:50:30Z","tX":500,"tY":340,"tags":{}},"1309898614":{"location":[51.5454827,-4.2131341],"ct":"GB","tp":"CR","ts":"2024-08-22T16:17:22Z","tX":500,"tY":340,"tags":{}}}