{"131889075":{"location":[48.4010358,-4.076685],"ct":"FR","tp":"CS","ts":"2024-07-02T12:13:40Z","tX":500,"tY":354,"tags":{"addr:street":"Le Gollen","caravans":"yes","drinking_water":"yes","name":"Camping municipal du Gollen","name:br":"Tachenn-gampiñ kêr ar Golenn","shower":"yes","source:name:br":"proper translation","stars":"2","tents":"yes","toilets":"yes","website":"http://www.mairie-sizun.fr/fr/information/83068/le-camping-municipal"}},"131889402":{"location":[48.3945258,-3.9992717],"ct":"FR","tp":"CS","ts":"2024-08-13T14:06:05Z","tX":500,"tY":354,"tags":{"addr:street":"Croas Pen An Neac'h","caravans":"yes","drinking_water":"yes","fee":"yes","name":"Camping Le Drennec","name:br":"Tachenn-gampiñ an Dreneg","power_supply":"yes","shower":"yes","source:name:br":"Ofis publik ar brezhoneg","stars":"2","tents":"yes","toilets":"yes","wheelchair":"limited"}},"177278231":{"location":[48.2992327,-3.9638672],"ct":"FR","tp":"CS","ts":"2023-04-25T21:05:20Z","tX":500,"tY":354,"tags":{"alt_name":"Ferme de Tuchennoù","internet_access":"no","name":"Camping de Tuchennoù","website":"http://www.tuchennou.com/"}},"370935848":{"location":[48.3495297,-3.9992012],"ct":"FR","tp":"CR","ts":"2024-10-26T19:47:02Z","tX":500,"tY":354,"tags":{"addr:housenumber":"5","addr:place":"Park Terien","addr:street":"Ru Ti Korneg","caravan_site":"motorhome_stopover","caravan_site:type":"village","drinking_water":"yes","fee":"no","name":"Saint Rivoal Aire pour camping-cars","power_supply":"yes","sanitary_dump_station":"yes","water_point":"yes"}},"1199048252":{"location":[48.3839495,-3.9158554],"ct":"FR","tp":"CS","ts":"2023-04-27T14:25:37Z","tX":500,"tY":354,"tags":{"name":"Camping municipal / Chalets / Salle communautaire","name:br":"Tachenn Gampiñ / Tiez Prenn / Sal ar Gumuniezh"}},"1284270701":{"location":[48.2950247,-4.1869346],"ct":"FR","tp":"CR","ts":"2024-05-18T00:34:10Z","tX":500,"tY":354,"tags":{"addr:street":"Rue de la Grève","bbq":"no","capacity":"24","caravan_site":"motorhome_stopover","caravan_site:type":"beach","caravans":"yes","caravans:conditional":"no @ (Sep 19-Jun 14)","charge":"15.44 EUR","charge:conditional":"13.64 EUR@(Sep 19-Jun 14)","dog":"leashed","fee":"yes","internet_access":"wlan","internet_access:fee":"customers","maxlength":"none","name":"Aire Camping-Car Faou, Park An Aod","network":"CAMPING-CAR PARK","operator":"CAMPING-CAR PARK","power_supply":"yes","power_supply:capacity":"24","power_supply:maxcurrent":"6","sanitary_dump_station":"yes","shower":"yes","shower:conditional":"no @ (Sep 19-Jun 14)","tents":"yes","tents:conditional":"no @ (Sep 19-Jun 14)","toilets":"yes","toilets:conditional":"no @ (Sep 19-Jun 14)","trailer":"yes","water_point":"yes","website":"https://www.campingcarpark.com/fr_FR/sejour/camping/bretagne/29-finistere/le-faou"}},"1568069492":{"location":[48.3593629,-3.8783285],"ct":"FR","tp":"CS","ts":"2023-09-30T18:10:51Z","tX":500,"tY":354,"tags":{"name":"Camping de Nestavel","name:br":"Tachenn-gampiñ Nestavel","source:name:br":"proper translation"}},"3259041060":{"location":[48.295029,-4.1861959],"ct":"FR","tp":"CS","ts":"2024-05-18T00:34:10Z","tX":500,"tY":354,"tags":{"addr:city":"Châteauneuf-du-Faou","addr:postcode":"29520","addr:street":"Penn ar Pont","name":"Camping municipal Penn ar Pont","name:br":"Tachenn-gampiñ kêr Penn ar Pont","operator":"Municipal","phone":"+33 2 98 81 81 25","source:name:br":"proper translation"}},"3917916932":{"location":[48.2953283,-4.1853725],"ct":"FR","tp":"CS","ts":"2015-12-30T04:16:30Z","tX":500,"tY":354,"tags":{"addr:city":"Le Faou","addr:postcode":"29590","addr:street":"Rue de la Grève","name":"Camping Aire Naturelle Le Faou","operator":"Municipal","phone":"+33298819044"}},"5496643834":{"location":[48.4490247,-4.1568164],"ct":"FR","tp":"CR","ts":"2024-10-30T22:24:58Z","tX":500,"tY":354,"tags":{"capacity":"10","caravan_site":"motorhome_stopover","caravan_site:type":"parking_lot;village","fee":"no","maxstay":"48 hours","name":"Parking de la Maison du Plateau","source":"https://lamartyre.fr/images/documents/20180607_arrete_n14_du_2_mai_2018_r%C3%A9glementant_le_stationnement_des_camping-cars_.pdf","tents":"no","website":"https://lamartyre.fr/tourisme/ou-manger-dormir/camping-cars.html"}},"8464013782":{"location":[48.4163585,-3.9613421],"ct":"FR","tp":"SD","ts":"2024-09-01T20:50:31Z","tX":500,"tY":354,"tags":{"description":"Station de vidange pour Camping-car.","fee":"no","operator":"Ville de Commana","sanitary_dump_station:chemical_toilet":"yes","sanitary_dump_station:grey_water":"yes","sanitary_dump_station:round_drain":"yes","water_point":"yes"}},"8734755338":{"location":[48.3030384,-3.9560737],"ct":"FR","tp":"SD","ts":"2021-05-15T19:14:23Z","tX":500,"tY":354,"tags":{}},"9313200975":{"location":[48.2951748,-4.1854463],"ct":"FR","tp":"SD","ts":"2022-01-03T02:51:37Z","tX":500,"tY":354,"tags":{"access":"customers","addr:street":"Rue de la Grève","fee":"yes","payment:cards":"yes","water_point":"yes"}},"12290621068":{"location":[48.3494464,-3.9989886],"ct":"FR","tp":"SD","ts":"2024-10-26T19:47:02Z","tX":500,"tY":354,"tags":{"access":"yes","water_point":"yes"}}}