{"96398793":{"location":[47.9900289,-4.1203252],"ct":"FR","tp":"CS","ts":"2022-08-27T09:05:14Z","tX":500,"tY":355,"tags":{"capacity:caravans":"74","fee":"yes","name":"Camping municipal","name:br":"Tachenn-gampiñ kêr","opening_hours":"Apr-Sep","phone":"+33 2 98 55 61 09","website":"https://www.quimper.bzh/389-camping-municipal.htm"}},"109636704":{"location":[48.0983782,-4.2122721],"ct":"FR","tp":"CR","ts":"2025-05-16T17:32:40Z","tX":500,"tY":355,"tags":{"bbq":"no","capacity":"40","caravan_site":"motorhome_stopover","caravan_site:type":"village","caravans":"no","charge":"12.55 EUR","dog":"leashed","fee":"yes","maxlength":"9","name":"Locronan","name:nl":"Locronan","network":"CAMPING-CAR PARK","opening_hours":"24/7","operator":"CAMPING CAR-PARK","panoramax":"5f3161e0-aa1e-430d-a06c-a0990970ff14","power_supply":"no","seasonal":"no","tents":"no","toilets":"yes","trailer":"no","website":"https://www.campingcarpark.com/en_GB/stay/stopover-site-motorhome/bretagne/29-finistere/locronan"}},"186543185":{"location":[48.1891809,-4.089444],"ct":"FR","tp":"CS","ts":"2023-08-06T07:51:06Z","tX":500,"tY":355,"tags":{"addr:city":"Châteaulin","addr:postcode":"29150","addr:street":"Rocade de Parc Bihan","caravans":"yes","name":"Camping de Rodaven","phone":"+33 683015267","tents":"yes","website":"https://www.campingderodaven.fr/"}},"361906687":{"location":[48.0957361,-4.1990436],"ct":"FR","tp":"CS","ts":"2022-08-27T09:05:14Z","tX":500,"tY":355,"tags":{"fee":"yes","name":"Camping de Locronan","name:br":"Tachenn-gampiñ Lokorn","opening_hours":"Apr-Sep","phone":"+33 298918776","source:name:br":"proper translation","swimming_pool":"covered","washing_machine":"yes","website":"https://www.camping-locronan.fr/"}},"514264291":{"location":[48.1861616,-4.0853602],"ct":"FR","tp":"CS","ts":"2020-08-07T08:20:25Z","tX":500,"tY":355,"tags":{"internet_access":"wlan","name":"Camping de La Pointe","phone":"+33298865153","stars":"3","website":"https://lapointecamping.com/"}},"729132113":{"location":[48.194075,-3.9804706],"ct":"FR","tp":"CS","ts":"2023-03-10T22:32:11Z","tX":500,"tY":355,"tags":{"addr:hamlet":"Pont Coblant","addr:postcode":"29190","capacity":"80","caravans":"yes","name":"Canal Loisirs","phone":"+33 9 81 64 34 63","tents":"yes","website":"https://canal-loisirs.com/camping-pont-coblant"}},"911567039":{"location":[48.0723255,-4.1884081],"ct":"FR","tp":"CR","ts":"2024-10-08T17:44:13Z","tX":500,"tY":355,"tags":{"access":"yes","addr:city":"Plogonnec","addr:postcode":"29180","addr:street":"Boutefelec","capacity":"7","caravan_site":"motorhome_stopover","caravan_site:type":"supermarket","description":"Aire de camping car Super U - Plogonnec","fee":"no","maxstay":"no","name":"Super U - Plogonnec","operator":"SuperU","power_supply":"yes","sanitary_dump_station":"yes","sanitary_dump_station:chemical_toilet":"yes","sanitary_dump_station:grey_water":"yes","sanitary_dump_station:round_drain":"yes","supervised":"no","water_point":"yes"}},"956078433":{"location":[48.2066913,-4.1234967],"ct":"FR","tp":"CS","ts":"2021-07-03T21:36:47Z","tX":500,"tY":355,"tags":{"addr:city":"Dinéault","addr:postcode":"29150","addr:street":"ty Provost","internet_access":"yes","name":"Ty Provost","operator":"M. Nicolas","website":"https://www.typrovost.com/"}},"1190814317":{"location":[47.9967095,-3.8911437],"ct":"FR","tp":"CR","ts":"2024-06-16T21:36:55Z","tX":500,"tY":355,"tags":{"capacity":"3","caravan_site":"motorhome_stopover","caravan_site:type":"village","fee":"no","maxstay":"48 hours","name":"Aire de Camping-Cars Elliant","sanitary_dump_station":"yes","water_point":"yes"}},"1237802465":{"location":[48.0747355,-3.8690275],"ct":"FR","tp":"CR","ts":"2024-01-07T15:39:51Z","tX":500,"tY":355,"tags":{"caravan_site":"motorhome_stopover","caravan_site:type":"farm","charge":"10 EUR","fee":"yes","name":"Aire camping-car de Ker-odet","power_supply":"yes","sanitary_dump_station":"yes","water_point":"yes"}},"11881387945":{"location":[48.038736,-4.1996178],"ct":"FR","tp":"CR","ts":"2024-05-05T14:55:50Z","tX":500,"tY":355,"tags":{"caravan_site":"motorhome_stopover","caravan_site:type":"village;castle","charge":"10 EUR","fee":"yes","name":"Aire de camping-cars Guengat","opening_hours":"24/7","power_supply":"yes","sanitary_dump_station":"yes","seasonal":"no","water_point":"yes"}},"4743695191":{"location":[48.0980875,-4.2118819],"ct":"FR","tp":"SD","ts":"2025-05-16T17:32:40Z","tX":500,"tY":355,"tags":{"access":"customers","fee":"yes","opening_hours":"24/7","panoramax":"e45992ed-e7e4-4ea8-8b12-1c5d459ffa4e","sanitary_dump_station:round_drain":"yes"}},"8464087880":{"location":[48.0723929,-4.187911],"ct":"FR","tp":"SD","ts":"2021-11-20T14:40:26Z","tX":500,"tY":355,"tags":{"description":"Station de vidange pour Camping-car.","fee":"no","operator":"SuperU","sanitary_dump_station:chemical_toilet":"yes","sanitary_dump_station:grey_water":"yes","sanitary_dump_station:round_drain":"yes","water_point":"yes"}},"11047317151":{"location":[48.0723692,-4.188197],"ct":"FR","tp":"SD","ts":"2023-07-14T22:03:30Z","tX":500,"tY":355,"tags":{"access":"customers"}},"11986176877":{"location":[47.9967317,-3.8909325],"ct":"FR","tp":"SD","ts":"2024-06-16T21:36:55Z","tX":500,"tY":355,"tags":{"access":"yes","fee":"no"}}}