{"37190039":{"location":[47.8821203,-4.1000375],"ct":"FR","tp":"CS","ts":"2022-01-06T10:18:58Z","tX":500,"tY":356,"tags":{"addr:city":"Clohars-Fouesnant","addr:housenumber":"7","addr:postcode":"29950","addr:street":"Route de Benodet","description":"Camping Yelloh Village Port DePlaisance 4 ****, situé en finistère sud. Location de mobile home de 2 à 7 personnes et de chalet.","name":"Camping du Port de Plaisance","name:br":"Tachenn-gampiñ ar Porzh-bageal","phone":"+33298570238","source:name:br":"proper translation","stars":"4","website":"https://www.campingbenodet.fr/","wheelchair":"yes"}},"40921195":{"location":[47.8666068,-3.9060987],"ct":"FR","tp":"CS","ts":"2023-10-23T21:49:08Z","tX":500,"tY":356,"tags":{"addr:city":"Concarneau","addr:housenumber":"49","addr:postcode":"29900","addr:street":"rue de Trégunc","cabins":"yes","caravans":"yes","name":"Camping du Moulin d'Aurore","phone":"+33 2 98 50 53 08","stars":"2","tents":"yes","website":"https://www.moulinaurore.com/"}},"51426851":{"location":[47.8633695,-3.9055627],"ct":"FR","tp":"CR","ts":"2024-10-05T12:40:34Z","tX":500,"tY":356,"tags":{"access":"yes","caravan_site":"motorhome_stopover","caravan_site:type":"coastal;town","charge":"6 EUR","fee":"yes","name":"Aire de camping-car du Porzou","payment:maestro":"yes","surface":"asphalt","website":"https://www.deconcarneauapontaven.com/en/information/camper-areas-brittany/"}},"68998459":{"location":[47.8743744,-4.0673637],"ct":"FR","tp":"CS","ts":"2022-01-06T10:18:58Z","tX":500,"tY":356,"tags":{"addr:city":"Bénodet","addr:housenumber":"74","addr:postcode":"29950","addr:street":"Route de Fouesnant","name":"Camping de la Mer Blanche","name:br":"Tachenn-gampiñ an Aod Wenn","phone":"+33 2 98 57 00 75","source:name:br":"proper translation","stars":"3","website":"https://www.camping-benodet-vacances.com"}},"108268778":{"location":[47.8600521,-3.9892851],"ct":"FR","tp":"CS","ts":"2021-10-15T19:39:38Z","tX":500,"tY":356,"tags":{"cabins":"yes","caravans":"yes","name":"Camping Le Kervastard","phone":"+33 2 98 94 91 52","stars":"3","swimming_pool":"yes","tents":"yes","website":"https://www.campinglekervastard.com"}},"111549561":{"location":[47.8548665,-4.0507245],"ct":"FR","tp":"PK","ts":"2024-09-05T22:18:17Z","tX":500,"tY":356,"tags":{"description":"La sortie peut être submergée par très forte marée.","motorhome":"yes","parking":"surface","source":"cadastre-dgi-fr source : Direction Générale des Impôts - Cadastre. Mise à jour : 2011 + bing","surface":"grass"}},"113485197":{"location":[47.8869419,-4.0368711],"ct":"FR","tp":"CS","ts":"2011-05-15T16:17:41Z","tX":500,"tY":356,"tags":{"name":"Aux deux Chênes","source":"Bing"}},"126732898":{"location":[47.8889198,-3.9426694],"ct":"FR","tp":"CS","ts":"2023-10-23T21:52:51Z","tX":500,"tY":356,"tags":{"addr:city":"Concarneau","addr:housenumber":"123","addr:postcode":"29900","addr:street":"Chemin de Kernous","cabins":"yes","caravans":"yes","name":"Camping Les Prés Verts","phone":"+33 2 98 97 09 74","swimming_pool":"yes","tents":"yes","website":"https://www.presverts-campingconcarneau.com/"}},"154352887":{"location":[47.8506706,-4.1622185],"ct":"FR","tp":"CS","ts":"2024-06-16T21:10:10Z","tX":500,"tY":356,"tags":{"name":"Camping municipal Le Sillon","name:br":"Tachenn-gampiñ kêr an Erv","phone":"+33 2 98 56 43 39","source:name:br":"proper translation","stars":"2","website":"http://www.ile-tudy.fr/fr/information/94806/campings"}},"168770148":{"location":[47.8555474,-3.9015792],"ct":"FR","tp":"CS","ts":"2024-08-05T08:42:08Z","tX":500,"tY":356,"tags":{"addr:city":"Concarneau","addr:postcode":"29900","addr:street":"Avenue du Cabellou","cabins":"yes","caravans":"yes","drinking_water":"yes","name":"Le Cabellou Plage","phone":"+33 2 98 97 37 41","sanitary_dump_station":"yes","shower":"yes","stars":"5","swimming_pool":"yes","tents":"yes","toilets":"yes","website":"https://www.le-cabellou-plage.com"}},"174941226":{"location":[47.8820764,-3.9280738],"ct":"FR","tp":"CS","ts":"2023-07-23T19:20:39Z","tX":500,"tY":356,"tags":{"caravans":"yes","drinking_water":"yes","name":"Camping des Sables Blancs","name:br":"Tachenn-gampiñ an Aod Wenn","phone":"+33 2 98 97 16 44","shower":"yes","source:name:br":"proper translation","stars":"4","tents":"yes","toilets":"yes","website":"https://www.camping-lessablesblancs.com","wheelchair":"yes"}},"177218180":{"location":[47.8402094,-3.8791265],"ct":"FR","tp":"CS","ts":"2021-12-14T21:36:13Z","tX":500,"tY":356,"tags":{"cabins":"yes","caravans":"yes","name":"Domaine de Pendruc","phone":"+33 2 98 97 66 28","stars":"4","swimming_pool":"yes","tents":"yes","website":"https://www.domainedependruc.com"}},"197029871":{"location":[47.8583008,-3.9872084],"ct":"FR","tp":"CS","ts":"2022-08-25T15:02:32Z","tX":500,"tY":356,"tags":{"cabins":"yes","caravans":"yes","internet_access":"wlan","internet_access:fee":"no","name":"Camping Le Kerolland","name:br":"Tachenn-gampiñ Kerrolant","phone":"+33 2 98 94 91 00","source:name:br":"proper translation","tents":"yes","website":"https://www.camping-kerolland.fr"}},"197247730":{"location":[47.8556272,-3.999059],"ct":"FR","tp":"CS","ts":"2022-01-07T18:22:55Z","tX":500,"tY":356,"tags":{"cabins":"yes","caravans":"yes","name":"Camping Le Vorlen","name:br":"Tachenn-gampiñ ar Vorlenn","operator":"Odalys","source:name:br":"proper translation","swimming_pool":"yes","tents":"yes","website":"https://www.odalys-pleinair.com/nos-campings/camping-odalys-le-vorlen/"}},"241143710":{"location":[47.8405039,-3.8969306],"ct":"FR","tp":"CR","ts":"2024-04-01T13:36:17Z","tX":500,"tY":356,"tags":{"access":"yes","capacity":"5","caravan_site":"motorhome_stopover","caravan_site:type":"beach","fee":"no","maxstay":"2 nights","name":"Aire de Pouldohan","power_supply":"no","sanitary_dump_station":"no","water_point":"no"}},"253503978":{"location":[47.898649,-3.9682078],"ct":"FR","tp":"CS","ts":"2022-01-07T23:37:21Z","tX":500,"tY":356,"tags":{"name":"Camping de Kerleven","name:br":"Tachenn-gampiñ Kerleven","phone":"+33 2 98 56 98 83","source:name:br":"proper translation","stars":"4","website":"https://www.campingdekerleven.com"}},"253544521":{"location":[47.8974164,-3.9672284],"ct":"FR","tp":"CS","ts":"2022-01-07T23:37:21Z","tX":500,"tY":356,"tags":{"name":"Camping européen de la plage","name:br":"Tachenn-gampiñ an Traezh","source:name:br":"proper translation"}},"257920314":{"location":[47.8338113,-3.8895405],"ct":"FR","tp":"CS","ts":"2021-12-14T21:31:35Z","tX":500,"tY":356,"tags":{"addr:city":"Trégunc","addr:housenumber":"8","addr:postcode":"29910","addr:street":"route du Camping","cabins":"yes","caravans":"yes","name":"Camping de la Plage Loc'h Ven","phone":"+33 2 98 50 26 20","stars":"2","tents":"yes","website":"https://www.lochven.com"}},"257922558":{"location":[47.8298116,-3.8872419],"ct":"FR","tp":"CR","ts":"2024-10-05T16:37:19Z","tX":500,"tY":356,"tags":{"caravan_site":"motorhome_stopover","caravan_site:type":"beach","maxstay":"2 nights","name":"Aire de Kerlaëron","parking":"surface"}},"278573890":{"location":[47.9414118,-4.0248701],"ct":"FR","tp":"CS","ts":"2020-08-11T09:41:41Z","tX":500,"tY":356,"tags":{"name":"Camping de Keromen","phone":"+33 2 98 64 09 59","washing_machine":"yes","website":"http://www.campingdekeromen.fr/index.html"}},"312103648":{"location":[47.8566467,-4.0197259],"ct":"FR","tp":"CS","ts":"2024-08-28T16:25:07Z","tX":500,"tY":356,"tags":{"addr:city":"Fouesnant","addr:country":"FR","addr:place":"Hent Kerbader","addr:postcode":"29170","cabins":"yes","caravans":"yes","contact:phone":"+33 2 98 56 14 44","contact:website":"http://www.camping-bretagne-atlantique.com/","drinking_water":"yes","name":"L'Atlantique","shower":"yes","stars":"5","swimming_pool":"yes","tents":"yes"}},"312104496":{"location":[47.8537319,-4.0275919],"ct":"FR","tp":"CS","ts":"2021-10-13T18:19:59Z","tX":500,"tY":356,"tags":{"cabins":"yes","caravans":"yes","name":"Camping de la Plage de Cleut-Rouz","phone":"+33 2 98 56 53 19","stars":"4","tents":"yes","website":"https://www.campinglaplage.fr"}},"312104497":{"location":[47.8519141,-4.0345469],"ct":"FR","tp":"CS","ts":"2021-10-16T20:39:33Z","tX":500,"tY":356,"tags":{"addr:city":"Fouesnant-Mousterlin","addr:housenumber":"17","addr:postcode":"29170","addr:street":"route du Grand Large","cabins":"yes","caravans":"yes","name":"Camping Kost-Ar-Moor","phone":"+33 2 98 56 04 16","stars":"3","tents":"yes","website":"https://www.camping-fouesnant.com"}},"312105157":{"location":[47.8483188,-4.0381963],"ct":"FR","tp":"CS","ts":"2022-01-07T18:22:55Z","tX":500,"tY":356,"tags":{"cabins":"yes","caravans":"no","name":"Camping du Grand Large","name:br":"Tachenn-gampiñ an Donvor","phone":"+33 2 98 56 04 06","source:name:br":"proper translation","stars":"4","tents":"no","website":"https://www.villagelegrandlarge.com"}},"312106033":{"location":[47.856049,-4.0117684],"ct":"FR","tp":"CS","ts":"2023-09-11T19:51:06Z","tX":500,"tY":356,"tags":{"cabins":"yes","caravans":"no","name":"Village Club du Soleil Beg-Meil","tents":"no","website":"https://www.villagesclubsdusoleil.com/fr/nos-destinations/sejour-a-la-mer/beg-meil"}},"314482863":{"location":[47.9000401,-3.9637214],"ct":"FR","tp":"CS","ts":"2022-01-07T23:37:21Z","tX":500,"tY":356,"tags":{"name":"Camping Les Saules","name:br":"Tachenn-gampiñ an Haleg","source:name:br":"proper translation"}},"314483046":{"location":[47.8981661,-3.9606593],"ct":"FR","tp":"CS","ts":"2024-08-11T15:09:36Z","tX":500,"tY":356,"tags":{"name":"Camping Les Saules","name:br":"Tachenn-gampiñ an Haleg","phone":"+33 2 98 56 98 57","source:name:br":"proper translation","stars":"3","website":"https://www.camping-les-saules.com"}},"314484731":{"location":[47.898432,-3.9537207],"ct":"FR","tp":"CS","ts":"2021-11-09T21:40:59Z","tX":500,"tY":356,"tags":{"addr:housenumber":"1","addr:street":"Route de Saint-Laurent","name":"Keranterec","phone":"+33 2 98 56 98 11","stars":"4","website":"https://www.camping-keranterec.com/"}},"314574102":{"location":[47.8587656,-4.0260484],"ct":"FR","tp":"CS","ts":"2014-11-26T14:08:53Z","tX":500,"tY":356,"tags":{}},"314968849":{"location":[47.8823869,-4.1934477],"ct":"FR","tp":"CS","ts":"2021-09-24T18:34:58Z","tX":500,"tY":356,"tags":{"name":"Le Bois Soleil","permanent_camping":"only","tents":"no"}},"315596100":{"location":[47.868012,-4.1287864],"ct":"FR","tp":"CS","ts":"2021-12-30T11:54:12Z","tX":500,"tY":356,"tags":{"name":"Camping Le Hellès","name:br":"Tachenn-gampiñ Hellez","phone":"+33 2 98 56 31 46","source:name:br":"proper translation","stars":"3","website":"https://www.le-helles.com/"}},"424612500":{"location":[47.8689287,-4.0966815],"ct":"FR","tp":"CS","ts":"2022-01-06T09:06:13Z","tX":500,"tY":356,"tags":{"name":"Camping de la Plage","name:br":"Tachenn-gampiñ an Draezhenn","source:name:br":"proper translation","stars":"3","website":"https://www.campingdelaplagebenodet.com/"}},"424612501":{"location":[47.8647235,-4.0971483],"ct":"FR","tp":"CS","ts":"2020-01-02T10:18:14Z","tX":500,"tY":356,"tags":{"name":"L'Escale Saint-Gilles","stars":"5","website":"https://www.escale-stgilles.fr/"}},"424612502":{"location":[47.8635614,-4.0913297],"ct":"FR","tp":"CS","ts":"2024-08-14T21:56:03Z","tX":500,"tY":356,"tags":{"caravans":"yes","drinking_water":"yes","name":"Le Letty","name:br":"Al Leti","power_supply":"yes","sanitary_dump_station":"yes","shower":"yes","source:name:br":"ofis publik ar brezhoneg","stars":"4","tents":"yes","toilets":"yes","website":"https://www.campingduletty.com/"}},"424612503":{"location":[47.8732451,-4.0992971],"ct":"FR","tp":"CS","ts":"2020-04-30T07:06:07Z","tX":500,"tY":356,"tags":{"name":"Camping du Trez","name:br":"Tachenn-gampiñ an Traezh","source:name:br":"proper translation","stars":"3","website":"https://www.campingdutrez.com/"}},"424998191":{"location":[47.8794387,-3.9928485],"ct":"FR","tp":"CS","ts":"2021-10-15T21:08:02Z","tX":500,"tY":356,"tags":{"cabins":"yes","caravans":"yes","name":"Camping de Kerscolper","phone":"+33 2 98 56 09 48","stars":"3","swimming_pool":"yes","tents":"yes","website":"https://www.camping-kerscolper.fr"}},"511555219":{"location":[47.8636525,-4.0589148],"ct":"FR","tp":"CS","ts":"2017-07-30T19:35:12Z","tX":500,"tY":356,"tags":{}},"618353108":{"location":[47.8685862,-3.992383],"ct":"FR","tp":"CS","ts":"2024-08-17T08:03:49Z","tX":500,"tY":356,"tags":{"cabins":"yes","caravans":"no","drinking_water":"yes","fee":"yes","name":"Camping La Roche Percée","name:br":"Tachenn-gampiñ ar Garreg Toull","phone":"+33 2 98 94 94 15","source:name:br":"proper translation","stars":"4","swimming_pool":"yes","tents":"no","website":"https://www.camping-larochepercee.com"}},"626456580":{"location":[47.8788894,-3.9206814],"ct":"FR","tp":"CR","ts":"2024-09-24T21:58:02Z","tX":500,"tY":356,"tags":{"caravan_site":"motorhome_stopover","caravan_site:type":"parking_lot","charge":"EUR 6.00/nuit (20:00-08:00)","description":"L' aire communale du parking de la Gare se situe à proximité du centre-ville et de la Ville Close ( 5 - 10 minutes à pied). 47 emplacements. Le stationnement est payant du 1er avril au 30 septembre de 20h à 8h : 6 € / nuit (taxe de séjour comprise Service","fee":"Apr-Sep 20:00-08:00","name":"Parking de la Gare Concarneau","power_supply":"no","sanitary_dump_station":"yes","surface":"asphalt","wheelchair":"yes"}},"626688864":{"location":[47.8491713,-3.8861739],"ct":"FR","tp":"CR","ts":"2024-08-12T13:58:52Z","tX":500,"tY":356,"tags":{"capacity":"10","caravan_site":"motorhome_stopover","caravan_site:type":"beach","fee":"no","maxstay":"2 nights","name":"Aire de Ster Greich","power_supply":"no","sanitary_dump_station":"no","surface":"compacted"}},"647727472":{"location":[47.8518466,-4.1640495],"ct":"FR","tp":"CS","ts":"2024-05-24T12:09:37Z","tX":500,"tY":356,"tags":{"addr:city":"Île-Tudy","addr:housenumber":"24","addr:postcode":"29980","addr:street":"Avenue des Sports","capacity":"74","caravans":"yes","name":"GCU Île-Tudy","name:br":"SKS Enez-Tudi","operator":"Groupement des Campeurs Universitaires","phone":"+33 2 98 51 30 79","sanitary_dump_station":"yes","source:name:br":"proper translation","stars":"2","static_caravans":"yes","tents":"yes","website":"https://www.gcu.asso.fr/terrains/%C3%AEle-tudy-finist%C3%A8re-29"}},"647728418":{"location":[47.8530181,-4.1626356],"ct":"FR","tp":"CS","ts":"2021-12-30T11:54:12Z","tX":500,"tY":356,"tags":{"access":"permissive","addr:city":"Île-Tudy","addr:housenumber":"18","addr:postcode":"29980","addr:street":"Avenue des Sports","name":"Camping Le bois d’Amour","name:br":"Tachenn-gampiñ Ar C'hoad Amour","phone":"+33 2 98 56 43 54","source:name:br":"proper translation","stars":"2","website":"https://www.boisdamour.fr"}},"760003437":{"location":[47.8672844,-4.0986601],"ct":"FR","tp":"CS","ts":"2020-07-31T19:16:57Z","tX":500,"tY":356,"tags":{"contact:phone":"+33 2 98 57 04 19","name":"Camping du Poulquer","stars":"4","website":"https://www.campingdupoulquer.com/"}},"982080091":{"location":[47.8070534,-4.2069564],"ct":"FR","tp":"CS","ts":"2023-10-25T09:58:08Z","tX":500,"tY":356,"tags":{"name":"Les Sables Blancs","name:br":"An Aod Wenn","phone":"+33 2 98 87 84 79","source:name:br":"proper translation","stars":"2","website":"https://www.campingdessablesblancs.fr/"}},"986437071":{"location":[47.8273315,-4.1652433],"ct":"FR","tp":"CS","ts":"2022-08-27T09:05:14Z","tX":500,"tY":356,"tags":{"name":"Camping de Kergall","name:br":"Tachenn-gampiñ Kergall","opening_hours":"apr-sep","phone":"+33 2 98 87 45 93","source:name:br":"proper translation","website":"https://www.camping-kergall.fr/"}},"993135159":{"location":[47.8644959,-4.0142134],"ct":"FR","tp":"CS","ts":"2021-10-15T19:56:24Z","tX":500,"tY":356,"tags":{"cabins":"yes","caravans":"yes","name":"Camping De La Piscine","phone":"+33 2 98 56 56 06","stars":"4","swimming_pool":"yes","tents":"yes","website":"https://www.camping-bretagne-delapiscine.com"}},"993150688":{"location":[47.89122,-3.9972237],"ct":"FR","tp":"CS","ts":"2022-01-07T17:23:06Z","tX":500,"tY":356,"tags":{"addr:city":"Fouesnant","addr:housenumber":"104","addr:postcode":"29170","addr:street":"Descente du Cap","cabins":"yes","capacity":"64","caravans":"yes","name":"Camping les Mimosas","name:br":"Tachenn-gampiñ ar Mimoza","phone":"+33 2 98 56 55 81","source:name:br":"proper translation","stars":"3","swimming_pool":"yes","tents":"yes","website":"https://www.camping-fouesnant-les-mimosas.com"}},"993332336":{"location":[47.8844651,-3.9983274],"ct":"FR","tp":"CS","ts":"2022-01-07T17:23:06Z","tX":500,"tY":356,"tags":{"addr:city":"Fouesnant","addr:postcode":"29170","addr:street":"Hent Kersentic","cabins":"yes","caravans":"yes","name":"Camping de Kersentic","name:br":"Tacehnn-gampiñ Kersentig","phone":"+33 2 98 56 08 66","source:name:br":"proper translation","stars":"3","swimming_pool":"yes","tents":"yes","website":"https://www.camping-kersentic.com"}},"993333873":{"location":[47.8517741,-4.0369553],"ct":"FR","tp":"CS","ts":"2021-10-16T20:35:29Z","tX":500,"tY":356,"tags":{"addr:city":"Fouesnant-Mousterlin","addr:housenumber":"15","addr:postcode":"29170","addr:street":"route du Grand Large","cabins":"yes","caravans":"yes","name":"Penhoat Côté Plage","phone":"+33 2 98 56 51 89","stars":"3","swimming_pool":"no","tents":"yes","website":"https://www.camping-penhoat.com"}},"1000919641":{"location":[47.8963731,-3.9530682],"ct":"FR","tp":"CS","ts":"2021-11-09T21:40:59Z","tX":500,"tY":356,"tags":{"addr:housenumber":"9","addr:street":"Route de Saint-Laurent","name":"Camping Saint Laurent","phone":"+33 2 98 56 97 65","stars":"4","website":"https://www.camping-du-saint-laurent.fr"}},"1018644703":{"location":[47.8103083,-4.1770452],"ct":"FR","tp":"CS","ts":"2022-09-04T12:56:18Z","tX":500,"tY":356,"tags":{"addr:city":"Loctudy","addr:housenumber":"6","addr:postcode":"29750","addr:street":"Rue de Penhador","capacity":"68","caravans":"yes","fee":"yes","name":"Camping des Mouettes","power_supply":"yes","remark":"Limite exacte à vérifier","sanitary_dump_station":"customers","surface":"grass","tents":"yes"}},"1032842758":{"location":[47.9784801,-4.1120662],"ct":"FR","tp":"CS","ts":"2023-04-22T20:53:51Z","tX":500,"tY":356,"tags":{"name":"Camping L'Orangerie de Lanniron","name:br":"Tachenn-gampiñ Lanniron","operator":"Sunêlia","phone":"+33 2 98 90 62 02","source:name:br":"ofis publik ar brezhoneg","stars":"5","website":"https://www.camping-lanniron.com/"}},"1082711757":{"location":[47.8981116,-3.9585266],"ct":"FR","tp":"CS","ts":"2024-08-11T15:09:36Z","tX":500,"tY":356,"tags":{"addr:city":"La Forêt-Fouesnant","addr:housenumber":"61","addr:postcode":"29940","addr:street":"Route de la Plage","caravans":"yes","fee":"yes","motorhome":"yes","name":"Les Falaises","payment:cash":"yes","payment:credit_cards":"yes","payment:debit_cards":"yes","phone":"+33 2 98 56 91 26","shower":"yes","tents":"yes","toilets":"yes","website":"https://www.camping-les-falaises.com/"}},"1092974544":{"location":[47.9046553,-3.9197071],"ct":"FR","tp":"CS","ts":"2024-04-12T16:25:26Z","tX":500,"tY":356,"tags":{"caravans":"yes","drinking_water":"yes","name":"Camping de Lochrist","power_supply":"yes","shower":"yes","tents":"yes","toilets":"yes","website":"https://www.campingdelochrist.com"}},"1099686145":{"location":[47.8279854,-4.1654215],"ct":"FR","tp":"CR","ts":"2024-05-18T13:55:23Z","tX":500,"tY":356,"tags":{"bbq":"no","capacity":"23","caravan_site":"motorhome_stopover","caravan_site:type":"beach","caravans":"no","charge":"15.43 EUR","charge:conditional":"14.44 EUR @ (Oct-Mar)","description":"Située à 200 m de la plage de Langoz. A proximité des terrains de pétanque et du Centre nautique. Accès grâce au PASS'ETAPES.","dog":"leashed","fee":"yes","internet_access":"wlan","internet_access:fee":"no","maxlength":"9","name":"Aire Camping-Car Park Loctudy","network":"CAMPING-CAR PARK","operator":"CampingCarPark.com","power_supply":"yes","sanitary_dump_station":"yes","tents":"no","trailer":"no","website":"https://campingcarpark.com/"}},"1159436606":{"location":[47.865755,-4.0505582],"ct":"FR","tp":"CS","ts":"2024-04-28T16:06:38Z","tX":500,"tY":356,"tags":{"caravans":"yes","mobile":"+33 6 19 36 00 85","name":"Camping de Leanou","phone":"+33 2 98 56 15 32","tents":"yes","website":"https://camping-leanou.com"}},"1266207744":{"location":[47.9092777,-3.9847984],"ct":"FR","tp":"CR","ts":"2024-06-16T21:11:48Z","tX":500,"tY":356,"tags":{"caravan_site":"motorhome_stopover","caravan_site:type":"village;harbour","charge":"13.32 EUR","dog":"yes","fee":"yes","internet_access":"wlan","internet_access:fee":"no","maxstay":"15 days","name":"La Forêt-Fouesnant - Le nautile","power_supply":"yes","sanitary_dump_station":"yes","tents":"no","water_point":"yes","website":"https://www.foret-fouesnant-tourisme.com/aire-camping-car/aire-de-stationnement-nautile-la-foret-fouesnant/"}},"1292934168":{"location":[47.8502055,-4.1616711],"ct":"FR","tp":"CR","ts":"2024-06-16T21:10:10Z","tX":500,"tY":356,"tags":{"caravan_site":"motorhome_stopover","caravan_site:type":"camp_site","charge":"16.94 EUR","charge:conditional":"12.44 EUR @ (Sep 16-Apr 11)","fee":"yes","name":"Camping municipal de l'Île-Tudy Le Sillon","seasonal":"no","shower":"yes","website":"http://www.ile-tudy.fr/fr/information/94806/campings"}},"1292935234":{"location":[47.9003869,-4.0279698],"ct":"FR","tp":"CR","ts":"2024-10-12T20:12:11Z","tX":500,"tY":356,"tags":{"caravan_site":"motorhome_stopover","caravan_site:type":"supermarket","fee":"no","name":"Pleuven - Centre Leclerc","network":"AirePark","power_supply":"yes","power_supply:capacity":"6","power_supply:fee":"yes","sanitary_dump_station":"yes","water_point":"yes","website":"https://www.aireparkreservation.com/aires-camping-cars/bretagne/finistere/pleuven-centre-leclerc"}},"1306174939":{"location":[47.8513596,-4.0459011],"ct":"FR","tp":"CR","ts":"2024-08-07T13:54:50Z","tX":500,"tY":356,"tags":{"caravan_site":"motorhome_stopover","caravan_site:type":"beach","caravans":"no","fee":"no","maxstay":"48 hours","name":"Aire de Fouesnant-les-Glénan","surface":"grass","tents":"no","website":"https://www.tourisme-fouesnant.fr/aire-camping-car/aire-de-stationnement-de-fouesnant-les-glenan-fouesnant/"}},"1316250251":{"location":[47.9393721,-3.997199],"ct":"FR","tp":"CS","ts":"2024-09-19T22:06:22Z","tX":500,"tY":356,"tags":{"caravans":"yes","drinking_water":"yes","name":"Créac'h Lann","power_supply":"yes","shower":"yes","tents":"yes"}},"2305391714":{"location":[47.9093542,-4.1400508],"ct":"FR","tp":"CS","ts":"2022-03-29T19:20:57Z","tX":500,"tY":356,"tags":{"addr:city":"Gouesnach","addr:housenumber":"60","addr:postcode":"29950","addr:street":"vieille Route de Pors Keraign","name":"Pors Keraign","phone":"+33 9 88 03 19 35","stars":"2","website":"https://www.pors-keraign.fr"}},"4163920889":{"location":[47.9502926,-3.9630462],"ct":"FR","tp":"CS","ts":"2020-08-07T15:03:21Z","tX":500,"tY":356,"tags":{"name":"Camping Les Myrtilles","phone":"+33 2 98 94 71 25","stars":"2","website":"https://www.campinglesmyrtilles.com/"}},"4163920890":{"location":[47.9513907,-3.9676443],"ct":"FR","tp":"CS","ts":"2020-08-07T11:29:32Z","tX":500,"tY":356,"tags":{"name":"Camping du Bois de Pleuven","phone":"+33 430051503","stars":"4","swimming_pool":"yes","website":"https://www.campingleboisdepleuven.com/"}},"9082666365":{"location":[47.8042106,-4.2059505],"ct":"FR","tp":"CS","ts":"2021-12-29T17:03:51Z","tX":500,"tY":356,"tags":{"name":"Keralouet","name:br":"Keraloued","phone":"+33 2 98 82 23 05","source:name:br":"ofis publik ar brezhoneg","stars":"3","website":"https://www.camping-finistere-keralouet.com"}},"9391621154":{"location":[47.8690307,-4.1559102],"ct":"FR","tp":"CS","ts":"2023-09-10T11:09:21Z","tX":500,"tY":356,"tags":{"addr:city":"COMBRIT","addr:postcode":"29120","addr:street":"Menez Lanveur","caravans":"yes","fee":"yes","name":"Camping de Menez Lanveur","tents":"yes"}},"9931548047":{"location":[47.8642726,-3.903196],"ct":"FR","tp":"CR","ts":"2024-10-30T21:35:27Z","tX":500,"tY":356,"tags":{"capacity":"38","caravan_site":"motorhome_stopover","caravan_site:type":"overflow","charge":"6.40 EUR","fee":"yes","maxstay":"48 hours","name":"Aire Cours Charlemagne","opening_hours":"Jul-Aug","surface":"asphalt","website":"https://www.deconcarneauapontaven.com/informations/les-aires-de-camping-cars/"}},"12247118572":{"location":[47.9040108,-3.9065193],"ct":"FR","tp":"CR","ts":"2024-10-30T21:32:25Z","tX":500,"tY":356,"tags":{"capacity":"60","caravan_site":"motorhome_stopover","caravan_site:type":"town","fee":"no","name":"Aire de Colguen","opening_hours":"Jun-Sep","ref":"A3","surface":"gravel","website":"https://www.deconcarneauapontaven.com/en/information/camper-areas-brittany/"}},"12290709796":{"location":[47.9384656,-4.1561767],"ct":"FR","tp":"CR","ts":"2024-10-26T20:40:08Z","tX":500,"tY":356,"tags":{"capacity":"15","caravan_site":"motorhome_stopover","caravan_site:type":"village","charge":"13.10 EUR","fee":"no","maxstay":"7 days","name":"Aire Plomelin","opening_hours":"24/7","power_supply":"yes","power_supply:charge":"1 EUR/3 hours","power_supply:fee":"yes","sanitary_dump_station":"yes","sanitary_dump_station:chemical_toilet":"yes","sanitary_dump_station:grey_water":"yes","seasonal":"no","shadow":"partial","water_point":"yes","water_point:charge":"2 EUR","water_point:fee":"yes","website":"https://www.aireparkreservation.com/aires-camping-cars/bretagne/finistere/plomelin"}},"5914159987":{"location":[47.879011,-3.9203891],"ct":"FR","tp":"SD","ts":"2018-09-18T17:47:29Z","tX":500,"tY":356,"tags":{"access":"yes","fee":"no","opening_hours":"24/7","sanitary_dump_station:basin":"yes","sanitary_dump_station:round_drain":"yes"}},"6767721156":{"location":[47.8558202,-3.9022846],"ct":"FR","tp":"SD","ts":"2019-09-02T23:01:50Z","tX":500,"tY":356,"tags":{}},"6848326420":{"location":[47.8632863,-3.9053302],"ct":"FR","tp":"SD","ts":"2019-10-03T17:47:58Z","tX":500,"tY":356,"tags":{"access":"yes","fee":"no","water_point":"yes"}},"8270450336":{"location":[47.9590369,-3.9570947],"ct":"FR","tp":"SD","ts":"2020-12-29T15:46:38Z","tX":500,"tY":356,"tags":{}},"9036237673":{"location":[47.8557057,-3.9021564],"ct":"FR","tp":"SD","ts":"2021-08-25T21:14:48Z","tX":500,"tY":356,"tags":{}},"9977243962":{"location":[47.8591713,-3.986372],"ct":"FR","tp":"SD","ts":"2022-08-25T14:54:05Z","tX":500,"tY":356,"tags":{"access":"customers","name":"Camping Le Kerolland"}},"11986170040":{"location":[47.9002891,-4.0280651],"ct":"FR","tp":"SD","ts":"2024-06-16T21:17:29Z","tX":500,"tY":356,"tags":{"access":"yes"}}}