{"164485573":{"location":[40.9323129,-4.090276],"ct":"ES","tp":"CS","ts":"2024-01-04T20:15:21Z","tX":500,"tY":384,"tags":{"access":"customers","addr:city":"Segovia","addr:postcode":"40004","addr:street":"Avenida Don Juan de Borbón y Battemberg","caravans":"yes","drinking_water":"yes","fee":"yes","internet_access":"wlan","name":"Camping Acueducto","power_supply":"yes","sanitary_dump_station":"yes","shower":"yes","tents":"yes","toilets":"yes","toilets:wheelchair":"limited","website":"https://www.campingacueducto.com/","wheelchair":"limited"}},"696531415":{"location":[40.741485,-3.8743645],"ct":"ES","tp":"CS","ts":"2019-11-26T08:19:32Z","tX":500,"tY":384,"tags":{"addr:city":"Manzanares El Real","addr:housenumber":"19","addr:postcode":"28410","addr:street":"Calle del Montañero","addr:unit":"D","name":"Cámping El Ortigal"}},"706468243":{"location":[40.8578525,-3.8926849],"ct":"ES","tp":"PK","ts":"2021-04-24T18:52:51Z","tX":500,"tY":384,"tags":{"access":"yes","fee":"no","motorhome":"yes","parking":"surface","surface":"ground"}},"764526784":{"location":[40.7332756,-3.9937543],"ct":"ES","tp":"CS","ts":"2020-01-19T09:08:24Z","tX":500,"tY":384,"tags":{"tents":"yes"}},"774877871":{"location":[40.9049821,-4.0075317],"ct":"ES","tp":"CR","ts":"2024-05-04T18:02:09Z","tX":500,"tY":384,"tags":{"addr:city":"Real Sitio de San Ildefonso","addr:street":"Paseo de la Fuente del Príncipe","capacity":"10","drinking_water":"yes","fee":"no","motorhome":"designated","parking":"surface","power_supply":"no","sanitary_dump_station":"yes"}},"930990902":{"location":[40.9407001,-4.1078768],"ct":"ES","tp":"CR","ts":"2024-11-03T16:34:02Z","tX":500,"tY":384,"tags":{"access":"yes","addr:city":"Segovia","addr:postcode":"40005","addr:street":"Calle Campo Azálvaro","capacity":"10","caravan_site":"motorhome_stopover","caravan_site:type":"city","covered":"no","drinking_water":"yes","fee":"no","maxstay":"no","name":"Segovia Area de Autocaravanas","opening_hours":"24/7","operator":"Ayuntamiento de Segovia","power_supply":"no","sanitary_dump_station":"yes","sanitary_dump_station:chemical_toilet":"yes","sanitary_dump_station:grey_water":"yes","sanitary_dump_station:round_drain":"yes","smoking":"outside","supervised":"no","surface":"unpaved","toilets":"no","water_point":"yes","wheelchair":"yes"}},"930995743":{"location":[40.9280514,-4.0577588],"ct":"ES","tp":"CR","ts":"2024-05-16T19:05:31Z","tX":500,"tY":384,"tags":{"access":"yes","addr:city":"Palazuelos de Eresma","addr:postcode":"40194","addr:street":"Calle Cañada","capacity":"10","caravan_site":"motorhome_stopover","caravan_site:type":"village","covered":"no","description:fr":"Eau possible contre une jeton disponible a la mairie pour 1€.","drinking_water":"yes","fee":"no","maxstay":"72 hours","name":"Aparcamiento de autocaravanas de Palazuelos","opening_hours":"24/7","operator":"ciudad de Palazuelos de Eresma","power_supply":"no","sanitary_dump_station":"yes","sanitary_dump_station:chemical_toilet":"yes","sanitary_dump_station:grey_water":"yes","sanitary_dump_station:round_drain":"yes","supervised":"no","surface":"unpaved","toilets":"no","water_point":"yes"}},"1126057459":{"location":[40.9587279,-4.0994146],"ct":"ES","tp":"CR","ts":"2024-05-20T20:10:25Z","tX":500,"tY":384,"tags":{"addr:city":"El Sotillo","addr:postcode":"40196","addr:street":"Calle Colombia","drinking_water":"no","fee":"no","name":"Aparcamiento de Autocaravanas de El Sotillo","power_supply":"yes","sanitary_dump_station":"no","toilets":"no"}},"1347580199":{"location":[40.7176077,-4.1626193],"ct":"ES","tp":"CS","ts":"2024-12-31T23:15:14Z","tX":500,"tY":384,"tags":{"access":"customers","addr:city":"Gudillos","addr:postcode":"40410","backcountry":"no","caravans":"no","drinking_water":"yes","email":"alberguecampa@arcinature.com","fee":"yes","group_only":"yes","mobile":"+34 675 604 197","name":"Albergue Juvenil Campamento Alto de León","picnic_table":"yes","power_supply":"yes","reservation":"required","shower":"yes","static_caravans":"no","tents":"yes","toilets":"yes","website":"https://campamentosyalbergues.com/campamento-alto-del-leon/","wheelchair":"limited"}},"6363150249":{"location":[40.741054,-4.0780539],"ct":"ES","tp":"CS","ts":"2019-03-26T17:58:52Z","tX":500,"tY":384,"tags":{"name":"Campamentos de la Peñota"}},"8631996339":{"location":[40.9407219,-4.1081124],"ct":"ES","tp":"SD","ts":"2024-02-05T20:32:35Z","tX":500,"tY":384,"tags":{"access":"yes","fee":"no","motorhome":"designated","operator":"Ayuntamiento de Segovia","sanitary_dump_station":"public","sanitary_dump_station:chemical_toilet":"yes","sanitary_dump_station:grey_water":"yes","sanitary_dump_station:round_drain":"yes","water_point":"yes"}},"8632038644":{"location":[40.9280233,-4.0575667],"ct":"ES","tp":"SD","ts":"2024-05-16T19:05:31Z","tX":500,"tY":384,"tags":{"access":"yes","fee":"no","motorhome":"designated","operator":"Ayuntamiento de Palazuelos de Eresma","sanitary_dump_station":"public","sanitary_dump_station:chemical_toilet":"yes","sanitary_dump_station:grey_water":"yes","sanitary_dump_station:round_drain":"yes","water_point":"yes"}}}