{"934263741":{"location":[37.5897128,-4.0891647],"ct":"ES","tp":"CR","ts":"2024-04-14T21:48:08Z","tX":500,"tY":396,"tags":{"access":"yes","addr:city":"Alcaudete","addr:postcode":"23660","addr:street":"Calle Paco el Arriero","capacity":"3","caravan_site":"motorhome_stopover","covered":"no","drinking_water":"yes","fee":"no","name":"Área de autocaravanas Alcaudete","opening_hours":"24/7","operator":"ciudad de Alcaudete","power_supply":"no","sanitary_dump_station":"yes","sanitary_dump_station:chemical_toilet":"yes","sanitary_dump_station:grey_water":"yes","sanitary_dump_station:round_drain":"yes","supervised":"no","surface":"unpaved","water_point":"yes"}},"934270087":{"location":[37.4436221,-4.2117532],"ct":"ES","tp":"CR","ts":"2024-04-14T21:48:08Z","tX":500,"tY":396,"tags":{"access":"yes","addr:city":"Priego de Córdoba","addr:postcode":"14800","addr:street":"Carretera Alcalá la Real","capacity":"10","caravan_site":"motorhome_stopover","covered":"no","drinking_water":"yes","fee":"no","name":"Área de Autocaravanas Priego de Córdoba","opening_hours":"Su-Fr 00:00-24:00; Sa 15:00-00:00","operator":"ciudad de Priego de Córdoba","phone":"+34 957700625","power_supply":"no","sanitary_dump_station":"yes","sanitary_dump_station:chemical_toilet":"yes","sanitary_dump_station:grey_water":"yes","sanitary_dump_station:round_drain":"yes","supervised":"no","surface":"unpaved","water_point":"yes","website":"https://www.turismodepriego.com/"}},"4330025889":{"location":[37.4537712,-3.9299211],"ct":"ES","tp":"CS","ts":"2016-07-31T22:03:51Z","tX":500,"tY":396,"tags":{"name":"polideportivo"}},"9174806217":{"location":[37.4534307,-3.9202376],"ct":"ES","tp":"CR","ts":"2024-01-27T17:51:42Z","tX":500,"tY":396,"tags":{"addr:housenumber":"2","addr:postcode":"23680","addr:street":"Calle Pepe Ramos","charge":"12 EUR","email":"info@alcalacamperpark.com","fee":"yes","internet_access":"wlan","laundry":"yes","name":"Alcalá Camper Park","opening_hours":"24/7","phone":"+34646187097","power_supply":"yes","sanitary_dump_station":"yes","sanitary_dump_station:chemical_toilet":"yes","sanitary_dump_station:grey_water":"yes","shower":"yes","water_point":"yes","website":"https://alcalacamperpark.com/"}},"8658931763":{"location":[37.5897561,-4.0892207],"ct":"ES","tp":"SD","ts":"2023-08-29T15:15:35Z","tX":500,"tY":396,"tags":{"access":"yes","fee":"no","operator":"Ayuntamiento de Alcaudete","sanitary_dump_station":"public","sanitary_dump_station:chemical_toilet":"yes","sanitary_dump_station:grey_water":"yes","sanitary_dump_station:round_drain":"yes","water_point":"yes"}},"8658994453":{"location":[37.4436464,-4.2119809],"ct":"ES","tp":"SD","ts":"2023-08-29T15:15:35Z","tX":500,"tY":396,"tags":{"access":"yes","fee":"no","operator":"Ayuntamiento de Priego de Córdoba","sanitary_dump_station":"public","sanitary_dump_station:chemical_toilet":"yes","sanitary_dump_station:grey_water":"yes","sanitary_dump_station:round_drain":"yes","water_point":"yes"}}}