{"15414175":{"location":[47.3467948,-61.8816495],"ct":"CA","tp":"CS","ts":"2023-09-01T14:36:50Z","tX":335,"tY":358,"tags":{"addr:housenumber":"74","addr:postcode":"G4T 3P2","addr:street":"Chemin du Camping","name":"Parc de Gros Cap","phone":"+1-800-986-4502","power_supply":"yes","sanitary_dump_station":"yes","website":"https://www.parcdegroscap.ca/"}},"16031212":{"location":[47.4149509,-61.9056162],"ct":"CA","tp":"CS","ts":"2023-10-23T12:21:20Z","tX":335,"tY":358,"tags":{"addr:city":"Les Îles-de-la-Madeleine","addr:housenumber":"87","addr:street":"Chemin du Rivage","name":"Camping Barachois","website":"https://www.campingbarachois.ca/"}},"16239459":{"location":[47.3565548,-61.9201526],"ct":"CA","tp":"CS","ts":"2023-08-24T17:38:49Z","tX":335,"tY":358,"tags":{"name":"Camping motel Pluvier des Îles"}},"16243000":{"location":[47.3714377,-61.912847],"ct":"CA","tp":"CR","ts":"2023-08-27T19:54:38Z","tX":335,"tY":358,"tags":{}},"11042478289":{"location":[47.4182133,-61.9008082],"ct":"CA","tp":"CS","ts":"2023-07-12T15:32:25Z","tX":335,"tY":358,"tags":{"access":"private"}},"10179126579":{"location":[47.3717171,-61.912998],"ct":"CA","tp":"SD","ts":"2022-11-12T23:44:50Z","tX":335,"tY":358,"tags":{}},"10601452297":{"location":[47.3478676,-61.8825882],"ct":"CA","tp":"SD","ts":"2023-08-30T19:35:49Z","tX":335,"tY":358,"tags":{}}}