{"2436050339":{"location":[45.1279193,-61.8765175],"ct":"CA","tp":"CS","ts":"2013-08-29T02:29:50Z","tX":335,"tY":367,"tags":{"source":"NRCan-CanVec-10.0"}},"2436051832":{"location":[45.1320819,-61.9774785],"ct":"CA","tp":"CS","ts":"2018-06-20T14:46:51Z","tX":335,"tY":367,"tags":{"addr:city":"Sherbrooke","addr:housenumber":"3987","addr:street":"Sonora Road","name":"Riverside Campground","phone":"+1-902-522-2913","source":"NRCan-CanVec-10.0","website":"http://www.riversidecampground.ca/"}},"2436060391":{"location":[45.1739456,-61.9596161],"ct":"CA","tp":"CS","ts":"2013-08-29T02:33:54Z","tX":335,"tY":367,"tags":{"source":"NRCan-CanVec-10.0"}},"2436060557":{"location":[45.1743098,-61.9637182],"ct":"CA","tp":"CS","ts":"2013-08-29T02:33:56Z","tX":335,"tY":367,"tags":{"source":"NRCan-CanVec-10.0"}},"5859929993":{"location":[45.1910326,-61.9795335],"ct":"CA","tp":"CS","ts":"2018-08-27T01:23:28Z","tX":335,"tY":367,"tags":{"name":"Nimrod's Campground"}},"5859929997":{"location":[45.1478418,-61.9771971],"ct":"CA","tp":"CR","ts":"2023-01-05T12:38:53Z","tX":335,"tY":367,"tags":{"addr:housenumber":"150","addr:street":"Hospital Road","description":"RV campgrounds","name":"River's Edge Camping","website":"https://jimmporter.wixsite.com/riversedge"}}}