{"229193101":{"location":[49.5564896,36.5063316],"ct":"UA","tp":"CS","ts":"2023-03-03T23:21:42Z","tX":615,"tY":349,"tags":{"barrier":"fence","name":"Чайка","name:uk":"Чайка","operator":"Міністерство освіти і науки України"}},"3706455968":{"location":[49.5477403,36.5391284],"ct":"UA","tp":"CS","ts":"2015-08-20T12:03:53Z","tX":615,"tY":349,"tags":{}},"4882114322":{"location":[49.5573669,36.5006939],"ct":"UA","tp":"CS","ts":"2023-10-22T22:47:36Z","tX":615,"tY":349,"tags":{"name":"Б/о \"Лиман\"","name:ru":"Б/о \"Лиман\"","name:uk":"Б/в \"Лиман\"","phone":"+380 95 716 2573"}},"5536081830":{"location":[49.50198,36.5203869],"ct":"UA","tp":"CS","ts":"2023-10-22T22:47:36Z","tX":615,"tY":349,"tags":{"name":"Бівак","name:ru":"Бивак","name:uk":"Бівак"}},"6159696676":{"location":[49.5995886,36.337873],"ct":"UA","tp":"CS","ts":"2018-12-24T18:35:01Z","tX":615,"tY":349,"tags":{}},"6159696677":{"location":[49.5681049,36.3644129],"ct":"UA","tp":"CS","ts":"2019-08-19T21:20:26Z","tX":615,"tY":349,"tags":{}},"6159696678":{"location":[49.5635567,36.3698082],"ct":"UA","tp":"CS","ts":"2018-12-24T18:35:01Z","tX":615,"tY":349,"tags":{}}}