{"142559065":{"location":[45.4513705,36.3914155],"ct":"UA","tp":"CS","ts":"2023-05-15T15:51:43Z","tX":615,"tY":366,"tags":{"name":"Летний лагерь","name:ru":"Летний лагерь","name:uk":"Літній табір"}},"1697806568":{"location":[45.4694792,36.3197742],"ct":"UA","tp":"CS","ts":"2023-05-12T10:05:02Z","tX":615,"tY":366,"tags":{"name":"Курортное кемпинг","name:en":"Kurortnoe camping","name:ru":"Курортное кемпинг","name:uk":"Курортне кемпінг"}},"5808172653":{"location":[45.4716325,36.3134406],"ct":"UA","tp":"CS","ts":"2021-12-02T19:16:47Z","tX":615,"tY":366,"tags":{}},"9266119226":{"location":[45.3766203,36.5041244],"ct":"UA","tp":"CS","ts":"2021-12-02T19:16:47Z","tX":615,"tY":366,"tags":{}},"9937262217":{"location":[45.4735579,36.2243367],"ct":"UA","tp":"CS","ts":"2023-05-02T22:54:32Z","tX":615,"tY":366,"tags":{"name":"бухта с ракушками simag","name:uk":"Бухта з черепашками simag"}},"10123993118":{"location":[45.4782575,36.2989601],"ct":"UA","tp":"CS","ts":"2023-05-02T22:54:32Z","tX":615,"tY":366,"tags":{"name":"Кемпинг Пляж Форпост","name:uk":"Кемпінг Пляж Форпост","phone":"+79678902571"}},"11530616969":{"location":[45.4756122,36.2547584],"ct":"UA","tp":"CR","ts":"2024-01-19T12:28:33Z","tX":615,"tY":366,"tags":{"name":"июль2019"}}}