{"244176989":{"location":[45.2242631,36.4077012],"ct":"UA","tp":"CS","ts":"2023-05-02T22:54:32Z","tX":615,"tY":367,"tags":{"name":"Турбаза \"Чайка\"","name:uk":"Турбаза \"Чайка\"","resort":"tourist_camp"}},"244176996":{"location":[45.2160288,36.4025943],"ct":"UA","tp":"CS","ts":"2023-05-02T22:54:32Z","tX":615,"tY":367,"tags":{"leisure":"resort","name":"Кемпинга \"Танцевальная деревня\"","name:uk":"Кемпінгу \"Танцювальне село\"","resort":"tourist_camp"}},"244176998":{"location":[45.2236218,36.4075185],"ct":"UA","tp":"CS","ts":"2023-05-02T22:54:32Z","tX":615,"tY":367,"tags":{"name":"База отдыха \"Реставратор\"","name:uk":"База відпочинку \"Реставратор\"","resort":"recreation_center"}},"668834591":{"location":[45.2133621,36.4016647],"ct":"UA","tp":"CS","ts":"2022-07-25T05:14:13Z","tX":615,"tY":367,"tags":{}},"686803997":{"location":[45.1407984,36.4183033],"ct":"UA","tp":"CS","ts":"2023-05-02T22:54:32Z","tX":615,"tY":367,"tags":{"addr:housenumber":"7","addr:street":"Лесная","name":"Бригантина","name:uk":"Бригантина","opening_hours":"Mo-Fr 09:00-13:00,14:00-17:00"}},"2515105642":{"location":[45.2508844,36.4258822],"ct":"UA","tp":"CS","ts":"2023-03-29T17:49:32Z","tX":615,"tY":367,"tags":{"name":"Летний палаточный лагерь","name:ru":"Летний палаточный лагерь","name:uk":"Літній наметовий табір"}}}