{"332153756":{"location":[-0.8273933,36.3384109],"ct":"KE","tp":"CS","ts":"2019-12-06T10:30:32Z","tX":615,"tY":514,"tags":{"caravans":"yes","drinking_water":"yes","landuse":"recreation_ground","name":"Camp Carnelley's","power_supply":"yes","tents":"yes","trucks":"yes"}},"413574544":{"location":[-0.8738389,36.3624228],"ct":"KE","tp":"CS","ts":"2009-05-31T18:47:53Z","tX":615,"tY":514,"tags":{"name":"Ol Dubai Public Campsite"}},"526772083":{"location":[-0.8319703,36.3516156],"ct":"KE","tp":"CS","ts":"2009-10-09T08:01:34Z","tX":615,"tY":514,"tags":{"name":"Crayfish Camp"}},"604235545":{"location":[-0.8732108,36.3401729],"ct":"KE","tp":"CS","ts":"2016-08-14T07:32:10Z","tX":615,"tY":514,"tags":{"name":"Endarasha Special Campsite"}},"604235546":{"location":[-0.8726771,36.3391107],"ct":"KE","tp":"CS","ts":"2016-08-14T07:32:11Z","tX":615,"tY":514,"tags":{"name":"Bird Hide"}},"653500198":{"location":[-0.8293549,36.3341572],"ct":"KE","tp":"CS","ts":"2010-02-25T16:40:29Z","tX":615,"tY":514,"tags":{"name":"Top Camp"}},"680849832":{"location":[-0.7605224,36.4290209],"ct":"KE","tp":"CS","ts":"2019-04-01T07:40:12Z","tX":615,"tY":514,"tags":{}},"1073671471":{"location":[-0.8921506,36.4719036],"ct":"KE","tp":"CS","ts":"2016-10-31T09:35:46Z","tX":615,"tY":514,"tags":{"addr:city":"Mount Longonot National park","name":"Oloongonot Campsite"}},"1268370471":{"location":[-0.8147381,36.2551844],"ct":"KE","tp":"CS","ts":"2024-04-02T13:15:23Z","tX":615,"tY":514,"tags":{"access":"customers","backcountry":"yes","capacity:persons":"50","capacity:tents":"1, 3, 4","caravans":"no","drinking_water":"yes","fee":"yes","mobile":"+254 114 511 433","name":"Paul's Campsite Kongoni","openfire":"yes","payment:mpesa":"yes","picnic_table":"yes","power_supply":"yes","reservation":"yes","shower":"yes","tents":"yes","toilets":"yes"}},"2555524337":{"location":[-0.8262624,36.3352285],"ct":"KE","tp":"CS","ts":"2017-02-24T12:20:31Z","tX":615,"tY":514,"tags":{"internet_access":"wlan","name":"Fisherman's Camp"}},"4323544312":{"location":[-0.7834605,36.2573195],"ct":"KE","tp":"CS","ts":"2016-07-27T16:31:15Z","tX":615,"tY":514,"tags":{"name":"Crater Lake Sanctuary Campsite"}},"4349423260":{"location":[-0.8676935,36.3506514],"ct":"KE","tp":"CS","ts":"2016-10-31T10:13:40Z","tX":615,"tY":514,"tags":{"addr:city":"Hells Gate National Park","name":"Naiburta Public Campsite"}},"4419387390":{"location":[-0.8276218,36.3375767],"ct":"KE","tp":"CS","ts":"2016-09-26T19:05:24Z","tX":615,"tY":514,"tags":{"name":"NVA - Carnelly's Camp","name:en":"NVA - Carnelly's Camp"}},"4472363885":{"location":[-0.888654,36.4592846],"ct":"KE","tp":"CS","ts":"2016-10-31T09:38:30Z","tX":615,"tY":514,"tags":{"addr:city":"Mount Longonot National Park","name":"Lakeview Campsite","operator":"kws.org"}},"4472383602":{"location":[-0.7715805,36.2863445],"ct":"KE","tp":"CS","ts":"2016-10-31T09:57:09Z","tX":615,"tY":514,"tags":{"addr:city":"Naivasha","addr:street":"Crater Lake Sanctuary","name":"Wedding Site Campsite","operator":"Crater Lake Sanctuary"}},"4472392473":{"location":[-0.7737715,36.2667195],"ct":"KE","tp":"CS","ts":"2016-10-31T10:01:23Z","tX":615,"tY":514,"tags":{"addr:city":"Naivasha","addr:street":"Crater Lake Sanctuary","name":"Gazebo Campsite","operator":"Crater Lake Sanctuary"}},"4531539892":{"location":[-0.8126979,36.2659027],"ct":"KE","tp":"CS","ts":"2019-04-22T09:54:45Z","tX":615,"tY":514,"tags":{"name":"Oloiden Campsite","name:en":"Oloiden Campsite","phone":"+254 702 993131"}},"4531585290":{"location":[-0.8335808,36.364386],"ct":"KE","tp":"CS","ts":"2017-05-10T13:52:54Z","tX":615,"tY":514,"tags":{"name":"Lake Naivasha YMCA Camp"}},"5591697958":{"location":[-0.8242855,36.3341785],"ct":"KE","tp":"CS","ts":"2018-05-02T07:19:40Z","tX":615,"tY":514,"tags":{"name":"Fish Eagle","operator":"Fish Eagle Inn"}},"5799177255":{"location":[-0.750371,36.4270826],"ct":"KE","tp":"CS","ts":"2018-07-31T15:44:32Z","tX":615,"tY":514,"tags":{}},"6015135885":{"location":[-0.8269762,36.3379656],"ct":"KE","tp":"CS","ts":"2018-10-26T10:18:58Z","tX":615,"tY":514,"tags":{"name":"My spot"}},"6054980225":{"location":[-0.7939261,36.52197],"ct":"KE","tp":"CS","ts":"2018-11-12T14:04:19Z","tX":615,"tY":514,"tags":{"addr:street":"Nairobi - Nakuru Road","name":"Kisa Adventures"}},"6347038785":{"location":[-0.7782021,36.4070083],"ct":"KE","tp":"CS","ts":"2019-03-19T10:44:19Z","tX":615,"tY":514,"tags":{"addr:street":"South Lake Road","email":"annemuhabi@gmail.com","name":"The use-less center Sanctuary Farm","name:en":"The use-less Center","name:es":"Sanctuary Farm Wildlife Conservancy","opening_hours":"Mo-Su 07:00-07:00","phone":"+254718395325"}},"6347038985":{"location":[-0.7843465,36.4085114],"ct":"KE","tp":"CS","ts":"2019-03-19T10:44:20Z","tX":615,"tY":514,"tags":{"addr:street":"South Lake Road","email":"annemuhabi@gmail.com","name":"The Use-Less Center","opening_hours":"Mo-Su 07:00-07:00","phone":"+254718395325"}},"6369505985":{"location":[-0.7845154,36.408648],"ct":"KE","tp":"CS","ts":"2019-03-29T05:12:10Z","tX":615,"tY":514,"tags":{"addr:postcode":"515","addr:street":"South Lake Road","email":"annemuhabi@gmail.com","name":"The Use-Less Center","opening_hours":"Mo-Su 07:00-08:00","operator":"Felix and Muhabi","phone":"0718395325"}},"6905900387":{"location":[-0.7494077,36.4330057],"ct":"KE","tp":"CS","ts":"2019-10-22T13:49:19Z","tX":615,"tY":514,"tags":{"addr:city":"Karagita","addr:street":"Moi S Lake Road","name":"She'gadia"}},"11255039338":{"location":[-0.7893226,36.4191085],"ct":"KE","tp":"CS","ts":"2023-10-11T12:26:13Z","tX":615,"tY":514,"tags":{"name":"Arcadia","name:en":"Arcacia","website":"http://www.sanctuaryfarmkenya.com/index.php/the-acacia-campsite"}},"11255773237":{"location":[-0.88737,36.4746437],"ct":"KE","tp":"CS","ts":"2023-10-11T17:38:49Z","tX":615,"tY":514,"tags":{"name":"Shepards Camp"}}}