{"436023971":{"location":[50.5055861,-119.8333231],"ct":"CA","tp":"CS","ts":"2020-07-08T20:13:54Z","tX":171,"tY":345,"tags":{"access":"customers","addr:city":"Monte Lake","addr:housenumber":"3961","addr:postcode":"V0E 2N0","addr:province":"BC","addr:street":"Highway 97","charge":"42CAD","email":"info@heritagecampsite.com","fee":"yes","name":"Heritage Campsite & RV Park","payment:cash":"yes","payment:credit_cards":"yes","phone":"+1-250-375-2434","phone:tollfree":"+1-888-373-2331","website":"https://heritagecampsite.com/"}},"824300378":{"location":[50.5023457,-119.8323593],"ct":"CA","tp":"CS","ts":"2020-07-08T20:13:54Z","tX":171,"tY":345,"tags":{"access":"customers","addr:city":"Monte Lake","addr:housenumber":"3973","addr:postcode":"V0E 2N0","addr:province":"BC","addr:street":"Highway 97","capacity":"30","charge":"45CAD","email":"info@montelakeresort.com","fee":"yes","name":"Monte Lake Resort","phone":"+1-250-375-2505","website":"http://montelakeresort.com/"}},"3391831289":{"location":[50.3428067,-119.8216809],"ct":"CA","tp":"CS","ts":"2025-06-05T21:47:52Z","tX":171,"tY":345,"tags":{"website":"https://www.sitesandtrailsbc.ca/search/search-result.aspx?site=REC1945&type=Site"}},"3391831290":{"location":[50.343185,-119.8260064],"ct":"CA","tp":"CS","ts":"2025-06-05T21:47:52Z","tX":171,"tY":345,"tags":{"website":"https://www.sitesandtrailsbc.ca/search/search-result.aspx?site=REC1945&type=Site"}},"3391832194":{"location":[50.4292112,-119.597098],"ct":"CA","tp":"CS","ts":"2015-03-09T23:29:36Z","tX":171,"tY":345,"tags":{}},"3393377717":{"location":[50.3879831,-119.7911441],"ct":"CA","tp":"CS","ts":"2015-03-11T05:20:11Z","tX":171,"tY":345,"tags":{}}}