{"230477635":{"location":[39.5349993,-119.7848302],"ct":"US","tp":"CR","ts":"2024-10-27T18:07:27Z","tX":171,"tY":389,"tags":{"addr:city":"Reno","addr:county":"Washoe","addr:housenumber":"2400","addr:postcode":"89512","addr:state":"NV","addr:street":"East 5th Street","name":"Sierra Sage Mobile Home Park"}},"444308915":{"location":[39.5271031,-119.8305249],"ct":"US","tp":"CR","ts":"2024-09-26T16:18:58Z","tX":171,"tY":389,"tags":{"addr:city":"Reno","addr:county":"Washoe","addr:housenumber":"1455","addr:postcode":"89503","addr:state":"NV","addr:street":"West 4th Street","name":"Good Sam RV Park"}},"481511135":{"location":[39.5684889,-119.8229339],"ct":"US","tp":"CR","ts":"2017-04-15T03:54:14Z","tX":171,"tY":389,"tags":{"name":"Shamrock RV Park"}},"483142051":{"location":[39.5712528,-119.829807],"ct":"US","tp":"CR","ts":"2024-10-26T06:08:09Z","tX":171,"tY":389,"tags":{"addr:city":"Reno","addr:county":"Washoe","addr:housenumber":"4800","addr:postcode":"89506","addr:state":"NV","addr:street":"Stoltz Road","name":"Bonanza Terrace RV Park"}},"484028115":{"location":[39.5229612,-119.8305463],"ct":"US","tp":"CR","ts":"2022-02-03T05:13:59Z","tX":171,"tY":389,"tags":{"addr:city":"Reno","addr:housenumber":"1300","addr:postcode":"89503","addr:state":"NV","addr:street":"West 2nd Street","name":"River West Resort"}},"496554839":{"location":[39.573228,-119.8302718],"ct":"US","tp":"CR","ts":"2024-09-23T05:09:58Z","tX":171,"tY":389,"tags":{"name":"Bonanza Terrace RV Park"}},"499191018":{"location":[39.5221319,-119.77432],"ct":"US","tp":"CR","ts":"2024-07-05T03:04:51Z","tX":171,"tY":389,"tags":{"addr:city":"Reno","addr:housenumber":"2500","addr:postcode":"89595","addr:state":"NV","addr:street":"East Second Street","fee":"yes","internet_access":"wlan","internet_access:fee":"customers","name":"RV Park at GSR","operator":"Grand Sierra Resort","permanent_camping":"no","phone":"1-800-501-2651","power_supply":"yes","sanitary_dump_station":"yes","toilets":"yes","website":"https://www.grandsierraresort.com/hotel-rooms-and-suites/rv-park"}},"567079513":{"location":[39.539133,-119.723987],"ct":"US","tp":"CR","ts":"2024-10-29T08:43:05Z","tX":171,"tY":389,"tags":{"addr:city":"Sparks","addr:county":"Washoe","addr:housenumber":"1200","addr:postcode":"89434","addr:state":"NV","addr:street":"East Lincoln Way","name":"Sparks Marina RV Park"}},"1251419441":{"location":[39.4980826,-119.7974873],"ct":"US","tp":"CR","ts":"2024-02-17T01:48:19Z","tX":171,"tY":389,"tags":{}},"1316262052":{"location":[39.5873164,-119.8201488],"ct":"US","tp":"CR","ts":"2024-09-23T05:09:58Z","tX":171,"tY":389,"tags":{"addr:city":"Reno","addr:county":"Washoe","addr:housenumber":"600","addr:postcode":"89506","addr:state":"NV","addr:street":"Newport Lane","name":"Panther Valley RV Park"}},"1321540727":{"location":[39.4916853,-119.802231],"ct":"US","tp":"CR","ts":"2024-10-06T03:38:30Z","tX":171,"tY":389,"tags":{"name":"Green Acres RV Park"}},"1324232263":{"location":[39.5362368,-119.7395899],"ct":"US","tp":"CR","ts":"2024-11-03T08:10:26Z","tX":171,"tY":389,"tags":{"addr:city":"Sparks","addr:county":"Washoe","addr:housenumber":"205","addr:postcode":"89431","addr:state":"NV","addr:street":"Nichols Boulevard","name":"Victorian RV Park","power_supply":"yes","website":"https://victorianrvpark.com/"}},"1711384462":{"location":[39.5866577,-119.7827413],"ct":"US","tp":"CR","ts":"2012-04-11T12:37:02Z","tX":171,"tY":389,"tags":{"name":"Silver Crown Mobile Home Park"}},"1711384487":{"location":[39.5866676,-119.7812911],"ct":"US","tp":"CR","ts":"2012-04-11T12:37:02Z","tX":171,"tY":389,"tags":{"designation":"Mobile Home Park","name":"Silver Crown Mobile Home Park","source":"Bimg"}}}