{"24601918":{"location":[37.7422539,-119.6025451],"ct":"US","tp":"CS","ts":"2022-08-05T18:19:46Z","tX":171,"tY":395,"tags":{"capacity":"35","caravans":"no","name":"Camp 4","name_old":"Sunnyside Walk-in Campground","website":"https://www.nps.gov/yose/planyourvisit/camp4.htm","wikidata":"Q2935203","wikipedia":"en:Camp 4 (Yosemite)"}},"164017962":{"location":[37.7230275,-119.7134082],"ct":"US","tp":"PK","ts":"2024-03-29T01:26:17Z","tX":171,"tY":395,"tags":{"bus":"yes","capacity":"13","capacity:disabled":"1","caravan":"yes","parking":"surface"}},"189743986":{"location":[37.7417723,-119.5801254],"ct":"US","tp":"CS","ts":"2021-07-05T01:59:00Z","tX":171,"tY":395,"tags":{"name":"Housekeeping Camp","wikidata":"Q5915881","wikipedia":"en:Housekeeping Camp"}},"227298729":{"location":[37.7405193,-119.5673692],"ct":"US","tp":"CS","ts":"2023-07-15T15:16:07Z","tX":171,"tY":395,"tags":{"access":"customers","addr:city":"Yosemite National park","addr:postcode":"95389","addr:state":"CA","addr:street":"Happy Isles Loop Road","capacity":"60","fee":"yes","internet_access":"no","name":"Lower Pines Campground","operator":"Yosemite National Park","power_supply":"no","sanitary_dump_station":"yes","website":"https://www.recreation.gov/camping/campgrounds/232450","wheelchair":"limited","wikidata":"Q63716540"}},"227298732":{"location":[37.7418301,-119.56661],"ct":"US","tp":"CS","ts":"2023-07-15T15:16:08Z","tX":171,"tY":395,"tags":{"access":"customers","addr:city":"Yosemite National park","addr:postcode":"95389","addr:state":"CA","addr:street":"North Pines campground","capacity":"81","fee":"yes","name":"North Pines Campground","operator":"Yosemite National Park","power_supply":"no","sanitary_dump_station":"yes","website":"https://www.recreation.gov/camping/campgrounds/232449","wheelchair":"limited","wikidata":"Q63716555"}},"227298735":{"location":[37.7357507,-119.5630245],"ct":"US","tp":"CS","ts":"2023-07-15T15:16:06Z","tX":171,"tY":395,"tags":{"WARNING":"Use of bear proof food lockers is compulsory.","drinking_water":"yes","name":"Upper Pines Campground","sanitary_dump_station":"yes","source":"USGS Topo","toilets":"yes","wikidata":"Q63716523"}},"335873923":{"location":[37.8091129,-119.5666462],"ct":"US","tp":"CS","ts":"2019-07-24T07:15:18Z","tX":171,"tY":395,"tags":{"ele":"2468","name":"Porcupine Flat Campground","wikidata":"Q7230023","wikipedia":"en:Porcupine Flat Campground"}},"431725967":{"location":[37.7462774,-119.7997368],"ct":"US","tp":"CS","ts":"2023-07-15T15:15:52Z","tX":171,"tY":395,"tags":{"area":"yes","name":"Crane Flat Campground","sanitary_dump_station":"no","wikidata":"Q5182017"}},"955822700":{"location":[37.8708666,-119.6469793],"ct":"US","tp":"CS","ts":"2023-07-15T15:15:59Z","tX":171,"tY":395,"tags":{"capacity":"74","fee":"yes","name":"White Wolf Campground","reservation":"no","website":"https://www.nps.gov/yose/planyourvisit/wwcamp.htm","wikidata":"Q63706607"}},"971173301":{"location":[37.8629156,-119.8721159],"ct":"US","tp":"CS","ts":"2021-08-07T16:53:16Z","tX":171,"tY":395,"tags":{"addr:city":"Groveland","addr:state":"CA","addr:street":"Evergreen Road","capacity":"26","fee":"yes","internet_access":"no","name":"Dimond O Campground","operator":"USDA","power_supply":"no","reservation":"recommended","website":"https://www.fs.usda.gov/recarea/stanislaus/recarea/?recid=14925"}},"1016268282":{"location":[37.7328467,-119.6067193],"ct":"US","tp":"CS","ts":"2021-12-28T18:02:45Z","tX":171,"tY":395,"tags":{"access":"private","alt_name":"Yellow Pine Volunteer Campground","internet_access":"no","name":"Yellow Pine Administrative Campground","operator":"Yosemite National Park"}},"1031351478":{"location":[37.750884,-119.7367394],"ct":"US","tp":"CS","ts":"2023-07-15T15:15:54Z","tX":171,"tY":395,"tags":{"capacity":"52","fee":"yes","name":"Tamarack Flat Campground","reservation":"no","website":"https://www.nps.gov/yose/planyourvisit/tamarack.htm","wikidata":"Q7680864"}},"1034225646":{"location":[37.7983442,-119.8662901],"ct":"US","tp":"CS","ts":"2023-07-15T15:16:00Z","tX":171,"tY":395,"tags":{"capacity":"103","fee":"yes","name":"Hodgdon Meadow Campground","reservation":"required","website":"https://www.nps.gov/yose/planyourvisit/hodgdoncamp.htm","wikidata":"Q63707036"}},"1185727850":{"location":[37.9435735,-119.7871703],"ct":"US","tp":"CS","ts":"2023-07-15T15:16:09Z","tX":171,"tY":395,"tags":{"fee":"yes","name":"Hetch Hetchy Backpackers Campground","reservation":"no","website":"https://www.nps.gov/yose/planyourvisit/bpcamp.htm","wikidata":"Q63717394"}},"1268304315":{"location":[37.7376422,-119.5726674],"ct":"US","tp":"CS","ts":"2024-04-06T16:05:14Z","tX":171,"tY":395,"tags":{"cabins":"yes","fee":"yes","name":"Curry Village","tents":"no","website":"https://www.travelyosemite.com/lodging/curry-village/"}},"2174315588":{"location":[37.9847574,-119.8752618],"ct":"US","tp":"CS","ts":"2013-02-26T00:54:40Z","tX":171,"tY":395,"tags":{"name":"Lake Eleanor Campground"}},"2688403690":{"location":[37.7444426,-119.5668229],"ct":"US","tp":"CS","ts":"2023-07-15T15:16:09Z","tX":171,"tY":395,"tags":{"access":"permissive","fee":"yes","name":"Yosemite Valley Backpackers Campground","reservation":"no","website":"https://www.nps.gov/yose/planyourvisit/bpcamp.htm","wikidata":"Q63718258"}},"3424485565":{"location":[37.7386846,-119.565796],"ct":"US","tp":"SD","ts":"2024-10-22T19:55:58Z","tX":171,"tY":395,"tags":{"access":"yes","fee":"no","opening_hours":"24/7","sanitary_dump_station:round_drain":"yes","water_point":"yes"}},"3666820665":{"location":[37.9758511,-119.6977444],"ct":"US","tp":"CS","ts":"2015-07-26T08:20:42Z","tX":171,"tY":395,"tags":{"campfire":"yes"}},"7966782502":{"location":[37.8264592,-119.5956606],"ct":"US","tp":"CS","ts":"2023-07-15T15:15:56Z","tX":171,"tY":395,"tags":{"capacity":"75","fee":"yes","name":"Yosemite Creek Campground","reservation":"no","tents":"yes","website":"https://www.nps.gov/yose/planyourvisit/ycreekcamp.htm","wikidata":"Q8055921"}},"11014129510":{"location":[37.9558683,-119.7149116],"ct":"US","tp":"CS","ts":"2023-06-29T15:12:21Z","tX":171,"tY":395,"tags":{"backcountry":"yes"}}}