{"4521682725":{"location":[-21.1883084,-55.734088],"ct":"BR","tp":"CS","ts":"2016-11-25T20:26:17Z","tX":353,"tY":573,"tags":{"name":"FAZENDA CERRO AZUL","name:pt":"FAZENDA CERRO AZUL"}},"4521752635":{"location":[-21.2012146,-55.7591939],"ct":"BR","tp":"CS","ts":"2016-11-25T20:26:18Z","tX":353,"tY":573,"tags":{"name":"FAZENDA SANTA RITA DE CÁSSIA","name:pt":"FAZENDA SANTA RITA DE CÁSSIA"}},"4521788928":{"location":[-21.166545,-55.8061763],"ct":"BR","tp":"CS","ts":"2016-11-25T20:26:20Z","tX":353,"tY":573,"tags":{"name":"FAZENDA OUROITE","name:pt":"FAZENDA OUROITE"}},"4521789211":{"location":[-21.0351973,-55.776058],"ct":"BR","tp":"CS","ts":"2016-11-25T20:33:26Z","tX":353,"tY":573,"tags":{"name":"FAZENDA SANTA MARIA","name:pt":"FAZENDA SANTA MARIA"}},"4521789810":{"location":[-21.1381249,-55.8979289],"ct":"BR","tp":"CS","ts":"2016-11-25T20:26:21Z","tX":353,"tY":573,"tags":{"name":"FAZENDA BOM CONSELHO","name:pt":"FAZENDA BOM CONSELHO"}},"4521792690":{"location":[-21.0808315,-55.6973397],"ct":"BR","tp":"CS","ts":"2016-11-25T20:33:28Z","tX":353,"tY":573,"tags":{"name":"FAZENDA MARTINA","name:pt":"FAZENDA MARTINA"}}}