{"19157312":{"location":[-27.4155656,-55.8817951],"ct":"AR","tp":"CS","ts":"2025-05-20T21:28:44Z","tX":353,"tY":593,"tags":{"access":"customers","camp_site":"deluxe","caravans":"yes","fee":"yes","name":"Cámping Municipal de Posadas","static_caravans":"yes","tents":"yes"}},"623950900":{"location":[-27.51108,-55.60861],"ct":"AR","tp":"CS","ts":"2010-01-31T12:23:14Z","tX":353,"tY":593,"tags":{"name":"Zona de Acampe-Cerro Corá"}},"623950903":{"location":[-27.5579692,-55.7093662],"ct":"AR","tp":"CS","ts":"2015-01-24T19:31:01Z","tX":353,"tY":593,"tags":{"name":"Camping Parque Provincial Profundidad"}},"623950908":{"location":[-27.55648,-55.72127],"ct":"AR","tp":"CS","ts":"2023-12-04T12:55:46Z","tX":353,"tY":593,"tags":{"addr:city":"Profundidad","addr:street":"Chacra 13","fee":"yes","name":"Camping Centro Turístico Urunday Tour","payment:debit_cards":"yes","payment:electronic_purses":"yes","phone":"+54 376 5062263"}},"623950911":{"location":[-27.48603,-55.7400201],"ct":"AR","tp":"CS","ts":"2010-01-31T12:23:15Z","tX":353,"tY":593,"tags":{"name":"Camping Balneario Municipal Candelaria"}},"623950913":{"location":[-27.48361,-55.73951],"ct":"AR","tp":"CS","ts":"2019-05-21T12:46:04Z","tX":353,"tY":593,"tags":{"name":"Camping UPCN"}},"1388382189":{"location":[-27.4163432,-55.8820359],"ct":"AR","tp":"CR","ts":"2025-05-20T21:28:44Z","tX":353,"tY":593,"tags":{}},"8119549229":{"location":[-27.4628264,-55.7773739],"ct":"AR","tp":"CS","ts":"2020-11-14T22:12:35Z","tX":353,"tY":593,"tags":{"addr:city":"Candelaria","alt_name":"Camping SOIMP y USIMRA","landuse":"recreation_ground","name":"Complejo Recreativo San José Obrero","operator":"Unión de Sindicatos de la Industria Maderera de la República Argentina","website":"http://www.usimra.com.ar"}},"11394056814":{"location":[-27.5106673,-55.5982228],"ct":"AR","tp":"CS","ts":"2023-12-04T13:27:33Z","tX":353,"tY":593,"tags":{"access":"yes","addr:city":"Cerro Corá","caravans":"yes","name":"Camping San Cayetano","phone":"+54 376 4832814","static_caravans":"yes","tents":"yes"}},"11394066857":{"location":[-27.4413819,-55.5856484],"ct":"AR","tp":"CS","ts":"2023-12-04T13:32:51Z","tX":353,"tY":593,"tags":{"access":"yes","addr:city":"Santa Ana","name":"Camping Mis Raíces","phone":"+54 376 4618384"}},"12786030571":{"location":[-27.4885014,-55.6125525],"ct":"AR","tp":"CS","ts":"2025-05-15T10:39:21Z","tX":353,"tY":593,"tags":{"addr:city":"Cerro Corá","name":"Colonia La Invernada","phone":"+54 3764 4293080"}}}