{"363733915":{"location":[-27.9850756,-55.7850411],"ct":"AR","tp":"CS","ts":"2022-01-14T19:21:42Z","tX":353,"tY":594,"tags":{}},"623933047":{"location":[-27.9558805,-55.7181668],"ct":"AR","tp":"CS","ts":"2023-12-11T11:34:51Z","tX":353,"tY":594,"tags":{"addr:city":"Apóstoles","addr:street":"Ruta Provincial 1 Km 6","alt_name":"Camping Neves","caravans":"yes","fee":"yes","name":"Camping Das Neves","payment:electronic_purses":"yes","phone":"+54 3758 553055","static_caravans":"yes","tents":"yes"}},"623933081":{"location":[-27.90916,-55.72635],"ct":"AR","tp":"CS","ts":"2010-01-31T11:44:08Z","tX":353,"tY":594,"tags":{"name":"Camping Club Apostoles"}},"623933085":{"location":[-27.9107147,-55.7605667],"ct":"AR","tp":"CS","ts":"2023-12-11T11:58:55Z","tX":353,"tY":594,"tags":{"addr:city":"Apóstoles","addr:street":"Avenida Centenario","caravans":"yes","fee":"yes","name":"Club Unión","payment:electronic_purses":"yes","tents":"yes"}},"2878391201":{"location":[-27.8473852,-55.7651887],"ct":"AR","tp":"CS","ts":"2014-05-24T17:13:51Z","tX":353,"tY":594,"tags":{"name":"Camping Apostoles"}},"2878391202":{"location":[-27.7858605,-55.7042762],"ct":"AR","tp":"CS","ts":"2024-02-23T13:15:40Z","tX":353,"tY":594,"tags":{"addr:city":"San José","caravans":"yes","fee":"yes","name":"Camping Colegio Gentilini","payment:debit_cards":"yes","payment:electronic_purses":"yes","phone":"+54 3758 441022","static_caravans":"yes","tents":"yes"}},"6013952373":{"location":[-27.9377526,-55.7313797],"ct":"AR","tp":"CS","ts":"2018-10-25T21:50:01Z","tX":353,"tY":594,"tags":{"name":"Camping"}},"6533761401":{"location":[-27.7431739,-55.5654313],"ct":"AR","tp":"CS","ts":"2024-02-23T13:24:02Z","tX":353,"tY":594,"tags":{"addr:city":"San José","caravans":"yes","fee":"yes","name":"Parque Provincial Ingeniero Martínez Crovetto","payment:debit_cards":"yes","payment:electronic_purses":"yes","phone":"+54 3758 492132","static_caravans":"yes","tents":"yes"}},"8119445701":{"location":[-27.984588,-55.7850268],"ct":"AR","tp":"CS","ts":"2024-04-04T12:04:03Z","tX":353,"tY":594,"tags":{"addr:city":"Apóstoles","addr:street":"Lote ACR 278","alt_name":"Balneario Chimiray","capacity":"200","caravans":"yes","fee":"no","name":"Camping Chimiray","phone":"+54 3758 525509","tents":"yes"}},"9522594551":{"location":[-27.7601089,-55.7974205],"ct":"AR","tp":"CS","ts":"2022-02-20T20:38:28Z","tX":353,"tY":594,"tags":{"name":"Bezorub"}},"11409478365":{"location":[-27.8918457,-55.709618],"ct":"AR","tp":"CS","ts":"2023-12-11T11:54:09Z","tX":353,"tY":594,"tags":{"addr:city":"Apóstoles","addr:street":"Lote Agrícola 9","caravans":"yes","fee":"yes","name":"Camping Las Palmeras","payment:electronic_purses":"yes","phone":"+54 3758 550094","tents":"yes"}},"11409566937":{"location":[-27.9845742,-55.6303015],"ct":"AR","tp":"CS","ts":"2023-12-11T12:32:59Z","tX":353,"tY":594,"tags":{"addr:city":"Tres Capones","caravans":"yes","fixme":"verificar ubicación","name":"Camping Arroyo León","static_caravans":"yes","tents":"yes"}}}