{"15700053":{"location":[53.1281918,4.8665545],"ct":"NL","tp":"CS","ts":"2023-05-30T12:23:25Z","tX":525,"tY":332,"tags":{"capacity:pitches":"15","caravans":"yes","email":"fam.backer@outlook.com","internet_access":"wlan","internet_access:fee":"no","name":"Camping Joanneshoeve Texel","phone":"+31 222 311 285","short_name":"Joanneshoeve","shower":"yes","tents":"yes","toilets":"yes","website":"https://mijncampingoptexel.nl/"}},"15800267":{"location":[53.1387737,4.8495868],"ct":"NL","tp":"CS","ts":"2023-05-30T12:23:25Z","tX":525,"tY":332,"tags":{"cabins":"yes","caravans":"yes","email":"MaduraTexel@protonmail.com","motorhome":"yes","name":"Madura","opening_hours":"Mar 15 - Oct 31","phone":"+31 6 10067820","shower":"yes","tents":"yes","toilets":"yes","website":"https://www.maduratexel.nl/"}},"26859216":{"location":[53.1522373,4.8586531],"ct":"NL","tp":"CS","ts":"2023-05-28T07:49:00Z","tX":525,"tY":332,"tags":{"addr:city":"De Cocksdorp","addr:housenumber":"6","addr:postcode":"1795JV","addr:street":"Roggeslootweg","name":"De Krim","phone":"+31 222 390 112","source":"3dShapes","source:date":"2014-03-24","toilets:wheelchair":"yes","website":"https://www.krim.nl","wheelchair":"yes"}},"109591677":{"location":[53.1285652,4.8244406],"ct":"NL","tp":"CS","ts":"2023-05-30T12:22:58Z","tX":525,"tY":332,"tags":{"capacity:pitches":"11","caravans":"yes","email":"info@nieuwduinoord.nl","landcover":"grass","name":"'t Legaat","phone":"+31 6 20208084","shower":"yes","tents":"yes","toilets":"yes"}},"109592940":{"location":[53.1207219,4.8278787],"ct":"NL","tp":"CS","ts":"2023-05-30T12:22:58Z","tX":525,"tY":332,"tags":{"cabins":"yes","caravans":"yes","email":"info@zevenbergentexel.nl","landcover":"grass","name":"Zevenbergen","phone":"+31 6 11457987","shower":"yes","tents":"yes","toilets":"yes","website":"https://www.zevenbergentexel.nl/Minicamping"}},"109593369":{"location":[53.1568333,4.8523025],"ct":"NL","tp":"CS","ts":"2024-11-12T21:17:48Z","tX":525,"tY":332,"tags":{"capacity:pitches":"15","caravans":"yes","name":"Boerderij Sumatra","phone":"+31 222 316 432;+31 222 316 509","shower":"yes","tents":"yes","toilets":"yes","website:map":"https://texel-cdn.travelbase.nl/image-transforms/hero/2560x1920/429f8e12797a370153c02ffe53ee5c7b.webp"}},"109603118":{"location":[53.1729773,4.8613251],"ct":"NL","tp":"CS","ts":"2023-05-30T12:22:58Z","tX":525,"tY":332,"tags":{"capacity:pitches":"10","caravans":"yes","email":"info@boerderijdeduinen.nl","name":"De Duinen","phone":"+31 222 316 048","shower":"yes","tents":"yes","toilets":"yes","website":"https://www.boerderijdeduinen.nl/"}},"109603349":{"location":[53.1608528,4.8614157],"ct":"NL","tp":"CS","ts":"2023-05-02T20:31:03Z","tX":525,"tY":332,"tags":{"capacity:pitches":"14","caravans":"yes","email":"camping@hoeveaxel.nl","landcover":"grass","name":"Hoeve Axel","phone":"+31 222 316 385","shower":"yes","tents":"yes","toilets":"yes","website":"https://www.hoeveaxel.nl/"}},"109603809":{"location":[53.1700666,4.8599934],"ct":"NL","tp":"CS","ts":"2024-06-22T21:55:02Z","tX":525,"tY":332,"tags":{"capacity:pitches":"15","caravans":"yes","email":"saaldehoek@tele2.nl","landcover":"grass","mobile":"+31 6 51798201","name":"De Hoek","phone":"+31 222 316 236","shower":"yes","tents":"yes","toilets":"yes","website":"https://www.campingdehoek.nl/"}},"427221141":{"location":[53.1216984,4.8329379],"ct":"NL","tp":"CS","ts":"2023-05-30T12:23:12Z","tX":525,"tY":332,"tags":{"cabins":"yes","caravans":"yes","email":"info@camping-texel.com","mobile":"+31 6 30236159","name":"Nieuw-Breda","phone":"+31 222 311 262","shower":"yes","tents":"yes","toilets":"yes","website":"https://www.camping-texel.com/"}},"690412833":{"location":[53.160305,4.8471982],"ct":"NL","tp":"CS","ts":"2024-11-09T18:11:05Z","tX":525,"tY":332,"tags":{"access":"customers","cabins":"yes","caravans":"yes","drinking_water":"yes","fee":"yes","internet_access":"yes","motor_vehicle":"yes","name":"Landal Sluftervallei","operator":"Landal","shower":"yes","tents":"yes","website:map":"https://www.landal.com/-/media/files/sli/sli_plat.pdf"}},"781572555":{"location":[53.177417,4.8612736],"ct":"NL","tp":"CS","ts":"2020-03-15T17:08:17Z","tX":525,"tY":332,"tags":{"addr:city":"De Cocksdorp","addr:housenumber":"148","addr:postcode":"1795LN","addr:street":"Vuurtorenweg","name":"Duinpark en Camping De Robbenjager","operator":"Duinpark en Camping De Robbenjager"}},"983195290":{"location":[53.1330532,4.887945],"ct":"NL","tp":"CS","ts":"2023-05-30T12:23:20Z","tX":525,"tY":332,"tags":{"capacity:pitches":"15","caravans":"yes","internet_access":"wlan","internet_access:fee":"no","motorhome":"yes","name":"De Eendracht","phone":"+31 6 10246482","shower":"yes","tents":"yes","toilets":"yes","website":"https://www.loeigoedkamperen.nl/"}},"1153785370":{"location":[53.1318237,4.8412063],"ct":"NL","tp":"CS","ts":"2023-05-30T12:23:21Z","tX":525,"tY":332,"tags":{"caravans":"yes","email":"info@nieuwduinoord.nl","name":"Nieuw Duinoord","phone":"+31 6 82589410","shower":"yes","tents":"yes","toilets":"yes","website":"https://www.nieuwduinoord.nl"}},"1160865012":{"location":[53.1216898,4.8517675],"ct":"NL","tp":"CS","ts":"2023-05-30T12:23:22Z","tX":525,"tY":332,"tags":{"capacity:pitches":"15","caravans":"yes","email":"info@boerderijcampingtexel.nl","internet_access":"wlan","internet_access:fee":"yes","name":"Boerderijcamping Texel De Wamberg","operator":"Familie Hoedjes","phone":"+31 6 33649145","shower":"yes","tents":"yes","toilets":"yes"}},"1160865014":{"location":[53.1231984,4.8584079],"ct":"NL","tp":"CS","ts":"2023-04-09T14:20:19Z","tX":525,"tY":332,"tags":{"alt_name":"Kampeer en ezel hoeve ‘de Volharding‘","caravans":"yes","email":"devolharding@kpnmail.nl","internet_access":"wlan","internet_access:fee":"no","name":"De Volharding","phone":"+31 6 13719222","shower":"yes","tents":"yes","toilets":"yes","website":"https://www.campingdevolharding.nl/kamperen/"}},"1162744319":{"location":[53.1539943,4.8601546],"ct":"NL","tp":"CS","ts":"2024-11-09T18:32:35Z","tX":525,"tY":332,"tags":{"cabins":"yes","caravans":"yes","mobile":"+31 6 13491966","motorhome":"yes","name":"De Krim","operator":"De Krim Texel","phone":"+31 222 390 112","shower":"yes","stars":"5","tents":"yes","toilets":"yes","website":"https://www.krim.nl/camping-de-krim","website:map":"https://docs.maxxton.net/krm/general/15629001-Plattegrond_VDK.pdf"}},"1167804401":{"location":[53.13056,4.8402055],"ct":"NL","tp":"CS","ts":"2023-07-08T08:39:35Z","tX":525,"tY":332,"tags":{"caravans":"yes","contact:whatsapp":"+31 6 21560518","email":"texel@minicampingweilust.nl","motorhome":"yes","name":"Weilust","opening_hours":"Apr 1 - Oct 31","phone":"+31 6 21560518","shower":"yes","start_date":"2010","tents":"yes","toilets":"yes","website":"https://www.minicampingweilust.nl/"}},"1167807355":{"location":[53.1286358,4.8203186],"ct":"NL","tp":"CS","ts":"2024-09-10T18:05:47Z","tX":525,"tY":332,"tags":{"caravans":"yes","email":"info@slufterhoeve.nl","name":"Slufterhoeve","phone":"+31 6 53912040;+31 6 83993754","shower":"yes","start_date":"2010","tents":"yes","toilets":"yes"}},"1168142943":{"location":[53.1330139,4.8688657],"ct":"NL","tp":"CS","ts":"2023-06-13T05:56:37Z","tX":525,"tY":332,"tags":{"capacity:pitches":"12","caravans":"yes","email":"info@campinghoeverotterdam.nl","mobile":"+31 6 23527886","name":"Hoeve Rotterdam","phone":"+31 222 311 400","shower":"yes","tents":"yes","toilets":"yes","website":"https://www.campinghoeverotterdam.nl/"}},"1314688307":{"location":[53.1335705,4.8554065],"ct":"NL","tp":"CS","ts":"2024-09-10T17:45:46Z","tX":525,"tY":332,"tags":{"name":"Boerencamping Polderzicht"}},"2780386351":{"location":[53.1560466,4.8435642],"ct":"NL","tp":"CS","ts":"2022-09-30T10:03:30Z","tX":525,"tY":332,"tags":{"access":"private","addr:full":"\"Krimweg 67, 1795LW De Cocksdorp\"","description":"Dit kampeerterrein is alleen toegankelijk voor leden van de NTKC","dog":"leashed","internet_access":"no","name":"NTKC De Slufter","openfire":"no","operator":"Nederlandse Touristen Kampeer Club","power_supply":"yes","website":"https://www.kampeerclub.nl/terrein/kampeerterrein-de-slufter"}},"5993147285":{"location":[53.1441018,4.8566273],"ct":"NL","tp":"CS","ts":"2023-07-08T08:48:13Z","tX":525,"tY":332,"tags":{"name":"Westdorp Limousin Texel","website":"http://www.sirrobert.nl/ligging/"}},"5872259667":{"location":[53.1527543,4.8588713],"ct":"NL","tp":"SD","ts":"2018-08-31T20:44:48Z","tX":525,"tY":332,"tags":{"access":"customers","fee":"no"}},"7297091799":{"location":[53.1773107,4.8605113],"ct":"NL","tp":"SD","ts":"2020-03-15T16:04:20Z","tX":525,"tY":332,"tags":{}}}