{"1543300":{"location":[52.7610812,4.6647673],"ct":"NL","tp":"CS","ts":"2023-08-13T22:10:32Z","tX":525,"tY":334,"tags":{"caravans":"yes","email":"info@watersnip.nl","name":"De Watersnip","phone":"+31 226 381 432","shower":"yes","tents":"yes","toilets":"yes","website":"https://www.watersnip.nl/","wheelchair":"yes"}},"15711458":{"location":[52.8447787,4.7095312],"ct":"NL","tp":"CS","ts":"2023-04-12T06:12:50Z","tX":525,"tY":334,"tags":{"cabins":"yes","capacity:cabins":"4","caravans":"yes","email":"info@campingzeeman.nl","name":"Camping De Zeeman","phone":"+31 6 30134241","shower":"yes","tents":"yes","toilets":"yes"}},"26859206":{"location":[52.8563506,4.7171451],"ct":"NL","tp":"CS","ts":"2022-07-09T12:52:20Z","tX":525,"tY":334,"tags":{"contact:website":"https://www.roompot.nl/bestemmingen/nederland/noord-holland/vakantiepark-callassande","name":"Callassande Roompot","wheelchair":"yes"}},"26859312":{"location":[52.846111,4.715278],"ct":"NL","tp":"CS","ts":"2024-09-21T17:37:19Z","tX":525,"tY":334,"tags":{"caravans":"yes","contact:website":"https://www.tempelhof.nl","drinking_water":"yes","name":"Tempelhof","shower":"yes","tents":"yes","wheelchair":"yes"}},"56971046":{"location":[52.7954087,4.6909393],"ct":"NL","tp":"CS","ts":"2025-01-19T23:27:09Z","tX":525,"tY":334,"tags":{"fee":"yes","internet_access":"wlan","name":"Camping Zeester","static_caravans":"only","website":"https://www.campingzeester.nl/"}},"56972426":{"location":[52.793791,4.6902926],"ct":"NL","tp":"CS","ts":"2023-09-27T08:37:27Z","tX":525,"tY":334,"tags":{"caravans":"yes","contact:website":"https://www.campingsintmaartenszee.nl/","email":"info@campingsintmaartenszee.nl","motorhome":"yes","name":"Camping Sint Maartenszee","phone":"+31 224 561 401","shower":"yes","tents":"yes","toilets":"yes"}},"72454963":{"location":[52.7935971,4.742425],"ct":"NL","tp":"CS","ts":"2023-05-30T21:05:20Z","tX":525,"tY":334,"tags":{"addr:city":"Schagerbrug","addr:country":"NL","addr:housenumber":"254","addr:postcode":"1751LH","addr:street":"Grote Sloot","caravans":"yes","dog":"yes","motorhome":"yes","name":"Uit den Haak","phone":"+31 6 19694000","shower":"yes","tents":"yes","toilets":"yes","website":"https://www.campinguitdenhaak.nl"}},"107821548":{"location":[52.698201,4.7479223],"ct":"NL","tp":"CS","ts":"2022-07-09T12:52:20Z","tX":525,"tY":334,"tags":{"contact:website":"https://dekolibrie.eu","name":"Camping de Kolibrie","source":"3dShapes"}},"107872688":{"location":[52.7069273,4.6961977],"ct":"NL","tp":"CS","ts":"2024-08-28T09:16:35Z","tX":525,"tY":334,"tags":{"caravans":"yes","name":"kampeerterrein Buitenduin","source":"3dShapes","static_caravans":"yes","tents":"yes","website":"https://www.kampeerterreinbuitenduin.nl/"}},"107874158":{"location":[52.7379786,4.9091125],"ct":"NL","tp":"CS","ts":"2024-06-22T21:53:18Z","tX":525,"tY":334,"tags":{"cabins":"yes","caravans":"yes","landcover":"grass","motorhome":"yes","name":"Het Witte Hek","phone":"+31 6 81813930","tents":"yes","toilets":"yes","website":"https://campinghetwittehek.nl/"}},"108004201":{"location":[52.7522605,4.8068739],"ct":"NL","tp":"CS","ts":"2024-07-27T16:15:43Z","tX":525,"tY":334,"tags":{"landuse":"grass"}},"108736860":{"location":[52.7372461,4.7684696],"ct":"NL","tp":"CS","ts":"2024-03-04T12:41:13Z","tX":525,"tY":334,"tags":{"source":"3dShapes"}},"108740358":{"location":[52.7937491,4.9103845],"ct":"NL","tp":"CS","ts":"2023-05-30T12:22:57Z","tX":525,"tY":334,"tags":{"caravans":"yes","landcover":"grass","name":"Camping 't Kolhornerdiep","phone":"+31 224 531 270","shower":"yes","tents":"yes","toilets":"yes"}},"108745342":{"location":[52.7426883,4.7003815],"ct":"NL","tp":"CS","ts":"2023-05-30T12:22:57Z","tX":525,"tY":334,"tags":{"cabins":"yes","caravans":"yes","contact:website":"http://www.camping-de-horizon.nl","landcover":"grass","motorhome":"yes","name":"De Horizon","phone":"+31 226 381 206","shower":"yes","tents":"yes","toilets":"yes"}},"108758685":{"location":[52.8155504,4.7219515],"ct":"NL","tp":"CS","ts":"2024-11-26T17:42:20Z","tX":525,"tY":334,"tags":{"addr:city":"Schagerbrug","addr:housenumber":"4","addr:postcode":"1751DH","addr:street":"Stolperweg","contact:email":"info@derijnhoeve.nl","contact:phone":"+31 6 37 45 00 45","name":"Minicamping De Rijnhoeve"}},"108773574":{"location":[52.7778447,4.6825344],"ct":"NL","tp":"CS","ts":"2023-05-30T12:22:57Z","tX":525,"tY":334,"tags":{"cabins":"yes","capacity:cabins":"2","capacity:pitches":"42","caravans":"yes","email":"info@hazenoord.nl","landcover":"grass","name":"Camping Hazenoord","phone":"+31 6 81667220","shower":"yes","tents":"yes","toilets":"yes","website":"https://www.hazenoord.nl/"}},"108773651":{"location":[52.7706848,4.660597],"ct":"NL","tp":"CS","ts":"2023-01-08T16:04:22Z","tX":525,"tY":334,"tags":{"cabins":"yes","caravans":"yes","name":"Corfwater","shower":"yes","tents":"yes","toilets":"yes","website":"https://www.corfwater.com/"}},"108885210":{"location":[52.8893695,4.7198459],"ct":"NL","tp":"CS","ts":"2023-10-08T14:19:25Z","tX":525,"tY":334,"tags":{"addr:city":"Julianadorp","addr:housenumber":"321","addr:postcode":"1787PP","addr:street":"Zanddijk","contact:mobile":"+31 6 20990457","contact:phone":"+31 223 644 860","email":"info@campinghelmzicht.nl","internet_access":"wlan","name":"Helmzicht","note":"S.V.R. Minicamping","tents":"yes","website":"https://www.campinghelmzicht.nl/","wheelchair":"yes"}},"108885759":{"location":[52.9018247,4.7289641],"ct":"NL","tp":"CS","ts":"2023-06-02T17:50:08Z","tX":525,"tY":334,"tags":{"caravans":"yes","internet_access":"wlan","internet_access:fee":"no","name":"Camping Julianadorp Aan Zee","nudism":"no","opening_hours":"Mar 15-Oct 30 Mo-Sa 09:00-17:00 open \"Platz geöffnet und telefonisch erreichbar\"","sanitary_dump_station":"customers","source":"3dShapes","tents":"yes","website":"https://campingjulianadorpaanzee.com","wheelchair":"limited"}},"186453005":{"location":[52.8503103,4.7037503],"ct":"NL","tp":"CS","ts":"2022-07-09T12:52:20Z","tX":525,"tY":334,"tags":{"contact:website":"https://www.karnemelkplaats.nl","name":"De Karnemelkplaats","wheelchair":"yes"}},"214434464":{"location":[52.8105246,4.7854626],"ct":"NL","tp":"CS","ts":"2025-01-23T18:05:08Z","tX":525,"tY":334,"tags":{"campers":"yes","caravans":"yes","contact:email":"jettybenedictus@hotmail.com","contact:phone":"+31 6 44695079","fee":"yes","internet_access":"wlan","name":"De Groote Keijns","note":"Naturistenvereniging 'GEMINAT'","nudism":"yes","power_supply":"yes","tents":"yes","website":"https://grootekeijns.nl/"}},"284128066":{"location":[52.8395184,4.7181537],"ct":"NL","tp":"CS","ts":"2022-07-09T12:52:20Z","tX":525,"tY":334,"tags":{"caravans":"yes","contact:website":"https://www.denollen.nl","name":"De Nollen","power_supply":"yes","tents":"yes","wheelchair":"yes"}},"294636088":{"location":[52.7350279,4.771797],"ct":"NL","tp":"CS","ts":"2024-05-26T20:28:19Z","tX":525,"tY":334,"tags":{"addr:city":"Tuitjenhorn","addr:country":"NL","addr:housenumber":"3","addr:postcode":"1747CA","addr:street":"Bongerdlaan","caravans":"yes","dog":"yes","email":"info@bongerd.nl","internet_access":"wlan","name":"De Bongerd","stars":"5","tents":"yes","website":"https://bongerd.nl/"}},"402729615":{"location":[52.8883491,4.9210029],"ct":"NL","tp":"CS","ts":"2025-01-19T23:23:33Z","tX":525,"tY":334,"tags":{"cabins":"yes","caravans":"yes","email":"info@camping-waddenzee.nl","fee":"yes","internet_access":"wlan","motorhome":"yes","name":"Camping Waddenzee","phone":"+31 227 591 431","power_supply":"yes","shower":"yes","static_caravans":"yes","tents":"yes","toilets":"yes","website":"https://www.camping-waddenzee.nl/"}},"425594494":{"location":[52.8882638,4.8541243],"ct":"NL","tp":"CS","ts":"2023-12-28T15:24:59Z","tX":525,"tY":334,"tags":{"contact:website":"https://www.detulpenweide.nl","name":"Tulpenweide"}},"429920742":{"location":[52.8027055,4.6956156],"ct":"NL","tp":"CS","ts":"2023-04-06T19:30:29Z","tX":525,"tY":334,"tags":{"addr:city":"Sint Maartensvlotbrug","addr:housenumber":"15","addr:postcode":"1753BA","addr:street":"Westerduinweg","cabins":"yes","caravans":"yes","email":"info@delepelaar.nl","internet_access":"wlan","motorhome":"yes","name":"Duincamping De Lepelaar","name:de":"Dünencamping","opening_hours":"Mo-Su 10:00-20:00","shower":"yes","source":"BAG","source:date":"2014-03-24","tents":"yes","toilets":"yes","website":"https://www.delepelaar.de/"}},"438199856":{"location":[52.8360475,4.7487058],"ct":"NL","tp":"CR","ts":"2025-02-13T20:14:19Z","tX":525,"tY":334,"tags":{"addr:city":"'t Zand","addr:housenumber":"33","addr:postcode":"1751EG","addr:street":"Parallelweg","attraction":"Korenmolen de Hoop","capacity":"20","caravan_site":"motorhome_stopover","caravan_site:type":"museum","charge":"20 EUR","fee":"yes","internet_access":"wlan","name":"Camperplaats de Hoop","power_supply":"yes","power_supply:capacity":"15","power_supply:maxcurrent":"6","sanitary_dump_station":"yes","sanitary_dump_station:chemical_toilet":"yes","sanitary_dump_station:grey_water":"yes","tents":"no","toilets":"yes","toilets:seasonal":"yes","water_point":"yes","water_point:seasonal":"yes","website":"https://molentzand.nl/camperplaatsen/"}},"514165085":{"location":[52.8947912,4.9137987],"ct":"NL","tp":"CS","ts":"2023-07-29T22:56:09Z","tX":525,"tY":334,"tags":{"cabins":"yes","capacity":"15","caravans":"yes","drinking_water":"yes","email":"info@terra-incognito.nl","motorhome":"yes","name":"Terra Incognito","old_name":"Zeezicht","power_supply":"yes","shower":"yes","tents":"yes","toilets":"yes","website":"https://www.terra-incognito.nl"}},"652962226":{"location":[52.7422029,4.7278675],"ct":"NL","tp":"CS","ts":"2023-03-22T14:23:14Z","tX":525,"tY":334,"tags":{"name":"De Buitenplaats"}},"704393618":{"location":[52.8339831,4.7285401],"ct":"NL","tp":"CS","ts":"2023-04-06T19:26:24Z","tX":525,"tY":334,"tags":{"cabins":"yes","capacity":"25","caravans":"yes","email":"info@camping-eindeloos.nl","motorhome":"yes","name":"Camping Eindeloos","shower":"yes","tents":"yes","toilets":"yes","website":"https://camping-eindeloos.nl/"}},"844102334":{"location":[52.7707939,4.6618822],"ct":"NL","tp":"SD","ts":"2020-09-04T00:27:41Z","tX":525,"tY":334,"tags":{"operator":"Camping Corfwater"}},"882064345":{"location":[52.7866126,4.7154706],"ct":"NL","tp":"CS","ts":"2023-06-13T05:56:36Z","tX":525,"tY":334,"tags":{"brand":"SVR","capacity:pitches":"14","caravans":"yes","landcover":"grass","mobile":"+31 6 29562515","name":"mini camping Het Baken","phone":"+31 224 581 212","reservation":"recommended","shower":"yes","tents":"yes","toilets":"yes","website":"https://www.minicamping-hetbaken.nl"}},"884100138":{"location":[52.8256162,4.8094332],"ct":"NL","tp":"CS","ts":"2024-06-28T17:54:22Z","tX":525,"tY":334,"tags":{"caravans":"yes","email":"info@campingoudesluis.nl","landcover":"grass","motorhome":"yes","name":"B&B Camping Oudesluis","phone":"+31 6 47565425","shower":"yes","tents":"yes","toilets":"yes","website":"https://campingoudesluis.nl/"}},"925957756":{"location":[52.7215627,4.8422335],"ct":"NL","tp":"CR","ts":"2021-04-04T19:36:48Z","tX":525,"tY":334,"tags":{"name":"de Luwe Stek","website":"https://www.luwestek.nl"}},"926100681":{"location":[52.7409338,4.8371141],"ct":"NL","tp":"CS","ts":"2021-04-05T06:15:06Z","tX":525,"tY":334,"tags":{"name":"Camping “De Rietkraag”","website":"https://www.campingderietkraag.nl"}},"952902308":{"location":[52.7887877,4.7662448],"ct":"NL","tp":"CS","ts":"2022-07-09T12:52:20Z","tX":525,"tY":334,"tags":{"contact:website":"https://www.recreatieparkburghorn.nl","name":"Camping Burghorn","wheelchair":"yes"}},"982351878":{"location":[52.880896,4.7357102],"ct":"NL","tp":"CS","ts":"2023-05-30T12:23:20Z","tX":525,"tY":334,"tags":{"caravans":"yes","landcover":"grass","motorhome":"yes","name":"Hoeve Waarom","operator":"Juul de Wit","phone":"+31 223 644 661","shower":"yes","tents":"yes","toilets":"yes"}},"982352432":{"location":[52.8581466,4.7286695],"ct":"NL","tp":"CS","ts":"2025-01-24T00:35:15Z","tX":525,"tY":334,"tags":{"campers":"yes","caravan_site":"motorhome_stopover","caravan_site:type":"farm","caravans":"yes","check_in":"14:00","check_out":"12:00","email":"colindavdm70@gmail.com","fee":"yes","internet_access":"wlan","name":"Minicamping 't Landleven","phone":"+31 6 1589 5432","power_supply":"yes","sanitary_dump_station":"yes","source":"3dShapes","static_caravans":"yes","tents":"yes","website":"https://www.landleven.net/","wheelchair":"yes"}},"982353835":{"location":[52.8627344,4.7400429],"ct":"NL","tp":"CS","ts":"2023-07-08T10:49:58Z","tX":525,"tY":334,"tags":{"name":"W.N.C. Kroon","phone":"+31 6 52011873"}},"984458910":{"location":[52.9078065,4.726284],"ct":"NL","tp":"CS","ts":"2021-09-17T19:02:15Z","tX":525,"tY":334,"tags":{"name":"Noorder Sandt","operator":"Ardoer","website":"https://noordersandt.ardoer.com","wheelchair":"yes"}},"1090681746":{"location":[52.708928,4.6968111],"ct":"NL","tp":"CS","ts":"2024-08-25T20:02:02Z","tX":525,"tY":334,"tags":{"addr:city":"Schoorl","addr:housenumber":"47","addr:street":"Voorweg","fee":"yes","name":"Bungalowpark en Camping Jamarco"}},"1128421949":{"location":[52.8868914,4.9155792],"ct":"NL","tp":"CR","ts":"2023-01-13T11:33:58Z","tX":525,"tY":334,"tags":{"cabins":"yes","campers":"no","caravans":"no","name":"Watersportcamping Lutjestrand","operator":"Stichting Watersportcamping Lutjestrand","website":"https://www.watersportcampinglutjestrand.nl/home.php"}},"1153788935":{"location":[52.7982193,4.6961946],"ct":"NL","tp":"CS","ts":"2023-09-21T14:29:54Z","tX":525,"tY":334,"tags":{"cabins":"yes","caravans":"yes","email":"info@aannoordzee.nl","name":"Aan Noordzee","phone":"+31 224 563 109","shower":"yes","tents":"yes","toilets":"yes","website":"https://www.aannoordzee.nl/"}},"1160493086":{"location":[52.8251473,4.8743418],"ct":"NL","tp":"CS","ts":"2023-04-07T16:39:26Z","tX":525,"tY":334,"tags":{"caravans":"yes","landcover":"grass","name":"Camping Zonnehove","phone":"+31 6 49253928","shower":"yes","tents":"yes","toilets":"yes","website":"https://www.campingzonnehove.nl/"}},"1160529941":{"location":[52.7111548,4.8758981],"ct":"NL","tp":"CS","ts":"2024-05-28T18:23:01Z","tX":525,"tY":334,"tags":{"caravans":"yes","email":"campingdevishoek@live.nl","name":"Camping de vishoek","phone":"+31 72 571 1503","shower":"yes","static_caravans":"yes","tents":"yes","toilets":"yes","website":"http://campingdevishoek.nl/"}},"1160533992":{"location":[52.8429728,4.857999],"ct":"NL","tp":"CS","ts":"2025-01-20T17:37:57Z","tX":525,"tY":334,"tags":{"name":"Camping De Pauwen","phone":"+31 224 221 770","static_caravans":"only"}},"1160552957":{"location":[52.7474243,4.8969832],"ct":"NL","tp":"CS","ts":"2025-01-20T17:37:21Z","tX":525,"tY":334,"tags":{"cabins":"yes","caravans":"yes","email":"info@camping73.nl","name":"Camping ’73","phone":"+31 226 411 475","shower":"yes","static_caravans":"yes","tents":"yes","toilets":"yes","website":"https://camping73.nl/"}},"1160555377":{"location":[52.765097,4.8844835],"ct":"NL","tp":"CS","ts":"2024-08-17T10:30:37Z","tX":525,"tY":334,"tags":{"caravans":"yes","email":"info@campingdemienthorst.nl","mobile":"+31 6 11565326","motorhome":"yes","name":"Camping de Mienthorst","phone":"+31 224 541 211","shower":"yes","tents":"yes","toilets":"yes","website":"http://campingdemienthorst.nl/"}},"1160559680":{"location":[52.8540771,4.7630606],"ct":"NL","tp":"CS","ts":"2023-05-30T12:23:22Z","tX":525,"tY":334,"tags":{"capacity":"25","caravans":"yes","email":"info@iepenhoeve.nl","name":"Camping De Iepenhoeve","phone":"+31 6 18752724","shower":"yes","tents":"yes","toilets":"yes","website":"https://www.camping-iepenhoeve.nl/"}},"1160562746":{"location":[52.8624077,4.7146774],"ct":"NL","tp":"CS","ts":"2023-06-13T05:56:36Z","tX":525,"tY":334,"tags":{"cabins":"yes","capacity":"8","caravans":"yes","email":"info@derozentuin.nl","mobile":"+31 6 53237014","motorhome":"yes","name":"De Rozentuin","phone":"+31 224 582 233","shower":"yes","tents":"yes","toilets":"yes","website":"https://www.derozentuin.nl/"}},"1160620922":{"location":[52.8816978,4.7243103],"ct":"NL","tp":"CS","ts":"2023-05-30T12:23:22Z","tX":525,"tY":334,"tags":{"cabins":"yes","caravans":"yes","email":"info@dewittevilla.nl","motorhome":"no","name":"De Witte Villa","phone":"+31 6 42828480","shower":"yes","tents":"yes","toilets":"yes","website":"https://www.dewittevilla.nl/index.php/kamperen-nl"}},"1164623672":{"location":[52.7189527,4.6715662],"ct":"NL","tp":"CS","ts":"2023-04-22T08:53:35Z","tX":525,"tY":334,"tags":{"cabins":"yes","caravans":"yes","contact:website":"http://www.campingeldorado.nl","mobile":"+31 6 30505780","motorhome":"yes","name":"Camping Eldorado","phone":"+31 72 509 1839","shower":"yes","tents":"yes","toilets":"yes"}},"1193312364":{"location":[52.8012705,4.7213262],"ct":"NL","tp":"CS","ts":"2024-09-03T17:58:58Z","tX":525,"tY":334,"tags":{"caravans":"yes","email":"info@hetananas.nl","landcover":"grass","mobile":"+31 6 30107348","motorhome":"yes","name":"Het Ananas","phone":"+31 224 571 216","shower":"yes","tents":"yes","toilets":"yes","website":"https://hetananas.nl/"}},"1306750043":{"location":[52.7256727,4.6526331],"ct":"NL","tp":"CS","ts":"2024-12-03T18:05:18Z","tX":525,"tY":334,"tags":{"caravans":"yes","name":"Gewoon Buiten","old_name":"Minicamping Mekken","phone":"+31 6 19794965","shower":"yes","tents":"yes","toilets":"yes","website":"https://boerencamping-gewoonbuiten.nl/"}},"1311009383":{"location":[52.7806471,4.7093664],"ct":"NL","tp":"CS","ts":"2024-08-25T09:45:55Z","tX":525,"tY":334,"tags":{"cabins":"yes","capacity:cabins":"32","capacity:pitches":"36","caravans":"yes","drinking_water":"yes","email":"info@strand49.nl","hot_water":"yes","internet_access":"yes","name":"Strand49","phone":"+31 224 228 125","power_supply":"yes","sanitary_dump_station":"yes","shower":"yes","tents":"yes","toilets":"yes","washing_machine":"yes","website":"https://strand49.nl/"}},"1311723502":{"location":[52.7069508,4.6974612],"ct":"NL","tp":"CS","ts":"2024-08-28T09:16:35Z","tX":525,"tY":334,"tags":{}},"1317931459":{"location":[52.9028721,4.78441],"ct":"NL","tp":"CS","ts":"2024-09-24T16:19:53Z","tX":525,"tY":334,"tags":{"caravans":"yes","fee":"yes","name":"Camping Le Maire","static_caravans":"yes","tents":"yes","website":"https://www.campinglemaire.nl"}},"1333766875":{"location":[52.8153214,4.7231284],"ct":"NL","tp":"CS","ts":"2024-11-14T16:35:12Z","tX":525,"tY":334,"tags":{"addr:city":"Schagerbrug","addr:housenumber":"4","addr:postcode":"1751DH","addr:street":"Stolperweg","contact:email":"info@derijnhoeve.nl","contact:phone":"+31 6 37 45 00 45","name":"Camperplaats de Rijnhoeve"}},"1338036661":{"location":[52.8847288,4.8752265],"ct":"NL","tp":"CS","ts":"2024-12-26T17:09:18Z","tX":525,"tY":334,"tags":{"addr:city":"Anna Paulowna","addr:housenumber":"25","addr:postcode":"1761JS","addr:street":"van Ewijcksvaart","name":"WadnochMeer","source":"BAG","source:date":"2014-02-11","website":"https://www.wadnochmeer.nl"}},"1346369439":{"location":[52.9028184,4.7843853],"ct":"NL","tp":"CS","ts":"2024-12-26T12:59:03Z","tX":525,"tY":334,"tags":{"caravans":"yes","fee":"yes","name":"Camping Le Maire","static_caravans":"yes","tents":"yes","website":"https://www.campinglemaire.nl"}},"1353807792":{"location":[52.7880177,4.9195132],"ct":"NL","tp":"CR","ts":"2025-01-24T00:16:25Z","tX":525,"tY":334,"tags":{"addr:city":"Middenmeer","addr:housenumber":"1","addr:postcode":"1775PL","addr:street":"Groetweg","capacity":"7","capacity:caravans":"7","caravan_site":"motorhome_stopover","caravan_site:type":"countryside","charge":"17.50","check_date":"2023-09-03","contact:email":"marnichoeve@gmail.com","contact:facebook":"marnichoeve","contact:phone":"+31 6 49085824","dog":"yes","email":"marnichoeve@gmail.com","fee":"yes","internet_access":"wlan","internet_access:fee":"customers","internet_access:ssid":"CamperMarnic","name":"Camperplaats Marnic Hoeve","name:nl":"Camperplaats Marnic Hoeve","opening_hours":"Apr-Oct","payment:bank_transfer":"yes","payment:cash":"yes","phone":"+31 649085824","power_supply":"yes","reservation":"inquire","sanitary_dump_station":"yes","source":"survey;local knowledge","surface":"grass","water_point":"yes","website":"https://www.camperplaatsmarnichoeve.nl/","wheelchair":"limited"}},"1356709899":{"location":[52.7915563,4.9003574],"ct":"NL","tp":"CR","ts":"2025-02-04T15:45:26Z","tX":525,"tY":334,"tags":{"caravan_site":"motorhome_stopover","name":"Camperplaats 't groentje"}},"1764841408":{"location":[52.8287245,4.7906776],"ct":"NL","tp":"CS","ts":"2022-07-09T12:52:20Z","tX":525,"tY":334,"tags":{"contact:website":"https://www.bullekroffie.nl","name":"'t Bullekroffie"}},"2075080063":{"location":[52.7301458,4.6672746],"ct":"NL","tp":"CS","ts":"2023-08-25T19:58:33Z","tX":525,"tY":334,"tags":{"addr:city":"Schoorl","addr:housenumber":"8","addr:postcode":"1871PJ","addr:street":"Hargerweg","contact:phone":"+31 72 509 1555","designation":"Camping Groede","name":"Camping Groede","website":"https://www.camping-groede.nl/index.html"}},"2366292048":{"location":[52.8954572,4.7185189],"ct":"NL","tp":"CS","ts":"2022-07-09T12:52:20Z","tX":525,"tY":334,"tags":{"contact:website":"https://campingdezwaluw.nl","name":"De Zwaluw","wheelchair":"yes"}},"2366292049":{"location":[52.899253,4.7187508],"ct":"NL","tp":"CS","ts":"2024-03-26T14:09:08Z","tX":525,"tY":334,"tags":{"caravans":"yes","contact:website":"https://www.strandcampingoase.nl","drinking_water":"yes","name":"Camping Oase","power_supply":"yes","sanitary_dump_station":"yes","shower":"yes","tents":"yes","toilets":"yes","wheelchair":"yes"}},"2708744011":{"location":[52.8842635,4.8757115],"ct":"NL","tp":"CS","ts":"2024-04-24T09:41:37Z","tX":525,"tY":334,"tags":{"addr:city":"Anna Paulowna","addr:housenumber":"25","addr:postcode":"1761JS","addr:street":"van Ewijcksvaart","name":"WadnochMeer","source":"BAG","source:date":"2014-02-11"}},"2746888735":{"location":[52.7932326,4.9087276],"ct":"NL","tp":"CS","ts":"2024-11-25T16:31:21Z","tX":525,"tY":334,"tags":{"addr:city":"Kolhorn","addr:housenumber":"3","addr:postcode":"1767ED","addr:street":"Albert Beensweg","name":"Camping 't Kolhornerdiep","source":"BAG","source:date":"2014-03-24"}},"2782685763":{"location":[52.800661,4.7276355],"ct":"NL","tp":"CS","ts":"2023-07-08T10:43:50Z","tX":525,"tY":334,"tags":{"addr:city":"Schagerbrug","addr:housenumber":"103","addr:postcode":"1751HH","addr:street":"Ruigeweg","contact:website":"https://hetananas.nl","name":"het Ananas","source":"BAG","source:date":"2014-03-24"}},"2786150550":{"location":[52.8347991,4.7154231],"ct":"NL","tp":"CS","ts":"2023-05-28T07:48:50Z","tX":525,"tY":334,"tags":{"addr:city":"Callantsoog","addr:housenumber":"6a","addr:postcode":"1759JG","addr:street":"Uitlandseweg","fee":"yes","name":"Mini camping 't Klinkertje","source":"BAG","source:date":"2014-03-24","website":"https://www.camping-klinkertje.nl","wheelchair":"yes"}},"2857586402":{"location":[52.8874448,4.7513884],"ct":"NL","tp":"CS","ts":"2023-08-25T19:58:36Z","tX":525,"tY":334,"tags":{"addr:city":"Julianadorp","addr:housenumber":"21","addr:postcode":"1787BJ","addr:street":"Langevliet","name":"Camping Koegras","phone":"+31 223 641 201","source":"BAG","source:date":"2014-05-07","website":"https://www.campingkoegras.nl/index.php/nl"}},"2886632501":{"location":[52.8401933,4.889724],"ct":"NL","tp":"CR","ts":"2016-08-30T00:08:12Z","tX":525,"tY":334,"tags":{"wheelchair":"yes"}},"3016457075":{"location":[52.830611,4.7064305],"ct":"NL","tp":"CS","ts":"2020-06-23T19:17:19Z","tX":525,"tY":334,"tags":{"addr:city":"Callantsoog","addr:housenumber":"3","addr:street":"Uitlandseweg","name":"Hoeve Landzicht","website":"http://www.campinghoevelandzicht.nl","wheelchair":"yes"}},"3155392481":{"location":[52.854099,4.7156126],"ct":"NL","tp":"CS","ts":"2022-07-09T12:52:20Z","tX":525,"tY":334,"tags":{"contact:website":"https://www.hoevevoorwaarts.nl","name":"Hoeve Voorwaarts","wheelchair":"yes"}},"3155419617":{"location":[52.848815,4.7222167],"ct":"NL","tp":"CS","ts":"2022-07-09T12:52:20Z","tX":525,"tY":334,"tags":{"contact:website":"http://www.dekroft.nl","name":"Camping De kroft","wheelchair":"yes"}},"3156133820":{"location":[52.8330851,4.7182843],"ct":"NL","tp":"CR","ts":"2025-01-24T00:28:10Z","tX":525,"tY":334,"tags":{"access":"private","campers":"yes","caravan_site":"motorhome_stopover","caravan_site:type":"countryside","caravans":"yes","charge":"22 EUR + turist_tax","check_in":"13:30-20:00","check_out":"12:00","dog":"yes","fee":"yes","internet_access":"wlan","name":"Camping De Ooster Nollen","operator":"NCC","power_supply":"yes","power_supply:charge":"5 EUR","power_supply:charge:conditional":"7.50@\"winter\"","power_supply:fee":"yes","power_supply:maxcurrent":"10","toilets":"yes","water_point":"yes","water_point:charge":"5 EUR","water_point:fee":"yes","website":"https://www.ncc.nl/campings/callantsoog-de-ooster-nollen/","wheelchair":"yes"}},"4828671700":{"location":[52.7860292,4.6979004],"ct":"NL","tp":"CS","ts":"2022-09-19T12:31:26Z","tX":525,"tY":334,"tags":{"addr:city":"Sint Maartensvlotbrug","addr:housenumber":"79","addr:postcode":"1753KD","addr:street":"Belkmerweg","contact:website":"https://www.campinggolfzang.nl","name":"Camping Golfzang"}},"6190245485":{"location":[52.7487185,4.8320861],"ct":"NL","tp":"CS","ts":"2024-06-24T08:52:21Z","tX":525,"tY":334,"tags":{"contact:website":"https://campingboerenzwaluw.nl","name":"De Boerenzwaluw"}},"8814754018":{"location":[52.7538113,4.8063483],"ct":"NL","tp":"CS","ts":"2022-07-09T12:52:20Z","tX":525,"tY":334,"tags":{"contact:website":"https://burgerfarmcamping.nl","name":"Burgerfarm"}},"10793783412":{"location":[52.859232,4.7890051],"ct":"NL","tp":"CS","ts":"2023-04-07T20:43:08Z","tX":525,"tY":334,"tags":{"cabins":"yes","caravans":"yes","email":"lighthouseholland@gmail.com","name":"Lighthouse","phone":"+31 6 21270598","shower":"yes","tents":"yes","toilets":"yes","website":"http://campinglighthouse.blogspot.com/"}},"11940278895":{"location":[52.7303275,4.8783213],"ct":"NL","tp":"CS","ts":"2024-08-23T11:40:35Z","tX":525,"tY":334,"tags":{"addr:city":"Nieuwe Niedorp","addr:housenumber":"3a","addr:postcode":"1733JA","addr:street":"Leijerdijk","name":"Hoeve de Koetenburg","source":"BAG","source:date":"2024-05-28","website":"https://campingdekoetenburg.nl"}},"5442436382":{"location":[52.8459413,4.7437252],"ct":"NL","tp":"CR","ts":"2021-02-21T20:04:54Z","tX":525,"tY":334,"tags":{"name":"Vakantieachterdedijk"}},"10793553506":{"location":[52.8317582,4.8367631],"ct":"NL","tp":"CR","ts":"2025-01-24T00:21:59Z","tX":525,"tY":334,"tags":{"capacity":"5","caravan_site":"motorhome_stopover","caravan_site:type":"countryside","caravans":"no","charge":"15 EUR","email":"info@bedenbreakfastdepauw.nl","fee":"yes","motorhome":"designated","name":"De Pauw","phone":"+31 6 13878250","sanitary_dump_station":"yes","sanitary_dump_station:chemical_toilet":"yes","sanitary_dump_station:fee":"no","sanitary_dump_station:grey_water":"yes","surface":"grass","toilets":"yes","water_point":"yes","water_point:fee":"no","website":"https://bedenbreakfastdepauw.nl/camperplaats.html"}},"11164851665":{"location":[52.7880048,4.9194839],"ct":"NL","tp":"CR","ts":"2023-09-10T17:03:54Z","tX":525,"tY":334,"tags":{"addr:city":"Middenmeer","addr:housenumber":"1","addr:postcode":"1775PL","addr:street":"Groetweg","capacity":"7","capacity:caravans":"7","charge":"17.50","check_date":"2023-09-03","contact:email":"marnichoeve@gmail.com","contact:facebook":"marnichoeve","contact:phone":"+31 6 49085824","fee":"yes","internet_access":"wlan","internet_access:fee":"customers","internet_access:ssid":"CamperMarnic","name":"Camperplaats Marnic Hoeve","name:nl":"Camperplaats Marnic Hoeve","opening_hours":"Apr-Oct","payment:bank_transfer":"yes","payment:cash":"yes","power_supply":"yes","sanitary_dump_station":"yes","source":"survey;local knowledge","water_point":"yes","wheelchair":"limited"}},"7874019846":{"location":[52.7707897,4.6617797],"ct":"NL","tp":"SD","ts":"2020-09-04T00:27:41Z","tX":525,"tY":334,"tags":{}},"12135442091":{"location":[52.7801377,4.7104549],"ct":"NL","tp":"SD","ts":"2024-08-25T09:42:08Z","tX":525,"tY":334,"tags":{"access":"customers","operator":"Strand49","sanitary_dump_station:gravity":"yes","sanitary_dump_station:grey_water":"yes"}}}