{"6338792":{"location":[52.6351694,4.6588063],"ct":"NL","tp":"CS","ts":"2022-07-09T13:32:52Z","tX":525,"tY":335,"tags":{"contact:website":"http://www.bungalowparkduyncroft.nl","name":"Duyncroft"}},"15673300":{"location":[52.6421214,4.7216725],"ct":"NL","tp":"CS","ts":"2023-05-30T12:23:25Z","tX":525,"tY":335,"tags":{"cabins":"yes","caravans":"yes","email":"info@campingalkmaar.nl","fee":"yes","internet_access":"wlan","motorhome":"yes","name":"Camping Alkmaar","phone":"+31 72 511 6924","power_supply":"yes","shower":"yes","tents":"yes","toilets":"yes","website":"https://www.campingalkmaar.nl/"}},"26859278":{"location":[52.694722,4.771111],"ct":"NL","tp":"CS","ts":"2022-07-09T12:52:20Z","tX":525,"tY":335,"tags":{"contact:website":"https://www.europarcs.nl/vakantieparken/nederland/noord-holland/molengroet","name":"Molengroet","wheelchair":"yes"}},"65741869":{"location":[52.5138079,4.6328237],"ct":"NL","tp":"CS","ts":"2025-06-14T11:02:08Z","tX":525,"tY":335,"tags":{"addr:city":"Heemskerk","addr:country":"NL","addr:postcode":"1969MP","addr:street":"Duinweg","alt_name":"Klein Hemelrijk","bar":"no","big_rigs":"no","camp_type":"established","caravans":"yes","description":"This campground belongs to the Dutch Nature Campgrounds Chain (membership required).","dish_washing":"yes","dryer":"no","email":"info@kleinhemelrijk.nl","fee":"EUR 24 (2 adults, camper)","fenced":"no","fireplace":"no","general_room":"no","guarded":"no","internet":"wifi","kitchen":"no","laundry":"yes","name":"Natuurkampeerterrein Klein Hemelrijk/Berenweide","payment:credit_cards":"no","pets":"yes","phone":"+31 251 292 931","picnic_benches":"yes","power_supply":"yes","power_supply:voltage":"220","restaurant":"no","sanitary_dump_station":"yes","shop":"no","shower":"hot","source":"survey","swimming_pool":"no","tents":"yes","toilets:disposal":"flush","toilets:position":"seated","washing_machine":"no","water:location":"central","water:quality":"potable","website":"https://www.kleinhemelrijk.nl/"}},"88825707":{"location":[52.6370986,4.751093],"ct":"NL","tp":"PK","ts":"2025-05-29T10:57:34Z","tX":525,"tY":335,"tags":{"access":"yes","capacity":"330","caravans":"yes","charge":"0.80 EUR/hour","description":"0.80 EUR/hour and max charge of 3.35 a day","fee":"yes","fee:conditional":"yes @ (Mo-Sa 09:00-20:00; Su 12:00-17:00; Dec 25 off; Jan 01 off)","name":"Parcade","parking":"surface"}},"93353449":{"location":[52.5646952,4.6307164],"ct":"NL","tp":"CS","ts":"2024-07-28T11:26:06Z","tX":525,"tY":335,"tags":{"addr:city":"Castricum","addr:housenumber":"31","addr:postcode":"1901NZ","addr:street":"Zeeweg","caravans":"yes","fee":"yes","name":"Camping Bakkum","operator":"De Kennemer Duincampings","payment:cash":"yes","payment:credit_cards":"yes","payment:debit_cards":"yes","phone":"+31 251 661 091","static_caravans":"yes","tents":"yes","website":"https://www.campingbakkum.nl/"}},"107024320":{"location":[52.5276527,4.7409561],"ct":"NL","tp":"CS","ts":"2019-03-28T03:55:57Z","tX":525,"tY":335,"tags":{"name":"De Swaenebloem","source":"survey 11-07-16","website":"https://swaenebloem.nl/"}},"107043099":{"location":[52.535838,4.6596004],"ct":"NL","tp":"CS","ts":"2025-04-19T13:44:59Z","tX":525,"tY":335,"tags":{"contact:email":"info@ormsbyfield.nl","contact:phone":"+31 251 652 950","contact:website":"https://www.ormsbyfield.nl","name":"Argro-Camping Ormsby Field"}},"107047441":{"location":[52.5795372,4.798165],"ct":"NL","tp":"CS","ts":"2023-05-30T21:05:05Z","tX":525,"tY":335,"tags":{"addr:city":"Driehuizen","addr:housenumber":"2 A","addr:postcode":"1844LM","addr:street":"Driehuizerweg","capacity":"20","contact:website":"https://natuurlijkgenoegen.nl","description":"Biologische dynamische boerderij bij natuurgebied Eilandspolder. Rustige omgeving.Vis, zwem,vaar en fietsplezier. Centrale ligging, goed bereikbaar. Kindvriendelijk,speeltoestellen hooispelen, boer 'helpen' bij melken kijken.","fee":"yes","internet_access":"yes","name":"Camping Natuurlijk Genoegen","operator":"Vekabo","source":"J&I"}},"107050542":{"location":[52.5624623,4.834964],"ct":"NL","tp":"CS","ts":"2024-07-31T13:25:22Z","tX":525,"tY":335,"tags":{"addr:city":"Graft","addr:housenumber":"24a","addr:postcode":"1484EN","addr:street":"Raadhuisstraat","ele":"-2","fee":"yes","name":"Camping Tuinderij \"Welgelegen\"","phone":"+31 299 673 032","website":"https://www.campingtuinderijwelgelegen.nl/"}},"107088586":{"location":[52.5680123,4.6585128],"ct":"NL","tp":"CS","ts":"2022-07-09T13:32:52Z","tX":525,"tY":335,"tags":{"contact:website":"https://sleutelhoeve.nl","name":"Boerderijcamping Sleutel Hoeve"}},"107089901":{"location":[52.5861543,4.6675521],"ct":"NL","tp":"CS","ts":"2022-07-09T13:32:52Z","tX":525,"tY":335,"tags":{"contact:website":"https://www.minicampingdepolle.nl","name":"Camping De Polle"}},"107089970":{"location":[52.5455306,4.6911062],"ct":"NL","tp":"CS","ts":"2025-04-19T13:44:59Z","tX":525,"tY":335,"tags":{"contact:email":"info@boerencampingdekei.nl","contact:mobile":"+31 649 838 749","contact:phone":"+31 251 659 628","contact:website":"https://boerencampingdekei.nl","name":"Boerencamping De Kei"}},"107795636":{"location":[52.6373387,4.6819165],"ct":"NL","tp":"CS","ts":"2023-06-15T13:42:54Z","tX":525,"tY":335,"tags":{"name":"de Zonnehoeve","source":"3dShapes","website":"https://www.campingdezonnehoeve.nl/"}},"107795778":{"location":[52.6348745,4.6610489],"ct":"NL","tp":"CS","ts":"2023-05-30T12:22:57Z","tX":525,"tY":335,"tags":{"addr:city":"Egmond aan den Hoef","addr:housenumber":"1A","addr:postcode":"1934PR","addr:street":"Driehuizerweg","contact:email":"info@demarkiess.nl","contact:phone":"+31 72 506 2274","contact:website":"http://www.demarkiess.nl/","name":"Camping De Markiess"}},"107874424":{"location":[52.6631926,4.6729434],"ct":"NL","tp":"CS","ts":"2025-05-23T15:32:56Z","tX":525,"tY":335,"tags":{"landuse":"meadow"}},"107874794":{"location":[52.6857962,4.7059585],"ct":"NL","tp":"CS","ts":"2025-01-08T21:51:04Z","tX":525,"tY":335,"tags":{"camp_site":"basic","caravans":"yes","email":"secretariaat@noorderhoeve.nl","fee":"yes","name":"Boerencamping Noorderhoeve","nudism":"no","opening_hours":"May-Oct: 00:00-24:00; Nov-Apr: Off","operator":"Raphaëlstichting","permanent_camping":"only","reservation":"members_only","source":"PDOK, AHN & BGT Dec'24","tents":"yes","website":"https://www.raphaelstichting.org/noorderhoeve/camping/"}},"199902025":{"location":[52.6577406,4.8705948],"ct":"NL","tp":"CR","ts":"2024-08-15T22:55:14Z","tX":525,"tY":335,"tags":{"email":"info@hollandchaletpark.nl","name":"Chaletpark Holiday","website":"https://www.hollandchaletparkhensbroek.nl/"}},"241382884":{"location":[52.6262553,4.6517785],"ct":"NL","tp":"CS","ts":"2023-07-08T10:33:44Z","tX":525,"tY":335,"tags":{"name":"'kamperen bij de boer'","note":"bord langs de weg vermeld 'Kamperen bij de boer'. Er staan caravans. Website en telefoonnummer niet te vinden."}},"319499004":{"location":[52.6132767,4.639629],"ct":"NL","tp":"CS","ts":"2023-06-15T13:07:06Z","tX":525,"tY":335,"tags":{"addr:city":"Egmond aan den Hoef","addr:housenumber":"10","addr:postcode":"1934PD","addr:street":"Tijdverdrijfslaan","contact:phone":"+31 72 506 3331","name":"Camping Zomerdijk","source":"3dShapes","website":"https://svr.nl/"}},"344862493":{"location":[52.4938033,4.6032897],"ct":"NL","tp":"CS","ts":"2016-10-06T12:14:28Z","tX":525,"tY":335,"tags":{"name":"Camping De Banjaert","operator":"NIVON - De Banjaert"}},"421680489":{"location":[52.6096195,4.6447888],"ct":"NL","tp":"CS","ts":"2023-06-15T13:02:55Z","tX":525,"tY":335,"tags":{"name":"camping de Croft","website":"https://decroft.nl/"}},"421682673":{"location":[52.5668545,4.6562302],"ct":"NL","tp":"CS","ts":"2022-07-09T13:32:52Z","tX":525,"tY":335,"tags":{"contact:website":"https://www.twiskdehooiberg.nl","name":"mini camping De Hooiberg"}},"421683911":{"location":[52.5839641,4.6569411],"ct":"NL","tp":"CS","ts":"2024-06-20T18:38:31Z","tX":525,"tY":335,"tags":{"contact:website":"https://hetzonnigeveld.nl","name":"het Zonnige veld"}},"421690876":{"location":[52.5524099,4.6931687],"ct":"NL","tp":"CS","ts":"2022-07-09T13:32:52Z","tX":525,"tY":335,"tags":{"contact:website":"https://campingdenesse.nl/minicamping","name":"minicamping de Nesse"}},"440369842":{"location":[52.5318472,4.8109958],"ct":"NL","tp":"CS","ts":"2023-05-30T12:23:13Z","tX":525,"tY":335,"tags":{"addr:city":"Starnmeer","addr:housenumber":"32","addr:postcode":"1488AH","addr:street":"Starnmeerdijk","email":"nhs.kampeerz@zonenleven.nl","name":"Naturisten camping Zon en Leven Starnmeer","opening_hours":"24/7","phone":"+31 6 57747276","website":"https://www.zonenleven.nl/starnmeer"}},"443442318":{"location":[52.527357,4.6564397],"ct":"NL","tp":"CS","ts":"2025-05-11T19:47:44Z","tX":525,"tY":335,"tags":{"contact:email":"info@noorddorperbos.nl","contact:phone":"+31 6 23 493 573","name":"Camping Noorddorperbos","website":"https://www.noorddorperbos.nl/home.html"}},"444038466":{"location":[52.532702,4.6451974],"ct":"NL","tp":"CS","ts":"2023-05-30T12:23:13Z","tX":525,"tY":335,"tags":{"cabins":"yes","caravans":"yes","email":"info@campinggeversduin.nl","motorhome":"yes","name":"Camping Geversduin","operator":"De kennemerduincampings","phone":"+31 251 661 095","shower":"yes","tents":"yes","toilets":"yes","website":"https://www.campinggeversduin.nl/"}},"445676383":{"location":[52.4878861,4.6708998],"ct":"NL","tp":"CS","ts":"2025-04-19T13:47:47Z","tX":525,"tY":335,"tags":{"contact:phone":"+31 251 230 710","name":"Camping Adrichem","website":"https://camping-adrichem.nl/"}},"447086884":{"location":[52.5628002,4.6736952],"ct":"NL","tp":"CS","ts":"2022-07-09T13:32:52Z","tX":525,"tY":335,"tags":{"contact:website":"https://www.minicampingdetienmorgen.nl","name":"Minicamping De Tien Morgen"}},"447089841":{"location":[52.5639144,4.6871457],"ct":"NL","tp":"CS","ts":"2024-06-20T19:02:05Z","tX":525,"tY":335,"tags":{"contact:website":"http://dewestert.nl","name":"Minicamping De Westert"}},"492565238":{"location":[52.6214271,4.6387464],"ct":"NL","tp":"CS","ts":"2025-01-21T05:01:59Z","tX":525,"tY":335,"tags":{"contact:website":"https://www.roompot.nl/bestemmingen/nederland/noord-holland/kustpark-egmond-aan-zee","name":"Kustpark Egmond aan Zee","website":"https://www.landal.nl/parken/roompot-kustpark-egmond-aan-zee","website:map":"https://www.landal.nl/-/media/files/eze/eze_plat.pdf?v=638569709560000000_20240719092917"}},"521679211":{"location":[52.5141751,4.746618],"ct":"NL","tp":"CS","ts":"2023-04-10T08:58:33Z","tX":525,"tY":335,"tags":{"cabins":"no","camp_site":"serviced","capacity":"25","caravans":"yes","drinking_water":"yes","fee":"yes","internet_access":"no","kitchen":"no","lit":"no","name":"De Rodenburghoeve","power_supply":"yes","reservation":"yes","sanitary_dump_station":"yes","shower":"hot","swimming_pool":"no","tents":"yes","toilets":"yes","washing_machine":"yes","waste_disposal":"yes","website":"https://rodenburghoeve.nl"}},"624042922":{"location":[52.6271351,4.6653014],"ct":"NL","tp":"CS","ts":"2023-05-30T21:05:03Z","tX":525,"tY":335,"tags":{"addr:city":"Egmond aan den Hoef","addr:housenumber":"3c","addr:postcode":"1934PK","addr:street":"Hoeverweg","capacity":"10","internet_access":"yes","internet_access:fee":"no","name":"Camping de Tuintjes","website":"https://www.campingdetuintjes.nl"}},"791751284":{"location":[52.6614156,4.6783046],"ct":"NL","tp":"CS","ts":"2024-08-16T20:42:44Z","tX":525,"tY":335,"tags":{"name":"camping boerderij Jonker","website":"http://www.boerderijjonker.nl/Camping/"}},"885614677":{"location":[52.5335892,4.7751692],"ct":"NL","tp":"CS","ts":"2020-12-16T17:23:37Z","tX":525,"tY":335,"tags":{"access":"private","landuse":"grass","name":"Bulleweide","scouts":"yes","source":"survey 11-07-16"}},"885614679":{"location":[52.5335376,4.7743735],"ct":"NL","tp":"CS","ts":"2020-12-16T17:23:37Z","tX":525,"tY":335,"tags":{"access":"private","landuse":"grass","name":"Voorven","scouts":"yes","source":"survey 11-07-16"}},"885614681":{"location":[52.5337327,4.7733866],"ct":"NL","tp":"CS","ts":"2024-08-05T10:54:17Z","tX":525,"tY":335,"tags":{"access":"private","landuse":"grass","name":"Kopven","scouts":"yes","source":"survey 11-07-16"}},"946024070":{"location":[52.658327,4.8701774],"ct":"NL","tp":"CS","ts":"2024-10-09T10:15:25Z","tX":525,"tY":335,"tags":{"capacity:pitches":"35","caravans":"yes","email":"info@kinderparadijskoggenland.nl","name":"Camping Koggenland","phone":"+31 6 53155017","shower":"yes","tents":"yes","toilets":"yes","website":"https://www.kinderparadijskoggenland.nl/camping"}},"957994600":{"location":[52.533248,4.7749542],"ct":"NL","tp":"CS","ts":"2021-06-26T08:06:26Z","tX":525,"tY":335,"tags":{"access":"private","landuse":"grass","name":"Bulleweide","scouts":"yes","source":"survey 11-07-16"}},"987542931":{"location":[52.6284285,4.6592225],"ct":"NL","tp":"CS","ts":"2022-04-11T15:06:17Z","tX":525,"tY":335,"tags":{"capacity":"12","caravans":"yes","internet_access":"wlan","internet_access:fee":"no","name":"Als'T Zomert","wheelchair":"yes"}},"1060519744":{"location":[52.669454,4.7424188],"ct":"NL","tp":"CS","ts":"2024-06-02T18:22:55Z","tX":525,"tY":335,"tags":{"addr:city":"Bergen (NH)","addr:housenumber":"3","addr:postcode":"1862PT","addr:street":"Oosterdijk","caravans":"yes","email":"amarahoeve@gmail.com","name":"Amara Hoeve","phone":"+31 6 48606075","tents":"yes","website":"http://www.amarahoeve.nl"}},"1160047166":{"location":[52.504909,4.7942978],"ct":"NL","tp":"CS","ts":"2025-01-13T23:13:51Z","tX":525,"tY":335,"tags":{"name":"Caravanpark De Akker","phone":"+31 75 628 3002","shower":"yes","toilets":"yes","website":"https://www.deakker.eu"}},"1160047167":{"location":[52.5047514,4.7950936],"ct":"NL","tp":"CS","ts":"2025-01-13T23:13:51Z","tX":525,"tY":335,"tags":{"static_caravans":"only"}},"1160047169":{"location":[52.5037861,4.7948886],"ct":"NL","tp":"CR","ts":"2025-06-14T10:11:03Z","tX":525,"tY":335,"tags":{"static_caravans":"only"}},"1161539462":{"location":[52.489885,4.8332372],"ct":"NL","tp":"CS","ts":"2023-05-30T12:23:22Z","tX":525,"tY":335,"tags":{"cabins":"yes","capacity:cabins":"2","capacity:pitches":"15","caravans":"yes","email":"swarthoeve14@gmail.com","internet_access":"wlan","internet_access:fee":"no","name":"Swarthoeve","phone":"+31 6 13104699","shower":"yes","tents":"yes","toilets":"yes","website":"https://swarthoeve.nl/"}},"1169790890":{"location":[52.5293585,4.7363725],"ct":"NL","tp":"CS","ts":"2023-05-08T06:01:42Z","tX":525,"tY":335,"tags":{"addr:city":"Uitgeest","addr:housenumber":"41","addr:street":"Lagendijk","capacity:pitches":"22","caravans":"yes","contact:website":"https://www.zwaansmeer.nl/camping","motorhome":"yes","name":"Zwaansmeerpolder","opening_hours":"Apr 1 - Oct 8","phone":"+31 251 313 553","shower":"yes","tents":"yes","toilets":"yes"}},"1189992346":{"location":[52.6893142,4.8650046],"ct":"NL","tp":"CS","ts":"2023-07-17T18:02:46Z","tX":525,"tY":335,"tags":{"capacity:pitches":"10","caravans":"yes","email":"kb.boerentrots@gmail.com","name":"Kampeerboerdereitje Boerentrots","opening_hours":"Apr 1 - Sep 30","phone":"+31 6 30898025;+31 6 55334879","shower":"yes","tents":"yes","toilets":"yes","visible":"true","website":"https://kampeerboerdereitjeboerentrots.nl/"}},"1197820017":{"location":[52.5028398,4.6378314],"ct":"NL","tp":"CS","ts":"2025-04-19T13:47:47Z","tX":525,"tY":335,"tags":{"cabins":"yes","caravans":"yes","contact:email":"info@campingamsterdamaanzee.nl","contact:mobile":"+31 653 266 096","email":"info@campingamsterdamaanzee.nl","name":"Amsterdam aan Zee","shower":"yes","tents":"yes","toilets":"yes","website":"https://www.campingamsterdamaanzee.nl/"}},"1252933388":{"location":[52.6727264,4.8151149],"ct":"NL","tp":"CR","ts":"2025-02-13T20:01:46Z","tX":525,"tY":335,"tags":{"addr:city":"Heerhugowaard","addr:housenumber":"2","addr:postcode":"1704MX","addr:street":"Ooster Vlaerdinge","campervan":"yes","capacity:persons":"36","caravan_site":"motorhome_stopover","caravans":"no","charge":"16.10 EUR","contact:phone":"+31 6 37288325","contact:website":"https://havenbroekhorn.nl/contact","fee":"yes","fee:description":"Price includes electricity and €1 tourist tax per person.","internet_access":"wlan","internet_access:fee":"no","motorhome":"designated","name":"Camperplaatsen Recreatiehaven Broekhorn","operator":"Stichting Recreatiehaven Broekhorn","operator:type":"government","permanent_camping":"no","power_supply":"yes","power_supply:fee":"no","sanitary_dump_station":"yes","shower":"yes","shower:fee":"no","static_caravans":"no","surface":"paving_stones","tents":"no","toilets":"yes","toilets:fee":"no","water_point":"yes","water_point:charge":"0.50 EUR/50 liter","water_point:fee":"yes"}},"1252975694":{"location":[52.6455412,4.7954867],"ct":"NL","tp":"CS","ts":"2024-02-20T19:31:00Z","tX":525,"tY":335,"tags":{"caravans":"yes","contact:website":"https://www.geestmerambacht.nl/park-van-luna/over-park-van-luna","description":"Overnight stays are not allowed.\nOnly day recreation is allowed.","fee":"no","name":"Dagcamping Park van Luna","note":"Overnight stays are not allowed.\nOnly day recreation is allowed.","opening_hours":"07:00-22:00","operator":"Recreatieschap Geestmerambacht","static_caravans":"no","tents":"yes"}},"1353726306":{"location":[52.6858902,4.7831458],"ct":"NL","tp":"CR","ts":"2025-01-23T18:10:00Z","tX":525,"tY":335,"tags":{"addr:city":"Zuid-Scharwoude","addr:housenumber":"24","addr:postcode":"1722PV","addr:street":"Veertweg","capacity":"17","caravan_site":"motorhome_stopover","caravan_site:type":"farm","charge":"22 EUR","check_in":"11:00","check_out":"13:00","email":"opdeakkers24@gmail.com","fee":"yes","internet_access":"wlan","name":"Camperplaats Op de akkers","opening_hours":"24/7","picnic_table":"yes","power_supply":"yes","power_supply:charge":"0.50 EUR/kWh","power_supply:fee":"yes","power_supply:maxcurrent":"10","sanitary_dump_station":"yes","sanitary_dump_station:chemical_toilet":"yes","sanitary_dump_station:fee":"no","sanitary_dump_station:grey_water":"yes","seasonal":"no","water_point":"yes","website":"https://www.opdeakkers.com/"}},"1357558074":{"location":[52.586443,4.7516016],"ct":"NL","tp":"CS","ts":"2025-02-06T18:13:14Z","tX":525,"tY":335,"tags":{"addr:city":"Akersloot","addr:housenumber":"22","addr:postcode":"1921CE","addr:street":"Boekel","name":"Camping De Boekel","website":"https://deboekel.nl"}},"4325643051":{"location":[52.5120928,4.8492004],"ct":"NL","tp":"CS","ts":"2024-05-11T15:40:37Z","tX":525,"tY":335,"tags":{"access":"permit","group_only":"yes","name":"Scouting kampeereiland 't Mieuwtje Jisp","scout":"yes","tents":"yes","website":"https://scoutingkampeereilandjisp.nl/"}},"6190145485":{"location":[52.5863905,4.753019],"ct":"NL","tp":"CS","ts":"2022-07-09T12:52:20Z","tX":525,"tY":335,"tags":{"contact:website":"https://deboekel.nl","name":"Camping De Boekel"}},"6713035224":{"location":[52.5792268,4.6885845],"ct":"NL","tp":"CS","ts":"2021-11-04T13:55:22Z","tX":525,"tY":335,"tags":{"access":"private","addr:city":"Limmen","addr:housenumber":"ter hoogte van 193","addr:postcode":"1906CX","addr:street":"Hogeweg","description":"Dit kampeerterrein is alleen toegankelijk voor leden van de NTKC","dog":"leashed","internet_access":"no","name":"NTKC Limmen","operator":"Nederlandse Touristen Kampeer Club","power_supply":"yes","website":"https://www.kampeerclub.nl/terrein/kampeerterrein-limmen"}},"7973052524":{"location":[52.6105688,4.6394738],"ct":"NL","tp":"CS","ts":"2023-06-15T13:02:55Z","tX":525,"tY":335,"tags":{"addr:city":"Egmond aan den Hoef","addr:housenumber":"10","addr:postcode":"1934PG","addr:street":"Weg naar de Bleek","fee":"yes","internet_access":"no","name":"Camping De Bleek","operator":"Valkering","phone":"+31 72 506 1593","website":"https://svr.nl"}},"10790850146":{"location":[52.6661208,4.6356118],"ct":"NL","tp":"CS","ts":"2024-08-03T12:53:52Z","tX":525,"tY":335,"tags":{"caravans":"no","drinking_water":"yes","name":"Het Zeehuis","note":"Verblijf op het kampeerterrein is alleen voor fiets- en wandelkampeerders met een trekkerstent","phone":"+31 88 099 0988","shower":"yes","tents":"yes","toilets":"yes","website":"https://zeehuis.nivon.nl"}},"10803088130":{"location":[52.6433383,4.88183],"ct":"NL","tp":"CS","ts":"2023-04-27T09:14:10Z","tX":525,"tY":335,"tags":{"name":"Het Woelige Nest","phone":"+31 6 21641550"}},"9957768817":{"location":[52.6857032,4.7835485],"ct":"NL","tp":"CR","ts":"2022-10-14T06:25:05Z","tX":525,"tY":335,"tags":{"addr:city":"Zuid-Scharwoude","addr:housenumber":"24","addr:postcode":"1722PV","addr:street":"Veertweg","name":"Camperplaats Op de akkers","opening_hours":"24/7"}},"8595067898":{"location":[52.5139388,4.7463464],"ct":"NL","tp":"SD","ts":"2023-04-10T08:58:33Z","tX":525,"tY":335,"tags":{"access":"customers","opening_hours":"24/7","sanitary_dump_station:round_drain":"yes"}},"8757854482":{"location":[52.6583889,4.8700219],"ct":"NL","tp":"SD","ts":"2021-05-23T13:25:58Z","tX":525,"tY":335,"tags":{"access":"customers"}}}