{"24296555":{"location":[52.2953165,4.8216064],"ct":"NL","tp":"CS","ts":"2023-08-22T12:17:12Z","tX":525,"tY":336,"tags":{"alt_name":"Bostel","name":"EuroParcs Het Amsterdamse Bos","name:en":"EuroParcs Het Amsterdamse Bos","name:nl":"EuroParcs Het Amsterdamse Bos","toilets:wheelchair":"yes","website":"https://www.campingamsterdamsebos.nl/","wheelchair":"yes"}},"35065180":{"location":[52.4542254,4.5724455],"ct":"NL","tp":"CS","ts":"2024-04-26T14:08:06Z","tX":525,"tY":336,"tags":{"contact:email":"reservering@duindoorn.nl","contact:phone":"+31255510773","name":"Camping De Duindoorn","url":"https://www.duindoorn.nl","website":"https://www.duindoorn.nl/"}},"87184393":{"location":[52.4523053,4.6406283],"ct":"NL","tp":"CS","ts":"2024-04-29T14:23:50Z","tX":525,"tY":336,"tags":{"addr:city":"Velsen-Zuid","addr:housenumber":"15D","addr:postcode":"1981EH","addr:street":"Driehuizerkerkweg","caravans":"yes","contact:email":"info@campingschoonenberg.nl","contact:phone":"+31255523998","drinking_water":"yes","fee":"yes","group_only":"no","internet_access":"wlan","internet_access:fee":"no","name":"Natuurcamping Schoonenberg","power_supply":"yes","shower":"yes","tents":"yes","toilets":"yes","website":"https://www.campingschoonenberg.nl"}},"157422681":{"location":[52.3993816,4.5980064],"ct":"NL","tp":"CS","ts":"2023-05-30T12:22:58Z","tX":525,"tY":336,"tags":{"addr:city":"Overveen","addr:country":"NL","addr:housenumber":"71","addr:postcode":"2051EB","addr:street":"Zeeweg","area":"yes","capacity":"75","email":"margastrikzeeweg71@outlook.com","layer":"-1","name":"Natuurcamping Zeeweg 71","phone":"+31 6 40022990","website":"https://zeeweg71.nl/"}},"175042600":{"location":[52.3777173,4.6762543],"ct":"NL","tp":"CS","ts":"2023-05-30T12:22:59Z","tX":525,"tY":336,"tags":{"access":"customers","addr:city":"Haarlem","addr:country":"NL","addr:housenumber":"68","addr:postcode":"2033AD","addr:street":"Lieoever","cabins":"yes","capacity:cabins":"4","caravans":"yes","fee":"yes","image":"https://icamp.pl/wp-content/uploads/2021/03/Zrzut-ekranu-2021-03-13-o-11.58.27-860x358.png;https://campingdeliede.nl/wp-content/uploads/2021/05/huisjes.jpg;https://cdn3.acsi.eu/6/1/f/4/61f4055d38bec.jpg?impolicy=gallery-detail","internet_access:fee":"yes","name":"Camping de Liede","phone":"+31 23 535 8666","rental":"city_bike;boat;sup","tents":"yes","website":"https://campingdeliede.nl/"}},"239998836":{"location":[52.4356698,4.9124077],"ct":"NL","tp":"CS","ts":"2023-05-30T12:23:00Z","tX":525,"tY":336,"tags":{"addr:city":"Landsmeer","addr:housenumber":"130","addr:postcode":"1121AL","addr:street":"Noordeinde","name":"Het Rietveen","phone":"+31 20 482 1468","website":"https://www.campinghetrietveen.nl/"}},"523412151":{"location":[52.3955752,4.6885108],"ct":"NL","tp":"CS","ts":"2024-08-23T13:12:42Z","tX":525,"tY":336,"tags":{"name":"kampeerboerderij Blauhek"}},"635946935":{"location":[52.2744937,4.8829963],"ct":"NL","tp":"CS","ts":"2023-08-13T20:50:41Z","tX":525,"tY":336,"tags":{"alt_name":"Boerententencamping","caravans":"yes","email":"info@boerententencamping.com","name":"Aemestellehoeve","phone":"+31 6 49370329","shower":"yes","tents":"yes","toilets":"yes","website":"https://boerententencamping.com/"}},"661290164":{"location":[52.3567512,4.5712236],"ct":"NL","tp":"CS","ts":"2023-05-30T21:05:03Z","tX":525,"tY":336,"tags":{"access":"private","addr:city":"Zandvoort","addr:housenumber":"47","addr:postcode":"2116","addr:street":"Zuidlaan","alt_name":"Labelterrein Het Naaldenveld","email":"naaldenveld@scouting.nl","fee":"yes","internet_access":"wlan","name":"Scoutingkampeerterrein Het Naaldenveld","operator":"Scouting Nederland","payment:cash":"yes","scout":"yes","website":"https://www.naaldenveld.nl","wheelchair":"limited"}},"699357501":{"location":[52.4031753,4.6622729],"ct":"NL","tp":"CS","ts":"2024-06-21T11:04:42Z","tX":525,"tY":336,"tags":{"addr:city":"Haarlem","addr:housenumber":"4","addr:postcode":"2031AG","addr:street":"Maus Gatsonidesweg","capacity:persons":"70","email":"bureau@scoutinghaarlem.nl","fee":"yes","group_only":"yes","internet_access":"wlan","name":"Schoteroog","operator":"Scouting Haarlem","tents":"yes","website":"https://schoteroog.scouting.nl/terrein"}},"1160050839":{"location":[52.3824901,4.7831451],"ct":"NL","tp":"CS","ts":"2023-07-29T21:03:55Z","tX":525,"tY":336,"tags":{"access":"customers","addr:housenumber":"14","addr:street":"Tom Schreursenweg","caravans":"yes","contact:phone":"+31 6 24615582","contact:website":"https://www.desportcamping.nl/nl/","drinking_water":"yes","fee":"yes","internet_access":"wlan","motor_vehicle":"yes","name":"De Sport Camping","nudism":"no","power_supply":"yes","reservation":"yes","shower":"yes","static_caravans":"no","surface":"grass","tents":"yes","toilets":"yes"}},"1352341973":{"location":[52.3435805,4.6830378],"ct":"NL","tp":"CR","ts":"2025-01-23T14:47:46Z","tX":525,"tY":336,"tags":{"caravan_site":"motorhome_stopover","caravan_site:type":"village","charge":"20 EUR","dog":"yes","fee":"yes","internet_access":"wlan","internet_access:fee":"no","laundry":"yes","name":"Camperpark N205","power_supply":"yes","power_supply:capacity":"60","power_supply:charge":"4 EUR","power_supply:fee":"yes","power_supply:maxcurrent":"16;10","sanitary_dump_station":"yes","sanitary_dump_station:chemical_toilet":"yes","sanitary_dump_station:grey_water":"yes","shower":"yes","shower:charge":"1 EUR","shower:fee":"yes","toilets":"yes","website":"https://camperparkn205.nl/"}},"1353673253":{"location":[52.2883227,4.6257844],"ct":"NL","tp":"CR","ts":"2025-01-23T13:40:58Z","tX":525,"tY":336,"tags":{"caravan_site":"motorhome_stopover","caravan_site:type":"farm_shop","caravans":"no","charge":"14 EUR","dog":"yes","email":"ag.rus@hetnet.nl","fee":"yes","fireworks":"designated","internet_access":"wlan","motorhome":"designated","name":"Decemberhoeve","opening_hours":"Mar 02-Oct 31","power_supply":"yes","power_supply:maxcurrent":"4","product":"potato","reservation":"yes","sanitary_dump_station":"yes","sanitary_dump_station:chemical_toilet":"yes","sanitary_dump_station:grey_water":"yes","shower":"yes","tents":"no","toilets":"yes","water_point":"yes","website":"https://www.decemberhoeve.nl/campers"}},"1354140481":{"location":[52.3441246,4.6834851],"ct":"NL","tp":"SD","ts":"2025-01-25T08:22:00Z","tX":525,"tY":336,"tags":{"capacity":"2","covered":"no","water_point":"yes"}},"1358937812":{"location":[52.3234899,4.6619261],"ct":"NL","tp":"CS","ts":"2023-07-16T13:49:12Z","tX":525,"tY":336,"tags":{"access":"yes","cabins":"no","caravans":"yes","description":"Er mag alleen overdag gebruik worden gemaakt van de dagcamping","fee":"no","name":"Dagcamping","opening_hours":"Mo-Su 08:00-22:00","permanent_camping":"no","shower":"no","static_caravans":"no","tents":"yes","toilets":"yes"}},"3581918210":{"location":[52.3820112,4.9063935],"ct":"NL","tp":"SD","ts":"2023-10-02T19:58:22Z","tX":525,"tY":336,"tags":{"sanitary_dump_station:pump-out":"yes"}},"10788743228":{"location":[52.4740517,4.6953721],"ct":"NL","tp":"CS","ts":"2023-04-27T09:14:11Z","tX":525,"tY":336,"tags":{"cabins":"yes","caravans":"no","email":"info@landgoedrorik.nl","name":"Landgoed Rorik","phone":"+31 6 51844908","tents":"yes","website":"https://www.landgoedrorik.nl/slapen/campingplek"}},"11010997237":{"location":[52.3204279,4.8801837],"ct":"NL","tp":"CS","ts":"2023-07-27T22:15:06Z","tX":525,"tY":336,"tags":{"access":"permissive","operator":"Krakenburg"}},"6175183486":{"location":[52.3441691,4.6830625],"ct":"NL","tp":"CR","ts":"2025-01-01T18:36:40Z","tX":525,"tY":336,"tags":{"name":"Camperpark N205","website":"https://camperparkn205.nl/"}},"11038075011":{"location":[52.2883291,4.6254428],"ct":"NL","tp":"CR","ts":"2023-07-10T20:41:51Z","tX":525,"tY":336,"tags":{"caravans":"no","email":"ag.rus@hetnet.nl","motorhome":"designated","name":"Decemberhoeve","shower":"yes","tents":"no","toilets":"yes","website":"https://www.decemberhoeve.nl/campers"}},"10788835005":{"location":[52.3819306,4.7840901],"ct":"NL","tp":"SD","ts":"2023-04-05T21:27:24Z","tX":525,"tY":336,"tags":{"access":"customers","sanitary_dump_station:basin":"yes"}}}