{"9575612":{"location":[52.067023,4.7136669],"ct":"NL","tp":"CS","ts":"2023-07-19T21:00:31Z","tX":525,"tY":337,"tags":{"access":"private","caravans":"yes","name":"De Bessenhof","nudism":"yes","operator":"Zuidhollandse Lichtbond","shower":"yes","swimming_pool":"yes","tents":"yes","toilets":"yes","website":"https://www.zhlb.nl/"}},"14965466":{"location":[52.1648964,4.8180347],"ct":"NL","tp":"CS","ts":"2022-12-03T17:25:18Z","tX":525,"tY":337,"tags":{"name":"Kampeerhoeve Koole","website":"https://www.kampeerhoevekoole.nl/"}},"15687413":{"location":[52.2635902,4.7301674],"ct":"NL","tp":"CS","ts":"2023-05-30T12:23:25Z","tX":525,"tY":337,"tags":{"cabins":"yes","caravans":"no","email":"info@rp-aalsmeer.nl","mobile":"+31 6 54305722","motorhome":"yes","name":"Recreatiepark Aalsmeer","phone":"+31 297 322 113","shower":"yes","tents":"yes","toilets":"yes","website":"https://rp-aalsmeer.nl/nl/camping"}},"16196299":{"location":[52.2432301,4.8999923],"ct":"NL","tp":"CS","ts":"2024-12-11T17:39:04Z","tX":525,"tY":337,"tags":{"cabins":"yes","caravans":"yes","fee":"yes","name":"Botsholland","phone":"+31 6 50236241","shower":"yes","tents":"yes","toilets":"yes","website":"https://www.botsholland.nl/"}},"16220339":{"location":[52.1057629,4.884443],"ct":"NL","tp":"CS","ts":"2023-08-19T20:15:30Z","tX":525,"tY":337,"tags":{"cabins":"yes","capacity:pitches":"50","caravans":"yes","email":"info@deboerinn.nl","motorhome":"yes","name":"De Boerinn","phone":"+31 348 401 200","shower":"yes","tents":"yes","toilets":"yes","website":"https://www.deboerinn.nl/camping-de-boerinn/"}},"21562995":{"location":[52.2180396,4.711251],"ct":"NL","tp":"CS","ts":"2024-06-30T14:17:25Z","tX":525,"tY":337,"tags":{"addr:city":"Leimuiden","addr:housenumber":"30","addr:postcode":"2451CS","addr:street":"Vriezekoop","email":"roos30@xs4all.nl","name":"Camping de Drecht","phone":"+31 172 508 688","website":"http://camping-de-drecht.nl"}},"22981528":{"location":[52.2125762,4.6673546],"ct":"NL","tp":"CS","ts":"2024-09-11T12:31:19Z","tX":525,"tY":337,"tags":{"caravans":"yes","drinking_water":"yes","internet_access":"wlan","internet_access:fee":"no","name":"Straat-Hof Boerderijcamping","payment:cash":"yes","phone":"+31 6 53864686","power_supply":"yes","sanitary_dump_station":"yes","shower":"yes","tents":"yes","toilets":"yes","website":"https://straat-hof.nl/camping/"}},"51795137":{"location":[52.1938845,4.8208609],"ct":"NL","tp":"CR","ts":"2010-03-05T22:48:04Z","tX":525,"tY":337,"tags":{"name":"Park Dolce Vita"}},"51795138":{"location":[52.1923742,4.8176591],"ct":"NL","tp":"CR","ts":"2010-03-05T22:48:04Z","tX":525,"tY":337,"tags":{"layer":"-1","name":"Park Sans Souci"}},"52106574":{"location":[52.1663066,4.8602249],"ct":"NL","tp":"CR","ts":"2024-12-14T15:00:27Z","tX":525,"tY":337,"tags":{"name":"Caravanpark de Visotter","website":"https://devisotter.nl/"}},"73513972":{"location":[52.1766569,4.8633658],"ct":"NL","tp":"CS","ts":"2023-05-30T12:26:12Z","tX":525,"tY":337,"tags":{"capacity:pitches":"30","caravans":"yes","email":"amstelkade@reinaerde.nl","motorhome":"yes","name":"Natuurkampeerterrein Amstelkade","opening_hours":"week 01-53","phone":"+31 172 408 080","shower":"yes","tents":"yes","toilets":"yes","website":"https://terreinzoeker.natuurkampeerterreinen.nl/terreinen/utrecht/amstelkade"}},"89102140":{"location":[52.2458439,4.6987519],"ct":"NL","tp":"CS","ts":"2023-07-16T14:44:20Z","tX":525,"tY":337,"tags":{"caravans":"yes","name":"De Westeinder","phone":"+31 6 11846574","shower":"yes","static_caravans":"yes","tents":"yes","toilets":"yes","website":"http://www.campingdewesteinder.nl/"}},"92074340":{"location":[52.1515585,4.7032963],"ct":"NL","tp":"CR","ts":"2010-12-28T16:34:27Z","tX":525,"tY":337,"tags":{"name":"Nederlandse Caravan Club"}},"95354557":{"location":[52.1141641,4.6509232],"ct":"NL","tp":"CS","ts":"2023-05-18T14:01:10Z","tX":525,"tY":337,"tags":{"landuse":"grass"}},"96225506":{"location":[52.1956413,4.7294117],"ct":"NL","tp":"CR","ts":"2024-06-30T17:16:37Z","tX":525,"tY":337,"tags":{"name":"Caravanpark Mimosa","source":"3dShapes","website":"https://www.caravanpark-mimosa.nl"}},"97250213":{"location":[52.2526395,4.7276508],"ct":"NL","tp":"CS","ts":"2021-04-24T14:32:23Z","tX":525,"tY":337,"tags":{"access":"customers","charge":"3.50 EUR","fee":"yes","name":"Scouting eiland De Kluiten","operator":"Scouting Tiflo Aalsmeer","payment:bank_transfer":"yes","source":"3dShapes","website":"https://tiflo.nl/verhuur/"}},"108908997":{"location":[52.1274054,4.8963709],"ct":"NL","tp":"CS","ts":"2023-05-31T06:08:56Z","tX":525,"tY":337,"tags":{"cabins":"yes","capacity":"18","caravans":"yes","email":"info@campinghetoortjeshek.nl","name":"Camping 't Oortjeshek","phone":"+31 348 402 004","shower":"yes","tents":"yes","toilets":"yes","website":"https://www.campinghetoortjeshek.nl"}},"110224655":{"location":[52.2048758,4.7545475],"ct":"NL","tp":"CS","ts":"2023-05-30T22:10:44Z","tX":525,"tY":337,"tags":{"name":"Camping Het Groene Hart","website":"https://campinghetgroenehart.nl"}},"150375729":{"location":[52.1084587,4.6486244],"ct":"NL","tp":"CS","ts":"2021-01-29T18:43:21Z","tX":525,"tY":337,"tags":{"addr:city":"Alphen aan den Rijn","addr:housenumber":"4b","addr:postcode":"2409AA","addr:street":"Rietveldsepad","contact:website":"https://www.polderflora.nl","name":"Mini-camping Polderflora"}},"231625914":{"location":[52.2369549,4.9063252],"ct":"NL","tp":"CS","ts":"2023-05-30T12:26:13Z","tX":525,"tY":337,"tags":{"access":"private","alt_name":"Naturistenterrein De Wilgenborgh","caravans":"yes","motorhome":"yes","name":"De Wilgenborgh","nudism":"designated","phone":"+31 297 264 431","shower":"yes","tents":"yes","toilets":"yes","website":"https://www.haagselichtbond.nl"}},"304788742":{"location":[52.0927552,4.8866368],"ct":"NL","tp":"CS","ts":"2023-05-31T06:08:59Z","tX":525,"tY":337,"tags":{"email":"campingbatenstein@planet.nl","fax":"+31 348 409 691","name":"Camping Batenstein","phone":"+31 348 421 320","website":"https://www.camping-batenstein.nl"}},"398613925":{"location":[52.1703344,4.587023],"ct":"NL","tp":"CS","ts":"2023-05-30T12:25:26Z","tX":525,"tY":337,"tags":{"caravans":"yes","internet_access":"yes","internet_access:fee":"no","name":"Camping De Freek","phone":"+31 71 501 2310","shower":"yes","tents":"yes","toilets":"yes","website":"https://www.campingdefreek.nl/camping/"}},"624427171":{"location":[52.1897495,4.832305],"ct":"NL","tp":"CS","ts":"2022-02-02T16:33:27Z","tX":525,"tY":337,"tags":{"name":"Groene Hart Camping"}},"665055442":{"location":[52.2035494,4.7545917],"ct":"NL","tp":"CS","ts":"2019-01-21T12:55:38Z","tX":525,"tY":337,"tags":{"name":"Wigwam"}},"688990653":{"location":[52.0680001,4.7160959],"ct":"NL","tp":"CS","ts":"2024-06-07T06:59:56Z","tX":525,"tY":337,"tags":{"name":"De Bessenhof","source":"3dShapes"}},"777526334":{"location":[52.1123709,4.6901807],"ct":"NL","tp":"CR","ts":"2020-03-01T17:39:25Z","tX":525,"tY":337,"tags":{"power_supply":"yes"}},"796921692":{"location":[52.1544265,4.7044607],"ct":"NL","tp":"CS","ts":"2023-05-31T17:41:11Z","tX":525,"tY":337,"tags":{"addr:city":"Ter Aar","addr:housenumber":"123","addr:postcode":"2461GW","addr:street":"Westkanaalweg","name":"Wijngaard Camping Naescas","phone":"+31 172 605 158","website":"http://www.neascas.nl"}},"818458239":{"location":[52.1581513,4.7225055],"ct":"NL","tp":"CS","ts":"2023-07-17T18:04:04Z","tX":525,"tY":337,"tags":{"capacity:pitches":"14","caravans":"yes","email":"camping@hetzwaluwnest.nl","landcover":"grass","name":"De Nachtzwaluw","phone":"+31 172 574 722","shower":"yes","tents":"yes","toilets":"yes","website":"https://www.hetzwaluwnest.nl/camping/"}},"1033299590":{"location":[52.128485,4.6808549],"ct":"NL","tp":"CS","ts":"2023-04-24T19:18:32Z","tX":525,"tY":337,"tags":{"caravans":"yes","contact:phone":"+31 172 796 587","name":"De dagcamping","opening_hours":"sunrise-sunset","shower":"no","tents":"yes","toilets":"no"}},"1069958707":{"location":[52.2254035,4.6202312],"ct":"NL","tp":"CR","ts":"2023-10-29T21:35:16Z","tX":525,"tY":337,"tags":{"capacity":"25","fee":"yes","internet_access":"wlan","internet_access:fee":"no","motorhome":"designated","name":"Het Groene Hart","reservation":"yes","sanitary_dump_station":"customers","website":"https://camperplaatshetgroenehart.nl/"}},"1118069919":{"location":[52.1119889,4.7706489],"ct":"NL","tp":"CR","ts":"2023-05-31T17:41:07Z","tX":525,"tY":337,"tags":{"name":"De Hollandse Boerderij","website":"https://www.hollandseboerderij.nl"}},"1304740286":{"location":[52.0913797,4.9148246],"ct":"NL","tp":"CR","ts":"2024-07-30T23:00:15Z","tX":525,"tY":337,"tags":{"capacity":"3","caravan_site":"motorhome_stopover","caravan_site:type":"town","fee":"no","lit":"yes","name":"Camperplaats Veldwijk Woerden","seasonal":"no","surface":"paving_stones"}},"1351434924":{"location":[52.1950855,4.7737058],"ct":"NL","tp":"CR","ts":"2025-01-15T00:34:51Z","tX":525,"tY":337,"tags":{"charge":"15 EUR","dog":"yes","email":"camperplaatszevenhoven@live.nl","fee":"yes","internet_access":"wlan","name":"Camperplaats Zevenhoven","phone":"+31 657663552","power_supply":"yes","sanitary_dump_station":"yes","water_point":"yes","website":"https://camperplaats.weebly.com/contact.html"}},"1351434925":{"location":[52.187674,4.8102374],"ct":"NL","tp":"CR","ts":"2025-01-15T00:45:09Z","tX":525,"tY":337,"tags":{"caravan_site":"motorhome_stopover","caravan_site:type":"farm","charge":"15 EUR","fee":"yes","name":"Camperplaats Klaase Bos","power_supply":"yes","sanitary_dump_station":"yes","water_point":"yes"}},"1351436442":{"location":[52.0879895,4.6666829],"ct":"NL","tp":"CR","ts":"2025-01-15T00:55:23Z","tX":525,"tY":337,"tags":{"capacity":"15","caravan_site":"motorhome_stopover","caravan_site:type":"countryside","charge":"23 EUR","check_in":"14:00","check_out":"12:00","dog":"yes","dog:charge":"1.50 EUR","dog:fee":"yes","fee":"yes","internet_access":"wlan","laundry_service":"yes","maxlength":"7","maxweight":"3.5","name":"Camperplaats De Scheve Schoffel","sanitary_dump_station":"yes","shower":"yes","toilets":"yes","water_point":"yes","website":"https://camperplaatsdescheveschoffel.nl/camperplaats/"}},"2695646096":{"location":[52.089225,4.6151383],"ct":"NL","tp":"CS","ts":"2021-11-01T13:39:39Z","tX":525,"tY":337,"tags":{"access":"private","addr:city":"Hazerswoude-Dorp","addr:housenumber":"81","addr:postcode":"2391AD","addr:street":"Voorweg","description":"Dit kampeerterrein is alleen toegankelijk voor leden van de NTKC","dog":"leashed","internet_access":"no","name":"NTKC Het Groene Hart","operator":"Nederlandse Toeristen Kampeer Club","power_supply":"yes","source":"BAG","source:date":"2014-02-11","website":"https://www.kampeerclub.nl/terrein/kampeerterrein-het-groene-hart"}},"4659098918":{"location":[52.2641003,4.8722268],"ct":"NL","tp":"CS","ts":"2024-06-22T21:54:59Z","tX":525,"tY":337,"tags":{"name":"Boerin Marie","website":"https://www.boerinmarie.nl/"}},"10775201205":{"location":[52.1937829,4.6164047],"ct":"NL","tp":"CS","ts":"2023-04-07T07:09:55Z","tX":525,"tY":337,"tags":{"motorhome":"yes","name":"De Veense Bukker","tents":"no","website":"https://deveensebukker.nl/beleef-de-bukker/camperplaats/"}},"10780494379":{"location":[52.1744178,4.6232955],"ct":"NL","tp":"CS","ts":"2023-04-27T09:14:49Z","tX":525,"tY":337,"tags":{"cabins":"yes","capacity":"6","caravans":"yes","email":"info@jachthaven-camping-wijdeaa.nl","motorhome":"yes","name":"Camping aan de Wijde Aa","phone":"+31 6 53961784;+31 6 53972234","shower":"yes","tents":"yes","toilets":"yes","website":"https://jachthaven-camping-wijdeaa.nl/camping/"}},"10788526442":{"location":[52.1946733,4.9182632],"ct":"NL","tp":"CS","ts":"2023-04-05T18:59:03Z","tX":525,"tY":337,"tags":{"cabins":"yes","caravans":"yes","email":"info@buitenlevenkamperen.nl","name":"Buitenleven Kamperen","phone":"+31 6 28648085","shower":"yes","tents":"yes","toilets":"yes","website":"https://buitenlevenkamperen.nl/"}},"10914223656":{"location":[52.1001112,4.6239459],"ct":"NL","tp":"CS","ts":"2023-05-21T17:00:34Z","tX":525,"tY":337,"tags":{"name":"Tuin van Epicurus","website":"https://www.tuinvanepicurus.eu/"}}}