{"6335751":{"location":[51.9165541,4.7525333],"ct":"NL","tp":"CS","ts":"2024-10-05T19:40:10Z","tX":525,"tY":338,"tags":{"cabins":"yes","caravans":"no","name":"Recreatiepark de Nes","static_caravans":"yes","tents":"no","website":"https://www.campingdenes.nl"}},"15555562":{"location":[51.9723003,4.7609536],"ct":"NL","tp":"CS","ts":"2023-03-04T11:26:04Z","tX":525,"tY":338,"tags":{"caravans":"yes","email":"dekooirekreatie@hetnet.nl","name":"Rekreatiepark De Kooi","phone":"+31 182 347 088","shower":"yes","tents":"yes","toilets":"yes","website":"https://www.rekreatieparkdekooi.nl"}},"27817361":{"location":[51.9990004,4.7565975],"ct":"NL","tp":"CS","ts":"2025-06-18T07:07:05Z","tX":525,"tY":338,"tags":{"caravans":"yes","drinking_water":"yes","name":"Camping Streefland","power_supply":"yes","sanitary_dump_station":"yes","shower":"yes","tents":"yes","toilets":"yes","website":"https://camping-streefland.nl/"}},"37800872":{"location":[52.0311963,4.5890835],"ct":"NL","tp":"CR","ts":"2021-01-29T19:49:11Z","tX":525,"tY":338,"tags":{"addr:city":"Moerkapelle","addr:housenumber":"66b","addr:postcode":"2752AB","addr:street":"Bredeweg","name":"Park De Randstad"}},"72111340":{"location":[52.049026,4.8968825],"ct":"NL","tp":"CS","ts":"2023-05-30T12:26:11Z","tX":525,"tY":338,"tags":{"capacity:pitches":"25","caravans":"yes","email":"info@natuurcampingdeboerderij.nl","mobile":"+31 6 51041916","motorhome":"yes","name":"Natuurcamping De Boerderij","opening_hours":"Mar 15 - Nov 1","phone":"+31 348 421 199","shower":"yes","tents":"yes","toilets":"yes","website":"https://natuurcampingdeboerderij.nl/"}},"72113400":{"location":[52.0472983,4.8959069],"ct":"NL","tp":"CS","ts":"2025-02-10T13:03:46Z","tX":525,"tY":338,"tags":{"addr:city":"Snelrewaard","addr:housenumber":"21","addr:postcode":"3425EM","addr:street":"Zuid-Linschoterzandweg","capacity:pitches":"15","caravans":"no","landuse":"orchard","motorhome":"no","name":"Natuurkampeerterrein de Oude Boomgaard","opening_hours":"Apr 1 - Oct 1","phone":"+31 348 560 071","tents":"yes","toilets":"yes","website":"https://www.natuurkampeerterreinen.nl/terreinen/utrecht/de-oude-boomgaard/"}},"95370727":{"location":[51.961731,4.8453727],"ct":"NL","tp":"CR","ts":"2025-01-15T21:09:28Z","tX":525,"tY":338,"tags":{"capacity":"25","capacity:pitches":"25","caravan_site":"motorhome_stopover","caravan_site:type":"farm","caravans":"no","charge":"17 EUR","fee":"yes","landcover":"grass","motorhome":"designated","name":"De Vlisterhoeve","phone":"+31 6 38702400","power_supply":"yes","power_supply:charge":"2.50 EUR/night","reservation":"no","sanitary_dump_station":"yes","sanitary_dump_station:chemical_toilet":"yes","sanitary_dump_station:grey_water":"yes","shower":"no","tents":"no","toilets":"yes","website":"https://www.vlisterhoeve.nl/de-camperplaats"}},"95372008":{"location":[51.9363423,4.8197403],"ct":"NL","tp":"CS","ts":"2023-06-13T05:57:47Z","tX":525,"tY":338,"tags":{"cabins":"yes","capacity:pitches":"15","caravans":"yes","email":"jeannette44@hetnet.nl","landuse":"grass","mobile":"+31 6 40225662","name":"de Bovenstad","phone":"+31 182 382 641","shower":"yes","tents":"yes","toilets":"yes","website":"https://www.campingdebovenstad.nl"}},"103886071":{"location":[51.8599559,4.7123237],"ct":"NL","tp":"CS","ts":"2023-01-08T13:23:27Z","tX":525,"tY":338,"tags":{"caravans":"yes","internet_access":"no","name":"Camping IJsclub Oud-Ablas","phone":"+31 6 15390447","shower":"yes","tents":"yes","toilets":"yes","website":"https://www.minicampings.nl/minicampings/Oud-Alblas/camping-ijsclub-oud-ablas"}},"160125054":{"location":[52.0511623,4.6721757],"ct":"NL","tp":"CR","ts":"2024-02-16T09:39:33Z","tX":525,"tY":338,"tags":{"name":"Recreatiepark Breedijk"}},"231620193":{"location":[52.0183348,4.8294404],"ct":"NL","tp":"CS","ts":"2023-05-30T12:26:13Z","tX":525,"tY":338,"tags":{"name":"Bij Groen Geluk","phone":"+31 348 563 233","source":"3dShapes","website":"https://bijgroengeluk.nl/"}},"441926745":{"location":[52.0168472,4.8321962],"ct":"NL","tp":"CS","ts":"2019-04-04T10:28:28Z","tX":525,"tY":338,"tags":{"name":"De Boogaard","website":"https://campingdeboogaard.nl/"}},"587003774":{"location":[51.8743299,4.9171761],"ct":"NL","tp":"CS","ts":"2023-01-08T13:23:27Z","tX":525,"tY":338,"tags":{"caravans":"yes","fee":"yes","name":"Camping Slingeland","shower":"yes","tents":"yes","toilets":"yes","website":"https://www.campingslingeland.nl/"}},"799081669":{"location":[52.0018278,4.9182018],"ct":"NL","tp":"CS","ts":"2023-05-30T12:26:22Z","tX":525,"tY":338,"tags":{"caravans":"yes","email":"gerdaohl@gmail.com","landuse":"grass","mobile":"+31 6 10309642","name":"SVR Camping 'Midden op 't Landt'","reservation":"yes","tents":"yes","website":"https://www.campingmiddenoptlandt.nl"}},"803125735":{"location":[51.8926599,4.8702621],"ct":"NL","tp":"CS","ts":"2023-05-30T22:11:16Z","tX":525,"tY":338,"tags":{"caravans":"yes","name":"Het Salamandertje","phone":"+31 184 641 552","shower":"yes","tents":"yes","toilets":"yes","website":"https://www.campinghetsalamandertje.nl"}},"804301136":{"location":[51.8937365,4.7229639],"ct":"NL","tp":"CS","ts":"2023-01-08T13:23:27Z","tX":525,"tY":338,"tags":{"capacity":"16","caravans":"yes","internet_access":"wlan","internet_access:fee":"no","name":"de Landhoeve","shower":"yes","tents":"yes","toilets":"yes","website":"https://landhoeve.com/camping"}},"814455823":{"location":[51.9420647,4.864025],"ct":"NL","tp":"CS","ts":"2020-06-19T05:31:02Z","tX":525,"tY":338,"tags":{"caravans":"yes","name":"Stadscamping Schoonhoven","tents":"yes","website":"https://stadscampingschoonhoven.nl"}},"922055115":{"location":[51.8584133,4.6767241],"ct":"NL","tp":"CR","ts":"2025-01-21T17:44:33Z","tX":525,"tY":338,"tags":{"addr:city":"Alblasserdam","addr:housenumber":"6","addr:postcode":"2952BP","addr:street":"Poldersemolenweg","capacity":"65","caravan_site":"motorhome_stopover","caravan_site:type":"city","charge":"18.50 EUR","description":"Geb端hr incl. Ver und Entsorgung - Strom gegen Geb端hr","designation":"camper","email":"camperparkkinderdijk@gmail.com","fee":"yes","name":"Camperpark Kinderdijk","phone":"+31 6 53219901","power_supply":"yes","power_supply:fee":"yes","power_supply:maxcurrent":"10","sanitary_dump_station":"yes","sanitary_dump_station:chemical_toilet":"yes","sanitary_dump_station:fee":"no","sanitary_dump_station:grey_water":"yes","shower":"yes","shower:charge":"1 EUR","shower:fee":"yes","tents":"no","toilets":"yes","water_point":"yes","water_point:fee":"no","website":"https://www.camperpark-kinderdijk.com/"}},"1107130843":{"location":[51.9918341,4.7969344],"ct":"NL","tp":"CS","ts":"2024-09-07T07:32:52Z","tX":525,"tY":338,"tags":{"access":"private","description":"Alleen toegankelijk voor leden van de NTKC","dog":"leashed","internet_access":"no","name":"NTKC De Ronde Hoek","operator":"Nederlandse Toeristen-Kampeer-Club","power_supply":"no","website":"https://www.kampeerclub.nl/terrein/kampeerterrein-de-ronde-hoek"}},"1184127919":{"location":[51.9492784,4.9178423],"ct":"NL","tp":"CS","ts":"2023-06-22T06:14:21Z","tX":525,"tY":338,"tags":{"caravans":"yes","email":"henk@campingwilgenwei.nl","internet_access":"wlan","name":"Wilgenwei","opening_hours":"Apr 15 - Sep 30","phone":"+31 6 17096516","shower":"yes","tents":"yes","toilets":"yes","website":"https://campingwilgenwei.nl"}},"1184129271":{"location":[51.8455684,4.9193576],"ct":"NL","tp":"CS","ts":"2023-07-17T18:04:04Z","tX":525,"tY":338,"tags":{"capacity:motorhome":"5","capacity:pitches":"15","caravans":"yes","check:date":"2023-06-22","email":"info@kweetal.com","motorhome":"yes","name":"Kweetal","opening_hours":"week 01-53","phone":"+31 6 53275873","shower":"yes","tents":"yes","toilets":"yes","website":"https://www.kweetal.com/kweetal.com/camping/"}},"1188586470":{"location":[52.0017918,4.789055],"ct":"NL","tp":"CR","ts":"2025-01-14T17:48:59Z","tX":525,"tY":338,"tags":{"capacity":"25","caravan_site":"motorhome_stopover","caravan_site:type":"farm","caravans":"no","charge":"23 EUR","email":"aantjes.blokhuis@gmail.com","fee":"yes","internet_access":"wlan","internet_access:fee":"no","motorhome":"designated","name":"Aantjes-Blokhuis","phone":"+31 6 20185206","power_supply":"yes","power_supply:fee":"no","power_supply:maxcurrent":"10","sanitary_dump_station":"yes","sanitary_dump_station:chemical_toilet":"yes","sanitary_dump_station:grey_water":"yes","shower":"yes","tents":"no","toilets":"yes","website":"https://aantjes-blokhuis.nl/"}},"1351260386":{"location":[52.0021064,4.8298276],"ct":"NL","tp":"CR","ts":"2025-01-14T17:48:59Z","tX":525,"tY":338,"tags":{"capacity":"10","caravan_site":"motorhome_stopover","caravan_site:type":"farm","email":"campingnooitgedacht@gmail.com","name":"Mini Camping/Camperplaats Nooitgedacht","phone":"+31 348564255","shower":"yes","surface":"grass","toilets":"yes"}},"1351434173":{"location":[51.8535445,4.9216127],"ct":"NL","tp":"CR","ts":"2025-01-15T00:28:53Z","tX":525,"tY":338,"tags":{"addr:city":"Giessenburg","addr:housenumber":"9","addr:postcode":"3381LB","addr:street":"A.M.A. van Langeraadweg","capacity":"8","capacity:caravans":"8","caravan_site":"motorhome_stopover","caravan_site:type":"countryside","internet_access":"yes","internet_access:fee":"no","name":"Camperplaats de Groot","phone":"+31 184 651 391","power_supply":"yes","sanitary_dump_station":"yes","tents":"no","website":"https://www.camperplaatsdegroot.com"}},"1353244533":{"location":[51.8571811,4.7530136],"ct":"NL","tp":"CR","ts":"2025-01-21T22:23:41Z","tX":525,"tY":338,"tags":{"caravan_site":"motorhome_stopover","caravan_site:type":"farm","contact:facebook":"https://www.facebook.com/farmnescio/","email":"campererfnescio@outlook.com","fee":"yes","motorhome":"designated","name":"Campererf Farm Nescio","phone":"+31 6 23159401;+31 6 23978975","power_supply":"yes","sanitary_dump_station":"no","shower":"yes","toilets":"yes","water_point":"yes"}},"2921085474":{"location":[51.9652075,4.6913454],"ct":"NL","tp":"CS","ts":"2022-09-28T14:24:25Z","tX":525,"tY":338,"tags":{"addr:city":"Berkenwoude","addr:housenumber":"27a","addr:postcode":"2825ND","addr:street":"Achterbroek","email":"zhb.kampeerz@zonenleven.nl","internet_access":"wlan","leisure":"sauna","name":"Naturisten Camping Berkenwoude","nudism":"designated","opening_hours":"24/7","phone":"+31 6 14762739","source":"BAG","source:date":"2014-06-17","website":"https://www.zonenleven.nl/berkenwoude"}},"3075736837":{"location":[51.9741483,4.7818929],"ct":"NL","tp":"CS","ts":"2024-06-08T20:11:04Z","tX":525,"tY":338,"tags":{"caravans":"yes","drinking_water":"yes","name":"Farmcamps de Stolkse Weide","power_supply":"yes","sanitary_dump_station":"yes","shower":"yes","tents":"yes","toilets":"yes","website":"https://www.farmcamps.nl/Boerderijen/FarmCamps-Stolkse-Weide.html"}},"3377805604":{"location":[51.8962061,4.6426025],"ct":"NL","tp":"CR","ts":"2015-03-01T13:16:54Z","tX":525,"tY":338,"tags":{}},"7869296694":{"location":[51.9878907,4.7463743],"ct":"NL","tp":"CS","ts":"2023-05-17T07:55:40Z","tX":525,"tY":338,"tags":{"name":"Boerencamping Vreede is Rijckdom"}},"5061987446":{"location":[51.8533816,4.9217651],"ct":"NL","tp":"CR","ts":"2023-05-28T09:00:19Z","tX":525,"tY":338,"tags":{"addr:city":"Giessenburg","addr:housenumber":"9","addr:postcode":"3381LB","addr:street":"A.M.A. van Langeraadweg","capacity":"8","capacity:caravans":"8","internet_access":"yes","internet_access:fee":"no","name":"Camperplaats de Groot","phone":"+31 184 651 391","power_supply":"yes","sanitary_dump_station":"yes","tents":"no","website":"https://www.camperplaatsdegroot.com"}},"8560346726":{"location":[51.8586504,4.6762302],"ct":"NL","tp":"CR","ts":"2023-01-28T14:48:12Z","tX":525,"tY":338,"tags":{"addr:city":"Alblasserdam","addr:housenumber":"6","addr:postcode":"2952BP","addr:street":"Poldersemolenweg","capacity:campers":"65","description":"Geb端hr incl. Ver und Entsorgung - Strom gegen Geb端hr","designation":"camper","email":"camperparkkinderdijk@gmail.com","name":"Camperpark Kinderdijk","phone":"+31 6 53219901","source":"BAG","source:date":"2021-03-25","tents":"no","website":"https://www.camperpark-kinderdijk.com/"}},"10887894654":{"location":[51.8571783,4.753011],"ct":"NL","tp":"CR","ts":"2023-05-24T20:04:18Z","tX":525,"tY":338,"tags":{"contact:facebook":"https://www.facebook.com/farmnescio/","email":"campererfnescio@outlook.com","motorhome":"designated","name":"Campererf Farm Nescio","phone":"+31 6 23159401;+31 6 23978975","shower":"yes","toilets":"yes"}},"9677978443":{"location":[52.0175164,4.8296365],"ct":"NL","tp":"SD","ts":"2022-04-19T18:08:15Z","tX":525,"tY":338,"tags":{}},"10803577144":{"location":[52.0112769,4.7170016],"ct":"NL","tp":"SD","ts":"2023-04-12T03:27:17Z","tX":525,"tY":338,"tags":{}},"12501284032":{"location":[52.0042923,4.7645098],"ct":"NL","tp":"CR","ts":"2025-05-11T17:12:43Z","tX":525,"tY":338,"tags":{"capacity":"25","caravan_site":"motorhome_stopover","caravan_site:type":"farm","charge":"25 EUR","email":"Melkveehouderijvanderstok@outlook.com","fee":"yes","name":"Hofstede Kloosterstein","phone":"+31 6 14162245","picnic_table":"yes","power_supply":"yes","reservation":"yes","water_point":"yes","website":"https://hofstedekloosterstein.nl/nl/Camperplaats/"}}}