{"66151999":{"location":[51.7097895,4.804431],"ct":"NL","tp":"CS","ts":"2012-05-12T20:36:07Z","tX":525,"tY":339,"tags":{"name":"Beverburcht"}},"99428232":{"location":[51.7144713,4.6974372],"ct":"NL","tp":"CS","ts":"2024-08-19T12:23:08Z","tX":525,"tY":339,"tags":{"capacity":"40","dog":"leashed","fee":"yes","landuse":"grass","motorhome":"yes","name":"Jachthaven Crezee","operator":"Jachthaven Crezee","surface":"paved","tents":"no"}},"100646389":{"location":[51.80732,4.7211445],"ct":"NL","tp":"CS","ts":"2023-05-30T12:25:02Z","tX":525,"tY":339,"tags":{"name":"Het Loze Vissertje","phone":"+31 78 616 2751","website":"https://www.campinghetvissertje.nl/"}},"225223533":{"location":[51.7805826,4.6617071],"ct":"NL","tp":"CS","ts":"2025-03-26T20:23:35Z","tX":525,"tY":339,"tags":{"access":"customers","addr:city":"Dordrecht","addr:housenumber":"3","addr:postcode":"3328LB","addr:street":"Smitsweg","capacity":"25","caravans":"yes","email":"info@goedaf.nl","fee":"yes","internet_access":"wlan","name":"Naturistencamping De Ammoniet","note":"Hier is woningbouw gepland op termijn .. Camping wordt verplaatst naar nieuwe locatie","nudism":"yes","operator":"Goed Af","phone":"+31 78 617 5337","tents":"yes","website":"https://goedaf.nl"}},"333452327":{"location":[51.7901157,4.7927583],"ct":"NL","tp":"CS","ts":"2024-09-07T19:16:41Z","tX":525,"tY":339,"tags":{"caravans":"yes","email":"info@biesboschvakantie.nl","name":"Natuurkampeerterrein De Knotwilg","phone":"+31 6 22417934","shower":"yes","tents":"yes","toilets":"yes","website":"https://www.biesboschvakantie.nl/natuurkampeerterrein/"}},"353892438":{"location":[51.7832524,4.8697137],"ct":"NL","tp":"CS","ts":"2018-10-19T10:54:33Z","tX":525,"tY":339,"tags":{"name":"Minicamping Seleviahoeve"}},"371596978":{"location":[51.697315,4.7747146],"ct":"NL","tp":"CS","ts":"2015-09-20T14:18:27Z","tX":525,"tY":339,"tags":{"name":"Minicamping Oud Drimmelen"}},"416151128":{"location":[51.6866715,4.9218494],"ct":"NL","tp":"CS","ts":"2023-05-30T20:11:02Z","tX":525,"tY":339,"tags":{"cabins":"yes","caravans":"yes","email":"info@hoevedebontekraai.nl","mobile":"+31 6 38501044","name":"Hoeve De Bonte Kraai","phone":"+31 162 580 524","shower":"yes","tents":"yes","toilets":"yes","website":"https://www.hoevedebontekraai.nl"}},"477738334":{"location":[51.7075186,4.8129765],"ct":"NL","tp":"CR","ts":"2024-07-20T13:59:46Z","tX":525,"tY":339,"tags":{"landuse":"grass"}},"586054860":{"location":[51.6344661,4.8014044],"ct":"NL","tp":"CS","ts":"2021-06-14T12:29:00Z","tX":525,"tY":339,"tags":{"name":"Camping Kleine Abtshoeve","website":"https://www.dekleineabtshoeve.nl/"}},"586054862":{"location":[51.6340058,4.8053765],"ct":"NL","tp":"CS","ts":"2019-10-16T00:59:08Z","tX":525,"tY":339,"tags":{"name":"Minicamping De Kwikstaart"}},"590194025":{"location":[51.6292022,4.61563],"ct":"NL","tp":"CS","ts":"2023-04-02T16:13:34Z","tX":525,"tY":339,"tags":{"access":"private","caravans":"yes","contact:phone":"+31 6 43115191","name":"Naturistencamping Markeplaat","nudism":"designated","shower":"yes","tents":"yes","toilets":"yes","website":"https://www.mensennatuur.nl/"}},"784265838":{"location":[51.6541242,4.8270071],"ct":"NL","tp":"CS","ts":"2024-04-24T19:20:15Z","tX":525,"tY":339,"tags":{"name":"Camping Vrachelen","phone":"+31 162 430 680","website":"https://www.pheninckx.nl/"}},"805424690":{"location":[51.7568134,4.6176469],"ct":"NL","tp":"CS","ts":"2023-05-30T12:25:32Z","tX":525,"tY":339,"tags":{"email":"ruut@campingpolderland.nl","name":"Polderland","phone":"+31 6 51913943","tents":"yes","toilets":"yes","website":"https://www.campingpolderland.nl/"}},"828843014":{"location":[51.6963408,4.7017102],"ct":"NL","tp":"CS","ts":"2020-07-22T14:34:12Z","tX":525,"tY":339,"tags":{"name":"Groene Camping in de Polder","website":"https://www.groenecampingindepolder.nl/"}},"917198782":{"location":[51.8105232,4.7504001],"ct":"NL","tp":"CS","ts":"2022-10-17T15:53:13Z","tX":525,"tY":339,"tags":{"name":"Minicamping"}},"1055212172":{"location":[51.6634524,4.7653812],"ct":"NL","tp":"CS","ts":"2022-04-26T21:40:51Z","tX":525,"tY":339,"tags":{"name":"Minicamping Johan & Caroline","website":"https://johanencaroline.nl/boerderijcamping-brabant-johan-en-caroline/"}},"1056715222":{"location":[51.6481749,4.7218343],"ct":"NL","tp":"CS","ts":"2023-05-30T12:22:04Z","tX":525,"tY":339,"tags":{"caravans":"yes","email":"fam_pals@hotmail.com","internet_access":"wlan","internet_access:fee":"no","motorhome":"yes","name":"’t Mostoch","phone":"+31 76 593 3103","shower":"yes","start_date":"2006","tents":"yes","toilets":"yes","website":"https://www.tmostoch.com/"}},"1154166448":{"location":[51.7080582,4.6272615],"ct":"NL","tp":"CS","ts":"2017-07-23T06:30:13Z","tX":525,"tY":339,"tags":{"name":"Residence Waterweelde","website":"https://www.resortwaterweelde.nl/"}},"1154393074":{"location":[51.7091918,4.6902444],"ct":"NL","tp":"CS","ts":"2023-05-30T12:22:04Z","tX":525,"tY":339,"tags":{"cabins":"yes","capacity":"18","caravans":"yes","email":"camping@weeltje.nl","name":"'t Weeltje","phone":"+31 6 44204902","shower":"yes","tents":"yes","toilets":"yes","website":"https://camping.weeltje.nl/"}},"1302697371":{"location":[51.7074548,4.8128205],"ct":"NL","tp":"CR","ts":"2024-07-20T13:59:46Z","tX":525,"tY":339,"tags":{"landuse":"grass"}},"1336345123":{"location":[51.7075159,4.8129303],"ct":"NL","tp":"CR","ts":"2024-11-24T18:35:38Z","tX":525,"tY":339,"tags":{"bbq":"yes","capacity":"32","caravan_site":"motorhome_stopover","caravan_site:type":"harbour","caravans":"no","charge":"28 EUR","check_out":"11:00","dog":"leashed","email":"info@jachthavenbiesbosch.nl","fee":"yes","maxlength":"10","name":"Camper Park Jachthaven Biesbosch","picnic_area":"yes","reservation":"yes","surface":"asphalt","tents":"no","trailer":"no","website":"https://www.jachthavenbiesbosch.nl/camperpark"}},"1353040008":{"location":[51.6464015,4.8844874],"ct":"NL","tp":"CR","ts":"2025-01-21T00:56:53Z","tX":525,"tY":339,"tags":{"caravan_site":"motorhome_stopover","caravan_site:type":"countryside","charge":"18 EUR","dog":"yes","fee":"yes","name":"Camperlocatie Oosteind","picnic_table":"yes","sanitary_dump_station":"yes","seasonal":"yes","surface":"grass"}},"1353041066":{"location":[51.7032926,4.8640675],"ct":"NL","tp":"CR","ts":"2025-01-21T01:03:29Z","tX":525,"tY":339,"tags":{"capacity":"16","caravan_site":"motorhome_stopover","caravan_site:type":"harbour","charge":"21.60 EUR","fee":"yes","name":"WSV Geertruidenberg","opening_hours":"Nov-Feb","power_supply":"yes","power_supply:fee":"no","sanitary_dump_station":"yes","seasonal":"yes","shower":"yes","toilets":"yes","water_point":"yes","website":"https://wsvgeertruidenberg.nl/campers/"}},"1353219881":{"location":[51.8139033,4.7244526],"ct":"NL","tp":"CR","ts":"2025-01-21T19:41:48Z","tX":525,"tY":339,"tags":{"capacity":"11","caravan_site":"motorhome_stopover","caravan_site:type":"harbour","laundry":"yes","name":"Jachthaven Westergoot","power_supply":"yes","reservation":"no","shower":"yes","toilets":"yes","water_point":"yes","website":"https://www.westergoot.nl/nl/extra-diensten/#camperplaatsen"}},"1879770670":{"location":[51.7035547,4.8638097],"ct":"NL","tp":"CR","ts":"2020-06-14T17:51:56Z","tX":525,"tY":339,"tags":{"fee":"yes","name":"WSV Geertruidenberg","power_supply":"yes","website":"https://www.campercontact.com/nl/nederland/noord-brabant/geertruidenberg/20675/wsv-geertruidenberg"}},"2339606361":{"location":[51.8086891,4.7210139],"ct":"NL","tp":"CS","ts":"2024-06-24T08:57:05Z","tX":525,"tY":339,"tags":{"cabins":"yes","capacity:tents":"15","caravans":"no","email":"ams.dekleinerug@nivon.nl","motorhome":"no","name":"De Kleine Rug","opening_hours":"Apr 1 - Oct 15","phone":"+31 88 099 0962","shower":"yes","tents":"yes","toilets":"yes","website":"https://www.dekleinerug.nl/accommodatie.html"}},"2702891311":{"location":[51.8147015,4.6841611],"ct":"NL","tp":"CR","ts":"2021-05-08T14:38:13Z","tX":525,"tY":339,"tags":{"addr:street":"Lijnbaan","capacity:campers":"8","description":"temporary - Stadswerven closed","designation":"camper","fee":"no","maxstay":"3 days","name":"Camperplaats Energiehuis","operator":"Gemeente Dordrecht","power_supply":"no","source":"Gemeentenieuws Dordrecht","tents":"no"}},"2785974760":{"location":[51.8092695,4.6528914],"ct":"NL","tp":"CR","ts":"2025-01-21T17:48:09Z","tX":525,"tY":339,"tags":{"capacity:campers":"2","caravan_site":"motorhome_stopover","caravan_site:type":"parking_lot","description":"first 24 hours free, then 0.40 EUR/hour","fee":"no","maxstay":"24 hours","name":"Camperplaats Weeskinderendijk","operator":"Gemeente Dordrecht","power_supply":"no","sanitary_dump_station":"no","tents":"no","water_point":"no","website":"https://indordrecht.nl/locaties/parkeerterrein-weeskinderendijk/"}},"2842159432":{"location":[51.7278261,4.887326],"ct":"NL","tp":"CS","ts":"2014-05-07T17:31:23Z","tX":525,"tY":339,"tags":{"name":"Kurenpolder"}},"2851088022":{"location":[51.6632811,4.7664313],"ct":"NL","tp":"CS","ts":"2025-01-20T17:33:58Z","tX":525,"tY":339,"tags":{"addr:city":"Wagenberg","addr:housenumber":"74","addr:postcode":"4845CX","addr:street":"Wagenstraat","name":"Minicamping Johan & Caroline","source":"BAG","source:date":"2014-05-07"}},"2851382582":{"location":[51.6948119,4.808219],"ct":"NL","tp":"CS","ts":"2018-10-29T07:18:43Z","tX":525,"tY":339,"tags":{"addr:city":"Drimmelen","addr:housenumber":"61","addr:postcode":"4924EA","addr:street":"Sluizeweg","name":"Hoeve Bouwlust","source":"BAG","source:date":"2014-05-07","website":"https://boerderijcamping.nl"}},"2851503032":{"location":[51.7512502,4.8407055],"ct":"NL","tp":"CS","ts":"2022-09-06T09:15:00Z","tX":525,"tY":339,"tags":{"addr:city":"Drimmelen","addr:housenumber":"7","addr:postcode":"4924AA","addr:street":"Biesbosch","email":"campingbergeijk@gmail.com","name":"Boerderijcamping Van Bergeijk","name:en":"Farm Campground “Van Bergeijk”","name:nl":"Boerderijcamping “Van Bergeijk”","phone":"+31 183 500 246","source":"BAG","source:date":"2014-05-07","website":"https://campingbergeijk.wixsite.com/reserveren/"}},"2890091187":{"location":[51.6358149,4.9156849],"ct":"NL","tp":"CS","ts":"2020-11-07T15:48:03Z","tX":525,"tY":339,"tags":{"addr:city":"Dongen","addr:housenumber":"8","addr:postcode":"5102PA","addr:street":"Groenstraat","name":"camping De Groenstraat","source":"BAG","source:date":"2014-05-30","website":"https://www.groenstraat.nl/"}},"2904430477":{"location":[51.7157025,4.5895769],"ct":"NL","tp":"CR","ts":"2025-01-15T00:48:22Z","tX":525,"tY":339,"tags":{"capacity:campers":"6","caravan_site":"motorhome_stopover","caravan_site:type":"harbour","charge":"18 EUR","fee":"yes","internet_access":"wlan","internet_access:fee":"no","name":"Camperplaats Jachthaven Strijensas","operator":"Jachthaven Strijensas","power_supply":"yes","power_supply:charge":"3 EUR","power_supply:fee":"yes","power_supply:maxcurrent":"6","sanitary_dump_station":"yes","tents":"no","water_point":"yes","water_point:fee":"no","website":"https://www.jachthavenstrijensas.nl/camperplaatsen"}},"3417138275":{"location":[51.7872538,4.7942378],"ct":"NL","tp":"CS","ts":"2023-06-17T11:07:39Z","tX":525,"tY":339,"tags":{"caravans":"yes","drinking_water":"yes","email":"info@biesboschvakantie.nl","name":"Mini-Camping \"De Witboom\"","phone":"+31 183 504 036","power_supply":"yes","shower":"yes","tents":"yes","toilets":"yes","website":"https://www.biesboschvakantie.nl/mini-camping/"}},"3526920480":{"location":[51.7356205,4.7573343],"ct":"NL","tp":"CS","ts":"2022-11-04T11:58:00Z","tX":525,"tY":339,"tags":{"backcountry":"no","contact:facebook":"https://www.facebook.com/Biesboschhoeve/","email":"info@biesboschhoeve.nl","fee":"yes","internet_access":"no","name":"Biesboschhoeve","phone":"+31 6 23939586","website":"https://biesboschhoeve.nl/"}},"4609695159":{"location":[51.7060811,4.8215895],"ct":"NL","tp":"CS","ts":"2017-01-15T13:56:50Z","tX":525,"tY":339,"tags":{"name":"Minicamping Beachclub Puur"}},"5614920421":{"location":[51.6468505,4.8095065],"ct":"NL","tp":"CS","ts":"2022-11-04T12:36:26Z","tX":525,"tY":339,"tags":{"addr:city":"Den Hout","addr:housenumber":"75","addr:postcode":"4911BA","addr:street":"Ruiterspoor","email":"info@campingtkopske.nl","name":"‘t Kopske","phone":"+31 6 13142151","website":"https://www.campingtkopske.nl/"}},"6188040385":{"location":[51.6289184,4.832498],"ct":"NL","tp":"CS","ts":"2022-11-04T11:58:34Z","tX":525,"tY":339,"tags":{"addr:city":"Oosterhout","addr:housenumber":"1","addr:postcode":"4904SG","addr:street":"Katjeskelder","capacity":"102","dog":"leashed","name":"Camping De Katjeskelder","operator":"Roompot","phone":"+31 88 044 4999","shower":"yes","stars":"5","toilets":"yes","website":"https://www.katjeskelder.nl/"}},"6888095134":{"location":[51.6435859,4.7926341],"ct":"NL","tp":"CS","ts":"2022-11-04T12:42:47Z","tX":525,"tY":339,"tags":{"access":"customers","addr:city":"Terheijden","addr:housenumber":"21","addr:postcode":"4844PK","addr:street":"Munnikenhof","capacity":"100","fee":"yes","name":"Minicamping - Munnikenhof","payment:cash":"yes","payment:contactless":"yes","payment:credit_cards":"yes","phone":"+31 6 46760216","website":"https://www.minicamping-munnikenhof.nl"}},"7266241353":{"location":[51.6415065,4.7906106],"ct":"NL","tp":"CS","ts":"2020-03-05T12:29:11Z","tX":525,"tY":339,"tags":{"name":"Munnickenheide","website":"https://munnickenheide.nl/"}},"7762305488":{"location":[51.750037,4.90755],"ct":"NL","tp":"CS","ts":"2023-07-19T18:47:21Z","tX":525,"tY":339,"tags":{"caravans":"yes","drinking_water":"yes","name":"Geitenbrij","power_supply":"yes","shower":"yes","tents":"yes","toilets":"yes","website":"https://www.campingdegeitenbrij.nl"}},"10946789605":{"location":[51.7389483,4.7425079],"ct":"NL","tp":"CS","ts":"2023-06-02T17:14:54Z","tX":525,"tY":339,"tags":{"name":"paal kampeerplaats Jonge Deen"}},"4432553989":{"location":[51.834394,4.8630841],"ct":"NL","tp":"CR","ts":"2025-01-21T22:19:47Z","tX":525,"tY":339,"tags":{"caravan_site":"motorhome_stopover","caravan_site:type":"river","fee":"yes","name":"Camperplek Stal Vonk","name:nl":"Camperplek Stal Vonk","sanitary_dump_station":"yes","website":"https://www.giessenburg.nl/bedrijven/stal_vonk/index.htm"}},"6176938886":{"location":[51.8141308,4.7245832],"ct":"NL","tp":"CR","ts":"2020-04-06T19:12:56Z","tX":525,"tY":339,"tags":{"name":"Jachthaven Westergoot"}},"9893308353":{"location":[51.6462391,4.8846906],"ct":"NL","tp":"CR","ts":"2022-07-17T14:00:59Z","tX":525,"tY":339,"tags":{"name":"Camperlocatie Oosteind","sanitary_dump_station":"yes","website":"https://www.campercontact.com/nl/nederland/noord-brabant/oosteind/11782/camperlocatie-oosteind"}}}