{"15717272":{"location":[51.549364,4.8845444],"ct":"NL","tp":"CS","ts":"2023-05-30T12:22:06Z","tX":525,"tY":340,"tags":{"caravans":"yes","email":"info@wilgenweide.nl","name":"Wilgenweide","phone":"+31 161 434 098","shower":"yes","tents":"yes","toilets":"yes","website":"https://wilgenweide.nl/"}},"15776437":{"location":[51.537467,4.8619163],"ct":"NL","tp":"CS","ts":"2023-04-27T18:05:54Z","tX":525,"tY":340,"tags":{"caravans":"yes","contact:whatsapp":"+31 6 49128740","name":"Schouteveld","opening_hours":"Apr 1 - Oct 30","shower":"yes","tents":"yes","toilets":"yes","website":"https://schouteveld.nl"}},"60639331":{"location":[51.5026999,4.8360279],"ct":"NL","tp":"CS","ts":"2023-05-30T12:21:41Z","tX":525,"tY":340,"tags":{"addr:city":"Chaam","addr:housenumber":"2","addr:postcode":"4861CC","addr:street":"Ginderdoorstraat","capacity:pitches":"25","caravans":"yes","name":"Natuurkampeerterrein 't Beekdal","opening_hours":"Mar 15 - Oct 31","phone":"+31 161 743 100","shower":"yes","tents":"yes","toilets":"yes","website":"https://www.natuurkampeerterreinen.nl/terreinen/noord-brabant/t-beekdal/"}},"77040772":{"location":[51.5041992,4.7618696],"ct":"NL","tp":"CS","ts":"2023-04-27T18:26:34Z","tX":525,"tY":340,"tags":{"capacity:pitches":"10","caravans":"yes","landcover":"grass","name":"De Klompenboom","opening_hours":"Mar 1 - Oct 31","phone":"+31 6 14102391","shower":"yes","tents":"yes","toilets":"yes","website":"https://deklompenboom.nl/"}},"77078363":{"location":[51.4933221,4.8829868],"ct":"NL","tp":"CS","ts":"2023-10-13T18:42:01Z","tX":525,"tY":340,"tags":{}},"77342272":{"location":[51.4550679,4.9198391],"ct":"NL","tp":"CS","ts":"2023-11-14T22:00:52Z","tX":525,"tY":340,"tags":{"name":"Kampeer & Chaletpark De Paddock"}},"77351125":{"location":[51.4931111,4.8856609],"ct":"NL","tp":"CS","ts":"2023-10-13T18:22:12Z","tX":525,"tY":340,"tags":{}},"77351193":{"location":[51.4915996,4.8851268],"ct":"NL","tp":"CS","ts":"2023-10-13T16:01:49Z","tX":525,"tY":340,"tags":{}},"77612897":{"location":[51.5353457,4.6538982],"ct":"NL","tp":"CS","ts":"2023-10-30T14:23:29Z","tX":525,"tY":340,"tags":{"addr:city":"Etten-Leur","addr:housenumber":"66","addr:postcode":"4876NL","addr:street":"Zundertseweg","caravans":"yes","landcover":"grass","name":"De Menmoerhoeve","phone":"+31 76 596 1602","shower":"yes","tents":"yes","toilets":"yes","website":"https://menmoerhoeve.nl/"}},"77702927":{"location":[51.5407155,4.7993526],"ct":"NL","tp":"CS","ts":"2023-05-30T20:10:43Z","tX":525,"tY":340,"tags":{"cabins":"yes","caravans":"yes","email":"info@campingdebeekhoek.nl","landcover":"grass","name":"De Beekhoek","phone":"+31 76 561 3587","shower":"yes","tents":"yes","toilets":"yes","website":"https://www.campingdebeekhoek.nl"}},"77730958":{"location":[51.5368531,4.9199429],"ct":"NL","tp":"CS","ts":"2025-01-07T10:24:55Z","tX":525,"tY":340,"tags":{"capacity:pitches":"25","caravans":"yes","contact:facebook":"https://www.facebook.com/hetgilzerlindehof/","email":"info@hetgilzerlindehof.nl","landcover":"grass","name":"Het Gilzer Lindehof","opening_hours":"Mar 31-Nov 01","phone":"+31 161 726 808","shower":"yes","tents":"yes","toilets":"yes"}},"248095661":{"location":[51.5659639,4.6946314],"ct":"NL","tp":"CS","ts":"2024-09-29T21:11:56Z","tX":525,"tY":340,"tags":{"addr:city":"Breda","addr:housenumber":"40","addr:postcode":"4838GV","addr:street":"Liesdreef","cabins":"yes","caravans":"yes","check_date:currency:XBT":"2024-09-29","currency:XBT":"yes","email":"info@camping-liesbos.nl","name":"Camping Liesbos","payment:lightning":"yes","payment:lightning_contactless":"no","payment:onchain":"no","phone":"+31 76 514 3514","survey:date":"2024-09-09","tents":"yes","website":"https://www.camping-liesbos.nl/","wheelchair":"yes"}},"266381036":{"location":[51.4692506,4.8796122],"ct":"NL","tp":"CS","ts":"2019-06-14T07:09:27Z","tX":525,"tY":340,"tags":{"addr:city":"Ulicoten","addr:country":"NL","addr:housenumber":"23-26","addr:postcode":"5113BD","addr:street":"Maaijkant","name":"Ponderosa","website":"https://www.ponderosa.nl/"}},"266381038":{"location":[51.4527207,4.9170277],"ct":"NL","tp":"CS","ts":"2023-11-13T12:32:40Z","tX":525,"tY":340,"tags":{"addr:city":"Baarle-Nassau","addr:housenumber":"16","addr:postcode":"5111GC","addr:street":"Bredaseweg","email":"info@depaddock.nl","name":"De Paddock","phone":"+31 13 507 9072","source":"BAG","source:date":"2014-03-24","website":"https://depaddock.nl/"}},"420624660":{"location":[51.4038972,4.8184488],"ct":"BE","tp":"CS","ts":"2023-05-07T19:43:38Z","tX":525,"tY":340,"tags":{"backcountry":"yes","bicycle":"yes","camp_site":"basic","capacity":"10","caravans":"no","description":"minimalistic bivouac site","description:nl":"site voor paalkamperen","drinking_water":"no","fee":"no","maxstay":"1 night","maxtents":"3","motor_vehicle":"no","name":"Bivakzone Wortel-Kolonie","openfire":"yes","opening_hours":"24/7","operator":"Agentschap voor Natuur en Bos","reservation":"yes","tents":"yes","url":"https://www.bivakzone.be/bivakzone-wortel-kolonie.html","website":"https://bivakzones.camping.dev/nl/accommodations/171283"}},"447067671":{"location":[51.5004842,4.913398],"ct":"NL","tp":"CS","ts":"2021-01-25T21:20:59Z","tX":525,"tY":340,"tags":{"addr:city":"Alphen","addr:housenumber":"1","addr:postcode":"5131NH","addr:street":"Huisdreef","capacity":"55","email":"info@campingbuitenlust.nl","fee":"yes","name":"Camping Buitenlust","phone":"+31 13 508 1480","website":"https://www.campingbuitenlust.nl"}},"452951671":{"location":[51.4945732,4.6021342],"ct":"NL","tp":"CS","ts":"2022-11-04T12:43:23Z","tX":525,"tY":340,"tags":{"addr:city":"Klein Zundert","addr:housenumber":"51","addr:postcode":"4882KB","addr:street":"Rucphenseweg","name":"Internationaal Priem","phone":"+31 76 597 2632","website":"https://www.internationaalpriem.nl"}},"675994659":{"location":[51.6127338,4.8666346],"ct":"NL","tp":"CS","ts":"2023-10-05T20:42:21Z","tX":525,"tY":340,"tags":{"name":"De Eekhoorn","website":"https://www.campingdeeekhoorn.nl/"}},"933880417":{"location":[51.5720954,4.8934508],"ct":"NL","tp":"CR","ts":"2021-04-22T14:05:40Z","tX":525,"tY":340,"tags":{"access":"customers","capacity":"12","description":"uitsluitend Campers","fee":"yes","internet_access":"wlan","name":"de Trekvogel","power_supply":"yes","shower":"yes","toilets":"yes"}},"984589550":{"location":[51.4340936,4.9102258],"ct":"NL","tp":"CS","ts":"2024-05-02T19:13:58Z","tX":525,"tY":340,"tags":{"addr:city":"Baarle-Nassau","addr:housenumber":"6","addr:postcode":"5111EH","addr:street":"Heimolen","cabins":"yes","caravans":"yes","email":"info@deheimolen.nl","name":"Recreatiepark De Heimolen","phone":"+31 13 507 9425","tents":"yes","website":"https://www.deheimolen.nl"}},"1059472366":{"location":[51.5055253,4.87388],"ct":"NL","tp":"CS","ts":"2023-04-27T19:25:26Z","tX":525,"tY":340,"tags":{"addr:city":"Chaam","addr:housenumber":"2","addr:postcode":"4861PW","addr:street":"Kerkdreef","capacity:pitches":"25","caravans":"yes","email":"info@campinghofland.nl","name":"Camping â€™t Hofland","phone":"+31 6 37311093","shower":"yes","tents":"yes","toilets":"yes","website":"https://www.campinghofland.nl/"}},"1068266454":{"location":[51.6105544,4.8917143],"ct":"NL","tp":"CS","ts":"2024-07-13T06:16:44Z","tX":525,"tY":340,"tags":{"name":"Recreatiepark en Camping 't Haasje"}},"1166209430":{"location":[51.5023583,4.8090925],"ct":"NL","tp":"CR","ts":"2023-05-30T12:22:05Z","tX":525,"tY":340,"tags":{"name":"De Goudberg","phone":"+31 76 561 3154","static_caravans":"yes"}},"1166210821":{"location":[51.5200473,4.8642999],"ct":"NL","tp":"CS","ts":"2023-05-30T12:22:05Z","tX":525,"tY":340,"tags":{"cabins":"yes","capacity:pitches":"12","caravans":"yes","email":"info@inrana.nl","name":"Minicamping Inrana","phone":"+31 6 19044235","shower":"yes","tents":"yes","toilets":"yes","website":"https://www.minicamping-inrana.nl"}},"1166219175":{"location":[51.4929827,4.883434],"ct":"NL","tp":"CS","ts":"2023-10-13T18:42:01Z","tX":525,"tY":340,"tags":{"caravans":"yes","email":"info@campingkleinparadijs.nl","name":"Camping Klein Paradijs","operator":"Eldorado Parken","phone":"+31 161 491 446","static_caravans":"yes","tents":"yes","toilets":"yes","website":"https://www.eldoradoparken.nl/klein-paradijs/plattegrond"}},"1259519315":{"location":[51.4931753,4.6659476],"ct":"NL","tp":"CR","ts":"2024-03-09T21:46:21Z","tX":525,"tY":340,"tags":{"internet_access":"wlan","name":"Camperplaats Begijntje"}},"1268450596":{"location":[51.563598,4.882055],"ct":"NL","tp":"CS","ts":"2024-04-02T19:00:08Z","tX":525,"tY":340,"tags":{"name":"Brabantse Weelde","website":"https://www.brabantseweelde.nl/"}},"1332858395":{"location":[51.5911798,4.5935889],"ct":"NL","tp":"CS","ts":"2024-11-11T13:07:41Z","tX":525,"tY":340,"tags":{"caravans":"yes","contact:email":"info@minicampingpolderzicht.nl","name":"Minicamping Polderzicht","phone":"+31 165 504 100","shower":"yes","tents":"yes","toilets":"yes","website":"https://minicampingpolderzicht.nl"}},"1332872304":{"location":[51.5946866,4.6547499],"ct":"NL","tp":"CR","ts":"2024-11-11T16:41:18Z","tX":525,"tY":340,"tags":{"addr:city":"Etten-Leur","addr:street":"Westpolderpad","capacity":"14","contact:phone":"+31 76 503 7067","contact:website":"https://www.turfvaart.nl","fee":"yes","internet_access":"yes","name":"De Turfvaart","operator":"De Turfvaart","power_supply":"yes","shower":"yes","toilets":"yes"}},"1333226006":{"location":[51.4792276,4.7018756],"ct":"NL","tp":"CS","ts":"2024-11-12T14:24:15Z","tX":525,"tY":340,"tags":{"caravans":"yes","contact:email":"camping@laarseheide.com","name":"Camping & stoeterij De Laarse Heide","phone":"+31 76 597 5228;+31 6 5131 1018","shower":"yes","tents":"yes","toilets":"yes","website":"https://www.laarseheide.com"}},"1496229308":{"location":[51.5820104,4.9041668],"ct":"NL","tp":"CS","ts":"2023-05-28T06:38:59Z","tX":525,"tY":340,"tags":{"name":"D'n Mastendol","website":"https://www.mastendol.nl"}},"2339818892":{"location":[51.6113681,4.8989685],"ct":"NL","tp":"CS","ts":"2024-09-21T16:01:01Z","tX":525,"tY":340,"tags":{"addr:city":"Dorst","addr:housenumber":"27","addr:postcode":"4849RD","addr:street":"Steenovensebaan","name":"De Duiventoren Natuurkampeerterrein","website":"https://www.natuurkampeerterreinen.nl/terreinen/noord-brabant/de-duiventoren/"}},"2732444063":{"location":[51.6079656,4.6946727],"ct":"NL","tp":"CS","ts":"2023-05-28T06:39:22Z","tX":525,"tY":340,"tags":{"addr:city":"Prinsenbeek","addr:housenumber":"10","addr:postcode":"4841KX","addr:street":"Overveldsestraat","name":"Hof van Overveld Minicamping-Maisdoolhof","phone":"+31 76 541 3519","source":"BAG","source:date":"2014-02-11","website":"https://hofvanoverveld.nl"}},"2743753907":{"location":[51.5080041,4.7137134],"ct":"NL","tp":"CS","ts":"2021-08-27T09:06:31Z","tX":525,"tY":340,"tags":{"addr:city":"Rijsbergen","addr:housenumber":"3","addr:postcode":"4891PK","addr:street":"Breedschotsestraat","name":"De Buiten Bij","source":"BAG","source:date":"2014-03-24"}},"10057948221":{"location":[51.4796128,4.7410872],"ct":"BE","tp":"CR","ts":"2022-09-28T07:44:54Z","tX":525,"tY":340,"tags":{"addr:housenumber":"9","addr:street":"De Mosten","name":"Meer"}},"4364796235":{"location":[51.591058,4.5938162],"ct":"NL","tp":"CS","ts":"2016-08-24T13:24:50Z","tX":525,"tY":340,"tags":{"name":"Minicamping Polderzicht"}},"4412014884":{"location":[51.4910978,4.8953668],"ct":"NL","tp":"CS","ts":"2020-05-09T21:45:27Z","tX":525,"tY":340,"tags":{"addr:city":"Chaam","addr:housenumber":"1","addr:postcode":"4861RC","addr:street":"Flaasdijk","name":"RCN Vakantiepark de Flaasbloem","source":"BAG","source:date":"2016-09-21","website":"https://www.rcn.nl/nl/vakantieparken/nederland/brabant/rcn-de-flaasbloem"}},"4432794996":{"location":[51.6062801,4.8660344],"ct":"NL","tp":"CS","ts":"2016-10-05T14:25:20Z","tX":525,"tY":340,"tags":{"name":"Alliance"}},"4449539284":{"location":[51.6071772,4.8587039],"ct":"NL","tp":"CS","ts":"2020-09-10T19:03:55Z","tX":525,"tY":340,"tags":{"name":"De Hannebroeck","website":"https://chaletpark-dehannebroeck.nl"}},"5014833908":{"location":[51.4983839,4.8791211],"ct":"NL","tp":"CS","ts":"2017-08-08T14:10:12Z","tX":525,"tY":340,"tags":{"name":"De Meijsberg Chalet- en Stacaravanpark"}},"5132484572":{"location":[51.4792199,4.701487],"ct":"NL","tp":"CS","ts":"2017-09-27T07:29:37Z","tX":525,"tY":340,"tags":{"name":"Camping De Stoeterij"}},"9470778188":{"location":[51.5007364,4.7059423],"ct":"NL","tp":"CS","ts":"2022-02-03T07:58:51Z","tX":525,"tY":340,"tags":{"fee":"yes","name":"Camping 't Oekeltje"}},"4366859284":{"location":[51.5878536,4.7635902],"ct":"NL","tp":"CR","ts":"2024-09-20T10:05:38Z","tX":525,"tY":340,"tags":{"addr:city":"Breda","addr:housenumber":"391","addr:street":"Nijverheidssingel","capacity":"8","caravan_site":"motorhome_stopover","charge":"7 Eur/24 hr","fee":"yes","maxstay":"3 x 24 hr","name":"Camperplaats Nijverheidssingel","reservation":"no","toilets":"no","water_point":"yes","website":"https://www.breda.nl/camperplaats"}},"5181970213":{"location":[51.5744395,4.8956854],"ct":"NL","tp":"CR","ts":"2022-11-04T12:05:08Z","tX":525,"tY":340,"tags":{"cabins":"yes","caravans":"yes","name":"Heidelust","phone":"+31 161 411 413","tents":"yes","website":"https://www.campingdeheidelust.nl"}},"5506825030":{"location":[51.5947604,4.6547338],"ct":"NL","tp":"CR","ts":"2023-05-28T06:40:02Z","tX":525,"tY":340,"tags":{"addr:city":"Etten-Leur","addr:street":"Westpolderpad","capacity":"14","contact:phone":"+31 76 503 7067","contact:website":"https://www.turfvaart.nl","fee":"yes","internet_access":"yes","operator":"De Turfvaart","power_supply":"yes"}}}