{"60180267":{"location":[51.327153,4.6066561],"ct":"BE","tp":"CS","ts":"2023-08-25T09:45:23Z","tX":525,"tY":341,"tags":{"caravans":"yes","email":"degroenelinden@telenet.be","motorhome":"yes","name":"De Groene Linden","phone":"+32 3 289 44 80;+32 474 35 42 22","shower":"yes","static_caravans":"yes","tents":"yes","toilets":"yes","website":"https://www.degroenelinden.be/"}},"87297862":{"location":[51.2742177,4.796301],"ct":"BE","tp":"CS","ts":"2023-08-20T06:28:17Z","tX":525,"tY":341,"tags":{"caravans":"yes","fee":"yes","name":"Camping Siësta","power_supply":"yes","tents":"yes","website":"https://campingsiesta.be/"}},"88369639":{"location":[51.2733024,4.7920706],"ct":"BE","tp":"CS","ts":"2023-05-26T21:17:33Z","tX":525,"tY":341,"tags":{"cabins":"yes","caravans":"yes","email":"info@caravanparksiesta.be","fee":"yes","motorhome":"yes","name":"Camping Siësta","permanent_camping":"yes","phone":"+32 3 311 62 36","power_supply":"yes","shower":"yes","stars":"2","static_caravans":"yes","tents":"yes","toilets":"yes","website":"https://campingsiesta.be/"}},"103695379":{"location":[51.3695799,4.8345914],"ct":"BE","tp":"CS","ts":"2023-05-26T21:17:33Z","tX":525,"tY":341,"tags":{"addr:city":"Merksplas","addr:housenumber":"97","addr:postcode":"2330","addr:street":"Veldenbergstraat","cabins":"yes","caravans":"yes","fee":"yes","motorhome":"yes","name":"Camping Molenzijdse Heide","phone":"+32 14 63 39 29","shower":"yes","stars":"5","static_caravans":"yes","tents":"yes","toilets":"yes","website":"https://www.molenzijdseheide.be/"}},"122254581":{"location":[51.3063665,4.5868324],"ct":"BE","tp":"CS","ts":"2023-05-26T20:40:50Z","tX":525,"tY":341,"tags":{"addr:city":"Brecht","addr:housenumber":"1","addr:postcode":"2960","addr:street":"Eekhoornlaan","capacity":"305","caravans":"yes","fee":"yes","motorhome":"yes","name":"Camping Het Veen","operator":"Floreal Holidays","shower":"yes","stars":"3","static_caravans":"yes","tents":"yes","toilets":"yes","website":"https://www.florealgroup.be/nl/camping/camping-het-veen"}},"123701415":{"location":[51.3442814,4.8056345],"ct":"BE","tp":"CR","ts":"2011-07-30T10:01:48Z","tX":525,"tY":341,"tags":{}},"123701417":{"location":[51.344419,4.8102197],"ct":"BE","tp":"CR","ts":"2017-04-21T20:48:26Z","tX":525,"tY":341,"tags":{}},"123701606":{"location":[51.346357,4.8103966],"ct":"BE","tp":"CS","ts":"2021-07-12T10:19:03Z","tX":525,"tY":341,"tags":{}},"127089676":{"location":[51.2129393,4.9045694],"ct":"BE","tp":"CS","ts":"2024-07-19T20:01:43Z","tX":525,"tY":341,"tags":{"addr:city":"Lichtaart","addr:housenumber":"64","addr:postcode":"2460","addr:street":"Herentalsesteenweg","cabins":"yes","caravans":"yes","fee":"yes","name":"Camping Kempen","operator":"Floreal Holidays","phone":"+32 14 55 61 20","shower":"yes","stars":"4","tents":"yes","toilets":"yes","website":"https://www.tourenaar.be/vermelding/floreal-kempen/"}},"127682465":{"location":[51.2400893,4.8525843],"ct":"BE","tp":"CR","ts":"2011-08-25T22:14:00Z","tX":525,"tY":341,"tags":{"name":"De Brem"}},"128570627":{"location":[51.3460581,4.8043477],"ct":"BE","tp":"CS","ts":"2021-12-04T13:53:00Z","tX":525,"tY":341,"tags":{"name":"Verblijfpark Breebos","note":"One park with adjacent camp_sites/caravan_sites","website":"https://www.verblijfparkbreebos.be/"}},"141059094":{"location":[51.2017386,4.8496612],"ct":"BE","tp":"CS","ts":"2011-12-23T16:29:42Z","tX":525,"tY":341,"tags":{"name":"De Brink"}},"182836199":{"location":[51.2003091,4.8991052],"ct":"BE","tp":"CR","ts":"2023-05-26T20:42:19Z","tX":525,"tY":341,"tags":{"addr:city":"Lichtaart","addr:country":"BE","addr:housenumber":"40","addr:postcode":"2460","addr:street":"Olensteenweg","caravans":"yes","contact:mobile":"+32 486 41 19 10","fax":"+32 14 55 32 92","fee":"yes","name":"Korte Heide","opening_hours":"Mar 1 - Oct 31","phone":"+32 14 55 32 94","shower":"yes","tents":"yes","toilets":"yes","website":"https://www.campingkorteheide.be/"}},"497225468":{"location":[51.1915853,4.6572016],"ct":"BE","tp":"CS","ts":"2024-09-01T18:56:13Z","tX":525,"tY":341,"tags":{"description":"Only for permanent residents","name":"Camping Waterschap","permanent_camping":"only"}},"692833113":{"location":[51.1910355,4.7922516],"ct":"BE","tp":"CS","ts":"2023-08-25T09:45:34Z","tX":525,"tY":341,"tags":{"addr:city":"Vorselaar","addr:housenumber":"37","addr:postcode":"2290","addr:street":"Heiken","cabins":"yes","caravans":"yes","drinking_water":"yes","email":"info@dezevengeitjes.be","name":"De Zeven Geitjes","old_name":"Ozon","opening_hours":"Mar 31 - Sep 30","operator":"Kempen Campings","permanent_camping":"yes","phone":"+32 495 16 01 15","power_supply":"yes","sanitary_dump_station":"yes","shower":"yes","static_caravans":"yes","tents":"yes","toilets":"yes","website":"https://www.dezevengeitjes.be"}},"725390093":{"location":[51.2851718,4.8437042],"ct":"BE","tp":"CS","ts":"2024-05-16T16:24:44Z","tX":525,"tY":341,"tags":{"cabins":"yes","caravans":"yes","email":"info@lilsebergen.be","name":"Lilse Bergen","permanent_camping":"yes","phone":"+32 14 55 79 01","shower":"yes","stars":"4","static_caravans":"yes","tents":"yes","toilets":"yes","website":"https://www.lilsebergen.be/"}},"865448396":{"location":[51.1891083,4.7359778],"ct":"BE","tp":"CR","ts":"2024-10-28T23:48:21Z","tX":525,"tY":341,"tags":{"capacity:caravans":"5","description":"Pitch for 5 motorhomes. You have to pay for drinking water, electricity and disposal. (sanizuil)","drinking_water":"yes","fee":"no","name":"Camperplaats Vaartkom","operator":"Gemeente Grobbendonk","panoramax":"2ad85d28-be9d-458d-a863-141cd14bbe11","parking_space":"motorhome","power_supply":"yes","reservation":"no","sanitary_dump_station":"yes","shower":"no","toilets":"no","website":"https://www.grobbendonk.be/producten/detail/1661/mobilhomeparking-camperplaats"}},"960689395":{"location":[51.289767,4.8566235],"ct":"BE","tp":"CS","ts":"2021-07-02T08:55:27Z","tX":525,"tY":341,"tags":{"access":"permissive","capacity":"25","group_only":"yes","reservation":"required"}},"2371723133":{"location":[51.2430754,4.7471513],"ct":"BE","tp":"CS","ts":"2023-11-01T17:21:41Z","tX":525,"tY":341,"tags":{"description":"Blokhut Cardon, genoemd naar een oud-groepsleider van onze scoutsgroep, wordt ter beschikking gesteld van scouts en andere jeugdbewegingen voor activiteiten, weekends en kampen. Geen electriciteit voorzien.","group_only":"yes","name":"Blokhut Cardon","website":"https://www.den2.be/verhuur/blokhut-cardon"}},"10054081254":{"location":[51.2739635,4.7954103],"ct":"BE","tp":"CR","ts":"2022-09-26T16:26:27Z","tX":525,"tY":341,"tags":{"internet_access":"wlan","internet_access:fee":"customers","power_supply":"yes","sanitary_dump_station":"yes"}},"12122621316":{"location":[51.3810172,4.6744573],"ct":"BE","tp":"CR","ts":"2024-09-21T10:43:26Z","tX":525,"tY":341,"tags":{"email":"info@boerenijsje.be","fee":"yes","name":"Het Boerenijsje","power_supply":"yes","reservation":"no","sanitary_dump_station":"yes","tents":"no","website":"https://www.boerenijsje.be/ons-aanbod/campergastbedrijf/"}},"10054081276":{"location":[51.2738303,4.7950054],"ct":"BE","tp":"SD","ts":"2022-09-26T16:26:27Z","tX":525,"tY":341,"tags":{"access":"customers"}}}