{"60582288":{"location":[51.1330085,4.8288806],"ct":"BE","tp":"CS","ts":"2023-05-26T21:17:33Z","tX":525,"tY":342,"tags":{"addr:city":"Noorderwijk","addr:housenumber":"35","addr:postcode":"2200","addr:street":"Pastoorsbos","cabins":"yes","caravans":"yes","motorhome":"yes","name":"Domein De Schuur","phone":"+32 14 26 16 52","shower":"yes","tents":"yes","toilets":"yes","url":"https://www.deschuur.be/","website":"https://www.tourenaar.be/vermelding/domein-de-schuur/"}},"88707959":{"location":[50.9777821,4.7254328],"ct":"BE","tp":"CS","ts":"2022-11-30T15:32:06Z","tX":525,"tY":342,"tags":{"addr:city":"Werchter","addr:housenumber":"120","addr:postcode":"3118","addr:street":"Grotestraat","cabins":"yes","caravans":"yes","description":"Dit is een grote camping met veelal vaste staanplaatsen maar er zijn ook plaatsen voor doortrekkers. Plaatsen voor doortrekkers kunnen niet gereserveerd worden want \"in principe hebben wij altijd plaats\" (zie website).","email":"info@klokkeberg.be","fax":"+32 16 53 34 88","name":"Camping Klokkeberg","permanent_camping":"yes","phone":"+32 16 53 25 61","power_supply":"yes","reservation":"no","sanitary_dump_station":"yes","shower":"yes","static_caravans":"yes","tents":"yes","toilets":"yes","washing_machine":"yes","website":"https://www.klokkeberg.be/"}},"89837889":{"location":[51.0683198,4.8577218],"ct":"BE","tp":"CR","ts":"2016-08-24T15:34:06Z","tX":525,"tY":342,"tags":{}},"116250569":{"location":[51.0615504,4.9052167],"ct":"BE","tp":"CS","ts":"2025-01-12T18:45:00Z","tX":525,"tY":342,"tags":{"name":"De Dry Eycken","website":"https://www.domeindryeycken.be/"}},"116250596":{"location":[51.0631773,4.9021735],"ct":"BE","tp":"CR","ts":"2011-06-03T21:56:22Z","tX":525,"tY":342,"tags":{}},"126108554":{"location":[51.0984135,4.8941065],"ct":"BE","tp":"CS","ts":"2022-09-04T10:38:33Z","tX":525,"tY":342,"tags":{"addr:city":"Westerlo","addr:housenumber":"2","addr:postcode":"2260","addr:street":"Stropersweg","fee":"yes","internet_access":"wlan","name":"Camping t' Heiken","power_supply":"yes","website":"http://www.campingheiken.be/"}},"142941578":{"location":[51.1610303,4.8173682],"ct":"BE","tp":"CR","ts":"2011-12-27T18:16:14Z","tX":525,"tY":342,"tags":{}},"156999488":{"location":[51.0123166,4.7286536],"ct":"BE","tp":"CS","ts":"2023-06-24T08:48:15Z","tX":525,"tY":342,"tags":{"addr:city":"Tremelo","addr:housenumber":"36","addr:postcode":"3120","addr:street":"Grootlosestraat","capacity:pitches":"380","caravans":"yes","description:en":"A large campsite of about 380 pitches. 46 pitches are available for short stays.","description:nl":"Grote camping met veel permanente bewoning. 46 plaatsen voor doorreizigers of kort verblijf.","email":"staystrong202075@gmail.com","fee":"yes","name":"Camping De Moor","permanent_camping":"yes","phone":"+32 493 06 38 93","static_caravans":"yes","tents":"yes","website":"https://www.visit-tremelo.be/camping-de-moor"}},"158897003":{"location":[51.0132405,4.7812709],"ct":"BE","tp":"CS","ts":"2022-12-18T21:15:12Z","tX":525,"tY":342,"tags":{"name":"De Roygaerden","permanent_camping":"only"}},"159033806":{"location":[51.0218486,4.7710549],"ct":"BE","tp":"CS","ts":"2022-11-29T18:53:49Z","tX":525,"tY":342,"tags":{"name":"De Meren","permanent_camping":"only"}},"251480313":{"location":[51.017809,4.8931288],"ct":"BE","tp":"CS","ts":"2023-07-18T17:41:07Z","tX":525,"tY":342,"tags":{"addr:city":"Langdorp","addr:housenumber":"8,10","addr:postcode":"3201","addr:street":"Klein Opperstraat","caravans":"yes","name":"Natuurleven 't Vennebos","nudism":"designated","tents":"yes","website":"https://www.natuurleven.be/"}},"252100776":{"location":[51.0173025,4.8942961],"ct":"BE","tp":"CS","ts":"2013-12-16T10:02:25Z","tX":525,"tY":342,"tags":{}},"252107638":{"location":[51.0202065,4.9015503],"ct":"BE","tp":"CR","ts":"2021-04-10T15:51:43Z","tX":525,"tY":342,"tags":{"name":"Verblijfpark Sparrenhof"}},"725312535":{"location":[51.0819498,4.8206209],"ct":"BE","tp":"CR","ts":"2023-08-25T09:46:01Z","tX":525,"tY":342,"tags":{"alt_name":"Kampeerverblijfpark 't Heultje","cabins":"yes","description":"https://www.provincieantwerpen.be/content/dam/provant/drem/dienst-ruimtelijke-planning/prups-recreatie/Westerlo_HofvanEeden_Heultje.pdf","email":"admin@camping-heultje.be","mobile":"+32 475 62 45 99","name":"Camping ‘t Heultje","old_name":"De Bosboer","phone":"+32 16 69 90 88","static_caravans":"only","website":"https://www.camping-heultje.be"}},"725312536":{"location":[51.0786956,4.8204114],"ct":"BE","tp":"CR","ts":"2019-09-17T09:54:53Z","tX":525,"tY":342,"tags":{"description":"https://www.provincieantwerpen.be/content/dam/provant/drem/dienst-ruimtelijke-planning/prups-recreatie/Westerlo_HofvanEeden_Heultje.pdf","name":"Camping Hof van Eeden","old_name":"De Bosboer","website":"http://www.hofvaneeden.be"}},"767357174":{"location":[50.9969409,4.8146936],"ct":"BE","tp":"CS","ts":"2023-11-09T17:51:39Z","tX":525,"tY":342,"tags":{"alt_name":"Meetshovenbos (Aarschot)","backcountry":"yes","camp_site":"basic","capacity":"4","drinking_water":"no","fee":"no","image":"http://www.bivakzone.be/images/meetshoven/bivakzone_meetshoven1.jpg","image:1":"http://www.bivakzone.be/images/meetshoven/bivakzone_meetshoven2.jpg","image:2":"http://www.bivakzone.be/images/meetshoven/bivakzone_meetshoven3.jpg","image:3":"http://www.bivakzone.be/images/meetshoven/vuurkorf.jpg","internet_access":"no","maxstay":"48 hours","maxtents":"3","motor_vehicle":"no","name":"Bivakzone Meetshovenbos","openfire":"yes","operator":"Flemish Agency for Nature and Forests","reservation":"required","tents":"yes","toilets":"yes","toilets:wheelchair":"no","website":"https://www.bivakzone.be/meetshoven-aarschot.html","wheelchair":"yes"}},"864124568":{"location":[51.0867803,4.8868775],"ct":"BE","tp":"CS","ts":"2024-07-28T21:13:16Z","tX":525,"tY":342,"tags":{"name":"Domein den Asberg","website":"https://domeindenasberg.be/"}},"963700942":{"location":[50.984876,4.8406487],"ct":"BE","tp":"CR","ts":"2024-10-03T14:00:49Z","tX":525,"tY":342,"tags":{"capacity:caravans":"8","fee":"no","name":"Motorhomeparking Aarschot","power_supply":"no","reservation":"no"}},"996075278":{"location":[50.9857059,4.8912064],"ct":"BE","tp":"CS","ts":"2021-10-24T14:37:26Z","tX":525,"tY":342,"tags":{"access":"permit","backcountry":"yes","capacity:persons":"10","capacity:tents":"3","name":"Bivakzone Konijnenberg","operator":"Agentschap voor Natuur & Bos","reservation":"required","website":"https://www.natuurenbos.be/kamperen"}},"1019711510":{"location":[51.0647467,4.9023703],"ct":"BE","tp":"CS","ts":"2022-01-09T14:41:00Z","tX":525,"tY":342,"tags":{"addr:city":"Herselt","addr:housenumber":"50A","addr:postcode":"2230","addr:street":"Rijselberg","name":"Recreatie en kampeerterrein ’t Hoeveke","website":"http://www.natuur-puur.be/"}},"1081521078":{"location":[51.0174315,4.781791],"ct":"BE","tp":"CR","ts":"2025-01-12T18:51:14Z","tX":525,"tY":342,"tags":{"capacity:caravans":"2","caravan_site":"motorhome_stopover","caravan_site:type":"town","fee":"no","maxstay":"72 hours","name":"Camperplaats Begijnendijk","parking":"surface","power_supply":"no","sanitary_dump_station":"yes","sanitary_dump_station:fee":"yes","seasonal":"no","surface":"grass_paver","water_point":"yes","water_point:fee":"yes"}},"1350708652":{"location":[51.1663738,4.8255019],"ct":"BE","tp":"CR","ts":"2025-01-12T17:27:02Z","tX":525,"tY":342,"tags":{"capacity":"10","caravan_site":"motorhome_stopover","caravan_site:type":"sports_centre","fee":"no","maxstay":"1 night","motorhome":"yes","motorhome:overnight":"yes","name":"Multifunctioneel terrein Sint-Janneke","power_supply":"no","sanitary_dump_station":"no","surface":"paving_stones","water_point":"yes","website":"https://www.kempen.be/camperplaatsen"}},"1350735222":{"location":[50.96186,4.722474],"ct":"BE","tp":"CR","ts":"2025-01-12T18:54:10Z","tX":525,"tY":342,"tags":{"addr:housenumber":"18","addr:postcode":"3110","addr:street":"Vakenstraat","caravan_site":"motorhome_stopover","caravan_site:type":"sports_centre","email":"info.terheide@sportoase.be","maxstay":"72 hours","name":"Sportcafé Ter Heide","name:nl":"Sportcafé Ter Heide Rotselaar","opening_hours":"24/7","phone":"+32 16 89 29 90","power_supply":"yes","power_supply:fee":"yes","sanitary_dump_station":"yes","seasonal":"no","water_point":"yes","water_point:fee":"no"}},"8491605617":{"location":[50.9618225,4.7224534],"ct":"BE","tp":"CR","ts":"2021-04-12T20:23:15Z","tX":525,"tY":342,"tags":{"addr:housenumber":"18","addr:postcode":"3110","addr:street":"Vakenstraat","email":"info.terheide@sportoase.be","name":"Sportcafé Ter Heide","name:nl":"Sportcafé Ter Heide Rotselaar","opening_hours":"24/7","phone":"+32 16 89 29 90"}}}