{"90033726":{"location":[50.3341397,4.907956],"ct":"BE","tp":"CS","ts":"2017-03-23T09:46:42Z","tX":525,"tY":345,"tags":{"access":"private","capacity:cabins":"yes","name":"Parc résidentiel La Gayolle"}},"95689356":{"location":[50.3463881,4.8577123],"ct":"BE","tp":"CS","ts":"2024-10-29T10:21:35Z","tX":525,"tY":345,"tags":{"addr:city":"Godinne","addr:country":"BE","addr:housenumber":"7","addr:postcode":"5330","addr:street":"Rue des Villas","name":"Les Arpents Verts","phone":"+32 82 61 22 45"}},"104022097":{"location":[50.3719574,4.8705108],"ct":"BE","tp":"CS","ts":"2024-09-07T23:02:41Z","tX":525,"tY":345,"tags":{"addr:city":"Profondeville","addr:housenumber":"43","addr:postcode":"5170","addr:street":"Rue du Herdal","capacity":"75","caravans":"yes","contact:phone":"+32 81 41 21 49","name":"Le Douaire","source":"bing","tents":"yes","website":"https://www.campingledouaire.be"}},"112567265":{"location":[50.2930872,4.792281],"ct":"BE","tp":"CS","ts":"2021-11-20T15:06:52Z","tX":525,"tY":345,"tags":{"name":"Cobut","website":"https://www.hotelcobut.be/"}},"112617436":{"location":[50.3152811,4.8442873],"ct":"BE","tp":"CS","ts":"2024-04-19T18:10:20Z","tX":525,"tY":345,"tags":{"name":"Le Molignia","permanent_camping":"only","website":"https://campinglemolignia.mystrikingly.com/"}},"117135908":{"location":[50.3829652,4.6438412],"ct":"BE","tp":"CS","ts":"2021-07-21T11:47:41Z","tX":525,"tY":345,"tags":{"name":"Camping Le Val Treko"}},"118191331":{"location":[50.3660345,4.6701135],"ct":"BE","tp":"CS","ts":"2021-04-18T00:11:51Z","tX":525,"tY":345,"tags":{"name":"Ancien camping Les Viviers"}},"118191595":{"location":[50.3727891,4.7004057],"ct":"BE","tp":"CS","ts":"2018-10-17T07:40:56Z","tX":525,"tY":345,"tags":{"addr:housenumber":"11","addr:street":"Rue du Grand Étang","name":"Camping le Pachy","website":"http://www.campinglepachy.be/"}},"119593196":{"location":[50.4238277,4.7731858],"ct":"BE","tp":"CS","ts":"2023-08-27T09:15:31Z","tX":525,"tY":345,"tags":{"caravans":"yes","contact:email":"leptitcortil@live.be","contact:phone":"+32 477 26 24 32","name":"Le petit Cortil","stars":"2","tents":"yes","website":"https://www.campingleptitcortil.be"}},"121172510":{"location":[50.4423619,4.8021869],"ct":"BE","tp":"CS","ts":"2025-03-11T13:12:14Z","tX":525,"tY":345,"tags":{"caravans":"yes","contact:email":"camping.les.trieux@skynet.be","contact:phone":"+32 473 81 07 42","internet_access":"wlan","internet_access:fee":"no","name":"Camping Les Trieux","tents":"yes","website":"https://www.campinglestrieux.be/"}},"239920276":{"location":[50.4342572,4.7564367],"ct":"BE","tp":"CR","ts":"2025-02-02T15:27:09Z","tX":525,"tY":345,"tags":{"capacity":"8","caravan_site":"motorhome_stopover","caravan_site:type":"river","charge":"5 EUR","dog":"yes","fee":"yes","name":"Aire de Floreffe","parking":"surface","power_supply":"yes","sanitary_dump_station":"yes","sanitary_dump_station:chemical_toilet":"yes","sanitary_dump_station:grey_water":"yes","source:name":"visitWallonia","water_point":"yes"}},"454932250":{"location":[50.2917592,4.8046887],"ct":"BE","tp":"CS","ts":"2022-12-19T08:40:44Z","tX":525,"tY":345,"tags":{}},"983625020":{"location":[50.316806,4.8707154],"ct":"BE","tp":"CS","ts":"2021-09-15T13:37:46Z","tX":525,"tY":345,"tags":{}},"1231458498":{"location":[50.4678293,4.8503456],"ct":"BE","tp":"CR","ts":"2025-01-25T23:03:20Z","tX":525,"tY":345,"tags":{"addr:street":"Rue des Souchets","capacity":"8","caravan_site":"motorhome_stopover","caravan_site:type":"city","fee":"no","name":"Parking Motorhomes Tabora - Namur","name:es":"Parking autocaravanas Tabora","opening_hours":"24/7","power_supply":"yes","sanitary_dump_station":"yes","services:charge":"7.50 EUR","services:fee":"yes","surface":"asphalt","toilets":"no","water_point":"yes","website":"https://www.namur.be/fr/ma-ville/mobilite/mobilite/stationnement/motorhome","wikimedia_commons":"Category:Parking Motorhomes Tabora - Namur"}},"7623938940":{"location":[50.4342216,4.7566174],"ct":"BE","tp":"SD","ts":"2020-06-15T20:46:55Z","tX":525,"tY":345,"tags":{}},"12359968732":{"location":[50.4677571,4.8502737],"ct":"BE","tp":"SD","ts":"2024-11-20T20:40:32Z","tX":525,"tY":345,"tags":{"access":"yes","charge":"7.50 EUR","fee":"yes","opening_hours":"24/7","operator":"Flot Bleu","sanitary_dump_station:chemical_toilet":"yes","sanitary_dump_station:grey_water":"yes","water_point":"yes"}}}