{"26858507":{"location":[49.8563539,4.7929466],"ct":"FR","tp":"CS","ts":"2024-06-16T16:06:24Z","tX":525,"tY":347,"tags":{"addr:city":"Haulmé","addr:housenumber":"1","addr:postcode":"08800","addr:street":"Route du Domaine","caravans":"yes","fee":"yes","name":"Base de loisirs d'Haulmé","phone":"+33 7 69 67 27 88","tents":"yes","website":"https://www.domainedhaulme.fr"}},"26859171":{"location":[49.872476,4.6052194],"ct":"FR","tp":"CS","ts":"2023-04-07T14:05:41Z","tX":525,"tY":347,"tags":{"cabins":"yes","caravans":"yes","name":"Le Lac des Vieilles Forges","phone":"+33 3 24 40 17 31","shower":"yes","stars":"3","tents":"yes","toilets":"yes","website":"https://www.homair.com/camping/lac-des-vieilles-forges"}},"39107946":{"location":[50.0171664,4.6399824],"ct":"BE","tp":"CS","ts":"2024-11-01T09:38:59Z","tX":525,"tY":347,"tags":{"internet_access":"no","name":"Camping Le K d'Or","wheelchair":"limited"}},"125546430":{"location":[49.8651928,4.87952],"ct":"BE","tp":"CS","ts":"2023-03-19T16:05:48Z","tX":525,"tY":347,"tags":{"name":"La Douane"}},"125549447":{"location":[49.8651565,4.9060116],"ct":"BE","tp":"CS","ts":"2022-04-20T12:07:03Z","tX":525,"tY":347,"tags":{"addr:housenumber":"2","addr:street":"Rue de Charleville","addr:unit":"b","capacity:caravans":"76","caravans":"yes","fee":"yes","name":"La Bonne Heure","payment:cash":"yes","payment:contactless":"yes","payment:credit_cards":"yes","payment:mastercard":"yes","payment:visa":"yes","tents":"yes","website":"https://bonneheure.be/"}},"126357106":{"location":[49.8684684,4.8956044],"ct":"BE","tp":"CS","ts":"2024-06-24T12:54:17Z","tX":525,"tY":347,"tags":{"name":"Le Jardinet","website":"https://www.campinglejardinet.com/"}},"194008802":{"location":[50.0111349,4.7217215],"ct":"FR","tp":"CS","ts":"2024-03-28T14:51:03Z","tX":525,"tY":347,"tags":{"addr:city":"Haybes","addr:postcode":"08170","addr:street":"Rue du 24 Août","alt_name":"Le Moraypré","capacity":"50","caravans":"yes","email":"mairie.haybes@wanadoo.fr","fee":"yes","motorhome":"yes","name":"Camping Municipal de Haybes","operator":"Mairie de Haybes","operator:website":"https://www.haybes.fr/commerces-entreprises/hebergements/camping-municipal","payment:cash":"yes","payment:credit_cards":"yes","phone":"+33 3 24 41 14 54","shower":"yes","stars":"2","tents":"yes","toilets":"yes","website":"https://www.haybes.fr/vivre-haybes/saison-estivale/camping"}},"351897126":{"location":[49.9872937,4.7126544],"ct":"FR","tp":"CS","ts":"2024-04-26T13:51:01Z","tX":525,"tY":347,"tags":{"barrier":"fence","caravans":"yes","email":"camping.fumay@orange.fr","name":"Le Bellevue","opening_hours":"Jan-Mar, Nov-Dec off","phone":"+33 3 24 41 28 15","power_supply":"yes","stars":"2","tents":"yes"}},"353043965":{"location":[49.9657821,4.6609071],"ct":"FR","tp":"CS","ts":"2015-06-11T18:15:04Z","tX":525,"tY":347,"tags":{}},"353200415":{"location":[49.8774079,4.7413775],"ct":"FR","tp":"CS","ts":"2024-09-07T22:48:37Z","tX":525,"tY":347,"tags":{"caravans":"yes","drinking_water":"yes","fee":"yes","name":"Le Port Diseur","opening_hours":"Mo-Su 08:00-12:00, 15:00-18:30","phone":"+33 3 24 53 01 21","power_supply":"yes","shower":"hot","stars":"2","tents":"yes","toilets":"yes","washing_machine":"yes","website":"https://www.meuse-semoy-tourisme.com/annuaires/campings/camping-municipal-du-port-diseur-2-etoiles.html"}},"353211068":{"location":[49.8857833,4.736228],"ct":"FR","tp":"CR","ts":"2024-10-03T12:49:55Z","tX":525,"tY":347,"tags":{"capacity":"15","caravan_site":"motorhome_stopover","caravan_site:type":"river","charge":"4.80 EUR","description":"Sanitary dump station at route de Deville","fee":"yes","fee:conditional":"no @ (Nov-Mar)","internet_access":"no","name":"Aire de Camping-Car de Monthermé","opening_hours":"Apr-Oct; Nov-Mar open \"no services\"","payment:description":"passage capitainerie","power_supply":"yes","power_supply:charge":"2.80 EUR","power_supply:fee":"yes","sanitary_dump_station":"no","surface":"grass_paver","water_point":"yes","website":"https://www.ardennes.com/camping/aire-de-camping-car-de-montherme/","wheelchair":"yes"}},"453613627":{"location":[49.9436613,4.629812],"ct":"FR","tp":"CS","ts":"2023-04-19T13:01:30Z","tX":525,"tY":347,"tags":{"addr:city":"Revin","addr:housenumber":"95","addr:postcode":"08500","addr:street":"Quai Edgard Quinet","capacity:persons":"300","caravans":"yes","fee":"yes","name":"Camping Les Bateaux","operator":"Privé","phone":"+33 3 24 40 15 65","stars":"3","static_caravans":"yes","tents":"yes","website":"https://camping-revin.com/"}},"497622295":{"location":[50.010969,4.7083441],"ct":"FR","tp":"CR","ts":"2024-06-27T22:57:04Z","tX":525,"tY":347,"tags":{"caravan_site":"motorhome_stopover","caravan_site:type":"river","fee":"no","name":"Aire camping-cars Haybes","power_supply":"no","sanitary_dump_station":"no","surface":"grass_paver","wheelchair":"yes"}},"523063721":{"location":[49.9399648,4.6391003],"ct":"FR","tp":"CR","ts":"2024-07-01T21:14:59Z","tX":525,"tY":347,"tags":{"capacity":"17","caravan_site":"motorhome_stopover","caravan_site:type":"river","fee":"no","maxstay":"7 days","name":"Aire de camping-car – Revin","power_supply":"yes","power_supply:charge":"3 EUR/hour","power_supply:maxcurrent":"16","surface":"asphalt","water_point":"yes","water_point:charge":"3 EUR/100 liter","water_point:fee":"yes","website":"https://www.ville-revin.fr/hebergements-sites-de-plein-air"}},"620168718":{"location":[49.9971364,4.7100958],"ct":"FR","tp":"CR","ts":"2024-10-05T15:42:56Z","tX":525,"tY":347,"tags":{"bbq":"no","capacity":"32","caravan_site":"motorhome_stopover","caravan_site:type":"river","caravans":"no","charge":"14.42 EUR","dog":"yes","fee":"yes","maxlength":"none","name":"Aire Park de Fumay","network":"CAMPING-CAR PARK","opening_hours":"24/7","operator":"CAMPING-CAR PARK","power_supply":"yes","power_supply:maxcurrent":"6","sanitary_dump_station":"yes","seasonal":"no","tents":"no","toilets":"no","trailer":"no","water_point":"yes","website":"https://www.campingcarpark.com/fr_FR/sejour/aire-etape-camping-car/grand-est/08-ardennes/fumay"}},"620303180":{"location":[49.8588508,4.7448079],"ct":"FR","tp":"CR","ts":"2023-12-15T12:08:26Z","tX":525,"tY":347,"tags":{"capacity":"20","caravan_site":"motorhome_stopover","caravan_site:type":"river","charge":"4 EUR + 0.4 EUR/pax","dog":"yes","fee":"yes","name":"Aire de Camping Car de Bogny-sur-Meuse","power_supply":"yes","power_supply:charge":"2.8 EUR","sanitary_dump_station":"yes","surface":"asphalt","water_point":"yes","website":"https://www.tourisme-valleesetplateaudardenne.com/hebergements/aire-de-camping-car-de-bogny-sur-meuse","wheelchair":"no"}},"837637192":{"location":[49.8821609,4.7760907],"ct":"FR","tp":"CS","ts":"2022-07-06T09:40:01Z","tX":525,"tY":347,"tags":{"name":"Les Rapides de Phade","operator":"Municipalité","phone":"+33 3 51 16 99 07","website":"http://www.montherme.fr/campingdesrapidesdephade"}},"960681701":{"location":[49.8744076,4.8831039],"ct":"BE","tp":"CS","ts":"2024-08-11T16:46:29Z","tX":525,"tY":347,"tags":{"addr:city":"Bohan","addr:housenumber":"214 B","addr:postcode":"5550","addr:street":"Rue de Mont les Champs","capacity":"210","caravans":"yes","fee":"yes","name":"Camping Confort","power_supply":"yes","reservation":"yes","sanitary_dump_station":"yes","shower":"yes","tents":"yes","toilets":"yes","website":"https://www.camping-confort.be"}},"961331491":{"location":[49.8701198,4.8868018],"ct":"BE","tp":"CS","ts":"2024-07-01T08:41:50Z","tX":525,"tY":347,"tags":{"addr:housenumber":"208C","addr:street":"Rue de Mont les Champs","caravans":"yes","fee":"yes","fixme":"the camping is probably larger, but how large?","name":"Camping des Bouleaux","tents":"yes","website":"https://camping-des-bouleaux.be/"}},"968541826":{"location":[50.0114751,4.7222214],"ct":"FR","tp":"SD","ts":"2021-07-29T17:27:28Z","tX":525,"tY":347,"tags":{}},"1231458497":{"location":[49.9506782,4.8454487],"ct":"BE","tp":"CR","ts":"2025-01-25T18:19:17Z","tX":525,"tY":347,"tags":{"capacity":"20","caravan_site":"motorhome_stopover","caravan_site:type":"forest","name":"Aire de Gedinne 2","picnic_table":"yes","power_supply":"no","sanitary_dump_station":"no","water_point":"no","website":"https://visitwallonia.be/fr-be/content/aire-de-motor-homes-de-gedinne-2-province-de-namur"}},"1296820664":{"location":[49.8666618,4.8872066],"ct":"BE","tp":"CS","ts":"2024-06-28T09:03:47Z","tX":525,"tY":347,"tags":{}},"1298877303":{"location":[49.8735626,4.6058299],"ct":"FR","tp":"CS","ts":"2024-12-04T19:07:23Z","tX":525,"tY":347,"tags":{"access":"customers","cabins":"yes","caravans":"yes","fee":"yes","name":"Le Lac des Vieilles Forges","operator":"Marvilla Parks","phone":"+33 3 24 40 17 31","shower":"yes","stars":"3","static_caravans":"yes","tents":"yes","toilets":"yes","website":"https://www.homair.com/camping/lac-des-vieilles-forges"}},"3086291175":{"location":[49.8801473,4.8255431],"ct":"FR","tp":"CS","ts":"2022-11-05T14:30:30Z","tX":525,"tY":347,"tags":{"access":"customers","contact:email":"camping-faucon@orange.fr","fee":"yes","name":"Le Faucon","phone":"+33 7 69760327","website":"https://www.lecampinglefaucon.com/"}},"3086297778":{"location":[49.8743821,4.7847414],"ct":"FR","tp":"CS","ts":"2018-09-02T23:19:04Z","tX":525,"tY":347,"tags":{"name":"Camping de Tournavaux","phone":"+33 3 24 32 82 59","stars":"1","website":"http://www.campingdetournavaux.fr"}},"12031945882":{"location":[49.8725145,4.6047218],"ct":"FR","tp":"CS","ts":"2024-07-03T20:46:14Z","tX":525,"tY":347,"tags":{"barrier":"lift_gate","bicycle":"yes","foot":"yes","lift_gate:type":"double"}},"12026870678":{"location":[49.9348027,4.6344683],"ct":"FR","tp":"CR","ts":"2024-10-03T12:48:09Z","tX":525,"tY":347,"tags":{"caravan_site":"motorhome_stopover","caravan_site:type":"annex","fee":"no","name":"Annexe aire de la sapinière Revin","opening_hours":"Jun 15-Sep 15","power_supply":"no","sanitary_dump_station":"no","water_point":"no","website":"https://www.ville-revin.fr/hebergements-sites-de-plein-air"}},"5438042175":{"location":[49.8571663,4.741139],"ct":"FR","tp":"SD","ts":"2018-08-27T10:31:45Z","tX":525,"tY":347,"tags":{"water_point":"yes"}},"8960594162":{"location":[50.0114707,4.7222983],"ct":"FR","tp":"SD","ts":"2021-07-29T17:27:28Z","tX":525,"tY":347,"tags":{}},"9741879830":{"location":[49.8813764,4.7300729],"ct":"FR","tp":"SD","ts":"2024-07-01T20:10:10Z","tX":525,"tY":347,"tags":{"access":"yes","sanitary_dump_station:chemical_toilet":"yes","sanitary_dump_station:grey_water":"yes","website":"https://meuse-semoy-tourisme.com/cms/loisirs/camping-car.html"}},"12026870681":{"location":[49.9396476,4.6383803],"ct":"FR","tp":"SD","ts":"2024-07-01T21:14:59Z","tX":525,"tY":347,"tags":{"access":"yes","fee":"no"}},"5438042181":{"location":[49.8580016,4.7426059],"ct":"FR","tp":"PK","ts":"2021-05-06T19:06:46Z","tX":525,"tY":347,"tags":{"motorhome":"yes","parking":"surface"}}}