{"6962558":{"location":[47.236121,4.6254319],"ct":"FR","tp":"CS","ts":"2021-07-22T21:19:08Z","tX":525,"tY":359,"tags":{"addr:city":"Vandenesse-en-Auxois","addr:housenumber":"1","addr:postcode":"21320","addr:street":"Chemin du Lac","contact:email":"info@lac-de-panthier.com","contact:phone":"+33 3 80 49 21 94","email":"info@lac-de-panthier.com","name":"Camping du Lac de Panthier","phone":"+33 3 80 49 21 94","stars":"4","website":"https://www.lac-de-panthier.com/"}},"17624371":{"location":[47.0688386,4.8023088],"ct":"FR","tp":"CR","ts":"2024-07-02T12:21:27Z","tX":525,"tY":359,"tags":{"capacity":"22","caravan_site":"motorhome_stopover","caravan_site:type":"camp_site","charge":"12 EUR","description":"Camp site is motorhome stopover in winter season","fee":"yes","name":"Aire camping-car de Savigny-Les-Beaune","network":"Onlypark","opening_hours":"Sep 15-Apr 26","power_supply":"yes","power_supply:charge":"3 EUR/4 hours","power_supply:maxcurrent":"10","sanitary_dump_station":"yes","sanitary_dump_station:charge":"3 EUR/20 minutes","toilets":"no","water_point":"yes","website":"https://www.onlypark.fr/aire-de-savigny/"}},"216201513":{"location":[47.2326881,4.9058964],"ct":"FR","tp":"CS","ts":"2024-07-13T16:02:40Z","tX":525,"tY":359,"tags":{"access":"customers","addr:city":"Chambœuf","addr:housenumber":"2","addr:postcode":"21220","addr:street":"Impasse du Château d'Eau","caravans":"yes","drinking_water":"yes","fee":"yes","internet_access":"wlan","name":"Le relais des Hautes Côtes","opening_hours":"Mo-Su 08:00-21:00","phone":"+33380585013","power_supply":"yes","sanitary_dump_station":"yes","shower":"yes","stars":"3","tents":"yes","toilets":"yes","website":"https://www.camping-chamboeuf.com/"}},"232224092":{"location":[47.0688386,4.8023088],"ct":"FR","tp":"CS","ts":"2024-08-15T15:03:05Z","tX":525,"tY":359,"tags":{"addr:city":"Savigny-Les-Beaune","addr:housenumber":"68","addr:postcode":"21420","addr:street":"Route de Bouilland","caravans":"yes","drinking_water":"yes","email":"campinglespremieresvignes@onlycamp.fr","fee":"yes","name":"Camping Les Premières Vignes","network":"Onlypark","phone":"+33 07 81 34 09 87","tents":"yes","website":"https://camping-les-premieres-vignes.fr/"}},"339199360":{"location":[47.1083591,4.6609247],"ct":"FR","tp":"CS","ts":"2024-06-28T16:40:30Z","tX":525,"tY":359,"tags":{"name":"Camping des Isles","operator":"Municipalité de Bligny","stars":"2","website":"https://www.ville-bligny-sur-ouche.fr/camping"}},"435857282":{"location":[47.2202449,4.6173359],"ct":"FR","tp":"CR","ts":"2024-07-02T10:00:41Z","tX":525,"tY":359,"tags":{"capacity":"8","caravan_site":"motorhome_stopover","caravan_site:type":"canal","charge":"6 EUR/24 hours","fee":"yes","name":"Vandenesse en Auxois - Lac de Panthier","picnic_area":"yes","power_supply":"yes","sanitary_dump_station":"yes","services:charge":"4 EUR/24 hours","tents":"no","water_point":"yes"}},"8356650916":{"location":[47.2767742,4.892309],"ct":"FR","tp":"CS","ts":"2021-01-24T08:26:33Z","tX":525,"tY":359,"tags":{"camp_site":"basic","description":"Prévenez-nous impérativement si vous avez le projet de camper ou de bivouaquer en précisant le nombre prévu. Table, bancs, barbecue, cuisinière à bois et toilettes sèches sont mis à disposition.","email":"asshipaf@gmail.com","operator":"Association « Les Amis du Val de Leuzeu »","toilets":"yes","website":"http://www.fleurey-patrimoine.fr/le-val-du-leuzeu/"}}}