{"4850402":{"location":[46.9123056,4.7437065],"ct":"FR","tp":"CS","ts":"2021-12-30T23:45:27Z","tX":525,"tY":360,"tags":{"caravans":"yes","contact:phone":"+333 85 87 21 42","internet_access":"wlan","internet_access:fee":"no","name":"Paquier Fané","ref:FR:SIRET":"53228432000019","tents":"yes","website":"https://www.campingchagny.com/"}},"11259463":{"location":[46.986554,4.7704259],"ct":"FR","tp":"CS","ts":"2021-05-08T19:02:18Z","tX":525,"tY":360,"tags":{"fee":"yes","name":"Huttopia","phone":"+33 4 37 64 22 35","website":"https://europe.huttopia.com/site/meursault","wikipedia":"fr:Huttopia"}},"177819426":{"location":[46.9071481,4.6840799],"ct":"FR","tp":"CS","ts":"2024-10-16T13:29:42Z","tX":525,"tY":360,"tags":{"award:accueilvelo":"2024","cabins":"yes","capacity:tents":"136","caravans":"yes","drinking_water":"yes","email":"camping.santenay@aquadis-loisirs.com","fee":"yes","image":"https://www.aquadis-loisirs.com/images/camping/14/slide/camping-de-santenay-1-lg.webp","internet_access":"wlan","internet_access:fee":"yes","motorhome":"yes","name":"Camping de Santenay","old_name":"Camping Des Sources","operator":"Aquadis","phone":"+33 3 80 20 66 55","power_supply":"yes","sanitary_dump_station":"yes","shower":"yes","stars":"3","tents":"yes","toilets":"yes","website":"https://www.aquadis-loisirs.com/camping-des-sources/"}},"186910144":{"location":[46.9500978,4.6277608],"ct":"FR","tp":"CR","ts":"2024-10-05T15:50:38Z","tX":525,"tY":360,"tags":{"caravan_site":"motorhome_stopover","caravan_site:type":"village","description":"3 EUR token for water and electricity","fee":"no","leisure":"pitch","name":"Aire pour camping-cars de Nolay","power_supply":"yes","power_supply:fee":"yes","sanitary_dump_station":"yes","services:charge":"3 EUR: water_point,power_supply","source":"data.gouv.fr:Le ministère des droits des femmes, de la ville, de la jeunesse et des sports - 11/2015","sport":"boules","water_point":"yes","water_point:fee":"yes","website":"https://www.burgundy-tourism.com/campsites/aire-pour-camping-cars-de-nolay"}},"232223149":{"location":[47.0336128,4.8397627],"ct":"FR","tp":"CS","ts":"2023-07-26T08:04:46Z","tX":525,"tY":360,"tags":{"addr:street":"Rue Auguste Dubois","alt_name":"Camping Municipal","capacity":"116","caravans":"yes","internet_access":"wlan","internet_access:fee":"no","name":"Les Cent Vignes","phone":"+33 3 80 22 03 91","power_supply":"yes","shower":"yes","stars":"4","tents":"yes","toilets":"yes","website":"https://www.beaune-tourisme.fr/sejourner/dormir/campings/camping-les-cent-vignes-beaune-fr-3860537/"}},"284822649":{"location":[46.8221149,4.6446271],"ct":"FR","tp":"CS","ts":"2024-07-31T14:18:07Z","tX":525,"tY":360,"tags":{"addr:city":"Saint-Léger-sur-Dheune","addr:postcode":"71510","addr:street":"Route de la Vallée des Vaux","alt_name":"Club du Soleil de Chalon-sur-Saône","description":"Le Club du Soleil de Chalon sur Saône vous accueille sur un terrain ombragé et spacieux (6 ha) dans une ambiance chaleureuse et familiale, avec en saison de nombreuses activités","email":"cs.chalon@orange.fr","name":"Camping naturiste du Bois des Battées","nudism":"yes","operator":"Club du Soleil de Chalon","phone":"+33 3 85 45 32 84","website":"https://campingboisbattees.wixsite.com/monsite"}},"701531502":{"location":[47.0274896,4.8836173],"ct":"FR","tp":"CS","ts":"2023-07-26T08:07:10Z","tX":525,"tY":360,"tags":{"addr:city":"Vignoles","addr:country":"FR","addr:housenumber":"11","addr:postcode":"21200","addr:street":"Rue Jaune","contact:email":"camping-les-bouleaux@hotmail.fr","name":"Les Bouleaux","phone":"+33 3 80 22 26 88","website":"https://campinglesbouleaux.wixsite.com/lesbouleaux"}},"707980465":{"location":[46.9462561,4.6241324],"ct":"FR","tp":"CS","ts":"2024-07-09T14:42:36Z","tX":525,"tY":360,"tags":{"caravans":"yes","drinking_water":"yes","name":"Camping Municipal Les Chaumes du Mont","power_supply":"yes","shower":"yes","tents":"yes"}},"707980891":{"location":[46.9501202,4.6213216],"ct":"FR","tp":"CS","ts":"2024-07-31T21:38:29Z","tX":525,"tY":360,"tags":{"construction":"caravan_site","name":"Camping La Bruyère","note":"becoming CAMPING-CAR PARK","website":"https://www.campingcarpark.com/en_GB/stay/stopover-site-motorhome/bourgogne-franche-comte/21-cote-dor/nolay"}},"858167938":{"location":[46.8463395,4.6328489],"ct":"FR","tp":"CR","ts":"2024-06-19T09:49:17Z","tX":525,"tY":360,"tags":{"capacity":"12","caravan_site":"motorhome_stopover","caravan_site:type":"river;village","charge":"11.20 EUR","fee":"yes","name":"Aire de camping-car Saint-Léger-sur-Dheune","power_supply":"yes","power_supply:fee":"no","power_supply:maxcurrent":"10","sanitary_dump_station":"yes","seasonal":"no","water_point":"yes","water_point:fee":"no","website":"https://commune-stlegerdheune.fr/aire-de-camping-car"}},"1038766194":{"location":[46.8108427,4.6998117],"ct":"FR","tp":"CS","ts":"2022-03-09T14:12:35Z","tX":525,"tY":360,"tags":{"name":"Camping municipal"}},"1240008159":{"location":[47.0177341,4.8370119],"ct":"FR","tp":"CR","ts":"2024-06-28T16:33:55Z","tX":525,"tY":360,"tags":{"caravan_site":"motorhome_stopover","charge":"8.70 EUR","description":"parking lot next to historic city center with restsurants and shops","fee":"yes","internet_access":"no","lit":"yes","name":"Parking Charles de Gaulle","opening_hours":"24/7","operator":"Aire d'Etpe Camping-Cars","power_supply":"yes","power_supply:charge":"4.70 EUR / 4 hours","sanitary_dump_station":"yes","surface":"asphalt","tents":"no","water_point":"yes","water_point:charge":"4.70 EUR","website":"https://www.burgundy-tourism.com/campsites/aire-pour-camping-cars-de-beaune","wikimedia_commons":"File:Parking Charles le Gaulle motorhome stopover.jpg"}},"1293635681":{"location":[46.8993714,4.6240624],"ct":"FR","tp":"CR","ts":"2024-06-19T11:46:50Z","tX":525,"tY":360,"tags":{"capacity":"3","caravan_site":"motorhome_stopover","caravan_site:type":"countryside","fee":"no","internet_access":"no","name":"Saint-Sernin-du-Plain","power_supply":"no","sanitary_dump_station":"no","surface":"fine_gravel"}},"7868671085":{"location":[46.9748958,4.7581036],"ct":"FR","tp":"CS","ts":"2023-08-13T08:38:49Z","tX":525,"tY":360,"tags":{"access":"permissive","caravans":"no","check_date":"2023-07-26","drinking_water":"no","fee":"no","name":"Zone de camping","name:en":"Good for camping","name:es":"Buena zona para acampar","shower":"no","static_caravans":"no","tents":"yes","toilets":"no"}},"8952095852":{"location":[46.8685521,4.6054344],"ct":"FR","tp":"CS","ts":"2024-08-02T16:27:23Z","tX":525,"tY":360,"tags":{"addr:city":"St. Maurice les Couches","addr:housenumber":"4","addr:postcode":"71490","addr:street":"Nignolle,","caravans":"yes","email":"contact@camping-labonnevie.com","name":"La bonne vie","nudism":"no","phone":"0033385455595","sanitary_dump_station":"customers","stars":"3","swimming_pool":"yes","tents":"yes","website":"https://www.camping-labonnevie.com"}},"4406810969":{"location":[46.9499411,4.6283196],"ct":"FR","tp":"SD","ts":"2016-09-18T13:18:50Z","tX":525,"tY":360,"tags":{"access":"yes"}},"7384863696":{"location":[46.9611664,4.8376214],"ct":"FR","tp":"SD","ts":"2020-04-09T10:06:40Z","tX":525,"tY":360,"tags":{}},"7566850580":{"location":[47.0174341,4.8365113],"ct":"FR","tp":"SD","ts":"2024-01-15T22:19:33Z","tX":525,"tY":360,"tags":{"access":"customers"}},"9020197748":{"location":[46.9119705,4.7433749],"ct":"FR","tp":"SD","ts":"2021-08-19T13:51:22Z","tX":525,"tY":360,"tags":{"name":"Camping Paquier Fané"}},"11660069821":{"location":[46.9646023,4.8353919],"ct":"FR","tp":"SD","ts":"2024-03-16T10:31:18Z","tX":525,"tY":360,"tags":{"access":"yes","brand":"Flot Bleau","description":"free but on a toll road","fee":"no","name":"Aire de Beaune-Tailly","sanitary_dump_station:basin":"yes","sanitary_dump_station:chemical_toilet":"yes","sanitary_dump_station:grey_water":"yes","water_point":"yes"}}}