{"44300799":{"location":[45.9916436,4.8162474],"ct":"FR","tp":"CS","ts":"2023-07-25T16:58:59Z","tX":525,"tY":364,"tags":{"addr:street":"Chem. du Bois de la Dame","caravans":"yes","contact:website":"http://www.ars-village.fr/Visiter-Ars/Hebergement-et-restauration/Camping-municipal","drinking_water":"yes","internet_access:type":"WLAN","name":"Camping du Bois de la Dame","operator":"Municipalté","phone":"+33 4 74 00 77 23","power_supply":"yes","shower":"yes","stars":"3","tents":"yes","toilets":"yes","website":"https://www.campingduboisdeladame.fr/"}},"44502833":{"location":[46.0283407,4.7503387],"ct":"FR","tp":"CS","ts":"2024-10-13T15:23:20Z","tX":525,"tY":364,"tags":{"name":"Domaine privré, Val de Saöne"}},"44886945":{"location":[45.9904035,4.9050575],"ct":"FR","tp":"CS","ts":"2023-04-15T20:42:12Z","tX":525,"tY":364,"tags":{"cabins":"yes","capacity:pitches":"72","caravans":"yes","name":"Camping l'Oasis des Dombes","old_name":"Le Cerisier","phone":"+33 4 74 00 83 40; +33 07 67 21 43 16","shower":"yes","stars":"2","tents":"yes","toilets":"yes","website":"https://camping-oasis-des-dombes.fr"}},"44951012":{"location":[45.9709831,4.7511699],"ct":"FR","tp":"CR","ts":"2024-05-18T10:57:15Z","tX":525,"tY":364,"tags":{"branch":"Villefranche-sur-Saône","capacity":"128","caravan_site":"motorhome_stopover","caravan_site:type":"river","caravans":"yes","caravans:conditional":"no@(low_season)","charge":"15.22 EUR","contact:city":"Villefranche-sur-Saône","contact:housenumber":"2788","contact:phone":"+33474653348","contact:postcode":"69400","contact:street":"Route de Riottier","description":"former camp site, now for camping cars only","dog":"leashed","fee":"yes","internet_access":"wlan","maxlength":"none","name":"Aire Camping-Car Park Villefranche-sur-Saône, Beaujolais","name:en":"CAMPING-CAR PARK area of Villefranche-sur-Saône, Beaujolais","network":"CAMPING-CAR PARK","opening_hours":"24/7","operator":"Camping-Car Park","power_supply":"yes","power_supply:maxcurrent":"6","reservation":"no","sanitary_dump_station":"customers","seasonal":"no","tents":"yes","toilets:conditional":"no@(low_season)","trailer":"yes","water_point":"yes","website":"https://www.campingcarpark.com/fr_FR/sejour/aire-etape-camping-car/auvergne-rhone-alpes/69-rhone/villefranche-lyon-beaujolais","wheelchair":"yes"}},"149404670":{"location":[45.9124207,4.8127238],"ct":"FR","tp":"CS","ts":"2024-08-09T18:39:32Z","tX":525,"tY":364,"tags":{"name":"Camping de l'Écluse","phone":"+33 4 78 98 06 32","source":"Local survey","stars":"2","website":"https://www.campingdelecluse.com/"}},"261665858":{"location":[45.9418716,4.7260297],"ct":"FR","tp":"CS","ts":"2023-12-27T19:53:38Z","tX":525,"tY":364,"tags":{"addr:housenumber":"495","addr:street":"Avenue Jean Vacher","name":"Camping Portes du Beaujôlais","phone":"+33474671287","stars":"4","website":"https://www.camping-beaujolais.com/"}},"283417303":{"location":[45.9389551,4.7671743],"ct":"FR","tp":"CS","ts":"2019-03-07T05:44:33Z","tX":525,"tY":364,"tags":{"addr:city":"Trévoux","addr:postcode":"01600","addr:street":"Rue Robert Baltié","name":"Kanopée Village","phone":"+33 4 74 08 44 83","source":"Bing","stars":"3","website":"https://www.kanopee-village.com/"}},"366649427":{"location":[46.0501393,4.7633498],"ct":"FR","tp":"CS","ts":"2021-10-31T12:47:24Z","tX":525,"tY":364,"tags":{"addr:city":"Messimy-sur-Saône","addr:postcode":"01480","addr:street":"Rue du Bourg","capacity":"26","drinking_water":"yes","fee":"yes","group_only":"no","internet_access":"no","name":"Camping municipal de Messimy-sur-Saône","opening_hours":"Apr-Oct: 07:00-22:00","operator":"Municipalité","phone":"+33 4 74 67 80 77","stars":"2","tents":"yes"}},"1168032266":{"location":[45.9637656,4.9086237],"ct":"FR","tp":"CS","ts":"2024-07-31T14:55:50Z","tX":525,"tY":364,"tags":{"access":"private","addr:city":"Saint-Jean-de-Thurigneux","addr:housenumber":"75","addr:postcode":"01390","addr:street":"Chemin de Pagne","brand":"FFN","description":"Petit club naturiste familial d'environ 80 adhérents adultes (plus quelques enfants et petits-enfants), affilié à la Fédération Française de Naturisme (FFN).","email":"cslyon@laposte.net","name":"Club du Soleil de Lyon","nudism":"yes","operator":"Club du Soleil de Lyon","phone":"+33 4 74 00 88 46","website":"http://cslyon.nature.free.fr"}},"1238142788":{"location":[45.8797667,4.7018024],"ct":"FR","tp":"CR","ts":"2024-10-18T09:45:39Z","tX":525,"tY":364,"tags":{"caravan_site":"motorhome_stopover","caravan_site:type":"winery","caravans":"no","fee":"purchase","name":"Domaine du Gros Bost","reservation":"required","sanitary_dump_station":"yes","water_point":"yes"}},"3076878908":{"location":[46.0211406,4.7931571],"ct":"FR","tp":"CS","ts":"2019-03-07T05:45:19Z","tX":525,"tY":364,"tags":{"name":"Le Pigeonnier","phone":"+33 4 74 67 82 56","website":"https://www.ain-tourisme.com/fiches/Chaleins/Aire-naturelle/Aire-Naturelle-du-Pigeonnier/62523"}},"3076912167":{"location":[46.0566842,4.817804],"ct":"FR","tp":"CS","ts":"2019-03-05T04:31:17Z","tX":525,"tY":364,"tags":{"name":"Simone Thete","phone":"+33 4 74 67 82 85","stars":"3","website":"https://www.ain-tourisme.com/fiches/Chaleins/Aire-naturelle/Mme-THETE-Simone/310376"}},"6811603305":{"location":[45.9035426,4.7294748],"ct":"FR","tp":"SD","ts":"2020-03-03T02:20:16Z","tX":525,"tY":364,"tags":{"sanitary_dump_station:basin":"yes"}},"9132871938":{"location":[45.9711505,4.7516218],"ct":"FR","tp":"SD","ts":"2021-09-29T17:39:56Z","tX":525,"tY":364,"tags":{"access":"customers","fee":"no","opening_hours":"24/7","sanitary_dump_station:basin":"yes","sanitary_dump_station:round_drain":"yes"}}}