{"39865853":{"location":[45.6149575,4.6713357],"ct":"FR","tp":"CS","ts":"2025-01-01T09:35:26Z","tX":525,"tY":365,"tags":{"caravans":"yes","name":"Camping municipal de la Trillonnière","opening_hours":"Mo-Su 09:30-11:00, 15:00-18:30","phone":"+33 4 78 44 16 47","tents":"yes","website":"https://www.la-trillonniere.fr/"}},"240632514":{"location":[45.5868276,4.5734908],"ct":"FR","tp":"CR","ts":"2024-09-09T15:59:00Z","tX":525,"tY":365,"tags":{"addr:city":"Sainte-Catherine","addr:housenumber":"241","addr:postcode":"69440","addr:street":"Route du Camping","capacity":"61","caravan_site":"motorhome_stopover","caravan_site:type":"camp_site","caravans":"yes","charge":"14.20 EUR","dog":"yes","email":"camping.le.chatelard@orange.fr","fax":"+33 4 78 81 87 73","fee":"yes","laundry":"yes","mobile":"+33 7 89 89 14 45","name":"Camping-Caravaning Municipal du Châtelard","opening_hours":"Apr-Oct","opening_hours:reception":"Apr-Oct 16:00-19:00; Apr-Oct Th 08:45-11:15","operator":"Commune de Sainte-Catherine","phone":"+33 4 78 81 80 60","power_supply":"yes","power_supply:fee":"yes","power_supply:maxcurrent":"10","sanitary_dump_station":"yes","shower":"yes","tents":"yes","toilets":"yes","washing_machine":"yes","website":"https://mairie-saintecatherine.fr/fr/rb/554504/camping-municipal-3","winter_storage":"yes"}},"302902276":{"location":[45.8189401,4.7623923],"ct":"FR","tp":"CS","ts":"2024-08-21T18:18:05Z","tX":525,"tY":365,"tags":{"addr:street":"Allée du Camping International","area":"yes","cabins":"yes","caravans":"yes","name":"CityKamp - Camping de Lyon","operator":"Huttopia","phone":"04 78 35 64 55","tents":"yes","toilets:wheelchair":"yes","website":"https://www.camping-lyon.com/","wheelchair":"yes"}},"443672344":{"location":[45.7063033,4.5877262],"ct":"FR","tp":"CS","ts":"2025-03-09T14:57:20Z","tX":525,"tY":365,"tags":{"caravans":"yes","description":"Camping traditionnel et location chalets ou tipis. Ouvert à l'année.","name":"L'Hacienda","phone":"+33 6 59123995","ref:FR:SIRET":"79223184700015","source":"BD Ortho IGN","tents":"yes","website":"http://www.camping-hacienda.com/"}},"761449799":{"location":[45.8170927,4.6280744],"ct":"FR","tp":"CS","ts":"2024-06-18T15:42:54Z","tX":525,"tY":365,"tags":{"addr:housenumber":"307","addr:street":"Route du Sonnay","caravans":"yes","name":"Camping du Sonnay","ref:FR:SIRET":"80021977600013","tents":"yes"}},"761476442":{"location":[45.6873913,4.7853305],"ct":"FR","tp":"CS","ts":"2024-05-14T14:24:20Z","tX":525,"tY":365,"tags":{"addr:housenumber":"88","addr:street":"Avenue Maréchal Foch","caravans":"yes","email":"contact@barolles.fr","internet_access":"wlan","internet_access:fee":"no","name":"Camping des Barolles","phone":"+33 4 78 56 05 56","static_caravans":"yes","tents":"yes","website":"https://www.barolles.fr/"}},"3812928090":{"location":[45.6155871,4.6709303],"ct":"FR","tp":"SD","ts":"2024-06-20T20:43:43Z","tX":525,"tY":365,"tags":{"access":"yes","fee":"no","sanitary_dump_station:basin":"yes","water_point":"yes"}},"4832342181":{"location":[45.7086793,4.5835305],"ct":"FR","tp":"SD","ts":"2019-09-15T19:46:25Z","tX":525,"tY":365,"tags":{"description":"Vidanges, eau, stationnement et WC gratuit. Nuit au calme, ballade et bbq possible autour de l'étang.","fee":"no"}},"6743893030":{"location":[45.8228914,4.6057314],"ct":"FR","tp":"SD","ts":"2024-06-20T22:36:49Z","tX":525,"tY":365,"tags":{"access":"yes","fee":"no"}}}