{"109372699":{"location":[45.3249932,4.9005143],"ct":"FR","tp":"CS","ts":"2023-07-09T13:22:13Z","tX":525,"tY":367,"tags":{"addr:city":"Bougé-Chambalud","addr:housenumber":"580","addr:postcode":"38150","addr:street":"Route de Fond Rozier","capacity":"310","email":"temps-libre@capfun.com","internet_access":"wlan","internet_access:fee":"no","name":"Le Temps Libre","operator":"Capfun","phone":"+33 4 74 84 04 09","source":"cadastre-dgi-fr source : Direction Générale des Impôts - Cadastre;mise à jour :2011","stars":"4","website":"https://www.temps-libre.fr/"}},"170698296":{"location":[45.2552723,4.9024551],"ct":"FR","tp":"CS","ts":"2023-03-22T16:13:50Z","tX":525,"tY":367,"tags":{"addr:housenumber":"50","addr:street":"Route de Font-Flacher","capacity":"50","email":"Contact@chataigneraie.com","fax":"+33 4 75 03 84 67","internet_access":"yes","internet_access:fee":"yes","name":"Camping la Châtaigneraie","phone":"+33 4 75 31 43 33","sanitary_dump_station":"customers","stars":"3","website":"https://www.chataigneraie.com/","wheelchair":"limited"}},"247943448":{"location":[45.2183438,4.8331808],"ct":"FR","tp":"CR","ts":"2023-12-20T18:24:44Z","tX":525,"tY":367,"tags":{"access":"yes","capacity":"4","caravan_site":"motorhome_stopover","caravan_site:type":"village","fee":"no","name":"Aire Camping-Cars de Beausemblant","opening_hours":"24/7","park_ride":"no","sanitary_dump_station":"yes","sanitary_dump_station:chemical_toilet":"yes","sanitary_dump_station:grey_water":"yes","seasonal":"no","surface":"fine_gravel","water_point":"yes","website":"https://www.ladrometourisme.com/fiches/aire-camping-cars-de-beausemblant/"}},"268162544":{"location":[45.1077904,4.8910355],"ct":"FR","tp":"CS","ts":"2022-07-07T18:48:15Z","tX":525,"tY":367,"tags":{"capacity":"24","email":"campingchantemerle@wanadoo.fr","fax":"+33 4 75 07 45 15","name":"Camping Chante-Merle","opening_hours":"Feb-Jun 08:30-20:00; Jul-Aug Mo-Su 08:00-22:30","phone":"+33 4 75 07 49 73","ref:FR:SIRET":"81057625600012","stars":"3","website":"https://www.campingchantemerle.fr/"}},"456860410":{"location":[45.313934,4.8240925],"ct":"FR","tp":"CS","ts":"2022-06-29T09:54:07Z","tX":525,"tY":367,"tags":{"addr:city":"Chanas","addr:postcode":"38150","addr:street":"Route de Grenoble","fee":"yes","name":"Camping Beausejour","phone":"+33 4 74 84 31 01","stars":"3","website":"https://beausejour38.business.site/"}},"475846333":{"location":[45.2691871,4.6697211],"ct":"FR","tp":"CR","ts":"2024-01-05T01:30:20Z","tX":525,"tY":367,"tags":{"capacity":"6","caravan_site":"motorhome_stopover","caravan_site:type":"village","fee":"no","name":"Aire Municipale Boulieu-lès-Annonay","opening_hours":"24/7","sanitary_dump_station":"yes","seasonal":"no"}},"512612688":{"location":[45.1881374,4.8117861],"ct":"FR","tp":"CS","ts":"2024-11-19T13:10:31Z","tX":525,"tY":367,"tags":{"caravans":"yes","drinking_water":"yes","internet_access":"wlan","name":"Camping municipal Les Iles de Silon","power_supply":"yes","shower":"yes","stars":"3","tents":"yes","toilets":"yes","website":"https://www.saintvallier.fr/decouvrir/camping"}},"761095515":{"location":[45.308354,4.74602],"ct":"FR","tp":"CS","ts":"2024-06-29T02:45:47Z","tX":525,"tY":367,"tags":{"addr:housenumber":"88","addr:street":"Route de Larin le Bas","contact:mobile":"+33 6 80 05 13 89","email":"camping.baslarin@wanadoo.fr","name":"Camping du Bas Larin","operator":"Camping du Bas Larin","phone":"+33 4 75 34 87 93","ref":"163 036","stars":"3","website":"https://www.camping-bas-larin.com/"}},"761095520":{"location":[45.1797766,4.7390817],"ct":"FR","tp":"CS","ts":"2023-11-08T23:46:00Z","tX":525,"tY":367,"tags":{"addr:housenumber":"810","addr:street":"Chemin du Petit Chaléat","email":"info@oasisardeche.com","name":"Camping l'Oasis","operator":"Camping l'Oasis","phone":"+33 4 75 34 56 23","ref":"119 531","stars":"4","website":"https://www.oasisardeche.com/"}},"761095527":{"location":[45.257922,4.8051412],"ct":"FR","tp":"CS","ts":"2022-02-24T07:34:34Z","tX":525,"tY":367,"tags":{"addr:housenumber":"265","addr:street":"Impasse de l'écoutay","email":"info@campingdandance.com","name":"Camping le Domaine d'Andance","operator":"Camping le Domaine d'Andance","phone":"+33 4 27 51 93 73","ref":"119 512","stars":"3","website":"https://www.campingdandance.com"}},"801622070":{"location":[45.121218,4.7992585],"ct":"FR","tp":"CS","ts":"2023-11-10T02:53:56Z","tX":525,"tY":367,"tags":{"addr:housenumber":"1307","addr:street":"Rue Royale","email":"camping@iserand.com","name":"Camping Iserand","operator":"Camping Iserand","phone":"+33 4 75 08 01 73","ref":"119 677","stars":"3","website":"https://www.iserandcampingardeche.com/"}},"889356513":{"location":[45.2189973,4.7138965],"ct":"FR","tp":"CR","ts":"2024-09-28T15:15:31Z","tX":525,"tY":367,"tags":{"capacity":"6","caravan_site":"motorhome_stopover","caravan_site:type":"village","caravans":"no","fee":"no","name":"Aire de camping-car de Vernosc-lès-Annonay","opening_hours":"24/7","power_supply":"yes","seasonal":"no","surface":"asphalt","tents":"no","water_point":"yes","website":"https://www.viafluvia.fr/camping/aire-de-camping-car/","wheelchair":"yes"}},"894052743":{"location":[45.3267847,4.6094129],"ct":"FR","tp":"CS","ts":"2021-01-10T22:33:13Z","tX":525,"tY":367,"tags":{"name":"Camping du Val Ternay","phone":"+33 6 82 47 75 09","source:geometry":"BDTopo IGN","website":"https://www.saint-julien-molin-molette.fr/Camping-du-Val-Ternay"}},"894052755":{"location":[45.2578863,4.6735789],"ct":"FR","tp":"CS","ts":"2021-01-10T22:33:13Z","tX":525,"tY":367,"tags":{"name":"Camp Communautaire de Vaure","source":"BDTopo IGN"}},"894052775":{"location":[45.3231849,4.6476777],"ct":"FR","tp":"CS","ts":"2022-04-24T21:35:44Z","tX":525,"tY":367,"tags":{"name":"Le Miron","source":"BDTopo IGN"}},"995166673":{"location":[45.2992615,4.5806487],"ct":"FR","tp":"CS","ts":"2022-05-07T02:12:56Z","tX":525,"tY":367,"tags":{"addr:city":"Bourg-Argental","addr:postcode":"42220","addr:street":"Chemin de Vernat","contact:phone":"+33 4 77 39 72 97","fee":"yes","name":"Domaine de l'Astrée"}},"1074463478":{"location":[45.2993769,4.807545],"ct":"FR","tp":"CS","ts":"2023-11-08T23:45:50Z","tX":525,"tY":367,"tags":{"addr:street":"Rue des Sablons","fee":"yes","name":"Camping Bois & Toilés","phone":"+33 4 75 31 01 87","stars":"3","website":"https://www.bois-et-toiles.com/"}},"1104433385":{"location":[45.324372,4.8359087],"ct":"FR","tp":"CS","ts":"2011-01-15T11:36:21Z","tX":525,"tY":367,"tags":{"name":"Les Guyots","stars":"3"}},"1157694901":{"location":[45.2347381,4.8414198],"ct":"FR","tp":"CS","ts":"2023-03-27T14:09:23Z","tX":525,"tY":367,"tags":{"caravans":"yes","name":"Camping du Domaine de Senaud","opening_hours":"Apr-Sep","phone":"+33 6 58 65 15 44","stars":"3","tents":"yes","website":"https://www.domainedesenaud.com/"}},"1287325879":{"location":[45.1642679,4.6633715],"ct":"FR","tp":"CR","ts":"2024-05-28T09:20:35Z","tX":525,"tY":367,"tags":{"capacity":"5","caravan_site":"motorhome_stopover","caravan_site:type":"village","fee":"no","name":"Aire camping-car communale Saint-Romain-d'Ay","power_supply":"yes","sanitary_dump_station":"yes","tents":"no","water_point":"yes","website":"https://en.ardeche-guide.com/accommodation/camping-sites/motorhomes-welcomed/aire-de-serviceaccueil-camping-car-communale-116188"}},"1287493626":{"location":[45.1889623,4.7369481],"ct":"FR","tp":"CR","ts":"2024-05-28T20:25:32Z","tX":525,"tY":367,"tags":{"capacity":"4","caravan_site":"motorhome_stopover","caravan_site:type":"village","dog":"yes","fee":"no","name":"Aire de camping-car d'Ardoix","opening_hours":"24/7","picnic_area":"yes","sanitary_dump_station":"yes","sanitary_dump_station:chemical_toilet":"yes","sanitary_dump_station:grey_water":"yes","seasonal":"no","surface":"concrete","toilets":"yes","water_point":"yes","website":"https://www.ardechegrandair.com/dormir/aires-de-camping-cars/90964_aire-de-camping-car-dardoix/"}},"1317626790":{"location":[45.3124521,4.7733238],"ct":"FR","tp":"CR","ts":"2024-10-08T23:19:58Z","tX":525,"tY":367,"tags":{"addr:street":"Chemin du Rhône, Saint-Sornin","capacity":"6","caravan_site":"motorhome_stopover","caravan_site:type":"river","drinking_water":"yes","fee":"no","name":"Area Chemin du Rhône, Saint-Sornin","power_supply":"no","sanitary_dump_station":"yes","toilets":"no"}},"2547840579":{"location":[45.2184821,4.8333161],"ct":"FR","tp":"SD","ts":"2023-12-20T18:24:44Z","tX":525,"tY":367,"tags":{"access":"yes","sanitary_dump_station:chemical_toilet":"yes","sanitary_dump_station:grey_water":"yes","water_point":"yes"}},"2877849635":{"location":[45.110542,4.677559],"ct":"FR","tp":"CS","ts":"2024-05-13T10:25:17Z","tX":525,"tY":367,"tags":{"addr:place":"Mairie","contact:mobile":"+336 36 06 23 74","name":"Camping municipal de Chantelermuze","operator":"Camping municipal de Chantelermuze","phone":"+33 4 75 06 00 47","ref":"162 853","stars":"2"}},"7110872232":{"location":[45.333911,4.667315],"ct":"FR","tp":"CS","ts":"2022-02-24T07:34:28Z","tX":525,"tY":367,"tags":{"contact:mobile":"+33 6 12 17 70 63","email":"alain.boudras@wanadoo.fr","fixme":"position à corriger","name":"Camping du Miron","operator":"Camping du Miron","phone":"+33 4 75 67 19 94","ref":"119 970","stars":"1"}},"7770846029":{"location":[45.1089853,4.8302784],"ct":"FR","tp":"CR","ts":"2024-05-29T14:04:39Z","tX":525,"tY":367,"tags":{"caravan_site":"motorhome_stopover","caravan_site:type":"village","fee":"no","name":"Aire Camping-car Gervans","power_supply":"no","sanitary_dump_station":"yes","seasonal":"no","water_point":"yes","website":"https://en.ardeche-guide.com/accommodation/camping-sites/motorhomes-welcomed/aire-de-serviceaccueil-camping-car-6257231"}},"11939153059":{"location":[45.2646355,4.7972716],"ct":"FR","tp":"CR","ts":"2024-10-19T08:59:16Z","tX":525,"tY":367,"tags":{"capacity":"8","caravan_site":"motorhome_stopover","caravan_site:type":"winery","fee":"no","name":"Aire Cave de Saint Desirat","sanitary_dump_station":"yes","water_point":"yes"}},"8268142097":{"location":[45.2189671,4.7139689],"ct":"FR","tp":"SD","ts":"2024-09-28T15:15:31Z","tX":525,"tY":367,"tags":{"access":"yes","source":"extrapolation"}},"9735036955":{"location":[45.2774478,4.8247266],"ct":"FR","tp":"SD","ts":"2024-09-13T11:41:42Z","tX":525,"tY":367,"tags":{"description":"Euro-relais","name":"Vidange sanitaire CC","sanitary_dump_station:chemical_toilet":"yes","sanitary_dump_station:gravity":"yes","sanitary_dump_station:grey_water":"yes"}},"11489744251":{"location":[45.2694011,4.6697219],"ct":"FR","tp":"SD","ts":"2024-01-05T01:30:20Z","tX":525,"tY":367,"tags":{"access":"yes","fee":"no"}},"11939223185":{"location":[45.1642617,4.6632551],"ct":"FR","tp":"SD","ts":"2024-05-28T09:20:35Z","tX":525,"tY":367,"tags":{"access":"yes","fee":"yes","name":"Aire de service Saint-Romain-d'Ay","network":"FlotBleu"}},"11939228826":{"location":[45.1104838,4.6774285],"ct":"FR","tp":"SD","ts":"2024-05-28T09:23:02Z","tX":525,"tY":367,"tags":{"access":"yes","fee":"yes","website":"https://en.ardeche-guide.com/accommodation/camping-sites/motorhomes-welcomed/aire-de-serviceaccueil-camping-car-communale-145203"}},"11940506577":{"location":[45.1889172,4.7370473],"ct":"FR","tp":"SD","ts":"2024-05-28T20:25:32Z","tX":525,"tY":367,"tags":{"access":"yes","fee":"yes","sanitary_dump_station:chemical_toilet":"yes","sanitary_dump_station:grey_water":"yes"}},"11941754597":{"location":[45.2748289,4.8262831],"ct":"FR","tp":"SD","ts":"2024-05-29T09:45:51Z","tX":525,"tY":367,"tags":{"access":"yes","fee":"no","name":"A7 Saint Rambert d'Albon Ouest","sanitary_dump_station:basin":"yes","website":"https://www.ladrometourisme.com/fiches/aire-camping-cars-a7-saint-rambert-dalbon-ouest/"}}}