{"88494289":{"location":[45.0716692,4.8276101],"ct":"FR","tp":"CS","ts":"2024-11-01T10:22:18Z","tX":525,"tY":368,"tags":{"addr:housenumber":"1","addr:street":"Promenade Roche Defrance","cabins":"yes","capacity:pitches":"80","caravans":"yes","contact:facebook":"https://www.facebook.com/Camping-Le-Rh%C3%B4ne-441588685971129/","dog":"yes","email":"camping@camping-tournon.com","fee":"yes","internet_access":"wlan","lit":"yes","motorhome":"yes","name":"Camping Le Rhône","operator":"Camping de Tournon HPA","phone":"+33 4 75 08 05 28","ref":"162 936","ref:FR:SIRET":"52806653300019","stars":"3","static_caravans":"no","swimming_pool":"yes","tents":"yes","washing_machine":"yes","website":"https://www.camping-tournon.fr/","wheelchair":"yes"}},"145633229":{"location":[44.9875159,4.5787568],"ct":"FR","tp":"CR","ts":"2024-05-28T21:03:17Z","tX":525,"tY":368,"tags":{"capacity":"20","caravan_site":"motorhome_stopover","caravan_site:type":"river;village","fee":"no","name":"Pont de Tain - Lamastre","power_supply:fee":"yes","sanitary_dump_station":"yes","seasonal":"no","services:charge":"4 EUR","water_point":"yes","website":"https://www.pays-lamastre-tourisme.com/fr/catalogue/activite/tous/aire-de-camping-cars-pont-de-tain-203826/"}},"157449023":{"location":[45.0308734,4.6709901],"ct":"FR","tp":"CS","ts":"2022-02-24T07:34:31Z","tX":525,"tY":368,"tags":{"addr:place":"Chapelle","email":"contact@camping-valleedudoux.fr","internet_access":"no","name":"Camping la Vallée du Doux","operator":"Camping la Vallée du Doux","phone":"+33 4 75 08 71 83","ref":"162 750","smoking":"yes","stars":"2","website":"https://www.camping-valleedudoux.fr/"}},"219639920":{"location":[45.0638626,4.8433493],"ct":"FR","tp":"PK","ts":"2024-05-29T13:27:42Z","tX":525,"tY":368,"tags":{"motorhome":"yes","parking":"surface"}},"229704286":{"location":[45.073309,4.8215269],"ct":"FR","tp":"CR","ts":"2024-05-28T21:44:43Z","tX":525,"tY":368,"tags":{"capacity":"10","caravan_site":"motorhome_stopover","caravan_site:type":"parking_lot;town","caravans":"no","charge":"7 EUR","fee":"yes","maxstay":"24 hours","motorhome":"designated","name":"Parking de l'Octroi - Tournon-sur-Rhône","opening_hours":"24/7","power_supply":"no","sanitary_dump_station":"yes","seasonal":"no","surface":"asphalt","tents":"no","water_point":"yes","website":"https://en.ardeche-guide.com/accommodation/camping-sites/motorhomes-welcomed/aire-de-serviceaccueil-camping-car-communale-119256"}},"252381912":{"location":[44.9970477,4.8924644],"ct":"FR","tp":"CS","ts":"2024-07-30T09:36:43Z","tX":525,"tY":368,"tags":{"addr:place":"Les Pêches","capacity":"138","caravans":"yes","drinking_water":"yes","email":"contact@lesoleilfruite.com","fax":"+33 4 75 78 05 85","internet_access":"wlan","internet_access:fee":"no","name":"Camping Le Soleil Fruité","opening_hours":"Mo-Su 08:30-19:00","phone":"+33 4 75 84 19 70","power_supply":"yes","ref:FR:SIRET":"48891765900010","shower":"yes","stars":"4","tents":"yes","toilets":"yes","website":"https://www.lesoleilfruite.com/","wheelchair":"designated"}},"256240464":{"location":[45.009225,4.8458463],"ct":"FR","tp":"CR","ts":"2025-06-13T19:33:44Z","tX":525,"tY":368,"tags":{"alt_name":"Aire CAMPING-CAR PARK de La Roche de Glun","capacity":"38","caravan_site":"motorhome_stopover","caravan_site:type":"river","caravans":"no","charge":"15,00 EUR","charge:conditional":"13 EUR @ (Oct-Apr)","fee":"yes","name":"Camping les Vernes - La Roche de Glun","network":"CAMPING-CAR PARK","opening_hours":"24/7","operator":"CAMPING-CAR PARK","power_supply:capacity":"50","power_supply:maxcurrent":"6","tents":"no","website":"https://www.campingcarpark.com/fr_FR/sejour/aire-etape-camping-car/auvergne-rhone-alpes/26-drome/la-roche-de-glun"}},"319040471":{"location":[45.0765203,4.6406173],"ct":"FR","tp":"CS","ts":"2024-08-07T13:05:41Z","tX":525,"tY":368,"tags":{"addr:city":"Saint-Félicien","addr:housenumber":"1360","addr:postcode":"07410","addr:street":"Route de Brintenas","cabins":"yes","capacity:pitches":"39","contact:mobile":"+33 6 78 52 10 45","email":"contact@lepierrageais.com","name":"Camping municipal de Pierrageais","operator":"Société Jelousy","phone":"+33 4 75 09 60 55","ref":"162 813","ref:FR:SIRET":"90153065900027","stars":"2","swimming_pool":"yes","website":"https://lepierrageais.com/"}},"363745455":{"location":[45.0667911,4.8494078],"ct":"FR","tp":"CS","ts":"2023-11-10T02:54:14Z","tX":525,"tY":368,"tags":{"addr:housenumber":"56","addr:street":"Avenue du Président Roosevelt","capacity":"54","contact:phone":"+334 75 08 32 82","name":"Camping municipal Les Lucs","ref:FR:SIRET":"21260347600137","short_name":"Les Lucs","website":"https://www.camping-tain.fr/"}},"384691903":{"location":[44.940789,4.7343727],"ct":"FR","tp":"CS","ts":"2024-05-26T15:14:53Z","tX":525,"tY":368,"tags":{"addr:housenumber":"305","addr:place":"Le Village","addr:street":"Chemin du Camping","capacity":"66","caravans":"yes","name":"Camping GCU d'Alboussière","operator":"Groupement des Campeurs Universitaires","phone":"+33 4 75 58 33 13","stars":"2","tents":"yes","website":"https://www.gcu.asso.fr/"}},"384691912":{"location":[44.9393274,4.7337587],"ct":"FR","tp":"CS","ts":"2024-06-02T13:57:24Z","tX":525,"tY":368,"tags":{"alt_name":"Camping municipal d'Alboussière","caravans":"yes","drinking_water":"yes","email":"camping.duzonne@gmail.com","internet_access":"wlan","internet_access:fee":"no","name":"Camping municipal la Duzonne","operator":"Camping municipal la Duzonne","phone":"+33 4 75 58 20 91","power_supply":"yes","ref":"119 518","shower":"yes","stars":"2","tents":"yes","toilets":"yes","website":"http://www.camping-alboussiere.jimdo.com"}},"418796742":{"location":[44.8561142,4.8382721],"ct":"FR","tp":"CS","ts":"2024-08-09T15:11:12Z","tX":525,"tY":368,"tags":{"addr:street":"Route du Plan d'Eau","alt_name":"Les Deux Rives","caravans":"yes","contact:email":"lecatamaran07@orange.fr","contact:facebook":"https://www.facebook.com/campingcharmessurrhone/","drinking_water":"yes","email":"camping.charmessurrhone@laposte.net","fee":"yes","name":"Camping municipal de Charmes-sur-Rhône","phone":"+33 4 75 61 20 95","power_supply":"yes","shower":"yes","static_caravans":"no","tents":"yes","website":"https://www.auvergnerhonealpes-tourisme.com/fiches/camping-municipal-de-charmes-sur-rhone/"}},"439877210":{"location":[44.9001177,4.6503296],"ct":"FR","tp":"CS","ts":"2022-02-24T07:34:31Z","tX":525,"tY":368,"tags":{"addr:housenumber":"162","addr:street":"Chemin de Greygnac","internet_access":"no","name":"Camping de la Croix Bleue","operator":"La Croix Bleue"}},"439877211":{"location":[44.9032361,4.6505345],"ct":"FR","tp":"CS","ts":"2024-06-27T12:26:24Z","tX":525,"tY":368,"tags":{"addr:street":"Allée de Prat","capacity":"40","caravans":"yes","name":"Camping municipal du Bois de Prat","operator":"Vernoux-en-Vivarais","phone":"+33612050176","stars":"2","tents":"yes","website":"https://www.vernoux-en-vivarais.fr/camping-municipal-du-bois-de-prat/"}},"445834650":{"location":[44.880162,4.6056883],"ct":"FR","tp":"CS","ts":"2021-01-06T20:16:16Z","tX":525,"tY":368,"tags":{"name":"Camping municipal"}},"450875942":{"location":[45.0070256,4.7928682],"ct":"FR","tp":"CS","ts":"2022-02-24T07:34:31Z","tX":525,"tY":368,"tags":{"addr:housenumber":"370","addr:street":"Chemin de Simondon","email":"gites.camping@lesterresdesimondon.com","name":"Camping Simondon","operator":"Camping Simondon","phone":"+33 4 75 07 65 75","ref":"119 730","stars":"3","website":"http://www.lesterresdesimondon.com"}},"456839786":{"location":[45.0674819,4.7849365],"ct":"FR","tp":"CS","ts":"2021-06-10T20:47:10Z","tX":525,"tY":368,"tags":{"addr:housenumber":"113","addr:postcode":"07300","addr:street":"Route du Grand Pont","email":"courrier@camping-lecastelet.com","name":"Camping le Castelet","operator":"Camping le Castelet","phone":"+33 4 75 08 09 48","ref":"119 363","source":"cadastre-dgi-fr source : Direction Générale des Impôts - Cadastre. Mise à jour : 2011","stars":"4","website":"https://www.camping-lecastelet.com"}},"486648176":{"location":[44.9250709,4.880992],"ct":"FR","tp":"CR","ts":"2025-04-17T09:57:52Z","tX":525,"tY":368,"tags":{"capacity":"13","caravan_site":"motorhome_stopover","caravan_site:type":"city","caravans":"no","charge":"12 EUR","fee":"yes","internet_access":"wlan","internet_access:fee":"no","maxstay":"1 night","name":"Aire de camping-car de Valence","opening_hours":"24/7","power_supply":"no","sanitary_dump_station":"yes","seasonal":"no","tents":"no","water_point":"yes","website":"https://www.ladrometourisme.com/fiches/aire-de-camping-car-de-valence/"}},"493632489":{"location":[44.9601275,4.8472859],"ct":"FR","tp":"CR","ts":"2024-05-27T20:55:55Z","tX":525,"tY":368,"tags":{"capacity":"5","caravan_site":"motorhome_stopover","caravan_site:type":"village","fee":"no","maxstay":"48 hours","name":"Aire camping car Cornas","power_supply":"no","sanitary_dump_station":"yes","seasonal":"no","water_point":"yes","website":"https://en.ardeche-guide.com/accommodation/camping-sites/motorhomes-welcomed/aire-de-camping-cars-235967","wheelchair":"yes"}},"505115951":{"location":[45.0669293,4.7945865],"ct":"FR","tp":"CS","ts":"2025-06-07T17:01:13Z","tX":525,"tY":368,"tags":{"addr:housenumber":"190","addr:postcode":"07300","caravans":"yes","drinking_water":"yes","email":"info@acacias-camping.com","name":"Camping les Acacias","phone":"+33 4 75 08 83 90","power_supply":"yes","ref":"162 891","sanitary_dump_station":"yes","shower":"yes","stars":"3","swimming_pool":"yes","tents":"yes","toilets":"yes","website":"https://www.acacias-camping.com/"}},"582280273":{"location":[44.8467838,4.7222603],"ct":"FR","tp":"CS","ts":"2023-11-03T13:45:09Z","tX":525,"tY":368,"tags":{"addr:housenumber":"1145","addr:street":"Route du Serre de la Mure","email":"domainepleinsud@gmail.com","name":"Camping Plein Sud","operator":"Camping Plein Sud","phone":"+33 4 75 40 46 61","ref":"319 107","stars":"4","website":"https://www.campingpleinsud.fr/"}},"761095521":{"location":[45.0654878,4.7894456],"ct":"FR","tp":"CS","ts":"2023-03-09T12:35:02Z","tX":525,"tY":368,"tags":{"addr:housenumber":"222","addr:postcode":"07300","contact:mobile":"+33 6 72 10 15 01","email":"contact@laboheme-ardeche.com","name":"Camping la Bohème","old_name":"Le Manoir","phone":"+33 4 75 08 02 50","ref":"119 692","stars":"3","website":"https://www.laboheme-ardeche.com/"}},"761095537":{"location":[45.0230281,4.6484412],"ct":"FR","tp":"CS","ts":"2023-11-10T02:53:43Z","tX":525,"tY":368,"tags":{"addr:housenumber":"1595","addr:street":"Route du Banchet","caravans":"yes","contact:mobile":"+33 6 76 16 64 04","drinking_water":"yes","email":"camping.viaduc@yahoo.com","name":"Camping du Viaduc","operator":"Camping le Viaduc","phone":"+33 4 75 06 74 49","power_supply":"yes","ref":"123 396","shower":"yes","stars":"2","tents":"yes","toilets":"yes","website":"https://www.camping-viaduc-ardeche.com/"}},"761095539":{"location":[45.065394,4.792099],"ct":"FR","tp":"CS","ts":"2024-08-10T20:37:05Z","tX":525,"tY":368,"tags":{"addr:housenumber":"218","addr:postcode":"07300","addr:street":"Route de Lamastre","caravans":"yes","drinking_water":"yes","email":"camping.les.sables@wanadoo.fr","name":"Camping les Sables","phone":"+33 4 75 08 20 05","power_supply":"yes","ref":"162 900","shower":"yes","stars":"2","tents":"yes","toilets":"yes","website":"https://www.campinglessables.fr/"}},"761095544":{"location":[45.0123193,4.6249507],"ct":"FR","tp":"CS","ts":"2023-11-10T02:53:47Z","tX":525,"tY":368,"tags":{"addr:place":"Les roches","contact:mobile":"+33 6 46 23 27 43","email":"camproches@nordnet.fr","name":"Domaine Camping les Roches","operator":"Domaine les Roches","phone":"+33 4 75 06 20 20","ref":"101 345","stars":"4","website":"https://www.campinglesroches.com/"}},"801779893":{"location":[45.050264,4.6994193],"ct":"FR","tp":"CS","ts":"2020-05-08T21:55:12Z","tX":525,"tY":368,"tags":{"contact:facebook":"https://www.facebook.com/ecuriedelongchamps/","name":"Camping à la ferme Les Écuries de Longchamps","phone":"+33475067918","website":"http://longchampequitation.fr/"}},"832214375":{"location":[44.842435,4.6032299],"ct":"FR","tp":"CS","ts":"2020-10-24T21:04:31Z","tX":525,"tY":368,"tags":{"name":"Camping municipal Le Chabrioux","source":"data.gouv.fr:DATAtourisme - 05/2020","website":"https://camping-chabrioux.fr"}},"894052725":{"location":[44.8929564,4.5807892],"ct":"FR","tp":"CS","ts":"2021-01-10T22:33:13Z","tX":525,"tY":368,"tags":{"name":"Chante-Alouette","source":"BDTopo IGN"}},"894052727":{"location":[44.912743,4.6974326],"ct":"FR","tp":"CS","ts":"2021-01-10T22:33:13Z","tX":525,"tY":368,"tags":{"name":"Fustier Gisèle","source":"BDTopo IGN"}},"894052730":{"location":[45.0652982,4.7910154],"ct":"FR","tp":"CS","ts":"2024-08-10T20:37:53Z","tX":525,"tY":368,"tags":{"addr:housenumber":"220","caravans":"yes","contact:email":"contact@camping-les-foulons.com","contact:facebook":"campinglesfoulons","drinking_water":"yes","name":"Les Foulons","phone":"+33 4 75 08 22 72","power_supply":"yes","shower":"yes","source:geometry":"BDTopo IGN","stars":"3","swimming_pool":"yes","tents":"yes","toilets":"yes","website":"https://www.camping-les-foulons.com/"}},"894052768":{"location":[45.0519592,4.7122841],"ct":"FR","tp":"CS","ts":"2021-01-10T22:33:13Z","tX":525,"tY":368,"tags":{"name":"Camping le Marchand","source:geometry":"BDTopo IGN"}},"894052769":{"location":[45.0389528,4.6897869],"ct":"FR","tp":"CS","ts":"2021-01-10T22:33:13Z","tX":525,"tY":368,"tags":{"name":"L'Auberge du Doux","short_name":"BDTopo IGN"}},"1282245422":{"location":[44.9799335,4.7961858],"ct":"FR","tp":"CR","ts":"2024-10-03T18:51:19Z","tX":525,"tY":368,"tags":{"capacity":"4","caravan_site":"motorhome_stopover","caravan_site:type":"village","caravans":"no","fee":"no","name":"Aire Camping-cars Saint-Romain-de-Lerps","opening_hours":"24/7","power_supply":"yes","sanitary_dump_station":"yes","seasonal":"no","surface":"asphalt","tents":"no","website":"https://en.ardeche-guide.com/accommodation/camping-sites/motorhomes-welcomed/aire-de-service-camping-cars-752637"}},"1287477850":{"location":[45.0230115,4.6106606],"ct":"FR","tp":"CR","ts":"2024-05-28T19:22:01Z","tX":525,"tY":368,"tags":{"bbq":"gas","caravan_site":"motorhome_stopover","caravan_site:type":"village","dog":"yes","fee":"no","name":"Aire de service camping-cars \"Empurany\"","power_supply":"yes","power_supply:fee":"donation","sanitary_dump_station":"yes","seasonal":"no","water_point":"yes","water_point:fee":"no","website":"https://www.ardeche-guide.com/camping/aire-de-service-camping-cars-empurany-5865317/"}},"1287524869":{"location":[45.0186622,4.9211702],"ct":"FR","tp":"CR","ts":"2024-05-28T23:17:13Z","tX":525,"tY":368,"tags":{"caravan_site":"motorhome_stopover","caravan_site:type":"village","fee":"no","maxstay":"48 hours","name":"Aire de camping-car Ouest Mairie Beaumont-Monteux","seasonal":"no","website":"https://en.ardeche-guide.com/accommodation/camping-sites/motorhomes-welcomed/aire-d-accueil-camping-car-6257157"}},"1287633508":{"location":[45.0109607,4.7019043],"ct":"FR","tp":"CR","ts":"2024-06-20T21:01:47Z","tX":525,"tY":368,"tags":{"capacity":"3","caravan_site":"motorhome_stopover","caravan_site:type":"village","fee":"no","name":"Aire de camping-car Colombier-le-Jeune","sanitary_dump_station":"yes","seasonal":"no","website":"https://www.ardeche-guide.com/camping/aire-de-service-accueil-camping-car-6257172/"}},"1287668927":{"location":[45.0659912,4.6939512],"ct":"FR","tp":"CR","ts":"2024-05-29T12:27:54Z","tX":525,"tY":368,"tags":{"capacity":"3","caravan_site":"motorhome_stopover","caravan_site:type":"village;church","fee":"no","name":"Aire de camping-car Colombier le Vieux.","opening_hours":"24/7","seasonal":"no","water_point":"yes","water_point:fee":"no","website":"https://www.ladrometourisme.com/fiches/aire-de-service-accueil-camping-car/"}},"1287684776":{"location":[45.0637189,4.8437913],"ct":"FR","tp":"CR","ts":"2024-05-29T13:27:42Z","tX":525,"tY":368,"tags":{"caravan_site":"motorhome_stopover","caravan_site:type":"town","fee":"no","name":"Aire communale de camping-cars Tournon-sur-Rhône","seasonal":"no","surface":"asphalt","website":"https://www.ladrometourisme.com/fiches/aire-daccueil-camping-cars-communale/"}},"1296620721":{"location":[44.9030157,4.6497932],"ct":"FR","tp":"CR","ts":"2024-06-27T12:25:52Z","tX":525,"tY":368,"tags":{"capacity":"4","caravan_site":"motorhome_stopover","caravan_site:type":"camp_site","fee":"no","maxstay":"48 hours","name":"Aire d'accueil et de services pour camping-cars Vernoux-en-Vivarais","power_supply":"yes","sanitary_dump_station":"yes","water_point":"yes","water_point:charge":"2 EUR","water_point:fee":"yes","website":"https://www.ardeche-buissonniere.fr/preparer-et-reserver/ou-dormir/campings/90958_aire-daccueil-et-de-services-pour-camping-cars/"}},"1499470914":{"location":[45.0392395,4.6885592],"ct":"FR","tp":"CS","ts":"2023-11-10T02:53:42Z","tX":525,"tY":368,"tags":{"addr:housenumber":"4640","addr:street":"Route du Doux","email":"accueil@camping-lesbergesdudoux.com","name":"Camping Les Berges du Doux","operator":"Camping les Berges du Doux","phone":"+33 4 75 06 79 10","ref":"100 467","stars":"3","website":"https://www.camping-lesbergesdudoux.com/"}},"3538788704":{"location":[44.9797649,4.7962201],"ct":"FR","tp":"SD","ts":"2024-05-12T20:02:25Z","tX":525,"tY":368,"tags":{"fee":"yes","water_point":"yes"}},"4215095617":{"location":[44.9871058,4.5796557],"ct":"FR","tp":"SD","ts":"2016-05-30T09:45:46Z","tX":525,"tY":368,"tags":{"access":"yes","fee":"yes"}},"11938418948":{"location":[45.0843992,4.6285929],"ct":"FR","tp":"CR","ts":"2024-05-29T10:35:05Z","tX":525,"tY":368,"tags":{"caravan_site":"motorhome_stopover","caravan_site:type":"village","fee":"no","maxstay":"2 nights","name":"Aire camping-car communale Saint-Félicien","power_supply":"yes","sanitary_dump_station":"yes","services:charge":"2 EUR","water_point":"yes","website":"https://en.ardeche-guide.com/accommodation/camping-sites/motorhomes-welcomed/aire-de-serviceaccueil-camping-car-communale-111230"}},"11940552460":{"location":[45.0368078,4.6521239],"ct":"FR","tp":"CR","ts":"2024-05-28T21:10:48Z","tX":525,"tY":368,"tags":{"caravan_site":"motorhome_stopover","caravan_site:type":"market;village","dog":"yes","fee":"no","name":"Aire de camping-car Place du marché - Arlebosc","sanitary_dump_station":"yes","seasonal":"no","water_point":"yes","website":"https://en.ardeche-guide.com/accommodation/camping-sites/motorhomes-welcomed/aire-de-serviceaccueil-camping-car-6257067"}},"11940698891":{"location":[45.0853059,4.6870087],"ct":"FR","tp":"CR","ts":"2024-05-28T22:35:51Z","tX":525,"tY":368,"tags":{"capacity":"4","caravan_site":"motorhome_stopover","caravan_site:type":"farm_shop","fee":"no","maxstay":"1 night","name":"Aire de Camping-car Ferme de Saule Lièvre","phone":"+33 04 75 06 10 17","seasonal":"no","website":"http://fermedesautelievre.fr/camping-car/"}},"4665702519":{"location":[44.8670932,4.8666676],"ct":"FR","tp":"SD","ts":"2017-02-05T16:52:34Z","tX":525,"tY":368,"tags":{"note":"Bing imagery is outdated","operator":"Relais Flot Bleu","source":"Mapillary;BDOrtho IGN"}},"4855228419":{"location":[44.9600966,4.8473851],"ct":"FR","tp":"SD","ts":"2017-05-15T08:24:00Z","tX":525,"tY":368,"tags":{"source":"Bing;gpx;memory"}},"7908672079":{"location":[45.0162022,4.8754551],"ct":"FR","tp":"SD","ts":"2024-05-12T19:55:51Z","tX":525,"tY":368,"tags":{"access":"yes","description":"borne Flot Bleu","fee":"no","motorhome":"designated","network":"Flot Bleu","water_point":"yes"}},"9735178919":{"location":[44.864689,4.864644],"ct":"FR","tp":"SD","ts":"2022-05-12T14:23:08Z","tX":525,"tY":368,"tags":{"description":"eau payante, jeton","name":"Vidange CC"}},"11940368203":{"location":[45.0230869,4.6101782],"ct":"FR","tp":"SD","ts":"2024-05-28T19:22:01Z","tX":525,"tY":368,"tags":{}},"11940552461":{"location":[45.0368324,4.6523049],"ct":"FR","tp":"SD","ts":"2024-05-28T21:10:48Z","tX":525,"tY":368,"tags":{"access":"yes","fee":"no"}},"11940625389":{"location":[44.9028554,4.6497488],"ct":"FR","tp":"SD","ts":"2024-06-27T12:25:52Z","tX":525,"tY":368,"tags":{"access":"yes","brand":"Euro-Relais","water_point":"yes"}},"11942073848":{"location":[45.0658942,4.6938336],"ct":"FR","tp":"SD","ts":"2024-05-29T12:27:54Z","tX":525,"tY":368,"tags":{"access":"yes","fee":"no"}},"12743122601":{"location":[45.0507833,4.8314781],"ct":"FR","tp":"CR","ts":"2025-04-09T20:53:07Z","tX":525,"tY":368,"tags":{"name":"Drive Leclerv"}}}