{"73297233":{"location":[44.7568201,4.7133979],"ct":"FR","tp":"CS","ts":"2022-02-24T07:23:13Z","tX":525,"tY":369,"tags":{"addr:place":"Quartier Pampelonne","contact:facebook":"https://www.facebook.com/campingalbanouardeche/","email":"campingalbanou@orange.fr","name":"Camping l'Albanou","operator":"Camping l'Albanou","phone":"+33 4 75 66 00 97","ref":"119 376","stars":"3","swimming_pool":"yes","website":"https://www.camping-albanou.com"}},"301841305":{"location":[44.6933394,4.7161891],"ct":"FR","tp":"CS","ts":"2022-02-24T07:34:31Z","tX":525,"tY":369,"tags":{"addr:place":"Quartier la Civelle","contact:mobile":"+33 6 20 03 09 41","email":"familyscampinglescivelles@gmail.com","name":"Camping les Civelles d'Ozon","operator":"Camping les Civelles d'Ozon","phone":"+33 6 46 25 91 60","ref":"128 365","stars":"2","website":"http://www.camping-ardeche-sud.fr"}},"301841306":{"location":[44.7025962,4.7393286],"ct":"FR","tp":"CS","ts":"2023-11-08T10:37:00Z","tX":525,"tY":369,"tags":{"addr:place":"Quartier le Chapelet","contact:mobile":"+33 4 92 28 38 48","email":"merle-roux@capfun.com;msaramito@capfun.com","name":"Domaine le Merle Roux","operator":"Capfun by FranceLoc","phone":"+33 4 75 85 84 14","ref":"119 557","stars":"4","website":"https://www.lemerleroux.com/"}},"322941561":{"location":[44.7246681,4.5980128],"ct":"FR","tp":"CS","ts":"2024-09-23T12:24:03Z","tX":525,"tY":369,"tags":{"addr:street":"Chemin du Camping","email":"ardechecamping07@gmail.com","name":"Ardèche Camping","operator":"Camping Ardèche Camping","phone":"+33 4 75 64 05 80","ref":"144 113","stars":"4","website":"https://www.ardechecamping.fr/","wikidata":"Q54136104"}},"346999437":{"location":[44.8254143,4.760643],"ct":"FR","tp":"CS","ts":"2022-02-24T07:34:31Z","tX":525,"tY":369,"tags":{"addr:street":"Chemin de la Garenne","email":"info@campinglagarenne-ardeche.fr","name":"Camping la Garenne","operator":"Camping la Garenne","phone":"+33 4 75 62 24 62","ref":"143 615","stars":"3","website":"https://www.campinglagarenne-ardeche.fr"}},"360676269":{"location":[44.8263285,4.6795973],"ct":"FR","tp":"CS","ts":"2023-11-03T13:46:15Z","tX":525,"tY":369,"tags":{"contact:mobile":"+33 4 75 65 22 80","email":"lagaredesamis@sfr.fr","name":"Camping la Gare des Amis","operator":"Camping la Gare des Amis","phone":"+33 6 25 04 43 34","ref":"177 894","stars":"3","website":"https://www.camping-lagaredesamis.com/"}},"363613882":{"location":[44.6585959,4.7762491],"ct":"FR","tp":"CS","ts":"2022-02-24T07:34:31Z","tX":525,"tY":369,"tags":{"addr:street":"Chemin du camping","contact:mobile":"+33 6 79 17 92 18","name":"Harmony","phone":"+33 4 75 00 13 56","ref":"121 472","stars":"3","website":"https://www.campingdecruas.com"}},"363613886":{"location":[44.6371125,4.7742309],"ct":"FR","tp":"CS","ts":"2025-03-14T20:34:19Z","tX":525,"tY":369,"tags":{"addr:city":"La Coucourde","addr:housenumber":"75","addr:postcode":"26740","addr:street":"Route Nationale 7","capacity":"30","email":"http://www.campingfloral.com/","name":"Floral","phone":"06 83 03 34 04"}},"455342600":{"location":[44.7818874,4.6190214],"ct":"FR","tp":"CS","ts":"2022-02-24T07:34:31Z","tX":525,"tY":369,"tags":{"email":"info@campingcoeurardeche.com","name":"Camping Cœur d'Ardèche","old_name":"Le Chambourlas","operator":"Camping Cœur d'Ardèche","phone":"+33 4 75 66 24 31","ref":"119 659","stars":"3","website":"https://www.campingcoeurardeche.com/"}},"455342620":{"location":[44.8091581,4.6365896],"ct":"FR","tp":"CS","ts":"2023-11-08T10:37:22Z","tX":525,"tY":369,"tags":{"addr:housenumber":"1910","addr:street":"Route des Plantas","alt_name":"Camping Les Plantas","email":"plantas@capfun.com","name":"Camping Domaine des Plantas","operator":"Capfun by FranceLoc","phone":"+33 4 75 66 21 53","ref":"101 034","stars":"4","website":"https://www.domainedesplantas.com/"}},"467835989":{"location":[44.7355009,4.6240779],"ct":"FR","tp":"CS","ts":"2023-11-08T10:37:11Z","tX":525,"tY":369,"tags":{"addr:street":"Espace Onclaire","contact:mobile":"+33 4 75 64 51 98","email":"moulin@onclaire.com","name":"Camping le Moulin d'Onclaire","operator":"Camping le Moulin d'Onclaire","phone":"+33 6 99 74 35 92","ref":"88 829","stars":"3","swimming_pool":"yes","website":"https://www.onclaire.com/"}},"469970229":{"location":[44.8080609,4.615225],"ct":"FR","tp":"CS","ts":"2024-07-30T22:20:41Z","tX":525,"tY":369,"tags":{"addr:housenumber":"135","addr:street":"Rue de la Dolce Via","caravans":"yes","contact:facebook":"https://www.facebook.com/campingmasdechampel/","email":"masdechampel@wanadoo.fr","fax":"+33 4 75 66 23 16","fee":"yes","internet_access":"wlan","name":"Camping le Mas de Champel","operator":"Camping Mas de Champel","phone":"+33 4 75 66 23 23","ref":"327 748","stars":"4","static_caravans":"yes","swimming_pool":"yes","tents":"yes","website":"https://www.masdechampel.com/"}},"469970586":{"location":[44.8071736,4.6307819],"ct":"FR","tp":"CS","ts":"2024-03-19T16:55:02Z","tX":525,"tY":369,"tags":{"addr:housenumber":"660","addr:place":"La Fereyre","addr:street":"Chemin de la Fereyre","caravans":"yes","contact:facebook":"https://www.facebook.com/eyrieux.camping","contact:mobile":"+33 6 48 26 82 68","drinking_water":"yes","email":"info@eyrieuxcamping.com","name":"Eyrieux Camping","operator":"Camping Eyrieux Camping","phone":"+33 4 75 66 30 08","power_supply":"yes","ref":"90 700","shower":"yes","stars":"4","tents":"yes","website":"https://www.eyrieuxcamping.com/"}},"505302605":{"location":[44.6883927,4.8548066],"ct":"FR","tp":"CS","ts":"2022-09-16T11:56:51Z","tX":525,"tY":369,"tags":{"addr:street":"Route de Marsanne","internet_access":"wlan","name":"La Poche","operator":"Brigitte et Jean Wilkens","phone":"+33 4 75 63 02 88"}},"568582603":{"location":[44.7629651,4.9149951],"ct":"FR","tp":"CS","ts":"2022-09-20T16:39:51Z","tX":525,"tY":369,"tags":{"access":"customers","fee":"yes","group_only":"yes","internet_access":"no","name":"Lieu de camps (privé)","operator":"Accueil St Joseph","sanitary_dump_station":"no","tents":"yes","wheelchair":"no"}},"718358940":{"location":[44.6586636,4.8917887],"ct":"FR","tp":"CS","ts":"2024-09-19T02:21:43Z","tX":525,"tY":369,"tags":{"addr:housenumber":"335","addr:postcode":"26740","addr:street":"Chemin du Camping","caravans":"yes","dog":"yes","fee":"yes","internet_access":"wlan","motorhome":"yes","name":"Les Bastets","phone":"+33 4 75 90 35 03","shower":"yes","stars":"4","swimming_pool":"yes","tents":"yes","toilets":"yes","website":"https://www.campinglesbastets.com/"}},"761095507":{"location":[44.5911176,4.7384421],"ct":"FR","tp":"CS","ts":"2024-10-08T01:59:34Z","tX":525,"tY":369,"tags":{"addr:housenumber":"1205","addr:street":"Chemin de l'Île Blanc","contact:mobile":"+33 4 75 51 20 05","email":"campingileblanc@gmail.com","name":"Camping de l'île Blanc","operator":"Camping de l'Île Blanc","phone":"+33 6 69 95 66 65","ref":"210 744","stars":"3","website":"https://www.camping-montelimar.com"}},"761095509":{"location":[44.7563002,4.7126803],"ct":"FR","tp":"CS","ts":"2023-11-08T10:37:15Z","tX":525,"tY":369,"tags":{"addr:street":"Chemin de Pampelonne","contact:mobile":"+33 6 16 27 77 94","email":"yves.pourchaire@orange.fr","name":"Camping de l'Ouvèze","operator":"Mr et Mme POURCHAIRE Yves","phone":"+33 4 75 29 66 57","ref":"395 800","stars":"2","website":"https://www.gites-de-france-ardeche.com/camping-436.html"}},"761095541":{"location":[44.6564937,4.6918662],"ct":"FR","tp":"CS","ts":"2022-02-24T07:34:34Z","tX":525,"tY":369,"tags":{"addr:street":"Le Rieutord","email":"campinglerieutord@orange.fr","name":"Camping municipal le Rieutord","operator":"Charron Danielle","phone":"+33 4 75 20 86 17","ref":"587 676","stars":"2","website":"http://www.camping-le-rieutord.com"}},"761112293":{"location":[44.8155036,4.6005322],"ct":"FR","tp":"CS","ts":"2023-11-08T10:37:05Z","tX":525,"tY":369,"tags":{"addr:street":"Chemin de la Croze","contact:phone":"+336 62 19 65 36","name":"Camping Les Châtaigniers","stars":"2","website":"https://www.camping-chataigniers-ardeche.fr/"}},"894052704":{"location":[44.6792128,4.8042517],"ct":"FR","tp":"CS","ts":"2021-01-10T22:33:13Z","tX":525,"tY":369,"tags":{"description":"Aire naturelle","name":"Le Véronne","source:geometry":"BDTopo IGN"}},"935876127":{"location":[44.7982445,4.7877002],"ct":"FR","tp":"CR","ts":"2024-05-17T23:43:56Z","tX":525,"tY":369,"tags":{"bbq":"no","capacity":"19","caravan_site":"motorhome_stopover","caravan_site:type":"town","caravans":"no","charge":"14.31 EUR","dog":"leashed","fee":"yes","internet_access":"wlan","internet_access:fee":"no","maxlength":"none","name":"Aire CAMPING-CAR PARK de La Voulte-sur-Rhone","network":"CAMPING-CAR PARK","opening_hours":"24/7","operator":"CAMPING-CAR PARK","power_supply":"yes","power_supply:maxcurrent":"6","sanitary_dump_station":"yes","tents":"no","toilets":"no","trailer":"yes","water_point":"yes","website":"https://www.campingcarpark.com/fr_FR/sejour/aire-etape-camping-car/auvergne-rhone-alpes/07-ardeche/voulte-sur-rhone#0"}},"968442266":{"location":[44.7289459,4.5916668],"ct":"FR","tp":"CR","ts":"2025-04-20T14:42:13Z","tX":525,"tY":369,"tags":{"addr:street":"Avenue de la Gare","bbq":"no","capacity":"21","caravan_site":"motorhome_stopover","caravan_site:type":"town","caravans":"no","charge":"14.61 EUR","fee":"yes","internet_access":"wlan","internet_access:fee":"no","maxlength":"none","name":"Camping-Car Park","network":"CAMPING-CAR PARK","operator":"Camping-car Park","power_supply":"yes","power_supply:capacity":"22","power_supply:maxcurrent":"6","sanitary_dump_station":"yes","sanitary_dump_station:chemical_toilet":"yes","sanitary_dump_station:grey_water":"yes","tents":"no","trailer":"no","water_point":"yes","website":"https://www.campingcarpark.com/fr_FR/sejour/aire-etape-camping-car/auvergne-rhone-alpes/07-ardeche/privas"}},"1232557547":{"location":[44.8229994,4.8084203],"ct":"FR","tp":"CR","ts":"2024-10-03T18:52:18Z","tX":525,"tY":369,"tags":{"capacity":"10","caravan_site":"motorhome_stopover","caravan_site:type":"river","caravans":"no","fee":"no","name":"Beauchastel","opening_hours":"24/7","power_supply":"no","sanitary_dump_station":"no","seasonal":"no","tents":"no"}},"1273372275":{"location":[44.6460331,4.8719443],"ct":"FR","tp":"CR","ts":"2024-05-29T13:29:15Z","tX":525,"tY":369,"tags":{"capacity":"5","caravan_site":"motorhome_stopover","caravan_site:type":"village","fee":"no","maxstay":"48 hours","name":"Aire Camping-Cars de Marsanne","sanitary_dump_station":"yes","seasonal":"no","water_point":"yes","website":"https://www.ladrometourisme.com/fiches/aire-camping-cars-de-marsanne/"}},"1287659484":{"location":[44.7559611,4.8665879],"ct":"FR","tp":"CR","ts":"2024-05-29T11:51:57Z","tX":525,"tY":369,"tags":{"capacity":"6","caravan_site":"motorhome_stopover","caravan_site:type":"farm","charge":"5 EUR","charge:conditional":"no @ (france_passion)","fee":"yes","laundry":"yes","name":"Aire de camping car à la Ferme chez Matt et Lili","network":"France Passion","power_supply":"yes","power_supply:charge":"2 EUR","power_supply:fee":"yes","seasonal":"no","surface":"grass","website":"https://www.ladrometourisme.com/fiches/aire-de-camping-car-a-la-ferme-chez-matt-et-lili/"}},"1294598571":{"location":[44.7078073,4.6587536],"ct":"FR","tp":"CR","ts":"2024-06-20T21:26:54Z","tX":525,"tY":369,"tags":{"caravan_site":"motorhome_stopover","caravan_site:type":"parking_lot","fee":"yes","name":"Aire de camping-car de Chomérac","sanitary_dump_station":"yes","water_point":"yes"}},"1348215262":{"location":[44.7997319,4.8844882],"ct":"FR","tp":"CS","ts":"2025-01-03T12:00:02Z","tX":525,"tY":369,"tags":{"name":"Chez Philippe"}},"1368826663":{"location":[44.7038172,4.7985591],"ct":"FR","tp":"SD","ts":"2025-03-18T20:27:16Z","tX":525,"tY":369,"tags":{}},"1388956074":{"location":[44.7546581,4.8696165],"ct":"FR","tp":"CS","ts":"2025-05-23T09:08:39Z","tX":525,"tY":369,"tags":{"access":"customers","addr:city":"GRANE","addr:housenumber":"4860","addr:postcode":"26400","addr:street":"Route de Loriol","camp_site":"serviced","caravans":"yes","charge":"5€","dog":"leashed","fee":"yes","name":"CAMPING LA FERME DE MATT ET LILI","operator":"LA FERME DE MATT ET LILI","payment:cash":"yes","payment:cheque":"yes","payment:credit_cards":"yes","tents":"yes","wheelchair":"limited"}},"1388958261":{"location":[44.7553867,4.868632],"ct":"FR","tp":"CS","ts":"2025-05-23T10:01:00Z","tX":525,"tY":369,"tags":{"access":"customers","addr:city":"GRANE","addr:housenumber":"4860","addr:postcode":"26400","addr:street":"Route de Loriol","camp_site":"serviced","caravans":"yes","charge":"5€","fee":"yes","name":"camping 2 la ferme de Matt & Lili","operator":"la ferme de Matt & Lili","payment:cash":"yes","payment:cheque":"yes","payment:credit_cards":"yes","tents":"yes","wheelchair":"limited"}},"4215105754":{"location":[44.8074259,4.7916472],"ct":"FR","tp":"SD","ts":"2016-05-30T09:49:57Z","tX":525,"tY":369,"tags":{"access":"yes","fee":"yes"}},"11147902324":{"location":[44.8217345,4.6159503],"ct":"FR","tp":"CS","ts":"2023-08-27T09:32:31Z","tX":525,"tY":369,"tags":{}},"11942005086":{"location":[44.8097202,4.8801962],"ct":"FR","tp":"CR","ts":"2024-05-29T12:05:06Z","tX":525,"tY":369,"tags":{"capacity":"2","caravan_site":"motorhome_stopover","caravan_site:type":"farm","charge":"7 EUR","check_in":"16:00-19:00","fee":"yes","name":"Aire de Camping-cars Ferme de l'Autruche Drômoise","opening_hours":"Apr-Oct","picnic_area":"yes","power_supply":"yes","sanitary_dump_station":"no","surface":"grass","tents":"no","water_point":"no","website":"https://www.ladrometourisme.com/fiches/aire-daccueil-camping-cars-a-la-ferme/"}},"4588620423":{"location":[44.7196377,4.7879711],"ct":"FR","tp":"SD","ts":"2022-10-18T10:49:41Z","tX":525,"tY":369,"tags":{"water_point":"yes"}},"5085140934":{"location":[44.7070035,4.6581079],"ct":"FR","tp":"SD","ts":"2024-06-20T21:26:54Z","tX":525,"tY":369,"tags":{"access":"yes","fee":"no"}},"10881997732":{"location":[44.6478755,4.7907026],"ct":"FR","tp":"SD","ts":"2023-05-09T21:46:37Z","tX":525,"tY":369,"tags":{}},"11824868012":{"location":[44.6458981,4.8720007],"ct":"FR","tp":"SD","ts":"2024-04-17T14:05:08Z","tX":525,"tY":369,"tags":{"access":"yes","fee":"no","seasonal":"no"}}}