{"26858682":{"location":[44.2969829,4.7868612],"ct":"FR","tp":"CS","ts":"2015-08-15T18:49:34Z","tX":525,"tY":371,"tags":{"name":"La Simioune","phone":"+33 9 90 30 44 62","stars":"2"}},"114075765":{"location":[44.1462507,4.7943912],"ct":"FR","tp":"CS","ts":"2023-07-30T11:23:45Z","tX":525,"tY":371,"tags":{"addr:city":"Orange","addr:country":"FR","addr:state":"Provence-Alpes-Côte-d'Azur","addr:street":"Rue Alexis Carrel","capacity:tents":"80","caravans":"yes","contact:email":"campingmanon@yahoo.fr","contact:housenumber":"1321","internet_access":"wlan","name":"Camping Manon","old_name":"Camping Le Jonquier","phone":"+33 4 32 81 94 96","postal_code":"84100","ref:FR:SIREN":"?","ref:FR:SIRET":"75373752700014","shower":"yes","start_date":"2014-01-20","swimming_pool":"yes","tents":"yes","toilets":"yes","website":"https://www.camping-manon.com/","wheelchair":"no"}},"127068590":{"location":[44.2426935,4.7300796],"ct":"FR","tp":"CS","ts":"2024-05-18T14:19:04Z","tX":525,"tY":371,"tags":{"addr:city":"Mondragon","addr:country":"FR","addr:place":"Quartier La Maresque","addr:postcode":"84430","addr:street":"Route de Bollène","email":"contact@camping-pinede-provence.com","fee":"yes","internet_access":"wlan","landuse":"tourism","name":"Camping La Pinède","old_name":"Camping municipal de Mondragon","pets":"allowed","phone":"+33 490 408 298","playground":"yes","sanitary_dump_station":"yes","source":"CCPRO 2015","stars":"3","static_caravans":"yes","swimming_pool":"yes","tennis":"yes","website":"https://www.camping-pinede-provence.com","wheelchair":"yes"}},"128037161":{"location":[44.3042882,4.5850559],"ct":"FR","tp":"CS","ts":"2022-02-24T07:23:13Z","tX":525,"tY":371,"tags":{"addr:place":"Le Pontet","contact:email":"contact@campinglepontet.com","contact:facebook":"https://www.facebook.com/Camping-Le-Pontet-106963299399105/","contact:phone":"+33 4 75 04 63 07","contact:website":"http://www.campinglepontet.com","email":"contact@campinglepontet.com","internet_access":"wlan","internet_access:fee":"no","name":"Camping le Pontet","operator":"Camping le Pontet","phone":"+33 4 75 04 63 07","ref":"119 395","stars":"3","swimming_pool":"yes","website":"http://www.campinglepontet.com"}},"129922483":{"location":[44.1078098,4.6556571],"ct":"FR","tp":"CR","ts":"2024-08-19T14:36:42Z","tX":525,"tY":371,"tags":{"capacity":"20","caravan_site":"motorhome_stopover","caravan_site:type":"village","fee":"no","name":"Aire de service et de repos à Laudun l’Ardoise (Arènes)","playground":"yes","seasonal":"no","surface":"asphalt","website":"https://www.tourismegard.com/fr/fiche/hotellerie-plein-air/aire-de-service-et-de-repos-a-laudun-l-ardoise-arenes-laudun-l-ardoise_TFO5940989/"}},"148849370":{"location":[44.1755146,4.635592],"ct":"FR","tp":"CS","ts":"2024-09-06T21:49:37Z","tX":525,"tY":371,"tags":{"addr:housenumber":"1534","addr:street":"Route de Carmignan","capacity":"30","name":"La Coquille","phone":"+33 06 80 01 26 09","ref:CD30":"35","source":"cadastre-dgi-fr source : Direction Générale des Impôts - Cadastre. Mise à jour : 2012","stars":"3","website":"https://campinglacoquille.com/"}},"208126322":{"location":[44.1268113,4.7047286],"ct":"FR","tp":"CR","ts":"2024-10-07T18:36:36Z","tX":525,"tY":371,"tags":{"bbq":"no","capacity":"24","caravan_site":"motorhome_stopover","caravan_site:type":"river","caravans":"no","charge":"15.22 EUR","dog":"leashed","fee":"yes","internet_access":"wlan","internet_access:fee":"no","maxlength":"9","name":"Camping-car Park Codolet","network":"CAMPING-CAR PARK","opening_hours":"24/7","operator":"CAMPING-CAR PARK","power_supply":"yes","power_supply:fee":"no","power_supply:maxcurrent":"6","sanitary_dump_station":"yes","seasonal":"no","surface":"fine_gravel","tents":"no","trailer":"no","water_point":"yes","website":"https://www.campingcarpark.com/fr_FR/sejour/aire-etape-camping-car/occitanie/30-gard/codolet"}},"285719668":{"location":[44.3002949,4.5729624],"ct":"FR","tp":"CS","ts":"2022-02-24T07:34:31Z","tX":525,"tY":371,"tags":{"addr:street":"Quartier du Moulin","contact:mobile":"+33 4 37 64 22 34","contact:phone":"+33 4 75 04 66 20","contact:website":"http://www.camping-indigo.com/fr/camping-indigo-le-moulin-ardeche.html","email":"lemoulin@huttopia.com","name":"Camping Huttopia le Moulin","operator":"Huttopia Saint-Martin d'Ardèche","phone":"+33 4 75 04 66 20","ref":"85 554","stars":"3","website":"https://europe.huttopia.com/site/camping-le-moulin-ardeche/"}},"287582528":{"location":[44.1718473,4.635904],"ct":"FR","tp":"CS","ts":"2017-07-23T20:33:03Z","tX":525,"tY":371,"tags":{"addr:street":"Route de Carmignan","capacity":"120","name":"Les Genêts d'Or","ref:CD30":"138","source":"cadastre-dgi-fr source : Direction Générale des Impôts - Cadastre. Mise à jour : 2012","stars":"4"}},"299822091":{"location":[44.291244,4.839697],"ct":"FR","tp":"CS","ts":"2022-02-24T07:43:49Z","tX":525,"tY":371,"tags":{"addr:housenumber":"110","addr:street":"Chemin du Camping","caravans":"yes","internet_access":"wlan","name":"Camping le Pont du Lez","tents":"yes","website":"http://www.campinglepontdulez.com"}},"346626199":{"location":[44.0984033,4.6587872],"ct":"FR","tp":"CS","ts":"2024-09-07T22:10:44Z","tX":525,"tY":371,"tags":{"addr:street":"Lieu-dit Gazelle, chemin de la Carriérasse","capacity":"77","contact:email":"campingledolium@gmail.com","internet_access":"wlan","internet_access:fee":"no","name":"Le Dolium","old_name":"Le César","phone":"04 66 39 27 07","ref:CD30":"81","stars":"3","website":"https://www.campingledolium.fr/"}},"366656369":{"location":[44.2830059,4.613714],"ct":"FR","tp":"CS","ts":"2024-03-08T14:20:15Z","tX":525,"tY":371,"tags":{"capacity":"55","caravans":"yes","dog":"yes","drinking_water":"yes","fee":"yes","internet_access":"wlan","name":"Camping des Ponts","power_supply":"yes","shower":"yes","stars":"2","tents":"yes","toilets":"yes"}},"386030318":{"location":[44.2152876,4.7446124],"ct":"FR","tp":"CS","ts":"2023-11-03T20:57:57Z","tX":525,"tY":371,"tags":{"addr:city":"Mornas","addr:country":"FR","addr:postcode":"84550","addr:street":"Route d'Uchaux","capacity":"79","email":"beauregard@franceloc.fr","internet_access":"wlan","landuse":"tourism","name":"Camping Beauregard","operator":"Franceloc","pets":"allowed","phone":"+33 4 90 37 02 08","playground":"yes","sanitary_dump_station":"yes","source":"CCPRO 2015","stars":"4","swimming_pool":"yes","tennis":"yes","website":"https://www.camping-beauregard.com/","wheelchair":"yes"}},"507796309":{"location":[44.1457859,4.6769915],"ct":"FR","tp":"CR","ts":"2024-08-19T14:48:53Z","tX":525,"tY":371,"tags":{"addr:street":"Route d'Orsan","capacity":"25","caravan_site":"motorhome_stopover","caravan_site:type":"winery","fee":"no","name":"Aire de camping-car Les Vignerons Chusclan","ref:CD30":"258","sanitary_dump_station":"yes","water_point":"yes","website":"https://www.tourismegard.com/fr/fiche/hotellerie-plein-air/aire-de-services-et-de-repos-a-chusclan-chusclan_TFO5940826/"}},"507899663":{"location":[44.1040057,4.6641229],"ct":"FR","tp":"CR","ts":"2024-10-23T11:42:40Z","tX":525,"tY":371,"tags":{"addr:street":"cave coopérative","capacity":"8","caravan_site":"motorhome_stopover","caravan_site:type":"winery","fee":"no","name":"Aire de camping-car de la cave coopérative de Laudun-Chusclan","ref:CD30":"274","seasonal":"no"}},"509503138":{"location":[44.2653257,4.5975919],"ct":"FR","tp":"SD","ts":"2023-12-29T17:22:34Z","tX":525,"tY":371,"tags":{"addr:street":"route d'Ardèche","capacity":"3","caravan_site:type":"winery","fee":"no","name":"Aire de camping-car Cave Coopérative Saint-Paulet-de-Caisson","ref:CD30":"242","water_point":"yes"}},"509503139":{"location":[44.2902503,4.5897426],"ct":"FR","tp":"CS","ts":"2024-11-20T09:11:13Z","tX":525,"tY":371,"tags":{"capacity":"100","name":"Le Peyrolais","ref:CD30":"102","stars":"3"}},"509503140":{"location":[44.2755498,4.614726],"ct":"FR","tp":"CS","ts":"2023-04-12T13:25:33Z","tX":525,"tY":371,"tags":{"addr:street":"90 route de Barjac","capacity":"50","name":"Camping Les Acacias","ref:CD30":"122"}},"509681126":{"location":[44.1854046,4.6136554],"ct":"FR","tp":"CR","ts":"2024-09-28T00:35:04Z","tX":525,"tY":371,"tags":{"addr:street":"chemin de la Chapelle","capacity":"5","caravan_site":"motorhome_stopover","caravan_site:type":"winery","name":"Aire de camping-car Domaine de la Romance","ref:CD30":"253","website":"https://www.domainelaromance.com/"}},"509684070":{"location":[44.1568815,4.6716077],"ct":"FR","tp":"CS","ts":"2017-07-23T20:41:58Z","tX":525,"tY":371,"tags":{"addr:street":"32 Chemin du ravin","capacity":"27","name":"Les Bergassons Nord","ref:CD30":"125"}},"509685330":{"location":[44.1048541,4.6078811],"ct":"FR","tp":"CR","ts":"2024-10-01T21:08:32Z","tX":525,"tY":371,"tags":{"addr:street":"rond point des 4 chemins","capacity":"6","caravan_site":"motorhome_stopover","caravan_site:type":"winery","name":"Aire de camping-car Vignerons les quatre chemins","phone":"+33 4 66 82 81 85","ref:CD30":"263"}},"509687159":{"location":[44.0953505,4.7014733],"ct":"FR","tp":"PK","ts":"2024-10-01T22:01:59Z","tX":525,"tY":371,"tags":{"motorhome":"yes","parking":"surface","surface":"asphalt"}},"509687576":{"location":[44.196679,4.6535892],"ct":"FR","tp":"CR","ts":"2024-04-19T20:10:35Z","tX":525,"tY":371,"tags":{"addr:street":"route de Bagnols D148","capacity":"15","caravan_site":"motorhome_stopover","caravan_site:type":"winery","fee":"no","name":"Aire de Camping-Cars La Cave Coopérative de Vénéjan","ref:CD30":"275","sanitary_dump_station":"yes","seasonal":"no","source:name":"https://www.cavescooperatives.fr/2016/07/venejan-gard.html","surface":"grass","water_point":"yes","website":"https://www.venejan.fr/cadre-de-vie/les-equipements"}},"670798337":{"location":[44.1834667,4.8003227],"ct":"FR","tp":"CR","ts":"2024-09-28T00:37:39Z","tX":525,"tY":371,"tags":{"capacity":"6","caravan_site":"motorhome_stopover","caravan_site:type":"farm_shop","charge":"14 EUR","contact:phone":"+336 10 56 45 65","fee":"yes","name":"Aire de la Grappe","power_supply":"yes","produce":"vegetables","water_point":"yes","website":"https://airedelagrappe.com/"}},"695698130":{"location":[44.3034895,4.584098],"ct":"FR","tp":"CS","ts":"2019-06-07T19:21:45Z","tX":525,"tY":371,"tags":{"contact:email":"contact@campinglepontet.com","contact:phone":"+33 4 75 04 63 07","contact:website":"http://www.campinglepontet.com","internet_access":"wlan","internet_access:fee":"no","name":"Le Pontet","stars":"3"}},"739186808":{"location":[44.3089997,4.7542085],"ct":"FR","tp":"CS","ts":"2023-11-09T03:41:28Z","tX":525,"tY":371,"tags":{"addr:city":"Bollène","addr:housenumber":"462","addr:postcode":"84500","addr:street":"Montée de Barry","contact:email":"contactvalleedebarry@orange.fr","contact:phone":"+33 4 90 30 13 20","name":"Domaine La Vallée de Barry","stars":"5","website":"https://www.valleedebarry.com/"}},"761095510":{"location":[44.2823631,4.6155573],"ct":"FR","tp":"CS","ts":"2024-03-08T14:20:15Z","tX":525,"tY":371,"tags":{"addr:housenumber":"285","addr:street":"Chemin du Pont Cassé","email":"info@campingdelaplage.com","name":"Camping de la Plage","operator":"Camping de la Plage","phone":"+33 4 75 04 69 46","ref":"143 858","stars":"3","website":"https://www.campingdelaplage.com/"}},"761095529":{"location":[44.2814682,4.6198207],"ct":"FR","tp":"CS","ts":"2024-03-08T14:20:15Z","tX":525,"tY":371,"tags":{"addr:housenumber":"400","addr:street":"Chemin du Pont Cassé","alt_name":"Chez les Ch'Tis","contact:mobile":"+33 6 19 06 23 08","email":"karinetaupe@gmail.com","name":"Camping le Mas Sud Ardèche","operator":"Camping le Mas Sud Ardèche","phone":"+33 4 75 04 67 93","ref":"88 822","stars":"3","website":"http://www.camping-sud-ardeche.fr"}},"832206442":{"location":[44.3025209,4.8496391],"ct":"FR","tp":"CS","ts":"2023-11-09T03:41:14Z","tX":525,"tY":371,"tags":{"internet_access":"wlan","name":"Camping le Bois des Roches","source":"data.gouv.fr:DATAtourisme - 05/2020","stars":"4","website":"https://www.camping-provence-drome.com/"}},"894052709":{"location":[44.3257636,4.6192452],"ct":"FR","tp":"CS","ts":"2024-05-28T20:46:23Z","tX":525,"tY":371,"tags":{"name":"Le Pavillon","website":"https://www.gorges-ardeche-pontdarc.fr/hotellerie-plein-air/camping-du-pavillon-saint-marcel-dardeche/"}},"894052786":{"location":[44.2729219,4.5788068],"ct":"FR","tp":"CS","ts":"2021-01-10T22:33:13Z","tX":525,"tY":371,"tags":{"description":"Aire naturelle","name":"Les Oliviers","source":"BDTopo IGN"}},"911720814":{"location":[44.2455657,4.8287051],"ct":"FR","tp":"CR","ts":"2024-04-16T20:28:04Z","tX":525,"tY":371,"tags":{"access":"yes","addr:street":"Avenue du Comtat Venaissin","capacity":"10","caravan_site":"motorhome_stopover","caravan_site:type":"parking_lot","description":"Services non disponible durant l'hivers.","fee":"no","name":"Rochegude Aire Municipale","operator":"Ville de Rochegude","power_supply":"no","sanitary_dump_station":"yes","sanitary_dump_station:chemical_toilet":"yes","sanitary_dump_station:grey_water":"yes","sanitary_dump_station:round_drain":"yes","seasonal":"yes","supervised":"no","tents":"no","toilets":"yes","water_point":"yes","website":"https://www.ladrometourisme.com/de/fiches/aire-camping-cars-de-rochegude/","wheelchair":"yes"}},"1115033613":{"location":[44.2885021,4.838115],"ct":"FR","tp":"CR","ts":"2024-05-29T13:23:12Z","tX":525,"tY":371,"tags":{"capacity":"2","caravan_site":"motorhome_stopover","caravan_site:type":"winery","fee":"no","name":"Suze-la-Rousse"}},"1237635130":{"location":[44.1547605,4.9181367],"ct":"FR","tp":"CR","ts":"2024-01-06T21:58:00Z","tX":525,"tY":371,"tags":{"caravan_site":"motorhome_stopover","caravan_site:type":"winery","fee":"no","name":"Domaine Rigot","power_supply":"yes","water_point":"yes"}},"1273379437":{"location":[44.2467045,4.8304774],"ct":"FR","tp":"CR","ts":"2024-04-17T14:33:29Z","tX":525,"tY":371,"tags":{"capacity":"10","caravan_site":"motorhome_stopover","caravan_site:type":"village","fee":"no","name":"Aire Camping-Cars du Potager","sanitary_dump_station":"yes","sanitary_dump_station:chemical_toilet":"yes","sanitary_dump_station:grey_water":"yes","tents":"no","toilets":"yes","water_point":"yes"}},"1279936914":{"location":[44.227541,4.6228127],"ct":"FR","tp":"CR","ts":"2024-05-05T15:59:09Z","tX":525,"tY":371,"tags":{"access":"yes","addr:city":"Saint-Alexandre","addr:postcode":"30130","addr:street":"route des remparts","capacity":"10","caravan_site":"motorhome_stopover","caravan_site:type":"village","description":"Aire de camping-car","fee":"no","name":"Aire Communale Saint-Alexandre","operator":"Ville de Saint-Alexandre","power_supply":"no","ref:CD30":"267","sanitary_dump_station":"yes","sanitary_dump_station:chemical_toilet":"yes","sanitary_dump_station:grey_water":"yes","sanitary_dump_station:round_drain":"yes","supervised":"no","water_point":"yes"}},"4987253491":{"location":[44.2895963,4.5924459],"ct":"FR","tp":"CS","ts":"2017-07-22T22:16:43Z","tX":525,"tY":371,"tags":{"addr:street":"village","capacity":"100","name":"Le Peyrolais","ref:CD30":"102","stars":"3"}},"6695248785":{"location":[44.2926472,4.5858049],"ct":"FR","tp":"CS","ts":"2019-08-08T16:05:37Z","tX":525,"tY":371,"tags":{"name":"Camping sauvage"}},"8592064184":{"location":[44.2459696,4.8283028],"ct":"FR","tp":"CR","ts":"2024-10-08T17:34:02Z","tX":525,"tY":371,"tags":{"capacity":"10","caravan_site":"motorhome_stopover","caravan_site:type":"village","fee":"no","group_only":"yes","name":"Potager Rochegude","sanitary_dump_station:chemical_toilet":"yes","sanitary_dump_station:grey_water":"yes","surface":"grass","website":"https://www.dromeprovencale.fr/camping/aire-camping-cars-du-potager/"}},"10115793878":{"location":[44.1685453,4.6197215],"ct":"FR","tp":"CR","ts":"2024-05-29T23:13:57Z","tX":525,"tY":371,"tags":{"capacity":"2","caravan_site":"motorhome_stopover","caravan_site:type":"parking_lot","fee":"no","name":"Aire Bagnols-sur-Cèze","sanitary_dump_station":"yes","seasonal":"no","water_point":"yes"}},"11837252553":{"location":[44.3318472,4.79055],"ct":"FR","tp":"CR","ts":"2024-04-22T11:13:03Z","tX":525,"tY":371,"tags":{"capacity":"3","caravan_site":"motorhome_stopover","caravan_site:type":"village","caravans":"no","fee":"no","maxstay":"48 hours","name":"Aire de camping car de Saint Restitut","opening_hours":"24/7","power_supply":"no","sanitary_dump_station":"yes","seasonal":"no","tents":"no","website":"https://www.drome-sud-provence.com/de/campingplaetze/air-de-camping-car/"}},"11942123309":{"location":[44.3319067,4.863317],"ct":"FR","tp":"CR","ts":"2024-07-02T10:20:39Z","tX":525,"tY":371,"tags":{"capacity":"6","caravan_site":"motorhome_stopover","caravan_site:type":"farm","charge":"2 EUR","fee":"yes","name":"Aire Camping-Cars privée du Domaine Saint Guéry","sanitary_dump_station":"yes"}},"11944670086":{"location":[44.2621222,4.6629157],"ct":"FR","tp":"CR","ts":"2024-05-30T10:31:03Z","tX":525,"tY":371,"tags":{"capacity":"28","caravan_site":"motorhome_stopover","caravan_site:type":"highway","charge":"12.56 EUR","dog":"yes","fee":"yes","name":"Aire de camping-cars Lamotte-du-Rhône","network":"AirePark","opening_hours":"24/7","power_supply":"yes","sanitary_dump_station":"yes","water_point":"yes","website":"https://www.aireparkreservation.com/aires-camping-cars/provence-alpes-cote-azur/vaucluse/lamotte-du-rhone"}},"5981959693":{"location":[44.3309779,4.7907557],"ct":"FR","tp":"SD","ts":"2018-10-13T21:17:06Z","tX":525,"tY":371,"tags":{"access":"yes","fee":"no","water_point":"yes"}},"8465314204":{"location":[44.1683589,4.61936],"ct":"FR","tp":"SD","ts":"2024-05-29T23:13:57Z","tX":525,"tY":371,"tags":{"drinking_water":"yes","fee":"no","operator":"Ville de Bagnols-sur-Cèze","sanitary_dump_station:chemical_toilet":"yes","sanitary_dump_station:grey_water":"yes","sanitary_dump_station:round_drain":"yes","water_point":"yes"}},"8465335626":{"location":[44.2275112,4.6227736],"ct":"FR","tp":"SD","ts":"2024-05-05T15:59:09Z","tX":525,"tY":371,"tags":{"drinking_water":"yes","fee":"no","operator":"Ville de Saint-Alexandre","water_point":"yes"}},"8465366146":{"location":[44.2455517,4.8288091],"ct":"FR","tp":"SD","ts":"2021-11-20T14:40:26Z","tX":525,"tY":371,"tags":{"description":"Station de vidange pour Camping-car. Services non disponible durant l'hivers.","fee":"no","operator":"Ville de Rochegude","sanitary_dump_station:chemical_toilet":"yes","sanitary_dump_station:grey_water":"yes","sanitary_dump_station:round_drain":"yes","water_point":"yes"}},"8995168987":{"location":[44.3005281,4.5722856],"ct":"FR","tp":"SD","ts":"2021-08-10T06:44:56Z","tX":525,"tY":371,"tags":{"access":"customers"}},"11379987327":{"location":[44.1455012,4.6771647],"ct":"FR","tp":"SD","ts":"2023-11-27T17:13:13Z","tX":525,"tY":371,"tags":{"drinking_water":"yes"}},"11824948395":{"location":[44.2895404,4.8479573],"ct":"FR","tp":"SD","ts":"2024-04-17T14:36:30Z","tX":525,"tY":371,"tags":{"access":"yes","fee":"no","motorhome":"designated","name":"Aire de vidange – Camping-Cars de Suze la Rousse"}},"11831646628":{"location":[44.1964456,4.6534704],"ct":"FR","tp":"SD","ts":"2024-04-19T20:10:35Z","tX":525,"tY":371,"tags":{}}}