{"58000980":{"location":[43.9848724,4.8226822],"ct":"FR","tp":"CS","ts":"2024-11-24T12:55:28Z","tX":525,"tY":372,"tags":{"addr:city":"Avignon","addr:postcode":"84000","addr:street":"Ile de la Barthelasse","caravans":"yes","landuse":"tourism","name":"Parc des Libertés","opening_hours":"Apr 15-Sep 15","tents":"yes"}},"96883677":{"location":[43.9537553,4.7987916],"ct":"FR","tp":"CS","ts":"2023-02-23T16:19:24Z","tX":525,"tY":372,"tags":{"caravans":"yes","description":"Camping Auberge hôtel de jeunes","landuse":"tourism","name":"Camping Bagatelle","opening_hours":"Mo-Su 08:00-20:00","phone":"+33 4 90 86 30 39","source":"survey","stars":"3","tents":"yes","website":"https://www.campingbagatelle.com"}},"96883703":{"location":[43.9554696,4.803914],"ct":"FR","tp":"CS","ts":"2023-04-01T21:08:03Z","tX":525,"tY":372,"tags":{"caravans":"yes","email":"camping.lepontdavignon@orange.fr","landuse":"tourism","motorhome":"yes","name":"Camping du Pont d'Avignon","operator":"Aquadis Loisirs","phone":"+33 4 90806350","shower":"yes","source":"cadastre-dgi-fr source : Direction Générale des Impôts - Cadastre;mise à jour : 2011","tents":"yes","toilets":"yes","website":"https://www.aquadis-loisirs.com/camping-du-pont-d-avignon/"}},"130797123":{"location":[43.9671244,4.8192931],"ct":"FR","tp":"CS","ts":"2019-03-22T20:05:17Z","tX":525,"tY":372,"tags":{"landuse":"tourism","name":"Les Deux Rhône"}},"134120771":{"location":[43.9751356,4.8827393],"ct":"FR","tp":"CS","ts":"2019-03-22T20:05:18Z","tX":525,"tY":372,"tags":{"landuse":"tourism","name":"Camping du Grand Bois","source":"cadastre-dgi-fr source : Direction Générale des Impôts - Cadastre. Mise à jour : 2011"}},"207481186":{"location":[43.8441861,4.782372],"ct":"FR","tp":"CS","ts":"2019-03-22T20:05:26Z","tX":525,"tY":372,"tags":{"landuse":"tourism","name":"Le Micocouliers","phone":"+33 4 90 95 81 49"}},"266793336":{"location":[44.0582615,4.8287806],"ct":"FR","tp":"PK","ts":"2024-10-12T17:11:30Z","tX":525,"tY":372,"tags":{"motorhome":"yes","parking":"surface"}},"271051973":{"location":[43.9891574,4.9131909],"ct":"FR","tp":"CS","ts":"2024-02-16T08:44:24Z","tX":525,"tY":372,"tags":{"caravans":"yes","drinking_water":"yes","landuse":"tourism","name":"Camping Avignon Parc","opening_hours":"Mo-Fr 09:00-18:00; Sa 09:00-13:00","operator":"Ciela Village","phone":"+33 4 90 31 00 51","power_supply":"yes","ref:FR:SIRET":"51159651200026","shower":"yes","stars":"4","tents":"yes","toilets":"yes","website":"https://www.campingavignonparc.com/"}},"303899951":{"location":[44.08096,4.8765174],"ct":"FR","tp":"CS","ts":"2023-11-11T18:14:01Z","tX":525,"tY":372,"tags":{"addr:city":"Courthézon","addr:country":"FR","addr:street":"Chemin Louise Michel","capacity":"58","contact:housenumber":"171","email":"campinglessources@wanadoo.fr","internet_access":"no","landuse":"tourism","name":"Camping les Sources","phone":"+33 4 90 30 09 65","postal_code":"84350","restaurant":"yes","source":"CCPRO 2015","stars":"5","swimming_pool":"yes","website":"https://www.domainelessources.com/CAMP.htm","wheelchair":"no"}},"386021263":{"location":[44.041345,4.8227885],"ct":"FR","tp":"CS","ts":"2020-02-24T11:16:57Z","tX":525,"tY":372,"tags":{"addr:city":"Châteauneuf-du-pape","addr:country":"FR","addr:street":"Chemin des Grandes Serres","email":"contact@camping-artdevivre.com","internet_access":"wlan","name":"L'Art de vivre","pets":"allowed","phone":"+33 4 90 02 65 43","playground":"yes","postal_code":"84230","sanitary_dump_station":"yes","stars":"2","swimming_pool":"yes","tennis":"yes","tents":"81","website":"https://camping-artdevivre.com","wheelchair":"no"}},"386961550":{"location":[44.0209893,4.8921351],"ct":"FR","tp":"CS","ts":"2020-04-23T07:34:02Z","tX":525,"tY":372,"tags":{"addr:city":"Sorgues","addr:country":"FR","addr:postcode":"84700","addr:street":"Chemin de la Montagne","capacity":"50","contact:housenumber":"944","email":"contact@campinglamontagne.com","internet_access":"wlan","landuse":"tourism","name":"Camping La Montagne","pets":"allowed","phone":"+33 4 90 83 36 66","playground":"yes","ref:FR:SIRET":"38303489900013","restaurant":"yes","source":"CCPRO 2015","stars":"3","start_date":"1991-09-18","swimming_pool":"yes","website":"https://www.campinglamontagne.com/","wheelchair":"yes"}},"386987306":{"location":[44.039185,4.9030599],"ct":"FR","tp":"CR","ts":"2024-05-30T10:20:42Z","tX":525,"tY":372,"tags":{"capacity":"4","caravan_site":"motorhome_stopover","caravan_site:type":"river; village","fee":"no","internet_access":"no","name":"Square Arnaud - Bédarrides","power_supply":"yes","water_point":"yes","website":"https://www.provenceguide.com/campings/bedarrides/aire-de-camping-cars/provence-696933-1.html"}},"392519634":{"location":[43.8542242,4.6252465],"ct":"FR","tp":"CS","ts":"2019-03-06T19:26:16Z","tX":525,"tY":372,"tags":{"addr:city":"Vallabrègues","addr:postcode":"30300","addr:street":"Route d'Aramon","capacity":"79","fee":"yes","name":"Camping Lou Vincen","ref:CD30":"164","source":"Bing","stars":"3","website":"https://www.campinglouvincen.fr/"}},"496744144":{"location":[43.8840288,4.8693624],"ct":"FR","tp":"CS","ts":"2023-10-16T15:59:25Z","tX":525,"tY":372,"tags":{"addr:city":"Châteaurenard","addr:housenumber":"745","addr:postcode":"13160","addr:street":"Avenue Jean Mermoz","fee":"yes","landuse":"tourism","name":"Camping La Roquette","website":"https://www.camping-la-roquette.com/"}},"507898387":{"location":[43.8531044,4.6087047],"ct":"FR","tp":"CR","ts":"2024-10-07T18:30:00Z","tX":525,"tY":372,"tags":{"addr:street":"rue Nelson Mandela","capacity":"30","caravan_site":"motorhome_stopover","charge":"6 EUR","construction":"caravan_site","fee":"yes","name":"Camping-car Park Comps","network":"CAMPING-CAR PARK","ref:CD30":"227","website":"https://www.campingcarpark.com/en_GB/stay/stopover-site-motorhome/occitanie/30-gard/comps"}},"507899773":{"location":[43.8582972,4.6254587],"ct":"FR","tp":"CR","ts":"2024-05-20T13:32:27Z","tX":525,"tY":372,"tags":{"addr:street":"Route d'Aramon D183A","bbq":"no","capacity":"12","caravan_site":"motorhome_stopover","caravan_site:type":"village","caravans":"no","charge":"13.83 EUR","dog":"leashed","fee":"yes","internet_access":"wlan","maxlength":"9","name":"Aire de camping-car Vallabrègues","network":"CAMPING-CAR PARK","opening_hours":"24/7","power_supply":"yes","power_supply:capacity":"14","power_supply:maxcurrent":"6","ref:CD30":"246","sanitary_dump_station":"yes","sanitary_dump_station:chemical_toilet":"yes","sanitary_dump_station:fee":"no","sanitary_dump_station:grey_water":"yes","tents":"no","trailer":"no","water_point":"yes","website":"https://www.campingcarpark.com/fr_FR/sejour/aire-etape-camping-car/occitanie/30-gard/vallabregues"}},"508733949":{"location":[43.880533,4.5886015],"ct":"FR","tp":"CS","ts":"2022-09-19T09:11:59Z","tX":525,"tY":372,"tags":{"addr:city":"Montfrin","addr:postcode":"30490","addr:street":"cours Anthelme","capacity":"95","caravans":"yes","drinking_water":"yes","fee":"yes","name":"Camping BelleRive","power_supply":"yes","ref:CD30":"6","shower":"yes","stars":"3","tents":"yes","toilets":"yes","website":"https://www.campingbellerive.fr/"}},"509685182":{"location":[44.0847299,4.5907577],"ct":"FR","tp":"CS","ts":"2024-09-07T22:17:06Z","tX":525,"tY":372,"tags":{"addr:street":"avenue des Platanes","capacity":"60","name":"Le Vieux Verger","phone":"0466829162","ref:CD30":"118","stars":"3","website":"https://www.campinglevieuxverger.com/"}},"532256050":{"location":[43.9516538,4.665413],"ct":"FR","tp":"CS","ts":"2017-10-13T13:44:21Z","tX":525,"tY":372,"tags":{"addr:street":"Plaine Signargues","capacity":"46","name":"Le Bois des Ecureuils","ref:CD30":"76","stars":"2"}},"532256677":{"location":[43.971574,4.7995669],"ct":"FR","tp":"CS","ts":"2024-06-29T07:26:58Z","tX":525,"tY":372,"tags":{"addr:street":"Chemin Saint-Honoré","capacity":"126","caravans":"yes","drinking_water":"yes","name":"Camping Les Avignon","phone":"0490257606","power_supply":"yes","ref:CD30":"181","sanitary_dump_station":"yes","shower":"yes","stars":"3","tents":"yes","toilets":"yes","website":"https://camping-villeneuvelezavignon.com/"}},"532282770":{"location":[43.9915079,4.8160061],"ct":"FR","tp":"CS","ts":"2022-10-09T08:30:39Z","tX":525,"tY":372,"tags":{"addr:city":"Villeneuve-lès-Avignon","addr:housenumber":"1497","addr:place":"Quartier de l'Islon","addr:postcode":"30400","addr:street":"Route de Sauveterre","capacity":"396","email":"ile-des-papes@campeole.com","landuse":"tourism","name":"Campéole L'ile des Papes","phone":"+33 4 90 15 15 90","ref:CD30":"158","stars":"4","website":"https://www.campeole.com/camping/gard/l-ile-des-papes-villeneuve-lez-avignon"}},"534540051":{"location":[43.9744896,4.6828955],"ct":"FR","tp":"CR","ts":"2024-09-28T11:45:34Z","tX":525,"tY":372,"tags":{"addr:street":"674 avenue de Signargues","capacity":"6","caravan_site":"motorhome_stopover","caravan_site:type":"winery","fee":"no","name":"Aire de camping-car Vignerons du Castellas","power_supply":"no","ref:CD30":"265","surface":"asphalt"}},"654736626":{"location":[43.9561171,4.8001102],"ct":"FR","tp":"CR","ts":"2024-05-26T18:15:33Z","tX":525,"tY":372,"tags":{"addr:housenumber":"35","addr:postcode":"84000","caravan_site":"motorhome_stopover","caravan_site:type":"river; city","fee":"no","name":"Aire Camping-car du Pont d'Avignon *","opening_hours":"24/7","seasonal":"no"}},"839813325":{"location":[43.8508417,4.9198526],"ct":"FR","tp":"CS","ts":"2023-11-05T02:55:02Z","tX":525,"tY":372,"tags":{"caravans":"yes","name":"Le Pilon d'Agel","source":"data.gouv.fr:DATAtourisme - 05/2020","stars":"3","tents":"yes","website":"https://www.pilondagel.com/","wheelchair":"yes"}},"839813565":{"location":[43.8421915,4.9022251],"ct":"FR","tp":"CS","ts":"2020-08-23T08:28:59Z","tX":525,"tY":372,"tags":{"caravans":"yes","name":"Le Sampado","source":"data.gouv.fr:DATAtourisme - 05/2020","stars":"3","tents":"yes","wheelchair":"yes"}},"1281865510":{"location":[43.8886626,4.6850083],"ct":"FR","tp":"CR","ts":"2024-11-20T15:01:20Z","tX":525,"tY":372,"tags":{"capacity":"22","caravan_site":"motorhome_stopover","caravan_site:type":"river","caravans":"no","charge":"16.32 EUR","charge:conditional":"14.92 @ (Oct-Apr)","dog":"leashed","fee":"yes","internet_access":"wlan","internet_access:fee":"no","lit":"no","maxlength":"none","name":"Camping-Car Park Aramon","network":"CAMPING-CAR PARK","picnic_table":"yes","power_supply":"yes","power_supply:maxcurrent":"6","sanitary_dump_station":"yes","sanitary_dump_station:chemical_toilet":"yes","sanitary_dump_station:grey_water":"yes","surface":"compacted","tents":"no","trailer":"yes","water_point":"yes","website":"https://www.campingcarpark.com/fr_FR/sejour/aire-etape-camping-car/occitanie/30-gard/aramon","wikimedia_commons":"Category:Camping-Car Park Aramon"}},"6064494746":{"location":[43.8577588,4.6263745],"ct":"FR","tp":"SD","ts":"2024-05-20T13:32:27Z","tX":525,"tY":372,"tags":{"access":"yes","charge":"6 EUR","drinking_water":"yes","drinking_water:fee":"yes","fee":"yes","power_supply":"yes","power_supply:fee":"yes"}},"12215092535":{"location":[44.0591979,4.7115469],"ct":"FR","tp":"SD","ts":"2024-10-01T22:06:49Z","tX":525,"tY":372,"tags":{"access":"yes","fee":"yes","power_supply":"yes","seasonal":"no","water_point":"yes"}},"12358327279":{"location":[43.8885609,4.6853672],"ct":"FR","tp":"SD","ts":"2024-11-20T15:01:20Z","tX":525,"tY":372,"tags":{"access":"yes","fee":"no","sanitary_dump_station:chemical_toilet":"yes","sanitary_dump_station:grey_water":"yes","water_point":"yes","wikimedia_commons":"File:Camping-Car Park Aramon service area.jpg"}}}