{"553341103":{"location":[43.4122256,4.7308359],"ct":"FR","tp":"CR","ts":"2024-11-20T14:29:42Z","tX":525,"tY":374,"tags":{"addr:city":"Salin-de-Giraud","addr:postcode":"13129","caravan_site":"motorhome_stopover","caravan_site:type":"village","fee":"no","name":"Aire de camping-car de Salin-de-Giraud","power_supply":"no","sanitary_dump_station:chemical_toilet":"yes","sanitary_dump_station:grey_water":"yes","surface":"asphalt","water_point":"yes","website":"https://arles.fr/equipement/aire-de-services-pour-camping-cars/","wikimedia_commons":"Category:Aire de camping-car de Salin-de-Giraud"}},"586408299":{"location":[43.3847781,4.8192095],"ct":"FR","tp":"CR","ts":"2024-05-19T22:15:29Z","tX":525,"tY":374,"tags":{"addr:city":"Port-Saint-Louis-du-Rhône","addr:postcode":"13230","branch":"Port-Saint-Louis-du-Rhône","brand":"CAMPING-CAR Park","capacity":"40","caravan_site":"motorhome_stopover","caravan_site:type":"harbour","caravans":"no","charge":"13.20 EUR","dog":"leashed","fee":"yes","internet_access":"yes","internet_access:fee":"yes","maxlength":"none","name":"Aire de Port-Saint-Louis-du-Rhône","network":"CAMPING-CAR PARK","opening_hours":"24/7","operator":"Camping-Car Park","power_supply":"yes","power_supply:capacity":"40","power_supply:maxcurrent":"6","sanitary_dump_station":"yes","seasonal":"no","tents":"no","trailer":"yes","website":"https://www.campingcarpark.com/fr_FR/sejour/aire-etape-camping-car/provence-alpes-cote-dazur/13-bouches-du-rhone/port-st-louis-du-rhone"}},"840295783":{"location":[43.4122727,4.7388088],"ct":"FR","tp":"CS","ts":"2024-10-08T06:44:21Z","tX":525,"tY":374,"tags":{"addr:city":"Salin de Giraud","addr:country":"FR","addr:place":"Les Vanelles","addr:postcode":"13129","addr:street":"Route de La Mer","capacity:caravans":"98","caravans":"yes","contact:email":"campinglesboisflottes@gmail.com","contact:phone":"+33 4 90 58 25 09","dog":"yes","internet_access":"yes","motorhome":"yes","name":"Les Bois Flottés","power_supply":"yes","sanitary_dump_station":"yes","sanitary_dump_station:grey_water":"yes","stars":"3","tents":"yes","website":"https://www.camping-les-bois-flottes.fr/"}},"1332673111":{"location":[43.3783885,4.8221335],"ct":"FR","tp":"CS","ts":"2024-11-10T20:10:24Z","tX":525,"tY":374,"tags":{"caravans":"no","fee":"yes","name":"Lodges de Camargue","phone":"+33 4 86 17 68 81","static_caravans":"yes","tents":"no","website":"https://www.lodgesdecamargue.com/"}},"1335975665":{"location":[43.350275,4.7836863],"ct":"FR","tp":"PK","ts":"2024-11-20T14:35:19Z","tX":525,"tY":374,"tags":{"motorhome":"yes","motorhome:overnight":"yes","parking":"surface","surface":"gravel","wikimedia_commons":"File:Piémanson motorhome parking.jpg"}},"12358299021":{"location":[43.412186,4.7311726],"ct":"FR","tp":"SD","ts":"2024-11-20T14:29:42Z","tX":525,"tY":374,"tags":{"access":"yes","fee":"no","wikimedia_commons":"File:Aire de camping-car de Salin-de-Giraud service area.jpg"}}}