{"398026471":{"location":[36.1278971,-114.8723494],"ct":"US","tp":"CS","ts":"2023-07-14T20:55:52Z","tX":185,"tY":401,"tags":{"fee":"yes","name":"Las Vegas Bay Campground","phone":"702-293-8990","website":"https://www.nps.gov/lake/planyourvisit/las-vegas-bay.htm"}},"542460594":{"location":[36.0365412,-114.8013521],"ct":"US","tp":"CS","ts":"2024-05-31T04:34:05Z","tX":185,"tY":401,"tags":{"access":"yes","addr:city":"Boulder City","addr:state":"NV","addr:street":"Lakeshore Road","caravans":"yes","drinking_water":"yes","large_vehicles":"yes","maxstay":"30 nights","name":"Boulder Beach Campground","power_supply":"no","shower":"no","tents":"yes","toilets":"yes","website":"https://www.recreation.gov/camping/campgrounds/10075120"}},"542460595":{"location":[36.034669,-114.7986197],"ct":"US","tp":"CR","ts":"2023-08-17T04:13:37Z","tX":185,"tY":401,"tags":{"addr:city":"Boulder City","addr:housenumber":"268","addr:postcode":"89005","addr:state":"NV","addr:street":"Lakeshore Road","internet_access":"wlan","name":"Lake Mead RV Village","phone":"+1-702-293-2540","power_supply":"yes","sanitary_dump_station":"yes","website":"https://lakemeadmohaveadventures.com/lake-mead-rv-village"}},"542465146":{"location":[36.0455879,-114.8169849],"ct":"US","tp":"CR","ts":"2024-04-25T20:45:26Z","tX":185,"tY":401,"tags":{"access":"private","addr:city":"Boulder City","addr:state":"NV","fixme":"Needs description about who can live here","name":"Boulder Beach Residence RV Park"}},"2422613072":{"location":[36.1287506,-114.8334742],"ct":"US","tp":"CS","ts":"2024-02-03T23:22:01Z","tX":185,"tY":401,"tags":{"access":"yes","backcountry":"no","caravans":"yes","description":"14 day limit ","fee":"no","internet_access":"no","large_vehicles":"yes","mobile_reception":"yes","name":"Government Wash Dispersed Camping Area","operator":"National Park Service","picnic_table":"no","power_supply":"no","reservation":"no","sanitary_dump_station":"no","shower":"no","source":"http://www.boondocking.org/","static_caravans":"no","tents":"yes","toilets":"yes"}},"11340428381":{"location":[36.0366257,-114.8032788],"ct":"US","tp":"SD","ts":"2024-04-28T03:38:02Z","tX":185,"tY":401,"tags":{"large_vehicles":"yes","mobile_reception":"yes","operator":"Boulder Beach Campground","water_point":"no"}}}