{"441866855":{"location":[32.6978171,-114.6518828],"ct":"US","tp":"CR","ts":"2024-11-24T23:12:11Z","tX":185,"tY":413,"tags":{"addr:city":"Yuma","addr:housenumber":"3553","addr:postcode":"85364","addr:state":"AZ","addr:street":"West 16th St","landuse":"residential","name":"Avenue B RV Park","old_name":"Gibson RV Park","residential":"trailer_park"}},"441870109":{"location":[32.733084,-114.6390563],"ct":"US","tp":"CR","ts":"2019-02-17T04:34:09Z","tX":185,"tY":413,"tags":{"addr:city":"Winterhaven","addr:housenumber":"2299","addr:postcode":"92283","addr:state":"CA","addr:street":"Winterhaven Drive","capacity":"480","fee":"yes","name":"River's Edge RV Resort","power_supply":"yes","sanitary_dump_station":"yes","website":"https://www.riversedgervresort.com/"}},"442598432":{"location":[32.7219366,-114.6346154],"ct":"US","tp":"CR","ts":"2016-11-23T22:51:11Z","tX":185,"tY":413,"tags":{"addr:city":"Yuma","addr:housenumber":"1210","addr:postcode":"85364","addr:state":"AZ","addr:street":"West 3rd Street","fee":"yes","name":"A Shady Tree RV Park"}},"442599724":{"location":[32.7219354,-114.6355583],"ct":"US","tp":"CR","ts":"2016-09-15T15:05:20Z","tX":185,"tY":413,"tags":{"addr:city":"Yuma","addr:housenumber":"1290","addr:postcode":"85364","addr:state":"AZ","addr:street":"West 3rd Street","name":"Blew In RV Park"}},"452956292":{"location":[32.6945765,-114.6235242],"ct":"US","tp":"CR","ts":"2018-12-17T22:33:32Z","tX":185,"tY":413,"tags":{"addr:city":"Yuma","addr:housenumber":"355","addr:postcode":"85364","addr:state":"AZ","addr:street":"West 18th Street","name":"Double S Adult Mobile Park"}},"452956624":{"location":[32.6932965,-114.6219317],"ct":"US","tp":"CR","ts":"2018-12-17T22:33:32Z","tX":185,"tY":413,"tags":{"name":"Four Seasons Mobile Home Park"}},"452956773":{"location":[32.6925803,-114.6221699],"ct":"US","tp":"CR","ts":"2018-12-17T22:33:32Z","tX":185,"tY":413,"tags":{"addr:city":"Yuma","addr:housenumber":"1925","addr:postcode":"85364","addr:state":"AZ","addr:street":"South 3rd Avenue","name":"Sundance Trailer Park"}},"453141976":{"location":[32.7199285,-114.6560849],"ct":"US","tp":"CR","ts":"2019-02-18T21:29:45Z","tX":185,"tY":413,"tags":{"addr:city":"Yuma","addr:housenumber":"2900","addr:postcode":"85364","addr:state":"AZ","addr:street":"West 5th Street","capacity":"111","fee":"yes","name":"Rolle's Linda Vista RV Park","website":"https://www.yumarvcommunity.com/"}},"453187168":{"location":[32.7208165,-114.6598984],"ct":"US","tp":"CR","ts":"2017-06-19T03:51:21Z","tX":185,"tY":413,"tags":{"addr:city":"Yuma","addr:housenumber":"386","addr:postcode":"85364","addr:state":"AZ","addr:street":"South May Avenue","capacity":"38","name":"Desert Breeze RV Park"}},"453191010":{"location":[32.7210146,-114.6584605],"ct":"US","tp":"CR","ts":"2022-02-10T09:45:06Z","tX":185,"tY":413,"tags":{"addr:city":"Yuma","addr:housenumber":"345","addr:postcode":"85364","addr:state":"AZ","addr:street":"South May Avenue"}},"453198562":{"location":[32.7175947,-114.6549426],"ct":"US","tp":"CR","ts":"2016-11-14T03:35:25Z","tX":185,"tY":413,"tags":{"addr:city":"Yuma","addr:housenumber":"2831","addr:postcode":"85364","addr:state":"AZ","addr:street":"West 5th Street","name":"Sherwood Forest RV Park"}},"453216895":{"location":[32.7122938,-114.6570053],"ct":"US","tp":"CR","ts":"2023-03-27T23:38:22Z","tX":185,"tY":413,"tags":{"addr:city":"Yuma","addr:housenumber":"3035","addr:postcode":"85364","addr:state":"AZ","addr:street":"West 8th Street","fee":"yes","name":"Lazy 8 RV Park"}},"454589969":{"location":[32.7386176,-114.6973713],"ct":"US","tp":"CR","ts":"2025-02-03T11:13:14Z","tX":185,"tY":413,"tags":{"addr:city":"Yuma","addr:housenumber":"6800","addr:postcode":"85364","addr:state":"AZ","addr:street":"Strand Avenue","capacity":"806","fee":"yes","internet_access":"yes","name":"Cocopah Bend RV & Golf Resort","operator":"Cocopah Indian Tribe","website":"https://www.cocopahrv.com/"}},"454591771":{"location":[32.7312698,-114.650075],"ct":"US","tp":"CR","ts":"2016-11-20T00:55:18Z","tX":185,"tY":413,"tags":{"addr:city":"Yuma","addr:housenumber":"2450","addr:postcode":"85364","addr:state":"AZ","addr:street":"West Water Street","capacity":"117","fee":"yes","name":"Hidden Cove RV Park","phone":"+1-928-783-3534","power_supply":"yes","sanitary_dump_station":"yes","website":"http://www.hiddencovervpark.net/"}},"454591851":{"location":[32.7311307,-114.6489052],"ct":"US","tp":"CR","ts":"2019-12-14T20:11:34Z","tX":185,"tY":413,"tags":{"addr:city":"Yuma","addr:housenumber":"2300","addr:postcode":"85364","addr:state":"AZ","addr:street":"West Water Street","name":"Riverfront RV Park"}},"475954882":{"location":[32.7457236,-114.764528],"ct":"US","tp":"CR","ts":"2019-02-17T04:34:08Z","tX":185,"tY":413,"tags":{"addr:city":"Winterhaven","addr:housenumber":"3707","addr:postcode":"93383","addr:state":"CA","addr:street":"West Highway 80","capacity":"167","fee":"yes","name":"Pilot Knob RV Resort","sanitary_dump_station":"yes","website":"https://www.pilotknobrvcamping.com/"}},"542948587":{"location":[32.6652516,-114.6237647],"ct":"US","tp":"CR","ts":"2017-11-26T16:48:08Z","tX":185,"tY":413,"tags":{"addr:city":"Yuma","addr:housenumber":"3435","addr:postcode":"85365","addr:state":"AZ","addr:street":"South 4th Avenue","name":"Wagon Wheel Trailer Park"}},"542948591":{"location":[32.6660916,-114.6232846],"ct":"US","tp":"CR","ts":"2017-11-26T16:48:08Z","tX":185,"tY":413,"tags":{"addr:city":"Yuma","addr:housenumber":"3391","addr:postcode":"85365","addr:state":"AZ","addr:street":"South 4th Avenue","name":"Town & Country Trailer Park"}},"542948597":{"location":[32.6666858,-114.6266165],"ct":"US","tp":"CR","ts":"2024-06-13T22:10:14Z","tX":185,"tY":413,"tags":{"addr:city":"Yuma","addr:housenumber":"3380","addr:postcode":"85365","addr:state":"AZ","addr:street":"South 4th Avenue","gnis:feature_id":"2622789","name":"Capri RV Resort","operator":"Equity LifeStyle Properties","website":"https://www.rvonthego.com/arizona/capri-rv-resort/"}},"542951976":{"location":[32.6616816,-114.6222104],"ct":"US","tp":"CR","ts":"2024-11-25T00:06:19Z","tX":185,"tY":413,"tags":{"addr:city":"Yuma","addr:housenumber":"3601","addr:postcode":"85365","addr:state":"AZ","addr:street":"South 4th Avenue","capacity":"222","fee":"yes","name":"Desert Holiday RV Resort","operator":"MAR Communities","permanent_camping":"yes","website":"https://marcommunities.com/community-detail/desert-holiday-rv-resort/"}},"542951977":{"location":[32.6598998,-114.6222024],"ct":"US","tp":"CR","ts":"2017-11-26T17:10:26Z","tX":185,"tY":413,"tags":{"addr:city":"Yuma","addr:housenumber":"3649","addr:postcode":"85365","addr:state":"AZ","addr:street":"South 4th Avenue","capacity":"262","fee":"yes","name":"Mesa Verde RV Resort","operator":"Equity LifeStyle Properties","website":"https://www.rvonthego.com/arizona/mesa-verde-rv-resort/"}},"550357815":{"location":[32.6921659,-114.6173677],"ct":"US","tp":"CR","ts":"2018-12-17T22:33:32Z","tX":185,"tY":413,"tags":{"name":"Walnut Trailer Park"}},"550357818":{"location":[32.6921691,-114.6178641],"ct":"US","tp":"CR","ts":"2018-12-17T22:33:32Z","tX":185,"tY":413,"tags":{"name":"Maple Avenue Trailer Park"}},"1343222900":{"location":[32.7392575,-114.6429298],"ct":"US","tp":"CR","ts":"2024-12-18T00:41:17Z","tX":185,"tY":413,"tags":{"addr:housenumber":"2209","addr:street":"West Winterhaven Drive","description":"Full hook-ups and facilities, pool.","name":"Sans End RV Park","phone":"760-572-0797","website":"https://sansendrv.com/"}},"3666779170":{"location":[32.7250705,-114.724726],"ct":"US","tp":"CR","ts":"2022-06-29T15:53:28Z","tX":185,"tY":413,"tags":{"addr:city":"Winterhaven","addr:housenumber":"369","addr:postcode":"92283","addr:state":"CA","addr:street":"Algodones Road","addr:street:es":"Carretera Algodones","name":"Sleepy Hollow RV Park","name:es":"Parque de Caravanas Sleepy Hollow","phone":"(760) 572-5101"}},"4522162389":{"location":[32.7378107,-114.7572689],"ct":"US","tp":"CR","ts":"2020-11-04T16:04:42Z","tX":185,"tY":413,"tags":{"addr:state":"CA","addr:street":"Sidewinder Road","fee":"yes","name":"Pilot Knob Long Term Visitor Area","operator":"Bureau of Land Management","power_supply":"no","sanitary_dump_station":"no","website":"https://www.blm.gov/ca/st/en/fo/elcentro/recreation/ltvas/pilot_knob.html"}},"7841604772":{"location":[32.739841,-114.6418748],"ct":"US","tp":"CR","ts":"2022-07-01T12:13:08Z","tX":185,"tY":413,"tags":{"addr:housenumber":"2209","addr:street":"West Winterhaven Drive","description":"Full hook-ups and facilities, pool.","name":"Sans End RV Park","phone":"760-572-0797","website":"https://sansendrv.com/"}}}