{"16775477":{"location":[43.9015873,-103.729442],"ct":"US","tp":"CS","ts":"2023-12-01T15:13:31Z","tX":216,"tY":372,"tags":{"access":"private","addr:city":"Custer","addr:country":"US","addr:housenumber":"24201","addr:postcode":"57730-6503","addr:state":"SD","addr:street":"Bobcat Road","name":"Medicine Mountain Scout Ranch"}},"1076554438":{"location":[44.0126636,-103.8030589],"ct":"US","tp":"CS","ts":"2024-08-11T10:57:07Z","tX":216,"tY":372,"tags":{"addr:city":"Hill City","addr:state":"SD","capacity":"17","charge":"20 USD","drinking_water":"yes","fee":"yes","name":"Whitetail Campground","operator":"USFS","toilets":"vault"}},"1076554446":{"location":[43.9599438,-103.841585],"ct":"US","tp":"CS","ts":"2024-11-18T11:43:32Z","tX":216,"tY":372,"tags":{"name":"Ditch Creek Campground","operator":"USFS","tents":"yes","toilets":"vault"}},"1319940391":{"location":[44.0753583,-104.0504351],"ct":"US","tp":"CS","ts":"2024-10-01T18:11:38Z","tX":216,"tY":372,"tags":{"name":"Beaver Creek Campground","operator":"Black Hills National Forest"}},"1518957525":{"location":[44.0803071,-103.7272065],"ct":"US","tp":"CS","ts":"2024-08-11T10:57:07Z","tX":216,"tY":372,"tags":{"addr:city":"Hill City","addr:state":"SD","capacity":"9","charge":"16 USD","drinking_water":"no","fee":"yes","internet_access":"no","name":"Castle Peak Campground","operator":"USFS","toilets":"vault"}},"7636925882":{"location":[44.0227644,-103.7811944],"ct":"US","tp":"CS","ts":"2024-11-18T11:43:32Z","tX":216,"tY":372,"tags":{"addr:city":"Hill City","addr:state":"SD","capacity":"44","charge":"20 USD","drinking_water":"yes","fee":"yes","name":"Dutchman - USFS","operator":"USFS","tents":"yes","toilets":"vault"}},"7636925883":{"location":[44.0253014,-103.7988966],"ct":"US","tp":"CS","ts":"2024-11-18T11:43:32Z","tX":216,"tY":372,"tags":{"addr:city":"Hill City","addr:state":"SD","capacity":"16","drinking_water":"yes","name":"Custer Trail - USFS","operator":"USFS","reservation":"no","tents":"yes","toilets":"vault"}},"7638845520":{"location":[44.0753712,-104.0504141],"ct":"US","tp":"CS","ts":"2024-09-24T16:43:09Z","tX":216,"tY":372,"tags":{"addr:city":"Hill City","addr:state":"SD","capacity":"8","charge":"16 USD","drinking_water":"seasonal","fee":"yes","name":"Beaver Creek Campground","tents":"yes","toilets":"vault"}}}