{"120569232":{"location":[43.3855327,-8.0532473],"ct":"ES","tp":"CS","ts":"2023-11-08T12:37:07Z","tX":489,"tY":374,"tags":{"area":"yes","cabins":"yes","caravans":"yes","email":"correo@campingfragadeume.com","fee":"yes","name":"Camping Fragadeume","phone":"+34 626 763 396","power_supply":"yes","shower":"yes","tents":"yes","toilets":"yes","website":"https://www.campingfragadeume.com/"}},"657644531":{"location":[43.4778341,-7.7958874],"ct":"ES","tp":"CS","ts":"2018-12-24T14:40:41Z","tX":489,"tY":374,"tags":{"addr:city":"As Pontes de García Rodríguez","addr:postcode":"15326","addr:street":"Vilarbó, Somede","name":"Área Recreativa de Vilarbó","website":"http://www.turismoaspontes.com/area-recreativa-vilarbo/"}},"922862734":{"location":[43.4511427,-7.8545304],"ct":"ES","tp":"CR","ts":"2024-03-25T15:44:07Z","tX":489,"tY":374,"tags":{"addr:city":"As Pontes de García Rodríguez","addr:postcode":"15320","addr:street":"Rúa Juan Antonio Suances","capacity":"5","caravans":"no","fee":"no","maxstay":"no","name":"Área de Autocaravanas das Pontes de García Rodríguez","opening_hours":"24/7","operator":"Concello das Pontes de García Rodríguez","operator:type":"public","power_supply":"no","sanitary_dump_station":"yes","sanitary_dump_station:chemical_toilet":"yes","sanitary_dump_station:grey_water":"yes","sanitary_dump_station:round_drain":"yes","supervised":"no","surface":"asphalt","tents":"no","water_point":"yes","website":"https://www.turismo.gal/localizador-de-recursos/-/sit/transporte/estaciones-de-autobus/as-pontes-de-garcia-rodriguez"}},"922867720":{"location":[43.5372104,-7.9390698],"ct":"ES","tp":"CR","ts":"2024-10-27T13:42:21Z","tX":489,"tY":374,"tags":{"access":"yes","addr:city":"As Somozas","addr:postcode":"15320","addr:street":"Rúa das Oliveiras","capacity":"25","covered":"no","fee":"no","opening_hours":"24/7","operator":"Concello das Somozas","operator:type":"public","parking":"surface","power_supply":"no","sanitary_dump_station":"yes","sanitary_dump_station:chemical_toilet":"yes","sanitary_dump_station:grey_water":"yes","sanitary_dump_station:round_drain":"yes","supervised":"no","surface":"asphalt","water_point":"yes","website":"https://assomozas.es/as-somozas-aposta-polo-turismo-rural-e-pon-en-valor-a-zona-de-autocaravanas-da-area-recreativa-do-carballo/"}},"9417604018":{"location":[43.3964255,-8.0761919],"ct":"ES","tp":"CR","ts":"2022-01-24T04:12:23Z","tX":489,"tY":374,"tags":{"addr:housenumber":"2","addr:postcode":"15617","addr:street":"Vilafil","email":"info@eumenatura.com","name":"Eumenatura","opening_hours":"24/7","phone":"+34630135251","website":"https://www.eumenatura.com/"}},"8566966452":{"location":[43.4509713,-7.854562],"ct":"ES","tp":"SD","ts":"2024-03-23T14:41:13Z","tX":489,"tY":374,"tags":{"access":"yes","fee":"no","operator":"Concello das Pontes de García Rodríguez","sanitary_dump_station":"public","sanitary_dump_station:chemical_toilet":"yes","sanitary_dump_station:grey_water":"yes","sanitary_dump_station:round_drain":"yes","water_point":"yes"}},"8567029738":{"location":[43.5374962,-7.938628],"ct":"ES","tp":"SD","ts":"2024-03-22T23:58:08Z","tX":489,"tY":374,"tags":{"access":"yes","fee":"no","operator":"Concello As Somozas","sanitary_dump_station":"public","sanitary_dump_station:chemical_toilet":"yes","sanitary_dump_station:grey_water":"yes","sanitary_dump_station:round_drain":"yes","water_point":"yes"}}}