{"956237014":{"location":[42.6059456,-7.7797874],"ct":"ES","tp":"CR","ts":"2024-09-27T09:29:05Z","tX":489,"tY":377,"tags":{"access":"yes","addr:city":"Chantada","addr:postcode":"27500","addr:street":"Carretera o Seixo","capacity":"3","covered":"no","description:fr":"Possibilité de stationner dans la zone sans etre dans l'aire de camping car","drinking_water":"yes","fee":"no","maxstay":"no","name":"Área de Autocaravanas de Chantada","operator":"Ayuntamiento de Chantada","power_supply":"no","sanitary_dump_station":"yes","sanitary_dump_station:chemical_toilet":"yes","sanitary_dump_station:grey_water":"yes","sanitary_dump_station:round_drain":"yes","supervised":"no","surface":"asphalt","water_point":"yes"}},"1152262810":{"location":[42.7870809,-7.845583],"ct":"ES","tp":"CS","ts":"2024-02-17T21:25:08Z","tX":489,"tY":377,"tags":{"addr:city":"Monterroso","addr:postcode":"27560","cabins":"no","capacity:persons":"150","capacity:pitches":"31","caravans":"yes","drinking_water":"yes","email":"campingmonterroso@aged-sl.com","fee":"yes","kitchen":"yes","name":"Camping Municipal de Monterroso","payment:cash":"yes","payment:mastercard":"yes","payment:visa":"yes","phone":"+34 982 377 501","power_supply":"yes","shower":"yes","start_date":"2004-7","tents":"yes","toilets":"yes"}},"8849882757":{"location":[42.6058464,-7.7800704],"ct":"ES","tp":"SD","ts":"2024-02-16T18:17:29Z","tX":489,"tY":377,"tags":{"access":"yes","description":"Estación de vaciado de tanque para autocaravanas","fee":"no","motorhome":"designated","operator":"Ayuntamiento de Chantada","sanitary_dump_station":"public","sanitary_dump_station:chemical_toilet":"no","sanitary_dump_station:grey_water":"yes","sanitary_dump_station:round_drain":"yes","water_point":"yes"}}}