{"183912123":{"location":[42.3377395,-7.9598969],"ct":"ES","tp":"CS","ts":"2012-10-03T10:47:43Z","tX":489,"tY":378,"tags":{}},"965551113":{"location":[42.3325149,-8.0128274],"ct":"ES","tp":"CR","ts":"2024-09-17T16:51:41Z","tX":489,"tY":378,"tags":{"access":"yes","addr:city":"Cenlle","addr:postcode":"32450","addr:street":"Lugar Barbantes","capacity":"10","caravan_site":"motorhome_stopover","covered":"no","drinking_water":"yes","fee":"no","name":"Área de Autocaravanas da Zona Termal de Barbantes (Cenlle)","operator":"Ayuntamiento de Cenlle","sanitary_dump_station":"yes","sanitary_dump_station:chemical_toilet":"yes","sanitary_dump_station:grey_water":"yes","sanitary_dump_station:round_drain":"yes","supervised":"no","surface":"asphalt","water_point":"yes"}},"988066127":{"location":[42.3492489,-7.9051084],"ct":"ES","tp":"CR","ts":"2021-09-29T17:12:39Z","tX":489,"tY":378,"tags":{"addr:postcode":"32002","area":"yes"}},"1279928376":{"location":[42.4881907,-7.9973126],"ct":"ES","tp":"CR","ts":"2024-05-05T15:18:03Z","tX":489,"tY":378,"tags":{"addr:postcode":"32137","email":"concellopinor@gmail.com","name":"Área de Autocaravanas de Cotelas (Piñor)","opening_hours":"24/7","phone":"+34629826653","website":"http://www.pinor.es"}},"1963414275":{"location":[42.3480273,-7.9125146],"ct":"ES","tp":"CR","ts":"2012-10-13T20:29:04Z","tX":489,"tY":378,"tags":{}},"12309529353":{"location":[42.4415521,-7.7919517],"ct":"ES","tp":"CR","ts":"2024-11-03T14:20:51Z","tX":489,"tY":378,"tags":{"name":"Área de Autocaravanas da Peroxa"}},"8932343589":{"location":[42.3325916,-8.0129871],"ct":"ES","tp":"SD","ts":"2024-02-16T18:34:16Z","tX":489,"tY":378,"tags":{"access":"yes","fee":"no","motorhome":"designated","operator":"Ayuntamiento de Cenlle","sanitary_dump_station":"public","sanitary_dump_station:chemical_toilet":"yes","sanitary_dump_station:fee":"no","sanitary_dump_station:gravity":"yes","sanitary_dump_station:grey_water":"yes","sanitary_dump_station:round_drain":"yes","sanitary_dump_station:suction":"no","water_point":"yes"}}}