{"372291416":{"location":[40.04724,-7.8016952],"ct":"PT","tp":"CS","ts":"2024-09-25T14:53:58Z","tX":489,"tY":387,"tags":{"addr:city":"Pampilhosa da Serra","addr:postcode":"3320-105","addr:street":"Rua da Praia â€“ Janeiro De Baixo","name":"Parque de Campismo de Janeiro de Baixo","operator":"XistoCamping","website":"https://xistocamping.com/portal/en/home/"}},"417606795":{"location":[39.9214185,-7.8930508],"ct":"PT","tp":"CS","ts":"2024-08-08T14:05:45Z","tX":489,"tY":387,"tags":{"access":"customers","addr:city":"Oleiros","addr:postcode":"6160-301","alt_name":"Camping Oleiros","capacity":"80","email":"geral@campingoleiros.com","name":"Parque de Campismo de Oleiros","phone":"+351 926 860 112;+351 272 681 106","source":"RNT","source_ref":"3946","website":"https://campingoleiros.com"}},"606853168":{"location":[40.0664893,-7.8055827],"ct":"PT","tp":"CS","ts":"2018-07-10T23:49:11Z","tX":489,"tY":387,"tags":{}},"981458364":{"location":[40.1623266,-7.9768051],"ct":"PT","tp":"CS","ts":"2021-09-10T01:01:18Z","tX":489,"tY":387,"tags":{}}}