{"11746739":{"location":[44.4193911,-68.3663462],"ct":"US","tp":"CR","ts":"2022-12-20T01:36:04Z","tX":317,"tY":370,"tags":{"addr:city":"Bar Harbor","addr:country":"US","addr:housenumber":"136","addr:postcode":"04609","addr:state":"ME","addr:street":"County Road","backcountry":"no","brand":"KOA","brand:wikidata":"Q16988635","cabins":"yes","caravans":"yes","dog":"leashed","email":"barharbor@koa.net","group_only":"no","internet_access":"wlan","name":"Bar Harbor / Oceanside KOA Holiday","nudism":"no","opening_hours":"May 8-Oct 12","operator":"Kampgrounds of America, Inc","phone":"+1 207 288 3520","reservation":"recommended","sanitary_dump_station":"customers","short_name":"KOA","tents":"yes","website":"https://koa.com/campgrounds/bar-harbor-oceanside/"}},"363324873":{"location":[44.4057732,-68.3405183],"ct":"US","tp":"CS","ts":"2022-12-20T01:36:04Z","tX":317,"tY":370,"tags":{"addr:city":"Bar Harbor","addr:housenumber":"1453","addr:postcode":"04609","addr:state":"ME","addr:street":"Main Street","caravans":"yes","name":"Terramor Outdoor Resort"}},"479567930":{"location":[44.4204548,-68.3400125],"ct":"US","tp":"CS","ts":"2020-06-13T18:53:33Z","tX":317,"tY":370,"tags":{"addr:city":"Bar Harbor","addr:housenumber":"1219","addr:postcode":"04609","addr:state":"ME","addr:street":"Bar Harbor Road","name":"Mt. Desert Narrows Camping Resort","operator":"Encore"}},"858166226":{"location":[44.4396325,-68.3145064],"ct":"US","tp":"CS","ts":"2022-02-16T23:48:34Z","tX":317,"tY":370,"tags":{"addr:city":"Bar Harbor","addr:housenumber":"33","addr:postcode":"04609","addr:state":"ME","addr:street":"Hadley Point Road","cabins":"yes","caravans":"yes","drinking_water":"yes","internet_access":"wlan","name":"Hadley's Point Campground","nudism":"no","opening_hours":"May 15-Oct 15","phone":"+1 207 288 4808","power_supply":"yes","reservation":"required","sanitary_dump_station":"customers","shower":"yes","tents":"yes","website":"https://www.hadleyspoint.com/"}},"858211358":{"location":[44.4548573,-68.3007011],"ct":"US","tp":"CS","ts":"2023-10-28T00:59:02Z","tX":317,"tY":370,"tags":{"addr:city":"Lamoine","addr:country":"US","addr:housenumber":"23","addr:postcode":"04605","addr:state":"ME","addr:street":"State Park Road","backcountry":"no","capacity":"62","caravans":"yes","group_only":"no","name":"Lamoine State Park Campground","nudism":"no","opening_hours":"May 15-Oct 15 open","operator":"Maine Department of Agriculture, Conservation and Forestry","phone":"+1 207 667 4778","reservation":"recommended","tents":"yes","website":"https://www.maine.gov/lamoine"}},"1032007740":{"location":[44.3658323,-68.321484],"ct":"US","tp":"CS","ts":"2022-02-16T13:32:03Z","tX":317,"tY":370,"tags":{"name":"Mount Desert Campground","website":"https://www.mountdesertcampground.com"}},"1032401399":{"location":[44.433642,-68.2666303],"ct":"US","tp":"CS","ts":"2022-02-16T23:48:34Z","tX":317,"tY":370,"tags":{"addr:city":"Bar Harbor","addr:housenumber":"409","addr:street":"Bar Harbor Road","name":"Bar Harbor Campground"}},"1123481630":{"location":[44.4379093,-68.3663637],"ct":"US","tp":"CR","ts":"2022-12-20T01:36:04Z","tX":317,"tY":370,"tags":{"name":"Narrows Too Camping Resort"}},"8000586210":{"location":[44.4540015,-68.2992245],"ct":"US","tp":"SD","ts":"2020-10-12T15:25:38Z","tX":317,"tY":370,"tags":{}}}