{"11746452":{"location":[44.2304511,-68.3385471],"ct":"US","tp":"CS","ts":"2024-08-18T19:24:23Z","tX":317,"tY":371,"tags":{"addr:city":"Bass Harbor","addr:housenumber":"342","addr:postcode":"04653","addr:state":"ME","addr:street":"Harbor Drive","backcountry":"no","cabins":"yes","caravans":"yes","dog":"leashed","fee":"yes","group_only":"no","internet_access":"wlan","name":"Bass Harbor Campground","nudism":"no","phone":"+1 207 244 5857","playground":"yes","power_supply":"yes","reservation":"required","sanitary_dump_station":"customers","tents":"yes","website":"https://www.bassharbor.com/"}},"414249391":{"location":[44.2427436,-68.3063455],"ct":"US","tp":"CS","ts":"2023-03-15T03:55:32Z","tX":317,"tY":371,"tags":{"access":"yes","backcountry":"no","caravans":"yes","dog":"leashed","fee":"yes","group_only":"no","internet_access":"no","name":"Seawall Campground","nudism":"no","openfire":"yes","opening_hours":"May 26-Oct 10 open","operator":"National Park Service","operator:short":"NPS","operator:type":"public","operator:wikidata":"Q308439","operator:wikipedia":"en:National Park Service","reservation":"required","sanitary_dump_station":"yes","shower":"no","tents":"yes","toilets":"yes","website":"https://www.recreation.gov/camping/campgrounds/234674"}},"858148977":{"location":[44.3000455,-68.3315084],"ct":"US","tp":"CS","ts":"2022-02-16T13:32:03Z","tX":317,"tY":371,"tags":{"addr:city":"Southwest Harbor","addr:country":"US","addr:housenumber":"20","addr:postcode":"04679","addr:state":"ME","addr:street":"Main Street","backcountry":"no","cabins":"yes","caravans":"yes","dog":"leashed","drinking_water":"yes","group_only":"no","internet_access":"wlan","name":"Smuggler's Den Campground","nudism":"no","phone":"+1 877 244 9033","power_supply":"yes","reservation":"required","sanitary_dump_station":"yes","tents":"yes","website":"https://www.smugglersdencampground.com/"}},"858153622":{"location":[44.3090877,-68.2056235],"ct":"US","tp":"CS","ts":"2023-06-04T01:27:04Z","tX":317,"tY":371,"tags":{"backcountry":"no","caravans":"yes","dog":"yes","drinking_water":"yes","fee":"yes","group_only":"no","internet_access":"no","name":"Blackwoods Campground","nudism":"no","opening_hours":"May 07-Oct 17 open","operator":"National Park Service","power_supply":"no","reservation":"required","sanitary_dump_station":"customers","shower":"no","tents":"yes","website":"https://www.recreation.gov/camping/campgrounds/232508"}},"1032007743":{"location":[44.3386951,-68.322026],"ct":"US","tp":"CS","ts":"2024-10-27T02:43:14Z","tX":317,"tY":371,"tags":{"name":"HTR Acadia Campground"}},"1032007752":{"location":[44.2516805,-68.3666353],"ct":"US","tp":"CS","ts":"2023-02-23T18:11:18Z","tX":317,"tY":371,"tags":{"name":"Quietside Campground & Cabins"}},"4182998389":{"location":[44.2437924,-68.3094264],"ct":"US","tp":"SD","ts":"2016-05-13T09:28:49Z","tX":317,"tY":371,"tags":{}},"6569403552":{"location":[44.2824732,-68.4896635],"ct":"US","tp":"CS","ts":"2020-10-12T15:36:29Z","tX":317,"tY":371,"tags":{"backcountry":"yes","capacity":"1","caravans":"no","drinking_water":"no","group_only":"no","internet_access":"no","name":"North End Campsite","nudism":"no","operator":"Maine Coast Heritage Trust","phone":"+1 207 729 7366","power_supply":"no","sanitary_dump_station":"no","shower":"no","tents":"yes","toilets":"no","website":"https://www.mcht.org/preserve/tinker-island/"}},"6569403553":{"location":[44.2700996,-68.4867707],"ct":"US","tp":"CS","ts":"2020-10-12T15:36:29Z","tX":317,"tY":371,"tags":{"backcountry":"yes","capacity":"1","caravans":"no","drinking_water":"no","group_only":"no","internet_access":"no","name":"Sand Point Campsite","nudism":"no","operator":"Maine Coast Heritage Trust","phone":"+1 207 729 7366","power_supply":"no","sanitary_dump_station":"no","shower":"no","tents":"yes","toilets":"no","website":"https://www.mcht.org/preserve/tinker-island/"}},"8032230881":{"location":[44.1223571,-68.4979534],"ct":"US","tp":"CS","ts":"2020-10-21T12:23:20Z","tX":317,"tY":371,"tags":{}},"8032230882":{"location":[44.1265621,-68.5069013],"ct":"US","tp":"CS","ts":"2020-10-21T12:23:20Z","tX":317,"tY":371,"tags":{}},"8032230883":{"location":[44.1094591,-68.5031676],"ct":"US","tp":"CS","ts":"2020-10-21T12:23:20Z","tX":317,"tY":371,"tags":{}},"9510580574":{"location":[44.2630819,-68.3879074],"ct":"US","tp":"CS","ts":"2022-02-16T13:32:03Z","tX":317,"tY":371,"tags":{"name":"Acadia Wilderness Lodge"}},"10958627212":{"location":[44.1227066,-68.4290313],"ct":"US","tp":"CS","ts":"2023-09-03T19:50:53Z","tX":317,"tY":371,"tags":{"access":"yes","backcountry":"yes","capacity:persons":"6","capacity:tents":"2","caravans":"no","check_date":"2023-08-29","description":"Strictly “Leave No Trace”: carry out all solid waste, food, and trash.","dog":"leashed","drinking_water":"no","fee":"no","openfire":"no","static_caravans":"no","tents":"yes","toilets":"no"}},"8000086604":{"location":[44.2308019,-68.339282],"ct":"US","tp":"SD","ts":"2020-10-12T12:26:06Z","tX":317,"tY":371,"tags":{}},"8000127118":{"location":[44.3005859,-68.3319233],"ct":"US","tp":"SD","ts":"2020-10-12T12:42:32Z","tX":317,"tY":371,"tags":{}}}