{"129304713":{"location":[54.060912,-1.0991375],"ct":"GB","tp":"CR","ts":"2024-07-31T15:00:55Z","tX":508,"tY":328,"tags":{"addr:city":"York","addr:country":"GB","addr:postcode":"YO61 1ET","addr:street":"Goose Lane","addr:suburb":"Sutton on the Forest","name":"Ponderosa Caravan & Camping Site"}},"129325162":{"location":[54.0879851,-1.3979572],"ct":"GB","tp":"CR","ts":"2024-06-03T21:40:06Z","tX":508,"tY":328,"tags":{"addr:city":"York","addr:country":"GB","addr:postcode":"YO51 9HS","addr:street":"Wetherby Road","addr:suburb":"Boroughbridge","name":"Ponderosa Paddocks","source":"Bing"}},"157371320":{"location":[54.0840498,-1.4057729],"ct":"GB","tp":"CR","ts":"2024-06-03T21:40:06Z","tX":508,"tY":328,"tags":{"addr:city":"York","addr:country":"GB","addr:postcode":"YO51 9HY","addr:street":"Minskip Road","addr:suburb":"Boroughbridge","name":"Ashdown Park","source":"Bing"}},"185026593":{"location":[53.9797428,-1.1405131],"ct":"GB","tp":"CR","ts":"2022-05-22T22:49:16Z","tX":508,"tY":328,"tags":{"addr:postcode":"YO26 6NX","addr:street":"Millfield Lane","capacity:caravans":"6","caravans":"yes","name":"Cherry Tree Cottage Caravan site","note":"no toilets or showers","shower":"no","toilets":"no","website":"https://www.cherrytreecottagecs.co.uk/"}},"185027606":{"location":[53.9892372,-1.1119111],"ct":"GB","tp":"CR","ts":"2020-09-27T14:40:32Z","tX":508,"tY":328,"tags":{"addr:city":"York","addr:postcode":"YO30 5TZ","addr:street":"Village Street","caravans":"yes","name":"Rawcliffe Manor Caravan Park","tents":"no"}},"241998879":{"location":[54.0126903,-1.3671541],"ct":"GB","tp":"CR","ts":"2013-10-14T03:06:17Z","tX":508,"tY":328,"tags":{}},"256254749":{"location":[54.003546,-1.0835672],"ct":"GB","tp":"CS","ts":"2019-01-13T21:55:49Z","tX":508,"tY":328,"tags":{"addr:city":"York","addr:postcode":"YO32 2RH","addr:street":"Wigginton Road","name":"Willow House Caravan Park"}},"349375832":{"location":[54.0360293,-1.2371717],"ct":"GB","tp":"CR","ts":"2020-05-14T22:05:34Z","tX":508,"tY":328,"tags":{"addr:city":"Linton-on-Ouse","addr:postcode":"YO30 2AZ","name":"Linton Lock Marina"}},"433376350":{"location":[54.1015062,-1.4052777],"ct":"GB","tp":"CR","ts":"2024-06-03T21:40:06Z","tX":508,"tY":328,"tags":{"addr:city":"York","addr:country":"GB","addr:postcode":"YO51 9BZ","addr:street":"Skelton Road","addr:suburb":"Boroughbridge","name":"Old Hall Holiday Park"}},"436516810":{"location":[54.1032676,-1.1545721],"ct":"GB","tp":"CR","ts":"2023-11-29T16:30:55Z","tX":508,"tY":328,"tags":{"addr:city":"York","addr:postcode":"YO61 3ER","addr:street":"Green Lane","addr:suburb":"Easingwold","name":"Folly Garth Caravan Site"}},"436516811":{"location":[54.1033872,-1.1562245],"ct":"GB","tp":"CS","ts":"2023-11-29T16:30:55Z","tX":508,"tY":328,"tags":{"addr:city":"York","addr:postcode":"YO61 3ER","addr:street":"Green Lane","addr:suburb":"Easingwold","name":"Folly Garth"}},"620567670":{"location":[54.0896104,-1.1964282],"ct":"GB","tp":"CR","ts":"2022-08-10T19:23:00Z","tX":508,"tY":328,"tags":{}},"661878632":{"location":[54.0808355,-1.2344788],"ct":"GB","tp":"CR","ts":"2023-11-29T16:30:55Z","tX":508,"tY":328,"tags":{"addr:city":"York","addr:postcode":"YO61 1RY","addr:street":"Monk Green","addr:suburb":"Alne","email":"enquires@homefarmland.co.uk","name":"The Alders Caravan Park","phone":"+44 1347 838722"}},"691218792":{"location":[54.0115869,-1.216929],"ct":"GB","tp":"CR","ts":"2020-05-14T21:59:08Z","tX":508,"tY":328,"tags":{"addr:city":"Moor Monkton","addr:postcode":"YO26 8JB","name":"Niddmouth Caravan Site"}},"691218796":{"location":[54.011033,-1.2143567],"ct":"GB","tp":"CR","ts":"2019-05-20T12:36:45Z","tX":508,"tY":328,"tags":{}},"748651788":{"location":[54.050831,-1.3102355],"ct":"GB","tp":"CS","ts":"2023-11-29T16:30:55Z","tX":508,"tY":328,"tags":{"addr:city":"York","addr:postcode":"YO26 9SG","addr:street":"Back Lane","addr:suburb":"Great Ouseburn","name":"Burrows Park"}},"793336126":{"location":[54.0577544,-1.0881368],"ct":"GB","tp":"CR","ts":"2024-07-31T15:00:55Z","tX":508,"tY":328,"tags":{"addr:city":"York","addr:country":"GB","addr:postcode":"YO61 1ET","addr:street":"Carr Lane","addr:suburb":"Sutton on the Forest","alt_name":"Goosewood Caravan Park","name":"Goosewood Holiday Park","source":"EsriWorldImagery;Bing;View from road"}},"823892592":{"location":[54.0229108,-1.1005462],"ct":"GB","tp":"CR","ts":"2020-07-07T16:17:24Z","tX":508,"tY":328,"tags":{}},"829669931":{"location":[54.0425417,-1.0888438],"ct":"GB","tp":"CR","ts":"2020-07-24T12:00:57Z","tX":508,"tY":328,"tags":{}},"934620669":{"location":[54.0878514,-1.1244356],"ct":"GB","tp":"CR","ts":"2023-08-10T16:02:49Z","tX":508,"tY":328,"tags":{"source":"View from road"}},"971471266":{"location":[54.1617711,-1.1778278],"ct":"GB","tp":"CR","ts":"2021-08-08T22:33:38Z","tX":508,"tY":328,"tags":{}},"1044584969":{"location":[54.0734447,-1.3329627],"ct":"GB","tp":"CR","ts":"2022-03-27T21:49:12Z","tX":508,"tY":328,"tags":{"name":"Oak Tree Caravan Park"}},"1046798907":{"location":[54.0671296,-1.0957663],"ct":"GB","tp":"CS","ts":"2022-03-31T09:40:21Z","tX":508,"tY":328,"tags":{"name":"Beech Tree Farm Camping and Caravan Site","operator":"Beech Tree Farm"}},"1067544778":{"location":[54.1059788,-1.2368582],"ct":"GB","tp":"CR","ts":"2023-11-29T16:30:55Z","tX":508,"tY":328,"tags":{"addr:city":"York","addr:postcode":"YO61 3PD","addr:street":"Alne Road","addr:suburb":"Easingwold","name":"South Carolina Caravan Park","power_supply":"yes","source":"View from east;Bing"}},"3636134962":{"location":[53.998155,-1.1372681],"ct":"GB","tp":"CR","ts":"2023-09-13T14:13:38Z","tX":508,"tY":328,"tags":{"addr:city":"York","addr:postcode":"YO30 1YJ","name":"Grantchester Caravan and Camping","website":"https://grantchestercamping.co.uk/"}},"4906718421":{"location":[53.9654709,-1.3103757],"ct":"GB","tp":"CR","ts":"2017-06-09T21:35:10Z","tX":508,"tY":328,"tags":{"name":"Tockwith Caravan Storage"}},"10956851074":{"location":[54.0814756,-1.2403997],"ct":"GB","tp":"CR","ts":"2023-10-27T19:08:54Z","tX":508,"tY":328,"tags":{"addr:city":"York","addr:postcode":"YO61 1RY","addr:street":"Monk Green","addr:suburb":"Alne","description":"Caravan and Motorhome Club Certificated Location. CAMC members only. 5 pitches only.","name":"Home Farm CAMC CL","power_supply":"yes","sanitary_dump_station":"yes"}}}