{"88576052":{"location":[53.8509821,-1.2032407],"ct":"GB","tp":"CR","ts":"2023-12-27T15:36:32Z","tX":508,"tY":329,"tags":{"name":"Whitecote Caravan Park"}},"126304659":{"location":[53.9505724,-1.0805728],"ct":"GB","tp":"CR","ts":"2023-12-07T08:29:04Z","tX":508,"tY":329,"tags":{"addr:city":"York","addr:postcode":"YO23 1JQ","addr:street":"Terry Avenue","name":"Rowntree Park Caravan Club","source":"bing","tents":"no"}},"148091980":{"location":[53.8965183,-1.1798868],"ct":"GB","tp":"CS","ts":"2013-06-25T23:10:09Z","tX":508,"tY":329,"tags":{"landuse":"meadow","name":"Champs Field Campsite"}},"164241880":{"location":[53.9381751,-1.0574566],"ct":"GB","tp":"CR","ts":"2022-11-05T18:46:24Z","tX":508,"tY":329,"tags":{"addr:city":"York","addr:postcode":"YO10 5DY","name":"Bleak House Farm Campsite","website":"https://www.campingandcaravanningclub.co.uk/campsites/uk/north-yorkshire/york/bleakhousefarm/"}},"167196452":{"location":[53.9017766,-1.2002699],"ct":"GB","tp":"CS","ts":"2023-06-21T23:38:42Z","tX":508,"tY":329,"tags":{"source":"survey;Bing"}},"176226812":{"location":[53.903371,-1.1030304],"ct":"GB","tp":"CR","ts":"2023-12-06T17:32:14Z","tX":508,"tY":329,"tags":{"addr:city":"York","addr:postcode":"YO23 2UQ","addr:suburb":"Acaster Malbis","name":"Chestnut Farm Holiday Park"}},"176226814":{"location":[53.9028208,-1.1036865],"ct":"GB","tp":"CR","ts":"2023-12-06T17:32:14Z","tX":508,"tY":329,"tags":{"addr:city":"York","addr:postcode":"YO23 2UQ","addr:street":"Acaster Lane","addr:suburb":"Acaster Malbis","name":"Poplar Farm Caravan SIte"}},"177595725":{"location":[53.8950425,-1.0943478],"ct":"GB","tp":"CR","ts":"2023-11-29T16:30:55Z","tX":508,"tY":329,"tags":{"addr:city":"York","addr:postcode":"YO19 4RU","addr:suburb":"Naburn","name":"Naburn Lock Caravan Park"}},"185027605":{"location":[53.9496886,-1.1437473],"ct":"GB","tp":"CR","ts":"2022-05-22T23:08:43Z","tX":508,"tY":329,"tags":{"addr:city":"York","addr:postcode":"YO23 3QZ","addr:street":"Broad Lane","addr:suburb":"Acomb","caravans":"yes","name":"Acomb Grange Caravan Site","tents":"yes","website":"https://www.acombgrange.co.uk/"}},"185028170":{"location":[53.9173979,-1.1089823],"ct":"GB","tp":"CS","ts":"2023-10-20T14:41:54Z","tX":508,"tY":329,"tags":{"addr:city":"York","addr:postcode":"YO23 2UF","addr:street":"Moor Lane","addr:suburb":"Bishopthorpe","name":"Moor Farm Campsite"}},"192505334":{"location":[53.9045203,-1.1052373],"ct":"GB","tp":"CS","ts":"2023-12-06T17:32:14Z","tX":508,"tY":329,"tags":{"addr:city":"York","addr:postcode":"YO23 2UQ","addr:suburb":"Acaster Malbis","name":"Moor End Farm, Caravan & Camping Site"}},"193837379":{"location":[53.8379396,-1.1382092],"ct":"GB","tp":"CR","ts":"2022-10-17T16:13:56Z","tX":508,"tY":329,"tags":{"addr:city":"Cawood","addr:postcode":"YO8 3TT","addr:street":"Ryther Road","name":"Cawood Park","source":"Bing"}},"197376364":{"location":[53.9356839,-1.0865503],"ct":"GB","tp":"CR","ts":"2022-12-18T09:28:55Z","tX":508,"tY":329,"tags":{"addr:city":"York","addr:housename":"Manor Farm","addr:postcode":"YO23 2QA","addr:street":"Bishopthorpe Road","capacity":"20","name":"Manor Farm","phone":"+44 1904 653163","power_supply":"yes","tents":"no"}},"373425376":{"location":[53.7886923,-1.1451504],"ct":"GB","tp":"CR","ts":"2020-05-13T19:43:38Z","tX":508,"tY":329,"tags":{"addr:city":"Selby","addr:postcode":"YO8 3RD","name":"Scalm Park"}},"519436076":{"location":[53.8161735,-1.1347908],"ct":"GB","tp":"CR","ts":"2019-01-30T13:40:15Z","tX":508,"tY":329,"tags":{"addr:city":"Cawood","addr:postcode":"YO8 3RA","addr:street":"Broad Lane","name":"York South Caravan & Camping"}},"586736500":{"location":[53.9357707,-1.1473737],"ct":"GB","tp":"CR","ts":"2023-12-06T17:32:14Z","tX":508,"tY":329,"tags":{"addr:city":"York","addr:postcode":"YO23 3QY","addr:street":"Askham Lane","addr:suburb":"Askham Bryan","name":"Nurseries Caravan Park"}},"801664610":{"location":[53.9022915,-1.1020893],"ct":"GB","tp":"CR","ts":"2021-05-30T13:07:07Z","tX":508,"tY":329,"tags":{}},"812958806":{"location":[53.7903466,-1.0979383],"ct":"GB","tp":"CR","ts":"2020-06-04T20:51:39Z","tX":508,"tY":329,"tags":{"addr:city":"Selby","addr:postcode":"YO8 3RJ","addr:street":"Flaxley Road","name":"Greenacres Mobile Home Park"}},"826180227":{"location":[53.9059222,-1.0860502],"ct":"GB","tp":"CR","ts":"2024-07-19T12:30:57Z","tX":508,"tY":329,"tags":{"addr:city":"York","addr:postcode":"YO19 4RW","addr:street":"Howden Lane","addr:suburb":"Naburn","name":"Millbridge Farm Camping and Caravan Park"}},"835788694":{"location":[53.8146604,-1.1078541],"ct":"GB","tp":"CR","ts":"2020-08-10T13:38:16Z","tX":508,"tY":329,"tags":{}},"835874485":{"location":[53.7872112,-1.1452076],"ct":"GB","tp":"CR","ts":"2020-08-10T20:21:50Z","tX":508,"tY":329,"tags":{}},"1189815986":{"location":[53.876822,-1.0952492],"ct":"GB","tp":"CS","ts":"2023-07-15T11:29:46Z","tX":508,"tY":329,"tags":{"cabins":"yes","capacity:caravans":"30","capacity:tents":"10","caravans":"yes","email":"home_farm@hotmail.co.uk","name":"Home Farm","phone":"+44 1904 728263","shower":"yes","tents":"yes","toilets":"yes","website":"http://homefarmyork.co.uk/"}},"1606796779":{"location":[53.7949122,-1.1260684],"ct":"GB","tp":"CS","ts":"2020-05-13T19:43:38Z","tX":508,"tY":329,"tags":{"addr:city":"Selby","addr:postcode":"YO8 3RE","name":"Moss Hagg Farm Campsite"}},"12415129550":{"location":[53.9508332,-1.0812983],"ct":"GB","tp":"SD","ts":"2024-12-12T08:43:27Z","tX":508,"tY":329,"tags":{}}}