{"15647038":{"location":[52.7464643,-1.1543167],"ct":"GB","tp":"CS","ts":"2023-03-26T08:31:42Z","tX":508,"tY":334,"tags":{"addr:postcode":"LE12 8QF","addr:street":"Bridge Street","caravans":"yes","email":"proctorspark@btinternet.com","fhrs:id":"68948","motorhome":"yes","name":"Proctors Park","note":"FHRS record would indicate bar/shop/cafe on site which is not mapped","phone":"+44 1509 412 434","shower":"yes","source:postcode":"FHRS Open Data","static_caravans":"yes","tents":"yes","toilets":"yes","website":"https://proctorspark.com/"}},"106967255":{"location":[52.8936295,-1.3894864],"ct":"GB","tp":"CR","ts":"2011-04-05T21:20:59Z","tX":508,"tY":334,"tags":{"name":"Elvaston Castle Country Park Caravan Club Site"}},"120116611":{"location":[52.7430571,-1.1338008],"ct":"GB","tp":"CR","ts":"2016-01-18T15:41:50Z","tX":508,"tY":334,"tags":{"addr:postcode":"LE12 8NB","addr:street":"Huston Close","fhrs:id":"78901","name":"Meadow Farm Caravan Park","source:addr":"FHRS Open Data"}},"163752760":{"location":[52.7109164,-1.401656],"ct":"GB","tp":"CR","ts":"2018-03-19T14:37:55Z","tX":508,"tY":334,"tags":{"area":"yes","name":"Snowmans Residential Park"}},"178305058":{"location":[52.8896355,-1.3855955],"ct":"GB","tp":"CR","ts":"2021-06-07T13:27:14Z","tX":508,"tY":334,"tags":{"addr:city":"Derby","addr:postcode":"DE72 3EQ","addr:street":"Main Road","addr:suburb":"Elvaston","camping":"yes","fee":"yes","name":"Beechwood Park","phone":"+44 7973 562689","power_supply":"yes","sport":"fishing","tents":"yes","website":"https://www.beechwoodpark.co.uk/"}},"182443561":{"location":[52.7080781,-1.3724542],"ct":"GB","tp":"CR","ts":"2020-01-29T11:15:43Z","tX":508,"tY":334,"tags":{"fixme":"mobile home park?","source":"Bing"}},"353786611":{"location":[52.7422639,-1.1937061],"ct":"GB","tp":"CS","ts":"2019-10-28T14:13:54Z","tX":508,"tY":334,"tags":{}},"377600456":{"location":[52.7382959,-1.2054238],"ct":"GB","tp":"CS","ts":"2017-05-02T17:44:32Z","tX":508,"tY":334,"tags":{"fee":"yes","operator":"Beaumanor Park"}},"384240113":{"location":[52.828893,-1.199095],"ct":"GB","tp":"CS","ts":"2015-12-03T22:53:11Z","tX":508,"tY":334,"tags":{"name":"Midshires Barn Campsite"}},"483116518":{"location":[52.902315,-1.3845944],"ct":"GB","tp":"CS","ts":"2022-01-24T10:26:00Z","tX":508,"tY":334,"tags":{"addr:city":"Derby","addr:postcode":"DE72 3LJ","addr:street":"Station Road","addr:village":"Borrowash","name":"Little Stryne Fishing, Caravan, and Camping","phone":"+44 1509670127","source":"survey","source:addr:postcode":"OS Opendata Codepoint","sport":"fishing","tents":"yes"}},"489673163":{"location":[52.8039936,-1.2580916],"ct":"GB","tp":"CR","ts":"2019-08-08T10:45:19Z","tX":508,"tY":334,"tags":{"name":"County Bridge Mobile Home Park","residential":"mobile_home_park"}},"499911606":{"location":[52.7338577,-1.2982877],"ct":"GB","tp":"CS","ts":"2023-10-15T08:59:58Z","tX":508,"tY":334,"tags":{"addr:city":"Charnwood","addr:housename":"The Oaks Scout Campsite","addr:postcode":"LE12 9YB","addr:street":"Charley Road","name":"The Oaks Scout Campsite","operator":"Leicestershire Scouts","phone":"+44 7540 325630","website":"https://www.oakscampsite.org.uk/"}},"521235843":{"location":[52.7011513,-1.0727184],"ct":"GB","tp":"CR","ts":"2019-09-16T09:34:02Z","tX":508,"tY":334,"tags":{"name":"Orchard Mobile Home Park"}},"1045424523":{"location":[52.8266794,-1.3855379],"ct":"GB","tp":"CR","ts":"2010-12-18T16:26:49Z","tX":508,"tY":334,"tags":{"name":"Park Farmhouse Caravan Site"}},"1220024143":{"location":[52.8681243,-1.3397136],"ct":"GB","tp":"CR","ts":"2022-07-16T17:13:34Z","tX":508,"tY":334,"tags":{"addr:city":"Derby","addr:place":"Shardlow Marina","addr:postcode":"DE72 2GL","addr:street":"London Road","name":"Shardlow Caravan Park","note":"Includes spaces for touring caravans","source:addr":"extrapolation"}},"1285418421":{"location":[52.8420745,-1.3775873],"ct":"GB","tp":"CR","ts":"2022-07-16T17:13:34Z","tX":508,"tY":334,"tags":{"addr:city":"Derby","addr:postcode":"DE74 2RS","addr:street":"Park Lane","alt_name":"Kings Mills Caravan Park","caravans":"yes","name":"Kings Mills Caravan Park","source:addr":"website","tents":"yes"}},"2376777008":{"location":[52.8746729,-1.2356811],"ct":"GB","tp":"CR","ts":"2014-04-20T23:29:42Z","tX":508,"tY":334,"tags":{"addr:place":"Manor Farm","addr:postcode":"NG11 0AX","addr:street":"Church Lane","camping":"yes","name":"Manor Farm Caravan Site","source":"Bing; survey","source:addr":"interpolation"}},"2837687130":{"location":[52.7455891,-1.1469498],"ct":"GB","tp":"SD","ts":"2023-02-15T22:01:28Z","tX":508,"tY":334,"tags":{"access":"permissive","centralkey":"crt_watermate","name":"Barrow Mill Basin Elsan Point","operator":"Canal and River Trust","sanitary_dump_station":"yes","sanitary_dump_station:accepted":"black_water","sanitary_dump_station:basin":"yes","sanitary_dump_station:pump-out":"no","seamark:type":"small_craft_facility","waste":"toilet","waterway":"sanitary_dump_station"}},"3472233506":{"location":[52.8712505,-1.2996033],"ct":"GB","tp":"SD","ts":"2015-04-22T22:44:25Z","tX":508,"tY":334,"tags":{"note":"Elsan point on official map","sanitary_dump_station:basin":"yes"}},"10665792312":{"location":[52.7749114,-1.2110249],"ct":"GB","tp":"SD","ts":"2023-02-15T22:01:28Z","tX":508,"tY":334,"tags":{"access":"customers","centralkey":"crt_watermate;access_code","name":"Loughborough Canal Basin Elsan Point","note":"You need to call with your boat index number to get an access code.","operator":"Canal and River Trust","sanitary_dump_station":"yes","sanitary_dump_station:accepted":"black_water","sanitary_dump_station:basin":"yes","sanitary_dump_station:pump-out":"no","waste":"toilet","waterway":"sanitary_dump_station"}},"10665825805":{"location":[52.8765652,-1.2727066],"ct":"GB","tp":"SD","ts":"2023-02-15T22:12:54Z","tX":508,"tY":334,"tags":{"access":"customers","centralkey":"crt_watermate","name":"Trent Lock Elsan Point","operator":"Canal and River Trust","sanitary_dump_station":"yes","sanitary_dump_station:accepted":"black_water","sanitary_dump_station:basin":"yes","sanitary_dump_station:pump-out":"no","waste":"toilet","waterway":"sanitary_dump_station"}}}