{"95563622":{"location":[52.2267472,-1.054843],"ct":"GB","tp":"CR","ts":"2023-07-03T06:47:40Z","tX":508,"tY":337,"tags":{"surface":"grass"}},"175802536":{"location":[52.1080496,-1.3236524],"ct":"GB","tp":"CS","ts":"2012-08-12T20:28:26Z","tX":508,"tY":337,"tags":{"source":"survey;Bing"}},"190209675":{"location":[52.2459769,-1.3122534],"ct":"GB","tp":"CS","ts":"2013-01-14T12:15:54Z","tX":508,"tY":337,"tags":{"name":"Dog Lane Fishery and Lakeview Camping"}},"191219668":{"location":[52.1255072,-1.3549499],"ct":"GB","tp":"CS","ts":"2012-11-17T14:09:52Z","tX":508,"tY":337,"tags":{"name":"Anita\"s Touring Caravan Park","source":"ACSI"}},"191631017":{"location":[52.1044097,-1.3388488],"ct":"GB","tp":"CR","ts":"2022-08-08T16:16:30Z","tX":508,"tY":337,"tags":{"name":"Barnstones","source":"Bing"}},"270556431":{"location":[52.2440263,-1.2438054],"ct":"GB","tp":"CR","ts":"2014-03-31T09:52:54Z","tX":508,"tY":337,"tags":{"source":"survey"}},"478529047":{"location":[52.084807,-1.400371],"ct":"GB","tp":"CS","ts":"2024-10-07T17:08:36Z","tX":508,"tY":337,"tags":{"name":"Horley Scout Camp","scouts":"yes"}},"674202334":{"location":[52.0871049,-1.3906152],"ct":"GB","tp":"CR","ts":"2022-08-10T12:57:44Z","tX":508,"tY":337,"tags":{"name":"The Old Forge"}},"802675082":{"location":[52.1751971,-1.2578977],"ct":"GB","tp":"CS","ts":"2021-10-29T20:15:27Z","tX":508,"tY":337,"tags":{"addr:city":"Daventry","addr:postcode":"NN11 6XU","addr:street":"Boddington Road","addr:village":"Byfield","name":"Crossing Farm Camp Site","phone":"+44 1327 261876","website":"crossingfarm.com"}},"850127570":{"location":[52.1986138,-1.324565],"ct":"GB","tp":"CS","ts":"2021-07-17T12:45:24Z","tX":508,"tY":337,"tags":{"access":"customers","addr:city":"Southam","addr:housename":"Hill Farm","addr:postcode":"CV47 7SP","addr:suburb":"Priors Hardwick","contact:email":"hello@hillfarmglamping.co.uk","contact:phone":"+44 7498 040602","contact:twitter":"@HillFarmGlamp","name":"Hill Farm Glamping","website":"https://www.hillfarmglamping.co.uk/"}},"957905884":{"location":[52.0603251,-1.3295201],"ct":"GB","tp":"CR","ts":"2024-04-15T11:18:23Z","tX":508,"tY":337,"tags":{"name":"Station Road Caravan Park","power_supply":"yes","sanitary_dump_station":"no","toilets":"no"}},"1178171887":{"location":[52.2296929,-1.3360055],"ct":"GB","tp":"CS","ts":"2023-06-01T19:31:57Z","tX":508,"tY":337,"tags":{"name":"Holt Farm Campsite","website":"https://napton-holt-farm-campsite.business.site/"}},"9197770880":{"location":[52.109989,-1.3190034],"ct":"GB","tp":"CS","ts":"2021-10-24T15:24:44Z","tX":508,"tY":337,"tags":{"addr:city":"Cropedy","addr:postcode":"OX17 1PX","addr:street":"School Lane","charge":"Â£15 for non electric tent pitch","fee":"yes","name":"Old Dairy Farm Caravan and Camping","payment:credit_cards":"yes","payment:visa":"yes","phone":"+44 1295 758796"}},"11930216457":{"location":[52.2588513,-1.314257],"ct":"GB","tp":"CS","ts":"2024-05-24T09:42:23Z","tX":508,"tY":337,"tags":{"name":"Wigrams","website":"http://wigrams.net/campsite"}},"4827556245":{"location":[52.2424896,-1.3307462],"ct":"GB","tp":"SD","ts":"2020-08-06T18:44:25Z","tX":508,"tY":337,"tags":{"access":"customers","name":"Napton Elsan Point","operator":"Canal and River Trust","sanitary_dump_station":"yes","sanitary_dump_station:accepted":"black_water","sanitary_dump_station:basin":"yes","sanitary_dump_station:pump-out":"no","waste":"toilet","waterway":"sanitary_dump_station"}}}