{"6281775":{"location":[51.9265101,-1.2473275],"ct":"GB","tp":"CR","ts":"2016-06-02T23:21:34Z","tX":508,"tY":338,"tags":{"landuse":"residential","name":"Duvall Mobile Home Park"}},"6281776":{"location":[51.925682,-1.2480594],"ct":"GB","tp":"CS","ts":"2016-06-02T23:21:34Z","tX":508,"tY":338,"tags":{"name":"Heyford Leys"}},"165756170":{"location":[51.8387404,-1.3418111],"ct":"GB","tp":"CR","ts":"2019-02-21T14:36:22Z","tX":508,"tY":338,"tags":{"name":"Bladon Chains Caravan Club Park","source":"Bing"}},"409975153":{"location":[52.0106481,-1.3004286],"ct":"GB","tp":"CR","ts":"2021-07-27T15:22:41Z","tX":508,"tY":338,"tags":{"internet_access":"wlan","internet_access:fee":"yes","name":"Bo Peep Caravan Park","power_supply":"yes","sanitary_dump_station":"yes"}},"485688993":{"location":[51.9939326,-1.403754],"ct":"GB","tp":"CR","ts":"2019-03-22T20:43:13Z","tX":508,"tY":338,"tags":{"addr:city":"South Newington, Banbury","addr:housename":"Newton Grove","addr:postcode":"OX15 4LN","addr:street":"Barford Road","description":"Caravan & Motorhome Club CL","email":"newton.grove@btconnect.com","name":"Newton Grove CL","operator":"CAMC CL","website":"https://newtongrove.co.uk/"}},"504520941":{"location":[51.9408803,-1.140195],"ct":"GB","tp":"CS","ts":"2021-06-21T10:50:26Z","tX":508,"tY":338,"tags":{"caravans":"yes","contact:email":"ann@glebeleisure.co.uk","contact:phone":"+44 1869 277410","internet_access":"no","name":"Glebe Leisure"}},"628236163":{"location":[52.014345,-1.3661656],"ct":"GB","tp":"CR","ts":"2018-09-26T08:45:55Z","tX":508,"tY":338,"tags":{}},"711193102":{"location":[51.8951981,-1.1109298],"ct":"GB","tp":"CR","ts":"2021-08-26T16:01:42Z","tX":508,"tY":338,"tags":{"description":"Privately Run"}},"936517616":{"location":[51.8551997,-1.2924144],"ct":"GB","tp":"CS","ts":"2021-06-17T14:58:25Z","tX":508,"tY":338,"tags":{"addr:city":"Bletchingdon","addr:housename":"Greenhill Leisure Park","addr:postcode":"OX5 3BQ","addr:street":"Station Road","caravans":"yes","dog":"leashed","email":"info@greenhill-leisure-park.co.uk","name":"Greenhill Leisure Park","phone":"+441869 351600","power_supply":"yes","shower":"yes","tents":"yes","toilets":"yes","website":"https://www.greenhill-leisure-park.co.uk/"}},"937441881":{"location":[51.8610909,-1.2204735],"ct":"GB","tp":"CR","ts":"2022-10-23T17:20:18Z","tX":508,"tY":338,"tags":{"internet_access":"no","name":"Godwins Caravan And Camping Park","power_supply":"yes","sanitary_dump_station":"yes","toilets":"yes","toilets:wheelchair":"yes","wheelchair":"yes"}},"938143480":{"location":[51.8632964,-1.2247888],"ct":"GB","tp":"CR","ts":"2021-05-02T18:14:26Z","tX":508,"tY":338,"tags":{}},"1086428473":{"location":[52.0293402,-1.2136788],"ct":"GB","tp":"CS","ts":"2022-08-15T12:20:22Z","tX":508,"tY":338,"tags":{}},"1171718024":{"location":[52.0066588,-1.2829989],"ct":"GB","tp":"CS","ts":"2023-05-11T16:59:44Z","tX":508,"tY":338,"tags":{"name":"The Pig Place","website":"https://thepigplace.co.uk/"}},"1307131447":{"location":[51.8466279,-1.2401557],"ct":"GB","tp":"CR","ts":"2024-08-11T21:30:23Z","tX":508,"tY":338,"tags":{}},"1789140191":{"location":[52.01033,-1.30052],"ct":"GB","tp":"CS","ts":"2022-11-25T23:27:20Z","tX":508,"tY":338,"tags":{"contact:email":"Warden@Bo-Peep.Co.UK","name":"Bo Peep Caravan Park","phone":"+44 01295 810605","shower":"yes","source":"ACSI","toilets":"yes"}},"1789140386":{"location":[51.84888,-1.25537],"ct":"GB","tp":"CS","ts":"2023-04-12T08:57:51Z","tX":508,"tY":338,"tags":{"addr:city":"Bletchingdon, Kidlington","addr:postcode":"OX5 3DR","addr:street":"Islip Road","name":"Diamond Farm C.& C. Park","phone":"+44 18693 50909","source":"ACSI","website":"http://www.diamondpark.co.uk/"}},"1902168709":{"location":[51.9915445,-1.3737122],"ct":"GB","tp":"CS","ts":"2022-11-25T16:43:08Z","tX":508,"tY":338,"tags":{"addr:street":"Barford","capacity:caravans":"46","name":"Cheyney Manor House Campsite","phone":"+44  01869 338207","website":"https://www.ukcampsite.co.uk/sites/details.asp?revid=4587"}}}