{"12927873":{"location":[51.7150826,-1.3760701],"ct":"GB","tp":"CS","ts":"2023-10-23T07:48:31Z","tX":508,"tY":339,"tags":{"dog":"leashed","drinking_water":"yes","fee":"yes","group_only":"no","name":"Barefoot Campsites","power_supply":"no","sanitary_dump_station":"yes","surface":"grass","toilets":"yes","website":"https://www.barefootcampsites.co.uk/"}},"15411569":{"location":[51.7349038,-1.3758771],"ct":"GB","tp":"CR","ts":"2023-01-30T21:16:57Z","tX":508,"tY":339,"tags":{"landuse":"residential","name":"Thameside Court Residential Caravan Park","website":"https://greenwoodparks.net/thameside/"}},"15411570":{"location":[51.7390245,-1.3718409],"ct":"GB","tp":"CR","ts":"2023-01-30T21:37:41Z","tX":508,"tY":339,"tags":{"landuse":"residential","name":"Bablock Hythe Caravan Park","website":"https://greenwoodparks.net/bablock/"}},"41300230":{"location":[51.7043747,-1.3233179],"ct":"GB","tp":"CS","ts":"2009-09-22T10:11:33Z","tX":508,"tY":339,"tags":{"scout":"yes"}},"79669509":{"location":[51.7322565,-1.2518262],"ct":"GB","tp":"CS","ts":"2022-04-24T20:22:42Z","tX":508,"tY":339,"tags":{"addr:city":"Oxford","addr:country":"GB","addr:housenumber":"426","addr:postcode":"OX1 4XN","addr:street":"Abingdon Road","bar":"no","big_rigs":"yes","camp_type":"established","caravans":"yes","credit_card:uplift":"No","description":"Lawns and old but functioning and clean valuations. Bus to town (2 km)","dish_washing":"yes","dryer":"yes","fee":"GBP 27.70 (2 adults, camper). Extra fee GBP 4.10 for electricity.","fenced":"non_protecting","fireplace":"no","general_room":"no","guarded":"no","internet":"no","kitchen":"no","laundry":"yes","name":"Oxford Camping & Caravanning Club Site","opening_hours":"Mo-Su 07:00-23:00","payment:credit_cards":"yes","pets":"yes","phone":"+44 1865 244 088","picnic_benches":"no","power_supply":"yes","power_supply:voltage":"220","restaurant":"no","sanitary_dumpstation":"yes","shop":"no","shower":"hot","source":"Survey","swimming_pool":"no","tents":"yes","toilets:disposal":"flush","toilets:position":"squat","washing_machine":"yes","water:location":"central","water:quality":"potable"}},"112191024":{"location":[51.6206933,-1.1168774],"ct":"GB","tp":"CR","ts":"2022-10-18T21:28:33Z","tX":508,"tY":339,"tags":{"residential":"trailer_park"}},"114520517":{"location":[51.793641,-1.195292],"ct":"GB","tp":"CR","ts":"2024-02-09T19:49:12Z","tX":508,"tY":339,"tags":{"name":"Folly Farm","note":"Caravan club only","operator":"Caravan Club","source":"survey","source:geometry":"Bing"}},"190003410":{"location":[51.7540029,-1.3266715],"ct":"GB","tp":"CS","ts":"2020-11-24T11:08:43Z","tX":508,"tY":339,"tags":{"group_only":"yes"}},"360782408":{"location":[51.6251112,-1.1400311],"ct":"GB","tp":"CS","ts":"2015-07-15T20:34:11Z","tX":508,"tY":339,"tags":{}},"360974293":{"location":[51.6253632,-1.1405987],"ct":"GB","tp":"CS","ts":"2015-07-17T04:58:52Z","tX":508,"tY":339,"tags":{}},"367580919":{"location":[51.7268228,-1.3011727],"ct":"GB","tp":"CS","ts":"2017-07-06T15:53:16Z","tX":508,"tY":339,"tags":{"name":"Youlbury Scout Activity Centre"}},"702299635":{"location":[51.636567,-1.1809511],"ct":"GB","tp":"CS","ts":"2021-07-01T14:56:38Z","tX":508,"tY":339,"tags":{"name":"Day's Lock Campsite"}},"962001575":{"location":[51.7749665,-1.3570215],"ct":"GB","tp":"CS","ts":"2021-07-06T17:53:41Z","tX":508,"tY":339,"tags":{"name":"Eynsham Lock Campsite"}},"992071043":{"location":[51.6530992,-1.2095981],"ct":"GB","tp":"CR","ts":"2021-10-11T23:01:30Z","tX":508,"tY":339,"tags":{"name":"Bridge House Caravan Site","phone":"+44 1865 407725","tents":"yes"}},"1051317858":{"location":[51.7304988,-1.250049],"ct":"GB","tp":"CR","ts":"2022-04-12T16:02:14Z","tX":508,"tY":339,"tags":{"description":"Shared parking area for caravans, motorhomes and trucks."}},"1117197721":{"location":[51.7807607,-1.1125185],"ct":"GB","tp":"CS","ts":"2024-05-03T03:00:56Z","tX":508,"tY":339,"tags":{"name":"Common Leys Farm","phone":"+44 01865 351266","source":"Local knowledge","website":"https://commonleysfarmaccommodation.co.uk/"}},"1280711768":{"location":[51.7723068,-1.3593705],"ct":"GB","tp":"CS","ts":"2024-05-07T21:49:35Z","tX":508,"tY":339,"tags":{"addr:city":"Swinford","addr:postcode":"OX29 4BJ","addr:street":"Swinford Manor Farm","bbq":"yes","cabins":"yes","caravans":"no","name":"Oxford Riverside Glamping","static_caravans":"no","tents":"no","website":"https://www.oxfordriversideglamping.co.uk/"}},"1302826597":{"location":[51.6547018,-1.2369553],"ct":"GB","tp":"CR","ts":"2024-09-03T20:06:20Z","tX":508,"tY":339,"tags":{}},"2148934883":{"location":[51.8310486,-1.3009787],"ct":"GB","tp":"CR","ts":"2013-02-10T13:09:49Z","tX":508,"tY":339,"tags":{"name":"The Highwayman Hotel"}},"3710282811":{"location":[51.7606212,-1.3640103],"ct":"GB","tp":"CS","ts":"2023-03-05T12:50:52Z","tX":508,"tY":339,"tags":{"addr:postcode":"OX29 4JH","caravans":"no","fee":"yes","name":"Pinkhill Lock Campsite","phone":"+44 1865 881452","tents":"yes"}},"9041623819":{"location":[51.7434113,-1.1618869],"ct":"GB","tp":"CS","ts":"2022-11-25T16:19:27Z","tX":508,"tY":339,"tags":{"addr:city":"Oxford","addr:postcode":"OX33 1TF","addr:street":"Sandy Lane","fee":"yes","name":"Green Acres Farm Camp Site","website":"https://www.greenacrescampsite.uk/"}}}