{"2426367":{"location":[50.6525018,-1.2773626],"ct":"GB","tp":"CR","ts":"2012-10-01T20:01:45Z","tX":508,"tY":344,"tags":{"name":"Rookley Park"}},"5032375":{"location":[50.6710913,-1.0987997],"ct":"GB","tp":"CR","ts":"2019-10-10T13:10:57Z","tX":508,"tY":344,"tags":{"addr:city":"Bembridge","addr:country":"GB","addr:postcode":"PO35 5QB","addr:street":"Peacock Hill","fhrs:id":"540858","leisure":"resort","name":"Sandhills Holiday Park"}},"5808141":{"location":[50.6656084,-1.1665777],"ct":"GB","tp":"CS","ts":"2023-04-06T21:41:12Z","tX":508,"tY":344,"tags":{"addr:city":"Sandown","addr:country":"GB","addr:postcode":"PO36 0HL","addr:street":"Lower Road","addr:village":"Adgestone","brand":"Camping and Caravanning Club","capacity:pitches":"270","caravans":"yes","fhrs:id":"1176365","name":"Camping & Caravanning Club (Adgestone)","opening_hours":"May-Sep","phone":"+44 1983 403432","tents":"yes","website":"https://www.campingandcaravanningclub.co.uk/campsites/uk/isleofwight/adgestone/adgestone"}},"6062670":{"location":[50.6506137,-1.1891981],"ct":"GB","tp":"CR","ts":"2023-11-19T14:19:21Z","tX":508,"tY":344,"tags":{"addr:city":"Sandown","addr:country":"GB","addr:postcode":"PO36 0JP","addr:street":"Scotchells Brook Lane","addr:suburb":"Lake","fhrs:id":"540409","name":"Cheverton Copse Caravan Park","note":"pitches tend to change from year to year","source:addr":"FHRS Open Data"}},"6071700":{"location":[50.6948077,-1.1272507],"ct":"GB","tp":"CS","ts":"2016-03-21T22:39:09Z","tX":508,"tY":344,"tags":{}},"6119844":{"location":[50.6543073,-1.2761094],"ct":"GB","tp":"CR","ts":"2021-09-08T08:14:42Z","tX":508,"tY":344,"tags":{"alt_name":"Rookley Country Park","brand":"Aria Resorts","brand:wikidata":"Q107920199","contact:website":"https://www.ariaresortshomes.co.uk/our-locations/isle-of-wight/the-lakes-rookley/","name":"The Lakes Rookley"}},"6132610":{"location":[50.6588647,-1.1478954],"ct":"GB","tp":"CR","ts":"2017-07-16T19:38:21Z","tX":508,"tY":344,"tags":{"name":"Fort Caravan Park"}},"6573585":{"location":[50.7216067,-1.219719],"ct":"GB","tp":"CR","ts":"2016-09-09T00:25:45Z","tX":508,"tY":344,"tags":{"name":"Kite Hill Farm Caravan & Camping Site"}},"33695476":{"location":[50.6992413,-1.1410506],"ct":"GB","tp":"CR","ts":"2015-04-21T16:56:51Z","tX":508,"tY":344,"tags":{"name":"Beapers Farm"}},"35465638":{"location":[50.6200304,-1.3709361],"ct":"GB","tp":"CS","ts":"2019-03-19T15:11:18Z","tX":508,"tY":344,"tags":{"addr:city":"Ventnor","addr:place":"Atherfield Bay","addr:postcode":"PO38 2JH","addr:street":"Military Road","name":"Chine Farm Camping Site","website":"https://www.chine-farm.co.uk/"}},"169951001":{"location":[50.6612052,-1.1633294],"ct":"GB","tp":"CR","ts":"2023-11-19T14:19:21Z","tX":508,"tY":344,"tags":{"addr:city":"Sandown","addr:country":"GB","addr:postcode":"PO36 9PS","addr:street":"The Fairway","addr:suburb":"Lake","fhrs:id":"540419","name":"Fairway Holiday Park"}},"228996526":{"location":[50.6325999,-1.3790915],"ct":"GB","tp":"CR","ts":"2024-01-28T22:34:36Z","tX":508,"tY":344,"tags":{"addr:city":"Newport","addr:country":"GB","addr:county":"Isle of Wight","addr:hamlet":"Thorncross","addr:postcode":"PO30 4PN","addr:street":"Thorncross Lane","addr:village":"Brighstone","email":"info@thorncrossfarm.co.uk","name":"Thorncross Farm","phone":"+44 1983 740291","website":"https://thorncrossfarm.co.uk/"}},"229351591":{"location":[50.6196195,-1.3666],"ct":"GB","tp":"CR","ts":"2019-03-19T15:11:24Z","tX":508,"tY":344,"tags":{"addr:city":"Ventnor","addr:place":"Atherfield Bay","addr:postcode":"PO38 2JH","addr:street":"Military Road","name":"Chine Farm Chalets","website":"https://www.chine-farm.co.uk/"}},"284530433":{"location":[50.6206491,-1.2271327],"ct":"GB","tp":"CS","ts":"2024-01-28T22:34:36Z","tX":508,"tY":344,"tags":{"addr:city":"Ventnor","addr:country":"GB","addr:postcode":"PO38 3EP","addr:street":"Appuldurcombe Road","addr:village":"Wroxall","caravans":"yes","contact:facebook":"https://www.facebook.com/appuldurcombegardens/","contact:twitter":"https://twitter.com/Appuldurcombe","email":"info@appuldurcombegardens.co.uk","fax":"+44 1983 856225","fhrs:id":"540461","name":"Appuldurcombe Gardens Holiday Park","phone":"+44 1983 852597","tents":"yes","website":"https://www.appuldurcombegardens.co.uk/"}},"304854052":{"location":[50.6597958,-1.2134162],"ct":"GB","tp":"CR","ts":"2022-01-03T22:51:50Z","tX":508,"tY":344,"tags":{"addr:city":"Sandown","addr:country":"GB","addr:postcode":"PO36 0LZ","addr:street":"Winford Road","addr:village":"Newchurch","fee":"yes","fhrs:id":"1381533","internet_access:fee":"yes","name":"Southland","operator":"Caravan Club","phone":"+44 1983 865385","power_supply":"yes","tents":"no","website":"https://www.caravanclub.co.uk/media/14419818/2014_southland.pdf"}},"312949022":{"location":[50.6104328,-1.2303462],"ct":"GB","tp":"CR","ts":"2017-10-09T15:50:08Z","tX":508,"tY":344,"tags":{}},"317610159":{"location":[50.5970981,-1.1963246],"ct":"GB","tp":"CS","ts":"2016-12-06T13:02:06Z","tX":508,"tY":344,"tags":{"addr:city":"Ventnor","addr:housename":"1 Spring Gardens","addr:postcode":"PO38 1NS","name":"3rd Ventnor Scouts Campsite","operator":"3rd Ventnor Scouts"}},"339576383":{"location":[50.6395814,-1.1825428],"ct":"GB","tp":"CR","ts":"2023-06-20T14:13:12Z","tX":508,"tY":344,"tags":{"addr:city":"Shanklin","addr:country":"GB","addr:postcode":"PO37 7PJ","addr:street":"Landguard Manor Road","brand":"Parkdean Resorts","brand:wikidata":"Q7138226","brand:wikipedia":"en:Parkdean Resorts","cabins":"yes","caravans":"yes","contact:phone":"+44 1983 863100","contact:website":"https://www.parkdeanresorts.co.uk/location/isle-of-wight/landguard/","fee":"yes","fhrs:id":"540880","motorhome":"yes","name":"Landguard Holiday Park","operator":"Parkdean Resorts UK Limited","power_supply":"yes","static_caravans":"yes","swimming_pool":"yes","tents":"yes"}},"339773483":{"location":[50.7021221,-1.1441379],"ct":"GB","tp":"CS","ts":"2022-09-19T21:04:09Z","tX":508,"tY":344,"tags":{"name":"Whitefield Forest Campsite"}},"339773485":{"location":[50.699654,-1.1410151],"ct":"GB","tp":"CS","ts":"2018-02-07T17:40:08Z","tX":508,"tY":344,"tags":{"name":"Beaper Farm Campsite"}},"340094557":{"location":[50.6472957,-1.1939875],"ct":"GB","tp":"CS","ts":"2019-02-13T19:03:24Z","tX":508,"tY":344,"tags":{"addr:city":"Lake","addr:street":"Newport Road","name":"Village Way"}},"383281224":{"location":[50.6581184,-1.198907],"ct":"GB","tp":"CS","ts":"2019-03-22T18:35:43Z","tX":508,"tY":344,"tags":{"name":"C&CC","website":"https://www.campingandcaravanningclub.co.uk/campsites/uk/isleofwight/nrsandown/queenbowerdairycaravanpark"}},"387334957":{"location":[50.7351327,-1.3624058],"ct":"GB","tp":"CR","ts":"2020-09-12T12:17:27Z","tX":508,"tY":344,"tags":{"addr:city":"Porchfield","addr:country":"GB","addr:postcode":"PO31 8NJ","addr:street":"Thorness Lane","brand":"Parkdean Resorts","brand:wikidata":"Q7138226","contact:website":"https://www.parkdeanresorts.co.uk/location/isle-of-wight/thorness-bay/","fhrs:id":"541270","name":"Thorness Bay Holiday Park","note":"chalets/static caravan pitches tend to change from year to year","operator":"Parkdean Resorts UK Limited"}},"396764217":{"location":[50.6596063,-1.1940272],"ct":"GB","tp":"CR","ts":"2024-04-03T15:33:22Z","tX":508,"tY":344,"tags":{"operator":"Caravan Club"}},"398183622":{"location":[50.660315,-1.25305],"ct":"GB","tp":"CR","ts":"2017-05-16T11:42:15Z","tX":508,"tY":344,"tags":{"name":"Bury Lane Farm Caravan Park"}},"425314481":{"location":[50.7170538,-1.2891989],"ct":"GB","tp":"CR","ts":"2021-06-15T14:47:06Z","tX":508,"tY":344,"tags":{"name":"Riverside Paddock"}},"444909323":{"location":[50.5929675,-1.283847],"ct":"GB","tp":"CR","ts":"2021-03-28T20:46:59Z","tX":508,"tY":344,"tags":{"name":"Meadow View Caravan Site"}},"448985698":{"location":[50.6704663,-1.1020424],"ct":"GB","tp":"CS","ts":"2019-06-21T12:13:05Z","tX":508,"tY":344,"tags":{}},"454948093":{"location":[50.6386828,-1.1921669],"ct":"GB","tp":"CS","ts":"2018-11-23T14:12:17Z","tX":508,"tY":344,"tags":{"name":"Ninham Farm"}},"454954312":{"location":[50.642482,-1.1912619],"ct":"GB","tp":"CS","ts":"2017-08-01T12:36:41Z","tX":508,"tY":344,"tags":{"name":"Ninham Coutry Holidays"}},"463295814":{"location":[50.7321731,-1.3609062],"ct":"GB","tp":"CR","ts":"2020-10-31T10:58:33Z","tX":508,"tY":344,"tags":{"fixme":"chalets and highways around here need survey"}},"479680317":{"location":[50.6476071,-1.1932564],"ct":"GB","tp":"CS","ts":"2024-06-08T08:12:17Z","tX":508,"tY":344,"tags":{"addr:city":"Lake","addr:housename":"Cheverton Farm","addr:street":"Newport Road","internet_access":"wlan","name":"Old Barn Touring Park","tents":"yes","website":"https://oldbarntouring.co.uk/"}},"521660611":{"location":[50.7121773,-1.3525769],"ct":"GB","tp":"CR","ts":"2018-12-08T10:15:45Z","tX":508,"tY":344,"tags":{"name":"Rodgebrook Farm"}},"531217441":{"location":[50.7039288,-1.1023848],"ct":"GB","tp":"CR","ts":"2022-07-20T09:33:55Z","tX":508,"tY":344,"tags":{"addr:city":"St Helens","addr:country":"GB","addr:postcode":"PO33 1YA","addr:street":"Edington Road","brand":"Parkdean Resorts","brand:wikidata":"Q7138226","brand:wikipedia":"en:Parkdean Resorts","contact:website":"https://www.parkdeanresorts.co.uk/location/isle-of-wight/nodes-point/","fhrs:id":"540983","name":"Nodes Point Holiday Park","operator":"Parkdean Resorts UK Limited","wikidata":"Q7046681","wikipedia":"en:Nodes Point Battery"}},"567931051":{"location":[50.6943993,-1.1246567],"ct":"GB","tp":"CR","ts":"2018-03-08T20:05:46Z","tX":508,"tY":344,"tags":{"name":"Carpenters Farm Campsite"}},"627903618":{"location":[50.7312719,-1.3631368],"ct":"GB","tp":"CR","ts":"2018-09-24T23:25:26Z","tX":508,"tY":344,"tags":{"addr:housename":"South Thorness Farm","addr:postcode":"PO31 8NQ","addr:street":"Thorness Lane","capacity":"5","fee":"yes","name":"South Thorness Farm CL","power_supply":"yes","sanitary_dump_station":"yes","source":"bing"}},"842374748":{"location":[50.6833936,-1.3160779],"ct":"GB","tp":"CS","ts":"2024-08-31T09:32:58Z","tX":508,"tY":344,"tags":{"addr:city":"Newport","addr:postcode":"PO30 3DU","addr:street":"Froglands Lane","addr:village":"Carisbrooke","cabins":"yes","caravans":"no","check_date:internet_access":"2024-08-24","dog":"leashed","drinking_water":"yes","fee":"yes","fhrs:id":"1155418","hot_water":"yes","internet_access":"wlan","kitchen":"yes","lit":"no","motor_vehicle":"yes","motorhome":"yes","name":"Windmill Campersite","picnic_table":"yes","power_supply":"yes","shower":"yes","static_caravans":"no","tents":"yes","toilets":"yes","washing_machine":"yes","waste_disposal":"yes","website":"https://www.windmillcampersite.com/"}},"3106233146":{"location":[50.707067,-1.1150387],"ct":"GB","tp":"CS","ts":"2014-10-01T23:36:15Z","tX":508,"tY":344,"tags":{}},"4012474504":{"location":[50.6652819,-1.1858734],"ct":"GB","tp":"CR","ts":"2016-02-26T14:22:44Z","tX":508,"tY":344,"tags":{"name":"Alverstone Ponds","operator":"Caravan Club"}},"5063612401":{"location":[50.5996012,-1.27796],"ct":"GB","tp":"CS","ts":"2017-08-28T08:31:40Z","tX":508,"tY":344,"tags":{"internet_access":"wlan","name":"Downsview","operator":"Motorhome and Caravan Club CL"}},"6562868882":{"location":[50.6763067,-1.1000463],"ct":"GB","tp":"CS","ts":"2019-06-21T12:13:05Z","tX":508,"tY":344,"tags":{"tents":"yes"}},"11224664451":{"location":[50.6415975,-1.3663656],"ct":"GB","tp":"CS","ts":"2023-09-28T10:16:05Z","tX":508,"tY":344,"tags":{"check_date":"2023-07-29"}}}