{"127990388":{"location":[49.4664378,-1.2376967],"ct":"FR","tp":"CS","ts":"2024-01-02T21:04:55Z","tX":508,"tY":349,"tags":{"cabins":"yes","caravans":"yes","name":"Camping Le Cormoran","phone":"+33 2 33 41 33 94","stars":"5","tents":"yes","website":"https://www.camping-lecormoran.fr/"}},"174134569":{"location":[49.5010673,-1.2753688],"ct":"FR","tp":"CS","ts":"2025-05-27T18:56:00Z","tX":508,"tY":349,"tags":{"name":"Camping Le Canada","website":"http://campinglecanada.fr/"}},"174134583":{"location":[49.4190557,-1.1834739],"ct":"FR","tp":"CR","ts":"2024-07-02T10:05:32Z","tX":508,"tY":349,"tags":{"bbq":"no","capacity":"49","caravan_site":"motorhome_stopover","caravan_site:type":"beach","caravans":"no","charge":"14.65 EUR","charge:conditional":"13.45 EUR (Oct-Apr)","dog":"leashed","fee":"yes","maxlength":"none","name":"Utah Beach","network":"CAMPING-CAR PARK","operator":"CAMPING CAR-PARK","power_supply":"yes","power_supply:capacity":"30","power_supply:fee":"no","power_supply:maxcurrent":"6","sanitary_dump_station":"yes","tents":"no","trailer":"yes","water_point":"yes","website":"https://www.campingcarpark.com/fr_FR/sejour/aire-etape-camping-car/normandie/50-la-manche/ste-marie-du-mont-utah-beach"}},"174136131":{"location":[49.5841728,-1.2689568],"ct":"FR","tp":"CS","ts":"2024-08-24T10:31:40Z","tX":508,"tY":349,"tags":{"addr:city":"Saint-Vaast-la-Hougue","addr:housenumber":"10","addr:postcode":"50550","addr:street":"Rue de la Gallouette","capacity":"111","caravans":"yes","email":"contact@camping-lagallouette.fr","fee":"yes","name":"La Galouette","operator":"Marina et Christophe LESOUEF","payment:cash":"yes","payment:credit_cards":"yes","phone":"+33 2 33 54 20 57","sanitary_dump_station":"yes","shower":"yes","stars":"4","static_caravans":"yes","swimming_pool":"yes","tents":"yes","website":"https://www.camping-lagallouette.fr/"}},"222176514":{"location":[49.5175742,-1.2897797],"ct":"FR","tp":"CS","ts":"2020-01-25T21:30:50Z","tX":508,"tY":349,"tags":{"addr:city":"Quinéville","addr:housenumber":"10","addr:postcode":"50310","addr:street":"Rue du Port Sinope","email":"camping-lasinope@orange.fr","name":"Camping Municipal La Sinope De QuinéVille","operator":"Municipal","phone":"+33 2 33 21 07 38","stars":"3","website":"https://camping-quineville.fr/"}},"222345509":{"location":[49.4779949,-1.2512612],"ct":"FR","tp":"CS","ts":"2024-01-02T21:14:42Z","tX":508,"tY":349,"tags":{"cabins":"yes","caravans":"yes","name":"Camping des îles","permanent_camping":"yes","stars":"2","tents":"yes","website":"https://camping-des-iles-ravenoville.fr"}},"224115493":{"location":[49.4089089,-1.310227],"ct":"FR","tp":"CS","ts":"2025-01-23T13:50:13Z","tX":508,"tY":349,"tags":{"access":"customers","addr:city":"Sainte-Mère-Eglise","addr:housenumber":"6","addr:postcode":"50480","addr:street":"Rue du 505e Airborn","charge":"6 EUR","dog":"yes","drinking_water":"yes","email":"smecamping@gmail.com","fee":"yes","image":"https://camping-sainte-mere.fr/wp-content/uploads/2021/05/plan_camping_2021-min.pdf","internet_access":"yes","internet_access:fee":"yes","name":"Camping communal de Sainte-Mère-Église","opening_hours":"low season Mo-Su 9:00-12:30,16:00-19:00; high season 9:00-20:00","operator":"Sainte-Mère-Église","payment:american_express":"yes","payment:cheque":"yes","payment:credit_cards":"yes","phone":"+33 2 33 41 35 22","power_supply":"yes","reservation":"recommended","sanitary_dump_station":"yes","shower":"yes","stars":"3","toilets":"yes","website":"https://camping-sainte-mere.fr/","wheelchair":"yes"}},"239824106":{"location":[49.6083801,-1.2313975],"ct":"FR","tp":"CS","ts":"2024-07-23T10:00:43Z","tX":508,"tY":349,"tags":{"access":"customers","addr:city":"Réville","addr:housenumber":"117","addr:postcode":"50760","addr:street":"Route du Phare","caravans":"yes","drinking_water":"yes","email":"camping-jonville@orange.fr","fee":"yes","internet_access":"wlan","internet_access:fee":"no","name":"Camping Muncipal de Jonville","operator":"Municipal","phone":"+33 2 33 54 48 41","power_supply":"yes","sanitary_dump_station":"yes","shower":"yes","stars":"3","tents":"yes","toilets":"yes","website":"https://camping-jonville.fr/","wheelchair":"yes"}},"366113189":{"location":[49.5792752,-1.3047974],"ct":"FR","tp":"CS","ts":"2023-10-20T12:23:11Z","tX":508,"tY":349,"tags":{"addr:city":"Quettehou","addr:housenumber":"75","addr:postcode":"50630","addr:street":"Rue Sainte-Marie","fee":"yes","name":"Le Rivage","operator":"SARL Press'Ay","stars":"4","website":"https://www.camping-lerivage.fr/"}},"524441495":{"location":[49.4075919,-1.3117195],"ct":"FR","tp":"CR","ts":"2024-03-25T16:35:54Z","tX":508,"tY":349,"tags":{"addr:postcode":"50480","addr:street":"Rue de la Liberté","caravan_site":"motorhome_stopover","caravan_site:type":"camp_site","fee":"yes","internet_access":"no","name":"Parking Camping-Car à Sainte-Mère-Église","opening_hours":"24/7","power_supply":"no","sanitary_dump_station":"no","tents":"no"}},"1015278543":{"location":[49.5834046,-1.2677477],"ct":"FR","tp":"CR","ts":"2024-10-28T22:57:52Z","tX":508,"tY":349,"tags":{"capacity":"25","caravan_site":"motorhome_stopover","caravan_site:type":"harbour","charge":"10 EUR /night","fee":"yes","name":"La Gallouette","opening_hours":"24/7","power_supply":"yes","power_supply:charge":"2 EUR/1 hour","power_supply:fee":"yes","reservation":"no","sanitary_dump_station":"yes","sanitary_dump_station:chemical_toilet":"yes","sanitary_dump_station:grey_water":"yes","surface":"asphalt","water_point":"yes","water_point:charge":"2 EUR","water_point:fee":"yes","website":"https://de.normandie-tourisme.fr/wohnmobil-stellplaetze/aire-de-camping-car-camping-la-gallouette/"}},"1311234173":{"location":[49.5890138,-1.2791039],"ct":"FR","tp":"SD","ts":"2024-08-26T11:14:58Z","tX":508,"tY":349,"tags":{"access":"yes","fee":"yes","water_point":"yes"}},"1390445350":{"location":[49.5902254,-1.3092539],"ct":"FR","tp":"CS","ts":"2025-05-28T13:28:24Z","tX":508,"tY":349,"tags":{"name":"Les Chalets du Cotentin","website":"https://chalets-cotentin.fr/le-parc/"}},"9949031317":{"location":[49.5152408,-1.3695675],"ct":"FR","tp":"CS","ts":"2022-09-08T22:16:58Z","tX":508,"tY":349,"tags":{"addr:housenumber":"8","addr:postcode":"50310","addr:street":"Rue Caubrière","name":"Ferme de la caubrière","phone":"+33 233211092"}},"9893183317":{"location":[49.5023317,-1.2724561],"ct":"FR","tp":"CR","ts":"2024-10-16T18:45:52Z","tX":508,"tY":349,"tags":{"caravan_site":"motorhome_stopover","caravan_site:type":"beach","fee":"no","name":"Marcouf","power_supply":"no","sanitary_dump_station":"no","seasonal":"no","water_point":"no"}},"11761578530":{"location":[49.403994,-1.3222821],"ct":"FR","tp":"CR","ts":"2024-03-25T16:35:54Z","tX":508,"tY":349,"tags":{"capacity":"20","caravan_site":"motorhome_stopover","caravan_site:type":"supermarket","fee":"no","laundry":"yes","maxstay":"24 hours","name":"Parking Super U Sainte-Mère-Église","power_supply":"no","sanitary_dump_station":"yes","surface":"asphalt","tents":"no","water_point":"no","website":"https://www.normandie-tourisme.fr/aires-camping-cars/aire-de-stationnement-et-de-services-4/"}},"7639824772":{"location":[49.4102036,-1.3103705],"ct":"FR","tp":"SD","ts":"2020-08-08T13:36:15Z","tX":508,"tY":349,"tags":{"name":"Eau potable et évacuation eaux usées","note":"for caravans"}},"8769190558":{"location":[49.6068355,-1.2311395],"ct":"FR","tp":"SD","ts":"2024-12-13T07:40:11Z","tX":508,"tY":349,"tags":{"access":"customers","operator":"Camping municipal de Jonville","water_point":"yes"}},"9123883362":{"location":[49.4849091,-1.3743661],"ct":"FR","tp":"SD","ts":"2021-09-26T08:59:52Z","tX":508,"tY":349,"tags":{}},"10311179200":{"location":[49.4046097,-1.3221068],"ct":"FR","tp":"SD","ts":"2023-01-06T14:02:25Z","tX":508,"tY":349,"tags":{}},"12133637286":{"location":[49.5839315,-1.2695771],"ct":"FR","tp":"SD","ts":"2024-08-24T10:31:40Z","tX":508,"tY":349,"tags":{"access":"customers"}}}