{"152675564":{"location":[48.6294029,-1.3537294],"ct":"FR","tp":"CS","ts":"2024-07-24T17:58:54Z","tX":508,"tY":353,"tags":{"addr:city":"Pontaubault","addr:housenumber":"7","addr:postcode":"50220","addr:street":"Rue du Maréchal Leclerc","caravans":"yes","drinking_water":"yes","email":"campselune@wanadoo.fr","name":"La Vallée de la Sélune","phone":"+33 2 33 60 39 00","power_supply":"yes","shower":"yes","stars":"3","tents":"yes","toilets":"yes","website":"http://www.campselune.com"}},"171259275":{"location":[48.5817032,-1.0969881],"ct":"FR","tp":"CS","ts":"2023-07-31T18:45:20Z","tX":508,"tY":353,"tags":{"addr:city":"Saint-Hilaire-du-Harcouët","addr:postcode":"50600","addr:street":"Rue de Marly","caravans":"yes","drinking_water":"yes","name":"Camping municipal de la Sélune","phone":"+33 2 33 49 43 74","power_supply":"yes","shower":"yes","tents":"yes","toilets":"yes"}},"299375172":{"location":[48.4787962,-1.3141074],"ct":"FR","tp":"CS","ts":"2022-04-28T22:45:42Z","tX":508,"tY":353,"tags":{"addr:city":"Le Ferré","addr:postcode":"35420","addr:street":"La Harilais","name":"La Harilais","phone":"+33 2 99 95 13 14","website":"https://www.laharilais.fr/"}},"429898926":{"location":[48.4892775,-1.18842],"ct":"FR","tp":"CR","ts":"2024-10-05T16:43:28Z","tX":508,"tY":353,"tags":{"caravan_site":"motorhome_stopover","caravan_site:type":"village","caravans":"no","dog":"yes","fee":"no","name":"Aire de camping-cars de Mellé","sanitary_dump_station":"yes","tents":"no","website":"https://www.ille-et-vilaine-tourisme.bzh/sejourner/hebergements/campings/aire-de-camping-cars-de-melle-melle-fr-2727593/"}},"783914242":{"location":[48.5061008,-1.2369916],"ct":"FR","tp":"CS","ts":"2020-03-23T16:05:31Z","tX":508,"tY":353,"tags":{"name":"Aire naturelle de camping de la Ville en Bois","operator":"Commune de Saint-Georges-de-Reintembault"}},"784433173":{"location":[48.4849109,-1.1214209],"ct":"FR","tp":"CS","ts":"2024-09-24T11:41:48Z","tX":508,"tY":353,"tags":{"name":"Camping municipal","name:br":"Tachenn-gampiñ Kêr","operator":"Commune de Louvigné-du-Désert","source:name:br":"proper translation"}},"897925623":{"location":[48.6251435,-1.2941539],"ct":"FR","tp":"CR","ts":"2024-10-23T11:19:16Z","tX":508,"tY":353,"tags":{"capacity":"30","caravan_site":"motorhome_stopover","caravan_site:type":"parking_lot","fee":"no","name":"Aire Ducey-Les Chéris","power_supply":"yes","sanitary_dump_station":"yes","sanitary_dump_station:chemical_toilet":"yes","sanitary_dump_station:grey_water":"yes","water_point":"yes","website":"https://en.normandie-tourisme.fr/campers-and-caravans-service-stop-overs/aire-de-stationnement-et-de-services-7/"}},"1010459558":{"location":[48.616539,-1.2938376],"ct":"FR","tp":"CS","ts":"2023-08-19T07:09:08Z","tX":508,"tY":353,"tags":{"caravans":"yes","contact:phone":"+33 2 33 48 46 49","fee":"yes","name":"Camping municipal La Sélune","stars":"2","tents":"yes","website":"https://www.normandie-tourisme.fr/camping/camping-municipal-la-selune/"}},"1080880779":{"location":[48.626237,-1.3875669],"ct":"FR","tp":"CS","ts":"2023-08-23T15:15:28Z","tX":508,"tY":353,"tags":{"check_date":"2023-08-23","fee":"yes","name":"Camping La Baie du Mont Saint-Michel","payment:cash":"yes","payment:coins":"yes","payment:credit_cards":"yes","payment:mastercard":"yes","payment:visa":"yes","stars":"2","website":"https://www.camping-baiemontsaintmichel.com/"}},"1178320249":{"location":[48.5454105,-1.3125037],"ct":"FR","tp":"CS","ts":"2023-11-03T08:19:33Z","tX":508,"tY":353,"tags":{"caravans":"yes","drinking_water":"yes","email":"fermedelabinolais@gmail.com","name":"Camping à la Ferme","phone":"+33 633089545","power_supply":"yes","shower":"yes","tents":"yes","toilets":"yes","website":"https://www.normandie-tourisme.fr/camping/camping-a-la-ferme/"}},"1282438350":{"location":[48.6865214,-1.368009],"ct":"FR","tp":"CR","ts":"2024-09-09T23:20:17Z","tX":508,"tY":353,"tags":{"capacity":"15","caravan_site":"motorhome_stopover","caravan_site:type":"town","dog":"yes","drinking_water":"yes","fee":"no","name":"Aire de camping-cars Avranches","opening_hours":"24/7","payment:coins":"yes","power_supply":"yes","sanitary_dump_station":"yes","sanitary_dump_station:chemical_toilet":"yes","sanitary_dump_station:grey_water":"yes","waste_disposal:fee":"yes","water_point":"yes","water_point:fee":"2 EUR","website":"https://www.ot-montsaintmichel.com/camping/aire-de-stationnement-et-de-services/"}},"1314506591":{"location":[48.5727694,-1.088012],"ct":"FR","tp":"CR","ts":"2024-10-10T13:51:01Z","tX":508,"tY":353,"tags":{"caravan_site":"motorhome_stopover","caravan_site:type":"lake;village","fee":"no","name":"Aire Plan d'eau du Prieuré","opening_hours":"24/7","picnic_table":"yes","power_supply":"yes","sanitary_dump_station":"yes","seasonal":"no","water_point":"yes","website":"https://www.ot-montsaintmichel.com/camping/aire-de-stationnement-et-de-services-au-plan-deau/"}},"6624917050":{"location":[48.6847954,-1.3706033],"ct":"FR","tp":"CS","ts":"2023-04-15T20:42:12Z","tX":508,"tY":353,"tags":{"addr:city":"Avranches","addr:housenumber":"6","addr:postcode":"50300","addr:street":"Chemin de la Boutonnière","alt_name":"Camping Vert au Jardin Zoe","caravans":"yes","internet_access":"wlan","internet_access:fee":"no","name":"Power Salad Farm et Camping","phone":"+33 6 78 18 11 32","shower":"yes","tents":"31","toilets":"yes","website":"http://www.powersalad.farm"}},"12166216539":{"location":[48.6210129,-1.2948082],"ct":"FR","tp":"CR","ts":"2024-10-21T22:14:15Z","tX":508,"tY":353,"tags":{"caravan_site":"motorhome_stopover","caravan_site:type":"parking_lot;castle","fee":"no","maxstay":"24 hours","name":"Parking Ducey","sanitary_dump_station":"no","surface":"asphalt","toilets":"yes","water_point":"no"}},"7322760538":{"location":[48.5063668,-1.237071],"ct":"FR","tp":"SD","ts":"2024-09-19T20:39:57Z","tX":508,"tY":353,"tags":{"access":"yes"}},"12166442490":{"location":[48.5461991,-1.1740404],"ct":"FR","tp":"SD","ts":"2024-09-09T20:49:15Z","tX":508,"tY":353,"tags":{"access":"yes","fee":"no","name":"Aire de Services Saint-Martin de Landelles","sanitary_dump_station:chemical_toilet":"yes","sanitary_dump_station:grey_water":"yes","seasonal":"no","water_point":"yes","website":"https://www.ot-montsaintmichel.com/camping/aire-de-services-saint-martin-de-landelles/"}},"12166897731":{"location":[48.5727792,-1.0872173],"ct":"FR","tp":"SD","ts":"2024-09-09T23:16:56Z","tX":508,"tY":353,"tags":{}},"12166912773":{"location":[48.686578,-1.3677174],"ct":"FR","tp":"SD","ts":"2024-09-09T23:20:17Z","tX":508,"tY":353,"tags":{"access":"yes"}},"12187032623":{"location":[48.4891966,-1.1885351],"ct":"FR","tp":"SD","ts":"2024-09-19T20:35:58Z","tX":508,"tY":353,"tags":{}}}