{"72912632":{"location":[48.3530645,-1.1823381],"ct":"FR","tp":"CS","ts":"2022-06-30T09:12:02Z","tX":508,"tY":354,"tags":{"addr:city":"Fougères","addr:postcode":"35300","addr:street":"Route de La Chapelle-Janson","capacity":"88","email":"camping@fougeres.fr","fax":"+33 2 99 99 70 83","fee":"yes","internet_access":"no","internet_access:fee":"no","name":"Camping municipal de Paron","opening_hours":"Mai 2 - Sep 30: Mo-Su 09:00-12:30,15:00-20:00","opening_hours:signed":"no","phone":"+33 2 99 99 40 81","source":"cadastre-dgi-fr source : Direction Générale des Impôts - Cadastre. Mise à jour : 2010","website":"https://fougeres.fr/sortir-et-decouvrir/camping-municipal/"}},"167375996":{"location":[48.2314446,-1.1797658],"ct":"FR","tp":"CS","ts":"2025-06-08T11:46:43Z","tX":508,"tY":354,"tags":{"caravans":"yes","name":"Camping Les rives du lac","tents":"yes","website":"https://www.campinglesrivesdulac.fr/"}},"170366201":{"location":[48.2602477,-1.3957116],"ct":"FR","tp":"CS","ts":"2022-09-30T21:14:56Z","tX":508,"tY":354,"tags":{"addr:city":"Saint-Aubin-du-Cormier","addr:postcode":"35140","addr:street":"Rue de l'Étang","cabins":"yes","camp_site":"serviced","capacity:pitches":"19","caravans":"yes","name":"Camping de Saint-Aubin du Cormier","phone":"+33 788213529","shower":"yes","stars":"1","tents":"yes","toilets":"yes","website":"https://www.saint-aubin-du-cormier.bzh/decouvrir-saint-aubin/camping-municipal-de-letang/"}},"199157778":{"location":[48.3553998,-1.2108428],"ct":"FR","tp":"CR","ts":"2024-09-19T23:20:23Z","tX":508,"tY":354,"tags":{"caravan_site":"motorhome_stopover","caravan_site:type":"town","charge":"4 €","dog":"yes","fee":"yes","fee:conditional":"no @ (Nov-Mar)","name":"Parking de la Carrière - Fougères","picnic_area":"yes","sanitary_dump_station":"yes","water_point":"yes","website":"https://www.destination-fougeres.bzh/aire-camping-car/aire-de-camping-cars-et-de-pique-nique-de-la-carriere/#tarifs","wikidata":"Q117192019"}},"317634697":{"location":[48.4110084,-1.3626718],"ct":"FR","tp":"CR","ts":"2024-05-27T07:32:32Z","tX":508,"tY":354,"tags":{"capacity":"15","caravan_site":"motorhome_stopover","caravan_site:type":"village;swimming_pool","description":"Aire de services pour camping-car de Saint-Brice-en-Coglès","fee":"no","name":"Espace Jules Verne","name:en":"Saint-Brice-en-Coglès campervan service area","opening_hours":"24/7","sanitary_dump_station":"yes","surface":"asphalt","water_point":"yes","water_point:charge":"2 EUR/5 minutes","water_point:fee":"yes","website":"https://www.tourisme-marchesdebretagne.com/sejour/aire-de-services-camping-car-saint-brice-en-cogles/"}},"497776279":{"location":[48.4123608,-1.256127],"ct":"FR","tp":"CS","ts":"2020-08-19T17:35:07Z","tX":508,"tY":354,"tags":{"name":"Camping Entre Pierres et Collines","phone":"+33 2 99 95 69 09","website":"http://camping-gite.com"}},"967931613":{"location":[48.3559729,-1.202723],"ct":"FR","tp":"SD","ts":"2022-10-29T14:47:52Z","tX":508,"tY":354,"tags":{}},"1155015736":{"location":[48.3551237,-1.2111837],"ct":"FR","tp":"SD","ts":"2024-05-10T16:17:53Z","tX":508,"tY":354,"tags":{"fee":"no","name":"Parking de la Carrière","opening_hours":"24/7"}},"1281442812":{"location":[48.4049967,-1.3670687],"ct":"FR","tp":"CS","ts":"2024-05-10T12:55:24Z","tX":508,"tY":354,"tags":{"access":"customers","addr:city":"Maen Roch","addr:postcode":"35460","addr:street":"Rue de la Gare","capacity:persons":"17","capacity:tents":"5","drinking_water":"yes","email":"etapepoetique@maenroch.fr","fee":"yes","name":"L'Étape Poétique","operator":"Commune de Maen Roch","picnic_table":"yes","shower":"yes","tents":"yes","toilets":"yes","website":"https://www.maenroch.fr/letape-poetique/","wheelchair":"yes"}},"11819809769":{"location":[48.2658942,-1.1402179],"ct":"FR","tp":"CS","ts":"2024-12-03T11:53:55Z","tX":508,"tY":354,"tags":{"addr:postcode":"35210","addr:street":"Rue du Saut Roland","email":"lescabanesdelabelleaude@gmail.com","name":"Les cabanes de la Belle-Aude","opening_hours":"Mo-Su 09:00-16:00","phone":"0773241373;0676458569","website":"https://illeetvilaine-mb-prestataire.for-system.com/f129134_fr-.aspx"}},"6426619686":{"location":[48.3570667,-1.2016837],"ct":"FR","tp":"CR","ts":"2023-12-18T11:42:09Z","tX":508,"tY":354,"tags":{"addr:postcode":"35300","addr:street":"Allen des Fêtes","caravan_site":"motorhome_stopover","caravan_site:type":"parking_lot","dog":"yes","fee":"no","internet_access":"no","maxstay":"48 hours","name":"Aire du jardin des fêtes","opening_hours":"24/7","sanitary_dump_station":"no","seasonal":"no","tents":"no","toilets":"yes","website":"https://www.ille-et-vilaine-tourisme.bzh/offres/aire-du-jardin-des-fetes-fougeres-fr-2727628/"}},"7093615356":{"location":[48.4373441,-1.0593438],"ct":"FR","tp":"CR","ts":"2024-09-17T00:12:27Z","tX":508,"tY":354,"tags":{"capacity":"50","caravan_site":"motorhome_stopover","caravan_site:type":"village","dog":"yes","fee":"no","name":"Aire de service camping-cars Pontmain","picnic_area":"yes","sanitary_dump_station":"yes","sanitary_dump_station:chemical_toilet":"yes","sanitary_dump_station:grey_water":"yes","seasonal":"no","water_point":"yes","water_point:fee":"no","website":"https://www.mayenne-tourisme.com/offres/aire-de-service-camping-cars-pontmain-fr-554346/"}},"4916602085":{"location":[48.4111215,-1.3624677],"ct":"FR","tp":"SD","ts":"2017-06-15T10:31:51Z","tX":508,"tY":354,"tags":{}},"9863478280":{"location":[48.3533827,-1.1824259],"ct":"FR","tp":"SD","ts":"2022-07-03T09:21:35Z","tX":508,"tY":354,"tags":{"name":"Camping municipal de Paron"}},"10940654781":{"location":[48.3439617,-1.274246],"ct":"FR","tp":"SD","ts":"2023-05-30T21:26:16Z","tX":508,"tY":354,"tags":{"access":"yes","fee":"no","opening_hours":"24/7","sanitary_dump_station:accepted":"black_water;grey_water","sanitary_dump_station:gravity":"yes","survey:date":"2023-05-30","water_point":"yes"}},"12181198020":{"location":[48.4380119,-1.0601753],"ct":"FR","tp":"SD","ts":"2024-09-17T00:12:27Z","tX":508,"tY":354,"tags":{"access":"yes","fee":"no"}}}