{"12726105":{"location":[47.3609297,-1.1882961],"ct":"FR","tp":"CS","ts":"2024-06-25T23:08:57Z","tX":508,"tY":358,"tags":{"access":"customers","addr:street":"Impasse de l'Île Mouchet","cabins":"yes","caravans":"yes","contact:email":"camping-ile-mouchet@orange.fr","fee":"yes","name":"Camping de l'île Mouchet","phone":"+33 2 40 83 08 43","source":"Bing","stars":"3","tents":"yes","website":"https://www.camping-estivance.com/"}},"119137150":{"location":[47.3119473,-1.328991],"ct":"FR","tp":"CS","ts":"2022-08-28T08:51:16Z","tX":508,"tY":358,"tags":{"access":"customers","addr:street":"Les Grenettes","capacity":"20","caravans":"yes","contact:email":"camping.lavarenne@oreedanjou.fr","name":"Camping municipal Les Grenettes","operator":"Commune de L'Orée d'Anjou","phone":"+33 2 40 98 51 04","tents":"yes","website":"https://www.oreedanjou.fr/hebergements/"}},"263289672":{"location":[47.3428146,-1.2902185],"ct":"FR","tp":"CS","ts":"2024-03-21T15:21:00Z","tX":508,"tY":358,"tags":{"access":"customers","caravans":"yes","drinking_water":"yes","fee":"yes","internet_access":"yes","name":"Camping municipal de la Tour","opening_hours":"May 01-Aug 31","operator":"Mairie d'Oudon","phone":"+33 2 40 83 80 22;+33 2 40 83 60 17","power_supply":"yes","sanitary_dump_station":"customers","shower":"yes","tents":"yes","toilets":"yes","website":"https://www.oudon.fr/tourisme-et-culture/hebergements/camping"}},"317381326":{"location":[47.5139668,-1.288233],"ct":"FR","tp":"CR","ts":"2024-10-18T23:19:37Z","tX":508,"tY":358,"tags":{"capacity":"7","caravan_site":"motorhome_stopover","caravan_site:type":"lake","fee":"no","name":"Aire de camping-car de la Bénate","opening_hours":"24/7","sanitary_dump_station":"yes","seasonal":"no","surface":"asphalt","water_point":"yes","website":"https://www.enpaysdelaloire.com/hebergements/aires-de-camping-car/aire-de-service-la-benate"}},"320797900":{"location":[47.3838291,-1.3775735],"ct":"FR","tp":"CS","ts":"2023-06-11T17:06:47Z","tX":508,"tY":358,"tags":{"addr:city":"Ligné","addr:hamlet":"La Chapeaudière","addr:housenumber":"40","addr:postcode":"44850","addr:street":"La Chapeaudière","email":"domainedelachapeaudiere@orange.fr","fee":"yes","name":"Domaine de la Chapeaudière - Chouk'Aze","phone":"+33 2 28 24 65 04","website":"https://www.domainedelachapeaudiere.com/"}},"392507213":{"location":[47.3444345,-1.2075773],"ct":"FR","tp":"CS","ts":"2024-04-30T15:42:34Z","tX":508,"tY":358,"tags":{"access":"customers","addr:street":"Drain","capacity":"47","caravans":"yes","contact:email":"camping.drain@oreedanjou.fr","fee":"yes","name":"L'Orée des Boires Camping Municipal","phone":"+33 2 40 98 20 30","static_caravans":"yes","tents":"yes","website":"https://www.oreedanjou.fr/hebergements/"}},"624437481":{"location":[47.3649554,-1.1075658],"ct":"FR","tp":"CS","ts":"2024-05-13T20:29:23Z","tX":508,"tY":358,"tags":{"access":"customers","addr:street":"Bouzillé","cabins":"yes","caravans":"yes","fee":"yes","name":"Camping les Babins","phone":"+33 6 47 24 33 58","stars":"2","tents":"yes","website":"https://camping-babins.fr/"}},"836093563":{"location":[47.4596873,-1.2774785],"ct":"FR","tp":"CR","ts":"2024-09-16T21:27:29Z","tX":508,"tY":358,"tags":{"caravan_site":"motorhome_stopover","caravan_site:type":"village","fee":"yes","name":"Aire camping-cars Teillé","opening_hours":"24/7","power_supply":"yes","sanitary_dump_station":"customers","seasonal":"no","website":"https://www.teille44.fr/page/descriptif_camping_car"}},"909625355":{"location":[47.4381581,-1.2276736],"ct":"FR","tp":"CR","ts":"2024-10-25T22:02:10Z","tX":508,"tY":358,"tags":{"access":"yes","addr:city":"Mésanger","addr:postcode":"45210","addr:street":"La Sebilière","capacity":"3","caravan_site":"motorhome_stopover","description":"Aire de camping-car","fee":"no","maxstay":"no","name":"Aire de camping-car Mésanger","operator":"Ville de Mésanger","power_supply":"no","sanitary_dump_station":"yes","sanitary_dump_station:chemical_toilet":"yes","sanitary_dump_station:grey_water":"yes","sanitary_dump_station:round_drain":"yes","supervised":"no","water_point":"yes","website":"https://www.mesanger.fr/mes-loisirs/aire-camping-car/"}},"1237874407":{"location":[47.290729,-1.2940596],"ct":"FR","tp":"CR","ts":"2024-01-07T20:34:06Z","tX":508,"tY":358,"tags":{"caravan_site":"motorhome_stopover","caravan_site:type":"winery","fee":"no","name":"Vignoble du Champ Chapron","seasonal":"no","water_point":"yes","website":"https://www.domaineduchampchapron.com/actualites/laventure-france-passion-bienvenue-aux-camping-cars/"}},"1317028497":{"location":[47.3671258,-1.1740267],"ct":"FR","tp":"CR","ts":"2024-10-23T11:12:27Z","tX":508,"tY":358,"tags":{"capacity":"2","caravan_site":"motorhome_stopover","caravan_site:type":"town;river","dog":"yes","ele":"13","fee":"no","maxstay":"48 hours","name":"Aire de stationnement Barriere St Pierre - Ancenis","opening_hours":"24/7","picnic_table":"yes","seasonal":"no","surface":"asphalt","toilets":"yes","water_point":"yes","website":"https://www.enpaysdelaloire.com/hebergements/aires-de-camping-car/aire-de-stationnement-barriere-st-pierre-ancenis"}},"9937699002":{"location":[47.3294762,-1.344612],"ct":"FR","tp":"CS","ts":"2022-08-07T17:21:25Z","tX":508,"tY":358,"tags":{"addr:housenumber":"22","addr:street":"Allée de Clermont","name":"Camping à la ferme - Les Rangs d’Oignons","phone":"+33610669550","website":"https://www.lesrangsdoignons.com/"}},"11157686174":{"location":[47.3454597,-1.2836049],"ct":"FR","tp":"CR","ts":"2024-09-22T23:59:28Z","tX":508,"tY":358,"tags":{"caravan_site":"motorhome_stopover","caravan_site:type":"river","caravans":"no","fee":"no","maxstay":"48 hours","name":"Aire Parking de La Loire - Oudon","power_supply":"no","sanitary_dump_station":"no","seasonal":"no","tents":"no","toilets":"no","water_supply":"no","website":"https://www.enpaysdelaloire.com/hebergements/aires-de-camping-car/aire-de-stationnement-parking-de-la-loire"}},"12158663881":{"location":[47.3397978,-1.0743776],"ct":"FR","tp":"CR","ts":"2024-09-05T23:07:52Z","tX":508,"tY":358,"tags":{"capacity":"3","caravan_site":"motorhome_stopover","caravan_site:type":"winery","dog":"yes","name":"Aire de camping-car domaine de la Gironière","opening_hours":"24/7"}},"8445749163":{"location":[47.3198895,-1.3480893],"ct":"FR","tp":"SD","ts":"2021-11-20T14:40:26Z","tX":508,"tY":358,"tags":{"description":"Station de vidange pour Camping-car. Pas de vidange eau noire de disponible.","fee":"no","operator":"Ville de Le Cellier","sanitary_dump_station:chemical_toilet":"no","sanitary_dump_station:grey_water":"yes","sanitary_dump_station:round_drain":"yes","water_point":"yes"}},"8445786883":{"location":[47.438159,-1.2276457],"ct":"FR","tp":"SD","ts":"2024-10-25T22:02:10Z","tX":508,"tY":358,"tags":{"access":"yes","fee":"no","operator":"Ville de Mésanger","sanitary_dump_station:chemical_toilet":"yes","sanitary_dump_station:grey_water":"yes","sanitary_dump_station:round_drain":"yes","water_point":"yes"}},"12180998341":{"location":[47.459549,-1.2776642],"ct":"FR","tp":"SD","ts":"2025-03-27T20:29:32Z","tX":508,"tY":358,"tags":{"fee":"yes"}}}