{"15052938":{"location":[45.9028307,-1.3020569],"ct":"FR","tp":"CS","ts":"2024-04-24T20:57:48Z","tX":508,"tY":364,"tags":{"name":"Les Flots Atlantiques","phone":"+33 5 46 76 59 56","website":"https://lesflots-atlantique.fr"}},"26858352":{"location":[45.904167,-1.215278],"ct":"FR","tp":"CS","ts":"2010-10-08T20:41:47Z","tX":508,"tY":364,"tags":{"name":"La Brande","stars":"4"}},"26858973":{"location":[45.946944,-1.3125],"ct":"FR","tp":"CS","ts":"2007-03-28T17:13:20Z","tX":508,"tY":364,"tags":{"created_by":"JOSM","name":"Pierrire"}},"71532281":{"location":[45.9865498,-1.291822],"ct":"FR","tp":"CS","ts":"2023-09-21T10:35:25Z","tX":508,"tY":364,"tags":{"addr:city":"Saint-Georges-d'Oléron","addr:postcode":"17190","contact:email":"ccdf.lagautrelle@wanadoo.fr","contact:phone":"+335 4647 21 57","contact:website":"https://www.campingclubdefrance.fr/index.php/fr/la-gautrelle","name":"Camping de la Gautrelle"}},"125884227":{"location":[45.9701867,-1.3186704],"ct":"FR","tp":"CS","ts":"2021-07-11T08:23:46Z","tX":508,"tY":364,"tags":{"contact:phone":"+335 46 76 57 70","name":"Verébleu","stars":"5","website":"https://campingclubverebleu.site-solocal.com/"}},"125884228":{"location":[45.9688324,-1.3212413],"ct":"FR","tp":"CS","ts":"2021-07-11T08:26:39Z","tX":508,"tY":364,"tags":{"capacity:tents":"100","caravans":"yes","contact:phone":"+335 46 76 65 47","name":"Les 4 vents d'Oléron","stars":"4","tents":"yes","website":"https://les4ventsdoleron.site-solocal.com/"}},"125884232":{"location":[45.9717143,-1.3137425],"ct":"FR","tp":"CS","ts":"2019-05-03T14:01:39Z","tX":508,"tY":364,"tags":{"email":"info@oleron-loisirs.com","fee":"yes","internet_access":"wlan","name":"Camping Oléron Loisirs","phone":"+33 5 35 54 71 82","stars":"4","website":"https://www.camping-oleron-loisirs.com/"}},"125884240":{"location":[45.9686322,-1.3168714],"ct":"FR","tp":"CS","ts":"2011-08-13T12:30:22Z","tX":508,"tY":364,"tags":{}},"200936833":{"location":[45.9940836,-1.0855805],"ct":"FR","tp":"CS","ts":"2024-09-25T17:15:59Z","tX":508,"tY":364,"tags":{"camp_site":"deluxe","capacity":"498","caravans":"yes","contact:phone":"+33 5 46 82 19 19","drinking_water":"yes","internet_access":"wlan","name":"Le Cadoret","opening_hours:reception":"Mo-Su 09:00-12:30,13:30-18:00","power_supply":"yes","ref:FR:NAF":"5530Z","ref:FR:SIREN":"211701685","ref:FR:SIRET":"21170168500128","shower":"hot","source":"INSEE - 2024-09","stars":"3","static_caravans":"yes","tents":"yes","toilets":"yes","website":"https://www.campings-fouras.com/camping-le-cadoret-fouras.php","wheelchair":"designated"}},"204260192":{"location":[45.9787661,-1.2400616],"ct":"FR","tp":"CS","ts":"2021-05-03T10:01:34Z","tX":508,"tY":364,"tags":{"name":"Camping Les Saumonards"}},"223400465":{"location":[45.9596119,-1.1162784],"ct":"FR","tp":"CR","ts":"2024-05-22T13:34:34Z","tX":508,"tY":364,"tags":{"bbq":"no","capacity":"50","caravan_site":"motorhome_stopover","caravan_site:type":"beach; island","caravans":"yes","caravans:conditional":"no @ (Nov-Mar)","charge":"18.44 EUR","dog":"leashed","fee":"yes","internet_access":"wlan","maxlength":"none","name":"Aire Camping-car Park Île Madame","network":"CAMPING-CAR PARK","power_supply":"yes","power_supply:capacity":"60","power_supply:maxcurrent":"6","sanitary_dump_station":"yes","shower":"yes","shower:conditional":"no @ (Nov-Mar)","tents":"yes","tents:conditional":"no @ (Nov-Mar)","toilets":"yes","toilets:conditional":"no @ (Nov-Mar)","trailer":"yes","water_point":"yes","website":"https://www.campingcarpark.com/fr_FR/sejour/camping/nouvelle-aquitaine/17-charente-maritime/ile-madame"}},"224404666":{"location":[46.0729731,-1.0781807],"ct":"FR","tp":"CR","ts":"2024-05-17T22:11:24Z","tX":508,"tY":364,"tags":{"access":"customers","bbq":"no","capacity":"51","caravan_site":"motorhome_stopover","caravan_site:type":"beach","caravans":"no","charge":"16.15 EUR","charge:conditional":"13.20 EUR @,(Nov-Mar)","dog":"leashed","fee":"yes","internet_access":"wlan","internet_access:fee":"no","maxlength":"none","name":"Aire CAMPING-CAR PARK de Châtelaillon-Plage","network":"CAMPING-CAR PARK","operator":"CAMPING-CAR Park","phone":"+33183646921","power_supply":"yes","power_supply:maxcurrent":"6","sanitary_dump_station":"yes","tents":"no","trailer":"yes","water_point":"yes","website":"https://www.campingcarpark.com/fr_FR/sejour/aire-etape-camping-car/nouvelle-aquitaine/17-charente-maritime/chatelaillon-plage"}},"224628705":{"location":[45.9473328,-1.0927327],"ct":"FR","tp":"CS","ts":"2023-07-17T06:41:36Z","tX":508,"tY":364,"tags":{"caravans":"yes","contact:email":"camping@ville-portdesbarques.fr","contact:phone":"+335 46 84 80 66","drinking_water":"yes","name":"La Garenne","operator":"Camping municipal","stars":"3","tents":"yes","website":"http://www.camping-municipal-portdesbarques.com"}},"233535098":{"location":[46.0556698,-1.0822483],"ct":"FR","tp":"CS","ts":"2021-07-11T08:13:36Z","tX":508,"tY":364,"tags":{"caravans":"yes","contact:phone":"+335 17 81 00 00","description":"Accueil vélo","internet_access:fee":"no","name":"Camping Port-Punay","sanitary_dump_station":"customers","source":"Survey + Bing + terrain","stars":"4","tents":"yes","website":"https://www.camping-port-punay.com/"}},"298557962":{"location":[45.9606462,-1.3653872],"ct":"FR","tp":"CS","ts":"2021-07-09T15:15:45Z","tX":508,"tY":364,"tags":{"contact:phone":"+332 51 28 10 20","internet_access":"wlan","internet_access:fee":"yes","name":"Les Cabanes d'Oléron","stars":"4","website":"https://www.camping-vagues-oceanes.com/camping-ile-oleron/cabanes-oleron.html"}},"298557963":{"location":[45.9617036,-1.3711068],"ct":"FR","tp":"CS","ts":"2024-04-26T14:08:54Z","tX":508,"tY":364,"tags":{"addr:street":"Route de l'Hermitage","caravans":"yes","contact:phone":"+335 46 76 52 31","fee":"yes","name":"Camping Les Grosses Pierres","operator":"Vagues Océanes","stars":"3","tents":"yes","website":"https://www.camping-vagues-oceanes.com/"}},"298811217":{"location":[45.9579847,-1.3823136],"ct":"FR","tp":"CS","ts":"2021-07-09T14:56:27Z","tX":508,"tY":364,"tags":{"caravans":"yes","contact:phone":"+335 46 76 52 31","name":"Les Sables Vignier Plage","stars":"3","tents":"yes","website":"https://www.campingsablesvignierplage.com"}},"299125940":{"location":[45.9540187,-1.3807329],"ct":"FR","tp":"CS","ts":"2024-04-23T22:04:41Z","tX":508,"tY":364,"tags":{"addr:housenumber":"850","addr:postcode":"17190","addr:street":"Rue de Ponthezière","fax":"+33 546766774","name":"Camping Les Gros Joncs","phone":"+33 546765229","website":"https://www.camping-les-gros-joncs.com/"}},"299125949":{"location":[45.9571246,-1.3799749],"ct":"FR","tp":"CS","ts":"2014-08-20T20:50:13Z","tX":508,"tY":364,"tags":{}},"299125954":{"location":[45.9578757,-1.3786868],"ct":"FR","tp":"CS","ts":"2021-07-11T08:40:15Z","tX":508,"tY":364,"tags":{"caravans":"yes","contact:email":"info@campinglescoquettes.com","contact:phone":"+335 46 76 49 29","name":"Les Coquettes","stars":"3","tents":"yes","website":"https://www.camping-oleron-lescoquettes.com"}},"299475471":{"location":[45.9780068,-1.0832239],"ct":"FR","tp":"CR","ts":"2024-10-08T17:04:42Z","tX":508,"tY":364,"tags":{"bbq":"no","capacity":"104","caravan_site":"motorhome_stopover","caravan_site:type":"beach","caravans":"yes","caravans:conditional":"no @ (Sep-Jun)","charge":"14.44 EUR","charge:conditional":"12.44 EUR @ (Oct-Apr)","contact:email":"camping-de-lesperance@orange.fr","contact:phone":"+335 46 84 24 18","description":"tents and caravans only allowed Jul-Aug","dog":"leashed","drinking_water":"yes","fee":"yes","internet_access":"wlan","maxlength":"9","motorhome":"yes","name":"Camping-Car Park l'Espérance - Fouras","network":"CAMPING-CAR PARK","power_supply":"yes","power_supply:capacity":"100","power_supply:fee":"no","power_supply:maxcurrent":"6","sanitary_dump_station:chemical_toilet":"yes","sanitary_dump_station:grey_water":"yes","shower":"yes","shower:conditional":"no @ (Sep-Jun)","tents":"yes","tents:conditional":"no @ (Sep-Jun)","toilets":"yes","toilets:conditional":"no @ (Sep-Jun)","toilets:wheelchair":"limited","trailer":"yes","website":"https://www.campingcarpark.com/fr_FR/sejour/camping/nouvelle-aquitaine/17-charente-maritime/fouras","wheelchair":"limited"}},"299475763":{"location":[45.9472136,-1.3743747],"ct":"FR","tp":"CS","ts":"2018-07-31T10:13:36Z","tX":508,"tY":364,"tags":{"addr:housenumber":"1705","addr:postcode":"17190","addr:street":"Rue de Ponthezière","fax":"+33 546 750424","name":"Camping-Park Le Suroit","phone":"+33 546 470725","website":"http://www.camping-lesuroit.com/"}},"299475786":{"location":[45.9484216,-1.3655457],"ct":"FR","tp":"CS","ts":"2021-07-11T08:44:29Z","tX":508,"tY":364,"tags":{"caravans":"yes","contact:email":"camping-leprelong@orange.fr","contact:mobile":"+336 47 79 17 00","contact:phone":"+335 46 75 05 30","name":"Le Prélong","stars":"2","tents":"yes","website":"https://camping-leprelong.monsite-orange.fr/"}},"299541721":{"location":[45.9623842,-1.3562584],"ct":"FR","tp":"CS","ts":"2014-08-22T18:44:42Z","tX":508,"tY":364,"tags":{}},"299679212":{"location":[45.9576702,-1.363445],"ct":"FR","tp":"CS","ts":"2024-09-25T18:25:38Z","tX":508,"tY":364,"tags":{"contact:phone":"+335 46 76 69 07","name":"La Boulinière","ref:FR:NAF":"5530Z","ref:FR:SIREN":"391769767","ref:FR:SIRET":"39176976700024","source":"INSEE - 2024-09","stars":"5","website":"https://www.campinglabouliniere.com/"}},"299679213":{"location":[45.9572538,-1.3675754],"ct":"FR","tp":"CS","ts":"2024-04-23T22:04:41Z","tX":508,"tY":364,"tags":{"camp_site":"deluxe","capacity":"493","caravans":"no","contact:phone":"+335 46 76 52 22","drinking_water":"yes","fee":"yes","internet_access":"yes","motor_vehicle":"yes","name":"Mer et Soleil d'Oléron","operator":"Siblu","reservation":"yes","stars":"5","static_caravans":"yes","swimming_pool":"yes","tents":"no","washing_machine":"yes","website":"https://mersoleil-oleron.fr/"}},"300378281":{"location":[46.0203125,-1.3571766],"ct":"FR","tp":"CS","ts":"2024-01-02T14:55:09Z","tX":508,"tY":364,"tags":{"caravans":"yes","email":"info@camping-antiochedoleron.com","internet_access":"yes","internet_access:fee":"yes","name":"Camping Antioche d'Oléron","phone":"+33546479200","stars":"3","tents":"yes","website":"https://www.camping-antiochedoleron.com/"}},"304711359":{"location":[45.9694516,-1.2470295],"ct":"FR","tp":"CS","ts":"2025-04-03T11:42:28Z","tX":508,"tY":364,"tags":{"caravans":"yes","contact:phone":"+33 2 51204194","fee":"yes","internet_access":"yes","name":"Camping Signol","operator":"Olela","stars":"5","tents":"yes","website":"https://www.olela.fr/campings/camping-signol","wheelchair":"yes"}},"304719669":{"location":[45.9795592,-1.2978729],"ct":"FR","tp":"CS","ts":"2014-09-23T21:16:22Z","tX":508,"tY":364,"tags":{}},"359618204":{"location":[45.8815611,-1.2059056],"ct":"FR","tp":"CS","ts":"2024-01-10T16:16:22Z","tX":508,"tY":364,"tags":{"name":"Airotel d'Oléron"}},"371155275":{"location":[45.9174711,-1.2523823],"ct":"FR","tp":"CS","ts":"2024-05-20T13:10:19Z","tX":508,"tY":364,"tags":{"email":"camping.la.cailletiere@orange.fr","internet_access":"wlan","name":"Camping la Cailletière","phone":"+33 5 46 75 36 33","sanitary_dump_station":"customers","stars":"3","website":"https://www.camping-lacailletiere.com/","wheelchair":"limited"}},"473725097":{"location":[46.033099,-1.3742228],"ct":"FR","tp":"CS","ts":"2023-01-03T17:58:25Z","tX":508,"tY":364,"tags":{"addr:city":"Saint-Denis-d'Oléron","addr:housenumber":"2","addr:postcode":"17650","addr:street":"Impasse des Passeroses","capacity":"69","capacity:caravans":"69","caravans":"yes","email":"contact@campingleslauriers.fr","mobile":"+33 6 33 34 84 24","name":"Les Lauriers","phone":"+33 5 46 47 91 53","stars":"2","tents":"yes","website":"https://www.campingleslauriers.fr"}},"482438966":{"location":[45.9140998,-1.278939],"ct":"FR","tp":"CS","ts":"2023-03-21T17:55:12Z","tX":508,"tY":364,"tags":{"cabins":"yes","capacity":"228","caravans":"yes","name":"Les Floralies","phone":"+33 546 753075","shower":"yes","stars":"4","toilets":"yes","website":"https://www.lesfloralies17.fr/"}},"482438971":{"location":[45.9050646,-1.2682209],"ct":"FR","tp":"CS","ts":"2023-01-05T12:22:10Z","tX":508,"tY":364,"tags":{"addr:city":"Dolus d'Oléron","addr:housenumber":"671","addr:postcode":"17550","addr:street":"Route du Treuil","caravans":"yes","email":"contact@camping-lemontet-doleron.com","internet_access":"wlan","internet_access:fee":"no","name":"Le Montet d'Oléron","phone":"+33 5 46 75 61 54","ref:FR:SIRET":"79503726600025","sanitary_dump_station":"customers","stars":"3","tents":"yes","website":"https://www.camping-lemontet-doleron.com/"}},"492760434":{"location":[45.8815462,-1.2478611],"ct":"FR","tp":"CS","ts":"2022-05-24T22:34:12Z","tX":508,"tY":364,"tags":{"caravans":"yes","email":"contact@campinglemaine-oleron.com","name":"Camping Le Maine","phone":"+33 5 46 75 42 76","sanitary_dump_station":"customers","stars":"4","tents":"yes","website":"https://www.campinglemaine-oleron.com"}},"492760436":{"location":[45.8626071,-1.2421316],"ct":"FR","tp":"CS","ts":"2023-10-25T08:57:02Z","tX":508,"tY":364,"tags":{"capacity":"243","caravans":"yes","email":"contact@lespinsdoleron.com","name":"Les pins d'Oléron","phone":"+33 5 46 47 50 13","shower":"yes","stars":"4","tents":"yes","toilets":"yes","website":"https://www.lespinsdoleron.com/"}},"506672485":{"location":[46.0030084,-1.3601154],"ct":"FR","tp":"CR","ts":"2024-01-06T23:07:49Z","tX":508,"tY":364,"tags":{"caravan_site":"motorhome_stopover","caravan_site:type":"winery","fee":"no","maxstay":"2 nights","name":"Maxime Pinard","reservation":"no","website":"https://www.maxime-pinard.fr/aire-repos-camping-cars-ile-oleron/"}},"510512431":{"location":[45.8300464,-1.2181936],"ct":"FR","tp":"CS","ts":"2024-09-26T15:28:22Z","tX":508,"tY":364,"tags":{"cabins":"yes","capacity":"208","caravans":"yes","drinking_water":"yes","email":"info@st-tro-park.com","internet_access":"wlan","internet_access:fee":"yes","motorhome":"yes","name":"Saint-Tro'Park","phone":"+33 5 46 76 00 47","power_supply":"yes","shower":"yes","stars":"4","tents":"yes","toilets":"yes","website":"https://www.st-tro-park.com"}},"516075146":{"location":[46.0139976,-1.3905013],"ct":"FR","tp":"CS","ts":"2024-04-25T20:58:25Z","tX":508,"tY":364,"tags":{"addr:city":"Saint Denis d'Oléron","addr:housenumber":"15","addr:postcode":"17650","addr:street":"rue des seulières","caravans":"no","contact:phone":"+335 46 75 21 69","name":"Camping Les Huttes","operator":"Capfun","stars":"4","tents":"no","website":"https://www.capfun.com/camping-france-poitou_charentes-huttes-FR.html"}},"516761520":{"location":[45.8863611,-1.2740273],"ct":"FR","tp":"CS","ts":"2024-08-20T12:32:45Z","tX":508,"tY":364,"tags":{"addr:city":"Dolus-d'Oléron","addr:housenumber":"9","addr:postcode":"17550","addr:street":"Passe de l'Ecuissière","bar":"yes","cabins":"yes","caravans":"yes","drinking_water":"yes","internet_access":"wlan","internet_access:fee":"no","name":"Oléron Les Chênes Verts","nudism":"no","opening_hours":"Mo-Su 07:00-23:00","operator":"Huttopia","phone":"+33 5 46 75 32 88","power_supply":"yes","reservation":"required","sanitary_dump_station":"yes","shower":"yes","stars":"3","swimming_pool":"no","tents":"yes","toilets":"yes","website":"https://europe.huttopia.com/nl/site/oleron-les-chenes-verts","wheelchair":"limited"}},"676509507":{"location":[45.978229,-1.0825953],"ct":"FR","tp":"CR","ts":"2024-09-12T05:47:18Z","tX":508,"tY":364,"tags":{"cabins":"no","capacity":"10","caravan_site":"motorhome_stopover","caravan_site:type":"beach","caravans":"no","drinking_water":"yes","fee":"8.30 EUR/day","internet_access":"no","maxstay":"1 day","motorhome":"only","name":"Aire de l'Espérance","openfire":"no","opening_hours":"24/7","operator":"Fouras-les-Bains","permanent_camping":"no","reservation":"no","sanitary_dump_station":"yes","sanitary_dump_station:chemical_toilet":"yes","sanitary_dump_station:grey_water":"yes","source":"BDOrtho IGN - available 2019 at the latest","tents":"yes","toilets":"no","water_point":"yes","website":"https://www.rochefort-ocean.com/organiser/informations-pratiques/aires-de-camping-car/aire-de-stationnement-esperance-112434","wheelchair":"limited"}},"679587577":{"location":[45.8312105,-1.213274],"ct":"FR","tp":"CS","ts":"2024-04-10T09:32:29Z","tX":508,"tY":364,"tags":{"name":"Huttopia Les Pins","phone":"+33 5 46 76 02 39","stars":"3","website":"https://europe.huttopia.com/site/camping-oleron-les-pins/"}},"680044344":{"location":[45.9182537,-1.2878117],"ct":"FR","tp":"CS","ts":"2024-05-03T21:23:04Z","tX":508,"tY":364,"tags":{"name":"L'Orée des Bois"}},"699611282":{"location":[46.039273,-1.3765512],"ct":"FR","tp":"CS","ts":"2020-11-01T17:20:23Z","tX":508,"tY":364,"tags":{"internet_access":"wlan","name":"Camping municipal Saint-Denis-d'Oléron"}},"700164856":{"location":[45.9681339,-1.3196491],"ct":"FR","tp":"CS","ts":"2019-06-27T15:45:47Z","tX":508,"tY":364,"tags":{"name":"Le Domaine d'Oléron"}},"715064498":{"location":[45.9258181,-1.3454309],"ct":"FR","tp":"CS","ts":"2019-08-18T14:17:05Z","tX":508,"tY":364,"tags":{"caravans":"no","name":"Les Cupressus","stars":"3","static_caravans":"yes","tents":"no","website":"https://www.camping-oleron.info/le-camping"}},"721541193":{"location":[46.0280056,-1.3845975],"ct":"FR","tp":"CR","ts":"2024-07-18T17:24:31Z","tX":508,"tY":364,"tags":{"caravan_site":"motorhome_stopover","caravan_site:type":"village","charge":"14.82 EUR","fee":"yes","name":"Aire du Moulin Saint-Denis d'Oléron","opening_hours":"24/7","operator":"Commune de Saint-Denis d'Oléron","power_supply":"yes","sanitary_dump_station":"yes","seasonal":"no","shower":"yes","water_point":"yes","website":"https://www.st-denis-oleron.com/aire-spcialise-camping-car"}},"727704995":{"location":[45.8304842,-1.1319579],"ct":"FR","tp":"CS","ts":"2019-09-24T10:05:27Z","tX":508,"tY":364,"tags":{"description":"camping à la ferm"}},"731247253":{"location":[45.9895722,-1.3135388],"ct":"FR","tp":"CS","ts":"2024-05-24T13:36:42Z","tX":508,"tY":364,"tags":{"access":"private","addr:city":"Saint-Georges-d'Oléron","addr:country":"FR","addr:housenumber":"350","addr:postcode":"17190","addr:street":"Rue de la Malentreprise","capacity":"107","caravans":"yes","fee":"yes","internet_access":"wlan","name":"GCU Saint-Georges-d'Oléron","operator":"Groupement des Campeurs Universitaires","phone":"+33 5 46 76 65 98","stars":"2","static_caravans":"yes","tents":"yes","website":"https://www.gcu.asso.fr/terrains/saint-georges-dol%C3%A9ron-charente-maritime-17","wheelchair":"yes"}},"751147165":{"location":[45.9617994,-1.2457603],"ct":"FR","tp":"CS","ts":"2024-11-12T16:44:50Z","tX":508,"tY":364,"tags":{"name":"Camping Fort Royer","operator":"Comité d'Établissement EADS Sogerma Rochefort","ref:FR:NAF":"5530Z","ref:FR:SIREN":"952639979","ref:FR:SIRET":"95263997900022","source":"survey;BDOrtho IGN"}},"857327700":{"location":[45.9923876,-1.3805503],"ct":"FR","tp":"CS","ts":"2025-03-05T18:38:39Z","tX":508,"tY":364,"tags":{"access":"customers","addr:city":"Saint-Georges-d'Oléron","addr:housenumber":"464","addr:postcode":"17190","addr:street":"Chemin de l'Acheneau Chaucre","caravans":"yes","contact:email":"contact@la-campiere.com","contact:phone":"+335 46 76 72 25","name":"La Campiere","ref:FR:NAF":"55.30Z","ref:FR:SIREN":"530442748","ref:FR:SIRET":"53044274800014","source":"INSEE - 2025-03","stars":"4","tents":"yes","website":"https://www.la-campiere.com/"}},"907108560":{"location":[45.8871283,-1.2142145],"ct":"FR","tp":"CS","ts":"2021-02-14T18:28:50Z","tX":508,"tY":364,"tags":{"name":"Le Pigeonnier"}},"950756106":{"location":[45.8552446,-1.2305063],"ct":"FR","tp":"CS","ts":"2021-06-04T11:21:33Z","tX":508,"tY":364,"tags":{"name":"Azureva"}},"962683694":{"location":[45.9346227,-1.059201],"ct":"FR","tp":"CS","ts":"2024-09-25T17:18:24Z","tX":508,"tY":364,"tags":{"caravans":"yes","contact:phone":"+335 46 84 81 65","name":"L'Abri Côtier","operator":"Flower Camping","ref:FR:NAF":"5530Z","ref:FR:SIREN":"485161145","ref:FR:SIRET":"48516114500019","source":"INSEE - 2024-09","stars":"3","tents":"yes","website":"https://www.camping-la-rochelle.net/"}},"962926874":{"location":[46.0230107,-1.3607313],"ct":"FR","tp":"CS","ts":"2021-07-09T13:49:18Z","tX":508,"tY":364,"tags":{"caravans":"no","contact:phone":"+335 46 47 83 03","name":"Cap Soleil","stars":"4","tents":"no","website":"https://www.cap-soleil-oleron.com"}},"968743645":{"location":[45.9482873,-1.3121049],"ct":"FR","tp":"CS","ts":"2024-05-25T09:09:36Z","tX":508,"tY":364,"tags":{"name":"Les Jardins de Saint-Pierre"}},"1055300361":{"location":[46.04161,-1.4057972],"ct":"FR","tp":"CS","ts":"2024-10-24T17:07:04Z","tX":508,"tY":364,"tags":{"name":"Camping Le Chassiron","ref:FR:NAF":"5530Z","ref:FR:SIREN":"877922047","ref:FR:SIRET":"87792204700015","source":"INSEE - 2024-10"}},"1056466299":{"location":[45.8892497,-1.1988969],"ct":"FR","tp":"CS","ts":"2022-05-01T16:43:53Z","tX":508,"tY":364,"tags":{"name":"Les Remparts","stars":"2"}},"1089341438":{"location":[45.9952426,-1.0763174],"ct":"FR","tp":"PK","ts":"2024-05-25T19:17:19Z","tX":508,"tY":364,"tags":{"access":"yes","capacity:disabled":"0","caravans":"yes","fee":"no","parking":"surface","sanitary_dump_station":"no","surface":"gravel"}},"1125164552":{"location":[45.9023993,-1.2938394],"ct":"FR","tp":"CS","ts":"2022-12-27T13:10:51Z","tX":508,"tY":364,"tags":{"addr:city":"Dolus-d'Oléron","addr:housenumber":"50","addr:postcode":"17550","addr:street":"avenue Grande Baie - La Perroche","name":"Camping L'Océan","phone":"+33 5 46 75 31 70","stars":"3","website":"https://www.camping-ocean-oleron.com"}},"1156112314":{"location":[45.9122069,-1.2776479],"ct":"FR","tp":"CS","ts":"2024-09-25T18:24:59Z","tX":508,"tY":364,"tags":{"cabins":"yes","caravans":"yes","name":"Le Héron","phone":"+33 546 753 075","ref:FR:NAF":"5530Z","ref:FR:SIREN":"808385561","ref:FR:SIRET":"80838556100044","shower":"yes","source":"INSEE - 2024-09","stars":"3","tents":"yes","toilets":"yes","website":"https://www.leheron17.fr/"}},"1179634925":{"location":[45.9797639,-1.0787578],"ct":"FR","tp":"CS","ts":"2023-06-07T00:27:12Z","tX":508,"tY":364,"tags":{"access":"customers","addr:housenumber":"9","addr:street":"Route de Soumard","caravans":"yes","contact:instagram":"https://www.instagram.com/azurevavacances/","contact:linkedin":"https://www.linkedin.com/company/azureva/mycompany/","contact:tiktok":"https://www.tiktok.com/@azureva_vacances","description":"Ouvert de mars à novembre\nLabellisé : Accueil Vélo.","drinking_water":"yes","email":"fouras@azureva-vacances.com","facebook":"https://www.facebook.com/AzurevaVacances/","fee":"yes","name":"Azureva camping","payment:credit_cards":"yes","payment:debit_cards":"yes","phone":"+33546840119","power_supply":"yes","shower":"yes","static_caravans":"yes","tents":"yes","toilets":"yes","toilets:wheelchair":"yes","twitter":"https://twitter.com/azurevavacances","website":"https://www.azureva-vacances.com/fr/hotellerie-de-plein-air/fouras-camping","wheelchair":"limited"}},"1218707172":{"location":[46.0089545,-1.1770464],"ct":"FR","tp":"CS","ts":"2024-09-18T11:49:21Z","tX":508,"tY":364,"tags":{"caravans":"no","name":"Camping du Fort de la Rade","phone":"+33546842828","tents":"yes","website":"https://www.pierreetvacances.com/"}},"1237366935":{"location":[45.9334147,-1.3271087],"ct":"FR","tp":"CR","ts":"2024-04-04T23:35:53Z","tX":508,"tY":364,"tags":{"caravan_site":"motorhome_stopover","caravan_site:type":"winery","fee":"no","name":"Vignoble Vincent","opening_hours":"24/7","operator":"Vignoble Vincent","power_supply":"no","sanitary_dump_station":"no","seasonal":"no","water_point":"no","website":"https://www.vignoble-vincent.com/visite-guidee-du-domaine/"}},"1238614510":{"location":[45.9215225,-1.3372141],"ct":"FR","tp":"CS","ts":"2024-06-01T12:59:20Z","tX":508,"tY":364,"tags":{"addr:city":"Saint-Denis-d'Oléron","addr:housenumber":"72","addr:place":"La Cotinière","addr:postcode":"17310","addr:street":"Avenue des Pins","caravans":"no","check_date":"2024-06-01","email":"contact@camping-les-tamaris.com","fee":"yes","name":"Les Tamaris","phone":"+33 5 46 47 10 51","source":"cadastre-dgi-fr source : Direction Générale des Impôts - Cadastre. Mise à jour : 2011","stars":"2","static_caravans":"yes","tents":"no","website":"https://www.camping-les-tamaris.com/","wheelchair":"yes"}},"1271407568":{"location":[45.8329494,-1.2143012],"ct":"FR","tp":"CS","ts":"2024-04-10T09:32:29Z","tX":508,"tY":364,"tags":{"name":"Camping Odalys Monplaisir"}},"1271412285":{"location":[46.0026439,-1.3838235],"ct":"FR","tp":"CS","ts":"2024-04-10T09:49:11Z","tX":508,"tY":364,"tags":{"name":"Les Oliviers"}},"1271412286":{"location":[46.0041885,-1.3827912],"ct":"FR","tp":"CS","ts":"2024-10-30T14:26:55Z","tX":508,"tY":364,"tags":{"addr:housenumber":"1371","addr:street":"Rue des Seulières","caravans":"yes","drinking_water":"yes","name":"Camping Les Seulières","phone":"+33 5 46 47 90 51","power_supply":"yes","ref:FR:NAF":"5530Z","ref:FR:SIREN":"894823749","ref:FR:SIRET":"89482374900029","sanitary_dump_station":"yes","shower":"yes","source":"INSEE - 2024-10","tents":"yes","toilets":"yes","website":"http://www.campinglesseulieres.fr/"}},"1275419729":{"location":[45.9696901,-1.3863335],"ct":"FR","tp":"CS","ts":"2024-04-23T22:04:41Z","tX":508,"tY":364,"tags":{"addr:city":"Saint-Georges-d'Oléron","addr:housenumber":"397","addr:postcode":"17190","addr:street":"Chemin du Rateau","alt_name":"l'Anse des Pins","contact:phone":"+335 46 76 55 97","name":"Anse des Pins","website":"https://lansedespins.site-solocal.com/"}},"1275851452":{"location":[45.9225306,-1.3424536],"ct":"FR","tp":"CS","ts":"2024-04-24T20:57:48Z","tX":508,"tY":364,"tags":{"name":"Les Pins","source":"cadastre-dgi-fr source : Direction Générale des Impôts - Cadastre. Mise à jour : 2011","stars":"2"}},"1275851453":{"location":[45.9237136,-1.3405949],"ct":"FR","tp":"CS","ts":"2024-04-24T20:57:48Z","tX":508,"tY":364,"tags":{"name":"Le Sous Bois","source":"cadastre-dgi-fr source : Direction Générale des Impôts - Cadastre. Mise à jour : 2011","stars":"2"}},"1276396494":{"location":[46.038736,-1.3868724],"ct":"FR","tp":"CS","ts":"2024-04-26T11:05:24Z","tX":508,"tY":364,"tags":{"email":"beaupins@vacances-ulvf.com","name":"Village Vacances Les Beaupins","phone":"+33 5 46 47 85 74","website":"https://www.vacances-ulvf.com/nos-villages/les-beaupins"}},"1276396497":{"location":[46.0402401,-1.3887593],"ct":"FR","tp":"CS","ts":"2024-10-23T17:50:06Z","tX":508,"tY":364,"tags":{"addr:city":"Saint-Denis-d'Oléron","addr:housenumber":"7","addr:postcode":"17650","addr:street":"Impasse des Beaupins","name":"Phare Ouest","phone":"+33 5 46 47 90 00","ref:FR:NAF":"5510Z","ref:FR:SIREN":"423856277","ref:FR:SIRET":"42385627700037","source":"INSEE - 2024-10","website":"https://www.campingphareouest.com/"}},"1276396498":{"location":[46.0405349,-1.3903284],"ct":"FR","tp":"CS","ts":"2024-10-30T14:26:54Z","tX":508,"tY":364,"tags":{"name":"Le Sabia","phone":"+33 5 46 47 97 84","ref:FR:NAF":"5530Z","ref:FR:SIREN":"751431396","ref:FR:SIRET":"75143139600025","source":"INSEE - 2024-10","website":"http://www.camping-le-sabia.com/"}},"1279470378":{"location":[45.9187243,-1.296842],"ct":"FR","tp":"CS","ts":"2024-05-03T21:23:04Z","tX":508,"tY":364,"tags":{"name":"Fleur d'Oléron"}},"1279470379":{"location":[45.9172257,-1.2911289],"ct":"FR","tp":"CS","ts":"2024-05-03T21:23:04Z","tX":508,"tY":364,"tags":{"name":"Aqua Trois Masses"}},"1279470380":{"location":[45.9209539,-1.2909727],"ct":"FR","tp":"CS","ts":"2024-05-03T21:23:04Z","tX":508,"tY":364,"tags":{"name":"La Doucelière"}},"1279470381":{"location":[45.9196367,-1.2888162],"ct":"FR","tp":"CS","ts":"2024-09-25T18:25:19Z","tX":508,"tY":364,"tags":{"name":"Les Cercelles","ref:FR:NAF":"5530Z","ref:FR:SIREN":"401139142","ref:FR:SIRET":"40113914200012","source":"INSEE - 2024-09"}},"1280555247":{"location":[45.9467415,-1.0906063],"ct":"FR","tp":"CR","ts":"2024-05-09T14:43:39Z","tX":508,"tY":364,"tags":{"bbq":"no","capacity":"43","caravan_site":"motorhome_stopover","caravan_site:type":"beach","caravans":"no","charge":"15.19 EUR","charge:conditional":"13.55@(Oct-Apr)","dog":"leashed","fee":"yes","internet_access":"wlan","internet_access:fee":"no","maxlength":"none","name":"Aire de Camping Car Port-des-Barques, Pré des Mays","network":"CAMPING-CAR PARK","power_supply":"yes","power_supply:capacity":"40","power_supply:fee":"no","power_supply:maxcurrent":"6","sanitary_dump_station":"yes","tents":"no","toilets":"no","trailer":"yes","water_point":"yes","website":"https://www.campingcarpark.com/fr_FR/sejour/aire-etape-camping-car/nouvelle-aquitaine/17-charente-maritime/port-des-barques"}},"1282001275":{"location":[45.9133152,-1.2532585],"ct":"FR","tp":"CR","ts":"2024-07-02T12:16:58Z","tX":508,"tY":364,"tags":{"caravan_site":"motorhome_stopover","caravan_site:type":"village","charge":"10 EUR","fee":"yes","name":"Aire de Camping-Cars de Dolus d’Oléron","opening_hours":"24/7","power_supply:charge":"4 EUR/hour","power_supply:fee":"yes","sanitary_dump_station":"yes","surface":"asphalt","water_point":"yes","water_point:charge":"4 EUR/100 liter","water_point:fee":"yes","website":"https://www.ville-dolus-oleron.fr/mon-quotidien/transports/aire-de-stationnement/"}},"1284862022":{"location":[45.9231403,-1.2706302],"ct":"FR","tp":"CS","ts":"2024-09-12T16:18:01Z","tX":508,"tY":364,"tags":{"name":"Camping Les Grissotières","official_name":"Camping Les Grissotières","ref:FR:NAF":"5530Z","ref:FR:SIREN":"510759046","ref:FR:SIRET":"51075904600012","source":"data.gouv.fr:DATAtourisme - 05/2020"}},"1284862031":{"location":[45.9128499,-1.22469],"ct":"FR","tp":"CS","ts":"2024-05-20T13:10:19Z","tX":508,"tY":364,"tags":{"name":"Ostrea"}},"1315005312":{"location":[45.9958399,-1.1057735],"ct":"FR","tp":"CR","ts":"2024-11-15T11:04:46Z","tX":508,"tY":364,"tags":{"access":"no","caravan_site":"motorhome_stopover","caravan_site:type":"fortress","charge":"8.30 EUR","drinking_water":"no","fee":"yes","fixme":"En travaux jusqu'au 30 juin 2025","internet_access":"no","name":"Aire du Fort de l'Aiguille","opening_hours":"24/7","operator":"Municipalité de Fouras","power_supply":"no","reservation":"no","sanitary_dump_station":"no","toilets":"no","website":"https://www.rochefort-ocean.com/organiser/informations-pratiques/aires-de-camping-car/aire-de-stationnement-11-novembre-112443"}},"1316229477":{"location":[45.8437813,-1.2088446],"ct":"FR","tp":"CR","ts":"2024-09-17T20:08:12Z","tX":508,"tY":364,"tags":{"caravan_site":"motorhome_stopover","caravan_site:type":"parking_lot","fee":"no","maxstay":"72 hours","name":"Parking de la liberté - Saint-Trojan-les-Bains.","power_supply":"no","surface":"asphalt","website":"https://www.st-trojan-les-bains.fr/preparer-mes-vacances/ou-dormir/aires-specialisees-camping-cars/aire-de-stationnement-camping-car-parking-de-la-liberte"}},"1316229916":{"location":[45.8411417,-1.205252],"ct":"FR","tp":"CR","ts":"2024-09-17T20:11:23Z","tX":508,"tY":364,"tags":{"caravan_site":"motorhome_stopover","caravan_site:type":"parking_lot","fee":"no","name":"Parking Patoizeau","power_supply":"no","sanitary_dump_station":"no","seasonal":"no","water_point":"no","website":"https://www.st-trojan-les-bains.fr/preparer-mes-vacances/ou-dormir/aires-specialisees-camping-cars/aire-de-stationnement-camping-car-parking-patoizeau"}},"2394425994":{"location":[46.0104223,-1.3887383],"ct":"FR","tp":"CS","ts":"2024-10-23T17:49:35Z","tX":508,"tY":364,"tags":{"addr:city":"Saint-Denis-d'Oléron","addr:housenumber":"680","addr:postcode":"17650","addr:street":"Rue des Seulières","name":"Camping Barataud","ref:FR:NAF":"5530Z","ref:FR:SIREN":"423856277","ref:FR:SIRET":"42385627700029","source":"INSEE - 2024-10"}},"5013657721":{"location":[45.9905718,-1.3726166],"ct":"FR","tp":"CS","ts":"2022-02-16T21:57:31Z","tX":508,"tY":364,"tags":{"addr:street":"Chemin de la Sablière","name":"Les Payolles"}},"5079366864":{"location":[45.9059456,-1.3100553],"ct":"FR","tp":"CS","ts":"2017-09-04T16:02:49Z","tX":508,"tY":364,"tags":{"backcountry":"yes","caravans":"yes","drinking_water":"no","fee":"no","name":"Camping La Perroche Plage","tents":"yes"}},"6702450187":{"location":[45.8314037,-1.1508937],"ct":"FR","tp":"CS","ts":"2024-07-07T16:52:01Z","tX":508,"tY":364,"tags":{"addr:postcode":"17560","addr:street":"Route touristique","caravans":"yes","drinking_water":"yes","email":"campinglagiroflee@outlook.fr","internet_access":"wlan","name":"Camping La Giroflée","opening_hours":"Apr-Oct Mo-Su 09:00-12:00,15:00-19:00","phone":"+33546850643","power_supply":"yes","shower":"yes","stars":"2","tents":"yes","toilets":"yes","website":"https://www.entreprisefrery.com/camping-la-giroflee/","wheelchair":"no"}},"7724135385":{"location":[45.9508477,-1.2502802],"ct":"FR","tp":"CS","ts":"2020-07-17T11:24:01Z","tX":508,"tY":364,"tags":{"name":"CAES"}},"9788393017":{"location":[46.01888,-1.3553237],"ct":"FR","tp":"CS","ts":"2022-06-01T13:27:44Z","tX":508,"tY":364,"tags":{"name":"Camping Communal Le Planginot"}},"11085182505":{"location":[45.9673873,-1.317102],"ct":"FR","tp":"CS","ts":"2023-08-03T08:12:02Z","tX":508,"tY":364,"tags":{"name":"Le Transat"}},"12171219878":{"location":[45.9917897,-1.0874239],"ct":"FR","tp":"CR","ts":"2024-09-17T20:17:58Z","tX":508,"tY":364,"tags":{"caravan_site":"motorhome_stopover","caravan_site:type":"parking_lot","caravans":"no","fee":"no","name":"Aire de services (Cadoret) - Fouras","power_supply":"no","sanitary_dump_station":"yes","seasonal":"no","tents":"no","water_point":"yes","website":"https://www.rochefort-ocean.com/organiser/informations-pratiques/aires-de-camping-car/aire-de-services-cadoret-112435"}},"9670890048":{"location":[45.9919649,-1.0869034],"ct":"FR","tp":"SD","ts":"2024-09-17T20:17:58Z","tX":508,"tY":364,"tags":{"access":"yes","fee":"yes"}},"11783642546":{"location":[45.9785912,-1.0824607],"ct":"FR","tp":"SD","ts":"2024-04-03T17:40:15Z","tX":508,"tY":364,"tags":{"access":"yes","fee":"yes"}},"11886551988":{"location":[45.9471121,-1.0900176],"ct":"FR","tp":"SD","ts":"2024-05-07T12:38:03Z","tX":508,"tY":364,"tags":{"access":"customers","fee":"no"}}}