{"15627521":{"location":[45.6870116,-1.1134986],"ct":"FR","tp":"CS","ts":"2023-03-21T22:00:46Z","tX":508,"tY":365,"tags":{"brand":"Eldapi Vacances","caravans":"yes","name":"La Ferme","phone":"+33 5 33 06 27 16","shower":"yes","tents":"yes","toilets":"yes","website":"https://www.eldapi-vacances.fr/camping-charente-maritime/la-ferme/"}},"15627522":{"location":[45.6885727,-1.1092861],"ct":"FR","tp":"CS","ts":"2023-03-27T20:38:04Z","tX":508,"tY":365,"tags":{"cabins":"yes","caravans":"yes","email":"camping-lesvignes17@orange.fr","internet_access":"wlan","internet_access:fee":"yes","name":"Les Vignes","phone":"+33 5 46 23 19 34","shower":"yes","stars":"3","tents":"yes","toilets":"yes","website":"https://www.campinglesvignes17.com"}},"17632611":{"location":[45.7223027,-1.1685589],"ct":"FR","tp":"CS","ts":"2024-05-24T13:38:54Z","tX":508,"tY":365,"tags":{"email":"contact@la-cledeschamps.com","fax":"+33 5 46 22 56 96","name":"Les Charmettes","operator":"Siblu","phone":"+33 5 46 22 40 53","stars":"3","website":"https://www.la-cledeschamps.com/"}},"80513158":{"location":[45.7026561,-1.1569483],"ct":"FR","tp":"CS","ts":"2021-07-05T22:12:16Z","tX":508,"tY":365,"tags":{"contact:phone":"+335 46 23 67 66","name":"Palmyre Loisir","operator":"Eden villages","source":"cadastre-dgi-fr source : Direction Générale des Impôts - Cadastre. Mise à jour : 2010","stars":"4","website":"https://www.palmyreloisirs.com/"}},"87883782":{"location":[45.6934094,-1.1843696],"ct":"FR","tp":"CS","ts":"2021-12-09T23:08:01Z","tX":508,"tY":365,"tags":{"name":"Capfun","source":"cadastre-dgi-fr source : Direction Générale des Impôts - Cadastre. Mise à jour : 2010","stars":"4"}},"87883788":{"location":[45.6936882,-1.1824071],"ct":"FR","tp":"CS","ts":"2024-09-21T01:08:44Z","tX":508,"tY":365,"tags":{"name":"Camping Beausoleil","ref:FR:SIRET":"40442796500011","source":"INSEE - 2024-03","stars":"3"}},"87887081":{"location":[45.6967802,-1.1993295],"ct":"FR","tp":"CS","ts":"2022-01-15T18:27:11Z","tX":508,"tY":365,"tags":{"addr:city":"Les Mathes","addr:housenumber":"7","addr:postcode":"17570","addr:street":"Route du Phare de la Coubre","capacity":"626","contact:phone":"+33 546 224090","fee":"yes","internet_access":"wlan","internet_access:fee":"yes","motorhome":"yes","name":"Bonne Anse Plage","operator":"Siblu France","stars":"4"}},"87891799":{"location":[45.695729,-1.2261637],"ct":"FR","tp":"CS","ts":"2025-06-19T17:33:28Z","tX":508,"tY":365,"tags":{"contact:phone":"+33 546 224018","motorhome":"yes","name":"Parc de la Côte Sauvage","stars":"5"}},"97870130":{"location":[45.6439163,-1.0646256],"ct":"FR","tp":"CS","ts":"2025-06-07T16:23:25Z","tX":508,"tY":365,"tags":{"caravans":"yes","fax":"+335 46 38 06 15","fee":"yes","internet_access":"wlan","internet_access:fee":"yes","laundry":"yes","motorhome":"yes","name":"Camping Val-Vert","phone":"+335 46 38 25 51","power_supply":"yes","seasonal":"yes","socket:cee_blue":"yes","stars":"3","static_caravans":"yes","surface":"grass","tents":"yes","website":"https://www.camping-val-vert.com/"}},"98130975":{"location":[45.6417072,-1.0774545],"ct":"FR","tp":"CS","ts":"2024-10-08T09:59:10Z","tX":508,"tY":365,"tags":{"access":"private","internet_access":"wlan","internet_access:fee":"no","name":"Camping de Bernezac","stars":"3","static_caravans":"yes","website":"http://www.acccf.com/campings/bernezac","wheelchair":"yes"}},"98426510":{"location":[45.6471723,-1.0738096],"ct":"FR","tp":"CS","ts":"2024-10-01T17:56:55Z","tX":508,"tY":365,"tags":{"caravans":"yes","email":"campingormeaux@aliceadsl.fr","fax":"+33 5 46 38 56 66","name":"Camping Les Ormeaux","phone":"+33 5 46 39 02 07","ref:FR:NAF":"5530Z","ref:FR:SIREN":"781371075","ref:FR:SIRET":"78137107500016","source":"INSEE - 2024-10","stars":"3","tents":"yes","website":"https://www.campinglesormeaux.com"}},"98600930":{"location":[45.6501035,-1.0592692],"ct":"FR","tp":"CS","ts":"2025-01-20T00:51:13Z","tX":508,"tY":365,"tags":{"name":"Camping de Chauchamp"}},"98638239":{"location":[45.6577837,-1.0717539],"ct":"FR","tp":"CS","ts":"2024-10-11T15:10:48Z","tX":508,"tY":365,"tags":{"addr:city":"Saint-Palais-sur-Mer","addr:housenumber":"4","addr:postcode":"17420","addr:street":"Rue des Fougères","capacity":"207","fee":"yes","internet_access":"yes","internet_access:fee":"yes","name":"Camping Les Pins","operator":"Camping Les Pins","phone":"+33 5 46 23 30 83","power_supply":"yes","ref:FR:SIRET":"42827714900012","stars":"2","static_caravans":"yes","toilets":"yes","website":"https://www.camping-lespins.com/"}},"99004817":{"location":[45.6556472,-1.0846321],"ct":"FR","tp":"CS","ts":"2024-09-09T14:59:44Z","tX":508,"tY":365,"tags":{"caravans":"yes","name":"La Borderie","phone":"+33546233058","ref:FR:NAF":"5530Z","ref:FR:SIREN":"519572382","ref:FR:SIRET":"51957238200017","source":"INSEE - 2024-09","stars":"2","tents":"yes","website":"https://www.laborderie.com/"}},"99275694":{"location":[45.6523553,-1.1088232],"ct":"FR","tp":"CS","ts":"2025-01-19T15:39:44Z","tX":508,"tY":365,"tags":{"contact:phone":"+335 46 23 20 23","internet_access":"yes","name":"Le Logis","operator":"Yukadi","power_supply":"no","stars":"3","tents":"yes","website":"https://www.lelogis.com/fr"}},"99277320":{"location":[45.6506882,-1.1156305],"ct":"FR","tp":"CS","ts":"2021-07-05T22:18:28Z","tX":508,"tY":365,"tags":{"caravans":"yes","contact:phone":"+335 46 23 20 31","name":"Puits de l'Auture","stars":"4","tents":"yes"}},"110379748":{"location":[45.6919274,-1.1890865],"ct":"FR","tp":"CR","ts":"2024-09-01T16:14:53Z","tX":508,"tY":365,"tags":{"bbq":"no","capacity":"79","caravan_site":"motorhome_stopover","caravan_site:type":"town","charge":"15.32 EUR","charge:conditional":"13.32 EUR@(Oct-Apr)","dog":"yes","fee":"yes","maxlength":"none","name":"Aire Camping-Car Park de La Palmyre, Corsaire","network":"CAMPING-CAR PARK","operator":"CAMPING-CAR PARK","sanitary_dump_station":"yes","water_point":"yes","website":"https://www.campingcarpark.com/fr_FR/sejour/aire-etape-camping-car/nouvelle-aquitaine/17-charente-maritime/la-palmyre-corsaire"}},"110379788":{"location":[45.7007174,-1.1676974],"ct":"FR","tp":"CS","ts":"2019-03-19T13:25:54Z","tX":508,"tY":365,"tags":{"name":"Atlantic Parc","phone":"+33 5 46 02 17 17","stars":"3","website":"https://www.camping-atlantique-parc.com/"}},"110535391":{"location":[45.7067645,-1.1704187],"ct":"FR","tp":"CS","ts":"2021-08-27T07:29:10Z","tX":508,"tY":365,"tags":{"access":"private","addr:city":"Les Mathes","addr:housenumber":"1 bis","addr:postcode":"17570","addr:street":"Avenue de la Résinerie","fee":"yes","name":"Domaine de Montcalm","stars":"2"}},"111051471":{"location":[45.7177582,-1.176924],"ct":"FR","tp":"CS","ts":"2023-11-09T12:36:41Z","tX":508,"tY":365,"tags":{"name":"Les Pins de la Coubre","stars":"2"}},"121813356":{"location":[45.710938,-1.1478962],"ct":"FR","tp":"CS","ts":"2025-06-11T10:34:39Z","tX":508,"tY":365,"tags":{"access":"customers","capacity":"241","capacity:tents":"7","name":"Les Trois Coups","stars":"1"}},"122420571":{"location":[45.7197188,-1.1636525],"ct":"FR","tp":"CS","ts":"2024-09-24T15:44:09Z","tX":508,"tY":365,"tags":{"email":"info@camping-lescharmettes.com","fax":"+335 46 23 69 70","internet_access":"yes","name":"Les Charmettes","phone":"+335 46 22 50 96","ref:FR:NAF":"5530Z","ref:FR:SIREN":"321737736","ref:FR:SIRET":"32173773600025","source":"INSEE - 2024-09","stars":"4","website":"http://www.camping-lescharmettes.com"}},"122433187":{"location":[45.7161659,-1.1555833],"ct":"FR","tp":"CS","ts":"2015-11-07T02:13:04Z","tX":508,"tY":365,"tags":{"name":"Monplaisir","stars":"3"}},"122789622":{"location":[45.7233543,-1.1775838],"ct":"FR","tp":"CS","ts":"2023-10-25T08:55:03Z","tX":508,"tY":365,"tags":{"internet_access":"yes","name":"La Palombière","phone":"+335 46 22 69 25","stars":"3","website":"https://www.camping-lapalombiere.com/"}},"122994936":{"location":[45.726983,-1.1798917],"ct":"FR","tp":"CS","ts":"2023-05-08T21:42:26Z","tX":508,"tY":365,"tags":{"addr:city":"Les Mathes","addr:housenumber":"2103","addr:postcode":"17570","addr:street":"Route de la Fouasse","caravans":"yes","internet_access":"wlan","name":"Aquatique Club la Pinède 4*","operator":"Tohapi","phone":"+33 5 35 37 14 12","stars":"4","static_caravans":"yes","tents":"yes","website":"https://www.campinglapinede.com"}},"122995247":{"location":[45.7291652,-1.1795304],"ct":"FR","tp":"CS","ts":"2023-05-08T21:42:26Z","tX":508,"tY":365,"tags":{"addr:city":"Les Mathes","addr:housenumber":"225","addr:postcode":"17570","addr:street":"Route de la Bouverie","caravans":"yes","name":"Sandaya - l'Orée du Bois","operator":"Sandaya","phone":"+33 5 46 22 42 43","stars":"5","static_caravans":"yes","tents":"yes","website":"https://www.sandaya.fr/nos-campings/l-oree-du-bois"}},"122995252":{"location":[45.7314621,-1.1784769],"ct":"FR","tp":"CS","ts":"2023-05-08T21:42:26Z","tX":508,"tY":365,"tags":{"addr:city":"Les Mathes","addr:housenumber":"2596","addr:postcode":"17570","addr:street":"Route de la Fouasse","caravans":"yes","email":"reservation@cote-o.fr","name":"Côté Ô La Palmyre -L'Estanquet","operator":"Côté Ô","phone":"+33 5 47 74 30 72","stars":"4","static_caravans":"yes","tents":"yes"}},"140314805":{"location":[45.7898797,-1.161464],"ct":"FR","tp":"CS","ts":"2022-05-01T16:43:53Z","tX":508,"tY":365,"tags":{"name":"Camping Mon Désir"}},"140314813":{"location":[45.7848852,-1.1647532],"ct":"FR","tp":"CS","ts":"2025-03-25T10:52:00Z","tX":508,"tY":365,"tags":{"name":"La Pignade","operator":"Siblu","stars":"4","website":"http://www.camping-lapignade.com/"}},"140501067":{"location":[45.7890285,-1.1555829],"ct":"FR","tp":"CS","ts":"2024-10-19T15:28:57Z","tX":508,"tY":365,"tags":{"caravans":"yes","drinking_water":"yes","email":"campinglesombrages@free.fr","internet_access":"wlan","internet_access:fee":"yes","name":"Camping Les Ombrages","phone":"+33 5 46 36 08 41","power_supply":"yes","shower":"yes","stars":"2","tents":"yes","toilets":"yes","website":"http://www.campinglesombrages.fr/"}},"140501068":{"location":[45.789235,-1.1578908],"ct":"FR","tp":"CS","ts":"2024-10-19T15:28:56Z","tX":508,"tY":365,"tags":{"cabins":"yes","capacity":"13","caravans":"yes","drinking_water":"yes","email":"contact@lespins.com","fax":"+33 5 46 36 50 77","internet_access":"wlan","internet_access:fee":"yes","name":"Activ'loisirs","phone":"+33 5 46 36 07 75","power_supply":"yes","ref:FR:NAF":"5530Z","ref:FR:SIREN":"381170141","ref:FR:SIRET":"38117014100026","sanitary_dump_station":"customers","shower":"yes","source":"INSEE - 2024-07","stars":"3","tents":"yes","toilets":"yes","website":"https://www.activ-loisirs.com"}},"140501070":{"location":[45.7920862,-1.1555751],"ct":"FR","tp":"CS","ts":"2021-04-16T23:21:27Z","tX":508,"tY":365,"tags":{"caravans":"yes","contact:phone":"+335 46 36 08 45","name":"Les Genêts","stars":"2","tents":"yes","toilets:wheelchair":"yes","website":"https://www.atlantique-genets.fr/","wheelchair":"yes"}},"140660152":{"location":[45.7962071,-1.1494663],"ct":"FR","tp":"CS","ts":"2023-01-04T12:08:44Z","tX":508,"tY":365,"tags":{"caravans":"yes","email":"lemusdeloup@wanadoo.fr","internet_access":"wlan","mobile":"+33 6 19 38 70 46","name":"Le Mus de Loup","phone":"+33 5 46 36 31 17","ref:FR:SIRET":"40908534700014","stars":"2","tents":"yes","website":"https://www.lemusdeloup.com"}},"154711394":{"location":[45.771274,-1.1664801],"ct":"FR","tp":"CS","ts":"2023-04-10T12:28:01Z","tX":508,"tY":365,"tags":{"cabins":"yes","caravans":"yes","internet_access":"wlan","internet_access:fee":"yes","name":"Camping La Clairière","phone":"+33 5 46 36 36 63","sanitary_dump_station":"customers","shower":"yes","stars":"4","tents":"yes","toilets":"yes","website":"https://www.camping-la-clairiere.com/"}},"155576848":{"location":[45.7640576,-1.1531749],"ct":"FR","tp":"CS","ts":"2022-05-24T22:34:12Z","tX":508,"tY":365,"tags":{"capacity":"268","caravans":"no","email":"contact@lacoulumiere.fr","internet_access":"wlan","internet_access:fee":"no","name":"La Coulumière","phone":"+33 5 46 36 02 24","stars":"3","tents":"no","website":"https://www.lacoulumiere.fr/"}},"157023015":{"location":[45.7591015,-1.1736929],"ct":"FR","tp":"CS","ts":"2022-07-20T13:18:27Z","tX":508,"tY":365,"tags":{"stars":"2","swimming_pool":"yes","tents":"yes"}},"172922929":{"location":[45.7324373,-1.1030363],"ct":"FR","tp":"CS","ts":"2012-07-25T13:06:41Z","tX":508,"tY":365,"tags":{"internet_access":"wlan","internet_access:fee":"no","name":"Camping du Parc","stars":"2","website":"http://www.campingduparc17.com/"}},"207330032":{"location":[45.8111171,-1.0636885],"ct":"FR","tp":"CS","ts":"2019-03-19T13:30:56Z","tX":508,"tY":365,"tags":{"name":"Séquoia Parc","website":"https://www.sequoiaparc.com/"}},"210790389":{"location":[45.6736067,-1.0987714],"ct":"FR","tp":"CS","ts":"2015-11-10T16:00:01Z","tX":508,"tY":365,"tags":{"name":"Le Logis du Breuil"}},"226876957":{"location":[45.6514623,-1.1196687],"ct":"FR","tp":"CS","ts":"2021-07-05T22:16:53Z","tX":508,"tY":365,"tags":{"contact:phone":"+335 46 23 20 18","name":"La Grande Cote"}},"226877851":{"location":[45.6509784,-1.1180193],"ct":"FR","tp":"CS","ts":"2024-09-09T14:59:29Z","tX":508,"tY":365,"tags":{"caravans":"yes","contact:mobile":"+336 48 88 54 06","contact:phone":"+335 46 23 20 59","name":"Cote de Beauté","ref:FR:NAF":"5530Z","ref:FR:SIREN":"803834944","ref:FR:SIRET":"80383494400016","source":"INSEE - 2024-09","stars":"3","tents":"yes","website":"https://camping-saintpalaissurmer.fr/"}},"237036901":{"location":[45.7256631,-1.1778343],"ct":"FR","tp":"CS","ts":"2023-03-12T13:09:10Z","tX":508,"tY":365,"tags":{"caravans":"yes","internet_access:fee":"yes","name":"La Pinède","phone":"+33 5 46 22 45 13","shower":"yes","stars":"4","tents":"yes","toilets":"yes","website":"https://www.campinglapinede.com"}},"237036902":{"location":[45.7351776,-1.175755],"ct":"FR","tp":"CS","ts":"2024-03-25T15:20:43Z","tX":508,"tY":365,"tags":{"addr:city":"Les Mathes","addr:postcode":"17570","addr:street":"Route de la fouasse","contact:phone":"+33 5 46 22 40 46","fee":"yes","name":"Camping Yukadi Villages Les Couleurs De La Coubre","official_name":"Camping Yukadi Village Les Couleurs de la Coubre","opening_hours":"Mo-Su 08:00-19:00","phone":"+33 5 46 22 40 46","stars":"3","website":"https://www.lescouleursdelacoubre.com/"}},"237036903":{"location":[45.7108596,-1.1459865],"ct":"FR","tp":"CS","ts":"2019-07-12T17:22:55Z","tX":508,"tY":365,"tags":{"name":"La Garenne"}},"237036904":{"location":[45.7250476,-1.1726677],"ct":"FR","tp":"CS","ts":"2024-11-25T09:12:14Z","tX":508,"tY":365,"tags":{"addr:city":"Les Mathes","addr:housenumber":"1696","addr:postcode":"17570","addr:street":"Route de la Fouasse","caravans":"yes","email":"lepetitdauphin2@wanadoo.fr","fee":"yes","mobile":"+33 6 76 37 57 65","name":"Le Petit Dauphin","nudism":"yes","phone":"+33 5 46 06 38 23","ref:FR:NAF":"5530Z","ref:FR:SIREN":"484666151","ref:FR:SIRET":"48466615100010","source":"INSEE - 2024-09","stars":"3","static_caravans":"yes","tents":"yes","website":"https://www.le-petit-dauphin.com/"}},"237036905":{"location":[45.7295478,-1.1746344],"ct":"FR","tp":"CS","ts":"2023-05-14T18:29:35Z","tX":508,"tY":365,"tags":{"addr:city":"Les Mathes","addr:housenumber":"2344","addr:postcode":"17570","addr:street":"Route de la Fouasse","caravans":"yes","email":"reservation@cote-o.fr","fee":"yes","name":"Côté Ô La Palmyre Quartier privilège - Les Sables de Cordouan","operator":"Côté Ô","phone":"+33 5 47 74 30 72","stars":"4","static_caravans":"yes","tents":"yes","website":"https://www.cote-o.fr/la-palmyre/le-quartier-privilege/"}},"258928276":{"location":[45.6861253,-1.1166355],"ct":"FR","tp":"CS","ts":"2025-06-11T15:49:43Z","tX":508,"tY":365,"tags":{"brand":"Eldapi Vacances","caravans":"yes","name":"L’Écureuil","operator":"eldapi vacances","phone":"+33 5 33 06 27 16","ref:FR:NAF":"5530Z","ref:FR:SIREN":"519599252","ref:FR:SIRET":"51959925200029","shower":"yes","source":"INSEE - 2024-09","stars":"4","tents":"yes","toilets":"yes","website":"https://www.eldapi-vacances.fr/camping-charente-maritime/l-ecureuil"}},"300403142":{"location":[45.6451122,-1.0792304],"ct":"FR","tp":"CS","ts":"2024-09-12T16:38:16Z","tX":508,"tY":365,"tags":{"caravans":"yes","contact:email":"contact@campingdes2plages.fr","contact:phone":"+335 46 23 11 42","name":"Camping des Deux Plages","ref:FR:NAF":"5530Z","ref:FR:SIREN":"520945684","ref:FR:SIRET":"52094568400014","source":"INSEE - 2024-09","stars":"4","tents":"yes","website":"https://www.campingdes2plages.fr/"}},"307381943":{"location":[45.6724878,-1.0592903],"ct":"FR","tp":"CS","ts":"2023-10-25T08:53:18Z","tX":508,"tY":365,"tags":{"name":"Le Relax","operator":"3","website":"https://www.le-relax.com/"}},"336141929":{"location":[45.7584363,-1.1413228],"ct":"FR","tp":"CS","ts":"2024-10-16T14:44:02Z","tX":508,"tY":365,"tags":{"drinking_water":"yes","name":"Camping du Petit Pont","power_supply":"yes","ref:FR:NAF":"5530Z","ref:FR:SIREN":"814181459","ref:FR:SIRET":"81418145900029","shower":"yes","source":"INSEE - 2024-09","stars":"3","toilets":"yes"}},"379396880":{"location":[45.6814508,-1.1033225],"ct":"FR","tp":"CS","ts":"2025-05-30T19:54:23Z","tX":508,"tY":365,"tags":{"addr:housenumber":"11","addr:street":"Rue des Sables","name":"Les Pins de sel","opening_hours":"Mo-Su 09:00-19:00","phone":"+33 5 46 23 23 48","stars":"3","website":"https://lespinsdesel.fr/"}},"435065586":{"location":[45.8200107,-1.134612],"ct":"FR","tp":"CS","ts":"2025-02-06T13:14:15Z","tX":508,"tY":365,"tags":{"addr:city":"Marennes-Plage","addr:housenumber":"9","addr:postcode":"17320","addr:street":"Avenue Pierre Voyer","address":"9, Avenue Pierre Voyer, Marennes-Plage","caravans":"yes","contact:phone":"+33 5 46 85 02 40","email":"contact@aubonair.com","fee":"yes","internet_access":"wlan","internet_access:fee":"yes","name":"Slow Village Marennes Oléron","opening_hours":"Mo-We 09:00-12:00, 14:30-18:30; Th-Sa 09:00-12:00, 14:00-18:30; Su 09:00-12:00, 14:30-18:30","phone":"+33 5 46 85 02 40","ref:FR:SIRET":"49770605100016","stars":"3","tents":"yes","website":"https://www.inspire-villages.com/destinations/marennes-oleron","wheelchair":"yes"}},"502408611":{"location":[45.7878111,-1.160765],"ct":"FR","tp":"CS","ts":"2024-10-19T15:29:01Z","tX":508,"tY":365,"tags":{"drinking_water":"yes","name":"Sous les Pins","power_supply":"yes","shower":"yes","stars":"3","toilets":"yes"}},"510512433":{"location":[45.8231995,-1.2149387],"ct":"FR","tp":"CS","ts":"2023-08-06T16:00:36Z","tX":508,"tY":365,"tags":{"access":"customers","addr:city":"Saint Trojan les Bains","fee":"yes","name":"Village vacances Les Bris","static_caravans":"yes"}},"578677754":{"location":[45.6518474,-1.1183612],"ct":"FR","tp":"CS","ts":"2024-07-31T18:23:19Z","tX":508,"tY":365,"tags":{"caravans":"no","name":"Camping Tahiti","phone":"+335 46 23 18 41","ref:FR:NAF":"5530Z","ref:FR:SIREN":"487483455","ref:FR:SIRET":"48748345500035","source":"INSEE - 2024-07","stars":"2","tents":"no","website":"http://www.campingtahiti.fr"}},"578677755":{"location":[45.6516327,-1.1185335],"ct":"FR","tp":"CS","ts":"2024-07-31T18:18:47Z","tX":508,"tY":365,"tags":{"caravans":"no","email":"contact@camping-le-repos.com","name":"Le Repos","phone":"+33 5 46 23 20 72","ref:FR:NAF":"5530Z","ref:FR:SIREN":"520657123","ref:FR:SIRET":"52065712300011","source":"INSEE - 2024-07","stars":"2","tents":"no","website":"https://www.camping-le-repos.com/"}},"703997963":{"location":[45.7829386,-1.1521905],"ct":"FR","tp":"CR","ts":"2024-09-17T16:40:43Z","tX":508,"tY":365,"tags":{"addr:street":"Rue des Calfats","capacity":"49","caravan_site":"motorhome_stopover","caravan_site:type":"village","charge":"15 EUR","charge:conditional":"7.50 EUR@(Nov-Dec)","fee":"yes","internet_access":"wlan","internet_access:fee":"no","maxstay":"3 nights","name":"Aire de camping-cars La Tremblade","opening_hours":"24/7","picnic_table":"yes","power_supply":"yes","power_supply:capacity":"49","power_supply:maxcurrent":"16","website":"https://www.la-tremblade.fr/aire-de-campingcar/"}},"703998019":{"location":[45.7140663,-1.1480579],"ct":"FR","tp":"CR","ts":"2024-05-20T18:47:20Z","tX":508,"tY":365,"tags":{"bbq":"no","capacity":"25","caravan_site":"motorhome_stopover","caravan_site:type":"village","caravans":"no","charge":"15.32 EUR","charge:conditional":"13.32 EUR @ (Oct-Apr)","dog":"leashed","fee":"yes","internet_access":"wlan","maxlength":"none","name":"Aire des Mathes, La Palmyre - La Garenne","network":"CAMPING-CAR PARK","opening_hours":"24/7","power_supply":"yes","power_supply:capacity":"28","power_supply:maxcurrent":"6","sanitary_dump_station":"yes","tents":"no","trailer":"no","water_point":"yes","website":"https://www.campingcarpark.com/fr_FR/sejour/aire-etape-camping-car/nouvelle-aquitaine/17-charente-maritime/la-palmyre-la-garenne"}},"709685361":{"location":[45.8264865,-1.1324838],"ct":"FR","tp":"CS","ts":"2024-09-12T16:06:01Z","tX":508,"tY":365,"tags":{"addr:city":"Marennes-Hiers-Brouage","addr:housenumber":"19","addr:postcode":"17320","addr:street":"Rue du Fief de la Touche","description":"Camping à la ferme rustique","fee":"yes","name":"Camping Ferme de la Prée","phone":"+33 5 46 85 28 34","ref:FR:NAF":"5530Z","ref:FR:SIREN":"479373573","ref:FR:SIRET":"47937357300027","source":"INSEE - 2024-09"}},"709687341":{"location":[45.8263845,-1.1379432],"ct":"FR","tp":"CS","ts":"2019-08-01T16:04:35Z","tX":508,"tY":365,"tags":{"addr:city":"Bourcefranc-le-Chapus","addr:housenumber":"4","addr:postcode":"17560","addr:street":"Rue du Fief de la Touche","fee":"yes","name":"Camping L'étoile du repos","phone":"+33 5 46 85 50 28"}},"813890202":{"location":[45.8259906,-1.1429946],"ct":"FR","tp":"CR","ts":"2024-07-13T18:10:25Z","tX":508,"tY":365,"tags":{"caravan_site":"motorhome_stopover","fee":"no","internet_access":"no","name":"Aire pour camping-cars « Bois de pins »","opening_hours":"24/7","phone":"+33546850202","power_supply":"no","sanitary_dump_station":"no","seasonal":"no","toilets":"no","water_point":"no","website":"https://www.ile-oleron-marennes.com/preparer-mes-vacances/ou-dormir/aires-specialisees-camping-cars/aire-de-stationnement-camping-car-bois-de-pins-2"}},"908800194":{"location":[45.7532826,-1.1395005],"ct":"FR","tp":"CR","ts":"2023-12-23T11:36:47Z","tX":508,"tY":365,"tags":{"access":"yes","addr:city":"Arvert","addr:postcode":"17530","addr:street":"Rue du Grand Pont","capacity":"4","caravan_site":"super_market","caravan_site:type":"parking_lot","fee":"no","maxstay":"no","name":"Aire de camping-car Super U Arvert","opening_hours":"24/7","operator":"Ville de Arvert","power_supply":"no","sanitary_dump_station":"yes","sanitary_dump_station:chemical_toilet":"yes","sanitary_dump_station:grey_water":"yes","sanitary_dump_station:round_drain":"yes","seasonal":"no","supervised":"no","surface":"asphalt","water_point":"yes","website":"https://www.magasins-u.com/station/superu-arvert_81916"}},"1011093677":{"location":[45.7434284,-1.113127],"ct":"FR","tp":"CS","ts":"2024-07-31T18:30:47Z","tX":508,"tY":365,"tags":{"name":"Parc de Bellevue","ref:FR:NAF":"5530Z","ref:FR:SIREN":"497492561","ref:FR:SIRET":"49749256100012","source":"INSEE - 2024-07"}},"1050612871":{"location":[45.8132037,-1.1124214],"ct":"FR","tp":"CR","ts":"2024-09-17T20:04:31Z","tX":508,"tY":365,"tags":{"caravan_site":"motorhome_stopover","caravan_site:type":"parking_lot","fee":"no","maxstay":"24 hours","name":"Parking La Cité de l'Huître","seasonal":"no","surface":"asphalt"}},"1095133720":{"location":[45.7124512,-1.1548087],"ct":"FR","tp":"CS","ts":"2022-09-16T11:29:10Z","tX":508,"tY":365,"tags":{"name":"Les jardins de l'océan","website":"https://www.jardin-ocean.fr/"}},"1095133721":{"location":[45.7131073,-1.1575449],"ct":"FR","tp":"CS","ts":"2022-09-16T11:29:10Z","tX":508,"tY":365,"tags":{"name":"Au Joyeux Faune","stars":"1","website":"https://www.camping-joyeuxfaune.com/"}},"1164099726":{"location":[45.7454596,-1.1276575],"ct":"FR","tp":"CS","ts":"2024-08-06T16:46:04Z","tX":508,"tY":365,"tags":{"name":"Camping le Presqu'Ile","name:fr":"Camping le Presqu'ile","ref:FR:NAF":"5530Z","ref:FR:SIREN":"449297381","ref:FR:SIRET":"44929738100013","source":"INSEE - 2024-08"}},"1173090938":{"location":[45.645537,-1.0772864],"ct":"FR","tp":"CR","ts":"2024-09-01T16:14:53Z","tX":508,"tY":365,"tags":{"bbq":"no","cabins":"no","capacity":"22","caravan_site":"motorhome_stopover","caravan_site:type":"beach","caravans":"no","charge":"15.32 EUR","charge:conditional":"13.82 EUR@(Oct-Apr)","dog":"leashed","fee":"yes","maxlength":"none","name":"Aire Camping-Car Park de Saint-Palais, Les Roseaux","network":"CAMPING-CAR PARK","power_supply":"yes","power_supply:maxcurrent":"6","sanitary_dump_station":"yes","static_caravans":"no","tents":"no","trailer":"no","water_point":"yes","website":"https://www.campingcarpark.com/fr_FR/sejour/aire-etape-camping-car/nouvelle-aquitaine/17-charente-maritime/st-palais-les-roseaux"}},"1232214308":{"location":[45.6805305,-1.1601409],"ct":"FR","tp":"CR","ts":"2024-09-01T16:14:53Z","tX":508,"tY":365,"tags":{"bbq":"no","capacity":"45","caravan_site":"motorhome_stopover","caravan_site:type":"town","caravans":"no","charge":"15.32 EUR","charge:conditional":"13.32 EUR@(Oct-Apr)","description":"2 km to town centre","dog":"yes","fee":"yes","internet_access":"wlan","internet_access:fee":"no","maxlength":"none","name":"Aire Camping-Car Park de La Palmyre, Les pins de Cordouan","network":"CAMPING-CAR PARK","operator":"CAMPING-CAR PARK","power_supply":"yes","power_supply:maxcurrent":"6","sanitary_dump_station":"yes","tents":"no","trailer":"no","water_point":"yes","website":"https://www.campingcarpark.com/fr_FR/sejour/aire-etape-camping-car/nouvelle-aquitaine/17-charente-maritime/la-palmyre-les-pins-de-cordouan"}},"8437924711":{"location":[45.753502,-1.1395895],"ct":"FR","tp":"SD","ts":"2023-12-23T11:36:47Z","tX":508,"tY":365,"tags":{"access":"yes","charge":"2 EURO","description":"Station de vidange pour Camping-car.","fee":"yes","operator":"Ville de Arvert","payment:coins":"yes","sanitary_dump_station:chemical_toilet":"yes","sanitary_dump_station:grey_water":"yes","sanitary_dump_station:round_drain":"yes","water_point":"yes"}},"9632352072":{"location":[45.6967219,-1.228346],"ct":"FR","tp":"SD","ts":"2022-04-03T00:27:55Z","tX":508,"tY":365,"tags":{"access":"customers"}},"11897210491":{"location":[45.8272153,-1.2176853],"ct":"FR","tp":"SD","ts":"2024-09-17T20:12:56Z","tX":508,"tY":365,"tags":{"access":"yes","motorhome":"designated","water_point":"yes","water_point:charge":"5 EUR/100 liter","water_point:fee":"yes","website":"https://www.st-trojan-les-bains.fr/preparer-mes-vacances/ou-dormir/aires-specialisees-camping-cars/aire-de-service-camping-car-saint-trojan-les-bains"}}}