{"61939136":{"location":[45.2243827,-1.1612607],"ct":"FR","tp":"CS","ts":"2022-09-16T06:36:21Z","tX":508,"tY":367,"tags":{"addr:city":"Hourtin Plage","cabins":"yes","caravans":"yes","internet_access":"wlan","internet_access:fee":"yes","name":"Camping de la Côte d'Argent","phone":"+33 5 56 09 10 25","smoking":"yes","source":"Union européenne - SOeS, CORINE Land Cover, 2006.","stars":"5","tents":"yes","website":"https://www.camping-cote-dargent.com/","wheelchair":"yes"}},"88722911":{"location":[45.1348211,-1.0636724],"ct":"FR","tp":"CS","ts":"2010-12-09T19:47:03Z","tX":508,"tY":367,"tags":{"name":"L'Acacias"}},"127254534":{"location":[45.1805816,-1.0814899],"ct":"FR","tp":"CR","ts":"2024-10-17T13:57:25Z","tX":508,"tY":367,"tags":{"capacity":"90","caravan_site":"motorhome_stopover","caravan_site:type":"beach;harbour","dog":"yes","fee":"yes","name":"Aire de camping-cars d’Hourtin-Port","power_supply":"yes","sanitary_dump_station":"yes","sanitary_dump_station:chemical_toilet":"yes","sanitary_dump_station:grey_water":"yes","water_point":"yes","website":"https://www.medoc-atlantique.co.uk/fiches/aire-de-camping-cars-dhourtin-port/"}},"296995306":{"location":[45.2844075,-1.0632142],"ct":"FR","tp":"CS","ts":"2021-06-21T19:31:29Z","tX":508,"tY":367,"tags":{"name":"Camping du Ranch"}},"467774079":{"location":[45.178987,-1.0729426],"ct":"FR","tp":"CS","ts":"2024-08-19T07:34:07Z","tX":508,"tY":367,"tags":{"addr:city":"Hourtin","addr:postcode":"33990","addr:street":"Chemin de Bécassine","caravans":"no","name":"Le Village Western","operator":"Yelloh !","phone":"+33556091060","static_caravans":"yes","tents":"no","website":"https://www.village-western.com/"}},"467774080":{"location":[45.1811814,-1.0736535],"ct":"FR","tp":"CS","ts":"2024-09-06T17:39:20Z","tX":508,"tY":367,"tags":{"access":"yes","addr:city":"Hourtin","addr:housenumber":"90","addr:postcode":"33990","addr:street":"Avenue du Lac","caravans":"yes","check_date":"2024-09-06","contact:facebook":"https://www.facebook.com/CampingLesOurmes/","contact:instagram":"https://www.instagram.com/campinglesourmes","internet_access":"wlan","name":"Les Ourmes","opening_hours":"Apr 26-Jun 30 09:00-13:00,14:00-18:00; Jul 1-Aug 31 09:00-13:00,14:00-20:00; Sep 1-21 09:00-13:00,14:00-18:00","payment:cash":"yes","payment:credit_cards":"yes","payment:debit_cards":"yes","phone":"+33556091276","stars":"4","static_caravans":"yes","tents":"yes","website":"https://lesourmes.fr/"}},"531021159":{"location":[45.0953544,-1.1447668],"ct":"FR","tp":"CS","ts":"2021-11-16T23:11:30Z","tX":508,"tY":367,"tags":{"addr:city":"Carcans","addr:postcode":"33121","addr:street":"Domaine de Bombannes","name":"Camping de Coben les pins","natural":"wood","phone":"+33 5 56 03 95 02","website":"https://europe.huttopia.com/site/camping-lac-de-carcans/"}},"539690375":{"location":[45.2172737,-1.0767321],"ct":"FR","tp":"CS","ts":"2020-09-15T14:19:21Z","tX":508,"tY":367,"tags":{"name":"Camping les Écureuils"}},"692082687":{"location":[45.2494647,-1.0841581],"ct":"FR","tp":"CS","ts":"2021-05-24T16:56:11Z","tX":508,"tY":367,"tags":{"access":"customers","addr:city":"Naujac-sur-Mer","addr:housenumber":"15","addr:postcode":"33990","addr:street":"Route de Vendays","fee":"yes","internet_access":"wlan","internet_access:fee":"no","name":"Aire naturelle de camping Les grands chênes et les ajoncs","payment:cash":"yes","payment:credit_cards":"yes","payment:debit_cards":"yes"}},"815725889":{"location":[45.1117663,-1.0676265],"ct":"FR","tp":"CS","ts":"2024-08-10T12:42:01Z","tX":508,"tY":367,"tags":{"caravans":"yes","contact:email":"pascale.dubois3@icloud.com","contact:phone":"+33 6 69 74 85 93","contact:website":"http://www.campinglaprairie-carcans.fr/","drinking_water":"yes","name":"Camping La Prairie","official_name":"Aire naturelle de camping La Prairie","power_supply":"yes","sanitary_dump_station":"no","shower":"yes","source":"data.gouv.fr:DATAtourisme - 05/2020","tents":"yes","toilets":"yes","wheelchair":"yes"}},"1191874317":{"location":[45.0905616,-1.1414508],"ct":"FR","tp":"CS","ts":"2023-07-26T15:17:21Z","tX":508,"tY":367,"tags":{"group_only":"yes","name":"UCPA Nature Camp","operator":"UCPA"}},"1811255178":{"location":[45.2692463,-1.1608601],"ct":"FR","tp":"CS","ts":"2012-07-03T13:22:22Z","tX":508,"tY":367,"tags":{"name":"Camping municipal du Pin Sec"}},"8919022740":{"location":[45.3118164,-1.0924259],"ct":"FR","tp":"CS","ts":"2021-07-14T09:26:07Z","tX":508,"tY":367,"tags":{"addr:city":"Vendays-Montalivet","addr:housenumber":"177","addr:postcode":"33930","addr:street":"Lamodeneuve Sud","fee":"yes","name":"Camping Le Bonheur est dans le pré","phone":"+33 6 68 80 08 07","website":"https://sites.google.com/site/campinglebonheurestdanslepre/"}},"11069266389":{"location":[45.1013875,-1.1479744],"ct":"FR","tp":"CS","ts":"2023-07-26T15:04:45Z","tX":508,"tY":367,"tags":{"addr:city":"Carcans","addr:postcode":"33121","addr:street":"Bombannes","caravans":"yes","fee":"yes","name":"Camping La dune bleue","operator":"UCPA","static_caravans":"yes","tents":"yes","website":"https://carcans.wellness-sport-camping.com/"}}}