{"7444091":{"location":[44.7144244,-1.2405095],"ct":"FR","tp":"CS","ts":"2023-04-25T04:49:13Z","tX":508,"tY":369,"tags":{"caravans":"yes","contact:email":"info@trucvert.com","name":"Truc-Vert","opening_hours":"May 01-Sep 30 open","phone":"+33 5 56 60 89 55","ref:FR:CRTA":"HPAAQU03301V3ED9","stars":"4","tents":"yes","website":"https://www.trucvert.com/"}},"88376322":{"location":[44.6240576,-1.1123424],"ct":"FR","tp":"CS","ts":"2018-03-11T23:00:43Z","tX":508,"tY":369,"tags":{"access":"private","name":"Village Khelus Club","operator":"Kalisea","website":"http://www.kalisea.fr/village-khelus.html"}},"98444806":{"location":[44.756623,-1.1218785],"ct":"FR","tp":"CS","ts":"2023-07-28T08:12:22Z","tX":508,"tY":369,"tags":{"addr:city":"Arès","addr:housenumber":"64","addr:postcode":"33740","contact:website":"https://campinglesgoelands.fr/","description":"Labellisé : Accueil Vélo","name":"Camping Les Goelands","phone":"+33 5 56 82 55 64","stars":"3"}},"99721050":{"location":[44.7448624,-1.1111432],"ct":"FR","tp":"CR","ts":"2024-08-08T23:05:55Z","tX":508,"tY":369,"tags":{"alt_name":"Aire de camping-cars d'Andernos","capacity":"20","caravan_site":"motorhome_stopover","caravan_site:type":"harbour","charge":"18 EUR","fee":"yes","name":"Aire de camping-car du port ostréicole","power_supply":"no","sanitary_dump_station":"yes","services:charge":"5 EUR","toilets":"yes","water_point":"yes","website":"https://bassin-arcachon.com/fiche-details/?types=hebergement_aires-de-camping-cars&id=ACCAMAQU033000GD"}},"99881239":{"location":[44.759002,-1.0762739],"ct":"FR","tp":"CS","ts":"2024-02-15T07:41:43Z","tX":508,"tY":369,"tags":{"name":"Camping Pleine Forêt"}},"99993638":{"location":[44.7566369,-1.0720295],"ct":"FR","tp":"CS","ts":"2022-02-22T17:33:29Z","tX":508,"tY":369,"tags":{"name":"Camping des Arbousiers"}},"116328213":{"location":[44.651517,-1.1484491],"ct":"FR","tp":"CR","ts":"2024-10-04T10:26:36Z","tX":508,"tY":369,"tags":{"caravan_site":"motorhome_stopover","caravan_site:type":"town","dog":"yes","fee":"no","maxstay":"24 hours","name":"Aire de service d’Arcachon","sanitary_dump_station":"yes","tents":"no","water_point":"yes","website":"https://www.arcachon.com/offres/aire-de-services-darcachon-arcachon-fr-2481870/"}},"136591731":{"location":[44.8036024,-1.1343772],"ct":"FR","tp":"CS","ts":"2018-03-22T11:05:52Z","tX":508,"tY":369,"tags":{"name":"Camping La Prairie","phone":"+33 5 24 18 84 48"}},"172891010":{"location":[44.6442749,-1.1102134],"ct":"FR","tp":"CS","ts":"2024-08-28T17:31:56Z","tX":508,"tY":369,"tags":{"addr:city":"Gujan-Mestras","addr:housenumber":"2","addr:postcode":"33470","caravans":"yes","contact:email":"contact@campingdeverdalle.com","contact:phone":"+33 5 56 66 12 62","drinking_water":"yes","email":"contact@campingdeverdalle.com","internet_access":"wlan","name":"Camping municipal de Verdalle","phone":"+33 5 56 66 12 62","power_supply":"yes","sanitary_dump_station":"yes","shower":"yes","stars":"2","tents":"yes","toilets":"yes","website":"https://www.campingdeverdalle.com/"}},"173013833":{"location":[44.642696,-1.106681],"ct":"FR","tp":"CS","ts":"2020-09-15T14:29:14Z","tX":508,"tY":369,"tags":{"name":"Camping des 4 CE"}},"285983418":{"location":[44.6046457,-1.112564],"ct":"FR","tp":"CS","ts":"2021-04-02T16:04:05Z","tX":508,"tY":369,"tags":{"caravans":"no","contact:phone":"+335 56 66 07 72","name":"Domaine de la Forge","operator":"Sea Green","stars":"4","tents":"no","website":"https://www.domainedelaforge.com/"}},"288631313":{"location":[44.8085419,-1.1288858],"ct":"FR","tp":"CS","ts":"2023-08-14T13:14:38Z","tX":508,"tY":369,"tags":{"addr:city":"Lège-Cap-Ferret","addr:housenumber":"150","addr:postcode":"33950","name":"La Pinède","phone":"+33 5 56 60 06 39"}},"293953896":{"location":[44.7708187,-1.144671],"ct":"FR","tp":"CS","ts":"2024-03-13T16:52:05Z","tX":508,"tY":369,"tags":{"addr:city":"Arès","addr:housenumber":"17","addr:postcode":"33740","addr:street":"rue des Abberts","area":"yes","cabins":"yes","caravans":"yes","internet_access":"yes","name":"Camping des Abberts","phone":"+33556602680","stars":"3","tents":"yes","website":"https://www.lesabberts.com"}},"293954205":{"location":[44.7783757,-1.1419393],"ct":"FR","tp":"CS","ts":"2023-07-27T10:23:36Z","tX":508,"tY":369,"tags":{"addr:city":"Arès","addr:housenumber":"82","addr:postcode":"33740","name":"Camping La Canadienne","phone":"+33 5 56 60 24 91","stars":"4","website":"https://www.lacanadienne.com/"}},"466352754":{"location":[44.6494256,-1.1754087],"ct":"FR","tp":"CS","ts":"2023-10-31T14:58:03Z","tX":508,"tY":369,"tags":{"addr:city":"Arcachon","addr:country":"FR","addr:housenumber":"5","addr:postcode":"33120","addr:street":"Allée de la Galaxie","cabins":"yes","caravans":"yes","internet_access":"wlan","internet_access:fee":"yes","name":"Hutopia Arcachon","phone":"+33 5 64 09 10 13","power_supply":"yes","stars":"4","static_caravans":"yes","tents":"yes","website":"https://europe.huttopia.com/site/arcachon/"}},"498869963":{"location":[44.7373108,-1.1909062],"ct":"FR","tp":"CS","ts":"2024-03-04T11:33:26Z","tX":508,"tY":369,"tags":{"contact:email":"reception@lesviviers.com","contact:phone":"+335 56 60 70 04","email":"lesviviers@siblu.fr","name":"Les Viviers","operator":"Siblu","source":"Observatoire du comité départemental du Tourisme de la Gironde - 09/2013","stars":"4","website":"https://siblu.fr/"}},"498871103":{"location":[44.7494592,-1.1877216],"ct":"FR","tp":"CS","ts":"2023-10-31T14:57:28Z","tX":508,"tY":369,"tags":{"contact:email":"lesembruns4@wanadoo.fr","name":"Les Embruns","operator":"Siblu","phone":"+335 56 60 70 76","stars":"4","website":"https://siblu.fr/"}},"498871867":{"location":[44.7528431,-1.1770056],"ct":"FR","tp":"CS","ts":"2024-04-01T12:28:48Z","tX":508,"tY":369,"tags":{"addr:postcode":"33950","addr:street":"Route des Pastourelles","caravans":"yes","contact:phone":"+335 56 60 70 61","drinking_water":"yes","name":"Camping municipal Les Pastourelles","power_supply":"yes","shower":"yes","stars":"3","tents":"yes","toilets":"yes","website":"https://www.campinglespastourelles.fr/","wheelchair":"yes"}},"519740945":{"location":[44.7951848,-1.2269715],"ct":"FR","tp":"CS","ts":"2019-06-13T19:27:31Z","tX":508,"tY":369,"tags":{"access":"private","name":"Grand Crohot Océan - Fondation M.G.","operator":"Maison de la Gendarmerie"}},"519740949":{"location":[44.7974622,-1.2256438],"ct":"FR","tp":"CS","ts":"2024-07-14T14:06:37Z","tX":508,"tY":369,"tags":{"addr:city":"Lège-Cap-Ferret","addr:postcode":"33950","caravans":"yes","drinking_water":"yes","name":"Camping Brémontier","phone":"+335 56 60 03 99","shower":"yes","stars":"1","tents":"yes","website":"https://www.campingbremontier.fr/"}},"540506405":{"location":[44.7123673,-1.0602726],"ct":"FR","tp":"CS","ts":"2024-03-04T15:22:52Z","tX":508,"tY":369,"tags":{"name":"Camping Le Coq Hardi"}},"540519726":{"location":[44.7254098,-1.0790733],"ct":"FR","tp":"CS","ts":"2020-08-11T15:15:46Z","tX":508,"tY":369,"tags":{"cabins":"yes","caravans":"yes","fee":"yes","name":"Camping de Fontaine Vieille","ref:FR:CRTA":"ACCAMAQU033V50R5AV","static_caravans":"yes","swimming_pool":"yes","tents":"yes","website":"https://www.fontainevieille.fr"}},"570377188":{"location":[44.7533396,-1.1882736],"ct":"FR","tp":"CS","ts":"2018-03-16T21:50:30Z","tX":508,"tY":369,"tags":{"name":"VVF Claouey"}},"570377191":{"location":[44.754566,-1.1887428],"ct":"FR","tp":"CS","ts":"2021-08-31T21:22:04Z","tX":508,"tY":369,"tags":{"addr:street":"Avenue de Capeyran","name":"Domaine du Ferret - Balnéo & Spa"}},"607294256":{"location":[44.7637866,-1.1463634],"ct":"FR","tp":"CS","ts":"2020-05-03T14:40:29Z","tX":508,"tY":369,"tags":{"addr:city":"Arès","addr:housenumber":"1","addr:postcode":"33740","addr:street":"Avenue du Goéland","name":"Centre de vacances CCAS d'Arès"}},"642516012":{"location":[44.6189318,-1.0984937],"ct":"FR","tp":"CR","ts":"2024-08-08T23:09:42Z","tX":508,"tY":369,"tags":{"addr:city":"Gujan-Mestras","addr:postcode":"33470","addr:street":"Avenue des Loisirs","caravan_site":"motorhome_stopover","caravan_site:type":"swimming_pool","charge":"20.90 EUR","charge:conditional":"16.90@(Sep-Jun)","fee":"yes","internet_access":"yes","laundry":"yes","name":"Aire des 3 Coccinelles","picnic_area":"yes","power_supply":"yes","power_supply:maxcurrent":"6","sanitary_dump_station":"yes","website":"http://www.aire-des-3coccinelles.com/"}},"715069939":{"location":[44.640749,-1.12158],"ct":"FR","tp":"CS","ts":"2024-08-08T22:55:20Z","tX":508,"tY":369,"tags":{"addr:city":"La teste de Buch","addr:housenumber":"121","addr:postcode":"33260","addr:street":"André Lesca","ele":"46.0","ele:msl":"46.0","ele:source":"GPS","level":"0","name":"Les bonnes vacances","opening_hours":"09:00-12:00,17:00-20:00","source":"GPS","website":"https://www.lesbonnesvacances.com/"}},"725025406":{"location":[44.7731792,-1.1429529],"ct":"FR","tp":"CS","ts":"2023-07-27T10:23:36Z","tX":508,"tY":369,"tags":{"addr:city":"Arès","addr:housenumber":"53","addr:postcode":"33740","description":"Labellisé Accueil Vélo","email":"contact@camping-lacigale-ares.com","name":"Camping La Cigale","operator":"Marie Pallet","phone":"+33 5 56 60 22 59; +33 6 13 89 90 22","website":"https://www.camping-lacigale-ares.com/"}},"725045157":{"location":[44.7623455,-1.1367711],"ct":"FR","tp":"CS","ts":"2023-07-31T09:48:34Z","tX":508,"tY":369,"tags":{"addr:city":"Arès","addr:housenumber":"1","addr:postcode":"33740","capacity":"48","description":"Labellisé Accueil Vélo","email":"contact@pasteur-vacances.fr","motorhome":"yes","name":"Camping Pasteur Vacances","phone":"+33 5 56 60 33 33","stars":"3","website":"https://www.camping-pasteur-bassin-arcachon.fr/"}},"725094571":{"location":[44.7611988,-1.1250718],"ct":"FR","tp":"CS","ts":"2024-03-13T16:59:11Z","tX":508,"tY":369,"tags":{"addr:city":"Arès","addr:housenumber":"1","addr:postcode":"33740","cabins":"yes","capacity":"30","caravans":"no","description":"Location uniquement, aucun emplacement. Labellisé : Accueil vélo","name":"Les Ecureuils","phone":"+33 5 56 26 09 47","stars":"3","tents":"no","website":"https://www.les-ecureuils.com"}},"824973541":{"location":[44.6312425,-1.1034327],"ct":"FR","tp":"CS","ts":"2023-07-09T07:33:00Z","tX":508,"tY":369,"tags":{"addr:housenumber":"58","addr:postcode":"33470","internet_access":"wlan","name":"Centre ANAS 20B \"Maurice Paloque\"","note:fr":"Camping réservée au personnel du ministère de l'intérieur","opening_hours":"Mo-Su 10:00-00:00","phone":"+33 5 56 66 12 50","website":"https://www.anas.asso.fr/"}},"824973547":{"location":[44.6320086,-1.1064901],"ct":"FR","tp":"CS","ts":"2023-07-09T07:33:00Z","tX":508,"tY":369,"tags":{"addr:housenumber":"58","addr:postcode":"33470","internet_access":"wlan","name":"Centre ANAS 20B \"Maurice Paloque\"","note:fr":"Camping réservée au personnel du ministère de l'intérieur","opening_hours":"Mo-Su 10:00-00:00","phone":"+33 5 56 66 12 50","website":"https://www.anas.asso.fr/"}},"881225686":{"location":[44.7561558,-1.1191935],"ct":"FR","tp":"CS","ts":"2024-03-13T17:06:26Z","tX":508,"tY":369,"tags":{"addr:city":"Arès","addr:postcode":"33740","addr:street":"Avenue de la Libération","caravans":"no","fee":"yes","name":"Résidence Vacances Nemea Les Rives de Saint-Brice","tents":"no","website":"https://www.residence-nemea.com/ete/france/aquitaine/gironde/ares/residence-vacances-les-rives-de-st-brice-village-de-pecheur-20.html"}},"1021433589":{"location":[44.7521374,-1.1891599],"ct":"FR","tp":"CR","ts":"2024-08-08T23:00:15Z","tX":508,"tY":369,"tags":{"capacity":"15","caravan_site":"motorhome_stopover","caravan_site:type":"forest","fee":"no","fee:conditional":"yes@(09:00-20:00)","maxstay":"48 hours","name":"Halte Nocturne de Claouey","opening_hours":"20:00-09:00","website":"https://www.lege-capferret.com/hebergement/halte-nocturne-de-claouey/"}},"1025158464":{"location":[44.644431,-1.1119708],"ct":"FR","tp":"CS","ts":"2022-10-30T22:32:58Z","tX":508,"tY":369,"tags":{"name":"Camping Routes du Monde ATC","stars":"2"}},"1063718087":{"location":[44.7982636,-1.2223752],"ct":"FR","tp":"CR","ts":"2024-10-11T15:15:24Z","tX":508,"tY":369,"tags":{"caravan_site":"motorhome_stopover","caravan_site:type":"beach","drinking_water":"no","fee":"no","fee:conditional":"yes@(09:00-20:00)","maxstay":"48 hours","name":"Halte nocturne du Grand Crohot","power_supply":"no","sanitary_dump_station":"no","toilets":"no","website":"https://www.lege-capferret.com/category/info-pratique/hebergements/aires-camping-car"}},"1164286803":{"location":[44.8042796,-1.1334889],"ct":"FR","tp":"CS","ts":"2023-08-14T13:14:38Z","tX":508,"tY":369,"tags":{"addr:housenumber":"101","addr:postcode":"33950","caravans":"yes","contact:email":"contact@campingcapferret.com","contact:phone":"+33 5 56 82 07 40","name":"CAMPING aux Couleurs du Ferret","opening_hours":"Apr 1-Oct 30 open","website":"https://www.campingcapferret.com/standort-campingplatz-frankreich-lege-cap-ferret","wheelchair":"designated"}},"1268136238":{"location":[44.7171143,-1.0697327],"ct":"FR","tp":"CR","ts":"2024-08-08T23:02:03Z","tX":508,"tY":369,"tags":{"caravan_site":"motorhome_stopover","caravan_site:type":"beach","charge":"10 EUR","fee":"yes","fee:conditional":"no@(Oct-Mar)","maxstay":"2 nights","name":"Aire de stationnement de Taussat","power_supply":"no","sanitary_dump_station":"yes","water_point":"yes","website":"https://bassin-arcachon.com/fiche-details/?types=hebergement_aires-de-camping-cars&id=ACCAMAQU0330001A&title=aire-de-stationnement-de-taussat"}},"1268136920":{"location":[44.7520563,-1.1802629],"ct":"FR","tp":"CR","ts":"2024-10-17T13:56:30Z","tX":508,"tY":369,"tags":{"caravan_site":"motorhome_stopover","caravan_site:type":"beach","fee":"no","fee:conditional":"yes@(09:00-20:00)","maxstay":"48 hours","name":"Aire de services de Claouey","sanitary_dump_station":"yes","water_point":"yes","website":"https://www.bordeaux-tourisme.com/aire-camping-car/aire-services-claouey.html"}},"1268139008":{"location":[44.6732928,-1.2493837],"ct":"FR","tp":"CR","ts":"2024-11-23T13:11:31Z","tX":508,"tY":369,"tags":{"caravan_site":"motorhome_stopover","caravan_site:type":"forest","fee":"no","fee:conditional":"yes@(09:00-20:00)","maxstay":"48 hours","name":"Halte nocturne de La Vigne Est","picnic_area":"yes","power_supply":"no","sanitary_dump_station":"no","website":"https://www.lege-capferret.com/category/info-pratique/hebergements/aires-camping-car"}},"1306453507":{"location":[44.6165699,-1.113973],"ct":"FR","tp":"CR","ts":"2024-08-08T22:45:09Z","tX":508,"tY":369,"tags":{"caravan_site":"motorhome_stopover","caravan_site:type":"supermarket","fee":"no","name":"E.Leclerc La Teste de Buch","sanitary_dump_station":"yes","sanitary_dump_station:chemical_toilet":"yes","sanitary_dump_station:grey_water":"yes","surface":"asphalt"}},"5696096847":{"location":[44.6262707,-1.251389],"ct":"FR","tp":"CR","ts":"2024-08-08T23:36:23Z","tX":508,"tY":369,"tags":{"caravan_site":"motorhome_stopover","caravan_site:type":"beach","description":"freier befestigter Parkplatz mit Strandzugang","fee":"no","name":"Parking Dunes du Cap-Ferret"}},"5822168965":{"location":[44.6862372,-1.2457709],"ct":"FR","tp":"CR","ts":"2024-10-25T16:52:31Z","tX":508,"tY":369,"tags":{"capacity":"15","caravan_site":"motorhome_stopover","caravan_site:type":"beach;forest","fee":"no","fee:conditional":"yes@(09:00-20:00)","maxstay":"48 hours","name":"Halte nocturne de L'Herbe","website":"https://www.lege-capferret.com/hebergement/halte-nocturne-de-lherbe/"}},"6805971722":{"location":[44.6164109,-1.1140971],"ct":"FR","tp":"SD","ts":"2023-11-06T14:30:40Z","tX":508,"tY":369,"tags":{"charge":"2 EUR","fee":"yes","water_point":"yes"}}}