{"14423552":{"location":[44.4297815,-1.1630245],"ct":"FR","tp":"CS","ts":"2022-08-04T08:29:19Z","tX":508,"tY":370,"tags":{"addr:city":"Biscarrosse","addr:housenumber":"710","addr:postcode":"40600","addr:street":"Chemin de Navarrosse","caravans":"yes","contact:email":"lougalip@free.fr","contact:phone":"+33 5 58 09 81 81","internet_access":"wlan","internet_access:fee":"customers","name":"Lou Galip","stars":"4","tents":"yes","website":"https://www.lougalip.fr"}},"26858361":{"location":[44.499167,-1.079167],"ct":"FR","tp":"CS","ts":"2020-08-01T15:35:11Z","tX":508,"tY":370,"tags":{"name":"Camping Lou Broustaricq","stars":"4","wheelchair":"yes"}},"73438544":{"location":[44.430869,-1.1716473],"ct":"FR","tp":"CS","ts":"2021-02-12T10:59:06Z","tX":508,"tY":370,"tags":{"addr:city":"Biscarrosse","addr:housenumber":"712","addr:postcode":"40600","addr:street":"chemin de Navarrosse","caravans":"yes","contact:phone":"+33 5 58 09 84 32","email":"navarrosse@campeole.com","internet_access":"wlan","internet_access:fee":"yes","name":"Camping de Navarrosse","operator":"Campéole","stars":"4","tents":"yes","website":"https://www.campeole.com/fr/camping/navarrosse"}},"77006488":{"location":[44.4597193,-1.240337],"ct":"FR","tp":"CS","ts":"2024-08-13T20:17:35Z","tX":508,"tY":370,"tags":{"addr:city":"Biscarrosse","addr:housenumber":"681","addr:postcode":"40600","addr:street":"Rue du Tit","caravans":"yes","email":"vivier@campeole.com","fax":"+33 5 58 78 35 23","internet_access":"wlan","internet_access:fee":"yes","name":"Camping Le Vivier","operator":"Campéole","phone":"+33 5 58 78 25 76","source":"survey","stars":"3","tents":"yes","website":"https://www.ms-vacances.com/camping-campeole/camping-le-vivier/decouvrir-le-camping/"}},"128428940":{"location":[44.4384528,-1.2445107],"ct":"FR","tp":"CS","ts":"2021-02-12T10:55:58Z","tX":508,"tY":370,"tags":{"addr:city":"Biscarrosse","addr:housenumber":"230","addr:postcode":"40600","addr:street":"rue des Bécasses","caravans":"yes","contact:website":"https://www.campeole.com/fr/camping/plage-sud","email":"plagesud@campeole.com","name":"Camping Plage Sud","operator":"Campéole","source":"survey","source:geometry":"cadastre-dgi-fr source : Direction Générale des Impôts - Cadastre. Mise à jour : 2011","stars":"3","tents":"yes"}},"231613914":{"location":[44.4612999,-1.1283473],"ct":"FR","tp":"CS","ts":"2024-02-16T08:44:29Z","tX":508,"tY":370,"tags":{"addr:city":"Biscarrosse","addr:housenumber":"6523","addr:postcode":"40600","addr:street":"Route de Bordeaux","contact:email":"larive@cielavillage.com","contact:phone":"+33 5 58 78 12 33","name":"Camping La Rive","opening_hours":"Mo-Fr 09:00-18:00; Sa 09:00-13:00","operator":"Ciela Village","ref:FR:SIRET":"89675025400014","stars":"5","website":"https://www.larive.fr/"}},"285980321":{"location":[44.4831413,-1.0893191],"ct":"FR","tp":"CS","ts":"2021-02-13T06:49:59Z","tX":508,"tY":370,"tags":{"addr:city":"Sanguinet","addr:housenumber":"1039","addr:postcode":"40460","addr:street":"Avenue de Losa","capacity":"1035","email":"sanguinetplage@sandaya.fr","fee":"yes","name":"Camping Sanguinet Plage","operator":"Sandaya","phone":"+33 5 58786174","website":"https://www.sandaya.fr"}},"288295146":{"location":[44.5322693,-1.16154],"ct":"FR","tp":"CS","ts":"2020-08-21T12:14:38Z","tX":508,"tY":370,"tags":{"addr:city":"La Teste-de-Buch","addr:housenumber":"74","addr:postcode":"33260","addr:street":"Rue Osmain Dupuy","name":"Camping du Lac de Cazaux","operator":"Mairie","phone":"+33 5 56 22 22 33","source":"cadastre-dgi-fr source : Direction Générale des Impôts - Cadastre. Mise à jour : 2010"}},"300430653":{"location":[44.4339597,-1.1318976],"ct":"FR","tp":"CS","ts":"2023-08-02T20:58:30Z","tX":508,"tY":370,"tags":{"addr:city":"Biscarrosse","addr:housenumber":"3725","addr:postcode":"40600","addr:street":"Route de Bordeaux","area":"yes","capacity":"25","caravans":"yes","drinking_water":"yes","name":"Aire naturelle de camping Les Bruyères","phone":"+33 5 58 78 79 23","power_supply":"yes","shower":"yes","tents":"yes","toilets":"yes","wheelchair":"yes"}},"358903420":{"location":[44.4565174,-1.2384071],"ct":"FR","tp":"CS","ts":"2021-06-14T13:54:53Z","tX":508,"tY":370,"tags":{"addr:city":"Biscarrosse","addr:housenumber":"370","addr:postcode":"40600","addr:street":"Rue du Tit","capacity":"115","caravans":"no","contact:email":"vtfbiscarrosse@vtf-vacances.com","contact:phone":"+33442123200","fee":"yes","internet_access":"wlan","internet_access:fee":"customers","name":"Village de vacances \"La Jaougue Soule\"","operator":"VTF","tents":"no","website":"https://www.vtf-vacances.com/fr/village-vacances-familles/aquitaine/landes/biscarrosse/48"}},"366784300":{"location":[44.4369143,-1.1569115],"ct":"FR","tp":"CS","ts":"2021-02-12T10:36:31Z","tX":508,"tY":370,"tags":{"addr:city":"Biscarrosse","addr:housenumber":"368","addr:postcode":"40600","addr:street":"Chemin des Roseaux","area":"yes","contact:phone":"+33 5 58 78 00 00","email":"accmayottevacances@vacancesselect.com","name":"Mayotte Vacances","ref:FR:CRTA":"HPAAQU04001WBDPA","source":"Réseau SIRTAQUI - Comité Régional de Tourisme d'Aquitaine - www.sirtaqui-aquitaine.com - 06/2016","stars":"5","toilets:wheelchair":"yes","website":"https://www.mayottevacances.com/","wheelchair":"yes","wheelchair:description":"Toilettes piscine"}},"438207925":{"location":[44.4977378,-1.0734826],"ct":"FR","tp":"CS","ts":"2024-05-24T14:09:45Z","tX":508,"tY":370,"tags":{"addr:city":"Sanguinet","addr:housenumber":"182","addr:postcode":"44460","addr:street":"Rue de Caton","capacity":"98","caravans":"yes","fee":"yes","internet_access":"wlan","internet_access:fee":"customers","name":"GCU Sanguinet","phone":"+33 5 58 78 68 82","sanitary_dump_station":"customers","static_caravans":"yes","tents":"yes","website":"https://www.gcu.asso.fr/terrains/sanguinet-landes-40","wheelchair":"limited"}},"440448645":{"location":[44.5817016,-1.2130962],"ct":"FR","tp":"CS","ts":"2024-08-31T00:44:33Z","tX":508,"tY":370,"tags":{"alt_name":"Camping des Flots Bleus","caravans":"yes","contact:email":"reception@campingdeladune.fr","contact:fax":"+33 5 56 22 74 01","contact:phone":"+33 5 56 22 72 17","name":"Camping de la Dune","stars":"3","tents":"yes","website":"https://www.campingdeladune.fr/"}},"465768969":{"location":[44.5724711,-1.2242572],"ct":"FR","tp":"CS","ts":"2024-09-20T08:06:09Z","tX":508,"tY":370,"tags":{"addr:postcode":"31115","addr:street":"Route de Biscarosse","cabins":"yes","caravans":"yes","contact:email":"petit-nice@capfun.com","contact:facebook":"https://www.facebook.com/Petit.Nice/","contact:phone":"+33556227403","name":"Le Petit Nice","operator":"capfun","power_supply":"yes","stars":"4","static_caravans":"yes","tents":"yes","website":"http://www.petitnice.com"}},"467443849":{"location":[44.4274621,-1.1586961],"ct":"FR","tp":"CS","ts":"2021-02-11T14:59:38Z","tX":508,"tY":370,"tags":{"addr:city":"Biscarrosse","addr:housenumber":"176","addr:postcode":"40600","addr:street":"Chemin de Bimbo","caravans":"yes","contact:phone":"+33 5 58 09 82 33","email":"info@campingbimbo.fr","name":"Le Bimbo","stars":"4","tents":"yes","website":"https://www.campingbimbo.fr/"}},"467444646":{"location":[44.4295282,-1.1587009],"ct":"FR","tp":"CS","ts":"2023-11-02T21:02:11Z","tX":508,"tY":370,"tags":{"addr:city":"Biscarrosse","addr:housenumber":"540","addr:postcode":"40600","addr:street":"Chemin de Bimbo","contact:phone":"+33 5 58 09 83 11","email":"info@lesfontainesdenava.com","name":"Les Fontaines de Nava","stars":"4","website":"https://www.lesfontainesdenava.com/"}},"467451571":{"location":[44.4258869,-1.1598963],"ct":"FR","tp":"CS","ts":"2021-02-12T10:47:10Z","tX":508,"tY":370,"tags":{"addr:city":"Biscarrosse","addr:housenumber":"172","addr:postcode":"40600","addr:street":"Chemin de Bimbo","caravans":"yes","contact:email":"camping@cantalaoude.com","contact:phone":"+33 6 23 12 17 47","name":"Cantalaoude","stars":"3","tents":"yes","website":"https://cantalaoude.com/"}},"467452180":{"location":[44.4296017,-1.155793],"ct":"FR","tp":"CS","ts":"2021-02-11T15:39:20Z","tX":508,"tY":370,"tags":{"addr:city":"Biscarrosse","addr:housenumber":"600","addr:postcode":"40600","addr:street":"Chemin d'En Chon","contact:email":"contact@campingenchonlespins.com","contact:phone":"+33 5 58 78 16 00","name":"En Chon Les Pins","stars":"3","website":"https://www.campingenchonlespins.com/"}},"467454805":{"location":[44.4296195,-1.1641448],"ct":"FR","tp":"CS","ts":"2024-05-12T13:45:56Z","tX":508,"tY":370,"tags":{"addr:housenumber":"646","addr:postcode":"40600","addr:street":"Chemin de Navarrosse","contact:email":"camping.les.ecureuils@wanadoo.fr","contact:phone":"+335 58 09 80 00","name":"Les Écureuils","stars":"4","website":"https://www.ecureuils.fr/"}},"467457013":{"location":[44.4640619,-1.1979605],"ct":"FR","tp":"CS","ts":"2021-02-12T10:50:50Z","tX":508,"tY":370,"tags":{"addr:city":"Biscarrosse","addr:housenumber":"870","addr:postcode":"40600","addr:street":"Chemin de Maguide","contact:phone":"+33 5 58 09 81 90","email":"contact@campingmaguide.fr","name":"Maguide","stars":"2","website":"https://www.camping-maguide.com/"}},"493931789":{"location":[44.3468899,-1.1007075],"ct":"FR","tp":"CS","ts":"2023-03-26T09:40:09Z","tX":508,"tY":370,"tags":{"addr:city":"Parentis en Born","addr:postcode":"40160","capacity":"972","contact:phone":"+33 5 58 78 57 25","dog":"yes","email":"contact@camping-pipiou.fr","fee":"yes","name":"Le Pipiou","operator":"Siblu","stars":"4","website":"https://siblu.fr"}},"493933245":{"location":[44.3507145,-1.1081906],"ct":"FR","tp":"CS","ts":"2023-11-02T21:02:16Z","tX":508,"tY":370,"tags":{"addr:city":"Parentis en Born","addr:postcode":"40160","addr:street":"Route des Campings","capacity":"400","contact:email":"laforet3@orange.fr","contact:phone":"+33 5 58 78 47 17","fee":"yes","name":"La Forêt Lahitte","stars":"3","website":"https://www.camping-laforet-lahitte.fr/"}},"493936005":{"location":[44.3448846,-1.0923966],"ct":"FR","tp":"CS","ts":"2021-02-04T15:41:54Z","tX":508,"tY":370,"tags":{"addr:city":"Parentis en Born","addr:housenumber":"1037","addr:postcode":"40160","addr:street":"Route du Lac","capacity":"600","contact:email":"contact@arbre-dor.com","contact:phone":"+33 5 58 78 41 56","fee":"yes","name":"L'Arbre d'or","stars":"4","website":"https://www.arbre-dor.com/"}},"493936007":{"location":[44.3519971,-1.1106125],"ct":"FR","tp":"CS","ts":"2023-11-02T21:02:10Z","tX":508,"tY":370,"tags":{"addr:city":"Parentis en Born","addr:housenumber":"77","addr:postcode":"40160","addr:street":"Chemin de pistole, Route de Calède","capacity":"320","contact:email":"contact@camping-calede.com","contact:phone":"+335 58 78 44 63","fee":"yes","name":"Calède","stars":"2","website":"https://www.camping-calede.com/"}},"493941337":{"location":[44.3507807,-1.1027326],"ct":"FR","tp":"CS","ts":"2024-02-16T08:44:09Z","tX":508,"tY":370,"tags":{"addr:city":"Parentis en Born","addr:postcode":"40160","addr:street":"Route Théophile Gauthier","caravans":"yes","contact:email":"lacdebiscarrosse@gmail.com","contact:phone":"+335 58 08 06 40","drinking_water":"yes","name":"Camping Au Lac de Biscarrosse","name:en":"Village at Lake Biscarrosse","name:fr":"Camping Au Lac de Biscarrosse","opening_hours":"Mo-Fr 09:00-18:00; Sa 09:00-13:00","operator":"Ciela Village","power_supply":"yes","ref:FR:SIRET":"79419564400016","shower":"yes","stars":"5","tents":"yes","toilets":"yes","website":"https://www.camping-lac-de-biscarrosse.com/fr/"}},"538451392":{"location":[44.4665121,-1.0560509],"ct":"FR","tp":"CS","ts":"2019-10-03T23:02:15Z","tX":508,"tY":370,"tags":{"camp_site":"standard","name":"Aire naturelle Baptiste"}},"568894652":{"location":[44.5544922,-1.1488984],"ct":"FR","tp":"CS","ts":"2018-03-12T08:55:24Z","tX":508,"tY":370,"tags":{"addr:postcode":"33260","name":"Camping La Pinèda"}},"687473970":{"location":[44.4988714,-1.0920822],"ct":"FR","tp":"CS","ts":"2022-05-23T12:45:16Z","tX":508,"tY":370,"tags":{"access":"permissive","addr:city":"Sanguinet","addr:housenumber":"520","addr:postcode":"40460","addr:street":"Chemin des Aynes","capacity":"79","fee":"yes","name":"Camping La Plage des Aigrettes","operator":"MTB Sarl","phone":"+33 5 58 82 19 87"}},"720178151":{"location":[44.4043551,-1.149342],"ct":"FR","tp":"CS","ts":"2023-11-02T21:02:19Z","tX":508,"tY":370,"tags":{"addr:city":"Biscarrosse","addr:housenumber":"254","addr:postcode":"40600","addr:street":"Chemin du Crastail","caravans":"yes","contact:email":"contact@les-petits-ecureuils.fr","contact:phone":"+33 5 58 78 01 97","name":"Camping Les Petits Ecureuils","ref:FR:CRTA":"HPAAQU04001WBEFM","source":"Réseau SIRTAQUI - Comité Régional de Tourisme d'Aquitaine - www.sirtaqui-aquitaine.com - 06/2016","stars":"4","tents":"yes","website":"https://www.les-petits-ecureuils.fr/"}},"839321940":{"location":[44.5322096,-1.160565],"ct":"FR","tp":"CR","ts":"2024-08-08T22:56:16Z","tX":508,"tY":370,"tags":{"capacity":"30","caravan_site":"motorhome_stopover","caravan_site:type":"lake","charge":"15 EUR","charge:conditional":"13 EUR(Sep-Jun)","fee":"yes","name":"Aire de Camping-Cars du Lac Cazaux","power_supply":"yes","ref:FR:CRTA":"ACCAMAQU033V50028A","sanitary_dump_station":"yes","source":"Réseau SIRTAQUI - Comité Régional de Tourisme d'Aquitaine - www.sirtaqui-aquitaine.com - 06/2016","water_point":"yes","website":"https://www.campingdulacdecazaux.fr/"}},"906183362":{"location":[44.4835916,-1.0914364],"ct":"FR","tp":"CR","ts":"2024-10-12T13:54:45Z","tX":508,"tY":370,"tags":{"addr:city":"Sanguinet","addr:housenumber":"1039","addr:postcode":"40460","addr:street":"Avenue de Losa, parking du pavillon","capacity":"15","caravan_site":"motorhome_stopover","caravan_site:type":"beach","charge":"10 EUR","email":"mairie@sanguinet.fr","fee":"yes","internet_access":"no","name":"Aire de Camping car des Bardets","phone":"+33 5 58 82 11 82","sanitary_dump_station":"yes","toilets":"yes","water_point":"yes","website":"https://www.landes-holidays.com/aire-camping-car/aire-de-camping-cars-des-bardets-accaqu040010000e/"}},"1070391344":{"location":[44.3980306,-1.1664223],"ct":"FR","tp":"CR","ts":"2024-10-12T21:56:05Z","tX":508,"tY":370,"tags":{"capacity":"10","caravan_site":"motorhome_stopover","caravan_site:type":"village","description":"Designated area for overnight parking. Cars allowed too.","fee":"no","maxstay":"24 hours","name":"Parking Avenue du Marais - Biscarrosse","surface":"gravel"}},"1105842121":{"location":[44.3443024,-1.0983726],"ct":"FR","tp":"CR","ts":"2023-12-23T22:21:59Z","tX":508,"tY":370,"tags":{"addr:city":"Parentis","addr:postcode":"40160","addr:street":"Route des Campings","capacity":"25","caravan_site":"motorhome_stopover","caravan_site:type":"lake","dog":"yes","fee":"yes","name":"Aire de camping-cars de Parentis","operator":"Mairie de Parentis","payment:credit_cards":"yes","phone":"+33 5 58 78 59 12","power_supply":"yes","sanitary_dump_station":"yes","water_point":"yes","website":"https://www.landes-holidays.com/aire-camping-car/aire-de-camping-cars-de-parentis-accaqu040010000n/"}},"1197469903":{"location":[44.4966833,-1.0760418],"ct":"FR","tp":"CS","ts":"2023-08-12T16:37:47Z","tX":508,"tY":370,"tags":{"access":"customers","addr:city":"Sanguinet","addr:housenumber":"602","addr:postcode":"40460","addr:street":"Chemin de Sabas","area":"yes","capacity":"246","caravans":"no","email":"contact@domainelesoreades.com","fee":"yes","name":"Domaine les Oréades","operator":"Yelloh","phone":"+33 5 58 78 60 79","static_caravans":"yes","tents":"no","website":"https://domainelesoreades.com/"}},"1413887518":{"location":[44.455842,-1.201817],"ct":"FR","tp":"CS","ts":"2024-11-26T10:31:09Z","tX":508,"tY":370,"tags":{"capacity":"100","contact:city":"Biscarrosse","contact:housenumber":"7141","contact:phone":"+33 5 45 91 13 65","contact:postcode":"40600","contact:street":"Route des Lacs","email":"contact.biscarrosselac@slow-village.fr","name":"Slow Village Biscarrosse Lac","opening_hours":"Mo-Su 09:00-19:00","phone":"+33 5 45 91 13 65","website":"https://www.slow-village.com/destinations/nouvelle-aquitaine/biscarrosse-lac/"}},"1771861977":{"location":[44.5027902,-1.0816054],"ct":"FR","tp":"CS","ts":"2021-02-13T06:49:29Z","tX":508,"tY":370,"tags":{"addr:city":"Sanguinet","addr:housenumber":"229","addr:postcode":"40460","addr:street":"Route de Langeot","capacity":"229","email":"camping.lelangeot.sanguinet@wanadoo.fr","fee":"yes","name":"Camping le Langeot","phone":"+33 5 58 78 66 14","website":"https://www.campinglelangeot.com/"}},"1774460412":{"location":[44.4819695,-1.0923678],"ct":"FR","tp":"CS","ts":"2021-02-12T13:28:01Z","tX":508,"tY":370,"tags":{"addr:city":"Sanguinet","addr:housenumber":"526","addr:postcode":"40460","addr:street":"Rue du Pinton","capacity":"346","email":"lac-sanguinet@campeole.com","fee":"yes","name":"Camping le Lac de Sanguinet","operator":"Campéole","phone":"+33 5 58 82 70 80","website":"https://www.campeole.com/camping/landes/le-lac-de-sanguinet-sanguinet"}},"2429827509":{"location":[44.4348477,-1.1480613],"ct":"FR","tp":"CS","ts":"2021-02-04T09:59:32Z","tX":508,"tY":370,"tags":{"addr:city":"Biscarrosse","addr:housenumber":"1674","addr:postcode":"40600","addr:street":"Chemin de Mayotte","capacity":"17","contact:phone":"+335 58 78 10 64","name":"Aire naturelle de camping Lafargue Duport"}},"5129351336":{"location":[44.4400079,-1.1407005],"ct":"FR","tp":"CS","ts":"2022-01-24T14:04:58Z","tX":508,"tY":370,"tags":{"addr:city":"Biscarrosse","addr:housenumber":"2583","addr:postcode":"40600","addr:street":"Chemin de Mayotte","capacity":"25","name":"Aire naturelle de camping Le Frézat","ref:FR:CRTA":"HPAAQU04001WBDRF","source":"Réseau SIRTAQUI - Comité Régional de Tourisme d'Aquitaine - www.sirtaqui-aquitaine.com - 06/2016"}},"8338894924":{"location":[44.4856656,-1.084407],"ct":"FR","tp":"CR","ts":"2024-10-19T09:17:46Z","tX":508,"tY":370,"tags":{"addr:city":"Sanguinet","addr:postcode":"40460","addr:street":"Parking du Pavillon","capacity":"30","caravan_site":"motorhome_stopover","caravan_site:type":"beach;parking_lot","charge":"10 EUR","email":"mairie@sanguinet.fr","fee":"yes","fee:conditional":"no@(Nov-Mar)","internet_access":"yes","internet_access:fee":"no","name":"Aire de camping car du Mounay","operator":"Mairie de Sanguinet","payment:cash":"yes","phone":"+33 5 58 82 11 82","website":"https://www.tourismelandes.com/aire-camping-car/aire-de-camping-cars-du-mounay-accaqu040010000d/"}},"8393744435":{"location":[44.4597939,-1.2459165],"ct":"FR","tp":"CR","ts":"2024-05-09T14:52:06Z","tX":508,"tY":370,"tags":{"addr:city":"Biscarrosse","addr:postcode":"40600","addr:street":"Parking du Vivier","capacity":"87","caravan_site":"motorhome_stopover","caravan_site:type":"forest","charge":"21.60 EUR","charge:conditional":"15.60 @ (Oct-Mar);17.60 @ (Apr-Jun)","dog":"leashed","email":"contact@campeole.com","fee":"yes","group_only":"no","internet_access":"wlan","internet_access:fee":"no","laundry":"no","maxlength":"9","name":"Aire Biscarrosse","network":"CAMPING-CAR PARK","opening_hours":"24/7","operator":"Campéole Le Vivier","payment:cash":"yes","payment:credit_cards":"yes","phone":"+33 5 58 78 25 76","power_supply:capacity":"87","power_supply:fee":"no","sanitary_dump_station":"yes","sanitary_dump_station:chemical_toilet":"yes","sanitary_dump_station:fee":"no","sanitary_dump_station:grey_water":"yes","seasonal":"no","tents":"no","trailer":"no","water_point":"yes","website":"https://www.campingcarpark.com/fr_FR/sejour/aire-etape-camping-car/nouvelle-aquitaine/40-landes/biscarrosse"}},"5059622129":{"location":[44.4621987,-1.1285215],"ct":"FR","tp":"SD","ts":"2017-08-26T07:18:49Z","tX":508,"tY":370,"tags":{}},"8953259055":{"location":[44.4622097,-1.130409],"ct":"FR","tp":"SD","ts":"2021-07-27T07:15:42Z","tX":508,"tY":370,"tags":{}},"9857587537":{"location":[44.4586687,-1.2451768],"ct":"FR","tp":"SD","ts":"2022-06-30T09:08:34Z","tX":508,"tY":370,"tags":{"fee":"no"}}}