{"35354554":{"location":[44.2238066,-1.1945111],"ct":"FR","tp":"CS","ts":"2023-11-01T19:54:40Z","tX":508,"tY":371,"tags":{"contact:phone":"+334 30 63 38 87","name":"Aurilandes","operator":"Tohapi","source":"cadastre-dgi-fr source : Direction Générale des Impôts - Cadastre. Mise à jour : 2009","stars":"3","website":"https://www.campingaurilandes.com/"}},"123451555":{"location":[44.2177055,-1.2849606],"ct":"FR","tp":"CS","ts":"2024-12-02T18:27:34Z","tX":508,"tY":371,"tags":{"addr:city":"Mimizan","addr:postcode":"40200","addr:street":"Boulevard de l'Atlantique","caravans":"yes","contact:email":"contactplage@destinationmimizan.com","drinking_water":"yes","name":"La Plage","operator":"Siblu","phone":"+33 5 58 09 00 32","power_supply":"yes","shower":"yes","tents":"yes","toilets":"yes","website":"https://siblu.fr"}},"138469974":{"location":[44.1439345,-1.23939],"ct":"FR","tp":"CS","ts":"2023-11-01T19:54:46Z","tX":508,"tY":371,"tags":{"contact:email":"camping-le-tatiou@bias40.fr","contact:phone":"+335 58 09 04 76","name":"Camping Le Tatiou","source":"cadastre-dgi-fr source : Direction Générale des Impôts - Cadastre. Mise à jour : 2011","stars":"3","website":"https://letatiou.bias40.fr/"}},"150367607":{"location":[44.1353391,-1.2347806],"ct":"FR","tp":"CS","ts":"2022-02-20T09:16:12Z","tX":508,"tY":371,"tags":{"addr:city":"Bias","addr:housenumber":"1247","addr:postcode":"40170","addr:street":"Route de Jouanon","name":"Camping à la ferme Maia","website":"http://cmaia.free.fr/"}},"201246149":{"location":[44.093719,-1.319737],"ct":"FR","tp":"CR","ts":"2024-10-07T18:35:36Z","tX":508,"tY":371,"tags":{"capacity":"74","caravan_site":"motorhome_stopover","caravan_site:type":"beach","charge":"16 EUR","charge:conditional":"12 EUR @ (Nov-Mar)","dog":"yes","fee":"yes","name":"Camping-car Park de Contis","network":"CAMPING-CAR PARK","network:website":"https://www.campingcarpark.com/en_GB/stay/stopover-site-motorhome/nouvelle-aquitaine/40-landes/saint-julien-en-born","power_supply":"yes","power_supply:capacity":"32","power_supply:fee":"no","power_supply:maxcurrent":"6","sanitary_dump_station":"yes","sanitary_dump_station:chemical_toilet":"yes","sanitary_dump_station:grey_water":"yes","water_point":"yes","water_point:fee":"no","website":"https://www.tourismelandes.com/aire-camping-car/aire-de-camping-cars-de-contis-accamaqu0400001p/"}},"201273503":{"location":[44.0881091,-1.3152939],"ct":"FR","tp":"CS","ts":"2024-07-19T08:27:55Z","tX":508,"tY":371,"tags":{"caravans":"yes","contact:email":"info@seurrots.com","contact:phone":"+335 58 42 85 82","drinking_water":"yes","internet_access":"yes","internet_access:fee":"yes","name":"Lous Seurrots","operator":"Yelloh ! Village","power_supply":"no","shower":"yes","stars":"4","tents":"yes","toilets":"yes","website":"https://www.lous-seurrots.com/"}},"303353636":{"location":[44.3139558,-1.1720701],"ct":"FR","tp":"CS","ts":"2024-04-23T08:35:23Z","tX":508,"tY":371,"tags":{"addr:city":"Gastes","addr:housenumber":"1229","addr:postcode":"40160","addr:street":"avenue Felix Ducourneau","caravans":"no","contact:phone":"+33 5 56 07 90 17","email":"lareserve@siblu.fr","name":"La Reserve","stars":"4","tents":"no","website":"https://www.camping-la-reserve.fr/"}},"465754963":{"location":[44.3284237,-1.1449081],"ct":"FR","tp":"CS","ts":"2021-06-14T13:54:53Z","tX":508,"tY":371,"tags":{"addr:city":"Gastes","addr:housenumber":"657","addr:postcode":"40160","addr:street":"Avenue du Lac","caravans":"yes","contact:email":"camping@presverts.net","contact:phone":"+33 5 58 09 74 11","internet_access":"wlan","internet_access:fee":"customers","name":"Les Prés Verts","note":"Accueil Vélo","stars":"3","tents":"yes","website":"https://www.presverts.net"}},"465762572":{"location":[44.3170879,-1.1377989],"ct":"FR","tp":"CS","ts":"2023-11-02T21:02:14Z","tX":508,"tY":371,"tags":{"addr:city":"Gastes","addr:housenumber":"193","addr:postcode":"40160","addr:street":"Rue de Bernadon","contact:email":"camping.lesechasses@orange.fr","contact:phone":"+33 5 58 09 31 76","name":"Les Echasses","stars":"2","tents":"yes","website":"https://www.campinglesechasses.com/"}},"493944781":{"location":[44.2927332,-1.1791151],"ct":"FR","tp":"CS","ts":"2022-08-02T19:25:24Z","tX":508,"tY":371,"tags":{"addr:city":"Sainte Eulalie en Born","addr:housenumber":"719","addr:postcode":"40200","addr:street":"Route de Laffont","capacity":"468","contact:email":"bonjour@camping-les-bruyeres.fr","contact:phone":"+335 58 09 73 36","fee":"yes","name":"Les Bruyeres","stars":"3","website":"https://www.camping-les-bruyeres.fr/"}},"493944782":{"location":[44.3077495,-1.1787813],"ct":"FR","tp":"CS","ts":"2021-02-04T14:50:40Z","tX":508,"tY":371,"tags":{"addr:city":"Sainte-Eulalie-en-Born","addr:housenumber":"1590","addr:postcode":"40200","addr:street":"Route du Lac","capacity":"747","contact:email":"contact@lecampingdulac.com","contact:phone":"+33 5 58 09 70 10","fee":"yes","name":"Le Camping Municipal du Lac","operator":"Mairie de Sainte Eulalie en Born","stars":"3","website":"https://www.lecampingdulac.com/"}},"493946532":{"location":[44.2854132,-1.1725437],"ct":"FR","tp":"CS","ts":"2021-02-04T15:20:22Z","tX":508,"tY":371,"tags":{"addr:city":"Sainte Eulalie en Born","addr:housenumber":"190","addr:postcode":"40200","addr:street":"Chemin de Montgaillard","capacity":"90","contact:phone":"+33 6 10 68 45 15","email":"campingloupk2@orange.fr","fee":"yes","name":"Camping Lou PK2","website":"https://www.camping-landes-loupk2.fr/"}},"493948456":{"location":[44.2193557,-1.2269884],"ct":"FR","tp":"CS","ts":"2023-02-06T16:20:49Z","tX":508,"tY":371,"tags":{"addr:city":"Mimizan","addr:postcode":"40200","contact:phone":"+335 58 09 01 21","name":"Le Lac","operator":"Siblu","source:name:oc":"ieo-bdtopoc"}},"493951126":{"location":[44.1808383,-1.2284544],"ct":"FR","tp":"CS","ts":"2020-01-03T08:31:25Z","tX":508,"tY":371,"tags":{"contact:mobile":"+336 74 81 86 74","contact:phone":"+335 58 09 00 51","name":"Les Écureuils","name:fr":"Les Écureuils","name:oc":"Los Gats Esquiròus","stars":"2","website":"http://www.campinglesecureuils.fr/"}},"494206630":{"location":[44.1792436,-1.2324952],"ct":"FR","tp":"CS","ts":"2024-11-25T13:37:51Z","tX":508,"tY":371,"tags":{"contact:phone":"+33 5 58 09 09 88","email":"contact@campinglamaiade.fr","name":"La Maïade","stars":"3","website":"https://www.campinglamaiade.fr/"}},"494207548":{"location":[44.2172081,-1.186337],"ct":"FR","tp":"CS","ts":"2021-06-05T13:30:13Z","tX":508,"tY":371,"tags":{"contact:email":"info@camping-landes-bleues.com","contact:phone":"+335 58 09 01 42","name":"Les Landes Bleues","name:fr":"Les Landes Bleues","name:oc":"Las Lanas Blavas","source:name:oc":"ieo-bdtopoc","stars":"3","website":"https://www.camping-landes-bleues.com/"}},"494211942":{"location":[44.1814162,-1.1812087],"ct":"FR","tp":"CS","ts":"2020-01-03T08:31:25Z","tX":508,"tY":371,"tags":{"contact:mobile":"+336 80 67 14 55","contact:phone":"+335 62 28 09 73","name":"La Lande","name:fr":"La Lande","name:oc":"La Lana","stars":"2"}},"494213906":{"location":[44.2218779,-1.2021032],"ct":"FR","tp":"CS","ts":"2023-11-01T19:54:33Z","tX":508,"tY":371,"tags":{"contact:phone":"+334 30 63 38 89","name":"Eurolac","operator":"Tohapi","stars":"4","website":"https://www.campingeurolac.com/"}},"494215475":{"location":[44.2022171,-1.2906829],"ct":"FR","tp":"CS","ts":"2024-06-28T07:51:12Z","tX":508,"tY":371,"tags":{"caravans":"yes","contact:phone":"+335 58 09 12 66","name":"Marina Landes","name:fr":"Marina Landes","name:oc":"Marinà Lanas","stars":"4","tents":"yes","website":"https://www.marinalandes.com/"}},"494217571":{"location":[44.177961,-1.2230738],"ct":"FR","tp":"CS","ts":"2021-03-13T19:17:43Z","tX":508,"tY":371,"tags":{"contact:phone":"+335 58 09 20 43","name":"A la ferme","name:fr":"A la ferme","name:oc":"A la Bòrda","source:name:oc":"ieo-bdtopoc"}},"494220248":{"location":[44.2344724,-1.1531415],"ct":"FR","tp":"CS","ts":"2021-03-13T19:17:44Z","tX":508,"tY":371,"tags":{"contact:phone":"+335 58 04 83 07","name":"La Clairière","name:fr":"La Clairière","name:oc":"L'Esplati","operator":"Flower","source:name:oc":"ieo-bdtopoc","stars":"3","website":"https://www.camping-laclairiere.fr/fr/"}},"494427494":{"location":[44.1129092,-1.2247222],"ct":"FR","tp":"CS","ts":"2024-09-27T16:18:04Z","tX":508,"tY":371,"tags":{"caravans":"yes","contact:mobile":"+336 72 49 03 63","contact:phone":"+335 58 42 86 27","drinking_water":"no","name":"Les Cigales","name:oc":"Las cigalas","power_supply":"no","sanitary_dump_station":"no","shower":"no","stars":"2","tents":"no","toilets":"no","website":"http://lescigales.fr/"}},"778604508":{"location":[44.2154601,-1.2818031],"ct":"FR","tp":"CR","ts":"2024-05-17T23:45:07Z","tX":508,"tY":371,"tags":{"addr:city":"Mimizan","addr:postcode":"40200","addr:street":"Route des Plages Perdues","alt_name":"Aire de Camping-Cars des Hournails","capacity":"70","caravan_site":"motorhome_stopover","caravan_site:type":"beach","caravans":"no","charge":"14 EUR","charge:conditional":"12 EUR @(Oct-Apr)","fee":"yes","internet_access":"yes","internet_access:fee":"no","name":"Aire CAMPING-CAR PARK de Mimizan","name:en":"Area CAMPING-CAR PARK of Mimizan","network":"CAMPING-CAR PARK","opening_hours":"24/7","operator":"CAMPING-CAR PARK","power_supply":"yes","power_supply:maxcurrent":"6","sanitary_dump_station":"yes","seasonal":"no","surface":"asphalt","tents":"no","toilets":"no","water_point":"yes","website":"https://www.campingcarpark.com/en_GB/stay/stopover-site-motorhome/nouvelle-aquitaine/40-landes/mimizan"}},"815730194":{"location":[44.25242,-1.1887733],"ct":"FR","tp":"CS","ts":"2021-02-04T15:30:34Z","tX":508,"tY":371,"tags":{"addr:city":"Sainte Eulalie en Born","addr:housenumber":"631","addr:postcode":"40200","addr:street":"Route de Labadan","capacity":"378","contact:email":"camping@laschancas.com","contact:phone":"+33 5 58 09 71 98","contact:website":"http://www.campinglaschancas.com/","fee":"yes","name":"Camping Las Chancas","source":"data.gouv.fr:DATAtourisme - 05/2020","stars":"2","wheelchair":"yes"}},"905474286":{"location":[44.3065964,-1.1812404],"ct":"FR","tp":"CR","ts":"2024-10-08T17:18:14Z","tX":508,"tY":371,"tags":{"addr:city":"Sainte Eulalie en Born","addr:postcode":"40200","addr:street":"Bord de lac","capacity":"40","caravan_site":"motorhome_stopover","caravan_site:type":"harbour","drinking_water":"yes","email":"contact@lecampingdulac.com","fee":"yes","internet_access":"yes","internet_access:fee":"yes","name":"Aire de camping cars du Lac","payment:cash":"yes","payment:cheque":"yes","phone":"+33 5 58 09 70 10","power_supply":"no","sanitary_dump_station":"yes","toilets":"yes","website":"https://www.lecampingdulac.com/"}},"1059497956":{"location":[44.2155547,-1.2817193],"ct":"FR","tp":"SD","ts":"2022-05-12T08:44:57Z","tX":508,"tY":371,"tags":{}},"1154040280":{"location":[44.2321932,-1.119121],"ct":"FR","tp":"CR","ts":"2024-10-25T01:01:04Z","tX":508,"tY":371,"tags":{"access":"yes","bbq":"no","capacity":"26","caravan_site":"motorhome_stopover","caravan_site:type":"countryside","caravans":"no","charge":"14 EUR","charge:conditional":"11.50 EUR @(Oct-Apr)","dog":"leashed","fee":"yes","internet_access":"wlan","internet_access:fee":"no","maxlength":"none","name":"Aire CAMPING-CAR PARK de Pontenx-les-Forges","network":"CAMPING-CAR PARK","opening_hours":"24/7","operator":"CAMPING-CAR PARK","payment:credit_cards":"yes","power_supply":"yes","power_supply:capacity":"32","power_supply:maxcurrent":"6","sanitary_dump_station":"yes","seasonal":"no","trailer":"no","water_point":"yes","website":"https://www.campingcarpark.com/fr_FR/sejour/aire-etape-camping-car/nouvelle-aquitaine/40-landes/pontenx-les-forges"}},"1236137068":{"location":[44.3287338,-1.1507582],"ct":"FR","tp":"CR","ts":"2024-05-17T23:20:22Z","tX":508,"tY":371,"tags":{"addr:city":"Gastes","addr:postcode":"40160","addr:street":"Bord du lac","bbq":"no","capacity":"100","caravan_site":"motorhome_stopover","caravan_site:type":"harbour","caravans":"no","charge":"14.80 EUR","charge:conditional":"11.80 EUR @ (Oct-Apr)","description":"L'Office de Tourisme Bisca Grands Lacs et la Communauté de Communes des Grands Lacs s'associent pour vous offrir un service de wifi gratuit sur les 7 villes du territoire : Parentis-en-Born, Sanguinet, Biscarrosse, Ychoux, Lüe, Sainte-Eulalie-en-Born et G","dog":"leashed","fee":"yes","internet_access":"wlan","internet_access:fee":"no","internet_access:operator":"Communauté de Communes des Grands Lacs","internet_access:ssid":"Wifi Bisca Grands Lacs","name":"Aire CAMPING-CAR PARK de Gastes","network":"CAMPING-CAR PARK","operator":"CAMPING CAR-Park","payment:cash":"yes","payment:credit_cards":"yes","power_supply":"no","sanitary_dump_station":"yes","tents":"no","trailer":"no","water_point":"yes","website":"https://www.campingcarpark.com/fr_FR/sejour/aire-etape-camping-car/nouvelle-aquitaine/40-landes/gastes"}},"10586638046":{"location":[44.216484,-1.2850548],"ct":"FR","tp":"SD","ts":"2023-04-14T10:01:10Z","tX":508,"tY":371,"tags":{"fee":"yes","water_point":"no"}}}