{"37374719":{"location":[43.9498272,-1.3502924],"ct":"FR","tp":"CS","ts":"2024-07-17T19:10:01Z","tX":508,"tY":372,"tags":{"barrier":"fence","caravans":"yes","contact:email":"contact@camping-eurosol.com","contact:phone":"+335 58 47 90 14","drinking_water":"yes","name":"Camping Eurosol","opening_hours":"Mo-Fr 09:00-18:00; Sa 09:00-13:00","operator":"Ciela Village","ref:FR:SIRET":"98672006800014","sanitary_dump_station":"yes","shower":"yes","stars":"4","tents":"yes","toilets":"yes","website":"https://www.camping-eurosol.com/"}},"61638787":{"location":[43.9095514,-1.3666875],"ct":"FR","tp":"CS","ts":"2020-08-25T20:30:15Z","tX":508,"tY":372,"tags":{"addr:city":"Vielle-Saint-Girons","addr:housenumber":"5006","addr:postcode":"40560","addr:street":"Route de Pichelèbe","internet_access":"wlan","internet_access:fee":"yes","name":"Arnaoutchot Camping Naturiste","nudism":"yes","website":"https://www.arna.com","wheelchair":"yes"}},"96717845":{"location":[43.9144665,-1.3189529],"ct":"FR","tp":"CS","ts":"2019-08-12T11:59:48Z","tX":508,"tY":372,"tags":{"contact:email":"camping-belair2@wanadoo.fr","contact:mobile":"+336 62 42 39 97","contact:phone":"+335 58 42 99 28","name":"Parc du Bel Air","opening_hours":"Jun 15-Sep 15 09:00-20:00","stars":"2","website":"https://www.camping-belair.fr/"}},"96717846":{"location":[43.921023,-1.3071339],"ct":"FR","tp":"CS","ts":"2019-08-12T11:32:58Z","tX":508,"tY":372,"tags":{"contact:email":"contact@camping-oceane.fr","contact:mobile":"+336 47 78 38 42","contact:phone":"+335 58 42 94 37","name":"L'Océane","stars":"3","website":"https://www.camping-oceane.fr/"}},"122107046":{"location":[43.8547263,-1.3868073],"ct":"FR","tp":"CS","ts":"2024-06-16T09:16:31Z","tX":508,"tY":372,"tags":{"addr:city":"Moliets-et-Maâ","addr:housenumber":"2655","addr:postcode":"40660","addr:street":"Avenue de l'Océan","caravans":"yes","contact:phone":"+33 5 58 48 52 30","drinking_water":"yes","internet_access":"wlan","internet_access:fee":"yes","name":"Camping Le Saint-Martin","phone":"+33 5 58 48 52 30","power_supply":"yes","ref:FR:CRTA":"HPAAQU04001WBDQH","sanitary_dump_station":"yes","shower":"yes","stars":"4","tents":"yes","toilets":"yes","website":"https://www.camping-saint-martin.fr/"}},"122107047":{"location":[43.853701,-1.3799104],"ct":"FR","tp":"CS","ts":"2024-01-10T14:28:21Z","tX":508,"tY":372,"tags":{"caravans":"yes","contact:phone":"+33 5 58 48 51 18","name":"Camping Les Cigales","stars":"3","tents":"yes","website":"https://www.camping-les-cigales.fr/"}},"124365426":{"location":[43.9553789,-1.3561994],"ct":"FR","tp":"CS","ts":"2024-12-30T18:51:31Z","tX":508,"tY":372,"tags":{"barrier":"fence","contact:email":"tourterelles@campeole.com","contact:phone":"+335 58 47 93 12","fence_type":"wood","name":"Les Tourterelles","opening_hours":"Apr 09:00-12:30,15:00-18:00;May-Jun 09:00-12:30,15:00-19:00;Jul-Aug 08:00-22:00;Sep 09:00-12:30,15:00-18:00","operator":"Campeole","stars":"3","website":"https://www.campeole.com/etablissement/post/les-tourterelles-vielle-saint-girons"}},"126505746":{"location":[44.0387366,-1.3345558],"ct":"FR","tp":"CS","ts":"2024-06-21T18:12:06Z","tX":508,"tY":372,"tags":{"addr:city":"Lit-et-Mixe","addr:housenumber":"600","addr:postcode":"40170","addr:street":"Avenue de l'Océan","capacity":"440","caravans":"yes","drinking_water":"yes","name":"Camping municipal du Cap de L'Homy","opening_hours":"May 09:00-12:00,15:00-18:00; Jun-Sep 08:30-13:00,14:30-20:00; Jul-Aug 08:30-21:00","phone":"+33 5 58 42 83 47","power_supply":"cee_17_blue","sanitary_dump_station":"yes","shower":"yes","stars":"3","tents":"yes","toilets":"yes","toilets:wheelchair":"yes","website":"https://www.camping-cap.com/","wheelchair":"yes","wheelchair:description:de":"Rezeption barrierefrei, 3 bh-gerechte WCs und Duschen vorhanden, Reservierung und Ankündigung dringend empfohlen. (Der Zugang vom Camping-Platz zum Strand ist nicht barrierefrei, man kann mit dem Auto zum offiziellen Parkplatz am Strand fahren. Dort gi"}},"173130791":{"location":[43.9533316,-1.357325],"ct":"FR","tp":"CR","ts":"2024-08-25T09:44:03Z","tX":508,"tY":372,"tags":{"bbq":"no","caravan_site":"motorhome_stopover","caravan_site:type":"beach","caravans":"no","charge":"22 EUR","charge:conditional":"10 EUR@(Sep 15-May 03); 13.50 EUR@(May 04-Jul 11,Aug 25-Sep 14); 17.50 EUR @ (Jul 12-Jul 19)","dog":"leashed","fee":"yes","maxlength":"10","name":"Aire de Saint-Girons Plage","operator":"Campéoles","power_supply":"yes","power_supply:capacity":"48","power_supply:fee":"no","power_supply:maxcurrent":"16","sanitary_dump_station":"yes","source":"Locale","tents":"no","water_point":"yes","water_point:charge":"1 EUR","water_point:fee":"yes","website":"https://www.ms-vacances.com/aires-camping-car/aire-saint-girons-plage/"}},"173904573":{"location":[43.8831062,-1.3150432],"ct":"FR","tp":"CS","ts":"2025-01-26T19:32:05Z","tX":508,"tY":372,"tags":{"contact:email":"loupuntaou@franceloc.fr","contact:phone":"+335 58 48 74 30","name":"Punta Lago","opening_hours":"Apr-Jun, Sep Mo-Su 09:30-12:30,14:30-18:30;Jul-Aug 09:00-20:00","operator":"FranceLoc","source":"Bing Sat","stars":"4","website":"http://www.camping-puntalago.com/"}},"173904574":{"location":[43.8853309,-1.3168257],"ct":"FR","tp":"CS","ts":"2023-11-11T04:44:43Z","tX":508,"tY":372,"tags":{"contact:email":"loupuntaou@capfun.com","contact:phone":"+335 58 48 74 30","name":"Lou Puntaou","name:oc":"Lo Puntau","operator":"CapFun","source":"Bing Sat","source:name:oc":"ieo-bdtopoc","stars":"4","website":"https://www.loupuntaou.com/"}},"173904583":{"location":[43.8842705,-1.3184033],"ct":"FR","tp":"CR","ts":"2024-05-12T15:14:09Z","tX":508,"tY":372,"tags":{"caravan_site":"motorhome_stopover","charge":"12.50 EUR","description":"12 EUR","dog":"yes","fee":"yes","name":"Léon - Route du Puntaou","sanitary_dump_station":"yes","sanitary_dump_station:fee":"yes","source":"Bing Sat","toilets":"no","water_point":"yes","water_point:fee":"no","website":"https://www.tourismelandes.com/aire-camping-car/aire-de-camping-cars-de-leon-accaqu040010000k/"}},"177859579":{"location":[43.9326852,-1.2552815],"ct":"FR","tp":"CS","ts":"2022-08-26T14:13:13Z","tX":508,"tY":372,"tags":{"barrier":"fence","source":"bing"}},"184550761":{"location":[43.9304905,-1.3091185],"ct":"FR","tp":"CS","ts":"2019-03-22T09:04:24Z","tX":508,"tY":372,"tags":{"contact:phone":"+335 58 47 94 85","name":"Camping La Jaougotte","website":"https://www.campinglajaougotte.com/"}},"186616972":{"location":[44.0225644,-1.2799431],"ct":"FR","tp":"CS","ts":"2023-10-30T07:22:39Z","tX":508,"tY":372,"tags":{"contact:phone":"+334 30 05 15 01","name":"Camping Village Center Les Vignes","operator":"Tohapi","stars":"5","website":"https://www.les-vignes.com/"}},"191313430":{"location":[44.0736316,-1.1557897],"ct":"FR","tp":"CS","ts":"2022-04-03T13:13:37Z","tX":508,"tY":372,"tags":{"contact:email":"reception@sen-yan.com","contact:phone":"+335 58 42 60 05","name":"Sen Yan","name:oc":"Sent Jan","operator":"Airotel","stars":"5","website":"https://www.sen-yan.com/"}},"211136167":{"location":[44.0623727,-1.0726894],"ct":"FR","tp":"CS","ts":"2024-06-28T07:50:51Z","tX":508,"tY":372,"tags":{"name":"Bienvenu","source":"Bing","stars":"3","website":"https://www.camping-onesse.fr/","wheelchair":"yes"}},"220359840":{"location":[44.0122853,-1.2629708],"ct":"FR","tp":"CS","ts":"2024-10-12T13:22:01Z","tX":508,"tY":372,"tags":{"capacity":"65","contact:email":"caravaland@aol.com","contact:phone":"+33 5 58 42 84 80","name":"Caravaland","website":"https://caravaland.com/le-camping/"}},"224007958":{"location":[44.0306197,-1.2593132],"ct":"FR","tp":"CS","ts":"2024-08-07T11:52:28Z","tX":508,"tY":372,"tags":{"contact:phone":"+334 42 16 89 91","name":"Camping Village Le Soleil des Landes","operator":"Homair","stars":"4","website":"https://www.homair.com/camping/le-soleil-des-landes"}},"283123412":{"location":[43.9028937,-1.3090667],"ct":"FR","tp":"CR","ts":"2024-05-17T23:24:04Z","tX":508,"tY":372,"tags":{"capacity":"40","caravan_site":"motorhome_stopover","caravan_site:type":"beach","caravans":"no","charge":"15.30 EUR","charge:conditional":"12.60 EUR @(Oct-Apr)","fee":"yes","internet_access":"wlan","internet_access:fee":"no","maxlength":"none","name":"Aire CAMPING-CAR PARK de Vielle-Saint-Girons","name:en":"CAMPING-CAR PARK area of Vielle-Saint-Girons","name:fr":"Aire CAMPING-CAR PARK de Vielle-Saint-Girons","network":"CAMPING-CAR PARK","operator":"CAMPING-CAR Park","owner":"Commune de St. Girons","power_supply":"yes","power_supply:maxcurrent":"6","sanitary_dump_station":"yes","sanitary_dump_station:chemical_toilet":"yes","sanitary_dump_station:grey_water":"yes","surface":"gravel","tents":"no","trailer":"yes","water_point":"yes","website":"https://www.campingcarpark.com/en_GB/stay/stopover-site-motorhome/nouvelle-aquitaine/40-landes/vielle-saint-girons"}},"283140287":{"location":[43.9036391,-1.317893],"ct":"FR","tp":"CS","ts":"2020-08-07T18:34:17Z","tX":508,"tY":372,"tags":{"addr:city":"Vielle-Saint-Girons","addr:housenumber":"1548","addr:postcode":"40560","addr:street":"Route de l'Étang","contact:phone":"+334 11 32 90 00","name":"Le Col Vert","operator":"Sandaya","stars":"4","website":"https://www.sandaya.fr/camping/france/aquitaine/le-col-vert/"}},"295150767":{"location":[43.9987842,-1.2703987],"ct":"FR","tp":"CS","ts":"2023-10-30T07:22:46Z","tX":508,"tY":372,"tags":{"contact:mobile":"+336 12 98 53 32","contact:phone":"+335 58 42 71 79","name":"Camping Lacoussade","name:oc":"Parcament de La Cossada","opening_hours":"Jun-Sep Mo-Su 08:00-13:00,15:00-20:00","website":"https://www.camping-lacoussade.com/"}},"367013494":{"location":[43.856527,-1.2730472],"ct":"FR","tp":"CS","ts":"2017-05-23T11:21:35Z","tX":508,"tY":372,"tags":{"camp_site:type:FR":"Aire Naturelle","contact:email":"veronique.dupre985@orange.fr","contact:mobile":"+336 21 84 54 73","contact:phone":"+335 58 48 76 66","internet_access":"no","name":"Aire Naturelle de Camping \"Au Gat\""}},"370621811":{"location":[43.8852966,-1.2518058],"ct":"FR","tp":"CS","ts":"2019-03-22T09:04:31Z","tX":508,"tY":372,"tags":{"contact:email":"info@camping-landes-oceanes.com","contact:phone":"+335 58 49 85 16","name":"Landes Oceanes","stars":"4","website":"https://www.camping-landes-oceanes.com/"}},"428029655":{"location":[44.0182178,-1.2675379],"ct":"FR","tp":"CS","ts":"2016-06-29T15:55:22Z","tX":508,"tY":372,"tags":{"addr:city":"Lit-et-Mixe","addr:housenumber":"205","addr:postcode":"40170","addr:street":"Chemin Lasalle","capacity":"66","fee":"yes","name":"Camping Lassalle","operator":"Lassalle"}},"494362166":{"location":[44.0833722,-1.2622011],"ct":"FR","tp":"CS","ts":"2023-10-30T07:22:30Z","tX":508,"tY":372,"tags":{"addr:city":"Saint-Julien-en-Born","addr:postcode":"40170","addr:street":"Route de Contis","contact:email":"reservations@siblu.fr","contact:phone":"+335 58 58 52 60","name":"Les Dunes de Contis","operator":"Siblu","stars":"3","website":"https://www.siblu.fr/"}},"494422635":{"location":[44.0726063,-1.2394254],"ct":"FR","tp":"CS","ts":"2024-08-16T10:20:02Z","tX":508,"tY":372,"tags":{"backcountry":"no","caravans":"yes","contact:email":"info@lateouleyre.com","contact:mobile":"+336 03 03 15 81","contact:phone":"+335 58 42 77 80","drinking_water":"yes","fee":"yes","group_only":"no","name":"La Téouleyre","name:oc":"La Teulèira","nudism":"no","picnic_table":"yes","power_supply":"yes","shower":"yes","source:name:oc":"ieo-bdtopoc","static_caravans":"no","tents":"yes","toilets":"yes","website":"https://lateouleyre.jimdo.com/","wheelchair":"yes"}},"494424978":{"location":[44.0728846,-1.2329602],"ct":"FR","tp":"CS","ts":"2020-05-02T22:28:01Z","tX":508,"tY":372,"tags":{"contact:mobile":"+336 86 87 26 78","contact:phone":"+335 58 42 80 12","name":"Camping Le vieux Moulin","name:oc":"Campament lo Vielh Molin","source:name:oc":"ieo-bdtopoc","stars":"2","website":"http://www.domaine-vieux-moulin.com"}},"494425506":{"location":[44.0672527,-1.231387],"ct":"FR","tp":"CS","ts":"2025-02-20T21:56:06Z","tX":508,"tY":372,"tags":{"contact:email":"contact@camping-municipal-bourg.com","contact:phone":"+33 5 58 42 76 18","name":"Camping de la Passerelle","name:oc":"Campament de la Linda","operator":"Camping municipal","stars":"2","website":"https://camping-municipal-bourg.com/"}},"494431853":{"location":[44.0720019,-1.2452464],"ct":"FR","tp":"CS","ts":"2023-03-26T09:38:34Z","tX":508,"tY":372,"tags":{"addr:city":"St. Julien-en-Born","addr:housenumber":"1312","addr:postcode":"40170","addr:street":"Route du Sable Blanc","dog":"yes","internet_access":"wlan","internet_access:fee":"customers","name":"Camping Piou de Pelle","operator":"J & M Vigneres","phone":"+33 5 58 42 88 87","power_supply":"cee_7_5","sanitary_dump_station":"yes","shower":"3","toilets":"3","website":"https://piou-de-pelle.e-monsite.com"}},"495428384":{"location":[43.8790549,-1.2367666],"ct":"FR","tp":"CS","ts":"2022-07-31T10:03:43Z","tX":508,"tY":372,"tags":{"access":"customers","addr:city":"Saint Michel Escalus","addr:housenumber":"450","addr:postcode":"40550","addr:street":"Route Léon","contact:phone":"+335 58 90 26 30","name":"Huttopia","stars":"3","website":"https://europe.huttopia.com/site/camping-landes-sud/"}},"495450978":{"location":[43.898722,-1.2701668],"ct":"FR","tp":"CS","ts":"2022-02-23T17:53:08Z","tX":508,"tY":372,"tags":{"contact:mobile":"+33 630 366 428","name":"Aire naturelle du Cayre","website":"https://www.domaineducayre.com/"}},"495451360":{"location":[43.8795508,-1.2489223],"ct":"FR","tp":"CS","ts":"2017-05-23T11:30:32Z","tX":508,"tY":372,"tags":{"contact:mobile":"+336 85 43 23 41","contact:phone":"+335 58 48 77 13","name":"Camping de Coudas","website":"http://www.campingcoudas.sitew.com"}},"675823327":{"location":[43.8617788,-1.3429366],"ct":"FR","tp":"CS","ts":"2024-02-07T14:38:21Z","tX":508,"tY":372,"tags":{"addr:city":"Moliets-et-Maâ","addr:housenumber":"1010","addr:postcode":"40660","addr:street":"Rue des Templiers","contact:email":"landisland@capfun.com","contact:phone":"+33 5 58 47 13 78","name":"Landisland","operator":"Capfun","ref:FR:CRTA":"HPAAQU040FS0003F","stars":"4","website":"https://www.capfun.com/camping-france-aquitaine-landisland-FR.html"}},"815730192":{"location":[43.9673695,-1.1294393],"ct":"FR","tp":"CS","ts":"2024-08-05T08:31:57Z","tX":508,"tY":372,"tags":{"capacity:pitches":"48","caravans":"yes","contact:email":"campinglelaha@orange.fr","contact:phone":"+33 5 58 89 36 49","contact:website":"https://www.lelaha.com/","dog":"yes","mobile":"+33 6 18 96 36 49","name":"Le Laha","official_name":"Camping Le Laha","source":"data.gouv.fr:DATAtourisme - 05/2020","stars":"3","static_caravans":"yes","tents":"yes","wheelchair":"yes"}},"815730193":{"location":[44.0436458,-1.2047169],"ct":"FR","tp":"CS","ts":"2020-06-13T19:39:10Z","tX":508,"tY":372,"tags":{"contact:email":"contact@chaletsduza.fr","contact:phone":"+33 5 58 41 33 06","contact:website":"http://www.chaletsduza.fr/","name":"Camping Les Chalets d'Uza","source":"data.gouv.fr:DATAtourisme - 05/2020","wheelchair":"yes"}},"836140868":{"location":[43.9570531,-1.2687143],"ct":"FR","tp":"CS","ts":"2022-03-05T21:27:24Z","tX":508,"tY":372,"tags":{"contact:email":"camping.bernadon@free.fr","contact:phone":"+33 5 58 47 90 98","name":"Camping à la ferme Bernadon","ref:FR:CRTA":"HPAAQU040FS0000L","source":"data.gouv.fr:DATAtourisme - 05/2020","website":"http://www.camping-bernadon.fr"}},"842188131":{"location":[44.0716581,-1.2423667],"ct":"FR","tp":"CS","ts":"2020-08-30T20:28:37Z","tX":508,"tY":372,"tags":{"contact:email":"campingdupontnoir@hotmail.com","contact:mobile":"+336 40 71 64 78","name":"Le Pont Noir","website":"https://campingdupontnoir.jimdo.com/"}},"848387183":{"location":[43.904263,-1.2923471],"ct":"FR","tp":"CS","ts":"2023-11-11T04:44:42Z","tX":508,"tY":372,"tags":{"contact:phone":"+335 58 42 93 00","name":"Le Gaoucher","website":"https://legaoucher.net/"}},"1232720720":{"location":[43.875336,-1.1354837],"ct":"FR","tp":"CR","ts":"2024-05-22T13:38:30Z","tX":508,"tY":372,"tags":{"bbq":"no","capacity":"22","caravan_site":"motorhome_stopover","caravan_site:type":"village","caravans":"no","charge":"15.22 EUR","charge:conditional":"13.22 EUR @ (Oct 16-Mar 31)","charge:services":"5 EUR","dog":"leashed","fee":"yes","internet_access":"wlan","name":"Aire de camping-cars de Castets","network":"CAMPING-CAR PARK","opening_hours":"24/7","picnic_area":"yes","power_supply":"yes","power_supply:capacity":"22","power_supply:maxcurrent":"6","sanitary_dump_station":"yes","sanitary_dump_station:chemical_toilet":"yes","sanitary_dump_station:grey_water":"yes","seasonal":"no","source:name":"purple sign at entrance","tents":"no","trailer":"no","water_point":"yes","website":"https://www.campingcarpark.com/fr_FR/sejour/aire-etape-camping-car/nouvelle-aquitaine/40-landes/castets"}},"1323412804":{"location":[43.8503454,-1.3813283],"ct":"FR","tp":"CR","ts":"2024-10-12T13:26:03Z","tX":508,"tY":372,"tags":{"capacity":"120","caravan_site":"motorhome_stopover","caravan_site:type":"beach","charge":"15 EUR","dog":"yes","fee":"yes","internet_access":"wlan","internet_access:fee":"customers","maxstay":"7 days","name":"Aire de camping-cars municipale de Moliets-et-Maâ","opening_hours":"Mar 25-Nov 14","power_supply":"yes","ref:FR:CRTA":"ACCAMAQU0400000M","sanitary_dump_station":"yes","shadow":"yes","source":"Réseau SIRTAQUI - Comité Régional de Tourisme d'Aquitaine - www.sirtaqui-aquitaine.com - 08/2018","water_point":"yes","website":"https://www.landesatlantiquesud.com/aire-camping-car/aire-de-camping-cars-municipale-de-moliets-et-maa/"}},"1973497173":{"location":[44.0361687,-1.3351605],"ct":"FR","tp":"PK","ts":"2024-09-05T21:54:25Z","tX":508,"tY":372,"tags":{"access":"yes","caravans":"yes","description":"No staying in car and no camping cars between 23:00 - 8:00.","fee":"no","motorhome:overnight":"no","name":"Parking forestier","orientation":"perpendicular","parking":"surface","surface":"sand","toilets:wheelchair":"no","wheelchair":"limited","wheelchair:description":"Es gibt kein WC. Boden uneben, grober Kies - ebenerdig erreichbar, keine Stufen."}},"1973604464":{"location":[44.0374953,-1.333871],"ct":"FR","tp":"CR","ts":"2024-10-04T10:33:00Z","tX":508,"tY":372,"tags":{"addr:city":"Lit-et-Mixe","addr:housenumber":"600","addr:postcode":"40170","addr:street":"Avenue de l'Océan","capacity":"36","caravan_site":"motorhome_stopover","caravan_site:type":"camp_site","charge":"28.60 EUR","charge:conditional":"13.50 @ (Jun 15-Jul 03,Sep 04-Sep 15); 12.05 EUR @ (May 02-Jun 14,Sep 16-Sep 30)","check_in":"12:00","check_out":"12:00","fee":"yes","name":"Camping municipal du Cap de L'Homy","opening_hours":"May-Sep","power_supply":"yes","power_supply:maxcurrent":"10","reservation":"no","tents":"no","toilets:wheelchair":"yes","website":"https://www.camping-cap.com/de/aire-de-camping-cars/","wheelchair":"yes","wheelchair:description":"“Nomad“-Parkplatz für Wohnmobile bei Camping Municipal du Cap de l'Homy. WC und Dusche bei der Rezeption."}},"3645655399":{"location":[44.0778959,-1.2888173],"ct":"FR","tp":"CS","ts":"2022-04-03T18:57:25Z","tX":508,"tY":372,"tags":{"addr:city":"Lit-et-Mixe","addr:postcode":"40170","addr:street":"Route de Contis","contact:email":"letuc.camping@gmail.com","contact:mobile":"+336 74 98 16 70","contact:phone":"+335 58 42 81 74","name":"Le Tuc","name:oc":"Lo Tuc","operator":"M. Serge DULAURANS","website":"http://www.camping-letuc.fr"}},"3709895371":{"location":[43.8627259,-1.2742588],"ct":"FR","tp":"CS","ts":"2017-05-23T11:17:51Z","tX":508,"tY":372,"tags":{"contact:email":"camping.petitjean@orange.fr","contact:mobile":"+336 87 46 89 71","contact:phone":"+335 58 48 73 80","name":"Aire naturelle Petit-Jean"}},"4861967855":{"location":[43.9918033,-1.2769541],"ct":"FR","tp":"CS","ts":"2022-11-05T22:52:11Z","tX":508,"tY":372,"tags":{"contact:email":"jeanroger.moresmau@wanadoo.fr","contact:mobile":"+336 07 09 95 45","contact:phone":"+335 58 42 71 60","name":"La Glory","website":"http://www.laglory.fr"}},"4861974339":{"location":[44.0277155,-1.2261987],"ct":"FR","tp":"CS","ts":"2018-12-26T15:22:51Z","tX":508,"tY":372,"tags":{"contact:phone":"+335 58 42 84 36","name":"Camping à la ferme Pellica"}},"4381938957":{"location":[43.9543628,-1.3558198],"ct":"FR","tp":"SD","ts":"2024-08-29T23:13:13Z","tX":508,"tY":372,"tags":{"fee":"no"}},"7837518569":{"location":[43.9071931,-1.367079],"ct":"FR","tp":"SD","ts":"2024-08-22T08:16:56Z","tX":508,"tY":372,"tags":{"fee":"no"}},"11725226100":{"location":[43.9377263,-1.0899465],"ct":"FR","tp":"SD","ts":"2024-08-08T22:19:07Z","tX":508,"tY":372,"tags":{"access":"yes","fee":"no","motorhome":"designated"}},"11917719919":{"location":[43.8756572,-1.1356615],"ct":"FR","tp":"SD","ts":"2024-05-19T12:49:39Z","tX":508,"tY":372,"tags":{}},"12463580765":{"location":[43.9557088,-1.3550057],"ct":"FR","tp":"SD","ts":"2024-12-30T18:51:31Z","tX":508,"tY":372,"tags":{}}}