{"47667323":{"location":[43.7859246,-1.3086309],"ct":"FR","tp":"CS","ts":"2024-02-07T14:11:29Z","tX":508,"tY":373,"tags":{"addr:city":"Azur","addr:housenumber":"66","addr:postcode":"40140","addr:street":"route des Camping","contact:email":"paillotte@capfun.com","contact:phone":"+33 5 58 48 12 12","email":"paillotte@capfun.com","name":"La Paillotte","operator":"Capfun","ref:FR:CRTA":"HPAAQU04001WBDNO","source":"cadastre-dgi-fr source : Direction Générale des Impôts - Cadastre;mise à jour : 2010","stars":"4","website":"https://www.paillotte.com/"}},"48238911":{"location":[43.7887116,-1.3119596],"ct":"FR","tp":"CR","ts":"2024-05-17T23:25:30Z","tX":508,"tY":373,"tags":{"bbq":"no","capacity":"35","caravan_site":"motorhome_stopover","caravan_site:type":"lake","caravans":"no","charge":"14.86 EUR","charge:conditional":"12.86 EUR @(Oct-Apr)","dog":"leashed","fee":"yes","internet_access":"wlan","internet_access:fee":"no","maxlength":"none","name":"Aire CAMPING-CAR PARK d'Azur","name:fr":"Aire CAMPING-CAR PARK d'Azur","network":"CAMPING-CAR PARK","operator":"CAMPING-CAR Park","power_supply":"yes","power_supply:maxcurrent":"6","sanitary_dump_station":"yes","sanitary_dump_station:chemical_toilet":"yes","sanitary_dump_station:grey_water":"yes","tents":"no","trailer":"yes","water_point":"yes","website":"https://www.campingcarpark.com/fr_FR/sejour/aire-etape-camping-car/nouvelle-aquitaine/40-landes/azur"}},"57011290":{"location":[43.7937417,-1.2939009],"ct":"FR","tp":"CS","ts":"2024-02-07T14:12:59Z","tX":508,"tY":373,"tags":{"addr:city":"Azur","addr:housenumber":"155","addr:postcode":"40140","addr:street":"Rue Henri Goalard","contact:phone":"+33 5 58 48 22 52","email":"info@camping-landes-azur.com","name":"Landes Azur","ref:FR:CRTA":"HPAAQU04001WBDOA","stars":"4","website":"https://www.camping-landes-azur.com/"}},"122221392":{"location":[43.8001026,-1.4006192],"ct":"FR","tp":"CS","ts":"2024-11-13T10:14:27Z","tX":508,"tY":373,"tags":{"access":"customers","addr:city":"Messanges","addr:country":"FR","addr:housenumber":"850","addr:postcode":"40660","addr:street":"route de la Plage Sud","caravans":"yes","contact:email":"contact@levieuxport.com","contact:fax":"+33 5 58 48 01 69","contact:phone":"+33 5 58 48 22 00","contact:website":"http://www.levieuxport.com","drinking_water":"yes","name":"Camping Le Vieux Port","operator":"ResaSol","phone":"+33 5 58 48 22 00","ref:FR:CRTA":"HPAAQU04001WBDOB","stars":"5","tents":"yes"}},"122221394":{"location":[43.797313,-1.4035423],"ct":"FR","tp":"CS","ts":"2023-10-28T11:53:35Z","tX":508,"tY":373,"tags":{"access":"customers","addr:city":"Messanges","addr:housenumber":"100","addr:postcode":"40660","addr:street":"chemin du Junca","caravans":"yes","contact:email":"info@albretplage.fr","contact:phone":"+33 5 58 48 03 67","name":"Albret plage","ref:FR:CRTA":"HPAAQU04001WBDMH","stars":"3","tents":"yes","website":"https://www.albretplage.fr/"}},"235159332":{"location":[43.7539017,-1.3569742],"ct":"FR","tp":"CS","ts":"2024-02-07T13:44:45Z","tX":508,"tY":373,"tags":{"addr:city":"Soustons","addr:housenumber":"63","addr:postcode":"40140","addr:street":"Avenue du Port d'Albret","contact:phone":"+33 4 11 32 90 00;+33 5 58 77 77 98","email":"soustonsvillage@sandaya.fr","name":"Camping Sandaya Soustons Village","operator":"Sandaya","ref:FR:CRTA":"HPAAQU040FS0003E","stars":"5","website":"https://www.sandaya.fr/nos-campings/soustons-village"}},"235159333":{"location":[43.7550101,-1.3526738],"ct":"FR","tp":"CR","ts":"2024-10-25T16:22:09Z","tX":508,"tY":373,"tags":{"capacity":"80","caravan_site":"motorhome_stopover","caravan_site:type":"lake","charge":"15.36 EUR","charge:conditional":"12.36 EUR @(Jan-Mar'); 15.86@(Jul-Sep)","fee":"yes","maxstay":"72 hours","name":"Aire de camping-cars du Lac à Soustons","power_supply":"yes","sanitary_dump_station":"yes","seasonal":"no","water_point":"yes","website":"https://www.landesatlantiquesud.com/aire-camping-car/aire-de-camping-car-camping-nature-lairial/"}},"250862830":{"location":[43.7027288,-1.3313338],"ct":"FR","tp":"CS","ts":"2024-12-21T14:21:40Z","tX":508,"tY":373,"tags":{"addr:city":"Tosse","addr:housenumber":"40","addr:postcode":"40230","addr:street":"Avenue de Sparben","contact:email":"clown-ocean@capfun.com","contact:phone":"+33 5 58 43 03 03","name":"Camping Clown Océan","operator":"Capfun","ref:FR:CRTA":"HPAAQU04001WBDXT","source":"cadastre-dgi-fr source : Direction Générale des Impôts - Cadastre. Mise à jour : 2013 + Bing","stars":"4"}},"322720633":{"location":[43.742858,-1.1006521],"ct":"FR","tp":"CS","ts":"2023-05-24T18:07:06Z","tX":508,"tY":373,"tags":{"addr:housenumber":"782","addr:street":"Allée du Château","capacity:pitches":"86","capacity:static_caravans":"52","caravans":"yes","dog":"yes","email":"camping@thermesadour.com","internet_access":"yes","internet_access:fee":"yes","name":"Camping des Abesses","phone":"+33 5 58 91 65 34","ref:FR:CRTA":"HPAAQU04001WBDMT","source":"Réseau SIRTAQUI - Comité Régional de Tourisme d'Aquitaine - www.sirtaqui-aquitaine.com - 06/2016","stars":"2","static_caravans":"yes","tents":"yes","website":"https://www.thermes-dax.com/hotels/camping-des-abesses/"}},"330047532":{"location":[43.8234988,-1.1500665],"ct":"FR","tp":"CS","ts":"2024-05-02T10:25:53Z","tX":508,"tY":373,"tags":{"addr:housenumber":"1284","addr:street":"Route des Carroues","caravans":"yes","contact:email":"vincent.fabas@laposte.net","contact:phone":"+33 5 58 91 55 16","contact:website":"https://www.camping-du-toy.com/","dog":"yes","drinking_water":"yes","email":"mail@camping-du-toy.com","mobile":"+33 7 50 82 90 42","name":"Camping du Toy","official_name":"Aire naturelle Le Toy","opening_hours":"09:00-13:00,16:00-21:00","power_supply":"yes","ref:FR:CRTA":"HPAAQU04001WBDS0","shower":"yes","source":"data.gouv.fr:DATAtourisme - 05/2020","static_caravans":"yes","tents":"yes","toilets":"yes","wheelchair":"yes"}},"330334352":{"location":[43.6476549,-1.1639115],"ct":"FR","tp":"CS","ts":"2022-06-13T19:16:31Z","tX":508,"tY":373,"tags":{"addr:city":"Orist","addr:housenumber":"60","addr:postcode":"40300","addr:street":"Route de Houron","email":"accueil@portcarrere.com","name":"Camping Port Carrere","network":"charte durable palo","opening_hours":"Mo-Su 09:00-19:00","phone":"+33 6 85 12 18 06","website":"https://www.portcarrere.com"}},"339870796":{"location":[43.705958,-1.0714152],"ct":"FR","tp":"CS","ts":"2024-04-30T15:02:30Z","tX":508,"tY":373,"tags":{"addr:street":"Rue de Jouandin","name":"Camping Le Bascat","phone":"+33 5 58 56 16 68","ref:FR:CRTA":"HPAAQU04001WBDNX"}},"462561449":{"location":[43.7986568,-1.3765729],"ct":"FR","tp":"CS","ts":"2022-04-05T11:48:57Z","tX":508,"tY":373,"tags":{"access":"customers","addr:city":"Messanges","addr:housenumber":"101","addr:postcode":"40660","addr:street":"Chemin du Houdin","caravans":"yes","contact:email":"lesacacias@lesacacias.com","contact:phone":"+335 58 48 01 78","name":"Les Acacias","note":"Accueil Vélo","ref:FR:CRTA":"HPAAQU04001WBDOE","stars":"3","tents":"yes","website":"https://www.lesacacias.com/"}},"462960131":{"location":[43.8155845,-1.3901185],"ct":"FR","tp":"CS","ts":"2022-04-05T11:48:57Z","tX":508,"tY":373,"tags":{"access":"customers","addr:city":"Messanges","addr:housenumber":"1077","addr:postcode":"40660","addr:street":"Avenue de l'océan","caravans":"yes","contact:email":"camping.moisan@orange.fr","contact:phone":"+335 58 48 92 06","internet_access":"wlan","internet_access:fee":"yes","name":"Camping de Moïsan","ref:FR:CRTA":"HPAAQU04001WBDPB","stars":"3","tents":"yes","website":"https://www.camping-moisan.com/"}},"466750076":{"location":[43.7996264,-1.3919691],"ct":"FR","tp":"CS","ts":"2024-06-03T09:29:05Z","tX":508,"tY":373,"tags":{"access":"customers","addr:city":"Messanges","addr:housenumber":"361","addr:postcode":"40660","addr:street":"Chemin de la Côte","caravans":"yes","contact:email":"info@campinglacote.com","contact:phone":"+33 5 58 48 94 94","drinking_water":"yes","email":"info@campinglacote.com","fee":"yes","name":"Camping de la Côte","network":"charte durable palo","opening_hours":"Mo-Su 08:00-12:00,14:00-19:00","power_supply":"yes","ref:FR:CRTA":"HPAAQU04001WBDNH","sanitary_dump_station":"yes","shower":"yes","stars":"4","tents":"yes","toilets":"yes","website":"https://www.campinglacote.com/"}},"466751980":{"location":[43.7826301,-1.3932153],"ct":"FR","tp":"CS","ts":"2023-11-24T09:03:15Z","tX":508,"tY":373,"tags":{"addr:city":"Vieux-Boucau-les-Bains","addr:housenumber":"13","addr:postcode":"40480","addr:street":"rue des Chênes","caravans":"yes","contact:email":"accueil@campingleschenes.fr","contact:phone":"+335 58 48 21 21","internet_access":"wlan","internet_access:fee":"yes","name":"Camping les Chênes","note":"Accueil Vélo","ref:FR:CRTA":"HPAAQU04001WBDOH","stars":"2","tents":"yes","website":"https://www.campingleschenes.fr/"}},"495456981":{"location":[43.7533153,-1.3536526],"ct":"FR","tp":"CS","ts":"2024-02-07T13:34:08Z","tX":508,"tY":373,"tags":{"addr:city":"Soustons","addr:housenumber":"61","addr:postcode":"40140","addr:street":"avenue de Port d'Albret","contact:phone":"+33 5 58 41 12 48","email":"contact@campinglairial.fr","name":"Airial","ref:FR:CRTA":"HPAAQU04001WBDPU","stars":"4","website":"http://www.campinglairial.fr"}},"495479303":{"location":[43.7010765,-1.3722841],"ct":"FR","tp":"CS","ts":"2023-10-31T11:45:46Z","tX":508,"tY":373,"tags":{"addr:city":"Seignosse","addr:housenumber":"1379","addr:postcode":"40510","addr:street":"Route de l'Étang Blanc","caravans":"no","contact:email":"info@les2etangs.com","contact:phone":"+33 5 58 41 66 99","email":"info@les2etangs.com","name":"Les 2 Etangs","network":"charte durable palo","opening_hours":"Tu-Sa 09:00-12:00,14:00-18:00","phone":"+33 5 58 41 66 99","stars":"4","tents":"no","website":"https://www.les2etangs.com/"}},"495480297":{"location":[43.7055076,-1.3726114],"ct":"FR","tp":"CS","ts":"2021-08-05T14:57:05Z","tX":508,"tY":373,"tags":{"addr:city":"Seignosse","addr:housenumber":"2","addr:postcode":"40510","addr:street":"Route Louis de Bourmont","capacity":"189","contact:email":"etangbanc@vacances-andretrigano.com","contact:mobile":"+33 6 89 29 70 40","contact:phone":"+33 5 58 72 80 06","fee":"yes","name":"L'Étang Blanc","operator":"Vacances André Trigano","stars":"2","tents":"yes","website":"https://vacances-andretrigano.com/camping/landes/l-etang-blanc-seignosse"}},"495485972":{"location":[43.6752487,-1.3567673],"ct":"FR","tp":"CS","ts":"2024-11-24T14:08:34Z","tX":508,"tY":373,"tags":{"addr:city":"Saubion","addr:housenumber":"825","addr:postcode":"40230","addr:street":"Route de Seignosse","contact:email":"pomme@capfun.com","contact:phone":"+33 5 58 77 00 71","internet_access":"wlan","internet_access:fee":"customers","name":"La Pomme de Pin","operator":"Capfun","phone":"+33 5 58 77 00 71","ref:FR:CRTA":"HPAAQU04001WBDNR","stars":"3","tents":"yes","website":"https://www.camping-lapommedepin.com/"}},"624213301":{"location":[43.6820649,-1.1490784],"ct":"FR","tp":"CS","ts":"2024-06-28T07:50:44Z","tX":508,"tY":373,"tags":{"addr:housenumber":"250","addr:street":"Route de Houssât","name":"Camping Lou Bascou","phone":"+33 5 58 97 57 29","ref:FR:CRTA":"HPAAQU04001WBDOZ","source":"Réseau SIRTAQUI - Comité Régional de Tourisme d'Aquitaine - www.sirtaqui-aquitaine.com - 08/2018","stars":"3","website":"https://www.campingloubascou.fr/"}},"653113747":{"location":[43.7218427,-1.0944217],"ct":"FR","tp":"CS","ts":"2024-05-11T08:33:54Z","tX":508,"tY":373,"tags":{"addr:street":"Route des Minières","cabins":"yes","caravans":"yes","dog":"yes","drinking_water":"yes","email":"info@pinsoleil.com","name":"Les Pins du Soleil","opening_hours":"open; Nov-Mar off","phone":"+33 5 58 91 37 91","power_supply":"yes","ref:FR:CRTA":"HPAAQU04001WBDOR","shower":"yes","stars":"4","static_caravans":"yes","tents":"yes","toilets":"yes","website":"https://www.pinsoleil.com/"}},"672930715":{"location":[43.6898014,-1.2344975],"ct":"FR","tp":"CS","ts":"2022-03-24T10:17:50Z","tX":508,"tY":373,"tags":{"name":"Camping Les Platanes","ref:FR:CRTA":"HPAAQU04001WBDOS","source":"Réseau SIRTAQUI - Comité Régional de Tourisme d'Aquitaine - www.sirtaqui-aquitaine.com - 08/2018","stars":"3","website":"http://www.platanes.com/"}},"676331050":{"location":[43.7958784,-1.3937294],"ct":"FR","tp":"CS","ts":"2024-07-29T10:57:50Z","tX":508,"tY":373,"tags":{"addr:city":"Messanges","addr:housenumber":"375","addr:postcode":"40660","addr:street":"route de la Plage Sud","caravans":"yes","contact:phone":"+335 58 48 08 64","drinking_water":"yes","name":"Albret Paradis","power_supply":"yes","ref:FR:CRTA":"HPAAQU040FS00038","shower":"yes","stars":"2","tents":"yes","toilets":"yes","website":"https://camping-albret.com/"}},"676331051":{"location":[43.7977171,-1.3943508],"ct":"FR","tp":"CS","ts":"2022-04-05T10:04:23Z","tX":508,"tY":373,"tags":{"access":"customers","addr:city":"Messanges","addr:housenumber":"400","addr:postcode":"40660","addr:street":"Route de la Plage Sud","caravans":"yes","contact:phone":"+33 5 58 48 22 00","name":"Domaine de la Marina","operator":"ResaSol","ref:FR:CRTA":"HPAAQU04001WBDMY","stars":"4","tents":"yes","website":"https://www.domainedelamarina.com/"}},"676616318":{"location":[43.7963662,-1.3819586],"ct":"FR","tp":"CS","ts":"2022-04-05T11:48:57Z","tX":508,"tY":373,"tags":{"access":"customers","addr:city":"Messanges","addr:housenumber":"460","addr:postcode":"40660","addr:street":"Route du Quartier Caliot","caravans":"yes","contact:email":"contact@loupignada.com","contact:phone":"+33 5 58 48 22 00","name":"Camping Club Famille Lou Pignada","operator":"ResaSol","ref:FR:CRTA":"HPAAQU04001WBDP2","stars":"5","tents":"yes","website":"https://www.loupignada.com"}},"680526163":{"location":[43.6794723,-1.0642187],"ct":"FR","tp":"CS","ts":"2019-05-29T08:32:18Z","tX":508,"tY":373,"tags":{"addr:city":"Seyresse","addr:housenumber":"288","addr:postcode":"40180","addr:street":"Route de Bâa","name":"Camping Gascon Le Luy","phone":"+335 58 74 35 42","ref:FR:CRTA":"HPAAQU04001WBDO4","source":"Réseau SIRTAQUI - Comité Régional de Tourisme d'Aquitaine - www.sirtaqui-aquitaine.com - 08/2018","stars":"3","website":"https://campingleluy.com/"}},"696896262":{"location":[43.8115322,-1.3797967],"ct":"FR","tp":"CS","ts":"2022-05-02T08:02:09Z","tX":508,"tY":373,"tags":{"access":"customers","addr:city":"Messanges","addr:housenumber":"6","addr:postcode":"40660","addr:street":"Route des lacs","contact:mobile":"+33 6 73 68 24 11","email":"info@camping-lemoussaillon.fr","name":"Camping Le Moussaillon","network":"charte durable palo","opening_hours":"Mo-Su 09:00-12:00,14:00-19:00","phone":"+33 5 58 48 92 89","ref:FR:CRTA":"HPAAQU04001WBDO5","stars":"3","tents":"yes","website":"https://www.camping-lemoussaillon.fr/"}},"715421341":{"location":[43.6871133,-1.1472345],"ct":"FR","tp":"CS","ts":"2021-04-26T14:22:56Z","tX":508,"tY":373,"tags":{"addr:housenumber":"975","addr:street":"Route des Clarions","landuse":"residential","name":"Camping Bertranborde","phone":"+33 5 58 97 58 39","ref:FR:CRTA":"HPAAQU040FS0002S","source":"Réseau SIRTAQUI - Comité Régional de Tourisme d'Aquitaine - www.sirtaqui-aquitaine.com - 08/2018","website":"http://camping-chambres-bertranborde.fr"}},"815948022":{"location":[43.7964253,-1.3170008],"ct":"FR","tp":"CS","ts":"2020-06-14T19:41:31Z","tX":508,"tY":373,"tags":{"contact:email":"campingpesson@wanadoo.fr","contact:phone":"+33 5 58 48 30 49","contact:website":"http://www.campingpesson.com/","name":"Camping Pesson","official_name":"Aire naturelle Pesson","source":"data.gouv.fr:DATAtourisme - 05/2020","wheelchair":"yes"}},"836113042":{"location":[43.5945576,-1.3279979],"ct":"FR","tp":"CS","ts":"2022-04-05T10:21:31Z","tX":508,"tY":373,"tags":{"addr:city":"Saubrigues","addr:postcode":"40230","addr:street":"Route d'Ugne","name":"Aire naturelle Soutey","phone":"+33 5 58 77 90 54","ref:FR:CRTA":"HPAAQU04001WBDSY","source":"data.gouv.fr:DATAtourisme - 05/2020","website":"https://www.gites-camping-saubrigues.fr","wheelchair":"no"}},"836115418":{"location":[43.6041947,-1.1286029],"ct":"FR","tp":"CS","ts":"2022-07-02T10:26:50Z","tX":508,"tY":373,"tags":{"addr:city":"Bélus","addr:housenumber":"1188","addr:postcode":"49300","addr:street":"Route de Claquin","email":"campinglacomtesse@orange.fr","name":"Camping La Comtesse","network":"charte durable palo","phone":"+33 5 58 57 69 07","ref:FR:CRTA":"HPAAQU040FS0001A","source":"data.gouv.fr:DATAtourisme - 05/2020","stars":"3","website":"https://campinglacomtesse.com","wheelchair":"yes"}},"836118855":{"location":[43.6749693,-1.1118876],"ct":"FR","tp":"CS","ts":"2024-05-02T10:29:40Z","tX":508,"tY":373,"tags":{"addr:housenumber":"60","addr:street":"impasse Lacrouzade","contact:email":"geneze.daniel@wanadoo.fr","contact:phone":"+33 5 58 57 82 01","name":"Camping Sausset","ref:FR:CRTA":"HPAAQU040FS0001L","source":"data.gouv.fr:DATAtourisme - 05/2020","stars":"1","wheelchair":"yes"}},"895936366":{"location":[43.6150507,-1.1260301],"ct":"FR","tp":"CR","ts":"2024-10-25T16:25:13Z","tX":508,"tY":373,"tags":{"access":"yes","addr:city":"Saint-Lon-les-Mines","addr:housenumber":"150","addr:postcode":"40300","addr:street":"D6","alt_name":"Aire Salle des Sports Saint-Lon-les-Mines","capacity":"20","caravan_site":"motorhome_stopover","caravan_site:type":"village","fee":"no","maxstay":"24 hours","name":"Saint-Lon-les-Mines Aire de Camping-car","operator":"Ville de Saint-Lon-les-Mines","sanitary_dump_station:chemical_toilet":"yes","sanitary_dump_station:grey_water":"yes","surface":"gravel","water_point":"yes"}},"898422067":{"location":[43.8163494,-1.4006231],"ct":"FR","tp":"CR","ts":"2024-05-17T23:46:55Z","tX":508,"tY":373,"tags":{"addr:city":"Messanges","addr:postcode":"40660","addr:street":"Avenue de la Plage","bbq":"no","capacity":"55","caravan_site":"motorhome_stopover","caravan_site:type":"beach","caravans":"no","charge":"15.58 EUR","charge:conditional":"14.60@(Oct-May)","dog":"leashed","fee":"yes","internet_access":"wlan","internet_access:fee":"no","maxlength":"9","name":"Aire CAMPING-CAR PARK de Messanges","network":"CAMPING-CAR PARK","opening_hours":"24/7","sanitary_dump_station":"yes","tents":"no","toilets":"yes","trailer":"no","water_point":"yes","website":"https://www.campingcarpark.com/en_GB/stay/stopover-site-motorhome/nouvelle-aquitaine/40-landes/messanges"}},"991728639":{"location":[43.7557994,-1.3373887],"ct":"FR","tp":"CS","ts":"2021-10-10T17:17:39Z","tX":508,"tY":373,"tags":{"operator":"Centre Sportif de l'Isle Verte"}},"1018606859":{"location":[43.7112693,-1.0726349],"ct":"FR","tp":"CS","ts":"2024-04-30T15:03:22Z","tX":508,"tY":373,"tags":{"addr:street":"Allée du Bois de Boulogne","name":"Les Chênes","phone":"+33 5 58 90 05 53","ref:FR:CRTA":"HPAAQU04001WBDOG","website":"https://camping-leschenes-dax.com/"}},"1037384509":{"location":[43.7140894,-1.3530193],"ct":"FR","tp":"CS","ts":"2023-04-11T15:20:07Z","tX":508,"tY":373,"tags":{"addr:city":"Soustons","addr:postcode":"40140","description":"Ouverture annuelle du 16/06 au 16/09 en 2017.","name":"Aire naturelle De Bathurt","phone":"+33 5 58 41 21 59"}},"1095136366":{"location":[43.7845493,-1.3032937],"ct":"FR","tp":"CS","ts":"2022-09-16T11:45:21Z","tX":508,"tY":373,"tags":{"name":"Camping Le Martin Pêcheur","website":"https://campinglemartinpecheur.business.site/"}},"1095136367":{"location":[43.7829442,-1.3036364],"ct":"FR","tp":"CS","ts":"2022-09-16T11:45:21Z","tX":508,"tY":373,"tags":{"addr:city":"Azur","addr:housenumber":"720","addr:postcode":"40140","addr:street":"route des Campings","contact:email":"info@campingazurivage.com","contact:phone":"+33 5 58 48 30 72","name":"Azurivage","phone":"+33 5 58 48 30 72","ref:FR:CRTA":"HPAAQU04001WBDPE","source":"cadastre-dgi-fr source : Direction Générale des Impôts - Cadastre;mise à jour : 2010","stars":"3","website":"https://www.campingazurivage.com/"}},"1251198333":{"location":[43.780368,-1.4007844],"ct":"FR","tp":"CR","ts":"2024-10-11T20:40:09Z","tX":508,"tY":373,"tags":{"capacity":"150","caravan_site":"motorhome_stopover","caravan_site:type":"beach","charge":"16 EUR","charge:conditional":"12 EUR @ (Oct-Mar)","fee":"yes","maxstay":"48 hours","name":"Aire du Village de Vieux-Boucau","opening_hours":"24/7","power_supply":"yes","power_supply:fee":"no","sanitary_dump_station":"yes","sanitary_dump_station:chemical_toilet":"yes","sanitary_dump_station:grey_water":"yes","seasonal":"no","tents":"no","trailer:conditional":"no @ (Jul 01-Aug 31)","website":"https://www.tourismelandes.com/aire-camping-car/aire-du-village-de-vieux-boucau-accaqu040010000o/"}},"1287018173":{"location":[43.6612679,-1.3563281],"ct":"FR","tp":"CS","ts":"2024-05-27T09:32:05Z","tX":508,"tY":373,"tags":{"addr:city":"Angresse","addr:housenumber":"440","addr:postcode":"40150","addr:street":"Route de Saubion","name":"Houn De l'Or"}},"3296980861":{"location":[43.7264631,-1.122824],"ct":"FR","tp":"CS","ts":"2024-04-30T15:01:38Z","tX":508,"tY":373,"tags":{"addr:housenumber":"2564","addr:street":"Allée d'Ardy","capacity":"102","capacity:pitches":"63","capacity:static_caravans":"44","contact:facebook":"https://www.facebook.com/campingardy","contact:instagram":"https://www.instagram.com/campingetangardy/","description":"Camping*** à la campagne tout en étant proche de la ville (Dax 10 mn en voiture) et des plages (20 kms).","dog":"leashed","email":"info@camping-ardy.com","name":"Camping L'étang d'Ardy","operator":"Françoise Grémilly","phone":"+33 5 58 97 57 74","ref:FR:CRTA":"HPAAQU04001WBDNC","stars":"3","website":"https://www.camping-ardy.com/","wheelchair":"yes"}},"4872009287":{"location":[43.7856417,-1.2261692],"ct":"FR","tp":"CS","ts":"2024-02-07T14:09:20Z","tX":508,"tY":373,"tags":{"addr:city":"Magescq","addr:housenumber":"407","addr:postcode":"40140","addr:street":"Route de Léon","brand:website":"http://www.camping-haoudici.com","contact:phone":"+33 5 58 47 70 72","email":"contact@camping-haoudici.com","name":"Aire Naturelle Haoud'ici","ref:FR:CRTA":"HPAAQU040FS00020","website":"http://camping-haoudici.com"}},"4872009294":{"location":[43.7622069,-1.2847003],"ct":"FR","tp":"CS","ts":"2022-04-05T10:28:17Z","tX":508,"tY":373,"tags":{"addr:city":"Soustons","addr:housenumber":"142","addr:postcode":"40140","addr:street":"Impasse de Miou","contact:email":"proslaffitte@gmail.com","contact:phone":"+33 5 58 41 50 76","email":"proslaffitte@gmail.com","name":"Camping rural Bireben","phone":"+33 5 58 41 50 76","ref:FR:CRTA":"HPAAQU040FS0001W"}},"7635949433":{"location":[43.8306861,-1.3667517],"ct":"FR","tp":"CS","ts":"2022-04-05T12:33:37Z","tX":508,"tY":373,"tags":{"access":"customers","addr:city":"Messanges","addr:housenumber":"1900","addr:postcode":"40660","addr:street":"Route de la Côte d'Argent","contact:email":"chezcazou@gmail.com","contact:phone":"+33 5 58 48 50 47","contact:website":"http://campingcazou.e-monsite.com/","name":"Camping à la ferme Chez Cazou","phone":"+33 5 58 48 50 47","ref:FR:CRTA":"HPAAQU04001UADCJ","source":"data.gouv.fr:DATAtourisme - 05/2020","wheelchair":"no"}},"8344941334":{"location":[43.7387328,-1.3124696],"ct":"FR","tp":"CS","ts":"2024-07-11T19:00:01Z","tX":508,"tY":373,"tags":{"addr:city":"Soustons","addr:housenumber":"50","addr:postcode":"40140","addr:street":"Route du Mora","caravans":"yes","email":"nicole.pommiez@orange.fr","name":"Aire Naturelle Au Breut","phone":"+33 5 58 41 57 28","ref:FR:CRTA":"HPAAQU04001WBDQS","tents":"yes"}},"11936729037":{"location":[43.6608882,-1.3565178],"ct":"FR","tp":"CS","ts":"2024-05-27T09:32:05Z","tX":508,"tY":373,"tags":{}},"5329705377":{"location":[43.7275386,-1.060821],"ct":"FR","tp":"SD","ts":"2023-04-21T08:46:30Z","tX":508,"tY":373,"tags":{"description":"Vidange eaux usées et point d'eau uniquement. Stationnement nocturne non autorisé.","fee":"no","mapillary":"901107847645606","name":"Aire de service municipale","ref:FR:CRTA":"ACCAMAQU0400000I","sanitary_dump_station:chemical_toilet":"yes","sanitary_dump_station:grey_water":"yes","source":"survey;Réseau SIRTAQUI - Comité Régional de Tourisme d'Aquitaine - www.sirtaqui-aquitaine.com - 06/2016","water_point":"yes"}},"8328139329":{"location":[43.6148587,-1.1258495],"ct":"FR","tp":"SD","ts":"2024-10-25T16:25:13Z","tX":508,"tY":373,"tags":{"access":"yes","fee":"no","operator":"Ville de Saint-Lon-les-Mines","sanitary_dump_station:chemical_toilet":"yes","sanitary_dump_station:grey_water":"yes","water_point":"yes"}},"11860302915":{"location":[43.7809738,-1.4015575],"ct":"FR","tp":"SD","ts":"2024-04-27T17:09:04Z","tX":508,"tY":373,"tags":{}},"11898819507":{"location":[43.6685783,-1.2814716],"ct":"FR","tp":"SD","ts":"2024-05-12T15:12:35Z","tX":508,"tY":373,"tags":{"access":"yes","sanitary_dump_station":"yes","sanitary_dump_station:chemical_toilet":"yes","website":"https://www.tourismelandes.com/aire-camping-car/aire-de-service-camping-cars-de-saint-vincent-de-tyrosse-accamaqu0400000n/"}}}