{"80769927":{"location":[43.3711542,-1.3964564],"ct":"FR","tp":"CS","ts":"2019-10-29T12:50:35Z","tX":508,"tY":374,"tags":{"name":"Ur Hegia"}},"116535388":{"location":[43.4326139,-1.2564144],"ct":"FR","tp":"CR","ts":"2024-08-08T19:11:43Z","tX":508,"tY":374,"tags":{"caravan_site":"motorhome_stopover","caravan_site:type":"swimming_pool","charge":"5 EUR","dog":"yes","fee":"yes","name":"La Bastide-Clairence","picnic_area":"yes","picnic_table":"yes","power_supply":"yes","sanitary_dump_station":"no","water_point":"yes","website":"https://www.en-pays-basque.fr/en/sit/aire-de-stationnement-de-camping-cars/"}},"168570000":{"location":[43.4919744,-1.2955379],"ct":"FR","tp":"CS","ts":"2024-07-15T15:14:10Z","tX":508,"tY":374,"tags":{"addr:city":"Urt","addr:housenumber":"175","addr:postcode":"64240","addr:street":"Allée de Mesples","caravans":"yes","contact:email":"info@etche-zahar.fr","drinking_water":"yes","name":"D'Etche Zahar","phone":"+33 5 59 56 27 36","sanitary_dump_station":"yes","shower":"yes","tents":"yes","toilets":"yes","website":"https://www.etche-zahar.fr/"}},"171015335":{"location":[43.3387086,-1.3988994],"ct":"FR","tp":"CS","ts":"2023-11-27T09:35:11Z","tX":508,"tY":374,"tags":{"addr:city":"Itxassou","addr:street":"Route de Saint-Jean Pied de Port","capacity:persons":"656","email":"hiriberria@wanadoo.fr","name":"Hiriberri","phone":"+33 5 59 29 98 09","postal_code":"64250","website":"https://www.hiriberria.com/"}},"238287663":{"location":[43.4938886,-1.2781193],"ct":"FR","tp":"CS","ts":"2023-11-11T03:25:34Z","tX":508,"tY":374,"tags":{"addr:city":"Urt","addr:postcode":"64240","addr:street":"Chemin de Larroque","email":"contact@fermedes4chenes.fr","name":"Camping de la ferme des 4 chênes","phone":"+33 5 59562151","stars":"3","website":"https://www.fermedes4chenes.fr/"}},"427720805":{"location":[43.5308664,-1.0639122],"ct":"FR","tp":"CS","ts":"2020-10-24T21:38:26Z","tX":508,"tY":374,"tags":{"name":"Camping municipal la Galupe","ref:FR:CRTA":"HPAAQU04001WBDPY","source":"Réseau SIRTAQUI - Comité Régional de Tourisme d'Aquitaine - www.sirtaqui-aquitaine.com - 06/2016"}},"612929341":{"location":[43.380479,-1.3131304],"ct":"FR","tp":"CS","ts":"2024-08-24T21:27:51Z","tX":508,"tY":374,"tags":{"addr:city":"Hasparren","addr:postcode":"64240","addr:street":"Route de Cambo","capacity":"240","caravans":"yes","fee":"yes","name":"Camping les Terrasses de Xapitalia","phone":"+33 5 59 55 02 15","stars":"3","tents":"yes","website":"http://www.camping-au-pays-basque.fr/","wheelchair":"yes"}},"630198446":{"location":[43.5548251,-1.3617723],"ct":"FR","tp":"CS","ts":"2024-07-20T17:31:40Z","tX":508,"tY":374,"tags":{"caravans":"yes","drinking_water":"yes","internet_access":"wlan","internet_access:fee":"customers","internet_access:operator":"Camping Le Ruisseau","name":"Camping Le Ruisseau","name:oc":"Campatge de l'arriu","phone":"+33 5 59 56 71 92","power_supply":"yes","ref:FR:CRTA":"HPAAQU04001WBDO8","sanitary_dump_station":"yes","shower":"yes","source:name:oc":"ieo-bdtopoc","tents":"yes","toilets":"yes","website":"https://www.camping-leruisseau.fr/"}},"893968769":{"location":[43.4743218,-1.205872],"ct":"FR","tp":"CR","ts":"2024-10-05T23:03:18Z","tX":508,"tY":374,"tags":{"access":"yes","caravan_site":"motorhome_stopover","caravan_site:type":"parking_lot","fee":"no","name":"Aire de Camping-car Bardos","operator":"Ville de Bardos","sanitary_dump_station":"yes","sanitary_dump_station:chemical_toilet":"yes","sanitary_dump_station:grey_water":"yes","surface":"asphalt","water_point":"yes"}},"971708271":{"location":[43.5312466,-1.0598957],"ct":"FR","tp":"PK","ts":"2024-09-05T22:30:37Z","tX":508,"tY":374,"tags":{"description":"Parking accessible aux camping-cars et bus","motorhome":"yes","parking":"surface"}},"1282187642":{"location":[43.5430676,-1.1000386],"ct":"FR","tp":"CR","ts":"2025-02-13T09:37:49Z","tX":508,"tY":374,"tags":{"capacity":"10","caravan_site":"motorhome_stopover","caravan_site:type":"river;village","dog":"yes","fee":"no","internet_access":"no","name":"Aire de service de Peyrehorade","power_supply":"no","sanitary_dump_station":"yes","tents":"no","website":"https://www.tourismelandes.com/aire-camping-car/aire-de-service-de-peyrehorade-accaqu040010000a/"}},"1328179176":{"location":[43.4161587,-1.0661053],"ct":"FR","tp":"CR","ts":"2024-10-25T15:48:39Z","tX":508,"tY":374,"tags":{"addr:city":"Bergouey-Viellenave","capacity":"4","caravan_site":"motorhome_stopover","caravan_site:type":"farm_shop","charge":"10 EUR","fee":"yes","name":"Aire à la ferme Viellenave","power_supply":"yes","sanitary_dump_station":"yes","water_point":"yes"}},"1328204919":{"location":[43.5428197,-1.1064106],"ct":"FR","tp":"CR","ts":"2024-10-25T17:40:31Z","tX":508,"tY":374,"tags":{"access":"permissive","addr:city":"Peyrehorade","addr:postcode":"40300","addr:street":"Rue de la Pêcherie","capacity":"24","caravan_site":"motorhome_stopover","caravan_site:type":"river;fishing","charge":"10 EUR","contact:email":"mairie@peyrehorade.fr","contact:phone":"+33 6 26 52 21 47","description":"Camping ouvert de juin à septembre","fee":"yes","name":"Aire de Camping-Car des Gaves","opening_hours":"Jul-Sep","operator":"Mairie de Peyrehorade","power_supply":"yes","power_supply:fee":"yes","sanitary_dump_station":"yes","surface":"grass","water_point":"yes","water_point:fee":"yes","website":"https://www.lavalleedukiwi.com/en/accomodations/single/aire-de-camping-car-du-camping-des-gaves.html"}},"5391078732":{"location":[43.5550681,-1.3934559],"ct":"FR","tp":"CS","ts":"2023-11-11T03:25:40Z","tX":508,"tY":374,"tags":{"capacity":"25","name":"Ducasse - Aire naturelle","phone":"+33 5 59 56 11 67","ref:FR:CRTA":"HPAAQU04001WBDQY","website":"https://www.campingducasse.fr/"}},"5391078733":{"location":[43.5478716,-1.4041364],"ct":"FR","tp":"CS","ts":"2020-05-17T17:21:05Z","tX":508,"tY":374,"tags":{"capacity":"1","name":"L'Arrayade - Aire naturelle","name:oc":"Aira narurau de campatge L'Arrajada","phone":"+33 5 59 56 10 60","ref:FR:CRTA":"HPAAQU040FS00006","source:name:oc":"ieo-bdtopoc"}},"5407588519":{"location":[43.5668932,-1.363686],"ct":"FR","tp":"CS","ts":"2018-02-12T15:57:01Z","tX":508,"tY":374,"tags":{"ref:FR:CRTA":"HCOAQU04001M8B6J"}},"7006212785":{"location":[43.5411951,-1.1321568],"ct":"FR","tp":"CS","ts":"2024-07-08T12:41:37Z","tX":508,"tY":374,"tags":{"addr:city":"Hastingues","addr:housenumber":"1506","addr:postcode":"40300","addr:street":"Route des Gaves","name":"Camping à la ferme - Ferme Lafond - Camping d’ilot","opening_hours":"24/7","phone":"+33 5 58 73 03 69","website":"https://www.campercontact.com/fr/france/nouvelle-aquitaine/hastingues/99357/ferme-lafond"}},"7803967951":{"location":[43.3366556,-1.1952626],"ct":"FR","tp":"CR","ts":"2024-10-08T17:30:53Z","tX":508,"tY":374,"tags":{"addr:city":"Saint-Martin-d'Arberoue","addr:postcode":"64640","addr:street":"Quartier Kolorotz","caravan_site":"motorhome_stopover","caravan_site:type":"farm_shop","caravans":"no","fee":"no","maxstay":"1 night","name":"Aire de camping-cars de la Ferme Agerria","power_supply":"yes","ref:FR:CRTA":"ACCAMAQU064V59U6V4","sanitary_dump_station":"yes","seasonal":"no","tents":"no","website":"https://www.agerria.fr/page/camping-car"}},"8308855870":{"location":[43.4744689,-1.2057948],"ct":"FR","tp":"SD","ts":"2024-10-05T23:03:18Z","tX":508,"tY":374,"tags":{"access":"yes","fee":"no","operator":"Ville de Bardos","sanitary_dump_station:chemical_toilet":"yes","sanitary_dump_station:grey_water":"yes","water_point":"yes"}},"8328077565":{"location":[43.5432615,-1.0997129],"ct":"FR","tp":"SD","ts":"2021-11-20T14:40:26Z","tX":508,"tY":374,"tags":{"description":"Station de vidange pour Camping-car","fee":"no","operator":"Ville de Peyrehorade","sanitary_dump_station:chemical_toilet":"yes","sanitary_dump_station:grey_water":"yes","water_point":"yes"}}}