{"4779326":{"location":[43.1771771,-1.2606292],"ct":"FR","tp":"CS","ts":"2020-11-03T16:01:11Z","tX":508,"tY":375,"tags":{"addr:city":"Ascarat","addr:country":"FR","addr:postcode":"64220","addr:street":"Karrika zahar","contact:email":"camping-narbaitz@wanadoo.fr","contact:fax":"+33 5 59 37 21 42","contact:phone":"+33 5 59 37 10 13","contact:website":"https://www.camping-narbaitz.com","internet_access":"wlan","name":"Camping Narbaïtz","opening_hours":"Apr-Sep","operator":"private","ref:FR:CRTA":"HPAAQU06401ZLTHG","source":"Réseau SIRTAQUI - Comité Régional de Tourisme d'Aquitaine - www.sirtaqui-aquitaine.com - 08/2018","stars":"3","website":"https://www.camping-narbaitz.com","wheelchair":"yes"}},"36928675":{"location":[43.1722573,-1.2538336],"ct":"FR","tp":"CS","ts":"2017-10-17T15:59:45Z","tX":508,"tY":375,"tags":{"addr:city":"Ascarat","addr:country":"FR","addr:postcode":"64220","addr:street":"Ascarat","capacity":"500","contact:email":"europcamping64@orange.fr","contact:fax":"+33 559372982","contact:phone":"+33 559371278","contact:website":"http://www.europ-camping.com/","internet_access":"wlan","name":"Europ Camp","opening_hours":"May-Sep","operator":"private","source":"knowledge","stars":"4"}},"117421067":{"location":[43.1610951,-1.2359745],"ct":"FR","tp":"CS","ts":"2024-10-27T21:09:22Z","tX":508,"tY":375,"tags":{"addr:city":"Saint-Jean-Pied-de-Port","addr:country":"FR","addr:postcode":"64220","addr:street":"Avenue du Fronton","capacity:persons":"212","caravans":"yes","contact:email":"mairie.saintjeanpieddeport@wanadoo.fr","contact:phone":"+33 5 59 37 11 19","drinking_water":"yes","name":"Camping Municipal Plaza Berri","opening_hours":"Apr-Oct","operator":"Municipal","power_supply":"yes","shower":"yes","stars":"1","tents":"yes","toilets":"yes","toilets:wheelchair":"yes","wheelchair":"yes"}},"184283717":{"location":[43.2792512,-1.180489],"ct":"FR","tp":"CS","ts":"2020-08-04T11:58:17Z","tX":508,"tY":375,"tags":{}},"217327379":{"location":[43.1650552,-1.2322357],"ct":"FR","tp":"CR","ts":"2024-11-04T09:09:32Z","tX":508,"tY":375,"tags":{"capacity":"40","caravan_site":"motorhome_stopover","caravan_site:type":"town","charge":"12 EUR","dog":"yes","fee":"yes","name":"Aire de camping-car du Jaï Alaï","opening_hours":"24/7","power_supply":"yes","sanitary_dump_station":"yes","seasonal":"no","service:charge":"5 EUR (waterpoint and sanitary_dump_station)","water_point":"yes","website":"https://www.en-pays-basque.fr/en/sit/aire-de-camping-car-du-jai-alai/","wheelchair":"yes"}},"245291199":{"location":[43.1917047,-1.2542249],"ct":"FR","tp":"CS","ts":"2020-11-03T16:01:11Z","tX":508,"tY":375,"tags":{"addr:city":"Ascarat","addr:country":"FR","addr:postcode":"64220","addr:street":"Baionako errepidea","contact:email":"camping.latruite@wanadoo.fr","contact:fax":"+33 559373122","contact:phone":"+33 559373122","contact:website":"http://www.camping-delatruite.com/","internet_access":"wlan","name":"Camping de la Truite","opening_hours":"Mar-Nov","operator":"private","wheelchair":"yes"}},"396351198":{"location":[43.177359,-1.2149811],"ct":"FR","tp":"CS","ts":"2022-02-22T16:34:11Z","tX":508,"tY":375,"tags":{"addr:city":"Saint-Jean-le-Vieux","addr:postcode":"64220","addr:street":"Route de Jaxu","capacity:persons":"120","description":"Camping en verhuur appartement. **","email":"dominique.teillagorry@orange.fr","internet_access":"no","mobile":"+33623085384","name":"La Paix des Champs","operator":"Teillagorry Dominique","phone":"+33 5 59 37 04 16"}},"413134294":{"location":[43.1842507,-1.3357979],"ct":"FR","tp":"CS","ts":"2024-05-12T12:35:33Z","tX":508,"tY":375,"tags":{"addr:city":"Saint-Etienne-de-Baigorry","alt_name":"L'Irouléguy","capacity:persons":"276","dog":"yes","email":"camping.baigorri@orange.fr","laundry":"yes","name":"Camping Irouleguy","phone":"+33 5 59 37 43 96","postal_code":"64430","website":"https://www.en-pays-basque.fr/en/accomodation/camping-municipal-irouleguy/"}},"429469074":{"location":[43.1665627,-1.2149178],"ct":"FR","tp":"CS","ts":"2024-11-05T08:40:44Z","tX":508,"tY":375,"tags":{}},"817701717":{"location":[43.159642,-1.2365909],"ct":"FR","tp":"CR","ts":"2024-10-27T21:12:35Z","tX":508,"tY":375,"tags":{"caravan_site":"motorhome_stopover","caravan_site:type":"river; town","charge":"12 EUR","dog":"yes","fee":"yes","name":"Aire de camping-car du Fronton","power_supply":"yes","ref:FR:CRTA":"ACCAMAQU064V57BLEK","sanitary_dump_station":"yes","seasonal":"no","source":"Réseau SIRTAQUI - Comité Régional de Tourisme d'Aquitaine - www.sirtaqui-aquitaine.com - 08/2018","water_point":"yes","website":"https://www.saint-jean-de-luz.com/en/sit/aire-de-camping-car-du-fronton/"}},"836103897":{"location":[43.2352112,-1.2106566],"ct":"FR","tp":"CS","ts":"2020-08-28T19:28:40Z","tX":508,"tY":375,"tags":{"contact:email":"dominique.diriart0614@orange.fr","contact:phone":"+33 5 59 37 69 61","contact:website":"https://campingalafermepaysbasque.com","name":"Camping à la ferme Diriart","ref:FR:CRTA":"HPAAQU064014YPXU","source":"data.gouv.fr:DATAtourisme - 05/2020","website":"https://campingalafermepaysbasque.com"}},"870445151":{"location":[43.2848705,-1.3535156],"ct":"FR","tp":"CS","ts":"2024-09-09T09:14:50Z","tX":508,"tY":375,"tags":{"addr:city":"Bidarray","addr:street":"D918","email":"contact@camping-bidarray.fr","name":"Camping Amestoia","phone":"+33 5 59 37 25 81","phone_1":"+33 6 07 85 04 38","postal_code":"64780","website":"https://camping-bidarray.fr"}},"1711025078":{"location":[43.2396551,-1.2060968],"ct":"FR","tp":"CS","ts":"2024-08-08T20:23:13Z","tX":508,"tY":375,"tags":{"addr:city":"Suhescun","addr:street":"Maison Etchemendigaraya","capacity:persons":"103","contact:email":"bruno.bachoc@wanadoo.fr","motorhome":"yes","name":"Ferme Etchemendigaraya","official_name":"Camping paysan Etchemendigaraya","phone":"+33559376083","postal_code":"64780","power_supply":"yes","ref:FR:CRTA":"HPAAQU064014YPVB","source":"data.gouv.fr:DATAtourisme - 05/2020","stars":"2","tents":"yes","website":"https://www.chez-mendi.com","wheelchair":"yes"}},"4881678622":{"location":[43.2107081,-1.3841928],"ct":"FR","tp":"CS","ts":"2020-04-20T10:06:48Z","tX":508,"tY":375,"tags":{"backcountry":"yes","camp_site":"basic"}},"6188176670":{"location":[43.2847992,-1.3537377],"ct":"FR","tp":"CS","ts":"2023-07-05T17:30:33Z","tX":508,"tY":375,"tags":{"addr:city":"Bidarray","addr:postcode":"64780","addr:street":"Maison Amestoya","animals":"no","capacity":"80 persons","caravans":"yes","contact:email":"contact@camping-bidarray.fr","contact:phone":"+33 5 59 37 25 81 ; +33 6 07 85 04 38","description":"30 emplacements au bord de la rivière dans la vallée de la Nive, au pied de la montagne basque, le temps d’une escapade au pays basque ou d’un séjour nature entre amis, famille, groupes. m","description:en":"To 35 km of Bayonne-Anglet-Biarritz and to 20 km of saint Jean Pied de Port and Saint Etienne de Baigorry. You can visit, go hiking on the GR10 and the local loops of hikes, fishing and practise the activities of whitewaters on the Nive river, rafting...","description:es":"El pequ30 emplazamientos le acoge a orillas del río en el valle de Nive, al pie de la montaña vasca, el tiempo de una escapada en el país vasco o de una estancia natural entre amigos, familia, grupos","drinking_water":"yes","fee":"yes","internet_access":"no","name":"Camping Amestoya","opening_hours":"Mar-Nov","power_supply":"yes","reservation":"recommended","shower":"yes","stars":"2","tents":"yes","toilets":"yes","website":"https://camping-bidarray.fr"}},"8741913170":{"location":[43.2009911,-1.2051955],"ct":"FR","tp":"CS","ts":"2021-06-04T11:44:24Z","tX":508,"tY":375,"tags":{"addr:city":"Jaxu","capacity:persons":"24","email":"contact@ferme-peotenia.com","name":"Borda Lodge","phone":"+33 6 11 77 65 62","postal_code":"64220","rooms":"6","website":"https://ferme-peotenia.com/camping-borda-lodges/"}},"8308914892":{"location":[43.183756,-1.3353302],"ct":"FR","tp":"SD","ts":"2024-05-12T12:35:33Z","tX":508,"tY":375,"tags":{"access":"yes","fee":"no","motorhome":"designated","operator":"Ville de Saint-Étienne-de-Baïgorry","sanitary_dump_station:chemical_toilet":"yes","sanitary_dump_station:grey_water":"yes","water_point":"yes"}},"12239248535":{"location":[43.1653716,-1.2317716],"ct":"FR","tp":"SD","ts":"2024-10-09T19:14:30Z","tX":508,"tY":375,"tags":{}}}