{"107747544":{"location":[42.61326,-1.1445209],"ct":"ES","tp":"CS","ts":"2024-06-26T22:07:18Z","tX":508,"tY":377,"tags":{}},"488261989":{"location":[42.6523916,-1.3025432],"ct":"ES","tp":"CS","ts":"2023-05-09T20:49:04Z","tX":508,"tY":377,"tags":{"addr:city":"Lumbier","addr:postcode":"31440","addr:street":"Camino de Iturbero","barrier":"hedge","bbq":"yes","caravans":"yes","email":"iturbero@campingiturbero.com","fax":"+34 948 880 414","fee":"yes","name":"Iturbero kanpina / Camping Iturbero","name:es":"Camping Iturbero","name:eu":"Iturbero kanpina","opening_hours":"Mar 17-Nov 01","phone":"+34 948 880 405","playground":"yes","power_supply":"yes","restaurant":"yes","shower":"hot","tents":"yes","toilets":"yes","washing_machine":"yes","website":"https://www.campingiturbero.com/","wheelchair":"yes"}},"5139654323":{"location":[42.5911659,-1.2016681],"ct":"ES","tp":"CS","ts":"2017-09-30T14:42:18Z","tX":508,"tY":377,"tags":{}},"9718715217":{"location":[42.7784706,-1.3750069],"ct":"ES","tp":"SD","ts":"2025-05-21T14:08:38Z","tX":508,"tY":377,"tags":{"fee":"no","opening_hours":"24/7","water_point":"yes"}},"9862070319":{"location":[42.6544073,-1.3038433],"ct":"ES","tp":"CR","ts":"2023-05-09T20:49:04Z","tX":508,"tY":377,"tags":{"addr:housenumber":"1","addr:postcode":"31440","addr:street":"Camino Sielva","opening_hours":"24/7"}},"11879219383":{"location":[42.7765654,-1.3857177],"ct":"ES","tp":"CR","ts":"2024-05-04T15:44:19Z","tX":508,"tY":377,"tags":{"caravan_site":"motorhome_stopover","caravan_site:type":"hotel","fee":"no","name":"Parking Hotel Ekai","power_supply":"no","sanitary_dump_station":"no","water_point":"no"}}}