{"51075576":{"location":[47.1997893,28.3071713],"ct":"MD","tp":"CS","ts":"2013-07-26T19:51:08Z","tX":592,"tY":359,"tags":{"name":"Tabăra de odihnă pentru copii","name:ru":"Детский Лагерь Садово"}},"152459691":{"location":[47.1668244,28.4051293],"ct":"MD","tp":"CS","ts":"2024-12-02T08:13:11Z","tX":592,"tY":359,"tags":{"addr:city":"Vorniceni","barrier":"fence","internet_access":"no","internet_access:fee":"no","name":"Tabără de odihnă"}},"906753945":{"location":[47.0664435,28.1573021],"ct":"MD","tp":"CS","ts":"2024-07-16T06:14:25Z","tX":592,"tY":359,"tags":{"addr:city":"Nisporeni","name":"Baza de odihnă „La Praf”"}},"1196713552":{"location":[47.0509737,28.2358458],"ct":"MD","tp":"CS","ts":"2023-08-10T08:18:08Z","tX":592,"tY":359,"tags":{"addr:city":"Nisporeni","name":"Tabăra pentru Copii „Mîrzoaia” (închisă)"}},"1196713585":{"location":[47.0553442,28.2333141],"ct":"MD","tp":"CS","ts":"2023-08-10T08:18:08Z","tX":592,"tY":359,"tags":{"addr:city":"Ialoveni","name":"Zonă de Camping"}},"1302276880":{"location":[47.0920342,28.13789],"ct":"MD","tp":"CS","ts":"2025-06-02T18:39:02Z","tX":592,"tY":359,"tags":{"addr:city":"Vărzărești","addr:country":"MD","addr:street":"Pîrlița-Nisporeni","barrier":"fence","name":"Baza de odihnă „La Familia”"}},"1316602628":{"location":[47.0823263,28.3182682],"ct":"MD","tp":"CS","ts":"2024-09-19T07:54:32Z","tX":592,"tY":359,"tags":{"name":"Bază de odihnă"}},"1330912163":{"location":[47.2330982,28.3045167],"ct":"MD","tp":"CS","ts":"2024-11-05T14:24:02Z","tX":592,"tY":359,"tags":{"barrier":"fence","name":"Bază de odihnă"}}}