{"31866255":{"location":[53.6104407,7.1560278],"ct":"DE","tp":"CR","ts":"2024-04-04T16:22:38Z","tX":532,"tY":330,"tags":{"access":"yes","caravan_site":"motorhome_stopover","fee":"yes","name":"Stellplatz Ocean Wave","parking":"surface","toilets":"no","wheelchair":"yes"}},"36953833":{"location":[53.6036797,7.1401765],"ct":"DE","tp":"CS","ts":"2020-10-11T14:52:39Z","tX":532,"tY":330,"tags":{"addr:city":"Norden","addr:country":"DE","addr:housename":"Nordsee-Camp Norddeich GmbH","addr:housenumber":"21","addr:postcode":"26506","addr:street":"Deichstraße","addr:suburb":"Norddeich","cabins":"yes","caravans":"yes","email":"info@nordsee-camp.de","fax":"+49 4931 8074","name":"Nordsee-Camp Norddeich","operator":"Jelto Oltmanns","phone":"+49 4931 8073","source":"bing aerial","tents":"yes","toilets:wheelchair":"yes","website":"https://www.nordsee-camp.de/","wheelchair":"yes"}},"79413528":{"location":[53.6021427,7.1346247],"ct":"DE","tp":"CR","ts":"2018-10-14T19:22:43Z","tX":532,"tY":330,"tags":{"addr:city":"Norden","addr:country":"DE","addr:housenumber":"24a","addr:postcode":"26506","addr:street":"Deichstraße","capacity":"44","contact:email":"info@womopark-norddeich.de","contact:fax":"+49 4931 9563932","contact:phone":"+49 4931 9186478","contact:website":"https://womopark-norddeich.de","dog":"yes","drinking_water":"yes","dryer":"yes","fee":"yes","internet_access":"yes","internet_access:fee":"no","lit":"no","name":"Womopark-Norddeich","operator":"liberfriso GmbH","power_supply":"yes","sanitary_dump_station":"yes","sanitary_dump_station:chemical_toilet":"yes","sanitary_dump_station:grey_water":"yes","shower":"yes","toilets":"yes","washing_machine":"yes","water_point":"yes","wheelchair":"yes"}},"93459573":{"location":[53.712027,7.2057234],"ct":"DE","tp":"CS","ts":"2023-08-06T07:24:52Z","tX":532,"tY":330,"tags":{"addr:housename":"JGH Norderney Jugendzeltplatz","addr:housenumber":"3","addr:postcode":"26548","addr:street":"Am Dünensender","caravans":"no","group_only":"yes","name":"DJH Jugendzeltplatz","phone":"+49 4932 2574","shower":"yes","tents":"yes","toilets":"yes"}},"93469729":{"location":[53.7128974,7.2445993],"ct":"DE","tp":"CS","ts":"2023-08-22T08:24:54Z","tX":532,"tY":330,"tags":{"access":"private","addr:city":"Norderney","addr:housenumber":"10","addr:postcode":"26548","addr:street":"Am Leuchtturm","caravans":"yes","drinking_water":"yes","internet_access":"no","name":"Campingplatz Eiland","operator":"Familie Harms","power_supply":"yes","reservation":"required","sanitary_dump_station":"yes","shower":"yes","tents":"yes","toilets":"yes"}},"93469733":{"location":[53.7117039,7.2327302],"ct":"DE","tp":"CS","ts":"2023-08-22T08:26:01Z","tX":532,"tY":330,"tags":{"area":"yes","caravans":"yes","drinking_water":"yes","name":"Campingplatz Spilak","power_supply":"yes","shower":"yes","tents":"yes","toilets":"yes"}},"93469763":{"location":[53.7131399,7.248545],"ct":"DE","tp":"CS","ts":"2023-08-22T08:23:50Z","tX":532,"tY":330,"tags":{"caravans":"yes","drinking_water":"yes","name":"Campingplatz Harms","power_supply":"yes","shower":"yes","tents":"yes","toilets":"yes"}},"93692949":{"location":[53.7096953,7.2333185],"ct":"DE","tp":"CS","ts":"2019-12-21T22:44:36Z","tX":532,"tY":330,"tags":{"name":"Hilde Naase"}},"93976753":{"location":[53.5880069,7.2108185],"ct":"DE","tp":"CS","ts":"2024-10-18T21:45:28Z","tX":532,"tY":330,"tags":{"name":"DKV Station","operator":"Wassersportverein Norden e.V.","phone":"+49 4931 39551","website":"https://www.wsv-norden.de/kontakt-2"}},"152025482":{"location":[53.5500614,7.1764809],"ct":"DE","tp":"CS","ts":"2023-06-27T20:34:52Z","tX":532,"tY":330,"tags":{"fixme":"Gibt es den Camping-Platz noch? Aktuelle Satellitenbilder zeigen nur noch eine Wiese."}},"182241809":{"location":[53.7086747,7.2058364],"ct":"DE","tp":"CS","ts":"2019-12-31T18:27:01Z","tX":532,"tY":330,"tags":{"addr:city":"Norderney","addr:housenumber":"3","addr:postcode":"26548","addr:street":"Am Golfplatz","caravans":"yes","name":"Campingplatz Um Ost","tents":"yes","url":"http://www.campingplatz-umost.de"}},"344239775":{"location":[53.6051104,7.32052],"ct":"DE","tp":"CR","ts":"2023-04-15T13:19:29Z","tX":532,"tY":330,"tags":{"addr:city":"Hage","addr:postcode":"26524","addr:street":"Wichter Weg","addr:suburb":"Berumbur","capacity":"12","contact:phone":"+49 4936 918440","email":"kurverwaltung@sg-hage.de","fee":"yes","internet_access":"yes","internet_access:fee":"no","motorhome":"designated","name":"Wohnmobilstellplatz am Kurzentrum","operator":"Kurverwaltung Luftkurort Hage","power_supply":"yes","sanitary_dump_station":"yes","website":"https://www.hage-nordsee.de/aufenthalt/urlaub-im-wohnmobil/"}},"446598004":{"location":[53.5874198,7.3658703],"ct":"DE","tp":"CR","ts":"2019-08-12T21:08:54Z","tX":532,"tY":330,"tags":{"fee":"no","internet_access":"no","name":"Parkplätze und Wohnwagenplätze"}},"1155789406":{"location":[53.5602756,7.3466862],"ct":"DE","tp":"CR","ts":"2024-06-13T06:51:34Z","tX":532,"tY":330,"tags":{"addr:city":"Großheide","addr:postcode":"26532","addr:street":"Kirchweg","description":"Stellplatz ausschließlich für Wohnmobile!","internet_access":"yes","internet_access:fee":"no","name":"Reisemobilstellplatz am Berumerfehner Wald","power_supply":"yes","sanitary_dump_station":"yes"}},"11919494869":{"location":[53.5589774,7.2662784],"ct":"DE","tp":"CR","ts":"2024-05-20T10:00:19Z","tX":532,"tY":330,"tags":{"addr:housenumber":"32A","addr:postcode":"26506","addr:street":"Schwarzer Weg","name":"Schwarzer Weg"}},"5327627631":{"location":[53.6050389,7.319773],"ct":"DE","tp":"SD","ts":"2018-01-08T15:50:54Z","tX":532,"tY":330,"tags":{"fee":"yes","sanitary_dump_station:chemical_toilet":"yes","sanitary_dump_station:gravity":"yes","sanitary_dump_station:grey_water":"yes","water_point":"yes"}},"5983858174":{"location":[53.6020053,7.1350569],"ct":"DE","tp":"SD","ts":"2018-10-14T19:22:43Z","tX":532,"tY":330,"tags":{}},"6683427518":{"location":[53.6027902,7.1407184],"ct":"DE","tp":"SD","ts":"2022-09-04T19:31:23Z","tX":532,"tY":330,"tags":{}},"6683427519":{"location":[53.6043655,7.139013],"ct":"DE","tp":"SD","ts":"2019-08-05T07:45:30Z","tX":532,"tY":330,"tags":{}},"6683427520":{"location":[53.604531,7.1395913],"ct":"DE","tp":"SD","ts":"2019-08-05T07:45:30Z","tX":532,"tY":330,"tags":{"fee":"yes"}},"9839834430":{"location":[53.6105506,7.1562061],"ct":"DE","tp":"SD","ts":"2022-06-22T21:06:19Z","tX":532,"tY":330,"tags":{}}}