{"18903408":{"location":[53.1687477,7.3635711],"ct":"DE","tp":"CR","ts":"2024-11-21T16:00:59Z","tX":532,"tY":332,"tags":{"addr:city":"Weener","addr:country":"DE","addr:housenumber":"3","addr:postcode":"26826","addr:street":"Zum Schöpfwerk","capacity":"45","charge":"11 EUR","contact:website":"https://www.weener.de/tourismus/reisemobilhafen","description":"Wählbar ob mit (3€mehr) oder ohne Strom Gasverkauf, auch Alugas, am Platz.","fee":"yes","laundry":"yes","maxlength":"9","name":"Wohnmobilstellplatz Am Alten Hafen (Weener)","operator":"Hafen- und Tourismus GmbH Weener","power_supply":"yes","sanitary_dump_station":"yes","shower":"yes","tents":"no","toilets":"yes","water_point":"yes","wheelchair":"yes"}},"32993381":{"location":[53.1656461,7.3650064],"ct":"DE","tp":"CR","ts":"2024-11-21T16:00:59Z","tX":532,"tY":332,"tags":{"addr:city":"Weener","addr:postcode":"26826","addr:street":"Am Marina-Park","capacity":"24","caravan_site":"motorhome_stopover","caravan_site:type":"harbour","charge":"11 EUR","description:de":"Die Stellplatzwarte kommen unaufgefordert zwischen 17.00 - 19:00 Uhr zum Stellplatz","fee":"yes","maxlength":"8","name":"Wohnmobilstellplatz am Sportboothafen Weener","operator":"Hafen- und Tourismus GmbH Weener","power_supply":"yes","power_supply:charge":"4 EUR","power_supply:fee":"yes","sanitary_dump_station":"yes","shower":"yes","tents":"no","toilets":"yes","water_point":"yes","water_point:charge":"0.10 EUR/10 liter","water_point:fee":"yes"}},"60818713":{"location":[53.3153391,7.2872075],"ct":"DE","tp":"CR","ts":"2023-12-04T16:42:41Z","tX":532,"tY":332,"tags":{"addr:city":"Jemgum","addr:postcode":"26844","addr:street":"An't Spittland","addr:suburb":"Ditzum","capacity:caravans":"54","charge":"15 EUR + 1.5 EUR/pax","drinking_water":"yes","fee":"yes","internet_access":"wlan","internet_access:fee":"no","name":"Reisemobilhafen am Deich","operator":"Verkehrsverein Ems-Dollart e.V.","power_supply":"yes","reservation":"no","sanitary_dump_station":"yes","shower":"yes","tents":"no","toilets":"yes","water_point":"yes","website":"https://www.ditzum-touristik.de/stellplatz-am-deich","wikimedia_commons":"Category:Wohnmobilstellplatz Ditzum am Deich"}},"96040542":{"location":[53.1774781,7.0455417],"ct":"NL","tp":"CS","ts":"2024-04-21T06:56:35Z","tX":532,"tY":332,"tags":{"cabins":"yes","caravans":"yes","landcover":"grass","mobile":"+31 6 20862211","motorhome":"yes","name":"Meerland","note":"Natuurcamping","phone":"+31 597 422 644","shower":"yes","tents":"yes","toilets":"yes","website":"https://www.campingmeerland.nl"}},"96046186":{"location":[53.1843849,7.1335304],"ct":"NL","tp":"CS","ts":"2023-08-04T06:29:28Z","tX":532,"tY":332,"tags":{"capacity:pitches":"16","caravans":"yes","contact:facebook":"https://www.facebook.com/inepaauw/","landcover":"grass","name":"Hoeve de Paauw","opening_hours":"Apr 1 - Oct 1","phone":"+31 6 10152037","shower":"yes","tents":"yes","toilets":"yes"}},"190082079":{"location":[53.192338,7.0583726],"ct":"NL","tp":"CS","ts":"2023-05-30T12:19:44Z","tX":532,"tY":332,"tags":{"addr:city":"Oostwold","addr:housenumber":"11","addr:postcode":"9682RL","addr:street":"Nieuweweg","caravans":"yes","email":"info@dekikkerberg.nl","name":"Kampeertuin De Kikkerberg","phone":"+31 6 10268648","tents":"yes","website":"http://www.dekikkerberg.nl/"}},"351679055":{"location":[53.1644356,7.3672598],"ct":"DE","tp":"CS","ts":"2021-08-16T20:29:18Z","tX":532,"tY":332,"tags":{"addr:city":"Weener","addr:housenumber":"4","addr:postcode":"26826","addr:street":"Am Erholungsgebiet","name":"Campingplatz Weener","shower":"yes","toilets":"yes"}},"405812285":{"location":[53.1650123,7.0386949],"ct":"NL","tp":"CR","ts":"2025-01-25T00:37:53Z","tX":532,"tY":332,"tags":{"capacity":"10","caravan_site":"motorhome_stopover","caravan_site:type":"harbour","charge":"13 EUR","dog_park":"yes","fee":"yes","name":"Camperplaats Blauwestad","power_supply":"yes","power_supply:charge":"1 EUR/1.5 kWh","power_supply:fee":"yes","sanitary_dump_station:chemical_toilet":"yes","shower":"yes","shower:fee":"no","surface":"asphalt","toilets":"yes","water_point":"yes","water_point:fee":"yes","website":"https://jachthavensblauwestad.nl/camperplaatsen/camperplaats-blauwestad"}},"632450483":{"location":[53.3152945,7.2759079],"ct":"DE","tp":"CR","ts":"2024-06-23T09:29:52Z","tX":532,"tY":332,"tags":{"addr:city":"Jemgum","addr:country":"DE","addr:housenumber":"1","addr:postcode":"26844","addr:street":"Pogumer Straße","addr:suburb":"Ditzum","alt_name":"Ankerplatz BLANK Ditzum","capacity":"15","email":"weers@praxis-infothek.de","fee":"yes","name":"Ankerplatz Edeka Ditzum","operator":"Dieter Weers","phone":"+49 177 4087168","power_supply":"yes","tents":"no","toilets:wheelchair":"yes","website":"https://www.ankerplatz-blank-ditzum.de/","wheelchair":"yes","wheelchair:description":"Das WC ist mit Rollstuhl gerechter Dusche. Es steht sogar ein Duschstuhl zur Verfügung."}},"655350028":{"location":[53.1849813,7.2666176],"ct":"DE","tp":"CR","ts":"2023-01-21T17:19:12Z","tX":532,"tY":332,"tags":{"capacity":"15","contact:email":"touristik@gemeinde-bunde.de","contact:phone":"+49 53 809-47","fee":"yes","name":"Friedhofsweg","operator":"Gemeinde Bunde","power_supply":"yes","sanitary_dump_station":"yes","water_point":"yes","website":"https://www.gemeinde-bunde.de/tourismus/unterkuenfte/wohnmobilstellplaetze/","wheelchair":"yes"}},"996842962":{"location":[53.1669559,7.0847489],"ct":"NL","tp":"CS","ts":"2024-11-13T19:25:59Z","tX":532,"tY":332,"tags":{"caravans":"yes","landcover":"grass","motorhome":"yes","name":"De Beerte","phone":"+31 6 43896579","shower":"yes","tents":"yes","toilets":"yes","website":"https://www.debeerte.nl/"}},"1081806491":{"location":[53.260497,7.2681226],"ct":"DE","tp":"CR","ts":"2023-12-04T16:38:36Z","tX":532,"tY":332,"tags":{"capacity:caravans":"15","charge":"10 EUR","charge:services":"0.5 EUR","dog":"yes","drinking_water":"yes","fee":"yes","internet_access":"wlan","internet_access:fee":"no","name":"Parkplatz am Freizeitgelände Ditzumerverlaat","power_supply":"yes","power_supply:fee":"no","sanitary_dump_station":"yes","sanitary_dump_station:fee":"yes","shower":"no","toilets":"no","water_point":"yes","water_point:fee":"yes","website":"https://www.gemeinde-bunde.de/tourismus/unterkuenfte/wohnmobilstellplaetze"}},"1095212575":{"location":[53.3030608,7.0354421],"ct":"NL","tp":"CS","ts":"2024-08-20T13:01:53Z","tX":532,"tY":332,"tags":{"dog":"yes","fee":"yes","motorhome":"designated","operator":"Haven en Recreatie Termunterzijl B.V.","operator:website":"https://www.jachthaventermunterzijl.nl","power_supply":"yes","sanitary_dump_station":"yes"}},"1271148258":{"location":[53.1440454,7.0496957],"ct":"NL","tp":"CR","ts":"2025-01-25T00:32:07Z","tX":532,"tY":332,"tags":{"capacity":"20","caravan_site":"motorhome_stopover","caravan_site:type":"harbour","charge":"17 EUR","fee":"yes","name":"Camperplaatsen Winschoten","power_supply":"yes","power_supply:charge":"3 EUR","power_supply:fee":"yes","sanitary_dump_station":"yes","water_point":"yes","water_point:fee":"yes","website":"https://www.jachthavenwinschoten.nl/camperplaatsen-winschoten-groningen"}},"1336319536":{"location":[53.1719041,7.0979298],"ct":"NL","tp":"CR","ts":"2025-01-15T17:35:00Z","tX":532,"tY":332,"tags":{"capacity":"5","caravan_site":"motorhome_stopover","caravan_site:type":"harbour","charge":"17 EUR","dog":"yes","fee":"yes","name":"Jachthaven Beerta Camperplekken","power_supply":"yes","power_supply:fee":"yes","sanitary_dump_station:chemical_toilet":"yes","seasonal":"no","water_point":"yes","website":"https://www.jachthaven.nl/groningen/jachthaven-beerta"}},"2066701352":{"location":[53.319909,7.3540382],"ct":"DE","tp":"CR","ts":"2023-04-22T08:42:10Z","tX":532,"tY":332,"tags":{"capacity":"15","fee":"yes","internet_access":"wlan","mobile":"+49 170 4845025","motorhome":"designated","name":"Bei Cassi","phone":"+49 4924 2006","power_supply":"yes","sanitary_dump_station":"yes","water_point":"yes","website":"https://www.bei-cassi.de/appartements-7"}},"2175531963":{"location":[53.3150362,7.2761577],"ct":"DE","tp":"SD","ts":"2019-01-03T16:51:09Z","tX":532,"tY":332,"tags":{"fee":"yes","sanitary_dump_station:basin":"yes","sanitary_dump_station:round_drain":"yes"}},"2916132353":{"location":[53.1919985,7.0571502],"ct":"NL","tp":"CS","ts":"2024-11-13T13:58:09Z","tX":532,"tY":332,"tags":{"addr:city":"Oostwold","addr:housenumber":"11","addr:postcode":"9682RL","addr:street":"Nieuweweg","camp_site":"reception","name":"De Kikkerberg","source":"BAG","source:date":"2014-06-14"}},"4005491563":{"location":[53.1718801,7.0978163],"ct":"NL","tp":"CR","ts":"2016-02-14T11:20:49Z","tX":532,"tY":332,"tags":{}},"7744479327":{"location":[53.1717165,7.3688449],"ct":"DE","tp":"CS","ts":"2020-07-24T16:04:34Z","tX":532,"tY":332,"tags":{"operator":"Paddel & Pedal Weener","sanitary_dump_station":"no","tents":"yes"}},"9977051617":{"location":[53.1657425,7.3652008],"ct":"DE","tp":"CR","ts":"2022-09-19T16:41:43Z","tX":532,"tY":332,"tags":{"name:nl":"Weener"}},"10057940517":{"location":[53.165509,7.3645224],"ct":"DE","tp":"CR","ts":"2022-09-28T07:40:21Z","tX":532,"tY":332,"tags":{}},"10107063424":{"location":[53.1870499,7.2742467],"ct":"DE","tp":"CR","ts":"2023-10-02T08:10:05Z","tX":532,"tY":332,"tags":{"name":"Bunde am Sportplatz","toilets":"no"}},"4448092849":{"location":[53.1689944,7.3629683],"ct":"DE","tp":"SD","ts":"2024-06-25T16:54:51Z","tX":532,"tY":332,"tags":{"name":"Holiday Clean","sanitary_dump_station:chemical_toilet":"yes","sanitary_dump_station:fee":"no","sanitary_dump_station:gravity":"yes","sanitary_dump_station:grey_water":"yes","sanitary_dump_station:suction":"no"}},"5856761911":{"location":[53.3150764,7.2857576],"ct":"DE","tp":"SD","ts":"2018-08-25T14:36:11Z","tX":532,"tY":332,"tags":{"access":"customers","fee":"no","operator":"Stellplatz Ditzum","water_point":"yes"}},"5851867491":{"location":[53.2135525,7.1623368],"ct":"NL","tp":"CS","ts":"2023-07-01T08:01:39Z","tX":532,"tY":332,"tags":{"cabins":"yes","capacity:cabins":"2","capacity:pitches":"7","caravans":"yes","motorhome":"yes","name":"Kostverloren 11","opening_hours":"Apr 1 - Sep 30","shower":"yes","tents":"yes","toilets":"yes","website":"https://www.kostverloren11.nl/"}},"9361086884":{"location":[53.1841999,7.2167475],"ct":"NL","tp":"CS","ts":"2024-06-18T19:38:25Z","tX":532,"tY":332,"tags":{"addr:city":"Bad Nieuweschans","addr:housenumber":"18","addr:postcode":"9693BX","addr:street":"W. Mettingstraat","capacity:tents":"40","caravans":"yes","dog":"leashed","email":"info@camping-hollandpoort.nl","name":"Camping Holland Poort","tents":"yes","website":"https://camping-hollandpoort.nl/"}},"11804647533":{"location":[53.1438927,7.0476498],"ct":"NL","tp":"SD","ts":"2024-04-09T10:58:33Z","tX":532,"tY":332,"tags":{"access":"customers","fee":"yes","name":"Camperplaats jachthaven Winschoten","operator":"Camperplaats jachthaven Winschoten","payment:cash":"yes","payment:mastercard":"yes","water_point":"yes"}}}