{"8311790":{"location":[53.0853944,7.0827312],"ct":"NL","tp":"CS","ts":"2023-05-30T12:19:51Z","tX":532,"tY":333,"tags":{"addr:city":"Wedde","addr:housenumber":"2","addr:postcode":"9698XV","addr:street":"Molenweg","cabins":"yes","caravans":"yes","email":"info@wedderbergen.nl","name":"Camping Wedderbergen","phone":"+31 597 561 673","shower":"yes","tents":"yes","toilets":"yes","website":"https://www.wedderbergen.nl"}},"15948794":{"location":[52.9676917,7.3173743],"ct":"DE","tp":"CS","ts":"2023-06-04T07:51:19Z","tX":532,"tY":333,"tags":{"contact:fax":"+49 4963 909275","contact:phone":"+49 4963 687","contact:website":"http://www.ferien-hopster.de/Campingplatz/","name":"Campingplatz Hopster"}},"17509799":{"location":[52.9248898,7.2993672],"ct":"DE","tp":"CS","ts":"2024-04-24T08:33:03Z","tX":532,"tY":333,"tags":{"caravans":"yes","name":"Campingplatz Cremering","tents":"yes","website":"https://www.campingplatz-cremering.de/"}},"17963823":{"location":[52.928493,7.2930859],"ct":"DE","tp":"CS","ts":"2024-08-23T05:11:20Z","tX":532,"tY":333,"tags":{"caravans":"yes","name":"Marinapark Emstal","website":"https://www.marinapark.de/"}},"36969806":{"location":[52.9322274,7.2941543],"ct":"DE","tp":"CS","ts":"2023-09-19T07:49:16Z","tX":532,"tY":333,"tags":{"layer":"-1","name":"Feriengebiet Sieverings-Beel","url":"http://www.feriengebiet-sieverings-beel.de/"}},"40188526":{"location":[52.9546658,7.3036968],"ct":"DE","tp":"CS","ts":"2024-06-27T17:15:58Z","tX":532,"tY":333,"tags":{"access":"customers","addr:city":"Dörpen","addr:housenumber":"101","addr:postcode":"26892","addr:street":"Zum Wendebecken","capacity:persons":"180","caravans":"no","charge":"3,50","check_date":"2024-06-27","description":"Der Jugendzeltplatz Dörpen liegt in der Nähe des Wendebeckens des Küstenkanals. Umgeben von Wald und Wiesen und ca. 3 km abseits des Dorfkerns.\n\nDer Zeltplatz verfügt über ein Mehrzweckgebäude mit modernen Sanitäranlagen und Aufenthaltsräumen.","email":"touristik@doerpen.de","fee":"yes","group_only":"yes","name":"Jugendzeltplatz am Wendebecken","operator":"Gemeinde Dörpen","phone":"+494963 402-211","shower":"yes","static_caravans":"no","tents":"yes","toilets":"yes","website":"https://www.doerpen.de/Tourismus-Freizeit-und-Kultur/Zeltplatz.htm?"}},"40264771":{"location":[52.989822,7.2673552],"ct":"DE","tp":"CS","ts":"2023-10-31T20:12:08Z","tX":532,"tY":333,"tags":{"addr:city":"Heede","addr:country":"DE","addr:housenumber":"20","addr:postcode":"26892","addr:street":"Hermann-Abels-Straße","caravans":"yes","email":"info@campingpark-eden.de","fax":"+49 4963 919648","name":"Campingpark Eden","phone":"+49 4963 916171","tents":"yes","website":"https://www.campingpark-eden.de/"}},"50876028":{"location":[52.9393695,7.3709719],"ct":"DE","tp":"CS","ts":"2022-04-27T13:02:57Z","tX":532,"tY":333,"tags":{}},"53499776":{"location":[52.9274762,7.2446792],"ct":"DE","tp":"CS","ts":"2018-12-10T22:06:28Z","tX":532,"tY":333,"tags":{"layer":"-1","name":"Campingplatz Eiken"}},"53500494":{"location":[52.9245162,7.2460009],"ct":"DE","tp":"CS","ts":"2022-03-10T21:11:21Z","tX":532,"tY":333,"tags":{"contact:website":"https://www.seepark-emsland.de/","name":"Seepark Eiken"}},"77606801":{"location":[53.0171324,7.3321156],"ct":"DE","tp":"CS","ts":"2023-08-14T12:03:12Z","tX":532,"tY":333,"tags":{"name":"Campingplatz Goldfisch"}},"77621202":{"location":[53.0830027,7.3159076],"ct":"DE","tp":"CS","ts":"2024-07-17T09:18:51Z","tX":532,"tY":333,"tags":{"addr:city":"Papenburg","addr:housenumber":"16","addr:postcode":"26871","addr:street":"Tunxdorfer Straße","addr:suburb":"Tunxdorf","capacity":"100","description":"Camping Platz mit Café und Imbiss. Extra für Randwanderer Zeltplätze","dog":"yes","email":"Camping-Tunxdorferberge@outlook.de","fee":"yes","internet_access":"yes","internet_access:fee":"yes","name":"Camping-Tunxdorfer-Berge","operator":"Camping-Tunxdorfer-Berge","phone":"+49 4962 390"}},"100260507":{"location":[53.1078055,7.1577807],"ct":"NL","tp":"CS","ts":"2023-05-30T17:10:31Z","tX":532,"tY":333,"tags":{"addr:city":"Bellingwolde","addr:housenumber":"110","addr:postcode":"9695AN","addr:street":"Hoofdweg","cabins":"yes","capacity":"15","caravans":"yes","email":"rigtersheert@gmail.com","internet_access":"no","name":"Rigtersheert","opening_hours":"Mar 15-Oct 31","operator":"Franc en Petty van der Weijden","phone":"+31 597 531 111","tents":"yes","website":"https://www.rigtersheert.nl"}},"103108631":{"location":[53.0722168,7.0548906],"ct":"NL","tp":"CS","ts":"2023-08-24T20:29:12Z","tX":532,"tY":333,"tags":{"cabins":"yes","capacity:tents":"5","caravans":"no","email":"info@buitenwedde.nl","name":"Buitenwedde","note":"Natuurkampeerterrein","phone":"+31 6 44504386","shower":"yes","tents":"yes","toilets":"yes","website":"https://www.buitenwedde.nl/"}},"103109214":{"location":[53.0568014,7.054922],"ct":"NL","tp":"CS","ts":"2020-09-01T10:12:15Z","tX":532,"tY":333,"tags":{"name":"Camperplaats Op Streek"}},"103148411":{"location":[53.0252201,7.1382844],"ct":"NL","tp":"CS","ts":"2023-07-17T18:00:54Z","tX":532,"tY":333,"tags":{"addr:city":"Vlagtwedde","addr:housenumber":"85","addr:postcode":"9541BB","addr:street":"Vledderkamp","cabins":"yes","caravans":"yes","fee":"yes","landcover":"grass","name":"Minicamping De T-Tuin","phone":"+31 599 354 939","shower":"yes","tents":"yes","toilets":"yes","website":"https://det-tuin.nl/"}},"103166894":{"location":[52.9538583,7.1347801],"ct":"NL","tp":"CS","ts":"2023-05-30T17:10:32Z","tX":532,"tY":333,"tags":{"addr:city":"Sellingen","addr:housenumber":"1","addr:postcode":"9551VT","addr:street":"Zevenmeersveenweg","contact:email":"receptie@debronzeneik.nl","contact:phone":"+31 599 322 006","contact:website":"https://www.campingdebronzeneik.nl","name":"Camping De Bronzen Eik"}},"103167912":{"location":[52.9417256,7.1126649],"ct":"NL","tp":"CS","ts":"2023-07-17T18:00:54Z","tX":532,"tY":333,"tags":{"addr:city":"Sellingen","addr:housenumber":"34","addr:postcode":"9551VE","addr:street":"Beetserweg","caravans":"yes","contact:email":"info@campingharminahoeve.nl","contact:phone":"+31 599 322 205","contact:website":"https://www.campingharminahoeve.nl/","name":"Camping Harminahoeve","tents":"yes"}},"103168609":{"location":[52.9587392,7.1380954],"ct":"NL","tp":"CS","ts":"2024-04-22T22:10:50Z","tX":532,"tY":333,"tags":{"addr:city":"Sellingen","addr:housenumber":"2","addr:postcode":"9551VW","addr:street":"Bovendiepsterweg","contact:email":"contact@dezonnegloren.nl","contact:phone":"+31 6 21838682","contact:website":"https://www.dezonnegloren.nl/","group_only":"yes","name":"Groepsnatuurkampeerterrein De Zonnegloren"}},"106397297":{"location":[53.0675936,7.1523464],"ct":"NL","tp":"CS","ts":"2011-03-29T14:10:39Z","tX":532,"tY":333,"tags":{}},"181567237":{"location":[53.0453533,7.2299029],"ct":"DE","tp":"CS","ts":"2022-09-14T09:13:39Z","tX":532,"tY":333,"tags":{"addr:city":"Rhede (Ems)","addr:housenumber":"31","addr:postcode":"26899","addr:street":"Neurheder Straße","name":"Campingplatz Neuengland","operator":"Klaus Neuenstein"}},"288829276":{"location":[52.9715689,7.3337749],"ct":"DE","tp":"CR","ts":"2018-08-23T16:00:27Z","tX":532,"tY":333,"tags":{"addr:city":"Dörpen","addr:postcode":"26892","addr:street":"Veeneweg","capacity":"5","fee":"no","layer":"1","name":"Stellplatz am Festgelände","sanitary_dump_station":"no"}},"350877977":{"location":[53.0099592,7.1823548],"ct":"NL","tp":"CS","ts":"2023-05-30T12:19:47Z","tX":532,"tY":333,"tags":{"addr:city":"Bourtange","addr:housenumber":"1","addr:postcode":"9545VJ","addr:street":"Bourtangerkanaal Noord","caravans":"yes","contact:email":"info@plathuis.nl","contact:phone":"+31 599 354 383","contact:website":"https://plathuis.nl","name":"Camping 't Plathuis","tents":"yes"}},"351017782":{"location":[52.9465675,7.1298699],"ct":"NL","tp":"CS","ts":"2023-05-30T17:10:35Z","tX":532,"tY":333,"tags":{"addr:city":"Sellingen","addr:housenumber":"6","addr:postcode":"9551VE","addr:street":"Beetserweg","contact:email":"info@barkhoorn.nl","contact:phone":"+31 599 322 510","contact:website":"https://www.barkhoorn.nl","name":"Vakantiepark De Barkhoorn"}},"446825232":{"location":[53.0533589,7.0726994],"ct":"NL","tp":"CS","ts":"2023-05-30T12:19:48Z","tX":532,"tY":333,"tags":{"fee":"yes","name":"De Drie Aa's","phone":"+31 599 331 539","website":"https://www.dedrieaas.nl/"}},"555638254":{"location":[52.9975017,7.3087674],"ct":"DE","tp":"CS","ts":"2024-01-02T10:41:36Z","tX":532,"tY":333,"tags":{"addr:city":"Heede","addr:country":"DE","addr:housenumber":"12","addr:postcode":"26892","addr:street":"Emsstraße","caravans":"yes","email":"info@camping-idyll-kreuter.de","name":"Campingplatz Kreuter","operator":"Georg und Margret Kreuter","phone":"+49 4963 919715","tents":"yes","website":"https://www.camping-idyll-kreuter.de/"}},"841776052":{"location":[53.0366854,7.1037684],"ct":"NL","tp":"CS","ts":"2020-09-09T15:19:03Z","tX":532,"tY":333,"tags":{"name":"Camping-vlagtwedde","website":"http://www.camping-vlagtwedde.nl/"}},"845772813":{"location":[53.0460238,7.0980324],"ct":"NL","tp":"CS","ts":"2023-08-04T07:04:47Z","tX":532,"tY":333,"tags":{"alt_name":"Mooi Westerwolde","capacity:pitches":"35","caravans":"yes","contact:website":"https://www.campingboerenbont.nl","email":"info@campingboerenbont.nl","motorhome":"yes","name":"Boerenbont","opening_hours":"Apr 1 - Oct 1","phone":"+31 6 53839935","shower":"yes","tents":"yes","toilets":"yes"}},"1035202969":{"location":[52.9269147,7.2489577],"ct":"DE","tp":"CS","ts":"2024-08-23T05:00:10Z","tX":532,"tY":333,"tags":{}},"1059458678":{"location":[52.9302558,7.1383175],"ct":"NL","tp":"CS","ts":"2024-04-22T22:10:50Z","tX":532,"tY":333,"tags":{"addr:city":"Sellingen","addr:housenumber":"2","addr:postcode":"9551XD","addr:street":"Borgerschapenweg","contact:email":"slangenborg@gmail.com","contact:phone":"+31 6 19024777","contact:website":"https://www.slangenborg.nl/","name":"Natuurkampeerterrein De Slangenborg"}},"1164486175":{"location":[52.9236615,7.1267583],"ct":"NL","tp":"CS","ts":"2023-06-12T21:18:53Z","tX":532,"tY":333,"tags":{"addr:city":"Sellingen","addr:housenumber":"2","addr:postcode":"9551XN","addr:street":"Laudermarkenweg","brand":"SVR","caravans":"yes","contact:email":"kamperen@campingdevreemdeeend.nl","contact:phone":"+31 6 29770548","contact:website":"https://campingdevreemdeeend.nl/","name":"Camping De Vreemde Eend","shower":"yes","tents":"yes","toilets":"yes"}},"1184543239":{"location":[52.9299223,7.0815715],"ct":"NL","tp":"CR","ts":"2023-06-23T21:59:13Z","tX":532,"tY":333,"tags":{"addr:city":"Ter Apelkanaal","addr:housenumber":"15","addr:postcode":"9563TH","addr:street":"Voorbeetseweg","contact:email":"info@campererfdebeetse.nl","contact:phone":"+31 6 13096743","contact:website":"https://www.campererfdebeetse.nl/","fee":"yes","internet_access":"yes","internet_access:fee":"no","name":"Campererf De Beetse","operator":"Familie Toersen","power_supply":"yes","sanitary_dump_station":"yes"}},"1187689502":{"location":[53.0919072,7.1453592],"ct":"NL","tp":"CR","ts":"2023-07-05T20:32:06Z","tX":532,"tY":333,"tags":{"addr:city":"Vriescheloo","addr:housenumber":"11","addr:postcode":"9699PA","addr:street":"Dorpsstraat","contact:email":"info@loosterstee.nl","contact:phone":"+31 6 12726125","contact:website":"https://loosterstee.nl/home","name":"Camperplaats Loosterstee","operator":"Familie Baas","power_supply":"yes"}},"1191566048":{"location":[52.9815531,7.1723456],"ct":"NL","tp":"CS","ts":"2023-07-23T10:48:54Z","tX":532,"tY":333,"tags":{"caravans":"yes","email":"info@hamajato.nl","landcover":"grass","mobile":"+31 6 13029887","name":"Hamajato","phone":"+31 599 638 315","shower":"yes","tents":"yes","toilets":"yes","website":"https://www.hamajato.nl/"}},"2900334399":{"location":[53.0218383,7.0739135],"ct":"NL","tp":"CS","ts":"2020-08-13T18:40:26Z","tX":532,"tY":333,"tags":{"addr:city":"Onstwedde","addr:housenumber":"19","addr:postcode":"9591TX","addr:street":"Smeerling","name":"Labelterrein Davy Crockett Hoeve","scout":"yes","source":"BAG","source:date":"2014-06-05"}},"6792655209":{"location":[52.9776079,7.0442528],"ct":"NL","tp":"CS","ts":"2019-09-13T11:30:58Z","tX":532,"tY":333,"tags":{"name":"natuurkampeerterrein De Linden","website":"http://www.campingdelinden.nl/"}},"9062152618":{"location":[53.063565,7.1838925],"ct":"NL","tp":"CS","ts":"2021-09-04T11:42:23Z","tX":532,"tY":333,"tags":{"name":"Entourage"}},"10819973223":{"location":[53.0867099,7.1392896],"ct":"NL","tp":"CS","ts":"2023-04-17T16:41:56Z","tX":532,"tY":333,"tags":{"addr:city":"Vriescheloo","addr:housenumber":"31","addr:postcode":"9699PA","addr:street":"Dorpsstraat","caravans":"yes","contact:phone":"+31 6 23504618","contact:website":"https://noorderloo.nl/","name":"Camping Noorderloo","tents":"yes"}},"11014822621":{"location":[52.9784593,7.1506434],"ct":"NL","tp":"CS","ts":"2023-07-17T18:00:53Z","tX":532,"tY":333,"tags":{"addr:city":"Sellingen","addr:housenumber":"4","addr:postcode":"9551TK","addr:street":"Weenderstraat","caravans":"yes","contact:email":"info@hoteldewaalehof.nl","contact:phone":"+31 599 326 546","contact:website":"https://www.hoteldewaalehof.nl/camping","name":"Camping van hotel de Waalehof","tents":"yes"}}}