{"56203998":{"location":[52.8653921,7.3070943],"ct":"DE","tp":"CS","ts":"2023-07-15T05:25:56Z","tX":532,"tY":334,"tags":{"caravans":"yes","designation":"Campsite","name":"Campingplatz \"Zur Emsbrücke\"","tents":"yes"}},"110177892":{"location":[52.8213845,7.0607676],"ct":"NL","tp":"CS","ts":"2023-08-01T08:01:36Z","tX":532,"tY":334,"tags":{"capacity:pitches":"15","caravans":"yes","email":"info@minicampingmolenhof.nl","landcover":"grass","name":"Molenhof","phone":"+31 6 29255281;+31 6 40839098","shower":"yes","tents":"yes","toilets":"yes","website":"https://www.minicampingmolenhof.nl/"}},"120512131":{"location":[52.786019,7.2382462],"ct":"DE","tp":"CS","ts":"2023-01-26T18:12:07Z","tX":532,"tY":334,"tags":{"addr:city":"Haren (Ems)","addr:country":"DE","addr:housenumber":"52","addr:postcode":"49733","addr:street":"Kirchstraße","contact:email":"info@campingplatz-haren.de","contact:fax":"+49 5932 69724","contact:phone":"+49 5932 69723","contact:website":"https://www.campingplatz-haren.de/","name":"Emspark","operator":"Peter Hanau"}},"272392580":{"location":[52.7892892,7.2472567],"ct":"DE","tp":"CR","ts":"2023-07-22T17:56:06Z","tX":532,"tY":334,"tags":{"addr:city":"Haren (Ems)","addr:country":"DE","addr:postcode":"49733","addr:street":"Schleusenstraße","capacity":"20","fee":"no","internet_access":"no","name":"Wohnmobilstellplatz Parkplatz am Amisia-Anleger","power_supply":"no","sanitary_dump_station":"no","water_point":"no","wheelchair":"yes"}},"392565328":{"location":[52.7267346,7.0312719],"ct":"NL","tp":"CS","ts":"2023-05-30T17:42:06Z","tX":532,"tY":334,"tags":{"addr:city":"Zwartemeer","addr:housenumber":"2","addr:postcode":"7894EA","addr:street":"Verlengde van Echtenskanaal NZ","contact:phone":"+31 591 312 013","contact:website":"https://www.sportlandgoed.nl","name":"Camping Zwartemeer"}},"418922257":{"location":[52.8370178,7.2630611],"ct":"DE","tp":"CS","ts":"2024-06-11T04:52:47Z","tX":532,"tY":334,"tags":{"access":"customers","addr:city":"Lathen","addr:housenumber":"1","addr:postcode":"49762","addr:street":"Junkern-Beel","fee":"yes","name":"Ferienhof Junkern-Beel","operator":"Familie Schulte-Übermühlen"}},"493777397":{"location":[52.8848255,7.0572729],"ct":"NL","tp":"CS","ts":"2024-11-11T08:23:11Z","tX":532,"tY":334,"tags":{"addr:city":"Ter Apel","addr:housenumber":"17","addr:postcode":"9561CS","addr:street":"Heembadweg","email":"info@moekesgat.nl","name":"Moekesgat","phone":"+31 6 10889217","website":"https://moekesgat.nl/camping"}},"509820247":{"location":[52.8591619,7.3049292],"ct":"DE","tp":"CS","ts":"2023-04-05T16:09:26Z","tX":532,"tY":334,"tags":{"addr:city":"Lathen","addr:housenumber":"4","addr:postcode":"49762","addr:street":"Marschstraße","caravans":"yes","landuse":"recreation_ground","name":"Campingplatz Lathener Marsch","tents":"yes","website":"https://www.camping-lathen.de/"}},"607240186":{"location":[52.7778117,7.1182206],"ct":"DE","tp":"CS","ts":"2023-05-27T19:49:47Z","tX":532,"tY":334,"tags":{"addr:city":"Haren (Ems)","addr:housenumber":"34","addr:postcode":"49733","addr:street":"Harener Straße","fee":"yes","internet_access":"yes","internet_access:fee":"no","name":"Emsland-Camp","phone":"+49 5935 8044","power_supply":"yes","sanitary_dump_station":"yes","toilets":"yes","website":"https://emsland-camping.de/de/"}},"871899497":{"location":[52.8926281,7.0991083],"ct":"NL","tp":"CS","ts":"2023-07-01T20:59:09Z","tX":532,"tY":334,"tags":{"addr:city":"Ter Apel","addr:housenumber":"2a","addr:postcode":"9561TP","addr:street":"Ruiten A kanaal West V","capacity:pitches":"25","caravans":"yes","fee":"yes","internet_access":"wlan","internet_access:fee":"no","name":"Roelage","phone":"+31 6 22821829","shower":"yes","tents":"yes","toilets":"yes","website":"https://www.roelage.nl"}},"876209652":{"location":[52.7860042,7.1706706],"ct":"DE","tp":"CR","ts":"2024-03-30T20:53:04Z","tX":532,"tY":334,"tags":{"charge":"25 EUR","fee":"yes","name":"Landvergnügen Meutstege","power_supply":"yes","shower":"yes","surface":"asphalt","toilets":"yes","website":"https://www.meutstege.de/ferienhof/camping-auf-dem-hof"}},"896110817":{"location":[52.8341411,7.0788737],"ct":"NL","tp":"CS","ts":"2023-05-30T12:16:34Z","tX":532,"tY":334,"tags":{"addr:city":"Emmer-Compascuum","addr:housenumber":"150","addr:postcode":"7881VR","addr:street":"Hoofdkanaal OZ","caravans":"yes","email":"kolderweide@gmail.com","name":"Kolderweide","phone":"+31 591 353 006","tents":"yes","website":"https://kolderweide.nl"}},"916403377":{"location":[52.8433328,7.0351859],"ct":"NL","tp":"CS","ts":"2023-06-13T05:52:47Z","tX":532,"tY":334,"tags":{"addr:city":"Roswinkel","addr:housenumber":"152","addr:postcode":"7895AS","addr:street":"Roswinkelerstraat","capacity":"15","caravans":"yes","contact:email":"info@depierewaaijer.nl","contact:mobile":"+31 6 41558829","contact:phone":"+31 591 354 251","contact:website":"https://www.depierewaaijer.nl/","internet_access":"yes","internet_access:fee":"no","name":"Camping de Pierewaaijer","tents":"yes"}},"923059984":{"location":[52.8763997,7.0480987],"ct":"NL","tp":"CS","ts":"2023-05-30T17:10:37Z","tX":532,"tY":334,"tags":{"addr:city":"Ter Apel","addr:housenumber":"25","addr:postcode":"9561AN","addr:street":"Kloosterveenweg","caravans":"yes","email":"info@camping-kloosterhoeve.nl","name":"Camping Kloosterhoeve","phone":"+31 599 584 947","tents":"yes","website":"https://www.camping-kloosterhoeve.nl"}},"947566508":{"location":[52.7055342,7.0433576],"ct":"NL","tp":"CS","ts":"2023-05-30T12:16:35Z","tX":532,"tY":334,"tags":{"addr:city":"Zwartemeer","addr:housenumber":"123","addr:postcode":"7894AP","addr:street":"Kamerlingswijk WZ","caravans":"yes","email":"campingveenweide@gmail.com","name":"Veenweide","phone":"+31 6 10318488","tents":"yes","website":"https://www.campingveenweide.nl"}},"1028076345":{"location":[52.8970057,7.2762341],"ct":"DE","tp":"CS","ts":"2022-02-04T14:24:31Z","tX":532,"tY":334,"tags":{}},"1176275175":{"location":[52.7784168,7.1197137],"ct":"DE","tp":"CR","ts":"2024-03-19T18:31:53Z","tX":532,"tY":334,"tags":{"capacity":"20","caravans":"no","dog":"yes","fee":"yes","internet_access":"yes","internet_access:fee":"no","lit":"yes","name":"Emsland-Camp","power_supply":"cee_17_blue","sanitary_dump_station:chemical_toilet":"yes","sanitary_dump_station:grey_water":"yes","shower":"yes","tents":"no","toilets":"yes","water_point":"yes"}},"1186325246":{"location":[52.8940384,7.0452106],"ct":"NL","tp":"CS","ts":"2024-11-09T11:20:09Z","tX":532,"tY":334,"tags":{"cabins":"yes","capacity:pitches":"14","caravans":"yes","email":"info@achterdiep.nl","name":"Buitengoed Het Achterdiep","opening_hours":"Apr 01-Nov 01","phone":"+31 599 582 364","shower":"yes","tents":"yes","toilets":"yes","website":"https://achterdiep.nl/camping/"}},"1191567436":{"location":[52.8380842,7.0448439],"ct":"NL","tp":"CS","ts":"2023-07-23T11:03:58Z","tX":532,"tY":334,"tags":{"cabins":"yes","capacity:cabins":"1","capacity:pitches":"8","caravans":"yes","email":"frankenheidi@drentseboerderie.nl","name":"De Drentse Boerderie","opening_hours":"Mar 15 - Oct 31","phone":"+31 6 22696808","shower":"yes","tents":"yes","toilets":"yes","website":"https://drentseboerderie.nl"}},"5294480921":{"location":[52.8780235,7.3006855],"ct":"DE","tp":"CS","ts":"2017-12-19T20:37:34Z","tX":532,"tY":334,"tags":{}},"10976516461":{"location":[52.9087236,7.3026061],"ct":"DE","tp":"CS","ts":"2023-06-14T11:06:52Z","tX":532,"tY":334,"tags":{"name":"Campingplatz-Emstal"}},"10929121550":{"location":[52.7784669,7.1182756],"ct":"DE","tp":"SD","ts":"2024-09-02T15:22:45Z","tX":532,"tY":334,"tags":{"fee":"no"}}}