{"1345295":{"location":[52.6188806,7.0469055],"ct":"DE","tp":"CS","ts":"2023-01-26T18:12:07Z","tX":532,"tY":335,"tags":{"email":"info@campingplatz-blauelagune.de","name":"Blaue Lagune","phone":"+49 5936 9345445","website":"https://www.haeppy-life.de/"}},"48358618":{"location":[52.594915,7.2758627],"ct":"DE","tp":"CS","ts":"2024-10-11T09:08:10Z","tX":532,"tY":335,"tags":{"capacity:persons":"150","caravans":"no","charge":"5 EUR","description":"Den Jugendgruppen steht eine Küche mit Elektrogeräten, Kühlschränken und Schränken zur Verfügung. Die Toiletten und Duschen, die nur von den Zeltplatzgästen genutzt werden, befinden sich im Jugendhaus. Im Außenbereich sind überdachte Sitzplätze vorhanden.","drinking_water":"yes","email":"jugendhaus@geeste.de","fee":"yes","group_only":"yes","landuse":"grass","name":"Jugendzeltplatz am Jugendgästehaus","power_supply":"yes","shower":"yes","static_caravans":"no","tents":"yes","toilets":"yes","website":"https://www.jugendhaus-geeste.de/der-zeltplatz"}},"148347214":{"location":[52.692356,7.2850393],"ct":"DE","tp":"CS","ts":"2023-07-31T13:38:25Z","tX":532,"tY":335,"tags":{"name":"Campingplatz Meppen"}},"241999369":{"location":[52.6465477,7.0886384],"ct":"DE","tp":"CR","ts":"2023-11-04T02:21:45Z","tX":532,"tY":335,"tags":{"addr:city":"Twist","addr:housenumber":"9","addr:postcode":"49767","addr:street":"Am Hallenbad","capacity":"8","fee":"no","name":"Am Hallenbad Twist","power_supply":"yes","sanitary_dump_station":"yes","website":"https://www.twist-emsland.de/tourismus-und-freizeit/wohnmobilstellplatz/wohnmobilstellplatz.html"}},"397247602":{"location":[52.5183619,7.3055548],"ct":"DE","tp":"CR","ts":"2024-09-17T13:19:37Z","tX":532,"tY":335,"tags":{"addr:city":"Lingen (Ems)","addr:housenumber":"18","addr:postcode":"49808","addr:street":"Teichstraße","bbq":"no","capacity":"30","caravan_site":"motorhome_stopover","caravan_site:type":"river","caravans":"no","dog":"leashed","fee":"yes","maxlength":"none","name":"Camping-car Park Linus Bad - Lingen","network":"CAMPING CAR-PARK","power_supply":"yes","power_supply:capacity":"5","power_supply:maxcurrent":"6","sanitary_dump_station":"yes","tents":"no","trailer":"no","website":"https://www.campingcarpark.com/en_GB/stay/stopover-site-motorhome/basse-saxe/49-pays-de-lems/lingen"}},"448605994":{"location":[52.5138648,7.1149181],"ct":"DE","tp":"CR","ts":"2018-04-23T05:13:43Z","tX":532,"tY":335,"tags":{"sanitary_dump_station":"yes","wheelchair":"limited"}},"505743673":{"location":[52.5944236,7.273344],"ct":"DE","tp":"CR","ts":"2022-01-21T15:19:05Z","tX":532,"tY":335,"tags":{"addr:city":"Geeste","addr:housenumber":"13a","addr:postcode":"49744","addr:street":"Biener Straße","capacity":"70","email":"info@womopark-geeste.de","fee":"yes","internet_access":"yes","name":"Wohnmobilplatz am Speicherbecken","operator":"Womopark Geeste GmbH","phone":"+49 5907 7445","sanitary_dump_station":"yes","website":"https://www.womopark-geeste.de"}},"514866382":{"location":[52.6513255,7.230412],"ct":"DE","tp":"CS","ts":"2022-05-27T14:27:50Z","tX":532,"tY":335,"tags":{"addr:city":"Geeste","addr:housenumber":"46","addr:postcode":"49744","addr:street":"Am Tierpark","capacity":"130","name":"Campingplatz Heidflach","shower":"yes","toilets":"yes","toilets:wheelchair":"yes","website":"https://www.camping-heidflach.de/","wheelchair":"limited"}},"525124622":{"location":[52.5114176,7.3010365],"ct":"DE","tp":"CS","ts":"2024-03-31T08:23:19Z","tX":532,"tY":335,"tags":{"leisure":"sports_centre","name":"Kanucamp Lingen (Ems)","operator":"Uwe Berger","sport":"canoe;archery","stars":"1","website":"https://www.kanucamp-lingen.de/","wheelchair":"limited"}},"1180957914":{"location":[52.6941463,7.3738015],"ct":"DE","tp":"CS","ts":"2023-09-25T09:15:49Z","tX":532,"tY":335,"tags":{"caravans":"yes","drinking_water":"yes","fee":"yes","name":"Hase-Natur-Camping","operator":"Hase-Natur-Camping","payment:cash":"yes","power_supply":"yes","shower":"yes","static_caravans":"no","tents":"yes","toilets":"yes"}},"1233739065":{"location":[52.6910717,7.2847053],"ct":"DE","tp":"CR","ts":"2024-05-21T09:22:18Z","tX":532,"tY":335,"tags":{"capacity":"10","drinking_water":"no","fee":"no","image":"https://i.imgur.com/PfzdA22.jpeg","internet_access":"yes","internet_access:fee":"no","name":"Stellplatz Meppen","operator":"gemeente Meppen","permanent_camping":"no","power_supply":"yes","sanitary_dump_station":"yes","toilets":"no"}},"3441408345":{"location":[52.6909953,7.2837857],"ct":"DE","tp":"SD","ts":"2024-05-02T18:58:42Z","tX":532,"tY":335,"tags":{"fee":"no","sanitary_dump_station:accepted":"black_water;grey_water;tank_chemicals"}},"9725486196":{"location":[52.6912516,7.374314],"ct":"DE","tp":"CS","ts":"2023-05-31T09:44:40Z","tX":532,"tY":335,"tags":{"addr:city":"Haselünne","addr:housenumber":"2","addr:postcode":"49740","addr:street":"Groß Dörgen","caravans":"yes","drinking_water":"yes","name":"Anmeldung des Campingplatzes","operator":"Hase-Natur-Camping","phone":"+49 5931 2319","power_supply":"yes","shower":"yes","tents":"yes","toilets":"yes","website":"https://www.hasenaturcamping.de/"}},"11281632810":{"location":[52.5941856,7.274126],"ct":"DE","tp":"SD","ts":"2023-10-22T15:19:43Z","tX":532,"tY":335,"tags":{"access":"customers","operator":"Womopark Geeste GmbH"}}}