{"26980301":{"location":[52.2349419,7.3444671],"ct":"DE","tp":"CS","ts":"2023-02-09T19:09:32Z","tX":532,"tY":337,"tags":{}},"38985983":{"location":[52.1486424,7.3477429],"ct":"DE","tp":"CR","ts":"2023-02-09T22:42:41Z","tX":532,"tY":337,"tags":{"name":"Wohmmobilstellplatz \"Heinz Böcker\"","parking":"surface","power":"yes"}},"233993106":{"location":[52.2373454,7.0788879],"ct":"DE","tp":"CS","ts":"2023-10-06T09:18:48Z","tX":532,"tY":337,"tags":{"caravans":"yes","contact:phone":"+49 2562 210 98","contact:website":"https://www.campingplatz-gronau.com/","name":"Campingplatz Dreiländersee","tents":"yes"}},"233993107":{"location":[52.2368359,7.0805242],"ct":"DE","tp":"CS","ts":"2023-10-02T18:11:23Z","tX":532,"tY":337,"tags":{"caravans":"yes","drinking_water":"no","name":"Wohnmobilstellplatz Dreiländersee","shower":"no","source":"Bing","tents":"no"}},"473902743":{"location":[52.0733685,7.2220533],"ct":"DE","tp":"CR","ts":"2022-04-20T07:12:39Z","tX":532,"tY":337,"tags":{}},"473902744":{"location":[52.0735723,7.2223252],"ct":"DE","tp":"CR","ts":"2022-04-20T07:12:39Z","tX":532,"tY":337,"tags":{}},"473902747":{"location":[52.0731952,7.222461],"ct":"DE","tp":"CS","ts":"2023-01-28T16:24:24Z","tX":532,"tY":337,"tags":{"caravans":"yes","name":"Camping Schulze Althoff","opening_hours":"Apr-Oct","phone":"+49 2555 93850","reservation":"recommended","tents":"yes","website":"https://www.schulzealthoff.eu/camping-auf-dem-gutshof-schulze-althoff/","website:booking":"https://www.schulzealthoff.eu/gutshof-schulze-althoff-buchung/"}},"838332133":{"location":[52.1256978,7.3258411],"ct":"DE","tp":"CS","ts":"2023-06-07T07:07:55Z","tX":532,"tY":337,"tags":{"caravans":"yes","name":"Natur Camping Hof Köninck","tents":"yes","website":"http://hof-koeninck.de/"}},"856878482":{"location":[52.0670626,7.3204053],"ct":"DE","tp":"CR","ts":"2022-03-13T10:03:12Z","tX":532,"tY":337,"tags":{"addr:city":"Horstmar","addr:housenumber":"39","addr:postcode":"48612","addr:street":"Am Bahnhof","internet_access":"yes","name":"Wohnmobilstellplatz am Horstmarer Bahnhof","operator":"Cafe am Bahnhof","power_supply":"yes","sanitary_dump_station":"yes"}},"1039571573":{"location":[52.2465888,7.0366916],"ct":"NL","tp":"CR","ts":"2024-04-23T19:40:27Z","tX":532,"tY":337,"tags":{"addr:city":"Overdinkel","addr:housenumber":"2","addr:postcode":"7586RJ","addr:street":"Schaapskooiweg","capacity":"25","caravan_site":"motorhome_stopover","caravan_site:type":"village","caravans":"no","charge":"17.50 EUR","fee":"yes","internet_access":"wlan","motorhome":"designated","name":"Camperplaats Skop'nboer","phone":"+31 53 538 2664","tents":"no","website":"https://camperplaats-skopnboer.nl/"}},"1125863413":{"location":[52.1940382,7.1602545],"ct":"DE","tp":"CR","ts":"2022-12-30T15:52:58Z","tX":532,"tY":337,"tags":{"access":"yes","capacity":"10","drinking_water":"no","fee":"no","internet_access":"no","lit":"yes","power_supply":"yes","sanitary_dump_station":"no","surface":"paving_stones"}},"1743119827":{"location":[52.073578,7.1792115],"ct":"DE","tp":"CS","ts":"2023-05-29T11:58:10Z","tX":532,"tY":337,"tags":{"caravans":"yes","designation":"Campingplatz / Wohnmobilstellplatz","email":"info@ferienhof-wenker.de","fee":"yes","name":"Camping - Ferienhof Wenker","phone":"+49 2555 984023","reservation":"recommended","rooms":"3","tents":"yes","website":"https://www.ferienhof-wenker.de/"}},"4908484033":{"location":[52.2115213,7.1691664],"ct":"DE","tp":"CS","ts":"2017-10-08T06:44:29Z","tX":532,"tY":337,"tags":{"name":"Festplatz Schützenverein Niederesch"}},"4564155389":{"location":[52.2369333,7.0804428],"ct":"DE","tp":"CR","ts":"2024-11-07T12:59:30Z","tX":532,"tY":337,"tags":{"capacity":"60","charge":"14€","contact:mobile":"+49 151 15220033","fee":"yes","maxstay":"48 hours","name":"Wohnmobilstellplatz Dreiländersee","opening_hours":"24/7","power_supply":"yes","sanitary_dump_station":"yes","toilets":"no","water_point":"yes","website":"https://www.campingplatz-gronau.com"}},"4740184507":{"location":[52.0569139,7.3638222],"ct":"DE","tp":"CR","ts":"2024-05-13T20:47:14Z","tX":532,"tY":337,"tags":{"addr:city":"Laer","addr:housenumber":"43","addr:postcode":"48366","addr:street":"Münsterdamm","capacity":"2","caravan_site":"motorhome_stopover","caravan_site:type":"restaurant;suburb","description":"2 Stellplätze (je 10x5 m) auf dem Parkplatz neben der Gaststätte","fee":"no","name":"WohnmobilstellplatzAltdeutsche Schänke Smeddinck","sanitary_dump_station":"no","water_point":"no"}},"12205560023":{"location":[52.2040546,7.2083589],"ct":"DE","tp":"CR","ts":"2024-09-27T17:55:52Z","tX":532,"tY":337,"tags":{"addr:city":"Ochtrup","addr:country":"DE","addr:housenumber":"33","addr:postcode":"48607","addr:street":"Deipenbrook","name":"An der Erholung"}},"10634998120":{"location":[52.1481263,7.3479839],"ct":"DE","tp":"SD","ts":"2023-02-09T22:40:17Z","tX":532,"tY":337,"tags":{"access":"yes","fee":"no","water_point":"yes"}}}