{"26497688":{"location":[52.0269645,7.2647522],"ct":"DE","tp":"CR","ts":"2024-11-21T12:56:03Z","tX":532,"tY":338,"tags":{"capacity":"16","caravan_site":"motorhome_stopover","caravan_site:type":"sports_center;village","caravans":"no","contact:phone":"+49 2547 77-218","fee":"no","name":"Wohnmobilstation am Sportzentrum Darfeld","power_supply":"yes","power_supply:charge":"1 EUR/1 KWh","power_supply:fee":"yes","sanitary_dump_station:grey_water":"yes","water_point":"yes","website":"https://www.rosendahl.de/touristik-freizeit/uebernachten-gastronomie/unterkuenfte?c7-item=29144"}},"34587170":{"location":[51.8880705,7.1636117],"ct":"DE","tp":"CS","ts":"2022-08-11T16:29:19Z","tX":532,"tY":338,"tags":{"addr:city":"Coesfeld","addr:country":"DE","addr:housenumber":"143","addr:postcode":"48653","addr:street":"Bruchstraße","addr:suburb":"Lette","capacity:caravans":"60","capacity:tents":"20","drinking_water":"yes","email":"kontakt@waldesruh-camping.de","fax":"+49 246 7443","fee":"yes","name":"Waldesruh-Camping","operator":"Waldesruh Camping CMA GmbH","permanent_camping":"yes","phone":"+49 254 660 199 37","shower":"yes","tents":"yes","toilets":"yes","waste_disposal":"yes","website":"https://www.waldesruh-camping.de/"}},"34850108":{"location":[51.8885382,7.1566798],"ct":"DE","tp":"CS","ts":"2022-08-03T13:22:58Z","tX":532,"tY":338,"tags":{"access":"permit","addr:city":"Coesfeld","addr:housenumber":"11","addr:postcode":"48653","addr:street":"Beikel","name":"Münsterland-Camping","operator":"Münsterland-Camping Heitkamp GmbH & Co. KG","permanent_camping":"only","website":"https://www.muensterlandcamping.de/"}},"123076251":{"location":[51.9796541,7.2807033],"ct":"DE","tp":"CR","ts":"2024-09-07T23:29:33Z","tX":532,"tY":338,"tags":{"capacity":"14","caravan_site":"motorhome_stopover","caravan_site:type":"swimming_pool","fee":"yes","fee:conditional":"no@(Oct-Apr)","name":"Parkplatz am Freibad Billerbeck","power_supply":"yes","water_point":"yes","wheelchair":"yes"}},"148358085":{"location":[51.8468809,7.1017165],"ct":"DE","tp":"CS","ts":"2023-04-09T19:13:58Z","tX":532,"tY":338,"tags":{"email":"brockmuehle@t-online.de","name":"Brockmühle","phone":"+49 2864 7759","website":"https://www.brockmuehle.de/"}},"155422438":{"location":[51.8446957,7.2714277],"ct":"DE","tp":"CR","ts":"2024-06-30T19:33:56Z","tX":532,"tY":338,"tags":{"capacity:caravans":"27","caravan_site":"motorhome_stopover","caravan_site:type":"swimming_pool","charge":"12.50 EUR","fee":"yes","internet_access":"wlan","internet_access:fee":"customers","name":"düb SAFE HARBOUR","opening_hours":"24/7","payment:app":"yes","payment:cards":"yes","payment:google_pay":"yes","payment:paypal":"yes","power_supply":"yes","reservation":"required","sanitary_dump_station":"yes","seasonal":"no","shower":"yes","toilets":"yes","website":"https://safe-harbour.net/place/1f55f700-066c-4428-85c5-ac124229362a"}},"448658677":{"location":[51.9534155,7.1738841],"ct":"DE","tp":"CR","ts":"2024-03-19T18:33:22Z","tX":532,"tY":338,"tags":{"access":"yes","addr:city":"Coesfeld","addr:housenumber":"39","addr:postcode":"48653","addr:street":"Osterwicker Straße","capacity":"12","caravans":"no","dog":"yes","email":"info@coesfeld.de","fee":"no","name":"Wohnmobilstellplatz Coesfeld","operator":"Stadt Coesfeld","park_ride":"no","permanent_camping":"no","phone":"+49 2541 9391067","power_supply":"yes","sanitary_dump_station":"yes","supervised":"no","tents":"no","website":"https://www.coesfeld.de/wohnmobilstellplatz"}},"1102159248":{"location":[51.9587217,7.117659],"ct":"DE","tp":"CS","ts":"2022-10-08T16:42:54Z","tX":532,"tY":338,"tags":{"access":"customers","addr:city":"Coesfeld","addr:housenumber":"20","addr:postcode":"48653","addr:street":"Sirksfeld","capacity:persons":"40","caravans":"no","fee":"yes","group_only":"yes","name":"Jugendzeltplatz der Sirksfelder Schule","opening_hours":"Apr-Oct","operator":"Freizeit- und Bildungsstätte der katholischen Jugend Coesfeld e. V.","phone":"+49 2541 6901","website":"https://sirksfelder-schule.de"}},"1297736937":{"location":[51.8445903,7.2710272],"ct":"DE","tp":"SD","ts":"2024-06-30T19:33:56Z","tX":532,"tY":338,"tags":{"access":"yes","fee":"no","operator":"düb SAFE HARBOUR","water_point":"yes"}},"3350598436":{"location":[51.979544,7.2808856],"ct":"DE","tp":"SD","ts":"2015-04-25T19:35:41Z","tX":532,"tY":338,"tags":{"sanitary_dump_station:accepted":"black_water;tank_chemicals"}},"8848926561":{"location":[51.8372082,7.0523553],"ct":"DE","tp":"CR","ts":"2024-03-18T15:42:51Z","tX":532,"tY":338,"tags":{"caravans":"no","charge":"15 EUR","dog":"yes","fee":"yes","internet_access":"wlan","internet_access:fee":"no","name":"Stellplatz Berghotel Hohe Mark","power_supply":"yes","surface":"grass","tents":"no"}},"4456724924":{"location":[51.953402,7.1741271],"ct":"DE","tp":"SD","ts":"2016-10-20T16:53:50Z","tX":532,"tY":338,"tags":{"sanitary_dump_station:chemical_toilet":"yes","sanitary_dump_station:fee":"no","sanitary_dump_station:gravity":"yes","sanitary_dump_station:grey_water":"yes","sanitary_dump_station:suction":"no"}}}