{"12919419":{"location":[51.6629273,7.219248],"ct":"DE","tp":"CS","ts":"2021-07-05T00:04:18Z","tX":532,"tY":339,"tags":{"access":"customers","addr:city":"Oer-Erkenschwick","addr:housenumber":"200","addr:postcode":"45739","addr:street":"Haardgrenzweg","capacity":"138","charge":"16.00 € bis 18.00 € pro Person (Selbstverpflegung) 21.50 € bis 23.50 € pro Person (Übernachtung / Frühstück) 32.50 € bis 35.50 € pro Person (Vollverpflegung)","email":"info@jugendcamp-haard.de","fee":"yes","group_only":"yes","name":"Kinder- und Jugendcamp Haard","openfire":"yes","opening_hours":"Mo, Tu, Th, Fr 08:30-15:30","operator":"Steffen Urban","phone":"+492368695585","shower":"yes","toilets":"yes","website":"http://www.jugendcamp-haard.de"}},"26548886":{"location":[51.7572642,7.2119063],"ct":"DE","tp":"CR","ts":"2021-10-31T18:25:12Z","tX":532,"tY":339,"tags":{"landuse":"residential"}},"28469929":{"location":[51.7486572,7.2465483],"ct":"DE","tp":"CS","ts":"2023-10-29T23:13:33Z","tX":532,"tY":339,"tags":{"name":"Hoher Niemen","website":"https://www.hoher-niemen.de/"}},"28681021":{"location":[51.7872325,7.2728709],"ct":"DE","tp":"CS","ts":"2021-07-29T17:43:11Z","tX":532,"tY":339,"tags":{"addr:city":"Dülmen","addr:country":"DE","addr:housenumber":"217","addr:postcode":"48249","addr:street":"Borkenbergestraße","capacity":"45","caravans":"yes","dryer":"yes","internet_access":"wlan","internet_access:fee":"no","name":"Campingplatz Tannenwiese","operator":"Peter Sickelmann","phone":"+49 2594 991759","power_supply":"yes","shower":"yes","tents":"yes","toilets":"yes","washing_machine":"yes","website":"https://www.camping-tannenwiese.de/"}},"28682787":{"location":[51.7820963,7.281116],"ct":"DE","tp":"CS","ts":"2024-03-01T06:54:09Z","tX":532,"tY":339,"tags":{"addr:city":"Lüdinghausen","addr:housenumber":"85","addr:street":"Leversum","name":"Naturpott Borkenberge","tents":"yes","website":"https://www.naturpott-borkenberge.de/"}},"37121306":{"location":[51.6684511,7.3692138],"ct":"DE","tp":"CR","ts":"2023-06-24T17:48:01Z","tX":532,"tY":339,"tags":{"addr:city":"Datteln","addr:country":"DE","addr:housenumber":"51","addr:postcode":"45711","addr:street":"Pelkumer Weg","caravans":"yes","email":"info@freizeitpark-klaukenhof.de","fee":"yes","name":"Freizeitpark Klaukenhof","note":"Neue Adresse","phone":"+49 2363 365033","power_supply":"yes","shower":"yes","stars":"3","tents":"yes","toilets":"yes","website":"https://www.freizeitpark-klaukenhof.de/","wheelchair":"yes","wheelchair:access":"no","wheelchair:description":"nur über Außentreppe zu erreichen (1. OG)"}},"43134245":{"location":[51.8040458,7.2321882],"ct":"DE","tp":"CS","ts":"2024-04-15T10:35:47Z","tX":532,"tY":339,"tags":{"addr:city":"Haltern am See","addr:country":"DE","addr:housenumber":"51","addr:postcode":"45721","addr:street":"Zum Dülmener See","backcountry":"no","cabins":"yes","caravans":"yes","contact:facebook":"https://www.facebook.com/duelmenersee/","contact:phone":"+49 2594 2125","contact:website":"https://www.duelmener-see.de/","dog":"yes","fee":"yes","fenced":"yes","hot_water":"yes","name":"Freizeitpark Dülmener See","operator":"Fischer Ferienpark Dülmener See GbR","permanent_camping":"yes","power_supply":"yes","scout":"no","shower":"yes","static_caravans":"yes","swimming_pool":"no","tents":"yes","toilets":"yes","washing_machine":"yes"}},"56084154":{"location":[51.6523994,7.3725351],"ct":"DE","tp":"CS","ts":"2024-10-13T16:20:24Z","tX":532,"tY":339,"tags":{"name":"Losheide","permanent_camping":"only","website":"https://campingplatz-losheide.de"}},"61319439":{"location":[51.7108507,7.2621326],"ct":"DE","tp":"CS","ts":"2022-09-13T19:39:39Z","tX":532,"tY":339,"tags":{"addr:city":"Haltern am See","addr:country":"DE","addr:housenumber":"600","addr:postcode":"45721","addr:street":"Flaesheimer Straße","caravans":"yes","check_date":"2021-08-29","email":"flaesheim@freizeit-oasen.de","fax":"+49 2364 15039","name":"Freizeitpark Flaesheim","phone":"+49 2364 15037","tents":"yes","website":"https://flaesheim.freizeit-oasen.de/"}},"61319448":{"location":[51.7142927,7.2774732],"ct":"DE","tp":"CS","ts":"2020-08-31T14:40:53Z","tX":532,"tY":339,"tags":{"tents":"no"}},"61377061":{"location":[51.7045795,7.2922927],"ct":"DE","tp":"CS","ts":"2023-10-29T23:11:17Z","tX":532,"tY":339,"tags":{"email":"info@Feriencamp-Ahsener-Heide.de","name":"Feriencamp \"Ahsener Heide\"","operator":"Marvin Bergmann","phone":"+49 2363 34464","website":"https://www.feriencamp-ahsener-heide.de/"}},"70573869":{"location":[51.6725852,7.3640969],"ct":"DE","tp":"CS","ts":"2019-10-01T09:02:03Z","tX":532,"tY":339,"tags":{"addr:housenumber":"47","addr:street":"Natroper Weg","email":"info@camping-am-muehlenbach.de","fee":"yes","name":"Am Mühlenbach","phone":"+49 152 235 862 57","power_supply":"yes","sanitary_dump_station":"yes","shower":"yes","tents":"yes","toilets":"yes","website":"https://www.camping-am-muehlenbach.de/"}},"87423189":{"location":[51.7801516,7.203259],"ct":"DE","tp":"CS","ts":"2024-04-30T10:11:41Z","tX":532,"tY":339,"tags":{"addr:city":"Haltern am See","addr:country":"DE","addr:housenumber":"284","addr:postcode":"45721","addr:street":"Sythener Straße","caravans":"yes","email":"campingplatz-druegenkamp@gmx.de","name":"Campingplatz Drügen Kamp","phone":"+49 2542 7517","power_supply":"yes","website":"https://www.camping-druegenkamp.de"}},"91310060":{"location":[51.8268517,7.0657828],"ct":"DE","tp":"CS","ts":"2022-08-25T12:14:16Z","tX":532,"tY":339,"tags":{"access":"customers","addr:city":"Reken","addr:housenumber":"4","addr:postcode":"48734","addr:street":"Berge","fee":"yes","internet_access":"wlan","name":"Campingpark Groß Reken","operator":"Schomberg GbR","phone":"+49 2864 4494","website":"https://www.campingnrw.de/"}},"93311861":{"location":[51.6394395,7.3777579],"ct":"DE","tp":"CS","ts":"2024-10-13T16:29:07Z","tX":532,"tY":339,"tags":{"name":"Campingplatz Budde-Rosanowski","permanent_camping":"only","website":"http://www.campingplatz-am-kanal.de"}},"106081233":{"location":[51.6771137,7.2840697],"ct":"DE","tp":"CS","ts":"2022-06-24T10:08:44Z","tX":532,"tY":339,"tags":{"addr:city":"Datteln","addr:housenumber":"30","addr:postcode":"45711","addr:street":"In den Wellen","bett_and_bike:ref":"NRW-1296","bettundbike":"yes","camp_site":"serviced","caravans":"yes","ele":"65","email":"info@haard-camping.de","maxtents":"5","name":"Haard-Camping Familie Weber","note":"175 long-term and 20 short-term caravan sites.","openfire":"yes","operator":"Michael Weber","phone":"+49 2363 361391","smoking":"outside","tents":"yes","website":"http://www.haard-camping.de","wheelchair":"limited"}},"106086551":{"location":[51.691086,7.2933983],"ct":"DE","tp":"CS","ts":"2020-08-28T15:58:17Z","tX":532,"tY":339,"tags":{}},"106087130":{"location":[51.6709337,7.2794089],"ct":"DE","tp":"CS","ts":"2020-08-31T14:40:53Z","tX":532,"tY":339,"tags":{"email":"info@stimberg-camping.de","name":"Stimberg Camping","phone":"+49 2363 32371","website":"http://www.stimberg-camping.de/"}},"109141803":{"location":[51.7225973,7.3515634],"ct":"DE","tp":"CS","ts":"2023-10-29T23:12:49Z","tX":532,"tY":339,"tags":{"name":"Burbank","website":"https://www.campingplatz-burbank.de/"}},"117550890":{"location":[51.6952347,7.2937534],"ct":"DE","tp":"CS","ts":"2020-08-31T14:40:53Z","tX":532,"tY":339,"tags":{"name":"Campingplatz Franz Althoff"}},"117917000":{"location":[51.6701326,7.369248],"ct":"DE","tp":"CS","ts":"2022-06-24T10:08:44Z","tX":532,"tY":339,"tags":{"addr:city":"Datteln","addr:housenumber":"40","addr:postcode":"45711","addr:street":"Natroper Weg","bett_and_bike:ref":"NRW-1330","bettundbike":"yes","caravans":"yes","email":"info@freizeitpark-klaukenhof.de","fax":"+49 2363 365034","name":"Freizeitpark Klaukenhof","phone":"+49 2363 365033","shower":"yes","tents":"yes","toilets":"yes","website":"https://www.freizeitpark-klaukenhof.de/"}},"155062096":{"location":[51.8257604,7.2720254],"ct":"DE","tp":"CR","ts":"2024-06-03T11:07:20Z","tX":532,"tY":339,"tags":{"capacity":"6","caravan_site":"motorhome_stopover","caravan_site:type":"town","fee":"no","internet_access":"no","name":"Wohnmobilstellplatz Hüttendyk - Dülmen","power_supply":"yes","power_supply:fee":"yes","sanitary_dump_station":"yes","water_point":"yes","water_point:fee":"yes","website":"https://www.duelmen.de/service/suche?tx_solr%5Bq%5D=wohnmobilstellplatze"}},"156002271":{"location":[51.681754,7.3046216],"ct":"DE","tp":"CS","ts":"2023-10-29T23:13:36Z","tX":532,"tY":339,"tags":{"addr:city":"Datteln","addr:housenumber":"26","addr:postcode":"45711","addr:street":"Im Wehling","email":"info@wehlingsheide.de","fax":"+49 2363 34592","name":"Erholungspark Wehlingsheide","operator":"F. Schnieder","phone":"+49 2363 33404","website":"https://www.wehlingsheide.de/"}},"198670494":{"location":[51.6879491,7.2678673],"ct":"DE","tp":"CR","ts":"2023-06-19T12:04:55Z","tX":532,"tY":339,"tags":{"capacity:caravans":"30","operator":"Wellnessresort Jammertal","tents":"no"}},"284608990":{"location":[51.6567214,7.2101122],"ct":"DE","tp":"CS","ts":"2020-07-27T11:43:06Z","tX":532,"tY":339,"tags":{"name":"Campingplatz Tögemannsfeld","website":"https://www.camping-toegemannsfeld.de/"}},"284608991":{"location":[51.6592388,7.2142026],"ct":"DE","tp":"CS","ts":"2024-08-03T15:25:54Z","tX":532,"tY":339,"tags":{"caravans":"yes","drinking_water":"yes","name":"Campingplatz Ludbrock - Naturpark Hohe Mark","power_supply":"yes","sanitary_dump_station":"yes","shower":"yes","tents":"yes","toilets":"yes","website":"https://www.camping-ludbrock.de/"}},"310211710":{"location":[51.8274635,7.0616484],"ct":"DE","tp":"CR","ts":"2022-08-25T12:14:16Z","tX":532,"tY":339,"tags":{"addr:city":"Reken","addr:housenumber":"2 A","addr:postcode":"48734","addr:street":"Berge","capacity":"20","charge":"6.00 EUR/day","fee":"yes","image":"https://www.reken.de/media/custom/355_1607_1_g.JPG","internet_access":"no","note":"20 Stellplätze 6€/Tag (Stand 10.2014) Gaus Krüger: 2.573.251 rechts-Wert, 5.744.198 hoch-Wert;GPS: 51 °, 49', 43\" Breitengrad;7°, 3', 29\" Längengrad.","operator":"Gemeinde Reken","phone":"+49 2864 944035","power_supply":"yes","sanitary_dump_station":"yes","tents":"no","website":"https://www.reken.de/Urlaub-Freizeit/%C3%9Cbernachten-br-Camping/Reisemobilstellplatz/"}},"401811738":{"location":[51.7418048,7.2015024],"ct":"DE","tp":"CR","ts":"2024-03-26T10:00:50Z","tX":532,"tY":339,"tags":{"capacity":"28","caravans":"no","fee":"yes","internet_access":"wlan","internet_access:fee":"customers","name":"Aquarell","power_supply":"yes","sanitary_dump_station":"yes"}},"649479283":{"location":[51.8266672,7.0565793],"ct":"DE","tp":"CS","ts":"2024-02-22T08:45:32Z","tX":532,"tY":339,"tags":{"caravans":"no","fee":"yes","name":"Zeltplatz","note":"Bei Übernachungen wird eine Pauschale von 2,00 € pro Person und Übernachtung für Strom, Wasser und Reinigung der Sanitäranlagen erhoben.","operator":"Gemeinde Reken","source":"www.reken.de","surface":"grass","tents":"yes","website":"https://www.reken.de/"}},"820849475":{"location":[51.8321911,7.2301823],"ct":"DE","tp":"CR","ts":"2024-06-03T11:11:20Z","tX":532,"tY":339,"tags":{"addr:city":"Dülmen","addr:country":"DE","addr:housenumber":"20","addr:postcode":"48249","addr:street":"Börnste","capacity":"13","caravan_site":"motorhome_stopover","caravan_site:type":"nature","charge":"6 EUR","email":"info@haus-waldfrieden.de","fee":"yes","internet_access":"no","name":"Haus Waldfrieden","opening_hours":"24/7","operator":"Haus Waldfrieden Wohnmobile","payment:cryptocurrencies":"no","payment:electronic_purses":"no","phone":"+49 2594 2273","power_supply":"yes","power_supply:capacity":"4","power_supply:charge":"4 EUR","power_supply:fee":"yes","sanitary_dump_station":"no","tents":"no","water_point":"yes","website":"https://haus-waldfrieden.eshop.t-online.de/c/kategorien-1/wohnmobile"}},"1064630357":{"location":[51.7249422,7.1516759],"ct":"DE","tp":"CS","ts":"2022-09-26T17:54:49Z","tX":532,"tY":339,"tags":{"caravans":"no","email":"info@gilwell-st-ludger.de","fax":"+49 2364 938918","internet_access":"wlan","name":"Zeltplatz Kapelle","operator":"DPSG Diözesanverband Münster","phone":"+49 2364 93890","reservation":"required","tents":"yes","website":"https://www.gilwell-st-ludger.de"}},"1064630358":{"location":[51.7242386,7.1517094],"ct":"DE","tp":"CS","ts":"2022-09-26T17:54:49Z","tX":532,"tY":339,"tags":{"capacity":"120","caravans":"no","email":"info@gilwell-st-ludger.de","fax":"+49 23 4 938918","name":"Zeltplatz Kiefernwald","operator":"DPSG Diözesanverband Münster","phone":"+49 2364 93890","reservation":"required","tents":"yes","website":"https://www.gilwell-st-ludger.de"}},"1064630363":{"location":[51.7266995,7.1528136],"ct":"DE","tp":"CS","ts":"2024-06-18T11:41:15Z","tX":532,"tY":339,"tags":{"capacity":"200","capacity:persons":"150","caravans":"no","email":"info@gilwell-st-ludger.de","fax":"+49 2364 938918","fee":"yes","internet_access":"wlan","name":"Zeltplatz an der Georgshütte","operator":"DPSG Diözesanverband Münster","phone":"+49 2364 93890","reservation":"required","static_caravans":"no","tents":"yes","website":"https://www.gilwell-st-ludger.de","wheelchair":"limited"}},"1102487470":{"location":[51.6597586,7.3660489],"ct":"DE","tp":"CS","ts":"2023-06-10T06:39:25Z","tX":532,"tY":339,"tags":{}},"1184834344":{"location":[51.8253359,7.3132217],"ct":"DE","tp":"CR","ts":"2024-06-03T11:07:20Z","tX":532,"tY":339,"tags":{"capacity":"12","caravan_site":"motorhome_stopover","caravan_site:type":"sauna","dog":"yes","fee":"no","name":"Die Sauna-Insel Dülmen","operator":"Sauna-Insel","power_supply":"yes","sanitary_dump_station":"no","seasonal":"no","water_point":"no"}},"8476692806":{"location":[51.8270941,7.06183],"ct":"DE","tp":"SD","ts":"2021-03-01T18:17:20Z","tX":532,"tY":339,"tags":{"access":"customers","fee":"yes","image":"https://www.reken.de/media/custom/355_1453_1_g.JPG","operator":"Gemeinde Reken"}},"10054157778":{"location":[51.7418763,7.2006801],"ct":"DE","tp":"SD","ts":"2022-09-26T17:12:33Z","tX":532,"tY":339,"tags":{"access":"customers","fee":"yes","water_point":"yes"}}}