{"26370404":{"location":[51.4168835,7.2080949],"ct":"DE","tp":"CS","ts":"2023-06-19T11:04:55Z","tX":532,"tY":340,"tags":{"area":"yes","caravans":"yes","fee":"yes","name":"Campingplatz \"An der Kost\"","permanent_camping":"yes","tents":"yes","website":"http://www.hattingencamping.de/"}},"27631812":{"location":[51.4290912,7.1043227],"ct":"DE","tp":"CS","ts":"2022-10-01T15:18:49Z","tX":532,"tY":340,"tags":{"addr:housenumber":"76","addr:street":"In der Lake","name":"Ruhrcamping","operator":"Bauer","website":"https://ruhrcamping.com/"}},"29223650":{"location":[51.4295001,7.0987605],"ct":"DE","tp":"CS","ts":"2023-09-19T17:20:13Z","tX":532,"tY":340,"tags":{"addr:housenumber":"26","addr:street":"In der Lake","caravans":"yes","email":"nachricht@horster-ruhrbruecke.de","name":"Campingplatz Horster Ruhrbrücke","tents":"yes","website":"http://www.horster-ruhrbruecke.de","wheelchair":"no"}},"30381545":{"location":[51.4180505,7.349265],"ct":"DE","tp":"CS","ts":"2024-07-27T18:22:56Z","tX":532,"tY":340,"tags":{"addr:city":"Witten","addr:country":"DE","addr:housenumber":"68a","addr:postcode":"58452","addr:street":"Uferstraße","addr:suburb":"Bommern","caravans":"yes","contact:yelp":"bootshaus-steger-witten","image":"File:Witten Campingplatz Steger.jpg","name":"Campingplatz Steger","operator:type":"private","start_date":"1911","tents":"yes"}},"34782170":{"location":[51.4304255,7.056718],"ct":"DE","tp":"CS","ts":"2022-07-17T04:20:27Z","tX":532,"tY":340,"tags":{"addr:city":"Essen","addr:housenumber":"11","addr:postcode":"45134","addr:street":"Zornige Ameise","description":"Kleiner Campingplatz mit dem aller nötigsten.","name":"Bootshaus & Campingplatz an der Ruhr, Robert Hoffmeister","note":"Übernachtungen mit Zelt möglich (0201/627100)","phone":"+49 152 57063176"}},"34908306":{"location":[51.4062656,7.1711492],"ct":"DE","tp":"CS","ts":"2024-05-08T08:13:35Z","tX":532,"tY":340,"tags":{"addr:city":"Hattingen","addr:country":"DE","addr:housenumber":"6","addr:postcode":"45529","addr:street":"Ruhrstraße","addr:suburb":"Winz-Baak","caravans":"yes","drinking_water":"yes","email":"info@camping-hattingen.de","fax":"+49 2324 984 06","fee":"yes","internet_access":"wlan","name":"Campingplatz Ruhrbrücke","note":"Öffnungszeiten auch nach Vereinbarung","opening_hours":"Apr 1-Oct 20: open; Oct 21-Mar 31 \"geöffnet nach Vereinbarung\"","operator":"Jutta Stolle","phone":"+49 2324 800 38","power_supply":"yes","reservation":"required","tents":"yes","website":"http://www.camping-hattingen.de"}},"36914306":{"location":[51.4018837,7.0405764],"ct":"DE","tp":"CS","ts":"2021-11-23T22:01:44Z","tX":532,"tY":340,"tags":{"addr:city":"Essen","addr:country":"DE","addr:housenumber":"369","addr:postcode":"45239","addr:street":"Hardenbergufer","backcountry":"no","caravans":"yes","contact:email":"cpl-erdhuetter@t-online.de","contact:phone":"+49 201 402 007","contact:website":"http://campingpark-baldeneysee.de/Preise-Buchung-Anfahrt","fee":"yes","name":"Campingpark Baldeneysee","nudism":"no","operator":"Oliver Erdhütter","reservation":"required","website":"http://campingpark-baldeneysee.de/Home-Wie-Wo-Was"}},"36914998":{"location":[51.3995314,7.0469286],"ct":"DE","tp":"CS","ts":"2023-11-08T14:37:09Z","tX":532,"tY":340,"tags":{"caravans":"yes","drinking_water":"yes","internet_access":"wlan","name":"Campingpark Baldeneysee","power_supply":"yes","shower":"yes","tents":"yes","toilets":"yes","website":"http://campingpark-baldeneysee.de/","wheelchair":"yes"}},"44926099":{"location":[51.4247165,7.14301],"ct":"DE","tp":"CS","ts":"2024-06-09T18:17:10Z","tX":532,"tY":340,"tags":{"addr:city":"Bochum","addr:country":"DE","addr:housenumber":"2","addr:postcode":"44879","addr:street":"Ruhrmühle","alt_name":"Wasserfreunde Ruhrmühle e.V. Bochum","capacity:static_caravans":"25","caravans":"yes","email":"WasserfreundeRuhr@gmx.de","mobile":"+49 1626374140","name":"Wasserfreunde Ruhrmühle","opening_hours":"Mar 13 - Oct 15","payment:cash":"yes","phone":"+49 176 55247330","shower":"yes","static_caravans":"yes","tents":"yes","toilets":"yes","website":"https://www.wasserfreunde-ruhrmuehle.de/"}},"82202466":{"location":[51.4134124,7.2357784],"ct":"DE","tp":"CS","ts":"2023-06-19T10:56:42Z","tX":532,"tY":340,"tags":{"access":"private","note":"Der Kanu Club Wiking Bochum ist kein öffentlicher Zeltplatz, bietet aber Sportlern anderer Vereine die Möglichkeit auf seinem Gelände zu übernachten.","operator":"Kanu Club Wiking Bochum 1951 e.V."}},"89478775":{"location":[51.6115712,7.3346449],"ct":"DE","tp":"CS","ts":"2025-03-30T10:57:48Z","tX":532,"tY":340,"tags":{"addr:housenumber":"11","addr:street":"In der Torfheide","name":"Campingplatz Zum Abdinghoff","phone":"+4923097846534","website":"https://www.campinginwaltrop.de/"}},"92494590":{"location":[51.408519,7.1807533],"ct":"DE","tp":"CR","ts":"2024-11-21T09:56:13Z","tX":532,"tY":340,"tags":{"addr:city":"Hattingen","addr:country":"DE","addr:housenumber":"24","addr:postcode":"45525","addr:street":"Ruhrdeich","capacity":"18","caravan_site":"motorhome_stopover","caravan_site:type":"river","charge":"15 EUR","contact:email":"info@wohnmobilstellplatz-ruhrtal.de","contact:fax":"+49 2324 506418","contact:phone":"+49 2324 506584","fee":"yes","internet_access":"wlan","internet_access:fee":"no","name":"Wohnmobilstellplatz Ruhrtal","operator":"Lenartz + Lenartz GbR","power_supply":"yes","power_supply:charge":"1 EUR/2 KWh","power_supply:fee":"yes","sanitary_dump_station":"yes","seasonal":"no","toilets":"no","water_point":"yes","water_point:charge":"0.10 EUR/10 liter","water_point:fee":"yes","website":"https://www.wohnmobilstellplatz-ruhrtal.de/","wheelchair":"yes"}},"93576784":{"location":[51.6122669,7.3733099],"ct":"DE","tp":"CS","ts":"2024-12-05T00:58:51Z","tX":532,"tY":340,"tags":{"name":"Rewinkel"}},"118010878":{"location":[51.411013,7.1446163],"ct":"DE","tp":"CS","ts":"2024-06-09T17:58:29Z","tX":532,"tY":340,"tags":{"caravans":"no","name":"Am Kempel","permanent_camping":"only","tents":"no"}},"156191553":{"location":[51.4146221,7.2331454],"ct":"DE","tp":"CS","ts":"2025-03-26T15:03:14Z","tX":532,"tY":340,"tags":{"access":"private","contact:email":"info@freiesportgemeinschaftbochum2006ev.de","contact:mobile":"+49 179 4648123","contact:website":"https://www.freiesportgemeinschaftbochum2006ev.de","fee":"yes","name":"Freie Sportgemeinschaft Bochum 2006 e.V."}},"161079429":{"location":[51.4263829,7.2898988],"ct":"DE","tp":"CS","ts":"2024-03-05T07:11:04Z","tX":532,"tY":340,"tags":{"access":"private","addr:city":"Witten","addr:country":"DE","addr:housenumber":"19","addr:postcode":"58456","addr:street":"In der Lake","addr:suburb":"Heven","caravans":"yes","contact:email":"ccfwitten@web.de","contact:facebook":"https://www.facebook.com/CCF-Witten-140246329377876/","contact:website":"https://www.ccf.kmarendt.de/","image":"https://web.archive.org/web/20160614181747if_/http://www.ccf.kmarendt.de/images/Verein_1.JPG","name":"Canu-Camping-Freunde","note":"Eine Übernachtung ist zum Zweck der Sportausübung (Kanufahren) möglich, wenn eine Mitgliedschaft im CCF-Witten oder im Deutschen Kanuverband (DKV) besteht","operator":"Canu-Camping-Freunde","operator:type":"community","sport":"canoe","start_date":"1966","tents":"yes"}},"167626867":{"location":[51.5008968,7.0628906],"ct":"DE","tp":"CR","ts":"2024-08-05T15:05:38Z","tX":532,"tY":340,"tags":{"capacity":"22","caravan_site":"motorhome_stopover","caravan_site:type":"park","caravans":"no","charge":"13 EUR","fee":"yes","internet_access":"no","maxstay":"21 days","name":"Revierpark Nienhausen","operator":"Revierpark Nienhausen","phone":"+49 209 94131-0","power_supply":"yes","power_supply:charge":"1 EUR/2 kWh","sanitary_dump_station":"yes","shower":"yes","shower:charge":"3 EUR","surface":"grass_paver","tents":"no","water_point":"yes","water_point:charge":"1 EUR/90 liter","website":"https://nienhausen.de/index.php/revierpark/wohnmobilstellplatz","wheelchair":"yes","wikimedia_commons":"File:Reisemobilstellplatz Revierpark Nienhausen, Gelsenkirchen-2389.jpg"}},"292532744":{"location":[51.4017715,7.1768567],"ct":"DE","tp":"CR","ts":"2024-07-04T15:25:15Z","tX":532,"tY":340,"tags":{"capacity":"3","caravan_site":"motorhome_stopover","caravan_site:type":"parking_lot","description":"weekend only stopover","fee":"no","internet_access":"no","name":"Parkplatz hinter den Amtshäusern","name:signed":"no","opening_hours":"Sa-Su","power_supply":"no","sanitary_dump_station":"no","toilets":"no","website":"https://www.hattingen-tourismus.de/unterkunft/parkplatz-hinter-den-amtshaeusern/"}},"601112473":{"location":[51.4072644,7.177956],"ct":"DE","tp":"CR","ts":"2023-05-17T19:27:30Z","tX":532,"tY":340,"tags":{"addr:city":"Hattingen","addr:country":"DE","capacity":"37","fee":"15","name":"Wohnmobilstellplatz Landhaus Grumm","operator":"Fam. Grumm","phone":"+49 2324 951296","power_supply":"yes","website":"https://www.landhaus-grum.de/wohnmobilplatz"}},"844058134":{"location":[51.6105203,7.2015678],"ct":"DE","tp":"CR","ts":"2024-09-15T11:40:27Z","tX":532,"tY":340,"tags":{"bbq":"no","capacity:caravans":"6","description":"Eine überfahrbare Entsorgungsstation befindet sich in ca. 250 Metern Entfernung auf dem Konrad-Adenauer-Platz. Hier befindet sich auch ein Frischwasser-Anschluss. 4 Steckplätze für die Stromversorgung.","drinking_water":"no","fee":"yes","internet_access":"no","name":"Wohnmobilstellplatz Erlbruch","openfire":"no","power_supply":"yes","sanitary_dump_station":"yes","shower":"no","tents":"no","toilets":"no","website":"https://www.recklinghausen.de/inhalte/startseite/freizeit_tourismus/uebernachten_in_recklinghausen/Wohnmobilstellplatz/index.asp"}},"867936704":{"location":[51.6097251,7.2034704],"ct":"DE","tp":"SD","ts":"2022-02-19T21:07:30Z","tX":532,"tY":340,"tags":{"fee":"no","website":"https://www.recklinghausen.de/Inhalte/Startseite/Freizeit_Tourismus/Uebernachten_in_Recklinghausen/Wohnmobilstellplatz/index.asp"}},"1341816749":{"location":[51.5479086,7.3217574],"ct":"DE","tp":"CR","ts":"2024-12-11T14:42:32Z","tX":532,"tY":340,"tags":{"capacity":"4","caravan_site":"motorhome_stopover","caravan_site:type":"parking_lot","caravans":"no","fee":"no","internet_access":"no","name":"Parkplatz Hotel Vienna House Easy Goldschmieding","name:signed":"no","power_supply":"no","sanitary_dump_station":"no","surface":"grass_paver","tents":"no","toilets":"no","wheelchair":"yes"}},"2384661164":{"location":[51.4084511,7.1806902],"ct":"DE","tp":"SD","ts":"2020-04-20T16:13:21Z","tX":532,"tY":340,"tags":{"fee":"yes","operator":"Wohnmobilstellplatz Ruhrtal","sanitary_dump_station:accepted":"black_water;grey_water;tank_chemicals"}},"9917029372":{"location":[51.5856943,7.3566903],"ct":"DE","tp":"CS","ts":"2024-09-05T15:34:01Z","tX":532,"tY":340,"tags":{"cabins":"yes","capacity:cabins":"3","caravans":"no","contact:website":"https://dasparkhotel.net/location/hof-emscher-auen/","name":"dasparkhotel - hof emscher-auen","tents":"no"}},"8383750287":{"location":[51.5479002,7.3217601],"ct":"DE","tp":"CR","ts":"2023-02-26T10:33:57Z","tX":532,"tY":340,"tags":{"capacity":"4","internet_access":"no","name:signed":"no","power_supply":"no","sanitary_dump_station":"no","tents":"no","toilets":"no","wheelchair":"yes"}},"8910121651":{"location":[51.5007136,7.0630496],"ct":"DE","tp":"SD","ts":"2021-07-10T17:47:09Z","tX":532,"tY":340,"tags":{"access":"customers","charge":"EUR 1.00","fee":"yes","opening_hours":"24/7","sanitary_dump_station:basin":"yes","sanitary_dump_station:round_drain":"yes"}},"10905887425":{"location":[51.4067015,7.1772767],"ct":"DE","tp":"SD","ts":"2023-05-17T19:27:30Z","tX":532,"tY":340,"tags":{"access":"customers","fee":"no","opening_hours":"24/7","sanitary_dump_station:round_drain":"yes"}}}