{"80227622":{"location":[51.3926669,7.1489905],"ct":"DE","tp":"CS","ts":"2023-04-30T18:49:59Z","tX":532,"tY":341,"tags":{"addr:city":"Hattingen","addr:housenumber":"4","addr:postcode":"45529","addr:street":"Tippelstraße","capacity:permanent_camping":"190","capacity:touristic":"30","caravans":"yes","dog":"yes","drinking_water":"yes","fee":"yes","motor_vehicle":"yes","name":"Freizeitdomizil Ruhrtal","operator":"Campinggesellschaft am Entenfangsee mbH","permanent_camping":"yes","phone":"+49 2324-4488","power_supply":"yes","sanitary_dump_station":"yes","shower":"yes","surface":"grass","tents":"yes","toilets":"yes","washing_machine":"yes","website":"https://ruhrtal.freizeit-oasen.de/"}},"123448974":{"location":[51.3202861,7.2714142],"ct":"DE","tp":"PK","ts":"2024-08-04T21:27:45Z","tX":532,"tY":341,"tags":{"motorhome":"yes","operator":"Zum alten Waldhaus Der Swingerclub"}},"123448984":{"location":[51.3161258,7.269307],"ct":"DE","tp":"CS","ts":"2017-05-18T18:20:17Z","tX":532,"tY":341,"tags":{"addr:city":"Sprockhövel","addr:housenumber":"25","addr:postcode":"45549","addr:street":"Eichenhofer Weg","addr:suburb":"Haßlinghausen","name":"Vereinsgelände FSG Lichtbund e.V.","nudism":"obligatory","operator":"Familien-Sport-Gemeinschaft Lichtbund Wuppertal e.V."}},"133284155":{"location":[51.2638865,7.3742282],"ct":"DE","tp":"CS","ts":"2023-06-13T12:55:10Z","tX":532,"tY":341,"tags":{"addr:city":"Ennepetal","addr:country":"DE","addr:housenumber":"72a","addr:postcode":"58256","addr:street":"Severinghauser Straße","cabins":"yes","caravans":"no","drinking_water":"yes","fee":"yes","motor_vehicle":"yes","name":"Campingplatz Ennepetal","permanent_camping":"only","power_supply":"yes","sanitary_dump_station":"yes","tents":"yes","website":"https://www.camp-en.de/"}},"622565082":{"location":[51.3157379,7.0863777],"ct":"DE","tp":"CR","ts":"2024-03-30T16:53:09Z","tX":532,"tY":341,"tags":{"caravans":"no","fee":"no","name":"WoMo Stellplatz Schloß Hardenberg","power_supply":"no","sanitary_dump_station":"no","tents":"no","water_point":"no","wheelchair":"limited"}},"622565083":{"location":[51.3049086,7.0858337],"ct":"DE","tp":"SD","ts":"2019-05-19T18:16:28Z","tX":532,"tY":341,"tags":{"sanitary_dump_station:chemical_toilet":"yes","sanitary_dump_station:fee":"no","sanitary_dump_station:gravity":"yes","sanitary_dump_station:grey_water":"yes","sanitary_dump_station:suction":"no"}},"1304796666":{"location":[51.3216379,7.3434745],"ct":"DE","tp":"CR","ts":"2024-12-21T06:54:45Z","tX":532,"tY":341,"tags":{"capacity":"2","caravan_site":"motorhome_stopover","caravan_site:type":"parking_lot;town","fee":"yes","fee:conditional":"no @ stay < 3 days","name":"Ennepebogen Gevelsberg","power_supply":"yes","power_supply:capacity":"2","power_supply:charge":"0.50 EUR/kWh","power_supply:fee":"yes","sanitary_dump_station":"yes","sanitary_dump_station:chemical_toilet":"yes","sanitary_dump_station:grey_water":"yes","surface":"asphalt","water_point":"yes","water_point:charge":"0.50 EUR/40 liter","website":"https://www.gevelsberg.de/Unsere-Stadt/Tourismus/"}},"1339191758":{"location":[51.2768772,7.1869612],"ct":"DE","tp":"CR","ts":"2025-01-08T00:13:40Z","tX":532,"tY":341,"tags":{"access":"yes","capacity":"5","caravan_site":"motorhome_stopover","caravan_site:type":"parking_lot","charge":"8 EUR","charge:conditional":"1 EUR @ (16:00-08:00)","description":"Der Platz kann, z. B. für Zirkusveranstaltungen, wie sie in der Vergangenheit regelmäßig stattgefunden haben, kurzfristig gesperrt werden.","fee":"yes","name":"Carnaper Platz","power_supply":"yes","website":"https://www.wsw-online.de/parken-wuppertal/parkplatz-carnaper-platz/"}},"1342770857":{"location":[51.204593,7.3584199],"ct":"DE","tp":"CR","ts":"2024-12-15T00:11:39Z","tX":532,"tY":341,"tags":{"capacity":"2","caravan_site":"motorhome_stopover","caravan_site:type":"parking_lot","fee":"no","maxstay":"24 hours","name":"Wohnmobilstellplatz Radevormwald","power_supply":"no","tents":"no","website":"https://www.dasbergische.de/hotel/wohnmobilstellplatz-radevormwald"}},"5820350450":{"location":[51.3438207,7.1373005],"ct":"DE","tp":"CR","ts":"2019-01-04T18:16:58Z","tX":532,"tY":341,"tags":{"capacity":"3","electricity":"no","fee":"no","name":"Wohnmobilstellplatz Langenberg","operator":"Stadt Velbert","toilets":"no","water_supply":"no"}},"6484300650":{"location":[51.3044591,7.0862755],"ct":"DE","tp":"CR","ts":"2024-08-04T23:42:34Z","tX":532,"tY":341,"tags":{"capacity":"4","caravan_site":"motorhome_stopover","caravan_site:type":"swimming_pool","caravans":"no","dog":"yes","fee":"no","name":"Wohnmobilstellplatz Panoramabad Velbert-Neviges","reservation":"no","sanitary_dump_station":"yes","tents":"no","water_point":"yes","website":"https://www.visitduesseldorf.de/en/poi/detail/wohnmobilstellplatz-panoramabad-816dc19866"}},"9946571817":{"location":[51.2927596,7.3766072],"ct":"DE","tp":"CR","ts":"2024-08-04T20:58:16Z","tX":532,"tY":341,"tags":{"bar":"yes","capacity":"4","caravan_site":"motorhome_stopover","caravan_site:type":"swimming_pool","charge":"6 EUR","fee":"yes","name":"WOMO Klutertbad","power_supply":"yes","sanitary_dump_station":"no","socket:cee_blue":"yes","water_point":"no","website":"https://www.klutertbad.de/womo"}},"10858395130":{"location":[51.3916292,7.1492794],"ct":"DE","tp":"SD","ts":"2023-04-30T18:49:59Z","tX":532,"tY":341,"tags":{"sanitary_dump_station:chemical_toilet":"yes"}}}