{"24533113":{"location":[51.1338373,7.1161635],"ct":"DE","tp":"CS","ts":"2023-11-02T18:53:30Z","tX":532,"tY":342,"tags":{"addr:city":"Solingen","addr:housenumber":"240","addr:postcode":"42659","addr:street":"Balkhauser Weg","caravans":"yes","drinking_water":"yes","email":"reservierung@camping-solingen.de","fax":"+49 212 242 1234","name":"Waldcamping Glüder","phone":"+49 212 24 2120","power_supply":"yes","shower":"yes","tents":"yes","toilets":"yes","website":"https://www.camping-solingen.de/"}},"32450023":{"location":[51.0409372,7.2621773],"ct":"DE","tp":"CR","ts":"2015-10-21T15:53:44Z","tX":532,"tY":342,"tags":{"name":"Sülztal"}},"33579007":{"location":[51.041001,7.2223485],"ct":"DE","tp":"CS","ts":"2015-11-04T23:12:30Z","tX":532,"tY":342,"tags":{"name":"Caravaning-Club \"Nordrhein\" e.V"}},"35031924":{"location":[51.1515972,7.3663585],"ct":"DE","tp":"CR","ts":"2024-05-13T21:46:02Z","tX":532,"tY":342,"tags":{"building":"retail","caravan_site":"motorhome_stopover","caravan_site:type":"camp_site","caravans":"yes","charge":"21 EUR/day","fee":"yes","name":"Wohnmobilstellplatz Beverblick Durchgangsplätze","power_supply":"yes","power_supply:charge":"0.50 EUR/kWh","power_supply:fee":"yes","tents":"no","website":"https://www.beverblick.de/campingplatz/","wheelchair":"yes"}},"35032025":{"location":[51.1522258,7.3659849],"ct":"DE","tp":"CS","ts":"2023-07-01T12:21:43Z","tX":532,"tY":342,"tags":{"name":"Campingplatz Beverblick","website":"https://www.beverblick.de/","wheelchair":"limited"}},"110489688":{"location":[50.9596243,7.2435438],"ct":"DE","tp":"CS","ts":"2020-11-26T21:09:22Z","tX":532,"tY":342,"tags":{"name":"Immekeppler Teich"}},"115008649":{"location":[50.9960247,7.3726329],"ct":"DE","tp":"CS","ts":"2023-12-21T20:32:56Z","tX":532,"tY":342,"tags":{"name":"Bergische Rhön"}},"126564569":{"location":[50.9819117,7.2450953],"ct":"DE","tp":"CS","ts":"2011-08-17T22:03:52Z","tX":532,"tY":342,"tags":{"name":"Camping Klefhaus"}},"177210212":{"location":[50.9955193,7.0595558],"ct":"DE","tp":"CS","ts":"2024-06-26T04:40:12Z","tX":532,"tY":342,"tags":{"addr:city":"Köln","addr:housenumber":"20","addr:postcode":"51069","addr:street":"Peter-Baum-Weg","caravans":"yes","email":"info@waldbad-camping.de","fax":"+49 221 608831","fee":"yes","internet_access":"yes","name":"Campingplatz Köln Dünnwald","opening_hours":"Mo-Sa 09:00-13:00,15:00-18:00; Su 09:00-12:00","operator":"Freies Ortskartell Köln-Dünnwald e.V.","phone":"+49 221 603315;+49 221 6001588","shower":"yes","tents":"yes","toilets":"yes","website":"https://waldbad-camping.de/","wheelchair":"yes"}},"225684430":{"location":[51.1531553,7.3733738],"ct":"DE","tp":"CS","ts":"2022-08-19T21:39:25Z","tX":532,"tY":342,"tags":{"wheelchair":"limited"}},"260451041":{"location":[51.1042064,7.1104209],"ct":"DE","tp":"CS","ts":"2024-08-13T13:55:12Z","tX":532,"tY":342,"tags":{"addr:city":"Leichlingen","addr:postcode":"42799","addr:street":"Wersbachtal","backcountry":"no","caravans":"yes","check_date":"2024-08-13","dog":"yes","email":"camping-wersbach@t-online.de","fee":"yes","motorhome":"yes","name":"Campingplatz Wersbachtal","operator":"Gudrun Claasen","phone":"+49 2174 5472","power_supply":"yes","power_supply:voltage":"230","shower":"yes","tents":"yes","toilets":"yes","website":"https://camping-wersbach.de/"}},"267367501":{"location":[51.1492342,7.3643571],"ct":"DE","tp":"CS","ts":"2024-08-28T20:58:37Z","tX":532,"tY":342,"tags":{"caravans":"yes","contact:email":"info@bever.nrw","contact:phone":"+49 2192 7227","dog":"no","name":"Bever-Camping Großberghausen","reservation":"required","tents":"yes","website":"https://www.campingparkbevertalsperre.de","wheelchair":"limited"}},"279838829":{"location":[51.0676518,7.3790875],"ct":"DE","tp":"CS","ts":"2023-06-01T08:20:17Z","tX":532,"tY":342,"tags":{"addr:city":"Lindlar","addr:country":"DE","addr:housenumber":"45","addr:postcode":"51789","addr:street":"Oberbüschem","cabins":"yes","capacity:permanent_camping":"300","capacity:touristic":"70","caravans":"yes","dog":"yes","drinking_water":"yes","fee":"yes","motor_vehicle":"yes","name":"Campingpark im Bergischen Land","permanent_camping":"yes","power_supply":"yes","tents":"yes","washing_machine":"yes","website":"https://www.mein-campingpark.de/"}},"302727687":{"location":[51.0597877,7.1121606],"ct":"DE","tp":"CS","ts":"2014-09-10T10:48:13Z","tX":532,"tY":342,"tags":{}},"304081983":{"location":[51.0107992,7.0879563],"ct":"DE","tp":"CS","ts":"2023-01-29T19:37:54Z","tX":532,"tY":342,"tags":{"access":"customers","addr:city":"Bergisch Gladbach","addr:housenumber":"32","addr:postcode":"51467","addr:street":"Sträßchen Siefen","fee":"yes","internet_access":"no","name":"Leni Müller Camping","operator":"Leni Müller","phone":"+49 2202 81520"}},"309707359":{"location":[51.0558421,7.100111],"ct":"DE","tp":"CS","ts":"2014-10-26T10:17:16Z","tX":532,"tY":342,"tags":{}},"352572148":{"location":[50.9772569,7.2873169],"ct":"DE","tp":"CS","ts":"2024-07-10T13:23:40Z","tX":532,"tY":342,"tags":{"addr:city":"Lindlar","addr:housenumber":"1a","addr:postcode":"51789","addr:street":"Lennefer Mühle","addr:suburb":"Hohkeppel","name":"Helios Familiensportgemeinschaft Köln e.V.","smoking":"separated","website":"https://www.helios-fsg.de/framedef.htm"}},"355763687":{"location":[51.056248,7.2928237],"ct":"DE","tp":"CR","ts":"2024-12-14T20:54:38Z","tX":532,"tY":342,"tags":{"capacity":"20","caravan_site":"motorhome_stopover","caravan_site:type":"swimming_pool","charge":"8 EUR","email":"info@splash-kuerten.de","fax":"+49 2268 90318","fee":"yes","name":"Wohnmobilpark Kürten","phone":"+49 2268 90319","power_supply":"yes","power_supply:charge":"2 EUR","power_supply:fee":"yes","seasonal":"no","surface":"gravel","toilets":"yes","toilets:fee":"no","water_point":"yes","water_point:fee":"no","website":"https://www.dasbergische.de/hotel/wohnmobilpark-kuerten"}},"384858110":{"location":[50.9781173,7.3525731],"ct":"DE","tp":"CS","ts":"2020-06-23T23:16:53Z","tX":532,"tY":342,"tags":{"name":"Hof Abstoss"}},"430036222":{"location":[51.1474334,7.370584],"ct":"DE","tp":"CS","ts":"2023-07-01T14:04:39Z","tX":532,"tY":342,"tags":{"contact:email":"info@bever.nrw","contact:phone":"+49 2192 859844","dog":"yes","name":"Bever-Camping Käfernberg","reservation":"required","tents":"yes","website":"https://www.campingparkbevertalsperre.de","wheelchair":"no"}},"817165550":{"location":[51.0853171,7.198888],"ct":"DE","tp":"CS","ts":"2020-06-18T09:43:06Z","tX":532,"tY":342,"tags":{"name":"Campingplatz Ketzberg"}},"818919037":{"location":[50.9756526,7.3634571],"ct":"DE","tp":"CS","ts":"2020-06-23T23:16:53Z","tX":532,"tY":342,"tags":{"addr:city":"Engelskirchen","addr:housenumber":"3","addr:postcode":"51766","addr:street":"Staadter Weg","name":"Dauercamping"}},"970890574":{"location":[50.998926,7.0911692],"ct":"DE","tp":"CR","ts":"2024-07-25T08:23:51Z","tX":532,"tY":342,"tags":{"addr:city":"Bergisch Gladbach","addr:housenumber":"2","addr:postcode":"51469","addr:street":"Borngasse","capacity":"20","description":"Anmeldung mindestens 4 Tage vor Anreise, kurzfristig geplante Anreise nur zu Zeiten der Anwesenheit des Platzwartes möglich","fee":"10 EUR /night","name":"Wohnmobilstellplatz Bergisch Gladbach","opening_hours":"Mo-Fr 11:00-11:00, 15:00-17:00; PH, Sa, Su 10:00-12:00","operator":"GL Service gGmbH","phone":"+49 157 85148749","power_supply":"yes","reservation":"required","website":"https://www.gl-service-ggmbh.de/wohnmobilstellplatz.aspx"}},"1282644028":{"location":[51.1633884,7.0771701],"ct":"DE","tp":"CR","ts":"2024-05-13T23:15:04Z","tX":532,"tY":342,"tags":{"capacity":"4","caravan_site":"motorhome_stopover","caravan_site:type":"parking_lot","dog":"yes","fee":"no","name":"Wohnmobil-Stellplatz Gründer- & Technologiezentrum, Solingen","power_supply":"no","sanitary_dump_station":"no","shower":"no","toilets":"no","water_point":"no"}},"1304731267":{"location":[51.0585193,7.1326288],"ct":"DE","tp":"CR","ts":"2025-02-25T22:25:55Z","tX":532,"tY":342,"tags":{"capacity":"6","caravan_site":"motorhome_stopover","caravan_site:type":"parking_lot;theme_park","contact:phone":"+49 2174 419950","fee":"yes","internet_access":"no","name":"Parkplatz Märchenwald Altenberg","operator":"Deutscher Märchenwald","power_supply":"no","sanitary_dump_station":"no","toilets":"no","water_point":"no","wheelchair":"yes"}},"1342736238":{"location":[51.1549347,7.3339232],"ct":"DE","tp":"CR","ts":"2024-12-14T20:10:02Z","tX":532,"tY":342,"tags":{"capacity":"5","caravan_site":"motorhome_stopover","caravan_site:type":"sports_centre","fee":"no","name":"Wohnmobilstellplatz Schnabelsmühle","opening_hours":"24/7","power_supply":"no","sanitary_dump_station":"no","seasonal":"no","shower":"no","tents":"no","toilets":"no","water_point":"no","website":"https://www.dasbergische.de/hotel/wohnmobilstellplatz-schnabelsmuehle"}},"1342771647":{"location":[51.1502024,7.345642],"ct":"DE","tp":"CR","ts":"2024-12-15T00:18:48Z","tX":532,"tY":342,"tags":{"capacity":"3","fee":"no","lit":"yes","maxlength":"8","name":"Wohnmobilstellplatz Wupperaue","power_supply":"yes","power_supply:fee":"no","reservation":"no","sanitary_dump_station":"no","seasonal":"no","surface":"asphalt","water_point":"no","website":"https://www.dasbergische.de/hotel/wohnmobilstellplatz-wupperaue"}},"10934119026":{"location":[51.0153317,7.3667216],"ct":"DE","tp":"CR","ts":"2024-08-03T22:20:06Z","tX":532,"tY":342,"tags":{"capacity:caravans":"2","caravan_site":"motorhome_stopover","caravan_site:type":"swimming_pool","fee":"no","name":"Parkbad Lindner","power_supply":"yes","power_supply:fee":"yes","sanitary_dump_station":"yes"}},"6586262987":{"location":[51.0684129,7.3813852],"ct":"DE","tp":"SD","ts":"2023-06-01T08:20:17Z","tX":532,"tY":342,"tags":{"access":"permit"}},"10942378314":{"location":[51.0678941,7.3817684],"ct":"DE","tp":"SD","ts":"2023-06-01T08:20:17Z","tX":532,"tY":342,"tags":{"access":"permit"}},"12423516180":{"location":[51.0630135,7.1281341],"ct":"DE","tp":"CR","ts":"2025-01-30T17:31:13Z","tX":532,"tY":342,"tags":{"capacity":"3","caravan_site":"motorhome_stopover","caravan_site:type":"sauna","charge":"9.50 EUR","check_out":"11:00","fee":"yes","name":"Wohnmobilstellplatz Eifgen-Sauna","power_supply":"yes","power_supply:charge":"2.50 EUR","power_supply:fee":"yes","reservation":"recommended","sanitary_dump_station":"no","water_point":"yes","website":"https://www.eifgen-sauna.de/ubernachtungen/unternehmungen/"}},"12423610919":{"location":[51.1106355,7.2572737],"ct":"DE","tp":"CR","ts":"2024-12-15T00:56:11Z","tX":532,"tY":342,"tags":{"capacity":"2","caravan_site":"motorhome_stopover","caravan_site:type":"sports_centre","fee":"no","name":"Wohnmobilstellplatz Dhünn","power_supply":"yes","power_supply:charge":"0.70 EUR+0.50 EUR/KWh","power_supply:fee":"yes","website":"https://www.dasbergische.de/hotel/wohnmobilstellplatz-in-dhuenn"}}}