{"9961873":{"location":[50.8357905,7.1987527],"ct":"DE","tp":"CS","ts":"2024-06-19T12:12:18Z","tX":532,"tY":343,"tags":{"addr:city":"Lohmar","addr:country":"DE","addr:housenumber":"10","addr:postcode":"53797","addr:street":"Aggerstraße","caravans":"designated","motorhome":"designated","name":"Lohmar Ort","phone":"+49 2246 3109","reservation":"yes","tents":"designated","website":"https://www.campingplatz-lohmar.de/"}},"14575874":{"location":[50.7736478,7.3234424],"ct":"DE","tp":"CS","ts":"2022-09-13T15:12:51Z","tX":532,"tY":343,"tags":{"name":"Siegtal Camping"}},"38114099":{"location":[50.8690952,7.2491606],"ct":"DE","tp":"CS","ts":"2021-04-11T00:01:47Z","tX":532,"tY":343,"tags":{"addr:city":"Lohmar","addr:housenumber":"27","addr:postcode":"53797","addr:street":"Höngesberg","name":"Campingplatz Heinz Jansen","website":"http://www.campingplatz-jansen.de"}},"93239693":{"location":[50.7483107,7.3049355],"ct":"DE","tp":"CR","ts":"2025-02-01T17:49:10Z","tX":532,"tY":343,"tags":{"caravans":"yes","fee":"yes","landuse":"residential","motorhome":"yes","name":"Camping im Rosental","static_caravans":"yes","tents":"yes"}},"103085320":{"location":[50.8589967,7.2150374],"ct":"DE","tp":"CS","ts":"2021-06-08T15:33:18Z","tX":532,"tY":343,"tags":{}},"103085330":{"location":[50.8578403,7.2147783],"ct":"DE","tp":"CS","ts":"2023-10-01T06:31:30Z","tX":532,"tY":343,"tags":{"description":"An der Autobahn bei einer Raststätte gelegen.","name":"Campingplatz Euelen","website":"https://www.campingplatz-euelen.de/"}},"103239748":{"location":[50.8612991,7.2127003],"ct":"DE","tp":"CS","ts":"2023-07-02T08:30:43Z","tX":532,"tY":343,"tags":{}},"103239751":{"location":[50.8660453,7.2057227],"ct":"DE","tp":"CS","ts":"2021-01-16T08:15:44Z","tX":532,"tY":343,"tags":{"addr:postcode":"53797","addr:street":"Helmgesmühle","name":"Camping Sülztal","website":"https://camping-lohmar.de/"}},"103239766":{"location":[50.8625888,7.2119346],"ct":"DE","tp":"CS","ts":"2021-01-16T09:03:29Z","tX":532,"tY":343,"tags":{"addr:postcode":"53797","addr:street":"Meigermühle","name":"Campingplatz Meigermühle","website":"https://www.camping-meigermuehle.de/"}},"109593347":{"location":[50.8998283,7.1908481],"ct":"DE","tp":"CS","ts":"2019-10-23T13:49:50Z","tX":532,"tY":343,"tags":{"name":"Campinggemeinschaft Rösrath 1973 e.V.","note":"Das scheint mir eher eine Laubenkolonie zu sein, aber kein Reisemobilstellplatz"}},"110354727":{"location":[50.9551983,7.2876118],"ct":"DE","tp":"CS","ts":"2024-07-12T07:43:16Z","tX":532,"tY":343,"tags":{"name":"Kleinbalken"}},"118521828":{"location":[50.9169359,7.2784091],"ct":"DE","tp":"CS","ts":"2023-11-02T12:40:09Z","tX":532,"tY":343,"tags":{"addr:city":"Overath","addr:housenumber":"14","addr:postcode":"51491","addr:street":"Broich","name":"Im Heidchen","website":"https://www.camping-im-bergischen.de/"}},"157469832":{"location":[50.9122931,7.3032534],"ct":"DE","tp":"CS","ts":"2023-05-05T13:10:45Z","tX":532,"tY":343,"tags":{"dog":"yes","name":"Camping Paul","website":"http://camping-paul.de/campingplatz/"}},"239042344":{"location":[50.8471072,7.3694242],"ct":"DE","tp":"CS","ts":"2024-07-12T20:45:43Z","tX":532,"tY":343,"tags":{"name":"Camping Krawinkel","website":"https://www.camping-krawinkel.com/"}},"251970026":{"location":[50.8919025,7.254635],"ct":"DE","tp":"CS","ts":"2023-10-01T07:04:38Z","tX":532,"tY":343,"tags":{"name":"Aggertal-Camping","website":"https://www.aggertal-camping.de"}},"491861207":{"location":[50.7736478,7.3232624],"ct":"DE","tp":"CS","ts":"2024-04-01T14:28:40Z","tX":532,"tY":343,"tags":{"addr:city":"Hennef (Sieg)","addr:country":"DE","addr:housenumber":"20","addr:postcode":"53773","addr:street":"Mahrberg","caravans":"yes","email":"kontakt@siegtalcamping.de","name":"Siegtal Camping","operator":"Familie Raderschadt","phone":"+49 2242 5234","shower":"yes","tents":"yes","website":"https://www.siegtal-camping.de/"}},"679140188":{"location":[50.9372807,7.2956075],"ct":"DE","tp":"CS","ts":"2020-09-21T12:45:15Z","tX":532,"tY":343,"tags":{"addr:city":"Overath","addr:housenumber":"33","addr:postcode":"51491","addr:street":"An der Ringmauer","contact:email":"info@camping-overath.de","contact:phone":"+49 2206 2226","name":"Campingplatz An der Ringmauer","operator":"Alfred Czekalla","website":"http://www.camping-overath.de/"}},"682096035":{"location":[50.7729291,7.3281713],"ct":"DE","tp":"CS","ts":"2024-08-19T11:06:36Z","tX":532,"tY":343,"tags":{"area":"yes","caravans":"yes","dog":"yes","name":"Siegpark-Hennef - Camping an der Sieg","permanent_camping":"yes","shower":"yes","tents":"yes","website":"http://www.siegpark-hennef.de"}},"842945021":{"location":[50.8704443,7.2505559],"ct":"DE","tp":"CS","ts":"2021-04-10T23:10:45Z","tX":532,"tY":343,"tags":{}},"1263811476":{"location":[50.786214,7.2820655],"ct":"DE","tp":"CR","ts":"2024-07-03T10:52:18Z","tX":532,"tY":343,"tags":{"addr:city":"Hennef (Sieg)","addr:postcode":"53773","addr:street":"Siegaue","capacity":"3","caravan_site":"motorhome_stopover","caravan_site:type":"town;river","caravans":"no","dog":"yes","fee":"no","internet_access":"no","maxstay":"24 hours","name":"Wohnmobilstellplatz Siegdamm","name:signed":"no","power_supply":"no","sanitary_dump_station":"no","tents":"no","toilets":"no","water_point":"no","website":"https://naturregion-sieg.de/poi/wohnmobilstellplatz-siegdamm"}},"1304728139":{"location":[50.8218601,7.1844195],"ct":"DE","tp":"CR","ts":"2024-07-30T21:20:15Z","tX":532,"tY":343,"tags":{"capacity":"2","caravan_site":"motorhome_stopover","caravan_site:type":"parking_lot;town","description:de":"2 explizit ausgewiesene Wohnmobilstellplätze","fee":"no","maxstay":"24 hours","name":"Standorte Aggerstadion Troisdorf","power_supply":"no","sanitary_dump_station":"no","shower":"no","surface":"paving_stones","toilets":"no","water_point":"no","website":"https://www.troisdorf.city/Unternehmen-Geschaefte-mehr/Rathaus-der-Stadt-Troisdorf/Aktuelles-Presse/Standorte-Elsenplatz-und-Aggerstadion-Kostenfreie-Stellplaetze"}},"12084000278":{"location":[50.8150674,7.1719225],"ct":"DE","tp":"CR","ts":"2024-07-30T21:20:15Z","tX":532,"tY":343,"tags":{"capacity":"1","caravan_site":"motorhome_stopover","caravan_site:type":"sports_centre;town","fee":"no","internet_access":"no","maxstay":"24 hours","name":"Elsenplatz Troisdorf","power_supply":"no","sanitary_dump_station":"no","tents":"no","website":"https://www.troisdorf.city/Unternehmen-Geschaefte-mehr/Rathaus-der-Stadt-Troisdorf/Aktuelles-Presse/Standorte-Elsenplatz-und-Aggerstadion-Kostenfreie-Stellplaetze"}},"12423606189":{"location":[50.9292859,7.2841602],"ct":"DE","tp":"CR","ts":"2024-12-23T09:15:47Z","tX":532,"tY":343,"tags":{"capacity":"2","caravan_site":"motorhome_stopover","caravan_site:type":"swimming_pool","charge":"5 EUR","check_in":"06:00-22:00","description":"sanitary dump station and waterpoint 1km away","fee":"yes","maxstay":"3 nights","name":"Wohnmobilstellplatz \"Badino\"","power_supply":"yes","power_supply:charge":"1 EUR/KWh","power_supply:fee":"yes","power_supply:maxcurrent":"16","sanitary_dump_station":"no","socket:cee_blue":"yes","water_point":"no","website":"https://www.badino-overath.de/service/caravan-stellplatz"}}}