{"2466337":{"location":[50.6623288,7.3812752],"ct":"DE","tp":"CS","ts":"2024-08-19T11:06:36Z","tX":532,"tY":344,"tags":{"addr:city":"Asbach","addr:country":"DE","addr:postcode":"53567","addr:street":"An der Holl","addr:suburb":"Germscheid","caravans":"yes","dog":"yes","email":"Weissenfels@campingplatz-asbach.de","name":"Campingplatz Germscheid","phone":"+49 2683 4652","shower":"yes","tents":"yes","website":"https://campingplatz-asbach.de/"}},"3230216":{"location":[50.605722,7.2398246],"ct":"DE","tp":"CS","ts":"2023-11-04T01:49:43Z","tX":532,"tY":344,"tags":{"name":"Gut Haanhof","website":"https://www.gut-haanhof.de/"}},"24920537":{"location":[50.5511995,7.2169508],"ct":"DE","tp":"CR","ts":"2024-03-30T18:46:54Z","tX":532,"tY":344,"tags":{"capacity":"12","charge":"6 EUR","check_date:opening_hours":"2022-05-11","fee":"yes","lit":"yes","name":"Wohnmobilhafen Sinzig-Bad Bodendorf Sportsplatz","note":"\"Aufgrund der Flutkatastrophe im Ahrtal sind die Wohnmobil – Stellplätze... geschlossen bzw. nicht befahrbar.\" (https://www.sinzig.de/tourismus-und-veranstaltungen/wohnmobilhafen/) -18feb23 Stehen möglich. Bezahlautomaten Ver & Entsorgung defekt","opening_hours":"closed","power_supply":"cee_17_blue","sanitary_dump_station":"yes","website":"https://www.sinzig.de/tourismus-und-veranstaltungen/wohnmobilhafen/","wheelchair":"yes"}},"25350449":{"location":[50.6200374,7.2152144],"ct":"DE","tp":"CS","ts":"2023-11-04T01:50:58Z","tX":532,"tY":344,"tags":{"email":"post@salmenfang.de","internet_access":"no","name":"Campingplatz Auf dem Salmenfang","opening_hours":"May-Oct 00:00-24:00,May-Oct PH 00:00-24:00","operator":"Angela Bertram","phone":"+49 163 2657797","power_supply":"yes","sanitary_dump_station":"customers","website":"https://www.salmenfang.de/","wheelchair":"yes"}},"26037471":{"location":[50.6279613,7.2331639],"ct":"DE","tp":"CS","ts":"2010-09-05T14:10:19Z","tX":532,"tY":344,"tags":{}},"30120706":{"location":[50.5391197,7.0950213],"ct":"DE","tp":"CR","ts":"2024-11-21T06:59:46Z","tX":532,"tY":344,"tags":{"addr:city":"Bad Neuenahr-Ahrweiler","addr:country":"DE","addr:housenumber":"1","addr:postcode":"53474","addr:street":"Kalvarienbergstraße","caravans":"yes","charge":"10 EUR","check_date":"2024-11-12","contact:facebook":"https://www.facebook.com/Campingplatz.Ahrweiler/","drinking_water":"no","email":"info@camping-ahrweiler.de","fee":"yes","name":"Campingplatz \"Am Ahrtor\"","operator":"Petra Schmitt","payment:cards":"no","payment:cash":"yes","payment:credit_cards":"no","payment:debit_cards":"no","phone":"+49 2641 26539","power_supply":"no","reservation":"no","sanitary_dump_station":"yes","shower":"no","tents":"no","toilets":"no","website":"http://www.camping-ahrweiler.de/"}},"37262353":{"location":[50.6542576,7.202297],"ct":"DE","tp":"CS","ts":"2023-09-23T17:32:11Z","tX":532,"tY":344,"tags":{"addr:city":"Bonn","addr:housenumber":"49","addr:postcode":"53179","addr:street":"Im Frankenkeller","caravans":"yes","contact:email":"info@campingplatz-genienau.de","contact:fax":"+49 228 3294989","contact:phone":"+49 228 344949","contact:website":"https://campingplatz-genienau.de","drinking_water":"yes","name":"Campingplatz Genienau","operator":"Michael Paul Burkat","power_supply":"yes","shower":"yes","tents":"yes","toilets":"yes"}},"47289215":{"location":[50.5764475,7.2522609],"ct":"DE","tp":"CS","ts":"2020-06-18T10:17:54Z","tX":532,"tY":344,"tags":{"addr:city":"Remagen","addr:country":"DE","addr:housenumber":"9-13","addr:postcode":"53424","addr:street":"Simrockweg","barrier":"fence","caravans":"yes","email":"info@camping-goldene-meile.de","name":"Goldene Meile","nudism":"no","opening_hours":"24/7","operator":"Campingplatz Goldene Meile GmbH & Co. KG","phone":"+49 2642 22222","reservation":"recommended","sanitary_dump_station":"yes","tents":"yes","website":"https://www.camping-goldene-meile.de","wheelchair":"yes"}},"91288088":{"location":[50.7081848,7.2656009],"ct":"DE","tp":"CS","ts":"2024-08-19T11:06:36Z","tX":532,"tY":344,"tags":{"addr:city":"Königswinter","addr:country":"DE","addr:housenumber":"37","addr:postcode":"53639","addr:street":"Theodor-Storm-Straße","addr:suburb":"Oberpleis","caravans":"yes","dog":"yes","email":"info@campingplatz-am-schwimmbad.de","name":"Camping im Siebengebirge","phone":"+49 2244 6418","shower":"yes","tents":"yes","toilets":"yes","website":"https://www.camping-im-siebengebirge.camp"}},"95856032":{"location":[50.6978046,7.3606338],"ct":"DE","tp":"CS","ts":"2024-12-09T18:53:04Z","tX":532,"tY":344,"tags":{"addr:city":"Buchholz","addr:country":"DE","addr:housenumber":"1","addr:postcode":"53567","addr:street":"Dammig","addr:suburb":"Dammig","caravans":"yes","email":"camping.hanfbachtal@t-online.de","name":"Camping- & Wochenendplatz Hanfbachtal","phone":"+49 2248 3345","shower":"yes","static_caravans":"yes","tents":"yes","website":"http://www.camping-hanfbachtal.de/"}},"108790115":{"location":[50.7193003,7.2875762],"ct":"DE","tp":"CS","ts":"2024-08-19T11:06:36Z","tX":532,"tY":344,"tags":{"addr:city":"Königswinter","addr:housenumber":"12","addr:postcode":"53639","addr:street":"Pleiserhohner Straße","addr:suburb":"Pleiserhohn","caravans":"yes","dog":"yes","email":"info@pleiser-camp.de","fax":"+49 2244 8762898","name":"Pleiser Camp","phone":"+49 2244 9047779","shower":"yes","tents":"yes","toilets":"yes","website":"http://www.pleiser-camp.de"}},"141653622":{"location":[50.6471577,7.2068988],"ct":"DE","tp":"CS","ts":"2023-09-13T05:22:49Z","tX":532,"tY":344,"tags":{"addr:postcode":"53424","name":"Rheincamping Siebengebirgsblick","website":"https://siebengebirgsblick.de/"}},"162780145":{"location":[50.7095718,7.1394828],"ct":"DE","tp":"CR","ts":"2023-10-11T09:26:51Z","tX":532,"tY":344,"tags":{"capacity":"14","fee":"no","internet_access":"no","name":"Rheinaue","power_supply":"no","tents":"no","toilets":"no"}},"186138953":{"location":[50.6211472,7.3402817],"ct":"DE","tp":"CS","ts":"2023-07-18T12:44:22Z","tX":532,"tY":344,"tags":{"contact:facebook":"https://www.facebook.com/BlauerSeeVettelschoss","name":"Freizeitpark Blauer See","wheelchair":"yes"}},"227993582":{"location":[50.62265,7.2277751],"ct":"DE","tp":"CR","ts":"2024-11-12T17:33:15Z","tX":532,"tY":344,"tags":{"addr:city":"Rheinbreitbach","addr:country":"DE","addr:postcode":"53619","addr:street":"Rolandsecker Weg","capacity":"14","charge":"10 EUR","contact:phone":"+49 2224 7796227","fee":"yes","internet_access":"no","name":"Wohnmobilstellplatz Siebengebirgsblick","operator":"Helmut Chrenko","panoramax":"71a2bdd4-2e68-4926-85df-acdc7f788220","permanent_camping":"no","power_supply":"yes","sanitary_dump_station":"yes","wheelchair":"yes"}},"437065568":{"location":[50.577157,7.2477254],"ct":"DE","tp":"CR","ts":"2023-12-04T23:22:36Z","tX":532,"tY":344,"tags":{"capacity":"30","charge":"EUR 15.00/night","charge:power_supply":"EUR 1.00/6 hours","email":"info@camping-goldene-meile.de","fee":"yes","maxstay":"5 days","name":"Wohnmobilhafen Goldene Meile","opening_hours":"24/7; Nov 01-Mar 15 off","phone":"+49 2642 22 222","power_supply":"yes","sanitary_dump_station":"yes","website":"https://www.camping-goldene-meile.de/CAMP_PAGES/womohafen.html","wikimedia_commons":"File:Wohnmobilstellplatz Goldene Meile, Remagen-090439.jpg"}},"443963313":{"location":[50.6790606,7.1942701],"ct":"DE","tp":"CR","ts":"2024-03-19T17:05:03Z","tX":532,"tY":344,"tags":{"addr:city":"Königswinter","addr:postcode":"53639","addr:street":"Ladestraße","capacity":"16","caravans":"no","dog":"yes","fee":"no","maxstay":"48 hours","name":"Wohnmobilstellplatz Bahnhof Königswinter","power_supply":"no","sanitary_dump_station":"no","stars":"1","surface":"gravel","tents":"no"}},"682096980":{"location":[50.6499089,7.2999216],"ct":"DE","tp":"CS","ts":"2024-08-19T11:06:36Z","tX":532,"tY":344,"tags":{"caravans":"yes","dog":"yes","drinking_water":"yes","email":"information@camping-jillieshof.de","internet_access":"wlan","internet_access:fee":"yes","name":"Campingplatz Jillieshof","phone":"+49 2224 972066","power_supply":"yes","reservation":"yes","sanitary_dump_station":"yes","shower":"yes","tents":"yes","toilets":"yes","website":"http://www.camping-jillieshof.de"}},"839040783":{"location":[50.5303701,7.0753916],"ct":"DE","tp":"CR","ts":"2024-12-05T16:55:24Z","tX":532,"tY":344,"tags":{"capacity":"4","caravan_site":"motorhome_stopover","caravan_site:type":"winery","fee":"no","name":"Vinetum Walporzheim","surface":"gravel"}},"938879101":{"location":[50.6975095,7.1760843],"ct":"DE","tp":"CR","ts":"2024-07-03T23:28:37Z","tX":532,"tY":344,"tags":{"addr:city":"Königswinter","addr:housenumber":"28","addr:postcode":"53639","addr:street":"Hauptstraße","capacity":"6","caravan_site":"motorhome_stopover","caravan_site:type":"town","caravans":"no","dog":"yes","fee":"no","internet_access":"no","maxstay":"24 hours","name":"Wohnmobilstellplatz Sportplatz Königswinter","name:signed":"no","note":"04/2021: Nutzung durch WoMo in best. Bereich im N, max. 24 h Parkscheibenpflicht. Südteil = PKW-Parkplatz, im NO Motorräder. Auf dem NRW-Orthofoto parkt große Zahl WoMos im PKW-Bereich","opening_hours":"24/7","power_supply":"no","reservation":"no","sanitary_dump_station":"no","stars":"2","tents":"no","toilets":"no","water_point":"no","wheelchair":"yes"}},"1216509906":{"location":[50.5623072,7.2799769],"ct":"DE","tp":"CR","ts":"2024-08-03T14:44:00Z","tX":532,"tY":344,"tags":{"capacity":"6","caravan_site":"motorhome_stopover","caravan_site:type":"town","fee":"no","maxstay":"3 days","name":"Wohnmobilstellplatz Linz am Rhein","power_supply":"no","sanitary_dump_station":"no","seasonal":"no","surface":"asphalt","water_point":"no"}},"1305516921":{"location":[50.5990738,7.2181641],"ct":"DE","tp":"CR","ts":"2024-12-05T01:12:28Z","tX":532,"tY":344,"tags":{"capacity":"15","caravan_site":"motorhome_stopover","caravan_site:type":"parking_lot","caravans":"yes","fee":"yes","motorhome":"yes","name":"Unkel Wohnmobilstellplatz","power_supply":"no","sanitary_dump_station":"yes","sanitary_dump_station:position":"at Schulstraße 6a","supervised":"no","surface":"fine_gravel","water_point":"yes","water_point:position":"at Schulstraße 6a","website":"https://www.unkel-kulturstadt.de/unkel/Reiseinformationen/Parken/"}},"1336404210":{"location":[50.5341811,7.0484213],"ct":"DE","tp":"CR","ts":"2024-12-18T15:40:03Z","tX":532,"tY":344,"tags":{"caravan_site":"motorhome_stopover","caravan_site:type":"river","caravans":"yes","charge":"19 EUR","check_date":"2024-11-12","dog:charge":"1 EUR","fee":"yes","fixme":"exact position and size","name":"Campingplatz Dernau","note":"temporarily closed","operator":"Familie Fuhrmann, Ahrweg 2","phone":"+49 26438517","tents":"yes","website":"http://www.camping-dernau.de/"}},"1756760321":{"location":[50.5407811,7.1099861],"ct":"DE","tp":"CR","ts":"2025-01-03T17:58:59Z","tX":532,"tY":344,"tags":{"addr:city":"Bad Neuenahr-Ahrweiler","addr:postcode":"53474","addr:street":"St.-Pius-Straße","addr:suburb":"Bachem","charge":"8 EUR","drinking_water":"no","fee":"yes","fixme":"Gem. der städt. Website ist der Stellplatz verfügbar, allerdings möglicherweise nicht aktuell. Kann jemand vor Ort bestätigen, dass der Stellplatz wieder verfügbar ist?","internet_access":"no","name":"Wohnmobil-Hafen","phone":"+49 2641 87 100","power_supply":"no","sanitary_dump_station":"no","toilets":"no","website":"https://www.bad-neuenahr-ahrweiler.de/camping/detail/1950-Wohnmobilstellplatz-Bachem/","wheelchair":"yes"}},"2366173909":{"location":[50.6225858,7.2275029],"ct":"DE","tp":"SD","ts":"2024-11-12T17:33:15Z","tX":532,"tY":344,"tags":{"access":"yes","charge":"3 EUR","fee":"yes","panoramax:0":"2075a20e-ec93-4422-95d0-bc24303f7a47","sanitary_dump_station:accepted":"black_water;grey_water;tank_chemicals","sanitary_dump_station:chemical_toilet":"yes","sanitary_dump_station:grey_water":"yes","water_point":"yes"}},"3124374127":{"location":[50.5981833,7.2188653],"ct":"DE","tp":"SD","ts":"2024-08-04T13:25:13Z","tX":532,"tY":344,"tags":{"operator":"Stadt Unkel","sanitary_dump_station:accepted":"black_water;tank_chemicals"}},"3299949083":{"location":[50.5491662,7.2181944],"ct":"DE","tp":"CR","ts":"2024-03-30T18:46:54Z","tX":532,"tY":344,"tags":{"capacity":"18","charge":"6 EUR","check_date:opening_hours":"2022-05-11","description":"\"Aufgrund der Flutkatastrophe im Ahrtal sind die Wohnmobil – Stellplätze... geschlossen bzw. nicht befahrbar.\" (https://www.sinzig.de/tourismus-und-veranstaltungen/wohnmobilhafen/) -18feb23 Stehen möglich. Bezahlautomaten Ver & Entsorgung defekt","fee":"yes","name":"Wohnmobilhafen Sinzig-Bad Bodendorf Thermalfreibad","opening_hours":"closed","power_supply":"yes","website":"https://www.sinzig.de/tourismus-und-veranstaltungen/wohnmobilhafen/"}},"8812730879":{"location":[50.643449,7.2066276],"ct":"DE","tp":"CS","ts":"2021-06-08T05:47:48Z","tX":532,"tY":344,"tags":{"backcountry":"yes","capacity":"4","description:de":"2x2 Pritschen & wasserdichter Marquise zum Übernachten. Mitbenutzung Sanitär Campingplatzes nördlich gegen Gebühr. Dort oder im Arp-Museum Schlüssel erhätlich.","fee":"no","internet_access":"no","name":"Rheinschlafen","nudism":"no","sanitary_dump_station":"no","wheelchair":"yes"}},"4348993825":{"location":[50.5766473,7.2476573],"ct":"DE","tp":"SD","ts":"2018-07-24T09:27:44Z","tX":532,"tY":344,"tags":{"access":"customers","fee":"no","sanitary_dump_station:basin":"yes","sanitary_dump_station:round_drain":"yes"}},"10559859763":{"location":[50.6506104,7.3016108],"ct":"DE","tp":"SD","ts":"2023-01-16T17:01:16Z","tX":532,"tY":344,"tags":{}}}