{"3665384":{"location":[50.5090759,7.3091152],"ct":"DE","tp":"CS","ts":"2022-11-12T11:32:00Z","tX":532,"tY":345,"tags":{"email":"info@wellness-rheinpark-camping.de","name":"Wellness-Rheinpark-Camping","phone":"+49 2635 952114","website":"https://www.wellness-rheinpark-camping.de/"}},"39365066":{"location":[50.3765753,7.2842555],"ct":"DE","tp":"CR","ts":"2024-08-05T14:02:41Z","tX":532,"tY":345,"tags":{"capacity:disabled":"no","capacity:parent":"no","capacity:women":"no","caravan_site":"motorhome_stopover","caravan_site:type":"parking_lot","caravans":"no","charge":"5 EUR","description":"Kombinierter PKW-Parkplatz und Wohnmobil-Stellplatz","fee":"yes","internet_access":"no","maxstay":"72 hours","name":"Wohnmobilstellplatz Brauerstraße Mendig","park_ride":"no","parking":"surface","power_supply":"yes","sanitary_dump_station":"yes","surface":"gravel","water_point":"yes"}},"56298817":{"location":[50.4226566,7.2690801],"ct":"DE","tp":"CS","ts":"2021-07-07T19:17:40Z","tX":532,"tY":345,"tags":{"caravans":"yes","email":"info@camping-laacher-see.com","fax":"+49 2636 929750","fee":"yes","internet_access":"wlan","internet_access:fee":"yes","motor_vehicle":"designated","name":"Camping Laacher See","phone":"+49 2636 2485","surface":"grass","tents":"yes","toilets":"yes","website":"http://www.camping-laacher-see.com"}},"73024583":{"location":[50.3880427,7.2708389],"ct":"DE","tp":"CS","ts":"2024-12-29T11:29:50Z","tX":532,"tY":345,"tags":{"addr:city":"Mendig","addr:housenumber":"6a","addr:postcode":"56743","addr:street":"Laacher-See-Straße","caravans":"yes","description":"Zufahrt über Mitfahrerparkplatz an Autobahn A61, Abfahrt Nr. 34, \"MENDIG/MAYEN\". Der Parkplatz liegt an der L113 in Richtung Maria Laach, ca. 25 m nach der BAB-Auffahrt in Richtung Köln. Mehr auf https://www.campingsiesta.de","email":"info@campingsiesta.de","name":"Siesta Campingplatz","operator":"Walter Böhler","phone":"+49 2652 1432","tents":"yes","website":"https://www.campingsiesta.de/","wheelchair":"limited"}},"88862765":{"location":[50.4615209,7.3671153],"ct":"DE","tp":"CS","ts":"2024-12-22T13:21:28Z","tX":532,"tY":345,"tags":{"caravans":"yes","drinking_water":"yes","name":"Campingplatz Leutesdorf","power_supply":"yes","shower":"yes","tents":"yes","website":"https://www.camping-leutesdorf.de/"}},"110263082":{"location":[50.4914356,7.3075313],"ct":"DE","tp":"CS","ts":"2023-02-06T11:26:49Z","tX":532,"tY":345,"tags":{"access":"customers","addr:city":"Bad Breisig","addr:postcode":"53498","contact:facebook":"https://www.facebook.com/Camping-Rheineck-844050452388263","email":"office@camping-rheineck.de","fax":"+49 2633 472008","fee":"yes","name":"Camping Rheineck","operator":"Davith, Jürgen und Dorothee Nosch GbR","phone":"+49 2633 95645","power_supply":"yes","reservation":"yes","toilets":"yes","washing_machine":"yes","website":"http://www.camping-rheineck.de"}},"127414094":{"location":[50.4556135,7.1764636],"ct":"DE","tp":"CS","ts":"2025-01-03T13:04:16Z","tX":532,"tY":345,"tags":{"caravans":"yes","email":"info@leyenwiese.com","fee":"yes","name":"Leyenwiese","operator":"Peter Blei","power_supply":"yes","ref:vatin":"DE147907942","static_caravans":"yes","website":"http://www.leyenwiese.com"}},"169996912":{"location":[50.3821275,7.1176372],"ct":"DE","tp":"CS","ts":"2024-09-08T15:08:14Z","tX":532,"tY":345,"tags":{"name":"Falkenleymühle"}},"321986314":{"location":[50.3925903,7.2651655],"ct":"DE","tp":"CS","ts":"2024-09-22T10:28:23Z","tX":532,"tY":345,"tags":{"addr:city":"Mendig","addr:housenumber":"17","addr:postcode":"56743","addr:street":"Laacher-See-Straße","caravans":"no","fee":"yes","motor_vehicle":"no","name":"Zeltwiese Laacherseehaus","operator":"Naturfreundehaus Laacherseehaus","phone":"+49 26524777","surface":"grass","tents":"yes","toilets":"yes","website":"http://www.naturfreundehaus-laacherseehaus.de/"}},"399096895":{"location":[50.4070704,7.3316399],"ct":"DE","tp":"CR","ts":"2016-02-21T19:26:38Z","tX":532,"tY":345,"tags":{"name":"Baggerado"}},"407730852":{"location":[50.3062557,7.3104222],"ct":"DE","tp":"CR","ts":"2025-01-31T14:17:03Z","tX":532,"tY":345,"tags":{"capacity":"12","caravan_site:type":"motorhome_shop","fee":"no","name":"Niesmann+Bischoff","operator":"Niesmann + Bischoff","power_supply":"yes","power_supply:fee":"yes","sanitary_dump_station":"yes","surface":"paving_stones","toilets:wheelchair":"no","water_point":"yes","water_point:fee":"yes","wheelchair":"limited"}},"450065581":{"location":[50.356276,7.0969287],"ct":"DE","tp":"CS","ts":"2024-06-21T09:22:28Z","tX":532,"tY":345,"tags":{"capacity":"100","caravans":"no","fee":"yes","group_only":"yes","name":"Jugendzeltplatz St. Jost","operator":"Stiftsberg Dienstleistungen","tents":"yes"}},"694093526":{"location":[50.3073404,7.3092202],"ct":"DE","tp":"CR","ts":"2019-06-02T15:59:28Z","tX":532,"tY":345,"tags":{"name":"Niesmann+Bischoff für Fahrzeuge mit Service-Termin","power_supply":"yes"}},"1234628949":{"location":[50.4612257,7.3673948],"ct":"DE","tp":"CR","ts":"2014-04-08T20:17:17Z","tX":532,"tY":345,"tags":{}},"1375704608":{"location":[50.3224034,7.2284327],"ct":"DE","tp":"CR","ts":"2024-08-05T13:45:28Z","tX":532,"tY":345,"tags":{"capacity":"6","caravan_site":"motorhome_stopover","caravan_site:type":"town","charge":"6.50 EUR","fee":"yes","name":"Reisemobilstellplatz am Viehmarkt Mayen","power_supply":"no","sanitary_dump_station":"yes","source":"local knowledge","water_point":"yes","website":"https://www.eifel.info/a-wohnmobilstellplatz-polcher-strasse","wheelchair":"yes"}},"2781932711":{"location":[50.2974628,7.1538196],"ct":"DE","tp":"CR","ts":"2020-03-05T20:05:55Z","tX":532,"tY":345,"tags":{"addr:city":"Monreal","addr:country":"DE","addr:postcode":"56729","addr:street":"Am Bahnhof","name":"Monreal, am Bahnhof","power_supply":"no","sanitary_dump_station":"no"}},"12202876051":{"location":[50.4536168,7.2037171],"ct":"DE","tp":"CR","ts":"2024-09-26T23:38:22Z","tX":532,"tY":345,"tags":{"addr:city":"Oberzissen","addr:housenumber":"20","addr:postcode":"56651","addr:street":"Im Bröhl","charge":"5 EUR","description":"Preis pro Nacht: 5 Euro\nBezahlung: Parkscheinautomat (nur Münzen)\nWLAN, Hunde im Übernachtungspreis enthalten.\nStrom: 5 Euro/24 Std.\nWasser: 1 Cent/1 Ltr\nMaximaler Aufenthalt: 1 Nacht\nAnzahl der Stellplätze: 6 Stück, teils schattig","fee":"yes","internet_access":"yes","internet_access:fee":"yes","name":"Wohnmobilstellplatz Oberzissen","opening_hours":"24/7","payment:coins":"yes","phone":"+49 2636 800777","power_supply":"yes","start_date":"2023-04-03","website":"https://www.vulkanregion-laacher-see.de/a-wohnmobilstellplatz-oberzissen"}},"11268979427":{"location":[50.3062339,7.311856],"ct":"DE","tp":"SD","ts":"2023-10-17T11:00:13Z","tX":532,"tY":345,"tags":{"sanitary_dump_station:chemical_toilet":"yes","sanitary_dump_station:grey_water":"yes","water_point":"yes"}},"12093546947":{"location":[50.3766197,7.2840576],"ct":"DE","tp":"SD","ts":"2024-08-05T14:02:41Z","tX":532,"tY":345,"tags":{"access":"yes","fee":"no"}},"12431146878":{"location":[50.4599382,7.3730908],"ct":"DE","tp":"CR","ts":"2024-12-18T16:21:27Z","tX":532,"tY":345,"tags":{"caravan_site":"motorhome_stopover","caravan_site:type":"winery","email":"info@weingut-hohn.de","fee":"no","name":"Peter Hohn","phone":"+49 2631 71 817","surface":"grass","website":"https://www.weingut-hohn.de/"}}}