{"7929507":{"location":[50.1885268,7.1574807],"ct":"DE","tp":"CS","ts":"2019-03-08T08:07:58Z","tX":532,"tY":346,"tags":{"addr:city":"Landkern","addr:country":"DE","addr:housenumber":"2","addr:postcode":"56814","addr:street":"Hauptstraße","email":"info@campingplatz-landkern.de","fax":"+49 2671 8722","name":"Altes Forsthaus Camping","phone":"+49 2671 8701","website":"https://www.campingplatz-landkern.de/"}},"25357802":{"location":[50.1606999,7.1802071],"ct":"DE","tp":"CR","ts":"2024-12-17T16:13:41Z","tX":532,"tY":346,"tags":{"caravan_site":"motorhome_stopover","caravan_site:type":"river","description":"services at camp site","fee":"yes","maxstay":"24 hours","name":"Wohnmobilstellplatz Cochem Stadionstraße","power_supply":"no","surface":"gravel"}},"29702188":{"location":[50.14261,7.2322847],"ct":"DE","tp":"CR","ts":"2024-12-17T15:49:45Z","tX":532,"tY":346,"tags":{"addr:city":"Ernst","addr:country":"DE","addr:housenumber":"106","addr:postcode":"56814","addr:street":"Weingartenstraße","capacity":"50","caravan_site":"motorhome_stopover","caravan_site:type":"winery","charge":"12 EUR","email":"weintreff-ernst@moselland.de","fee":"yes","name":"Wohnmobilstellplatz „Im Weinberg“","note":"Anmeldung vor Ort Vinothek Ernst","operator":"Moselland eG Weingenossenschaft","phone":"+49 2671 7561","power_supply":"yes","power_supply:fee":"yes","website":"http://www.weintreff-ernst.de"}},"39833206":{"location":[50.0845645,7.2068911],"ct":"DE","tp":"CS","ts":"2024-09-25T14:10:10Z","tX":532,"tY":346,"tags":{"addr:city":"Senheim","addr:country":"DE","addr:housenumber":"1","addr:postcode":"56820","addr:street":"Am Campingplatz","caravans":"yes","drinking_water":"yes","email":"info@moselcamping.com","name":"Holländischer Hof","phone":"+49 2673 4660","seasonal":"yes","shower":"yes","tents":"yes","website":"https://www.moselcamping.com/"}},"95253028":{"location":[50.2045418,7.3805898],"ct":"DE","tp":"CS","ts":"2023-01-06T14:41:05Z","tX":532,"tY":346,"tags":{"name":"KNAUS Campingpark Mosel/Burgen + Marina \"Laguna\"","seasonal":"yes","website":"https://www.knauscamp.de/mosel-burgen.html"}},"110884582":{"location":[50.1896474,7.3673508],"ct":"DE","tp":"CS","ts":"2023-01-06T14:41:05Z","tX":532,"tY":346,"tags":{"addr:housenumber":"39","addr:street":"Moselstraße","contact:email":"mail@camping-burg-eltz.de","contact:fax":"+49 2672 9135861","contact:mobile":"+49 177 7840979","contact:phone":"+49 2672 9135861","contact:website":"http://nollen.123webs.de/","name":"Camping zur Burg Eltz","seasonal":"yes","source":"http://nollen.123webs.de/","source:date":"2019-05-27","wheelchair":"yes"}},"115490149":{"location":[50.1009083,7.1939249],"ct":"DE","tp":"CS","ts":"2024-08-13T14:37:16Z","tX":532,"tY":346,"tags":{"addr:city":"Mesenich","addr:country":"DE","addr:housenumber":"25","addr:postcode":"56820","addr:street":"Wiesenweg","caravans":"yes","drinking_water":"yes","email":"info@familycamping.de","name":"Family Camping","phone":"+49 2673 4556","power_supply":"yes","sanitary_dump_station":"yes","seasonal":"yes","shower":"yes","tents":"yes","toilets":"yes","website":"https://www.familycamping.de/"}},"124043335":{"location":[50.1704386,7.290477],"ct":"DE","tp":"CS","ts":"2024-08-09T11:56:17Z","tX":532,"tY":346,"tags":{"name":"Mosel-Islands","seasonal":"yes","website":"https://www.mosel-islands.de/"}},"125139056":{"location":[50.0804393,7.1953307],"ct":"DE","tp":"CS","ts":"2024-05-13T17:39:59Z","tX":532,"tY":346,"tags":{"addr:city":"Nehren","addr:housenumber":"1","addr:postcode":"56820","addr:street":"Moselufer","email":"info@campingplatz-nehren.de","fax":"+49 2673 962825","internet_access":"wlan","internet_access:fee":"yes","name":"Campingplatz Nehren","operator":"Bastian Knoll und Sebastian Pätz","phone":"+49 2673 9621155","seasonal":"yes","source":"http://www.campingplatz-nehren.de/","source:date":"2015-10-08","website":"http://www.campingplatz-nehren.de/","wheelchair":"yes"}},"127222180":{"location":[50.1516139,7.154351],"ct":"DE","tp":"CS","ts":"2023-01-05T12:51:43Z","tX":532,"tY":346,"tags":{"name":"Campingplatz Schausten","seasonal":"yes","website":"https://www.camping-cochem.de/"}},"127678838":{"location":[50.095747,7.1362639],"ct":"DE","tp":"CR","ts":"2025-01-30T17:37:28Z","tX":532,"tY":346,"tags":{"capacity":"100","caravan_site":"motorhome_stopover","caravan_site:type":"river","charge":"12 EUR","description":"Wein- und Heimatfest 3 .weekend Aug, Straßenweinfest 4. weekend Sep","fee":"yes","name":"Wohnmobilstellplatz \"Zum Frauenberg\"","power_supply":"yes","power_supply:charge":"3 EUR","power_supply:fee":"yes","power_supply:maxcurrent":"10","sanitary_dump_station":"yes","seasonal":"yes","website":"https://www.neefmosel.de/index.php/urlaub-freizeit/wohnmobilstellplatz","wheelchair":"yes"}},"127885948":{"location":[50.1588421,7.1757488],"ct":"DE","tp":"CS","ts":"2024-05-14T12:42:24Z","tX":532,"tY":346,"tags":{"addr:city":"Cochem","addr:country":"DE","addr:postcode":"56812","addr:street":"Stadionstraße","email":"info@campingplatz-cochem.de","name":"Mosel Camping Cochem","phone":"+49 2671 4409","seasonal":"yes","website":"https://mosel-camping-cochem.de/","wheelchair":"yes"}},"183531258":{"location":[50.1325243,7.2298444],"ct":"DE","tp":"CS","ts":"2024-05-17T22:50:40Z","tX":532,"tY":346,"tags":{"addr:city":"Bruttig-Fankel","addr:country":"DE","addr:postcode":"56814","addr:street":"Am Moselufer","name":"Campingplatz Bruttig","phone":"+492671915429","seasonal":"yes","website":"https://campingplatz-bruttig.de/"}},"184439499":{"location":[50.1428796,7.213604],"ct":"DE","tp":"CR","ts":"2021-06-14T15:44:01Z","tX":532,"tY":346,"tags":{"fee":"interval","name":"Stellplatz Valwig","smoking":"yes","wheelchair":"yes"}},"208764062":{"location":[50.1685115,7.2654463],"ct":"DE","tp":"CS","ts":"2023-10-03T13:42:52Z","tX":532,"tY":346,"tags":{"addr:city":"Pommern","addr:housenumber":"12","addr:postcode":"56829","addr:street":"Moselweinstraße","caravans":"yes","drinking_water":"yes","email":"CampingPommern@netscape.net","fax":"+49 2672 912173","name":"Pommernland","opening_hours":"Mar 28-Oct 31","phone":"+49 2672 2461","shower":"yes","source":"http://www.campingplatz-pommern.de/","source:date":"2015-10-08","tents":"yes","toilets":"yes","website":"http://www.campingplatz-pommern.de/"}},"209205382":{"location":[50.0991521,7.1439376],"ct":"DE","tp":"CR","ts":"2024-12-17T15:21:28Z","tX":532,"tY":346,"tags":{"capacity":"15","caravan_site":"motorhome_stopover","caravan_site:type":"river","charge":"8.50 EUR","fee":"yes","name":"Wohnmobilsplatz Eller","operator":"Gemeinde Ediger-Eller","power_supply":"no","reservation":"no","sanitary_dump_station:gravity":"no","water_point":"no","website":"https://www.ediger-eller.de/cms-unterkunft-1-109/wohnmobilstellplatz/wohnmobilstellplatz.html.html","wheelchair":"yes"}},"209210021":{"location":[50.0907992,7.1642316],"ct":"DE","tp":"CS","ts":"2025-05-29T21:03:42Z","tX":532,"tY":346,"tags":{"addr:city":"Ediger-Eller","addr:country":"DE","addr:postcode":"56814","caravans":"yes","drinking_water":"yes","email":"info@zum-feuerberg.de","fee":"yes","name":"Zum Feuerberg","opening_hours":"Apr-Oct Mo-Su 10:00-17:30, 18:30-19:30","operator":"Barbara Bielous","phone":"+49 2675 - 701","power_supply":"yes","shower":"yes","swimming_pool":"yes","tents":"yes","toilets":"yes","website":"http://www.zum-feuerberg.de"}},"209406660":{"location":[50.1091014,7.2343552],"ct":"DE","tp":"CS","ts":"2021-04-14T18:39:27Z","tX":532,"tY":346,"tags":{"addr:city":"Ellenz-Poltersdorf","addr:postcode":"56821","addr:street":"Moselweinstraße","name":"Happy Holiday","phone":"+49 2673 1272","website":"http://www.camping-happy-holiday.de/"}},"255424371":{"location":[50.1432474,7.2316034],"ct":"DE","tp":"CR","ts":"2024-12-17T15:49:45Z","tX":532,"tY":346,"tags":{"caravan_site":"motorhome_stopover","caravan_site:type":"restaurant","charge":"18 EUR","fee":"yes","name":"Wohnmobilstellplatz Mosella","operator":"Schinkenstube Mosella","power_supply":"yes","power_supply:fee":"yes","reservation":"no","sanitary_dump_station":"yes","seasonal":"yes","water_point":"yes","water_point:fee":"no","website":"https://www.mosella-schinkenstube.de/camping/"}},"319558447":{"location":[50.1130516,7.2345892],"ct":"DE","tp":"CR","ts":"2024-08-09T11:29:15Z","tX":532,"tY":346,"tags":{"addr:city":"Ellenz-Poltersdorf","addr:housenumber":"4","addr:postcode":"56821","addr:street":"Im Goldbäumchen","caravan_site":"motorhome_stopover","caravan_site:type":"winery","contact:phone":"+49 2673 962340","fee":"yes","name":"Ferienweingut Loosen","power_supply":"yes","shower":"yes","toilets":"yes","website":"https://www.goldbaeumchen-loosen.de/wohnmobil-stellplatz"}},"353221281":{"location":[50.095472,7.1236309],"ct":"DE","tp":"CR","ts":"2024-06-09T15:51:19Z","tX":532,"tY":346,"tags":{"addr:city":"Bremm","addr:country":"DE","addr:housenumber":"96","addr:postcode":"56814","addr:street":"Calmontstraße","capacity":"16","caravan_site":"motorhome_stopover","caravan_site:type":"winery","charge":"19 EUR","contact:email":"info@oster-franzen.de","contact:fax":"+49 2675 1626","contact:phone":"+49 2675 1018","contact:website":"https://www.oster-franzen.de/wohnmobil-stellplatz/","dog":"yes","dog:charge":"1 EUR","dog:fee":"yes","fee":"yes","internet_access":"wlan","internet_access:fee":"no","name":"Stellplatz Weingut Oster-Franzen","operator":"Oster-Franzen GbR","power_supply":"yes","sanitary_dump_station:chemical_toilet":"yes","sanitary_dump_station:grey_water":"yes","seasonal":"yes","shower":"yes","toilets":"yes","water_point":"yes"}},"354613001":{"location":[50.0928381,7.1601194],"ct":"DE","tp":"CR","ts":"2025-05-30T06:34:04Z","tX":532,"tY":346,"tags":{"capacity":"15","caravan_site":"motorhome_stopover","caravan_site:type":"river","charge":"9.50 EUR","drinking_water":"yes","fee":"yes","internet_access":"wlan","internet_access:fee":"no","name":"Wohnmobilsplatz Ediger","power_supply":"yes","power_supply:charge":"3 EUR","power_supply:fee":"yes","toilets":"no","website":"https://www.ediger-eller.de/cms-unterkunft-1-109/wohnmobilstellplatz/wohnmobilstellplatz.html.html"}},"416885074":{"location":[50.1538757,7.168477],"ct":"DE","tp":"CR","ts":"2025-02-08T15:24:54Z","tX":532,"tY":346,"tags":{"addr:city":"Cochem","addr:country":"DE","addr:postcode":"56812","addr:street":"Moselstraße","caravan_site":"motorhome_stopover","caravan_site:type":"river","fee":"yes","fee:conditional":"no @ (19:00-08:00)","name":"Wohnmobilstellplatz Cochem - Moselstraße","power_supply":"no","sanitary_dump_station":"no","toilets":"no","water_point":"no"}},"425833300":{"location":[50.1045908,7.3374424],"ct":"DE","tp":"PK","ts":"2022-05-25T10:27:46Z","tX":532,"tY":346,"tags":{"access":"yes","caravan":"yes","charge":"Mo-Su 07:00-21:00: 2 EUR/2 Stunden, maximal 16 Euro","fee":"yes","lit":"no","name":"In der Breitwies","name:de":"In der Breitwies, bei Hängebrücke","opening_hours":"24/7","operator":"Gemeinde Mörsdorf","parking":"surface","ref":"P2","smoothness":"intermediate","supervised":"no","surface":"gravel"}},"433128238":{"location":[50.0797547,7.1309935],"ct":"DE","tp":"CR","ts":"2025-02-02T14:06:25Z","tX":532,"tY":346,"tags":{"capacity":"60","caravan_site":"motorhome_stopover","caravan_site:type":"river","charge":"12 EUR","fee":"yes","name":"St. Aldegund","power_supply:capacity":"36","power_supply:charge":"3 EUR/day","power_supply:fee":"yes","reservation":"no","sanitary_dump_station":"yes","sanitary_dump_station:fee":"no","water_point":"yes","water_point:fee":"no","website":"https://www.st-aldegund.de/gastinfo/wohn/wohnmobil.html","wheelchair":"yes"}},"474378082":{"location":[50.1691752,7.1628863],"ct":"DE","tp":"CS","ts":"2019-08-25T10:10:56Z","tX":532,"tY":346,"tags":{"caravans":"no","email":"jochen.seibert@georgspfadfinder.de; wilfried.johann@georgspfadfinder.de","group_only":"yes","name":"Jugendzeltplatz Cochem-Klotten","tents":"yes","website":"https://zeltplatz-klotten.de/"}},"498884843":{"location":[50.0691994,7.0386356],"ct":"DE","tp":"CR","ts":"2025-04-16T08:28:06Z","tX":532,"tY":346,"tags":{"access":"yes","capacity":"4","caravan_site":"motorhome_stopover","caravan_site:type":"village","dog":"yes","fee":"yes","name":"Wohnmobilstellplatz Bad Bertrich","parking":"surface","phone":"+492674932222","power_supply":"yes","sanitary_dump_station":"yes","shower":"no","smoothness":"excellent","surface":"sett","toilets":"yes","water_point":"yes","website":"https://www.eifel.info/a-wohnmobilstellplatz-bad-bertrich"}},"501765332":{"location":[50.0942167,7.1380909],"ct":"DE","tp":"SD","ts":"2017-06-19T17:08:45Z","tX":532,"tY":346,"tags":{"building":"yes"}},"555300809":{"location":[50.187054,7.1591659],"ct":"DE","tp":"CS","ts":"2018-01-23T22:07:51Z","tX":532,"tY":346,"tags":{}},"563924229":{"location":[50.15941,7.1424969],"ct":"DE","tp":"CS","ts":"2019-12-03T13:03:14Z","tX":532,"tY":346,"tags":{"name":"Zur Winneburg"}},"650049773":{"location":[50.0703278,7.0386454],"ct":"DE","tp":"CR","ts":"2025-04-16T08:28:06Z","tX":532,"tY":346,"tags":{"capacity":"4","fee":"yes","name":"Wohnmobilstellplatz Bad Bertrich","phone":"+49 2674 932222","power_supply":"yes","sanitary_dump_station":"yes","shower":"no","surface":"gravel","toilets":"yes","water_point":"yes","website":"https://www.eifel.info/a-wohnmobilstellplatz-bad-bertrich"}},"841358916":{"location":[50.142585,7.2327885],"ct":"DE","tp":"CR","ts":"2020-09-02T14:21:07Z","tX":532,"tY":346,"tags":{}},"929873632":{"location":[50.1095097,7.2349529],"ct":"DE","tp":"CS","ts":"2021-04-12T22:05:33Z","tX":532,"tY":346,"tags":{}},"1265837300":{"location":[50.112012,7.2081852],"ct":"DE","tp":"CR","ts":"2024-12-20T09:25:30Z","tX":532,"tY":346,"tags":{"caravan_site":"motorhome_stopover","caravan_site:type":"river","charge":"8 EUR","designation":"Am Moselufer","drinking_water":"yes","fee":"yes","name":"Wohnmobilstellplatz Briedern","power_supply":"no","sanitary_dump_station":"yes","sanitary_dump_station:chemical_toilet":"yes","sanitary_dump_station:grey_water":"yes","toilets":"no","water_point":"yes","water_point:fee":"yes","website":"https://www.briedern.de/verzeichnis/visitenkarte.php?mandat=185753","wheelchair":"limited"}},"1284257257":{"location":[50.1291321,7.2278005],"ct":"DE","tp":"CR","ts":"2024-06-03T22:25:11Z","tX":532,"tY":346,"tags":{"caravan_site":"motorhome_stopover","caravan_site:type":"river","charge":"8 EUR","fee":"yes","name":"Wohnmobilstellplatz Bruttig-Fankel","opening_hours":"Apr-Oct","power_supply":"no","sanitary_dump_station":"no","seasonal":"yes","water_point":"no","website":"https://www.bruttig-fankel.de/tourismus/wohnmobil-stellplatz"}},"1343532791":{"location":[50.1847667,7.3359144],"ct":"DE","tp":"CR","ts":"2024-12-18T17:06:32Z","tX":532,"tY":346,"tags":{"caravan_site":"motorhome_stopover","caravan_site:type":"river","charge":"6 EUR","fee":"no","name":"Festplatz Müden (Mosel)","picnic_table":"yes","website":"https://www.mueden-mosel.de/seite/672486/wohnmobile.html"}},"1674801024":{"location":[50.0821441,7.2073048],"ct":"DE","tp":"CR","ts":"2021-03-04T21:52:01Z","tX":532,"tY":346,"tags":{"name":"Holländischer Hof"}},"7855050290":{"location":[50.1986396,7.3387396],"ct":"DE","tp":"CR","ts":"2025-06-17T19:27:03Z","tX":532,"tY":346,"tags":{"caravan_site":"motorhome_stopover","caravan_site:type":"hiking","charge":"6 EUR","fee":"yes","maxstay":"24 hours","name":"Wanderparkplatz Müdener Berg","power_supply":"no","sanitary_dump_station":"no","surface":"gravel","toilets":"no","water_point":"no"}},"9898412885":{"location":[50.2328241,7.140574],"ct":"DE","tp":"CR","ts":"2024-07-03T19:40:07Z","tX":532,"tY":346,"tags":{"capacity":"3","caravan_site":"motorhome_stopover","caravan_site:type":"parking_lot","drinking_water":"no","fee":"no","internet_access":"no","name":"Wohnmobilstellplatz Kaisersesch","name:signed":"no","power_supply":"yes","reservation":"no","sanitary_dump_station":"no","surface":"paving_stones","toilets":"no","website":"https://www.schieferland-kaisersesch.de/images/b5jerpd29bo-/wohnmobilstellplatz-kaisersesch.webp","wheelchair":"yes"}},"10858218394":{"location":[50.2456502,7.3680841],"ct":"DE","tp":"CR","ts":"2024-08-03T14:20:37Z","tX":532,"tY":346,"tags":{"addr:housenumber":"6","addr:postcode":"56294","addr:street":"An den Gärten","capacity":"2","caravan_site":"motorhome_stopover","caravan_site:type":"town","fee":"no","name":"Wohnmobilstellplatz Stadthalle Münstermaifeld","power_supply":"no","reservation":"no","sanitary_dump_station":"no","water_point":"no","website":"https://www.muenstermaifeld.de/wohnmobil"}},"10858228155":{"location":[50.1470533,7.0844639],"ct":"DE","tp":"CR","ts":"2023-05-01T16:48:32Z","tX":532,"tY":346,"tags":{"description":"keine Infrastruktur","fee":"no","name":"Sportplatz Grevenich"}},"12091024164":{"location":[50.2413874,7.1127945],"ct":"DE","tp":"CR","ts":"2024-08-09T10:46:48Z","tX":532,"tY":346,"tags":{"caravan_site":"motorhome_stopover","caravan_site:type":"village","caravans":"yes","fee":"no","name":"Wohnmobilstellplatz Masburg","opening_hours":"24/7","seasonal":"no","website":"https://www.visitmosel.de/stadt-kultur/poi/wohnmobilstellplatz-masburg"}},"12091038109":{"location":[50.1841155,7.2442268],"ct":"DE","tp":"CR","ts":"2024-08-03T22:07:38Z","tX":532,"tY":346,"tags":{"capacity":"3","caravan_site":"motorhome_stopover","caravan_site:type":"village","caravans":"no","dog":"yes","name":"Wohnmobil-Stellplatz Graffiti Wall in Kail","opening_hours":"24/7","power_supply":"yes","tents":"no","toilets":"yes","website":"https://musikschmiede-kail.de/wohnmobil-stellplatz"}},"6088921389":{"location":[50.0955955,7.1235609],"ct":"DE","tp":"SD","ts":"2018-11-24T22:33:59Z","tX":532,"tY":346,"tags":{}},"8486356915":{"location":[50.0835756,7.206991],"ct":"DE","tp":"SD","ts":"2021-03-04T15:29:40Z","tX":532,"tY":346,"tags":{"sanitary_dump_station:chemical_toilet":"yes","sanitary_dump_station:fee":"no","sanitary_dump_station:gravity":"yes","sanitary_dump_station:grey_water":"yes","sanitary_dump_station:suction":"no"}},"8796068888":{"location":[50.0691128,7.0386778],"ct":"DE","tp":"SD","ts":"2021-06-03T19:04:10Z","tX":532,"tY":346,"tags":{"water_point":"yes"}},"9524197436":{"location":[50.142455,7.2323136],"ct":"DE","tp":"SD","ts":"2022-02-21T11:57:36Z","tX":532,"tY":346,"tags":{"access":"customers","operator":"Im Weinberg"}}}