{"4242585":{"location":[49.9892599,7.0763862],"ct":"DE","tp":"CS","ts":"2014-12-01T20:04:47Z","tX":532,"tY":347,"tags":{"name":"Erlebnis-Ländchen Kröver Berg","website":"www.kroeverberg.de"}},"6282443":{"location":[50.0527299,7.1314304],"ct":"DE","tp":"CS","ts":"2023-01-05T15:24:42Z","tX":532,"tY":347,"tags":{"addr:city":"Bullay","addr:housenumber":"1+3","addr:postcode":"56859","addr:street":"Am Moselufer","email":"info@baeren-camp.de","name":"Bären-Camp Bullay","phone":"+49 6542 900097","seasonal":"yes","website":"https://www.baeren-camp.de/"}},"17952467":{"location":[50.0525014,7.1121032],"ct":"DE","tp":"CS","ts":"2024-08-19T21:31:12Z","tX":532,"tY":347,"tags":{"addr:city":"Alf","addr:postcode":"56859","addr:street":"Am Mühlenteich","cabins":"yes","capacity":"122","caravans":"yes","contact:email":"alf@moselcampingplatz.de","contact:phone":"+49 6541 3111","contact:website":"https://www.mosel-camping-platz.de/campingplatz-alf/ueber-uns/","drinking_water":"yes","fee":"yes","internet_access":"wlan","internet_access:fee":"no","name":"Moselcamping Alf","operator":"Edwin und Karel van Dongen","power_supply":"yes","reservation":"recommended","sanitary_dump_station":"yes","shower":"yes","smoking":"outside","stars":"4","tents":"yes","toilets":"yes","wheelchair":"yes"}},"38705897":{"location":[49.9114744,7.0677937],"ct":"DE","tp":"PK","ts":"2024-05-16T11:16:26Z","tX":532,"tY":347,"tags":{"access":"yes","fee":"yes","motorhome":"yes","motorhome:overnight":"no","parking":"surface"}},"92387919":{"location":[50.0415113,7.1327531],"ct":"DE","tp":"CS","ts":"2024-10-21T07:57:40Z","tX":532,"tY":347,"tags":{"addr:city":"Pünderich","addr:housenumber":"3","addr:postcode":"56862","addr:street":"Moselallee","capacity:caravans":"48","caravans":"yes","drinking_water":"yes","email":"puenderich@moselcampingplatz.de","fee":"yes","name":"Moselcampingplatz Pünderich","operator":"van Dongen GbR","payment:cards":"yes","payment:cash":"yes","payment:contactless":"yes","payment:debit_cards":"yes","payment:maestro":"yes","payment:visa":"yes","phone":"+49 6541 3111","power_supply":"yes","sanitary_dump_station":"yes","seasonal":"yes","shower":"yes","static_caravans":"no","tents":"yes","toilets":"yes","website":"https://www.mosel-camping-platz.de/de/","wheelchair":"no"}},"108882862":{"location":[49.937992,7.0501228],"ct":"DE","tp":"CS","ts":"2023-06-11T15:35:18Z","tX":532,"tY":347,"tags":{"addr:city":"Bernkastel-Kues","addr:housenumber":"165","addr:postcode":"54470","addr:street":"Hauptstraße","cabins":"yes","caravans":"yes","dog":"yes","drinking_water":"yes","email":"info@mosel-camping-bernkastel.de","motor_vehicle":"yes","name":"MoselCamping Bernkastel","phone":"+49 6531 8176","power_supply":"yes","seasonal":"yes","shower":"yes","source":"Bing","swimming_pool":"yes","tents":"yes","toilets":"yes","website":"https://www.mosel-camping-bernkastel.de"}},"125922731":{"location":[49.981874,7.1012239],"ct":"DE","tp":"CS","ts":"2024-10-21T08:44:17Z","tX":532,"tY":347,"tags":{"addr:city":"Traben-Trarbach","addr:housenumber":"16","addr:postcode":"56841","addr:street":"Uferstrasse","caravans":"yes","email":"wolf@moselcampingplatz.de","fee":"yes","name":"Moselcamping Wolf","operator":"van Dongen GbR","phone":"+49 65413111","static_caravans":"yes","tents":"yes","website":"https://www.mosel-camping-platz.de/de/"}},"126906142":{"location":[49.9716636,7.0817098],"ct":"DE","tp":"CS","ts":"2022-10-05T09:02:39Z","tX":532,"tY":347,"tags":{"addr:city":"Kröv","addr:postcode":"54536","email":"info@paradies-camp.de","name":"Paradies-Camp Kröv","phone":"+49 6541 9651;+49 6541 1669","website":"http://www.paradies-camp.de/"}},"144736085":{"location":[49.9081133,7.0577063],"ct":"DE","tp":"CS","ts":"2024-07-14T18:54:35Z","tX":532,"tY":347,"tags":{"addr:city":"Bernkastel-Kues","addr:housenumber":"2","addr:postcode":"54470","addr:street":"Am Hafen","email":"camping-cueser-werth@web.de","fee":"yes","name":"Campingplatz „Kueser Werth“","phone":"+49 6531 8200","seasonal":"yes","source":"bing","website":"http://www.camping-kueser-werth.de/"}},"158251189":{"location":[50.0330808,7.1752759],"ct":"DE","tp":"CS","ts":"2024-07-25T15:27:16Z","tX":532,"tY":347,"tags":{"addr:city":"Zell (Mosel)","addr:country":"DE","addr:postcode":"56856","addr:street":"Mosel e.K. Moselufer","email":"info@campingpark-zell.de","fee":"yes","internet_access":"wlan","internet_access:fee":"no","name":"Campingpark Zell-Mosel","phone":"+49 6542 961216","seasonal":"no","toilets:access":"customers","toilets:handwashing":"yes","website":"https://www.campingpark-zell.de/"}},"158251193":{"location":[50.0295236,7.1777987],"ct":"DE","tp":"CR","ts":"2022-09-23T10:54:10Z","tX":532,"tY":347,"tags":{"fee":"yes","name":"Stellplatz an der Fußgängerbrücke","power_supply":"no","website":"http://www.campingpark-zell.de/stellpl%C3%A4tze"}},"161932101":{"location":[50.0326138,7.1155576],"ct":"DE","tp":"CS","ts":"2023-01-05T15:24:42Z","tX":532,"tY":347,"tags":{"addr:city":"Pünderich","addr:postcode":"56862","addr:street":"Im Planters","name":"Campingplatz Moselland","phone":"+49 6542 2618","seasonal":"yes","website":"https://www.campingplatz-moselland.de/"}},"192214143":{"location":[49.9654254,7.1042416],"ct":"DE","tp":"CS","ts":"2024-10-21T08:11:56Z","tX":532,"tY":347,"tags":{"addr:city":"Traben-Trarbach","addr:housenumber":"155","addr:postcode":"56841","addr:street":"Rißbacher Straße","caravans":"yes","email":"info@moselcampingplatz.de","fee":"yes","name":"Moselcamping Rissbach","operator":"van Dongen GbR","phone":"+49 6541 3111","tents":"yes","website":"https://www.mosel-camping-platz.de/","wheelchair":"limited"}},"198961837":{"location":[49.9757063,7.0427098],"ct":"DE","tp":"CR","ts":"2022-12-29T12:35:18Z","tX":532,"tY":347,"tags":{"capacity:caravans":"120","contact:email":"info@loesnich.de","contact:website":"https://loesnich.de/wohnmobilplatz/","drinking_water":"yes","fee":"yes","internet_access":"wlan","name":"Wohnmobilstellplatz Lösnich","opening_hours":"Mar-Nov","operator":"Ortsgemeinde Lösnich","power_supply":"yes","sanitary_dump_station":"customers","shower":"no","tents":"no","toilets":"no"}},"199013890":{"location":[49.9853863,7.1199337],"ct":"DE","tp":"CR","ts":"2016-04-04T08:29:59Z","tX":532,"tY":347,"tags":{"capacity":"200","fee":"yes","internet_access":"wlan","name":"An der Mosel","power_supply":"yes","sanitary_dump_station":"yes","water_point":"yes","wheelchair":"yes"}},"201321904":{"location":[49.9714856,7.058084],"ct":"DE","tp":"CR","ts":"2017-04-05T07:26:05Z","tX":532,"tY":347,"tags":{"fee":"yes","surface":"grass","tents":"no"}},"201879045":{"location":[49.9338399,7.061834],"ct":"DE","tp":"CR","ts":"2013-01-19T10:04:35Z","tX":532,"tY":347,"tags":{}},"289221556":{"location":[50.0164364,7.1763384],"ct":"DE","tp":"CR","ts":"2023-10-14T16:22:55Z","tX":532,"tY":347,"tags":{"dog":"yes","email":"info@campingpark-zell.de","fax":"+49 6542 961218","fee":"yes","internet_access":"no","name":"Wohnmobilstellplatz „Am Freizeitzentrum“","phone":"+49 6542 961216","power_supply":"yes","sanitary_dump_station":"yes","website":"http://www.campingpark-zell.de/stellpl%C3%A4tze"}},"320012700":{"location":[50.0434164,7.1243507],"ct":"DE","tp":"CR","ts":"2024-07-02T12:38:36Z","tX":532,"tY":347,"tags":{"capacity":"80","caravan_site":"motorhome_stopover","caravan_site:type":"river","charge":"9.50 EUR","description:de":"Ende März bis Anfang November","fee":"yes","maxlength":"9","name":"Wohnmobilpark Pünderich","power_supply":"yes","power_supply:maxcurrent":"6","sanitary_dump_station":"yes","seasonal":"yes","shower":"yes","toilets":"yes","website":"https://mosel-camping-platz.de/de/ich-suche-ein/wohnmobilstellplatz/wohnmobilpark-punderich"}},"408639190":{"location":[50.0262181,7.1146828],"ct":"DE","tp":"CR","ts":"2024-07-02T12:38:36Z","tX":532,"tY":347,"tags":{"caravan_site":"motorhome_stopover","caravan_site:type":"river","charge":"13.80 EUR","fee":"yes","name":"Wohnmobilstellplatz Reil am Moselufer","phone":"+49 6542 2472","power_supply":"yes","power_supply:charge":"5 EUR","power_supply:fee":"yes","reservation":"no","shower":"yes","toilets":"yes","website":"https://www.reil-mosel.de/reil-fuer-gaeste/wohnmobilstellplatz/"}},"433246292":{"location":[49.9386922,7.04949],"ct":"DE","tp":"CR","ts":"2024-09-04T08:12:42Z","tX":532,"tY":347,"tags":{"capacity":"40","caravan_site":"motorhome_stopover","caravan_site:type":"river","caravans":"yes","charge":"10.00 EUR/1 night","contact:email":"info@studert-pruem.de","contact:phone":"+49 6531 2487","fee":"yes","name":"Wohnmobilstellplatz Studert-Prüm","operator":"Stephan Studert","power_supply":"yes","sanitary_dump_station":"yes","seasonal":"no","tents":"no","water_point":"yes","website":"http://www.studert-pruem.de/stellplatz.htm"}},"510507983":{"location":[49.9581253,7.1033456],"ct":"DE","tp":"CR","ts":"2017-08-08T04:41:02Z","tX":532,"tY":347,"tags":{"addr:city":"Traben-Trarbach","addr:postcode":"56841","addr:street":"Rißbacher Straße","capacity":"50","fee":"yes","internet_access":"yes","internet_access:fee":"no","name":"Wohnmobilstellplatz Traben-Trarbach","power_supply":"yes","sanitary_dump_station":"yes","website":"http://www.moselstellplatz.de"}},"1304110671":{"location":[50.0634648,7.1015903],"ct":"DE","tp":"CS","ts":"2024-09-04T17:53:56Z","tX":532,"tY":347,"tags":{"access":"destination","camp_site":"standard","fee":"yes","group_only":"yes","lit":"no","name":"Zeltplatz Buchental","openfire":"yes","permanent_camping":"no","power_supply":"yes","reservation":"required","static_caravans":"no","street_cabinet":"no","tents":"yes","toilets":"yes","waste_disposal":"no"}},"3479534344":{"location":[50.0166202,7.1758307],"ct":"DE","tp":"SD","ts":"2024-09-06T14:37:43Z","tX":532,"tY":347,"tags":{"access":"yes","fee":"no","sanitary_dump_station:chemical_toilet":"yes","sanitary_dump_station:fee":"no","sanitary_dump_station:gravity":"yes","sanitary_dump_station:grey_water":"yes","water_point":"yes"}},"5099088103":{"location":[50.0419256,7.1313889],"ct":"DE","tp":"CS","ts":"2024-10-21T07:57:40Z","tX":532,"tY":347,"tags":{"addr:city":"Pünderich","addr:housenumber":"3","addr:postcode":"56862","addr:street":"Moselallee","name":"Rezeption Moselcamping Pünderich mit Imbiss","operator":"van Dongen GbR"}},"12064441703":{"location":[50.0622451,7.0998274],"ct":"DE","tp":"CS","ts":"2024-07-20T08:37:06Z","tX":532,"tY":347,"tags":{"name":"Zeltplatz Kaulet"}},"9961224285":{"location":[50.03012,7.1801646],"ct":"DE","tp":"CR","ts":"2022-08-18T10:24:53Z","tX":532,"tY":347,"tags":{"opening_hours":"Mo-Su 22:00-06:00"}},"12272894687":{"location":[50.0436404,7.1258113],"ct":"DE","tp":"CR","ts":"2024-10-21T08:05:03Z","tX":532,"tY":347,"tags":{"addr:city":"Pünderich","addr:postcode":"56862","addr:street":"Moselallee","internet_access":"yes","internet_access:fee":"customers","name":"Moselstellplatz Pünderich","power_supply":"yes","sanitary_dump_station":"yes"}},"4732538368":{"location":[50.0322842,7.1756361],"ct":"DE","tp":"SD","ts":"2017-03-13T17:39:53Z","tX":532,"tY":347,"tags":{"access":"yes","fee":"yes","water_point":"yes"}},"7721005217":{"location":[50.0254695,7.114809],"ct":"DE","tp":"SD","ts":"2020-07-16T12:23:49Z","tX":532,"tY":347,"tags":{}},"8949637793":{"location":[49.9870113,7.1193602],"ct":"DE","tp":"SD","ts":"2021-07-25T20:51:41Z","tX":532,"tY":347,"tags":{}},"9172046835":{"location":[50.0531327,7.1118162],"ct":"DE","tp":"SD","ts":"2021-10-14T14:40:12Z","tX":532,"tY":347,"tags":{}},"9180376988":{"location":[50.0528335,7.112541],"ct":"DE","tp":"SD","ts":"2021-10-18T14:30:29Z","tX":532,"tY":347,"tags":{}}}