{"93726482":{"location":[49.7692155,7.2056791],"ct":"DE","tp":"CS","ts":"2023-11-02T18:40:57Z","tX":532,"tY":348,"tags":{"fee":"yes","name":"Sensweiler Mühle","power_supply":"yes","website":"https://www.sensweiler-muehle.de/"}},"214780911":{"location":[49.6555974,7.1818411],"ct":"DE","tp":"CS","ts":"2024-07-29T20:22:17Z","tX":532,"tY":348,"tags":{"barrier":"fence","caravans":"yes","drinking_water":"yes","internet_access":"wlan","name":"Campingpark Waldwiesen","sanitary_dump_station":"yes","shower":"yes","stars":"4","tents":"yes","toilets":"yes","toilets:wheelchair":"no","website":"http://www.waldwiesen.de/","wheelchair":"limited"}},"324346541":{"location":[49.7525816,7.2707081],"ct":"DE","tp":"CS","ts":"2020-09-01T19:51:50Z","tX":532,"tY":348,"tags":{"caravans":"yes","name":"TuS Tiefenstein","operator":"TuS Tiefenstein","phone":"+49 6781 5637979","shower":"hot","tents":"yes","website":"https://www.campingplatz-idar-oberstein.com/","wheelchair":"yes"}},"324482824":{"location":[49.7371745,7.0830726],"ct":"DE","tp":"CR","ts":"2022-05-25T10:27:44Z","tX":532,"tY":348,"tags":{"access":"yes","capacity":"50","fee":"yes","name":"Reisemobilstellplatz Erbeskopf","name:de":"Reisemobilstellplatz Erbeskopf, Ausgangspunkt Wanderung","opening_hours":"Mo-Su 09:00-17:00","operator":"Verbandsgemeinde Thalfang am Erbeskopf","parking":"surface","phone":"+496504778","power_supply":"5","sanitary_dump_station":"yes","tents":"no","website":"https://www.erbeskopf.de/tourismus-kultur/camping-wohnmobilplaetze/wohnmobilstellplaetze.html","wheelchair":"yes"}},"342276827":{"location":[49.8042995,7.2680856],"ct":"DE","tp":"CS","ts":"2022-08-18T23:40:02Z","tX":532,"tY":348,"tags":{"access":"customers","addr:city":"Mörschied","addr:country":"DE","addr:housenumber":"2","addr:postcode":"55758","addr:street":"Harfenmühle","caravans":"yes","contact:website":"http://www.camping-harfenmuehle.de/","email":"mail@harfenmuehle.de","fee":"yes","name":"Campingplatz Harfenmühle","operator":"Familie Koch & Caudron","phone":"+49 67 86 13 04","sanitary_dump_station":"yes","shower":"yes","tents":"yes","toilets":"yes","wheelchair":"yes"}},"832935572":{"location":[49.8107395,7.2415285],"ct":"DE","tp":"CS","ts":"2024-01-23T21:30:46Z","tX":532,"tY":348,"tags":{"access":"yes","addr:city":"Schauren","addr:housenumber":"1","addr:postcode":"55758","addr:street":"Hammerweg","caravans":"yes","drinking_water":"yes","fee":"yes","name":"Edelsteincamp","sanitary_dump_station":"yes","shower":"yes","static_caravans":"yes","tents":"yes","toilets":"yes","website":"http://www.edelsteincamp.de/"}},"983901040":{"location":[49.7854284,7.0319025],"ct":"DE","tp":"CS","ts":"2024-09-01T17:08:57Z","tX":532,"tY":348,"tags":{"bbq":"yes","cabins":"no","capacity:tents":"50","caravans":"yes","dog":"yes","email":"filz_massingsmuehle@gmx.de","fee":"yes","internet_access":"no","lit":"yes","name":"Outdoorcampingplatz Massingsmühle","openfire":"yes","operator":"Familie Filz","payment:cash":"yes","permanent_camping":"yes","phone":"+49 6504 305","power_supply":"yes","sanitary_dump_station":"yes","shower":"yes","tents":"yes","toilets":"yes","washing_machine":"yes","website":"https://www.outdoorcampingplatz-im-hunsrueck.de/"}},"1078414488":{"location":[49.7788259,7.3360714],"ct":"DE","tp":"CR","ts":"2023-01-17T13:22:20Z","tX":532,"tY":348,"tags":{"addr:city":"Herrstein","addr:postcode":"55756","addr:street":"Brühlstraße","capacity":"3","capacity:caravans":"4","drinking_water":"yes","name":"Wohnmobilstellplatz Herrstein","name:signed":"no","operator":"Ortsgemeinde Herrstein","power_supply":"yes","sanitary_dump_station":"yes","toilets":"yes","website":"https://herrstein.de/leben/wohnmobil-stellplaetze"}},"1184839252":{"location":[49.61125,7.3391349],"ct":"DE","tp":"CR","ts":"2023-06-25T15:49:57Z","tX":532,"tY":348,"tags":{"capacity":"6","dog":"yes","email":"buchung@baumholder.de","fee":"yes","image":"https://www.baumholder.de/wp-content/uploads/2020/08/Wohnmobilstellplatz-3-Andere.jpg","name":"Stellplatz am Stadtweiher Baumholder","operator":"Stadt Baumholder","phone":"+49 6783 981140","power_supply":"yes","reservation":"yes","sanitary_dump_station":"yes","water_point":"yes","website":"https://www.baumholder.de/tourismus/wohnmobile/"}},"2246986871":{"location":[49.6942506,7.259552],"ct":"DE","tp":"CR","ts":"2018-02-26T12:23:22Z","tX":532,"tY":348,"tags":{"capacity":"75","contact:email":"walter.gruen@t-online.de","contact:phone":"+49 6787 735","fee":"yes","name":"Höhenblick","power_supply":"yes","sanitary_dump_station":"yes","water_point":"yes","website":"http://www.wohnmobilstellplatz-höhenblick.de/startseite.html"}},"10069066326":{"location":[49.769385,7.2386143],"ct":"DE","tp":"CS","ts":"2022-10-02T17:18:50Z","tX":532,"tY":348,"tags":{"access":"customers","fee":"yes","name":"Trekkingcamp Wolfsheulen"}},"6821625687":{"location":[49.7198203,7.3036855],"ct":"DE","tp":"CR","ts":"2019-09-25T02:57:45Z","tX":532,"tY":348,"tags":{"capacity":"12","power_supply":"no","sanitary_dump_station":"no"}},"7866496806":{"location":[49.7756551,7.2533566],"ct":"DE","tp":"CR","ts":"2024-08-12T05:46:22Z","tX":532,"tY":348,"tags":{"addr:city":"Kempfeld","addr:postcode":"55758","addr:street":"Wildenburger Straße","capacity":"4","caravans":"no","fee":"no","internet_access":"no","maxstay":"2 days","name":"Parkplatz Wildenburg","tents":"no","water_point":"no"}},"9097811938":{"location":[49.7852608,7.0326575],"ct":"DE","tp":"SD","ts":"2023-10-04T11:10:46Z","tX":532,"tY":348,"tags":{"access":"customers","fee":"no","water_point":"no"}}}