{"18102353":{"location":[48.7170432,7.098073],"ct":"FR","tp":"CR","ts":"2024-09-29T20:22:00Z","tX":532,"tY":352,"tags":{"addr:city":"Niderviller","addr:housenumber":"1a","addr:postcode":"57665","addr:street":"Rue de Lorraine","capacity":"14","caravan_site":"motorhome_stopover","caravan_site:type":"canal","caravans":"no","charge":"16 EUR","description":"Reisemobil-Stellplätze, Camping Car Marina","email":"info@kuhnle-tours.de","fee":"yes","internet_access":"wlan","internet_access:fee":"customers","laundry":"yes","name":"Camping Car Marina Nidervller","name:de":"Reisemobil-Marina Niderviller","name:en":"Camping Car Marina Niderviller","name:fr":"Camping Car Marina Niderviller","operator":"Kuhnle-Tours","phone":"+33387249200","power_supply":"yes","power_supply:charge":"5 EUR","power_supply:fee":"yes","power_supply:maxcurrent":"16","reservation":"yes","sanitary_dump_station":"yes","shower":"yes","tents":"no","water_point":"yes","water_point:charge":"0.50 EUR/50 liter","water_point:fee":"yes","website":"https://www.hafendorf-mueritz.de/an-land/reisemobil-marinas/reisemobil-marina-niderviller/","wheelchair":"yes"}},"121526833":{"location":[48.7204001,7.2275218],"ct":"FR","tp":"CS","ts":"2023-11-21T08:18:08Z","tX":532,"tY":352,"tags":{"email":"campingplanincline@wanadoo.fr","internet_access":"wlan","internet_access:fee":"no","landuse":"recreation_ground","name":"Camping du Plan Incliné","phone":"+33 3 87 25 30 13","website":"https://www.campingplanincline.fr/"}},"126752605":{"location":[48.7301077,7.3551981],"ct":"FR","tp":"CS","ts":"2021-07-26T16:20:18Z","tX":532,"tY":352,"tags":{"caravans":"yes","contact:phone":"+33 3 88 91 35 65","email":"contact@camping-lesportesdalsace.com","name":"Seasonova Les Portes d'Alsace","operator":"Seasonova","power_supply":"yes","sanitary_dump_station":"yes","shower":"yes","stars":"3","tents":"yes","toilets":"yes","website":"http://vacances-seasonova.com/camping/camping-les-portes-dalsace/"}},"239056959":{"location":[48.7830792,7.249325],"ct":"FR","tp":"CS","ts":"2024-08-02T16:39:58Z","tX":532,"tY":352,"tags":{"name":"Camping Les Bouleaux","website":"https://www.campinglesbouleaux.fr/fr/home"}},"250042689":{"location":[48.9104059,7.2879143],"ct":"FR","tp":"CS","ts":"2024-08-26T15:25:02Z","tX":532,"tY":352,"tags":{"access":"yes","addr:city":"Hinsbourg","addr:postcode":"67290","caravans":"yes","drinking_water":"yes","fee":"yes","name":"Camping Aire Naturelle De Hinsbourg","power_supply":"yes","shower":"yes","tents":"yes"}},"277448215":{"location":[48.7163564,7.0423652],"ct":"FR","tp":"CS","ts":"2022-12-20T10:01:51Z","tX":532,"tY":352,"tags":{"addr:city":"SARREBOURG","addr:housenumber":"3","addr:postcode":"57400","addr:street":"Chemin du Canton des Etangs","capacity":"12","name":"Aire d'Accueil des Gens du Voyage de Sarrebourg","residential":"halting_site","source":"Bing Sat"}},"528916253":{"location":[48.9155702,7.369482],"ct":"FR","tp":"CS","ts":"2024-08-02T19:03:24Z","tX":532,"tY":352,"tags":{"caravans":"yes","name":"Camping Municipal","tents":"yes","website":"https://www.wingensurmoder.fr/DECOUVRIR/Tourisme/Camping-municipal.html"}},"935476751":{"location":[48.715985,7.0403915],"ct":"FR","tp":"CS","ts":"2022-12-20T10:04:03Z","tX":532,"tY":352,"tags":{"access":"permit","addr:city":"SARREBOURG","addr:housenumber":"3","addr:postcode":"57400","addr:street":"Chemin du Canton des Etangs","capacity:caravans":"20","group_only":"yes","landuse":"residential","name":"Aire de Grand Passage des Gens du Voyage de Sarrebourg","operator":"CC-SMS","residential":"halting_site"}},"1213413944":{"location":[48.7225208,7.0373976],"ct":"FR","tp":"CR","ts":"2024-10-02T22:56:33Z","tX":532,"tY":352,"tags":{"capacity":"5","caravan_site":"motorhome_stopover","caravan_site:type":"town","description":"Aire de Camping-Cars","dog":"yes","fee":"no","name":"Aire de Camping-cars Sarrebourg","opening_hours":"24/7","reservation":"no","sanitary_dump_station":"yes","water_point":"yes","website":"https://www.tourisme-lunevillois.com/SITLOR/848147013.htm","wheelchair":"yes"}},"3713953276":{"location":[48.7441314,7.3680601],"ct":"FR","tp":"SD","ts":"2023-11-07T12:08:28Z","tX":532,"tY":352,"tags":{"access":"customers","email":"contact@tourisme-saverne.fr","name":"Aire de Services Saverne","opening_hours":"24/7","phone":"+33 388 918047","sanitary_dump_station:basin":"yes","source":"tourisme-alsace.com","website":"https://www.tourisme-saverne.fr/"}},"4721709657":{"location":[48.7439683,7.3677884],"ct":"FR","tp":"CR","ts":"2024-07-03T12:33:59Z","tX":532,"tY":352,"tags":{"capacity":"39","caravan_site":"motorhome_stopover","caravan_site:type":"town","email":"contact@tourisme-saverne.fr","fee":"yes","name":"Aire de Services Camping Cars Saverne","phone":"+33 388 918047","power_supply":"yes","sanitary_dump_station":"customers","source":"tourisme-alsace.com","toilets":"no","water_point":"yes","website":"https://www.tourisme-saverne.fr/"}},"12151458473":{"location":[48.7654962,7.2595771],"ct":"FR","tp":"CR","ts":"2024-10-03T11:10:14Z","tX":532,"tY":352,"tags":{"capacity":"4","caravan_site":"motorhome_stopover","caravan_site:type":"village","fee":"no","maxstay":"48 hours","name":"Aire de camping-car de Phalsbourg","power_supply":"yes","power_supply:charge":"2 EUR/hour","power_supply:fee":"yes","sanitary_dump_station":"yes","surface":"grass_paver","water_point":"yes","water_point:charge":"2 EUR","water_point:fee":"yes","website":"https://www.massif-des-vosges.fr/sit/847000033-aire-de-camping-car/"}},"4721709659":{"location":[48.7309396,7.3553998],"ct":"FR","tp":"SD","ts":"2017-03-07T09:23:39Z","tX":532,"tY":352,"tags":{"email":"contact@camping-lesportesdalsace.com","name":"Camping Les Portes d'Alsace","phone":"+33 3 88 91 35 65","source":"tourisme-alsace.com","website":"http://vacances-seasonova.com/camping/camping-les-portes-dalsace/"}},"11239685255":{"location":[48.7654754,7.2594637],"ct":"FR","tp":"SD","ts":"2023-10-04T19:16:26Z","tX":532,"tY":352,"tags":{"access":"yes","fee":"no","opening_hours":"24/7","sanitary_dump_station:basin":"yes","sanitary_dump_station:round_drain":"yes"}},"11242050376":{"location":[48.7225916,7.037293],"ct":"FR","tp":"SD","ts":"2023-10-05T19:21:03Z","tX":532,"tY":352,"tags":{"access":"yes","fee":"no","opening_hours":"24/7","sanitary_dump_station:basin":"yes","water_point":"yes"}}}