{"27351157":{"location":[48.0291589,7.1123018],"ct":"FR","tp":"CS","ts":"2025-05-12T12:40:12Z","tX":532,"tY":355,"tags":{"addr:housenumber":"4","addr:postcode":"68140","addr:street":"Rue du Château","caravans":"yes","drinking_water":"yes","internet_access":"wlan","internet_access:fee":"no","name":"Camping Les Amis de la Nature","opening_hours":"Mar 21- Nov 12","permanent_camping":"yes","power_supply":"yes","sanitary_dump_station":"yes","shower":"yes","tents":"yes","toilets":"yes","website":"https://www.camping-an.fr/"}},"35049681":{"location":[48.0430755,7.151599],"ct":"FR","tp":"CS","ts":"2023-06-26T09:56:01Z","tX":532,"tY":355,"tags":{"addr:city":"Munster","addr:postcode":"68140","addr:street":"Route de Gunsbach","camp_site":"serviced","caravans":"yes","email":"dirparcdelafecht@tohapi.fr","fee":"yes","lit":"yes","name":"Camping Parc de la Fecht","permanent_camping":"yes","phone":"+33 389 773 108","stars":"3","static_caravans":"yes","tents":"yes","washing_machine":"yes","website":"https://www.campingleparcdelafecht.com"}},"52500652":{"location":[48.0846816,7.2715404],"ct":"FR","tp":"CS","ts":"2024-10-03T14:51:35Z","tX":532,"tY":355,"tags":{"addr:city":"Turckheim","addr:housenumber":"5","addr:postcode":"68230","addr:street":"Quai de la Fecht","camping":"serviced","caravans":"yes","drinking_water":"yes","internet_access":"yes","internet_access:fee":"no","name":"Camping le Médiéval","phone":"+33 3 89 27 02 00","power_supply":"yes","reservation":"yes","sanitary_dump_station":"yes","shower":"yes","source":"cadastre-dgi-fr source : Direction Générale des Impôts - Cadastre. Mise à jour : 2010","stars":"3","static_caravans":"yes","tents":"yes","toilets":"yes","website":"https://www.camping-turckheim.fr/"}},"54587285":{"location":[48.0149241,7.3505355],"ct":"FR","tp":"CS","ts":"2024-05-25T07:26:32Z","tX":532,"tY":355,"tags":{"caravans":"yes","contact:city":"Sainte-Croix-en-Plaine","contact:housenumber":"D1","contact:phone":"+33 3 89 49 27 28","contact:postcode":"68127","contact:street":"Route de Herrlisheim","contact:website":"http://www.clairvacances.com","drinking_water":"no","name":"Camping Capfun Suzel","power_supply":"no","shower":"yes","source":"cadastre-dgi-fr source : Direction Générale des Impôts - Cadastre. Mise à jour : 2010","stars":"4","tents":"no","toilets":"yes","wheelchair":"yes"}},"67628316":{"location":[48.1938545,7.3378235],"ct":"FR","tp":"CS","ts":"2025-06-19T06:03:55Z","tX":532,"tY":355,"tags":{"addr:city":"Ribeauvillé","addr:housenumber":"23","addr:postcode":"68150","addr:street":"Rue de Landau","caravans":"yes","email":"camping@ribeauville.fr","internet_access":"wlan","internet_access:fee":"no","name":"Camping Municipal Pierre de Coubertin","opening_hours":"Mar 15 - Nov 15","phone":"+33 389 736671","power_supply":"yes","sanitary_dump_station":"customers","shower":"yes","source":"cadastre-dgi-fr source : Direction Générale des Impôts - Cadastre. Mise à jour : 2010","stars":"4","tents":"yes","toilets":"yes","water_point":"yes","website":"https://www.ribeauville.fr/fr/camping-municipal-pierre-de-coubertin.html"}},"73832653":{"location":[48.1627474,7.3174943],"ct":"FR","tp":"CS","ts":"2024-05-10T19:41:45Z","tX":532,"tY":355,"tags":{"addr:city":"Riquewihr","addr:housenumber":"1","addr:postcode":"68340","addr:street":"Route des Vins","caravans":"yes","drinking_water":"yes","name":"Camping de Riquewihr ****","opening_hours":"Mar 30 - Nov 3, Nov 23 - Dec 23: 08:00-12:00,14:30-19:00","phone":"+33 389 479008","power_supply":"yes","sanitary_dump_station":"yes","shower":"yes","source":"cadastre-dgi-fr source : Direction Générale des Impôts - Cadastre. Mise à jour : 2010","stars":"4","tents":"yes","toilets":"yes","website":"https://campingriquewihr.com"}},"82288504":{"location":[48.1357543,7.2627244],"ct":"FR","tp":"CR","ts":"2025-04-11T12:58:47Z","tX":532,"tY":355,"tags":{"capacity":"80","caravan_site":"motorhome_stopover","caravan_site:type":"wine_village","charge":"10 EUR /24h","fee":"yes","name":"Aire de Camping Cars Kaysersberg","phone":"+33 389 781111","sanitary_dump_station":"yes","sanitary_dump_station:chemical_toilet":"yes","sanitary_dump_station:grey_water":"yes","seasonal":"no","source":"cadastre-dgi-fr source : Direction Générale des Impôts - Cadastre. Mise à jour : 2010","surface":"asphalt","water_point":"yes","website":"https://www.kaysersberg.com/fr/detail/618/4484/230101208/aire-de-camping-car-kaysersberg-vignoble.htm/"}},"114294907":{"location":[48.1481179,7.2548927],"ct":"FR","tp":"CS","ts":"2020-09-27T13:46:47Z","tX":532,"tY":355,"tags":{"email":"camping@kaysersberg-vignoble.fr","internet_access":"wlan","internet_access:fee":"no","name":"Camping Municipal de Kaysersberg","opening_hours":"Apr 01 - Sep 30: Mo-Su,PH 08:00-12:00, 14:00-20:00","phone":"+33 389 471447","power_supply":"yes","sanitary_dump_station":"yes","stars":"4","website":"https://www.camping-kaysersberg.com/","wheelchair":"yes"}},"127217265":{"location":[48.093644,7.1984138],"ct":"FR","tp":"CS","ts":"2023-10-30T05:10:58Z","tX":532,"tY":355,"tags":{"alt_name":"Camping des deux Hohnack","caravans":"yes","drinking_water":"yes","internet_access":"wlan","name":"Camping Labaroche","power_supply":"yes","shower":"yes","stars":"2","tents":"yes","toilets":"yes","website":"https://www.camping-labaroche.fr/"}},"139514163":{"location":[48.0514134,7.2042499],"ct":"FR","tp":"CS","ts":"2024-05-12T10:21:48Z","tX":532,"tY":355,"tags":{"name":"Camping La Route Verte","phone":"+33 3 89 71 10 10","power_supply":"yes","power_supply:maxcurrent":"4","source":"cadastre-dgi-fr source : Direction Générale des Impôts - Cadastre. Mise à jour : 2011","stars":"2","website":"https://camping-routeverte.com/"}},"139667024":{"location":[48.0449952,7.1822985],"ct":"FR","tp":"CS","ts":"2025-05-01T18:56:05Z","tX":532,"tY":355,"tags":{"name":"Camping Beau Rivage","phone":"+33 3 89 77 44 62","source":"cadastre-dgi-fr source : Direction Générale des Impôts - Cadastre. Mise à jour : 2011","stars":"2"}},"162975213":{"location":[48.1988123,7.3021032],"ct":"FR","tp":"CS","ts":"2022-08-14T10:14:14Z","tX":532,"tY":355,"tags":{"caravans":"yes","drinking_water":"yes","internet_access":"no","name":"Camping municipal des Trois Châteaux","nudism":"no","opening_hours":"Jul 1-Sep Su[1]","power_supply":"yes","reservation":"no","sanitary_dump_station":"public","source":"cadastre-dgi-fr source : Direction Générale des Impôts - Cadastre.","stars":"1","tents":"yes","website":"https://www.ribeauville.fr/fr/camping-des-trois-chateaux.html","wheelchair":"no"}},"206826027":{"location":[48.0434528,7.2985761],"ct":"FR","tp":"CS","ts":"2025-06-07T19:58:50Z","tX":532,"tY":355,"tags":{"addr:city":"Eguisheim","addr:housenumber":"10","addr:postcode":"68420","addr:street":"Rue du Bassin","caravans":"yes","drinking_water":"yes","fee":"yes","internet_access":"wlan","internet_access:fee":"no","name":"Camping des Trois Châteaux","opening_hours":"Mar 23 - Nov 05,Nov 24-Dec 24: 09:00-12:00,14:00-20:30","phone":"+33 389 231 939","power_supply":"yes","sanitary_dump_station":"yes","shower":"yes","source":"cadastre-dgi-fr source : Direction Générale des Impôts - Cadastre. Mise à jour : 2013","stars":"3","tents":"yes","toilets":"yes","website":"https://www.camping-eguisheim.fr/","wheelchair":"yes"}},"252514748":{"location":[48.0836904,7.3552816],"ct":"FR","tp":"CR","ts":"2024-07-14T11:35:32Z","tX":532,"tY":355,"tags":{"addr:city":"Colmar","addr:housenumber":"2","addr:street":"Rue Henry Wilhelm","capacity":"11","caravan_site":"motorhome_stopover","caravan_site:type":"town","fee":"yes","internet_access":"no","name":"Henry Wilhelm","power_supply":"no","sanitary_dump_station":"no","website":"https://www.visit.alsace/235017047-aire-de-stationnement-rue-henry-wilhelm/"}},"286049968":{"location":[48.181163,7.1846746],"ct":"FR","tp":"CS","ts":"2019-07-03T21:55:10Z","tX":532,"tY":355,"tags":{"addr:city":"Fréland","addr:country":"FR","addr:housenumber":"3","addr:postcode":"68240","addr:street":"Rue de la Fonderie","caravans":"yes","email":"gildas.douault@sfr.fr","fax":"+33 3 89 47 57 25","name":"Camping municipal \"Les Verts Bois\"","opening_hours":"Apr 01-Oct 31","payment:debit_cards":"yes","phone":"+33 3 89 47 57 25","tents":"35","website":"http://www.camping-lesvertsbois.com"}},"289987918":{"location":[48.0842587,7.0782323],"ct":"FR","tp":"CS","ts":"2025-05-14T09:33:47Z","tX":532,"tY":355,"tags":{"addr:city":"Soultzeren","addr:postcode":"68140","capacity":"250","capacity:persons":"80","caravans":"no","fee":"yes","group_only":"yes","internet_access":"no","name":"Schildmatt","note":"Pas un camping, uniquement de l'accueil organisé de groupes","operator":"Schildmatt e.V.","reservation":"required","tents":"yes","website":"https://www.schildmatt.com/"}},"430903020":{"location":[48.1184434,7.1311878],"ct":"FR","tp":"CS","ts":"2022-12-17T16:00:03Z","tX":532,"tY":355,"tags":{"caravans":"yes","name":"Camping du Chevremont","source":"survey","tents":"yes","website":"https://chevremont.pagesperso-orange.fr/camping.htm"}},"432986716":{"location":[48.0853695,7.2768762],"ct":"FR","tp":"CR","ts":"2024-10-03T16:37:14Z","tX":532,"tY":355,"tags":{"capacity":"20","caravan_site":"motorhome_stopover","caravan_site:type":"river","description":"5 EUR","email":"marie-turckheim@calixo.net","fee":"yes","internet_access":"no","name":"Aire de Stationnement Turckheim","phone":"+33 389 271808","power_supply":"no","sanitary_dump_station":"no","shower":"no","surface":"fine_gravel","tents":"no","toilets":"no","water_point":"no","website":"https://www.visit.alsace/235015947-aire-de-stationnement-pour-camping-car/"}},"438190329":{"location":[48.0808954,7.3749829],"ct":"FR","tp":"CR","ts":"2024-05-22T09:40:02Z","tX":532,"tY":355,"tags":{"capacity":"70","caravan_site":"motorhome_stopover","caravan_site:type":"harbour","charge":"16 EUR","charge:conditional":"14 EUR @ (Sep-Jun)","email":"port-plai@colmar.cci.fr","fee":"yes","name":"Aire de Stationnement - Port de Plaisance de Colmar","network":"Onlypark","phone":"+33 389 208220","power_supply":"yes","power_supply:charge":"4 EUR/3 hours","sanitary_dump_station":"customers","sanitary_dump_station:charge":"3 EUR/20 minutes","sanitary_dump_station:fee":"yes","seasonal":"no","source":"tourisme-alsace.com","surface":"asphalt","website":"https://www.onlypark.fr/aire-camping-car-de-colmar/","wheelchair":"yes"}},"445717578":{"location":[48.2014463,7.3683239],"ct":"FR","tp":"CS","ts":"2016-10-04T15:53:16Z","tX":532,"tY":355,"tags":{"description":"Capacité 7 emplacements","internet_access":"wlan","internet_access:fee":"no","name":"Camping du Vignoble","phone":"+33 389 738281","sanitary_dump_station":"yes"}},"608315041":{"location":[48.1807743,7.3081948],"ct":"FR","tp":"PK","ts":"2024-10-25T17:28:14Z","tX":532,"tY":355,"tags":{"access":"yes","fee":"no","motorhome":"yes","parking":"surface"}},"763099797":{"location":[48.0376498,7.134896],"ct":"FR","tp":"CR","ts":"2024-09-03T09:00:52Z","tX":532,"tY":355,"tags":{"capacity":"49","caravan_site":"motorhome_stopover","caravan_site:type":"town","charge":"15 EUR","fee":"yes","name":"Aire d'accueil des camping-Cars Munst'aire","operator":"Ville de Munster","power_supply":"yes","power_supply:maxcurrent":"16","sanitary_dump_station":"yes","water_point":"yes"}},"844720980":{"location":[48.0190886,7.1888307],"ct":"FR","tp":"CS","ts":"2021-04-10T12:20:34Z","tX":532,"tY":355,"tags":{"name":"Les Quatre Saisons"}},"987112039":{"location":[48.049336,7.207855],"ct":"FR","tp":"CS","ts":"2021-09-26T11:30:05Z","tX":532,"tY":355,"tags":{"name":"Camping du Moulin","phone":"+33389710626","stars":"2","website":"http://www.campingdumoulin.fr/"}},"1010592548":{"location":[48.1155157,7.1213436],"ct":"FR","tp":"CS","ts":"2020-10-31T00:54:53Z","tX":532,"tY":355,"tags":{"ele":"700","name":"Les Moraines","phone":"+33 3 89 71 25 19"}},"1144446733":{"location":[48.1912192,7.329835],"ct":"FR","tp":"CR","ts":"2024-10-20T15:42:31Z","tX":532,"tY":355,"tags":{"cabins":"no","capacity":"26","caravan_site":"motorhome_stopover","caravan_site:type":"winery","charge":"15 EUR/day","fee":"yes","internet_access":"wlan","name":"Aire de camping-car Cave de Ribeauvillé","opening_hours":"24/7","operator":"Cave de Ribeauvillé","phone":"+33 6 85 73 66 36","power_supply":"yes","sanitary_dump_station":"yes","seasonal":"no","surface":"paved","tents":"no","toilets":"no","water_point":"yes","website":"https://www.vins-ribeauville.com/"}},"1194837076":{"location":[48.0407043,7.3088349],"ct":"FR","tp":"CR","ts":"2024-10-03T14:28:02Z","tX":532,"tY":355,"tags":{"capacity":"33","caravan_site":"motorhome_stopover","caravan_site:type":"village","charge":"21.35 EUR","charge:services":"8.50 EUR/4h","fee":"yes","internet_access":"wlan","motorhome":"designated","name":"Aire de Camping Cars Eguisheim","power_supply":"yes","sanitary_dump_station":"yes","sanitary_dump_station:fee":"no","toilets":"yes","water_point":"yes","website":"https://www.ville-eguisheim.fr/decouvrir-eguisheim/parking-mairie-eguisheim","wheelchair":"yes"}},"1238034521":{"location":[48.1354701,7.0916457],"ct":"FR","tp":"CR","ts":"2024-01-08T11:50:04Z","tX":532,"tY":355,"tags":{"capacity":"9","caravan_site":"motorhome_stopover","caravan_site:type":"restaurant","charge":"7 EUR","email":"les-terrasses-du-lac-blanc@wanadoo.fr","fee":"yes","name":"Aire de Camping-Cars des Terrasses du Lac Blanc","phone":"+33 389 865000","power_supply":"yes","power_supply:charge":"4 EUR","sanitary_dump_station":"yes","source":"tourisme-alsace.com","water_point":"yes","website":"https://www.lesterrassesdulacblanc.com/en/camper-van-area"}},"1238179893":{"location":[48.0581952,7.3003232],"ct":"FR","tp":"CR","ts":"2024-01-09T00:39:33Z","tX":532,"tY":355,"tags":{"caravan_site":"motorhome_stopover","caravan_site:type":"winery","fee":"no","name":"Jean-Louis SCHOEPFER.","phone":"+33 (0)6 70 89 57 56","website":"https://vinsjlschoepfer.fr/"}},"1238343584":{"location":[48.0445289,7.3049966],"ct":"FR","tp":"CR","ts":"2024-01-09T15:28:59Z","tX":532,"tY":355,"tags":{"caravan_site":"motorhome_stopover","caravan_site:type":"winery","fee":"no","name":"Domaine Pierre de Vigne Accueil de camping-car","seasonal":"no","surface":"paving_stones","website":"http://www.pierredevigne.fr/fr/stationnement-camping-car-alsace-route-des-vins.html"}},"1298669016":{"location":[48.0226921,7.2851942],"ct":"FR","tp":"CR","ts":"2024-10-31T18:51:46Z","tX":532,"tY":355,"tags":{"capacity":"4","caravan_site":"motorhome_stopover","caravan_site:type":"winery","description":"Free if you buy a few bottles of wine","dog":"leashed","email":"contact@denismeyeretfilles.com","fee":"no","internet_access":"wlan","internet_access:fee":"no","name":"Aire de camping-cars – Domaine Denis Meyer","phone":"+33 3 89493800","power_supply":"yes","power_supply:fee":"no","reservation":"yes","sanitary_dump_station":"yes","sanitary_dump_station:chemical_station":"yes","sanitary_dump_station:grey_water":"yes","shower":"no","toilets":"no","waste":"no","water_point":"yes","water_point:fee":"no","website":"http://vins.dfmeyer.free.fr/denis%20meyer.htm","wikimedia_commons":"Category:Aire camping cars-Domaine Denis Meyer"}},"1301285864":{"location":[48.0822649,7.3594795],"ct":"FR","tp":"CR","ts":"2024-07-14T11:41:43Z","tX":532,"tY":355,"tags":{"capacity":"20","caravan_site":"motorhome_stopover","caravan_site:type":"street_side","fee":"yes","name":"Aire Rue de la cavalerie - Colmar","surface":"asphalt","website":"https://www.visit.alsace/235017046-aire-de-stationnement-rue-de-la-cavalerie/"}},"1312845336":{"location":[48.1315216,7.301445],"ct":"FR","tp":"CR","ts":"2024-09-02T16:03:12Z","tX":532,"tY":355,"tags":{"addr:housenumber":"5-7","addr:street":"Rue du Vieux Moulin","capacity":"20","caravan_site":"motorhome_stopover","caravan_site:type":"winery","fee":"no","name":"Aire Domaine Fritz","opening_hours":"24/7","power_supply":"yes","seasonal":"no","website":"https://www.domaine-fritz.fr/accueil-de-groupe/"}},"1319729522":{"location":[48.1682948,7.3150381],"ct":"FR","tp":"PK","ts":"2024-09-30T21:42:54Z","tX":532,"tY":355,"tags":{"access":"yes","capacity":"1","fee":"no","motorhome":"yes","motorhome:overnight":"yes"}},"1319737258":{"location":[48.1360918,7.268362],"ct":"FR","tp":"CR","ts":"2024-10-03T16:37:25Z","tX":532,"tY":355,"tags":{"capacity":"6","caravan_site":"motorhome_stopover","caravan_site:type":"supermarket","caravans":"no","drinking_water":"no","fee":"no","name":"Parking Intermarche Kaysersberg","power_supply":"no","sanitary_dump_station":"no","surface":"asphalt","tents":"no","toilets":"no"}},"1726954552":{"location":[48.1304816,7.1621053],"ct":"FR","tp":"CS","ts":"2022-03-23T06:38:06Z","tX":532,"tY":355,"tags":{"addr:city":"Orbey","addr:country":"FR","addr:postcode":"68370","addr:street":"Lieu-dit La Camme","contact:phone":"+33 3 89 71 37 42","contact:website":"www.camping-orbey.com","name":"Camping Lefébure"}},"3102622714":{"location":[48.1958747,7.2227288],"ct":"FR","tp":"CR","ts":"2024-09-30T14:10:46Z","tX":532,"tY":355,"tags":{"alt_name":"Cabanes dans les Arbres","cabin:rental":"yes","caravan_site":"motorhome_stopover","caravan_site:type":"guest_house","dinner":"yes","fee":"yes","name":"Domaine Hauts de Ribeauvillé","opening_hours":"May-Sep","phone":"+33 6 75 06 70 24","source":"cadastre-dgi-fr source : Direction Générale des Impôts - Cadastre.","website":"https://www.domaine-hauts-de-ribeauville.fr/"}},"3737284249":{"location":[48.0792106,7.1092706],"ct":"FR","tp":"CS","ts":"2023-10-30T05:11:57Z","tX":532,"tY":355,"tags":{"addr:city":"Soultzeren","addr:housenumber":"4","addr:postcode":"68140","addr:street":"Oberer Geisberg","capacity":"ca. 10","fee":"yes","name":"Camping Ferme Roess","operator":"Fam. Roess","phone":"+33389770209","website":"https://chezchantaletdany.fr/"}},"4305069790":{"location":[48.2040351,7.3716759],"ct":"FR","tp":"CS","ts":"2021-02-24T03:05:53Z","tX":532,"tY":355,"tags":{"addr:housenumber":"4A","addr:postcode":"68750","addr:street":"Rue des Romains","email":"jean-martin.haetty@wanadoo.fr","name":"Camping à la Ferme \"Les Noyers\"","operator":"Jean-Martin HAETTY","phone":"+33608346010","website":"http://www.facebook.com/campinglesnoyers"}},"6418915668":{"location":[48.2094713,7.3443947],"ct":"FR","tp":"CS","ts":"2022-05-30T15:32:02Z","tX":532,"tY":355,"tags":{"name":"Camping Rural Tempelhof"}},"9291537317":{"location":[48.0871574,7.3064004],"ct":"FR","tp":"CS","ts":"2023-09-18T09:09:32Z","tX":532,"tY":355,"tags":{"addr:housenumber":"19","addr:postcode":"68124","addr:street":"Rue du Muhlbach","caravans":"yes","drinking_water":"yes","name":"Kempf Marc","name:en":"Camping Marc","phone":"+33 3 89 27 40 38","power_supply":"yes","shower":"yes","tents":"yes","toilets":"yes"}},"11097665197":{"location":[47.9964342,7.0593714],"ct":"FR","tp":"CS","ts":"2023-08-07T18:12:23Z","tX":532,"tY":355,"tags":{"addr:city":"Sondernach","addr:isolated_dwelling":"Lieu-Dit Im Berg","caravans":"no","name":"Camping Imberg","static_caravans":"no","tents":"yes","website":"https://www.imberg.nl/index.htm"}},"4720127511":{"location":[48.1975075,7.2219998],"ct":"FR","tp":"CR","ts":"2024-09-30T14:01:57Z","tX":532,"tY":355,"tags":{"capacity":"5","caravan_site":"motorhome_stopover","caravan_site:type":"village","caravans":"no","email":"aubure-mairie@orange.fr","fee":"no","name":"Aire de Stationement Aubure","phone":"+33 389 739016","seasonal":"no","tents":"no","website":"https://www.visit.alsace/229002771-aire-de-stationnement-pour-camping-car/"}},"4722628056":{"location":[48.1707114,7.3211418],"ct":"FR","tp":"CR","ts":"2024-09-30T21:42:54Z","tX":532,"tY":355,"tags":{"capacity":"3","caravan_site":"motorhome_stopover","caravan_site:type":"village","caravans":"no","fee":"no","name":"Domaine Edmond Rentz - Zellenberg","phone":"+33 389 479015","tents":"no","toilets":"no"}},"4723666850":{"location":[48.1651382,7.2980609],"ct":"FR","tp":"CR","ts":"2024-10-03T14:37:10Z","tX":532,"tY":355,"tags":{"capacity":"12","caravan_site":"motorhome_stopover","caravan_site:type":"parking_lot;village","charge":"30 EUR","description":"Parking seulement bus et camping cars. 7/7, 09:00-19:00: 20 EUR; 19:00-09:00 10 EUR","email":"mairie@riquewihr.fr","fee":"yes","name":"Aire de Stationnement Riquewihr (Place Jean Monnet)","phone":"+33 389 490910","source":"tourisme-alsace.com","website":"https://riquewihr.fr/fr/rb/724791/circulation-et-stationnement-1"}},"4723666851":{"location":[48.166513,7.3016013],"ct":"FR","tp":"CR","ts":"2024-05-08T21:10:27Z","tX":532,"tY":355,"tags":{"caravan_site":"motorhome_stopover","caravan_site:type":"village","charge":"30 EUR","fee":"yes","name":"Aire d'accueil pour camping-car Riquewihr Avenue Jacques Preiss","phone":"+33 389 474985","sanitary_dump_station":"yes","website":"https://www.ribeauville-riquewihr.com/LEI/Aire-d'accueil-pour-camping-car.htm?HTMLPage=/aires-de-campings-cars.htm&action=&page=1&commune=&categorie=1900003s1900006&genre=1900001&nom_recherche=&ID=229002440&GENRE=1900001&CATEGORIE=1900003"}},"4723822020":{"location":[48.1929328,7.1137004],"ct":"FR","tp":"CR","ts":"2024-10-01T10:35:47Z","tX":532,"tY":355,"tags":{"capacity":"50","caravan_site":"motorhome_stopover","caravan_site:type":"skiing","caravans":"no","name":"Val d'Argeut","phone":"+33 389 588050","tents":"no","toilets":"no"}},"4730824975":{"location":[48.1008918,7.2293199],"ct":"FR","tp":"CR","ts":"2024-09-30T18:24:48Z","tX":532,"tY":355,"tags":{"caravan_site":"motorhome_stopover","caravan_site:type":"parking_lot","caravans":"no","email":"sivom.trois.epis@wanadoo.fr","fee":"no","name":"Aire de Camping-Cars Trois Epis","phone":"+33 389 789078","power_supply":"yes","power_supply:charge":"7 EUR/hour","power_supply:fee":"yes","shower":"yes","shower:charge":"1 EUR","shower:fee":"yes","source":"tourisme-alsace.com","surface":"asphalt","tents":"no","toilets":"yes","toilets:charge":"0.50 EUR","toilets:fee":"yes","water_point":"yes","water_point:charge":"7 EUR/100 liter","water_point:fee":"yes","website":"https://les-trois-epis.fr/accueil-touristique/camping-car/"}},"7717893959":{"location":[48.0468141,7.3069466],"ct":"FR","tp":"CR","ts":"2024-04-02T22:49:57Z","tX":532,"tY":355,"tags":{"caravan_site":"motorhome_stopover","caravan_site:type":"winery","fee":"no","name":"Antoine Stoffel","power_supply":"yes","power_supply:fee":"yes","website":"https://antoinestoffel.com/"}},"11497519272":{"location":[48.004616,7.2788849],"ct":"FR","tp":"CR","ts":"2024-01-07T16:08:10Z","tX":532,"tY":355,"tags":{"capacity":"2","caravan_site":"motorhome_stopover","caravan_site:type":"winery","name":"Domaine François Weck Gueberschwihr","website":"https://vin-weck.fr"}},"12030074210":{"location":[48.0019582,7.2872333],"ct":"FR","tp":"CR","ts":"2024-10-31T18:56:27Z","tX":532,"tY":355,"tags":{"capacity":"2","caravan_site":"motorhome_stopover","caravan_site:type":"winery","check_in":"21:00","degustation":"-18:00","description":"breakfast in the winegrower’s cellar","email":"cave@vin-alsace-gueth.com","fee":"no","name":"Domaine GUETH","phone":"+33 06 08 26 43 34","power_supply":"yes","reservation":"required","sanitary_dump_station":"no","toilets":"no","water_point":"yes","website":"https://www.vin-alsace-gueth.com/camping-car-chez-le-vigneron-en-alsace/"}},"12030079592":{"location":[48.0512713,7.3113129],"ct":"FR","tp":"CR","ts":"2024-10-07T23:25:19Z","tX":532,"tY":355,"tags":{"caravan_site":"motorhome_stopover","caravan_site:type":"winery","caravans":"yes","fee":"purchase","name":"Caves Dietrich & Fils","phone":"+33 (0)3 89 216 700","website":"http://www.alsace-robert-dietrich.com/en/the-estate/location.html"}},"12030089516":{"location":[48.0055959,7.2767928],"ct":"FR","tp":"CR","ts":"2024-10-23T15:32:05Z","tX":532,"tY":355,"tags":{"capacity":"2","caravan_site":"motorhome_stopover","caravan_site:type":"winery","check_in":"18:30","name":"Aire de camping-cars Domaine Xavier Schneider","phone":"+33 6 85302159","power_supply":"yes","reservation":"yes","tourism:website":"https://www.visit.alsace/en/253004261-aire-de-camping-cars-domaine-xavier-schneider/","water_point":"yes","website":"https://vins-schneider.fr/"}},"4720119402":{"location":[48.2041026,7.3717986],"ct":"FR","tp":"SD","ts":"2017-03-06T10:42:28Z","tX":532,"tY":355,"tags":{"email":"jean-martin-haetty@wanadoo.fr","name":"Aire d'Accueil Artisanale Bergheim","phone":"+33 608 346010","source":"tourisme-alsace.com"}},"4723666852":{"location":[48.1661763,7.3014242],"ct":"FR","tp":"SD","ts":"2024-05-07T14:44:00Z","tX":532,"tY":355,"tags":{"access":"yes","charge:conditional":"10 EUR @ (19:00-09:00)","description":"Borne: Euro Relais","phone":"+33 389 474985","source":"tourisme-alsace.com"}},"4723692282":{"location":[48.0399285,7.1391541],"ct":"FR","tp":"SD","ts":"2023-10-30T05:10:01Z","tX":532,"tY":355,"tags":{"email":"marie@ville-munster68.fr","name":"Aire de Stationnement Munster","phone":"+33 389 773298","source":"tourisme-alsace.com","website":"https://www.munster.alsace/"}},"4723713216":{"location":[48.0805816,7.3745405],"ct":"FR","tp":"SD","ts":"2019-07-28T08:16:58Z","tX":532,"tY":355,"tags":{"contact:city":"Colmar","contact:country":"FR","contact:email":"port-plai@colmar.cci.fr","contact:housenumber":"6","contact:phone":"+33 3 89 20 82 20","contact:postcode":"68000","contact:street":"Rue du Canal","contact:website":"http://www.port-plaisance-colmar.fr","name":"Aire de Stationnement - Port de Plaisance de Colmar","source":"tourisme-alsace.com"}},"4723713218":{"location":[48.0515431,7.2048389],"ct":"FR","tp":"SD","ts":"2024-05-12T10:21:48Z","tX":532,"tY":355,"tags":{"description":"Tarif 5,00","email":"info@camping-routeverte.com","fee":"yes","motorhome":"designated","phone":"+33 389 711010","source":"tourisme-alsace.com","website":"https://camping-routeverte.com/"}},"4723756080":{"location":[48.0427686,7.2994345],"ct":"FR","tp":"SD","ts":"2025-06-07T20:01:42Z","tX":532,"tY":355,"tags":{"fee":"yes","name":"Camping des Trois Châteaux","phone":"+33 389 231 939","website":"https://www.camping-eguisheim.fr/"}},"4730824976":{"location":[48.1008688,7.2299367],"ct":"FR","tp":"SD","ts":"2019-03-24T23:53:12Z","tX":532,"tY":355,"tags":{"email":"sivom.trois.epis@wanadoo.fr","name":"Aire de Camping-Cars Trois Epis","phone":"+33 389 789078","source":"tourisme-alsace.com","website":"https://les-trois-epis.fr/"}},"4861863309":{"location":[48.0374884,7.1330764],"ct":"FR","tp":"SD","ts":"2024-08-16T16:20:33Z","tX":532,"tY":355,"tags":{"fee":"no","source":"gpx"}},"9028461072":{"location":[48.0850414,7.2720225],"ct":"FR","tp":"SD","ts":"2024-10-03T14:51:41Z","tX":532,"tY":355,"tags":{"access":"customers","fee":"yes"}},"9952382511":{"location":[48.1990229,7.3018798],"ct":"FR","tp":"SD","ts":"2022-08-14T10:14:14Z","tX":532,"tY":355,"tags":{"access":"yes","fee":"yes","opening_hours":"24/7","sanitary_dump_station:basin":"yes","sanitary_dump_station:pump-out":"yes","sanitary_dump_station:round_drain":"yes"}},"11080412411":{"location":[48.1910506,7.3298637],"ct":"FR","tp":"SD","ts":"2024-10-20T15:42:23Z","tX":532,"tY":355,"tags":{"fee":"no"}},"11090321467":{"location":[48.1360565,7.262105],"ct":"FR","tp":"SD","ts":"2024-01-08T11:19:23Z","tX":532,"tY":355,"tags":{"capacity":"2"}},"12896894970":{"location":[48.1177032,7.1245376],"ct":"FR","tp":"CS","ts":"2025-06-08T14:41:46Z","tX":532,"tY":355,"tags":{"addr:housenumber":"314","addr:street":"les Machielles","name":"Miclo André","phone":"+33637561637"}}}