{"49532421":{"location":[47.9550462,7.2961636],"ct":"FR","tp":"CS","ts":"2024-06-23T19:37:47Z","tX":532,"tY":356,"tags":{"name":"Camping municipal Rouffach","opening_hours":"May 01-Sep 01: 08:00-09:00,18:00-19:00","phone":"+33 389 497813","sanitary_dump_station":"no","source":"cadastre-dgi-fr source : Direction Générale des Impôts - Cadastre. Mise à jour : 2010","website":"https://www.ville-rouffach.fr/culture-sport-loisir/infrastructures/308-camping-municipal"}},"68748805":{"location":[47.9811947,7.2199541],"ct":"FR","tp":"CS","ts":"2021-12-19T21:34:45Z","tX":532,"tY":356,"tags":{"access":"customers","addr:city":"Osenbach","addr:housenumber":"31","addr:postcode":"68570","addr:street":"Rue du Stade","name":"Camping Osenbach","operator":"Raphael Wachenheim","phone":"+33 389 470522","stars":"3","website":"https://www.camping-osenbach.com"}},"70535034":{"location":[47.9008948,7.23506],"ct":"FR","tp":"CS","ts":"2023-11-03T17:28:21Z","tX":532,"tY":356,"tags":{"addr:city":"Issenheim","addr:postcode":"68500","addr:street":"Route de Soultz","name":"Le Florival","operator":"Municipal","source":"cadastre-dgi-fr source : Direction Générale des Impôts - Cadastre. Mise à jour : 2010","website":"https://www.camping-leflorival.com/"}},"215652419":{"location":[47.9449148,7.1280092],"ct":"FR","tp":"CR","ts":"2024-10-03T00:59:23Z","tX":532,"tY":356,"tags":{"addr:city":"Linthal","addr:housenumber":"15-18","addr:postcode":"68610","addr:street":"Rue du Markstein","capacity":"4","caravan_site":"motorhome_stopover","caravan_site:type":"village","contact:email":"infos@cc-guebwiller.fr","contact:phone":"+33 3 89 62 12 34","contact:website":"http://www.cc-guebwiller.fr","fee":"no","internet_access":"no","name":"Aire de camping car Linthal","power_supply":"yes","power_supply:fee":"yes","sanitary_dump_station":"yes","seasonal":"no","source":"tourisme-alsace.com","surface":"asphalt","water_point":"yes","water_point:fee":"yes"}},"254675030":{"location":[47.8804301,7.0591462],"ct":"FR","tp":"CS","ts":"2020-08-21T07:18:38Z","tX":532,"tY":356,"tags":{"caravans":"yes","fee":"yes","name":"Relais du Grand Ballon","power_supply":"yes","shower":"yes","tents":"yes","toilets":"yes","website":"https://www.aurelaisdugrandballon.com"}},"262025535":{"location":[47.8793936,7.3438059],"ct":"FR","tp":"CS","ts":"2024-07-31T15:13:31Z","tX":532,"tY":356,"tags":{"addr:city":"Ensisheim","addr:postcode":"68190","addr:street":"Chemin de l'Eiblen","brand":"FFN","description":"Un camping naturiste en Alsace, associatif et animé par des membres bénévoles épris de liberté et bien dans leur peau.","email":"contact@csmulhouse.fr","name":"Club du Soleil Mulhouse","nudism":"yes","operator":"Club du soleil Mulhouse","phone":"+33 3 89 81 77 35","website":"http://www.clubdusoleilmulhouse.fr"}},"330633099":{"location":[47.8719662,7.1741614],"ct":"FR","tp":"CS","ts":"2020-01-02T16:33:37Z","tX":532,"tY":356,"tags":{}},"424887948":{"location":[47.8323096,7.1668185],"ct":"FR","tp":"CS","ts":"2019-07-03T21:55:10Z","tX":532,"tY":356,"tags":{"addr:city":"Wattwiller","addr:country":"FR","addr:postcode":"68700","addr:street":"Route des Crêtes","caravans":"yes","email":"wattwiller@huttopia.com","fax":"+333 89 75 71 98","internet_access":"wlan","internet_access:fee":"no","name":"Camping Huttopia Wattwiller","phone":"+333 89 75 44 94","stars":"4","tents":"100","website":"https://europe.huttopia.com/site/wattwiller/"}},"451559780":{"location":[47.8116271,7.1050166],"ct":"FR","tp":"CR","ts":"2024-07-03T00:21:39Z","tX":532,"tY":356,"tags":{"capacity":"10","caravan_site":"motorhome_stopover","caravan_site:type":"river","fee":"no","internet_access":"no","name":"Parking Bungert (Camping Car)","operator":"Municipal","phone":"+33 389 379620","sanitary_dump_station":"no","source":"tourisme-alsace.com","wheelchair":"yes"}},"664705022":{"location":[47.8632645,7.2141846],"ct":"FR","tp":"CR","ts":"2024-10-03T00:53:42Z","tX":532,"tY":356,"tags":{"capacity":"5","caravan_site":"motorhome_stopover","caravan_site:type":"village","email":"infos@cc-guebwiller.fr","fee":"no","name":"Aire de Services Hartmannswiller","phone":"+33 389 621234","sanitary_dump_station":"yes","seasonal":"no","source":"tourisme-alsace.com","water_point":"yes","website":"https://www.cc-guebwiller.fr/"}},"722005700":{"location":[47.8049186,7.1703118],"ct":"FR","tp":"CS","ts":"2023-09-10T14:04:56Z","tX":532,"tY":356,"tags":{"caravans":"yes","drinking_water":"yes","email":"contact@camping-les-cigognes.com","internet_access":"no","name":"Les Cigognes","opening_hours":"Apr 01 - Sep 30","phone":"+33 389755697","shower":"yes","stars":"3","tents":"yes","toilets":"yes","website":"https://www.camping-les-cigognes.com"}},"940770478":{"location":[47.7554919,7.0994449],"ct":"FR","tp":"CS","ts":"2024-10-18T11:01:21Z","tX":532,"tY":356,"tags":{"name":"Camping de la Doller","website":"https://campingdoller.fr/"}},"1190258557":{"location":[47.9406419,7.1471945],"ct":"FR","tp":"CS","ts":"2024-05-19T01:22:40Z","tX":532,"tY":356,"tags":{"addr:city":"Lautenbach-Zell","addr:housenumber":"51","addr:postcode":"68610","addr:street":"Grand Rue","caravans":"yes","contact:email":"camping.vertvallon@gmail.com","drinking_water":"yes","fee":"yes","name":"Le Vert Vallon","operator":"Camping Municipal","phone":"+33 3 67 26 74 63","power_supply":"yes","shower":"yes","tents":"yes","website":"https://levertvallon.fr/"}},"1238139330":{"location":[47.9451909,7.2555123],"ct":"FR","tp":"CR","ts":"2024-10-07T23:28:31Z","tX":532,"tY":356,"tags":{"bbq":"no","capacity":"5","caravan_site":"motorhome_stopover","caravan_site:type":"winery","description":"at winery and restaurant","dog":"yes","email":"info@bollenberg.com","fee":"no","maxweight":"3.5","name":"Aire de Camping-Cars du Bollenberg","network":"France Passion","opening_hours:winery":"08:00-18:00","phone":"+33 389 496004","power_supply":"no","source":"tourisme-alsace.com","toilets":"yes","water_point":"yes","website":"https://bollenberg.com/aire-de-camping-cars-domaine-du-bollenberg/"}},"1318919016":{"location":[47.9563119,7.251111],"ct":"FR","tp":"CR","ts":"2024-10-05T23:45:48Z","tX":532,"tY":356,"tags":{"capacity":"10","caravan_site":"motorhome_stopover","caravan_site:type":"winery","email":"mairie-soultzmatt@wanadoo.fr","fee":"no","name":"Aire de Service Soultzmatt","phone":"+33 389 470001","power_supply":"yes","power_supply:fee":"no","sanitary_dump_station":"yes","sanitary_dump_station:fee":"no","source":"tourisme-alsace.com","water_point":"yes","water_point:fee":"no","website":"https://www.tourisme-guebwiller.fr/fr/fiche-sit/F232007096_aire-de-services-pour-camping-cars-soultzmatt/"}},"1319692774":{"location":[47.9373762,7.2309418],"ct":"FR","tp":"CR","ts":"2024-09-30T18:16:16Z","tX":532,"tY":356,"tags":{"capacity":"5","caravan_site":"motorhome_stopover","caravan_site:type":"village","caravans":"no","email":"infos@cc-guebwiller.fr","fee":"no","name":"Aire de Service Orschwihr","opening_hours":"24/7","picnic_table":"yes","power_supply":"yes","sanitary_dump_station":"yes","sanitary_dump_station:fee":"no","seasonal":"no","source":"tourisme-alsace.com","tents":"no","water_point":"yes","water_point:fee":"no","website":"https://www.tourisme-guebwiller.fr/fr/fiche-sit/F232006100_aire-de-services-pour-camping-cars-orschwihr/"}},"1738987967":{"location":[47.9230337,7.1604339],"ct":"FR","tp":"CR","ts":"2024-09-30T18:21:31Z","tX":532,"tY":356,"tags":{"addr:postcode":"68530","caravan_site":"motorhome_stopover","caravan_site:type":"village","caravans":"no","fee":"no","name":"Aire de Services Murbach","phone":"+33 389 621234","power_supply":"yes","power_supply:fee":"no","sanitary_dump_station":"yes","sanitary_dump_station:fee":"no","source":"tourisme-alsace.com","tents":"no","water_point":"yes","water_point:fee":"no","website":"https://www.tourisme-guebwiller.fr/fr/fiche-sit/F232006102_aire-de-services-pour-camping-cars-murbach/"}},"1947196832":{"location":[47.8632212,7.2143024],"ct":"FR","tp":"SD","ts":"2023-11-03T17:28:08Z","tX":532,"tY":356,"tags":{"description":"Borne: Flot Bleu","email":"infos@cc-guebwiller.fr","fee":"4.3€","name":"Aire de Services Hartmannswiller","phone":"+33 389 621234","sanitary_dump_station:accepted":"black_water;grey_water;tank_chemicals","source":"tourisme-alsace.com","website":"https://www.cc-guebwiller.fr/"}},"3163485744":{"location":[47.8880558,7.231319],"ct":"FR","tp":"SD","ts":"2023-11-03T17:28:31Z","tX":532,"tY":356,"tags":{"description":"Borne: Flot Bleu","email":"infos@cc-guebwiller.fr","fee":"yes","lit":"yes","name":"Aire de Service Soultz-Haut-Rhin","operator":"Flot Bleu","phone":"+33 389 621234","sanitary_dump_station:accepted":"black_water;grey_water;tank_chemicals","source":"tourisme-alsace.com","website":"https://www.cc-guebwiller.fr/"}},"3775046698":{"location":[47.9562164,7.2514049],"ct":"FR","tp":"SD","ts":"2024-09-28T01:00:30Z","tX":532,"tY":356,"tags":{"access":"yes","description":"Borne: Euro Relais Junior","email":"mairie-soultzmatt@wanadoo.fr","fee":"yes","name":"Aire de Service Soultzmatt","phone":"+33 389 470001","sanitary_dump_station:basin":"yes","sanitary_dump_station:round_drain":"yes","source":"tourisme-alsace.com","water_point":"yes","water_point:fee":"no","website":"www.ville-soultzmatt.fr"}},"3779639197":{"location":[47.9371858,7.2312788],"ct":"FR","tp":"SD","ts":"2024-09-30T18:16:16Z","tX":532,"tY":356,"tags":{"access":"yes","description":"Borne: Flot Bleu","email":"infos@cc-guebwiller.fr","fee":"no","name":"Aire de Service Orschwihr","sanitary_dump_station:basin":"yes","sanitary_dump_station:round_drain":"yes","source":"tourisme-alsace.com","website":"https://www.cc-guebwiller.fr/"}},"4113526240":{"location":[47.9554134,7.2955689],"ct":"FR","tp":"SD","ts":"2017-03-23T12:19:44Z","tX":532,"tY":356,"tags":{"access":"yes","description":"Borne: Flot Bleu, 5,00 Eur","email":"accueil@ville-rouffach.fr","fee":"yes","name":"Aire de Camping-Cars Rouffach","phone":"+33 389 780300","source":"tourisme-alsace.com","website":"www.ot-rouffach.com"}},"4175693789":{"location":[47.8725301,7.1732818],"ct":"FR","tp":"CS","ts":"2019-03-24T23:50:00Z","tX":532,"tY":356,"tags":{"addr:city":"Wuenheim","addr:postcode":"68360","name":"La Sapiniere","website":"https://www.tourisme-alsace.com/de/232005185-Camping-la-Sapiniere.html"}},"4175693808":{"location":[47.9229889,7.1604416],"ct":"FR","tp":"SD","ts":"2017-03-12T17:18:55Z","tX":532,"tY":356,"tags":{"access":"yes","description":"Borne: Flot Bleu","email":"infos@cc-guebwilelr.fr","fee":"yes","name":"Aire de Services Murbach","phone":"+33 389 621234","source":"tourisme-alsace.com","website":"www.cc-guebwilelr.fr"}},"4175693809":{"location":[47.9450043,7.1279499],"ct":"FR","tp":"SD","ts":"2024-10-03T00:59:23Z","tX":532,"tY":356,"tags":{"access":"yes","contact:email":"infos@cc-guebwiller.fr","contact:phone":"+33 3 89 62 12 34","contact:website":"http://www.cc-guebwiller.fr","description":"Borne: Flot Bleu","fee":"yes","name":"Aire de Services Linthal","source":"tourisme-alsace.com","website":"https://flotbleu.com/haut_rhin/aire-de-service/360"}},"9181277933":{"location":[47.9523383,7.2153441],"ct":"FR","tp":"CS","ts":"2021-10-18T21:20:08Z","tX":532,"tY":356,"tags":{"group_only":"yes","name":"Val du Pâtre","openfire":"yes","operator":"SGDF","shower":"no","toilets":"yes","website":"http://valdupatre.com"}},"11822501407":{"location":[47.9250883,7.0350886],"ct":"FR","tp":"CS","ts":"2024-04-16T16:12:15Z","tX":532,"tY":356,"tags":{"access":"yes","backcountry":"yes","camp_site":"basic","capacity:tents":"1","caravans":"no","fee":"no","motor_vehicle":"no","static_caravans":"no","tents":"yes","toilets":"yes"}},"11822501408":{"location":[47.9249459,7.0351518],"ct":"FR","tp":"CS","ts":"2024-04-16T16:12:15Z","tX":532,"tY":356,"tags":{"access":"yes","backcountry":"yes","camp_site":"basic","capacity:tents":"1","caravans":"no","fee":"no","motor_vehicle":"no","static_caravans":"no","tents":"yes","toilets":"yes"}},"11822501409":{"location":[47.9247962,7.0351572],"ct":"FR","tp":"CS","ts":"2024-04-16T16:12:15Z","tX":532,"tY":356,"tags":{"access":"yes","backcountry":"yes","camp_site":"basic","capacity:tents":"1","caravans":"no","fee":"no","motor_vehicle":"no","static_caravans":"no","tents":"yes","toilets":"yes"}},"12097428489":{"location":[47.9529933,7.2161],"ct":"FR","tp":"CS","ts":"2024-08-07T16:36:06Z","tX":532,"tY":356,"tags":{"caravans":"yes","tents":"yes"}},"4485648544":{"location":[47.8086099,7.1044934],"ct":"FR","tp":"CR","ts":"2024-07-03T00:19:24Z","tX":532,"tY":356,"tags":{"capacity":"20","caravan_site":"motorhome_stopover","caravan_site:type":"parking_lot;village","fee":"no","name":"Parking du Centre Thann","surface":"asphalt"}},"4723763319":{"location":[47.9553284,7.2955378],"ct":"FR","tp":"CR","ts":"2023-12-16T16:22:29Z","tX":532,"tY":356,"tags":{"capacity":"10","caravan_site":"motorhome_stopover","caravan_site:type":"town","email":"accueil@ville-rouffach.fr","fee":"no","name":"Aire de Camping-Cars Rouffach","phone":"+33 389 780300","sanitary_dump_station":"yes","seasonal":"no","services:fee":"yes","source":"tourisme-alsace.com","surface":"asphalt","water_point":"yes","website":"https://apps.tourisme-alsace.info/xml/marquesblanches/marquesBlanches.asp?id=2002221000001#"}},"4723763321":{"location":[47.986585,7.2918499],"ct":"FR","tp":"CR","ts":"2024-09-30T14:59:23Z","tX":532,"tY":356,"tags":{"capacity":"5","caravan_site":"motorhome_stopover","caravan_site:type":"winery","caravans":"no","charge":"5 EUR","email":"contact@vins-walter.com","facebook":"https://www.facebook.com/p/Alsace-Bernard-Fils-Walter-100054609541868/","fee":"yes","name":"Aire Le Winzerhof - Domaine Walter","phone":"+33 389 496285","picnic_table":"yes","power_supply":"yes","tents":"no","toilets":"yes","water_point":"yes","website":"https://www.visit.alsace/253001407-aire-de-camping-cars-du-winzerhof/"}},"4723782883":{"location":[47.8880826,7.2314202],"ct":"FR","tp":"CR","ts":"2024-09-30T21:59:52Z","tX":532,"tY":356,"tags":{"caravan_site":"motorhome_stopover","caravan_site:type":"parking_lot","caravans":"no","email":"infos@cc-guebwiller.fr","fee":"no","name":"Aire de Service Soultz-Haut-Rhin","phone":"+33 389 621234","power_supply":"yes","sanitary_dump_station":"yes","tents":"no","water_point":"yes"}},"4723840120":{"location":[47.8432367,7.0727208],"ct":"FR","tp":"CR","ts":"2024-07-03T00:15:19Z","tX":532,"tY":356,"tags":{"capacity":"6","caravan_site":"motorhome_stopover","caravan_site:type":"parking_lot;village","contact:email":"mairie@willersurthur.fr","contact:phone":"+33 3 89 38 16 50","contact:website":"http://www.willersurthur.fr","fee":"no","name":"Aire de Services Willer-sur-Thur","sanitary_dump_station":"yes","sanitary_dump_station:chemical_toilet":"yes","sanitary_dump_station:grey_water":"yes","source":"tourisme-alsace.com","website":"https://www.visit.alsace/239000935-aire-de-service-pour-camping-car-de-willer-sur-thur/"}},"7682818942":{"location":[47.9051028,7.10366],"ct":"FR","tp":"CR","ts":"2024-11-01T13:23:47Z","tX":532,"tY":356,"tags":{"caravan_site":"motorhome_stopover","caravan_site:type":"mountains","fee":"no","name":"Aire de Camping Car du Grand Ballon","power_supply":"no","sanitary_dump_station":"no","toilets":"yes","water_point":"no"}},"11495529234":{"location":[47.8738118,7.2170788],"ct":"FR","tp":"CR","ts":"2024-01-06T21:03:51Z","tX":532,"tY":356,"tags":{"caravan_site":"motorhome_stopover","caravan_site:type":"winery","fee":"no","name":"La Cave du Vieil Armand","website":"https://www.cavevieilarmand.com/reception-camper.html"}},"4485648543":{"location":[47.8085967,7.1047008],"ct":"FR","tp":"SD","ts":"2016-12-20T08:25:57Z","tX":532,"tY":356,"tags":{"access":"yes","description":"4 €, Carte Bancaire/Credit","fee":"yes","name":"Parking Centre (Rue du Général De Gaulle)"}},"4723763320":{"location":[47.9866403,7.2918149],"ct":"FR","tp":"SD","ts":"2024-09-30T14:59:23Z","tX":532,"tY":356,"tags":{"email":"contact@vins-walter.com","name":"Aire de Camping-Cars du Winzerhof","phone":"+33 389 496285","source":"tourisme-alsace.com","website":"www.vins-walter.com"}},"4723840119":{"location":[47.8432148,7.0725636],"ct":"FR","tp":"SD","ts":"2019-07-14T11:31:45Z","tX":532,"tY":356,"tags":{"contact:email":"mairie@willersurthur.fr","contact:phone":"+33 3 89 38 16 50","contact:website":"http://www.willersurthur.fr","description":"Borne: Flot Bleu","name":"Aire de Services Willer-sur-Thur","source":"tourisme-alsace.com"}},"4723878413":{"location":[47.7555996,7.0988483],"ct":"FR","tp":"SD","ts":"2017-03-12T17:18:55Z","tX":532,"tY":356,"tags":{"contact:email":"campeurs-doller@wanadoo.fr","contact:website":"http://www.campingdoller.com/","description":"Borne: Flot Bleu","name":"Camping La Doller","source":"tourisme-alsace.com"}},"9351369869":{"location":[47.9813208,7.2203728],"ct":"FR","tp":"SD","ts":"2021-12-19T21:34:45Z","tX":532,"tY":356,"tags":{"access":"customers","fee":"no","operator":"Camping d'Osenbach","water_point":"yes"}}}