{"9683261":{"location":[47.3658229,7.1678511],"ct":"CH","tp":"CS","ts":"2024-08-15T21:18:31Z","tX":532,"tY":358,"tags":{"addr:city":"Saint-Ursanne","addr:housenumber":"1","addr:postcode":"2882","addr:street":"lorette","caravans":"yes","email":"ulrich.roth@chandelier.ch","name":"Le Chandelier","phone":"+41 79 251 24 32","tents":"yes","website":"https://www.chandelier.ch/"}},"140699593":{"location":[47.3499756,7.0903091],"ct":"CH","tp":"CS","ts":"2020-10-14T19:23:33Z","tX":532,"tY":358,"tags":{"name":"Camping du Moulin du Doubs","phone":"+41 79 608 19 82","source":"Orthophotos 1998 RCJU 50cm"}},"175055792":{"location":[47.3340078,7.1412243],"ct":"CH","tp":"CS","ts":"2024-12-18T17:31:10Z","tX":532,"tY":358,"tags":{"dog":"leashed","email":"info@tariche.ch","name":"Tariche","phone":"+41 32 433 46 19","shower":"yes","toilets":"yes","washing_machine":"yes","website":"https://tariche.ch/"}},"238014463":{"location":[47.356933,7.3369595],"ct":"CH","tp":"CS","ts":"2024-08-20T15:21:51Z","tX":532,"tY":358,"tags":{"addr:city":"Delémont","addr:housenumber":"2","addr:postcode":"2800","addr:street":"La Grande Ecluse","capacity:tents":"10","caravans":"yes","email":"camping.delemont@bluewin.ch","fee":"yes","name":"La Grande Écluse","phone":"+41 32 422 75 98","tents":"yes","website":"https://www.campingdelemont.ch/"}},"270538239":{"location":[47.4683197,7.2070063],"ct":"FR","tp":"CS","ts":"2024-08-03T14:30:38Z","tX":532,"tY":358,"tags":{"caravans":"yes","name":"Intercommunal Du Plan D'eau De Courtavon","tents":"yes","website":"https://www.les2barges.com/camping/"}},"308902801":{"location":[47.4887993,7.3113409],"ct":"FR","tp":"CR","ts":"2024-09-30T21:55:50Z","tX":532,"tY":358,"tags":{"capacity":"5","caravan_site":"motorhome_stopover","caravan_site:type":"countryside","caravans":"no","drinking_water":"yes","fee":"no","name":"Aire d'Accueil de Camping-Cars Ferrette","opening_hours":"24/7","phone":"+33 389 082388","power_supply":"yes","sanitary_dump_station":"yes","seasonal":"no","services:charge":"2 EUR","services:fee":"yes","source":"tourisme-alsace.com","surface":"asphalt","tents":"no","water_point":"yes","website":"https://www.sundgau-sud-alsace.fr/LEI2/1313/242010650/Aire-d'accueil-de-camping-cars.htm"}},"579453052":{"location":[47.4878616,7.2718387],"ct":"FR","tp":"CS","ts":"2021-08-10T09:21:37Z","tX":532,"tY":358,"tags":{"contact:email":"camping.deshetres@orange.fr","contact:phone":"+33 3 89 40 34 72","fee":"yes","name":"Camping des Hêtres","source":"data.gouv.fr:DATAtourisme - 05/2020","stars":"2"}},"758894429":{"location":[47.3476156,7.161109],"ct":"CH","tp":"CS","ts":"2020-08-09T11:53:33Z","tX":532,"tY":358,"tags":{}},"826298196":{"location":[47.3079773,7.0461409],"ct":"CH","tp":"CS","ts":"2023-07-27T15:39:01Z","tX":532,"tY":358,"tags":{"addr:city":"Soubey","addr:country":"CH","addr:housenumber":"19","addr:postcode":"2887","addr:street":"Bout-du-Pont","camp_site":"standard","caravans":"yes","email":"contact@bout-du-pont.ch","fee":"yes","name":"Camping Bout du Pont","phone":"+41 32 955 11 09","tents":"yes","website":"https://bout-du-pont.ch/"}},"835496205":{"location":[47.3422014,7.1570139],"ct":"CH","tp":"CS","ts":"2021-11-01T05:33:40Z","tX":532,"tY":358,"tags":{"addr:city":"Montmelon","addr:postcode":"2883","addr:street":"Route de Tariche","email":"welcome@campingkohler.ch","name":"CCP Kohler","phone":"+41 79 955 67 43"}},"836397585":{"location":[47.3562525,7.0964631],"ct":"CH","tp":"CS","ts":"2025-04-15T18:41:37Z","tX":532,"tY":358,"tags":{"name":"Camping Pontoye"}},"899131664":{"location":[47.4026012,7.056621],"ct":"CH","tp":"CR","ts":"2021-01-23T11:03:38Z","tX":532,"tY":358,"tags":{"fee":"no"}},"1267721152":{"location":[47.4198258,7.0751269],"ct":"CH","tp":"CR","ts":"2024-03-30T17:00:39Z","tX":532,"tY":358,"tags":{"addr:city":"Porrentruy","addr:street":"Quai de l Allaine","capacity":"5","caravans":"no","maxstay":"1 night","name":"Quai de l'Allaine","surface":"asphalt","tents":"no"}},"2006060351":{"location":[47.435286,7.253642],"ct":"FR","tp":"CS","ts":"2012-11-10T09:22:06Z","tX":532,"tY":358,"tags":{}},"4723897098":{"location":[47.4887667,7.3114722],"ct":"FR","tp":"SD","ts":"2024-09-30T21:55:50Z","tX":532,"tY":358,"tags":{"access":"yes","source":"tourisme-alsace.com"}},"8663030201":{"location":[47.35998,7.15093],"ct":"CH","tp":"CR","ts":"2021-10-31T17:25:19Z","tX":532,"tY":358,"tags":{"addr:city":"Saint-Ursanne","addr:postcode":"2882","addr:street":"Route Moulin des Lavoirs","capacity":"10","description:de":"Beim Camping le Chandelier (beim Kreisel eingangs/ende Dorf) bezahlen, man bekommt eine Vignette und den Jurapass bei einem Aufenthalt von zwei Nächten. Mit dem Jurapass gibt es kostenlos Öv und vergünstigte Eintritte im ganzen Kanton.","email":"secretariat@closdudoubs.ch","fee":"yes","internet_access":"no","lit":"yes","name":"Moulin des Lavoirs","name:de":"Wohnmobilstellplatz Moulin des Lavoirs","note":"GrandTourCH","phone":"+41 32 461 31 28","power_supply":"no","sanitary_dump_station":"no","website":"www.juratourisme.ch/cc-stu"}},"8754749079":{"location":[47.3413984,7.2221067],"ct":"CH","tp":"CR","ts":"2021-05-22T06:24:30Z","tX":532,"tY":358,"tags":{"capacity":"2","internet_access":"no","power_supply":"yes","sanitary_dump_station":"yes"}},"8754749078":{"location":[47.3413905,7.2220742],"ct":"CH","tp":"SD","ts":"2021-06-20T22:43:40Z","tX":532,"tY":358,"tags":{"access":"yes","description":"in beide Richtungen","fee":"no","name":"Aire de repos Boécourt, A16 Biel - Pruntrut","water_point":"yes"}},"8850402462":{"location":[47.4699082,7.1565347],"ct":"CH","tp":"SD","ts":"2022-06-14T11:42:26Z","tX":532,"tY":358,"tags":{"description":"Élimination des déchets gratuite. Eau douce et électricité avec jeton (disponible à la gare, 500m)","name":"Borne Euro-Relais, Parking Stade Louis Chevrolet, Bonfol","note":"WML CH"}},"8850402478":{"location":[47.404282,7.059736],"ct":"CH","tp":"SD","ts":"2021-06-20T13:19:04Z","tX":532,"tY":358,"tags":{"description":"gut zugänglich","name":"Aire de repos Porrentruy, A16 Delsberg - Pruntrut","note":"WML CH"}},"9620126931":{"location":[47.3409234,7.222868],"ct":"CH","tp":"SD","ts":"2022-03-29T06:34:30Z","tX":532,"tY":358,"tags":{"access":"yes","description":"in beide Richtungen","fee":"no","name":"Aire de repos Boécourt, A16 Biel - Pruntrut","water_point":"yes"}}}