{"4762746":{"location":[47.0481899,7.3622457],"ct":"CH","tp":"CS","ts":"2024-06-08T16:07:56Z","tX":532,"tY":359,"tags":{"addr:city":"Schüpfen","addr:postcode":"3054","name":"Campingplatz Bundkofen","permanent_camping":"only","website":"https://www.campingbundkofen.ch/"}},"5252915":{"location":[47.1623656,7.3465388],"ct":"CH","tp":"CS","ts":"2015-06-06T21:19:59Z","tX":532,"tY":359,"tags":{"addr:city":"Meinisberg","addr:housenumber":"5","addr:postcode":"2554","addr:street":"Berg","name":"Seeland Camp","operator":"http://seeland-camp.ch","phone":"+41 32 377 26 86","website":"http://seeland-camp.ch"}},"9899934":{"location":[47.2120593,7.034878],"ct":"CH","tp":"CS","ts":"2023-11-09T01:52:43Z","tX":532,"tY":359,"tags":{"addr:city":"La Chaux-des-Breuleux","addr:postcode":"2345","email":"info@lescerneux.ch","name":"Camping Les Cerneux","website":"https://www.lescerneux.ch/"}},"10991509":{"location":[47.0807686,7.1992574],"ct":"CH","tp":"CS","ts":"2022-01-17T13:25:57Z","tX":532,"tY":359,"tags":{"name":"UNIA Gerolfingen"}},"10991614":{"location":[47.0538753,7.1704652],"ct":"CH","tp":"CS","ts":"2020-04-13T09:11:00Z","tX":532,"tY":359,"tags":{"description":"Pfadfinderlagerplatz","group_only":"yes"}},"28182471":{"location":[47.1080224,7.2202566],"ct":"CH","tp":"CS","ts":"2019-08-12T23:47:42Z","tX":532,"tY":359,"tags":{"addr:city":"Sutz","addr:housenumber":"40","addr:postcode":"2572","addr:street":"Kirchrain","internet_access":"wlan","internet_access:fee":"no","name":"Camping Sutz","phone":"+41 32 397 13 45","website":"https://camping-sutz.ch/","wheelchair":"yes"}},"43111623":{"location":[47.0521488,7.069688],"ct":"CH","tp":"CS","ts":"2020-05-15T23:25:59Z","tX":532,"tY":359,"tags":{"name":"Camping des pêches"}},"43111624":{"location":[47.0520736,7.0720656],"ct":"CH","tp":"CS","ts":"2025-01-03T17:08:38Z","tX":532,"tY":359,"tags":{"name":"Résidence les Pêches"}},"49040928":{"location":[47.060609,7.0878894],"ct":"CH","tp":"CS","ts":"2010-01-29T13:48:59Z","tX":532,"tY":359,"tags":{"name":"La Plage"}},"49042088":{"location":[47.0862071,7.0734804],"ct":"CH","tp":"CS","ts":"2016-06-05T22:32:04Z","tX":532,"tY":359,"tags":{"addr:city":"Lignières","addr:postcode":"2523","email":"camping.fraso-ranch@bluewin.ch","fax":"+41-327514614","name":"Fraso-Ranch","phone":"+41-327514616","website":"http://www.camping-lignieres.ch/"}},"248795839":{"location":[47.0459481,7.0950236],"ct":"CH","tp":"CS","ts":"2024-11-13T15:43:43Z","tX":532,"tY":359,"tags":{"email":"info@campinghuebscher.ch","name":"Camping Hübscher","phone":"+41 79 202 6037","website":"https://www.campinghuebscher.ch/"}},"255026673":{"location":[47.0930964,7.2103016],"ct":"CH","tp":"CS","ts":"2024-05-11T10:28:01Z","tX":532,"tY":359,"tags":{"name":"Lindenhof","toilets:wheelchair":"yes","website":"https://www.camping-lindenhof.ch/","wheelchair":"yes"}},"257325335":{"location":[47.0599947,7.0832517],"ct":"CH","tp":"CS","ts":"2020-05-03T19:43:44Z","tX":532,"tY":359,"tags":{"name":"Bellerive"}},"261008619":{"location":[47.2280189,7.1835794],"ct":"CH","tp":"CS","ts":"2024-07-10T09:17:06Z","tX":532,"tY":359,"tags":{"addr:city":"Tavannes","addr:housenumber":"2","addr:postcode":"2710","addr:street":"Belfond","email":"info@campingdebelfond.ch","name":"Camping de Belfond","opening_hours":"Jun-Sep","operator":"Geiser Pierre-André et Gladys","phone":"+41 32 481 17 63","website":"https://www.campingdebelfond.ch/"}},"262637136":{"location":[47.0477337,7.1589207],"ct":"CH","tp":"CR","ts":"2024-07-04T12:39:21Z","tX":532,"tY":359,"tags":{"permanent_camping":"only"}},"262637142":{"location":[47.0535106,7.1695449],"ct":"CH","tp":"CS","ts":"2020-04-13T09:11:00Z","tX":532,"tY":359,"tags":{"description":"Pfadfinderlagerplatz","group_only":"yes"}},"263468305":{"location":[47.046833,7.1542867],"ct":"CH","tp":"CR","ts":"2023-05-31T14:29:47Z","tX":532,"tY":359,"tags":{"permanent_camping":"only"}},"359544466":{"location":[47.0457661,7.094461],"ct":"CH","tp":"CS","ts":"2023-11-04T13:48:32Z","tX":532,"tY":359,"tags":{"cabins":"yes","caravans":"yes","email":"info@camping24.ch","name":"Camping Mon Plaisir","phone":"+41 32 338 1358","stars":"4","washing_machine":"yes","website":"https://www.camping24.ch/"}},"359544467":{"location":[47.0458573,7.0967571],"ct":"CH","tp":"CS","ts":"2024-11-13T15:43:43Z","tX":532,"tY":359,"tags":{"brand":"Camping Lodge","caravans":"yes","contact:email":"info@camping-erlach.ch","contact:phone":"+41 32 513 01 00","contact:website":"https://www.camping-erlach.ch/","internet_access":"wlan","internet_access:fee":"no","name":"Camping Erlach","official_name":"Camping Erlach AG","operator":"Lodgyslife AG","sanitary_dump_station":"yes","tents":"yes"}},"402980340":{"location":[47.1908356,7.3328395],"ct":"CH","tp":"CR","ts":"2016-03-10T22:26:20Z","tX":532,"tY":359,"tags":{}},"402980341":{"location":[47.189987,7.3306783],"ct":"CH","tp":"CS","ts":"2020-08-22T14:09:21Z","tX":532,"tY":359,"tags":{"addr:city":"Romont BE","addr:housenumber":"22","addr:postcode":"2538","addr:street":"Chemin des Oeuchettes","name":"Camping Les Oeuchettes","phone":"+41 79 251 18 76","website":"https://www.campingdesoeuchettes.ch/"}},"625583249":{"location":[47.0851184,7.1190407],"ct":"CH","tp":"CS","ts":"2021-02-04T08:19:46Z","tX":532,"tY":359,"tags":{"email":"info@camping-jura.ch","name":"Camping de Prêles","phone":"+41 32 315 17 16","stars":"4","website":"http://camping-jura.ch"}},"1021951161":{"location":[47.0818033,7.2000815],"ct":"CH","tp":"CR","ts":"2022-01-17T13:25:57Z","tX":532,"tY":359,"tags":{}},"1180751226":{"location":[47.1357376,7.3077943],"ct":"CH","tp":"CR","ts":"2023-06-09T19:53:58Z","tX":532,"tY":359,"tags":{"capacity":"7","contact:website":"https://www.orpund.ch/de/gemeinde/kultur-und-freizeit/wohnmobilstellplatz.php","currency:CHF":"yes","currency:EUR":"yes","fee":"yes","internet_access":"wlan","internet_access:description":"Wifi password written on board","internet_access:fee":"no","name":"Wohnmobilstellplatz Orpund","opening_hours":"24/7","payment:coins":"yes","payment:twint":"yes","power_supply":"yes","power_supply:current":"16","reservation":"no","sanitary_dump_station":"customers","socket:sev1011_t23":"yes","water_source":"yes"}},"8960352346":{"location":[47.2261936,7.1219944],"ct":"CH","tp":"CS","ts":"2021-07-29T15:40:04Z","tX":532,"tY":359,"tags":{"name":"Camping Tramelan"}},"7881403385":{"location":[47.27422,7.3777262],"ct":"CH","tp":"CR","ts":"2020-09-06T15:49:16Z","tX":532,"tY":359,"tags":{"name:en":"Euro-Relais","opening_hours":"24/7"}},"9033103726":{"location":[47.135932,7.198588],"ct":"CH","tp":"CR","ts":"2023-11-12T18:59:26Z","tX":532,"tY":359,"tags":{"name":"Stellplatz Hohmatt, Magglingen","note":"Saisonal geschlossen"}},"9042007692":{"location":[47.250351,7.0599687],"ct":"CH","tp":"CR","ts":"2021-08-28T06:25:21Z","tX":532,"tY":359,"tags":{"capacity":"10","fee":"yes","name":"Stellplatz Les Mottes, Le Bémont"}},"9042008818":{"location":[47.050464,7.073655],"ct":"CH","tp":"CR","ts":"2021-08-28T06:25:21Z","tX":532,"tY":359,"tags":{"name":"Stellplatz Ancien Débarcadère, Le Landeron"}},"9042008819":{"location":[47.051648,7.059085],"ct":"CH","tp":"CR","ts":"2021-08-28T06:25:21Z","tX":532,"tY":359,"tags":{"name":"Stellplatz Marais, Le Landeron"}},"9042015035":{"location":[47.2151878,7.0852895],"ct":"CH","tp":"CR","ts":"2024-08-28T09:45:48Z","tX":532,"tY":359,"tags":{"drinking_water":"no","fee":"no","name":"Stellplatz La Combe, Tramelan","power_supply":"no","sanitary_dump_station":"no","toilets":"no"}},"10293249009":{"location":[47.11783,7.3442235],"ct":"CH","tp":"CR","ts":"2022-12-29T13:29:10Z","tX":532,"tY":359,"tags":{}},"6695966523":{"location":[47.1088436,7.2201526],"ct":"CH","tp":"SD","ts":"2019-08-08T23:09:31Z","tX":532,"tY":359,"tags":{"access":"customers","sanitary_dump_station:chemical_toilet":"yes"}},"6700871943":{"location":[47.1079584,7.2221973],"ct":"CH","tp":"SD","ts":"2019-08-11T20:27:28Z","tX":532,"tY":359,"tags":{"sanitary_dump_station:chemical_toilet":"no","sanitary_dump_station:grey_water":"yes"}},"8850402443":{"location":[47.1359771,7.307673],"ct":"CH","tp":"SD","ts":"2023-06-09T19:53:58Z","tX":532,"tY":359,"tags":{"note":"WML CH"}},"8850402445":{"location":[47.274149,7.377885],"ct":"CH","tp":"SD","ts":"2021-06-20T13:19:04Z","tX":532,"tY":359,"tags":{"description":"Manchmal etwas umständlich, es anzufahren, wenn viele PWs parkiert sind","name":"Euro Relais Piscine, Moutier","note":"WML CH"}},"8850402453":{"location":[47.052808,7.069772],"ct":"CH","tp":"SD","ts":"2021-06-20T13:19:04Z","tX":532,"tY":359,"tags":{"description":"vor Campingplatz","name":"Camping des Pêches, Landeron","note":"WML CH"}}}