{"2564299":{"location":[46.9424484,7.1329129],"ct":"CH","tp":"CS","ts":"2023-05-26T10:52:12Z","tX":532,"tY":360,"tags":{"name":"Camping Muntelier","phone":"+41266704882","website":"https://camping-muntelier.ch"}},"2816969":{"location":[46.904795,7.0493394],"ct":"CH","tp":"CS","ts":"2023-11-05T02:51:20Z","tX":532,"tY":360,"tags":{"addr:city":"Avenches","addr:postcode":"1580","capacity":"700","caravans":"yes","dog":"leashed","email":"camping@avenches.ch","internet_access":"wlan","name":"Camping Port Plage Avenches","operator":"Commune Avenches","phone":"+41 26 675 17 50","shower":"yes","stars":"5","static_caravans":"yes","tents":"yes","toilets":"yes","website":"https://www.camping-avenches.ch/","wheelchair":"yes"}},"3117956":{"location":[47.0011442,7.03943],"ct":"CH","tp":"CS","ts":"2024-06-22T05:34:11Z","tX":532,"tY":360,"tags":{"addr:city":"Gampelen","addr:housenumber":"50","addr:postcode":"3236","addr:street":"Seestrasse","caravans":"yes","email":"camping.gampelen@tcs.ch","fee":"yes","name":"TCS Camping Gampelen","operator":"TCS Camping","phone":"+41 32 313 23 33","shower":"yes","tents":"yes","toilets":"yes","website":"https://www.tcs.ch/en/camping-travelling/camping-insider/campsites/tcs-campsites/campsite-gampelen-neuenburgersee.php"}},"5351623":{"location":[46.9758203,7.0962959],"ct":"CH","tp":"CS","ts":"2015-07-09T13:05:01Z","tX":532,"tY":360,"tags":{"name":"Camping des 3 Lacs"}},"10991658":{"location":[47.037249,7.1081208],"ct":"CH","tp":"CS","ts":"2024-08-12T17:32:58Z","tX":532,"tY":360,"tags":{"access":"private","name":"Residence Parc St. Tropez","operator":"Peter Wyss","phone":"+41 32 751 45 94"}},"10991659":{"location":[47.0382562,7.1058537],"ct":"CH","tp":"CS","ts":"2024-08-31T20:10:22Z","tX":532,"tY":360,"tags":{"access":"private","name":"Arbogast"}},"13676246":{"location":[46.9073889,7.0383185],"ct":"CH","tp":"CS","ts":"2022-09-08T19:52:45Z","tX":532,"tY":360,"tags":{"access":"private","capacity":"105","caravans":"no","name":"Camping Le Bey","operator":"Caravanes Treyvaud SA","site":"camp_site","static_caravans":"yes","tents":"no","website":"https://www.treyvaud.ch/camping-le-bey-1"}},"17928790":{"location":[47.0052237,7.0466477],"ct":"CH","tp":"CS","ts":"2024-08-12T09:47:46Z","tX":532,"tY":360,"tags":{"fee":"yes","operator":"TCS"}},"17929837":{"location":[47.0368223,7.1100777],"ct":"CH","tp":"CS","ts":"2024-08-12T17:37:45Z","tX":532,"tY":360,"tags":{"access":"private","addr:city":"Vinelz","addr:housenumber":"16","addr:postcode":"3234","addr:street":"Ländteweg","mobile":"+41 79 795 06 16","name":"Campingplatz Strand","operator":"Leandro Miranda"}},"36783991":{"location":[46.9128448,7.0341868],"ct":"CH","tp":"CS","ts":"2021-07-13T15:10:26Z","tX":532,"tY":360,"tags":{"addr:city":"Vully-les-Lacs","addr:housenumber":"10","addr:postcode":"1585","addr:street":"Chemin de la Plage","caravans":"yes","email":"camping.salavaux@tcs.ch","fax":"+41 26 677 37 44","internet_access":"wlan","internet_access:fee":"no","name":"TCS Camping Salavaux Plage","operator":"Touring Club Schweiz (TCS)","phone":"+41 26 677 14 76","reservation":"yes","stars":"4","tents":"yes","website":"https://www.tcs.ch/de/camping-reisen/camping-insider/campingplaetze/tcs-campingplaetze/campingplatz-salavaux-plage.php"}},"41345182":{"location":[46.8785137,7.1903021],"ct":"CH","tp":"CS","ts":"2023-11-05T02:50:57Z","tX":532,"tY":360,"tags":{"addr:city":"Düdingen","addr:country":"CH","addr:housenumber":"15","addr:postcode":"3186","addr:street":"Schiffenen","name":"Seepark Schiffenen","website":"https://www.camping-schiffenen.ch/"}},"170142912":{"location":[46.8989237,7.0482135],"ct":"CH","tp":"CR","ts":"2023-10-15T08:21:17Z","tX":532,"tY":360,"tags":{"addr:city":"Avenches","addr:housenumber":"2","addr:postcode":"1580","addr:street":"Route de Salavaux","camp_site":"deluxe","capacity":"150","caravans":"yes","email":"caravanes@treyvaud.ch","name":"Camping Les Joncs","operator":"Caravanes Treyvaud SA","phone":"+41 26 676 94 49","website":"https://www.treyvaud.ch/fr/place-de-camping/joncs"}},"172138126":{"location":[46.9590762,7.1163384],"ct":"CH","tp":"CS","ts":"2024-10-10T20:36:38Z","tX":532,"tY":360,"tags":{"name":"Praz Novy","wheelchair":"yes"}},"256832319":{"location":[47.0393813,7.1043228],"ct":"CH","tp":"CS","ts":"2019-08-18T14:30:03Z","tX":532,"tY":360,"tags":{"name":"Camping Westside"}},"746265030":{"location":[46.893185,7.3327051],"ct":"CH","tp":"CS","ts":"2023-06-06T20:25:52Z","tX":532,"tY":360,"tags":{"access":"yes","addr:city":"Thörishaus","addr:housenumber":"20","addr:postcode":"3174","addr:street":"Strandheimstrasse","caravans":"yes","internet_access":"yes","internet_access:fee":"yes","name":"Camping Thörishaus","operator":"Immobilien A-Z AG","phone":"+41 31 889 02 71","power_supply":"yes","reservation":"yes","shower":"yes","tents":"yes","toilets":"yes","water_supply":"running_water","website":"https://camping-thoerishaus.ch/"}},"1195254668":{"location":[46.9628527,7.2274667],"ct":"CH","tp":"SD","ts":"2024-08-10T06:06:00Z","tX":532,"tY":360,"tags":{"access":"yes","opening_hours":"24/7","sanitary_dump_station:chemical_toilet":"yes","sanitary_dump_station:gravity":"yes","sanitary_dump_station:grey_water":"yes","water_point":"yes"}},"1328102123":{"location":[46.8100955,7.1137562],"ct":"CH","tp":"CR","ts":"2024-10-25T09:14:45Z","tX":532,"tY":360,"tags":{}},"3693730824":{"location":[46.9612765,7.2109742],"ct":"CH","tp":"SD","ts":"2021-08-22T09:33:43Z","tX":532,"tY":360,"tags":{"access":"yes","fee":"yes","note":"WML CH","opening_hours":"24/7","sanitary_dump_station:chemical_toilet":"yes","sanitary_dump_station:gravity":"yes","sanitary_dump_station:grey_water":"yes","sanitary_dump_station:round_drain":"yes","water_point":"yes"}},"3693752947":{"location":[46.9628768,7.2274652],"ct":"CH","tp":"SD","ts":"2023-08-21T13:57:08Z","tX":532,"tY":360,"tags":{"access":"yes","fee":"yes","opening_hours":"24/7","sanitary_dump_station:chemical_toilet":"yes","sanitary_dump_station:gravity":"yes","sanitary_dump_station:grey_water":"yes","sanitary_dump_station:round_drain":"yes","water_point":"yes"}},"9997221038":{"location":[47.0011469,7.0402317],"ct":"CH","tp":"SD","ts":"2022-09-05T09:41:24Z","tX":532,"tY":360,"tags":{"access":"customers","fee":"no","sanitary_dump_station:chemical_toilet":"yes","sanitary_dump_station:grey_water":"no","water_point":"yes"}},"9997242939":{"location":[47.0011379,7.0403507],"ct":"CH","tp":"SD","ts":"2022-09-03T11:33:28Z","tX":532,"tY":360,"tags":{"access":"customers","fee":"no","sanitary_dump_station:chemical_toilet":"no","sanitary_dump_station:grey_water":"yes","water_point":"yes"}},"10967570370":{"location":[46.9133602,7.0341113],"ct":"CH","tp":"SD","ts":"2023-06-10T10:28:10Z","tX":532,"tY":360,"tags":{}}}