{"2615512":{"location":[46.5577983,7.0850726],"ct":"CH","tp":"CS","ts":"2023-11-02T15:20:22Z","tX":532,"tY":362,"tags":{"addr:city":"Bas-Intyamon","addr:housenumber":"18","addr:postcode":"1667","addr:street":"Chemin du Camping","caravans":"yes","email":"camping.enney@bluewin.ch","fax":"+41 26 921 22 60","motorhome":"yes","name":"Camping Haute Gruyère","operator":"Camping Enney AG","phone":"+41 26 921 22 60","shower":"yes","toilets":"yes","website":"https://camping-gruyere.ch/"}},"9381761":{"location":[46.4867888,7.2654562],"ct":"CH","tp":"CS","ts":"2019-03-24T08:42:24Z","tX":532,"tY":362,"tags":{"addr:city":"Saanen","addr:housenumber":"15","addr:postcode":"3792","addr:street":"Campingstrasse","caravans":"yes","email":"info@camping-saanen.ch","name":"Camping Saanen beim Kappeli","phone":"+41 33 744 61 91","website":"https://www.camping-saanen.ch/"}},"16201489":{"location":[46.3972793,7.0984436],"ct":"CH","tp":"CS","ts":"2023-08-15T01:59:46Z","tX":532,"tY":362,"tags":{"area":"yes","name":"La Toundra"}},"26213021":{"location":[46.3549786,7.1264204],"ct":"CH","tp":"CS","ts":"2011-01-17T01:15:35Z","tX":532,"tY":362,"tags":{"name":"Camping de la Murée"}},"38416714":{"location":[46.3496779,7.1344277],"ct":"CH","tp":"CS","ts":"2009-12-30T15:48:01Z","tX":532,"tY":362,"tags":{"name":"Atipic - Récré Active (Tipis)"}},"217896854":{"location":[46.4666776,7.1233791],"ct":"CH","tp":"CS","ts":"2022-08-01T17:55:37Z","tX":532,"tY":362,"tags":{"capacity":"77","internet_access":"wlan","name":"Le Berceau","phone":"+41 26 924 62 34","stars":"3","swimming_pool":"yes","tents":"yes","washing_machine":"yes","website":"https://www.piscine-camping-restaurant.ch/"}},"413344380":{"location":[46.4138579,7.1025174],"ct":"CH","tp":"CS","ts":"2013-07-02T20:17:48Z","tX":532,"tY":362,"tags":{"name":"Le Cuizon"}},"799415584":{"location":[46.4815384,7.2726659],"ct":"CH","tp":"CS","ts":"2021-12-13T16:08:03Z","tX":532,"tY":362,"tags":{"name":"Bellerive","stars":"3"}},"1067527180":{"location":[46.382131,7.262961],"ct":"CH","tp":"CS","ts":"2010-12-27T11:32:06Z","tX":532,"tY":362,"tags":{"name":"Heiti Camping"}},"7775503740":{"location":[46.3945253,7.2228106],"ct":"CH","tp":"CS","ts":"2020-08-01T13:19:02Z","tX":532,"tY":362,"tags":{"name":"Alpcamping Stuedli"}},"7778302932":{"location":[46.3546832,7.1262047],"ct":"CH","tp":"SD","ts":"2020-08-02T16:59:50Z","tX":532,"tY":362,"tags":{}}}