{"14376188":{"location":[46.0788842,7.1418858],"ct":"CH","tp":"CS","ts":"2023-02-01T12:19:17Z","tX":532,"tY":363,"tags":{"name":"La Prairie","stars":"1"}},"94568534":{"location":[46.282922,7.0771914],"ct":"CH","tp":"CS","ts":"2011-01-11T19:06:29Z","tX":532,"tY":363,"tags":{"name":"Frassettes"}},"208361447":{"location":[46.1271623,7.0611005],"ct":"CH","tp":"PK","ts":"2023-02-11T20:17:41Z","tX":532,"tY":363,"tags":{"access":"no","coach":"yes","fee":"no","goods":"yes","hgv":"yes","motorhome":"yes","parking":"surface","tourist_bus":"yes"}},"219360252":{"location":[46.0976036,7.0802872],"ct":"CH","tp":"CS","ts":"2015-03-30T06:06:02Z","tX":532,"tY":363,"tags":{"name":"Neivilles TCS Camping","source":"Bing"}},"236984494":{"location":[46.211602,7.3159995],"ct":"CH","tp":"CS","ts":"2024-08-04T16:03:30Z","tX":532,"tY":363,"tags":{"addr:city":"Sion","addr:housenumber":"6","addr:postcode":"1951","addr:street":"Chemin du Camping","capacity":"679","caravans":"yes","drinking_water":"yes","fee":"yes","name":"TCS Camping Sion","operator":"TCS","sanitary_dump_station":"yes","shower":"yes","tents":"yes","toilets":"yes","website":"https://www.tcs.ch/fr/camping-voyages/camping-insider/campings/tcs-campings/camping-sion.php"}},"237890941":{"location":[46.2103457,7.3111786],"ct":"CH","tp":"CS","ts":"2022-05-16T09:32:45Z","tX":532,"tY":363,"tags":{"addr:city":"Sion","addr:housenumber":"10","addr:postcode":"1950","addr:street":"Route des Ecussons","caravans":"yes","name":"Camping Sedunum","phone":"+41 79 793 28 06","tents":"yes"}},"331365827":{"location":[46.1753997,7.0362962],"ct":"CH","tp":"CS","ts":"2022-07-28T14:27:45Z","tX":532,"tY":363,"tags":{"building":"yes","name":"La Chataigneraie"}},"335526670":{"location":[46.1592641,7.1678273],"ct":"CH","tp":"CS","ts":"2024-10-18T16:33:19Z","tX":532,"tY":363,"tags":{"caravans":"yes","drinking_water":"yes","name":"Camping de la Sarvaz","power_supply":"yes","shower":"yes","tents":"yes","toilets":"yes","website":"https://www.sarvaz.ch/"}},"335527759":{"location":[46.1198326,7.1066561],"ct":"CH","tp":"CS","ts":"2015-03-30T05:53:56Z","tX":532,"tY":363,"tags":{"name":"Ranch El Capio"}},"989130890":{"location":[46.0769713,7.2172683],"ct":"CH","tp":"CR","ts":"2024-06-26T22:12:27Z","tX":532,"tY":363,"tags":{}},"1865226747":{"location":[46.1738923,7.0352381],"ct":"CH","tp":"CS","ts":"2012-08-14T04:20:28Z","tX":532,"tY":363,"tags":{"name":"Camping La Châtaigneraie"}},"2276387435":{"location":[46.1543701,7.1436068],"ct":"CH","tp":"CR","ts":"2024-09-07T13:07:02Z","tX":532,"tY":363,"tags":{"access":"yes","description":"2 places, max. 48 h, Taxe de séjour 2 CHF/jour","drinking_water":"yes","fee":"no","maxstay":"48 hours","name:signed":"no","parking":"surface","power_supply":"no","sanitary_dump_station":"no","toilets":"no"}},"3063139306":{"location":[46.1738438,7.1940307],"ct":"CH","tp":"CR","ts":"2022-05-17T10:34:36Z","tX":532,"tY":363,"tags":{"name":"Bains de Saillon"}},"7997316818":{"location":[46.28253,7.07003],"ct":"CH","tp":"CR","ts":"2020-10-11T21:28:28Z","tX":532,"tY":363,"tags":{"addr:city":"Gryon","addr:housenumber":"1","addr:postcode":"1882","addr:street":"Route des Renards","charge":"5 CHF","fee":"yes","name":"Stellplatz Gryon","power_supply":"yes","sanitary_dump_station":"yes"}},"8674197881":{"location":[46.0768952,7.2181829],"ct":"CH","tp":"CR","ts":"2023-04-16T12:55:20Z","tX":532,"tY":363,"tags":{"addr:city":"Le Châble","addr:place":"Parking de Curala P4","addr:postcode":"1934","capacity":"20","description":"Auf P4 trotz verbot parkieren, Bewilligung beim Tourismusbüro einholen.","email":"lechable@verbiertourisme.ch","fee":"CHF 3.-","name":"Stellplatz Curala","phone":"+41 27 775 38 70","power_supply":"no","sanitary_dump_station":"yes","stars":"2","tents":"no"}},"8674197882":{"location":[46.25706,7.34396],"ct":"CH","tp":"CR","ts":"2023-11-07T10:28:58Z","tX":532,"tY":363,"tags":{"addr:city":"Savièse","addr:postcode":"1965","addr:street":"Route de Binii","capacity":"12","description":"4 Nächte, Sommerhalbjahr 1.5. - 31.12., Frischwasser, Grauwasserentsorgung, WC","fee":"no","name":"Stellplatz Binii","power_supply":"no","stars":"5","tents":"no","website":"https://www.saviese-tourisme.ch/"}},"9033053684":{"location":[46.095965,7.076057],"ct":"CH","tp":"CR","ts":"2021-08-24T19:54:38Z","tX":532,"tY":363,"tags":{"description":"Temporär - Saisonal geschlossen","name":"Stellplatz Martigny"}},"8850402431":{"location":[46.0767272,7.2195416],"ct":"CH","tp":"SD","ts":"2021-06-20T13:19:04Z","tX":532,"tY":363,"tags":{"description":"Gut Zugängliche Entsorgungsstation","name":"Eurorelais, Val de Bagnes","note":"WML CH"}},"8850402467":{"location":[46.127856,7.060578],"ct":"CH","tp":"SD","ts":"2021-06-20T13:19:04Z","tX":532,"tY":363,"tags":{"description":"beide Richtungen","name":"Relais du Grand Saint-Bernard, A9 Montreux - Martigny","note":"WML CH"}}}