{"7507621":{"location":[46.0552307,7.2459637],"ct":"CH","tp":"CS","ts":"2023-01-25T23:45:50Z","tX":532,"tY":364,"tags":{"name":"Camping de Champsec - La Sasse","website":"https://www.verbier.ch/ete/offres/camping-de-champsec-champsec-fr-ete-2801269/"}},"14681145":{"location":[45.952452,7.2070863],"ct":"CH","tp":"CS","ts":"2022-10-10T21:53:54Z","tX":532,"tY":364,"tags":{"email":"reservation@campinggrand-st-bernard.ch","fee":"yes","internet_access":"wlan","internet_access:fee":"no","name":"Camping du Grand Saint Bernard","phone":"+41 793709822","website":"https://www.campinggrand-st-bernard.ch"}},"17534756":{"location":[46.0324461,7.108885],"ct":"CH","tp":"CS","ts":"2024-04-29T02:20:50Z","tX":532,"tY":364,"tags":{"addr:city":"Champex","addr:country":"CH","addr:housenumber":"134","addr:postcode":"1938","addr:street":"Route du Lac","ele":"1480","mobile":"+41 79 401 01 79","name":"Roccailles","phone":"+41 27 783 19 79","stars":"2","website":"https://www.champex-camping.ch/"}},"422272426":{"location":[45.9343813,7.0936873],"ct":"CH","tp":"CS","ts":"2024-08-27T11:38:47Z","tX":532,"tY":364,"tags":{"bbq":"yes","cabins":"yes","camp_site":"serviced","caravans":"yes","dog":"leashed","drinking_water":"yes","ele":"1600","internet_access":"wlan","internet_access:fee":"no","name":"Camping des Glaciers","phone":"+41 27 783 18 26","power_supply":"yes","stars":"4","tents":"yes","washing_machine":"yes","website":"https://www.camping-glaciers.ch"}},"469924419":{"location":[46.0176958,7.3313558],"ct":"CH","tp":"CS","ts":"2022-09-19T09:33:29Z","tX":532,"tY":364,"tags":{"fee":"yes","name":"Camping Forêt des Mélèzes et village Sioux","operator":"Thierry & Vera Rausis","website":"https://www.bonatchiesse.ch/hebergementterraindecamping"}},"1305461190":{"location":[45.9837798,7.1872204],"ct":"CH","tp":"CS","ts":"2024-08-03T21:05:20Z","tX":532,"tY":364,"tags":{"internet_access":"no","tents":"yes"}},"3141305154":{"location":[46.030276,7.093414],"ct":"CH","tp":"CS","ts":"2023-05-07T16:40:18Z","tX":532,"tY":364,"tags":{"caravans":"no","email":"info@arpette.ch","name":"Relais d'Arpette","phone":"+41 27 783 12 21","reservation":"required","shower":"yes","tents":"yes","toilets":"yes","website":"https://arpette.ch/"}},"12110202309":{"location":[45.8538664,7.3049158],"ct":"IT","tp":"CR","ts":"2024-08-14T11:33:13Z","tX":532,"tY":364,"tags":{}}}