{"12100736":{"location":[45.6494315,7.1516041],"ct":"IT","tp":"CS","ts":"2023-11-07T12:09:41Z","tX":532,"tY":365,"tags":{"addr:city":"Rhêmes Saint Georges","addr:housenumber":"1","addr:postcode":"11010","addr:street":"Località Voix","cabins":"yes","caravans":"yes","email":"info@campingvaldirhemes.com","fax":"+39 0165 907648","internet_access":"wlan","internet_access:fee":"no","mobile":"+39 328 9617560","name":"Camping Val di Rhêmes","operator":"Louvin & C Sas","phone":"+39 0165 907648","ref:vatin":"IT00421370073","shower":"yes","stars":"2","tents":"yes","toilets":"yes","website":"https://www.campingvaldirhemes.com/"}},"14145184":{"location":[45.8184185,7.2294705],"ct":"IT","tp":"CS","ts":"2023-10-31T00:42:27Z","tX":532,"tY":365,"tags":{"addr:city":"Etroubles","addr:housenumber":"4","addr:postcode":"11014","addr:street":"Rue Chevrières","capacity":"95","dog":"leashed","email":"info@campingtunnel.it","name":"Camping Tunnel International","power_supply":"yes","reservation":"recommended","website":"https://www.campingtunnel.it/"}},"65177722":{"location":[45.6083837,7.3588287],"ct":"IT","tp":"CR","ts":"2024-07-02T01:21:52Z","tX":532,"tY":365,"tags":{"drinking_water":"yes","fee":"yes","lit":"yes","name":"Area Camper Revettaz - Cogne","power_supply":"yes","toilets":"yes","waste_disposal":"yes","website":"https://www.camperonline.it/cogne.htm"}},"79868433":{"location":[45.6199036,7.0599425],"ct":"IT","tp":"CR","ts":"2024-09-10T09:41:31Z","tX":532,"tY":365,"tags":{"drinking_water":"yes","fee":"yes","name":"Area camper Beauregard","power_supply":"yes","sanitary_dump_station":"yes","source":"PCN","tents":"no","toilets":"yes"}},"80035142":{"location":[45.59387,7.2072057],"ct":"IT","tp":"CR","ts":"2023-10-20T05:33:08Z","tX":532,"tY":365,"tags":{"capacity":"11","fee":"€5/12h","internet_access":"wlan","name":"Area Camper Dégioz","operator":"Comune di Valsavarenche","power_supply":"no","tents":"no","website":"https://www.camperonline.it/area_di_sosta_dettaglio.asp?ID"}},"129924164":{"location":[45.5876483,7.3433365],"ct":"IT","tp":"CS","ts":"2023-08-08T08:21:21Z","tX":532,"tY":365,"tags":{"caravans":"yes","drinking_water":"yes","name":"Stambecco","shower":"yes","tents":"yes","toilets":"yes"}},"130626494":{"location":[45.6121232,7.3479501],"ct":"IT","tp":"CS","ts":"2014-03-23T23:18:52Z","tX":532,"tY":365,"tags":{}},"144122532":{"location":[45.8202492,7.2028647],"ct":"IT","tp":"CS","ts":"2012-01-04T17:22:44Z","tX":532,"tY":365,"tags":{"name":"Camping Pineta"}},"144122539":{"location":[45.8210853,7.2089674],"ct":"IT","tp":"CS","ts":"2022-09-14T10:54:45Z","tX":532,"tY":365,"tags":{"name":"Camping del Mulino"}},"146637176":{"location":[45.7799623,7.2964706],"ct":"IT","tp":"CS","ts":"2022-09-19T09:34:43Z","tX":532,"tY":365,"tags":{"name":"Camping Europa"}},"148853613":{"location":[45.7460746,7.0662665],"ct":"IT","tp":"CS","ts":"2012-02-05T17:32:48Z","tX":532,"tY":365,"tags":{"name":"Camping Mont Blanc"}},"149578710":{"location":[45.7505815,7.060473],"ct":"IT","tp":"CS","ts":"2014-03-22T00:52:45Z","tX":532,"tY":365,"tags":{"name":"Green Park"}},"181558199":{"location":[45.6874695,7.233659],"ct":"IT","tp":"CS","ts":"2024-10-04T13:39:16Z","tX":532,"tY":365,"tags":{"addr:city":"Aymavilles","addr:housename":"Località Champlan Ozein Aymavilles","name":"Campeggio La Pineta","phone":"+39 0165 902840","website":"http://www.campeggiolapineta.it/"}},"246169127":{"location":[45.70434,7.3179589],"ct":"IT","tp":"CS","ts":"2024-10-04T13:39:16Z","tX":532,"tY":365,"tags":{"addr:city":"Gressan","addr:housename":"Frazione Manzoud","addr:housenumber":"2","addr:street":"Les Fleurs","name":"Camping Soleil et Neige","phone":"+39 0165 59948","website":"https://campeggio-soleil-et-neige.webnode.it/"}},"246275093":{"location":[45.7215094,7.2711232],"ct":"IT","tp":"CS","ts":"2023-10-31T00:44:08Z","tX":532,"tY":365,"tags":{"addr:city":"Sarre","addr:country":"IT","addr:housenumber":"10","addr:postcode":"11010","addr:street":"Frazione Arensod","caravans":"yes","email":"campingtouring@libero.it","name":"Camping International Touring","phone":"+39 0165 257061","tents":"yes","website":"https://www.campingtouring.com/"}},"300424298":{"location":[45.7388934,7.3540069],"ct":"IT","tp":"CR","ts":"2024-07-26T11:57:39Z","tX":532,"tY":365,"tags":{"access":"yes","fee":"no","parking":"surface"}},"441997368":{"location":[45.8252508,7.3306693],"ct":"IT","tp":"CS","ts":"2021-09-02T12:32:59Z","tX":532,"tY":365,"tags":{"email":"info@grandcombin.com","fax":"+39 016 573290","name":"Gran Combin","phone":"+39 0165 73250","website":"http://www.grandcombin.com"}},"443374456":{"location":[45.7011961,7.2392748],"ct":"IT","tp":"CR","ts":"2019-03-20T22:13:46Z","tX":532,"tY":365,"tags":{"fee":"yes","fixme":"resurvey","sanitary_dump_station":"yes","source":"PCN","website":"https://www.camperonline.it/area_di_sosta_dettaglio.asp?ID=3519"}},"831406068":{"location":[45.7167414,7.2618999],"ct":"IT","tp":"CS","ts":"2024-08-31T16:35:14Z","tX":532,"tY":365,"tags":{"addr:city":"Sarre","addr:housenumber":"51","addr:postcode":"11010","addr:street":"Frazione Saint Maurice","caravans":"yes","drinking_water":"yes","email":"info@campingmontebianco.it","name":"Camping Monte Bianco","phone":"+39 0165 25 85 14","shower":"yes","tents":"yes","website":"https://www.campingmontebianco.it"}},"893997036":{"location":[45.702473,7.1656456],"ct":"IT","tp":"CS","ts":"2024-01-07T01:40:39Z","tX":532,"tY":365,"tags":{"contact:website":"http://www.campingarvier.com/","name":"Camping Arvier"}},"1198094426":{"location":[45.5883509,7.3423209],"ct":"IT","tp":"CR","ts":"2023-08-14T18:01:00Z","tX":532,"tY":365,"tags":{}},"2536579807":{"location":[45.7360725,7.3302429],"ct":"IT","tp":"CR","ts":"2024-07-26T11:54:51Z","tX":532,"tY":365,"tags":{"addr:city":"Aosta","addr:housename":"Via Caduti del Lavoro","addr:housenumber":"15","addr:postcode":"11100","addr:street":"Via Caduti del Lavoro","fee":"yes","name":"Area Camper Park","opening_hours":"24/7","phone":"+39 338 6092956","power_supply":"yes","sanitary_dump_station":"yes","toilets":"yes"}},"2954245215":{"location":[45.6265181,7.0625207],"ct":"IT","tp":"CR","ts":"2020-08-31T22:33:16Z","tX":532,"tY":365,"tags":{"fee":"yes","internet_access":"no","name":"Area camper Mondanges","power_supply":"yes","tents":"no"}},"7781731785":{"location":[45.7083297,7.2239994],"ct":"IT","tp":"CR","ts":"2023-01-08T17:14:16Z","tX":532,"tY":365,"tags":{"opening_hours":"24/7"}},"7255004547":{"location":[45.5936702,7.2071195],"ct":"IT","tp":"SD","ts":"2020-03-01T10:54:55Z","tX":532,"tY":365,"tags":{"access":"customers","fee":"no","opening_hours":"Apr-Oct","operator":"Comune di Valsavarenche","water_point":"yes"}},"10024121789":{"location":[45.6079971,7.3598869],"ct":"IT","tp":"SD","ts":"2022-09-14T10:43:19Z","tX":532,"tY":365,"tags":{}}}