{"65276486":{"location":[45.1408155,7.1661431],"ct":"IT","tp":"CR","ts":"2024-04-20T15:31:15Z","tX":532,"tY":367,"tags":{"addr:city":"Chianocco","addr:postcode":"10050","addr:street":"Via Due Giugno","capacity":"20","description":"TARIFFE: - GIORNI FERIALI: € 3,00 AL GIORNO, € 5,00 DUE GIORNI -GIORNI FESTIVI: € 6,00 AL GIORNO, € 10,00 DUE GIORNI - UN FERIALE + UN FESTIVO: € 8,00 •SCARICO E CARICO ACQUE: € 3,00 TARIFFA GIORNALIERA -SCARICO E CARICO ACQUE: € 20,00 ABBONAMENTO ANNUALE","drinking_water":"no","fee":"yes","name":"Area Sosta Camper - Chianocco","power_supply":"yes","sanitary_dump_station":"yes","toilets":"yes"}},"65276491":{"location":[45.1136798,7.2239803],"ct":"IT","tp":"CR","ts":"2024-03-25T11:25:50Z","tX":532,"tY":367,"tags":{"name":"Area Camper Villar Focchiardo"}},"163581845":{"location":[45.2360974,7.373589],"ct":"IT","tp":"CS","ts":"2024-10-04T13:39:16Z","tX":532,"tY":367,"tags":{"access":"private","addr:city":"Usseglio","addr:housenumber":"10","addr:place":"Frazione Versino","addr:postcode":"10070","cabins":"yes","caravans":"yes","email":"info@campingtrefrei.it","fee":"yes","name":"Camping Tre Frei","operator":"Camping Tre Frei s.n.c.","phone":"+390123696114","power_supply":"yes","tents":"yes","website":"campingtrefrei.it"}},"373981392":{"location":[45.2325699,7.2211994],"ct":"IT","tp":"CR","ts":"2024-06-15T05:03:04Z","tX":532,"tY":367,"tags":{"addr:city":"Usseglio","addr:housenumber":"15","addr:postcode":"10070","addr:street":"Via Roma","capacity:caravans":"18","ele":"1263","fee":"yes","internet_access":"yes","internet_access:fee":"no","internet_access:ssid":"wifi4eu","mobile":"+39 340 8732140","motorhome":"designated","name":"Area Camper","operator":"Comune di Usseglio","operator:phone":"+39 0123 83702","power_supply":"yes","reservation":"yes","sanitary_dump_station":"yes","website":"https://www.turismousseglio.it/it-it/vivi/dove-dormire/area-camper-comunale-35262-1-766ddbfa9dfc5739ebf1214a2fa35006","wheelchair":"yes"}},"813058556":{"location":[45.1168196,7.2956336],"ct":"IT","tp":"CR","ts":"2020-06-05T06:49:06Z","tX":532,"tY":367,"tags":{"capacity":"6","name":"Area Camper del Gravio","power_supply":"yes"}},"1059632441":{"location":[45.1335754,7.1830456],"ct":"IT","tp":"CS","ts":"2012-01-11T13:54:52Z","tX":532,"tY":367,"tags":{"name":"Tizianella","phone":"+39 0122 49123"}},"1069841720":{"location":[45.1386856,7.0540285],"ct":"IT","tp":"CR","ts":"2024-04-03T13:55:20Z","tX":532,"tY":367,"tags":{"access":"no","addr:city":"Susa","addr:postcode":"10059","addr:street":"Piazza Arsenio Favro","capacity:caravans":"7","fee":"yes","internet_access":"no","motorhome":"yes","name":"Area di sosta camper Susa","parking":"surface","payment:cash":"yes","power_supply":"yes","sanitary_dump_station":"yes","supervised":"no","surface":"asphalt","wheelchair":"yes"}},"1202309514":{"location":[45.103085,7.164084],"ct":"IT","tp":"CS","ts":"2011-03-14T23:01:35Z","tX":532,"tY":367,"tags":{}},"1361432516":{"location":[45.1332571,7.1828624],"ct":"IT","tp":"CS","ts":"2025-02-22T19:07:32Z","tX":532,"tY":367,"tags":{"name":"Tizianella","phone":"+39 0122 49123"}},"3541628778":{"location":[45.1387721,7.0539147],"ct":"IT","tp":"SD","ts":"2022-03-26T18:03:12Z","tX":532,"tY":367,"tags":{"access":"yes","fee":"no","opening_hours":"24/7","sanitary_dump_station:basin":"yes","water_point":"yes"}},"6681338700":{"location":[45.208494,7.1442907],"ct":"IT","tp":"CS","ts":"2021-05-14T05:05:08Z","tX":532,"tY":367,"tags":{"description":"Free camp site, next to benches, access to toilet and a beautiful view","fee":"no"}},"8475680858":{"location":[45.1029813,7.3303517],"ct":"IT","tp":"CR","ts":"2021-03-01T11:30:53Z","tX":532,"tY":367,"tags":{"fee":"yes","operator":"BiciGrill San Michele","power_supply":"yes"}},"9430657575":{"location":[45.1409645,7.1659568],"ct":"IT","tp":"SD","ts":"2022-01-19T16:22:34Z","tX":532,"tY":367,"tags":{"access":"customers","fee":"no","operator":"Scarico reflui camper"}}}