{"173782711":{"location":[44.8797123,7.0400167],"ct":"IT","tp":"CS","ts":"2024-05-25T21:48:10Z","tX":532,"tY":368,"tags":{"addr:city":"Prali","addr:street":"Frazione Pomieri","caravans":"yes","drinking_water":"yes","mobile":"+39 3408084551","name":"Campeggio Lago Verde","phone":"+39 0121 807431","power_supply":"yes","shower":"yes","tents":"yes","toilets":"yes","website":"https://www.campeggiolagoverde.it/","wheelchair":"yes"}},"261444489":{"location":[44.864647,7.2690566],"ct":"IT","tp":"CR","ts":"2022-05-17T14:52:39Z","tX":532,"tY":368,"tags":{"capacity":"12","highway":"rest_area","name":"Area Camper Porto di Montagna","operator":"Comune di Prarostino","power_supply":"yes","toilets":"no","toll":"yes","website":"https://www.comune.prarostino.to.it/it-it/vivere-il-comune/dove-dormire/area-di-sosta-camper-porto-di-montagna-43552-1-ddec660be8dea8389774493ec801ac9e"}},"276736574":{"location":[45.0672825,7.3650849],"ct":"IT","tp":"CS","ts":"2023-03-21T09:55:31Z","tX":532,"tY":368,"tags":{"fee":"yes","name":"San Michele","phone":"+39 011 930389"}},"436854923":{"location":[45.0415412,7.3609918],"ct":"IT","tp":"CR","ts":"2016-08-12T10:46:37Z","tX":532,"tY":368,"tags":{}},"556503293":{"location":[44.8893402,7.3517526],"ct":"IT","tp":"CR","ts":"2021-12-16T14:00:10Z","tX":532,"tY":368,"tags":{"addr:street":"Piazzale Carlo Alberto dalla Chiesa","description":"Parcheggio per camper","name":"Area Camper Pinerolo","power_supply":"yes","sanitary_dump_station":"yes"}},"660043279":{"location":[44.9953752,7.3202907],"ct":"IT","tp":"CS","ts":"2024-04-29T22:24:43Z","tX":532,"tY":368,"tags":{"addr:city":"Cumiana","addr:country":"IT","addr:housenumber":"37","addr:place":"Verna","addr:postcode":"10040","addr:province":"Torino","caravans":"yes","email":"campeggio@gmail.com","fax":"+39 011 19837123","internet_access":"yes","internet_access:fee":"no","name":"Verna","payment:bancomat":"yes","payment:cash":"yes","payment:maestro":"yes","payment:mastercard":"yes","payment:notes":"yes","payment:visa":"yes","payment:visa_debit":"yes","payment:visa_electron":"yes","phone":"+39 011 19823198","sanitary_dump_station":"customers","smoking":"outside","stars":"2","tents":"yes","website":"https://www.campingverna.it/","wheelchair":"yes"}},"1015884699":{"location":[45.0635942,7.0371511],"ct":"IT","tp":"CS","ts":"2024-11-16T12:47:37Z","tX":532,"tY":368,"tags":{"caravans":"no","drinking_water":"yes","name":"Campeggio Pian dell'Alpe","phone":"+39 3471741218;+39 3331138809","power_supply":"no","shower":"no","tents":"yes","website":"https://comune.usseaux.to.it/lamministrazione/notizie-e-info/campeggio-pian-dellalpe/"}},"1019020013":{"location":[45.0386947,7.0440537],"ct":"IT","tp":"CS","ts":"2024-05-25T21:43:07Z","tX":532,"tY":368,"tags":{"addr:city":"Fenestrelle","addr:housenumber":"1","addr:postcode":"10060","addr:street":"Via del Laux","caravans":"yes","name":"Camping Serre Marie","operator":"Pairotto & C.","tents":"yes","website":"https://campeggioserremarie.it"}},"1275224133":{"location":[44.9842475,7.3773829],"ct":"IT","tp":"SD","ts":"2024-04-23T09:39:07Z","tX":532,"tY":368,"tags":{}},"1275224134":{"location":[44.9842778,7.3773693],"ct":"IT","tp":"CR","ts":"2024-04-23T09:39:07Z","tX":532,"tY":368,"tags":{}},"1307778921":{"location":[44.8935565,7.0505948],"ct":"IT","tp":"CR","ts":"2024-08-14T16:35:06Z","tX":532,"tY":368,"tags":{"fee":"no","reservation":"no","sanitary_dump_station":"yes"}},"1382711580":{"location":[44.8984436,7.2357886],"ct":"IT","tp":"CR","ts":"2021-12-16T14:04:30Z","tX":532,"tY":368,"tags":{"name":"Area camper Le Querce Rosse","power_supply":"yes","sanitary_dump_station":"yes"}},"3702595460":{"location":[45.0305822,7.2371442],"ct":"IT","tp":"CS","ts":"2016-02-19T04:11:05Z","tX":532,"tY":368,"tags":{"ele":"1000","name":"I Pianas","phone":"+39 338 1528049"}},"5062321513":{"location":[45.0390693,7.0456321],"ct":"IT","tp":"CR","ts":"2017-08-27T15:29:56Z","tX":532,"tY":368,"tags":{}},"6564724302":{"location":[44.864681,7.2690815],"ct":"IT","tp":"SD","ts":"2019-06-22T15:20:06Z","tX":532,"tY":368,"tags":{}},"9343840526":{"location":[44.8809309,7.3533136],"ct":"IT","tp":"SD","ts":"2021-12-16T14:00:10Z","tX":532,"tY":368,"tags":{"access":"yes","fee":"no","operator":"Camper Service Pinerolo","water_point":"yes"}},"9612869182":{"location":[45.0415402,7.3609884],"ct":"IT","tp":"SD","ts":"2022-03-28T11:01:48Z","tX":532,"tY":368,"tags":{"access":"yes","fee":"no","opening_hours":"24/7","power_supply":"no","water_point":"yes"}},"12943684347":{"location":[44.9533624,7.1811588],"ct":"IT","tp":"CR","ts":"2025-06-21T20:56:21Z","tX":532,"tY":368,"tags":{"description":"Area Sosta Camper: Pace e Libertà","fee":"yes","name":"Area Pace e Libertà","opening_hours":"24/7","power_supply":"yes","sanitary_dump_station":"no","water_supply":"yes"}}}