{"101525047":{"location":[44.4084819,7.3270876],"ct":"IT","tp":"CS","ts":"2024-07-24T07:25:40Z","tX":532,"tY":370,"tags":{"caravans":"yes","drinking_water":"yes","name":"Roccastella","phone":"+39 0171 989113","power_supply":"yes","shower":"yes","tents":"yes","toilets":"yes"}},"371492309":{"location":[44.4575776,7.0899434],"ct":"IT","tp":"CS","ts":"2023-11-08T18:04:33Z","tX":532,"tY":370,"tags":{"addr:city":"Marmora","addr:housenumber":"6","addr:postcode":"12020","addr:street":"Via Provinciale","email":"info@campingloudahu.com","name":"Camping Lou Dahu","phone":"+39 349 7105244","tents":"yes","website":"https://www.campingloudahu.com/"}},"377599875":{"location":[44.517144,7.3562431],"ct":"IT","tp":"CR","ts":"2016-08-05T20:59:12Z","tX":532,"tY":370,"tags":{"fee":"yes","name":"Area attrezzata Pian Pietro","power_supply":"yes","tents":"yes"}},"385527950":{"location":[44.5771956,7.185986],"ct":"IT","tp":"CS","ts":"2024-05-25T22:01:01Z","tX":532,"tY":370,"tags":{"addr:city":"Sampeyre","addr:housenumber":"15","addr:street":"Borgata Fiandrini","mobile":"+393407327629","name":"Val Varaita","phone":"+390175977258","website":"https://campingvalvaraita.it"}},"385528956":{"location":[44.5876858,7.2074602],"ct":"IT","tp":"CS","ts":"2022-09-16T11:55:49Z","tX":532,"tY":370,"tags":{"name":"Cianabie","phone":"+39 0175 979973"}},"491776690":{"location":[44.3450607,7.0312929],"ct":"IT","tp":"CS","ts":"2017-05-06T14:20:21Z","tX":532,"tY":370,"tags":{"name":"Cento Sentieri"}},"616786639":{"location":[44.4940543,7.1001655],"ct":"IT","tp":"CS","ts":"2024-10-18T11:34:32Z","tX":532,"tY":370,"tags":{"name":"Camping Park Valle Maira","phone":"+39 348 8138308","website":"https://www.campingparkvallemaira.com/"}},"617484742":{"location":[44.5708056,7.2786161],"ct":"IT","tp":"CR","ts":"2024-03-27T12:32:08Z","tX":532,"tY":370,"tags":{"charge":"5 EUR","fee":"yes","name":"Area Sosta Camper Strada del Varaita","sanitary_dump_station":"yes","source":"https://comune.frassino.cn.it/servizi/delibera-dett/929/DEL-GC-40-2012-ISTITUZIONE-DEL-SERVIZIO-A-DOMANDA-INDIVIDUALE-AREA-SOSTA-CAMPER-STRADA-DEL-VARAITA-SNC-E-DETERMINAZIONE-DELLE-TARIFFE-ANNO-2012","toilets":"yes","water_point":"yes"}},"662460561":{"location":[44.5792261,7.1551224],"ct":"IT","tp":"CS","ts":"2024-05-25T22:01:01Z","tX":532,"tY":370,"tags":{"mobile":"+39 3400881512","name":"Camping Narciso","phone":"+39 0175977285","tents":"yes","website":"https://www.campingnarciso.com"}},"669513926":{"location":[44.5699597,7.2754632],"ct":"IT","tp":"CS","ts":"2019-02-10T14:11:38Z","tX":532,"tY":370,"tags":{"name":"Camping I Tigli","phone":"+39 0175 976154"}},"7547890518":{"location":[44.5624347,7.3175585],"ct":"IT","tp":"CR","ts":"2020-05-22T09:47:52Z","tX":532,"tY":370,"tags":{}},"9835476881":{"location":[44.4678176,7.3651848],"ct":"IT","tp":"SD","ts":"2022-06-21T08:55:32Z","tX":532,"tY":370,"tags":{}}}