{"16120082":{"location":[43.6112771,7.12038],"ct":"FR","tp":"CS","ts":"2023-05-17T23:00:22Z","tX":532,"tY":373,"tags":{"addr:street":"Avenue du Pylone","internet_access":"wlan","landuse":"tourism","name":"Camping Du Pylone","website":"https://www.campingdupylone.com/"}},"17776571":{"location":[43.6420939,7.1372715],"ct":"FR","tp":"CS","ts":"2024-10-06T13:31:19Z","tX":532,"tY":373,"tags":{"addr:housenumber":"5","addr:street":"Avenue des Rives","cabins":"yes","capacity:cabins":"15","capacity:pitches":"47","caravans":"yes","drinking_water":"yes","internet_access":"wlan","landuse":"tourism","motorhome":"yes","name":"L'Hippodrome","name:sv":"Hippodrome","phone":"+33 4 93 20 02 00","power_supply":"no","power_supply:maxcurrent":"6;10","shower":"yes","stars":"3","start_date":"1955","tents":"yes","toilets":"yes","website":"https://www.camping-hippodrome.com/"}},"26858366":{"location":[43.705,7.050556],"ct":"FR","tp":"CS","ts":"2021-07-27T15:37:01Z","tX":532,"tY":373,"tags":{"access":"customers","addr:city":"Tourrettes sur Loup","addr:housenumber":"523","addr:postcode":"06140","addr:street":"Route de Pie Lombard","fee":"yes","name":"Camping la Camassade","payment:bank_transfer":"yes","payment:cash":"yes","payment:cheque":"yes","payment:cheques_vacances":"yes","payment:credit_card":"yes","stars":"3","website":"https://camassade.com/"}},"26858753":{"location":[43.690278,7.156389],"ct":"FR","tp":"CS","ts":"2007-03-28T17:12:43Z","tX":532,"tY":373,"tags":{"created_by":"JOSM","name":"Le Todos"}},"26858981":{"location":[43.6820171,7.0835292],"ct":"FR","tp":"CS","ts":"2019-03-23T16:38:29Z","tX":532,"tY":373,"tags":{"addr:street":"Route du Pont de Pierre","internet_access":"wlan","name":"Les Pinèdes","website":"https://www.lespinedes.com/"}},"103761790":{"location":[43.6317424,7.1286852],"ct":"FR","tp":"CS","ts":"2023-11-04T05:50:14Z","tX":532,"tY":373,"tags":{"addr:housenumber":"730","addr:street":"Avenue du Docteur Julien Lefebvre","caravans":"yes","landuse":"tourism","name":"Parc des Maurettes","opening_hours":"Jan 10-Nov 15","phone":"+33 4 93 20 91 91","shower":"yes","tents":"yes","toilets":"yes","website":"https://www.parcdesmaurettes.com/"}},"172160443":{"location":[43.7107084,7.0921261],"ct":"FR","tp":"CS","ts":"2024-04-06T17:36:39Z","tX":532,"tY":373,"tags":{"addr:city":"Vence","addr:housenumber":"1330","addr:postcode":"06140","addr:street":"Chemin de la Sine","barrier":"fence","contact:phone":"+33 4 93 58 09 36","contact:website":"http://www.camping-domainedelabergerie.com/emplacements-camping-vence/","fence_type":"chain_link","landuse":"tourism","name":"Camping Domaine De La Bergerie - Vence","opening_hours":"Mo-Tu 09:00-12:00, 15:00-19:00; We 09:00-19:00; Th 09:00-12:00, 15:00-19:00; Fr-Sa 09:00-19:00; Su 09:00-12:00, 15:00-19:00","source":"cadastre-dgi-fr source : Direction Générale des Impôts - Cadastre. Mise à jour : 2012","stars":"3","website":"https://www.camping-domainedelabergerie.com/"}},"178364191":{"location":[43.6120656,7.1256838],"ct":"FR","tp":"CS","ts":"2024-03-31T22:46:21Z","tX":532,"tY":373,"tags":{"addr:housenumber":"63","addr:street":"Route de Biot","check_date":"2024-04-01","landuse":"tourism","name":"Camping Les Embruns","phone":"+33 4 93 33 33 35","stars":"3","website":"https://www.camping-les-embruns.fr/"}},"296661602":{"location":[43.6871445,7.1549577],"ct":"FR","tp":"CS","ts":"2019-03-16T22:35:15Z","tX":532,"tY":373,"tags":{"landuse":"tourism","name":"Le Val Fleuri"}},"296661603":{"location":[43.6875868,7.1563883],"ct":"FR","tp":"CS","ts":"2019-03-16T22:35:15Z","tX":532,"tY":373,"tags":{"landuse":"tourism","name":"Le Val Fleuri 2"}},"317246075":{"location":[43.6907798,7.157766],"ct":"FR","tp":"CS","ts":"2023-02-23T21:10:18Z","tX":532,"tY":373,"tags":{"landuse":"tourism"}},"370803260":{"location":[43.6596074,7.1002995],"ct":"FR","tp":"CS","ts":"2022-09-16T06:22:10Z","tX":532,"tY":373,"tags":{"addr:city":"Villeneuve-Loubet","addr:postcode":"06270","addr:street":"Route de Grasse","contact:phone":"+33 4 93 20 96 11","landuse":"tourism","name":"Parc Saint-James \"Le Sourire\"","website":"https://www.camping-parcsaintjames.com/"}},"582658285":{"location":[43.6123575,7.116221],"ct":"FR","tp":"CS","ts":"2019-03-22T20:06:16Z","tX":532,"tY":373,"tags":{"landuse":"tourism","name":"Camping des Frènes","source":"cadastre-dgi-fr source : Direction Générale des Finances Publiques - Cadastre. Mise à jour : 2017"}},"582658286":{"location":[43.6124693,7.1148625],"ct":"FR","tp":"CS","ts":"2019-03-22T20:06:17Z","tX":532,"tY":373,"tags":{"landuse":"tourism","name":"Camping du Séquoia","source":"cadastre-dgi-fr source : Direction Générale des Finances Publiques - Cadastre. Mise à jour : 2017"}},"582658287":{"location":[43.6117924,7.1145435],"ct":"FR","tp":"CS","ts":"2019-03-22T20:06:17Z","tX":532,"tY":373,"tags":{"landuse":"tourism","name":"Camping Antipolis","source":"cadastre-dgi-fr source : Direction Générale des Finances Publiques - Cadastre. Mise à jour : 2017"}},"651704727":{"location":[43.7023175,7.1170079],"ct":"FR","tp":"CR","ts":"2024-05-26T23:21:57Z","tX":532,"tY":373,"tags":{"access":"yes","capacity":"6","caravan_site":"motorhome_stopover","caravan_site:type":"street_side","caravans":"no","description":"on a slope","fee":"no","maxstay":"48 hours","name":"Aire Chemin des Trious","surface":"asphalt","website":"https://www.saint-pauldevence.com/en/fiches/parkings/parking-spaces-for-camper-vans/"}},"684085511":{"location":[43.6200192,7.1259796],"ct":"FR","tp":"CS","ts":"2024-04-29T07:32:18Z","tX":532,"tY":373,"tags":{"addr:city":"Villeneuve-Loubet","addr:housenumber":"296","addr:postcode":"06270","addr:street":"Boulevard des Groules","camp_site":"deluxe","caravans":"yes","contact:website":"http://www.vieilleferme.com/","drinking_water":"yes","name":"Camping Vieille Ferme","power_supply":"yes","sanitary_dump_station":"yes","shower":"yes","stars":"4","tents":"yes","toilets":"yes"}},"713952661":{"location":[43.6210529,7.1251788],"ct":"FR","tp":"CS","ts":"2019-08-15T14:11:22Z","tX":532,"tY":373,"tags":{"addr:housenumber":"390","addr:street":"Boulevard des Groules","name":"L'Orée de Vaugrenier"}},"718107172":{"location":[43.7146597,7.1782626],"ct":"FR","tp":"CS","ts":"2019-08-26T15:51:10Z","tX":532,"tY":373,"tags":{"addr:city":"Saint-Laurent-du-Var","addr:postcode":"06700","internet_access":"yes","name":"Magali"}},"1007487095":{"location":[43.8168314,7.3437126],"ct":"FR","tp":"CS","ts":"2021-11-29T22:26:51Z","tX":532,"tY":373,"tags":{"caravans":"yes","contact:email":"contact@campinglafermeriola.com","contact:phone":"+334 93 79 03 02","name":"La Ferme Riola","opening_hours":"Apr-Sep Mo-Su 08:00-12:00,14:00-20:00","stars":"3","tents":"yes","website":"https://www.campinglafermeriola.com/"}},"1079699661":{"location":[43.7974875,7.3639618],"ct":"FR","tp":"CS","ts":"2022-07-19T08:37:06Z","tX":532,"tY":373,"tags":{"access":"private","addr:city":"Blaussac","addr:housenumber":"407","addr:postcode":"06440","addr:street":"Le Cannet","fee":"yes","group_only":"yes","name":"Centre EEDF Les Restanques","operator":"Éclaireuses Éclaireurs de France","scout":"yes"}},"1154860196":{"location":[43.6292781,7.1275386],"ct":"FR","tp":"CS","ts":"2024-06-10T16:23:06Z","tX":532,"tY":373,"tags":{"cabins":"yes","caravans":"no","motorhome":"no","name":"Orion","phone":"+33 783 709 989","shower":"yes","tents":"no","toilets":"yes","website":"https://www.campingorion.fr/"}},"1163982470":{"location":[43.6881803,7.0719404],"ct":"FR","tp":"CS","ts":"2023-11-04T05:50:53Z","tX":532,"tY":373,"tags":{"cabins":"yes","caravans":"yes","internet_access":"yes","name":"Le Castellas","phone":"+33 6 72 66 31 83","stars":"2","swimming_pool":"yes","tents":"yes","website":"https://www.camping-le-castellas.com/"}},"1163982473":{"location":[43.6845278,7.0732599],"ct":"FR","tp":"CS","ts":"2023-04-19T20:11:57Z","tX":532,"tY":373,"tags":{"cabins":"yes","caravans":"yes","internet_access":"yes","internet_access:fee":"yes","name":"Camping Au Vallon Rouge","opening_hours":"Apr-Sep 9:00-12:30, 14:00-18:30","phone":"+33493328612","stars":"3","swimming_pool":"yes","tents":"yes","website":"https://www.auvallonrouge.com/","wheelchair":"yes"}},"1286933693":{"location":[43.7175182,7.0627897],"ct":"FR","tp":"CR","ts":"2024-05-26T23:14:36Z","tX":532,"tY":373,"tags":{"capacity":"4","caravan_site":"motorhome_stopover","caravan_site:type":"village","fee":"no","name":"Tourrettes-sur-Loup Route du Stade"}},"2379916735":{"location":[43.6958531,7.1430084],"ct":"FR","tp":"CS","ts":"2024-09-30T20:55:56Z","tX":532,"tY":373,"tags":{"name":"La Rivière","website":"https://www.campinglariviere06.fr/"}},"3170271236":{"location":[43.7452689,7.1590641],"ct":"FR","tp":"CS","ts":"2022-01-25T12:49:25Z","tX":532,"tY":373,"tags":{"addr:city":"Saint Jeannet","addr:housenumber":"1205","addr:postcode":"06640","addr:street":"Route de Gattières","name":"Les Cent Chênes","phone":"+33 4 93 24 44 26","website":"http://www.camping-lescentchenes.com/index.html"}},"4016643615":{"location":[43.7522555,7.1616626],"ct":"FR","tp":"CS","ts":"2023-11-04T05:47:47Z","tX":532,"tY":373,"tags":{"access":"permissive","addr:city":"Saint-Jeannet","addr:housenumber":"800","addr:postcode":"06640","addr:street":"Chemin des Sausses","capacity":"20","charge":"14 EUR for a tent","email":"contact@vignoblestjeannet.fr","fee":"yes","name":"Domaine des Hautes Collines de la Côte d'Azur","note":"Camping à la ferme au sein du vignoble , sous les oliviers","operator":"Georges RASSE","phone":"+33 4 93 24 96 01","website":"https://vignoblestjeannet.fr/"}},"4017736779":{"location":[43.7647527,7.0381377],"ct":"FR","tp":"CS","ts":"2022-01-25T08:53:01Z","tX":532,"tY":373,"tags":{"addr:city":"Coursegoules","addr:postcode":"06140","addr:street":"Route de Gréolières, Saint-Barnabé","name":"Domaine St Gilles","note":"Camping à la ferme","phone":"+33 9 83 97 01 68;+33 6 61 59 83 68"}},"4349007702":{"location":[43.6710812,7.138763],"ct":"FR","tp":"CS","ts":"2024-06-10T16:23:06Z","tX":532,"tY":373,"tags":{"caravans":"yes","motorhome":"yes","name":"Le Colombier","phone":"+33 4 93 73 12 77","tents":"yes","website":"https://www.campinglecolombier.com/"}},"4358242894":{"location":[43.6786107,7.1265292],"ct":"FR","tp":"CS","ts":"2023-12-22T23:01:14Z","tX":532,"tY":373,"tags":{"addr:housenumber":"637","addr:postcode":"06570","addr:street":"Chemin du Malvan","name":"Camping Caravaning Saint-Paul","name:fr":"Camping Caravaning Saint-Paul","opening_hours":"Mo-Su 08:30-23:00","website":"http://caravaningstpaul.free.fr/"}},"4994736098":{"location":[43.6162231,7.1230185],"ct":"FR","tp":"CS","ts":"2024-08-17T12:50:50Z","tX":532,"tY":373,"tags":{"caravans":"yes","drinking_water":"yes","name":"Les Treilesses","power_supply":"yes","shower":"yes","tents":"yes"}},"9035647817":{"location":[43.8210197,7.318673],"ct":"FR","tp":"CS","ts":"2021-11-29T22:33:03Z","tX":532,"tY":373,"tags":{"capacity:tents":"20","caravans":"no","contact:email":"info@ararat.fr","contact:phone":"+334 93 79 01 15","name":"Camping Ararates","opening_hours":"May 15-Sep 15: Mo-Su 10:00-16:00","tents":"yes","website":"http://www.ararat.fr/"}},"10834118705":{"location":[43.6198243,7.1106003],"ct":"FR","tp":"CS","ts":"2023-09-10T17:53:00Z","tX":532,"tY":373,"tags":{"internet_access":"wlan","name":"L'eden","name:it":"Eden"}},"10940313005":{"location":[43.7719556,7.3728852],"ct":"FR","tp":"CS","ts":"2023-05-30T17:09:39Z","tX":532,"tY":373,"tags":{"access":"customers","fee":"yes","name":"Camping de la Laune","survey:date":"2023-05-30","website":"https://www.campingdelalaune.com/en/"}},"6433757711":{"location":[43.6196566,7.1258245],"ct":"FR","tp":"SD","ts":"2024-04-29T07:32:39Z","tX":532,"tY":373,"tags":{"fee":"no"}},"10866711347":{"location":[43.6196631,7.1257746],"ct":"FR","tp":"SD","ts":"2024-04-29T07:32:32Z","tX":532,"tY":373,"tags":{"fee":"no"}}}