{"88265540":{"location":[-46.3635661,168.356029],"ct":"NZ","tp":"CS","ts":"2025-02-13T10:45:26Z","tX":990,"tY":661,"tags":{"addr:city":"Invercargill","addr:housenumber":"77","addr:street":"McIvor Road","cabins":"yes","capacity:powered":"35","caravans":"yes","contact:email":"info@invercargillholidaypark.com","dryer":"yes","fee":"yes","internet_access":"yes","internet_access:fee":"yes","kitchen":"yes","name":"Invercargill Top 10 Holiday Park","payment:cash":"yes","payment:mastercard":"yes","payment:visa":"yes","phone":"+64 3 215 9032","power_supply":"yes","sanitary_dump_station":"yes","tents":"yes","washing_machine":"yes","website":"https://www.invercargillholidaypark.com/","womo":"camping","womo:capacity":"35","womo:fee":"38","womo:name":"Intercargill Top10 HP","womo:nz:nr":"115"}},"380938733":{"location":[-46.4405006,168.3806354],"ct":"NZ","tp":"CS","ts":"2015-11-18T10:00:58Z","tX":990,"tY":661,"tags":{"addr:city":"Kingswell","addr:housenumber":"145","addr:street":"Chesney Street","name":"Amble on Inn Holiday Park","sanitary_dump_station":"yes"}},"1320827273":{"location":[-46.4194017,168.3382962],"ct":"NZ","tp":"CR","ts":"2024-10-04T23:03:20Z","tX":990,"tY":661,"tags":{"access":"members","addr:city":"Invercargill","addr:housenumber":"239","addr:street":"Bond Street","addr:suburb":"West Invercargill","area":"yes","caravan_site":"motorhome_stopover","name":"Invercargill NZMCA Park","operator":"NZMCA","power_supply":"no","sanitary_dump_station":"yes"}},"1758983680":{"location":[-46.4341685,168.2611357],"ct":"NZ","tp":"CS","ts":"2023-03-18T10:06:18Z","tX":990,"tY":661,"tags":{"addr:city":"Otatara","addr:hamlet":"Oreti Beach","addr:housenumber":"375","addr:street":"Dunns Road","caravans":"yes","drinking_water":"yes","name":"Beach Road Holiday Park","ref:linz:address_id":"83995","sanitary_dump_station":"yes","shower":"yes","tents":"yes","toilets":"yes"}},"1765153796":{"location":[-46.3486042,168.392437],"ct":"NZ","tp":"CS","ts":"2015-03-28T00:16:47Z","tX":990,"tY":661,"tags":{"addr:city":"Grove Bush","addr:housenumber":"352","addr:street":"Lorne-Dacre Road","fee":"yes","name":"Invercargill Kiwi Holiday Park","sanitary_dump_station":"yes"}},"4751580621":{"location":[-46.4180832,168.3552195],"ct":"NZ","tp":"CS","ts":"2022-05-22T09:37:49Z","tX":990,"tY":661,"tags":{"addr:housenumber":"209","addr:street":"Tweed Street","addr:suburb":"Appleby","check_date":"2021-04-03","email":"info@invercargillcamping.co.nz","internet_access":"wlan","name":"Central City Camping Park","opening_hours":"Mo-Su 08:00-19:00","phone":"+64 3 214 2226","ref:linz:address_id":"1467638","website":"https://invercargillcamping.co.nz/"}},"7173769605":{"location":[-46.4023871,168.3852079],"ct":"NZ","tp":"SD","ts":"2025-01-30T03:33:58Z","tX":990,"tY":661,"tags":{"fee":"no"}},"11523730339":{"location":[-46.3880369,168.3468573],"ct":"NZ","tp":"SD","ts":"2025-01-29T22:02:29Z","tX":990,"tY":661,"tags":{"fee":"no","name":"npd"}}}