{"625287042":{"location":[40.6453419,-77.7637722],"ct":"US","tp":"CS","ts":"2018-09-13T13:40:33Z","tX":290,"tY":385,"tags":{"name":"Greenwood Furnace Camp"}},"733131413":{"location":[40.454087,-77.9777837],"ct":"US","tp":"CS","ts":"2021-05-31T17:50:14Z","tX":290,"tY":385,"tags":{"addr:city":"Huntingdon","addr:housenumber":"8497","addr:postcode":"16652","addr:state":"PA","addr:street":"Awkerman Road","name":"Riverbank Campground","website":"https://riverbankcampground.net"}},"1227709050":{"location":[40.4515627,-78.0448012],"ct":"US","tp":"CS","ts":"2024-01-18T04:02:55Z","tX":290,"tY":385,"tags":{"addr:city":"Huntingdon","addr:housenumber":"11601","addr:postcode":"16652","addr:state":"PA","addr:street":"Piney Ridge Road","cabins":"yes","caravans":"yes","fee":"yes","name":"Lake Raystown Family Camping","phone":"+18146433377","tents":"yes","website":"https://raystownlakecamping.com/"}},"4433167545":{"location":[40.6505455,-78.0218679],"ct":"US","tp":"CS","ts":"2019-11-24T03:06:11Z","tX":290,"tY":385,"tags":{"name":"Camp Blue Diamond","website":"https://campbluediamond.org/"}},"4435573920":{"location":[40.6474396,-78.017574],"ct":"US","tp":"CS","ts":"2017-04-15T16:33:06Z","tX":290,"tY":385,"tags":{"name":"RV Campground"}},"11339454971":{"location":[40.5492076,-77.858443],"ct":"US","tp":"CS","ts":"2023-11-10T20:34:18Z","tX":290,"tY":385,"tags":{"name":"007 Frew Road","operator":"PA DCNR"}},"11527204481":{"location":[40.4565126,-78.0423251],"ct":"US","tp":"CS","ts":"2024-01-18T04:02:55Z","tX":290,"tY":385,"tags":{"addr:city":"Huntingdon","addr:housenumber":"11479","addr:postcode":"16652","addr:state":"PA","addr:street":"Ridgeview Camping Road","name":"Ridgeview Campground","operator":"Ridgeview Campground"}}}