{"14697144":{"location":[39.6064849,-78.0100992],"ct":"US","tp":"CS","ts":"2022-10-15T14:48:09Z","tX":290,"tY":389,"tags":{"caravans":"no","drinking_water":"no","electrified":"no","group_only":"yes","name":"Fort Frederick State Park Youth Group Campsite","reservation":"yes","shower":"no","tents":"yes","website":"https://dnr.maryland.gov/publiclands/Pages/western/FortFrederick/Camping.aspx"}},"14697145":{"location":[39.604694,-78.0086587],"ct":"US","tp":"CS","ts":"2022-10-15T14:48:09Z","tX":290,"tY":389,"tags":{"caravans":"yes","drinking_water":"no","electrified":"no","group_only":"no","name":"Fort Frederick State Park Campground","reservation":"yes","shower":"no","tents":"yes","website":"https://dnr.maryland.gov/publiclands/Pages/western/FortFrederick/Camping.aspx"}},"16660161":{"location":[39.6091457,-77.9668336],"ct":"US","tp":"CS","ts":"2023-11-06T13:28:04Z","tX":290,"tY":389,"tags":{"caravans":"yes","fee":"yes","internet_access":"no","name":"McCoys Ferry Campground","operator":"National Park Service","reservation":"required","tents":"yes","website":"https://www.nps.gov/choh/planyourvisit/mccoys-ferry-campground.htm"}},"488766575":{"location":[39.4217565,-77.7494355],"ct":"US","tp":"CS","ts":"2018-11-20T22:18:06Z","tX":290,"tY":389,"tags":{"capacity":"20","charge":"20$","drinking_water":"yes","fee":"yes","name":"Antietam Creek Campsite","openfire":"yes","tents":"yes","website":"https://www.recreation.gov/camping/antietam-creek-campsite/r/campgroundDetails.do?contractCode=NRSO&parkId=146540"}},"548714384":{"location":[39.4252193,-77.9362895],"ct":"US","tp":"CS","ts":"2017-12-23T15:14:00Z","tX":290,"tY":389,"tags":{"addr:city":"Martinsburg","addr:housenumber":"1435","addr:postcode":"25405","addr:state":"WV","addr:street":"Charles Town Road","name":"Nahkeeta Campsite LLC"}},"1120301158":{"location":[39.6338309,-77.8364932],"ct":"US","tp":"CR","ts":"2024-01-17T03:41:36Z","tX":290,"tY":389,"tags":{"alt_name":"KOA Campground","brand":"KOA","brand:wikidata":"Q16988635","name":"KOA Kampground","short_name":"KOA"}},"1163510155":{"location":[39.4544721,-77.7306171],"ct":"US","tp":"CS","ts":"2023-04-18T11:39:53Z","tX":290,"tY":389,"tags":{"internet_access":"no","name":"Site 10","operator":"National Park Service","reservation":"required","tents":"yes","website":"https://www.recreation.gov/camping/campgrounds/251263"}},"1163510156":{"location":[39.4544235,-77.7314995],"ct":"US","tp":"CS","ts":"2023-04-18T11:39:53Z","tX":290,"tY":389,"tags":{"internet_access":"no","name":"Site 9","operator":"National Park Service","reservation":"required","tents":"yes","website":"https://www.recreation.gov/camping/campgrounds/251263"}},"1163510157":{"location":[39.4547195,-77.7311737],"ct":"US","tp":"CS","ts":"2023-04-18T11:39:53Z","tX":290,"tY":389,"tags":{"internet_access":"no","name":"Site 8","operator":"National Park Service","reservation":"required","tents":"yes","website":"https://www.recreation.gov/camping/campgrounds/251263"}},"1163510158":{"location":[39.4552714,-77.7307727],"ct":"US","tp":"CS","ts":"2023-04-18T12:46:50Z","tX":290,"tY":389,"tags":{"internet_access":"no","name":"Site7","operator":"National Park Service","reservation":"required","tents":"yes","website":"https://www.recreation.gov/camping/campgrounds/251263"}},"1163510159":{"location":[39.4555128,-77.7305514],"ct":"US","tp":"CS","ts":"2023-04-18T11:39:53Z","tX":290,"tY":389,"tags":{"internet_access":"no","name":"Site 6","operator":"National Park Service","reservation":"required","tents":"yes","website":"https://www.recreation.gov/camping/campgrounds/251263"}},"1163510160":{"location":[39.4558255,-77.730306],"ct":"US","tp":"CS","ts":"2023-04-18T11:39:53Z","tX":290,"tY":389,"tags":{"internet_access":"no","name":"Site 5","operator":"National Park Service","reservation":"required","tents":"yes","website":"https://www.recreation.gov/camping/campgrounds/251263"}},"1163510161":{"location":[39.4560699,-77.7295295],"ct":"US","tp":"CS","ts":"2023-04-18T11:39:53Z","tX":290,"tY":389,"tags":{"internet_access":"no","name":"Site 4","operator":"National Park Service","reservation":"required","tents":"yes","website":"https://www.recreation.gov/camping/campgrounds/251263"}},"1163510162":{"location":[39.4553388,-77.7292786],"ct":"US","tp":"CS","ts":"2023-04-18T11:39:53Z","tX":290,"tY":389,"tags":{"internet_access":"no","name":"Site 3","operator":"National Park Service","reservation":"required","tents":"yes","website":"https://www.recreation.gov/camping/campgrounds/251263"}},"1163510163":{"location":[39.4548247,-77.7296126],"ct":"US","tp":"CS","ts":"2023-04-18T11:39:53Z","tX":290,"tY":389,"tags":{"internet_access":"no","name":"Site 2","operator":"National Park Service","reservation":"required","tents":"yes","website":"https://www.recreation.gov/camping/campgrounds/251263"}},"1163510164":{"location":[39.4544037,-77.7299828],"ct":"US","tp":"CS","ts":"2023-04-18T11:39:53Z","tX":290,"tY":389,"tags":{"internet_access":"no","name":"Site 1","operator":"National Park Service","reservation":"required","tents":"yes","website":"https://www.recreation.gov/camping/campgrounds/251263"}},"1221535331":{"location":[39.6106337,-77.9597555],"ct":"US","tp":"CS","ts":"2023-11-06T13:28:04Z","tX":290,"tY":389,"tags":{"backcountry":"yes","caravans":"no","fee":"no","name":"North Mountain Campsite","operator":"National Park Service","reservation":"no","tents":"yes","website":"https://www.nps.gov/choh/planyourvisit/primitive-campsites.htm"}},"2401942914":{"location":[39.5809311,-77.795972],"ct":"US","tp":"CS","ts":"2020-12-17T01:34:22Z","tX":290,"tY":389,"tags":{"addr:state":"MD","internet_access":"yes","internet_access:fee":"no","name":"Yogi Bear's Jellystone Park","phone":"+1-301-223-7117","website":"www.jellystonemaryland.com/"}},"7924258180":{"location":[39.4600094,-77.7956406],"ct":"US","tp":"CS","ts":"2023-05-29T20:16:47Z","tX":290,"tY":389,"tags":{"backcountry":"yes","caravans":"no","drinking_water":"yes","fee":"no","group_only":"no","internet_access":"no","name":"Killiansburg Cave Hiker Biker Campsite","operator":"National Park Service","reservation":"no","sanitary_dump_station":"no","shower":"no","tents":"yes","toilets":"yes","website":"https://www.canaltrust.org/pyv/killiansburg-cave-campsite/"}},"7924298023":{"location":[39.486813,-77.7746337],"ct":"US","tp":"CS","ts":"2023-10-09T00:51:37Z","tX":290,"tY":389,"tags":{"backcountry":"yes","caravans":"no","drinking_water":"yes","fee":"no","group_only":"no","internet_access":"no","name":"Horseshoe Bend Hiker Biker Campsite","operator":"National Park Service","reservation":"no","sanitary_dump_station":"no","shower":"no","tents":"yes","toilets":"yes","website":"https://www.canaltrust.org/pyv/horseshoe-bend-campsite/"}},"7924307751":{"location":[39.4922967,-77.7933581],"ct":"US","tp":"CS","ts":"2020-09-19T22:03:37Z","tX":290,"tY":389,"tags":{"name":"Big Woods Hiker Biker Campsite"}},"7924313953":{"location":[39.6092471,-77.8528702],"ct":"US","tp":"CS","ts":"2023-07-04T18:47:30Z","tX":290,"tY":389,"tags":{"caravans":"no","name":"Jordon Junction Hiker Biker Campsite","static_caravans":"no","tents":"yes"}},"7924317091":{"location":[39.5618618,-77.8721364],"ct":"US","tp":"CS","ts":"2025-04-21T18:47:50Z","tX":290,"tY":389,"tags":{"backcountry":"yes","caravans":"no","name":"Cumberland Valley Hiker Biker Campsite","static_caravans":"no","tents":"yes"}},"6859178819":{"location":[39.6050243,-77.9290826],"ct":"US","tp":"CR","ts":"2019-10-08T00:15:52Z","tX":290,"tY":389,"tags":{"addr:city":"Falling Waters","addr:housenumber":"3247","addr:state":"WV","addr:street":"Vineyard Road","name":"River Bend RV Park","website":"https://www.riverbendrvpark.org/default.php"}}}