{"1309907924":{"location":[42.0418819,-89.1628511],"ct":"US","tp":"CS","ts":"2024-08-23T05:28:20Z","tX":258,"tY":379,"tags":{"capacity:tents":"10","fee":"yes","group_only":"yes","name":"Primitive Camping","tents":"yes"}},"1310004328":{"location":[42.0411723,-89.1616276],"ct":"US","tp":"CS","ts":"2024-08-23T05:45:32Z","tX":258,"tY":379,"tags":{"group_only":"yes","name":"Group Tent Zone 1"}},"1310004329":{"location":[42.0408674,-89.1613369],"ct":"US","tp":"CS","ts":"2024-08-23T05:45:32Z","tX":258,"tY":379,"tags":{"group_only":"yes","name":"Group Tent Zone 2"}},"1369229670":{"location":[42.1833262,-89.0470897],"ct":"US","tp":"CS","ts":"2025-03-19T18:01:17Z","tX":258,"tY":379,"tags":{"addr:city":"Rockford","addr:housenumber":"6540","addr:postcode":"61109","addr:state":"IL","addr:street":"Valley Trail Road","caravans":"yes","fee":"yes","name":"Blackhawk Valley Campground","phone":"+1 815-874-9767","tents":"yes","website":"http://www.blackhawkvalleycampground.com/"}},"10744421705":{"location":[42.1833058,-89.0466617],"ct":"US","tp":"CS","ts":"2023-03-19T01:14:35Z","tX":258,"tY":379,"tags":{"addr:housenumber":"6540","addr:postcode":"61109","addr:street":"Valley Trail Road","name":"Blackhawk Valley Campground","phone":"(815) 874-9767","website":"http://www.blackhawkvalleycampground.com/"}},"11208997090":{"location":[42.0367595,-89.134081],"ct":"US","tp":"CS","ts":"2023-09-21T21:51:44Z","tX":258,"tY":379,"tags":{"name":"Kings Camp"}},"12128950191":{"location":[42.0347755,-89.1625452],"ct":"US","tp":"CS","ts":"2024-08-23T06:01:20Z","tX":258,"tY":379,"tags":{"name":"Kings Camp"}},"12164522415":{"location":[42.039465,-89.1619657],"ct":"US","tp":"SD","ts":"2024-09-08T22:14:32Z","tX":258,"tY":379,"tags":{}},"12681659985":{"location":[42.1839014,-89.0472968],"ct":"US","tp":"SD","ts":"2025-03-19T18:01:17Z","tX":258,"tY":379,"tags":{}}}