{"48379155":{"location":[40.6459357,-89.0338778],"ct":"US","tp":"CS","ts":"2023-04-04T16:20:50Z","tX":258,"tY":385,"tags":{"access":"yes","fee":"yes","name":"COMLARA Park Campgrounds","operator":"McLean County Department of Parks and Recreation"}},"273924057":{"location":[40.5952247,-89.1570961],"ct":"US","tp":"CS","ts":"2014-04-13T08:39:06Z","tX":258,"tY":385,"tags":{"internet_access":"wlan","name":"Kanmp Komfort RV Park"}},"864506077":{"location":[40.6420365,-89.0434669],"ct":"US","tp":"CS","ts":"2020-10-29T17:09:41Z","tX":258,"tY":385,"tags":{"group_only":"yes","name":"White Oak Group Camp Area","operator":"McLean County Department of Parks and Recreation"}},"865086970":{"location":[40.6464308,-89.0414351],"ct":"US","tp":"CS","ts":"2020-10-29T17:15:12Z","tX":258,"tY":385,"tags":{"access":"yes","name":"White Oak Primitive Campsites","operator":"McLean County Department of Parks and Recreation"}},"1159700331":{"location":[40.6389365,-89.0350315],"ct":"US","tp":"CS","ts":"2023-04-04T16:20:50Z","tX":258,"tY":385,"tags":{"group_only":"yes"}},"11889678418":{"location":[40.5409042,-89.0008995],"ct":"US","tp":"CR","ts":"2024-05-08T19:39:44Z","tX":258,"tY":385,"tags":{"addr:city":"Normal","addr:housenumber":"207","addr:postcode":"61761","addr:state":"IL","addr:street":"North Main Street","name":"Love's RV Stop"}}}