{"143624554":{"location":[48.4409603,-72.1252157],"ct":"CA","tp":"CR","ts":"2021-12-21T02:12:20Z","tX":306,"tY":354,"tags":{"name":"Coop Camping Chambord","source":"NRCan-CanVec-8.0"}},"298350925":{"location":[48.4426761,-72.1646109],"ct":"CA","tp":"CS","ts":"2022-03-08T00:13:26Z","tX":306,"tY":354,"tags":{"addr:city":"Chambord","addr:housenumber":"95","addr:street":"Rue Saint-Georges","name":"Camping de Val-Jalbert"}},"1013927650":{"location":[48.4396212,-72.1218815],"ct":"CA","tp":"CR","ts":"2022-04-19T14:49:53Z","tX":306,"tY":354,"tags":{"name":"Camping Municipal de Chambord"}},"1055155081":{"location":[48.3361797,-72.1316194],"ct":"CA","tp":"CS","ts":"2022-04-26T18:34:49Z","tX":306,"tY":354,"tags":{"addr:city":"Saint-François-de-Sales","addr:housenumber":"290","addr:street":"Rue du Foyer","name":"Camping municipal de Saint-François-de-Sales"}},"1055155129":{"location":[48.2734035,-72.1925152],"ct":"CA","tp":"CS","ts":"2022-04-26T19:15:44Z","tX":306,"tY":354,"tags":{"name":"Camping de l'Ermitage Saint-Antoine"}}}