{"260615038":{"location":[46.8686005,-72.3922813],"ct":"CA","tp":"CS","ts":"2022-04-20T13:12:58Z","tX":306,"tY":360,"tags":{"addr:city":"Lac-aux-Sables","addr:housenumber":"174","addr:street":"Rue Cloutier","name":"Camping Lac-aux-Sables"}},"329231289":{"location":[46.830406,-72.2681776],"ct":"CA","tp":"CS","ts":"2022-03-08T18:06:23Z","tX":306,"tY":360,"tags":{"addr:housenumber":"2300","addr:street":"Chemin du Lac-Blanc","name":"Camping du Lac Blanc"}},"1044254946":{"location":[46.9990981,-72.0829347],"ct":"CA","tp":"CS","ts":"2022-03-26T12:02:59Z","tX":306,"tY":360,"tags":{"name":"Camping Martinet"}},"1053330537":{"location":[46.8321655,-72.3220924],"ct":"CA","tp":"CS","ts":"2024-03-18T19:36:38Z","tX":306,"tY":360,"tags":{"addr:city":"Notre-Dame-de-Montauban","addr:housenumber":"200","addr:street":"Rue du Camping","name":"Camping La Mine d'Or"}},"1053334932":{"location":[46.8683585,-72.3755862],"ct":"CA","tp":"CS","ts":"2022-04-20T13:12:58Z","tX":306,"tY":360,"tags":{"addr:city":"Lac-aux-Sables","addr:housenumber":"1000","addr:street":"Route de la Traverse","name":"Camping Le Relais Lac-aux-Sables"}},"1053334949":{"location":[46.8719649,-72.3953966],"ct":"CA","tp":"CS","ts":"2022-04-20T13:12:58Z","tX":306,"tY":360,"tags":{"addr:city":"Lac-aux-Sables","addr:housenumber":"551","addr:street":"Chemin Sainte-Marie","name":"Camping La Petite Rivière"}},"1053334962":{"location":[46.8708714,-72.3912422],"ct":"CA","tp":"CS","ts":"2022-04-20T13:12:58Z","tX":306,"tY":360,"tags":{"addr:city":"Lac-aux-Sables","addr:housenumber":"161","addr:street":"Rue Sainte-Marie","name":"Au Domaine familial Grosleau"}},"1206430149":{"location":[46.8516477,-72.3465418],"ct":"CA","tp":"CS","ts":"2024-01-31T04:08:19Z","tX":306,"tY":360,"tags":{"name":"Domaine Naturiste Le Cyprès","nudism":"yes","source":"NRCan-CanVec-7.0"}},"1206761412":{"location":[46.8252416,-72.2568641],"ct":"CA","tp":"CS","ts":"2011-03-17T23:26:02Z","tX":306,"tY":360,"tags":{"source":"NRCan-CanVec-7.0"}},"1301404360":{"location":[47.0055091,-72.3962556],"ct":"CA","tp":"CS","ts":"2024-07-15T02:01:27Z","tX":306,"tY":360,"tags":{"caravans":"yes","static_caravans":"yes"}},"6296129836":{"location":[46.8335431,-72.1476567],"ct":"CA","tp":"CS","ts":"2019-02-22T17:22:36Z","tX":306,"tY":360,"tags":{"name":"Section de l'Anse à Beaulieu","operator":"Parc Naturel Régional de Portneuf"}},"6296130455":{"location":[46.8365532,-72.2142948],"ct":"CA","tp":"CS","ts":"2019-02-22T17:22:41Z","tX":306,"tY":360,"tags":{"backcountry":"yes","capacity":"8","name":"Camping Lac Carillon"}},"9680022904":{"location":[46.9193047,-72.1039922],"ct":"CA","tp":"CS","ts":"2022-05-08T23:14:06Z","tX":306,"tY":360,"tags":{"backcountry":"yes","capacity:tents":"2","caravans":"no","charge":"30 CAD","drinking_water":"no","email":"info@velopistejcp.com","fee":"yes","motor_vehicle":"no","operator":"Vélopiste Jacques-Cartier/Portneuf","phone":"+1 418-337-7525","tents":"yes","website":"https://www.velopistejcp.com/camping"}},"9680035773":{"location":[46.9477835,-72.153903],"ct":"CA","tp":"CS","ts":"2022-05-08T23:14:06Z","tX":306,"tY":360,"tags":{"backcountry":"yes","capacity:tents":"1","caravans":"no","charge":"30 CAD","drinking_water":"no","email":"info@velopistejcp.com","fee":"yes","motor_vehicle":"no","operator":"Vélopiste Jacques-Cartier/Portneuf","phone":"+1 418-337-7525","tents":"yes","website":"https://www.velopistejcp.com/camping"}},"9680040903":{"location":[46.9671599,-72.1796766],"ct":"CA","tp":"CS","ts":"2022-05-08T23:14:06Z","tX":306,"tY":360,"tags":{"backcountry":"yes","capacity:tents":"2","caravans":"no","charge":"30 CAD","drinking_water":"no","email":"info@velopistejcp.com","fee":"yes","motor_vehicle":"no","operator":"Vélopiste Jacques-Cartier/Portneuf","phone":"+1 418-337-7525","tents":"yes","website":"https://www.velopistejcp.com/camping"}},"9680049775":{"location":[46.9614028,-72.1750272],"ct":"CA","tp":"CS","ts":"2022-05-08T23:14:06Z","tX":306,"tY":360,"tags":{"backcountry":"yes","capacity:tents":"2","caravans":"no","charge":"30 CAD","drinking_water":"no","email":"info@velopistejcp.com","fee":"yes","motor_vehicle":"no","operator":"Vélopiste Jacques-Cartier/Portneuf","phone":"+1 418-337-7525","tents":"yes","website":"https://www.velopistejcp.com/camping"}}}