{"17149956":{"location":[46.33274,-72.2392045],"ct":"CA","tp":"CS","ts":"2024-02-04T23:38:05Z","tX":306,"tY":362,"tags":{"addr:city":"Sainte-Marie-de-Blandford","addr:housenumber":"1000","addr:street":"Route des Flamants","name":"Camping du Parc régional de la rivière Gentilly"}},"100312987":{"location":[46.3913204,-72.126941],"ct":"CA","tp":"CS","ts":"2024-02-11T23:13:03Z","tX":306,"tY":362,"tags":{"name":"Camping Plage Paris","source":"NRCan-CanVec-7.0"}},"101866861":{"location":[46.5407314,-72.3656584],"ct":"CA","tp":"CS","ts":"2020-02-24T11:26:28Z","tX":306,"tY":362,"tags":{"name":"Camping de la Péninsule","phone":"+1-418-362-2043","source":"NRCan-CanVec-7.0","website":"http://www.guidecamping.ca/peninsule/"}},"487204011":{"location":[46.5499498,-72.1325101],"ct":"CA","tp":"CS","ts":"2022-03-23T16:09:51Z","tX":306,"tY":362,"tags":{"addr:city":"Deschaillons-sur-Saint-Laurent","addr:housenumber":"1820","addr:street":"Route Marie-Victorin","name":"Camping Cap à la Roche"}},"617702261":{"location":[46.5545202,-72.4107499],"ct":"CA","tp":"CS","ts":"2023-09-23T13:22:23Z","tX":306,"tY":362,"tags":{"caravans":"yes","drinking_water":"yes","name":"Camping de l'Île","operator":"Parc de la rivière Batiscan","power_supply":"yes","shower":"yes","tents":"yes","toilets":"yes"}},"655788388":{"location":[46.5230567,-72.2437869],"ct":"CA","tp":"CS","ts":"2018-12-18T02:00:45Z","tX":306,"tY":362,"tags":{"addr:city":"Batiscan","addr:housenumber":"1500","addr:street":"Rue Principale","name":"Camping Marina Village Batiscan","phone":"+1-418-362-2722"}},"7234243809":{"location":[46.5430141,-72.4072975],"ct":"CA","tp":"CS","ts":"2020-02-22T12:32:29Z","tX":306,"tY":362,"tags":{"name":"Camping du Bassin"}},"7234252341":{"location":[46.5525945,-72.4140161],"ct":"CA","tp":"CS","ts":"2020-02-21T22:34:24Z","tX":306,"tY":362,"tags":{"name":"Camping de la Montagne"}},"10732635305":{"location":[46.3313873,-72.2451228],"ct":"CA","tp":"CS","ts":"2024-02-10T13:14:47Z","tX":306,"tY":362,"tags":{"backcountry":"yes","name":"Secteur de la Presqu'Île"}},"5662261984":{"location":[46.5419069,-72.3632106],"ct":"CA","tp":"SD","ts":"2018-06-04T01:47:52Z","tX":306,"tY":362,"tags":{}},"10538335553":{"location":[46.3355733,-72.2372718],"ct":"CA","tp":"SD","ts":"2023-01-11T02:23:50Z","tX":306,"tY":362,"tags":{}}}