{"11487643":{"location":[45.8426864,-72.3734033],"ct":"CA","tp":"CS","ts":"2023-03-14T15:19:34Z","tX":306,"tY":364,"tags":{"addr:city":"Drummondville","addr:housenumber":"4938","addr:province":"QC","addr:street":"Boulevard Allard","name":"Centre Plein-Air A.P.C.D."}},"99330235":{"location":[45.9435669,-72.1911462],"ct":"CA","tp":"CS","ts":"2023-10-13T20:27:30Z","tX":306,"tY":364,"tags":{"name":"Camping Lac des Cyprès","source":"NRCan-CanVec-7.0","website":"https://www.campinglacdescypres.com/"}},"99336157":{"location":[45.8431162,-72.3750669],"ct":"CA","tp":"CS","ts":"2011-02-12T13:27:19Z","tX":306,"tY":364,"tags":{"source":"NRCan-CanVec-7.0"}},"835786126":{"location":[45.8547688,-72.368031],"ct":"CA","tp":"CS","ts":"2022-04-19T09:29:12Z","tX":306,"tY":364,"tags":{"addr:housenumber":"1500","addr:street":"Rue de Fontainebleau","name":"Camping La Détente"}},"836205041":{"location":[45.8602918,-72.3840661],"ct":"CA","tp":"CS","ts":"2022-04-19T09:29:12Z","tX":306,"tY":364,"tags":{"addr:housenumber":"1400","addr:street":"Rue du Repos","name":"Domaine du repos"}},"1052860830":{"location":[46.0508982,-72.3024376],"ct":"CA","tp":"CR","ts":"2022-04-19T00:02:27Z","tX":306,"tY":364,"tags":{"addr:city":"Saint-Léonard-d'Aston","addr:housenumber":"108","addr:street":"Rang du Moulin-Rouge","name":"Camping De La Rivière"}},"1052965198":{"location":[45.8748171,-72.3835116],"ct":"CA","tp":"CS","ts":"2022-04-19T09:25:44Z","tX":306,"tY":364,"tags":{"addr:housenumber":"3000","addr:street":"3e Rang de Simpson","name":"Centre Naturiste D S A"}}}