{"10138069":{"location":[45.3784979,-72.1704728],"ct":"CA","tp":"CS","ts":"2019-10-10T21:09:18Z","tX":306,"tY":366,"tags":{"name":"Camping du lac Fraser","operator":"SEPAQ Parc National du Mont-Orford","source":"Bing"}},"13722174":{"location":[45.5337982,-72.3684859],"ct":"CA","tp":"CS","ts":"2022-01-26T01:01:48Z","tX":306,"tY":366,"tags":{"name":"Camping Havana Resort","source":"CanVec 6.0 - NRCan"}},"57355375":{"location":[45.4050973,-72.226989],"ct":"CA","tp":"CS","ts":"2024-07-15T15:19:06Z","tX":306,"tY":366,"tags":{"name":"Camping Mailhot","source":"CanVec 4.0 - NRCan"}},"67138644":{"location":[45.4744853,-72.1407279],"ct":"CA","tp":"CS","ts":"2023-11-22T14:30:32Z","tX":306,"tY":366,"tags":{"addr:city":"Racine","addr:housenumber":"842","addr:street":"Chemin du Grand Brompton","contact:city":"Racine","contact:housenumber":"842","contact:street":"Route 222","name":"Camping Plage McKenzie","name:alt":"Brompton ~ Camping aménagé ~ ATE ~ Plage McKenzie","operator":"Camping Plage Mckenzie","phone":"+1-819-846-2011","source":"Camping Plage Mckenzie, site internet","tents":"yes","website":"https://campingplagemckenzie.com/directions-camping-plage-mckenzie.php"}},"442114528":{"location":[45.3524583,-72.1327122],"ct":"CA","tp":"CS","ts":"2019-03-17T04:37:54Z","tX":306,"tY":366,"tags":{"addr:city":"Orford","addr:housenumber":"611","addr:street":"Chemin Alfred-Desrochers","name":"Camping Magog Orford","website":"https://www.campingmagogorford.com/"}},"442114531":{"location":[45.3491118,-72.1329264],"ct":"CA","tp":"CS","ts":"2022-03-22T11:36:39Z","tX":306,"tY":366,"tags":{"addr:city":"Orford","addr:housenumber":"53","addr:street":"Rue des Cerfs","capacity":"25","name":"Camping Rustique Orford","website":"aucontedormant.com"}},"1013903725":{"location":[45.580685,-72.13675],"ct":"CA","tp":"CS","ts":"2010-11-30T20:26:05Z","tX":306,"tY":366,"tags":{"name":"Kingsbury ~ Camping aménagé ~ A ~ Camping des Sentiers","source":"SE, Gilles Turgeon, Estimé","tents":"yes"}},"1013903880":{"location":[45.3573658,-72.2122756],"ct":"CA","tp":"CS","ts":"2021-01-09T00:23:23Z","tX":306,"tY":366,"tags":{"backcountry":"yes","description:fr":"Ce camping offre une dizaine d'emplacements pour tentes, quelques tables et une toilette sèche. Réservations nécessaires (tél. 1-800-665-6527)","name":"Camping rustique le Vallonnier","name:alt":"Orford ~ Camping rustique ~ C ~ Camping le Vallonnier","operator":"Parc national du Mont Orford SEPAQ","ref":"Camping le Vallonnier","source":"SE, Gilles Turgeon, GPS","tents":"yes","website":"https://www.sepaq.com/pq/mor/"}},"1013904374":{"location":[45.3571858,-72.2396458],"ct":"CA","tp":"CS","ts":"2023-03-27T17:20:41Z","tX":306,"tY":366,"tags":{"alt_name":"Orford ~ Camping aménagé ~ ATE ~ Camping du Lac Stukeley","description:fr":"Réservations nécessaires (tél. 1-800-665-6527)","name":"Camping du Lac Stukeley","name:alt":"Orford ~ Camping aménagé ~ ATE ~ Camping du Lac Stukeley","operator":"Parc national du Mont Orford SEPAQ","source":"SE, Gilles Turgeon, Estimé","tents":"yes","website":"https://www.sepaq.com/pq/mor/"}},"1157431194":{"location":[45.3571184,-72.2612733],"ct":"CA","tp":"CR","ts":"2023-12-30T13:56:24Z","tX":306,"tY":366,"tags":{"name":"Camping Normand"}},"1157495692":{"location":[45.3603968,-72.2384502],"ct":"CA","tp":"CS","ts":"2024-05-31T12:31:27Z","tX":306,"tY":366,"tags":{"alt_name":"Orford ~ Camping aménagé ~ ATE ~ Camping du Lac Stukeley","description":"Réservations nécessaires (tél. 1-800-665-6527)","name":"Camping du lac Stukely","operator":"SEPAQ - Parc National du Mont-Orford","website":"https://www.sepaq.com/pq/mor/"}},"9522987022":{"location":[45.4762671,-72.1921902],"ct":"CA","tp":"CS","ts":"2022-02-21T00:04:11Z","tX":306,"tY":366,"tags":{"addr:city":"Racine","addr:housenumber":"548","addr:street":"Chemin du Grand Brompton","name":"Laö Cabines"}},"10181074117":{"location":[45.3613556,-72.2337696],"ct":"CA","tp":"CS","ts":"2022-11-13T18:03:06Z","tX":306,"tY":366,"tags":{"name":"Mont Orford - Le Frêne no8."}},"5473308580":{"location":[45.3597924,-72.2315962],"ct":"CA","tp":"SD","ts":"2022-01-02T21:25:02Z","tX":306,"tY":366,"tags":{}},"9386679098":{"location":[45.3810193,-72.1679321],"ct":"CA","tp":"SD","ts":"2022-01-02T21:25:02Z","tX":306,"tY":366,"tags":{}}}