{"12953644":{"location":[41.9687501,-72.0705993],"ct":"US","tp":"CS","ts":"2021-07-14T01:32:02Z","tX":306,"tY":380,"tags":{"addr:city":"Woodstock","addr:housenumber":"42","addr:postcode":"06282","addr:state":"CT","addr:street":"Camp Road","name":"YMCA Camp Woodstock","operator":"YMCA of Greater Hartford","website":"https://www.campwoodstock.org"}},"14136329":{"location":[41.9246188,-72.3157795],"ct":"US","tp":"CS","ts":"2022-06-21T15:46:20Z","tX":306,"tY":380,"tags":{"description":"Private, Members Or Owners Only","leisure":"nature_reserve","magic:CATEGORY":"General Recreation","name":"Camp Yankee Trails","operator":"Girl Scouts of Connecticut","source":"University of Connecticut (http://magic.lib.uconn.edu/connecticut_data.html)"}},"16691329":{"location":[41.8822967,-72.1159497],"ct":"US","tp":"CS","ts":"2023-11-12T23:46:29Z","tX":306,"tY":380,"tags":{"addr:city":"Ashford","addr:housenumber":"565","addr:postcode":"06278","addr:state":"CT","addr:street":"Ashford Center Road","email":"info@holeinthewallgang.org","leisure":"nature_reserve","name":"Hole in the Wall Gang Camp","phone":"+1 860 429 3444","website":"https://www.holeinthewallgang.org","wikidata":"Q5880049","wikipedia":"en:Hole in the Wall Gang Camp"}},"43435969":{"location":[41.9102934,-72.4036957],"ct":"US","tp":"CS","ts":"2025-01-08T00:53:45Z","tX":306,"tY":380,"tags":{"description":"Private, Open To Public With Fee","landuse":"recreation_ground","leisure":"nature_reserve","magic:CATEGORY":"General Recreation","name":"Del-Aire Compground","operator":"B & B Property LLC","source":"University of Connecticut (http://magic.lib.uconn.edu/connecticut_data.html)"}},"43437476":{"location":[41.90669,-72.3589079],"ct":"US","tp":"CS","ts":"2024-11-24T02:46:43Z","tX":306,"tY":380,"tags":{"description":"Private, Members Or Owners Only","leisure":"nature_reserve","magic:CATEGORY":"General Recreation","name":"Fredrick Spielman (Boy Scouts)","source":"University of Connecticut (http://magic.lib.uconn.edu/connecticut_data.html)"}},"43438499":{"location":[42.01444,-72.1514422],"ct":"US","tp":"CS","ts":"2024-12-04T01:58:51Z","tX":306,"tY":380,"tags":{"description":"Private, Members Or Owners Only","leisure":"nature_reserve","magic:CATEGORY":"General Recreation","name":"Camp Pomeraug","operator":"Boy Scouts Of America","source":"University of Connecticut (http://magic.lib.uconn.edu/connecticut_data.html)"}},"43438750":{"location":[42.0042307,-72.2890467],"ct":"US","tp":"CS","ts":"2024-12-21T15:24:43Z","tX":306,"tY":380,"tags":{"description":"Private, Open To Public With Fee","leisure":"nature_reserve","magic:CATEGORY":"General Recreation","name":"Mineral Springs Campground","operator":"Mineral Springs Family Campground Inc.","short_name":"Mineral Springs Campground","source":"University of Connecticut (http://magic.lib.uconn.edu/connecticut_data.html)"}},"43439824":{"location":[41.9671622,-72.2411709],"ct":"US","tp":"CS","ts":"2024-12-21T15:24:43Z","tX":306,"tY":380,"tags":{"addr:city":"Stafford","addr:housenumber":"8","addr:postcode":"06076","addr:state":"CT","addr:street":"South Road","description":"Private, Open To Public With Fee","leisure":"nature_reserve","magic:CATEGORY":"General Recreation","name":"Roaring Brook Campground","operator":"Roaring Brook Campground Association Inc.","source":"University of Connecticut (http://magic.lib.uconn.edu/connecticut_data.html)"}},"43440098":{"location":[41.9856551,-72.3675731],"ct":"US","tp":"CS","ts":"2024-12-21T15:24:43Z","tX":306,"tY":380,"tags":{"description":"Private, Open To Public With Fee","leisure":"nature_reserve","magic:CATEGORY":"General Recreation","name":"Stafford Wood West Campground","operator":"Sun Valley Camping Cooperative","source":"University of Connecticut (http://magic.lib.uconn.edu/connecticut_data.html)"}},"43442385":{"location":[41.9795793,-72.3639918],"ct":"US","tp":"CS","ts":"2024-12-21T15:24:43Z","tX":306,"tY":380,"tags":{"description":"Private, Open To Public With Fee","leisure":"nature_reserve","magic:CATEGORY":"General Recreation","name":"Sun Valley Beach Club","operator":"Sun Valley Camping Cooperative","source":"University of Connecticut (http://magic.lib.uconn.edu/connecticut_data.html)"}},"359278503":{"location":[41.8200981,-72.1056318],"ct":"US","tp":"CS","ts":"2024-06-02T04:56:44Z","tX":306,"tY":380,"tags":{"ele":"112","gnis:feature_id":"1924574","name":"Nickerson Park","wikidata":"Q31818569"}},"551335818":{"location":[41.7793178,-72.3595808],"ct":"US","tp":"CS","ts":"2025-01-11T16:41:56Z","tX":306,"tY":380,"tags":{"leisure":"nature_reserve","name":"Creaser Park","old_name":"Camp Creaser","operator":"State of Connecticut","operator:type":"government","operator:wikidata":"Q779","operator:wikipedia":"en:Connecticut","owner":"State of CT Health Department","source":"https://www.openstreetmap.org"}},"973204170":{"location":[41.9210109,-72.27811],"ct":"US","tp":"CS","ts":"2023-11-02T09:52:26Z","tX":306,"tY":380,"tags":{"addr:city":"Willington","addr:housenumber":"150","addr:postcode":"06279","addr:state":"CT","addr:street":"Village Hill Road","email":"wilderness.lake.campground@gmail.com","leisure":"nature_reserve","name":"Wilderness Lake Campground","phone":"+1 860 684 6352","website":"https://wildernesslakect.com/"}},"1021536473":{"location":[41.8896801,-72.1752414],"ct":"US","tp":"CS","ts":"2022-01-16T00:12:11Z","tX":306,"tY":380,"tags":{"addr:city":"Ashford","addr:housenumber":"174","addr:postcode":"06278","addr:state":"CT","addr:street":"Laurel Lane","email":"admin@brialee.net","name":"Brialee Family Campground","phone":"+1 860 429 8359","website":"https://www.brialee.com"}},"1054896883":{"location":[41.7749427,-72.2036922],"ct":"US","tp":"CS","ts":"2022-04-25T21:25:44Z","tX":306,"tY":380,"tags":{"addr:city":"Mansfield Center","addr:housenumber":"41","addr:postcode":"06250","addr:state":"CT","addr:street":"Chaffeeville Road","name":"Holiday Hill Day Camp and Recreation Center","website":"https://holidayrecreation.com"}},"1159196384":{"location":[41.8642844,-72.0913841],"ct":"US","tp":"CS","ts":"2024-12-04T02:02:14Z","tX":306,"tY":380,"tags":{"addr:city":"Eastford","addr:housenumber":"98","addr:postcode":"06242","addr:state":"CT","addr:street":"Chaplin Road","description":"Charlie Brown Campground is located in the peaceful, pre-revolutionary town of Eastford, Connecticut. It is nestled among rolling hills, sleepy rivers and 12,000 plus acres of state park and forests.","name":"Charlie Brown Campground","phone":"+1-860-974-0142.","website":"https://charliebrowncampground.com/"}},"1344555111":{"location":[42.0205737,-72.406763],"ct":"US","tp":"CS","ts":"2024-12-21T15:24:42Z","tX":306,"tY":380,"tags":{"leisure":"nature_reserve","name":"Camp Aya-Po","operator":"Town of Somers"}},"1346685998":{"location":[41.8637463,-72.2098351],"ct":"US","tp":"CS","ts":"2024-12-27T18:51:26Z","tX":306,"tY":380,"tags":{"addr:city":"Ashford","addr:housenumber":"28","addr:postcode":"06278","addr:state":"CT","addr:street":"Happy Hill Lane","leisure":"nature_reserve","name":"Camp CONNRI","operator":"The Salvation Army","website":"https://easternusa.salvationarmy.org/southern-new-england/camp-connri/"}},"9012092507":{"location":[42.0183576,-72.1134786],"ct":"US","tp":"CS","ts":"2021-08-16T21:50:56Z","tX":306,"tY":380,"tags":{"cabins":"no","camp_site":"basic","caravans":"no","static_caravans":"no","tents":"yes"}},"9012794965":{"location":[41.8665556,-72.2020278],"ct":"US","tp":"CS","ts":"2021-08-17T02:32:49Z","tX":306,"tY":380,"tags":{"cabins":"no","camp_site":"basic","caravans":"no","static_caravans":"no","tents":"yes"}},"9012795053":{"location":[41.9130222,-72.1631111],"ct":"US","tp":"CS","ts":"2021-08-17T02:32:49Z","tX":306,"tY":380,"tags":{"cabins":"no","camp_site":"basic","caravans":"no","static_caravans":"no","tents":"yes"}},"9012892682":{"location":[41.8274668,-72.0799322],"ct":"US","tp":"CS","ts":"2021-08-17T18:45:40Z","tX":306,"tY":380,"tags":{"camp_site":"basic","capacity:tents":"15","drinking_water":"yes","fee":"no","name":"Silvermine Horse Camp","power_supply":"no","toilets":"yes"}},"9015274714":{"location":[41.7747928,-72.0840441],"ct":"US","tp":"CS","ts":"2021-08-17T19:38:53Z","tX":306,"tY":380,"tags":{"name":"Youth Group Camping Area"}}}