{"12935052":{"location":[41.6377614,-72.0924415],"ct":"US","tp":"CS","ts":"2025-01-11T16:41:56Z","tX":306,"tY":381,"tags":{"leisure":"nature_reserve","name":"Salt Rock State Campground","operator":"State of Connecticut","operator:type":"government","operator:wikidata":"Q779","operator:wikipedia":"en:Connecticut","website":"https://portal.ct.gov/DEEP/State-Parks/Campgrounds/Salt-Rock-State-Campground","wikidata":"Q7405939","wikipedia":"en:Salt Rock State Campground"}},"13066360":{"location":[41.6200613,-72.3926496],"ct":"US","tp":"CS","ts":"2021-08-07T19:50:40Z","tX":306,"tY":381,"tags":{"description":"Private, Members Or Owners Only","leisure":"nature_reserve","magic:CATEGORY":"General Recreation","name":"Easter Seals Camp","operator":"Easter Seals Connecticut, Inc.","source":"University of Connecticut (http://magic.lib.uconn.edu/connecticut_data.html)"}},"43441634":{"location":[41.5574384,-72.1523195],"ct":"US","tp":"CS","ts":"2025-05-12T23:33:57Z","tX":306,"tY":381,"tags":{"addr:city":"Bozrah","addr:housenumber":"38","addr:postcode":"06334","addr:state":"CT","addr:street":"Bozrah Street Extension","description":"Private, Open To Public With Fee","leisure":"nature_reserve","magic:CATEGORY":"General Recreation","name":"Odetah Camping Resort","operator":"NGA Capital LLC","phone":"+1 800 448 1193","source":"University of Connecticut (http://magic.lib.uconn.edu/connecticut_data.html)","website":"https://odetah.com"}},"43441652":{"location":[41.5273986,-72.2193374],"ct":"US","tp":"CS","ts":"2021-09-18T23:31:12Z","tX":306,"tY":381,"tags":{"description":"Private, Open To Public With Fee","magic:CATEGORY":"General Recreation","name":"Acorn Acres Campground","source":"University of Connecticut (http://magic.lib.uconn.edu/connecticut_data.html)","website":"https://acornacrescampsites.com"}},"43441694":{"location":[41.5092391,-72.2362827],"ct":"US","tp":"CS","ts":"2021-03-14T20:54:32Z","tX":306,"tY":381,"tags":{"description":"Private, Open To Public With Fee","magic:CATEGORY":"General Recreation","name":"Indian Field Campground","source":"University of Connecticut (http://magic.lib.uconn.edu/connecticut_data.html)"}},"43441722":{"location":[41.5147331,-72.2183424],"ct":"US","tp":"CS","ts":"2024-11-24T02:46:43Z","tX":306,"tY":381,"tags":{"addr:city":"Oakdale","addr:housenumber":"15","addr:postcode":"06370","addr:state":"CT","addr:street":"Cottage Road","description":"Private, Members Or Owners Only","leisure":"nature_reserve","magic:CATEGORY":"General Recreation","name":"Laurel Lock Campground","phone":"+1 860 859 1424","source":"University of Connecticut (http://magic.lib.uconn.edu/connecticut_data.html)","website":"http://www.laurellock.com"}},"43441727":{"location":[41.5131023,-72.2346444],"ct":"US","tp":"CS","ts":"2022-05-26T00:52:14Z","tX":306,"tY":381,"tags":{"alt_name":"Arrowhead Cottages","description":"Private, Open To Public With Fee","magic:CATEGORY":"General Recreation","name":"Arrowhead Cove","source":"University of Connecticut (http://magic.lib.uconn.edu/connecticut_data.html)"}},"946194139":{"location":[41.6788815,-72.0754003],"ct":"US","tp":"CS","ts":"2021-06-08T07:18:37Z","tX":306,"tY":381,"tags":{"addr:city":"Scotland","addr:housenumber":"42","addr:postcode":"06264","addr:state":"CT","addr:street":"Toleration Road","email":"HighlandCMPG@AOL.com","leisure":"nature_reserve","name":"Highland Campground","phone":"+1 860 423 5684","website":"http://www.highlandcampground.com"}},"971193254":{"location":[41.7007536,-72.3989564],"ct":"US","tp":"CS","ts":"2024-11-24T02:46:43Z","tX":306,"tY":381,"tags":{"addr:city":"Hebron","addr:housenumber":"444","addr:postcode":"06248","addr:state":"CT","addr:street":"East Street","alt_name":"Camp Hi-Hoti","email":"info@hnci.org","leisure":"nature_reserve","name":"Camp Hi Hoti","operator":"Hartford Neighborhood Centers, Inc.","phone":"+1 860 251 6517","website":"https://www.hnci.org"}},"975708277":{"location":[41.7008311,-72.1940818],"ct":"US","tp":"CS","ts":"2021-08-23T15:21:25Z","tX":306,"tY":381,"tags":{"name":"Willimantic Camp Meeting Association"}},"980733235":{"location":[41.6699448,-72.1715835],"ct":"US","tp":"CS","ts":"2021-09-07T23:23:55Z","tX":306,"tY":381,"tags":{"name":"Horizons Inc"}},"1001203497":{"location":[41.6033197,-72.3617524],"ct":"US","tp":"CS","ts":"2025-05-12T23:33:57Z","tX":306,"tY":381,"tags":{"leisure":"nature_reserve","name":"Camp Connecticut","operator":"Independent Order of Odd Fellows","operator:wikidata":"Q1425508","operator:wikipedia":"en:Independent Order of Odd Fellows"}},"1349082317":{"location":[41.7007489,-72.398938],"ct":"US","tp":"CS","ts":"2025-05-12T23:33:57Z","tX":306,"tY":381,"tags":{"addr:city":"Hebron","addr:housenumber":"444","addr:postcode":"06248","addr:state":"CT","addr:street":"East Street","alt_name":"Camp Hi-Hoti","email":"info@hnci.org","leisure":"nature_reserve","name":"Camp Hi Hoti","operator":"Hartford Neighborhood Centers Inc.","phone":"+1 860 251 6517","website":"https://www.hnci.org"}},"1380579263":{"location":[41.6315136,-72.3081697],"ct":"US","tp":"CS","ts":"2025-04-24T05:43:33Z","tX":306,"tY":381,"tags":{"name":"Lake Williams Campground"}},"1381855640":{"location":[41.6497915,-72.2828642],"ct":"US","tp":"CS","ts":"2025-04-28T02:32:40Z","tX":306,"tY":381,"tags":{"name":"Girl Scouts of Connecticut Camp Laurel","operator":"Girl Scouts of Connecticut"}},"12791039600":{"location":[41.5570987,-72.1586182],"ct":"US","tp":"CS","ts":"2025-04-27T05:09:15Z","tX":306,"tY":381,"tags":{"name":"Odetah Camping Resort"}}}