{"13235439":{"location":[41.4769616,-72.164154],"ct":"US","tp":"CS","ts":"2024-06-02T05:29:29Z","tX":306,"tY":382,"tags":{"alt_name":"Camp Oakland","description":"Municipal, Open To Public Without Fee","ele":"108","gnis:feature_id":"1930689","leisure":"nature_reserve","magic:CATEGORY":"Existing Preserved Open Space","name":"Camp Oakdale Recreation Center","operator":"Town of Montville","source":"University of Connecticut (http://magic.lib.uconn.edu/connecticut_data.html)","wikidata":"Q31815119"}},"43441513":{"location":[41.4959929,-72.3146889],"ct":"US","tp":"CR","ts":"2023-09-19T16:03:13Z","tX":306,"tY":382,"tags":{"addr:city":"Salem","addr:housenumber":"39","addr:postcode":"06420","addr:state":"CT","addr:street":"Alexander Road","email":"sfcg2003@gmail.com","name":"Salem Farms Campground","phone":"+1 860 859 2320","source":"University of Connecticut (http://magic.lib.uconn.edu/connecticut_data.html)","website":"https://www.salemfarmscampground.com"}},"43441524":{"location":[41.4959617,-72.2972999],"ct":"US","tp":"CS","ts":"2023-09-20T02:54:06Z","tX":306,"tY":382,"tags":{"addr:city":"Salem","addr:housenumber":"139","addr:postcode":"06420","addr:state":"CT","addr:street":"Witch Meadow Road","caravans":"yes","drinking_water":"yes","fee":"yes","name":"Witch Meadow Lake Campground","phone":"+1-860-859-1542","power_supply":"yes","tents":"yes","toilets":"yes","website":"http://www.witchmeadowcampground.com/"}},"249095708":{"location":[41.3816782,-72.3543739],"ct":"US","tp":"CS","ts":"2021-08-29T03:08:21Z","tX":306,"tY":382,"tags":{"addr:city":"Old Lyme","addr:housenumber":"15","addr:postcode":"06371","addr:state":"CT","addr:street":"Oakland Avenue","name":"Camp Claire"}},"470090511":{"location":[41.3111155,-72.2408537],"ct":"US","tp":"CS","ts":"2023-09-23T23:07:35Z","tX":306,"tY":382,"tags":{}},"744210709":{"location":[41.3166665,-72.2511712],"ct":"US","tp":"CR","ts":"2023-09-23T23:16:37Z","tX":306,"tY":382,"tags":{"brand":"KOA","brand:wikidata":"Q16988635","name":"Niantic KOA Journey","power_supply":"yes","short_name":"KOA"}},"917175886":{"location":[41.506185,-72.2155007],"ct":"US","tp":"CS","ts":"2021-09-18T23:31:12Z","tX":306,"tY":382,"tags":{"addr:city":"Montville","addr:housenumber":"157","addr:postcode":"06370","addr:state":"CT","addr:street":"Doyle Road","fax":"+1 860 859 1645","leisure":"nature_reserve","name":"Pequot Ledge Campground","natural":"wood","phone":"+1 860 859 0682","website":"http://www.pequotledge.com"}},"1165399417":{"location":[41.3058548,-72.1104811],"ct":"US","tp":"CS","ts":"2024-11-01T22:50:00Z","tX":306,"tY":382,"tags":{"name":"Camp Harkness","operator":"State of Connecticut","operator:type":"public/government"}},"1165399421":{"location":[41.3089242,-72.1084023],"ct":"US","tp":"CS","ts":"2023-04-25T13:43:17Z","tX":306,"tY":382,"tags":{"group_only":"yes","name":"Green Cabins"}},"1165399422":{"location":[41.3063867,-72.1076019],"ct":"US","tp":"CS","ts":"2023-04-25T13:43:17Z","tX":306,"tY":382,"tags":{"group_only":"yes","name":"Blue Cabins"}},"1165399423":{"location":[41.305725,-72.1081539],"ct":"US","tp":"CS","ts":"2023-04-25T13:43:17Z","tX":306,"tY":382,"tags":{"group_only":"yes","name":"Yellow Cabins"}},"1210572861":{"location":[41.4046485,-72.223339],"ct":"US","tp":"CR","ts":"2023-09-24T16:14:04Z","tX":306,"tY":382,"tags":{"name":"Aces High RV Park","website":"https://aceshighrvpark.com/"}},"1282055610":{"location":[41.4847204,-72.3392759],"ct":"US","tp":"CS","ts":"2024-05-12T00:15:19Z","tX":306,"tY":382,"tags":{"name":"Devil's Hopyard State Park Campground"}},"1321444015":{"location":[41.3364767,-72.1876062],"ct":"US","tp":"CS","ts":"2024-10-05T16:06:53Z","tX":306,"tY":382,"tags":{"addr:housenumber":"34","addr:street":"South Pine Street","ele":"6","gnis:feature_id":"1931398","name":"Pine Grove Spiritualist Camp","phone":"+1 203 940 3121","website":"https://pinegrovespiritualistcamp.net/"}},"4128278395":{"location":[41.4779671,-72.333367],"ct":"US","tp":"CS","ts":"2016-04-17T16:32:28Z","tX":306,"tY":382,"tags":{"name":"Youth Site 1"}},"6022140078":{"location":[41.4770968,-72.333227],"ct":"US","tp":"CS","ts":"2018-10-29T21:38:23Z","tX":306,"tY":382,"tags":{"name":"Youth Site 2"}},"11206775000":{"location":[41.408592,-72.4182741],"ct":"US","tp":"CS","ts":"2023-09-21T02:44:21Z","tX":306,"tY":382,"tags":{"name":"Cedars Camp Area"}},"11206844706":{"location":[41.3941832,-72.4155316],"ct":"US","tp":"CS","ts":"2023-09-21T03:26:23Z","tX":306,"tY":382,"tags":{"name":"Quarry Knob Camp Area"}},"11206844731":{"location":[41.3995604,-72.4194898],"ct":"US","tp":"CS","ts":"2023-09-21T03:26:23Z","tX":306,"tY":382,"tags":{"name":"Springledge Camp Area"}},"11206844732":{"location":[41.4042959,-72.4203622],"ct":"US","tp":"CS","ts":"2023-09-21T03:26:23Z","tX":306,"tY":382,"tags":{"name":"Hogback Camp Area"}}}