{"48656681":{"location":[18.6480586,-72.1158657],"ct":"HT","tp":"CS","ts":"2013-05-17T02:05:12Z","tX":306,"tY":457,"tags":{"addr:country":"HT","landuse":"cemetery","refugee":"yes","source":"Google, 2010-01-17"}},"817649783":{"location":[18.6567403,-72.2516736],"ct":"HT","tp":"CS","ts":"2022-10-11T11:08:09Z","tX":306,"tY":457,"tags":{"addr:city":"Croix-des-Bouquets","addr:country":"HT","addr:street":"Corail","camp_assessed":"yes","camp_management_agency":"ARC","camp_registered":"yes","name":"Corail camp d'hebergement planifi√©","operational_status":"open","operational_status_quality":"confirmed","operator":"ARC","operator_type":"NGO","settlement:origin":"planned","source":"survey"}},"3888058628":{"location":[18.662242,-72.24193],"ct":"HT","tp":"CS","ts":"2015-12-11T18:56:39Z","tX":306,"tY":457,"tags":{"name":"Camp Corail-Ceslesse","source":"survey"}},"4286228490":{"location":[18.7057543,-72.3281664],"ct":"HT","tp":"CS","ts":"2016-07-06T17:00:38Z","tX":306,"tY":457,"tags":{"name":"Estande de Tiro"}}}