{"4496108894":{"location":[3.1429883,-72.1722837],"ct":"CO","tp":"CS","ts":"2016-11-12T03:37:14Z","tX":306,"tY":503,"tags":{"name":"cerró seńal de la libertad","name:es":"cerró seńal de la libertad"}},"4496108895":{"location":[3.1459458,-72.1725345],"ct":"CO","tp":"CS","ts":"2016-11-12T03:37:15Z","tX":306,"tY":503,"tags":{"name":"cambuche de la y de la libertad","name:es":"cambuche de la y de la libertad"}},"4496108896":{"location":[3.1553583,-72.2479773],"ct":"CO","tp":"CS","ts":"2016-11-12T03:37:16Z","tX":306,"tY":503,"tags":{"name":"cambuche del marrano montuno","name:es":"cambuche del marrano montuno"}},"4496108897":{"location":[3.149502,-72.2715],"ct":"CO","tp":"CS","ts":"2016-11-12T03:37:17Z","tX":306,"tY":503,"tags":{"name":"alto de la virgen","name:es":"alto de la virgen"}},"4496108898":{"location":[3.1486639,-72.269748],"ct":"CO","tp":"CS","ts":"2016-11-12T03:37:17Z","tX":306,"tY":503,"tags":{"name":"alto de la virgen","name:es":"alto de la virgen"}},"4496144593":{"location":[3.1346151,-72.1942908],"ct":"CO","tp":"CS","ts":"2016-11-12T03:37:12Z","tX":306,"tY":503,"tags":{"name":"abastecimiento","name:es":"abastecimiento"}},"4496162492":{"location":[2.9373243,-72.4039091],"ct":"CO","tp":"CS","ts":"2016-11-12T03:37:11Z","tX":306,"tY":503,"tags":{"name":"cambuche chimba","name:es":"cambuche chimba"}},"4496162494":{"location":[3.1352505,-72.1941067],"ct":"CO","tp":"CS","ts":"2016-11-12T03:37:12Z","tX":306,"tY":503,"tags":{"name":"abastecimiento","name:es":"abastecimiento"}},"4496162495":{"location":[3.1519979,-72.1897344],"ct":"CO","tp":"CS","ts":"2016-11-12T03:37:14Z","tX":306,"tY":503,"tags":{"name":"cambuche del marrano","name:es":"cambuche del marrano"}},"4496162890":{"location":[3.1564136,-72.2299547],"ct":"CO","tp":"CS","ts":"2016-11-12T03:37:15Z","tX":306,"tY":503,"tags":{"name":"casa de Hernán","name:es":"casa de Hernán"}},"4496163089":{"location":[3.1351648,-72.1941729],"ct":"CO","tp":"CS","ts":"2016-11-12T03:37:13Z","tX":306,"tY":503,"tags":{"name":"abastecimiento","name:es":"abastecimiento"}}}