{"851197130":{"location":[-39.2924351,-72.2155195],"ct":"CL","tp":"CS","ts":"2021-09-14T18:41:23Z","tX":306,"tY":633,"tags":{"addr:city":"Villarrica","addr:country":"CL","addr:district":"Villarrica","addr:housenumber":"1855","addr:state":"Región de La Araucanía","addr:street":"Saturnino Epulef","name":"Du Lac Camping"}},"4098621880":{"location":[-39.3001675,-72.1191553],"ct":"CL","tp":"CS","ts":"2016-04-05T00:51:00Z","tX":306,"tY":633,"tags":{}},"4098660576":{"location":[-39.298366,-72.0986493],"ct":"CL","tp":"CS","ts":"2016-05-24T14:36:04Z","tX":306,"tY":633,"tags":{"name":"Huimpalay Lemu"}},"4672149499":{"location":[-39.2899999,-72.2206938],"ct":"CL","tp":"CS","ts":"2021-09-14T18:41:23Z","tX":306,"tY":633,"tags":{"addr:city":"Villarrica","addr:country":"CL","addr:district":"Villarrica","addr:housenumber":"1580","addr:state":"Región de La Araucanía","addr:street":"Ernesto Wagner","name":"Camping MC","name:es":"Camping MC"}},"5310119526":{"location":[-39.2760433,-72.2352632],"ct":"CL","tp":"CS","ts":"2024-04-02T14:58:55Z","tX":306,"tY":633,"tags":{"addr:city":"Villarrica","addr:country":"CL","addr:district":"Villarrica","addr:state":"Región de La Araucanía","addr:street":"Isabel Riquelme","name":"Camping Mac 2"}},"5404558522":{"location":[-39.332006,-72.0935782],"ct":"CL","tp":"CS","ts":"2024-08-30T12:53:27Z","tX":306,"tY":633,"tags":{"addr:street":"Segunda Faja - El Volcán","internet_access":"wlan","name":"Camping Molco Beach","name:en":"Camp Molco Beach","nohousenumber":"yes","opening_hours":"24/7","website":"http://www.campingmolcobeach.tk"}},"6270060229":{"location":[-39.1361112,-72.3449631],"ct":"CL","tp":"CS","ts":"2019-02-10T18:37:23Z","tX":306,"tY":633,"tags":{"name":"Camping Catrico"}},"10606611632":{"location":[-39.3622323,-72.2010863],"ct":"CL","tp":"CS","ts":"2023-02-04T19:08:13Z","tX":306,"tY":633,"tags":{"name":"Eco Cámping LAWIWA"}}}