{"1199666484":{"location":[-32.0949192,116.1636956],"ct":"AU","tp":"CS","ts":"2014-03-30T07:38:50Z","tX":842,"tY":608,"tags":{"internet_access":"no","internet_access:fee":"no","name":"Carinyah Camp","smoking":"no","stars":"1"}},"1215190043":{"location":[-32.1681477,116.0178202],"ct":"AU","tp":"CS","ts":"2025-03-08T04:32:23Z","tX":842,"tY":608,"tags":{"access":"customers","addr:housenumber":"270","addr:street":"South Western Highway","caravans":"yes","fee":"yes","name":"Hillside Garden Village","power_supply":"yes","shower":"yes","static_caravans":"yes","tents":"no","toilets":"yes"}},"1365455552":{"location":[-32.0951541,116.1637312],"ct":"AU","tp":"CS","ts":"2025-03-10T01:17:04Z","tX":842,"tY":608,"tags":{"bicycle":"yes","bin":"no","caravans":"no","comment":"Munda Biddi facility","fireplace":"no","internet_access":"no","name":"Carinyah Camp Site","note":"boundary aproximate - should include tent pitch sites","shower":"no","smoking":"no","tents":"yes","toilets":"yes","water":"yes","website":"https://mundi-biddi.myshopify.com/pages/group-bookings"}},"1380475431":{"location":[-32.0175064,116.0213595],"ct":"AU","tp":"CS","ts":"2025-04-24T02:46:38Z","tX":842,"tY":608,"tags":{"addr:housenumber":"59","addr:postcode":"6107","addr:street":"Kelvin Road","caravans":"yes","fee":"yes","name":"Camp Wattle Grove","shower":"yes","tents":"yes","toilets":"yes","website":"https://www.campwattlegrove.com.au/"}},"1380475432":{"location":[-32.0178145,116.0179974],"ct":"AU","tp":"CS","ts":"2025-04-24T02:46:38Z","tX":842,"tY":608,"tags":{"addr:housenumber":"388","addr:postcode":"6109","addr:state":"WA","addr:street":"Kelvin Road","addr:suburb":"Orange Grove","caravans":"yes","email":"crystal.brook@bigpond.com","fee":"yes","name":"Crystal Brook Caravan Park","opening_hours":"24/7","phone":"+61 8 9453 6226","shower":"yes","toilets":"yes","website":"https://www.crystalbrookcaravanpark.com.au/"}},"2476100791":{"location":[-31.9818215,116.2485294],"ct":"AU","tp":"CS","ts":"2025-01-24T05:58:28Z","tX":842,"tY":608,"tags":{"backcountry":"yes","caravans":"no","fee":"no","name":"Helena Campsite","operator":"Department of Parks & Wildlife","shower":"no","tents":"yes","toilets":"yes","water":"yes","website":"https://www.bibbulmuntrack.org.au"}},"2520625493":{"location":[-31.9542348,116.1765558],"ct":"AU","tp":"CS","ts":"2023-08-15T03:22:59Z","tX":842,"tY":608,"tags":{"caravans":"no","fee":"yes","name":"Perth Hills Centre","shower":"yes","tents":"yes","toilets":"yes","website":"https://exploreparks.dbca.wa.gov.au/site/perth-hills-discovery-centre-campground"}},"4292195089":{"location":[-32.112884,116.1438782],"ct":"AU","tp":"CS","ts":"2016-07-09T05:28:57Z","tX":842,"tY":608,"tags":{"name":"Free camp off layby","opening_hours":"24/7"}},"4292760889":{"location":[-32.1130918,116.1439921],"ct":"AU","tp":"CS","ts":"2025-03-08T04:32:23Z","tX":842,"tY":608,"tags":{"name":"camper van camping","opening_hours":"24/7","tents":"no"}},"4611699194":{"location":[-32.06187,116.2963813],"ct":"AU","tp":"CS","ts":"2023-08-05T00:54:48Z","tX":842,"tY":608,"tags":{"backcountry":"yes","caravans":"no","fee":"no","name":"Beraking Campsite","operator":"Department of Parks & Wildlife","shower":"no","tents":"yes","toilets":"yes","water":"yes","website":"https://www.bibbulmuntrack.org.au"}},"4611699196":{"location":[-32.1865121,116.2987822],"ct":"AU","tp":"CS","ts":"2023-08-05T00:54:48Z","tX":842,"tY":608,"tags":{"backcountry":"yes","caravans":"no","fee":"no","name":"Brookton Campsite","operator":"Department of Parks & Wildlife","shower":"no","tents":"yes","toilets":"yes","water":"yes","website":"https://www.bibbulmuntrack.org.au"}},"4611699197":{"location":[-32.241734,116.2548639],"ct":"AU","tp":"CS","ts":"2023-08-05T00:54:48Z","tX":842,"tY":608,"tags":{"backcountry":"yes","caravans":"no","fee":"no","name":"Canning Campsite","operator":"Department of Parks & Wildlife","shower":"no","tents":"yes","toilets":"yes","water":"yes","website":"https://www.bibbulmuntrack.org.au"}},"4611699207":{"location":[-31.9584397,116.1289645],"ct":"AU","tp":"CS","ts":"2023-08-05T00:54:48Z","tX":842,"tY":608,"tags":{"backcountry":"yes","caravans":"no","fee":"no","name":"Hewett's Hill Campsite","operator":"Department of Parks & Wildlife","shower":"no","tents":"yes","toilets":"yes","water":"yes","website":"https://www.bibbulmuntrack.org.au"}},"4611699214":{"location":[-32.13489,116.2992256],"ct":"AU","tp":"CS","ts":"2023-08-05T00:54:48Z","tX":842,"tY":608,"tags":{"backcountry":"yes","caravans":"no","fee":"no","name":"Mount Dale Campsite","operator":"Department of Parks & Wildlife","shower":"no","tents":"yes","toilets":"yes","water":"yes","website":"https://www.bibbulmuntrack.org.au"}},"4611699225":{"location":[-32.0141869,116.2568536],"ct":"AU","tp":"CS","ts":"2023-08-05T00:54:48Z","tX":842,"tY":608,"tags":{"addr:street":"Bibbulmun Track","backcountry":"yes","caravans":"no","fee":"no","name":"Waalegh Campsite","operator":"Department of Parks & Wildlife","shower":"no","tents":"yes","toilets":"yes","water":"yes","website":"https://www.bibbulmuntrack.org.au"}},"4755974321":{"location":[-32.0183669,116.018855],"ct":"AU","tp":"CS","ts":"2024-06-07T01:56:15Z","tX":842,"tY":608,"tags":{"addr:housenumber":"388","addr:postcode":"6109","addr:state":"WA","addr:street":"Kelvin Road","addr:suburb":"Orange Grove","email":"crystal.brook@bigpond.com","name":"Crystal Brook Caravan Park","name:en":"Crystal Brook Caravan Park","opening_hours":"24/7","phone":"+61 8 9453 6226","website":"https://www.crystalbrookcaravanpark.com.au/"}},"11381034569":{"location":[-32.0168615,116.0210855],"ct":"AU","tp":"CS","ts":"2023-11-28T09:06:30Z","tX":842,"tY":608,"tags":{"addr:housenumber":"59","addr:postcode":"6107","addr:street":"Kelvin Road","name":"Camp Wattle Grove","opening_hours":"Mo-Fr 08:30-16:30"}},"12785372196":{"location":[-32.0296825,116.0398305],"ct":"AU","tp":"CS","ts":"2025-05-04T14:30:15Z","tX":842,"tY":608,"tags":{"name":"Bickley Outdoor Recreation Camp","website":"https://www.dlgsc.wa.gov.au/sport-and-recreation/recreation-camps/bickley"}}}