{"220730063":{"location":[-32.7874846,116.1101717],"ct":"AU","tp":"CS","ts":"2025-03-08T04:32:23Z","tX":842,"tY":610,"tags":{"booking":"yes","fee":"yes","name":"Chuditch Camp Site","tents":"yes","toilets":"yes","website":"https://exploreparks.dbca.wa.gov.au/site/chuditch-campground"}},"316593172":{"location":[-32.7693517,116.0832955],"ct":"AU","tp":"CS","ts":"2025-03-08T04:32:23Z","tX":842,"tY":610,"tags":{"caravans":"no","fee":"yes","name":"Baden Powell Campground - Lane Pool Reserve","tents":"yes","toilets":"yes"}},"344569818":{"location":[-32.8357747,116.1303304],"ct":"AU","tp":"CS","ts":"2009-02-12T03:05:37Z","tX":842,"tY":610,"tags":{"created_by":"Potlatch 0.10f","name":"Christmas Brook Confluence"}},"1165026163":{"location":[-32.7022006,116.0279766],"ct":"AU","tp":"CS","ts":"2025-03-08T04:32:23Z","tX":842,"tY":610,"tags":{"caravans":"yes","description":"Ex POW campsite","fee":"no","name":"Marrinup Townsite Camping Area","tents":"yes","toilets":"yes","water":"no","website":"https://bookings.visitmandurah.com/marrinup-townsite-camping-grounds"}},"1364915438":{"location":[-32.7103289,116.055398],"ct":"AU","tp":"CS","ts":"2025-03-06T09:26:16Z","tX":842,"tY":610,"tags":{"addr:country":"AU","addr:housenumber":"2484","addr:street":"Del Park Road","caravans":"yes","fireplace":"yes","name":"Dwellingup Chalets and Caravan Park","phone":"+61 8 9538 1157","shower":"yes","tents":"yes","toilets":"yes","water":"yes","website":"https://www.dwellingupcaravanpark.com.au/"}},"1811197703":{"location":[-32.8043859,116.1089684],"ct":"AU","tp":"CS","ts":"2025-03-08T04:32:23Z","tX":842,"tY":610,"tags":{"booking":"yes","caravans":"no","fee":"yes","name":"Stringers","tents":"yes","toilets":"yes","website":"https://exploreparks.dbca.wa.gov.au/site/stringers-campground"}},"1811205302":{"location":[-32.8049627,116.1246871],"ct":"AU","tp":"CS","ts":"2022-04-01T05:27:25Z","tX":842,"tY":610,"tags":{"access":"customers","capacity:tents":"2","caravans":"no","dog":"leashed","fee":"yes","name":"Yarragil Campground","shower":"no","tents":"only","toilets":"yes","website":"https://parks.dpaw.wa.gov.au/site/yarragil-campground"}},"4611699198":{"location":[-32.7588313,116.2384005],"ct":"AU","tp":"CS","ts":"2023-08-05T00:54:48Z","tX":842,"tY":610,"tags":{"backcountry":"yes","caravans":"no","fee":"no","name":"Chadoora Campsite","operator":"Department of Parks & Wildlife","shower":"no","tents":"yes","toilets":"yes","water":"yes","website":"https://www.bibbulmuntrack.org.au"}},"4611699215":{"location":[-32.6989987,116.3362478],"ct":"AU","tp":"CS","ts":"2023-08-05T00:54:48Z","tX":842,"tY":610,"tags":{"backcountry":"yes","caravans":"no","fee":"no","name":"Mount Wells Campsite","operator":"Department of Parks & Wildlife","shower":"no","tents":"yes","toilets":"yes","water":"yes","website":"https://www.bibbulmuntrack.org.au"}},"4611699223":{"location":[-32.7812734,116.1176433],"ct":"AU","tp":"CS","ts":"2023-08-05T00:54:48Z","tX":842,"tY":610,"tags":{"backcountry":"yes","caravans":"no","fee":"no","name":"Swamp Oak Campsite","operator":"Department of Parks & Wildlife","shower":"no","tents":"yes","toilets":"yes","water":"yes","website":"https://www.bibbulmuntrack.org.au"}},"4611699228":{"location":[-32.609075,116.3359579],"ct":"AU","tp":"CS","ts":"2023-08-05T00:54:48Z","tX":842,"tY":610,"tags":{"backcountry":"yes","caravans":"no","fee":"no","name":"White Horse Campsite","operator":"Department of Parks & Wildlife","shower":"no","tents":"yes","toilets":"yes","water":"yes","website":"https://www.bibbulmuntrack.org.au"}},"5340614921":{"location":[-32.7814715,116.1056295],"ct":"AU","tp":"CS","ts":"2025-03-08T04:32:23Z","tX":842,"tY":610,"tags":{"booking":"yes","fee":"yes","name":"Charlie's Flat Campground","tents":"yes","toilets":"yes","website":"https://exploreparks.dbca.wa.gov.au/site/charlies-flat-campground"}},"5340614922":{"location":[-32.7948326,116.1065572],"ct":"AU","tp":"CS","ts":"2025-03-08T04:32:23Z","tX":842,"tY":610,"tags":{"booking":"yes","fee":"yes","name":"Tony's Bend Campground","tents":"yes","toilets":"yes","website":"https://exploreparks.dbca.wa.gov.au/site/tonys-bend-campground"}},"5340614923":{"location":[-32.8012719,116.1053771],"ct":"AU","tp":"CS","ts":"2025-03-08T04:32:23Z","tX":842,"tY":610,"tags":{"access":"customers","caravans":"yes","fee":"yes","name":"Nanga Mill Campground","shower":"yes","static_caravans":"no","tents":"yes","toilets":"yes","water":"yes","website":"https://exploreparks.dbca.wa.gov.au/site/nanga-mill-campground"}},"6180617565":{"location":[-32.8028995,116.098001],"ct":"AU","tp":"CS","ts":"2025-03-08T04:32:23Z","tX":842,"tY":610,"tags":{"access":"customers","caravans":"yes","fee":"yes","name":"Nanga Brook Campground","shower":"yes","tents":"yes","water":"yes","website":"https://exploreparks.dbca.wa.gov.au/site/nanga-brook-campground"}},"6940902201":{"location":[-32.7149871,116.0765715],"ct":"AU","tp":"CS","ts":"2025-03-08T04:32:23Z","tX":842,"tY":610,"tags":{"booking":"yes","fee":"yes","name":"Dare Adventures","website":"https://dareadventures.com.au"}},"4712895500":{"location":[-32.7111021,116.0557962],"ct":"AU","tp":"CR","ts":"2023-10-25T23:30:18Z","tX":842,"tY":610,"tags":{"addr:city":"Dwellingup","addr:country":"AU","addr:housenumber":"2484","addr:street":"Del Park Road","name":"Dwellingup Chalets and Caravan Park","phone":"+61 8 9538 1157","website":"https://www.dwellingupcaravanpark.com.au/"}}}