{"200690065":{"location":[-16.42528,145.4059046],"ct":"AU","tp":"CR","ts":"2013-01-12T00:52:33Z","tX":925,"tY":559,"tags":{"name":"Newell Beach Caravan Park"}},"200914907":{"location":[-16.555041,145.4726476],"ct":"AU","tp":"CR","ts":"2022-05-28T18:25:38Z","tX":925,"tY":559,"tags":{"brand":"Big 4 Holiday Parks","brand:wikidata":"Q18636678","brand:wikipedia":"en:BIG4 Holiday Parks","name":"BIG 4 Port Douglas Glengarry Holiday Park","operator":"Big 4","short_name":"Big4","website":"https://www.glengarrypark.com.au/"}},"254766305":{"location":[-16.454819,145.3727001],"ct":"AU","tp":"CS","ts":"2023-02-24T21:31:54Z","tX":925,"tY":559,"tags":{"access":"customers","fee":"yes","name":"Mossman Riverside Leisure Park","power_supply":"yes","shower":"yes","toilets":"yes"}},"316605042":{"location":[-16.4619144,145.3657047],"ct":"AU","tp":"CS","ts":"2014-01-02T09:40:01Z","tX":925,"tY":559,"tags":{"name":"Mossman Showgrounds"}},"511296214":{"location":[-16.4880336,145.4657876],"ct":"AU","tp":"CS","ts":"2023-05-15T09:57:26Z","tX":925,"tY":559,"tags":{"addr:city":"Port Douglas","addr:housenumber":"24","addr:postcode":"4877","addr:street":"Davidson Street","capacity:caravans":"54","capacity:tents":"17","caravans":"yes","drinking_water":"yes","email":"info@tropicbreeze.com.au","fee":"yes","name":"Tropic Breeze Caravan Park","payment:cash":"yes","payment:credit_cards":"yes","payment:debit_cards":"yes","phone":"+61 7 4099 5299","power_supply":"yes","shower":"yes","tents":"yes","toilets":"yes","website":"https://tropicbreeze.com.au/"}},"1083985185":{"location":[-16.3295865,145.4206901],"ct":"AU","tp":"CS","ts":"2024-06-24T06:32:16Z","tX":925,"tY":559,"tags":{"name":"Daintree Beach Resort"}},"1811197478":{"location":[-16.53917,145.46944],"ct":"AU","tp":"CS","ts":"2012-07-03T12:16:23Z","tX":925,"tY":559,"tags":{"name":"Teamsters Memorial Park"}},"1811205110":{"location":[-16.3466548,145.4149184],"ct":"AU","tp":"CS","ts":"2013-01-12T11:44:20Z","tX":925,"tY":559,"tags":{"name":"Wonga Beach Caravan and Camping Park"}},"2104179748":{"location":[-16.5458066,145.3830854],"ct":"AU","tp":"CR","ts":"2013-01-10T12:39:08Z","tX":925,"tY":559,"tags":{"name":"Julatten Tableland Van Park","source":"voice"}},"4441621893":{"location":[-16.4945977,145.4633757],"ct":"AU","tp":"CS","ts":"2023-07-24T15:03:43Z","tX":925,"tY":559,"tags":{"addr:housenumber":"97-107","addr:street":"Davidson Street","caravans":"yes","name":"Pandanus Camp Site","tents":"yes"}},"5709804522":{"location":[-16.5768755,145.3645303],"ct":"AU","tp":"CS","ts":"2018-06-21T23:39:38Z","tX":925,"tY":559,"tags":{"name":"Feathers N Friends"}},"4444670693":{"location":[-16.4947058,145.4635069],"ct":"AU","tp":"CR","ts":"2024-11-06T09:25:32Z","tX":925,"tY":559,"tags":{"addr:housenumber":"97-107","addr:street":"Davidson Street","email":"info@pandanuscp.com.au","fee":"yes","name":"Pandanus Tourist Park","name:en":"Pandanus Tourist Park","phone":"+61 7 4099 5944","website":"http://www.pandanuscp.com.au"}}}