{"238273742":{"location":[-24.423591,145.4650861],"ct":"AU","tp":"CR","ts":"2013-09-17T05:23:08Z","tX":925,"tY":583,"tags":{"name":"Barcoo Hotel Caravan Park","source":"survey"}},"942801891":{"location":[-24.4250883,145.4612255],"ct":"AU","tp":"CS","ts":"2024-03-26T06:24:33Z","tX":925,"tY":583,"tags":{"charge":"Pay at Information Centre","fee":"yes","fixme":"S/C only. How to tag?","name":"Barcoo River Camp (Blackall)","operator":"Blackall-Tambo Shire","shower":"yes","toilets":"yes"}},"1465243498":{"location":[-24.2771473,145.3396872],"ct":"AU","tp":"CS","ts":"2023-11-07T00:37:53Z","tX":925,"tY":583,"tags":{"access":"yes","name":"Douglas Ponds Creek Rest Area","shower":"no","toilets":"yes"}},"1811162849":{"location":[-24.4269812,145.4687548],"ct":"AU","tp":"CS","ts":"2025-05-11T12:21:10Z","tX":925,"tY":583,"tags":{"addr:housenumber":"53","addr:postcode":"4472","addr:state":"QLD","addr:street":"Garden Street","addr:suburb":"Blackall","caravans":"yes","description":"Unit, cabins, caravans, vans, and camping sites.","email":"info@blackallcaravanpark.com.au","name":"Blackall Caravan Park","phone":"+61 7 4657 4816","website":"https://blackallcaravanpark.com.au"}},"12008704441":{"location":[-24.4250235,145.4626175],"ct":"AU","tp":"SD","ts":"2024-06-25T03:14:42Z","tX":925,"tY":583,"tags":{"access":"yes"}}}