{"568676090":{"location":[-37.5103084,145.5360825],"ct":"AU","tp":"CS","ts":"2019-07-15T22:12:06Z","tX":925,"tY":627,"tags":{"name":"Tanglefoot"}},"986519098":{"location":[-37.7171778,145.2788371],"ct":"AU","tp":"CS","ts":"2021-09-24T02:43:31Z","tX":925,"tY":627,"tags":{"access":"private","addr:housenumber":"7","addr:postcode":"3155","addr:state":"VIC","addr:street":"Clifford Drive","addr:suburb":"Wonga Park","fee":"no","group_only":"yes","name":"Clifford Park Activity Centre","operator":"Scouts Victoria"}},"1140211682":{"location":[-37.470154,145.3929988],"ct":"AU","tp":"CS","ts":"2022-07-02T02:10:57Z","tX":925,"tY":627,"tags":{"access":"yes","addr:postcode":"3763","addr:state":"VIC","addr:street":"Kinglake - Glenburn Road","addr:suburb":"Kinglake West","fee":"yes","name":"The Gums Campground","operator":"Parks Victoria"}},"1808394644":{"location":[-37.535,145.47444],"ct":"AU","tp":"CS","ts":"2012-07-01T04:32:14Z","tX":925,"tY":627,"tags":{"name":"Toolangi Recreational Reserve"}},"2591352469":{"location":[-37.6752952,145.5405129],"ct":"AU","tp":"CR","ts":"2020-10-06T01:39:04Z","tX":925,"tY":627,"tags":{"addr:housenumber":"322","addr:street":"Don Road","name":"Healesville Tourist Park"}},"4270767718":{"location":[-37.4582535,145.2278007],"ct":"AU","tp":"CS","ts":"2016-06-28T23:51:19Z","tX":925,"tY":627,"tags":{"name":"Kinglake Ranges Wilderness Camp"}},"9587458803":{"location":[-37.4478829,145.4911034],"ct":"AU","tp":"CS","ts":"2022-03-18T10:25:10Z","tX":925,"tY":627,"tags":{"fee":"no","name":"Lukes Creek","source":"DELWP"}},"9587458804":{"location":[-37.4479434,145.4796732],"ct":"AU","tp":"CS","ts":"2023-06-18T01:42:26Z","tX":925,"tY":627,"tags":{"fee":"no","name":"Two Hill","source":"DELWP"}},"10272523897":{"location":[-37.4441247,145.4872234],"ct":"AU","tp":"CS","ts":"2022-12-19T05:16:13Z","tX":925,"tY":627,"tags":{}},"9099299642":{"location":[-37.682685,145.5461527],"ct":"AU","tp":"CR","ts":"2021-09-17T00:09:07Z","tX":925,"tY":627,"tags":{"addr:housenumber":"419","addr:street":"Don Road","name":"Yarra Valley Parklane Caravan Park"}}}