{"39706252":{"location":[-38.0722415,145.4930188],"ct":"AU","tp":"CR","ts":"2009-08-29T00:02:43Z","tX":925,"tY":629,"tags":{"name":"Pakenham Caravan Park"}},"73533380":{"location":[-38.0385765,145.2088471],"ct":"AU","tp":"CR","ts":"2023-10-01T05:05:30Z","tX":925,"tY":629,"tags":{"addr:housenumber":"370","addr:postcode":"3175","addr:state":"VIC","addr:street":"Frankston-Dandenong Road","addr:suburb":"Dandenong South","brand":"Big 4","fee":"yes","name":"Big4 Dandenong Tourist Park","source":"nearmap","website":"https://big4dtp.com.au/"}},"99699356":{"location":[-38.0297009,145.3043662],"ct":"AU","tp":"CR","ts":"2023-03-12T14:34:00Z","tX":925,"tY":629,"tags":{"landuse":"residential","name":"Casey Gardens Residential Village"}},"148659040":{"location":[-38.2470103,145.2438404],"ct":"AU","tp":"CR","ts":"2023-06-16T01:17:32Z","tX":925,"tY":629,"tags":{"name":"Yaringa Caravan Park"}},"316597170":{"location":[-38.2131084,145.4588945],"ct":"AU","tp":"CS","ts":"2015-07-05T10:58:42Z","tX":925,"tY":629,"tags":{"name":"Swamp Tower Reserve"}},"375516734":{"location":[-38.0581649,145.3881202],"ct":"AU","tp":"CR","ts":"2019-12-29T02:13:53Z","tX":925,"tY":629,"tags":{"addr:housenumber":"20","addr:street":"Brunt Road","addr:suburb":"Beaconsfield","name":"Blue Gum Residential Park","phone":"+61 3 9769 8201","website":"http://bluegumresidentialpark.com/"}},"4551478590":{"location":[-38.2104549,145.3798073],"ct":"AU","tp":"CR","ts":"2016-12-12T22:19:21Z","tX":925,"tY":629,"tags":{}}}