{"143655227":{"location":[-38.3746496,145.2207679],"ct":"AU","tp":"CR","ts":"2023-06-10T07:27:30Z","tX":925,"tY":630,"tags":{"addr:housenumber":"1A","addr:postcode":"3919","addr:state":"VIC","addr:street":"Stony Point Road","addr:suburb":"Crib Point","fee":"yes","internet_access":"wlan","name":"Stony Point Caravan Park","power_supply":"yes","reservation":"yes","sanitary_dump_station":"yes","website":"http://www.cribpointstonypointforeshore.com.au"}},"186653658":{"location":[-38.4512048,145.2290208],"ct":"AU","tp":"CR","ts":"2023-08-18T04:27:26Z","tX":925,"tY":630,"tags":{"addr:housenumber":"2","addr:street":"Mckenzie Road","name":"Beach Park Tourist Caravan Park Phillip Island","operator":"Top Tourist","phone":"+61 3 5952 2113","source":"survey","website":"https://beachparkphillipisland.com/"}},"186653659":{"location":[-38.4512474,145.2273445],"ct":"AU","tp":"CR","ts":"2023-08-18T04:27:26Z","tX":925,"tY":630,"tags":{"addr:housenumber":"164","addr:street":"Church Street","description":"dog friendly","email":"phillipisland@nrmaparksandresorts.com.au","name":"Phillip Island Beachfront Holiday Park","phone":"+61 3 5952 2211","source":"survey","tents":"yes","website":"https://www.nrmaparksandresorts.com.au/phillip-island/"}},"189992737":{"location":[-38.4878829,145.261043],"ct":"AU","tp":"CR","ts":"2022-12-01T04:54:54Z","tX":925,"tY":630,"tags":{"description":"Dog friendly","name":"A Maze'N Things Holiday Park","source":"survey","website":"https://www.amazenthings.com.au/"}},"189992739":{"location":[-38.452809,145.235883],"ct":"AU","tp":"CR","ts":"2015-02-02T13:05:02Z","tX":925,"tY":630,"tags":{"name":"Amarro Caravan Park","website":"amaroopark.com"}},"189992740":{"location":[-38.4517426,145.2169616],"ct":"AU","tp":"CR","ts":"2025-03-05T02:40:06Z","tX":925,"tY":630,"tags":{"addr:housenumber":"272","addr:postcode":"3922","addr:street":"Church Street","addr:suburb":"Cowes","internet_access":"yes","name":"Anchor Belle Holiday Park Cowes","phone":"+61 3 5952 2258","power_supply":"yes","sanitary_dump_station":"yes","source":"survey","website":"https://www.anchorbelle.com.au/"}},"189992762":{"location":[-38.5170533,145.3557555],"ct":"AU","tp":"CR","ts":"2023-12-08T12:38:10Z","tX":925,"tY":630,"tags":{"brand":"Big 4 Holiday Parks","brand:wikidata":"Q18636678","name":"BIG4 Phillip Island Caravan Park","short_name":"Big4","website":"https://www.phillipislandcpk.com.au/"}},"189992768":{"location":[-38.4572038,145.2189236],"ct":"AU","tp":"CR","ts":"2024-08-19T10:11:47Z","tX":925,"tY":630,"tags":{"fee":"yes","name":"Seaview Holiday Park","source":"survey"}},"216913171":{"location":[-38.4533105,145.2408719],"ct":"AU","tp":"CR","ts":"2023-03-20T03:25:53Z","tX":925,"tY":630,"tags":{"name":"Bushy Park Tourist Park"}},"216913456":{"location":[-38.5031747,145.2493682],"ct":"AU","tp":"CS","ts":"2022-12-13T01:49:54Z","tX":925,"tY":630,"tags":{"name":"YMCA Phillip Island Coastal Discovery Camp","source":"survey"}},"216915600":{"location":[-38.4636201,145.1958646],"ct":"AU","tp":"CR","ts":"2021-12-30T01:41:52Z","tX":925,"tY":630,"tags":{"name":"Anchorage Caravan Park"}},"242167583":{"location":[-38.3420513,145.2799951],"ct":"AU","tp":"CS","ts":"2024-12-21T09:31:35Z","tX":925,"tY":630,"tags":{"access":"permit","capacity":"20","caravans":"no","fee":"no","name":"Fairhaven Campsite","operator":"Parks Victoria","source":"Bing","static_caravans":"no","tents":"yes","website":"https://parkweb.vic.gov.au/explore/parks/french-island-national-park/things-to-do/fairhaven"}},"376043007":{"location":[-38.5249361,145.3669825],"ct":"AU","tp":"CR","ts":"2024-05-10T00:15:10Z","tX":925,"tY":630,"tags":{"addr:housenumber":"1","addr:street":"Davis Point Road","internet_access":"no","name":"San Remo Beachfront Caravan Park","old_name":"Foreshore Caravan Park","phone":"+61 3 5619 7190","power_supply":"yes","sanitary_dump_station":"no","website":"https://srbfcp.com.au"}},"1079147493":{"location":[-38.4197625,145.5449809],"ct":"AU","tp":"CS","ts":"2022-07-17T02:32:40Z","tX":925,"tY":630,"tags":{"group_only":"yes","name":"Grantville Lodge"}},"1117308921":{"location":[-38.4084508,145.4217552],"ct":"AU","tp":"CS","ts":"2022-11-26T07:06:06Z","tX":925,"tY":630,"tags":{"name":"Corinella Foreshore Caravan Park","operator":"Corinella Foreshore Reserve Inc."}},"1323573174":{"location":[-38.3110497,145.5194681],"ct":"AU","tp":"CS","ts":"2024-10-13T09:12:51Z","tX":925,"tY":630,"tags":{"name":"Lang Lang Caravan & Camping Park"}},"2005986040":{"location":[-38.5220704,145.364509],"ct":"AU","tp":"CR","ts":"2012-11-10T07:45:50Z","tX":925,"tY":630,"tags":{"name":"Beach Haven Caravan Park"}},"2005986041":{"location":[-38.5219637,145.3673717],"ct":"AU","tp":"CR","ts":"2013-04-16T00:58:43Z","tX":925,"tY":630,"tags":{"name":"San Remo Holiday Park"}},"3959201593":{"location":[-38.4518103,145.2160416],"ct":"AU","tp":"SD","ts":"2016-01-22T09:56:18Z","tX":925,"tY":630,"tags":{}},"10219173047":{"location":[-38.408424,145.4216822],"ct":"AU","tp":"CS","ts":"2022-11-26T07:06:06Z","tX":925,"tY":630,"tags":{}},"11526588559":{"location":[-38.3909931,145.3757979],"ct":"AU","tp":"CS","ts":"2024-01-18T00:46:07Z","tX":925,"tY":630,"tags":{"access":"customers","fee":"yes","name":"Chateau Baudin","tents":"yes","website":"https://www.airbnb.com.au/rooms/2596141"}},"8501898916":{"location":[-38.4517599,145.2179497],"ct":"AU","tp":"SD","ts":"2021-03-09T23:53:09Z","tX":925,"tY":630,"tags":{}}}