{"316587795":{"location":[-34.5789187,150.253398],"ct":"AU","tp":"CS","ts":"2024-06-20T13:56:24Z","tX":939,"tY":616,"tags":{}},"441086889":{"location":[-34.4461462,150.4578768],"ct":"AU","tp":"CR","ts":"2019-03-06T18:22:00Z","tX":939,"tY":616,"tags":{"addr:postcode":"2575","addr:state":"NSW","addr:street":"Old Hume Highway","addr:suburb":"Mittagong","cabins":"yes","fee":"yes","name":"Mittagong Caravan Park","operator":"Wingecarribee Shire Council","power_supply":"yes","tents":"yes","website":"https://www.mittagongcaravanpark.com.au/"}},"560643180":{"location":[-34.5530251,150.3591722],"ct":"AU","tp":"CR","ts":"2024-04-27T01:47:57Z","tX":939,"tY":616,"tags":{"addr:city":"Moss Vale","addr:postcode":"2577","addr:state":"NSW","addr:street":"Willow Drive","name":"Moss Vale Village Caravan Park","phone":"+61 2 4868 1099","website":"mossvalevillagecaravanpark.com.au"}},"1302817614":{"location":[-34.4139603,150.1482473],"ct":"AU","tp":"CS","ts":"2024-07-30T02:16:09Z","tX":939,"tY":616,"tags":{"name":"Base Canp"}},"1811170791":{"location":[-34.5275926,150.2412757],"ct":"AU","tp":"CS","ts":"2013-05-24T23:57:12Z","tX":939,"tY":616,"tags":{"name":"Dalys Clearing Campground"}},"2319073608":{"location":[-34.5461375,150.2322184],"ct":"AU","tp":"CS","ts":"2013-05-24T23:57:03Z","tX":939,"tY":616,"tags":{}},"4041227765":{"location":[-34.4799788,150.2156753],"ct":"AU","tp":"CS","ts":"2016-03-05T05:58:00Z","tX":939,"tY":616,"tags":{}},"4041227766":{"location":[-34.4748579,150.2216566],"ct":"AU","tp":"CS","ts":"2016-03-05T05:58:00Z","tX":939,"tY":616,"tags":{}},"4041227768":{"location":[-34.4797975,150.2235556],"ct":"AU","tp":"CS","ts":"2016-03-05T05:58:00Z","tX":939,"tY":616,"tags":{}},"4041227769":{"location":[-34.4808366,150.2233357],"ct":"AU","tp":"CS","ts":"2016-03-05T05:58:00Z","tX":939,"tY":616,"tags":{}},"4333395900":{"location":[-34.4830225,150.3318436],"ct":"AU","tp":"CS","ts":"2019-03-06T18:21:12Z","tX":939,"tY":616,"tags":{"name":"Berrima Scout Camp","source":"NSW LPI Base Map","source:date":"2016-08","website":"https://www.nsw.scouts.com.au/campsitesandhalls/component/k2/item/10288-berrimascoutcamp"}}}