{"175572589":{"location":[54.3803836,19.4243543],"ct":"PL","tp":"CS","ts":"2021-08-17T14:05:18Z","tX":567,"tY":326,"tags":{"addr:city":"Krynica Morska","addr:city:simc":"0932755","addr:housenumber":"2","addr:postcode":"82-120","addr:street":"Marynarzy","addr:street:sym_ul":"12429","barrier":"fence","caravans":"yes","mobile":"+48 502 281 806","name":"Camping Nr 71","source:addr":"mkrynicamorska.e-mapa.net","tents":"yes"}},"291993760":{"location":[54.3804529,19.4208377],"ct":"PL","tp":"CS","ts":"2021-08-17T13:12:17Z","tX":567,"tY":326,"tags":{"addr:city":"Krynica Morska","addr:city:simc":"0932755","addr:housenumber":"3","addr:postcode":"82-120","addr:street":"Marynarzy","addr:street:sym_ul":"12429","caravans":"yes","fee":"yes","mobile":"+48 505 253 758","name":"Pole Biwakowe nr 179 Krynica Park","opening_hours":"24/7","power_supply":"yes","smoking":"yes","source:addr":"mkrynicamorska.e-mapa.net","tents":"yes","wheelchair":"yes"}},"293650979":{"location":[54.3842387,19.4463953],"ct":"PL","tp":"CS","ts":"2021-08-26T01:16:25Z","tX":567,"tY":326,"tags":{"addr:city":"Krynica Morska","addr:housenumber":"26","addr:postcode":"82-120","addr:street":"Przyjaźni","contact:phone":"+48 552 476 030","name":"Kemping OW Jantar","phone":"+48 55 247 60 30","website":"https://www.owjantar.pl"}},"293650980":{"location":[54.3840973,19.4572373],"ct":"PL","tp":"CS","ts":"2021-03-19T21:23:13Z","tX":567,"tY":326,"tags":{}},"294790532":{"location":[54.4027445,19.5132763],"ct":"PL","tp":"CS","ts":"2019-02-20T11:45:13Z","tX":567,"tY":326,"tags":{"name":"Ośrodek Obozowy Hufca ZHP Katowice","scout":"yes","smoking":"no","website":"http://osrodki.katowice.zhp.pl/krynica-morska/k_osrodek-obozowy.html"}},"439454740":{"location":[54.4146277,19.5437442],"ct":"PL","tp":"CS","ts":"2016-08-28T08:41:08Z","tX":567,"tY":326,"tags":{"capacity":"15"}},"919389576":{"location":[54.4290178,19.600045],"ct":"PL","tp":"CS","ts":"2024-07-21T12:58:21Z","tX":567,"tY":326,"tags":{"access":"customers","addr:city":"Krynica Morska","addr:housenumber":"4a","addr:postcode":"82-120","addr:street":"Słoneczna","alt_name":"Camping nr 182","capacity:persons":"150","caravans":"yes","fee":"yes","name":"Camping nr 182 Piaski","operator":"Krzysztof Pawlak","phone":"+48 786 999 867","tents":"yes","website":"http://campingpiaski.eu/"}},"1302582574":{"location":[54.4299613,19.5980856],"ct":"PL","tp":"CS","ts":"2024-07-21T12:58:21Z","tX":567,"tY":326,"tags":{"access":"customers","addr:city":"Krynica Morska","addr:housenumber":"6","addr:postcode":"82-120","addr:street":"Piaskowa","caravans":"yes","email":"banach@mierzeja.pl","fee":"yes","name":"Pole namiotowe i pokoje gościnne Banach","operator":"Bogumił Banach","static_caravans":"yes","tents":"yes"}},"1389527132":{"location":[54.4296988,19.5977259],"ct":"PL","tp":"CS","ts":"2014-02-27T15:17:38Z","tX":567,"tY":326,"tags":{}}}