{"291372877":{"location":[52.4966933,19.5206513],"ct":"PL","tp":"CS","ts":"2014-07-04T19:06:57Z","tX":567,"tY":335,"tags":{}},"946758768":{"location":[52.4884946,19.5139312],"ct":"PL","tp":"CS","ts":"2021-06-13T18:51:28Z","tX":567,"tY":335,"tags":{"access":"customers","name":"Biały Łabędź","phone":"+48 669 520 726","website":"https://www.facebook.com/Pla%C5%BCa-Bia%C5%82y-%C5%81ab%C4%99d%C5%BA-277103573056427"}},"1288943027":{"location":[52.6745627,19.5323324],"ct":"PL","tp":"CS","ts":"2024-06-02T17:04:17Z","tX":567,"tY":335,"tags":{"name":"Zielona Dolina"}},"1341772271":{"location":[52.5512249,19.6601232],"ct":"PL","tp":"CS","ts":"2024-12-11T11:04:07Z","tX":567,"tY":335,"tags":{"barrier":"fence","name":"Pole Namiotowe Pszczółka Maja"}},"6660287293":{"location":[52.5519593,19.6605153],"ct":"PL","tp":"CS","ts":"2019-07-30T08:53:01Z","tX":567,"tY":335,"tags":{"name":"Pole Namiotowe Pszczółka Maja"}},"12180367736":{"location":[52.4893917,19.5277801],"ct":"PL","tp":"CS","ts":"2024-09-16T14:51:56Z","tX":567,"tY":335,"tags":{"caravans":"yes","fee":"yes","name":"Słoneczny Brzeg","phone":"+48600604406","static_caravans":"yes","tents":"yes"}},"5832585285":{"location":[52.4964277,19.5054564],"ct":"PL","tp":"CR","ts":"2023-07-02T11:59:38Z","tX":567,"tY":335,"tags":{"addr:city:simc":"0564174","addr:housenumber":"24","addr:place":"Białe","addr:postcode":"09-504","name":"Agrotyrajscy","opening_hours":"Mo-Su 07:00-23:00","phone":"+48 721 398 137","source:addr":"emuia.gugik.gov.pl"}}}