{"330973636":{"location":[49.9880974,19.4489707],"ct":"PL","tp":"CS","ts":"2023-11-09T22:56:33Z","tX":567,"tY":347,"tags":{"addr:city":"Zator","addr:housenumber":"8","addr:postcode":"32-640","addr:street":"Parkowa","leaf_cycle":"mixed","leaf_type":"mixed","leisure":"park","name":"Wioska indiańska","phone":"+48 601 587 222","website":"https://www.riverpark.com.pl/pl/witaj.html"}},"574724638":{"location":[49.9968394,19.4295845],"ct":"PL","tp":"CS","ts":"2020-09-14T09:43:35Z","tX":567,"tY":347,"tags":{"access":"yes","addr:city":"Zator","addr:housenumber":"35","addr:postcode":"32-640","addr:street":"Oświęcimska","beds":"600","email":"recepcja@westerncamp.pl","internet_access":"wlan","name":"Western Camp","opening_hours":"24/7","phone":"+48 885 044 747","website":"https://westerncamp.pl/"}},"817301029":{"location":[50.0093665,19.4268279],"ct":"PL","tp":"CS","ts":"2024-04-29T20:11:05Z","tX":567,"tY":347,"tags":{"addr:city":"Podolsze","addr:housenumber":"59","addr:postcode":"32-640","addr:street":"Długa","facebook":"https://www.facebook.com/people/FamilyCamp/100050990811444/","internet_access":"wlan","name":"FamilyCamp","phone":"+48 794 177 114","website":"https://zatorturystyka.pl/nocleg/domki/familycamp/"}},"967365291":{"location":[50.0048463,19.4054994],"ct":"PL","tp":"CS","ts":"2023-01-12T06:38:18Z","tX":567,"tY":347,"tags":{"access":"yes","addr:city":"Zator","addr:street":"Włodzimierza Puchalskiego"}},"1245687725":{"location":[49.9653304,19.4134727],"ct":"PL","tp":"CS","ts":"2024-02-02T22:04:07Z","tX":567,"tY":347,"tags":{"addr:city":"Zator","addr:housenumber":"4","addr:postcode":"32-640","addr:street":"Andrychowska","caravans":"yes","fee":"yes","mobile":"+48 733 171 172","name":"KempingZator","reservation":"yes","website":"https://kempingzator.pl/"}},"1298883110":{"location":[49.8427884,19.5097698],"ct":"PL","tp":"CS","ts":"2024-07-22T08:20:22Z","tX":567,"tY":347,"tags":{"name":"Camping","phone":"+48508142012"}},"1387857710":{"location":[49.9961375,19.4070025],"ct":"PL","tp":"CS","ts":"2025-05-29T21:10:17Z","tX":567,"tY":347,"tags":{"access":"customers","capacity:caravans":"80","caravans":"yes","fee":"yes","internet_access":"wlan","name":"Camping Route 44","openfire":"yes","operator":"Energylandia","sanitary_dump_station":"yes","tents":"yes","website":"https://energylandia.pl/noclegi/pole-namiotowe-i-camping-energylandia-2/"}},"4115875100":{"location":[49.8612314,19.6714383],"ct":"PL","tp":"CS","ts":"2018-07-30T19:19:33Z","tX":567,"tY":347,"tags":{}},"12104588031":{"location":[49.9962602,19.4092607],"ct":"PL","tp":"CS","ts":"2024-08-11T17:16:17Z","tX":567,"tY":347,"tags":{}},"7904552886":{"location":[49.998141,19.4147787],"ct":"PL","tp":"CR","ts":"2020-09-14T09:39:13Z","tX":567,"tY":347,"tags":{}},"8952528685":{"location":[49.9891277,19.44915],"ct":"PL","tp":"CR","ts":"2021-07-26T23:28:43Z","tX":567,"tY":347,"tags":{"addr:city":"Zator","addr:housenumber":"8","addr:postcode":"32-640","addr:street":"Parkowa"}},"12847534190":{"location":[49.9965004,19.405147],"ct":"PL","tp":"CR","ts":"2025-05-18T18:54:54Z","tX":567,"tY":347,"tags":{"capacity":"80","internet_access":"wlan","name":"Miejsce kamperowe","power_supply":"yes","sanitary_dump_station":"yes"}}}