{"1089831985":{"location":[42.7214841,19.3655903],"ct":"ME","tp":"CS","ts":"2022-08-28T10:37:20Z","tX":567,"tY":377,"tags":{"fee":"yes"}},"3428636710":{"location":[42.7183446,19.3704018],"ct":"ME","tp":"CS","ts":"2023-05-14T20:28:37Z","tX":567,"tY":377,"tags":{"addr:city":"Međuriječje","ele":"250","name":"Kamp Kod Pera","note":"Beautiful canyon entrance right below","operator":"Pero","phone":"+382 67 808 936"}},"3762264890":{"location":[42.7001773,19.6555465],"ct":"ME","tp":"CS","ts":"2019-04-01T19:36:49Z","tX":567,"tY":377,"tags":{"name":"Kamp Martinovića","name:sr":"камп Мартиновића"}},"4403772346":{"location":[42.7603457,19.3901136],"ct":"ME","tp":"CS","ts":"2016-09-16T06:05:28Z","tX":567,"tY":377,"tags":{"name":"Kamp Svetigora Morača"}},"5538603121":{"location":[42.7214823,19.36565],"ct":"ME","tp":"CS","ts":"2022-11-30T19:01:36Z","tX":567,"tY":377,"tags":{"addr:postcode":"81215","description":"Camping area. 5€ per person per night. Does not speak English, but very good German. Bring pancakes for breakfast!","fee":"yes","name":"Kamp Wesko","name:de":"Campingplatz Vesko","name:en":"Campsite Vesko","name:fr":"Camping Vesko","name:sr":"Камп Веско","phone":"+382 69 899 268"}},"9804620213":{"location":[42.7269611,19.349512],"ct":"ME","tp":"CS","ts":"2022-06-08T19:42:58Z","tX":567,"tY":377,"tags":{"name":"Ethno village Vodenica"}},"9805931784":{"location":[42.7155425,19.3686766],"ct":"ME","tp":"CS","ts":"2022-11-30T19:01:36Z","tX":567,"tY":377,"tags":{"caravans":"yes","description":"Camping area. You will be at the people's house (in the garden), they offer a hot shower and a toilet. 5€ per person per night.","fee":"yes","internet_access":"no","name":"Kuca Rajo Radovic Kamp","sanitary_dump_station":"no","tents":"yes"}},"10750031005":{"location":[42.7280645,19.3509399],"ct":"ME","tp":"CS","ts":"2023-03-21T06:11:21Z","tX":567,"tY":377,"tags":{"email":"etnoselovodenica@gmail.com","name:en":"ethno village Vodenica","opening_hours":"24/7","phone":"+38268299765"}},"11182523099":{"location":[42.7666628,19.5487027],"ct":"ME","tp":"CS","ts":"2023-09-11T06:34:26Z","tX":567,"tY":377,"tags":{}},"11182523101":{"location":[42.6483251,19.5187141],"ct":"ME","tp":"CS","ts":"2023-09-11T06:34:26Z","tX":567,"tY":377,"tags":{"name":"Veruša"}},"5884006585":{"location":[42.5917368,19.6859198],"ct":"AL","tp":"CS","ts":"2018-09-05T06:27:28Z","tX":567,"tY":377,"tags":{}}}