{"569106159":{"location":[64.4001787,27.8622102],"ct":"FI","tp":"CR","ts":"2021-04-04T12:56:14Z","tX":591,"tY":270,"tags":{"addr:city":"Paltamo","addr:postcode":"88300","addr:street":"Golftie","bbq":"yes","cabins":"no","camp_site":"deluxe","capacity":"49","capacity:caravans":"49","caravans":"yes","drinking_water":"yes","email":"info@paltamo.fi","fee":"yes","internet_access":"no","name":"Paltamo Caravan","operator":"Paltamo Golf","phone":"+358 600 555 110","power_supply":"yes","power_supply:capacity":"49","reservation":"yes","sanitary_dump_station":"yes","sauna":"yes","tents":"no","toilets":"yes","water_supply":"yes","website":"https://www.paltamogolf.fi/koejamajoitu/leirintaalue","wheelchair":"yes"}},"9695756849":{"location":[64.3209584,28.0451818],"ct":"FI","tp":"CR","ts":"2023-09-20T14:24:27Z","tX":591,"tY":270,"tags":{"addr:city":"Kontiomäki","addr:housenumber":"2","addr:postcode":"88470","addr:street":"Viitostie","bbq":"yes","cabins":"no","capacity:caravans":"24","drinking_water":"yes","email":"info@bestpark.com","name":"BestPark Kontiomäki","operator":"BestPark Oy","phone":"+358 300 472 299","power_supply":"yes","reservation":"yes","sanitary_dump_station":"yes","sauna":"yes","shower":"yes","tents":"no","toilets":"yes","washing_machine":"yes","website":"https://www.bestpark.com/fi/park/kontiomaki/"}}}