{"706386131":{"location":[62.178318,27.7832713],"ct":"FI","tp":"CS","ts":"2020-08-22T13:21:41Z","tX":591,"tY":284,"tags":{"name":"Joroinen Camping Jokiranta","operator":"SF-Caravan Keski-Savo ry","website":"http://www.sfcjokiranta.net/"}},"706551872":{"location":[62.1786919,27.7846414],"ct":"FI","tp":"CR","ts":"2019-07-23T04:51:18Z","tX":591,"tY":284,"tags":{"name":"Disabled"}},"6637881490":{"location":[62.1783538,27.7834077],"ct":"FI","tp":"CS","ts":"2024-08-15T15:52:17Z","tX":591,"tY":284,"tags":{"name":"SF-C Jokiranta","name:en":"Joroinen Camping","name:fi":"Joroinen Camping","operator":"SF-C Jokiranta Keski-Suomi ry","phone":"+358 50 376 7171","website":"https://sfcjokiranta.net/"}},"6637881491":{"location":[62.1789722,27.7846736],"ct":"FI","tp":"CR","ts":"2019-07-22T14:50:35Z","tX":591,"tY":284,"tags":{"addr:city":"Joroinen","addr:housenumber":"104","addr:postcode":"79600","addr:street":"Tuohilahdentie","entrance":"entrance","name":"SF-C Jokiranta","website":"http://www.sfcjokiranta.net/"}},"6637881492":{"location":[62.1790056,27.7848229],"ct":"FI","tp":"CR","ts":"2021-06-06T07:06:59Z","tX":591,"tY":284,"tags":{"name":"SF-Caravan Keski-Savo ry"}}}