{"1564950":{"location":[53.9656304,27.8299778],"ct":"BY","tp":"CS","ts":"2024-11-08T15:48:30Z","tX":591,"tY":328,"tags":{"barrier":"fence","name":"ДАЛ Дружны","name:be":"ДАЛ Дружны","name:ru":"дол Дружный"}},"1626777":{"location":[53.9721921,27.8759207],"ct":"BY","tp":"CS","ts":"2024-11-08T15:48:30Z","tX":591,"tY":328,"tags":{"barrier":"fence","name":"ДАЛ Лясная паляна (закінуты)","name:be":"ДАЛ Лясная паляна (закінуты)","name:ru":"дол Лесная поляна (заброшен)"}},"1626778":{"location":[53.9751188,27.8718822],"ct":"BY","tp":"CS","ts":"2024-11-08T15:48:30Z","tX":591,"tY":328,"tags":{"barrier":"fence","name":"ДАЛ імя М. Гастэлы (закінуты)","name:be":"ДАЛ імя М. Гастэлы (закінуты)","name:ru":"дол им. Н. Гастелло (заброшен)"}},"6030974":{"location":[53.9709148,27.8481905],"ct":"BY","tp":"CS","ts":"2024-11-08T15:48:30Z","tX":591,"tY":328,"tags":{"name":"ДАЛ Верасок","name:be":"ДАЛ Верасок","name:ru":"дол Верасок"}},"6030975":{"location":[53.9723557,27.8542299],"ct":"BY","tp":"CS","ts":"2024-11-08T15:48:30Z","tX":591,"tY":328,"tags":{"name":"ДАЛ Дружба","name:be":"ДАЛ Дружба","name:ru":"дол Дружба"}},"6030976":{"location":[53.9720652,27.8503713],"ct":"BY","tp":"CS","ts":"2024-11-08T15:48:30Z","tX":591,"tY":328,"tags":{"name":"ДАЛ «Бярозка» (закінуты)","name:be":"ДАЛ «Бярозка» (закінуты)","name:ru":"дол «Березка» (заброшен)","name:uk":"Дол «Берізка» (занедбаний)"}},"117883658":{"location":[53.977082,27.8681174],"ct":"BY","tp":"CS","ts":"2024-11-08T15:48:30Z","tX":591,"tY":328,"tags":{"abandoned":"yes","barrier":"fence","description":"(заброшен)","name":"ДАЛ імя М. Гастэлы (закінуты)","name:be":"ДАЛ імя М. Гастэлы (закінуты)","name:ru":"дол им. Н. Гастелло (заброшен)"}},"4278264092":{"location":[54.0876552,27.8268564],"ct":"BY","tp":"CR","ts":"2021-08-01T12:40:40Z","tX":591,"tY":328,"tags":{}},"4310392889":{"location":[53.9925596,27.9095962],"ct":"BY","tp":"CS","ts":"2024-11-08T15:48:30Z","tX":591,"tY":328,"tags":{"name":"с/т Атаздароўе","name:be":"с/т Атаздароўе","name:ru":"с/т Атоздоровье"}},"5892688916":{"location":[54.1016062,28.0497437],"ct":"BY","tp":"CS","ts":"2020-02-24T22:36:16Z","tX":591,"tY":328,"tags":{}},"5892688957":{"location":[54.1022623,28.0495787],"ct":"BY","tp":"CS","ts":"2020-07-16T18:32:22Z","tX":591,"tY":328,"tags":{}},"6935534485":{"location":[53.9735394,28.0867357],"ct":"BY","tp":"CR","ts":"2024-11-08T15:48:30Z","tX":591,"tY":328,"tags":{"internet_access":"wlan","name":"Грын ранч","name:be":"Грын ранч","name:en":"Green ranch","name:ru":"Грин ранч","operator":"Яна"}}}