{"8318567":{"location":[47.3331048,28.0874984],"ct":"MD","tp":"CS","ts":"2023-08-03T02:08:10Z","tX":591,"tY":358,"tags":{"addr:city":"Sinești","name":"Bahmut Club","phone":"+37368303303","website":"https://www.bahmut.club/"}},"36060537":{"location":[47.3720223,27.9884073],"ct":"MD","tp":"CS","ts":"2023-06-05T18:53:40Z","tX":591,"tY":358,"tags":{"name":"Tabăra Cornești"}},"332718429":{"location":[47.3285154,28.0738669],"ct":"MD","tp":"CS","ts":"2024-11-08T08:55:40Z","tX":591,"tY":358,"tags":{"addr:city":"Cornești","barrier":"fence","name":"Baza de odihnă „Bucuria”","name:ru":"База отдыха «Букурия»"}},"332719070":{"location":[47.3292817,28.0681448],"ct":"MD","tp":"CS","ts":"2024-11-08T08:55:40Z","tX":591,"tY":358,"tags":{"name":"Bază turistică Rusu V."}},"900013470":{"location":[47.3835251,27.7905057],"ct":"MD","tp":"CS","ts":"2023-02-06T19:31:44Z","tX":591,"tY":358,"tags":{"addr:city":"Bușila","name":"Tabăra de Odihnă","name:ru":"Детский лагерь"}},"907396633":{"location":[47.3763238,27.8499289],"ct":"MD","tp":"CS","ts":"2021-02-15T16:34:23Z","tX":591,"tY":358,"tags":{}},"1320390082":{"location":[47.3150826,27.8693651],"ct":"MD","tp":"CS","ts":"2024-10-03T13:29:59Z","tX":591,"tY":358,"tags":{"barrier":"fence","name":"Bază de odihnă"}},"1322465252":{"location":[47.2951551,27.9962738],"ct":"MD","tp":"CS","ts":"2024-10-09T07:24:52Z","tX":591,"tY":358,"tags":{"addr:city":"Rădenii Vechi","addr:housenumber":"102","addr:street":"Strada Codrilor","name":"Zonă de agrement"}},"1322479013":{"location":[47.2965382,28.0314621],"ct":"MD","tp":"CS","ts":"2024-10-09T09:01:11Z","tX":591,"tY":358,"tags":{"addr:city":"Rădenii Vechi","addr:street":"Rădenii Vechi-Bahmut","name":"Zonă de agrement"}}}