{"291461556":{"location":[43.0219948,27.8841951],"ct":"BG","tp":"CS","ts":"2023-07-22T19:36:50Z","tX":591,"tY":376,"tags":{"ele":"2.7","name":"Камчия"}},"748665144":{"location":[42.8241407,27.8795503],"ct":"BG","tp":"CS","ts":"2023-05-16T22:12:01Z","tX":591,"tY":376,"tags":{"addr:city":"Обзор","addr:housenumber":"66","addr:postcode":"8250","addr:street":"Трети март","cabins":"yes","capacity:cabins":"11","caravans":"yes","fee":"yes","name":"Camping Zora","opening_hours":"May 24 - Oct 15","phone":"+359 89 892 1009;+359 89 821 8027","shower":"yes","tents":"yes","toilets":"yes","website":"https://www.zora-ob.com/"}},"2992930038":{"location":[43.0364758,27.8866362],"ct":"BG","tp":"CS","ts":"2021-07-16T10:12:01Z","tX":591,"tY":376,"tags":{"addr:city":"Аврен","addr:postcode":"9132","dog":"yes","email":"info@campingrai.com","name":"Къмпинг Рай","phone":"+359 89 915 5481","power_supply":"yes","shower":"yes","toilets":"yes","website":"https://campingrai.com/"}},"4356335689":{"location":[42.9094792,27.8966347],"ct":"BG","tp":"CS","ts":"2022-08-12T10:59:27Z","tX":591,"tY":376,"tags":{"fee":"no","name":"Kara Dere"}},"4361458317":{"location":[43.0407889,27.8884131],"ct":"BG","tp":"CS","ts":"2019-08-30T13:32:53Z","tX":591,"tY":376,"tags":{"name":"Къмпинг Романтика","website":"https://romantika-kamchia.com/"}},"4405738990":{"location":[43.0265722,27.879312],"ct":"BG","tp":"CS","ts":"2023-05-18T11:51:01Z","tX":591,"tY":376,"tags":{"addr:city":"Близнаци","addr:postcode":"9132","internet_access":"no","name":"ПБ ТСВ - Камчия","note":"Бунгала","operator":"ДП \"ТСВ\" - Варна","phone":"+359 88 431 5886;+359 514 43 81","shower":"yes","smoking":"outside","toilets":"yes","website":"http://www.namore.info/hoteli.php?HOTEL=view&id=1403"}},"6358842408":{"location":[42.9564853,27.8959528],"ct":"BG","tp":"CS","ts":"2023-05-18T11:51:01Z","tX":591,"tY":376,"tags":{"email":"office@campingshkorpilovtsi.bg","name":"Къмпинг Шкорпиловци","phone":"+359 87 713 3030","website":"https://www.campingshkorpilovtsi.bg"}},"6588206432":{"location":[43.0400633,27.8845867],"ct":"BG","tp":"CS","ts":"2023-10-16T02:42:32Z","tX":591,"tY":376,"tags":{"addr:city":"Аврен","addr:postcode":"9132","description":"bungalows, caravans, campers and tents are allowed","dog":"yes","email":"kamchiavarna@abv.bg","name":"Neptun","operator":"Нептун-НВ","phone":"+359 89 931 0172;+359 89 838 9710;+359 89 934 0061","website":"https://campingneptun.com/"}},"9865496819":{"location":[43.0194599,27.8793378],"ct":"BG","tp":"CR","ts":"2023-05-18T17:26:08Z","tX":591,"tY":376,"tags":{"addr:street":"Горен Камчийская","internet_access":"wlan","name":"Нимфа","name:en":"Ning’s","opening_hours":"Mo-Su 09:00-20:00","phone":"+359 89 742 7151"}},"9865497317":{"location":[43.0194061,27.879402],"ct":"BG","tp":"CR","ts":"2022-07-04T09:53:08Z","tX":591,"tY":376,"tags":{"name":"Девин","name:en":"Devin"}}}