{"8386334":{"location":[42.7550219,27.8887624],"ct":"BG","tp":"CS","ts":"2024-04-09T12:17:32Z","tX":591,"tY":377,"tags":{"caravans":"yes","email":"campingirakli@mail.bg","fee":"yes","motorhome":"yes","name":"Къмпинг «Иракли»","name:bg":"Къмпинг «Иракли»","name:en":"Camping «Irakli»","name:ru":"Кэмпинг \"Иракли\"","phone":"+359 89 670 5545;+359 89 916 0918;+359 89 670 5545","shower":"yes","tents":"yes","toilets":"yes","website":"http://campirakli.com/"}},"355409786":{"location":[42.7875326,27.8860408],"ct":"BG","tp":"CS","ts":"2018-08-21T16:20:03Z","tX":591,"tY":377,"tags":{"name":"Ваканционното селище „Чайка”","website":"http://www.militaryclubs.bg/node/39"}},"5695371839":{"location":[42.7446148,27.8883747],"ct":"BG","tp":"CS","ts":"2025-04-09T20:01:47Z","tX":591,"tY":377,"tags":{"addr:city":"resort area Irakli","addr:postcode":"8252","camp_site":"serviced","capacity:caravans":"10","capacity:tents":"20","caravans":"yes","charge":"10","description":"Camping Irakli Wild is a small family campsite located next to Irakli beach wich is of the 3 Beaches in Bulgaria for ecotourism.","dog":"yes","email":"campingirakliwild@abv.bg","fee":"yes","mobile":"+359896705545","name":"Camping Irakli Wild","name:en":"Camping Irakli Wild","nudism":"yes","opening_hours":"Mo-Su 09:00-23:00","operator":"Camping Irakli Wild","payment:cash":"yes","phone":"+359896705545","picnic_table":"yes","power_supply":"yes","reservation":"recommended","shower":"yes","start_date":"2025-06-01","tents":"yes","toilets":"yes","website":"campingirakliwild.com"}}}