{"3422263128":{"location":[36.2655657,27.9332682],"ct":"GR","tp":"CS","ts":"2021-06-21T08:58:08Z","tX":591,"tY":401,"tags":{"int_name":"Camp","name":"Κατασκηνώσεις Προφήτη Ηλία","name:en":"Camp","name:it":"ex Campeggio Ave Dux"}},"11180658337":{"location":[36.1789634,27.8491472],"ct":"GR","tp":"CS","ts":"2023-09-10T09:07:23Z","tX":591,"tY":401,"tags":{"name:en":"Place for tents near the Water tank, protected from the wind"}},"11180658338":{"location":[36.1659487,27.9887571],"ct":"GR","tp":"CS","ts":"2023-09-10T09:07:23Z","tX":591,"tY":401,"tags":{"name:en":"Wild camp around the lake"}},"11180658340":{"location":[36.2090789,27.844016],"ct":"GR","tp":"CS","ts":"2023-09-10T09:07:27Z","tX":591,"tY":401,"tags":{"name:en":"Place for camp"}},"11180658343":{"location":[36.2015821,27.8383453],"ct":"GR","tp":"CS","ts":"2023-09-10T09:07:32Z","tX":591,"tY":401,"tags":{"name:en":"Place for tents"}},"11180658354":{"location":[36.2792757,27.8757828],"ct":"GR","tp":"CS","ts":"2023-09-10T09:07:55Z","tX":591,"tY":401,"tags":{"name:en":"Place for tents"}},"11180659138":{"location":[36.2128938,27.8470322],"ct":"GR","tp":"CS","ts":"2023-09-10T09:07:28Z","tX":591,"tY":401,"tags":{"name:en":"Wild camp before climbing"}},"11180659141":{"location":[36.2530168,27.7961794],"ct":"GR","tp":"CS","ts":"2023-09-10T09:07:54Z","tX":591,"tY":401,"tags":{"name:en":"\"Secret beach \"Not secret at all..."}},"11180659240":{"location":[36.2001002,27.8201639],"ct":"GR","tp":"CS","ts":"2023-09-10T09:07:29Z","tX":591,"tY":401,"tags":{"name:en":"Place for tents"}},"11180659260":{"location":[36.278401,27.9460799],"ct":"GR","tp":"CS","ts":"2023-09-10T09:08:03Z","tX":591,"tY":401,"tags":{"name:en":"Big area for camp"}},"11180662538":{"location":[36.2736931,27.9373547],"ct":"GR","tp":"CS","ts":"2023-09-10T09:07:59Z","tX":591,"tY":401,"tags":{"name:en":"Place for tents"}},"11180662539":{"location":[36.2736344,27.9434578],"ct":"GR","tp":"CS","ts":"2023-09-10T09:07:59Z","tX":591,"tY":401,"tags":{"name:en":"Place for tents"}},"11180662937":{"location":[36.2788006,27.9451581],"ct":"GR","tp":"CS","ts":"2023-09-10T09:08:00Z","tX":591,"tY":401,"tags":{"name:en":"Place for tents"}},"11180663037":{"location":[36.2770164,27.9443639],"ct":"GR","tp":"CS","ts":"2023-09-10T09:08:02Z","tX":591,"tY":401,"tags":{"name:en":"Place for tents around the church"}},"11188187737":{"location":[36.0851866,28.0218669],"ct":"GR","tp":"CS","ts":"2023-09-13T14:46:27Z","tX":591,"tY":401,"tags":{"name:en":"Place for tents near the church"}},"11188184138":{"location":[36.2849631,27.9472885],"ct":"GR","tp":"CR","ts":"2023-09-13T14:45:12Z","tX":591,"tY":401,"tags":{"name:en":"Parking"}}}