{"514868242":{"location":[61.1318991,-146.3457409],"ct":"US","tp":"CR","ts":"2017-08-11T17:32:38Z","tX":95,"tY":290,"tags":{"name":"Eagles Rest RV Park"}},"514868244":{"location":[61.130026,-146.3441187],"ct":"US","tp":"CR","ts":"2024-07-01T01:14:29Z","tX":95,"tY":290,"tags":{"addr:city":"Valdez","addr:housenumber":"230","addr:postcode":"99686","addr:state":"AK","addr:street":"Richardson Highway","email":"info@valdezrvpark.com","fee":"yes","internet_access":"wlan","large_vehicles":"yes","mobile_reception":"yes","name":"Valdez RV Park","phone":"+1-907-835-4455","power_supply":"yes","reservation":"yes","sanitary_dump_station":"yes","website":"https://www.valdezrvpark.com"}},"515427580":{"location":[61.1274398,-146.3501148],"ct":"US","tp":"CR","ts":"2022-09-08T16:27:29Z","tX":95,"tY":290,"tags":{"addr:city":"Valdez","addr:country":"US","addr:housenumber":"101","addr:postcode":"99686","addr:state":"AK","addr:street":"North Harbor Drive","fee":"yes","internet_access":"wlan","name":"Bear Paw RV Park","phone":"+1 907 835 2530","power_supply":"yes","sanitary_dump_station":"customers","shower":"hot","surface":"gravel","tents":"no","washing_machine":"yes","website":"https://www.bearpawrvpark.com/"}},"1092934190":{"location":[61.1249737,-146.354703],"ct":"US","tp":"CR","ts":"2022-09-08T16:27:29Z","tX":95,"tY":290,"tags":{"name":"Bear Paw RV Park II"}},"1092934216":{"location":[61.1334321,-146.3491657],"ct":"US","tp":"CR","ts":"2022-09-08T16:27:29Z","tX":95,"tY":290,"tags":{"addr:city":"Valdez","addr:housenumber":"101","addr:street":"Chena Street","name":"Chena RV Park"}},"10009223754":{"location":[61.1312293,-146.4712497],"ct":"US","tp":"CS","ts":"2022-12-25T17:33:24Z","tX":95,"tY":290,"tags":{}},"12015822242":{"location":[61.1302783,-146.3436134],"ct":"US","tp":"SD","ts":"2024-06-27T21:34:35Z","tX":95,"tY":290,"tags":{"large_vehicles":"yes","mobile_reception":"yes","operator":"Valdez RV Park","water_point":"no"}},"12030557379":{"location":[61.1314651,-146.3470245],"ct":"US","tp":"SD","ts":"2024-07-03T05:48:19Z","tX":95,"tY":290,"tags":{"fee":"yes","large_vehicles":"yes","mobile_reception":"yes","operator":"Eagle's Nest RV Park"}}}