{"4893548822":{"location":[35.8877683,42.4352023],"ct":"IQ","tp":"CS","ts":"2017-06-03T10:03:01Z","tX":632,"tY":402,"tags":{"name":"ح١","name:ar":"ح١"}},"4893548823":{"location":[35.8779778,42.4266325],"ct":"IQ","tp":"CS","ts":"2017-06-03T10:03:02Z","tX":632,"tY":402,"tags":{"name":"ح٣","name:ar":"ح٣"}},"4893548824":{"location":[35.8715932,42.4253102],"ct":"IQ","tp":"CS","ts":"2017-06-03T10:03:03Z","tX":632,"tY":402,"tags":{"name":"ح٤","name:ar":"ح٤"}},"4893548825":{"location":[35.8538297,42.4210872],"ct":"IQ","tp":"CS","ts":"2017-06-03T10:03:04Z","tX":632,"tY":402,"tags":{"name":"ح٧","name:ar":"ح٧"}},"4893548826":{"location":[35.8538137,42.421083],"ct":"IQ","tp":"CS","ts":"2017-06-03T10:03:04Z","tX":632,"tY":402,"tags":{"name":"ح٧","name:ar":"ح٧"}},"4893548827":{"location":[35.8474269,42.4205733],"ct":"IQ","tp":"CS","ts":"2017-06-03T10:03:05Z","tX":632,"tY":402,"tags":{"name":"ح٨","name:ar":"ح٨"}},"4893548828":{"location":[35.8411391,42.4192836],"ct":"IQ","tp":"CS","ts":"2017-06-03T10:03:06Z","tX":632,"tY":402,"tags":{"name":"ح٩","name:ar":"ح٩"}},"4893548829":{"location":[35.8236778,42.413374],"ct":"IQ","tp":"CS","ts":"2017-06-03T10:03:09Z","tX":632,"tY":402,"tags":{"name":"ح١٢","name:ar":"ح١٢"}},"4893548830":{"location":[35.8655739,42.4238152],"ct":"IQ","tp":"CS","ts":"2017-06-03T10:03:12Z","tX":632,"tY":402,"tags":{"name":"ح٥","name:ar":"ح٥"}},"4893548831":{"location":[35.7936123,42.4166733],"ct":"IQ","tp":"CS","ts":"2017-06-03T10:03:14Z","tX":632,"tY":402,"tags":{"name":"ح١٧","name:ar":"ح١٧"}},"4893548832":{"location":[35.7840696,42.4235514],"ct":"IQ","tp":"CS","ts":"2017-06-03T10:03:17Z","tX":632,"tY":402,"tags":{"name":"ح١٩","name:ar":"ح١٩"}},"4893548833":{"location":[35.7765135,42.4288626],"ct":"IQ","tp":"CS","ts":"2017-06-03T10:03:18Z","tX":632,"tY":402,"tags":{"name":"٢١","name:ar":"٢١"}},"4893550522":{"location":[35.8835708,42.4296525],"ct":"IQ","tp":"CS","ts":"2017-06-03T10:03:01Z","tX":632,"tY":402,"tags":{"name":"ح ٢","name:ar":"ح ٢"}},"4893550523":{"location":[35.8598622,42.4224936],"ct":"IQ","tp":"CS","ts":"2017-06-03T10:03:02Z","tX":632,"tY":402,"tags":{"name":"ح٦","name:ar":"ح٦"}},"4893550524":{"location":[35.8348959,42.4173843],"ct":"IQ","tp":"CS","ts":"2017-06-03T10:03:06Z","tX":632,"tY":402,"tags":{"name":"ح١٠","name:ar":"ح١٠"}},"4893550525":{"location":[35.8112597,42.4119416],"ct":"IQ","tp":"CS","ts":"2017-06-03T10:03:10Z","tX":632,"tY":402,"tags":{"name":"ح١٤","name:ar":"ح١٤"}},"4893550526":{"location":[35.8165713,42.4117458],"ct":"IQ","tp":"CS","ts":"2017-06-03T10:03:11Z","tX":632,"tY":402,"tags":{"name":"ح١٣","name:ar":"ح١٣"}},"4893550527":{"location":[35.805562,42.4122888],"ct":"IQ","tp":"CS","ts":"2017-06-03T10:03:12Z","tX":632,"tY":402,"tags":{"name":"ح١٥","name:ar":"ح١٥"}},"4893550528":{"location":[35.7990231,42.4129402],"ct":"IQ","tp":"CS","ts":"2017-06-03T10:03:13Z","tX":632,"tY":402,"tags":{"name":"ح١٦","name:ar":"ح١٦"}},"4893550529":{"location":[35.7800784,42.4264788],"ct":"IQ","tp":"CS","ts":"2017-06-03T10:03:19Z","tX":632,"tY":402,"tags":{"name":"ح٢٠","name:ar":"ح٢٠"}},"4893552022":{"location":[35.8295954,42.415082],"ct":"IQ","tp":"CS","ts":"2017-06-03T10:03:08Z","tX":632,"tY":402,"tags":{"name":"ح١١","name:ar":"ح١١"}},"4893552023":{"location":[35.7889643,42.4194598],"ct":"IQ","tp":"CS","ts":"2017-06-03T10:03:15Z","tX":632,"tY":402,"tags":{"name":"ح١٨","name:ar":"ح١٨"}},"4913771522":{"location":[36.0188793,42.3099188],"ct":"IQ","tp":"CS","ts":"2017-06-15T13:54:27Z","tX":632,"tY":402,"tags":{"name":"سيباية حمود","name:ar":"سيباية حمود"}}}