{"836614700":{"location":[43.6955069,-98.0123612],"ct":"US","tp":"CS","ts":"2020-08-12T22:17:02Z","tX":233,"tY":373,"tags":{"addr:city":"Mitchell","addr:housenumber":"911","addr:postcode":"57301","addr:state":"SD","addr:street":"East Kay Avenue","capacity":"50","fee":"yes","name":"Rondees Campground","website":"http://rondeescampground.com/index.htm"}},"836614702":{"location":[43.6881825,-98.0497175],"ct":"US","tp":"CS","ts":"2025-05-25T02:14:56Z","tX":233,"tY":373,"tags":{"addr:city":"Mitchell","addr:housenumber":"1800","addr:postcode":"57301","addr:state":"SD","addr:street":"West Spruce Street","fee":"yes","name":"Dakota Campgrounds","website":"https://www.dakotacampground.net/"}},"836614703":{"location":[43.7346864,-98.027959],"ct":"US","tp":"CS","ts":"2023-09-24T19:58:55Z","tX":233,"tY":373,"tags":{"addr:city":"Mitchell","addr:housenumber":"2601","addr:postcode":"57301","addr:state":"SD","addr:street":"North Main Street","fee":"yes","name":"Lake Mitchell Campground","website":"https://www.cityofmitchell.org/448/Lake-Mitchell-Campground"}},"2527650890":{"location":[43.6938703,-98.0098461],"ct":"US","tp":"CR","ts":"2013-11-20T06:58:05Z","tX":233,"tY":373,"tags":{"name":"R&R RV Park Campground","source":"Bing"}},"3424512805":{"location":[43.6881066,-98.0158878],"ct":"US","tp":"SD","ts":"2015-03-29T10:08:53Z","tX":233,"tY":373,"tags":{}}}