{"700238860":{"location":[32.7913067,-98.0837523],"ct":"US","tp":"CR","ts":"2021-03-10T04:30:21Z","tX":233,"tY":413,"tags":{"addr:city":"Mineral Wells","addr:housenumber":"2208","addr:postcode":"76067","addr:state":"TX","addr:street":"Jacob Street","name":"Woodhaven Mobile Home Park"}},"700260383":{"location":[32.8121212,-98.0753141],"ct":"US","tp":"CR","ts":"2021-02-17T08:26:58Z","tX":233,"tY":413,"tags":{"name":"Town and Country Mobile Home Park (CLOSED)"}},"1267017869":{"location":[32.6657328,-98.0343864],"ct":"US","tp":"CR","ts":"2024-03-28T05:50:54Z","tX":233,"tY":413,"tags":{"addr:city":"Millsap","addr:housenumber":"10801","addr:postcode":"76066","addr:state":"TX","addr:street":"West Interstate 20","name":"Hillbilly Haven RV Park"}},"1267017873":{"location":[32.666787,-98.0318515],"ct":"US","tp":"CS","ts":"2024-03-28T05:50:54Z","tX":233,"tY":413,"tags":{"access":"customers","addr:city":"Millsap","addr:housenumber":"10770","addr:postcode":"76066","addr:state":"TX","addr:street":"West Interstate 20","name":"Brazos River Campground"}},"1308958624":{"location":[32.795867,-97.8306874],"ct":"US","tp":"CR","ts":"2024-08-20T06:43:16Z","tX":233,"tY":413,"tags":{}},"1310038684":{"location":[32.7206507,-97.9060096],"ct":"US","tp":"CR","ts":"2024-08-23T07:35:29Z","tX":233,"tY":413,"tags":{}},"1310038690":{"location":[32.7935719,-97.9933095],"ct":"US","tp":"CR","ts":"2024-08-23T07:35:29Z","tX":233,"tY":413,"tags":{}},"6577734471":{"location":[32.8336645,-98.0378351],"ct":"US","tp":"CS","ts":"2019-06-28T22:55:47Z","tX":233,"tY":413,"tags":{"name":"Cross Timbers"}},"6577734746":{"location":[32.826248,-98.0354846],"ct":"US","tp":"CS","ts":"2019-06-28T22:55:47Z","tX":233,"tY":413,"tags":{"name":"Plateau"}},"6577734747":{"location":[32.8222751,-98.0339965],"ct":"US","tp":"CS","ts":"2019-06-28T22:55:47Z","tX":233,"tY":413,"tags":{"name":"Live Oak"}},"6577734748":{"location":[32.8206553,-98.0384983],"ct":"US","tp":"CS","ts":"2019-06-28T22:55:47Z","tX":233,"tY":413,"tags":{"name":"Post Oak"}},"7985766185":{"location":[32.825397,-98.0343785],"ct":"US","tp":"CS","ts":"2020-10-07T18:15:09Z","tX":233,"tY":413,"tags":{"name":"60"}}}