{"607141097":{"location":[32.0570375,-97.7511569],"ct":"US","tp":"CR","ts":"2023-10-10T02:26:57Z","tX":233,"tY":415,"tags":{"name":"Big John's RV Park"}},"927956412":{"location":[31.9906874,-98.019819],"ct":"US","tp":"CR","ts":"2021-04-08T22:55:26Z","tX":233,"tY":415,"tags":{"addr:city":"Hico","addr:housenumber":"600","addr:postcode":"76457","addr:state":"TX","addr:street":"8th Street","name":"Flying B RV Park"}},"930305895":{"location":[32.2444751,-97.820843],"ct":"US","tp":"CS","ts":"2021-04-13T14:24:28Z","tX":233,"tY":415,"tags":{"backcountry":"yes"}},"1117257064":{"location":[32.2418145,-97.8074322],"ct":"US","tp":"CR","ts":"2024-07-16T18:51:50Z","tX":233,"tY":415,"tags":{"access":"customers","addr:city":"Glen Rose","addr:housenumber":"1099","addr:postcode":"76043","addr:state":"TX","addr:street":"Park Road 59","contact:email":"admin@dinosaurvalleyrvpark.com","contact:facebook":"https://www.facebook.com/DinosaurValleyRVPark/","contact:phone":"1 888 996 3466","contact:website":"https://www.dinosaurvalleyrvpark.com","dog":"yes","internet_access":"wlan","internet_access:fee":"customers","name":"Dinosaur Valley RV Park","power_supply":"yes"}},"1231603179":{"location":[32.239969,-97.746181],"ct":"US","tp":"CR","ts":"2023-12-16T04:58:52Z","tX":233,"tY":415,"tags":{"addr:city":"Glen Rose","addr:housenumber":"1019","addr:postcode":"76043","addr:state":"TX","addr:street":"Northeast Barnard Street","email":"info@oakdalepark.com","name":"Oakdale Park","sanitary_dump_station":"yes","website":"https://oakdalepark.com"}},"12151194150":{"location":[32.239326,-97.7431173],"ct":"US","tp":"CS","ts":"2024-09-02T08:20:25Z","tX":233,"tY":415,"tags":{"access":"private","addr:city":"Glen Rose","addr:housenumber":"1102","addr:state":"TX","addr:street":"Northeast Barnard Street","contact:facebook":"http://www.facebook.com/glenlakecamp","email":"amanda@glenlake.org","mapillary":"538480258608103","name":"Glen Lake Camp and Retreat Center","website":"https://www.glenlake.org/"}}}