{"1108872471":{"location":[30.8183728,-97.8925495],"ct":"US","tp":"CR","ts":"2022-11-01T03:40:05Z","tX":233,"tY":419,"tags":{}},"1250886814":{"location":[30.7656328,-97.7886108],"ct":"US","tp":"CR","ts":"2024-02-15T19:23:40Z","tX":233,"tY":419,"tags":{"addr:city":"Florence","addr:housenumber":"3315","addr:postcode":"76527","addr:state":"TX","addr:street":"County Road 245","check_date":"2024-02-15","description":"Certain aggressive dog breeds are prohibited.  See the website for further information.","dog":"leashed","email":"info@countryoasisrvpark.com","internet_access":"wlan","laundry":"yes","name":"Country Oasis RV Park","phone":"+1-512-789-5737","power_supply":"yes","website":"https://countryoasisrvpark.com/"}},"1286461441":{"location":[30.752009,-98.0390851],"ct":"US","tp":"CR","ts":"2024-05-25T02:16:36Z","tX":233,"tY":419,"tags":{"addr:city":"Bertram","addr:housenumber":"431","addr:postcode":"78605","addr:state":"TX","addr:street":"County Road 268","email":"scottsenteney@gmail.com","name":"Sunset Oaks RV Park","phone":"+1-417-689-0707","website":"https://sunsetoaksrv.com/"}},"1294858375":{"location":[30.8462844,-97.7736482],"ct":"US","tp":"CR","ts":"2024-10-17T14:11:59Z","tX":233,"tY":419,"tags":{"addr:city":"Florence","addr:housenumber":"11725","addr:postcode":"76527","addr:state":"TX","addr:street":"FM 487","capacity:caravans":"12","mobile":"+1-512-917-2140","name":"HD Ranch RV Park","pets":"yes","phone":"+1-512-703-0080","source":"https://www.chamberofcommerce.com/business-directory/texas/florence/rv-park/2029736803-hd-ranch-rv-park;http://www.florencechamberofcommerce.org/list/member/hd-ranch-rv-park-151;https://www.facebook.com/groups/187719909766089/posts/748325370372204/","website":"https://www.hdranchrvpark.com/"}}}