{"2454413":{"location":[30.6775422,-97.7573561],"ct":"US","tp":"CS","ts":"2024-08-25T09:43:36Z","tX":233,"tY":420,"tags":{"ele":"263","gnis:feature_id":"2029427","name":"Russell Park"}},"268153812":{"location":[30.4778626,-97.9544135],"ct":"US","tp":"CS","ts":"2014-03-22T22:27:14Z","tX":233,"tY":420,"tags":{"name":"Trailer Park"}},"337710769":{"location":[30.6961086,-97.8269955],"ct":"US","tp":"CS","ts":"2023-05-13T22:11:32Z","tX":233,"tY":420,"tags":{"cabins":"no","camp_site":"basic","caravans":"no","leisure":"park","motorhome":"no","name":"Tejas Park","phone":"+1-512-930-5253","reservation":"yes","shower":"no","tents":"yes"}},"471296713":{"location":[30.4764428,-97.9517764],"ct":"US","tp":"CR","ts":"2017-02-01T22:56:08Z","tX":233,"tY":420,"tags":{"addr:city":"Jonestown","addr:housenumber":"19421","addr:postcode":"78645","addr:state":"TX","addr:street":"RM1431","name":"Idyll Glen RV Park"}},"583343172":{"location":[30.7001488,-97.8647587],"ct":"US","tp":"CR","ts":"2023-06-24T22:51:51Z","tX":233,"tY":420,"tags":{"addr:city":"Liberty Hill","addr:housenumber":"1096","addr:postcode":"78642","addr:state":"TX","addr:street":"County Road 256","check_date":"2023-06-24","email":"info@bonitorv.com","internet_access":"wlan","name":"Rio Bonito Cabin and RV Park","phone":"+1-512-922-1383","power_supply":"yes","reservation":"required","sanitary_dump_station":"yes","source":"https://rbcabinresort.com/","website":"https://rbcabinresort.com/"}},"589257132":{"location":[30.5875953,-97.8338945],"ct":"US","tp":"CR","ts":"2024-01-17T09:45:24Z","tX":233,"tY":420,"tags":{"addr:city":"Leander","addr:housenumber":"2689","addr:postcode":"78641","addr:state":"TX","addr:street":"Hero Way","brand":"KOA","brand:wikidata":"Q16988635","name":"Leander / NW Austin KOA Holiday","operator":"KOA","short_name":"KOA"}},"627036703":{"location":[30.6642398,-97.897534],"ct":"US","tp":"CR","ts":"2024-05-18T23:20:52Z","tX":233,"tY":420,"tags":{"addr:city":"Liberty Hill","addr:housenumber":"12920","addr:postcode":"78642","addr:state":"TX","addr:street":"TX 29","boat_storage":"yes","capacity":"41","charge":"375 USD/month","check_date":"2023-12-29","email":"hwy29park@gmail.com","fee":"yes","name":"Highway 29 RV Park","nudism":"no","phone":"+1-512-778-6102","power_supply":"yes","shower":"yes","toilets":"yes","washing_machine":"yes","waste_disposal":"yes","website":"https://www.hwy29park.com/"}},"890916505":{"location":[30.6739334,-97.7382404],"ct":"US","tp":"CR","ts":"2021-01-01T07:21:51Z","tX":233,"tY":420,"tags":{}},"890916506":{"location":[30.6842507,-97.7408659],"ct":"US","tp":"CR","ts":"2021-01-01T07:21:51Z","tX":233,"tY":420,"tags":{}},"934159068":{"location":[30.7029854,-97.847135],"ct":"US","tp":"CR","ts":"2023-06-24T22:29:20Z","tX":233,"tY":420,"tags":{"addr:city":"Liberty Hill","addr:housenumber":"6142","addr:postcode":"78642","addr:state":"TX","addr:street":"County Road 258","description":"Has cable internet provided by Spectrum. Long-term community. Does not offer camping.","internet_access":"wired","name":"Hunt's Crossing RV Ranch","phone":"+1-512-800-0628","power_supply":"yes","reservation":"required","website":"https://www.texasrvranch.com/"}},"934161091":{"location":[30.7075059,-97.8541989],"ct":"US","tp":"CR","ts":"2023-06-24T22:29:20Z","tX":233,"tY":420,"tags":{"addr:city":"Georgetown","addr:housenumber":"25101","addr:postcode":"78633","addr:state":"TX","addr:street":"Ronald W Reagan Blvd","contact:facebook":"https://www.facebook.com/stoneoakranchrvresort/","contact:instagram":"https://www.instagram.com/stoneoakranchrvresort/","email":"info@stoneoakranchrv.com","internet_access":"wlan","name":"Stone Oak Ranch RV Resort","pets":"yes","phone":"+1-512-641-1072","power_supply":"yes","reservation":"required","sanitary_dump_station":"yes","smoking":"no","website":"https://www.stoneoakranchrv.com/"}},"1162273682":{"location":[30.6959994,-97.8260281],"ct":"US","tp":"CS","ts":"2023-04-13T21:25:50Z","tX":233,"tY":420,"tags":{"backcountry":"yes","camp_site":"basic","capacity":"25","group_only":"yes","openfire":"yes","picnic_table":"yes","ref":"G1","tents":"yes"}},"1184737228":{"location":[30.7011223,-97.8658698],"ct":"US","tp":"CR","ts":"2023-06-24T22:51:51Z","tX":233,"tY":420,"tags":{"addr:city":"Liberty Hill","addr:housenumber":"1060","addr:postcode":"78642","addr:state":"TX","addr:street":"County Road 257","check_date":"2023-06-24","contact:facebook":"https://www.facebook.com/juniperridgetx","contact:instagram":"https://www.instagram.com/juniperridgetx/","email":"info@juniperridgetx.com","fixme":"Aerial photos were still out of date when this RV park was mapped.  When the photos are updated, someone needs to check that details of the property are correct.","name":"Juniper Ridge RV Village","phone":"+1-512-818-2395","power_supply":"yes","reservation":"required","sanitary_dump_station":"yes","source":"https://www.juniperridgetx.com/","website":"https://www.juniperridgetx.com/","wheelchair":"yes"}},"1224932682":{"location":[30.6357937,-97.9226792],"ct":"US","tp":"CR","ts":"2023-11-18T05:20:49Z","tX":233,"tY":420,"tags":{"caravans":"yes","name":"Improved Camping Area"}},"1224932687":{"location":[30.6365969,-97.9201337],"ct":"US","tp":"CS","ts":"2023-11-18T05:20:49Z","tX":233,"tY":420,"tags":{"name":"Walk-in Tent Camping","tents":"yes"}},"1224932688":{"location":[30.6434762,-97.9256334],"ct":"US","tp":"CS","ts":"2023-11-18T05:20:49Z","tX":233,"tY":420,"tags":{"backcountry":"yes","name":"Primitive Camping Area","tents":"yes"}},"1230694541":{"location":[30.6790545,-98.0171723],"ct":"US","tp":"CR","ts":"2023-12-12T19:43:41Z","tX":233,"tY":420,"tags":{"name":"Sky Park RV Ranch","website":"https://skyparkrv.com/"}},"1237649477":{"location":[30.671002,-97.9081268],"ct":"US","tp":"CR","ts":"2024-01-06T23:53:27Z","tX":233,"tY":420,"tags":{"addr:city":"Liberty Hill","addr:housenumber":"2224","addr:postcode":"78642","addr:state":"TX","addr:street":"Ranch Road 1869","check_date":"2024-01-06","contact:facebook":"https://www.facebook.com/110275001783863","contact:instagram":"https://www.instagram.com/lhtxrvresort","email":"info@lhtxrvresort.com","name":"LHTX RV Resort","opening_hours":"Mo,Th-Sa 09:00-19:00; Tu-We 09:00-17:00; Su 13:00-19:00 open \"Office hours\"","phone":"+1-512-660-0450","website":"https://lhtxrvresort.com/"}},"1284128003":{"location":[30.5940852,-97.7642686],"ct":"US","tp":"CR","ts":"2024-06-20T10:06:17Z","tX":233,"tY":420,"tags":{"addr:city":"Georgetown","addr:housenumber":"151","addr:postcode":"78628","addr:state":"TX","addr:street":"CR 176","email":"info@centralrvpark.com","fee":"yes","internet_access":"wlan","internet_access:fee":"customers","laundry":"yes","name":"Central RV Park at Parkside","phone":"+1-512-677-6594","power_supply":"yes","sanitary_dump_station":"yes","shower":"yes","toilets":"yes","website":"https://centralrvpark.com/"}},"1284535946":{"location":[30.6665259,-97.9005342],"ct":"US","tp":"CR","ts":"2024-05-20T08:46:40Z","tX":233,"tY":420,"tags":{"addr:city":"Liberty Hill","addr:housenumber":"13130","addr:postcode":"78642","addr:state":"TX","addr:street":"TX 29","capacity":"99","check_date":"2024-05-18","email":"sunnyhill@mhsparks.com","internet_access":"wlan","internet_access:fee":"customers","laundry":"yes","name":"Sunny Hill RV Park","pets":"yes","phone":"+1-512-420-3338","power_supply":"yes","sanitary_dump_station":"yes","website":"https://www.sunnyhillrvpark.com/"}},"1285775424":{"location":[30.7247714,-98.0457634],"ct":"US","tp":"CR","ts":"2024-05-22T21:18:32Z","tX":233,"tY":420,"tags":{"addr:city":"Bertram","addr:housenumber":"1329","addr:postcode":"78605","addr:state":"TX","addr:street":"South Ranch Road 1174","cabins":"yes","caravans":"yes","charge":"50.00 USD/day;250.00 USD/week;450.00 USD/month","check_date":"2024-05-22","email":"bertram@patriotrvparks.com","fee":"yes","internet_access":"wlan","internet_access:fee":"customers","laundry":"yes","name":"Patriot RV Park - Bertram South","pets":"yes","phone":"+1-737-289-0078","power_supply":"yes","reservation":"yes","shower":"yes","toilets":"yes","website":"https://patriotrvparks.com/"}},"1285777557":{"location":[30.7481119,-98.0637138],"ct":"US","tp":"CR","ts":"2024-05-22T21:28:54Z","tX":233,"tY":420,"tags":{"addr:city":"Bertram","addr:housenumber":"900","addr:postcode":"78605","addr:state":"TX","addr:street":"Brook Mill Road","cabins":"yes","caravans":"yes","charge":"50.00 USD/day;250.00 USD/week;475.00 USD/month","check_date":"2024-05-22","email":"bertram@patriotrvparks.com","fee":"yes","internet_access":"wlan","internet_access:fee":"customers","laundry":"yes","name":"Patriot RV Park - Bertram","pets":"yes","phone":"+1-737-289-0078","power_supply":"yes","reservation":"yes","sanitary_dump_station":"yes","shower":"yes","toilets":"yes","website":"https://patriotrvparks.com/"}},"1286461438":{"location":[30.7511007,-98.0407975],"ct":"US","tp":"CR","ts":"2024-05-25T02:16:36Z","tX":233,"tY":420,"tags":{"addr:city":"Bertram","addr:housenumber":"347","addr:postcode":"78605","addr:state":"TX","addr:street":"County Road 268","email":"info@luckyhorseshoerv.com","laundry":"yes","name":"Lucky Horseshoe RV Park","opening_hours":"Mo,Tu,Th,Fr 09:00-17:00; Sa 09:00-13:00","phone":"+1-512-740-8274","power_supply":"yes","website":"https://luckyhorseshoerv.com/"}},"1287203428":{"location":[30.7218781,-98.0076651],"ct":"US","tp":"CR","ts":"2024-05-28T10:17:43Z","tX":233,"tY":420,"tags":{"addr:city":"Bertram","addr:housenumber":"725","addr:postcode":"78605","addr:state":"TX","addr:street":"County Road 266","bbq":"yes","caravans":"yes","check_date":"2024-05-27","fee":"yes","internet_access":"wlan","laundry":"yes","min_age":"55","name":"Windmill RV Ranch","pets":"yes","phone":"+1-512-458-4458","power_supply":"yes","reservation":"recommended","sanitary_dump_station":"yes","shower":"yes","toilets":"yes","website":"https://windmillrvranch.com/"}},"5302721922":{"location":[30.6738913,-97.7378512],"ct":"US","tp":"CS","ts":"2017-12-25T01:48:31Z","tX":233,"tY":420,"tags":{}},"11359511759":{"location":[30.6344097,-97.9170344],"ct":"US","tp":"SD","ts":"2023-11-18T06:05:00Z","tX":233,"tY":420,"tags":{}}}