{"584938535":{"location":[29.8873772,-97.9154228],"ct":"US","tp":"CR","ts":"2018-05-01T16:42:31Z","tX":233,"tY":422,"tags":{"addr:city":"San Marcos","addr:housenumber":"1335","addr:postcode":"78666","addr:state":"TX","addr:street":"North Interstate 35","name":"San Marcos Springs RV Park"}},"886592066":{"location":[30.129133,-98.0149106],"ct":"US","tp":"CS","ts":"2020-12-20T03:35:52Z","tX":233,"tY":422,"tags":{"addr:city":"Driftwood","addr:housenumber":"18301","addr:postcode":"78619","addr:state":"TX","addr:street":"Ranch Road 1826","name":"Camp Ben McCulloch"}},"886845912":{"location":[29.897789,-97.9138161],"ct":"US","tp":"CR","ts":"2024-10-15T14:54:47Z","tX":233,"tY":422,"tags":{"addr:city":"San Marcos","addr:housenumber":"503","addr:postcode":"78666","addr:state":"TX","addr:street":"Uhland Road","name":"Whispering Oaks"}},"1272901954":{"location":[30.0058383,-97.7374619],"ct":"US","tp":"CR","ts":"2024-04-15T21:43:09Z","tX":233,"tY":422,"tags":{}},"4593234235":{"location":[29.8878687,-97.9026804],"ct":"US","tp":"CS","ts":"2017-01-07T08:40:01Z","tX":233,"tY":422,"tags":{"addr:city":"Fentress","addr:housenumber":"1","addr:postcode":"78666","addr:state":"TX","addr:street":"River Road","name":"Leisure Resort on the San Marco River"}},"11037217938":{"location":[29.8589779,-97.8893734],"ct":"US","tp":"CS","ts":"2023-07-10T11:40:29Z","tX":233,"tY":422,"tags":{"addr:city":"San Marcos","addr:housenumber":"444","addr:postcode":"78666","addr:state":"TX","addr:street":"Pecan Park Drive","caravans":"yes","name":"San Marcos River Retreat","operator":"Paula and Tom Goynes","tents":"yes","website":"http://sanmarcosriverretreat.com/"}}}