{"342655525":{"location":[29.5478348,-97.9501019],"ct":"US","tp":"CR","ts":"2021-12-13T04:59:28Z","tX":233,"tY":423,"tags":{"addr:city":"Seguin","addr:housenumber":"3995","addr:postcode":"78155","addr:state":"TX","addr:street":"South Highway 123 Bypass","name":"River Shade RV Park"}},"421169147":{"location":[29.6171455,-98.0130016],"ct":"US","tp":"CR","ts":"2016-05-27T10:15:01Z","tX":233,"tY":423,"tags":{"name":"Wintergreen RV Park and Storage"}},"585775459":{"location":[29.746627,-97.7756404],"ct":"US","tp":"CR","ts":"2022-09-24T14:06:56Z","tX":233,"tY":423,"tags":{"addr:city":"Fentress","addr:housenumber":"1","addr:postcode":"78638","addr:state":"TX","addr:street":"River Lane","name":"Leisure Resort"}},"1202429070":{"location":[29.7436344,-97.775835],"ct":"US","tp":"CS","ts":"2023-08-26T23:12:33Z","tX":233,"tY":423,"tags":{"name":"Son's River Ranch"}},"1321863024":{"location":[29.7243604,-98.0796135],"ct":"US","tp":"CR","ts":"2024-10-07T15:15:11Z","tX":233,"tY":423,"tags":{}},"10304643963":{"location":[29.8307092,-97.8417639],"ct":"US","tp":"CS","ts":"2023-01-04T12:35:07Z","tX":233,"tY":423,"tags":{"addr:street":"9515 FM 1979","name":"Spencer's Canoe and Shady Grove Campground","phone":"(512) 357-6113","website":"https://tpwd.texas.gov/fishboat/fish/recreational/rivers/lease_access/spencer_canoes.phtml"}}}