{"143275969":{"location":[32.880373,-105.488575],"ct":"US","tp":"CR","ts":"2023-10-23T07:11:15Z","tX":211,"tY":412,"tags":{"addr:city":"Mayhill","addr:housenumber":"2112","addr:postcode":"88339","addr:state":"NM","addr:street":"Rio Penasco Road","fee":"yes","internet_access":"wlan","name":"Deer Spring RV Park","phone":"+1-575-687-3464","power_supply":"yes","website":"https://www.deerspringrvpark.net/"}},"367879546":{"location":[32.9175288,-105.5652351],"ct":"US","tp":"CS","ts":"2019-11-21T17:40:43Z","tX":211,"tY":412,"tags":{"addr:city":"Mayhill","addr:housenumber":"9","addr:postcode":"88339","addr:state":"NM","addr:street":"Ponderosa Road","backcountry":"no","cabins":"yes","caravans":"yes","fee":"yes","group_only":"no","internet_access":"wlan","internet_access:fee":"no","name":"Lazy Day Cabins and RV Hideaway","nudism":"no","phone":"+1 575 322 2329","reservation":"required","shower":"yes","smoking":"no","tents":"no","toilets":"yes","website":"lazydaycabins.com"}},"496128652":{"location":[33.0182511,-105.6300126],"ct":"US","tp":"CS","ts":"2017-10-25T14:20:48Z","tX":211,"tY":412,"tags":{"addr:housenumber":"868","addr:postcode":"88340","addr:state":"NM","addr:street":"Highway 244 Mescalero","building":"yes","name":"Silver Lake Campground","phone":"(505) 464-2244"}},"519740566":{"location":[32.9671084,-105.7372442],"ct":"US","tp":"CS","ts":"2017-08-29T20:08:10Z","tX":211,"tY":412,"tags":{"addr:city":"Cloudcroft","addr:state":"NM","addr:street":"NM 244","description":"Tent and RV camping.  No reservations.","fee":"yes","internet_access":"no","internet_access:fee":"no","name":"Pines Campground","operator":"US Forest Service"}},"519744716":{"location":[32.975577,-105.7238489],"ct":"US","tp":"CS","ts":"2017-08-29T20:19:14Z","tX":211,"tY":412,"tags":{"description":"Large gravel lot.  Paid showers available.","fee":"yes","internet_access":"no","name":"Silver Overflow Campground","operator":"US Forest Service"}},"520725571":{"location":[32.9108458,-105.5587637],"ct":"US","tp":"CR","ts":"2019-02-22T10:25:35Z","tX":211,"tY":412,"tags":{"addr:city":"Mayhill","addr:housenumber":"19","addr:postcode":"88339","addr:state":"NM","addr:street":"Senior Circle","description":"Campground open April 1 - Nov 1","ele":"7200","fee":"yes","internet_access":"wlan","internet_access:fee":"no","name":"Oak Grove RV Park","phone":"+1-575-687-3204","power_supply":"yes","website":"https://www.oakgrovervpark.net/"}},"520727112":{"location":[32.9109012,-105.551855],"ct":"US","tp":"CR","ts":"2024-07-01T14:18:31Z","tX":211,"tY":412,"tags":{"addr:city":"Mayhill","addr:housenumber":"2998","addr:postcode":"88339","addr:state":"NM","addr:street":"US Highway 82","description":"Seasonal RV Park","fee":"yes","internet_access":"wlan","name":"Cool Pines RV Park","phone":"+1-575-687-3200","power_supply":"yes","website":"https://www.coolpinesrvpark.com/"}},"520727639":{"location":[32.8804745,-105.4872766],"ct":"US","tp":"CR","ts":"2022-03-29T14:16:47Z","tX":211,"tY":412,"tags":{"addr:city":"Mayhill","addr:housenumber":"2112","addr:postcode":"88339","addr:state":"NM","addr:street":"Rio Penasco Road","fee":"yes","internet_access":"wlan","name":"Deer Spring RV Park","phone":"+1-575-687-3464","sanitary_dump_station":"yes","website":"https://deerspring-rvpark.net"}},"520728312":{"location":[32.9895236,-105.5768082],"ct":"US","tp":"CR","ts":"2023-10-23T07:10:50Z","tX":211,"tY":412,"tags":{"addr:city":"Cloudcroft","addr:housenumber":"571","addr:postcode":"88317","addr:state":"NM","addr:street":"Sixteen Springs Canyon Road","fee":"yes","internet_access":"wlan","name":"16 Springs Canyon RV Park","phone":"+1-575-687-3129","power_supply":"yes","website":"https://sixteenspringscanyonrvpark.com/"}},"1289006722":{"location":[32.9045488,-105.5050368],"ct":"US","tp":"CS","ts":"2024-06-03T00:28:14Z","tX":211,"tY":412,"tags":{"access":"yes","drinking_water":"no","fee":"no","name":"James Canyon Campground","operator":"USFS","picnic_table":"yes","reservation":"no","static_caravans":"yes","tents":"yes","toilets":"yes","website":"https://www.fs.usda.gov/recarea/lincoln/recarea/?recid=34174"}},"1356022332":{"location":[32.9633593,-105.8036389],"ct":"US","tp":"CR","ts":"2025-02-01T21:01:05Z","tX":211,"tY":412,"tags":{"addr:city":"High Rolls Mountain Park","addr:housenumber":"1093","addr:postcode":"88325","addr:state":"NM","addr:street":"US Highway 82","internet_access":"yes","internet_access:fee":"customers","name":"Cloud Climbing Railroad Cabins & RV Park","power_supply":"yes","sanitary_dump_station":"yes"}},"2332493678":{"location":[32.966792,-105.729189],"ct":"US","tp":"CS","ts":"2013-06-05T00:02:02Z","tX":211,"tY":412,"tags":{"name":"Apache Campground","operator":"USFS","source":"www.fs.usda.gov","uuid":"sonora_20130605"}},"2332493682":{"location":[32.940928,-105.7406457],"ct":"US","tp":"CS","ts":"2014-06-10T00:37:15Z","tX":211,"tY":412,"tags":{"name":"Aspen Group Campground","operator":"USFS","source":"www.fs.usda.gov","uuid":"sonora_20130605"}},"2332493687":{"location":[32.9400902,-105.7413096],"ct":"US","tp":"CS","ts":"2014-06-10T00:37:16Z","tX":211,"tY":412,"tags":{"name":"Black Bear Group Campground","operator":"USFS","source":"www.fs.usda.gov","uuid":"sonora_20130605"}},"2332493709":{"location":[32.9436677,-105.745952],"ct":"US","tp":"CS","ts":"2014-06-10T00:37:16Z","tX":211,"tY":412,"tags":{"name":"Deerhead Campground","operator":"USFS","source":"www.fs.usda.gov","uuid":"sonora_20130605"}},"2332493731":{"location":[32.904688,-105.505055],"ct":"US","tp":"CS","ts":"2024-06-03T00:28:14Z","tX":211,"tY":412,"tags":{"name":"James Canyon Campground","operator":"USFS","source":"www.fs.usda.gov","uuid":"sonora_20130605","website":"https://www.fs.usda.gov/recarea/lincoln/recarea/?recid=34174"}},"2332493741":{"location":[32.969041,-105.732241],"ct":"US","tp":"CS","ts":"2013-06-05T00:02:08Z","tX":211,"tY":412,"tags":{"name":"Lower Fir Group Campground","operator":"USFS","source":"www.fs.usda.gov","uuid":"sonora_20130605"}},"2332493750":{"location":[32.898773,-105.813289],"ct":"US","tp":"CS","ts":"2013-06-05T00:02:08Z","tX":211,"tY":412,"tags":{"name":"Lower Karr Canyon Campground","operator":"USFS","source":"www.fs.usda.gov","uuid":"sonora_20130605"}},"2332493800":{"location":[32.9707,-105.726176],"ct":"US","tp":"CS","ts":"2013-06-05T00:02:10Z","tX":211,"tY":412,"tags":{"name":"Saddle Campground","operator":"USFS","source":"www.fs.usda.gov","uuid":"sonora_20130605"}},"2332493804":{"location":[32.973506,-105.725606],"ct":"US","tp":"CS","ts":"2013-06-05T00:02:10Z","tX":211,"tY":412,"tags":{"name":"Silver Campground","operator":"USFS","source":"www.fs.usda.gov","uuid":"sonora_20130605"}},"2332493806":{"location":[32.9419205,-105.7355251],"ct":"US","tp":"CS","ts":"2014-06-10T00:37:16Z","tX":211,"tY":412,"tags":{"name":"Sleepy Grass Campground","operator":"USFS","source":"www.fs.usda.gov","uuid":"sonora_20130605"}},"2332493807":{"location":[32.937623,-105.753144],"ct":"US","tp":"CS","ts":"2013-06-05T00:02:11Z","tX":211,"tY":412,"tags":{"name":"Slide Group Campground","operator":"USFS","source":"www.fs.usda.gov","uuid":"sonora_20130605"}},"2332493815":{"location":[32.969717,-105.730788],"ct":"US","tp":"CS","ts":"2013-06-05T00:02:11Z","tX":211,"tY":412,"tags":{"name":"Upper Fir Group Campground","operator":"USFS","source":"www.fs.usda.gov","uuid":"sonora_20130605"}},"11033218705":{"location":[32.9708722,-105.7257689],"ct":"US","tp":"CS","ts":"2023-07-07T19:41:48Z","tX":211,"tY":412,"tags":{"name":"15"}},"5910209658":{"location":[32.9692724,-105.6503755],"ct":"US","tp":"CR","ts":"2018-09-16T18:17:19Z","tX":211,"tY":412,"tags":{"addr:city":"Cloudcroft","addr:housenumber":"98","addr:postcode":"88317","addr:state":"NM","addr:street":"Dry Canyon Road","fee":"yes","name":"Scenic Canyon RV Park","phone":"+1-252-412-3011","power_supply":"yes","website":"http://cloudcroft-rv.com"}},"5067422241":{"location":[32.9759438,-105.7246885],"ct":"US","tp":"SD","ts":"2017-08-29T20:19:14Z","tX":211,"tY":412,"tags":{"description":"RV dump station with non-potable water","fee":"yes","operator":"US Forest Service","water_point":"yes"}}}