{"346347031":{"location":[34.3312496,-118.242575],"ct":"US","tp":"CS","ts":"2022-05-03T03:18:17Z","tX":175,"tY":407,"tags":{"access":"no","capacity:caravans":"2","comment":"closed by Forest Service","name":"Tom Lucas Trail Camp"}},"351595984":{"location":[34.3862095,-118.141002],"ct":"US","tp":"CS","ts":"2023-03-01T21:30:47Z","tX":175,"tY":407,"tags":{"access":"yes","backcountry":"yes","capacity:caravans":"5","drinking_water":"no","fee":"no","name":"Big Buck Trail Camp","openfire":"yes","operator":"USDA Forest Service","reservation":"no","toilets":"no"}},"445080522":{"location":[34.4449909,-118.2088778],"ct":"US","tp":"CR","ts":"2016-09-30T17:20:27Z","tX":175,"tY":407,"tags":{"addr:city":"Acton","addr:housenumber":"4700","addr:postcode":"93510","addr:street":"Crown Valley Road","fee":"yes","name":"Soledad Canyon RV & Camping Resort"}},"746513329":{"location":[34.4384791,-118.2674085],"ct":"US","tp":"CR","ts":"2024-01-17T09:59:03Z","tX":175,"tY":407,"tags":{"addr:city":"Acton","addr:housenumber":"7601","addr:postcode":"93510","addr:state":"CA","addr:street":"Soledad Canyon Road","alt_name":"KOA Campground","brand":"KOA","brand:wikidata":"Q16988635","email":"acton@koa.com","internet_access":"wlan","name":"KOA Kampground","phone":"+1-661-268-1214","short_name":"KOA","website":"https://koa.com/campgrounds/acton"}},"910502115":{"location":[34.3798759,-118.1894327],"ct":"US","tp":"CS","ts":"2021-02-24T14:32:05Z","tX":175,"tY":407,"tags":{"name":"Messenger Flat"}},"910511825":{"location":[34.3699219,-118.1848274],"ct":"US","tp":"CS","ts":"2021-02-24T16:12:16Z","tX":175,"tY":407,"tags":{"name":"Lightning Point Campground (CLOSED)"}},"978405885":{"location":[34.3878947,-118.2536089],"ct":"US","tp":"CR","ts":"2021-09-01T11:57:27Z","tX":175,"tY":407,"tags":{"access":"private"}},"978405886":{"location":[34.3879394,-118.2533832],"ct":"US","tp":"CR","ts":"2021-09-01T11:57:27Z","tX":175,"tY":407,"tags":{"access":"private"}},"1156052134":{"location":[34.4337727,-118.3641363],"ct":"US","tp":"CS","ts":"2023-03-21T13:09:37Z","tX":175,"tY":407,"tags":{}},"3919847435":{"location":[34.5262911,-118.383129],"ct":"US","tp":"CS","ts":"2022-05-11T22:09:18Z","tX":175,"tY":407,"tags":{"access":"yes","backcountry":"yes","fee":"no","name":"Rowher Flats OHV Area #1","name:en":"Rowher Flats","operator":"Forest Service - USDA"}},"10750820071":{"location":[34.4368877,-118.3198578],"ct":"US","tp":"CS","ts":"2023-03-21T13:07:36Z","tX":175,"tY":407,"tags":{}}}