{"6190524":{"location":[59.8989825,30.4278461],"ct":"RU","tp":"CR","ts":"2023-09-16T23:21:35Z","tX":598,"tY":297,"tags":{"capacity":"15","email":"info@elizar-hotel.ru","fee":"yes","height":"2","name":"Елизар-Отель","name:en":"Elizar hotel","name:ru":"Елизар-Отель","opening_hours":"24/7","payment:cash":"yes","phone":"+7 812 3369339;+7 812 3369340;+7 800 5504013","power_supply":"yes","source":"http://camping-plus.ru/node/125","website":"http://www.elizar-hotel.ru/camping/camping-services"}},"653101973":{"location":[59.8988176,30.4274216],"ct":"RU","tp":"CR","ts":"2018-12-06T09:43:09Z","tX":598,"tY":297,"tags":{"parking":"surface","surface":"compacted"}},"7438762885":{"location":[60.0413096,30.2614623],"ct":"RU","tp":"CS","ts":"2020-04-23T15:50:44Z","tX":598,"tY":297,"tags":{}},"9681925717":{"location":[59.9707766,30.4044564],"ct":"RU","tp":"CR","ts":"2022-04-21T07:19:54Z","tX":598,"tY":297,"tags":{"addr:housenumber":"75","addr:street":"проспект Металлистов","name":"Парковка","name:en":"Parking","opening_hours":"24/7"}},"9689858722":{"location":[60.0386433,30.2900008],"ct":"RU","tp":"CR","ts":"2023-04-24T19:28:46Z","tX":598,"tY":297,"tags":{"camp_site":"serviced","caravans":"yes","phone":"+7 951 652-19-19","tents":"yes","website":"https://campneva.com/"}}}