{"3709062924":{"location":[50.751509,30.5518652],"ct":"UA","tp":"CR","ts":"2023-03-04T00:02:28Z","tX":598,"tY":343,"tags":{"fee":"yes","internet_access":"no","name":"Кемпінг-парк \"УКРАЇНА\"","name:uk":"Кемпінг-парк \"УКРАЇНА\"","power_supply":"yes","sanitary_dump_station":"yes"}},"3709064125":{"location":[50.7518362,30.5530559],"ct":"UA","tp":"CS","ts":"2023-10-29T15:06:08Z","tX":598,"tY":343,"tags":{"access":"private","fee":"yes","name":"\"Кемпінг-Парк\" на Київському Морі","name:ru":"\"Кемпинг-Парк\" на Киевском море","name:uk":"\"Кемпінг-Парк\" на Київському Морі","phone":"+380 50 331 7880;+380 44 233 5889;+380 96 207 7667;+380 63 233 0262","website":"https://campingpark.io.ua/"}},"4227367416":{"location":[50.7433239,30.5493466],"ct":"UA","tp":"CS","ts":"2016-06-05T21:58:24Z","tX":598,"tY":343,"tags":{}},"4773478127":{"location":[50.8998699,30.4390924],"ct":"UA","tp":"CS","ts":"2023-03-12T20:51:00Z","tX":598,"tY":343,"tags":{"name":"Кемпінговий фестиваль Alcotravel 2017","name:en":"Alcotravel Camping Festival 2017","name:uk":"Кемпінговий фестиваль Alcotravel 2017","opening_hours":"24/7","website":"https://www.facebook.com/alcotravel.ukraine/"}},"6682956085":{"location":[50.9200196,30.4532372],"ct":"UA","tp":"CS","ts":"2023-03-04T00:02:28Z","tX":598,"tY":343,"tags":{"name":"Місця для наметів","name:uk":"Місця для наметів"}}}