{"5313101":{"location":[50.4618581,30.5150192],"ct":"UA","tp":"CS","ts":"2023-11-02T11:30:37Z","tX":598,"tY":345,"tags":{"contact:phone":"+380 50 964 4513","contact:website":"https://www.facebook.com/frolivska911","name":"Фролівська 9/11","name:ru":"Фроловская 9/11","name:uk":"Фролівська 9/11","opening_hours":"Mo-Th 12:00-18:00; Sa,Su 13:00-18:00","refugee":"yes","social_facility":"food_bank"}},"144792791":{"location":[50.4596498,30.3136569],"ct":"UA","tp":"CS","ts":"2023-03-03T20:30:24Z","tX":598,"tY":345,"tags":{"name":"Руїни дитячого оздоровчого табору «Святошин»","name:uk":"Руїни дитячого оздоровчого табору «Святошин»"}},"332466498":{"location":[50.4639414,30.2803147],"ct":"UA","tp":"CS","ts":"2023-03-03T20:30:24Z","tX":598,"tY":345,"tags":{"name":"Артек Лісовий","name:uk":"Артек Лісовий"}},"910785246":{"location":[50.45134,30.3354464],"ct":"UA","tp":"CS","ts":"2024-02-28T17:27:08Z","tX":598,"tY":345,"tags":{"name":"Пролісок","name:uk":"Пролісок"}},"962189546":{"location":[50.323014,30.5715574],"ct":"UA","tp":"CS","ts":"2022-05-02T03:22:10Z","tX":598,"tY":345,"tags":{"name":"База відпочинку","name:uk":"База відпочинку"}},"1056543612":{"location":[50.310259,30.5779336],"ct":"UA","tp":"CS","ts":"2024-04-21T09:15:08Z","tX":598,"tY":345,"tags":{}},"1655930675":{"location":[50.452108,30.3365533],"ct":"UA","tp":"CS","ts":"2021-01-22T13:30:47Z","tX":598,"tY":345,"tags":{"name":"Пролісок","name:uk":"Пролісок"}},"3102329465":{"location":[50.4649379,30.3544263],"ct":"UA","tp":"CR","ts":"2023-11-01T20:31:27Z","tX":598,"tY":345,"tags":{"name":"Академ","name:ru":"Академ","name:uk":"Академ"}},"4086705956":{"location":[50.2952674,30.5820389],"ct":"UA","tp":"CS","ts":"2016-03-30T15:41:45Z","tX":598,"tY":345,"tags":{}},"4086706153":{"location":[50.3425128,30.5715394],"ct":"UA","tp":"CS","ts":"2016-03-30T15:41:46Z","tX":598,"tY":345,"tags":{}},"4227261271":{"location":[50.4592601,30.3259511],"ct":"UA","tp":"CS","ts":"2023-10-30T23:12:30Z","tX":598,"tY":345,"tags":{"name":"Зона відпочинку \"Мир\"","name:ru":"Зона отдыха \"Мир\"","name:uk":"Зона відпочинку \"Мир\"","opening_hours":"24/7","operator":"Київзеленбуд"}},"4231277605":{"location":[50.4410296,30.3692367],"ct":"UA","tp":"CS","ts":"2021-01-22T13:30:54Z","tX":598,"tY":345,"tags":{"name":"сауна","name:uk":"сауна"}},"4316722792":{"location":[50.4914429,30.5583288],"ct":"UA","tp":"CS","ts":"2023-03-09T21:27:41Z","tX":598,"tY":345,"tags":{"addr:housenumber":"2-Т","addr:street":"проспект Романа Шухевича","name":"Sky Family Park/Karlson Park","name:uk":"Sky Family Park/Karlson Park","opening_hours":"Tu-Fr 10:00-22:00; Sa-Su 10:00-23:00","phone":"+380 95 283 6555","website":"https://park.skymall.ua/"}},"4890074522":{"location":[50.4492984,30.573254],"ct":"UA","tp":"CS","ts":"2023-11-01T20:47:16Z","tX":598,"tY":345,"tags":{"email":"info@pobeach-kayaks.com","name":"Каяк-кано Центр","name:en":"Kayak & SUP Rental","name:ru":"Каяк-Каное Центр","name:uk":"Каяк-кано Центр","opening_hours":"Sa-Su 09:00-20:00; Tu-Fr 10:00-20:00","phone":"+380 67 924 7470","website":"http://www.kayakcenter.com.ua"}},"6387483686":{"location":[50.4446716,30.3240628],"ct":"UA","tp":"CS","ts":"2023-11-01T21:03:04Z","tX":598,"tY":345,"tags":{"name":"Березовий гай","name:ru":"Березовая роща","name:uk":"Березовий гай"}},"6503234285":{"location":[50.3004567,30.4570909],"ct":"UA","tp":"CS","ts":"2023-03-03T23:52:42Z","tX":598,"tY":345,"tags":{"name":"Озеро Круглик","name:en":"Kruglik lake","name:uk":"Озеро Круглик"}},"6631384385":{"location":[50.5042835,30.2916567],"ct":"UA","tp":"CS","ts":"2019-07-19T13:01:27Z","tX":598,"tY":345,"tags":{}},"7217106434":{"location":[50.462126,30.3022993],"ct":"UA","tp":"CS","ts":"2020-02-16T19:52:40Z","tX":598,"tY":345,"tags":{"backcountry":"yes"}},"7217106435":{"location":[50.4622144,30.3016467],"ct":"UA","tp":"CS","ts":"2020-02-16T19:52:40Z","tX":598,"tY":345,"tags":{"backcountry":"yes"}},"7217106436":{"location":[50.463226,30.3013808],"ct":"UA","tp":"CS","ts":"2020-02-16T19:52:40Z","tX":598,"tY":345,"tags":{"backcountry":"yes"}},"7503485585":{"location":[50.477654,30.4211946],"ct":"UA","tp":"CS","ts":"2023-10-30T23:12:25Z","tX":598,"tY":345,"tags":{"name":"Північна Мадженґа","name:en":"North Majenga","name:ru":"Северная Мадженга","name:uk":"Північна Мадженґа","wheelchair":"no"}},"10060307455":{"location":[50.4201488,30.4936877],"ct":"UA","tp":"CS","ts":"2023-03-03T20:23:58Z","tX":598,"tY":345,"tags":{"name":"Галявина Протасового яру","name:uk":"Галявина Протасового яру"}},"11204428037":{"location":[50.4982166,30.5615252],"ct":"UA","tp":"CS","ts":"2024-09-12T16:35:54Z","tX":598,"tY":345,"tags":{"name":"Піратська бухта","name:ru":"Пиратская Бухта","outdoor_seating":"no"}},"11919346217":{"location":[50.3528971,30.5669089],"ct":"UA","tp":"CS","ts":"2024-05-20T08:16:24Z","tX":598,"tY":345,"tags":{"impromptu":"yes","name":"Лагерь бомжей","name:en":"Homeless camp","name:ru":"Лагерь бомжей","name:uk":"Табір бомжів"}},"11989955869":{"location":[50.4822968,30.5554456],"ct":"UA","tp":"CS","ts":"2024-06-18T11:22:05Z","tX":598,"tY":345,"tags":{"name":"Бухта Колумба"}},"5517797222":{"location":[50.4340359,30.5189703],"ct":"UA","tp":"CR","ts":"2023-03-03T18:20:41Z","tX":598,"tY":345,"tags":{"name":"НСК Олімпійський","name:be":"НСК Алімпійскі","name:uk":"НСК Олімпійський"}}}