{"5312706":{"location":[46.1098987,30.5014205],"ct":"UA","tp":"CS","ts":"2017-10-28T09:36:46Z","tX":598,"tY":363,"tags":{}},"133195480":{"location":[46.133611,30.5233304],"ct":"UA","tp":"CR","ts":"2023-10-23T02:26:45Z","tX":598,"tY":363,"tags":{"name":"Автокемпінґ","name:ru":"Автокемпинг","name:uk":"Автокемпінґ"}},"355714310":{"location":[46.1466711,30.5375748],"ct":"UA","tp":"CS","ts":"2023-10-23T02:04:09Z","tX":598,"tY":363,"tags":{"addr:city":"Кароліно-Бугаз","addr:housenumber":"31","addr:street":"Вокзальна вулиця","capacity":"130","fee":"yes","name":"Студентська база відпочинку \"Економіст\"","name:ru":"Студенческая база отдыха «Экономист»","name:uk":"Студентська база відпочинку \"Економіст\""}},"481290019":{"location":[46.1655778,30.5552342],"ct":"UA","tp":"CS","ts":"2023-10-23T01:11:22Z","tX":598,"tY":363,"tags":{"name":"База відпочинку Шураві","name:ru":"База отдыха Шурави","name:uk":"База відпочинку Шураві"}},"7752467386":{"location":[46.1801429,30.5717864],"ct":"UA","tp":"CS","ts":"2023-03-03T23:03:43Z","tX":598,"tY":363,"tags":{"addr:street":"Приморська вулиця","name":"Кемпінг","name:en":"Camping","name:uk":"Кемпінг"}}}