{"118421828":{"location":[46.0669361,30.4591212],"ct":"UA","tp":"CS","ts":"2023-03-04T00:55:28Z","tX":598,"tY":364,"tags":{"addr:city":"Затока","name":"Колосок","name:uk":"Колосок"}},"118421829":{"location":[46.067979,30.4604855],"ct":"UA","tp":"CS","ts":"2023-03-04T00:55:28Z","tX":598,"tY":364,"tags":{"addr:city":"Затока","barrier":"fence","name":"Маяк","name:uk":"Маяк"}},"467636115":{"location":[46.0594385,30.4444405],"ct":"UA","tp":"CS","ts":"2017-01-21T19:04:53Z","tX":598,"tY":364,"tags":{}},"467945376":{"location":[46.03256,30.4118145],"ct":"UA","tp":"CS","ts":"2023-03-04T00:55:28Z","tX":598,"tY":364,"tags":{"name":"Арго","name:uk":"Арго"}},"3648972924":{"location":[45.9395163,30.3042512],"ct":"UA","tp":"CS","ts":"2015-07-13T12:41:55Z","tX":598,"tY":364,"tags":{}},"3648976330":{"location":[45.9399446,30.3038952],"ct":"UA","tp":"CS","ts":"2017-10-21T19:41:54Z","tX":598,"tY":364,"tags":{}},"4047831200":{"location":[45.9997814,30.3215747],"ct":"UA","tp":"CS","ts":"2023-10-23T02:27:05Z","tX":598,"tY":364,"tags":{"addr:housenumber":"11","addr:street":"Піонерська вулиця","name":"Велокемпінг «Шаболат»","name:en":"Bicycle Camping \"Shabolat\"","name:ru":"Велокемпинг «Шаболат»","name:uk":"Велокемпінг «Шаболат»","source":"https://velokemping-shabolat.jimdo.com/","website":"https://velokemping-shabolat.jimdo.com/"}},"8785033350":{"location":[45.9240481,30.2897154],"ct":"UA","tp":"CS","ts":"2021-05-31T09:23:58Z","tX":598,"tY":364,"tags":{}},"9167592446":{"location":[45.9401627,30.3033705],"ct":"UA","tp":"CS","ts":"2023-03-04T00:55:28Z","tX":598,"tY":364,"tags":{"name":"Місце для намету під деревом","name:uk":"Місце для намету під деревом"}},"10178468991":{"location":[46.0171836,30.3522436],"ct":"UA","tp":"CS","ts":"2023-03-04T00:55:28Z","tX":598,"tY":364,"tags":{"name":"Південний","name:uk":"Південний"}}}