{"1271770814":{"location":[36.2550777,30.4092805],"ct":"TR","tp":"CS","ts":"2024-05-15T20:29:37Z","tX":598,"tY":401,"tags":{"backcountry":"no","description":"An official campsite (with payment) in the forest","toilets":"yes"}},"1271770815":{"location":[36.2730424,30.410574],"ct":"TR","tp":"CS","ts":"2024-04-11T16:17:30Z","tX":598,"tY":401,"tags":{}},"1313756444":{"location":[36.2970817,30.4692265],"ct":"TR","tp":"CS","ts":"2024-09-06T12:27:08Z","tX":598,"tY":401,"tags":{"access":"yes","addr:city":"Antalya","addr:district":"Kumluca","addr:housenumber":"43","addr:neighbourhood":"Adrasan, 130 sokak no 43, 07350 Kumluca/Antalya","addr:postcode":"07350","addr:street":"130.sokak","fee":"yes","image":"https://i.hizliresim.com/9uzcgx9.jpg","mobile":"+905418854640","name":"Büşra Camping","official_name":"Büşra Camping","operator":"Büşra Camping","payment:cash":"yes","payment:credit_cards":"yes","payment:mastercard":"yes","payment:visa":"yes","tents":"yes"}},"5520946608":{"location":[36.2194053,30.4097184],"ct":"TR","tp":"CS","ts":"2024-11-26T14:39:17Z","tX":598,"tY":401,"tags":{"backcountry":"yes","capacity:tents":"4","description":"water from cistern, though not always. 4 separate sites","fee":"no","tents":"yes"}},"6534056485":{"location":[36.3109941,30.4618494],"ct":"TR","tp":"CS","ts":"2021-11-02T10:00:28Z","tX":598,"tY":401,"tags":{"charge":"20.00 TRY","fee":"yes","internet_access":"wlan","name":"Kum Camping"}},"6964946585":{"location":[36.2970312,30.4749646],"ct":"TR","tp":"CS","ts":"2019-12-21T14:03:10Z","tX":598,"tY":401,"tags":{"fee":"no","name":"Balıkçı Koyu"}},"7128931665":{"location":[36.2747086,30.3988211],"ct":"TR","tp":"CS","ts":"2021-11-02T10:00:28Z","tX":598,"tY":401,"tags":{"description:en":"Good free camping spot"}},"7419161986":{"location":[36.3051521,30.4649251],"ct":"TR","tp":"CS","ts":"2024-04-09T12:02:32Z","tX":598,"tY":401,"tags":{"internet_access":"wlan","name":"Gönül camping","name:en":"Gonul camping","name:ru":"Гонул кемпинг"}},"7931399885":{"location":[36.3033947,30.4653637],"ct":"TR","tp":"CS","ts":"2020-10-13T05:58:34Z","tX":598,"tY":401,"tags":{"internet_access":"wlan","name:en":"Sahil Camping"}},"8151184917":{"location":[36.3045225,30.4646544],"ct":"TR","tp":"CS","ts":"2024-07-11T16:26:02Z","tX":598,"tY":401,"tags":{"addr:housenumber":"106 1/1","addr:postcode":"07350","addr:street":"Deniz Caddesi","contact:instagram":"https://www.instagram.com/adrasan_kiyi_camping/","contact:mobile":"+90 546 782 37 43","internet_access":"wlan","name":"Kıyı Camping","name:tr":"Adrasan Kıyı Camping"}},"8712014819":{"location":[36.3136673,30.4599916],"ct":"TR","tp":"CS","ts":"2021-11-02T10:00:28Z","tX":598,"tY":401,"tags":{"name":"Gonca Camping"}},"9235115719":{"location":[36.2927825,30.4634764],"ct":"TR","tp":"CS","ts":"2023-04-24T07:16:22Z","tX":598,"tY":401,"tags":{"contact:instagram":"jungleadrasan","internet_access":"wlan","name:en":"Jungle Camping in Adrasan","opening_hours":"24/7","phone":"+90 538 500 70 71"}},"9673594217":{"location":[36.3070427,30.4644279],"ct":"TR","tp":"CS","ts":"2022-04-18T06:54:57Z","tX":598,"tY":401,"tags":{"name:en":"Yusuf Camping"}},"9733433917":{"location":[36.2940054,30.4686393],"ct":"TR","tp":"CS","ts":"2024-04-09T12:02:30Z","tX":598,"tY":401,"tags":{"addr:street":"131.sokak","contact:instagram":"adrasan.glamping","email":"adrasanglamping@gmail.com","internet_access":"wlan","name":"Adrasan koreli glamping camp","name:en":"Adrasan glamping camp","name:ru":"Кемпинг и глемпинг Адрасан","name:tr":"Adrasan koreli glamping camp","phone":"+90 539 707 36 69","website":"http://www.adrasanglamping.com"}},"10139102061":{"location":[36.2502617,30.406661],"ct":"TR","tp":"CS","ts":"2023-04-08T09:38:22Z","tX":598,"tY":401,"tags":{"name":"Körsan Camping","operator":"Şenay/Kenan","phone":"+90-542-734-3700","tents":"yes"}},"10139433117":{"location":[36.2947216,30.4638868],"ct":"TR","tp":"CS","ts":"2023-05-14T21:39:15Z","tX":598,"tY":401,"tags":{"addr:street":"Deniz Caddesi","name":"La Tortuga Camping","opening_hours":"24/7","phone":"+90 552 797 49 77"}},"10197619617":{"location":[36.2687945,30.4164957],"ct":"TR","tp":"CS","ts":"2024-04-09T12:03:00Z","tX":598,"tY":401,"tags":{"addr:street":"Karaöz Caddesi","email":"durmuskucukyavuz@gmail.com","name":"Çadıristan camping","name:ru":"Чадыристан Кемпинг","opening_hours":"24/7","phone":"+905050859717","website":"https://www.instagram.com/_cadiristan_/?hl=tr"}},"10209520917":{"location":[36.3003183,30.43251],"ct":"TR","tp":"CS","ts":"2024-04-09T12:03:00Z","tX":598,"tY":401,"tags":{"name:ru":"Место под палатку"}},"10219081023":{"location":[36.2910421,30.373831],"ct":"TR","tp":"CS","ts":"2024-04-09T12:03:12Z","tX":598,"tY":401,"tags":{"name:en":"Place for tent","name:ru":"Место для палатки в лесу"}},"10219081122":{"location":[36.2924441,30.3712936],"ct":"TR","tp":"CS","ts":"2024-04-09T12:02:25Z","tX":598,"tY":401,"tags":{"name:en":"Available place for tent near road","name:ru":"Ровное место для палатки у дороги"}},"10219081228":{"location":[36.2882966,30.3426591],"ct":"TR","tp":"CS","ts":"2024-10-18T08:06:07Z","tX":598,"tY":401,"tags":{"description:en":"Available place for tent","description:ru":"место для палатки рядом с беседками в парке","name":"Это не кемпинг. Это просто парк. Тут нельза ставить палатки"}},"10219081321":{"location":[36.2999133,30.3615665],"ct":"TR","tp":"CS","ts":"2024-04-09T12:03:20Z","tX":598,"tY":401,"tags":{"name:en":"Available place for tent","name:ru":"Ровное место для палатки под деревьями у дорог"}},"10814137307":{"location":[36.2659144,30.4486942],"ct":"TR","tp":"CS","ts":"2024-11-26T14:39:17Z","tX":598,"tY":401,"tags":{"backcountry":"yes","capacity:tents":"2","fee":"no","tents":"yes"}},"10922016307":{"location":[36.288041,30.3430231],"ct":"TR","tp":"CS","ts":"2024-04-11T14:08:20Z","tX":598,"tY":401,"tags":{"description":"telefonu şarj etmek için çardak soketinde","description:en":"in the gazebo socket for charging the phone","description:ru":"В беседке есть розетка для зарядки телефона"}},"10923508705":{"location":[36.3083663,30.3082311],"ct":"TR","tp":"CS","ts":"2024-04-09T12:02:36Z","tX":598,"tY":401,"tags":{"name":"Nice Park, su, çadır yeri","name:en":"Nice Park, water, place for a tent","name:ru":"Хороший Парк, вода, место для палатки"}},"11049586014":{"location":[36.2946152,30.4684991],"ct":"TR","tp":"CS","ts":"2023-07-16T17:12:51Z","tX":598,"tY":401,"tags":{"name":"Bro's Camping"}},"11286281877":{"location":[36.3031085,30.3238555],"ct":"TR","tp":"CS","ts":"2023-10-24T13:47:23Z","tX":598,"tY":401,"tags":{}},"11293598569":{"location":[36.2690328,30.4163217],"ct":"TR","tp":"CS","ts":"2023-11-19T08:21:46Z","tX":598,"tY":401,"tags":{"addr:street":"Korsankoy Caddesi","email":"xaxacamping@gmail.com","internet_access":"wlan","phone":"+905060350107","website":"https://xaxacamping.com.tr/"}},"11332984769":{"location":[36.2524779,30.4406859],"ct":"TR","tp":"CS","ts":"2024-11-26T14:39:17Z","tX":598,"tY":401,"tags":{"backcountry":"yes","capacity:tents":"2","drinking_water":"no","fee":"no","tents":"yes"}},"11335377269":{"location":[36.2631543,30.4130966],"ct":"TR","tp":"CS","ts":"2024-06-02T11:13:50Z","tX":598,"tY":401,"tags":{"description":"place for several tents. no water\""}},"11425167069":{"location":[36.2396215,30.4241367],"ct":"TR","tp":"CS","ts":"2024-11-26T14:39:17Z","tX":598,"tY":401,"tags":{"backcountry":"yes","capacity:tents":"2","description:en":"Man-made platform 3 by 4 meters protected by a small stone fence","description:ru":"Рукотворная площадка 3 на 4 метра, огороженная небольшим каменным забором","description:tr":"Küçük bir taş çitle korunan, 3'e 4 metrelik insan yapımı platform","fee":"no","tents":"yes"}},"11425167169":{"location":[36.3150116,30.4680708],"ct":"TR","tp":"CS","ts":"2024-04-09T12:02:36Z","tX":598,"tY":401,"tags":{"name:ru":"место на пляже под 1 палатку"}},"11821851569":{"location":[36.2535791,30.4472735],"ct":"TR","tp":"CS","ts":"2024-04-16T11:20:31Z","tX":598,"tY":401,"tags":{"name:ru":"Место под палатку с хорошим видом"}},"11850592479":{"location":[36.2949538,30.4697246],"ct":"TR","tp":"CS","ts":"2024-06-02T11:13:50Z","tX":598,"tY":401,"tags":{"access":"yes","addr:housenumber":"234","addr:street":"Deniz Caddesi","contact:instagram":"adrasan.camping","description":"+905322558746 WhatsApp","email":"turgutulusoy@hotmail.com","fee":"yes","internet_access":"wlan","name":"Adrasan camping Karavan","opening_hours":"24/7","operator":"turgut","phone":"+905322558746","website":"https://www.adrasancamping.com/"}},"11878702569":{"location":[36.2488261,30.4358757],"ct":"TR","tp":"CS","ts":"2024-11-26T14:39:17Z","tX":598,"tY":401,"tags":{"backcountry":"yes","capacity:tents":"1","fee":"no","tents":"yes"}},"11878704069":{"location":[36.2430501,30.4289416],"ct":"TR","tp":"CS","ts":"2024-11-26T14:39:17Z","tX":598,"tY":401,"tags":{"backcountry":"yes","capacity:tents":"3","fee":"no","tents":"yes"}},"11907935271":{"location":[36.2746958,30.4095672],"ct":"TR","tp":"CS","ts":"2024-05-15T20:30:29Z","tX":598,"tY":401,"tags":{"backcountry":"no","coffee":"yes","description":"Official (with payment) camp site for tents and caravans","food":"yes","name":"Dharma Bums"}},"11915807569":{"location":[36.271397,30.4115229],"ct":"TR","tp":"CS","ts":"2024-05-18T11:35:18Z","tX":598,"tY":401,"tags":{"internet_access":"wlan","name:en":"Sun ses Karaöz"}},"12010054982":{"location":[36.260745,30.4593277],"ct":"TR","tp":"CS","ts":"2024-06-25T18:42:02Z","tX":598,"tY":401,"tags":{}},"12299925001":{"location":[36.2609499,30.4136887],"ct":"TR","tp":"CS","ts":"2024-10-30T18:17:14Z","tX":598,"tY":401,"tags":{"addr:street":"Mavikent mahallesi, Korsan Koyu Cad. D:621 Ada 3 Parsel Kumluca/Antalya, Antalya, Turkey","internet_access":"wlan","name":"Karaoz Serinity bungalov","phone":"+90534478184","website":"https://www.instagram.com/karaozserenity.bungalov/"}},"5196743523":{"location":[36.2526358,30.4071752],"ct":"TR","tp":"CR","ts":"2017-10-28T19:09:21Z","tX":598,"tY":401,"tags":{"name:en":"Camping Otopark"}},"11809638857":{"location":[36.2823883,30.3510028],"ct":"TR","tp":"CR","ts":"2024-04-11T14:08:20Z","tX":598,"tY":401,"tags":{}}}