{"136138933":{"location":[47.9309451,-97.0314809],"ct":"US","tp":"CS","ts":"2020-09-03T07:41:56Z","tX":235,"tY":356,"tags":{"addr:city":"East Grand Forks","addr:state":"MN","leisure":"park","name":"Red River State Recreation Area","wikidata":"Q7304864","wikipedia":"en:Red River State Recreation Area"}},"579113048":{"location":[47.8737021,-97.0899345],"ct":"US","tp":"CR","ts":"2018-04-12T05:23:00Z","tX":235,"tY":356,"tags":{}},"1057653581":{"location":[47.9684404,-97.3782778],"ct":"US","tp":"CS","ts":"2024-05-14T08:44:43Z","tX":235,"tY":356,"tags":{"landuse":"military","military":"base"}},"1975925865":{"location":[47.9312446,-97.0314252],"ct":"US","tp":"CS","ts":"2020-06-10T21:52:51Z","tX":235,"tY":356,"tags":{"addr:city":"East Grand Forks","addr:state":"MN","capacity":"114","fee":"$19-$33","name":"Red River SRA - Sherlock Park","phone":"+1-218-773-4950","power_supply":"yes","reservation":"yes","shower":"yes","toilets":"yes"}},"7650624786":{"location":[47.9685221,-97.3778953],"ct":"US","tp":"CS","ts":"2020-06-24T22:09:22Z","tX":235,"tY":356,"tags":{"name":"Grand Forks AFB FamCamp"}}}