{"1134677571":{"location":[32.2790415,-97.2198178],"ct":"US","tp":"CR","ts":"2023-01-24T01:43:49Z","tX":235,"tY":414,"tags":{"addr:city":"Grandview","addr:housenumber":"8325","addr:postcode":"76050","addr:state":"TX","addr:street":"County Road 409","contact:phone":"+1-817-866-3332","contact:website":"https://www.eagleridgervresort.com/","name":"Eagle Ridge RV Park"}},"1153736274":{"location":[32.3944403,-97.3111405],"ct":"US","tp":"CR","ts":"2023-03-12T12:40:41Z","tX":235,"tY":414,"tags":{"addr:city":"Cleburne","addr:housenumber":"3601","addr:postcode":"76031","addr:state":"TX","addr:street":"East US Highway 67","contact:email":"ShadyAcresRvPark12@gmail.com","contact:facebook":"https://www.facebook.com/shadyacresrvpark","contact:phone":"+1-817-456-2820","contact:website":"https://www.shadyacresrvpark.com/","internet_access":"yes","name":"Shady Acres RV Park","power_supply":"yes"}},"1167232548":{"location":[32.3595763,-97.2951597],"ct":"US","tp":"CS","ts":"2023-04-29T00:04:30Z","tX":235,"tY":414,"tags":{"addr:city":"Cleburne","addr:housenumber":"2001","addr:state":"TX","addr:street":"County Road 415","contact:website":"https://campmcmullen.org/","mapillary":"3056309524674540","name":"Camp McMullen","operator":"Texas Association of Women's and Youth Club"}}}