{"399538224":{"location":[30.4247974,-97.2647719],"ct":"US","tp":"CS","ts":"2024-03-02T00:33:10Z","tX":235,"tY":421,"tags":{"addr:city":"Elgin","addr:country":"US","addr:housenumber":"20250","addr:postcode":"78621","addr:state":"TX","addr:street":"FM 619","backcountry":"no","cabins":"yes","caravans":"no","drinking_water":"yes","email":"info@downhomeranch.org","fax":"+1 512-856-0256","name":"Down Home Ranch","phone":"+1 512-856-0128","static_caravans":"no","website":"http://downhomeranch.org","wheelchair":"yes"}},"592774467":{"location":[30.297932,-97.3426482],"ct":"US","tp":"CR","ts":"2018-06-01T15:09:56Z","tX":235,"tY":421,"tags":{"addr:city":"Elgin","addr:housenumber":"113","addr:postcode":"78621","addr:state":"TX","addr:street":"Jordan Lane","name":"Pepper's RV Park"}},"1167228846":{"location":[30.2834448,-97.2330347],"ct":"US","tp":"CR","ts":"2023-04-28T23:09:07Z","tX":235,"tY":421,"tags":{"addr:city":"McDade","addr:housenumber":"207","addr:postcode":"78650","addr:state":"TX","addr:street":"Columbus Street","name":"McDade RV Park"}},"1167233470":{"location":[30.2951178,-97.2743339],"ct":"US","tp":"CR","ts":"2023-04-29T00:09:31Z","tX":235,"tY":421,"tags":{"addr:city":"Elgin","addr:housenumber":"1417","addr:postcode":"78621","addr:state":"TX","addr:street":"US-290","check_date":"2023-04-28","email":"crimsonoaksrv@gmail.com","name":"Crimson Oaks RV Park","phone":"+1-512-661-8232","website":"https://crimsonoaksrvpark.com/"}},"1167235815":{"location":[30.3178842,-97.3087949],"ct":"US","tp":"CR","ts":"2023-04-29T00:36:11Z","tX":235,"tY":421,"tags":{"addr:city":"Elgin","addr:housenumber":"111","addr:postcode":"78621","addr:state":"TX","addr:street":"Monroe King Lane","check_date":"2023-04-28","name":"Marlee's RV Retreat","phone":"+1-210-350-0687","website":"https://marleesrvretreat.com/"}},"1167237463":{"location":[30.3334105,-97.3433828],"ct":"US","tp":"CR","ts":"2023-04-29T00:58:35Z","tX":235,"tY":421,"tags":{"addr:city":"Elgin","addr:housenumber":"1097","addr:postcode":"78621","addr:state":"TX","addr:street":"Old McDade Road","name":"Elgin RV Estates"}},"1274621273":{"location":[30.1675825,-97.2792759],"ct":"US","tp":"CS","ts":"2024-04-21T14:04:11Z","tX":235,"tY":421,"tags":{}},"1279122144":{"location":[30.3198187,-97.3353324],"ct":"US","tp":"CR","ts":"2024-05-02T16:33:29Z","tX":235,"tY":421,"tags":{"name":"Colinas RV Park"}},"1279247879":{"location":[30.2004042,-97.2989235],"ct":"US","tp":"CR","ts":"2024-05-03T04:28:02Z","tX":235,"tY":421,"tags":{"name":"Lake Bastrop Acres RV Park"}},"1285956098":{"location":[30.172328,-97.2788886],"ct":"US","tp":"CR","ts":"2024-05-23T13:34:40Z","tX":235,"tY":421,"tags":{}},"1286123406":{"location":[30.1497725,-97.3193593],"ct":"US","tp":"CR","ts":"2024-05-25T17:12:41Z","tX":235,"tY":421,"tags":{"name":"Sunny Bastrop RV Park"}},"1286123413":{"location":[30.1622611,-97.3064702],"ct":"US","tp":"CR","ts":"2024-05-25T17:12:41Z","tX":235,"tY":421,"tags":{"name":"Sunny Meadows RV Park"}},"1286604023":{"location":[30.1691616,-97.2691664],"ct":"US","tp":"CS","ts":"2024-06-05T06:53:34Z","tX":235,"tY":421,"tags":{"leisure":"summer_camp","name":"Lost Pines Scout Reservation","website":"https://www.bsacac.org/camping/our_camps/lost_pines"}}}