{"264155511":{"location":[28.0135798,-97.0891696],"ct":"US","tp":"CR","ts":"2017-09-01T13:27:12Z","tX":235,"tY":428,"tags":{"name":"Buffalo 35 RV Park"}},"264156620":{"location":[28.0435637,-97.0558116],"ct":"US","tp":"CR","ts":"2015-04-30T06:44:14Z","tX":235,"tY":428,"tags":{"addr:city":"Rockport","addr:housenumber":"600","addr:postcode":"78382","addr:street":"Enterprise","name":"Lagoons RV Resort"}},"518941022":{"location":[28.0153674,-97.0674473],"ct":"US","tp":"CR","ts":"2017-08-26T22:59:39Z","tX":235,"tY":428,"tags":{"capacity":"8"}},"518954430":{"location":[28.0192647,-97.0566666],"ct":"US","tp":"CR","ts":"2017-09-04T13:54:45Z","tX":235,"tY":428,"tags":{}},"518954648":{"location":[28.018214,-97.0689618],"ct":"US","tp":"CR","ts":"2017-08-27T02:34:42Z","tX":235,"tY":428,"tags":{}},"518954792":{"location":[28.0193896,-97.0752798],"ct":"US","tp":"CR","ts":"2017-08-27T02:34:46Z","tX":235,"tY":428,"tags":{}},"518954949":{"location":[28.0097829,-97.0736906],"ct":"US","tp":"CR","ts":"2017-08-27T02:34:51Z","tX":235,"tY":428,"tags":{}},"518955209":{"location":[28.013136,-97.0616636],"ct":"US","tp":"CR","ts":"2017-08-27T02:35:01Z","tX":235,"tY":428,"tags":{}},"519990804":{"location":[28.0328393,-97.0582266],"ct":"US","tp":"CR","ts":"2017-08-30T13:11:52Z","tX":235,"tY":428,"tags":{}},"519991672":{"location":[28.0348759,-97.0559494],"ct":"US","tp":"CR","ts":"2017-08-30T13:16:11Z","tX":235,"tY":428,"tags":{}},"760395204":{"location":[28.1046058,-97.0340561],"ct":"US","tp":"CR","ts":"2022-03-08T19:55:05Z","tX":235,"tY":428,"tags":{"addr:city":"Rockport","addr:housenumber":"5451","addr:postcode":"78382","addr:state":"TX","addr:street":"State Highway 35","name":"Bayview RV Park","power_supply":"yes","swimming":"customers"}}}