{"146419240":{"location":[27.8358459,-97.3794704],"ct":"US","tp":"CR","ts":"2020-12-09T02:41:22Z","tX":235,"tY":429,"tags":{"addr:city":"Corpus Christi","addr:housenumber":"5100","addr:postcode":"78402","addr:state":"TX","addr:street":"Timon Boulevard","name":"Puerto Del Sol RV Park","phone":"+1-361-882-5373","website":"http://www.puertodelsolrvpark.com/"}},"259262501":{"location":[27.9189827,-97.1714606],"ct":"US","tp":"CR","ts":"2020-04-15T15:54:47Z","tX":235,"tY":429,"tags":{"addr:city":"Aransas Pass","addr:housenumber":"2135","addr:postcode":"78336","addr:state":"TX","addr:street":"West Wheeler Avenue","internet_access":"wlan","internet_access:fee":"no","name":"The Palms RV Park","power_supply":"yes","residential":"mobile_home","sanitary_dump_station":"yes"}},"348165710":{"location":[27.885267,-97.1496938],"ct":"US","tp":"CR","ts":"2022-08-06T04:57:40Z","tX":235,"tY":429,"tags":{"addr:city":"Aransas Pass","addr:housenumber":"427","addr:postcode":"78336","addr:state":"TX","addr:street":"East Ransom Road","internet_access":"wlan","name":"ICW RV Park","smoking":"no"}},"519074059":{"location":[27.8135562,-97.0784076],"ct":"US","tp":"CR","ts":"2024-11-11T22:48:23Z","tX":235,"tY":429,"tags":{"addr:city":"Port Aransas","addr:housenumber":"2600","addr:postcode":"78373","addr:state":"TX","addr:street":"State Highway 361","capacity":"185","name":"Port A RV Resort","phone":"+1-361-416-1405","power_supply":"yes","sanitary_dump_station":"yes","website":"https://portarvresort.com"}},"519079457":{"location":[27.8040979,-97.0779854],"ct":"US","tp":"CR","ts":"2024-11-11T22:30:31Z","tX":235,"tY":429,"tags":{"addr:city":"Port Aransas","addr:housenumber":"907","addr:postcode":"78373","addr:state":"TX","addr:street":"Access Road 1A","fee":"yes","name":"On the Beach RV Park","phone":"+1-361-749-4909","power_supply":"yes","reservation":"yes","sanitary_dump_station":"yes","website":"https://onthebeachrvpark.com"}},"553135790":{"location":[27.8320601,-97.0510493],"ct":"US","tp":"CR","ts":"2022-01-12T22:58:17Z","tX":235,"tY":429,"tags":{"addr:city":"Port Aransas","addr:housenumber":"321","addr:postcode":"78373","addr:state":"TX","addr:street":"North on the Beach","capacity":"64","internet_access":"wlan","internet_access:fee":"customers","name":"I B Magee Beach RV Park","phone":"+1-361-749-6117","power_supply":"yes","reservation":"yes","sanitary_dump_station":"yes","website":"https://www.nuecesco.com/county-services/parks-coastal/ib-magee-beach-park"}},"766593664":{"location":[27.6950964,-97.2541704],"ct":"US","tp":"CR","ts":"2020-01-26T04:17:20Z","tX":235,"tY":429,"tags":{"name":"NAS Corpus Christi RV Park","website":"https://www.navymwrcorpuschristi.com/"}},"923507788":{"location":[27.8331315,-97.0702505],"ct":"US","tp":"CR","ts":"2022-04-12T22:22:45Z","tX":235,"tY":429,"tags":{"addr:city":"Port Aransas","addr:housenumber":"315","addr:postcode":"78373","addr:state":"TX","addr:street":"South Cut-Off Road","capacity:caravans":"132","email":"manager@tropicislandresort.com","fax":"+1-361-749-6129","name":"Tropic Island Resort","phone":"+1-361-749-6128","power_supply":"yes","sanitary_dump_station":"yes","website":"https://www.tropicislandresort.com"}},"930781147":{"location":[27.8371483,-97.0585999],"ct":"US","tp":"CR","ts":"2024-11-12T20:39:44Z","tX":235,"tY":429,"tags":{"addr:city":"Port Aransas","addr:housenumber":"300","addr:postcode":"78373","addr:state":"TX","addr:street":"East Cotter Avenue","name":"Mustang RV Resort","phone":"+1 361 749 5343"}},"966252032":{"location":[27.9219369,-97.180223],"ct":"US","tp":"CR","ts":"2021-07-22T02:39:02Z","tX":235,"tY":429,"tags":{"name":"Blue Marlin RV Park"}},"969260476":{"location":[27.7849422,-97.0980732],"ct":"US","tp":"CR","ts":"2022-01-02T03:32:01Z","tX":235,"tY":429,"tags":{"addr:city":"Port Aransas","addr:housenumber":"120","addr:postcode":"78373","addr:state":"TX","addr:street":"Gulfwind Drive","email":"info@pioneerresorts.com","fee":"yes","internet_access":"wlan","internet_access:fee":"customers","name":"Pioneer RV Park","phone":"+1 361 749 6248","power_supply":"yes","website":"https://www.pioneerrvresorts.com/"}},"969260491":{"location":[27.7596208,-97.1151388],"ct":"US","tp":"CR","ts":"2022-01-02T03:34:45Z","tX":235,"tY":429,"tags":{"name":"Gulf Waters Beach Front RV Resort"}},"1017665116":{"location":[27.830759,-97.0725699],"ct":"US","tp":"CR","ts":"2024-11-11T01:38:09Z","tX":235,"tY":429,"tags":{"addr:city":"Port Aransas","addr:housenumber":"700","addr:postcode":"78373","addr:state":"TX","addr:street":"Sixth Street","email":"contact@austinrvpark.com","fee":"yes","name":"Island RV Resort","phone":"+1-361-749-5600","power_supply":"yes","reservation":"yes","sanitary_dump_station":"yes","website":"https://islandrvresort.com"}},"1019268705":{"location":[27.83592,-97.0654765],"ct":"US","tp":"CR","ts":"2024-11-11T15:59:04Z","tX":235,"tY":429,"tags":{"addr:city":"Port Aransas","addr:housenumber":"241","addr:postcode":"78373","addr:state":"TX","addr:street":"West Cotter Avenue","capacity":"96","internet_access":"wlan","name":"LaFitteâ€™s Hideout RV Park","phone":"+1-361-749-7823","power_supply":"yes","sanitary_dump_station":"yes","website":"https://lafittesporta.com"}},"1044280408":{"location":[27.8229073,-97.069746],"ct":"US","tp":"CR","ts":"2022-03-26T15:13:34Z","tX":235,"tY":429,"tags":{"addr:city":"Port Aransas","addr:postcode":"78373","addr:state":"TX","addr:street":"Ninth Street","capacity:caravans":"13","internet_access":"wlan","internet_access:fee":"customers","name":"Island Time RV Park","phone":"+1-361-290-7009","power_supply":"yes","sanitary_dump_station":"yes"}},"1084153303":{"location":[27.8912729,-97.1521003],"ct":"US","tp":"CR","ts":"2022-08-06T04:57:40Z","tX":235,"tY":429,"tags":{"addr:city":"Aransas Pass","addr:housenumber":"240","addr:postcode":"78336","addr:state":"TX","addr:street":"Ransom Road","internet_access":"wlan","internet_access:fee":"no","name":"Ransom Road RV Park"}},"1084307251":{"location":[27.9159923,-97.1670902],"ct":"US","tp":"CR","ts":"2022-08-06T20:11:04Z","tX":235,"tY":429,"tags":{}},"1139435599":{"location":[27.9219513,-97.168572],"ct":"US","tp":"CR","ts":"2023-02-08T13:20:13Z","tX":235,"tY":429,"tags":{"addr:city":"Aransas Pass","addr:housenumber":"2210","addr:postcode":"78336","addr:state":"TX","addr:street":"TX-35","name":"Howdy RV"}},"1140701882":{"location":[27.9205704,-97.1570849],"ct":"US","tp":"CR","ts":"2023-02-09T05:10:33Z","tX":235,"tY":429,"tags":{"addr:city":"Aransas Pass","addr:housenumber":"501","addr:postcode":"78336","addr:state":"TX","addr:street":"North Avenue A","name":"Aransas Bay RV Resort"}},"1140701891":{"location":[27.917263,-97.1562471],"ct":"US","tp":"CR","ts":"2023-02-09T05:10:33Z","tX":235,"tY":429,"tags":{"addr:city":"Aransas Pass","addr:housenumber":"340","addr:postcode":"78336","addr:state":"TX","addr:street":"North 13th Street","name":"The getaway RV and storage"}},"1140701959":{"location":[27.921686,-97.1361353],"ct":"US","tp":"CR","ts":"2023-02-09T05:10:33Z","tX":235,"tY":429,"tags":{"addr:city":"Aransas Pass","addr:housenumber":"116","addr:postcode":"78336","addr:state":"TX","addr:street":"Freeman Street","name":"Mobil Village RV Park"}},"1328393854":{"location":[27.8816799,-97.1609153],"ct":"US","tp":"CR","ts":"2024-10-26T14:35:12Z","tX":235,"tY":429,"tags":{}},"1328656497":{"location":[27.874206,-97.1819253],"ct":"US","tp":"CR","ts":"2024-10-27T21:39:47Z","tX":235,"tY":429,"tags":{"name":"Tiki RV Park"}},"1328656498":{"location":[27.8738909,-97.1848098],"ct":"US","tp":"CR","ts":"2024-10-27T21:39:47Z","tX":235,"tY":429,"tags":{"name":"Indian Trails RV & Mobile Park"}},"1332441845":{"location":[27.8176024,-97.0711624],"ct":"US","tp":"CR","ts":"2024-11-11T22:03:56Z","tX":235,"tY":429,"tags":{}},"1332733619":{"location":[27.8274822,-97.0617289],"ct":"US","tp":"CR","ts":"2024-11-11T00:38:24Z","tX":235,"tY":429,"tags":{"name":"Gulf Breeze RV and Vacation Rental"}},"1332733656":{"location":[27.8334402,-97.0664892],"ct":"US","tp":"CR","ts":"2024-11-11T00:38:24Z","tX":235,"tY":429,"tags":{"name":"Funtime RV Park Campground"}},"1332737359":{"location":[27.8303272,-97.0641654],"ct":"US","tp":"CR","ts":"2024-11-11T01:12:01Z","tX":235,"tY":429,"tags":{}},"1332737376":{"location":[27.8284758,-97.0646959],"ct":"US","tp":"CR","ts":"2024-11-11T01:12:01Z","tX":235,"tY":429,"tags":{}},"1332737421":{"location":[27.8358588,-97.0589764],"ct":"US","tp":"CR","ts":"2024-11-11T01:12:01Z","tX":235,"tY":429,"tags":{}},"1332739316":{"location":[27.8373507,-97.0728743],"ct":"US","tp":"CR","ts":"2024-11-11T01:38:09Z","tX":235,"tY":429,"tags":{"name":"Sailfish RV Resort"}},"1332741287":{"location":[27.8365548,-97.0583857],"ct":"US","tp":"CR","ts":"2024-11-12T20:39:44Z","tX":235,"tY":429,"tags":{}},"1332900260":{"location":[27.8377557,-97.058556],"ct":"US","tp":"CR","ts":"2024-11-11T15:59:04Z","tX":235,"tY":429,"tags":{}},"1333061782":{"location":[27.8179198,-97.0768111],"ct":"US","tp":"CR","ts":"2024-11-11T22:48:23Z","tX":235,"tY":429,"tags":{}},"12054458994":{"location":[27.8224659,-97.0591945],"ct":"US","tp":"CS","ts":"2024-07-15T05:53:28Z","tX":235,"tY":429,"tags":{"access":"permissive","addr:city":"Port Aransas","addr:postcode":"78373","addr:state":"TX","addr:street":"Port Aransas Beach Road","caravans":"yes","charge":"12 USD Annual Permit","description":"Beach camping.  Permit required (annual); can be purchased at local convenience stores.","fee":"yes","name":"Port Aransas Permit Beach Camping","openfire":"yes","operator":"City of Port Aransas","phone":"+1 361-749-4158","power_supply":"no","reservation":"no","shower":"yes","tents":"yes","toilets":"yes","website":"https://www.portaransas.org/beach/camping/"}},"8613578652":{"location":[27.8313093,-97.0508465],"ct":"US","tp":"SD","ts":"2021-05-02T21:47:09Z","tX":235,"tY":429,"tags":{"access":"customers"}}}