{"961687245":{"location":[25.9899934,-97.1843449],"ct":"US","tp":"CR","ts":"2024-10-27T05:40:37Z","tX":235,"tY":435,"tags":{"addr:city":"Starbase","addr:state":"TX","capacity":"35"}},"1167665348":{"location":[26.0727296,-97.1595139],"ct":"US","tp":"CR","ts":"2023-05-01T04:09:05Z","tX":235,"tY":435,"tags":{}},"1180994090":{"location":[25.9900621,-97.1851413],"ct":"US","tp":"CR","ts":"2024-02-09T00:36:34Z","tX":235,"tY":435,"tags":{}},"1180994094":{"location":[25.9936274,-97.1834657],"ct":"US","tp":"CR","ts":"2024-02-25T04:50:34Z","tX":235,"tY":435,"tags":{}},"8703566447":{"location":[26.0735507,-97.2117182],"ct":"US","tp":"CS","ts":"2021-05-06T03:08:49Z","tX":235,"tY":435,"tags":{"name":"Lazy Days Trailer Park"}},"8881999027":{"location":[26.083156,-97.2611781],"ct":"US","tp":"CS","ts":"2021-07-01T05:57:36Z","tX":235,"tY":435,"tags":{"name":"Laguna Seca Park"}},"9450649284":{"location":[25.9473372,-97.2794947],"ct":"US","tp":"CS","ts":"2022-01-26T17:59:53Z","tX":235,"tY":435,"tags":{"addr:city":"Brownsville","addr:housenumber":"43742","addr:postcode":"78521","addr:state":"TX","addr:street":"Palmito Hill Road","name":"Rocket Ranch Boca Chica","phone":"+1-218-394-5504","website":"https://www.rocketranchbocachica.com"}}}