{"300672228":{"location":[49.1243775,-66.5114962],"ct":"CA","tp":"CR","ts":"2022-03-21T21:56:32Z","tX":322,"tY":351,"tags":{"name":"Camping Ancre Jaune","source":"Bing"}},"1015444202":{"location":[49.1117261,-66.6502013],"ct":"CA","tp":"CR","ts":"2022-04-04T14:07:09Z","tX":322,"tY":351,"tags":{"addr:city":"Cap-Chat","addr:housenumber":"173","addr:street":"Rue Notre Dame Est","name":"Camping Au Bord de la mer"}},"1015444204":{"location":[49.1113957,-66.645748],"ct":"CA","tp":"CR","ts":"2022-04-04T14:07:09Z","tX":322,"tY":351,"tags":{"name":"Motel et Camping Le Pirate"}},"1027524360":{"location":[48.9976564,-66.5597183],"ct":"CA","tp":"CR","ts":"2022-02-03T22:39:05Z","tX":322,"tY":351,"tags":{"name":"Camping - Village Grande Nature Chic-Chocs"}},"1048200884":{"location":[49.119201,-66.5545681],"ct":"CA","tp":"CS","ts":"2022-04-04T13:15:54Z","tX":322,"tY":351,"tags":{"addr:city":"Sainte-Anne-des-Monts","addr:housenumber":"748","addr:street":"Boulevard Sainte-Anne Ouest","name":"Camping O'P'TIT DES MONTS","source":"NRCan-CanVec-8.0"}},"1048439216":{"location":[49.1250871,-66.5363411],"ct":"CA","tp":"CS","ts":"2022-04-04T14:07:09Z","tX":322,"tY":351,"tags":{"addr:city":"Sainte-Anne-des-Monts","addr:housenumber":"500","addr:postcode":"G4V 1H4","addr:street":"1ere Avenue Ouest;1e Avenue Ouest","email":"isabel_mercier@hotmail.com","internet_access":"wlan","name":"Le Camping du Rivage","name:en":"Camping du Rivage","name:fr":"Camping du Rivage","opening_hours":"Mo-Su 08:00-21:00","phone":"+1-418-763-8387","website":"https://www.campingdurivage.com/"}},"3268109442":{"location":[48.9317973,-66.4993787],"ct":"CA","tp":"CS","ts":"2015-01-04T23:30:05Z","tX":322,"tY":351,"tags":{"name":"Le Kalmia"}},"11202928561":{"location":[49.0868028,-66.7419471],"ct":"CA","tp":"CS","ts":"2023-09-19T15:44:22Z","tX":322,"tY":351,"tags":{"name":"Camping Phare Cap-chat"}}}