{"485852570":{"location":[48.005756,-66.6830685],"ct":"CA","tp":"CS","ts":"2023-06-24T13:09:01Z","tX":322,"tY":355,"tags":{}},"665162798":{"location":[48.0409463,-66.6967489],"ct":"CA","tp":"CS","ts":"2024-09-10T14:22:08Z","tX":322,"tY":355,"tags":{"addr:city":"Pointe-à-la-Croix","addr:country":"CA","addr:housenumber":"79","addr:postcode":"G0C 1L0","addr:street":"Rue des Méandres","caravans":"yes","name":"Camping la Maison Verte du Parc Gaspésien","stars":"3","tents":"yes"}},"1019057790":{"location":[47.9937408,-66.7893897],"ct":"CA","tp":"CR","ts":"2022-01-07T12:57:33Z","tX":322,"tY":355,"tags":{}},"12042785669":{"location":[48.1052926,-66.5083625],"ct":"CA","tp":"CS","ts":"2024-07-09T03:09:10Z","tX":322,"tY":355,"tags":{"addr:housenumber":"9","addr:postcode":"g0c1n0","addr:street":"Rue Bellevue","name":"Camping Escouminac"}},"12168128678":{"location":[48.0111213,-66.6669112],"ct":"CA","tp":"SD","ts":"2024-09-10T13:31:00Z","tX":322,"tY":355,"tags":{"access":"yes","fee":"no","operator":"Municipal Dump Station","water_point":"yes"}}}