{"232127707":{"location":[55.9922462,-4.3730152],"ct":"GB","tp":"CS","ts":"2023-05-04T19:42:27Z","tX":499,"tY":318,"tags":{"addr:city":"Glasgow","addr:country":"GB","addr:place":"Auchengillan Blanefield","addr:postcode":"G63 9AU","internet_access":"wlan","name":"Auchengillan Outdoor Centre","phone":"+44 1360 770256","shower":"yes","toilets":"yes","website":"https://www.auchengillan.com/"}},"370538844":{"location":[56.0692605,-4.2463157],"ct":"GB","tp":"CR","ts":"2019-04-22T22:10:10Z","tX":499,"tY":318,"tags":{"addr:postcode":"G63 0LP","name":"Campsie Glen Holiday Park","operator":"Wood Leisure","source":"bing"}},"372719176":{"location":[56.1403943,-4.3534746],"ct":"GB","tp":"CR","ts":"2019-10-14T23:05:26Z","tX":499,"tY":318,"tags":{"caravans":"yes","name":"Trossachs Holiday Park","stars":"5","tents":"yes","website":"https://www.trossachsholidays.co.uk/"}},"399148889":{"location":[56.100337,-4.562326],"ct":"GB","tp":"CR","ts":"2022-09-19T19:11:59Z","tX":499,"tY":318,"tags":{"addr:city":"Balmaha","addr:postcode":"G63 0AL","addr:suburb":"Milarrochy Bay","caravans":"yes","dog":"yes","fee":"yes","internet_access":"wlan","motorhome":"yes","name":"Milarrochy Bay Camping And Caravanning Club Site","phone":"+44 1360 870236","shower":"yes","tents":"yes","toilets":"yes","website":"https://www.campingandcaravanningclub.co.uk/campsites/uk/glasgow/drymen/milarrochy-bay-camping-and-caravanning-club-site/"}},"436787673":{"location":[56.1595408,-4.3680356],"ct":"GB","tp":"CS","ts":"2016-08-11T21:28:04Z","tX":499,"tY":318,"tags":{"name":"Cobleland Campsite"}},"708129469":{"location":[56.0537392,-4.4322689],"ct":"GB","tp":"CS","ts":"2023-10-18T18:39:11Z","tX":499,"tY":318,"tags":{"access":"customers","addr:city":"Drymen","addr:postcode":"G63 0DN","addr:street":"Gartness Road","caravans":"no","dog":"leashed","drinking_water":"yes","fee":"yes","internet_access":"yes","internet_access:fee":"no","motorhome":"no","name":"Drymen Camping","payment:cash":"yes","phone":"+44 7494 144064","power_supply":"yes","shower":"yes","tents":"yes","toilets":"yes","website":"https://drymencamping.co.uk"}},"1087920633":{"location":[56.0767474,-4.5605507],"ct":"GB","tp":"CS","ts":"2022-08-21T13:36:47Z","tX":499,"tY":318,"tags":{"backcountry":"yes","name":"Inchcailloch Campsite","opening_hours":"24/7","operator":"Loch Lomond & The Trossachs National Park","wheelchair":"limited"}},"1276161343":{"location":[56.0520972,-4.5258706],"ct":"GB","tp":"CR","ts":"2024-04-25T16:03:27Z","tX":499,"tY":318,"tags":{"name":"Lagganbeg Caravan Park","power_supply":"yes","sanitary_dump_station":"customers","tents":"yes"}},"9773491025":{"location":[56.0950586,-4.4887931],"ct":"GB","tp":"CS","ts":"2022-05-26T19:59:34Z","tX":499,"tY":318,"tags":{}},"9897423719":{"location":[56.0819563,-4.4376512],"ct":"GB","tp":"CS","ts":"2023-06-25T15:00:12Z","tX":499,"tY":318,"tags":{"backcountry":"yes","camp_site":"basic","capacity:tents":"3","impromptu":"yes","tents":"yes"}},"11130583297":{"location":[56.0856215,-4.4643957],"ct":"GB","tp":"CS","ts":"2023-08-20T10:53:39Z","tX":499,"tY":318,"tags":{"backcountry":"yes","camp_site":"basic","capacity:tents":"2","informal":"yes","tents":"only"}},"12114107564":{"location":[56.0549291,-4.4263986],"ct":"GB","tp":"CS","ts":"2024-08-16T07:00:16Z","tX":499,"tY":318,"tags":{"backcountry":"yes"}}}