{"54190207":{"location":[54.2287679,-4.3977194],"ct":"IM","tp":"CS","ts":"2023-08-15T20:50:14Z","tX":499,"tY":327,"tags":{"name":"Laxey Campsite"}},"458533095":{"location":[54.1869625,-4.4777597],"ct":"IM","tp":"CS","ts":"2019-03-22T23:40:39Z","tX":499,"tY":327,"tags":{"name":"Glen Dhoo","postal_code":"IM4 5BJ","source":"Isle of Man Government 1:25000 map (2007)","website":"https://www.caravancampingsites.co.uk/isleofman/glendhoo.htm"}},"475393389":{"location":[54.3074437,-4.53512],"ct":"IM","tp":"CS","ts":"2023-03-25T22:49:35Z","tX":499,"tY":327,"tags":{"name":"Ballamoar Farm","name:en":"Ballamoar Farm","name:gv":"Ballamoar","phone":"+44 1624 897442","place":"farm","postal_code":"IM7 5EE","source":"Isle of Man Government 1:25000 map (2007)","website":"http://www.ballamoar.com"}},"604743423":{"location":[54.3228067,-4.4246478],"ct":"IM","tp":"CS","ts":"2021-08-24T17:17:34Z","tX":499,"tY":327,"tags":{"addr:city":"Ramsey","addr:housename":"Ballakillingan Farm","addr:postcode":"IM7 2AL","addr:street":"Lezayre Road","name":"Silly Moos Campsite","website":"https://sillymooscampsite.co.uk"}},"604743424":{"location":[54.3214749,-4.4263982],"ct":"IM","tp":"CR","ts":"2021-08-24T17:17:34Z","tX":499,"tY":327,"tags":{"name":"Silly Moos Campsite Caravan"}},"813624816":{"location":[54.1694603,-4.4633],"ct":"IM","tp":"CS","ts":"2022-05-23T10:53:18Z","tX":499,"tY":327,"tags":{"addr:city":"Douglas","addr:street":"Blackberry Lane","name":"Isle of Man Camping","phone":"+447624493848","website":"https://www.isleofmancamping.co.uk/"}},"893653070":{"location":[54.1722043,-4.5452856],"ct":"IM","tp":"CS","ts":"2023-11-14T16:56:29Z","tX":499,"tY":327,"tags":{"addr:city":"Union Mills","addr:country":"IM","addr:postcode":"IM4 4AT","addr:street":"Peel Road","name":"Glenlough","source":"Isle of Man Government 1:25000 map (2007)","website":"https://www.glenloughcampsite.com/"}},"902050657":{"location":[54.316488,-4.4826615],"ct":"IM","tp":"CS","ts":"2021-01-31T13:27:16Z","tX":499,"tY":327,"tags":{"access":"permit","fee":"yes","informal":"yes","name":"Sulby Claddagh","operator":"Isle of Man Government","reservation":"required","website:booking":"https://www.gov.im/categories/leisure-and-entertainment/camping/"}},"995420268":{"location":[54.3084169,-4.5388149],"ct":"IM","tp":"CS","ts":"2021-10-21T22:39:01Z","tX":499,"tY":327,"tags":{"addr:postcode":"IM7 5JG","addr:street":"Glen Road","name":"Ballamoar Campsite","phone":"+44 1624 898323","website":"https://ballamoarcampsite.im/"}},"1157924354":{"location":[54.3151268,-4.3961821],"ct":"IM","tp":"CS","ts":"2023-03-28T13:07:01Z","tX":499,"tY":327,"tags":{"addr:city":"Ramsey","addr:country":"IM","addr:postcode":"IM8 2TB","addr:street":"Crossags Lane","contact:phone":"+44 1624 817553","fee":"yes","name":"Crossags Campsite","surface":"grass"}},"1280889802":{"location":[54.33273,-4.3846607],"ct":"IM","tp":"CR","ts":"2024-05-08T14:17:45Z","tX":499,"tY":327,"tags":{"motorhome":"yes"}},"6503531569":{"location":[54.1796602,-4.5092358],"ct":"IM","tp":"CS","ts":"2023-02-23T18:07:42Z","tX":499,"tY":327,"tags":{"contact:facebook":"https://www.facebook.com/UnionMillsFCTTCampsite/","name":"FC Camping Union Mills","seasonal":"yes","website":"https://tt.umfc.tv/"}}}