{"12006715":{"location":[52.2116532,-4.3303655],"ct":"GB","tp":"CR","ts":"2023-11-18T23:41:00Z","tX":499,"tY":337,"tags":{"addr:city":"Cei Bach New Quay","addr:country":"GB","addr:postcode":"SA45 9SL","addr:street":"Parc-Y-Brwcs","fee":"yes","name":"Cei Bach Country Club","power_supply":"yes","tents":"yes","website":"https://www.cei-bach.co.uk/"}},"104109120":{"location":[52.2341925,-4.2743131],"ct":"GB","tp":"CR","ts":"2021-07-16T19:35:31Z","tX":499,"tY":337,"tags":{"name":"Barker's Leisure Caravan Park"}},"104109131":{"location":[52.2455865,-4.2563256],"ct":"GB","tp":"CR","ts":"2024-08-22T10:58:31Z","tX":499,"tY":337,"tags":{"name":"Aeron Coast Caravan Park"}},"105135818":{"location":[52.1916521,-4.3145157],"ct":"GB","tp":"CS","ts":"2011-03-21T09:31:19Z","tX":499,"tY":337,"tags":{"name":"Llanina Caravan Park"}},"106371417":{"location":[52.1331919,-4.5291814],"ct":"GB","tp":"CR","ts":"2021-02-18T20:38:46Z","tX":499,"tY":337,"tags":{"name":"Helyg Fach"}},"106371434":{"location":[52.1336815,-4.5246383],"ct":"GB","tp":"CR","ts":"2021-02-18T20:38:46Z","tX":499,"tY":337,"tags":{"name":"Llety"}},"106629148":{"location":[52.1653436,-4.4482304],"ct":"GB","tp":"CS","ts":"2021-07-04T21:35:44Z","tX":499,"tY":337,"tags":{"name":"Gwersyll yr Urdd Llangranog","name:cy":"Gwersyll yr Urdd Llangranog"}},"157435400":{"location":[52.1793347,-4.2725877],"ct":"GB","tp":"CR","ts":"2024-03-08T14:42:10Z","tX":499,"tY":337,"tags":{}},"159059697":{"location":[52.185796,-4.3567165],"ct":"GB","tp":"CR","ts":"2023-03-28T18:04:06Z","tX":499,"tY":337,"tags":{"caravans":"yes","name":"Pencnwc Holiday Park","phone":"+44 1545 560 479","shower":"yes","static_caravans":"yes","toilets":"yes","website":"https://www.pencnwc.co.uk/"}},"242851907":{"location":[52.2080935,-4.3488036],"ct":"GB","tp":"CR","ts":"2021-05-09T17:53:26Z","tX":499,"tY":337,"tags":{"name":"Quay West"}},"245154518":{"location":[52.1894768,-4.3578386],"ct":"GB","tp":"CR","ts":"2023-03-28T18:04:06Z","tX":499,"tY":337,"tags":{"caravans":"yes","name":"The Village Holiday Park","operator":"Vale Holiday Parks","phone":"+44 333 3582025","static_caravans":"yes","website":"https://www.valeholidayparks.com/our-parks/village-holiday-park"}},"251937236":{"location":[52.1309681,-4.5306506],"ct":"GB","tp":"CR","ts":"2021-04-24T09:14:17Z","tX":499,"tY":337,"tags":{"name":"Willows"}},"253873687":{"location":[52.1273618,-4.5286982],"ct":"GB","tp":"CR","ts":"2024-08-09T13:29:46Z","tX":499,"tY":337,"tags":{}},"291923876":{"location":[52.1355125,-4.5149912],"ct":"GB","tp":"CR","ts":"2021-02-18T20:38:46Z","tX":499,"tY":337,"tags":{}},"291926004":{"location":[52.1305972,-4.5470163],"ct":"GB","tp":"CR","ts":"2016-11-05T09:44:09Z","tX":499,"tY":337,"tags":{}},"303578407":{"location":[52.2115612,-4.3177428],"ct":"GB","tp":"CR","ts":"2019-01-13T17:54:57Z","tX":499,"tY":337,"tags":{"addr:country":"GB"}},"391517842":{"location":[52.206046,-4.3544405],"ct":"GB","tp":"CR","ts":"2020-02-10T15:15:04Z","tX":499,"tY":337,"tags":{"addr:city":"New Quay","addr:postcode":"SA45 9TQ","addr:street":"Penrhiw Pistyll Lane","facebook":"https://en-gb.facebook.com/pages/category/RV-Park/Penrhiw-Pistyll-Park-376358149429738/","name":"Penrhiw Pistyll Park","old_name":"The Bay Holiday Park","phone":"+44 1545 560413"}},"391519500":{"location":[52.1988362,-4.3593192],"ct":"GB","tp":"CR","ts":"2021-06-19T14:37:28Z","tX":499,"tY":337,"tags":{"addr:city":"Maenygroes","addr:postcode":"SA45 9RL","internet_access":"wlan","internet_access:fee":"yes","name":"Ocean Heights Leisure Park","operator":"Vale Holiday Parks","phone":"+44 1545 560309","power_supply":"yes","url":"https://www.valeholidayparks.com/our-parks/ocean-heights-leisure-park"}},"391519502":{"location":[52.2120441,-4.3687639],"ct":"GB","tp":"CR","ts":"2019-01-28T01:12:07Z","tX":499,"tY":337,"tags":{"addr:city":"New Quay","addr:postcode":"SA45 9TY","name":"Neuadd Caravan Park","phone":"+44 1545 560709","sanitary_dump_station":"yes","website":"https://www.neuaddcaravanpark.com/"}},"391519918":{"location":[52.188204,-4.4047686],"ct":"GB","tp":"CR","ts":"2020-02-10T15:15:04Z","tX":499,"tY":337,"tags":{"addr:city":"Cwmtydu","addr:postcode":"SA44 6LQ","description":"Static caravans for sale and rent with camping facilities.","facebook":"https://en-gb.facebook.com/TyduValeCaravanPark/","name":"Tydu Vale Caravan Park","phone":"+44 7972 647557","power_supply":"yes"}},"391520187":{"location":[52.1444501,-4.4055437],"ct":"GB","tp":"CR","ts":"2021-05-09T17:09:00Z","tX":499,"tY":337,"tags":{"addr:postcode":"SA44 6HF","name":"Greenfields Holiday Park"}},"391520556":{"location":[52.1403868,-4.4817323],"ct":"GB","tp":"CR","ts":"2021-01-28T12:59:56Z","tX":499,"tY":337,"tags":{"name":"Maes Glas"}},"391532340":{"location":[52.2078353,-4.3415963],"ct":"GB","tp":"CR","ts":"2021-05-09T17:53:26Z","tX":499,"tY":337,"tags":{"name":"Schooner Park"}},"391532836":{"location":[52.2075015,-4.3319014],"ct":"GB","tp":"CR","ts":"2024-02-25T09:02:29Z","tX":499,"tY":337,"tags":{"fee":"yes","name":"Frondeg Caravan Park","note":"This caravan park appears to be a private one for static caravan owners. Blackhills Caravan Sales sells caravans here.","operator":"Blackhills Caravan Sales","website":"https://www.blackhillscaravans.co.uk/caravan-sites/frondeg-caravan-park"}},"651689050":{"location":[52.1566844,-4.4616004],"ct":"GB","tp":"CR","ts":"2021-05-26T17:36:50Z","tX":499,"tY":337,"tags":{}},"667048021":{"location":[52.2055905,-4.3738566],"ct":"GB","tp":"CR","ts":"2021-05-09T18:41:26Z","tX":499,"tY":337,"tags":{"addr:city":"New Quay","caravans":"yes","name":"Ty Rhos Farm Caravaning and Camping","operator":"Ty Rhos Farm","phone":"+44 1545 560457","power_supply":"yes","sanitary_dump_station":"yes","tents":"yes","website":"https://www.tyrhos.co.uk/"}},"667309071":{"location":[52.1984684,-4.3742046],"ct":"GB","tp":"CR","ts":"2022-03-12T09:46:47Z","tX":499,"tY":337,"tags":{"name":"Rhyd-y-Ferwig"}},"669824273":{"location":[52.1718707,-4.3473419],"ct":"GB","tp":"CR","ts":"2024-05-15T23:30:22Z","tX":499,"tY":337,"tags":{"addr:city":"Pentre'r Bryn","addr:postcode":"SA44 6JZ","internet_access":"wlan","internet_access:fee":"no","name":"Brownhill Holiday Park","phone":"+44 1545 560288","power_supply":"yes","sanitary_dump_station":"yes","website":"https://brownhillholidaypark.co.uk/"}},"672184120":{"location":[52.1843922,-4.3665386],"ct":"GB","tp":"CR","ts":"2023-03-28T18:05:50Z","tX":499,"tY":337,"tags":{"addr:city":"Cross Inn","addr:housename":"Llwynhelyg","addr:postcode":"SA44 6LW","caravans":"yes","internet_access":"wlan","internet_access:fee":"no","name":"Cardigan Bay Camping and Caravanning Club Site","phone":"+44 1545 560029","power_supply":"yes","shower":"yes","tents":"yes","toilets":"yes","url":"https://www.campingandcaravanningclub.co.uk/campsites/uk/ceredigion/llandysul/cardiganbay"}},"672419897":{"location":[52.1834115,-4.3897733],"ct":"GB","tp":"CR","ts":"2019-02-22T23:20:35Z","tX":499,"tY":337,"tags":{"addr:city":"Nanternis","internet_access":"wlan","internet_access:fee":"no","name":"Llainfran Campsite","operator":"Llainfran Holidays","phone":"+44 1545 561243","power_supply":"yes","url":"https://www.llainfran.co.uk/our-camp-site"}},"673664597":{"location":[52.177678,-4.3488782],"ct":"GB","tp":"CR","ts":"2019-02-28T18:04:29Z","tX":499,"tY":337,"tags":{"fixme":"Everything I can find points to this being called Penlon Holiday Park, operated by Vale Holiday Parks.  The Vale website shows no trace of it in their empire."}},"823130827":{"location":[52.1176122,-4.4876325],"ct":"GB","tp":"CR","ts":"2020-07-05T13:59:07Z","tX":499,"tY":337,"tags":{"addr:city":"Glynarthen","addr:housename":"Cefnllaethdre","capacity":"5","facebook":"https://www.facebook.com/cefnllaethdre/","name":"Cefnllaethdre Caravan Site","operator":"Cefnllaethdre","phone":"+44 1239 810 432","power_supply":"yes","sanitary_dump_station":"yes","tents":"no","url":"http://www.cefnllaethdre.co.uk/caravan-site/"}},"846161992":{"location":[52.130563,-4.4543971],"ct":"GB","tp":"CS","ts":"2018-12-02T12:38:19Z","tX":499,"tY":337,"tags":{"name":"Brynawelon Touring & Camping Park","phone":"+44 1239 654548"}},"908530353":{"location":[52.134153,-4.5209323],"ct":"GB","tp":"CS","ts":"2021-02-18T20:38:46Z","tX":499,"tY":337,"tags":{}},"941061522":{"location":[52.2092947,-4.3423635],"ct":"GB","tp":"CR","ts":"2021-05-09T17:37:21Z","tX":499,"tY":337,"tags":{}},"956400018":{"location":[52.1658033,-4.429113],"ct":"GB","tp":"CR","ts":"2024-04-03T22:29:36Z","tX":499,"tY":337,"tags":{"name":"Gilfach"}},"1003368484":{"location":[52.1536007,-4.3693646],"ct":"GB","tp":"CS","ts":"2022-05-25T01:37:58Z","tX":499,"tY":337,"tags":{"addr:city":"Llandysul","addr:housename":"Gellie","addr:postcode":"SA44 6BG","addr:street":"Plwmp","name":"Liahona Gellie Camp Site","phone":"+44 7989 798037","website":"https://www.gellie-camping.co.uk/"}},"1026475569":{"location":[52.1609317,-4.3268354],"ct":"GB","tp":"CR","ts":"2022-01-31T17:55:36Z","tX":499,"tY":337,"tags":{}},"1034401464":{"location":[52.2064712,-4.2866074],"ct":"GB","tp":"CR","ts":"2024-04-03T14:18:05Z","tX":499,"tY":337,"tags":{"addr:city":"Aberaeron","addr:postcode":"SA46 0HL","description":"Farm Shop, Butchery, Bistro, Function Room & Caravan Site","email":"info@bargoedfarm.co.uk","internet_access":"wlan","internet_access:fee":"customers","name":"Bargoed Farm Caravan Park","phone":"+44 1545 580947","power_supply":"yes","reservation":"yes","sanitary_dump_station":"yes","website":"https://www.bargoedfarm.co.uk/"}},"1054305954":{"location":[52.2014984,-4.2630745],"ct":"GB","tp":"CR","ts":"2022-04-24T01:37:22Z","tX":499,"tY":337,"tags":{}},"6615617323":{"location":[52.077839,-4.4379493],"ct":"GB","tp":"CS","ts":"2021-01-01T12:47:42Z","tX":499,"tY":337,"tags":{"addr:city":"Brongest","addr:postcode":"SA38 9EX","description":"small campsite hot showers toilet nearest shops 4 miles in Newcastle Emlyn. \nMeadowcamping@outlook.com","email":"Meadowcamping@outlook.com","fixme":"survey;fix address","name":"Meadow Camping","phone":"+44 7541 783713"}},"9312271817":{"location":[52.1971971,-4.2714533],"ct":"GB","tp":"CR","ts":"2022-01-20T23:40:28Z","tX":499,"tY":337,"tags":{"internet_access":"wlan","name":"Shawsmead Caravan and Motorhome Club Site","name:en":"Shawsmead Caravan and Motorhome Club Site","website":"https://www.caravanclub.co.uk/club-sites/wales/ceredigion/shawsmead-caravan-club-site/"}},"11660914169":{"location":[52.2054046,-4.3301606],"ct":"GB","tp":"CR","ts":"2024-02-25T09:48:38Z","tX":499,"tY":337,"tags":{"drinking_water":"yes","fee":"yes","internet_access":"wlan","name":"Wern Mill Caravan Park","phone":"01545 580221","power_supply":"yes","sanitary_dump_station":"yes","toilets":"yes","website":"https://wernmillcaravanpark.co.uk/","wheelchair":"yes"}},"7684999051":{"location":[52.1174462,-4.487034],"ct":"GB","tp":"SD","ts":"2020-07-05T13:59:07Z","tX":499,"tY":337,"tags":{}}}