{"104510292":{"location":[51.7459322,-4.5480363],"ct":"GB","tp":"CR","ts":"2023-10-20T14:41:14Z","tX":499,"tY":339,"tags":{"name":"Pendine Sands Holiday Park"}},"104510294":{"location":[51.7440056,-4.5588779],"ct":"GB","tp":"CR","ts":"2023-10-23T15:34:46Z","tX":499,"tY":339,"tags":{"addr:city":"Carmarthen","addr:country":"GB","addr:postcode":"SA33 4NZ","addr:street":"Marsh Road","addr:village":"Pendine","brand":"Parkdean Resorts","brand:wikidata":"Q7138226","contact:website":"https://www.parkdeanresorts.co.uk/location/wales/pendine-sands/","fhrs:id":"117660","name":"Pendine Sands Holiday Park","operator":"Parkdean Resorts UK Limited"}},"104510307":{"location":[51.7453737,-4.5539248],"ct":"GB","tp":"CR","ts":"2023-10-23T15:20:51Z","tX":499,"tY":339,"tags":{}},"104570373":{"location":[51.7785346,-4.4658521],"ct":"GB","tp":"CR","ts":"2023-11-03T14:30:32Z","tX":499,"tY":339,"tags":{"name":"Ants Hill Caravan Park","phone":"+44 7977 110095","residential":"trailer_park"}},"104570375":{"location":[51.7784109,-4.4677268],"ct":"GB","tp":"CS","ts":"2023-10-03T11:39:27Z","tX":499,"tY":339,"tags":{"fee":"yes","name":"Ants Hill Caravan Park (camp site)"}},"117329587":{"location":[51.6805219,-4.2581415],"ct":"GB","tp":"CR","ts":"2021-11-07T09:59:06Z","tX":499,"tY":339,"tags":{}},"145411093":{"location":[51.6180564,-4.2703103],"ct":"GB","tp":"CR","ts":"2023-03-24T23:31:29Z","tX":499,"tY":339,"tags":{"caravans":"no","name":"Whitford Bay Caravan Park","phone":"+44 1792 391203","static_caravans":"only","website":"https://www.whitefordbay.co.uk/"}},"223417236":{"location":[51.7403765,-4.3590695],"ct":"GB","tp":"CR","ts":"2024-03-22T16:48:04Z","tX":499,"tY":339,"tags":{"brand":"Parkdean Resorts","brand:wikidata":"Q7138226","contact:website":"https://www.parkdeanresorts.co.uk/location/wales/carmarthen-bay/","name":"Carmarthen Bay Holiday Park","operator":"Parkdean Resorts UK Limited"}},"235472698":{"location":[51.6830163,-4.2979437],"ct":"GB","tp":"CR","ts":"2024-06-28T12:26:54Z","tX":499,"tY":339,"tags":{"name":"Pembrey Country Park Caravan Club Site","name:cy":"Safle Clwb Carafannau Parc Gwledig Pen-bre"}},"384412240":{"location":[51.8154394,-4.33934],"ct":"GB","tp":"CS","ts":"2009-04-25T09:39:54Z","tX":499,"tY":339,"tags":{"name":"Church House Farm"}},"402384199":{"location":[51.7403308,-4.359845],"ct":"GB","tp":"CR","ts":"2016-03-08T13:54:29Z","tX":499,"tY":339,"tags":{}},"907488391":{"location":[51.7934496,-4.402555],"ct":"GB","tp":"CR","ts":"2024-06-14T08:45:11Z","tX":499,"tY":339,"tags":{"name":"Stephan Valley Caravan Park"}},"935324623":{"location":[51.8192462,-4.5220411],"ct":"GB","tp":"CR","ts":"2023-06-12T20:00:10Z","tX":499,"tY":339,"tags":{}},"951520073":{"location":[51.7374303,-4.2398828],"ct":"GB","tp":"CR","ts":"2021-06-05T21:46:48Z","tX":499,"tY":339,"tags":{"addr:place":"Glyn Abbey Golf Club","addr:postcode":"SA17 4LB","addr:village":"Trimsaran","capacity":"5","caravans":"yes","facebook":"https://www.facebook.com/glynabbeygolfclub","name":"Fforest Fach Caravan Park","operator":"Glyn Abbey Golf Club","permanent_camping":"no","phone":"+44 1554 810 278","power_supply":"yes","sanitary_dump_station":"yes","static_caravans":"no","tents":"no","url":"http://www.glynabbey.co.uk/stay-play/fforest-fach-caravan-park/"}},"999847976":{"location":[51.6828759,-4.3089165],"ct":"GB","tp":"CS","ts":"2024-06-28T12:26:54Z","tX":499,"tY":339,"tags":{}},"1192927856":{"location":[51.7391528,-4.2912936],"ct":"GB","tp":"CR","ts":"2023-07-28T12:21:04Z","tX":499,"tY":339,"tags":{}},"1209905693":{"location":[51.7702259,-4.3903004],"ct":"GB","tp":"CR","ts":"2024-07-30T21:13:10Z","tX":499,"tY":339,"tags":{"addr:city":"Caerfyrddin","addr:city:cy":"Caerfyrddin","addr:city:en":"Carmarthen","addr:country":"GB","addr:housename":"Sunrise Bay Caravan Park","addr:postcode":"SA33 5LP","addr:suburb":"Llansteffan","email":"drennie953@aol.com","fixme":"South border needs survey","mobile":"+44 7789526755","name":"Sunrise Bay Caravan Park","phone":"+44 1267 241394","website":"https://www.sunrisebay.co.uk/"}},"1211140327":{"location":[51.7478471,-4.3466665],"ct":"GB","tp":"CR","ts":"2023-09-27T01:05:43Z","tX":499,"tY":339,"tags":{}},"5107154822":{"location":[51.7496927,-4.480071],"ct":"GB","tp":"CS","ts":"2018-12-02T12:38:51Z","tX":499,"tY":339,"tags":{"addr:postcode":"SA33 4NU","addr:street":"Broadway","name":"Laugharne","operator":"Sandra Flaxman","phone":"+44 1994 427645","website":"http://nineacrescampingpark.co.uk"}},"9866136823":{"location":[51.7749651,-4.3598856],"ct":"GB","tp":"CS","ts":"2022-07-04T15:26:56Z","tX":499,"tY":339,"tags":{"access":"private","capacity:caravans":"30","capacity:persons":"100","charge":"15 Pounds for Tent","fee":"yes","name":"Ferryside Farms","operator":"Phil","payment:cash":"yes","payment:credit_cards":"yes"}}}