{"1966991":{"location":[51.5911404,-4.2886672],"ct":"GB","tp":"CR","ts":"2023-04-30T17:35:45Z","tX":499,"tY":340,"tags":{"contact:email":"hillendcamping@hotmail.co.uk","contact:facebook":"https://www.facebook.com/Hillend-Camping-Caravan-Park-111631537269912","contact:instagram":"hillendcampsite","contact:website":"https://www.hillendcamping.com/","name":"Hillend Caravan Park"}},"2167614":{"location":[51.5659997,-4.2594018],"ct":"GB","tp":"CS","ts":"2012-05-02T12:57:40Z","tX":499,"tY":340,"tags":{"name":"Pitton Cross Caravan & Camping Park"}},"11246454":{"location":[51.5963018,-4.2890446],"ct":"GB","tp":"CS","ts":"2024-08-13T09:04:47Z","tX":499,"tY":340,"tags":{"addr:city":"Llangennith","addr:housename":"Hillend Camping & Caravan Park","addr:postcode":"SA3 1JD","addr:street":"Hillend Carpark Track","dog":"no","drinking_water":"yes","fee":"yes","maxtents":"300","motor_vehicle":"yes","name":"Hillend Camping Park","phone":"+44 179 23 86 204","shower":"yes","static_caravans":"yes","tents":"yes","toilets":"yes","website":"https://www.hillendcamping.com/"}},"132522820":{"location":[51.5648148,-4.2621778],"ct":"GB","tp":"CS","ts":"2011-10-07T11:48:26Z","tX":499,"tY":340,"tags":{"name":"Pitton Cross Caravan & Camping Park"}},"145411094":{"location":[51.6111463,-4.286996],"ct":"GB","tp":"CR","ts":"2023-08-05T12:17:42Z","tX":499,"tY":340,"tags":{"addr:city":"Swansea","addr:country":"GB","addr:housename":"Broughton Farm Caravan Park","addr:postcode":"SA3 1JP","addr:street":"Llangennith","name":"Broughton Farm Caravan Park","phone":"+44 1792 390000","website":"https://www.broughtonfarmcaravanpark.co.uk/"}},"145411097":{"location":[51.6142998,-4.2729788],"ct":"GB","tp":"CR","ts":"2023-03-24T23:31:29Z","tX":499,"tY":340,"tags":{"name":"Llanmadoc Touring Caravan Site","phone":"+44 7837474084","shower":"yes","toilets":"yes"}},"713868436":{"location":[51.6015228,-4.2758709],"ct":"GB","tp":"CS","ts":"2023-10-14T23:36:05Z","tX":499,"tY":340,"tags":{"name":"Bank Farm Campsite"}},"1157082923":{"location":[51.6164461,-4.2667113],"ct":"GB","tp":"CS","ts":"2023-03-24T23:31:29Z","tX":499,"tY":340,"tags":{"camp_site":"basic","capacity":"5","caravans":"yes","email":"enquiries@phillistonegower.co.uk","name":"Phillistone Farm","phone":"+44 7967 820990","tents":"yes","website":"https://www.phillistonegower.co.uk/"}},"1157084470":{"location":[51.6021028,-4.2406666],"ct":"GB","tp":"CS","ts":"2023-08-05T10:54:05Z","tX":499,"tY":340,"tags":{"addr:city":"Llangennith","addr:housename":"Kennexstone Farm","addr:postcode":"SA3 1HS","alt_name":"Kennexstone Camping & Touring Park","caravans":"yes","email":"info@kennexstone.co.uk","motorhome":"yes","name":"Kennexstone Camping & Touring Park","operator":"Kennexstone Leisure Ltd","phone":"+44 1792 386 790","shower":"yes","tents":"yes","toilets":"yes","website":"https://www.gowercamping.co.uk/"}},"1228946490":{"location":[51.5818775,-4.2213626],"ct":"GB","tp":"CR","ts":"2023-12-05T21:37:37Z","tX":499,"tY":340,"tags":{}},"8928369094":{"location":[51.5627767,-4.2322579],"ct":"GB","tp":"CR","ts":"2021-07-17T10:11:17Z","tX":499,"tY":340,"tags":{"name":"Buzzards Rest CL Caravan Site","website":"https://www.caravanclub.co.uk/certificated-locations/wales/swansea/rhossili/buzzards-rest/"}}}