{"77497859":{"location":[50.9913451,-4.4746729],"ct":"GB","tp":"CR","ts":"2023-11-03T17:37:44Z","tX":499,"tY":342,"tags":{"drinking_water":"yes","fee":"no","name":"South Lane Caravan Park","toilets":"yes"}},"100506078":{"location":[50.9848271,-4.3554423],"ct":"GB","tp":"CR","ts":"2024-07-09T10:58:25Z","tX":499,"tY":342,"tags":{"brand":"Parkdean Resorts","brand:wikidata":"Q7138226","contact:website":"https://www.parkdeanresorts.co.uk/location/devon/bideford-bay/","fee":"yes","name":"Bideford Bay Holiday Park","operator":"Parkdean Resorts UK Limited","power_supply":"yes"}},"165498231":{"location":[51.1441007,-4.2225707],"ct":"GB","tp":"CR","ts":"2023-03-28T20:17:35Z","tX":499,"tY":342,"tags":{"email":"rob@putsborough.com","name":"Putsborough Beach Site","phone":"+44 1271 890231; +44 7774 887952","shower":"no","toilets":"yes","website":"https://www.putsborough.com/touring-caravan-parks/"}},"222104763":{"location":[51.0436732,-4.2285686],"ct":"GB","tp":"CR","ts":"2024-03-18T17:36:37Z","tX":499,"tY":342,"tags":{"addr:city":"Bideford","addr:country":"GB","addr:postcode":"EX39 1HD","addr:street":"Golf Links Road","addr:suburb":"Westward Ho!","contact:phone":"+44 1237 471833","name":"Surf Bay Holiday Park","note":"looks like static caravans only"}},"309708802":{"location":[51.1367583,-4.2302288],"ct":"GB","tp":"CS","ts":"2023-03-28T20:17:35Z","tX":499,"tY":342,"tags":{"caravans":"no","email":"cherrytreefarmcampsite@gmail.com","name":"Cherry Tree Farm Campsite","phone":"+44 1271 890495","shower":"yes","tents":"yes","toilets":"yes","website":"https://www.cherrytreecampingcroyde.co.uk/"}},"583903493":{"location":[51.012974,-4.2682639],"ct":"GB","tp":"CS","ts":"2023-04-17T19:01:07Z","tX":499,"tY":342,"tags":{"name":"Westacott Farm Campsite.","website":"https://www.livitadventures.com/"}},"830268115":{"location":[51.1348739,-4.2351224],"ct":"GB","tp":"CR","ts":"2024-05-07T10:09:04Z","tX":499,"tY":342,"tags":{"addr:city":"Braunton","addr:postcode":"EX33 1NP","brand":"Parkdean Resorts","brand:wikidata":"Q7138226","caravans":"yes","contact:website":"https://www.parkdeanresorts.co.uk/location/devon/ruda/","name":"Ruda Holiday Park","operator":"Parkdean Resorts UK Limited","phone":"+44 1271 446 192","shower":"yes","tents":"yes","toilets":"yes","wikidata":"Q96483154"}},"904485387":{"location":[50.9797474,-4.3467518],"ct":"GB","tp":"CR","ts":"2024-07-04T15:55:48Z","tX":499,"tY":342,"tags":{"addr:city":"Bideford","addr:housename":"Walland Farm","addr:postcode":"EX39 5DP","addr:street":"Buck's Cross","description":"caravan storage","name":"Hill Top Caravans"}},"973498492":{"location":[51.1318819,-4.2258758],"ct":"GB","tp":"CS","ts":"2023-04-16T12:39:24Z","tX":499,"tY":342,"tags":{}},"1154505806":{"location":[51.1280294,-4.2267021],"ct":"GB","tp":"CR","ts":"2024-04-02T10:57:57Z","tX":499,"tY":342,"tags":{"name":"Bay View Caravan Park"}},"1158016777":{"location":[51.1335185,-4.2334138],"ct":"GB","tp":"CS","ts":"2023-03-28T20:17:35Z","tX":499,"tY":342,"tags":{"cabins":"yes","caravans":"yes","email":"croydecoastalcamping@gmail.com","name":"Croyde Coastal Camping","shower":"yes","tents":"yes","toilets":"yes","website":"https://www.croydecoastalcamping.co.uk/"}},"1158016778":{"location":[51.1360779,-4.2394204],"ct":"GB","tp":"CS","ts":"2023-05-03T23:44:59Z","tX":499,"tY":342,"tags":{"cabins":"yes","caravans":"no","landcover":"grass","motorhome":"no","name":"Freshwell Camping","phone":"+44 7376497637","shower":"yes","tents":"yes","toilets":"yes","website":"https://www.croydefreshwellcamping.co.uk/"}},"1158016779":{"location":[51.1349927,-4.2394942],"ct":"GB","tp":"CS","ts":"2023-04-16T09:15:47Z","tX":499,"tY":342,"tags":{"caravans":"yes","email":"oceanpitchcroyde@gmail.com","motorhome":"yes","name":"Ocean Pitch Campsite","old_name":"Mitchum's Camp Site","phone":"+44 7581024348","shower":"yes","static_caravans":"no","tents":"yes","toilets":"yes"}},"1168835890":{"location":[51.1317027,-4.224148],"ct":"GB","tp":"CS","ts":"2023-05-04T23:42:17Z","tX":499,"tY":342,"tags":{"name":"The Orchard","phone":"+44 7779 371195","website":"https://www.theorchardcampsitecroyde.co.uk/"}},"1268346956":{"location":[51.126514,-4.2266335],"ct":"GB","tp":"CS","ts":"2024-04-02T10:57:57Z","tX":499,"tY":342,"tags":{"surface":"grass"}},"4326028589":{"location":[50.9918609,-4.5179993],"ct":"GB","tp":"CS","ts":"2022-08-12T09:15:04Z","tX":499,"tY":342,"tags":{"name":"Stroke Barton Campsite","website":"http://www.westcountry-camping.co.uk/index.php"}},"7803558785":{"location":[50.9630437,-4.3964341],"ct":"GB","tp":"CS","ts":"2022-11-05T01:21:35Z","tX":499,"tY":342,"tags":{"name":"Ashcroft Farm Campsite"}},"11939912973":{"location":[51.0060739,-4.4930196],"ct":"GB","tp":"CS","ts":"2024-05-28T15:15:31Z","tX":499,"tY":342,"tags":{"name":"Camping and caravan site","phone":"01237441919"}},"4325984995":{"location":[50.9912909,-4.5157871],"ct":"GB","tp":"CR","ts":"2021-02-26T18:39:12Z","tX":499,"tY":342,"tags":{}},"7747799871":{"location":[51.1356231,-4.2364485],"ct":"GB","tp":"SD","ts":"2020-07-25T23:33:22Z","tX":499,"tY":342,"tags":{}}}