{"126117203":{"location":[50.8442923,-4.5150851],"ct":"GB","tp":"CR","ts":"2023-04-12T20:35:00Z","tX":499,"tY":343,"tags":{"addr:city":"Bude","addr:housename":"Wooda Farm Holiday Park","addr:postcode":"EX23 9HJ","name":"Wooda Farm Park","phone":"+44 1288 352069","website":"https://www.wooda.co.uk/"}},"137154423":{"location":[50.784193,-4.5333836],"ct":"GB","tp":"CR","ts":"2014-11-10T22:30:26Z","tX":499,"tY":343,"tags":{"name":"Bude Meadows Caravan Site"}},"137161069":{"location":[50.7546391,-4.5507834],"ct":"GB","tp":"CR","ts":"2011-11-15T22:04:53Z","tX":499,"tY":343,"tags":{"name":"Cornish Coasts Camping and Caravan Park"}},"159535386":{"location":[50.7767844,-4.5523639],"ct":"GB","tp":"CR","ts":"2012-08-13T12:25:36Z","tX":499,"tY":343,"tags":{"name":"Widemouth Bay Caravan Park"}},"178879078":{"location":[50.8441285,-4.5477661],"ct":"GB","tp":"CR","ts":"2022-02-27T16:45:35Z","tX":499,"tY":343,"tags":{"addr:city":"Bude","addr:housename":"Bude Holiday Park","addr:postcode":"EX23 9EE","addr:street":"Maer Lane","brand":"Aria Resorts","brand:wikidata":"Q107920199","contact:website":"https://www.ariaresorts.co.uk/our-resorts/cornwall/bude-holiday-resort/","name":"Bude Holiday Park"}},"233820580":{"location":[50.7977785,-4.3187833],"ct":"GB","tp":"CS","ts":"2013-08-17T07:05:27Z","tX":499,"tY":343,"tags":{"name":"Headon Farm Caravan Park"}},"312141320":{"location":[50.7825319,-4.5328394],"ct":"GB","tp":"CR","ts":"2021-08-05T07:58:40Z","tX":499,"tY":343,"tags":{"brand":"Aria Resorts","brand:wikidata":"Q107920199","contact:website":"https://www.ariaresortshomes.co.uk/our-locations/cornwall/widemouth-fields/","name":"Widemouth Fields"}},"511322699":{"location":[50.8704309,-4.4943294],"ct":"GB","tp":"CS","ts":"2017-07-31T17:47:19Z","tX":499,"tY":343,"tags":{"capacity":"216","name":"Pentire Haven Holiday Park","operator":"Pentire Haven Holiday Park","phone":"+44 1288 321601","website":"http://www.pentirehaven.co.uk","wheelchair":"yes"}},"1050979220":{"location":[50.8793043,-4.4355731],"ct":"GB","tp":"CS","ts":"2022-04-11T09:27:44Z","tX":499,"tY":343,"tags":{"access":"customers","name":"Tamar campsite","operator":"Southwest Lakes","website":"https://www.swlakestrust.org.uk/Pages/Site/activities/Category/tamar-lakes"}},"1112415718":{"location":[50.8198454,-4.4650385],"ct":"GB","tp":"CR","ts":"2022-11-12T02:38:51Z","tX":499,"tY":343,"tags":{"name":"Red Post Inn Holiday Park"}},"1194308228":{"location":[50.8250681,-4.5504228],"ct":"GB","tp":"CS","ts":"2023-08-03T14:17:32Z","tX":499,"tY":343,"tags":{"name":"Efford Camping","website":"https://effordcamping.co.uk/"}},"1303981194":{"location":[50.8690146,-4.5196605],"ct":"GB","tp":"CR","ts":"2024-07-26T21:22:03Z","tX":499,"tY":343,"tags":{"drinking_water":"yes","name":"Bryder Farm Camping","phone":"+44 7765 028322","power_supply":"yes","sanitary_dump_station":"yes","toilets":"yes"}},"1343010350":{"location":[50.8793384,-4.4357311],"ct":"GB","tp":"CS","ts":"2022-04-11T09:27:44Z","tX":499,"tY":343,"tags":{"name":"Tamar campsite","operator":"Southwest lakes","website":"https://www.swlakestrust.org.uk/Pages/Site/activities/Category/tamar-lakes"}},"1708341339":{"location":[50.7733513,-4.5628773],"ct":"GB","tp":"CS","ts":"2024-08-08T10:49:50Z","tX":499,"tY":343,"tags":{"name":"Penhalt Farm Campsite","operator":"Penhalt Farm"}},"2009337986":{"location":[50.8191947,-4.4685017],"ct":"GB","tp":"CR","ts":"2012-11-11T20:00:28Z","tX":499,"tY":343,"tags":{}}}