{"27715699":{"location":[48.6331421,-4.452094],"ct":"FR","tp":"PK","ts":"2022-09-03T23:57:13Z","tX":499,"tY":353,"tags":{"access":"yes","fee":"no","motorhome":"yes","note":"Camping-car autorisé.","opening_hours":"24/7","parking":"surface","surface":"dirt"}},"37652362":{"location":[48.6416162,-4.2778535],"ct":"FR","tp":"CS","ts":"2023-05-18T17:37:39Z","tX":499,"tY":353,"tags":{"addr:street":"La Sablière","caravans":"yes","drinking_water":"yes","name":"Camping de Ker Emma","name:br":"Tachenn-gampiñ Keremma","phone":"+332 98 61 62 79","power_supply":"yes","shower":"yes","source:name:br":"proper translation","stars":"3","tents":"200","toilets":"yes","website":"https://campingdekeremma.fr"}},"118300087":{"location":[48.6534919,-4.3016047],"ct":"FR","tp":"CS","ts":"2025-05-09T12:06:21Z","tX":499,"tY":353,"tags":{"access":"customers","addr:city":"Plounéour-Brignogan-Plages","addr:postcode":"29890","addr:street":"Rue de Beg Kuleren","camp_site":"serviced","caravans":"yes","contact:phone":"+33 2 98 83 41 87","drinking_water":"yes","name":"Slow Village Breizh Légendes","opening_hours":"Mo-Fr 08:00-13:00, 14:00-19:00; Sa 08:00-12:00, 14:00-19:00; Su 08:00-13:00, 14:00-19:00","phone":"+33 2 98 83 41 87","power_supply":"yes","shower":"yes","stars":"3","static_caravans":"yes","tents":"yes","toilets":"yes","website":"https://www.slow-village.com/destinations/bretagne/breizh-legendes/"}},"122452856":{"location":[48.6507193,-4.431443],"ct":"FR","tp":"CS","ts":"2021-10-22T09:11:48Z","tX":499,"tY":353,"tags":{"addr:street":"Pointe de Neiz Vran","caravans":"yes","name":"Camping de Neiz Vran","name:br":"Tachenn-gampiñ Neizh Vran","phone":"+33 2 98 25 63 11","source:name:br":"proper translation","stars":"1","tents":"yes"}},"123548070":{"location":[48.657515,-4.3284929],"ct":"FR","tp":"CS","ts":"2017-09-18T16:09:43Z","tX":499,"tY":353,"tags":{"email":"lucien.maze@freesbee.fr","name":"Camping Les Nympheas","phone":"+33 2 98 83 52 57","stars":"2","website":"www.campinglesnympheas.co"}},"131625136":{"location":[48.672025,-4.3293039],"ct":"FR","tp":"CS","ts":"2023-08-22T06:52:53Z","tX":499,"tY":353,"tags":{"access":"customers","addr:street":"Keravézan","caravans":"yes","fee":"yes","name":"Camping de la Côte des Légendes","name:br":"Tachenn-gampiñ Aod ar Mojennoù","stars":"2","static_caravans":"yes","tents":"yes","website":"http://www.campingcotedeslegendes.com/"}},"131665301":{"location":[48.4746406,-4.5292734],"ct":"FR","tp":"CS","ts":"2024-06-30T16:40:59Z","tX":499,"tY":353,"tags":{"addr:street":"Lac des 3 Curés","caravans":"yes","name":"Le Village-Loisirs","stars":"3","tents":"yes"}},"131870730":{"location":[48.6332446,-4.5429695],"ct":"FR","tp":"CS","ts":"2022-08-14T10:20:17Z","tX":499,"tY":353,"tags":{"addr:city":"Plouguerneau","addr:postcode":"29880","addr:street":"Mélédan","caravans":"yes","email":"camping.phare.ile.vierge@gmail.com","internet_access":"wlan","internet_access:fee":"no","name":"Camping du phare de l'île Vierge","phone":"+33 6 01 32 14 88","sanitary_dump_station":"yes","stars":"3","tents":"yes","website":"https://www.camping-phare-ile-vierge.com/"}},"131874987":{"location":[48.6309564,-4.5241929],"ct":"FR","tp":"CS","ts":"2023-04-10T18:51:38Z","tX":499,"tY":353,"tags":{"addr:city":"Plouguerneau","addr:housenumber":"400","addr:postcode":"29880","addr:street":"La Grève Blanche - St. Michel","cabins":"yes","caravans":"yes","mobile":"+33 6 83 26 51 91","motorhome":"yes","name":"Camping de la Grève Blanche","name:br":"Tachenn-gampiñ an Aod Wenn","phone":"+33 2 98 04 70 35","shower":"yes","source:name:br":"proper translation","stars":"2","tents":"yes","toilets":"yes","website":"https://www.campinggreveblanche.com/"}},"131876073":{"location":[48.6305258,-4.450509],"ct":"FR","tp":"CS","ts":"2021-04-11T13:48:01Z","tX":499,"tY":353,"tags":{"addr:city":"Plouguerneau","addr:postcode":"29880","addr:street":"Route de Prat Ledan","caravans":"yes","email":"contact@campingduvougot.com","fee":"yes","internet_access":"wlan","name":"Camping du Vougot","phone":"+33 7 63 52 55 44","stars":"3","start_date":"23/04/2021-27/09/2021","tents":"yes","website":"https://www.campingduvougot.com","wheelchair":"yes"}},"131882219":{"location":[48.6627802,-4.3755739],"ct":"FR","tp":"CS","ts":"2023-07-22T13:40:43Z","tX":499,"tY":353,"tags":{"addr:street":"route de Meneham","caravans":"yes","drinking_water":"yes","name":"Camping municipal de Rudoloc","name:br":"Tachenn-gampiñ kêr Rudolog","power_supply":"yes","shower":"yes","source:name:br":"proper translation","stars":"1","tents":"yes","toilets":"yes","website":"https://www.kerlouan.fr/vie-pratique/services-municipaux-equipements/les-campings/camping-de-rudoloc-1-etoile/"}},"131885064":{"location":[48.6534661,-4.3024971],"ct":"FR","tp":"CS","ts":"2023-06-15T08:37:25Z","tX":499,"tY":353,"tags":{"addr:street":"route du Menhir","caravans":"yes","drinking_water":"yes","name":"Camping du Menhir","name:br":"Tachenn-gampiñ ar Maen-hir","power_supply":"yes","shower":"yes","source:name:br":"proper translation","stars":"2","tents":"yes","toilets":"yes"}},"197059203":{"location":[48.6478172,-4.2334928],"ct":"FR","tp":"CS","ts":"2024-06-04T18:02:02Z","tX":499,"tY":353,"tags":{"addr:city":"Plounévez-Lochrist","addr:postcode":"29430","addr:street":"Odé Vras","capacity:tents":"100","caravans":"yes","fee":"yes","name":"Camping Odé Vras","phone":"+33 2 98 61 65 17","stars":"3","static_caravans":"yes","tents":"yes","website":"https://www.campingodevras.fr/"}},"222218196":{"location":[48.590943,-4.4619857],"ct":"FR","tp":"PK","ts":"2024-09-25T21:51:39Z","tX":499,"tY":353,"tags":{"fee":"no","motorhome":"yes","parking":"surface"}},"321876218":{"location":[48.6297479,-4.4568253],"ct":"FR","tp":"PK","ts":"2022-09-03T23:58:23Z","tX":499,"tY":353,"tags":{"access":"yes","capacity:disabled":"0","fee":"no","motorhome":"yes","note":"Camping-car autorisé.","parking":"surface","source":"Mapbox;local knowledge","surface":"dirt"}},"350272688":{"location":[48.6508666,-4.3058036],"ct":"FR","tp":"PK","ts":"2024-09-26T15:50:08Z","tX":499,"tY":353,"tags":{"fee":"no","motorhome":"yes","motorhome:overnight":"yes","parking":"surface"}},"376386213":{"location":[48.6673469,-4.3656176],"ct":"FR","tp":"CR","ts":"2024-10-10T15:37:55Z","tX":499,"tY":353,"tags":{"bbq":"yes","capacity":"90","caravan_site":"motorhome_stopover","caravan_site:type":"beach","charge":"15.22 EUR","fee":"yes","internet_access":"wlan","name":"Aire de Camping-Car Plage de Meneham Finistère nord","phone":"+33 658 486232","power_supply":"yes","power_supply:charge":"4.20 EUR","power_supply:fee":"yes","power_supply:maxcurrent":"10","reservation":"no","sanitary_dump_station":"yes","socket:cee_blue":"yes","surface":"grass","tents":"no","water_point":"yes","website":"https://www.campingplagedemeneham.com/65-hebergements/47-emplacements-camping-caravaning-finistere-nord.html","wheelchair":"no"}},"431925011":{"location":[48.6198592,-4.5556767],"ct":"FR","tp":"PK","ts":"2025-01-08T18:48:41Z","tX":499,"tY":353,"tags":{"capacity":"20","description":"Mechou Kamm Doun pres l’église de Lilia","fee":"no","maxstay":"48 hours","motorhome":"yes","motorhome:overnight":"yes","name":"Mechou Kamm Doun","operator":"Commune","parking":"surface","power_supply":"no","sanitary_dump_station":"no","surface":"asphalt","water_supply":"no"}},"911563237":{"location":[48.4917602,-4.5031043],"ct":"FR","tp":"CR","ts":"2024-10-24T22:12:09Z","tX":499,"tY":353,"tags":{"access":"yes","addr:city":"Bourg-Blanc","addr:postcode":"29860","addr:street":"Rue de Brest","capacity":"20","caravan_site":"motorhome_stopover","caravan_site:type":"lake","fee":"no","maxstay":"3 nights","name":"Aire de Camping-car du Centre Nautique","opening_hours":"Mar 15-Oct 15","operator":"Ville de Bourg-Blanc","phone":"+33 298 845813","power_supply":"no","sanitary_dump_station":"yes","sanitary_dump_station:chemical_toilet":"yes","sanitary_dump_station:grey_water":"yes","sanitary_dump_station:round_drain":"yes","supervised":"no","toilets":"yes","water_point":"yes","website":"https://bourg-blanc.fr/loisirs/le-lac/aire-de-camping-cars/"}},"911709141":{"location":[48.5564552,-4.5053664],"ct":"FR","tp":"CR","ts":"2024-10-26T22:51:56Z","tX":499,"tY":353,"tags":{"access":"yes","addr:city":"Lannilis","addr:postcode":"29870","addr:street":"Fontaine Rouge","capacity":"10","caravan_site":"motorhome_stopover","caravan_site:type":"countryside;primary_way","fee":"no","internet_access":"no","maxstay":"no","name":"Aire de services de la Fontaine Rouge - Lannilis","operator":"Ville de Lannilis","power_supply":"no","sanitary_dump_station":"yes","sanitary_dump_station:chemical_toilet":"yes","sanitary_dump_station:grey_water":"yes","sanitary_dump_station:round_drain":"yes","supervised":"no","toilets":"yes","water_point":"yes"}},"911710147":{"location":[48.6330677,-4.4115197],"ct":"FR","tp":"CR","ts":"2024-10-28T23:28:29Z","tX":499,"tY":353,"tags":{"access":"yes","addr:city":"Guissény","addr:postcode":"29880","addr:street":"Rue Naig Rozmor","capacity":"4","caravan_site":"motorhome_stopover","caravan_site:type":"village","fee":"no","maxstay":"no","name":"Guissény","operator":"Ville de Guissény","power_supply":"yes","power_supply:fee":"yes","sanitary_dump_station":"yes","sanitary_dump_station:chemical_toilet":"yes","sanitary_dump_station:grey_water":"yes","sanitary_dump_station:round_drain":"yes","supervised":"no","water_point":"yes","water_point:fee":"yes","website":"https://www.cotedeslegendes.bzh/en/hebergement/aire-de-services-de-guisseny/"}},"1046478310":{"location":[48.6623595,-4.3702633],"ct":"FR","tp":"CR","ts":"2025-05-02T20:30:36Z","tX":499,"tY":353,"tags":{"caravan_site":"motorhome_stopover","caravan_site:type":"beach","fee":"no","name":"Aire Camping-car Rudoloc - Kerlouan","seasonal":"no","tents":"no","water_point":"yes","website":"https://www.kerlouan.fr/vie-pratique/services-municipaux-equipements/les-campings/camping-de-rudoloc-1-etoile/"}},"1082122603":{"location":[48.6688474,-4.3629711],"ct":"FR","tp":"CS","ts":"2022-07-28T15:29:17Z","tX":499,"tY":353,"tags":{"addr:street":"Route de Meneham","caravans":"yes","name":"Camping Plage de Ménéham","name:br":"Tachenn-gampiñ Meneham","source:name:br":"proper translation","stars":"2","tents":"yes","website":"http://www.campingplagedemeneham.com"}},"1198134492":{"location":[48.6314749,-4.3081666],"ct":"FR","tp":"CS","ts":"2023-08-14T21:08:18Z","tX":499,"tY":353,"tags":{"caravans":"no","dog":"yes","fee":"yes","internet_access":"no","motorhome":"yes","name":"Aire de Naturelle","nudism":"no","operator":"La Côte des légendes accueille","phone":"+33 2 98 83 40 69","picnic_table":"yes","power_supply":"yes","sanitary_dump_station":"customers","shower":"no","tents":"yes","website":"https://mairie-goulven.fr/decouvrir/aire-naturelle/","wheelchair":"designated"}},"1318228462":{"location":[48.6173158,-4.5532449],"ct":"FR","tp":"CR","ts":"2024-09-25T22:23:09Z","tX":499,"tY":353,"tags":{"capacity":"3","caravan_site":"motorhome_stopover","caravan_site:type":"parking_lot","caravans":"no","fee":"no","maxstay":"48 hours","name":"Stread Al Leac’h, cimetière de Lilia","surface":"asphalt","tents":"no"}},"10778890985":{"location":[48.6363004,-4.4460344],"ct":"FR","tp":"CS","ts":"2023-04-02T00:20:37Z","tX":499,"tY":353,"tags":{"addr:city":"Guissény","addr:postcode":"29880","addr:street":"Rue René Bihannic","name":"Camping du Curnic","start_date":"2023-06-09"}},"11862873833":{"location":[48.6558245,-4.3918078],"ct":"FR","tp":"CS","ts":"2024-07-21T12:46:41Z","tX":499,"tY":353,"tags":{"addr:city":"Kerlouan","addr:housenumber":"142","addr:postcode":"29890","addr:street":"Rue du Vivier","caravans":"yes","drinking_water":"yes","name":"Camping Le Vivier","operator":"Nelly Le Bras","shower":"yes","tents":"yes","website":"https://vacancesakerlouan.e-monsite.com/"}},"5451426728":{"location":[48.6058453,-4.5092575],"ct":"FR","tp":"CR","ts":"2024-10-25T08:55:52Z","tX":499,"tY":353,"tags":{"caravan_site":"motorhome_stopover","caravan_site:type":"parking_lot","caravans":"no","drinking_water":"no","fee":"no","maxstay":"48 hours","name":"Aire Rue du Colombier - rn Plouguerneau","power_supply":"no","sanitary_dump_station":"no","surface":"asphalt","tents":"no","toilets":"no"}},"5451431128":{"location":[48.6109755,-4.5059658],"ct":"FR","tp":"CR","ts":"2024-09-25T22:14:30Z","tX":499,"tY":353,"tags":{"capacity":"3","caravan_site":"motorhome_stopover","caravan_site:type":"sports_centre","caravans":"no","fee":"no","maxstay":"48 hours","name":"Aire complexe sportif Kroas Kenan","power_supply":"no","sanitary_dump_station":"no","tents":"no"}},"5451432020":{"location":[48.6064428,-4.5041834],"ct":"FR","tp":"CR","ts":"2024-10-31T18:23:56Z","tX":499,"tY":353,"tags":{"capacity":"2","caravan_site":"motorhome_stopover","caravan_site:type":"village","drinking_water":"no","fee":"no","maxstay":"48 hours","name":"Aire place du Verger - Plouguerneau","power_supply":"no","sanitary_dump_station":"no","surface":"asphalt","toilets":"no","website":"https://www.abers-tourisme.com/hebergement/aire-de-service-communale-de-plouguerneau/"}},"12115593002":{"location":[48.5599455,-4.3349657],"ct":"FR","tp":"CR","ts":"2024-10-08T16:08:59Z","tX":499,"tY":353,"tags":{"caravan_site":"motorhome_stopover","caravan_site:type":"village","caravans":"no","fee":"no","name":"Aire de Camping-Car Freppel","name:br":"Leur kirri-kampiñ Freppel","name:en":"Freppel Motorhome Stopover","picnic_table":"yes","sanitary_dump_station":"yes","tents":"no","water_point":"yes","water_point:fee":"no","website":"https://www.lefolgoet.fr/decouvrir-le-folgoet/patrimoine-et-tourisme/laire-de-camping-car/"}},"12200279954":{"location":[48.5750029,-4.4819693],"ct":"FR","tp":"CR","ts":"2024-09-25T22:26:33Z","tX":499,"tY":353,"tags":{"caravan_site":"motorhome_stopover","caravan_site:type":"river","caravans":"no","fee":"no","name":"Pont du Diable","power_supply":"no","ref":"P12","sanitary_dump_station":"no","tents":"no","water_point":"no"}},"12200304110":{"location":[48.5909439,-4.4617796],"ct":"FR","tp":"CR","ts":"2024-09-25T22:17:14Z","tX":499,"tY":353,"tags":{"caravan_site":"motorhome_stopover","caravan_site:type":"parking_lot","caravans":"no","fee":"no","maxstay":"48 hours","name":"Place Jean Diable Bianeis au bourg du Grouaneg","tents":"no"}},"5611921458":{"location":[48.6189778,-4.5533614],"ct":"FR","tp":"SD","ts":"2024-09-25T22:14:30Z","tX":499,"tY":353,"tags":{"access":"yes","fee":"yes"}},"8464013795":{"location":[48.49207,-4.5027712],"ct":"FR","tp":"SD","ts":"2021-11-20T14:40:26Z","tX":499,"tY":353,"tags":{"description":"Station de vidange pour Camping-car.","fee":"no","operator":"Ville de Bourg-Blanc","sanitary_dump_station:chemical_toilet":"yes","sanitary_dump_station:grey_water":"yes","sanitary_dump_station:round_drain":"yes","water_point":"yes"}},"8465183275":{"location":[48.5564732,-4.5054492],"ct":"FR","tp":"SD","ts":"2022-10-08T22:48:55Z","tX":499,"tY":353,"tags":{"access":"yes","description":"Station de vidange pour Camping-car.","fee":"no","opening_hours":"24/7","operator":"Lannilis","sanitary_dump_station:chemical_toilet":"yes","sanitary_dump_station:grey_water":"yes","sanitary_dump_station:round_drain":"yes","water_point":"yes"}},"8465211696":{"location":[48.6329701,-4.411448],"ct":"FR","tp":"SD","ts":"2022-09-11T09:46:50Z","tX":499,"tY":353,"tags":{"access":"yes","description":"Station de vidange pour Camping-car... avec jetons pour l'eau.","fee":"yes","operator":"Ville de Guissény","sanitary_dump_station:chemical_toilet":"yes","sanitary_dump_station:grey_water":"yes","sanitary_dump_station:round_drain":"yes","water_point":"yes"}},"9917367115":{"location":[48.6678958,-4.3653244],"ct":"FR","tp":"SD","ts":"2022-07-28T19:49:34Z","tX":499,"tY":353,"tags":{"access":"customers","fee":"yes"}},"12111181671":{"location":[48.5755838,-4.3173916],"ct":"FR","tp":"SD","ts":"2024-08-14T19:12:41Z","tX":499,"tY":353,"tags":{"source":"streetlevel imagery;data.economie.gouv.fr - 2024-08"}},"12115592984":{"location":[48.5598997,-4.3353425],"ct":"FR","tp":"SD","ts":"2024-08-16T19:04:03Z","tX":499,"tY":353,"tags":{"source":"Ortho HR - 2021;streetlevel imagery"}}}