{"26146015":{"location":[48.3930613,-4.4350175],"ct":"FR","tp":"PK","ts":"2024-09-24T18:57:38Z","tX":499,"tY":354,"tags":{"access":"yes","fee":"no","motorhome":"yes","motorhome:overnight":"yes","parking":"surface"}},"39230310":{"location":[48.2366613,-4.5181824],"ct":"FR","tp":"CS","ts":"2020-10-25T07:40:32Z","tX":499,"tY":354,"tags":{"addr:street":"Route de Dinan","caravans":"yes","internet_access":"wlan","name":"Camping les Pins","phone":"+33298166096","picnic_table":"yes","playground":"yes","stars":"3","swimming_pool":"yes","tents":"yes","website":"https://www.camping-crozon-lespins.com/"}},"119055693":{"location":[48.2386438,-4.54227],"ct":"FR","tp":"CS","ts":"2021-12-21T09:54:16Z","tX":499,"tY":354,"tags":{"addr:street":"Kernavéno","caravans":"yes","fee":"yes","name":"Camping de la Plage de Goulien","name:br":"Tachenn-gampiñ Traezh Goulien","phone":"+33608434932","power_supply":"yes","shower":"yes","source:name:br":"proper translation","stars":"3","swimming_pool":"no","tents":"yes","toilets":"yes","washing_machine":"yes","website":"https://www.camping-crozon-laplagedegoulien.com/"}},"119333848":{"location":[48.4018401,-4.3545922],"ct":"FR","tp":"CS","ts":"2023-02-25T15:42:04Z","tX":499,"tY":354,"tags":{"addr:street":"Saint Jean","caravans":"yes","email":"contact@campingsaintjean.com","name":"Camping Saint-Jean","name:br":"Tachenn-gampiñ Sant Yann","phone":"+33 2 98 40 32 90","shower":"yes","source:name:br":"proper translation","stars":"4","tents":"yes","toilets":"yes","website":"https://www.campingsaintjean.com/"}},"122776880":{"location":[48.226134,-4.3671879],"ct":"FR","tp":"CS","ts":"2023-10-25T02:11:29Z","tX":499,"tY":354,"tags":{"addr:city":"Telgruc-sur-mer","addr:postcode":"29560","addr:street":"Rue de la Plage","name":"Camping Les Mimosas","name:br":"Tachenn-gampiñ ar Mimoza","phone":"+33 2 98 27 76 06","source:name:br":"proper translation","stars":"3","website":"https://campingmimosa.com/"}},"122776881":{"location":[48.2264025,-4.3720207],"ct":"FR","tp":"CS","ts":"2023-10-25T02:05:48Z","tX":499,"tY":354,"tags":{"addr:city":"Telgruc-sur-mer","addr:housenumber":"112","addr:postcode":"29560","addr:street":"Rue de la Plage","alt_name":"Camping Armorique","name":"Camping l'Armorique","name:br":"Tachenn-gampiñ Arvorig","phone":"+33 2 98 27 77 33","source:name:br":"proper translation","stars":"3","website":"https://www.campingarmorique.com/"}},"122776883":{"location":[48.2273741,-4.3670292],"ct":"FR","tp":"CS","ts":"2023-10-25T02:04:48Z","tX":499,"tY":354,"tags":{"addr:city":"Telgruc-sur-mer","addr:postcode":"29560","addr:street":"Rue de la Plage","name":"Camping Les Mimosas","name:br":"Tachenn-gampiñ ar Mimoza","phone":"+33 2 98 27 76 06","source:name:br":"proper translation","stars":"2","website":"https://campingmimosa.com/"}},"123210300":{"location":[48.2811848,-4.5015753],"ct":"FR","tp":"CS","ts":"2023-10-08T14:51:59Z","tX":499,"tY":354,"tags":{"addr:street":"Port du Fret","capacity":"100","caravans":"yes","dog":"yes","drinking_water":"yes","name":"Camping de Gwel Kaer","name:br":"Tachenn-gampiñ Gwel Kaer","phone":"+33 2 98 27 61 06","shower":"yes","source:name:br":"proper translation","stars":"2","tents":"yes","toilets":"yes","website":"https://www.camping-crozon-bretagne.com/"}},"123393165":{"location":[48.2492203,-4.4990952],"ct":"FR","tp":"CS","ts":"2021-12-20T11:38:16Z","tX":499,"tY":354,"tags":{"addr:street":"Boulevard de Pralognan","caravans":"yes","email":"contact@camping-pen-ar-menez.fr","name":"Camping de la Presqu'île","name:br":"Tachenn-gampiñ ar C'hourenez","phone":"+33 2 98 27 12 36","source:name:br":"proper translation","stars":"2","swimming_pool":"yes","tents":"yes","washing_machine":"yes","website":"https://www.camping-presquile-de-crozon.fr/"}},"131347054":{"location":[48.2807416,-4.5639025],"ct":"FR","tp":"CS","ts":"2023-10-25T02:06:27Z","tX":499,"tY":354,"tags":{"addr:street":"Lambezen","caravans":"yes","disabled":"yes","name":"Camping le Grand Large","name:br":"Tachenn-gampiñ an Donvor","source:name:br":"proper translation","stars":"4","tents":"yes","website":"https://www.campinglegrandlarge.com/"}},"131654407":{"location":[48.3206105,-4.3194455],"ct":"FR","tp":"CS","ts":"2024-07-12T10:41:20Z","tX":499,"tY":354,"tags":{"addr:street":"Route anse du Roz","caravans":"yes","contact:phone":"+33 9 81 92 67 86","contact:website":"https://www.camping-du-roz.com","drinking_water":"yes","name":"Camping du Roz","phone":"+33668578484","power_supply":"yes","shower":"yes","stars":"2","tents":"yes","toilets":"yes"}},"131654980":{"location":[48.3234931,-4.3146536],"ct":"FR","tp":"CS","ts":"2023-01-13T23:45:12Z","tX":499,"tY":354,"tags":{"caravans":"yes","contact:phone":"+33 2 98206452","name":"Camping de Gouelet Ker","stars":"1","tents":"yes"}},"131655245":{"location":[48.4466539,-4.258096],"ct":"FR","tp":"CR","ts":"2024-10-24T22:04:56Z","tX":499,"tY":354,"tags":{"access":"customers","addr:street":"Rue du Calvaire","capacity":"25","caravan_site":"motorhome_stopover","caravan_site:type":"river","caravans":"yes","charge":"9.70 EUR","fee":"yes","name":"Aire de camping-car du Calvaire","name:br":"Tachenn kirri kampi ar C'halvar","operator":"Ville de Landerneau","operator:type":"public","operator:wikidata":"Q325946","power_supply":"yes","power_supply:fee":"no","services:charge":"3.55 EUR","services:fee":"yes","source:name:br":"sign+proper translation","stars":"2","tents":"unknown","water_point":"yes","water_point:fee":"yes","website":"https://www.landerneau.bzh/aire-de-camping-cars/"}},"131655789":{"location":[48.3652448,-4.5388901],"ct":"FR","tp":"CS","ts":"2022-09-16T11:21:45Z","tX":499,"tY":354,"tags":{"addr:city":"Brest","addr:housenumber":"4","addr:postcode":"29200","addr:street":"Chemin de Lanhouarnec","caravans":"yes","internet_access":"wlan","internet_access:fee":"yes","name":"Camping Le Goulet","name:br":"Tachenn-gampiñ ar Mulgul","phone":"+33 2 98 45 86 84","source:name:br":"proper translation","stars":"3","tents":"yes"}},"131782539":{"location":[48.2877656,-4.5639883],"ct":"FR","tp":"CS","ts":"2021-12-20T10:29:31Z","tX":499,"tY":354,"tags":{"addr:street":"Route de Camaret","caravans":"yes","name":"Camping de la Plage de Trez Rouz","name:br":"Tachenn-gampiñ Traezh Rous","phone":"+33 2 98 27 93 96","source:name:br":"proper translation","stars":"3","tents":"yes","website":"https://www.trezrouz.com/"}},"131782811":{"location":[48.3085349,-4.5590016],"ct":"FR","tp":"CS","ts":"2023-07-21T21:53:32Z","tX":499,"tY":354,"tags":{"addr:street":"Route du camping","alt_name":"Camping municipal de Roscanvel","caravans":"yes","fee":"yes","name":"Camping municipal de Kervian","name:br":"Tachenn-gampiñ Kervihan","phone":"+33 2 98 27 43 23","source:name:br":"proper translation","stars":"2","static_caravans":"yes","tents":"yes","website":"https://www.roscanvel.fr/tourisme-camping-municipal-pxl-23_160.html"}},"131787506":{"location":[48.2855511,-4.5289504],"ct":"FR","tp":"CS","ts":"2024-02-05T09:18:37Z","tX":499,"tY":354,"tags":{"caravans":"yes","name":"Les pieds dans l'eau","phone":"+33 6 20 32 71 38","stars:-201707":"4","tents":"yes","website":"https://www.campingcrozon.com/"}},"131790026":{"location":[48.2928117,-4.4599183],"ct":"FR","tp":"CS","ts":"2022-09-18T13:24:56Z","tX":499,"tY":354,"tags":{"addr:city":"Lanvéoc","addr:housenumber":"57","addr:postcode":"29160","addr:street":"Rue de la Grève","caravans":"yes","name":"Camping Cap-Ouest","phone":"+33 2 98 23 64 21","stars":"2","tents":"yes","website":"https://www.camping-cap-ouest.com"}},"131889796":{"location":[48.2417404,-4.4294994],"ct":"FR","tp":"CS","ts":"2020-08-07T08:20:25Z","tX":499,"tY":354,"tags":{"addr:city":"Crozon","addr:housenumber":"50","addr:postcode":"29160","addr:street":"Route de l'Aber","caravans":"yes","description":"Camping 3 étoiles, Situé à Tal ar Groas","internet_access":"yes","name":"Camping de l'Aber","phone":"+33675623907","stars":"2","tents":"yes","website":"https://www.camping-aber.com/fr/"}},"394319820":{"location":[48.3870267,-4.43726],"ct":"FR","tp":"PK","ts":"2023-02-26T12:07:34Z","tX":499,"tY":354,"tags":{"fee":"no","maxlength":"7","motorhome":"yes","orientation":"diagonal","parking":"street_side"}},"481422757":{"location":[48.2252403,-4.5083054],"ct":"FR","tp":"CR","ts":"2024-08-18T15:54:42Z","tX":499,"tY":354,"tags":{"bbq":"no","capacity":"20","caravan_site":"motorhome_stopover","caravan_site:type":"village","caravans":"no","charge":"15.34 EUR","dog":"leashed","fee":"yes","internet_access":"wlan","internet_access:fee":"no","maxlength":"9","name":"Aire Crozon - Morgat","network":"CAMPING-CAR PARK","opening_hours":"24/7","operator":"CampingCarPark.com","power_supply":"yes","power_supply:capacity":"20","power_supply:fee":"no","power_supply:maxcurrent":"6","sanitary_dump_station":"yes","seasonal":"no","surface":"asphalt","tents":"no","toilets":"yes","trailer":"no","water_point":"yes","water_point:fee":"no","water_supply":"yes","wheelchair":"yes"}},"553098800":{"location":[48.3267635,-4.3174714],"ct":"FR","tp":"CS","ts":"2019-05-25T19:25:26Z","tX":499,"tY":354,"tags":{"access":"private","camp_site":"basic","caravans":"yes"}},"553106630":{"location":[48.3183636,-4.3130206],"ct":"FR","tp":"CS","ts":"2023-01-13T23:45:12Z","tX":499,"tY":354,"tags":{"camp_site":"basic"}},"553106631":{"location":[48.3179075,-4.3108355],"ct":"FR","tp":"CS","ts":"2019-05-25T18:58:25Z","tX":499,"tY":354,"tags":{"camp_site":"basic"}},"553106632":{"location":[48.316693,-4.3125006],"ct":"FR","tp":"CS","ts":"2019-05-25T19:21:42Z","tX":499,"tY":354,"tags":{"camp_site":"basic"}},"553106641":{"location":[48.3190522,-4.3280264],"ct":"FR","tp":"CS","ts":"2019-05-25T18:58:26Z","tX":499,"tY":354,"tags":{"camp_site":"basic"}},"553106642":{"location":[48.315968,-4.3312946],"ct":"FR","tp":"CS","ts":"2019-05-25T18:58:26Z","tX":499,"tY":354,"tags":{"camp_site":"basic"}},"553107217":{"location":[48.3180274,-4.3166916],"ct":"FR","tp":"CS","ts":"2019-05-25T19:25:41Z","tX":499,"tY":354,"tags":{"camp_site":"basic"}},"553343475":{"location":[48.3191543,-4.3123257],"ct":"FR","tp":"CS","ts":"2019-05-25T18:58:27Z","tX":499,"tY":354,"tags":{"camp_site":"basic"}},"554978808":{"location":[48.3407926,-4.2824558],"ct":"FR","tp":"CS","ts":"2019-05-25T19:25:54Z","tX":499,"tY":354,"tags":{"camp_site":"basic"}},"554980650":{"location":[48.3138654,-4.2937531],"ct":"FR","tp":"CS","ts":"2019-05-25T19:21:42Z","tX":499,"tY":354,"tags":{"camp_site":"basic"}},"554980671":{"location":[48.314383,-4.2895974],"ct":"FR","tp":"CS","ts":"2020-03-04T10:54:17Z","tX":499,"tY":354,"tags":{"camp_site":"basic"}},"625812752":{"location":[48.2925314,-4.2647164],"ct":"FR","tp":"CR","ts":"2024-10-08T17:15:44Z","tX":499,"tY":354,"tags":{"capacity":"20","caravan_site":"motorhome_stopover","caravan_site:type":"beach","charge":"9 EUR","description":"Emplacement EUR 3.25/nuit, Adulte EUR 2.70/nuit, Electricité EUR 2.75/nuit,","drinking_water":"yes","fee":"yes","internet_access":"no","name":"Camping du Pal","name:br":"Tachenn-gampiñ ar Pal","note":"this is not a campground, only a caravansite","opening_hours":"May 01-Sep 30: Mo-Su 00:00-24:00","operator":"Commune de Landevennec","power_supply":"yes","power_supply:charge":"3.30 EUR","power_supply:fee":"yes","sanitary_dump_station":"no","shower":"yes","source:name:br":"proper translation","surface":"grass","tents":"yes","toilets":"yes","website":"https://www.landevennec.fr/tourisme/camping-municipal/","wheelchair":"yes"}},"812895780":{"location":[48.2893746,-4.2718756],"ct":"FR","tp":"CS","ts":"2024-09-13T14:22:39Z","tX":499,"tY":354,"tags":{"backcountry":"yes","drinking_water":"yes","fee":"no","name":"L'Abbaye de Landevennec","power_supply":"no","shower":"no","toilets":"yes"}},"977845866":{"location":[48.3945211,-4.4337928],"ct":"FR","tp":"PK","ts":"2024-11-14T11:41:20Z","tX":499,"tY":354,"tags":{"access":"customers","fee":"yes","motorhome":"yes","motorhome:overnight":"yes","name":"Parking Plaisanciers","parking":"surface","surface":"asphalt","website":"https://www.brest-metropole-tourisme.fr/hebergement/aire-de-services-du-moulin-blanc/"}},"1011096074":{"location":[48.247628,-4.4796641],"ct":"FR","tp":"CR","ts":"2024-05-10T15:44:52Z","tX":499,"tY":354,"tags":{"bbq":"no","caravan_site":"motorhome_stopover","caravan_site:type":"village","caravans":"no","charge":"15.34 EUR","dog":"leashed","fee":"yes","internet_access":"wlan","internet_access:fee":"no","maxlength":"9","name":"Aire Crozon - Poulpatré","network":"CAMPING-CAR PARK","opening_hours":"24/7","operator":"CAMPING-CAR PARK","power_supply":"yes","power_supply:capacity":"22","power_supply:fee":"no","power_supply:maxcurrent":"6","sanitary_dump_station":"yes","seasonal":"no","tents":"no","trailer":"no","water_point":"yes","water_point:fee":"no","website":"https://www.campingcarpark.com/fr_FR/sejour/aire-etape-camping-car/bretagne/29-finistere/crozon-poulpatre"}},"1095082394":{"location":[48.2919804,-4.460948],"ct":"FR","tp":"CS","ts":"2022-09-16T06:54:19Z","tX":499,"tY":354,"tags":{"addr:street":"Rue du Voelaz","email":"crozon@lodg-ing.com","name":"Lodg'ing Nature camp","opening_hours":"Mo-Su 08:00-20:00","phone":"+33 6 83 92 62 45","website":"https://www.lodg-ing.com/fr/presquile-de-crozon/"}},"1281760740":{"location":[48.2842693,-4.5100364],"ct":"FR","tp":"CR","ts":"2024-05-10T15:40:47Z","tX":499,"tY":354,"tags":{"bbq":"no","capacity":"16","caravan_site":"motorhome_stopover","caravan_site:type":"beach","caravans":"no","charge":"15.34 EUR","dog":"leashed","fee":"yes","internet_access":"wlan","internet_access:fee":"no","maxlength":"9","name":"Aire Crozon, Le Fret","network":"CAMPING-CAR PARK","opening_hours":"24/7","operator":"CAMPING-CAR PARK","power_supply":"yes","power_supply:fee":"no","power_supply:maxcurrent":"6","seasonal":"no","tents":"no","trailer":"no","website":"https://www.campingcarpark.com/fr_FR/sejour/aire-etape-camping-car/bretagne/29-finistere/crozon-le-fret"}},"1317957871":{"location":[48.2483545,-4.4141323],"ct":"FR","tp":"CR","ts":"2024-10-22T09:07:56Z","tX":499,"tY":354,"tags":{"capacity":"6","caravan_site":"motorhome_stopover","caravan_site:type":"supermarket","caravans":"no","fee":"no","internet_access":"wlan","internet_access:fee":"no","laundry":"yes","name":"Aire Camping-car Leclerc Tal ar Groas","opening_hours":"24/7","picnic_area":"yes","sanitary_dump_station":"yes","tents":"no","toilets":"yes","water_point":"yes"}},"5611187446":{"location":[48.2716401,-4.4241809],"ct":"FR","tp":"CS","ts":"2021-06-08T20:03:17Z","tX":499,"tY":354,"tags":{"name":"Aire naturelle Océ'âne","website":"https://www.oceane-crozon.net/camping/camping.html"}},"5496885745":{"location":[48.3712103,-4.3651227],"ct":"FR","tp":"CR","ts":"2024-10-08T17:32:11Z","tX":499,"tY":354,"tags":{"capacity":"20","caravan_site":"motorhome_stopover","caravan_site:type":"parking_lot","contact:website":"https://www.brest-metropole-tourisme.fr/hebergement/aire-de-services-de-plougastel-daoulas/","fee":"no","name":"Plougastel-Daoulas Aire Municipale","sanitary_dump_station":"yes"}},"9760273290":{"location":[48.3885906,-4.4351413],"ct":"FR","tp":"CR","ts":"2024-10-30T21:42:23Z","tX":499,"tY":354,"tags":{"capacity":"25","caravan_site":"motorhome_stopover","caravan_site:type":"harbour","fee":"no","name":"Parking camping-car d'Océanopolis","toilets":"yes","website":"https://www.oceanopolis.com/preparer-votre-visite/nos-services/"}},"6511518756":{"location":[48.2252268,-4.5079791],"ct":"FR","tp":"SD","ts":"2024-08-18T15:54:12Z","tX":499,"tY":354,"tags":{"access":"customers","fee":"yes","name":"CampingCarPark Crozon-Morgat","operator":"CampingCarPark.com","water_point":"yes"}},"7589524939":{"location":[48.3711567,-4.3651879],"ct":"FR","tp":"SD","ts":"2024-01-23T11:46:40Z","tX":499,"tY":354,"tags":{"access":"yes","fee":"no","water_point":"yes"}},"11045782613":{"location":[48.3932395,-4.4348653],"ct":"FR","tp":"SD","ts":"2024-09-12T16:32:54Z","tX":499,"tY":354,"tags":{"access":"yes","addr:housenumber":"300","addr:street":"Rue Eugène Berest","capacity":"2","description":"free","fee":"no","website":"https://www.brest-metropole-tourisme.fr/hebergement/aire-de-services-du-moulin-blanc/"}},"11258008503":{"location":[48.3836099,-4.3479784],"ct":"FR","tp":"SD","ts":"2024-06-11T14:39:35Z","tX":499,"tY":354,"tags":{"charge":"2€","covered":"no","fee":"yes","payment:cash":"yes","source":"streetlevel imagery","water_point":"yes"}}}