{"26858628":{"location":[48.168889,-4.289444],"ct":"FR","tp":"CS","ts":"2021-07-04T16:46:51Z","tX":499,"tY":355,"tags":{"name":"Iroise","phone":"+33 2 98 81 52 72","stars":"4","website":"https://www.camping-iroise.fr"}},"38529580":{"location":[48.0065671,-4.5085349],"ct":"FR","tp":"CS","ts":"2022-09-24T10:19:00Z","tX":499,"tY":355,"tags":{"addr:city":"Plouhinec","addr:housenumber":"1","addr:postcode":"29780","addr:street":"rue Nominoé","cabins":"yes","caravans":"yes","name":"Camping de Kersiny-Plage","name:br":"Tachenn-gampiñ Kersini","opening_hours":"Apr-Sep","phone":"+33 2 98 70 82 44","picnic_table":"yes","power_supply":"yes","shower":"yes","source:name:br":"proper translation","stars":"2","tents":"yes","toilets":"yes","washing_machine":"yes","website":"https://www.kersinyplage.com"}},"75805885":{"location":[48.1159244,-4.2797552],"ct":"FR","tp":"CS","ts":"2022-08-27T09:05:14Z","tX":499,"tY":355,"tags":{"name":"Camping de la ville d'Ys","opening_hours":"Apr-Sep","phone":"+33 2 98 92 52 97","stars":"2","website":"https://campingpredelamer.fr/"}},"91009458":{"location":[48.1143275,-4.2697622],"ct":"FR","tp":"CS","ts":"2025-04-12T14:46:12Z","tX":499,"tY":355,"tags":{"capacity:caravans":"304","fee":"yes","name":"Camping Kervel","opening_hours":"Apr-Sep","phone":"+33 2 98 92 51 54","swimming_pool":"covered","website":"https://www.kervel.com/"}},"107120584":{"location":[48.0170899,-4.5240672],"ct":"FR","tp":"CS","ts":"2021-12-27T11:23:09Z","tX":499,"tY":355,"tags":{"name":"Camping de Larenvoie","name:br":"Tachenn-gampiñ ar Renwaien","phone":"+33 2 98 70 89 38","source:name:br":"proper translation","stars":"2","website":"http://www.campingdelarenvoie.fr"}},"118383525":{"location":[47.9913023,-4.3528397],"ct":"FR","tp":"CS","ts":"2020-04-26T16:16:59Z","tX":499,"tY":355,"tags":{"name":"Camping et Parc de loisirs Le Bel-Air","name:br":"Tachenn-gampiñ an Aer Vat","source:name:br":"ofis publik ar brezhoneg"}},"120176551":{"location":[48.1452799,-4.2703006],"ct":"FR","tp":"CS","ts":"2022-08-27T09:05:14Z","tX":499,"tY":355,"tags":{"capacity:caravans":"279","name":"Camping du Treguer","name:br":"Tachenn-gampiñ Treger","phone":"+33298925352","source:name:br":"proper translation","stars":"3","swimming_pool":"covered","website":"https://www.camping-treguer-plage.com/"}},"122776882":{"location":[48.2243225,-4.3732904],"ct":"FR","tp":"CS","ts":"2019-11-02T17:54:30Z","tX":499,"tY":355,"tags":{"name":"Camping Le Panoramic","phone":"+33 2 98 27 78 41","stars":"4","website":"https://www.camping-panoramic.com/"}},"123399313":{"location":[48.2217311,-4.5217902],"ct":"FR","tp":"CS","ts":"2022-09-04T16:47:38Z","tX":499,"tY":355,"tags":{"addr:street":"Le Bouis","caravans":"yes","name":"Camping les Bruyères","phone":"+33603651923","stars":"3","swimming_pool":"yes","tents":"yes","website":"https://www.camping-bruyeres-crozon.com/"}},"127648694":{"location":[48.0926123,-4.3538971],"ct":"FR","tp":"CS","ts":"2024-05-22T13:09:55Z","tX":499,"tY":355,"tags":{"capacity:caravans":"162","name":"Camping de Trézulien","opening_hours":"apr-sep","phone":"+33 2 98 74 12 30","stars":"4","washing_machine":"yes","website":"https://www.camping-trezulien.com/"}},"131890276":{"location":[48.2103443,-4.3673267],"ct":"FR","tp":"CS","ts":"2021-07-04T14:41:47Z","tX":499,"tY":355,"tags":{"addr:street":"Plage de Trez Bellec","caravans":"yes","group_only":"yes","name":"Camping du Centre Nautique","stars":"1","tents":"yes","website":"http://www.cntelgruc.fr/-Le-Camping-pour-groupes-62-.html"}},"131890391":{"location":[48.2104623,-4.3685911],"ct":"FR","tp":"CS","ts":"2021-07-04T14:38:03Z","tX":499,"tY":355,"tags":{"addr:street":"Plage de Trez Bellec","caravans":"yes","mobile":"+33 6 16 55 03 49","name":"Camping de Pen Bellec","phone":"+33 2 98 23 59 79","stars":"2","tents":"yes","website":"http://camping-crozon.fr/"}},"178458685":{"location":[48.1476852,-4.2680764],"ct":"FR","tp":"CS","ts":"2023-04-10T18:51:38Z","tX":499,"tY":355,"tags":{"capacity:pitches":"37","caravans":"yes","freezer":"yes","mobile":"+33786087077","name":"Camping de la Mer","name:br":"Tachenn-gampiñ ar Mor","phone":"+33 2 98 81 29 19","source:name:br":"proper translation","swimming_pool":"no","tents":"yes","toilets":"yes","washing_machine":"yes","website":"http://www.campingdelamer29.com/"}},"180761725":{"location":[48.2235125,-4.3718651],"ct":"FR","tp":"CS","ts":"2021-07-04T14:34:22Z","tX":499,"tY":355,"tags":{"name":"Camping Le Panoramic","phone":"+33 2 98 27 78 41","website":"https://www.camping-panoramic.com/"}},"362577701":{"location":[48.089227,-4.3005795],"ct":"FR","tp":"CS","ts":"2024-05-24T11:15:05Z","tX":499,"tY":355,"tags":{"addr:city":"Douarnenez","addr:postcode":"29100","addr:street":"Allée de Manar Lak","capacity":"49","caravans":"yes","name":"GCU Douarnenez","name:br":"SKS Douarnenez","operator":"Groupement des Campeurs Universitaires","phone":"+33 2 98 92 80 99","source:name:br":"proper translation","stars":"2","static_caravans":"no","tents":"yes","website":"https://www.gcu.asso.fr/terrains/douarnenez-finist%C3%A8re-29"}},"375843552":{"location":[48.1098376,-4.2793559],"ct":"FR","tp":"CS","ts":"2024-07-20T15:26:33Z","tX":499,"tY":355,"tags":{"access":"customers","addr:city":"Plonévez-Porzay","addr:street":"Route de la Baie","capacity:caravans":"30","caravans":"yes","fee":"yes","name":"Camping Trezmalaouen","opening_hours":"Apr-Sep","phone":"+33 2 98 92 54 24","stars":"3","static_caravans":"yes","tents":"yes","website":"https://vacances-andretrigano.com/camping/finistere/trezmalaouen-plonevez-porzay"}},"401120672":{"location":[48.0059598,-4.4936345],"ct":"FR","tp":"CS","ts":"2022-03-30T12:30:46Z","tX":499,"tY":355,"tags":{"addr:city":"Plouhinec","addr:housenumber":"13","addr:postcode":"29780","addr:street":"Rue de l'Océan","email":"contact@leloupblanc-camping.fr","name":"Le Loup Blanc Camping","phone":"+33 7 70 28 85 74","power_supply":"yes","source:name:br":"proper translation","surface":"grass","website":"https://www.leloupblanc-camping.fr/"}},"448685872":{"location":[48.1056831,-4.2796953],"ct":"FR","tp":"CS","ts":"2022-06-29T10:09:39Z","tX":499,"tY":355,"tags":{"fixme":"Camping qui semble fermé.","name":"Camping municipal","name:br":"Tachenn-gampiñ Kêr","operator":"Commune de Kerlaz","source:name:br":"proper translation"}},"552471696":{"location":[48.0500505,-4.4827889],"ct":"FR","tp":"CS","ts":"2023-09-28T21:58:11Z","tX":499,"tY":355,"tags":{"name":"Lizoé","phone":"+33 7 85 90 91 08","stars":"3","website":"https://www.campinglizoe.fr/"}},"575895596":{"location":[48.193364,-4.2997613],"ct":"FR","tp":"CS","ts":"2023-08-06T18:48:40Z","tX":499,"tY":355,"tags":{"addr:housenumber":"4","addr:street":"Chemin des Dunes","name":"Domaine de Ker Ys","phone":"+33 2 98 26 53 95","stars":"4","website":"https://www.camping-domaine-kerys.com/"}},"598378303":{"location":[48.0815592,-4.4059112],"ct":"FR","tp":"CS","ts":"2022-06-24T12:58:57Z","tX":499,"tY":355,"tags":{"addr:city":"Poullan-sur-Mer","addr:housenumber":"30","addr:postcode":"29100","addr:street":"Rue Luc Robet","alt_name":"Pil Koad","brand":"Yelloh village","capacity":"184","name":"Camping de la Baie de Douarnenez","name:br":"Ar Pilkoad","opening_hours":"apr-sep","phone":"+33 2 98 74 26 39","source:name:br":"ofis publik ar brezhoneg","website":"https://www.camping-bretagne-douarnenez.com/"}},"660709164":{"location":[48.1169199,-4.2731445],"ct":"FR","tp":"CS","ts":"2020-08-24T07:20:35Z","tX":499,"tY":355,"tags":{"capacity":"50","charge":"14-16","email":"camping@douarnenez-baie.com","freezer":"yes","name":"Camping du Pré de la Mer","phone":"+33 2 98 92 52 97","picnic_table":"yes","reservation":"yes","stars":"2","swimming_pool":"no","website":"https://campingdys.douarnenez-baie.com/"}},"660809193":{"location":[48.1022558,-4.3604719],"ct":"FR","tp":"CS","ts":"2024-09-22T22:51:18Z","tX":499,"tY":355,"tags":{"addr:city":"Douarnenez","addr:housenumber":"69","addr:postcode":"29100","addr:street":"Avenue du Bois d'Isis","capacity":"150","caravans":"yes","drinking_water":"yes","internet_access":"wlan","name":"Camping Huttopia","name:de":"Camping Huttopia","name:en":"Camping Huttopia","name:fr":"Camping Huttopia","operator":"Indigo","phone":"+33 2 98 74 05 67","power_supply":"yes","shower":"yes","stars":"3","tents":"yes","toilets":"yes","website":"https://europe.huttopia.com/site/camping-douarnenez/"}},"660809203":{"location":[48.0997405,-4.3618874],"ct":"FR","tp":"CS","ts":"2025-04-03T08:58:11Z","tX":499,"tY":355,"tags":{"name":"Camping de Kerleyou","opening_hours":"Jul-Sep","phone":"+33 2 98 74 13 03","stars":"3"}},"729271261":{"location":[48.0010658,-4.4958289],"ct":"FR","tp":"CS","ts":"2024-05-24T11:43:34Z","tX":499,"tY":355,"tags":{"addr:city":"Plouhinec","addr:housenumber":"6","addr:postcode":"29780","addr:street":"Rue Florence Arthaud","capacity":"92","caravans":"yes","name":"GCU Plouhinec","name:br":"SKS Ploeneg","operator":"Groupement des Campeurs Universitaires","phone":"+33 2 98 70 89 91","sanitary_dump_station":"customers","source:name:br":"proper translation","stars":"2","static_caravans":"no","tents":"yes","website":"https://www.gcu.asso.fr/terrains/plouhinec-finist%C3%A8re-29"}},"741963858":{"location":[48.0968605,-4.348168],"ct":"FR","tp":"CS","ts":"2025-04-15T17:15:32Z","tX":499,"tY":355,"tags":{"caravans":"yes","drinking_water":"yes","name":"Camping Croas Men","opening_hours":"Apr-Aug","phone":"+33 2 98 74 00 18","power_supply":"yes","shower":"yes","stars":"2","tents":"yes","toilets":"yes","website":"https://croas-men.com/"}},"826583817":{"location":[48.0835709,-4.4815297],"ct":"FR","tp":"CS","ts":"2025-02-17T08:57:02Z","tX":499,"tY":355,"tags":{"caravans":"yes","name":"Camping Pors Peron","name:br":"Tachenn-gampiñ Porzh Peron","opening_hours":"apr-sep","phone":"+33 2 98 70 40 24","reservation":"yes","sanitary_dump_station":"customers","source:name:br":"proper translation","stars":"2","tents":"yes","website":"https://www.campingporsperon.com/"}},"917081083":{"location":[48.1813412,-4.289028],"ct":"FR","tp":"CS","ts":"2021-03-14T15:40:07Z","tX":499,"tY":355,"tags":{}},"917081084":{"location":[48.1802199,-4.292091],"ct":"FR","tp":"CS","ts":"2021-12-22T10:55:15Z","tX":499,"tY":355,"tags":{"mobile":"+33 6 22 05 77 26","name":"Le Kergorz","name:br":"Kergorz","opening_hours":"Jun-Sep","phone":"+33 2 98 26 50 41","source:name:br":"proper translation","stars":"2","website":"https://www.camping-kergorz.com"}},"917081086":{"location":[48.1846577,-4.2852903],"ct":"FR","tp":"CS","ts":"2021-07-04T16:40:31Z","tX":499,"tY":355,"tags":{"name":"Camping Ker Vella","phone":"+33 2 98 26 50 14","stars":"3","website":"https://www.camping-kervella.com/"}},"917081108":{"location":[48.190769,-4.2985879],"ct":"FR","tp":"CS","ts":"2023-10-25T02:06:31Z","tX":499,"tY":355,"tags":{"addr:city":"Saint-Nic","addr:housenumber":"8","addr:postcode":"29550","addr:street":"Chemin des Dunes","fee":"yes","name":"Camping Paradis — Menez Bichen","phone":"+33 2 98 26 50 82","sanitary_dump_station":"yes","shower":"yes","stars":"3","toilets":"yes","website":"https://www.menezbichen.fr/"}},"971008942":{"location":[48.0283656,-4.5569859],"ct":"FR","tp":"CS","ts":"2021-08-22T21:09:38Z","tX":499,"tY":355,"tags":{"name":"Camping Kerivoas","phone":"+33 2 98 70 26 86","website":"https://www.camping-kerivoas.fr"}},"1091327911":{"location":[48.0268748,-4.5365782],"ct":"FR","tp":"CR","ts":"2024-10-26T18:27:48Z","tX":499,"tY":355,"tags":{"addr:street":"Rue Lamartine","capacity":"20","caravan_site":"motorhome_stopover","caravan_site:type":"coastal","charge":"EUR 4/24 hours","fee":"yes","name":"Aire de Camping-cars Audierne","name:br":"Leur Kirri-kampiñ Gwaien","name:nl":"Camperplaats Audierne","opening_hours":"24/7","picnic_area":"yes","power_supply":"yes","reservation":"no","sanitary_dump_station":"yes","source:name:br":"proper translation","surface":"gravel","website":"https://www.capsizuntourisme.fr/sejourner/infos-pratiques/bienvenue-aux-camping-cars/aire-de-services-et-de-stationnement-audierne-2173089"}},"1096320143":{"location":[48.1659612,-4.2931893],"ct":"FR","tp":"CS","ts":"2021-12-22T10:55:15Z","tX":499,"tY":355,"tags":{"name":"Porz Ar Vag","name:br":"Porzh ar Vag","source:name:br":"ofis publik ar brezhoneg"}},"1130857837":{"location":[48.0399735,-4.4453971],"ct":"FR","tp":"CS","ts":"2023-01-11T09:56:23Z","tX":499,"tY":355,"tags":{"addr:city":"Mahalon","addr:postcode":"29790","email":"christian.vigouroux6@wanadoo.fr","name":"Camping du Goyen","phone":"+33 2 98 70 40 20","stars":"2","website":"http://www.camping-du-goyen.com"}},"1285601442":{"location":[48.0931656,-4.3521034],"ct":"FR","tp":"CR","ts":"2024-05-22T13:09:55Z","tX":499,"tY":355,"tags":{"bbq":"no","capacity":"31","caravan_site":"motorhome_stopover","caravan_site:type":"beach; town","caravans":"no","charge":"12.66 EUR","dog":"leashed","fee":"yes","internet_access":"wlan","maxlength":"9","name":"Aire Camping-car Park Douarnenez","network":"CAMPING-CAR PARK","power_supply":"no","sanitary_dump_station":"yes","tents":"no","trailer":"no","website":"https://www.campingcarpark.com/fr_FR/sejour/aire-etape-camping-car/bretagne/29-finistere/douarnenez"}},"1317955969":{"location":[48.0811021,-4.4154489],"ct":"FR","tp":"CR","ts":"2024-09-24T18:42:04Z","tX":499,"tY":355,"tags":{"caravan_site":"motorhome_stopover","caravan_site:type":"village","caravans":"no","fee":"no","maxstay":"24 hours","name":"Aire Camping-car Poullan-sur-Mer","seasonal":"no","surface":"asphalt","tents":"no"}},"1328449761":{"location":[48.1248727,-4.2243384],"ct":"FR","tp":"CR","ts":"2024-10-26T20:40:08Z","tX":499,"tY":355,"tags":{"capacity":"15","caravan_site":"motorhome_stopover","caravan_site:type":"village","fee":"no","name":"Plonévez-Porzay Aire Communale","name:br":"Leur Kirri-kampiñ","power_supply":"yes","sanitary_dump_station":"yes","seasonal":"no","source:name:br":"ofis publik ar brezhoneg","toilets":"no","water_point":"yes"}},"7957987156":{"location":[48.0245841,-4.529087],"ct":"FR","tp":"CS","ts":"2024-02-14T07:35:26Z","tX":499,"tY":355,"tags":{"addr:city":"Plouhinec","addr:housenumber":"3","addr:postcode":"29780","addr:street":"Rue des Lavandières","contact:city":"Plouhinec","contact:housenumber":"3","contact:phone":"+33 2 98 74 95 06","contact:postcode":"29780","contact:street":"Rue Des Lavandières","name":"Naéco Baie D'audierne Hôtel & Camping","opening_hours":"Mo-Su 08:00-12:00, 16:00-19:00","phone":"+33 2 98 74 95 06","ref:FR:SIRET":"84125606800013","website":"https://www.naeco.bzh/"}},"8892845190":{"location":[48.1727551,-4.282608],"ct":"FR","tp":"CS","ts":"2021-12-22T10:55:15Z","tX":499,"tY":355,"tags":{"name":"Ty Rouz","name:br":"Ti Rous","phone":"+33 2 98 81 58 48","source:name:br":"ofis publik ar brezhoneg","stars":"3","website":"https://www.campingtyrouz.fr"}},"10965906193":{"location":[48.1149833,-4.2804877],"ct":"FR","tp":"CR","ts":"2024-10-15T19:52:26Z","tX":499,"tY":355,"tags":{"caravan_site":"motorhome_stopover","caravan_site:type":"beach","description":"Parking","fee":"no","name":"Ketvel","sanitary_dump_station":"no","water_point":"no"}},"6282847147":{"location":[48.0265904,-4.5369036],"ct":"FR","tp":"SD","ts":"2022-09-02T18:02:56Z","tX":499,"tY":355,"tags":{"access":"yes","fee":"no","opening_hours":"24/7","sanitary_dump_station:round_drain":"yes"}},"9121600762":{"location":[48.1454814,-4.270116],"ct":"FR","tp":"SD","ts":"2021-09-25T04:10:30Z","tX":499,"tY":355,"tags":{"sanitary_dump_station:chemical_toilet":"no","sanitary_dump_station:gravity":"yes","sanitary_dump_station:grey_water":"yes"}},"9995424880":{"location":[48.0838427,-4.4819652],"ct":"FR","tp":"SD","ts":"2022-09-02T16:25:30Z","tX":499,"tY":355,"tags":{"access":"customers","fee":"no","opening_hours":"24/7","sanitary_dump_station:basin":"yes"}},"9995424882":{"location":[48.0839296,-4.4821335],"ct":"FR","tp":"SD","ts":"2022-09-02T16:25:30Z","tX":499,"tY":355,"tags":{"access":"customers","fee":"no","opening_hours":"24/7","sanitary_dump_station:round_drain":"yes"}},"9995571825":{"location":[48.0265879,-4.536978],"ct":"FR","tp":"SD","ts":"2022-09-02T18:02:56Z","tX":499,"tY":355,"tags":{"access":"yes","fee":"yes","opening_hours":"24/7","sanitary_dump_station:basin":"yes"}},"11045523103":{"location":[48.1251018,-4.2243491],"ct":"FR","tp":"SD","ts":"2023-07-14T01:00:33Z","tX":499,"tY":355,"tags":{"fee":"yes"}},"12290706624":{"location":[48.1847838,-4.2277113],"ct":"FR","tp":"SD","ts":"2024-10-26T20:44:11Z","tX":499,"tY":355,"tags":{"access":"yes","charge":"3 EUR","fee":"yes","sanitary_dump_station:chemical_toilet":"yes","sanitary_dump_station:grey_water":"yes","website":"https://www.aireparkreservation.com/aires-camping-cars/bretagne/finistere/plomodiern"}},"12742441195":{"location":[48.1161021,-4.2675672],"ct":"FR","tp":"CS","ts":"2025-04-09T21:36:48Z","tX":499,"tY":355,"tags":{"access":"customers","capacity:static_caravans":"304","caravans":"no","dog":"no","email":"kervel@capfun.com","fee":"yes","name":"Camping Capfun Kervel","openfire":"no","phone":"+33 2 98 92 51 54","stars":"4","static_caravans":"yes","tents":"no","website":"https://www.capfun.com/camping-france-bretagne-kervel-FR.html"}},"12925716944":{"location":[48.1028326,-4.3590641],"ct":"FR","tp":"CS","ts":"2025-06-19T12:20:44Z","tX":499,"tY":355,"tags":{"capacity":"150","name":"Camping Huttopia","phone":"+33 2 98 74 05 67","website":"https://europe.huttopia.com/site/camping-douarnenez/"}}}