{"30838373":{"location":[47.8022023,-4.2805358],"ct":"FR","tp":"PK","ts":"2024-09-05T22:55:52Z","tX":499,"tY":356,"tags":{"access":"yes","capacity:disabled":"1","caravan":"yes","check_date":"2022-08-19","disabled":"yes","fee":"yes","name":"Place Salvador Allende","name:br":"Plasenn Salvador Allende","parking":"surface","source:name:br":"proper translation"}},"31723252":{"location":[47.8027941,-4.313478],"ct":"FR","tp":"CS","ts":"2024-08-04T07:26:34Z","tX":499,"tY":356,"tags":{"name":"Village de la Plage","phone":"+33 2 98 58 61 90","stars":"4","toilets":"yes","website":"https://www.villagelaplage.com"}},"32875198":{"location":[47.8008379,-4.3321604],"ct":"FR","tp":"CS","ts":"2023-08-07T20:49:46Z","tX":499,"tY":356,"tags":{"addr:city":"Penmarc'h","addr:postcode":"29760","addr:street":"Rue de Toul ar Ster","capacity:pitches":"180","caravans":"yes","description":"Labels : \"Accueil Vélo\" et \"Étape Rando Bretagne\", source Le Télégramme du 21 juillet 2022","email":"campingpenmarch@orange.fr","internet_access":"wlan","name":"Camping municipal de Toul ar Ster","name:br":"Tachenn-gampiñ Kêr","nudism":"no","operator":"Commune de Penmarc'h","phone":"+33 2 98 58 86 88","sanitary_dump_station":"yes","source":"cadastre-dgi-fr source : Direction Générale des Impôts - Cadastre;mise à jour : 2008","source:name:br":"proper translation","stars":"2","tents":"yes","website":"https://www.camping-penmarch.fr"}},"32879553":{"location":[47.7998111,-4.3271936],"ct":"FR","tp":"CS","ts":"2021-09-11T17:39:18Z","tX":499,"tY":356,"tags":{"name":"Camping Le Grand Bleu","opening_hours":"Apr 1-Sep 15","phone":"+33 2 98 58 53 73","source":"cadastre-dgi-fr source : Direction Générale des Impôts - Cadastre ; mise à jour : 2008","stars":"3","website":"https://www.camping-legrand-bleu.com"}},"34209265":{"location":[47.7995286,-4.3484395],"ct":"FR","tp":"CR","ts":"2024-09-24T23:51:33Z","tX":499,"tY":356,"tags":{"access":"yes","capacity":"12","caravan_site":"motorhome_stopover","caravan_site:type":"beach","charge":"15 EUR","fee":"yes","internet_access":"no","maxstay":"48 hours","name":"Aire de Port de Bouc","name:br":"Leur Kirri-kampiñ","opening_hours":"Apr 01-Sep 15 Mo-Su 19:00-09:00","operator":"Commune de Penmarc'h","power_supply":"no","sanitary_dump_station":"no","toilets":"no","water_point":"no","website":"https://www.destination-paysbigouden.com/sejourner/hebergements/aires-de-camping-cars/aire-de-stationnement-port-de-bouc-2826832"}},"128416194":{"location":[47.8544093,-4.3063056],"ct":"FR","tp":"CS","ts":"2023-10-25T02:06:17Z","tX":499,"tY":356,"tags":{"email":"campinglanven@wanadoo.fr","internet_access":"wlan","internet_access:fee":"no","name":"Camping de Lanven","name:br":"Tachenn-gampiñ Lanvenn","source:name:br":"proper translation","stars":"3","website":"https://www.campinglanven.com/"}},"128416195":{"location":[47.8327628,-4.3277827],"ct":"FR","tp":"CS","ts":"2022-07-26T20:09:40Z","tX":499,"tY":356,"tags":{"addr:city":"Plomeur","addr:postcode":"29120","addr:street":"Pointe de la Torche","alt_name":"Camping du Finistère Sud","description":"Mobilehomes available","motorcycle_friendly":"customary","name":"Camping de la Torche","phone":"+33 2 98 58 62 82","stars":"3","website":"https://www.campingdelatorche.fr"}},"256448965":{"location":[47.8376328,-4.3408884],"ct":"FR","tp":"CR","ts":"2024-10-05T12:38:04Z","tX":499,"tY":356,"tags":{"access":"yes","caravan_site":"motorhome_stopover","caravan_site:type":"beach","description":"Camping Cars autorisés","fee":"no","internet_access":"no","name":"Aire de la Torche","sanitary_dump_station":"no","toilets":"no","website":"https://www.destination-paysbigouden.com/en/sejourner-english/where-to-stay/motor-home-service-areas/aire-de-stationnement-la-torche-2826829","wheelchair":"no"}},"256449314":{"location":[47.8237227,-4.3709987],"ct":"FR","tp":"CR","ts":"2024-09-24T21:58:02Z","tX":499,"tY":356,"tags":{"capacity":"42","caravan_site":"motorhome_stopover","caravan_site:type":"beach","caravans":"no","charge":"5 EUR","charge:conditional":"no @ (08:00-19:00); no @(Nov-Mar)","fee":"yes","maxstay":"49 hours","name":"Aire de stationnement du Viben","power_supply":"no","sanitary_dump_station":"no","surface":"gravel","tents":"asphalt","water_point":"no","website":"https://www.destination-paysbigouden.com/sejourner/hebergements/aires-de-camping-cars/aire-de-stationnement-rue-du-viben-2826833"}},"271418415":{"location":[47.7964721,-4.2295299],"ct":"FR","tp":"CS","ts":"2025-05-19T08:03:17Z","tX":499,"tY":356,"tags":{"caravans":"yes","description":"le tarif de Wifi est culoté","drinking_water":"yes","internet_access":"wlan","internet_access:fee":"yes","name":"Camping des Dunes","phone":"+33 2 98 87 81 78","power_supply":"yes","sanitary_dump_station":"yes","shower":"yes","stars":"3","tents":"yes","toilets":"yes","website":"https://www.camping-desdunes.com"}},"271418416":{"location":[47.7975312,-4.2302012],"ct":"FR","tp":"CS","ts":"2019-08-31T06:47:46Z","tX":499,"tY":356,"tags":{"brand":"Flower Campings","name":"Grande Plage","picnic_table":"no","swimming_pool":"yes","website":"https://www.flowercampings.com/camping-bretagne/camping-la-grande-plage"}},"271435816":{"location":[47.796832,-4.2564108],"ct":"FR","tp":"CS","ts":"2021-09-11T18:03:54Z","tX":499,"tY":356,"tags":{"name":"Camping des Ormes","phone":"+33 2 98 58 21 27","stars":"2","website":"http://www.campingdesormesleguilvinec.fr/"}},"271435822":{"location":[47.7924496,-4.2597506],"ct":"FR","tp":"PK","ts":"2022-08-20T11:38:09Z","tX":499,"tY":356,"tags":{"caravans":"yes","check_date":"2022-08-19","fee":"yes","opening_hours":"19:00 - 07:00"}},"279822266":{"location":[47.9405365,-4.3952649],"ct":"FR","tp":"CS","ts":"2022-04-15T17:28:13Z","tX":499,"tY":356,"tags":{"name":"Camping du Littoral","opening_hours":"Apr-Sep","phone":"+33 2 98 54 35 44","stars":"3","website":"https://www.campinglittoral.net"}},"315503108":{"location":[47.9121949,-4.2414057],"ct":"FR","tp":"CS","ts":"2014-12-02T18:26:59Z","tX":499,"tY":356,"tags":{"name":"Celtic village"}},"352881764":{"location":[47.8793862,-4.3485782],"ct":"FR","tp":"CS","ts":"2021-12-28T00:07:09Z","tX":499,"tY":356,"tags":{"name":"Camping municipal de Tréguennec","name:br":"Tachenn-gampiñ kêr Tregeneg","opening_hours":"Jun 15-Sep 15","phone":"+33 2 98 82 67 85","source":"E-mégalis Bretagne et collectivités territoriales bretonnes - 2012","source:name:br":"proper translation","website":"https://www.treguennec.fr/spip.php?article4"}},"352881767":{"location":[47.89507,-4.3277911],"ct":"FR","tp":"CS","ts":"2023-10-25T02:05:16Z","tX":499,"tY":356,"tags":{"name":"Camping Kerlaz","name:br":"Tachenn-gampiñ Kerlaz","source":"E-mégalis Bretagne et collectivités territoriales bretonnes - 2012","source:name:br":"proper translation","website":"https://www.kerlaz.com/"}},"356039565":{"location":[47.8191946,-4.3089194],"ct":"FR","tp":"CS","ts":"2021-09-11T17:49:17Z","tX":499,"tY":356,"tags":{"name":"Les Genêts","stars":"4","website":"https://www.flowercampings.com/camping-bretagne/camping-les-genets"}},"729271276":{"location":[47.8016697,-4.3519226],"ct":"FR","tp":"CS","ts":"2024-05-24T11:54:55Z","tX":499,"tY":356,"tags":{"addr:city":"Penmarch","addr:housenumber":"575","addr:postcode":"29760","addr:street":"Rue Ernest Renan","capacity":"66","caravans":"yes","fee":"yes","name":"GCU Kérity","name:br":"SKS Keriti","operator":"Groupement des Campeurs Universitaires","phone":"+33 2 98 58 76 50","sanitary_dump_station":"customers","source:name:br":"proper translation","stars":"2","static_caravans":"no","tents":"yes","website":"https://www.gcu.asso.fr/terrains/k%C3%A9rity-finist%C3%A8re-29"}},"853212692":{"location":[47.8107542,-4.3696209],"ct":"FR","tp":"CS","ts":"2021-09-11T17:20:06Z","tX":499,"tY":356,"tags":{"addr:city":"Penmarc'h","addr:housenumber":"625","addr:postcode":"29760","addr:street":"Rue de la Joie","capacity":"230","fee":"yes","internet_access":"wlan","internet_access:fee":"no","name":"Camping de la Joie","operator":"Famille Sánchez","phone":"+33 2 98 58 63 24","stars":"3","toilets:wheelchair":"yes","website":"https://www.campingdelajoie.bzh","wheelchair":"yes"}},"911706366":{"location":[47.8641499,-4.236074],"ct":"FR","tp":"CR","ts":"2024-10-08T17:44:13Z","tX":499,"tY":356,"tags":{"access":"yes","addr:city":"Pont-l'Abbé","addr:postcode":"29120","addr:street":"Route de Saint-Jean-Trolimon","capacity":"18","caravan_site":"motorhome_stopover","caravan_site:type":"supermarket","description":"Aire de camping-car avec laverie, recyclage, eau, electricité","fee":"no","maxstay":"no","name":"Aire de camping-cars de Leclerc Pont-l'Abbé","name:br":"Leur Kirri-kampiñ","operator":"Intermarché","power_supply":"yes","sanitary_dump_station":"yes","sanitary_dump_station:chemical_toilet":"yes","sanitary_dump_station:grey_water":"yes","sanitary_dump_station:round_drain":"yes","seasonal":"no","source:name:br":"ofis publik ar brezhoneg","supervised":"no","surface":"asphalt","water_point":"yes"}},"917798145":{"location":[47.8120903,-4.221101],"ct":"FR","tp":"CS","ts":"2021-09-11T18:10:22Z","tX":499,"tY":356,"tags":{"name":"L'Océan Breton","old_name":"Kerlut","phone":"+33 2 98 82 23 89","stars":"5","website":"https://www.camping-bretagne-oceanbreton.fr"}},"982033825":{"location":[47.9807438,-4.4302932],"ct":"FR","tp":"CS","ts":"2023-03-25T18:37:43Z","tX":499,"tY":356,"tags":{"cabins":"yes","caravans":"yes","name":"La Corniche","phone":"+33 2 98 91 33 94","shower":"yes","stars":"3","tents":"yes","toilets":"yes","website":"https://www.olela.fr/campings/camping-corniche"}},"1024002047":{"location":[47.8168197,-4.3260599],"ct":"FR","tp":"CR","ts":"2024-10-05T16:38:03Z","tX":499,"tY":356,"tags":{"caravan_site":"motorhome_stopover","caravan_site:type":"countryside","charge":"5 EUR","fee":"yes","internet_access":"no","name":"Aire de Ménez Gad","operator":"Commune de Penmarc'h","power_supply":"no","sanitary_dump_station":"no","surface":"unpaved","toilets":"no"}},"1028716608":{"location":[47.8614944,-4.2669135],"ct":"FR","tp":"CS","ts":"2022-02-06T18:22:16Z","tX":499,"tY":356,"tags":{"internet_access":"wlan","website":"https://keraluic.fr/"}},"1223155054":{"location":[47.9164541,-4.3744644],"ct":"FR","tp":"CS","ts":"2023-11-13T09:04:44Z","tX":499,"tY":356,"tags":{"caravans":"yes","fee":"yes","name":"Aire Naturelle de Camping Plovan","phone":"+33298544207","static_caravans":"no","tents":"yes","website":"https://www.plovan.fr/laire-naturelle-de-camping/"}},"2407261117":{"location":[47.8678004,-4.2270593],"ct":"FR","tp":"CR","ts":"2024-10-07T18:09:53Z","tX":499,"tY":356,"tags":{"caravan_site":"motorhome_stopover","caravan_site:type":"village","fee":"no","name":"Terre-plein de la Madeleine","power_supply":"no","sanitary_dump_station":"no","toilets":"no","water_point":"no","website":"https://www.destination-paysbigouden.com/sejourner/hebergements/aires-de-camping-cars/aire-de-stationnement-terre-plein-de-la-madeleine-2569479"}},"2407289249":{"location":[47.8138973,-4.3606746],"ct":"FR","tp":"SD","ts":"2025-04-18T15:35:42Z","tX":499,"tY":356,"tags":{"charge":"2 EUR","check_date":"2024-05-19","fee":"yes","name":"Aire de services - Rue du Pont Névez","payment:cash":"no","payment:credit_cards":"yes","sanitary_dump_station:grey_water":"yes","water_point":"yes","website":"https://www.aireparkreservation.com/aires-camping-cars/bretagne/finistere/penmarch"}},"9026944180":{"location":[47.9666533,-4.3668202],"ct":"FR","tp":"CS","ts":"2024-06-24T20:10:55Z","tX":499,"tY":356,"tags":{"name":"Camping les peupliers","website":"https://www.camping-peupliers-pouldreuzic.com/"}},"9082519828":{"location":[47.7982435,-4.2497215],"ct":"FR","tp":"CS","ts":"2021-09-11T18:22:20Z","tX":499,"tY":356,"tags":{"name":"Les Vergers de Squividan","phone":"+33 2 98 58 09 12","stars":"3","website":"https://www.lesvergersdesquividan.fr"}},"9082519938":{"location":[47.7973679,-4.2474845],"ct":"FR","tp":"CS","ts":"2021-09-11T18:26:47Z","tX":499,"tY":356,"tags":{"name":"Karreg Skividen","phone":"+33 2 98 58 22 78","stars":"2","website":"https://campingkarregskividen.com"}},"9957879692":{"location":[47.8022416,-4.2806584],"ct":"FR","tp":"CR","ts":"2024-09-05T22:55:52Z","tX":499,"tY":356,"tags":{"caravan_site":"motorhome_stopover","caravan_site:type":"village","check_date":"2023-01-12","dog":"yes","fee":"no","name":"Place Salvador Allende","operator":"Commune du Guilvinec","toilets":"yes","website":"https://www.destination-paysbigouden.com/en/sejourner-english/where-to-stay/motor-home-service-areas/aire-de-stationnement-place-salvador-allende-2826093"}},"8465239609":{"location":[47.8641706,-4.2358346],"ct":"FR","tp":"SD","ts":"2021-11-20T14:40:26Z","tX":499,"tY":356,"tags":{"description":"Station de vidange pour Camping-car.","fee":"no","operator":"Intermarché","sanitary_dump_station:chemical_toilet":"yes","sanitary_dump_station:grey_water":"yes","sanitary_dump_station:round_drain":"yes","water_point":"yes"}}}