{"6524568":{"location":[43.3918244,-4.5085714],"ct":"ES","tp":"CS","ts":"2023-09-21T20:26:55Z","tX":499,"tY":374,"tags":{"email":"info@campinglasarenas.com","name":"Camping Las Arenas","phone":"+34 942717188","website":"https://www.campinglasarenas.net/"}},"108571529":{"location":[43.389549,-4.3325559],"ct":"ES","tp":"CS","ts":"2024-01-24T16:29:58Z","tX":499,"tY":374,"tags":{"addr:city":"El Tejo","addr:postcode":"39528","addr:street":"Calle de Oyambre","email":"info@campingoyambrebeach.es","name":"Camping Oyambre Beach","website":"https://www.campingoyambrebeach.es/"}},"169012705":{"location":[43.3877361,-4.2838094],"ct":"ES","tp":"CS","ts":"2012-06-25T17:02:17Z","tX":499,"tY":374,"tags":{"name":"Comillas"}},"169012707":{"location":[43.3878361,-4.282248],"ct":"ES","tp":"CS","ts":"2012-06-25T17:02:17Z","tX":499,"tY":374,"tags":{"name":"Comillas"}},"221323402":{"location":[43.3881411,-4.3867848],"ct":"ES","tp":"CS","ts":"2023-11-08T02:14:27Z","tX":499,"tY":374,"tags":{"caravans":"yes","drinking_water":"yes","name":"El Rosal","power_supply":"yes","shower":"yes","tents":"yes","toilets":"yes","website":"https://www.campingelrosal.com/"}},"230878538":{"location":[43.3851303,-4.3383224],"ct":"ES","tp":"CS","ts":"2024-08-29T17:38:39Z","tX":499,"tY":374,"tags":{"caravans":"yes","email":"camping@oyambre.com","name":"Camping Caravaning Oyambre","phone":"+34 942711461","tents":"yes","website":"https://www.oyambre.com/"}},"230878539":{"location":[43.3849681,-4.3333573],"ct":"ES","tp":"CS","ts":"2023-11-08T02:14:20Z","tX":499,"tY":374,"tags":{"access":"customers","addr:city":"Parque Natural de Oyambre","addr:housenumber":"105","addr:postcode":"39528","addr:street":"Barrio El Tejo","email":"campingrodero@gmail.com","fee":"yes","image":"http://www.campingrodero.com/wp-content/uploads/2018/05/Logo-Camping-Nombre-80.png","name":"Camping Rodero","payment:cards":"yes","payment:cash":"yes","phone":"+34 942 722 040","shower":"yes","toilets":"yes","website":"https://www.campingrodero.com/"}},"230880141":{"location":[43.3721573,-4.4666255],"ct":"ES","tp":"CS","ts":"2013-07-22T18:38:56Z","tX":499,"tY":374,"tags":{"name":"Camping Royal 2"}},"235299173":{"location":[43.3754381,-4.5630809],"ct":"ES","tp":"CS","ts":"2013-08-27T12:38:09Z","tX":499,"tY":374,"tags":{"addr:city":"La Franca-Ribadedeva","addr:postcode":"33590","addr:street":"Carretera de Noriega","name":"El Mirador de Llavandes","source":"http://www.zoover.fr/espagne/asturies/la-franca-ribadedeva/el-mirador-de-llavandes/camping"}},"516487460":{"location":[43.3904809,-4.3321995],"ct":"ES","tp":"CS","ts":"2024-08-03T16:58:02Z","tX":499,"tY":374,"tags":{}},"1075295160":{"location":[43.3823242,-4.2463793],"ct":"ES","tp":"CS","ts":"2022-07-02T10:04:16Z","tX":499,"tY":374,"tags":{"addr:city":"Ruiloba","addr:country":"ES","addr:postcode":"39527","addr:street":"Calle El Helguero","backcountry":"no","cabins":"yes","email":"reservas@campingelhelguero.com","fax":"+34 942 721 020","fee":"yes","group_only":"no","internet_access":"wlan","name":"Camping El Helguero","phone":"+34 942 722 124","power_supply":"yes","sanitary_dump_station":"yes","shower":"yes","toilets":"yes","website":"https://www.campingelhelguero.com/"}},"8995344954":{"location":[43.3804954,-4.5548148],"ct":"ES","tp":"CR","ts":"2024-03-22T16:45:11Z","tX":499,"tY":374,"tags":{"drinking_water":"yes","name":"Área autocaravanas de El Peral (Casa Junco)","sanitary_dump_station":"yes","sanitary_dump_station:chemical_toilet":"yes","sanitary_dump_station:grey_water":"yes","water_point":"yes"}},"11646579004":{"location":[43.387866,-4.2696049],"ct":"ES","tp":"CR","ts":"2024-04-24T19:26:23Z","tX":499,"tY":374,"tags":{"caravan_site":"motorhome_stopover","caravan_site:type":"beach","fee":"yes","name":"Área de autocaravanas Comillas-Ruiloba","sanitary_dump_station":"yes","water_point":"yes"}},"4360088871":{"location":[43.3925851,-4.5099829],"ct":"ES","tp":"SD","ts":"2024-05-12T12:32:16Z","tX":499,"tY":374,"tags":{"motorhome":"designated"}},"7778710838":{"location":[43.387386,-4.3738677],"ct":"ES","tp":"SD","ts":"2020-08-02T19:04:45Z","tX":499,"tY":374,"tags":{"access":"customers"}},"9952500122":{"location":[43.3874069,-4.3737783],"ct":"ES","tp":"SD","ts":"2022-08-14T11:13:08Z","tX":499,"tY":374,"tags":{"access":"customers","source":"survey","survey:date":"2022-08-08"}}}