{"134905283":{"location":[42.8729557,-4.5055655],"ct":"ES","tp":"CS","ts":"2024-08-20T08:52:27Z","tX":499,"tY":376,"tags":{"caravans":"yes","dog":"yes","fee":"yes","name":"Camping Fuentes Carrionas","phone":"+34 979 870 424","power_supply":"yes","tents":"yes","website":"https://www.campingfuentescarrionas.com/"}},"833151388":{"location":[43.0120503,-4.2740196],"ct":"ES","tp":"CS","ts":"2024-06-11T07:06:04Z","tX":499,"tY":376,"tags":{"addr:city":"Entrambasaguas","addr:postcode":"39210","addr:street":"Barrio Riaño","email":"complejopuenteromano@gmail.com","name":"Complejo Puente Romano","phone":"+34 629 46 21 55","website":"https://www.puente-romano.com/"}},"5445034062":{"location":[42.8713877,-4.4999559],"ct":"ES","tp":"CR","ts":"2024-02-09T20:52:39Z","tX":499,"tY":376,"tags":{"addr:street":"Calle de San Roque","fee":"no","internet_access":"no","name":"Área de autocaravanas Cervera de Pisuerga","opening_hours":"24/7","operator":"Diputación de Palencia","power_supply":"no","sanitary_dump_station":"yes"}},"10997470005":{"location":[42.9655474,-4.4962127],"ct":"ES","tp":"CR","ts":"2024-04-16T14:42:26Z","tX":499,"tY":376,"tags":{"capacity":"18","caravan_site":"motorhome_stopover","caravan_site:type":"village","maxstay":"72 hours","name":"Area de San Salvador de Cantamuda","picnic_area":"yes","sanitary_dump_station":"yes","tents":"no","water_point":"yes","website":"https://www.turismolapernia.com/area-de-autocaravanas-la-pernia/"}},"9130752821":{"location":[42.8712876,-4.4999481],"ct":"ES","tp":"SD","ts":"2022-09-05T17:05:30Z","tX":499,"tY":376,"tags":{"access":"yes","fee":"yes","opening_hours":"24/7","power_supply":"no","sanitary_dump_station:accepted":"black_water;grey_water","sanitary_dump_station:basin":"yes","water_point":"yes"}}}