{"248282483":{"location":[42.5889126,-4.332377],"ct":"ES","tp":"CS","ts":"2023-05-10T20:53:44Z","tX":499,"tY":377,"tags":{"name":"Camping Fuente los Caños"}},"366315281":{"location":[42.7851087,-4.3006579],"ct":"ES","tp":"CS","ts":"2025-03-02T21:34:52Z","tX":499,"tY":377,"tags":{"access":"customers","cabins":"yes","caravans":"yes","dog":"yes","drinking_water":"yes","motor_vehicle":"yes","name":"Camping Monte Royal","power_supply":"yes","shower":"yes","tents":"yes","toilets":"yes","washing_machine":"yes","website":"https://www.campingmonteroyal.com"}},"1009288779":{"location":[42.7858223,-4.2571816],"ct":"ES","tp":"CR","ts":"2024-04-16T13:59:01Z","tX":499,"tY":377,"tags":{"access":"yes","addr:city":"Aguilar de Campoó","addr:housenumber":"21","addr:postcode":"34800","addr:street":"Avenida del Soto","camping_behaviour":"no","capacity":"10","caravan_site":"motorhome_stopover","caravan_site:type":"sports_centre;town","caravans":"no","covered":"no","drinking_water":"yes","fee":"no","maxstay":"48 hours","name":"Las Campas","opening_hours":"24/7","operator":"ciudad de Aguilar de Campoó","picnic_area":"yes","power_supply":"no","sanitary_dump_station":"yes","sanitary_dump_station:chemical_toilet":"yes","sanitary_dump_station:grey_water":"yes","sanitary_dump_station:round_drain":"yes","shower":"no","supervised":"no","surface":"concrete:plates","tents":"no","toilets":"no","water_point":"yes","website":"https://www.turismocastillayleon.com/es/servicios/areas-servicio-autocaravanas/campas"}},"1009294513":{"location":[42.5899773,-4.3329595],"ct":"ES","tp":"CR","ts":"2024-04-16T19:42:56Z","tX":499,"tY":377,"tags":{"access":"yes","addr:city":"Herrera de Pisuerga","addr:housenumber":"4","addr:postcode":"34400","addr:street":"Camino Camping","capacity":"7","covered":"no","fee":"no","opening_hours":"24/7","operator":"ciudad de Herrera de Pisuerga","power_supply":"no","sanitary_dump_station":"yes","sanitary_dump_station:chemical_toilet":"yes","sanitary_dump_station:grey_water":"yes","sanitary_dump_station:round_drain":"yes","supervised":"no","surface":"asphalt","water_point":"yes","website":"https://herreradepisuerga.es/multimedia/area-de-autocaravanas/"}},"5445457223":{"location":[42.6587872,-4.3096478],"ct":"ES","tp":"CR","ts":"2024-03-22T16:04:13Z","tX":499,"tY":377,"tags":{"addr:housenumber":"6","addr:postcode":"34480","addr:street":"Plaza Pablo Guaza","name":"La Dársena","opening_hours":"24/7","website":"http://geoparquelasloras.es/index.php/otros-datos-de-interes/"}},"9312291089":{"location":[42.7860772,-4.2572609],"ct":"ES","tp":"SD","ts":"2024-02-25T20:50:05Z","tX":499,"tY":377,"tags":{"access":"yes","fee":"no","motorhome":"designated","operator":"ciudad de Aguilar de Campoó","sanitary_dump_station":"public","sanitary_dump_station:chemical_toilet":"yes","sanitary_dump_station:grey_water":"yes","sanitary_dump_station:round_drain":"yes","water_point":"yes"}},"9312339715":{"location":[42.7179783,-4.2918315],"ct":"ES","tp":"SD","ts":"2025-01-25T11:53:25Z","tX":499,"tY":377,"tags":{"access":"yes","description":"Estación de vaciado de tanqué para autocaravanas","description:fr":"Station de vidange pour Camping-car.","fee":"no","operator:-2024":"Cepsa","sanitary_dump_station":"public","sanitary_dump_station:chemical_toilet":"yes","sanitary_dump_station:grey_water":"yes","sanitary_dump_station:round_drain":"yes","water_point":"yes"}},"9312375522":{"location":[42.5899555,-4.3331522],"ct":"ES","tp":"SD","ts":"2021-12-05T12:56:26Z","tX":499,"tY":377,"tags":{"access":"yes","description":"Estación de vaciado de tanqué para autocaravanas","description:fr":"Station de vidange pour Camping-car.","fee":"no","operator":"ciudad de Herrera de Pisuerga","sanitary_dump_station":"public","sanitary_dump_station:chemical_toilet":"yes","sanitary_dump_station:grey_water":"yes","sanitary_dump_station:round_drain":"yes","water_point":"yes"}}}