{"1009296746":{"location":[42.4133922,-4.3625022],"ct":"ES","tp":"CR","ts":"2024-04-16T20:00:50Z","tX":499,"tY":378,"tags":{"access":"yes","addr:city":"Osorno","addr:housenumber":"96","addr:postcode":"34460","addr:street":"Carretera Saldaña","capacity":"5","covered":"no","fee":"no","maxstay":"no","name":"área de San Miguel de Los Santos - Osorno","opening_hours":"24/7","operator":"ciudad de Osorno","power_supply":"no","sanitary_dump_station":"yes","sanitary_dump_station:chemical_toilet":"yes","sanitary_dump_station:grey_water":"yes","sanitary_dump_station:round_drain":"yes","supervised":"no","surface":"asphalt","water_point":"yes"}},"1009298804":{"location":[42.4171654,-4.3503295],"ct":"ES","tp":"CR","ts":"2024-04-15T13:58:49Z","tX":499,"tY":378,"tags":{"access":"yes","addr:city":"Osorno la Mayor","addr:housenumber":"Km 59","addr:postcode":"34460","addr:street":"N-611","capacity":"15","caravan_site":"motorhome_stopover","caravan_site:type":"fuel_station","covered":"no","fee":"no","maxstay":"no","name":"Osorno Los Chopos","opening_hours":"24/7","operator":"Hostal los Chopos","power_supply":"no","sanitary_dump_station":"yes","sanitary_dump_station:chemical_toilet":"yes","sanitary_dump_station:grey_water":"yes","sanitary_dump_station:round_drain":"yes","supervised":"no","surface":"asphalt","water_point":"yes"}},"11215451037":{"location":[42.4306926,-4.3641117],"ct":"ES","tp":"CS","ts":"2023-09-24T11:59:30Z","tX":499,"tY":378,"tags":{}},"9312379430":{"location":[42.4167813,-4.3506967],"ct":"ES","tp":"SD","ts":"2024-04-15T13:58:49Z","tX":499,"tY":378,"tags":{"access":"yes","fee":"no","opening_hours":"Mo-Su 06:00-23:00","operator":"Hostal los Chopos","sanitary_dump_station":"public","sanitary_dump_station:chemical_toilet":"yes","sanitary_dump_station:grey_water":"yes","sanitary_dump_station:round_drain":"yes","water_point":"yes"}},"9312383978":{"location":[42.4134009,-4.3624259],"ct":"ES","tp":"SD","ts":"2024-04-16T14:45:50Z","tX":499,"tY":378,"tags":{"access":"yes","fee":"no","operator":"ciudad de Osorno","sanitary_dump_station":"public","sanitary_dump_station:chemical_toilet":"yes","sanitary_dump_station:grey_water":"yes","sanitary_dump_station:round_drain":"yes","water_point":"yes"}}}