{"84802608":{"location":[42.0038825,-4.5346145],"ct":"ES","tp":"CR","ts":"2011-07-01T00:27:55Z","tX":499,"tY":380,"tags":{"fee":"no","internet_access":"no"}},"382970849":{"location":[41.8756249,-4.5421854],"ct":"ES","tp":"CR","ts":"2024-04-16T13:24:31Z","tX":499,"tY":380,"tags":{"caravan_site":"motorhome_stopover","caravan_site:type":"village","fee":"no","name":"Área de autocaravanas Dueñas","power_supply":"no","sanitary_dump_station":"yes","water_point":"yes"}},"944222600":{"location":[42.0098735,-4.5452876],"ct":"ES","tp":"CR","ts":"2024-08-16T08:41:30Z","tX":499,"tY":380,"tags":{"addr:milestone":"km. 2","addr:postcode":"34005","addr:street":"Carretera de León","car_wash":"yes","caravan_site":"motorhome_stopover","email":"autocaravanas@estaciondeserviciosuances.com","fee":"no","internet_access":"wlan","internet_access:fee":"customers","laundry":"yes","name":"Área de Autocaravanas Suances","opening_hours":"24/7","phone":"+34 665045224","power_supply":"yes","sanitary_dump_station":"yes","sanitary_dump_station:chemical_toilet":"yes","sanitary_dump_station:grey_water":"yes","shower":"yes","surface":"asphalt","toilets":"yes","water_point":"yes","website":"http://www.estaciondeserviciosuances.com"}},"5445013273":{"location":[41.9348481,-4.2479712],"ct":"ES","tp":"CR","ts":"2024-03-22T02:06:50Z","tX":499,"tY":380,"tags":{"addr:housenumber":"5","addr:postcode":"34240","addr:street":"Calle Arreñales deRevilla","drinking_water":"yes","name":"Baltanás mejora el Área de Autocaravanas","opening_hours":"24/7","sanitary_dump_station":"yes","water_point":"yes","water_point:fee":"yes","website":"https://baltanas.es/2021/04/15/baltanas-mejora-el-area-de-autocaravanas/"}},"7978823298":{"location":[41.8755481,-4.5421219],"ct":"ES","tp":"SD","ts":"2024-02-05T21:35:10Z","tX":499,"tY":380,"tags":{"access":"yes","fee":"no","motorhome":"designated"}}}