{"934266546":{"location":[37.6963083,-4.4845966],"ct":"ES","tp":"CR","ts":"2024-04-14T21:48:08Z","tX":499,"tY":396,"tags":{"access":"yes","addr:city":"Castro del Río","addr:postcode":"14840","addr:street":"Calle Doctor Sancho Lobo","capacity":"20","caravan_site":"motorhome_stopover","covered":"no","drinking_water":"yes","fee":"no","name":"Area de Castro del Río","opening_hours":"24/7","operator":"ciudad de Castro del Río","power_supply":"no","sanitary_dump_station":"yes","sanitary_dump_station:chemical_toilet":"yes","sanitary_dump_station:grey_water":"yes","sanitary_dump_station:round_drain":"yes","supervised":"no","surface":"unpaved","water_point":"yes"}},"1247332586":{"location":[37.5465689,-4.3523816],"ct":"ES","tp":"CR","ts":"2024-02-07T17:28:54Z","tX":499,"tY":396,"tags":{"addr:housenumber":"67","addr:postcode":"14860","addr:street":"Avenida de Chartrettes","charge":"3 EUR","charge:conditional":"7 EUR/weekend@(Fr-Su)","fee":"yes","name":"Área de Autocaravanas Doña Mencía","opening_hours":"24/7","phone":"+34661868441","reservation":"required","website":"https://donamencia.es/autocaravanas/"}},"1264230355":{"location":[37.4664563,-4.4236012],"ct":"ES","tp":"CR","ts":"2024-03-20T15:06:10Z","tX":499,"tY":396,"tags":{"alt_name":"Área de estacionamiento de la Fuente del Río","capacity":"24","fee":"no","maxstay":"48 hours","name":"Área de autocaravanas Cabra (Córdoba)","power_supply":"no","sanitary_dump_station":"yes","sanitary_dump_station:chemical_toilet":"yes","sanitary_dump_station:grey_water":"yes","source:name":"https://turismodelasubbetica.es/cabra/agendas/autocaravanas","surface":"asphalt","water_point":"https://turismodelasubbetica.es/cabra/agendas/autocaravanas","website":"https://turismodelasubbetica.es/cabra/blogs/cabra-ac-friendly"}},"7887421590":{"location":[37.4764711,-4.4420508],"ct":"ES","tp":"CR","ts":"2024-03-19T18:13:06Z","tX":499,"tY":396,"tags":{"fee":"no","name":"Área de Cabra II","sanitary_dump_station":"yes","water_point":"yes"}},"12238490001":{"location":[37.4442033,-4.2757926],"ct":"ES","tp":"CR","ts":"2024-10-09T14:23:00Z","tX":499,"tY":396,"tags":{"capacity":"6","maxstay":"72 hours","sanitary_dump_station":"yes","water_point":"yes"}},"8658958293":{"location":[37.6964306,-4.4847121],"ct":"ES","tp":"SD","ts":"2024-01-31T23:54:54Z","tX":499,"tY":396,"tags":{"access":"yes","fee":"no","motorhome":"designated","operator":"Ayuntamiento de Castro del Río","sanitary_dump_station":"public","sanitary_dump_station:chemical_toilet":"yes","sanitary_dump_station:grey_water":"yes","sanitary_dump_station:round_drain":"yes","seasonal":"no","water_point":"yes"}},"12323299317":{"location":[37.6670322,-4.2365796],"ct":"ES","tp":"CR","ts":"2024-11-08T10:00:03Z","tX":499,"tY":396,"tags":{"name":"Área de Albalbin"}},"12636411801":{"location":[37.6854804,-4.4391645],"ct":"ES","tp":"CS","ts":"2025-03-04T18:08:08Z","tX":499,"tY":396,"tags":{"opening_hours":"24/7"}}}