{"343892974":{"location":[37.2623226,-4.3229674],"ct":"ES","tp":"CS","ts":"2020-02-20T18:58:27Z","tX":499,"tY":397,"tags":{"dog":"yes","internet_access":"wlan","name":"Camping Valdearenas de Iznájar","phone":"+34657603704","website":"https://www.campingvaldearenas.es"}},"936258024":{"location":[37.3312502,-4.3731459],"ct":"ES","tp":"CR","ts":"2024-04-14T21:48:08Z","tX":499,"tY":397,"tags":{"access":"yes","addr:city":"Rute","addr:postcode":"14960","addr:street":"Calle de los Olivos","capacity":"10","caravan_site":"motorhome_stopover","covered":"no","drinking_water":"yes","fee":"no","name":"Área de Autocaravanas de Rute I","operator":"ciudad de Rute","power_supply":"no","sanitary_dump_station":"yes","sanitary_dump_station:chemical_toilet":"yes","sanitary_dump_station:grey_water":"yes","sanitary_dump_station:round_drain":"yes","supervised":"no","surface":"asphalt","water_point":"yes"}},"936262268":{"location":[37.1782178,-4.4497438],"ct":"ES","tp":"CR","ts":"2024-04-14T21:48:08Z","tX":499,"tY":397,"tags":{"access":"yes","addr:city":"Villanueva de Algaidas","addr:postcode":"29310","addr:street":"Avenida Escultor Berrocal","capacity":"25","caravan_site":"motorhome_stopover","covered":"no","drinking_water":"yes","fee":"no","name":"Área de Autocaravanas Villanueva de Algaidas","operator":"ciudad de Villanueva de Algaidas","power_supply":"no","sanitary_dump_station":"yes","sanitary_dump_station:chemical_toilet":"yes","sanitary_dump_station:grey_water":"yes","sanitary_dump_station:round_drain":"yes","supervised":"no","surface":"asphalt","water_point":"yes"}},"11746022743":{"location":[37.3276177,-4.363477],"ct":"ES","tp":"CR","ts":"2024-03-19T18:13:06Z","tX":499,"tY":397,"tags":{"fee":"no","name":"Parking en Paseo del Fresno","power_supply":"no","sanitary_dump_station":"yes"}},"11755968813":{"location":[37.3289224,-4.3773085],"ct":"ES","tp":"CR","ts":"2024-03-23T17:10:56Z","tX":499,"tY":397,"tags":{"capacity":"6","fee":"no","internet_access":"no","name":"Camperplaats Rute","opening_hours":"24/7","reservation":"no","sanitary_dump_station":"yes","stars":"3","wheelchair":"yes"}},"8675570238":{"location":[37.3314091,-4.3733507],"ct":"ES","tp":"SD","ts":"2024-03-19T18:13:06Z","tX":499,"tY":397,"tags":{"access":"yes","fee":"no","operator":"Ayuntamiento de Rute","sanitary_dump_station":"public","sanitary_dump_station:chemical_toilet":"yes","sanitary_dump_station:grey_water":"yes","sanitary_dump_station:round_drain":"yes","water_point":"yes"}},"8675608349":{"location":[37.1781229,-4.4495238],"ct":"ES","tp":"SD","ts":"2023-08-29T15:15:35Z","tX":499,"tY":397,"tags":{"access":"yes","fee":"no","operator":"Ayuntamiento de Villanueva de Algaidas","sanitary_dump_station":"public","sanitary_dump_station:chemical_toilet":"yes","sanitary_dump_station:grey_water":"yes","sanitary_dump_station:round_drain":"yes","water_point":"yes"}}}