{"200835993":{"location":[55.1970984,-6.6340891],"ct":"GB","tp":"CR","ts":"2023-06-22T20:39:31Z","tX":493,"tY":322,"tags":{"name":"Golflinks Holiday Home Park","phone":"+44 28 7082 4644","website":"https://www.golflinksholidayhomes.co.uk/"}},"200922482":{"location":[55.1967892,-6.669637],"ct":"GB","tp":"CR","ts":"2023-11-10T14:44:00Z","tX":493,"tY":322,"tags":{"name":"Dhu Varren Caravan Park"}},"221282687":{"location":[55.1944628,-6.5152467],"ct":"GB","tp":"CR","ts":"2024-02-28T11:25:22Z","tX":493,"tY":322,"tags":{"addr:city":"Bushmills","addr:housenumber":"40","addr:postcode":"BT57 8TN","addr:street":"Castlecat Road","capacity":"50","fee":"yes","internet_access":"wlan","name":"Ballyness Caravan Park","power_supply":"yes","sanitary_dump_station":"yes","source":"ACSI"}},"324758036":{"location":[55.1896408,-6.6633338],"ct":"GB","tp":"CR","ts":"2024-02-27T16:38:10Z","tX":493,"tY":322,"tags":{"name":"Hilltop Camping"}},"480458977":{"location":[55.1982103,-6.600257],"ct":"GB","tp":"CR","ts":"2024-04-07T19:43:06Z","tX":493,"tY":322,"tags":{"addr:city":"Portrush","addr:postcode":"BT56 8NE","addr:street":"Ballybogey Road","name":"Ballymacrea Touring Caravan Park"}},"480459362":{"location":[55.2142681,-6.5458276],"ct":"GB","tp":"CR","ts":"2024-03-11T23:24:18Z","tX":493,"tY":322,"tags":{"name":"Holiday Home Park"}},"594550941":{"location":[55.1920542,-6.6193283],"ct":"GB","tp":"CR","ts":"2023-11-29T15:46:06Z","tX":493,"tY":322,"tags":{"name":"Craigahulliar Holiday Park"}},"820887465":{"location":[55.1959049,-6.6267492],"ct":"GB","tp":"CR","ts":"2023-06-19T19:58:29Z","tX":493,"tY":322,"tags":{"addr:city":"Portrush","addr:housenumber":"126","addr:postcode":"BT56 8NB","addr:street":"Dunluce Road","name":"Skerries Holiday Park","operator":"Skerries Holiday Park","website":"https://www.skerriesholidaypark.com"}},"1170405927":{"location":[55.228462,-6.4356564],"ct":"GB","tp":"CS","ts":"2023-05-08T21:27:39Z","tX":493,"tY":322,"tags":{"brand":"Camping and Caravanning Club","capacity:pitches":"15","caravans":"yes","email":"neil.johnson20@btopenworld.com","mobile":"+44 7833 983022","motorhome":"yes","name":"Craig House Campsite","name:en":"Craig House Campsite","phone":"+44 28 2073 2955","shower":"yes","tents":"yes","toilets":"yes","website":"https://craighousecampsite.myfreesites.net/"}},"1270695218":{"location":[55.1972968,-6.5959449],"ct":"GB","tp":"CR","ts":"2024-04-07T19:25:45Z","tX":493,"tY":322,"tags":{"name":"Highview Holiday Park"}}}