{"5339315":{"location":[43.5487588,-6.3838778],"ct":"ES","tp":"CS","ts":"2023-03-22T20:51:27Z","tX":493,"tY":374,"tags":{"addr:city":"Cadavedo","capacity:pitches":"29","caravans":"yes","charging_station":"yes","dog":"yes","fee":"yes","internet_access":"wlan","internet_access:fee":"no","name":"La Regalina","phone":"+34 985 64 50 56","playground":"yes","power_supply":"yes","shower":"hot","static_caravans":"yes","swimming_pool":"yes","tents":"yes","toilets":"yes","washing_machine":"yes","website":"https://www.laregalina.com/es/camping.html"}},"39351399":{"location":[43.5512514,-6.5531185],"ct":"ES","tp":"CS","ts":"2023-03-22T20:29:05Z","tX":493,"tY":374,"tags":{"bbq":"yes","cabins":"yes","caravans":"yes","contact:mail":"tauran@campingtauran.com","dog":"leashed","fee":"yes","internet_access":"wlan","internet_access:fee":"no","name":"Camping Playa de Taurán","phone":"+34 985 641 272","playground":"yes","power_supply":"yes","shower":"yes","tents":"yes","toilets":"yes","website":"https://campingtauran.com/"}},"299039528":{"location":[43.5492042,-6.5238825],"ct":"ES","tp":"CS","ts":"2023-03-22T20:27:36Z","tX":493,"tY":374,"tags":{"name":"Los Cantiles","website":"http://www.campingloscantiles.com"}},"620987737":{"location":[43.5606178,-6.6507353],"ct":"ES","tp":"CS","ts":"2018-08-29T23:08:12Z","tX":493,"tY":374,"tags":{"name":"Camping El Ancla"}},"922500946":{"location":[43.4039587,-6.5415878],"ct":"ES","tp":"CR","ts":"2024-04-11T15:19:49Z","tX":493,"tY":374,"tags":{"access":"yes","addr:city":"Tineo","addr:postcode":"33404","addr:street":"Navelgas-Muñalén-Caerás","capacity":"15","caravan_site":"motorhome_stopover","covered":"no","fee":"no","maxstay":"48 hours","name":"Área autocaravanas de Tineo","name:fr":"Aire Camping Car Tineo","opening_hours":"24/7","operator":"ciudad de Tineo","power_supply":"no","sanitary_dump_station":"yes","sanitary_dump_station:chemical_toilet":"no","sanitary_dump_station:grey_water":"yes","sanitary_dump_station:round_drain":"yes","supervised":"no","surface":"asphalt","tents":"no","water_point":"yes","website":"https://www.turismoasturias.es/organiza-tu-viaje/como-llegar-y-moverse/autocaravanas/area-tineo"}},"1156157227":{"location":[43.5460633,-6.6006135],"ct":"ES","tp":"CS","ts":"2023-03-21T21:57:20Z","tX":493,"tY":374,"tags":{"cabins":"yes","caravans":"yes","dog":"yes","email":"info@campingotur.com","fee":"yes","internet_access":"wlan","internet_access:fee":"no","name":"Camping Playa de Otur","phone":"+34 985 640 117","power_supply":"yes","shower":"hot","tents":"yes","toilets":"yes","toilets:wheelchair":"yes","washing_machine":"yes","website":"https://www.campingotur.com"}},"1265514382":{"location":[43.5382395,-6.5369584],"ct":"ES","tp":"CR","ts":"2024-03-23T13:44:05Z","tX":493,"tY":374,"tags":{"addr:housenumber":"14","addr:postcode":"33700","addr:street":"Avenida de La Estación","capacity":"15","caravan_site":"motorhome_stopover","caravan_site:type":"village","caravans":"no","maxstay":"72 hours","name":"Área de autocaravanas de Luarca","opening_hours":"24/7","picnic_area":"yes","sanitary_dump_station":"parking_lot","sanitary_dump_station:chemical_toilet":"yes","sanitary_dump_station:grey_water":"yes","surface":"grass","water_point":"yes","website":"https://www.turismoasturias.es/organiza-tu-viaje/como-llegar-y-moverse/autocaravanas/area-de-autocaravanas-de-luarca"}},"1265560174":{"location":[43.4990529,-6.4365292],"ct":"ES","tp":"CR","ts":"2024-03-23T16:16:33Z","tX":493,"tY":374,"tags":{"capacity":"9","caravans":"no","fee":"no","name":"Área de autocaravanas de Trevías","picnic_area":"yes","power_supply":"no","sanitary_dump_station":"yes","tents":"no","water_point":"yes","website":"https://www.turismoasturias.es/organiza-tu-viaje/como-llegar-y-moverse/autocaravanas/area-de-autocaravanas-de-tresvias"}},"11844512201":{"location":[43.3362041,-6.4073548],"ct":"ES","tp":"CR","ts":"2024-04-24T13:57:03Z","tX":493,"tY":374,"tags":{"capacity":"2","caravan_site":"motorhome_stopover","caravan_site:type":"village","caravans":"no","description":"If the parking spaces are occupied, parking is permitted on the exhibition grounds.","fee":"no","maxstay":"48 hours","name":"Área autocaravanas de Tineo","name:es":"Área autocaravanas de Tineo","tents":"no","website":"https://www.tineo.es/area-servicio-autocaravanas"}},"8564108834":{"location":[43.3361204,-6.4073605],"ct":"ES","tp":"SD","ts":"2024-04-24T13:57:03Z","tX":493,"tY":374,"tags":{"access":"yes","fee":"no","operator":"ciudad de Tineo","sanitary_dump_station":"public","sanitary_dump_station:chemical_toilet":"yes","sanitary_dump_station:grey_water":"yes","sanitary_dump_station:round_drain":"yes","water_point":"yes"}},"8564108846":{"location":[43.4038827,-6.5418582],"ct":"ES","tp":"SD","ts":"2024-03-22T22:19:49Z","tX":493,"tY":374,"tags":{"access":"yes","fee":"no","motorhome":"designated","operator":"ciudad de Tineo","sanitary_dump_station":"public","sanitary_dump_station:chemical_toilet":"no","sanitary_dump_station:grey_water":"yes","sanitary_dump_station:round_drain":"yes","water_point":"yes"}},"11755823490":{"location":[43.4991867,-6.4366787],"ct":"ES","tp":"SD","ts":"2024-03-23T16:16:33Z","tX":493,"tY":374,"tags":{"access":"yes","fee":"no","motorhome":"designated","sanitary_dump_station:chemical_toilet":"yes","sanitary_dump_station:grey_water":"yes"}}}