{"951403703":{"location":[42.5395629,-6.520678],"ct":"ES","tp":"CR","ts":"2024-05-16T22:25:38Z","tX":493,"tY":378,"tags":{"access":"yes","addr:city":"Molinaseca","addr:postcode":"24413","addr:street":"Calle Salgueras","capacity":"5","caravan_site":"motorhome_stopover","caravan_site:type":"village;parking_lot","covered":"no","drinking_water":"yes","fee":"no","name":"Área de Autocaravanas Molinaseca","operator":"Ayuntamiento de Molinaseca","power_supply":"no","sanitary_dump_station":"yes","sanitary_dump_station:chemical_toilet":"yes","sanitary_dump_station:grey_water":"yes","sanitary_dump_station:round_drain":"yes","supervised":"no","surface":"asphalt","water_point":"yes"}},"951415979":{"location":[42.5429216,-6.5866443],"ct":"ES","tp":"CR","ts":"2024-02-16T18:09:50Z","tX":493,"tY":378,"tags":{"access":"yes","addr:city":"Ponferrada","addr:postcode":"24400","addr:street":"Calle Loma","capacity":"23","covered":"no","drinking_water":"yes","fee":"no","maxstay":"no","name":"Área de Autocaravanas Ponferrada","operator":"Ayuntamiento de Ponferrada","power_supply":"no","sanitary_dump_station":"yes","sanitary_dump_station:chemical_toilet":"yes","sanitary_dump_station:grey_water":"yes","sanitary_dump_station:round_drain":"yes","supervised":"no","surface":"asphalt","water_point":"yes"}},"7294335887":{"location":[42.3089695,-6.4644591],"ct":"ES","tp":"CS","ts":"2020-03-14T11:33:32Z","tX":493,"tY":378,"tags":{}},"8806392036":{"location":[42.5394129,-6.5208232],"ct":"ES","tp":"SD","ts":"2024-05-17T09:37:35Z","tX":493,"tY":378,"tags":{"access":"yes","fee":"no","motorhome":"designated","operator":"Ayuntamiento de Molinaseca","sanitary_dump_station":"public","sanitary_dump_station:chemical_toilet":"no","sanitary_dump_station:grey_water":"yes","sanitary_dump_station:round_drain":"yes","water_point":"yes"}},"8806501931":{"location":[42.5431308,-6.5865587],"ct":"ES","tp":"SD","ts":"2021-07-24T14:33:46Z","tX":493,"tY":378,"tags":{"access":"yes","description":"Estación de vaciado de tanque para autocaravanas","description:en":"Tank emptying station for motorhomes","description:fr":"Station de vidange pour Camping-car.","fee":"no","operator":"Ayuntamiento de Ponferrada","sanitary_dump_station":"public","sanitary_dump_station:chemical_toilet":"no","sanitary_dump_station:grey_water":"yes","sanitary_dump_station:round_drain":"yes","water_point":"yes"}},"11880783469":{"location":[42.5431925,-6.5865604],"ct":"ES","tp":"SD","ts":"2024-05-05T08:18:40Z","tX":493,"tY":378,"tags":{"addr:street":"Calle Obispo Camilo Lorenzo"}},"12373994791":{"location":[42.5428917,-6.5865505],"ct":"ES","tp":"CR","ts":"2024-11-25T16:18:53Z","tX":493,"tY":378,"tags":{"access":"yes","addr:city":"Ponferrada","addr:postcode":"24400","addr:street":"Camino Asfaltado de la Loma","capacity":"23","covered":"no","drinking_water":"yes","fee":"no","maxstay":"no","name":"Área de Autocaravanas Ponferrada","operator":"Ayuntamiento de Ponferrada","power_supply":"no","sanitary_dump_station":"yes","sanitary_dump_station:chemical_toilet":"yes","sanitary_dump_station:grey_water":"yes","sanitary_dump_station:round_drain":"yes","supervised":"no","surface":"asphalt","water_point":"yes"}}}