{"940926719":{"location":[41.2203327,-6.6135346],"ct":"ES","tp":"CR","ts":"2024-05-17T09:19:55Z","tX":493,"tY":383,"tags":{"access":"yes","addr:city":"Aldeadávila de la Ribera","addr:postcode":"37250","addr:street":"Calle Noria","capacity":"5","caravan_site":"motorhome_stopover","caravan_site:type":"village","covered":"no","drinking_water":"yes","fee":"no","maxstay":"no","name":"Aparcamieto de autocaravanas Aldeadávila de la Ribera","operator":"Ayuntamiento de Aldeadávila de la Ribera","power_supply":"no","sanitary_dump_station":"yes","sanitary_dump_station:chemical_toilet":"yes","sanitary_dump_station:grey_water":"yes","sanitary_dump_station:round_drain":"yes","supervised":"no","surface":"asphalt","water_point":"yes"}},"970879857":{"location":[41.2437453,-6.5272812],"ct":"ES","tp":"CS","ts":"2021-08-06T11:05:14Z","tX":493,"tY":383,"tags":{}},"1078300749":{"location":[41.2121088,-6.6309204],"ct":"ES","tp":"CS","ts":"2022-07-20T14:59:55Z","tX":493,"tY":383,"tags":{"name":"Las Casitas"}},"5416317721":{"location":[41.2434,-6.52623],"ct":"ES","tp":"CS","ts":"2019-05-28T07:55:15Z","tX":493,"tY":383,"tags":{"addr:housenumber":"1","addr:postcode":"37175","addr:street":"Calle Peredo Bemposta","email":"campingelbalcondelasarribes@gmail.com","name":"El Balcón de las Arribes","phone":"+34923089908","website":"http://campingelbalcondelasarribes.com.es"}},"8714203198":{"location":[41.2202642,-6.6135442],"ct":"ES","tp":"SD","ts":"2024-05-17T09:19:55Z","tX":493,"tY":383,"tags":{"access":"yes","fee":"no","motorhome":"designated","operator":"Ayuntamiento de Aldeadávila de la Ribera","sanitary_dump_station":"public","sanitary_dump_station:chemical_toilet":"no","sanitary_dump_station:grey_water":"yes","sanitary_dump_station:round_drain":"yes","water_point":"yes"}}}