{"434390145":{"location":[40.2135222,-6.6422105],"ct":"ES","tp":"CS","ts":"2016-07-28T15:14:51Z","tX":493,"tY":386,"tags":{"name":"Camping & Bungalows Sierra de Gata"}},"866978509":{"location":[40.2979833,-6.3346459],"ct":"ES","tp":"CS","ts":"2022-09-23T18:43:36Z","tX":493,"tY":386,"tags":{"email":"joseaznar19@gmail.com","name":"Camping del Pino","phone":"+34 648 62 50 42","website":"https://campingdelpino.com/"}},"940398325":{"location":[40.2365394,-6.5931198],"ct":"ES","tp":"CR","ts":"2024-03-20T16:11:21Z","tX":493,"tY":386,"tags":{"access":"yes","addr:city":"Gata","addr:postcode":"10864","addr:street":"Calle Gabriel y Galán","capacity":"15","caravans":"no","drinking_water":"yes","fee":"no","maxstay":"no","name":"Área de Autocaravanas Gata","opening_hours":"24/7","operator":"Gata","power_supply":"no","sanitary_dump_station":"yes","sanitary_dump_station:chemical_toilet":"yes","sanitary_dump_station:grey_water":"yes","sanitary_dump_station:round_drain":"yes","seasonal":"no","supervised":"no","surface":"grass_paver","water_point":"yes"}},"940400395":{"location":[40.2217232,-6.5711708],"ct":"ES","tp":"CR","ts":"2024-01-02T16:36:09Z","tX":493,"tY":386,"tags":{"access":"yes","addr:city":"Torre de Don Miguel","addr:postcode":"10864","addr:street":"Ronda Este","capacity":"10","caravan_site":"motorhome_stopover","caravan_site:type":"village","covered":"no","drinking_water":"yes","fee":"no","maxstay":"no","name":"Área de Autocaravanas Torre de Don Miguel","opening_hours":"24/7","operator":"ciudad de Torre de Don Miguel","power_supply":"no","sanitary_dump_station":"yes","sanitary_dump_station:chemical_toilet":"yes","sanitary_dump_station:grey_water":"yes","sanitary_dump_station:round_drain":"yes","seasonal":"no","supervised":"no","surface":"asphalt","water_point":"yes"}},"1237121439":{"location":[40.3261176,-6.6463882],"ct":"ES","tp":"CS","ts":"2024-01-05T10:29:50Z","tX":493,"tY":386,"tags":{"access":"yes","addr:city":"Villasrubias","addr:postcode":"37522","addr:street":"Carretera de Ciudad Rodrigo a Extremadura","backcountry":"no","caravans":"no","check_date":"2024-01-04","dog":"yes","drinking_water":"yes","fee":"yes","group_only":"yes","name":"Campa de Riofrío","nudism":"permissive","openfire":"yes","operator":"Junta de Castilla y León","picnic_table":"yes","power_supply":"no","reservation":"required","sanitary_dump_station":"no","shower":"no","static_caravans":"no","tents":"no","toilets":"no","wheelchair":"no"}},"1309318964":{"location":[40.1835147,-6.6300841],"ct":"ES","tp":"CS","ts":"2024-08-21T12:35:22Z","tX":493,"tY":386,"tags":{"caravans":"yes","name":"Camping El Merino","tents":"yes","website":"https://campingelmerino.com/"}},"2757766445":{"location":[40.4440154,-6.4464361],"ct":"ES","tp":"CS","ts":"2024-07-19T05:36:01Z","tX":493,"tY":386,"tags":{"access":"yes","addr:city":"Agallas","bbq":"yes","caravans":"yes","fee":"yes","name":"Camping “La Dehesa”","phone":"+34 923 490 301","phone:mobile":"+34 686 299216","power_supply":"yes","reservation":"recommended","shower":"hot","tents":"yes","toilets":"yes","website":"https://aytoagallas.es/oferta-camping-la-dehesa-de-agallas"}},"3301448594":{"location":[40.4359867,-6.4800828],"ct":"ES","tp":"CS","ts":"2016-01-24T18:43:13Z","tX":493,"tY":386,"tags":{}},"11421075121":{"location":[40.2079816,-6.5041398],"ct":"ES","tp":"CS","ts":"2023-12-15T20:30:30Z","tX":493,"tY":386,"tags":{"group_only":"yes","name":"La Escuela del Bosque"}},"8709412734":{"location":[40.236486,-6.5934279],"ct":"ES","tp":"SD","ts":"2024-01-02T16:06:44Z","tX":493,"tY":386,"tags":{"access":"yes","description":"Estación de vaciado de tanque para autocaravanas","description:fr":"Station de vidange pour Camping-car.","fee":"no","motorhome":"designated","operator":"Ayuntamiento Gata","sanitary_dump_station":"public","sanitary_dump_station:chemical_toilet":"yes","sanitary_dump_station:grey_water":"yes","sanitary_dump_station:round_drain":"yes","water_point":"yes"}},"8709437342":{"location":[40.2208553,-6.5711511],"ct":"ES","tp":"SD","ts":"2024-05-16T18:24:09Z","tX":493,"tY":386,"tags":{"access":"yes","fee":"no","motorhome":"designated","operator":"Ayuntamiento de Torre de Don Miguel","sanitary_dump_station":"public","sanitary_dump_station:chemical_toilet":"yes","sanitary_dump_station:grey_water":"yes","sanitary_dump_station:round_drain":"yes","water_point":"yes"}}}