{"32562122":{"location":[39.4893372,-6.4124181],"ct":"ES","tp":"CS","ts":"2022-09-23T18:43:36Z","tX":493,"tY":389,"tags":{"addr:city":"Cáceres","addr:housenumber":"km 42","addr:postcode":"10005","addr:street":"Carretera N-630","name":"Camping Cáceres","phone":"+34927233100","website":"https://www.campingcaceres.com/"}},"939966332":{"location":[39.4481152,-6.5103848],"ct":"ES","tp":"CR","ts":"2024-02-05T16:52:02Z","tX":493,"tY":389,"tags":{"access":"yes","addr:city":"Malpartida de Cáceres","addr:postcode":"10910","addr:street":"Calle Muñoz Torrero","capacity":"6","caravan_site":"motorhome_stopover","caravan_site:type":"village","covered":"no","drinking_water":"yes","fee":"no","maxstay":"72 hours","name":"Malpartida de Cáceres Area Autocaravanas","operator":"Ayuntamiento de Malpartida de Cáceres","power_supply":"no","sanitary_dump_station":"yes","sanitary_dump_station:chemical_toilet":"yes","sanitary_dump_station:grey_water":"yes","sanitary_dump_station:round_drain":"yes","seasonal":"no","supervised":"no","surface":"asphalt","toilets":"no","water_point":"yes","wheelchair":"yes"}},"939968650":{"location":[39.4804162,-6.3665088],"ct":"ES","tp":"CR","ts":"2024-03-26T20:58:15Z","tX":493,"tY":389,"tags":{"access":"yes","addr:city":"Cáceres","addr:postcode":"10003","addr:street":"Calle José Reveriego Pedrazo","capacity":"10","caravan_site":"motorhome_stopover","caravan_site:type":"city","caravans":"no","dog":"yes","dog:description":"next to the dog park with agility facilities","drinking_water":"yes","fee":"no","maxstay":"24 hours","name":"Área de Autocaravanas 'Valhondo'","operator":"Ayuntamiento de Cáceres","power_supply":"no","sanitary_dump_station":"yes","sanitary_dump_station:chemical_toilet":"yes","sanitary_dump_station:grey_water":"yes","sanitary_dump_station:round_drain":"yes","shower":"no","supervised":"no","surface":"asphalt","tents":"no","toilets":"no","water_point":"yes","website":"https://turismo.caceres.es/es/servicio-poi/area-estancial-de-valhondo","wikimedia_commons":"Category:Cáceres Valhondo Motorhome stopover"}},"939972545":{"location":[39.5469296,-6.4112169],"ct":"ES","tp":"CR","ts":"2024-05-16T17:40:43Z","tX":493,"tY":389,"tags":{"access":"yes","addr:city":"Casar de Cáceres","addr:postcode":"10190","addr:street":"CC-38","capacity":"6","caravan_site":"motorhome_stopover","caravan_site:type":"fuel_station","covered":"no","drinking_water":"yes","fee":"no","maxstay":"72 hours","name":"Área de Autocaravanas Casar de Cáceres","opening_hours":"24/7","operator":"Ayuntamiento de Casar de Cáceres","power_supply":"no","sanitary_dump_station":"yes","sanitary_dump_station:chemical_toilet":"yes","sanitary_dump_station:grey_water":"yes","sanitary_dump_station:round_drain":"yes","seasonal":"no","shower":"yes","supervised":"no","surface":"asphalt","water_point":"yes"}},"8706303274":{"location":[39.4480844,-6.5101364],"ct":"ES","tp":"SD","ts":"2024-05-16T19:10:17Z","tX":493,"tY":389,"tags":{"access":"yes","fee":"no","motorhome":"designated","operator":"Ayuntamiento de Malpartida de Cáceres","sanitary_dump_station":"public","sanitary_dump_station:chemical_toilet":"yes","sanitary_dump_station:grey_water":"yes","sanitary_dump_station:round_drain":"yes","water_point":"yes"}},"8706375363":{"location":[39.4803908,-6.3663328],"ct":"ES","tp":"SD","ts":"2024-02-25T11:01:18Z","tX":493,"tY":389,"tags":{"access":"yes","fee":"no","motorhome":"designated","operator":"Ayuntamiento Cáceres","sanitary_dump_station":"public","sanitary_dump_station:chemical_toilet":"yes","sanitary_dump_station:grey_water":"yes","sanitary_dump_station:round_drain":"yes","water_point":"yes","wikimedia_commons":"File:Caceres Valhondo sanitary dump station.jpg"}},"8706437948":{"location":[39.5468466,-6.4115857],"ct":"ES","tp":"SD","ts":"2024-05-16T17:40:43Z","tX":493,"tY":389,"tags":{"access":"yes","fee":"no","motorhome":"designated","operator":"Ayuntamiento Casar de Cáceres","sanitary_dump_station":"public","sanitary_dump_station:chemical_toilet":"yes","sanitary_dump_station:grey_water":"yes","sanitary_dump_station:round_drain":"yes","water_point":"yes"}}}