{"937286436":{"location":[38.4251531,-6.4110746],"ct":"ES","tp":"CR","ts":"2024-05-17T09:49:05Z","tX":493,"tY":393,"tags":{"access":"yes","addr:city":"Zafra","addr:postcode":"06300","addr:street":"Carretera de N-630 a Fregenal de la Sierra por Zafra","camping_behaviour":"no","capacity":"30","caravan_site":"motorhome_stopover","caravan_site:type":"town","caravans":"no","description":"close to town and restaurants","drinking_water":"yes","fee":"no","maxlength":"none","maxstay":"48 hours","name":"Zafra Parking Autocaravanas","operator":"ciudad de Zafra","power_supply":"no","sanitary_dump_station":"yes","sanitary_dump_station:chemical_toilet":"yes","sanitary_dump_station:grey_water":"yes","sanitary_dump_station:round_drain":"yes","supervised":"no","surface":"asphalt","water_point":"yes","wikimedia_commons":"Category:Zafra Motorhome stopover"}},"11704750569":{"location":[38.4422654,-6.3727215],"ct":"ES","tp":"CR","ts":"2024-03-20T00:02:34Z","tX":493,"tY":393,"tags":{"addr:housenumber":"3","addr:postcode":"06230","addr:street":"Calle Carolina Coronado","fee":"no","name":"√Årea de Autocaravanas Los Santos de Maimona","opening_hours":"24/7","sanitary_dump_station":"yes","water_point":"yes"}},"8684514983":{"location":[38.4252341,-6.410899],"ct":"ES","tp":"SD","ts":"2024-05-17T09:49:05Z","tX":493,"tY":393,"tags":{"access":"yes","fee":"no","motorhome":"designated","operator":"Ayuntamiento de Zafra","sanitary_dump_station":"public","sanitary_dump_station:chemical_toilet":"yes","sanitary_dump_station:grey_water":"yes","sanitary_dump_station:round_drain":"yes","water_point":"yes","wikimedia_commons":"File:Zafra MH sanitary dump station.jpg"}}}