{"223980374":{"location":[36.6711168,-6.407329],"ct":"ES","tp":"CS","ts":"2013-06-01T15:33:17Z","tX":493,"tY":399,"tags":{"name":"Camping Playa Aguadulce"}},"365102334":{"location":[36.637185,-6.3919561],"ct":"ES","tp":"CR","ts":"2024-04-14T21:16:22Z","tX":493,"tY":399,"tags":{"caravan_site":"motorhome_stopover","charge":"5 EUR","fee":"yes","maxstay":"72 hours","name":"Area Autocaravanas Rota","opening_hours":"24/7","surface":"asphalt","tents":"no","website":"https://app.apparkya.es/aparcar-en-rota/"}},"550811881":{"location":[36.7618734,-6.3951741],"ct":"ES","tp":"CR","ts":"2024-05-03T20:48:36Z","tX":493,"tY":399,"tags":{"addr:postcode":"11540","addr:street":"Camino de la Reyerta","charge":"12 EUR","dog":"yes","fee":"yes","laundry":"yes","name":"área Camper Park Sanlúcar de Barrameda","opening_hours":"24/7","power_supply":"yes","power_supply:charge":"4 EUR","power_supply:fee":"yes","shower":"yes","website":"https://www.camperparksanlucar.es/"}},"628236420":{"location":[36.7447233,-6.4268067],"ct":"ES","tp":"CR","ts":"2025-04-23T23:28:20Z","tX":493,"tY":399,"tags":{"caravan_site":"motorhome_stopover","caravan_site:type":"parking_lot","charge":"13.55 EUR","fee":"yes","name":"Autocaravanas Puerto de Chipiona","opening_hours":"24/7","power_supply":"yes","sanitary_dump_station":"#","surface":"asphalt","toilets":"yes","water_point":"yes"}},"936702717":{"location":[36.6380526,-6.3911776],"ct":"ES","tp":"CR","ts":"2024-04-14T21:16:22Z","tX":493,"tY":399,"tags":{"access":"yes","addr:postcode":"11520","addr:street":"Avenida Punta Candor","capacity":"15","caravan_site":"motorhome_stopover","charge":"5 EUR","covered":"no","description":"also parking at Avenida Punta Candor, same charge.","drinking_water":"yes","fee":"yes","maxstay":"72 hours","name":"Area Autocaravanas Rota Punta Candor","opening_hours":"24/7","operator":"Ayuntamiento de Rota","power_supply":"no","sanitary_dump_station":"yes","sanitary_dump_station:chemical_toilet":"yes","sanitary_dump_station:grey_water":"yes","sanitary_dump_station:round_drain":"yes","supervised":"no","surface":"asphalt","tents":"no","water_point":"yes","website":"https://app.apparkya.es/aparcar-en-rota/"}},"1155777999":{"location":[36.7010726,-6.4262798],"ct":"ES","tp":"CR","ts":"2023-03-26T16:19:53Z","tX":493,"tY":399,"tags":{"fee":"no","sanitary_dump_station":"no","water_point":"no"}},"1155783006":{"location":[36.7502184,-6.4093477],"ct":"ES","tp":"CS","ts":"2023-03-20T12:43:00Z","tX":493,"tY":399,"tags":{"name":"La Siesta de la Gaviota"}},"1155784702":{"location":[36.7513789,-6.4103696],"ct":"ES","tp":"CR","ts":"2023-03-20T12:45:23Z","tX":493,"tY":399,"tags":{}},"1237121212":{"location":[36.7618485,-6.3872275],"ct":"ES","tp":"CR","ts":"2024-01-05T00:15:31Z","tX":493,"tY":399,"tags":{"caravan_site":"motorhome_stopover","caravans":"yes","charge":"10 EUR","dog":"yes","fee":"yes","name":"Camper Park Sanlucar","sanitary_dump_station":"yes","shower":"yes","surface":"grass","water_point":"yes"}},"1382755817":{"location":[36.7227841,-6.434273],"ct":"ES","tp":"CR","ts":"2025-05-01T12:17:06Z","tX":493,"tY":399,"tags":{"name":"Area de Autocaravanas La Laguna"}},"5223560121":{"location":[36.7438342,-6.4323065],"ct":"ES","tp":"CR","ts":"2024-01-05T00:23:07Z","tX":493,"tY":399,"tags":{"addr:street":"Paseo Marítimo","opening_hours":"24/7"}},"6122331586":{"location":[36.7841542,-6.3594947],"ct":"ES","tp":"CR","ts":"2024-01-05T00:15:31Z","tX":493,"tY":399,"tags":{"addr:housenumber":"7","caravan_site:type":"parking_lot","opening_hours":"24/7"}},"6257438054":{"location":[36.7482334,-6.4125917],"ct":"ES","tp":"CR","ts":"2023-07-16T19:17:08Z","tX":493,"tY":399,"tags":{"name":"Niño de Oro"}},"8679483026":{"location":[36.6377906,-6.3910756],"ct":"ES","tp":"SD","ts":"2022-08-18T11:19:51Z","tX":493,"tY":399,"tags":{"access":"yes","description":"Estación de vaciado de tanque para autocaravanas","description:fr":"Station de vidange pour Camping-car.","fee":"no","operator":"Ayuntamiento de Rota","sanitary_dump_station":"public","sanitary_dump_station:chemical_toilet":"yes","sanitary_dump_station:grey_water":"yes","sanitary_dump_station:round_drain":"yes","water_point":"yes"}}}