{"99714191":{"location":[56.8044182,-5.0748092],"ct":"GB","tp":"CS","ts":"2024-09-01T17:08:40Z","tX":497,"tY":314,"tags":{"addr:city":"Fort William","addr:country":"GB","addr:place":"Glen Nevis","addr:postcode":"PH33 6SX","capacity:cabins":"yes","capacity:caravans":"190","capacity:tents":"yes","caravans":"yes","dog":"yes","drinking_water":"yes","fee":"yes","fhrs:id":"360033","hot_water":"yes","internet_access":"yes","internet_access:fee":"yes","lit":"yes","motorhome":"yes","name":"Glen Nevis Caravan and Camping Park","nudism":"no","operator":"Glen Nevis Holidays Ltd","power_supply":"yes","quiet_time":"22:00-08:00","reservation":"recommended","sanitary_dump_station":"customers","shower":"yes","source":"survey;Bing aerial","tents":"yes","toilets:access":"customers","waste_disposal":"dustbins","website":"https://www.glen-nevis.co.uk/"}},"197676238":{"location":[56.8406512,-5.0734822],"ct":"GB","tp":"CR","ts":"2024-03-11T16:56:02Z","tX":497,"tY":314,"tags":{"cabins":"yes","caravans":"yes","internet_access":"wlan","name":"Lochy Holiday Park","phone":"+44 1397 703446","tents":"yes","website":"http://www.lochy-holiday-park.co.uk/"}},"200726447":{"location":[56.7995227,-5.0706552],"ct":"GB","tp":"CR","ts":"2024-08-08T14:00:41Z","tX":497,"tY":314,"tags":{"addr:city":"Fort William","addr:postcode":"PH33 6SY","addr:street":"Glen Nevis Road","fee":"yes","internet_access":"yes","internet_access:fee":"no","name":"Glen Nevis Self-Catering Park","operator":"Glen Nevis Holidays Ltd","power_supply":"yes","sanitary_dump_station":"no"}},"343729732":{"location":[56.8455919,-5.1615305],"ct":"GB","tp":"CS","ts":"2024-07-08T15:39:34Z","tX":497,"tY":314,"tags":{"addr:city":"Fort William","addr:suburb":"Corpach","caravans":"yes","contact:facebook":"https://www.facebook.com/pages/category/Campground/Linnhe-Lochside-Holidays-Ltd-135281353210347/","email":"relax@linnheholidays.co.uk","fee":"yes","internet_access":"wlan","motorhome":"yes","name":"Linnhe Lochside Holiday Park","phone":"+44 1397 772376","postal_code":"PH33 7NL","power_supply":"yes","shower":"yes","static_caravans":"yes","tents":"yes","toilets":"yes","washing_machine":"yes","waste_disposal":"yes","website":"https://www.linnhe-lochside-holidays.co.uk/"}},"343729733":{"location":[56.8432963,-5.1594008],"ct":"GB","tp":"CS","ts":"2015-05-08T16:33:12Z","tX":497,"tY":314,"tags":{}},"9380089135":{"location":[56.8983653,-5.018309],"ct":"GB","tp":"CS","ts":"2022-09-30T16:40:54Z","tX":497,"tY":314,"tags":{"backcountry":"yes","bbq":"no","camp_site":"basic","capacity:persons":"8","capacity:tents":"4","drinking_water":"no","fee":"no","name":"Moy Bridge informal campsite","openfire":"no","operator":"Scottish Canals","power_supply":"no","shower":"no","toilets":"no","wheelchair":"yes"}},"9380130619":{"location":[56.914629,-4.9936032],"ct":"GB","tp":"CS","ts":"2022-09-30T16:40:52Z","tX":497,"tY":314,"tags":{"backcountry":"yes","camp_site":"basic","capacity:persons":"12","capacity:tents":"6","drinking_water":"yes","fee":"no","name":"Gairlochy Locks informal campsite","operator":"Scottish Canals","power_supply":"yes","shower":"yes","toilets":"yes","wheelchair":"yes"}},"9789001415":{"location":[56.9193559,-4.9869945],"ct":"GB","tp":"CS","ts":"2022-06-01T19:32:04Z","tX":497,"tY":314,"tags":{}},"9918874966":{"location":[56.8525457,-4.9961758],"ct":"GB","tp":"CS","ts":"2022-07-29T10:04:20Z","tX":497,"tY":314,"tags":{}}}