{"16177342":{"location":[54.8415264,-5.1077918],"ct":"GB","tp":"CS","ts":"2023-08-09T00:20:15Z","tX":497,"tY":324,"tags":{"addr:city":"Portpatrick","addr:housename":"Sunnymeade Caravan Park","addr:postcode":"DG9 8LN","caravans":"no","check_date":"2023-08-08","contact:facebook":"https://www.facebook.com/SunnymeadeCaravanParkPortpatrick/","dog":"leashed","email":"info@sunnymeadecaravanpark.co.uk","internet_access":"wlan","name":"Sunnymeade Caravan Park","phone":"+44 1776 810293","reservation":"required","static_caravans":"yes","tents":"no","website":"https://sunnymeadecaravanpark.co.uk/"}},"377170702":{"location":[54.8155008,-4.9564162],"ct":"GB","tp":"CS","ts":"2023-07-27T01:41:11Z","tX":497,"tY":324,"tags":{"access":"customers","addr:city":"Sandhead","addr:housename":"Sands Of Luce Holiday Park","addr:postcode":"DG9 9JR","caravans":"yes","check_date":"2023-07-26","contact:facebook":"https://www.facebook.com/sandsofluce/","email":"info@sandsofluceholidaypark.co.uk","fee":"yes","internet_access":"wlan","internet_access:fee":"customers","name":"Sands Of Luce Holiday Park","pets":"yes","static_caravans":"yes","website":"https://www.sandsofluceholidaypark.co.uk/"}},"377282757":{"location":[54.9248692,-5.1241469],"ct":"GB","tp":"CS","ts":"2023-08-03T23:11:32Z","tX":497,"tY":324,"tags":{"addr:housename":"Drumlochart Caravan Park","addr:postcode":"DG9 0RN","capacity:caravans":"30","caravans":"yes","check_date":"2023-07-30","fee":"yes","name":"Drumlochart Caravan Park","pets":"yes","phone":"+44 1776 870232","reservation":"required","shower":"hot","static_caravans":"yes","swimming_pool":"yes","toilets":"yes","washing_machine":"yes","website":"https://www.drumlochart.co.uk/"}},"381455804":{"location":[54.9013709,-5.0065875],"ct":"GB","tp":"CS","ts":"2023-09-22T08:31:21Z","tX":497,"tY":324,"tags":{"addr:city":"Stranraer","addr:housename":"Aird Donald Caravan Park","addr:postcode":"DG9 8RN","addr:street":"London Road","cabins":"no","caravans":"yes","check_date":"2023-08-04","contact:twitter":"https://twitter.com/ADcaravanpark","fee":"yes","internet_access":"wlan","motor_vehicle":"yes","motorhome":"yes","name":"Aird Donald Caravan Park","phone":"+44 1776 702025","picnic_table":"yes","power_supply":"yes","reservation":"required","shower":"yes","static_caravans":"no","tents":"yes","toilets":"yes","washing_machine":"yes","website":"https://aird-donald.co.uk/"}},"482693443":{"location":[54.9637378,-5.0108644],"ct":"GB","tp":"CS","ts":"2023-08-04T02:08:29Z","tX":497,"tY":324,"tags":{"addr:city":"Cairnryan","addr:housename":"Cairnryan Heights Holiday Park","addr:postcode":"DG9 8QX","addr:street":"Cairnryan Road","email":"cairnryanheightsholidaypark@gmail.com","fee":"yes","name":"Cairnryan Heights Holiday Park","reservation":"required","static_caravans":"yes","swimming_pool":"yes","website":"https://cairnryanheightsholidaypark.com/"}},"482693448":{"location":[54.9240628,-4.9908385],"ct":"GB","tp":"CS","ts":"2023-08-04T02:30:16Z","tX":497,"tY":324,"tags":{"caravans":"yes","internet_access":"wlan","name":"Ryanbay Holiday and Residential Park","pets":"yes","power_supply":"yes","reservation":"required","shower":"yes","static_caravans":"yes","tents":"yes","toilets":"yes","washing_machine":"yes","website":"https://www.hagansleisure.co.uk/ryan-bay-loch-ryan-sw-scotland"}},"1084312828":{"location":[54.9403432,-5.1319922],"ct":"GB","tp":"CS","ts":"2023-08-04T00:05:33Z","tX":497,"tY":324,"tags":{"addr:city":"Leswalt","addr:housename":"Glengyre Cottage","addr:postcode":"DG9 0RG","capacity:caravans":"3","capacity:tents":"7","caravans":"yes","description":"Small campervans accepted, but not caravans or motorhomes.","email":"enquiries@northrhinnscamping.co.uk","internet_access":"no","name":"North Rhinns Camping","pets":"yes","phone":"+44 3301 335879","shower":"yes","static_caravans":"no","tents":"yes","toilets":"yes","website":"https://northrhinnscamping.co.uk"}},"1194538323":{"location":[54.9561278,-5.1192785],"ct":"GB","tp":"CR","ts":"2023-08-03T22:57:50Z","tX":497,"tY":324,"tags":{"cabins":"no","capacity:caravans":"10","caravans":"yes","name":"Low Glengyre Farm Certified Location","power_supply":"yes","sanitary_dump_station":"yes","static_caravans":"no","tents":"no","website":"https://www.campsites.co.uk/search/campsites-in-scotland/dumfries-and-galloway/stranraer/low-glengyre-farm-certificated-location"}},"1194622746":{"location":[54.9460885,-5.0716335],"ct":"GB","tp":"CS","ts":"2023-08-05T13:13:42Z","tX":497,"tY":324,"tags":{"addr:city":"Loch Ryan","addr:housename":"Wig Bay Holiday Park","addr:postcode":"DG9 0PS","caravans":"yes","email":"info@wigbay.co.uk","fee":"yes","internet_access":"wlan","name":"Wig Bay Holiday Park","pets":"yes","phone":"+44 1776 853233","reservation":"required","static_caravans":"yes","swimming_pool":"yes","website":"https://www.wigbayholidaypark.co.uk/"}},"1195438732":{"location":[54.8242255,-5.0662532],"ct":"GB","tp":"CS","ts":"2023-08-07T03:11:32Z","tX":497,"tY":324,"tags":{"addr:city":"Portpatrick","addr:housename":"South Port â€˜o Spittal Farm","addr:postcode":"DG9 9AQ","caravans":"yes","check_date":"2023-08-06","contact:facebook":"https://www.facebook.com/portpatrickfarmholidays/","email":"portpatrickfarmholidays@gmail.com","fee":"yes","name":"Portpatrick Farm Holidays","phone":"+44 7885 411125","reservation":"recommended","static_caravans":"yes","website":"https://portpatrick-farm-holidays.business.site/"}},"1196173844":{"location":[54.838965,-5.1049399],"ct":"GB","tp":"CS","ts":"2023-08-09T00:20:15Z","tX":497,"tY":324,"tags":{"addr:city":"Portpatrick","addr:housename":"Galloway Point Holiday Park","addr:postcode":"DG9 9AA","caravans":"yes","check_date":"2023-08-08","drinking_water":"yes","email":"office@gallowaypoint.com","fee":"yes","name":"Galloway Point Holiday Park","phone":"+44 1776 810561","power_supply":"yes","reservation":"required","shower":"yes","static_caravans":"yes","washing_machine":"yes","website":"https://www.gallowaypoint.com/"}},"1196173845":{"location":[54.8369048,-5.1043855],"ct":"GB","tp":"CS","ts":"2023-08-09T00:20:15Z","tX":497,"tY":324,"tags":{"caravans":"yes","check_date":"2023-08-08","contact:facebook":"https://castlebayholidaypark.co.uk/#","contact:twitter":"https://castlebayholidaypark.co.uk/#","dog":"yes","email":"enquiries@castlebayholidaypark.co.uk","fax":"+44 1776 810639","fee":"yes","name":"Castle Bay Holiday & Residential Park","phone":"+44 1776 810462","reservation":"required","static_caravans":"yes","tents":"yes","website":"https://castlebayholidaypark.co.uk/"}}}