{"14918452":{"location":[50.0024801,-5.1706318],"ct":"GB","tp":"CR","ts":"2022-11-21T16:08:10Z","tX":497,"tY":347,"tags":{"brand":"Parkdean Resorts","brand:wikidata":"Q7138226","contact:website":"https://www.parkdeanresorts.co.uk/location/cornwall/sea-acres/","name":"Sea Acres Holiday Park","operator":"Parkdean Resorts UK Limited","static_caravans":"yes"}},"14918453":{"location":[50.0047292,-5.1704123],"ct":"GB","tp":"CR","ts":"2022-11-21T16:08:10Z","tX":497,"tY":347,"tags":{"brand":"Parkdean Resorts","brand:wikidata":"Q7138226","contact:website":"https://www.parkdeanresorts.co.uk/location/cornwall/sea-acres/","name":"Sea Acres Holiday Park","operator":"Parkdean Resorts UK Limited","static_caravans":"yes"}},"15002374":{"location":[50.0116717,-5.1848609],"ct":"GB","tp":"CS","ts":"2022-12-13T11:01:23Z","tX":497,"tY":347,"tags":{"caravans":"yes","name":"Trerise Camp & Pitch","tents":"yes"}},"15002375":{"location":[50.0105272,-5.1861135],"ct":"GB","tp":"CS","ts":"2022-12-13T11:01:23Z","tX":497,"tY":347,"tags":{"caravans":"yes","tents":"yes"}},"65369069":{"location":[50.0200745,-5.2124373],"ct":"GB","tp":"CR","ts":"2022-12-13T11:01:25Z","tX":497,"tY":347,"tags":{"addr:city":"Helston","addr:country":"GB","addr:postcode":"TR12 7LJ","addr:street":"Ruan Minor","brand":"Parkdean Resorts","brand:wikidata":"Q7138226","cabins":"yes","caravans":"yes","contact:website":"https://www.parkdeanresorts.co.uk/location/cornwall/lizard-point/","fee":"yes","internet_access":"wlan","internet_access:fee":"no","name":"Lizard Point Holiday Park","old_name":"Mullion Holiday Park","operator":"Parkdean Resorts UK Limited","smoking":"dedicated","stars":"4","static_caravans":"yes","tents":"yes","wheelchair":"yes"}},"140066582":{"location":[50.0052714,-5.174335],"ct":"GB","tp":"CR","ts":"2022-11-21T16:08:11Z","tX":497,"tY":347,"tags":{"name":"Chycarne Holiday Park"}},"140066589":{"location":[50.0085791,-5.1715022],"ct":"GB","tp":"CS","ts":"2022-11-21T16:08:11Z","tX":497,"tY":347,"tags":{"addr:city":"Helston","addr:housename":"Silver Sands Holiday Park","addr:postcode":"TR12 7LZ","addr:street":"Gwendreath","name":"Silver Sands Holiday Park","operator":"Nick & Kell Whittle"}},"221376688":{"location":[49.9686985,-5.2070241],"ct":"GB","tp":"CS","ts":"2022-04-17T09:17:54Z","tX":497,"tY":347,"tags":{"email":"info@henryscampsite.co.uk","fee":"yes","internet_access":"wlan","name":"Henry's Campsite","phone":"+44 1326 290596","website":"http://www.henryscampsite.co.uk/"}},"221377275":{"location":[49.9939538,-5.2132346],"ct":"GB","tp":"CS","ts":"2024-02-06T19:13:32Z","tX":497,"tY":347,"tags":{"name":"Wild Camping Lizard"}},"221377916":{"location":[50.0047358,-5.2487611],"ct":"GB","tp":"CS","ts":"2025-01-25T13:19:21Z","tX":497,"tY":347,"tags":{"name":"Teneriffe Farm Campsite","website":"https://www.nationaltrust.org.uk/holidays/cornwall/teneriffe-farm-campsite"}},"222155888":{"location":[50.0070267,-5.1741468],"ct":"GB","tp":"CS","ts":"2022-11-21T16:08:11Z","tX":497,"tY":347,"tags":{"name":"Namparra Campsite"}},"222161336":{"location":[50.0231551,-5.1268407],"ct":"GB","tp":"CS","ts":"2022-11-16T11:53:50Z","tX":497,"tY":347,"tags":{"name":"Heath Farm Camping"}},"222221839":{"location":[50.020797,-5.1039314],"ct":"GB","tp":"CS","ts":"2020-05-24T12:31:32Z","tX":497,"tY":347,"tags":{"name":"Penmarth Farm Campsite"}},"222222365":{"location":[50.0187734,-5.1140042],"ct":"GB","tp":"CS","ts":"2020-06-01T00:26:19Z","tX":497,"tY":347,"tags":{"name":"Little Trevothan Caravan and Camping Park"}},"258382946":{"location":[50.0080499,-5.1706747],"ct":"GB","tp":"CS","ts":"2022-11-21T16:08:11Z","tX":497,"tY":347,"tags":{"addr:city":"Helston","addr:housename":"Sea View Holiday Park","addr:postcode":"TR12 7LZ","addr:street":"Gwendreath","name":"Sea View Holiday Park","operator":"Adrian & Sandra Seymour"}},"258382947":{"location":[50.0067608,-5.1704257],"ct":"GB","tp":"CS","ts":"2022-11-21T16:08:11Z","tX":497,"tY":347,"tags":{"addr:city":"Helston","addr:housename":"Gwendreath Farm Caravan Park","addr:postcode":"TR12 7LZ","addr:street":"Gwendreath","name":"Gwendreath Farm Caravan Park","operator":"Tom & Linda Gibson"}},"509691818":{"location":[49.99175,-5.2082526],"ct":"GB","tp":"CS","ts":"2022-11-29T15:10:13Z","tX":497,"tY":347,"tags":{"name":"Little Trethvas Holidays"}},"681634526":{"location":[50.0577286,-5.1860377],"ct":"GB","tp":"CS","ts":"2022-11-10T16:03:44Z","tX":497,"tY":347,"tags":{"addr:postcode":"TR12 6LQ","name":"Pine Trees Holiday Bungalows & Camp Site","website":"http://www.pinetreesbungalows.co.uk/"}},"758545336":{"location":[50.0608331,-5.2151397],"ct":"GB","tp":"CR","ts":"2023-01-26T15:51:13Z","tX":497,"tY":347,"tags":{"name":"Skyburriowe Farm"}},"798764698":{"location":[50.0521131,-5.0793513],"ct":"GB","tp":"CR","ts":"2023-08-12T22:17:28Z","tX":497,"tY":347,"tags":{"name":"St Keverne Village Caravan & Campsite","toilets":"yes"}},"812989245":{"location":[50.0227493,-5.1205141],"ct":"GB","tp":"CS","ts":"2023-08-29T08:33:11Z","tX":497,"tY":347,"tags":{"name":"Maple Leaf Farm Caravan and Camper Van Site"}},"963949515":{"location":[50.037432,-5.1257638],"ct":"GB","tp":"CR","ts":"2022-11-08T12:09:10Z","tX":497,"tY":347,"tags":{}},"964220188":{"location":[50.0039456,-5.1722263],"ct":"GB","tp":"CR","ts":"2023-10-22T23:11:48Z","tX":497,"tY":347,"tags":{"fee":"yes","name":"Kennack Sands Park","static_caravans":"yes"}},"973531983":{"location":[50.037566,-5.2162228],"ct":"GB","tp":"CS","ts":"2021-08-16T12:38:39Z","tX":497,"tY":347,"tags":{"access":"customers","capacity":"6","name":"Bochym Pasture","website":"https://the-sea.net/Bochym_Pasture.html"}},"973532000":{"location":[50.0367436,-5.2166966],"ct":"GB","tp":"CS","ts":"2022-12-15T11:52:43Z","tX":497,"tY":347,"tags":{"access":"customers","capacity":"5","name":"Higher Bochym Campsite","website":"https://the-sea.net"}},"1113618921":{"location":[50.0193539,-5.1356572],"ct":"GB","tp":"CS","ts":"2023-08-28T19:51:27Z","tX":497,"tY":347,"tags":{"name":"Wych Elm Glamping"}},"1121676038":{"location":[50.0225394,-5.2146988],"ct":"GB","tp":"CR","ts":"2022-12-13T11:01:23Z","tX":497,"tY":347,"tags":{}},"1122280919":{"location":[50.0387791,-5.2174366],"ct":"GB","tp":"CS","ts":"2022-12-15T11:52:42Z","tX":497,"tY":347,"tags":{"name":"Franchis Holiday Park","source":"ACSI"}},"2384095513":{"location":[50.0215046,-5.0977564],"ct":"GB","tp":"CS","ts":"2022-10-15T16:42:12Z","tX":497,"tY":347,"tags":{"caravans":"no","drinking_water":"yes","name":"YHA Coverack campsite","power_supply":"yes","shower":"yes","tents":"yes","toilets":"yes"}},"8908073371":{"location":[49.9822196,-5.1876728],"ct":"GB","tp":"CS","ts":"2021-07-09T19:44:38Z","tX":497,"tY":347,"tags":{"name":"Cadgwith Camping"}},"11108337461":{"location":[49.9735387,-5.2055518],"ct":"GB","tp":"CS","ts":"2023-08-12T10:03:36Z","tX":497,"tY":347,"tags":{"addr:full":"LIZARD, CORNWALL","addr:postcode":"TR12 7FA","contact:email":"kynancecamping@gmail.com","name":"Kynance Camping","website":"http://www.kynancecamping.co.uk/"}}}