{"53043883":{"location":[42.976135,-4.9980676],"ct":"ES","tp":"CS","ts":"2022-05-08T14:11:04Z","tX":497,"tY":376,"tags":{"access":"yes","addr:city":"Riaño","addr:housenumber":"Km 93.8","addr:postcode":"24900","addr:street":"Carretera León - Santander","backcountry":"no","capacity":"70","dog":"yes","fee":"yes","group_only":"no","name":"Camping de Riaño","payment:cash":"yes","payment:coins":"yes","payment:contactless":"yes","payment:credit_cards":"yes","payment:mastercard":"yes","payment:visa":"yes","phone":"+34 609 41 42 75","power_supply":"yes","sanitary_dump_station":"yes","shower":"yes","toilets":"yes","website":"https://www.campingderiano.com"}},"261879418":{"location":[42.9723628,-4.9293995],"ct":"ES","tp":"CS","ts":"2023-08-25T13:39:47Z","tX":497,"tY":376,"tags":{"capacity":"30 (estimated)","description":"meadow with some trees. Simple, but clean bathroom.","name":"Alto Esla","stars":"0"}},"558448232":{"location":[43.0038628,-5.2662075],"ct":"ES","tp":"CS","ts":"2023-11-03T19:42:12Z","tX":497,"tY":376,"tags":{"addr:city":"Puebla de Lillo","addr:country":"ES","addr:housenumber":"Km 23","addr:postcode":"24855","addr:province":"León","addr:street":"Carretera de Boñar a Puerto de San Isidro","cabins":"yes","caravans":"yes","email":"info@campingdelasnieves.com","name":"Las Nieves","opening_hours":"Jan-Dec","phone":"+34 987 731083","power_supply":"yes","shower":"yes","start_date":"1992","tents":"yes","toilets":"yes","washing_machine":"yes","website":"https://campingdelasnieves.com/"}},"1091155072":{"location":[43.0289011,-5.2692583],"ct":"ES","tp":"CS","ts":"2024-05-01T23:05:00Z","tX":497,"tY":376,"tags":{"addr:city":"Cofiñal","addr:postcode":"24857","name":"Camping Bar el Urogallo","phone":"+34 699626569","website":"https://www.campingelurogallo.es/"}},"4544296265":{"location":[43.0490684,-5.1838744],"ct":"ES","tp":"CR","ts":"2023-11-27T15:42:48Z","tX":497,"tY":376,"tags":{"addr:city":"Maraña","addr:housenumber":"100","addr:postcode":"24996","addr:street":"Calle Raimundo Alonso","capacity":"10","description":"Disponemos de los servicios necesarios, tomas de luz eléctrica de 16A, desagüe de aguas negras y grises. Varias tomas de agua potable y zona Wi-Fi","fee":"yes","internet_access":"yes","internet_access:fee":"customers","name":"Albergue La Parada","phone":"+34 987 74 00 01","power_supply":"yes","sanitary_dump_station":"yes"}},"11263186837":{"location":[43.04171,-5.1173436],"ct":"ES","tp":"CR","ts":"2023-10-14T18:57:12Z","tX":497,"tY":376,"tags":{"name":"Area de autocaravanas de Acebedo"}}}