{"1020563640":{"location":[42.2551216,-4.9648312],"ct":"ES","tp":"CR","ts":"2024-04-16T19:29:20Z","tX":497,"tY":379,"tags":{"access":"yes","addr:city":"Villada","addr:housenumber":"10","addr:postcode":"34340","addr:street":"Camino de Santiago","capacity":"10","caravan_site":"motorhome_stopover","covered":"no","drinking_water":"yes","fee":"no","maxstay":"72 hours","name":"San Fructuoso","opening_hours":"24/7","operator":"Ayuntamiento de Villada","picnic_area":"yes","power_supply":"no","sanitary_dump_station":"yes","sanitary_dump_station:chemical_toilet":"yes","sanitary_dump_station:grey_water":"yes","sanitary_dump_station:round_drain":"yes","supervised":"no","surface":"gravel","water_point":"yes","website":"https://www.turismocastillayleon.com/es/servicios/areas-servicio-autocaravanas/san-fructuoso"}},"9412755109":{"location":[42.2550424,-4.9647596],"ct":"ES","tp":"SD","ts":"2022-01-12T13:50:20Z","tX":497,"tY":379,"tags":{"access":"yes","description":"Estaci√≥n de vaciado de tanque para autocaravanas","description:en":"wastewater tank emptying station","description:fr":"Station de vidange pour Camping-car.","fee":"no","operator":"Ayuntamiento de Villada","sanitary_dump_station":"public","sanitary_dump_station:chemical_toilet":"no","sanitary_dump_station:grey_water":"yes","sanitary_dump_station:round_drain":"yes","water_point":"yes"}}}