{"71029287":{"location":[40.3406665,-5.1746809],"ct":"ES","tp":"CS","ts":"2020-10-20T23:49:04Z","tX":497,"tY":386,"tags":{"access":"yes","addr:city":"Hoyos del Espino","addr:postcode":"05634","addr:street":"Carretera de Gredos","barrier":"fence","contact:mobile":"+34 615 660897","description":"En El Camping de Gredos tenemos las instalaciones y servicios que puedes necesitar.","email":"informacion@elcampingdegredos.com","name":"Camping de Gredos","phone":"+34 920 207585","website":"https://www.elcampingdegredos.com/"}},"163052168":{"location":[40.2742259,-5.1021379],"ct":"ES","tp":"CS","ts":"2012-05-11T05:56:56Z","tX":497,"tY":386,"tags":{"name":"La Mata"}},"226154378":{"location":[40.3427727,-5.1310781],"ct":"ES","tp":"CS","ts":"2024-07-19T20:36:13Z","tX":497,"tY":386,"tags":{"addr:city":"Navarredonda de Gredos","addr:full":"Carretera a Valdeascas, km 2","addr:postcode":"05635","animals":"dogs;horse","barrier":"fence","caravans":"yes","disposal":"yes","email":"info@navagredos.com","group_only":"no","internet_access":"wlan","leasing":"caravan;bungalow","name":"Camping Navagredos","openfire":"no","opening_hours":"24/7","phone":"+34 625893130","power_supply":"cee_17_blue","survey:date":"2013","tents":"yes","website":"https://www.navagredos.com/","wheelchair":"yes"}},"297255426":{"location":[40.2458349,-4.929023],"ct":"ES","tp":"CS","ts":"2014-08-11T19:55:26Z","tX":497,"tY":386,"tags":{}},"297298439":{"location":[40.3954203,-4.9800119],"ct":"ES","tp":"CS","ts":"2020-08-29T16:00:24Z","tX":497,"tY":386,"tags":{"name":"Camping Gredos Hoyocasero"}},"430936158":{"location":[40.2239946,-5.1530559],"ct":"ES","tp":"CS","ts":"2021-01-31T19:46:22Z","tX":497,"tY":386,"tags":{"name":"Cámping Los Galayos","phone":"+34 638 09 53 90","website":"https://www.campinglosgalayos.com/"}},"728750936":{"location":[40.23109,-5.03368],"ct":"ES","tp":"CS","ts":"2010-05-10T18:45:29Z","tX":497,"tY":386,"tags":{"name":"Prados Abiertos"}},"835929572":{"location":[40.2305496,-5.1602638],"ct":"ES","tp":"CS","ts":"2010-07-27T22:38:03Z","tX":497,"tY":386,"tags":{"name":"Campamento Luis Manuel López"}},"836083686":{"location":[40.2390592,-5.1313421],"ct":"ES","tp":"CS","ts":"2010-07-28T07:44:46Z","tX":497,"tY":386,"tags":{"name":"La Casilla","place":"locality"}},"864642472":{"location":[40.3374951,-5.1781106],"ct":"ES","tp":"CS","ts":"2020-10-12T08:45:41Z","tX":497,"tY":386,"tags":{}},"864642872":{"location":[40.323012,-5.1787887],"ct":"ES","tp":"CS","ts":"2010-08-17T11:10:13Z","tX":497,"tY":386,"tags":{"name":"Campamento Cruz de Borgoña"}},"864643494":{"location":[40.3411845,-5.1639017],"ct":"ES","tp":"CS","ts":"2010-08-17T11:10:47Z","tX":497,"tY":386,"tags":{}},"4792254953":{"location":[40.2067013,-5.1226376],"ct":"ES","tp":"CS","ts":"2024-01-28T17:29:27Z","tX":497,"tY":386,"tags":{"contact:facebook":"https://www.facebook.com/LaTierradeGredos","name":"Tierra de Gredos","phone":"+34 625 16 14 15"}},"6260310150":{"location":[40.3386678,-5.1484656],"ct":"ES","tp":"CS","ts":"2019-02-05T17:25:13Z","tX":497,"tY":386,"tags":{"access":"private","fee":"yes","name":"Campamento Santa María de Fátima","phone":"+34 920 21 28 70","website":"https://www.cruzadasdesantamaria.org/"}},"6260310158":{"location":[40.3421527,-5.1773749],"ct":"ES","tp":"CS","ts":"2019-02-05T17:25:13Z","tX":497,"tY":386,"tags":{"name":"Campamento la Cerrada","phone":"+34 627 52 44 70","website":"http://altogredos-ctr.com/"}},"6433884296":{"location":[40.3331111,-5.1288363],"ct":"ES","tp":"CS","ts":"2019-07-10T10:36:40Z","tX":497,"tY":386,"tags":{"group_only":"yes","name":"Campamento Valdeascas","phone":"+34 920 34 80 01","website":"http://www.campamento-gredos.com/"}},"6610036586":{"location":[40.2070073,-4.9377839],"ct":"ES","tp":"CS","ts":"2021-01-13T00:27:26Z","tX":497,"tY":386,"tags":{"addr:housenumber":"13","addr:postcode":"05490","addr:street":"Calle de Ávila","name":"Camping La Eliza","phone":"+34619690735","website":"http://www.campinglaeliza.com"}},"7999271314":{"location":[40.3423092,-5.1928842],"ct":"ES","tp":"CS","ts":"2020-10-12T08:28:34Z","tX":497,"tY":386,"tags":{}},"7999271315":{"location":[40.3438966,-5.1768258],"ct":"ES","tp":"CS","ts":"2020-10-12T08:28:34Z","tX":497,"tY":386,"tags":{}},"11002934639":{"location":[40.3457885,-5.1747314],"ct":"ES","tp":"CR","ts":"2023-06-24T22:47:15Z","tX":497,"tY":386,"tags":{"capacity":"12","fee":"no","opening_hours":"24/7","power_supply":"no"}}}