{"936745925":{"location":[37.2429273,-5.1137664],"ct":"ES","tp":"CR","ts":"2024-04-23T10:26:15Z","tX":497,"tY":397,"tags":{"access":"yes","addr:city":"Osuna","addr:postcode":"41640","addr:street":"Diseminado Extrarradio","capacity":"30","caravan_site":"motorhome_stopover","caravan_site:type":"village;sports_centre","check_date":"2023-12-14","covered":"no","drinking_water":"yes","fee":"no","internet_access":"wlan","internet_access:fee":"no","name":"Area para Autocaravanas de Osuna","operator":"ciudad de Osuna","power_supply":"no","sanitary_dump_station":"yes","sanitary_dump_station:chemical_toilet":"yes","sanitary_dump_station:grey_water":"yes","sanitary_dump_station:round_drain":"yes","supervised":"no","surface":"unpaved","toilets":"yes","water_point":"yes"}},"936749886":{"location":[37.2318105,-5.0972114],"ct":"ES","tp":"CR","ts":"2024-04-14T18:43:55Z","tX":497,"tY":397,"tags":{"access":"yes","addr:city":"Osuna","addr:postcode":"41640","addr:street":"Diseminado Extrarradio","caravan_site":"motorhome_stopover","covered":"no","drinking_water":"yes","fee":"no","name":"Osuna Area de Autocaravas","opening_hours":"24/7","operator":"ciudad de Osuna","power_supply":"no","sanitary_dump_station":"yes","sanitary_dump_station:chemical_toilet":"yes","sanitary_dump_station:grey_water":"yes","sanitary_dump_station:round_drain":"yes","supervised":"no","surface":"unpaved","water_point":"yes","website":"https://turismodeosuna.es/en/motorhome-area/"}},"936754296":{"location":[37.2461121,-4.9275774],"ct":"ES","tp":"CR","ts":"2024-04-14T17:51:37Z","tX":497,"tY":397,"tags":{"access":"yes","addr:city":"Gilena","addr:postcode":"41640","addr:street":"Calle G Pi Piedra Blanca","capacity":"10","caravan_site":"motorhome_stopover","covered":"no","drinking_water":"yes","fee":"no","name":"Gilena Área de Autocaravanas","operator":"ciudad de Gilena","power_supply":"no","sanitary_dump_station":"yes","sanitary_dump_station:chemical_toilet":"yes","sanitary_dump_station:grey_water":"yes","sanitary_dump_station:round_drain":"yes","supervised":"yes","surface":"unpaved","water_point":"yes"}},"1272574536":{"location":[37.3528069,-5.2205179],"ct":"ES","tp":"CR","ts":"2024-04-14T18:19:33Z","tX":497,"tY":397,"tags":{"capacity":"6","caravan_site":"motorhome_stopover","caravan_site:type":"village","fee":"no","name":"Área de Autocaravanas de Lantejuela","playground":"yes","power_supply":"yes","power_supply:capacity":"2","sanitary_dump_station":"yes","water_point":"yes"}},"8679802548":{"location":[37.2422757,-5.1133315],"ct":"ES","tp":"SD","ts":"2023-08-29T15:15:35Z","tX":497,"tY":397,"tags":{"access":"yes","fee":"no","operator":"Ayuntamiento de Osuna","sanitary_dump_station":"public","sanitary_dump_station:chemical_toilet":"yes","sanitary_dump_station:grey_water":"yes","sanitary_dump_station:round_drain":"yes","water_point":"yes"}},"8679851409":{"location":[37.2319193,-5.0968026],"ct":"ES","tp":"SD","ts":"2023-08-29T15:15:35Z","tX":497,"tY":397,"tags":{"access":"yes","fee":"no","operator":"Ayuntamiento de Osuna","sanitary_dump_station":"public","sanitary_dump_station:chemical_toilet":"yes","sanitary_dump_station:grey_water":"yes","sanitary_dump_station:round_drain":"yes","water_point":"yes"}},"8679903880":{"location":[37.2459537,-4.9274627],"ct":"ES","tp":"SD","ts":"2023-08-29T15:15:35Z","tX":497,"tY":397,"tags":{"access":"yes","fee":"no","operator":"Ayuntamiento de Gilena","sanitary_dump_station":"public","sanitary_dump_station:chemical_toilet":"yes","sanitary_dump_station:grey_water":"yes","sanitary_dump_station:round_drain":"yes","water_point":"yes"}}}