{"40070946":{"location":[35.4476244,-5.0923345],"ct":"MA","tp":"CS","ts":"2022-01-21T00:52:14Z","tX":497,"tY":404,"tags":{"addr:city":"وادي لو","addr:city:ar":"وادي لو","addr:city:es":"Ued Lau","leisure":"park","name":"Qued Laou وادي لو","name:ar":"وادي لو","name:es":"Ued Lau","name:fr":"Qued Laou"}},"1231102509":{"location":[35.4366419,-5.0830901],"ct":"MA","tp":"CS","ts":"2023-12-14T13:44:13Z","tX":497,"tY":404,"tags":{"capacity:caravans":"5","capacity:tents":"3","caravans":"yes","fee":"yes","name":"The palm restaurant","operator":"Adlamen","payment:cash":"yes","tents":"yes"}},"2661892252":{"location":[35.1757064,-5.2666178],"ct":"MA","tp":"CS","ts":"2024-03-15T17:55:44Z","tX":497,"tY":404,"tags":{"email":"campingchefchaouen@hotmail.com","internet_access":"yes","name":"Camping Azilan","name:fr":"Camping Azilan","phone":"+212 5399-86979","website":"http://campingchefchaouen.com"}},"3806591693":{"location":[35.2492728,-5.2050345],"ct":"MA","tp":"CR","ts":"2023-10-30T21:31:48Z","tX":497,"tY":404,"tags":{"name":"Camping Akchour تخييم أقشور","name:ar":"تخييم أقشور","name:fr":"Camping Akchour"}},"3825113667":{"location":[35.378609,-5.1729225],"ct":"MA","tp":"CS","ts":"2015-11-08T19:37:56Z","tX":497,"tY":404,"tags":{}},"5787858253":{"location":[35.2155602,-5.0159688],"ct":"MA","tp":"CS","ts":"2020-11-19T21:57:16Z","tX":497,"tY":404,"tags":{"name":"واد القنار","name:ar":"واد القنار","name:en":"Oued El Kennar"}},"6918858577":{"location":[35.3296805,-4.9402266],"ct":"MA","tp":"CS","ts":"2020-11-08T21:49:20Z","tX":497,"tY":404,"tags":{}}}