{"8681855":{"location":[34.1449707,133.6431825],"ct":"JP","tp":"CS","ts":"2018-09-12T05:58:23Z","tX":892,"tY":408,"tags":{"name":"観音寺ファミリーキャンプ場","operator":"市民スポーツ課 0875-54-5713"}},"314353926":{"location":[34.0349378,133.8967256],"ct":"JP","tp":"CS","ts":"2014-11-25T01:40:11Z","tX":892,"tY":408,"tags":{}},"314355989":{"location":[34.0917995,133.8770972],"ct":"JP","tp":"CS","ts":"2014-11-25T02:52:50Z","tX":892,"tY":408,"tags":{"addr:city":"東みよし町","addr:housenumber":"86-2","addr:postcode":"771-2503","addr:street":"東山字男山","name":"二本栗キャンプ村","phone":"0883-79-5870","website":"http://www3.ocn.ne.jp/~nihongur/401.html"}},"492704253":{"location":[34.0354766,133.8977853],"ct":"JP","tp":"CS","ts":"2017-05-11T05:52:40Z","tX":892,"tY":408,"tags":{"name":"美濃田の淵キャンプサイト"}},"648404809":{"location":[34.1975586,133.7799094],"ct":"JP","tp":"CS","ts":"2018-11-24T10:17:21Z","tX":892,"tY":408,"tags":{}},"4269708628":{"location":[34.0855228,133.638669],"ct":"JP","tp":"CS","ts":"2017-06-26T22:15:56Z","tX":892,"tY":408,"tags":{"name":"一の宮","name:ja":"一の宮"}},"4846938618":{"location":[34.0358048,133.8978655],"ct":"JP","tp":"CS","ts":"2018-11-28T02:59:04Z","tX":892,"tY":408,"tags":{"name":"美濃田の淵キャンプサイト"}},"7618162585":{"location":[34.1975978,133.7809474],"ct":"JP","tp":"CS","ts":"2020-06-13T16:39:51Z","tX":892,"tY":408,"tags":{"name:en":"302 Osayama Camping Ground"}}}