{"312160799":{"location":[33.9359593,133.6812294],"ct":"JP","tp":"CS","ts":"2019-12-12T10:13:47Z","tX":892,"tY":409,"tags":{"addr:city":"三好市","addr:housenumber":"205","addr:postcode":"779-5337","addr:street":"山城町平野","name":"塩塚高原キャンプ場","phone":"0883-86-3077","website":"http://shiozuka.macearth-shikoku.jp/","wikidata":"Q5485846","wikipedia":"ja:塩塚高原"}},"312160800":{"location":[33.9367422,133.6821423],"ct":"JP","tp":"CS","ts":"2014-11-11T02:52:19Z","tX":892,"tY":409,"tags":{"name":"塩塚高原キャンプ場"}},"312160801":{"location":[33.9371357,133.6818267],"ct":"JP","tp":"CS","ts":"2014-11-11T02:52:19Z","tX":892,"tY":409,"tags":{"name":"塩塚高原キャンプ場"}},"312160802":{"location":[33.9374825,133.6818392],"ct":"JP","tp":"CS","ts":"2014-11-11T02:52:19Z","tX":892,"tY":409,"tags":{"name":"塩塚高原キャンプ場"}},"312160803":{"location":[33.9376498,133.6819678],"ct":"JP","tp":"CS","ts":"2014-11-11T02:52:19Z","tX":892,"tY":409,"tags":{"name":"塩塚高原キャンプ場"}},"312160804":{"location":[33.9378602,133.6820315],"ct":"JP","tp":"CS","ts":"2014-11-11T02:52:19Z","tX":892,"tY":409,"tags":{"name":"塩塚高原キャンプ場"}},"312160805":{"location":[33.9377522,133.6826156],"ct":"JP","tp":"CS","ts":"2014-11-11T02:52:19Z","tX":892,"tY":409,"tags":{"name":"塩塚高原キャンプ場"}},"312160806":{"location":[33.9376835,133.682423],"ct":"JP","tp":"CS","ts":"2014-11-11T02:52:20Z","tX":892,"tY":409,"tags":{"name":"塩塚高原キャンプ場"}},"312160807":{"location":[33.9378157,133.6832906],"ct":"JP","tp":"CS","ts":"2014-11-11T02:52:20Z","tX":892,"tY":409,"tags":{"name":"塩塚高原キャンプ場"}},"312160808":{"location":[33.9380935,133.6832442],"ct":"JP","tp":"CS","ts":"2014-11-11T02:52:20Z","tX":892,"tY":409,"tags":{"name":"塩塚高原キャンプ場"}},"312160809":{"location":[33.9376346,133.6835183],"ct":"JP","tp":"CS","ts":"2014-11-11T02:52:20Z","tX":892,"tY":409,"tags":{"name":"塩塚高原キャンプ場"}},"312160810":{"location":[33.9374749,133.683385],"ct":"JP","tp":"CS","ts":"2014-11-11T02:52:20Z","tX":892,"tY":409,"tags":{"name":"塩塚高原キャンプ場"}},"312160811":{"location":[33.9359043,133.6818507],"ct":"JP","tp":"CS","ts":"2014-11-11T02:52:20Z","tX":892,"tY":409,"tags":{"name":"塩塚高原キャンプ場"}},"312160812":{"location":[33.9359396,133.6822892],"ct":"JP","tp":"CS","ts":"2014-11-11T02:52:20Z","tX":892,"tY":409,"tags":{"name":"塩塚高原キャンプ場"}},"312160813":{"location":[33.9380842,133.6830611],"ct":"JP","tp":"CS","ts":"2014-11-11T02:52:20Z","tX":892,"tY":409,"tags":{"name":"塩塚高原キャンプ場"}},"312160814":{"location":[33.9377853,133.6822295],"ct":"JP","tp":"CS","ts":"2014-11-11T02:52:20Z","tX":892,"tY":409,"tags":{"name":"塩塚高原キャンプ場"}},"312160815":{"location":[33.9361006,133.6810723],"ct":"JP","tp":"CS","ts":"2014-11-11T02:52:20Z","tX":892,"tY":409,"tags":{"name":"塩塚高原キャンプ場"}},"312174147":{"location":[33.8794377,133.8412708],"ct":"JP","tp":"CS","ts":"2014-11-11T04:55:32Z","tX":892,"tY":409,"tags":{"addr:city":"三好市","addr:housenumber":"233","addr:postcode":"778-0102","addr:street":"西祖谷山村閑","name":"かずら橋キャンプ村","phone":"090-1571-5258","website":"http://www.iyakei-camp.jp/"}},"312174148":{"location":[33.8796151,133.8413119],"ct":"JP","tp":"CS","ts":"2014-11-11T04:55:32Z","tX":892,"tY":409,"tags":{"name":"かずら橋キャンプ村"}},"312182481":{"location":[33.891534,133.8143784],"ct":"JP","tp":"CS","ts":"2023-03-15T08:49:28Z","tX":892,"tY":409,"tags":{"addr:city":"三好市","addr:housenumber":"379","addr:postcode":"778-0101","addr:street":"西祖谷山村尾井ノ内","caravans":"no","drinking_water":"yes","name":"祖谷ふれあい公園キャンプサイト","phone":"0883-76-8585","power_supply":"no","shower":"no","tents":"yes","toilets":"no"}},"312371403":{"location":[33.9457918,133.8143415],"ct":"JP","tp":"CS","ts":"2015-02-07T12:40:03Z","tX":892,"tY":409,"tags":{"addr:city":"三好市","addr:housenumber":"524-2","addr:postcode":"779-5165","addr:street":"池田町松尾松本","name":"祖谷渓キャンプ村","phone":"090-9553-3795","website":"http://www.iyakei-camp.jp"}},"312545576":{"location":[33.8606033,133.8771803],"ct":"JP","tp":"CS","ts":"2014-11-13T08:26:18Z","tX":892,"tY":409,"tags":{"addr:city":"三好市","addr:housenumber":"438-3","addr:postcode":"778-0206","addr:street":"東祖谷釣井","name":"龍宮崖コテージ","phone":"080-2981-6221","website":"http://www.ryugugake.com/"}},"421964891":{"location":[33.9160083,133.6497143],"ct":"JP","tp":"CS","ts":"2016-05-31T11:12:23Z","tX":892,"tY":409,"tags":{"name":"四国中央市立新宮少年自然の家"}},"496639035":{"location":[33.7484861,133.6868965],"ct":"JP","tp":"CR","ts":"2018-04-04T05:58:09Z","tX":892,"tY":409,"tags":{"name":"オートキャンプエリア"}},"496639036":{"location":[33.748941,133.6883583],"ct":"JP","tp":"CS","ts":"2017-05-29T09:21:38Z","tX":892,"tY":409,"tags":{"name":"バンガローエリア"}},"582534272":{"location":[33.7570379,133.5952451],"ct":"JP","tp":"CS","ts":"2018-04-22T13:29:52Z","tX":892,"tY":409,"tags":{"name":"帰全山キャンプ場"}},"632365980":{"location":[33.7587111,133.7557273],"ct":"JP","tp":"CS","ts":"2018-10-10T03:40:59Z","tX":892,"tY":409,"tags":{"fee":"no"}},"1690345418":{"location":[33.7569336,133.5952691],"ct":"JP","tp":"CS","ts":"2023-10-17T10:21:51Z","tX":892,"tY":409,"tags":{"name":"帰全山キャンプ場","name:ja_rm":"Kizenzan-camp_site","website":"https://www.town.motoyama.kochi.jp/life/dtl.php?hdnKey=16"}}}