{"198984986":{"location":[38.2170626,-107.7391152],"ct":"US","tp":"CS","ts":"2024-10-08T20:35:02Z","tX":205,"tY":394,"tags":{"name":"Elk Ridge Campground","operator":"Ridgeway State Park"}},"198984987":{"location":[38.2165407,-107.7310508],"ct":"US","tp":"CS","ts":"2024-10-08T20:35:02Z","tX":205,"tY":394,"tags":{"access":"customers","caravans":"yes","name":"Dakota Terraces Campground","operator":"Ridgeway State Park","static_caravans":"yes","tents":"yes"}},"198986059":{"location":[38.2485815,-107.7622716],"ct":"US","tp":"CS","ts":"2015-04-10T06:31:52Z","tX":205,"tY":394,"tags":{"name":"Pa-Co-Chu-Puk Campground"}},"198987551":{"location":[38.0223286,-107.6618227],"ct":"US","tp":"CS","ts":"2022-06-16T01:02:36Z","tX":205,"tY":394,"tags":{"camp_site":"standard","drinking_water":"yes","impromptu":"yes","name":"Amphitheatre Campground","operator":"United States Forest Service","reservation":"yes","toilets":"yes","website":"https://www.fs.usda.gov/recarea/gmug/recarea/?recid=32522"}},"426044538":{"location":[38.0812389,-107.7065099],"ct":"US","tp":"CR","ts":"2020-02-01T04:10:43Z","tX":205,"tY":394,"tags":{"addr:city":"Ouray","addr:housenumber":"225","addr:postcode":"81427","addr:state":"CO","addr:street":"CR 361","name":"Ouray KOA","operator":"KOA"}},"952600315":{"location":[38.0349434,-107.6766774],"ct":"US","tp":"CS","ts":"2021-06-09T09:48:51Z","tX":205,"tY":394,"tags":{}},"952600317":{"location":[38.0269277,-107.6741696],"ct":"US","tp":"CS","ts":"2021-06-09T10:13:16Z","tX":205,"tY":394,"tags":{}},"3423449329":{"location":[38.0059337,-107.6923359],"ct":"US","tp":"CS","ts":"2022-06-16T01:02:36Z","tX":205,"tY":394,"tags":{"camp_site":"basic","caravans":"no","drinking_water":"no","impromptu":"yes","name":"Angel Creek Campground","operator":"United States Forest Service","reservation":"no","toilets":"yes","website":"https://www.fs.usda.gov/recarea/gmug/recarea/?recid=32524"}},"3658342266":{"location":[38.0024447,-107.8168713],"ct":"US","tp":"CS","ts":"2015-07-19T23:41:34Z","tX":205,"tY":394,"tags":{}},"7164864148":{"location":[38.0250083,-107.6744134],"ct":"US","tp":"CS","ts":"2020-02-02T03:54:47Z","tX":205,"tY":394,"tags":{"addr:housenumber":"790","addr:street":"Oak Street","name":"Four J Campground"}},"5032419521":{"location":[38.0394861,-107.6798936],"ct":"US","tp":"CR","ts":"2017-08-13T14:27:50Z","tX":205,"tY":394,"tags":{"name":"Ouray RV park","name:en":"Ouray RV park"}}}