{"1157535603":{"location":[35.186802,-107.9000934],"ct":"US","tp":"CR","ts":"2024-08-19T07:43:16Z","tX":205,"tY":404,"tags":{"addr:city":"Milan","addr:housenumber":"1860","addr:postcode":"87020","addr:state":"NM","addr:street":"Pinon Drive","cabins":"no","capacity":"70","capacity:caravans":"70","caravans":"yes","check_date":"2023-03-26","contact:pobox":"PO BOX 1535, Grants, NM 87020","description":"A RV park with 70 full hookup RV sites with 15, 30, and 50 amp service with free cable and Wi-Fi Internet.","dog":"leashed","fee":"yes","internet_access":"wlan","internet_access:fee":"customers","internet_access:ssid":"BAR S RV Park","name":"BAR S RV Park","official_name":"BAR SÌ„ RV Park","permanent_camping":"yes","phone":"+1-505-876-6002","power_supply":"yes","reservation":"yes","sanitary_dump_station":"yes","website":"https://www.barsrvpark.com/"}},"2332493702":{"location":[35.23403,-107.70197],"ct":"US","tp":"CS","ts":"2013-06-05T00:02:04Z","tX":205,"tY":404,"tags":{"name":"Coal Mine Campground","operator":"USFS","source":"www.fs.usda.gov","uuid":"sonora_20130605"}},"2333697984":{"location":[35.20367,-107.71503],"ct":"US","tp":"CS","ts":"2013-06-05T21:21:51Z","tX":205,"tY":404,"tags":{"name":"Lobo Canyon Campground","operator":"USFS","source":"www.fs.usda.gov","uuid":"sonora_20130605"}}}