{"177770704":{"location":[34.9436195,-107.8208276],"ct":"US","tp":"CS","ts":"2024-10-13T02:01:50Z","tX":205,"tY":405,"tags":{"name":"Joe Skeen Malpais Campground","name:etymology":"Joe Skeen","name:etymology:wikidata":"Q1664440","operator":"Bureau of Land Management","url":"https://nps.gov/elma/planyourvisit/camping.htm"}},"1881874984":{"location":[34.9450207,-107.8208683],"ct":"US","tp":"CS","ts":"2012-08-25T02:15:51Z","tX":205,"tY":405,"tags":{"name":"Group Campsite"}},"2372215514":{"location":[35.144838,-107.873348],"ct":"US","tp":"CS","ts":"2020-04-09T22:48:17Z","tX":205,"tY":405,"tags":{"addr:city":"Grants","addr:housenumber":"26","addr:postcode":"87020","addr:state":"NM","addr:street":"Cibola Sands Loop","name":"Grants KOA","operator":"KOA","website":"https://koa.com/campgrounds/grants/"}},"4159368189":{"location":[35.1238188,-107.8330939],"ct":"US","tp":"CS","ts":"2023-01-18T02:03:01Z","tX":205,"tY":405,"tags":{"addr:housenumber":"1901","addr:street":"East Santa Fe Drive","internet_access":"wlan","name":"Lavaland RV Park","opening_hours":"24/7","phone":"+1-505-287-8665","website":"http://www.lavalandrvpark.com"}}}