{"480070631":{"location":[48.341934,-69.3982321],"ct":"CA","tp":"CS","ts":"2017-03-13T21:35:57Z","tX":314,"tY":354,"tags":{"addr:city":"Essipit","name":"Le Tipi"}},"713489722":{"location":[48.2765179,-69.4627842],"ct":"CA","tp":"CS","ts":"2021-12-22T02:44:30Z","tX":314,"tY":354,"tags":{"backcountry":"no","camp_site":"serviced","caravans":"yes","dog":"leashed","drinking_water":"yes","motor_vehicle":"yes","name":"Paradis Marin","openfire":"yes","phone":"+1-418 232-6237","reservation":"recommended","tents":"yes","website":"http://www.campingparadismarin.com/"}},"1014422585":{"location":[48.3773441,-69.3683293],"ct":"CA","tp":"CS","ts":"2021-12-22T18:00:02Z","tX":314,"tY":354,"tags":{"addr:city":"Les Escoumins","addr:housenumber":"552","addr:street":"Route 138","name":"Camping la maison Jackelson"}},"1014442978":{"location":[48.2683008,-69.4979901],"ct":"CA","tp":"CS","ts":"2021-12-22T19:40:27Z","tX":314,"tY":354,"tags":{"addr:city":"Les Bergeronnes","addr:housenumber":"198","addr:street":"Route 138","name":"Camping Bon-Désir"}},"1295487474":{"location":[48.2888769,-69.4498942],"ct":"CA","tp":"CS","ts":"2024-06-23T23:10:50Z","tX":314,"tY":354,"tags":{"addr:city":"Les Bergeronnes","addr:housenumber":"20","addr:postcode":"G0T 1G0","addr:street":"Chemin Jalbert","name":"Mer et monde écotours","phone":"+1-866-637-6663","website":"https://www.meretmonde.ca//","wheelchair":"limited"}},"12117394801":{"location":[48.3444052,-69.411427],"ct":"CA","tp":"CS","ts":"2024-08-17T19:24:53Z","tX":314,"tY":354,"tags":{"name":"parc municipal"}},"11282526605":{"location":[48.3479069,-69.4069073],"ct":"CA","tp":"SD","ts":"2023-10-23T01:34:32Z","tX":314,"tY":354,"tags":{}}}