{"769761795":{"location":[45.5844082,-69.2908278],"ct":"US","tp":"CS","ts":"2023-10-24T14:17:11Z","tX":314,"tY":365,"tags":{"access":"customers","cabins":"yes","caravans":"no","fee":"yes","name":"West Branch Pond Camps","operator":"Stirling Family","phone":"+1-207-695-2561","website":"https://westbranchpondcamps.com/"}},"769761796":{"location":[45.6735504,-69.3205795],"ct":"US","tp":"CS","ts":"2023-12-30T03:50:45Z","tX":314,"tY":365,"tags":{"access":"customers","addr:housenumber":"15","addr:state":"ME","addr:street":"Moosehead Lake Road","cabins":"yes","caravans":"no","dog":"yes","fee":"yes","name":"Medawisla Lodge and Cabins","operator":"Appalachian Mountain Club","operator:short":"AMC","operator:type":"private","operator:wikidata":"Q2858593","phone":"+1-207-349-0437","website":"https://www.outdoors.org/lodging-camping/lodges/medawisla"}},"3377337239":{"location":[45.7099991,-69.5558823],"ct":"US","tp":"CS","ts":"2015-03-01T01:47:34Z","tX":314,"tY":365,"tags":{}},"3377337616":{"location":[45.7144773,-69.5584299],"ct":"US","tp":"CS","ts":"2015-03-01T01:47:39Z","tX":314,"tY":365,"tags":{}},"3377338156":{"location":[45.7340369,-69.5657508],"ct":"US","tp":"CS","ts":"2015-03-01T01:47:47Z","tX":314,"tY":365,"tags":{}},"4935812221":{"location":[45.6458233,-69.6010992],"ct":"US","tp":"CS","ts":"2017-06-25T16:40:39Z","tX":314,"tY":365,"tags":{"name":"Beach Haven campsite","name:en":"Beach Haven campsite"}},"4985409624":{"location":[45.6554619,-69.5982886],"ct":"US","tp":"CS","ts":"2019-09-17T19:35:48Z","tX":314,"tY":365,"tags":{"email":"casey@caseysspencerbaycamps.com","name":"Casey's Spencer Bay Camps","name:en":"Casey's Spencer Bay Camps","phone":"+1-207-695-2801"}},"5970877084":{"location":[45.6981757,-69.5529351],"ct":"US","tp":"CS","ts":"2018-10-10T02:44:42Z","tX":314,"tY":365,"tags":{"access":"permit","name":"Salmon Island","operator":"Maine Public Lands"}},"5970878355":{"location":[45.6872934,-69.5512399],"ct":"US","tp":"CS","ts":"2018-10-10T02:38:17Z","tX":314,"tY":365,"tags":{"access":"yes","capacity":"4","description":"Pit toilet. 4 sites with picnic table and fire ring.","fee":"no","internet_access":"no","name":"Jewett Cove","operator":"Maine Public Lands"}}}