{"8483715219":{"location":[19.0887914,-69.568221],"ct":"DO","tp":"CS","ts":"2021-03-03T19:04:30Z","tX":314,"tY":456,"tags":{"addr:street":"Los Haitises","name":"Edgar’s Beach"}},"12904073090":{"location":[19.2831307,-69.3362246],"ct":"DO","tp":"CS","ts":"2025-06-12T01:56:55Z","tX":314,"tY":456,"tags":{"access":"customers","addr:city":"Samaná","addr:housenumber":"10","addr:postcode":"32000","addr:street":"Carretera El Valle","camp_site":"serviced","capacity:persons":"150","capacity:tents":"60","charge":"20 USD","check_date:currency:XBT":"2025-06-12","contact:instagram":"https://www.instagram.com/vamoalcamping/","currency:XBT":"yes","drinking_water":"yes","fee":"yes","group_only":"yes","internet_access":"wlan","name":"VAMOALCAMPING","openfire":"yes","operator":"Vamoalcamping","payment:cash":"yes","payment:credit_cards":"yes","payment:lightning":"yes","payment:lightning_contactless":"yes","payment:onchain":"yes","payment:paypal":"yes","phone":"+1-829-706-0619","power_supply":"yes","reservation":"required","tents":"yes","toilets":"yes","website":"https://vamoalcamping.com/"}}}