{"59283021":{"location":[-37.6726309,144.8868159],"ct":"AU","tp":"CR","ts":"2025-03-09T06:05:35Z","tX":924,"tY":627,"tags":{"addr:housenumber":"37","addr:postcode":"3049","addr:street":"Ardlie Street","alt_name":"Melbourne Airport Caravan Village","name":"Airport Tourist Village"}},"801334913":{"location":[-37.6696311,144.9567994],"ct":"AU","tp":"CR","ts":"2025-03-04T09:01:59Z","tX":924,"tY":627,"tags":{"addr:housenumber":"1780","addr:postcode":"3061","addr:street":"Sydney Road","addr:suburb":"Campbellfield","name":"Sylvan Caravan Park"}},"928726856":{"location":[-37.4512611,145.1079557],"ct":"AU","tp":"CS","ts":"2021-04-10T02:43:02Z","tX":924,"tY":627,"tags":{"name":"Camp Warringal"}},"1354142185":{"location":[-37.6449984,144.9529477],"ct":"AU","tp":"CR","ts":"2025-01-25T08:40:55Z","tX":924,"tY":627,"tags":{"addr:housenumber":"2110 - 2118","addr:street":"Sydney Road","name":"Blue Gum Cabin Park"}},"6117175979":{"location":[-37.644811,144.9524925],"ct":"AU","tp":"CR","ts":"2018-12-04T23:12:22Z","tX":924,"tY":627,"tags":{"addr:housenumber":"2110 - 2118","addr:street":"Sydney Road","name":"Blue Gum Cabin Park"}}}