{"1811187290":{"location":[-40.74444,144.97889],"ct":"AU","tp":"CS","ts":"2019-02-13T07:27:50Z","tX":924,"tY":639,"tags":{"caravans":"yes","fee":"yes","name":"Montagu Park","shower":"no","tents":"yes","toilets":"yes","website":"https://www.circularhead.tas.gov.au/webdata/resources/files/montaguebrochure-chc-a%20(5).pdf"}},"1811195223":{"location":[-40.8388457,145.1202835],"ct":"AU","tp":"CS","ts":"2019-02-13T07:27:50Z","tX":924,"tY":639,"tags":{"caravans":"yes","fee":"no","name":"Smithton Esplanade","shower":"no","tents":"no","toilets":"yes"}},"6275955450":{"location":[-40.84006,145.1092243],"ct":"AU","tp":"CS","ts":"2022-05-23T03:59:06Z","tX":924,"tY":639,"tags":{"caravans":"yes","fee":"yes","name":"River Breeze Caravan and Cabin Park","shower":"yes","tents":"yes","toilets":"yes","website":"https://kuiparks.com.au/parks/river-breeze-caravan-and-cabin-park"}},"11124421951":{"location":[-40.8953059,145.1068744],"ct":"AU","tp":"CS","ts":"2024-01-07T23:10:52Z","tX":924,"tY":639,"tags":{"addr:housenumber":"358","addr:postcode":"7330","addr:state":"TAS","addr:street":"Trowutta Road","addr:suburb":"Scotchtown","capacity":"149","name":"Riverbend Youth Centre","operator":"Christian Brethren Churches of Circular Head","source":"website","website":"https://riverbend.org.au"}}}