{"415410743":{"location":[42.980981,141.3728701],"ct":"JP","tp":"CS","ts":"2023-10-29T18:59:27Z","tX":914,"tY":376,"tags":{"addr:block_number":"544","addr:city":"札幌市","addr:postcode":"062-0039","addr:quarter":"西岡","addr:suburb":"豊平区","name":"西岡青少年キャンプ場","name:ja":"西岡青少年キャンプ場","operator":"札幌市","website":"https://www.city.sapporo.jp/kodomo/ikusei/l02_5_nishioka.html"}},"434299623":{"location":[42.9136246,141.3908671],"ct":"JP","tp":"CR","ts":"2022-09-11T14:58:06Z","tX":914,"tY":376,"tags":{"addr:block_number":"247","addr:city":"札幌市","addr:postcode":"005-0862","addr:quarter":"滝野","addr:suburb":"南区","name":"オートリゾート滝野","name:en":"Auto Resort Takino","name:ja":"オートリゾート滝野","website":"https://www.takinopark.com/autoresorttakino/"}},"434299624":{"location":[42.9135713,141.3903873],"ct":"JP","tp":"CR","ts":"2022-07-26T18:50:28Z","tX":914,"tY":376,"tags":{"building":"yes"}},"1148386142":{"location":[42.9100112,141.5537048],"ct":"JP","tp":"CS","ts":"2023-02-22T03:47:33Z","tX":914,"tY":376,"tags":{"name":"メイプルキャンプ場・ＲＶパーク"}},"6515719685":{"location":[42.8888196,141.5402199],"ct":"JP","tp":"CS","ts":"2022-09-15T16:00:24Z","tX":914,"tY":376,"tags":{"access":"permissive","contact:email":"kumiai-kouen@eniwa-ciu.jp","contact:phone":"+81 123 29 4836","contact:website":"http://www.eniwa-ciu.jp/kashiwagi.html","fee":"no","name":"柏木地区レクリエーション施設キャンプ場","website":"http://www.eniwa-ciu.jp/kashiwagi.html"}},"6983753452":{"location":[42.9304651,141.5044841],"ct":"JP","tp":"CS","ts":"2019-11-17T00:55:50Z","tX":914,"tY":376,"tags":{"name":"北広島市自然の森キャンプ場"}},"10307842372":{"location":[42.9305123,141.339936],"ct":"JP","tp":"CS","ts":"2023-01-05T02:55:33Z","tX":914,"tY":376,"tags":{"name":"AOYAMAEN"}},"10635583974":{"location":[42.9197852,141.5057204],"ct":"JP","tp":"CS","ts":"2023-02-10T06:30:42Z","tX":914,"tY":376,"tags":{"name":"キツツキの森キャンプ場"}},"10635721229":{"location":[42.9181496,141.522466],"ct":"JP","tp":"CS","ts":"2023-02-10T06:30:42Z","tX":914,"tY":376,"tags":{"name":"北広島かえるキャンプ場"}},"10698669691":{"location":[42.8131967,141.6280996],"ct":"JP","tp":"CS","ts":"2023-02-28T04:26:35Z","tX":914,"tY":376,"tags":{"name":"青葉公園ピクニック広場"}},"10841586794":{"location":[42.8767699,141.6068938],"ct":"JP","tp":"CS","ts":"2023-04-26T08:50:52Z","tX":914,"tY":376,"tags":{}},"12032840953":{"location":[42.8484989,141.4961822],"ct":"JP","tp":"CS","ts":"2024-07-04T08:07:24Z","tX":914,"tY":376,"tags":{"name":"TCS Village"}}}