{"10408100":{"location":[56.9592997,16.4520286],"ct":"SE","tp":"CS","ts":"2019-12-14T00:40:23Z","tX":558,"tY":313,"tags":{"access":"yes","addr:city":"Timmernabben","addr:country":"SE","addr:housenumber":"29","addr:postcode":"38052","addr:street":"Varvsvägen","capacity":"135","contact:email":"timmernabben-camp@telia.com","contact:fax":"+46 499 23871","contact:phone":"+46 499 23861","contact:website":"http://caravanclub.se/","dog":"yes","internet_access":"yes","internet_access:fee":"no","internet_access:ssid":"Nabben Guests","name":"Caravan Club Timmernabben","operator":"Caravan Club of Sweden","power_supply:maxcurrent":"10","source:info":"caravanclub.se","source:location":"caravanclub.se","wheelchair":"yes"}},"207506862":{"location":[57.1301816,16.2554482],"ct":"SE","tp":"CS","ts":"2020-01-21T18:21:04Z","tX":558,"tY":313,"tags":{"backcountry":"yes"}},"431824991":{"location":[57.0112331,16.5068916],"ct":"SE","tp":"CS","ts":"2022-07-08T13:52:40Z","tX":558,"tY":313,"tags":{"addr:city":"Mönsterås","addr:country":"SE","addr:housenumber":"12","addr:postcode":"383 92","addr:street":"Oknövagen","bbq":"yes","cabins":"yes","caravans":"yes","dog":"leashed","drinking_water":"yes","email":"okno@firstcamp.se","fee":"yes","hot_water":"yes","internet_access":"wlan","kitchen":"yes","motor_vehicle":"yes","name":"First Camp Oknö - Mönsterås","old_name":"Regenbogen Oknö Mönsterås","operator":"First Camp","payment:credit_cards":"yes","phone":"+46 499 44902","power_supply":"yes","reservation":"yes","shower":"yes","tents":"yes","toilets":"yes","website":"http://firstcamp.se/okno"}},"975627666":{"location":[56.9734046,16.4413764],"ct":"SE","tp":"CR","ts":"2021-08-23T10:36:17Z","tX":558,"tY":313,"tags":{}},"3649123872":{"location":[56.9987819,16.517488],"ct":"SE","tp":"CS","ts":"2023-07-03T16:50:10Z","tX":558,"tY":313,"tags":{"caravans":"yes","drinking_water":"yes","email":"receptionen@kaffetorpetscamping.se","fee":"yes","name":"Kaffetorpet Camping","phone":"+46 499 10044","power_supply":"yes","shower":"yes","tents":"yes","toilets":"yes","website":"https://kaffetorpetscamping.com/"}},"4448464536":{"location":[57.01106,16.50965],"ct":"SE","tp":"SD","ts":"2017-09-23T18:46:22Z","tX":558,"tY":313,"tags":{"access":"yes","addr:place":"Lakhamn","boat":"yes","fee":"no","opening_hours":"24/7","sanitary_dump_station:accepted":"black_water","sanitary_dump_station:pump-out":"yes","seamark:small_craft_facility:category":"pump-out","seamark:type":"small_craft_facility","vehicle":"no","waterway":"sanitary_dump_station","website":"https://hamnkartan.azurewebsites.net"}},"4448464538":{"location":[57.04033,16.45016],"ct":"SE","tp":"SD","ts":"2017-09-23T18:46:22Z","tX":558,"tY":313,"tags":{"access":"yes","addr:place":"Mönsterås Södra Kajen","boat":"yes","fee":"no","opening_hours":"24/7","sanitary_dump_station:accepted":"black_water","sanitary_dump_station:pump-out":"yes","seamark:small_craft_facility:category":"pump-out","seamark:type":"small_craft_facility","vehicle":"no","waterway":"sanitary_dump_station","website":"https://hamnkartan.azurewebsites.net"}}}