{"11168707":{"location":[56.6484969,16.3240793],"ct":"SE","tp":"CS","ts":"2023-02-11T22:19:31Z","tX":558,"tY":315,"tags":{"access":"yes","addr:city":"Kalmar","addr:country":"SE","addr:housenumber":"100","addr:postcode":"39247","addr:street":"Stensövägen","cabins":"yes","capacity:caravans":"94","capacity:tents":"~40","caravans":"yes","drinking_water":"yes","email":"stenso@firstcamp.se","fee":"yes","internet_access":"yes","name":"Stensö Camping","operator":"First Camp","phone":"+46-480-888 03","power_supply":"yes","sanitary_dump_station":"yes","shower":"yes","tents":"yes","toilets":"yes","website":"https://firstcamp.se/destination/stenso-kalmar/"}},"296456445":{"location":[56.5795361,16.4114087],"ct":"SE","tp":"CS","ts":"2023-04-09T09:09:08Z","tX":558,"tY":315,"tags":{"cabins":"yes","caravans":"yes","email":"info@hagapark.se","internet_access":"wlan","internet_access:fee":"no","motorhome":"yes","name":"Haga Park Camping & stugor","phone":"+46 485 360 30","tents":"yes","toilets":"yes","website":"https://www.hagapark.se/"}},"296456446":{"location":[56.6172793,16.4475669],"ct":"SE","tp":"CS","ts":"2023-04-09T09:09:08Z","tX":558,"tY":315,"tags":{"cabins":"yes","caravans":"yes","email":"eriksore@firstcamp.se","name":"Eriksöre Camping & Stugor","operator":"First Camp","phone":"+46 485 394 50","shower":"yes","tents":"yes","toilets":"yes","website":"https://www.eriksorecamping.se/"}},"296456447":{"location":[56.66242,16.4742573],"ct":"SE","tp":"CS","ts":"2023-10-27T13:16:24Z","tX":558,"tY":315,"tags":{"addr:city":"Färjestaden","addr:country":"SE","addr:housename":"Möllstorps Camping o Stugor","addr:housenumber":"14","addr:postcode":"386 33","addr:street":"Turistvägen","caravans":"yes","email":"info@mollstorps-camping.se","fax":"+46 485 30240","name":"Möllstorps Camping o Stugor","phone":"+46 485 39388","tents":"yes","website":"https://www.mollstorpscamping.se/"}},"296496244":{"location":[56.6873631,16.4817392],"ct":"SE","tp":"CS","ts":"2022-05-14T20:22:52Z","tX":558,"tY":315,"tags":{"addr:city":"Färjestaden","addr:country":"SE","addr:postcode":"386 95","addr:street":"Södra Saxnäsvägen","caravans":"yes","internet_access":"yes","name":"Krono Camping Saxnäs/Ölands Camping & Stugby","phone":"+46 485 357 00","tents":"yes","website":"https://www.kcsaxnas.se/","wheelchair":"yes"}},"296559702":{"location":[56.56888,16.2254402],"ct":"SE","tp":"CS","ts":"2023-07-02T19:11:29Z","tX":558,"tY":315,"tags":{"caravans":"yes","drinking_water":"yes","email":"info@vitasandscamping.se","name":"Vita Sands Camping","phone":"+46 480-373 65","power_supply":"yes","shower":"yes","tents":"yes","toilets":"yes","website":"https://www.vitasandscamping.se/"}},"305600004":{"location":[56.6602987,16.3609437],"ct":"SE","tp":"CR","ts":"2024-03-26T10:40:09Z","tX":558,"tY":315,"tags":{"capacity":"18","caravans":"no","fee":"yes","internet_access":"wlan","internet_access:fee":"no","name":"Kvarnholmen 2:1","power_supply":"yes","reservation":"no","sanitary_dump_station":"no","tents":"no","toilets":"no"}},"322228487":{"location":[56.6470537,16.4633204],"ct":"SE","tp":"CS","ts":"2023-10-26T00:22:22Z","tX":558,"tY":315,"tags":{"landuse":"residential","name":"Talluddens stugby","note":"detta är både en brf och en stugby för uthyrning...","operator":"Brf Talludden","website":"https://www.talludden.nu/"}},"347903875":{"location":[56.6724951,16.4931792],"ct":"SE","tp":"CS","ts":"2015-05-26T05:03:10Z","tX":558,"tY":315,"tags":{}},"486857522":{"location":[56.6476908,16.4632978],"ct":"SE","tp":"CS","ts":"2017-04-14T20:06:30Z","tX":558,"tY":315,"tags":{}},"597621911":{"location":[56.6812044,16.381448],"ct":"SE","tp":"CR","ts":"2018-06-14T06:42:38Z","tX":558,"tY":315,"tags":{"capacity":"16","caravan_site":"drain","fee":"yes","sanitary_dump_station":"yes"}},"1181044477":{"location":[56.6530566,16.4717265],"ct":"SE","tp":"CR","ts":"2024-04-04T23:21:56Z","tX":558,"tY":315,"tags":{"capacity":"11","caravan_site":"motorhome_stopover","charge":"100 SEK","drinking_water":"no","fee":"yes","name":"Ölands Köpstad","power_supply":"no"}},"10971706382":{"location":[56.6630687,16.3703371],"ct":"SE","tp":"CR","ts":"2023-06-12T18:00:58Z","tX":558,"tY":315,"tags":{"name":"proviant gatan"}},"4448464523":{"location":[56.64192,16.3055],"ct":"SE","tp":"SD","ts":"2017-09-23T18:46:19Z","tX":558,"tY":315,"tags":{"access":"yes","addr:place":"Stora Hatten i Västra sjön","boat":"yes","fee":"no","opening_hours":"24/7","sanitary_dump_station:accepted":"black_water","sanitary_dump_station:pump-out":"yes","seamark:small_craft_facility:category":"pump-out","seamark:type":"small_craft_facility","vehicle":"no","waterway":"sanitary_dump_station","website":"https://hamnkartan.azurewebsites.net"}},"4448464524":{"location":[56.65001,16.46113],"ct":"SE","tp":"SD","ts":"2017-09-23T18:46:20Z","tX":558,"tY":315,"tags":{"access":"yes","addr:place":"Färjestadens Hamn","boat":"yes","fee":"no","opening_hours":"24/7","sanitary_dump_station:accepted":"black_water","sanitary_dump_station:pump-out":"yes","seamark:small_craft_facility:category":"pump-out","seamark:type":"small_craft_facility","vehicle":"no","waterway":"sanitary_dump_station","website":"https://hamnkartan.azurewebsites.net"}},"4448464525":{"location":[56.66151,16.36866],"ct":"SE","tp":"SD","ts":"2017-09-23T18:46:20Z","tX":558,"tY":315,"tags":{"access":"yes","addr:place":"Kalmar Gästhamn","boat":"yes","fee":"no","opening_hours":"24/7","sanitary_dump_station:accepted":"black_water","sanitary_dump_station:pump-out":"yes","seamark:small_craft_facility:category":"pump-out","seamark:type":"small_craft_facility","vehicle":"no","waterway":"sanitary_dump_station","website":"https://hamnkartan.azurewebsites.net"}},"4448464527":{"location":[56.6761,16.36794],"ct":"SE","tp":"SD","ts":"2017-09-23T18:46:20Z","tX":558,"tY":315,"tags":{"access":"yes","addr:place":"Kullö","boat":"yes","fee":"no","opening_hours":"24/7","sanitary_dump_station:accepted":"black_water","sanitary_dump_station:pump-out":"yes","seamark:small_craft_facility:category":"pump-out","seamark:type":"small_craft_facility","vehicle":"no","waterway":"sanitary_dump_station","website":"https://hamnkartan.azurewebsites.net"}},"4448464528":{"location":[56.68721,16.36775],"ct":"SE","tp":"SD","ts":"2017-09-23T18:46:21Z","tX":558,"tY":315,"tags":{"access":"yes","addr:place":"Svensknabben","boat":"yes","fee":"no","opening_hours":"24/7","sanitary_dump_station:accepted":"black_water","sanitary_dump_station:pump-out":"yes","seamark:small_craft_facility:category":"pump-out","seamark:type":"small_craft_facility","vehicle":"no","waterway":"sanitary_dump_station","website":"https://hamnkartan.azurewebsites.net"}},"5060894862":{"location":[56.6813547,16.3803758],"ct":"SE","tp":"SD","ts":"2018-06-14T06:33:33Z","tX":558,"tY":315,"tags":{"access":"yes","sanitary_dump_station:chemical_toilet":"yes","water_point":"yes"}},"9934215598":{"location":[56.6495433,16.3263249],"ct":"SE","tp":"SD","ts":"2023-02-11T22:19:31Z","tX":558,"tY":315,"tags":{"access":"customers","fee":"no","operator":"Stensö Camping","water_point":"yes"}},"10971706428":{"location":[56.6696412,16.2990506],"ct":"SE","tp":"SD","ts":"2023-06-12T18:20:54Z","tX":558,"tY":315,"tags":{"sanitary_dump_station:gravity":"yes"}}}