{"5002285":{"location":[56.2375474,16.4528458],"ct":"SE","tp":"CS","ts":"2023-10-28T09:26:20Z","tX":558,"tY":317,"tags":{"email":"info@ottenbyvandrarhem.se","internet_access":"wlan","internet_access:fee":"no","name":"Ottenby Vandrarhem & Camping","phone":"+46 485 66 20 62","website":"https://www.ottenbyvandrarhem.se/"}},"293771272":{"location":[56.2644752,16.4092144],"ct":"SE","tp":"CS","ts":"2014-10-16T06:44:24Z","tX":558,"tY":317,"tags":{"source":"Bing hires"}},"517376514":{"location":[56.2793856,16.4905938],"ct":"SE","tp":"CR","ts":"2019-02-24T13:21:56Z","tX":558,"tY":317,"tags":{"addr:city":"Degerhamn","addr:country":"SE","addr:housenumber":"208","addr:postcode":"38664","addr:street":"Össby","capacity":"18","email":"hakan.droda@gmail.com","fee":"yes","internet_access":"wlan","name":"Ställplats drottning Öda","operator":"Drottning Öda AB","phone":"+46-730644016","power_supply":"yes","sanitary_dump_station":"yes","source":"https://www.husbil.se/stallplatser/p/573/"}},"1303661100":{"location":[56.2840729,16.4054464],"ct":"SE","tp":"CR","ts":"2024-07-25T09:31:03Z","tX":558,"tY":317,"tags":{"name":"Ställplats Ventlinge"}},"1800524852":{"location":[56.2666748,16.3968449],"ct":"SE","tp":"CR","ts":"2013-11-13T14:23:37Z","tX":558,"tY":317,"tags":{}},"4448464514":{"location":[56.26592,16.39678],"ct":"SE","tp":"SD","ts":"2017-09-23T18:46:18Z","tX":558,"tY":317,"tags":{"access":"yes","addr:place":"Grönhögens Hamn","boat":"yes","fee":"no","opening_hours":"24/7","sanitary_dump_station:accepted":"black_water","sanitary_dump_station:pump-out":"yes","seamark:small_craft_facility:category":"pump-out","seamark:type":"small_craft_facility","vehicle":"no","waterway":"sanitary_dump_station","website":"https://hamnkartan.azurewebsites.net"}},"4448464516":{"location":[56.35637,16.40787],"ct":"SE","tp":"SD","ts":"2017-09-23T18:46:18Z","tX":558,"tY":317,"tags":{"access":"yes","addr:place":"Degerhamn","boat":"yes","fee":"no","opening_hours":"24/7","sanitary_dump_station:accepted":"black_water","sanitary_dump_station:pump-out":"yes","seamark:small_craft_facility:category":"pump-out","seamark:type":"small_craft_facility","vehicle":"no","waterway":"sanitary_dump_station","website":"https://hamnkartan.azurewebsites.net"}}}