{"258701535":{"location":[54.5076898,16.4720776],"ct":"PL","tp":"CR","ts":"2022-08-14T21:52:48Z","tX":558,"tY":326,"tags":{"addr:city":"Wicie","addr:city:simc":"0305596","addr:housenumber":"6","addr:postcode":"76-150","addr:street":"Spokojna","addr:street:sym_ul":"20677","barrier":"fence","name":"Zasmir Domki Letniskowe","phone":"+48602871131","source:addr":"darlowo.e-mapa.net"}},"284582619":{"location":[54.4386705,16.3888243],"ct":"PL","tp":"CS","ts":"2024-08-10T10:53:27Z","tX":558,"tY":326,"tags":{"addr:city":"Darłówko Wschodnie","addr:housenumber":"4","addr:postcode":"76-153","addr:street":"Conrada","barrier":"fence","cabins":"yes","capacity:persons":"300","caravans":"yes","check_date":"2024-07-31","email":"ws@camping243.com","fee":"yes","name":"Camping nr 243","operator":"Władysław Salwa","payment:cash":"only","phone":"+48 94 314 28 72;+48 94 340 34 60","ref:pfcc":"243","shower":"yes","stars":"2","static_caravans":"yes","tents":"yes","toilets":"yes","website":"https://www.camping243.com/"}},"331137697":{"location":[54.4823545,16.5050573],"ct":"PL","tp":"CS","ts":"2018-06-13T15:54:20Z","tX":558,"tY":326,"tags":{"name":"Werner"}},"610691698":{"location":[54.5182085,16.5098112],"ct":"PL","tp":"CS","ts":"2022-08-04T08:51:15Z","tX":558,"tY":326,"tags":{"name":"Harcerska baza obozowa Hufca ZHP Łódź - Górna","operator":"ZHP"}},"700549074":{"location":[54.4277619,16.3739427],"ct":"PL","tp":"CS","ts":"2021-03-23T11:01:00Z","tX":558,"tY":326,"tags":{"addr:city":"Darłówko","addr:housenumber":"2","addr:postcode":"76-153","addr:street":"Lotników Morskich","fee":"yes","internet_access":"wlan","name":"Róża Wiatrów Camping nr 66","note":"01.05-30.09.","payment:cash":"yes","payment:credit_cards":"yes","payment:debit_cards":"yes"}},"700549077":{"location":[54.4279282,16.3741044],"ct":"PL","tp":"SD","ts":"2019-06-29T17:02:02Z","tX":558,"tY":326,"tags":{"access":"customers"}},"921271721":{"location":[54.5050769,16.4656653],"ct":"PL","tp":"CS","ts":"2023-11-09T00:04:47Z","tX":558,"tY":326,"tags":{"barrier":"fence","community_centre:for":"youth","operator":"ZHP Trzebinia","website":"https://trzebinia.zhp.pl/"}},"921329724":{"location":[54.3957931,16.3442466],"ct":"PL","tp":"CS","ts":"2024-07-18T05:59:33Z","tX":558,"tY":326,"tags":{"addr:city":"Bobolin","addr:city:simc":"0305225","addr:housenumber":"7","addr:postcode":"76-156","addr:street":"Plażowa","addr:street:sym_ul":"16457","caravans":"yes","name":"Camping Bobolin","source":"geoportal.gov.pl:ortofoto","tents":"yes","website":"https://www.bobolin.com.pl/"}},"973888784":{"location":[54.4228883,16.4019401],"ct":"PL","tp":"CS","ts":"2018-08-14T06:02:31Z","tX":558,"tY":326,"tags":{"fee":"yes","name":"Bionika Przystań"}},"1086292847":{"location":[54.5088583,16.4736675],"ct":"PL","tp":"CS","ts":"2022-08-14T21:52:48Z","tX":558,"tY":326,"tags":{}},"1262915484":{"location":[54.4556215,16.4340448],"ct":"PL","tp":"CS","ts":"2024-03-15T12:36:03Z","tX":558,"tY":326,"tags":{"addr:city":"Kopań","addr:postcode":"76-150","cabins":"yes","caravans":"yes","fee":"yes","name":"Camper Park","power_supply":"yes","shower":"hot","tents":"yes","toilets":"yes","toilets:wheelchair":"no","website":"https://www.kopan.com.pl/camper-park"}},"1307755059":{"location":[54.3810459,16.3173642],"ct":"PL","tp":"CR","ts":"2024-08-14T14:22:31Z","tX":558,"tY":326,"tags":{"barrier":"fence"}},"11102402504":{"location":[54.3930889,16.3449595],"ct":"PL","tp":"CS","ts":"2024-02-06T17:13:33Z","tX":558,"tY":326,"tags":{"addr:city":"Bobolin","addr:city:simc":"0305225","addr:housenumber":"39","addr:postcode":"76-156","addr:street":"Darłowska","addr:street:sym_ul":"03616","operator":"Madejczyk Krystyna","phone":"692377078"}},"12102009243":{"location":[54.4391719,16.3888105],"ct":"PL","tp":"SD","ts":"2024-08-10T10:43:52Z","tX":558,"tY":326,"tags":{"access":"customers","check_date":"2024-08-10"}},"12139725347":{"location":[54.4646417,16.4123299],"ct":"PL","tp":"SD","ts":"2024-08-27T11:17:44Z","tX":558,"tY":326,"tags":{"fee":"no"}}}