{"275999198":{"location":[50.6418232,16.4706062],"ct":"PL","tp":"CS","ts":"2023-01-09T09:50:01Z","tX":558,"tY":344,"tags":{"access":"customers","addr:city":"Ludwikowice Kłodzkie","addr:housenumber":"34","addr:postcode":"57-450","addr:street":"Jana Kasprowicza","email":"recepcja@harenda.biz.pl","fee":"yes","operator":"CRK Harenda","phone":"+48748722412","website":"http://www.harenda.biz.pl/"}},"325731335":{"location":[50.6412394,16.4708598],"ct":"PL","tp":"CR","ts":"2021-08-08T14:43:59Z","tX":558,"tY":344,"tags":{"access":"customers","addr:city":"Ludwikowice Kłodzkie","addr:housenumber":"34","addr:postcode":"57-450","addr:street":"Jana Kasprowicza","fee":"yes","operator":"CRK Harenda","phone":"+48748722412","supervised":"no","website":"http://www.harenda.biz.pl"}},"451721756":{"location":[50.5238158,16.3522491],"ct":"CZ","tp":"CS","ts":"2023-11-02T10:27:04Z","tX":558,"tY":344,"tags":{"addr:country":"CZ","addr:housenumber":"307/238","addr:place":"Božanov","addr:postcode":"54974","addr:street":"Božanov","building":"residential","building:flats":"1","building:ruian:type":"3","caravans":"yes","internet_access":"yes","name":"Vakantiehuis en Camping Bozanov","phone":"+420 602 361 350","ref:ruian:building":"20578431","sanitary_dump_station":"customers","source":"cuzk:ruian","tents":"yes","website":"https://www.bozanov.nl/"}},"513147124":{"location":[50.5954019,16.3963993],"ct":"CZ","tp":"CS","ts":"2023-11-02T10:26:05Z","tX":558,"tY":344,"tags":{"name":"Camping Šonov","phone":"+420-491-426-452","website":"https://www.campingsonov.eu/"}},"1058578184":{"location":[50.6257108,16.2313999],"ct":"CZ","tp":"CS","ts":"2022-05-09T14:11:01Z","tX":558,"tY":344,"tags":{}},"1191724608":{"location":[50.6714307,16.4386333],"ct":"PL","tp":"CS","ts":"2023-07-24T06:25:11Z","tX":558,"tY":344,"tags":{"name":"Wilcza Zagroda"}},"2928976192":{"location":[50.5266513,16.372151],"ct":"CZ","tp":"CS","ts":"2014-06-23T10:07:59Z","tX":558,"tY":344,"tags":{"name":"Camping U Potoka"}},"5739704621":{"location":[50.6160366,16.2288704],"ct":"CZ","tp":"CS","ts":"2023-11-02T10:25:38Z","tX":558,"tY":344,"tags":{"caravans":"yes","drinking_water":"yes","email":"bertenmien@hetnet.nl","internet_access":"wlan","name":"Camping - Aktief","opening_hours":"Mo-Su 09:00-18:00","phone":"+31612236194","power_supply":"yes","shower":"yes","tents":"yes","toilets":"yes","website":"https://www.aktief.cz/"}},"6949676575":{"location":[50.5428817,16.2871698],"ct":"CZ","tp":"CS","ts":"2019-11-05T21:04:57Z","tX":558,"tY":344,"tags":{"capacity":"5","source":"survey"}},"7402853874":{"location":[50.5828368,16.1751626],"ct":"CZ","tp":"CR","ts":"2020-04-14T17:35:13Z","tX":558,"tY":344,"tags":{"internet_access":"wlan","name":"Caravanparking Adršpach","power_supply":"yes","sanitary_dump_station":"yes"}},"7579635685":{"location":[50.6647514,16.4740941],"ct":"PL","tp":"CS","ts":"2024-07-15T16:35:06Z","tX":558,"tY":344,"tags":{"caravans":"yes","tents":"no"}},"11046241429":{"location":[50.6856536,16.3764575],"ct":"PL","tp":"CS","ts":"2023-07-14T10:59:03Z","tX":558,"tY":344,"tags":{"email":"kemping@lubar.pl","name":"Kemping Stawy Marcowe","phone":"+48 693303800","website":"https://kempingwgluszycy.pl/"}}}