{"26352814":{"location":[50.0753094,16.3121179],"ct":"CZ","tp":"CS","ts":"2021-06-10T16:28:20Z","tX":558,"tY":346,"tags":{"landuse":"recreation_ground","name":"Kemp Western Vochtánka"}},"240137813":{"location":[50.1158336,16.2156534],"ct":"CZ","tp":"CS","ts":"2023-07-10T07:58:30Z","tX":558,"tY":346,"tags":{"addr:city":"Kostelec nad Orlicí","addr:postcode":"51741","caravans":"yes","fee":"yes","name":"Autokemp Orlice","payment:cash":"yes","phone":"+420 737 406 741","power_supply":"yes","shower":"hot","static_caravans":"no","tents":"yes","website":"www.auotokemporlice.cz"}},"430699957":{"location":[50.0801338,16.3569027],"ct":"CZ","tp":"CS","ts":"2022-06-12T20:15:42Z","tX":558,"tY":346,"tags":{"fee":"yes","name":"Camp Eldorado","source":"cuzk:km","website":"https://www.facebook.com/campeldorado/"}},"739842513":{"location":[50.1856641,16.4358622],"ct":"CZ","tp":"CS","ts":"2019-10-29T15:06:07Z","tX":558,"tY":346,"tags":{"private":"yes"}},"740808486":{"location":[50.2110926,16.3280828],"ct":"CZ","tp":"CS","ts":"2022-05-10T09:46:31Z","tX":558,"tY":346,"tags":{"access":"private","internet_access":"no","name":"Táborová osada \"U starého mlýna\"","operator":"www.pskamaradi.cz"}},"842112593":{"location":[50.0864204,16.47693],"ct":"CZ","tp":"CS","ts":"2024-05-22T16:51:42Z","tX":558,"tY":346,"tags":{"capacity":"560","email":"kemp@kemp-zamberk.cz","internet_access":"no","name":"Autocamping Pod Černým lesem","phone":"+420 465 614 755","ref:nap":"15069","website":"https://www.autocamping.cz/","wheelchair":"yes"}},"5268404721":{"location":[50.0930725,16.4454075],"ct":"CZ","tp":"CS","ts":"2021-03-24T19:20:38Z","tX":558,"tY":346,"tags":{"internet_access":"no","name":"Taboriste pod stan pro vodaky","name:cs":"Taboriste pod stan pro vodaky","opening_hours":"24/7","website":"http://emobile.cz","wheelchair":"no"}},"5891141686":{"location":[50.1186144,16.2287688],"ct":"CZ","tp":"CS","ts":"2018-09-07T15:19:25Z","tX":558,"tY":346,"tags":{"name":"Kostelec"}},"8734887559":{"location":[50.2691794,16.2445671],"ct":"CZ","tp":"CS","ts":"2021-05-17T09:35:59Z","tX":558,"tY":346,"tags":{"access":"private","operator":"soukromé"}},"8734887560":{"location":[50.2669953,16.2478082],"ct":"CZ","tp":"CS","ts":"2021-05-15T20:38:40Z","tX":558,"tY":346,"tags":{"access":"private"}}}