{"8315787":{"location":[49.2568031,16.4766275],"ct":"CZ","tp":"CR","ts":"2018-05-21T14:46:20Z","tX":558,"tY":350,"tags":{"barrier":"fence","fee":"yes","name":"Obora"}},"26109179":{"location":[49.2631219,16.4619756],"ct":"CZ","tp":"CS","ts":"2021-03-13T21:17:55Z","tX":558,"tY":350,"tags":{"source":"uhul:wms"}},"39117438":{"location":[49.1933226,16.4485522],"ct":"CZ","tp":"CS","ts":"2025-02-23T11:30:05Z","tX":558,"tY":350,"tags":{"source":"uhul:ortofoto","surface":"grass"}},"482429604":{"location":[49.2067682,16.4161339],"ct":"CZ","tp":"CS","ts":"2019-09-15T12:52:57Z","tX":558,"tY":350,"tags":{"camp_site":"serviced","email":"campalpa@gmail.com","name":"Alpa","phone":"+420728066609","website":"https://www.campalpa.cz/"}},"516186777":{"location":[49.2881542,16.4552673],"ct":"CZ","tp":"CS","ts":"2017-08-19T09:23:49Z","tX":558,"tY":350,"tags":{"addr:city":"Chudčice","addr:postcode":"66471","capacity":"25","description":"Camping 1.5.-30.9.","fee":"yes","internet_access":"wlan","internet_access:fee":"no","name":"Camp Oása Chudčice","name:de":"Camping Oase Chudčice"}},"940807730":{"location":[49.3018542,16.4149581],"ct":"CZ","tp":"CS","ts":"2024-11-17T10:11:11Z","tX":558,"tY":350,"tags":{"alt_name":"BAUMAT","name":"Areál Šárka","website":"https://arealsarka.cz/"}},"940807731":{"location":[49.2762914,16.4526474],"ct":"CZ","tp":"CS","ts":"2021-05-08T20:15:04Z","tX":558,"tY":350,"tags":{"addr:city":"Veverská Bítýška","addr:postcode":"66471","name":"Camping Hana"}},"2940828782":{"location":[49.1585169,16.2351355],"ct":"CZ","tp":"CS","ts":"2014-06-30T17:48:09Z","tX":558,"tY":350,"tags":{"backcountry":"yes"}},"2940925783":{"location":[49.1675714,16.1720811],"ct":"CZ","tp":"CS","ts":"2014-06-30T19:54:51Z","tX":558,"tY":350,"tags":{"backcountry":"yes"}},"10067230808":{"location":[49.2103521,16.4084029],"ct":"CZ","tp":"CS","ts":"2022-10-01T17:59:59Z","tX":558,"tY":350,"tags":{"addr:city":"Ostrovačice","addr:housenumber":"10","addr:postcode":"60481","addr:street":"Náměstí Viléma Mrštíka","name":"Kemp Oáza","phone":"+420 606 457 448","website":"https://kempoaza.cz/"}}}