{"314824741":{"location":[46.3235811,16.3708822],"ct":"HR","tp":"CS","ts":"2017-07-09T19:03:31Z","tX":558,"tY":362,"tags":{"access":"permissive","camp_site":"standard","drinking_water":"no","fee":"no","natural":"grassland","note":"Campsite closed down as of July 2017. Usable for free with very basic services (toilets, running water) and no guarantees whatsoever.","opening_hours":"Mo-Su off","tents":"yes"}},"314831780":{"location":[46.3226204,16.3733387],"ct":"HR","tp":"CS","ts":"2017-07-09T19:03:31Z","tX":558,"tY":362,"tags":{"access":"permissive","camp_site":"standard","drinking_water":"no","fee":"no","landuse":"grass","note":"Campsite closed down as of July 2017. Usable for free with very basic services (toilets, running water) and no guarantees whatsoever.","opening_hours":"Mo-Su off","tents":"yes"}},"506270217":{"location":[46.3237077,16.3741754],"ct":"HR","tp":"CS","ts":"2017-07-09T19:03:30Z","tX":558,"tY":362,"tags":{"camp_site":"standard","drinking_water":"no","fee":"no","opening_hours":"Mo-Su off","tents":"yes"}},"940948060":{"location":[46.4988392,16.330094],"ct":"HR","tp":"CS","ts":"2021-05-09T08:53:56Z","tX":558,"tY":362,"tags":{"addr:city":"Sveti Martin na Muri","addr:postcode":"40313","addr:street":"Jurovčak","caravans":"yes","dog":"yes","drinking_water":"yes","fee":"yes","motor_vehicle":"yes","name":"Vinski kamp Hažić","name:en":"Wine Camp Hažić","operator":"OPG Hazić","power_supply":"yes","shower":"yes","toilets":"yes","website":"https://opg-hazic.com/"}},"940948061":{"location":[46.4926368,16.3361338],"ct":"HR","tp":"CS","ts":"2023-04-29T16:30:05Z","tX":558,"tY":362,"tags":{"addr:housenumber":"7","addr:street":"Sportska ulica","caravans":"yes","fee":"yes","motor_vehicle":"yes","name":"Auto kamp Lapaž","name:en":"Auto Camp Lapaz","website":"https://apartmani-lapaz.com/"}},"5613475823":{"location":[46.4543771,16.2298931],"ct":"SI","tp":"CS","ts":"2018-05-12T12:01:18Z","tX":558,"tY":362,"tags":{"addr:housenumber":"21","addr:postcode":"2275","addr:street":"Zasavci","internet_access":"wlan","name":"Turistična kmetija Puklavec","name:en":"Tourist Farm Puklavec","website":"http://www.jeruzalempuklavec.si"}},"5973300652":{"location":[46.5519196,16.4589533],"ct":"SI","tp":"CS","ts":"2023-04-10T19:20:25Z","tX":558,"tY":362,"tags":{"addr:city":"Lendava","addr:housenumber":"2a","addr:postcode":"9220","addr:street":"Tomšičeva ulica","contact:email":"info@terme-lendava.si","contact:fax":"+386 2 577 44 12","contact:phone":"+386 2 577 41 00","contact:website":"https://www.sava-camping.com/si/camping-lendava/kamp-terme-lendava","fee":"no","internet_access":"wlan","name":"Campingplatz Therme Lendava (Hotel Lipa)","operator":"SAVA CAMPING"}},"12170521648":{"location":[46.4335055,16.2620951],"ct":"SI","tp":"CS","ts":"2024-09-11T19:13:57Z","tX":558,"tY":362,"tags":{}}}