{"27187454":{"location":[43.5103035,16.1924269],"ct":"HR","tp":"CS","ts":"2024-09-04T07:14:02Z","tX":558,"tY":374,"tags":{"access":"customers","addr:city":"Seget Vranjica","addr:country":"HR","addr:housenumber":"62","addr:postcode":"21218","addr:street":"Ulica kralja Zvonimira","caravans":"yes","drinking_water":"yes","email":"trogir@amadriaparkcamping.com","name":"Amadria Park Camping Trogir","phone":"+385 217 98228","sanitary_dump_station":"yes","shower":"yes","tents":"yes","toilets":"yes","toilets:wheelchair":"no","website":"https://amadriaparkcamping.com/trogir/","wheelchair":"limited"}},"27891253":{"location":[43.5050849,16.2573131],"ct":"HR","tp":"CS","ts":"2024-08-13T06:35:34Z","tX":558,"tY":374,"tags":{"addr:city":"Trogir-Okrug Gornji","addr:housenumber":"56","addr:street":"Setaliste Stjepana Radica","cabins":"yes","caravans":"yes","contact:email":"mailto:booking@camp-rozac.hr","contact:mobile":"+385 98 457 664","contact:phone":"+385 21 806 105","dog":"yes","drinking_water":"yes","email":"booking@camp-rozac.hr","internet_access":"wlan","motor_vehicle":"yes","name":"Camp Rožac","nudism":"no","opening_hours":"PH open; Mar 25-Nov 5","power_supply":"yes","sanitary_dump_station":"customers","shower":"yes","stars":"3","tents":"yes","toilets":"yes","washing_machine":"yes","website":"https://www.camp-rozac.hr/en/","wheelchair":"designated"}},"27892066":{"location":[43.4818423,16.245137],"ct":"HR","tp":"CS","ts":"2021-08-10T07:36:51Z","tX":558,"tY":374,"tags":{"addr:city":"Okrug Gornji","addr:country":"HR","addr:postcode":"21223","addr:street":"Uvala Duboka bb","name":"Camp Labadusa","toilets:wheelchair":"yes","website":"https://www.labadusa.com/","wheelchair":"limited"}},"236175954":{"location":[43.5184433,16.2244222],"ct":"HR","tp":"CR","ts":"2023-11-09T15:52:36Z","tX":558,"tY":374,"tags":{"addr:city":"Seget Donji","addr:housenumber":"121","addr:street":"Hrvatskih žrtava","name":"Camp Seget","name:en":"Camp Seget","website":"https://www.kamp-seget.hr/"}},"1179658779":{"location":[43.3852605,16.484593],"ct":"HR","tp":"CS","ts":"2023-06-07T10:37:51Z","tX":558,"tY":374,"tags":{"addr:housenumber":"12","addr:street":"Gorana Pavlova","capacity:people":"30","caravans":"yes","contact:phone":"+385 98 370 530","dog":"yes","internet_access":"wlan","motor_vehicle":"yes","name":"Camp Mlin","nudism":"no","opening_hours":"24/7","power_supply":"yes","stars":"2","tents":"yes","washing_machine":"yes"}},"1305185677":{"location":[43.5676074,16.393014],"ct":"HR","tp":"CS","ts":"2024-08-02T06:36:44Z","tX":558,"tY":374,"tags":{"access":"permit","capacity:tents":"5","caravans":"no","static_caravans":"no","tents":"yes"}},"3101473249":{"location":[43.3680399,16.3520468],"ct":"HR","tp":"CS","ts":"2014-09-29T07:27:57Z","tX":558,"tY":374,"tags":{"name":"Auto-camp Mido"}},"3671476334":{"location":[43.5495827,16.3776715],"ct":"HR","tp":"CS","ts":"2021-08-26T20:42:28Z","tX":558,"tY":374,"tags":{"addr:city":"Kaštel Kambelovac","addr:housenumber":"76","addr:postcode":"21214","addr:street":"Biskupa Franica","capacity":"8","fee":"yes","name":"Camp u Dragana","operator":"Dragan Dražin","source":"survey","website":"http://www.campudragana.com"}},"9730083118":{"location":[43.5185694,16.2243618],"ct":"HR","tp":"CS","ts":"2022-05-10T13:26:00Z","tX":558,"tY":374,"tags":{"addr:housenumber":"121","addr:postcode":"21218","addr:street":"Hrvatskih žrtava","email":"booking@kamp-seget.hr","name":"Kamp Seget","phone":"+38521880394"}},"5786200853":{"location":[43.4836989,16.2442982],"ct":"HR","tp":"CR","ts":"2023-11-09T15:51:32Z","tX":558,"tY":374,"tags":{"email":"camp@labadusa.com","name":"Camping Labadusa","phone":"+385 91 984 7959","website":"https://labadusa.com/"}},"10945462439":{"location":[43.5055836,16.2582308],"ct":"HR","tp":"SD","ts":"2024-08-13T06:34:58Z","tX":558,"tY":374,"tags":{"access":"customers","fee":"no"}}}