{"170213623":{"location":[43.1624171,16.4853345],"ct":"HR","tp":"CS","ts":"2018-07-26T19:55:12Z","tX":558,"tY":375,"tags":{"addr:city":"Hvar","addr:country":"HR","addr:housenumber":"10","addr:postcode":"21450","addr:street":"Mlina","email":"campingmilna@gmail.com","fax":"+385 21 745 013","name":"Auto camp \"Mala Milna\"","phone":"+385 21 745 013","website":"https://www.camping-mala-milna.com/index.php/en/"}},"237973510":{"location":[43.1920481,16.4305924],"ct":"HR","tp":"CS","ts":"2023-11-09T23:20:21Z","tX":558,"tY":375,"tags":{"caravans":"yes","contact:email":"info@campvira.com","contact:phone":"+385 21 717776","name":"Camp Vira","openfire":"no","tents":"yes","website":"https://www.campingvira.com/"}},"4706783256":{"location":[43.3212761,16.4568145],"ct":"HR","tp":"CS","ts":"2023-11-07T00:07:16Z","tX":558,"tY":375,"tags":{"caravans":"yes","email":"info@geaviva.net","name":"Gea Viva - eko centar & kamp","name:en":"Gea Viva - eco base & camp","phone":"+385 99 7493711","tents":"yes","website":"https://www.geaviva.net/"}},"9779154101":{"location":[43.1683509,16.4580806],"ct":"HR","tp":"CS","ts":"2023-11-09T23:20:23Z","tX":558,"tY":375,"tags":{"addr:housenumber":"11","addr:street":"D116","name":"Camping Kopito","website":"https://www.campinghvarkopito.com/"}}}