{"11278284":{"location":[41.8152744,16.1929844],"ct":"IT","tp":"CS","ts":"2020-07-06T22:33:06Z","tX":558,"tY":380,"tags":{"fee":"yes","name":"Campinplatz Villaggio Baia di Campi"}},"420343877":{"location":[41.8771572,16.1754108],"ct":"IT","tp":"CS","ts":"2024-03-30T19:51:52Z","tX":558,"tY":380,"tags":{"addr:city":"Vieste","addr:housenumber":"2","addr:street":"Lungomare Enrico Mattei","caravans":"yes","email":"info@apeneste.it","fee":"yes","name":"Camping Apeneste","opening_hours":"May 31 - Oct 15","phone":"+39 0884 706287","shower":"yes","tents":"yes","toilets":"yes","website":"http://www.apeneste.it/"}},"504583440":{"location":[41.8594827,16.1744647],"ct":"IT","tp":"CS","ts":"2021-10-17T16:25:56Z","tX":558,"tY":380,"tags":{"addr:city":"Vieste","addr:housenumber":"110","addr:postcode":"71019","addr:street":"Lungomare Enrico Mattei","capacity":"45","email":"info@campinadriatico.it","fee":"yes","internet_access":"wlan","name":"Camping Arizona","payment:debit_cards":"yes","website":"https://www.campingadriatico.it/"}},"504584433":{"location":[41.8589405,16.1745212],"ct":"IT","tp":"CS","ts":"2023-11-15T12:33:41Z","tX":558,"tY":380,"tags":{"addr:city":"Vieste","addr:housenumber":"109-113","addr:postcode":"71019","addr:street":"Lungomare Enrico Mattei","email":"info@villaggioarizona.it","fee":"yes","name":"Villaggio Adriatico","website":"https://villaggioarizona.com/"}},"510320327":{"location":[41.85987,16.1744175],"ct":"IT","tp":"CR","ts":"2024-08-29T11:48:00Z","tX":558,"tY":380,"tags":{"addr:city":"Vieste","addr:postcode":"71019","addr:street":"Lungomare Enrico Mattei","description":"open 1.4 - 1.11","fee":"yes","name":"Sosta Camper Eden blu","phone":"+393289759493","power_supply":"yes","sanitary_dump_station":"yes","website":"www.vieste.it"}},"510755961":{"location":[41.8628015,16.1744584],"ct":"IT","tp":"CR","ts":"2024-08-29T11:48:00Z","tX":558,"tY":380,"tags":{"addr:city":"Vieste","addr:street":"Lungomare Enrico Mattei","fee":"yes","name":"Ghironda Beach Sosta Camper","phone":"+390884706348","website":"www.ghirondabeach.it"}},"531083086":{"location":[41.8595068,16.1722433],"ct":"IT","tp":"CS","ts":"2017-10-23T16:15:28Z","tX":558,"tY":380,"tags":{"addr:street":"Lungomare Enrico Mattei","fee":"yes"}},"531086175":{"location":[41.8594156,16.1730577],"ct":"IT","tp":"CS","ts":"2021-10-17T16:20:15Z","tX":558,"tY":380,"tags":{"addr:city":"Vieste","addr:postcode":"71019","addr:street":"Lungomare Enrico Mattei","fee":"yes","name":"Camping Villaggio Arizona","payment:debit_cards":"yes"}},"533418810":{"location":[41.8589796,16.1728411],"ct":"IT","tp":"CS","ts":"2021-10-17T16:28:08Z","tX":558,"tY":380,"tags":{"addr:city":"Vieste","addr:postcode":"71019","addr:street":"Lungomare Enrico Mattei","fee":"yes","name":"Villaggio Adriatico"}},"533419594":{"location":[41.8608335,16.1743251],"ct":"IT","tp":"CS","ts":"2023-11-15T10:08:02Z","tX":558,"tY":380,"tags":{"addr:city":"Vieste","addr:postcode":"71019","addr:street":"Lungomare Enrico Mattei","fee":"yes","name":"Camping Piccolo Paradiso"}},"533420037":{"location":[41.8604966,16.1725566],"ct":"IT","tp":"CS","ts":"2017-10-18T17:40:30Z","tX":558,"tY":380,"tags":{"name":"Piccolo Paradiso"}},"534521717":{"location":[41.85987,16.1744175],"ct":"IT","tp":"CS","ts":"2017-10-23T16:17:02Z","tX":558,"tY":380,"tags":{}},"993468949":{"location":[41.8564611,16.1750634],"ct":"IT","tp":"CS","ts":"2021-10-17T16:31:50Z","tX":558,"tY":380,"tags":{"addr:city":"Vieste","addr:street":"LungoMare Enrico Mattei","fee":"yes","name":"Camping Euro 92"}},"993469066":{"location":[41.8563039,16.1737801],"ct":"IT","tp":"CS","ts":"2022-09-06T20:50:22Z","tX":558,"tY":380,"tags":{"name":"Camping Villaggio Euro92","phone":"+39 0884 700968","website":"https://euro92.it/en/accommodations/camping/"}},"1076530731":{"location":[41.8639505,16.1722178],"ct":"IT","tp":"CS","ts":"2022-07-07T09:50:11Z","tX":558,"tY":380,"tags":{"addr:city":"Vieste","addr:postcode":"71019","addr:street":"Lungomare Enrico Mattei","name":"Village del Sole & Camping del Turco","phone":"+39 347 303 4130","website":"https://www.villagedelsoledelturco.it/"}},"1158938477":{"location":[41.8693172,16.1742621],"ct":"IT","tp":"CR","ts":"2024-06-26T00:03:12Z","tX":558,"tY":380,"tags":{"caravans":"no","motorhome":"designated","name":"Baia Pizzomunno","phone":"+39 0884 596193","shower":"yes","website":"https://www.baiapizzomunno.it/"}},"5183598660":{"location":[41.8598351,16.1730026],"ct":"IT","tp":"CS","ts":"2017-10-23T11:37:15Z","tX":558,"tY":380,"tags":{"addr:city":"Vieste","addr:street":"Lungomare Enrico Mattei","fee":"yes","name":"Camping Eden Blu"}},"7860349785":{"location":[41.8150448,16.1938232],"ct":"IT","tp":"CS","ts":"2020-08-31T06:28:46Z","tX":558,"tY":380,"tags":{"name:en":"Night 9 - Hotter"}},"9178342004":{"location":[41.8578242,16.1736863],"ct":"IT","tp":"CS","ts":"2021-10-17T16:45:04Z","tX":558,"tY":380,"tags":{"name":"verde mare"}},"9876330154":{"location":[41.8369359,16.1831536],"ct":"IT","tp":"CS","ts":"2024-06-26T00:03:05Z","tX":558,"tY":380,"tags":{"addr:city":"Vieste","addr:postcode":"71019","addr:street":"S.P. 53","cabins":"yes","caravans":"yes","description":"camping","email":"fargentieri@tiscali.it","motorhome":"yes","name":"Camping Lama le Canne","phone":"+39 0884700909","tents":"yes","toilets":"yes","website":"https://www.viestedamare.it/"}},"5155631119":{"location":[41.8598019,16.1740426],"ct":"IT","tp":"SD","ts":"2017-10-08T17:19:43Z","tX":558,"tY":380,"tags":{"access":"permissive","fee":"no","operator":"Sosta Camper eden blu","water_point":"no"}}}