{"25798751":{"location":[41.0773447,16.2753145],"ct":"IT","tp":"PK","ts":"2024-03-26T16:27:16Z","tX":558,"tY":383,"tags":{"fee":"yes","motorhome":"yes"}},"487785112":{"location":[41.0899223,16.2751015],"ct":"IT","tp":"CR","ts":"2017-08-17T06:08:34Z","tX":558,"tY":383,"tags":{"name":"Montegusto"}},"1172868049":{"location":[41.1109906,16.4878384],"ct":"IT","tp":"CR","ts":"2025-01-09T11:27:17Z","tX":558,"tY":383,"tags":{"addr:city":"Ruvo di Puglia","addr:postcode":"70037","addr:street":"Via Alessandro Scarlatti","capacity":"20","contact:phone":"+393293149868","description":"Area sosta con CS, servizi e assistenza turistica","fee":"yes","internet_access":"no","internet_access:fee":"no","name":"Area Camper Via Scarlatti","operator":"CAMPERUVO","power_supply":"yes","sanitary_dump_station":"yes","website":"http://www.camperuvo.it/aree-camper.html"}},"1307458743":{"location":[41.2358075,16.4385511],"ct":"IT","tp":"CR","ts":"2024-08-13T10:48:10Z","tX":558,"tY":383,"tags":{"addr:city":"Trani","addr:postcode":"76125","addr:street":"Via Andria","internet_access":"yes","name":"Area Sosta Camper - Tenuta Pupetta","phone":"+39 366 3996725","power_supply":"yes","sanitary_dump_station":"yes","shower":"yes","toilets":"yes"}},"1349723361":{"location":[41.1142334,16.4904573],"ct":"IT","tp":"CR","ts":"2025-01-09T11:27:17Z","tX":558,"tY":383,"tags":{"addr:city":"Ruvo di Puglia","addr:housenumber":"sn","addr:postcode":"70037","addr:street":"Via Marco Minghetti","capacity":"10","fee":"yes","internet_access":"no","internet_access:fee":"no","name":"Sosta camper via Minghetti","operator":"CAMPERUVO","power_supply":"yes","sanitary_dump_station":"yes","website":"http://www.camperuvo.it/aree-camper.html"}},"3419925748":{"location":[40.9860112,16.4333226],"ct":"IT","tp":"CR","ts":"2015-03-26T16:39:51Z","tX":558,"tY":383,"tags":{}},"4780573227":{"location":[41.1111595,16.4880317],"ct":"IT","tp":"CR","ts":"2017-04-07T07:36:19Z","tX":558,"tY":383,"tags":{"addr:city":"Ruvo di Puglia","addr:housenumber":"sn","addr:postcode":"70037","addr:street":"Via Alessandro Scarlatti","capacity":"20","fee":"yes","internet_access":"no","internet_access:fee":"no","name":"Area sosta con CS, servizi e assistenza turistica","operator":"CAMPERUVO","power_supply":"yes","sanitary_dump_station":"yes"}},"4780580268":{"location":[41.1143018,16.4905942],"ct":"IT","tp":"CR","ts":"2017-04-07T07:38:41Z","tX":558,"tY":383,"tags":{"addr:city":"Ruvo di Puglia","addr:housenumber":"sn","addr:postcode":"70037","addr:street":"Via Marco Minghetti","capacity":"10","fee":"yes","internet_access":"no","internet_access:fee":"no","name":"Sosta camper via Minghetti","operator":"CAMPERUVO","power_supply":"yes","sanitary_dump_station":"yes"}},"6504582785":{"location":[41.080095,16.275111],"ct":"IT","tp":"CR","ts":"2023-01-08T17:28:54Z","tX":558,"tY":383,"tags":{"fee":"yes","opening_hours":"24/7"}},"6509189385":{"location":[41.0768029,16.2754842],"ct":"IT","tp":"CR","ts":"2023-01-08T17:38:47Z","tX":558,"tY":383,"tags":{"description:es":"√Årea de autocaravanas con todos los servicios","fee":"yes","opening_hours":"24/7"}}}