{"445209625":{"location":[38.3545117,16.484031],"ct":"IT","tp":"CS","ts":"2020-02-06T20:14:28Z","tX":558,"tY":393,"tags":{"addr:city":"Caulonia","addr:street":"Via Trifone dâ€™Egina","contact:email":"info@villaggiocalypso.com","contact:phone":"+39 3391969830","fee":"yes","name":"Villaggio Camping Calypso","website":"https://www.calypsocamping.it/"}},"1059765224":{"location":[38.3390037,16.461239],"ct":"IT","tp":"CS","ts":"2013-03-11T17:21:14Z","tX":558,"tY":393,"tags":{"name":"Afrodite","phone":"+39 0964 82451"}},"1090143422":{"location":[38.4863133,16.4316438],"ct":"IT","tp":"CS","ts":"2022-08-29T09:13:47Z","tX":558,"tY":393,"tags":{"access":"private","addr:city":"Bivongi","addr:postcode":"89040"}},"11951360970":{"location":[38.3633,16.4966],"ct":"IT","tp":"CS","ts":"2024-06-02T06:36:34Z","tX":558,"tY":393,"tags":{"addr:street":"Favaco\n89040 Stignano RC\nItaly","name":"Camping Koku's","phone":"+39 340 504 5813","website":"https://www.facebook.com/share/Z8aYVELA7WDHAxB9/?mibextid=LQQJ4d"}}}