{"17814674":{"location":[-36.8796756,175.0193407],"ct":"NZ","tp":"CS","ts":"2024-07-08T05:09:10Z","tX":1009,"tY":625,"tags":{"charge":"17.50 NZD/night","fee":"yes","group_only":"yes","name":"ÅŒmana Cliff Top Campground","opening_hours":"Oct 16-May 31: open; Jun 1-Oct 15: closed","website":"https://www.aucklandcouncil.govt.nz/parks-recreation/stay-at-park/Pages/accommodation-details.aspx?itemID=57"}},"299797409":{"location":[-36.8821697,174.8124576],"ct":"NZ","tp":"CR","ts":"2023-11-17T04:01:17Z","tX":1009,"tY":625,"tags":{"name":"Remuera Motor Park","wheelchair":"yes"}},"429229784":{"location":[-37.10883,175.05424],"ct":"NZ","tp":"CS","ts":"2016-07-05T04:06:38Z","tX":1009,"tY":625,"tags":{}},"434832610":{"location":[-36.9871111,175.0371092],"ct":"NZ","tp":"CS","ts":"2019-10-13T16:52:27Z","tX":1009,"tY":625,"tags":{"name":"Camp Sladdin"}},"533313906":{"location":[-37.1481555,175.0345084],"ct":"NZ","tp":"CS","ts":"2022-06-19T11:26:57Z","tX":1009,"tY":625,"tags":{"group_only":"yes","name":"Chosen Valley Christian Camp","website":"https://chosenvalley.org"}},"980726217":{"location":[-36.9462632,174.757579],"ct":"NZ","tp":"CS","ts":"2022-02-03T23:46:22Z","tX":1009,"tY":625,"tags":{"capacity":"60","charge":"$16/adult;$6.50/child","fee":"yes","name":"Ambury Campground","opening_hours":"Oct 01-May 30: open; May 31-Sep 30: off","website":"https://www.aucklandcouncil.govt.nz/parks-recreation/stay-at-park/Pages/accommodation-details.aspx?itemID=1"}},"1021819523":{"location":[-37.0368572,174.9724786],"ct":"NZ","tp":"CR","ts":"2024-10-03T04:59:22Z","tX":1009,"tY":625,"tags":{"addr:city":"Auckland","addr:street":"Harvard Lane","addr:suburb":"Ardmore","caravan_site":"motorhome_stopover","dog":"no","drinking_water":"yes","fee":"yes","name":"Ardmore Airfield NZMCA Park","operator":"NZMCA","power_supply":"no","sanitary_dump_station":"no","toilets":"no"}},"1127646484":{"location":[-37.0434561,175.0181872],"ct":"NZ","tp":"CS","ts":"2023-01-06T03:02:52Z","tX":1009,"tY":625,"tags":{"addr:housenumber":"223","addr:street":"Creightons Road","group_only":"yes","name":"Sonshine Ranch Outdoor Adventure Centre","name:en":"Sonshine Ranch Outdoor Adventure Centre","website":"https://sonshineranch.co.nz/"}},"12215347378":{"location":[-37.0453784,174.9395778],"ct":"NZ","tp":"SD","ts":"2024-10-02T04:07:55Z","tX":1009,"tY":625,"tags":{}}}