{"149724561":{"location":[-40.9072642,175.0178662],"ct":"NZ","tp":"CR","ts":"2021-03-18T03:35:49Z","tX":1009,"tY":639,"tags":{"addr:city":"Paraparaumu","addr:housenumber":"12","addr:street":"Ventnor Drive","email":"lindalemotorpark@xtra.co.nz","name":"Lindale Motor Park","phone":"+64 4 298 8046","sanitary_dump_station":"yes"}},"274978783":{"location":[-40.8754117,175.0249335],"ct":"NZ","tp":"CS","ts":"2023-10-15T07:14:49Z","tX":1009,"tY":639,"tags":{"addr:city":"Waikanae","addr:housenumber":"25","addr:street":"Kauri Road","email":"bookings@elrancho.co.nz","name":"El Rancho","phone":"+64 4 902 6287","sanitary_dump_station":"yes","website":"https://www.elrancho.co.nz/"}},"345800613":{"location":[-40.9757828,174.9635317],"ct":"NZ","tp":"CS","ts":"2021-09-24T02:52:07Z","tX":1009,"tY":639,"tags":{"addr:city":"Paekakariki","addr:housenumber":"180","addr:street":"Wellington Road","email":"paekakariki.holiday.park@xtra.co.nz","name":"Paekakariki Holiday Park","phone":"+64 4 292 8292","sanitary_dump_station":"yes","website":"https://www.paekakarikiholidaypark.co.nz/"}},"822166484":{"location":[-40.882919,174.9887068],"ct":"NZ","tp":"CS","ts":"2020-07-02T10:17:59Z","tX":1009,"tY":639,"tags":{"addr:housenumber":"16","addr:street":"Beach Haven Place","addr:suburb":"Paraparaumu Beach","caravans":"yes","name":"Kapiti Holiday Resort","ref:linz:address_id":"1038162","tents":"yes","website":"http://www.kapitiholidayresort.co.nz"}},"1308082359":{"location":[-40.871906,175.0082413],"ct":"NZ","tp":"CR","ts":"2024-08-18T01:37:35Z","tX":1009,"tY":639,"tags":{"description":"Freedom camping for self contained vehicles","fee":"no","parking":"surface","power_supply":"no","surface":"paved"}},"5458194418":{"location":[-40.8976368,174.9779546],"ct":"NZ","tp":"CR","ts":"2025-01-07T23:19:06Z","tX":1009,"tY":639,"tags":{"description":"max. 2 Campervans","name":"SC only, 2 vehicles max"}},"12360127301":{"location":[-40.8951513,174.9786567],"ct":"NZ","tp":"CR","ts":"2025-01-07T23:19:09Z","tX":1009,"tY":639,"tags":{"name":"SC only, 1 vehicle max"}},"12482320701":{"location":[-40.8963686,174.9783081],"ct":"NZ","tp":"CR","ts":"2025-01-07T23:19:11Z","tX":1009,"tY":639,"tags":{"name":"SC only, 2 vehicles max"}}}