{"10710494":{"location":[-41.1587318,174.9691624],"ct":"NZ","tp":"CS","ts":"2020-02-14T00:42:22Z","tX":1009,"tY":640,"tags":{"camp_site":"basic","caravans":"yes","charge":"$8/adult/night;$4/child/night","fee":"yes","name":"Dry Creek Campground","operator":"Greater Wellington regional council","sanitary_dump_station":"no","tents":"yes","website":"http://www.gw.govt.nz/camping-at-belmont/"}},"88004055":{"location":[-41.2352183,174.9104493],"ct":"NZ","tp":"CS","ts":"2019-03-27T21:14:57Z","tX":1009,"tY":640,"tags":{"addr:housenumber":"95","addr:street":"Hutt Park Road","cabins":"yes","capacity:powered":"150","caravans":"yes","dryer":"yes","email":"info@hutpark.co.nz","internet_access":"wlan","kitchen":"yes","name":"Wellington Top 10 Holiday Park","payment:cash":"yes","payment:mastercard":"yes","payment:visa":"yes","phone":"+64 4 568 5913","power_supply":"yes","sanitary_dump_station":"yes","tents":"yes","washing_machine":"yes","website":"https://huttpark.co.nz/","womo":"camping","womo:capacity":"150","womo:fee":"44","womo:name":"Wellington Top 10 HP","womo:nz:nr":"35"}},"143822320":{"location":[-41.2304755,174.8108705],"ct":"NZ","tp":"CS","ts":"2023-10-15T07:10:10Z","tX":1009,"tY":640,"tags":{"addr:city":"Wellington","addr:housenumber":"1","addr:street":"Newlands Road","caravans":"yes","name":"Capital Lodge Motor Inn","sanitary_dump_station":"yes","website":"https://www.capitallodge.co.nz/"}},"235078009":{"location":[-41.0983043,174.8650654],"ct":"NZ","tp":"CR","ts":"2024-08-10T04:31:51Z","tX":1009,"tY":640,"tags":{"drinking_water":"no","fee":"no","name":"Mana Domain Freedom Camping","note":"Self contained camping vehicles only. Overnight only.","operator":"Porirua City Council","power_supply":"no","sanitary_dump_station":"no","tents":"no","toilets":"no","website":"http://www.reservefinder.co.nz/reserve/ngatitoa.domain"}},"235078010":{"location":[-41.0966374,174.8655552],"ct":"NZ","tp":"CR","ts":"2024-08-10T04:32:00Z","tX":1009,"tY":640,"tags":{"drinking_water":"no","fee":"no","name":"Mana Domain Freedom Camping","note":"Self contained camping vehicles only. Overnight only.","operator":"Porirua City Council","power_supply":"no","sanitary_dump_station":"no","tents":"no","toilets":"no"}},"519878619":{"location":[-41.1374012,174.8270263],"ct":"NZ","tp":"CS","ts":"2021-01-24T03:55:10Z","tX":1009,"tY":640,"tags":{"addr:city":"Porirua","addr:housenumber":"18","addr:street":"Raiha Street","caravans":"yes","email":"camp_elsdon@xtra.co.nz","fee":"yes","internet_access":"yes","name":"Camp Elsdon","opening_hours":"Mo-Su 08:00-20:00","phone":"+64 4 237 8987","power_supply":"yes","tents":"yes"}},"844929033":{"location":[-41.2298995,174.810967],"ct":"NZ","tp":"CR","ts":"2023-02-06T08:48:13Z","tX":1009,"tY":640,"tags":{}},"1225195384":{"location":[-41.236661,174.9801587],"ct":"NZ","tp":"CS","ts":"2024-06-26T06:25:42Z","tX":1009,"tY":640,"tags":{"addr:city":"Wainuiomata","addr:housenumber":"562","addr:postcode":"5373","addr:street":"Moores Valley Road","fee":"yes","name":"Brookfield Outdoor Education Centre","operator":"The Scout Association of New Zealand","source":"LINZ","website":"https://brookfield.scouts.nz"}},"1249292616":{"location":[-41.0574302,174.9353477],"ct":"NZ","tp":"CS","ts":"2024-05-03T19:33:22Z","tX":1009,"tY":640,"tags":{"access":"yes","caravans":"yes","name":"Battle Hill Farm Forest Park","operator":"Greater Wellington Regional Council","payment:cash":"no","sanitary_dump_station":"no","tents":"yes","website":"https://www.gw.govt.nz/parks/battle-hill-farm-forest-park/","wikidata":"Q15197054","wikipedia":"en:Battle Hill Farm Forest Park"}},"1320233962":{"location":[-41.0793209,174.8694895],"ct":"NZ","tp":"CR","ts":"2024-10-19T10:30:33Z","tX":1009,"tY":640,"tags":{"access":"members","addr:housenumber":"7","addr:street":"Ulric Street","addr:suburb":"Plimmerton","area":"yes","caravan_site":"motorhome_stopover","name":"Plimmerton NZMCA Park","operator":"NZMCA","power_supply":"no","sanitary_dump_station":"yes"}},"4147567704":{"location":[-41.2393894,174.9793941],"ct":"NZ","tp":"CS","ts":"2021-02-24T03:13:30Z","tX":1009,"tY":640,"tags":{"access":"customers","addr:city":"Wainuiomata","addr:housenumber":"562","addr:postcode":"5373","addr:street":"Moores Valley Road","description":"Brookfield is an Outdoor Education Centre and campsite used year-round by Scouts, Guides, Schools and Church Groups, and many other organisations. It is also used by business for team-building exercises.","email":"bookings@brookfield.org.nz","fee":"yes","internet_access":"no","name":"Brookfield Outdoor Education Center","operator":"Scouts New Zealand","phone":"+64 4 564 1000","power_supply":"yes","reservation":"yes","sanitary_dump_station":"no","website":"https://www.facebook.com/Brookfield.Outdoor.Education.Centre","wheelchair":"limited"}},"12264886514":{"location":[-41.0793036,174.8695242],"ct":"NZ","tp":"SD","ts":"2024-10-18T22:27:47Z","tX":1009,"tY":640,"tags":{"access":"customers","opening_hours":"24/7"}}}