{"179316634":{"location":[57.2116477,-5.4161312],"ct":"GB","tp":"CS","ts":"2024-02-12T08:04:57Z","tX":496,"tY":312,"tags":{"caravans":"yes","name":"Glenshiel Campsite","shower":"yes","tents":"yes","toilets":"yes","website":"https://glenshielcampsite.co.uk/"}},"180461167":{"location":[57.2357047,-5.3807749],"ct":"GB","tp":"CS","ts":"2023-08-09T20:52:37Z","tX":496,"tY":312,"tags":{"caravans":"yes","motorhome":"yes","name":"Morvich Club Campsite","phone":"+441599511354","tents":"yes","website":"https://www.caravanclub.co.uk/club-sites/scotland/highlands/morvich-club-campsite/"}},"562252432":{"location":[57.2131871,-5.5131786],"ct":"GB","tp":"CS","ts":"2024-02-12T08:30:16Z","tX":496,"tY":312,"tags":{"caravans":"yes","name":"Moyle Park Campsite","tents":"yes","website":"https://www.moyleparkcampsite.co.uk/"}},"1099798807":{"location":[57.2883816,-5.499256],"ct":"GB","tp":"CS","ts":"2024-08-20T08:42:09Z","tX":496,"tY":312,"tags":{"access":"customers","addr:housename":"Dornie Wigwams","addr:postcode":"IV40 8ES","cabins":"yes","capacity:caravans":"0","caravans":"no","dog":"yes","name":"Dornie Wigwams","tents":"no","website":"https://www.wigwamholidays.com/dornie/"}},"4581037692":{"location":[57.2821226,-5.5259547],"ct":"GB","tp":"CS","ts":"2022-03-28T19:55:18Z","tX":496,"tY":312,"tags":{"access":"customers","addr:city":"Ardelve","addr:housename":"Ardelve campsite","addr:postcode":"IV40 8DY","addr:street":"Ardelve Loop Road","capacity:caravans":"25","description":"Ardelve caravan and camping park is located under a 10 min walk to the village of Dornie and the famous Eilean Donan castle. It's also only 8 miles to Kyle of Lochalsh and the Isle of Skye. The park caters for motorhomes, campervans, caravans and tents. A","dog":"yes","drinking_water":"yes","fee":"yes","name":"Ardelve Caravan And Camping Park","payment:cash":"yes","phone":"+44 1599 555 231","reservation":"yes","sanitary_dump_station":"yes","shower":"yes","toilets":"yes","website":"https://www.ardelvecaravanandcampingpark.com/"}}}