{"199728055":{"location":[56.0379388,-5.4386883],"ct":"GB","tp":"CS","ts":"2023-08-19T16:51:03Z","tX":496,"tY":318,"tags":{"addr:postcode":"PA31 8NX","addr:street":"Bank Park","cabins":"yes","caravans":"yes","dog":"yes","name":"Lochgilphead Caravan Park","phone":"+44 1546 602003","shower":"hot","source":"Bing","tents":"yes","waste_disposal":"yes","website":"https://www.lochgilpheadcaravanpark.com/"}},"1126397130":{"location":[56.0278014,-5.6184661],"ct":"GB","tp":"CS","ts":"2024-06-25T18:15:33Z","tX":496,"tY":318,"tags":{"caravans":"yes","dog":"yes","email":"fiona@leachive.co.uk","name":"Leachive Caravan Park","opening_hours":"Apr-Oct","phone":"+44 1546 870 206","static_caravans":"yes","tents":"yes","website":"http://www.leachive.co.uk/"}},"12044759052":{"location":[56.1227138,-5.5019331],"ct":"GB","tp":"CS","ts":"2024-07-09T22:52:39Z","tX":496,"tY":318,"tags":{"addr:city":"Argyll","addr:housename":"Lower Raslie","addr:postcode":"PA31 8QF","addr:street":"Slockavullin","capacity:persons":"10","capacity:tents":"5","caravans":"no","charge":"Â£8","contact:phone":"07796352885","description":"The off grid campsite in a secluded and peaceful meadow is for cyclists and walkers on the Caledonian Way. It is close to the prehistoric monuments and nature reserves of Kilmartin Glen.","dog":"no","drinking_water":"yes","fee":"yes","name":"Meadow Camping","operator":"Chris Maddox","payment:app":"yes","payment:cash":"yes","static_caravans":"no","tents":"yes","toilets":"yes"}}}