{"307509825":{"location":[51.8700517,-5.279594],"ct":"GB","tp":"CS","ts":"2023-04-11T17:57:51Z","tX":496,"tY":338,"tags":{"name":"Porthclais Farm Campsite"}},"307686744":{"location":[51.8780279,-5.3044723],"ct":"GB","tp":"CS","ts":"2022-05-10T22:15:03Z","tX":496,"tY":338,"tags":{"addr:postcode":"SA62 6PY","name":"Rhosson Ganol"}},"307687883":{"location":[51.8978457,-5.2928035],"ct":"GB","tp":"CS","ts":"2024-06-30T09:39:28Z","tX":496,"tY":338,"tags":{"addr:postcode":"SA62 6PS","name":"Whitesands Camping","website":"https://www.whitesandscamping.co.uk/"}},"308315145":{"location":[51.8980703,-5.2789814],"ct":"GB","tp":"CR","ts":"2022-01-19T12:45:39Z","tX":496,"tY":338,"tags":{"name":"St Davids Lleithyr Meadow Caravan And Motorhome Club Site","operator":"LLeithyr Meadow Caravan Park"}},"308315149":{"location":[51.8962799,-5.2766424],"ct":"GB","tp":"CR","ts":"2024-05-06T17:04:15Z","tX":496,"tY":338,"tags":{"caravans":"yes","drinking_water":"yes","fee":"yes","name":"Lleithyr Farm","phone":"+44 1437 720245","shower":"yes","static_caravans":"yes","tents":"yes","toilets":"yes","website":"https://www.lleithyrfarm.co.uk/"}},"308315150":{"location":[51.898292,-5.2768042],"ct":"GB","tp":"CS","ts":"2019-03-19T16:54:51Z","tX":496,"tY":338,"tags":{"addr:postcode":"SA62 6PR","name":"Lleithyr Farm Camp Site","website":"https://www.lleithyrfarm.co.uk/"}},"309333187":{"location":[51.8848553,-5.3050165],"ct":"GB","tp":"CS","ts":"2019-03-19T16:54:51Z","tX":496,"tY":338,"tags":{"addr:postcode":"SA62 6PY","name":"Pencarnan Farm Caravan & Camping Site","website":"https://pencarnanfarm.co.uk/"}},"9873185717":{"location":[51.8944463,-5.2844796],"ct":"GB","tp":"CS","ts":"2024-03-22T11:32:48Z","tX":496,"tY":338,"tags":{"addr:city":"St Davids","addr:postcode":"SA62 6PT","fee":"yes","membership":"required","name":"Dunes at Whitesands Camping","payment:cash":"yes","website":"https://www.dunesatwhitesands.co.uk/"}}}