{"936735734":{"location":[36.9679513,-5.4391421],"ct":"ES","tp":"CR","ts":"2024-04-14T21:48:08Z","tX":496,"tY":398,"tags":{"access":"yes","addr:city":"Coripe","addr:postcode":"41780","addr:street":"Calle Juan Jimenez El Monago","capacity":"5","caravan_site":"motorhome_stopover","covered":"no","drinking_water":"yes","fee":"no","name":"Área de Autocaravanas Coripe","operator":"ciudad de Coripe","power_supply":"no","sanitary_dump_station":"yes","sanitary_dump_station:chemical_toilet":"yes","sanitary_dump_station:grey_water":"yes","sanitary_dump_station:round_drain":"yes","supervised":"no","surface":"asphalt","water_point":"yes"}},"936739057":{"location":[37.1199515,-5.4649413],"ct":"ES","tp":"CR","ts":"2024-04-14T18:43:55Z","tX":496,"tY":398,"tags":{"access":"yes","addr:city":"Coripe","addr:postcode":"41530","addr:street":"Avenida Montellano","capacity":"4","caravan_site":"motorhome_stopover","caravan_site:type":"village;sports_centre","covered":"no","drinking_water":"yes","fee":"no","name":"Área de Morón de la Frontera","operator":"ciudad de Morón de la Frontera","power_supply":"no","sanitary_dump_station":"yes","sanitary_dump_station:chemical_toilet":"yes","sanitary_dump_station:grey_water":"yes","sanitary_dump_station:round_drain":"yes","supervised":"no","surface":"asphalt","water_point":"yes"}},"1273084330":{"location":[36.924489,-5.555734],"ct":"ES","tp":"CR","ts":"2024-04-16T13:16:46Z","tX":496,"tY":398,"tags":{"caravan_site":"motorhome_stopover","fee":"no","name":"Parking de la Antigua Estación","surface":"asphalt"}},"8679729723":{"location":[36.9679724,-5.4393279],"ct":"ES","tp":"SD","ts":"2023-08-29T15:15:35Z","tX":496,"tY":398,"tags":{"access":"yes","fee":"no","operator":"Ayuntamiento de Coripe","sanitary_dump_station":"public","sanitary_dump_station:chemical_toilet":"yes","sanitary_dump_station:grey_water":"yes","sanitary_dump_station:round_drain":"yes","water_point":"yes"}},"8679767061":{"location":[37.1200203,-5.4649181],"ct":"ES","tp":"SD","ts":"2023-08-29T15:15:35Z","tX":496,"tY":398,"tags":{"access":"yes","fee":"no","operator":"Ayuntamiento de Morón de la Frontera","sanitary_dump_station":"public","sanitary_dump_station:chemical_toilet":"yes","sanitary_dump_station:grey_water":"yes","sanitary_dump_station:round_drain":"yes","water_point":"yes"}}}