{"597584480":{"location":[34.6732139,137.4245473],"ct":"JP","tp":"CS","ts":"2018-06-14T04:51:36Z","tX":902,"tY":406,"tags":{"internet_access":"wlan","landuse":"retail","name":"roots7","operator":"有限会社Roots7","sanitary_dump_station":"customers","website":"https://roots-7.co.jp/"}},"4681095177":{"location":[34.8783525,137.2208461],"ct":"JP","tp":"CS","ts":"2022-03-29T06:03:15Z","tX":902,"tY":406,"tags":{"name":"桑谷キャンプ場","name:en":"Kuwagai Campground","name:ja":"桑谷キャンプ場","name:ja-Hira":"くわがいきゃんぷじょう","name:ja-Latn":"Kuwagai Kyanpu-jō","website":"https://www.city.okazaki.lg.jp/1100/1109/1163/p003176.html?path=C1100/C1109/C1163/P3176"}},"4906829393":{"location":[34.6595392,137.3909184],"ct":"JP","tp":"CS","ts":"2017-06-09T23:46:57Z","tX":902,"tY":406,"tags":{"name":"テントサイト"}},"4906829394":{"location":[34.662908,137.3915219],"ct":"JP","tp":"CS","ts":"2017-06-09T23:46:57Z","tX":902,"tY":406,"tags":{"name":"キャンプサイト"}},"6708858985":{"location":[34.8490332,137.1221438],"ct":"JP","tp":"CS","ts":"2019-08-13T22:50:14Z","tX":902,"tY":406,"tags":{"name:en":"Free camping and small waterfall"}}}