{"6761410706":{"location":[-6.1734515,39.2208013],"ct":"TZ","tp":"SD","ts":"2019-09-10T07:38:20Z","tX":623,"tY":529,"tags":{"addr:district":"Zanzibar Urban","addr:region":"Zanzibar Urban West Region","addr:ward":"Nyerere","name":"Unofficial dump"}},"6769472657":{"location":[-6.1717668,39.2227278],"ct":"TZ","tp":"SD","ts":"2019-09-03T13:58:12Z","tX":623,"tY":529,"tags":{"addr:district":"Zanzibar Urban","addr:region":"Zanzibar Urban West Region","addr:ward":"Nyerere","name":"Dump"}},"6769472663":{"location":[-6.1708568,39.2228587],"ct":"TZ","tp":"SD","ts":"2019-09-03T13:58:12Z","tX":623,"tY":529,"tags":{"addr:district":"Zanzibar Urban","addr:region":"Zanzibar Urban West Region","addr:ward":"Nyerere","name":"Karo"}},"6771529896":{"location":[-6.1743056,39.2101545],"ct":"TZ","tp":"SD","ts":"2019-09-04T09:44:27Z","tX":623,"tY":529,"tags":{"addr:district":"Zanzibar Urban","addr:region":"Zanzibar Urban West Region","addr:ward":"Jangombe","name":"Local Dump"}},"6772006344":{"location":[-6.1607152,39.2096475],"ct":"TZ","tp":"SD","ts":"2019-09-04T13:19:17Z","tX":623,"tY":529,"tags":{"addr:district":"Zanzibar Urban","addr:region":"Zanzibar Urban West Region","addr:ward":"Mkele","name":"dump"}},"6772009485":{"location":[-6.1607849,39.2106497],"ct":"TZ","tp":"SD","ts":"2019-09-04T13:19:17Z","tX":623,"tY":529,"tags":{"addr:district":"Zanzibar Urban","addr:region":"Zanzibar Urban West Region","addr:ward":"Mkele","name":"Dump"}},"6772009488":{"location":[-6.159536,39.2111159],"ct":"TZ","tp":"SD","ts":"2019-09-04T13:19:17Z","tX":623,"tY":529,"tags":{"addr:district":"Zanzibar Urban","addr:region":"Zanzibar Urban West Region","addr:ward":"Mkele","name":"Dump"}},"6778875742":{"location":[-6.169972,39.2231981],"ct":"TZ","tp":"SD","ts":"2019-09-07T06:37:30Z","tX":623,"tY":529,"tags":{"addr:district":"Zanzibar Urban","addr:region":"Zanzibar Urban West Region","addr:ward":"Kwa Wazee","name":"kara la maji machafu"}},"6778986316":{"location":[-6.1546174,39.2225808],"ct":"TZ","tp":"SD","ts":"2019-09-10T09:43:49Z","tX":623,"tY":529,"tags":{"addr:district":"Zanzibar Urban","addr:region":"Zanzibar Urban West Region","addr:ward":"Kwamtipura","name":"Unofficial dump site"}},"6778986325":{"location":[-6.1543014,39.2219076],"ct":"TZ","tp":"SD","ts":"2019-09-10T09:43:49Z","tX":623,"tY":529,"tags":{"addr:district":"Zanzibar Urban","addr:region":"Zanzibar Urban West Region","addr:ward":"Kwamtipura","name":"Unofficial dump site"}},"6779005732":{"location":[-6.1528383,39.2200008],"ct":"TZ","tp":"SD","ts":"2019-09-07T09:07:51Z","tX":623,"tY":529,"tags":{"addr:district":"Zanzibar Urban","addr:region":"Zanzibar Urban West Region","addr:ward":"Chumbuni","name":"dump"}},"6784556632":{"location":[-6.173267,39.2203395],"ct":"TZ","tp":"SD","ts":"2019-09-10T07:38:20Z","tX":623,"tY":529,"tags":{"addr:district":"Zanzibar Urban","addr:region":"Zanzibar Urban West Region","addr:ward":"Nyerere","name":"uni_official_dump"}},"6788036434":{"location":[-6.163469,39.1939138],"ct":"TZ","tp":"SD","ts":"2019-09-11T11:25:14Z","tX":623,"tY":529,"tags":{"addr:district":"Zanzibar Urban","addr:region":"Zanzibar Urban West Region","addr:ward":"Vikokotoni","name":"Darajani Dump"}},"6788045475":{"location":[-6.1849515,39.2111251],"ct":"TZ","tp":"SD","ts":"2019-09-11T11:29:18Z","tX":623,"tY":529,"tags":{"addr:district":"Zanzibar Urban","addr:region":"Zanzibar Urban West Region","addr:ward":"Migombani","name":"dumpsite"}}}