{"361554926":{"location":[-6.7759031,39.2705869],"ct":"TZ","tp":"CR","ts":"2024-02-12T11:33:26Z","tX":623,"tY":531,"tags":{}},"648404413":{"location":[-6.6673001,39.1637457],"ct":"TZ","tp":"CR","ts":"2018-11-24T10:12:14Z","tX":623,"tY":531,"tags":{"name":"Twiga Cement Parking","operator":"Twiga cement factory"}},"657317827":{"location":[-6.9059795,39.1081543],"ct":"TZ","tp":"CS","ts":"2018-12-23T15:54:16Z","tX":623,"tY":531,"tags":{"website":"www.rootsandshootstz.org"}},"657317828":{"location":[-6.9059742,39.1083738],"ct":"TZ","tp":"CS","ts":"2018-12-23T15:54:16Z","tX":623,"tY":531,"tags":{"website":"www.rootsandshootstz.org"}},"6398267631":{"location":[-6.8237806,39.1984793],"ct":"TZ","tp":"CS","ts":"2019-04-30T11:09:47Z","tX":623,"tY":531,"tags":{"name":"Benard New Camp"}},"5493551877":{"location":[-6.9068533,39.2641795],"ct":"TZ","tp":"CR","ts":"2018-03-21T12:02:46Z","tX":623,"tY":531,"tags":{}},"6397929658":{"location":[-6.8326581,39.2470524],"ct":"TZ","tp":"CR","ts":"2019-05-02T08:32:43Z","tX":623,"tY":531,"tags":{"addr:subward":"Mivinjeni","addr:ward":"Buguruni","name":"MO PAK centre"}},"6405873761":{"location":[-6.7985898,39.2453444],"ct":"TZ","tp":"SD","ts":"2021-05-02T15:26:31Z","tX":623,"tY":531,"tags":{"addr:city":"Dar es salaaam","addr:district":"Kinondoni","addr:municipality":"Kinondoni","addr:subward":"Mikoroshoni","addr:ward":"Ndugumbi","note":"Waste collection point"}}}