{"668668546":{"location":[44.2809968,-110.6282087],"ct":"US","tp":"CS","ts":"2024-02-16T08:58:47Z","tX":197,"tY":371,"tags":{"capacity":"84","caravans":"yes","charge":"5 USD","drinking_water":"yes","fee":"yes","internet_access":"no","name":"Lewis Lake Campground","nudism":"no","opening_hours":"Jun 15-Nov 01 open; Nov 02-Jun 14 closed","operator":"National Park Service","power_supply":"no","reservation":"no","sanitary_dump_station":"no","shower":"no","tents":"yes","website":"https://www.nps.gov/yell/planyourvisit/lewislakecg.htm","wikidata":"Q63675070"}},"771765243":{"location":[44.0923608,-110.6632434],"ct":"US","tp":"CS","ts":"2020-08-15T15:25:52Z","tX":197,"tY":371,"tags":{"name":"Sheffield Campground","operator":"USDA","website":"https://www.fs.usda.gov/recarea/btnf/recreation/camping-cabins/recarea/?recid=71503&actid=29"}},"837394070":{"location":[44.1031807,-110.686014],"ct":"US","tp":"CS","ts":"2020-08-15T15:25:52Z","tX":197,"tY":371,"tags":{"name":"Grassy Lake Campground"}},"1074345188":{"location":[44.1045849,-110.6685236],"ct":"US","tp":"CS","ts":"2024-06-15T15:34:28Z","tX":197,"tY":371,"tags":{"access":"customers","caravans":"yes","dog":"leashed","drinking_water":"yes","fee":"yes","name":"Headwaters Campground","openfire":"yes","operator":"National Park Service","picnic_table":"yes","reservation":"required","shower":"yes","tents":"yes","toilets":"yes","website":"https://www.nps.gov/grte/planyourvisit/headwaterscg.htm"}},"3064201490":{"location":[44.2101298,-110.5252432],"ct":"US","tp":"CS","ts":"2019-02-05T22:43:51Z","tX":197,"tY":371,"tags":{"backcountry":"yes","capacity":"12","caravans":"no","fee":"yes","name":"Basin Creek Lake","operator":"National Park Service","ref":"8B2","reservation":"required","tents":"yes","website":"https://www.nps.gov/yell/planyourvisit/backcountryhiking.htm"}},"3064201491":{"location":[44.2170342,-110.510077],"ct":"US","tp":"CS","ts":"2021-11-16T19:17:01Z","tX":197,"tY":371,"tags":{"backcountry":"yes","capacity":"12","caravans":"no","description":"Access for Stock Parties Only","description:de":"Nutzung nur für Gruppen mit Reittieren","description:en":"Access for Stock Parties Only","fee":"yes","leisure":"park","name":"Basin Creek","operator":"National Park Service","operator:short":"NPS","operator:type":"public","operator:wikidata":"Q308439","operator:wikipedia":"en:National Park Service","ref":"8B3","reservation":"required","tents":"yes","website":"https://www.nps.gov/yell/planyourvisit/backcountryhiking.htm"}},"3064201492":{"location":[44.209557,-110.502761],"ct":"US","tp":"CS","ts":"2021-11-16T19:17:01Z","tX":197,"tY":371,"tags":{"backcountry":"yes","capacity":"12","caravans":"no","description":"Access for Stock Parties Only","description:de":"Nutzung nur für Gruppen mit Reittieren","description:en":"Access for Stock Parties Only","fee":"yes","leisure":"park","name":"Basin Creek","operator":"National Park Service","operator:short":"NPS","operator:type":"public","operator:wikidata":"Q308439","operator:wikipedia":"en:National Park Service","ref":"8B4","reservation":"required","tents":"yes","website":"https://www.nps.gov/yell/planyourvisit/backcountryhiking.htm"}},"3064201493":{"location":[44.2064359,-110.501396],"ct":"US","tp":"CS","ts":"2021-11-16T19:17:01Z","tX":197,"tY":371,"tags":{"backcountry":"yes","capacity":"8","caravans":"no","fee":"yes","leisure":"park","name":"Basin Creek","operator":"National Park Service","operator:short":"NPS","operator:type":"public","operator:wikidata":"Q308439","operator:wikipedia":"en:National Park Service","ref":"8B5","reservation":"required","tents":"yes","website":"https://www.nps.gov/yell/planyourvisit/backcountryhiking.htm"}},"3064201494":{"location":[44.1685618,-110.5865532],"ct":"US","tp":"CS","ts":"2019-02-05T22:43:52Z","tX":197,"tY":371,"tags":{"backcountry":"yes","capacity":"8","caravans":"no","fee":"yes","name":"Snake Hot Springs","operator":"National Park Service","ref":"8C1","reservation":"required","tents":"yes","website":"https://www.nps.gov/yell/planyourvisit/backcountryhiking.htm"}},"3064201495":{"location":[44.1467757,-110.5256208],"ct":"US","tp":"CS","ts":"2019-02-05T22:43:52Z","tX":197,"tY":371,"tags":{"backcountry":"yes","capacity":"12","caravans":"no","fee":"yes","name":"Nine Mile Meadow","operator":"National Park Service","ref":"8C2","reservation":"required","tents":"yes","website":"https://www.nps.gov/yell/planyourvisit/backcountryhiking.htm"}},"3064201496":{"location":[44.1703283,-110.4880936],"ct":"US","tp":"CS","ts":"2023-08-21T19:26:53Z","tX":197,"tY":371,"tags":{"alt_name:es":"Río Serpiente","backcountry":"yes","capacity":"12","caravans":"no","fee":"yes","name":"Snake River","name:ar":"نهر الثعبان","name:azb":"اسنیک چایی","name:es":"Río Snake","name:fa":"رود اسنیک","name:fr":"Snake","name:it":"Fiume Snake","name:lt":"Sneikas","name:ru":"Снейк","name:uk":"Снейк","name:ur":"دریائے اسنیک","operator":"National Park Service","operator:es":"Servicio de Parques Nacionales","operator:fr":"Service des Parcs Nationaux","ref":"8C4","reservation":"required","tents":"yes","website":"https://www.nps.gov/yell/planyourvisit/backcountryhiking.htm"}},"3064201497":{"location":[44.2149244,-110.4613959],"ct":"US","tp":"CS","ts":"2023-08-21T19:26:53Z","tX":197,"tY":371,"tags":{"alt_name:es":"Río Serpiente","backcountry":"yes","capacity":"12","caravans":"no","fee":"yes","name":"Snake River","name:ar":"نهر الثعبان","name:azb":"اسنیک چایی","name:es":"Río Snake","name:fa":"رود اسنیک","name:fr":"Snake","name:it":"Fiume Snake","name:lt":"Sneikas","name:ru":"Снейк","name:uk":"Снейк","name:ur":"دریائے اسنیک","operator":"National Park Service","operator:es":"Servicio de Parques Nacionales","operator:fr":"Service des Parcs Nationaux","ref":"8C5","reservation":"required","tents":"yes","website":"https://www.nps.gov/yell/planyourvisit/backcountryhiking.htm"}},"3064201498":{"location":[44.1750661,-110.5693609],"ct":"US","tp":"CS","ts":"2019-02-05T22:43:53Z","tX":197,"tY":371,"tags":{"backcountry":"yes","capacity":"8","caravans":"no","fee":"yes","name":"Snake River Ford","operator":"National Park Service","ref":"8C6","reservation":"required","tents":"yes","website":"https://www.nps.gov/yell/planyourvisit/backcountryhiking.htm"}},"3064201499":{"location":[44.1689565,-110.57998],"ct":"US","tp":"CS","ts":"2021-05-27T21:31:07Z","tX":197,"tY":371,"tags":{"backcountry":"yes","capacity":"12","caravans":"no","description":"Access for Stock Parties Only","description:de":"Nutzung nur für Gruppen mit Reittieren","description:en":"Access for Stock Parties Only","fee":"yes","name":"Snake Hot Springs Stock Camp","operator":"National Park Service","ref":"8C7","reservation":"required","tents":"yes","website":"https://www.nps.gov/yell/planyourvisit/backcountryhiking.htm"}},"3064201502":{"location":[44.2562077,-110.5029967],"ct":"US","tp":"CS","ts":"2019-02-05T22:43:53Z","tX":197,"tY":371,"tags":{"backcountry":"yes","capacity":"8","caravans":"no","fee":"yes","name":"South Bay","openfire":"no","operator":"National Park Service","ref":"8H1","reservation":"required","tents":"yes","website":"https://www.nps.gov/yell/planyourvisit/backcountryhiking.htm"}},"3064201503":{"location":[44.2705401,-110.5018289],"ct":"US","tp":"CS","ts":"2019-02-05T22:43:54Z","tX":197,"tY":371,"tags":{"backcountry":"yes","capacity":"6","caravans":"no","fee":"yes","name":"Sheridan Creek","operator":"National Park Service","ref":"8H2","reservation":"required","tents":"yes","website":"https://www.nps.gov/yell/planyourvisit/backcountryhiking.htm"}},"3064201504":{"location":[44.2711221,-110.5021247],"ct":"US","tp":"CS","ts":"2019-02-05T22:43:54Z","tX":197,"tY":371,"tags":{"backcountry":"yes","capacity":"4","caravans":"no","fee":"yes","name":"Hideaway","operator":"National Park Service","ref":"8H3","reservation":"required","tents":"yes","website":"https://www.nps.gov/yell/planyourvisit/backcountryhiking.htm"}},"3064201505":{"location":[44.2779753,-110.5025525],"ct":"US","tp":"CS","ts":"2019-02-05T22:43:54Z","tX":197,"tY":371,"tags":{"backcountry":"yes","capacity":"8","caravans":"no","fee":"yes","name":"West Shore","openfire":"no","operator":"National Park Service","ref":"8H4","reservation":"required","tents":"yes","website":"https://www.nps.gov/yell/planyourvisit/backcountryhiking.htm"}},"3064201506":{"location":[44.2799666,-110.5019075],"ct":"US","tp":"CS","ts":"2019-02-05T22:43:54Z","tX":197,"tY":371,"tags":{"backcountry":"yes","capacity":"6","caravans":"no","fee":"yes","name":"Sheridan Trail","openfire":"no","operator":"National Park Service","ref":"8H5","reservation":"required","tents":"yes","website":"https://www.nps.gov/yell/planyourvisit/backcountryhiking.htm"}},"3064201507":{"location":[44.280761,-110.5024013],"ct":"US","tp":"CS","ts":"2019-02-05T22:43:54Z","tX":197,"tY":371,"tags":{"backcountry":"yes","capacity":"6","caravans":"no","fee":"yes","name":"Rustic","openfire":"no","operator":"National Park Service","ref":"8H6","reservation":"required","tents":"yes","website":"https://www.nps.gov/yell/planyourvisit/backcountryhiking.htm"}},"3064201508":{"location":[44.277026,-110.4745358],"ct":"US","tp":"CS","ts":"2019-02-05T22:43:54Z","tX":197,"tY":371,"tags":{"backcountry":"yes","capacity":"8","caravans":"no","fee":"yes","name":"Beaver Creek","operator":"National Park Service","ref":"8J1","reservation":"required","tents":"yes","website":"https://www.nps.gov/yell/planyourvisit/backcountryhiking.htm"}},"3064201509":{"location":[44.2790705,-110.4659631],"ct":"US","tp":"CS","ts":"2019-02-05T22:43:55Z","tX":197,"tY":371,"tags":{"backcountry":"yes","capacity":"12","caravans":"no","description":"Access for Stock Parties Only","description:de":"Nutzung nur für Gruppen mit Reittieren","description:en":"Access for Stock Parties Only","fee":"yes","name":"Beaver Creek Meadow","operator":"National Park Service","ref":"8J2","reservation":"required","tents":"yes","website":"https://www.nps.gov/yell/planyourvisit/backcountryhiking.htm"}},"3064201510":{"location":[44.2522186,-110.4396126],"ct":"US","tp":"CS","ts":"2019-02-05T22:43:55Z","tX":197,"tY":371,"tags":{"backcountry":"yes","capacity":"8","caravans":"no","fee":"yes","name":"Surprise Creek","operator":"National Park Service","ref":"8J3","reservation":"required","tents":"yes","website":"https://www.nps.gov/yell/planyourvisit/backcountryhiking.htm"}},"3064201511":{"location":[44.2479171,-110.4455473],"ct":"US","tp":"CS","ts":"2019-02-05T22:43:55Z","tX":197,"tY":371,"tags":{"backcountry":"yes","capacity":"8","caravans":"no","fee":"yes","name":"Heart River","operator":"National Park Service","ref":"8J4","reservation":"required","tents":"yes","website":"https://www.nps.gov/yell/planyourvisit/backcountryhiking.htm"}},"3064201512":{"location":[44.2508638,-110.449823],"ct":"US","tp":"CS","ts":"2021-05-27T18:33:34Z","tX":197,"tY":371,"tags":{"backcountry":"yes","capacity":"4","caravans":"no","fee":"yes","name":"East Shore","operator":"National Park Service","ref":"8J6","reservation":"required","tents":"yes","website":"https://www.nps.gov/yell/planyourvisit/backcountryhiking.htm"}},"3064201514":{"location":[44.3286726,-110.736868],"ct":"US","tp":"CS","ts":"2022-08-09T01:16:33Z","tX":197,"tY":371,"tags":{"backcountry":"yes","capacity":"8","caravans":"no","fee":"yes","name":"Moose Creek Meadow (8M2)","operator":"National Park Service","ref":"8M2","reservation":"required","tents":"yes","website":"https://www.nps.gov/yell/planyourvisit/backcountryhiking.htm"}},"3064201515":{"location":[44.269574,-110.3932907],"ct":"US","tp":"CS","ts":"2019-02-05T22:43:56Z","tX":197,"tY":371,"tags":{"backcountry":"yes","capacity":"6","caravans":"no","fee":"yes","name":"Outlet Creek","operator":"National Park Service","ref":"8O2","reservation":"required","tents":"yes","website":"https://www.nps.gov/yell/planyourvisit/backcountryhiking.htm"}},"3064201516":{"location":[44.2293421,-110.738956],"ct":"US","tp":"CS","ts":"2019-02-05T22:43:56Z","tX":197,"tY":371,"tags":{"backcountry":"yes","capacity":"8","caravans":"no","fee":"yes","name":"Pitchstone","operator":"National Park Service","ref":"8P1","reservation":"required","tents":"yes","website":"https://www.nps.gov/yell/planyourvisit/backcountryhiking.htm"}},"3064201517":{"location":[44.2302089,-110.7400834],"ct":"US","tp":"CS","ts":"2019-02-05T22:43:56Z","tX":197,"tY":371,"tags":{"backcountry":"yes","capacity":"8","caravans":"no","fee":"yes","name":"Phantom","operator":"National Park Service","ref":"8P2","reservation":"required","tents":"yes","website":"https://www.nps.gov/yell/planyourvisit/backcountryhiking.htm"}},"4329455691":{"location":[44.0969905,-110.6892697],"ct":"US","tp":"CS","ts":"2016-07-31T14:30:11Z","tX":197,"tY":371,"tags":{}},"5929453262":{"location":[44.088772,-110.6957048],"ct":"US","tp":"CS","ts":"2018-09-25T17:40:07Z","tX":197,"tY":371,"tags":{"description":"primitive"}},"5929453977":{"location":[44.0977956,-110.736004],"ct":"US","tp":"CS","ts":"2018-09-25T17:40:08Z","tX":197,"tY":371,"tags":{"description":"primitive"}},"9888601318":{"location":[44.1050739,-110.6681553],"ct":"US","tp":"CS","ts":"2023-09-22T04:01:54Z","tX":197,"tY":371,"tags":{"addr:housenumber":"101","addr:postcode":"83013","addr:street":"Grassy Lake Road","name":"Headwaters Campground and RV Park","opening_hours":"Mo-Su 00:00-24:00; Oct-May off","phone":"+1-307-543-2861","website":"https://www.nps.gov/grte/planyourvisit/headwaterscg.htm"}},"9888601817":{"location":[44.1050927,-110.6683469],"ct":"US","tp":"CR","ts":"2022-07-14T22:30:31Z","tX":197,"tY":371,"tags":{"name":"Headwaters Campground and RV Park"}}}