{"428294266":{"location":[39.8570139,-110.7206623],"ct":"US","tp":"CS","ts":"2016-06-30T19:40:20Z","tX":197,"tY":388,"tags":{"name":"Timberlane Camp","operator":"LDS Church"}},"7885775482":{"location":[39.7755472,-110.465725],"ct":"US","tp":"CS","ts":"2023-03-19T18:10:55Z","tX":197,"tY":388,"tags":{"access":"customers","addr:city":"Wellington","addr:country":"US","addr:district":"Carbon County","addr:housenumber":"MM 24","addr:place":"Nine Mile Ranch","addr:postcode":"84542","addr:state":"UT","addr:street":"Nine Mile Canyon Road","capacity":"10+","caravans":"yes","charge":"Campsites (1 vehicle/RV) – $15/night. Add'l vehicle – $5/night. Cabins – $80/night. Showers – $3.","dog":"leashed","email":"ninemileranchutah@gmail.com","fee":"yes","image":"https://9mileranch.com/wp-content/uploads/2016/03/Ranch-House2-777x323.jpg","internet_access":"no","name":"Nine Mile Guest Ranch & RV/Campground","nudism":"no","openfire":"yes","opening_hours":"24/7","operator":"Ben & Myrna Mead","payment:cash":"yes","payment:cryptocurrencies":"no","payment:debit_cards":"no","payment:electronic_purses":"no","payment:mastercard":"yes","payment:visa":"yes","phone":"+1-435-650-5398","power_supply":"no","reservation":"recommended","sanitary_dump_station":"yes","shower":"yes","source":"local knowledge","tents":"yes","toilets":"yes","website":"https://9mileranch.com/"}}}