{"150956293":{"location":[32.4103466,-110.7320409],"ct":"US","tp":"CS","ts":"2023-08-26T22:42:43Z","tX":197,"tY":414,"tags":{"ele":"2453","gnis:feature_id":"41792","name":"Whitetail Campground"}},"479816844":{"location":[32.5385258,-110.7167394],"ct":"US","tp":"CS","ts":"2020-11-20T21:40:14Z","tX":197,"tY":414,"tags":{"ele":"1396","name":"Peppersauce Campground","operator":"USFS","source":"www.fs.usda.gov","uuid":"sonora_20130603"}},"2330847194":{"location":[32.3774214,-110.6855374],"ct":"US","tp":"CS","ts":"2020-11-20T21:40:14Z","tX":197,"tY":414,"tags":{"ele":"1822","name":"General Hitchcock Campground","operator":"USFS","source":"www.fs.usda.gov","uuid":"sonora_20130603"}},"2330847196":{"location":[32.3391,-110.7177],"ct":"US","tp":"CS","ts":"2020-11-20T21:40:14Z","tX":197,"tY":414,"tags":{"ele":"1485","name":"Gordon Hirabayashi Campground","operator":"USFS","source":"www.fs.usda.gov","uuid":"sonora_20130603"}},"2330847230":{"location":[32.3376,-110.6907],"ct":"US","tp":"CS","ts":"2020-11-20T21:40:14Z","tX":197,"tY":414,"tags":{"ele":"1328","name":"Molino Basin Campground","operator":"USFS","source":"www.fs.usda.gov","uuid":"sonora_20130603"}},"2330847280":{"location":[32.4082,-110.7212],"ct":"US","tp":"CS","ts":"2020-11-20T21:40:14Z","tX":197,"tY":414,"tags":{"ele":"2375","name":"Showers Point Group Campground","operator":"USFS","source":"www.fs.usda.gov","uuid":"sonora_20130603"}},"2330847285":{"location":[32.4167,-110.7405],"ct":"US","tp":"CS","ts":"2020-11-20T21:40:14Z","tX":197,"tY":414,"tags":{"ele":"2396","name":"Spencer Canyon Campground","operator":"USFS","source":"www.fs.usda.gov","uuid":"sonora_20130603"}},"2371302882":{"location":[32.41027,-110.70854],"ct":"US","tp":"CS","ts":"2020-11-20T21:40:14Z","tX":197,"tY":414,"tags":{"ele":"2374","name":"Incinerator Ridge Dispersed Camping","operator":"USFS","uuid":"sonora_20130702"}},"2371302889":{"location":[32.41462,-110.72806],"ct":"US","tp":"CS","ts":"2020-11-20T21:40:14Z","tX":197,"tY":414,"tags":{"ele":"2535","name":"Mt. Bigelow Dispersed Camping","operator":"USFS","uuid":"sonora_20130702"}},"6003785201":{"location":[32.3935877,-110.698446],"ct":"US","tp":"CS","ts":"2020-11-20T21:40:14Z","tX":197,"tY":414,"tags":{"caravans":"yes","ele":"2158","name":"Rose Canyon Campground","operator":"US Forest Service","tents":"yes"}},"11137503952":{"location":[32.4086579,-110.7163161],"ct":"US","tp":"CS","ts":"2023-08-23T02:33:02Z","tX":197,"tY":414,"tags":{"name":"Navajo Camp","operator":"Camp Lawton"}},"11137523080":{"location":[32.4062977,-110.7159427],"ct":"US","tp":"CS","ts":"2023-08-23T02:35:13Z","tX":197,"tY":414,"tags":{"name":"Camp Lawton","operator":"Catalina Council"}},"11137523205":{"location":[32.408107,-110.7165176],"ct":"US","tp":"CS","ts":"2023-08-23T02:31:40Z","tX":197,"tY":414,"tags":{"addr:city":"Tucson","addr:housenumber":"19200","addr:postcode":"85619","addr:state":"AZ","addr:street":"East Organization Ridge Road","name":"Camp Lawton","operator":"Catalina Council"}}}