{"8371387":{"location":[49.1341443,-125.9042864],"ct":"CA","tp":"CR","ts":"2018-06-11T03:56:16Z","tX":153,"tY":351,"tags":{"capacity":"181","caravans":"yes","email":"campground@bellapacifica.com","fax":"+1-250-725-2400","fee":"yes","internet_access":"no","name":"Bella Pacifica Campground","openfire":"yes","phone":"+1-250-725-3400","power_supply":"yes","sanitary_dump_station":"yes","smoking":"yes","stars":"3","tents":"yes","website":"http://www.bellapacifica.com","wheelchair":"no"}},"1030885918":{"location":[49.1031402,-125.868159],"ct":"CA","tp":"CS","ts":"2024-03-08T10:15:54Z","tX":153,"tY":351,"tags":{"name":"Surf Grove Campground","sanitary_dump_station":"customers","website":"https://surfgrove.com/"}},"1031494388":{"location":[49.1272412,-125.8992679],"ct":"CA","tp":"CR","ts":"2022-08-01T17:10:30Z","tX":153,"tY":351,"tags":{"name":"Crystal Cove"}},"3033924566":{"location":[49.1284955,-125.895297],"ct":"CA","tp":"CS","ts":"2020-12-10T04:05:11Z","tX":153,"tY":351,"tags":{"name":"Ocean Camping"}},"5045740522":{"location":[49.1333672,-125.9021634],"ct":"CA","tp":"CS","ts":"2017-08-20T06:37:04Z","tX":153,"tY":351,"tags":{"name":"Bella Pacifica","name:de":"Bella Pacifica","name:en":"Bella Pacifica","name:fr":"Bella Pacifica"}},"11649376469":{"location":[49.1031423,-125.8670822],"ct":"CA","tp":"CS","ts":"2024-02-21T15:07:53Z","tX":153,"tY":351,"tags":{}},"5045740523":{"location":[49.1333196,-125.9021917],"ct":"CA","tp":"CR","ts":"2017-08-20T06:37:04Z","tX":153,"tY":351,"tags":{"name":"Bella Pacifica","name:de":"Bella Pacifica","name:en":"Bella Pacifica","name:fr":"Bella Pacifica"}}}