{"732229426":{"location":[46.931119,-84.5259577],"ct":"CA","tp":"CS","ts":"2019-10-07T03:02:56Z","tX":271,"tY":360,"tags":{"addr:city":"Batchewana Bay","addr:housenumber":"10243","addr:street":"Highway 17","cabins":"yes","name":"Sunset Shoes Resort","phone":"+1-705-882-2231","phone:tollfree":"+1-866-887-8862","website":"https://www.sunsetshores.ca/"}},"856153143":{"location":[46.9680431,-84.6908221],"ct":"CA","tp":"CS","ts":"2020-10-06T22:29:36Z","tX":271,"tY":360,"tags":{"name":"Pancake Bay Campground","website":"https://www.ontarioparks.com/park/pancakebay"}},"856153144":{"location":[46.9659642,-84.7113824],"ct":"CA","tp":"CS","ts":"2020-10-06T22:29:36Z","tX":271,"tY":360,"tags":{"name":"Pancake Bay - Hilltop Campground","website":"https://www.ontarioparks.com/park/pancakebay"}},"872040596":{"location":[46.9487604,-84.5724343],"ct":"CA","tp":"CR","ts":"2020-11-15T23:50:36Z","tX":271,"tY":360,"tags":{"addr:housenumber":"11028","addr:street":"Highway 17","name":"Wild Rose RV Park","power_supply":"yes","sanitary_dump_station":"yes","website":"https://www.wildrosepark.com/"}}}