{"13348217":{"location":[45.5180998,-84.4649798],"ct":"US","tp":"CS","ts":"2023-01-31T00:20:08Z","tX":271,"tY":366,"tags":{"addr:city":"Cheboygan","addr:housenumber":"4347","addr:postcode":"49721","addr:state":"MI","addr:street":"Third Street","name":"Aloha State Park Campground","phone":"+1-231-625-2522","website":"https://www2.dnr.state.mi.us/parksandtrails/details.aspx?id=434&type=SPRK"}},"693032678":{"location":[45.3709078,-84.5295529],"ct":"US","tp":"CS","ts":"2019-05-28T14:54:38Z","tX":271,"tY":366,"tags":{"name":"Michigan Oaks Camping Resort"}},"940984396":{"location":[45.4009604,-84.62656],"ct":"US","tp":"CS","ts":"2024-08-13T17:13:40Z","tX":271,"tY":366,"tags":{"addr:city":"Indian River","addr:housenumber":"6635","addr:postcode":"49749","addr:state":"MI","addr:street":"State Park Drive","ele":"208","facebook":"https://www.facebook.com/BurtLakeStatePark/","gnis:feature_id":"622332","leisure":"park","name":"Burt Lake State Park","operator":"Michigan Department of Natural Resources","operator:short":"Michigan DNR","operator:type":"public","operator:wikidata":"Q6837532","website":"https://www.dnr.state.mi.us/parksandtrails/Details.aspx?id=439&type=SPRK","wikidata":"Q5000713","wikipedia":"en:Burt Lake State Park"}},"993357847":{"location":[45.4878342,-84.7081893],"ct":"US","tp":"CS","ts":"2021-12-26T22:41:37Z","tX":271,"tY":366,"tags":{"addr:city":"Brutus","addr:housenumber":"1700","addr:postcode":"49716","addr:state":"MI","addr:street":"Maple Bay Road","capacity":"38","gnis:feature_id":"2369243","name":"Maple Bay State Forest Campground","phone":"+1-231-238-9392","website":"https://www2.dnr.state.mi.us/parksandtrails/details.aspx?id=612&type=SFCG"}},"995670225":{"location":[45.4423963,-84.5547869],"ct":"US","tp":"CR","ts":"2024-07-06T17:18:06Z","tX":271,"tY":366,"tags":{"addr:city":"Indian River","addr:housenumber":"1337","addr:postcode":"49749","addr:street":"East Mullet Lake Road","email":"pigeonbaycampground@gmail.com","facebook":"https://www.facebook.com/p/Pigeon-Bay-Campgrounds-100046437357093/","gnis:feature_id":"2369371","name":"Pigeon Bay Campground","opening_hours":"May-Sep","phone":"+1-231-373-3341","power_supply":"yes","sanitary_dump_station":"yes","website":"https://glgossard.wixsite.com/pigeonbaycampground"}},"1244807229":{"location":[45.47126,-84.6048778],"ct":"US","tp":"CS","ts":"2025-05-02T15:58:43Z","tX":271,"tY":366,"tags":{"access":"customers","addr:city":"Indian River","addr:housenumber":"561","addr:postcode":"49749","addr:state":"MI","addr:street":"North Straits Highway","camp_site":"deluxe","caravans":"yes","email":"info@indianriverrvresort.com","facebook":"https://www.facebook.com/indianriverrvresort","fee":"yes","name":"Indian River RV Resort","note":"Boundaries approximate","tents":"yes","website":"https://www.indianriverrvresort.com/"}},"1299060296":{"location":[45.4645301,-84.537592],"ct":"US","tp":"CS","ts":"2024-07-04T14:13:42Z","tX":271,"tY":366,"tags":{"access":"customers","addr:city":"Indian River","addr:housenumber":"2542","addr:postcode":"49749","addr:state":"MI","addr:street":"Schramm Road","capacity:caravans":"28","caravans":"yes","fee":"yes","name":"East Mullet Campground","phone":"+1-616-238-9805","tents":"yes"}},"3328297979":{"location":[45.4007309,-84.6293824],"ct":"US","tp":"CR","ts":"2015-02-03T12:02:42Z","tX":271,"tY":366,"tags":{"name":"Burt Lake-Modern"}},"6081597514":{"location":[45.4416187,-84.6349743],"ct":"US","tp":"CS","ts":"2019-03-13T06:52:39Z","tX":271,"tY":366,"tags":{"addr:city":"Indian River","addr:housenumber":"7207","addr:postcode":"49749","addr:state":"MI","addr:street":"Frontenac Avenue","name":"Marriott Camper Rentals LLC","phone":"+1-231-499-0452","website":"http://marriottcamping.com"}},"6475906730":{"location":[45.3920311,-84.4126099],"ct":"US","tp":"CS","ts":"2022-03-01T20:35:56Z","tX":271,"tY":366,"tags":{"capacity":"11","name":"Stoney Creek Trail Camp","operator":"Michigan Department of Natural Resources","operator:short":"Michigan DNR","operator:type":"public","operator:wikidata":"Q6837532","operator:wikipedia":"en:Michigan Department of Natural Resources","owner":"Michigan DNR"}},"8714688276":{"location":[45.4031395,-84.6254923],"ct":"US","tp":"CS","ts":"2021-07-11T11:15:33Z","tX":271,"tY":366,"tags":{"name":"Organizational Camping"}},"12802638482":{"location":[45.4723661,-84.6040999],"ct":"US","tp":"SD","ts":"2025-05-01T16:35:06Z","tX":271,"tY":366,"tags":{"access":"customers","operator":"Indian River RV Resort"}}}