{"369873843":{"location":[45.2406397,-84.5897624],"ct":"US","tp":"CS","ts":"2023-01-31T00:20:08Z","tX":271,"tY":367,"tags":{"addr:state":"MI","name":"Sturgeon Valley Campground","phone":"+1-231-525-8301","website":"https://www.sturgeonvalleycampground.net/"}},"693390371":{"location":[45.2763297,-84.6022139],"ct":"US","tp":"CS","ts":"2022-05-29T10:19:15Z","tX":271,"tY":367,"tags":{"addr:city":"Wolverine","addr:housenumber":"5564","addr:state":"MI","addr:street":"Cedar Street","capacity":"15","name":"Wolverine Village Campground","phone":"+1-231-420-0808","website":"https://villageofwolverine.com/ParksandCamping.cfm"}},"996669710":{"location":[45.3007166,-84.6143669],"ct":"US","tp":"CS","ts":"2022-02-28T16:58:32Z","tX":271,"tY":367,"tags":{"capacity":"18","charge":"15 USD","fee":"yes","gnis:feature_id":"2369337","name":"Haakwood State Forest Campground","phone":"+1-231-238-9392","reservation":"no","website":"https://www2.dnr.state.mi.us/parksandtrails/details.aspx?id=613&type=SFCG"}},"996898762":{"location":[45.2241274,-84.5465204],"ct":"US","tp":"CS","ts":"2021-12-26T22:33:50Z","tX":271,"tY":367,"tags":{"gnis:feature_id":"2369340","name":"Elkwood Campground","phone":"+1-231-445-0801","tents":"yes","website":"https://www.elkwoodcampground.com/"}},"996899792":{"location":[45.1781992,-84.5174076],"ct":"US","tp":"CS","ts":"2024-02-17T18:44:53Z","tX":271,"tY":367,"tags":{"capacity":"39","charge":"15 USD","fee":"yes","gnis:feature_id":"2492478","name":"Pickerel Lake State Forest Campground","opening_hours":"24/7","reservation":"no","website":"https://www2.dnr.state.mi.us/parksandtrails/Details.aspx?id=619&type=SFCG"}},"996900204":{"location":[45.1568046,-84.4651566],"ct":"US","tp":"CS","ts":"2022-02-28T16:41:16Z","tX":271,"tY":367,"tags":{"capacity":"10","capacity:tents":"10","charge":"20 USD","fee":"yes","gnis:feature_id":"2492480","name":"Pigeon Bridge State Forest Campground","reservation":"no","website":"https://www2.dnr.state.mi.us/parksandtrails/details.aspx?id=620&type=SFCG#overview"}},"997166536":{"location":[45.2992392,-84.7211061],"ct":"US","tp":"CS","ts":"2024-02-17T18:44:53Z","tX":271,"tY":367,"tags":{"capacity":"18","charge":"15 USD","fee":"yes","gnis:feature_id":"2369336","name":"Weber Lake State Forest Campground","opening_hours":"Apr 16-Nov 20: Mo-Su 00:00-24:00","tents":"yes","website":"https://www2.dnr.state.mi.us/parksandtrails/Details.aspx?id=611&type=SFCG"}},"1015145014":{"location":[45.1829012,-84.4190387],"ct":"US","tp":"CS","ts":"2021-12-25T00:03:16Z","tX":271,"tY":367,"tags":{"gnis:feature_id":"2492482","name":"Elk Hill Equestrian State Forest Campground"}},"1079886465":{"location":[45.2445483,-84.4457795],"ct":"US","tp":"CS","ts":"2022-07-20T00:14:21Z","tX":271,"tY":367,"tags":{"capacity":"6","capacity:tents":"6","charge":"20 USD","drinking_water":"yes","fee":"yes","gnis:feature_id":"2369242","name":"Pine Grove State Forest Campground","opening_hours":"24/7","reservation":"no","website":"https://www2.dnr.state.mi.us/ParksandTrails/Details.aspx?id=618&type=SFCG"}},"2921109239":{"location":[45.1765448,-84.4287232],"ct":"US","tp":"CS","ts":"2022-03-19T13:23:53Z","tX":271,"tY":367,"tags":{"capacity":"14","capacity:tents":"14","charge":"20 USD","fee":"yes","gnis:feature_id":"2492481","name":"Pigeon River State Forest Campground","operator":"Michigan Department of Natural Resources","operator:short":"Michigan DNR","operator:type":"public","operator:wikidata":"Q6837532","operator:wikipedia":"en:Michigan Department of Natural Resources","reservation":"no","website":"https://www2.dnr.state.mi.us/ParksandTrails/Details.aspx?id=638&type=SFCG"}},"2921109240":{"location":[45.135,-84.4525],"ct":"US","tp":"CS","ts":"2014-06-17T21:34:03Z","tX":271,"tY":367,"tags":{"gnis:feature_id":"2492479","name":"Round Lake State Forest Campground"}}}