{"16791184":{"location":[44.1418048,-84.570686],"ct":"US","tp":"CS","ts":"2023-12-06T16:18:09Z","tX":271,"tY":371,"tags":{"gnis:feature_id":"2515982","name":"House Lake State Forest Campground","operator":"Michigan Department of Natural Resources","ownership":"state","phone":"+1-989-539-3021","website":"https://www2.dnr.state.mi.us/parksandtrails/Details.aspx?id=574&type=SFCG"}},"16794289":{"location":[44.1349487,-84.5654377],"ct":"US","tp":"CS","ts":"2023-12-07T12:33:09Z","tX":271,"tY":371,"tags":{"capacity:tents":"35","caravans":"no","gnis:feature_id":"2515981","name":"Trout Lake State Forest Campground","operator":"Michigan Department of Natural Resources","ownership":"state","phone":"+1-989-539-3021","tents":"yes","website":"https://www2.dnr.state.mi.us/parksandtrails/Details.aspx?id=575&type=SFCG"}},"2934612709":{"location":[44.2947173,-84.6947824],"ct":"US","tp":"CR","ts":"2023-10-29T03:11:22Z","tX":271,"tY":371,"tags":{"addr:city":"Houghton Lake","addr:housenumber":"2757","addr:postcode":"48629","addr:state":"MI","addr:street":"Owens Road","gnis:feature_id":"2508998","name":"Sandyoak RV Park","phone":"+1-989-366-7308","website":"https://sandyoakrvresort.com/"}}}