{"16814802":{"location":[43.8398307,-84.3858275],"ct":"US","tp":"CS","ts":"2023-12-12T13:15:18Z","tX":271,"tY":372,"tags":{"addr:city":"Beaverton","addr:housenumber":"5106","addr:postcode":"48612","addr:state":"MI","addr:street":"Dundas Road"}},"19053333":{"location":[43.9573087,-84.6419528],"ct":"US","tp":"CR","ts":"2025-04-28T15:04:38Z","tX":271,"tY":372,"tags":{"addr:city":"Gladwin","addr:housenumber":"2165","addr:postcode":"48624","addr:state":"MI","addr:street":"South Bailey Lake Avenue","gnis:feature_id":"2516443","name":"River Valley RV Park","phone":"+1-989-386-7844","website":"https://rivervalleyrv.com/"}},"1229679487":{"location":[43.9757228,-84.4898082],"ct":"US","tp":"CR","ts":"2023-12-08T13:57:25Z","tX":271,"tY":372,"tags":{"gnis:feature_id":"2515901","name":"Gladwin City Park Campground","website":"https://www.gladwin.org/parks/Parks%20Index.htm"}},"1230586716":{"location":[43.8628284,-84.427822],"ct":"US","tp":"CR","ts":"2023-12-12T13:15:18Z","tX":271,"tY":372,"tags":{"addr:city":"Beaverton","addr:housenumber":"1360","addr:postcode":"48612","addr:state":"MI","addr:street":"Blakely Road","gnis:feature_id":"2515926","name":"Tobacco River Campground"}},"1230594171":{"location":[43.8758012,-84.5080864],"ct":"US","tp":"CR","ts":"2023-12-12T13:46:15Z","tX":271,"tY":372,"tags":{"addr:state":"MI","gnis:feature_id":"2515918","name":"Calhoun Campground","phone":"+1-989-312-4401","website":"https://www.beavertonmi.org/?page_id=294"}},"2934612706":{"location":[43.9579336,-84.6439135],"ct":"US","tp":"CR","ts":"2023-10-29T03:12:53Z","tX":271,"tY":372,"tags":{"addr:city":"Gladwin","addr:housenumber":"2165","addr:postcode":"48624","addr:state":"MI","addr:street":"South Bailey Lake Avenue","gnis:feature_id":"2516443","name":"River Valley RV Park","phone":"+1-989-386-7844","website":"https://rivervalleyrv.com/"}}}