{"581023907":{"location":[43.7533962,-84.4035765],"ct":"US","tp":"CR","ts":"2018-04-18T00:51:18Z","tX":271,"tY":373,"tags":{}},"1079887712":{"location":[43.5844648,-84.5796745],"ct":"US","tp":"CS","ts":"2022-07-20T00:31:04Z","tX":271,"tY":373,"tags":{"gnis:feature_id":"2544153","group_only":"yes","name":"Salt Rivers Acres","phone":"+1-989-631-0817","website":"https://saltriveracres.net/"}},"1086703867":{"location":[43.7981883,-84.7154622],"ct":"US","tp":"CR","ts":"2022-08-16T13:57:13Z","tX":271,"tY":373,"tags":{"name":"Herrick Recreation Area Campground"}},"1136865536":{"location":[43.7105172,-84.3976098],"ct":"US","tp":"CS","ts":"2024-03-22T17:22:07Z","tX":271,"tY":373,"tags":{"access":"yes","capacity:tents":"23","charge":"20 USD","fee":"yes","gnis:feature_id":"621499","name":"Black Creek State Forest Campground","operator":"Michigan Department of Natural Resources","operator:short":"Michigan DNR","operator:type":"public","operator:wikidata":"Q6837532","operator:wikipedia":"en:Michigan Department of Natural Resources","ownership":"state","payment:cash":"yes","payment:cheque":"yes","phone":"+1-989-539-3021","reservation":"no","tents":"yes","website":"https://www2.dnr.state.mi.us/parksandtrails/Details.aspx?id=577&type=SFCG"}},"1380300371":{"location":[43.6463206,-84.6629007],"ct":"US","tp":"CR","ts":"2025-04-23T14:30:48Z","tX":271,"tY":373,"tags":{"addr:city":"Mount Pleasant","addr:housenumber":"340","addr:postcode":"48858","addr:state":"MI","addr:street":"North Loomis Road","name":"Mt. Pleasant Resort","phone":"+1-989-402-9194","website":"https://www.mtpleasantcamping.com/"}},"2934612707":{"location":[43.5871383,-84.699216],"ct":"US","tp":"CR","ts":"2024-07-19T02:16:52Z","tX":271,"tY":373,"tags":{"addr:city":"Mount Pleasant","addr:housenumber":"7525","addr:postcode":"48858","addr:state":"MI","addr:street":"East Tomah Road","alt_name":"The Hill","gnis:feature_id":"2543955","name":"Saginaw Chippewa Indian Tribe Campground","phone":"+1-989-772-2285","short_name":"S.C.I.T Campground","tents":"yes","website":"https://www.sagchip.org/parks-rec/campground.asp"}},"2934612714":{"location":[43.8344556,-84.5473206],"ct":"US","tp":"CR","ts":"2020-12-08T22:16:24Z","tX":271,"tY":373,"tags":{"addr:city":"Beaverton","addr:housenumber":"5300","addr:postcode":"48912","addr:state":"MI","addr:street":"Townhall Road","gnis:feature_id":"2515895","name":"Taylors Lost Haven Campground","phone":"+1-989-435-7623","website":"https://taylorslosthavencampground.com/"}},"9957091280":{"location":[43.7981091,-84.7145231],"ct":"US","tp":"SD","ts":"2022-08-16T13:57:13Z","tX":271,"tY":373,"tags":{}}}