{"150788633":{"location":[42.0423218,-84.435016],"ct":"US","tp":"CR","ts":"2023-10-28T22:48:52Z","tX":271,"tY":379,"tags":{"name":"Somerset Beach Campground","operator":"Southern Michigan Conference of the Free Methodist Church of North America","website":"https://somersetbeach.org/"}},"1096107366":{"location":[42.1526858,-84.6464761],"ct":"US","tp":"CR","ts":"2022-09-19T19:20:27Z","tX":271,"tY":379,"tags":{"addr:city":"Concord","addr:housenumber":"7400","addr:postcode":"49327","addr:state":"MI","addr:street":"Pulaski Road","gnis:feature_id":"2633043","name":"Swains Lake Campground","phone":"+1-517-524-7666","website":"https://www.co.jackson.mi.us/departments/Parks/parks_description/swains_lake_county_park_and_campground.asp"}},"1222934893":{"location":[42.1166818,-84.6936142],"ct":"US","tp":"CR","ts":"2023-11-12T12:25:24Z","tX":271,"tY":379,"tags":{"addr:city":"Hanover","addr:housenumber":"9800","addr:postcode":"49241","addr:street":"Wheeler Road","gnis:feature_id":"2633000","name":"Twin Pines Campground & Canoe Livery","tents":"yes","website":"https://twinpinescampgrounds222653671.wordpress.com"}},"1258311326":{"location":[42.0779755,-84.6833711],"ct":"US","tp":"CS","ts":"2024-03-06T16:02:50Z","tX":271,"tY":379,"tags":{"addr:housenumber":"14508","addr:street":"Goose Lake Road","gnis:feature_id":"2420845","name":"Wildwood Acres Campground","phone":"+1-517-524-7149","website":"https://www.facebook.com/profile.php?id=100070767737304"}},"2939893062":{"location":[42.0548762,-84.4923213],"ct":"US","tp":"CR","ts":"2023-10-28T22:42:50Z","tX":271,"tY":379,"tags":{"addr:city":"Moscow","addr:housenumber":"8291","addr:postcode":"49257","addr:state":"MI","addr:street":"East Chicago Road","name":"Moscow Maples RV Park","phone":"+1-517-688-9853","tents":"yes","website":"https://www.moscowmaples.com/"}},"7282348363":{"location":[42.1740657,-84.584211],"ct":"US","tp":"CS","ts":"2024-02-20T20:53:06Z","tX":271,"tY":379,"tags":{"backcountry":"yes","description":"Holton family campsite"}},"10222705817":{"location":[42.0419572,-84.4330601],"ct":"US","tp":"CS","ts":"2022-11-28T02:07:09Z","tX":271,"tY":379,"tags":{"addr:street":"Brooklawn Court","name":"Somerset Beach Campground"}}}