{"1190153461":{"location":[41.8880558,-84.6078457],"ct":"US","tp":"CR","ts":"2023-07-17T11:23:39Z","tX":271,"tY":380,"tags":{"addr:city":"Hillsdale","addr:housenumber":"2155","addr:postcode":"49242","addr:state":"MI","addr:street":"Hudson Road","gnis:feature_id":"2418362","name":"Six Lakes Campground","ownership":"private","phone":"+1-517-439-5660","tents":"yes","website":"http://www.6lakescampground.com/"}},"2939893045":{"location":[41.9096006,-84.6906629],"ct":"US","tp":"CR","ts":"2020-12-07T14:59:01Z","tX":271,"tY":380,"tags":{"addr:city":"Hillsdale","addr:housenumber":"4111","addr:postcode":"49242","addr:state":"MI","addr:street":"West Hallett Road","gnis:feature_id":"2418423","name":"Gateway Park Campground","phone":"+1-517-437-7005","website":"https://gatewayparkcampground.com/"}},"2939893073":{"location":[41.9940125,-84.6835348],"ct":"US","tp":"CR","ts":"2020-12-07T14:58:36Z","tX":271,"tY":380,"tags":{"addr:city":"Jonesville","addr:housenumber":"3590","addr:postcode":"49250","addr:state":"MI","addr:street":"Jonesville Road","gnis:feature_id":"2418491","name":"Way Back In Campgrounds","phone":"+1-517-849-0082","tents":"yes","website":"http://www.waybackin.com/"}}}