{"1080394152":{"location":[34.1077808,-84.7078377],"ct":"US","tp":"CS","ts":"2022-07-22T02:22:33Z","tX":271,"tY":408,"tags":{"access":"customers","contact:phone":"+1 (770) 974-6089","contact:website":"http://www.allatoonalandingmarina.com/","fee":"yes","name":"Allatoona Landing Marine Resort Campground","phone":"+1 (770) 974-6089","website":"http://www.allatoonalandingmarina.com/"}},"1085190083":{"location":[34.202923,-84.678076],"ct":"US","tp":"CS","ts":"2022-08-22T17:10:02Z","tX":271,"tY":408,"tags":{"access":"customers","addr:city":"White","addr:housenumber":"80","addr:postcode":"30184","addr:state":"GA","addr:street":"Chitwood Cemetery Road","contact:phone":"+1 (678) 721-6700","contact:website":"https://www.recreation.gov/camping/campgrounds/232729","fee":"yes","maxstay":"14 days","name":"Upper Stamp Creek Campground","operator":"United States Army Corps of Engineers","operator:short":"USACE","operator:type":"government","operator:wikidata":"Q1049334","phone":"+1 (678) 721-6700","phone:reservation":"+1 (877) 444-6777","website":"https://www.recreation.gov/camping/campgrounds/232729"}},"1132618996":{"location":[34.1961025,-84.577555],"ct":"US","tp":"CS","ts":"2023-01-17T02:58:27Z","tX":271,"tY":408,"tags":{}},"1132619234":{"location":[34.1948218,-84.5810775],"ct":"US","tp":"CS","ts":"2023-01-17T02:59:31Z","tX":271,"tY":408,"tags":{}},"1132619590":{"location":[34.1919655,-84.5876092],"ct":"US","tp":"CS","ts":"2023-01-17T03:01:41Z","tX":271,"tY":408,"tags":{}}}