{"749912488":{"location":[30.454778,-84.4817528],"ct":"US","tp":"CS","ts":"2023-05-31T19:21:37Z","tX":271,"tY":420,"tags":{"addr:city":"Tallahassee","addr:housenumber":"1208","addr:state":"FL","addr:street":"Coe Landing Road","caravans":"yes","name":"Coe Landing Campground","name_1":"Coe's Landing Campground","operator":"Leon County","website":"https://reservations.leoncountyfl.gov/"}},"1119435450":{"location":[30.4558216,-84.3776472],"ct":"US","tp":"CR","ts":"2022-12-04T18:30:43Z","tX":271,"tY":420,"tags":{}},"2869432848":{"location":[30.4615663,-84.4971593],"ct":"US","tp":"CS","ts":"2023-05-31T18:20:34Z","tX":271,"tY":420,"tags":{"addr:city":"Midway","addr:housenumber":"2725","addr:state":"FL","addr:street":"High Bluff Road","name":"High Bluff Campground","operator":"Lake Talquin State Forest"}},"2896636770":{"location":[30.4747464,-84.6146321],"ct":"US","tp":"CS","ts":"2014-06-03T07:51:06Z","tX":271,"tY":420,"tags":{}},"3804958107":{"location":[30.4557099,-84.3771614],"ct":"US","tp":"CR","ts":"2015-10-27T13:12:45Z","tX":271,"tY":420,"tags":{"addr:city":"Tallahassee","addr:country":"US","addr:housenumber":"6401","addr:postcode":"32304","addr:state":"FL","addr:street":"West Tennessee Street","name":"Lakeside RV Travel Park","website":"http://lakesiderv.net/"}},"10942614785":{"location":[30.4494623,-84.5049676],"ct":"US","tp":"CS","ts":"2023-05-31T19:02:57Z","tX":271,"tY":420,"tags":{}},"10942747319":{"location":[30.451198,-84.4967622],"ct":"US","tp":"CS","ts":"2023-05-31T19:21:37Z","tX":271,"tY":420,"tags":{}}}