{"8340627":{"location":[49.2505195,-124.3541799],"ct":"CA","tp":"CS","ts":"2024-10-11T07:35:14Z","tX":158,"tY":350,"tags":{"addr:housenumber":"2245","addr:street":"Errington Road","capacity":"104","email":"office@rlcparks.ca","name":"Englishman River Falls Campground","operator":"R.L.C. Enterprize Ltd.","phone":"+1-250-474-1336","website":"https://www.env.gov.bc.ca/bcparks/explore/parkpgs/englishman_rv/"}},"75488761":{"location":[49.3242775,-124.2712165],"ct":"CA","tp":"CS","ts":"2024-08-24T02:40:40Z","tX":158,"tY":350,"tags":{"capacity":"174","caravans":"yes","drinking_water":"yes","email":"office@rlcparks.ca","fee":"yes","name":"Rathtrevor Beach Campsite","operator":"R.L.C. Enterprize Ltd.","phone":"+1-250-474-1336","sanitary_dump_station":"yes","tents":"yes","website":"https://www.env.gov.bc.ca/bcparks/explore/parkpgs/rathtrevor/"}},"223421948":{"location":[49.3225418,-124.3121537],"ct":"CA","tp":"CS","ts":"2024-07-28T05:20:14Z","tX":158,"tY":350,"tags":{"addr:housenumber":"105","addr:street":"East Island Highway","source":"Bing","source:addr":"OpenAddresses"}},"372485545":{"location":[49.3169972,-124.2705999],"ct":"CA","tp":"CS","ts":"2018-12-01T04:50:27Z","tX":158,"tY":350,"tags":{}},"462374079":{"location":[49.3132021,-124.2852113],"ct":"CA","tp":"CS","ts":"2024-07-13T05:08:56Z","tX":158,"tY":350,"tags":{"addr:city":"Parksville","addr:housenumber":"380","addr:street":"Martindale Road","fee":"yes","internet_access":"wlan","internet_access:fee":"no","name":"Pathfinder Camp Resorts - Parksville","phone":"+1-250-248-6242","website":"https://parrysrvpark.com/"}},"592196012":{"location":[49.317919,-124.2671158],"ct":"CA","tp":"CS","ts":"2022-05-26T23:44:18Z","tX":158,"tY":350,"tags":{"capacity":"51","email":"office@rlcparks.ca","fee":"yes","internet_access":"no","name":"Rathtrevor Beach Campsite","operator":"R.L.C. Enterprize Ltd.","phone":"+1-250-474-1336","website":"https://www.env.gov.bc.ca/bcparks/explore/parkpgs/rathtrevor/"}},"1028196943":{"location":[49.3235058,-124.2666368],"ct":"CA","tp":"CS","ts":"2022-02-04T22:34:12Z","tX":158,"tY":350,"tags":{"name":"Walk-In Campground"}},"1041294450":{"location":[49.2622183,-124.1900895],"ct":"CA","tp":"CS","ts":"2022-03-17T23:27:41Z","tX":158,"tY":350,"tags":{"access":"customers"}},"1098559522":{"location":[49.3138919,-124.2809927],"ct":"CA","tp":"CR","ts":"2023-01-04T04:32:31Z","tX":158,"tY":350,"tags":{"name":"Riverbend Cottage & RV Resort"}},"1098559528":{"location":[49.3173474,-124.286423],"ct":"CA","tp":"CS","ts":"2024-07-28T05:20:14Z","tX":158,"tY":350,"tags":{"addr:housenumber":"745","addr:postcode":"V9P 1T6","addr:street":"East Island Highway","internet_access":"wlan","name":"Heart Haven RV Family Campground","phone":"+1-250-248-6249"}},"1098559542":{"location":[49.326115,-124.301814],"ct":"CA","tp":"CR","ts":"2024-07-28T05:20:14Z","tX":158,"tY":350,"tags":{"addr:housenumber":"200","addr:street":"Corfield Street North","name":"Surfside RV Resort","source:addr":"OpenAddresses"}},"1099741173":{"location":[49.3224205,-124.3137201],"ct":"CA","tp":"CR","ts":"2024-07-27T20:28:33Z","tX":158,"tY":350,"tags":{"addr:housenumber":"161","addr:street":"West Island Highway","name":"Pacific Palms RV Resort","phone":"+1 250 586-9933","website":"https://www.pacificpalmsrvresort.com/"}},"6737637586":{"location":[49.2536101,-124.1245545],"ct":"CA","tp":"CS","ts":"2019-08-23T01:32:23Z","tX":158,"tY":350,"tags":{"name":"Snaw Naw As Campground"}}}