{"354861815":{"location":[47.057314,-124.1578084],"ct":"US","tp":"CR","ts":"2024-09-03T02:00:34Z","tX":158,"tY":359,"tags":{"addr:city":"Ocean City","addr:housenumber":"2428","addr:postcode":"98569","addr:street":"State Route 109","name":"Ocean Breeze Resort","phone":"+1-360-289-0628","website":"https://kmresorts.com/ocean-breeze/"}},"354861816":{"location":[47.0696701,-124.1686992],"ct":"US","tp":"CS","ts":"2025-02-11T15:26:36Z","tX":158,"tY":359,"tags":{"access":"customers","addr:city":"Ocean City","addr:housenumber":"17","addr:postcode":"98569","addr:state":"WA","addr:street":"2nd Avenue","camp_site":"serviced","caravans":"yes","fee":"yes","name":"Screamin' Eagle Campground","phone":"+1-855-627-4673","static_caravans":"yes","tents":"yes","website":"https://www.secampground.com/"}},"862320093":{"location":[47.119626,-124.1721708],"ct":"US","tp":"CR","ts":"2024-10-09T23:34:54Z","tX":158,"tY":359,"tags":{"addr:city":"Copalis","addr:housenumber":"3209","addr:postcode":"98535","addr:state":"WA","addr:street":"State Route 109","internet_access":"wlan","name":"Copalis River RV Park","phone":"+1-360-940-7048","power_supply":"yes","sanitary_dump_station":"yes","website":"http://driftwoodrvresort.com/"}},"1299910717":{"location":[47.2055432,-124.2018619],"ct":"US","tp":"CS","ts":"2024-12-10T18:27:21Z","tX":158,"tY":359,"tags":{"access":"permit","addr:city":"Pacific Beach","addr:housenumber":"49","addr:postcode":"98571","addr:state":"WA","addr:street":"2nd Street South","backcountry":"no","caravans":"yes","dog":"leashed","fee":"yes","group_only":"no","name":"Pacific Beach State Park Campground","picnic_table":"yes","power_supply":"yes","reservation":"yes","shower":"yes","static_caravans":"no","tents":"yes","toilets":"yes","website":"https://parks.state.wa.us/557/Pacific-Beach"}},"1302852059":{"location":[47.2174693,-124.2062966],"ct":"US","tp":"CR","ts":"2024-12-10T18:16:42Z","tX":158,"tY":359,"tags":{"name":"Navy Getaways Pacific Beach RV Park","sanitary_dump_station":"yes"}},"1306197622":{"location":[47.2156588,-124.2055151],"ct":"US","tp":"CS","ts":"2024-08-07T15:43:23Z","tX":158,"tY":359,"tags":{}},"1350618598":{"location":[47.1192071,-124.1704389],"ct":"US","tp":"CR","ts":"2025-01-12T09:01:13Z","tX":158,"tY":359,"tags":{"addr:city":"Copalis","addr:housenumber":"3208","addr:postcode":"98535","addr:state":"WA","addr:street":"State Route 109","internet_access":"wlan","internet_access:fee":"customers","name":"Echos of the Sea","power_supply":"yes","sanitary_dump_station":"yes","website":"https://echoescopalis.com/"}},"3605131697":{"location":[47.111768,-124.1767789],"ct":"US","tp":"CR","ts":"2024-09-03T02:00:34Z","tX":158,"tY":359,"tags":{"addr:city":"Copalis","addr:housenumber":"14","addr:postcode":"98535","addr:street":"Heath Road","name":"Copalis Beach Resort","phone":"+1-360-289-4278","website":"https://www.sunriseresorts.com/resort-locations/copalis-beach-resort/"}},"3605131698":{"location":[47.0765499,-124.1675242],"ct":"US","tp":"CR","ts":"2024-09-03T02:00:34Z","tX":158,"tY":359,"tags":{"addr:city":"Ocean City","addr:housenumber":"2701","addr:postcode":"98569","addr:street":"State Route 109","name":"Ocean City RV Resort","phone":"+1-360-289-8297","website":"https://www.secampground.com/"}},"3605131699":{"location":[47.0797332,-124.1690594],"ct":"US","tp":"CR","ts":"2024-09-03T02:00:34Z","tX":158,"tY":359,"tags":{"addr:city":"Ocean City","addr:housenumber":"2733","addr:postcode":"98569","addr:street":"State Route 109","name":"Thousand Trails Oceana RV & Camping Resort","phone":"+1-360-289-3504","website":"https://www.rvonthego.com/washington/oceana-rv-camping-resort/"}},"3605134096":{"location":[47.0589758,-124.1684373],"ct":"US","tp":"CR","ts":"2015-06-19T12:31:34Z","tX":158,"tY":359,"tags":{}},"3605134229":{"location":[47.0837958,-124.1703162],"ct":"US","tp":"CR","ts":"2021-01-31T00:29:19Z","tX":158,"tY":359,"tags":{"name":"Ocean Mist Resort"}},"3605134246":{"location":[47.1027105,-124.1761086],"ct":"US","tp":"CR","ts":"2021-01-31T00:31:52Z","tX":158,"tY":359,"tags":{"name":"Tidelands Resort"}},"12239515669":{"location":[47.2058138,-124.2020133],"ct":"US","tp":"SD","ts":"2024-10-09T19:49:15Z","tX":158,"tY":359,"tags":{}},"12495509472":{"location":[47.119181,-124.170543],"ct":"US","tp":"SD","ts":"2025-01-12T09:01:13Z","tX":158,"tY":359,"tags":{}},"12579175181":{"location":[47.0697878,-124.1688367],"ct":"US","tp":"SD","ts":"2025-02-11T15:26:36Z","tX":158,"tY":359,"tags":{}}}