{"808144853":{"location":[44.1617587,-124.1124085],"ct":"US","tp":"CS","ts":"2024-07-29T04:57:47Z","tX":158,"tY":371,"tags":{"addr:city":"Florence","addr:housenumber":"93107","addr:postcode":"97439","addr:state":"OR","addr:street":"Highway 101","caravans":"yes","drinking_water":"yes","fee":"yes","name":"Carl G Washburne State Park Campground","tents":"yes"}},"1169725292":{"location":[44.158406,-124.1122678],"ct":"US","tp":"CS","ts":"2023-05-07T20:16:29Z","tX":158,"tY":371,"tags":{"dog":"leashed","drinking_water":"yes","fee":"yes","openfire":"yes","toilets":"yes"}},"1363945880":{"location":[44.1854275,-124.1117816],"ct":"US","tp":"CS","ts":"2024-06-04T00:18:51Z","tX":158,"tY":371,"tags":{"addr:city":"Florence","addr:housenumber":"93825","addr:postcode":"97439","addr:state":"OR","addr:street":"Highway 101","caravans":"yes","dog":"yes","internet_access":"no","name":"Rock Creek Campground","operator":"United States Forest Service","tents":"yes","website":"https://www.fs.usda.gov/recarea/siuslaw/recarea/?recid=42425"}},"5950102085":{"location":[44.0877175,-124.1180176],"ct":"US","tp":"CS","ts":"2018-10-02T23:45:18Z","tX":158,"tY":371,"tags":{"name":"Baker Beach Campground"}},"10160079443":{"location":[44.1618095,-124.1123836],"ct":"US","tp":"CS","ts":"2022-11-05T20:30:37Z","tX":158,"tY":371,"tags":{"caravans":"no","charge":"8 USD","fee":"yes","name":"Hiker / Biker Camp","operator":"Carl G. Washburne Memorial State Park","reservation":"no","tents":"yes"}}}