{"36785391":{"location":[43.9035222,-124.1163706],"ct":"US","tp":"CR","ts":"2014-09-25T20:07:15Z","tX":158,"tY":372,"tags":{"parking":"surface"}},"331897951":{"location":[44.0690233,-124.1019491],"ct":"US","tp":"CS","ts":"2019-02-15T21:29:55Z","tX":158,"tY":372,"tags":{"name":"Alder Dune Campground","operator":"United States Forest Service","website":"https://www.fs.usda.gov/recarea/siuslaw/recarea/?recid=42333"}},"331897952":{"location":[43.8576741,-124.1458],"ct":"US","tp":"CS","ts":"2019-02-15T21:29:23Z","tX":158,"tY":372,"tags":{"name":"Carter Lake Campground","operator":"United States Forest Service","website":"https://www.fs.usda.gov/recarea/siuslaw/recarea/?recid=42519"}},"331897953":{"location":[43.8792882,-124.142299],"ct":"US","tp":"CS","ts":"2019-02-15T21:29:24Z","tX":158,"tY":372,"tags":{"name":"Lagoon Campground","operator":"United States Forest Service","website":"https://www.fs.usda.gov/recarea/siuslaw/recarea/?recid=42557"}},"331897957":{"location":[44.0549588,-124.1038379],"ct":"US","tp":"CS","ts":"2019-02-15T21:29:56Z","tX":158,"tY":372,"tags":{"name":"Sutton Campground","operator":"United States Forest Service","website":"https://www.fs.usda.gov/recarea/siuslaw/recarea/?recid=42427"}},"331897958":{"location":[43.883638,-124.1219033],"ct":"US","tp":"CS","ts":"2019-09-04T18:29:16Z","tX":158,"tY":372,"tags":{"name":"Tyee Campground","operator":"U.S. Bureau of Land Management","website":"https://www.blm.gov/visit/tyee-campground"}},"331897959":{"location":[43.875597,-124.1440585],"ct":"US","tp":"CS","ts":"2019-02-15T21:29:25Z","tX":158,"tY":372,"tags":{"name":"Waxmyrtle Campground","operator":"United States Forest Service","website":"https://www.fs.usda.gov/recarea/siuslaw/recarea/?recid=42563"}},"377661992":{"location":[43.8808583,-124.1483415],"ct":"US","tp":"CS","ts":"2019-02-22T08:13:55Z","tX":158,"tY":372,"tags":{"capacity":"104","fee":"yes","name":"Driftwood II","operator":"United States Forest Service","phone":"(541)271-6000","website":"https://www.recreation.gov/camping/driftwood/r/campgroundDetails.do?contractCode=NRSO&parkId=70452","wheelchair":"limited"}},"718977601":{"location":[43.9533805,-124.1154618],"ct":"US","tp":"CR","ts":"2019-08-27T16:23:28Z","tX":158,"tY":372,"tags":{"access":"private","name":"Jesse T. Jones Oddfellow Park","note":"boundary is approximate","operator":"Independent Order of the Odd Fellows"}},"755351650":{"location":[44.0151858,-124.125212],"ct":"US","tp":"CS","ts":"2024-06-27T19:59:49Z","tX":158,"tY":372,"tags":{"addr:city":"Florence","addr:housenumber":"87658","addr:postcode":"97439","addr:state":"OR","addr:street":"Harbor Vista Road","dog":"yes","ele":"19","gnis:feature_id":"1162577","leisure":"park","name":"Harbor Vista Campground","operator":"Lane County Parks","phone":"+1 541 9975987"}},"1908437780":{"location":[43.8942046,-124.1097432],"ct":"US","tp":"CS","ts":"2012-09-10T14:20:13Z","tX":158,"tY":372,"tags":{"name":"Darling's RV Resort"}},"3954505508":{"location":[43.9286933,-124.1100461],"ct":"US","tp":"SD","ts":"2016-01-19T03:21:45Z","tX":158,"tY":372,"tags":{"fee":"no","name":"RV Dump Station"}},"3954505510":{"location":[43.9257872,-124.1117581],"ct":"US","tp":"CS","ts":"2024-03-29T22:20:20Z","tX":158,"tY":372,"tags":{"addr:city":"Florence","addr:housenumber":"84505","addr:postcode":"97439","addr:state":"OR","addr:street":"Hwy 101","capacity":"365","caravans":"yes","fee":"yes","name":"Honeyman State Park Campground","operator":"Oregon Parks and Recreation Department","tents":"yes"}},"5470293022":{"location":[44.0327626,-124.1273467],"ct":"US","tp":"CS","ts":"2023-07-28T03:48:14Z","tX":158,"tY":372,"tags":{"addr:housenumber":"4636","addr:street":"Heceta Beach Road","caravans":"yes","drinking_water":"yes","name":"Heceta Beach RV Park","power_supply":"yes","shower":"yes","tents":"no","toilets":"yes","website":"http://www.hecetabeachrvpark.com"}},"10164854916":{"location":[43.9264343,-124.111102],"ct":"US","tp":"CS","ts":"2022-11-07T06:31:04Z","tX":158,"tY":372,"tags":{"capacity":"4","caravans":"no","charge":"8 USD","fee":"yes","internet_access":"no","name":"Hiker / Biker Camp","operator":"Jesse M. Honeyman Memorial State Park","reservation":"no","tents":"yes","wheelchair":"no"}},"4886779230":{"location":[43.9085682,-124.1120193],"ct":"US","tp":"CR","ts":"2017-05-31T02:45:19Z","tX":158,"tY":372,"tags":{"fee":"yes","name":"Lakeshore RV Park","power_supply":"yes"}}}