{"311174529":{"location":[43.6734957,-124.1599665],"ct":"US","tp":"CR","ts":"2014-11-04T22:27:09Z","tX":158,"tY":373,"tags":{}},"311174531":{"location":[43.6742232,-124.1725783],"ct":"US","tp":"CR","ts":"2019-08-28T19:23:23Z","tX":158,"tY":373,"tags":{"fee":"yes","name":"Salmon Harbor RV Park"}},"311310728":{"location":[43.5959347,-124.1795287],"ct":"US","tp":"CR","ts":"2014-11-05T20:20:32Z","tX":158,"tY":373,"tags":{}},"332561181":{"location":[43.5882423,-124.1870293],"ct":"US","tp":"CS","ts":"2024-08-14T02:06:19Z","tX":158,"tY":373,"tags":{"caravans":"yes","name":"Eel Creek Campground","operator":"United States Forest Service","tents":"yes","website":"https://www.fs.usda.gov/recarea/siuslaw/recarea/?recid=42599"}},"332561182":{"location":[43.7961181,-124.1493325],"ct":"US","tp":"CS","ts":"2019-02-15T22:25:05Z","tX":158,"tY":373,"tags":{"name":"Tahkenitch Campground","operator":"United States Forest Service","website":"https://www.fs.usda.gov/recarea/siuslaw/recarea/?recid=42573"}},"420028549":{"location":[43.6806568,-124.1817737],"ct":"US","tp":"CR","ts":"2020-11-15T11:33:15Z","tX":158,"tY":373,"tags":{"name":"Camping C","source:date":"2018-07-21","source_ref":"http://www.salmonharbormarina.com/marinamap.asp","website":"http://www.salmonharbormarina.com/"}},"420028553":{"location":[43.6781962,-124.1814129],"ct":"US","tp":"CR","ts":"2020-11-15T11:33:15Z","tX":158,"tY":373,"tags":{"name":"Camping D","source:date":"2018-07-21","source_ref":"http://www.salmonharbormarina.com/marinamap.asp","website":"http://www.salmonharbormarina.com/"}},"464022567":{"location":[43.6972153,-124.1114092],"ct":"US","tp":"CR","ts":"2017-01-06T04:22:32Z","tX":158,"tY":373,"tags":{"name":"Coho RV Park"}},"481476859":{"location":[43.6638717,-124.2024149],"ct":"US","tp":"CR","ts":"2019-08-28T19:23:23Z","tX":158,"tY":373,"tags":{"fee":"yes","name":"Half Moon Bay Campground","operator":"Douglas County Parks Department"}},"719460280":{"location":[43.6605256,-124.1929749],"ct":"US","tp":"CS","ts":"2021-03-21T22:09:42Z","tX":158,"tY":373,"tags":{"access":"yes","capacity":"48","fee":"yes","name":"Umpqua Lighthouse Campground","note":"boundary is approximate","operator":"Oregon Parks and Recreation Department"}},"719460289":{"location":[43.8008016,-124.146507],"ct":"US","tp":"CR","ts":"2019-08-28T19:23:23Z","tX":158,"tY":373,"tags":{"fee":"yes","name":"Tahkenitch Landing Campground","note":"boundary is approximate"}},"719460319":{"location":[43.6670838,-124.1968507],"ct":"US","tp":"CR","ts":"2021-05-29T11:22:35Z","tX":158,"tY":373,"tags":{"name":"Umpqua Dunes Campground"}},"871770861":{"location":[43.6792644,-124.1852253],"ct":"US","tp":"CR","ts":"2020-11-15T02:13:05Z","tX":158,"tY":373,"tags":{"addr:city":"Winchester Bay","addr:housenumber":"120","addr:postcode":"97467","addr:state":"OR","addr:street":"Marina Way","website":"https://www.winchesterbayresort.com/"}},"871850493":{"location":[43.6817272,-124.1805049],"ct":"US","tp":"CR","ts":"2020-11-15T11:33:15Z","tX":158,"tY":373,"tags":{"name":"Camping G","source:date":"2018-07-21","source_ref":"http://www.salmonharbormarina.com/marinamap.asp","website":"http://www.salmonharbormarina.com/"}},"871850494":{"location":[43.6795439,-124.1801941],"ct":"US","tp":"CR","ts":"2020-11-15T11:33:15Z","tX":158,"tY":373,"tags":{"name":"Camping F","source:date":"2018-07-21","source_ref":"http://www.salmonharbormarina.com/marinamap.asp","website":"http://www.salmonharbormarina.com/"}},"871850495":{"location":[43.6772987,-124.1797963],"ct":"US","tp":"CR","ts":"2020-11-15T11:49:20Z","tX":158,"tY":373,"tags":{"name":"Camping E","source:date":"2018-07-21","source_ref":"http://www.salmonharbormarina.com/marinamap.asp","website":"http://www.salmonharbormarina.com/"}},"3169157042":{"location":[43.5964883,-124.1806096],"ct":"US","tp":"CR","ts":"2014-11-05T20:20:13Z","tX":158,"tY":373,"tags":{}},"11032248061":{"location":[43.6610457,-124.1939628],"ct":"US","tp":"CS","ts":"2023-09-15T17:34:03Z","tX":158,"tY":373,"tags":{"fee":"yes","name":"Hiker/Biker","operator":"Umpqua Lighthouse State Park","tents":"yes"}},"11032269649":{"location":[43.6007372,-124.1782736],"ct":"US","tp":"CS","ts":"2024-08-05T23:12:19Z","tX":158,"tY":373,"tags":{"fee":"yes","name":"Hiker/Biker","operator":"William M. Tugman State Park","tents":"yes"}},"5930634338":{"location":[43.6804882,-124.1744017],"ct":"US","tp":"CR","ts":"2023-10-01T18:25:36Z","tX":158,"tY":373,"tags":{"addr:city":"Winchester Bay","addr:housenumber":"105","addr:postcode":"97467","addr:state":"OR","addr:street":"Beach Boulevard","contact:facebook":"https://www.facebook.com/WinchesterBayOr/","name":"Fisherman's RV Park","opening_hours":"Mo-Th 09:00-17:00; Fr-Sa 11:00-19:00","payment:cash":"yes","payment:cheque":"yes","phone":"+1-541-271-3536","website":"https://fishermansrvpark.com/"}}}