{"493752237":{"location":[-33.6837529,-59.6444574],"ct":"AR","tp":"CS","ts":"2020-05-18T08:01:33Z","tX":342,"tY":613,"tags":{"addr:city":"San Pedro","addr:housenumber":"700","addr:postcode":"2930","addr:street":"Avenida España","fee":"yes","internet_access":"no","name":"Club de pescadores y náutica de San Pedro"}},"1376353951":{"location":[-33.6685161,-59.6686582],"ct":"AR","tp":"CS","ts":"2020-07-18T16:28:36Z","tX":342,"tY":613,"tags":{"name":"ACTUR"}},"1376353952":{"location":[-33.6685919,-59.6694773],"ct":"AR","tp":"CS","ts":"2013-05-13T14:08:25Z","tX":342,"tY":613,"tags":{"contact:phone":"54 03329 421155","contact:website":"http://www.campingamerica.com.ar/","name":"Camping América"}},"1376353953":{"location":[-33.6678784,-59.673875],"ct":"AR","tp":"CS","ts":"2011-07-27T23:13:32Z","tX":342,"tY":613,"tags":{"name":"Las Canaletas"}},"1376354083":{"location":[-33.6772375,-59.6541516],"ct":"AR","tp":"CS","ts":"2015-12-20T18:58:17Z","tX":342,"tY":613,"tags":{"addr:city":"San Pedro","addr:country":"AR","addr:housenumber":"700","addr:postcode":"B2930","addr:street":"Avenida España","contact:email":"pescadoressp@redsp.com.ar","contact:phone":"54 03329 424383","name":"Camping Club de Pescadores y Náutica de San Pedro","operator":"Club de Pescadores y Náutica de San Pedro"}},"1376354572":{"location":[-33.6778072,-59.6546275],"ct":"AR","tp":"CS","ts":"2015-12-20T19:08:18Z","tX":342,"tY":613,"tags":{"addr:city":"San Pedro","addr:country":"AR","addr:housenumber":"965","addr:street":"Avenida España","contact:website":"http://www.tfederal.com.ar","name":"Tiro Federal"}},"1376354587":{"location":[-33.6804228,-59.6501656],"ct":"AR","tp":"CS","ts":"2013-05-15T01:00:42Z","tX":342,"tY":613,"tags":{"alt_name":"Mansa LYFE","contact:email":"info@cabaniasdesanpedro.com.ar","contact:website":"http://www.cabaniasdesanpedro.com.ar","name":"Complejo Mansa L.y.F.E. Cabañas de San Pedro"}},"2302454077":{"location":[-33.6702779,-59.6658453],"ct":"AR","tp":"CS","ts":"2013-05-13T14:08:23Z","tX":342,"tY":613,"tags":{"contact:phone":"54 03329 15623780","name":"Camping Las Cuevas","source":"http://sanpedro.gov.ar/turismo/?p=1419#more-1419"}},"5274054124":{"location":[-33.6900086,-59.7279228],"ct":"AR","tp":"CS","ts":"2017-12-09T19:57:48Z","tX":342,"tY":613,"tags":{"name":"Santa María"}}}