{"65134358":{"location":[54.9981469,-1.4154769],"ct":"GB","tp":"CR","ts":"2019-07-19T11:29:30Z","tX":507,"tY":323,"tags":{"addr:city":"South Shields","addr:postcode":"NE33 2NL","addr:street":"Bents Park Road","name":"Sandhaven Caravan Site","phone":"+44 1670 860256","tents":"no","website":"http://www.northumbrianleisure.co.uk/sandhaven-holiday-park/"}},"90149762":{"location":[55.155289,-1.5786852],"ct":"GB","tp":"CR","ts":"2010-12-18T14:54:01Z","tX":507,"tY":323,"tags":{}},"102255231":{"location":[55.0758693,-1.4639408],"ct":"GB","tp":"CR","ts":"2024-02-28T09:57:57Z","tX":507,"tY":323,"tags":{"addr:city":"Whitley Bay","addr:postcode":"NE26 4RL","caravans":"yes","motorhome_stopover":"yes","name":"Old Hartley Caravan Club","tents":"no","website":"https://www.caravanclub.co.uk/club-sites/england/north-east-england/tyne--wear/old-hartley-caravan-club-site/"}},"854873772":{"location":[55.1706162,-1.5976857],"ct":"GB","tp":"CR","ts":"2021-07-19T18:46:49Z","tX":507,"tY":323,"tags":{}},"918912164":{"location":[55.1703657,-1.5974104],"ct":"GB","tp":"CR","ts":"2020-08-08T18:43:41Z","tX":507,"tY":323,"tags":{"note":"Doesn't take tents.","source":"local_knowledge;https://www.ukcampsite.co.uk/sites/details.asp?revid=2171"}},"1316595584":{"location":[55.1422283,-1.7211375],"ct":"GB","tp":"CS","ts":"2024-09-28T17:22:50Z","tX":507,"tY":323,"tags":{"name":"Tranwell Farm Camp Site"}},"12206467310":{"location":[55.1426753,-1.7204623],"ct":"GB","tp":"SD","ts":"2024-09-28T06:21:19Z","tX":507,"tY":323,"tags":{"access":"customers"}}}