{"248250851":{"location":[54.7770684,-1.6054574],"ct":"GB","tp":"CS","ts":"2022-11-13T16:57:54Z","tX":507,"tY":324,"tags":{"access":"private","note":"Status of area unclear. Distinct from Cavaran Club site opposite."}},"252846881":{"location":[54.8834949,-1.6413322],"ct":"GB","tp":"CR","ts":"2024-07-31T20:23:12Z","tX":507,"tY":324,"tags":{"addr:city":"Stanley","addr:postcode":"DH9 0RY","addr:suburb":"Beamish","fhrs:id":"339306","name":"Bobby Shafto Caravan Park","phone":"+44 191 370 1776","website":"https://beamishholidaypark.co.uk/"}},"295270500":{"location":[54.9221135,-1.73755],"ct":"GB","tp":"CS","ts":"2022-07-25T14:16:23Z","tX":507,"tY":324,"tags":{"addr:city":"Rowlands Gill","addr:postcode":"NE39 1LG","addr:street":"Burnopfield Road","caravans":"yes","name":"Derwent Caravan Park"}},"442209874":{"location":[54.8987647,-1.6087255],"ct":"GB","tp":"CR","ts":"2019-10-29T22:15:24Z","tX":507,"tY":324,"tags":{"name":"Bewicke Main Residential Caravan Park","residential":"yes"}},"793613633":{"location":[54.8172932,-1.5414257],"ct":"GB","tp":"CR","ts":"2021-10-27T09:53:56Z","tX":507,"tY":324,"tags":{"addr:city":"Durham","addr:postcode":"DH1 5FY","capacity":"47","name":"Finchale Abbey Touring Park","website":"https://www.finchaleabbey.co.uk/touring-park"}},"889220020":{"location":[54.8778922,-1.5831645],"ct":"GB","tp":"CR","ts":"2023-01-31T18:59:46Z","tX":507,"tY":324,"tags":{"addr:city":"Chester-le-Street","addr:street":"Drum Lane","addr:town":"Birtley","capacity":"10","name":"Plum Tree Park","tents":"no"}},"923127857":{"location":[54.8060047,-1.5156991],"ct":"GB","tp":"CS","ts":"2021-03-28T16:02:28Z","tX":507,"tY":324,"tags":{"group_only":"yes","operator":"Moor House Adventure Centre","scout":"yes"}},"965427847":{"location":[54.7996052,-1.6156323],"ct":"GB","tp":"CR","ts":"2022-05-21T19:58:10Z","tX":507,"tY":324,"tags":{"club":"yes","name":"The Bungalow","website":"https://www.caravanclub.co.uk/certificated-locations/england/county-durham/durham/the-bungalow/"}},"990180844":{"location":[54.8500362,-1.4789858],"ct":"GB","tp":"CR","ts":"2024-10-25T20:58:19Z","tX":507,"tY":324,"tags":{"name":"Showmen's Guild Site - Sunnyside Farm"}},"1019250250":{"location":[54.817235,-1.6500347],"ct":"GB","tp":"CR","ts":"2022-01-07T22:14:52Z","tX":507,"tY":324,"tags":{"name":"Old Bridge End","operator":"Caravan and Motorhome Club","reservation":"members_only","website":"https://www.caravanclub.co.uk/certificated-locations/england/county-durham/durham/old-bridge-end/"}},"1087387312":{"location":[54.824068,-1.518375],"ct":"GB","tp":"CR","ts":"2022-08-19T04:08:47Z","tX":507,"tY":324,"tags":{"addr:street":"Pit House Lane","name":"The Stables"}},"1110128374":{"location":[54.786327,-1.4323828],"ct":"GB","tp":"CS","ts":"2023-11-28T17:07:08Z","tX":507,"tY":324,"tags":{"addr:city":"Durham","addr:postcode":"DH6 2AA","addr:street":"Green Lane","name":"Colliery Farm Campsite","phone":"+44 7770 440 257","website":"https://www.campingandcaravanningclub.co.uk/campsites/uk/county-durham/haswell/collieryfarm/"}},"1112732660":{"location":[54.7759207,-1.6044379],"ct":"GB","tp":"CR","ts":"2025-04-14T11:40:33Z","tX":507,"tY":324,"tags":{"addr:city":"Durham","addr:postcode":"DH1 4TG","capacity":"5","caravan_club_rating":"5","drinking_water":"no","fee":"no","name":"Baxter Wood Farm Caravan Site","power_supply":"no","sanitary_dump_station":"no","source:postcode":"CodePoint Open","tents":"no","toilets":"no","website":"https://www.caravanclub.co.uk/certificated-locations/england/county-durham/durham/baxter-wood-farm/"}},"1113159067":{"location":[54.7959941,-1.530807],"ct":"GB","tp":"CR","ts":"2022-11-14T21:13:13Z","tX":507,"tY":324,"tags":{"addr:city":"Durham","addr:postcode":"DH1 1TL","ele":"81.6","fhrs:id":"1030060","name":"Durham Grange","operator":"Caravan and Motorhome Club","website":"https://www.caravanclub.co.uk/club-sites/england/north-east-england/county-durham/durham-grange-caravan-club-site/"}},"8199304531":{"location":[54.8049116,-1.7137384],"ct":"GB","tp":"CS","ts":"2020-12-06T17:17:04Z","tX":507,"tY":324,"tags":{"name":"Forrest Valley View","operator":"Biggen Farm","sanitary_dump_station":"no","tents":"yes"}},"9230911921":{"location":[54.8426328,-1.730372],"ct":"GB","tp":"CS","ts":"2021-11-06T18:20:40Z","tX":507,"tY":324,"tags":{"name":"The Granary Camping and Caravanning","tents":"no"}}}