{"116344716":{"location":[54.7224628,-1.5616104],"ct":"GB","tp":"CR","ts":"2023-11-28T17:11:03Z","tX":507,"tY":325,"tags":{"addr:city":"Durham","addr:postcode":"DH6 5LW","capacity":"5","name":"Grove Farm caravan site","website":"https://www.caravanclub.co.uk/certificated-locations/england/county-durham/durham/grove-farm/"}},"255044826":{"location":[54.6549433,-1.4319516],"ct":"GB","tp":"CR","ts":"2024-03-19T20:04:47Z","tX":507,"tY":325,"tags":{"addr:city":"Stockton-on-Tees","addr:country":"GB","addr:postcode":"TS21 3FP","addr:suburb":"Sedgefield","name":"Donnewell Farm Campsite","source:postcode":"website","website":"https://www.donnewell.co.uk/"}},"269364020":{"location":[54.7530825,-1.4708382],"ct":"GB","tp":"CR","ts":"2023-11-28T17:11:03Z","tX":507,"tY":325,"tags":{"addr:city":"Durham","addr:postcode":"DH6 4QA","capacity":"50","fhrs:id":"1044405","name":"Strawberry Hill Caravan and Camping Park","tents":"yes","url":"http://www.strawberry-hill-farm.co.uk/"}},"849599752":{"location":[54.7732801,-1.5576881],"ct":"GB","tp":"CS","ts":"2021-05-29T12:30:05Z","tX":507,"tY":325,"tags":{"operator":"Durham Amateur Rowing Club","website":"https://www.durham-arc.org.uk/cl-site/"}},"889220026":{"location":[54.5980096,-1.6906245],"ct":"GB","tp":"CR","ts":"2022-10-24T18:29:08Z","tX":507,"tY":325,"tags":{"capacity":"20","name":"Country View Caravan & Camping Site","tents":"yes","website":"https://thecountrymanbolam.co.uk/page/caravan-camping"}},"890353232":{"location":[54.7253506,-1.4367892],"ct":"GB","tp":"CR","ts":"2023-11-28T17:11:03Z","tX":507,"tY":325,"tags":{"addr:city":"Durham","addr:postcode":"DH6 4PJ","capacity":"29","name":"Woodside Ridge Caravan Park","tents":"yes","website":"http://www.woodsideridge.co.uk/"}},"890960734":{"location":[54.6099303,-1.541145],"ct":"GB","tp":"CR","ts":"2023-11-05T23:40:12Z","tX":507,"tY":325,"tags":{"addr:city":"Newton Aycliffe","addr:postcode":"DL5 6JH","addr:street":"Preston Lane","capacity":"20","name":"Hammer & Pincers Caravan and Campsite","tents":"yes","website":"https://www.thehammers.co/caravan-and-campsite/"}},"1109780225":{"location":[54.6491912,-1.6373253],"ct":"GB","tp":"CS","ts":"2022-11-02T22:21:10Z","tX":507,"tY":325,"tags":{"name":"Gurney Valley Traveller stop over area","operator":"Durham County Council"}},"1110128371":{"location":[54.6608507,-1.4298534],"ct":"GB","tp":"CS","ts":"2023-09-12T14:54:44Z","tX":507,"tY":325,"tags":{"addr:city":"Stockton-on-Tees","addr:postcode":"TS21 3EL","name":"Todd's House Farm Campsite","operator":"Todd's House Farm","website":"https://www.toddshousefarm.com/caravan-site/"}},"1136833525":{"location":[54.6270977,-1.6038135],"ct":"GB","tp":"CR","ts":"2023-01-31T21:41:33Z","tX":507,"tY":325,"tags":{"capacity":"5","name":"Middridge Meadows","tents":"no","website":"http://www.middridgemeadows.co.uk/index.html"}}}