{"75474349":{"location":[54.0160003,-1.5124471],"ct":"GB","tp":"CR","ts":"2021-11-07T20:49:36Z","tX":507,"tY":328,"tags":{"name":"Bilton Caravan Park","source":"OS_OpenData_StreetView"}},"94957373":{"location":[54.000615,-1.6286002],"ct":"GB","tp":"CS","ts":"2021-11-08T22:12:19Z","tX":507,"tY":328,"tags":{"addr:city":"Harrogate","addr:postcode":"HG3 2LT","addr:street":"Skipton Road","name":"High Moor Farm Park","source":"Bing","website":"http://www.highmoorfarmpark.co.uk/"}},"94957397":{"location":[54.0001451,-1.633337],"ct":"GB","tp":"CR","ts":"2021-11-08T22:12:19Z","tX":507,"tY":328,"tags":{"addr:city":"Harrogate","addr:postcode":"HG3 2LT","addr:street":"Skipton Road","name":"High Moor Farm Park","source":"Bing","website":"http://www.highmoorfarmpark.co.uk/"}},"95456745":{"location":[54.0381146,-1.5577365],"ct":"GB","tp":"CR","ts":"2017-11-08T14:47:17Z","tX":507,"tY":328,"tags":{"name":"Ripley Caravan Park"}},"96300688":{"location":[54.0311466,-1.6570038],"ct":"GB","tp":"CR","ts":"2022-04-20T10:12:38Z","tX":507,"tY":328,"tags":{"name":"Reynard Crag Park"}},"116370839":{"location":[53.9955226,-1.5060009],"ct":"GB","tp":"CR","ts":"2021-11-02T14:53:32Z","tX":507,"tY":328,"tags":{"access":"private","name":"Shaw's Trailer Park"}},"136553152":{"location":[54.0882248,-1.4295104],"ct":"GB","tp":"CR","ts":"2024-06-03T21:40:06Z","tX":507,"tY":328,"tags":{"addr:city":"York","addr:country":"GB","addr:postcode":"YO51 9LY","addr:suburb":"Boroughbridge","name":"Roecliffe Park","source":"Bing"}},"152853247":{"location":[54.0896439,-1.4157841],"ct":"GB","tp":"CR","ts":"2024-09-15T12:59:53Z","tX":507,"tY":328,"tags":{"addr:city":"York","addr:country":"GB","addr:postcode":"YO51 9LS","addr:street":"Bar Lane","addr:suburb":"Boroughbridge","name":"Boroughbridge Camping And Caravanning Club Site","source":"Bing"}},"152853248":{"location":[54.0913779,-1.4108609],"ct":"GB","tp":"CR","ts":"2024-06-03T21:40:06Z","tX":507,"tY":328,"tags":{"addr:city":"York","addr:country":"GB","addr:postcode":"YO51 9LS","addr:street":"Bar Lane","addr:suburb":"Boroughbridge","name":"Headlands Caravan Park","source":"Bing"}},"179172861":{"location":[54.0356348,-1.4865975],"ct":"GB","tp":"CR","ts":"2024-08-26T16:23:29Z","tX":507,"tY":328,"tags":{"name":"Kingfisher Holiday Park Knaresborough","website":"https://www.kingfisher-caravanpark.co.uk/"}},"201858264":{"location":[54.1520302,-1.5143479],"ct":"GB","tp":"CR","ts":"2023-07-30T11:06:01Z","tX":507,"tY":328,"tags":{"addr:city":"Ripon","addr:postcode":"HG4 1JD","addr:street":"Ure Bank Top","addr:suburb":"Hutton Conyers","name":"Riverside Meadows Country Caravan Park","source":"ACSI"}},"223186904":{"location":[54.0876817,-1.4993159],"ct":"GB","tp":"CS","ts":"2022-01-30T20:18:27Z","tX":507,"tY":328,"tags":{"name":"Church Farm Caravan Park"}},"263775891":{"location":[54.0384316,-1.6896435],"ct":"GB","tp":"CR","ts":"2023-07-30T10:47:48Z","tX":507,"tY":328,"tags":{"addr:city":"Harrogate","addr:housename":"Manor House Farm","addr:postcode":"HG3 4JS","addr:suburb":"Summerbridge","name":"Manor House Farm Camping & caravan Park","source":"Bing;website","tents":"yes","website":"http://www.manorhousecaravans.co.uk/"}},"280644512":{"location":[54.0832903,-1.6527117],"ct":"GB","tp":"CR","ts":"2014-05-16T13:24:09Z","tX":507,"tY":328,"tags":{"name":"Warren"}},"282272537":{"location":[54.0915755,-1.6951613],"ct":"GB","tp":"CR","ts":"2022-06-15T20:30:11Z","tX":507,"tY":328,"tags":{"caravans":"no","name":"Fellbeck Caravan Park","operator":"Blazefield Caravans","static_caravans":"yes","tents":"no","website":"https://blazefield.co.uk/"}},"284520534":{"location":[54.1328281,-1.5468097],"ct":"GB","tp":"CR","ts":"2019-04-28T20:32:45Z","tX":507,"tY":328,"tags":{"name":"River Laver Holiday Park Ltd."}},"332603086":{"location":[54.1276816,-1.5068871],"ct":"GB","tp":"CR","ts":"2024-12-09T09:16:50Z","tX":507,"tY":328,"tags":{"addr:city":"Ripon","addr:country":"GB","addr:postcode":"HG4 1TZ","name":"Ripon - Lockside Caravan Site","website":"https://www.campingandcaravanningclub.co.uk/campsites/uk/north-yorkshire/ripon/locksidecaravansite/"}},"389565200":{"location":[54.0061874,-1.4418016],"ct":"GB","tp":"CR","ts":"2024-03-15T21:17:38Z","tX":507,"tY":328,"tags":{"addr:city":"Knaresborough","addr:country":"GB","addr:postcode":"HG5 0TY","name":"Nidderdale Lodge Park","static_caravans":"only","website":"https://nidderdalelodgepark.co.uk/"}},"423614490":{"location":[54.070632,-1.5955259],"ct":"GB","tp":"CR","ts":"2025-04-08T18:22:35Z","tX":507,"tY":328,"tags":{"name":"Chequers Lodge Caravan Park"}},"438978597":{"location":[53.9722577,-1.4962892],"ct":"GB","tp":"CS","ts":"2016-08-25T10:13:48Z","tX":507,"tY":328,"tags":{"name":"Rudding Holiday Park"}},"474553163":{"location":[54.1397602,-1.6319725],"ct":"GB","tp":"CR","ts":"2017-02-14T08:16:12Z","tX":507,"tY":328,"tags":{}},"474813714":{"location":[54.0857271,-1.7333875],"ct":"GB","tp":"CR","ts":"2019-03-29T13:50:10Z","tX":507,"tY":328,"tags":{}},"680965977":{"location":[54.0588644,-1.6726526],"ct":"GB","tp":"CR","ts":"2023-08-27T16:03:09Z","tX":507,"tY":328,"tags":{}},"971569806":{"location":[54.0790581,-1.5606086],"ct":"GB","tp":"CR","ts":"2024-04-29T20:02:59Z","tX":507,"tY":328,"tags":{}},"992255359":{"location":[54.0230912,-1.5005214],"ct":"GB","tp":"CR","ts":"2024-03-09T20:14:28Z","tX":507,"tY":328,"tags":{"caravans":"yes","motorhomes":"yes","name":"Knaresborough Caravan Club Site","tents":"no"}},"1000833994":{"location":[54.0229185,-1.5010455],"ct":"GB","tp":"CR","ts":"2021-11-09T15:13:00Z","tX":507,"tY":328,"tags":{}},"1012127005":{"location":[53.9988207,-1.5989872],"ct":"GB","tp":"CR","ts":"2024-09-25T07:29:24Z","tX":507,"tY":328,"tags":{"name":"Pinemoor Caravan Park"}},"1165123622":{"location":[54.1449389,-1.5624603],"ct":"GB","tp":"CS","ts":"2023-05-02T14:38:34Z","tX":507,"tY":328,"tags":{"name":"Clotherholme Farm Campsite"}},"1182262959":{"location":[53.9967659,-1.447748],"ct":"GB","tp":"CR","ts":"2023-10-24T05:40:43Z","tX":507,"tY":328,"tags":{"addr:city":"Knaresborough","addr:postcode":"HG5 8LR","addr:street":"Wetherby Road","name":"Lido Leisure Park","website":"https://meridianparks.co.uk/"}},"1315043213":{"location":[54.109213,-1.4091174],"ct":"GB","tp":"CR","ts":"2024-09-12T09:50:03Z","tX":507,"tY":328,"tags":{"addr:city":"Kirby Hill","addr:postcode":"YO51 9DS","addr:street":"Leeming Lane","name":"Bluebell Caravan Park"}},"1789141395":{"location":[54.0797993,-1.562228],"ct":"GB","tp":"CS","ts":"2021-08-09T08:28:46Z","tX":507,"tY":328,"tags":{"name":"The Yorkshire Hussar Inn","source":"ACSI"}},"1789141563":{"location":[54.1385363,-1.6308158],"ct":"GB","tp":"CS","ts":"2017-02-14T08:16:12Z","tX":507,"tY":328,"tags":{"name":"Woodhouse Farm","source":"ACSI"}},"9801405284":{"location":[54.0823228,-1.5589547],"ct":"GB","tp":"CS","ts":"2022-06-07T11:14:06Z","tX":507,"tY":328,"tags":{"access":"customers","addr:city":"Harrogate","addr:housename":"Markington Hall","addr:postcode":"HG3 3PQ","cabins":"yes","name":"Copper Beech Glade","operator":"Markington Hall","shower":"yes","static_caravans":"yes","toilets":"yes"}},"8818408003":{"location":[54.007412,-1.5918586],"ct":"GB","tp":"CR","ts":"2021-06-09T16:49:51Z","tX":507,"tY":328,"tags":{"addr:city":"Harrogate","addr:housename":"Dyke Bottom Farm","addr:postcode":"HG3 2BT","addr:street":"Skipton Road","capacity":"5","description":"UK Caravan & Motorhome Club certificated location. CAMC members only. 5 caravan max.","name":"Dyke Bottom Farm CAMC Certificated Location","power_supply":"yes","sanitary_dump_station":"yes"}},"9434507506":{"location":[54.0112335,-1.5929363],"ct":"GB","tp":"CR","ts":"2022-01-20T19:04:23Z","tX":507,"tY":328,"tags":{}},"12175168605":{"location":[54.0897137,-1.4136371],"ct":"GB","tp":"SD","ts":"2024-09-14T09:33:15Z","tX":507,"tY":328,"tags":{"access":"customers"}}}