{"124729633":{"location":[53.3788664,-1.5637295],"ct":"GB","tp":"CS","ts":"2025-02-24T16:16:39Z","tX":507,"tY":331,"tags":{"email":"c-dyson1@sky.com","name":"Fox Hagg Farm Camp Site","phone":"+44 1142 305776","shower":"yes","toilets":"yes","website":"https://foxhaggfarmcampsite.uk/"}},"221952069":{"location":[53.4284285,-1.614287],"ct":"GB","tp":"CS","ts":"2018-05-13T07:27:02Z","tX":507,"tY":331,"tags":{"camp_site":"basic","impromptu":"no","name":"Cotton Star Camping"}},"230907868":{"location":[53.3454977,-1.7353366],"ct":"GB","tp":"CS","ts":"2023-10-14T16:36:10Z","tX":507,"tY":331,"tags":{"name":"Laneside Caravan Park","source":"ACSI"}},"232524531":{"location":[53.3402986,-1.691003],"ct":"GB","tp":"CS","ts":"2025-02-25T16:50:51Z","tX":507,"tY":331,"tags":{"name":"Swallowholme Camping and Caravaning Park"}},"272698747":{"location":[53.5391231,-1.5961429],"ct":"GB","tp":"CS","ts":"2023-05-15T09:52:44Z","tX":507,"tY":331,"tags":{"access":"customers","addr:city":"Sheffield","addr:postcode":"S36 7HA","addr:street":"Barnsley Road","addr:suburb":"Hoylandswaine","caravans":"yes","fee":"yes","name":"Woodland View Caravan Site","static_caravans":"no","tents":"yes"}},"276084792":{"location":[53.5089126,-1.6782967],"ct":"GB","tp":"CS","ts":"2016-06-11T17:11:16Z","tX":507,"tY":331,"tags":{"name":"Paw Hill Caravan Park"}},"276264702":{"location":[53.524958,-1.7352275],"ct":"GB","tp":"CS","ts":"2023-05-10T15:14:18Z","tX":507,"tY":331,"tags":{"name":"Thurlmoor Farm Camping & Caravan Site","website":"https://www.ukcampsite.co.uk/sites/details.asp?revid=11801"}},"280858407":{"location":[53.5129362,-1.5026279],"ct":"GB","tp":"CS","ts":"2025-03-15T14:41:40Z","tX":507,"tY":331,"tags":{"addr:city":"Barnsley","addr:parentstreet":"Rockley Lane","addr:postcode":"S75 3DS","addr:street":"Rockley Abbey Farm","addr:suburb":"Worsbrough","caravans":"yes","internet_access":"no","name":"Greensprings Touring Park","phone":"+44 1226 288298","ref:GB:uprn":"10032789615","tents":"yes","website":"https://www.ukparks.com/park_details_top.asp?parkid=2822"}},"398461311":{"location":[53.3451739,-1.6479288],"ct":"GB","tp":"CS","ts":"2021-07-25T19:52:40Z","tX":507,"tY":331,"tags":{"addr:city":"Hathersage","addr:street":"Birley Lane","email":"northlees.campsite@peakdistrict.gov.uk","fee":"yes","name":"North Lees Campsite","operator":"The Peak District National Park Authority","phone":"+44 1433 650838","shower":"yes","source":"Bing","tents":"yes","website":"https://www.peakdistrict.gov.uk/visiting/getactive/camping/camping-northlees","wheelchair":"yes"}},"420057782":{"location":[53.3677592,-1.5954613],"ct":"GB","tp":"CS","ts":"2023-03-19T19:35:33Z","tX":507,"tY":331,"tags":{"addr:city":"Sheffield","addr:housename":"Wyming Brook Farm","addr:postcode":"S10 4QX","addr:street":"Soughley Lane","caravans":"yes","name":"Wyming Brook Farm Certificated Site","operator":"Caravan and Camping Club","tents":"yes","website":"http://wymingbrookfarmcaravanandcampsite.co.uk/"}},"430038286":{"location":[53.3510378,-1.73476],"ct":"GB","tp":"CS","ts":"2016-07-09T12:06:41Z","tX":507,"tY":331,"tags":{}},"615646233":{"location":[53.3343502,-1.7404548],"ct":"GB","tp":"CR","ts":"2023-10-25T18:37:51Z","tX":507,"tY":331,"tags":{"name":"Eden Tree Caravan Park","website":"https://www.edentreecaravans.co.uk/"}},"891324547":{"location":[53.3431423,-1.7229922],"ct":"GB","tp":"CS","ts":"2023-10-11T11:40:17Z","tX":507,"tY":331,"tags":{"name":"Hardhurst Farm","phone":"+44 1433 620001"}}}