{"114382006":{"location":[53.1067028,-1.756832],"ct":"GB","tp":"CR","ts":"2023-08-30T17:14:56Z","tX":507,"tY":333,"tags":{"fixme":"Needs survey as bing suggest signfiicant re-development of this site.","name":"Rivendale Caravan and Leisure Park","source":"Bing","source:name":"survey (seen on sign at end of driveway)","tents":"yes","website":"https://www.rivendalecaravanpark.co.uk/"}},"114393180":{"location":[53.0249886,-1.7471969],"ct":"GB","tp":"CS","ts":"2023-10-21T21:37:42Z","tX":507,"tY":333,"tags":{"microbrewery":"yes","name":"Callow Top Holiday Park","source":"bing","source:name":"survey (seen on sign at end of driveway)","tents":"yes","website":"https://www.callowtop.co.uk/"}},"114393200":{"location":[53.0555825,-1.7476768],"ct":"GB","tp":"CR","ts":"2024-01-03T13:42:04Z","tX":507,"tY":333,"tags":{"addr:city":"Ashbourne","addr:postcode":"DE6 1LE","addr:street":"Ashbourne Road","addr:village":"Fenny Bentley","fhrs:id":"1626411","name":"Ashbourne Heights Caravan Park","operator":"North Dales Leisure Parks","source":"bing","source:name":"survey (seen on sign at end of driveway)","tents":"yes","website":"https://www.ashbourne-heights.co.uk/"}},"157461600":{"location":[53.0519937,-1.6920564],"ct":"GB","tp":"CS","ts":"2021-01-29T21:13:16Z","tX":507,"tY":333,"tags":{"capacity":"35","caravans":"yes","name":"The Closes Caravan Park","tents":"no"}},"157802565":{"location":[53.0691311,-1.5234798],"ct":"GB","tp":"CS","ts":"2025-05-01T15:23:40Z","tX":507,"tY":333,"tags":{"landuse":"grass","name":"Higg Lane Farm Campsite"}},"157802568":{"location":[53.066901,-1.5225438],"ct":"GB","tp":"CS","ts":"2021-02-13T18:49:40Z","tX":507,"tY":333,"tags":{"landuse":"grass"}},"172637454":{"location":[53.0792411,-1.7559807],"ct":"GB","tp":"CR","ts":"2014-12-27T18:02:55Z","tX":507,"tY":333,"tags":{"name":"Newton Grange Caravans","source":"Bing;survey (sign at end of driveway)"}},"231764056":{"location":[53.0407725,-1.6269147],"ct":"GB","tp":"CR","ts":"2021-01-30T18:29:46Z","tX":507,"tY":333,"tags":{"fee":"yes","name":"Carsington Fields Caravan Park","tents":"yes","website":"https://www.carsingtoncaravaning.co.uk/"}},"232468357":{"location":[53.1156316,-1.6484907],"ct":"GB","tp":"CS","ts":"2023-03-18T11:05:59Z","tX":507,"tY":333,"tags":{"caravans":"yes","email":"info@middlehillsfarm.co.uk","name":"Middlehills Farm","phone":"+44 1629 650368","shower":"yes","tents":"yes","toilets":"yes","website":"https://www.campingandcaravanningmatlock.com/"}},"247885475":{"location":[53.0635676,-1.6531204],"ct":"GB","tp":"CS","ts":"2021-01-31T20:51:17Z","tX":507,"tY":333,"tags":{"caravans":"yes","name":"Knockerdown Caravan & Camping","source:website":"survey","tents":"yes","website":"http://www.knockerdown-inn.co.uk/caravan-camping/"}},"265008556":{"location":[52.9754303,-1.4437278],"ct":"GB","tp":"CS","ts":"2024-03-11T11:14:31Z","tX":507,"tY":333,"tags":{"access":"private","caravans":"no","fee":"yes","name":"Cub 1","operator":"Derbyshire Scouts","scout":"yes","source":"Derbyshire Scouts","static_caravans":"no","tents":"yes"}},"265008557":{"location":[52.9757751,-1.4437781],"ct":"GB","tp":"CS","ts":"2024-03-11T11:14:31Z","tX":507,"tY":333,"tags":{"access":"private","caravans":"no","fee":"yes","name":"Cub 4","operator":"Derbyshire Scouts","scout":"yes","source":"Derbyshire Scouts","static_caravans":"no","tents":"yes"}},"265008620":{"location":[52.9761754,-1.4438399],"ct":"GB","tp":"CS","ts":"2024-03-11T11:14:31Z","tX":507,"tY":333,"tags":{"access":"private","caravans":"no","fee":"yes","name":"Cub 7 (Aiders Patch)","operator":"Derbyshire Scouts","scout":"yes","source":"Derbyshire Scouts","static_caravans":"no","tents":"yes"}},"265008668":{"location":[52.9754085,-1.4443039],"ct":"GB","tp":"CS","ts":"2024-03-11T11:14:31Z","tX":507,"tY":333,"tags":{"access":"private","caravans":"no","fee":"yes","name":"Cub 2","operator":"Derbyshire Scouts","scout":"yes","source":"Derbyshire Scouts","static_caravans":"no","tents":"yes"}},"265009356":{"location":[52.9753622,-1.4447588],"ct":"GB","tp":"CS","ts":"2024-03-11T11:14:31Z","tX":507,"tY":333,"tags":{"access":"private","caravans":"no","fee":"yes","name":"Cub 3","operator":"Derbyshire Scouts","scout":"yes","source":"Derbyshire Scouts","static_caravans":"no","tents":"yes"}},"265009469":{"location":[52.9757628,-1.4442801],"ct":"GB","tp":"CS","ts":"2024-03-11T11:14:31Z","tX":507,"tY":333,"tags":{"access":"private","caravans":"no","fee":"yes","name":"Cub 5","operator":"Derbyshire Scouts","scout":"yes","source":"DerbyshireScouts","static_caravans":"no","tents":"yes"}},"265009527":{"location":[52.9758568,-1.4448246],"ct":"GB","tp":"CS","ts":"2024-03-11T11:14:31Z","tX":507,"tY":333,"tags":{"access":"private","caravans":"no","fee":"yes","name":"Cub 9","operator":"Derbyshire Scouts","scout":"yes","static_caravans":"no","tents":"yes"}},"265009582":{"location":[52.9760579,-1.4443079],"ct":"GB","tp":"CS","ts":"2024-03-11T11:14:31Z","tX":507,"tY":333,"tags":{"access":"private","caravans":"no","fee":"yes","name":"Cub 8","operator":"Derbyshire Scouts","scout":"yes","static_caravans":"no","tents":"yes"}},"265009583":{"location":[52.9755976,-1.4448269],"ct":"GB","tp":"CS","ts":"2024-03-11T11:14:31Z","tX":507,"tY":333,"tags":{"access":"private","caravans":"no","fee":"yes","name":"Cub 6","operator":"Derbyshire Scouts","scout":"yes","source":"Derbyshire Scouts","static_caravans":"no","tents":"yes"}},"265012863":{"location":[52.9759849,-1.4459639],"ct":"GB","tp":"CS","ts":"2024-03-11T11:17:13Z","tX":507,"tY":333,"tags":{"caravans":"no","fee":"yes","name":"Training 1","operator":"Derbyshire Scouts","scout":"yes","source":"Derbyshire Scouts","static_caravans":"no","tents":"yes"}},"265013036":{"location":[52.9760446,-1.4461883],"ct":"GB","tp":"CS","ts":"2024-03-11T11:17:13Z","tX":507,"tY":333,"tags":{"caravans":"no","fee":"yes","name":"Training 2","operator":"Derbyshire Scouts","static_caravans":"no","tents":"yes"}},"331205313":{"location":[53.0447261,-1.7287254],"ct":"GB","tp":"CS","ts":"2021-01-23T20:07:54Z","tX":507,"tY":333,"tags":{"caravans":"yes","name":"Bank Top Farm Caravan and Camping Site","source":"bing","tents":"yes","website":"http://www.banktopcaravanandcamping.co.uk/"}},"331208554":{"location":[53.0375917,-1.7076269],"ct":"GB","tp":"CS","ts":"2023-10-21T21:36:59Z","tX":507,"tY":333,"tags":{"caravans":"yes","name":"Clover Fields Caravan Park","source":"Bing","tents":"yes","website":"https://www.cloverfieldstouringpark.co.uk/"}},"335863910":{"location":[53.0569366,-1.6845774],"ct":"GB","tp":"CS","ts":"2015-04-06T21:45:19Z","tX":507,"tY":333,"tags":{"name":"New House Farm Campsite","source":"Bing","url":"http://www.ukcampsite.co.uk/sites/details.asp?revid=10041"}},"342333439":{"location":[53.095271,-1.5336454],"ct":"GB","tp":"CR","ts":"2025-02-15T09:43:33Z","tX":507,"tY":333,"tags":{"addr:city":"Matlock","addr:postcode":"DE4 5HS","addr:street":"Wirksworth Road","addr:village":"Whatstandwell","name":"Birchwood Farm","phone":"+44 1629 822280","website":"http://www.birchwoodfarm.co.uk/"}},"368706686":{"location":[53.0974707,-1.4947857],"ct":"GB","tp":"CR","ts":"2024-04-02T11:04:33Z","tX":507,"tY":333,"tags":{"brand":"Caravan Club","capacity":"5","caravans":"yes","charge":"20 GBP","fee":"yes","motorhome":"yes","name":"Cliff Farm Wakebridge","power_supply":"yes","source":"View from south;Bing"}},"373590746":{"location":[52.9761838,-1.4429994],"ct":"GB","tp":"CS","ts":"2024-03-11T11:14:31Z","tX":507,"tY":333,"tags":{"access":"private","caravans":"no","fee":"yes","name":"Glade 1","operator":"Derbyshire Scouts","scout":"yes","source":"Derbyshire Scouts","static_caravans":"no","tents":"yes"}},"373590747":{"location":[52.9760507,-1.443048],"ct":"GB","tp":"CS","ts":"2024-03-11T11:14:31Z","tX":507,"tY":333,"tags":{"access":"private","caravans":"no","fee":"yes","name":"Glade 4","operator":"Derbyshire Scouts","scout":"yes","source":"Derbyshire Scouts","static_caravans":"no","tents":"yes"}},"373590817":{"location":[52.9761112,-1.4423481],"ct":"GB","tp":"CS","ts":"2024-03-11T11:14:31Z","tX":507,"tY":333,"tags":{"access":"private","caravans":"no","fee":"yes","name":"Glade 2","operator":"Derbyshire Scouts","scout":"yes","source":"Derbyshire Scouts","static_caravans":"no","tents":"yes"}},"373590818":{"location":[52.9759608,-1.4424421],"ct":"GB","tp":"CS","ts":"2024-03-11T11:14:31Z","tX":507,"tY":333,"tags":{"access":"private","area":"yes","caravans":"no","fee":"yes","name":"Glade 3","operator":"Derbyshire Scouts","scout":"yes","source":"Derbyshire Scouts","static_caravans":"no","tents":"yes"}},"381702769":{"location":[52.9761172,-1.4417653],"ct":"GB","tp":"CS","ts":"2024-03-11T11:14:31Z","tX":507,"tY":333,"tags":{"access":"private","capacity":"Private Campsite","caravans":"no","fee":"yes","name":"Scout 1","operator":"Derbyshire Scouts","scout":"yes","source":"Derbyshire Scouts","static_caravans":"no","tents":"yes"}},"381702991":{"location":[52.9756946,-1.4416054],"ct":"GB","tp":"CS","ts":"2024-03-11T11:14:31Z","tX":507,"tY":333,"tags":{"access":"private","capacity":"Private Campsite","caravans":"no","fee":"yes","name":"Scout 2","operator":"Derbyshire Scouts","scout":"yes","source":"Derbyshire Scouts","static_caravans":"no","tents":"yes"}},"381702992":{"location":[52.9752673,-1.4416194],"ct":"GB","tp":"CS","ts":"2024-03-11T11:14:31Z","tX":507,"tY":333,"tags":{"access":"private","capacity":"Private Campsite","caravans":"no","fee":"yes","name":"Scout 4","operator":"Derbyshire Scouts","source":"Derbyshire Scouts","static_caravans":"no","tents":"yes"}},"381703673":{"location":[52.9757005,-1.4418145],"ct":"GB","tp":"CS","ts":"2024-03-11T11:14:31Z","tX":507,"tY":333,"tags":{"access":"private","capacity":"Private Campsite","caravans":"no","fee":"yes","name":"Scout 3","operator":"Derbyshire Scouts","scout":"yes","source":"Derbyshire Scouts","static_caravans":"no","tents":"yes"}},"381712420":{"location":[52.9760394,-1.4466821],"ct":"GB","tp":"CS","ts":"2024-03-11T11:17:13Z","tX":507,"tY":333,"tags":{"caravans":"no","fee":"yes","name":"Training 3","operator":"Derbyshire Scouts","scout":"yes","static_caravans":"no","tents":"yes"}},"381712422":{"location":[52.9762883,-1.4467497],"ct":"GB","tp":"CS","ts":"2024-03-11T11:17:13Z","tX":507,"tY":333,"tags":{"caravans":"no","fee":"yes","name":"Training 6","operator":"Derbyshire Scouts","static_caravans":"no","tents":"yes"}},"381794885":{"location":[52.9749038,-1.4489352],"ct":"GB","tp":"CS","ts":"2024-12-20T14:26:54Z","tX":507,"tY":333,"tags":{"operator":"Derbyshire Scouts"}},"383246736":{"location":[52.9767275,-1.4464686],"ct":"GB","tp":"CS","ts":"2024-03-11T11:17:13Z","tX":507,"tY":333,"tags":{"area":"yes","caravans":"no","fee":"yes","name":"Training 7","operator":"Derbyshire Scouts","static_caravans":"no","tents":"yes"}},"383246737":{"location":[52.9767626,-1.4461436],"ct":"GB","tp":"CS","ts":"2024-03-11T11:17:13Z","tX":507,"tY":333,"tags":{"area":"yes","caravans":"no","fee":"yes","name":"Training 10","operator":"Derbyshire Scouts","scout":"yes","static_caravans":"no","tents":"yes"}},"383246738":{"location":[52.9770855,-1.446532],"ct":"GB","tp":"CS","ts":"2024-03-11T11:17:13Z","tX":507,"tY":333,"tags":{"area":"yes","caravans":"no","fee":"yes","name":"Training 8","operator":"Derbyshire Scouts","scout":"yes","static_caravans":"no","tents":"yes"}},"383246739":{"location":[52.9771044,-1.4461923],"ct":"GB","tp":"CS","ts":"2024-03-11T11:17:13Z","tX":507,"tY":333,"tags":{"area":"yes","caravans":"no","fee":"yes","name":"Training 9","operator":"Derbyshire Scouts","scout":"yes","static_caravans":"no","tents":"yes"}},"383265487":{"location":[52.9743067,-1.444257],"ct":"GB","tp":"CS","ts":"2024-12-20T14:38:58Z","tX":507,"tY":333,"tags":{"operator":"Derbyshire Scouts"}},"383265488":{"location":[52.9743144,-1.4424101],"ct":"GB","tp":"CS","ts":"2022-06-20T23:12:03Z","tX":507,"tY":333,"tags":{"access":"private","name":"Freds Field","operator":"Derbyshire Scouts"}},"383265489":{"location":[52.9728517,-1.4422872],"ct":"GB","tp":"CS","ts":"2017-07-14T16:02:02Z","tX":507,"tY":333,"tags":{"operator":"Derbyshire Scouts"}},"383265490":{"location":[52.9729138,-1.4441537],"ct":"GB","tp":"CS","ts":"2017-07-14T16:02:02Z","tX":507,"tY":333,"tags":{"operator":"Derbyshire Scouts"}},"423380978":{"location":[52.9757772,-1.4475343],"ct":"GB","tp":"CS","ts":"2024-03-11T11:17:13Z","tX":507,"tY":333,"tags":{"caravans":"no","fee":"yes","name":"Training 4","operator":"Derbyshire Scouts","scout":"yes","static_caravans":"no","tents":"yes"}},"423380979":{"location":[52.9759467,-1.4476148],"ct":"GB","tp":"CS","ts":"2024-03-11T11:17:13Z","tX":507,"tY":333,"tags":{"caravans":"no","fee":"yes","name":"Training 5","operator":"Derbyshire Scouts","scout":"yes","static_caravans":"no","tents":"yes"}},"468749639":{"location":[52.9759262,-1.4468679],"ct":"GB","tp":"CS","ts":"2017-01-25T14:56:40Z","tX":507,"tY":333,"tags":{}},"468749640":{"location":[52.9758561,-1.4464033],"ct":"GB","tp":"CS","ts":"2024-03-11T11:17:13Z","tX":507,"tY":333,"tags":{"caravans":"no","fee":"yes","operator":"Derbyshire Scouts","static_caravans":"no","tents":"yes"}},"479261359":{"location":[53.0019258,-1.7232292],"ct":"GB","tp":"CS","ts":"2022-03-23T09:16:32Z","tX":507,"tY":333,"tags":{"name":"Peak Gateway"}},"519139127":{"location":[53.0613582,-1.6487068],"ct":"GB","tp":"CS","ts":"2021-01-31T19:03:03Z","tX":507,"tY":333,"tags":{"fee":"Â£7","name":"Uppertown Farm"}},"519139128":{"location":[53.0625357,-1.6536139],"ct":"GB","tp":"CS","ts":"2021-01-31T19:03:03Z","tX":507,"tY":333,"tags":{"fee":"yes","name":"The Pudding Room"}},"536340152":{"location":[52.9355004,-1.5104297],"ct":"GB","tp":"CS","ts":"2025-04-24T23:24:03Z","tX":507,"tY":333,"tags":{"addr:city":"Derby","addr:postcode":"DE22 4NH","addr:street":"Markeaton Lane","caravans":"yes","name":"The Orchard Campsite","tents":"yes","website":"https://theorchardcampsite.co.uk/","wheelchair":"yes"}},"542844017":{"location":[53.1120282,-1.4489303],"ct":"GB","tp":"CR","ts":"2021-11-20T17:28:13Z","tX":507,"tY":333,"tags":{"brand":"Caravan and Motorhome Club","designation":"certificated_location"}},"542898094":{"location":[53.0934321,-1.4748696],"ct":"GB","tp":"CR","ts":"2018-03-30T22:52:34Z","tX":507,"tY":333,"tags":{"designation":"certificated_location","name":"Mooredge Farm"}},"542898099":{"location":[53.0937842,-1.4789368],"ct":"GB","tp":"CR","ts":"2017-11-26T10:47:32Z","tX":507,"tY":333,"tags":{"designation":"certificated_location","name":"Anncroft"}},"626008166":{"location":[53.1196505,-1.5126282],"ct":"GB","tp":"CR","ts":"2024-04-03T21:39:02Z","tX":507,"tY":333,"tags":{"fee":"yes","name":"Church Farm","sanitary_dump_station":"yes","surface":"grass","water_point":"yes"}},"666463026":{"location":[53.0530327,-1.7454513],"ct":"GB","tp":"CR","ts":"2019-01-27T14:59:20Z","tX":507,"tY":333,"tags":{"gb:caravan_club_certificated":"yes","name":"Washbrook Farm"}},"673672394":{"location":[53.0489388,-1.4747112],"ct":"GB","tp":"CR","ts":"2022-07-22T15:55:08Z","tX":507,"tY":333,"tags":{"addr:city":"Belper","addr:postcode":"DE56 2JH","addr:street":"Crich Lane","fhrs:id":"33489","name":"The Firs Caravan and Motorhome Site","name:en":"The Firs Caravan and Motorhome Site"}},"683615977":{"location":[53.0799327,-1.5074898],"ct":"GB","tp":"CR","ts":"2022-08-16T08:34:27Z","tX":507,"tY":333,"tags":{"addr:city":"Matlock","addr:postcode":"DE4 5HP","name":"Haytop Country Park"}},"902048609":{"location":[53.0443758,-1.6260686],"ct":"GB","tp":"CR","ts":"2023-09-01T17:46:29Z","tX":507,"tY":333,"tags":{"addr:city":"Ashbourne","addr:postcode":"DE6 3JL","capacity":"130","fee":"yes","internet_access":"yes","name":"Carsington Water Caravan Club Site","power_supply":"yes"}},"935470400":{"location":[53.070023,-1.7378979],"ct":"GB","tp":"CR","ts":"2023-10-21T21:37:20Z","tX":507,"tY":333,"tags":{"addr:city":"Ashbourne","addr:housename":"The Stable Town Head Farm","addr:postcode":"DE6 1RA","addr:village":"Tissington","name":"Tissington Caravan and Motorhome site","phone":"+44 7967814844","website":"https://caravanclub.co.uk/"}},"982209286":{"location":[53.0634103,-1.5207377],"ct":"GB","tp":"CS","ts":"2021-10-16T08:44:49Z","tX":507,"tY":333,"tags":{"addr:city":"Belper","addr:housename":"Tannenbaum Campsite","addr:postcode":"DE56 2RD","addr:street":"Belper Road","addr:village":"Alderwasley","name":"Tannebaum campsite","website":"http://tannenbaumcampsite.co.uk/"}},"1019952534":{"location":[53.0934051,-1.5847228],"ct":"GB","tp":"CS","ts":"2022-02-02T21:57:40Z","tX":507,"tY":333,"tags":{"name":"Middleton Top Campsite (Caravan & Camping Club)"}},"1064428536":{"location":[53.1142512,-1.6984126],"ct":"GB","tp":"CS","ts":"2022-05-27T19:26:36Z","tX":507,"tY":333,"tags":{"cabins":"only","caravans":"no","name":"Minninglow View","tents":"no"}},"1084618338":{"location":[52.9631508,-1.6554415],"ct":"GB","tp":"CR","ts":"2022-08-08T10:50:13Z","tX":507,"tY":333,"tags":{"name":"Heritage Wood Caravan Site","website":"https://www.heritage-woodcl.co.uk/"}},"1178662558":{"location":[53.0833745,-1.5129156],"ct":"GB","tp":"CS","ts":"2023-06-18T13:48:06Z","tX":507,"tY":333,"tags":{"addr:city":"Belper","addr:postcode":"DE56 2SQ","addr:street":"New Road","addr:suburb":"Alderwasley","alt_name":"Hankin Farm Camping","camp_site":"standard","caravans":"yes","contact:facebook":"https://www.facebook.com/Hankinfarmcampsite/","drinking_water":"yes","name":"Hankin Farm Campsite","openfire":"yes","shower":"yes","tents":"yes","toilets":"yes"}},"1263516469":{"location":[53.0407398,-1.4786667],"ct":"GB","tp":"CS","ts":"2024-03-17T16:46:42Z","tX":507,"tY":333,"tags":{"addr:city":"Belper","addr:postcode":"DE56 2JF","addr:street":"Broadholme Lane","email":"walkers@broadholme-caravanpark.co.uk","name":"Broadholme Lane Caravan Park","phone":"+44 1773 823517","static_caravans":"no","website":"https://www.broadholme-caravanpark.co.uk/"}},"1272876032":{"location":[53.0178733,-1.6504611],"ct":"GB","tp":"CS","ts":"2024-04-20T17:02:54Z","tX":507,"tY":333,"tags":{"addr:city":"Ashbourne","addr:postcode":"DE6 3EN","backcountry":"no","name":"Ashbourne Camping and Caravaning Club Site","name:en":"Ashbourne Camping and Caravaning Club Site","phone":"+44 1335370855"}},"1282216016":{"location":[52.9812222,-1.7527096],"ct":"GB","tp":"CR","ts":"2011-05-12T23:35:23Z","tX":507,"tY":333,"tags":{"ele":"179.0000000","fixme":"Check name","name":"Woodland Grange"}},"1292732453":{"location":[52.9104554,-1.734316],"ct":"GB","tp":"CR","ts":"2024-06-20T07:23:29Z","tX":507,"tY":333,"tags":{"addr:city":"Ashbourne","addr:hamlet":"Harehill","addr:postcode":"DE6 5AA","addr:street":"Marjory Lane","addr:village":"Boylestone","name":"Lees Hall Farm Caravan Site"}},"1340858380":{"location":[53.0003405,-1.5965903],"ct":"GB","tp":"CS","ts":"2025-03-16T17:39:02Z","tX":507,"tY":333,"tags":{"caravans":"yes","tents":"yes"}},"1344337506":{"location":[52.9730509,-1.4441705],"ct":"GB","tp":"CS","ts":"2024-12-20T14:31:12Z","tX":507,"tY":333,"tags":{"access":"private","operator":"Derbyshire Scouts"}},"1344338775":{"location":[52.9747577,-1.4424108],"ct":"GB","tp":"CS","ts":"2024-12-20T14:38:58Z","tX":507,"tY":333,"tags":{"access":"private","name":"Freds Field","operator":"Derbyshire Scouts"}},"1344338777":{"location":[52.9733854,-1.442343],"ct":"GB","tp":"CS","ts":"2024-12-20T14:38:58Z","tX":507,"tY":333,"tags":{"access":"private","operator":"Derbyshire Scouts"}},"1361716425":{"location":[53.0681223,-1.4685053],"ct":"GB","tp":"CR","ts":"2025-02-24T08:34:32Z","tX":507,"tY":333,"tags":{"addr:city":"Belper","addr:postcode":"DE56 2GZ","addr:street":"Banks Close","addr:village":"Ambergate"}},"2290831721":{"location":[53.0200373,-1.6045492],"ct":"GB","tp":"CS","ts":"2024-04-09T19:22:56Z","tX":507,"tY":333,"tags":{"caravans":"yes","name":"Poplars Farm Campsite","tents":"yes"}},"3222448745":{"location":[53.0287677,-1.7065502],"ct":"GB","tp":"CR","ts":"2014-12-06T22:43:10Z","tX":507,"tY":333,"tags":{"name":"Offcote House Farm"}},"3370452247":{"location":[53.0477464,-1.6709441],"ct":"GB","tp":"CS","ts":"2015-02-24T16:30:42Z","tX":507,"tY":333,"tags":{"addr:city":"Ashbourne","addr:housename":"Berry Wood Farm","addr:postcode":"DE6 1PY","name":"Berry Wood Farm"}},"7609596154":{"location":[53.0847515,-1.5943604],"ct":"GB","tp":"CS","ts":"2020-06-10T16:54:28Z","tX":507,"tY":333,"tags":{"caravans":"yes","name":"Peak View Caravan Site"}},"8476499555":{"location":[53.1154858,-1.6390282],"ct":"GB","tp":"CS","ts":"2021-03-01T17:17:08Z","tX":507,"tY":333,"tags":{}},"8931155467":{"location":[53.095551,-1.632202],"ct":"GB","tp":"CS","ts":"2021-07-18T19:32:52Z","tX":507,"tY":333,"tags":{"caravans":"yes"}},"9044922790":{"location":[52.9355456,-1.5110575],"ct":"GB","tp":"CS","ts":"2021-08-29T09:56:08Z","tX":507,"tY":333,"tags":{"addr:city":"Derby","addr:postcode":"DE22 4NH","addr:street":"Markeaton Lane","name":"The Orchard Campsite","website":"https://theorchardcampsite.co.uk/"}},"8355453429":{"location":[53.0596627,-1.7532836],"ct":"GB","tp":"CR","ts":"2021-08-11T17:46:22Z","tX":507,"tY":333,"tags":{"name":"Hollington End Farm","power_supply":"yes"}}}