{"133632873":{"location":[51.9898261,-1.7109969],"ct":"GB","tp":"CR","ts":"2025-05-29T12:17:38Z","tX":507,"tY":338,"tags":{"addr:city":"Moreton-in-Marsh","addr:country":"GB","addr:postcode":"GL56 0BT","addr:street":"Bourton Road","bar":"no","big_rigs":"yes","camp_type":"established","caravans":"yes","credit_card:uplift":"no","description":"Large grassy campground with well maintained ablutions.","dish_washing":"yes","dryer":"yes","fee":"GBP 31.80 (2 adults, camper with Key Card)","fenced":"non_protecting","fireplace":"no","general_room":"no","guarded":"no","internet_access":"wlan","internet_access:fee":"GBP 2.50 / day","kitchen":"no","laundry":"yes","name":"Moreton-in-Marsh Caravan & Motorhome Club","payment:credit_cards":"yes","pets":"yes","phone":"+44 1608 6505 19","picnic_benches":"no","power_supply":"yes","power_supply:voltage":"220","restaurant":"no","sanitary_dump_station":"yes","shop":"no","shower":"hot","source":"Survey","swimming_pool":"no","tents":"no","toilets:disposal":"flush","toilets:position":"seated","washing_machine":"yes","water:location":"central","water:quality":"potable"}},"159510625":{"location":[51.9171899,-1.5433942],"ct":"GB","tp":"CS","ts":"2023-02-14T15:36:29Z","tX":507,"tY":338,"tags":{"caravans":"yes","name":"Chipping Norton Camp Site","operator":"The Camping and Caravaning Club"}},"312292610":{"location":[51.8856328,-1.4710859],"ct":"GB","tp":"CS","ts":"2022-11-25T16:48:31Z","tX":507,"tY":338,"tags":{"name":"Cotswold View","phone":"+44  01608 810314","website":"https://www.cotswoldview.co.uk/"}},"653339735":{"location":[51.9407984,-1.425381],"ct":"GB","tp":"CS","ts":"2019-06-12T20:40:03Z","tX":507,"tY":338,"tags":{"camp_site":"basic"}},"766257089":{"location":[51.904072,-1.6635872],"ct":"GB","tp":"CS","ts":"2023-06-29T12:43:26Z","tX":507,"tY":338,"tags":{"name":"Caravan Club","operator":"Pebbly Hill Nursery"}},"937322896":{"location":[51.9583363,-1.6090331],"ct":"GB","tp":"CS","ts":"2021-04-30T15:55:26Z","tX":507,"tY":338,"tags":{"source":"bing"}},"970120111":{"location":[52.0020917,-1.6758243],"ct":"GB","tp":"CR","ts":"2021-08-03T14:38:41Z","tX":507,"tY":338,"tags":{"source":"bing"}},"992433721":{"location":[52.0035036,-1.701812],"ct":"GB","tp":"CR","ts":"2021-10-14T15:14:59Z","tX":507,"tY":338,"tags":{"source":"bing"}},"997158802":{"location":[51.9561049,-1.5194925],"ct":"GB","tp":"CS","ts":"2021-10-28T12:32:27Z","tX":507,"tY":338,"tags":{"name":"Merryweather Farm Campsite"}},"1003113731":{"location":[51.8863384,-1.4880859],"ct":"GB","tp":"CS","ts":"2021-11-16T16:16:19Z","tX":507,"tY":338,"tags":{}},"5020358565":{"location":[51.8816084,-1.7454358],"ct":"GB","tp":"CS","ts":"2023-02-18T11:02:48Z","tX":507,"tY":338,"tags":{"addr:city":"Cheltenham","addr:housename":"Bury Barn","addr:postcode":"GL54 2FH","camp_site":"standard","campers":"yes","capacity":"10","caravans":"yes","internet_access":"wlan","name":"Cotswold Carp Farm","phone":"+44 1451 821795","tents":"yes","website":"https://cotswoldcarpfarm.wixsite.com/cotswolds"}},"5051922065":{"location":[51.8796437,-1.7472808],"ct":"GB","tp":"CS","ts":"2017-08-22T18:22:31Z","tX":507,"tY":338,"tags":{"addr:city":"Cheltenham","addr:postcode":"GL54 2EH","addr:street":"Lambert's Field","email":"cotswoldcarpfarm@gmail.com","name":"Cotswold Carp Farm","phone":"+44 1451 821795","website":"https://www.facebook.com/CotswoldCarpFarm/"}},"12222050818":{"location":[52.0092199,-1.5497968],"ct":"GB","tp":"CS","ts":"2024-10-04T09:55:06Z","tX":507,"tY":338,"tags":{"addr:city":"Whichford","addr:postcode":"CV36 5PH","name":"Cotswolds Camping at Holycombe","website":"https://www.cotswoldscamping.com"}}}