{"14021954":{"location":[51.3545309,-1.7286827],"ct":"GB","tp":"CS","ts":"2022-04-09T12:37:34Z","tX":507,"tY":341,"tags":{"addr:city":"Pewsey","addr:housename":"Totteridge Farm","addr:postcode":"SN9 5LF","caravans":"yes","email":"office@totteridge-farm.com","name":"Totteridge Farm","phone":"+44 1672562650","tents":"yes","website":"https://www.totteridge-farm.website/"}},"280323860":{"location":[51.2265323,-1.4257103],"ct":"GB","tp":"CR","ts":"2020-02-09T20:56:35Z","tX":507,"tY":341,"tags":{"addr:city":"Picket Piece","addr:postcode":"SP11 6LX","addr:street":"Walworth Road","name":"Wyke Down Caravan & Camping Park","operator":"Wyke Down Ltd","source":"http://www.wykedown.co.uk/"}},"300027539":{"location":[51.3487751,-1.7170321],"ct":"GB","tp":"CS","ts":"2014-08-25T13:57:21Z","tX":507,"tY":341,"tags":{"addr:city":"Easton Royal, Pewsey","addr:housename":"The Bruce Arms","addr:postcode":"SN9 5LR","addr:street":"Easton Road","name":"The Bruce Arms Campsite","note":"The Campsite is operated by The Bruce Arms Public House.","operator":"The Bruce Arms","phone":"+44 1672 810216","source":"Personal Knowledge"}},"352865197":{"location":[51.2265178,-1.4254555],"ct":"GB","tp":"CS","ts":"2019-03-22T17:18:35Z","tX":507,"tY":341,"tags":{"name":"Wyke Down","website":"https://www.wykedown.co.uk/"}},"352865200":{"location":[51.2267082,-1.4248316],"ct":"GB","tp":"CR","ts":"2020-12-15T09:06:05Z","tX":507,"tY":341,"tags":{"name":"Wyke Down","website":"https://www.wykedown.co.uk/"}},"508460134":{"location":[51.2145185,-1.5700939],"ct":"GB","tp":"CR","ts":"2017-07-18T15:52:43Z","tX":507,"tY":341,"tags":{"name":"Mullenscote Mobile Home Park"}},"508460136":{"location":[51.205577,-1.5780033],"ct":"GB","tp":"CR","ts":"2017-07-18T15:52:43Z","tX":507,"tY":341,"tags":{"name":"Elmstead Park"}},"5882184450":{"location":[51.211414,-1.6082486],"ct":"GB","tp":"CS","ts":"2018-09-04T15:49:57Z","tX":507,"tY":341,"tags":{"name":"Thruxton Circuit Camp Site"}},"9959417883":{"location":[51.3783787,-1.5984772],"ct":"GB","tp":"SD","ts":"2022-08-17T14:48:03Z","tX":507,"tY":341,"tags":{"network":"Canal & River Trust","sanitary_dump_station:basin":"yes"}},"10072995635":{"location":[51.3783201,-1.5986502],"ct":"GB","tp":"SD","ts":"2022-10-03T13:44:30Z","tX":507,"tY":341,"tags":{"sanitary_dump_station:pump-out":"yes"}}}