{"5149248":{"location":[50.6365351,-1.4134597],"ct":"GB","tp":"CR","ts":"2019-09-25T17:53:19Z","tX":507,"tY":344,"tags":{"addr:city":"Brighstone","addr:country":"GB","addr:postcode":"PO30 4DB","addr:street":"Military Road","contact:email":"brighstoneholidays@gmail.com","contact:phone":"+44 1983 740 244","contact:website":"https://www.brighstone-holidays.co.uk/","fhrs:id":"540390","name":"Brighstone Holiday Centre"}},"35360121":{"location":[50.6897083,-1.5285041],"ct":"GB","tp":"CS","ts":"2018-02-03T14:08:37Z","tX":507,"tY":344,"tags":{"name":"Heathfield Farm Camp Site"}},"128629571":{"location":[50.7337696,-1.6140799],"ct":"GB","tp":"CR","ts":"2024-03-05T15:18:54Z","tX":507,"tY":344,"tags":{"name":"Shorefield Country Park"}},"136301313":{"location":[50.6884493,-1.4187501],"ct":"GB","tp":"CR","ts":"2024-02-21T21:01:25Z","tX":507,"tY":344,"tags":{"addr:city":"Newbridge","addr:country":"GB","addr:postcode":"PO41 0TS","addr:street":"Main Road","fhrs:id":"1569611","name":"The Orchards Caravan Park","source":"Bing"}},"369302402":{"location":[50.6360727,-1.4108569],"ct":"GB","tp":"CS","ts":"2024-01-28T22:34:36Z","tX":507,"tY":344,"tags":{"email":"brighstoneholidays@gmail.com","mobile":"+44 756 277 2528","name":"Brighstone Holiday Centre (camping)","surface":"grass","website":"http://www.brighstone-holidays.co.uk/"}},"390621358":{"location":[50.6354544,-1.4076549],"ct":"GB","tp":"CS","ts":"2019-09-25T17:53:19Z","tX":507,"tY":344,"tags":{"addr:city":"Brighstone","addr:country":"GB","addr:postcode":"PO30 4DA","addr:street":"Military Road","fhrs:id":"540391","name":"Grange Farm"}},"444435621":{"location":[50.6635491,-1.4686229],"ct":"GB","tp":"CR","ts":"2022-04-21T22:09:33Z","tX":507,"tY":344,"tags":{"landuse":"grass"}},"454658208":{"location":[50.7269335,-1.7382506],"ct":"GB","tp":"CR","ts":"2024-04-04T15:50:55Z","tX":507,"tY":344,"tags":{"addr:city":"Christchurch","addr:postcode":"BH23 4AL","addr:street":"Mudeford","caravan_site":"holiday_park","fee":"yes","internet_access":"wlan","name":"Sandhills Holiday Park Christchurch","operator":"Park Holidays","phone":"+44 1425 200744","power_supply":"no","sanitary_dump_station":"no","website":"https://www.parkholidays.com/our-parks/dorset/sandhills/caravan-holidays"}},"568894481":{"location":[50.6733691,-1.5413991],"ct":"GB","tp":"CR","ts":"2018-03-12T09:29:48Z","tX":507,"tY":344,"tags":{"name":"Stoats Farm"}},"642514538":{"location":[50.7359617,-1.6179141],"ct":"GB","tp":"CR","ts":"2018-11-09T09:24:36Z","tX":507,"tY":344,"tags":{"addr:city":"Milford on Sea","addr:postcode":"SO41 0LH","addr:street":"Shorefield Road","name":"Shorefields Holidays Ltd"}},"705403752":{"location":[50.6643999,-1.4659465],"ct":"GB","tp":"CS","ts":"2019-07-18T09:51:07Z","tX":507,"tY":344,"tags":{"name":"Compton Farm Campsite"}},"1633772212":{"location":[50.7084318,-1.4103648],"ct":"GB","tp":"CS","ts":"2012-02-15T10:33:27Z","tX":507,"tY":344,"tags":{"name":"Corf Camp (Scouts)"}},"1711466093":{"location":[50.7352021,-1.5503674],"ct":"GB","tp":"CR","ts":"2012-04-11T13:54:40Z","tX":507,"tY":344,"tags":{"name":"Hurst View"}},"1711466100":{"location":[50.7346826,-1.5520947],"ct":"GB","tp":"CS","ts":"2012-05-28T08:12:08Z","tX":507,"tY":344,"tags":{"name":"Solent View"}},"5470915934":{"location":[50.704077,-1.4590251],"ct":"GB","tp":"CS","ts":"2018-03-11T13:27:24Z","tX":507,"tY":344,"tags":{"name":"Lucketts Camp Site"}},"5475503845":{"location":[50.6811133,-1.4140874],"ct":"GB","tp":"CS","ts":"2019-06-29T18:16:03Z","tX":507,"tY":344,"tags":{"name":"Mill Heights Camping Site"}},"5846399144":{"location":[50.7360275,-1.5896056],"ct":"GB","tp":"CS","ts":"2023-10-17T14:26:44Z","tX":507,"tY":344,"tags":{"internet_access":"no","internet_access:fee":"no","name":"Muddy Creek Farm","operator":"Muddy Creek Farm","start_date":"August","website":"https://www.muddycreekfarm.co.uk/home/camping-holidays-in-milford-on-sea"}},"4911115545":{"location":[50.7096588,-1.4384014],"ct":"GB","tp":"CR","ts":"2020-10-27T13:07:13Z","tX":507,"tY":344,"tags":{"name":"Silver Glades Caravan Park"}},"5470915933":{"location":[50.7037372,-1.4590305],"ct":"GB","tp":"CR","ts":"2018-03-11T13:27:23Z","tX":507,"tY":344,"tags":{"name":"Lucketts Caravan Site"}},"5475503844":{"location":[50.6809467,-1.4144844],"ct":"GB","tp":"CR","ts":"2019-06-29T18:16:03Z","tX":507,"tY":344,"tags":{"name":"Mill Heights Caravan Site"}},"12901646734":{"location":[50.702003,-1.4426901],"ct":"GB","tp":"CS","ts":"2025-06-10T09:11:51Z","tX":507,"tY":344,"tags":{"access":"customers","addr:city":"Yarmouth","addr:postcode":"PO41 0XP","addr:street":"Ningwood Hill","camp_site":"serviced","name":"Camp Wight","tents":"yes","website":"https://campwight.co.uk/"}}}