{"44845503":{"location":[49.6775438,-1.7233808],"ct":"FR","tp":"CS","ts":"2024-06-04T20:34:59Z","tX":507,"tY":348,"tags":{"name":"Camping des Dunes"}},"201575204":{"location":[49.6556255,-1.6539759],"ct":"FR","tp":"CS","ts":"2024-07-20T11:44:05Z","tX":507,"tY":348,"tags":{"name":"Camping municipal de la Saline","website":"https://www.manche-tourismus.com/camping-municipal-la-saline/cherbourg-en-cotentin/hpanor050fs0009l"}},"221950614":{"location":[49.6665332,-1.4867213],"ct":"FR","tp":"CS","ts":"2024-02-08T20:36:08Z","tX":507,"tY":348,"tags":{"addr:housenumber":"18","addr:street":"Anse du Brick","cabins":"yes","caravans":"yes","name":"Camping L'Anse du Brick","operator":"Sandaya","phone":"+33 2 33 54 33 57","stars":"5","tents":"yes","website":"http://www.anse-du-brick.com"}},"231530859":{"location":[49.6690517,-1.6982169],"ct":"FR","tp":"CS","ts":"2024-02-05T21:10:11Z","tX":507,"tY":348,"tags":{"description":"Priorité aus ressortissants des armées","name":"Camping Igesa","website":"https://www.igesa.fr/decouvrez-les-actualites-igesa/camping-ou-location-optez-pour-des-vacances-en-liberte-avec-igesa"}},"264435866":{"location":[49.6574316,-1.5269731],"ct":"FR","tp":"CS","ts":"2024-02-06T21:55:09Z","tX":507,"tY":348,"tags":{"addr:housenumber":"47","addr:street":"route du Fort","name":"Camping Municipal du Fort","operator":"Mairie de Bretteville","phone":"+33 2 33 88 78 20","website":"https://bretteville50110.fr/camping/"}},"264441666":{"location":[49.654786,-1.5667696],"ct":"FR","tp":"CS","ts":"2025-02-09T12:54:36Z","tX":507,"tY":348,"tags":{"motorhome":"yes","name":"Les Logis du Cotentin","permanent_camping":"yes","stars":"3","tents":"no","website":"https://camping-collignon.simdif.com"}},"264564558":{"location":[49.6735977,-1.7325829],"ct":"FR","tp":"CS","ts":"2024-05-15T20:59:57Z","tX":507,"tY":348,"tags":{"name":"Le Clos Moisson","ref:FR:SIRET":"20006541500016"}},"264904759":{"location":[49.6527708,-1.560876],"ct":"FR","tp":"CS","ts":"2024-02-06T21:43:46Z","tX":507,"tY":348,"tags":{"addr:street":"Rue des Dauphins","cabins":"yes","caravans":"no","motorhome":"yes","name":"Les Cottages de Collignon","permanent_camping":"yes","stars":"4","tents":"no","website":"https://www.camping-cotentin.fr/"}},"662426743":{"location":[49.6425572,-1.6176343],"ct":"FR","tp":"CR","ts":"2024-10-17T17:52:49Z","tX":507,"tY":348,"tags":{"addr:street":"Allée du Président Menut","capacity":"24","caravan_site":"motorhome_stopover","caravan_site:type":"harbour","fee":"no","name":"Cherbourg Aire pour camping-cars Allée du Président Menut","opening_hours":"24/7","sanitary_dump_station":"yes","sanitary_dump_station:fee":"no","water_point":"yes"}},"765857052":{"location":[49.7004919,-1.4168769],"ct":"FR","tp":"CS","ts":"2024-09-06T15:38:32Z","tX":507,"tY":348,"tags":{"caravans":"yes","contact:facebook":"campingdusablon","name":"Camping du Sablon","phone":"+33 2 33 43 41 72","power_supply":"yes","reservation":"yes","tents":"yes","website":"https://www.campingdusablon.com/"}},"796472760":{"location":[49.6925631,-1.438458],"ct":"FR","tp":"CS","ts":"2024-02-08T20:33:46Z","tX":507,"tY":348,"tags":{"addr:housenumber":"2","addr:street":"Village Fréval","cabins":"yes","caravans":"yes","name":"Camping de la Plage","phone":"+33 2 33 54 38 84","stars":"3","tents":"yes","website":"https://www.campingdelaplage-fermanville.com"}},"1229121433":{"location":[49.6892555,-1.4403447],"ct":"FR","tp":"CS","ts":"2023-12-06T18:22:55Z","tX":507,"tY":348,"tags":{"access":"customers","addr:city":"Fermanville","addr:housenumber":"47","addr:postcode":"50840","addr:street":"Rue d'Inthéville","name":"Camping du Gibert"}},"3820140935":{"location":[49.6550706,-1.6511038],"ct":"FR","tp":"SD","ts":"2024-07-20T11:44:05Z","tX":507,"tY":348,"tags":{"sanitary_dump_station:accepted":"black_water;grey_water;tank_chemicals"}},"3997163645":{"location":[49.6431212,-1.6175499],"ct":"FR","tp":"SD","ts":"2021-12-28T19:00:54Z","tX":507,"tY":348,"tags":{"access":"yes","fee":"no","opening_hours":"24/7","sanitary_dump_station:accepted":"black_water;grey_water;tank_chemicals","sanitary_dump_station:basin":"yes","sanitary_dump_station:round_drain":"yes"}},"12120873008":{"location":[49.7006876,-1.4158178],"ct":"FR","tp":"SD","ts":"2024-08-19T19:02:24Z","tX":507,"tY":348,"tags":{"access":"customers","fee":"no","sanitary_dump_station:basin":"yes"}}}