{"169039094":{"location":[49.5163006,-1.6835184],"ct":"FR","tp":"CR","ts":"2024-08-17T01:17:18Z","tX":507,"tY":349,"tags":{"capacity":"8","caravan_site":"motorhome_stopover","caravan_site:type":"village","fee":"no","name":"Aire Rauville-la-Bigot","sanitary_dump_station":"yes","source":"cadastre-dgi-fr source : Direction Générale des Impôts - Cadastre. Mise à jour : 2012","surface":"asphalt","water_point":"yes","water_point:fee":"no"}},"227534684":{"location":[49.3878256,-1.5271853],"ct":"FR","tp":"CS","ts":"2023-07-05T12:00:38Z","tX":507,"tY":349,"tags":{"caravans":"yes","contact:email":"campingssv@gmail.com","contact:phone":"+33 2 33 41 72 04","name":"Camping Municipal** de Saint-Sauveur-Le-Vicomte","opening_hours":"May 15-Sep 15","phone":"+33 233 417204","service:bicycle:rental":"yes","stars":"2","tents":"57","website":"https://saint-sauveur-le-vicomte.stationverte.com/fr/camping-municipal-de-saint-sauveur-le-vicomte_t10213.html"}},"765856620":{"location":[49.5121064,-1.4742185],"ct":"FR","tp":"CS","ts":"2021-02-20T23:06:43Z","tX":507,"tY":349,"tags":{"addr:city":"Valognes","addr:housenumber":"2","addr:postcode":"50700","addr:street":"Rue Neuve","contact:mobile":"+33 6 10 84 59 33","name":"Camping municipal \"Le Bocage\"","operator":"municipal","phone":"+33 2 33 95 82 01","website":"https://www.mairie-valognes.fr/decouvrir-valognes/camping-municipal-bocage/"}},"765857051":{"location":[49.5892895,-1.5917354],"ct":"FR","tp":"CS","ts":"2020-01-23T01:35:15Z","tX":507,"tY":349,"tags":{"name":"Camping Le village vert"}},"826131486":{"location":[49.48713,-1.5687184],"ct":"FR","tp":"CS","ts":"2020-08-18T10:40:33Z","tX":507,"tY":349,"tags":{"addr:city":"L'Étang-Bertrand","addr:postcode":"50260","capacity":"25","description":"Ouverture de l’aire naturelle: Du 1er mai au 30 septembre.\nRéfrigérateur, et congélateur à la disposition des campeurs","fee":"yes","name":"Aire naturelle de l'Oraille","phone":"+33 7 83 08 25 29","website":"https://sites.google.com/site/campingloraille/"}},"849277755":{"location":[49.3842048,-1.5315584],"ct":"FR","tp":"PK","ts":"2020-09-19T15:41:01Z","tX":507,"tY":349,"tags":{"fee":"no","motorhome":"yes","parking":"surface","surface":"asphalt"}},"1304845652":{"location":[49.473699,-1.6468603],"ct":"FR","tp":"CR","ts":"2024-10-07T18:33:24Z","tX":507,"tY":349,"tags":{"bbq":"no","capacity":"20","caravan_site":"motorhome_stopover","caravan_site:type":"village","caravans":"no","charge":"15.32 EUR","charge:conditional":"13.32 EUR @ (Oct-May)","dog":"leashed","fee":"yes","internet_access":"wlan","internet_access:fee":"no","maxlength":"9","name":"Camping-car Park Bricquebec-en-Cotentin","network":"CAMPING-CAR PARK","opening_hours":"24/7","power_supply":"yes","power_supply:capacity":"20","power_supply:fee":"no","power_supply:maxcurrent":"6","sanitary_dump_station":"yes","tents":"no","toilets":"yes","trailer":"no","water_point":"yes","water_point:fee":"no","website":"https://www.campingcarpark.com/fr_FR/sejour/aire-etape-camping-car/normandie/50-la-manche/bricquebec-en-cotentin"}},"11034045907":{"location":[49.3867701,-1.5292043],"ct":"FR","tp":"SD","ts":"2023-07-08T11:30:07Z","tX":507,"tY":349,"tags":{}},"12116015913":{"location":[49.5163038,-1.6837446],"ct":"FR","tp":"SD","ts":"2024-08-17T01:17:18Z","tX":507,"tY":349,"tags":{"access":"yes"}},"12202011151":{"location":[49.3859051,-1.7530543],"ct":"FR","tp":"SD","ts":"2024-09-26T15:09:17Z","tX":507,"tY":349,"tags":{"access":"yes","name":"Elephant bleu","website":"https://station.barneville-carteret.fr/aires-de-stationnement/"}}}