{"39330765":{"location":[49.0511359,-1.4586737],"ct":"FR","tp":"CS","ts":"2023-07-09T09:32:00Z","tX":507,"tY":351,"tags":{"addr:housenumber":"27","addr:street":"rue Gérard-Gaunelle","contact:email":"camping@ville-coutances.fr","internet_access":"wlan","internet_access:fee":"no","name":"Camping municipal Les Vignettes","phone":"+33 2 33 45 43 13","source":"cadastre-dgi-fr source : Direction Générale des Impôts - Cadastre. Mise à jour : 2009","stars":"2","website":"https://www.coutances.fr/camping/"}},"46507603":{"location":[49.0815257,-1.6015129],"ct":"FR","tp":"CS","ts":"2019-01-02T10:43:43Z","tX":507,"tY":351,"tags":{"name":"Le Sénequet"}},"130112337":{"location":[49.0697407,-1.5975783],"ct":"FR","tp":"CS","ts":"2020-02-25T13:45:52Z","tX":507,"tY":351,"tags":{"name":"Les Miélettes"}},"130115839":{"location":[49.1223952,-1.5946087],"ct":"FR","tp":"CS","ts":"2020-12-22T18:34:30Z","tX":507,"tY":351,"tags":{"source":"cadastre-dgi-fr source : Direction Générale des Finances Publiques - Cadastre. Mise à jour : 2020"}},"130115844":{"location":[49.1207973,-1.5978979],"ct":"FR","tp":"CS","ts":"2011-09-16T09:43:45Z","tX":507,"tY":351,"tags":{"name":"Le Grand Large"}},"152020558":{"location":[49.0525557,-1.5923206],"ct":"FR","tp":"CS","ts":"2024-07-23T18:38:37Z","tX":507,"tY":351,"tags":{"caravans":"yes","drinking_water":"yes","email":"campingsmunicipaux@agoncoutainville.fr","name":"Le Marais","opening_hours":"Jul-Aug","phone":"+33 233470520","power_supply":"yes","sanitary_dump_station":"yes","shower":"yes","tents":"yes","toilets":"yes","website":"https://www.agoncoutainville.fr/p/les-campings-municipaux-le-martinet-et-le-marais/"}},"152020560":{"location":[49.0505074,-1.5921424],"ct":"FR","tp":"CS","ts":"2024-07-23T18:41:20Z","tX":507,"tY":351,"tags":{"caravans":"yes","drinking_water":"yes","email":"campingsmunicipaux@agoncoutainville.fr","name":"Le Martinet","phone":"+33 2 33 47 05 20","power_supply":"yes","sanitary_dump_station":"yes","shower":"yes","tents":"yes","toilets":"yes","website":"https://www.agoncoutainville.fr/p/les-campings-municipaux-le-martinet-et-le-marais/"}},"157685661":{"location":[48.9938329,-1.5295233],"ct":"FR","tp":"CS","ts":"2021-12-03T14:37:39Z","tX":507,"tY":351,"tags":{"name":"Camping des Gravelets"}},"157685662":{"location":[48.9794501,-1.5517397],"ct":"FR","tp":"CS","ts":"2021-08-19T20:38:09Z","tX":507,"tY":351,"tags":{"access":"private","addr:city":"Montmartin-sur-Mer","addr:housenumber":"20","addr:postcode":"50590","addr:street":"Avenue de la Brequette","name":"Les Jonquets","source":"cadastre-dgi-fr source : Direction Générale des Impôts - Cadastre. Mise à jour : 2012"}},"157685668":{"location":[48.9794045,-1.5601752],"ct":"FR","tp":"CS","ts":"2021-08-19T20:38:09Z","tX":507,"tY":351,"tags":{"capacity":"159","internet_access":"wlan","name":"Camping Municipal \"Les Garennes\"","source":"cadastre-dgi-fr source : Direction Générale des Impôts - Cadastre. Mise à jour : 2012","stars":"2"}},"157709391":{"location":[48.9708063,-1.5559191],"ct":"FR","tp":"CS","ts":"2024-07-07T07:43:57Z","tX":507,"tY":351,"tags":{"name":"Camping du Sud","source":"cadastre-dgi-fr source : Direction Générale des Impôts - Cadastre. Mise à jour : 2012"}},"165068171":{"location":[49.1041855,-1.6060747],"ct":"FR","tp":"CS","ts":"2018-12-13T12:30:37Z","tX":507,"tY":351,"tags":{"name":"La Belle Etoile"}},"165191293":{"location":[49.1063133,-1.4650055],"ct":"FR","tp":"CS","ts":"2023-10-06T13:40:43Z","tX":507,"tY":351,"tags":{"name":"La Foulerie","source":"cadastre-dgi-fr source : Direction Générale des Impôts - Cadastre. Mise à jour : 2012"}},"167807813":{"location":[49.1429097,-1.5816505],"ct":"FR","tp":"CS","ts":"2024-03-10T21:05:16Z","tX":507,"tY":351,"tags":{"addr:city":"Pirou","addr:place":"La Morinière","capacity":"25","caravans":"yes","email":"marie.massu@wanadoo.fr","mobile":"+33 6 81 64 89 79","name":"Ferme de la Morinière","phone":"+33 2 33 07 87 15","source":"cadastre-dgi-fr source : Direction Générale des Impôts - Cadastre. Mise à jour : 2012"}},"171460340":{"location":[48.9581585,-1.5537375],"ct":"FR","tp":"CS","ts":"2019-06-15T22:33:08Z","tX":507,"tY":351,"tags":{"name":"Les Peupliers","website":"https://www.camping-annoville.fr/"}},"195421458":{"location":[49.0365968,-1.5940553],"ct":"FR","tp":"CS","ts":"2022-06-27T15:16:16Z","tX":507,"tY":351,"tags":{"name":"Camping les Mouettes","service:bicycle:rental":"yes","source":"cadastre-dgi-fr source : Direction Générale des Impôts - Cadastre. Mise à jour : 2011"}},"203080574":{"location":[48.984344,-1.4670389],"ct":"FR","tp":"CS","ts":"2013-01-27T10:47:56Z","tX":507,"tY":351,"tags":{}},"203091952":{"location":[49.0088896,-1.5550221],"ct":"FR","tp":"CS","ts":"2023-09-06T20:55:01Z","tX":507,"tY":351,"tags":{"addr:city":"Regnéville-sur-Mer","addr:housenumber":"8","addr:postcode":"50590","addr:street":"Rue du Port","caravans":"yes","contact:email":"camping.du.havre.de.regneville@gmail.com","fee":"yes","name":"Camping du havre de Regnéville","payment:cash":"yes","payment:visa":"yes","phone":"+33 6 80 74 99 68","tents":"yes","website":"https://www.campinghavreregneville.fr/tarifs/"}},"648686893":{"location":[49.1006804,-1.6087991],"ct":"FR","tp":"CR","ts":"2024-09-26T15:17:36Z","tX":507,"tY":351,"tags":{"addr:city":"Gouville-sur-Mer","capacity":"53","caravan_site":"motorhome_stopover","caravan_site:type":"beach","charge":"15.22 EUR","fee":"yes","internet_access":"no","name":"Aire de camping-cars de Gouville-sur-Mer","power_supply":"yes","sanitary_dump_station":"yes","sanitary_dump_station:chemical_toilet":"yes","sanitary_dump_station:grey_water":"yes","surface":"gravel","water_point":"yes","website":"https://en.normandie-tourisme.fr/campers-and-caravans-service-stop-overs/aire-de-stationnement-et-de-services-34/"}},"654715106":{"location":[49.1061315,-1.6061954],"ct":"FR","tp":"CS","ts":"2023-10-29T02:57:10Z","tX":507,"tY":351,"tags":{"name":"Camping municipal Le Sénequet","phone":"+33233478437","website":"https://www.gouville-sur-mer.fr/crbst_14.html"}},"685069628":{"location":[49.0372763,-1.5847188],"ct":"FR","tp":"CS","ts":"2024-04-28T21:16:42Z","tX":507,"tY":351,"tags":{"name":"Le Ronquet"}},"685069741":{"location":[49.0298588,-1.5940147],"ct":"FR","tp":"CS","ts":"2024-05-24T07:42:35Z","tX":507,"tY":351,"tags":{"addr:city":"Agon-Coutainville","addr:postcode":"50230","addr:street":"Rue du Village des Mielles","capacity":"136","caravans":"yes","internet_access":"yes","name":"GCU Coutainville","operator":"Groupement des Campeurs Universitaires","sanitary_dump_station":"customers","stars":"2","static_caravans":"yes","tents":"yes","website":"https://www.gcu.asso.fr/terrains/coutainville-manche-50","wheelchair":"yes"}},"776021220":{"location":[49.0320369,-1.5886593],"ct":"FR","tp":"CS","ts":"2020-02-24T17:04:49Z","tX":507,"tY":351,"tags":{"name":"Le Sémaphore","source":"cadastre-dgi-fr source : Direction Générale des Finances Publiques - Cadastre. Mise à jour : 2020"}},"776266787":{"location":[48.9776703,-1.5528774],"ct":"FR","tp":"CS","ts":"2020-02-25T15:28:24Z","tX":507,"tY":351,"tags":{"group_only":"yes"}},"884329573":{"location":[49.1322739,-1.5572624],"ct":"FR","tp":"CS","ts":"2022-06-29T10:17:52Z","tX":507,"tY":351,"tags":{"addr:city":"Geffosses","addr:housenumber":"10","addr:street":"Rue du Bourg","email":"campinglesvanneaux@gmail.com","name":"Les Vanneaux","opening_hours":"Jun 01-Jul 15 09:00-20:00","phone":"+336 49 98 21 66"}},"974813629":{"location":[48.9837016,-1.5569093],"ct":"FR","tp":"CS","ts":"2024-03-07T17:15:28Z","tX":507,"tY":351,"tags":{"access":"private","name":"Les Genets"}},"974813630":{"location":[48.9831805,-1.5578866],"ct":"FR","tp":"CS","ts":"2021-08-19T20:38:09Z","tX":507,"tY":351,"tags":{"addr:city":"Montmartin-sur-Mer","addr:housenumber":"18","addr:postcode":"50590","addr:street":"Allée des Dunes","capacity":"127","name":"Camping 2000"}},"974813634":{"location":[48.9831779,-1.5554861],"ct":"FR","tp":"CS","ts":"2021-08-19T20:38:09Z","tX":507,"tY":351,"tags":{"addr:city":"Montmartin-sur-Mer","addr:housenumber":"14","addr:postcode":"50590","addr:street":"Allée des Dunes","capacity":"131","internet_access":"wlan","name":"Les Sirène","stars":"4"}},"974813635":{"location":[48.9814122,-1.5572751],"ct":"FR","tp":"CS","ts":"2021-08-22T09:52:33Z","tX":507,"tY":351,"tags":{"addr:city":"Montmartin-sur-Mer","addr:housenumber":"13","addr:postcode":"50590","addr:street":"Allée des Dunes","capacity":"184","internet_access":"wlan","name":"Les Dauphins","stars":"4"}},"974813639":{"location":[48.9806526,-1.5536508],"ct":"FR","tp":"CS","ts":"2021-08-19T20:38:09Z","tX":507,"tY":351,"tags":{"access":"private","addr:city":"Montmartin-sur-Mer","addr:housenumber":"2","addr:postcode":"50590","addr:street":"Rue du Marais","name":"Les Minquiers"}},"1282437796":{"location":[49.053331,-1.5919368],"ct":"FR","tp":"CR","ts":"2024-05-13T11:44:49Z","tX":507,"tY":351,"tags":{"capacity":"32","caravan_site":"motorhome_stopover","caravan_site:type":"camp_site","charge":"10.72 EUR","fee":"yes","name":"Aire de Camping cars Agon-Coutainville","opening_hours":"24/7","power_supply":"yes","sanitary_dump_station":"yes","water_point":"yes"}},"11035340190":{"location":[49.0514569,-1.4588875],"ct":"FR","tp":"SD","ts":"2023-07-09T09:32:00Z","tX":507,"tY":351,"tags":{"name":"Camping municipal Les Vignettes"}},"11900942160":{"location":[49.0533838,-1.5917958],"ct":"FR","tp":"SD","ts":"2024-05-13T11:44:49Z","tX":507,"tY":351,"tags":{"access":"customers"}}}