{"126506365":{"location":[47.4124429,-1.6709345],"ct":"FR","tp":"CS","ts":"2016-03-20T15:24:56Z","tX":507,"tY":358,"tags":{}},"255157177":{"location":[47.4287853,-1.4971459],"ct":"FR","tp":"CS","ts":"2023-04-15T10:13:55Z","tX":507,"tY":358,"tags":{"access":"customers","addr:city":"Nort-sur-Erdre","addr:postcode":"44390","addr:street":"Rue des Mares Noires","barrier":"fence","capacity:tents":"68","caravans":"yes","name":"Camping de Port Mulon","opening_hours":"Apr-Oct","phone":"+33 2 40 72 23 57","stars":"3","static_caravans":"yes","tents":"yes","website":"https://www.camping-portmulon.com/","wheelchair":"yes"}},"1148220968":{"location":[47.2930005,-1.7253339],"ct":"FR","tp":"CS","ts":"2024-09-08T11:37:36Z","tX":507,"tY":358,"tags":{"backcountry":"yes","landuse":"forest"}},"1201468885":{"location":[47.3629127,-1.5083579],"ct":"FR","tp":"CS","ts":"2025-04-21T14:20:27Z","tX":507,"tY":358,"tags":{"access":"yes","backcountry":"yes","camp_site":"standard","capacity:tents":"6","caravans":"no","description":"Un enregistrement est demandé avec un QR Code à l'arrivée, mais il n'y a ni surveillance ni supervision du lieu. Les personnes campant sur ce lieu peuvent utiliser librement les toilettes de la base nautique.","fee":"no","name":"Halte Nature de Mazerolles","operator":"Ville de Sucé-sur-Erdre","operator:wikidata":"Q115908787","static_caravans":"no","tents":"yes","website":"https://www.enpaysdelaloire.com/hebergements/campings/aire-de-bivouac"}}}