{"26977007":{"location":[46.4124442,-1.5834896],"ct":"FR","tp":"CS","ts":"2023-09-03T20:59:54Z","tX":507,"tY":362,"tags":{"caravans":"yes","drinking_water":"yes","name":"Camping Parfums d'Eté","old:name":"Camping La Ventouse","power_supply":"yes","shower":"yes","stars":"4","tents":"yes","toilets":"yes"}},"39764791":{"location":[46.3451849,-1.4324963],"ct":"FR","tp":"CS","ts":"2023-10-22T22:05:58Z","tX":507,"tY":362,"tags":{"addr:housenumber":"10","addr:street":"Rue du Perthuis Breton","capacity":"149","caravans":"yes","email":"info@camping-baiedaunis.com","internet_access":"wlan","name":"Baie d'Aunis","phone":"+33 2 51 27 47 36","stars":"4","tents":"yes","website":"https://www.camping-baiedaunis.com/"}},"76025188":{"location":[46.4223378,-1.5775979],"ct":"FR","tp":"CS","ts":"2023-08-19T17:26:51Z","tX":507,"tY":362,"tags":{"addr:city":"Jard-sur-Mer","addr:postcode":"85520","addr:street":"Rue de la Perpoise","capacity:persons":"379","dog":"leashed","drinking_water":"yes","fee":"yes","internet_access":"wlan","name":"Camping le Curtys","nudism":"no","openfire":"no","operator":"Capfun","phone":"+33 2 51 33 06 55","power_supply":"yes","shower":"yes","stars":"4","static_caravans":"yes","tents":"no","toilets":"yes","website":"https://www.capfun.com/camping-france-pays_de_la_loire-curtys-FR.html","wheelchair":"yes"}},"96236848":{"location":[46.3596778,-1.4489947],"ct":"FR","tp":"CS","ts":"2021-05-11T13:36:56Z","tX":507,"tY":362,"tags":{"addr:place":"La Terrière","contact:phone":"+33 2 51 27 46 74","contact:website":"http://www.le-sable-dor.fr/","internet_access":"wlan","internet_access:fee":"yes","name":"Le Sable d'Or","stars":"4"}},"96236849":{"location":[46.3519545,-1.4262051],"ct":"FR","tp":"CS","ts":"2016-11-17T14:46:15Z","tX":507,"tY":362,"tags":{"name":"La Corba"}},"96236855":{"location":[46.3578346,-1.4460777],"ct":"FR","tp":"CS","ts":"2024-10-27T17:24:26Z","tX":507,"tY":362,"tags":{"addr:housenumber":"1","addr:street":"Chemin des Aigrettes","contact:email":"contact@campinggrandpre.com","contact:phone":"+33 2 51 30 35 75","contact:website":"https://www.campinggrandpre.com","internet_access":"wlan","name":"Camping Le Grand Pré","pet":"yes","ref:FR:NAF":"5530Z","ref:FR:SIREN":"879986750","ref:FR:SIRET":"87998675000013","source":"INSEE - 2024-10","stars":"2"}},"96236859":{"location":[46.3514921,-1.4073673],"ct":"FR","tp":"CS","ts":"2021-05-11T13:50:27Z","tX":507,"tY":362,"tags":{"capacity":"299","caravans":"yes","email":"contact@lecottagefleuri.fr","internet_access":"wlan","name":"Camping du Cottage Fleuri","phone":"+33 2 51 30 34 57","stars":"4","tents":"yes","website":"https://www.camping-lecottagefleuri.com"}},"97782659":{"location":[46.4106346,-1.5935298],"ct":"FR","tp":"CR","ts":"2024-10-05T00:59:07Z","tX":507,"tY":362,"tags":{"access":"customers","capacity":"16","caravan_site":"motorhome_stopover","caravan_site:type":"beach","charge":"11.32 EUR/24 hours","fee":"yes","maxstay":"48 hours","name":"Aire de camping-car Jard-sur-Mer","opening_hours":"24/7","operator":"Ville de Jard sur Mer","operator:type":"public/government","payment:cards":"yes","surface":"asphalt","water_point":"yes","water_point:charge":"2.50 EUR","water_point:fee":"yes","website":"https://www.ville-jardsurmer.fr/aire-de-camping-car"}},"99868571":{"location":[46.486379,-1.4264553],"ct":"FR","tp":"CS","ts":"2020-11-01T17:09:00Z","tX":507,"tY":362,"tags":{"name":"Camping municipal Le Bois du Bouquet","phone":"+33 2 51 98 96 41","source":"cadastre-dgi-fr source : Direction Générale des Impôts - Cadastre. Mise à jour : 2011","stars":"2","wheelchair":"yes"}},"108143334":{"location":[46.4908638,-1.4183731],"ct":"FR","tp":"CS","ts":"2024-01-21T15:25:45Z","tX":507,"tY":362,"tags":{"name":"La Billardière","stars":"3"}},"109222533":{"location":[46.4064441,-1.421672],"ct":"FR","tp":"CS","ts":"2023-09-18T10:04:26Z","tX":507,"tY":362,"tags":{"caravans":"yes","drinking_water":"yes","email":"contact@capvendeen.fr","fixme":"Changement récent de propriétaire, coordonnées à vérifier","name":"Au vent des marais","shower":"yes","source":"cadastre-dgi-fr source : Direction Générale des Impôts - Cadastre. Mise à jour : 2011","stars":"2","tents":"yes","website":"https://capvendeen.fr/"}},"111507603":{"location":[46.3492603,-1.4328825],"ct":"FR","tp":"CS","ts":"2023-09-12T00:07:36Z","tX":507,"tY":362,"tags":{"addr:street":"Rue du Bottereau","capacity":"200","drinking_water":"yes","email":"belcampsite@gmail.com","internet_access":"wlan","name":"Camping Bel","phone":"+33 2 51 30 47 39","power_supply":"yes","shower":"yes","stars":"4","toilets":"yes","website":"https://www.campingbel.com"}},"111528413":{"location":[46.4031759,-1.5052414],"ct":"FR","tp":"CR","ts":"2024-07-02T12:15:40Z","tX":507,"tY":362,"tags":{"access":"yes","bbq":"no","capacity":"34","caravan_site":"motorhome_stopover","caravan_site:type":"beach","caravans":"no","charge":"15.16 EUR","charge:conditional":"14.56 @ (Oct-Apr)","dog":"leashed","fee":"yes","internet_access":"wlan","internet_access:fee":"no","maxlength":"9","name":"Aire Longeville-sur-Mer, Le Rocher","network":"CAMPING-CAR PARK","opening_hours":"24/7","power_supply":"yes","power_supply:capacity":"34","power_supply:fee":"no","power_supply:maxcurrent":"6","sanitary_dump_station":"yes","seasonal":"no","shower":"yes","toilets":"yes","trailer":"yes","water_point":"yes","water_point:fee":"no","website":"https://www.campingcarpark.com/en_GB/stay/stopover-site-motorhome/pays-de-la-loire/85-vendee/longeville-le-rocher"}},"113752582":{"location":[46.3506218,-1.4361449],"ct":"FR","tp":"CR","ts":"2024-10-05T16:11:34Z","tX":507,"tY":362,"tags":{"access":"yes","capacity":"80","caravan_site":"motorhome_stopover","charge":"9 EUR","charge:conditional":"6 EUR @ (Apr 1 - Jun 14, Sep 16-Sep 30)","fee":"yes","maxstay":"15 days","name":"Aire La Tranche-sur-Mer","power_supply":"no","sanitary_dump_station:conditional":"no @ (Nov-Mar)","seasonal":"no","water_point":"yes","water_point:conditional":"no @ (Nov-Mar)","website":"https://www.latranchesurmer.fr/aires-de-campings-cars/"}},"114124156":{"location":[46.4498007,-1.5263425],"ct":"FR","tp":"CS","ts":"2013-02-27T08:18:18Z","tX":507,"tY":362,"tags":{"internet_access":"wlan","internet_access:fee":"no","name":"La Métairie"}},"116354888":{"location":[46.4165558,-1.4720248],"ct":"FR","tp":"CS","ts":"2024-10-30T14:35:39Z","tX":507,"tY":362,"tags":{"contact:website":"http://www.camping-la-michenotiere.fr","name":"La Michenotière","phone":"+33 2 51 33 38 85","ref:FR:NAF":"5530Z","ref:FR:SIREN":"391432234","ref:FR:SIRET":"39143223400014","source":"INSEE - 2024-10","stars":"3","website":"http://www.camping-la-michenotiere.fr"}},"162385951":{"location":[46.4049071,-1.5063384],"ct":"FR","tp":"CS","ts":"2015-07-29T15:50:04Z","tX":507,"tY":362,"tags":{"internet_access":"wlan","internet_access:fee":"yes","name":"Le Petit Rocher","smoking":"no","stars":"4","wheelchair":"yes"}},"180588434":{"location":[46.5396608,-1.6008967],"ct":"FR","tp":"CS","ts":"2023-05-19T09:53:39Z","tX":507,"tY":362,"tags":{"name":"Camping La Vertonne","stars":"3","website":"http://www.campinglavertonne.com/"}},"207424078":{"location":[46.4480491,-1.5295665],"ct":"FR","tp":"CS","ts":"2013-02-27T08:16:16Z","tX":507,"tY":362,"tags":{"name":"Metairia","source":"cadastre-dgi-fr source : Direction Générale des Impôts - Cadastre. Mise à jour : 2013"}},"213444982":{"location":[46.4648366,-1.6559812],"ct":"FR","tp":"CS","ts":"2025-03-07T13:48:32Z","tX":507,"tY":362,"tags":{"name":"Le Paradis","operator":"Sunêlia","stars":"4"}},"213444984":{"location":[46.4646395,-1.6534996],"ct":"FR","tp":"CS","ts":"2013-03-28T09:49:52Z","tX":507,"tY":362,"tags":{"name":"Camping Loyada"}},"230166143":{"location":[46.412342,-1.5899154],"ct":"FR","tp":"CS","ts":"2024-10-27T17:33:30Z","tX":507,"tY":362,"tags":{"addr:housenumber":"16","addr:street":"Route des Goffineaux","name":"Camping Les Écureuils","ref:FR:NAF":"5530Z","ref:FR:SIREN":"480436732","ref:FR:SIRET":"48043673200014","source":"INSEE - 2024-10","website":"https://www.camping-ecureuils.com/"}},"231536665":{"location":[46.3635545,-1.4216889],"ct":"FR","tp":"CS","ts":"2024-01-26T09:47:35Z","tX":507,"tY":362,"tags":{"cabins":"yes","caravans":"no","motorhome":"no","name":"Les blancs chênes","static_caravans":"yes","tents":"no","website":"https://www.camping-vagues-oceanes.com/camping-vendee/blancs-chenes.html"}},"231536670":{"location":[46.3714433,-1.4158613],"ct":"FR","tp":"CS","ts":"2014-03-08T18:45:45Z","tX":507,"tY":362,"tags":{"name":"Camping les Almadies"}},"234100251":{"location":[46.4757103,-1.4926606],"ct":"FR","tp":"CS","ts":"2024-08-31T00:57:20Z","tX":507,"tY":362,"tags":{"name":"Domaine des Forges","stars":"5"}},"242959240":{"location":[46.4106289,-1.5412439],"ct":"FR","tp":"CR","ts":"2024-07-02T12:05:19Z","tX":507,"tY":362,"tags":{"bbq":"no","capacity":"48","caravan_site":"motorhome_stopover","caravan_site:type":"beach","caravans":"no","charge":"15.16 EUR","charge:conditional":"14.36 @ (Oct-Apr)","dog":"leashed","fee":"yes","internet_access":"wlan","internet_access:fee":"no","maxlength":"9","name":"Aire Saint-Vincent-sur-Jard","network":"CAMPING-CAR PARK","power_supply":"yes","power_supply:capacity":"48","power_supply:maxcurrent":"6","sanitary_dump_station":"yes","sanitary_dump_station:fee":"no","tents":"no","toilets":"no","trailer":"no","water_point":"yes"}},"242959246":{"location":[46.4185901,-1.5286002],"ct":"FR","tp":"CS","ts":"2019-04-12T17:16:54Z","tX":507,"tY":362,"tags":{"name":"La Bolée d'Air","source":"Bing"}},"242963418":{"location":[46.4144235,-1.5213567],"ct":"FR","tp":"CS","ts":"2025-01-16T19:35:35Z","tX":507,"tY":362,"tags":{"addr:city":"Longeville-sur-Mer","addr:housenumber":"341","addr:postcode":"85560","addr:street":"Chemin de la Parée","name":"Camping Club Les Brunelles","ref:FR:NAF":"5530Z","ref:FR:SIREN":"384598249","ref:FR:SIRET":"38459824900017","source":"INSEE - 2025-01"}},"256701171":{"location":[46.410861,-1.5720438],"ct":"FR","tp":"CS","ts":"2021-09-15T05:52:09Z","tX":507,"tY":362,"tags":{"addr:city":"Jard-sur-Mer","addr:postcode":"85520","addr:street":"Rue Vincent Auriol","name":"Camping La Pomme de Pin","operator":"S.A.R.L. Jamin-Robichon"}},"257018848":{"location":[46.4114209,-1.5806834],"ct":"FR","tp":"CS","ts":"2024-10-27T17:33:25Z","tX":507,"tY":362,"tags":{"addr:city":"Jard-sur-Mer","addr:housenumber":"7","addr:postcode":"85520","addr:street":"Rue de l'Océan","caravans":"yes","drinking_water":"yes","email":"info@campinglebosquet.fr","name":"Camping Le Bosquet","phone":"+33 2 51 33 56 57","power_supply":"yes","ref:FR:NAF":"5530Z","ref:FR:SIREN":"444437594","ref:FR:SIRET":"44443759400021","shower":"yes","source":"INSEE - 2024-10","stars":"2","tents":"yes","toilets":"yes","website":"https://www.campinglebosquet.fr/"}},"257021616":{"location":[46.4191665,-1.5694494],"ct":"FR","tp":"CS","ts":"2023-09-05T21:52:26Z","tX":507,"tY":362,"tags":{"caravans":"yes","drinking_water":"yes","name":"Camping L'Océano d'Or","shower":"yes","tents":"yes","toilets":"yes"}},"257022773":{"location":[46.4259064,-1.5657168],"ct":"FR","tp":"CS","ts":"2024-10-27T17:33:15Z","tX":507,"tY":362,"tags":{"name":"Camping La Mouette Cendrée","ref:FR:NAF":"5530Z","ref:FR:SIREN":"490561024","ref:FR:SIRET":"49056102400012","source":"INSEE - 2024-10"}},"258947170":{"location":[46.4365212,-1.6338633],"ct":"FR","tp":"CS","ts":"2022-01-16T16:42:37Z","tX":507,"tY":362,"tags":{"name":"Camping Les Dunes"}},"260315841":{"location":[46.4801463,-1.7418373],"ct":"FR","tp":"CS","ts":"2024-11-05T15:51:42Z","tX":507,"tY":362,"tags":{"addr:housenumber":"8","addr:street":"Rue des Fosses Rouges","cabins":"yes","caravans":"yes","contact:email":"campinglesfossesrouges@gmail.com","name":"Les Fosses Rouges","phone":"+33 2 51 95 17 95","ref:FR:NAF":"5530Z","ref:FR:SIREN":"353716491","ref:FR:SIRET":"35371649100025","source":"INSEE - 2024-11","stars":"4","tents":"yes","website":"https://www.campingfossesrougessablesdolonnevendee.com/"}},"271114510":{"location":[46.4913439,-1.7421915],"ct":"FR","tp":"CR","ts":"2024-09-24T13:56:37Z","tX":507,"tY":362,"tags":{"capacity":"20","caravan_site":"motorhome_stopover","caravan_site:type":"town","charge":"6 EUR","dog":"yes","fee":"yes","maxstay":"2 nights","name":"Aire camping-cars Les Plesses","payment:VAGO":"yes","sanitary_dump_station":"yes","water_point":"yes","website":"https://www.lessables.mobi/fiche/detail/40201/Sejourner~Camping-cars/Aire-camping-cars-Les-Plesses","wheelchair":"yes"}},"271809073":{"location":[46.4747431,-1.7376901],"ct":"FR","tp":"CS","ts":"2024-07-13T20:41:58Z","tX":507,"tY":362,"tags":{"addr:postcode":"85180","addr:street":"Rue des Marchais","cabins":"yes","caravans":"yes","contact:email":"contact@camping-les-pirons.com","internet_access":"wlan","internet_access:fee":"no","name":"Les Pirons","phone":"+33 2 52 67 00 45","static_caravans":"yes","tents":"no","website":"https://www.camping-les-pirons.com/"}},"271839293":{"location":[46.4726013,-1.724737],"ct":"FR","tp":"CS","ts":"2024-03-11T09:11:29Z","tX":507,"tY":362,"tags":{"addr:housenumber":"6","addr:street":"Chemin de Bel Air","cabins":"yes","caravans":"yes","contact:phone":"+33 2 51 22 09 67","name":"Camping Bel Air","phone":"+33 2 51 22 09 67","ref:FR:SIRET":"32756007400012","stars":"5","swimming_pool":"inground","tents":"yes","website":"https://www.campingdubelair.com/"}},"292025986":{"location":[46.4813434,-1.7304433],"ct":"FR","tp":"CS","ts":"2024-08-22T13:05:33Z","tX":507,"tY":362,"tags":{"access":"customers","cabins":"yes","caravans":"yes","contact:email":"info@puitsrochais.com","fee":"yes","name":"Le Puits Rochais","phone":"+33 2 51 21 09 69","stars":"4","tents":"yes","website":"https://www.puitsrochais.com/"}},"302196014":{"location":[46.3457425,-1.4456461],"ct":"FR","tp":"CS","ts":"2024-07-24T07:02:22Z","tX":507,"tY":362,"tags":{"addr:city":"La Tranche Sur Mer","addr:country":"FR","addr:postcode":"85360","addr:street":"Avenue Maurice Samson","caravans":"yes","drinking_water":"yes","email":"campinglevieuxmoulin@latranchesurmer.fr","fax":"+33 2 51 28 93 48","internet_access":"wlan","name":"Le Vieux Moulin","note":"Contour aproximatif sur la Rue du Vieux Moulin","operator":"Municipalité","phone":"+33 2 51 28 93 48","power_supply":"yes","sanitary_dump_station":"yes","shower":"yes","source":"cadastre-dgi-fr source : Direction Générale des Impôts - Cadastre. Mise à jour : 2014","stars":"2","tents":"yes","toilets":"yes","website":"https://campinglevieuxmoulin.fr/","wheelchair":"yes"}},"304212749":{"location":[46.4734079,-1.7201054],"ct":"FR","tp":"CS","ts":"2023-10-29T04:31:34Z","tX":507,"tY":362,"tags":{"addr:housenumber":"41","addr:street":"Rue du Petit Versailles","cabins":"yes","caravans":"yes","email":"contact@campingpetitparis.com","internet_access":"wlan","name":"Camping le Petit Paris","phone":"+33 2 51 22 04 44","stars":"4","tents":"yes","website":"https://www.campingpetitparis.com/","wheelchair":"yes"}},"392657646":{"location":[46.4140371,-1.5531761],"ct":"FR","tp":"CS","ts":"2024-07-13T20:41:58Z","tX":507,"tY":362,"tags":{"addr:city":"Saint-Vincent-sur-Jard","addr:housenumber":"9","addr:postcode":"85520","addr:street":"Rue de la Forêt","email":"campingstvincentsurjard@night-day.fr","mobile":"+33 6 60 64 95 50","name":"Le Pied Girard","phone":"+33 2 51 20 61 73","stars":"2","tents":"yes","website":"https://www.night-and-day.fr/camping/1-camping-du-pied-girard"}},"396936308":{"location":[46.5310232,-1.7555037],"ct":"FR","tp":"CS","ts":"2020-12-15T20:46:49Z","tX":507,"tY":362,"tags":{"name":"Camping Club Le Trianon"}},"398112247":{"location":[46.4720922,-1.6941171],"ct":"FR","tp":"CS","ts":"2016-02-16T07:36:00Z","tX":507,"tY":362,"tags":{"name":"Le Fradin"}},"400645606":{"location":[46.4532902,-1.6999983],"ct":"FR","tp":"CS","ts":"2022-07-27T16:14:51Z","tX":507,"tY":362,"tags":{"name":"Résidence les Cottages Saint-Martin","ref:FR:FANTOIR":"85288A027V"}},"431856089":{"location":[46.4146471,-1.5262676],"ct":"FR","tp":"CS","ts":"2016-07-19T10:19:50Z","tX":507,"tY":362,"tags":{"name":"Camping Azureva"}},"619356621":{"location":[46.4191449,-1.625072],"ct":"FR","tp":"CS","ts":"2024-05-24T13:10:10Z","tX":507,"tY":362,"tags":{"addr:city":"Jard-sur-Mer","addr:country":"FR","addr:postcode":"85520","addr:street":"Route du Payré","barrier":"fence","capacity":"130","caravans":"yes","internet_access":"wlan","name":"GCU Jard-sur-Mer","operator":"Groupement des Campeurs Universitaires","phone":"+33 2 51 33 47 20","sanitary_dump_station":"customers","stars":"2","static_caravans":"yes","tents":"yes","website":"https://www.gcu.asso.fr/","wheelchair":"yes"}},"623897756":{"location":[46.4699761,-1.4859868],"ct":"FR","tp":"CS","ts":"2023-06-16T10:29:26Z","tX":507,"tY":362,"tags":{"name":"Beauchêne","stars":"3"}},"704008406":{"location":[46.3839673,-1.4682995],"ct":"FR","tp":"CS","ts":"2024-10-26T16:44:03Z","tX":507,"tY":362,"tags":{"addr:housenumber":"10","addr:street":"Chemin des Pins","drinking_water":"yes","name":"Les Ramiers","ref:FR:NAF":"5530Z","ref:FR:SIREN":"788962280","ref:FR:SIRET":"78896228000012","shower":"yes","source":"INSEE - 2024-10","stars":"2","toilets":"yes"}},"721117575":{"location":[46.4045476,-1.4860047],"ct":"FR","tp":"CS","ts":"2023-05-08T08:24:15Z","tX":507,"tY":362,"tags":{"addr:city":"Longeville-sur-Mer","addr:postcode":"85560","addr:street":"Le Rocher, Route de la Tranche sur Mer","cabins":"no","caravans":"no","name":"Le Zagarella","operator":"Cap fun","phone":"+33 2 51 33 30 60","stars":"4","static_caravans":"only","tents":"no"}},"728733919":{"location":[46.5464779,-1.6722715],"ct":"FR","tp":"CR","ts":"2024-09-23T21:42:59Z","tX":507,"tY":362,"tags":{"capacity":"3","caravan_site":"motorhome_stopover","caravan_site:type":"village","caravans":"no","dog":"yes","name":"Aire camping-cars de Sainte Foy","opening_hours":"24/7","power_supply":"yes","sanitary_dump_station":"yes","sanitary_dump_station:chemical_toilet":"yes","sanitary_dump_station:grey_water":"yes","surface":"asphalt","tents":"no","water_point":"yes","website":"https://www.in-vendee.com/aires-de-camping-car-en-vendee/aire-camping-cars-de-sainte-foy/sainte-foy/accampdl049v505m6g"}},"741595334":{"location":[46.4417259,-1.6742805],"ct":"FR","tp":"CS","ts":"2023-04-15T20:42:12Z","tX":507,"tY":362,"tags":{"addr:city":"Talmont-Saint-Hilaire","addr:housenumber":"451","addr:postcode":"85440","addr:street":"avenue Notre dame de Bourgenay","capacity:tents":"100","caravans":"yes","email":"camping.lesperance@gmail.com","fee":"yes","name":"L'Espérance","opening_hours":"Jul 1 - Aug 31","operator":"Association “ Espérance Bourgenay”","phone":"+33 2 51 22 22 32","static_caravans":"no","tents":"yes","website":"https://campinglesperance.wixsite.com/bourgenay"}},"741595351":{"location":[46.4437568,-1.6655559],"ct":"FR","tp":"CS","ts":"2020-04-27T13:27:03Z","tX":507,"tY":362,"tags":{"name":"Veillon Plage","stars":"2"}},"741595352":{"location":[46.4413512,-1.666567],"ct":"FR","tp":"CS","ts":"2019-11-03T08:41:59Z","tX":507,"tY":362,"tags":{"name":"Les Dinosaures","stars":"4"}},"741595359":{"location":[46.4406221,-1.6622345],"ct":"FR","tp":"CS","ts":"2024-11-03T19:01:08Z","tX":507,"tY":362,"tags":{"addr:housenumber":"759","addr:street":"Avenue de la Plage","name":"Les Flots de l'Océan","ref:FR:NAF":"5530Z","ref:FR:SIREN":"834785578","ref:FR:SIRET":"83478557800016","source":"INSEE - 2024-11","stars":"3"}},"741595365":{"location":[46.4409349,-1.6634678],"ct":"FR","tp":"SD","ts":"2019-11-03T08:41:59Z","tX":507,"tY":362,"tags":{}},"741595373":{"location":[46.4415179,-1.6632254],"ct":"FR","tp":"CR","ts":"2024-05-11T18:59:31Z","tX":507,"tY":362,"tags":{"capacity":"40","caravan_site":"motorhome_stopover","caravan_site:type":"village","charge":"16.32 EUR","charge:conditional":"14.32 EUR @ (Oct-Mar)","fee":"yes","internet_access":"wlan","name":"Château Guibert / La Plage","network":"AirePark","opening_hours":"24/7","operator":"AirePark","picnic_area":"yes","power_supply":"yes","power_supply:capacity":"30","sanitary_dump_station":"yes","sanitary_dump_station:chemical_toilet":"yes","sanitary_dump_station:grey_water":"yes","water_point":"yes","website":"https://www.aireparkreservation.com/aires-camping-cars/pays-de-la-loire/vendee/talmont-saint-hilaire-chateau-guibert-la-plage"}},"976610620":{"location":[46.3445946,-1.4441308],"ct":"FR","tp":"CS","ts":"2024-07-29T21:58:29Z","tX":507,"tY":362,"tags":{"access":"permit","caravans":"yes","name":"Camping Emplois Saisonniers","tents":"yes"}},"977032721":{"location":[46.3924787,-1.482998],"ct":"FR","tp":"CS","ts":"2024-10-27T17:26:29Z","tX":507,"tY":362,"tags":{"drinking_water":"yes","name":"La Frétille","phone":"+33 2 51 33 21 66","ref:FR:NAF":"5530Z","ref:FR:SIREN":"529117186","ref:FR:SIRET":"52911718600013","shower":"yes","source":"INSEE - 2024-10","stars":"3","website":"https://www.lafretille.com/"}},"977130217":{"location":[46.3959769,-1.4879058],"ct":"FR","tp":"CS","ts":"2024-10-27T17:26:35Z","tX":507,"tY":362,"tags":{"caravans":"yes","name":"Le Sous-Bois","phone":"+33 2 51 33 23 73","ref:FR:NAF":"5530Z","ref:FR:SIREN":"350074373","ref:FR:SIRET":"35007437300019","source":"INSEE - 2024-10","stars":"3","tents":"yes"}},"977130237":{"location":[46.3890715,-1.4885549],"ct":"FR","tp":"CS","ts":"2021-08-28T07:08:48Z","tX":507,"tY":362,"tags":{"name":"Le Clos des Pins","stars":"4"}},"977130245":{"location":[46.3872911,-1.4792517],"ct":"FR","tp":"CS","ts":"2021-08-28T07:08:48Z","tX":507,"tY":362,"tags":{"name":"Domaine Résidentiel de Plein Air \"Les Dunes\"","operator":"Odalys Vacances","stars":"4"}},"1125563413":{"location":[46.3508082,-1.4348022],"ct":"FR","tp":"CR","ts":"2024-05-11T15:50:56Z","tX":507,"tY":362,"tags":{"capacity":"80","caravan_site":"motorhome_stopover","caravan_site:type":"beach","caravans":"no","charge":"9 EUR","charge:conditional":"6 EUR @ (Apr 1 - Jun 14, Sep 16-Sep 30)","dog":"yes","fee":"yes","lit":"yes","maxstay":"15 days","name":"Aire La Tranche-sur-Mer","network":"AirePark","opening_hours":"24/7","operator":"AirePark","reservation":"no","sanitary_dump_station":"yes","sanitary_dump_station:chemical_toilet":"yes","sanitary_dump_station:conditional":"no @ (Nov-Mar)","sanitary_dump_station:grey_water":"yes","seasonal":"no","water_point":"yes","water_point:charge":"4 EUR/100 liter","water_point:conditional":"no @ (Nov-Mar)","water_point:fee":"yes","website":"https://www.latranchesurmer.fr/aires-de-campings-cars/"}},"1202382058":{"location":[46.4226601,-1.491236],"ct":"FR","tp":"CR","ts":"2024-05-08T13:52:48Z","tX":507,"tY":362,"tags":{"bbq":"no","capacity":"15","caravan_site":"motorhome_stopover","caravan_site:type":"beach","caravans":"no","charge":"13.86","covered":"no","dog":"leashed","fee":"yes","internet_access":"wlan","internet_access:fee":"no","maxlength":"none","name":"Aire Longeville-sur-Mer, Longeville Centre","network":"CAMPING-CAR PARK","opening_hours":"24/7","power_supply":"yes","power_supply:capacity":"15","power_supply:fee":"no","power_supply:maxcurrent":"6","sanitary_dump_station":"yes","seasonal":"no","supervised":"yes","surface":"asphalt","tents":"no","trailer":"no","water_point":"yes","website":"https://www.campingcarpark.com/fr_FR/sejour/aire-etape-camping-car/pays-de-la-loire/85-vendee/longeville-centre"}},"1280882690":{"location":[46.4107477,-1.5307394],"ct":"FR","tp":"CR","ts":"2024-07-24T11:16:22Z","tX":507,"tY":362,"tags":{"bbq":"no","capacity":"20","caravan_site":"motorhome_stopover","caravan_site:type":"hamlet","caravans":"no","charge":"15.16 EUR","charge:conditional":"14.56 @ (Oct-Apr)","dog":"leashed","fee":"yes","maxlength":"9","name":"Aire Longeville-sur-Mer, Le Bouil","network":"CAMPING-CAR PARK","power_supply":"yes","power_supply:capacity":"20","power_supply:fee":"no","power_supply:maxcurrent":"6","sanitary_dump_station":"yes","tents":"no","toilets":"yes","trailer":"yes","water_point":"yes","water_point:fee":"no","website":"https://www.campingcarpark.com/fr_FR/sejour/aire-etape-camping-car/pays-de-la-loire/85-vendee/longeville-le-bouil#0"}},"1281864661":{"location":[46.4418702,-1.4683392],"ct":"FR","tp":"CR","ts":"2024-05-11T01:28:59Z","tX":507,"tY":362,"tags":{"bbq":"no","capacity":"12","caravan_site":"motorhome_stopover","caravan_site:type":"village","caravans":"no","dog":"leashed","fee":"yes","name":"Aire Le Bernard","network":"CAMPING-CAR PARK","opening_hours":"24/7","operator":"CAMPING-CAR PARK","power_supply":"yes","sanitary_dump_station":"yes","tents":"no","trailer":"no","website":"https://www.campingcarpark.com/fr_FR/sejour/aire-etape-camping-car/pays-de-la-loire/85-vendee/le-bernard"}},"1281977425":{"location":[46.4700283,-1.6113194],"ct":"FR","tp":"CR","ts":"2024-05-11T15:59:09Z","tX":507,"tY":362,"tags":{"camping_behaviour":"yes","capacity":"46","caravan_site":"motorhome_stopover","caravan_site:type":"river;village","charge":"14.32 EUR","charge:conditional":"12.32 @ (Oct-Mar)","dog":"yes","fee":"yes","internet_access":"wlan","maxstay":"72 hours","name":"Talmont-Saint-Hilaire - Aire du lac / La Chapelle","network":"AirePark","opening_hours":"24/7","operator":"AirePark","power_supply":"yes","power_supply:capacity":"36","reservation:website":"https://www.aireparkreservation.com/aires-camping-cars/pays-de-la-loire/vendee/talmont-saint-hilaire-aire-du-lac-la-chapelle","sanitary_dump_station":"yes","sanitary_dump_station:chemical_toilet":"yes","sanitary_dump_station:grey_water":"yes","tents":"no","water_point":"yes","website":"https://www.destination-vendeegrandlittoral.com/sit/hebergements/hebergement/camping-cars/aire-du-lac/"}},"1304799675":{"location":[46.4804448,-1.4184421],"ct":"FR","tp":"CS","ts":"2024-07-31T09:41:19Z","tX":507,"tY":362,"tags":{}},"1830526356":{"location":[46.5442682,-1.6912498],"ct":"FR","tp":"CS","ts":"2022-09-27T15:17:38Z","tX":507,"tY":362,"tags":{"name":"Camping \"Au pré de l'Étang\"","source":"http://club.quomodo.com/aupredeletang/","stars":"3"}},"2411026341":{"location":[46.4707399,-1.6352591],"ct":"FR","tp":"CS","ts":"2024-11-03T19:01:15Z","tX":507,"tY":362,"tags":{"addr:housenumber":"538","addr:street":"Avenue des Sables","caravans":"yes","email":"camping-sunocean@orange.fr","name":"Camping Sun Océan","phone":"+33 2 51 90 61 24","ref:FR:NAF":"5530Z","ref:FR:SIREN":"479048084","ref:FR:SIRET":"47904808400012","source":"INSEE - 2024-11","stars":"3","tents":"yes","website":"https://www.camping-sunocean.fr"}},"7480293990":{"location":[46.4647116,-1.7269935],"ct":"FR","tp":"CS","ts":"2023-09-10T16:17:30Z","tX":507,"tY":362,"tags":{"drinking_water":"yes","name":"Camping de la Baie de Cayola","power_supply":"yes","shower":"yes","stars":"4","toilets":"yes"}},"9932591218":{"location":[46.5412363,-1.7341975],"ct":"FR","tp":"CS","ts":"2022-09-08T20:02:40Z","tX":507,"tY":362,"tags":{"addr:street":"Domaine Les Rousselières","description":"camping a la ferme","name":"Domaine Les Rousselières","phone":"+33 2 51 95 33 08","website":"https://www.lesrousselieres.com/camping.htm"}},"9974852494":{"location":[46.3662151,-1.4591686],"ct":"FR","tp":"CS","ts":"2022-09-10T09:16:13Z","tX":507,"tY":362,"tags":{"capacity":"20","fee":"yes","name":"Le Pacific","stars":"2"}},"11700949969":{"location":[46.5562994,-1.7212123],"ct":"FR","tp":"CS","ts":"2024-03-07T14:11:55Z","tX":507,"tY":362,"tags":{"contact:city":"Saint-Mathurin","contact:phone":"+33 2 49 06 10 60","contact:postcode":"85150","contact:street":"Zone Les Biottières","name":"Campings Cybèle Vacances","opening_hours":"Mo-Sa 09:00-20:00; Su 09:30-19:30","website":"http://www.cybelevacances.fr/"}},"11889127292":{"location":[46.422364,-1.4915898],"ct":"FR","tp":"SD","ts":"2024-05-08T13:47:54Z","tX":507,"tY":362,"tags":{"access":"yes"}},"11897048301":{"location":[46.3504231,-1.437027],"ct":"FR","tp":"SD","ts":"2024-05-11T15:45:07Z","tX":507,"tY":362,"tags":{"access":"yes"}},"12195598565":{"location":[46.5464889,-1.6723654],"ct":"FR","tp":"SD","ts":"2024-09-23T21:42:59Z","tX":507,"tY":362,"tags":{"sanitary_dump_station:chemical_toilet":"yes","sanitary_dump_station:grey_water":"yes","water_point":"yes"}},"12197088320":{"location":[46.4913885,-1.7427345],"ct":"FR","tp":"SD","ts":"2024-09-24T13:56:37Z","tX":507,"tY":362,"tags":{}}}