{"89358803":{"location":[46.1937779,-1.4364461],"ct":"FR","tp":"CS","ts":"2021-03-25T13:48:34Z","tX":507,"tY":363,"tags":{"capacity:caravans":"142","capacity:tents":"22","caravans":"yes","contact:phone":"+335 46 29 84 27","name":"Le Remondeau","operator":"Camping Municipal","stars":"3","tents":"yes","website":"https://www.leremondeau.fr"}},"99502783":{"location":[46.2253286,-1.545731],"ct":"FR","tp":"CS","ts":"2023-10-22T22:06:08Z","tX":507,"tY":363,"tags":{"caravans":"yes","drinking_water":"yes","fee":"yes","name":"Camping La Côte Sauvage","operator":"Tohapi","phone":"+334 30 05 15 19","power_supply":"yes","sanitary_dump_station":"yes","shower":"yes","stars":"3","tents":"yes","toilets":"yes","website":"https://www.campinglacotesauvage.com/"}},"99569326":{"location":[46.2400589,-1.5605068],"ct":"FR","tp":"CS","ts":"2024-07-06T10:52:39Z","tX":507,"tY":363,"tags":{"capacity:tents":"165","caravans":"yes","contact:phone":"+335 46 29 40 76","name":"Camping Les Baleines","power_supply":"yes","source":"Bing;survey","stars":"3","tents":"yes","website":"https://www.camping-lesbaleines.com/"}},"99670119":{"location":[46.2458598,-1.4854707],"ct":"FR","tp":"CS","ts":"2024-12-24T13:18:24Z","tX":507,"tY":363,"tags":{"access":"customers","addr:city":"Les Portes-en-Ré","addr:postcode":"17880","addr:street":"Route du Fier","contact:email":"contact@lephare-iledere.com","contact:phone":"+335 46 29 56 82","description":"Bienvenue au Phare sur l’île de Ré, un hôtel de plein air 4 étoiles signé Collection Rivages : une famille d'établissements haut de gamme offrant une immersion totale dans la nature.","dog":"yes","fee":"yes","internet_access":"yes","name":"Le Phare - Collection Rivages","operator":"Collection Rivages","payment:cash":"yes","payment:credit_cards":"yes","payment:debit_cards":"yes","payment:notes":"yes","payment:visa":"yes","reservation":"recommended","stars":"4","static_caravans":"yes","website":"https://www.lephare-iledere.com"}},"99826225":{"location":[46.2051745,-1.4678435],"ct":"FR","tp":"CS","ts":"2023-09-06T18:04:05Z","tX":507,"tY":363,"tags":{"addr:city":"La Couarde-sur-Mer","addr:housenumber":"50","addr:postcode":"17670","addr:street":"Route d'Ars","caravans":"yes","email":"campingdelocean@wanadoo.fr","fax":"+33 5 46 29 92 13","name":"Camping de l'Océan","operator":"M. et Mme Launay","phone":"+33 5 46 29 87 70","source":"Association Tourisme et Handicaps","stars":"5","tents":"yes","website":"https://www.eden-villages.fr/campings/ocean/","wheelchair":"limited"}},"102185977":{"location":[46.212522,-1.5291579],"ct":"FR","tp":"CS","ts":"2020-07-24T09:15:07Z","tX":507,"tY":363,"tags":{"addr:city":"Ars-en-Ré","addr:postcode":"17590","addr:street":"Route de Radia","internet_access":"wlan","internet_access:fee":"no","name":"Le Cormoran","phone":"+33 5 46 29 46 04","stars":"5","website":"http://www.cormoran.com/"}},"102187355":{"location":[46.203466,-1.4510513],"ct":"FR","tp":"CS","ts":"2021-03-25T13:42:41Z","tX":507,"tY":363,"tags":{"addr:housenumber":"17670","caravans":"yes","internet_access":"yes","internet_access:fee":"yes","name":"Le Puma","phone":"+335 46 29 85 68","stars":"3","tents":"yes","website":"https://www.lepuma.com/"}},"102187356":{"location":[46.203802,-1.4540105],"ct":"FR","tp":"CS","ts":"2021-03-25T13:51:15Z","tX":507,"tY":363,"tags":{"capacity:tents":"90","caravans":"yes","contact:phone":"+335 46 29 87 01","name":"Bois Henry IV","stars":"2","tents":"yes"}},"102199861":{"location":[46.2042984,-1.4448041],"ct":"FR","tp":"CS","ts":"2024-03-10T16:46:22Z","tX":507,"tY":363,"tags":{"cabins":"yes","caravans":"yes","contact:city":"La Couarde-sur-Mer","contact:phone":"+33 5 46 29 84 82","contact:postcode":"17670","contact:street":"Chemin De La Grifforine, Route D'ars En Ré","name":"La Tour des Prises","source":"BDOrtho IGN","stars":"4","tents":"yes","website":"https://lesprises.com/"}},"102199991":{"location":[46.2197332,-1.5288693],"ct":"FR","tp":"CS","ts":"2024-10-27T17:15:37Z","tX":507,"tY":363,"tags":{"addr:housenumber":"15","addr:street":"Route de Saint-Clément Rd N°735","caravans":"yes","name":"Campiotel des Dunes","phone":"+33 5 46 29 41 41","ref:FR:NAF":"5530Z","ref:FR:SIREN":"399784099","ref:FR:SIRET":"39978409900018","source":"INSEE - 2024-10","stars":"4","tents":"yes","website":"https://www.campiotel.com/"}},"102202460":{"location":[46.2412204,-1.5521914],"ct":"FR","tp":"CS","ts":"2024-11-02T18:38:28Z","tX":507,"tY":363,"tags":{"addr:housenumber":"408","addr:street":"Rue du Chaume","caravans":"yes","contact:email":"info@la-plage.com","contact:phone":"+335 46 29 42 62","name":"Airotel La Plage","ref:FR:NAF":"5530Z","ref:FR:SIREN":"333284263","ref:FR:SIRET":"33328426300022","source":"INSEE - 2024-11","stars":"4","tents":"yes","website":"http://www.la-plage.com/","wheelchair":"yes"}},"102868670":{"location":[46.2479704,-1.4908869],"ct":"FR","tp":"CS","ts":"2021-06-24T18:16:28Z","tX":507,"tY":363,"tags":{"alt_name":"Camping seasonova Les Portes en Ré","capacity:tents":"130","caravans":"yes","contact:email":"contact@camping-seasonova-iledere.com","contact:phone":"+335 46 29 51 04","name":"Camping Île de Ré","operator":"Seasanova","stars":"3","tents":"yes","website":"https://vacances-seasonova.com/fr/camping/camping-ile-de-re/"}},"103248947":{"location":[46.2278573,-1.4268589],"ct":"FR","tp":"CS","ts":"2021-03-25T14:07:30Z","tX":507,"tY":363,"tags":{"capacity:tents":"50","caravans":"yes","contact:email":"camping.les.ilates@flowercampings.com","contact:phone":"+335 46 29 05 43","description":"Camping Municipal de Loix","name":"Les Ilates","operator":"Flower","source":"Bing","stars":"4","tents":"yes","website":"https://www.camping-loix.com/"}},"103307415":{"location":[46.2029054,-1.5201423],"ct":"FR","tp":"CS","ts":"2021-12-10T04:50:49Z","tX":507,"tY":363,"tags":{"capacity:tents":"67","contact:email":"contact@campdusoleil.com","contact:phone":"+335 46 29 40 62","name":"Camp du Soleil","stars":"3","website":"https://www.campdusoleil.com/"}},"103497668":{"location":[46.1872709,-1.407281],"ct":"FR","tp":"CS","ts":"2021-03-25T13:29:45Z","tX":507,"tY":363,"tags":{"caravans":"yes","contact:phone":"+335 46 35 38 83","name":"Les Tamarins","tents":"yes","website":"https://www.odalys-vacances.com/location-mer/poitou-charentes/ile-de-re/tamarins-plage.html"}},"260673575":{"location":[46.2093632,-1.5367916],"ct":"FR","tp":"CS","ts":"2021-03-25T18:30:08Z","tX":507,"tY":363,"tags":{"capacity:tents":"200","caravans":"yes","contact:phone":"+335 46 29 46 42","name":"Camping La Combe a l'Eau","stars":"1","tents":"yes","website":"https://www.camping-lacombealeau.com/"}},"260673580":{"location":[46.2026439,-1.5269245],"ct":"FR","tp":"CS","ts":"2021-03-25T18:30:08Z","tX":507,"tY":363,"tags":{"addr:city":"Ars-en-Ré","addr:country":"FR","addr:housenumber":"15","addr:postcode":"17590","addr:street":"Route de la Pointe de Grignon","capacity:tents":"138","caravans":"yes","name":"Camping Essi","phone":"+33 5 46 29 44 73","stars":"3","tents":"yes","website":"http://www.campingessi.com/"}},"550290208":{"location":[46.2273197,-1.5466784],"ct":"FR","tp":"CR","ts":"2024-10-23T20:47:13Z","tX":507,"tY":363,"tags":{"capacity":"45","caravan_site":"motorhome_stopover","caravan_site:type":"beach","charge":"8 EUR","fee":"yes","internet_access":"no","maxstay":"48 hours","name":"Aire de stationnement camping-cars de Saint-Clément-des-Baleines","operator":"Commune de Saint-Clément-des-Baleines","power_supply":"yes","sanitary_dump_station":"yes","seasonal":"yes","water_point":"yes","website":"https://www.iledere.com/sejourner/hebergement-au-meilleur-prix/aires-de-camping-cars/aire-de-stationnement-camping-cars-de-saint-clement-des-baleines-4008553"}},"922095985":{"location":[46.1861411,-1.4062939],"ct":"FR","tp":"CS","ts":"2021-04-16T23:21:37Z","tX":507,"tY":363,"tags":{"caravans":"yes","contact:email":"camping-des-dunes@orange.fr","contact:phone":"+335 46 35 00 28","name":"Les Dunes","stars":"2","tents":"yes","website":"https://www.campingdesdunes-iledere.fr/"}},"957899079":{"location":[46.2295029,-1.4835183],"ct":"FR","tp":"CR","ts":"2024-09-23T00:33:54Z","tX":507,"tY":363,"tags":{"capacity":"10","caravan_site":"motorhome_stopover","caravan_site:type":"beach","caravans":"no","charge":"25 EUR; 20 EUR @ (Sep-Jun)","fee":"yes","name":"Aire de stationnement camping-cars des Portes-en-Ré","start_date":"Dec 01 2024","surface":"asphalt","tents":"no","website":"https://www.iledere.com/sejourner/hebergement-au-meilleur-prix/campings/aire-de-stationnement-camping-cars-des-portes-en-re-les-portes-en-re-fr-4008555/"}},"957899080":{"location":[46.2292621,-1.4834239],"ct":"FR","tp":"SD","ts":"2021-06-24T15:00:03Z","tX":507,"tY":363,"tags":{}},"957939299":{"location":[46.2478041,-1.4900344],"ct":"FR","tp":"SD","ts":"2021-06-24T18:16:28Z","tX":507,"tY":363,"tags":{"access":"customers"}},"8863923112":{"location":[46.2477683,-1.4899285],"ct":"FR","tp":"SD","ts":"2021-06-24T19:34:30Z","tX":507,"tY":363,"tags":{}},"8939293675":{"location":[46.2042305,-1.4670515],"ct":"FR","tp":"SD","ts":"2021-07-21T16:21:09Z","tX":507,"tY":363,"tags":{"name":"Camping de l'Océan"}},"11091235963":{"location":[46.2271131,-1.5468826],"ct":"FR","tp":"SD","ts":"2023-12-23T11:12:07Z","tX":507,"tY":363,"tags":{"access":"yes","caravan_site":"motorhome_stopover","caravan_site:type":"beach","water_point":"yes"}}}