{"61031459":{"location":[43.5949238,-1.4590019],"ct":"FR","tp":"CS","ts":"2024-07-04T21:00:25Z","tX":507,"tY":373,"tags":{"access":"private","drinking_water":"yes","name":"Camping CE RATP","operator":"CE RATP"}},"61031557":{"location":[43.6235564,-1.4408247],"ct":"FR","tp":"CS","ts":"2023-06-29T14:25:40Z","tX":507,"tY":373,"tags":{"addr:city":"Capbreton","addr:housenumber":"Quartier La Pointe","addr:postcode":"40130","addr:street":"Chemin rural de la Montagne","caravans":"yes","contact:email":"contact@camping-lapointe.com","contact:phone":"+33 5 58 72 14 98","contact:website":"https://siblu.fr","name":"La Pointe by Siblu","operator":"Siblu","ref:FR:CRTA":"HPAAQU04001WBDNQ","stars":"4","tents":"yes"}},"122112466":{"location":[43.7941692,-1.4074184],"ct":"FR","tp":"CS","ts":"2024-09-25T15:53:36Z","tX":507,"tY":373,"tags":{"addr:city":"Vieux-Boucau-les-Bains","addr:postcode":"40480","addr:street":"Boulevard du Marensin","caravans":"yes","contact:email":"contact@camping-les-sableres.com","contact:phone":"+33 5 58 48 12 29","drinking_water":"yes","internet_access":"wlan","internet_access:fee":"customers","name":"Camping municipal Les Sablères","ref:FR:CRTA":"HPAAQU04001WBDQ5","shower":"yes","stars":"3","tents":"yes","website":"https://www.camping-les-sableres.com/"}},"148667415":{"location":[43.6302491,-1.4350273],"ct":"FR","tp":"CS","ts":"2024-08-12T09:15:37Z","tX":507,"tY":373,"tags":{"addr:city":"Capbreton","addr:housenumber":"15","addr:postcode":"40130","addr:street":"rue des Biches","caravans":"yes","contact:email":"campinglacivelle@capbreton.fr","contact:phone":"+33 5 58 72 15 11","email":"campinglacivelle@capbreton.fr","internet_access":"wlan","internet_access:fee":"yes","name":"La Civelle","note":"Accueil Vélo","operator":"Capbreton","source":"cadastre-dgi-fr source : Direction Générale des Impôts - Cadastre. Mise à jour : 2012","stars":"3","tents":"yes","website":"https://www.campinglacivelle.fr","wheelchair":"yes"}},"219707773":{"location":[43.5932907,-1.4631615],"ct":"FR","tp":"CS","ts":"2022-04-05T10:08:31Z","tX":507,"tY":373,"tags":{"addr:city":"Labenne","addr:housenumber":"38","addr:postcode":"40530","addr:street":"avenue de la Plage","cabins":"yes","contact:email":"mer@capfun.com","contact:phone":"+33 5 59 45 42 09","name":"La Mer","operator":"Capfun","phone":"+33 5 59 45 42 09","ref:FR:CRTA":"HPAAQU04001WBDNN","stars":"4","tents":"no","website":"https://www.capfun.com/camping-france-aquitaine-la_mer-FR.html"}},"233959747":{"location":[43.5975455,-1.4622578],"ct":"FR","tp":"CS","ts":"2023-06-29T14:39:34Z","tX":507,"tY":373,"tags":{"addr:city":"Labenne","addr:housenumber":"45","addr:postcode":"40530","addr:street":"Avenue de la Plage","cabins":"yes","email":"leboudigau@vagues-oceanes.com","name":"Vagues Océanes - Le Boudigau","ref:FR:CRTA":"HPAAQU04001WBDNY","stars":"4","tents":"no","website":"https://www.camping-vagues-oceanes.com/camping-landes/le-boudigau.html"}},"233959748":{"location":[43.6038786,-1.4559901],"ct":"FR","tp":"CS","ts":"2024-07-16T15:59:20Z","tX":507,"tY":373,"tags":{"addr:city":"Labenne","addr:postcode":"40530","addr:street":"Rue des Pins Bleus","barrier":"fence","cabins":"yes","caravans":"yes","contact:email":"camping@lespinsbleus.com","contact:phone":"+33 5 59 45 41 13","drinking_water":"yes","fence_type":"wire","height":"2","internet_access":"yes","name":"Les Pins Bleus","note":"Accueil Vélo","operator":"Camping municipal","power_supply":"yes","ref:FR:CRTA":"HPAAQU04001WBE2N","sanitary_dump_station":"yes","shower":"yes","stars":"3","tents":"yes","toilets":"yes","website":"https://www.lespinsbleus.com/"}},"233959753":{"location":[43.5988052,-1.4571408],"ct":"FR","tp":"CS","ts":"2024-06-15T14:09:25Z","tX":507,"tY":373,"tags":{"addr:city":"Labenne","addr:housenumber":"59","addr:postcode":"40530","addr:street":"avenue de l'océan","brand":"yelloh! village","cabins":"yes","capacity":"3000","caravans":"no","contact:facebook":"https://www.facebook.com/campingvillagelesylvamar","contact:phone":"+33 5 59 45 75 16","internet_access":"yes","name":"Sylvamar Camping Resort & Spa","operator":"Yelloh! Village","ref:FR:CRTA":"HPAAQU04001WBDQK","stars":"5","tents":"yes","website":"https://www.camping-sylvamar.com/fr/"}},"385316426":{"location":[43.6910929,-1.4262393],"ct":"FR","tp":"CR","ts":"2024-05-20T14:22:11Z","tX":507,"tY":373,"tags":{"bbq":"no","capacity":"110","caravan_site":"motorhome_stopover","caravan_site:type":"beach","caravans":"no","charge":"15.72 EUR","charge:conditional":"13.72@(Oct-Apr)","dog":"leashed","fee":"yes","maxlength":"9","name":"Aire Seignosse","network":"CAMPING-CAR PARK","opening_hours":"24/7","power_supply":"yes","power_supply:capacity":"96","power_supply:maxcurrent":"6","sanitary_dump_station":"yes","tents":"no","toilets":"yes","trailer":"yes","website":"https://www.campingcarpark.com/fr_FR/sejour/aire-etape-camping-car/nouvelle-aquitaine/40-landes/seignosse"}},"396000296":{"location":[43.7232609,-1.4214854],"ct":"FR","tp":"CS","ts":"2024-08-22T09:26:22Z","tX":507,"tY":373,"tags":{"addr:city":"Seignosse","addr:postcode":"40510","caravans":"yes","contact:phone":"+335 58 73 53 96","email":"contact@campinglesoyats.fr","name":"Les Oyats","operator":"Siblu","ref:FR:CRTA":"HPAAQU040FS0000J","stars":"4","tents":"yes","website":"https://siblu.fr"}},"437531989":{"location":[43.7233758,-1.4114802],"ct":"FR","tp":"CS","ts":"2024-12-24T13:25:03Z","tX":507,"tY":373,"tags":{"access":"customers","addr:city":"Seignosse","addr:housenumber":"2338","addr:postcode":"40510","addr:street":"Route de Vieux Boucau","caravans":"no","contact:email":"contact@lesmaritimes.com","contact:phone":"+33 5 58 43 32 80","description":"Bienvenue aux Maritimes à Seignosse, un hôtel de plein air 4 étoiles signé Collection Rivages : une famille d'établissements haut de gamme offrant une immersion totale dans la nature.","dog":"yes","fee":"yes","internet_access":"yes","name":"Les Maritimes - Collection Rivages","operator":"Collection Rivages","payment:cash":"yes","payment:credit_cards":"yes","payment:debit_cards":"yes","payment:notes":"yes","payment:visa":"yes","ref:FR:CRTA":"HPAAQU04001WBDMU","reservation":"recommended","stars":"4","static_caravans":"yes","tents":"yes","website":"https://www.lesmaritimes.com/fr"}},"438163145":{"location":[43.6541136,-1.4279801],"ct":"FR","tp":"CS","ts":"2024-05-24T14:14:51Z","tX":507,"tY":373,"tags":{"addr:city":"Capbreton","addr:country":"FR","addr:housenumber":"7","addr:postcode":"44130","addr:street":"Rue des Campeurs","capacity":"84","caravans":"yes","description":"camping réservé aux adhérents de l'association","fee":"yes","internet_access":"wlan","internet_access:fee":"customers","name":"GCU Capbreton","openfire":"no","operator":"Groupement des Campeurs Universitaires de France","phone":"+335 58 72 22 67","sanitary_dump_station":"customers","stars":"2","static_caravans":"yes","tents":"yes","website":"https://www.gcu.asso.fr/terrains/capbreton-landes-40","wheelchair":"limited"}},"495479582":{"location":[43.6926368,-1.4291963],"ct":"FR","tp":"CS","ts":"2024-07-14T09:05:49Z","tX":507,"tY":373,"tags":{"addr:city":"Seignosse","addr:postcode":"40510","addr:street":"Avenue des Tucs","capacity":"410","caravans":"no","contact:email":"reservation@natureo.eu","contact:phone":"+33 5 58 43 30 30","drinking_water":"no","fee":"yes","name":"Naturéo Resort","network":"charte durable palo","opening_hours":"Mo-Fr 09:00-18:00","phone":"+33 5 58 43 30 30","power_supply":"no","ref:FR:CRTA":"HPAAQU04001WBDPT","shower":"no","stars":"4","tents":"no","toilets":"no","website":"https://www.natureo-seignosse.com/"}},"512624248":{"location":[43.6308768,-1.4466883],"ct":"FR","tp":"CS","ts":"2024-08-12T09:15:37Z","tX":507,"tY":373,"tags":{"addr:city":"Capbreton","addr:postcode":"40130","addr:street":"Parc de Fierbois","caravans":"yes","contact:email":"fierbois@vacances-andretrigano.com","contact:phone":"+33 5 58 72 12 30","internet_access":"wlan","internet_access:fee":"yes","name":"Camping André Trigano Domaine de Fierbois","operator":"André Trigano","ref:FR:CRTA":"HPAAQU040FS0004A","stars":"2","tents":"yes","website":"https://vacances-andretrigano.com/camping/landes/domaine-de-fierbois-capbreton","wheelchair":"yes"}},"633584141":{"location":[43.6718602,-1.4195477],"ct":"FR","tp":"CR","ts":"2024-05-10T18:23:45Z","tX":507,"tY":373,"tags":{"addr:city":"Soorts-Hossegor","addr:housenumber":"580","addr:postcode":"40150","addr:street":"Route des Lacs","bbq":"no","capacity":"83","caravan_site":"motorhome_stopover","caravan_site:type":"village","caravans":"no","charge":"16.52 EUR","charge:conditional":"14.72 EUR @ (Oct-Apr)","description":"Aire de 1 hectare : 85 places pour des véhicules de moins de 7.5 m de longueur.","dog":"leashed","fee":"yes","internet_access":"wlan","internet_access:fee":"no","maxlength":"9","name":"Aire de Soorts - Hossegor, le lac d'Hossegor","network":"CAMPING-CAR PARK","operator":"CAMPING-CAR PARK","power_supply":"yes","sanitary_dump_station":"yes","tents":"no","toilets":"yes","trailer":"no","water_point":"yes","website":"https://www.i-park.fr/index3Ipark?terminal=89","wheelchair":"yes"}},"692733308":{"location":[43.6524383,-1.4288402],"ct":"FR","tp":"CS","ts":"2019-06-12T20:44:32Z","tX":507,"tY":373,"tags":{"group_only":"yes","name":"Bourret","operator":"GCU"}},"696751951":{"location":[43.594416,-1.4565957],"ct":"FR","tp":"CS","ts":"2022-04-05T12:25:51Z","tX":507,"tY":373,"tags":{"addr:city":"Labenne","addr:housenumber":"60","addr:postcode":"40530","addr:street":"route de l'Océan","cabins":"yes","contact:email":"sudland@capfun.com","contact:phone":"+33 5 59 45 42 02","name":"Sud Land","operator":"Capfun","ref:FR:CRTA":"HPAAQU04001WBDMP","stars":"4","tents":"no","website":"https://www.capfun.com/camping-france-aquitaine-sud_land-FR.html"}},"898393467":{"location":[43.6363537,-1.4472194],"ct":"FR","tp":"CR","ts":"2024-03-26T23:22:58Z","tX":507,"tY":373,"tags":{"bakery_service":"yes","bbq":"no","capacity":"135","caravan_site":"motorhome_stopover","caravan_site:type":"beach","caravans":"no","charge":"13 EUR","charge:conditional":"8.50 EUR@(Dec-Feb);11 EUR@(Oct-Nov);11 EUR@(Mar-Apr);14.50 EUR@(Jul 1-Jul 15); 15 EUR@(Jul 16-Auh 31)","drinking_water":"yes","fee":"yes","internet_access":"wlan","internet_access:fee":"no","lit":"yes","name":"Aire de camping cars des océanides","opening_hours":"24/7","power_supply":"yes","power_supply:fee":"no","sanitary_dump_station":"yes","sanitary_dump_station:chemical_toilet":"yes","sanitary_dump_station:grey_water":"yes","shower":"outdoor","surface":"asphalt","tents":"no","toilets":"yes","website":"https://www.capbreton-tourisme.com/aire-camping-car/aire-de-camping-cars-de-capbreton/","wikimedia_commons":"Category:Oceanides motorhome stopover"}},"1284881112":{"location":[43.5960795,-1.4551687],"ct":"FR","tp":"CR","ts":"2024-05-20T14:19:51Z","tX":507,"tY":373,"tags":{"bbq":"no","capacity":"90","caravan_site":"motorhome_stopover","caravan_site:type":"beach","caravans":"no","charge":"15.66 EUR","charge:conditional":"13.86 EUR @ (Oct-Apr)","dog":"leashed","fee":"yes","internet_access":"wlan","maxlength":"none","name":"Aire Camping-car Park Labenne, Océan","network":"CAMPING-CAR PARK","opening_hours":"24/7","power_supply":"yes","power_supply:capacity":"92","power_supply:maxcurrent":"6","sanitary_dump_station":"yes","seasonal":"no","tents":"no","trailer":"yes","water_point":"yes","website":"https://www.campingcarpark.com/fr_FR/sejour/aire-etape-camping-car/nouvelle-aquitaine/40-landes/labenne"}},"3886659964":{"location":[43.6907488,-1.4257956],"ct":"FR","tp":"SD","ts":"2015-12-10T21:07:42Z","tX":507,"tY":373,"tags":{}},"9602877266":{"location":[43.7353987,-1.4141518],"ct":"FR","tp":"CS","ts":"2022-03-24T10:17:50Z","tX":507,"tY":373,"tags":{"addr:city":"Seignosse","addr:housenumber":"196","addr:postcode":"40510","addr:street":"Route de Vieux Boucau","caravans":"no","contact:email":"info@oceanshelter.com","contact:phone":"+33 7 67 49 15 19","group_only":"yes","name":"Ocean Shelter","tents":"no","website":"https://www.oceanshelter.com/"}},"10614185851":{"location":[43.7238657,-1.4215182],"ct":"FR","tp":"SD","ts":"2024-08-15T10:47:08Z","tX":507,"tY":373,"tags":{"fee":"no"}},"10825142528":{"location":[43.6049174,-1.456182],"ct":"FR","tp":"SD","ts":"2023-04-19T19:52:50Z","tX":507,"tY":373,"tags":{"access":"private"}},"11663854632":{"location":[43.6364333,-1.4475051],"ct":"FR","tp":"SD","ts":"2024-02-25T22:46:26Z","tX":507,"tY":373,"tags":{"access":"no","fee":"no","power_supply":"yes","sanitary_dump_station:chemical_toilet":"yes","sanitary_dump_station:grey_water":"yes"}},"11663854633":{"location":[43.6356748,-1.4467379],"ct":"FR","tp":"SD","ts":"2024-02-25T22:46:26Z","tX":507,"tY":373,"tags":{"access":"no","fee":"no","power_supply":"yes","sanitary_dump_station:chemical_toilet":"yes","sanitary_dump_station:grey_water":"yes","wikimedia_commons":"File:Oceanides motorhome stopover dumpstation, exit.jpg"}}}