{"3531310":{"location":[43.3731307,-1.741516],"ct":"FR","tp":"CS","ts":"2023-03-26T22:08:12Z","tX":507,"tY":374,"tags":{"name":"Aparra Surfcamp","old_name":"CCAS","phone":"+33 7 61 27 93 80","website":"https://aparra-surfcamp.com/"}},"11061768":{"location":[43.3717412,-1.7543536],"ct":"FR","tp":"CS","ts":"2023-03-26T22:08:12Z","tX":507,"tY":374,"tags":{"cabins":"yes","caravans":"yes","motorhome":"yes","name":"Ametza","phone":"+33 5 59 20 07 05","shower":"yes","tents":"yes","toilets":"yes","website":"https://www.camping-ametza.com/","wheelchair":"yes"}},"11062162":{"location":[43.3716323,-1.6862243],"ct":"FR","tp":"CS","ts":"2021-06-28T07:35:19Z","tX":507,"tY":374,"tags":{"addr:city":"Urrugne","addr:housenumber":"20","addr:street":"Route de Socoa","capacity:persons":"900","caravans":"yes","email":"info@larrouleta.com","fee":"yes","name":"Larrouleta","phone":"+33 5 59 47 37 84","ref:FR:CRTA":"HPAAQU06401I296H","sanitary_dump_station":"customers","source":"Réseau SIRTAQUI - Comité Régional de Tourisme d'Aquitaine - www.sirtaqui-aquitaine.com - 08/2018","stars":"3","tents":"yes","website":"https://www.larrouleta.com/"}},"12928603":{"location":[43.4593704,-1.5684637],"ct":"FR","tp":"CR","ts":"2024-10-05T16:34:21Z","tX":507,"tY":374,"tags":{"bbq":"no","capacity":"31","caravan_site":"motorhome_stopover","caravan_site:type":"beach","caravans":"no","charge":"15.92 EUR","dog":"leashed","fee":"yes","name":"Aire Gabrielle Dorziat","network":"CAMPING-CAR PARK","operator":"Mairie de Biarritz","operator:type":"public","payment:credit_cards":"yes","phone":"+33 5 59 24 55 77","power_supply":"yes","power_supply:capacity":"31","power_supply:maxcurrent":"6","sanitary_dump_station":"yes","tents":"no","trailer":"no","website":"https://www.campingcarpark.com/fr_FR/sejour/aire-etape-camping-car/nouvelle-aquitaine/64-pyrenees-atlantiques/biarritz-gabrielle-dorziat"}},"26858617":{"location":[43.3327821,-1.68528],"ct":"FR","tp":"CS","ts":"2023-04-10T21:38:26Z","tX":507,"tY":374,"tags":{"addr:city":"Urrugne","addr:housenumber":"220","addr:street":"Route d'Olhette","cabins":"yes","capacity:persons":"492","caravans":"yes","email":"info@col-ibardin.com","name":"Camping du Col d'Ibardin","operator":"Sunêlia","phone":"+33 5 59 54 31 21; +33 5 59 54 62 28","postal_code":"64122","shower":"yes","stars":"4","tents":"yes","toilets":"yes","website":"https://www.col-ibardin.com/"}},"67174963":{"location":[43.3496235,-1.5216466],"ct":"FR","tp":"CR","ts":"2024-08-08T20:18:02Z","tX":507,"tY":374,"tags":{"capacity":"56","caravan_site":"motorhome_stopover","caravan_site:type":"village","charge":"9.50 EUR","dog":"yes","fee":"yes","name":"Aire de camping-cars de Saint-Pée-sur-Nivelle","power_supply":"yes","power_supply:charge":"2.50 EUR/4 hours","power_supply:fee":"yes","sanitary_dump_station":"yes","seasonal":"no","surface":"asphalt","water_point":"yes","water_point:charge":"2.50 EUR","water_point:fee":"yes","website":"https://www.tourisme64.com/en/accommodations/camping-car-parks/saint-pee-sur-nivelle/ACCAMAQU06400006-aire-de-camping-cars-de-saint-pee-sur-nivelle/"}},"71283698":{"location":[43.4547111,-1.5790456],"ct":"FR","tp":"CS","ts":"2023-12-20T10:41:18Z","tX":507,"tY":374,"tags":{"addr:city":"Bidart","addr:postcode":"64210","addr:street":"Avenue Prince de Galles","name":"Le Pavillon Royal","phone":"+33 5 59 23 00 54","stars":"5","website":"https://www.pavillon-royal.com/"}},"71283752":{"location":[43.4529485,-1.571735],"ct":"FR","tp":"CS","ts":"2020-05-28T09:06:17Z","tX":507,"tY":374,"tags":{"addr:city":"Bidart","addr:postcode":"64210","addr:street":"Avenue de Biarritz","caravans":"yes","name":"Camping Ilbarritz","phone":"+33 5 59 23 00 29","website":"https://www.camping-ilbarritz.com/fr/","wheelchair":"yes"}},"71283840":{"location":[43.462744,-1.5668888],"ct":"FR","tp":"CS","ts":"2014-07-05T08:58:10Z","tX":507,"tY":374,"tags":{"name":"Biarritz"}},"71283916":{"location":[43.4357347,-1.5807271],"ct":"FR","tp":"CS","ts":"2020-04-11T06:51:44Z","tX":507,"tY":374,"tags":{"addr:city":"Bidart","addr:postcode":"64210","addr:street":"Rue d'Oyamburua","email":"accueil@camping-oyam.com","fax":"+33559549161","name":"Oyam","stars":"4","website":"https://www.camping-oyam.com/","wheelchair":"yes"}},"71283940":{"location":[43.4347478,-1.5892625],"ct":"FR","tp":"CS","ts":"2024-09-12T21:27:03Z","tX":507,"tY":374,"tags":{"addr:city":"Bidart","addr:postcode":"64210","email":"contact@uronea.com","fax":"+33 5 59 26 53 61","name":"Ur Onea","stars":"3","website":"https://uronea.com"}},"71283945":{"location":[43.4299601,-1.5970583],"ct":"FR","tp":"CS","ts":"2024-10-03T02:36:28Z","tX":507,"tY":374,"tags":{"access":"customers","addr:city":"Bidart","addr:housenumber":"30","addr:postcode":"64210","addr:street":"Rue de la Gare","backcountry":"yes","capacity":"84","capacity:caravans":"0","charge":"14 to 22 €","dog":"leashed","drinking_water":"yes","fee":"yes","internet_access":"no","name":"Camping de la Plage","openfire":"no","operator":"famille Sasco","payment:cash":"yes","payment:cheque":"yes","phone":"+33 9 72 37 09 08","power_supply":"yes","reservation":"yes","shower":"yes","stars":"0","start_date":"1959","toilets":"yes","toilets:wheelchair":"no","website":"https://www.laplage.ovh/","wheelchair":"yes"}},"71283971":{"location":[43.4268914,-1.6003481],"ct":"FR","tp":"CS","ts":"2024-09-01T21:03:23Z","tX":507,"tY":374,"tags":{"addr:city":"Bidart","addr:postcode":"64210","email":"info@harrobia.fr","internet_access":"wlan","name":"Harrobia","phone":"+33 5 59 26 54 71","stars":"3","website":"https://www.harrobia.fr/"}},"71284028":{"location":[43.4184275,-1.6228818],"ct":"FR","tp":"CS","ts":"2023-07-14T22:16:24Z","tX":507,"tY":374,"tags":{"addr:city":"Saint-Jean-de-Luz","addr:housenumber":"820","addr:postcode":"64500","addr:street":"route des plages","capacity:persons":"488","caravans":"yes","drinking_water":"yes","email":"contact@merkolacarra.com","name":"Merko Lakarra","phone":"+33 5 59 26 56 76","power_supply":"yes","shower":"yes","tents":"yes","toilets":"yes","website":"https://merkolacarra.com"}},"71284099":{"location":[43.4156648,-1.6236639],"ct":"FR","tp":"CS","ts":"2023-10-01T07:13:28Z","tX":507,"tY":374,"tags":{"addr:city":"Saint-Jean-de-Luz","addr:postcode":"64500","addr:street":"Avenue Napoléon III","area":"yes","capacity:persons":"622","caravans":"yes","email":"location@arenacamping.com","name":"Arena","phone":"+33559265190","rooms":"62","tents":"yes","website":"https://www.arenacamping.com/"}},"71284105":{"location":[43.4164619,-1.6245597],"ct":"FR","tp":"CS","ts":"2024-07-28T07:49:57Z","tX":507,"tY":374,"tags":{"addr:city":"Saint-Jean-de-Luz","addr:housenumber":"520","addr:postcode":"64500","addr:street":"Route des Plages","capacity:persons":"567","caravans":"yes","drinking_water":"yes","email":"camping.soubelet@wanadoo.fr","name":"Soubelet","phone":"+33 5 59 26 51 60","power_supply":"yes","sanitary_dump_station":"yes","shower":"yes","tents":"yes","toilets":"yes","website":"https://soubelet-plage.com","wheelchair":"yes"}},"71284129":{"location":[43.41531,-1.6252299],"ct":"FR","tp":"CS","ts":"2018-06-22T14:23:25Z","tX":507,"tY":374,"tags":{}},"71285036":{"location":[43.3711787,-1.7479665],"ct":"FR","tp":"CS","ts":"2018-10-23T12:14:46Z","tX":507,"tY":374,"tags":{"name":"Les Acacias","stars":"3"}},"71285159":{"location":[43.3820876,-1.6958821],"ct":"FR","tp":"CS","ts":"2021-05-27T08:05:20Z","tX":507,"tY":374,"tags":{"addr:city":"Urrugne","addr:housenumber":"135","addr:postcode":"64122","addr:street":"Chemin de Handia Baïta","capacity:persons":"352","email":"contact@camping-untxin.com","name":"Untxin Socoa","phone":"+33 5 5947 27 09","website":"https://www.camping-untxin.com/"}},"71401264":{"location":[43.3538896,-1.448245],"ct":"FR","tp":"CS","ts":"2021-06-23T08:56:32Z","tX":507,"tY":374,"tags":{"addr:city":"Espelette","addr:street":"Chemin de Lapitxague","capacity:persons":"596","email":"info@camping-biper-gorri.com","name":"Biper Gorri","phone":"+33 5 59 93 96 88","postal_code":"64250","website":"https://www.camping-biper-gorri.com/"}},"71558445":{"location":[43.3692536,-1.7485548],"ct":"FR","tp":"CS","ts":"2010-08-09T17:04:12Z","tX":507,"tY":374,"tags":{"name":"Dorrondeguy"}},"71561219":{"location":[43.3754445,-1.7326318],"ct":"FR","tp":"CS","ts":"2023-03-26T22:08:12Z","tX":507,"tY":374,"tags":{"addr:city":"Urrugne","addr:street":"Route de la Corniche","capacity:persons":"1080","email":"contact@camping-corniche.com","motorhome":"yes","name":"La Corniche","operator":"Flower Camping","phone":"+33 5 59 20 06 87","postal_code":"64122","shower":"yes","tents":"yes","toilets":"yes","website":"https://www.camping-corniche.com/"}},"71562001":{"location":[43.3742113,-1.753477],"ct":"FR","tp":"CS","ts":"2018-09-19T10:36:13Z","tX":507,"tY":374,"tags":{"name":"Domaine Sérès"}},"71565094":{"location":[43.3756097,-1.7381266],"ct":"FR","tp":"CS","ts":"2023-03-26T22:08:12Z","tX":507,"tY":374,"tags":{"cabins":"yes","caravans":"yes","email":"contact@camping-eskualduna.fr","name":"Camping Village Eskualduna Hendaia","phone":"+33 5 59 20 04 64","short_name":"Eskualduna","shower":"yes","tents":"yes","toilets":"yes","website":"https://www.camping-eskualduna.fr/"}},"71566380":{"location":[43.3751584,-1.7426248],"ct":"FR","tp":"CS","ts":"2023-03-26T22:08:12Z","tX":507,"tY":374,"tags":{"cabins":"yes","caravans":"yes","email":"abaya@vacances-andretrigano.com","name":"Camping Abaya","old_name":"Le Chistera","operator":"Vacances Andre Trigano","phone":"+33559200377","shower":"yes","tents":"yes","toilets":"yes","website":"https://aparra-surfcamp.com/"}},"71573115":{"location":[43.4057321,-1.6414597],"ct":"FR","tp":"CS","ts":"2024-08-10T13:04:15Z","tX":507,"tY":374,"tags":{"addr:city":"Saint-Jean-de-Luz","addr:housenumber":"40","addr:postcode":"64500","addr:street":"Chemin Erromardie","email":"contact@camping-erromardie.com","name":"La Ferme Erromardie","phone":"+33 5 59 26 34 26","website":"https://www.camping-erromardie.com/camping-pas-cher-au-pays-basque/"}},"71573760":{"location":[43.4058659,-1.6429188],"ct":"FR","tp":"CS","ts":"2024-09-07T10:05:28Z","tX":507,"tY":374,"tags":{"addr:city":"Saint-Jean-de-Luz","addr:housenumber":"71","addr:postcode":"64500","addr:street":"Chemin Erromardie","capacity:persons":"400","caravans":"yes","drinking_water":"yes","email":"bord-de-mer64@orange.fr","internet_access":"wlan","name":"Le Bord de Mer","phone":"+33 5 59 26 24 61","power_supply":"yes","sanitary_dump_station":"yes","shower":"yes","tents":"yes","toilets":"yes","toilets:wheelchair":"yes","website":"https://www.camping-le-bord-de-mer.fr/","wheelchair":"limited"}},"78714702":{"location":[43.3417302,-1.7029499],"ct":"FR","tp":"CS","ts":"2023-11-04T06:47:39Z","tX":507,"tY":374,"tags":{"addr:city":"Urrugne","addr:housenumber":"1233","addr:street":"chemin Tomasenea","capacity:persons":"300","email":"aireona2@orange.fr","name":"Camping Aire Ona","phone":"+33 5 59 54 30 32","postal_code":"64122","rooms":"75","website":"https://www.camping-aireona.com/"}},"118751140":{"location":[43.344947,-1.6168025],"ct":"FR","tp":"CS","ts":"2021-05-26T11:55:47Z","tX":507,"tY":374,"tags":{"addr:city":"Ascain","addr:street":"Chemin Chourio","area":"yes","capacity:persons":"248","name":"Chourio","phone":"+33 5 59 54 06 31","postal_code":"64310"}},"125636634":{"location":[43.5226811,-1.4105057],"ct":"FR","tp":"CS","ts":"2023-04-04T08:28:09Z","tX":507,"tY":374,"tags":{"access":"customers","addr:city":"Saint-Martin-de-Seignanx","addr:housenumber":"110","addr:postcode":"40390","addr:street":"Avenue du Quartier-Neuf","capacity":"168","caravans":"yes","dog":"yes","facebook":"https://www.facebook.com/CampingLouPtitPoun","internet_access":"wlan","internet_access:fee":"customers","internet_access:operator":"Camping Lou P'tit Poun","name":"Camping Lou P'tit Poun","phone":"+33 5 59 56 55 79","ref:FR:CRTA":"HPAAQU04001WBDP1","source":"local knowledge","static_caravans":"yes","tents":"yes","website":"https://www.louptitpoun.com/"}},"136506257":{"location":[43.5066334,-1.5346494],"ct":"FR","tp":"CR","ts":"2024-10-28T10:38:08Z","tX":507,"tY":374,"tags":{"capacity:caravans":"80","caravan_site":"motorhome_stopover","caravan_site:type":"beach","charge":"11.50 EUR","charge:conditional":"7.50 EUR@(NmOct-May)","check_date":"2024-10-19","description":"Paiement du stationnement uniquement par Carte Bancaire dans un parcmètre/horodateur.","fee":"yes","maxstay":"72 hours","name":"Aire des Corsaires","opening_hours":"Apr 01-Nov 11","power_supply":"no","sanitary_dump_station":"yes","sanitary_dump_station:chemical_toilet":"yes","sanitary_dump_station:grey_water":"yes","surface":"asphalt","water_point":"yes","website:fr":"https://www.anglet-tourisme.com/ou-dormir/hebergements/aires-de-camping-car/anglet/ACCAMAQU06400001-aire-de-camping-cars-des-corsaires/"}},"172785312":{"location":[43.3597149,-1.5313142],"ct":"FR","tp":"CS","ts":"2024-02-05T17:28:29Z","tX":507,"tY":374,"tags":{"addr:city":"Saint-Pée-sur-Nivelle","addr:postcode":"64310","addr:street":"chemin d'inarga bidea","capacity:persons":"100","email":"campingmanex@hotmail.com","name":"Camping Manex","phone":"+33 6 33 57 63 31","url":"https://www.campingmanex.com/","website":"https://www.campingmanex.com/"}},"178560862":{"location":[43.4375744,-1.581462],"ct":"FR","tp":"CS","ts":"2024-05-21T12:14:35Z","tX":507,"tY":374,"tags":{"addr:city":"Bidart","addr:postcode":"64210","addr:street":"Rue Berrua","email":"contact@camping-berrua.com","fax":"+33559549666","name":"Domaine Berrua","operator":"Yelloh village","stars":"4","website":"https://www.berrua.com/","wheelchair":"yes"}},"183132014":{"location":[43.4149462,-1.6197163],"ct":"FR","tp":"CS","ts":"2023-03-21T08:29:58Z","tX":507,"tY":374,"tags":{"addr:city":"Saint-Jean-de-Luz","addr:housenumber":"115","addr:postcode":"64500","addr:street":"Chemin Duhartia","caravans":"yes","email":"contact@itsas-mendi.com","fee":"yes","internet_access":"yes","internet_access:fee":"no","name":"Itsas Mendi","phone":"+33 5 59 26 56 50","stars":"4","tents":"yes","website":"https://itsas-mendi.com"}},"189282834":{"location":[43.4180409,-1.6215358],"ct":"FR","tp":"CS","ts":"2021-05-26T12:11:11Z","tX":507,"tY":374,"tags":{"addr:city":"Saint-Jean-de-Luz","addr:housenumber":"881","addr:postcode":"64500","addr:street":"Chemin Duhartia","capacity:persons":"151","email":"contact@camping-dunamunguy.com","name":"Duna Munguy","phone":"+33 5 59 47 70 70","website":"https://camping-dunamunguy.com"}},"189282835":{"location":[43.4175874,-1.623333],"ct":"FR","tp":"CS","ts":"2023-04-10T21:38:26Z","tX":507,"tY":374,"tags":{"addr:city":"Saint-Jean-de-Luz","addr:housenumber":"720","addr:postcode":"64500","addr:street":"route des Plages","cabins":"yes","capacity:persons":"320","caravans":"yes","email":"tamaris1@wanadoo.fr","name":"Les Tamaris Plage","phone":"+33 5 59 26 55 90; +33 5 59 47 70 15","shower":"yes","stars":"4","tents":"yes","toilets":"yes","website":"https://www.tamaris-plage.com/"}},"209198536":{"location":[43.375894,-1.7531817],"ct":"FR","tp":"CS","ts":"2024-05-24T14:22:51Z","tX":507,"tY":374,"tags":{"addr:city":"Hendaye","addr:country":"FR","addr:housenumber":"4","addr:postcode":"64700","addr:street":"Rue d'Armatonde","capacity":"90","caravans":"yes","fee":"yes","internet_access":"wlan","name":"GCU Hendaye","operator":"Groupement des Campeurs Universitaires","phone":"+33 5 59 20 14 26","sanitary_dump_station":"customers","stars":"2","static_caravans":"no","tents":"yes","website":"https://www.gcu.asso.fr/terrains/hendaye-pyr%C3%A9n%C3%A9es-atlantiques-64","wheelchair":"limited"}},"222064940":{"location":[43.526611,-1.5163022],"ct":"FR","tp":"CR","ts":"2024-11-26T11:30:14Z","tX":507,"tY":374,"tags":{"capacity":"80","caravan_site":"motorhome_stopover","caravan_site:type":"beach","charge":"11.50 EUR","charge:conditional":"7.50 EUR@(\"low_season\")","contact:phone":"+33 5 59 58 35 00","fee":"yes","name":"Aire La Barre Anglet","opening_hours":"Apr 01-Nov 11","sanitary_dump_station":"yes","tents":"no","water_point":"yes","website:en":"https://www.anglet-tourisme.com/en/where-to-sleep/accommodation/aires-de-camping-car/anglet/ACCAMAQU0640001C-aire-de-camping-cars-de-la-barre/","website:fr":"https://www.anglet-tourisme.com/ou-dormir/hebergements/aires-de-camping-car/anglet/ACCAMAQU0640001C-aire-de-camping-cars-de-la-barre/"}},"234541707":{"location":[43.5741557,-1.4836932],"ct":"FR","tp":"CS","ts":"2024-11-29T11:53:41Z","tX":507,"tY":374,"tags":{"cabins":"yes","capacity":"211","caravans":"yes","fee":"no","internet_access":"wlan","internet_access:fee":"customers","internet_access:operator":"Camping Campéole","note":"Camping fermé saison 2021 et 2022. Réouverture probable en 2023.","opening_hours":"closed","phone":"+33 5 59 45 31 48","ref:FR:CRTA":"HPAAQU040FS00048","stars":"3","tents":"yes"}},"244437372":{"location":[43.3567742,-1.5745624],"ct":"FR","tp":"CS","ts":"2024-10-04T13:30:19Z","tX":507,"tY":374,"tags":{"addr:city":"Saint-Pée-sur-Nivelle","addr:postcode":"64310","addr:street":"Quartier Ibarron","capacity":"600","capacity:persons":"600","contact:phone":"+33 5 59 54 10 43","email":"camping.dibarron@wanadoo.fr","name":"Camping Ibarron au Pays Basque","opening_hours":"Mo-Sa 09:00-12:00, 14:30-18:30; Su 09:00-12:00, 14:30-17:00","phone":"+33 5 59 54 10 43","url":"http://www.camping-ibarron.com/","website":"https://www.camping-ibarron.com/"}},"244437984":{"location":[43.3626226,-1.5656837],"ct":"FR","tp":"CS","ts":"2024-07-26T16:43:01Z","tX":507,"tY":374,"tags":{"addr:city":"Saint-Pée-sur-Nivelle","addr:postcode":"64310","addr:street":"Route d'Ahetze, Quartier d'Ibarron","capacity:persons":"568","caravans":"yes","drinking_water":"yes","email":"info@camping-goyetchea.com","name":"Goyetchea","phone":"+33 5 59 54 19 59","power_supply":"yes","sanitary_dump_station":"yes","shower":"yes","tents":"yes","toilets":"yes","url":"http://www.camping-goyetchea.com/","website":"https://www.camping-goyetchea.com/fr/"}},"244541069":{"location":[43.33694,-1.5480041],"ct":"FR","tp":"CS","ts":"2024-07-11T08:43:17Z","tX":507,"tY":374,"tags":{"addr:city":"Saint-Pée-sur-Nivelle","addr:postcode":"64310","addr:street":"Quartier Amotz","capacity":"360","email":"camping.antton@wanadoo.fr","name":"Antton","phone":"+33 5 59 54 13 13","website":"https://www.camping-antton.com/"}},"244581202":{"location":[43.3590858,-1.4828935],"ct":"FR","tp":"CS","ts":"2023-08-11T09:30:58Z","tX":507,"tY":374,"tags":{"name":"Urlo Gaina"}},"244594952":{"location":[43.3397978,-1.4684583],"ct":"FR","tp":"CS","ts":"2021-04-30T12:18:07Z","tX":507,"tY":374,"tags":{"name":"Alegera"}},"246110532":{"location":[43.4438285,-1.5806375],"ct":"FR","tp":"CS","ts":"2023-11-05T03:32:02Z","tX":507,"tY":374,"tags":{"addr:city":"Bidart","addr:housenumber":"370","addr:postcode":"64210","addr:street":"Avenue Cumba","email":"erreka@seagreen.fr","name":"Erreka","phone":"+33299904455","stars":"4","website":"https://www.camping-erreka-bidart.com/"}},"250536152":{"location":[43.568629,-1.4606797],"ct":"FR","tp":"CS","ts":"2022-05-02T14:16:12Z","tX":507,"tY":374,"tags":{"addr:city":"Ondres","addr:housenumber":"741","addr:postcode":"40440","addr:street":"Avenue de la Plage","cabins":"yes","capacity":"214","caravans":"yes","internet_access":"customers","internet_access:fee":"customers","internet_access:operator":"Camping Lou Pignada","name":"Camping Lou Pignada","name:oc":"Campatge deu Pinhadar","network":"charte durable palo","note":"Accueil Vélo","phone":"+33 5 59 45 30 65","ref:FR:CRTA":"HPAAQU04001WBDP3","source":"Bing;DGFiP - Cadastre 2013","source:name:oc":"ieo-bdtopoc","stars":"4","tents":"yes","website":"https://www.camping-loupignada.com/"}},"329837868":{"location":[43.3385891,-1.447614],"ct":"FR","tp":"CR","ts":"2024-08-08T17:50:52Z","tX":507,"tY":374,"tags":{"capacity":"5","caravan_site":"motorhome_stopover","caravan_site:type":"village","caravans":"no","fee":"no","name":"Stationnement camping car Espelette","seasonal":"no","website":"https://www.en-pays-basque.fr/en/sit/aire-de-stationnement/"}},"420032456":{"location":[43.4661903,-1.5718294],"ct":"FR","tp":"CR","ts":"2024-10-05T16:23:46Z","tX":507,"tY":374,"tags":{"bbq":"no","capacity":"32","caravan_site":"motorhome_stopover","caravan_site:type":"beach","caravans":"no","charge":"15.92 EUR","dog":"leashed","fee":"yes","maxlength":"9","maxstay":"48 hours","name":"Aire Milady","network":"CAMPING-CAR PARK","payment:credit_cards":"yes","power_supply":"yes","power_supply:capacity":"32","power_supply:maxcurrent":"6","sanitary_dump_station":"customers","sanitary_dump_station:chemical_toilet":"yes","sanitary_dump_station:grey_water":"yes","surface":"asphalt","tents":"no","trailer":"no","water_point":"yes","website":"https://www.campingcarpark.com/fr_FR/sejour/aire-etape-camping-car/nouvelle-aquitaine/64-pyrenees-atlantiques/biarritz-milady"}},"478715307":{"location":[43.4163173,-1.6158965],"ct":"FR","tp":"CS","ts":"2024-02-13T14:34:22Z","tX":507,"tY":374,"tags":{"addr:city":"Saint-Jean-de-Luz","addr:housenumber":"15","addr:postcode":"64500","addr:street":"Chemin de Miquelenia","capacity":"201","email":"atlantica@cielavillage.com","fee":"yes","internet_access":"yes","internet_access:fee":"yes","name":"Camping Atlantica","opening_hours":"Mo-Fr 09:00-18:00; Sa 09:00-13:00","operator":"Ciela Village","phone":"+33 5 59 47 72 44","ref:FR:SIRET":"51757535300019","website":"https://atlantica.cielavillage.fr/"}},"478715313":{"location":[43.4151985,-1.6274143],"ct":"FR","tp":"CS","ts":"2021-05-26T14:52:00Z","tX":507,"tY":374,"tags":{"addr:city":"Saint-Jean-de-Luz","addr:housenumber":"264","addr:postcode":"64500","addr:street":"route des plages","capacity:persons":"250","email":"campingacotz@gmail.com","name":"Camping Playa","phone":"+33 5 59 26 55 85","website":"https://camping-playa.com"}},"478715314":{"location":[43.4146777,-1.6261254],"ct":"FR","tp":"CS","ts":"2022-07-21T09:18:54Z","tX":507,"tY":374,"tags":{"addr:city":"Saint-Jean-de-Luz","addr:postcode":"64500","name":"Inter Plages","phone":"+33 5 59 26 56 94","website":"https://campinginterplages.com","wheelchair":"yes"}},"478715315":{"location":[43.4131595,-1.623432],"ct":"FR","tp":"CS","ts":"2023-06-21T09:46:41Z","tX":507,"tY":374,"tags":{"addr:city":"Saint-Jean-de-Luz","addr:country":"FR","addr:housenumber":"650","addr:postcode":"64500","addr:street":"Chemin d'Aguerria","capacity:persons":"210","email":"campingmaya@aol.com","mobile":"+33 6 51 89 26 51","name":"Camping Maya","phone":"+33 5 59 26 54 91","stars":"2","website":"https://campingmaya-stjeandeluz.fr"}},"494142227":{"location":[43.5680521,-1.4588944],"ct":"FR","tp":"CS","ts":"2023-03-21T15:34:32Z","tX":507,"tY":374,"tags":{"addr:city":"Ondres","addr:postcode":"40440","addr:street":"Avenue de la Plage","name":"Camping Lou Pignada extension","network":"charte durable palo"}},"525407787":{"location":[43.3673482,-1.7468223],"ct":"FR","tp":"CS","ts":"2017-09-17T16:49:59Z","tX":507,"tY":374,"tags":{"name":"Le Moulin"}},"527572147":{"location":[43.3558111,-1.4154137],"ct":"FR","tp":"CS","ts":"2024-05-15T07:27:23Z","tX":507,"tY":374,"tags":{"name":"Bixta Eder"}},"527573111":{"location":[43.3551046,-1.4117955],"ct":"FR","tp":"CR","ts":"2024-10-25T16:07:11Z","tX":507,"tY":374,"tags":{"caravan_site":"motorhome_stopover","caravan_site:type":"village","caravans":"no","charge":"14 EUR","dog":"yes","fee":"yes","name":"Aire de Camping-Car Cambo les Bains","power_supply":"yes","sanitary_dump_station":"yes","sanitary_dump_station:chemical_toilet":"yes","sanitary_dump_station:grey_water":"yes","seasonal":"no","surface":"asphalt","tents":"no","toilets":"no","water_point":"yes","website":"https://www.tourisme64.com/en/accommodations/camping-car-parks/cambo-les-bains/ACCAMAQU064V55TBQX-aire-de-camping-cars-de-cambo-les-bains/"}},"603998862":{"location":[43.3852122,-1.6629581],"ct":"FR","tp":"CR","ts":"2024-10-25T01:02:18Z","tX":507,"tY":374,"tags":{"addr:city":"Saint-Jean-de-Luz","addr:postcode":"64500","addr:street":"Pont Charles de Gaulle","capacity":"17","caravan_site":"motorhome_stopover","caravan_site:type":"harbour","charge":"6 EUR","charge:conditional":"4 EUR @ (Nov-Mar)","dog":"yes","fee":"yes","mapillary":"332880214847864","maxstay":"48 hours","name":"Aire de services de Saint-Jean-de-Luz","operator":"Ville de Saint-Jean-de-Luz","power_supply":"yes","power_supply:charge":"2 EUR/1 hour","power_supply:fee":"yes","sanitary_dump_station":"yes","water_point":"yes","water_point:charge":"2 EUR/100 liter","water_point:fee":"yes","website":"https://www.en-pays-basque.fr/en/sit/aire-de-services-de-saint-jean-de-luz/"}},"606452775":{"location":[43.5503261,-1.4291874],"ct":"FR","tp":"CS","ts":"2018-07-09T17:36:35Z","tX":507,"tY":374,"tags":{}},"645584890":{"location":[43.5747877,-1.4715947],"ct":"FR","tp":"CS","ts":"2024-06-25T09:59:07Z","tX":507,"tY":374,"tags":{"addr:city":"Ondres","addr:postcode":"40440","addr:street":"Avenue de la Plage","cabins":"yes","capacity":"247","caravans":"no","internet_access":"wlan","internet_access:fee":"customers","internet_access:operator":"Camping Espace Blue Océan","name":"Espace Blue Océan","network":"charte durable palo","opening_hours":"Mo-Su 08:00-20:00","phone":"+33 5 59 45 31 40","ref:FR:CRTA":"HPAAQU04001WBDMJ","stars":"4","tents":"no","website":"https://www.espaceblueocean.com/"}},"645719177":{"location":[43.5744401,-1.46838],"ct":"FR","tp":"CS","ts":"2019-06-13T19:40:05Z","tX":507,"tY":374,"tags":{"addr:city":"Ondres","addr:housenumber":"271","addr:postcode":"40440","addr:street":"Chemin de la Montagne","cabins":"yes","caravans":"no","name":"Parc résidentiel Green Resort","stars":"4","tents":"no","website":"https://www.green-resort.com/"}},"656323030":{"location":[43.3877462,-1.6922057],"ct":"FR","tp":"CS","ts":"2024-05-24T14:17:55Z","tX":507,"tY":374,"tags":{"addr:city":"Urrugne","addr:country":"FR","addr:housenumber":"63","addr:postcode":"64122","addr:street":"Chemin d'Aminzenea","capacity":"38","caravans":"yes","fee":"yes","internet_access":"wlan","name":"GCU Socoa","operator":"Groupement des Campeurs Universitaires de France","phone":"+33 5 59 47 22 72","sanitary_dump_station":"customers","stars":"2","static_caravans":"yes","tents":"yes","website":"https://www.gcu.asso.fr/terrains/socoa-pyr%C3%A9n%C3%A9es-atlantiques-64","wheelchair":"limited"}},"656327091":{"location":[43.3790135,-1.6916275],"ct":"FR","tp":"CS","ts":"2021-05-26T14:59:22Z","tX":507,"tY":374,"tags":{"addr:city":"Urrugne","addr:housenumber":"1575","addr:postcode":"64122","addr:street":"Route de Socoa","capacity:persons":"500","email":"info@campingsuhibery.com","fee":"yes","label":"qualité tourisme","name":"Suhiberry","phone":"+33 5 59 47 06 23","website":"https://www.campingsuhiberry.com/"}},"669555961":{"location":[43.3346228,-1.6919375],"ct":"FR","tp":"CS","ts":"2023-11-04T06:47:48Z","tX":507,"tY":374,"tags":{"addr:city":"urrugne","addr:postcode":"64122","addr:street":"route du col d'ibardin","email":"campingmendi-azpian@wanaoo.fr","name":"Mendi Azpian","pets_allowed":"yes","phone":"+33 5 59 54 33 46","swimming_pool":"outdoor","website":"https://www.camping-mendi-azpian.com/"}},"702094694":{"location":[43.5484745,-1.4722543],"ct":"FR","tp":"CS","ts":"2022-07-14T11:17:40Z","tX":507,"tY":374,"tags":{"addr:city":"Tarnos","addr:housenumber":"83","addr:postcode":"40220","addr:street":"Rue de Conseillé","cabins":"yes","capacity":"70","caravans":"yes","internet_access":"wlan","internet_access:fee":"customers","internet_access:operator":"Camping Jobel","name":"Camping Jobel","network":"charte durable palo","phone":"+33 5 59 64 04 76","ref:FR:CRTA":"HPAAQU04001WBDN9","stars":"3","tents":"yes","website":"https://www.camping-jobel.com/"}},"743651362":{"location":[43.3531778,-1.5414088],"ct":"FR","tp":"CS","ts":"2021-01-27T11:00:45Z","tX":507,"tY":374,"tags":{"addr:city":"Saint-Pée-sur-Nivelle","addr:housenumber":"639","addr:postcode":"64310","addr:street":"Chemin d'Olhasso","email":"arotxa@vacances-andretrigano.com","name":"Camping Arotxa Karrita","phone":"+33 5 59 54 13 32","ref:FR:CRTA":"HPAAQU064V54FIXF","source":"Réseau SIRTAQUI - Comité Régional de Tourisme d'Aquitaine - www.sirtaqui-aquitaine.com - 08/2018","stars":"2","website":"https://vacances-andretrigano.com/camping/pyrenees-atlantiques/arotxa-karrita-saint-pee-sur-nivelle"}},"758981671":{"location":[43.4169042,-1.6222275],"ct":"FR","tp":"CS","ts":"2020-03-02T16:22:04Z","tX":507,"tY":374,"tags":{"operator":"Hydro Chemical"}},"763745086":{"location":[43.4356882,-1.5675044],"ct":"FR","tp":"CS","ts":"2024-09-04T22:29:57Z","tX":507,"tY":374,"tags":{"addr:city":"Bidart","addr:postcode":"64210","addr:street":"Rue Burruntz","caravans":"yes","drinking_water":"yes","email":"contact@camping-le-ruisseau.fr","internet_access":"wlan","internet_access:fee":"no","name":"Le Ruisseau","phone":"+33559419450","power_supply":"yes","sanitary_dump_station":"yes","shower":"yes","tents":"yes","toilets":"yes","website":"http://camping-le-ruisseau.fr","wheelchair":"yes"}},"768113855":{"location":[43.5752887,-1.4842346],"ct":"FR","tp":"CR","ts":"2024-11-29T11:53:41Z","tX":507,"tY":374,"tags":{"capacity":"70","caravan_site":"motorhome_stopover","caravans":"no","charge":"19:32","charge:conditional":"16:32 EUR @ (Jun,Sep 08-Sep 30), 13:32 EUR@(Oct-May)","fee":"yes","internet_access":"wlan","internet_access:fee":"yes","name":"Aire municipale de camping-cars Ondres-Océan","operator":"Ville d'ONDRES","power_supply":"yes","ref:FR:CRTA":"ACCAMAQU04000013","sanitary_dump_station":"yes","tents":"no","water_point":"yes","website":"https://www.ondres.fr/la-plage/laire-municipale-de-camping-cars-ondres-ocean/"}},"774529707":{"location":[43.4641347,-1.5304948],"ct":"FR","tp":"CS","ts":"2023-05-03T10:02:47Z","tX":507,"tY":374,"tags":{"access":"yes","caravans":"yes","fee":"yes","name":"Camping Bela Basque Prame","tents":"yes","toilets":"yes","website":"https://www.eden-villages.fr/campings/belabasque/"}},"826948977":{"location":[43.407244,-1.6371229],"ct":"FR","tp":"CS","ts":"2024-08-10T12:58:02Z","tX":507,"tY":374,"tags":{"addr:city":"Saint-Jean-de-Luz","addr:housenumber":"235","addr:postcode":"64500","addr:street":"Allée de la Source","email":"info@chadotel.com","name":"Camping International Erromardie","phone":"+33 5 59 26 07 74","stars":"4","website":"https://www.chadotel.com/fr/camping/pays-basque"}},"826958935":{"location":[43.4079103,-1.6350361],"ct":"FR","tp":"CS","ts":"2022-04-10T21:11:46Z","tX":507,"tY":374,"tags":{"addr:city":"Saint-Jean-de-Luz","addr:housenumber":"525","addr:postcode":"64500","addr:street":"Chemin de Chibau Berria","capacity:persons":"852","email":"camping.municipal@saintjeandeluz.fr","name":"Chibau Berria - Camping Municipal","phone":"+33 5 59 26 11 94","stars":"2","website":"https://www.camping-saintjeandeluz.fr/"}},"826970052":{"location":[43.4149119,-1.6232682],"ct":"FR","tp":"CS","ts":"2021-10-16T11:32:40Z","tX":507,"tY":374,"tags":{"addr:city":"Saint-Jean-de-Luz","addr:housenumber":"184","addr:postcode":"64500","addr:street":"Chemin Gassinénia","capacity:persons":"196","contact:facebook":"https://www.facebook.com/campinglebasque/?fref=ts","name":"Le Basque","phone":"+33559547840","website":"https://www.camping-le-basque.com/"}},"827006731":{"location":[43.4159423,-1.6268575],"ct":"FR","tp":"CS","ts":"2021-05-26T13:15:33Z","tX":507,"tY":374,"tags":{"addr:city":"Saint-Jean-de-Luz","addr:housenumber":"305","addr:postcode":"64500","addr:street":"Chemin d'Aguerria","capacity:persons":"280","email":"campinginterplages@gmail.com","name":"Inter Plages","phone":"+33 5 59 26 56 94","website":"https://www.campinginterplages.com/"}},"848398451":{"location":[43.3655466,-1.7509961],"ct":"FR","tp":"CS","ts":"2010-08-07T07:10:41Z","tX":507,"tY":374,"tags":{"name":"Orio"}},"853747468":{"location":[43.3378232,-1.5453615],"ct":"FR","tp":"CS","ts":"2024-07-11T08:43:17Z","tX":507,"tY":374,"tags":{"addr:city":"Saint-Pée-sur-Nivelle","addr:postcode":"64310","addr:street":"Quartier Amotz","email":"campingarmora@gmail.com","fixme":"emprise approximative","name":"Armora","website":"https://camping-armora.com/"}},"1003477767":{"location":[43.3927464,-1.6926279],"ct":"FR","tp":"CS","ts":"2024-08-09T07:22:56Z","tX":507,"tY":374,"tags":{"addr:housenumber":"875","addr:street":"Route de la Corniche","capacity:persons":"840","caravans":"yes","drinking_water":"yes","email":"juantcho64@gmail.com","name":"Camping Juantcho","phone":"+33 5 59 47 11 97","postal_code":"64122","shower":"yes","tents":"yes","website":"http://www.camping-juantcho.com"}},"1306859926":{"location":[43.4071753,-1.6397698],"ct":"FR","tp":"CS","ts":"2024-08-10T13:04:15Z","tX":507,"tY":374,"tags":{"name":"La Ferme Erromardie"}},"4973271823":{"location":[43.3560095,-1.7465443],"ct":"FR","tp":"CS","ts":"2017-10-17T16:05:00Z","tX":507,"tY":374,"tags":{"name":"Terrain de camping","name:cs":"Pole na campíky","name:fr":"Terrain de camping"}},"7299517866":{"location":[43.3336819,-1.6833738],"ct":"FR","tp":"CS","ts":"2020-03-16T16:06:44Z","tX":507,"tY":374,"tags":{}},"12122662551":{"location":[43.3460605,-1.7433929],"ct":"FR","tp":"CS","ts":"2024-08-20T17:33:51Z","tX":507,"tY":374,"tags":{"addr:city":"Biriatou","addr:housenumber":"621","addr:postcode":"64700","addr:street":"Route de Garlatz","name":"Les insolites de Biriatou","note":"Glamping with stationary tents, NOT for your own tent. Also known as \"Les 3 couronnes de Biriatou\".","phone":"+33 6 79 87 69 06","start_date":"2024-08","tents":"yes"}},"12099278208":{"location":[43.3253904,-1.4428756],"ct":"FR","tp":"CR","ts":"2024-08-08T18:02:08Z","tX":507,"tY":374,"tags":{"caravan_site":"motorhome_stopover","caravan_site:type":"farm;restaurant","charge":"12 EUR","fee":"yes","name":"Ferme Erreka","power_supply":"yes","seasonal":"no","water_point":"yes","website":"https://www.en-pays-basque.fr/en/sit/aire-de-stationnement-a-la-ferme-erreka/"}},"5128735653":{"location":[43.3550823,-1.4119929],"ct":"FR","tp":"SD","ts":"2022-11-14T07:17:43Z","tX":507,"tY":374,"tags":{"sanitary_dump_station:chemical_toilet":"yes","sanitary_dump_station:fee":"yes","sanitary_dump_station:gravity":"yes","sanitary_dump_station:grey_water":"yes","sanitary_dump_station:suction":"no"}},"7171750015":{"location":[43.5755884,-1.4830977],"ct":"FR","tp":"SD","ts":"2022-11-10T14:39:18Z","tX":507,"tY":374,"tags":{"access":"customers","fee":"yes","operator":"Campéole Park"}},"7171750026":{"location":[43.5754682,-1.4833112],"ct":"FR","tp":"SD","ts":"2022-11-10T14:39:18Z","tX":507,"tY":374,"tags":{"access":"customers","fee":"yes","operator":"Campéole Park"}},"9042659206":{"location":[43.3720986,-1.7555293],"ct":"FR","tp":"SD","ts":"2021-08-28T11:07:20Z","tX":507,"tY":374,"tags":{"access":"customers"}},"9832421311":{"location":[43.5754412,-1.4836943],"ct":"FR","tp":"SD","ts":"2023-06-22T08:41:09Z","tX":507,"tY":374,"tags":{"access":"customers","fee":"yes","operator":"Campéole Park"}},"10182056940":{"location":[43.3552058,-1.4119542],"ct":"FR","tp":"SD","ts":"2022-11-14T07:17:43Z","tX":507,"tY":374,"tags":{"sanitary_dump_station:chemical_toilet":"yes","sanitary_dump_station:fee":"yes","sanitary_dump_station:gravity":"yes","sanitary_dump_station:grey_water":"yes","sanitary_dump_station:suction":"no"}},"12099230010":{"location":[43.4070512,-1.6379738],"ct":"FR","tp":"SD","ts":"2024-08-08T17:21:51Z","tX":507,"tY":374,"tags":{}},"12099432163":{"location":[43.3495388,-1.5212645],"ct":"FR","tp":"SD","ts":"2024-08-08T20:18:02Z","tX":507,"tY":374,"tags":{}},"12384246443":{"location":[43.5756345,-1.4834747],"ct":"FR","tp":"SD","ts":"2024-11-29T11:53:41Z","tX":507,"tY":374,"tags":{}}}