{"23796106":{"location":[42.4807215,-1.6757175],"ct":"ES","tp":"CS","ts":"2023-11-07T05:20:55Z","tX":507,"tY":378,"tags":{"addr:city":"Olite","addr:full":"Ctra. NA 115, Km 2.300","addr:postcode":"31390","cabins":"yes","caravans":"yes","name":"Camping Olite","phone":"+34 948 74 10 14","tents":"yes","website":"https://www.campingdeolite.com/"}},"500784750":{"location":[42.5264781,-1.6832616],"ct":"ES","tp":"CR","ts":"2017-06-15T20:13:19Z","tX":507,"tY":378,"tags":{"name":"Area de Autocaravanas de Tafalla"}},"923042827":{"location":[42.3778105,-1.4386954],"ct":"ES","tp":"CR","ts":"2024-01-06T01:06:33Z","tX":507,"tY":378,"tags":{"access":"yes","addr:city":"Carcastillo","addr:postcode":"50678","addr:street":"Calle Carretera","capacity":"9","caravan_site":"motorhome_stopover","caravan_site:type":"village","covered":"no","drinking_water":"yes","fee":"no","maxstay":"48 hours","name":"Área de Autocaravanas Carcastillo","opening_hours":"24/7","operator":"ciudad de Carcastillo","power_supply":"no","sanitary_dump_station":"yes","sanitary_dump_station:chemical_toilet":"yes","sanitary_dump_station:grey_water":"yes","sanitary_dump_station:round_drain":"yes","supervised":"no","surface":"unpaved","water_point":"yes"}},"925095198":{"location":[42.3769613,-1.5474185],"ct":"ES","tp":"CR","ts":"2024-05-17T09:57:34Z","tX":507,"tY":378,"tags":{"access":"yes","addr:city":"Santacara","addr:postcode":"31314","addr:street":"Prolongación Baratas","capacity":"12","caravan_site":"motorhome_stopover","caravan_site:type":"village","covered":"no","drinking_water":"yes","fee":"no","maxstay":"no","name":"Área de Autocaravanas Santacara","opening_hours":"24/7","operator":"ciudad de Santacara","power_supply":"no","sanitary_dump_station":"yes","sanitary_dump_station:chemical_toilet":"yes","sanitary_dump_station:grey_water":"yes","sanitary_dump_station:round_drain":"yes","supervised":"no","surface":"unpaved","water_point":"yes"}},"1279673235":{"location":[42.4801815,-1.6469742],"ct":"ES","tp":"CR","ts":"2024-07-26T11:51:17Z","tX":507,"tY":378,"tags":{"capacity":"10","caravan_site":"motorhome_stopover","caravan_site:type":"village","fee":"no","maxstay":"72 hours","name":"Área Municipal Olite/Erriberri","sanitary_dump_station":"yes","website":"https://www.olite.es/turismo/area-autocaravanas/"}},"1279673237":{"location":[42.5044663,-1.496559],"ct":"ES","tp":"PK","ts":"2024-05-04T15:11:31Z","tX":507,"tY":378,"tags":{"motorhome":"yes","parking":"surface"}},"1279675771":{"location":[42.5256558,-1.5639585],"ct":"ES","tp":"CR","ts":"2024-05-04T15:21:36Z","tX":507,"tY":378,"tags":{"addr:city":"San Martin de Unx","addr:postcode":"31495","addr:street":"Calleja Zapata","caravan_site":"motorhome_stopover","caravan_site:type":"village","description":"Area de Autocaravanas equipada con parcelas delimitadas, punto de descarga de aguas grises, punto de recarga de agua, mesas","fee":"no","highway":"rest_area","name":"Área autocaravanas San Martín de Unx","opening_hours":"24/7","operator":"Ayuntamiento","picnic_area":"yes","power_supply":"yes","sanitary_dump_station":"yes","seasonal":"no","water_point":"yes"}},"2104145184":{"location":[42.4810271,-1.6733817],"ct":"ES","tp":"CR","ts":"2013-01-10T12:27:01Z","tX":507,"tY":378,"tags":{}},"9718715817":{"location":[42.3205556,-1.7313889],"ct":"ES","tp":"CR","ts":"2022-05-05T21:02:35Z","tX":507,"tY":378,"tags":{}},"8568587984":{"location":[42.3779053,-1.4386861],"ct":"ES","tp":"SD","ts":"2024-05-17T09:59:15Z","tX":507,"tY":378,"tags":{"access":"yes","fee":"no","motorhome":"designated","operator":"ciudad de Carcastillo","sanitary_dump_station":"public","sanitary_dump_station:chemical_toilet":"yes","sanitary_dump_station:grey_water":"yes","sanitary_dump_station:round_drain":"yes","water_point":"yes"}},"8585673796":{"location":[42.376881,-1.5472977],"ct":"ES","tp":"SD","ts":"2024-05-17T09:57:34Z","tX":507,"tY":378,"tags":{"access":"yes","fee":"no","motorhome":"designated","operator":"ciudad de Santacara","sanitary_dump_station":"public","sanitary_dump_station:chemical_toilet":"yes","sanitary_dump_station:grey_water":"yes","sanitary_dump_station:round_drain":"yes","water_point":"yes"}},"10974896305":{"location":[42.5253426,-1.5638679],"ct":"ES","tp":"SD","ts":"2023-06-13T19:38:26Z","tX":507,"tY":378,"tags":{}},"12758433705":{"location":[42.4802785,-1.6467746],"ct":"ES","tp":"SD","ts":"2025-04-15T21:06:59Z","tX":507,"tY":378,"tags":{"fee":"no"}}}