{"57023221":{"location":[42.2623732,-1.7381447],"ct":"ES","tp":"CS","ts":"2024-07-21T14:30:46Z","tX":507,"tY":379,"tags":{"addr:city":"Villafranca","addr:postcode":"31330","addr:street":"Ctra. NA- 660 PK 13.4","caravans":"yes","fee":"yes","name":"Camping Bardenas","opening_hours":"Mo-Su 08:30-20:30; PH unknown","phone":"+34 948 84 61 91","static_caravans":"yes","tents":"yes","website":"https://www.campingbardenas.com","wheelchair":"yes"}},"435180236":{"location":[42.173811,-1.5917292],"ct":"ES","tp":"CR","ts":"2024-05-04T15:36:53Z","tX":507,"tY":379,"tags":{"capacity:caravans":"30","caravan_site":"motorhome_stopover","caravan_site:type":"village;cave","fee":"no","internet_access":"no","name":"Área autocaravanas Sendaviva en Arguedas","note":"No infrastructure. On the cemetery nearby there is a simple toilet and a water tap. In the village center are nice cafés for breakfast and dinner.","power_supply":"no","sanitary_dump_station":"no","toilets":"no","water_point":"yes"}},"925101608":{"location":[42.0587033,-1.6118724],"ct":"ES","tp":"CR","ts":"2024-04-11T16:28:42Z","tX":507,"tY":379,"tags":{"access":"yes","addr:city":"Tudela","addr:postcode":"31500","addr:street":"Calle UE10-11","capacity":"12","caravan_site":"motorhome_stopover","covered":"no","drinking_water":"yes","fee":"no","maxstay":"72 hours","name":"Área de Autocaravanas Tudela","name:fr":"Aire Camping Car Tudela","opening_hours":"24/7","operator":"ciudad de Tudela","power_supply":"no","sanitary_dump_station":"yes","sanitary_dump_station:chemical_toilet":"yes","sanitary_dump_station:grey_water":"yes","sanitary_dump_station:round_drain":"yes","supervised":"no","surface":"asphalt","water_point":"yes"}},"9724927317":{"location":[42.1909062,-1.5851625],"ct":"ES","tp":"CR","ts":"2022-05-08T21:16:21Z","tX":507,"tY":379,"tags":{"opening_hours":"24/7"}},"10979414507":{"location":[42.1658329,-1.6907094],"ct":"ES","tp":"CR","ts":"2023-06-15T19:05:16Z","tX":507,"tY":379,"tags":{}},"11226514737":{"location":[42.1931894,-1.6282444],"ct":"ES","tp":"CR","ts":"2023-09-29T08:33:07Z","tX":507,"tY":379,"tags":{"name:it":"area sosta camper valtierra"}},"12240490394":{"location":[42.0337882,-1.532554],"ct":"ES","tp":"CR","ts":"2024-10-10T04:34:28Z","tX":507,"tY":379,"tags":{"name":"Area de autocaravanas de Cabanillas"}},"8585709274":{"location":[42.0585422,-1.6120092],"ct":"ES","tp":"SD","ts":"2024-05-16T19:19:10Z","tX":507,"tY":379,"tags":{"access":"yes","fee":"no","motorhome":"designated","operator":"ciudad de Tudela","sanitary_dump_station":"public","sanitary_dump_station:chemical_toilet":"yes","sanitary_dump_station:grey_water":"yes","sanitary_dump_station:round_drain":"yes","water_point":"yes"}},"10979434205":{"location":[42.1660818,-1.6911348],"ct":"ES","tp":"SD","ts":"2023-06-15T19:05:15Z","tX":507,"tY":379,"tags":{}}}