{"488494039":{"location":[41.8198383,-1.6932876],"ct":"ES","tp":"CS","ts":"2022-06-21T07:19:14Z","tX":507,"tY":380,"tags":{"addr:city":"Vera de Moncayo","addr:postcode":"50580","addr:street":"Carretera de Añón","barrier":"fence","internet_access":"wlan","internet_access:fee":"no","name":"Camping Moncayo","nohousenumber":"yes","phone":"+34 876 67 91 13;+ 34 623 54 52 73;+34 623 54 53 74"}},"925103693":{"location":[41.9729001,-1.4367028],"ct":"ES","tp":"CR","ts":"2024-05-16T19:20:02Z","tX":507,"tY":380,"tags":{"access":"yes","addr:city":"Tudela","addr:postcode":"31540","addr:street":"Calle Paseo de las Damas","capacity":"10","caravan_site":"motorhome_stopover","caravan_site:type":"river","covered":"no","drinking_water":"yes","fee":"no","maxstay":"72 hours","name":"Área de Autocaravanas Buñuel","name:fr":"Aire Camping Car Buñuel","opening_hours":"24/7","operator":"ciudad de Buñuel","power_supply":"no","sanitary_dump_station":"yes","sanitary_dump_station:chemical_toilet":"yes","sanitary_dump_station:grey_water":"yes","sanitary_dump_station:round_drain":"yes","seasonal":"no","supervised":"no","surface":"unpaved","water_point":"yes"}},"1217986096":{"location":[41.8149088,-1.4902496],"ct":"ES","tp":"CR","ts":"2023-10-24T09:57:36Z","tX":507,"tY":380,"tags":{"power_supply":"no","sanitary_dump_station":"no"}},"1217989948":{"location":[41.8251991,-1.5014793],"ct":"ES","tp":"CR","ts":"2023-10-24T10:16:36Z","tX":507,"tY":380,"tags":{"power_supply":"yes","sanitary_dump_station":"yes"}},"1236714332":{"location":[41.8702168,-1.7253803],"ct":"ES","tp":"CR","ts":"2024-05-17T10:17:17Z","tX":507,"tY":380,"tags":{"addr:housenumber":"19","addr:postcode":"50513","addr:street":"Calle Portilla","bbq":"yes","capacity":"6","caravan_site":"motorhome_stopover","caravan_site:type":"village","drinking_water":"yes","fee":"no","name":"Área de Autocaravanas Grisel","opening_hours":"24/7","sanitary_dump_station":"yes","seasonal":"no","surface":"asphalt","water_point":"yes"}},"1287834257":{"location":[41.8191566,-1.4713182],"ct":"ES","tp":"CR","ts":"2024-05-29T23:32:23Z","tX":507,"tY":380,"tags":{"addr:housenumber":"10","addr:postcode":"50529","addr:street":"Calle Moncayo","caravan_site":"motorhome_stopover","caravan_site:type":"village","fee":"no","name":"Area Autocaravanas Alberite de San Juan","opening_hours":"24/7","pets_allowed":"yes","sanitary_dump_station":"yes","toilets":"yes","water_source":"piped"}},"1385062969":{"location":[41.8975835,-1.7256536],"ct":"ES","tp":"CR","ts":"2025-05-09T12:20:09Z","tX":507,"tY":380,"tags":{"fee":"no","name":"Área de Tarazona","power_supply":"no","sanitary_dump_station":"yes"}},"1389901776":{"location":[41.8275203,-1.7212186],"ct":"ES","tp":"CR","ts":"2025-05-26T18:42:26Z","tX":507,"tY":380,"tags":{"addr:city":"Trasmoz","name":"Área de autocaravanas de Trasmoz","power_supply":"yes","sanitary_dump_station":"yes"}},"1850532779":{"location":[41.8539717,-1.5742637],"ct":"ES","tp":"CS","ts":"2012-08-03T20:17:58Z","tX":507,"tY":380,"tags":{"name":"EcoCamping Borja"}},"9718715617":{"location":[41.9934969,-1.6864483],"ct":"ES","tp":"CR","ts":"2024-05-04T15:30:09Z","tX":507,"tY":380,"tags":{"caravan_site":"motorhome_stopover","caravan_site:type":"parking_lot","fee":"no","name":"Área autocaravanas Cascante","name:en":"Motorhome Parking & Stopover area in Cascante","opening_hours":"24/7","sanitary_dump_station":"yes","water_point":"yes","website":"https://motorhome-parking-cascante.carrd.co/"}},"9718715717":{"location":[42.0002804,-1.5610861],"ct":"ES","tp":"CR","ts":"2023-05-15T06:51:32Z","tX":507,"tY":380,"tags":{"access":"private","name":"Trujal Artajo"}},"11071058805":{"location":[41.8276484,-1.7212406],"ct":"ES","tp":"CR","ts":"2023-07-27T11:20:32Z","tX":507,"tY":380,"tags":{"name":"Área Camper Trasmoz"}},"11285921383":{"location":[41.8175439,-1.5207205],"ct":"ES","tp":"CR","ts":"2025-05-08T17:04:04Z","tX":507,"tY":380,"tags":{"fee":"no","name":"Área de Ainza","power_supply":"no","sanitary_dump_station":"yes"}},"8585755551":{"location":[41.9725055,-1.4362478],"ct":"ES","tp":"SD","ts":"2024-05-16T19:20:02Z","tX":507,"tY":380,"tags":{"access":"yes","fee":"no","motorhome":"designated","operator":"ciudad de Buñuel","sanitary_dump_station":"public","sanitary_dump_station:chemical_toilet":"yes","sanitary_dump_station:grey_water":"yes","sanitary_dump_station:round_drain":"yes","water_point":"yes"}}}