{"222151511":{"location":[41.4452954,-1.5578268],"ct":"ES","tp":"CS","ts":"2022-11-02T07:23:03Z","tX":507,"tY":382,"tags":{"caravans":"yes","name":"Saviñan Park","tents":"yes","website":"http://www.campingsavinan.com/"}},"925191986":{"location":[41.3505833,-1.6467777],"ct":"ES","tp":"CR","ts":"2024-05-17T10:25:56Z","tX":507,"tY":382,"tags":{"access":"yes","addr:city":"Calatayud","addr:postcode":"50300","addr:street":"Paseo Ramón y Cajal","capacity":"8","caravan_site":"motorhome_stopover","caravan_site:type":"parking_lot","covered":"no","drinking_water":"yes","fee":"no","maxstay":"72 hours","name":"Area de Autocaravanas Calatayud","opening_hours":"24/7; \"closed ca first half of September\"","operator":"Ayuntamiento de Calatayud","power_supply":"no","sanitary_dump_station":"yes","sanitary_dump_station:chemical_toilet":"yes","sanitary_dump_station:grey_water":"yes","sanitary_dump_station:round_drain":"yes","supervised":"no","surface":"asphalt","water_point":"yes"}},"1018779507":{"location":[41.4740665,-1.4732716],"ct":"ES","tp":"CR","ts":"2024-05-17T10:14:20Z","tX":507,"tY":382,"tags":{"access":"yes","addr:city":"Morata de Jalón","addr:postcode":"50260","addr:street":"Calle Barranco Eras","capacity":"6","caravan_site":"motorhome_stopover","caravan_site:type":"village","covered":"no","drinking_water":"yes","fee":"no","maxstay":"72 hours","name":"Área Autocaravanas Morata de Jalón","opening_hours":"24/7","operator":"Ayuntamiento de La Almunia de Morata de Jalón","power_supply":"yes","sanitary_dump_station":"yes","sanitary_dump_station:chemical_toilet":"yes","sanitary_dump_station:grey_water":"yes","sanitary_dump_station:round_drain":"yes","supervised":"no","surface":"concrete","water_point":"yes","website":"https://www.moratadejalon.org/morata-de-jalon-habilita-una-zona-de-estancia-de-autocaravanas/"}},"8586376141":{"location":[41.350765,-1.6463439],"ct":"ES","tp":"SD","ts":"2022-09-20T12:26:02Z","tX":507,"tY":382,"tags":{"access":"yes","description":"Estación de vaciado de tanque para autocaravanas","description:fr":"Station de vidange pour Camping-car.","fee":"no","operator":"Ayuntamiento de Calatayud","sanitary_dump_station":"public","sanitary_dump_station:chemical_toilet":"yes","sanitary_dump_station:grey_water":"yes","sanitary_dump_station:round_drain":"yes","water_point":"yes"}},"9396696566":{"location":[41.4741565,-1.4732293],"ct":"ES","tp":"SD","ts":"2024-05-17T10:14:20Z","tX":507,"tY":382,"tags":{"access":"yes","fee":"no","motorhome":"designated","operator":"Ayuntamiento de Morata de Jalón","sanitary_dump_station":"public","sanitary_dump_station:chemical_toilet":"yes","sanitary_dump_station:grey_water":"yes","sanitary_dump_station:round_drain":"yes","water_point":"yes"}}}