{"415216642":{"location":[40.5209949,-1.6629399],"ct":"ES","tp":"CS","ts":"2016-05-03T07:42:25Z","tX":507,"tY":385,"tags":{"area":"yes","name":"Campamento Juvenil"}},"1178270991":{"location":[40.4995376,-1.5947984],"ct":"ES","tp":"CS","ts":"2025-06-08T16:52:03Z","tX":507,"tY":385,"tags":{"addr:city":"Bronchales","addr:postcode":"44367","addr:street":"Carretera del Canto","name":"Las Corralizas","website":"https://www.lascorralizas.com/"}},"7597931221":{"location":[40.5001043,-1.7127359],"ct":"ES","tp":"CS","ts":"2020-10-31T16:34:29Z","tX":507,"tY":385,"tags":{"email":"orea@escolapiosbetania.es","name":"Campamento Cabrillas","phone":"+34 639 152 143","source":"Áreas protegidas de Castilla-La Mancha","website":"http://www.campamentocabrillas.es/"}},"7599741320":{"location":[40.5095422,-1.7199467],"ct":"ES","tp":"CS","ts":"2020-11-07T07:24:18Z","tX":507,"tY":385,"tags":{"addr:city":"Orea","addr:postcode":"19311","description":"Su perfecta situación, nos permite realizar de una gran cantidad de excursiones por las provincias de Cuenca, Guadalajara y Teruel...","email":"info@campingorea.com","name":"Camping Orea","phone":"+34 949 836 444","website":"https://www.campingorea.com/"}}}