{"333906773":{"location":[40.412352,-1.4276064],"ct":"ES","tp":"CS","ts":"2024-04-09T11:22:13Z","tX":507,"tY":386,"tags":{"name":"Camping Ciudad de Albarracín","phone":"+34978710197","website":"https://www.campingalbarracin.com/"}},"751648792":{"location":[40.3076623,-1.5235081],"ct":"ES","tp":"CS","ts":"2022-01-04T17:45:17Z","tX":507,"tY":386,"tags":{"addr:city":"Terriente","addr:postcode":"44120","addr:street":"Paraje El Algarbe","email":"info@campingalgarbe.com","name":"Camping Algarbe","nohousenumber":"yes","website":"https://www.campingalgarbe.com/"}},"1019001455":{"location":[40.4238412,-1.7143431],"ct":"ES","tp":"CR","ts":"2024-04-14T21:21:43Z","tX":507,"tY":386,"tags":{"access":"yes","addr:city":"Griegos","addr:postcode":"44114","addr:street":"12 TE-V-9032","capacity":"5","caravan_site":"motorhome_stopover","caravan_site:type":"village","covered":"no","drinking_water":"yes","fee":"no","maxstay":"72 hours","name":"Área de autocaravanas de Griegos","opening_hours":"24/7","operator":"ciudad de Griegos","power_supply":"no","sanitary_dump_station":"yes","sanitary_dump_station:chemical_toilet":"no","sanitary_dump_station:grey_water":"yes","sanitary_dump_station:round_drain":"yes","seasonal":"no","supervised":"no","surface":"unpaved","tents":"no","water_point":"yes"}},"1019010021":{"location":[40.4162338,-1.5098185],"ct":"ES","tp":"CR","ts":"2024-05-04T12:42:55Z","tX":507,"tY":386,"tags":{"access":"yes","addr:city":"Brea de Tajo","addr:postcode":"28596","addr:street":"Camino F","capacity":"5","covered":"no","drinking_water":"yes","fee":"no","maxstay":"no","name":"Area Autocaravanas Albarracin Aventur","opening_hours":"Apr-Oct","operator":"Albarracin Aventura","power_supply":"no","sanitary_dump_station":"yes","sanitary_dump_station:chemical_toilet":"yes","sanitary_dump_station:grey_water":"yes","sanitary_dump_station:round_drain":"yes","seasonal":"no","supervised":"no","surface":"unpaved","water_point":"yes","website":"https://www.albarracinaventura.com/contacto/"}},"1380445785":{"location":[40.1793502,-1.6726434],"ct":"ES","tp":"CR","ts":"2025-04-23T22:14:53Z","tX":507,"tY":386,"tags":{"fee":"no","name":"Área de Laguna del Marquesado","power_supply":"no","sanitary_dump_station":"yes"}},"4905574122":{"location":[40.4014467,-1.4242967],"ct":"ES","tp":"CR","ts":"2023-10-08T22:05:26Z","tX":507,"tY":386,"tags":{"name":"Albarrazin acampada libre","name:es":"Albarrazin acampada libre","toilets":"no"}},"4905829221":{"location":[40.401671,-1.4243203],"ct":"ES","tp":"CR","ts":"2023-10-08T22:05:27Z","tX":507,"tY":386,"tags":{"name":"Albarrazin zona acampada libre","name:es":"Albarrazin zona acampada libre","toilets":"no"}},"11381182775":{"location":[40.3691151,-1.5757253],"ct":"ES","tp":"CR","ts":"2024-08-16T11:03:55Z","tX":507,"tY":386,"tags":{"name":"Parque de autocaravanas El Zafranar"}},"11878818274":{"location":[40.4089132,-1.4277479],"ct":"ES","tp":"CR","ts":"2024-05-04T14:46:03Z","tX":507,"tY":386,"tags":{"caravan_site":"motorhome_stopover","caravan_site:type":"museum","charge":"14 EUR","check_in":"12:00","check_out":"12:00","dog":"yes","fee":"yes","internet_access":"yes","laundry":"yes","name":"Área de autocaravanas albarracín","phone":"+34 656332583","picnic_area":"yes","power_supply":"yes","reservation":"yes","sanitary_dump_station":"yes","sanitary_dump_station:chemical_toilet":"yes","sanitary_dump_station:grey_water":"yes","tents":"no","water_point":"yes","website":"https://areadeautocaravanasalbarracin.com/"}},"9398673048":{"location":[40.4239592,-1.7145136],"ct":"ES","tp":"SD","ts":"2024-04-14T21:21:43Z","tX":507,"tY":386,"tags":{"access":"yes","fee":"no","operator":"Ayuntamiento de Griegos","sanitary_dump_station":"public","sanitary_dump_station:chemical_toilet":"no","sanitary_dump_station:grey_water":"yes","sanitary_dump_station:round_drain":"yes","water_point":"yes"}},"9398774827":{"location":[40.4168836,-1.5093542],"ct":"ES","tp":"SD","ts":"2024-05-04T12:42:55Z","tX":507,"tY":386,"tags":{"access":"yes","fee":"no","motorhome":"designated","operator":"Albarracin Aventura","sanitary_dump_station":"public","sanitary_dump_station:chemical_toilet":"yes","sanitary_dump_station:grey_water":"yes","sanitary_dump_station:round_drain":"yes","water_point":"yes"}}}