{"13517903":{"location":[37.8887979,-1.4933444],"ct":"ES","tp":"CS","ts":"2025-05-11T22:58:06Z","tX":507,"tY":395,"tags":{"addr:city":"Alhama de Murcia","addr:hamlet":"El Berro","addr:postcode":"30848","addr:province":"Murcia","addr:street":"Juan Bautista","cabins":"yes","caravans":"yes","email":"camping@campingsierraespuna.com","fax":"+34 968 668 079","internet_access":"wlan","internet_access:fee":"no","mobile":"+34 639 005 798","name":"Camping Sierra Espuña","nudism":"no","phone":"+34 968 668 038","reservation":"yes","sanitary_dump_station":"yes","tents":"yes","website":"https://campingsierraespuna.com/","wheelchair":"yes"}},"1145434864":{"location":[37.8691674,-1.521127],"ct":"ES","tp":"CS","ts":"2024-09-05T10:04:19Z","tX":507,"tY":395,"tags":{"backcountry":"yes","caravans":"no","dog":"leashed","email":"infoespaciosprotegidos@carm.es","internet_access":"no","name":"Zona de Acampada La Perdiz","operator":"Parque Regional Sierra Espuña","phone":"+34 968 228 890","reservation":"required","shower":"no","surface":"ground","tents":"yes","toilets":"no","website":"https://territoriosierraespuna.com/ver-y-hacer/parque/visitalo/zonas-de-acampada/","wheelchair":"limited"}},"1145438804":{"location":[37.8550797,-1.5198978],"ct":"ES","tp":"CS","ts":"2025-03-19T14:56:05Z","tX":507,"tY":395,"tags":{"backcountry":"yes","caravans":"no","drinking_water":"no","email":"infoespaciosprotegidos@carm.es","group_only":"yes","name":"Zona de Acampada Campamento de Exploradores","operator":"Parque Regional Sierra Espuña","panoramax":"4de9a810-8a46-470c-94eb-1a1d408add75","phone":"+34 968 228 890;+34 968 228 985","power_supply":"no","reservation":"required","shower":"no","tents":"yes","toilets":"no","website":"https://territoriosierraespuna.com/ver-y-hacer/parque/visitalo/zonas-de-acampada/","wheelchair":"limited"}},"1247640055":{"location":[37.9229651,-1.5950373],"ct":"ES","tp":"CR","ts":"2025-05-18T19:14:26Z","tX":507,"tY":395,"tags":{"access":"yes","capacity":"21","capacity:caravans":"21","caravan_site":"motorhome_stopover","caravans":"yes","dog":"yes","email":"turismo@aytomula.es","fee":"no","internet_access":"no","lit":"yes","maxstay":"48 hours","name":"Área de Servicio de Autocaravanas y Caravanas Casas Nuevas","opening_hours":"24/7","operator":"Oficina de Turismo del Ayuntamiento de Mula","panoramax":"0743841d-4bcf-46c0-b56d-636873544d58","permanent_camping":"no","phone":"+34 968 661 501","power_supply":"no","reservation":"no","sanitary_dump_station":"yes","shower":"no","surface":"compacted","surveillance":"no","tents":"no","toilets":"no","water_point":"yes","website":"https://turismodemula.es/","wheelchair":"yes"}},"10732973032":{"location":[37.8344343,-1.580607],"ct":"ES","tp":"CS","ts":"2023-03-13T14:51:48Z","tX":507,"tY":395,"tags":{"backcountry":"yes","caravans":"no","email":"infoespaciosprotegidos@carm.es","name":"Zona de Acampada Las Alquerías","operator":"Parque Regional Sierra Espuña","phone":"+34 968 228 890","reservation":"required","shower":"no","surface":"ground","tents":"yes","toilets":"no","website":"https://territoriosierraespuna.com/ver-y-hacer/parque/visitalo/zonas-de-acampada/","wheelchair":"yes"}},"4795867149":{"location":[37.7927933,-1.510402],"ct":"ES","tp":"CR","ts":"2024-01-24T17:58:46Z","tX":507,"tY":395,"tags":{"camp_type":"established","charge":"8€","email":"camperstopsierraespuna@gmail.com","fee":"yes","internet_access":"yes","internet_access:access":"customers","internet_access:fee":"no","name":"Camperstop Sierra Espuña","permanent_camping":"yes","phone":"+34639873971;+34630131375","power_supply":"yes","sanitary_dump_station":"yes","toilets":"yes","website":"http://camperstopsierraespuna.blogspot.com.es/"}},"4796193823":{"location":[37.7924541,-1.5095783],"ct":"ES","tp":"SD","ts":"2021-08-08T05:58:14Z","tX":507,"tY":395,"tags":{"access":"customers"}}}