{"11648294":{"location":[58.1740334,16.849258],"ct":"SE","tp":"CS","ts":"2023-10-17T19:17:30Z","tX":559,"tY":307,"tags":{"addr:city":"Gryt","addr:country":"SE","addr:postcode":"61042","addr:street":"Ekövägen","email":"ekon@campa.se","fax":"+46 493 12686","internet_access":"wlan","internet_access:fee":"no","name":"KustCamp Ekön","old_name":"Eköns Camping","phone":"+46 123 40283","ref":"SCR E27","stars":"4","website":"https://campa.se/11/Ekoen-3.htm","wheelchair":"yes"}},"1292570854":{"location":[58.1937231,16.6199419],"ct":"SE","tp":"CS","ts":"2024-06-15T08:29:37Z","tX":559,"tY":307,"tags":{"caravans":"yes","drinking_water":"yes","email":"info@grannascamping.se","name":"Grännäs Camping och Stugby","note":"Position of borders and size is not accurate.","phone":"+46-123-514 44","power_supply":"yes","shower":"yes","tents":"yes","toilets":"yes","website":"http://grannascamping.se/","wheelchair":"yes"}},"3561287289":{"location":[58.2026812,16.6098969],"ct":"SE","tp":"CR","ts":"2022-06-25T09:07:07Z","tX":559,"tY":307,"tags":{}},"4448464610":{"location":[58.15982,16.81021],"ct":"SE","tp":"SD","ts":"2017-09-23T18:46:30Z","tX":559,"tY":307,"tags":{"access":"yes","addr:place":"Gryts varv","boat":"yes","fee":"no","opening_hours":"24/7","sanitary_dump_station:accepted":"black_water","sanitary_dump_station:pump-out":"yes","seamark:small_craft_facility:category":"pump-out","seamark:type":"small_craft_facility","vehicle":"no","waterway":"sanitary_dump_station","website":"https://hamnkartan.azurewebsites.net"}},"4448464613":{"location":[58.1917068,16.8509287],"ct":"SE","tp":"SD","ts":"2020-09-17T22:43:21Z","tX":559,"tY":307,"tags":{"access":"yes","addr:place":"Fyrudden","boat":"yes","fee":"no","opening_hours":"24/7","sanitary_dump_station:accepted":"black_water","sanitary_dump_station:pump-out":"yes","seamark:small_craft_facility:category":"pump-out","seamark:type":"small_craft_facility","vehicle":"no","waterway":"sanitary_dump_station","website":"https://hamnkartan.azurewebsites.net"}},"4448464614":{"location":[58.2031143,16.6062838],"ct":"SE","tp":"SD","ts":"2022-06-25T09:07:07Z","tX":559,"tY":307,"tags":{"access":"yes","addr:place":"Valdemarsvik","boat":"yes","fee":"no","opening_hours":"24/7","sanitary_dump_station:accepted":"black_water","sanitary_dump_station:pump-out":"yes","seamark:small_craft_facility:category":"pump-out","seamark:type":"small_craft_facility","vehicle":"no","waterway":"sanitary_dump_station","website":"https://hamnkartan.azurewebsites.net"}}}