{"125554618":{"location":[57.7368146,16.6703266],"ct":"SE","tp":"CS","ts":"2025-01-12T20:40:21Z","tX":559,"tY":309,"tags":{"addr:city":"Västervik","addr:postcode":"59353","addr:street":"Lysingsvägen","capacity":"900","caravans":"yes","name":"Lysingsbadet Västervik Resort","operator":"Västervik Resort AB","phone":"+46 490 258000","sanitary_dump_station":"yes","tents":"yes","website":"https://vastervikresort.se"}},"129864999":{"location":[57.8914321,16.7061465],"ct":"SE","tp":"CS","ts":"2021-06-27T17:42:09Z","tX":559,"tY":309,"tags":{"addr:city":"Loftahammar","addr:country":"SE","addr:housenumber":"50","addr:postcode":"590 95","addr:street":"Tättövägen","caravans":"yes","name":"Tättö Havsbad","tents":"yes","website":"https://www.tattohavsbad.se/"}},"431825007":{"location":[57.8742,16.74865],"ct":"SE","tp":"CS","ts":"2009-07-01T20:55:47Z","tX":559,"tY":309,"tags":{"name":"Hallmare Havsbad"}},"748867704":{"location":[57.8730091,16.7483316],"ct":"SE","tp":"CS","ts":"2019-11-22T22:03:20Z","tX":559,"tY":309,"tags":{}},"1268786504":{"location":[57.7513221,16.6555443],"ct":"SE","tp":"CR","ts":"2024-04-03T18:49:45Z","tX":559,"tY":309,"tags":{"addr:country":"SE","addr:housenumber":"1","addr:street":"Värmeverksgatan","capacity":"35","name":"Ställplats Sågen","opening_hours":"Apr-Oct","power_supply":"yes","toilets":"no"}},"4197828537":{"location":[57.7406695,16.6631243],"ct":"SE","tp":"SD","ts":"2016-05-20T21:51:03Z","tX":559,"tY":309,"tags":{"access":"customers","fee":"no","opening_hours":"24/7","operator":"Västervik Resort AB","sanitary_dump_station:round_drain":"yes"}},"11784004333":{"location":[57.7628902,16.6871434],"ct":"SE","tp":"CR","ts":"2024-04-03T18:49:45Z","tX":559,"tY":309,"tags":{"caravans":"no","charge":"160 SEK","fee":"yes","name":"Bondbacken","tents":"no"}},"4448464572":{"location":[57.73009,16.67714],"ct":"SE","tp":"SD","ts":"2017-09-23T18:46:27Z","tX":559,"tY":309,"tags":{"access":"yes","addr:place":"Västervik Solbergsudde","boat":"yes","fee":"no","opening_hours":"24/7","sanitary_dump_station:accepted":"black_water","sanitary_dump_station:pump-out":"yes","seamark:small_craft_facility:category":"pump-out","seamark:type":"small_craft_facility","vehicle":"no","waterway":"sanitary_dump_station","website":"https://hamnkartan.azurewebsites.net"}},"4448464577":{"location":[57.7592511,16.6428706],"ct":"SE","tp":"SD","ts":"2019-08-01T06:40:40Z","tX":559,"tY":309,"tags":{"access":"yes","addr:place":"Västerviks Gästhamn","boat":"yes","fee":"no","opening_hours":"24/7","sanitary_dump_station:accepted":"black_water","sanitary_dump_station:pump-out":"yes","seamark:small_craft_facility:category":"pump-out","seamark:type":"small_craft_facility","vehicle":"no","waterway":"sanitary_dump_station","website":"https://hamnkartan.azurewebsites.net"}}}