{"15414589":{"location":[56.8834526,16.6573813],"ct":"SE","tp":"CS","ts":"2024-06-26T20:26:33Z","tX":559,"tY":314,"tags":{"email":"info@kapelludden.se","name":"Kapelludden Camping o Stugor","phone":"+46 485-56 07 70","website":"https://www.kapelludden.se/"}},"128131340":{"location":[56.7904442,16.5644663],"ct":"SE","tp":"CS","ts":"2023-05-11T22:03:29Z","tX":559,"tY":314,"tags":{"caravans":"yes","email":"ekerum@firstcamp.se","name":"Ekerums Camping & Stugor","operator":"First Camp Scandinavia AB","phone":"+46 485 56 47 00","shower":"yes","tents":"yes","toilets":"yes","website":"https://firstcamp.se/destinationer/ekerum-oland"}},"267957678":{"location":[56.8844929,16.7241293],"ct":"SE","tp":"CS","ts":"2023-03-12T13:58:26Z","tX":559,"tY":314,"tags":{}},"296506386":{"location":[56.8803194,16.7155599],"ct":"SE","tp":"CS","ts":"2014-08-07T16:01:59Z","tX":559,"tY":314,"tags":{}},"296506387":{"location":[56.8796917,16.7111447],"ct":"SE","tp":"CS","ts":"2018-04-02T17:50:28Z","tX":559,"tY":314,"tags":{"email":"info@kopingbaden.com","name":"Köpingbaden Camping","phone":"+46-485-723 46","website":"http://www.kopingbaden.se/campingen/"}},"296506389":{"location":[56.9070161,16.7303738],"ct":"SE","tp":"CS","ts":"2024-09-19T08:16:37Z","tX":559,"tY":314,"tags":{"cabins":"yes","caravans":"yes","email":"info@lundegard.se","name":"Lundegård Camping & Stugby","phone":"+46 485 827 00","shower":"yes","tents":"yes","toilets":"yes","toilets:wheelchair":"yes","website":"https://www.lundegard.se/","wheelchair":"limited","wheelchair:description":"Toilette im Männerwaschbereich Schöner ruhiger Campingpl. Mit Hilfe Baden möglich"}},"296506390":{"location":[56.8810309,16.7181287],"ct":"SE","tp":"CS","ts":"2018-05-31T15:14:00Z","tX":559,"tY":314,"tags":{"email":"info@grondalscamping.se","toilets:wheelchair":"no","wheelchair":"limited"}},"431825019":{"location":[56.87982,16.7162853],"ct":"SE","tp":"CS","ts":"2014-08-07T16:02:07Z","tX":559,"tY":314,"tags":{"email":"info@gronhagscamping.se","name":"Grönhags Camping","phone":"+46 485-721 16","website":"http://www.gronhagscamping.com/"}},"431825027":{"location":[56.88298,16.68435],"ct":"SE","tp":"CS","ts":"2012-08-29T08:25:18Z","tX":559,"tY":314,"tags":{"name":"Blå Rörs Camping"}},"431825033":{"location":[56.88395,16.72385],"ct":"SE","tp":"CS","ts":"2023-03-12T13:58:26Z","tX":559,"tY":314,"tags":{"caravans":"yes","email":"info@klinta.se","name":"Klinta Camping & Stugby","phone":"+46-485-721 56","shower":"yes","tents":"yes","toilets":"yes","toilets:wheelchair":"yes","website":"https://www.klinta.se/","wheelchair":"limited","wheelchair:description":"Leichtes Gefälle zum Sanibereich. Campplätze direkt am Strand möglich in der Frühsaison bis Ende Mai."}},"431825058":{"location":[56.88315,16.7237],"ct":"SE","tp":"CS","ts":"2017-09-09T16:12:55Z","tX":559,"tY":314,"tags":{"email":"info@kopingsviksfritidsby.se","name":"Köpingsviks Fritidsby","phone":"+46-485-721 25","website":"http://www.kopingsviksfritidsby.se/"}},"619233051":{"location":[56.8826193,16.722045],"ct":"SE","tp":"CR","ts":"2025-05-19T19:38:06Z","tX":559,"tY":314,"tags":{"barrier":"fence","name":"Klinta Strand ställplats","power_supply":"yes","reservation":"no","sanitary_dump_station":"no","wheelchair":"yes"}},"954397626":{"location":[56.7904858,16.5605888],"ct":"SE","tp":"CR","ts":"2021-06-14T19:18:18Z","tX":559,"tY":314,"tags":{}},"954397627":{"location":[56.7912068,16.5608931],"ct":"SE","tp":"CR","ts":"2021-06-14T19:18:18Z","tX":559,"tY":314,"tags":{}},"954397638":{"location":[56.7922173,16.5665743],"ct":"SE","tp":"CR","ts":"2021-06-14T19:18:18Z","tX":559,"tY":314,"tags":{}},"962713699":{"location":[56.7714752,16.565888],"ct":"SE","tp":"CR","ts":"2023-10-05T18:40:49Z","tX":559,"tY":314,"tags":{"access":"customers","addr:city":"Borgholm","addr:country":"SE","addr:housenumber":"28","addr:street":"Rällavägen","capacity:caravans":"34","charge":"150 SEK","email":"info@rallacamp.se","fee":"yes","internet_access":"no","name":"Rälla Camp","payment:credit_cards":"yes","power_supply":"yes","reservation":"recommended","sanitary_dump_station":"no","website":"https://rallacamp.se"}},"1153750833":{"location":[56.8861755,16.7249091],"ct":"SE","tp":"CS","ts":"2024-07-29T20:26:54Z","tX":559,"tY":314,"tags":{"cabins":"yes","caravans":"yes","email":"info@klintagarden.se","name":"Klintagårdens camping","phone":"+46-485-722 40","shower":"yes","tents":"yes","toilets":"yes","website":"https://www.klintagarden.se/"}},"1179844802":{"location":[56.8658998,16.6400587],"ct":"SE","tp":"CR","ts":"2024-07-08T16:30:27Z","tX":559,"tY":314,"tags":{"fee":"no","name:signed":"no"}},"1179844803":{"location":[56.8817252,16.722291],"ct":"SE","tp":"CR","ts":"2023-10-05T18:40:49Z","tX":559,"tY":314,"tags":{"addr:city":"Köpingsvik","addr:country":"SE","addr:housenumber":"55","addr:postcode":"387 50","addr:street":"Köpingevägen","fee":"yes","mobile":"+46 70 8597673","name":"Smedjans Ställplatser Köpingsvik","payment:credit_cards":"yes","payment:swish":"yes","power_supply":"yes","reservation":"no","website":"smedjansstallplatser.se"}},"8833321072":{"location":[56.7915137,16.5662786],"ct":"SE","tp":"CR","ts":"2021-06-14T19:06:11Z","tX":559,"tY":314,"tags":{"name":"Campingleken"}},"10958170257":{"location":[56.8702448,16.6475175],"ct":"SE","tp":"CR","ts":"2024-07-08T16:30:46Z","tX":559,"tY":314,"tags":{"fee":"no","name":"Aimo Park Sollidenvägen"}},"4448464530":{"location":[56.7563978,16.5276767],"ct":"SE","tp":"SD","ts":"2020-03-27T22:24:18Z","tX":559,"tY":314,"tags":{"access":"yes","addr:place":"Stora Rör","boat":"yes","fee":"no","opening_hours":"24/7","sanitary_dump_station:accepted":"black_water","sanitary_dump_station:pump-out":"yes","seamark:small_craft_facility:category":"pump-out","seamark:type":"small_craft_facility","vehicle":"no","waterway":"sanitary_dump_station","website":"https://hamnkartan.azurewebsites.net"}},"4448464532":{"location":[56.8791729,16.6480807],"ct":"SE","tp":"SD","ts":"2021-04-24T01:18:54Z","tX":559,"tY":314,"tags":{"access":"yes","addr:place":"Borgholms Gästhamn","boat":"yes","fee":"no","opening_hours":"24/7","sanitary_dump_station:accepted":"black_water","sanitary_dump_station:pump-out":"yes","seamark:small_craft_facility:category":"pump-out","seamark:type":"small_craft_facility","vehicle":"no","waterway":"sanitary_dump_station","website":"https://hamnkartan.azurewebsites.net"}}}