{"77771185":{"location":[48.898513,16.5674588],"ct":"CZ","tp":"CS","ts":"2024-06-10T16:36:21Z","tX":559,"tY":352,"tags":{"addr:city":"Pasohlávky","addr:postcode":"69122","capacity":"3500","email":"kemp@pasohlavky.cz","internet_access":"wlan","internet_access:fee":"no","name":"Autokemp Merkur Pasohlávky","operator":"Pasohlávská rekreační s.r.o.","phone":"+420 519 427 714","ref:nap":"15205","source":"cuzk:km;local knowledge","website":"https://www.kemp-merkur.cz/"}},"259570375":{"location":[48.8872399,16.6552544],"ct":"CZ","tp":"CS","ts":"2023-05-17T14:39:05Z","tX":559,"tY":352,"tags":{"cabins":"yes","capacity":"100","caravans":"yes","email":"kemp@ulangru.cz","name":"Autokemp U Vody","phone":"+420 774 369 156","ref:nap":"20620","shower":"yes","tents":"yes","toilets":"yes","website":"https://www.ulangru.cz/"}},"281258886":{"location":[48.7857166,16.8273775],"ct":"CZ","tp":"CS","ts":"2023-05-17T14:39:05Z","tX":559,"tY":352,"tags":{"capacity":"250","email":"info@apollokemp.cz","name":"Kemp Apollo","phone":"+420 519 340 414","ref:nap":"15637","website":"https://www.apollokemp.cz/"}},"281258887":{"location":[48.7862156,16.8263496],"ct":"CZ","tp":"CS","ts":"2023-11-08T14:57:16Z","tX":559,"tY":352,"tags":{"fee":"yes","internet_access":"limited","internet_access:fee":"no","name":"ATC Apollo","phone":"+420 519340414","website":"https://www.atcapollo.cz/"}},"518797160":{"location":[48.8798648,16.5367527],"ct":"CZ","tp":"CS","ts":"2019-03-26T04:33:04Z","tX":559,"tY":352,"tags":{"email":"pavel.mikus74@seznam.cz","internet_access":"wlan","internet_access:fee":"no","name":"AutoKemp Erika","phone":"+420 607 891 819","website":"https://ubytovani-palava.webnode.cz/"}},"712638946":{"location":[48.8352561,16.6408637],"ct":"CZ","tp":"CS","ts":"2023-07-06T11:58:35Z","tX":559,"tY":352,"tags":{"caravans":"no","name":"tábořiště Klentnice","operator":"obec Klentnice","tents":"yes","website":"https://www.klentnice.cz/index.php?nid=1433&lid=cs&oid=1391302"}},"713487646":{"location":[48.8796389,16.6779336],"ct":"CZ","tp":"CS","ts":"2024-08-04T10:07:49Z","tX":559,"tY":352,"tags":{"access":"customers","addr:city":"Pavlov","addr:postcode":"69201","addr:street":"23. dubna","email":"recepce@ycdyje.cz","fee":"yes","name":"Kemp YachtClub Dyje","operator":"YachtClub Dyje z.s.","phone":"+420 519 515 320","website":"https://www.ycdyje.cz/"}},"844856705":{"location":[48.8152679,16.7743755],"ct":"CZ","tp":"CS","ts":"2022-10-26T15:29:04Z","tX":559,"tY":352,"tags":{"caravans":"yes","drinking_water":"yes","fee":"yes","name":"Paliště Nejdek","openfire":"yes","phone":"+420 728 940 396","power_supply":"yes","shower":"no","surface":"grass","tents":"yes","toilets":"yes","website":"https://paliste.webnode.cz/"}},"1006598406":{"location":[48.717314,16.862419],"ct":"CZ","tp":"CS","ts":"2024-06-26T02:40:07Z","tX":559,"tY":352,"tags":{"caravans":"yes","description":"A fishing lake, where camping is possible.","name":"Františkův Rybník","opening_hours":"Mo-Su 07:00-19:00","operator":"Antonín Nešpor","phone":"+420 736 614 038","tents":"yes","toilets":"yes","website":"https://www.frantiskuvrybnik.cz/"}},"1270079217":{"location":[48.8565553,16.7309934],"ct":"CZ","tp":"CS","ts":"2011-05-02T07:18:26Z","tX":559,"tY":352,"tags":{"name":"Pálava"}},"2360416015":{"location":[48.8737493,16.7253933],"ct":"CZ","tp":"CS","ts":"2016-08-30T22:02:47Z","tX":559,"tY":352,"tags":{"backcountry":"no","fee":"yes","group_only":"no","name":"Kemp Mars","source":"Bing;survey"}},"2378222179":{"location":[48.9016103,16.5748954],"ct":"CZ","tp":"CR","ts":"2013-07-08T18:22:07Z","tX":559,"tY":352,"tags":{"name":"ATC Merkur"}},"3250614370":{"location":[48.8703655,16.7258147],"ct":"CZ","tp":"CS","ts":"2014-12-24T09:59:48Z","tX":559,"tY":352,"tags":{"name":"Unicamp"}},"3702863923":{"location":[48.900147,16.5479306],"ct":"CZ","tp":"CS","ts":"2015-08-18T13:13:15Z","tX":559,"tY":352,"tags":{"name":"Yacht Club"}},"11945939139":{"location":[48.8147324,16.6338441],"ct":"CZ","tp":"CS","ts":"2024-05-30T19:54:07Z","tX":559,"tY":352,"tags":{"name":"Camping Mikulov","website":"https://www.campingmikulov.cz"}},"4375941694":{"location":[48.903235,16.6510862],"ct":"CZ","tp":"CR","ts":"2016-09-04T19:15:46Z","tX":559,"tY":352,"tags":{"fee":"yes","internet_access":"wlan","name":"Free Star autokemp","name:cs":"Free Star autokemp","power_supply":"yes","sanitary_dump_station":"yes"}},"8993409298":{"location":[48.8023443,16.7887114],"ct":"CZ","tp":"CR","ts":"2024-08-16T08:33:49Z","tX":559,"tY":352,"tags":{"description":"Stání pro obytná auta (stellplatz) Vinařství Annovino","start_date":"2021-01-01"}}}