{"15614977":{"location":[47.93085,16.8360961],"ct":"AT","tp":"CR","ts":"2024-07-02T10:39:43Z","tX":559,"tY":356,"tags":{"addr:city":"Neusiedl am See","addr:housenumber":"3","addr:postcode":"7100","addr:street":"Seegelände","capacity":"10","caravan_site":"motorhome_stopover","caravan_site:type":"lake","charge":"30 EUR/night","fee":"yes","name":"Wohnmobilstellplatz Neusiedl","operator":"Freizeitbetriebe Neusiedl am See","power_supply":"yes","website":"https://neusiedlamsee.v4u.at/produkt/10003/"}},"38928755":{"location":[47.8524206,16.8241796],"ct":"AT","tp":"CS","ts":"2023-06-05T13:20:42Z","tX":559,"tY":356,"tags":{"addr:city":"Podersdorf am See","addr:housenumber":"19","addr:postcode":"7141","addr:street":"Strandplatz","caravans":"yes","contact:email":"strandcamping@podersdorfamsee.at","contact:phone":"+43 2177 2279","drinking_water":"yes","name":"Strandcamping Podersdorf am See","power_supply":"yes","shower":"yes","tents":"yes","toilets":"yes","website":"https://www.strandcamping-podersdorfamsee.at/"}},"39247533":{"location":[47.8489643,16.821169],"ct":"AT","tp":"CR","ts":"2011-01-02T20:13:33Z","tX":559,"tY":356,"tags":{}},"45020239":{"location":[47.8447391,16.6892775],"ct":"AT","tp":"CS","ts":"2023-07-12T20:59:53Z","tX":559,"tY":356,"tags":{"name":"Campingplatz Oggau","website":"https://www.campingoggau.at/"}},"126118793":{"location":[47.9179988,16.7652627],"ct":"AT","tp":"CS","ts":"2021-01-19T14:32:30Z","tX":559,"tY":356,"tags":{"name":"Campingplatz Naturseebad Breitenbrunn","opening_hours":"Apr-Oct","website":"http://www.breitenbrunn.at"}},"126356401":{"location":[47.8003743,16.6927578],"ct":"AT","tp":"CS","ts":"2024-07-31T12:38:26Z","tX":559,"tY":356,"tags":{"addr:city":"Rust","addr:housenumber":"334","addr:postcode":"7071","addr:street":"Seebadanlage Ruster Bucht","caravans":"yes","fee":"yes","name":"Storchencamp Rust","operator":"Tourismusbetriebe Gmeiner","phone":"+43 2683 5538","shower":"yes","tents":"yes","toilets":"yes","website":"https://www.gmeiner.co.at/storchencamp-rust/camping-rust"}},"130662067":{"location":[47.754869,16.6967167],"ct":"AT","tp":"CR","ts":"2023-02-18T17:04:19Z","tX":559,"tY":356,"tags":{"check_date":"2023-02-18","contact:phone":"+43 660 2287301","fee":"yes","name":"CamÖ","power_supply":"yes","surface":"fine_gravel"}},"138781326":{"location":[47.892767,16.6307783],"ct":"AT","tp":"CS","ts":"2024-08-19T12:52:01Z","tX":559,"tY":356,"tags":{"access":"yes","addr:city":"Donnerskirchen","addr:postcode":"7082","addr:street":"Badstraße","caravans":"yes","dog":"yes","drinking_water":"yes","email":"sonnenwaldbad@donnerskirchen.at","fee":"yes","internet_access":"wlan","internet_access:fee":"customers","name":"Campingplatz Sonnenwaldbad","sanitary_dump_station":"yes","shower":"yes","tents":"yes","toilets":"yes","washing_machine":"yes","website":"http://www.donnerskirchen.at/seite.mv?50-60-00-00"}},"168833660":{"location":[47.9113063,16.7067018],"ct":"AT","tp":"CS","ts":"2023-11-10T06:18:23Z","tX":559,"tY":356,"tags":{"access":"yes","addr:city":"Purbach am Neusiedler See","addr:housenumber":"13","addr:postcode":"7083","addr:street":"Türkenhain","caravans":"yes","dog":"leashed","drinking_water":"yes","email":"office@gmeiner.co.at","fax":"+43 2683 5170-15","fee":"yes","internet_access":"wlan","name":"Storchencamp Purbach","operator":"Tourismusbetriebe Gmeiner","permanent_camping":"yes","phone":"+43 2683 5170","power_supply":"yes","sanitary_dump_station":"yes","swimming_pool":"outdoor","tents":"yes","washing_machine":"yes","website":"https://www.gmeiner.co.at"}},"170167316":{"location":[47.9161898,16.7678615],"ct":"AT","tp":"CS","ts":"2023-04-01T13:35:53Z","tX":559,"tY":356,"tags":{"email":"seebad@breitenbrunn.at","internet_access":"no","name":"Campingplatz Breitenbrunn Zeltplatz","phone":"+43 2683 5252","website":"https://www.breitenbrunn.at/tourismus-seebad/seebad/camping/"}},"854649128":{"location":[47.8503558,16.8307078],"ct":"AT","tp":"CR","ts":"2020-10-03T19:44:24Z","tX":559,"tY":356,"tags":{"addr:city":"Podersdorf am See","addr:housenumber":"1","addr:postcode":"7141","addr:street":"Alte Satz","power_supply":"yes"}}}