{"3959951":{"location":[47.3850726,16.7921851],"ct":"HU","tp":"CS","ts":"2019-04-17T09:04:33Z","tX":559,"tY":358,"tags":{"addr:city":"Bük","addr:housenumber":"12","addr:postcode":"9740","addr:street":"Termál körút","addr:suburb":"Bükfürdő","contact:website":"http://www.romantikcamping.hu","name":"Romantik Camping","short_name":"Romantik"}},"16640821":{"location":[47.2873542,16.8560582],"ct":"HU","tp":"CS","ts":"2023-11-03T10:34:57Z","tX":559,"tY":358,"tags":{"access":"customers","cabins":"yes"}},"26861254":{"location":[47.3783467,16.7820695],"ct":"HU","tp":"CS","ts":"2021-10-06T10:41:06Z","tX":559,"tY":358,"tags":{"fixme":"1) fix name 2) refine location with imagery","name":"Gyógycamping","wheelchair":"yes"}},"152337583":{"location":[47.4673906,16.6407149],"ct":"AT","tp":"CS","ts":"2025-01-02T14:25:43Z","tX":559,"tY":358,"tags":{"addr:city":"Lutzmannsburg","addr:country":"AT","addr:housenumber":"3","addr:postcode":"7361","addr:street":"Trift","disused:tourism":"camp_site","name":"Camping Sonnenland","phone":"+43 261 520002","website":"https://camping-sonnenland.at","wheelchair":"yes"}},"260089924":{"location":[47.4073319,16.527906],"ct":"HU","tp":"CS","ts":"2014-02-05T11:09:21Z","tX":559,"tY":358,"tags":{"name":"Központi bázis","place":"locality"}},"299048007":{"location":[47.3838502,16.7870383],"ct":"HU","tp":"CS","ts":"2022-11-09T15:34:04Z","tX":559,"tY":358,"tags":{"addr:city":"Bük","addr:housenumber":"22","addr:postcode":"9740","addr:street":"Termál körút","name":"Éva kemping"}},"305447955":{"location":[47.4333309,16.7095399],"ct":"HU","tp":"CS","ts":"2014-09-28T18:48:53Z","tX":559,"tY":358,"tags":{}},"410834219":{"location":[47.3934637,16.5430793],"ct":"HU","tp":"CS","ts":"2016-02-12T18:04:09Z","tX":559,"tY":358,"tags":{"name":"Camping Gyöngyvirág","source":"survey"}},"740643072":{"location":[47.396355,16.715526],"ct":"HU","tp":"CS","ts":"2024-11-12T14:07:22Z","tX":559,"tY":358,"tags":{"addr:city":"Csepreg","addr:housenumber":"39","addr:postcode":"9735","addr:street":"Bognár Ignác utca","contact:email":"ottokemping@gmail.com","contact:facebook":"https://www.facebook.com/www.ottokemping.hu/","contact:mobile":"+36 30 625 1081","contact:phone":"+36 94 365 393","internet_access":"wlan","internet_access:fee":"no","name":"Ottó Camping és Horgásztó"}},"1294581023":{"location":[47.3182,16.5650458],"ct":"HU","tp":"CS","ts":"2015-03-22T06:59:34Z","tX":559,"tY":358,"tags":{"name":"Tipi camp indiántábor"}},"3238647692":{"location":[47.398979,16.6768295],"ct":"HU","tp":"CS","ts":"2014-12-16T21:41:00Z","tX":559,"tY":358,"tags":{"name":"Bene-hegy Camping"}},"3465143485":{"location":[47.37565,16.762767],"ct":"HU","tp":"CS","ts":"2023-11-16T17:57:24Z","tX":559,"tY":358,"tags":{"addr:city":"Bük","addr:housenumber":"60","addr:postcode":"9737","addr:street":"Kossuth Lajos utca","contact:fax":"+36 94 359 269","email":"info@piroska.hu","name":"Piroska kemping","phone":"+36 94 558 200","source":"turistautak.hu","source:date":"2013-07-30","url":"http://turistautak.hu/poi.php?id=15064","website":"http://www.piroska.hu"}},"3465143511":{"location":[47.3772256,16.7837875],"ct":"HU","tp":"CS","ts":"2023-11-16T17:57:24Z","tX":559,"tY":358,"tags":{"addr:city":"Bük","addr:housenumber":"2","addr:postcode":"9740","addr:street":"Termál körút","contact:fax":"+36 94 558 359","email":"camping@spabuk.hu","name":"Thermál Gyógykemping","phone":"+36 94 558 356","source":"turistautak.hu","source:date":"2015-03-03","url":"http://turistautak.hu/poi.php?id=15066","website":"https://www.bukfurdo.hu/","wheelchair":"yes"}},"3474961066":{"location":[47.348517,16.741983],"ct":"HU","tp":"CS","ts":"2015-04-24T12:45:48Z","tX":559,"tY":358,"tags":{"name":"Vándortábor (faházak)","source":"turistautak.hu","source:date":"2015-03-03","url":"http://turistautak.hu/poi.php?id=78166"}}}