{"4459366":{"location":[46.6178898,16.531509],"ct":"HU","tp":"CS","ts":"2015-01-12T02:12:29Z","tX":559,"tY":361,"tags":{"addr:city":"Lenti","addr:housenumber":"20","addr:postcode":"8960","addr:street":"Táncsics Mihály utca","name":"Castrum Termálpanzió és Kemping","operator":"Lenti Gyógyfürdő Kft.","smoking":"outside","website":"http://www.lentikemping.hu"}},"12212615":{"location":[46.7894244,16.6829464],"ct":"HU","tp":"CS","ts":"2021-01-20T08:22:40Z","tX":559,"tY":361,"tags":{"name":"Göcsej Camping"}},"167531904":{"location":[46.6437527,16.8327455],"ct":"HU","tp":"CR","ts":"2023-04-01T12:31:31Z","tX":559,"tY":361,"tags":{"addr:city":"Pusztaszentlászló","name":"Aqua Barbara Kemping"}},"282227569":{"location":[46.632177,16.5470029],"ct":"HU","tp":"CS","ts":"2023-10-23T11:26:40Z","tX":559,"tY":361,"tags":{"name":"Sárberki Horgásztó Kemping"}},"3383419378":{"location":[46.789,16.68218],"ct":"HU","tp":"CS","ts":"2023-08-31T05:47:32Z","tX":559,"tY":361,"tags":{"addr:postcode":"8919","addr:street":"Dózsa György utca","dog":"yes","email":"info@gocsej-camping.hu","name":"Göcsej Camping","phone":"+36 93 363 463;+36 30 937 7562","source":"turistautak.hu","url":"http://turistautak.hu/poi.php?id=15155","website":"https://www.gocsejvolgyekemping.hu/"}}}