{"286752771":{"location":[45.4174201,16.6283601],"ct":"HR","tp":"CS","ts":"2023-10-31T13:13:05Z","tX":559,"tY":366,"tags":{"caravans":"yes","internet_access":"wlan","internet_access:fee":"no","name":"Tradicije Čigoč","payment:cash":"yes","payment:credit_cards":"yes","tents":"yes","website":"https://www.tradicije-cigoc.hr/"}},"286775751":{"location":[45.3921458,16.6811491],"ct":"HR","tp":"CS","ts":"2019-06-19T02:52:54Z","tX":559,"tY":366,"tags":{"charge":"30 kn/tent, 53 kn/person, 38 kn/child","name":"Turizam Ravlić","phone":"+385 44 710 151","website":"https://turizam-smz.hr/obitelj-ravlic/?lang=en"}},"793573372":{"location":[45.3951204,16.6275214],"ct":"HR","tp":"CS","ts":"2010-06-27T20:34:58Z","tX":559,"tY":366,"tags":{"name":"Appartment Camp Vitkovic"}},"1161677671":{"location":[45.3654255,16.724982],"ct":"HR","tp":"CS","ts":"2023-04-12T12:25:27Z","tX":559,"tY":366,"tags":{"addr:city":"Lonja","addr:housenumber":"152","addr:postcode":"44203","addr:street":"Lonja","caravans":"yes","check_date":"2022-08-07","description":"Reception desk at Lonja 140; Operator Roda plus d.o.o. at Lonja 167, 44203 Gušće","dog":"yes","fee":"yes","mobile":"+385 98 390 916","name":"Zelen-gaj","operator":"Roda plus d.o.o.","phone":"+385 44 710 603","power_supply":"yes","ref:vatin":"HR36003063850","shower":"yes","tents":"yes","website":"https://www.sava-turizam.com/"}},"5145194922":{"location":[45.5201364,16.615652],"ct":"HR","tp":"CS","ts":"2024-09-20T15:21:20Z","tX":559,"tY":366,"tags":{"caravans":"yes","drinking_water":"yes","name":"SEOSKI TURIZAM BISTRIČKI, AUTOCAMP","power_supply":"yes","sanitary_dump_station":"yes","shower":"yes","tents":"yes","toilets":"yes"}},"5145195024":{"location":[45.5201339,16.615663],"ct":"HR","tp":"CS","ts":"2024-09-20T15:21:22Z","tX":559,"tY":366,"tags":{"addr:street":"Čavorija","caravans":"yes","drinking_water":"yes","name":"Camping Osekovo","power_supply":"yes","sanitary_dump_station":"yes","shower":"yes","tents":"yes","toilets":"yes"}}}