{"39594846":{"location":[43.5038326,16.5283368],"ct":"HR","tp":"CS","ts":"2024-07-02T14:07:17Z","tX":559,"tY":374,"tags":{"cabins":"yes","caravans":"yes","drinking_water":"yes","dryer":"yes","internet_access":"wlan","internet_access:fee":"no","name":"Camping Stobreč Split","note":"Pitches are rubbish for tents (gravel)","payment:cash":"yes","payment:credit_card":"yes","payment:girocard":"yes","payment:mastercard":"yes","payment:visa":"yes","power_supply":"yes","sanitary_dump_station":"yes","shower":"yes","tents":"yes","toilets":"yes","toilets:wheelchair":"yes","washing_machine":"yes","website":"https://www.campingsplit.com/"}},"145037759":{"location":[43.4406763,16.6800607],"ct":"HR","tp":"CS","ts":"2023-12-06T16:30:52Z","tX":559,"tY":374,"tags":{"addr:city":"Omiš","addr:housenumber":"7","addr:postcode":"21310","addr:street":"Vukovarska cesta","contact:facebook":"https://www.facebook.com/CampGaleb","contact:instagram":"https://www.instagram.com/campgaleb/","email":"camping@galeb.hr","fee":"yes","name":"Kamp Galeb","name:hr":"Kamp Galeb","note":"****; expensive","phone":"+385 21 864 430","stars":"4","website":"https://www.kamp.galeb.hr/en/"}},"243261061":{"location":[43.4458267,16.63434],"ct":"HR","tp":"CS","ts":"2015-09-03T10:00:11Z","tX":559,"tY":374,"tags":{"addr:city":"Orij","addr:housenumber":"16","addr:street":"Poljička cesta","name":"Autocamp Orij","operator":"Kadić"}},"428164578":{"location":[43.3812196,16.5646175],"ct":"HR","tp":"CS","ts":"2019-10-27T16:32:19Z","tX":559,"tY":374,"tags":{"email":"sales.dep@watermanresorts.com","internet_access":"wlan","internet_access:fee":"no","name":"Waterman Beach Village","phone":"+385 21 640 253","power_supply":"yes","source":"knowledge","stars":"4","tents":"yes","website":"https://www.beach-village.com/"}},"490178390":{"location":[43.4471688,16.690866],"ct":"HR","tp":"CS","ts":"2023-06-04T14:23:10Z","tX":559,"tY":374,"tags":{"addr:city":"Omiš","addr:postcode":"21310","addr:street":"Lisićina","caravans":"yes","drinking_water":"yes","internet_access":"wlan","kitchen":"yes","name":"Kamp Lisičina","name:en":"Camp Lisicina","note":"cheap and quiet","power_supply":"yes","shower":"yes","tents":"yes","toilets":"yes","toilets:wheelchair":"no","website":"https://www.ac-lisicina.hr/en","wheelchair":"yes"}},"552833966":{"location":[43.4758684,16.5639989],"ct":"HR","tp":"CS","ts":"2021-09-29T19:16:53Z","tX":559,"tY":374,"tags":{"addr:city":"Podstrana","addr:housenumber":"112a","addr:postcode":"21312","addr:street":"Ulica sv. Martina","name":"Auto Camp Tamaris","website":"http://www.camptamaris.tk"}},"608972957":{"location":[43.3355279,16.8385737],"ct":"HR","tp":"CS","ts":"2023-04-29T06:36:03Z","tX":559,"tY":374,"tags":{"cabins":"yes","contact:facebook":"https://www.facebook.com/people/Kamp-Antonia/100057543696127/","email":"deanlitovic@gmail.com","name":"Kamp Antonia","phone":"+385 21 639 179","website":"http://www.camp-brac.com"}},"1180194816":{"location":[43.3813363,16.5782024],"ct":"HR","tp":"CS","ts":"2023-06-07T11:28:58Z","tX":559,"tY":374,"tags":{"addr:city":"Supetar","addr:housenumber":"60","addr:postcode":"21400","addr:street":"Malacnica, Babin laz","cabins":"yes","capacity:cabins":"14","capacity:people":"200","capacity:pitches":"30","caravans":"yes","contact:email":"info@campingbunja.com","contact:phone":"+385 21 549 547","dog":"yes","drinking_water":"yes","fee":"yes","internet_access":"wlan","motor_vehicle":"yes","name":"Camping Bunja","nudism":"no","power_supply":"yes","shower":"yes","tents":"yes","toilets":"yes","washing_machine":"yes","website":"https://www.campingbunja.com"}},"1368273735":{"location":[43.4058015,16.7778629],"ct":"HR","tp":"CS","ts":"2013-07-10T17:32:34Z","tX":559,"tY":374,"tags":{"name":"Autocamp Sirena"}},"2399492370":{"location":[43.4412854,16.653634],"ct":"HR","tp":"CS","ts":"2014-09-09T06:46:40Z","tX":559,"tY":374,"tags":{"name":"Diana","operator":"Djanki Vojnovic"}},"2536030121":{"location":[43.4404832,16.6591615],"ct":"HR","tp":"CS","ts":"2014-09-09T06:48:42Z","tX":559,"tY":374,"tags":{"name":"Miroslav","operator":"Miroslav Vojnović"}},"2536030492":{"location":[43.4407062,16.659001],"ct":"HR","tp":"CS","ts":"2013-11-17T07:51:35Z","tX":559,"tY":374,"tags":{"name":"Duće","operator":"Milan Vojnović"}},"2536033461":{"location":[43.4407598,16.6588189],"ct":"HR","tp":"CS","ts":"2013-11-17T07:54:51Z","tX":559,"tY":374,"tags":{"name":"Ljubica"}},"2536033462":{"location":[43.4408039,16.6585576],"ct":"HR","tp":"CS","ts":"2024-06-09T19:57:00Z","tX":559,"tY":374,"tags":{"caravans":"yes","drinking_water":"yes","name":"More","operator":"Branka Bilanović","power_supply":"yes","shower":"yes","tents":"yes"}},"2536036906":{"location":[43.4406698,16.6578],"ct":"HR","tp":"CS","ts":"2013-11-17T07:58:58Z","tX":559,"tY":374,"tags":{"name":"Ante"}},"2536036907":{"location":[43.4406506,16.6580824],"ct":"HR","tp":"CS","ts":"2013-11-17T07:58:58Z","tX":559,"tY":374,"tags":{"name":"B","operator":"Lidija Bliznec"}},"2536040077":{"location":[43.4407635,16.657588],"ct":"HR","tp":"CS","ts":"2014-09-09T06:47:58Z","tX":559,"tY":374,"tags":{"name":"Darko","operator":"Marko Ercegović"}},"2536040078":{"location":[43.4409821,16.6566121],"ct":"HR","tp":"CS","ts":"2014-09-09T06:47:58Z","tX":559,"tY":374,"tags":{"name":"Delfin","operator":"Danica Tomašević"}},"2536040080":{"location":[43.4408048,16.6573101],"ct":"HR","tp":"CS","ts":"2014-09-09T06:47:59Z","tX":559,"tY":374,"tags":{"name":"Ivan","operator":"Ivan Šarolić"}},"2536040081":{"location":[43.4413974,16.6547016],"ct":"HR","tp":"CS","ts":"2013-11-17T08:11:01Z","tX":559,"tY":374,"tags":{"name":"Luka","operator":"Jure Vojnović"}},"2539407614":{"location":[43.4406673,16.6632739],"ct":"HR","tp":"CS","ts":"2013-11-19T08:21:47Z","tX":559,"tY":374,"tags":{"name":"Mira","operator":"Ranko Vojnović"}},"3067938073":{"location":[43.4408598,16.6570207],"ct":"HR","tp":"CS","ts":"2014-09-09T06:47:58Z","tX":559,"tY":374,"tags":{"name":"M1"}},"3067940161":{"location":[43.4413662,16.652548],"ct":"HR","tp":"CS","ts":"2014-09-09T06:46:39Z","tX":559,"tY":374,"tags":{"name":"Kamp \"Ivo\""}},"3725273574":{"location":[43.4829831,16.8402681],"ct":"HR","tp":"CS","ts":"2015-09-01T19:59:34Z","tX":559,"tY":374,"tags":{"name":"Izletiste Kupaliste"}},"9066421213":{"location":[43.4082354,16.7568829],"ct":"HR","tp":"CS","ts":"2021-09-06T11:07:10Z","tX":559,"tY":374,"tags":{"contact:email":"t.stanic.s@gmail.com","contact:instagram":"https://www.instagram.com/stanic_autocamp_linda/?fbclid=IwAR0heuzz2jjnE6DNC46z2q3dyYIwBAzGjBWoBK1kFtjgTqQ0VNaOdQ5j0Yg","contact:phone":"+385 21 871 411","contact:website":"https://www.facebook.com/stanicautocamplinda/","name":"Stanić Autocamp Linda"}},"6775727545":{"location":[43.504017,16.5268057],"ct":"HR","tp":"SD","ts":"2019-09-05T22:20:13Z","tX":559,"tY":374,"tags":{"sanitary_dump_station:grey_water":"yes"}},"6775840493":{"location":[43.5030861,16.5279175],"ct":"HR","tp":"SD","ts":"2019-09-05T23:17:21Z","tX":559,"tY":374,"tags":{"sanitary_dump_station:chemical_toilet":"yes"}}}