{"144275443":{"location":[40.6897786,16.6033849],"ct":"IT","tp":"CR","ts":"2024-08-13T12:29:54Z","tX":559,"tY":385,"tags":{"Tipologia":"AA","addr:place":"Contrada Pantano","description":"Acqua - pozzetto - Illuminazione - elettricità - Aperta tutto l'anno","email":"autoparcomatera@tiscali.it","fee":"yes","hgv":"designated","name":"Autoparco di Matera","parking":"surface","phone":"+39 340 6850509","power_supply":"yes","stars":"2","truck_stop":"yes","website":"www.autoparcodimatera.it"}},"420290983":{"location":[40.6800982,16.6246188],"ct":"IT","tp":"CR","ts":"2024-08-13T12:35:24Z","tX":559,"tY":385,"tags":{"addr:street":"Strada Statale 7 Appia","charge":"15€","email":"kartodromomatera@hotmail.it","fee":"yes","internet_access":"wlan","internet_access:fee":"no","name":"Kartodromo","phone":"+39 339 109 0996","power_supply":"yes","sanitary_dump_station":"yes","shower":"yes","socket:cee_blue":"yes"}},"809613134":{"location":[40.6803861,16.6209795],"ct":"IT","tp":"CR","ts":"2024-08-13T12:35:24Z","tX":559,"tY":385,"tags":{"addr:city":"Matera","addr:postcode":"75100","addr:street":"Strada Statale 7 Appia","caravan_site":"motorhome_stopover","dog":"yes","email":"info@areacampermatera.it","internet_access":"wlan","internet_access:fee":"no","laundry":"yes","name":"Area Camper Matera","opening_hours":"24/7","phone":"+39 347 5357798","power_supply":"yes","seasonal":"no","shower":"yes","shuttle_service":"yes","socket:cee_blue":"yes","tents":"no","toilets":"yes","website":"https://www.areacamper-matera.it/"}},"1244965988":{"location":[40.6192212,16.8091274],"ct":"IT","tp":"CS","ts":"2024-01-31T15:52:31Z","tX":559,"tY":385,"tags":{}},"1307479185":{"location":[40.6525213,16.6066817],"ct":"IT","tp":"CR","ts":"2024-08-13T12:29:54Z","tX":559,"tY":385,"tags":{"Tipologia":"AA","addr:street":"Contrada China calatañazor, 27","description":"Contrada Chiancalata 27 Matera SUD a 1500 metri dal centro città","email":"loperfidoangeloraffaele@tin.it","fee":"yes","name":"Pantaleone","name:es":"Área de autocaravanas Pantaleone","name:it":"Agriturismo Pantaleone","phone":"+39 0835 335239","power_supply":"yes","shower":"yes","socket:cee_blue":"yes","toilets":"yes","website":"http://www.agriturismopantaleonematera.it"}},"2523697532":{"location":[40.671167,16.631491],"ct":"IT","tp":"CR","ts":"2023-10-29T15:54:26Z","tX":559,"tY":385,"tags":{"description":"Contrada Murgia Timone presso Jazzo Gattini centro visite del Parco della Murgia Materana; Acqua Pozzetto Elettricità Servizi igienici Bar Servizio navetta Si cani Aperta tutto l'anno","email":"info@ceamatera.it","name":"Radogna Camp","phone":"+39 320 2636528","website":"https://www.ceamatera.it/"}},"2998376920":{"location":[40.6710119,16.6319748],"ct":"IT","tp":"CS","ts":"2024-04-01T17:03:45Z","tX":559,"tY":385,"tags":{"caravans":"yes","drinking_water":"yes","name":"Camping Parco Radogna","phone":"+39 0835 332262","tents":"no","website":"https://www.ceamatera.it/"}},"9352411695":{"location":[40.5728485,16.7608286],"ct":"IT","tp":"CR","ts":"2021-12-20T10:57:27Z","tX":559,"tY":385,"tags":{"fee":"yes","power_supply":"yes","sanitary_dump_station":"yes"}},"9352411694":{"location":[40.5727151,16.7608409],"ct":"IT","tp":"SD","ts":"2021-12-20T10:57:27Z","tX":559,"tY":385,"tags":{"water_point":"yes"}}}