{"134709998":{"location":[40.3584475,16.8345051],"ct":"IT","tp":"CS","ts":"2024-10-11T15:14:02Z","tX":559,"tY":386,"tags":{"caravans":"yes","dog":"yes","fee":"yes","motorhome":"yes","name":"Internazionale","name:en":"International","power_supply":"yes","power_supply:maxcurrent":"6","socket:cee_blue":"yes","tents":"yes","website":"https://www.villageinternazionale.com/"}},"180867500":{"location":[40.3673442,16.8414415],"ct":"IT","tp":"CS","ts":"2024-10-11T15:14:02Z","tX":559,"tY":386,"tags":{"facebook":"https://www.facebook.com/mondialcampingmetaponto/photos","phone":"+39 0835 745043"}},"239294816":{"location":[40.3732208,16.8389559],"ct":"IT","tp":"CS","ts":"2024-08-12T09:43:28Z","tX":559,"tY":386,"tags":{"addr:city":"Metaponto","addr:postcode":"75012","addr:street":"Via Santa Pelagina","contact:whatsapp":"+39 338 2078739","email":"info@rivadeigreci.it","name":"Riva dei Greci","phone":"+39 0835 745014","power_supply":"yes","socket:cee_blue":"yes","website":"www.rivadeigreci.it"}},"239294866":{"location":[40.3749486,16.8403541],"ct":"IT","tp":"CS","ts":"2024-08-12T09:43:28Z","tX":559,"tY":386,"tags":{"addr:city":"Metaponto","addr:postcode":"75012","addr:street":"Via Santa Pelagina","caravans":"yes","email":"info@metaponto.it","motorhome":"yes","name":"Camping Julia","phone":"+39 0835 74 18 42","power_supply":"yes","power_supply:maxcurrent":"3.5","shower":"hot","socket:cee_blue":"yes","tents":"yes","website":"https://campingjulia.it/"}},"301924096":{"location":[40.355979,16.8313255],"ct":"IT","tp":"CS","ts":"2024-10-11T15:14:02Z","tX":559,"tY":386,"tags":{"addr:city":"Metaponto Lido","addr:postcode":"75012","addr:street":"Viale Magna Grecia","caravans":"yes","dog":"yes","fee":"yes","motorhome":"yes","name":"Villaggio Kammel","phone":"+39 0835 741926","power_supply":"yes","power_supply:maxcurrent":"3","socket:cee_blue":"yes","tents":"yes","website":"https://www.kammel.it/"}},"325027104":{"location":[40.1881408,16.7136245],"ct":"IT","tp":"CR","ts":"2024-10-11T14:58:11Z","tX":559,"tY":386,"tags":{"bbq":"yes","caravan_site":"motorhome_stopover","caravan_site:type":"beach","caravans":"no","charge":"40 EUR","charge:conditional":"25 EUR (Sep-May), 30 EUR @ Jun, 35 EUR@Aug","check_in":"11:00","check_out":"10:00","contact:whatsapp":"+393472496564","covered":"shade_cloth","dog":"yes","fee":"yes","internet_access":"wlan","internet_access:fee":"no","laundry":"yes","motorhome":"designated","name":"Area Camper Policoro Autog Manolio","power_supply":"yes","power_supply:maxcurrent":"7","reservation":"yes","sanitary_dump_station":"yes","shower":"yes","socket:cee_blue":"yes","tents":"no","toilets":"yes","website":"https://www.autogmanolio.com/area-camper/"}},"507949839":{"location":[40.1920641,16.7172465],"ct":"IT","tp":"CS","ts":"2024-10-11T13:39:40Z","tX":559,"tY":386,"tags":{"cabins":"yes","caravans":"yes","dog":"yes","email":"policoro.village@libero.it","fee":"yes","motorhome":"yes","name":"Policoro Village","phone":"+39 0835 910168","power_supply":"yes","shower":"yes","socket:cee_blue":"yes","tents":"yes","toilets":"yes","website":"http://www.policorovillage.net/"}},"516252075":{"location":[40.2473819,16.7488409],"ct":"IT","tp":"CS","ts":"2024-08-13T12:43:34Z","tX":559,"tY":386,"tags":{"addr:city":"Scanzano Jonico","addr:housenumber":"33","addr:postcode":"75020","addr:street":"Via Lido Torre","caravans":"yes","contact:whatsapp":"+39 371 1320584","dog":"yes","email":"info@leduebarche.com","motorhome":"yes","name":"Camping Le Due Barche","phone":"+39 371 1320584","power_supply":"yes","socket:cee_blue":"yes","tents":"yes","website":"https://www.leduebarche.com/"}},"736983669":{"location":[40.3637563,16.8380268],"ct":"IT","tp":"CS","ts":"2024-10-11T15:14:02Z","tX":559,"tY":386,"tags":{"caravans":"yes","email":"parcolympus@gmail.com","fee":"yes","motorhome":"yes","name":"Parco Vacanze Olympus","power_supply":"yes","socket:cee_blue":"yes"}},"1267677629":{"location":[40.392261,16.525069],"ct":"IT","tp":"CR","ts":"2024-03-30T12:45:18Z","tX":559,"tY":386,"tags":{"capacity:caravans":"10","caravan_site":"motorhome_stopover","caravan_site:type":"farm_shop","drinking_water":"yes","fee":"no","mobile":"+39 340 2801134","motorhome":"designated","name":"Area Sosta Camper Agriturismo Il Calanco","operator":"Agriturismo Il Calanco","phone":"+39 0835 462191","power_supply":"yes","sanitary_dump_station":"yes","toilets":"yes","water_point":"yes"}},"1327785062":{"location":[40.4055645,16.8664421],"ct":"IT","tp":"CR","ts":"2024-10-24T06:26:22Z","tX":559,"tY":386,"tags":{"contact:phone":"+393338992741","dog":"yes","name":"Amici nelal Natura","power_supply":"yes","sanitary_dump_station":"yes","shower":"yes","toilets":"yes"}},"7929775158":{"location":[40.1849352,16.7136274],"ct":"IT","tp":"SD","ts":"2024-10-11T14:55:46Z","tX":559,"tY":386,"tags":{"access":"yes","fee":"no","power_supply":"no","sanitary_dump_station":"yes","water_point":"no"}}}