{"555782053":{"location":[-23.2194283,-44.7225228],"ct":"BR","tp":"CS","ts":"2023-02-17T00:49:49Z","tX":384,"tY":579,"tags":{"addr:city":"Paraty","addr:country":"BR","bar":"no","big_rigs":"yes","camp_type":"established","caravans":"yes","description":"Large sandy terrain under high trees, although much of the terrain is not accessible for vehicles. Water treated with chloride, but sandy.","dish_washing":"yes","drinking_water":"yes","dryer":"no","fee":"BRL 60 (2 adults, camper)","fenced":"non_protecting","fireplace":"braai","general_room":"no","impromptu":"no","internet":"wifi","kitchen":"yes","laundry":"yes","name":"Portal de Paraty","payment:credit_card":"no","pets":"no","picnic_benches":"yes","power_supply":"yes","power_supply:voltage":"both","restaurant":"no","sanitary_dumpstation":"no","shop":"no","shower":"hot","source":"Survey","swimming_pool":"no","tents":"yes","toilets":"yes","toilets:disposal":"flush","toilets:position":"sitting","washing_machine":"no","water:location":"central","water:quality":"non_potable"}},"2074993568":{"location":[-23.1517924,-44.6846371],"ct":"BR","tp":"CS","ts":"2012-12-19T18:49:01Z","tX":384,"tY":579,"tags":{"email":"cehm.jrb@hotmail.com","name":"CEHM Juruba","nudism":"yes","website":"http://www.cehmjuruba.com/"}},"2970899591":{"location":[-23.2098028,-44.7161176],"ct":"BR","tp":"CS","ts":"2014-07-20T00:02:29Z","tX":384,"tY":579,"tags":{"name":"Jabaquara"}},"2970900423":{"location":[-23.2155851,-44.7119185],"ct":"BR","tp":"CS","ts":"2014-07-20T00:13:02Z","tX":384,"tY":579,"tags":{}},"4392453989":{"location":[-23.2102902,-44.7181065],"ct":"BR","tp":"CS","ts":"2016-09-08T17:52:22Z","tX":384,"tY":579,"tags":{"addr:street":"Rua Imperatriz Leopoldina","email":"doranchocamping@gmail.com","internet_access":"wlan","name":"Camping do Rancho","opening_hours":"24/7","phone":"+55 (24) 99885-2054","website":"http://ranchodomineiro.com/"}},"4406656716":{"location":[-23.2194159,-44.7325574],"ct":"BR","tp":"CS","ts":"2016-09-18T11:17:25Z","tX":384,"tY":579,"tags":{"addr:street":"Rua 5","name":"Camping do Rappa","name:pt":"Camping do Rappa","website":"http://campingdorappa.com.br/"}},"5601700324":{"location":[-23.0573272,-44.679742],"ct":"BR","tp":"CS","ts":"2018-05-07T09:08:33Z","tX":384,"tY":579,"tags":{"name":"Campin","phone":"24999570498"}}}