{"2616772272":{"location":[-23.3436575,-44.7142125],"ct":"BR","tp":"CS","ts":"2021-11-08T04:52:48Z","tX":384,"tY":580,"tags":{}},"2647826652":{"location":[-23.33488,-44.898277],"ct":"BR","tp":"CS","ts":"2014-02-01T16:44:32Z","tX":384,"tY":580,"tags":{"name":"Camping"}},"3778237834":{"location":[-23.3561785,-44.7306256],"ct":"BR","tp":"CS","ts":"2018-02-19T07:22:50Z","tX":384,"tY":580,"tags":{"name":"Casa Torta"}},"4253436892":{"location":[-23.348226,-44.72136],"ct":"BR","tp":"CS","ts":"2016-06-19T22:32:13Z","tX":384,"tY":580,"tags":{"name":"Camping Américo Rosa"}},"4471252092":{"location":[-23.3020941,-44.7027474],"ct":"BR","tp":"CS","ts":"2016-10-30T11:45:44Z","tX":384,"tY":580,"tags":{}},"4527273238":{"location":[-23.3499753,-44.7227565],"ct":"BR","tp":"CS","ts":"2016-11-29T00:28:41Z","tX":384,"tY":580,"tags":{"addr:housenumber":"42","name":"Camping e Pousada Vitória"}},"4694549389":{"location":[-23.349521,-44.928575],"ct":"BR","tp":"CS","ts":"2017-02-20T03:14:15Z","tX":384,"tY":580,"tags":{"name":"Camping Puruba","name:pt":"Camping Puruba"}},"5421792358":{"location":[-23.3467371,-44.7200713],"ct":"BR","tp":"CS","ts":"2021-11-08T04:52:48Z","tX":384,"tY":580,"tags":{}},"5868958385":{"location":[-23.3499165,-44.9291685],"ct":"BR","tp":"CS","ts":"2018-08-30T17:35:43Z","tX":384,"tY":580,"tags":{"name":"Camping do Getúlio","name:en":"Getúlio’s Camping","opening_hours":"24/7"}},"6822571485":{"location":[-23.3788413,-44.9646118],"ct":"BR","tp":"CS","ts":"2024-09-14T00:00:04Z","tX":384,"tY":580,"tags":{"chalet":"yes","name":"Prumirim","name:pt":"Prumirim Camping e Chalé"}},"9537047117":{"location":[-23.3476717,-44.7230417],"ct":"BR","tp":"CS","ts":"2022-02-26T12:47:27Z","tX":384,"tY":580,"tags":{"addr:housenumber":"148","addr:street":"Rua Americo Rosa","contact:facebook":"visitemataatlantica","contact:instagram":"macamping","internet_access":"wlan","name":"Camping Mata atlantica","name:en":"Camping & Inn Mata atlantica","name:es":"Camping y Posada Mata atlantica","name:pt":"Camping e Pousada Mata atlantica","opening_hours":"Mo-Su 09:00-22:00","phone":"+5524998273998"}},"10205758717":{"location":[-23.3439063,-44.7147048],"ct":"BR","tp":"CS","ts":"2022-11-21T02:35:35Z","tX":384,"tY":580,"tags":{"name":"Camping do Cepilho","phone":"+55 11 94271-0095"}},"10992679769":{"location":[-23.3585499,-44.7320672],"ct":"BR","tp":"CS","ts":"2023-06-20T19:43:24Z","tX":384,"tY":580,"tags":{"name":"Camping Bromélias","website":"https://macamp.com.br/guia/guia/campings/brasil/rio-de-janeiro/trindade/camping-das-bromelias-2/"}}}