{"8886726":{"location":[55.4620384,13.8916165],"ct":"SE","tp":"CS","ts":"2019-11-09T08:54:32Z","tX":551,"tY":321,"tags":{"name":"Fredriksbergs Kursgård","toilets:wheelchair":"yes","wheelchair":"no"}},"83557737":{"location":[55.4336304,13.8643634],"ct":"SE","tp":"CS","ts":"2023-04-09T09:09:08Z","tX":551,"tY":321,"tags":{"addr:city":"Ystad","addr:country":"SE","addr:housenumber":"97","addr:postcode":"27160","addr:street":"Österleden","cabins":"yes","caravans":"yes","email":"info@ystadcamping.se","internet_access":"wlan","motorhome":"yes","name":"Ystad Camping","phone":"+46 411 192 70","shower":"yes","tents":"yes","toilets":"yes","website":"http://www.ystadcamping.se/","wheelchair":"yes"}},"83557750":{"location":[55.4343868,13.9274988],"ct":"SE","tp":"CS","ts":"2024-07-04T11:18:32Z","tX":551,"tY":321,"tags":{"caravans":"yes","email":"nybrostrand.camping@ystad.nu","name":"Nybrostrands camping","phone":"+46-411-551263","tents":"yes","website":"https://nybrostrandscamping.n.nu/","wheelchair":"no"}},"294314405":{"location":[55.3892213,14.0616855],"ct":"SE","tp":"CR","ts":"2022-07-31T09:57:32Z","tX":551,"tY":321,"tags":{}},"431825166":{"location":[55.5577824,13.9097535],"ct":"SE","tp":"CS","ts":"2019-09-04T11:42:11Z","tX":551,"tY":321,"tags":{"name":"Svampacampingen","website":"http://www.tomelillamk.dinstudio.se/text1_137.html"}},"439974031":{"location":[55.5452528,13.9577331],"ct":"SE","tp":"CS","ts":"2016-08-31T06:19:21Z","tX":551,"tY":321,"tags":{"name":"Väla Camping"}},"1199726148":{"location":[55.5266766,13.9042765],"ct":"SE","tp":"PK","ts":"2025-06-06T19:58:04Z","tX":551,"tY":321,"tags":{"fee":"no","motorhome":"yes","motorhome:overnight":"yes","picnic_table":"yes","surface":"compacted"}},"1290116551":{"location":[55.424907,13.7874918],"ct":"SE","tp":"CR","ts":"2024-06-06T23:04:34Z","tX":551,"tY":321,"tags":{"caravan_site":"motorhome_stopover","caravan_site:type":"beach","caravans":"yes","charge":"100 SEK","fee":"yes","maxstay":"24 hours","name":"Ystads Reningsverket","power_supply":"yes","seasonal":"no","tents":"no"}},"4448464188":{"location":[55.42633,13.81407],"ct":"SE","tp":"SD","ts":"2017-09-23T18:46:13Z","tX":551,"tY":321,"tags":{"access":"yes","addr:place":"Ystad Gästhamn","boat":"yes","fee":"no","opening_hours":"24/7","sanitary_dump_station:accepted":"black_water","sanitary_dump_station:pump-out":"yes","seamark:small_craft_facility:category":"pump-out","seamark:type":"small_craft_facility","vehicle":"no","waterway":"sanitary_dump_station","website":"https://hamnkartan.azurewebsites.net"}}}