{"94366801":{"location":[54.2827676,13.7132421],"ct":"DE","tp":"CS","ts":"2024-09-28T18:57:58Z","tX":551,"tY":327,"tags":{"addr:city":"Mönchgut","addr:housenumber":"4","addr:postcode":"18586","addr:street":"Hauptstraße","addr:suburb":"Thiessow","barrier":"fence","caravans":"yes","covid19:test":"required","drinking_water":"yes","name":"Campingplatz Thiessow","phone":"+4938308669585","power_supply":"yes","sanitary_dump_station":"yes","shower":"yes","tents":"yes","toilets":"yes","toilets:wheelchair":"yes","website":"https://www.campingplatz-thiessow.de","wheelchair":"yes"}},"94450108":{"location":[54.3131614,13.7182479],"ct":"DE","tp":"CS","ts":"2023-05-06T08:14:35Z","tX":551,"tY":327,"tags":{"caravans":"yes","drinking_water":"yes","name":"Dat Stranddörp","power_supply":"yes","shower":"yes","tents":"yes","toilets":"yes"}},"94450115":{"location":[54.3136029,13.7171372],"ct":"DE","tp":"CS","ts":"2024-05-28T19:06:37Z","tX":551,"tY":327,"tags":{"addr:city":"Mönchgut","addr:country":"DE","addr:housenumber":"32a","addr:postcode":"18586","addr:street":"Lobbe","addr:suburb":"Lobbe","caravans":"yes","drinking_water":"yes","email":"lobbe@campingruegen.de","name":"Dat Stranddörp","phone":"+4938308 2314","power_supply":"yes","shower":"yes","tents":"yes","toilets":"yes","website":"https://campingruegen.de/"}},"554125643":{"location":[54.349804,13.7325662],"ct":"DE","tp":"CS","ts":"2024-09-14T13:31:41Z","tX":551,"tY":327,"tags":{"access":"private","cabins":"yes","caravans":"yes","dog":"yes","motorhome":"yes","name":"Regenbogen Camp Göhren","note":"grobe Abschätzung des Zeltplatzes mit Esri Luftbilder","operator":"Regenbogen AG","private":"members;customer;employees","reservation":"recommended","tents":"yes"}},"1079687444":{"location":[54.3346497,13.7336602],"ct":"DE","tp":"CR","ts":"2022-07-19T07:32:21Z","tX":551,"tY":327,"tags":{"fee":"yes","power_supply":"yes"}},"5106182545":{"location":[54.3160625,13.7195809],"ct":"DE","tp":"SD","ts":"2021-11-09T13:45:04Z","tX":551,"tY":327,"tags":{"access":"permit","description":"Customers Only"}},"5108109739":{"location":[54.3144809,13.7191085],"ct":"DE","tp":"SD","ts":"2023-06-26T12:45:52Z","tX":551,"tY":327,"tags":{"access":"customers","sanitary_dump_station:basin":"yes","water_point":"yes"}},"8933590130":{"location":[54.3520931,13.7271471],"ct":"DE","tp":"SD","ts":"2021-07-19T16:55:34Z","tX":551,"tY":327,"tags":{}},"9022673457":{"location":[54.3488985,13.731533],"ct":"DE","tp":"SD","ts":"2021-08-20T12:12:00Z","tX":551,"tY":327,"tags":{"opening_hours":"Mo-Su 08:00-12:00; Mo-Su 14:00-22:00"}},"9022700985":{"location":[54.347246,13.7335818],"ct":"DE","tp":"SD","ts":"2021-08-20T12:12:44Z","tX":551,"tY":327,"tags":{"opening_hours":"Mo-Su 08:00-12:00; Mo-Su 14:00-22:00"}},"9053298472":{"location":[54.2799514,13.7137432],"ct":"DE","tp":"SD","ts":"2021-09-01T11:57:37Z","tX":551,"tY":327,"tags":{"access":"customers","fee":"no","operator":"Campingplatz","water_point":"yes"}},"9898183587":{"location":[54.3343082,13.7338299],"ct":"DE","tp":"SD","ts":"2022-07-19T19:39:21Z","tX":551,"tY":327,"tags":{"fee":"no"}},"11007705807":{"location":[54.3127751,13.7166034],"ct":"DE","tp":"SD","ts":"2023-06-26T12:45:52Z","tX":551,"tY":327,"tags":{"access":"customers","sanitary_dump_station:basin":"yes","water_point":"yes"}}}