{"17852637":{"location":[54.1505966,13.7570615],"ct":"DE","tp":"CS","ts":"2024-07-18T14:01:37Z","tX":551,"tY":328,"tags":{"operator":"Yachthafen Peenemünde GmbH"}},"35030275":{"location":[54.1155633,13.8487441],"ct":"DE","tp":"CS","ts":"2024-07-13T18:53:42Z","tX":551,"tY":328,"tags":{"addr:city":"Karlshagen","addr:country":"DE","addr:housenumber":"11","addr:postcode":"17449","addr:street":"Zeltplatzstraße","caravans":"yes","drinking_water":"yes","email":"camping@karlshagen.de","internet_access":"wlan","name":"Dünencamp Ostseebad Karlshagen","opening_hours":"Mo-Su 09:00-18:00","phone":"+49 38371 20291","power_supply":"yes","sanitary_dump_station":"yes","shower":"yes","tents":"yes","toilets":"yes","toilets:wheelchair":"yes","website":"https://www.karlshagen.de/duenencamp/campingplatz","wheelchair":"limited"}},"67740392":{"location":[54.0456445,14.0109757],"ct":"DE","tp":"CS","ts":"2019-06-18T06:10:48Z","tX":551,"tY":328,"tags":{"addr:city":"Koserow","addr:country":"DE","addr:housenumber":"5","addr:postcode":"17459","addr:street":"Am Sandfeld","area":"yes","capacity":"150","email":"camping@amsandfeld.de","fax":"+49 38375 289954","internet_access":"wlan","internet_access:fee":"yes","name":"Campingplatz \"Am Sandfeld\"","operator":"Familie Rosenzweig","phone":"+49 38375 20759","website":"https://www.amsandfeld.de/"}},"67741284":{"location":[54.0732156,13.9384541],"ct":"DE","tp":"CS","ts":"2024-07-27T14:33:32Z","tX":551,"tY":328,"tags":{"addr:city":"Zempin","addr:country":"DE","addr:housenumber":"1","addr:postcode":"17459","addr:street":"Campingweg","caravans":"yes","drinking_water":"yes","email":"camping.zempin@freenet.de","fax":"+49 38377 41364","internet_access":"wlan","name":"Am Dünengelände","phone":"+49 38377 41363","power_supply":"yes","sanitary_dump_station":"yes","shower":"yes","tents":"yes","toilets":"yes","website":"https://www.camping-zempin.de/","wheelchair":"yes"}},"100772864":{"location":[54.1380247,13.7201512],"ct":"DE","tp":"CS","ts":"2024-09-03T07:09:26Z","tX":551,"tY":328,"tags":{"addr:city":"Kröslin","addr:housenumber":"68b","addr:postcode":"17440","addr:street":"Dorfstraße","addr:suburb":"Freest","capacity":"50","caravans":"yes","drinking_water":"yes","email":"post@ostseecamping-peenemuendung.de","environment":"wooded","fee":"yes","internet_access":"wlan","internet_access:fee":"no","name":"Ostseecamping Peenemündung","operator":"Alexandra und Michael Heck GbR","payment:credit_cards":"yes","payment:debit_cards":"yes","phone":"+49 38370 218 99","power_supply":"yes","sanitary_dump_station":"yes","shower":"yes","start_date":"Ostern bis Oktober","tents":"yes","toilets":"yes","website":"https://www.ocpm.de/"}},"121294922":{"location":[54.009333,13.8568389],"ct":"DE","tp":"CS","ts":"2024-07-17T06:55:25Z","tX":551,"tY":328,"tags":{"access":"customers","addr:city":"Lütow","addr:country":"DE","addr:housenumber":"20","addr:postcode":"17440","addr:street":"Zeltplatzstraße","caravans":"yes","drinking_water":"yes","internet_access":"wlan","internet_access:fee":"no","name":"Natur Camping Usedom","opening_hours":"Apr 15-Oct 31","operator":"Freitag & Freitag GbR","phone":"+49 38377 40581","power_supply":"yes","sanitary_dump_station":"yes","shower":"yes","survey:date":"2023-09-29","tents":"yes","toilets":"yes","website":"https://www.natur-camping-usedom.de/","wheelchair":"limited"}},"164186633":{"location":[54.1398788,13.7187506],"ct":"DE","tp":"CS","ts":"2019-11-28T12:11:25Z","tX":551,"tY":328,"tags":{"addr:city":"Kröslin","addr:housenumber":"74","addr:postcode":"17440","addr:street":"Dorfstraße","addr:suburb":"Freest","designation":"Zeltplatz Freest","email":"info@campingplatz-freest.de","internet_access":"wlan","name":"Waldcamp Freest","phone":"+49 38370 20538","website":"https://www.campingplatz-freest.de/"}},"191232213":{"location":[54.0112284,13.8568185],"ct":"DE","tp":"CS","ts":"2024-07-17T06:53:49Z","tX":551,"tY":328,"tags":{"access":"customers","addr:city":"Lütow","addr:country":"DE","addr:housenumber":"21","addr:postcode":"17440","addr:street":"Zeltplatzstraße","caravans":"yes","drinking_water":"yes","email":"info@feriencamp-gnitz.de","fee":"yes","internet_access":"no","name":"Feriencamp Gnitz","phone":"+49 174 9997481","power_supply":"yes","sanitary_dump_station":"yes","shower":"yes","survey:date":"2023-09-29","tents":"yes","toilets":"yes","website":"http://www.feriencamp-gnitz.de/","wheelchair":"yes"}},"235896455":{"location":[54.0909438,13.8878941],"ct":"DE","tp":"CS","ts":"2023-08-23T19:39:17Z","tX":551,"tY":328,"tags":{"email":"campingplatz@trassenheide.de","fax":"+49 38371 28472","internet_access":"yes","internet_access:fee":"customers","name":"Campingplatz \"Ostseeblick\"","operator":"Ostseebad Trassenheide","phone":"+49 38371 20949","stars":"4","tents":"yes","toilets:wheelchair":"yes","website":"https://www.campingplatz-ostseeblick.de/de/","wheelchair":"yes"}},"279100306":{"location":[54.0013576,14.0436307],"ct":"DE","tp":"CS","ts":"2022-12-12T22:32:29Z","tX":551,"tY":328,"tags":{"addr:city":"Ückeritz","addr:housenumber":"10A","addr:postcode":"17459","addr:street":"Hafenstraße","capacity":"200","email":"Info@camping-surfen-usedom.de","fee":"yes","name":"Naturcamping Hafen Stagnieß","phone":"+493837520423","power_supply":"yes","tents":"yes","website":"http://www.camping-surfen-usedom.de/news.php"}},"318807007":{"location":[54.0837365,13.8984115],"ct":"DE","tp":"CS","ts":"2024-06-30T21:04:32Z","tX":551,"tY":328,"tags":{"addr:city":"Zinnowitz","addr:country":"DE","addr:housenumber":"40","addr:street":"Dr.-Wachsmann-Straße","caravans":"yes","contact:email":"camping-pommernland@m-vp.de","contact:website":"https://camping-zinnowitz.de/","internet_access":"yes","name":"Campingplatz Pommernland","phone":"+49 38377 40348","tents":"yes","wheelchair":"yes"}},"588961849":{"location":[54.0110892,13.8759051],"ct":"DE","tp":"CR","ts":"2018-05-17T11:44:50Z","tX":551,"tY":328,"tags":{"addr:city":"Lütow","addr:housenumber":"12","addr:postcode":"17440","addr:street":"Zum Möwenort","capacity":"3","fee":"yes","internet_access":"wlan","name":"SP Köster‘s Hof","power_supply":"yes","sanitary_dump_station":"yes"}},"590690084":{"location":[54.1355815,13.7617465],"ct":"DE","tp":"CR","ts":"2025-01-28T22:20:48Z","tX":551,"tY":328,"tags":{"addr:city":"Peenemünde","addr:country":"DE","addr:housenumber":"9","addr:postcode":"17449","addr:street":"Fährstraße","capacity":"80","fee":"yes","internet_access":"wlan","internet_access:fee":"yes","name":"SP Halbinsel Peenemünde","power_supply":"yes","sanitary_dump_station":"yes","website":"https://www.halbinsel-peenemuende.de/"}},"737668015":{"location":[54.0690257,13.9392202],"ct":"DE","tp":"CR","ts":"2021-10-05T09:10:05Z","tX":551,"tY":328,"tags":{"fee":"yes","name":"Camping „Am Dünengelände“","sanitary_dump_station":"no","tents":"no"}},"957140764":{"location":[54.0325138,14.0395698],"ct":"DE","tp":"CS","ts":"2024-06-27T12:45:18Z","tX":551,"tY":328,"tags":{"addr:city":"Loddin","addr:country":"DE","addr:housenumber":"12","addr:postcode":"17459","addr:street":"Waldstraße","area":"yes","caravans":"yes","drinking_water":"yes","email":"info@stubbenfelde.de","fax":"+49 38375 221 86","internet_access":"wlan","internet_access:fee":"no","name":"Campingplatz Stubbenfelde","phone":"+49 38375 206 06","power_supply":"yes","shower":"yes","smoking":"yes","tents":"yes","toilets":"yes","website":"https://www.stubbenfelde.de/","wheelchair":"yes"}},"1229807383":{"location":[54.1103724,13.8128729],"ct":"DE","tp":"CR","ts":"2024-01-04T04:03:48Z","tX":551,"tY":328,"tags":{"capacity:motorhomes":"5","caravan_site:type":"harbour","charge":"18 EUR","fee":"yes","name":"Wohnmobilstellplatz Yachthafen Karlshagen","power_supply":"yes","power_supply:charge":"1 EUR/2 kWh hours","power_supply:fee":"yes","surface":"gravel","umweltzone":"no","water_point":"yes","water_point:charge":"1 EUR/100 liter"}},"1346325962":{"location":[54.0135004,13.8801833],"ct":"DE","tp":"CR","ts":"2022-12-12T20:00:51Z","tX":551,"tY":328,"tags":{"addr:city":"Lütow","addr:housenumber":"7","addr:postcode":"17440","addr:street":"Neuendorfer Weg","capacity":"10","fee":"yes","internet_access":"wlan","name":"Pommi’s Traumoase am Hünengrab","power_supply":"yes","sanitary_dump_station":"yes","website":"https://camping-zinnowitz.de/pommis-traumoase/"}},"1365619735":{"location":[54.0419257,13.7697257],"ct":"DE","tp":"CS","ts":"2025-03-08T21:37:24Z","tX":551,"tY":328,"tags":{}},"1891178163":{"location":[54.0934324,13.8702875],"ct":"DE","tp":"CR","ts":"2012-08-31T08:37:17Z","tX":551,"tY":328,"tags":{}},"3035594649":{"location":[54.0630245,13.9819191],"ct":"DE","tp":"CR","ts":"2016-04-08T09:53:09Z","tX":551,"tY":328,"tags":{"capacity":"25","fee":"yes","internet_access":"wlan","name":"Wohnmobil Stellplatz Koserow","power_supply":"yes","sanitary_dump_station":"yes"}},"4929348510":{"location":[54.0415874,13.7693462],"ct":"DE","tp":"CS","ts":"2023-01-21T17:21:36Z","tX":551,"tY":328,"tags":{"addr:city":"Wolgast","addr:housenumber":"6","addr:postcode":"17438","addr:street":"Am Strom","capacity:tents":"40","caravans":"yes","name":"PeeneCamp Wolgast","openfire":"no","phone":"+491601066066","tents":"yes","website":"https://www.peenecamp-wolgast.de"}},"4316223901":{"location":[54.0462819,14.0113033],"ct":"DE","tp":"SD","ts":"2016-07-22T20:01:50Z","tX":551,"tY":328,"tags":{"access":"customers","fee":"no","sanitary_dump_station:basin":"yes"}},"4317231431":{"location":[54.0462681,14.0113782],"ct":"DE","tp":"SD","ts":"2016-07-23T15:31:47Z","tX":551,"tY":328,"tags":{"access":"customers","fee":"no","sanitary_dump_station:basin":"yes"}},"11154274220":{"location":[54.0909756,13.8877475],"ct":"DE","tp":"SD","ts":"2023-08-29T18:24:36Z","tX":551,"tY":328,"tags":{"access":"customers"}}}