{"162762518":{"location":[53.7622996,14.0095629],"ct":"DE","tp":"CS","ts":"2024-04-30T12:47:27Z","tX":551,"tY":329,"tags":{"addr:city":"Grambin","addr:country":"DE","addr:housenumber":"66a","addr:postcode":"17375","addr:street":"Dorfstraße","cabins":"yes","caravans":"yes","contact:phone":"+49 39774 204 20","contact:website":"http://www.campingpark-oderhaff.de","dog":"leashed","drinking_water":"yes","motor_vehicle":"yes","motorhome":"yes","name":"Campingpark Oderhaff","operator":"Ostsee-Campingpark Oderhaff GmbH","permanent_camping":"yes","power_supply":"yes","reservation":"recommended","tents":"yes","toilets":"yes"}},"175764584":{"location":[53.9476581,13.8577649],"ct":"DE","tp":"CS","ts":"2021-07-21T10:08:47Z","tX":551,"tY":329,"tags":{"addr:housenumber":"5-6","addr:street":"Garthof","caravans":"yes","name":"Naturcampingplatz Lassan","operator":"Jürgen Alt","phone":"+4938374559951","tents":"yes","website":"https://www.campingplatz-lassan.de/"}},"321027018":{"location":[53.8984806,13.7363939],"ct":"DE","tp":"CS","ts":"2022-01-27T22:08:06Z","tX":551,"tY":329,"tags":{"caravans":"yes","name":"Jugendherberge Murchin mit Zeltplatz","shower":"yes","tents":"yes","toilets":"yes","website":"https://www.jh-murchin.de/index.htm/"}},"336022263":{"location":[53.8443312,13.8588708],"ct":"DE","tp":"SD","ts":"2015-04-29T03:46:24Z","tX":551,"tY":329,"tags":{"fixme":"Is this for boat users or motorhomes?","sanitary_dump_station:accepted":"black_water"}},"342082873":{"location":[53.8448753,13.8585482],"ct":"DE","tp":"CR","ts":"2021-11-19T19:55:04Z","tX":551,"tY":329,"tags":{"addr:city":"Usedom","addr:postcode":"17406","addr:street":"Karnin","addr:suburb":"Karnin","capacity":"3","fee":"yes","name":"Zollhafen Karnin","power_supply":"yes"}},"342097199":{"location":[53.8433302,13.8642084],"ct":"DE","tp":"CR","ts":"2024-08-22T16:13:33Z","tX":551,"tY":329,"tags":{"addr:city":"Usedom","addr:place":"Karnin","addr:postcode":"17406","addr:suburb":"Karnin","capacity":"20","fee":"yes","name":"Piratencafe \"Zum faulen Paule\"","power_supply":"yes"}},"844885367":{"location":[53.8427681,13.8489091],"ct":"DE","tp":"CS","ts":"2019-07-04T17:50:55Z","tX":551,"tY":329,"tags":{"description:de":"Kein Campingplatz im eigentlichen Sinn! Aber die Leute vom Hafenverein Kamp lassen Radfahrer gerne für eine kleine Gebühr auf deren Wiese zelten und versorgen einen auch noch mit Bier.","name":"Wasserwanderrastplatz Kamp"}},"1197989018":{"location":[53.7720601,13.9688458],"ct":"DE","tp":"CR","ts":"2023-01-21T17:21:35Z","tX":551,"tY":329,"tags":{"capacity":"25","email":"info@moenkebude.de","fee":"yes","name":"Hafenblick","phone":"+49 1624 799943","power_supply":"yes","sanitary_dump_station":"yes","water_point":"yes","website":"https://www.tourismusverein-moenkebude.de/wohnmobilhafen-moenkebude"}},"1781536715":{"location":[53.7716885,13.971795],"ct":"DE","tp":"CR","ts":"2018-08-13T11:26:40Z","tX":551,"tY":329,"tags":{"name":"Strandblick","website":"https://www.tourismusverein-moenkebude.de/wohnmobilhafen-moenkebude/"}},"2893931316":{"location":[53.9506366,13.8469908],"ct":"DE","tp":"CS","ts":"2023-01-21T17:21:36Z","tX":551,"tY":329,"tags":{"name":"Campingplatz Grams","phone":"+493837480429"}},"3249717755":{"location":[53.9474671,13.8562986],"ct":"DE","tp":"CR","ts":"2024-05-28T19:06:37Z","tX":551,"tY":329,"tags":{"description":"Stellplatz vor der Schranke","maxstay":"1 night","name":"Naturcamping Lassan","opening_hours":"Mo-Su 17:00-10:00","website":"https://campingplatz-lassan.de/schlaffass-mietobjekte/"}}}