{"231906321":{"location":[52.8651921,14.053339],"ct":"DE","tp":"CS","ts":"2023-11-02T22:07:13Z","tX":551,"tY":334,"tags":{"backcountry":"yes","caravans":"no","charge":"3 € tent, 2,5 € per person","email":"info@kanu-oderberg.de","fee":"yes","name":"Wasserwanderrastplatz","operator":"Carsten Förster","phone":"+49 152 36948046","tents":"yes","website":"https://www.kanu-oderberg.de/"}},"348330814":{"location":[52.8406449,13.8997178],"ct":"DE","tp":"CS","ts":"2024-04-29T11:23:05Z","tX":551,"tY":334,"tags":{"addr:city":"Niederfinow","addr:housenumber":"31","addr:postcode":"16248","addr:street":"Dorfstraße","caravans":"yes","drinking_water":"yes","fee":"yes","internet_access":"wlan","internet_access:fee":"no","kitchen":"yes","name":"Triangel Camping","operator":"Triangel Niederfinow GbR","power_supply":"yes","sanitary_dump_station":"yes","shower":"yes","tents":"yes","toilets":"yes","website":"https://camping-niederfinow.de/","wikidata":"Q123238942"}},"394995275":{"location":[52.8408711,14.0083046],"ct":"DE","tp":"CS","ts":"2023-04-10T17:37:35Z","tX":551,"tY":334,"tags":{"access":"customers","addr:city":"Bad Freienwalde (Oder)","addr:country":"DE","addr:housenumber":"10 a","addr:postcode":"16259","addr:street":"Oderberger Straße","addr:suburb":"Bralitz","caravans":"no","email":"alte_oder@gmx.de","mobile":"+49 176 25260183","name":"Odertours","note":"Die Zeltplätzwe sind nur für die Tourgäste da","operator":"Odertours e.K.","tents":"yes","website":"https://www.odertours.com/"}},"650589887":{"location":[52.840006,13.8308457],"ct":"DE","tp":"CS","ts":"2023-11-10T20:49:40Z","tX":551,"tY":334,"tags":{"addr:city":"Eberswalde","addr:housenumber":"53","addr:postcode":"16225","addr:street":"Schleusenstraße","caravans":"yes","fee":"yes","operator":"Marina Park Eberswalde","tents":"yes","website":"https://www.marinapark-eberswalde.de/","wikidata":"Q123397287"}},"669396717":{"location":[52.8362983,13.8247799],"ct":"DE","tp":"CR","ts":"2025-01-02T11:19:00Z","tX":551,"tY":334,"tags":{"access":"yes","capacity":"2","fee":"no","internet_access":"no","name":"Caravanparkplatz Marianstraße","parking":"surface","power_supply":"no","sanitary_dump_station":"no","smoothness":"excellent","surface":"asphalt"}}}