{"24292645":{"location":[52.4375548,13.7596412],"ct":"DE","tp":"CS","ts":"2025-03-20T20:39:14Z","tX":551,"tY":336,"tags":{"addr:city":"Woltersdorf","addr:housenumber":"1","addr:postcode":"15569","addr:street":"Am Springeberg","addr:suburb":"Woltersdorf","contact:mobile":"+49 1512 8361946","email":"naturfreunde.springeberg@web.de","fee":"yes","internet_access":"no","name":"Campingplatz Flakensee-West","nudism":"no","operator":"Camping-Naturfreunde-Springeberg e.V","payment:cash":"yes","power_supply":"yes","reservation":"recommended","sanitary_dump_station":"customers","shower":"yes","website":"http://www.camping-naturfreunde-springeberg.de","wheelchair":"limited","wikidata":"Q123185715"}},"24451812":{"location":[52.4224255,13.837577],"ct":"DE","tp":"CS","ts":"2024-04-01T10:48:08Z","tX":551,"tY":336,"tags":{"addr:city":"Grünheide (Mark)","addr:housenumber":"27","addr:postcode":"15537","addr:street":"Am Schlangenluch","alt_name":"Campingplatz Grünheide","caravans":"yes","contact:website":"http://www.camping-gruenheide.de","name":"Campingplatz am Peetzsee","operator":"Grünheider Ferienpark + Camping GmbH","tents":"yes","wheelchair":"limited","wikidata":"Q123197591"}},"24451817":{"location":[52.4194823,13.8325032],"ct":"DE","tp":"CS","ts":"2013-04-07T23:41:53Z","tX":551,"tY":336,"tags":{}},"24466934":{"location":[52.437218,13.8738241],"ct":"DE","tp":"CS","ts":"2024-12-28T16:05:20Z","tX":551,"tY":336,"tags":{"addr:city":"Grünheide (Mark)","addr:housenumber":"6-7","addr:postcode":"15537","addr:street":"Weg zur Erholung","addr:suburb":"Kagel","name":"Campingplatz Kagel","phone":"+49 33434 70266","website":"www.herberge-und-campingplatz-kagel.de","wikidata":"Q123211330"}},"24467111":{"location":[52.4346078,13.8537039],"ct":"DE","tp":"CS","ts":"2023-11-02T08:44:32Z","tX":551,"tY":336,"tags":{"access":"private","addr:city":"Grünheide OT Alt Buchhorst","addr:postcode":"15537","alt_name":"Naturcampingplatz Möllensee","email":"vereinmsc@aol.com","fax":"+493362502743","fee":"yes","name":"Mölle Süd Camp","operator":"Mölle - Süd - Camp e.V.","phone":"+4933626345","power_supply":"yes","website":"https://moelle-sued-camp.de/","wikidata":"Q123206418"}},"24468446":{"location":[52.4369555,13.8511394],"ct":"DE","tp":"CS","ts":"2025-06-22T20:52:03Z","tX":551,"tY":336,"tags":{"addr:city":"Grünheide (Mark)","addr:housenumber":"E37","addr:postcode":"15537","addr:street":"Alt Buchhorst","alt_name":"Naturcampingplatz Möllensee Nord","cabins":"no","camp_site":"reception","caravans":"yes","drinking_water":"yes","internet_access":"wlan","name":"Dauercamping- u. Zeltplatz Möllensee","operator":"Campingverein Möllensee Nord I e.V.","permanent_camping":"yes","power_supply":"no","sanitary_dump_station":"yes","shower":"hot","tents":"yes","toilets":"yes","website":"https://moellensee.blogspot.com/","wikidata":"Q123204372"}},"38748065":{"location":[52.4335344,13.7692259],"ct":"DE","tp":"CS","ts":"2024-01-02T21:05:40Z","tX":551,"tY":336,"tags":{"addr:city":"Woltersdorf","addr:housenumber":"40","addr:postcode":"15569","addr:street":"Fangschleusenstraße","barrier":"fence","caravans":"yes","email":"info@campingplatz-flakensee.de","name":"Campingplatz Flakensee","phone":"+49 3362 888357","tents":"yes","website":"https://www.campingplatz-flakensee.de/","wikidata":"Q123185913"}},"52529758":{"location":[52.3794841,13.8533421],"ct":"DE","tp":"CS","ts":"2023-10-27T19:43:01Z","tX":551,"tY":336,"tags":{"addr:city":"Grünheide OT Störitz","addr:postcode":"15537","addr:street":"Am Störitzsee","description":"Zeltplatz des Kinder- und Familiencamp Störitzland.","name":"Zeltplatz","operator":"Störitzland Betriebsges. mbH","tents":"yes","website":"https://www.stoeritzland.de"}},"94457557":{"location":[52.299706,14.0006992],"ct":"DE","tp":"CS","ts":"2024-08-14T04:33:24Z","tX":551,"tY":336,"tags":{"addr:city":"Reichenwalde","addr:housenumber":"4","addr:postcode":"15526","addr:street":"Alt Kolpin","caravans":"yes","check_date":"2024-08-14","drinking_water":"yes","fee":"yes","internet_access":"no","name":"Campingplatz Waldsee","payment:cards":"no","payment:cash":"yes","payment:credit_cards":"no","payment:debit_cards":"no","power_supply":"yes","shower":"yes","static_caravans":"yes","tents":"yes","toilets":"yes","website":"https://www.campingplatz-waldsee.de/","wikidata":"Q123257560"}},"878205821":{"location":[52.3856762,13.779239],"ct":"DE","tp":"CS","ts":"2025-04-30T13:42:47Z","tX":551,"tY":336,"tags":{"email":"post@spreecamping.de","name":"Campingplatz Jägerbude","phone":"+49 3362 888084","website":"https://www.campingplatz-jaegerbude.de"}},"905817080":{"location":[52.2722873,13.8247856],"ct":"DE","tp":"CS","ts":"2024-05-04T08:06:33Z","tX":551,"tY":336,"tags":{"access":"permissive","caravans":"no","charge":"5 Eur/person/day","drinking_water":"yes","fee":"yes","name":"Wasserwanderrastplatz Wolzig","operator":"Heimatverein Wolzig e.V.","payment:cash":"yes","power_supply":"no","shower":"yes","tents":"yes","toilets":"yes"}},"1893143099":{"location":[52.3958488,13.9179593],"ct":"DE","tp":"CS","ts":"2023-08-06T23:39:24Z","tX":551,"tY":336,"tags":{"closed":"yes","maxtents":"10","name":"Wasserwanderplatz Hangelsberg"}},"1893965479":{"location":[52.3615644,14.0545778],"ct":"DE","tp":"CS","ts":"2015-01-22T07:47:32Z","tX":551,"tY":336,"tags":{"addr:city":"Fürstenwalde/Spree","addr:postcode":"15517","addr:street":"Altstadt","name":"Ruderclub Fürstenwalde","shower":"warm","tents":"yes","waterway":"biwak"}},"2835954575":{"location":[52.4739952,13.7772592],"ct":"DE","tp":"CR","ts":"2023-04-10T15:08:26Z","tX":551,"tY":336,"tags":{"addr:city":"Rüdersdorf bei Berlin","addr:country":"DE","addr:postcode":"15562","addr:street":"Heinitzstraße","fee":"no","name":"Museumspark Rüdersdorf","power_supply":"yes","sanitary_dump_station":"yes","tents":"no","toilets":"no","water_point":"yes","website":"https://www.ruedersdorf.de/texte/seite.php?id=3326","wheelchair":"yes"}},"2870300983":{"location":[52.474392,13.7765064],"ct":"DE","tp":"SD","ts":"2018-10-14T22:05:00Z","tX":551,"tY":336,"tags":{"access":"yes","drinking_water":"yes","fee":"yes","opening_hours":"24/7","sanitary_dump_station:basin":"yes","sanitary_dump_station:round_drain":"yes","waste":"grey_water"}},"2961587592":{"location":[52.3831336,13.8924172],"ct":"DE","tp":"CS","ts":"2022-05-13T10:08:57Z","tX":551,"tY":336,"tags":{"access":"yes","backcountry":"yes","caravans":"no","fireplace":"campfire","name":"Wasserwanderrastplatz","tents":"yes","wheelchair":"limited"}},"3467839682":{"location":[52.379113,13.8496455],"ct":"DE","tp":"CS","ts":"2024-12-12T17:13:38Z","tX":551,"tY":336,"tags":{"caravans":"yes","description:de":"Dauer campingplatz","motorhomes":"yes","tents":"yes"}},"5009832349":{"location":[52.479772,14.0174455],"ct":"DE","tp":"CS","ts":"2023-05-06T21:21:31Z","tX":551,"tY":336,"tags":{"check_date":"2023-05-06","contact:website":"https://wildnisschule-waldschrat.de/","fee":"no","group_only":"yes","internet_access":"no","name":"Camp der Wildnisschule Waldschrat","operator":"Wildnisschule Waldschrat","sanitary_dump_station":"no","wheelchair":"limited"}},"7472504005":{"location":[52.3683543,13.992052],"ct":"DE","tp":"CS","ts":"2022-06-06T16:38:19Z","tX":551,"tY":336,"tags":{"backcountry":"yes","caravans":"no","name":"Wasserwanderrastplatz Große Tränke","tents":"yes"}}}