{"25298717":{"location":[52.1153908,13.9266378],"ct":"DE","tp":"CS","ts":"2023-10-30T21:31:37Z","tX":551,"tY":337,"tags":{"addr:city":"Märkische Heide","addr:country":"DE","addr:housenumber":"1","addr:postcode":"15913","addr:street":"Raatschweg","addr:suburb":"Alt Schadow","ele":"36.0","name":"Halbinsel Raatsch","phone":"+49 35473 600","website":"https://www.halbinsel-raatsch.de/"}},"35006146":{"location":[52.1038785,13.9122666],"ct":"DE","tp":"CS","ts":"2024-06-13T16:44:39Z","tX":551,"tY":337,"tags":{"addr:city":"Märkische Heide","addr:country":"DE","addr:housenumber":"3","addr:postcode":"15913","addr:street":"Am Strand","email":"d.titus@t-online.de","name":"Waldcamp Seeblick","phone":"+49 35473 694","website":"https://www.waldcampseeblick.de/"}},"35934644":{"location":[52.2172199,13.771266],"ct":"DE","tp":"CS","ts":"2024-08-26T10:23:17Z","tX":551,"tY":337,"tags":{"caravans":"yes","drinking_water":"yes","ele":"32","name":"Camping am Mühlenfließ","payment:cash":"only","phone":"+49 33768 50899","power_supply":"yes","sanitary_dump_station":"yes","shower":"yes","tents":"yes","toilets":"yes","website":"https://www.prieros-camping.de/","wpt_symbol":"Campground"}},"35936715":{"location":[52.2135266,13.7462066],"ct":"DE","tp":"CS","ts":"2023-02-19T16:40:33Z","tX":551,"tY":337,"tags":{"access":"yes","addr:country":"DE","addr:housename":"Campingplatz D66 • Amschmöldesee","addr:housenumber":"1","addr:postcode":"15754","addr:street":"Urlauberstraße","addr:suburb":"Gräbendorf","capacity:caravans":"190","capacity:persons":"300","dog":"leashed","fee":"yes","name":"Campingplatz D66","operator":"Campingclub »Huschte SEE« e.V.","payment:cash":"yes","phone":"+49 33768 50253","ref":"D66","shower":"yes","source":"http://www.CampingplatzD66.de","website":"https://www.campingplatz-d66.de","wheelchair":"no"}},"39375824":{"location":[52.2453098,13.811032],"ct":"DE","tp":"CS","ts":"2023-11-01T09:39:25Z","tX":551,"tY":337,"tags":{"addr:city":"Heidesee","addr:postcode":"15754","addr:street":"Storkower Straße","caravans":"yes","fee":"yes","name":"Freizeitpunkt Kolberg","operator":"Verein der Camping- & Wassersportfreunde Freizeitpunkt Kolberg e.V.","ref":"D62","tents":"yes","website":"https://www.freizeitpunkt-kolberg.eu","wikidata":"Q123267354"}},"41592836":{"location":[52.2217394,14.0174985],"ct":"DE","tp":"CS","ts":"2023-11-01T09:16:45Z","tX":551,"tY":337,"tags":{"addr:city":"Wendisch Rietz","addr:country":"DE","addr:postcode":"15864","addr:street":"Schwarzhorner Weg","cabins":"yes","caravans":"yes","contact:phone":"+49 33679 401","contact:website":"https://www.campingplatz-schwarzhorn.de","dog":"yes","dryer":"yes","internet_access":"no","kitchen":"yes","name":"Campingplatz Schwarzhorn","opening_hours:reception":"Mo-Su 08:00-21:00; Mo-Su 08:00-13:00 \"Winter\"","operator":"Fred-Peter Magnus","payment:cash":"yes","payment:girocard":"no","payment:mastercard":"no","payment:visa":"no","power_supply":"yes","reservation":"recommended","sanitary_dump_station":"yes","tents":"yes","washing_machine":"yes","wikidata":"Q123266748"}},"55840682":{"location":[52.1546234,13.9897239],"ct":"DE","tp":"CS","ts":"2021-02-02T15:37:16Z","tX":551,"tY":337,"tags":{"addr:city":"Storkow (Mark)","addr:country":"DE","addr:housenumber":"10","addr:postcode":"15859","addr:street":"Limsdorfer Straße","addr:suburb":"Kehrigk","email":"info@grubensee.de","name":"Naturcampingplatz „Am Grubensee“","phone":"+49 33677 35985","website":"https://www.grubensee.de/"}},"95036539":{"location":[52.2573974,14.046197],"ct":"DE","tp":"CS","ts":"2021-10-06T19:52:16Z","tX":551,"tY":337,"tags":{"addr:city":"Bad Saarow","addr:country":"DE","addr:housenumber":"97","addr:postcode":"15526","addr:street":"Friedrich-Engels-Damm","cabins":"yes","caravans":"yes","email":"rezeption@camping-bad-saarow.de","fax":"+49 33631 58150","name":"Campingplatz am Westufer des Scharmützelsee","phone":"+49 33631 58151","tents":"yes","website":"http://www.camping-bad-saarow.de/"}},"97470166":{"location":[52.2364493,13.9844934],"ct":"DE","tp":"CS","ts":"2023-10-31T19:23:23Z","tX":551,"tY":337,"tags":{"addr:city":"Reichenwalde","addr:housenumber":"10","addr:postcode":"15526","addr:street":"Storkower Weg","caravans":"yes","fee":"yes","kitchen":"yes","name":"Campingplatz Dahmsdorf","phone":"+49 33679 225","static_caravans":"yes","tents":"yes","website":"https://www.campingplatzdahmsdorf.de/","wikidata":"Q123260582"}},"164838531":{"location":[52.1263211,13.9424382],"ct":"DE","tp":"CS","ts":"2022-11-14T20:23:06Z","tX":551,"tY":337,"tags":{"addr:city":"Märkische Heide","addr:country":"DE","addr:housenumber":"1","addr:postcode":"15913","addr:street":"Neuendorfer Straße","addr:suburb":"Alt Schadow","caravans":"yes","contact:city":"Märkische Heide","contact:country":"DE","contact:email":"mail@spreewald-camping-nord.de","contact:fax":"+49 35473 25124","contact:housenumber":"31","contact:phone":"+49 35473 2407","contact:postcode":"15913","contact:street":"Lindenstraße","contact:suburb":"Alt Schadow","contact:website":"https://www.spreewaldcamping-nord.de","name":"Spreewaldcamping Nord","reservation":"recommended","sanitary_dump_station":"customers","shower":"yes","tents":"yes","toilets":"yes"}},"164985074":{"location":[52.1725653,13.9934025],"ct":"DE","tp":"CS","ts":"2024-09-08T08:33:25Z","tX":551,"tY":337,"tags":{"addr:city":"Storkow (Mark)","addr:country":"DE","addr:housenumber":"1","addr:postcode":"15859","addr:street":"Am Springsee","addr:suburb":"Limsdorf","caravans":"yes","drinking_water":"yes","email":"info@springsee.de","fax":"+49 33677 62093","name":"Naturcampingplatz am Springsee","note":"Adresse statt auf der Fläche vielleicht besser in ein Gebäude oder in einen Adresspunkt verschieben.","phone":"+49 33677 440","power_supply":"yes","shower":"yes","tents":"yes","toilets":"yes","website":"https://www.springsee.de/"}},"233901361":{"location":[52.1122707,13.7634008],"ct":"DE","tp":"CS","ts":"2020-07-05T12:10:14Z","tX":551,"tY":337,"tags":{"backcountry":"yes","email":"biwakplatz@amt-schenkenlaendchen.de","fee":"yes","name":"Biwakplatz Märkisch Buchholz","phone":"+49 151 15144519","tents":"yes"}},"289829066":{"location":[52.0606183,13.8928554],"ct":"DE","tp":"CS","ts":"2023-10-30T18:47:02Z","tX":551,"tY":337,"tags":{"email":"ferienhausploch@web.de","fax":"+49 35473 25090","internet_access":"no","name":"Wasserwanderrastplatz Ploch","operator":"Klaus Ploch","phone":"+49 35473 774","smoking":"yes","stars":"1","website":"https://www.spreewald-ferienhausploch.de/","wheelchair":"yes"}},"296835147":{"location":[52.0628477,13.8513389],"ct":"DE","tp":"CS","ts":"2024-05-10T02:48:01Z","tX":551,"tY":337,"tags":{"caravans":"yes","comment":"Auschilderung und Waschhaus gegenüber","contact:phone":"+491729909191","name":"Zeltplatz Wasserburg","tents":"yes","url":"https://www.campenimspreewald.de/"}},"358686961":{"location":[52.0779836,13.8089351],"ct":"DE","tp":"CS","ts":"2024-08-30T06:05:19Z","tX":551,"tY":337,"tags":{"caravans":"no","drinking_water":"yes","shower":"yes","tents":"yes","toilets":"yes","website":"https://www.jugendherberge.de/jugendherbergen/koethener-see-620/portraet/"}},"448139156":{"location":[52.260369,13.805331],"ct":"DE","tp":"CS","ts":"2019-06-30T15:58:25Z","tX":551,"tY":337,"tags":{"access":"private","group_only":"yes","name":"Abenteuerzeltplatz","operator":"Jugendbildungszentrum Blossin e.V."}},"702186074":{"location":[52.1885883,13.7111101],"ct":"DE","tp":"CS","ts":"2019-07-07T07:16:01Z","tX":551,"tY":337,"tags":{"addr:city":"Groß Köris","addr:country":"DE","addr:housenumber":"3a","addr:postcode":"15746","addr:street":"Prieroser Weg","addr:suburb":"Klein Köris","caravans":"yes","internet_access":"no","name":"Camping-& Wochenendhausplatz Seeoase","phone":"+49 33766 650650","tents":"yes","website":"https://campingfreund-neubrueck.de.tl"}},"952081942":{"location":[52.1125741,14.0217618],"ct":"DE","tp":"CS","ts":"2024-02-14T23:28:32Z","tX":551,"tY":337,"tags":{"caravans":"no","description":"Spree","fee":"no","name":"Wasserwanderrastplatz Werder","shower":"no","tents":"yes"}},"1215111157":{"location":[52.0616834,13.8517517],"ct":"DE","tp":"CS","ts":"2024-06-10T07:17:54Z","tX":551,"tY":337,"tags":{"caravans":"yes","drinking_water":"yes","name":"Wasserwanderrastplatz Wasserburg","operator":"Jaqueline Fischer","phone":"+491729909191","power_supply":"yes","shower":"yes","tents":"yes","url":"https://www.campenimspreewald.de/"}},"1270790814":{"location":[52.2580815,13.9317422],"ct":"DE","tp":"CR","ts":"2024-07-14T09:23:15Z","tX":551,"tY":337,"tags":{"capacity":"6","drinking_water":"no","fee":"yes","maxstay":"48 hours","name:signed":"no","sanitary_dump_station":"yes","toilets":"no"}},"1684305082":{"location":[52.1051099,13.9023688],"ct":"DE","tp":"CS","ts":"2024-05-14T04:51:31Z","tX":551,"tY":337,"tags":{"access":"yes","addr:city":"Unterspreewald","addr:housenumber":"7","addr:postcode":"15910","addr:street":"Spreestraße","backcountry":"yes","capacity:persons":"1oo","capacity:tents":"40","caravans":"no","charge":"8 EUR/guest-night;5 EUR/child","check_date":"2024-05-14","description":"Wasserwanderrastplatz","drinking_water":"yes","fee":"yes","fireplace":"yes","ft_symbol":"73","mobile":"+49 151 11168649","name":"Biwak Neuendorf","opening_hours":"24/7","operator":"Gemeinde Unterspreewald","picnic_table":"yes","power_supply":"yes","shower":"warm","source":"local knowledge","static_caravans":"no","tents":"yes","toilets":"yes","waterway":"biwak","website":"https://www.unterspreewald.de/Seiten/BIWAK-Neuendorf-am-See.html","wheelchair":"no"}},"2835275925":{"location":[52.2567838,13.8016202],"ct":"DE","tp":"CR","ts":"2023-11-03T21:59:22Z","tX":551,"tY":337,"tags":{"name":"Stellplatz Blossin","website":"https://www.heidesee-online.de/"}},"3679969825":{"location":[52.0599631,13.8907521],"ct":"DE","tp":"CS","ts":"2019-05-27T17:38:59Z","tX":551,"tY":337,"tags":{"description":"Platz für Zelte/Wasserwandern. Anmeldung/Duschen:Ploch-Camping","tents":"yes"}},"7473047596":{"location":[52.1186783,13.9527337],"ct":"DE","tp":"CS","ts":"2022-12-11T18:00:20Z","tX":551,"tY":337,"tags":{"capacity":"8","caravans":"no","name":"Wasserwanderrastplatz Alt-Schadow","permanent_camping":"no","source":"www.jedermannsland.de","tents":"yes"}},"9040817729":{"location":[52.2208023,14.0159038],"ct":"DE","tp":"SD","ts":"2021-08-27T12:55:08Z","tX":551,"tY":337,"tags":{"access":"customers","operator":"Campingplatz Schwarzhorn","sanitary_dump_station:round_drain":"yes"}}}