{"38352211":{"location":[51.9372582,13.8950854],"ct":"DE","tp":"CS","ts":"2025-01-18T21:28:10Z","tX":551,"tY":338,"tags":{"cabins":"yes","caravans":"yes","drinking_water":"yes","email":"info@spreewald-camping-luebben.de","fax":"+49 3546 181815","fee":"yes","hot_water":"yes","internet_access":"wlan","kitchen":"yes","name":"Spreewald-Camping Lübben","opening_hours":"Mo-Su 09:00-20:00","operator":"Klaus Peisker","permanent_camping":"yes","phone":"+49 3546 7053","power_supply":"yes","sanitary_dump_station":"customers","shower":"hot","tents":"yes","toilets":"yes","washing_machine":"yes","website":"https://www.knauscamp.de/luebben-spreewald","wheelchair":"yes"}},"94425116":{"location":[51.8701413,13.9779717],"ct":"DE","tp":"CS","ts":"2024-02-11T10:54:26Z","tX":551,"tY":338,"tags":{"addr:city":"Lübbenau/Spreewald","addr:housenumber":"20","addr:postcode":"03222","addr:street":"Schloßbezirk","cabins":"yes","caravans":"yes","contact:email":"info@spreewaldcamping.de","contact:fax":"+49 3542 3533","contact:phone":"+49 3542 3533","contact:website":"http://www.spreewaldcamping.de","internet_access":"wlan","internet_access:fee":"customers","name":"Spreewald-Natur-Camping \"Am Schlosspark\"","power_supply":"cee_17_blue","sanitary_dump_station":"yes","stars":"4","tents":"yes","website":"https://www.spreewaldcamping-schloss.de/"}},"102699450":{"location":[51.8663408,13.9881731],"ct":"DE","tp":"PK","ts":"2024-12-14T14:47:54Z","tX":551,"tY":338,"tags":{"access":"yes","description":"Tagespreis 4 EUR","fee":"yes","motorhome":"yes","parking":"surface"}},"132566518":{"location":[51.8655722,13.9331487],"ct":"DE","tp":"CR","ts":"2015-12-21T16:21:42Z","tX":551,"tY":338,"tags":{"capacity":"6","contact:phone":"+49 3542 83029","fee":"yes","name":"Autocamping Käppler","power_supply":"yes","sanitary_dump_station":"yes","website":"http://www.spreewald-web.de/uebernachtungen/camping/autocamping/"}},"135934153":{"location":[51.8621687,13.9709335],"ct":"DE","tp":"CR","ts":"2022-02-04T10:13:02Z","tX":551,"tY":338,"tags":{"addr:city":"Lübbenau/Spreewald","addr:housenumber":"62 d","addr:postcode":"03222","addr:street":"Dammstraße","capacity":"30","contact:phone":"+49 3542 2921","dog":"yes","fee":"yes","internet_access":"wlan","internet_access:fee":"no","name":"Spreewald Caravan- und Wohnmobilpark \"Dammstraße\"","power_supply":"yes","sanitary_dump_station":"yes","washing_machine":"yes","water_point":"yes","website":"https://www.spreewald.xyz"}},"138017660":{"location":[51.8545714,13.8557008],"ct":"DE","tp":"CS","ts":"2021-07-17T17:32:37Z","tX":551,"tY":338,"tags":{"addr:city":"Lübbenau/Spreewald","addr:country":"DE","addr:housenumber":"1","addr:postcode":"03222","addr:street":"Seestraße","addr:suburb":"Hindenberg","cabins":"yes","caravans":"yes","drinking_water":"yes","email":"am-see@spreewaldcamping.de","fax":"+49 35456 67539","hot_water":"yes","name":"Spreewald-Natur-Camping \"Am See\"","phone":"+49 35456 67539","power_supply":"yes","shower":"hot","stars":"4","tents":"yes","toilets":"yes","washing_machine":"yes","website":"https://www.spreewaldcamping-see.de/"}},"164985660":{"location":[52.0475069,14.0394536],"ct":"DE","tp":"CS","ts":"2022-07-05T08:10:05Z","tX":551,"tY":338,"tags":{"addr:city":"Märkische Heide","addr:country":"DE","addr:housenumber":"1","addr:postcode":"15913","addr:street":"Neue Straße","addr:suburb":"Groß Leuthen","caravans":"yes","email":"info@eurocamp-spreewaldtor.de","fax":"+49 35471 310","name":"EuroCamp \"Spreewaldtor\"","phone":"+49 35471 303","sanitary_dump_station":"customers","stars":"4","tents":"yes","website":"https://eurocamp-spreewaldtor.de/","wheelchair":"yes"}},"183340143":{"location":[51.9640781,14.0248151],"ct":"DE","tp":"CS","ts":"2023-08-12T19:00:06Z","tX":551,"tY":338,"tags":{"addr:city":"Neu Zauche","addr:country":"DE","addr:housenumber":"2","addr:postcode":"15913","addr:street":"Am See","addr:suburb":"Briesensee","caravans":"yes","drinking_water":"yes","email":"info@spreewaelder-seecamping.de","fax":"+49 3546 186913","name":"Spreewälder Seecamping Briesensee","phone":"+49 3546 7676","power_supply":"yes","shower":"yes","tents":"yes","toilets":"yes","website":"https://www.spreewaelder-seecamping.de/"}},"186933974":{"location":[51.8611164,13.9640764],"ct":"DE","tp":"CR","ts":"2022-12-28T22:51:52Z","tX":551,"tY":338,"tags":{"capacity":"10","charge":"25.00 EUR/day","description":"Automat nimmt nur Münzen oder per App bezahlen (only coins, or app), Stand: 24.07.2019","fee":"yes","maxstay":"2 days","name":"Am Bahnhof","power_supply":"yes","sanitary_dump_station":"yes","water_point":"yes","website":"https://www.luebbenau-spreewald.com/de/uebernachten/camping.php"}},"217668802":{"location":[52.0320986,13.7347003],"ct":"DE","tp":"CS","ts":"2025-02-18T18:54:01Z","tX":551,"tY":338,"tags":{"name:signed":"no"}},"405313069":{"location":[51.849276,13.9156645],"ct":"DE","tp":"CS","ts":"2023-11-02T21:20:57Z","tX":551,"tY":338,"tags":{"website":"https://www.muehlberg-spreewald.de/Camping"}},"632043151":{"location":[51.935959,13.8941523],"ct":"DE","tp":"CR","ts":"2024-12-10T13:21:13Z","tX":551,"tY":338,"tags":{"capacity":"30","caravan_site":"motorhome_stopover","caravan_site:type":"parking_lot","contact:email":"info@spreewald-camping-luebben.de","contact:phone":"+49 3546 7053","description":"Stellplatz vor der Schranke","fee":"yes","internet_access":"wlan","name":"Wohnmobilstellplatz Spreewald-Camping Lübben","opening_hours":"Apr 01-Oct 31","power_supply":"no","sanitary_dump_station":"yes","seasonal":"yes","water_point":"yes","website":"https://www.reiseland-brandenburg.de/poi/spreewald/wohnmobilstellplaetze/wohnmobilstellplatz-spreewald-camping-luebben/?no_cache=1"}},"669423852":{"location":[51.9540412,13.8956735],"ct":"DE","tp":"CR","ts":"2019-02-09T22:11:02Z","tX":551,"tY":338,"tags":{"fee":"yes","name":"Gasthaus Lehnigksberg","power_supply":"yes"}},"843358242":{"location":[51.8574123,14.0388744],"ct":"DE","tp":"CS","ts":"2024-07-04T04:45:47Z","tX":551,"tY":338,"tags":{"caravans":"yes","drinking_water":"yes","name":"Wasserwanderrastplatz Spreewaldhof","operator":"Christa Buchan","phone":"+49 3542 2805","power_supply":"yes","sanitary_dump_station":"no","shower":"yes","tents":"yes","toilets":"yes","waterway":"biwak","website":"https://www.spreewaldhof-leipe.de/"}},"998579583":{"location":[52.0314887,13.7326591],"ct":"DE","tp":"CS","ts":"2022-02-11T09:58:27Z","tX":551,"tY":338,"tags":{"internet_access":"wlan","name":"Standard Pitches","wheelchair":"limited"}},"998579584":{"location":[52.0315843,13.734659],"ct":"DE","tp":"CS","ts":"2022-02-11T13:24:14Z","tX":551,"tY":338,"tags":{"internet_access":"wlan","name":"Area Tent","wheelchair":"limited"}},"1005423598":{"location":[52.0320525,13.733633],"ct":"DE","tp":"CS","ts":"2024-05-04T10:07:10Z","tX":551,"tY":338,"tags":{"caravans":"yes","drinking_water":"yes","name:signed":"no","power_supply":"yes","shower":"no","tents":"no"}},"1221138369":{"location":[51.8491173,13.715184],"ct":"DE","tp":"CR","ts":"2024-12-05T01:23:25Z","tX":551,"tY":338,"tags":{"caravan_site":"motorhome_stopover","caravan_site:type":"town","caravans":"yes","fee":"no","name":"Wohnmobil- und Caravan-Parkplatz Laga-Park Luckau","power_supply":"yes","power_supply:charge":"1 EUR/KWh","sanitary_dump_station":"yes","sanitary_dump_station:chemical_toilet":"yes","sanitary_dump_station:grey_water":"yes","seasonal":"no","shower":"no","toilets":"yes","water_point":"yes","water_point:charge":"1 EUR/30 liter","website":"https://luckau.de/de/tourismus/wohnmobil-und-caravanstellplatz.html"}},"1316640988":{"location":[51.8578409,13.8547983],"ct":"DE","tp":"SD","ts":"2024-09-19T10:59:03Z","tX":551,"tY":338,"tags":{"access":"customers","fee":"no","name":"Ver./Entsorgung, Luft","water_point":"yes"}},"1341538467":{"location":[51.9486239,13.9202158],"ct":"DE","tp":"CR","ts":"2024-12-23T20:55:05Z","tX":551,"tY":338,"tags":{"addr:city":"Lübben (Spreewald)","addr:housenumber":"61","addr:postcode":"15907","addr:street":"Frankfurter Straße","capacity":"50","caravan_site":"motorhome_stopover","caravan_site:type":"town","charge":"15 EUR","fee":"yes","name":"Wohnmobilstellplatz xParking","opening_hours":"Apr-Oct","phone":"+49 176 25000287","power_supply":"yes","power_supply:fee":"no","reservation":"yes","sanitary_dump_station":"yes","water_point":"yes","water_point:fee":"no","website":"https://www.xparking.de/"}},"1342679209":{"location":[51.8578493,14.0391614],"ct":"DE","tp":"CR","ts":"2024-12-14T14:44:36Z","tX":551,"tY":338,"tags":{"caravan_site:type":"guest_house","charge":"15 EUR","fee":"yes","internet_access":"wlan","internet_access:fee":"no","name":"Reusenstube Leipe Stellplatz","phone":"+49 151 67067304","power_supply":"yes","power_supply:charge":"3 EUR","power_supply:fee":"yes","sanitary_dump_station":"no","water_point":"yes","water_point:fee":"no","website":"https://www.reusenstube.de/stellplatz-fuer-reisemobile/"}},"1893306079":{"location":[52.0061933,13.8753187],"ct":"DE","tp":"CS","ts":"2022-11-27T21:51:10Z","tX":551,"tY":338,"tags":{"backcountry":"yes","description":"Bivouac zone for peddlers, hikers and cyclist. Pay in the restaurant. The restaurant closes at 7pm. Toilets and showers and drinking water behind the restaurant.","fee":"yes","name":"Wasserwanderrastplatz Petkamsberg","shower":"yes","tents":"yes","toilets":"yes","waterway":"biwak","wheelchair":"no"}},"2269815297":{"location":[52.0319379,13.7325631],"ct":"DE","tp":"SD","ts":"2015-04-28T07:03:43Z","tX":551,"tY":338,"tags":{"fixme":"Unsure if this is a walk up toilet or a motorhome sewage station","operator":"Tropical Islands"}},"2269815304":{"location":[52.0322705,13.7328482],"ct":"DE","tp":"SD","ts":"2024-05-04T10:08:41Z","tX":551,"tY":338,"tags":{"fee":"yes","operator":"Tropical Islands","sanitary_dump_station:gravity":"yes","sanitary_dump_station:grey_water":"yes"}},"2955900840":{"location":[52.0286265,13.8866463],"ct":"DE","tp":"CS","ts":"2020-05-01T22:03:03Z","tX":551,"tY":338,"tags":{"backcountry":"yes","capacity":"8","comment":"rastplatz für wasserwanderer für eine nacht. kostenfrei. wc nachts geschlossen.","maxtents":"3","name":"Wasserwanderrastplatz Schlepzig","operator":"Rainer Künzel","phone":"+49 35472 64979"}},"3654785902":{"location":[51.8662763,13.9880805],"ct":"DE","tp":"CR","ts":"2015-07-16T20:13:13Z","tX":551,"tY":338,"tags":{}},"3654793003":{"location":[51.8559525,14.0462835],"ct":"DE","tp":"CR","ts":"2023-08-14T22:15:11Z","tX":551,"tY":338,"tags":{"access":"permissive","note":"2023-08-13: Schild weist auf Privatgelände hin, Nutzung nur nach Rücksprache im Spreewaldhotel.","operator":"Spreewaldhotel"}},"7626284579":{"location":[51.9285751,13.9109986],"ct":"DE","tp":"CS","ts":"2021-07-20T15:44:17Z","tX":551,"tY":338,"tags":{"internet_access":"wlan","internet_access:fee":"customers","name":"Zeltplatz der DJH Lübben","tents":"yes","website":"https://www.jugendherberge.de/jugendherbergen/luebben-621/portraet/"}},"11121525905":{"location":[51.9489199,13.9197642],"ct":"DE","tp":"CR","ts":"2024-04-02T17:22:29Z","tX":551,"tY":338,"tags":{"addr:housenumber":"61","addr:postcode":"15907","addr:street":"Frankfurter Straße","capacity":"50","fee":"yes","name":"Wohnmobilstellplatz xParking","phone":"+49 176 25000287","power_supply":"yes","sanitary_dump_station":"yes","website":"https://www.xparking.de/"}},"4307610791":{"location":[51.9366875,13.8953905],"ct":"DE","tp":"SD","ts":"2018-01-21T14:20:21Z","tX":551,"tY":338,"tags":{"description":"Ver- und Entsorgungsstation für Wohnwagen und Wohnmobile","fee":"no","sanitary_dump_station:chemical_toilet":"yes","sanitary_dump_station:grey_water":"yes","water_point":"yes"}},"5679636800":{"location":[51.8698391,13.980117],"ct":"DE","tp":"SD","ts":"2018-06-10T13:07:10Z","tX":551,"tY":338,"tags":{"fee":"no"}},"7638122407":{"location":[52.0483509,14.0371452],"ct":"DE","tp":"SD","ts":"2020-06-20T14:06:19Z","tX":551,"tY":338,"tags":{"access":"customers","operator":"EuroCamp Spreewald"}},"10064401775":{"location":[51.8498415,13.7146094],"ct":"DE","tp":"SD","ts":"2022-09-30T14:22:46Z","tX":551,"tY":338,"tags":{"access":"yes","fee":"no","sanitary_dump_station:basin":"yes","sanitary_dump_station:round_drain":"yes"}}}