{"25969760":{"location":[51.5885241,13.7812393],"ct":"DE","tp":"PK","ts":"2025-01-08T16:20:15Z","tX":551,"tY":340,"tags":{"access":"customers","fee":"yes","motorhome":"yes","name":"Besucherparkplatz","parking":"surface","wheelchair":"limited"}},"34386063":{"location":[51.5363624,13.9261852],"ct":"DE","tp":"CS","ts":"2020-11-14T20:42:49Z","tX":551,"tY":340,"tags":{"barrier":"fence","name":"Speedway Camp"}},"136433124":{"location":[51.482365,13.9797074],"ct":"DE","tp":"PK","ts":"2024-08-13T08:24:14Z","tX":551,"tY":340,"tags":{"access":"yes","caravans":"yes","fee":"yes","parking":"surface","wheelchair":"yes"}},"172562214":{"location":[51.4995792,13.9839212],"ct":"DE","tp":"CS","ts":"2022-05-30T20:56:57Z","tX":551,"tY":340,"tags":{"email":"komfortcamping@senftenberger-see.de","name":"Komfortcamping Senftenberger See","phone":"+49 3573 661543","website":"https://www.senftenberger-see.de/de/komfortcamping.html"}},"194304053":{"location":[51.5122154,14.0269552],"ct":"DE","tp":"CR","ts":"2025-01-08T16:43:12Z","tX":551,"tY":340,"tags":{"addr:city":"Senftenberg","addr:country":"DE","addr:housenumber":"52","addr:postcode":"01968","addr:street":"Buchwalder Straße","addr:suburb":"Buchwalde","capacity":"12","caravan_site":"motorhome_stopover","caravan_site:type":"beach","contact:email":"seestrand.buchwalde@senftenberger-see.de","contact:phone":"+49 3573 798953","contact:website":"http://www.senftenberger-see.de/de/senftenberger-see/wohnmobilstellplaetze/seestrand-buchwalde.html","description":"Kurzzeitstandplatz","fee":"yes","maxstay":"4 nights","motorhome":"designated","name":"Reisemobilstellplatz Seestrand Buchwalde","power_supply":"yes","sanitary_dump_station":"yes","water_point":"yes"}},"222566456":{"location":[51.4937862,14.0450524],"ct":"DE","tp":"CS","ts":"2024-07-06T11:29:16Z","tX":551,"tY":340,"tags":{"caravans":"yes","drinking_water":"yes","email":"familienpark@senftenberger-see.de","name":"Familienpark Senftenberger See","phone":"+49 3573 8000","shower":"yes","stars":"5","tents":"yes","website":"http://www.familienpark-see.de","wheelchair":"yes"}},"394765542":{"location":[51.5450029,13.9246802],"ct":"DE","tp":"CS","ts":"2019-09-22T19:15:41Z","tX":551,"tY":340,"tags":{"addr:city":"Schipkau","addr:country":"DE","addr:postcode":"01994","addr:street":"Friedhofstraße","addr:suburb":"Meuro","name":"Micha's Race Camp","phone":"+49 162 5267747"}},"394765687":{"location":[51.5232875,13.9622119],"ct":"DE","tp":"CS","ts":"2019-09-22T19:15:41Z","tX":551,"tY":340,"tags":{"addr:city":"Schipkau","addr:country":"DE","addr:housenumber":"13","addr:postcode":"01968","addr:street":"Am Schießplatz","addr:suburb":"Hörlitz","name":"Campotel am Lausitzring","phone":"+49 3573 70710","website":"http://www.campotel-lausitzring.de/"}},"485086520":{"location":[51.4904265,14.0365316],"ct":"DE","tp":"CS","ts":"2023-10-10T08:21:16Z","tX":551,"tY":340,"tags":{"addr:city":"Senftenberg","addr:country":"DE","addr:housenumber":"2","addr:postcode":"01968","addr:street":"Straße zur Südsee","addr:suburb":"Großkoschen","caravans":"no","drinking_water":"yes","name":"Hafencamp","phone":"+49 3573 800600","shower":"yes","tents":"yes","website":"http://www.hafencamp.de/","wheelchair":"yes","wheelchair:description":"Barrierefreiheit Zimmer und campinghütten, WCs...Bootsverleih mit Lift und Rollstuhlzugänglichen badesteg"}},"720466869":{"location":[51.4507462,13.945213],"ct":"DE","tp":"CS","ts":"2021-03-21T11:12:16Z","tX":551,"tY":340,"tags":{"addr:city":"Schwarzbach","addr:housenumber":"7","addr:postcode":"01945","addr:street":"Wiesenstraße","email":"info@waldcamping-lausitzer-seenland.de","fee":"yes","internet_access":"wlan","internet_access:fee":"no","internet_access:ssid":"Waldcamping","name":"Waldcamping Lausitzer Seenland","operator":"Waldcamping Lausitzer Seenland","phone":"+491725414097","website":"https://www.waldcamping-lausitzer-seenland.de/","wheelchair":"no"}},"798911680":{"location":[51.490572,14.0429956],"ct":"DE","tp":"PK","ts":"2023-10-10T08:35:18Z","tX":551,"tY":340,"tags":{"access":"yes","caravans":"yes","fee":"yes","parking":"surface"}},"1349573658":{"location":[51.5749675,14.0147039],"ct":"DE","tp":"CR","ts":"2025-01-08T15:24:53Z","tX":551,"tY":340,"tags":{"caravan_site":"motorhome_stopover","caravan_site:type":"harbour","charge":"10 EUR","end_date":"2026+","fee":"yes","name":"Parkplatz am Stadthafen Großräschen","power_supply":"no","sanitary_dump_station":"no","water_point":"no","website":"https://www.grossraeschen.de/seite/643103/wohnmobilstellpl%C3%A4tze.html"}},"1349573659":{"location":[51.4822949,13.9793569],"ct":"DE","tp":"CR","ts":"2025-01-08T15:24:53Z","tX":551,"tY":340,"tags":{"capacity":"20","caravan_site":"motorhome_stopover","caravan_site:type":"lake","charge":"10 EUR","fee":"yes","name":"Parkplatz am Schullandheim Niemtsch","power_supply":"no","sanitary_dump_station":"no","toilets":"yes","water_point":"no","website":"https://www.lausitzerseenland.de/de/urlaub-buchen/camping/artikel-parkplatz-am-schullandheim-niemtsch.html"}},"1349573661":{"location":[51.4959402,14.0527636],"ct":"DE","tp":"CR","ts":"2025-01-08T15:24:53Z","tX":551,"tY":340,"tags":{"capacity":"3","charge":"21.50 EUR","email":"info@fewo-grosskoschen.de","fee":"yes","name":"Wohnmobilstellplatz Senftenberg / OT Großkoschen","phone":"+49 152 31062936","power_supply":"yes","reservation":"recommended","sanitary_dump_station:chemical_toilet":"yes","shower":"no","socket:cee_blue":"yes","toilets":"no","water_point":"yes","website":"https://www.fewo-grosskoschen.de/wohnmobile/caravan"}},"1349577943":{"location":[51.5009503,13.7546543],"ct":"DE","tp":"CR","ts":"2025-01-08T15:46:41Z","tX":551,"tY":340,"tags":{"capacity":"2","caravan_site":"motorhome_stopover","caravan_site:type":"swimming_pool","fee":"no","name":"Wohnmobilstellplatz Sauna & Freizeitbad - Lauchhammer","power_supply":"no","sanitary_dump_station":"no","seasonal":"no","surface":"asphalt","water_point":"no","website":"https://www.lausitzerseenland.de/de/urlaub-buchen/camping/artikel-stellplatz-am-hallenbad-lauchhammer.html"}},"1349583550":{"location":[51.5850499,13.7792206],"ct":"DE","tp":"CR","ts":"2025-01-08T16:20:15Z","tX":551,"tY":340,"tags":{"attraction":"Visitor Mine F60","capacity":"20","caravan_site":"motorhome_stopover","caravan_site:type":"museum","charge":"10 EUR","fee":"yes","name":"Wohnmobilstellplatz Besucherbergwerk F60","power_supply":"no","seasonal":"no","water_point":"no","website":"https://www.f60.de/"}},"2738037566":{"location":[51.6063889,13.8617237],"ct":"DE","tp":"CR","ts":"2025-01-11T21:14:22Z","tX":551,"tY":340,"tags":{"addr:city":"Sallgast","addr:country":"DE","addr:housenumber":"29","addr:postcode":"03238","addr:street":"Hauptstraße","addr:suburb":"Dollenchen","bbq":"yes","caravan_site":"motorhome_stopover","caravan_site:type":"restaurant","charge":"16.50 EUR","fax":"+49 35329 364","fee":"yes","name":"Gasthaus Stuckatz","operator":"Familie Stuckatz","phone":"+49 35329 364","power_supply":"yes","website":"https://www.gasthaus-stuckatz.de/"}},"3676687500":{"location":[51.4596395,14.0196681],"ct":"DE","tp":"CS","ts":"2019-08-25T10:10:56Z","tX":551,"tY":340,"tags":{"caravans":"no","group_only":"yes","name":"Jugendcamp","phone":"+49 35756 15000","tents":"yes","website":"http://www.hosena.de/index.php/jugendcamp"}},"9761786886":{"location":[51.4987898,14.0621587],"ct":"DE","tp":"CR","ts":"2022-05-22T14:31:06Z","tX":551,"tY":340,"tags":{}},"11020180180":{"location":[51.5122557,14.0249297],"ct":"DE","tp":"SD","ts":"2023-07-02T15:20:26Z","tX":551,"tY":340,"tags":{"access":"permissive","fee":"no","opening_hours":"24/7","sanitary_dump_station:basin":"yes"}},"11020180181":{"location":[51.5121816,14.0250648],"ct":"DE","tp":"SD","ts":"2023-07-10T15:48:59Z","tX":551,"tY":340,"tags":{"access":"permissive","fee":"no","opening_hours":"24/7","sanitary_dump_station:round_drain":"yes"}},"11298581260":{"location":[51.5369415,13.9110556],"ct":"DE","tp":"SD","ts":"2023-10-29T19:50:15Z","tX":551,"tY":340,"tags":{}},"12484617385":{"location":[51.476399,13.9884643],"ct":"DE","tp":"CR","ts":"2025-01-08T15:24:53Z","tX":551,"tY":340,"tags":{"capacity":"5","caravan_site":"motorhome_stopover","caravan_site:type":"lake","charge":"10 EUR","fee":"yes","name":"Parkplatz Seestrand Südsee in Peickwitz","power_supply":"no","sanitary_dump_station":"no","seasonal":"no","water_point":"no"}}}