{"27949107":{"location":[51.3723111,13.7782517],"ct":"DE","tp":"CS","ts":"2024-10-28T09:10:24Z","tX":551,"tY":341,"tags":{"addr:city":"Ortrand","addr:country":"DE","addr:housenumber":"1","addr:postcode":"01990","addr:street":"Am Bad","caravans":"yes","drinking_water":"yes","kitchen":"yes","name":"Erlebniscamping Lausitz","operator":"Karlheinz Philipp","phone":"+49 35755553509","shower":"yes","tents":"yes","website":"https://www.erlebniscamping-lausitz.eu/"}},"32539152":{"location":[51.2160882,13.7407414],"ct":"DE","tp":"CS","ts":"2023-12-01T14:54:14Z","tX":551,"tY":341,"tags":{"addr:city":"Radeburg","addr:country":"DE","addr:housenumber":"20","addr:postcode":"01471","addr:street":"Würschnitzer Straße","caravans":"yes","name":"Campingplatz „Carad am See“","phone":"+49 35208 2457","tents":"yes","website":"http://www.campingplatz-carad-radeburg.de"}},"297581217":{"location":[51.2352571,14.0260005],"ct":"DE","tp":"CR","ts":"2023-11-19T09:45:48Z","tX":551,"tY":341,"tags":{"addr:city":"Haselbachtal","addr:country":"DE","addr:housenumber":"15","addr:postcode":"01920","addr:street":"Jahnstraße","addr:suburb":"Bischheim","capacity":"11","contact:mobile":"+49 1743216672","contact:phone":"+49 3578 3093620","fee":"yes","internet_access":"wlan","internet_access:fee":"no","name":"Caravan-Stellplatz \"Wiesengrund\"","power_supply":"yes","sanitary_dump_station":"yes","website":"https://www.haselbachtal.com/de/tourismus/stellplatz-fuer-caravan/index.php"}},"461614859":{"location":[51.2353467,14.026712],"ct":"DE","tp":"CS","ts":"2019-08-25T10:10:56Z","tX":551,"tY":341,"tags":{"caravans":"no","group_only":"yes","name":"Jugendzeltplatz Bischheim Wiesengrund","operator":"Gemeindeverwaltung Haselbachtal","phone":"+49 3578 71263","tents":"yes"}},"1115772882":{"location":[51.2796463,13.8983527],"ct":"DE","tp":"CR","ts":"2022-11-20T18:11:21Z","tX":551,"tY":341,"tags":{"access":"yes","capacity":"3","fee":"no","opening_hours":"24/7","power_supply":"no","reservation":"no","sanitary_dump_station":"no","tents":"no"}},"2354025574":{"location":[51.3670711,14.0350255],"ct":"DE","tp":"CS","ts":"2019-09-15T09:10:28Z","tX":551,"tY":341,"tags":{"addr:city":"Bernsdorf","addr:postcode":"02994","addr:street":"Badeweg","contact:phone":"+49 173 9444394","contact:website":"http://www.ferienpark-waldbad-bernsdorf.de/camping.htm","internet_access":"no","name":"Campingplatz Waldbad","operator":"Holz & Sonnenberger GbR","stars":"3"}},"7612699880":{"location":[51.2052888,14.0611861],"ct":"DE","tp":"CS","ts":"2023-01-21T17:33:57Z","tX":551,"tY":341,"tags":{"access":"customers","addr:city":"Steina","addr:housenumber":"22b","addr:postcode":"01920","addr:street":"Pulsnitzer Straße","name":"Camping im Tauchcenter Steina","operator":"Tauchschule Dresden - Tauchcenter Steina","phone":"+49 351 416 23 04","website":"https://www.tauchschule-dresden.de/campingplatz-bungalows.html"}},"7786362455":{"location":[51.2524546,13.7523971],"ct":"DE","tp":"CS","ts":"2024-08-24T14:22:52Z","tX":551,"tY":341,"tags":{"access":"permissive","addr:city":"Thiendorf","addr:housenumber":"3","addr:postcode":"01561","addr:street":"Zum Springbach","caravans":"yes","drinking_water":"yes","name":"Naturcamping Brettmühlenteich","phone":"+4935420169955","power_supply":"yes","sanitary_dump_station":"yes","shower":"yes","tents":"yes","toilets":"yes","website":"https://www.naturcamping-dresden.de/"}},"12192800001":{"location":[51.184341,13.8490338],"ct":"DE","tp":"CR","ts":"2024-09-22T14:02:41Z","tX":551,"tY":341,"tags":{"capacity":"4"}}}