{"23798270":{"location":[51.0149169,13.7471877],"ct":"DE","tp":"CS","ts":"2024-09-30T20:00:44Z","tX":551,"tY":342,"tags":{"addr:city":"Dresden","addr:country":"DE","addr:housenumber":"30","addr:postcode":"01217","addr:street":"Boderitzer Straße","addr:suburb":"Mockritz","caravans":"yes","contact:email":"mail@camping-dresden.de","contact:fax":"+49 351 4799227","description":"Rezeption geöffnet bis 19.00 Uhr","internet_access":"wlan","name":"Campingplatz Mockritz","opening_hours":"Mo-Su 06:00-23:00","phone":"+49 351 4715250","tents":"yes","website":"http://www.camping-dresden.de","wheelchair":"yes"}},"30056208":{"location":[50.9814527,13.9970234],"ct":"DE","tp":"CS","ts":"2020-01-02T15:16:26Z","tX":551,"tY":342,"tags":{"access":"private","caravans":"no","group_only":"yes","landuse":"meadow","name":"Pfadfinderlagerplatz Lohmen","scout":"yes","tents":"yes"}},"50772538":{"location":[51.1195579,13.979819],"ct":"DE","tp":"CS","ts":"2022-07-18T20:56:16Z","tX":551,"tY":342,"tags":{"addr:city":"Großröhrsdorf","addr:country":"DE","addr:housenumber":"1","addr:postcode":"01900","addr:street":"Arnsdorfer Straße","addr:suburb":"Kleinröhrsdorf","caravans":"yes","contact:fax":"+49 35952 56024","fee":"yes","internet_access":"wlan","internet_access:fee":"yes","name":"Lux Oase","phone":"+49 35952 56666","toilets:wheelchair":"yes","url":"https://www.luxoase.de","wheelchair":"yes"}},"60760271":{"location":[50.9601949,13.95095],"ct":"DE","tp":"CR","ts":"2025-01-08T01:40:23Z","tX":551,"tY":342,"tags":{"access":"yes","caravan_site":"motorhome_stopover","caravan_site:type":"town","charge":"15 EUR/day","drinking_water":"yes","fee":"yes","name":"Wohnwagen- & Caravanstellplatz im Schlosspark","parking":"surface","power_supply":"yes","toilets":"yes"}},"118157188":{"location":[50.9821972,13.9229704],"ct":"DE","tp":"CS","ts":"2024-03-28T07:30:20Z","tX":551,"tY":342,"tags":{"access":"customers","addr:city":"Pirna","addr:country":"DE","addr:housenumber":"19","addr:postcode":"01796","addr:street":"Äußere Pillnitzer Straße","addr:suburb":"Copitz","caravans":"yes","drinking_water":"yes","internet_access":"wlan","internet_access:fee":"yes","name":"Camping Pirna","operator":"Stadtwerke Pirna GmbH","phone":"+49 3501 523773","power_supply":"yes","shower":"yes","tents":"yes","toilets":"yes","website":"https://camping-pirna.de/","wheelchair":"limited"}},"194297499":{"location":[51.0567183,13.7426373],"ct":"DE","tp":"CR","ts":"2024-04-28T01:20:06Z","tX":551,"tY":342,"tags":{"barrier":"fence","capacity":"30","charge":"25","check_date":"2024-04-28","description":"Parkplatz wird auch von PKWs genutzt, von daher wird es teils sehr eng. Kosten für Wohnmobile 25€ incl. Strom.","fee":"yes","internet_access":"no","name":"Stellplatz Wiesentorstraße","opening_hours":"24/7","operator":"ParkplatzmanagementSemperoper GmbH & Co.KG","permanent_camping":"no","phone":"+49 351 4967705","power_supply":"yes","sanitary_dump_station":"yes","toilets":"no","water_point":"yes","website":"https://www.mein-contipark.de/parkplatz-finden/parken-in-dresden/parkplatz-wiesentorstrasse-dresden--ci3cp112679677"}},"235817959":{"location":[50.999317,13.8688822],"ct":"DE","tp":"CS","ts":"2024-08-06T16:48:37Z","tX":551,"tY":342,"tags":{"addr:city":"Dresden","addr:country":"DE","addr:housenumber":"7","addr:postcode":"01259","addr:street":"An der Wostra","caravans":"yes","internet_access":"wlan","name":"Camping Wostra","phone":"+49 351 2013254","tents":"yes","website":"https://www.dresden.de/campingplatz","wheelchair":"limited"}},"237663666":{"location":[51.1463023,13.7226975],"ct":"DE","tp":"CS","ts":"2022-01-21T10:54:22Z","tX":551,"tY":342,"tags":{"addr:city":"Moritzburg","addr:housenumber":"15","addr:postcode":"01471","addr:street":"Moritzburger Straße","email":"waldteichfreunde@online.de","name":"Zeltwiese Waldteichfreunde","operator":"Waldteichfreunde e.V.","website":"https://www.waldteichfreunde.eu/"}},"258326088":{"location":[51.0402933,13.8187753],"ct":"DE","tp":"CS","ts":"2023-11-07T02:11:37Z","tX":551,"tY":342,"tags":{"access":"private","addr:city":"Dresden","addr:country":"DE","addr:housenumber":"81","addr:postcode":"01277","addr:street":"Tolkewitzer Straße","note":"campsite for canoe tours","note:de":"Zeltplatz zum Wasserwandern","operator":"Dresdner Segelclub 1910 e.V.","phone":"+49 172 3513707","tents":"yes","website":"https://www.dsc1910.de/"}},"267884517":{"location":[51.1368432,13.91608],"ct":"DE","tp":"CR","ts":"2021-01-18T21:46:38Z","tX":551,"tY":342,"tags":{"access":"customers","note":"trinking_water","operator":"Radeberger Reisempobile","shop":"outdoor","waste":"trash;toilet;grey_water"}},"285548491":{"location":[50.9661883,13.9383107],"ct":"DE","tp":"CR","ts":"2025-01-08T01:29:36Z","tX":551,"tY":342,"tags":{"dog":"yes","fee":"no","maxstay":"1 night","name":"Caravanstellplatz auf dem Elbeparkplatz P7 Pirna","name:signed":"no","power_supply":"no","sanitary_dump_station":"no","seasonal":"no","toilets":"no","water_point":"no","website":"https://www.dresden-elbland.de/de/lodging/wohnmobilstellplatz/caravanstellplatz-auf-dem-elbeparkplatz-p7-pirna/24997950/"}},"386639031":{"location":[51.0572144,13.7608274],"ct":"DE","tp":"CR","ts":"2024-04-20T12:51:21Z","tX":551,"tY":342,"tags":{"charge":"15€","description":"Strom 5€ am Automat - Gespanne müssen Pkw Tarif plus Caravan Tarif bezahlen","drinking_water":"no","email":"info@wohnmobilstellplatz.de","fee":"yes","internet_access":"no","name":"Sachsenplatz","power_supply":"yes","sanitary_dump_station":"no","toilets":"no","website":"https://wohnmobilstellplatz-dresden.de/"}},"506188799":{"location":[51.005032,13.86725],"ct":"DE","tp":"CS","ts":"2024-08-20T18:25:57Z","tX":551,"tY":342,"tags":{"addr:city":"Dresden","addr:country":"DE","addr:postcode":"01259","addr:street":"Wilhelm-Weitling-Straße","addr:suburb":"Pillnitz","description":"Nur für Wasserreisende.","name":"Campinggelegenheit im Dresdner Segel-Verein, Pillnitzer Insel 1928 e.V.","phone":"+49 351 8902284 or 2525375","source":"http://www.blauesband.de/tis","tents":"yes","website":"http://www.segelverein-pillnitz.de"}},"931915554":{"location":[50.9853078,14.0567792],"ct":"DE","tp":"CR","ts":"2023-06-27T15:13:50Z","tX":551,"tY":342,"tags":{"capacity":"62","contact:mobile":"+49 162 6237566","fee":"yes","name":"Reisemobilpark Bastei","operator":"Reisemobil- und Caravanpark Bastei GbR","power_supply":"yes","sanitary_dump_station":"yes","water_point":"yes","website":"https://www.reisemobilpark-bastei.de/Home"}},"1058516194":{"location":[50.9631146,13.9233578],"ct":"DE","tp":"CR","ts":"2025-01-08T01:29:36Z","tX":551,"tY":342,"tags":{"caravan_site":"motorhome_stopover","caravan_site:type":"river","charge":"31 EUR","charge:conditional":"34 EUR @ (first_row)","email":"kontakt@wasserplatz-pirna.de","fee":"yes","fee:description":"includes Pirna guest card","name":"Wasserplatz Pirna","power_supply":"yes","power_supply:fee":"no","surface":"grass_paver","website":"https://www.wasserplatz-pirna.de/"}},"1069396366":{"location":[50.9796027,13.9439062],"ct":"DE","tp":"CR","ts":"2025-01-08T01:04:51Z","tX":551,"tY":342,"tags":{"caravan_site":"motorhome_stopover","caravan_site:type":"brewery","fee":"no","name":"Wohnmobilstellplatz Brauhaus Pirna","opening_hours":"24/7","operator":"Privatbrauerei Schmees-Besgen GmbH & Co. KG","power_supply":"no","sanitary_dump_station":"no","smoothness":"excellent","surface":"paving_stones","water_point":"no","website":"https://www.brauhaus-pirna.de/","wheelchair":"yes"}},"1188517358":{"location":[51.1390781,13.7202285],"ct":"DE","tp":"CS","ts":"2023-07-11T22:10:30Z","tX":551,"tY":342,"tags":{"addr:city":"Dresden","addr:housenumber":"2","addr:postcode":"01109","addr:street":"Altwilschdorfer Weg","caravans":"no","description":"Campingplatz ist nur für Dauercamper. Zufahrt vom Volkersdorfer Sandweg.","name":"Campingplatz Dresden-Nord","note":"Adresse stammt von Internetseite Betreiber Campingplatz. Straße, Hausnummer und PLZ erscheinen aber falsch zu sein.","opening_hours":"Apr-Okt","operator":"Steffen Martin CBM Camping","phone":"+49 351 4715250","static_caravans":"yes","tents":"no","website":"https://www.cbm-camping.de/dd-nord/"}},"1188540504":{"location":[51.1387568,13.7120275],"ct":"DE","tp":"CS","ts":"2023-07-10T00:23:58Z","tX":551,"tY":342,"tags":{"name":"Oberer Waldteich","operator":"Mirko Naumann"}},"1188540519":{"location":[51.1419007,13.7137495],"ct":"DE","tp":"CS","ts":"2023-07-10T00:28:50Z","tX":551,"tY":342,"tags":{"addr:city":"Moritzburg","addr:housenumber":"100","addr:postcode":"01468","addr:street":"Waldteichstraße","capacity:caravans":"110","caravans":"yes","fee":"yes","name":"Oberer Waldteich","operator":"Mirko Naumann","phone":"+49 152 24377599","static_caravans":"yes"}},"1292174999":{"location":[50.9900124,13.9433236],"ct":"DE","tp":"CS","ts":"2024-06-13T18:32:20Z","tX":551,"tY":342,"tags":{"addr:housenumber":"57","addr:street":"Altjessen","alt_name":"Der kleinste Campingplatz Sachsens","breakfast":"yes","caravans":"yes","mobile":"+49 174 7746282","motor_vehicle":"yes","name":"Altjessen 57","static_caravans":"no","tents":"yes","website":"https://www.altjessen57.de/deu/preise.php"}},"2410726310":{"location":[51.0568273,13.7431833],"ct":"DE","tp":"SD","ts":"2023-05-02T18:01:37Z","tX":551,"tY":342,"tags":{"access":"yes","brand":"Sani station","charge":"2 €","description:de":"Abwasserentsorgung von Wohnmobilen","fee":"yes","water_point":"yes"}},"7698811432":{"location":[51.0991579,13.9530631],"ct":"DE","tp":"CS","ts":"2024-04-01T19:42:44Z","tX":551,"tY":342,"tags":{"access":"permit","addr:city":"Arnsdorf","addr:housenumber":"30","addr:postcode":"01477","addr:street":"Großerkmannsdorfer Straße","capacity":"10","capacity:tents":"4","caravans":"yes","fee":"yes","name":"Levihus Camp","operator":"Levihus","phone":"+49 176 23 90 36 16","reservation":"required","tents":"yes","website":"https://levihus.com"}},"11036368627":{"location":[51.1438416,13.7188861],"ct":"DE","tp":"CS","ts":"2023-07-09T23:17:25Z","tX":551,"tY":342,"tags":{"access":"customers","caravans":"yes","fee":"yes","name":"Waldteichfreunde","nudism":"yes","opening_hours":"May-Sep","operator":"Familiensport – und FKK Bund, Waldteichfreunde Moritzburg e.V.","phone":"+49 178 1431135","static_caravans":"yes","tents":"yes","website":"https://www.waldteichfreunde.eu/"}},"7967990974":{"location":[50.9779094,13.8912265],"ct":"DE","tp":"CR","ts":"2020-10-03T06:49:16Z","tX":551,"tY":342,"tags":{"fee":"yes","name":"Badesee Birkwitz","payment:cash":"10€/24h","sanitary_dump_station":"no"}}}