{"35063160":{"location":[50.8028794,14.045649],"ct":"CZ","tp":"CS","ts":"2024-08-28T21:24:50Z","tX":551,"tY":343,"tags":{"cabins":"20","caravans":"yes","currency:CZK":"yes","currency:EUR":"yes","dog":"yes","drinking_water":"yes","email":"rezervace@podcisarem.cz","internet_access":"no","kitchen":"yes","name":"Autokemp Pod Císařem","openfire":"yes","payment:cash":"yes","payment:debit_cards":"no","phone":"+420475222013","power_supply":"yes","reservation":"yes","sanitary_dump_station":"yes","shower":"yes","tents":"yes","toilets":"yes","website":"https://www.podcisarem.cz/"}},"88435043":{"location":[50.7652535,13.7451688],"ct":"DE","tp":"CS","ts":"2023-11-06T23:29:16Z","tX":551,"tY":343,"tags":{"addr:city":"Altenberg","addr:country":"DE","addr:housenumber":"3","addr:postcode":"01773","addr:street":"Galgenteich","caravans":"yes","email":"post@camping-galgenteich.de","name":"Campingplatz \"Kleiner Galgenteich\"","phone":"+49 35056 31995","power_supply":"yes","sanitary_dump_station":"yes","tents":"yes","website":"https://www.camping-galgenteich.de/"}},"156375730":{"location":[50.9038815,14.0380056],"ct":"DE","tp":"CS","ts":"2017-02-01T22:49:12Z","tX":551,"tY":343,"tags":{"addr:city":"Königstein","addr:country":"DE","addr:housenumber":"7","addr:postcode":"01824","addr:street":"Nikolsdorfer Berg","addr:suburb":"Leupoldishain","caravans":"yes","name":"Campingplatz Nikolsdorfer Berg","phone":"+49 35021 99144","tents":"yes","website":"http://www.camping-nikolsdorferberg.de"}},"226083085":{"location":[50.7880746,14.0256548],"ct":"CZ","tp":"CS","ts":"2020-03-08T16:41:25Z","tX":551,"tY":343,"tags":{"name":"Camping Tisá"}},"356802738":{"location":[50.938147,14.0137437],"ct":"DE","tp":"CR","ts":"2023-04-15T13:19:29Z","tX":551,"tY":343,"tags":{"addr:city":"Struppen","addr:country":"DE","addr:housenumber":"20","addr:postcode":"01796","addr:street":"Kirchberg","capacity":"30","charge":"19.5 EUR/d plus Kurtaxe 1.5 EUR/d","email":"info@camping-stellplatz-struppen.de","fee":"yes","internet_access":"yes","motorhome":"designated","name":"Camping-Stellplatz Struppen","phone":"+49 35020 179602","power_supply":"yes","sanitary_dump_station":"yes","tents":"yes","water_point":"yes","website":"https://camping-stellplatz-struppen.de/"}},"440986698":{"location":[50.9220612,14.0478839],"ct":"DE","tp":"PK","ts":"2016-09-06T20:24:02Z","tX":551,"tY":343,"tags":{"fee":"yes","motor_vehicle":"no","motorhome":"yes","parking":"surface","surface":"paving_stones"}},"538847747":{"location":[50.9226199,13.9032741],"ct":"DE","tp":"CR","ts":"2017-11-06T21:58:41Z","tX":551,"tY":343,"tags":{}},"4254821345":{"location":[50.8644452,13.9995708],"ct":"DE","tp":"CS","ts":"2023-10-08T09:46:49Z","tX":551,"tY":343,"tags":{"addr:city":"Bad Gottleuba-Berggießhübel","addr:postcode":"01816","addr:street":"Talstraße","addr:suburb":"Bahra","capacity":"15","description":"Camp auf dem Gelände der Herberge Bahra mit 2 sehr einfachen ungeheizten Klozellen und 2 ebensolchen Duschen. Kein Strom, keine Chemieklo-Entsorgung, keine Abwasser-Entsorgung. Wohnwagen und Wohnmobile bis 1,5t.","fee":"yes","name":"Camp Bahra","operator":"Altei Adventure","phone":"+49 35032 70907","website":"https://www.herberge-bahra.de/"}},"6518726151":{"location":[50.9014274,14.0369439],"ct":"DE","tp":"CS","ts":"2024-10-26T20:19:16Z","tX":551,"tY":343,"tags":{"backcountry":"yes","capacity":"5","caravans":"no","charge":"10 EUR","drinking_water":"no","fee":"yes","maxtents":"5","name":"Nikolsdorf-Biwak","openfire":"no","opening_hours":"Apr-Oct 16:00-10:00","operator":"Sachsenforst","power_supply":"no","shower":"no","source":"survey","tents":"yes","toilets":"yes","website":"https://www.forststeig.sachsen.de/biwakplaetze-3986.html"}},"7666885441":{"location":[50.8121709,14.0571797],"ct":"DE","tp":"CS","ts":"2020-10-11T09:42:58Z","tX":551,"tY":343,"tags":{"backcountry":"yes","capacity":"5","caravans":"no","drinking_water":"no","fee":"yes","maxtents":"5","name":"Zehrborn-Biwak","openfire":"no","opening_hours":"Apr-Oct","operator":"Sachsenforst","picnic_table":"yes","power_supply":"no","ref":"6","shower":"no","tents":"yes","toilets":"yes","website":"https://www.forststeig.sachsen.de/biwakplaetze-3986.html"}},"10808947198":{"location":[50.9381004,14.013201],"ct":"DE","tp":"SD","ts":"2023-04-13T18:18:39Z","tX":551,"tY":343,"tags":{}},"7795962565":{"location":[50.8009255,14.0518363],"ct":"CZ","tp":"CS","ts":"2020-08-08T05:19:11Z","tX":551,"tY":343,"tags":{"addr:housenumber":"29","addr:street":"24814"}},"10923487488":{"location":[50.7858834,14.0130196],"ct":"CZ","tp":"CS","ts":"2023-05-24T06:23:44Z","tX":551,"tY":343,"tags":{"addr:city":"Tisá","addr:housenumber":"538","addr:postcode":"40336","capacity:caravans":"6","capacity:tents":"6","caravans":"yes","fee":"yes","name":"Country House Tisá","static_caravans":"no","tents":"yes"}},"12136574719":{"location":[50.8029595,14.0456273],"ct":"CZ","tp":"SD","ts":"2024-08-25T21:45:55Z","tX":551,"tY":343,"tags":{}},"12482473846":{"location":[50.9456964,13.9418556],"ct":"DE","tp":"CR","ts":"2025-01-08T01:29:36Z","tX":551,"tY":343,"tags":{"caravan_site":"motorhome_stopover","caravan_site:type":"hotel;spa","charge":"25 EUR","charge:conditional":"45@(komfort);65 EUR@(premium)","fee":"yes","name":"Wohnmobilstellplätze Sporthotel Pirna","power_supply":"yes","power_supply:fee":"no","power_supply:maxcurrent":"16","reservation":"no","seasonal":"no","toilets":"yes","website":"https://www.aktiv-sporthotel.de/willkommen/wohnmobil.html"}}}