{"253810930":{"location":[48.5376566,13.7294901],"ct":"DE","tp":"CS","ts":"2023-08-08T09:30:34Z","tX":551,"tY":353,"tags":{"addr:city":"Untergriesbach","addr:housenumber":"11","addr:postcode":"94107","addr:street":"Mitterweg","caravans":"yes","drinking_water":"yes","name":"Franz Josef´s Landresort","power_supply":"yes","shower":"yes","tents":"yes","toilets":"yes"}},"253990422":{"location":[48.5666853,13.7513226],"ct":"DE","tp":"CS","ts":"2020-08-04T21:04:04Z","tX":551,"tY":353,"tags":{"name":"Jugendzeltdorf am Rannasee"}},"285480262":{"location":[48.5127022,13.7230266],"ct":"AT","tp":"CS","ts":"2023-07-06T11:16:36Z","tX":551,"tY":353,"tags":{"addr:city":"Engelhartszell","addr:country":"AT","addr:housenumber":"113","addr:postcode":"4090","addr:street":"Nibelungenstraße","name":"Camping an der Donau","toilets":"no","website":"https://www.camping-engelhartszell.at/"}},"530758273":{"location":[48.6780045,13.8623797],"ct":"AT","tp":"CS","ts":"2022-08-24T16:58:48Z","tX":551,"tY":353,"tags":{"capacity":"5","email":"office@boehmerwaldgolf.at","internet_access":"yes","internet_access:fee":"no","name":"Wohnmobilstellplatz am Golfplatz Böhmerwald","operator":"KPSW Tourismus GmbH","website":"http://boehmerwaldgolf.at/camping,13502"}},"1019439677":{"location":[48.579505,14.0385157],"ct":"AT","tp":"CS","ts":"2022-01-08T14:09:11Z","tX":551,"tY":353,"tags":{"name":"Campingplatz Haslach"}},"1089470284":{"location":[48.5120705,13.7247636],"ct":"AT","tp":"CS","ts":"2022-08-26T13:50:06Z","tX":551,"tY":353,"tags":{"addr:city":"Engelhartszell","addr:housenumber":"113","addr:postcode":"4090","addr:street":"Nibelungenstraße","name":"Camping an der Donau","website":"https://www.camping-engelhartszell.at/"}},"4623416790":{"location":[48.5251259,14.0167942],"ct":"AT","tp":"CS","ts":"2023-11-07T08:02:08Z","tX":551,"tY":353,"tags":{"name":"Camping Mühlviertelblick","name:nl":"svr camping nr 2","website":"https://www.camping-muehlviertel.at/index.php?id=103"}},"12215535584":{"location":[48.6696744,13.9128408],"ct":"AT","tp":"CS","ts":"2024-10-02T07:40:08Z","tX":551,"tY":353,"tags":{"contact:email":"michoe-naturflussbad@gmx.at","contact:facebook":"https://www.facebook.com/naturflussbad/","contact:phone":"+43 650 9085194","contact:website":"https://www.ulrichsberg.at/Campingmoeglichkeit_beim_Naturflussbad","name":"Campingmöglichkeit beim Naturflussbad"}}}