{"14052217":{"location":[48.448712,13.8642857],"ct":"AT","tp":"CS","ts":"2022-06-13T06:14:43Z","tX":551,"tY":354,"tags":{"addr:city":"Haibach ob der Donau","addr:housenumber":"6","addr:place":"Inzell","addr:postcode":"4083","camp_site":"serviced","caravans":"yes","contact:phone":"+436642347314;+43 7279 8328","contact:website":"https://www.gasthof-steindl.com/","fee":"yes","motor_vehicle":"yes","power_supply":"yes","sanitary_dump_station":"yes","shower":"yes","tents":"yes","toilets":"yes"}},"150257859":{"location":[48.4190934,13.9868264],"ct":"AT","tp":"CS","ts":"2023-11-10T06:10:57Z","tX":551,"tY":354,"tags":{"addr:city":"Aschach","addr:country":"AT","addr:housenumber":"1","addr:postcode":"4082","addr:street":"Kaiserau","caravans":"yes","fax":"+437273622113","name":"Kaiserhof","phone":"+43727362210","source":"geoimage.at","tents":"yes","website":"https://www.pension-kaiserhof.at/","wheelchair":"no"}},"258096127":{"location":[48.4236569,13.867215],"ct":"AT","tp":"CS","ts":"2024-11-18T14:44:57Z","tX":551,"tY":354,"tags":{"caravans":"yes","drinking_water":"yes","name":"Camping Schlögen","tents":"no","website":"https://www.freizeitanlage-schloegen.at/terrassencamping","wheelchair":"no"}},"667669810":{"location":[48.4545468,13.8163358],"ct":"AT","tp":"CR","ts":"2024-03-01T14:59:11Z","tX":551,"tY":354,"tags":{"addr:city":"Waldkirchen am Wesen","addr:country":"AT","addr:housenumber":"73","addr:place":"Wesenufer","addr:postcode":"4085","description":"Nur für Dauercamper","name":"Nibelungen Camping","website":"http://www.nibelungen-camping.com/#Start"}},"694355857":{"location":[48.4324543,13.8706537],"ct":"AT","tp":"CS","ts":"2023-11-10T06:11:05Z","tX":551,"tY":354,"tags":{"backcountry":"yes","capacity:tents":"15","caravans":"no","fee":"yes","motor_vehicle":"no","name":"Camping Pumberger","openfire":"yes","operator":"Familie Pumberger","phone":"+4372856317","tents":"yes","website":"https://radfaehre.at/"}},"9674292657":{"location":[48.4484913,13.8644929],"ct":"AT","tp":"SD","ts":"2022-04-18T13:30:52Z","tX":551,"tY":354,"tags":{"access":"customers"}}}