{"82559626":{"location":[47.9027598,13.7700433],"ct":"AT","tp":"CS","ts":"2024-08-26T19:01:56Z","tX":551,"tY":356,"tags":{"caravans":"yes","name":"Camping Traunsee","tents":"yes"}},"222284879":{"location":[47.809563,13.7897508],"ct":"AT","tp":"CR","ts":"2021-05-31T19:46:17Z","tX":551,"tY":356,"tags":{"access":"yes","capacity":"30","caravans":"yes","dog":"no","fee":"yes","maxstay":"3 nights","name":"Stellplatz Freizeitanlage Rindbach","operator":"Marktgemeinde Ebensee am Traunsee","operator:type":"public","parking":"surface","power_supply":"no","supervised":"no","surface":"grass","tents":"no","water_point":"yes"}},"602640973":{"location":[47.8669676,13.778309],"ct":"AT","tp":"CS","ts":"2019-03-29T08:56:40Z","tX":551,"tY":356,"tags":{"caravans":"yes","name":"Strandcamping Traunkirchen","phone":"+43 66038 45 070","tents":"yes","website":"https://strandcamping-traunkirchen.jimdo.com/"}},"619862872":{"location":[47.8129053,13.7774452],"ct":"AT","tp":"CR","ts":"2023-11-21T00:33:16Z","tX":551,"tY":356,"tags":{"access":"yes","addr:city":"Ebensee","addr:country":"AT","addr:postcode":"4802","addr:street":"Trauneck","capacity":"12","description":"15,00€ / 1d 22,50€ / 2d 30,00€ / 3d 0,50€ for water or power","fee":"yes","maxstay":"3 days","name":"Wohnmobilplatz Ebensee","operator":"Marktgemeinde Ebensee","power_supply":"yes","sanitary_dump_station":"yes","url":"https://traunsee.salzkammergut.at/hotels-und-unterkuenfte/camping/oesterreich/unterkunft/430010932/stellplatz-trauneck.html"}},"835657970":{"location":[47.9157621,13.9732421],"ct":"AT","tp":"CS","ts":"2024-07-07T09:36:21Z","tX":551,"tY":356,"tags":{"addr:city":"Scharnstein","addr:country":"AT","addr:housenumber":"1a","addr:place":"Viechtwang","addr:postcode":"4644","area":"yes","capacity":"49","caravans":"yes","drinking_water":"yes","email":"office@almcamp.at","name":"Schatzlmühle","phone":"+43 7615 20269","power_supply":"yes","shower":"yes","tents":"yes","toilets":"yes","website":"https://www.almcamp.at/"}},"1016963162":{"location":[47.9112938,13.7871186],"ct":"AT","tp":"CR","ts":"2024-05-13T21:38:10Z","tX":551,"tY":356,"tags":{"access":"no","capacity":"5","charge":"24 EUR","fee":"yes","name":"Toscanapark","power_supply":"no","sanitary_dump_station":"no","water_point":"no","website":"https://traunsee-almtal.salzkammergut.at/oesterreich-poi/detail/430002289/parkplatz-toscana.html"}},"7942308042":{"location":[47.8344624,13.9494683],"ct":"AT","tp":"CS","ts":"2023-09-15T15:12:57Z","tX":551,"tY":356,"tags":{"access":"permissive","bicycle":"yes","brand":"Bosch eBike Systems","capacity":"9","description":"ca. 2,5 h für PowerPack 300, ca. 2,5 h für PowerPack und PowerTube 400, 3 h für PowerPack und PowerTube 500, ca. 3,7 h für PowerTube 625. 50% einer Batterieladung etwas über 1 h","fee":"no","motorcar":"no","name":"JUFA Hotel Almtal Bosch Ladepunkt","operator":"JUFA Hotel Almtal","route_ref":"S800","scooter":"no","start_date":"2020-06-30","truck":"no","website":"https://etrail.salzkammergut.at"}},"12782158349":{"location":[47.8667122,13.7662135],"ct":"AT","tp":"CS","ts":"2025-04-24T07:55:32Z","tX":551,"tY":356,"tags":{"addr:housenumber":"8","addr:street":"Im Feld","name":"Camping Maurerhäusl am Salzkammergut","phone":"0676 7888451"}}}