{"135107800":{"location":[47.6284019,13.7744363],"ct":"AT","tp":"CS","ts":"2020-01-20T17:03:23Z","tX":551,"tY":357,"tags":{"alt_name":"Camping Plattenkogel","cabins":"no","caravans":"yes","charge":"23€/tent","dog":"no","drinking_water":"yes","fee":"yes","internet_access":"yes","internet_access:fee":"no","motor_vehicle":"yes","name":"Camping Temel","operator":"Temel","phone":"+43 3622 71968","power_supply":"yes","sanitary_dump_station":"yes","static_caravans":"no","swimming_pool":"no","tents":"yes","washing_machine":"yes","website":"https://www.camping-altaussee.com/"}},"504749790":{"location":[47.6166537,13.8125825],"ct":"AT","tp":"CS","ts":"2023-07-10T16:08:53Z","tX":551,"tY":357,"tags":{"operator":"Gasthof Staud'nwirt"}},"687964658":{"location":[47.555459,13.9218675],"ct":"AT","tp":"CS","ts":"2019-05-05T14:28:09Z","tX":551,"tY":357,"tags":{"addr:city":"Bad Mitterndorf","addr:housenumber":"338","addr:postcode":"8983","addr:street":"Bad Mitterndorf","capacity":"37","fee":"yes","name":"Camping & Pension Grimmingsicht"}},"1186896429":{"location":[47.638491,13.9021824],"ct":"AT","tp":"CS","ts":"2023-07-03T16:34:12Z","tX":551,"tY":357,"tags":{"name":"See Camping Grundlsee","website":"https://www.campinggrundlsee.at/"}},"1186896430":{"location":[47.6381532,13.9037669],"ct":"AT","tp":"CS","ts":"2023-11-02T01:38:19Z","tX":551,"tY":357,"tags":{"addr:city":"Grundlsee","addr:housenumber":"17","addr:place":"Gößl","addr:postcode":"8993","caravans":"yes","drinking_water":"yes","email":"office@campinggoessl.com","motorhome":"yes","name":"Camping Gössl","operator":"Familie Bischof","phone":"+43 3622 20155","power_supply":"yes","surface":"grass","tents":"yes","toilets:wheelchair":"yes","washing_machine":"yes","website":"https://www.campinggoessl.com/","wheelchair":"limited","wheelchair:description":"Es gibt einen Rollstuhlgerechten Nassraum mit Dusche und WC, der ist allerdings nicht gekennzeichnet und verfügt (Stand Sommer 2017) auch nicht über ein Euro-Key-Schloss. Die Chefin am Platz ist aber sehr hilfsbereit und händigt gerne einen Schlüssel aus."}},"1216414488":{"location":[47.622001,13.7525691],"ct":"AT","tp":"CR","ts":"2023-10-18T07:58:38Z","tX":551,"tY":357,"tags":{"contact:email":"schutzhaus@caravanpark-ausseerland.at","contact:phone":"+43 664 45 30 833","name":"Caravanpark Ausseerland","website":"https://www.caravanpark-ausseerland.at/"}},"9975023960":{"location":[47.5486183,13.9926681],"ct":"AT","tp":"CS","ts":"2022-08-24T14:27:10Z","tX":551,"tY":357,"tags":{"contact:email":"christoph@auszeit-ausseerland.at","contact:phone":"+43 676 77 09 494","name":"Camping Auszeit","website":"https://www.auszeit-ausseerland.at/camping/"}},"6719076901":{"location":[47.6287455,13.774001],"ct":"AT","tp":"SD","ts":"2019-09-26T20:29:03Z","tX":551,"tY":357,"tags":{"access":"customers","sanitary_dump_station:chemical_toilet":"yes","sanitary_dump_station:grey_water":"yes"}}}