{"2323924":{"location":[46.6639617,13.9738812],"ct":"AT","tp":"CS","ts":"2023-03-20T20:45:14Z","tX":551,"tY":361,"tags":{"alt_name":"Terrassencamping Ossiach Martinz GmbH & Co KG","cabins":"yes","caravans":"yes","email":"martinz@camping.at","name":"Ossiacher See","phone":"+43 4243 436","shower":"yes","tents":"yes","toilets":"yes","website":"https://terrassen.camping.at/"}},"2323925":{"location":[46.6627614,13.9715047],"ct":"AT","tp":"CS","ts":"2023-03-20T20:45:14Z","tX":551,"tY":361,"tags":{"caravans":"yes","cash_withdrawal:fee":"yes","email":"info@camping-koelbl.at","internet_access":"wlan","internet_access:fee":"no","name":"Kölbl","nudism":"no","phone":"+43 4243 8223","sanitary_dump_station":"yes","shower":"yes","tents":"yes","toilets":"yes","website":"https://www.camping-koelbl.at"}},"15797727":{"location":[46.5707309,13.9057373],"ct":"AT","tp":"CS","ts":"2023-05-02T11:30:27Z","tX":551,"tY":361,"tags":{"addr:housenumber":"19","addr:street":"Kirchenweg","check_date":"2023-04-30","name":"Familien-Erlebnis-Camping Poglitsch","phone":"+43 4254 2718","ref:vatin":"ATU39980507","website":"https://www.kindercamping.at"}},"57710039":{"location":[46.632583,13.8578043],"ct":"AT","tp":"CS","ts":"2018-10-08T16:42:54Z","tX":551,"tY":361,"tags":{"addr:city":"Villach","addr:country":"AT","addr:housenumber":"100","addr:postcode":"9500","addr:street":"Treffner Straße","name":"Camping Seehof"}},"113012752":{"location":[46.656942,13.8868843],"ct":"AT","tp":"CS","ts":"2017-05-21T00:42:22Z","tX":551,"tY":361,"tags":{"source":"basemap.at"}},"116111757":{"location":[46.6566681,13.8927684],"ct":"AT","tp":"CS","ts":"2024-01-15T07:15:47Z","tX":551,"tY":361,"tags":{"addr:city":"Annenheim","addr:country":"AT","addr:housenumber":"109","addr:postcode":"9520","addr:street":"Seeuferstraße","caravans":"yes","contact:email":"office@camping-ossiachersee.at","contact:phone":"+43 4248 2757","contact:website":"https://www.camping-ossiachersee.at/","internet_access":"yes","internet_access:fee":"yes","name":"Camping Ossiacher See (lake.bike Basecamp)","power_supply":"yes","shower":"yes","smoking":"yes","source":"basemap.at","tents":"yes"}},"118446965":{"location":[46.5749766,13.9345395],"ct":"AT","tp":"CS","ts":"2022-04-25T16:01:30Z","tX":551,"tY":361,"tags":{"addr:city":"Faak am See","addr:country":"AT","addr:housenumber":"53","addr:postcode":"9583","addr:street":"Seeuferlandesstraße","cabins":"no","caravans":"yes","contact:email":"camping@arneitz.at","contact:fax":"+43 4254 24535","contact:phone":"+43 4254 2137","dog":"leashed","drinking_water":"yes","fee":"yes","internet_access":"yes","internet_access:fee":"no","motor_vehicle":"yes","name":"Camping Arneitz","openfire":"no","payment:cash":"yes","payment:credit_cards":"no","payment:maestro":"yes","permanent_camping":"no","phone":"+43 4254 2137","power_supply":"yes","reservation":"no","sanitary_dump_station":"yes","shower":"yes","source":"survey","static_caravans":"no","tents":"yes","toilets":"yes","washing_machine":"yes","website":"http://www.camping-arneitz.at","wheelchair":"yes"}},"126300805":{"location":[46.5724507,13.9328315],"ct":"AT","tp":"CS","ts":"2023-11-07T14:00:32Z","tX":551,"tY":361,"tags":{"addr:city":"Faak am See","addr:country":"AT","addr:housenumber":"3","addr:postcode":"9583","addr:street":"Strand-Nord","cabins":"yes","caravans":"yes","contact:email":"info@strandcamping.at","contact:fax":"+43 4254 2298-7","contact:phone":"+43 4254 2298","dog":"yes","fee":"yes","internet_access":"wlan","internet_access:fee":"no","name":"Strandcamping Gruber","operator":"C. Skrube","reservation":"yes","shower":"yes","swimming_pool":"no","tents":"yes","toilets":"yes","website":"https://www.strandcamping.at/"}},"158493347":{"location":[46.6152627,13.8071615],"ct":"AT","tp":"CS","ts":"2021-06-20T19:12:31Z","tX":551,"tY":361,"tags":{"access":"yes","addr:city":"Villach","addr:housenumber":"23","addr:postcode":"9500","addr:street":"Badstraße","caravans":"yes","fee":"yes","name":"Camping Gerli","operator":"Gerlinde Johanna Meidl","phone":"+43 4242 57402","playground":"yes","power_supply":"yes","sanitary_dump_station":"yes","shower":"yes","swimming_pool":"yes","tents":"yes","toilets":"yes","washing_machine":"yes","website":"https://www.campinggerli.at"}},"173998890":{"location":[46.6545598,13.9369515],"ct":"AT","tp":"CS","ts":"2021-12-16T07:58:27Z","tX":551,"tY":361,"tags":{"addr:city":"Villach","addr:country":"AT","addr:housenumber":"265","addr:postcode":"9523","addr:street":"Ossiachersee Süduferstraße","internet_access":"wlan","internet_access:fee":"yes","name":"Seecamping Mentl"}},"222345548":{"location":[46.5738106,13.933499],"ct":"AT","tp":"CS","ts":"2023-06-29T15:52:32Z","tX":551,"tY":361,"tags":{"addr:city":"Faak am See","addr:country":"AT","addr:housenumber":"4","addr:postcode":"9583","addr:street":"Strand Nord","caravans":"yes","contact:email":"office@campinganderwald.at","contact:fax":"+43 4254 2297-7","contact:phone":"+43 4254 2297","drinking_water":"yes","fee":"yes","full_name":"Strandcamping Anderwald GmbH","internet_access":"yes","name":"Anderwald","power_supply":"yes","reservation":"yes","sanitary_dump_station":"yes","shower":"yes","swimming_pool":"no","tents":"yes","toilets":"yes","washing_machine":"yes","website":"https://www.campinganderwald.at/de/","wheelchair":"yes"}},"226713007":{"location":[46.5673197,13.9265166],"ct":"AT","tp":"CR","ts":"2014-05-10T21:30:59Z","tX":551,"tY":361,"tags":{}},"285950344":{"location":[46.6784337,13.9709802],"ct":"AT","tp":"CS","ts":"2024-09-23T18:12:27Z","tX":551,"tY":361,"tags":{"cabins":"yes","capacity:pitches":"70","caravans":"yes","email":"office@blasge.at","internet_access":"wlan","name":"Camping Blasge","phone":"+43 664 4232006","shower":"yes","tents":"yes","toilets":"yes","website":"https://www.blasge.at/"}},"286460943":{"location":[46.6072625,14.0499301],"ct":"AT","tp":"CR","ts":"2024-04-02T19:14:04Z","tX":551,"tY":361,"tags":{"beds":"0","capacity":"24","fee":"yes","internet_access":"wlan","internet_access:fee":"no","power_supply":"yes","reservation":"no","rooms":"0"}},"288487508":{"location":[46.6931736,13.9908296],"ct":"AT","tp":"CS","ts":"2024-06-27T19:10:24Z","tX":551,"tY":361,"tags":{"caravans":"yes","contact:website":"http://www.camping-morgenfurt.at/","drinking_water":"yes","name":"Camping Morgenfurt","power_supply":"no","sanitary_dump_station":"yes","shower":"yes","tents":"yes","toilets":"yes","wheelchair":"yes"}},"294205296":{"location":[46.7369712,13.7692921],"ct":"AT","tp":"CS","ts":"2024-07-25T18:24:26Z","tX":551,"tY":361,"tags":{"caravans":"yes","drinking_water":"yes","name":"Camping Bodner","tents":"yes"}},"351328157":{"location":[46.5966073,13.8929308],"ct":"AT","tp":"CS","ts":"2021-04-26T00:35:13Z","tX":551,"tY":361,"tags":{"access":"customers","addr:city":"Villach","addr:country":"AT","addr:housenumber":"9","addr:postcode":"9580","addr:street":"Fuchsbichlweg","capacity":"98","charge":"27,50 EUR","fee":"yes","min_age":"18","name":"Camping Mittewald","nudism":"yes","website":"https://www.das-wohnzimmer.com/camping/"}},"368374413":{"location":[46.6539403,13.931603],"ct":"AT","tp":"CS","ts":"2023-05-27T21:30:06Z","tX":551,"tY":361,"tags":{"addr:city":"Landskron","addr:country":"AT","addr:housenumber":"241","addr:postcode":"9523","addr:street":"Ossiachersee Süduferstraße","name":"Seecamping Berghof","website":"https://www.seecamping-berghof.at/"}},"377957377":{"location":[46.6835257,13.999054],"ct":"AT","tp":"CS","ts":"2024-09-16T11:52:15Z","tX":551,"tY":361,"tags":{"addr:housenumber":"57","addr:place":"Alt-Ossiach","addr:postcode":"9570","caravans":"yes","contact:email":"camping@lampele.at","contact:website":"https://lampele.at/","fee":"yes","name":"Ideal Camping Lampele (lake.bike Basecamp)","payment:cash":"yes","payment:credit_cards":"yes","payment:debit_cards":"yes","phone":"+43 4243 529","static_caravans":"yes","tents":"yes"}},"437071450":{"location":[46.6551377,13.9392842],"ct":"AT","tp":"CS","ts":"2016-08-21T16:11:19Z","tX":551,"tY":361,"tags":{"addr:city":"Villach","addr:country":"AT","addr:postcode":"9523","addr:street":"Ossiachersee Süduferstraße","internet_access":"wlan","internet_access:fee":"yes","name":"Seecamping Plörz"}},"438281740":{"location":[46.6946857,13.9971199],"ct":"AT","tp":"CS","ts":"2024-01-15T07:14:54Z","tX":551,"tY":361,"tags":{"caravans":"yes","drinking_water":"yes","internet_access":"wlan","name":"Seecamping Hoffmann (lake.bike Basecamp)","power_supply":"yes","shower":"yes","tents":"yes","toilets":"yes","toilets:wheelchair":"limited","wheelchair":"limited"}},"450200300":{"location":[46.6657642,13.9757141],"ct":"AT","tp":"CS","ts":"2024-04-19T08:25:06Z","tX":551,"tY":361,"tags":{"alt_name":"Wellness Seecamping Landhaus-Ferienwohnungen Parth","cabins":"yes","caravans":"yes","email":"office@parth.at","name":"Wellness und Seecamping Parth (lake.bike Basecamp)","phone":"+43 4243 27 44","shower":"yes","tents":"yes","toilets":"yes"}},"468778105":{"location":[46.7795215,13.9524177],"ct":"AT","tp":"CS","ts":"2019-03-26T02:31:59Z","tX":551,"tY":361,"tags":{"designation":"Camping Hobitsch","landuse":"grass","name":"Camping Hobitsch","website":"https://www.camping-hobitsch.at/"}},"514437844":{"location":[46.5701316,13.9518394],"ct":"AT","tp":"CS","ts":"2022-09-14T16:58:05Z","tX":551,"tY":361,"tags":{"contact:phone":"+43 4254 2670","name":"Ferien am Walde","operator":"Franz Anderwald"}},"622462661":{"location":[46.5899868,14.020778],"ct":"AT","tp":"CS","ts":"2023-12-22T23:21:13Z","tX":551,"tY":361,"tags":{"addr:city":"Rosegg","addr:housenumber":"4","addr:postcode":"9232","addr:street":"Schulweg","caravan_site":"motorhome_stopover","caravan_site:type":"restaurant","charge":"12 EUR + 3 EUR/pax","charge:conditional":"16 EUR + 3EUR/pax@weight>3.5","check_in":"08:00-22:00","check_out":"12:00","dog":"yes","dog:charge":"2 EUR","dog:fee":"yes","name":"Camping-Stellplatz Roseggerhof","opening_hours":"Apr-Oct","power_supply":"yes","power_supply:fee":"no","surface":"grass","toilets":"yes","water_point":"yes","website":"http://www.roseggerhof.com/camping/index.html"}},"811254721":{"location":[46.7385075,13.7679744],"ct":"AT","tp":"CS","ts":"2024-07-25T18:22:19Z","tX":551,"tY":361,"tags":{"caravans":"yes","name":"Camping Altseewirth","tents":"yes"}},"811254737":{"location":[46.7375124,13.7703427],"ct":"AT","tp":"CS","ts":"2024-05-20T06:38:09Z","tX":551,"tY":361,"tags":{"caravans":"yes","drinking_water":"yes","name":"Camping Glinzner","power_supply":"yes","static_caravans":"yes","website":"https://www.glinzner.at/"}},"1083281260":{"location":[46.6876931,14.0195498],"ct":"AT","tp":"CS","ts":"2024-06-27T15:10:43Z","tX":551,"tY":361,"tags":{"addr:city":"Ossiach","addr:housenumber":"108","addr:place":"Alt-Ossiach","addr:postcode":"9570","caravans":"yes","drinking_water":"yes","name":"Camping Kalkgruber","name:nl":"svr camping nr 9","power_supply":"no","shower":"yes","tents":"yes","website":"https://www.camping-kalkgruber.at/"}},"1239713309":{"location":[46.5902241,13.9138635],"ct":"AT","tp":"CS","ts":"2011-04-10T11:50:01Z","tX":551,"tY":361,"tags":{"addr:city":"Villach","addr:country":"AT","addr:housenumber":"19","addr:postcode":"9580","addr:street":"Greuther Weg","name":"Wiesencamping Marhof"}},"1602092250":{"location":[46.5699848,13.9072084],"ct":"AT","tp":"CR","ts":"2016-06-16T16:18:43Z","tX":551,"tY":361,"tags":{"name":"Camping Poglitsch","toilets:wheelchair":"no","wheelchair":"yes"}},"3723258104":{"location":[46.6061739,13.9082364],"ct":"AT","tp":"CR","ts":"2020-06-29T19:41:29Z","tX":551,"tY":361,"tags":{"charge":"10€/day","fee":"yes","power_supply":"yes"}},"3763248116":{"location":[46.579619,13.968441],"ct":"AT","tp":"CS","ts":"2024-08-22T03:01:49Z","tX":551,"tY":361,"tags":{"caravans":"no","drinking_water":"yes","internet_access":"terminal","name":"Techuana","openfire":"yes","phone":"++43 680 2309969","power_supply":"yes","scout":"yes","shower":"yes","tents":"yes","toilets":"yes","toilets:wheelchair":"yes","website":"https://www.techuana.at/","wheelchair":"limited"}},"6270296544":{"location":[46.7642423,13.7544758],"ct":"AT","tp":"CS","ts":"2022-09-05T13:23:51Z","tX":551,"tY":361,"tags":{"addr:city":"Feld am See","addr:country":"AT","addr:housenumber":"23","addr:postcode":"9544","addr:street":"Alte Bundesstraße","at_bev:addr_date":"2017-10-01"}},"9004938817":{"location":[46.6952469,14.0092796],"ct":"AT","tp":"CS","ts":"2021-08-13T17:50:33Z","tX":551,"tY":361,"tags":{"alt_name":"Seecamping Laggner","name":"See-Areal Steindorf","operator":"Laggner"}},"9921878410":{"location":[46.6956245,14.0051141],"ct":"AT","tp":"CS","ts":"2022-07-31T07:53:47Z","tX":551,"tY":361,"tags":{"name":"See camping Nagele"}},"11267808599":{"location":[46.6195995,14.0552498],"ct":"AT","tp":"CR","ts":"2023-10-16T20:18:37Z","tX":551,"tY":361,"tags":{"addr:housenumber":"33","addr:street":"Klagenfurter Straße","description":"Stellplätze am Golfplatz"}},"6618716056":{"location":[46.6554567,13.8922669],"ct":"AT","tp":"SD","ts":"2019-07-16T09:46:43Z","tX":551,"tY":361,"tags":{}},"10857956088":{"location":[46.5700636,13.9057903],"ct":"AT","tp":"SD","ts":"2023-04-30T13:38:21Z","tX":551,"tY":361,"tags":{"access":"customers","water_point":"yes"}},"11781133381":{"location":[46.6071395,14.0497494],"ct":"AT","tp":"SD","ts":"2024-04-02T19:14:04Z","tX":551,"tY":361,"tags":{"access":"customers","fee":"no"}},"12180075619":{"location":[46.6827952,13.9985651],"ct":"AT","tp":"SD","ts":"2024-09-16T11:43:34Z","tX":551,"tY":361,"tags":{"access":"customers","operator":"Ideal Camping Lampele","water_point":"yes"}}}