{"17857044":{"location":[46.1320771,13.969059],"ct":"SI","tp":"CS","ts":"2024-07-20T16:36:31Z","tX":551,"tY":363,"tags":{"addr:city":"Cerkno","addr:housenumber":"3","addr:postcode":"5282","addr:street":"Zakriž","email":"kmetija.zalaze@gmail.com","name":"Kmetija Camp Zalaze","phone":"+386 31 569 246","website":"https://kmetija-camp-zalaze.si/"}},"17857059":{"location":[46.1321122,13.9692263],"ct":"SI","tp":"CR","ts":"2024-07-19T19:13:14Z","tX":551,"tY":363,"tags":{"access":"customers","capacity":"10","parking":"surface","surface":"fine_gravel","tents":"no"}},"223948298":{"location":[46.2749205,13.9477271],"ct":"SI","tp":"CS","ts":"2024-07-07T19:57:55Z","tX":551,"tY":363,"tags":{"addr:city":"Bohinjska Bistrica","addr:country":"SI","addr:housenumber":"60","addr:postcode":"4264","addr:street":"Triglavska cesta","caravans":"yes","contact:phone":"+386 4 5721702","contact:website":"https://tdbohinj.si/kamp-danica/","drinking_water":"yes","fee":"yes","name":"Kamp Danica","operator":"TD Bohinj","payment:cash":"yes","payment:credit_cards":"yes","power_supply":"yes","sanitary_dump_station":"yes","shower":"yes","static_caravans":"yes","tents":"yes","toilets":"yes"}},"285022159":{"location":[46.2678023,13.8951266],"ct":"SI","tp":"CS","ts":"2022-09-28T05:47:09Z","tX":551,"tY":363,"tags":{"backcountry":"yes","caravans":"no","contact:phone":"+386 4 5746240","contact:website":"http://www.gozdnasola-zts.si/","group_only":"yes","name":"Laški Rovt Scout Camp","openfire":"yes","operator":"Gozdna šola Zveze tabornikov Slovenije","scout":"yes","source":"GPS","tents":"yes"}},"285026474":{"location":[46.280654,13.8501168],"ct":"SI","tp":"CS","ts":"2018-09-03T21:53:26Z","tX":551,"tY":363,"tags":{"addr:city":"Bohinjsko jezero","addr:country":"SI","addr:housenumber":"3","addr:postcode":"4265","addr:street":"Ukanc","area":"yes","caravans":"no","group_only":"yes","name":"ZTS National training Centre Gozdna šola","operator":"Gozdna šola Zveze tabornikov Slovenije","scout":"yes","tents":"yes","toilets:wheelchair":"no","website":"http://www.gozdnasola-zts.si/"}},"528383792":{"location":[46.1665715,13.871351],"ct":"SI","tp":"CS","ts":"2024-04-19T10:21:03Z","tX":551,"tY":363,"tags":{"addr:city":"Grahovo ob Bači","addr:housenumber":"64","addr:postcode":"5242","addr:street":"Koritnica","caravans":"yes","email":"camp.sorli@gmail.com","internet_access":"yes","internet_access:fee":"no","name":"Kamp Šorli Koritnica","name:en":"Camping Sorli Koritnica","phone":"+38641435261","source":"GURS","source_dat":"2021","tents":"yes","website":"https://www.camp-koritnica.com/"}},"710621142":{"location":[46.1606074,13.7418515],"ct":"SI","tp":"CS","ts":"2022-08-26T05:29:14Z","tX":551,"tY":363,"tags":{"addr:city":"Most na Soči","addr:housenumber":"2g","addr:postcode":"5216","addr:street":"Modrejce","caravans":"no","contact:email":"info@senca-sotorisce.si","contact:phone":"+ 386 40 942 364","fee":"yes","name":"Šotorišče Senca","shower":"yes","tents":"yes","toilets":"yes","website":"https://senca-sotorisce.si"}},"715303365":{"location":[46.279049,13.8360262],"ct":"SI","tp":"CS","ts":"2024-10-11T23:21:48Z","tX":551,"tY":363,"tags":{"addr:city":"Bohinjsko Jezero","addr:country":"SI","addr:housenumber":"5","addr:postcode":"4265","addr:street":"Ukanc","caravans":"yes","drinking_water":"yes","email":"info@camp-bohinj.si","internet_access":"wlan","internet_access:fee":"no","name":"Kamp Bohinj Zlatorog","operator":"Kamp Zlatorog d.o.o.","phone":"+386 599 23 648","power_supply":"yes","sanitary_dump_station":"yes","shower":"yes","tents":"yes","toilets":"yes","website":"https://www.camp-bohinj.si/"}},"715907893":{"location":[46.1815861,13.7181537],"ct":"SI","tp":"CS","ts":"2022-07-10T19:16:10Z","tX":551,"tY":363,"tags":{"caravans":"no","drinking_water":"yes","internet_access":"wlan","internet_access:fee":"no","landuse":"forest","leaf_type":"broadleaved","name":"Labrca Outdoor Center","opening_hours":"Mo-Su 11:00-21:30","operator":"Labrca Outdoor Center","power_supply":"no","tents":"yes","washing_machine":"no"}},"940671929":{"location":[46.2760828,13.9592661],"ct":"SI","tp":"CR","ts":"2022-08-22T11:09:22Z","tX":551,"tY":363,"tags":{"area":"yes"}},"1297392762":{"location":[46.1807499,13.7174171],"ct":"SI","tp":"CS","ts":"2024-06-29T16:36:19Z","tX":551,"tY":363,"tags":{"access":"customers","caravans":"yes","fee":"yes","name":"Kamp Labrca","operator":"Maya","static_caravans":"no","tents":"yes","website":"https://www.maya.si/labrca/kamp/"}},"1322810835":{"location":[46.1714369,13.7454128],"ct":"SI","tp":"CR","ts":"2024-11-07T08:45:41Z","tX":551,"tY":363,"tags":{"charge":"24 EUR/day","fee":"yes","name":"PZA Skrin Tolmin","website":"https://avtokampi.si/kampi/pza-skrin-tolmin"}},"4987217725":{"location":[46.1802487,13.7385314],"ct":"SI","tp":"CS","ts":"2024-05-30T17:27:32Z","tX":551,"tY":363,"tags":{"addr:city":"Tolmin","addr:housenumber":"92A","addr:postcode":"5220","addr:street":"Poljubinj","caravans":"yes","fee":"yes","internet_access":"wlan","internet_access:fee":"yes","name":"Kamp Siber","operator":"Čujec Igor s.p.","phone":"+386 51 469 558","ref:gurs:hs_mid":"19900754","tents":"yes","website":"http://www.campsibertolmin.si/en/","wheelchair":"limited"}},"6636997698":{"location":[46.2421467,14.0091169],"ct":"SI","tp":"CS","ts":"2019-07-25T08:23:38Z","tX":551,"tY":363,"tags":{"name":"Soriška planina","opening_hours":"Mo-Su 10:00-22:00","website":"https://www.soriska-planina.si/campsite_caravan_park"}},"5029905721":{"location":[46.276406,13.9594582],"ct":"SI","tp":"CR","ts":"2017-08-12T05:53:59Z","tX":551,"tY":363,"tags":{}},"6732221251":{"location":[46.2913823,13.9297359],"ct":"SI","tp":"CR","ts":"2019-08-21T15:04:18Z","tX":551,"tY":363,"tags":{"capacity":"80","internet_access":"no","power_supply":"yes","sanitary_dump_station":"yes","source":"Bing","tents":"no","toilets":"yes"}},"6732221252":{"location":[46.2910479,13.9302293],"ct":"SI","tp":"SD","ts":"2022-05-01T13:45:05Z","tX":551,"tY":363,"tags":{"drinking_water":"yes","sanitary_dump_station:gravity":"yes","source":"gpx"}},"8952220056":{"location":[46.2751017,13.9487135],"ct":"SI","tp":"SD","ts":"2024-07-07T19:39:07Z","tX":551,"tY":363,"tags":{"fee":"no"}}}