{"251937878":{"location":[45.942351,13.7182747],"ct":"SI","tp":"CS","ts":"2024-08-01T14:50:06Z","tX":551,"tY":364,"tags":{"addr:city":"Šempas","addr:country":"SI","addr:housenumber":"6a","addr:postcode":"5261","addr:street":"Ozeljan","camp_site":"reception","caravans":"yes","contact:email":"info@camplijak.com","contact:fax":"+386 5 3079619","contact:phone":"+386 5 3088 557","contact:website":"http://www.camplijak.com","description":"We are a family campsite offering a range of pampering treatments to refresh your body and soul! Lijak Campsite is located in the sunny Vipava Valley.","drinking_water":"yes","internet_access":"wlan","internet_access:fee":"yes","name":"Kamp Park Lijak","opening_hours":"24/7","power_supply":"yes","shower":"yes","tents":"yes"}},"389536038":{"location":[45.8920696,13.8994555],"ct":"SI","tp":"CS","ts":"2024-06-03T15:41:13Z","tX":551,"tY":364,"tags":{"access":"customers","fee":"yes","name":"Avtokamp Ajdovščina","operator":"ŠRC Police","raba:id":"1222","source":"RABA-KGZ","source:date":"2015-12-31"}},"478889481":{"location":[45.8645245,13.9614506],"ct":"SI","tp":"CS","ts":"2024-03-01T20:52:39Z","tX":551,"tY":364,"tags":{"addr:city":"Vipava","addr:housenumber":"42","addr:place":"Vrhpolje","addr:postcode":"5271","capacity":"10","fee":"yes","internet_access":"yes","internet_access:ssid":"interno","name":"Kamp Vrhpolje","note":"A small campsite on a farm in village Vrhpolje, surrounded by vineyards in Vipava valley. It is open from 1st of April to 1st of October. It is perfect place for hiking, biking, climbing, paragliding,... For discovering slovenian culture, cuisine, traditi","phone":"+386 41 387 514","website":"https://www.facebook.com/kampvrhpolje/"}},"492274342":{"location":[45.831798,13.9705132],"ct":"SI","tp":"CS","ts":"2024-06-22T07:46:10Z","tX":551,"tY":364,"tags":{"access":"customers","addr:city":"Vipava","addr:housenumber":"14 a","addr:postcode":"5271","addr:street":"Gradišče pri Vipavi","email":"info@kamp-tura.si","image":"https://kamp-tura.si/Foto/slideshow/kamp-zahod.jpg","name":"Kamp Tura","operator":"Bojana Curk","phone":"059 930 067","shower":"yes","source":"https://www.kamp-tura.si/","toilets":"yes","website":"https://www.kamp-tura.si/"}},"1220347539":{"location":[45.9721605,13.7481471],"ct":"SI","tp":"CS","ts":"2023-11-10T18:49:19Z","tX":551,"tY":364,"tags":{"addr:city":"Trnovo pri Gorici","addr:housenumber":"86","addr:postcode":"5252","addr:street":"Trnovo","building":"yes","fee":"yes","name":"Mini kamp","operator":"Gordana Magdalenić s.p.","ref:gurs:hs_mid":"13740062","ref:gurs:sta_sid":"25019952","source":"GURS","source_dat":"2021","tents":"yes","website":"https://avtokampi.si/kampi/kamp-trnovo"}},"1248796276":{"location":[45.8812761,13.9081406],"ct":"SI","tp":"CR","ts":"2024-02-10T12:07:18Z","tX":551,"tY":364,"tags":{}},"1255978499":{"location":[45.8999671,13.7896057],"ct":"SI","tp":"CS","ts":"2024-07-24T20:28:04Z","tX":551,"tY":364,"tags":{"addr:city":"Črniče","addr:housenumber":"46","addr:postcode":"5262","addr:street":"Malovše","caravans":"yes","drinking_water":"yes","fee":"yes","name":"David","power_supply":"yes","sanitary_dump_station":"yes","shower":"yes","static_caravans":"no","tents":"yes","toilets":"yes","website":"https://www.kamp-david.si/"}},"1255978500":{"location":[45.899577,13.7892468],"ct":"SI","tp":"CR","ts":"2024-07-24T20:27:23Z","tX":551,"tY":364,"tags":{"fee":"yes","power_supply":"yes"}},"1315147547":{"location":[46.0007127,14.0263972],"ct":"SI","tp":"CR","ts":"2024-09-12T18:44:34Z","tX":551,"tY":364,"tags":{"cabins":"no","capacity:caravans":"8","caravans":"yes","charge":"10 eur/24 hrs","maxstay":"3 days","name":"Camperstop Inzaghi","operator":"Komunala Idrija","power_supply":"yes","sanitary_dump_station":"no"}},"2888791355":{"location":[45.8899363,13.7474543],"ct":"SI","tp":"CS","ts":"2023-11-10T19:56:39Z","tX":551,"tY":364,"tags":{"addr:city":"Dornberk","addr:country":"SI","addr:housenumber":"12 a","addr:place":"Zalošče","addr:postcode":"5294","email":"info@vinasaksida.com","name":"Camping Saksida","source":"bing","website":"https://www.vinasaksida.com/"}},"4124016638":{"location":[45.8913286,13.9013699],"ct":"SI","tp":"CS","ts":"2023-04-10T21:57:01Z","tX":551,"tY":364,"tags":{"addr:city":"Ajdovščina","addr:housenumber":"14","addr:postcode":"5270","addr:street":"Cesta 5. maja","capacity":"50","caravans":"yes","description":"Avtokamp in apartma Ajdovščina se nahajata na mirni lokaciji, 10 min hoje iz centra mesta Ajdovščina (izvoz iz avtoceste H4 ).","email":"info@zs-ajdovscina.si","name":"Avtokamp Ajdovščina","phone":"+386 5 364 47 22; +386 5 364 47 24 ;+386 51 442 553","sport":"multi","website":"https://www.zs-ajdovscina.si/"}},"6930021609":{"location":[45.917168,13.7204655],"ct":"SI","tp":"CR","ts":"2020-08-25T22:14:54Z","tX":551,"tY":364,"tags":{"description":"rest area with free services","fee":"no","name":"Petrol Šempas Jug","power_supply":"yes","sanitary_dump_station":"yes","toilets:access":"yes","water_supply":"yes"}},"10963401021":{"location":[45.8494799,13.9342085],"ct":"SI","tp":"CR","ts":"2024-01-28T07:45:31Z","tX":551,"tY":364,"tags":{"addr:postcode":"5271","addr:street":"Slap","email":"vinarstvo.rouna@gmail.com","name:en":"Rouna Wine and Camping / Camper platz","phone":"+38631500266","website":"https://vina-rouna.si/en/"}},"11495574030":{"location":[45.9230074,13.7586553],"ct":"SI","tp":"CR","ts":"2024-01-06T21:47:13Z","tX":551,"tY":364,"tags":{"caravan_site":"motorhome_stopover","caravan_site:type":"winery","charge":"10 EUR","fee":"yes","name":"Lepa Vida Camper Stop"}},"9866316244":{"location":[45.9229765,13.7589071],"ct":"SI","tp":"SD","ts":"2022-07-04T17:05:57Z","tX":551,"tY":364,"tags":{"operator":"Lepa Vida winery"}},"11607696738":{"location":[45.8813546,13.9080638],"ct":"SI","tp":"SD","ts":"2024-02-10T12:07:18Z","tX":551,"tY":364,"tags":{}}}