{"17671086":{"location":[44.9165275,13.8088425],"ct":"HR","tp":"CS","ts":"2024-06-03T09:48:49Z","tX":551,"tY":368,"tags":{"addr:city":"Fazana","addr:housenumber":"115","addr:postcode":"52212","addr:street":"Dragonja","caravans":"yes","drinking_water":"yes","email":"info@bivillage.com","name":"Bi Village","name:pl":"Bi Village Ośrodek wypoczynkowy","note":"They have bungalows with wheelchair acces to toilet and shower. It's easy to get around at Bi Village and there is a path to Fazana","power_supply":"yes","sanitary_dump_station":"yes","shower":"yes","stars":"4","tents":"yes","toilets":"yes","website":"https://www.bivillage.com/","wheelchair":"limited"}},"42763247":{"location":[44.9369114,13.796551],"ct":"HR","tp":"CS","ts":"2023-06-15T20:38:33Z","tX":551,"tY":368,"tags":{"access":"customers","addr:city":"Fažana","addr:housenumber":"41","addr:postcode":"52212","addr:street":"Perojska cesta","capacity":"600","fee":"no","internet_access":"wlan","name":"Camp Pineta","website":"https://www.pinetafazana.hr/"}},"55690386":{"location":[44.8966436,13.8061213],"ct":"HR","tp":"CS","ts":"2017-07-17T06:30:23Z","tX":551,"tY":368,"tags":{"name":"Camp Brioni","old_name":"Puntižela","toilets:wheelchair":"no","wheelchair":"limited"}},"169963983":{"location":[45.0088244,13.718236],"ct":"HR","tp":"CS","ts":"2021-09-07T10:47:48Z","tX":551,"tY":368,"tags":{"name":"Mon Perin - Area Colona","website":"https://www.camping-monperin.hr/"}},"169963984":{"location":[45.0044805,13.7236461],"ct":"HR","tp":"CS","ts":"2024-02-26T14:18:01Z","tX":551,"tY":368,"tags":{"addr:city":"Bale","addr:country":"HR","addr:housenumber":"1","addr:postcode":"52211","addr:street":"San Polo","contact:email":"info@monperin.hr","contact:fax":"+385 52 824 382","contact:phone":"+385 52 824 338","contact:website":"https://www.camping-monperin.hr/","name":"Mon Perin - Area Colona","website":"https://www.camping-monperin.hr/"}},"169964005":{"location":[45.0177344,13.7146085],"ct":"HR","tp":"CS","ts":"2023-10-28T12:37:46Z","tX":551,"tY":368,"tags":{"addr:city":"Bale","addr:country":"HR","addr:housenumber":"1","addr:postcode":"52211","addr:street":"San Polo","contact:email":"info@monperin.hr","contact:fax":"+385 52 824 382","contact:phone":"+385 52 824 338","contact:website":"https://www.camping-monperin.hr/","name":"Mon Perin - Area San Polo","website":"https://www.camping-monperin.hr/"}},"173928376":{"location":[44.8569778,13.8133487],"ct":"HR","tp":"CS","ts":"2022-09-25T08:03:18Z","tX":551,"tY":368,"tags":{"alt_name":"Kamp Stoja","caravans":"yes","dog":"yes","email":"arenastoja@arenacampsites.com","fee":"yes","internet_access":"wlan","name":"Arena Stoja","operator":"Arena","phone":"+385 52 387 144","tents":"yes","website":"https://www.arenacamps.com/en/camps-istria/camping-arena-stoja"}},"425961436":{"location":[44.9246503,14.0307346],"ct":"HR","tp":"CS","ts":"2023-08-03T09:29:37Z","tX":551,"tY":368,"tags":{"access":"yes","addr:city":"Krnica","addr:postcode":"52208","addr:street":"Duga uvala","capacity":"27","email":"hostel.cvrcak@zgh.hr","name":"Kamp Cvrčak","operator":"Zagrebački holding d.o.o., Podružnica Vladimir Nazor","phone":"+385 1 642 6671","power_supply":"yes","website":"https://www.nazor.hr/default.aspx?id=296"}},"1317619776":{"location":[45.0124416,13.974721],"ct":"HR","tp":"CS","ts":"2024-09-23T19:04:02Z","tX":551,"tY":368,"tags":{"caravans":"yes","drinking_water":"yes","internet_access":"wlan","name":"Camp Dvor","opening_hours":"Mo-Su 7:00-22:00; Jan,Feb,Nov,Dec off","power_supply":"yes","shower":"yes","static_caravans":"yes","tents":"yes","website":"https://campdvor.com/"}},"2951457386":{"location":[44.9569662,13.78492],"ct":"HR","tp":"CS","ts":"2016-09-08T07:28:55Z","tX":551,"tY":368,"tags":{"name":"kemp v Peroj","name:hr":"kemp v Peroj"}},"4909045721":{"location":[44.8825105,13.8086689],"ct":"HR","tp":"CS","ts":"2017-06-11T15:08:35Z","tX":551,"tY":368,"tags":{}},"11047834863":{"location":[44.9056976,14.0120283],"ct":"HR","tp":"CS","ts":"2023-07-15T11:51:01Z","tX":551,"tY":368,"tags":{"name":"Robinsons Camp Val Kavran","website":"https://www.airbnb.ch/rooms/44499771"}},"12147403594":{"location":[45.011854,13.9733855],"ct":"HR","tp":"CS","ts":"2024-09-23T19:04:02Z","tX":551,"tY":368,"tags":{"addr:city":"Manjadvorci","addr:country":"HR","addr:housenumber":"60","addr:postcode":"52207","addr:street":"Manjadvorci","caravans":"yes","drinking_water":"yes","email":"info@campdvor.com","name":"Camp Dvor","phone":"+385998761931","power_supply":"yes","shower":"yes","tents":"yes","website":"https://campdvor.com"}},"9864095818":{"location":[45.0042787,13.7224397],"ct":"HR","tp":"CR","ts":"2022-07-03T15:49:54Z","tX":551,"tY":368,"tags":{}},"9952494770":{"location":[44.8563875,13.8139419],"ct":"HR","tp":"SD","ts":"2022-08-16T19:07:21Z","tX":551,"tY":368,"tags":{"sanitary_dump_station:chemical_toilet":"yes","sanitary_dump_station:grey_water":"yes"}},"9952494812":{"location":[44.8584739,13.8147332],"ct":"HR","tp":"SD","ts":"2022-08-14T11:37:49Z","tX":551,"tY":368,"tags":{"sanitary_dump_station:chemical_toilet":"yes","sanitary_dump_station:grey_water":"yes"}},"9952543663":{"location":[44.8577875,13.8124753],"ct":"HR","tp":"SD","ts":"2024-08-30T18:44:25Z","tX":551,"tY":368,"tags":{"sanitary_dump_station:chemical_toilet":"yes","sanitary_dump_station:grey_water":"yes"}},"9957709686":{"location":[44.8554012,13.8163561],"ct":"HR","tp":"SD","ts":"2022-08-16T19:07:21Z","tX":551,"tY":368,"tags":{"sanitary_dump_station:chemical_toilet":"yes","sanitary_dump_station:grey_water":"yes"}}}