{"34426199":{"location":[44.8253424,13.8489137],"ct":"HR","tp":"CS","ts":"2024-07-13T16:23:37Z","tX":551,"tY":369,"tags":{"addr:city":"Pula","addr:country":"HR","addr:housenumber":"96","addr:postcode":"52100","addr:street":"Indije","caravans":"yes","drinking_water":"yes","email":"arenaindije@arenacampsites.com","internet_access":"wlan","internet_access:fee":"no","name":"Arena Indije Campsite","phone":"+385 52 573 066","shower":"yes","tents":"yes","toilets":"yes","website":"https://www.arenacampsites.com/en/campsites-istria/camping-arena-indije?utm_source=camping.hr&utm_medium=referral&utm_campaign=indije-listing"}},"40883427":{"location":[44.7963744,13.91747],"ct":"HR","tp":"CS","ts":"2023-08-02T12:04:32Z","tX":551,"tY":369,"tags":{"addr:city":"Premantura","addr:country":"HR","addr:housenumber":"250","addr:postcode":"52203","addr:street":"Selo","caravans":"yes","email":"acstupice@arenaturist.hr","fax":"+38552575411","fee":"yes","internet_access":"wlan","internet_access:fee":"no","name":"Arena Stupice Campsite","name:pl":"Camping Village Stupice","openfire":"no","operator":"Arenacamps","phone":"+385 52 575111","sanitary_dump_station":"yes","tents":"yes","website":"https://www.arenacampsites.com/en/campsites-istria/camping-arena-stupice"}},"74130585":{"location":[44.823445,13.8485248],"ct":"HR","tp":"CS","ts":"2023-09-05T08:41:47Z","tX":551,"tY":369,"tags":{"addr:city":"Pula","addr:country":"HR","addr:housenumber":"96","addr:postcode":"52100","addr:street":"Indije","caravans":"no","internet_access":"wlan","internet_access:fee":"no","name":"Kamp Grand Veles","nudism":"no","phone":"+386 40 451 033","static_caravans":"no","tents":"no","website":"https://www.avtokampi.si/campsites/mobile-homes-grand-veles-banjole","wheelchair":"limited"}},"76131915":{"location":[44.8088068,13.9296613],"ct":"HR","tp":"CS","ts":"2023-08-03T12:41:21Z","tX":551,"tY":369,"tags":{"addr:city":"Medulin","addr:country":"HR","addr:housenumber":"30","addr:postcode":"52203","addr:street":"Osipovica","caravans":"yes","drinking_water":"yes","email":"arenamedulin@arenacampsites.com","name":"Camping Medulin","openfire":"no","phone":"+385 52 572 801","shower":"yes","tents":"yes","toilets":"yes","website":"https://www.arenacampsites.com/de/campingplatze-istrien/camping-arena-medulin"}},"77341477":{"location":[44.8240156,13.8555919],"ct":"HR","tp":"CS","ts":"2010-09-13T08:38:38Z","tX":551,"tY":369,"tags":{"name":"Kamp Karlo"}},"77343664":{"location":[44.8247875,13.8589367],"ct":"HR","tp":"CS","ts":"2023-10-27T13:07:44Z","tX":551,"tY":369,"tags":{"addr:city":"Banjole-Pula","addr:country":"HR","addr:housenumber":"100","addr:postcode":"52100","addr:street":"Kaštanjež","bbq":"no","caravans":"yes","drinking_water":"yes","email":"kristijan.modrusan@gmail.com","fee":"yes","internet_access":"wlan","internet_access:fee":"no","name":"Kamp Diana","phone":"+385992931963","power_supply":"yes","shower":"yes","tents":"yes","toilets":"yes","washing_machine":"no","website":"https://www.camp-diana.com/","wheelchair":"limited"}},"345295624":{"location":[44.8060844,13.9546106],"ct":"HR","tp":"CS","ts":"2023-09-09T05:24:02Z","tX":551,"tY":369,"tags":{"addr:city":"Medulin","addr:country":"HR","addr:housenumber":"350","addr:postcode":"52203","addr:street":"Kapovica","alt_name":"Camp Kažela","caravans":"yes","email":"arenakazela@arenacampsites.com","internet_access":"wlan","internet_access:fee":"no","name":"Kažela","operator":"Arenacamps","phone":"+385 52 577277","tents":"yes","website":"https://www.arenacampsites.com/de/campingplatze-istrien/camping-arena-kazela"}},"822257284":{"location":[44.8232207,13.8522023],"ct":"HR","tp":"CS","ts":"2022-10-10T22:47:02Z","tX":551,"tY":369,"tags":{"name":"Brajdice","phone":"+385 52 503160","phone2":"+385 91 5199516","shower":"yes","toilets":"yes","website":"https://www.pula-croatia.com/camping-brajdice/"}},"822257285":{"location":[44.8222487,13.8512404],"ct":"HR","tp":"CS","ts":"2023-10-25T15:45:04Z","tX":551,"tY":369,"tags":{"addr:city":"Pula","addr:country":"HR","addr:housenumber":"73","addr:postcode":"52100","addr:street":"Banjol-Indije","cabins":"yes","caravans":"yes","email":"info@camp-peskera.com","internet_access":"wlan","name":"Camp Peškera","phone":"+385 52 573 209","tents":"yes","website":"https://camp-peskera.com/"}},"877004016":{"location":[44.8288256,13.8430066],"ct":"HR","tp":"CS","ts":"2022-10-02T07:26:56Z","tX":551,"tY":369,"tags":{"caravans":"no","name":"Fratarski","tents":"yes","toilets":"yes","website":"https://www.istriago.net/de/spend-holiday-camping-veruda-fratarski-island-near-pula/"}},"877059636":{"location":[44.8239839,13.8518849],"ct":"HR","tp":"CS","ts":"2021-08-02T18:30:39Z","tX":551,"tY":369,"tags":{"name":"Oliva"}},"900699426":{"location":[44.8113563,13.9145384],"ct":"HR","tp":"CS","ts":"2024-04-02T11:05:43Z","tX":551,"tY":369,"tags":{"addr:city":"Premantura","addr:postcode":"52203","name":"Camping Arena Tasalera","website":"https://www.arenacampsites.com/de/campingplatze-istrien/camping-arena-tasalera"}},"969852803":{"location":[44.8227627,13.8496963],"ct":"HR","tp":"CS","ts":"2023-04-10T07:57:12Z","tX":551,"tY":369,"tags":{"addr:city":"Pula","addr:housenumber":"102","addr:postcode":"52100","addr:street":"Banjol-Indije","cabins":"yes","caravans":"yes","email":"info@camping-piccolo.com","name":"Piccolo","operator":"Autokamp Istra d.o.o.","phone":"+385 52 866 995; +385 52 426 088; +385 91 521 92 15","shower":"yes","tents":"yes","toilets":"yes","website":"https://www.camping-piccolo.com/"}},"969861031":{"location":[44.824517,13.8517186],"ct":"HR","tp":"CS","ts":"2024-10-27T12:07:40Z","tX":551,"tY":369,"tags":{"addr:city":"Pula","addr:country":"HR","addr:housenumber":"69","addr:postcode":"52100","addr:street":"Banjol-Indije","caravans":"yes","email":"info@campsidro.com","name":"Sidro","phone":"+385 91 2219036","shower":"yes","tents":"yes","toilets":"yes","website":"http://campsidro.com/"}},"1161026306":{"location":[44.824259,13.8538606],"ct":"HR","tp":"CS","ts":"2023-04-10T07:43:51Z","tX":551,"tY":369,"tags":{"name":"Kazalina","phone":"+385 52 573 271"}},"1161034175":{"location":[44.8206645,13.8586614],"ct":"HR","tp":"CS","ts":"2023-09-03T22:03:25Z","tX":551,"tY":369,"tags":{"caravans":"yes","name":"Širola","phone":"+385 52 573790","shower":"yes","tents":"yes","toilets":"yes"}},"1178501938":{"location":[44.806123,13.9468832],"ct":"HR","tp":"CS","ts":"2023-06-03T02:49:37Z","tX":551,"tY":369,"tags":{}},"1195880531":{"location":[44.8065776,13.917567],"ct":"HR","tp":"CS","ts":"2023-08-07T20:02:36Z","tX":551,"tY":369,"tags":{"addr:city":"Medulin","addr:country":"HR","addr:housenumber":"52","addr:place":"Runke","addr:postcode":"52203","caravans":"yes","email":"pz.kranj@gmail.com","fee":"yes","name":"Kranjski kamp","name:pl":"Obóz Carniola","phone":"+385 52 575 133","stars":"3","tents":"yes","website":"https://camping-kranjski.si/"}},"1195880532":{"location":[44.8078253,13.917899],"ct":"HR","tp":"CS","ts":"2023-08-07T20:05:06Z","tX":551,"tY":369,"tags":{"addr:city":"Medulin","addr:country":"HR","addr:housenumber":"85","addr:place":"Runke","addr:postcode":"52203","caravans":"yes","email":"arenarunke@arenacampsites.com","fax":"+385 52 575 022","name":"Arena Runke Campsite","phone":"+385 52 575 022","tents":"yes","toilets":"yes","website":"https://www.arenacampsites.com/de/campingplatze-istrien/camping-arena-runke"}},"1204728997":{"location":[44.8221829,13.8526353],"ct":"HR","tp":"CS","ts":"2023-09-03T17:44:05Z","tX":551,"tY":369,"tags":{"addr:housenumber":"49","addr:street":"Banjol-Indije","name":"kamp Piškera","phone":"+385 52 573197"}},"1204729016":{"location":[44.8213512,13.8573576],"ct":"HR","tp":"CS","ts":"2023-09-05T08:41:47Z","tX":551,"tY":369,"tags":{"name":"Centinera Resort & Camping","website":"https://www.centinera.com/"}},"1204768698":{"location":[44.8209001,13.8597542],"ct":"HR","tp":"CS","ts":"2023-09-03T22:03:25Z","tX":551,"tY":369,"tags":{"name":"Camp Olga"}},"1204768710":{"location":[44.8237384,13.8482509],"ct":"HR","tp":"CS","ts":"2023-09-03T22:03:25Z","tX":551,"tY":369,"tags":{}},"1268405845":{"location":[44.8190727,13.9003074],"ct":"HR","tp":"CS","ts":"2024-04-02T15:39:54Z","tX":551,"tY":369,"tags":{"addr:city":"Medulin","addr:postcode":"52203","caravans":"no","fee":"yes","internet_access":"wlan","internet_access:fee":"no","name":"Arena One 99 Glamping","old_name":"Eko Kamp Urod","phone":"+385 52 573 746","static_caravans":"no","tents":"no","website":"https://www.arenaglamping.com/"}},"11215222861":{"location":[44.8220331,13.8570517],"ct":"HR","tp":"CS","ts":"2023-09-24T09:17:46Z","tX":551,"tY":369,"tags":{"capacity:pitches":"17","name":"Fuma","phone":"+385 52 573 158"}},"11469071069":{"location":[44.8112559,13.9403084],"ct":"HR","tp":"CS","ts":"2023-12-30T12:51:54Z","tX":551,"tY":369,"tags":{}},"9139855673":{"location":[44.7949588,13.91486],"ct":"HR","tp":"SD","ts":"2021-10-02T14:34:20Z","tX":551,"tY":369,"tags":{"access":"customers","fee":"no","operator":"Camping Village Stupice","sanitary_dump_station:chemical_toilet":"yes","sanitary_dump_station:grey_water":"yes","water_point":"yes"}}}