{"7429583":{"location":[43.117403,13.8316891],"ct":"IT","tp":"CS","ts":"2024-08-08T09:06:35Z","tX":551,"tY":375,"tags":{"camp_site":"deluxe","caravans":"yes","dog":"no","drinking_water":"yes","email":"info@rivaverde.it","internet_access":"wlan","internet_access:fee":"yes","name":"Camping Riva Verde","phone":"+39 0734 932012","power_supply":"yes","power_supply:maxcurrent":"10","sanitary_dump_station":"customers","stars":"4","tents":"yes","website":"https://rivaverde.it/","wheelchair":"yes"}},"180553762":{"location":[43.2743736,13.7517747],"ct":"IT","tp":"CS","ts":"2024-08-18T14:26:23Z","tX":551,"tY":375,"tags":{"caravans":"yes","drinking_water":"yes","internet_access":"wlan","name":"Camping Holiday Family Village","phone":"+39 0734 9071","power_supply":"yes","shower":"yes","tents":"yes","toilets":"yes","wheelchair":"yes"}},"363119789":{"location":[43.1617665,13.7230867],"ct":"IT","tp":"CR","ts":"2020-09-25T15:01:15Z","tX":551,"tY":375,"tags":{"addr:city":"Fermo","capacity":"10","internet_access":"no","name":"Area Camper -Fermo","parking":"surface","power_supply":"yes","sanitary_dump_station":"yes"}},"450363060":{"location":[43.1633329,13.8070997],"ct":"IT","tp":"CS","ts":"2024-08-08T08:09:12Z","tX":551,"tY":375,"tags":{"addr:city":"Porto San Giorgio","addr:housenumber":"11","addr:postcode":"63822","addr:street":"Via San Martino","area":"yes","caravans":"yes","description":"-30/09","dog":"yes","name":"Villaggio La Capannina","phone":"+39 0734 677003","power_supply":"yes","shower":"yes","tents":"yes","toilets":"yes","website":"http://www.villaggiolacapannina.it/"}},"663185830":{"location":[43.2381758,13.7741757],"ct":"IT","tp":"CS","ts":"2021-09-19T13:56:22Z","tX":551,"tY":375,"tags":{"addr:city":"Porto Sant'Elpidio","addr:housenumber":"15","addr:postcode":"63821","addr:street":"Via Faleria","cabins":"yes","caravans":"yes","email":"info@villaggiolemimose.it","internet_access":"wlan","internet_access:ssid":"LeMimose","motor_vehicle":"yes","name":"Le Mimose","operator":"Le Mimose Srl","phone":"+39 0734 900604","power_supply":"cee_17_blue","shower":"yes","stars":"4","tents":"yes","toilets":"yes","website":"https://www.villaggiolemimose.it","wheelchair":"yes"}},"983586717":{"location":[43.1007549,13.8287496],"ct":"IT","tp":"CS","ts":"2024-11-22T13:38:12Z","tX":551,"tY":375,"tags":{"addr:city":"Altidona","addr:postcode":"63824","addr:street":"Via Ottorino Respighi","cabins":"yes","caravans":"yes","contact:whatsapp":"+393668244322","description":"only weekly","dog":"yes","fee":"yes","motorhome":"yes","name":"Camping Garden River","phone":"+39 0734932686","power_supply:maxcurrent":"6","ref:vatin":"IT02295950444","sanitary_dump_station":"yes","shower":"yes","socket:cee_blue":"yes","tents":"yes","toilets":"yes","website":"https://www.gardenriver.it/"}},"984914538":{"location":[43.2497869,13.7663931],"ct":"IT","tp":"CR","ts":"2024-07-02T10:36:14Z","tX":551,"tY":375,"tags":{"caravan_site":"motorhome_stopover","caravan_site:type":"beach","charge":"12 EUR","fee":"yes","name":"Frontemare Parking","wheelchair":"yes"}},"985173434":{"location":[43.2328737,13.777747],"ct":"IT","tp":"CR","ts":"2021-09-20T15:43:53Z","tX":551,"tY":375,"tags":{}},"985177386":{"location":[43.2268422,13.7801396],"ct":"IT","tp":"CS","ts":"2024-08-06T17:49:56Z","tX":551,"tY":375,"tags":{"caravans":"yes","drinking_water":"yes","name":"Tre Archi","power_supply":"yes","shower":"yes","stars":"3","tents":"yes","toilets":"yes","website":"https://www.campingtrearchi.it/index.php/it/"}},"985178874":{"location":[43.2257496,13.7804992],"ct":"IT","tp":"CS","ts":"2021-09-20T16:10:33Z","tX":551,"tY":375,"tags":{"name":"Residence Mare"}},"985182198":{"location":[43.2216564,13.7817134],"ct":"IT","tp":"CR","ts":"2021-09-20T16:24:23Z","tX":551,"tY":375,"tags":{"name":"Baia dei Gabbiani"}},"1026848734":{"location":[43.2866451,13.7440242],"ct":"IT","tp":"CS","ts":"2024-08-06T14:06:51Z","tX":551,"tY":375,"tags":{"addr:city":"Porto Sant'Elpidio","addr:street":"Via delle Gabbie","drinking_water":"yes","internet_access":"wlan","name":"Camping La Risacca","phone":"+39 0734 997276","power_supply":"yes","shower":"yes","toilets":"yes","website":"https://www.clubdelsole.com/it/destinazioni/marche-porto-sant-elpidio/la-risacca-family-camping-village","wheelchair":"yes"}},"1060551620":{"location":[43.1448299,13.8161911],"ct":"IT","tp":"CS","ts":"2024-10-12T10:06:54Z","tX":551,"tY":375,"tags":{"access":"customers","addr:city":"Marina Palmense","capacity:persons":"1600","caravans":"yes","dog":"yes","fee":"no","name":"Camping Verde Mare","phone":"+39 0734 340223","power_supply":"yes","power_supply:maxcurrent":"6","stars":"4","tents":"yes"}},"1189871540":{"location":[43.1392919,13.8200799],"ct":"IT","tp":"CS","ts":"2024-08-17T09:37:58Z","tX":551,"tY":375,"tags":{"caravans":"yes","dog":"yes","name":"Camping Girasole","phone":"+39 0734 53706","power_supply":"yes","shower":"yes","tents":"yes","washing_machine":"yes","website":"https://www.campinggirasole.it/"}},"1296358628":{"location":[43.1509843,13.8131309],"ct":"IT","tp":"CR","ts":"2024-12-14T09:25:55Z","tX":551,"tY":375,"tags":{"addr:city":"Fermo","addr:street":"Lungomare Marina Palmense","capacity":"80","contact:email":"info@areacamper.it","contact:phone":"+39 334 7974228","contact:website":"http://www.areacamper.it/","internet_access":"wlan","name":"Area camper 2004","power_supply":"yes","ref:vatin":"IT00520220443","sanitary_dump_station":"yes","shower":"yes","toilets":"yes"}},"1306310249":{"location":[43.15919,13.8102971],"ct":"IT","tp":"CS","ts":"2024-08-08T07:53:06Z","tX":551,"tY":375,"tags":{"area":"yes","capacity:caravans":"61","capacity:tents":"61","caravans":"yes","description":"- 15/09","internet_access":"wlan","internet_access:fee":"customers","name":"Camping Johnny","phone":"+39 0734 53457","phone:mobile":"+39 338 8367092","power_supply":"yes","shower":"yes","tents":"yes","website":"https://www.campingjohnny.com/index.php/it/"}},"1306310250":{"location":[43.1586075,13.8090679],"ct":"IT","tp":"CS","ts":"2024-08-08T07:53:06Z","tX":551,"tY":375,"tags":{"addr:city":"Fermo","addr:housenumber":"24","addr:postcode":"63900","addr:street":"Via Giovanni Campofiloni","area":"yes","caravans":"yes","dog":"yes","internet_access":"wlan","name":"Centro Vacanze Camping Spinnaker","phone":"+39 0734 53412","power_supply":"yes","shower":"yes","tents":"no","toilets":"yes","website":"https://www.vacanzespinnaker.it"}},"1306310251":{"location":[43.1601254,13.8095001],"ct":"IT","tp":"CS","ts":"2024-08-08T07:53:06Z","tX":551,"tY":375,"tags":{"addr:city":"Fermo","addr:housenumber":"32/34","addr:postcode":"63900","addr:street":"Via Giovanni Campofiloni","area":"yes","caravans":"yes","description":"- 15/09","dog":"no","name":"Camping Gemma","static_caravans":"yes","tents":"yes","website":"https://www.campinggemma.it"}},"1306313432":{"location":[43.163499,13.8081842],"ct":"IT","tp":"CR","ts":"2024-12-10T18:21:37Z","tX":551,"tY":375,"tags":{"addr:city":"Porto San Giorgio","addr:housenumber":"13","addr:postcode":"63822","addr:street":"Via San Martino","capacity":"75","contact:whatsapp":"+39 3331006529","dog":"leashed","email":"info@areaperladelladriatico.it","internet_access":"wlan","internet_access:fee":"customers","name":"La Perla dell'Adriatico","phone":"+39 0734 675656","phone:mobile":"+39 3331006529","power_supply":"yes","sanitary_dump_station":"yes","shower":"yes","toilets":"yes","website":"https://www.areaperladelladriatico.it/"}},"1306318477":{"location":[43.1419021,13.8185759],"ct":"IT","tp":"CS","ts":"2024-08-08T08:40:03Z","tX":551,"tY":375,"tags":{"caravans":"yes","description":"- 22/09","dog":"yes","internet_access":"wlan","name":"Camping Paradiso","phone":"+39 0734 53110","phone:mobile":"+39 333 1955905","power_supply":"yes","tents":"yes","website":"https://www.paradisocamping.it/"}},"1306320752":{"location":[43.1249926,13.8246174],"ct":"IT","tp":"CS","ts":"2024-08-08T08:54:48Z","tX":551,"tY":375,"tags":{"addr:city":"Altidona","addr:postcode":"63824","addr:street":"Strada Provinciale 35 Lapedona","area":"yes","caravans":"yes","description":"01/01 - 31/12","dog":"leashed","name":"Centro Vacanze Mirage","phone":"+39 375 6492847","power_supply":"yes","stars":"4","static_caravans":"yes","tents":"yes","washing_machine":"yes","website":"https://centrovacanzemirage.it/"}},"1307473250":{"location":[43.1997837,13.7862085],"ct":"IT","tp":"CR","ts":"2024-08-13T11:57:36Z","tX":551,"tY":375,"tags":{"addr:city":"Fermo","addr:housenumber":"15","addr:postcode":"63900","addr:street":"Via Nazionale","name":"Area sosta camper Valentina","pets_allowed":"yes","power_supply":"yes","sanitary_dump_station":"yes","url":"https://www.campingvalentinasostacamper.it/areasosta.html"}},"9076708777":{"location":[43.2849763,13.7226494],"ct":"IT","tp":"SD","ts":"2021-09-09T13:09:32Z","tX":551,"tY":375,"tags":{"access":"yes","fee":"no","water_point":"yes"}},"12098479820":{"location":[43.126415,13.8255466],"ct":"IT","tp":"SD","ts":"2024-08-08T08:54:48Z","tX":551,"tY":375,"tags":{"access":"customers","water_point":"yes"}}}