{"26859427":{"location":[43.0443577,13.8542707],"ct":"IT","tp":"CS","ts":"2024-08-06T20:18:20Z","tX":551,"tY":376,"tags":{"description":"- 03/10","name":"Calypso","website":"https://www.campingcalypso.it/"}},"26859596":{"location":[43.0430919,13.8544487],"ct":"IT","tp":"CS","ts":"2025-05-20T15:00:21Z","tX":551,"tY":376,"tags":{"addr:city":"Cupra Marittima","addr:housenumber":"5","addr:postcode":"63064","addr:street":"Contrada Boccabianca","camp_site":"deluxe","name":"Led Zeppelin","website":"https://www.campingledzeppelin.it/"}},"67240460":{"location":[42.9720914,13.8766005],"ct":"IT","tp":"CS","ts":"2024-12-17T14:42:06Z","tX":551,"tY":376,"tags":{"addr:city":"Grottammare","addr:country":"IT","addr:housenumber":"124","addr:street":"Viale Alcide De Gasperi","caravans":"yes","dog":"no","email":"info@dondiegocamping.it","fax":"+39 0735 583166","fee":"yes","internet_access":"yes","internet_access:fee":"no","motorhome":"yes","name":"Don Diego","phone":"+39 0735 581285","power_supply":"yes","sanitary_dump_station":"customers","socket:cee_blue":"yes","stars":"3","tents":"yes","website":"https://www.campingdondiego.it/"}},"92252850":{"location":[42.8784581,13.9196007],"ct":"IT","tp":"CS","ts":"2025-06-11T07:40:46Z","tX":551,"tY":376,"tags":{"addr:housenumber":"6","addr:street":"Via dei Pioppi","camp_site":"deluxe","caravans":"yes","contact:phone":"+39 0861 797515","dog":"no","fee":"yes","motorhome":"yes","name":"Riva Nuova","power_supply":"yes","power_supply:maxcurrent":"5;10","stars":"4","tents":"yes","website":"https://www.rivanuova.com/"}},"92256493":{"location":[42.8812329,13.9199823],"ct":"IT","tp":"CS","ts":"2025-06-10T15:08:22Z","tX":551,"tY":376,"tags":{"caravans":"yes","contact:email":"booking@ducaamedeo.it","contact:phone":"+39 0861 797376","description":"-15/09","dog":"yes","fee":"yes","motorhome":"yes","name":"Duca Amedeo","power_supply":"yes","power_supply:maxcurrent":"5","shower":"yes","socket:cee_blue":"yes","tents":"yes","toilets":"yes","website":"https://www.ducaamedeo.it/"}},"202569856":{"location":[42.8212956,13.9302146],"ct":"IT","tp":"CS","ts":"2025-05-31T18:50:56Z","tX":551,"tY":376,"tags":{"addr:city":"Alba Adriatica","addr:housenumber":"69","addr:postcode":"64011","addr:street":"Via Abruzzo","caravans":"yes","contact:phone":"+39 0861 713356","dog":"yes","fee":"yes","motorhome":"yes","name":"Eucaliptus","power_supply":"yes","power_supply:maxcurrent":"6","socket:cee_blue":"yes","tents":"yes","website":"https://www.campingeucaliptus.it/"}},"409283078":{"location":[42.9670604,13.8769036],"ct":"IT","tp":"CR","ts":"2024-10-17T06:08:18Z","tX":551,"tY":376,"tags":{"addr:city":"Grottammare","addr:street":"Via Domenico Bruni","email":"tomic13@libero.it","internet_access":"no","name":"Area Camper Parallelo 43","phone":"+39 347 6868194","power_supply":"yes","sanitary_dump_station":"yes","socket:cee_blue":"yes","surface":"asphalt","website":"https://www.facebook.com/Parallelo43"}},"483431279":{"location":[43.03284,13.8555904],"ct":"IT","tp":"CS","ts":"2025-05-20T15:00:21Z","tX":551,"tY":376,"tags":{"addr:city":"Cupra Marittima","addr:housenumber":"105","addr:postcode":"63064","addr:street":"Via Adriatica Nord","description":"- 30/09","name":"Camping Terrazza sul Mare","website":"https://campingterrazzosulmare.it/"}},"676123757":{"location":[42.9236986,13.8946376],"ct":"IT","tp":"CR","ts":"2024-12-17T20:46:18Z","tX":551,"tY":376,"tags":{"addr:city":"San Benedetto del Tronto","addr:postcode":"63074","addr:street":"Viale dello Sport","contact:website":"https://www.camperclubtruentum.it/area-di-sosta-camper-comunale-riviera-delle-palme/","contact:whatsapp":"+39 348 605 9221","fee":"yes","name":"Sosta Camper Riviera delle Palme","phone":"+39 348 605 9221","power_supply":"yes","sanitary_dump_station":"yes","socket:cee_blue":"yes","start_date":"2010"}},"818525864":{"location":[43.021476,13.7576092],"ct":"IT","tp":"CS","ts":"2020-06-22T17:14:13Z","tX":551,"tY":376,"tags":{"access":"private","area":"yes","email":"asci.marche@virgilio.it","lit":"limited","name":"Base Scout A.S.C.I. \"L'isola di Brownsea\"","operator":"A.S.C.I. - Esploratori e Guide d'Italia","reservation":"required","scout":"yes","shower":"yes","toilets":"yes","website":"http://www.asci-basescout.it/"}},"1357166506":{"location":[42.8780668,13.9191855],"ct":"IT","tp":"CS","ts":"2025-02-06T10:02:52Z","tX":551,"tY":376,"tags":{"surface":"grass"}},"1358039587":{"location":[42.8803068,13.91729],"ct":"IT","tp":"CS","ts":"2025-02-08T10:02:43Z","tX":551,"tY":376,"tags":{"landuse":"meadow","motorhome":"yes","surface":"grass"}},"1358039594":{"location":[42.8806431,13.9180139],"ct":"IT","tp":"CS","ts":"2025-02-08T10:02:43Z","tX":551,"tY":376,"tags":{"caravans":"yes","motorhome":"yes","surface":"grass"}},"1394109109":{"location":[42.8598629,13.9248519],"ct":"IT","tp":"CS","ts":"2025-06-11T07:29:51Z","tX":551,"tY":376,"tags":{"addr:housenumber":"439","addr:street":"Via Roma","cabins":"yes","caravans":"yes","contact:email":"info@campingvillaelena.it","contact:phone":"+39 0861 712368","contact:website":"https://www.campingvillaelena.it/","dog":"yes","fee":"yes","motorhome":"yes","name":"Villa Elena","power_supply":"yes","ref:cin":"IT067047B3ZGDHN8RE","ref:vatin":"IT01539690675","stars":"3","static_caravans":"yes","tents":"yes"}},"6829830194":{"location":[43.0421839,13.851065],"ct":"IT","tp":"CS","ts":"2024-08-06T19:55:20Z","tX":551,"tY":376,"tags":{"description":"- 30/09","name":"Il Frutteto","website":"https://www.campingilfrutteto.it/"}},"12205420653":{"location":[42.8598967,13.9239554],"ct":"IT","tp":"CS","ts":"2025-02-03T05:40:59Z","tX":551,"tY":376,"tags":{"addr:housenumber":"439","addr:street":"Via Roma","caravans":"yes","contact:email":"info@campingvillaelena.it","contact:phone":"+39 0861 712368","contact:website":"https://www.campingvillaelena.it/","dog":"yes","fee":"yes","motorhome":"yes","name":"Villa Elena","power_supply":"yes","stars":"3","tents":"yes"}}}