{"93951553":{"location":[42.6993929,14.0003483],"ct":"IT","tp":"CS","ts":"2024-08-31T16:43:02Z","tX":551,"tY":377,"tags":{"addr:city":"Roseto degli Abruzzi","addr:postcode":"64026","addr:street":"Viale Makarska","name":"Camping Surabaja \"La Playa\""}},"93951554":{"location":[42.6988742,14.000679],"ct":"IT","tp":"CS","ts":"2022-05-04T08:00:18Z","tX":551,"tY":377,"tags":{"addr:city":"Roseto degli Abruzzi","addr:postcode":"64026","addr:street":"Viale Makarska","name":"Camping Surabaja"}},"93951555":{"location":[42.6999417,14.0000142],"ct":"IT","tp":"CS","ts":"2022-05-04T16:28:31Z","tX":551,"tY":377,"tags":{"name":"Villaggio camping Gilda"}},"93955798":{"location":[42.7341694,13.9819394],"ct":"IT","tp":"CS","ts":"2024-10-18T15:08:53Z","tX":551,"tY":377,"tags":{"addr:street":"Via del Mare","caravans":"no","fee":"yes","name":"Camping Villaggio Europa","static_caravans":"yes","tents":"no","website":"https://www.villaggioeuropa.it/"}},"93967257":{"location":[42.6559046,14.033438],"ct":"IT","tp":"CS","ts":"2022-06-02T16:54:50Z","tX":551,"tY":377,"tags":{"addr:city":"Roseto degli Abruzzi","addr:housenumber":"90","addr:postcode":"64026","addr:street":"Lungomare Trieste","capacity":"0","ele":"0","fee":"yes","name":"Eurcamping"}},"93967259":{"location":[42.65715,14.0334653],"ct":"IT","tp":"CS","ts":"2011-01-08T21:15:10Z","tX":551,"tY":377,"tags":{"name":"Camping Arcobaleno"}},"97537037":{"location":[42.7252388,13.9858576],"ct":"IT","tp":"CS","ts":"2024-10-18T14:33:43Z","tX":551,"tY":377,"tags":{"addr:street":"Via degli Acquaviva","caravans":"yes","dog":"no","drinking_water":"yes","email":"info@campingstellamaris.it","name":"Camping Stella Maris","power_supply":"yes","power_supply:maxcurrent":"6","reservation":"yes","sanitary_dump_station":"no","shower":"yes","socket:cee_blue":"yes","tents":"yes","toilets":"yes","website":"https://www.campingstellamaris.it/"}},"121209800":{"location":[42.8035702,13.9290741],"ct":"IT","tp":"PK","ts":"2023-08-22T12:39:26Z","tX":551,"tY":377,"tags":{"access":"yes","fee":"no","lit":"yes","motorcar":"yes","motorcycle":"yes","motorhome":"yes","parking":"surface","surface":"asphalt"}},"165235439":{"location":[42.661857,14.0302858],"ct":"IT","tp":"CR","ts":"2024-09-28T06:30:56Z","tX":551,"tY":377,"tags":{"addr:street":"Lungomare Trieste","email":"camper.clubroseto@gmail.com","fenced":"yes","internet_access":"no","mobile":"+39 324 586 5495","motorhome":"designated","operator":"Camper Club Roseta Mare Blu","smoking":"yes","surface":"grass","wheelchair":"yes"}},"204940286":{"location":[42.7825523,13.951204],"ct":"IT","tp":"CS","ts":"2024-10-27T08:28:52Z","tX":551,"tY":377,"tags":{"addr:city":"Tortoreto","addr:housenumber":"642","addr:postcode":"64018","addr:street":"Lungomare Sirena","cabins":"yes","caravans":"yes","contact:phone":"+39 0861 77231","description":"- 22/09","hot_water":"yes","internet_access":"wlan","motorhome":"yes","name":"Camping Salinello","operator":"Abruzzi Socialturist S.p.A.","power_supply":"yes","power_supply:maxcurrent":"5","reservation":"yes","shower":"yes","socket:cee_blue":"yes","stars":"4","tents":"yes","toilets":"yes","website":"https://www.salinello.it/"}},"408547791":{"location":[42.6589519,13.7166904],"ct":"IT","tp":"CR","ts":"2024-06-23T15:13:15Z","tX":551,"tY":377,"tags":{"addr:city":"Teramo","addr:housenumber":"22","addr:postcode":"64100","addr:street":"Via Potito Randi","fee":"no","name":"Area di sosta camper Teramo","opening_hours":"24/7","park_ride":"no","parking":"surface","sanitary_dump_station":"yes","supervised":"no","surface":"gravel","water_point":"yes"}},"435766580":{"location":[42.7263092,13.9852956],"ct":"IT","tp":"CS","ts":"2024-10-18T14:33:34Z","tX":551,"tY":377,"tags":{"addr:city":"Roseto degli Abruzzi","addr:housenumber":"34","addr:street":"Via Bozzino Cologna Spiaggia","barrier":"fence","caravans":"yes","colour":"green","contact:phone":"+39 085 893 7544","contact:whatsapp":"+390858937544","dog":"yes","drinking_water":"yes","email":"info@gardenbeach.eu","fee":"no","fence:height":"1.5","fence_type":"chain_link","motorhome":"yes","name":"Agricampig Garden Beach","operator":"Adriano tel 0858937544","power_supply":"yes","power_supply:maxcurrent":"6;10;16","sanitary_dump_station":"no","shower":"yes","socket:cee_blue":"yes","surface":"grass","tents":"yes","toilets":"yes","website":"https://www.gardenbeach.eu/"}},"435766878":{"location":[42.7299437,13.9833235],"ct":"IT","tp":"CS","ts":"2024-11-03T07:11:06Z","tX":551,"tY":377,"tags":{"addr:city":"Roseto degli Abruzzi","addr:housenumber":"35","addr:street":"Via degli Acquaviva","caravans":"yes","dog":"yes","drinking_water":"yes","fee":"yes","hot_water":"yes","internet_access":"wlan","mobile":"+39 333 618 3773","motorhome":"yes","name":"Agricampeggio Mare Nostrum","power_supply":"yes","power_supply:maxcurrent":"4","shower":"yes","socket:cee_blue":"yes","tents":"yes","toilets":"yes","washing_machine":"yes","website":"https://www.agricampeggiomarenostrum.com/","wheelchair":"yes"}},"435767015":{"location":[42.7271018,13.9851327],"ct":"IT","tp":"CS","ts":"2024-10-18T11:36:24Z","tX":551,"tY":377,"tags":{"addr:street":"Via Bozzino","capacity:caravans":"25","caravans":"yes","email":"agricampeggioalbachiara@gmail.com","fee":"yes","motorhome":"yes","name":"Agricampeggio Albachiara","phone":"+39 3279731566","power_supply":"yes","sanitary_dump_station":"yes","socket:cee_blue":"yes","tents":"yes"}},"844346017":{"location":[42.6266608,14.0545002],"ct":"IT","tp":"CS","ts":"2024-10-19T15:41:37Z","tX":551,"tY":377,"tags":{"access":"permissive","addr:street":"Via 25 Aprile","cabins":"yes","caravans":"yes","contact:phone":"+390859492720","contact:whatsapp":"+393939570363","dog":"yes","email":"info@centrovacanzeheliopolis.it","fee":"yes","group_only":"no","motorhome":"yes","name":"Heliopolis","power_supply":"yes","reservation":"yes","socket:cee_blue":"yes","stars":"4","tents":"yes","website":"https://www.heliopolis.it/"}},"851569863":{"location":[42.6553985,13.8953352],"ct":"IT","tp":"CR","ts":"2020-09-25T15:09:38Z","tX":551,"tY":377,"tags":{"capacity":"8","internet_access":"no","name":"Area Camper comunale - Notaresco","power_supply":"no","sanitary_dump_station":"yes"}},"856543919":{"location":[42.7002587,13.99778],"ct":"IT","tp":"CR","ts":"2023-10-26T23:50:41Z","tX":551,"tY":377,"tags":{"addr:city":"Roseto degli Abruzzi","addr:postcode":"64026","addr:street":"Viale Makarska","addr:suburb":"Località Borsacchio","contact:fax":"+39 085 894 4346","description":"Camper/RV stay area","leisure":"resort","name":"Villaggio turistico Lido d'Abruzzo","phone":"+39 085 8942 643","surface":"asphalt","website":"https://www.villaggiolidodabruzzo.it/en/"}},"992652971":{"location":[42.7225713,13.9798037],"ct":"IT","tp":"CR","ts":"2024-05-30T18:52:21Z","tX":551,"tY":377,"tags":{"addr:housenumber":"13","addr:postcode":"64026","addr:street":"Via Degli Orti","contact:mobile":"+39 338 843 3734","contact:phone":"+39 085 893 7142","description":"Area di sosta per camper","name":"Area Sosta Camper Romeo","power_supply":"yes","website":"http://romeoristocamper.blogspot.com/"}},"1066202614":{"location":[42.6609344,14.0311794],"ct":"IT","tp":"CR","ts":"2022-06-02T16:54:50Z","tX":551,"tY":377,"tags":{"barrier":"fence","name":"Camper Club"}},"1082720567":{"location":[42.6291597,14.0528693],"ct":"IT","tp":"CS","ts":"2022-07-31T16:41:33Z","tX":551,"tY":377,"tags":{"area":"yes"}},"1082906158":{"location":[42.6461398,14.0414184],"ct":"IT","tp":"CS","ts":"2022-09-11T13:54:14Z","tX":551,"tY":377,"tags":{"barrier":"fence","group_only":"yes","lit":"yes","name":"Camping Scerne","surface":"grass"}},"1088759838":{"location":[42.7365681,13.978844],"ct":"IT","tp":"CS","ts":"2024-12-08T20:15:34Z","tX":551,"tY":377,"tags":{"addr:city":"Roseto degli Abruzzi","addr:street":"Via del Mare","caravans":"yes","dog":"yes","email":"info@il-gatto-e-la-volpe.it","fee":"yes","motorhome":"yes","name":"Il Gatto e la Volpe","phone":"+393279394514","power_supply":"yes","socket:cee_blue":"yes","website":"https://il-gatto-e-la-volpe.it/"}},"1134646668":{"location":[42.7773563,13.9548087],"ct":"IT","tp":"CS","ts":"2024-10-17T06:18:56Z","tX":551,"tY":377,"tags":{"addr:city":"Giulianova","addr:street":"Lungomare Zara","cabins":"yes","capacity:caravans":"78","caravans":"yes","dog":"no","drinking_water":"yes","email":"info@villaggioholiday.it","fee":"no","motorhome":"yes","name":"Villaggio Holiday","phone":"+39 085 8000053","power_supply":"yes","power_supply:maxcurrent":"6","socket:cee_blue":"yes","tents":"yes","website":"https://www.villaggioholiday.it/"}},"1178768923":{"location":[42.6423009,14.045422],"ct":"IT","tp":"CS","ts":"2023-06-04T13:52:26Z","tX":551,"tY":377,"tags":{"barrier":"fence"}},"1224867456":{"location":[42.7280511,13.9843176],"ct":"IT","tp":"CS","ts":"2024-10-18T06:35:30Z","tX":551,"tY":377,"tags":{"addr:city":"Roseto degli Abruzzi","addr:street":"Via degli Acquaviva","capacity:caravans":"38","caravans":"yes","contact:phone":"+393287328555","dog":"yes","fee":"yes","motorhome":"yes","name":"Agricamping Nora Beach","power_supply":"yes","sanitary_dump_station":"yes","socket:cee_blue":"yes","website":"https://www.noarabeach.it/"}},"1224867457":{"location":[42.7277191,13.9845742],"ct":"IT","tp":"CS","ts":"2024-11-03T07:09:17Z","tX":551,"tY":377,"tags":{"caravans":"yes","contact:phone":"+39 085 893 7750","contact:whatsapp":"+393385856679","email":"info@agricampingmarino.it","fee":"yes","hot_water":"yes","mobile":"+39 338 585 6679;","motorhome":"yes","name":"Agricamping Marino","power_supply":"yes","sanitary_dump_station":"yes","shower":"yes","socket:cee_blue":"yes","website":"https://agricampingmarino.it/"}},"1224867458":{"location":[42.7306822,13.9829919],"ct":"IT","tp":"CS","ts":"2024-10-18T14:58:15Z","tX":551,"tY":377,"tags":{"addr:street":"Via degli Acquaviva","cabins":"yes","email":"agricampeggiomareesolerosi@gmail.com","fee":"yes","name":"Agricampeggio \"Mare e sole RO.SI.\"","phone":"+39 339 205 2225","website":"https://www.facebook.com/AgricampeggiomareESoleRosi/"}},"1282372384":{"location":[42.7329208,13.9826179],"ct":"IT","tp":"CR","ts":"2024-10-18T15:08:53Z","tX":551,"tY":377,"tags":{"addr:street":"Via del Mare","dog":"yes","motorhome":"yes","name":"Area sosta Il Paradiso","power_supply":"yes","shower":"yes","socket:cee_blue":"yes","toilets":"yes"}},"1283314295":{"location":[42.6519897,14.0389972],"ct":"IT","tp":"CS","ts":"2024-10-18T15:20:05Z","tX":551,"tY":377,"tags":{"caravans":"yes","check_date":"2024-08-26","contact:phone":"+39 333 444 2285","contact:whatsapp":"+39 333 444 2285","motorhome":"yes","name":"Agricampeggio Vomano Vecchio","note":"FIXME: mayhave been discontinued as was empty and grass surface unspoiled since longer.","website":"https://www.agricampingvomanovecchio.it/"}},"1311697722":{"location":[42.7352726,13.9791161],"ct":"IT","tp":"CR","ts":"2024-08-28T08:03:41Z","tX":551,"tY":377,"tags":{"name":"Gulliver"}},"1312242209":{"location":[42.7247075,13.9860994],"ct":"IT","tp":"CR","ts":"2024-08-30T13:50:20Z","tX":551,"tY":377,"tags":{"landuse":"meadow","motorhome":"yes"}},"1318811648":{"location":[42.6248925,14.0559466],"ct":"IT","tp":"CS","ts":"2024-10-19T15:41:37Z","tX":551,"tY":377,"tags":{"addr:street":"Via 25 Aprile","caravans":"yes","contact:email":"info@pinetobeach.it","contact:phone":"+39 085 9492724","dog":"yes","email":"info@pinetobeach.it","leisure":"resort","motorhome":"yes","name":"Pineto Beach","power_supply":"yes","power_supply:maxcurrent":"6","socket:cee_blue":"yes","website":"https://www.pinetobeach.it/"}},"1324624548":{"location":[42.7784796,13.9535748],"ct":"IT","tp":"CS","ts":"2024-10-17T07:48:35Z","tX":551,"tY":377,"tags":{"addr:city":"Giulianova","addr:housenumber":"131","addr:postcode":"64021","addr:street":"Lungomare Zara","area":"yes","cabins":"yes","caravans":"yes","email":"campingoasigiulianova@gmail.com","name":"Camping Oasi","phone":"+39 085 800 4759","shower":"yes","tents":"yes","toilets":"yes","website":"https://www.facebook.com/profile.php?id=100095170185943"}},"1324624549":{"location":[42.7790835,13.9528368],"ct":"IT","tp":"CS","ts":"2024-10-17T07:48:35Z","tX":551,"tY":377,"tags":{"cabins":"yes","capacity:caravans":"60","caravans":"yes","dog":"yes","email":"info@campingvillageadriatico.it","fee":"yes","mobile":"+39 3473613781","motorhome":"yes","name":"Adriatico","phone":"+39 085 8006016","power_supply":"yes","shower":"yes","socket:cee_blue":"yes","tents":"yes","toilets":"yes","website":"https://www.campingvillageadriatico.it"}},"1324624550":{"location":[42.7793168,13.952737],"ct":"IT","tp":"CS","ts":"2024-10-17T07:48:35Z","tX":551,"tY":377,"tags":{"addr:city":"Giulianova","addr:postcode":"64021","addr:street":"Lungomare Zara","cabins":"yes","caravans":"yes","contact:mobile":"+39 3473649328","contact:website":"https://www.campingcarouan.it/","email":"info@campingcarouan.it","fee":"yes","motorhome":"yes","name":"Camping Carouan","phone":"+39 0858004774","power_supply":"yes","reservation":"yes","shower":"yes","socket:cee_blue":"yes","tents":"yes","toilets":"yes"}},"1325266483":{"location":[42.7302677,13.9831853],"ct":"IT","tp":"CR","ts":"2024-11-03T07:11:55Z","tX":551,"tY":377,"tags":{"addr:street":"Via degli Acquaviva","capacity:caravans":"28","caravans":"yes","contact:whatsapp":"+393490780987","dog":"yes","email":"info@magalipe.it","fee":"yes","hot_water":"yes","internet_access":"wlan","mobile":"+39 333 810 5777","name":"Magalipè","power_supply":"yes","reservation":"yes","sanitary_dump_station":"yes","shower":"yes","socket:cee_blue":"yes","toilets":"yes","website":"https://www.magalipe.it/"}},"11126859470":{"location":[42.6104899,14.0547256],"ct":"IT","tp":"SD","ts":"2023-08-19T06:11:45Z","tX":551,"tY":377,"tags":{"access":"yes","fee":"no","name":"Camper service Pineto","sanitary_dump_station:round_drain":"yes"}},"12269258406":{"location":[42.6234379,14.0566608],"ct":"IT","tp":"SD","ts":"2024-10-19T15:41:37Z","tX":551,"tY":377,"tags":{"fee":"yes","water_point":"yes"}}}