{"6965509":{"location":[42.1178482,14.0233804],"ct":"IT","tp":"CS","ts":"2023-11-05T21:54:56Z","tX":551,"tY":379,"tags":{"addr:city":"Sant'Eufemia a Maiella","addr:country":"IT","addr:place":"Contrada San Giacomo","addr:province":"Pescara","name":"Agricampeggio Colle dei Lupi","website":"https://www.colledeilupi.it/"}},"13485131":{"location":[42.200761,14.0479787],"ct":"IT","tp":"CS","ts":"2023-04-10T18:54:59Z","tX":551,"tY":379,"tags":{"cabins":"yes","caravans":"2","group_only":"yes;no","landcover":"wood","mobile":"+39 320 922 1069","name":"Dimore Montane","note":"left camp withoiut inner tag to wood \"intentionally\"","shower":"yes","tents":"yes","toilets":"yes","website":"https://www.dimoremontane.com"}},"13815366":{"location":[42.1513027,14.0164324],"ct":"IT","tp":"CS","ts":"2023-02-15T18:45:20Z","tX":551,"tY":379,"tags":{"access":"customers","caravans":"yes","name":"Agri campeggio Caramanico \"da Nicola Sanelli\"","tents":"yes","website":"https://www.rondinellacamping.it/"}},"851598961":{"location":[42.1610771,14.0079755],"ct":"IT","tp":"CR","ts":"2025-01-28T11:12:06Z","tX":551,"tY":379,"tags":{"addr:city":"Caramanico Terme","addr:street":"Via della Libert√†","capacity":"10","drinking_water":"yes","fee":"yes","internet_access":"no","mobile":"+39 392 602 4188","payment:cash":"yes","power_supply":"yes","power_supply:maxcurrent":"10","sanitary_dump_station":"yes","socket:cee_blue":"yes","toilets":"yes"}},"983003071":{"location":[42.0533314,13.9235122],"ct":"IT","tp":"CR","ts":"2024-02-07T09:04:58Z","tX":551,"tY":379,"tags":{"addr:postcode":"67039","addr:street":"Via Iapasseri","opening_hours":"24/7","power_supply":"yes","sanitary_dump_station":"yes"}},"1144312911":{"location":[42.2682248,13.8455824],"ct":"IT","tp":"CS","ts":"2024-11-18T07:48:38Z","tX":551,"tY":379,"tags":{"addr:city":"Corvara","addr:postcode":"65020","addr:street":"Contrada Fonte Gelata","caravans":"yes","contact:facebook":"basecorvo","contact:instagram":"campo.base.corvo","description":"Aree roulotte e camper per la sola sosta, ma sprovviste di energia elettrica e scarico","email":"angela.rolli@yahoo.it","name":"Campo Base Corvo","ref:vatin":"IT01442130686","shower":"yes","tents":"yes","website":"https://www.campobasecorvo.it/"}},"1144316637":{"location":[42.2579643,13.7863181],"ct":"IT","tp":"CS","ts":"2023-02-12T11:16:30Z","tX":551,"tY":379,"tags":{"addr:city":"Capestrano","addr:street":"Contrada Cesa","caravans":"yes","name":"Tenuta Il Guerriero - Agricampeggio Capestrano","shower":"yes","tents":"yes","website":"https://www.tenutailguerriero.it/"}},"1213790758":{"location":[42.1580008,14.0058396],"ct":"IT","tp":"CS","ts":"2023-10-07T09:23:29Z","tX":551,"tY":379,"tags":{"caravan_site":"motorhome_stopover","caravans":"no"}},"1243564692":{"location":[42.0482087,13.9874739],"ct":"IT","tp":"CR","ts":"2024-01-27T21:16:14Z","tX":551,"tY":379,"tags":{"addr:city":"Pacentro","addr:postcode":"67030","addr:street":"Via Francesco Buccitelli","internet_access":"no","power_supply":"no","sanitary_dump_station":"no"}},"9101384730":{"location":[42.2350641,13.8160415],"ct":"IT","tp":"CS","ts":"2023-02-11T14:46:46Z","tX":551,"tY":379,"tags":{"name":"Equiturismo Camping","website":"https://www.turismoequestre.com/iscritti/parco-equituristico-asd-cavalcando-la-valle-del-tirino.php"}},"7942802932":{"location":[42.1612329,14.0081291],"ct":"IT","tp":"SD","ts":"2020-09-25T17:00:43Z","tX":551,"tY":379,"tags":{"access":"yes","fee":"no","operator":"Privato","water_point":"yes"}}}