{"4529762690":{"location":[32.740333,13.714425],"ct":"LY","tp":"CS","ts":"2020-11-24T03:28:03Z","tX":551,"tY":413,"tags":{"name":"Ø§Ù„Ù‚Ø±Ø¨ÙˆÙ„Ù„ÙŠ","name:ar":"Ø§Ù„Ù‚Ø±Ø¨ÙˆÙ„Ù„ÙŠ"}},"4833127122":{"location":[32.5858565,14.0418186],"ct":"LY","tp":"CR","ts":"2017-05-03T16:43:29Z","tX":551,"tY":413,"tags":{"addr:housenumber":"45","addr:postcode":"34677","name":"Ø§Ù„Ø³ÙŠØ³ÙŠ","name:ar":"Ø§Ù„Ø³ÙŠØ³ÙŠ","phone":"0925456806"}},"6343976685":{"location":[32.7570591,13.902946],"ct":"LY","tp":"CR","ts":"2019-03-18T00:45:21Z","tX":551,"tY":413,"tags":{"addr:street":"Ø·Ø±ÙŠÙ‚ Ø§Ù„Ø§Ø³Ù…Ø§Ø¹Ù„ÙŠÙ‡","internet_access":"wlan","name":"Ø´Ù‚Ù„ÙˆÙ‚","name:ar":"Ø´Ù‚Ù„ÙˆÙ","phone":"0923525162"}},"10608242306":{"location":[32.5698407,14.0218844],"ct":"LY","tp":"CR","ts":"2023-02-05T14:46:24Z","tX":551,"tY":413,"tags":{"addr:street":"Ø·Ø±ÙŠÙ‚ Ù…Ø³Ù„Ø§ØªØ© - ØªØ±Ù‡ÙˆÙ†Ø©","email":"Elbai1403@gmail.com","internet_access":"wlan","name":"Ø¹Ø¨Ø¯Ø§Ù„ÙˆØ§Ø­Ø¯ Ø§Ù„Ø¨ÙŠ","phone":"00218919481171"}},"10608242310":{"location":[32.5747153,13.9998754],"ct":"LY","tp":"CR","ts":"2023-02-05T14:46:26Z","tX":551,"tY":413,"tags":{"addr:housenumber":"0913755599","addr:street":"Ø·Ø±ÙŠÙ‚ Ø§Ù„Ø¬Ø¯ÙŠØ¯","name":"Ù…Ù†Ø²Ù„ Ø§Ø¨Ø±Ø§Ù‡ÙŠÙ… Ø§Ù„ØµØ§Ø¯Ù‚ Ø´Ø¹Ø¨Ø©"}},"10700316905":{"location":[32.5856228,14.0457052],"ct":"LY","tp":"CR","ts":"2023-02-28T19:49:54Z","tX":551,"tY":413,"tags":{"name":"Ù…Ù†Ø²Ù„ Ø§Ù„Ø³ÙˆÙ‚ÙŠ Ø§Ù„Ø³ÙŠØ¯"}},"10706794905":{"location":[32.5857154,14.0456346],"ct":"LY","tp":"CR","ts":"2023-03-03T13:28:42Z","tX":551,"tY":413,"tags":{"name":"Ù…Ù†Ø²Ù„ ğŸ  Ø§Ù„Ø³ÙˆÙ‚ÙŠ Ø§Ù„Ø³ÙŠØ¯"}}}