{"4702061991":{"location":[11.2957295,13.9999119],"ct":"CM","tp":"CS","ts":"2017-02-23T19:50:11Z","tX":551,"tY":479,"tags":{"addr:housenumber":"100","addr:postcode":"00237","name":"Kidjimatari Post","name:en":"Kidjimatari Post","name:fr":"Kidjimatari Post"}},"4722959291":{"location":[11.2253991,13.8870481],"ct":"NG","tp":"CS","ts":"2017-03-07T20:22:37Z","tX":551,"tY":479,"tags":{"name":"Grenade launch","name:en":"Grenade launch"}},"4722959292":{"location":[11.2255054,13.8870164],"ct":"NG","tp":"CS","ts":"2017-03-07T20:22:45Z","tX":551,"tY":479,"tags":{"name":"RPG launch","name:en":"RPG launch"}},"4722959293":{"location":[11.2259091,13.887043],"ct":"NG","tp":"CS","ts":"2017-03-07T20:22:55Z","tX":551,"tY":479,"tags":{"name":"CAT position","name:en":"CAT position"}},"4723009689":{"location":[11.2256645,13.8855368],"ct":"NG","tp":"CS","ts":"2017-03-07T20:22:26Z","tX":551,"tY":479,"tags":{"name":"Exploded house","name:en":"Exploded house"}},"4723009789":{"location":[11.2249126,13.8869034],"ct":"NG","tp":"CS","ts":"2020-10-23T15:35:22Z","tX":551,"tY":479,"tags":{}},"4723011889":{"location":[11.2255609,13.8870775],"ct":"NG","tp":"CS","ts":"2017-03-07T20:22:50Z","tX":551,"tY":479,"tags":{"name":"Sharp shooter position","name:en":"Sharp shooter position"}},"4723012489":{"location":[11.3185703,13.9822422],"ct":"NG","tp":"CS","ts":"2017-03-07T20:23:01Z","tX":551,"tY":479,"tags":{"addr:postcode":"00234"}}}