{"941645404":{"location":[40.6099059,-111.9588638],"ct":"US","tp":"SD","ts":"2021-05-11T00:49:27Z","tX":193,"tY":385,"tags":{"charge":"5 USD","fee":"yes","operator":"Holiday Oil","water_point":"yes"}},"1180345665":{"location":[40.5110527,-111.8884678],"ct":"US","tp":"CR","ts":"2023-09-26T23:09:35Z","tX":193,"tY":385,"tags":{"addr:city":"Draper","addr:housenumber":"13275","addr:postcode":"84020","addr:state":"UT","addr:street":"South Minuteman Drive","description":"I mean, you gotta _really_ be ok with highway traffic noise...","internet_access":"wlan","internet_access:fee":"customers","name":"Mountain Shadows RV Park","phone":"+1-801-571-4024","power_supply":"yes","sanitary_dump_station":"yes","shower":"yes","website":"https://mountainshadowsutah.com"}},"2391433869":{"location":[40.4985751,-111.8840222],"ct":"US","tp":"SD","ts":"2015-04-11T05:24:50Z","tX":193,"tY":385,"tags":{"fee":"no","sanitary_dump_station:rinse_water":"yes","sanitary_dump_station:round_drain":"yes"}},"11198738825":{"location":[40.4822435,-111.8983956],"ct":"US","tp":"SD","ts":"2023-09-18T00:10:24Z","tX":193,"tY":385,"tags":{"addr:city":"Draper","addr:housenumber":"14814","addr:postcode":"84020","addr:state":"UT","addr:street":"Minuteman Drive","operator":"Maverik"}}}