{"130078644":{"location":[35.9745592,-112.1241466],"ct":"US","tp":"CS","ts":"2024-03-26T15:33:07Z","tX":193,"tY":402,"tags":{"addr:city":"Tusayan","addr:housenumber":"549","addr:postcode":"86023","addr:state":"AZ","addr:street":"Camper Village Lane","email":"info@grandcanyoncampervillage.com","name":"Grand Canyon Camper Village","phone":"+1 928 638-2887","source":"visit 05-2015","tourism_1":"caravan_site","website":"https://www.grandcanyoncampervillage.com/"}},"1115020625":{"location":[35.9370714,-112.1216979],"ct":"US","tp":"CS","ts":"2022-11-17T21:04:30Z","tX":193,"tY":402,"tags":{"name":"Ten-X Campground","operator":"USFS","source":"www.fs.usda.gov","uuid":"sonora_20130603"}},"5476147596":{"location":[36.0198218,-111.9745834],"ct":"US","tp":"CS","ts":"2018-03-14T04:33:10Z","tX":193,"tY":402,"tags":{"backcountry":"yes","name":"Horseshoe Mesa Camp"}},"9865281431":{"location":[35.9249211,-112.0580322],"ct":"US","tp":"CS","ts":"2022-07-04T08:07:25Z","tX":193,"tY":402,"tags":{}},"10198051244":{"location":[35.979782,-112.1287835],"ct":"US","tp":"CS","ts":"2022-11-17T21:04:30Z","tX":193,"tY":402,"tags":{"backcountry":"yes","name":"Long Jim Loop Camping"}},"12193077719":{"location":[35.8249839,-111.868618],"ct":"US","tp":"CS","ts":"2024-09-22T17:24:38Z","tX":193,"tY":402,"tags":{"backcountry":"yes","capacity:tents":"12","fee":"no","tents":"yes"}},"12193077723":{"location":[35.8536397,-111.8753098],"ct":"US","tp":"CS","ts":"2024-09-22T17:24:38Z","tX":193,"tY":402,"tags":{"backcountry":"yes","capacity:tents":"12","fee":"no","tents":"yes"}}}