{"591378435":{"location":[35.2600205,-112.1175975],"ct":"US","tp":"CR","ts":"2024-09-18T22:13:34Z","tX":193,"tY":404,"tags":{"addr:city":"Joseph City","addr:country":"US","addr:housenumber":"1000","addr:postcode":"86032","addr:state":"AZ","addr:street":"Circle Pines Road","brand":"KOA","brand:wikidata":"Q16988635","caravans":"yes","name":"KOA Circle Pines","opening_hours":"Mar 15-Nov 04 unknown; Nov 05-Mar 14 closed","phone":"+1 928-635-2626","short_name":"KOA","tents":"yes","website":"https://koa.com/campgrounds/williams/"}},"2330847186":{"location":[35.21129,-112.12425],"ct":"US","tp":"CS","ts":"2013-06-03T18:00:47Z","tX":193,"tY":404,"tags":{"name":"Dogtown Lake Campground","operator":"USFS","source":"www.fs.usda.gov","uuid":"sonora_20130603"}},"6868486926":{"location":[35.3799815,-111.824601],"ct":"US","tp":"CS","ts":"2019-10-11T00:04:33Z","tX":193,"tY":404,"tags":{}},"6868486927":{"location":[35.378923,-111.8241745],"ct":"US","tp":"CS","ts":"2019-10-11T00:04:33Z","tX":193,"tY":404,"tags":{}},"6868486929":{"location":[35.3638822,-111.8254378],"ct":"US","tp":"CS","ts":"2019-10-11T00:04:33Z","tX":193,"tY":404,"tags":{}},"6868561627":{"location":[35.3770838,-111.8049967],"ct":"US","tp":"CS","ts":"2019-10-11T00:10:16Z","tX":193,"tY":404,"tags":{}}}