{"558093928":{"location":[28.8604798,-112.0251724],"ct":"MX","tp":"CR","ts":"2023-10-15T18:07:41Z","tX":193,"tY":426,"tags":{"addr:country":"MX","addr:street":"Enrique Esqueda","email":"kunkaakrvpark@hotmail.com","fee":"yes","name":"KinoBay RV Park","website":"https://www.kunkaak.com/"}},"558096745":{"location":[28.8616506,-112.0233158],"ct":"MX","tp":"CR","ts":"2020-08-09T23:08:08Z","tX":193,"tY":426,"tags":{"addr:city":"Bahía de Kino","addr:country":"MX","addr:postcode":"83340","addr:state":"SON","addr:street":"Calle Enrique Esqueda","addr:suburb":"Nuevo Kino","fee":"yes","name":"Parque Kun Kaak","name:en":"Kun Kaak Park","phone":"+52-662-242-0088","sanitary_dump_station":"customers"}},"558101654":{"location":[28.855337,-112.0030822],"ct":"MX","tp":"CR","ts":"2018-02-02T23:16:17Z","tX":193,"tY":426,"tags":{"addr:street":"Hermosillo - Bahía Kino","fee":"yes","name":"RV Park Y Hotel Sahuaro","tourism_1":"hotel"}},"835607557":{"location":[28.8629317,-112.0217683],"ct":"MX","tp":"CR","ts":"2020-08-09T23:45:01Z","tX":193,"tY":426,"tags":{"name":"RV Park"}},"3129748523":{"location":[28.8299114,-111.9546314],"ct":"MX","tp":"CR","ts":"2014-10-14T18:27:31Z","tX":193,"tY":426,"tags":{"name":"La Playa R.V & Hotel"}}}