{"118977832":{"location":[46.0570157,-73.9249804],"ct":"CA","tp":"CS","ts":"2011-06-24T20:28:47Z","tX":301,"tY":364,"tags":{"source":"NRCan-CanVec-7.0"}},"176678545":{"location":[45.8527785,-74.0045537],"ct":"CA","tp":"CS","ts":"2018-05-13T12:38:47Z","tX":301,"tY":364,"tags":{"name":"Camping Au Pin D'Erable Inc","source":"NRCan-CanVec-10.0"}},"176772922":{"location":[45.9581319,-74.0391851],"ct":"CA","tp":"CS","ts":"2020-01-21T15:42:33Z","tX":301,"tY":364,"tags":{"name":"Camping du Pin Rouge","source":"NRCan-CanVec-10.0"}},"445513987":{"location":[46.0008768,-73.9167111],"ct":"CA","tp":"CS","ts":"2023-10-15T06:32:41Z","tX":301,"tY":364,"tags":{"addr:city":"Saint-Calixte","addr:housenumber":"11155","addr:postcode":"J0K 1Z0","addr:province":"QC","addr:street":"Route 335","name":"Atlantide camping familial","phone":"+1-450-222-5225","website":"https://www.campingatlantide.com/"}},"857945099":{"location":[45.9217145,-73.8338855],"ct":"CA","tp":"CS","ts":"2020-10-12T00:53:11Z","tX":301,"tY":364,"tags":{}},"1860450783":{"location":[45.8884007,-73.868134],"ct":"CA","tp":"CS","ts":"2016-09-09T03:49:31Z","tX":301,"tY":364,"tags":{"name":"camping les cascades","name:fr":"camping les cascades","source":"NRCan-CanVec-10.0"}},"1914817623":{"location":[45.8515081,-74.0722922],"ct":"CA","tp":"CS","ts":"2016-08-05T13:11:48Z","tX":301,"tY":364,"tags":{"name":"Camping Rustique"}}}