{"10592824":{"location":[45.3322684,-73.9650525],"ct":"CA","tp":"CS","ts":"2023-01-16T10:13:56Z","tX":301,"tY":367,"tags":{"addr:city":"Pointe-des-Cascades","addr:housenumber":"2","addr:province":"QC","addr:street":"Chemin du Canal","name":"Camping des Cascades"}},"92555025":{"location":[45.3109771,-74.1501243],"ct":"CA","tp":"CR","ts":"2024-03-20T19:14:17Z","tX":301,"tY":367,"tags":{"flats":"4","name":"Camping Saint-Emmanuel"}},"124149084":{"location":[45.1964196,-74.1673541],"ct":"CA","tp":"CS","ts":"2023-01-16T14:39:38Z","tX":301,"tY":367,"tags":{"addr:city":"Saint-Stanislas-de-Kostka","addr:housenumber":"195","addr:street":"Rue Hébert","name":"Camping À la Claire Fontaine","source":"NRCan-CanVec-7.0"}},"3867930994":{"location":[45.2717059,-74.1143462],"ct":"CA","tp":"SD","ts":"2021-02-12T01:30:31Z","tX":301,"tY":367,"tags":{"access":"yes","fee":"no","name":"Station de vidange","operator":"Ville de Valleyfield"}},"10557707010":{"location":[45.2180601,-74.1163761],"ct":"CA","tp":"CR","ts":"2023-01-15T21:09:46Z","tX":301,"tY":367,"tags":{"capacity:caravans":"22","name":"Halte pour VR"}}}