{"119064341":{"location":[45.04981,-73.9187478],"ct":"CA","tp":"CS","ts":"2025-02-06T16:14:50Z","tX":301,"tY":368,"tags":{"name":"Camping du Lac SandySun","source":"NRCan-CanVec-7.0","website":"https://www.campingsandysun.com/"}},"119187205":{"location":[45.0637616,-73.9049178],"ct":"CA","tp":"CS","ts":"2017-07-10T20:41:48Z","tX":301,"tY":368,"tags":{"name":"Camping Lac des Pins","source":"NRCan-CanVec-7.0"}},"207840892":{"location":[45.0578718,-73.8643561],"ct":"CA","tp":"CS","ts":"2023-01-17T22:46:57Z","tX":301,"tY":368,"tags":{"addr:housenumber":"2914","addr:street":"Route 209","name":"La Pommerie, centre Ã©cologique et naturiste","nudism":"yes","phone":"+1-450-826-4723","website":"https://www.pommerie.com/"}},"10822263918":{"location":[44.9092192,-74.0887434],"ct":"US","tp":"CS","ts":"2024-07-15T04:23:17Z","tX":301,"tY":368,"tags":{"access":"private","addr:city":"Chateaugay","addr:housenumber":"34","addr:postcode":"12920","addr:state":"NY","addr:street":"Cemetery Road","addr:unit":"89","caravans":"yes","fee":"yes","name":"High Falls Park Campground","nysgissam:nysaddresspointid":"FRAN013021;FRAN013020","payment:cash":"yes","static_caravans":"yes","tents":"yes"}},"10822263961":{"location":[44.9100186,-74.0897098],"ct":"US","tp":"CS","ts":"2023-04-18T15:23:18Z","tX":301,"tY":368,"tags":{"name":"Pavillion, Showers, Rec. Room, Picnic Tables"}},"6486883784":{"location":[44.9991762,-74.1590356],"ct":"CA","tp":"CS","ts":"2020-02-11T23:17:08Z","tX":301,"tY":368,"tags":{"name":"Mary Gardner"}}}