{"429415738":{"location":[43.1856269,-74.1765731],"ct":"US","tp":"CS","ts":"2025-01-19T22:29:05Z","tX":301,"tY":375,"tags":{"boundary":"protected_area","governance":"government_managed","name":"Northampton Beach Campground","ownership":"state","protect_class":"21","protection_object":"recreation","protection_title":"Intensive Use","related_law":"New York State Constitution, Article XIV","source":"http://gis.ny.gov/gisdata/inventories/details.cfm?DSID=1114","website":"https://www.dec.ny.gov/outdoor/24486.html"}},"845864637":{"location":[43.2092216,-73.8344428],"ct":"US","tp":"CR","ts":"2020-09-09T22:55:35Z","tX":301,"tY":375,"tags":{"addr:city":"Corinth","addr:housenumber":"78","addr:postcode":"12822","addr:state":"NY","addr:street":"Heath Road","name":"Alpine Lake RV Resort","note":"approximate boundary","website":"https://www.rvonthego.com/new-york/alpine-lake-rv-resort/"}},"2296427116":{"location":[43.301084,-73.9595727],"ct":"US","tp":"CS","ts":"2013-05-08T20:48:19Z","tX":301,"tY":375,"tags":{}},"3007278599":{"location":[43.2194058,-73.8538518],"ct":"US","tp":"CS","ts":"2014-08-09T18:19:02Z","tX":301,"tY":375,"tags":{"addr:city":"Corinth","addr:housenumber":"4748","addr:postcode":"12822","addr:street":"New York 9N","name":"Rustic Barn Campground"}},"4289532689":{"location":[43.2705357,-73.8357948],"ct":"US","tp":"CS","ts":"2024-05-09T17:34:13Z","tX":301,"tY":375,"tags":{"name":"Corinth"}},"7902821684":{"location":[43.1579426,-73.9628048],"ct":"US","tp":"CS","ts":"2020-09-13T15:44:09Z","tX":301,"tY":375,"tags":{"backcountry":"yes"}},"7902896251":{"location":[43.156121,-73.9638783],"ct":"US","tp":"CS","ts":"2020-09-13T15:44:09Z","tX":301,"tY":375,"tags":{"backcountry":"yes"}},"7902896252":{"location":[43.1582097,-73.9594814],"ct":"US","tp":"CS","ts":"2020-09-13T15:44:09Z","tX":301,"tY":375,"tags":{"backcountry":"yes"}},"7902896253":{"location":[43.1587106,-73.9594003],"ct":"US","tp":"CS","ts":"2020-09-13T15:44:09Z","tX":301,"tY":375,"tags":{"backcountry":"yes"}},"8177802828":{"location":[43.1090198,-73.9218837],"ct":"US","tp":"CS","ts":"2020-11-30T00:19:16Z","tX":301,"tY":375,"tags":{"backcountry":"yes"}},"8405015791":{"location":[43.1193806,-73.9091485],"ct":"US","tp":"CS","ts":"2023-09-14T09:26:23Z","tX":301,"tY":375,"tags":{"addr:city":"Greenfield Center","addr:housenumber":"550","addr:postcode":"12833","addr:state":"NY","addr:street":"Sand Hill Road","addr:unit":"106","caravans":"yes","charge":"44 USD/tent","fee":"yes","name":"Whispering Pines Campsites and RV Park","nysgissam:nysaddresspointid":"SARA097743;SARA076082","phone":"+1-855-687-2267","static_caravans":"yes","tents":"yes"}}}