{"853316608":{"location":[42.9895877,-74.0031603],"ct":"US","tp":"CS","ts":"2020-09-30T13:36:08Z","tX":301,"tY":376,"tags":{"addr:housenumber":"2501","addr:street":"Northline Road","name":"McConchie's Heritage Acres Campground","phone":"+1-518-882-6605","website":"http://www.mcconchiescampground.com/"}},"974080537":{"location":[43.0436102,-74.0301149],"ct":"US","tp":"CS","ts":"2021-08-17T16:01:58Z","tX":301,"tY":376,"tags":{"access":"private","addr:city":"Galway","addr:housenumber":"2050","addr:postcode":"12074","addr:state":"NY","addr:street":"Alexander","name":"Girl Scout Camp Wood Haven"}},"974097324":{"location":[43.041956,-74.034485],"ct":"US","tp":"CS","ts":"2021-08-17T17:17:06Z","tX":301,"tY":376,"tags":{"group_only":"yes","name":"Lumber Jill"}},"974097325":{"location":[43.0398153,-74.0359601],"ct":"US","tp":"CS","ts":"2021-08-17T17:17:06Z","tX":301,"tY":376,"tags":{"group_only":"yes","name":"Frontier"}},"974097326":{"location":[43.040031,-74.0318617],"ct":"US","tp":"CS","ts":"2021-08-17T17:17:06Z","tX":301,"tY":376,"tags":{"group_only":"yes","name":"Gypsy"}},"974097327":{"location":[43.0414423,-74.0359978],"ct":"US","tp":"CS","ts":"2021-08-17T17:17:06Z","tX":301,"tY":376,"tags":{"group_only":"yes","name":"Pioneer"}},"10280881886":{"location":[42.8495376,-74.0133232],"ct":"US","tp":"CR","ts":"2022-12-22T19:05:13Z","tX":301,"tY":376,"tags":{"leisure":"marina","name":"Arrowhead Marina and RV Park","seamark:harbour:category":"marina","seamark:type":"harbour"}}}