{"42126618":{"location":[54.9753409,-3.3513813],"ct":"GB","tp":"CR","ts":"2021-08-23T03:39:47Z","tX":502,"tY":324,"tags":{"addr:postcode":"DG12 5PN","name":"Queensberry Bay Holiday Park","phone":"+44 1461 700 205","power_supply":"yes","tents":"yes","website":"http://www.queensberrybay.co.uk/"}},"318344409":{"location":[54.8643387,-3.3589459],"ct":"GB","tp":"CR","ts":"2020-12-02T13:33:10Z","tX":502,"tY":324,"tags":{"addr:city":"Silloth","addr:postcode":"CA7 4PE","name":"Tanglewood Caravan park","phone":"+44 16973 31253","website":"http://www.tanglewoodcaravanpark.co.uk/"}},"318350273":{"location":[54.8620039,-3.3896206],"ct":"GB","tp":"CS","ts":"2019-01-08T08:33:13Z","tX":502,"tY":324,"tags":{"name":"Stanwix Park holiday Centre"}},"318352235":{"location":[54.833899,-3.4101665],"ct":"GB","tp":"CR","ts":"2018-12-13T08:48:50Z","tX":502,"tY":324,"tags":{"addr:city":"Silloth","addr:postcode":"CA7 4LA","name":"Rowanbank Caravan Park","phone":"+44 16973 31653","website":"http://rowanbankcaravanpark.co.uk/"}},"323663300":{"location":[54.9377467,-3.1810276],"ct":"GB","tp":"CR","ts":"2023-12-31T13:25:40Z","tX":502,"tY":324,"tags":{"addr:city":"Port Carlisle","addr:postcode":"CA7 5DJ","name":"Cottage and Glendale Holiday Park","phone":"+44 1697 325071","website":"https://www.parkholidays.com/our-parks/cumbria/glendale/caravan-holidays"}},"327738680":{"location":[54.946288,-3.1849419],"ct":"GB","tp":"CS","ts":"2015-02-12T10:58:19Z","tX":502,"tY":324,"tags":{}},"640797397":{"location":[54.7898021,-3.4315201],"ct":"GB","tp":"CR","ts":"2018-11-04T09:23:26Z","tX":502,"tY":324,"tags":{"name":"Old Kiln Farm Caravan Club"}},"661103645":{"location":[54.8492361,-3.3981066],"ct":"GB","tp":"CR","ts":"2019-01-07T09:08:41Z","tX":502,"tY":324,"tags":{"addr:city":"Blitterlees","addr:postcode":"CA7 4JT","name":"Heather Bank","website":"https://www.caravanclub.co.uk/certificated-locations/england/cumbria/silloth/heather-bank/"}}}