{"149144118":{"location":[54.7608994,-3.4296216],"ct":"GB","tp":"CS","ts":"2021-12-10T17:26:00Z","tX":502,"tY":325,"tags":{}},"156529819":{"location":[54.6014555,-3.1865786],"ct":"GB","tp":"CR","ts":"2022-10-09T15:52:07Z","tX":502,"tY":325,"tags":{"name":"Braithwaite Caravan and Camping Club Site","note":"Actually a Park Homes site. This seems the closest tag. Also does touring caravans and camping","phone":"+44 17687 78343"}},"282897776":{"location":[54.6622574,-3.419365],"ct":"GB","tp":"CR","ts":"2021-07-16T15:44:43Z","tX":502,"tY":325,"tags":{"addr:city":"Brigham","addr:postcode":"CA13 0XH","email":"info@brighamholidaypark.co.uk","name":"Brigham Holiday Park","phone":"+44 1900 827 884","website":"https://www.brighamholidaypark.co.uk/"}},"285216985":{"location":[54.7223395,-3.3030336],"ct":"GB","tp":"CR","ts":"2014-05-30T12:15:20Z","tX":502,"tY":325,"tags":{"name":"Threapland Park"}},"285219871":{"location":[54.709176,-3.2393281],"ct":"GB","tp":"CR","ts":"2024-10-07T15:14:20Z","tX":502,"tY":325,"tags":{"name":"Keswick Lodge Retreat","phone":"+44 17687 76510","website":"https://darwinescapes.co.uk/keswick-reach-lodge-retreat/"}},"285221106":{"location":[54.6749963,-3.2043135],"ct":"GB","tp":"CR","ts":"2023-08-04T08:05:00Z","tX":502,"tY":325,"tags":{"addr:city":"Bassenthwaite","addr:postcode":"CA12 4QH","caravans":"yes","internet_access":"no","name":"Trafford Caravan Park","phone":"+44 17687 76298","power_supply":"yes","sanitary_dump_station":"yes","static_caravans":"yes","website":"https://www.caravansitefinder.co.uk/parks/view/26314-trafford-caravan-site"}},"294810238":{"location":[54.6497802,-3.4591635],"ct":"GB","tp":"CR","ts":"2022-05-24T19:29:18Z","tX":502,"tY":325,"tags":{"name":"Nepgill Park","phone":"+44 1900 826582","website":"https://www.nepgillpark.com/"}},"294952387":{"location":[54.6223463,-3.3117475],"ct":"GB","tp":"CR","ts":"2022-05-24T19:27:30Z","tX":502,"tY":325,"tags":{"addr:city":"Lorton","addr:postcode":"CA13 9UW","addr:street":"Low Lorton","name":"Wheatsheaf Caravan and Camping Park","phone":"+44 1900 85199","website":"https://www.wheatsheafinnlorton.co.uk/"}},"301285547":{"location":[54.7630645,-3.2322875],"ct":"GB","tp":"CR","ts":"2017-09-03T15:47:38Z","tX":502,"tY":325,"tags":{"addr:city":"Mealsgate","addr:postcode":"CA7 1LQ","name":"Larches Caravan Park","phone":"+44 1697 371379"}},"301299177":{"location":[54.7202791,-3.2752392],"ct":"GB","tp":"CR","ts":"2022-05-24T19:36:00Z","tX":502,"tY":325,"tags":{"addr:city":"Bothel","addr:postcode":"CA7 2JN","name":"Skiddaw View Holiday Park","phone":"+44 16973 20919","website":"https://www.skiddawview.co.uk/"}},"304513269":{"location":[54.614541,-3.317613],"ct":"GB","tp":"CR","ts":"2020-06-09T05:47:00Z","tX":502,"tY":325,"tags":{"addr:city":"Lorton","addr:postcode":"CA13 0RQ","name":"Whinfell Caravan Park","phone":"+44 17687 73398","website":"https://whinfellcaravanpark.co.uk/"}},"315761178":{"location":[54.6524044,-3.3551098],"ct":"GB","tp":"CR","ts":"2023-10-02T13:23:43Z","tX":502,"tY":325,"tags":{"addr:city":"cockermouth","addr:postcode":"CA13 9TG","addr:street":"Simonscales Lane","name":"Violet Bank holiday Home Park","phone":"+44 1900 822 169","website":"https://www.violetbank.co.uk/"}},"317541283":{"location":[54.6662707,-3.3458909],"ct":"GB","tp":"CR","ts":"2017-09-03T15:47:38Z","tX":502,"tY":325,"tags":{"addr:city":"Cockermouth","addr:postcode":"CA13 9SF","addr:street":"Castlegate Drive","name":"Wyndham Hall Caravan Park","phone":"+44 1900 822571","website":"http://www.wyndhamholidaypark.org.uk/"}},"320485238":{"location":[54.6853947,-3.1775731],"ct":"GB","tp":"CR","ts":"2023-10-02T13:23:46Z","tX":502,"tY":325,"tags":{"addr:city":"Bassenthwaite","addr:postcode":"CA12 4QX","name":"High Close Holiday Homes","phone":"+44 1768 257 984","website":"https://highclose.co.uk/"}},"320485801":{"location":[54.6630155,-3.2130939],"ct":"GB","tp":"CR","ts":"2022-05-24T19:24:28Z","tX":502,"tY":325,"tags":{"addr:city":"Bassenthwaite","addr:postcode":"CA12 4QZ","name":"Bassenthwaite Lakeside Lodges","phone":"+44 1768 776641","website":"https://blll.co.uk/"}},"324497085":{"location":[54.7410567,-3.3215595],"ct":"GB","tp":"CR","ts":"2015-01-26T13:56:44Z","tX":502,"tY":325,"tags":{}},"326551491":{"location":[54.6798815,-3.2417548],"ct":"GB","tp":"CR","ts":"2019-02-01T08:53:14Z","tX":502,"tY":325,"tags":{"addr:city":"Bassenthwaite","addr:postcode":"CA13 9SH","name":"Herdwick Croft Caravan Park","phone":"+44 17687 76241","website":"http://www.herdwick-croft.co.uk/"}},"326552021":{"location":[54.6835407,-3.230607],"ct":"GB","tp":"CR","ts":"2018-12-02T11:36:58Z","tX":502,"tY":325,"tags":{"addr:city":"Bassenthwaite","addr:postcode":"CA12 4RD","name":"Coal Beck Caravan Park","phone":"+44 16973 22843","website":"https://www.coalbeck.co.uk"}},"331052536":{"location":[54.610408,-3.1953091],"ct":"GB","tp":"CS","ts":"2017-09-03T15:33:36Z","tX":502,"tY":325,"tags":{"addr:city":"Thornthwaite","addr:postcode":"CA12 5RZ","name":"Lanefoot Farm","phone":"+44 17687 78097"}},"331052538":{"location":[54.611222,-3.1977158],"ct":"GB","tp":"CR","ts":"2019-03-23T00:11:48Z","tX":502,"tY":325,"tags":{"addr:city":"Thornthwaite","addr:postcode":"CA12 5RZ","name":"Lanefoot Farm","phone":"+44 17687 78097","website":"https://www.stayinthornthwaite.co.uk/?c=lanefootfarm"}},"456763765":{"location":[54.6849685,-3.2010593],"ct":"GB","tp":"CR","ts":"2023-08-11T08:14:09Z","tX":502,"tY":325,"tags":{"addr:city":"Bassenthwaite","addr:postcode":"CA12 4RJ","name":"Robin Hood Park","phone":"+44 1539 823 659","website":"https://www.robinhoodpark.co.uk/"}},"835494172":{"location":[54.6160927,-3.3171631],"ct":"GB","tp":"CS","ts":"2020-08-09T13:34:07Z","tX":502,"tY":325,"tags":{"camp_site":"serviced","caravans":"yes","internet_access":"no","name":"Whinfell Hall Farm Campsite","sanitary_dump_station":"no","tents":"yes"}},"1157855785":{"location":[54.6992938,-3.278321],"ct":"GB","tp":"CS","ts":"2024-06-24T03:26:57Z","tX":502,"tY":325,"tags":{"name":"Linskeldfield Farm Camping","website":"https://www.linskeldfield.co.uk/camping"}},"5140709451":{"location":[54.602791,-3.1965882],"ct":"GB","tp":"CS","ts":"2022-10-09T15:52:07Z","tX":502,"tY":325,"tags":{"name":"Hope Memorial Camp","operator":"Hope Memorial Trust","website":"http://www.thejohnroan.greenwich.sch.uk/287/hope-memorial-trust"}},"9912692734":{"location":[54.7136154,-3.5068446],"ct":"GB","tp":"CR","ts":"2022-07-26T20:16:31Z","tX":502,"tY":325,"tags":{"caravan_site":"reception"}},"9912701417":{"location":[54.7146291,-3.5061607],"ct":"GB","tp":"CR","ts":"2022-10-15T12:56:33Z","tX":502,"tY":325,"tags":{"addr:postcode":"CA15 8AY","addr:street":"Marine Road","email":"enquiries@maryportmarina.com","internet_access":"wlan","name":"Harbour Side Caravan Site","opening_hours":"Su-We 09:00-17:00; Th 09:00-18:00; Fr 10:00-17:00; Sa 10:00-15:00","phone":"+44 1900 814431","website":"https://www.maryportmarina.co.uk/"}}}