{"15639597":{"location":[51.9391451,-3.2700449],"ct":"GB","tp":"CS","ts":"2023-03-24T23:10:35Z","tX":502,"tY":338,"tags":{"caravans":"yes","name":"Lakeside Caravan Park","phone":"+44 1874 658226","shower":"yes","static_caravans":"yes","tents":"yes","toilets":"yes","website":"https://llangorselake.co.uk/"}},"136660017":{"location":[51.9143082,-3.317026],"ct":"GB","tp":"CR","ts":"2023-10-14T10:50:43Z","tX":502,"tY":338,"tags":{"internet_access":"wlan","name":"Pencelli Castle","toilets":"yes","website":"https://www.pencelli-castle.com/"}},"136660018":{"location":[51.9132722,-3.3146782],"ct":"GB","tp":"CS","ts":"2023-10-14T10:47:43Z","tX":502,"tY":338,"tags":{"caravans":"no","drinking_water":"yes","fee":"yes","internet_access":"wlan","name":"Pencelli Castle","shower":"yes","tents":"yes","toilets":"yes","website":"https://www.pencelli-castle.com/","wheelchair":"yes"}},"136706433":{"location":[51.9610462,-3.3736806],"ct":"GB","tp":"CR","ts":"2019-09-22T08:26:09Z","tX":502,"tY":338,"tags":{"name":"Bishop's Meadow","wheelchair":"no"}},"136707032":{"location":[51.9564024,-3.3857014],"ct":"GB","tp":"CS","ts":"2023-12-31T15:00:59Z","tX":502,"tY":338,"tags":{"addr:city":"Brecon","addr:country":"GB","addr:street":"Hay Road","email":"priorymill@gmail.com","fee":"yes","name":"Priory Mill Farm","note":"dimension to be fixed","payment:cash":"yes","static_caravans":"no","tents":"yes","website":"https://www.priorymillfarm.co.uk/"}},"217951175":{"location":[51.9410434,-3.3547828],"ct":"GB","tp":"CS","ts":"2023-03-21T13:43:25Z","tX":502,"tY":338,"tags":{"addr:city":"Brecon","addr:postcode":"LD3 7SH","caravans":"yes","name":"Brecon Beacons Caravan Club Site","operator":"The Caravan Club","tents":"yes","wheelchair":"yes"}},"333091891":{"location":[52.0315564,-3.2060176],"ct":"GB","tp":"CS","ts":"2015-03-16T16:23:54Z","tX":502,"tY":338,"tags":{"name":"Millfield Caravan Park","source":"survey; Bing"}},"374441855":{"location":[51.9030901,-3.4812712],"ct":"GB","tp":"CR","ts":"2015-10-08T15:14:51Z","tX":502,"tY":338,"tags":{"access":"private","operator":"Caravan Club"}},"390181361":{"location":[51.9419039,-3.2697554],"ct":"GB","tp":"CR","ts":"2023-03-24T23:10:35Z","tX":502,"tY":338,"tags":{"caravans":"yes","name":"Llynfi Holiday Park","phone":"+44 7495 262816","static_caravans":"yes","website":"http://www.llynfiholidaypark.co.uk/"}},"390182601":{"location":[52.0030658,-3.2430309],"ct":"GB","tp":"CR","ts":"2024-07-24T10:23:26Z","tX":502,"tY":338,"tags":{"name":"Riverside International"}},"390182602":{"location":[52.0070603,-3.2536403],"ct":"GB","tp":"CR","ts":"2024-08-12T10:30:03Z","tX":502,"tY":338,"tags":{"name":"Anchorage Park"}},"429337843":{"location":[51.9509394,-3.4749254],"ct":"GB","tp":"CR","ts":"2024-04-03T21:15:26Z","tX":502,"tY":338,"tags":{"caravan_site":"motorhome_stopover","caravan_site:type":"farm_shop","caravans":"yes","motorhome":"yes","name":"Aberbran Fawr Campsite","shower":"yes","tents":"yes","toilets":"yes","website":"https://www.aberbranfawr.co.uk/"}},"469237338":{"location":[52.0239067,-3.1753724],"ct":"GB","tp":"CS","ts":"2009-08-16T15:30:42Z","tX":502,"tY":338,"tags":{"name":"Newcourt Farm"}},"499966104":{"location":[51.8965644,-3.2870735],"ct":"GB","tp":"CS","ts":"2024-04-20T21:55:44Z","tX":502,"tY":338,"tags":{"addr:city":"Brecon","addr:city:cy":"Aberhonddu","addr:city:en":"Brecon","addr:country":"GB","addr:postcode":"LD3 7YJ","addr:street":"Mill Lane","addr:suburb":"Talybont-on-Usk","caravans":"yes","drinking_water":"yes","fee":"yes","internet_access":"wlan","name":"Talybont Farm Camping","operator":"John and Lydia Jenkins","phone":"+44 1874 676674","power_supply":"yes","shower":"yes","tents":"yes","toilets":"yes","website":"https://www.talybontfarmcamping.co.uk/"}},"842201943":{"location":[51.901695,-3.193132],"ct":"GB","tp":"CS","ts":"2024-07-14T10:36:51Z","tX":502,"tY":338,"tags":{"access":"customers","cabins":"yes","caravans":"yes","email":"info@campingbreconbeacons.com","internet_access":"wlan","internet_access:fee":"no","name":"Cwmdu Campsite","phone":"+44 1874 730741","shower":"yes","tents":"yes","toilets":"yes","website":"https://www.campingbreconbeacons.com"}},"877061033":{"location":[51.9583838,-3.202689],"ct":"GB","tp":"CS","ts":"2022-10-26T08:38:24Z","tX":502,"tY":338,"tags":{"toilets:wheelchair":"no","wheelchair":"no"}},"927123329":{"location":[52.0038968,-3.2632317],"ct":"GB","tp":"CR","ts":"2024-07-24T10:23:26Z","tX":502,"tY":338,"tags":{"name":"West Lodge Touring Caravan Park"}},"982761144":{"location":[51.876644,-3.2991262],"ct":"GB","tp":"CS","ts":"2021-09-20T13:00:34Z","tX":502,"tY":338,"tags":{"access":"yes","capacity":"2","fee":"yes","operator":"YHA Danywenallt"}},"1103922172":{"location":[51.869775,-3.1888635],"ct":"GB","tp":"CS","ts":"2022-10-14T18:46:17Z","tX":502,"tY":338,"tags":{"caravans":"yes","name":"Glanusk Caravan Park","tents":"yes","website":"https://www.glanuskestate.com"}},"1202129543":{"location":[52.0131297,-3.2211207],"ct":"GB","tp":"CS","ts":"2023-09-12T17:05:45Z","tX":502,"tY":338,"tags":{"access":"customers","fee":"yes","landuse":"orchard","name":"Lower Porthamel Camping","name:cy":"Maes Pebyll Porthamel Isaf","static_caravans":"no","tents":"yes"}},"1254946033":{"location":[52.0238796,-3.1750357],"ct":"GB","tp":"CS","ts":"2024-02-26T17:20:31Z","tX":502,"tY":338,"tags":{}},"1276492817":{"location":[51.9097275,-3.4472508],"ct":"GB","tp":"CS","ts":"2011-05-07T22:38:58Z","tX":502,"tY":338,"tags":{"internet_access":"no","name":"Cwm-llwch","smoking":"yes"}},"1587177809":{"location":[51.9037658,-3.3995142],"ct":"GB","tp":"CS","ts":"2012-01-12T16:18:15Z","tX":502,"tY":338,"tags":{}},"2960954718":{"location":[51.8765966,-3.2983933],"ct":"GB","tp":"CS","ts":"2021-09-13T10:57:41Z","tX":502,"tY":338,"tags":{"access":"yes","caravans":"no","fee":"yes","name":"YHA Danywenallt","operator":"YHA England & Wales"}},"5595329623":{"location":[51.9093678,-3.3636888],"ct":"GB","tp":"CS","ts":"2025-01-09T23:44:17Z","tX":502,"tY":338,"tags":{"addr:city":"Brecon","addr:city:cy":"Aberhonddu","addr:city:en":"Brecon","addr:country":"GB","addr:postcode":"LD3 8LP","addr:street":"Tregaer Road","addr:suburb":"Llanfrynach","name":"Pentwyn Farm Camp Site","operator":"Pentwyn Farm","phone":"+44 7814 189810","website":"https://pentwynfarm.wales/accommodation/camping-farm"}},"5931148701":{"location":[51.8369159,-3.3910026],"ct":"GB","tp":"CS","ts":"2022-10-03T20:59:42Z","tX":502,"tY":338,"tags":{"name":"Camp"}},"6618510510":{"location":[51.9252613,-3.32853],"ct":"GB","tp":"CS","ts":"2019-07-16T07:13:47Z","tX":502,"tY":338,"tags":{}},"9051545655":{"location":[51.9309631,-3.4195903],"ct":"GB","tp":"CS","ts":"2021-08-31T17:36:46Z","tX":502,"tY":338,"tags":{}},"9895597671":{"location":[51.8982552,-3.2656455],"ct":"GB","tp":"CS","ts":"2024-04-20T21:55:44Z","tX":502,"tY":338,"tags":{"addr:city":"Brecon","addr:city:cy":"Aberhonddu","addr:city:en":"Brecon","addr:country":"GB","addr:housename":"Talybryn Lodge","addr:postcode":"LD3 7JQ","addr:suburb":"Talybont-on-Usk","contact:phone":"+44 7721488140","contact:website":"https://www.pitchup.com/campsites/Wales/Mid-Wales/Powys/Brecon/the-alltimate-view/","fee":"yes","name":"The Alltimate View"}},"11374908069":{"location":[51.9124586,-3.5053689],"ct":"GB","tp":"CS","ts":"2024-04-20T22:33:02Z","tX":502,"tY":338,"tags":{"addr:city":"Brecon","addr:city:cy":"Aberhonddu","addr:city:en":"Brecon","addr:country":"GB","addr:postcode":"LD3 8NW","addr:street":"Lower Forest Lodge Farm","addr:suburb":"LIbanus","email":"enquiries@breconbeaconswildcamping.co.uk","name":"Brecon Beacons Wild Camping","website":"https://www.breconbeaconswildcamping.co.uk/"}}}