{"46033712":{"location":[50.7657858,-3.2854527],"ct":"GB","tp":"CR","ts":"2009-12-11T15:31:23Z","tX":502,"tY":343,"tags":{}},"48488298":{"location":[50.7495663,-3.3886516],"ct":"GB","tp":"CR","ts":"2022-05-06T16:52:54Z","tX":502,"tY":343,"tags":{"access":"members","addr:city":"Exeter","addr:postcode":"EX5 2EF","addr:village":"Rockbeare","capacity":"5","dog":"yes","drinking_water":"yes","email":"martin.zs@gmx.com","fee":"yes","name":"Rockbeare Court Farm Caravan Site","opening_hours":"24/7","operator":"M J Tatchell t/a Rockbeare Court Farm Ltd.","payment:cash":"yes","payment:cheque":"yes","payment:credit_cards":"no","payment:cryptocurrencies":"no","payment:debit_cards":"no","payment:electronic_purses":"no","phone":"+44 1404 823438","power_supply":"yes","ref:company_no":"04909222","sanitary_dump_station":"customers","shower":"customers","smoking":"outside","surface":"grass","toilets":"customers","website":"http://www.rockbearecourtfarm.co.uk/","wheelchair":"yes"}},"98718472":{"location":[50.8664849,-3.3396065],"ct":"GB","tp":"CR","ts":"2022-10-05T08:22:49Z","tX":502,"tY":343,"tags":{}},"157539497":{"location":[50.9166525,-3.3470861],"ct":"GB","tp":"CR","ts":"2022-07-20T19:59:28Z","tX":502,"tY":343,"tags":{}},"231108383":{"location":[50.8584519,-3.2784686],"ct":"GB","tp":"CR","ts":"2017-03-17T13:55:50Z","tX":502,"tY":343,"tags":{}},"232031217":{"location":[50.8592563,-3.2814401],"ct":"GB","tp":"CR","ts":"2018-07-14T14:55:11Z","tX":502,"tY":343,"tags":{}},"266325636":{"location":[50.7607079,-3.2173502],"ct":"GB","tp":"CR","ts":"2018-01-04T14:06:06Z","tX":502,"tY":343,"tags":{}},"413893517":{"location":[50.9244384,-3.3665266],"ct":"GB","tp":"CR","ts":"2020-07-26T00:27:27Z","tX":502,"tY":343,"tags":{"name":"Minnows Touring Park","power_supply":"yes","tents":"yes"}},"433112202":{"location":[50.8584439,-3.2780322],"ct":"GB","tp":"CS","ts":"2017-03-17T13:55:50Z","tX":502,"tY":343,"tags":{"name":"Forest Glade"}},"457113719":{"location":[50.8035853,-3.2292648],"ct":"GB","tp":"CR","ts":"2009-08-05T20:49:41Z","tX":502,"tY":343,"tags":{}},"520995032":{"location":[50.7908596,-3.4119911],"ct":"GB","tp":"CS","ts":"2018-12-08T04:29:56Z","tX":502,"tY":343,"tags":{"caravans":"no","email":"caddihoe@devonscouts.org.uk","internet_access":"no","name":"Caddihoe Scout Camp","operator":"Devon Scouts","postal_code":"EX5 3DU","sanitary_dump_station":"customers","tents":"yes","website":"http://www.caddihoe.org.uk/"}},"525689067":{"location":[50.8565306,-3.3368364],"ct":"GB","tp":"CS","ts":"2022-01-24T15:17:11Z","tX":502,"tY":343,"tags":{"addr:city":"Cullompton","addr:place":"Kentisbeare","addr:postcode":"EX15 2BS","cabins":"no","caravans":"yes","name":"Postwood Gardens Caravan Park","smoking":"outside","website":"https://www.freedomcampingclub.org/campsite/Devon/-Cullompton/Postwood-Gardens-Caravan-Park/3099"}},"586496384":{"location":[50.7658346,-3.2857179],"ct":"GB","tp":"CR","ts":"2009-12-11T16:08:46Z","tX":502,"tY":343,"tags":{"name":"Gosford Park"}},"631070325":{"location":[50.7493276,-3.3655608],"ct":"GB","tp":"CR","ts":"2021-04-21T05:55:59Z","tX":502,"tY":343,"tags":{"access":"members","capacity":"5","dog":"yes","fee":"yes","name":"Little Brake Camping","phone":"+44 7977 906272","power_supply":"yes","sanitary_dump_station":"customers","smoking":"outside","surface":"grass","tents":"yes","website":"https://www.campingandcaravanningclub.co.uk/campsites/uk/devon/nrexeter/rewebrake"}},"673233956":{"location":[50.8790367,-3.3777587],"ct":"GB","tp":"CS","ts":"2021-01-30T00:53:44Z","tX":502,"tY":343,"tags":{"caravans":"yes","motor_vehicle":"yes","name":"Diggerlandâ€™s Campsite","openfire":"no","operator":"Diggerland","phone":"+44 1634 711711","reservation":"recommended","tents":"yes"}},"830162370":{"location":[50.930067,-3.3436607],"ct":"GB","tp":"CR","ts":"2022-02-06T00:49:54Z","tX":502,"tY":343,"tags":{"addr:city":"Tiverton","addr:place":"Pugham Caravan Park","addr:postcode":"EX16 7HZ","addr:village":"Westleigh","name":"Pugham Caravan Park","tents":"no"}},"958634368":{"location":[50.7382486,-3.3536021],"ct":"GB","tp":"CS","ts":"2021-06-27T15:29:02Z","tX":502,"tY":343,"tags":{"caravans":"no","email":"pitheadcampsite@hotmail.com","name":"Pithead Campsite","phone":"+447719108138","sanitary_dump_station":"no","tents":"yes","website":"https://www.pitheadcampsite.com/"}},"1139157788":{"location":[50.8796495,-3.3028047],"ct":"GB","tp":"CS","ts":"2023-02-08T09:06:07Z","tX":502,"tY":343,"tags":{"name":"Blackdown Yurts"}},"1367368443":{"location":[50.7729931,-3.3072422],"ct":"GB","tp":"CS","ts":"2025-03-14T16:50:48Z","tX":502,"tY":343,"tags":{"name":"Yurt Village","website":"https://devon.wildwoodtrust.org/education-devon/yurt-village-residential-trips/"}},"12128671778":{"location":[50.8576197,-3.5072692],"ct":"GB","tp":"CS","ts":"2024-08-22T22:40:08Z","tX":502,"tY":343,"tags":{"group_only":"yes","name":"Valleyside Escapes"}},"5569125569":{"location":[50.7845484,-3.3240843],"ct":"GB","tp":"CR","ts":"2022-01-24T16:07:26Z","tX":502,"tY":343,"tags":{"addr:city":"Exeter","addr:postcode":"EX5 2RE","name":"Millers Farm","name:en":"Millers Farm"}}}