{"38705418":{"location":[48.8245724,-3.4923514],"ct":"FR","tp":"CS","ts":"2022-10-05T21:06:24Z","tX":502,"tY":352,"tags":{"addr:housenumber":"105","addr:postcode":"22730","addr:street":"Rue de Poul Palud","caravans":"yes","email":"contact@camping-tourony.com","fee":"yes","internet_access":"wlan","name":"Camping Tourony","name:br":"Takad-kampiñ Touroni","phone":"+33296238661","power_supply":"yes","shower":"yes","source:name:br":"proper translation","stars":"3","tents":"yes","toilets":"yes","website":"https://www.camping-tourony.com/"}},"43392554":{"location":[48.8191374,-3.3528724],"ct":"FR","tp":"CS","ts":"2021-06-06T15:43:31Z","tX":502,"tY":352,"tags":{"email":"lemat@campinglemat.com","name":"Flower Camping Le Mat","phone":"+33 2 96 23 71 52","source":"cadastre-dgi-fr source : Direction Générale des Impôts - Cadastre ; mise à jour : 2009;https://data.datatourisme.gouv.fr/38/03e2af4f-5fc0-35dd-a412-883906c17dc6","stars":"3","website":"https://www.campinglemat.com/"}},"77417301":{"location":[48.8339405,-3.3274814],"ct":"FR","tp":"CS","ts":"2023-08-19T17:31:27Z","tX":502,"tY":352,"tags":{"addr:city":"Penvénan","addr:postcode":"22710","caravans":"yes","name":"Camping des Dunes","phone":"+332 96 92 63 42","tents":"yes","website":"https://www.campingportblanc.com/"}},"207573449":{"location":[48.8286617,-3.4759616],"ct":"FR","tp":"CS","ts":"2025-01-27T18:47:30Z","tX":502,"tY":352,"tags":{"caravans":"yes","drinking_water":"yes","name":"Le Ranolien","name:br":"Ranolien","power_supply":"yes","sanitary_dump_station":"yes","shower":"yes","source:name:br":"proper translation","tents":"yes","toilets":"yes","website":"https://www.sandaya.fr/","wheelchair":"yes"}},"232896967":{"location":[48.8600457,-3.2269093],"ct":"FR","tp":"CS","ts":"2020-11-01T16:46:19Z","tX":502,"tY":352,"tags":{"name":"Camping du Gouffre"}},"232896968":{"location":[48.8585744,-3.2200168],"ct":"FR","tp":"CS","ts":"2023-10-12T06:00:46Z","tX":502,"tY":352,"tags":{"addr:city":"Plougrescant","addr:housenumber":"4","addr:postcode":"22820","addr:street":"Pors Hir","caravans":"yes","drinking_water":"no","name":"Camping Le Varlen","operator":"Cap Liberté SAS","phone":"+33 2 96 92 52 15","power_supply":"yes","shower":"yes","stars":"3","static_caravans":"yes","tents":"yes","toilets":"yes","website":"https://www.levarlen.com/"}},"245115354":{"location":[48.8240223,-3.4994966],"ct":"FR","tp":"CR","ts":"2024-12-22T16:37:39Z","tX":502,"tY":352,"tags":{"addr:city":"Trégastel","addr:postcode":"22730","capacity":"40","caravan_site":"motorhome_stopover","caravan_site:type":"beach","charge":"12.50 EUR","fee":"yes","name":"Aire de Camping Car de Tregastel","power_supply":"no","sanitary_dump_station":"yes","toilets":"no","water_point":"yes"}},"255681523":{"location":[48.8474522,-3.2078065],"ct":"FR","tp":"CS","ts":"2024-09-27T21:40:26Z","tX":502,"tY":352,"tags":{"addr:city":"Plougrescant","addr:postcode":"22820","addr:street":"Chemin Beg Ar Vilin","caravans":"yes","drinking_water":"yes","fee":"yes","name":"Camping municipal de Beg ar Vilin","operator":"Mairie de Plougrescant","phone":"+33 2 96 92 56 15","power_supply":"yes","sanitary_dump_station":"yes","shower":"yes","stars":"2","tents":"yes","toilets":"yes","website":"https://www.camping.plougrescant.fr/"}},"267639139":{"location":[48.7976154,-3.4268395],"ct":"FR","tp":"CS","ts":"2024-08-19T12:51:07Z","tX":502,"tY":352,"tags":{"access":"yes","addr:city":"Louannec","addr:housenumber":"66","addr:postcode":"22700","addr:street":"Route de Perros","caravans":"yes","dog":"yes","email":"camping-louannec2@orange.fr","fee":"yes","internet_access":"wlan","name":"Camping municipal Ernest Renan","name:br":"Tachenn-gampiñ kêr Ernest Renan","operator":"Ville de Louannec","payment:cash":"yes","payment:credit_cards":"yes","phone":"+33 2 96 23 11 78","ref:vatin":"FR37212201347","sanitary_dump_station":"customers","source:name:br":"proper translation","stars":"3","tents":"yes","website":"https://www.camping-louannec.fr/","wheelchair":"yes"}},"297579285":{"location":[48.8176591,-3.301004],"ct":"FR","tp":"CS","ts":"2022-01-08T22:16:55Z","tX":502,"tY":352,"tags":{"addr:city":"Penvénan","addr:housenumber":"12 bis","addr:postcode":"22710","addr:street":"Rue de Keranscoualc'h","caravans":"yes","email":"contact@portblanc.com","fax":"+33 2 96 92 61 97","name":"Les Hauts de Port Blanc","phone":"+33 2 96 92 86 72","tents":"yes","website":"https://www.portblanc.com/"}},"300792558":{"location":[48.8155471,-3.3812261],"ct":"FR","tp":"CS","ts":"2020-11-01T17:11:45Z","tX":502,"tY":352,"tags":{"name":"Camping municipal Le Palud","stars":"2"}},"300792559":{"location":[48.8133362,-3.3871834],"ct":"FR","tp":"CS","ts":"2023-05-02T06:56:21Z","tX":502,"tY":352,"tags":{"cabins":"yes","capacity:cabins":"57","capacity:pitches":"101","caravans":"yes","name":"Port l'Épine","opening_hours":"Apr 21 - Sep 24","operator":"RCN","phone":"+33 9 70 73 10 38","shower":"yes","stars":"4","tents":"yes","toilets":"yes","website":"https://www.rcn.nl/fr/camping/france/bretagne/rcn-port-l-epine"}},"354595681":{"location":[48.7242605,-3.4518266],"ct":"FR","tp":"CS","ts":"2018-11-10T07:53:33Z","tX":502,"tY":352,"tags":{"name":"Camping des Deux Rives","name:br":"Tachenn-gampiñ an Div C'hlann","operator":"Ville de Lannion","phone":"+33 2 96 46 31 40","source:name:br":"ofis publik ar brezhoneg","tourism_1":"chalet","wheelchair":"yes"}},"377969958":{"location":[48.744262,-3.2039108],"ct":"FR","tp":"CS","ts":"2015-11-02T12:46:03Z","tX":502,"tY":352,"tags":{"name":"Le Coq Hardi","operator":"Mme TER BRAAK","website":"http://www.campinglecoqhardi.nl/"}},"385572175":{"location":[48.8154365,-3.4614062],"ct":"FR","tp":"CS","ts":"2024-08-21T19:54:09Z","tX":502,"tY":352,"tags":{"capacity:pitches":"162","caravans":"yes","mobile":"+33 6 08 99 03 93","motorhome":"yes","name":"Camping Domaine de Trestraou","name:br":"Takad-kampiñ Domani Traezhtraou","phone":"+33 2 96 23 08 11","shower":"yes","source:name:br":"proper translation","tents":"yes","toilets":"yes","website":"https://domainedetrestraou.com/"}},"404320383":{"location":[48.7510167,-3.5045506],"ct":"FR","tp":"CS","ts":"2017-04-19T21:29:18Z","tX":502,"tY":352,"tags":{"name":"Camping Les Alizées"}},"436270552":{"location":[48.818695,-3.355211],"ct":"FR","tp":"CR","ts":"2024-10-23T20:37:47Z","tX":502,"tY":352,"tags":{"bbq":"no","capacity":"24","caravan_site":"motorhome_stopover","caravan_site:type":"beach","caravans":"no","charge":"14.30 EUR","charge:conditional":"12.70 EUR@(Oct-Apr)","fee":"yes","internet_access":"wlan","maxlength":"9","name":"Aire Camping-Car Trévou-Tréguignec","network":"CAMPING-CAR PARK","opening_hours":"24/7","operator":"CAMPING CAR-PARK","power_supply":"yes","power_supply:capacity":"24","power_supply:maxcurrent":"6","sanitary_dump_station":"yes","seasonal":"no","tents":"no","toilets":"yes","trailer":"no","water_point":"yes","website":"https://www.campingcarpark.com/fr_FR/sejour/aire-etape-camping-car/bretagne/22-cotes-darmor/trevou-treguignec"}},"437357791":{"location":[48.8200813,-3.493647],"ct":"FR","tp":"CS","ts":"2019-09-12T20:09:46Z","tX":502,"tY":352,"tags":{"name":"Camping CCAS Les Ajoncs d'Or","website":"https://gdscatalogueur.ccas.fr/sejour/fiche/2019/E/4AK"}},"463534885":{"location":[48.775095,-3.3751765],"ct":"FR","tp":"CS","ts":"2024-05-26T20:08:46Z","tX":502,"tY":352,"tags":{"addr:city":"Kermaria-Sulard","addr:postcode":"22450","addr:street":"Route de Pont Ar Hoail","caravans":"yes","check_date":"2024-05-26","email":"camping@kermaria-sulard.fr","fee":"yes","name":"Camping de la Vallée du Dourdu","operator":"Mairie de Kermaria-Sulard","phone":"+33 2 96 38 43 90","source":"https://data.datatourisme.gouv.fr/38/0c0ee5b7-a2cc-3135-b9ad-7c00355d62e6","static_caravans":"yes","tents":"yes","website":"http://kermaria-sulard.fr/camping-de-la-vallee-du-dourdu/"}},"506054007":{"location":[48.8229827,-3.4816676],"ct":"FR","tp":"CS","ts":"2020-08-22T06:13:13Z","tX":502,"tY":352,"tags":{"name":"West Camping","stars":"3"}},"514891823":{"location":[48.806044,-3.4657124],"ct":"FR","tp":"CS","ts":"2024-11-03T21:32:55Z","tX":502,"tY":352,"tags":{"addr:city":"Perros-Guirec","addr:housenumber":"26","addr:postcode":"22700","addr:street":"Rue de Toull al Lann","caravans":"no","fee":"yes","name":"Le Village Perrosien","operator":"Maeva","static_caravans":"yes","tents":"no","url":"https://villageperrosien.com/"}},"617792579":{"location":[48.840957,-3.2793043],"ct":"FR","tp":"CS","ts":"2023-08-18T18:34:57Z","tX":502,"tY":352,"tags":{"caravans":"yes","drinking_water":"yes","email":"mairie@ville-penvenan.fr","name":"Camping de Buguelès","phone":"+33 2 96 92 87 83","power_supply":"yes","shower":"yes","tents":"yes","toilets":"yes"}},"636313425":{"location":[48.7976887,-3.4286392],"ct":"FR","tp":"SD","ts":"2021-08-03T16:01:50Z","tX":502,"tY":352,"tags":{"access":"customers"}},"845163830":{"location":[48.7470591,-3.2597449],"ct":"FR","tp":"CR","ts":"2024-10-05T16:14:50Z","tX":502,"tY":352,"tags":{"capacity":"13","caravan_site":"motorhome_stopover","caravan_site:type":"village","charge":"5 EUR","dog":"yes","fee":"yes","name":"Aire de La Roche-Derrien","power_supply":"yes","power_supply:fee":"yes","sanitary_dump_station":"yes","surface":"asphalt","water_point":"yes","water_point:charge":"2 EUR","water_point:fee":"yes","website":"https://www.bretagne-cotedegranitrose.com/offres/aire-de-la-roche-derrien-la-roche-jaudy-fr-2714540/"}},"947034226":{"location":[48.8272165,-3.342011],"ct":"FR","tp":"CS","ts":"2024-01-19T20:59:37Z","tX":502,"tY":352,"tags":{"email":"robertguyomard@laposte.net","name":"Camping Les Mouettes","operator":"Robert GUYOMARD","phone":"+33 2 96 15 17 42","source":"https://data.datatourisme.gouv.fr/38/275522eb-1c4b-3038-aad8-3299f16a6ce0","website":"https://trevou-treguignec.bzh/se-loger/camping-les-mouettes/"}},"947035377":{"location":[48.7845582,-3.2517359],"ct":"FR","tp":"CS","ts":"2024-05-26T19:58:46Z","tX":502,"tY":352,"tags":{"addr:city":"Minihy-Tréguier","addr:postcode":"22220","check_date":"2024-05-26","email":"ferme-du-syet.sarl@wanadoo.fr","fee":"yes","name":"Camping de la Ferme du Syet","phone":"+33 2 96 92 31 79","source":"https://data.datatourisme.gouv.fr/38/306eea12-7221-3e01-a65b-5523e56fca14","tents":"yes","website":"https://www.lafermedusyet.fr/"}},"1022680419":{"location":[48.8480476,-3.1708605],"ct":"FR","tp":"CR","ts":"2024-06-20T19:10:53Z","tX":502,"tY":352,"tags":{"capacity":"4","caravan_site":"motorhome_stopover","caravan_site:type":"beach","fee":"no","maxstay":"1 day","name":"Aire de stationnement de Port Béni","picnic_area":"yes","surface":"asphalt","website":"https://www.bretagne-cotedegranitrose.com/offres/aire-de-stationnement-de-port-beni-pleubian-fr-2714239/"}},"1114897934":{"location":[48.7896684,-3.2319398],"ct":"FR","tp":"CR","ts":"2024-04-03T15:08:57Z","tX":502,"tY":352,"tags":{"caravan_site":"motorhome_stopover","caravan_site:type":"river;town","caravans":"no","fee":"no","name":"Bois du poète","power_supply":"no","sanitary_dump_station":"yes","tents":"no","water_point":"no"}},"1233201248":{"location":[48.723876,-3.4493509],"ct":"FR","tp":"CR","ts":"2024-10-26T21:09:02Z","tX":502,"tY":352,"tags":{"bbq":"no","caravan_site":"motorhome_stopover","caravan_site:type":"river","caravans":"no","charge":"9 EUR","fee":"yes","fee:conditional":"no @ (Sep-Jun)","maxstay":"48 hours","name":"Aire Lannion Rod-arRoc'h","network":"Onlypark","power_supply:charge":"3 EUR","power_supply:fee":"yes","power_supply:maxcurrent":"10","sanitary_dump_station":"yes","sanitary_dump_station:charge":"3 EUR/20 minutes","sanitary_dump_station:fee":"yes","seasonal":"no","tents":"no","toilets":"no","water_point":"yes","website":"https://www.onlypark.fr/aire-camping-car-lannion/"}},"3422715493":{"location":[48.824008,-3.4989282],"ct":"FR","tp":"SD","ts":"2024-12-22T16:39:58Z","tX":502,"tY":352,"tags":{"access":"customers","fee":"no"}},"5824061429":{"location":[48.8166083,-3.3603385],"ct":"FR","tp":"CS","ts":"2023-04-28T15:23:22Z","tX":502,"tY":352,"tags":{"name":"Les Macareux","website":"https://www.camping-les-macareux-trevou.fr/"}},"8766189728":{"location":[48.7403053,-3.2660535],"ct":"FR","tp":"CS","ts":"2022-05-21T13:21:20Z","tX":502,"tY":352,"tags":{"name":"Camping municipal de La Roche Derrien"}},"12278983969":{"location":[48.7209062,-3.2363508],"ct":"FR","tp":"CS","ts":"2024-10-22T15:39:04Z","tX":502,"tY":352,"tags":{"access":"customers","addr:city":"La Roche-Jaudy","addr:housenumber":"1","addr:place":"Lestivoan Bras","addr:postcode":"22450","capacity:tents":"48","fee":"yes","name":"Camping et Gîte \"La ferme du Jaudy\"","operator":"Pascal et Laurence","phone":"0296370742","power_supply":"yes","static_caravans":"yes","tents":"yes","website":"https://www.camping-gites-du-jaudy.com"}},"7143391287":{"location":[48.8165065,-3.4452786],"ct":"FR","tp":"CR","ts":"2024-09-26T10:59:17Z","tX":502,"tY":352,"tags":{"addr:housenumber":"22","addr:postcode":"22700","caravan_site":"motorhome_stopover","caravan_site:type":"parking_lot;village","caravans":"no","fee":"no","maxstay":"48 hours","name":"Parking de la France Libre - Perros-Guirec","opening_hours":"24/7","power_supply":"no","sanitary_dump_station":"no","tents":"no","water_point":"no","website":"https://www.cotesdarmor.com/fr/fiche/aires/parking-de-la-france-libre-perros-guirec_TFOB0018BRE022V515MW7/"}},"5899850085":{"location":[48.8250772,-3.491463],"ct":"FR","tp":"SD","ts":"2018-09-11T17:15:04Z","tX":502,"tY":352,"tags":{"access":"customers","fee":"no","sanitary_dump_station:basin":"yes","sanitary_dump_station:round_drain":"yes"}},"6414670085":{"location":[48.7905367,-3.2307013],"ct":"FR","tp":"SD","ts":"2024-04-03T15:08:57Z","tX":502,"tY":352,"tags":{"name":"Bois du poète"}},"9823319851":{"location":[48.8251211,-3.4915911],"ct":"FR","tp":"SD","ts":"2022-06-16T18:30:57Z","tX":502,"tY":352,"tags":{"name":"Camping Tourony"}}}