{"92930750":{"location":[48.0189223,-3.4703605],"ct":"FR","tp":"CR","ts":"2024-05-19T12:39:58Z","tX":502,"tY":355,"tags":{"bbq":"customers","capacity":"50","caravan_site":"motorhome_stopover","caravan_site:type":"countryside","caravans":"yes","charge":"15 EUR","charge:conditional":"13 EUR @ (Oct-Apr)","dog":"leashed","fee":"yes","internet_access":"wlan","maxlength":"none","name":"Aire de la Faouët","network":"CAMPING-CAR PARK","opening_hours":"24/7","power_supply":"yes","power_supply:capacity":"48","power_supply:maxcurrent":"6","sanitary_dump_station":"yes","tents":"no","trailer":"yes","water_point":"yes"}},"103835880":{"location":[48.1435892,-3.3944213],"ct":"FR","tp":"PK","ts":"2024-05-12T16:03:27Z","tX":502,"tY":355,"tags":{"motorhome":"yes"}},"758396889":{"location":[48.2212585,-3.3892366],"ct":"FR","tp":"CS","ts":"2024-09-14T15:29:46Z","tX":502,"tY":355,"tags":{"description":"ouvert jusqu'au mois d'octobre","email":"denis.s29@orange.fr","name":"Camping municipal du Korong","name:br":"Tachenn-gampiñ ar C'horonk","phone":"+33 6 26 10 91 43","source":"https://data.datatourisme.gouv.fr/38/f0393b6f-c8f4-3262-9fd8-130994cdce6b","source:name:br":"proper translation","website":"https://www.lekorong.fr/"}},"946062897":{"location":[48.1727123,-3.3134793],"ct":"FR","tp":"CS","ts":"2022-06-23T18:08:54Z","tX":502,"tY":355,"tags":{"email":"contact@leboisdubarde.bzh","name":"Le Champ du Barde","name:br":"Park ar Barzh","phone":"+33 2 96293003","source":"https://data.datatourisme.gouv.fr/38/1e33bbd8-d4ff-3b84-b3cc-fcf3caa64b6a","source:name:br":"proper translation","website":"https://www.leboisdubarde.bzh/"}},"1340096184":{"location":[48.0667622,-3.2128162],"ct":"FR","tp":"CS","ts":"2024-12-06T18:42:06Z","tX":502,"tY":355,"tags":{"name":"camping municipal"}},"1340610774":{"location":[48.0661287,-3.2308974],"ct":"FR","tp":"CS","ts":"2024-12-06T21:57:55Z","tX":502,"tY":355,"tags":{"name":"Camping Keronnés"}},"3656482112":{"location":[48.060865,-3.4139268],"ct":"FR","tp":"CS","ts":"2024-09-07T10:55:57Z","tX":502,"tY":355,"tags":{"addr:city":"Priziac","addr:postcode":"56320","addr:street":"Lac du Bel Air","caravans":"yes","fee":"yes","name":"Camping Le Lac Ô Fées","old_name":"Camping Municipal","phone":"+33 2 97 34 63 55","stars":"3","static_caravans":"yes","tents":"yes","website":"https://campinglelacofees.fr/","wheelchair":"yes"}},"8758090582":{"location":[48.2246673,-3.2768279],"ct":"FR","tp":"CS","ts":"2021-06-06T15:44:45Z","tX":502,"tY":355,"tags":{"email":"silkehansen66@web.de","name":"Ferme Mellon","phone":"+33 6 43 86 29 33","source":"https://data.datatourisme.gouv.fr/38/233a6bd0-2e83-34ea-b8bf-80e89154ac45","website":"https://www.hof-mellon.com/"}},"8758124758":{"location":[48.1210106,-3.2332447],"ct":"FR","tp":"CS","ts":"2022-01-25T20:47:28Z","tX":502,"tY":355,"tags":{"name":"Camping Étang du Dordu","name:br":"Tachenn-gampiñ an Dordu","phone":"+33 6 82 10 22 66","source:name:br":"proper translation","website":"https://www.langoelan.fr/h%C3%A9bergement/"}},"8778591047":{"location":[48.16955,-3.312839],"ct":"FR","tp":"CS","ts":"2022-06-23T22:35:57Z","tX":502,"tY":355,"tags":{"name":"Écodomaine Le Bois du Barde","name:br":"Ekodomani Koed ar Barzh","phone":"+33 2 96 29 30 03","source:name:br":"proper translation","website":"https://www.leboisdubarde.bzh"}},"5144925307":{"location":[48.1421158,-3.3923507],"ct":"FR","tp":"SD","ts":"2024-05-12T17:16:15Z","tX":502,"tY":355,"tags":{"addr:city":"Plouray","addr:postcode":"56770","addr:street":"Rue du Midi - Rue de l'Elle - D178","charge":"1 EUR","fee":"yes","motorhome":"designated","opening_hours":"24/7","phone":"+33 2 97 34 80 75","website":"https://www.tourismepaysroimorvan.com/en/preparing-your-stay/where-to-stay/camper-vans/aire-de-camping-car-1041371"}}}