{"147971526":{"location":[47.8076166,-3.2816169],"ct":"FR","tp":"CS","ts":"2024-06-13T10:12:15Z","tX":502,"tY":356,"tags":{"access":"customers","addr:city":"Hennebont","addr:postcode":"56700","addr:street":"Quai de Saint-Caradec","capacity":"60","contact:mobile":"+33 7 88 41 06 41","email":"campinghennebont@mairie-hennebont.fr","fee":"yes","freezer":"yes","name":"Camping municipal d’Hennebont","name:br":"Sant-Karadeg","phone":"+33 2 97 35 49 15","picnic_table":"yes","source:name:br":"ofis publik ar brezhoneg","stars":"2","swimming_pool":"no","washing_machine":"yes","website":"https://www.hennebont.bzh/decouvrir-hennebont/tourisme/le-camping-municipal/"}},"151335716":{"location":[47.9044248,-3.4744122],"ct":"FR","tp":"CS","ts":"2022-09-16T06:48:19Z","tX":502,"tY":356,"tags":{"name":"Ty Nadan","name:br":"Ti Nadan","source:name:br":"ofis publik ar brezhoneg","stars":"4","website":"http://www.tynadan-vacances.fr/"}},"489340198":{"location":[47.8494843,-3.4121938],"ct":"FR","tp":"CS","ts":"2022-03-11T19:52:02Z","tX":502,"tY":356,"tags":{"addr:city":"Pont-Scorff","addr:place":"Sapin En Gam","addr:postcode":"56620","addr:street":"Route d’Arzano","cabins":"yes","caravans":"yes","name":"Entre Terre et Mer","opening_hours":"Mar-Oct","phone":"+33 2 97 32 56 56","stars":"3","swimming_pool":"yes","tents":"yes","website":"https://www.camping-terre-et-mer.com"}},"592109840":{"location":[47.7733695,-3.5059954],"ct":"FR","tp":"CS","ts":"2022-12-30T12:21:13Z","tX":502,"tY":356,"tags":{"contact:email":"jardins.kergal@wanadoo.fr","contact:phone":"+33 2 97 05 98 18","contact:website":"https://www.lesjardinsdekergal.com","name":"Les Jardins de Kergal","source":"data.gouv.fr:DATAtourisme - 05/2020","stars":"4","wheelchair":"yes"}},"688734136":{"location":[47.912916,-3.3655507],"ct":"FR","tp":"CS","ts":"2021-10-18T12:47:22Z","tX":502,"tY":356,"tags":{"name":"Camping Le Pont Nivino","operator":"Ville de Plouay"}},"810791019":{"location":[47.9814243,-3.3298191],"ct":"FR","tp":"CS","ts":"2020-06-02T16:33:41Z","tX":502,"tY":356,"tags":{"addr:city":"Inguiniel","addr:postcode":"56240","addr:street":"Le Grayo","fee":"yes","internet_access":"wlan","internet_access:fee":"no","name":"Camping de Pont Calleck","payment:cheque":"yes","payment:coins":"yes","phone":"+33 2 97 50 78 70","website":"https://www.camping-pontcalleck.fr/"}},"839802450":{"location":[47.8204463,-3.4056062],"ct":"FR","tp":"CS","ts":"2021-05-04T10:19:20Z","tX":502,"tY":356,"tags":{"caravans":"yes","contact:email":"contact@camping-tynenez.com","contact:phone":"+33 2 97 32 51 16","contact:website":"https://www.lorient-camping.com","name":"Camping Ty Nénez","name:br":"Tachenn-gampiñ Ti an Enez","source":"data.gouv.fr:DATAtourisme - 05/2020","source:name:br":"proper translation","stars":"3","tents":"yes","wheelchair":"yes"}},"911506407":{"location":[47.8969635,-3.2570032],"ct":"FR","tp":"CR","ts":"2024-10-25T18:41:50Z","tX":502,"tY":356,"tags":{"access":"yes","addr:city":"Lanvaudan","addr:postcode":"56240","addr:street":"Chemin du Gastonnet","capacity":"5","caravan_site":"motorhome_stopover","caravan_site:type":"village","fee":"no","name":"Aire communale de Lanvaudan","operator":"Ville de Lanvaudan","power_supply":"no","sanitary_dump_station":"yes","sanitary_dump_station:chemical_toilet":"yes","sanitary_dump_station:grey_water":"yes","sanitary_dump_station:round_drain":"yes","supervised":"no","water_point":"yes","website":"https://morbihan.com/offres/aire-communale-de-lanvaudan-lanvaudan-fr-4389647/"}},"969790624":{"location":[47.7565656,-3.5152507],"ct":"FR","tp":"CR","ts":"2024-08-12T12:49:51Z","tX":502,"tY":356,"tags":{"capacity":"12","caravan_site":"motorhome_stopover","caravan_site:type":"beach","fee":"no","maxstay":"24 hours","name":"Aire du Loc'h","power_supply":"no","sanitary_dump_station":"no","seasonal":"no","surface":"gravel","water_point":"no","website":"https://www.lorientbretagnesudtourisme.fr/fr/fiche/aire-sans-service-du-loch-guidel_TFOGAIRELOCH/"}},"1307250470":{"location":[47.8346578,-3.3910927],"ct":"FR","tp":"CR","ts":"2024-08-12T13:20:19Z","tX":502,"tY":356,"tags":{"capacity":"2","caravan_site":"motorhome_stopover","caravan_site:type":"river","fee":"no","name":"Aire camping-car Kersalo","power_supply":"no","sanitary_dump_station":"no","water_point":"no","website":"https://www.lorientbretagnesudtourisme.fr/fr/fiche/aire-sans-service-de-kersalo-cleguer_TFOGAIREKERSALO/"}},"12269816681":{"location":[47.8763035,-3.3650887],"ct":"FR","tp":"CS","ts":"2024-11-25T08:47:05Z","tX":502,"tY":356,"tags":{"access":"private","addr:city":"Cléger","addr:housenumber":"9","addr:postcode":"56620","addr:street":"village de Keranstumeau","capacity:tents":"30","caravans":"yes","description":"Camping naturiste géré par l'association Naturiste Morbihannaise, situé au cœur de la Bretagne","email":"infovacances@anm.bzh","fee":"yes","name":"Les Bruyères d'Arvor","nudism":"yes","operator":"Association Naturiste Morbihannaise","phone":"+33642649733","static_caravans":"yes","tents":"yes","website":"https://anm.bzh/"}},"8463490091":{"location":[47.8970431,-3.2569401],"ct":"FR","tp":"SD","ts":"2024-10-25T18:41:50Z","tX":502,"tY":356,"tags":{"access":"yes","fee":"no","operator":"Ville de Lanvaudan","sanitary_dump_station:chemical_toilet":"yes","sanitary_dump_station:grey_water":"yes","sanitary_dump_station:round_drain":"yes","water_point":"yes"}}}