{"17611451":{"location":[47.6504458,-3.2029062],"ct":"FR","tp":"CR","ts":"2024-07-02T11:38:48Z","tX":502,"tY":357,"tags":{"caravan_site":"motorhome_stopover","caravan_site:type":"camp_site","caravans":"no","charge":"12 EUR","description":"camp site in off season","fee":"yes","name":"Aire Camping-car la Failaise le camping","opening_hours":"Nov-Mar","power_supply":"yes","sanitary_dump_station":"yes","seasonal":"yes","tents":"no","water_point":"yes"}},"17611452":{"location":[47.6504458,-3.2029062],"ct":"FR","tp":"CS","ts":"2024-10-07T11:30:38Z","tX":502,"tY":357,"tags":{"capacity":"41","name":"Camping de La Falaise","website":"https://www.camping-etel.fr/"}},"161908720":{"location":[47.7066667,-3.4630882],"ct":"FR","tp":"PK","ts":"2024-08-12T14:07:33Z","tX":502,"tY":357,"tags":{"access":"yes","fee":"no","motorhome":"yes","motorhome:overnight":"yes","parking":"surface","surface":"ground"}},"166438954":{"location":[47.7057106,-3.3563786],"ct":"FR","tp":"CR","ts":"2024-05-18T13:31:48Z","tX":502,"tY":357,"tags":{"addr:city":"Port-Louis","addr:postcode":"56290","addr:street":"Rue des Récollets","bbq":"no","capacity":"41","caravan_site":"motorhome_stopover","caravan_site:type":"beach","caravans":"yes","charge":"14.10 EUR","dog":"leashed","drinking_water":"yes","fee":"yes","maxlength":"9","name":"Aire Port-Louis, Prairie","network":"CAMPING-CAR PARK","opening_hours":"24/7","phone":"+33 2 97 82 47 16","power_supply:capacity":"42","power_supply:maxcurrent":"6","sanitary_dump_station":"yes","shower":"yes","source:name:br":"proper translation","tents":"yes","trailer":"no","water_point":"yes","website":"https://www.campingcarpark.com/fr_FR/sejour/aire-etape-camping-car/bretagne/56-morbihan/port-louis-prairie"}},"174160123":{"location":[47.7505118,-3.5062111],"ct":"FR","tp":"CR","ts":"2024-10-07T17:47:21Z","tX":502,"tY":357,"tags":{"capacity":"16","caravan_site":"motorhome_stopover","caravan_site:type":"tourist_attraction","description":"At Fort du Loch castle","fee":"no","maxstay":"24 hours","name":"Aire Le Fort du Loch","power_supply":"no","sanitary_dump_station":"no","surface":"fine_gravel","water_point":"no","website":"https://www.lorientbretagnesudtourisme.fr/fr/fiche/aire-sans-service-route-cotiere-guidel_TFOGAIREMAEVA/"}},"185876461":{"location":[47.6875179,-3.3572344],"ct":"FR","tp":"CS","ts":"2024-03-14T09:07:39Z","tX":502,"tY":357,"tags":{"caravans":"yes","name":"Camping de la Lande","name:br":"Tachenn-gampiñ ar Lann","phone":"+33 2 97 82 48 61","source:name:br":"proper translation","stars":"3","tents":"yes","website":"https://www.campingdelalande.fr"}},"227027359":{"location":[47.7233185,-3.4817794],"ct":"FR","tp":"CR","ts":"2024-10-19T00:16:09Z","tX":502,"tY":357,"tags":{"capacity":"4","caravan_site":"golf","caravan_site:type":"beach","internet_access":"no","maxstay":"48 hours","name":"Aire Kaolins","power_supply":"no","sanitary_dump_station":"no","tents":"no","toilets":"no","toilets:wheelchair":"no","water_point":"no","website":"https://www.lorientbretagnesudtourisme.fr/fr/fiche/aire-sans-service-des-kaolins-ploemeur_TFOGAIREKAOLINS/","wheelchair":"yes"}},"229158987":{"location":[47.7367127,-3.4660347],"ct":"FR","tp":"CS","ts":"2022-03-13T21:46:57Z","tX":502,"tY":357,"tags":{"addr:hamlet":"Beg Minio","addr:street":"Route de Fort Bloqué","cabins":"yes","caravans":"yes","name":"Camping Les Ajoncs","phone":"+33 2 97 86 30 11","swimming_pool":"no","tents":"yes","website":"http://www.campingajoncs.fr"}},"234858923":{"location":[47.7424176,-3.5014101],"ct":"FR","tp":"CS","ts":"2022-12-28T13:08:30Z","tX":502,"tY":357,"tags":{"cabins":"yes","caravans":"yes","contact:place":"Fort Bloqué","name":"Camping de la Plage","name:br":"Tachenn-gampiñ an Draezhenn","phone":"+33 2 97 05 95 46","source:name:br":"proper translation","stars":"2","tents":"yes","website":"https://campingplageguidel.com/"}},"234858924":{"location":[47.7469665,-3.5015436],"ct":"FR","tp":"CS","ts":"2023-10-25T09:52:03Z","tX":502,"tY":357,"tags":{"cabins":"yes","caravans":"yes","name":"Pen er Malo","name:br":"Penc'hêr Maloù","phone":"+33 2 97 05 99 86","ref:FR:FANTOIR":"56078A109S","source:name:br":"ofis publik ar brezhoneg","stars":"2","tents":"yes","website":"https://www.camping-penermalo.fr/"}},"255897525":{"location":[47.6977515,-3.4499052],"ct":"FR","tp":"CS","ts":"2023-04-19T18:10:28Z","tX":502,"tY":357,"tags":{"addr:city":"Ploemeur","addr:place":"Fort-du-Talud","addr:postcode":"56273","addr:street":"Chemin des Douves","cabins":"yes","capacity":"139","caravans":"yes","email":"fortdutalud@igesa.fr","name":"Camping Fort du Talud","name:br":"Tachenn-gampiñ Fort an Talud","operator":"IGESA","phone":"+33 2 97 82 91 50","source:name:br":"proper translation","tents":"yes","website":"https://www.igesa.fr/vos-vacances/recherche-sejour/reserver-mes-vacances/etablissement/ploemeur-camping-du-fort-du-talud/"}},"255992148":{"location":[47.6257253,-3.4200403],"ct":"FR","tp":"CS","ts":"2022-12-16T15:49:37Z","tX":502,"tY":357,"tags":{"addr:city":"Ile de Groix","addr:place":"Port Coustic","addr:postcode":"56590","cabins":"yes","caravans":"yes","name":"Camping des Sables Rouges","name:br":"Tachenn-gampiñ Ar Sableg ruz","phone":"+33 2 97 86 81 32","source:name:br":"proper translation","tents":"yes","website":"https://campingdessablesrouges.com"}},"257216278":{"location":[47.7052161,-3.4237972],"ct":"FR","tp":"CS","ts":"2022-03-25T13:36:33Z","tX":502,"tY":357,"tags":{"addr:city":"Ploemeur","addr:postcode":"56270","addr:street":"Rue de l'Anse du Stole","cabins":"yes","caravans":"yes","name":"Camping Belle-Plage","name:br":"Tachenn-gampiñ Traezhenn Gaer","operator":"Yelloh Village","phone":"+33 2 97 56 77 17","source:name:br":"proper translation","stars":"4","tents":"yes","website":"https://www.camping-belleplage.com"}},"280261005":{"location":[47.682369,-3.1881549],"ct":"FR","tp":"CS","ts":"2023-12-28T18:16:48Z","tX":502,"tY":357,"tags":{"caravans":"yes","email":"info@camping-saintcado.com","internet_access":"wlan","name":"Camping de Saint-Cado","name:br":"Tachenn-gampiñ Sant-Kadoù","opening_hours":"Jan 01-Dec 31","phone":"+33 2 97 55 31 98","power_supply":"yes","source:name:br":"proper translation","stars":"2","surface":"grass","tents":"yes","washing_machine":"yes","website":"https://camping-saintcado.com/"}},"283843226":{"location":[47.708377,-3.4252849],"ct":"FR","tp":"CS","ts":"2022-06-15T19:43:36Z","tX":502,"tY":357,"tags":{"addr:city":"Ploemeur","addr:postcode":"56270","addr:street":"Impasse Pen Palud","caravans":"yes","contact:phone":"+33 2 97 82 94 56","name":"Camping Pen Palud","name:br":"Tachenn-gampiñ Penn Palud","source:name:br":"proper translation","tents":"yes","website":"https://www.camping-pen-palud.com/"}},"283851821":{"location":[47.7088532,-3.3933937],"ct":"FR","tp":"CS","ts":"2024-08-09T17:59:18Z","tX":502,"tY":357,"tags":{"addr:city":"Larmor-Plage","addr:postcode":"56260","addr:street":"Rue de Quehello","caravans":"yes","contact:phone":"+33 2 97 33 71 28","drinking_water":"yes","fee":"yes","internet_access":"wlan","internet_access:fee":"no","name":"Camping de la Fontaine","name:br":"Tachenn-gampiñ ar Fetan","note":"becoming CAMPING-CAR PARK","power_supply":"yes","sanitary_dump_station":"yes","shower":"yes","source:name:br":"proper translation","survey:date":"2020-07-20","tents":"yes","toilets":"yes"}},"321584563":{"location":[47.7087938,-3.3433138],"ct":"FR","tp":"CR","ts":"2024-05-19T12:07:55Z","tX":502,"tY":357,"tags":{"bbq":"no","capacity":"20","caravan_site":"motorhome_stopover","caravan_site:type":"beach","caravans":"no","charge":"14.10 EUR","dog":"leashed","fee":"yes","maxlength":"9","name":"Aire de la Côte Rouge","name:br":"Leur an Aod Ruz","network":"CAMPING-CAR PARK","opening_hours":"24/7","power_supply":"yes","power_supply:capacity":"20","power_supply:maxcurrent":"6","sanitary_dump_station":"yes","source:name:br":"proper translation","trailer":"no","water_point":"yes"}},"553542804":{"location":[47.7287453,-3.4932631],"ct":"FR","tp":"CS","ts":"2023-10-10T23:30:16Z","tX":502,"tY":357,"tags":{"addr:city":"Ploemeur","addr:postcode":"56270","addr:street":"Boulevard des Sables Blancs","cabins":"yes","caravans":"yes","name":"Camping Paradis - La Baie de Ploemeur","phone":"+33 2 97 05 99 81","stars":"3","tents":"yes","website":"https://camping-labaiedeploemeur.com"}},"554310561":{"location":[47.6952686,-3.3498081],"ct":"FR","tp":"CR","ts":"2024-05-18T13:48:36Z","tX":502,"tY":357,"tags":{"bbq":"no","capacity":"120","caravan_site":"motorhome_stopover","caravan_site:type":"beach","charge":"13 EUR","dog":"leashed","fee":"yes","maxlength":"none","name":"Aire Gâvres","network":"CAMPING-CAR PARK","opening_hours":"24/7","power_supply":"yes","power_supply:capacity":"150","power_supply:maxcurrent":"6","sanitary_dump_station":"yes","tents":"no","trailer":"no","water_point":"yes","website":"https://www.campingcarpark.com/fr_FR/sejour/aire-etape-camping-car/bretagne/56-morbihan/gavres"}},"575512118":{"location":[47.7368047,-3.4299318],"ct":"FR","tp":"CR","ts":"2024-08-12T14:57:39Z","tX":502,"tY":357,"tags":{"capacity":"8","caravan_site":"motorhome_stopover","caravan_site:type":"town","caravans":"yes","fee":"no","internet_access":"no","maxstay":"24 hours","name":"Plœmeur Centre Ville","opening_hours":"24/7","power_supply":"no","reservation":"no","sanitary_dump_station":"no","seasonal":"no","water_point":"no","website":"https://www.lorientbretagnesudtourisme.fr/fr/fiche/aire-sans-service-du-centre-ville-ploemeur_TFOGAIRECVPLOEMEUR/"}},"608452087":{"location":[47.7006004,-3.4534977],"ct":"FR","tp":"CS","ts":"2024-05-04T22:13:01Z","tX":502,"tY":357,"tags":{"backcountry":"no","caravans":"yes","internet_access":"wlan","internet_access:fee":"yes","motorhome":"yes","name":"Camping La Pointe du Talud","name:br":"Tachenn-gampiñ Penn an Talud","nudism":"no","source:name:br":"proper translation","stars":"3","static_caravans":"yes","tents":"yes","website":"https://www.campingpointedutalud.com/"}},"627012124":{"location":[47.6760378,-3.1867935],"ct":"FR","tp":"PK","ts":"2018-09-20T19:55:02Z","tX":502,"tY":357,"tags":{"access":"yes","fee":"no","lit":"no","motorhome":"yes","motorhome:conditional":"no @ (22:30-09:00)","parking":"surface","surface":"gravel"}},"705215455":{"location":[47.6802795,-3.1764699],"ct":"FR","tp":"CS","ts":"2019-12-08T09:35:34Z","tX":502,"tY":357,"tags":{"name":"Le Moulin des Oies","name:br":"Melin ar We","source:name:br":"ofis publik ar brezhoneg"}},"729271332":{"location":[47.7075877,-3.4296944],"ct":"FR","tp":"CS","ts":"2024-05-24T12:35:55Z","tX":502,"tY":357,"tags":{"access":"members","addr:city":"Plœmeur","addr:housename":"Camping GCU Les Pins","addr:housenumber":"5","addr:postcode":"56270","addr:street":"Chemin de Kerlavret","capacity":"66","caravans":"yes","check_date":"2024-05-24","contact:phone":"+33 2 97 82 87 02","dog":"yes","drinking_water":"yes","fee":"yes","internet_access":"wlan","internet_access:fee":"customers","name":"GCU Lomener-Ploemer","opening_hours":"2024 Jun 14-2024 Sep 01 08:00-20:00 open","operator":"Groupement des Campeurs Universitaires","power_supply":"no","reservation":"members_only","sanitary_dump_station":"yes","shower":"yes","source":"https://www.gcu.asso.fr/terrains/lomener-ploemeur-morbihan-56","source:position":"cadastre-dgi-fr source : Direction Générale des Impôts - Cadastre. Mise à jour : 2022","stars":"2","static_caravans":"no","tents":"yes","toilets":"yes","toilets:wheelchair":"yes","website":"https://www.gcu.asso.fr/terrains/lomener-ploemeur-morbihan-56","wheelchair":"limited"}},"915129834":{"location":[47.6638258,-3.2216881],"ct":"FR","tp":"CS","ts":"2023-07-07T12:14:22Z","tX":502,"tY":357,"tags":{"name":"Camping du Moteno","name:br":"Tachenn-gampiñ ar Motennoù","source:name:br":"proper translation"}},"1092126168":{"location":[47.7142548,-3.322679],"ct":"FR","tp":"CR","ts":"2024-07-02T11:38:48Z","tX":502,"tY":357,"tags":{"capacity":"49","caravan_site":"motorhome_stopover","caravan_site:type":"chateau","caravans":"yes","charge":"13 EUR","dog":"yes","fee":"yes","name":"Aire Riantec-Kerdurand","network":"AirePark","opening_hours":"24/7","power_supply":"yes","sanitary_dump_station":"yes","sanitary_dump_station:chemical_toilet":"yes","sanitary_dump_station:grey_water":"yes","tents":"no","website":"https://www.aireparkreservation.com/aires-camping-cars/bretagne/morbihan/riantec-aire-de-kerdurand"}},"1092932756":{"location":[47.6225451,-3.1807284],"ct":"FR","tp":"PK","ts":"2023-12-18T07:45:37Z","tX":502,"tY":357,"tags":{"access":"yes","capacity":"10","description":"overnight parking forbidden","fee":"no","motor_vehicle":"no","motorhome":"yes"}},"1095092623":{"location":[47.6987119,-3.4479615],"ct":"FR","tp":"CR","ts":"2024-10-26T13:45:34Z","tX":502,"tY":357,"tags":{"capacity":"4","caravan_site":"motorhome_stopover","caravan_site:type":"beach","fee":"no","name":"Aire du Pérello","power_supply":"no","sanitary_dump_station":"no","tents":"no","water_point":"no","website":"https://www.lorientbretagnesudtourisme.fr/fr/fiche/aire-sans-service-du-perello-ploemeur_TFOGAIREPERELLO/"}},"1233056171":{"location":[47.7270891,-3.3211001],"ct":"FR","tp":"CR","ts":"2023-12-21T19:18:22Z","tX":502,"tY":357,"tags":{"caravan_site":"motorhome_stopover","caravan_site:type":"supermarket","caravans":"no","fee":"no","name":"Leclerc Riantec","operator":"Leclerc","power_supply":"no","sanitary_dump_station":"yes","tents":"no"}},"1234982507":{"location":[47.6819382,-3.1888086],"ct":"FR","tp":"CR","ts":"2025-01-12T00:54:49Z","tX":502,"tY":357,"tags":{}},"1268140317":{"location":[47.7276582,-3.4138586],"ct":"FR","tp":"CR","ts":"2024-08-14T10:58:14Z","tX":502,"tY":357,"tags":{"caravan_site":"motorhome_stopover","caravan_site:type":"highway","maxstay":"48 hours","name":"Plœmeur la Vraie Croix","sanitary_dump_station":"yes","surface":"asphalt","water_point":"yes","website":"https://www.lorientbretagnesudtourisme.fr/fr/fiche/aire-de-services-de-la-vraie-croix-ploemeur_TFOGAIREVRAIECROIX/"}},"1268146017":{"location":[47.7085184,-3.4655414],"ct":"FR","tp":"CR","ts":"2024-10-07T23:13:17Z","tX":502,"tY":357,"tags":{"caravan_site":"motorhome_stopover","caravan_site:type":"secondary_road","fee":"no","name":"Le Courégant","power_supply":"no","sanitary_dump_station":"no","water_point":"no"}},"1284403066":{"location":[47.7052756,-3.355698],"ct":"FR","tp":"CR","ts":"2024-05-18T13:25:51Z","tX":502,"tY":357,"tags":{"bbq":"no","capacity":"28","caravan_site":"motorhome_stopover","caravan_site:type":"beach","caravans":"no","charge":"14.10 EUR","dog":"leashed","fee":"yes","internet_access":"wlan","maxlength":"none","name":"Aire Camping-Car Park Port-Louis, Les Remparts","network":"CAMPING-CAR PARK","power_supply":"yes","power_supply:capacity":"26","power_supply:maxcurrent":"6","sanitary_dump_station":"yes","tents":"no","trailer":"yes","water_point":"yes"}},"1284653983":{"location":[47.6493494,-3.2021352],"ct":"FR","tp":"CR","ts":"2024-10-07T11:30:38Z","tX":502,"tY":357,"tags":{"capacity":"41","caravan_site":"motorhome_stopover","caravan_site:type":"camp_site","caravans":"no","charge":"12 EUR","fee":"yes","name":"Aire Camping-Car la Failaise","opening_hours":"Apr-Oct","power_supply":"no","sanitary_dump_station":"yes","seasonal":"yes","tents":"no","water_point":"yes","website":"https://www.camping-etel.fr/"}},"1322104618":{"location":[47.7056159,-3.4308175],"ct":"FR","tp":"CR","ts":"2024-10-08T10:14:37Z","tX":502,"tY":357,"tags":{"caravan_site":"motorhome_stopover","caravan_site:type":"beach","caravans":"no","fee":"no","internet_access":"no","name":"Place du Palud","picnic_table":"yes","power_supply":"no","reservation":"no","sanitary_dump_station":"no","tents":"no","toilets":"no","water_point":"no","website":"https://www.lorientbretagnesudtourisme.fr/fr/fiche/aire-sans-service-de-lomener-ploemeur_TFOGAIRELOMENER/","wheelchair":"yes"}},"3271191054":{"location":[47.7278189,-3.4138169],"ct":"FR","tp":"SD","ts":"2023-02-18T23:00:47Z","tX":502,"tY":357,"tags":{"access":"yes","fee":"no","opening_hours":"24/7","sanitary_dump_station:accepted":"black_water;grey_water","sanitary_dump_station:gravity":"yes","survey:date":"2023-02-16","water_point":"yes"}},"4325614792":{"location":[47.6423516,-3.435183],"ct":"FR","tp":"CS","ts":"2023-09-08T16:51:33Z","tX":502,"tY":357,"tags":{"addr:street":"Route de Port Mélite","caravans":"no","drinking_water":"yes","name":"Camping municipal de l'île de Groix","name:br":"Tachenn-gampiñ kêr Enez-Groe","phone":"+33 2 97 86 81 13","power_supply":"yes","shower":"yes","source:name:br":"proper translation","tents":"yes","toilets":"yes","website":"http://www.groix.fr/?mode=campings","wheelchair":"limited"}},"7784415781":{"location":[47.6689771,-3.1774112],"ct":"FR","tp":"CR","ts":"2024-09-25T21:45:45Z","tX":502,"tY":357,"tags":{"fee":"no"}},"11778255722":{"location":[47.7369621,-3.4976026],"ct":"FR","tp":"CR","ts":"2024-10-30T20:25:02Z","tX":502,"tY":357,"tags":{"capacity":"5","caravan_site":"motorhome_stopover","caravan_site:type":"beach","fee":"no","maxstay":"24 hours","name":"Aire du Fort Bloqué","power_supply":"no","sanitary_dump_station":"no","water_point":"no","website":"https://www.lorientbretagnesudtourisme.fr/fr/fiche/aire-sans-service-du-fort-bloque-ploemeur_TFOGAIREFORTBLOQUE/"}},"5916440683":{"location":[47.6830381,-3.1870894],"ct":"FR","tp":"SD","ts":"2022-07-05T13:29:25Z","tX":502,"tY":357,"tags":{"access":"customers","fee":"no","opening_hours":"24/7","sanitary_dump_station:basin":"yes"}},"10838063652":{"location":[47.6997357,-3.4536432],"ct":"FR","tp":"SD","ts":"2023-04-24T20:38:14Z","tX":502,"tY":357,"tags":{"access":"customers"}},"11439768462":{"location":[47.7269,-3.3212695],"ct":"FR","tp":"SD","ts":"2023-12-21T19:18:22Z","tX":502,"tY":357,"tags":{"access":"yes","fee":"no","laundry":"yes","maxstay":"7 days","sanitary_dump_station:chemical_toilet":"yes","sanitary_dump_station:grey_water":"yes","surface":"asphalt"}}}