{"56456632":{"location":[43.4044462,-3.3088831],"ct":"ES","tp":"CS","ts":"2023-05-16T17:28:44Z","tX":502,"tY":374,"tags":{"name":"Camping Playa Arenillas","phone":"+34 942 86 31 52","stars":"3","website":"https://www.campingplayaarenillas.es/","wheelchair":"yes"}},"68340169":{"location":[43.3895081,-3.2406107],"ct":"ES","tp":"CS","ts":"2017-01-13T10:01:51Z","tX":502,"tY":374,"tags":{"area":"yes","name":"Camping de Castro Urdiales","stars":"2"}},"171754452":{"location":[43.4627448,-3.4588421],"ct":"ES","tp":"CS","ts":"2025-02-12T12:38:49Z","tX":502,"tY":374,"tags":{"email":"josevicente.diego@gmail.com","fax":"+34 942662248","name":"Camping Playa de Berria","opening_hours":"Jun 16-Sep 09: 00:00-24:00","phone":"+34 942662248","stars":"2"}},"199276332":{"location":[43.3983655,-3.3252181],"ct":"ES","tp":"CS","ts":"2023-08-14T21:50:55Z","tX":502,"tY":374,"tags":{"caravans":"yes","name":"Camping Oriñón","phone":"+34 942 87 86 30","stars":"2","tents":"yes","website":"https://campingorinon.com"}},"230881052":{"location":[43.4073484,-3.4305467],"ct":"ES","tp":"CS","ts":"2015-01-17T09:27:17Z","tX":502,"tY":374,"tags":{"name":"Camping Carlos V"}},"230881053":{"location":[43.413681,-3.447691],"ct":"ES","tp":"CS","ts":"2024-08-09T11:52:53Z","tX":502,"tY":374,"tags":{"name":"Camping Laredo"}},"230881054":{"location":[43.4108211,-3.4528875],"ct":"ES","tp":"CS","ts":"2023-04-23T17:06:06Z","tX":502,"tY":374,"tags":{"caravans":"yes","drinking_water":"yes","internet_access":"wlan","internet_access:fee":"no","name":"Camping Playa del Regatón","power_supply":"yes","sanitary_dump_station":"customers","shower":"yes","tents":"yes","toilets":"yes","website":"https://campingplayaregaton.com/"}},"425725368":{"location":[43.3687634,-3.489645],"ct":"ES","tp":"CS","ts":"2025-06-12T19:29:57Z","tX":502,"tY":374,"tags":{"addr:city":"Rada","addr:country":"ES","addr:postcode":"39764","addr:province":"Cantabria","addr:street":"Barrio El Rivero","description":"Camping resort con piscina y restaurante, campamentos de verano.","email":"info@fincaelmazo.es","fax":"+34 942 636 036","name":"Finca El Mazo","phone":"+34 942 679 278","website":"https://fincaelmazo.es/"}},"442478369":{"location":[43.3979335,-3.326245],"ct":"ES","tp":"CS","ts":"2023-08-14T21:50:11Z","tX":502,"tY":374,"tags":{"caravans":"yes","name":"Camping Oriñón","phone":"+34 942 87 86 30","stars":"2","tents":"yes","website":"https://campingorinon.com"}},"993400018":{"location":[43.3943751,-3.3594557],"ct":"ES","tp":"CR","ts":"2021-10-17T11:49:57Z","tX":502,"tY":374,"tags":{"bench":"no","electricity":"no","name":"Caravan parking","parking":"yes","parking:fee":"no","water_supply":"no"}},"1306450552":{"location":[43.4003615,-3.4446866],"ct":"ES","tp":"CS","ts":"2024-08-08T22:18:07Z","tX":502,"tY":374,"tags":{"name":"Camping Apolo"}},"1395899007":{"location":[43.4750123,-3.5133477],"ct":"ES","tp":"CS","ts":"2025-06-17T06:28:58Z","tX":502,"tY":374,"tags":{}},"11020972905":{"location":[43.3526793,-3.3237338],"ct":"ES","tp":"CR","ts":"2023-07-02T21:27:07Z","tX":502,"tY":374,"tags":{"addr:housenumber":"11","addr:postcode":"48960","addr:street":"Barrio Bekea","email":"reservas@bidaivan.com","internet_access":"wlan","name":"Bidaivan Camper Park","phone":"+34683641858","website":"https://bidaivan.com/bidaivan-camper-park-area-de-autocaravanas/"}},"11026292606":{"location":[43.4627077,-3.4650314],"ct":"ES","tp":"CR","ts":"2023-07-04T18:52:52Z","tX":502,"tY":374,"tags":{"addr:housenumber":"8","addr:postcode":"39740","addr:street":"Avenida de Berria","email":"Mariaseve23@hotmail.com","name":"El Paraíso de Berria"}},"9813246557":{"location":[43.4112679,-3.4525503],"ct":"ES","tp":"SD","ts":"2022-06-12T21:10:45Z","tX":502,"tY":374,"tags":{"access":"customers"}},"11026309705":{"location":[43.4629926,-3.4652424],"ct":"ES","tp":"SD","ts":"2023-07-04T18:52:53Z","tX":502,"tY":374,"tags":{}}}