{"1071320002":{"location":[39.388055,-3.2177737],"ct":"ES","tp":"CR","ts":"2024-05-16T21:34:13Z","tX":502,"tY":389,"tags":{"access":"customers","addr:city":"Alcázar de San Juan","addr:postcode":"13600","capacity":"11","caravan_site":"motorhome_stopover","caravan_site:type":"town","caravans":"no","drinking_water":"yes","fee":"no","lit":"yes","maxstay":"no","name":"Área de autocaravanas Alcázar de San Juan","opening_hours":"24/7","operator":"ciudad de Alcázar de San Juan","power_supply":"yes","sanitary_dump_station":"yes","sanitary_dump_station:chemical_toilet":"yes","sanitary_dump_station:grey_water":"yes","sanitary_dump_station:round_drain":"yes","supervised":"no","surface":"asphalt","water_point":"yes","website":"https://turismoycultura.alcazardesanjuan.es/planifica-tu-viaje/area-para-autocaravanas/"}},"4344556791":{"location":[39.621079,-3.3317629],"ct":"ES","tp":"CR","ts":"2017-05-21T11:32:52Z","tX":502,"tY":389,"tags":{"addr:housenumber":"8","addr:postcode":"45860","addr:street":"Calle Quero","name":"Área de autocaravanas de Villacañas","opening_hours":"24/7"}},"8655488225":{"location":[39.3880149,-3.2175948],"ct":"ES","tp":"SD","ts":"2024-05-17T10:35:29Z","tX":502,"tY":389,"tags":{"access":"yes","fee":"no","motorhome":"designated","sanitary_dump_station":"public","sanitary_dump_station:chemical_toilet":"yes","sanitary_dump_station:grey_water":"yes","sanitary_dump_station:round_drain":"yes","water_point":"yes"}},"12444506363":{"location":[39.3852783,-3.2370094],"ct":"ES","tp":"CR","ts":"2024-12-23T15:30:05Z","tX":502,"tY":389,"tags":{"name":"Area Autocaravanas Carrefout Alcazar"}}}