{"95868482":{"location":[36.6978487,-3.441807],"ct":"ES","tp":"CS","ts":"2023-08-30T05:47:02Z","tX":502,"tY":399,"tags":{"cabins":"yes","internet_access":"wlan","name":"Don Cactus","phone":"+34 958623109","website":"https://www.doncactus.com"}},"217684107":{"location":[36.7214747,-3.3603162],"ct":"ES","tp":"CS","ts":"2024-11-05T14:29:41Z","tX":502,"tY":399,"tags":{"name":"Huerta Romero"}},"359550474":{"location":[36.7398221,-3.3026913],"ct":"ES","tp":"CS","ts":"2015-07-09T11:13:45Z","tX":502,"tY":399,"tags":{"name":"Camping Castillo de Baños"}},"539022913":{"location":[36.719243,-3.3637735],"ct":"ES","tp":"CR","ts":"2021-01-12T20:06:13Z","tX":502,"tY":399,"tags":{"addr:city":"Castell de Ferro","addr:postcode":"18740","capacity":"60","fee":"yes","internet_access":"wlan","name":"Tropic Autocaravanas Camper Park","power_supply":"yes","sanitary_dump_station":"yes","source":"https://www.areasac.es/castell-de-ferro/granada/castell-de-ferro_4963_1_ap.html"}},"11380349169":{"location":[36.7216922,-3.3618793],"ct":"ES","tp":"CR","ts":"2023-11-27T20:52:25Z","tX":502,"tY":399,"tags":{"addr:housenumber":"24B","addr:postcode":"18740","addr:street":"Rambla los Hileros","internet_access":"wlan","name":"Área Camper Castell","opening_hours":"Mo-Su 09:00-23:00","phone":"+34672646229","website":"http://areacampercastell.hubside.es"}},"11541111788":{"location":[36.7387114,-3.3056685],"ct":"ES","tp":"CR","ts":"2024-01-22T20:18:55Z","tX":502,"tY":399,"tags":{}},"8316465047":{"location":[36.7191072,-3.364118],"ct":"ES","tp":"SD","ts":"2021-01-12T20:06:13Z","tX":502,"tY":399,"tags":{}}}