{"4751625925":{"location":[36.7843272,42.8834011],"ct":"IQ","tp":"CS","ts":"2018-09-07T11:53:15Z","tX":633,"tY":399,"tags":{"name":"Kempa Domiz","name:en":"Domiz Camp","name:ku":"Kempa Domiz"}},"5044068821":{"location":[36.8571098,42.8137999],"ct":"IQ","tp":"CS","ts":"2017-08-19T06:06:25Z","tX":633,"tY":399,"tags":{"addr:street":"تاخێ لەزەکا","name":"تاخێ لەزەکا","name:ar":"تاخێ لەزەکا"}},"5189525521":{"location":[36.65733,42.5985628],"ct":"IQ","tp":"CS","ts":"2018-09-10T05:53:53Z","tX":633,"tY":399,"tags":{"name":"ژمار","name:ar":"زمار","name:en":"zomar"}},"5325166431":{"location":[36.7156316,42.6115305],"ct":"IQ","tp":"CS","ts":"2018-01-07T09:14:40Z","tX":633,"tY":399,"tags":{"name":"قريه العسكر الصغيره/جمال ,هذال"}},"6125502685":{"location":[36.7841945,42.7787144],"ct":"IQ","tp":"CS","ts":"2018-12-08T20:16:36Z","tX":633,"tY":399,"tags":{"name":"خانكيه"}},"4773214329":{"location":[36.8659491,42.8368311],"ct":"IQ","tp":"CR","ts":"2017-04-03T16:38:55Z","tX":633,"tY":399,"tags":{"name":"Busiryan Company","name:ar":"Busiryan Company"}},"5463277521":{"location":[36.8626765,42.8381631],"ct":"IQ","tp":"CR","ts":"2021-01-31T19:28:15Z","tX":633,"tY":399,"tags":{"addr:housenumber":"3","addr:street":"semel mserek","internet_access":"wlan","name":"هجون","name:en":"atuksemel","name:ku":"هیرش","phone":"07504813833","website":"http://herah.hseen@yahoo.com"}},"5549277565":{"location":[36.8632514,42.8179615],"ct":"IQ","tp":"CR","ts":"2018-04-24T00:48:38Z","tX":633,"tY":399,"tags":{"addr:housenumber":"07503544997","addr:postcode":"1234567","addr:street":"شنكالي","email":"ady_ma_1981@yahoo.com","internet_access":"wlan","name":"شنكالي","name:ar":"ابو سالم","name:en":"Abo Salm","name:ku":"ابو سالم","opening_hours":"24/7","operator":"Single","phone":"07503544997","website":"http://Uday2016Uday@gmail.com"}},"5641867821":{"location":[36.6565645,42.5936851],"ct":"IQ","tp":"CR","ts":"2018-05-25T14:11:25Z","tX":633,"tY":399,"tags":{"name":"New Zummar"}},"6559942486":{"location":[36.6680521,42.595384],"ct":"IQ","tp":"CR","ts":"2019-06-20T08:54:51Z","tX":633,"tY":399,"tags":{"name":"منظمة دي ار سي"}},"10254113409":{"location":[36.8666807,42.8120364],"ct":"IQ","tp":"CR","ts":"2022-12-11T23:26:01Z","tX":633,"tY":399,"tags":{}}}