{"88260785":{"location":[-45.8685423,170.4737814],"ct":"NZ","tp":"CS","ts":"2019-09-12T00:55:26Z","tX":996,"tY":659,"tags":{"addr:city":"Dunedin","addr:country":"NZ","addr:housenumber":"162","addr:street":"Kaikorai Valley Road","capacity:powered":"20","caravans":"yes","email":"stay@aaronlodge.co.nz","fee":"yes","name":"Aaron Lodge Top 10 Holiday Park","phone":"+64 3 476 4725","phone:NZ":"0800 879 227","sanitary_dump_station":"yes","website":"https://www.aaronlodgetop10.co.nz/","womo":"camping","womo:capacity":"20","womo:fee":"46","womo:name":"Aaron Lodge Top 10 HP","womo:nz:nr":"107"}},"432541364":{"location":[-45.8509366,170.5035555],"ct":"NZ","tp":"CS","ts":"2024-03-30T19:23:20Z","tX":996,"tY":659,"tags":{"name":"Leith Valley Touring Park","wikidata":"Q111870145"}},"607691105":{"location":[-46.0597622,170.1973896],"ct":"NZ","tp":"CS","ts":"2024-02-29T06:03:37Z","tX":996,"tY":659,"tags":{"caravans":"yes","internet_access":"no","name":"Taieri Mouth Holiday Camp","tents":"yes"}},"705151902":{"location":[-45.9375865,170.3563381],"ct":"NZ","tp":"CR","ts":"2024-02-06T06:56:20Z","tX":996,"tY":659,"tags":{"area":"yes","drinking_water":"yes","fee":"no","name":"Ocean View Reserve","power_supply":"no","sanitary_dump_station":"yes","toilets":"yes","wheelchair":"yes"}},"746266551":{"location":[-45.9478555,170.3297518],"ct":"NZ","tp":"CR","ts":"2019-11-17T00:34:56Z","tX":996,"tY":659,"tags":{}},"1052416655":{"location":[-45.8518269,170.5045076],"ct":"NZ","tp":"CR","ts":"2024-10-04T23:20:52Z","tX":996,"tY":659,"tags":{"access":"members","addr:city":"Dunedin","addr:housenumber":"57","addr:street":"Woodhaugh Street","addr:suburb":"Woodhaugh","caravan_site":"motorhome_stopover","name":"Woodhaugh NZMCA Park","operator":"NZMCA","power_supply":"no","sanitary_dump_station":"yes"}},"1337819127":{"location":[-45.9109996,170.2842313],"ct":"NZ","tp":"SD","ts":"2021-01-11T17:25:11Z","tX":996,"tY":659,"tags":{}},"3351720234":{"location":[-45.9479421,170.3303054],"ct":"NZ","tp":"CS","ts":"2023-05-17T00:25:37Z","tX":996,"tY":659,"tags":{"addr:city":"Dunedin","addr:housenumber":"1044","addr:street":"Brighton Road","addr:suburb":"Brighton","name":"Brighton Caravan Park & Boat Hire","phone":"+64 3 481 1404","ref:linz:address_id":"56382"}},"3351936077":{"location":[-45.8508767,170.5035515],"ct":"NZ","tp":"CS","ts":"2023-05-17T00:25:37Z","tX":996,"tY":659,"tags":{"addr:city":"Dunedin","addr:housenumber":"103","addr:street":"Malvern Street","addr:suburb":"Woodhaugh","name":"Leith Valley Touring Park","phone":"+64 3 467 9936","ref:linz:address_id":"48124","sanitary_dump_station":"yes"}},"4814425823":{"location":[-45.8747648,170.3888097],"ct":"NZ","tp":"CS","ts":"2017-04-24T23:29:12Z","tX":996,"tY":659,"tags":{"name":"Wingatui Racecourse Mosgiel","name:en":"Wingatui Racecourse Mosgiel"}},"4925641821":{"location":[-45.874831,170.3888755],"ct":"NZ","tp":"CS","ts":"2017-06-20T05:11:29Z","tX":996,"tY":659,"tags":{"name":"Racecourse Parking","name:en":"Racecourse Parking"}},"4620360009":{"location":[-45.9483933,170.3350916],"ct":"NZ","tp":"CR","ts":"2018-04-23T23:35:41Z","tX":996,"tY":659,"tags":{"description":"Freedom Campsite (self-contained vehicles only)","fee":"no","internet_access":"no","name":"Brighton Domain Carpark","sanitary_dump_station":"no"}},"7229133286":{"location":[-45.8833651,170.4983171],"ct":"NZ","tp":"CR","ts":"2021-02-24T02:54:22Z","tX":996,"tY":659,"tags":{"internet_access":"no","name":"Dunedin Freedom Camping"}},"6622882991":{"location":[-45.9376326,170.3561898],"ct":"NZ","tp":"SD","ts":"2024-02-06T06:48:01Z","tX":996,"tY":659,"tags":{"fee":"no"}}}