{"56209383":{"location":[44.5960676,-79.8095546],"ct":"CA","tp":"CS","ts":"2010-04-24T18:01:15Z","tX":284,"tY":369,"tags":{"attribution":"Natural Resources Canada","canvec:CODE":"2480012","canvec:UUID":"db1b043b3d5f44c9b2f0cd774e673fb3","source":"CanVec_Import_2009","tents":"yes"}},"56211176":{"location":[44.6073899,-79.9810222],"ct":"CA","tp":"CS","ts":"2024-11-06T16:01:56Z","tX":284,"tY":369,"tags":{"source":"CanVec_Import_2009","tents":"yes"}},"59674641":{"location":[44.7804262,-80.012784],"ct":"CA","tp":"CS","ts":"2022-09-19T00:44:15Z","tX":284,"tY":369,"tags":{"addr:city":"Penetanguishene","addr:housename":"Lafontaine Camping","addr:housenumber":"240","addr:postcode":"L9M 2H7","addr:street":"Lafontaine Road East","name":"Lafontaine Camping","source":"CanVec_Import_2009","tents":"yes","website":"http://www.lafontaine-ent.on.ca"}},"118619439":{"location":[44.754114,-79.8470933],"ct":"CA","tp":"CS","ts":"2022-05-16T20:01:22Z","tX":284,"tY":369,"tags":{"name":"Bayfort Camp","source":"NRCan-CanVec-7.0"}},"266449021":{"location":[44.6075959,-79.980981],"ct":"CA","tp":"CR","ts":"2008-05-23T06:53:21Z","tX":284,"tY":369,"tags":{}},"1082202533":{"location":[44.8393511,-80.0185561],"ct":"CA","tp":"CS","ts":"2023-11-03T17:17:05Z","tX":284,"tY":369,"tags":{"name":"Wolf Campground","operator":"Awenda Provincial Park","website":"https://www.ontarioparks.com/park/awenda"}},"1082202534":{"location":[44.8355129,-80.0161475],"ct":"CA","tp":"CS","ts":"2023-11-03T17:17:09Z","tX":284,"tY":369,"tags":{"name":"Deer Campground","operator":"Awenda Provincial Park","website":"https://www.ontarioparks.com/park/awenda"}},"1082202535":{"location":[44.8321613,-80.0100669],"ct":"CA","tp":"CS","ts":"2023-11-03T17:17:06Z","tX":284,"tY":369,"tags":{"name":"Bear Campground","operator":"Awenda Provincial Park","website":"https://www.ontarioparks.com/park/awenda"}},"1082202536":{"location":[44.826097,-80.0129182],"ct":"CA","tp":"CS","ts":"2023-11-03T17:17:08Z","tX":284,"tY":369,"tags":{"name":"Hawk Campground","operator":"Awenda Provincial Park","website":"https://www.ontarioparks.com/park/awenda"}},"1082202537":{"location":[44.8264013,-80.0054508],"ct":"CA","tp":"CS","ts":"2023-11-03T17:17:04Z","tX":284,"tY":369,"tags":{"backcountry":"no","camp_site":"serviced","caravans":"yes","dog":"leashed","drinking_water":"yes","fee":"yes","lit":"no","motor_vehicle":"yes","name":"Turtle Campground","openfire":"yes","operator":"Awenda Provincial Park","picnic_table":"yes","reservation":"yes","shower":"hot","tents":"yes","toilets":"yes","website":"https://www.ontarioparks.com/park/awenda"}},"4808754429":{"location":[44.6734705,-79.9794671],"ct":"CA","tp":"CS","ts":"2020-07-01T06:14:46Z","tX":284,"tY":369,"tags":{"name":"Scouts Canada Camp Wildman"}}}