{"39612953":{"location":[43.3666401,-80.076532],"ct":"CA","tp":"CR","ts":"2020-08-08T15:31:31Z","tX":284,"tY":374,"tags":{"name":"Flamboro Valley Camping Resort","power_supply":"yes","sanitary_dump_station":"yes","tents":"yes","website":"https://www.flamborovalley.com/"}},"39612954":{"location":[43.4055696,-80.1243266],"ct":"CA","tp":"CR","ts":"2013-04-27T09:39:09Z","tX":284,"tY":374,"tags":{"canvec:UUID":"ca077bb684164957aae5383e06b2d29e","source":"CanVec_Import_2009","tents":"yes"}},"39612956":{"location":[43.4114492,-80.0744854],"ct":"CA","tp":"CR","ts":"2020-08-08T15:25:12Z","tX":284,"tY":374,"tags":{"canvec:UUID":"e91a6d95ed1d4b9fbbf098e801b31114","source":"CanVec_Import_2009","tents":"yes"}},"39612957":{"location":[43.4851563,-80.0013424],"ct":"CA","tp":"CR","ts":"2013-04-27T09:39:09Z","tX":284,"tY":374,"tags":{"canvec:UUID":"7b40aa29bc774732b550ef3e746df32b","source":"CanVec_Import_2009","tents":"yes"}},"39612958":{"location":[43.3298959,-80.043149],"ct":"CA","tp":"CR","ts":"2024-08-05T22:23:29Z","tX":284,"tY":374,"tags":{"addr:city":"Millgrove","addr:housenumber":"1039","addr:postcode":"L0R 1V0","addr:street":"Concession 5 West","canvec:UUID":"c1eeeb45512541abbf022ba4e861c600","name":"Cedars Campground","permanent_camping":"yes","source":"CanVec_Import_2009","tents":"yes","website":"https://www.cedarscampground.com/"}},"39612961":{"location":[43.4140098,-80.0436715],"ct":"CA","tp":"CR","ts":"2020-08-08T15:25:12Z","tX":284,"tY":374,"tags":{"canvec:UUID":"46fd61a0b31546a2bb9a233fe4da8308","source":"CanVec_Import_2009","tents":"yes"}},"39612962":{"location":[43.4181969,-80.0016366],"ct":"CA","tp":"CR","ts":"2020-11-17T22:36:23Z","tX":284,"tY":374,"tags":{"addr:housenumber":"322","addr:street":"Eleventh Concession","canvec:UUID":"66bdf6e912f94357a8ef7416309f27f4","name":"Lawson Park Family Camping Resort","source":"CanVec_Import_2009","tents":"yes","website":"http://www.lawsonparkcampers.ca/home.htm"}},"39612964":{"location":[43.356788,-80.0211633],"ct":"CA","tp":"CR","ts":"2023-08-24T18:22:57Z","tX":284,"tY":374,"tags":{"canvec:UUID":"bfd38643c1654584bcd929ce1b9db489","source":"CanVec_Import_2009","tents":"yes"}},"76961422":{"location":[43.422654,-79.8466516],"ct":"CA","tp":"CS","ts":"2023-07-19T01:57:52Z","tX":284,"tY":374,"tags":{"name":"Mount Nemo Scout Camp","operator":"Scouts Canada","source":"CanVec 6.0 - NRCan","website":"http://www.hwscouting.ca/mount_nemo.htm"}},"76961561":{"location":[43.4315882,-79.8525566],"ct":"CA","tp":"CS","ts":"2016-11-16T16:53:10Z","tX":284,"tY":374,"tags":{"addr:city":"Burlington","addr:housenumber":"5100","addr:street":"Appleby Line","name":"Sidrabene","operator":"St. Andrew's Latvian Lutheran","source":"CanVec 6.0 - NRCan","website":"http://www.standrewslatvian.org/sidrabene/","wikipedia":"en:Sidrabene"}},"97039132":{"location":[43.4171481,-79.9917912],"ct":"CA","tp":"CS","ts":"2023-11-01T17:08:41Z","tX":284,"tY":374,"tags":{"addr:housenumber":"395","addr:street":"Concession 10 East","name":"CAMPULUI ROMANESC","source":"NRCan-CanVec-7.0","website":"https://campulromanesc.ca/contact.html"}},"175819957":{"location":[43.4868046,-79.9991041],"ct":"CA","tp":"CS","ts":"2012-08-13T00:39:19Z","tX":284,"tY":374,"tags":{"source":"Bing"}},"257531524":{"location":[43.521346,-79.939531],"ct":"CA","tp":"CS","ts":"2015-02-14T08:41:12Z","tX":284,"tY":374,"tags":{"name":"Milton Heights Campground","website":"www.miltonhgtscampgrd.com"}},"430861641":{"location":[43.4124051,-80.1285609],"ct":"CA","tp":"CR","ts":"2023-11-06T19:33:31Z","tX":284,"tY":374,"tags":{"name":"Emerald Lake Trailer Resort & Waterpark","phone":"+1-905-659-7923","phone:tollfree":"+1-800-679-1853","website":"https://emeraldlake.ca/"}},"482489600":{"location":[43.376953,-79.8984912],"ct":"CA","tp":"CS","ts":"2019-04-17T00:32:55Z","tX":284,"tY":374,"tags":{"name":"Lost Forest Park & Camping Resort","phone":"+1-905-689-7648","website":"https://lostforestpark.com/"}},"822449689":{"location":[43.3912163,-80.1541662],"ct":"CA","tp":"CS","ts":"2010-07-18T03:35:45Z","tX":284,"tY":374,"tags":{"source":"CanVec 6.0 - NRCan"}},"822450868":{"location":[43.3881815,-80.1515436],"ct":"CA","tp":"CS","ts":"2010-07-18T03:36:19Z","tX":284,"tY":374,"tags":{"source":"CanVec 6.0 - NRCan"}},"835300791":{"location":[43.3859029,-80.0772626],"ct":"CA","tp":"CR","ts":"2020-08-08T15:25:12Z","tX":284,"tY":374,"tags":{}},"3323751472":{"location":[43.4480775,-79.9570734],"ct":"CA","tp":"CS","ts":"2023-11-01T17:07:24Z","tX":284,"tY":374,"tags":{"access":"private","addr:city":"Milton","addr:housenumber":"7484","addr:street":"Twiss Road","name":"Camp Manitou Scout Camp","operator":"Scouts Canada","phone":"+1-905-878-2293","website":"https://campmanitou.scouter.ca/"}},"12094257767":{"location":[43.3273686,-80.0420629],"ct":"CA","tp":"SD","ts":"2024-08-05T22:23:29Z","tX":284,"tY":374,"tags":{}}}