{"385490485":{"location":[42.1121203,-80.1536986],"ct":"US","tp":"CS","ts":"2024-05-09T02:21:41Z","tX":284,"tY":379,"tags":{"addr:city":"Erie","addr:housenumber":"50","addr:postcode":"16505","addr:state":"PA","addr:street":"Peninsula Drive","caravans":"yes","fee":"yes","name":"Sara's Campground","openfire":"yes","phone":"(814) 833-4560","shower":"yes","tents":"yes","toilets":"yes","website":"https://sarascampground.com/"}},"414573543":{"location":[42.1032931,-79.8223216],"ct":"US","tp":"CS","ts":"2009-07-27T14:34:56Z","tX":284,"tY":379,"tags":{"source":"http://www.creeksidecampgrounds.com","url":"http://www.creeksidecampgrounds.com"}},"837225169":{"location":[42.1500716,-80.0774897],"ct":"US","tp":"CR","ts":"2022-03-11T21:52:20Z","tX":284,"tY":379,"tags":{"addr:city":"Erie","addr:housenumber":"130","addr:postcode":"16507","addr:state":"PA","addr:street":"North 1st Street","barrier":"fence","name":"Lampe Campground","website":"https://www.porterie.org/lampecampground/"}},"910504710":{"location":[42.0504796,-79.8185838],"ct":"US","tp":"CS","ts":"2021-02-24T14:41:25Z","tX":284,"tY":379,"tags":{"addr:city":"Wattsburg","addr:housenumber":"12681","addr:postcode":"16442","addr:state":"PA","addr:street":"PA-89","name":"Camper's Hill"}}}