{"369289131":{"location":[41.4337551,-80.1466638],"ct":"US","tp":"CS","ts":"2023-11-05T23:47:05Z","tX":284,"tY":382,"tags":{"addr:city":"Sandy Lake","addr:housenumber":"867","addr:postcode":"16145","addr:state":"PA","addr:street":"Georgetown Road","capacity":"587","caravans":"yes","drinking_water":"yes","fee":"yes","name":"Goddard Park VacationLand Campground","openfire":"yes","phone":"+1 724 253 4645","tents":"yes","website":"http://www.vacationland-campground.com/index.htm"}},"513482605":{"location":[41.462431,-79.9997321],"ct":"US","tp":"CS","ts":"2017-08-07T05:23:28Z","tX":284,"tY":382,"tags":{"access":"private","name":"Private Camp Ground"}},"827521797":{"location":[41.2576405,-79.8380282],"ct":"US","tp":"CS","ts":"2024-09-01T00:00:59Z","tX":284,"tY":382,"tags":{"access":"customers","addr:city":"Kennerdell","addr:state":"PA","fee":"yes","name":"Marlowe's Scenic River Campground","phone":"+1 814-758-1707"}},"4952736646":{"location":[41.2644251,-79.8673383],"ct":"US","tp":"CS","ts":"2023-11-10T17:07:12Z","tX":284,"tY":382,"tags":{"backcountry":"yes","description":"Unmaintained Camping Spot.  No undergrowth.","fee":"no"}},"4952736692":{"location":[41.2667586,-79.8609172],"ct":"US","tp":"CS","ts":"2023-11-10T17:07:12Z","tX":284,"tY":382,"tags":{"backcountry":"yes","description":"Unmaintained Camping Spot"}},"4952911681":{"location":[41.2834429,-79.8282791],"ct":"US","tp":"CS","ts":"2022-01-03T00:40:15Z","tX":284,"tY":382,"tags":{"internet_access":"no","name":"Danner Campground"}},"5952345178":{"location":[41.3411062,-79.8864348],"ct":"US","tp":"CS","ts":"2024-03-29T19:59:29Z","tX":284,"tY":382,"tags":{"access":"private","addr:city":"Polk","addr:housenumber":"276","addr:postcode":"16342","addr:state":"PA","addr:street":"Damascus Road","name":"Seneca Hills Bible Camp & Retreat Center","phone":"+1 814-432-3026","religion":"christian","website":"www.senecahills.com"}},"6026314801":{"location":[41.3286381,-79.8558262],"ct":"US","tp":"CS","ts":"2018-10-31T03:17:26Z","tX":284,"tY":382,"tags":{"access":"permissive","description":"private property, but very permissive, multiple sites, fires allowed, must bring your own wood, road parking, no vehicle to sites","internet_access":"no"}},"7508437114":{"location":[41.4644115,-80.0083818],"ct":"US","tp":"CS","ts":"2020-05-11T18:41:06Z","tX":284,"tY":382,"tags":{"addr:city":"Carlton","addr:housenumber":"7","addr:postcode":"16311","addr:state":"PA","addr:street":"Boy Scout Lane","name":"Custaloga Town Scout Reservation","operator":"French Creek Council BSA"}},"7737976114":{"location":[41.2957326,-79.8065923],"ct":"US","tp":"CS","ts":"2024-03-29T19:48:34Z","tX":284,"tY":382,"tags":{"access":"customers","addr:city":"Kennerdell","addr:housenumber":"527","addr:postcode":"16374","addr:state":"PA","addr:street":"Seneca Hemlock Road","description":"Campground","email":"Reservations@KampKennerdell.com","fee":"yes","name":"Kamp Kennerdell","phone":"+1 814-388-9533","website":"https://kampkennerdell.com"}}}