{"4303575891":{"location":[-2.0648131,-79.9531072],"ct":"EC","tp":"CS","ts":"2016-07-15T04:06:30Z","tX":284,"tY":517,"tags":{"name":"Cervecería Nacional S.A."}},"4515439193":{"location":[-2.0717385,-79.9420328],"ct":"EC","tp":"CS","ts":"2016-11-22T15:01:57Z","tX":284,"tY":517,"tags":{"addr:street":"Vía A Duale","internet_access":"wlan","name":"Bodegas de Snem","name:es":"Bodegas de Snem"}},"4977400421":{"location":[-2.0733086,-79.944661],"ct":"EC","tp":"CS","ts":"2017-07-18T13:22:01Z","tX":284,"tY":517,"tags":{"addr:street":"Vía A Duale","name":"Difare","name:en":"Difare","name:es":"Difare","opening_hours":"24/7"}},"5721497621":{"location":[-2.0643539,-79.9674786],"ct":"EC","tp":"CS","ts":"2018-06-27T01:29:03Z","tX":284,"tY":517,"tags":{"name":"EMDIQUIN"}},"6074699985":{"location":[-2.0482019,-79.8907302],"ct":"EC","tp":"CS","ts":"2018-11-19T22:41:31Z","tX":284,"tY":517,"tags":{"name":"Cipte","opening_hours":"Mo-Fr 00:00-24:00"}},"6695713086":{"location":[-1.8353003,-79.9784441],"ct":"EC","tp":"CS","ts":"2019-08-08T19:31:51Z","tX":284,"tY":517,"tags":{"name":"PÍLADORA STA. CLARA"}},"5792136659":{"location":[-2.1022782,-79.9258417],"ct":"EC","tp":"CR","ts":"2018-07-28T12:39:14Z","tX":284,"tY":517,"tags":{}},"5831769685":{"location":[-2.024696,-79.9434197],"ct":"EC","tp":"CR","ts":"2018-08-14T09:09:37Z","tX":284,"tY":517,"tags":{}}}