{"4157284490":{"location":[25.135145,55.239009],"ct":"AE","tp":"CS","ts":"2018-03-06T17:35:31Z","tX":669,"tY":438,"tags":{"name":"Habtoor camp alqouz","name:en":"Habtoor camp alqouz"}},"4268014493":{"location":[25.1012339,55.2172993],"ct":"AE","tp":"CR","ts":"2016-06-27T12:51:54Z","tX":669,"tY":438,"tags":{"addr:housenumber":"53","addr:street":"13c st"}},"4319130391":{"location":[25.1264197,55.232636],"ct":"AE","tp":"CS","ts":"2018-03-06T17:35:32Z","tX":669,"tY":438,"tags":{"fixme":"name, name:en mismatch.","name":"al quoz accamodation","name:en":"Dulsco Village"}},"4618493991":{"location":[24.9686262,55.2869703],"ct":"AE","tp":"CS","ts":"2019-02-12T11:31:51Z","tX":669,"tY":438,"tags":{"name":"Fahim work place","name:en":"Fahim work place"}},"4618506194":{"location":[24.9835424,55.4034216],"ct":"AE","tp":"CS","ts":"2019-02-12T11:31:51Z","tX":669,"tY":438,"tags":{"name":"Akoya Oxygen Boundary","name:en":"Akoya Oxygen Boundary"}},"4634451390":{"location":[24.9744344,55.205522],"ct":"AE","tp":"CS","ts":"2019-02-12T11:31:55Z","tX":669,"tY":438,"tags":{"addr:street":"53 Street","name":"expedite","name:en":"expedite"}},"4814399922":{"location":[25.1316209,55.2317182],"ct":"AE","tp":"CS","ts":"2018-03-06T17:35:35Z","tX":669,"tY":438,"tags":{"addr:street":"Al Marabea' Street","fixme":"name, name:ar mismatch.","name":"سكن العمالية إجادة","name:ar":"سكن العمالية","name:en":"Ejadah Staff Accommodation"}},"4899038522":{"location":[25.1582119,55.2459006],"ct":"AE","tp":"CS","ts":"2023-05-11T14:58:24Z","tX":669,"tY":438,"tags":{"name":"مخيم القوز","name:ar":"مخيم القوز","name:en":"alqouz camp"}},"4899057721":{"location":[25.1099766,55.2331863],"ct":"AE","tp":"CS","ts":"2019-02-12T11:32:39Z","tX":669,"tY":438,"tags":{"name":"prestige","name:en":"prestige"}},"5209562722":{"location":[25.156105,55.3248407],"ct":"AE","tp":"CS","ts":"2025-02-05T14:34:26Z","tX":669,"tY":438,"tags":{"name":"Dubai Nad Al Sheeba Ladies Centre","name:en":"Dubai Nad Al Sheeba Ladies Centre"}},"8065859085":{"location":[24.9932966,55.3510476],"ct":"AE","tp":"CS","ts":"2020-10-30T14:25:31Z","tX":669,"tY":438,"tags":{"name":"Turjakan Blues"}},"8296243576":{"location":[24.9925634,55.4167305],"ct":"AE","tp":"CS","ts":"2023-05-19T13:05:32Z","tX":669,"tY":438,"tags":{"access":"customers","addr:city":"دبي","addr:city:ar":"دبي","addr:city:en":"Dubai","addr:city:ur":"دبئی","addr:housenumber":"Dubai Heritage Vision","addr:street":"Exit 29, Jebel Ali - Lehbab Rd.","name":"Caravanserai","name:en":"Caravanserai","operator":"Tour Dubai"}},"4610054591":{"location":[25.1630769,55.3494771],"ct":"AE","tp":"CR","ts":"2019-02-12T11:31:50Z","tX":669,"tY":438,"tags":{"name":"ymoo3","name:en":"ymoo3"}}}