{"189628779":{"location":[-28.8597074,114.6399398],"ct":"AU","tp":"CR","ts":"2025-03-09T03:56:50Z","tX":838,"tY":597,"tags":{"addr:country":"AU","addr:housenumber":"4","addr:state":"WA","addr:street":"Hull Street","addr:suburb":"Cape Burney","email":"grcp@wn.com.au","fee":"yes","name":"Double Beach Caravan Park","opening_hours":"24/7","phone":"+61 8 9921 5845","power_supply":"yes","sanitary_dump_station":"yes","tents":"yes","website":"http://www.doublebeach.com.au/","wheelchair":"yes"}},"191736642":{"location":[-28.7243607,114.6214927],"ct":"AU","tp":"CR","ts":"2023-04-13T12:05:39Z","tX":838,"tY":597,"tags":{"addr:housenumber":"4","addr:postcode":"6530","addr:street":"Bosley Street","name":"Sunset Beach Holiday Park","phone":"+61 8 9938 1655","phone:AU":"1800 353 389","website":"https://www.big4.com.au/caravan-parks/wa/coral-coast/sunset-beach-holiday-park"}},"1174244653":{"location":[-28.6542408,114.6161201],"ct":"AU","tp":"CR","ts":"2023-05-19T09:38:23Z","tX":838,"tY":597,"tags":{"addr:country":"AU","addr:housenumber":"1633","addr:state":"WA","addr:street":"North West Coastal Highway","addr:suburb":"Buller","contact:facebook":"https://www.facebook.com/drummondcoveholidaypark/","contact:instagram":"https://www.instagram.com/drummondcovehp/","email":"holidays@drummondcove.com","fax":"+61 8 9938 2563","fee":"yes","internet_access":"wlan","internet_access:fee":"no","name":"Drummonds Cove Holiday Park","phone":"+61 8 9938 2524","phone:AU":"1800 992 524","power_supply":"yes","stars":"3","tents":"yes","website":"https://www.drummondcove.com/"}},"1811174881":{"location":[-28.6589724,114.7040711],"ct":"AU","tp":"CS","ts":"2024-10-03T11:08:24Z","tX":838,"tY":597,"tags":{"access":"customers","caravans":"yes","drinking_water":"no","maxstay":"24 hours","name":"Fig Tree Crossing Rest Area","note":"$7 per night and person","operator":"Shire of Chapman Valley","power_supply":"no","sanitary_dump_station":"yes","shower":"no","tents":"yes","toilets":"yes"}},"1811205019":{"location":[-28.9025845,114.8925912],"ct":"AU","tp":"CS","ts":"2021-04-20T00:02:23Z","tX":838,"tY":597,"tags":{"name":"Wind Farm Lookout Parking Area"}},"7169114885":{"location":[-28.6977922,114.6373168],"ct":"AU","tp":"CS","ts":"2022-08-22T08:27:34Z","tX":838,"tY":597,"tags":{"check_date":"2022-08-20","name":"Geraldton Caravan Park"}},"6718078688":{"location":[-28.6949125,114.6367797],"ct":"AU","tp":"CR","ts":"2019-12-24T10:52:17Z","tX":838,"tY":597,"tags":{"addr:housenumber":"239","addr:street":"Hall Road","internet_access":"wlan","name":"Geraldton Caravan Park","opening_hours":"Mo-Su 08:00-17:00","phone":"+61 8 9938 1222"}},"11893378720":{"location":[-28.6702591,114.6125698],"ct":"AU","tp":"CR","ts":"2024-05-10T10:34:40Z","tX":838,"tY":597,"tags":{"description":"Free camp for 5 cars but there are a place for more than that (actually we are 13 cars). 24h maximum. Shower + toilets, no BBQ.","name":"Free camp Park- 5 cars"}}}