{"998590102":{"location":[41.1211429,-75.6401233],"ct":"US","tp":"CS","ts":"2021-11-02T23:30:42Z","tX":296,"tY":383,"tags":{"addr:city":"Blakeslee","addr:housenumber":"286","addr:postcode":"18610","addr:state":"PA","addr:street":"Acahela Road","group_only":"yes","name":"Camp Acahela"}},"1312520297":{"location":[41.0227321,-75.688297],"ct":"US","tp":"CS","ts":"2024-09-01T01:11:24Z","tX":296,"tY":383,"tags":{"access":"yes","addr:city":"White Haven","addr:housenumber":"4","addr:postcode":"18661","addr:state":"PA","addr:street":"Family Camp Road","backcountry":"no","caravans":"yes","fee":"yes","name":"Hickory Run State Park Campground","note":"Boundary is approximate","static_caravans":"no","tents":"yes","website":"https://www.dcnr.pa.gov/StateParks/FindAPark/HickoryRunStatePark/Pages/Stay.aspx","website:map":"https://elibrary.dcnr.pa.gov/GetDocument?docId=1753145&DocName=HICK_CampgroundMap.pdf#"}},"5859964747":{"location":[41.0664927,-75.7527412],"ct":"US","tp":"CS","ts":"2024-01-05T19:26:30Z","tX":296,"tY":383,"tags":{"addr:city":"White Haven","addr:housenumber":"4585","addr:postcode":"18661","addr:state":"PA","addr:street":"State Street","caravans":"yes","drinking_water":"yes","fee":"yes","name":"Lehigh Gorge Campground","openfire":"yes","phone":"+15704439191","power_supply":"yes","shower":"yes","tents":"yes","toilets":"yes","website":"https://www.lehighgorgecampground.com/"}},"7868618255":{"location":[41.0267807,-75.7136641],"ct":"US","tp":"CS","ts":"2020-09-02T13:24:42Z","tX":296,"tY":383,"tags":{"addr:city":"White Haven","addr:housenumber":"85","addr:postcode":"18661","addr:state":"PA","addr:street":"Youth Forestry Lane","group_only":"yes","name":"Pennsylvania Youth Forestry Camp #2"}},"8006969905":{"location":[41.0265286,-75.6792107],"ct":"US","tp":"CS","ts":"2020-10-14T14:44:44Z","tX":296,"tY":383,"tags":{"group_only":"yes","name":"Organized Group Tenting Area"}},"8013599646":{"location":[41.039692,-75.6979043],"ct":"US","tp":"CS","ts":"2020-10-16T13:59:43Z","tX":296,"tY":383,"tags":{"group_only":"yes","name":"Camp Daddy Allen","operator":"Hickory Run State Park"}},"8013794073":{"location":[41.0439036,-75.6983458],"ct":"US","tp":"CS","ts":"2020-10-16T15:29:05Z","tX":296,"tY":383,"tags":{"group_only":"yes","name":"Camp Shehaqua","operator":"Hickory Run State Park"}},"9934781405":{"location":[41.0141424,-75.625776],"ct":"US","tp":"CS","ts":"2022-08-06T02:33:17Z","tX":296,"tY":383,"tags":{"cabins":"yes","name":"Camptel Poconos","website":"https://camptelpoconos.com/"}},"11935875151":{"location":[41.1744769,-75.6153607],"ct":"US","tp":"CS","ts":"2024-05-26T23:28:31Z","tX":296,"tY":383,"tags":{"backcountry":"yes","capacity:tents":"20","description":"Backcountry camping with 5+ sites and water access. Pine glen.","fee":"no","tents":"yes"}},"11935875152":{"location":[41.1728927,-75.6364838],"ct":"US","tp":"CS","ts":"2024-05-26T23:28:31Z","tX":296,"tY":383,"tags":{"backcountry":"yes"}},"5859964748":{"location":[41.0663718,-75.7517761],"ct":"US","tp":"CR","ts":"2018-08-27T02:25:27Z","tX":296,"tY":383,"tags":{"addr:city":"White Haven","addr:housenumber":"4585","addr:postcode":"18661","addr:state":"PA","addr:street":"State Street","name":"Lehigh Gorge RV Center"}},"8006969906":{"location":[41.0231646,-75.6877208],"ct":"US","tp":"SD","ts":"2020-10-14T14:44:44Z","tX":296,"tY":383,"tags":{}},"12323649968":{"location":[41.206422,-75.6153128],"ct":"US","tp":"CS","ts":"2024-11-08T13:21:33Z","tX":296,"tY":383,"tags":{"access":"permit","backcountry":"yes","name":"002 Fireline","operator":"PA DCNR"}},"12323657057":{"location":[41.2291854,-75.6069227],"ct":"US","tp":"CS","ts":"2024-11-08T13:19:35Z","tX":296,"tY":383,"tags":{"access":"permit","backcountry":"yes","name":"003 Sassafras Hill","operator":"PA DCNR"}},"12323660240":{"location":[41.2068682,-75.6120578],"ct":"US","tp":"CS","ts":"2024-11-08T13:23:59Z","tX":296,"tY":383,"tags":{"access":"permit","backcountry":"yes","name":"Manny Gordon 001","operator":"PA DCNR"}},"12323660241":{"location":[41.2059652,-75.6115114],"ct":"US","tp":"CS","ts":"2024-11-08T13:23:59Z","tX":296,"tY":383,"tags":{"access":"permit","backcountry":"yes","name":"Manny Gordon 002","operator":"PA DCNR"}},"12323660242":{"location":[41.2054487,-75.6105868],"ct":"US","tp":"CS","ts":"2024-11-08T13:23:59Z","tX":296,"tY":383,"tags":{"access":"permit","backcountry":"yes","name":"Manny Gordon 003","operator":"PA DCNR"}}}