{"729169112":{"location":[38.8403096,-75.8575958],"ct":"US","tp":"CS","ts":"2022-08-26T03:25:58Z","tX":296,"tY":391,"tags":{"access":"private","addr:housenumber":"24485","cabins":"no","caravans":"no","dog":"yes","drinking_water":"yes","leisure":"park","name":"Crane Baptist Park","note":"Shape based on the survey points, located on the map. the border against the water does not appear to have been surveyed, and is simply \"where the land and water meet.\"","operator":"Calvary Baptist Church","phone":"+1-410-479-3682","shower":"yes","source":"local knowledge","static_caravans":"no","tents":"yes","toilets":"yes","website":"https://calvarybaptistchurchofdenton.org/"}},"729181626":{"location":[38.8601556,-75.8328265],"ct":"US","tp":"CS","ts":"2023-10-24T12:47:33Z","tX":296,"tY":391,"tags":{"access":"private","email":"campmardela@gmail.com","leisure":"park","name":"Camp Mardela","note":"Shape is an approximation","operator":"Church of the Brethren","phone":"+1-410-479-2861","website":"https://www.campmardela.org/"}},"729231999":{"location":[38.8238024,-75.8379057],"ct":"US","tp":"CS","ts":"2023-11-28T14:40:50Z","tX":296,"tY":391,"tags":{"brand":"Girl Scouts","brand:wikidata":"Q2576280","cabins":"yes","caravans":"no","leisure":"summer_camp","name":"Camp Todd","operator":"Girl Scouts of America","scout":"yes","website":"https://www.gscb.org/en/camp/our-camps/camp-todd.html"}},"732468456":{"location":[39.0158936,-75.7691538],"ct":"US","tp":"CS","ts":"2022-07-03T14:37:21Z","tX":296,"tY":391,"tags":{"addr:city":"Greensboro","addr:housenumber":"14620","addr:postcode":"21639","addr:state":"MD","addr:street":"Drapers Mill Road","caravans":"yes","fee":"yes","name":"Holiday Park Campground","openfire":"yes","phone":"+1-410-482-6797","picnic_table":"yes","power_supply":"yes","reservation":"yes","tents":"yes","water_tap":"yes","website":"https://holidaypark.com/"}},"735092606":{"location":[38.8901515,-75.8115752],"ct":"US","tp":"CS","ts":"2023-10-24T12:32:55Z","tX":296,"tY":391,"tags":{"addr:city":"Denton","addr:housenumber":"424","addr:postcode":"21629","addr:state":"MD","addr:street":"East Wesley Circle","cabins":"yes","caravans":"yes","email":"dentoncamp@gmail.com","name":"Denton Camp","note":"Outline is an approximation","phone":"+1-410-479-3361","source":"Denton Camp","start_date":"1898","website":"https://dentoncamp.org/"}},"744169316":{"location":[38.8605242,-75.8372297],"ct":"US","tp":"CS","ts":"2022-09-28T04:17:37Z","tX":296,"tY":391,"tags":{"addr:city":"Denton","addr:state":"MD","cabins":"no","capacity:caravans":"30","capacity:tents":"3","caravans":"yes","description":"30 campsites \n3 tent-only campsites \n​​ADA Sites: 2-3-4-5","name":"Martinak State Park Camp Loop B","operator":"Martinak State Park","permanent_camping":"no","power_supply":"yes","reservation":"yes","static_caravans":"no","tents":"yes","website":"https://dnr.maryland.gov/publiclands/Pages/eastern/martinak.aspx","wheelchair":"yes"}},"744170055":{"location":[38.8624859,-75.8360164],"ct":"US","tp":"CS","ts":"2022-09-28T04:17:37Z","tX":296,"tY":391,"tags":{"access":"yes","addr:city":"Denton","addr:state":"MD","cabins":"yes","capacity:caravans":"30","caravans":"yes","description":"30 campsites and 6 cabins \nADA Sites: 37-38-51-52 and Camper Cabin \"C\"","fee":"yes","name":"Martinak State Park Camp Loop A","operator":"Martinak State Park","permanent_camping":"no","phone":"+1-410-820-1668","power_supply":"no","reservation":"yes","static_caravans":"no","tents":"yes","website":"https://dnr.maryland.gov/publiclands/Pages/eastern/martinak.aspx","wheelchair":"yes"}},"744177903":{"location":[38.9771936,-75.9354879],"ct":"US","tp":"CS","ts":"2022-09-09T21:07:02Z","tX":296,"tY":391,"tags":{"access":"yes","addr:state":"MD","capacity:caravans":"35","description":"35 campsites and 4 cabins\n","fee":"yes","name":"Tuckahoe State Park Electric Loop","operator":"Tuckahoe State Park","power_supply":"yes","reservation":"recommended","website":"https://dnr.maryland.gov/publiclands/Pages/eastern/tuckahoe.aspx"}},"744177904":{"location":[38.9846328,-75.9317257],"ct":"US","tp":"CS","ts":"2022-09-09T21:07:02Z","tX":296,"tY":391,"tags":{"access":"yes","addr:state":"MD","cabins":"yes","capacity:caravans":"21","caravans":"yes","description":"21 campsites and 4 cabins","fee":"yes","name":"Tuckahoe State Park Non-Electric Loop","operator":"Tuckahoe State Park","power_supply":"no","reservation":"yes","tents":"yes","website":"https://dnr.maryland.gov/publiclands/Pages/eastern/tuckahoe.aspx"}},"755761610":{"location":[38.9843365,-75.929368],"ct":"US","tp":"CS","ts":"2022-08-20T03:47:13Z","tX":296,"tY":391,"tags":{"access":"yes","addr:state":"MD","cabins":"no","caravans":"no","fee":"yes","group_only":"yes","internet_access":"no","name":"Tuckahoe State Park Youth Group Camping Area","operator":"Tuckahoe State Park","tents":"yes","website":"https://dnr.maryland.gov/publiclands/Pages/eastern/tuckahoe.aspx"}},"6644859186":{"location":[38.977756,-75.931994],"ct":"US","tp":"SD","ts":"2019-10-03T04:02:11Z","tX":296,"tY":391,"tags":{"access":"yes","fee":"no","operator":"Tuckahoe State Park","water_point":"yes"}},"6721739421":{"location":[38.8603393,-75.8390148],"ct":"US","tp":"SD","ts":"2019-10-03T03:21:31Z","tX":296,"tY":391,"tags":{"access":"yes","fee":"no","operator":"Martinak State Park"}}}