{"314929989":{"location":[38.5484665,-75.7495347],"ct":"US","tp":"CS","ts":"2021-07-10T01:07:00Z","tX":296,"tY":392,"tags":{"addr:city":"Rhodesdale","addr:housenumber":"5700","addr:postcode":"21659","addr:state":"MD","addr:street":"Nanticoke Road","alt_name":"Camp Nanticoke","boundary":"protected_area","cabins":"yes","caravans":"no","drinking_water":"yes","email":"hsr@dmvc.org","group_only":"yes","internet_access":"wlan","leisure":"nature_reserve","name":"Henson Scout Reservation","official_name":"DNR Held Conservation Easement","openfire":"yes","operator":"Del-Mar-Va Council, Boy Scouts of America","phone":"+1-410-202-0053","picnic_table":"yes","protect_class":"5","protection_title":"Conservancy Easement Department of Natural Resources","reservation":"required","scout":"yes","start_date":"1965","tents":"yes","website":"https://www.delmarvacouncil.org/henson-scout-reservation"}},"743382290":{"location":[38.5714354,-75.7770785],"ct":"US","tp":"CS","ts":"2021-08-22T13:13:42Z","tX":296,"tY":392,"tags":{"addr:city":"Rhodesdale","addr:housenumber":"5425","addr:postcode":"21659","addr:state":"MD","addr:street":"Sharptown Road","name":"Camp ESPA","operator":"Eastern Shore Police Association","phone":"+1-410-883-3500","power_supply":"yes","shower":"yes","toilets":"yes","website":"http://campespa.org/"}},"8911860195":{"location":[38.5489128,-75.7419031],"ct":"US","tp":"CS","ts":"2021-07-11T16:38:11Z","tX":296,"tY":392,"tags":{"backcountry":"yes","fixme":"Need ground survey","name":"Hidden Field Outpost (2)","tents":"yes"}},"8911860196":{"location":[38.5486547,-75.7386929],"ct":"US","tp":"CS","ts":"2021-07-11T16:38:11Z","tX":296,"tY":392,"tags":{"backcountry":"yes","fixme":"Need ground survey","name":"Kuskarawa Outpost (1)","tents":"yes"}},"8911860197":{"location":[38.550582,-75.7481943],"ct":"US","tp":"CS","ts":"2021-07-11T16:38:11Z","tX":296,"tY":392,"tags":{"backcountry":"yes","fixme":"Need ground survey","name":"Old Bucket Outpost (4)","tents":"yes"}},"8911860198":{"location":[38.5525069,-75.7504032],"ct":"US","tp":"CS","ts":"2021-07-11T16:38:11Z","tX":296,"tY":392,"tags":{"backcountry":"yes","fixme":"Need ground survey","name":"Dan Beard Outpost (7)","tents":"yes"}},"8911860199":{"location":[38.5567739,-75.7426518],"ct":"US","tp":"CS","ts":"2021-07-11T16:38:11Z","tX":296,"tY":392,"tags":{"backcountry":"yes","name":"Lost Mill Outpost (5)","tents":"yes"}},"8911860210":{"location":[38.5595466,-75.7412519],"ct":"US","tp":"CS","ts":"2021-07-11T16:38:11Z","tX":296,"tY":392,"tags":{"backcountry":"yes","name":"Boundary Outpost (8)","tents":"yes"}},"8911860211":{"location":[38.5577587,-75.7520757],"ct":"US","tp":"CS","ts":"2021-07-11T16:38:11Z","tX":296,"tY":392,"tags":{"backcountry":"yes","name":"Medicine Stick Outpost (8)","tents":"yes"}}}