{"742728967":{"location":[38.3554553,-75.8521236],"ct":"US","tp":"CS","ts":"2020-12-24T03:08:49Z","tX":296,"tY":393,"tags":{"addr:city":"Quantico","addr:housenumber":"5752","addr:postcode":"21856","addr:state":"MD","addr:street":"Sandy Hill Road","caravans":"yes","drinking_water":"yes","email":"sandyhillfamilycamp@gmail.com","name":"Sandy Hill Family Camp","openfire":"yes","phone":"+1-410-873-2471","picnic_table":"yes","power_supply":"yes","tents":"yes","website":"https://sandyhillfamilycamp.com/"}},"7087023373":{"location":[38.3327379,-75.6729266],"ct":"US","tp":"CS","ts":"2022-08-08T00:11:34Z","tX":296,"tY":393,"tags":{"addr:city":"Fruitland","addr:housenumber":"27157","addr:postcode":"21856","addr:state":"MD","name":"Camp Sandy Pines","website":"https://www.gscb.org/en/camp/our-camps/camp-sandy-pines.html"}},"8902431636":{"location":[38.5332976,-75.7585635],"ct":"US","tp":"CS","ts":"2021-07-07T23:57:57Z","tX":296,"tY":393,"tags":{"name":"Lone hawk Outpost (12)"}},"8902431637":{"location":[38.5349628,-75.7590154],"ct":"US","tp":"CS","ts":"2021-07-07T23:57:57Z","tX":296,"tY":393,"tags":{"name":"Patty Cannon Outpost (13)"}},"8902431638":{"location":[38.5360434,-75.7567494],"ct":"US","tp":"CS","ts":"2021-07-07T23:57:57Z","tX":296,"tY":393,"tags":{"name":"Three Councils Outpost (11)"}},"8902433349":{"location":[38.5393152,-75.7567285],"ct":"US","tp":"CS","ts":"2021-07-07T23:57:57Z","tX":296,"tY":393,"tags":{"name":"Ababco Outpost (10)"}},"8911860193":{"location":[38.5419393,-75.7573571],"ct":"US","tp":"CS","ts":"2021-07-11T16:38:11Z","tX":296,"tY":393,"tags":{"backcountry":"yes","fixme":"Need ground survey","name":"Tamahawk Outpost (9)","tents":"yes"}},"8911860194":{"location":[38.5460454,-75.7446198],"ct":"US","tp":"CS","ts":"2021-07-11T16:38:11Z","tX":296,"tY":393,"tags":{"backcountry":"yes","fixme":"Need ground survey","name":"Crazy Woman Outpost (3)","tents":"yes"}},"6964933830":{"location":[38.3538108,-75.8534148],"ct":"US","tp":"SD","ts":"2019-11-10T22:29:53Z","tX":296,"tY":393,"tags":{}}}