{"478474181":{"location":[4.7988402,-75.8387237],"ct":"CO","tp":"CS","ts":"2019-05-15T20:13:30Z","tX":296,"tY":498,"tags":{"internet_access":"no","name:en":"Atrae","name:es":"Atrae","operator":"ATRAER","sanitary_dump_station":"yes","wheelchair":"yes"}},"674085523":{"location":[4.8251647,-75.6489519],"ct":"CO","tp":"CS","ts":"2024-04-16T13:32:27Z","tX":296,"tY":498,"tags":{"addr:city":"Dosquebradas","addr:country":"CO","addr:housenumber":"km 2 Vía Los Molinos - Buena Vista","addr:place":"Vereda","addr:street":"Buena Vista","check_date":"2019-03-02","editor":"opengislab","internet_access":"no","name":"Pesca La Cabaña","operator":"Pesca La Cabaña","payment:coins":"yes","payment:cryptocurrencies":"yes","payment:dogecoin":"yes","payment:litecoin":"yes","payment:notes":"yes","source":"Bing, 2015","stars":"3","tents":"yes","website":"https://www.facebook.com/Pesca-La-Caba%C3%B1a-1871361653117237/","wheelchair":"limited"}},"1826926002":{"location":[4.8596355,-75.5869456],"ct":"CO","tp":"CS","ts":"2012-07-15T20:51:59Z","tX":296,"tY":498,"tags":{}},"4315393992":{"location":[4.7260369,-75.8549028],"ct":"CO","tp":"CS","ts":"2016-07-22T07:45:55Z","tX":296,"tY":498,"tags":{"name":"Hacienda Castilla"}},"4353257589":{"location":[4.6237036,-75.6151843],"ct":"CO","tp":"CS","ts":"2016-08-16T22:10:18Z","tX":296,"tY":498,"tags":{"name":"S/E Los Pinos EDEQ Armenia"}},"4501484090":{"location":[4.6601048,-75.6869665],"ct":"CO","tp":"CS","ts":"2016-11-14T22:57:59Z","tX":296,"tY":498,"tags":{"name":"Finca de Jose","name:es":"Finca de Jose"}},"4548044730":{"location":[4.8794593,-75.8705686],"ct":"CO","tp":"CS","ts":"2017-07-14T18:38:14Z","tX":296,"tY":498,"tags":{"name":"Sede Social el Saman"}},"4775945321":{"location":[4.6922757,-75.9182309],"ct":"CO","tp":"CS","ts":"2017-04-05T01:00:11Z","tX":296,"tY":498,"tags":{"name":"Hotel Campestre Villa Zaragoza"}},"6188609986":{"location":[4.5826568,-75.6612299],"ct":"CO","tp":"CS","ts":"2019-01-06T21:20:21Z","tX":296,"tY":498,"tags":{"addr:street":"Via La Cristalina Circasia","email":"mariajoselondono29@gmail.com","internet_access":"wlan","name":"Roca Dragón","opening_hours":"24/7","phone":"+573184786240","website":"http://Facebook.com/rocadragonn"}}}