{"311499591":{"location":[34.0030679,134.2512813],"ct":"JP","tp":"CS","ts":"2014-11-07T06:35:25Z","tX":893,"tY":409,"tags":{"name":"ほたるの里"}},"311499592":{"location":[34.0029383,134.2512367],"ct":"JP","tp":"CS","ts":"2014-11-07T06:35:25Z","tX":893,"tY":409,"tags":{"name":"ほたるの里"}},"311499593":{"location":[34.0028833,134.2511789],"ct":"JP","tp":"CS","ts":"2014-11-07T06:35:25Z","tX":893,"tY":409,"tags":{"name":"ほたるの里"}},"311499594":{"location":[34.0031867,134.251516],"ct":"JP","tp":"CS","ts":"2014-11-07T06:35:25Z","tX":893,"tY":409,"tags":{"name":"ほたるの里"}},"311499595":{"location":[34.0025819,134.2512878],"ct":"JP","tp":"CS","ts":"2014-11-07T06:35:25Z","tX":893,"tY":409,"tags":{"addr:city":"吉野川市","addr:housenumber":"10","addr:postcode":"779-3501","addr:street":"美郷穴地","name":"ほたるの里","phone":"0883-43-2525"}},"312541198":{"location":[33.8538267,134.0467213],"ct":"JP","tp":"CS","ts":"2019-05-06T06:54:03Z","tX":893,"tY":409,"tags":{"addr:city":"三好市","addr:housenumber":"620","addr:postcode":"778-0201","addr:street":"東祖谷菅生","name":"奥祖谷二重かずら橋キャンプ場","phone":"0883-88-2640"}},"312714791":{"location":[33.9254572,134.2713188],"ct":"JP","tp":"CS","ts":"2023-10-22T01:27:42Z","tX":893,"tY":409,"tags":{"addr:city":"神山町","addr:postcode":"771-3422","addr:street":"上分字中津土須峠","name":"岳人の森キャンプ場","phone":"088-677-1147","website":"https://gakujin-no-mori.net/"}},"313343324":{"location":[33.7446626,134.155084],"ct":"JP","tp":"CS","ts":"2023-09-27T18:35:20Z","tX":893,"tY":409,"tags":{"addr:city":"那賀町","addr:housenumber":"45-1","addr:postcode":"771-6511","addr:street":"木頭折宇野久保谷","name":"美那川キャンプ村","phone":"0884-68－2333","website":"http://www.nett.ne.jp/kankou/kouen/minagawa/"}},"2617205699":{"location":[33.9048921,134.234578],"ct":"JP","tp":"CS","ts":"2014-01-10T12:07:56Z","tX":893,"tY":409,"tags":{"name":"ファガスの森　キャンプ場"}},"3927026120":{"location":[33.8602493,134.0918818],"ct":"JP","tp":"CS","ts":"2019-05-06T06:53:53Z","tX":893,"tY":409,"tags":{}},"10860651109":{"location":[34.0028099,134.2513419],"ct":"JP","tp":"CS","ts":"2023-05-01T16:40:46Z","tX":893,"tY":409,"tags":{"name":"美郷青少年キャンプ村 ほたるの里"}}}