{"1159178348":{"location":[47.4662163,-87.8721813],"ct":"US","tp":"CR","ts":"2023-04-02T14:52:19Z","tX":262,"tY":358,"tags":{"name":"Fort Wilkins State Park - West Campground","source":"https://www2.dnr.state.mi.us/ParksandTrails/Details.aspx?id=65&type=SPCG#map-tab"}},"1159180577":{"location":[47.4659884,-87.8585784],"ct":"US","tp":"CR","ts":"2023-04-02T14:52:19Z","tX":262,"tY":358,"tags":{"name":"Fort Wilkins State Park - East Campground"}},"1159280173":{"location":[47.4649472,-87.8872123],"ct":"US","tp":"CR","ts":"2023-04-03T03:06:34Z","tX":262,"tY":358,"tags":{"addr:city":"Copper Harbor","addr:housenumber":"9339","addr:postcode":"49918","addr:state":"MI","addr:street":"Maganese Road","name":"Lake Fanny Hooe Resort RV Park","phone":"833-326-6946","power_supply":"yes","sanitary_dump_station":"yes","toilets":"yes","water_point":"yes","website":"https://fannyhooe.com/campground.php"}},"4213647106":{"location":[47.4658509,-87.8777643],"ct":"US","tp":"CS","ts":"2016-05-29T11:57:45Z","tX":262,"tY":358,"tags":{"name":"Organization Campground"}},"10779797287":{"location":[47.4668997,-87.8709515],"ct":"US","tp":"SD","ts":"2023-04-02T14:45:43Z","tX":262,"tY":358,"tags":{}}}