{"26227131":{"location":[45.1043274,-87.6213623],"ct":"US","tp":"CR","ts":"2024-09-29T16:32:23Z","tX":262,"tY":367,"tags":{"addr:city":"Menominee","addr:housenumber":"1400","addr:postcode":"49858","addr:state":"MI","addr:street":"5th Avenue","capacity":"54","check_date":"2024-09-29","email":"riverpark@cityofmenominee.net","fax":"+1-906-863-3266","fee":"yes","internet_access":"wlan","leisure":"park","name":"River Park Campground","operator":"City of Menominee","phone":"+1-906-863-5101","power_supply":"yes","sanitary_dump_station":"yes","tourism_1":"camp_site"}},"603911695":{"location":[45.1136102,-87.7728951],"ct":"US","tp":"CS","ts":"2018-07-01T01:43:49Z","tX":262,"tY":367,"tags":{"name":"Green's Green Acres Campground"}},"994104172":{"location":[45.0911993,-87.6390876],"ct":"US","tp":"CS","ts":"2021-10-20T01:21:44Z","tX":262,"tY":367,"tags":{"capacity":"9","name":"Marinette City Park Campground","phone":"(715) 732-2006","website":"https://www.marinette.wi.us/375/City-Park-Campground"}},"3086865315":{"location":[45.1120188,-87.7664832],"ct":"US","tp":"CS","ts":"2014-09-20T00:14:15Z","tX":262,"tY":367,"tags":{"name":"Green's Green Acres Campground"}}}