{"690417579":{"location":[41.6249547,-87.7867318],"ct":"US","tp":"CS","ts":"2023-10-30T13:40:27Z","tX":262,"tY":381,"tags":{"addr:city":"Oak Forest","addr:housenumber":"14630","addr:postcode":"60452","addr:state":"IL","addr:street":"Oak Park Avenue","camp_site":"serviced","fee":"yes","leisure":"park","name":"Camp Sullivan","operator":"Forest Preserve District of Cook County","operator:type":"public","operator:wikidata":"Q5469080","operator:wikipedia":"en:Forest Preserve District of Cook County","owner":"Forest Preserve District of Cook County","website":"https://fpdcc.com/"}},"1012618287":{"location":[41.6244628,-87.7879346],"ct":"US","tp":"CS","ts":"2022-10-13T06:55:55Z","tX":262,"tY":381,"tags":{"building":"cabin","camp_site:electric":"yes","camp_site:fire":"ring","camp_site:water":"no","ref":"4"}},"1012618288":{"location":[41.6241249,-87.7881273],"ct":"US","tp":"CS","ts":"2022-10-13T06:55:55Z","tX":262,"tY":381,"tags":{"building":"cabin","camp_site:electric":"yes","camp_site:fire":"ring","camp_site:water":"no","ref":"6"}},"1012618289":{"location":[41.6242645,-87.7881022],"ct":"US","tp":"CS","ts":"2022-10-13T06:55:55Z","tX":262,"tY":381,"tags":{"building":"cabin","camp_site:electric":"yes","camp_site:fire":"ring","camp_site:water":"no","ref":"5"}},"1012618290":{"location":[41.6239617,-87.7880877],"ct":"US","tp":"CS","ts":"2022-10-13T06:55:55Z","tX":262,"tY":381,"tags":{"building":"cabin","camp_site:electric":"yes","camp_site:fire":"ring","camp_site:water":"no","ref":"7"}},"1012618291":{"location":[41.6237864,-87.7880859],"ct":"US","tp":"CS","ts":"2022-10-13T06:55:55Z","tX":262,"tY":381,"tags":{"building":"cabin","camp_site:electric":"yes","camp_site:fire":"ring","camp_site:water":"no","ref":"8"}},"1012618292":{"location":[41.6235195,-87.7878883],"ct":"US","tp":"CS","ts":"2022-10-13T06:55:55Z","tX":262,"tY":381,"tags":{"building":"cabin","camp_site:electric":"yes","camp_site:fire":"ring","camp_site:water":"no","ref":"9"}},"6947280269":{"location":[41.6052984,-87.5623574],"ct":"US","tp":"CS","ts":"2020-08-04T16:32:12Z","tX":262,"tY":381,"tags":{"name":"Camp Shabbona Woods","opening_hours":"Nov-Mar closed; Apr-Oct: 00:00-24:00","phone":"+1-855-937-2267","phone:mnemonic":"+1-855-YES-CAMP","website":"https://fpdcc.com/places/locations/camp-shabbona-woods/"}}}