{"46259596":{"location":[54.3346919,10.6433342],"ct":"DE","tp":"CS","ts":"2024-05-05T01:51:13Z","tX":542,"tY":327,"tags":{"caravans":"yes","check_date":"2023-10-09","fee":"yes","internet_access":"wlan","internet_access:fee":"customers","name":"Campingplatz Lippe","payment:cards":"no","payment:cash":"yes","payment:credit_cards":"no","payment:debit_cards":"no","static_caravans":"yes","tents":"yes","wheelchair":"no"}},"66011968":{"location":[54.3027393,10.699877],"ct":"DE","tp":"CS","ts":"2019-07-28T11:55:26Z","tX":542,"tY":327,"tags":{"name":"Camping Platen","website":"https://campingplatz-platen.de/"}},"66011972":{"location":[54.3052041,10.6933125],"ct":"DE","tp":"CR","ts":"2024-05-02T12:26:46Z","tX":542,"tY":327,"tags":{"caravan_site":"motorhome_stopover","caravan_site:type":"camp_site; beach","fee":"yes","name":"Stellplatz Sehlendorfer Strand","sanitary_dump_station":"yes","water_point":"yes"}},"66011979":{"location":[54.3032985,10.6941782],"ct":"DE","tp":"CS","ts":"2019-07-28T11:55:26Z","tX":542,"tY":327,"tags":{"name":"Camping Schöning","website":"https://www.ostseecamping-schoening.de/"}},"66011983":{"location":[54.3039363,10.6909893],"ct":"DE","tp":"CS","ts":"2023-10-31T05:53:28Z","tX":542,"tY":327,"tags":{"addr:city":"Blekendorf","addr:country":"DE","addr:housenumber":"1","addr:postcode":"24327","addr:street":"Strandstraße","addr:suburb":"Sehlendorf","name":"Camping Jipp","website":"https://www.campingplatz-jipp.de/"}},"68323139":{"location":[54.304646,10.7732231],"ct":"DE","tp":"CR","ts":"2019-10-08T16:53:53Z","tX":542,"tY":327,"tags":{"fee":"yes","internet_access":"no","name":"Wohnmobilstellplatz Schloss Weissenhaus","operator":"Weissenhaus Betriebsgesellschaft mbH","power_supply":"yes","sanitary_dump_station":"yes"}},"68834404":{"location":[54.3122119,10.8034507],"ct":"DE","tp":"CS","ts":"2019-07-28T12:01:04Z","tX":542,"tY":327,"tags":{"name":"Campingplatz Triangel","website":"https://www.campingplatz-triangel.de/"}},"75951883":{"location":[54.3574813,10.6053552],"ct":"DE","tp":"CS","ts":"2017-06-26T19:25:26Z","tX":542,"tY":327,"tags":{"name":"Zeltlager Behrensdorf - TSG Bergedorf","tents":"yes"}},"88212810":{"location":[54.3570786,10.6078995],"ct":"DE","tp":"CS","ts":"2022-01-17T17:55:37Z","tX":542,"tY":327,"tags":{"name":"Ferien- und Campinganlage Schuldt","website":"https://www.schuldt-behrensdorf.de/"}},"88212818":{"location":[54.3573596,10.5998632],"ct":"DE","tp":"CS","ts":"2019-07-28T11:40:39Z","tX":542,"tY":327,"tags":{"name":"Waldesruh","website":"http://www.camp-waldesruh.de/"}},"117601265":{"location":[54.2148051,10.8765281],"ct":"DE","tp":"CR","ts":"2024-10-21T15:30:47Z","tX":542,"tY":327,"tags":{"capacity":"15","caravan_site":"motorhome_stopover","caravan_site:type":"swimming_pool","caravans":"no","charge":"10 EUR","dog":"yes","fee":"yes","name":"Reisemobilstellplatz Mühlenteich Lensahn","power_supply":"yes","power_supply:charge":"2.50 EUR","power_supply:fee":"yes","sanitary_dump_station":"yes","tents":"no","toilets":"no","water_point":"yes","website":"https://www.lensahn.de/tourismus-/-aktivitaeten/reisemobilstellplatz"}},"120809105":{"location":[54.2883944,10.6653717],"ct":"DE","tp":"CS","ts":"2019-07-28T11:49:18Z","tX":542,"tY":327,"tags":{"addr:city":"Blekendorf","addr:country":"DE","addr:housenumber":"9","addr:postcode":"24327","addr:street":"Seestraße","addr:suburb":"Sechendorf","name":"Schwab","website":"http://www.campingplatz-schwab.de/"}},"127124123":{"location":[54.1673385,10.5673681],"ct":"DE","tp":"CS","ts":"2024-07-23T09:08:30Z","tX":542,"tY":327,"tags":{"addr:city":"Malente","addr:housenumber":"14","addr:postcode":"23714","addr:street":"Wiesenweg","email":"info@camping-bad-malente.de","fax":"+49 4523 207602","name":"Camping \"An der Schwentine\"","operator":"Karl Ulrich Böttcher","phone":"+49 4523 4327","website":"https://www.camping-bad-malente.de"}},"153354505":{"location":[54.3547941,10.869317],"ct":"DE","tp":"CS","ts":"2023-07-16T10:55:01Z","tX":542,"tY":327,"tags":{"caravans":"yes","drinking_water":"yes","fax":"+49 4361 60936","internet_access":"wlan","name":"Blank-Eck","phone":"+49 4361 80562","power_supply":"yes","shower":"yes","smoking":"yes","static_caravans":"yes","tents":"yes","toilets":"yes","website":"https://www.campingblank-eck.de/","wheelchair":"yes"}},"164152907":{"location":[54.216949,10.5606577],"ct":"DE","tp":"CS","ts":"2024-02-26T12:52:47Z","tX":542,"tY":327,"tags":{"addr:city":"Malente","addr:housenumber":"21","addr:postcode":"23714","addr:street":"Seeweg","addr:suburb":"Neukirchen","name":"Feriencamps Neukirchen","wheelchair":"yes"}},"185410830":{"location":[54.3190979,10.6760802],"ct":"DE","tp":"CR","ts":"2024-04-26T22:11:58Z","tX":542,"tY":327,"tags":{"capacity":"19","caravan_site":"motorhome_stopover","caravan_site:type":"village;beach","name":"Wohnmobilstellplatz Alt-Hohwacht","power_supply":"yes","sanitary_dump_station":"yes","water_point":"yes"}},"454460721":{"location":[54.2970205,10.8829556],"ct":"DE","tp":"CR","ts":"2023-07-27T12:44:41Z","tX":542,"tY":327,"tags":{"capacity":"6","fee":"yes","name":"Wallmuseum","note":"Unklar, ob man hier auch im Wohnmobil übernachten kann. Es handelt sich um den Parkplatz des Wallmuseums.","toilets":"no","traffic_sign":"DE:314;DE:1048-17","wheelchair":"yes"}},"498884410":{"location":[54.3575531,10.6019524],"ct":"DE","tp":"CR","ts":"2019-07-23T09:39:47Z","tX":542,"tY":327,"tags":{"addr:city":"Behrensdorf","addr:country":"DE","addr:housenumber":"5","addr:postcode":"24321","addr:street":"Neuland","capacity":"23","email":"info@camp-waldesruh.de","fee":"yes","name":"Womo-SP Camp-Waldesruh","phone":"+49 4381 8555","power_supply":"yes","sanitary_dump_station":"yes","website":"http://www.camp-waldesruh.de/wohnmobile.html"}},"960046374":{"location":[54.29629,10.5796847],"ct":"DE","tp":"CR","ts":"2024-04-26T22:11:58Z","tX":542,"tY":327,"tags":{"addr:city":"Lütjenburg","addr:postcode":"24321","addr:street":"Ferdinand-von-Schill-Straße","capacity":"8","charge":"10 EUR","fee":"yes","name":"Lütjenburger Wohnmobilparkplatz","power_supply":"yes","power_supply:charge":"0.50 EUR/kWh","power_supply:fee":"yes","sanitary_dump_station":"yes","shower":"no","water_point":"yes","website":"https://www.stadt-luetjenburg.de/aktuelles/der-luetjenburger-wohnmobilparkplatz-oeffnet-seine-pforten"}},"1234593546":{"location":[54.1716977,10.5495046],"ct":"DE","tp":"CR","ts":"2024-06-06T16:32:46Z","tX":542,"tY":327,"tags":{"drinking_water":"no","fee":"yes","name":"Womo-Stop","note":"Ver-/Entsorgungsstation","power_supply":"no","wheelchair":"yes"}},"5487798002":{"location":[54.3066007,10.5628019],"ct":"DE","tp":"CS","ts":"2023-09-15T14:43:45Z","tX":542,"tY":327,"tags":{"backcountry":"yes","capacity:tents":"2","caravans":"no","contact:email":"info@sn-sh.de","contact:phone":"+49 431 21090101","description":"Nur kleine Zelte. Nur Wanderer und Radfahrer","fee":"no","fireplace":"yes","internet_access":"no","name":"Trekkingplatz Hessenstein","operator":"Stiftung Naturschutz Schleswig-Holstein","reservation":"no","shower":"no","tents":"yes","website":"https://www.naturschutz-sh.de/wildes-sh/uebernachtungsplatz-hessenstein"}},"6497103860":{"location":[54.2156741,10.7234875],"ct":"DE","tp":"CS","ts":"2023-09-15T14:43:45Z","tX":542,"tY":327,"tags":{"backcountry":"yes","caravans":"no","contact:email":"info@ferienhof-schnoor.de","contact:phone":"+49 4528 846","fee":"no","name":"Trekkingplatz Mönchneversdorf","operator":"Ferienhof Schnoor","reservation":"required","shower":"yes","tents":"yes","toilets":"yes","website":"https://www.naturschutz-sh.de/wildes-sh/trekkingplatz-moenchneversdorf"}},"8882521450":{"location":[54.2964741,10.5800325],"ct":"DE","tp":"SD","ts":"2021-07-01T09:13:24Z","tX":542,"tY":327,"tags":{"sanitary_dump_station:basin":"yes","sanitary_dump_station:round_drain":"yes"}},"11987032360":{"location":[54.2150656,10.8765882],"ct":"DE","tp":"SD","ts":"2024-10-21T15:30:54Z","tX":542,"tY":327,"tags":{"fee":"yes"}}}