{"1976285":{"location":[53.8642338,10.7625594],"ct":"DE","tp":"CS","ts":"2022-06-19T18:40:04Z","tX":542,"tY":329,"tags":{"access":"permit","addr:city":"Lübeck","addr:postcode":"23566","addr:street":"Heiweg","description":"Zugang nur nach vorheriger Absprache per Telefon oder Email","email":"fkk-luebeck@lsn-ev.de","fee":"yes","name":"Lübecker Sport- und Naturistenverein e.V.","nudism":"designated","operator":"Lübecker Sport- und Naturistenverein e.V.","payment:cash":"only","phone":"+49 451 92 99 62 44","power_supply":"no","website":"http://fkk-luebeck.de/gelaende/"}},"10472250":{"location":[53.8719148,10.6802092],"ct":"DE","tp":"CR","ts":"2023-08-23T15:10:28Z","tX":542,"tY":329,"tags":{"capacity":"24","fee":"yes","name":"P2 A1","operator":"KWL","toilets":"no"}},"27527448":{"location":[53.8705371,10.631237],"ct":"DE","tp":"CS","ts":"2024-02-24T19:22:11Z","tX":542,"tY":329,"tags":{"caravans":"yes","name":"Campingplatz Lübeck-Schönböcken","tents":"yes","website":"https://www.camping-luebeck.de/"}},"107798490":{"location":[53.9431299,10.8434313],"ct":"DE","tp":"CS","ts":"2023-11-11T14:10:12Z","tX":542,"tY":329,"tags":{"addr:city":"Lübeck","addr:housenumber":"2-4","addr:postcode":"23570","addr:street":"Frankenkrogweg","bbq":"yes","cabins":"yes","camp_site":"deluxe","caravans":"yes","email":"mail@camping-travemuende.de","fax":"+49 4502 75516","name":"Campingplatz Ivendorf","openfire":"no","phone":"+49 4502 4865","power_supply":"yes","shower":"yes","tents":"yes","toilets":"yes","washing_machine":"yes","website":"https://www.camping-travemuende.de/"}},"132924203":{"location":[53.8715634,10.6787949],"ct":"DE","tp":"CR","ts":"2021-07-19T19:55:27Z","tX":542,"tY":329,"tags":{"addr:city":"Lübeck","addr:postcode":"23554","addr:street":"Lastadie","capacity":"14","fee":"yes","internet_access":"no","name":"P4 (Wohnmobile)","power_supply":"no","sanitary_dump_station":"no","surface":"asphalt","tents":"no","wheelchair":"yes"}},"145563130":{"location":[53.9535062,10.8978001],"ct":"DE","tp":"CS","ts":"2024-07-11T18:47:01Z","tX":542,"tY":329,"tags":{"capacity":"84","description":"Größenteils nur Vereinsstellplätze, keine Wohnmobilplätze.","name":"Naturfreundehaus Priwall","website":"https://www.naturfreundehaus-priwall.de/camping"}},"314550611":{"location":[53.873014,10.6807681],"ct":"DE","tp":"CR","ts":"2024-08-30T15:53:05Z","tX":542,"tY":329,"tags":{"addr:city":"Lübeck","addr:postcode":"23554","addr:street":"Willy-Brandt-Allee","area":"yes","capacity":"39","fee":"yes","name":"Media Docks","operator":"Stadt Lübeck (KWL)","power_supply":"no","sanitary_dump_station":"no","toilets":"yes","website":"https://www.parken-luebeck.de"}},"531707770":{"location":[53.9540951,10.8854155],"ct":"DE","tp":"CR","ts":"2024-07-12T04:39:37Z","tX":542,"tY":329,"tags":{"capacity":"30","description":"Platzgebühr incl. Strom und Entsorgung - Frischwasser gegen Gebühr auch in Kleinmengen","email":"passathafen@luebeck.de","fee":"16 €","mobile":"+49 151 20402479","name":"Passat Hafen Priwall","opening_hours":"Apr 15 - Oct 01","operator":"Hansestadt Lübeck, Bereich Schule und Sport","phone":"+49 451 12287610","power_supply":"yes","sanitary_dump_station":"yes"}},"593174636":{"location":[53.9546333,10.8550916],"ct":"DE","tp":"CR","ts":"2021-06-24T15:16:56Z","tX":542,"tY":329,"tags":{"capacity":"49","fee":"yes","name":"Womo-Parkplatz Am Fischereihafen","operator":"Kurbetriebe Travemünde","power_supply":"yes","sanitary_dump_station":"yes","start_date":"2018-06-18","tents":"no","toilets":"no","water_point":"yes"}},"707079358":{"location":[53.7816358,10.7660155],"ct":"DE","tp":"CS","ts":"2023-09-28T16:43:12Z","tX":542,"tY":329,"tags":{"access":"customers","addr:city":"Groß Sarau","addr:housenumber":"2","addr:postcode":"23627","addr:street":"Rothenhusener Weg","cabins":"yes","capacity":"25","caravan":"no","caravans":"no","fee":"yes","internet_access":"no","name":"Wakenitz-Camp","operator":"Kanu-Center","payment:cash":"yes","payment:girocard":"yes","permanent_camping":"no","phone":"+49 4501 412","tents":"yes","website":"https://www.kanu-center.de/wakenitz-camp/"}},"831864327":{"location":[53.9240992,10.6979917],"ct":"DE","tp":"CR","ts":"2024-04-26T22:11:58Z","tX":542,"tY":329,"tags":{"capacity":"15","caravan_site":"motorhome_stopover","caravan_site:type":"town","caravans":"no","charge":"10 EUR","dog_park":"yes","fee":"yes","name":"Wohnmobilstellplatz in Bad Schwartau","opening_hours":"24/7","power_supply":"yes","sanitary_dump_station":"yes","seasonal":"no","tents":"no","trailer":"no","water_point":"yes","website":"https://www.bad-schwartau.de/Tourismus/Wohnmobilstellplatz/"}},"1051821244":{"location":[53.9530859,10.8884985],"ct":"DE","tp":"CS","ts":"2023-06-28T18:19:53Z","tX":542,"tY":329,"tags":{"addr:city":"Lübeck","addr:country":"DE","addr:housenumber":"102-110","addr:postcode":"23570","addr:street":"Mecklenburger Landstraße","addr:suburb":"Travemünde","email":"dlrgcampingpriwall@t-online.de","mobile":"+49 152 520 627 70","name":"DLRG Campingplatz Priwall","opening_hours":"Apr-Oct","operator":"Campingverein Neues Mitglieder Erholungsheim e.V.","phone":"+49 4502 3713","website":"http://www.dlrgcampingplatzpriwall.de/"}},"1901184211":{"location":[53.8956639,10.7103492],"ct":"DE","tp":"CR","ts":"2019-05-27T18:38:04Z","tX":542,"tY":329,"tags":{"addr:city":"Lübeck","addr:country":"DE","addr:housenumber":"11","addr:postcode":"23568","addr:street":"An der Hülshorst","capacity":"44","email":"info@erlebniswelt-huelshorst.de","fax":"+49 451 35414","fee":"yes","internet_access":"wlan","internet_access:fee":"yes","name":"Wohnmobil Treff Lübeck","opening_hours":"24/7","phone":"+49 451 32111","power_supply":"yes","tents":"no","website":"http://www.sportpark-huelshorst.com/stellplatz/"}},"1995660627":{"location":[53.8538803,10.632657],"ct":"DE","tp":"SD","ts":"2015-04-29T00:43:30Z","tX":542,"tY":329,"tags":{"sanitary_dump_station:accepted":"black_water;tank_chemicals"}},"2089265647":{"location":[53.8956696,10.7110333],"ct":"DE","tp":"SD","ts":"2016-08-22T23:01:25Z","tX":542,"tY":329,"tags":{"access":"yes","fee":"yes","sanitary_dump_station:chemical_toilet":"no","sanitary_dump_station:round_drain":"yes"}},"2268014382":{"location":[53.9241331,10.6982357],"ct":"DE","tp":"SD","ts":"2015-04-29T00:43:30Z","tX":542,"tY":329,"tags":{"sanitary_dump_station:accepted":"black_water;tank_chemicals"}},"6702349222":{"location":[53.8596319,10.6260918],"ct":"DE","tp":"CR","ts":"2020-03-14T11:30:26Z","tX":542,"tY":329,"tags":{"description":"Parkplatz für Busse und Wohnmobile mit Service Station zum entleeren des WC","name":"WoMo Service Station","tents":"no"}},"5820418696":{"location":[53.8595992,10.6261605],"ct":"DE","tp":"SD","ts":"2022-01-31T13:36:48Z","tX":542,"tY":329,"tags":{"sanitary_dump_station":"yes"}},"9463550302":{"location":[53.9547322,10.8556308],"ct":"DE","tp":"SD","ts":"2022-01-31T16:02:34Z","tX":542,"tY":329,"tags":{"sanitary_dump_station:accepted":"black_water;tank_chemicals"}},"9463550303":{"location":[53.9537647,10.8854221],"ct":"DE","tp":"SD","ts":"2022-01-31T16:02:34Z","tX":542,"tY":329,"tags":{"sanitary_dump_station:accepted":"black_water;tank_chemicals"}},"10315137852":{"location":[53.8769863,10.6904491],"ct":"DE","tp":"SD","ts":"2023-01-10T06:22:01Z","tX":542,"tY":329,"tags":{"access":"yes","caravans":"no","seamark:small_craft_facility:category":"pump-out"}}}