{"7448163":{"location":[53.7278635,10.768453],"ct":"DE","tp":"CS","ts":"2017-08-05T22:35:22Z","tX":542,"tY":330,"tags":{"caravans":"yes","name":"Kalkhütte","tents":"yes"}},"28314595":{"location":[53.7075929,10.7669395],"ct":"DE","tp":"CS","ts":"2021-01-08T19:47:44Z","tX":542,"tY":330,"tags":{"addr:city":"Römnitz","addr:housenumber":"3","addr:postcode":"23909","addr:street":"Dorfstraße","name":"Campingplatz \"Zur schönen Aussicht\"","website":"https://www.camping-ratzeburg.de/"}},"34990673":{"location":[53.6394455,10.85869],"ct":"DE","tp":"CS","ts":"2024-09-17T13:48:54Z","tX":542,"tY":330,"tags":{"addr:city":"Sterley","addr:housenumber":"2","addr:postcode":"23883","addr:street":"Sterleyer Heide","camp_site":"serviced","fee":"yes","name":"Schaalsee Camp","operator":"kanu-center.de","permanent_camping":"no","phone":"+49 4501 412","static_caravans":"no","tents":"yes","url":"https://www.kanu-center.de/schaalsee-camp/"}},"49261595":{"location":[53.7385785,10.7394859],"ct":"DE","tp":"CS","ts":"2023-11-07T19:36:11Z","tX":542,"tY":330,"tags":{"addr:city":"Buchholz","addr:housenumber":"1","addr:postcode":"23911","addr:street":"Am Campingplatz","backcountry":"no","caravans":"yes","dog":"leashed","fee":"yes","group_only":"no","internet_access":"wlan","internet_access:fee":"yes","lit":"yes","motor_vehicle":"permit","name":"Naturcamping Buchholz","nudism":"no","permanent_camping":"yes","phone":"+49 4541 4255","power_supply":"yes","reservation":"yes","static_caravans":"yes","tents":"yes","washing_machine":"yes","website":"https://naturcampingbuchholz.de/"}},"72080845":{"location":[53.7178631,10.7398869],"ct":"DE","tp":"CS","ts":"2024-07-18T10:24:14Z","tX":542,"tY":330,"tags":{"access":"private","caravans":"no","drinking_water":"yes","fee":"yes","group_only":"yes","name":"Jugendzeltplatz am Ansveruskreuz","openfire":"yes","operator":"Katholische Pfarrei Sankt Ansverus","power_supply":"yes","shower":"yes","tents":"yes","toilets":"yes","website":"https://sankt-ansverus.de/jugendzeltplatz/"}},"121205992":{"location":[53.5535035,10.7621275],"ct":"DE","tp":"CS","ts":"2024-08-23T15:01:39Z","tX":542,"tY":330,"tags":{"addr:housenumber":"4","addr:street":"Seestraße","contact:email":"info@camping-gudower-see.de","contact:mobile":"+49 17195 40 286","contact:phone":"+49 45 47 7 68","contact:website":"http://www.camping-gudower-see.de/","drinking_water":"yes","name":"Campingplatz am Gudower See","permanent_camping":"yes","shower":"yes","tents":"yes","toilets":"yes"}},"123463536":{"location":[53.6480069,10.8413668],"ct":"DE","tp":"CS","ts":"2022-05-09T14:36:38Z","tX":542,"tY":330,"tags":{"name":"Natur-Campingplatz Salemer See","website":"https://www.camping-salem.de/"}},"170066590":{"location":[53.7023649,10.670179],"ct":"DE","tp":"CS","ts":"2023-11-07T19:36:22Z","tX":542,"tY":330,"tags":{"addr:city":"Behlendorf","addr:country":"DE","addr:housenumber":"9a","addr:postcode":"23919","addr:street":"Seestraße","email":"info@behlendorfercampingfreunde.de","internet_access":"wlan","name":"Behlendorfer Campingfreunde","website":"https://www.behlendorfercampingfreunde.de/"}},"173215175":{"location":[53.6625954,10.6613],"ct":"DE","tp":"CS","ts":"2015-12-22T09:31:02Z","tX":542,"tY":330,"tags":{"contact:email":"info@campingplatz-schmidt.de","contact:fax":"+49 4542 836418","contact:phone":"+49 4542 5346","contact:website":"http://www.campingplatz-schmidt.de/","name":"Campingplatz Schmidt","operator":"Familie Rathje"}},"173215176":{"location":[53.663136,10.6644062],"ct":"DE","tp":"CS","ts":"2015-12-22T09:45:31Z","tX":542,"tY":330,"tags":{"name":"Campingvereinigung Hanseat","note":"only private; no unknown guests"}},"173215185":{"location":[53.6637787,10.6648067],"ct":"DE","tp":"CS","ts":"2022-05-13T07:32:58Z","tX":542,"tY":330,"tags":{"contact:phone":"+49 4542 2590","contact:website":"http://www.campingplatz-schierhorn.de","name":"Schierhorn"}},"173510209":{"location":[53.6957864,10.7762462],"ct":"DE","tp":"CR","ts":"2024-11-25T00:04:55Z","tX":542,"tY":330,"tags":{"capacity":"12","caravan_site":"motorhome_stopover","caravan_site:type":"town","charge":"12 EUR","fee":"yes","maxlength":"6","maxweight":"3.5","name":"Wohnmobilstellplatz Ratzeburg Aqua Siwa","power_supply":"yes","sanitary_dump_station":"yes","website":"https://www.ratzeburg-tourismus.de/poi/wohnmobilstellplatz-ratzeburg-aqua-siwa","wheelchair":"limited","wheelchair:description":"Bodenbelag fester Sand"}},"260252570":{"location":[53.6261169,10.6831818],"ct":"DE","tp":"CR","ts":"2024-10-21T21:14:43Z","tX":542,"tY":330,"tags":{"addr:city":"Mölln","addr:postcode":"23879","addr:street":"Alt-Möllner-Straße","alt_name":"Wohnmobilstellplatz am Ziegelsee","capacity":"24","caravan_site":"motorhome_stopover","caravan_site:type":"lake;town","caravans":"no","charge":"13 EUR","charge:conditional":"10 EUR @ (Mov-Mar)","charge:description":"parking + kurangabe","fee":"yes","fee:description":"7 EUR parkig + kurabgabe","internet_access":"no","name":"Wohnmobilstellplatz Mölln","operator":"Stadt Mölln","phone":"+49 4542 8030","power_supply":"yes","power_supply:fee":"no","sanitary_dump_station":"no","surface":"fine_gravel","tents":"no","water_point":"no","website":"https://www.moelln-tourismus.de/hotel/wohnmobilstellplatz-moelln","wikimedia_commons":"Category:Mölln Wohnmobil stellplatz"}},"366030136":{"location":[53.706541,10.7687341],"ct":"DE","tp":"CS","ts":"2024-08-11T07:47:37Z","tX":542,"tY":330,"tags":{"addr:city":"Römnitz","addr:housenumber":"5","addr:postcode":"23909","addr:street":"Dorfstraße","caravans":"yes","check_date":"2024-08-10","dog":"leashed","drinking_water":"yes","fee":"yes","name":"Camping Schwalkenberg","payment:cash":"yes","phone":"+49 171 7676733","power_supply":"yes","shower":"yes","static_caravans":"yes","tents":"yes","toilets":"yes","website":"https://www.campingplatz-schwalkenberg.de/"}},"810413090":{"location":[53.6010577,10.7175214],"ct":"DE","tp":"CS","ts":"2024-08-20T12:56:27Z","tX":542,"tY":330,"tags":{"cabins":"yes","camp_site":"deluxe","capacity":"730","capacity:caravans":"60","caravans":"yes","contact:email":"info@camping-moelln.de","contact:fax":"+49 4542 86725","contact:phone":"+49 4542 2270","contact:website":"http://www.camping-moelln.de","dog":"yes","fee":"yes","internet_access":"wlan","internet_access:fee":"yes","name":"Campingplatz Lütauer See","nudism":"no","operator":"W. Wehking GmbH & Co KG","reservation":"required","sanitary_dump_station":"yes","tents":"yes","wheelchair":"no"}},"3161119940":{"location":[53.6960055,10.776166],"ct":"DE","tp":"SD","ts":"2015-04-29T00:43:31Z","tX":542,"tY":330,"tags":{"sanitary_dump_station:accepted":"black_water;tank_chemicals"}}}