{"58112722":{"location":[53.5247751,10.6899806],"ct":"DE","tp":"CS","ts":"2024-09-28T18:51:11Z","tX":542,"tY":331,"tags":{"caravans":"yes","drinking_water":"yes","email":"info@freizeitwelt-guester.de","fax":"+49 4158 8450","name":"Freizeitwelt Güster","phone":"+49 4158 497","power_supply":"yes","shower":"yes","tents":"yes","toilets":"yes","website":"https://www.freizeitwelt-guester.de/"}},"97750520":{"location":[53.3628317,10.5623673],"ct":"DE","tp":"CR","ts":"2024-05-26T13:34:12Z","tX":542,"tY":331,"tags":{"capacity":"10","caravans":"no","dog":"yes","fee":"14€ (Stand 05/2024)","internet_access":"wlan","name":"Wohnmobilstellplatz Hohnstorf(Elbe)","operator":"Gemeinde Hohnstorf/Elbe","power_supply":"yes","tents":"no","toilets":"no"}},"113366454":{"location":[53.3425588,10.7298628],"ct":"DE","tp":"CS","ts":"2025-03-02T10:09:40Z","tX":542,"tY":331,"tags":{"caravans":"yes","defibrillator":"yes","dog":"yes","fee":"yes","internet_access":"wlan","mobile":"+4915144222200","name":"Camping Elbeling","note":"Zufahrt über Straße \"Hinter den Höfen\" ehem. Hein & Hein","phone":"+495857555","shower":"yes","static_caravans":"yes","tents":"yes","toilets":"yes","website":"https://www.elbeling.com/"}},"113405444":{"location":[53.3598415,10.6525768],"ct":"DE","tp":"CS","ts":"2019-05-23T19:31:53Z","tX":542,"tY":331,"tags":{"addr:city":"Bleckede","addr:country":"DE","addr:housenumber":"40","addr:postcode":"21354","addr:street":"Mühlenweg","addr:suburb":"Wendewisch","caravans":"yes","name":"Campingplatz \"Block's Camp\"","phone":"+49 5857 287","tents":"yes","website":"https://camping-urlaub.de/elbtalaue/block.html"}},"121206986":{"location":[53.5269211,10.6841528],"ct":"DE","tp":"CS","ts":"2021-09-24T23:20:32Z","tX":542,"tY":331,"tags":{}},"164838948":{"location":[53.5133025,10.6279995],"ct":"DE","tp":"CS","ts":"2024-02-11T10:20:14Z","tX":542,"tY":331,"tags":{"addr:city":"Fitzen","addr:housenumber":"10","addr:postcode":"21514","addr:street":"Zur Fähre","caravans":"yes","drinking_water":"yes","email":"info@zur-faehre.de","fax":"+49 4155 498342","name":"Campingplatz Zur Fähre","operator":"Emmanouel Iatrakes","phone":"+49 4155 8081865","tents":"yes","website":"https://zur-faehre.de/"}},"196924964":{"location":[53.4908714,10.607572],"ct":"DE","tp":"CS","ts":"2025-03-16T00:16:13Z","tX":542,"tY":331,"tags":{"addr:city":"Büchen","addr:country":"DE","addr:housenumber":"2","addr:postcode":"21514","addr:street":"Am Waldschwimmbad","caravans":"yes","drinking_water":"yes","email":"Camping-Hintz@t-online.de","name":"Campingplatz Am Waldschwimmbad","operator":"Hintz","permanent_camping":"yes","power_supply":"yes","shower":"yes","tents":"yes","toilets":"yes","washing_machine":"yes","website":"http://www.camping-hintz.de"}},"256965384":{"location":[53.4622221,10.6299972],"ct":"DE","tp":"CS","ts":"2025-03-21T14:32:33Z","tX":542,"tY":331,"tags":{"addr:city":"Witzeeze","addr:country":"DE","addr:housenumber":"1","addr:postcode":"21514","addr:street":"Forellensee","check_date":"2024-08-11","drinking_water":"yes","email":"Campingplatz-forellensee@t-online.de","fax":"+49 4321 84341","fee":"yes","internet_access":"no","mobile":"+49 173 618 3974","name":"Campingplatz Forellensee","operator":"Ulrich Siemann","phone":"+49 4155 2420","power_supply":"yes","shower":"yes","static_caravans":"yes","tents":"yes","toilets":"yes","website":"https://campingplatz-forellensee.de/"}},"256965385":{"location":[53.4463329,10.6231198],"ct":"DE","tp":"CS","ts":"2021-07-08T18:51:04Z","tX":542,"tY":331,"tags":{"email":"m.harder-otto@gmx.de","name":"Campingplatz Manfred Harder-Otto","phone":"+49 4104 1470","source":"Bing"}},"308800760":{"location":[53.3719659,10.5662769],"ct":"DE","tp":"CR","ts":"2024-03-19T18:04:34Z","tX":542,"tY":331,"tags":{"capacity":"10","caravans":"no","fee":"12","name":"Lauenburg Marina","power_supply":"yes","surface":"gravel","tents":"no","toilets":"yes","website":"https://www.yachthafen-lauenburg.de/wohnmobilstellplatz.html","wheelchair":"no"}},"365865092":{"location":[53.3479866,10.5731305],"ct":"DE","tp":"CS","ts":"2022-09-14T09:19:11Z","tX":542,"tY":331,"tags":{"addr:city":"Hohnstorf (Elbe)","addr:country":"DE","addr:housenumber":"35","addr:postcode":"21522","addr:street":"Elbuferstraße","addr:suburb":"Bullendorf","caravans":"yes","name":"Campingplatz Bullerby","phone":"+49 4139 6037","tents":"yes","website":"https://camping-urlaub.de/elbtalaue/knueppel.html"}},"405313072":{"location":[53.4099668,10.5974879],"ct":"DE","tp":"CS","ts":"2025-03-23T14:34:03Z","tX":542,"tY":331,"tags":{"addr:city":"Basedow","addr:country":"DE","addr:housenumber":"1","addr:postcode":"21483","addr:street":"Am Lanzer See","caravans":"yes","email":"info@camping-lanzer-see.de","fax":"+49 4153 599172","internet_access":"wlan","motor_vehicle":"yes","name":"Campingplatz Lanzer See","openfire":"no","phone":"+49 4153 599171","tents":"yes","website":"https://www.camping-lanzer-see.de"}},"505095615":{"location":[53.3663924,10.5480911],"ct":"DE","tp":"CS","ts":"2019-11-04T20:06:58Z","tX":542,"tY":331,"tags":{"caravans":"no","name":"Campingplatz \"Elbstrand\"","phone":"+49 4139 6640","tents":"no"}},"741999676":{"location":[53.3670476,10.5468818],"ct":"DE","tp":"CS","ts":"2022-04-09T19:30:48Z","tX":542,"tY":331,"tags":{"name":"Dauerstellplatz"}},"1005853251":{"location":[53.3650885,10.6479353],"ct":"DE","tp":"CS","ts":"2025-03-19T01:44:45Z","tX":542,"tY":331,"tags":{"surface":"grass"}},"1198291883":{"location":[53.3932639,10.7408736],"ct":"DE","tp":"CS","ts":"2023-08-15T13:17:15Z","tX":542,"tY":331,"tags":{"area":"yes","caravans":"yes","fee":"yes","name":"Waldhotel Boizenburg camp","operator":"Waldhotel Boizenburg","payment:credit_cards":"yes","static_caravans":"no","tents":"yes"}},"1201180709":{"location":[53.4650378,10.6289383],"ct":"DE","tp":"CS","ts":"2023-08-22T20:23:13Z","tX":542,"tY":331,"tags":{}},"1230219610":{"location":[53.376458,10.7165919],"ct":"DE","tp":"CR","ts":"2023-12-11T00:04:27Z","tX":542,"tY":331,"tags":{"capacity":"6","caravan_site":"motorhome_stopover","fee":"no","lit":"yes","name":"Wohnmobilstellplatz Hafen","power_supply":"yes","reservation":"no","sanitary_dump_station:description":"Chemical toilets can be emptied by appointment at Klärwerk Boizenburg/Elbe","surface":"sett","toilets":"yes","toilets:fee":"no","website":"https://www.boizenburg.de/portal/seiten/wohnmobilstellplatz-hafen-900000031-28851.html"}},"1661940584":{"location":[53.3941499,10.7384962],"ct":"DE","tp":"CS","ts":"2023-08-15T12:57:05Z","tX":542,"tY":331,"tags":{"name":"Freizeitplatz","tents":"no"}},"3164339684":{"location":[53.3627388,10.562222],"ct":"DE","tp":"SD","ts":"2015-09-07T07:24:05Z","tX":542,"tY":331,"tags":{"sanitary_dump_station:accepted":"black_water;tank_chemicals","sanitary_dump_station:chemical_toilet":"yes","sanitary_dump_station:gravity":"yes","sanitary_dump_station:grey_water":"yes"}},"11637432785":{"location":[53.4767551,10.6648611],"ct":"DE","tp":"CS","ts":"2024-08-10T19:08:30Z","tX":542,"tY":331,"tags":{"access":"permit","backcountry":"yes","camp_site":"basic","capacity:persons":"9","capacity:tents":"3","caravans":"no","check_date":"2024-08-10","email":"wohngruppe-broethen@posteo.de","fee":"no","motor_vehicle":"no","name":"Trekkingplatz Bröthen","openfire":"no","opening_hours":"24/7","operator":"Wohngruppe Bröthen","phone":"+49 4155 8280795","reservation":"recommended","shower":"no","static_caravans":"no","tents":"yes","toilets":"yes","website":"https://www.naturschutz-sh.de/wildes-sh/trekkingplatz-broethen"}}}