{"3186602":{"location":[53.2205854,10.6234126],"ct":"DE","tp":"CS","ts":"2024-10-06T14:35:39Z","tX":542,"tY":332,"tags":{"access":"customers","caravans":"yes","check_date":"2024-09-24","contact:email":"info@schoener-campen.de","contact:fax":"+49 5859 97084","contact:phone":"+49 5859 970830","contact:website":"https://www.heidehof-radenbeck.de/Camping.html","dog":"yes","drinking_water":"yes","fee":"yes","internet_access":"wlan","internet_access:fee":"customers","motor_vehicle":"yes","motorhome":"yes","name":"Campingplatz Heidehof Radenbeck","nudism":"no","opening_hours":"Mar-Oct","operator":"Familie Joost","permanent_camping":"yes","picnic_table":"yes","power_supply":"yes","reservation":"yes","sanitary_dump_station":"customers","shower":"yes","stars":"4","static_caravans":"yes","swimming_pool":"yes","tents":"yes","toilets":"yes","washing_machine":"yes","waste_disposal":"yes"}},"35943289":{"location":[53.1810327,10.747296],"ct":"DE","tp":"CS","ts":"2024-07-20T19:17:44Z","tX":542,"tY":332,"tags":{"access":"customers","addr:city":"Dahlenburg","addr:country":"DE","addr:housenumber":"6","addr:postcode":"21368","addr:street":"Dornweg","capacity":"150","caravans":"yes","fee":"yes","internet_access":"wlan","name":"Elbtalaue-Camp Dorn","operator":"Klaus Kurt Peter","payment:cash":"yes","phone":"+49 5851 944848, +49 173 5329543","static_caravans":"yes","tents":"yes","url":"www.campingplatz-dahlenburg.de/"}},"225728658":{"location":[53.2589287,10.8084027],"ct":"DE","tp":"CS","ts":"2023-12-11T00:04:27Z","tX":542,"tY":332,"tags":{"addr:city":"Bleckede","addr:country":"DE","addr:housenumber":"23","addr:postcode":"21354","addr:street":"Am Waldbad","addr:suburb":"Alt Garge","caravans":"yes","email":"info@campingpark-elbtalaue.de","fax":"+4958541640","internet_access":"yes","internet_access:fee":"yes","motorhome":"yes","name":"Campingpark Elbtalaue","operator":"ADAC Hansa e.V.","phone":"+49 5854 311","power_supply":"yes","shower":"hot","tents":"yes","website":"https://www.knauscamp.de/bleckede.html","wheelchair":"yes"}},"278129032":{"location":[53.1683387,10.6180499],"ct":"DE","tp":"CS","ts":"2021-09-12T21:54:00Z","tX":542,"tY":332,"tags":{"caravans":"yes","fee":"yes","name":"Campingplatz Aljarn","phone":"+49 5807 1334","tents":"yes","website":"https://camping-aljarn.de.tl/"}},"550866407":{"location":[53.1819371,10.7473304],"ct":"DE","tp":"SD","ts":"2018-01-04T12:49:45Z","tX":542,"tY":332,"tags":{"access":"permissive","fee":"yes","operator":"Campingplatz Elbtalaue","water_point":"no"}},"823191344":{"location":[53.3040838,10.7819132],"ct":"DE","tp":"CS","ts":"2023-08-15T12:44:58Z","tX":542,"tY":332,"tags":{"addr:city":"Bleckede","addr:housenumber":"6","addr:postcode":"19273","addr:street":"Neu Bleckeder Straße","name":"Zeltplatz \"Alte Schule\"","phone":"+49 172 1846275","tents":"no"}},"954279657":{"location":[53.2952662,10.7324383],"ct":"DE","tp":"CR","ts":"2023-12-11T00:04:27Z","tX":542,"tY":332,"tags":{"addr:city":"Bleckede","addr:postcode":"21354","addr:street":"Schützenweg","capacity":"20","caravan_site":"motorhome_stopover","caravan_site:type":"city","charge":"9.5 EUR","dog":"no","fee":"yes","maxstay":"1 day","name":"Bleckede Stellplatz Schützenplatz","payment:description":"in Tourist-Information in Biosphaerium Elbtalaue or with ParksterApp","power_supply":"no","sanitary_dump_station":"yes","sanitary_dump_station:fee":"no","water_point":"yes","water_point:fee":"yes","website":"https://www.bleckede-tourismus.de/unterkuenfte-u-gastronomie/wohnmobilstellplaetze.html"}},"1230219608":{"location":[53.2959544,10.7344064],"ct":"DE","tp":"CR","ts":"2023-12-11T00:04:27Z","tX":542,"tY":332,"tags":{"caravan_site":"motorhome_stopover","caravan_site:type":"harbour","charge":"14.5 EUR","dog":"yes","fee":"yes","name":"Bleckede Stellplatz Hafen","payment:description":"in Tourist-Information in Biosphaerium Elbtalaue or with ParksterApp","power_supply":"yes","power_supply:fee":"yes","sanitary_dump_station":"no","water_point":"no","website":"https://www.bleckede-tourismus.de/unterkuenfte-u-gastronomie/wohnmobilstellplaetze.html"}},"1230938132":{"location":[53.2356322,10.8945215],"ct":"DE","tp":"CR","ts":"2023-12-13T20:56:35Z","tX":542,"tY":332,"tags":{"capacity":"15","caravan_site:type":"ferry_terminal","charge":"7 EUR","fee":"yes","maxstay":"2 days","name":"Wiese am Fähranleger","sanitary_dump_station":"no","seasonal":"no","surface":"grass","website":"https://www.amt-neuhaus.de/start/tourismus-freizeit-kultur/tourismus/wohnmobile.aspx"}},"11408658623":{"location":[53.2953175,10.7323605],"ct":"DE","tp":"SD","ts":"2023-12-11T00:04:27Z","tX":542,"tY":332,"tags":{"access":"yes","fee":"no","sanitary_dump_station:basin":"yes","sanitary_dump_station:chemical_toilet":"yes","sanitary_dump_station:grey_water":"yes"}},"12229774839":{"location":[53.2207713,10.6247846],"ct":"DE","tp":"SD","ts":"2024-10-06T14:35:39Z","tX":542,"tY":332,"tags":{"access":"customers","check_date":"2024-09-24","fee":"no","operator":"Heidehof Radenbeck","sanitary_dump_station:chemical_toilet":"yes","sanitary_dump_station:grey_water":"yes","water_point":"no"}}}