{"24026966":{"location":[52.4516558,10.6124231],"ct":"DE","tp":"CS","ts":"2025-05-01T10:38:02Z","tX":542,"tY":336,"tags":{"addr:city":"Isenbüttel","addr:housenumber":"7","addr:postcode":"38550","addr:street":"Dannenbütteler Weg 7","caravans":"yes","contact:email":"camping-tankumsee@t-online.de","contact:phone":"+49 5374 1254","drinking_water":"yes","name":"Tankumsee Campingplatz","operator":"Campingplatz am Tankumsee GmbH","power_supply":"yes","sanitary_dump_station":"yes","shower":"yes","tents":"yes","toilets":"yes","website":"https://campingplatz-tankumsee.de/"}},"30000036":{"location":[52.4562775,10.6266872],"ct":"DE","tp":"CS","ts":"2024-08-26T13:41:55Z","tX":542,"tY":336,"tags":{"caravans":"no","name":"Zeltwiese 1","tents":"yes"}},"30000044":{"location":[52.4560209,10.6278005],"ct":"DE","tp":"CS","ts":"2024-08-26T13:41:58Z","tX":542,"tY":336,"tags":{"caravans":"no","name":"Zeltwiese 2","tents":"yes"}},"115027211":{"location":[52.4349796,10.7972059],"ct":"DE","tp":"CR","ts":"2023-11-04T18:37:27Z","tX":542,"tY":336,"tags":{"area":"yes","capacity":"15","charge":"9 EUR","check_out":"11:00","fee":"yes","name":"Autostadt Wohnmobilstellplatz","power_supply":"yes","reservation":"yes","surface":"asphalt","water_point":"yes","website":"https://autostadt.regiondo.de/caravan-parkplatz"}},"131652496":{"location":[52.4320031,10.8149535],"ct":"DE","tp":"CS","ts":"2024-08-25T09:36:14Z","tX":542,"tY":336,"tags":{"addr:city":"Wolfsburg","addr:country":"DE","addr:housenumber":"5","addr:postcode":"38446","addr:street":"In den Allerwiesen","barrier":"fence","caravans":"yes","drinking_water":"yes","name":"Campingplatz am Allersee","naturism":"no","nudism":"no","phone":"+49 5361 63395","power_supply":"yes","sanitary_dump_station":"yes","shower":"yes","tents":"yes","toilets":"yes","website":"https://www.camping-allersee.de/"}},"177385285":{"location":[52.4252784,10.7456074],"ct":"DE","tp":"CR","ts":"2023-12-10T17:40:18Z","tX":542,"tY":336,"tags":{"fee":"no","name":"Forum AutoVision","name:etymology:wikidata":"Q878006","parking":"surface","power_supply":"no","sanitary_dump_station":"no","toilets":"no","water_point":"no","wheelchair":"yes"}},"256783188":{"location":[52.3589876,10.7704915],"ct":"DE","tp":"CS","ts":"2021-10-21T16:49:58Z","tX":542,"tY":336,"tags":{"boundary":"protected_area","landuse":"leisure","name":"FKK-Sportpark Wolfsburg","nudism":"yes","operator":"Familien-Sportverein für Naturisten Wolfsburg e.V.","website":"http://www.fsn-wolfsburg.de"}},"256823724":{"location":[52.349525,10.8639132],"ct":"DE","tp":"CS","ts":"2022-09-12T18:00:53Z","tX":542,"tY":336,"tags":{"caravans":"no","contact:website":"http://almke.info","group_only":"yes","name":"Jugendzeltplatz Almke","operator":"Stadtjugendring Wolfsburg","tents":"yes","wheelchair":"yes"}},"256823728":{"location":[52.3502788,10.8659214],"ct":"DE","tp":"CS","ts":"2022-01-14T07:54:26Z","tX":542,"tY":336,"tags":{}},"323108055":{"location":[52.4554998,10.6261529],"ct":"DE","tp":"CS","ts":"2024-08-26T13:41:55Z","tX":542,"tY":336,"tags":{"caravans":"no","name":"Zeltwiese 3","tents":"yes"}}}