{"25495187":{"location":[51.775431,10.7959151],"ct":"DE","tp":"CS","ts":"2024-08-20T12:58:03Z","tX":542,"tY":339,"tags":{"addr:city":"Oberharz am Brocken","addr:country":"DE","addr:housenumber":"6","addr:postcode":"38875","addr:street":"Schützenring","addr:suburb":"Elbingerode (Harz)","caravans":"yes","dog":"yes","email":"campingambrocken@gmx.de","name":"Camping am Brocken","phone":"+49 39454 42589","shower":"yes","source":"http://www.campingambrocken.de/","source:date":"2019-01-11","tents":"yes","toilets":"yes","website":"http://www.campingambrocken.de/"}},"35011243":{"location":[51.8137658,10.8140247],"ct":"DE","tp":"CR","ts":"2022-04-16T09:12:55Z","tX":542,"tY":339,"tags":{"addr:city":"Wernigerode","addr:housenumber":"118","addr:postcode":"38855","addr:street":"Mühlental","caravans":"yes","email":"info@altewaldmuehle.de","fee":"yes","name":"Alte Waldmühle","phone":"+493943266399","tents":"yes","website":"https://altewaldmuehle.de/"}},"43322393":{"location":[51.7571964,10.6826088],"ct":"DE","tp":"CS","ts":"2024-08-20T12:58:03Z","tX":542,"tY":339,"tags":{"addr:city":"Elend","addr:country":"DE","addr:housenumber":"1","addr:postcode":"38875","addr:street":"Am Stern","addr:suburb":"Schierke","area":"yes","caravans":"yes","contact:facebook":"https://www.facebook.com/Harz-Camping-am-Schierker-Stern-171368239593610","dog":"yes","fee":"yes","internet_access":"wlan","name":"Harz Mountain Camp","phone":"+49 39455 58817","shower":"yes","tents":"yes","toilets":"yes","website":"https://www.harz-camping.com/"}},"148293047":{"location":[51.6565743,10.6667441],"ct":"DE","tp":"CS","ts":"2024-06-27T20:57:06Z","tX":542,"tY":339,"tags":{"caravans":"yes","drinking_water":"yes","name":"Campingplatz Am Bärenbache","power_supply":"yes","sanitary_dump_station":"yes","shower":"yes","source":"Bing","tents":"yes","toilets":"yes","website":"https://campingplatz-hohegeiss.de/"}},"241119775":{"location":[51.6413278,10.650615],"ct":"DE","tp":"CS","ts":"2023-04-03T17:09:29Z","tX":542,"tY":339,"tags":{"contact:email":"CampingZorge@aol.com","contact:phone":"+49 5586 1048","name":"Im Waldwinkel","website":"http://www.campingplatz-im-waldwinkel.de"}},"272296885":{"location":[51.6802972,10.8776672],"ct":"DE","tp":"CS","ts":"2023-11-10T16:24:14Z","tX":542,"tY":339,"tags":{"addr:city":"Oberharz am Brocken","addr:housenumber":"1","addr:postcode":"38899","addr:street":"Domäne","name":"Domäne Stiege","phone":"+49 39459 70333","website":"https://www.domaene-stiege.de/"}},"445634790":{"location":[51.6799877,10.879198],"ct":"DE","tp":"CS","ts":"2021-10-27T15:23:56Z","tX":542,"tY":339,"tags":{"addr:housenumber":"1","addr:street":"Domäne","contact:email":"info@domaene-stiege.de","contact:fax":"+49 39459 70366","contact:phone":"+49 39459 70333","contact:website":"http://www.domaene-stiege.de/","name":"Campingplatz „Domäne Stiege“","source":"http://www.domaene-stiege.de/"}},"684767603":{"location":[51.6353721,10.7918648],"ct":"DE","tp":"CR","ts":"2024-12-27T15:20:28Z","tX":542,"tY":339,"tags":{"capacity":"10","caravan_site":"motorhome_stopover","caravan_site:type":"guest_house","caravans":"yes","dog":"yes","fee":"yes","name":"Stellplatz Braugasthof Brauner Hirsch","operator":"Erlebnis Braugasthof Brauner Hirsch","phone":"+49 36331 48144","power_supply":"yes","tents":"yes","water_point":"yes","website":"https://www.braunerhirsch-sophienhof.de/"}},"854247374":{"location":[51.7123859,10.5977458],"ct":"DE","tp":"CS","ts":"2024-07-05T17:07:02Z","tX":542,"tY":339,"tags":{"access":"customers","addr:city":"Braunlage","addr:housenumber":"1","addr:postcode":"38700","addr:street":"Am Campingplatz","cabins":"no","caravans":"yes","contact:phone":"+49 5520 9996931","contact:website":"https://www.campingbraunlage.de/","dryer":"yes","email":"info@campingbraunlage.de","fee":"yes","kitchen":"yes","name":"Camping Braunlage","opening_hours":"Mo-Su 08:30-12:30,13:30-18:30","operator":"Coen & Nienke la Croix","payment:cash":"yes","power_supply":"yes","tents":"yes","washing_machine":"yes"}},"1305060449":{"location":[51.6987046,10.6243844],"ct":"DE","tp":"CS","ts":"2019-08-25T10:10:56Z","tX":542,"tY":339,"tags":{"addr:postcode":"38700","caravans":"no","group_only":"yes","name":"Jugendzeltplatz Brunnenbachsmühle","operator":"Gesellschaft zur Förderung der Erlebnispädagogik","tents":"yes"}},"11907188763":{"location":[51.7458851,10.6945802],"ct":"DE","tp":"CR","ts":"2024-10-27T20:19:56Z","tX":542,"tY":339,"tags":{"capacity":"10","caravans":"no","dog":"yes","email":"peter@waldbadschenke.de","internet_access":"no","mobile":"+491723404956","name":"Walsdbadschenke Elend","operator":"Walsdbadschenke Elend","phone":"+4939455470","reservation":"yes","sanitary_dump_station":"no","smoking":"yes","tents":"no","website":"http://www.waldbadschenke.de/"}},"4484360509":{"location":[51.7166247,10.6086407],"ct":"DE","tp":"SD","ts":"2016-11-05T19:51:17Z","tX":542,"tY":339,"tags":{"access":"customers","operator":"Reisemobilhafen Braunlage","sanitary_dump_station:round_drain":"yes"}}}