{"52333647":{"location":[50.8743148,10.809085],"ct":"DE","tp":"CS","ts":"2024-08-20T13:03:48Z","tX":542,"tY":343,"tags":{"addr:city":"Drei Gleichen","addr:country":"DE","addr:housenumber":"1","addr:postcode":"99869","addr:street":"Campingplatz","addr:suburb":"Mühlberg","capacity":"150","caravans":"120","contact:email":"info@camping-drei-gleichen.de","contact:mobile":"+49 171 3122715","contact:phone":"+49 36256 22715","contact:website":"https://www.camping-drei-gleichen.de/","dog":"yes","drinking_water":"yes","fee":"yes","internet_access":"wlan","internet_access:fee":"no","name":"Campingplatz Drei Gleichen","opening_hours":"09:00-20:00","operator":"CampLAB GmbH","power_supply":"yes","power_supply:maxcurrent":"16","sanitary_dump_station":"yes","shower":"hot","source":"website","tents":"yes","toilets":"customers","toilets:wheelchair":"yes","washing_machine":"yes"}},"60960462":{"location":[50.8408162,10.5811225],"ct":"DE","tp":"CS","ts":"2022-09-09T16:32:13Z","tX":542,"tY":343,"tags":{"addr:city":"Friedrichroda","addr:country":"DE","addr:housenumber":"3a","addr:postcode":"99894","addr:street":"Friedrichrodaer Weg","addr:suburb":"Finsterbergen","caravans":"36","contact:email":"info@rennsteig-caravaning.de","contact:mobile":"+49 174 6902899","contact:phone":"+49 3623 310775","contact:website":"https://www.rennsteig-caravaning.de","fixme":"shape and location","name":"Rennsteig-Caravaning Valentinsteich","operator":"Familie Heft","source":"website","tents":"yes"}},"61882009":{"location":[50.8285286,10.6490607],"ct":"DE","tp":"CS","ts":"2023-05-28T09:53:18Z","tX":542,"tY":343,"tags":{"addr:city":"Georgenthal","addr:housenumber":"2","addr:postcode":"99887","addr:street":"Forsthaus am Steiger","caravans":"yes","fee":"yes","fixme":"shape and location","name":"Campingplatz am Schwimmbad","phone":"+49 36253 469936","source":"extrapolation, Webseite","tents":"yes","website":"https://www.camping-georgenthal.de/","wheelchair":"yes"}},"174955341":{"location":[50.82511,10.6085985],"ct":"DE","tp":"CS","ts":"2022-09-09T07:46:16Z","tX":542,"tY":343,"tags":{"addr:city":"Georgenthal","addr:housenumber":"3","addr:postcode":"99887","addr:street":"Straße am Steinbühl","caravans":"260","contact:email":"info@paulfeld-camping.de","contact:fax":"+49 36253 25165","contact:phone":"+49 36253 25171","contact:website":"https://www.paulfeld-camping.de","fixme":"shape and location","name":"Campingplatz Paulfeld","operator":"Freizeit- u. Tourismuseinrichtungen GmbH","source":"website","tents":"yes","wheelchair":"yes"}},"275471646":{"location":[50.8085734,10.6237942],"ct":"DE","tp":"CR","ts":"2023-07-12T10:33:14Z","tX":542,"tY":343,"tags":{"addr:city":"Georgenthal","addr:postcode":"99887","addr:street":"Lohmühle","contact:email":"info@lohmuehle.org","contact:mobile":"+49 152 01877462","contact:phone":"+49 36252 46000","contact:website":"http://www.lohmuehle.org","fee":"yes","name":"Lohmühle","opening_hours":"Anmeldung telefonisch","power_supply":"yes","sanitary_dump_station":"yes","water_point":"yes"}},"363462403":{"location":[50.9439888,10.7096481],"ct":"DE","tp":"CR","ts":"2024-07-01T11:10:15Z","tX":542,"tY":343,"tags":{"addr:street":"Parkallee","capacity":"3","caravan_site":"motorhome_stopover","caravan_site:type":"town","fee":"no","name":"Übernachtungsplatz Busparkplatz Gotha","power_supply":"no","surface":"asphalt","wheelchair":"yes"}},"1058169139":{"location":[50.862464,10.5783077],"ct":"DE","tp":"CR","ts":"2024-08-02T18:50:53Z","tX":542,"tY":343,"tags":{"capacity":"32","caravans":"no","charge":"25 EUR","check_date":"2022-05-07","fee":"30","laundry":"yes","name":"WOMO Bahnhof Friedrichroda","power_supply":"yes","sanitary_dump_station":"yes","tents":"no","toilets":"yes","water_point":"yes","website":"https://www.womo-bahnhof-friedrichroda.de/"}},"1176343349":{"location":[50.9500397,10.7123127],"ct":"DE","tp":"CR","ts":"2024-07-01T11:10:15Z","tX":542,"tY":343,"tags":{"capacity":"6","caravan_site":"motorhome_stopover","caravan_site:type":"town","fee":"no","name":"Wohnmobilstellplatz Brückenstraße Gotha","power_supply":"no","sanitary_dump_station":"no","surface":"asphalt","traffic_sign":"DE:314,1048-17"}},"1304453235":{"location":[50.8303715,10.7354024],"ct":"DE","tp":"CR","ts":"2024-09-16T11:51:44Z","tX":542,"tY":343,"tags":{"capacity":"8","fee":"no","power_supply":"yes","sanitary_dump_station":"yes"}},"7385723690":{"location":[50.9500685,10.8817474],"ct":"DE","tp":"CR","ts":"2020-04-09T13:57:16Z","tX":542,"tY":343,"tags":{"addr:city":"Nesse-Apfelstädt","addr:housenumber":"82b","addr:postcode":"99192","addr:street":"Ermstedter Straße","addr:suburb":"Gamstädt","contact:phone":"+49 162 9808393","contact:website":"https://www.stax-motel.de/","contact:whatsapp":"+49 162 9808393","name":"STAX-Motel","operator":"Axel und Stefan Wieczorek GbR"}},"9631891729":{"location":[50.8975338,10.6576287],"ct":"DE","tp":"CR","ts":"2022-04-02T18:27:07Z","tX":542,"tY":343,"tags":{"capacity:caravans":"6"}},"12180073200":{"location":[50.8304823,10.734575],"ct":"DE","tp":"SD","ts":"2024-09-16T11:51:44Z","tX":542,"tY":343,"tags":{"access":"yes","sanitary_dump_station:basin":"yes","sanitary_dump_station:round_drain":"yes"}}}