{"26526087":{"location":[50.65048,10.8441824],"ct":"DE","tp":"CS","ts":"2023-11-07T07:52:45Z","tX":542,"tY":344,"tags":{"addr:city":"Ilmenau","addr:country":"DE","addr:housenumber":"91","addr:postcode":"98693","addr:street":"Schmücker Straße","addr:suburb":"Manebach","caravans":"yes","contact:email":"info@meyersgrund.de","contact:fax":"+49 36784 50245","contact:phone":"+49 36784 50636","contact:website":"http://www.meyersgrund.de","name":"Waldcampingplatz Meyersgrund","source":"website","tents":"yes"}},"52348721":{"location":[50.5468338,10.7565475],"ct":"DE","tp":"CS","ts":"2023-08-14T12:24:06Z","tX":542,"tY":344,"tags":{"addr:city":"Schleusingen","addr:country":"DE","addr:housenumber":"10","addr:postcode":"98553","addr:street":"Am Waldbad","addr:suburb":"Erlau","contact:phone":"+49 36841 482 28","contact:website":"https://www.camping-erlau.de/","name":"Campingplatz und Bungalowdorf Erlau","operator":"Gerold Karrlein"}},"52348918":{"location":[50.5469298,10.7776211],"ct":"DE","tp":"CS","ts":"2022-12-21T16:04:30Z","tX":542,"tY":344,"tags":{"addr:city":"Schleusingen","addr:country":"DE","addr:housenumber":"1","addr:postcode":"98553","addr:street":"Campingplatz","addr:suburb":"Breitenbach","caravans":"60","contact:email":"info@campingbreitenbach.de","contact:phone":"+49 36841 41153","contact:website":"https://www.campingbreitenbach.de/","name":"Campingplatz am Waldbad","operator":"Thomas Salzmann","tents":"yes"}},"118681894":{"location":[50.7305163,10.7555851],"ct":"DE","tp":"CS","ts":"2021-09-21T12:26:35Z","tX":542,"tY":344,"tags":{"addr:city":"Geratal","addr:country":"DE","addr:housenumber":"9","addr:postcode":"99330","addr:street":"Am Stausee","addr:suburb":"Frankenhain","caravans":"yes","internet_access":"wlan","internet_access:fee":"no","name":"Oberhof Camping Lütschesee","openfire":"no","power_supply":"yes","sanitary_dump_station":"yes","source":"website","stars":"4","tents":"yes","website":"https://www.oberhofcamping.de/","wheelchair":"no"}},"331349630":{"location":[50.5329748,10.8792476],"ct":"DE","tp":"CR","ts":"2016-09-20T14:43:01Z","tX":542,"tY":344,"tags":{"access":"yes","capacity":"2","description:de":"Wanderparkplatz","fee":"no","parking":"surface","power_supply":"yes","ref":"SG015","surface":"sett"}},"352278099":{"location":[50.5975865,10.8499618],"ct":"DE","tp":"CS","ts":"2023-11-10T12:48:40Z","tX":542,"tY":344,"tags":{"addr:city":"Ilmenau","addr:country":"DE","addr:housenumber":"131","addr:postcode":"98694","addr:street":"Nordstraße","addr:suburb":"Frauenwald","name":"Naturcamp Am Lenkgrund","operator":"Naturcamp Weidner GmbH i.G.","website":"https://www.mein-naturcamp.de/"}},"994820187":{"location":[50.6442069,10.684433],"ct":"DE","tp":"CR","ts":"2024-04-08T17:55:13Z","tX":542,"tY":344,"tags":{"addr:city":"Zella-Mehlis","addr:housenumber":"5","addr:postcode":"98544","addr:street":"An der Quelle","email":"info@toschis-station.de","name":"Toschis Station","phone":"+49 3682 88880","website":"https://www.toschis-station.de/"}},"1057653864":{"location":[50.7310512,10.8132209],"ct":"DE","tp":"CR","ts":"2022-05-05T14:59:10Z","tX":542,"tY":344,"tags":{"fee":"no","internet_access":"no","name":"Kickelhähnchen","operator":"Gemeinde Geschwenda","park_ride":"no","power_supply":"no","sanitary_dump_station":"no","tents":"no"}},"1350177231":{"location":[50.5329602,10.8793023],"ct":"DE","tp":"CR","ts":"2025-01-11T00:12:42Z","tX":542,"tY":344,"tags":{"capacity":"2","caravan_site":"motorhome_stopover","caravan_site:type":"river","name":"Schleusegrund Schönbrunn Stellplatz","power_supply":"yes","surface":"paving_stones"}},"1602036823":{"location":[50.7024543,10.7272328],"ct":"DE","tp":"CR","ts":"2022-01-17T12:07:42Z","tX":542,"tY":344,"tags":{"capacity":"60","contact:email":"info@wohnmobilstellplatz-oberhof.de","contact:phone":"+49 36842 575012","fee":"yes","internet_access":"wlan","name":"Wohnmobilstellplatz Oberhof","operator":"Wohnmobilstellplatz Oberhof GbR","power_supply":"yes","sanitary_dump_station":"yes","water_point":"yes","website":"https://www.wohnmobilstellplatz-oberhof.de/"}},"5327628024":{"location":[50.7069963,10.6958631],"ct":"DE","tp":"CR","ts":"2021-10-14T17:17:03Z","tX":542,"tY":344,"tags":{"fee":"yes","name":"Caravanstellplatz am Biathlonstadion Oberhof","opening_hours":"24/7","power_supply":"yes","water_point":"yes"}},"6322900274":{"location":[50.6075547,10.8467285],"ct":"DE","tp":"CR","ts":"2023-09-23T15:45:11Z","tX":542,"tY":344,"tags":{"addr:city":"Ilmenau","addr:country":"DE","addr:postcode":"98694","addr:street":"Am Rothenberg","addr:suburb":"Frauenwald","capacity":"10","contact:phone":"+49 36782 62200","fee":"yes","name":"Waldhotel Rennsteighöhe","power_supply":"yes","sanitary_dump_station":"no","toilets":"no"}}}