{"52349708":{"location":[50.4916908,10.7905666],"ct":"DE","tp":"CS","ts":"2023-11-01T19:48:41Z","tX":542,"tY":345,"tags":{"addr:city":"Schleusingen","addr:housenumber":"40","addr:postcode":"98553","addr:street":"Am Bergsee","caravans":"yes","email":"bergsee@ratscher.de","name":"Campingplatz \"Bergsee Ratscher\"","openfire":"yes","operator":"Bergsee Ratscher GmbH","phone":"+49 36841 40015","tents":"yes","website":"https://www.bergseeratscher.de/"}},"108984282":{"location":[50.3190709,10.7702291],"ct":"DE","tp":"CS","ts":"2024-06-08T16:57:10Z","tX":542,"tY":345,"tags":{"contact:phone":"+49 9564 1280","contact:website":"https://www.tourismus-bad-rodach.de/campingplatz-2/","name":"Campingplatz am Waldbad"}},"152797054":{"location":[50.5046471,10.6110569],"ct":"DE","tp":"CR","ts":"2023-08-14T12:37:26Z","tX":542,"tY":345,"tags":{"capacity":"5","email":"kontakt@themar.de","fee":"yes","name":"Am Hexenturm","operator":"Stadt Themar","phone":"+49 36873 69732","power_supply":"yes","wheelchair":"yes"}},"363390399":{"location":[50.3350879,10.766538],"ct":"DE","tp":"CR","ts":"2021-07-01T19:19:38Z","tX":542,"tY":345,"tags":{"capacity":"70","fee":"yes","name":"Thermenaue","operator":"Bad Rodacher Bäder GmbH","power_supply":"yes","sanitary_dump_station":"yes","water_point":"yes","website":"https://www.therme-natur.de/wohnmobilstellplatz-thermenaue/"}},"1006027356":{"location":[50.5047001,10.6110299],"ct":"DE","tp":"SD","ts":"2019-08-09T11:07:29Z","tX":542,"tY":345,"tags":{"sanitary_dump_station:chemical_toilet":"yes","sanitary_dump_station:grey_water":"yes"}},"1234739538":{"location":[50.5110159,10.7489661],"ct":"DE","tp":"CR","ts":"2023-12-27T22:03:28Z","tX":542,"tY":345,"tags":{}},"1295752054":{"location":[50.3017726,10.6616526],"ct":"DE","tp":"CR","ts":"2011-05-22T08:17:49Z","tX":542,"tY":345,"tags":{"name":"WoMo-Stellplatz"}},"1941324637":{"location":[50.4247955,10.7236217],"ct":"DE","tp":"CR","ts":"2012-10-01T11:30:51Z","tX":542,"tY":345,"tags":{"capacity":"3"}},"4974785311":{"location":[50.4060066,10.8796945],"ct":"DE","tp":"CS","ts":"2024-05-13T00:32:56Z","tX":542,"tY":345,"tags":{"addr:city":"Eisfeld","addr:housenumber":"4","addr:postcode":"98673","addr:street":"Münchhausenallee","addr:suburb":"Bockstadt","alt_name":"Campingplatz Bockstadt","caravans":"yes","contact:email":"info@unterkunft-werraradweg.de","contact:mobile":"+49 171 20 02 734","contact:phone":"+49 3686 306282","contact:website":"https://www.unterkunft-werraradweg.de/","ele":"425","name":"Wohnmobil-Stellplatz Camping am Werra Radweg","tents":"yes"}},"6140337677":{"location":[50.3349308,10.7668671],"ct":"DE","tp":"SD","ts":"2018-12-16T12:56:14Z","tX":542,"tY":345,"tags":{"access":"yes","sanitary_dump_station:basin":"yes"}}}