{"42220597":{"location":[50.0954113,10.7957712],"ct":"DE","tp":"CR","ts":"2023-02-20T10:48:45Z","tX":542,"tY":346,"tags":{"capacity":"20","fee":"yes","internet_access":"wlan","internet_access:fee":"no","name":"Wohnmobilstellplatz Ebern","power_supply":"yes","sanitary_dump_station":"yes","stars":"3","toilets":"yes","water_point":"yes","website":"https://www.wohnmobilstellplatz-ebern.de","wheelchair":"yes"}},"52354217":{"location":[50.1503788,10.5509703],"ct":"DE","tp":"CS","ts":"2023-08-05T17:09:43Z","tX":542,"tY":346,"tags":{"addr:city":"Hofheim in Unterfranken","addr:country":"DE","addr:housenumber":"3","addr:postcode":"97461","addr:street":"Manauer Straße","caravans":"yes","drinking_water":"yes","dryer":"yes","email":"info@landgasthof-burgblick.de","fax":"+49 9523 7999","fixme":"shape and location","name":"Campingplatz Burgblick","phone":"+49 9523 450","power_supply":"yes","shower":"yes","tents":"yes","toilets":"yes","washing_machine":"yes","website":"https://www.landgasthof-burgblick.de/"}},"514014459":{"location":[50.2788597,10.7303008],"ct":"DE","tp":"CR","ts":"2025-01-10T19:11:38Z","tX":542,"tY":346,"tags":{"capacity":"5","fee":"no","name":"Wohnmobilstellplatz \"Am Rainbrünnlein\"","picnic_table":"yes","power_supply":"yes","power_supply:charge":"1 EUR/8 hours","power_supply:fee":"yes","sanitary_dump_station":"yes","seasonal":"no","water_point":"yes","water_point:charge":"1 EUR/60 liter","water_point:fee":"yes","website":"https://www.stadt-heldburg.de/index.php/tourismus/ihr-urlaub-bei-uns/wohnmobilstellplatz-am-rainbruennlein"}},"576241622":{"location":[50.1942923,10.8370605],"ct":"DE","tp":"CS","ts":"2023-06-18T14:45:56Z","tX":542,"tY":346,"tags":{"addr:city":"Seßlach","addr:country":"DE","addr:housenumber":"154","addr:postcode":"96145","addr:street":"Bahnhofstraße","cabins":"yes","caravans":"yes","drinking_water":"yes","dryer":"yes","internet_access":"wlan","internet_access:fee":"no","name":"Camping Sonnland","payment:credit_cards":"yes","payment:girocard":"yes","payment:visa":"yes","phone":"+49 9569 220","power_supply":"yes","sanitary_dump_station":"yes","shower":"yes","source":"website","tents":"yes","toilets":"yes","washing_machine":"yes","website":"https://www.camping-sonnland.de/"}},"597485108":{"location":[50.1379337,10.8275906],"ct":"DE","tp":"CS","ts":"2023-09-07T09:36:18Z","tX":542,"tY":346,"tags":{"addr:city":"Untermerzbach","addr:country":"DE","addr:housenumber":"16","addr:postcode":"96190","addr:street":"Wüstenwelsberg","caravans":"yes","name":"Campingplatz Rückertklause","phone":"+49 9533 288","tents":"yes","website":"https://frankentourismus.de/poi/camping_rueckertklause-7383/"}},"611611710":{"location":[50.067839,10.7500309],"ct":"DE","tp":"CS","ts":"2024-09-11T06:51:59Z","tX":542,"tY":346,"tags":{"addr:city":"Ebern","addr:country":"DE","addr:housenumber":"2","addr:postcode":"96106","addr:street":"Am Brunnenholz","caravans":"no","contact:website":"https://ebern.de/index.php/13-freizeitangebote/36-zeltplatz","group_only":"yes","name":"Jugendzeltplatz Reutersbrunn","phone":"+49 9531 8983","scout":"yes","tents":"yes"}},"762457282":{"location":[50.2206728,10.7479004],"ct":"DE","tp":"CS","ts":"2024-02-15T17:40:45Z","tX":542,"tY":346,"tags":{"group_only":"yes","name":"Zeltplatz Dürrenried","operator":"Gemeinde Maroldsweisach","website":"https://www.maroldsweisach.de"}},"1087731744":{"location":[50.0797859,10.5686324],"ct":"DE","tp":"CR","ts":"2024-03-19T16:19:25Z","tX":542,"tY":346,"tags":{"capacity":"4","caravans":"no","fee":"no","internet_access":"wlan","internet_access:fee":"no","maxlength":"10.5","maxstay":"3 days","name":"Stellplatz am Bleichdamm","operator":"Stadt Königsberg in Bayern","phone":"+49 9525 92220","power_supply":"yes","power_supply:charge":"0.50 EUR/1 kWh","sanitary_dump_station":"yes","tents":"no","toilets":"no","water_point":"yes","water_point:charge":"0.50 EUR/5 minutes","website":"https://www.koenigsberg.de/tourismus-und-kultur/wohnmobilstellplatz","wheelchair":"yes"}},"1215160520":{"location":[50.2402134,10.7938722],"ct":"DE","tp":"CS","ts":"2024-10-10T10:48:49Z","tX":542,"tY":346,"tags":{"name":"Zeltplatz Autenhausen","phone":"+49 9567 980888","website":"https://www.sesslach.de/index.php/camping-wohnmobile2"}},"5652175775":{"location":[50.1834697,10.5779484],"ct":"DE","tp":"CS","ts":"2023-01-21T16:53:10Z","tX":542,"tY":346,"tags":{"caravans":"no","group_only":"yes","internet_access":"no","name":"Jugendzeltplatz Schweinshaupten","operator":"Gemeinde Bundorf","phone":"+49 9523 63 27","sanitary_dump_station":"yes","scout":"yes","tents":"yes"}},"5137526372":{"location":[50.0948203,10.7957019],"ct":"DE","tp":"SD","ts":"2017-09-29T13:36:23Z","tX":542,"tY":346,"tags":{"sanitary_dump_station:fee":"customer","sanitary_dump_station:gravity":"yes","sanitary_dump_station:grey_water":"yes"}},"9129984326":{"location":[50.1942261,10.8363041],"ct":"DE","tp":"SD","ts":"2021-09-28T16:00:24Z","tX":542,"tY":346,"tags":{}},"9966319815":{"location":[50.0797475,10.5687737],"ct":"DE","tp":"SD","ts":"2024-03-18T14:36:15Z","tX":542,"tY":346,"tags":{"access":"yes","opening_hours":"24/7","sanitary_dump_station:basin":"yes"}}}