{"33290240":{"location":[49.9729163,10.6608639],"ct":"DE","tp":"CR","ts":"2024-05-16T13:54:15Z","tX":542,"tY":347,"tags":{"capacity":"18","caravan_site":"motorhome_stopover","caravan_site:type":"river;village","caravans":"no","charge":"10 EUR","contact:email":"ibel@eltmann.de","contact:phone":"+49 9522 899-14","dog":"leashed","fee":"yes","maxstay":"14 days","name":"Mainlände","operator":"Stadt Eltmann","payment:parkster":"yes","power_supply":"yes","power_supply:charge":"2 EUR/6 hours","power_supply:fee":"yes","sanitary_dump_station":"yes","surface":"unpaved","tents":"no","toilets":"no","water_point":"yes","water_point:charge":"2 EUR/80 liter","website":"https://eltmann.de/freizeit-kultur/wohnmobilstellplatz.html"}},"177264873":{"location":[49.9395131,10.582327],"ct":"DE","tp":"CS","ts":"2023-10-30T02:43:07Z","tX":542,"tY":347,"tags":{"addr:city":"Oberaurach","addr:country":"DE","addr:housenumber":"32","addr:postcode":"97514","addr:street":"Bachstraße","addr:suburb":"Neuschleichach","caravans":"yes","email":"info@camping-im-steigerwald.de","name":"Campingplatz Steigerwald Aurachtal","phone":"+49 9529 285","tents":"yes","website":"https://www.camping-im-steigerwald.de/","wheelchair":"yes"}},"190321216":{"location":[49.9875979,10.8543571],"ct":"DE","tp":"CR","ts":"2024-03-11T08:17:31Z","tX":542,"tY":347,"tags":{"capacity":"12","charge":"9€","fee":"yes","internet_access":"wlan","maxstay":"72 hours","name":"Altstadtparkplatz","operator":"Stadt Baunach","payment:parkster":"only","power_supply":"yes","sanitary_dump_station":"yes","tents":"no","water_point":"yes","website":"https://tourismus-baunach.de/wohnmobilstellplatz/","wheelchair":"yes","wikimedia_commons":"Category:Wohnmobilstellplatz Baunach"}},"281027135":{"location":[50.0048257,10.5522899],"ct":"DE","tp":"CS","ts":"2019-08-12T18:22:58Z","tX":542,"tY":347,"tags":{"name":"Selbstversorger-Campingplatz am Kleidersee"}},"283464196":{"location":[49.9932825,10.5795609],"ct":"DE","tp":"CS","ts":"2022-06-27T21:10:36Z","tX":542,"tY":347,"tags":{"addr:city":"Sand a. Main","addr:country":"DE","addr:housenumber":"7","addr:postcode":"97522","addr:street":"Pappelallee","caravans":"yes","dog":"yes","fax":"+49 9524 822275","name":"Campingplatz Sand am Main","phone":"+49 9524 822270","tents":"yes","website":"https://www.campingplatz-sand-am-main.de/"}},"318751012":{"location":[49.9901589,10.5783186],"ct":"DE","tp":"CS","ts":"2024-07-21T18:39:44Z","tX":542,"tY":347,"tags":{"cabins":"no","capacity":"100","caravans":"yes","dog":"yes","drinking_water":"yes","fee":"yes","internet_access":"wlan","internet_access:fee":"no","name":"Campingplatz Sand am Main","nudism":"no","open_fire":"no","operator":"Gemeinde Sand a. Main","power_supply":"yes","reservation":"recommended","sanitary_dump_station":"yes","shower":"yes","tents":"yes","toilets":"yes","wheelchair":"limited"}},"330831728":{"location":[49.8905062,10.5834249],"ct":"DE","tp":"CS","ts":"2020-01-11T12:55:05Z","tX":542,"tY":347,"tags":{"capacity":"35","caravans":"no","email":"peggy.leiste@rauhenebrach.de","fee":"yes","group_only":"yes","name":"Jugendzeltplatz Theinheim","openfire":"yes","operator":"Gemeinde Rauhenebrach","tents":"yes","website":"https://www.rauhenebrach.de/leben/fuer-alle-generationen/angebote-fuer-kinder-und-jugendliche/"}},"368041119":{"location":[49.9035154,10.8736851],"ct":"DE","tp":"CS","ts":"2023-09-18T15:35:48Z","tX":542,"tY":347,"tags":{"caravans":"yes","check_date":"2023-05-28","contact:email":"camping@faltbootclub.de","contact:fax":"+49 951 9682992","contact:website":"http://www.faltbootclub.de","description":"Kleiner Platz, aber für Fahrradreisende und Paddelnde gibt es immer einen Platz.","internet_access":"wlan","internet_access:fee":"no","motorhome":"yes","name":"Bamberger Faltboot-Club","phone":"+49 951 68624","power_supply":"yes","shower":"yes","tents":"yes","toilets":"yes","wheelchair":"yes"}},"670918703":{"location":[49.8418896,10.6379021],"ct":"DE","tp":"CS","ts":"2021-01-03T22:52:48Z","tX":542,"tY":347,"tags":{"backcountry":"yes","capacity:persons":"10","caravans":"no","fee":"yes","maxstay":"1 day","name":"Lindach / Winterleite, Burgebrach","openfire":"yes","opening_hours":"Apr 1-Oct 31","ref":"3","reservation":"required","shower":"no","tents":"yes","website":"https://www.trekkingerlebnis.de/plaetze-und-buchung.html?ppp_resfilter=123706"}},"762455607":{"location":[49.873287,10.572782],"ct":"DE","tp":"CS","ts":"2024-10-26T14:54:33Z","tX":542,"tY":347,"tags":{"capacity":"70","email":"peggy.leiste@rauhenebrach.de","group_only":"yes","name":"Jugendzeltplatz Koppenwind","operator":"Gemeinde Rauhenebrach","reservation":"required","website":"https://www.rauhenebrach.de/leben/fuer-alle-generationen/angebote-fuer-kinder-und-jugendliche/","wheelchair":"limited"}},"1021262121":{"location":[49.8791573,10.8377562],"ct":"DE","tp":"CS","ts":"2022-03-29T17:07:13Z","tX":542,"tY":347,"tags":{"caravans":"yes","name":"Natur- und Sportbund Bamberg e.V.","nudism":"yes","tents":"yes","website":"http://nsb-bamberg.de/"}},"1229649970":{"location":[50.0090857,10.5891412],"ct":"DE","tp":"CS","ts":"2023-12-08T10:55:53Z","tX":542,"tY":347,"tags":{"access":"customers","addr:city":"Zeil am Main","addr:postcode":"97475","addr:street":"Birkenweg","capacity:caravans":"14","caravans":"yes","charge":"13","fee":"yes","internet_access":"wlan","name":"Wohnmobilstellplatz","operator":"Stadt Zeil am Main","power_supply":"yes","shower":"yes","static_caravans":"no","tents":"no","website":"www.alpacacamping.de"}},"1315325226":{"location":[49.9211732,10.8070313],"ct":"DE","tp":"CR","ts":"2024-09-13T13:07:37Z","tX":542,"tY":347,"tags":{"addr:city":"Bischberg","addr:country":"DE","addr:housenumber":"3","addr:postcode":"96120","addr:street":"Bürgermeister-Wachter-Straße","capacity":"250","fee":"yes","name":"Wohnmobilhafen Bischberg","power_supply":"yes","sanitary_dump_station":"customers","wheelchair":"yes"}},"6194903069":{"location":[49.9699467,10.5916897],"ct":"DE","tp":"CS","ts":"2021-01-03T22:52:48Z","tX":542,"tY":347,"tags":{"backcountry":"yes","capacity:persons":"10","caravans":"no","fee":"yes","maxstay":"1 day","name":"Laubwiese, Zell","openfire":"yes","opening_hours":"Apr 1-Oct 31","ref":"5","reservation":"required","shower":"no","tents":"yes","website":"https://www.trekkingerlebnis.de/plaetze-und-buchung.html?ppp_resfilter=123885"}},"6282763274":{"location":[49.89822,10.68609],"ct":"DE","tp":"CS","ts":"2022-03-29T17:12:36Z","tX":542,"tY":347,"tags":{"backcountry":"yes","capacity:persons":"10","caravans":"no","fee":"yes","maxstay":"1 day","name":"Friedlein, Dankenfeld","opening_hours":"Apr 1-Oct 31","ref":"8","reservation":"required","shower":"no","tents":"yes","website":"https://www.trekkingerlebnis.de/plaetze-und-buchung.html?ppp_resfilter=123888"}},"6282763275":{"location":[49.9221947,10.5683522],"ct":"DE","tp":"CS","ts":"2021-01-03T22:52:48Z","tX":542,"tY":347,"tags":{"backcountry":"yes","capacity:persons":"10","caravans":"no","fee":"yes","maxstay":"1 day","name":"Steinknuck, Neuschleichach","openfire":"yes","opening_hours":"Apr 1-Oct 31","ref":"7","reservation":"required","shower":"no","tents":"yes","website":"https://www.trekkingerlebnis.de/plaetze-und-buchung.html?ppp_resfilter=123887"}},"5711336330":{"location":[49.9875089,10.8546639],"ct":"DE","tp":"SD","ts":"2018-06-27T11:32:16Z","tX":542,"tY":347,"tags":{"fee":"yes","sanitary_dump_station:chemical_toilet":"yes","sanitary_dump_station:grey_water":"yes"}},"6949034282":{"location":[49.9727468,10.6609601],"ct":"DE","tp":"SD","ts":"2022-08-14T09:21:34Z","tX":542,"tY":347,"tags":{"access":"customers","fee":"no","operator":"Stadt Eltmann"}},"11402957221":{"location":[50.0091769,10.5897183],"ct":"DE","tp":"SD","ts":"2023-12-08T10:55:53Z","tX":542,"tY":347,"tags":{"water_point":"yes"}},"12175294868":{"location":[49.9207276,10.8081195],"ct":"DE","tp":"SD","ts":"2024-09-13T17:49:39Z","tX":542,"tY":347,"tags":{"access":"customers","fee":"yes","sanitary_dump_station:basin":"yes"}},"12175294870":{"location":[49.9206947,10.8082457],"ct":"DE","tp":"SD","ts":"2024-09-13T17:49:39Z","tX":542,"tY":347,"tags":{"access":"customers","fee":"no","sanitary_dump_station:round_drain":"yes"}}}