{"119283795":{"location":[49.4728639,10.7615936],"ct":"DE","tp":"CS","ts":"2024-05-04T07:08:44Z","tX":542,"tY":349,"tags":{"addr:city":"Langenzenn","addr:country":"DE","addr:housenumber":"1","addr:postcode":"90579","addr:street":"Eichensee","caravans":"yes","check_date":"2024-05-04","dog":"yes","email":"hoesch@camping-eichensee.de","fee":"yes","internet_access":"no","name":"Campingplatz Eichensee","payment:girocard":"yes","permanent_camping":"yes","phone":"+49 9101 2222","power_supply":"yes","reservation":"yes","sanitary_dump_station":"yes","shower":"yes","tents":"yes","toilets":"yes","website":"http://www.camping-eichensee.de/"}},"238557042":{"location":[49.3898801,10.548566],"ct":"DE","tp":"CS","ts":"2024-03-25T10:55:22Z","tX":542,"tY":349,"tags":{"backcountry":"no","caravans":"yes","motorhome":"yes","name":"Campingplatz Sonnensee","shower":"yes","tents":"yes","toilets":"yes","website":"http://www.campingplatz-sonnensee.de"}},"263504789":{"location":[49.4750448,10.7564771],"ct":"DE","tp":"CS","ts":"2023-11-08T15:22:03Z","tX":542,"tY":349,"tags":{"access":"private","caravans":"no","group_only":"yes","internet_access":"no","name":"Jugendzeltplatz Fuchsenweiher","operator":"CVJM Fürth","tents":"yes","website":"https://www.cvjm-fuerth.de/","wheelchair":"no"}},"369005627":{"location":[49.5730779,10.8656219],"ct":"DE","tp":"CR","ts":"2024-04-20T23:46:08Z","tX":542,"tY":349,"tags":{"capacity":"12","drinking_water":"yes","fee":"yes","name":"Wohnmobilparkplatz am Atlantis","operator":"Freizeitbad Atlantis","power_supply":"yes","sanitary_dump_station":"yes","tents":"no","website":"https://www.atlantis-bad.de/infos/#wohnmobilstellplatz"}},"468888104":{"location":[49.575653,10.6325093],"ct":"DE","tp":"CR","ts":"2023-01-15T15:40:15Z","tX":542,"tY":349,"tags":{"capacity":"8","contact:email":"info@sportzentrum-neustadt.de","contact:phone":"+49 9161 60666","fee":"yes","name":"Wohnmobilstellplatz am Sportzentrum","power_supply":"yes","sanitary_dump_station":"customers","website":"http://www.wohnmobilstellplatz-neustadt.de/"}},"1228613336":{"location":[49.5827999,10.6040694],"ct":"DE","tp":"CR","ts":"2023-12-04T11:38:38Z","tX":542,"tY":349,"tags":{"alt_name":"Wohnmobilstellplatz Neustadt an der Aisch","capacity":"16","fee":"no","name":"Wohnmobilstellplatz auf dem Festplatz","power_supply":"yes","power_supply:charge":"6 EUR","power_supply:fee":"yes","sanitary_dump_station":"public","seasonal":"no","surface":"paving_stones","website":"https://www.neustadt-aisch.de/seite/de/aischtal/053:1776/tn_53_cc_3/Wohnmobilstellplaetze.html","wheelchair":"yes","wikimedia_commons":"Category:Wohnmobilstellplatz Neustadt an der Aisch"}},"1321476398":{"location":[49.4835636,10.7018626],"ct":"DE","tp":"CS","ts":"2024-10-05T20:32:19Z","tX":542,"tY":349,"tags":{"access":"private","addr:city":"Wilhermsdorf","addr:housenumber":"30","addr:postcode":"91452","addr:street":"An der Klinge","fee":"yes","name":"S.N. Noris e.V.","nudism":"obligatory","operator":"S.N. Noris e.V.","website":"https://sn-noris.de/"}},"2315288723":{"location":[49.4613658,10.8515312],"ct":"DE","tp":"CR","ts":"2023-09-24T07:09:46Z","tX":542,"tY":349,"tags":{"capacity":"8","fee":"no","name":"Am Höhbuck","power_supply":"yes","wheelchair":"yes"}},"2565915045":{"location":[49.5744015,10.6288743],"ct":"DE","tp":"CR","ts":"2024-04-02T15:29:33Z","tX":542,"tY":349,"tags":{"capacity":"6","fee":"no","name":"Wohnmobilstellplatz am Waldbad Neustadt","sanitary_dump_station":"no","seasonal":"no","website":"https://freizeit.neustadt-aisch.de/infothek/wohnmobilstellplaetze","wheelchair":"yes"}},"8242685960":{"location":[49.4851656,10.8784331],"ct":"DE","tp":"CR","ts":"2020-12-19T13:27:54Z","tX":542,"tY":349,"tags":{"name":"Wohnmobilstellplatz Seukendorf","power_supply":"yes","sanitary_dump_station":"yes"}},"9175977771":{"location":[49.4573016,10.6487183],"ct":"DE","tp":"CR","ts":"2021-10-16T07:12:06Z","tX":542,"tY":349,"tags":{"addr:city":"Neuhof a.d.Zenn","addr:postcode":"90616","addr:street":"Rosenau","capacity":"4","name":"Wohnmobilstellplatz Eisweiher","power_supply":"no","sanitary_dump_station":"no"}},"6736651608":{"location":[49.4613627,10.8514191],"ct":"DE","tp":"SD","ts":"2019-08-22T19:43:30Z","tX":542,"tY":349,"tags":{"access":"yes","fee":"yes"}},"7499317939":{"location":[49.573375,10.8652492],"ct":"DE","tp":"SD","ts":"2020-05-08T20:55:41Z","tX":542,"tY":349,"tags":{}}}