{"26527870":{"location":[49.1259901,10.8667148],"ct":"DE","tp":"CS","ts":"2023-10-11T11:17:21Z","tX":542,"tY":351,"tags":{"addr:city":"Pfofeld","addr:country":"DE","addr:housenumber":"30","addr:postcode":"91738","addr:street":"Seestraße","addr:suburb":"Langlau","barrier":"fence","cabins":"yes","caravans":"yes","internet_access":"wlan","name":"See Camping Langlau","phone":"+49 9834 96969","power_supply":"cee_17_blue","static_caravans":"yes","tents":"yes","url":"http://www.seecamping-langlau.de","website":"http://www.seecamping-langlau.de","wheelchair":"yes"}},"33169794":{"location":[49.1322021,10.7358239],"ct":"DE","tp":"CR","ts":"2024-04-06T09:33:13Z","tX":542,"tY":351,"tags":{"capacity":"50","charge":"12€","contact:email":"info@surfcenter-altmuehlsee.de","contact:fax":"+49 9831 7087","contact:phone":"+49-9831-1240","email":"info@surfcenter-altmuehlsee.de","fee":"yes","name":"Stellplatz Surfzentrum Schlungenhof","power_supply":"yes","reservation":"no","sanitary_dump_station":"yes","shower":"yes","toilets":"yes","water_point":"yes","website":"https://altmuehlsee.de/wohnmobilstellplaetze.html"}},"33183928":{"location":[49.1277019,10.7439124],"ct":"DE","tp":"CS","ts":"2021-04-16T17:29:03Z","tX":542,"tY":351,"tags":{"addr:city":"Gunzenhausen","addr:country":"DE","addr:housenumber":"12","addr:postcode":"91710","addr:street":"Seestraße","addr:suburb":"Schlungenhof","capacity":"180","caravans":"yes","email":"post@camping-herzog.de","internet_access":"wlan","name":"Altmühlsee Camping Herzog","opening_hours":"Mar-Oct 07:30-12:00,15:00-20:00","operator":"Katja Herzog-Straub und Helmut Straub","payment:cash":"yes","payment:girocard":"yes","payment:maestro":"yes","phone":"+49-9831-9033","power_supply":"yes","reservation":"recommended","sanitary_dump_station":"yes","shower":"yes","tents":"yes","toilets":"yes","website":"https://www.camping-herzog.de/","wheelchair":"yes"}},"95845896":{"location":[49.1242651,10.7178757],"ct":"DE","tp":"CS","ts":"2021-01-30T09:33:50Z","tX":542,"tY":351,"tags":{"addr:city":"Gunzenhausen","addr:country":"DE","addr:housenumber":"4","addr:postcode":"91710","addr:street":"Wald-Seezentrum","capacity":"120","contact:phone":"+49 9831 80397","contact:website":"https://www.campingplatz-fischer-michl.de/","internet_access":"wlan","name":"Campingplatz \"Zum Fischer-Michl\"","opening_hours":"08:00-12:00,15:00-18:00","operator":"Evi Hanke","reservation":"recommended","source":"website","wheelchair":"limited"}},"96089353":{"location":[49.1045424,10.6120358],"ct":"DE","tp":"CS","ts":"2024-07-31T19:08:32Z","tX":542,"tY":351,"tags":{"access":"yes","caravans":"yes","internet_access":"yes","name":"Camping- und Jugendzeltplatz am Dennenloher See","permanent_camping":"yes","shower":"yes","source":"Bing","tents":"yes","website":"https://www.dennenlohersee.de/"}},"96089792":{"location":[49.1452726,10.7248418],"ct":"DE","tp":"CS","ts":"2024-04-06T09:28:40Z","tX":542,"tY":351,"tags":{"caravans":"no","fee":"yes","mobile":"+49-15227597694","name":"Familienzeltplatz Seezentrum Muhr am See","opening_hours":"Apr-Oct","reservation":"no","sanitary_dump_station":"yes","source":"http://www.naturpark-altmuehltal.de/poi/zeltplatz_am_seezentrum_muhr_a-1543/","static_caravans":"no","tents":"yes","website":"https://www.altmuehlsee.de/familienzeltplatz-kopie.html"}},"121040191":{"location":[49.1462311,10.7269633],"ct":"DE","tp":"CR","ts":"2024-04-06T09:33:13Z","tX":542,"tY":351,"tags":{"capacity":"70","description":"Ticketautomat\nEntsorgungsmöglichkeit am Schlungenhof","email":"info@altmuehlsee.de","fee":"yes","name":"Stellplatz Muhr am See","phone":"+49 9831 508-191","power_supply":"yes","reservation":"no","sanitary_dump_station":"yes","shower":"yes","surface":"gravel lawn","toilets":"yes","website":"https://altmuehlsee.de/wohnmobilstellplatz-muhr-am-see.html"}},"125137878":{"location":[49.1376386,10.8771094],"ct":"DE","tp":"CS","ts":"2023-09-02T18:45:07Z","tX":542,"tY":351,"tags":{"addr:city":"Absberg","addr:housenumber":"7","addr:postcode":"91720","addr:street":"Badehalbinsel","caravans":"no","drinking_water":"yes","name":"Zeltwiese Absberg","quiet_time":"23-7","shower":"yes","tents":"yes","toilets:wheelchair":"no","website":"https://zeltwiese-absberg.de/","wheelchair":"limited"}},"177788193":{"location":[49.1384582,10.8732735],"ct":"DE","tp":"CR","ts":"2024-05-15T22:52:27Z","tX":542,"tY":351,"tags":{"fee":"yes","name":"Reisemobilhafen Badehalbinsel Absberg","operator":"Zweckverband Brombachsee","power_supply":"yes","sanitary_dump_station":"yes","surface":"unpaved","website":"https://www.zv-brombachsee.de/reisemobilhafen/","wheelchair":"limited"}},"224766954":{"location":[49.1223085,10.7212738],"ct":"DE","tp":"CS","ts":"2024-02-02T12:07:18Z","tX":542,"tY":351,"tags":{"addr:city":"Gunzenhausen","addr:country":"DE","addr:housenumber":"1","addr:postcode":"91710","addr:street":"Wald-Seezentrum","caravans":"no","drinking_water":"yes","group_only":"yes","internet_access":"no","name":"Kinder- und Jugendzeltplatz Altmühlsee Pavillon","operator":"Deutsche Pfadfinderschaft Sankt Georg (dpsg) - Sankt Marien Gunzenhausen e. V.","power_supply":"yes","scout":"yes","shower":"yes","tents":"yes","toilets":"yes","website":"https://www.zelten-am-see.de/"}},"339892445":{"location":[49.1502134,10.7677775],"ct":"DE","tp":"CS","ts":"2023-09-15T20:06:11Z","tX":542,"tY":351,"tags":{"addr:city":"Gunzenhausen","addr:country":"DE","addr:housenumber":"2","addr:place":"Schnackenmühle","addr:postcode":"91710","name":"Camping am Schnackensee","phone":"+49 9831 80310","website":"https://www.reich-schnackensee.de/campingplatz/"}},"440765822":{"location":[49.1384473,10.8709479],"ct":"DE","tp":"CR","ts":"2024-05-15T22:52:27Z","tX":542,"tY":351,"tags":{"caravan_site":"motorhome_stopover","caravan_site:type":"temporary","description":"Wohnmobil Ausweichplatz","fee":"yes","name":"Behelfsparkplatz Reisemobilhafen Badehalbinsel Absberg","operator":"Zweckverband Brombachsee","power_supply":"no","sanitary_dump_station":"yes","surface":"grass"}},"457028047":{"location":[48.9564047,10.6095451],"ct":"DE","tp":"CR","ts":"2021-07-28T16:55:46Z","tX":542,"tY":351,"tags":{"capacity":"15","charge":"8 EUR","email":"stadt@oettingen.de","fee":"yes","internet_access":"no","name":"Stellplatz am Wörnitz-Ufer","operator":"Stadt Oettingen","power_supply":"yes","sanitary_dump_station":"yes","water_point":"yes","website":"https://www.oettingen.de/Wohnmobile.n76.html"}},"658875486":{"location":[49.0392736,10.5947307],"ct":"DE","tp":"CR","ts":"2023-07-28T15:37:22Z","tX":542,"tY":351,"tags":{"capacity":"12","charge":"8 EUR","description":"Reservierungen nicht möglich. WC und Duschmöglichkeiten im Sonnenuhrenpark.","fee":"yes","name":"Wohnmobilstellplatz am Entengraben","operator":"Stadt Wassertrüdingen","phone":"+49 9832 6822-45","power_supply":"yes","sanitary_dump_station":"yes","toilets":"no","toilets:wheelchair":"no","water_point":"yes","website":"https://wassertruedingen.de/wohnmobilstellplatz","wheelchair":"limited"}},"758940505":{"location":[48.9719312,10.7271116],"ct":"DE","tp":"CS","ts":"2024-05-11T22:25:21Z","tX":542,"tY":351,"tags":{"addr:city":"Heidenheim","addr:country":"DE","addr:place":"Hasenmühle","addr:postcode":"91719","addr:suburb":"Hechlingen am See","name":"Campingplatz Hasenmühle","phone":"+49 9833 1696","website":"https://www.campingplatz-hasenmuehle.de/"}},"988230090":{"location":[49.1384788,10.8762869],"ct":"DE","tp":"CR","ts":"2023-11-11T07:12:35Z","tX":542,"tY":351,"tags":{"parking":"surface"}},"1282042462":{"location":[48.969481,10.7223263],"ct":"DE","tp":"CR","ts":"2024-05-11T22:25:21Z","tX":542,"tY":351,"tags":{"charge":"12 EUR/day","fee":"yes","maxstay":"7 days"}},"3926155045":{"location":[49.1308912,10.7355824],"ct":"DE","tp":"SD","ts":"2024-04-06T09:28:40Z","tX":542,"tY":351,"tags":{"sanitary_dump_station:chemical_toilet":"yes","sanitary_dump_station:grey_water":"yes"}},"4284727391":{"location":[49.1380343,10.8736763],"ct":"DE","tp":"SD","ts":"2024-05-24T16:45:51Z","tX":542,"tY":351,"tags":{"motorhome":"designated","name":"Aqua Star und Clean Star Kassette","note":"Kleinmengen erhältlich","operator":"Zweckverband Brombachsee","water_point":"yes"}},"6747090714":{"location":[49.0200949,10.6058031],"ct":"DE","tp":"CS","ts":"2019-08-26T19:53:07Z","tX":542,"tY":351,"tags":{"name":"Camping Aumühle","website":"https://www.gruppenunterkuenfte.de/Zeltplatz-Bauernhof-Knausenberger__i10264.html"}},"4993626356":{"location":[49.1382729,10.8734819],"ct":"DE","tp":"SD","ts":"2024-05-24T16:45:25Z","tX":542,"tY":351,"tags":{"motorhome":"designated","name":"Aqua Star und Clean Star Kassette","note":"Kleinmengen erhältlich"}},"5188278389":{"location":[48.9569466,10.6090126],"ct":"DE","tp":"SD","ts":"2017-10-25T10:21:40Z","tX":542,"tY":351,"tags":{"fee":"no","name":"Sani-Station","water_point":"yes"}},"6293457831":{"location":[49.1268122,10.8679059],"ct":"DE","tp":"SD","ts":"2019-02-21T15:19:09Z","tX":542,"tY":351,"tags":{"access":"customers"}},"6293457835":{"location":[49.1274126,10.8647818],"ct":"DE","tp":"SD","ts":"2023-06-19T22:42:54Z","tX":542,"tY":351,"tags":{"access":"customers"}},"8636065595":{"location":[49.1271918,10.7432207],"ct":"DE","tp":"SD","ts":"2021-04-16T17:29:03Z","tX":542,"tY":351,"tags":{}},"9937286992":{"location":[49.1450182,10.7257656],"ct":"DE","tp":"SD","ts":"2024-07-03T07:35:07Z","tX":542,"tY":351,"tags":{"fee":"yes"}}}