{"25663176":{"location":[48.7145697,10.7790446],"ct":"DE","tp":"CR","ts":"2025-03-04T16:49:31Z","tX":542,"tY":352,"tags":{"addr:city":"Donauwörth","addr:postcode":"86609","addr:street":"Neue Obermayerstraße","capacity":"20","caravan_site":"motorhome_stopover","caravan_site:type":"river","caravans":"no","fee":"yes","maxstay":"5 days","name":"Wohnmobilstellplatz Neue Obermayerstraße","opening_hours":"24/7","operator":"Stadt Donauwörth","power_supply":"yes","reservation":"no","sanitary_dump_station":"yes","water_point":"yes","website":"https://www.donauwoerth.de/tourismus/hotels-gastronomie-wohnmobil-zeltplatz/wohnmobilstellplatz/"}},"136066143":{"location":[48.8842546,10.7372549],"ct":"DE","tp":"CS","ts":"2021-08-17T19:17:30Z","tX":542,"tY":352,"tags":{"addr:city":"Wemding","addr:country":"DE","addr:housenumber":"100","addr:postcode":"86650","addr:street":"Wolferstädter Straße","caravans":"yes","name":"Campingpark Wemding","phone":"+49 9092 90101","tents":"yes","website":"https://www.campingpark-wemding.de/","wheelchair":"limited"}},"533203987":{"location":[48.8448933,10.8543996],"ct":"DE","tp":"CR","ts":"2024-06-23T14:52:52Z","tX":542,"tY":352,"tags":{"addr:city":"Monheim","addr:postcode":"86653","addr:street":"Schulstraße","capacity":"7","caravans":"no","drinking_water":"yes","fee":"no","internet_access":"wlan","internet_access:fee":"no","name":"Wohnmobilstellplatz Monheim","operator":"Stadt Monheim","power_supply":"yes","sanitary_dump_station":"yes","toilets":"no"}},"688875359":{"location":[48.8476938,10.7129174],"ct":"DE","tp":"CS","ts":"2024-01-20T22:54:02Z","tX":542,"tY":352,"tags":{"addr:city":"Huisheim","addr:country":"DE","addr:place":"Mathesmühle","addr:postcode":"86685","operator":"Dietmar Graf","phone":"+49 9092 1769"}},"817874548":{"location":[48.7240646,10.7695161],"ct":"DE","tp":"CS","ts":"2024-02-27T08:44:01Z","tX":542,"tY":352,"tags":{"addr:city":"Donauwörth","addr:country":"DE","addr:postcode":"86609","addr:street":"Am Wörnitzwehr","caravans":"no","drinking_water":"yes","maxtents":"15","name":"DKV Zeltplatz Donauwörth","openfire":"permissive","operator":"Kanu-Club-Donauwörth e.V.","phone":"+491639279889","power_supply":"yes","shower":"yes","tents":"yes","toilets":"yes","toilets:wheelchair":"no","website":"https://kanuclub-donauwoerth.de","wheelchair":"no"}},"1077230056":{"location":[48.7827704,10.6864631],"ct":"DE","tp":"CR","ts":"2025-01-29T12:52:08Z","tX":542,"tY":352,"tags":{"attraction":"Schloss Harburg","caravan_site":"motorhome_stopover","caravan_site:type":"castle;town","charge":"8 EUR","fee":"yes","name":"Stellplatz an der Burg Harburg","operator":"Stadt Harburg","sanitary_dump_station":"no","toilets":"no","water_point":"no"}},"2586327577":{"location":[48.7371164,10.5603825],"ct":"DE","tp":"CS","ts":"2019-08-25T10:10:56Z","tX":542,"tY":352,"tags":{"caravans":"no","group_only":"yes","name":"Jugendzeltlagerplatz am Michelsberg","operator":"Kreisjugendring Dillingen","tents":"yes","website":"http://www.kjr-dillingen.de/verleih/zeltplatz/index.html"}},"5666685761":{"location":[48.876104,10.7295817],"ct":"DE","tp":"CR","ts":"2022-08-27T09:43:24Z","tX":542,"tY":352,"tags":{"capacity":"6","name":"Stellplatz Johannisweiher","power_supply":"yes","sanitary_dump_station":"yes","website":"https://www.wemding.de/"}},"5173560879":{"location":[48.8447632,10.8542993],"ct":"DE","tp":"SD","ts":"2024-06-23T14:52:52Z","tX":542,"tY":352,"tags":{"fee":"no"}},"11895492017":{"location":[48.714832,10.7790298],"ct":"DE","tp":"SD","ts":"2024-05-10T18:07:43Z","tX":542,"tY":352,"tags":{}},"12541830009":{"location":[48.7858377,10.6913589],"ct":"DE","tp":"CR","ts":"2025-01-29T13:06:12Z","tX":542,"tY":352,"tags":{"attraction":"Schloss Harburg","capacity":"4","caravan_site":"motorhome_stopover","caravan_site:type":"castle;river;town","dog":"yes","fee":"no","name":"Wohnmobilstellplatz Wörnitz in Harburg","picnic_table":"yes","power_supply":"no","sanitary_dump_station":"no","surface":"paving_stones","water_point":"no"}}}