{"92417738":{"location":[48.2665338,10.5925606],"ct":"DE","tp":"CS","ts":"2025-03-12T18:43:24Z","tX":542,"tY":354,"tags":{"access":"customers","addr:city":"Langenneufnach","addr:housenumber":"15","addr:postcode":"86473","addr:street":"Krumbacher Straße","camp_site":"standard","caravans":"no","fee":"yes","group_only":"yes","name":"Bärenbachzeltplatz","operator":"DPSG Diözesanverband Augsburg","static_caravans":"no","tents":"yes","website":"https://www.dpsg-augsburg.de/haeuser-und-zeltplaetze/baerenbachzeltplatz/"}},"204553272":{"location":[48.3696407,10.8776795],"ct":"DE","tp":"CR","ts":"2024-10-11T16:48:54Z","tX":542,"tY":354,"tags":{"addr:city":"Augsburg","addr:housenumber":"1","addr:postcode":"86152","addr:street":"Bürgermeister-Ackermann-Straße","capacity":"20","caravans":"no","contact:phone":"+49 821 551686","contact:website":"https://www.augsburg-tourismus.de/de/camping-wohnmobil","dog":"yes","fee":"yes","name":"Wohnmobilstellplatz Wertach","operator":"Hardt GmbH","power_supply":"yes","power_supply:fee":"yes","reservation":"no","sanitary_dump_station":"yes","shower":"no","surface":"asphalt","tents":"no","toilets":"no","water_point":"yes","water_point:fee":"yes","water_point:payment:coins":"coins"}},"544874595":{"location":[48.3838196,10.579891],"ct":"DE","tp":"CS","ts":"2020-01-06T16:32:17Z","tX":542,"tY":354,"tags":{"caravans":"no","group_only":"yes","name":"Zeltplatz Rücklenmühle","tents":"yes","website":"https://www.sjr-a.de/service/zeltplatz"}},"1072256007":{"location":[48.2724651,10.8822423],"ct":"DE","tp":"CR","ts":"2024-12-31T11:17:08Z","tX":542,"tY":354,"tags":{"addr:city":"Königsbrunn","addr:postcode":"86343","addr:street":"Königsallee","capacity":"11","caravans":"no","fee":"yes","maxstay":"3 days","name":"Stellplatz Königsallee","permanent_camping":"no","power_supply":"yes","power_supply:fee":"yes","sanitary_dump_station":"yes","shower":"no","toilets":"no","website":"https://www.koenigsbrunn.de/rathaus-buergerservice/staedtische-einrichtungen-von-m-z/wohnmobilstellplatz"}},"1072258391":{"location":[48.2723923,10.8819475],"ct":"DE","tp":"SD","ts":"2022-06-22T10:43:01Z","tX":542,"tY":354,"tags":{"access":"yes","fee":"no","opening_hours":"24/7","operator":"Stadt Königsbrunn","water_point":"no"}},"2518240787":{"location":[48.3695965,10.8780433],"ct":"DE","tp":"SD","ts":"2023-12-31T11:34:36Z","tX":542,"tY":354,"tags":{"access":"yes","fee":"no","sanitary_dump_station:accepted":"black_water","water_point":"yes","water_point:fee":"yes","wikimedia_commons":"File:Motorhome_Stopover_-_Germany,_Augsburg.JPG"}},"11938939299":{"location":[48.2320995,10.5902238],"ct":"DE","tp":"CR","ts":"2024-11-07T08:48:42Z","tX":542,"tY":354,"tags":{"addr:city":"Walkertshofen","addr:housenumber":"22","addr:postcode":"86877","addr:street":"Ahornring","name":"Garagenpark Stauden"}}}