{"5824762":{"location":[48.1459958,10.5761485],"ct":"DE","tp":"CS","ts":"2017-08-16T08:31:14Z","tX":542,"tY":355,"tags":{"name":"Campingplatz Settele","url":"http://www.wohnmobilpark-markt-wald.de"}},"102718503":{"location":[48.0305526,10.8852412],"ct":"DE","tp":"CS","ts":"2025-04-26T19:27:20Z","tX":542,"tY":355,"tags":{"addr:city":"Landsberg am Lech","addr:country":"DE","addr:housenumber":"1","addr:postcode":"86899","addr:street":"Pössinger Au","caravans":"yes","dog":"yes","email":"info@camping-landsberg.com","fax":"+49 8191 21406","fee":"yes","name":"Campingplatz Landsberg am Lech","phone":"+49 8191 47505","power_supply":"yes","tents":"yes","website":"https://www.camping-landsberg.com/"}},"166615147":{"location":[48.0245656,10.5987934],"ct":"DE","tp":"CS","ts":"2025-06-17T14:59:40Z","tX":542,"tY":355,"tags":{"addr:city":"Bad Wörishofen","addr:country":"DE","addr:housenumber":"4","addr:postcode":"86825","addr:street":"Walter-Schulz-Straße","caravans":"yes","name":"Kur- & Vitalcamping","phone":"+49 8247 9973735","tents":"yes","website":"https://www.kurcamping-bad-woerishofen.de/"}},"321893610":{"location":[48.0201045,10.5916908],"ct":"DE","tp":"CR","ts":"2025-04-03T09:35:30Z","tX":542,"tY":355,"tags":{"addr:city":"Bad Wörishofen","addr:country":"DE","addr:postcode":"86825","addr:street":"Thermenallee","bakery_service":"yes","capacity":"50","caravan_site":"motorhome_stopover","caravan_site:type":"swimming_pool","caravans":"no","charge":"16.60 EUR","charge:description":"13 EUR +1.80 EUR/pp kurtaxe II","check_out":"12:00","description":"Anmeldung und Bezahlen an der Saunakasse 10:00-22:00 Uhr","dog":"leashed","fee":"yes","internet_access":"no","maxlength":"8","name":"Reisemobilpark der Therme Bad Wörishofen","opening_hours":"24/7","opening_hours:toilets":"08:00-22:00","phone":"+49 8247 399302","power_supply":"yes","power_supply:fee":"no","reservation":"no","sanitary_dump_station":"yes","tents":"no","water_point":"yes","website":"https://www.therme-badwoerishofen.de/uebernachtungen/reisemobilpark/"}},"476707621":{"location":[48.0558819,10.8723045],"ct":"DE","tp":"CR","ts":"2023-12-08T16:00:24Z","tX":542,"tY":355,"tags":{"fee":"yes","name":"Waitzinger Wiese","operator":"Stadt Landsberg","power_supply":"yes","sanitary_dump_station":"yes","wikimedia_commons":"File:Motorhome Stopover - Germany, Landsberg am Lech.jpg"}},"516054760":{"location":[48.1460747,10.5751678],"ct":"DE","tp":"CR","ts":"2022-06-06T09:08:07Z","tX":542,"tY":355,"tags":{"capacity":"10","contact:email":"mail@wohnmobilpark-markt-wald.de","contact:phone":"+49 8262 1429","contact:website":"https://www.wohnmobilpark-markt-wald.de/wohnmobilpark/","dog":"yes","fee":"yes","name":"Wohnmobilpark Settele","operator":"Familie Settele","power_supply":"yes"}},"4701906468":{"location":[48.0563346,10.8722476],"ct":"DE","tp":"SD","ts":"2018-04-29T19:35:53Z","tX":542,"tY":355,"tags":{"fee":"no","name":"Sani Service Station","operator":"Stadt Landsberg","water_point":"yes"}},"5038430990":{"location":[48.14557,10.5754593],"ct":"DE","tp":"SD","ts":"2017-08-16T08:21:01Z","tX":542,"tY":355,"tags":{"sanitary_dump_station:chemical_toilet":"yes","sanitary_dump_station:fee":"yes","sanitary_dump_station:gravity":"yes","sanitary_dump_station:grey_water":"yes","sanitary_dump_station:suction":"no"}},"5454068121":{"location":[48.0199168,10.5911714],"ct":"DE","tp":"SD","ts":"2024-04-10T17:05:16Z","tX":542,"tY":355,"tags":{"access":"yes","operator":"Therme Wörrishofen","water_point":"yes"}}}