{"2243992":{"location":[47.5917929,10.7699536],"ct":"DE","tp":"CS","ts":"2022-01-26T17:06:12Z","tX":542,"tY":357,"tags":{"addr:city":"Schwangau","addr:country":"DE","addr:housenumber":"151","addr:postcode":"87645","addr:street":"Münchener Straße","caravans":"yes","contact:instagram":"https://www.instagram.com/campingplatz_bannwaldsee/","dog":"yes","email":"info@camping-bannwaldsee.de","fax":"+49 8362 930020","internet_access":"wlan","internet_access:access":"customers","internet_access:fee":"no","name":"Camping Bannwaldsee","phone":"+49 8362 93000","power_supply":"yes","stars":"4","tents":"yes","website":"https://www.camping-bannwaldsee.de/","wheelchair":"yes"}},"25501156":{"location":[47.5974258,10.7372563],"ct":"DE","tp":"CS","ts":"2024-09-17T20:56:54Z","tX":542,"tY":357,"tags":{"addr:city":"Schwangau","addr:country":"DE","addr:housenumber":"81","addr:postcode":"87645","addr:street":"Seestraße","addr:suburb":"Brunnen","caravans":"yes","dog":"yes","drinking_water":"yes","email":"info@camping-brunnen.de","fax":"+49 8362 8630","internet_access":"wlan","internet_access:fee":"yes","name":"Camping Brunnen","phone":"+49 8362 8273","power_supply":"yes","sanitary_dump_station":"yes","shower":"yes","source":"website","stars":"5","tents":"yes","toilets":"yes","website":"https://www.camping-brunnen.de/","wheelchair":"yes"}},"26598670":{"location":[47.6004508,10.6845775],"ct":"DE","tp":"CS","ts":"2024-12-10T19:24:17Z","tX":542,"tY":357,"tags":{"addr:city":"Füssen","addr:country":"DE","addr:housenumber":"17","addr:postcode":"87629","addr:street":"Fischerbichl","bbq":"no","cabins":"yes","capacity:caravans":"377","caravans":"yes","dog":"yes","drinking_water":"yes","email":"info@camping-hopfensee.com","fax":"+49 8362 917720","fee":"yes","internet_access":"wlan","internet_access:fee":"yes","lit":"yes","motor_vehicle":"yes","motorhome":"yes","name":"Camping Hopfensee","note":"keine Zeltwiese vorhanden","nudism":"no","operator":"Camping Hopfensee GmbH","phone":"+49 8362 917710","power_supply":"yes","reservation":"recommended","sanitary_dump_station":"customers","shower":"yes","source":"website","stars":"5","tents":"no","toilets":"yes","washing_machine":"yes","website":"https://www.camping-hopfensee.de/"}},"38549140":{"location":[47.7124602,10.8169984],"ct":"DE","tp":"CS","ts":"2024-07-13T17:10:43Z","tX":542,"tY":357,"tags":{"addr:city":"Lechbruck am See","addr:country":"DE","addr:housenumber":"6","addr:postcode":"86983","addr:street":"Via Claudia","cabins":"yes","caravans":"yes","drinking_water":"yes","email":"info@via-claudia-camping.de","fax":"+49 8862 7570","internet_access":"wlan","internet_access:fee":"yes","landuse":"recreation_ground","name":"Via Claudia Camping","operator":"Via Claudia Camping Company Ltd.","phone":"+49 8862 8426","power_supply":"yes","sanitary_dump_station":"yes","shower":"yes","source":"website","stars":"4","tents":"yes","toilets":"yes","website":"https://www.via-claudia-camping.de/"}},"38933762":{"location":[47.6152939,10.7250068],"ct":"DE","tp":"CS","ts":"2024-07-27T21:07:18Z","tX":542,"tY":357,"tags":{"caravans":"yes","check_date:internet_access":"2021-08-26","drinking_water":"yes","email":"campingplatz-magdalena@t-online.de","fax":"+49 8362 941333","internet_access":"wlan","internet_access:fee":"yes","landuse":"recreation_ground","name":"Campingplatz Magdalena","operator":"Familie Eisenmann","phone":"+49 8362 4931","power_supply":"yes","sanitary_dump_station":"yes","shower":"yes","tents":"yes","toilets":"yes","website":"https://www.sonnen-lage.de/camping-magdalena","wheelchair":"yes"}},"38934077":{"location":[47.6425835,10.7325918],"ct":"DE","tp":"CS","ts":"2024-05-07T19:45:57Z","tX":542,"tY":357,"tags":{"addr:housenumber":"1","addr:street":"Tiefental","area":"yes","caravans":"yes","name":"Campingplatz Seewang","phone":"+49 8367 406","tents":"yes","website":"https://www.camping-forggensee.de"}},"40772072":{"location":[47.6096197,10.6683978],"ct":"DE","tp":"CS","ts":"2022-09-23T08:27:43Z","tX":542,"tY":357,"tags":{"addr:city":"Füssen","addr:housenumber":"42","addr:postcode":"87629","addr:street":"Uferstraße","addr:suburb":"Hopfen am See","caravans":"yes","dog":"yes","name":"Camping Guggemos","operator":"Familie Franz Guggemos","phone":"+49 8362 3334","power_supply":"yes","tents":"yes","website":"https://haus-guggemos.de/"}},"83187537":{"location":[47.5624382,10.5778495],"ct":"DE","tp":"CS","ts":"2023-10-30T19:36:26Z","tX":542,"tY":357,"tags":{"addr:city":"Pfronten","addr:country":"DE","addr:housenumber":"184","addr:postcode":"87459","addr:street":"Tiroler Straße","addr:suburb":"Steinach","caravans":"yes","name":"Campingplatz Pfronten","phone":"+49 8363 8353","tents":"yes","website":"https://www.camping-pfronten.de/"}},"150183438":{"location":[47.5743209,10.7527879],"ct":"DE","tp":"CS","ts":"2025-01-03T13:17:09Z","tX":542,"tY":357,"tags":{"access":"permit","addr:city":"Schwangau","addr:country":"DE","addr:housenumber":"1","addr:postcode":"87645","addr:street":"Am Luss","alt_name":"Falkenlager","caravans":"no","description":"Haus und Zeltplatz liegen direkt an der Tegelberg-Talstation, das Schloss Neuschwanstein ist von hier auf einem schönen Wanderweg in 25 Minuten zu erreichen. Der Forgensee oder Bannwaldsee ist ebenfalls in 20-30 Minuten fußläufig erreichbar.","email":"info@falkencamp-schwangau.de","fax":"+49 8362 88197","fee":"yes","group_only":"yes","internet_access":"wlan","internet_access:fee":"no","name":"Zeltplatz Falkencamp","phone":"+49 8362 8276","static_caravans":"no","tents":"yes","website":"http://www.falkencamp-schwangau.de/"}},"164701439":{"location":[47.6458143,10.7657242],"ct":"DE","tp":"PK","ts":"2024-05-15T10:26:13Z","tX":542,"tY":357,"tags":{"motorhome":"yes","parking":"surface"}},"187740662":{"location":[47.7229703,10.5635995],"ct":"DE","tp":"CR","ts":"2024-06-03T10:32:38Z","tX":542,"tY":357,"tags":{"access":"yes","addr:city":"Wald","addr:postcode":"87616","addr:street":"Am Sportplatz","capacity":"10","caravans":"no","description":"Frischwasser und Entsorgung am Wertstoffhof","fee":"yes","internet_access":"no","name":"Wohnmobilplatz Wald","power_supply":"no","sanitary_dump_station":"no","surface":"pebblestone","tent":"no","tents":"no","website":"https://www.wald-allgaeu.de/cms/tourismus/wohnmobil-stellplaetze/"}},"197708798":{"location":[47.5980835,10.551877],"ct":"DE","tp":"CR","ts":"2024-04-14T17:28:46Z","tX":542,"tY":357,"tags":{"addr:city":"Pfronten","addr:country":"DE","addr:housenumber":"7","addr:postcode":"87459","addr:street":"Am Wiesele","capacity":"44","caravans":"no","charge":"14 €","check_date:internet_access":"2021-10-23","contact:email":"info@wohnmobilstellplatz-pfronten.de","contact:phone":"+49 8363 6437","contact:website":"https://www.wohnmobilstellplatz-pfronten.de/","description":"Der Platz bsitrzt ein Abstempelkarten System. Ab der 10 Übernachtung ist die 11. Kostenlos. Bezahlt wird in Bar in der Rezeption.","dog":"yes","dryer":"yes","fee":"yes","internet_access":"wlan","internet_access:fee":"no","name":"Wohnmobilstellplatz Pfronten","operator":"Familie Wohlfart","power_supply":"yes","sanitary_dump_station":"yes","sanitary_dump_station:chemical_toilet":"yes","sanitary_dump_station:grey_water":"yes","shower":"yes","tents":"no","toilets":"yes","washing_machine":"yes","water_point":"yes"}},"311029289":{"location":[47.5920785,10.7733561],"ct":"DE","tp":"CR","ts":"2023-08-10T01:36:33Z","tX":542,"tY":357,"tags":{"capacity":"24","name":"Wohnmobilpark Schwangau","power_supply":"yes","website":"https://camping-bannwaldsee.de/wohnmobilpark-schwangau/"}},"318567357":{"location":[47.7158388,10.8210594],"ct":"DE","tp":"CR","ts":"2024-08-19T12:28:20Z","tX":542,"tY":357,"tags":{"addr:city":"Lechbruck am See","addr:housenumber":"6","addr:postcode":"86983","addr:street":"Via Claudia","capacity":"49","caravans":"no","dog":"yes","drinking_water":"yes","email":"info@via-claudia-camping.de","fax":"+49 8862 7570","fee":"yes","internet_access":"wlan","internet_access:fee":"yes","name":"Wohnmobilstellplatz \"Lechbruck am See\"","phone":"+49 8862 8426","power_supply":"yes","reservation":"yes","sanitary_dump_station":"customers","shower":"yes","tents":"no","toilets":"yes","website":"https://www.via-claudia-camping.de/"}},"353263228":{"location":[47.5816611,10.7011083],"ct":"DE","tp":"CR","ts":"2021-04-21T15:39:59Z","tX":542,"tY":357,"tags":{"addr:city":"Füssen","addr:country":"DE","addr:housenumber":"9","addr:postcode":"87629","addr:street":"Abt-Hafner-Straße","capacity":"90","contact:email":"info@wohnmobilplatz.de","contact:fax":"+49 8362 925829","contact:phone":"+49 8362 940104","contact:website":"https://wohnmobilplatz.de","dog":"yes","dryer":"yes","fee":"yes","internet_access":"wlan","internet_access:fee":"no","lit":"yes","name":"Wohnmobilplatz Füssen Camper's Stop","opening_hours":"24/7","operator":"Hendrik Reichel","power_supply":"yes","sanitary_dump_station":"yes","sanitary_dump_station:chemical_toilet":"yes","sanitary_dump_station:grey_water":"yes","shower":"yes","surface":"pebblestone","toilets":"yes","washing_machine":"yes","water_point":"yes"}},"441411270":{"location":[47.5819769,10.7021081],"ct":"DE","tp":"CR","ts":"2021-10-22T20:37:35Z","tX":542,"tY":357,"tags":{"addr:city":"Füssen","addr:country":"DE","addr:housenumber":"7a","addr:postcode":"87629","addr:street":"Abt-Hafner-Straße","capacity":"42","contact:email":"info@wohnmobilpark-fuessen.de","contact:phone":"+49 8362 9262180","contact:website":"https://wohnmobilpark-fuessen.de/","dog":"yes","dryer":"yes","fee":"yes","internet_access":"yes","internet_access:fee":"no","lit":"yes","name":"Wohnmobilpark Füssen","opening_hours":"24/7","operator":"Ljudmyla Caliskanerin","power_supply":"cee_17_blue","sanitary_dump_station:chemical_toilet":"yes","sanitary_dump_station:grey_water":"yes","shower":"yes","surface":"pebblestone","tents":"no","toilets":"yes","washing_machine":"yes","water_point":"yes"}},"497849243":{"location":[47.6432831,10.7302721],"ct":"DE","tp":"CR","ts":"2024-08-19T12:28:20Z","tX":542,"tY":357,"tags":{"addr:city":"Rieden am Forggensee","addr:housenumber":"1","addr:postcode":"87669","addr:street":"Tiefental","caravan":"no","caravans":"no","description":"Ganzjährig offen - 13 Stellplätze vor der Schranke - Mittagsruhe von 12:00 - 14:00 Uhr","description:de":"Wohnmobilstellplätze Campingplatz Seewang","dog":"yes","internet_access":"yes","motorhome":"yes","name":"Stellplatz am Seewang","operator":"Campingplatz Seewang","sanitary_dump_station":"yes","tents":"no"}},"634370381":{"location":[47.5821247,10.7034516],"ct":"DE","tp":"CR","ts":"2021-03-24T11:39:02Z","tX":542,"tY":357,"tags":{"addr:city":"Füssen","addr:country":"DE","addr:housenumber":"1","addr:postcode":"87629","addr:street":"Abt-Hafner-Straße","capacity":"33","contact:email":"info@sportstudio-fuessen.de","contact:fax":"+49 8362 921291","contact:phone":"+49 8362 921290","contact:website":"https://www.fuessen-mobil.de/","dog":"yes","fee":"yes","lit":"yes","name":"Füssen Mobil","power_supply":"yes","sanitary_dump_station":"yes","sanitary_dump_station:chemical_toilet":"yes","sanitary_dump_station:grey_water":"yes","shower":"yes","toilets":"yes","water_point":"yes"}},"687051447":{"location":[47.590494,10.7685038],"ct":"DE","tp":"SD","ts":"2015-04-29T01:02:07Z","tX":542,"tY":357,"tags":{"sanitary_dump_station:accepted":"black_water;tank_chemicals"}},"1323899307":{"location":[47.6428518,10.5690821],"ct":"DE","tp":"CS","ts":"2023-06-13T09:51:13Z","tX":542,"tY":357,"tags":{"caravans":"no","email":"info@jugendzeltplatz.com","group_only":"yes","name":"Jugendzeltplatz Paulsteiner","tents":"yes"}},"2371153034":{"location":[47.6506275,10.7373737],"ct":"DE","tp":"CS","ts":"2020-01-12T19:03:56Z","tX":542,"tY":357,"tags":{"caravans":"no","group_only":"yes","name":"Mangmühlenzeltplatz","operator":"DPSG Diözesanverband Augsburg","scout":"yes","tents":"yes","website":"https://www.dpsg-augsburg.de/haeuser-und-zeltplaetze/mangmuehlenzeltplatz/"}},"11640428232":{"location":[47.6530286,10.5738922],"ct":"DE","tp":"CS","ts":"2024-02-19T09:38:40Z","tX":542,"tY":357,"tags":{"name":"Allgäuer Hof","website":"https://www.kleinanzeigen.de/pro/allgaeuer-hof"}},"10039132406":{"location":[47.5587215,10.7404983],"ct":"DE","tp":"CR","ts":"2025-01-04T15:38:02Z","tX":542,"tY":357,"tags":{"charge":"15.00 EUR / day","drinking_water":"yes","fee":"yes","name":"Parkplatz Königsschlösser P2","power_supply":"no","sanitary_dump_station":"no","toilets":"no"}},"4712132833":{"location":[47.5817601,10.7010268],"ct":"DE","tp":"SD","ts":"2021-10-10T14:51:27Z","tX":542,"tY":357,"tags":{"fee":"no"}},"5420646156":{"location":[47.5981446,10.5520971],"ct":"DE","tp":"SD","ts":"2022-05-28T17:30:02Z","tX":542,"tY":357,"tags":{"access":"permit","description":"Fremdentsorgung 2€","fee":"no"}},"6545913217":{"location":[47.597548,10.7367687],"ct":"DE","tp":"SD","ts":"2019-06-13T20:22:12Z","tX":542,"tY":357,"tags":{"access":"customers","fee":"no","sanitary_dump_station:basin":"yes"}},"9162667517":{"location":[47.5824068,10.7018413],"ct":"DE","tp":"SD","ts":"2021-10-10T14:51:27Z","tX":542,"tY":357,"tags":{}},"9909714787":{"location":[47.5969374,10.7378626],"ct":"DE","tp":"SD","ts":"2024-06-03T11:59:47Z","tX":542,"tY":357,"tags":{"access":"customers","operator":"Camping Brunnen"}},"12229696533":{"location":[47.591962,10.7729428],"ct":"DE","tp":"SD","ts":"2024-10-06T13:49:15Z","tX":542,"tY":357,"tags":{}},"12409399603":{"location":[47.6003374,10.6845325],"ct":"DE","tp":"SD","ts":"2024-12-10T12:52:31Z","tX":542,"tY":357,"tags":{"fee":"no"}},"12409399606":{"location":[47.601715,10.6834139],"ct":"DE","tp":"SD","ts":"2024-12-10T12:52:31Z","tX":542,"tY":357,"tags":{"water_point":"yes"}},"12409399607":{"location":[47.6013524,10.6836284],"ct":"DE","tp":"SD","ts":"2024-12-10T12:52:31Z","tX":542,"tY":357,"tags":{"access":"customers"}},"12409399608":{"location":[47.6003454,10.6845581],"ct":"DE","tp":"SD","ts":"2024-12-10T12:52:31Z","tX":542,"tY":357,"tags":{"fee":"yes"}}}