{"29995676":{"location":[47.4775264,10.7241999],"ct":"AT","tp":"CS","ts":"2022-11-13T22:22:43Z","tX":542,"tY":358,"tags":{"addr:city":"Reutte","addr:country":"AT","addr:housenumber":"53","addr:postcode":"6600","addr:street":"Ehrenbergstraße","caravans":"yes","email":"info@camping-reutte.com","name":"Camping Reutte","phone":"+43 676 35 08 860","shower":"yes","source":"website","tents":"yes","toilets":"yes","website":"https://www.camping-reutte.com/"}},"38898737":{"location":[47.4027197,10.8875532],"ct":"AT","tp":"CS","ts":"2025-01-28T06:01:10Z","tX":542,"tY":358,"tags":{"addr:city":"Lermoos","addr:country":"AT","addr:housenumber":"21","addr:postcode":"6631","addr:street":"Garmischer Straße","caravans":"yes","email":"info@camping-lermoos.com","name":"Happy Camp Lermoos","operator":"Happy Camp KG","phone":"+43 5673 2980","shower":"yes","source":"website","tents":"yes","toilets":"yes","website":"https://www.camping-lermoos.com/"}},"38931577":{"location":[47.4877497,10.8409077],"ct":"AT","tp":"CS","ts":"2023-06-04T19:15:09Z","tX":542,"tY":358,"tags":{"addr:city":"Breitenwang","addr:housenumber":"13","addr:postcode":"6600","addr:street":"Am Plansee","caravans":"yes","dryer":"yes","email":"info@camping-plansee.at","fax":"+43 5672 63372","name":"Campingplatz Sennalpe - Plannsee","phone":"+43 5672 78115","power_supply":"yes","shower":"yes","source":"website","tents":"yes","toilets":"yes","washing_machine":"yes","website":"https://www.camping-plansee.com/camping-sennalpe.html","wheelchair":"limited"}},"38931580":{"location":[47.4744444,10.7861454],"ct":"AT","tp":"CS","ts":"2022-09-02T07:17:12Z","tX":542,"tY":358,"tags":{"addr:city":"Breitenwang","addr:country":"AT","addr:postcode":"6600","addr:street":"Am Plansee","caravans":"yes","dog":"yes","dryer":"yes","email":"info@camping-plansee.at","name":"Campingplatz Seespitz - Plansee","phone":"+43 5672 78121","power_supply":"yes","shower":"yes","source":"geoimage.at","tents":"yes","toilets":"yes","washing_machine":"yes","website":"https://www.camping-plansee.com/camping-seespitz.html"}},"38932303":{"location":[47.4557955,10.7590537],"ct":"AT","tp":"CS","ts":"2023-07-16T14:48:04Z","tX":542,"tY":358,"tags":{"addr:city":"Heiterwang","addr:country":"AT","addr:housenumber":"1","addr:postcode":"6611","addr:street":"Fischer am See","caravans":"yes","dog":"yes","email":"camping@fischeramsee.at","fax":"+43 5674 5260","internet_access":"yes","name":"Camping Heiterwanger See Fischer am See","phone":"+43 664 9237289","sauna":"yes","shower":"yes","source":"website","tents":"yes","toilets":"yes","website":"https://www.camping-heiterwangersee.at/"}},"46173445":{"location":[47.375173,10.8923654],"ct":"AT","tp":"CS","ts":"2023-11-04T17:19:59Z","tX":542,"tY":358,"tags":{"addr:city":"Biberwier","addr:country":"AT","addr:housenumber":"15","addr:postcode":"6633","addr:street":"Marienbergweg","caravans":"yes","email":"info@alpencamp-marienberg.at","fax":"+43 5673 20238","name":"Alpencamp Marienberg","phone":"+43 5673 20237","sanitary_dump_station":"yes","shower":"yes","source":"extrapolation","tents":"yes","toilets":"yes","website":"https://www.alpencamp-marienberg.at/","wheelchair":"limited"}},"82718119":{"location":[47.3417177,10.8160105],"ct":"AT","tp":"CS","ts":"2022-09-02T14:01:59Z","tX":542,"tY":358,"tags":{"addr:city":"Nassereith","addr:country":"AT","addr:housenumber":"475","addr:postcode":"6465","addr:street":"Fernstein","caravans":"yes","email":"welcome@camping-fernsteinsee.at","fax":"+43 5265 52174","fee":"yes","internet_access":"yes","name":"Romantik Camping Fernsteinsee","operator":"Schloss Fernsteinsee GmbH","phone":"+43-5265-5210","sauna":"yes","shower":"yes","tents":"yes","toilets":"yes","website":"https://www.camping-fernsteinsee.at/"}},"121901107":{"location":[47.4066495,10.8699839],"ct":"AT","tp":"CS","ts":"2025-01-27T11:39:41Z","tX":542,"tY":358,"tags":{"addr:city":"Lermoos","addr:country":"AT","addr:housenumber":"16","addr:postcode":"6631","addr:street":"Gries","caravans":"yes","email":"info@laerchenhof-lermoos.at","name":"Camping Lermoos","operator":"Hotel Lärchenhof","phone":"+43 5673 2197","shower":"yes","source":"website","tents":"yes","toilets":"yes","website":"https://www.laerchenhof-lermoos.at/de/camping/camping-lermoos/4-0.html"}},"124694667":{"location":[47.4703478,10.6884583],"ct":"AT","tp":"CS","ts":"2023-04-24T20:15:37Z","tX":542,"tY":358,"tags":{"addr:city":"Höfen","addr:housenumber":"4","addr:postcode":"6604","addr:street":"Lechau","caravans":"yes","email":"oz123440@googlemail.com","name":"Campingplatz Segelflugverein Ausserfern","phone":"+43 676 3932540","shower":"yes","tents":"yes","toilets":"yes","website":"https://www.segelflugvereinausserfern.at/fliegerurlaub/campingplatz/"}},"141859602":{"location":[47.5101146,10.5551536],"ct":"AT","tp":"CS","ts":"2022-09-25T14:58:23Z","tX":542,"tY":358,"tags":{"addr:city":"Grän","addr:country":"AT","addr:housenumber":"13","addr:postcode":"6673","addr:street":"Engetalstraße","caravans":"yes","name":"Comfortcamp Grän im Tannheimertal","operator":"Comfortcamp Grän GmbH","shower":"yes","tents":"yes","toilets":"yes","website":"https://www.comfortcamp.eu/campingplatz.html"}},"180672092":{"location":[47.3104919,10.8549189],"ct":"AT","tp":"CS","ts":"2023-11-04T17:20:14Z","tX":542,"tY":358,"tags":{"addr:city":"Nassereith","addr:country":"AT","addr:housenumber":"325","addr:place":"Roßbach","addr:postcode":"6465","addr:street":"Roßbach","caravans":"yes","email":"rainer.ruepp@gmx.at","fax":"+43 5265 51 54","name":"Camping Rossbach","phone":"+43 5265 51 54","restaurant":"yes","shower":"yes","swimming_pool":"yes","tents":"yes","toilets":"yes","website":"https://www.campingrossbach.at/"}},"311569645":{"location":[47.4904571,10.5683984],"ct":"AT","tp":"CS","ts":"2023-03-28T07:40:01Z","tX":542,"tY":358,"tags":{"addr:city":"Grän","addr:country":"AT","addr:housenumber":"12","addr:place":"Haldensee","addr:postcode":"6673","addr:street":"Seewiesenweg","caravans":"yes","name":"Naturcamping Haldensee","shower":"yes","tents":"yes","toilets":"yes","website":"http://www.tannheimertal.org"}},"424773125":{"location":[47.4499783,10.7480757],"ct":"AT","tp":"CS","ts":"2023-04-24T20:15:37Z","tX":542,"tY":358,"tags":{"addr:city":"Heiterwang","addr:housenumber":"4","addr:postcode":"6611","addr:street":"Mühle","caravans":"yes","email":"sunnawirt@aon.at","fee":"yes","name":"Camping Sunnawirt","operator":"Sunnawirt","phone":"+43 676 4535061","power_supply":"yes","sanitary_dump_station":"yes","shower":"yes","tents":"yes","toilets":"yes","website":"https://www.sunnawirt.at/camping/"}},"965948862":{"location":[47.4413323,10.6691315],"ct":"AT","tp":"CS","ts":"2022-09-01T13:30:50Z","tX":542,"tY":358,"tags":{"addr:city":"Ehenbichl","addr:housenumber":"7","addr:postcode":"6600","addr:street":"Rieden","caravans":"yes","name":"Lechcamping Spirkenhof","phone":"+43 676 88344104","tents":"yes","website":"https://lechcamping-spirkenhof.business.site/"}},"10946174128":{"location":[47.4867709,10.841642],"ct":"AT","tp":"SD","ts":"2023-06-02T13:21:35Z","tX":542,"tY":358,"tags":{"water_point":"yes"}}}