{"75529145":{"location":[47.0529375,10.7497657],"ct":"AT","tp":"CS","ts":"2023-08-25T18:29:21Z","tX":542,"tY":359,"tags":{"addr:city":"Kaunertal","addr:housenumber":"30","addr:postcode":"6524","addr:street":"Platz","caravans":"yes","name":"Campingplatz im Kaunertal","phone":"+43 5475 316","shower":"yes","source":"https://www.camping-kaunertal.at","tents":"yes","toilets":"yes","website":"https://www.camping-kaunertal.at","wheelchair":"limited"}},"154391497":{"location":[47.2282829,10.7424947],"ct":"AT","tp":"CS","ts":"2024-07-26T19:09:58Z","tX":542,"tY":359,"tags":{"addr:city":"Imst","addr:housenumber":"62","addr:postcode":"6460","addr:street":"Langgasse","caravans":"yes","drinking_water":"yes","email":"info@campingfink.tirol","name":"Campingpark FiNK","phone":"+43 5412 66293","power_supply":"yes","sanitary_dump_station":"yes","shower":"yes","source":"GeoImage.at","tents":"yes","toilets":"yes","website":"https://campingfink.tirol/","wheelchair":"yes"}},"229501896":{"location":[47.1429657,10.7461253],"ct":"AT","tp":"CS","ts":"2025-06-14T09:32:31Z","tX":542,"tY":359,"tags":{"access":"yes","addr:city":"Jerzens","addr:housenumber":"206","addr:postcode":"6474","addr:street":"Niederhof","caravans":"yes","drinking_water":"yes","email":"info@mountain-camp.at","name":"Mountain Camp","phone":"+43 676 9448804","power_supply":"yes","sanitary_dump_station":"yes","shower":"yes","tents":"yes","toilets":"yes","website":"https://mountain-camp.at/"}},"236464052":{"location":[47.0557084,10.6572954],"ct":"AT","tp":"CS","ts":"2024-07-03T16:43:57Z","tX":542,"tY":359,"tags":{"addr:city":"Ried im Oberinntal","addr:country":"AT","addr:housenumber":"37","addr:place":"Ried i.O.","addr:postcode":"6531","addr:street":"Ried","caravans":"yes","contact:phone":"+43 5472 6025","contact:website":"https://www.tirolcamping.at/","name":"Camping Dreiländereck","shower":"yes","tents":"yes","toilets":"yes"}},"237123728":{"location":[47.0802581,10.6596843],"ct":"AT","tp":"CS","ts":"2024-07-25T13:46:12Z","tX":542,"tY":359,"tags":{"addr:city":"Prutz","addr:housenumber":"22","addr:postcode":"6522","addr:street":"Pontlatzstraße","caravans":"yes","drinking_water":"yes","email":"info@aktiv-camping.at","fax":"+43 5472 26484","internet_access":"wlan","name":"Aktiv Camping Prutz","phone":"+43 5472 2648","power_supply":"yes","sanitary_dump_station":"yes","shower":"yes","tents":"yes","toilets":"yes","website":"https://www.aktiv-camping.at/","wheelchair":"yes"}},"352339881":{"location":[47.1425875,10.5610424],"ct":"AT","tp":"CS","ts":"2025-06-10T19:35:44Z","tX":542,"tY":359,"tags":{"addr:city":"Landeck","addr:country":"AT","addr:housenumber":"2","addr:postcode":"6500","addr:street":"Bruggfeldstraße","caravans":"yes","name":"Camping Riffler","phone":"+43 660 6500880","shower":"yes","tents":"yes","toilets":"yes","website":"https://www.camping-riffler.at/"}},"469666423":{"location":[47.2396041,10.746021],"ct":"AT","tp":"CS","ts":"2024-06-30T17:10:53Z","tX":542,"tY":359,"tags":{"addr:city":"Imst","addr:housenumber":"10","addr:postcode":"6460","addr:street":"Schwimmbadweg","caravans":"yes","email":"info@camping-imst.at","fee":"yes","internet_access":"wlan","name":"Aktiv Camping Imst","operator":"Gerhard Riha","payment:cash":"yes","phone":"+43 5412 21355","shower":"yes","tents":"yes","toilets":"yes","website":"https://www.camping-imst.at/"}}}