{"76859833":{"location":[46.6160087,10.6986667],"ct":"IT","tp":"CS","ts":"2020-02-29T16:03:00Z","tX":542,"tY":361,"tags":{"addr:city":"Laas - Lasa","addr:city:de":"Laas","addr:city:it":"Lasa","addr:housenumber":"27","addr:postcode":"39023","addr:street":"Kugelgasse","description":"Tent 8,50 €, Person 7,50-8,50 €","email":"info@camping-badlerhof.it","fax":"+39 0473 628011","internet_access":"wlan","internet_access:fee":"no","name":"Camping Badlerhof","operator":"Familie Hellrigl","phone":"+39 0473 628011","website":"https://www.camping-badlerhof.it/","wheelchair":"limited"}},"98650563":{"location":[46.6738323,10.569704],"ct":"IT","tp":"CS","ts":"2024-06-30T17:10:54Z","tX":542,"tY":361,"tags":{"addr:city":"Glurns - Glorenza","addr:city:de":"Glurns","addr:city:it":"Glorenza","addr:housenumber":"3","addr:postcode":"39020","addr:street":"Wiesenweg - Via dei Prati","addr:street:de":"Wiesenweg","addr:street:it":"Via dei Prati","email":"info@gloriavallis.it","fax":"+39 0473 845767","internet_access":"wlan","internet_access:fee":"yes","name":"Camping Gloria Vallis","operator":"Familie Längerer","phone":"+39 0473 835160","stars":"4","website":"https://www.gloriavallis.it/"}},"154606439":{"location":[46.68418,10.5509298],"ct":"IT","tp":"CS","ts":"2019-03-24T20:52:08Z","tX":542,"tY":361,"tags":{"addr:city":"Mals - Malles Venosta","addr:city:de":"Mals","addr:city:it":"Malles Venosta","addr:housenumber":"51","addr:postcode":"39024","addr:street":"Bahnhofstraße - Via della Stazione","addr:street:de":"Bahnhofstraße","addr:street:it":"Via della Stazione","dog":"yes","email":"info@campingmals.it","name":"Camping Mals","phone":"+39 0473 835179","website":"https://www.campingmals.it/"}},"189033620":{"location":[46.7542576,10.7836246],"ct":"IT","tp":"CR","ts":"2024-01-17T13:16:06Z","tX":542,"tY":361,"tags":{"capacity":"90","email":"info@caravanpark-schnals.com","fee":"yes","internet_access":"wlan","internet_access:fee":"yes","name":"Caravanpark Schnals - Caravan Park Senales","name:de":"Caravanpark Schnals","name:it":"Caravan Park Senales","phone":"+39 0473662171","power_supply":"yes","source":"https://www.caravanpark-schnals.com/it/campeggio-alto-adige/","toilets:wheelchair":"yes","website":"https://www.caravanpark-schnals.com/","wheelchair":"limited"}},"222941961":{"location":[46.6170752,10.5974481],"ct":"IT","tp":"CS","ts":"2024-09-12T13:29:40Z","tX":542,"tY":361,"tags":{"addr:city":"Prad am Stilfser Joch - Prato allo Stelvio","addr:housenumber":"12","addr:postcode":"39026","addr:street":"Dornweg - Via delle Spine","caravans":"yes","drinking_water":"yes","email":"info@saegemuehle.it","fax":"+39 0473 617120","image":"https://www.saegemuehle.it/uploads/tx_bh/camping_druck_195.jpg","internet_access":"wlan","internet_access:fee":"no","name":"Camping Residence Sägemühle","operator":"Familie Wunderer","phone":"+39 0473 616078","power_supply":"yes","shower":"yes","stars":"4","tents":"yes","toilets":"yes","website":"https://www.saegemuehle.it","wheelchair":"yes"}},"223897228":{"location":[46.6217175,10.8652535],"ct":"IT","tp":"CS","ts":"2023-04-30T19:06:27Z","tX":542,"tY":361,"tags":{"addr:city":"Latsch","addr:housenumber":"4","addr:postcode":"39021","addr:street":"Reichsstraße","drinking_water":"yes","email":"info@camping-latsch.com","fax":"+39 0473 622333","name":"Camping Latsch","phone":"+39 0473 623217","power_supply":"yes","sanitary_dump_station":"yes","website":"https://www.camping-latsch.com/"}},"227195221":{"location":[46.6175026,10.818671],"ct":"IT","tp":"CS","ts":"2022-08-12T15:16:02Z","tX":542,"tY":361,"tags":{"addr:city":"Goldrain","addr:housenumber":"59","addr:postcode":"39021","addr:street":"Vinschgauer Straße - Via Val Venosta","email":"info@camping-goldrain.com","internet_access":"wlan","internet_access:fee":"yes","name":"Camping Goldrain Cevedale","phone":"+39 391 4327283","stars":"4","website":"https://www.camping-goldrain.com/","wheelchair":"yes"}},"288063904":{"location":[46.6246356,10.5919936],"ct":"IT","tp":"CS","ts":"2020-09-04T21:31:39Z","tX":542,"tY":361,"tags":{"addr:city":"Prad am Stilfser Joch - Prato allo Stelvio","addr:city:de":"Prad am Stilfser Joch","addr:city:it":"Prato allo Stelvio","addr:housenumber":"37","addr:postcode":"39026","addr:street":"Kiefernhainweg - Via Pineta","addr:street:de":"Kiefernhainweg","addr:street:it":"Via Pineta","barrier":"fence","email":"kiefernhain@rolmail.net","fax":"+39 0473 617277","internet_access":"wlan","internet_access:fee":"no","name":"Camping Kiefernhain","operator":"Familie Wunderer & Hans Kuntner","phone":"+39 0473 616422","stars":"3","website":"https://www.camping-kiefernhain.it/"}},"1085842002":{"location":[46.6273706,10.7860186],"ct":"IT","tp":"CS","ts":"2022-10-08T08:12:55Z","tX":542,"tY":361,"tags":{"addr:housenumber":"27","addr:street":"Vogelsangstraße - Via Vogelsang","caravans":"yes","email":"info@camping-vogelsang.com","name":"Camping Vogelsang","name:it":"vogelsang","phone":"+39 0473 538095","tents":"yes","website":"https://www.camping-vogelsang.com/"}},"10020912317":{"location":[46.6409147,10.8977067],"ct":"IT","tp":"CR","ts":"2023-12-30T20:48:42Z","tX":542,"tY":361,"tags":{"name":"Ob Kastellbell","name:de":"Ob Kastellbell"}}}