{"26859342":{"location":[46.1663865,10.7498706],"ct":"IT","tp":"CS","ts":"2024-05-30T13:16:32Z","tX":542,"tY":363,"tags":{"fee":"yes","name":"Camping Parco Adamello","phone":"+393381919608","power_supply":"yes","sanitary_dump_station":"yes","shower":"yes","toilets":"yes","website":"https://campingparcoadamello.it"}},"76859843":{"location":[46.1848234,10.7803881],"ct":"IT","tp":"CS","ts":"2023-10-31T01:07:59Z","tX":542,"tY":363,"tags":{"addr:city":"Sant'Antonio di Mavignola","addr:housenumber":"1","addr:postcode":"38086","addr:street":"Viale Dolomiti di Brenta","name":"Camping Fa√®","phone":"+39 0465 507178","website":"https://www.campingfae.it/","wheelchair":"no"}},"379182614":{"location":[46.3096433,10.7361842],"ct":"IT","tp":"CS","ts":"2023-11-09T00:46:29Z","tX":542,"tY":363,"tags":{"addr:city":"Fucine di Ossana","addr:housenumber":"2-4","addr:postcode":"38026","addr:street":"Via di Sotto Pila","caravans":"yes","drinking_water":"yes","email":"info@campingcevedale.it","name":"Cevedale","phone":"+39 0463 751630","shower":"yes","tents":"yes","website":"https://www.campingcevedale.it/"}},"482334495":{"location":[46.2569772,10.5844941],"ct":"IT","tp":"CR","ts":"2023-09-30T08:07:10Z","tX":542,"tY":363,"tags":{"name":"Area Camper Paradiso"}},"984224609":{"location":[46.1855739,10.7794279],"ct":"IT","tp":"SD","ts":"2021-09-17T09:23:24Z","tX":542,"tY":363,"tags":{}},"1172405215":{"location":[46.310543,10.7366682],"ct":"IT","tp":"CS","ts":"2023-08-03T08:45:33Z","tX":542,"tY":363,"tags":{"addr:city":"Fucine di Ossana","addr:housenumber":"30","addr:postcode":"38026","addr:street":"Strada della Fornas","caravans":"yes","email":"info@ilarici.it","fee":"yes","name":"Camping I Larici","static_caravans":"yes","tents":"yes","website":"https://www.ilarici.it/"}},"3082747010":{"location":[46.3156299,10.7735922],"ct":"IT","tp":"CS","ts":"2023-11-09T00:46:38Z","tX":542,"tY":363,"tags":{"addr:city":"Claiano di Pellizzano","addr:housenumber":"3","addr:place":"Claiano","addr:postcode":"38020","caravans":"yes","drinking_water":"yes","email":"info@aigaggi.com","fee":"yes","name":"Agricampeggio Ai Gaggi","phone":"+39 0463 89 00 62","power_supply":"yes","shower":"yes","tents":"yes","toilets":"yes","website":"https://www.aigaggi.com/"}}}