{"12863104":{"location":[45.8780381,10.7659228],"ct":"IT","tp":"CS","ts":"2024-01-18T14:12:25Z","tX":542,"tY":364,"tags":{"access":"customers","addr:city":"Ledro","addr:country":"IT","addr:housenumber":"127","addr:place":"Molina","addr:postcode":"38067","addr:province":"Trento","addr:street":"Via Maffei","caravans":"yes","fee":"yes","name":"Camping Al Sole","phone":"+39 0464 508496","static_caravans":"yes","tents":"no","website":"https://www.campingalsole.it/"}},"14330539":{"location":[45.8803973,10.8609593],"ct":"IT","tp":"CS","ts":"2024-09-13T08:47:24Z","tX":542,"tY":364,"tags":{"access":"customers","addr:city":"Riva del Garda","addr:housenumber":"30/b","addr:postcode":"38066","addr:street":"Via Brione","barrier":"fence","caravans":"yes","email":"info@villasperanza-rivadelgarda.it","fee":"yes","motorhome":"yes","name":"Camping Garda","phone":"+39 0464 552038","power_supply:maxcurrent":"6;16","socket:cee_blue":"yes","tents":"yes","website":"https://www.villasperanza-rivadelgarda.it/"}},"14330540":{"location":[45.8812622,10.8622471],"ct":"IT","tp":"CS","ts":"2024-09-13T08:47:24Z","tX":542,"tY":364,"tags":{"access":"customers","addr:city":"Riva del Garda","addr:housenumber":"32","addr:postcode":"38066","addr:street":"Via Brione","barrier":"fence","caravans":"yes","email":"info@campingbrione.com","fee":"yes","motorhome":"yes","name":"Camping Brione","phone":"+39 0464 520885","power_supply:maxcurrent":"6","socket:cee_blue":"yes","tents":"yes","website":"https://www.campingbrione.com/"}},"66691268":{"location":[46.0725868,10.720411],"ct":"IT","tp":"CS","ts":"2023-08-02T21:43:56Z","tX":542,"tY":364,"tags":{"caravans":"yes","drinking_water":"yes","internet_access":"wlan","internet_access:fee":"no","name":"Val Rendena","power_supply":"yes","shower":"yes","tents":"yes","toilets":"yes"}},"70521901":{"location":[45.8745079,10.868204],"ct":"IT","tp":"CS","ts":"2023-11-02T09:51:26Z","tX":542,"tY":364,"tags":{"caravans":"yes","name":"Arco Lido","tents":"yes","website":"https://nuovo.arcoturistica.com/de/camping-arco-lido-home.html"}},"70522025":{"location":[45.8758315,10.8686826],"ct":"IT","tp":"CS","ts":"2024-04-19T10:04:06Z","tX":542,"tY":364,"tags":{"caravans":"yes","drinking_water":"yes","email":"info@campingmaroadi.it","name":"Campeggio Maroadi","name:de":"Camping Maroadi","phone":"+39 0464 505175","power_supply":"yes","shower":"yes","tents":"yes","toilets":"yes","website":"https://www.campingmaroadi.it/","wheelchair":"yes"}},"95286404":{"location":[45.8776616,10.8976143],"ct":"IT","tp":"CS","ts":"2024-05-27T04:14:33Z","tX":542,"tY":364,"tags":{"access":"yes","addr:city":"Nago","addr:housenumber":"46","addr:postcode":"38069","addr:street":"Via Strada Rivana","capacity":"6","email":"info@grumel.it","fee":"yes","name":"Camping Grumèl","operator":"Azienda Agricola Bertoldi","payment:cash":"yes","payment:credit_cards":"yes","website":"https://grumel.it/"}},"124058798":{"location":[45.8710103,10.8731271],"ct":"IT","tp":"CS","ts":"2023-09-18T11:36:44Z","tX":542,"tY":364,"tags":{"name":"Camping Al Cor","website":"https://www.camping-al-cor.it/"}},"124067040":{"location":[45.8716172,10.8730715],"ct":"IT","tp":"CS","ts":"2024-10-04T15:20:53Z","tX":542,"tY":364,"tags":{"addr:city":"Torbole sul Garda","addr:housenumber":"3","addr:postcode":"38066","addr:street":"Via al Cor","caravans":"yes","drinking_water":"yes","internet_access":"wlan","internet_access:fee":"no","name":"Camping Al Porto","opening_hours":"Apr 1 - Nov 4","phone":"+39 0464 505891","power_supply":"yes","sanitary_dump_station":"yes","shower":"yes","tents":"yes","toilets":"yes","toilets:wheelchair":"yes","website":"https://www.campingalporto.it/","wheelchair":"yes"}},"124375252":{"location":[45.9330789,10.8934069],"ct":"IT","tp":"CS","ts":"2025-05-04T06:47:40Z","tX":542,"tY":364,"tags":{"cabins":"yes","caravans":"yes","dog":"yes","drinking_water":"yes","fee":"yes","internet_access":"wlan","motorhome":"yes","name":"Camping Zoo","power_supply":"yes","power_supply:maxcurrent":"6;10","sanitary_dump_station":"yes","shower":"yes","socket:cee_blue":"yes","tents":"yes","toilets":"yes"}},"230893182":{"location":[45.8768309,10.8669557],"ct":"IT","tp":"CS","ts":"2023-11-06T02:29:16Z","tX":542,"tY":364,"tags":{"name":"Camping Bellavista","website":"https://www.camping-bellavista.it/","wheelchair":"yes"}},"340445474":{"location":[45.9256551,10.8916633],"ct":"IT","tp":"CS","ts":"2024-09-01T13:42:58Z","tX":542,"tY":364,"tags":{"addr:city":"Arco","addr:hamlet":"Prabi","addr:housenumber":"12","addr:postcode":"38062","addr:street":"Via Legionari Cecoslovacchi","caravans":"yes","drinking_water":"yes","email":"info@arcoturistica.com","fax":"+39 0464 517691","internet_access":"wlan","name":"Camping Arco","operator":"A.m.s.a. S.r.l.","phone":"+39 0464 516830","power_supply":"yes","sanitary_dump_station":"yes","shower":"yes","stars":"3","tents":"yes","toilets":"yes","toilets:wheelchair":"no","website":"http://www.arcoturistica.com","wheelchair":"yes"}},"360143884":{"location":[45.9124201,10.8662656],"ct":"IT","tp":"CS","ts":"2021-10-16T09:06:45Z","tX":542,"tY":364,"tags":{"addr:city":"Arco","addr:country":"IT","addr:housenumber":"22","addr:street":"Via della Crosetta","internet_access":"wlan","internet_access:fee":"no","name":"Arco Bed&Camping","phone":"+39 327 663 7960","power_supply":"yes","tents":"yes","website":"https://www.arcobedandcamping.it/"}},"364367287":{"location":[45.8846657,10.7321093],"ct":"IT","tp":"CS","ts":"2024-09-13T10:53:55Z","tX":542,"tY":364,"tags":{"access":"customers","addr:city":"Ledro","addr:housenumber":"5","addr:postcode":"38067","addr:street":"Via Alzer","cabins":"yes","capacity:caravans":"150","capacity:tents":"150","caravans":"yes","dog":"yes","fee":"yes","image":"https://www.campingazzurro.net/assets/images/logo_orizzontale_top.jpg","motorhome":"yes","name":"Camping Azzurro","phone":"+39 0464 591276","power_supply":"yes","power_supply:maxcurrent":"6;10","socket:cee_blue":"yes","stars":"3","static_caravans":"yes","tents":"yes","website":"https://www.campingazzurro.net"}},"366012870":{"location":[45.8727341,10.8716023],"ct":"IT","tp":"CR","ts":"2025-04-02T06:28:16Z","tX":542,"tY":364,"tags":{"addr:city":"Torbole sul Garda","addr:housenumber":"2/a","addr:postcode":"38069","addr:street":"Via al Cor","drinking_water":"no","email":"info@camperstoptorbole.com","fee":"yes","name":"Camperstop Torbole","operator":"M.A.F.E. s.r.l.","phone":"+39 0464 548204","power_supply":"yes","sanitary_dump_station":"yes","toilets":"yes","website":"https://www.camperstoptorbole.com/"}},"366189321":{"location":[45.8718207,10.8713499],"ct":"IT","tp":"CS","ts":"2024-08-05T14:57:28Z","tX":542,"tY":364,"tags":{"addr:city":"Torbole sul Garda","addr:housenumber":"4","addr:postcode":"38069","addr:street":"Via al Cor","caravans":"yes","email":"info@campingeuropatorbole.it","fax":"+39 0464 505888","name":"Camping Europa","phone":"+39 0464 505888","tents":"yes","website":"http://www.campingeuropatorbole.it"}},"441145118":{"location":[45.8793017,10.8557569],"ct":"IT","tp":"CS","ts":"2024-09-13T08:51:15Z","tX":542,"tY":364,"tags":{"addr:city":"Riva del Garda","addr:country":"IT","addr:housenumber":"112","addr:postcode":"38066","addr:street":"Viale Rovereto","caravans":"yes","contact:email":"info@campingallago.com","contact:phone":"+39 0464 553186","contact:website":"https://www.campingallago.com","dog":"yes","dryer":"yes","internet_access":"wlan","internet_access:fee":"no","motorhome":"yes","name":"Camping Al Lago","naturism":"no","power_supply":"yes","power_supply:maxcurrent":"6;10","sanitary_dump_station":"yes","sauna":"no","service:bicycle:cleaning":"yes","socket:cee_blue":"yes","tents":"yes","washing_machine":"yes"}},"480086699":{"location":[45.9048694,10.8574879],"ct":"IT","tp":"CS","ts":"2024-07-23T08:14:27Z","tX":542,"tY":364,"tags":{"access":"customers","addr:city":"Riva del Garda","addr:country":"IT","addr:housenumber":"3","addr:postcode":"38066","addr:street":"Via Fangolino","caravans":"yes","drinking_water":"yes","name":"Verdepiano Bed & Camping","phone":"+393890405603","power_supply":"yes","sanitary_dump_station":"yes","shower":"yes","tents":"yes","toilets":"yes","website":"http://www.verdepianocamping.com"}},"849200291":{"location":[45.8797412,10.8550043],"ct":"IT","tp":"CS","ts":"2024-09-13T08:51:15Z","tX":542,"tY":364,"tags":{"capacity:caravans":"73","capacity:tents":"73","caravans":"yes","fee":"yes","motorhome":"yes","name":"Camping Bavaria","power_supply":"yes","power_supply:maxcurrent":"3;6","sanitary_dump_station":"yes","socket:cee_blue":"yes","tents":"yes","website":"http://www.campeggiobavaria.it"}},"850587817":{"location":[45.8977043,10.8373323],"ct":"IT","tp":"CR","ts":"2022-09-05T05:42:55Z","tX":542,"tY":364,"tags":{"name":"Rimessaggio Camper Baltera","parking":"surface"}},"853511369":{"location":[45.9344689,10.8125121],"ct":"IT","tp":"CR","ts":"2020-10-01T14:05:33Z","tX":542,"tY":364,"tags":{}},"853823100":{"location":[45.9342834,10.8110719],"ct":"IT","tp":"CS","ts":"2024-04-19T10:02:02Z","tX":542,"tY":364,"tags":{"addr:city":"Tenno","addr:housenumber":"7","addr:place":"Località lago di Tenno","addr:postcode":"38060","contact:email":"marcorigatti@virgilio.it","contact:fax":"+39 0464 502127","contact:phone":"+39 0464 502127","fee":"yes","name":"Camping Lago di Tenno","operator":"Marco Rigatti","ref:vatin":"IT01006130221","stars":"3"}},"858978075":{"location":[45.9222479,10.890474],"ct":"IT","tp":"CR","ts":"2024-08-19T04:58:10Z","tX":542,"tY":364,"tags":{"addr:housenumber":"16","fee":"yes","maxstay":"72 hours","name":"Osta Camper Carmellini","power_supply":"no","sanitary_dump_station":"no","website":"https://www.visittrentino.info/it/guida/area-sosta-camper-arco-parcheggio-area-carmellini-e-parcheggio-san-pancrazio_md_3627"}},"860379935":{"location":[45.9104636,10.8824777],"ct":"IT","tp":"CR","ts":"2022-06-29T16:21:36Z","tX":542,"tY":364,"tags":{"access":"customers","parking":"surface"}},"860379936":{"location":[45.910405,10.8826767],"ct":"IT","tp":"CR","ts":"2022-06-29T16:21:36Z","tX":542,"tY":364,"tags":{"access":"customers","parking":"surface"}},"861213082":{"location":[45.9118322,10.867232],"ct":"IT","tp":"CS","ts":"2023-03-27T08:51:03Z","tX":542,"tY":364,"tags":{}},"954358908":{"location":[45.8829117,10.7322032],"ct":"IT","tp":"CS","ts":"2024-09-13T10:53:55Z","tX":542,"tY":364,"tags":{"access":"customers","addr:city":"Ledro","addr:housenumber":"7","addr:postcode":"38067","addr:street":"Via Alzer","cabins":"yes","caravans":"yes","dog":"yes","fee":"yes","image":"https://www.camping-al-lago.it/assets/images/Campingallago_logo.png","motorhome":"yes","name":"Camping Al Lago","phone":"+39 0464 591250","power_supply":"yes","power_supply:maxcurrent":"6;10","socket:cee_blue":"yes","static_caravans":"yes","tents":"yes","website":"https://www.camping-al-lago.it"}},"957133872":{"location":[45.8988382,10.7197959],"ct":"IT","tp":"CR","ts":"2024-04-19T10:01:30Z","tX":542,"tY":364,"tags":{"caravans":"yes","fee":"yes","name":"Area Camper","name:cs":"RV kemp","name:en":"RV camping","tents":"no","website":"https://www.comune.ledro.tn.it/Territorio/Vivere-Ledro/Area-Camper-a-Bezzecca"}},"1070587458":{"location":[45.914985,10.8787905],"ct":"IT","tp":"CR","ts":"2024-08-19T05:14:02Z","tX":542,"tY":364,"tags":{"access":"customers","addr:city":"Arco","addr:postcode":"38062","addr:street":"Via Santa Caterina","fee":"no","maxstay":"72 hours","name":"Sosta camper San Pancrazio","parking":"surface","power_supply":"no","sanitary_dump_station":"no","website":"https://www.visittrentino.info/it/guida/area-sosta-camper-arco-parcheggio-area-carmellini-e-parcheggio-san-pancrazio_md_3627"}},"1074101205":{"location":[45.9101993,10.8826948],"ct":"IT","tp":"CR","ts":"2022-06-29T16:21:36Z","tX":542,"tY":364,"tags":{"access":"customers","parking":"surface"}},"1074101207":{"location":[45.9103909,10.8822317],"ct":"IT","tp":"CS","ts":"2023-11-10T12:42:16Z","tX":542,"tY":364,"tags":{"access":"customers","addr:city":"Arco","addr:postcode":"38062","addr:street":"Via Mantova","name":"Agricamp Altogarda","phone":"+39 339 1249553","website":"https://www.agricampaltogarda.com/"}},"1076523067":{"location":[45.8796591,10.858429],"ct":"IT","tp":"CR","ts":"2024-08-09T15:23:38Z","tX":542,"tY":364,"tags":{"addr:city":"Riva del Garda","addr:postcode":"38066","addr:street":"Via Brione","caravans":"no","charge":"1 EUR / hour","dog":"yes","drinking_water":"yes","dryer":"yes","fee":"yes","name":"Area Sosta Camper Brione","name:de":"Wohnmobilstellplatz Brione","power_supply":"no","reservation":"no","sanitary_dump_station":"yes","shower":"yes","tents":"no","toilets":"yes","washing_machine":"yes","water_point":"yes","website":"https://www.altogarda-parcheggi.it/servizi/area-sosta-camper"}},"1077054298":{"location":[45.883481,10.7311448],"ct":"IT","tp":"SD","ts":"2022-07-09T10:40:27Z","tX":542,"tY":364,"tags":{"access":"customers"}},"1077373778":{"location":[45.8799354,10.8586135],"ct":"IT","tp":"SD","ts":"2022-07-10T07:05:54Z","tX":542,"tY":364,"tags":{}},"1086136083":{"location":[45.8751419,10.7682726],"ct":"IT","tp":"CS","ts":"2023-12-28T11:58:40Z","tX":542,"tY":364,"tags":{"addr:city":"Ledro","addr:housenumber":"120","addr:postcode":"38067","addr:street":"Via Maffei","name":"Best Ledro Camping","phone":"+39 347 8664991","website":"https://bestledrocamping.it/"}},"1223227242":{"location":[46.0367134,10.8659381],"ct":"IT","tp":"CR","ts":"2024-08-18T19:09:02Z","tX":542,"tY":364,"tags":{"addr:city":"Comano Terme","addr:street":"Via Lungo Sarca","charge":"36","fee":"yes","note":"Per i clienti delle terme con sosta lunga prezzo convenzionato di 28€\nDivieto di aprire tende e finestre","power_supply":"yes","power_supply:maxcurrent":"3","sanitary_dump_station":"yes","shower":"yes","socket:cee_blue":"yes","start_date":"2024","toilets":"yes","website":"https://www.visittrentino.info/it/guida/area-sosta-camper-comano_md_3293"}},"1228053081":{"location":[45.8955349,10.8879957],"ct":"IT","tp":"CS","ts":"2023-12-01T16:13:42Z","tX":542,"tY":364,"tags":{"addr:city":"Arco","addr:housenumber":"22","addr:postcode":"38062","addr:street":"Loc. Fibbie","caravans":"yes","fee":"yes","name":"Agrisalus","tents":"yes"}},"1365530779":{"location":[46.0125237,10.8213737],"ct":"IT","tp":"CR","ts":"2025-03-08T13:31:34Z","tX":542,"tY":364,"tags":{"name":"Area Sosta Camper Paradiso Terrestre"}},"11527408837":{"location":[45.922214,10.7248278],"ct":"IT","tp":"CS","ts":"2024-01-18T07:32:02Z","tX":542,"tY":364,"tags":{"access":"private","addr:city":"Ledro","addr:postcode":"38067","email":"sierraledro@yahoo.it","group_only":"yes","mobile":"+39 335 241966","name":"Campo Scout Val di Concei"}},"5039356822":{"location":[45.9051755,10.8576467],"ct":"IT","tp":"CR","ts":"2024-07-23T08:17:06Z","tX":542,"tY":364,"tags":{"drinking_water":"yes","fee":"yes","name":"Verdepiano Bed & Camping","power_supply":"yes","sanitary_dump_station":"yes","toilets":"yes"}},"11572083717":{"location":[45.8951395,10.8884431],"ct":"IT","tp":"CR","ts":"2024-01-31T06:36:54Z","tX":542,"tY":364,"tags":{"fee":"yes"}},"12174613315":{"location":[45.885025,10.731651],"ct":"IT","tp":"SD","ts":"2024-09-13T10:48:01Z","tX":542,"tY":364,"tags":{"water_point":"yes"}},"12321139104":{"location":[45.9731665,10.5538314],"ct":"IT","tp":"CS","ts":"2024-11-07T18:20:23Z","tX":542,"tY":364,"tags":{"backcountry":"yes"}}}