{"13186705":{"location":[45.5854823,10.5677558],"ct":"IT","tp":"CS","ts":"2025-01-02T21:44:03Z","tX":542,"tY":365,"tags":{"contact:website":"https://www.fornella.it/","name":"Camping Fornella"}},"24165677":{"location":[45.7835663,10.819458],"ct":"IT","tp":"CS","ts":"2022-09-16T10:59:23Z","tX":542,"tY":365,"tags":{"addr:city":"Malcesine","addr:housenumber":"378","addr:postcode":"37018","addr:street":"Via Gardesana","email":"info@campingtonini.com","name":"Tonini","phone":"+39 0457 401341","website":"https://www.campingtonini.com/"}},"26859593":{"location":[45.678374,10.7423029],"ct":"IT","tp":"CS","ts":"2024-08-09T10:37:40Z","tX":542,"tY":365,"tags":{"bar":"yes","bbq":"yes","cabins":"yes","caravans":"yes","dog":"yes","drinking_water":"yes","internet_access":"wlan","internet_access:fee":"no","motor_vehicle":"yes","name":"Le Maior","nudism":"no","permanent_camping":"yes","power_supply":"yes","sanitary_dump_station":"yes","shower":"yes","swimming_pool":"no","tents":"yes","toilets":"yes","washing_machine":"yes"}},"26859680":{"location":[45.657222,10.724722],"ct":"IT","tp":"CS","ts":"2022-07-08T06:51:26Z","tX":542,"tY":365,"tags":{"name":"Camping Pai Da Maria"}},"35418994":{"location":[45.5838054,10.5633361],"ct":"IT","tp":"CS","ts":"2018-07-05T06:47:36Z","tX":542,"tY":365,"tags":{"name":"Mos","source":"Regione Lombardia - La banca dati territoriali CTR10000 è prodotta da Regione Lombardia - Infrastruttura per l'Informazione Territoriale"}},"35418998":{"location":[45.6367095,10.6147078],"ct":"IT","tp":"CS","ts":"2023-08-21T15:50:02Z","tX":542,"tY":365,"tags":{"addr:city":"Toscolano Maderno","addr:postcode":"25088","addr:street":"Via Regionale","contact:website":"https://hghotels.com/de/property-item/camping-toscolano/","name":"Toscolano"}},"35419000":{"location":[45.5984596,10.548669],"ct":"IT","tp":"CS","ts":"2025-01-02T21:11:02Z","tX":542,"tY":365,"tags":{"addr:housenumber":"45","addr:postcode":"25010","addr:street":"Via Preone","contact:website":"https://www.camping-eden.it/","name":"Camping Eden","source":"Regione Lombardia - La banca dati territoriali CTR10000 è prodotta da Regione Lombardia - Infrastruttura per l'Informazione Territoriale"}},"35419002":{"location":[45.6332373,10.6141257],"ct":"IT","tp":"CS","ts":"2025-01-02T16:46:35Z","tX":542,"tY":365,"tags":{"addr:city":"Toscolano Maderno","addr:housenumber":"73","addr:postcode":"25084","addr:street":"Via Promontorio","contact:email":"info@campingpromontorio.it","contact:phone":"+39 0365 541540","contact:website":"http://www.campingpromontorio.it/","image":"http://www.campingpromontorio.it/files/File/SPIAGGIA%205.jpg","name":"Camping Promontorio"}},"37740232":{"location":[45.7982743,10.8381696],"ct":"IT","tp":"CS","ts":"2024-09-13T10:12:15Z","tX":542,"tY":365,"tags":{"cabins":"yes","capacity:caravans":"36","caravans":"yes","drinking_water":"yes","email":"camping.navene@gmail.com","fee":"yes","motorhome":"yes","name":"Camping Navene","power_supply":"yes","shower":"yes","tents":"yes","toilets":"yes","website":"https://campingnavene.it/"}},"181413058":{"location":[45.7065832,10.6852003],"ct":"IT","tp":"CS","ts":"2025-06-03T09:24:39Z","tX":542,"tY":365,"tags":{"addr:city":"Gargnano","addr:housenumber":"48","addr:street":"Via Muslone","camp_site":"serviced","caravans":"yes","contact:email":"info@paradisogarda.it","contact:fax":"+39 0365 791456","contact:phone":"+39 0365 71223","contact:website":"https://www.paradisogarda.it/","fee":"yes","motorhome":"yes","name":"Paradiso Camping","ref:cin":"IT017076B1S2CMJMG6","ref:vatin":"IT00433520988","stars":"2","start_date":"1969","tents":"yes"}},"235179974":{"location":[45.6780891,10.8546955],"ct":"IT","tp":"CR","ts":"2021-05-20T13:18:26Z","tX":542,"tY":365,"tags":{"addr:city":"Ferrara di Monte Baldo","addr:street":"Via Chiesa","capacity":"15","caravan":"designated","name":"Area Sosta Camper mferrara di Monte Baldo","power_supply":"yes"}},"332274224":{"location":[45.7300207,10.7850354],"ct":"IT","tp":"CS","ts":"2024-04-19T10:11:58Z","tX":542,"tY":365,"tags":{"caravans":"yes","drinking_water":"no","name":"Bellavista","power_supply":"yes","shower":"yes","tents":"yes","toilets":"yes","website":"https://www.campingbellavistamalcesine.com/"}},"338438640":{"location":[45.675624,10.739855],"ct":"IT","tp":"CS","ts":"2024-05-22T08:32:11Z","tX":542,"tY":365,"tags":{"caravans":"yes","name":"San Zeno","tents":"yes","website":"https://www.campingsanzeno.it/"}},"342274779":{"location":[45.8092873,10.8513877],"ct":"IT","tp":"CS","ts":"2024-09-13T10:32:12Z","tX":542,"tY":365,"tags":{"cabins":"yes","caravans":"yes","email":"info@baitonealpino.com","motorhome":"yes","name":"Camping Baitone Alpino","phone":"+39 045 74 00 472","power_supply":"yes","socket:cee_blue":"yes","tents":"yes","website":"https://www.baitonealpino.com/"}},"350162456":{"location":[45.6245771,10.7220171],"ct":"IT","tp":"CR","ts":"2018-09-03T21:54:55Z","tX":542,"tY":365,"tags":{"addr:city":"San Zeno di Montagna","addr:country":"IT","addr:housenumber":"38","addr:postcode":"37010","addr:street":"Via Canevoi","email":"info@campingmammalucia.it","fax":"+39 045 7285038","name":"Mama Lucia","phone":"+39 045 7285038","website":"http://www.campingmammalucia.it/"}},"391401939":{"location":[45.8058763,10.7890366],"ct":"IT","tp":"CS","ts":"2025-05-14T01:34:05Z","tX":542,"tY":365,"tags":{"name":"Park Garda"}},"391411596":{"location":[45.8006048,10.7849769],"ct":"IT","tp":"CS","ts":"2025-05-17T14:55:20Z","tX":542,"tY":365,"tags":{"caravans":"yes","contact:email":"info@campingnanzel.it","contact:phone":"+39 0365 954155","contact:website":"https://www.campingnanzel.it/","drinking_water":"yes","name":"Camping Nanzel","power_supply":"yes","sanitary_dump_station":"yes","shower":"yes","tents":"yes","toilets":"yes"}},"421039818":{"location":[45.6346212,10.6148699],"ct":"IT","tp":"CS","ts":"2025-01-02T16:46:35Z","tX":542,"tY":365,"tags":{"addr:city":"Toscolano Maderno","addr:housenumber":"44","addr:postcode":"25088","addr:street":"Via Regionale","contact:phone":"+39 0365 641372","contact:website":"https://www.villaggiolafoce.it/","name":"Villaggio Turistico La Foce","operator":"Villaggio Turistico La Foce S.p.A.","source":"Regione Lombardia - La banca dati territoriali CTR10000 è prodotta da Regione Lombardia - Infrastruttura per l'Informazione Territoriale"}},"436110462":{"location":[45.7290421,10.7822879],"ct":"IT","tp":"CR","ts":"2016-08-07T14:03:00Z","tX":542,"tY":365,"tags":{"fee":"yes","internet_access":"wlan","name":"Camping Punto Verde","operator":"Boschelli","power_supply":"yes","sanitary_dump_station":"yes"}},"444786367":{"location":[45.7660207,10.8106374],"ct":"IT","tp":"CS","ts":"2023-11-06T02:28:19Z","tX":542,"tY":365,"tags":{"name":"Villaggio Turistico Priori","name:en":"Tourist Village Priori","name:it":"Villaggio Turistico Priori","website":"https://www.campingpriorimalcesine.com/"}},"452452342":{"location":[45.6001606,10.6865311],"ct":"IT","tp":"CS","ts":"2009-07-31T11:22:47Z","tX":542,"tY":365,"tags":{"name":"San Remo Camping"}},"526490332":{"location":[45.7210047,10.7796622],"ct":"IT","tp":"CS","ts":"2021-07-31T08:42:45Z","tX":542,"tY":365,"tags":{"internet_access":"wlan","internet_access:fee":"no","name":"Aquacamp","website":"https://www.aquacamp.it"}},"627427019":{"location":[45.7847319,10.8213913],"ct":"IT","tp":"CS","ts":"2018-09-22T18:57:08Z","tX":542,"tY":365,"tags":{"addr:city":"Malcesine","addr:country":"IT","addr:housenumber":"141","addr:postcode":"37018","addr:street":"Via Navene Vecchia","email":"info@campinglombardi.com","name":"Lombardi","phone":"+39 045 74 00 849","website":"https://campinglombardi.com/"}},"627427033":{"location":[45.788086,10.8240002],"ct":"IT","tp":"CS","ts":"2023-11-06T02:28:24Z","tX":542,"tY":365,"tags":{"addr:housenumber":"394","addr:street":"Via Gardesana","caravans":"yes","name":"Camping Claudia","tents":"yes","website":"https://www.campingclaudia.it/"}},"627427037":{"location":[45.7896159,10.8260597],"ct":"IT","tp":"CS","ts":"2024-09-13T10:40:48Z","tX":542,"tY":365,"tags":{"addr:housenumber":"444","addr:street":"Via Gardesana","caravans":"yes","contact:website":"https://martora.it/","dog":"yes","email":"martora@martora.it","motorhome":"yes","name":"Camping Martora","phone":"+39 3381453795","power_supply":"yes","socket:cee_blue":"yes","tents":"yes","website":"https://martora.it/"}},"627427044":{"location":[45.7903881,10.8275226],"ct":"IT","tp":"CS","ts":"2024-09-13T10:40:48Z","tX":542,"tY":365,"tags":{"addr:housenumber":"446","addr:street":"Via Gardesana","caravans":"yes","fee":"yes","motorhome":"yes","name":"Camping Azzurro","note":"Camper/Motorhome/Camping Car max  7,15m","phone":"+39 339 7628138","power_supply":"yes","socket:cee_blue":"yes","tents":"yes","website":"https://www.campingazzurromalcesine.net/"}},"627427052":{"location":[45.787315,10.8226879],"ct":"IT","tp":"CS","ts":"2023-09-03T11:37:36Z","tX":542,"tY":365,"tags":{"addr:housenumber":"390","addr:street":"Via Gardesana Orientale","caravans":"yes","drinking_water":"yes","internet_access":"wlan","name":"Camping Campagnola","shower":"yes","tents":"yes","toilets":"yes","website":"https://www.campingcampagnola.it"}},"705250537":{"location":[45.6684493,10.6500304],"ct":"IT","tp":"CS","ts":"2025-01-02T16:46:35Z","tX":542,"tY":365,"tags":{"access":"customers","addr:city":"Toscolano Maderno","addr:housenumber":"205","addr:postcode":"25088","addr:street":"Via Statale Toscolano","contact:phone":"+39 0365 643165","contact:website":"https://www.campinglefa.it/","dog":"yes","drinking_water":"yes","fee":"yes","image":"http://mw2.google.com/mw-panoramio/photos/medium/12929560.jpg","internet_access":"wlan","internet_access:fee":"customers","name":"Campeggio Lefa'","name:de":"Campingplatz Lefa‘","operator":"Maurizio e Roberto Cavallaro","power_supply":"yes","reservation":"yes","sanitary_dump_station":"yes","shower":"yes","source":"Rechnung aus 2013","toilets":"yes","wheelchair":"yes"}},"1199625526":{"location":[45.632249,10.6146744],"ct":"IT","tp":"CS","ts":"2025-01-02T16:46:35Z","tX":542,"tY":365,"tags":{"addr:city":"Toscolano Maderno","addr:housenumber":"5","addr:postcode":"25088","addr:street":"Passeggiata a Lago San Josemaria Escrivà","contact:email":"info@campingmaderno.it","contact:phone":"+39 0365 548068","contact:website":"https://villaggiomaderno.it/","name":"Villaggio Turistico Maderno"}},"1199625527":{"location":[45.6339996,10.6140664],"ct":"IT","tp":"CS","ts":"2025-01-02T16:46:35Z","tX":542,"tY":365,"tags":{"addr:city":"Toscolano Maderno","addr:housenumber":"59","addr:postcode":"25088","addr:street":"Via Promontorio","contact:email":"info@camping-riviera.com","contact:phone":"+39 0365 643039;+39 0365 641113","contact:website":"https://www.camping-riviera.com/","image":"http://www.camping-riviera.com/image/xp100316114913.jpg","name":"Riviera Camping","operator":"Riviera Camping di Carbone Roberto e Giovanni S.n.c."}},"1203460820":{"location":[45.6614118,10.642723],"ct":"IT","tp":"CS","ts":"2025-01-02T21:11:02Z","tX":542,"tY":365,"tags":{"contact:email":"info@chiarodiluna.org","contact:phone":"+39 0365 641179","contact:website":"https://www.chiarodiluna.org/","name":"Camping Chiaro Di Luna"}},"1274054307":{"location":[45.7310708,10.786541],"ct":"IT","tp":"CS","ts":"2024-04-19T10:11:58Z","tX":542,"tY":365,"tags":{"contact:website":"https://www.campeggiopanorama.com","name":"Camping Panorama"}},"1287079069":{"location":[45.6864528,10.7582877],"ct":"IT","tp":"CS","ts":"2024-05-27T13:40:10Z","tX":542,"tY":365,"tags":{"access":"customers","addr:place":"Brenzone sul Garda","addr:postcode":"37010","addr:street":"Via Fasse","backcountry":"no","caravans":"yes","drinking_water":"yes","fee":"yes","internet_access":"wlan","internet_access:fee":"customers","name":"Agricampeggio Le Terrazze sul Garda Relais","power_supply":"yes","shower":"yes","tents":"yes","toilets":"yes","website":"https://agricampeggioleterrazzesulgarda.com"}},"1315293486":{"location":[45.8079614,10.8476606],"ct":"IT","tp":"CS","ts":"2025-05-23T23:41:09Z","tX":542,"tY":365,"tags":{"addr:city":"Malcesine","addr:housenumber":"209","addr:street":"Via Gardesana Orientale","capacity:caravans":"27","caravans":"yes","dog":"yes","email":"info@hotelcamping-bommartini.it","fee":"yes","motorhome":"yes","name":"Hotel Camping Bommartinidog","phone":"+39 339 166 7789","power_supply":"yes","shower":"r","socket:cee_blue":"yes","tents":"yes","toilets":"yes","website":"https://www.hotelcamping-bommartini.it/"}},"1320948977":{"location":[45.639968,10.8694457],"ct":"IT","tp":"CR","ts":"2024-10-05T07:10:40Z","tX":542,"tY":365,"tags":{"fee":"yes","sanitary_dump_station":"yes","water_point":"yes"}},"1885697727":{"location":[45.633294,10.702429],"ct":"IT","tp":"CS","ts":"2023-04-24T20:31:38Z","tX":542,"tY":365,"tags":{"addr:city":"Torri del Benaco","addr:country":"IT","addr:housenumber":"12","addr:postcode":"37010","addr:street":"Loc. San Felice","cabins":"yes","capacity:pitches":"70","caravans":"yes","contact:whatsapp":"+39 347 893 6648","email":"info@spiaggiadoro.info","mobile":"+39 347 893 6648","name":"Camping Spiaggia d'Oro","note":"Per contatti é preferibile usare whatsapp","note:en":"For contact Whatsapp is preferred","shower":"yes","stars":"3","tents":"yes","toilets":"yes","website":"https://www.spiaggiadoro.info/"}},"1886656341":{"location":[45.632273,10.701886],"ct":"IT","tp":"CS","ts":"2012-08-28T12:18:57Z","tX":542,"tY":365,"tags":{"addr:city":"Torri del Benaco","addr:country":"IT","addr:postcode":"37010","name":"Camping San Felice","tents":"yes"}},"3993362681":{"location":[45.6329093,10.8757967],"ct":"IT","tp":"CS","ts":"2025-06-17T06:14:20Z","tX":542,"tY":365,"tags":{"addr:hamlet":"Brentino","addr:housenumber":"3","addr:postcode":"37020","addr:street":"SP 11 Località Revena","caravans":"yes","contact:mobile":"+39 393 986 1340;+39 335 617 2795","email":"info@revena.it","internet_access":"wlan","internet_access:fee":"no","name":"Agriturismo Revena","swimming_pool":"outdoor","tents":"yes","website":"https://www.revena.it/"}},"4284813170":{"location":[45.6879417,10.7560947],"ct":"IT","tp":"CS","ts":"2023-11-10T03:02:28Z","tX":542,"tY":365,"tags":{"addr:housenumber":"25","addr:postcode":"37010","addr:street":"Via Fasor","email":"info@agricampeggiolagodigarda.eu","name":"Relax agricampeggio","phone":"+39 333 2339693","website":"https://www.agricampeggiolagodigarda.eu/it/"}},"5119706298":{"location":[45.7197442,10.7780232],"ct":"IT","tp":"CS","ts":"2023-06-06T08:21:15Z","tX":542,"tY":365,"tags":{"caravans":"yes","name":"Monja","tents":"yes"}},"5129282537":{"location":[45.7121335,10.7689915],"ct":"IT","tp":"CS","ts":"2017-09-25T19:46:46Z","tX":542,"tY":365,"tags":{}},"5129282552":{"location":[45.6991002,10.7593552],"ct":"IT","tp":"CS","ts":"2022-10-03T11:15:47Z","tX":542,"tY":365,"tags":{"caravans":"yes","name":"Baldo","tents":"yes"}},"5514882528":{"location":[45.673336,10.7804597],"ct":"IT","tp":"CS","ts":"2019-06-03T17:03:25Z","tX":542,"tY":365,"tags":{"name":"Edelweiss"}},"5864221630":{"location":[45.6677403,10.7511697],"ct":"IT","tp":"CS","ts":"2018-08-28T19:42:06Z","tX":542,"tY":365,"tags":{"addr:housenumber":"17","addr:street":"Via Fasse","description":"Kleiner, wunderbarer Campingplatz, nur für Zelte","name":"Agricampeggio Terra di Mezzo","phone":"+39 342 660 9993","website":"http://www.aziendaagricolaterradimezzo.it/"}},"6564283685":{"location":[45.6770886,10.7437098],"ct":"IT","tp":"CS","ts":"2019-06-22T06:51:48Z","tX":542,"tY":365,"tags":{"internet_access":"wlan","name":"Agrocampeggio-Paradiso"}},"7296436852":{"location":[45.7038205,10.7636018],"ct":"IT","tp":"CS","ts":"2020-03-15T09:46:45Z","tX":542,"tY":365,"tags":{"addr:city":"Brenzone","addr:housenumber":"5","addr:postcode":"37010","addr:street":"Via Benaco","cabin:rental":"yes","email":"info@camping-primavera.com","name":"Primavera","operator":"Carlo Devoti","phone":"+39  045 742 04 21","website":"https://www.camping-primavera.com"}},"7299728385":{"location":[45.601987,10.6866124],"ct":"IT","tp":"CS","ts":"2020-03-16T16:48:29Z","tX":542,"tY":365,"tags":{"addr:housenumber":"22","addr:street":"Via Gardesana","name":"Campeggio Oliveti","name:en":"Camping Oliveti","phone":"+39 045 722 5522","website":"http://campinglagodigarda.it"}},"9167589301":{"location":[45.811761,10.8523663],"ct":"IT","tp":"CS","ts":"2021-10-12T14:31:54Z","tX":542,"tY":365,"tags":{"backcountry":"yes","impromptu":"yes","name":"Wild camping spot"}},"12155064844":{"location":[45.6868849,10.6398256],"ct":"IT","tp":"CS","ts":"2025-01-02T16:46:35Z","tX":542,"tY":365,"tags":{"addr:city":"Navazzo","addr:housenumber":"163","addr:postcode":"25084","addr:street":"Via Angelo Feltrinelli","contact:phone":"+39036571177","contact:website":"https://www.giglionavazzo.com/","name":"Camping Giglio Roberto Piccinni"}},"4349642389":{"location":[45.775459,10.8143695],"ct":"IT","tp":"CR","ts":"2024-12-05T13:50:45Z","tX":542,"tY":365,"tags":{"capacity":"6","fee":"yes","power_supply":"no","sanitary_dump_station":"no"}},"6513807929":{"location":[45.7288347,10.7814174],"ct":"IT","tp":"CR","ts":"2019-05-31T17:56:47Z","tX":542,"tY":365,"tags":{"name:en":"Camping Antonio"}},"10826423005":{"location":[45.7557064,10.5846196],"ct":"IT","tp":"CR","ts":"2023-04-20T08:18:37Z","tX":542,"tY":365,"tags":{"name":"San Rocco"}},"6845541071":{"location":[45.6032052,10.6994966],"ct":"IT","tp":"SD","ts":"2019-10-02T20:46:51Z","tX":542,"tY":365,"tags":{"access":"yes","fee":"no","water_point":"no"}},"8823728062":{"location":[45.5846262,10.5687547],"ct":"IT","tp":"SD","ts":"2025-06-15T14:03:37Z","tX":542,"tY":365,"tags":{"fee":"no"}},"8823731691":{"location":[45.586662,10.5676122],"ct":"IT","tp":"SD","ts":"2021-06-25T08:07:01Z","tX":542,"tY":365,"tags":{"access":"customers","fee":"no"}},"12174513854":{"location":[45.8089788,10.8513358],"ct":"IT","tp":"SD","ts":"2024-09-13T10:32:12Z","tX":542,"tY":365,"tags":{}},"12883039122":{"location":[45.7068726,10.6855209],"ct":"IT","tp":"SD","ts":"2025-06-03T09:23:44Z","tX":542,"tY":365,"tags":{}}}