{"1147392":{"location":[45.4998435,10.7350737],"ct":"IT","tp":"CS","ts":"2019-03-24T15:28:51Z","tX":542,"tY":366,"tags":{"name":"Camping Du Parc","website":"https://www.campingduparc.com/"}},"1467931":{"location":[45.3947047,10.7154115],"ct":"IT","tp":"CS","ts":"2024-09-17T15:19:14Z","tX":542,"tY":366,"tags":{"addr:city":"Salionze","addr:country":"IT","addr:postcode":"37019","addr:street":"Località Valle Torrente","cabins":"yes","caravans":"no","dog":"yes","name":"Altomincio Family Park","phone":"00390550298080","tents":"no","website":"https://altomincio.huopenair.com/"}},"13211076":{"location":[45.5624474,10.565408],"ct":"IT","tp":"CS","ts":"2025-01-02T21:44:03Z","tX":542,"tY":366,"tags":{"addr:city":"Manerba del Garda","addr:housenumber":"22","addr:postcode":"25080","addr:street":"Via Cavalle","contact:website":"https://www.laroccacamp.it/","name":"Camping La Rocca"}},"14495014":{"location":[45.4700949,10.6099406],"ct":"IT","tp":"CS","ts":"2025-01-02T16:46:35Z","tX":542,"tY":366,"tags":{"cabins":"yes","caravans":"yes","contact:phone":"+39 030 919045","contact:website":"https://www.camping-sirmione.it/","dog":"yes","motorhome":"yes","name":"Camping Sirmione","power_supply":"yes","power_supply:maxcurrent":"3, 10;16","socket:cee_blue":"yes","stars":"3","tents":"yes","washing_machine":"yes"}},"24665948":{"location":[45.5766795,10.7147006],"ct":"IT","tp":"CR","ts":"2024-09-15T19:01:14Z","tX":542,"tY":366,"tags":{"charge":"21€","fee":"yes","name":"Park Preite","sanitary_dump_station":"yes"}},"33430792":{"location":[45.4444969,10.6773942],"ct":"IT","tp":"CS","ts":"2025-03-29T00:20:49Z","tX":542,"tY":366,"tags":{"addr:housenumber":"2","addr:street":"Via Bell'Italia","cabins":"yes","caravans":"yes","contact:instagram":"https://www.instagram.com/campingbellaitalia/","fee":"yes","internet_access":"yes","internet_access:fee":"yes","motorhome":"yes","name":"Bella Italia","operator":"Campeggio Bella Italia SpA","phone":"+39 045 6400688","power_supply:maxcurrent":"16","ref:vatin":"IT02398590238","sanitary_dump_station":"yes","socket:cee_blue":"yes","stars":"5","tents":"yes","website":"https://www.camping-bellaitalia.it/","wheelchair":"limited"}},"35150747":{"location":[45.4606814,10.6339489],"ct":"IT","tp":"CR","ts":"2024-09-17T13:51:08Z","tX":542,"tY":366,"tags":{"addr:city":"Sirmione del Garda","addr:housenumber":"18","addr:postcode":"25019","addr:street":"Via Cantarane","capacity":"140","contact:email":"sawasde@hotmail.it","contact:fax":"+39 030 9904192","contact:mobile":"+39 338 5335325","contact:phone":"+39 030 990 4192","contact:website":"https://camperparksirmione.it/","dog":"yes","fee":"yes","internet_access":"yes","motorhome":"designated","name":"Camper Park Sirmione","power_supply":"yes","power_supply:fee":"yes","power_supply:maxcurrent":"5;10","sanitary_dump_station":"yes","sanitary_dump_station:chemical_toilet":"yes","sanitary_dump_station:grey_water":"yes","shower":"yes","socket:cee_blue":"yes","source":"Regione Lombardia - La banca dati territoriali CTR10000 è prodotta da Regione Lombardia - Infrastruttura per l'Informazione Territoriale","toilets":"yes","water_point":"yes"}},"35150752":{"location":[45.5294788,10.5539146],"ct":"IT","tp":"CS","ts":"2025-01-02T21:11:02Z","tX":542,"tY":366,"tags":{"contact:website":"https://www.campingsereno.it/","name":"Camping Sereno"}},"35418995":{"location":[45.5679083,10.548572],"ct":"IT","tp":"CS","ts":"2023-05-26T16:01:07Z","tX":542,"tY":366,"tags":{"caravans":"yes","name":"Romantica","source":"Regione Lombardia - La banca dati territoriali CTR10000 è prodotta da Regione Lombardia - Infrastruttura per l'Informazione Territoriale","tents":"yes"}},"35418999":{"location":[45.5821983,10.5597635],"ct":"IT","tp":"CS","ts":"2018-12-07T13:01:39Z","tX":542,"tY":366,"tags":{"name":"Vacanze"}},"35419004":{"location":[45.5743394,10.5490513],"ct":"IT","tp":"CS","ts":"2024-09-19T14:16:16Z","tX":542,"tY":366,"tags":{"caravans":"yes","drinking_water":"yes","name":"Europa Silvella","power_supply":"yes","sanitary_dump_station":"yes","shower":"yes","tents":"yes","toilets":"yes"}},"35584309":{"location":[45.4838067,10.7269478],"ct":"IT","tp":"CS","ts":"2025-03-29T00:25:08Z","tX":542,"tY":366,"tags":{"access":"customers","addr:city":"Lazise","addr:housenumber":"42","addr:postcode":"37017","addr:street":"Via Fossalta","bungalow":"yes","caravans":"yes","contact:instagram":"https://www.instagram.com/holidayparkpianidiclodia/","drinking_water":"yes","email":"info@pianidiclodia.it","fax":"+39 045 7590939","fee":"yes","group_only":"no","internet_access":"wlan","internet_access:fee":"no","name":"Piani di Clodia","opening_hours":"Mar-Oct; 2021 Mar 25-Oct 10","operator":"Gestioni Benacensi S.P.A.","payment:cash":"yes","phone":"+39 045 7590456","power_supply":"yes","sanitary_dump_station":"customers","self_checkout":"no","shower":"yes","smoking":"isolated","stars":"5","tents":"yes","toilets":"yes","toilets:wheelchair":"yes","website":"https://www.pianidiclodia.it","wheelchair":"yes"}},"38155414":{"location":[45.5791868,10.5559757],"ct":"IT","tp":"CS","ts":"2024-08-06T11:25:09Z","tX":542,"tY":366,"tags":{"name":"Ideal Molino"}},"40460962":{"location":[45.4921989,10.7330572],"ct":"IT","tp":"CS","ts":"2025-03-29T00:28:58Z","tX":542,"tY":366,"tags":{"addr:city":"Lazise sul Garda","addr:country":"IT","addr:place":"Localitá Bottona","addr:postcode":"37017","addr:province":"VR","backcountry":"no","cabins":"yes","caravans":"yes","contact:email":"laquercia@laquercia.it","contact:instagram":"https://www.instagram.com/campinglaquercia/","contact:phone":"+39 045 647 0577","contact:website":"https://www.laquercia.it/","dog":"leashed","fee":"yes","lit":"yes","motor_vehicle":"yes","name":"Camping La Quercia","nudism":"no","opening_hours":"Mo-Su 07:00-13:00, 15:00-23:00","operator":"Camping La Quercia","power_supply":"yes","reservation":"yes","sanitary_dump_station":"customers","shower":"yes","stars":"4","swimming_pool":"yes","tents":"yes","toilets":"yes","toilets:wheelchair":"yes","washing_machine":"yes","waste_disposal":"yes"}},"50461893":{"location":[45.5651144,10.5677876],"ct":"IT","tp":"CS","ts":"2025-01-02T16:46:35Z","tX":542,"tY":366,"tags":{"access":"customers","addr:city":"Manerba del Garda","addr:housenumber":"19","addr:postcode":"25080","addr:street":"Via Cavalle","contact:email":"info@campingsanbiagio.net","contact:fax":"+39 0365 551046","contact:phone":"+39 0365 551549","contact:website":"https://www.sanbiagio.de","internet_access":"wlan","internet_access:fee":"customers","name":"Camping San Biagio","opening_hours":"Apr-Sep"}},"55510651":{"location":[45.4519411,10.6662093],"ct":"IT","tp":"CS","ts":"2024-09-17T13:01:27Z","tX":542,"tY":366,"tags":{"addr:city":"Peschiera del Garda","addr:postcode":"37019","addr:street":"Località Fornaci","cabins":"yes","caravans":"yes","dog":"yes","fee":"yes","motorhome":"yes","name":"Wien","power_supply:maxcurrent":"10","socket:cee_blue":"yes","stars":"3","tents":"yes","website":"https://www.campingwien.it/"}},"55510911":{"location":[45.4481145,10.6720259],"ct":"IT","tp":"CS","ts":"2024-09-17T12:34:48Z","tX":542,"tY":366,"tags":{"cabins":"yes","caravans":"yes","dog":"yes","drinking_water":"yes","fee":"yes","motorhome":"yes","name":"San Benedetto-Vecchio Mulino","phone":"+39 045 75.50.544","power_supply":"yes","power_supply:maxcurrent":"6;10","shower":"yes","socket:cee_blue":"yes","source":"estimated","stars":"4","tents":"yes","toilets":"yes","website":"https://www.campingsanbenedetto.it/"}},"59294605":{"location":[45.4440647,10.6825259],"ct":"IT","tp":"CS","ts":"2024-09-17T12:34:48Z","tX":542,"tY":366,"tags":{"addr:city":"Peschiera del Garda","addr:street":"Via Arrigo Boito","cabins":"yes","caravans":"yes","fee":"yes","motorhome":"yes","name":"Cappuccini","phone":"+39 045 7551592","power_supply":"yes","power_supply:maxcurrent":"6","socket:cee_blue":"yes","stars":"4","tents":"yes","website":"http://www.camp-cappuccini.com/"}},"60338452":{"location":[45.4791663,10.7215058],"ct":"IT","tp":"CS","ts":"2024-08-30T09:36:55Z","tX":542,"tY":366,"tags":{"name":"Belvedere","website":"https://www.campingbelvedere.com"}},"61291562":{"location":[45.4803648,10.7230191],"ct":"IT","tp":"CS","ts":"2022-12-02T08:01:13Z","tX":542,"tY":366,"tags":{"capacity:persons":"1200","name":"Camping Fossalta","website":"https://www.campingfossalta.com"}},"69262176":{"location":[45.5538665,10.7176561],"ct":"IT","tp":"CS","ts":"2023-08-02T18:11:13Z","tX":542,"tY":366,"tags":{"access":"customers","addr:city":"Bardolino","addr:housenumber":"43","addr:postcode":"37011","addr:street":"Via Dante Aligheri","capacity":"140","caravans":"yes","description":"Camping + Mobilhome","email":"info@campeggiobardolino.it","fee":"yes","internet_access":"wlan","internet_access:fee":"no","name":"Campino San Nicolo","phone":"+393385362500","tents":"yes","website":"https://www.campeggiobardolino.it/","wheelchair":"limited"}},"75537206":{"location":[45.445232,10.696385],"ct":"IT","tp":"CS","ts":"2023-10-29T21:38:12Z","tX":542,"tY":366,"tags":{"caravans":"yes","internet_access":"wlan","name":"Butterfly Camping Village","tents":"yes","website":"https://www.campingbutterfly.it"}},"75537209":{"location":[45.4483072,10.6977711],"ct":"IT","tp":"CS","ts":"2024-09-15T11:34:56Z","tX":542,"tY":366,"tags":{"addr:city":"Peschiera del Garda","addr:country":"IT","addr:housenumber":"15","addr:street":"Lungo Lago Garibaldi","caravans":"yes","name":"Campeggio del Garda","tents":"no","website":"https://campeggiodelgarda.eu/"}},"75635700":{"location":[45.4651177,10.7135784],"ct":"IT","tp":"CS","ts":"2023-09-29T13:28:45Z","tX":542,"tY":366,"tags":{"name":"Le Palme"}},"91565317":{"location":[45.4708169,10.7184621],"ct":"IT","tp":"CS","ts":"2024-10-15T09:56:48Z","tX":542,"tY":366,"tags":{"caravans":"yes","drinking_water":"yes","name":"Lido","power_supply":"yes","sanitary_dump_station":"yes","shower":"yes","tents":"yes","toilets":"yes","website":"https://www.campinglido.it/","wheelchair":"yes"}},"96104825":{"location":[45.4663472,10.7154953],"ct":"IT","tp":"CS","ts":"2023-11-01T20:59:55Z","tX":542,"tY":366,"tags":{"addr:city":"Pacengo di Lazise","addr:country":"IT","addr:housenumber":"13","addr:postcode":"37010","addr:street":"Via Porto","email":"info@eurocampingpacengo.it","name":"Eurocamping Pacengo","phone":"+39-045-7590012","website":"https://www.eurocampingpacengo.it/"}},"111737600":{"location":[45.4583504,10.6414077],"ct":"IT","tp":"CS","ts":"2025-01-02T21:11:02Z","tX":542,"tY":366,"tags":{"addr:housenumber":"6","addr:street":"Via Punta Gro","contact:website":"https://www.tiglioresidence.com/","name":"Tiglio"}},"120163291":{"location":[45.5724012,10.5471586],"ct":"IT","tp":"CS","ts":"2018-02-07T19:02:44Z","tX":542,"tY":366,"tags":{"name":"Camping Sanghen"}},"130332134":{"location":[45.4794299,10.7472577],"ct":"IT","tp":"CS","ts":"2011-09-17T20:11:47Z","tX":542,"tY":366,"tags":{"name":"Le Caldane"}},"132046158":{"location":[45.575581,10.7102853],"ct":"IT","tp":"CR","ts":"2022-07-11T08:53:09Z","tX":542,"tY":366,"tags":{"access":"yes","fee":"2€ /h","name":"Dei Tigli","parking":"surface"}},"141771514":{"location":[45.5088285,10.7322051],"ct":"IT","tp":"CS","ts":"2023-04-22T20:31:02Z","tX":542,"tY":366,"tags":{"addr:city":"Lazise","addr:country":"IT","addr:postcode":"37017","addr:street":"Viale Roma","caravans":"yes","email":"camping.municipale@comune.lazise.vr.it","fee":"yes","name":"Campeggio Comunale di Lazise","opening_hours":"Mar 18 - Nov 6","phone":"+39 045 758 0020","power_supply":"yes","shower":"yes","tents":"yes","toilets":"yes","website":"https://www.comune.lazise.vr.it/c023043/zf/index.php/servizi-aggiuntivi/index/index/idtesto/49","wheelchair":"yes"}},"141950009":{"location":[45.5649819,10.7125586],"ct":"IT","tp":"CS","ts":"2024-11-22T10:33:39Z","tX":542,"tY":366,"tags":{"access":"customers","addr:city":"Bardolino","addr:country":"IT","addr:postcode":"37011","addr:street":"Strada Gardesana","capacity":"300","caravans":"yes","email":"info@campinglarocca.com","fax":"+39 045 7211300","fee":"yes","internet_access":"wlan","name":"Camping La Rocca","operator":"La Rocca camp s.r.l.","phone":"+39 045 7211111","shower":"yes","static_caravans":"yes","tents":"yes","toilets":"yes","website":"https://www.campinglarocca.com/","wheelchair":"yes"}},"142035877":{"location":[45.4542289,10.7003852],"ct":"IT","tp":"CS","ts":"2024-09-04T12:58:18Z","tX":542,"tY":366,"tags":{"caravans":"yes","drinking_water":"yes","name":"Gasparina","power_supply":"yes","shower":"yes","tents":"yes","toilets":"yes","website":"https://www.gasparina.com"}},"177335605":{"location":[45.4656724,10.5939845],"ct":"IT","tp":"CS","ts":"2025-01-02T16:46:35Z","tX":542,"tY":366,"tags":{"addr:city":"Desenzano del Garda","addr:postcode":"25015","addr:street":"Strada Vicinale San Francesco","caravans":"yes","contact:phone":"+39 030-9110245","contact:website":"https://www.campingsanfrancesco.com/","fee":"yes","motorhome":"yes","name":"Camping Village San Francesco","power_supply":"yes","power_supply:maxcurrent":"6;10","socket:cee_blue":"yes","tents":"yes"}},"204962372":{"location":[45.4900327,10.7319444],"ct":"IT","tp":"CS","ts":"2024-08-06T05:50:06Z","tX":542,"tY":366,"tags":{"caravans":"yes","name":"Delle Rose","tents":"yes","website":"https://campeggiodellerose.com/"}},"215559986":{"location":[45.3551686,10.7193759],"ct":"IT","tp":"CR","ts":"2023-11-01T20:58:02Z","tX":542,"tY":366,"tags":{"addr:street":"Strada Provinciale 55","capacity":"60","charge":"Per le prime 5 ore 1,00 €/h es: superate le 5 ore 10,00 € per 24/h.;rimani 3 ore paghi 3.00 €;rimani 6 ore paghi 10,00 €;rimani 24 ore paghi 10,00 €;rimani 26 ore paghi 12,00 €;rimani 30 ore paghi 20,00 €.","fee":"yes","internet_access":"no","name":"Camper Parking Visconteo","power_supply":"yes","sanitary_dump_station":"yes","website":"https://www.camper-parking.it/","wheelchair":"yes"}},"230497460":{"location":[45.5240724,10.7292766],"ct":"IT","tp":"CS","ts":"2023-03-04T09:17:09Z","tX":542,"tY":366,"tags":{"name":"Camping Cisano"}},"230498187":{"location":[45.5264744,10.7314211],"ct":"IT","tp":"CS","ts":"2022-09-27T09:36:58Z","tX":542,"tY":366,"tags":{"name":"Camping San Vito","website":"https://www.camping-cisano.it"}},"237110970":{"location":[45.4963867,10.735402],"ct":"IT","tp":"CS","ts":"2024-10-25T10:00:44Z","tX":542,"tY":366,"tags":{"addr:city":"Lazise","addr:housenumber":"122","addr:postcode":"37017","addr:street":"Via Gardesana","cabins":"yes","camp_site":"deluxe","capacity":"3880","caravans":"yes","contact:whatsapp":"+390457580007","dog":"leashed","email":"info@campingspiaggiadoro.com","fee":"yes","internet_access":"wlan","internet_access:fee":"customers","name":"Camping Spiaggia d'Oro","phone":"+390457580007","power_supply":"yes","power_supply:maxcurrent":"6;16","sanitary_dump_station":"yes","shower":"yes","socket:cee_blue":"yes","stars":"3","tents":"yes","toilets":"yes","washing_machine":"yes","waste_disposal":"yes","website":"https://www.campingspiaggiadoro.com/","wheelchair":"yes"}},"262844170":{"location":[45.5621187,10.5632044],"ct":"IT","tp":"CS","ts":"2025-01-02T21:11:02Z","tX":542,"tY":366,"tags":{"addr:city":"Manerba del Garda","addr:housenumber":"5","addr:postcode":"25080","addr:street":"Via Cavalle","caravans":"yes","contact:website":"https://www.camping-belvedere.it/","name":"Belvedere","tents":"yes"}},"277765466":{"location":[45.569998,10.5481453],"ct":"IT","tp":"CS","ts":"2023-05-03T05:34:35Z","tX":542,"tY":366,"tags":{"caravans":"yes","drinking_water":"yes","name":"Onda Blu","power_supply":"yes","shower":"yes","tents":"yes","toilets":"yes","wheelchair":"limited"}},"278779567":{"location":[45.5603491,10.5533572],"ct":"IT","tp":"CS","ts":"2014-05-02T08:05:27Z","tX":542,"tY":366,"tags":{"name":"Rolli"}},"313351434":{"location":[45.5420184,10.724782],"ct":"IT","tp":"CS","ts":"2023-11-10T03:02:18Z","tX":542,"tY":366,"tags":{"caravans":"yes","drinking_water":"yes","name":"Camping Europa","power_supply":"yes","shower":"yes","tents":"yes","toilets":"yes","website":"https://www.campingarda.it/campingeuropa"}},"315286243":{"location":[45.4390533,10.6840022],"ct":"IT","tp":"CR","ts":"2024-11-19T11:51:36Z","tX":542,"tY":366,"tags":{"addr:city":"Peschiera del Garda","addr:country":"IT","addr:housenumber":"43","addr:postcode":"37019","addr:street":"Via Milano","capacity":"80","caravans":"no","contact:email":"areacamper.peschieradg@gmail.com","contact:phone":"+39 345 2302555","contact:website":"https://www.areacamperpeschiera.com/","dog":"yes","fee":"yes","internet_access":"yes","internet_access:fee":"no","lit":"yes","name":"Area Camper Peschiera","payment:cash":"yes","payment:credit_cards":"yes","payment:debit_cards":"yes","power_supply":"yes","power_supply:maxcurrent":"4","reservation":"no","sanitary_dump_station":"yes","sanitary_dump_station:chemical_toilet":"yes","sanitary_dump_station:grey_water":"yes","shower":"yes","socket:cee_blue":"yes","tents":"no","toilets":"yes","water_point":"yes"}},"337818901":{"location":[45.4307896,10.675532],"ct":"IT","tp":"CR","ts":"2024-09-17T14:54:23Z","tX":542,"tY":366,"tags":{"addr:city":"Peschiera del Garda","addr:country":"IT","addr:housenumber":"11","addr:postcode":"37019","addr:street":"Via Frassino","capacity":"50","dog":"yes","fee":"yes","internet_access":"wlan","lit":"yes","mobile":"+ 39 345 230 2555","name":"Area Camper Frassino","operator":"Immobiliare Diamante di Olioso Francesco & C.","payment:cash":"yes","payment:credit_cards":"yes","payment:debit_cards":"yes","phone":"+ 39 045 755 1584","power_supply":"yes","ref:vatin":"02329030239","reservation":"no","sanitary_dump_station":"yes","shower":"yes","website":"https://www.areacamperpeschiera.com/area-camper-frassino/"}},"350124456":{"location":[45.5629922,10.5578108],"ct":"IT","tp":"CS","ts":"2021-09-14T13:06:42Z","tX":542,"tY":366,"tags":{"name":"Ferienglück","toilets:wheelchair":"yes","wheelchair":"yes"}},"350403952":{"location":[45.5627272,10.5553335],"ct":"IT","tp":"CS","ts":"2025-01-02T16:46:35Z","tX":542,"tY":366,"tags":{"addr:city":"Manerba del Garda","addr:street":"Via dell'Edera","contact:phone":"+39 0365 651753","contact:website":"https://www.campingbaiaverde.it/","name":"Baia Verde"}},"351899205":{"location":[45.5647417,10.5528821],"ct":"IT","tp":"CS","ts":"2015-06-06T13:54:38Z","tX":542,"tY":366,"tags":{"name":"Florida","operator":"Nautica Benaco"}},"364370723":{"location":[45.5636451,10.5522575],"ct":"IT","tp":"CS","ts":"2015-08-06T13:05:02Z","tX":542,"tY":366,"tags":{"name":"Garden Tourist"}},"367802518":{"location":[45.4701089,10.7503795],"ct":"IT","tp":"CR","ts":"2015-08-27T12:00:21Z","tX":542,"tY":366,"tags":{"operator":"Agriturismo La Vigna"}},"386375797":{"location":[45.5628488,10.5539504],"ct":"IT","tp":"CS","ts":"2019-10-05T18:11:29Z","tX":542,"tY":366,"tags":{"name":"Il Faro"}},"407478537":{"location":[45.4738835,10.7199882],"ct":"IT","tp":"CR","ts":"2016-06-11T23:30:23Z","tX":542,"tY":366,"tags":{"internet_access":"wlan","name":"Al Bor","operator":"Al Bor","power_supply":"yes"}},"437143949":{"location":[45.5757736,10.7101566],"ct":"IT","tp":"CR","ts":"2022-08-20T17:13:13Z","tX":542,"tY":366,"tags":{"addr:city":"Garda","addr:housenumber":"3","addr:postcode":"37016","addr:street":"Via Cristoforo Colombo","capacity":"30","charge":"20 EUR","fee":"yes","name":"Area Sosta Camper Via Don Gnocchi Garda...","power_supply":"no","sanitary_dump_station":"yes"}},"437987500":{"location":[45.4471914,10.7001185],"ct":"IT","tp":"CS","ts":"2019-03-24T15:26:20Z","tX":542,"tY":366,"tags":{"addr:city":"Peschiera del Garda","addr:country":"IT","addr:street":"Via Marzan","name":"Del Garda Village","website":"https://www.delgarda.it/"}},"473424181":{"location":[45.3904479,10.6933699],"ct":"IT","tp":"CR","ts":"2021-09-13T08:14:13Z","tX":542,"tY":366,"tags":{"addr:city":"Monzambano","addr:housenumber":"9","addr:street":"Via degli Alpini","capacity":"100","fee":"yes","internet_access":"terminal","name":"Associazione Camperisti Di Monzambano","note":"Orari: mercoledì Aperto 24 ore su 24 giovedì Aperto 24 ore su 24 venerdì Aperto 24 ore su 24 sabato Aperto 24 ore su 24 domenica Aperto 24 ore su 24 lunedì Aperto 24 ore su 24 martedì Aperto 24 ore su 24","opening_hours":"24/7","phone":"+39 334 158 0937","power_supply":"yes","sanitary_dump_station":"yes","website":"http://www.camperistidimonzambano.it/"}},"494890873":{"location":[45.470967,10.6082118],"ct":"IT","tp":"CR","ts":"2024-09-17T14:03:36Z","tX":542,"tY":366,"tags":{"addr:street":"Piazzale John Lennon","power_supply":"no","sanitary_dump_station":"no","toilets":"no","water_point":"no"}},"531192593":{"location":[45.5568249,10.7175511],"ct":"IT","tp":"CS","ts":"2023-11-10T03:01:48Z","tX":542,"tY":366,"tags":{"access":"customers","addr:city":"Bardolino","addr:housenumber":"15","addr:postcode":"37011","addr:street":"Strada Gardesana","capacity":"220","caravans":"yes","email":"info@campingcontinental.info","fee":"yes","internet_access":"wlan","internet_access:fee":"no","name":"Camping Continental","opening_hours":"Apr 7-Oct 10","phone":"+390457210192","tents":"yes","website":"https://www.campingarda.it/campingcontinental"}},"544398418":{"location":[45.5641563,10.5514354],"ct":"IT","tp":"CS","ts":"2022-05-28T21:51:17Z","tX":542,"tY":366,"tags":{}},"606657207":{"location":[45.5749744,10.5511191],"ct":"IT","tp":"CS","ts":"2025-01-02T16:46:35Z","tX":542,"tY":366,"tags":{"contact:phone":"+39 0365 559240","name":"Piccola Gardiola"}},"659133380":{"location":[45.5593041,10.716144],"ct":"IT","tp":"CS","ts":"2024-01-17T14:53:28Z","tX":542,"tY":366,"tags":{"access":"customers","addr:city":"Bardolino","addr:postcode":"37011","addr:street":"Strada Gardesana","capacity":"296","fee":"yes","internet_access":"yes","name":"Family Camping Serenella","note":"quiet time 13:00-15:00, 23:00-7:00","opening_hours":"Mar 19-Nov 01 Mo-Su 07:00-22:00","phone":"+390457211333","toilets:wheelchair":"yes","website":"https://www.camping-serenella.it/","wheelchair":"yes"}},"736791168":{"location":[45.4900411,10.7295251],"ct":"IT","tp":"CS","ts":"2024-06-04T19:34:06Z","tX":542,"tY":366,"tags":{"addr:city":"Lazise sul Garda","addr:postcode":"37017","addr:street":"Loc. Casette Rossetti","email":"info@idealazise.com","name":"IdeaLazise Camping and Village","note":"size approximated, this is a new campsite from 2018 or 2019","operator":"ALPE s.r.l","phone":"+39 045 4951426","website":"https://www.idealazise.com/en/"}},"769385228":{"location":[45.3926853,10.6652356],"ct":"IT","tp":"CR","ts":"2020-02-03T14:29:29Z","tX":542,"tY":366,"tags":{"name":"Area sosta Chiusa"}},"817110847":{"location":[45.3584057,10.7219714],"ct":"IT","tp":"CS","ts":"2020-06-18T06:09:56Z","tX":542,"tY":366,"tags":{"addr:city":"Borghetto","addr:country":"IT","addr:housenumber":"13","addr:postcode":"37067","addr:street":"Via Monte Borghetto","caravans":"yes","name":"Agricamping Borghetto","phone":"+39 045 7952086","tents":"yes","website":"https://www.agricampingborghetto.com/it/"}},"969820298":{"location":[45.4480095,10.8632623],"ct":"IT","tp":"CR","ts":"2024-08-27T20:20:38Z","tX":542,"tY":366,"tags":{"name":"Il Giogo agricampeggio","power_supply":"yes","sanitary_dump_station":"yes","url":"https://www.agricolailgiogo.com/it/area-camper"}},"1023299431":{"location":[45.3882634,10.726184],"ct":"IT","tp":"CS","ts":"2024-09-17T15:12:56Z","tX":542,"tY":366,"tags":{"bbq":"yes","capacity:caravans":"10","caravans":"yes","dog":"yes","email":"maielladelgarda@gmail.com","fee":"yes","motorhome":"yes","name":"AGRICAMPEGGIO MAIELLA DEL GARDA","phone":"+39 3472823935","power_supply":"yes","socket:cee_blue":"yes","toilets":"yes","website":"https://www.maielladelgarda.com/it/agricamping-valeggio-sul-mincio","wheelchair":"yes"}},"1112446811":{"location":[45.3753069,10.6828877],"ct":"IT","tp":"CS","ts":"2022-11-12T09:10:42Z","tX":542,"tY":366,"tags":{"addr:city":"Monzambano","addr:housenumber":"9","addr:postcode":"46040","addr:street":"Strada Festoni","name":"Agricampeggio Seregner","operator":"Erica Gariselli","website":"https://agricampingseregner.it"}},"1177358356":{"location":[45.4566622,10.7177701],"ct":"IT","tp":"SD","ts":"2023-05-29T21:39:29Z","tX":542,"tY":366,"tags":{}},"1177358357":{"location":[45.4567219,10.718271],"ct":"IT","tp":"CR","ts":"2023-05-29T21:39:29Z","tX":542,"tY":366,"tags":{"internet_access":"no","power_supply":"yes","sanitary_dump_station":"yes"}},"1212763603":{"location":[45.5389938,10.55705],"ct":"IT","tp":"CS","ts":"2023-10-08T20:27:00Z","tX":542,"tY":366,"tags":{"addr:city":"Manerba del Garda","addr:country":"IT","addr:housenumber":"43","addr:postcode":"25080","addr:street":"Via del Zocco","backcountry":"no","bbq":"no","cabins":"yes","camp_site":"standard","capacity:caravans":"244","capacity:persons":"1100","capacity:tents":"244","caravans":"yes","contact:email":"info@campingzocco.it","contact:facebook":"campingzocco","contact:phone":"+39 0365 551605","contact:website":"http://www.campingzocco.com","dog":"leashed","drinking_water":"yes","fee":"yes","group_only":"no","hot_water":"yes","internet_access":"wlan","kitchen":"no","lit":"yes","motor_vehicle":"yes","name":"Camping Zocco","nudism":"no","openfire":"no","operator":"Fratelli Sandrini di Sandrini Sandro & C. sas","permanent_camping":"yes","picnic_table":"no","power_supply":"yes","reservation":"recommended","sanitary_dump_station":"yes","scout":"no","shower":"yes","stars":"3","static_caravans":"no","swimming_pool":"yes","tents":"yes","toilets":"yes","toilets:wheelchair":"yes","washing_machine":"yes","waste_disposal":"yes"}},"1229996003":{"location":[45.5664516,10.7701032],"ct":"IT","tp":"CS","ts":"2023-12-09T22:00:34Z","tX":542,"tY":366,"tags":{"name":"Agricampeggio Le Corniole"}},"1235602690":{"location":[45.4575988,10.7167522],"ct":"IT","tp":"CR","ts":"2025-01-03T08:36:43Z","tX":542,"tY":366,"tags":{"addr:housenumber":"57","addr:street":"Via Peschiera","capacity":"50","charge":"14 EUR/12 hours","drinking_water":"yes","fee":"yes","name":"Area Camper Lazise","opening_hours":"Mo-Su 07:00-24:00","payment:cash":"only","phone":"+393756222939","power_supply":"yes","sanitary_dump_station":"yes","shower":"yes","supervised":"no","toilets":"yes","website":"https://www.areacamperlazise.it/"}},"1252143469":{"location":[45.5568126,10.7246149],"ct":"IT","tp":"CS","ts":"2024-10-23T21:36:30Z","tX":542,"tY":366,"tags":{"addr:city":"Bardolino","addr:housenumber":"16a","addr:postcode":"37011","bbq":"yes","capacity:caravans":"15","caravans":"yes","contact:email":"info@terraesogni.it","contact:phone":"+39 3278404808","fee":"yes","internet_access":"wlan","internet_access:fee":"no","name":"Agricampeggio Terra e Sogni","power_supply":"yes","shower":"yes","toilets":"yes","website":"http://www.terraesogni.it/"}},"1300083948":{"location":[45.3530329,10.7193391],"ct":"IT","tp":"CR","ts":"2024-07-08T18:50:22Z","tX":542,"tY":366,"tags":{"area":"yes","charge":"20e/24h","dog":"yes","fee":"yes","internet_access":"yes","internet_access:fee":"no","name":"Area sosta camper Virgilio","power_supply":"yes","sanitary_dump_station":"yes","website":"https://www.parcheggiovirgilio.it/"}},"1310342823":{"location":[45.4470364,10.8339631],"ct":"IT","tp":"CS","ts":"2024-08-23T09:05:34Z","tX":542,"tY":366,"tags":{"area":"yes","bbq":"yes","capacity:caravans":"10","caravans":"yes","drinking_water":"yes","email":"info@el-bacan.it","fee":"yes","name":"El Bacan","phone":"+39 348 9317204","power_supply":"yes","sanitary_dump_station":"yes","shower":"yes","static_caravans":"yes","tents":"yes","toilets":"yes","website":"https://www.el-bacan.it/","wheelchair":"limited"}},"1316152331":{"location":[45.4506372,10.6700849],"ct":"IT","tp":"CS","ts":"2024-09-17T13:01:27Z","tX":542,"tY":366,"tags":{"contact:whatsapp":"+393480718373","dog":"yes","fee":"yes","internet_access":"wlan","internet_access:fee":"no","motorhome":"yes","name":"Camping Bergamini","operator":"Rita","phone":"+390457550283","power_supply:maxcurrent":"10","socket:cee_blue":"yes","stars":"4","start_date":"1956","tents":"yes","website":"https://campingbergamini.it/en/"}},"1316153375":{"location":[45.4484198,10.6516799],"ct":"IT","tp":"CS","ts":"2024-09-17T14:46:11Z","tX":542,"tY":366,"tags":{"cabins":"yes","caravans":"yes","dog":"yes","email":"info@campingdagiovanni.com","fee":"yes","internet_access":"yes","internet_access:fee":"customers","motorhome":"yes","name":"Camping Da Giovanni","payment:cash":"yes","payment:credit_cards":"yes","payment:debit_cards":"yes","power_supply":"yes","power_supply:maxcurrent":"10","socket:cee_blue":"yes","tents":"yes","website":"https://campingdagiovanni.com/"}},"1316170225":{"location":[45.4618084,10.5965711],"ct":"IT","tp":"CS","ts":"2025-01-02T21:11:02Z","tX":542,"tY":366,"tags":{"capacity:caravans":"15","capacity:tents":"15","caravans":"yes","contact:website":"https://www.gardaagricamper.it/","fee":"yes","internet_access":"yes","motorhome":"yes","name":"Garda Agri Camper","sanitary_dump_station:chemical_toilet":"yes","tents":"yes"}},"4233230792":{"location":[45.5065114,10.7725127],"ct":"IT","tp":"CR","ts":"2023-05-06T14:03:55Z","tX":542,"tY":366,"tags":{"addr:street":"Strada Costiere di Calmasino","cabins":"yes","capacity:pitches":"10","caravans":"yes","motorhome":"yes","name":"Tre Colline","phone":"+39 045 723 5219","shower":"yes","toilets":"yes","website":"https://trecollinebardolino.it/"}},"8880616450":{"location":[45.4474743,10.5850233],"ct":"IT","tp":"CS","ts":"2023-07-10T04:48:14Z","tX":542,"tY":366,"tags":{"caravans":"yes","name":"Camping Mabellini","tents":"yes","url":"https://www.camping-mabellini.com/de/"}},"9233854532":{"location":[45.4795672,10.7262301],"ct":"IT","tp":"CS","ts":"2023-11-01T20:59:24Z","tX":542,"tY":366,"tags":{"addr:housenumber":"8","addr:street":"Strada del Roccolo","name":"Camping Amica di Lazise","website":"https://www.campingamicidilazise.it/"}},"10750361934":{"location":[45.4769245,10.7302921],"ct":"IT","tp":"CS","ts":"2023-03-21T09:56:56Z","tX":542,"tY":366,"tags":{"addr:city":"Lazise","addr:housenumber":"9","addr:postcode":"37017","addr:street":"Località Casa Pace","email":"info@campingoasidelgarda.com","name":"Agricamping Oasi del Garda","website":"https://www.campingoasidelgarda.com"}},"6482696601":{"location":[45.5614977,10.7148352],"ct":"IT","tp":"CR","ts":"2024-03-27T16:31:43Z","tX":542,"tY":366,"tags":{"capacity":"10","drinking_water":"yes","fee":"yes","name":"Park Camper Serenella","power_supply":"no","sanitary_dump_station":"customers","toilets":"no","wheelchair":"yes"}},"10788116854":{"location":[45.4679454,10.7500476],"ct":"IT","tp":"CR","ts":"2023-11-15T16:23:04Z","tX":542,"tY":366,"tags":{"charge":"7.50 EUR/5h","drinking_water":"yes","fee":"yes","name":"Parking Parco Termale","power_supply":"yes","sanitary_dump_station":"yes"}},"11470116537":{"location":[45.457571,10.7167819],"ct":"IT","tp":"CR","ts":"2023-12-30T19:38:23Z","tX":542,"tY":366,"tags":{"addr:housenumber":"57","addr:street":"Via Peschiera","capacity":"50","charge":"14 EUR/12 hours","drinking_water":"yes","fee":"yes","name":"Area Camper Lazise","opening_hours":"Mo-Su 07:00-24:00","payment:cash":"only","phone":"+393756222939","power_supply":"yes","sanitary_dump_station":"yes","shower":"yes","supervised":"no","toilets":"yes","website":"https://www.areacamperlazise.it/"}},"4362171972":{"location":[45.4604092,10.6333855],"ct":"IT","tp":"SD","ts":"2016-08-22T22:28:39Z","tX":542,"tY":366,"tags":{}},"5046848234":{"location":[45.4690216,10.6089583],"ct":"IT","tp":"SD","ts":"2024-09-17T14:01:21Z","tX":542,"tY":366,"tags":{"access":"customers","water_point":"yes"}},"5160835939":{"location":[45.5615707,10.7150177],"ct":"IT","tp":"SD","ts":"2017-10-11T12:59:44Z","tX":542,"tY":366,"tags":{"water_point":"yes"}},"5160866714":{"location":[45.5577038,10.71675],"ct":"IT","tp":"SD","ts":"2017-10-11T13:14:26Z","tX":542,"tY":366,"tags":{"water_point":"yes"}},"5198082598":{"location":[45.4876887,10.6104027],"ct":"IT","tp":"SD","ts":"2017-10-29T12:16:32Z","tX":542,"tY":366,"tags":{}},"6035360182":{"location":[45.4391482,10.6846426],"ct":"IT","tp":"SD","ts":"2021-10-22T22:25:27Z","tX":542,"tY":366,"tags":{}},"6458013540":{"location":[45.5533992,10.7180736],"ct":"IT","tp":"SD","ts":"2019-05-08T12:03:13Z","tX":542,"tY":366,"tags":{}},"6482696453":{"location":[45.5580667,10.7170189],"ct":"IT","tp":"SD","ts":"2019-05-18T17:43:53Z","tX":542,"tY":366,"tags":{}},"6482696456":{"location":[45.5594048,10.7156268],"ct":"IT","tp":"SD","ts":"2019-05-18T17:43:53Z","tX":542,"tY":366,"tags":{}},"6482696460":{"location":[45.560464,10.7155913],"ct":"IT","tp":"SD","ts":"2019-05-18T17:43:53Z","tX":542,"tY":366,"tags":{}},"6482696475":{"location":[45.558585,10.7161666],"ct":"IT","tp":"SD","ts":"2019-05-18T17:43:53Z","tX":542,"tY":366,"tags":{"access":"customers","water_point":"yes"}},"7775431172":{"location":[45.4972028,10.7357333],"ct":"IT","tp":"SD","ts":"2022-08-07T22:17:41Z","tX":542,"tY":366,"tags":{"access":"customers","fee":"no","operator":"Camping Spiaggia d'Oro","sanitary_dump_station:chemical_toilet":"no","sanitary_dump_station:grey_water":"yes","water_point":"yes"}},"8785232336":{"location":[45.4843409,10.7310401],"ct":"IT","tp":"SD","ts":"2021-05-31T10:30:06Z","tX":542,"tY":366,"tags":{"access":"customers","water_point":"yes"}},"9113450523":{"location":[45.4943372,10.732377],"ct":"IT","tp":"SD","ts":"2024-09-07T14:47:30Z","tX":542,"tY":366,"tags":{"fee":"no"}},"9113450565":{"location":[45.4926135,10.7319803],"ct":"IT","tp":"SD","ts":"2024-09-09T08:44:01Z","tX":542,"tY":366,"tags":{"fee":"yes"}},"9113450566":{"location":[45.4924701,10.7306633],"ct":"IT","tp":"SD","ts":"2024-09-09T08:44:09Z","tX":542,"tY":366,"tags":{"fee":"no"}},"9113450578":{"location":[45.4909382,10.7331866],"ct":"IT","tp":"SD","ts":"2024-09-07T14:47:25Z","tX":542,"tY":366,"tags":{"fee":"no"}},"9113450579":{"location":[45.4899538,10.7347825],"ct":"IT","tp":"SD","ts":"2021-09-22T11:11:55Z","tX":542,"tY":366,"tags":{}},"9458508172":{"location":[45.5093589,10.7321939],"ct":"IT","tp":"SD","ts":"2022-01-29T17:18:00Z","tX":542,"tY":366,"tags":{"access":"customers","fee":"no","operator":"campingplatz"}},"9813252176":{"location":[45.5384851,10.5563626],"ct":"IT","tp":"SD","ts":"2024-09-11T12:40:34Z","tX":542,"tY":366,"tags":{"fee":"yes"}},"9935667087":{"location":[45.4967343,10.7377204],"ct":"IT","tp":"SD","ts":"2022-08-06T21:22:51Z","tX":542,"tY":366,"tags":{"access":"customers","fee":"no","operator":"Camping Spiaggia d'Oro","sanitary_dump_station:chemical_toilet":"no","sanitary_dump_station:grey_water":"yes","water_point":"yes"}},"10852635655":{"location":[45.5397868,10.7814122],"ct":"IT","tp":"SD","ts":"2024-05-03T15:21:31Z","tX":542,"tY":366,"tags":{"access":"yes"}},"10974868299":{"location":[45.5402196,10.7793856],"ct":"IT","tp":"SD","ts":"2025-01-01T19:10:44Z","tX":542,"tY":366,"tags":{"access":"yes","fee":"no"}},"12095122815":{"location":[45.5791457,10.555755],"ct":"IT","tp":"SD","ts":"2024-08-06T11:39:59Z","tX":542,"tY":366,"tags":{"access":"private","water_point":"no"}},"12095122816":{"location":[45.5785896,10.5547437],"ct":"IT","tp":"SD","ts":"2024-08-06T11:39:59Z","tX":542,"tY":366,"tags":{"access":"private"}},"12240947058":{"location":[45.4179045,10.8257317],"ct":"IT","tp":"SD","ts":"2024-10-10T09:15:28Z","tX":542,"tY":366,"tags":{"access":"yes","fee":"no"}}}