{"1312270494":{"location":[44.923491,10.6514254],"ct":"IT","tp":"CR","ts":"2024-08-30T16:24:47Z","tX":542,"tY":368,"tags":{"addr:city":"Guastalla","addr:housenumber":"9 A","addr:postcode":"42016","addr:street":"Via Ugo Foscolo","capacity":"5","name":"Area Sosta Camper Guastalla","power_supply":"yes","sanitary_dump_station":"yes","socket:cee_blue":"yes"}},"1335600677":{"location":[44.8989709,10.5505769],"ct":"IT","tp":"CR","ts":"2024-11-19T15:51:23Z","tX":542,"tY":368,"tags":{"addr:city":"Boretto","addr:postcode":"42022","addr:street":"Viale Quattro Novembre","contact:website":"https://www.reggioemiliawelcome.it/it/boretto/ospitalita/dove-dormire/aree-di-sosta-camper/area-sosta-camper-boretto","fee":"no","name":"Area camper comunale","power_supply":"no"}},"11807236471":{"location":[44.9055991,10.5608176],"ct":"IT","tp":"CR","ts":"2024-08-30T16:32:10Z","tX":542,"tY":368,"tags":{"addr:city":"Boretto","addr:housenumber":"5","addr:postcode":"42022","addr:street":"Via Argine","dog":"yes","fee":"yes","internet_access":"wlan","name":"River Passion","phone":"+3905221402398","power_supply":"yes","shower":"yes","toilets":"yes","website":"https://riverpassion.it/areacamper.html","wheelchair":"yes"}},"5451382368":{"location":[44.9234334,10.6504786],"ct":"IT","tp":"SD","ts":"2018-03-03T15:47:11Z","tX":542,"tY":368,"tags":{"access":"yes","operator":"Comune di Guastalla","water_point":"yes"}},"9858591610":{"location":[45.0056852,10.7435345],"ct":"IT","tp":"SD","ts":"2024-11-19T15:40:25Z","tX":542,"tY":368,"tags":{"access":"yes","fee":"no","sanitary_dump_station:basin":"yes","sanitary_dump_station:round_drain":"yes","water_point":"yes"}},"12244059374":{"location":[45.0594192,10.8399875],"ct":"IT","tp":"SD","ts":"2024-10-11T12:45:30Z","tX":542,"tY":368,"tags":{"access":"yes","fee":"no","water_point":"yes"}},"12244073466":{"location":[45.0656156,10.8446121],"ct":"IT","tp":"SD","ts":"2024-10-11T12:42:27Z","tX":542,"tY":368,"tags":{"access":"yes","fee":"no","water_point":"yes"}},"12355442242":{"location":[44.8990628,10.5506012],"ct":"IT","tp":"SD","ts":"2024-11-19T15:51:23Z","tX":542,"tY":368,"tags":{"access":"yes","fee":"no","water_point":"yes"}}}