{"2662357":{"location":[44.6349237,10.8050371],"ct":"IT","tp":"CS","ts":"2017-09-10T08:59:28Z","tX":542,"tY":369,"tags":{"camp_site":"serviced","caravans":"yes","fee":"yes","name":"Caravan Camping Club","tents":"yes"}},"190433110":{"location":[44.6544416,10.8671785],"ct":"IT","tp":"CS","ts":"2024-06-26T09:33:16Z","tX":542,"tY":369,"tags":{"addr:city":"Modena","addr:country":"IT","addr:housenumber":"111","addr:postcode":"41123","addr:street":"Strada Cave Ramo","barrier":"fence","contact:phone":"+39 059 332252","contact:website":"http://www.internationalcamping.eu/index.php/en/contact-us","email":"info@internationalcamping.eu","name":"Camping International Modena","website":"https://www.internationalcamping.eu/index.php/en/"}},"975957591":{"location":[44.6423284,10.6191649],"ct":"IT","tp":"CR","ts":"2024-10-15T15:33:47Z","tX":542,"tY":369,"tags":{"addr:city":"Reggio Emilia","addr:housenumber":"7","addr:postcode":"42123","addr:street":"Via Monterampino","email":"agriturismo@larazza.it","fee":"yes","name":"Area Sosta La Razza","phone":"+39 0522 599342","power_supply":"yes","power_supply:maxcurrent":"6","reservation":"yes","sanitary_dump_station":"yes","shower":"yes","socket:cee_blue":"yes","toilets":"yes","website":"https://www.larazza.it/accoglienza/camper/"}},"1262859558":{"location":[44.5984155,10.6821734],"ct":"IT","tp":"CR","ts":"2024-09-16T20:44:53Z","tX":542,"tY":369,"tags":{"addr:city":"Scandiano","addr:housenumber":"70","addr:postcode":"42019","addr:street":"Viale Giuseppe Mazzini","capacity":"3","fee":"no","maxstay":"48 hours","name":"Area camper Scandiano","power_supply":"yes","power_supply:fee":"no","sanitary_dump_station":"yes","shower":"no","socket:cee_blue":"4","surface":"asphalt","toilets":"no","website":"https://www.comune.scandiano.re.it/2024/08/nuova-area-sosta-per-autocaravan/"}},"1304651315":{"location":[44.7028224,10.8463421],"ct":"IT","tp":"CR","ts":"2024-07-30T13:45:04Z","tX":542,"tY":369,"tags":{"capacity":"7","fee":"no","power_supply":"yes","sanitary_dump_station":"yes"}},"9031378628":{"location":[44.6509503,10.7307301],"ct":"IT","tp":"CS","ts":"2024-09-13T20:04:36Z","tX":542,"tY":369,"tags":{"access":"permissive","addr:city":"Reggio nell'Emilia","addr:housenumber":"4/1","addr:postcode":"42122","addr:street":"Via Olinto Cigarini","caravans":"yes","fee":"yes","name":"Agricampeggio La Prateria","phone":"+39 338 8389781","power_supply":"yes","sanitary_dump_station":"yes","socket:cee_blue":"yes","tents":"yes","website":"https://www.laprateria.net/agricampeggio/"}},"8381303617":{"location":[44.6466976,10.8878517],"ct":"IT","tp":"CR","ts":"2023-02-05T07:06:07Z","tX":542,"tY":369,"tags":{"opening_hours":"24/7"}},"9031739084":{"location":[44.7096336,10.6246097],"ct":"IT","tp":"CR","ts":"2024-08-30T22:07:13Z","tX":542,"tY":369,"tags":{"addr:city":"Reggio Emilia","addr:postcode":"42124","addr:street":"Via Fratelli Manfredi","capacity":"6","maxstay":"24 hours","name":"Area Sosta Foro Boario","power_supply":"yes","sanitary_dump_station":"yes","socket:cee_blue":"yes","toilets":"no","website":"https://www.reggioemiliawelcome.it/it/reggio-emilia/ospitalita/dove-dormire/aree-di-sosta-camper/area-attrezzata-per-camper"}},"9031824427":{"location":[44.7675641,10.7742118],"ct":"IT","tp":"CR","ts":"2024-08-21T19:26:19Z","tX":542,"tY":369,"tags":{"addr:city":"Correggio","addr:postcode":"42025","addr:street":"Via Fazzano","description":"Area camper, usata principalmente durante concerti e partite importanti","drinking_water":"yes","fee":"no","internet_access":"no","name":"Area Sosta Camper Correggio","permanent_camping":"no","power_supply":"no","sanitary_dump_station":"yes","toilets":"no"}},"5335596945":{"location":[44.7838774,10.8680924],"ct":"IT","tp":"SD","ts":"2018-01-14T19:56:36Z","tX":542,"tY":369,"tags":{"fee":"no","sanitary_dump_station:chemical_toilet":"yes","sanitary_dump_station:grey_water":"yes","water_point":"yes"}},"6567423192":{"location":[44.5963893,10.675902],"ct":"IT","tp":"SD","ts":"2019-06-24T09:31:16Z","tX":542,"tY":369,"tags":{"fee":"no","water_point":"no"}},"9031678917":{"location":[44.6421756,10.7779674],"ct":"IT","tp":"SD","ts":"2021-08-24T09:35:13Z","tX":542,"tY":369,"tags":{"access":"yes","fee":"no","operator":"Comune di Rubiera","water_point":"yes"}},"9031726574":{"location":[44.642305,10.618676],"ct":"IT","tp":"SD","ts":"2021-08-24T09:52:17Z","tX":542,"tY":369,"tags":{"access":"yes","charge":"5 EUR","fee":"yes","water_point":"yes"}},"9031739085":{"location":[44.7092256,10.6238171],"ct":"IT","tp":"SD","ts":"2021-08-24T10:03:44Z","tX":542,"tY":369,"tags":{"access":"yes","fee":"no","opening_hours":"24/7","operator":"Camper Service Foro Boario","water_point":"yes"}},"9031824428":{"location":[44.7676418,10.7741348],"ct":"IT","tp":"SD","ts":"2021-08-24T10:34:58Z","tX":542,"tY":369,"tags":{"access":"yes","fee":"no","water_point":"yes"}},"11733646651":{"location":[44.5983924,10.6822325],"ct":"IT","tp":"SD","ts":"2024-03-15T09:49:43Z","tX":542,"tY":369,"tags":{"fee":"no","water_point":"no"}},"12083251066":{"location":[44.7029888,10.8464771],"ct":"IT","tp":"SD","ts":"2024-07-30T13:45:04Z","tX":542,"tY":369,"tags":{"access":"yes","fee":"no"}},"12083265191":{"location":[44.7046499,10.8493766],"ct":"IT","tp":"SD","ts":"2024-07-30T13:57:58Z","tX":542,"tY":369,"tags":{"access":"yes","fee":"no"}},"12109281938":{"location":[44.6507374,10.7320581],"ct":"IT","tp":"SD","ts":"2024-08-13T22:31:38Z","tX":542,"tY":369,"tags":{"access":"customers","water_point":"yes"}},"12738666781":{"location":[44.6075555,10.6138929],"ct":"IT","tp":"CR","ts":"2025-04-13T17:45:11Z","tX":542,"tY":369,"tags":{"addr:city":"Albinea","addr:housenumber":"32","addr:postcode":"42020","addr:street":"Via Oliveto","capacity":"4","caravan_site:type":"farm","charge":"30 EUR/day","fee":"yes","internet_access":"no","name":"Lavandeto Antico Casale","power_supply":"yes","sanitary_dump_station":"no","shower":"yes","toilets":"yes","website":"https://park4night.com/en/place/251201"}}}