{"12759423":{"location":[44.0716099,10.8521034],"ct":"IT","tp":"CS","ts":"2024-10-15T15:32:09Z","tX":542,"tY":372,"tags":{"addr:street":"Via del Teso","caravans":"yes","fee":"yes","name":"Campeggio Foresta del Teso","permanent_camping":"yes","phone":"+39 057364175","power_supply":"yes","socket:cee_blue":"yes","tents":"yes","website":"https://www.facebook.com/p/Parco-Vacanze-Foresta-Del-Teso-100064583319699"}},"1109858982":{"location":[44.0046167,10.5625291],"ct":"IT","tp":"CR","ts":"2022-11-03T00:21:28Z","tX":542,"tY":372,"tags":{}},"1302515531":{"location":[43.996619,10.8963004],"ct":"IT","tp":"CR","ts":"2024-07-25T13:20:54Z","tX":542,"tY":372,"tags":{"addr:city":"Pistoia","addr:housenumber":"2","addr:postcode":"51100","addr:street":"Via di Calabbiana","area":"yes","email":"info@campofossato.it","name":"Agricamper \"Podere Campofossato\"","name:it":"Agricamper \"Podere Campofossato\"","phone":"+39 0573 416780","website":"https://www.campofossato.it/"}},"8856077509":{"location":[43.9391323,10.8066001],"ct":"IT","tp":"CS","ts":"2021-06-22T15:06:26Z","tX":542,"tY":372,"tags":{"addr:housenumber":"11a","addr:street":"Via delle Croci","name":"Agricampeggio Le Carbonaie","phone":"+39 0572 616005","website":"http://www.lecarbonaie.it"}},"7580003281":{"location":[44.0542946,10.7942805],"ct":"IT","tp":"CR","ts":"2020-06-02T11:46:59Z","tX":542,"tY":372,"tags":{}},"9927544322":{"location":[43.9066725,10.7895799],"ct":"IT","tp":"SD","ts":"2022-08-02T17:24:21Z","tX":542,"tY":372,"tags":{}}}