{"265387963":{"location":[43.6732293,10.7522715],"ct":"IT","tp":"CR","ts":"2024-08-31T18:30:54Z","tX":542,"tY":373,"tags":{"addr:city":"Montopoli in Val D'Arno","addr:postcode":"56020","addr:street":"Piazza Amerigo Vespucci","name":"Area Sosta Camper A. Vespucci","power_supply":"no","sanitary_dump_station":"yes","toilets":"no"}},"629539115":{"location":[43.6768026,10.7520297],"ct":"IT","tp":"CS","ts":"2024-08-31T18:30:54Z","tX":542,"tY":373,"tags":{"addr:city":"Montopoli in Val D'Arno","addr:housenumber":"9","addr:postcode":"56020","addr:street":"Via Fornoli","barrier":"fence","cabins":"yes","caravans":"yes","dog":"yes","dryer":"yes","fee":"yes","internet_access":"wlan","internet_access:fee":"customers","motorhome":"yes","name":"Toscana Village","power_supply":"yes","power_supply:maxcurrent":"6","shower":"yes","tents":"yes","toilets":"yes","washing_machine":"yes","website":"https://www.toscanavillage.com/"}},"1203419050":{"location":[43.5901312,10.6746802],"ct":"IT","tp":"SD","ts":"2023-08-30T07:39:22Z","tX":542,"tY":373,"tags":{"access":"yes","electricity":"yes","fee":"yes","payment:app":"yes","water_point":"yes"}},"1312473453":{"location":[43.6901826,10.5831121],"ct":"IT","tp":"CR","ts":"2024-08-31T18:09:14Z","tX":542,"tY":373,"tags":{"addr:city":"Vicopisano","addr:postcode":"56012","addr:street":"Piazza Comunardo Ferrucci","internet_access":"wlan","internet_access:fee":"no","lit":"yes","name":"Area Camper Vicopisano","power_supply":"no","sanitary_dump_station":"yes","toilets":"no","website":"https://www.comune.vicopisano.pi.it/Servizi/Area-Camper-servizi-e-accesso#"}},"1312474301":{"location":[43.6962824,10.6992558],"ct":"IT","tp":"CR","ts":"2024-08-31T18:13:59Z","tX":542,"tY":373,"tags":{"addr:city":"Santa Maria A Monte","addr:street":"Via Usciana","area":"yes","name":"Area camper Santa Maria a Monte","power_supply":"no","sanitary_dump_station":"yes","toilets":"no"}},"6432699655":{"location":[43.8206609,10.6533973],"ct":"IT","tp":"CR","ts":"2024-09-27T07:43:48Z","tX":542,"tY":373,"tags":{"drinking_water":"no","fee":"no","name:signed":"no","power_supply":"no","sanitary_dump_station":"no","toilets":"no"}},"9552331708":{"location":[43.6901836,10.5831051],"ct":"IT","tp":"CR","ts":"2022-03-03T17:41:43Z","tX":542,"tY":373,"tags":{"sanitary_dump_station":"yes"}},"5939457547":{"location":[43.6734378,10.7519339],"ct":"IT","tp":"SD","ts":"2018-09-29T18:04:58Z","tX":542,"tY":373,"tags":{"sanitary_dump_station:basin":"yes"}},"9494715024":{"location":[43.630537,10.6192613],"ct":"IT","tp":"SD","ts":"2024-03-30T22:05:09Z","tX":542,"tY":373,"tags":{"addr:city":"Ponsacco","addr:postcode":"56038","addr:street":"Viale Europa","name":"Area di sosta a Ponsacco"}}}