{"6456732":{"location":[43.1644986,10.6161217],"ct":"IT","tp":"CS","ts":"2024-09-13T12:58:40Z","tX":542,"tY":375,"tags":{"cabins":"yes","landcover":"trees","motorhome":"yes","name":"Camping Village Le Pianacce","phone":"+39 0565 763667","power_supply":"yes","power_supply:maxcurrent":"6","socket:cee_blue":"yes","website":"https://www.campinglepianacce.it"}},"14377950":{"location":[43.1544538,10.5495934],"ct":"IT","tp":"CS","ts":"2024-09-13T12:56:41Z","tX":542,"tY":375,"tags":{"addr:housenumber":"380A","addr:street":"Localit√† Pianetti","cabins":"yes","capacity:caravans":"20","caravans":"yes","dog":"yes","fee":"yes","motorhome":"yes","name":"Podere Pianetti Agriclamping","phone":"+39 331 1560173","power_supply":"yes","power_supply:maxcurrent":"10","socket:cee_blue":"yes","static_caravans":"yes","washing_machine":"yes","website":"https://poderepianetti.it"}},"165620191":{"location":[43.2993961,10.5796767],"ct":"IT","tp":"CS","ts":"2024-10-25T13:10:22Z","tX":542,"tY":375,"tags":{"addr:city":"Casale Marittimo","addr:country":"IT","addr:housenumber":"87","addr:postcode":"56040","addr:street":"Via Cecinese","barrier":"fence","capacity:caravans":"220","caravans":"yes","dog":"yes","email":"info@vallegaia.it","fax":"+39 0586 683551","fee":"yes","fence_type":"barbed_wire","internet_access":"wlan","motorhome":"yes","name":"Valle Gaia","phone":"+39 0586 681236","power_supply":"yes","socket:cee_blue":"yes","stars":"5","tents":"yes","website":"https://www.vallegaia.it/","wheelchair":"yes"}},"185536497":{"location":[43.2528599,10.5532649],"ct":"IT","tp":"CS","ts":"2024-09-13T12:24:21Z","tX":542,"tY":375,"tags":{"addr:milestone":"273 km","addr:postcode":"57020","addr:street":"Via Aurelia Sud","cabins":"yes","caravans":"yes","dog":"yes","email":"info@campinglecapanne.it","fee":"yes","internet_access":"yes","internet_access:fee":"customers","motorhome":"yes","name":"Le Capanne","phone":"+39 0586 600064","power_supply":"yes","power_supply:maxcurrent":"6;10","socket:cee_blue":"yes","tents":"yes","website":"https://www.campinglecapanne.it/"}},"816340679":{"location":[43.2996928,10.8691418],"ct":"IT","tp":"CR","ts":"2024-03-27T22:05:11Z","tX":542,"tY":375,"tags":{"capacity":"18","fee":"yes","name":"Area Camper del Comune di Pomarance","operator":"Comune di Pomarance","picnic_area":"yes","power_supply":"yes","sanitary_dump_station":"yes","supervised":"yes","tents":"no","toilets":"yes","water_point":"yes","website":"https://www.comunepomarance.it/in-evidenza/area-camper-/4585"}},"1328145776":{"location":[43.317874,10.5528059],"ct":"IT","tp":"CS","ts":"2024-10-25T13:04:51Z","tX":542,"tY":375,"tags":{"addr:city":"Montescudaio","addr:housenumber":"2","addr:postcode":"56040","addr:street":"Via del Poggetto","cabins":"yes","caravans":"yes","dog":"leashed","fee":"yes","internet_access":"wlan","name":"Camping Village Montescudaio","operator":"Hu Holding SRL","payment:cash":"yes","payment:credit_cards":"yes","payment:debit_cards":"yes","power_supply":"yes","reservation":"yes","sanitary_dump_station":"yes","socket:cee_blue":"yes","tents":"yes","washing_machine":"yes","website":"https://montescudaio.huopenair.com/"}},"1328151986":{"location":[43.2876376,10.5555517],"ct":"IT","tp":"CS","ts":"2024-10-29T22:15:33Z","tX":542,"tY":375,"tags":{"addr:city":"Cecina","addr:housenumber":"53","addr:street":"Strada Provinciale 14 del Paratino","caravans":"yes","contact:email":"info@agricampercecina.it","contact:phone":"+393280887291","description":"Agricampeggio con piazzole recintate per cani","dog":"yes","fee":"yes","motorhome":"yes","name":"Agricamper Gioia Selvaggia e Fabio","power_supply":"yes","shower":"yes","socket:cee_blue":"yes","toilets":"yes","website":"https://www.agricampercecina.it/"}},"2440193433":{"location":[43.1502851,10.7364622],"ct":"IT","tp":"CR","ts":"2013-10-16T15:25:57Z","tX":542,"tY":375,"tags":{"capacity":"20","fee":"yes","name":"Agriturismo Tenuta Sant'Agnese","phone":"+39 333 4875065","power_supply":"yes","website":"http://www.agrisantagnese.it/"}},"6011114595":{"location":[43.3037192,10.8476712],"ct":"IT","tp":"CS","ts":"2018-10-24T21:38:31Z","tX":542,"tY":375,"tags":{"addr:city":"Pomarance","addr:country":"IT","addr:postcode":"56045","addr:street":"Strada Provinciale 47 di Micciano","capacity":"5","name":"Agricampeggio Il Colono","sanitary_dump_station":"customers","shower":"yes","website":"http://agricampeggioilcolono.it"}},"9851241408":{"location":[43.1477048,10.8609989],"ct":"IT","tp":"SD","ts":"2022-06-27T17:53:43Z","tX":542,"tY":375,"tags":{"access":"yes","fee":"yes","opening_hours":"24/7","payment:bancomat":"no","payment:coins":"yes","payment:credit_cards":"no","payment:notes":"no"}},"12288056824":{"location":[43.2985821,10.5807742],"ct":"IT","tp":"SD","ts":"2024-10-25T13:10:22Z","tX":542,"tY":375,"tags":{"access":"customers","water_point":"yes"}},"12288094216":{"location":[43.3168918,10.5529299],"ct":"IT","tp":"SD","ts":"2024-10-25T13:04:51Z","tX":542,"tY":375,"tags":{"access":"customers","water_point":"yes"}},"12288135305":{"location":[43.2875399,10.5549832],"ct":"IT","tp":"SD","ts":"2024-10-25T13:30:49Z","tX":542,"tY":375,"tags":{"water_point":"yes"}}}