{"3425426":{"location":[42.9348729,10.7272177],"ct":"IT","tp":"CS","ts":"2024-07-31T07:10:57Z","tX":542,"tY":376,"tags":{"addr:city":"Follonica","addr:country":"IT","addr:housenumber":"250","addr:postcode":"58022","addr:street":"Via Don Sebastiano Leone","caravans":"yes","contact:email":"info@campeggiotahiti.it","contact:fax":"+39 0566 261963","contact:phone":"+39 0566 260255","contact:website":"http://www.campeggiotahiti.it/","internet_access":"wlan","internet_access:fee":"yes","name":"Campeggio Tahiti","static_caravans":"yes","tents":"yes"}},"3672341":{"location":[42.9574772,10.815087],"ct":"IT","tp":"CS","ts":"2016-04-26T01:13:55Z","tX":542,"tY":376,"tags":{"addr:city":"Scarlino","addr:country":"IT","addr:place":"Castellina","addr:postcode":"58020","contact:website":"http://cavcasainmaremma.it","name":"Casa in Maremma"}},"6230207":{"location":[42.9125502,10.7704624],"ct":"IT","tp":"CS","ts":"2024-07-31T07:21:31Z","tX":542,"tY":376,"tags":{"addr:city":"Follonica","addr:housenumber":"2","addr:postcode":"58022","addr:street":"Via delle Collacchie","camp_site":"reception","caravans":"yes","fee":"yes","name":"Pineta del Golfo","phone":"+39 0566 53369","power_supply":"yes","static_caravans":"yes","tents":"yes","website":"https://www.pinetadelgolfo.it/"}},"14280293":{"location":[42.8354571,10.7774473],"ct":"IT","tp":"CS","ts":"2024-08-14T06:12:03Z","tX":542,"tY":376,"tags":{"access":"customers","addr:city":"Castiglione della Pescaia","addr:postcode":"58043","addr:street":"Strada Provinciale 61 di Punta Ala","capacity":"3000","caravans":"yes","dog":"yes","fee":"yes","internet_access":"yes","name":"Baia Verde","power_supply":"yes","power_supply:maxcurrent":"3","socket:cee_blue":"yes","static_caravans":"yes","tents":"yes","website":"https://www.baiaverde.com/"}},"14280294":{"location":[42.8402686,10.7778351],"ct":"IT","tp":"CS","ts":"2024-09-13T22:26:30Z","tX":542,"tY":376,"tags":{"addr:city":"Castiglione della Pescaia","addr:postcode":"58043","addr:street":"Strada Vicinale Pian d'Alma","alt_name":"PuntAla Camp & Resort","caravans":"yes","dog":"yes","fee":"yes","internet_access":"wlan","internet_access:fee":"customers","loc_name":"Camping Punta Ala","name":"Punta Ala Camp & Resort","power_supply":"yes","power_supply:maxcurrent":"6.5","socket:cee_blue":"yes","stars":"4","tents":"yes","toilets":"yes","website":"https://www.campingpuntala.it"}},"15046951":{"location":[42.9107045,10.8434631],"ct":"IT","tp":"CS","ts":"2024-09-13T16:11:42Z","tX":542,"tY":376,"tags":{"addr:city":"Scarlino","addr:country":"IT","addr:place":"il Fontino","addr:postcode":"58020","cabins":"yes","caravans":"yes","dog":"yes","fee":"yes","motorhome":"yes","name":"Camping Village il Fontino","power_supply":"yes","power_supply:maxcurrent":"3;6","sanitary_dump_station":"yes","socket:cee_blue":"yes","stars":"3","tents":"yes","website":"https://www.fontino.it/"}},"15313455":{"location":[42.9660921,10.64916],"ct":"IT","tp":"CS","ts":"2023-01-15T02:04:42Z","tX":542,"tY":376,"tags":{"addr:country":"IT","addr:housenumber":"15","addr:place":"Campo al Fico","addr:postcode":"57020","name":"Campo al Fico","phone":"+39056521008","website":"https://www.campingcampoalfico.com/"}},"15648327":{"location":[42.9559175,10.6789148],"ct":"IT","tp":"CS","ts":"2023-05-08T19:45:08Z","tX":542,"tY":376,"tags":{"addr:city":"Piombino","addr:country":"IT","addr:place":"Mortelliccio","addr:postcode":"57025","caravans":"yes","email":"Pelerine@hotmail.com","fee":"yes","mobile":"+447909914262","motorhome":"yes","name":"Podere Mortelliccio","phone":"+441531822761","power_supply":"yes","reservation":"yes","sanitary_dump_station":"yes","shower":"yes","tents":"yes","toilets":"yes","website":"http://www.ilmortelliccio.com"}},"15819497":{"location":[42.9719437,10.6356299],"ct":"IT","tp":"CS","ts":"2024-09-13T15:35:40Z","tX":542,"tY":376,"tags":{"addr:city":"Piombino","addr:country":"IT","addr:housenumber":"3","addr:place":"Fossaccia","addr:postcode":"57025","capacity:caravans":"8","caravans":"yes","fee":"yes","internet_access":"wlan","internet_access:fee":"no","motorhome":"yes","name":"Vento Etrusco Agricampeggio","phone":"+39 393 9428069","power_supply":"yes","power_supply:maxcurrent":"16","sanitary_dump_station":"yes","socket:cee_blue":"yes","tents":"yes","website":"https://agricampingventoetrusco.it"}},"15823568":{"location":[42.9571828,10.6344087],"ct":"IT","tp":"CS","ts":"2024-09-13T16:00:35Z","tX":542,"tY":376,"tags":{"addr:street":"Strada Comunale 7 di Carlappiano","bbq":"yes","caravans":"yes","contact:whatsapp":"+39 3921813406","dog":"yes","fee":"yes","name":"Calips agricampeggio","operator":"Società Agricola Giorgi s.r.l.","phone":"+39 392 181 3406","power_supply":"yes","sanitary_dump_station":"yes","shower":"yes","socket:cee_blue":"yes","toilets":"yes"}},"15828267":{"location":[42.9538506,10.667371],"ct":"IT","tp":"CR","ts":"2023-08-22T15:17:10Z","tX":542,"tY":376,"tags":{"addr:city":"Piombino","addr:country":"IT","addr:place":"Mortelliccio","addr:postcode":"57025","fee":"yes","internet_access":"wlan","name":"Camper Oasi","opening_hours":"Oct-Mar off","power_supply":"yes","reservation":"yes","sanitary_dump_station":"yes","seasonal":"summer","website":"https://www.camperoasi.com"}},"15828270":{"location":[42.9564392,10.6732098],"ct":"IT","tp":"CR","ts":"2023-05-08T19:45:07Z","tX":542,"tY":376,"tags":{"addr:city":"Piombino","addr:country":"IT","addr:place":"Mortelliccio","addr:postcode":"57025","fee":"yes","name":"Agricamping Isolotto","operator":"Agriturismo Isolotto","power_supply":"yes","reservation":"yes","sanitary_dump_station":"yes","website":"https://www.agriturismoisolotto.it/"}},"15828276":{"location":[42.951009,10.683776],"ct":"IT","tp":"PK","ts":"2023-08-22T15:17:10Z","tX":542,"tY":376,"tags":{"capacity":"202","capacity:caravans":"73","capacity:disabled":"6","capacity:motorcycle":"10","caravan":"yes","caravans":"yes","fee":"no","fee:conditional":"yes @ (Apr 15-Oct 1 08:00-20:00)","name":"Carbonifera 1","operator":"Parchi della Val di Cornia","parking":"surface","phone":"+39 0565 261142","surface":"fine_gravel","website":"https://www.parchivaldicornia.it/info-e-servizi/mobilita-e-parcheggi"}},"15828287":{"location":[42.952947,10.6682045],"ct":"IT","tp":"PK","ts":"2023-08-22T15:17:10Z","tX":542,"tY":376,"tags":{"capacity":"468","capacity:caravans":"18","capacity:disabled":"9","capacity:motorcycle":"10","caravan":"yes","caravans":"yes","fee":"no","fee:conditional":"yes @ (Apr 20-Oct 4 08:00-20:00)","motorcar":"yes","motorcycle":"yes","name":"Mortelliccio 1","operator":"Parchi della Val di Cornia","parking":"surface","surface":"unpaved","wheelchair":"limited"}},"15831975":{"location":[42.9474732,10.6916358],"ct":"IT","tp":"PK","ts":"2023-08-22T15:17:10Z","tX":542,"tY":376,"tags":{"access":"yes","capacity":"304","capacity:disabled":"6","capacity:motorcycle":"10","capacity:motorcycles":"10","caravan":"no","caravans":"yes","fee":"no","fee:conditional":"yes @ (Apr 15-Oct 1 08:00-20:00)","motorcar":"yes","motorcycle":"yes","name":"Torremozza 2","operator":"Parchi della Val di Cornia","parking":"surface","phone":"+39 0565 261142","surface":"unpaved","website":"https://www.parchivaldicornia.it/info-e-servizi/mobilita-e-parcheggi"}},"15831976":{"location":[42.9471731,10.6928298],"ct":"IT","tp":"CR","ts":"2023-08-22T15:17:10Z","tX":542,"tY":376,"tags":{"capacity":"90","fee":"yes","name":"Torremozza 2","operator":"Parchi della Val di Cornia","phone":"+39 0565 261142","website":"https://www.parchivaldicornia.it/info-e-servizi/mobilita-e-parcheggi"}},"15835217":{"location":[42.9437276,10.7109817],"ct":"IT","tp":"CS","ts":"2024-09-13T16:08:01Z","tX":542,"tY":376,"tags":{"access":"customers","addr:city":"Follonica","addr:country":"IT","addr:housenumber":"1","addr:postcode":"58022","addr:street":"Via Isole Eolie","capacity:caravans":"305","capacity:tents":"305","caravans":"yes","contact:phone":"+39 0566 260099","contact:website":"https://www.campingfollonica.it/","dog":"yes","motorhome":"yes","name":"Parco Vacanze Il Veliero","power_supply":"cee_17_blue","tents":"yes"}},"15851131":{"location":[42.9497157,10.7034286],"ct":"IT","tp":"CR","ts":"2023-05-13T16:03:02Z","tX":542,"tY":376,"tags":{"addr:city":"Piombino","addr:country":"IT","addr:housenumber":"1","addr:place":"Scopicci","addr:postcode":"57025","internet_access":"wlan","internet_access:fee":"no","name":"Agricamping Agricoccinella","power_supply":"yes","sanitary_dump_station":"yes","shower":"yes","website":"https://www.agricoccinella.it"}},"15949940":{"location":[42.9553265,10.6293842],"ct":"IT","tp":"CR","ts":"2023-08-22T15:17:10Z","tX":542,"tY":376,"tags":{"capacity":"75","fee":"yes","name":"Perelli 3","operator":"Comune di Piombino"}},"16782440":{"location":[43.0453617,10.89032],"ct":"IT","tp":"CR","ts":"2023-12-03T22:46:20Z","tX":542,"tY":376,"tags":{"capacity":"9","fee":"yes","name":"area camper Monacelle","opening_hours":"24/7","operator":"Comune di Massa Marittima","operator:type":"public","sanitary_dump_station":"yes","shower":"yes","surface":"asphalt","tents":"no"}},"16782441":{"location":[43.045524,10.8905841],"ct":"IT","tp":"PK","ts":"2023-12-03T22:40:09Z","tX":542,"tY":376,"tags":{"caravan":"yes","caravans":"yes","fee":"no","name":"Piazzale Monacelle","parking":"surface","psv":"yes","surface":"asphalt"}},"19022976":{"location":[42.8928017,10.7863041],"ct":"IT","tp":"CS","ts":"2025-04-22T21:54:06Z","tX":542,"tY":376,"tags":{"fixme":"Verificare apertura. Il sito lo dichiara chiuso. C'è un'altr aattività alò suo posto?","name":"Baia dei gabbiani","website":"https://www.baiadeigabbiani.com/"}},"19022977":{"location":[42.8907528,10.7880378],"ct":"IT","tp":"CS","ts":"2025-04-22T16:47:01Z","tX":542,"tY":376,"tags":{"caravans":"yes","fee":"yes","fence_type":"chain_link","name":"Camping Piper","power_supply":"yes","power_supply:maxcurrent":"3","static_caravans":"yes","tents":"yes","website":"https://campingpiper.it/"}},"26859410":{"location":[43.056944,10.607778],"ct":"IT","tp":"CS","ts":"2024-09-13T14:51:50Z","tX":542,"tY":376,"tags":{"addr:street":"Via Tuttiventi","caravans":"yes","contact:whatsapp":"+393701563695","email":"info@blucamp.it","fee":"yes","motorhome":"yes","name":"Campeggio Blucamp Blue Camp","phone":"+39 0565 83 85 53","tents":"yes","website":"https://www.blucamp.it"}},"292483577":{"location":[42.910505,10.7749622],"ct":"IT","tp":"CS","ts":"2024-07-31T06:43:33Z","tX":542,"tY":376,"tags":{"barrier":"fence","caravans":"yes","email":"camping@rivadeibutteri.info","fax":"+39 0566 269283","internet_access":"no","name":"Campeggio Riva dei Butteri","phone":"+39 0566 54006","power_supply":"cee_17_blue","tents":"yes","website":"https://rivadeibutteri.it/","wheelchair":"yes"}},"625745480":{"location":[42.9281832,10.7887405],"ct":"IT","tp":"CR","ts":"2024-07-31T07:13:11Z","tX":542,"tY":376,"tags":{"capacity":"10","fee":"yes","name":"Area camper Agriturismo Dal Pastore","operator":"Agriturismo dal Pastore","power_supply":"yes","sanitary_dump_station":"customers","tents":"no"}},"778061658":{"location":[43.0369956,10.5996069],"ct":"IT","tp":"CR","ts":"2023-12-13T21:05:58Z","tX":542,"tY":376,"tags":{"access":"yes","capacity":"71","fee":"yes","operator":"Comune di Campiglia Marittima","operator:type":"public","sanitary_dump_station":"yes","surface":"paved","tents":"no"}},"890891922":{"location":[42.8928017,10.7863041],"ct":"IT","tp":"CS","ts":"2024-07-31T07:30:01Z","tX":542,"tY":376,"tags":{"fixme":"Verificare apertura. Il sito lo dichiara chiuso. C'è un'altr aattività alò suo posto?","name":"Baia dei gabbiani","website":"https://www.baiadeigabbiani.com/"}},"890891925":{"location":[42.8907528,10.7880378],"ct":"IT","tp":"CS","ts":"2024-07-31T07:30:01Z","tX":542,"tY":376,"tags":{"caravans":"yes","fee":"yes","name":"Camping Piper","power_supply":"yes","power_supply:maxcurrent":"3","static_caravans":"yes","tents":"yes","website":"https://campingpiper.it/"}},"944921925":{"location":[42.9831573,10.6793573],"ct":"IT","tp":"CR","ts":"2023-05-14T14:54:07Z","tX":542,"tY":376,"tags":{"alt_name":"Agrisosta Orticillo","fee":"yes","name":"L'Orticillo","phone":"+39 366 89 90 664","power_supply":"yes","sanitary_dump_station":"yes","website":"https://www.areacampertoscana.it/"}},"1171740517":{"location":[43.0103402,10.5516073],"ct":"IT","tp":"CS","ts":"2024-09-13T15:16:18Z","tX":542,"tY":376,"tags":{"access":"customers","addr:street":"Strada Provinciale 23ter delle Caldanelle","bbq":"yes","caravans":"yes","dog":"yes","motorhome":"yes","name":"BNatural Naturism&Glamping","nudism":"yes","power_supply":"yes","socket:cee_blue":"yes","tents":"yes","website":"https://www.bnaturalglamping.it/"}},"1183348384":{"location":[43.0471488,10.8782203],"ct":"IT","tp":"CS","ts":"2023-06-19T08:21:01Z","tX":542,"tY":376,"tags":{"capacity:caravans":"6","caravans":"yes","name":"Massa Vecchia","website":"https://www.massavecchia.it/"}},"1315342767":{"location":[43.0572784,10.6068488],"ct":"IT","tp":"CS","ts":"2024-09-13T14:51:50Z","tX":542,"tY":376,"tags":{"addr:street":"Via Tuttiventi","caravans":"yes","contact:whatsapp":"+393701563695","dog":"yes","email":"info@blucamp.it","fee":"yes","motorhome":"yes","name":"Campeggio Blucamp Blue Camp","phone":"+39 0565 83 85 53","power_supply":"yes","socket:cee_blue":"yes","tents":"yes","washing_machine":"yes","website":"https://www.blucamp.it"}},"4796260452":{"location":[42.9581985,10.6674679],"ct":"IT","tp":"CS","ts":"2024-08-27T21:55:48Z","tX":542,"tY":376,"tags":{"addr:city":"Piombino","addr:housenumber":"5","addr:postcode":"57025","addr:street":"località Mortelliccio","caravans":"yes","drinking_water":"yes","name":"Agricamping Ioniti","phone":"+39 339 6710880","power_supply":"yes","shower":"yes","tents":"yes","website":"https://www.agricampingioniti.it"}},"9713622004":{"location":[42.9508734,10.6839369],"ct":"IT","tp":"CR","ts":"2024-07-31T06:36:40Z","tX":542,"tY":376,"tags":{"fee":"yes","name":"Parcheggio Carbonifera","power_supply":"no","sanitary_dump_station":"yes"}},"11097136399":{"location":[42.8352667,10.776625],"ct":"IT","tp":"SD","ts":"2023-08-07T13:51:55Z","tX":542,"tY":376,"tags":{"access":"customers"}},"12175724693":{"location":[42.8399458,10.7796917],"ct":"IT","tp":"SD","ts":"2024-09-17T15:57:45Z","tX":542,"tY":376,"tags":{"access":"customers","fee":"no","operator":"PuntAla Camp & Resort"}}}