{"4744476":{"location":[42.7788668,10.7950669],"ct":"IT","tp":"CS","ts":"2024-08-14T06:17:14Z","tX":542,"tY":377,"tags":{"caravans":"yes","dog":"yes","fee":"yes","internet_access":"yes","internet_access:fee":"customers","motorhome":"yes","name":"Baia Azzura Club camping village","power_supply":"yes","power_supply:maxcurrent":"6;10;16","socket:cee_blue":"yes","tents":"yes","washing_machine":"yes","website":"https://www.baiaazzurra.it/","wheelchair":"yes"}},"4744477":{"location":[42.7790226,10.7917715],"ct":"IT","tp":"CS","ts":"2025-06-21T12:07:39Z","tX":542,"tY":377,"tags":{"addr:city":"Castiglione della Pescaia","addr:postcode":"58043","addr:street":"Localit√† Le Rocchette","camp_site":"reception","dog":"yes","name":"Stella del Mare","operator":"Club del Sole","phone":"+39 0564 947100","power_supply":"yes","shower":"hot","socket:cee_blue":"yes","stars":"4","tents":"yes","toilets":"yes","website":"https://www.clubdelsole.com/villaggi-turistici-campeggi-toscana/stella-del-mare-castiglione-family-camping-village/"}},"6407330":{"location":[42.7797209,10.8043051],"ct":"IT","tp":"CS","ts":"2024-08-14T06:18:06Z","tX":542,"tY":377,"tags":{"caravans":"yes","email":"info@rocchette.com","motorhome":"yes","name":"Le Rocchette Camping & Village","phone":"+39 0564 941123","power_supply":"yes","socket:cee_blue":"yes","stars":"3","tents":"yes","website":"https://www.rocchette.com/"}},"11309574":{"location":[42.7722967,10.8427504],"ct":"IT","tp":"CS","ts":"2024-11-25T20:00:40Z","tX":542,"tY":377,"tags":{"access":"customers","caravans":"yes","fee":"yes","internet_access":"wlan","name":"Maremma Sans Souci","power_supply":"cee_17_blue","power_supply:maxcurrent":"3;6","static_caravans":"yes","tents":"yes","website":"https://www.maremmasanssouci.it/","wheelchair":"limited"}},"11311593":{"location":[42.7797024,10.7986223],"ct":"IT","tp":"PK","ts":"2020-07-16T20:15:52Z","tX":542,"tY":377,"tags":{"access":"yes","caravans":"yes","fee":"yes","name":"Parcheggio Serignano","parking":"surface","surface":"unpaved"}},"415863685":{"location":[42.7664688,10.8685749],"ct":"IT","tp":"CR","ts":"2024-08-13T16:02:47Z","tX":542,"tY":377,"tags":{"access":"yes","capacity":"56","capacity:caravan":"5","capacity:disabled":"4","fee":"no","hgv":"designated","motorcar":"designated","name":"Free Parking Piazzale Salebro","operator":"Piazzale Salerno","parking":"surface","power_supply":"no","surface":"asphalt","wheelchair":"limited"}},"705149206":{"location":[42.7765874,10.809696],"ct":"IT","tp":"CS","ts":"2024-08-13T16:02:47Z","tX":542,"tY":377,"tags":{"access":"yes","addr:street":"Strada Provinciale 62 delle Rocchette","capacity:caravans":"300","capacity:tents":"300","caravans":"yes","dog":"yes","email":"info@campingsantapomata.it","fee":"yes","internet_access":"wlan","motorhome":"yes","name":"Camping Santapomata","phone":"+39 0564 941037","power_supply":"yes","power_supply:maxcurrent":"2","socket:cee_blue":"yes","tents":"yes","website":"https://m.campingsantapomata.it/"}},"941160249":{"location":[42.7689446,10.8928502],"ct":"IT","tp":"CR","ts":"2024-08-13T15:52:29Z","tX":542,"tY":377,"tags":{"addr:city":"Castiglione della Pescaia","addr:country":"IT","addr:housenumber":"1","addr:postcode":"58043","addr:street":"Via Andromeda","capacity":"120","dog":"yes","fee":"yes","name":"Paduline","opening_hours":"Apr-Sep 24/7","operator":"Comune di Castiglione della Pescaia","operator:type":"public","phone":"+39 0564 933678","power_supply":"no","sanitary_dump_station":"customers","surface":"unpaved"}},"8016084396":{"location":[42.78015,10.8069312],"ct":"IT","tp":"SD","ts":"2020-10-17T11:47:40Z","tX":542,"tY":377,"tags":{"access":"private"}},"8016084397":{"location":[42.7806467,10.8043301],"ct":"IT","tp":"SD","ts":"2024-08-09T13:18:55Z","tX":542,"tY":377,"tags":{"access":"customers","water_point":"yes"}},"12100698754":{"location":[42.7736496,10.8438554],"ct":"IT","tp":"SD","ts":"2024-08-09T13:31:18Z","tX":542,"tY":377,"tags":{"access":"customers","water_point":"yes"}}}