{"13335082":{"location":[60.7302022,14.9533005],"ct":"SE","tp":"CS","ts":"2023-11-19T11:37:54Z","tX":554,"tY":293,"tags":{"name":"Vastanviksbadets Camping Leksand","website":"https://vbcl.se/"}},"26193889":{"location":[60.7512191,14.9729204],"ct":"SE","tp":"CS","ts":"2016-05-31T08:28:25Z","tX":554,"tY":293,"tags":{"alt_name":"Leksand Strand","mofa":"no","name":"Leksand Camping & Stugby"}},"33774013":{"location":[60.7504069,14.9728061],"ct":"SE","tp":"CR","ts":"2012-05-28T19:36:48Z","tX":554,"tY":293,"tags":{"addr:city":"Leksand","addr:country":"SE","addr:housenumber":"61","addr:postcode":"793 22","addr:street":"Siljansv√§gen","caravans":"yes","drinking_water":"yes","name":"Leksand Camping & Stugby","tents":"yes","waste_disposal":"yes"}},"1768925153":{"location":[60.7535991,14.9712832],"ct":"SE","tp":"SD","ts":"2015-04-29T02:50:00Z","tX":554,"tY":293,"tags":{"sanitary_dump_station:accepted":"black_water;grey_water;tank_chemicals"}},"5909209586":{"location":[60.7129273,15.0331839],"ct":"SE","tp":"CR","ts":"2018-09-16T06:08:21Z","tX":554,"tY":293,"tags":{"name:de":"Entleerungstelle Wohnmobil"}},"4448464159":{"location":[60.72996,15.011047],"ct":"SE","tp":"SD","ts":"2017-09-23T18:46:06Z","tX":554,"tY":293,"tags":{"access":"yes","addr:place":"Leksands hamn","boat":"yes","fee":"no","opening_hours":"24/7","sanitary_dump_station:accepted":"black_water","sanitary_dump_station:pump-out":"yes","seamark:small_craft_facility:category":"pump-out","seamark:type":"small_craft_facility","vehicle":"no","waterway":"sanitary_dump_station","website":"https://hamnkartan.azurewebsites.net"}}}