{"157921505":{"location":[58.5556688,15.0787146],"ct":"SE","tp":"CR","ts":"2015-05-23T17:58:42Z","tX":554,"tY":305,"tags":{"fee":"yes"}},"160712359":{"location":[58.5491105,15.0097787],"ct":"SE","tp":"CR","ts":"2023-10-13T18:48:47Z","tX":554,"tY":305,"tags":{"name":"Z-parkens Camping","website":"https://www.husvagnochcamping.se/campingkatalogen/camping.php?poi_id=445"}},"192437051":{"location":[58.5299718,15.0380143],"ct":"SE","tp":"CR","ts":"2024-01-12T21:13:42Z","tX":554,"tY":305,"tags":{"name":"Södra strand"}},"418068355":{"location":[58.4648458,14.9317721],"ct":"SE","tp":"CR","ts":"2009-08-27T08:31:07Z","tX":554,"tY":305,"tags":{}},"760268947":{"location":[58.4665007,14.9340596],"ct":"SE","tp":"CS","ts":"2023-10-13T18:48:25Z","tX":554,"tY":305,"tags":{"fee":"yes","name":"Vadstena Camping","website":"https://www.vadstenacamping.se/"}},"1676073376":{"location":[58.5466102,15.0084649],"ct":"SE","tp":"CS","ts":"2024-08-27T16:31:25Z","tX":554,"tY":305,"tags":{"caravans":"yes","drinking_water":"yes","name":"Furulid","power_supply":"yes","shower":"yes","tents":"yes"}},"3539476573":{"location":[58.5482812,15.0674973],"ct":"SE","tp":"CR","ts":"2015-05-23T17:58:34Z","tX":554,"tY":305,"tags":{"fee":"yes","power_supply":"yes"}},"3594977519":{"location":[58.5436306,15.002162],"ct":"SE","tp":"CS","ts":"2023-10-13T18:48:31Z","tX":554,"tY":305,"tags":{"addr:city":"Motala","addr:country":"SE","addr:housenumber":"1","addr:postcode":"50172","addr:street":"Vindarnas väg","name":"DHR Camping","website":"https://www.dhr-motala.se/"}},"4448464640":{"location":[58.53397,15.03908],"ct":"SE","tp":"SD","ts":"2017-09-23T18:46:34Z","tX":554,"tY":305,"tags":{"access":"yes","addr:place":"Motala Gästhamn","boat":"yes","fee":"no","opening_hours":"24/7","sanitary_dump_station:accepted":"black_water","sanitary_dump_station:pump-out":"yes","seamark:small_craft_facility:category":"pump-out","seamark:type":"small_craft_facility","vehicle":"no","waterway":"sanitary_dump_station","website":"https://hamnkartan.azurewebsites.net"}},"4448464641":{"location":[58.534039,15.039192],"ct":"SE","tp":"SD","ts":"2017-09-23T18:46:34Z","tX":554,"tY":305,"tags":{"access":"yes","addr:place":"Göra kanal","boat":"yes","fee":"no","opening_hours":"24/7","sanitary_dump_station:accepted":"black_water","sanitary_dump_station:pump-out":"yes","seamark:small_craft_facility:category":"pump-out","seamark:type":"small_craft_facility","vehicle":"no","waterway":"sanitary_dump_station","website":"https://hamnkartan.azurewebsites.net"}}}