{"271886154":{"location":[58.0349626,15.0291696],"ct":"SE","tp":"CS","ts":"2024-07-31T20:13:34Z","tX":554,"tY":308,"tags":{"addr:city":"Tranås","addr:country":"SE","addr:housenumber":"2","addr:postcode":"57393","addr:street":"Badvägen","cabins":"yes","caravans":"yes","drinking_water":"yes","email":"info@hattecamping.se","name":"Hätte Camping","phone":"+4614017482","power_supply":"yes","sanitary_dump_station":"yes","shower":"yes","tents":"yes","toilets":"yes","website":"https://www.hattecamping.se/"}},"298258590":{"location":[58.0262049,15.0886442],"ct":"SE","tp":"CS","ts":"2024-08-15T20:11:52Z","tX":554,"tY":308,"tags":{"name":"Torpöns Camping","website":"https://torponscamping.se"}},"4448464596":{"location":[58.029449,15.090935],"ct":"SE","tp":"SD","ts":"2017-09-23T18:46:28Z","tX":554,"tY":308,"tags":{"access":"yes","addr:place":"Sommen färjeläget","boat":"yes","description":"Egen brygga bakom linfärjan, vatten, wc","fee":"no","opening_hours":"24/7","sanitary_dump_station:accepted":"black_water","sanitary_dump_station:pump-out":"yes","seamark:small_craft_facility:category":"pump-out","seamark:type":"small_craft_facility","vehicle":"no","waterway":"sanitary_dump_station","website":"https://hamnkartan.azurewebsites.net"}},"4448464598":{"location":[58.032588,15.038418],"ct":"SE","tp":"SD","ts":"2017-09-23T18:46:29Z","tX":554,"tY":308,"tags":{"access":"yes","addr:place":"Seglarvik","boat":"yes","fee":"no","opening_hours":"24/7","sanitary_dump_station:accepted":"black_water","sanitary_dump_station:pump-out":"yes","seamark:small_craft_facility:category":"pump-out","seamark:type":"small_craft_facility","vehicle":"no","waterway":"sanitary_dump_station","website":"https://hamnkartan.azurewebsites.net"}},"4448464601":{"location":[58.046072,14.998571],"ct":"SE","tp":"SD","ts":"2017-09-23T18:46:29Z","tX":554,"tY":308,"tags":{"access":"yes","addr:place":"Näckströmshamnen","boat":"yes","fee":"no","opening_hours":"24/7","sanitary_dump_station:accepted":"black_water","sanitary_dump_station:pump-out":"yes","seamark:small_craft_facility:category":"pump-out","seamark:type":"small_craft_facility","vehicle":"no","waterway":"sanitary_dump_station","website":"https://hamnkartan.azurewebsites.net"}}}