{"26963750":{"location":[54.0357013,14.8021381],"ct":"PL","tp":"CS","ts":"2024-07-31T22:08:59Z","tX":554,"tY":328,"tags":{"addr:city":"Dziwnówek","addr:housenumber":"12","addr:postcode":"72-420","addr:street":"Kamieńska","barrier":"fence","capacity:persons":"150","caravans":"yes","check_date":"2024-07-31","email":"campingbd@gmail.com","fee":"yes","internet_access":"wlan","name":"Biały Dom","phone":"+48 91 381 11 71","ref:pfcc":"118","shower":"yes","stars":"4","static_caravans":"yes","tents":"yes","toilets":"yes","website":"http://www.campingbialydom.com/"}},"125349280":{"location":[54.0917205,15.0668441],"ct":"PL","tp":"CS","ts":"2024-07-31T22:08:59Z","tX":554,"tY":328,"tags":{"addr:city":"Niechorze","addr:housenumber":"25","addr:postcode":"72-350","addr:street":"Polna","barrier":"fence","capacity:persons":"80","caravans":"yes","check_date":"2024-07-31","email":"pomonacamping@gmail.com","fee":"yes","fence_type":"chain_link","internet_access":"yes","internet_access:fee":"yes","name":"Camping Pomona","phone":"+48 91 386 34 45","ref:pfcc":"208","shower":"yes","stars":"3","start_date":"1995","static_caravans":"yes","tents":"yes","toilets":"yes","website":"https://www.domki.niechorze.tv/"}},"231763529":{"location":[54.0348587,14.7996109],"ct":"PL","tp":"CS","ts":"2024-08-12T11:00:58Z","tX":554,"tY":328,"tags":{"addr:city":"Dziwnówek","addr:housenumber":"3","addr:postcode":"72-420","addr:street":"Wolności","capacity:persons":"450","caravans":"yes","check_date":"2024-07-31","email":"camping@campingwiking.pl","fee":"yes","name":"Camping Wiking","phone":"+48 662 184 768, +48 91 38 134 93","ref:pfcc":"194","stars":"4","static_caravans":"yes","tents":"yes","website":"https://www.campingwiking.pl/"}},"293350155":{"location":[54.0666906,14.9641494],"ct":"PL","tp":"CS","ts":"2021-07-14T09:12:16Z","tX":554,"tY":328,"tags":{"addr:city":"Pustkowo","addr:country":"PL","addr:district":"gryficki","addr:housenumber":"32","addr:postcode":"72-344","addr:province":"zachodniopomorskie","addr:street":"Słoneczna","addr:subdistrict":"Rewal","caravans":"yes","landuse":"meadow","name":"Pod Lasem","phone":"+48 603 928 380","tents":"yes","website":"http://polenamiotowepustkowo.pl/"}},"314686960":{"location":[54.0900551,15.0510221],"ct":"PL","tp":"CS","ts":"2020-08-28T17:26:59Z","tX":554,"tY":328,"tags":{"caravans":"yes","landuse":"residential","name":"Osada","opening_hours":"Mo-Su 06:00-22:30","operator":"jarek sosnowski","phone":"+48602757913","tents":"yes","website":"http://osada.net.pl/"}},"357274748":{"location":[54.0719615,14.9868811],"ct":"PL","tp":"CS","ts":"2024-01-01T21:40:33Z","tX":554,"tY":328,"tags":{"addr:city":"Trzęsacz","addr:housenumber":"30","addr:postcode":"72-344","addr:street":"Łąkowa","area":"yes","caravans":"yes","contact:phone":"+48 889 651 076","drinking_water":"yes","name":"CAMP-ANA","power_supply":"yes","shower":"yes","tents":"yes","toilets":"yes","website":"http://www.camp-ana.net/"}},"365924058":{"location":[54.0942713,15.0685837],"ct":"PL","tp":"CS","ts":"2020-04-26T11:14:00Z","tX":554,"tY":328,"tags":{}},"686179417":{"location":[54.0796457,15.0033243],"ct":"PL","tp":"CS","ts":"2024-08-14T10:46:38Z","tX":554,"tY":328,"tags":{"addr:city":"Rewal","addr:housenumber":"26","addr:postcode":"72-344","addr:street":"Kamieńska","capacity:persons":"244","caravans":"yes","check_date":"2024-08-14","dog":"yes","drinking_water":"yes","email":"campingklif@gmail.com","fee":"yes","internet_access":"yes","internet_access:fee":"customers","internet_access:ssid":"Klif","name":"Camping Klif","operator":"Elżbieta Peczyńska","payment:cash":"only","phone":"+48 91 386 26 18, +48 601 741 074","picnic_table":"yes","power_supply":"yes","ref:pfcc":"192","reservation":"recommended","shower":"yes","stars":"4","static_caravans":"yes","tents":"yes","toilets":"yes","website":"https://klifrewal.pl/"}},"719583604":{"location":[54.0660448,14.9678159],"ct":"PL","tp":"CS","ts":"2023-11-09T08:22:24Z","tX":554,"tY":328,"tags":{"addr:city":"Pustkowo","addr:country":"PL","addr:district":"gryficki","addr:housenumber":"10","addr:postcode":"72-345","addr:province":"zachodniopomorskie","addr:street":"Sportowa","addr:subdistrict":"Rewal","caravans":"yes","email":"keja@keja.info.pl","name":"Keja","phone":"+48 606 24 20 25","sanitary_dump_station":"customers","tents":"yes","website":"https://keja.info.pl/"}},"748986078":{"location":[54.0559106,14.9332771],"ct":"PL","tp":"CS","ts":"2019-11-23T14:19:10Z","tX":554,"tY":328,"tags":{"caravans":"yes","name":"Pole namiotowe 7 Żab","operator":"Barbara Gradowska, NIP: 857-127-04-06","phone":"+48 789487744","tents":"yes","website":"https://www.7zab.com/"}},"840455784":{"location":[54.1016644,15.1074852],"ct":"PL","tp":"CS","ts":"2020-08-25T08:26:01Z","tX":554,"tY":328,"tags":{"name":"Cora Camping","note":"adres Wojska Polskiego 9 jest na tablicy, ale ten numer jest naprawdę gdzie indziej - przy skrzyżowaniu ze Słoneczną"}},"2411636755":{"location":[54.0710582,14.9746439],"ct":"PL","tp":"CS","ts":"2022-09-05T10:27:57Z","tX":554,"tY":328,"tags":{"addr:city":"Pustkowo","addr:housenumber":"3","addr:postcode":"72-344","addr:street":"Nadmorska","name":"Przy Morzu","phone":"+48 663 742 966","website":"https://przymorzu.eu/"}},"3036122069":{"location":[54.0947024,15.1027008],"ct":"PL","tp":"CS","ts":"2023-05-10T17:29:18Z","tX":554,"tY":328,"tags":{"addr:city":"Pogorzelica","addr:housenumber":"3","addr:postcode":"72-351","addr:street":"Rzeczna","contact:facebook":"bazazhppogorzelica","group_only":"yes","name":"Baza Obozowa Chorągwi Zachodniopomorskiej","operator":"Chorągiew Zachodniopomorska ZHP","phone":"+48 603 133 603","scout":"yes","source:name":"survey","website":"https://zachpom.zhp.pl/pogorzelica/"}},"4197697090":{"location":[54.0990154,15.1160644],"ct":"PL","tp":"CS","ts":"2023-11-09T08:22:40Z","tX":554,"tY":328,"tags":{"addr:housenumber":"5","addr:street":"Leonida Teligi","email":"starpredki@starsat.com.pl","name":"Star-Camp","phone":"+48914853580","website":"https://www.star-camp.com.pl/"}},"6793587185":{"location":[54.0975252,15.1165891],"ct":"PL","tp":"CS","ts":"2022-12-27T10:56:48Z","tX":554,"tY":328,"tags":{"note":"na tablicy ( totem ) opis \" Ośrodek Wczasowy Bryza w Pogorzelicy, Pole namiotowe ul. L. Teligi 10\""}},"9803899073":{"location":[54.0425654,14.8730276],"ct":"PL","tp":"CS","ts":"2022-06-08T13:07:36Z","tX":554,"tY":328,"tags":{"contact:email":"bartek@stolbau-eko.pl","contact:phone":"+48 695 095 185","name":"Kemping Bartek","website":"https://kempingbartek.pl/"}},"12090672169":{"location":[54.0898016,15.053548],"ct":"PL","tp":"CS","ts":"2024-08-03T16:41:50Z","tX":554,"tY":328,"tags":{"addr:housenumber":"24","addr:postcode":"72-350","addr:street":"Klifowa","email":"camping@zapachmorza.eu","name":"CAMPING - Zapach Morza","website":"https://www.zapachmorza.eu"}},"4902516925":{"location":[54.0622754,14.9425536],"ct":"PL","tp":"CR","ts":"2024-04-04T13:13:10Z","tX":554,"tY":328,"tags":{"addr:housenumber":"17","addr:postcode":"72-346","addr:street":"Kujawska","email":"irena_rewal@op.pl","phone":"+48607920064"}}}