{"5189244":{"location":[51.2682822,14.7906585],"ct":"DE","tp":"CS","ts":"2024-02-24T13:53:11Z","tX":554,"tY":341,"tags":{"access":"customers","addr:city":"Waldhufen","addr:housenumber":"1000","addr:postcode":"02906","addr:street":"Reichendorfer Damm","caravans":"no","fee":"yes","name":"Feriendorf Kimbucht","operator":"Schwind GbR","phone":"+49 1762 2289026","static_caravans":"no"}},"103512770":{"location":[51.2864673,14.7719683],"ct":"DE","tp":"CS","ts":"2019-07-23T14:56:47Z","tX":554,"tY":341,"tags":{"name":"Campingplatz Nordoststrand","phone":"+49 3588 205720","website":"https://www.urlaubamquitzdorfersee.de/Camping"}},"120393636":{"location":[51.3277837,14.9824553],"ct":"DE","tp":"CS","ts":"2024-05-10T01:18:43Z","tX":554,"tY":341,"tags":{"addr:city":"Rothenburg/O.L.","addr:country":"DE","addr:housenumber":"1","addr:postcode":"02929","addr:street":"Tormersdorfer Allee","caravans":"yes","internet_access":"wlan","internet_access:fee":"no","kitchen":"yes","name":"Neiße-Camp","operator":"Neiße-Tours - Tino Kittner","phone":"+49 35891 189993","source":"survey","tents":"yes","url":"https://neisse-tours.de/neisse-camp/","wheelchair":"limited"}},"258141166":{"location":[51.2853007,14.9404709],"ct":"DE","tp":"CS","ts":"2024-06-19T14:29:46Z","tX":554,"tY":341,"tags":{"access":"private","addr:city":"Horka","addr:country":"DE","addr:housenumber":"16","addr:postcode":"02923","addr:street":"Kaltwasser Straße","addr:suburb":"Biehain","caravans":"yes","fee":"yes","name":"Club der Biehainer Sonnenfreunde","nudism":"obligatory","operator":"Verein","tents":"yes","website":"https://www.biehain.de/"}},"348169811":{"location":[51.2682822,14.7906585],"ct":"DE","tp":"CS","ts":"2025-03-21T18:48:12Z","tX":554,"tY":341,"tags":{"access":"customers","addr:city":"Waldhufen","addr:housenumber":"1","addr:postcode":"02906","addr:street":"Reichendorfer Damm","caravans":"no","contact:fax":"+49 3588 259810","contact:phone":"+49 3588 205720","email":"service@feriendorf-kimbucht.de","fee":"yes","name":"Feriendorf Kimbucht","operator":"AS Service GmbH","static_caravans":"no","website":"https://feriendorf-kimbucht.de"}},"393940608":{"location":[51.295065,15.0165071],"ct":"DE","tp":"PK","ts":"2025-01-01T15:38:59Z","tX":554,"tY":341,"tags":{"capacity":">100","fee":"yes","motorhome":"yes","name":"Tagesgäste","parking":"surface"}},"460349813":{"location":[51.283969,14.9230544],"ct":"DE","tp":"CS","ts":"2024-07-15T22:41:20Z","tX":554,"tY":341,"tags":{"addr:city":"Horka","addr:country":"DE","addr:housenumber":"11","addr:postcode":"02923","addr:street":"Zum Waldsee","addr:suburb":"Biehain","caravans":"yes","name":"Erholungsgebiet Biehainer See'n (Camping Biehain)","phone":"+49 35892 5446","phone:mobile":"+49 1723 901835","tents":"yes","website":"https://www.camping-ebs.de/"}},"485108394":{"location":[51.30149,14.8015897],"ct":"DE","tp":"CS","ts":"2024-07-15T22:40:38Z","tX":554,"tY":341,"tags":{"addr:city":"Niesky","addr:country":"DE","addr:housenumber":"1","addr:postcode":"02906","addr:street":"Reschkestraße","addr:suburb":"See","caravans":"yes","contact:mobile":"+49 1520 5498045","fee":"yes","name":"Camping am Tonschacht","opening_hours":"Apr 15-Oct 15","operator":"Campingplatz \"Tonschacht\" e.V. Niesky","phone":"+49 3588 205771; +49 3588 259240","seasonal":"yes","static_caravans":"no","tents":"yes","website":"https://campingplatz-tonschacht.de/"}},"985425085":{"location":[51.2921321,15.0208989],"ct":"DE","tp":"CS","ts":"2025-01-01T15:38:59Z","tX":554,"tY":341,"tags":{"website":"https://www.turisede.com/camping.html"}},"1096709052":{"location":[51.3357739,14.9710427],"ct":"DE","tp":"CR","ts":"2025-01-01T14:29:38Z","tX":554,"tY":341,"tags":{"fee":"no","internet_access":"no","name":"Wohnmobilstellplatz Rothenburg/Oberlausitz","opening_hours":"24/7","operator":"Stadt Rothenburg","reservation":"no","sanitary_dump_station":"no","seasonal":"no","surface":"paved","water_point":"no","wheelchair":"yes"}},"1347782564":{"location":[51.2924649,15.0209918],"ct":"DE","tp":"CR","ts":"2025-01-01T15:38:59Z","tX":554,"tY":341,"tags":{"caravan_site":"motorhome_stopover","caravan_site:type":"theme_park","caravans":"yes","charge":"10 EUR","fee":"yes","name":"Die geheimen Welt von Turisede","power_supply":"yes","power_supply:charge":"5 EUR","power_supply:fee":"yes","website":"https://www.turisede.com/baumhaushotel-erlebnisnaechte/erlebnisuebernachtungen-im-turiuswinkel-pl/zeltplatz-turiuswinkel.html"}},"12159945111":{"location":[51.2360778,15.0157617],"ct":"DE","tp":"CS","ts":"2024-09-06T11:53:09Z","tX":554,"tY":341,"tags":{"addr:city":"Neißeaue","addr:housenumber":"55","addr:postcode":"02829","addr:street":"Dorfstraße","caravans":"yes","name":"Camp Auenblick","static_caravans":"yes","tents":"yes"}},"7859133625":{"location":[51.2948441,15.0177076],"ct":"DE","tp":"CR","ts":"2020-08-30T17:13:57Z","tX":554,"tY":341,"tags":{}},"11780195500":{"location":[51.2265913,15.0285417],"ct":"PL","tp":"CS","ts":"2024-05-10T01:05:56Z","tX":554,"tY":341,"tags":{"addr:city":"Lasów","addr:postcode":"59-930","caravans":"yes","name":"Camper Park Lasów","phone":"+48535009950","tents":"yes"}}}