{"284894820":{"location":[51.1356217,14.9637395],"ct":"DE","tp":"CS","ts":"2024-01-27T14:05:07Z","tX":554,"tY":342,"tags":{"fee":"yes","internet_access":"no","name":"Rosenhof","operator":"Rosenhof","phone":"+49 3581 74820","power_supply":"yes","sanitary_dump_station":"yes","water_point":"yes","website":"https://rosenhof-goerlitz.eu/camping","wheelchair":"yes"}},"516956228":{"location":[51.0057116,14.8277054],"ct":"DE","tp":"CS","ts":"2024-04-28T04:55:22Z","tX":554,"tY":342,"tags":{"addr:city":"Herrnhut","addr:country":"DE","addr:housenumber":"17","addr:postcode":"02747","addr:street":"Burkersdorfer Straße","addr:suburb":"Neundorf","caravans":"yes","email":"AnitaLeubner@aol.com","name":"Camping am Bauernhof","openfire":"yes","phone":"+49 35873 30817","tents":"yes","website":"https://www.camping-bauernhof-neundorf.de/"}},"760019286":{"location":[51.0697215,14.9254573],"ct":"DE","tp":"CS","ts":"2024-10-27T20:17:31Z","tX":554,"tY":342,"tags":{"addr:city":"Schönau-Berzdorf auf dem Eigen","addr:housenumber":"5","addr:postcode":"02899","addr:street":"An der Blauen Lagune","name":"Piratencamp - Blaue Lagune","operator":"Campingpark Berzdorfer See GmbH","website":"https://www.piraten-camp.com/"}},"785218545":{"location":[51.1307493,14.9700489],"ct":"DE","tp":"CS","ts":"2024-09-25T09:40:25Z","tX":554,"tY":342,"tags":{"addr:city":"Görlitz","addr:housenumber":"2","addr:postcode":"02827","addr:street":"Am Bahnhof Weinhübel","cabins":"yes","caravans":"yes","drinking_water":"yes","email":"kontakt@kuehlhaus-goerlitz.de","fax":"+49 3581 429926","fee":"yes","hot_water":"yes","internet_access":"wlan","internet_access:fee":"no","motor_vehicle":"yes","name":"Kühlhaus Görlitz","operator":"Kühlhaus Görlitz e.V.","payment:coins":"yes","payment:credit_cards":"yes","payment:debit_cards":"yes","payment:notes":"yes","permanent_camping":"no","phone":"+49 3581 429926","power_supply":"yes","shower":"yes","tents":"yes","toilets":"yes","washing_machine":"yes","website":"https://kuehlhaus-goerlitz.de/uebernachten/"}},"1002382827":{"location":[51.0727512,14.9555372],"ct":"DE","tp":"PK","ts":"2024-05-16T11:43:32Z","tX":554,"tY":342,"tags":{"access":"yes","caravans":"yes","motorhome":"yes","parking":"surface"}},"1044457059":{"location":[51.1099423,14.9657216],"ct":"DE","tp":"CR","ts":"2025-01-07T14:51:42Z","tX":554,"tY":342,"tags":{"capacity":"10","caravan_site":"motorhome_stopover","caravan_site:type":"lake","caravans":"yes","fee":"no","name":"Stellplätze für Caravan und Wohnmobile Berzdorfer See Nordstrand","power_supply":"no","sanitary_dump_station":"no","seasonal":"no","water_point":"no","website":"https://www.goerlitz.de/Camping_Caravan.html"}},"1347793836":{"location":[51.1392705,14.979108],"ct":"DE","tp":"CR","ts":"2025-01-01T16:58:57Z","tX":554,"tY":342,"tags":{"capacity":"4","caravan_site":"motorhome_stopover","caravan_site:type":"town","charge":"8 EUR","fee":"yes","name":"Mario Hoke - Görlitz","phone":"+49 3581 8787664","sanitary_dump_station":"yes","seasonal":"no","water_point":"yes","website":"http://www.womomario.de/caravanstellplatz.html"}},"1395852526":{"location":[51.0340591,15.0009097],"ct":"PL","tp":"CS","ts":"2025-06-16T22:25:13Z","tX":554,"tY":342,"tags":{"name":"Wilcze Pole","operator:type":"private","phone":"+48 606 897 799"}},"10724335059":{"location":[51.0059405,14.8277294],"ct":"DE","tp":"CS","ts":"2024-04-28T04:55:22Z","tX":554,"tY":342,"tags":{"addr:city":"Herrnhut","addr:country":"DE","addr:housenumber":"17","addr:postcode":"02747","addr:street":"Burkersdorfer Straße","addr:suburb":"Neundorf auf dem Eigen","caravans":"yes","contact:website":"https://www.camping-bauernhof-neundorf.de/","name":"Camping und Erlebnisbauernhof Leubner","operator":"Anita und Wolfgang Leubner"}}}