{"228066844":{"location":[49.0895719,14.8553972],"ct":"CZ","tp":"CS","ts":"2020-11-09T11:54:58Z","tX":554,"tY":351,"tags":{"layer":"-1","name":"Baterie"}},"298900560":{"location":[49.1489532,15.0651847],"ct":"CZ","tp":"CS","ts":"2008-09-21T22:33:01Z","tX":554,"tY":351,"tags":{"name":"Autocamp Jindřiš"}},"298900798":{"location":[49.1413041,15.11679],"ct":"CZ","tp":"CS","ts":"2024-07-08T07:05:06Z","tX":554,"tY":351,"tags":{"caravans":"yes","drinking_water":"yes","name":"Chatový tábor Malý Ratmírov","power_supply":"yes","shower":"yes","tents":"yes","toilets":"yes"}},"336384611":{"location":[48.9931878,14.767914],"ct":"CZ","tp":"CS","ts":"2023-11-05T21:39:25Z","tX":554,"tY":351,"tags":{"caravans":"yes","email":"info@autocamp-trebon.cz","motorhome":"yes","name":"Autokemp Třeboň","opening_hours":"May-Sep","operator":"Jiří Neubauer","phone":"+420 602 444 708","shower":"yes","tents":"yes","toilets":"yes","website":"https://www.autocamp-trebon.cz/"}},"536664704":{"location":[49.1489032,15.0657923],"ct":"CZ","tp":"CS","ts":"2023-08-20T19:42:22Z","tX":554,"tY":351,"tags":{}},"845808523":{"location":[48.9850926,14.9612908],"ct":"CZ","tp":"CS","ts":"2023-04-04T06:15:37Z","tX":554,"tY":351,"tags":{"alt_name":"Staňkov 1","caravans":"yes","email":"autokempsvetlikova@email.cz","motorhome":"yes","name":"Autokemp Světlíková Staňkov","phone":"+420 776 669 335","shower":"yes","source":"survey","tents":"yes","toilets":"yes","website":"http://www.autokempsvetlikova.cz/"}},"1279673776":{"location":[48.9718419,14.9421023],"ct":"CZ","tp":"CS","ts":"2013-08-09T19:07:25Z","tX":554,"tY":351,"tags":{"email":"david@campucerta.cz","internet_access":"wlan","name":"Autocamp U Čerta","phone":"+420723717341","source":"survey","website":"http://campucerta.cz"}},"1746060717":{"location":[49.0596216,14.8551343],"ct":"CZ","tp":"CS","ts":"2013-09-06T07:52:27Z","tX":554,"tY":351,"tags":{"name":"Kemp Mláka"}},"1824756185":{"location":[48.9540925,14.8787517],"ct":"CZ","tp":"CS","ts":"2016-08-24T08:45:21Z","tX":554,"tY":351,"tags":{"name":"Kosky"}},"2405787461":{"location":[48.983474,14.9715379],"ct":"CZ","tp":"CS","ts":"2023-11-05T21:39:04Z","tX":554,"tY":351,"tags":{"access":"customers","backcountry":"yes","drinking_water":"no","internet_access":"no","name":"TZ Vlčice","operator":"YMCA","power_supply":"no","ref":"Z 8050","shower":"yes","smoking":"no","website":"https://ymca-jh.cz/taborova-zakladna-vlcice/"}},"2406963931":{"location":[48.9598983,14.9421147],"ct":"CZ","tp":"CS","ts":"2023-05-10T12:36:00Z","tX":554,"tY":351,"tags":{"name":"kemp Hejtman - jih","source":"survey"}},"2406963935":{"location":[48.9606648,14.9485034],"ct":"CZ","tp":"CS","ts":"2013-08-09T19:21:39Z","tX":554,"tY":351,"tags":{"name":"kemp Veronika","source":"survey"}},"2406963938":{"location":[48.9608636,14.9494831],"ct":"CZ","tp":"CS","ts":"2013-08-09T19:21:39Z","tX":554,"tY":351,"tags":{"name":"kemp Kapřík","source":"survey"}},"2406970500":{"location":[48.9785459,14.9562337],"ct":"CZ","tp":"CS","ts":"2023-03-18T14:48:02Z","tX":554,"tY":351,"tags":{"caravans":"yes","email":"stika9@centrum.cz","internet_access":"wlan","name":"Kemp U Tomášků","phone":"+420721090050;+420606507244;+420384797257","shower":"yes","tents":"yes","toilets":"yes","website":"http://www.camptomasek.cz"}},"2406970501":{"location":[48.9789383,14.9588243],"ct":"CZ","tp":"CS","ts":"2023-03-18T14:48:02Z","tX":554,"tY":351,"tags":{"caravans":"yes","internet_access":"wlan","name":"Autocamp OASA","phone":"+420606832100","shower":"yes","tents":"yes","toilets":"yes","website":"http://www.campoasa.cz"}},"2406970502":{"location":[48.975518,14.9551613],"ct":"CZ","tp":"CS","ts":"2019-03-26T04:16:15Z","tX":554,"tY":351,"tags":{"email":"autokemp.kos@treb.cz","internet_access":"wlan","name":"Autokemp U Kosů","phone":"+420606145578","source":"survey","website":"https://www.autokempukosu.cz/"}},"2407646298":{"location":[48.9845625,14.7765147],"ct":"CZ","tp":"CS","ts":"2023-04-22T11:11:38Z","tX":554,"tY":351,"tags":{"NAP:ref":"19325","addr:city":"Třeboň","addr:housenumber":"108","addr:postcode":"37901","addr:street":"Branná","cabins":"yes","caravans":"yes","email":"doubi@treb.cz","motorhome":"yes","name":"Sportcentrum Doubí","phone":"+420 725 119 330","tents":"yes","toilets":"yes","website":"http://www.doubi.treb.cz/"}},"2409936739":{"location":[48.9657406,14.8662582],"ct":"CZ","tp":"CS","ts":"2023-11-05T21:39:03Z","tX":554,"tY":351,"tags":{"name":"Kemp Majdalena","phone":"+420 606 117 421","website":"https://www.pujcovnalodidunaj.cz/kemp-majdalena/"}},"2412411581":{"location":[48.9640894,14.937637],"ct":"CZ","tp":"CS","ts":"2022-08-28T20:48:42Z","tX":554,"tY":351,"tags":{"backcountry":"no","cabins":"yes","dog":"yes","drinking_water":"yes","email":"post@campsever.cz","fee":"yes","internet_access":"wlan","name":"Camping Sever","openfire":"yes","payment:cash":"yes","phone":"+420602393683","power_supply":"yes","reservation":"yes","shower":"yes","source":"survey","tents":"yes","toilets":"yes","washing_machine":"yes","website":"http://www.campsever.cz"}},"2412426560":{"location":[48.9658146,14.9380543],"ct":"CZ","tp":"CS","ts":"2013-08-09T19:28:43Z","tX":554,"tY":351,"tags":{"name":"kemp Březák","source":"survey"}},"2413609980":{"location":[48.965243,14.9464824],"ct":"CZ","tp":"CS","ts":"2019-03-17T21:35:55Z","tX":554,"tY":351,"tags":{"email":"hejtman15@seznam.cz","internet_access":"wlan","name":"Chatový areál Atlas","phone":"+420602945041","website":"https://www.atlas-rekreace.cz/"}},"3061348298":{"location":[49.0679043,14.9300085],"ct":"CZ","tp":"CS","ts":"2023-10-30T17:22:31Z","tX":554,"tY":351,"tags":{"cabins":"yes","caravans":"yes","motorhome":"yes","name":"Autokemp U Skalníků","phone":"+420 702 387 490","shower":"yes","tents":"yes","toilets":"yes","website":"https://uskalniku.cz/"}},"4303758789":{"location":[48.9814845,14.9584919],"ct":"CZ","tp":"CS","ts":"2023-04-16T09:29:53Z","tX":554,"tY":351,"tags":{"caravans":"yes","email":"plechac@centrum.cz","name":"Plecháč","phone":"+420 603 884 227; +420 605 511 644","shower":"yes","tents":"yes","toilets":"yes","website":"https://stankov.webnode.cz/"}},"4364380715":{"location":[48.9544969,14.8777336],"ct":"CZ","tp":"CS","ts":"2016-08-24T08:45:21Z","tX":554,"tY":351,"tags":{"name":"Chatky na jihu","operator":"Iva Neumannová"}},"7272843139":{"location":[49.1419943,14.8026255],"ct":"CZ","tp":"CS","ts":"2020-03-06T20:55:26Z","tX":554,"tY":351,"tags":{"name":"Letní tábor Karštejn"}},"10743393500":{"location":[48.9802487,14.9577516],"ct":"CZ","tp":"CS","ts":"2023-03-18T14:48:02Z","tX":554,"tY":351,"tags":{"caravans":"yes","facebook":"https://m.facebook.com/profile.php?id=346330459435397","name":"Kemp Za humny","phone":"+420 731 680 967","shower":"yes","tents":"yes","toilets":"yes"}}}