{"298140878":{"location":[47.8623066,15.0358206],"ct":"AT","tp":"CS","ts":"2023-11-01T03:24:17Z","tX":554,"tY":356,"tags":{"addr:city":"Lunz am See","addr:housenumber":"23","addr:postcode":"3293","addr:street":"Zellerhofstraße","caravans":"yes","dog":"yes","drinking_water":"yes","email":"info@oetscherlandcaming.at","fee":"yes","group_only":"no","internet_access":"wlan","internet_access:fee":"no","name":"Ötscherlandcamping","operator":"Arthur Schlögelhofer","phone":"+43 664 73860598","power_supply":"yes","reservation":"yes","sanitary_dump_station":"yes","shower":"yes","stars":"2","tents":"yes","toilets":"yes","washing_machine":"yes","website":"https://www.oetscherlandcamping.at/","wheelchair":"yes"}},"848060957":{"location":[47.9452704,14.7990443],"ct":"AT","tp":"CR","ts":"2020-09-16T15:28:40Z","tX":554,"tY":356,"tags":{"capacity":"4","fee":"no"}},"1265603101":{"location":[47.7684813,14.7734396],"ct":"AT","tp":"CR","ts":"2024-03-23T17:55:33Z","tX":554,"tY":356,"tags":{"bbq":"yes","capacity":"3","fee":"yes","internet_access":"no","name":"Stellplatz Wentsteinhammer","power_supply":"yes","sanitary_dump_station":"yes","toilets":"yes","water_point":"yes"}},"1314608351":{"location":[47.9439234,14.8301604],"ct":"AT","tp":"CS","ts":"2024-09-10T10:44:58Z","tX":554,"tY":356,"tags":{"name":"Campingplatz Steinmühl","website":"https://www.mostviertel.at/camping/a-steinmuehl"}},"5017837870":{"location":[47.9657791,14.804678],"ct":"AT","tp":"CS","ts":"2020-01-02T15:16:26Z","tX":554,"tY":356,"tags":{"access":"permissive","caravans":"no","group_only":"yes","name":"Pfadfinder Lagerplatz","operator":"Pfadfinder Waidhofen/Ybbs","scout":"yes","tents":"yes"}},"10964856952":{"location":[47.8071326,14.9406472],"ct":"AT","tp":"CR","ts":"2024-02-25T05:53:23Z","tX":554,"tY":356,"tags":{"addr:city":"Göstling an der Ybbs","addr:country":"AT","addr:housenumber":"181","addr:postcode":"3345","addr:street":"Stixenlehen","capacity":"20","drinking_water":"yes","fee":"yes","internet_access":"yes","internet_access:fee":"customers","name":"Krenn Camping-Stellplatz","opening_hours":"week 01-53","phone":"+43 664 5361519; +43 664 1920582","power_supply":"yes","sanitary_dump_station":"yes","shower":"yes","tents":"yes","toilets":"yes","website":"https://camping-stellplatz.at/"}},"11581477925":{"location":[47.9243594,15.0821585],"ct":"AT","tp":"CR","ts":"2024-02-03T08:56:36Z","tX":554,"tY":356,"tags":{"description":"fee only for Power-Supply","fee":"no","power_supply":"yes"}}}