{"8747300":{"location":[47.1946277,14.8036924],"ct":"AT","tp":"CS","ts":"2019-03-21T09:28:30Z","tX":554,"tY":359,"tags":{"addr:city":"Großlobming","addr:housenumber":"1","addr:postcode":"8734","addr:street":"Teichweg","name":"Murinsel","website":"https://camping-murinsel.at/"}},"1148141747":{"location":[47.0519089,15.0663061],"ct":"AT","tp":"CS","ts":"2025-01-02T12:01:56Z","tX":554,"tY":359,"tags":{"description":"nur für Dauercamper, siehe https://www.openstreetmap.org/note/1937865","name":"Camping Piberstein","permanent_camping":"only","website":"https://www.campingclub.at/campingplatz/campingplatz_piberstein"}},"5058769648":{"location":[47.2160974,14.7675854],"ct":"AT","tp":"CS","ts":"2019-03-29T06:17:55Z","tX":554,"tY":359,"tags":{"name":"Camping Violett","name:en":"Camping violet","operator":"Familie Eibegger","website":"https://camping-spielberg.com/"}},"5058769655":{"location":[47.2159806,14.7695926],"ct":"AT","tp":"CS","ts":"2019-03-29T06:19:01Z","tX":554,"tY":359,"tags":{"alt_name":"Moitzi Spielberg","name":"Camping Grün","name:en":"Camping Green","website":"https://www.moitzi-spielberg.at/"}},"10718843819":{"location":[47.214194,14.7779728],"ct":"AT","tp":"CS","ts":"2023-03-07T11:59:48Z","tX":554,"tY":359,"tags":{"access":"customers","addr:city":"Spielberg","addr:housenumber":"12","addr:postcode":"8724","addr:street":"Spielbergstraße","capacity:persons":"1000","caravans":"yes","charge":"35 Euro","fee":"yes","image":"www.schitterhof.at","name":"Schitterhof CAMPING WEISS","operator":"Familie Schitter","payment:cash":"yes","payment:credit_cards":"yes","tents":"yes"}}}