{"15094218":{"location":[46.2441716,14.9433502],"ct":"SI","tp":"CS","ts":"2023-01-14T13:10:27Z","tX":554,"tY":363,"tags":{"access":"customers","addr:city":"Vransko","addr:housenumber":"30","addr:postcode":"3305","addr:street":"Prapreče","bbq":"yes","cabins":"yes","caravans":"yes","contact:facebook":"camppodgradvransko","dog":"yes","fee":"yes","internet_access":"wlan","motorcar":"yes","name":"Kamp Podgrad - Vransko","opening_hours":"24/7","permanent_camping":"no","phone":"+386 51 229 115","power_supply":"yes","sanitary_dump_station":"yes","shower":"yes","tents":"yes","toilets":"yes","washing_machine":"yes","website":"https://www.camp-vransko.com/","wheelchair":"yes"}},"235330532":{"location":[46.3114999,14.9104874],"ct":"SI","tp":"CS","ts":"2023-11-09T06:46:43Z","tX":554,"tY":363,"tags":{"caravans":"yes","maxtents":"200","name":"Menina","openfire":"yes","tents":"yes","website":"https://www.campingmenina.com/"}},"384375331":{"location":[46.2560115,15.0991937],"ct":"SI","tp":"CS","ts":"2019-03-17T21:15:52Z","tX":554,"tY":363,"tags":{"addr:city":"Prebold","addr:housenumber":"227","addr:postcode":"3312","addr:street":"Latkova vas","building":"yes","phone":"+386 599 25 306","website":"https://www.campingpark.si/"}},"852660894":{"location":[46.2909873,14.8026092],"ct":"SI","tp":"CS","ts":"2023-10-08T14:51:12Z","tX":554,"tY":363,"tags":{"access":"private","capacity":"70","caravans":"no","drinking_water":"yes","group_only":"yes","name":"Taborni prostor tabornikov XI.SNOUB","operator":"Rod XI.SNOUB","tents":"yes"}},"3632058009":{"location":[46.2557672,15.0991145],"ct":"SI","tp":"CS","ts":"2017-05-31T10:04:45Z","tX":554,"tY":363,"tags":{"addr:city":"Prebold","addr:housenumber":"227","addr:postcode":"3312","addr:street":"Latkova vas","caravans":"yes","contact:email":"info@campingpark.si","contact:mobile":"+386 41 472 496","contact:phone":"+386 599 25 306","contact:website":"http://www.campingpark.si/","description":"Kamp Park se razprostira v osrednjem delu Savinjske doline ob reki Savinji. S kapaciteto 25 kamping parcel spada v kategorijo mali družinski kampi.","maxtents":"30","name":"Camping Park Latkova Vas","operator":"Darja Povše s.p.","power_supply":"yes","tents":"yes"}},"3768015156":{"location":[46.2402598,15.0876281],"ct":"SI","tp":"CS","ts":"2017-10-04T15:10:51Z","tX":554,"tY":363,"tags":{"addr:city":"Prebold","addr:country":"SI","addr:housenumber":"147","addr:postcode":"3312","addr:street":"Dolenja vas","camp_site":"standard","contact:email":"camp@dolina.si","contact:fax":"+38635724590","contact:mobile":"+386 41 790 590","contact:website":"http://www.dolina.si","description":"Camp Dolina se nahaja na severno zahodnem delu Prebolda, od avtoceste Ljubljana - Celje oddaljen vsega 2 km. Kamp je na tem mestu odprt že vse od leta 1961 in je odprt čez celo leto.","name":"Camp Dolina Prebold","opening_hours":"24/7"}},"9266459474":{"location":[46.205418,15.0255115],"ct":"SI","tp":"CS","ts":"2023-07-09T13:37:43Z","tX":554,"tY":363,"tags":{"addr:housenumber":"37","addr:street":"Miklavž pri Taboru","caravans":"yes","motorhome":"yes","name":"Agrocamping Kmetija Weiss","opening_hours":"Apr 1 - Oct 1","phone":"+386 31 619 484","shower":"yes","tents":"yes","toilets":"yes","website":"https://www.turisticna-kmetija-weiss.si/"}},"12012077260":{"location":[46.2972106,14.9373038],"ct":"SI","tp":"CS","ts":"2024-06-26T09:55:40Z","tX":554,"tY":363,"tags":{"group_only":"yes","name":"Taborni prostor Laze pri Kokarjah"}},"12240878384":{"location":[46.2334482,15.093002],"ct":"SI","tp":"CR","ts":"2024-10-10T08:35:52Z","tX":554,"tY":363,"tags":{"capacity":"4","drinking_water":"yes","name":"Parkiršče za avtodome","power_supply":"yes","sanitary_dump_station":"yes"}},"10309195017":{"location":[46.2442811,14.9422585],"ct":"SI","tp":"SD","ts":"2023-01-07T08:22:24Z","tX":554,"tY":363,"tags":{"access":"customers"}}}