{"180809481":{"location":[45.7670049,15.0509477],"ct":"SI","tp":"CR","ts":"2023-11-08T07:24:37Z","tX":554,"tY":365,"tags":{"name":"PZA camping POLJE","source":"GPS","website":"https://kamp-polje.si/"}},"998339548":{"location":[45.6444677,14.8707911],"ct":"SI","tp":"CS","ts":"2022-08-03T10:19:23Z","tX":554,"tY":365,"tags":{"addr:city":"Kočevje","addr:housenumber":"3","addr:postcode":"1330","addr:street":"Trdnjava","email":"camp.jezero@kocevsko.com","facebook":"https://www.facebook.com/campjezerokocevsko/","name":"Camp Jezero Kočevsko","phone":"+386 31 699 600","website":"https://www.kocevsko.com/sl/poi/camp-jezero/"}},"1083475609":{"location":[45.6443909,14.8707931],"ct":"SI","tp":"CR","ts":"2024-06-15T22:41:50Z","tX":554,"tY":365,"tags":{"name":"Camp Jezero Kočevsko"}},"1083475610":{"location":[45.6443261,14.8711592],"ct":"SI","tp":"CR","ts":"2022-08-03T10:19:23Z","tX":554,"tY":365,"tags":{}},"1288943483":{"location":[45.6171997,14.8800552],"ct":"SI","tp":"CR","ts":"2024-06-02T16:58:10Z","tX":554,"tY":365,"tags":{"name":"PZA Dolga vas - južnovzhodno od Brunarice"}},"1408279565":{"location":[45.630351,14.8600867],"ct":"SI","tp":"CS","ts":"2025-06-21T13:09:14Z","tX":554,"tY":365,"tags":{"addr:city":"Kočevje","addr:housenumber":"16","addr:postcode":"1330","addr:street":"Grajska pot","area":"yes","contact:booking":"https://www.booking.com/hotel/si/grajski-kamp.html","fee":"yes","name":"Grajski kamp","phone":"+386 40 455 855","tents":"yes"}},"8854612186":{"location":[45.7593951,15.0552688],"ct":"SI","tp":"CS","ts":"2021-06-21T19:32:26Z","tX":554,"tY":365,"tags":{"name":"Kamp Dolenjske Toplice","stars":"3"}},"11724579045":{"location":[45.7550995,15.0528586],"ct":"SI","tp":"CS","ts":"2024-03-12T13:57:21Z","tX":554,"tY":365,"tags":{"group_only":"yes","name":"Tabor Mojca"}},"6700874273":{"location":[45.7713895,15.0513587],"ct":"SI","tp":"CR","ts":"2025-06-21T08:51:31Z","tX":554,"tY":365,"tags":{"caravans":"yes","fee":"yes","name":"Mali raj","nudism":"obligatory","operator":"Društvo naturistov Mali raj","power_supply":"yes","website":"https://www.maliraj.si/"}},"9895974086":{"location":[45.6444341,14.8711565],"ct":"SI","tp":"SD","ts":"2022-08-03T10:19:23Z","tX":554,"tY":365,"tags":{}}}