{"499581721":{"location":[45.4889415,15.0599211],"ct":"SI","tp":"CS","ts":"2023-08-05T13:13:18Z","tX":554,"tY":366,"tags":{"addr:city":"Stari trg ob Kolpi","addr:housenumber":"10","addr:postcode":"8342","addr:street":"Prelesje","landuse":"orchard","name":"Kamp Madronič","operator":"Madronič, gostinstvo in turizem, d.o.o.","raba:id":"1222","source":"RABA-KGZ","source:date":"2017-05-31","website":"http://www.gostinstvo-madronic.si"}},"715125298":{"location":[45.5161959,14.9095752],"ct":"SI","tp":"CS","ts":"2019-08-18T18:07:52Z","tX":554,"tY":366,"tags":{"access":"yes","capacity":"10","fee":"yes","internet_access":"no","name":"Žaga"}},"825817236":{"location":[45.4653872,15.0922326],"ct":"SI","tp":"CS","ts":"2025-06-04T07:41:37Z","tX":554,"tY":366,"tags":{"caravans":"yes","email":"info@kolpa-adventures.com","internet_access":"wlan","name":"Avtokamp Kanu","openfire":"yes","shower":"yes","static_caravans":"yes","tents":"yes","website":"https://kolpa-adventures.com/kanu-kamp-radenci-ob-kolpi/"}},"951465634":{"location":[45.494742,15.0551834],"ct":"SI","tp":"CS","ts":"2023-08-05T13:16:38Z","tX":554,"tY":366,"tags":{"addr:city":"Stari trg ob Kolpi","addr:housenumber":"9","addr:postcode":"8342","addr:street":"Dol","name":"Kamp Muhvič","phone":"+38631365172","website":"http://www.kamp-muhvic.com"}},"1362170808":{"location":[45.5109215,14.9643218],"ct":"SI","tp":"CS","ts":"2023-05-12T16:38:25Z","tX":554,"tY":366,"tags":{"addr:city":"Stari trg ob Kolpi","addr:country":"SI","addr:housenumber":"6","addr:postcode":"8342","addr:street":"Spodnja Bilpa","email":"info@apartmaji-bilpa.si","name":"Apartmaji Bilpa","phone":"+386 41 588 772","website":"https://www.apartmaji-bilpa.si/"}},"9956583786":{"location":[45.4952641,15.0518677],"ct":"SI","tp":"CS","ts":"2025-05-03T14:32:05Z","tX":554,"tY":366,"tags":{"addr:city":"Stari trg ob Kolpi","addr:housenumber":"6","addr:postcode":"8342","addr:street":"Dol","name":"Kamp Konda","website":"https://avtokampi.si/kampi/kamp-konda"}}}