{"26859652":{"location":[42.0682215,14.7811978],"ct":"IT","tp":"CS","ts":"2016-09-29T10:06:23Z","tX":554,"tY":379,"tags":{"name":"Moliseo"}},"444881069":{"location":[42.0668371,14.7808698],"ct":"IT","tp":"CS","ts":"2024-07-16T15:22:22Z","tX":554,"tY":379,"tags":{"addr:city":"Montenero di Bisaccia","addr:postcode":"86036","addr:street":"Strada Statale 16 Adriatica","caravans":"yes","email":"info@campingmolise.it","fee":"yes","name":"Centro Vacanze Molise","phone":"+39 0873 803570","tents":"yes","website":"https://www.campingmolise.it/"}},"444881070":{"location":[42.0665807,14.7817667],"ct":"IT","tp":"CS","ts":"2024-07-16T15:22:22Z","tX":554,"tY":379,"tags":{"addr:city":"Montenero di Bisaccia","addr:postcode":"86036","addr:street":"Strada Statale 16 Adriatica","caravans":"yes","name":"Sabbia d'Oro","phone":"+39 0873 803351","static_caravans":"yes","tents":"yes","website":"https://www.sabbiadorocb.it/"}},"444881071":{"location":[42.0641727,14.7930669],"ct":"IT","tp":"CS","ts":"2024-07-09T10:20:58Z","tX":554,"tY":379,"tags":{"access":"customers","addr:city":"Montenero di Bisaccia","addr:postcode":"86036","caravans":"yes","fee":"yes","name":"Camping Maronda","phone":"+39 0873 803045","tents":"yes","website":"https://www.facebook.com/marondacamping/?locale=it_IT"}},"463926215":{"location":[42.0654023,14.7922213],"ct":"IT","tp":"CS","ts":"2024-07-20T08:25:22Z","tX":554,"tY":379,"tags":{"access":"customers","addr:city":"Montenero di Bisaccia","addr:housenumber":"64","addr:postcode":"86036","addr:street":"Viale Andrea Doria","capacity":"200","caravans":"yes","email":"info@costaverde.it","internet_access":"yes","internet_access:fee":"no","internet_access:ssid":"campeggio costa verde","name":"Villaggio Camping Costa Verde","phone":"+39 3479867717","tents":"yes","website":"https://www.costaverde.it/"}},"520521092":{"location":[42.0417974,14.828329],"ct":"IT","tp":"CS","ts":"2018-01-30T08:31:17Z","tX":554,"tY":379,"tags":{"internet_access:fee":"yes","name":"Camping Blu Park","sanitary_dump_station":"yes","wheelchair":"yes"}},"639116664":{"location":[42.0653478,14.7888501],"ct":"IT","tp":"CS","ts":"2021-04-09T15:42:24Z","tX":554,"tY":379,"tags":{"name":"Camping Lianna"}},"9076909705":{"location":[42.0476022,14.8151094],"ct":"IT","tp":"SD","ts":"2021-09-09T13:59:30Z","tX":554,"tY":379,"tags":{"access":"yes","fee":"no","water_point":"yes"}},"9076920702":{"location":[42.0464598,14.8131183],"ct":"IT","tp":"SD","ts":"2021-09-09T13:58:07Z","tX":554,"tY":379,"tags":{"access":"yes","fee":"no","fixme":"Area carico scarico da localizzare esattamente","water_point":"yes"}}}