{"26860782":{"location":[38.169306,14.9488621],"ct":"IT","tp":"CS","ts":"2024-06-27T18:38:06Z","tX":554,"tY":394,"tags":{"addr:city":"San Giorgio","addr:housenumber":"98","addr:postcode":"98063","addr:street":"Via Pola","name":"Il Cicero","website":"https://www.ilcicero.it/"}},"233734928":{"location":[38.1272943,15.0582778],"ct":"IT","tp":"CS","ts":"2021-03-03T00:40:00Z","tX":554,"tY":394,"tags":{"name":"Baia del Principe"}},"309798264":{"location":[38.1684673,14.9484437],"ct":"IT","tp":"CS","ts":"2014-10-27T18:28:39Z","tX":554,"tY":394,"tags":{"name":"Il Cicero Camping Ground"}},"395745268":{"location":[38.1691543,14.8846348],"ct":"IT","tp":"CS","ts":"2024-09-24T07:20:45Z","tX":554,"tY":394,"tags":{"caravans":"yes","contact:email":"info@calanovella.it","contact:fax":"+39 0941 585223","contact:phone":"+39 0941 585258","dog":"yes","leisure":"resort","motorhome":"yes","name":"Calanovella","power_supply":"yes","power_supply:maxcurrent":"5","socket:cee_blue":"yes","start_date":"1979","tents":"yes","website":"https://calanovella.it/"}},"480934550":{"location":[38.1336714,15.054168],"ct":"IT","tp":"CS","ts":"2017-03-16T22:03:20Z","tX":554,"tY":394,"tags":{"name":"Marinello"}},"529080046":{"location":[38.1578083,14.9626459],"ct":"IT","tp":"CR","ts":"2018-07-10T23:31:33Z","tX":554,"tY":394,"tags":{"name":"Saliceto","power_supply":"yes"}},"5192057907":{"location":[38.1868115,14.9101183],"ct":"IT","tp":"CS","ts":"2018-07-14T00:58:08Z","tX":554,"tY":394,"tags":{"name":"Camping Tirreno","phone":"+390941301028","website":"campingtirreno.com"}},"5759614893":{"location":[38.1881345,14.9120361],"ct":"IT","tp":"CS","ts":"2018-07-14T00:56:01Z","tX":554,"tY":394,"tags":{"name":"Camping Gioiosa"}},"4655290989":{"location":[38.1551046,14.9636808],"ct":"IT","tp":"CR","ts":"2020-09-19T07:06:15Z","tX":554,"tY":394,"tags":{"addr:street":"Via Mustazzo","internet_access":"wlan","name":"Villa Pisani","name:it":"Villa Pisani","opening_hours":"24/7"}}}