{"4168456489":{"location":[32.4323197,14.9258914],"ct":"LY","tp":"CS","ts":"2020-11-18T18:55:29Z","tX":554,"tY":414,"tags":{"name":"شواطئ عائلية","name:ar":"شواطئ عائلية"}},"4365350596":{"location":[32.4351632,14.915653],"ct":"LY","tp":"CS","ts":"2016-08-24T20:13:55Z","tX":554,"tY":414,"tags":{"name":"شواطئ عائلية حرة","name:ar":"شواطئ عائلية حرة"}},"4365382590":{"location":[32.4348881,14.9169637],"ct":"LY","tp":"CS","ts":"2016-08-24T20:13:51Z","tX":554,"tY":414,"tags":{"name":"شاطئ عائلي حر","name:ar":"شاطئ عائلي حر"}},"4368180393":{"location":[32.4203577,14.9608712],"ct":"LY","tp":"CS","ts":"2016-08-26T17:38:42Z","tX":554,"tY":414,"tags":{"name":"شاطئ عائلي","name:ar":"شاطئ عائلي"}},"4368180394":{"location":[32.4199108,14.9615528],"ct":"LY","tp":"CS","ts":"2016-08-26T17:38:43Z","tX":554,"tY":414,"tags":{"name":"شاطي ابوفاطمة","name:ar":"شاطي ابوفاطمة"}},"4368211594":{"location":[32.4320543,14.9281518],"ct":"LY","tp":"CS","ts":"2016-08-26T17:39:05Z","tX":554,"tY":414,"tags":{"name":"شاطي عائلات","name:ar":"شاطي عائلات"}},"4368260990":{"location":[32.4110687,15.0656243],"ct":"LY","tp":"CS","ts":"2022-12-23T12:45:31Z","tX":554,"tY":414,"tags":{"name":"شاطئ مرباط أطفال","name:ar":"شاطئ مرباط أطفال"}},"4393534290":{"location":[32.3585684,15.0446257],"ct":"LY","tp":"CS","ts":"2019-12-15T16:33:26Z","tX":554,"tY":414,"tags":{"name":"معسكر الخروبة","name:ar":"معسكر الخروبه","name:en":"Al Kharroba Camp"}},"4579823190":{"location":[32.4122612,15.0247612],"ct":"LY","tp":"CS","ts":"2016-12-29T16:56:47Z","tX":554,"tY":414,"tags":{"name":"شواطي عامة","name:ar":"شواطي عامة"}},"4919845421":{"location":[32.364864,14.9683549],"ct":"LY","tp":"CS","ts":"2017-06-16T22:56:20Z","tX":554,"tY":414,"tags":{"addr:street":"شارع بازينة","internet_access":"wlan","name":"كشاف غرب المدينة","name:ar":"كشاف غرب المدينة","name:en":"West city scout regiment","operator":"مفوضية مصراته"}},"4919845422":{"location":[32.3766939,15.0889305],"ct":"LY","tp":"CS","ts":"2018-10-27T01:42:52Z","tX":554,"tY":414,"tags":{"addr:housenumber":"17","addr:street":"First Ring Road الدائري الأول","name":"مفوضية مصراته للكشافة والمرشدات","name:ar":"مفوضية مصراته للكشافة والمرشدات","name:en":"Misrata boyscout and girl guide commission","opening_hours":"Sa-Th 09:00-18:00","operator":"boy scout of Libya"}},"4919845423":{"location":[32.384518,14.9417676],"ct":"LY","tp":"CS","ts":"2017-06-16T22:56:33Z","tX":554,"tY":414,"tags":{"name":"غابة كشاف البيرة","name:ar":"غابة كشاف البيرة"}},"4919845621":{"location":[32.3862058,14.9379684],"ct":"LY","tp":"CS","ts":"2017-06-16T22:56:31Z","tX":554,"tY":414,"tags":{"addr:street":"الطريق الساحلى","name":"غابة كشاف البيرة","name:ar":"غابة كشاف البيرة"}},"5073898422":{"location":[32.3766834,15.0893042],"ct":"LY","tp":"CS","ts":"2020-11-18T18:55:29Z","tX":554,"tY":414,"tags":{"addr:street":"شارع الكشاف علي الزايدي ( الجوازات )","name":"مفوضية كشاف مصراته","name:ar":"مفوضية كشاف مصراته","name:en":"libyan boy"}},"5369316021":{"location":[32.4196285,14.9584655],"ct":"LY","tp":"CS","ts":"2020-11-18T18:55:29Z","tX":554,"tY":414,"tags":{"name":"غابة أبو فاطمة للكشافة","name:ar":"غابة أبو فاطمة للكشافة","name:en":"Abofatma scout camp site"}},"5808888953":{"location":[32.4399289,14.8537001],"ct":"LY","tp":"CS","ts":"2020-11-18T18:55:29Z","tX":554,"tY":414,"tags":{"addr:street":"جزيرة الحمام","name":"امكين","name:ar":"امكين"}},"6588315685":{"location":[32.4360921,14.7731701],"ct":"LY","tp":"CS","ts":"2020-11-18T18:55:29Z","tX":554,"tY":414,"tags":{"name":"أرض المازق","name:ar":"أرض المازق"}},"7160470385":{"location":[32.3834909,15.1096957],"ct":"LY","tp":"CS","ts":"2020-11-18T18:55:29Z","tX":554,"tY":414,"tags":{"name":"أرض عائلة لاغا","name:ar":"أرض عائلة لاغا","name:en":"Lagha Family’s Peice Of earth","phone":"+218915201477"}},"8441171018":{"location":[32.4072793,14.9245198],"ct":"LY","tp":"CS","ts":"2021-02-20T17:40:37Z","tX":554,"tY":414,"tags":{"addr:street":"اسماعيل انديشه","internet_access":"wlan"}},"10101354617":{"location":[32.2976916,15.0956963],"ct":"LY","tp":"CS","ts":"2022-10-14T15:00:33Z","tX":554,"tY":414,"tags":{"name":"عزاء أبوشيبه"}},"11401960669":{"location":[32.3846277,15.0889476],"ct":"LY","tp":"CS","ts":"2023-12-22T19:05:17Z","tX":554,"tY":414,"tags":{"name:ar":"مقهى دوراتو البحاري"}},"4365350492":{"location":[32.435537,14.9138196],"ct":"LY","tp":"CR","ts":"2016-08-24T20:13:59Z","tX":554,"tY":414,"tags":{"name":"شواطئ عائلية حرة","name:ar":"شواطئ عائلية حرة"}},"4365350594":{"location":[32.4341047,14.920553],"ct":"LY","tp":"CR","ts":"2016-08-24T20:13:47Z","tX":554,"tY":414,"tags":{"name":"شواطئ عائلية حرة","name:ar":"شواطئ عائلية حرة"}},"4365386690":{"location":[32.4347776,14.9148505],"ct":"LY","tp":"CR","ts":"2016-08-24T20:13:58Z","tX":554,"tY":414,"tags":{"name":"شواطئ عائلية حرة","name:ar":"شواطئ عائلية حرة"}},"4368270689":{"location":[32.419561,14.9621579],"ct":"LY","tp":"CR","ts":"2016-08-26T17:38:44Z","tX":554,"tY":414,"tags":{"name":"شاطئ ابو فاطمه","name:ar":"شاطئ ابو فاطمه"}},"4579833089":{"location":[32.4123344,15.0239743],"ct":"LY","tp":"CR","ts":"2016-12-29T16:56:48Z","tX":554,"tY":414,"tags":{"name":"شاطئ عام","name:ar":"شاطئ عام"}},"5117693621":{"location":[32.2545921,15.0499907],"ct":"LY","tp":"CR","ts":"2020-11-24T03:13:15Z","tX":554,"tY":414,"tags":{"name":"عبدو بادي","name:ar":"عبدو بادي"}},"5383258826":{"location":[32.388048,14.9765297],"ct":"LY","tp":"CR","ts":"2020-11-18T18:55:29Z","tX":554,"tY":414,"tags":{"name":"الهادي","name:ar":"الهادي"}},"5812229154":{"location":[32.3667747,15.0936594],"ct":"LY","tp":"CR","ts":"2020-11-18T18:55:29Z","tX":554,"tY":414,"tags":{"addr:street":"Therd Ring Road الطريق الدائري الثالث","internet_access":"wlan","name":"عبدو","name:ar":"عبدو","name:en":"ABDO"}},"6942909487":{"location":[32.3528342,15.0376274],"ct":"LY","tp":"CR","ts":"2020-11-18T18:55:29Z","tX":554,"tY":414,"tags":{"name":"بيت مفتاح","name:ar":"بيت مفتاح"}},"6942914585":{"location":[32.3532584,15.0372816],"ct":"LY","tp":"CR","ts":"2024-09-16T19:55:51Z","tX":554,"tY":414,"tags":{"name":"بيت مفتاح الجديد","name:ar":"بيت مفتاح الجديد"}},"7311947685":{"location":[32.3480977,15.0850531],"ct":"LY","tp":"CR","ts":"2020-11-18T18:55:29Z","tX":554,"tY":414,"tags":{"name":"عائلة المرحوم أحمد بالنور","name:ar":"عائلة المرحوم أحمد بالنور"}},"8699824617":{"location":[32.3656935,15.063192],"ct":"LY","tp":"CR","ts":"2021-05-05T01:54:56Z","tX":554,"tY":414,"tags":{"addr:housenumber":"0919988858","addr:street":"زَمُّورَة","internet_access":"wlan","name":"منزل محمد القدافي","phone":"0919988858"}},"10069889517":{"location":[32.3924227,14.7674589],"ct":"LY","tp":"CR","ts":"2022-10-03T05:49:23Z","tX":554,"tY":414,"tags":{"addr:street":"الدافنية","name":"منزل"}},"10610382606":{"location":[32.3701911,15.0694794],"ct":"LY","tp":"CR","ts":"2023-02-06T07:13:52Z","tX":554,"tY":414,"tags":{"addr:street":"الطريق الدائري الثالث","name":"دار الجهانات","opening_hours":"24/7","phone":"0919988858"}},"10610389505":{"location":[32.3717209,15.0823493],"ct":"LY","tp":"CR","ts":"2023-02-06T07:13:51Z","tX":554,"tY":414,"tags":{"addr:street":"الطريق الدائري الثاني","name":"منزل ال مخلوف"}}}