{"1079097104":{"location":[50.1865156,87.9274705],"ct":"RU","tp":"CS","ts":"2022-07-16T19:21:38Z","tX":762,"tY":346,"tags":{"name":"Межелик"}},"1079109030":{"location":[50.2206989,87.944895],"ct":"RU","tp":"CS","ts":"2022-07-16T20:33:45Z","tX":762,"tY":346,"tags":{"name":"Зов ледников","phone":"8-913-697-21-66"}},"1079109031":{"location":[50.2205655,87.9424504],"ct":"RU","tp":"CS","ts":"2022-07-16T20:33:45Z","tX":762,"tY":346,"tags":{"name":"Токтомой тудей","phone":"8-913-998-53-71"}},"1079109032":{"location":[50.2258583,87.9295763],"ct":"RU","tp":"CS","ts":"2022-07-16T20:33:45Z","tX":762,"tY":346,"tags":{"name":"Заря","phone":"8-913-690-1852"}},"1079109033":{"location":[50.2331604,87.9267303],"ct":"RU","tp":"CS","ts":"2022-07-16T20:33:45Z","tX":762,"tY":346,"tags":{"barrier":"fence","name":"СилаГор","phone":"+7-913-994-21-41"}},"1079109034":{"location":[50.2394344,87.9199729],"ct":"RU","tp":"CS","ts":"2022-07-16T20:33:45Z","tX":762,"tY":346,"tags":{"name":"Энчи","phone":"+7-913-694-67-95"}},"1079109036":{"location":[50.2236768,87.928849],"ct":"RU","tp":"CS","ts":"2022-07-16T20:33:45Z","tX":762,"tY":346,"tags":{"barrier":"fence","name":"Золотой очаг","phone":"8-913-991-17-87"}},"1079109037":{"location":[50.2277668,87.9322046],"ct":"RU","tp":"CS","ts":"2022-07-16T20:33:45Z","tX":762,"tY":346,"tags":{"name":"Меркит","phone":"89139989988"}},"1079109046":{"location":[50.2283754,87.9306804],"ct":"RU","tp":"CS","ts":"2022-07-16T20:33:45Z","tX":762,"tY":346,"tags":{"name":"Курайские зори"}},"1079109047":{"location":[50.2346209,87.9259587],"ct":"RU","tp":"CS","ts":"2022-07-16T20:33:45Z","tX":762,"tY":346,"tags":{"barrier":"fence","name":"Родник","phone":"89139930783"}},"1079109049":{"location":[50.2350203,87.9013432],"ct":"RU","tp":"CS","ts":"2022-07-16T20:33:45Z","tX":762,"tY":346,"tags":{"addr:housenumber":"1","addr:street":"Чуйский тракт 824 километр","name":"усадьба Сартыкпая","phone":"89139918511"}},"1079109050":{"location":[50.2462076,87.8915257],"ct":"RU","tp":"CS","ts":"2022-07-16T20:33:45Z","tX":762,"tY":346,"tags":{"name":"Алтынсай","phone":"8-913-694-36-63"}},"1079109052":{"location":[50.2552521,87.8922689],"ct":"RU","tp":"CS","ts":"2022-07-16T20:33:45Z","tX":762,"tY":346,"tags":{"name":"Сайкол Глэмпинг Курай","name:en":"Saikol Glamping Kuray","opening_hours":"Mo-Su 09:00-20:00","phone":"+79682222323","website":"https://saikolglamping.ru/"}},"1079109053":{"location":[50.2525423,87.8955656],"ct":"RU","tp":"CS","ts":"2022-07-16T20:33:45Z","tX":762,"tY":346,"tags":{"description":"100р с человека за палатку/машину (2021г)","name":"Ясная поляна турбаза","opening_hours":"24/7","phone":"89136925234"}},"1079109054":{"location":[50.2327006,87.9375851],"ct":"RU","tp":"CS","ts":"2022-07-16T20:33:45Z","tX":762,"tY":346,"tags":{"barrier":"fence","name":"Голубой Алтай","phone":"+79139905222"}},"1079109055":{"location":[50.2307197,87.9402861],"ct":"RU","tp":"CS","ts":"2022-07-16T20:33:45Z","tX":762,"tY":346,"tags":{"barrier":"fence","name":"Чуйские альпы","name:en":"Chuyan Alps","name:ru":"Чуйские альпы","opening_hours":"24/7","operator":"Леонид","phone":"+7 913 9941690","website":"https://turistka.ru/altai/info.php?ob=1728"}},"1079109063":{"location":[50.2372677,87.9126808],"ct":"RU","tp":"CS","ts":"2022-07-16T20:33:45Z","tX":762,"tY":346,"tags":{}},"1079109064":{"location":[50.2372393,87.9146871],"ct":"RU","tp":"CS","ts":"2022-07-16T20:33:45Z","tX":762,"tY":346,"tags":{"barrier":"fence","name":"Кочкор","phone":"89139912941"}},"1079109081":{"location":[50.2391681,87.9209157],"ct":"RU","tp":"CS","ts":"2022-07-16T20:33:45Z","tX":762,"tY":346,"tags":{"name":"Тандак","phone":"8-913-690-34-67"}},"1079109082":{"location":[50.2382387,87.918705],"ct":"RU","tp":"CS","ts":"2022-07-16T20:33:45Z","tX":762,"tY":346,"tags":{"barrier":"fence","name":"ALTAY LIFE этно","phone":"8-923-661-83-62"}},"1079109086":{"location":[50.2392799,87.9320383],"ct":"RU","tp":"CS","ts":"2022-07-16T20:33:45Z","tX":762,"tY":346,"tags":{}},"1079109101":{"location":[50.2374358,87.9258799],"ct":"RU","tp":"CS","ts":"2022-07-16T20:33:45Z","tX":762,"tY":346,"tags":{"barrier":"fence","name":"Алтай Мир","phone":"8-923-665-84-68"}},"1079109103":{"location":[50.234454,87.9377662],"ct":"RU","tp":"CS","ts":"2022-07-16T20:33:45Z","tX":762,"tY":346,"tags":{"barrier":"fence","name":"Дамир","phone":"8-913-698-86-16"}},"1079110201":{"location":[50.2473439,87.9790789],"ct":"RU","tp":"CS","ts":"2022-07-16T20:39:23Z","tX":762,"tY":346,"tags":{"addr:street":"Чуйский тракт, 830км., с. Курай","internet_access":"wlan","name":"Basecamp aktru","opening_hours":"24/7","phone":"+79236036077","website":"https://basecamp.group/"}},"1085611439":{"location":[50.1853943,88.1442651],"ct":"RU","tp":"CS","ts":"2022-08-11T13:49:31Z","tX":762,"tY":346,"tags":{"name":"Юрты у реки","phone":"89836074516"}},"1085611440":{"location":[50.179173,88.0017254],"ct":"RU","tp":"CS","ts":"2022-08-11T13:49:31Z","tX":762,"tY":346,"tags":{"name":"Кур Кечу","phone":"+7-913-992-00-05"}},"1085611442":{"location":[50.2190363,87.9427872],"ct":"RU","tp":"CS","ts":"2022-08-11T13:49:31Z","tX":762,"tY":346,"tags":{"name":"Кабай","phone":"+7-913-998-89-18"}},"4851994122":{"location":[50.2306859,87.9402603],"ct":"RU","tp":"CS","ts":"2022-07-16T20:33:45Z","tX":762,"tY":346,"tags":{"name":"турбаза Чуйские альпы","operator":"Леонид","phone":"+7 913 9941690"}},"5783078655":{"location":[50.2563688,87.9043072],"ct":"RU","tp":"CS","ts":"2018-07-25T04:45:20Z","tX":762,"tY":346,"tags":{"name":"Стоянка у кузнечиков"}}}