{"4455295891":{"location":[-21.7472961,-57.5048347],"ct":"BR","tp":"CS","ts":"2016-10-19T17:36:12Z","tX":348,"tY":575,"tags":{"name":"Fazenda Indiana (Entrada)"}},"4472339697":{"location":[-21.809411,-57.4437685],"ct":"BR","tp":"CS","ts":"2016-10-31T09:23:38Z","tX":348,"tY":575,"tags":{"name:pt":"Fazenda Canada (Sede)"}},"4482913392":{"location":[-21.6887875,-57.3600528],"ct":"BR","tp":"CS","ts":"2016-11-04T21:23:54Z","tX":348,"tY":575,"tags":{"name:pt":"Fazenda Marabá (Sede)"}},"4482913493":{"location":[-21.7493267,-57.4186613],"ct":"BR","tp":"CS","ts":"2016-11-04T21:23:50Z","tX":348,"tY":575,"tags":{"name:pt":"Fazenda Nova Esperança"}},"4482913494":{"location":[-21.7599718,-57.3871655],"ct":"BR","tp":"CS","ts":"2016-11-04T21:23:52Z","tX":348,"tY":575,"tags":{"name:pt":"Fazenda Piatã"}},"4482913590":{"location":[-21.7683164,-57.355205],"ct":"BR","tp":"CS","ts":"2016-11-04T21:23:56Z","tX":348,"tY":575,"tags":{"name:pt":"Fazenda Marabá (Entrada)"}},"4521062596":{"location":[-21.7655381,-57.3057138],"ct":"BR","tp":"CS","ts":"2016-11-25T17:25:56Z","tX":348,"tY":575,"tags":{"name":"FAZENDA MARAJA","name:pt":"FAZENDA MARAJA"}},"4521085191":{"location":[-21.7785354,-57.4968027],"ct":"BR","tp":"CS","ts":"2016-11-25T17:24:48Z","tX":348,"tY":575,"tags":{"internet_access":"wlan","name":"FAZENDA YNDIANA","name:pt":"FAZENDA YNDIANA"}},"4521111597":{"location":[-21.7688179,-57.3561943],"ct":"BR","tp":"CS","ts":"2016-11-25T17:25:58Z","tX":348,"tY":575,"tags":{"name":"FAZENDA MARABÁ","name:pt":"FAZENDA MARABÁ"}},"4521115190":{"location":[-21.7596072,-57.3873305],"ct":"BR","tp":"CS","ts":"2016-11-25T17:26:00Z","tX":348,"tY":575,"tags":{"name":"FAZENDA PIATÃ","name:pt":"FAZENDA PIATÃ"}}}