{"14642297":{"location":[-25.3871206,-57.45766],"ct":"PY","tp":"CS","ts":"2022-10-08T02:11:36Z","tX":348,"tY":586,"tags":{"addr:city":"Loma Barrero","addr:postcode":"110236","addr:street":"Paseo los lagos","name":"Hotel Los Lagos","name:de":"Hotel Los Lagos","name:en":"Hotel Los Lagos","name:es":"Hotel Los Lagos","name:la":"Deversorium Los Lacupolis","phone":"+595 983 523 469","website":"https://www.loslagos.com.py/"}},"4436438891":{"location":[-25.3317273,-57.487656],"ct":"PY","tp":"CS","ts":"2016-10-07T16:03:12Z","tX":348,"tY":586,"tags":{"name":"House Atilio Llano","name:es":"House Atilio Llano"}},"4599452991":{"location":[-25.2756939,-57.4476802],"ct":"PY","tp":"CS","ts":"2017-01-10T09:44:50Z","tX":348,"tY":586,"tags":{"name":"Rancho Nuñez","name:es":"Rancho Nuñez"}},"5697564328":{"location":[-25.3076589,-57.3811419],"ct":"PY","tp":"CS","ts":"2018-06-17T22:17:53Z","tX":348,"tY":586,"tags":{}},"11051855557":{"location":[-25.3578182,-57.3307999],"ct":"PY","tp":"CS","ts":"2023-07-17T21:49:42Z","tX":348,"tY":586,"tags":{"access":"private","name":"Campo Recreativo Moroni","operator":"La Iglesia de Jesucristo de los Santos de los Últimos Días"}}}