{"5760569":{"location":[54.1450754,11.7929744],"ct":"DE","tp":"CR","ts":"2025-01-08T01:44:39Z","tX":545,"tY":328,"tags":{"addr:city":"Wittenbeck","addr:postcode":"18209","addr:street":"Bäderweg","capacity":"150","charge":"18 EUR","charge:conditional":"20 EUR@(length>=8)","contact:mobile":"+49 172 9037723","dog":"leashed","dog_beach":"yes","fee":"yes","internet_access":"no","name":"Sanddornstrand Wittenbeck","power_supply":"yes","sanitary_dump_station":"yes","shower":"yes","tents":"no","water_point":"yes","water_point:fee":"no","website":"https://www.sanddornstrand-wittenbeck.de/"}},"25065140":{"location":[54.1291235,11.6449212],"ct":"DE","tp":"CS","ts":"2025-06-18T06:59:18Z","tX":545,"tY":328,"tags":{"access":"customers","addr:city":"Rerik","addr:country":"DE","addr:housenumber":"3 b","addr:postcode":"18230","addr:street":"Meschendorfer Weg","addr:suburb":"Meschendorf","camp_site":"deluxe","caravans":"yes","check_date":"2025-06-18","check_date:internet_access":"2025-06-18","dog":"leashed","drinking_water":"yes","email":"info@ostseecamp.de","fee":"yes","internet_access":"wlan","internet_access:fee":"no","name":"Ostseecamp Seeblick","nudism":"permissive","operator":"Ostseecamp Seeblick GmbH & Co. KG","payment:cash":"yes","payment:credit_cards":"yes","payment:debit_cards":"yes","phone":"+49 38296 7110","power_supply":"yes","reservation":"recommended","sanitary_dump_station":"yes","shower":"yes","stars":"4","static_caravans":"yes","tents":"yes","toilets":"yes","toilets:wheelchair":"yes","website":"https://www.ostseecamp.de/","wheelchair":"limited","wheelchair:description":"Strand nicht zugänglich, neues Sanitärgebäude ohne behindertengerechte Einrichtung"}},"37762979":{"location":[54.1394511,11.8534768],"ct":"DE","tp":"PK","ts":"2023-09-16T20:07:03Z","tX":545,"tY":328,"tags":{"caravans":"yes","fee":"0,35€/h","name":"Waldparkplatz","parking":"surface","surface":"asphalt"}},"72370090":{"location":[54.1520625,11.7171927],"ct":"DE","tp":"CS","ts":"2025-06-05T21:21:07Z","tX":545,"tY":328,"tags":{"addr:city":"Kühlungsborn","addr:country":"DE","addr:housenumber":"1b","addr:postcode":"18225","addr:street":"Waldstraße","caravans":"yes","drinking_water":"yes","internet_access":"wlan","name":"Campingpark Kühlungsborn","opening_hours:phone":"Mo-Su 08:00-18:00","opening_hours:reception":"Mo-Su 08:00-20:00","phone":"+49382937195","power_supply":"yes","sanitary_dump_station":"yes","shower":"yes","tents":"yes","toilets":"yes","website":"https://www.topcamping.de/","wheelchair":"yes"}},"124546040":{"location":[54.1518375,11.9012654],"ct":"DE","tp":"CS","ts":"2023-10-24T12:29:05Z","tX":545,"tY":328,"tags":{"addr:city":"Börgerende-Rethwisch","addr:country":"DE","addr:housenumber":"16","addr:postcode":"18211","addr:street":"Deichstraße","addr:suburb":"Börgerende","caravans":"yes","contact:email":"info@ostseeferiencamp.de","contact:facebook":"https://www.facebook.com/Ostseeferiencamp","contact:fax":"+49 38203 81284","contact:phone":"+49 38203 81126","contact:twitter":"https://twitter.com/feriencamp2014","contact:youtube":"https://www.youtube.com/channel/UCK8WK5LjgfI9fogQWN_L6fw","description":"Das Ferien-Camp Börgerende ist ein Campingplatz an der Ostsee in MV mit komfortablen Wohnmobilstellplätzen sowie einem modernen Sanitärbereich.","drinking_water":"yes","name":"Ferien-Camp Börgerende","opening_hours:checkin":"Mo-Su 13:30","opening_hours:checkout":"Mo-Su 11:00","opening_hours:reception":"Mo-Su 08:00-12:30; Mo-Su 13:30-19:30 \"Hauptsaison\" || Mo-Su 13:30-19:00 \"Nebensaison\"","power_supply":"yes","shower":"yes","tents":"yes","toilets":"yes","website":"https://www.ostseeferiencamp.de/"}},"187165936":{"location":[54.1121343,11.6329815],"ct":"DE","tp":"CS","ts":"2025-04-26T17:35:51Z","tX":545,"tY":328,"tags":{"addr:city":"Rerik","addr:country":"DE","addr:housenumber":"8","addr:postcode":"18230","addr:street":"Straße am Zeltplatz","alt_name":"Camping Ostsee - Campingpark Rerik","caravans":"yes","drinking_water":"yes","email":"info@campingpark-rerik.de","fax":"+49 38296 75722","fee":"yes","internet_access":"yes","internet_access:fee":"no","name":"Campingpark Rerik","phone":"+49 38296 75720","power_supply":"yes","sanitary_dump_station":"yes","shower":"yes","stars":"5","static_caravans":"yes","tents":"no","toilets":"yes","website":"https://www.campingpark-rerik.de/","wheelchair":"yes"}},"524916521":{"location":[54.1131683,11.6322609],"ct":"DE","tp":"CR","ts":"2025-01-01T17:28:07Z","tX":545,"tY":328,"tags":{"addr:city":"Rerik","addr:housenumber":"8","addr:postcode":"18230","addr:street":"Straße am Zeltplatz","alt_name":"Wohnmobilhafen Rerik","capacity":"35","fee":"yes","internet_access":"yes","internet_access:fee":"customers","name":"Wohnmobilpark Rerik","operator":"Campingpark Rerik","power_supply":"yes","sanitary_dump_station":"yes","website":"https://www.campingpark-rerik.de/campingplatz/campingplatz-ostsee/"}},"527792410":{"location":[54.1523799,11.899522],"ct":"DE","tp":"CR","ts":"2025-01-30T01:07:01Z","tX":545,"tY":328,"tags":{"addr:city":"Börgerende-Rethwisch","addr:housenumber":"16","addr:postcode":"18211","addr:street":"Deichstraße","capacity":"24","caravan_site":"motorhome_stopover","caravan_site:type":"beach","charge":"37 EUR","dog":"yes","dog:charge":"5 EUR","dog:fee":"yes","fee":"yes","internet_access":"yes","maxstay":"3 days","name":"SP vorm Ferien-Camp Börgerende","power_supply":"yes","power_supply:charge":"0.80 EUR/kWh","power_supply:fee":"yes","reservation":"no","sanitary_dump_station":"yes","seasonal":"no","toilets":"no","website":"https://www.ostseeferiencamp.de/","wheelchair":"yes"}},"953677655":{"location":[54.0990611,11.756991],"ct":"DE","tp":"CS","ts":"2021-06-16T20:35:39Z","tX":545,"tY":328,"tags":{"access":"customers","addr:city":"Kröpelin","addr:housenumber":"8","addr:postcode":"18236","addr:street":"Zur Plantage","dog":"leashed","fee":"yes","name":"Campingplatz zur Kühlung","operator":"Ann Kruth","shower":"yes","toilets":"yes","website":"https://www.campingplatz-diedrichshagen.de/"}},"5128177288":{"location":[54.1128646,11.6323648],"ct":"DE","tp":"SD","ts":"2022-02-21T12:11:06Z","tX":545,"tY":328,"tags":{"access":"customers","operator":"Campingpark Rerik"}},"5130446079":{"location":[54.1525865,11.8994717],"ct":"DE","tp":"SD","ts":"2023-07-06T15:15:58Z","tX":545,"tY":328,"tags":{"access":"yes","fee":"no","water_point":"yes"}},"11285946526":{"location":[54.1291182,11.6453455],"ct":"DE","tp":"SD","ts":"2025-06-13T11:00:46Z","tX":545,"tY":328,"tags":{"access":"customers","fee":"no","sanitary_dump_station:gravity":"yes"}},"12913889528":{"location":[54.1518661,11.7189346],"ct":"DE","tp":"SD","ts":"2025-06-14T05:32:53Z","tX":545,"tY":328,"tags":{}}}