{"41736845":{"location":[53.7845799,11.8394404],"ct":"DE","tp":"CS","ts":"2022-12-25T13:23:41Z","tX":545,"tY":329,"tags":{"addr:city":"Eickhof","addr:housenumber":"14","addr:postcode":"18249","addr:street":"Dorfstraße","caravans":"yes","check_date":"2022-12-25","email":"naturdorf-eickhof@email.de","fax":"+49 38462 33035","mobile":"+49 174 9450230","name":"Naturdorf Eickhof","operator":"Brit Abeln","phone":"+49 38462 20419","shower":"yes","tents":"yes","toilets":"yes","website":"https://www.naturdorf-eickhof.de/"}},"58264171":{"location":[53.8639244,11.6969177],"ct":"DE","tp":"CS","ts":"2022-12-25T13:23:41Z","tX":545,"tY":329,"tags":{"addr:city":"Neukloster","addr:housenumber":"27a","addr:postcode":"23992","addr:street":"Bützower Straße","caravans":"yes","check_date":"2022-12-25","email":"info@see-camping-neukloster.de","mobile":"+49 1520 4555106","name":"See-Camping Neukloster","operator":"Wolfgang Seidel","phone":"+49 38422 20844","tents":"yes","website":"http://www.see-camping-neukloster.de/"}},"58265957":{"location":[53.8604939,11.6959363],"ct":"DE","tp":"CR","ts":"2023-08-20T08:50:27Z","tX":545,"tY":329,"tags":{"addr:city":"Neukloster","addr:housenumber":"3","addr:postcode":"23992","addr:street":"Alte Gärtnerei","capacity":"69","email":"kontakt@wohnmobilpark-am-see.de","fax":"+4938422 58542","fee":"yes","name":"Wohnmobilpark am See Neukloster","phone":"+49 38422 58492","power_supply":"yes","sanitary_dump_station":"yes","toilets":"yes","water_point":"yes","website":"https://wohnmobilpark-am-see.de/"}},"97592310":{"location":[53.8711886,11.6418441],"ct":"DE","tp":"PK","ts":"2021-09-22T12:47:23Z","tX":545,"tY":329,"tags":{"bus":"yes","caravan":"yes","fee":"no","hgv":"designated","parking":"surface"}},"169465725":{"location":[53.7907946,11.6090284],"ct":"DE","tp":"PK","ts":"2019-01-04T18:19:59Z","tX":545,"tY":329,"tags":{"bus":"yes","capacity":"5","caravan":"yes","hgv":"yes","parking":"surface"}},"169465729":{"location":[53.7920915,11.6050788],"ct":"DE","tp":"PK","ts":"2019-01-04T18:19:59Z","tX":545,"tY":329,"tags":{"bus":"yes","capacity":"5","caravan":"yes","hgv":"yes","parking":"surface"}},"191910146":{"location":[53.8720293,11.6413965],"ct":"DE","tp":"PK","ts":"2022-10-05T08:49:32Z","tX":545,"tY":329,"tags":{"access":"yes","bus":"yes","caravan":"yes","fee":"no","hgv":"designated","parking":"surface"}},"660552546":{"location":[53.7906346,11.6090251],"ct":"DE","tp":"PK","ts":"2019-01-04T18:19:54Z","tX":545,"tY":329,"tags":{"bus":"yes","caravan":"yes","hgv":"yes","parking":"surface"}},"4230028262":{"location":[53.860868,11.695261],"ct":"DE","tp":"SD","ts":"2020-07-19T10:09:25Z","tX":545,"tY":329,"tags":{"access":"customers","sanitary_dump_station:basin":"yes","sanitary_dump_station:chemical_toilet":"yes","sanitary_dump_station:gravity":"yes","sanitary_dump_station:grey_water":"yes","sanitary_dump_station:round_drain":"yes"}},"10286539433":{"location":[53.7890191,11.7485738],"ct":"DE","tp":"CS","ts":"2025-02-05T13:06:56Z","tX":545,"tY":329,"tags":{"addr:city":"Warin","addr:country":"DE","addr:housenumber":"13","addr:postcode":"19417","addr:street":"Seepromenade","capacity:caravans":"21","caravans":"yes","check_date":"2022-12-25","email":"buchung@ferienpark-klein-labenz.de","fee":"yes","mobile":"+49 176 18400330","name":"NFP - Natur- und Ferienpark \"Am Groß Labenzer See\"","tents":"yes","website":"https://www.ferienpark-klein-labenz.de/"}}}