{"196859498":{"location":[53.7201373,11.7501235],"ct":"DE","tp":"CS","ts":"2024-05-28T19:06:37Z","tX":545,"tY":330,"tags":{"addr:city":"Weitendorf","addr:housenumber":"6a","addr:postcode":"19412","addr:street":"Hofplatz","caravans":"yes","check_date":"2022-12-25","email":"yves.piehl@web.de","fee":"yes","mobile":"+49 171 8147911","name":"Kanu-Feriencamp Weitendorf","phone":"+49 152 59799952","tents":"yes","website":"https://www.kanu-camp-weitendorf.de/"}},"310359287":{"location":[53.6625762,11.9509874],"ct":"DE","tp":"CS","ts":"2023-09-21T16:39:11Z","tX":545,"tY":330,"tags":{"addr:city":"Borkow","addr:housenumber":"6","addr:postcode":"19406","addr:street":"Seestraße","caravans":"no","check_date":"2022-12-25","description":"Zeltplatz für Wasserwanderer auf einer Flussinsel","email":"info@dschungelschute.de","mobile":"+49 152 24053869","name":"Kanucamp Borkow","operator":"Madlen Keßler","phone":"+49 173 8177888","shower":"yes","tents":"yes","toilets":"yes","website":"https://www.dschungelschute.de/"}},"363918349":{"location":[53.7166145,11.8337763],"ct":"DE","tp":"CS","ts":"2025-01-29T20:07:37Z","tX":545,"tY":330,"tags":{"addr:city":"Sternberg","addr:housenumber":"4","addr:postcode":"19406","addr:street":"Johannes-Dörwaldt-Allee","check_date":"2022-12-25","email":"info@hotel-dreiwasser.de","name":"Hotel & Restaurant Dreiwasser","phone":"+49 3847 4368081","tents":"yes","website":"https://www.hotel-dreiwasser.m-vp.de/"}},"1195164265":{"location":[53.6381204,11.9251552],"ct":"DE","tp":"CS","ts":"2023-09-21T16:39:11Z","tX":545,"tY":330,"tags":{"addr:city":"Hohen Pritz","addr:country":"DE","addr:housenumber":"6","addr:postcode":"19406","addr:street":"Seestraße","addr:suburb":"Kukuk","caravans":"yes","check_date":"2022-12-25","email":"anton@camping-kukuk.de","fax":"+49 38485 20432","mobile":"+49 177 7171401","name":"Camping und Friesenhof Kukuk","phone":"+49 38485 20432","power_supply":"yes","tents":"yes","website":"https://www.camping-kukuk.de/"}},"1308023960":{"location":[53.7138715,11.8126203],"ct":"DE","tp":"CR","ts":"2024-08-15T20:31:55Z","tX":545,"tY":330,"tags":{"contact:phone":"+49 3847 2534","fee":"yes","internet_access":"wlan","landuse":"grass","name":"Wohnmobilhafen Camping Sternberger Seenland","power_supply":"yes","sanitary_dump_station":"yes","water_point":"yes","website":"https://www.camping-sternberg.de/camping/wohnmobil/"}},"3693235684":{"location":[53.6405555,11.9462614],"ct":"DE","tp":"CS","ts":"2022-12-25T15:10:18Z","tX":545,"tY":330,"tags":{"addr:city":"Hohen Pritz","addr:housenumber":"10","addr:postcode":"19406","addr:street":"Kastanienallee","addr:suburb":"Klein Pritz","caravans":"yes","check_date":"2022-12-25","email":"info@camping-kleinpritz.de","mobile":"+49 172 3016926","name":"Campingplatz Klein Pritz","phone":"+49 38485 20060","tents":"yes","website":"https://www.camping-kleinpritz.de/"}},"3912410426":{"location":[53.6398918,11.9492596],"ct":"DE","tp":"CR","ts":"2015-12-27T10:55:09Z","tX":545,"tY":330,"tags":{"contact:mobile":"+49 173 6351283","fee":"yes","name":"Schwarzbieroase","power_supply":"yes","sanitary_dump_station":"yes","water_point":"yes"}},"3947285898":{"location":[53.7190566,11.7271833],"ct":"DE","tp":"CS","ts":"2024-05-28T19:06:37Z","tX":545,"tY":330,"tags":{"addr:city":"Brüel","addr:housenumber":"65","addr:postcode":"19412","addr:street":"Weg zum Roten See","caravans":"yes","check_date":"2022-12-25","email":"magnor@rotersee.de","mobile":"+49 171 4831041","name":"Campingplatz Roter See","operator":"Ines Magnor","phone":"+49 38483 296666","tents":"yes","website":"https://rotersee-mv.de/"}},"4189133879":{"location":[53.5924583,11.6914003],"ct":"DE","tp":"CR","ts":"2016-05-16T09:01:26Z","tX":545,"tY":330,"tags":{"name":"Stellplatz Barnin"}},"4964131021":{"location":[53.7131637,11.8099247],"ct":"DE","tp":"CS","ts":"2022-12-25T13:23:41Z","tX":545,"tY":330,"tags":{"addr:housenumber":"11","addr:postcode":"19406","addr:street":"Maikamp","caravans":"yes","check_date":"2022-12-25","email":"info@camping-sternberg.de","internet_access":"wlan","name":"Camping Sternberger Seenland","name:de":"Camping Sternberger Seenland","name:en":"Camping Sternberger Seenland","phone":"+49 3847 2534","shower":"yes","tents":"yes","toilets":"yes","website":"https://www.camping-sternberg.de/"}},"5519883718":{"location":[53.7368779,11.8346139],"ct":"DE","tp":"CS","ts":"2023-09-21T16:40:33Z","tX":545,"tY":330,"tags":{"addr:city":"Sternberger Burg","addr:housenumber":"10","addr:postcode":"19406","addr:street":"An der Mildenitz","caravans":"yes","check_date":"2022-12-25","drinking_water":"yes","email":"kanucamphennig@icloud.com","mobile":"+49 171 4517958","name":"Kanu-Camp Hennig","operator":"Sabine Henning","power_supply":"yes","shower":"yes","tents":"yes","toilets":"yes","website":"https://kanucamp-hennig.de/"}},"11234123103":{"location":[53.5786923,11.6381498],"ct":"DE","tp":"CR","ts":"2024-09-29T14:08:01Z","tX":545,"tY":330,"tags":{"capacity":"6","caravans":"yes","charge":"10 EUR","description":"am Parkscheinautomat - strom 60cent kWh - 2euro grauwasser entsorgung -","drinking_water":"yes","fee":"yes","maxlength":"none","maxstay":"3 nights","name":"Am See Crivitz","power_supply":"yes","sanitary_dump_station":"yes","surface":"grass","tents":"yes"}},"12118445583":{"location":[53.7133354,11.8094189],"ct":"DE","tp":"SD","ts":"2024-08-20T19:00:36Z","tX":545,"tY":330,"tags":{"access":"customers","sanitary_dump_station:basin":"yes"}}}