{"159860745":{"location":[52.9906905,11.7454786],"ct":"DE","tp":"CR","ts":"2024-12-08T15:11:15Z","tX":545,"tY":333,"tags":{"caravan_site:type":"harbour:restaurant","charge":"10.50 EUR","fee":"yes","name":"Sportbootanger \"Nedwighafen\"","power_supply":"yes","power_supply:charge":"0.70 EUR/KWh","power_supply:fee":"yes","sanitary_dump_station":"yes","sanitary_dump_station:fee":"yes","surface":"paving_stones","toilets:wheelchair":"no","water_point":"yes","water_point:charge":"0.70 EUR/50 liter","water_point:fee":"yes","website":"https://www.restaurant-zum-faehrmann.de/caravanstellplatz","wheelchair":"limited"}},"301105047":{"location":[53.0045903,11.7328028],"ct":"DE","tp":"CS","ts":"2025-02-26T12:42:33Z","tX":545,"tY":333,"tags":{"contact:phone":"+49 3877 5979 94 600","contact:website":"https://kletterturm-wittenberge.de/","name":"Friedensteich","note":"Öffnungszeiten beachten","opening_hours":"We,Th,Fr,Sa 15:00-20:00; Su 15:00-18:00; Mo,Tu,PH off; \"by appointment\"","tents":"yes","toilets:wheelchair":"no","wheelchair":"limited"}},"304679141":{"location":[52.9623234,11.9468215],"ct":"DE","tp":"CR","ts":"2025-01-07T12:49:21Z","tX":545,"tY":333,"tags":{"addr:city":"Bad Wilsnack","addr:country":"DE","addr:housenumber":"1","addr:postcode":"19336","addr:street":"Am Kähling","caravan_site":"motorhome_stopover","caravan_site:type":"swimming_pool","caravans":"yes","charge":"20 EUR","check_in":"09:00-21:00;FR-Sa 09:00-22:00","email":"info@kristalltherme-bad-wilsnack.de","fee":"yes","internet_access":"no","name":"Kristall-Therme Bad Wilsnack Caravanstellplatz","operator":"Kristall-Therme Bad Wilsnack","phone":"+49 38791 80880","power_supply":"yes","power_supply:capacity":"42","power_supply:charge":"1 EUR/1 KWh","power_supply:fee":"yes","reservation":"no","sanitary_dump_station":"yes","tents":"no","water_point":"yes","water_point:charge":"1 EUR/80 liter","water_point:fee":"yes","website":"https://kristalltherme-bad-wilsnack.de/caravanstellplatz/"}},"304679144":{"location":[52.9630471,11.9471923],"ct":"DE","tp":"PK","ts":"2024-12-09T01:37:15Z","tX":545,"tY":333,"tags":{"motorhome":"yes"}},"361478141":{"location":[53.0908808,11.8720831],"ct":"DE","tp":"CR","ts":"2025-03-27T17:14:01Z","tX":545,"tY":333,"tags":{"addr:city":"Perleberg","addr:country":"DE","addr:housenumber":"3","addr:postcode":"19348","addr:street":"Neue Mühle","caravan_site":"motorhome_stopover","caravan_site:type":"river","charge":"17 EUR","fee":"yes","name":"Neue Mühle Perleberg","phone":"+49 3876 301010","toilets:wheelchair":"yes","website":"http://www.caravanhafen.de/?cid=1208159648&name=Der+Reisemobilstellplatz","wheelchair":"yes","wheelchair:description":"Auf dem Campingplatz befinden sich behindertengerechte Duschen und WCs. Ebenso wie in dem gemütlichen Restaurant, welches mit dem Rollstuhl gut zu erreichen ist."}},"500013744":{"location":[52.9907045,11.7431486],"ct":"DE","tp":"CS","ts":"2025-02-19T12:21:40Z","tX":545,"tY":333,"tags":{"caravans":"yes","name":"Campinggelegenheit am Sportboothafen Wittenberge (Sportbootanger Nedwighafen)","phone":"+49-152-09080856 or +49-3877-75125","tents":"yes","toilets:wheelchair":"no","url":"https://www.restaurant-zum-faehrmann.de/caravanstellplatz.html","wheelchair":"limited"}},"823938876":{"location":[52.9835536,11.7743264],"ct":"DE","tp":"CS","ts":"2023-11-25T11:13:47Z","tX":545,"tY":333,"tags":{"addr:city":"Wittenberge","addr:country":"DE","addr:housenumber":"12","addr:postcode":"19322","addr:street":"Garsedower Dorfstraße","caravans":"yes","email":"info@wsv-wittenberge.de","fee":"yes","internet_access":"no","mobile":"+49 152 36397283","name":"Wassersportverein Wittenberge","operator":"Wassersportverein Wittenberge e.V.","shower":"yes","tents":"yes","toilets":"yes","website":"http://www.wsv-wittenberge.de/angebote.htm","wheelchair":"no","wikidata":"Q123534605"}},"1272685659":{"location":[52.9914923,11.7425789],"ct":"DE","tp":"CR","ts":"2024-12-08T15:11:15Z","tX":545,"tY":333,"tags":{"caravan_site":"motorhome_stopover","caravan_site:type":"restaurant","dog":"yes","fee":"yes","name":"Nedwighafen – Restaurant „Zum Fährmann“","website":"https://www.restaurant-zum-faehrmann.de/caravanstellplatz"}},"1341393945":{"location":[52.9902802,11.7583642],"ct":"DE","tp":"CR","ts":"2024-12-09T20:55:39Z","tX":545,"tY":333,"tags":{"capacity":"8","caravan_site":"motorhome_stopover","caravan_site:type":"hotel","charge":"20 EUR","fee":"yes","name":"Stellplatz am Elbe Resort Alte Ölmühle","opening_hours":"24/7","reservation":"no","sanitary_dump_station":"no","seasonal":"no","website":"https://dieprignitz.de/?cid=1553003258"}},"3658817127":{"location":[52.9652932,11.852679],"ct":"DE","tp":"CR","ts":"2015-07-20T12:22:06Z","tX":545,"tY":333,"tags":{}},"3659478871":{"location":[53.0802941,11.8616866],"ct":"DE","tp":"CR","ts":"2024-11-21T21:30:35Z","tX":545,"tY":333,"tags":{"capacity":"2","caravan_site":"motorhome_stopover","caravan_site:type":"town","dog":"yes","fee":"no","name":"Wohnmobilstellplatz Perleberg Sophienstraße","power_supply":"no","sanitary_dump_station":"no","seasonal":"no","surface":"paving_stones","water_point":"no"}},"5143385750":{"location":[52.9618179,11.9469462],"ct":"DE","tp":"SD","ts":"2024-12-09T01:37:15Z","tX":545,"tY":333,"tags":{"access":"customers"}},"5143385751":{"location":[52.962959,11.9478813],"ct":"DE","tp":"SD","ts":"2017-10-02T15:47:16Z","tX":545,"tY":333,"tags":{}},"12409667138":{"location":[52.9174164,11.8701631],"ct":"DE","tp":"CR","ts":"2025-04-05T11:52:54Z","tX":545,"tY":333,"tags":{"capacity":"7","caravan_site":"motorhome_stopover","caravan_site:type":"village","contact:email":"info@nabu-ruehstaedt.de","contact:phone":"+49 38791 806555","contact:website":"https://dieprignitz.de/?cid=1020000393","dog":"yes","fee":"no","name":"Reisemobilstellplatz Storchendorf","power_supply":"no","seasonal":"no","surface":"concrete:plates"}},"12690301497":{"location":[52.9833944,11.6735471],"ct":"DE","tp":"CR","ts":"2025-03-22T08:34:40Z","tX":545,"tY":333,"tags":{"name":"Storchen Wiese","price":"11€"}}}