{"4759042":{"location":[52.3528091,11.7828707],"ct":"DE","tp":"CS","ts":"2022-07-07T18:16:19Z","tX":545,"tY":336,"tags":{"addr:city":"Angern","addr:country":"DE","addr:housenumber":"10","addr:place":"Sandkrug","addr:postcode":"39326","caravans":"yes","contact:mobile":"+49 174 9833559","contact:website":"https://campingplatz-nord-suedsee.business.site/","landuse":"grass","name":"Campingplatz „Nord- und Südsee“","tents":"yes"}},"199859595":{"location":[52.3213072,11.8710581],"ct":"DE","tp":"CS","ts":"2023-07-21T11:24:52Z","tX":545,"tY":336,"tags":{"addr:city":"Burg","addr:country":"DE","addr:housenumber":"200","addr:place":"Naherholung Parchauer See","addr:postcode":"39288","addr:suburb":"Parchau","caravans":"yes","contact:email":"cp-parchau@t-online.de","contact:fax":"+49 3921 7294450","contact:mobile":"+49 176 62388424","contact:website":"http://www.camping-parchauersee.de","name":"Campingplatz Parchauer See","source":"http://www.campingtour.camping-am-see.de/index.php?article_id=12","tents":"yes"}},"232100694":{"location":[52.3552311,11.8432448],"ct":"DE","tp":"CS","ts":"2023-10-31T17:50:02Z","tX":545,"tY":336,"tags":{"addr:city":"Angern","addr:country":"DE","addr:housenumber":"1","addr:postcode":"39517","addr:street":"Zu den kurzen Enden","addr:suburb":"Bertingen","bbq":"yes","cabins":"yes","caravans":"yes","contact:email":"anfrage@tipi-dorf.de","contact:facebook":"https://www.facebook.com/tipidorf","contact:instagram":"tipidorf","contact:mail":"anfrage@tipi-dorf.de","contact:phone":"+49 39366 51037","contact:pinterest":"tipidorf","contact:twitter":"https://twitter.com/Tipidorf","contact:website":"https://www.tipi-dorf.de/","dog":"yes","drinking_water":"yes","internet_access":"wlan","internet_access:fee":"yes","motor_vehicle":"yes","name":"Campingplatz Bertingen","openfire":"yes","permanent_camping":"yes","power_supply":"yes","reservation":"recommended","sanitary_dump_station":"customers","shower":"yes","swimming_pool":"yes","tents":"yes","toilets":"yes","washing_machine":"yes","waste_disposal":"yes"}},"452698754":{"location":[52.3332536,11.6310216],"ct":"DE","tp":"CS","ts":"2023-09-22T16:46:19Z","tX":545,"tY":336,"tags":{"addr:city":"Colbitz","addr:country":"DE","addr:housenumber":"1","addr:postcode":"39326","addr:street":"Heidecamp","bbq":"yes","cabins":"yes","capacity":"500","caravans":"yes","contact:email":"info@heide-camp-colbitz.de","contact:facebook":"https://www.facebook.com/Heide-Camp-Colbitz-799062070424771","contact:phone":"+49 39207 80291","contact:website":"http://camping-sommer.de","dog":"yes","drinking_water":"yes","motor_vehicle":"yes","name":"Heide-Camp Colbitz","operator":"Mitteldeutsche Camping- und Gastro GmbH","permanent_camping":"yes","power_supply":"yes","sanitary_dump_station":"customers","shower":"yes","tents":"yes","toilets":"yes","waste_disposal":"yes"}},"539076077":{"location":[52.272825,11.7892139],"ct":"DE","tp":"CS","ts":"2024-08-20T12:58:03Z","tX":545,"tY":336,"tags":{"addr:city":"Burg","addr:country":"DE","addr:housenumber":"22-24","addr:postcode":"39288","addr:street":"Gossel","cabins":"no","caravans":"yes","contact:email":"info@niegripper-see.info","contact:phone":"+49 3921 5277","contact:website":"http://www.niegripper-see.info/","dog":"yes","drinking_water":"yes","fee":"yes","name":"Camping Niegripper See","operator":"burger Flaschenpost OHG","permanent_camping":"yes","power_supply":"yes","sanitary_dump_station":"customers","tents":"yes","washing_machine":"yes"}},"908528230":{"location":[52.2743065,11.7972025],"ct":"DE","tp":"CS","ts":"2023-05-06T00:02:50Z","tX":545,"tY":336,"tags":{"addr:city":"Burg","addr:country":"DE","addr:housenumber":"26","addr:postcode":"39288","addr:street":"Gossel","addr:suburb":"Niegripp","operator":"TuS Empor Burg e.V."}},"1191685341":{"location":[52.3640199,11.9440407],"ct":"DE","tp":"CS","ts":"2023-07-23T22:41:57Z","tX":545,"tY":336,"tags":{"addr:city":"Elbe-Parey","addr:country":"DE","addr:housenumber":"1","addr:postcode":"39317","addr:street":"Kiesweg","addr:suburb":"Zerben","contact:mobile":"+49 163 3723123","contact:website":"https://www.oaseindenelbauen.de/","name":"Oase in den Elbauen"}},"2317460978":{"location":[52.4257658,11.8311854],"ct":"DE","tp":"CR","ts":"2016-03-05T09:12:31Z","tX":545,"tY":336,"tags":{"capacity":"10","fee":"no","power_supply":"yes","sanitary_dump_station":"no","water_point":"yes"}},"11064014003":{"location":[52.372342,11.9433338],"ct":"DE","tp":"CS","ts":"2023-07-23T22:41:57Z","tX":545,"tY":336,"tags":{"addr:city":"Elbe-Parey","addr:country":"DE","addr:housenumber":"2","addr:postcode":"39317","addr:street":"Kiesweg","addr:suburb":"Zerben","caravans":"yes","contact:email":"fischereibetrieb-r.riedel@t-online.de","contact:mobile":"+49 1768 4526839","contact:phone":"+49 39344 40344","contact:website":"https://www.fischereibetrieb-riedel.de/","name":"Campingplatz Fischereibetrieb Riedel","operator":"Fischereibetrieb Reinhard Riedel","tents":"yes"}},"9876454759":{"location":[52.3550436,11.8191417],"ct":"DE","tp":"CR","ts":"2023-11-04T18:44:36Z","tX":545,"tY":336,"tags":{"capacity":"50","contact:email":"info@hotel-laporte.de","contact:phone":"+49 39366 979000","contact:website":"https://www.hotel-laporte.de/wohnmobile/","fee":"yes","internet_access":"wlan","internet_access:fee":"no","name":"La Porte","operator":"Hotel La Porte","power_supply":"yes","reservation":"yes","sanitary_dump_station":"yes","sanitary_dump_station:grey_water":"yes"}},"9876661757":{"location":[52.3548422,11.843105],"ct":"DE","tp":"SD","ts":"2022-07-09T15:20:33Z","tX":545,"tY":336,"tags":{}}}