{"22896870":{"location":[52.1344886,11.6499838],"ct":"DE","tp":"CR","ts":"2025-01-28T13:34:19Z","tX":545,"tY":337,"tags":{"capacity":"50","charge":"10 EUR","fee":"yes","internet_access":"no","maxstay":"3 days","name":"Petriförder","note":"Entsorgungsstation auf dem PKW Parkplatz neben Toilette","opening_hours":"\"closed on market days\"","operator":"Weiße Flotte Magdeburg","payment:coins":"yes","power_supply":"no","reservation":"no","sanitary_dump_station":"yes","surface":"cobblestone","tents":"no","toilets":"yes","website":"https://www.magdeburg-tourist.de/?object=tx,37.6876.1&ModID=9&FID=557.145.1","wheelchair":"yes"}},"27864505":{"location":[52.1000253,11.6653722],"ct":"DE","tp":"CS","ts":"2024-07-10T18:50:10Z","tX":545,"tY":337,"tags":{"addr:city":"Magdeburg","addr:country":"DE","addr:housenumber":"3","addr:postcode":"39122","addr:street":"Elbweg","area":"yes","caravans":"yes","drinking_water":"yes","name":"Campingplatz WBF Magdeburg","note":"vorwiegend Dauercamper","operator":"Wassersportverein Buckau Fermersleben","phone":"+49 391 4018860, +49 171 9428001","power_supply":"yes","shower":"yes","tents":"yes","url":"http://www.wbf-magdeburg.de"}},"28112628":{"location":[52.1560371,11.7098935],"ct":"DE","tp":"CS","ts":"2022-08-13T22:28:13Z","tX":545,"tY":337,"tags":{"addr:city":"Biederitz","addr:housenumber":"1","addr:street":"Am Strandbad","caravans":"yes","internet_access":"no","name":"Strandbad 1","operator":"Strandbad 1 e.V.","phone":"+49 391 25131689; +49 151 17051348","tents":"yes","wheelchair":"no"}},"30097260":{"location":[52.2213902,11.6580643],"ct":"DE","tp":"CS","ts":"2024-02-17T10:46:38Z","tX":545,"tY":337,"tags":{"addr:city":"Magdeburg","addr:country":"DE","addr:housenumber":"1","addr:postcode":"39126","addr:street":"Wiedersdorfer Straße","caravans":"yes","name":"Campingplatz Barleber See","phone":"+49 391 503244","tents":"yes","url":"http://www.cvbs.de","wheelchair":"yes"}},"155027268":{"location":[52.0633553,11.8018102],"ct":"DE","tp":"CS","ts":"2024-09-18T20:53:21Z","tX":545,"tY":337,"tags":{"addr:city":"Schönebeck (Elbe)","addr:country":"DE","addr:housenumber":"1","addr:postcode":"39217","addr:street":"Kleiner Waldsee","addr:suburb":"Plötzky","caravans":"yes","email":"info@ferienpark-ploetzky.de","fax":"+49-39200-76082","name":"Ferienpark Plötzky - Kleiner Waldsee","phone":"+49 39200 50155","tents":"yes","website":"https://www.ferienpark-ploetzky.de/"}},"423002353":{"location":[52.0543691,11.8407883],"ct":"DE","tp":"CS","ts":"2023-11-02T22:24:01Z","tX":545,"tY":337,"tags":{"fee":"yes","operator":"Tauchsport Center Wassermann","website":"https://www.tauchschule-magdeburg.de/tauchsport-uebernachtung.html"}},"493181649":{"location":[52.0573099,11.8196433],"ct":"DE","tp":"CS","ts":"2023-11-02T22:24:02Z","tX":545,"tY":337,"tags":{"caravans":"yes","name":"Campingplatz \"Kolumbussee\"","note":"approximated location to ~200m, please fix","phone":"+49 39200 51585","tents":"yes","website":"https://www.elbaue-sbk.de/elbaue/index.htm"}},"495996079":{"location":[52.265905,11.7547243],"ct":"DE","tp":"CS","ts":"2019-10-05T17:28:52Z","tX":545,"tY":337,"tags":{"addr:city":"Burg","addr:country":"DE","addr:housenumber":"14","addr:postcode":"39288","addr:street":"Zum Deich","addr:suburb":"Niegripp","name":"Campinggelegenheit an der Pension \"Zum Deich\"","phone":"+49 3921 994260","source":"http://www.elberadweg.de/mitte/content/abschnitt.php?lg=de&nr=3&typ=","tents":"yes"}},"585036646":{"location":[52.1250752,11.6488133],"ct":"DE","tp":"CR","ts":"2025-02-03T00:10:23Z","tX":545,"tY":337,"tags":{"capacity":"32","caravan_site":"motorhome_stopover","caravan_site:type":"city;harbour","caravans":"no","charge":"15 EUR","check_out":"13:00","description":"Great view of Magdeburg. Indvidual terrasses.","dog":"leashed","email":"marvin-hollenbach@web.de","fee":"yes","image":"File:Stellplatz am Yachthafen Magdeburg.jpg","internet_access":"wlan","internet_access:fee":"no","laundry":"yes","name":"Wohnmobilstellplatz am Yachthafen Magdeburg","operator":"Marvin Hollenbach","phone":"+49 173 8778727","power_supply":"yes","power_supply:charge":"0.80 EUR/kWh","power_supply:fee":"yes","sanitary_dump_station":"yes","sanitary_dump_station:chemical_toilet":"yes","sanitary_dump_station:grey_water":"yes","seasonal":"no","shower":"yes","shower:charge":"1 EUR","shower:fee":"yes","tents":"no","toilets":"yes","trailer":"no","water_point":"yes","water_point:charge":"0.50 EUR/100 liter","water_point:fee":"yes","website":"https://www.stellplatzamwinterhafen.de/","wikimedia_commons":"File:Magdeburg Winterhafen RV stopover.jpg"}},"1115266429":{"location":[52.0610374,11.8575414],"ct":"DE","tp":"CS","ts":"2024-05-29T13:22:47Z","tX":545,"tY":337,"tags":{"addr:city":"Gommern","addr:country":"DE","addr:housenumber":"2","addr:postcode":"39245","addr:street":"Steinbruch","addr:suburb":"Dannigkow","caravans":"yes","contact:email":"info@plattensee-dannigkow.de","contact:fax":"+49 39200 66181","contact:phone":"+49 39200 51616","contact:website":"https://plattensee-dannigkow.de/","drinking_water":"yes","name":"Freizeit- und Erholungszentrum Plattensee","sanitary_dump_station":"yes","shower":"yes","tents":"yes","toilets":"yes"}},"5591532253":{"location":[52.12527,11.6494842],"ct":"DE","tp":"SD","ts":"2023-11-19T21:34:25Z","tX":545,"tY":337,"tags":{"access":"customers","sanitary_dump_station:chemical_toilet":"yes","sanitary_dump_station:fee":"yes","sanitary_dump_station:gravity":"yes","sanitary_dump_station:grey_water":"yes","sanitary_dump_station:suction":"no","wikimedia_commons":"File:Magedeburg Winterhafen RV sanitary dump station.jpg"}},"12014556204":{"location":[52.1331161,11.6474436],"ct":"DE","tp":"SD","ts":"2024-06-27T08:50:12Z","tX":545,"tY":337,"tags":{"charge":"1 EUR","fee":"yes","payment:coins":"yes","water_point":"yes"}}}