{"134278999":{"location":[51.2176622,11.770604],"ct":"DE","tp":"PK","ts":"2025-01-11T14:41:41Z","tX":545,"tY":341,"tags":{"capacity":"60","fee":"no","motorhome":"yes","motorhome:overnight":"yes","name":"Besucherparkplatz \"Altstadt Nord\"","parking":"surface","surface":"gravel"}},"183863646":{"location":[51.318139,11.8196476],"ct":"DE","tp":"CS","ts":"2024-09-16T17:35:42Z","tX":545,"tY":341,"tags":{"caravans":"yes","drinking_water":"yes","email":"geiseltalseecamp@gmx.de","fax":"+49 34636 75978","name":"Geiseltalsee-Camp","phone":"+49 160 94470012","power_supply":"yes","sanitary_dump_station":"yes","shower":"yes","tents":"yes","toilets":"yes","website":"https://www.geiseltalsee.de/geiseltalsee/camping-badestrand/campingplaetze-preise-daten.html","wheelchair":"yes"}},"191067180":{"location":[51.2568849,11.9114479],"ct":"DE","tp":"CS","ts":"2021-07-08T18:27:22Z","tX":545,"tY":341,"tags":{"fax":"+49 34633 90590","name":"Hasse Campingplatz","phone":"+49 34633 22269","stars":"3","website":"https://www.hasse-see.de/"}},"202832717":{"location":[51.2103514,11.7694471],"ct":"DE","tp":"CR","ts":"2025-01-11T14:41:41Z","tX":545,"tY":341,"tags":{"bbq":"yes","caravan_site":"motorhome_stopover","caravan_site:type":"river;town","charge":"20 EUR","email":"Schleusenblick@gmx.de","fee":"yes","name":"Caravanstellplatz Schleusenblick","phone":"+49 034464 36 611","picnic_table":"yes","power_supply":"yes","power_supply:fee":"no","sanitary_dump_station":"yes","shower":"yes","toilets":"yes","water_point":"yes","water_point:fee":"no","website":"https://www.pension-freyburg.de/index.php?content=caravanstellplatz.html"}},"273672826":{"location":[51.2945109,11.8547246],"ct":"DE","tp":"CR","ts":"2019-06-11T02:28:48Z","tX":545,"tY":341,"tags":{"capacity":"25","fee":"yes","name":"Pension El Retiro","power_supply":"yes","website":"https://www.pension-am-geiseltalsee.com/"}},"280448876":{"location":[51.2132385,11.602844],"ct":"DE","tp":"CS","ts":"2024-10-28T11:27:46Z","tX":545,"tY":341,"tags":{"addr:city":"Bad Bibra","addr:country":"DE","addr:housenumber":"4","addr:postcode":"06647","addr:street":"Am Schwimmbad","caravans":"yes","motorhome":"yes","name":"Campingplatz Bad Bibra","operator":"Schaepmann","shower":"yes","tents":"yes","toilets":"yes","website":"https://www.campingplatz-bad-bibra.de/"}},"353701406":{"location":[51.245481,11.6549511],"ct":"DE","tp":"CS","ts":"2024-03-03T02:43:59Z","tX":545,"tY":341,"tags":{"addr:city":"Laucha an der Unstrut","addr:housenumber":"55","addr:postcode":"06636","addr:street":"Zur Unstrut","caravans":"yes","drinking_water":"yes","email":"info@outtour.de","name":"Aktivcamp & Tipidorf","phone":"+49 34462 601951","power_supply":"yes","shower":"yes","tents":"yes","toilets":"yes","website":"https://www.outtour.de/","wheelchair":"yes"}},"952057052":{"location":[51.2192167,11.7675805],"ct":"DE","tp":"CR","ts":"2021-06-07T16:00:53Z","tX":545,"tY":341,"tags":{}},"983890020":{"location":[51.2144678,11.7733659],"ct":"DE","tp":"CR","ts":"2025-01-28T14:54:15Z","tX":545,"tY":341,"tags":{"access":"yes","capacity":"12","caravan_site":"motorhome_stopover","caravan_site:type":"town","caravans":"yes","charge":"4 EUR","charge:conditional":"3 EUR @ (\"low_season\")","charge:description":"kurtaxe","dog":"yes","fee":"yes","maxstay":"1 night","name":"Caravanstellplatz Schützenplatz Freyburg (Unstrut)","operator":"Stadt","operator:type":"public","payment:cash":"yes","power_supply":"no","sanitary_dump_station":"no","surface":"grass","water_point":"no","website":"https://www.saale-unstrut-tourismus.de/planen/uebernachten/detail/caravanstellplatz-schuetzenplatz-freyburg-unstrut/"}},"1090236877":{"location":[51.2921609,11.9048412],"ct":"DE","tp":"CR","ts":"2025-01-11T12:53:31Z","tX":545,"tY":341,"tags":{"caravan_site":"motorhome_stopover","caravan_site:type":"events_veneue;museum","check_date":"2024-09-25","fee":"yes","name":"Wohnmobilstellplatz Zentralwerkstatt Pfännerhall","surface":"grass"}},"1289349898":{"location":[51.3257533,11.8082233],"ct":"DE","tp":"CR","ts":"2025-01-29T22:37:15Z","tX":545,"tY":341,"tags":{"addr:city":"Mücheln (Geiseltal)","addr:housenumber":"2a","addr:postcode":"06249","addr:street":"Werkstraße","capacity":"25","caravan_site":"motorhome_stopover","caravan_site:type":"village","charge":"25 EUR","fee":"yes","internet_access":"wlan","internet_access:fee":"no","name":"\"Zum Weinberg\" Geiseltalsee Mücheln","opening_hours":"Apr-Nov","payment:cash":"yes","phone":"+49 36451 669960","power_supply":"yes","reservation":"no","sanitary_dump_station":"yes","website":"https://wohnmobil-geiseltal.de/"}},"1355222519":{"location":[51.2974153,11.8684738],"ct":"DE","tp":"CR","ts":"2025-01-29T17:48:45Z","tX":545,"tY":341,"tags":{"addr:city":"Braunsbedra","addr:housenumber":"6-7","addr:postcode":"06242","addr:street":"An der Seebrücke","capacity":"3","caravan_site":"motorhome_stopover","caravan_site:type":"harbour","charge":"25 EUR/24 hours","fee":"yes","internet_access":"wlan","internet_access:fee":"no","maxlength":"15","mobile":"+49 152 03453677","name":"Stegblick","power_supply":"yes","power_supply:maxcurrent":"16","reservation":"required","shower":"yes","toilets":"yes","website":"https://www.stegblick.de/accommodation/stellplatz"}},"1769462336":{"location":[51.2794576,11.6495553],"ct":"DE","tp":"CS","ts":"2019-03-12T20:52:56Z","tX":545,"tY":341,"tags":{"email":"info@kanuverleih-nebra.de","name":"Kanuverleih Nebra","phone":"+49 34461 24388","toilets:wheelchair":"no","website":"https://www.kanuverleih-nebra.de/","wheelchair":"yes"}},"1774143122":{"location":[51.2084114,11.7370594],"ct":"DE","tp":"CS","ts":"2019-03-13T19:44:45Z","tX":545,"tY":341,"tags":{"name":"Freizeit- und Tourismusverein Balgstädt","phone":"+49 34464 28030","website":"https://saale-unstrut.org/schlafen-unter-freiem-himmel/"}},"2406916142":{"location":[51.3775974,11.6456495],"ct":"DE","tp":"CS","ts":"2013-08-04T13:47:13Z","tX":545,"tY":341,"tags":{}},"5885306288":{"location":[51.1932341,11.8699568],"ct":"DE","tp":"CS","ts":"2024-06-23T17:01:08Z","tX":545,"tY":341,"tags":{"addr:housenumber":"3a","addr:street":"Weststraße","name":"Camping am Wald","phone":"+49 3443 3365925","website":"https://www.campingamwald-goseck.de/"}},"8354577540":{"location":[51.2794571,11.6495523],"ct":"DE","tp":"CS","ts":"2021-01-23T11:50:37Z","tX":545,"tY":341,"tags":{"name":"Campingplatz Kanuverleih Nebra","website":"www.kanuverleih-nebra.de"}},"11955766837":{"location":[51.2974374,11.8684731],"ct":"DE","tp":"CR","ts":"2024-06-16T11:55:26Z","tX":545,"tY":341,"tags":{"addr:city":"Braunsbedra","addr:housenumber":"6-7","addr:postcode":"06242","addr:street":"An der Seebrücke","capacity":"25","charge":"25€","fee":"yes","internet_access":"wlan","mobile":"+49 152 03453677","name":"Stegblick","power_supply":"yes","reservation":"required","website":"https://www.stegblick.de/"}}}