{"2571236":{"location":[51.160169,11.8642507],"ct":"DE","tp":"CS","ts":"2024-06-07T15:33:54Z","tX":545,"tY":342,"tags":{"addr:city":"Schönburg","caravans":"yes","fee":"yes","name":"Kanuclub Schönburg e. V","power_supply":"yes","shower":"yes","tents":"yes","toilets":"yes","website":"http://www.kanuclub-schoenburg.de"}},"3749576":{"location":[50.9734217,11.6482181],"ct":"DE","tp":"CS","ts":"2017-03-03T11:31:28Z","tX":545,"tY":342,"tags":{"addr:city":"Neuengönna","addr:country":"DE","addr:housenumber":"3","addr:postcode":"07778","addr:street":"Rabeninsel","addr:suburb":"Porstendorf","caravans":"yes","name":"Camping bei Jena","phone":"+49 36427 22556","tents":"yes","website":"http://www.camping-jena.de/"}},"34955170":{"location":[51.174433,11.8061616],"ct":"DE","tp":"CS","ts":"2024-06-01T15:18:40Z","tX":545,"tY":342,"tags":{"addr:city":"Naumburg (Saale)","addr:housenumber":"6","addr:postcode":"06618","addr:street":"Blütengrund","caravans":"yes","dog":"yes","email":"info@campingplatz-naumburg.de","fax":"+49 3445 20200571","fee":"yes","internet_access":"wlan","internet_access:fee":"no","internet_access:ssid":"freefiiBlütengrund","name":"Blütengrund","operator":"Campingplatz Blütengrund GmbH","phone":"+49 3445 20261144","tents":"yes","website":"https://www.campingplatz-naumburg.de/"}},"175414713":{"location":[51.1485336,11.814821],"ct":"DE","tp":"CR","ts":"2024-03-24T16:30:22Z","tX":545,"tY":342,"tags":{"addr:city":"Naumburg (Saale)","addr:postcode":"06618","addr:street":"Luisenstraße","capacity":"15","charge":"14.80 EUR","fee":"yes","internet_access":"no","maxstay":"3 nights","name":"Vogelwiese","payment:cash":"yes","power_supply":"yes","reservation":"no","sanitary_dump_station":"yes"}},"193837703":{"location":[51.1217897,11.7172966],"ct":"DE","tp":"CS","ts":"2024-05-10T16:03:25Z","tX":545,"tY":342,"tags":{"addr:city":"Naumburg (Saale)","addr:housenumber":"14","addr:postcode":"06628","addr:street":"Kukulauner Straße","addr:suburb":"Bad Kösen","caravans":"yes","drinking_water":"yes","email":"campkoesen@aol.com","fee":"yes","fixme":"Why multipolygon? Why not just an area?","name":"Camping an der Rudelsburg","operator":"H. J. Leps","phone":"+49 34463 28705","shower":"yes","tents":"yes","toilets":"yes","website":"https://www.campingbadkoesen.de/","wheelchair":"yes"}},"222278287":{"location":[51.0978839,11.6313647],"ct":"DE","tp":"CR","ts":"2023-01-30T19:00:58Z","tX":545,"tY":342,"tags":{"addr:city":"Bad Sulza","addr:housenumber":"2","addr:postcode":"99518","addr:street":"Am Gradierwerk","capacity":"16","charge":"18,50€","contact:email":"info@bad-sulza.de","contact:phone":"+49 36461 82110","fee":"yes","internet_access":"wlan","name":"Am Gradierwerk","operator":"Kurgesellschaft Heilbad Bad Sulza mbH","payment:cash":"no","payment:debit_cards":"yes","payment:visa":"yes","power_supply":"yes","sanitary_dump_station":"yes","shower":"no","surface":"compacted","tents":"no","toilets":"no","traffic_sign":"DE:314,1048-17","water_point":"yes","website":"https://www.bad-sulza.de/de/node/638"}},"232643080":{"location":[51.1138364,11.696028],"ct":"DE","tp":"CR","ts":"2020-03-20T08:55:48Z","tX":545,"tY":342,"tags":{"capacity":"20","caravans":"yes","charge":"10 €","fee":"yes","internet_access":"no","name":"Stellplatz Stendorf","phone":"+49 34463 28177","power_supply":"yes","sanitary_dump_station":"yes","shower":"yes","toilets":"yes","website":"http://www.wohnmobil-stellplatz-saale-unstrut.de/"}},"510293673":{"location":[50.9660031,11.9119287],"ct":"DE","tp":"CR","ts":"2022-11-06T16:43:50Z","tX":545,"tY":342,"tags":{}},"607315189":{"location":[51.0429325,11.6790586],"ct":"DE","tp":"CS","ts":"2021-06-28T00:36:04Z","tX":545,"tY":342,"tags":{"addr:city":"Dornburg-Camburg","addr:housenumber":"11","addr:postcode":"07774","addr:street":"Döbritschen","charge":"9,50 EUR","email":"sucur@t-online.de","fee":"yes","name":"Saalerastplatz","phone":"+49 36421 24736"}},"1109006072":{"location":[51.1621602,11.8229089],"ct":"DE","tp":"CR","ts":"2024-08-27T21:11:03Z","tX":545,"tY":342,"tags":{"access":"yes","addr:city":"Naumburg (Saale)","addr:country":"DE","addr:housenumber":"60","addr:postcode":"06618","addr:street":"Hallesche Straße","capacity":"8","charge":"10€/24h + Kurtaxe","drinking_water":"no","fee":"no","internet_access":"no","name":"Naumburg \"Hallesche Straße\"","opening_hours":"24/7","payment:cash":"yes","power_supply":"yes","reservation":"no","sanitary_dump_station":"no","supervised":"no","surface":"asphalt","toilets":"no","website":"https://www.naumburg.de/de/camping-caravan-naumburg/naumburg-parkplatz-hallesche-strasse.html","wheelchair":"yes"}},"9899494317":{"location":[50.9693631,11.8899957],"ct":"DE","tp":"CR","ts":"2022-07-21T17:27:24Z","tX":545,"tY":342,"tags":{"opening_hours":"24/7"}},"11953556890":{"location":[51.096988,11.6295784],"ct":"DE","tp":"CR","ts":"2024-06-03T10:23:15Z","tX":545,"tY":342,"tags":{"addr:city":"Bad Sulza","addr:housenumber":"1","addr:postcode":"99518","addr:street":"Am Gradierwerk","charge":"20€","fee":"yes","name":"Pension Weichelt","operator":"Pension Weichelt","phone":"+49 36461 20208","power_supply":"yes"}},"12291831574":{"location":[51.1332949,11.7122869],"ct":"DE","tp":"CR","ts":"2024-10-27T13:26:07Z","tX":545,"tY":342,"tags":{"power_supply":"no","sanitary_dump_station":"no"}},"6724467777":{"location":[51.0983052,11.6317904],"ct":"DE","tp":"SD","ts":"2020-03-20T09:31:09Z","tX":545,"tY":342,"tags":{"access":"yes","fee":"no"}},"11687416079":{"location":[51.1752499,11.8060332],"ct":"DE","tp":"SD","ts":"2024-09-04T10:53:42Z","tX":545,"tY":342,"tags":{"access":"customers","fee":"no"}}}