{"31526942":{"location":[50.9367054,11.607743],"ct":"DE","tp":"CS","ts":"2024-05-02T08:54:48Z","tX":545,"tY":343,"tags":{"addr:city":"Jena","addr:country":"DE","addr:housenumber":"3","addr:postcode":"07749","addr:street":"Am Erlkönig","capacity:caravans":"40","capacity:tents":"20","caravans":"yes","contact:email":"post@jenacamping.de","contact:phone":"+49 3641 666688","contact:website":"http://www.jenacamping.de","drinking_water":"yes","internet_access":"wlan","internet_access:fee":"no","name":"Unter dem Jenzig","power_supply":"yes","sanitary_dump_station":"yes","shower":"yes","smoking":"separated","source":"website","tents":"yes","toilets":"yes","website":"http://www.jenacamping.de","wheelchair":"no"}},"112187994":{"location":[50.7556858,11.7563794],"ct":"DE","tp":"CR","ts":"2020-05-23T22:51:08Z","tX":545,"tY":343,"tags":{"capacity":"25","contact:phone":"+49 36481 23944","email":"info@heinrichsruhe.de","fee":"no","name":"Reisemobilstellplatz Heinrichsruhe","power_supply":"yes","sanitary_dump_station":"yes","water_point":"yes","website":"https://www.heinrichsruhe.de/"}},"136547067":{"location":[50.9131813,11.7168477],"ct":"DE","tp":"CS","ts":"2024-09-08T20:25:21Z","tX":545,"tY":343,"tags":{"caravans":"yes","tents":"yes"}},"193660799":{"location":[50.911547,11.8722516],"ct":"DE","tp":"CR","ts":"2019-03-25T22:24:18Z","tX":545,"tY":343,"tags":{"addr:city":"Bad Klosterlausnitz","addr:housenumber":"16","addr:postcode":"07639","addr:street":"Köstritzer Straße","fee":"yes","internet_access":"no","name":"KRISTALL Sauna-Wellnesspark","power_supply":"yes","sanitary_dump_station":"yes"}},"199356748":{"location":[50.8651099,11.7731055],"ct":"DE","tp":"CR","ts":"2022-10-13T18:57:57Z","tX":545,"tY":343,"tags":{}},"11958575692":{"location":[50.8951451,11.8611782],"ct":"DE","tp":"CR","ts":"2024-06-05T14:27:53Z","tX":545,"tY":343,"tags":{"addr:city":"Hermsdorf","addr:postcode":"07629","addr:street":"Am Bad","fee":"no","internet_access":"no","name":"SP am Freibad","power_supply":"no","sanitary_dump_station":"no"}},"6565101518":{"location":[50.9366662,11.6075411],"ct":"DE","tp":"SD","ts":"2019-06-22T20:47:25Z","tX":545,"tY":343,"tags":{"sanitary_dump_station:gravity":"yes","sanitary_dump_station:grey_water":"yes","sanitary_dump_station:round_drain":"yes"}}}