{"47126288":{"location":[50.6067441,11.6145505],"ct":"DE","tp":"CS","ts":"2023-11-02T16:50:34Z","tX":545,"tY":344,"tags":{"addr:city":"Paska","addr:country":"DE","addr:housenumber":"34","addr:postcode":"07381","addr:street":"Ortsstraße","capacity:caravans":"210","caravans":"yes","description":"viele Dauercamper und auch kleinere Bungalows","email":"info@campingplatz-linkenmuehle.de","name":"Campingplatz Linkenmühle","phone":"+49 36483 22548","power_supply":"yes","source":"website","tents":"yes","website":"https://www.campingplatz-linkenmuehle.de/"}},"61603282":{"location":[50.6112274,11.6563584],"ct":"DE","tp":"CS","ts":"2024-07-07T14:02:54Z","tX":545,"tY":344,"tags":{"addr:city":"Ziegenrück","addr:country":"DE","addr:housenumber":"9","addr:postcode":"07924","addr:street":"Plothental","capacity:caravans":"12","capacity:tents":"50","caravans":"yes","drinking_water":"yes","name":"Naturcamping Plothental","operator":"Stefan Windhausen","phone":"+49 176-81027290","power_supply":"yes","sanitary_dump_station":"no","shower":"yes","tents":"yes","toilets":"yes","website":"https://naturcamping-plothental.de/"}},"61882974":{"location":[50.6519942,11.7743594],"ct":"DE","tp":"CS","ts":"2023-11-11T05:04:11Z","tX":545,"tY":344,"tags":{"addr:city":"Neustadt an der Orla","addr:country":"DE","addr:postcode":"07806","addr:suburb":"Dreba","caravans":"yes","name":"Camping Plothener Teiche","operator":"Verein für Erholung der Naturfreunde Plothener Teiche e.V.","phone":"+49 36484 62860","tents":"yes","website":"https://www.camping-plothener-teiche.de/"}},"1136967603":{"location":[50.5580583,11.7205238],"ct":"DE","tp":"CR","ts":"2025-01-12T00:41:30Z","tX":545,"tY":344,"tags":{"caravan_site":"motorhome_stopover","caravan_site:type":"observation_tower;river","caravans":"yes","charge":"8 EUR","drinking_water":"yes","fee":"yes","name":"Wohnmobilstellplatz am Saaleturm Burgk","power_supply":"yes","power_supply:charge":"0.50 EUR/KWh","sanitary_dump_station":"no","tents":"no","water_point":"no","website":"https://www.vogtland-tourismus.de/de/lodging/wohnmobilstellplatz/wohnmobilstellplatz-am-saaleturm-burgk/54969280/#caml=8hk,1xseqj,8d087q,0,0"}},"1213302555":{"location":[50.5544407,11.7352228],"ct":"DE","tp":"CR","ts":"2025-01-11T17:15:16Z","tX":545,"tY":344,"tags":{"capacity":"10","caravan_site":"motorhome_stopover","caravan_site:type":"restaurant","caravans":"no","charge":"13 EUR","contact:website":"https://tolas-zollhaus.eatbu.com/?lang=de","dog":"yes","fee":"yes","name":"Tola‘s Zollhaus Stellplatz","operator":"Tola's Zollhaus","power_supply":"yes","tents":"no","website":"https://tolas-zollhaus.eatbu.com/"}},"1280853386":{"location":[50.5817457,11.7001518],"ct":"DE","tp":"CS","ts":"2015-12-23T19:56:30Z","tX":545,"tY":344,"tags":{"name":"Ferienland Crispendorf","website":"http://www.ferienlandcrispendorf.de/","wheelchair":"limited"}},"1311310761":{"location":[50.6032369,11.6077295],"ct":"DE","tp":"CS","ts":"2025-01-01T23:01:57Z","tX":545,"tY":344,"tags":{"landuse":"grass","name":"WiesenBett Hohenwarter Seehof","operator":"BV Het Betere BoerenBed","website":"https://www.wiesenbett.de/hohenwarter-seehof-hohenwarte-stausee-thueringen"}},"1314195032":{"location":[50.6360003,11.7051326],"ct":"DE","tp":"CR","ts":"2025-02-02T13:04:01Z","tX":545,"tY":344,"tags":{"caravan_site":"motorhome_stopover","caravan_site:type":"countryside","caravans":"yes","charge":"18 EUR","fee":"yes","name":"Zum Weitblick","power_supply":"yes","seasonal":"yes","surface":"grass","toilets":"yes","water_point":"yes"}},"1318989718":{"location":[50.7006908,11.6487775],"ct":"DE","tp":"CR","ts":"2025-01-11T17:38:05Z","tX":545,"tY":344,"tags":{"capacity":"10","caravan_site":"motorhome_stopover","caravan_site:type":"car_repair","fee":"no","name":"Wohnmobilstellplatz Freizeitservice Heintz - Nimritz","phone":"+49 3647 428742","power_supply":"yes","sanitary_dump_station":"yes","water_point":"yes"}},"4037025008":{"location":[50.6847576,11.7833424],"ct":"DE","tp":"CR","ts":"2023-11-11T05:04:05Z","tX":545,"tY":344,"tags":{"capacity":"6","contact:email":"info@knapp-muehle.de","contact:phone":"+49 36481 84153","fee":"yes","name":"Knapp Mühle","operator":"Ina Knapp","power_supply":"yes","sanitary_dump_station":"yes","water_point":"yes","website":"https://www.knapp-muehle.de/stellplatz-fuer-wohnmobile"}},"11394258070":{"location":[50.5160394,11.7307042],"ct":"DE","tp":"SD","ts":"2023-12-04T15:10:49Z","tX":545,"tY":344,"tags":{}}}