{"17168193":{"location":[50.36279,11.6316777],"ct":"DE","tp":"CR","ts":"2024-02-07T11:45:19Z","tX":545,"tY":345,"tags":{"capacity":"44","check_date:website":"2024-02-07","contact:phone":"+49 9288 7470","fee":"yes","internet_access":"wlan","name":"An der Therme","object:city":"Bad Steben","object:housenumber":"18","object:postcode":"95138","object:street":"Steinbacher Straße","operator":"Staatsbad Bad Steben GmbH","power_supply":"yes","reservation":"yes","sanitary_dump_station":"yes","supervised":"no","toilets":"yes","water_point":"yes","website":"https://www.therme-bad-steben.de/wohnmobilstellplatz","wheelchair":"yes"}},"26737484":{"location":[50.4498663,11.6434585],"ct":"DE","tp":"CR","ts":"2025-01-11T02:05:01Z","tX":545,"tY":345,"tags":{"addr:city":"Bad Lobenstein","addr:housenumber":"8","addr:postcode":"07356","addr:street":"Parkstraße","caravan_site":"motorhome_stopover","caravan_site:type":"swimming_pool","charge":"9 EUR","fee":"yes","internet_access":"wlan","name":"Wohnmobilstellplatz Ardesia-Therme","operator":"Ardesia Therme","power_supply":"yes","power_supply:charge":"0.50 EUR/KWh","power_supply:fee":"yes","sanitary_dump_station":"yes","water_point":"yes","website":"https://www.ardesia-therme.de/wohnmobilstellplatz.html","wheelchair":"yes"}},"60966239":{"location":[50.5128138,11.7281699],"ct":"DE","tp":"CS","ts":"2023-12-04T15:17:13Z","tX":545,"tY":345,"tags":{"access":"yes","addr:city":"Saalburg-Ebersdorf","addr:country":"DE","addr:housenumber":"1","addr:postcode":"07929","addr:street":"Kloster","alt_name":"Campingplatz Saalburg-Kloster","caravans":"350","contact:email":"cpkloster@saalburg-ebersdorf.de","contact:mobile":"+49 176 24456480","contact:phone":"+49 36647 22441","contact:website":"https://www.campingplatz-kloster.de/","drinking_water":"yes","fee":"yes","internet_access":"wlan","internet_access:fee":"yes","name":"Campingplatz Kloster","operator":"Saalburg Beach GmbH & Co. KG","payment:cash":"yes","payment:coins":"yes","power_supply":"yes","sanitary_dump_station":"yes","shower":"yes","source":"website;local knowledge","tents":"yes","toilets":"yes"}},"60966349":{"location":[50.4943023,11.7304637],"ct":"DE","tp":"CS","ts":"2024-12-10T12:54:34Z","tX":545,"tY":345,"tags":{"addr:city":"Saalburg-Ebersdorf","addr:country":"DE","addr:housenumber":"1","addr:postcode":"07929","addr:street":"Am Strandbad","alt_name":"Campingplatz Saalburg Am Strandbad","caravans":"220","contact:email":"cpbad@saalburg-ebersdorf.de","contact:mobile":"+49 176 24456481","contact:phone":"+49 36647 22457","contact:website":"https://www.saalburg-ebersdorf.de/touristinformation/camping#Bad","dog":"yes","name":"Campingplatz Saalburg - Bad","operator":"Stadt Saalburg","power_supply":"yes","tents":"yes"}},"61582226":{"location":[50.374069,11.7219384],"ct":"DE","tp":"CS","ts":"2024-07-28T14:12:30Z","tX":545,"tY":345,"tags":{"addr:city":"Issigau","addr:country":"DE","addr:housenumber":"3","addr:postcode":"95188","addr:street":"Altes Schloss","caravans":"yes","dryer":"yes","email":"info@schloss-issigau.de","fax":"+49 9293 933385","fixme":"shape and location","name":"Camping Schloss Issigau","phone":"+49 9293 7173","source":"website","tents":"yes","washing_machine":"yes","website":"https://schloss-issigau.de/"}},"61582624":{"location":[50.3734738,11.6680193],"ct":"DE","tp":"CS","ts":"2024-05-07T09:09:45Z","tX":545,"tY":345,"tags":{"addr:city":"Lichtenberg","addr:housenumber":"161a","addr:postcode":"95192","addr:street":"Seestraße","barrier":"fence","caravans":"yes","contact:email":"info@hoellental-camping.de","contact:website":"https://www.hoellental-camping.de/","dog":"yes","dryer":"yes","name":"Höllental Camping","operator":"Höllental Camping GmbH & Co. KG","phone":"+49 9288 6870","power_supply":"yes","source":"extrapolation","tents":"yes","washing_machine":"yes"}},"61583857":{"location":[50.3761363,11.8382223],"ct":"DE","tp":"CS","ts":"2024-10-17T08:13:06Z","tX":545,"tY":345,"tags":{"addr:city":"Köditz","addr:country":"DE","addr:housenumber":"1","addr:postcode":"95189","addr:street":"Am Auensee","addr:suburb":"Joditz","caravans":"yes","contact:email":"info@auensee-camping.de","contact:fax":"+49 9295 9269000","contact:phone":"+49 9295 381","contact:website":"http://www.auensee-camping.de/","dog":"yes","name":"Campingplatz Auensee","operator":"Manuela Hoffmann","power_supply":"yes","source":"Bing","tents":"yes"}},"502785055":{"location":[50.387659,11.7811949],"ct":"DE","tp":"CR","ts":"2017-06-22T22:39:12Z","tX":545,"tY":345,"tags":{"capacity":"20","fee":"yes","name":"Gasthaus Gebhardt Stellplatz"}},"645354026":{"location":[50.419897,11.6873758],"ct":"DE","tp":"CS","ts":"2024-09-09T06:53:22Z","tX":545,"tY":345,"tags":{"addr:city":"Rosenthal am Rennsteig","addr:housenumber":"2","addr:postcode":"07366","addr:street":"Kirchberg","caravans":"yes","contact:email":"info@campingplatz-harra.de","contact:mobile":"+49 171 6112134","contact:website":"http://www.campingplatz-harra.de","drinking_water":"yes","internet_access":"no","name":"Campingplatz am Trepplesfelsen - Harra","operator":"Toralf Grüner","power_supply":"yes","sanitary_dump_station":"yes","shower":"yes","stars":"4","tents":"yes","toilets":"yes"}},"655761229":{"location":[50.2940701,11.799772],"ct":"DE","tp":"CR","ts":"2024-12-29T11:51:10Z","tX":545,"tY":345,"tags":{"capacity":"4","caravan_site":"motorhome_stopover","caravan_site:type":"village","contact:phone":"+49 9292 415","fee":"no","internet_access":"yes","name":"Leupoldsgrün Zukunft Am Anger","opening_hours":"24/7","operator":"Gemeinde Leupoldsgrün","power_supply":"yes","power_supply:fee":"yes","sanitary_dump_station":"yes","seasonal":"no","socket:cee_blue":"yes","water_point":"yes","website":"https://www.leupoldsgruen.de/tourismus/wohnmobilstellplaetze","wheelchair":"yes"}},"1317586311":{"location":[50.4186591,11.6802498],"ct":"DE","tp":"CR","ts":"2022-04-11T11:16:16Z","tX":545,"tY":345,"tags":{"addr:city":"Rosenthal am Rennsteig","addr:housenumber":"8","addr:postcode":"07366","addr:street":"Schulmeisterstraße","addr:suburb":"Harra","capacity":"6","contact:mobile":"+49 160 94593567","contact:phone":"+49 36642 143974","fee":"yes","name":"Zum Alten Schulmeister","power_supply":"yes","water_point":"yes","website":"https://www.zum-alten-schulmeister.de"}},"1674958005":{"location":[50.3751775,11.8344827],"ct":"DE","tp":"CS","ts":"2020-11-03T17:24:34Z","tX":545,"tY":345,"tags":{"access":"private","fee":"yes","operator":"Kreisjugendring Hof"}},"1781744837":{"location":[50.5092166,11.7212712],"ct":"DE","tp":"CR","ts":"2025-01-07T22:02:28Z","tX":545,"tY":345,"tags":{"addr:city":"Saalburg-Ebersdorf","addr:housenumber":"2","addr:postcode":"07929","addr:street":"Wetteraweg","contact:mobile":"+49 1523 8443984","contact:website":"https://www.saalburg-beach.de","internet_access":"wlan","internet_access:fee":"no","name":"Saalburg Beach","opening_hours:reception":"10:00-19:00","operator":"Saalburg Beach GmbH & Co. KG","power_supply":"yes","sanitary_dump_station":"yes","shower":"yes","toilets":"yes","washing_machine":"yes","water_point":"yes"}},"3403280504":{"location":[50.3626192,11.6320291],"ct":"DE","tp":"SD","ts":"2024-02-07T11:08:36Z","tX":545,"tY":345,"tags":{"description":"Entsorgung für Chemietoiletten und Grauwasser (Bodeneinlaufrinne)","sanitary_dump_station:chemical_toilet":"yes","sanitary_dump_station:gravity":"yes","sanitary_dump_station:grey_water":"yes"}},"4079786568":{"location":[50.3271792,11.8934646],"ct":"DE","tp":"CR","ts":"2025-01-10T00:20:37Z","tX":545,"tY":345,"tags":{"capacity":"4","caravan_site":"motorhome_stopover","caravan_site:type":"car_wash","caravans":"yes","charge":"5 EUR","fee":"yes","name":"Wohnmobilstellplatz am Cleanpark","power_supply":"yes","power_supply:charge":"4 EUR/day","power_supply:fee":"yes","sanitary_dump_station":"yes","seasonal":"no","website":"https://www.frankenwald-tourismus.de/detail/id=60895ad7776bb671d29dda4f"}},"5030134256":{"location":[50.330638,11.7113649],"ct":"DE","tp":"CR","ts":"2019-03-21T10:38:22Z","tX":545,"tY":345,"tags":{"capacity":"4","contact:email":"ferienregion@selbitztal.de","contact:phone":"+49 9282 6829","fee":"no","name":"Bahnhof Naila","operator":"Stadt Naila","power_supply":"no","sanitary_dump_station":"yes","water_point":"yes","website":"https://www.naila.de/freizeit-gaeste/gastgeber/wohnmobil-stellplatz.html"}},"5030134257":{"location":[50.3293213,11.7123012],"ct":"DE","tp":"SD","ts":"2018-01-21T14:20:23Z","tX":545,"tY":345,"tags":{"fee":"yes","sanitary_dump_station:chemical_toilet":"yes","sanitary_dump_station:grey_water":"yes"}},"6143740215":{"location":[50.2940153,11.7997079],"ct":"DE","tp":"SD","ts":"2024-04-02T21:23:16Z","tX":545,"tY":345,"tags":{"access":"yes"}}}