{"2704243":{"location":[49.861277,11.7371758],"ct":"DE","tp":"CS","ts":"2022-11-25T16:14:11Z","tX":545,"tY":347,"tags":{"addr:city":"Speichersdorf","addr:country":"DE","addr:postcode":"95469","addr:street":"Herrenwald","caravans":"yes","disused:website":"http://www.herrenwald-speichersdorf.de","email":"info@herrenwald-speichersdorf.de","fixme":"Gibt es diesen Campingplatz überhaupt noch?","name":"Campingplatz Herrenwald","phone":"+49 9275 218","tents":"yes"}},"27660785":{"location":[49.885513,11.6409053],"ct":"DE","tp":"CR","ts":"2021-08-05T08:14:52Z","tX":545,"tY":347,"tags":{"landuse":"construction","note":"In Planung"}},"29486641":{"location":[49.9420219,11.6349131],"ct":"DE","tp":"CR","ts":"2024-10-08T06:39:36Z","tX":545,"tY":347,"tags":{"access":"customers","fee":"yes","internet_access":"yes","name":"Wohnmobilstellplatz an der Lohengrintherme","parking":"surface","power_supply":"15","sanitary_dump_station":"yes"}},"61581745":{"location":[50.0176946,11.8545023],"ct":"DE","tp":"CS","ts":"2023-11-09T00:28:32Z","tX":545,"tY":347,"tags":{"addr:city":"Fichtelberg","addr:country":"DE","addr:housenumber":"30","addr:postcode":"95686","addr:street":"Fichtelseestraße","caravans":"yes","description":"Bäcker Service morgens um 08:15 am Eingang","drinking_water":"yes","email":"info@camping-fichtelsee.de","fax":"+49 9272 909045","name":"Camping Fichtelsee","phone":"+49 9272 801","power_supply":"yes","shower":"yes","source":"bing","tents":"yes","toilets":"yes","website":"https://www.camping-fichtelsee.de/","wheelchair":"yes"}},"83632306":{"location":[50.0125186,11.6822563],"ct":"DE","tp":"CR","ts":"2024-05-16T07:55:42Z","tX":545,"tY":347,"tags":{"contact:email":"poststelle@goldkronach.bayern.de","contact:phone":"+49 9273 984-0","fee":"no","name":"Wohnmobilstellplatz Goldkronach","operator":"Stadt Goldkronach","payment:notes":"Es wird um eine freiwillige Abgabe von 5€ gebeten","power_supply":"yes","sanitary_dump_station":"yes","water_point":"yes","website":"https://www.goldkronach.de/verzeichnis/visitenkarte.php?mandat=220719"}},"140642322":{"location":[49.9744548,11.8519689],"ct":"DE","tp":"CS","ts":"2024-05-25T18:09:29Z","tX":545,"tY":347,"tags":{"addr:city":"Mehlmeisel","addr:country":"DE","addr:housenumber":"14a","addr:postcode":"95694","addr:street":"Schafgasse","caravans":"yes","dog":"yes","drinking_water":"yes","email":"info@campingplatz-holderbach.de","fax":"+49 9272 479","mobile":"+49 170 5409881","name":"Campingplatz Holderbach","permanent_camping":"only","phone":"+49 9272 387","power_supply":"yes","shower":"yes","tents":"yes","toilets":"yes","website":"https://campingplatz-holderbach.de/"}},"146290917":{"location":[49.8935747,11.8548363],"ct":"DE","tp":"CS","ts":"2021-05-28T03:38:16Z","tX":545,"tY":347,"tags":{"addr:city":"Immenreuth","addr:country":"DE","addr:housenumber":"21c","addr:postcode":"95505","addr:street":"Gabellohe","barrier":"fence","caravans":"yes","email":"info@campingplatz-kemnather-land.de","fax":"+49 9642 9216-20","name":"Camping Kemnather Land","phone":"+49 9642 9216-0","power_supply":"yes","tents":"yes","website":"http://www.camping-kemnather-land.de/"}},"156514846":{"location":[49.8902686,11.827291],"ct":"DE","tp":"CR","ts":"2022-12-22T08:15:52Z","tX":545,"tY":347,"tags":{"capacity":"10","fee":"yes","name":"Wohnmobilstellplatz am ASV Sportplatz","power_supply":"yes"}},"332897453":{"location":[49.8861481,11.8264839],"ct":"DE","tp":"CS","ts":"2019-08-25T10:10:56Z","tX":545,"tY":347,"tags":{"caravans":"no","group_only":"yes","name":"Jugendzeltplatz Haidenaab","operator":"Kreisjugendring Bayreuth","tents":"yes","website":"https://kjr-bayreuth.de/"}},"334469107":{"location":[49.8719631,11.887573],"ct":"DE","tp":"CR","ts":"2024-02-19T09:24:53Z","tX":545,"tY":347,"tags":{"addr:city":"Kemnath","addr:housenumber":"10","addr:postcode":"95478","addr:street":"Am Eisweiher","capacity":"5","fee":"no","name":"Am Eisweiher","power_supply":"yes","sanitary_dump_station":"yes","seasonal":"no","toilets":"yes","water_point":"yes","water_point:charge":"1 EUR","wikimedia_commons":"File:Kemnath Wohnmobil.JPG"}},"436095960":{"location":[49.8950469,11.8589304],"ct":"DE","tp":"CS","ts":"2021-05-28T03:38:16Z","tX":545,"tY":347,"tags":{"addr:city":"Immenreuth","addr:country":"DE","addr:housenumber":"21a","addr:postcode":"95505","addr:street":"Gabellohe","capacity":"400","caravans":"no","group_only":"yes","internet_access":"wlan","name":"Jugendzeltplatz Immenreuth","operator":"Gemeinnütziger Zeltlagerplatz- und Jugendheimverein e.V.","sanitary_dump_station":"no","tents":"yes","website":"https://www.gruppenunterkuenfte.de/Jugendzeltplatz-Immenreuth__i6644.html","wheelchair":"yes"}},"480629894":{"location":[50.0414875,11.6660911],"ct":"DE","tp":"CR","ts":"2023-04-24T11:40:19Z","tX":545,"tY":347,"tags":{"capacity":"4","fee":"yes","internet_access":"no","operator":"Stadt Bad Berneck","power_supply":"yes","sanitary_dump_station":"yes","water_point":"yes","website":"https://www.tz-fichtelgebirge.de/de/gastgeber/detail/5bab30b1975a99da6a43a38b","wheelchair":"yes"}},"1261926708":{"location":[49.9840389,11.6426533],"ct":"DE","tp":"CS","ts":"2011-04-27T09:37:11Z","tX":545,"tY":347,"tags":{}},"1464782325":{"location":[49.9113505,11.6030475],"ct":"DE","tp":"CS","ts":"2020-01-06T14:00:02Z","tX":545,"tY":347,"tags":{"access":"private","name":"Naturistenbund Bayreuth e.V. (FKK-Gelände)","nudism":"yes","operator":"Naturistenbund Bayreuth e.V."}},"1691543261":{"location":[49.8949417,11.8573645],"ct":"DE","tp":"CS","ts":"2021-05-28T03:38:16Z","tX":545,"tY":347,"tags":{}},"3203082475":{"location":[50.053691,11.7932495],"ct":"DE","tp":"CR","ts":"2018-08-01T17:11:11Z","tX":545,"tY":347,"tags":{"capacity":"6","contact:phone":"+49 9276 1292","fee":"yes","name":"Wohnmobilstellplatz Bischofsgrün","power_supply":"yes","sanitary_dump_station":"yes","water_point":"yes","website":"https://www.bischofsgruen.de/Wohnmobilstellplatz.camping_fichtelgebirge.0.html","wheelchair":"yes"}},"8633402365":{"location":[50.0415142,11.6660853],"ct":"DE","tp":"CR","ts":"2021-04-15T20:59:00Z","tX":545,"tY":347,"tags":{"name":"Wohnmobilstellplatz Bad Berneck"}},"11091065564":{"location":[49.9700715,11.8498327],"ct":"DE","tp":"CR","ts":"2024-05-25T08:19:39Z","tX":545,"tY":347,"tags":{"contact:email":"info@dasvillage.de","drinking_water":"no","fee":"yes","motorcar":"yes","name":"Privater Wohnmobilstellplätze","power_supply":"no","sanitary_dump_station":"no","toilets":"no","wheelchair":"limited"}},"11091479872":{"location":[50.0167049,11.8556579],"ct":"DE","tp":"CR","ts":"2023-08-06T20:39:41Z","tX":545,"tY":347,"tags":{"description":"Kurzzeit Übernachtungsplatz vor dem Campingplatz","motor_vehicle":"yes","name":"Übernachtungsplatz","tents":"yes","toilets":"no","wheelchair":"no"}},"11091443703":{"location":[50.0164964,11.8551271],"ct":"DE","tp":"SD","ts":"2023-08-05T13:34:37Z","tX":545,"tY":347,"tags":{"access":"customers"}}}