{"89015062":{"location":[49.078099,11.6222116],"ct":"DE","tp":"CS","ts":"2023-11-02T17:17:40Z","tX":545,"tY":351,"tags":{"addr:city":"Breitenbrunn","addr:country":"DE","addr:housenumber":"4","addr:postcode":"92363","addr:street":"Badstraße","caravans":"yes","dog":"yes","dryer":"yes","email":"info@juracamping-breitenbrunn.de","fax":"+49 33222 349291","name":"JuraCamping Breitenbrunn","phone":"+49 9495 337","power_supply":"yes","tents":"yes","washing_machine":"yes","website":"https://www.juracamping-breitenbrunn.de/"}},"119024151":{"location":[49.0576704,11.9040407],"ct":"DE","tp":"CS","ts":"2019-03-05T09:35:39Z","tX":545,"tY":351,"tags":{"addr:city":"Laaber","addr:country":"DE","addr:housenumber":"1","addr:postcode":"93164","addr:street":"Hartlmühle","caravans":"yes","email":"info@hartlmuehle.de","fax":"+49 9498 691","name":"Campingplatz Hartlmühle","phone":"+49 9498 533","power_supply":"yes","tents":"yes","website":"https://www.hartlmuehle.de/"}},"232960521":{"location":[48.9408993,11.7555662],"ct":"DE","tp":"CS","ts":"2022-04-06T06:51:46Z","tX":545,"tY":351,"tags":{"addr:city":"Riedenburg","addr:country":"DE","addr:housenumber":"1","addr:postcode":"93339","addr:street":"Pillhausen","caravans":"yes","name":"Campingplatz Kastlhof","phone":"+49 9447 698","source":"Bing","tents":"yes","website":"https://kastlhof.de/index.php/gasthof-unterkunft/camping"}},"268244410":{"location":[49.1496396,11.6198132],"ct":"DE","tp":"CS","ts":"2017-07-02T16:27:46Z","tX":545,"tY":351,"tags":{}},"293568302":{"location":[49.0926434,11.6385044],"ct":"DE","tp":"CS","ts":"2021-05-10T06:20:27Z","tX":545,"tY":351,"tags":{"addr:city":"Breitenbrunn","addr:housenumber":"26","addr:postcode":"92363","addr:street":"Buch","caravans":"no","email":"info@bucher-berg.de","fax":"+49 911 4304234","fee":"yes","group_only":"yes","name":"Zeltplatz Bucher Berg","operator":"VCP Land Bayern","phone":"+49 911 4304264","scout":"yes","tents":"yes","website":"https://www.bucher-berg.de"}},"294482993":{"location":[48.9651841,11.6816017],"ct":"DE","tp":"CR","ts":"2025-01-29T13:22:13Z","tX":545,"tY":351,"tags":{"caravan_site":"motorhome_stopover","caravan_site:type":"river;town","charge":"11 EUR/24 hours","dog":"yes","dog:fee":"no","drinking_water":"yes","fee":"yes","name":"Wohnmobilstellplatz Riedenburg","note":"40 Stellplätze","phone":"+49 9442 91810","power_supply":"yes","power_supply:charge":"1 EUR/12 hours","power_supply:fee":"yes","sanitary_dump_station":"yes","sanitary_dump_station:chemical_toilet":"yes","sanitary_dump_station:grey_water":"yes","sanitary_dump_station:grey_water:fee":"no","source":"survey","water_point":"yes","water_point:charge":"1 EUR/100 liter","water_point:fee":"yes"}},"344159632":{"location":[49.1519437,11.7066176],"ct":"DE","tp":"CS","ts":"2017-05-14T10:30:15Z","tX":545,"tY":351,"tags":{}},"408444113":{"location":[49.0852943,11.8118016],"ct":"DE","tp":"CR","ts":"2025-03-30T12:14:45Z","tX":545,"tY":351,"tags":{"caravan_site":"motorhome_stopover","caravan_site:type":"restaurant","caravans":"no","charge":"10 EUR","dog":"yes","email":"info@friesenmuehle.de","fee":"yes","maxstay":"1 night","name":"Stellplatz Friesenmühle","operator":"Landgasthof & Pension Friesenmühle","phone":"+49 94 93 735","power_supply":"yes","reservation":"no","sanitary_dump_station":"no","tents":"no","toilets":"no","water_point":"no","website":"https://www.friesenmuehle.de/uebernachten/camper.html","wheelchair":"yes"}},"1085231753":{"location":[49.0378018,11.9211338],"ct":"DE","tp":"CS","ts":"2022-08-17T08:19:39Z","tX":545,"tY":351,"tags":{"addr:city":"Deuerling","addr:housenumber":"4","addr:postcode":"93180","addr:street":"Auf d. Höh","email":"info@naturistenbund-donau.de","name":"Naturistenbund Donau","naturism":"yes","nudism":"yes","operator":"Naturistenbund Donau e.V.","phone":"+49 151 57433009","website":"https://www.naturistenbund-donau.de/"}},"10937796394":{"location":[48.965046,11.6819757],"ct":"DE","tp":"SD","ts":"2024-05-22T10:31:27Z","tX":545,"tY":351,"tags":{"fee":"yes"}}}