{"102221384":{"location":[48.8171236,11.7699832],"ct":"DE","tp":"CS","ts":"2024-09-21T14:52:50Z","tX":545,"tY":352,"tags":{"addr:city":"Neustadt an der Donau","addr:country":"DE","addr:housenumber":"1","addr:postcode":"93333","addr:street":"Felbermühle","caravans":"yes","contact:email":"pewid@gmx.de","contact:fax":"+49 9445 516","contact:phone":"+49 9445 516","contact:website":"http://www.felbermuehle.de","dish_washing":"yes","dog":"yes","fee":"yes","internet_access":"wlan","internet_access:fee":"no","kitchen":"no","name":"Campingplatz Felbermühle","naturism":"no","power_supply":"yes","tents":"yes","washing_machine":"yes"}},"176427406":{"location":[48.9089396,11.9437011],"ct":"DE","tp":"CS","ts":"2024-07-10T19:17:26Z","tX":545,"tY":352,"tags":{"addr:city":"Kelheim","addr:country":"DE","addr:housenumber":"26","addr:postcode":"93309","addr:street":"Herrnsaaler Ring","addr:suburb":"Herrnsaal","caravans":"yes","dog":"yes","drinking_water":"yes","email":"a.poschenrieder@gmx.de","fax":"+49 9441 9607","internet_access":"wlan","name":"Campingplatz Kelheim-Herrnsaal Poschenrieder","phone":"+49 9441 9607","power_supply":"yes","sanitary_dump_station":"yes","shower":"yes","tents":"yes","toilets":"yes","website":"https://www.camping-bauernhof.de/"}},"301471088":{"location":[48.9134868,11.8763062],"ct":"DE","tp":"CR","ts":"2024-09-13T17:32:34Z","tX":545,"tY":352,"tags":{"addr:city":"Kelheim","addr:country":"DE","addr:postcode":"93309","addr:street":"Am Pflegerspitz","drinking_water":"no","fee":"yes","name":"Wohnmobilstellplatz Kelheim","power_supply":"no","sanitary_dump_station":"no","toilets":"no"}},"419439887":{"location":[48.816912,11.7899043],"ct":"DE","tp":"CR","ts":"2024-04-04T15:10:38Z","tX":545,"tY":352,"tags":{"caravan_site":"motorhome_stopover","caravan_site:type":"parking_lot;village","charge":"14 EUR","description":"für Reisemobile bis 6m Länge","fee":"yes","image":"https://www.limes-therme.de/fileadmin/user_upload/Sonstige/Wohnmobil/03_limes-therme-wohnmobil-parkmoeglichkeiten.jpg","internet_access":"wlan","internet_access:fee":"customers","maxlength":"6.0","name":"Reisemobilstellplatz Limes-Therme","power_supply":"yes","sanitary_dump_station":"yes","water_point":"yes","website":"https://www.limes-therme.de/footer/spalte-5/wohnmobil/","wheelchair":"yes"}},"604247118":{"location":[48.914828,11.8768167],"ct":"DE","tp":"CR","ts":"2024-09-13T17:32:34Z","tX":545,"tY":352,"tags":{"addr:city":"Kelheim","addr:country":"DE","addr:housenumber":"1","addr:postcode":"93309","addr:street":"Am Pflegerspitz","capacity":"45","charge":"8,50€","drinking_water":"yes","fee":"yes","name":"Wohnmobilstellplatz am \"Pflegerspitz\"","note":"Ganzjährig geöffnet - Gebühr 8,50€ mit EC Kredit oder Handy App moBILET möglich","power_supply":"yes","reservation":"no","sanitary_dump_station":"yes","toilets":"yes"}},"817825157":{"location":[48.7727674,11.6224143],"ct":"DE","tp":"CS","ts":"2024-07-27T15:36:22Z","tX":545,"tY":352,"tags":{"addr:city":"Vohburg a.d.Donau","addr:postcode":"85088","addr:street":"Donaulände","caravans":"yes","fee":"no","name":"Campingplatz an der Donaulände","operator":"ArbeitsgemeinschaftDeutsche Donau","shower":"yes","tents":"yes","toilets":"yes","website":"https://www.deutsche-donau.de/poi/campingplatz_an_der_donaulaend-25951/"}},"844416904":{"location":[48.8784882,11.7279831],"ct":"DE","tp":"CS","ts":"2024-02-16T14:49:21Z","tX":545,"tY":352,"tags":{"access":"yes","addr:city":"Altmannstein","addr:housenumber":"9","addr:postcode":"93336","addr:street":"Dorfstraße","backcountry":"yes","capacity":"6","charge":"freiwillige Spende","dog":"yes","email":"info@trekkingcamp-altmuehlhonig.de","fee":"yes","group_only":"no","image":"https://www.trekkingcamp-altmuehlhonig.de/bilder/","internet_access":"wlan","internet_access:fee":"no","internet_access:ssid":"Altmuehlhonig","name":"Trekkingcamp-Altmühlhonig","openfire":"yes","opening_hours":"24/7","operator":"Michael Waldinger","payment:cash":"yes","phone":"+49 160 97501335","power_supply":"yes","reservation":"recommended","sanitary_dump_station":"no","source":"survey;local knowledge","start_date":"2020-01-01","tents":"yes","toilets":"yes","website":"https://www.trekkingcamp-altmuehlhonig.de/","wheelchair":"limited"}},"993404101":{"location":[48.8175287,11.7900518],"ct":"DE","tp":"CR","ts":"2024-04-04T15:10:38Z","tX":545,"tY":352,"tags":{"access:conditional":"no @ (length<6)","caravan_site":"motorhome_stopover","caravan_site:type":"parking_lot;village","charge":"14 EUR","description":"für Reisemobile über 6m Länge","fee":"yes","image":"https://www.limes-therme.de/fileadmin/user_upload/Sonstige/Wohnmobil/03_limes-therme-wohnmobil-parkmoeglichkeiten.jpg","internet_access":"wlan","internet_access:fee":"customers","name":"Reisemobilstellplatz Limes-Therme, lang","power_supply":"yes","sanitary_dump_station":"yes","water_point":"yes","website":"https://www.limes-therme.de/footer/spalte-5/wohnmobil/"}},"993404103":{"location":[48.8170879,11.7900754],"ct":"DE","tp":"SD","ts":"2021-10-17T12:33:24Z","tX":545,"tY":352,"tags":{"access":"yes","water_point":"yes"}},"1172762068":{"location":[48.8337139,11.8203321],"ct":"DE","tp":"CR","ts":"2023-05-14T16:22:38Z","tX":545,"tY":352,"tags":{"cabins":"no","capacity":"12","caravans":"yes","charge":"10€/Nacht","fee":"yes","internet_access":"no","name":"Spargelhof Kügel","operator":"Spargelhof Kügel","power_supply":"yes","sanitary_dump_station":"yes","static_caravans":"no","water_point":"yes"}},"2327452368":{"location":[48.9010062,11.6955557],"ct":"DE","tp":"CR","ts":"2023-11-06T02:31:05Z","tX":545,"tY":352,"tags":{"email":"info@michaelforster.de","fixme":"genaue lage und kapazität rausfinden","name":"HopfenErlebnisHof","phone":"+49 9446 1285","power_supply":"yes","website":"https://www.hopfenerlebnishof.de/"}},"10011706917":{"location":[48.7728199,11.6212415],"ct":"DE","tp":"CR","ts":"2024-01-09T04:51:40Z","tX":545,"tY":352,"tags":{"fee":"no","name":"Stellplatz Vohburg an der Donau","toilets":"yes"}},"10896409449":{"location":[48.8342668,11.8195434],"ct":"DE","tp":"SD","ts":"2023-05-14T16:22:38Z","tX":545,"tY":352,"tags":{}},"10937791835":{"location":[48.9148505,11.8763298],"ct":"DE","tp":"SD","ts":"2024-05-25T08:18:13Z","tX":545,"tY":352,"tags":{"description":"Mit Frischwasser Versorgung","fee":"no","opening_hours":"24/7"}}}