{"28366858":{"location":[47.3063427,11.6499234],"ct":"AT","tp":"CS","ts":"2024-09-02T12:07:42Z","tX":545,"tY":358,"tags":{"addr:city":"Weer","addr:country":"AT","addr:housenumber":"12","addr:postcode":"6116","addr:street":"Bundesstraße","caravans":"yes","drinking_water":"yes","email":"info@alpencampingmark.com","fax":"+43 5224 6814666","name":"Alpencamping Mark","phone":"+43 5224 68146; +43 699 19999109","power_supply":"no","sanitary_dump_station":"yes","shower":"yes","tents":"yes","toilets":"yes","website":"https://www.alpencampingmark.com/"}},"38550753":{"location":[47.4990497,11.7052597],"ct":"AT","tp":"CS","ts":"2022-09-09T08:44:44Z","tX":545,"tY":358,"tags":{"addr:city":"Achenkirch","addr:country":"AT","addr:housenumber":"17","addr:postcode":"6215","addr:street":"Sixenstraße","caravans":"yes","email":"info@camping-achensee.com","name":"Alpen Caravan Park Achensee","phone":"+43 5246 6239","shower":"yes","source":"website","tents":"yes","toilets":"yes","website":"https://www.camping-achensee.com/"}},"38550999":{"location":[47.4614347,11.9074814],"ct":"AT","tp":"CS","ts":"2024-07-28T17:00:54Z","tX":545,"tY":358,"tags":{"addr:city":"Kramsach","addr:country":"AT","addr:housenumber":"42","addr:place":"Moosen","addr:postcode":"6233","caravans":"yes","fax":"+43 5337 6354120","fee":"yes","internet_access":"yes","name":"Camping Seehof","phone":"+43 5337 63541","reservation":"yes","sanitary_dump_station":"yes","shower":"yes","tents":"yes","toilets":"yes","toilets:wheelchair":"yes","website":"https://www.camping-seehof.com/","wheelchair":"yes"}},"55812014":{"location":[47.4568838,11.8804025],"ct":"AT","tp":"CS","ts":"2023-07-25T05:20:58Z","tX":545,"tY":358,"tags":{"addr:city":"Kramsach","addr:housenumber":"14","addr:place":"Seebühel","addr:postcode":"6233","caravans":"yes","drinking_water":"yes","email":"office@camping-stadlerhof.at","fee":"yes","internet_access":"wlan","internet_access:fee":"no","internet_access:ssid":"Stadlerhof","motor_vehicle":"yes","name":"Campingplatz Stadlerhof","name:fr":"Camping Stadlerhof","phone":"+43 5337 63371","power_supply":"yes","sanitary_dump_station":"yes","shower":"yes","swimming_pool":"yes","tents":"yes","toilets":"yes","website":"https://www.camping-stadlerhof.at/"}},"89636812":{"location":[47.3592443,11.8510076],"ct":"AT","tp":"CS","ts":"2022-09-21T11:46:45Z","tX":545,"tY":358,"tags":{"addr:city":"Fügen","addr:housenumber":"1","addr:postcode":"6263","addr:street":"Gageringerstraße","caravans":"yes","email":"servus@hell-tirol.at","fee":"yes","internet_access":"wlan","name":"Natürlich Hell Camping & Aparthotel","operator":"Hells Ferienresort GmbH","phone":"+43 5288 62203","shower":"yes","tents":"yes","toilets":"yes","website":"https://www.hell-tirol.at/"}},"125028099":{"location":[47.4688632,11.7138283],"ct":"AT","tp":"CS","ts":"2024-06-29T20:11:18Z","tX":545,"tY":358,"tags":{"addr:city":"Achenkirch","addr:country":"AT","addr:housenumber":"1","addr:postcode":"6215","addr:street":"Schwarzenau","caravans":"yes","drinking_water":"yes","email":"office@schwarzenau.cc","fee":"yes","name":"Achensee Camping Schwarzenau","operator":"Achensee Camping Schwarzenau GmbH","phone":"+43 664 466 20 70","power_supply":"yes","sanitary_dump_station":"yes","shower":"yes","tents":"yes","toilets":"yes","website":"https://campingplatz-achensee.at/"}},"127791448":{"location":[47.4328599,11.7347722],"ct":"AT","tp":"CS","ts":"2024-05-02T17:16:41Z","tX":545,"tY":358,"tags":{"addr:city":"Maurach","addr:country":"AT","addr:housenumber":"75","addr:postcode":"6212","addr:street":"Achenseestraße","caravans":"yes","drinking_water":"yes","email":"info@achensee-camping.at","fax":"+43 5243 20238","fee":"yes","name":"Seecamping Wimmer","phone":"+43 660 420 6316","power_supply":"yes","sanitary_dump_station":"yes","shower":"yes","tents":"yes","toilets":"yes","website":"https://www.achensee-camping.at/"}},"159058969":{"location":[47.2969698,11.8752789],"ct":"AT","tp":"CS","ts":"2024-03-05T23:50:16Z","tX":545,"tY":358,"tags":{"addr:city":"Kaltenbach","addr:housenumber":"1","addr:postcode":"6272","addr:street":"Kaltenbacher Landstraße","caravans":"yes","email":"info@camping-hochzillertal.at","fee":"yes","internet_access":"wlan","name":"Camping Hochzillertal","phone":"+43 650 73 333 98","shower":"yes","tents":"yes","toilets":"yes","website":"http://www.camping-hochzillertal.at/"}},"181855117":{"location":[47.405649,11.8067125],"ct":"AT","tp":"CS","ts":"2022-10-09T16:23:53Z","tX":545,"tY":358,"tags":{"addr:city":"Wiesing","addr:country":"AT","addr:housenumber":"100","addr:place":"Dorf","addr:postcode":"6210","caravans":"yes","email":"info@camping-inntal.at","fee":"yes","internet_access":"wlan","name":"Camping Inntal","phone":"+43 5244 62693","shower":"yes","tents":"yes","toilets":"yes","website":"https://www.camping-inntal.at/"}},"224919864":{"location":[47.3219984,11.6835116],"ct":"AT","tp":"CS","ts":"2024-09-15T18:57:53Z","tX":545,"tY":358,"tags":{"addr:city":"Pill","addr:country":"AT","addr:housenumber":"6","addr:postcode":"6130","addr:street":"Dorf","caravans":"yes","charge":"22€","fee":"yes","internet_access":"wlan","name":"Camping Wohnmobilstellplatz Plankenhof","phone":"+43 5242 641 95","shower":"yes","tents":"yes","toilets":"yes","website":"https://www.plankenhof.at/"}},"603428792":{"location":[47.4606181,11.9049568],"ct":"AT","tp":"CS","ts":"2023-11-02T19:31:37Z","tX":545,"tY":358,"tags":{"addr:city":"Kramsach","addr:country":"AT","addr:housenumber":"46","addr:place":"Moosen","addr:postcode":"6233","caravans":"yes","email":"info@camping-seeblick.at","fax":"+43 5337 63544305","fee":"yes","internet_access":"yes","internet_access:fee":"yes","name":"Camping Seeblick Toni","phone":"+43 5337 63544","shower":"yes","source":"website","tents":"yes","toilets":"yes","toilets:wheelchair":"yes","website":"https://www.camping-seeblick.at/","wheelchair":"yes"}},"1027532821":{"location":[47.4211465,11.7405249],"ct":"AT","tp":"CS","ts":"2023-11-08T23:30:08Z","tX":545,"tY":358,"tags":{"addr:city":"Maurach am Achensee","addr:country":"AT","addr:housenumber":"23","addr:postcode":"6212","addr:street":"Planbergstraße","caravans":"yes","email":"info@karwendel-camping.at","fax":"+43 5243 2036","fee":"yes","name":"Karwendel Camping","operator":"Familie Dieter und Angelika Kinigadner","phone":"+43 5243 6116","shower":"yes","tents":"yes","toilets":"yes","website":"https://www.karwendel-camping.at/"}},"1096681910":{"location":[47.4011451,11.7750402],"ct":"AT","tp":"CR","ts":"2023-04-23T22:20:40Z","tX":545,"tY":358,"tags":{"addr:city":"Jenbach","addr:housenumber":"3 a","addr:postcode":"6200","addr:street":"Fischl","caravans":"yes","email":"office@gasthaushotel-rieder.at","internet_access":"no","motorhome":"designated","name":"Stellplatz am Gasthof Rieder","phone":"+43 5244 62446","shower":"no","tents":"no","toilets":"yes","website":"https://www.gasthaushotel-rieder.at/"}},"6725792669":{"location":[47.456725,11.8808827],"ct":"AT","tp":"SD","ts":"2019-08-20T06:27:35Z","tX":545,"tY":358,"tags":{}},"9782376884":{"location":[47.4616884,11.907219],"ct":"AT","tp":"SD","ts":"2022-05-30T15:18:28Z","tX":545,"tY":358,"tags":{}}}