{"42281882":{"location":[46.5890084,11.9005967],"ct":"IT","tp":"CS","ts":"2024-12-17T15:20:40Z","tX":545,"tY":361,"tags":{"access":"customers","caravans":"yes","fee":"yes","name":"Parking Odlina","operator":"www.odlina.it","parking":"surface"}},"42763081":{"location":[46.780359,11.8988167],"ct":"IT","tp":"CS","ts":"2024-07-28T04:08:46Z","tX":545,"tY":361,"tags":{"addr:city":"St. Lorenzen - San Lorenzo di Sebato","addr:city:de":"St. Lorenzen","addr:city:it":"San Lorenzo di Sebato","addr:housenumber":"16a","addr:place":"St. Martin - San Martino","addr:place:de":"St. Martin","addr:place:it":"San Martino","addr:postcode":"39030","addr:street":"St. Martin","alt_name":"Camping Wildberg; Ansitz Wildberg","caravans":"yes","contact:facebook":"https://www.facebook.com/ansitzwildberg","drinking_water":"yes","email":"info@campingwildberg.com","fee":"yes","motorhome":"yes","name":"Wildberg","phone":"+390474474080","shower":"yes","tents":"yes","website":"https://campingwildberg.com/"}},"111531293":{"location":[46.7612473,11.6343674],"ct":"IT","tp":"CS","ts":"2023-11-08T07:28:18Z","tX":545,"tY":361,"tags":{"addr:city":"Vahrn - Varna","addr:city:de":"Vahrn","addr:city:it":"Varna","addr:housenumber":"6","addr:postcode":"39040","addr:street":"Vahrner-See-Weg - Via Laghetto di Varna","addr:street:de":"Vahrner-See-Weg","addr:street:it":"Via Laghetto di Varna","name":"Zum Vahrner See - Al Lago di Varna","name:de":"Zum Vahrner See","name:it":"Al Lago di Varna","phone":"+39 0472 832169","source":"https://suedtirol.live/it/allogio/camping-al-lago-di-varna-varna-p16908","website":"https://camping-vahrner-see.com/"}},"123481110":{"location":[46.6941932,11.9390651],"ct":"IT","tp":"CS","ts":"2024-12-03T20:00:05Z","tX":545,"tY":361,"tags":{"internet_access":"no","name":"Al Plan","wheelchair":"no"}},"152412230":{"location":[46.7950958,11.928412],"ct":"IT","tp":"CR","ts":"2023-10-28T12:24:00Z","tX":545,"tY":361,"tags":{"access":"yes","fee":"yes","name":"Stegener Marktplatz - Piazza Mercato di Stegona","name:de":"Stegener Marktplatz","name:it":"Piazza Mercato di Stegona","parking":"surface"}},"159570615":{"location":[46.7060613,11.9296765],"ct":"IT","tp":"CR","ts":"2023-10-31T16:26:24Z","tX":545,"tY":361,"tags":{"fee":"yes","name":"Camping Ritterkeller","operator":"Ritterkeller","power_supply":"yes","website":"https://www.ritterkeller.it/"}},"215609438":{"location":[46.7346957,11.6490497],"ct":"IT","tp":"CR","ts":"2024-10-29T14:16:23Z","tX":545,"tY":361,"tags":{"capacity":"30","internet_access":"wlan","internet_access:fee":"no","name":"Stellplatz Löwenhof","operator":"Hotel Löwenhof","power_supply":"yes","sanitary_dump_station":"customers","tents":"no","wheelchair":"yes"}},"517094823":{"location":[46.7347822,11.6471888],"ct":"IT","tp":"CS","ts":"2023-05-20T19:26:59Z","tX":545,"tY":361,"tags":{"caravans":"yes","drinking_water":"yes","email":"info@loewenhof.it","fee":"yes","internet_access":"wlan","name":"Camping Löwenhof - Leone","name:de":"Camping Löwenhof","name:it":"Camping Leone","phone":"+39 0472 836216","power_supply":"yes","shower":"yes","tents":"yes","toilets":"yes","website":"https://www.loewenhof.it/camping-brixen/camping-loewenhof"}},"671980461":{"location":[46.6758334,11.793297],"ct":"IT","tp":"CS","ts":"2019-02-21T08:53:35Z","tX":545,"tY":361,"tags":{"addr:city":"Lüsen - Luson","internet_access":"no","name":"Kalkofen","operator":"Gemeinde Lüsen / Comune Luson","website":"https://www.gemeinde.luesen.bz.it/system/web/gemeindebetrieb.aspx?detailonr=220526569&sprache=3&noseo=1&menuonr=219437489"}},"819933320":{"location":[46.6425926,11.7205105],"ct":"IT","tp":"CR","ts":"2024-07-21T21:52:54Z","tX":545,"tY":361,"tags":{"check_date":"2024-07-21","name":"Zum Gletscherhans","power_supply":"yes","sanitary_dump_station":"yes","website":"https://stellplatz.info/wohnmobilstellplatz/zum-gletscherhans"}},"1297600052":{"location":[46.7924389,11.924995],"ct":"IT","tp":"CR","ts":"2024-06-30T07:04:54Z","tX":545,"tY":361,"tags":{"addr:city":"Stegen - Stegona","addr:housenumber":"1b","addr:postcode":"39031","addr:street":"Heiligen Kreuz Straße - Via Santa Croce","capacity":"59","charge":"35.00 EUR/day","dog":"yes","email":"welcome@city-camping.it","fee":"yes","internet_access":"wlan","internet_access:fee":"no","name":"City Camping Bruneck - Brunico","opening_hours":"24/7","operator":"City Camping Bruneck - Brunico","payment:cash":"yes","payment:credit_cards":"yes","payment:debit_cards":"yes","phone":"+39 388 453 32 52","power_supply":"yes","reservation":"no","sanitary_dump_station":"yes","website":"https://www.city-camping.it"}},"10013108559":{"location":[46.6410135,11.6916481],"ct":"IT","tp":"CR","ts":"2022-09-10T12:02:00Z","tX":545,"tY":361,"tags":{"sanitary_dump_station":"yes"}},"10024491217":{"location":[46.6316074,11.8547269],"ct":"IT","tp":"CR","ts":"2022-10-31T13:53:34Z","tX":545,"tY":361,"tags":{"name":"San Martino in Badia"}},"7758093823":{"location":[46.7308899,11.6416235],"ct":"IT","tp":"SD","ts":"2022-11-17T14:22:37Z","tX":545,"tY":361,"tags":{"access":"yes","fee":"no","opening_hours":"24/7"}},"12022260178":{"location":[46.7928622,11.9243731],"ct":"IT","tp":"SD","ts":"2024-06-30T07:04:54Z","tX":545,"tY":361,"tags":{}},"12296862545":{"location":[46.734535,11.6485546],"ct":"IT","tp":"SD","ts":"2024-10-29T14:08:59Z","tX":545,"tY":361,"tags":{"access":"customers","drinking_water":"yes","fee":"no","opening_hours":"24/7","operator":"Stellplatz Löwenhof","sanitary_dump_station:basin":"yes","sanitary_dump_station:round_drain":"yes","waterway":"water_point"}}}