{"60835758":{"location":[46.1960732,11.8656802],"ct":"IT","tp":"CS","ts":"2023-11-02T12:16:12Z","tX":545,"tY":363,"tags":{"addr:city":"San Martino di Castrozza","addr:housenumber":"1","addr:postcode":"38054","addr:street":"Località Castelpietra","email":"info@castelpietra.it","name":"Camping Castelpietra","phone":"+39 0439 62426","website":"https://www.castelpietra.it/"}},"127204283":{"location":[46.310653,11.6320845],"ct":"IT","tp":"CS","ts":"2023-10-16T18:29:43Z","tX":545,"tY":363,"tags":{"addr:city":"Predazzo","addr:housenumber":"2","addr:postcode":"38037","addr:street":"Loc. Ischia","addr:unit":"Sotto Sassa","email":"info@campingvalleverde.it","name":"Camping Valle Verde","phone":"+39 0462 502394","website":"https://www.campingvalleverde.it/"}},"179368735":{"location":[46.2620309,11.792677],"ct":"IT","tp":"CS","ts":"2020-02-01T15:10:55Z","tX":545,"tY":363,"tags":{"name":"Area sosta Camper"}},"208150014":{"location":[46.1443219,11.7990564],"ct":"IT","tp":"CS","ts":"2024-02-03T18:32:30Z","tX":545,"tY":363,"tags":{"caravans":"yes","fee":"yes","name":"Camping Calavise","static_caravans":"yes"}},"229110821":{"location":[46.1135647,11.6180714],"ct":"IT","tp":"CS","ts":"2016-03-17T19:35:01Z","tX":545,"tY":363,"tags":{"fee":"yes","name":"Camping Val Malene"}},"234306785":{"location":[46.152786,11.8119703],"ct":"IT","tp":"CR","ts":"2013-08-20T16:08:21Z","tX":545,"tY":363,"tags":{"power_supply":"yes"}},"295618970":{"location":[46.31026,11.6588276],"ct":"IT","tp":"CS","ts":"2023-04-16T18:52:06Z","tX":545,"tY":363,"tags":{"addr:city":"Bellamonte","addr:housenumber":"16","addr:postcode":"38037","addr:street":"via Cece","name":"Fiemme Village","phone":"+390462576180","website":"https://www.fiemmevillage.it/"}},"499665818":{"location":[46.1818835,11.843074],"ct":"IT","tp":"CR","ts":"2017-06-11T15:50:42Z","tX":545,"tY":363,"tags":{"addr:city":"Tonadico","addr:postcode":"38054","addr:street":"Via Zocchet","capacity":"45","description":"sulla barra di 300 m, Ristorante e pizzeria a destra 2 ° 300 m [qui anche ottenere la chiave per il cancello]-2 edifici di servizi igienici con acqua calda e fredda-panetteria 300 m-centro 700 m Informazioni generali Area riservata ai camper | Massima ca","fee":"yes","name":"Area di sosta camper Tonadico","operator":"Area Comunale","power_supply":"yes","sanitary_dump_station":"yes"}},"944507665":{"location":[46.2532203,11.8005878],"ct":"IT","tp":"CR","ts":"2020-07-27T20:26:05Z","tX":545,"tY":363,"tags":{"fee":"yes","power_supply":"yes","sanitary_dump_station":"yes","water_supply":"yes"}},"1044322552":{"location":[46.311042,11.6142609],"ct":"IT","tp":"CR","ts":"2023-09-22T08:37:07Z","tX":545,"tY":363,"tags":{"addr:city":"Predazzo","addr:street":"SS50","description":"Area Attrezzata per camper. Circa 50 posti","name":"Area Camper Fiemme Predazzo","opening_hours":"24/7","surface":"gravel"}},"1085434493":{"location":[46.1123083,11.6176271],"ct":"IT","tp":"CS","ts":"2022-08-10T20:21:57Z","tX":545,"tY":363,"tags":{"name":"Camping Val Malene"}},"1385118010":{"location":[46.3086733,11.883165],"ct":"IT","tp":"CR","ts":"2023-01-04T23:54:08Z","tX":545,"tY":363,"tags":{"access":"yes","capacity":"50","capacity:disabled":"1","fee":"yes","name":"Parcheggio Mandra ai Lach","operator":"Comune di Canale d'Agordo","park_ride":"no","parking":"surface","payment:cash":"yes","supervised":"no","surface":"gravel"}},"2761608247":{"location":[46.1528284,11.8119715],"ct":"IT","tp":"CR","ts":"2016-07-30T16:56:49Z","tX":545,"tY":363,"tags":{"name":"Araea Attrezzata Camper a pagamento"}},"2940145322":{"location":[46.1925318,11.9407338],"ct":"IT","tp":"CS","ts":"2014-06-30T07:33:34Z","tX":545,"tY":363,"tags":{"name":"Campeggio Parrocchia Altavilla"}},"3075526096":{"location":[46.1953127,11.6788605],"ct":"IT","tp":"CR","ts":"2016-12-10T17:45:53Z","tX":545,"tY":363,"tags":{}},"4349654575":{"location":[46.2148409,11.9306579],"ct":"IT","tp":"CS","ts":"2016-08-14T11:45:04Z","tX":545,"tY":363,"tags":{"name":"Vecchio campeggio parrocchia di Altavilla Vicentina"}},"9609477680":{"location":[46.3112631,11.6146751],"ct":"IT","tp":"CR","ts":"2023-04-16T20:25:39Z","tX":545,"tY":363,"tags":{"addr:city":"Predazzo","capacity:caravans":"50","internet_access":"yes","internet_access:fee":"yes","power_supply":"yes","sanitary_dump_station":"yes"}}}