{"26859874":{"location":[45.517778,11.602222],"ct":"IT","tp":"CS","ts":"2024-07-11T07:12:53Z","tX":545,"tY":366,"tags":{"created_by":"JOSM","email":"info@campingvicenza.it","name":"Camping Vicenza","phone":"+39 0444 582311","website":"https://www.campingvicenza.it/"}},"98291056":{"location":[45.3472701,11.7294431],"ct":"IT","tp":"CS","ts":"2022-11-10T11:49:34Z","tX":545,"tY":366,"tags":{"access":"private"}},"1269081596":{"location":[45.4538904,11.8549768],"ct":"IT","tp":"CS","ts":"2024-08-07T08:04:16Z","tX":545,"tY":366,"tags":{"addr:city":"Padova","addr:housenumber":"16","addr:postcode":"35136","addr:street":"Via Medoaco","capacity":"50","caravans":"yes","dog":"yes","email":"info@agricampeggiopadova.it","fee":"yes","name":"AgriCamping Padova","payment:cash":"yes","payment:credit_cards":"yes","payment:debit_cards":"yes","phone":"+39 049 9960025","power":"supply","power_supply":"yes","tents":"yes","website":"https://www.agricampeggiopadova.it/"}},"1306104956":{"location":[45.3999963,11.7116006],"ct":"IT","tp":"CS","ts":"2024-08-07T08:11:16Z","tX":545,"tY":366,"tags":{"addr:city":"Cervarese Santa Croce","addr:housenumber":"73","addr:postcode":"35030","addr:street":"Via Repoise","area":"yes","capacity:caravans":"16","caravans":"yes","description":"Small camping","internet_access":"wlan","name":"Agriturismo La Buona Terra - Il Borgo","phone":"+39 389 5111297","power_supply":"yes","shower":"yes","website":"https://www.buonaterrabio.it/"}},"1306105760":{"location":[45.3517629,11.7571097],"ct":"IT","tp":"CR","ts":"2024-08-07T08:17:19Z","tX":545,"tY":366,"tags":{"addr:city":"Teolo","addr:housenumber":"63","addr:postcode":"35037","addr:street":"Via Monteortone","area":"yes","dog":"yes","name":"Hotel-Camping Terme Mamma Margherita","phone":"+39 049 8669350","power_supply":"yes","shower":"yes","toilets":"yes","website":"https://www.termesalesiani.it/mammamargherita/"}},"1323545740":{"location":[45.4474973,11.8449118],"ct":"IT","tp":"SD","ts":"2015-03-28T01:35:01Z","tX":545,"tY":366,"tags":{"charge":"3â‚¬","fee":"yes"}},"1352125621":{"location":[45.4807179,11.6200173],"ct":"IT","tp":"CR","ts":"2025-01-17T17:44:35Z","tX":545,"tY":366,"tags":{"leisure":"park"}},"1364480822":{"location":[45.4424938,11.8885818],"ct":"IT","tp":"CR","ts":"2025-03-04T11:55:53Z","tX":545,"tY":366,"tags":{"addr:city":"Padova","addr:country":"IT","addr:postcode":"35133","addr:street":"Via Telemaco Signorini","capacity":"20","email":"info@parcheggipadova.it","fee":"yes","image":"http://www.parcheggipadova.it/modules/mod_image_show_gk4/cache/img_articoli.parkcampergk-is-129.jpg","internet_access":"no","name":"Area Sosta Camper Padova","operator":"Aps Holding S.p.A.","payment:girocard":"yes","payment:mastercard":"yes","payment:visa":"yes","phone":"+3904920111","power_supply":"yes","sanitary_dump_station":"yes","website":"https://www.parcheggipadova.it/index.php/parcheggi/park-camper","wheelchair":"yes"}},"6009519760":{"location":[45.4425922,11.8889639],"ct":"IT","tp":"CR","ts":"2024-07-11T07:13:17Z","tX":545,"tY":366,"tags":{"addr:city":"Padova","addr:country":"IT","addr:postcode":"35133","addr:street":"Via Telemaco Signorini","capacity":"20","email":"info@parcheggipadova.it","fee":"yes","image":"http://www.parcheggipadova.it/modules/mod_image_show_gk4/cache/img_articoli.parkcampergk-is-129.jpg","internet_access":"no","name":"Area Sosta Camper Padova","operator":"Aps Holding S.p.A.","payment:girocard":"yes","payment:mastercard":"yes","payment:visa":"yes","phone":"+3904920111","power_supply":"yes","sanitary_dump_station":"yes","website":"https://www.parcheggipadova.it/index.php/parcheggi/park-camper","wheelchair":"yes"}},"11301849438":{"location":[45.4490352,11.8469311],"ct":"IT","tp":"SD","ts":"2024-12-09T19:45:27Z","tX":545,"tY":366,"tags":{"access":"yes"}},"12725836427":{"location":[45.4278935,11.9373254],"ct":"IT","tp":"SD","ts":"2025-04-03T13:41:53Z","tX":545,"tY":366,"tags":{"access":"no","fee":"no","sanitary_dump_station:basin":"yes"}}}