{"40651444":{"location":[42.6367488,11.7077999],"ct":"IT","tp":"CS","ts":"2022-08-20T15:02:08Z","tX":545,"tY":377,"tags":{"addr:city":"Pitigliano","addr:street":"Locand√† Pantano","contact:mobile":"+39 368 726 6229","name":"Il Grillo Parlante","phone":"+39 0564 615695","website":"http://www.saturniaonline.net/GrilloParlante"}},"161291612":{"location":[42.6534147,11.9305545],"ct":"IT","tp":"CS","ts":"2019-07-16T20:16:00Z","tX":545,"tY":377,"tags":{"name":"Valdisole","toilets:wheelchair":"no","wheelchair":"limited"}},"164325038":{"location":[42.6526074,11.9443921],"ct":"IT","tp":"CS","ts":"2023-10-31T07:21:30Z","tX":545,"tY":377,"tags":{"addr:city":"Bolsena","addr:postcode":"01023","addr:street":"Via Cassia Nord","description":"Apartments, Studios, Bungalows, Drying room for motorcycle clothes available","motorcycle_friendly":"customary","name":"Massimo","opening_hours":"May-Sep","phone":"+39 335 7686945","website":"https://www.massimo.info/"}},"230687657":{"location":[42.6524255,11.9460176],"ct":"IT","tp":"CS","ts":"2013-07-23T07:46:45Z","tX":545,"tY":377,"tags":{"description":"Cappelletta","name":"Cappelletta"}},"367054300":{"location":[42.6485026,11.9086582],"ct":"IT","tp":"CS","ts":"2024-09-09T06:43:06Z","tX":545,"tY":377,"tags":{"addr:city":"San Lorenzo Nuovo","addr:postcode":"01020","addr:street":"Localita' Oppietti","area":"yes","cabins":"yes","caravans":"yes","fee":"yes","name":"Camping Mario","phone":"+39 351 3458874","power_supply":"yes","socket:cee_blue":"yes","tents":"yes","washing_machine":"yes","website":"https://www.campingmario.it/"}},"759036996":{"location":[42.5970472,11.864198],"ct":"IT","tp":"CS","ts":"2024-09-09T07:29:11Z","tX":545,"tY":377,"tags":{"access":"customers","capacity":"100","caravans":"yes","facebook":"https://www.facebook.com/camping3gradini/","fee":"no","internet_access":"no","motorhome":"yes","name":"Tre Gradini","operator":"Fernando","shower":"yes","tents":"yes","toilets":"yes"}},"1314306843":{"location":[42.636433,11.8854473],"ct":"IT","tp":"CS","ts":"2024-09-09T07:13:35Z","tX":545,"tY":377,"tags":{"addr:housenumber":"9","addr:street":"Via Lungolago","caravans":"yes","drinking_water":"yes","name":"La Grata","power_supply":"yes","sanitary_dump_station":"yes","shower":"yes","socket:cee_blue":"yes","tents":"yes","toilets":"yes","washing_machine":"yes","website":"https://lagrata.it/"}},"1314308466":{"location":[42.6057363,11.8668647],"ct":"IT","tp":"CS","ts":"2024-09-09T07:26:03Z","tX":545,"tY":377,"tags":{"addr:city":"Gradoli","addr:postcode":"01010","addr:street":"Strada provinciale Lago di Bolsena","capacity:persons":"50","capacity:tents":"50","caravans":"yes","fee":"yes","fixme":"Geometry","motorhome":"yes","name":"Camping Vallegara","power_supply":"yes","socket:cee_blue":"yes","tents":"yes","washing_machine":"yes","website":"https://www.vallegara.it/"}},"1314310334":{"location":[42.556138,11.8888423],"ct":"IT","tp":"CS","ts":"2024-09-09T07:39:21Z","tX":545,"tY":377,"tags":{"capacity:persons":"800","caravans":"yes","dog":"yes","internet_access":"yes","internet_access:fee":"no","motorhome":"yes","name":"La Perla del Lago","power_supply":"yes","socket:cee_blue":"yes","tents":"yes","website":"https://perladellago.it/"}},"2268461600":{"location":[42.6373266,11.6799202],"ct":"IT","tp":"CR","ts":"2024-05-28T21:07:16Z","tX":545,"tY":377,"tags":{"capacity":"18","fee":"yes","internet_access":"no","power_supply":"no","sanitary_dump_station":"yes"}},"7137489385":{"location":[42.7206086,11.7616584],"ct":"IT","tp":"CS","ts":"2020-01-16T20:01:06Z","tX":545,"tY":377,"tags":{"name":"Il Vecchio Fienile"}},"11823946098":{"location":[42.6541926,11.9317622],"ct":"IT","tp":"CS","ts":"2024-04-17T06:38:45Z","tX":545,"tY":377,"tags":{"caravans":"no","contact:email":"info@bolsenaholidayhouse.it","contact:facebook":"casemobilibolsena","contact:instagram":"bolsenaholiday","contact:mobile":"+39 380 137 2006","contact:website":"https://www.bolsenaholidayhouse.it/","name":"Bolsena Holiday House","tents":"no"}},"12165021660":{"location":[42.5559048,11.8883129],"ct":"IT","tp":"SD","ts":"2024-09-09T07:39:21Z","tX":545,"tY":377,"tags":{"access":"customers","water_point":"yes"}}}