{"303601708":{"location":[-24.2107072,151.9076653],"ct":"AU","tp":"CR","ts":"2025-01-25T09:53:09Z","tX":944,"tY":583,"tags":{"addr:housenumber":"55","addr:street":"Jeffery Court","fee":"yes","name":"NRMA Agnes Water Beach Holiday Park","phone":"+61 7 4974 7279","power_supply":"yes","tents":"yes"}},"305398846":{"location":[-24.5082923,152.0021327],"ct":"AU","tp":"CR","ts":"2025-03-05T09:46:40Z","tX":944,"tY":583,"tags":{"addr:country":"AU","addr:housenumber":"1384","addr:street":"Coast Road","addr:suburb":"Baffle Creek","fee":"yes","name":"Baffle Creek Caravan and Camping Park","phone":"+61 7 4156 6421","power_supply":"yes","tents":"yes"}},"1200725904":{"location":[-24.4909232,151.9106723],"ct":"AU","tp":"CS","ts":"2023-08-21T03:43:01Z","tX":944,"tY":583,"tags":{"name":"Baffle Creek Hideaway"}},"5641731022":{"location":[-24.5171018,152.0135917],"ct":"AU","tp":"CS","ts":"2018-05-25T13:00:53Z","tX":944,"tY":583,"tags":{}},"5641731322":{"location":[-24.5049591,152.00164],"ct":"AU","tp":"CS","ts":"2018-05-25T13:00:51Z","tX":944,"tY":583,"tags":{}},"5641751521":{"location":[-24.5173141,151.9731502],"ct":"AU","tp":"CS","ts":"2018-05-25T13:00:56Z","tX":944,"tY":583,"tags":{}},"8912446859":{"location":[-24.3159904,151.9616394],"ct":"AU","tp":"CS","ts":"2021-07-12T00:52:32Z","tX":944,"tY":583,"tags":{"name":"Wreck Rock Camping Area","website":"https://parks.des.qld.gov.au/parks/deepwater/camping/wreck-rock"}},"8912471566":{"location":[-24.2901907,151.9527852],"ct":"AU","tp":"CS","ts":"2021-07-12T00:49:18Z","tX":944,"tY":583,"tags":{"description":"Unallocated sites, book online","name":"Middle Rock Camping Area","website":"https://parks.des.qld.gov.au/parks/deepwater/camping/middle-rock"}},"12056347164":{"location":[-24.2306236,151.8756036],"ct":"AU","tp":"CS","ts":"2025-03-02T00:35:15Z","tX":944,"tY":583,"tags":{"addr:housenumber":"2546","addr:street":"Round Hill Road","check_date":"2024-07-15","contact:email":"info@1770ecocamp.com.au","contact:facebook":"https://www.facebook.com/1770ecocamp","contact:instagram":"https://www.instagram.com/1770_eco_camp/?hl=en","contact:twitter":"https://twitter.com/1770ecocamp","currency:XBT":"yes","name":"1770 Eco Camp","payment:lightning":"yes","payment:lightning_contactless":"no","payment:onchain":"no","phone":"+61 04 7869 9525","website":"https://www.1770ecocamp.com.au/"}},"11748119683":{"location":[-24.2100467,151.9075454],"ct":"AU","tp":"SD","ts":"2024-03-20T13:48:36Z","tX":944,"tY":583,"tags":{}},"11748119684":{"location":[-24.2115676,151.9083816],"ct":"AU","tp":"SD","ts":"2024-03-20T13:48:36Z","tX":944,"tY":583,"tags":{}}}