{"316606647":{"location":[-26.3050919,151.9948982],"ct":"AU","tp":"CR","ts":"2012-12-20T10:12:33Z","tX":944,"tY":589,"tags":{"name":"Yallakool Tourist Park"}},"964160734":{"location":[-26.3162209,151.8757025],"ct":"AU","tp":"CS","ts":"2025-06-07T03:50:54Z","tX":944,"tY":589,"tags":{"caravans":"yes","drinking_water":"yes","fee":"no","maxstay":"48 hours","name":"Wondai Free Camp","opening_hours":"24/7","operator":"South Burnett Regional Council","power_supply":"no","sanitary_dump_station":"public","shower":"yes","tents":"yes","toilets":"yes","wheelchair":"designated"}},"1063102518":{"location":[-26.2565418,151.9817072],"ct":"AU","tp":"CS","ts":"2025-01-16T02:03:51Z","tX":944,"tY":589,"tags":{"access":"customers","addr:housenumber":"332","addr:postcode":"4605","addr:state":"QLD","addr:street":"Borcherts Hill Road","addr:suburb":"Murgon","caravans":"yes","dog":"leashed","drinking_water":"yes","fee":"yes","name":"Barambah Bush Caravan & Camping Park","openfire":"yes","operator":"Kui Parks","phone":"+61 7 4168 1085","power_supply":"yes","sanitary_dump_station":"yes","shower":"yes","static_caravans":"yes","tents":"yes","toilets":"yes","website":"https://www.barambahbush.com.au/"}},"1085733552":{"location":[-26.2422737,151.9375786],"ct":"AU","tp":"CS","ts":"2024-08-07T11:46:47Z","tX":944,"tY":589,"tags":{"caravans":"yes","drinking_water":"yes","name":"Murgon Free Camp","opening_hours":"24/7","operator":"South Burnett Council","power_supply":"no","sanitary_dump_station":"public","shower":"yes","tents":"yes","toilets":"yes"}},"1811177414":{"location":[-26.1862383,152.0693233],"ct":"AU","tp":"CS","ts":"2025-06-07T20:57:28Z","tX":944,"tY":589,"tags":{"access":"customers","caravans":"yes","fee":"yes","name":"Goomeri Showgrounds","phone":"+61 437 515 792","sanitary_dump_station":"yes","shower":"yes","static_caravans":"no","tents":"yes","toilets":"yes","website":"https://www.goomerishow.com.au/camping"}},"1811180711":{"location":[-26.22194,152.15083],"ct":"AU","tp":"CS","ts":"2012-07-03T11:59:33Z","tX":944,"tY":589,"tags":{"name":"Kinbombi Falls"}},"1811205272":{"location":[-26.305,151.99444],"ct":"AU","tp":"CS","ts":"2025-01-16T03:03:06Z","tX":944,"tY":589,"tags":{"caravans":"yes","name":"Yallakool Tourist Park","tents":"yes"}},"7707033414":{"location":[-26.2130994,152.085175],"ct":"AU","tp":"CS","ts":"2025-06-07T21:48:33Z","tX":944,"tY":589,"tags":{"access":"customers","addr:housenumber":"5939","addr:postcode":"4601","addr:state":"QLD","addr:street":"Wide Bay Highway","addr:suburb":"Goomeri","camp_site":"deluxe","caravans":"yes","dog":"leashed","fee":"yes","kitchen":"yes","laundry":"yes","name":"Goomeri Caravan and Bush Camp","operator":"Cameron and Nicole Miller - Damper and Dusk Bush Retreat","phone":"+61 4 9234 0783","sanitary_dump_station":"yes","shop":"gas","shower":"yes","tents":"yes","toilets":"yes","website":"https://www.goomeribushcamp.com.au/"}},"7707033415":{"location":[-26.2133845,152.0875112],"ct":"AU","tp":"CS","ts":"2020-07-12T12:54:31Z","tX":944,"tY":589,"tags":{"group_only":"no","name":"Camp Kitchen"}},"11147630731":{"location":[-26.1860375,152.0682021],"ct":"AU","tp":"CS","ts":"2025-06-07T20:57:28Z","tX":944,"tY":589,"tags":{"access":"customers","caravans":"yes","fee":"yes","name":"Goomeri Van Park","static_caravans":"yes","tents":"no"}},"12092780496":{"location":[-26.3170857,151.8813573],"ct":"AU","tp":"CR","ts":"2024-08-07T09:23:12Z","tX":944,"tY":589,"tags":{"drinking_water":"yes","fee":"yes","name":"Wondai Showgrounds","power_supply":"yes","sanitary_dump_station":"no","swimming_pool":"no","tents":"yes","toilets":"yes","wheelchair":"limited"}},"9765885926":{"location":[-26.2563429,151.9811116],"ct":"AU","tp":"SD","ts":"2022-05-24T03:13:39Z","tX":944,"tY":589,"tags":{"access":"customers"}},"11147629952":{"location":[-26.1865668,152.0691776],"ct":"AU","tp":"SD","ts":"2025-06-07T20:57:28Z","tX":944,"tY":589,"tags":{"access":"customers","fee":"yes"}},"12895755068":{"location":[-26.2120917,152.0900701],"ct":"AU","tp":"SD","ts":"2025-06-09T05:36:01Z","tX":944,"tY":589,"tags":{"access":"customers","fee":"no"}}}