{"12010790":{"location":[-27.2722174,152.0549709],"ct":"AU","tp":"CR","ts":"2024-04-26T11:50:00Z","tX":944,"tY":592,"tags":{"addr:housenumber":"7558","addr:postcode":"4355","addr:state":"QLD","addr:street":"New England Highway","addr:suburb":"Crows Nest","apartment":"yes","bbq":"yes","brand":"Kui Parks","cabins":"28","camp_site":"deluxe","capacity":"160","caravans":"yes","contact:facebook":"https://www.facebook.com/Crowsnesttouristpark/","drinking_water":"yes","firepit":"yes","internet_access":"wlan","internet_access:fee":"no","kitchen":"yes","lit":"yes","name":"Crows Nest Tourist Park","opening_hours":"24/7","operator":"Gerald Searle","pets_allowed":"yes","phone":"+61 7 4698 1269","power_supply":"yes","sanitary_dump_station":"yes","shower":"hot","swimming_pool":"yes","tents":"yes","toilets":"yes","washing_machine":"yes","waste_disposal":"yes","website":"https://crowsnestcaravanpark.com.au/"}},"316606293":{"location":[-27.2544143,152.1090128],"ct":"AU","tp":"CS","ts":"2016-10-04T05:26:47Z","tX":944,"tY":592,"tags":{"addr:country":"AU","addr:postcode":"4355","addr:state":"QLD","addr:street":"Three Mile Road","addr:suburb":"Crows Nest","fee":"yes","name":"Crows Nest Falls Campground","tents":"yes"}},"316606304":{"location":[-27.2610627,152.1877296],"ct":"AU","tp":"CS","ts":"2022-06-29T12:31:14Z","tX":944,"tY":592,"tags":{"name":"Cressbrook Dam Campground"}},"884261859":{"location":[-27.2715356,152.0545127],"ct":"AU","tp":"CS","ts":"2020-12-15T01:16:26Z","tX":944,"tY":592,"tags":{"amenities":"none","cost":"$15","name":"Self-contained Sites"}},"1811191032":{"location":[-27.09306,151.91694],"ct":"AU","tp":"CS","ts":"2012-07-03T12:09:04Z","tX":944,"tY":592,"tags":{"name":"One Lane Bridge Rest Area"}},"1811191565":{"location":[-27.30333,152.05389],"ct":"AU","tp":"CS","ts":"2012-07-03T12:10:05Z","tX":944,"tY":592,"tags":{"name":"Pechey State Forest Park"}},"1811193487":{"location":[-27.35778,152.17639],"ct":"AU","tp":"CS","ts":"2012-07-03T12:12:10Z","tX":944,"tY":592,"tags":{"name":"Ravensbourne Rest Area"}},"8034325571":{"location":[-27.2582851,152.0460306],"ct":"AU","tp":"CR","ts":"2020-12-03T01:49:35Z","tX":944,"tY":592,"tags":{"capacity":"80","caravans":"yes","catering":"on request","internet_access":"wlan","pets_allowed":"yes","power_supply":"yes","sanitary_dump_station":"customers","tents":"yes","toilets":"yes","water":"yes"}},"7983137203":{"location":[-27.2573965,152.0464474],"ct":"AU","tp":"SD","ts":"2020-10-06T23:27:25Z","tX":944,"tY":592,"tags":{"access":"customers","fee":"no","operator":"Crows Nest Show Society"}},"8223192177":{"location":[-27.2724501,152.055527],"ct":"AU","tp":"SD","ts":"2020-12-15T01:15:11Z","tX":944,"tY":592,"tags":{"access":"customers","entrance":"yes","male":"yes"}}}