{"568695661":{"location":[-27.5878652,151.9472624],"ct":"AU","tp":"CR","ts":"2025-01-25T06:05:07Z","tX":944,"tY":593,"tags":{"addr:housenumber":"821","addr:street":"Ruthven Street","emergency_telephone_code":"+61 427 766 784","internet_access":"wlan","name":"Toowoomba Motor Village","phone":"+61 7 4635 8186","power_supply":"yes","sanitary_dump_station":"yes","website":"http://www.toowoombamotorvillage.com.au/"}},"637058203":{"location":[-27.5693095,151.962906],"ct":"AU","tp":"CR","ts":"2025-03-06T07:30:13Z","tX":944,"tY":593,"tags":{"addr:country":"AU","addr:housenumber":"47","addr:postcode":"4350","addr:state":"QLD","addr:street":"Kitchener Street","fee":"yes","internet_access":"yes","name":"Jolly Swagman Accommodation Park","phone":"+61 7 4632 8735","power_supply":"yes","sanitary_dump_station":"customers","source":"survey;Bing","tents":"yes"}},"675915059":{"location":[-27.6345494,152.2126499],"ct":"AU","tp":"CR","ts":"2024-05-27T10:23:59Z","tX":944,"tY":593,"tags":{"drinking_water":"yes","fee":"yes","name":"Tenthill Caravan Park & Store","power_supply":"yes"}},"801828321":{"location":[-27.5878234,151.9366707],"ct":"AU","tp":"CR","ts":"2025-03-06T07:30:22Z","tX":944,"tY":593,"tags":{"addr:country":"AU","addr:housenumber":"34A","addr:postcode":"4350","addr:state":"QLD","addr:street":"Eiser Street","addr:suburb":"Harristown","name":"Toowoomba Garden City Holiday Park","operator":"BIG4","reservation":"yes","website":"https://www.big4.com.au/caravan-parks/qld/toowoomba-golden-west/toowoomba-garden-city-holiday-park"}},"1004244974":{"location":[-27.5120327,151.9543843],"ct":"AU","tp":"PK","ts":"2021-11-19T07:30:09Z","tX":944,"tY":593,"tags":{"access":"yes","caravan":"yes","hgv":"yes","motorcar":"no","operator":"TRC","operator:type":"government","parking":"surface","psv":"yes","surface":"paved"}},"1129926830":{"location":[-27.4631089,151.9611779],"ct":"AU","tp":"CS","ts":"2023-01-11T02:27:46Z","tX":944,"tY":593,"tags":{"denomination":"lutheran","name":"Koojarewon Lutheran Camp","religion":"christian"}},"1130780792":{"location":[-27.4362932,151.9580639],"ct":"AU","tp":"CS","ts":"2025-03-02T00:31:23Z","tX":944,"tY":593,"tags":{"access":"private","email":"ddrscouts@darlingdownsscouts.org.au","name":"Wirraglen Scout Camp","operator":"Scouts Queensland"}},"1132291841":{"location":[-27.5611235,151.8842098],"ct":"AU","tp":"CS","ts":"2023-01-15T22:23:53Z","tX":944,"tY":593,"tags":{"name":"Toowoomba Showgrounds Caravan Park","website":"https://www.toowoombashow.com.au/caravans/"}},"1811174654":{"location":[-27.6525,151.89222],"ct":"AU","tp":"CS","ts":"2012-07-03T11:52:22Z","tX":944,"tY":593,"tags":{"name":"Federation Park"}},"1811178742":{"location":[-27.64583,151.93417],"ct":"AU","tp":"CS","ts":"2012-07-03T11:56:51Z","tX":944,"tY":593,"tags":{"name":"Hodgsonvale Lions Park"}},"1811179299":{"location":[-27.55111,152.11917],"ct":"AU","tp":"CS","ts":"2012-07-03T11:57:58Z","tX":944,"tY":593,"tags":{"name":"James Hedges Park"}},"1811189495":{"location":[-27.48139,152.09306],"ct":"AU","tp":"CS","ts":"2012-07-03T12:07:16Z","tX":944,"tY":593,"tags":{"name":"Murphy's Creek Escape Camping Park"}},"6829179687":{"location":[-27.5881257,151.9476793],"ct":"AU","tp":"SD","ts":"2019-09-27T01:39:33Z","tX":944,"tY":593,"tags":{"access":"customers"}}}