{"213141935":{"location":[64.8326364,-13.8616837],"ct":"IS","tp":"CS","ts":"2020-12-22T13:06:50Z","tX":472,"tY":267,"tags":{"addr:city":"Stöðvarfjörður","addr:postcode":"755","addr:street":"Fjarðarbraut","description":"This camp site is part of the Icelandic Camping Card Project","email":"camping.stodvarfjordur@gmail.com","fee":"yes","name":"Tjaldstæði Stöðvarfjarðar","name:en":"Stöðvarfjörður Camping","phone":"+354 776 0062","waste_basket":"yes","website":"https://www.visitfjardabyggd.is/"}},"727899485":{"location":[64.79285,-14.007386],"ct":"IS","tp":"CS","ts":"2024-04-20T16:44:12Z","tX":472,"tY":267,"tags":{"email":"ferdamal@breiddalur.is","fax":"+354 475 6758","fee":"no","name":"Breiðdalsvík","name:en":"Breiddalsvik Camping Ground","phone":"+354 470 5560","website":"https://en.visitfjardabyggd.is/where-to-stay/camping"}},"1183654365":{"location":[64.8326239,-13.8622352],"ct":"IS","tp":"CR","ts":"2023-06-20T11:02:03Z","tX":472,"tY":267,"tags":{"power_supply":"yes"}},"3629469100":{"location":[64.832676,-13.8620914],"ct":"IS","tp":"SD","ts":"2023-06-20T11:02:03Z","tX":472,"tY":267,"tags":{}}}