{"1193605048":{"location":[48.1848425,99.7530719],"ct":"MN","tp":"CS","ts":"2011-09-29T06:39:49Z","tX":795,"tY":355,"tags":{}},"5744941121":{"location":[48.1838023,99.8075811],"ct":"MN","tp":"CS","ts":"2018-07-07T07:21:26Z","tX":795,"tY":355,"tags":{"name":"Тэрхийн цагаан нуур Батуука","name:en":"Terkhiin tsagaan nuur"}},"5774263553":{"location":[48.146492,99.7670278],"ct":"MN","tp":"CS","ts":"2018-07-21T02:39:28Z","tX":795,"tY":355,"tags":{"name:en":"Ger Camp"}},"5774263653":{"location":[48.1468334,99.7722747],"ct":"MN","tp":"CS","ts":"2018-07-21T02:39:29Z","tX":795,"tY":355,"tags":{"name:en":"Free Camping"}},"6645326887":{"location":[48.1543771,99.7507378],"ct":"MN","tp":"CS","ts":"2019-07-25T02:43:59Z","tX":795,"tY":355,"tags":{"name:en":"Tunga ger"}},"6787899686":{"location":[48.1844293,99.785277],"ct":"MN","tp":"CS","ts":"2019-09-11T10:36:30Z","tX":795,"tY":355,"tags":{}},"9022952517":{"location":[48.1871935,99.8054485],"ct":"MN","tp":"CS","ts":"2022-08-06T09:05:19Z","tX":795,"tY":355,"tags":{"addr:city":"Тариат","addr:province":"Архангай","name":"Майхантай буудаллах газар","name:en":"Camping free"}},"9899198301":{"location":[48.1402627,99.7897418],"ct":"MN","tp":"CS","ts":"2022-08-06T09:05:19Z","tX":795,"tY":355,"tags":{"addr:city":"Тариат","addr:province":"Архангай","name":"Майхантай буудаллах газар","name:en":"Camping site"}},"11123450805":{"location":[48.1792763,99.763058],"ct":"MN","tp":"CS","ts":"2023-08-17T17:01:17Z","tX":795,"tY":355,"tags":{}}}