{"719946747":{"location":[41.7848037,41.7629417],"ct":"GE","tp":"CS","ts":"2023-05-17T20:44:14Z","tX":630,"tY":380,"tags":{"access":"yes","addr:city":"ქობულეთი","addr:housenumber":"98","addr:street":"M. Abashidze","charge":"10GEL","description":"Палаточный кемпинг на берегу Черного моря. Автокемпинг с подключением. \"нулевая\" линия моря. Tent camping Georgia Black Sea motorhome caravan campsite","email":"geocamp.ge@gmail.com","fee":"yes","internet_access":"wlan","internet_access:fee":"no","name":"GeoCamp Black Sea","name:de":"Campingplatz GeoCamp","name:en":"Camping GeoCamp BlackSea","name:ru":"Кемпинг ГеоКемп","opening_hours":"Mo-Su 09:00-21:00","operator":"GeoCamp","payment:cards":"yes","payment:cash":"yes","phone":"+995322471106","power_supply":"yes","shower":"yes","start_date":"01.05.2018","toilets":"yes","website":"https://www.geocamp.ge"}},"1167493495":{"location":[42.014824,41.7571165],"ct":"GE","tp":"CS","ts":"2023-04-30T08:16:16Z","tX":630,"tY":380,"tags":{}},"1167493505":{"location":[42.0162408,41.754938],"ct":"GE","tp":"CS","ts":"2023-04-30T08:16:16Z","tX":630,"tY":380,"tags":{}},"1168275019":{"location":[41.9890693,41.7604578],"ct":"GE","tp":"CS","ts":"2024-04-23T07:41:21Z","tX":630,"tY":380,"tags":{"internet_access":"wlan","name":"Camping Ureki","name:ru":"Кемпинг Уреки","opening_hours":"24/7","operator":"Евгений","phone":"+995599804779"}},"1195183538":{"location":[41.9724131,41.7623643],"ct":"GE","tp":"CS","ts":"2023-08-06T08:08:12Z","tX":630,"tY":380,"tags":{"access":"customers","addr:city":"Ozurgeti","addr:place":"კაპროვანი","addr:postcode":"3521","capacity:caravans":"15","capacity:persons":"60","capacity:tents":"25","caravans":"yes","fee":"yes","name":"Green Mall (field)","name:ka":"მწვანე მოლი","name:ru":"Зеленое поле","payment:app":"yes","payment:cash":"yes","static_caravans":"yes","tents":"yes"}},"1323966226":{"location":[41.9718998,41.7611285],"ct":"GE","tp":"CS","ts":"2025-06-17T11:07:39Z","tX":630,"tY":380,"tags":{"caravans":"yes","check_date":"2024-10-01","dog":"yes","email":"blackseacamping@gmail.com","fee":"yes","internet_access":"wlan","name":"Black Sea Camping","name:en":"Black Sea Camping","name:ru":"Кемпинг \"Черноморский\"","opening_hours":"24/7","phone":"+995557710083;+995557710083","picnic_table":"yes","power_supply":"yes","sanitary_dump_station":"yes","shower":"hot","static_caravans":"yes","surface":"grass","tents":"yes","toilets":"yes","website":"https://BlackSeaCamping.com"}},"5792311074":{"location":[41.9729765,41.7613017],"ct":"GE","tp":"CS","ts":"2024-10-14T22:19:50Z","tX":630,"tY":380,"tags":{"caravans":"yes","fee":"no","static_caravans":"yes","tents":"yes"}},"6744392785":{"location":[41.8828664,41.7754375],"ct":"GE","tp":"CS","ts":"2019-08-25T16:34:14Z","tX":630,"tY":380,"tags":{"addr:housenumber":"838","addr:street":"agmashenebeli str 838 / აღაშენებლის 838 Kobuleti","internet_access":"wlan","name:en":"Kampong Kibuleti","opening_hours":"24/7","operator":"raul","phone":"+995 558 642 323","website":"https://instagram.com/campingkobuleti"}},"6937764887":{"location":[41.9717003,41.7618711],"ct":"GE","tp":"CS","ts":"2019-11-01T16:43:17Z","tX":630,"tY":380,"tags":{"email":"singlefincamping@gmail.com","internet_access":"wlan","name:en":"Surf camping single fin","name:ru":"Серф кемпинг сингл фин","opening_hours":"24/7","operator":"Pavel","phone":"+995593175467"}},"9698315217":{"location":[42.0100394,41.7566364],"ct":"GE","tp":"CS","ts":"2022-04-27T16:35:17Z","tX":630,"tY":380,"tags":{"name":"Nice wild camping"}},"9934265117":{"location":[42.0089371,41.7576555],"ct":"GE","tp":"CS","ts":"2022-08-05T17:59:43Z","tX":630,"tY":380,"tags":{"name:en":"everywhere among pine trees"}},"11050563305":{"location":[41.7717987,41.7556676],"ct":"GE","tp":"CS","ts":"2023-07-17T07:57:41Z","tX":630,"tY":380,"tags":{"name:ru":"Место для палатки"}},"5097659024":{"location":[41.8918656,41.7715711],"ct":"GE","tp":"CR","ts":"2023-07-23T12:43:39Z","tX":630,"tY":380,"tags":{"check_date":"2023-07-22","power_supply":"no","sanitary_dump_station":"no"}},"5799126854":{"location":[41.9629573,41.7629879],"ct":"GE","tp":"CR","ts":"2022-08-10T18:01:17Z","tX":630,"tY":380,"tags":{"name:ru":"Кемпинг на въезде в Кобулети","opening_hours":"24/7"}},"5898638485":{"location":[41.8873141,41.7728346],"ct":"GE","tp":"CR","ts":"2023-07-17T19:18:33Z","tX":630,"tY":380,"tags":{"name:ru":"Кемпинг. Место для палаток"}},"5982745885":{"location":[41.9724873,41.7610254],"ct":"GE","tp":"CR","ts":"2024-10-14T22:19:50Z","tX":630,"tY":380,"tags":{"power_supply":"no","sanitary_dump_station":"no"}},"6528073386":{"location":[42.0157935,41.7549474],"ct":"GE","tp":"CR","ts":"2024-02-26T19:57:52Z","tX":630,"tY":380,"tags":{"contact:mobile":"+995 557 71 00 83","email":"blacksandcamp@gmail.com","internet_access":"wlan","name":"შავი ქვიშა","name:en":"Black Sand Camp","name:ru":"Черный Песок","opening_hours":"24/7","website":"http://blackseacamping.com/"}},"6658821301":{"location":[41.9846192,41.7599256],"ct":"GE","tp":"CR","ts":"2019-07-29T20:21:55Z","tX":630,"tY":380,"tags":{"name":"Автокемпинг","name:en":"Kemp","name:ru":"Кемпинг"}}}