{"216733131":{"location":[59.721058,19.0508106],"ct":"SE","tp":"CS","ts":"2022-12-31T02:53:49Z","tX":566,"tY":298,"tags":{"addr:city":"Gräddö","addr:country":"SE","addr:housenumber":"8","addr:postcode":"760 15","addr:street":"Fiskarängsvägen","name":"Kapellskärs Camping","operator":"STF vandrarhem Kapellskär","website":"https://kapellskarscamping.se/"}},"660754340":{"location":[59.7675954,19.0147268],"ct":"SE","tp":"CS","ts":"2024-09-02T10:38:29Z","tX":566,"tY":298,"tags":{"name":"Björkö Örns Havscamping"}},"834630956":{"location":[59.8281173,19.0361755],"ct":"SE","tp":"CS","ts":"2024-08-16T13:53:16Z","tX":566,"tY":298,"tags":{"caravans":"yes","drinking_water":"yes","name":"Skeppsmyra Naturistcamping","power_supply":"yes","shower":"yes","tents":"yes"}},"1373269933":{"location":[59.7269341,19.0660713],"ct":"SE","tp":"CS","ts":"2017-09-10T11:00:02Z","tX":566,"tY":298,"tags":{"access":"private","addr:city":"Gräddö","addr:postcode":"76015","addr:unit":"Pl 872","capacity":"101","contact:email":"reception.kapellskar@cc-camping.se","contact:phone":"+46 727 445601","contact:website":"http://caravanclub.se/","dog":"yes","internet_access":"wlan","name":"Caravan Club Kapellskär","operator":"Caravan Club of Sweden","source:info":"caravanclub.se","source:location":"caravanclub.se","wheelchair":"yes"}},"2960935621":{"location":[59.8534199,19.1127134],"ct":"SE","tp":"CS","ts":"2025-05-06T05:46:24Z","tX":566,"tY":298,"tags":{"email":"info@arholmanord.se","name":"Arholma tältplats","operator":"Arholma Nord","phone":"+46 70 654 2081","tents":"yes","toilets":"yes","website":"https://arholma.nu/besok-arholma/hitta-boende/","wikidata":"Q134366761"}},"5670064974":{"location":[59.7794288,19.0919705],"ct":"SE","tp":"CS","ts":"2025-05-06T05:24:13Z","tX":566,"tY":298,"tags":{"image":"https://commons.wikimedia.org/entity/M163573950","tents":"yes","wikidata":"Q134366690","wikimedia_commons":"Category:Lidö_camp_site"}},"4448464140":{"location":[59.8425896,19.1223094],"ct":"SE","tp":"SD","ts":"2024-07-29T17:09:13Z","tX":566,"tY":298,"tags":{"access":"yes","addr:place":"Arholma Österhamn","boat":"yes","description":"Handpump på flytande brygga + toalett och soptunna","fee":"no","opening_hours":"24/7","sanitary_dump_station:accepted":"black_water","sanitary_dump_station:pump-out":"yes","seamark:light:colour":"yellow","seamark:radar_reflector":"yes","seamark:small_craft_facility:category":"pump-out","seamark:type":"small_craft_facility","vehicle":"no","waterway":"sanitary_dump_station","website":"https://www.hamnkartan.se/marker/d7774692-82e5-4145-a52c-833f04ef4353"}},"4448464148":{"location":[59.74552,19.16322],"ct":"SE","tp":"SD","ts":"2017-09-23T18:46:04Z","tX":566,"tY":298,"tags":{"access":"yes","addr:place":"Fejan","boat":"yes","description":"Vid gasverkskajen, norra udden av Fejan","fee":"no","opening_hours":"24/7","sanitary_dump_station:accepted":"black_water","sanitary_dump_station:pump-out":"yes","seamark:small_craft_facility:category":"pump-out","seamark:type":"small_craft_facility","vehicle":"no","waterway":"sanitary_dump_station","website":"https://hamnkartan.azurewebsites.net"}},"4448464153":{"location":[59.7662511,19.0310357],"ct":"SE","tp":"SD","ts":"2018-08-06T18:24:38Z","tX":566,"tY":298,"tags":{"access":"yes","addr:place":"Gräddo hamn","boat":"yes","fee":"no","opening_hours":"24/7","sanitary_dump_station:accepted":"black_water","sanitary_dump_station:pump-out":"yes","seamark:small_craft_facility:category":"pump-out","seamark:type":"small_craft_facility","vehicle":"no","waterway":"sanitary_dump_station","website":"https://hamnkartan.azurewebsites.net"}}}