{"7243056":{"location":[57.921767,19.0622906],"ct":"SE","tp":"CS","ts":"2017-05-14T01:38:54Z","tX":566,"tY":308,"tags":{}},"419590758":{"location":[57.9955921,19.1807255],"ct":"SE","tp":"PK","ts":"2024-06-26T12:40:50Z","tX":566,"tY":308,"tags":{"fee":"no","motorhome":"yes","parking":"surface","surface":"compacted"}},"431825095":{"location":[57.95597,19.24943],"ct":"SE","tp":"CS","ts":"2022-06-12T20:48:27Z","tX":566,"tY":308,"tags":{"fee":"yes","name":"Strandskogens Camping Sudersand Fårö","phone":"+46498223536","website":"https://www.sudersand.se/vara-boenden/camping/strandskogens-camping/"}},"436131428":{"location":[57.9715204,19.2638527],"ct":"SE","tp":"CS","ts":"2022-05-21T07:55:42Z","tX":566,"tY":308,"tags":{"addr:city":"Fårö","addr:country":"SE","addr:housenumber":"1499","addr:postcode":"62467","addr:street":"Ekeviken","name":"Ekevikens","note":"18/06-2/09","operator":"Ekevikens Camping Fårö AB","phone":"+46733033094","website":"https://ekevikenscamping.se/"}},"696075491":{"location":[57.9722012,19.0963312],"ct":"SE","tp":"PK","ts":"2024-07-24T20:52:13Z","tX":566,"tY":308,"tags":{"motorhome":"yes","parking":"street_side","surface":"compacted"}},"1163078106":{"location":[57.9525563,19.2457535],"ct":"SE","tp":"CR","ts":"2023-04-16T18:21:22Z","tX":566,"tY":308,"tags":{"caravans":"yes","name":"Strandskogens camping","name:en":"The beachside camping","phone":"+46 498-22 35 36","power_supply":"yes","sanitary_dump_station":"yes","tents":"no","toilets":"yes","toilets:wheelchair":"yes","website":"https://www.sudersand.se/vara-boenden/camping/strandcampingen/","wheelchair":"yes"}},"1163078107":{"location":[57.9517753,19.2415],"ct":"SE","tp":"CS","ts":"2023-04-16T18:21:22Z","tX":566,"tY":308,"tags":{"capacity:pitches":"120","caravans":"no","email":"info@sudersand.se","name":"Strandcampingen tältcampingen","name:en":"Beachside Campingsite tent camping area","phone":"+46 498-22 35 36","shower":"yes","tents":"only","toilets":"yes","website":"https://www.sudersand.se/vara-boenden/taltcamping/"}},"12012044712":{"location":[57.9524384,19.0803297],"ct":"SE","tp":"CS","ts":"2024-06-26T09:29:24Z","tX":566,"tY":308,"tags":{"caravan":"yes","fee":"yes","motorhome":"yes","surface":"compacted"}},"6631033167":{"location":[57.9638898,19.0812052],"ct":"SE","tp":"PK","ts":"2024-06-26T10:03:23Z","tX":566,"tY":308,"tags":{"motorhome":"yes","parking":"surface","surface":"gravel"}}}