{"91693643":{"location":[49.7181931,19.179363],"ct":"PL","tp":"CS","ts":"2022-12-26T15:13:31Z","tX":566,"tY":348,"tags":{}},"102217757":{"location":[49.7175536,19.1809326],"ct":"PL","tp":"CR","ts":"2022-10-21T17:04:22Z","tX":566,"tY":348,"tags":{"barrier":"fence"}},"102217761":{"location":[49.7169159,19.1809587],"ct":"PL","tp":"CR","ts":"2023-01-31T15:20:32Z","tX":566,"tY":348,"tags":{"barrier":"fence"}},"102217763":{"location":[49.7163563,19.1810293],"ct":"PL","tp":"CR","ts":"2011-02-28T22:14:53Z","tX":566,"tY":348,"tags":{"barrier":"fence"}},"102217764":{"location":[49.7166455,19.1809596],"ct":"PL","tp":"CR","ts":"2023-01-31T15:20:32Z","tX":566,"tY":348,"tags":{"barrier":"fence"}},"102217768":{"location":[49.7182399,19.1807557],"ct":"PL","tp":"CR","ts":"2023-01-31T15:20:32Z","tX":566,"tY":348,"tags":{"barrier":"fence"}},"102217773":{"location":[49.7158639,19.1813147],"ct":"PL","tp":"CR","ts":"2022-05-25T08:09:42Z","tX":566,"tY":348,"tags":{"barrier":"fence"}},"107966572":{"location":[49.7798153,19.0540101],"ct":"PL","tp":"CR","ts":"2024-11-05T13:59:14Z","tX":566,"tY":348,"tags":{"addr:city":"Bielsko-Biała","addr:housenumber":"43","addr:postcode":"43-300","addr:street":"Pocztowa","capacity":"25","chalet":"yes","ele":"415","email":"kemping57ondraszek@op.pl","facebook":"https://www.facebook.com/profile.php?id=100054196793561","fax":"+48 33 814 36 01","fee":"yes","internet_access":"yes","name":"Camping Ondraszek","phone":"+48 33 814 64 25","ref:pfcc":"57","stars":"1","tents":"yes","website":"https://www.campingondraszek.pl/"}},"162373700":{"location":[49.7763746,19.1052485],"ct":"PL","tp":"CS","ts":"2012-05-06T11:29:35Z","tX":566,"tY":348,"tags":{"area":"yes"}},"162414447":{"location":[49.7613043,19.115615],"ct":"PL","tp":"CS","ts":"2019-09-24T20:41:07Z","tX":566,"tY":348,"tags":{"addr:city":"Wilkowice","addr:housenumber":"2","addr:postcode":"43-365","addr:street":"Harcerska","email":"wilczysko@beskidzki.zhp.pl","name":"Ośrodek Harcerski \"Wilczysko\"","phone":"+48 33 817 03 29","website":"http://wilczysko.zhp.pl/"}},"194821789":{"location":[49.7388303,19.2151589],"ct":"PL","tp":"CS","ts":"2012-12-06T19:59:59Z","tX":566,"tY":348,"tags":{}},"255528472":{"location":[49.71907,19.2103825],"ct":"PL","tp":"CS","ts":"2022-09-19T08:24:56Z","tX":566,"tY":348,"tags":{"name":"Cest La Vie"}},"549209914":{"location":[49.7817922,19.0218613],"ct":"PL","tp":"CS","ts":"2023-10-25T10:13:21Z","tX":566,"tY":348,"tags":{"addr:city":"Bielsko-Biała","addr:housenumber":"15","addr:postcode":"43-316","addr:street":"Karbowa","caravans":"yes","email":"camping99beskid@gmail.com","internet_access":"wlan","name":"Pod Dębowcem","phone":"+48 509 999 505","ref:pfcc":"99","stars":"4","tents":"yes","website":"https://www.camping99beskid.pl/"}},"918774643":{"location":[49.7756357,19.2133736],"ct":"PL","tp":"CS","ts":"2022-09-21T20:32:02Z","tX":566,"tY":348,"tags":{"caravans":"yes","name":"Pole Namiotowe, Kemping - PTG \"Sokół\"","tents":"yes"}},"1119990442":{"location":[49.787959,19.2004437],"ct":"PL","tp":"CS","ts":"2024-09-03T13:04:01Z","tX":566,"tY":348,"tags":{"addr:city":"Międzybrodzie Bialskie","addr:housenumber":"23","addr:postcode":"34-312","addr:street":"Księdza Prałata Jana Banasia","caravans":"yes","facebook":"https://www.facebook.com/nosalowie","name":"Kemping Rodzinny","phone":"+48570167778","static_caravans":"yes","tents":"yes"}},"1119990944":{"location":[49.7885009,19.2003816],"ct":"PL","tp":"CS","ts":"2022-12-06T23:50:32Z","tX":566,"tY":348,"tags":{"area":"yes"}},"1264159840":{"location":[49.7514726,19.2107712],"ct":"PL","tp":"CS","ts":"2021-01-31T22:10:51Z","tX":566,"tY":348,"tags":{"addr:city":"Czernichów","addr:housenumber":"1","addr:postcode":"34-311","addr:street":"Spacerowa","fax":"+48 33 862 40 70","name":"Kran","phone":"+48 661-085-614","website":"http://www.kran.obitur.pl"}},"6702875885":{"location":[49.67352,19.2235371],"ct":"PL","tp":"CS","ts":"2019-08-12T10:52:30Z","tX":566,"tY":348,"tags":{}},"12184039679":{"location":[49.6952833,18.9942014],"ct":"PL","tp":"CS","ts":"2024-09-18T13:03:42Z","tX":566,"tY":348,"tags":{"caravans":"yes","email":"camperpark@zwalisko.pl","name":"ZWALISKO Camper Park SZCZYRK","opening_hours":"24/7","phone":"+48888589034","static_caravans":"yes","tents":"yes","website":"https://zwalisko.pl/"}},"5206955722":{"location":[49.6358069,19.3028149],"ct":"PL","tp":"CR","ts":"2017-11-02T18:23:04Z","tX":566,"tY":348,"tags":{"name":"Pole namiotowe. Chatka harcerska","name:pl":"Pole namiotowe. Chatka harcerska"}},"5484998435":{"location":[49.7886362,19.2010091],"ct":"PL","tp":"CR","ts":"2018-03-17T17:18:02Z","tX":566,"tY":348,"tags":{"name":"Eden"}}}