{"285826533":{"location":[47.9490846,19.0283103],"ct":"HU","tp":"CS","ts":"2024-01-30T00:04:47Z","tX":566,"tY":356,"tags":{"addr:city":"Diósjenő","addr:housenumber":"61","addr:postcode":"2643","addr:street":"Petőfi Sándor utca","email":"kemping@patakpart.hu","name":"Diósjenői kemping","operator":"Patakpart Egészségügyi Központ Kft.","phone":"+36 35 364 134","website":"http://patakpart.hu/"}},"380700288":{"location":[47.833433,19.0245869],"ct":"HU","tp":"CS","ts":"2024-06-18T07:44:57Z","tX":566,"tY":356,"tags":{"addr:city":"Verőce","addr:postbox":"28","addr:postcode":"2621","addr:street":"Csattogó völgy","alt_name":"Kemping, Csattogó völgy","cabins":"yes","email":"info@csattogovolgy.hu","leisure":"summer_camp","name":"Csattogó Völgyi Üdülőházak","phone":"+36 27 581 290","scout":"yes","website":"https://csattogovolgy.hu/"}},"400200086":{"location":[47.9144778,19.1806615],"ct":"HU","tp":"CS","ts":"2016-02-26T14:14:15Z","tX":566,"tY":356,"tags":{"name":"Bánki tábor","url":"http://www.bankitabor.hu/"}},"511112228":{"location":[47.8405236,19.0982512],"ct":"HU","tp":"CS","ts":"2022-08-19T10:20:45Z","tX":566,"tY":356,"tags":{"group_only":"yes","name":"Katalinpusztai diáktábor"}},"707472305":{"location":[47.7700425,19.1322001],"ct":"HU","tp":"CS","ts":"2023-11-10T07:19:47Z","tX":566,"tY":356,"tags":{"name":"Göncöl House Camping","phone":"+36 20 772 7970","website":"https://goncol.hu/"}},"708374905":{"location":[47.8074657,18.9896729],"ct":"HU","tp":"CS","ts":"2022-07-10T09:09:29Z","tX":566,"tY":356,"tags":{"camp_site":"basic","ele":"100","fee":"yes","website":"https://kisoroszionline.hu/szigetcsucs"}},"861019690":{"location":[47.7711681,19.1167345],"ct":"HU","tp":"CS","ts":"2022-05-22T17:33:31Z","tX":566,"tY":356,"tags":{"access":"private","addr:city":"Tahitótfalu","addr:postcode":"2021","barrier":"fence","name":"Isten Tábora","official_name":"Budapesti Fasori Egyházközség Konferenciatelepe","operator":"Budapesti Fasori Egyházközség"}},"1049956574":{"location":[47.8000813,18.9993968],"ct":"HU","tp":"CS","ts":"2022-04-19T19:05:12Z","tX":566,"tY":356,"tags":{"name":"Mócsai-tanya táborozóhely"}},"1856951966":{"location":[47.7744118,19.104427],"ct":"HU","tp":"CS","ts":"2022-05-22T11:25:30Z","tX":566,"tY":356,"tags":{}},"3439051231":{"location":[47.8374019,19.0040156],"ct":"HU","tp":"CS","ts":"2021-09-20T19:32:03Z","tX":566,"tY":356,"tags":{"addr:city":"Kismaros","addr:housenumber":"128","addr:postcode":"2623","addr:street":"Szokolyai út","addr:suburb":"Börzsönyliget","description":"Egy nagyobb kőépület és több 5 férőhelyes faház; érdeklődni a 06-1/266-1051 számon lehet; gondnok:Schottner Györgyné 06-30/283-2514","name":"Kismaros-Börzsönyligeti Gyermek- és Ifjúsági Tábor (PMGYIA)","source":"turistautak.hu","source:date":"2011-06-28","url":"http://turistautak.hu/poi.php?id=71159"}},"3439051324":{"location":[47.8482673,19.0549924],"ct":"HU","tp":"CS","ts":"2023-05-11T04:21:50Z","tX":566,"tY":356,"tags":{"fixme":"please check exact position and fix if inaccurate","is_in":"Magyarkút","mapillary:image":"262349872926207","name":"Sátorhely","note":"kemping vagy sátorhely nem észlelhető javaslat: elem törlése","source":"turistautak.hu","source:date":"2013-06-22","url":"http://turistautak.hu/poi.php?id=2941"}},"3441690573":{"location":[47.7975227,18.9941658],"ct":"HU","tp":"CS","ts":"2023-11-16T17:57:24Z","tX":566,"tY":356,"tags":{"addr:city":"Visegrád","addr:postcode":"2025","addr:street":"Mogyoróhegy","contact:fax":"+36 26 398 237","email":"jurta.kemping@t-online.hu","name":"Jurta Kemping","note":"Bejelentkezés: Kozsa Csaba +36 20 399 7002 Recepció a büfében található!","phone":"+36 26 398217; +36 20 399 7002","source":"turistautak.hu","source:date":"2014-02-06","url":"http://turistautak.hu/poi.php?id=15257","website":"http://www.kemping.hu/jurta"}},"3441705153":{"location":[47.7679,19.07735],"ct":"HU","tp":"CS","ts":"2022-08-17T11:45:23Z","tX":566,"tY":356,"tags":{"backcountry":"yes","source":"turistautak.hu","source:date":"2014-02-06","url":"http://turistautak.hu/poi.php?id=26669"}},"3441705173":{"location":[47.801344,18.996819],"ct":"HU","tp":"CS","ts":"2015-04-06T20:57:35Z","tX":566,"tY":356,"tags":{"name":"Vándortábor","source":"turistautak.hu","source:date":"2014-02-06","url":"http://turistautak.hu/poi.php?id=157990"}},"3441705782":{"location":[47.796893,19.031989],"ct":"HU","tp":"CS","ts":"2015-04-06T20:58:12Z","tX":566,"tY":356,"tags":{"source":"turistautak.hu","source:date":"2011-04-07","url":"http://turistautak.hu/poi.php?id=56823"}},"3456335636":{"location":[47.86037,19.07299],"ct":"HU","tp":"CS","ts":"2015-04-14T21:31:14Z","tX":566,"tY":356,"tags":{"name":"Táborozó hely","source":"turistautak.hu","source:date":"2014-10-16","url":"http://turistautak.hu/poi.php?id=2944"}},"3456392141":{"location":[47.921236,19.181432],"ct":"HU","tp":"CS","ts":"2020-05-12T21:34:26Z","tX":566,"tY":356,"tags":{"addr:city":"Bánk","addr:housenumber":"85","addr:postcode":"2653","addr:street":"Petőfi út","email":"csizmar.gabor@hotmail.com","name":"Nádas Kemping","phone":"+36 30 351 3818","source":"turistautak.hu","source:date":"2012-05-01","url":"http://turistautak.hu/poi.php?id=56084"}},"4807631121":{"location":[47.7559944,19.0806761],"ct":"HU","tp":"CS","ts":"2020-09-06T14:00:42Z","tX":566,"tY":356,"tags":{"backcountry":"yes","description:en":"picnic_site","description:hu":"evezős hagyományos sátorozóhely, \"vadkemping\"","name":"evezős táborhely"}},"9762164908":{"location":[47.7719312,19.1166851],"ct":"HU","tp":"CS","ts":"2022-05-22T17:33:14Z","tX":566,"tY":356,"tags":{"addr:city":"Tahitótfalu","addr:postcode":"2021","group_only":"yes","name":"Tahitótfalu Ifjúsági Tábor"}},"11250717016":{"location":[47.7959841,19.0351894],"ct":"HU","tp":"CS","ts":"2023-10-09T09:54:37Z","tX":566,"tY":356,"tags":{}}}