{"8009816":{"location":[47.5917659,19.2486667],"ct":"HU","tp":"CS","ts":"2018-07-29T15:10:44Z","tX":566,"tY":357,"tags":{"operator":"Aquaréna"}},"242799143":{"location":[47.6623618,19.1067396],"ct":"HU","tp":"CS","ts":"2020-10-20T10:59:03Z","tX":566,"tY":357,"tags":{"addr:city":"Szigetmonostor","addr:conscriptionnumber":"027/2","addr:postcode":"2015","addr:street":"Szentendrei út","addr:suburb":"Horány","barrier":"fence","name":"Árnyas Sziget Ifjúsági Tábor","operator":"Szalamandra Egyesület, Árnyas Sziget Kft."}},"242799508":{"location":[47.6636182,19.1110736],"ct":"HU","tp":"CS","ts":"2018-06-02T14:42:49Z","tX":566,"tY":357,"tags":{"addr:city":"Szigetmonostor","addr:housenumber":"16","addr:postcode":"2015","addr:street":"Parti utca","addr:suburb":"Horány","name":"Regatta Szabadidőközpont"}},"346500869":{"location":[47.6530901,19.2810331],"ct":"HU","tp":"CS","ts":"2024-04-27T21:50:49Z","tX":566,"tY":357,"tags":{"addr:city":"Veresegyház","addr:housenumber":"1","addr:postcode":"2112","addr:street":"Találkozók útja","leisure":"water_park","name":"Veresegyházi Termálfürdő és Kemping","phone":"+36 28 386 995","website":"http://vizesveres.veresegyhaz.hu/termalfurdo/","wikimedia_commons":"File:Termálfűrdő, bejárat, 2019 Veresegyház.jpg"}},"612720126":{"location":[47.6016912,19.0195931],"ct":"HU","tp":"CS","ts":"2021-05-13T13:20:05Z","tX":566,"tY":357,"tags":{"addr:city":"Üröm","addr:housenumber":"23-25","addr:postcode":"2096","addr:street":"Budakalászi út","barrier":"fence","contact:email":"jumbo@campingbudapest.com;jumbocamping@gmail.com","contact:phone":"+36 26 351251","name":"Jumbo Camping"}},"707456948":{"location":[47.6816935,19.0840161],"ct":"HU","tp":"CS","ts":"2022-03-17T10:26:10Z","tX":566,"tY":357,"tags":{"access":"customers","cabins":"yes","dog":"yes","email":"info@pap-sziget.com","fee":"yes","internet_access":"wlan","internet_access:fee":"no","name":"Pap-Sziget Camping","payment:cash":"yes","phone":"+36 26 310 697","swimming_pool":"yes","tents":"yes","washing_machine":"yes","website":"https://pap-sziget.com"}},"736032646":{"location":[47.6275428,19.0933969],"ct":"HU","tp":"CS","ts":"2021-04-25T10:18:06Z","tX":566,"tY":357,"tags":{"description:hu":"picnic_site","motor_vehicle":"no","name":"5-ös kő, evezős táborhely","operator":"vadkemping"}},"821480247":{"location":[47.6204535,19.0785072],"ct":"HU","tp":"CS","ts":"2020-07-01T11:08:52Z","tX":566,"tY":357,"tags":{}},"891514359":{"location":[47.5875118,19.2488112],"ct":"HU","tp":"CS","ts":"2021-01-03T14:28:10Z","tX":566,"tY":357,"tags":{"barrier":"fence","name":"RING kemping"}},"1196684058":{"location":[47.5815344,19.2607612],"ct":"HU","tp":"CS","ts":"2025-01-11T16:08:35Z","tX":566,"tY":357,"tags":{"barrier":"fence","caravans":"yes","name":"Kamarás","tents":"no"}},"3471889592":{"location":[47.5999489,19.2603232],"ct":"HU","tp":"CS","ts":"2023-11-16T17:57:24Z","tX":566,"tY":357,"tags":{"addr:city":"Mogyoród","addr:housenumber":"5","addr:postcode":"2146","addr:street":"Sörfőző utca","contact:fax":"+36 28 540 646","email":"marcelpanzio@vnet.hu","name":"Marcel Panzió- Pizzéria- Camping","phone":"+36 28 540 645;+36 70 210 8023","source":"turistautak.hu","source:date":"2011-05-16","url":"http://turistautak.hu/poi.php?id=15170","website":"http://www.marcelpanzio.vnet.hu"}},"10021448705":{"location":[47.6294785,19.0716909],"ct":"HU","tp":"CS","ts":"2024-05-03T11:17:48Z","tX":566,"tY":357,"tags":{"link":"https://www.lupaglamping.com/","name":"Lupa Glaping"}}}