{"3029094885":{"location":[47.2518843,19.1022995],"ct":"HU","tp":"CS","ts":"2020-11-21T13:11:02Z","tX":566,"tY":359,"tags":{"addr:city":"Délegyháza","addr:housenumber":"4","addr:postcode":"2337","addr:street":"Nomád part","capacity":"50","dog":"yes","image":"https://www.tavirozsakemping.hu/gfx/tavirozsa_kemping_foto.jpg","internet_access":"wlan","name":"Tavirózsa Kemping","phone":"+36 30 416 6426","power_supply":"yes","shower":"yes","smoking":"outside","toilets":"yes","website":"https://www.tavirozsakemping.hu/","wheelchair":"yes"}},"3311821680":{"location":[47.1265571,18.9927661],"ct":"HU","tp":"CS","ts":"2015-01-26T10:26:43Z","tX":566,"tY":359,"tags":{}},"4583554389":{"location":[47.2633594,19.0656161],"ct":"HU","tp":"CS","ts":"2018-06-23T21:40:14Z","tX":566,"tY":359,"tags":{"name":"Kamionos-tó"}},"4888141939":{"location":[47.2524632,19.1013659],"ct":"HU","tp":"CS","ts":"2020-11-21T13:21:57Z","tX":566,"tY":359,"tags":{"dog":"yes","name":"Tavirózsa Kemping strand","phone":"+36 30 416 6426","toilets":"yes","website":"https://www.tavirozsakemping.hu/"}},"5090024899":{"location":[47.2741437,19.3049379],"ct":"HU","tp":"CS","ts":"2017-09-08T20:45:41Z","tX":566,"tY":359,"tags":{"name":"Kelet-Európa Misszió"}},"8932322876":{"location":[47.0988683,19.0013489],"ct":"HU","tp":"CS","ts":"2021-07-19T07:59:39Z","tX":566,"tY":359,"tags":{"contact:email":"strand.domsod@gmail.com","contact:phone":"+36 30 911 1488","name":"Dömsöd Strand-Kemping","website":"https://domsod-strand-es-kemping.webnode.hu/"}},"9838232317":{"location":[47.2505686,19.0995169],"ct":"HU","tp":"CS","ts":"2022-07-01T16:01:08Z","tX":566,"tY":359,"tags":{"addr:city":"Délegyháza","addr:conscriptionnumber":"1318","addr:postcode":"2337","addr:street":"Naturista part","contact:website":"https://naturista.hu/kemping/","fee":"yes","fixme":"resurvey extents","name":"Naturista oázis kemping","nudism":"obligatory"}},"10633288321":{"location":[47.2600516,19.0940291],"ct":"HU","tp":"CS","ts":"2023-02-09T16:55:47Z","tX":566,"tY":359,"tags":{}}}