{"677776758":{"location":[45.8021864,19.0959637],"ct":"RS","tp":"CS","ts":"2019-03-19T00:29:31Z","tX":566,"tY":365,"tags":{"access":"yes","addr:city":"Sombor","addr:street":"Гаковачки пут","capacity":"2"}},"3702853134":{"location":[45.7671976,19.1069362],"ct":"RS","tp":"CS","ts":"2023-10-07T18:14:10Z","tX":566,"tY":365,"tags":{"fee":"yes","name":"Long Tour Bike Camp","phone":"+38166437172","website":"www.longtour.org"}},"6679787528":{"location":[45.7520062,19.1017538],"ct":"RS","tp":"CS","ts":"2024-05-06T17:07:04Z","tX":566,"tY":365,"tags":{"addr:housenumber":"9a","addr:postcode":"25000","addr:street":"Венац Петрове горе","bicycle":"yes","cabins":"yes","caravans":"yes","drinking_water":"yes","email":"office@campingsosul.com","internet_access":"wlan","motor_vehicle":"yes","name":"Sosul","opening_hours":"Mo-Su 08:00-22:00","phone":"+38125426274","ref:RS:kucni_broj":"5170432","shower":"yes","tents":"yes","website":"http://www.campingsosul.com"}},"8260322943":{"location":[45.7718114,19.0739311],"ct":"RS","tp":"CS","ts":"2020-12-25T20:00:12Z","tX":566,"tY":365,"tags":{}}}