{"5145926530":{"location":[45.0419452,19.262234],"ct":"RS","tp":"CS","ts":"2022-05-27T11:20:34Z","tX":566,"tY":368,"tags":{}},"9893901621":{"location":[45.0188108,19.2269516],"ct":"RS","tp":"CS","ts":"2022-07-17T20:16:44Z","tX":566,"tY":368,"tags":{"name":"Camping Morovic","phone":"+381637711060","website":"http://www.campingmorovic.com"}},"5793648254":{"location":[45.0479145,19.1982379],"ct":"RS","tp":"CR","ts":"2024-04-07T21:04:59Z","tX":566,"tY":368,"tags":{"addr:city":"Батровци","addr:country":"RS","addr:housenumber":"4","addr:postcode":"22251","addr:street":"Венеција","brand":"MOL","brand:wikidata":"Q549181","brand:wikipedia":"sr:MOL","contact:email":"customer.care@molserbia.rs","contact:facebook":"https://www.facebook.com/mol.srbija","contact:instagram":"https://www.instagram.com/mol_serbia/","contact:linkedin":"https://www.linkedin.com/company/intemol-doo-part-of-mol-group","contact:phone":"+381631065926","contact:website":"https://molserbia.rs/","contact:youtube":"https://www.youtube.com/channel/UCt7EfbZNiy8Xz_tB1FMYzSg","fuel:GTL_diesel":"yes","fuel:diesel":"yes","fuel:lpg":"yes","fuel:octane_100":"yes","fuel:octane_95":"yes","image":"https://storage12.openstreetcam.org/files/photo/2019/7/17/lth/1588401_80c42_2351.jpg","name":"MOL","name:sr":"МОЛ","name:sr-Latn":"MOL","official_name":"MOL Batrovci 2","opening_hours":"24/7","payment:cash":"yes","payment:mastercard":"yes","payment:visa":"yes","survey:date":"2019-07-17","toilets":"yes"}}}