{"235898530":{"location":[43.0951532,19.1045797],"ct":"ME","tp":"CS","ts":"2024-07-30T06:07:36Z","tX":566,"tY":375,"tags":{"name":"Etno Selo Katun"}},"456398305":{"location":[43.1350714,19.0089584],"ct":"ME","tp":"CS","ts":"2021-09-16T14:40:10Z","tX":566,"tY":375,"tags":{"backcountry":"yes","name":"Škrčka jezera","name:sr":"Шкрчка језера","name:sr-Latn":"Škrčka jezera"}},"514260301":{"location":[43.1552322,19.1005658],"ct":"ME","tp":"CS","ts":"2024-06-26T08:30:43Z","tX":566,"tY":375,"tags":{"caravans":"yes","contact:email":"minakamp@gmail.com","contact:mobile":"+382 69 497 625","contact:phone":"+382 69 821 730","fee":"yes","internet_access":"wlan","motor_vehicle":"yes","name":"8€","name:sr":"Млински Поток","nudism":"no","sanitary_dump_station":"customers","shower":"warm","tents":"yes","website":"https://autocampmlinskipotok.com"}},"1206559288":{"location":[43.1437006,19.1159669],"ct":"ME","tp":"CS","ts":"2023-09-10T08:51:07Z","tX":566,"tY":375,"tags":{"cabins":"yes","capacity:cabins":"11","capacity:caravans":"30","capacity:tents":"50","email":"novak.vojinovic@t-com.me","fee":"yes","motorhome":"yes","name":"Kod Boće","name:en":"Kod Boće","name:sr":"Код Боће","phone":"+382 69 223 218","shower":"hot","tents":"yes","toilets":"yes","website":"http://www.kampkodboce.me/"}},"1314393729":{"location":[43.0953018,19.1303542],"ct":"ME","tp":"CS","ts":"2024-09-09T14:58:06Z","tX":566,"tY":375,"tags":{"cabins":"yes","caravans":"yes","drinking_water":"yes","fee":"yes","internet_access":"wlan","lit":"yes","motorhome":"yes","operator":"Durmitor tea , Žabljak, Kovčica village, Montenegro","phone":"+382 69 377 367","power_supply":"yes","sanitary_dump_station":"yes","shower":"yes","tents":"yes","toilets":"yes","waste_disposal":"yes"}},"2102190298":{"location":[43.1487183,19.299932],"ct":"ME","tp":"CS","ts":"2024-08-06T10:09:56Z","tX":566,"tY":375,"tags":{"caravans":"yes","drinking_water":"yes","internet_access":"wlan","internet_access:fee":"no","name":"Kamp Kljajevića luka","name:de":"Kamp Kljajevića luka","name:en":"Kamp Kljajevića luka","name:zh":"漂流露营滑索","power_supply":"yes","shower":"yes","tents":"yes","toilets":"yes","website":"http://tara-rafting.info"}},"2420741711":{"location":[43.1445112,19.1126229],"ct":"ME","tp":"CS","ts":"2024-06-19T09:00:31Z","tX":566,"tY":375,"tags":{"cabins":"yes","contact:website":"https://razvrsje.com/","email":"info@razvrsje.com","motorhome":"yes","name":"Autocamp Razvršje","name:en":"Autocamp Razvršje","phone":"+38252 361383","tents":"yes","website":"https://razvrsje.com/"}},"2439782501":{"location":[43.1032851,19.0176238],"ct":"ME","tp":"CS","ts":"2022-11-11T17:33:36Z","tX":566,"tY":375,"tags":{"name":"Torba"}},"2489382999":{"location":[43.1451372,19.2964273],"ct":"ME","tp":"CS","ts":"2019-03-20T13:30:50Z","tX":566,"tY":375,"tags":{"name":"Camp Most","phone":"+382068298449","website":"https://www.tarakularaft.com/"}},"4124550590":{"location":[43.1343989,19.0627037],"ct":"ME","tp":"CS","ts":"2024-06-23T17:34:17Z","tX":566,"tY":375,"tags":{"name":"Durmitor Camp"}},"4308443241":{"location":[43.1530074,19.0975107],"ct":"ME","tp":"CS","ts":"2016-07-18T08:01:16Z","tX":566,"tY":375,"tags":{"charge":"7.5 € / 2 persons","contact:website":"http://www.autocamp-ivando.com","name":"Ivan Do","name:en":"Ivan Do","name:sr":"Иван До","shower":"hot"}},"8000038773":{"location":[43.1662334,19.2802157],"ct":"ME","tp":"CS","ts":"2020-10-12T12:13:29Z","tX":566,"tY":375,"tags":{"name":"Rafting Camping Tara"}},"8022443685":{"location":[43.1559882,19.2954974],"ct":"ME","tp":"CS","ts":"2020-10-19T15:46:54Z","tX":566,"tY":375,"tags":{"name:en":"Camping"}},"11176498632":{"location":[43.1668269,19.1281329],"ct":"ME","tp":"CS","ts":"2023-09-08T11:48:10Z","tX":566,"tY":375,"tags":{"email":"danicaaskovic@gmail.com","name":"Atletski kamp i Prenoćište Ašković","phone":"+38267362372"}},"6043826605":{"location":[43.1515749,19.102491],"ct":"ME","tp":"CR","ts":"2025-06-10T19:59:47Z","tX":566,"tY":375,"tags":{}},"12165719730":{"location":[43.0956097,19.1303904],"ct":"ME","tp":"SD","ts":"2024-09-09T14:58:06Z","tX":566,"tY":375,"tags":{}}}