{"17330325":{"location":[42.3553744,19.029153],"ct":"ME","tp":"CR","ts":"2024-03-10T19:38:53Z","tX":566,"tY":378,"tags":{"natural":"wetland","seasonal":"yes","wetland":"wet_meadow"}},"1206784203":{"location":[42.3241919,19.1344829],"ct":"ME","tp":"CS","ts":"2024-09-16T12:37:40Z","tX":566,"tY":378,"tags":{"caravans":"yes","fee":"yes","name":"Dodoši","shower":"yes","static_caravans":"yes","tents":"yes"}},"1315918415":{"location":[42.3187809,19.1800719],"ct":"ME","tp":"CS","ts":"2024-09-16T12:37:40Z","tX":566,"tY":378,"tags":{"cabins":"yes","internet_access":"wlan","name":"Wooden Village Resort"}},"4016562198":{"location":[42.4839239,19.3064486],"ct":"ME","tp":"CS","ts":"2024-11-07T15:06:28Z","tX":566,"tY":378,"tags":{"caravans":"yes","name":"Izvor","tents":"no"}},"4183229689":{"location":[42.4400531,19.2260085],"ct":"ME","tp":"CR","ts":"2016-05-13T11:03:38Z","tX":566,"tY":378,"tags":{"name":"ĐURIŠIĆI"}},"6265953889":{"location":[42.4986225,19.2061604],"ct":"ME","tp":"CS","ts":"2019-02-08T13:48:08Z","tX":566,"tY":378,"tags":{"internet_access":"wlan","name:ar":"كامب سبوز","name:en":"Camp Spuz","website":"https://about.me/LoperAhmed"}},"6537313386":{"location":[42.3151078,19.0621852],"ct":"ME","tp":"CS","ts":"2022-07-09T19:41:43Z","tX":566,"tY":378,"tags":{"addr:postcode":"81250","addr:street":"Čukovići b.b.","email":"zenga1980@gmail.com","internet_access":"wlan","name:en":"Macanov Brijeg","opening_hours":"24/7","operator":"Goran Vujović","phone":"+38267875959"}},"8781695717":{"location":[42.46834,19.25781],"ct":"ME","tp":"CS","ts":"2021-05-30T17:48:38Z","tX":566,"tY":378,"tags":{"name:en":"Camping and barbecue place (free)"}},"9125017152":{"location":[42.4876028,19.3095204],"ct":"ME","tp":"CS","ts":"2022-10-29T07:34:09Z","tX":566,"tY":378,"tags":{"backcountry":"no","drinking_water":"yes","fee":"yes","internet_access":"wlan","internet_access:fee":"customers","name":"Titograd","power_supply":"yes","shower":"yes","toilets":"yes"}},"9648136930":{"location":[42.46045,19.1541677],"ct":"ME","tp":"CS","ts":"2023-10-28T01:45:37Z","tX":566,"tY":378,"tags":{"addr:city":"Podgorica","addr:postcode":"81000","addr:street":"Baloči","capacity:caravans":"100","capacity:persons":"200","charge":"20,00","description":"Located in Podgorica, 10 min driving from city center, family owned, cultivated area with vineyard   - 5 min walking from Matica river   - Auto camp is open all year   - Camp facilities include: parking, toilette (shower with hot water, space for dishwash","email":"info@anitra.me","fee":"yes","name":"Auto camp Matica","payment:cash":"yes","payment:credit_cards":"yes","payment:mastercard":"yes","payment:visa":"yes","phone":"+38269101003","power_supply":"yes","shower":"yes","toilets":"yes","website":"https://www.anitra.me/"}},"9814949336":{"location":[42.3555182,19.0289706],"ct":"ME","tp":"CS","ts":"2024-06-21T18:49:38Z","tX":566,"tY":378,"tags":{"email":"bogdanstijepovic123@gmail.com","name":"Camping Rijeka Crnojevica","phone":"+38267815472"}},"9900136417":{"location":[42.3557436,19.0289004],"ct":"ME","tp":"CS","ts":"2022-07-20T16:13:46Z","tX":566,"tY":378,"tags":{"name:en":"The Camp"}},"11148637622":{"location":[42.5421363,19.1662345],"ct":"ME","tp":"CS","ts":"2023-08-27T17:34:49Z","tX":566,"tY":378,"tags":{"name":"Kamp Čuk"}},"11985964341":{"location":[42.3734667,19.0958865],"ct":"ME","tp":"CS","ts":"2024-06-16T19:19:46Z","tX":566,"tY":378,"tags":{"backcountry":"yes","caravans":"yes","internet_access:fee":"no","name":"Auto Camp Lucha - Rvaši","tents":"yes","wheelchair":"limited"}},"12811411330":{"location":[42.3585762,19.0430661],"ct":"ME","tp":"CS","ts":"2025-05-05T10:54:36Z","tX":566,"tY":378,"tags":{"name":"Skadar Lake Family Resort","website":"https://skadarlake.me/"}}}