{"73638362":{"location":[44.4790673,-77.6845642],"ct":"CA","tp":"CR","ts":"2020-01-13T21:22:04Z","tX":291,"tY":370,"tags":{"addr:housenumber":"33","addr:street":"Crowe Valley Court","name":"Crowe Valley Campground/Resort","source":"CanVec 6.0 - NRCan","website":"https://www.crowevalleycamp.com/"}},"73639209":{"location":[44.4880634,-77.6261102],"ct":"CA","tp":"CR","ts":"2022-11-07T12:00:10Z","tX":291,"tY":370,"tags":{"addr:housenumber":"178","alt_name":"KOA Campground","brand":"KOA","brand:wikidata":"Q16988635","name":"Heritage Trails Campground","short_name":"KOA"}},"73758364":{"location":[44.4630382,-77.4508531],"ct":"CA","tp":"CR","ts":"2022-03-23T21:41:44Z","tX":291,"tY":370,"tags":{"addr:housenumber":"302","addr:street":"Quin Mo Lac Road","name":"Loon Lake Resort","phone":"+1 866-473-0766","power_supply":"yes","sanitary_dump_station":"yes","website":"http://www.loonlakeresort.ca/wp/"}},"74654213":{"location":[44.5014367,-77.4434088],"ct":"CA","tp":"CR","ts":"2012-07-31T01:50:35Z","tX":291,"tY":370,"tags":{"name":"Pitts Landing","source":"CanVec 6.0 - NRCan"}},"74654443":{"location":[44.5022268,-77.4340213],"ct":"CA","tp":"CR","ts":"2012-07-31T01:50:34Z","tX":291,"tY":370,"tags":{"name":"Crystal Beach","source":"CanVec 6.0 - NRCan"}},"842199264":{"location":[44.5023508,-77.5192871],"ct":"CA","tp":"CR","ts":"2020-08-29T17:13:43Z","tX":291,"tY":370,"tags":{"addr:housenumber":"105336","addr:street":"Highway 7","name":"Quality R V Campground","power_supply":"yes","sanitary_dump_station":"yes","website":"http://www.qualityrv.ca/"}},"873201246":{"location":[44.4864937,-77.459338],"ct":"CA","tp":"CS","ts":"2010-08-22T02:27:32Z","tX":291,"tY":370,"tags":{"source":"CanVec 6.0 - NRCan"}},"1309966431":{"location":[44.4894279,-77.4301635],"ct":"CA","tp":"CS","ts":"2024-08-22T22:59:52Z","tX":291,"tY":370,"tags":{"access":"private","caravans":"no","group_only":"yes","name":"Camp Quin-Mo-Lac","static_caravans":"no","tents":"no"}}}