{"855661925":{"location":[39.9879618,-77.4013736],"ct":"US","tp":"CR","ts":"2024-04-28T19:17:25Z","tX":291,"tY":387,"tags":{"addr:city":"Biglerville","addr:country":"US","addr:housenumber":"1975","addr:postcode":"17307","addr:state":"PA","addr:street":"Birch Run Road","email":"fd01@pa.gov","fee":"yes","internet_access":"no","name":"Big Flat Parking Lot","operator":"Pennsylvania Department of Conservation and Natural Resources","parking":"surface","phone":"+1 717-352-2211","reservation":"required","sanitary_dump_station":"no","tents":"yes","website":"https://www.dcnr.pa.gov/StateForests/FindAForest/Michaux/Pages/Camping.aspx","wheelchair":"limited","wikipedia":"en:Michaux State Forest"}},"855701638":{"location":[39.9867049,-77.4022604],"ct":"US","tp":"CR","ts":"2024-04-28T19:17:25Z","tX":291,"tY":387,"tags":{"addr:city":"Biglerville","addr:country":"US","addr:housenumber":"1975","addr:postcode":"17307","addr:state":"PA","addr:street":"Birch Run Road","email":"fd01@pa.gov","fee":"yes","internet_access":"no","name":"Big Flat Parking Lot - Michaux Campsite #1","operator":"Pennsylvania Department of Conservation and Natural Resources","phone":"+1 717-352-2211","reservation":"required","sanitary_dump_station":"no","tents":"yes","website":"https://www.dcnr.pa.gov/StateForests/FindAForest/Michaux/Pages/Camping.aspx","wheelchair":"limited","wikipedia":"en:Michaux State Forest"}},"890976529":{"location":[39.9941579,-77.40088],"ct":"US","tp":"CS","ts":"2023-12-21T22:48:25Z","tX":291,"tY":387,"tags":{"addr:city":"Menallen Township","addr:housenumber":"2635","addr:postcode":"17307","addr:state":"PA","addr:street":"Shippensburg Road","cabins":"yes","caravans":"yes","drinking_water":"yes","fee":"yes","name":"Pine Ridge Campground","openfire":"yes","phone":"+17173160040","power_supply":"yes","sanitary_dump_station":"yes","shower":"yes","toilets":"yes","website":"https://staypineridge.com/"}},"1106696461":{"location":[39.9699804,-77.46984],"ct":"US","tp":"CS","ts":"2024-04-28T19:17:25Z","tX":291,"tY":387,"tags":{"email":"fd01@pa.gov","fee":"yes","internet_access":"no","name":"Haunted Hollow - Michaux Campsite #9","operator":"Pennsylvania Department of Conservation and Natural Resources","phone":"+1 717-352-2211","reservation":"required","tents":"yes","website":"https://www.dcnr.pa.gov/StateForests/FindAForest/Michaux/Pages/Camping.aspx","wheelchair":"no","wikipedia":"en:Michaux State Forest"}},"1122811276":{"location":[39.9114115,-77.4804067],"ct":"US","tp":"CS","ts":"2022-12-17T01:50:54Z","tX":291,"tY":387,"tags":{"name":"Chinquapin Hill Campground"}},"1122811277":{"location":[39.9155128,-77.469904],"ct":"US","tp":"CS","ts":"2022-12-17T01:50:54Z","tX":291,"tY":387,"tags":{"name":"Hosack Run Campground"}},"1295708530":{"location":[39.9113594,-77.4708612],"ct":"US","tp":"CS","ts":"2024-06-24T12:39:10Z","tX":291,"tY":387,"tags":{"caravans":"no","fee":"yes","group_only":"yes","name":"Caledonia State Park Group Camping","operator":"DCNR","static_caravans":"no","tents":"yes"}},"8301472924":{"location":[40.0164631,-77.3462793],"ct":"US","tp":"CS","ts":"2024-04-28T19:12:08Z","tX":291,"tY":387,"tags":{"backcountry":"yes","email":"fd01@pa.gov","fee":"yes","internet_access":"no","name":"Sawmill - Michaux Campsite #5","operator":"Pennsylvania Department of Conservation and Natural Resources","phone":"+1 717-352-2211","reservation":"required","tents":"yes","website":"https://www.dcnr.pa.gov/StateForests/FindAForest/Michaux/Pages/Camping.aspx","wheelchair":"no","wikipedia":"en:Michaux State Forest"}},"8301472925":{"location":[40.0193356,-77.3529362],"ct":"US","tp":"CS","ts":"2024-04-27T16:27:31Z","tX":291,"tY":387,"tags":{"backcountry":"yes","email":"fd01@pa.gov","fee":"yes","internet_access":"no","name":"Woodrow Campsite - Michaux Campsite #7","operator":"Pennsylvania Department of Conservation and Natural Resources","phone":"+1 717-352-2211","reservation":"required","tents":"yes","website":"https://www.dcnr.pa.gov/StateForests/FindAForest/Michaux/Pages/Camping.aspx","wheelchair":"no","wikipedia":"en:Michaux State Forest"}},"8301472926":{"location":[40.0232765,-77.3506621],"ct":"US","tp":"CS","ts":"2024-04-28T19:12:08Z","tX":291,"tY":387,"tags":{"backcountry":"yes","email":"fd01@pa.gov","fee":"yes","internet_access":"no","name":"Pitch Pine - Michaux Campsite #6","operator":"Pennsylvania Department of Conservation and Natural Resources","phone":"+1 717-352-2211","reservation":"required","tents":"yes","website":"https://www.dcnr.pa.gov/StateForests/FindAForest/Michaux/Pages/Camping.aspx","wheelchair":"no","wikipedia":"en:Michaux State Forest"}},"8301472928":{"location":[40.0130428,-77.3979253],"ct":"US","tp":"CS","ts":"2024-04-28T19:17:37Z","tX":291,"tY":387,"tags":{"backcountry":"yes","email":"fd01@pa.gov","fee":"yes","internet_access":"no","name":"Hairy Springs - Michaux Campsite #8","operator":"Pennsylvania Department of Conservation and Natural Resources","phone":"+1 717-352-2211","reservation":"required","tents":"yes","website":"https://www.dcnr.pa.gov/StateForests/FindAForest/Michaux/Pages/Camping.aspx","wheelchair":"no","wikipedia":"en:Michaux State Forest"}},"8301472929":{"location":[39.9677315,-77.4535543],"ct":"US","tp":"CS","ts":"2024-04-28T19:17:25Z","tX":291,"tY":387,"tags":{"email":"fd01@pa.gov","fee":"yes","internet_access":"no","name":"Flat Rock - Michaux Campsite #10","operator":"Pennsylvania Department of Conservation and Natural Resources","phone":"+1 717-352-2211","reservation":"required","tents":"yes","website":"https://www.dcnr.pa.gov/StateForests/FindAForest/Michaux/Pages/Camping.aspx","wheelchair":"no","wikipedia":"en:Michaux State Forest"}},"8301472956":{"location":[39.9565067,-77.4637953],"ct":"US","tp":"CS","ts":"2024-04-28T19:17:25Z","tX":291,"tY":387,"tags":{"email":"fd01@pa.gov","fee":"yes","internet_access":"no","name":"Old Dutch - Michaux Campsite #11","operator":"Pennsylvania Department of Conservation and Natural Resources","phone":"+1 717-352-2211","reservation":"required","tents":"yes","website":"https://www.dcnr.pa.gov/StateForests/FindAForest/Michaux/Pages/Camping.aspx","wheelchair":"no","wikipedia":"en:Michaux State Forest"}},"10126995143":{"location":[39.9594392,-77.4087267],"ct":"US","tp":"CS","ts":"2024-04-28T19:17:25Z","tX":291,"tY":387,"tags":{"email":"fd01@pa.gov","fee":"yes","internet_access":"no","name":"EUB/Wildcat - Michaux Campsite #13","operator":"Pennsylvania Department of Conservation and Natural Resources","phone":"+1 717-352-2211","reservation":"required","tents":"yes","website":"https://www.dcnr.pa.gov/StateForests/FindAForest/Michaux/Pages/Camping.aspx","wheelchair":"no","wikipedia":"en:Michaux State Forest"}},"10126995156":{"location":[39.928668,-77.4782069],"ct":"US","tp":"CS","ts":"2024-04-28T19:19:35Z","tX":291,"tY":387,"tags":{"email":"fd01@pa.gov","fee":"yes","internet_access":"no","name":"Honna's Bank - Michaux Campsite #12","operator":"Pennsylvania Department of Conservation and Natural Resources","phone":"+1 717-352-2211","reservation":"required","tents":"yes","website":"https://www.dcnr.pa.gov/StateForests/FindAForest/Michaux/Pages/Camping.aspx","wheelchair":"no","wikipedia":"en:Michaux State Forest"}},"10127024430":{"location":[40.0269654,-77.35457],"ct":"US","tp":"CS","ts":"2024-04-28T19:12:08Z","tX":291,"tY":387,"tags":{"email":"fd01@pa.gov","fee":"yes","internet_access":"no","name":"Birch Tree - Michaux Campsite #4","operator":"Pennsylvania Department of Conservation and Natural Resources","phone":"+1 717-352-2211","reservation":"required","tents":"yes","website":"https://www.dcnr.pa.gov/StateForests/FindAForest/Michaux/Pages/Camping.aspx","wheelchair":"no","wikipedia":"en:Michaux State Forest"}},"12006348558":{"location":[39.9117502,-77.4706058],"ct":"US","tp":"CS","ts":"2024-06-24T12:39:10Z","tX":291,"tY":387,"tags":{"capacity:persons":"20","caravans":"no","fee":"yes","group_only":"yes","name":"Group Site 1","static_caravans":"no","tents":"yes"}},"12006348559":{"location":[39.9112019,-77.4707868],"ct":"US","tp":"CS","ts":"2024-06-24T12:39:10Z","tX":291,"tY":387,"tags":{"capacity:persons":"20","caravans":"no","fee":"yes","group_only":"yes","name":"Group Site 4","static_caravans":"no","tents":"yes"}},"12006348560":{"location":[39.9109044,-77.4717222],"ct":"US","tp":"CS","ts":"2024-06-24T12:39:10Z","tX":291,"tY":387,"tags":{"capacity:persons":"20","caravans":"no","fee":"yes","group_only":"yes","name":"Group Site 5","static_caravans":"no","tents":"yes"}},"12006348561":{"location":[39.9115869,-77.4711817],"ct":"US","tp":"CS","ts":"2024-06-24T12:39:10Z","tX":291,"tY":387,"tags":{"capacity:persons":"20","caravans":"no","fee":"yes","group_only":"yes","name":"Group Site 2","static_caravans":"no","tents":"yes"}},"12006348562":{"location":[39.911486,-77.471831],"ct":"US","tp":"CS","ts":"2024-06-24T12:39:10Z","tX":291,"tY":387,"tags":{"capacity:persons":"20","caravans":"no","fee":"yes","group_only":"yes","name":"Group Site 3","static_caravans":"no","tents":"yes"}}}