{"331321687":{"location":[39.6449246,-77.4232058],"ct":"US","tp":"CS","ts":"2022-11-11T13:03:07Z","tX":291,"tY":388,"tags":{"access":"private","addr:city":"Thurmont","addr:housenumber":"14938","addr:postcode":"21788","addr:state":"MD","addr:street":"Old Camp Airy Road","backcountry":"no","caravans":"no","name":"Camp Airy for Boys","note":"Private summer camp","operator":"Camps Airy and Louise","phone":"+1 410 466 9010","tents":"no","website":"https://www.airylouise.org/camp-airy-for-boys/","wikidata":"Q5026955","wikipedia":"en:Camp Airy"}},"361339565":{"location":[39.6557546,-77.4756832],"ct":"US","tp":"CS","ts":"2019-04-23T01:40:07Z","tX":291,"tY":388,"tags":{"caravans":"no","fee":"yes","group_only":"yes","name":"Poplar Grove Youth Camp Site","operator":"National Park Service","tents":"yes","website":"https://www.nps.gov/cato/planyourvisit/poplargrove.htm"}},"410943548":{"location":[39.6449537,-77.4766882],"ct":"US","tp":"CS","ts":"2024-08-13T10:04:01Z","tX":291,"tY":388,"tags":{"addr:city":"Thurmont","addr:country":"US","addr:housenumber":"15001","addr:state":"MD","addr:street":"Park Central Road","area":"yes","backcountry":"no","caravans":"no","ele":"533","gnis:feature_id":"1711191","group_only":"yes","name":"Camp Greentop Historic District","tents":"no","website":"https://www.nps.gov/cato/planyourvisit/greentop.htm","wikidata":"Q5027212","wikipedia":"en:Camp Greentop"}},"420326462":{"location":[39.6596414,-77.4866044],"ct":"US","tp":"CS","ts":"2025-06-08T19:08:27Z","tX":291,"tY":388,"tags":{"access":"customers","addr:city":"Sabillasville","addr:housenumber":"15882","addr:postcode":"21780","addr:state":"MD","addr:street":"Foxville Deerfield Road","backcountry":"no","camp_site":"standard","capacity:pitches":"50","caravans":"yes","charge":"30 USD/night","email":"cato_campmanager@nps.gov","fee":"yes","name":"Owens Creek Campground","opening_hours":"May-Nov unknown; Dec-Apr closed","operator":"National Park Service","phone":"+1 877 444 6777","reservation":"required","sanitary_dump_station":"no","tents":"yes","website":"https://www.nps.gov/cato/planyourvisit/owens-creek-campground.htm","wheelchair":"limited"}},"775822135":{"location":[39.8171379,-77.4624599],"ct":"US","tp":"CR","ts":"2025-05-02T23:56:06Z","tX":291,"tY":388,"tags":{"addr:city":"South Mountain","addr:country":"US","addr:housenumber":"6050","addr:postcode":"17261","addr:state":"PA","addr:street":"Old Forge Road","email":"fd01@pa.gov","fee":"yes","internet_access":"no","name":"Peggys Hill Parking","operator":"Pennsylvania Department of Conservation and Natural Resources","phone":"+1 717-352-2211","reservation":"required","sanitary_dump_station":"no","tents":"yes","website":"https://www.dcnr.pa.gov/StateForests/FindAForest/Michaux/Pages/Camping.aspx","wheelchair":"limited"}},"874693866":{"location":[39.6422825,-77.4481577],"ct":"US","tp":"CS","ts":"2022-10-18T14:33:34Z","tX":291,"tY":388,"tags":{"cabins":"yes","caravans":"no","email":"CATO_Camp_Manager@nps.gov","internet_access":"no","name":"Camp Misty Mount","opening_hours":"May-Oct","operator":"National Park Service","phone":"+1 301 271 3140","reservation":"required","tents":"no","website":"https://www.recreation.gov/camping/campgrounds/233241","wikidata":"Q5027421","wikipedia":"en:Camp Misty Mount Historic District"}},"917629004":{"location":[39.6732216,-77.5302932],"ct":"US","tp":"CS","ts":"2023-10-11T19:20:45Z","tX":291,"tY":388,"tags":{"backcountry":"yes","caravans":"no","group_only":"no","name":"Raven Rock Shelter AT Camping Area","opening_hours":"24/7","operator":"Potomac Appalachian Trail Club","reservation":"no","shower":"no","tents":"yes"}},"917630920":{"location":[39.8046827,-77.4777192],"ct":"US","tp":"CS","ts":"2022-10-26T22:50:35Z","tX":291,"tY":388,"tags":{"backcountry":"yes","name":"Tumbling Run Shelters AT Camping Area","opening_hours":"24/7","operator":"Potomac Appalachian Trail Club","reservation":"no","tents":"yes"}},"917630921":{"location":[39.7932648,-77.4836558],"ct":"US","tp":"CS","ts":"2021-09-27T23:51:30Z","tX":291,"tY":388,"tags":{"backcountry":"yes","name":"Antietam AT Camping Area","opening_hours":"24/7","operator":"Potomac Appalachian Trail Club","reservation":"no","tents":"yes"}},"917630923":{"location":[39.7662273,-77.4847429],"ct":"US","tp":"CS","ts":"2021-03-16T01:19:03Z","tX":291,"tY":388,"tags":{"backcountry":"yes","name":"Deer Lick Shelter AT Camping Area","opening_hours":"24/7","operator":"Potomac Appalachian Trail Club","reservation":"no","tents":"yes"}},"920902433":{"location":[39.8399787,-77.4347722],"ct":"US","tp":"CR","ts":"2025-05-02T23:56:06Z","tX":291,"tY":388,"tags":{"addr:city":"Orrtanna","addr:country":"US","addr:housenumber":"3205","addr:postcode":"17353","addr:state":"PA","addr:street":"Cold Springs Road","email":"fd01@pa.gov","fee":"yes","internet_access":"no","name":"Teaberry Parking Lot","operator":"Pennsylvania Department of Conservation and Natural Resources","phone":"+1 717-352-2211","reservation":"required","sanitary_dump_station":"no","tents":"yes","website":"https://www.dcnr.pa.gov/StateForests/FindAForest/Michaux/Pages/Camping.aspx","wheelchair":"limited"}},"989276006":{"location":[39.8021546,-77.4800488],"ct":"US","tp":"CR","ts":"2024-04-01T19:17:53Z","tX":291,"tY":388,"tags":{"addr:state":"PA","email":"fd01@pa.gov","fee":"yes","internet_access":"no","name":"Swift Run - Michaux Campsite #24","operator":"Pennsylvania Department of Conservation and Natural Resources","phone":"+1 717-352-2211","reservation":"required","sanitary_dump_station":"no","tents":"yes","website":"https://www.dcnr.pa.gov/StateForests/FindAForest/Michaux/Pages/Camping.aspx","wheelchair":"limited"}},"6493223762":{"location":[39.8832983,-77.4834985],"ct":"US","tp":"CS","ts":"2025-05-03T00:07:03Z","tX":291,"tY":388,"tags":{"addr:state":"PA","email":"fd01@pa.gov","fee":"yes","internet_access":"no","name":"Raccoon Run - Michaux Campsite #15","operator":"Pennsylvania Department of Conservation and Natural Resources","phone":"+1 717-352-2211","reservation":"required","tents":"yes","website":"https://www.dcnr.pa.gov/StateForests/FindAForest/Michaux/Pages/Camping.aspx","wheelchair":"no","wikipedia":"en:Michaux State Forest"}},"7549261363":{"location":[39.7434872,-77.5059991],"ct":"US","tp":"CS","ts":"2020-06-01T21:19:36Z","tX":291,"tY":388,"tags":{"addr:city":"Waynesboro","addr:housenumber":"12750","addr:postcode":"17268","addr:state":"PA","addr:street":"Buchanan Trail East","name":"Capital Camps & Retreat Center"}},"9802037473":{"location":[39.8900138,-77.4735581],"ct":"US","tp":"CS","ts":"2024-04-28T19:30:58Z","tX":291,"tY":388,"tags":{"email":"fd01@pa.gov","fee":"yes","internet_access":"no","name":"Popular Cove - Michaux Campsite #14","operator":"Pennsylvania Department of Conservation and Natural Resources","phone":"+1 717-352-2211","reservation":"required","tents":"yes","website":"https://www.dcnr.pa.gov/StateForests/FindAForest/Michaux/Pages/Camping.aspx","wheelchair":"no","wikipedia":"en:Michaux State Forest"}},"10126516234":{"location":[39.8784648,-77.4740732],"ct":"US","tp":"CS","ts":"2024-04-28T19:30:58Z","tX":291,"tY":388,"tags":{"email":"fd01@pa.gov","fee":"yes","internet_access":"no","name":"Whispering Pines - Michaux Designated Motorized Campsite #3","operator":"Pennsylvania Department of Conservation and Natural Resources","phone":"+1 717-352-2211","reservation":"required","tents":"yes","website":"https://www.dcnr.pa.gov/StateForests/FindAForest/Michaux/Pages/Camping.aspx","wheelchair":"no","wikipedia":"en:Michaux State Forest"}},"10127307827":{"location":[39.8123487,-77.4472017],"ct":"US","tp":"CS","ts":"2024-04-01T19:17:53Z","tX":291,"tY":388,"tags":{"email":"fd01@pa.gov","fee":"yes","internet_access":"no","name":"Woodchuck - Michaux Campsite #23","operator":"Pennsylvania Department of Conservation and Natural Resources","phone":"+1 717-352-2211","reservation":"required","tents":"yes","website":"https://www.dcnr.pa.gov/StateForests/FindAForest/Michaux/Pages/Camping.aspx","wheelchair":"no"}},"10127307851":{"location":[39.8270249,-77.5001725],"ct":"US","tp":"CS","ts":"2024-04-01T19:17:53Z","tX":291,"tY":388,"tags":{"email":"fd01@pa.gov","fee":"yes","internet_access":"no","name":"Snowy Mountain - Michaux Campsite #19","operator":"Pennsylvania Department of Conservation and Natural Resources","phone":"+1 717-352-2211","reservation":"required","tents":"yes","website":"https://www.dcnr.pa.gov/StateForests/FindAForest/Michaux/Pages/Camping.aspx","wheelchair":"no"}},"10127307856":{"location":[39.8279052,-77.4389701],"ct":"US","tp":"CS","ts":"2024-04-01T19:17:53Z","tX":291,"tY":388,"tags":{"email":"fd01@pa.gov","fee":"yes","internet_access":"no","name":"Green Ridge - Michaux Campsite #18","operator":"Pennsylvania Department of Conservation and Natural Resources","phone":"+1 717-352-2211","reservation":"required","tents":"yes","website":"https://www.dcnr.pa.gov/StateForests/FindAForest/Michaux/Pages/Camping.aspx","wheelchair":"no"}},"10127307859":{"location":[39.8279776,-77.4404443],"ct":"US","tp":"CS","ts":"2024-04-01T19:17:53Z","tX":291,"tY":388,"tags":{"email":"fd01@pa.gov","fee":"yes","internet_access":"no","name":"Fire Fox - Michaux Campsite #17","operator":"Pennsylvania Department of Conservation and Natural Resources","phone":"+1 717-352-2211","reservation":"required","tents":"yes","website":"https://www.dcnr.pa.gov/StateForests/FindAForest/Michaux/Pages/Camping.aspx","wheelchair":"no"}},"10127307904":{"location":[39.8904359,-77.4817199],"ct":"US","tp":"CS","ts":"2024-04-23T01:57:02Z","tX":291,"tY":388,"tags":{"email":"fd01@pa.gov","fee":"yes","internet_access":"no","name":"Corl's Road - Michaux Campsite #16","operator":"Pennsylvania Department of Conservation and Natural Resources","phone":"+1 717-352-2211","reservation":"required","tents":"yes","website":"https://www.dcnr.pa.gov/StateForests/FindAForest/Michaux/Pages/Camping.aspx","wheelchair":"no","wikipedia":"en:Michaux State Forest"}},"10127324283":{"location":[39.8095896,-77.4850399],"ct":"US","tp":"CS","ts":"2024-04-01T19:17:53Z","tX":291,"tY":388,"tags":{"email":"fd01@pa.gov","fee":"yes","internet_access":"no","name":"Briar Mountain - Michaux Campsite #20","operator":"Pennsylvania Department of Conservation and Natural Resources","phone":"+1 717-352-2211","reservation":"required","tents":"yes","website":"https://www.dcnr.pa.gov/StateForests/FindAForest/Michaux/Pages/Camping.aspx","wheelchair":"no"}},"10271695655":{"location":[39.7407005,-77.4763825],"ct":"US","tp":"CS","ts":"2022-12-18T18:00:57Z","tX":291,"tY":388,"tags":{"group_only":"yes","name":"Boy Scout Camping Area"}},"11946003370":{"location":[39.90074,-77.5160826],"ct":"US","tp":"CS","ts":"2024-05-30T20:20:06Z","tX":291,"tY":388,"tags":{"group_only":"yes","name":"Green Wood Hills Bible Camp"}},"12807065883":{"location":[39.8977833,-77.4586004],"ct":"US","tp":"CS","ts":"2025-05-03T23:14:28Z","tX":291,"tY":388,"tags":{"name":"Camp Liahona"}}}