{"11699536":{"location":[39.6262586,-77.4762719],"ct":"US","tp":"CS","ts":"2020-10-12T00:54:33Z","tX":291,"tY":389,"tags":{"backcountry":"no","cabins":"yes","caravans":"yes","group_only":"no","internet_access":"no","name":"William Houck Camping Area","nudism":"no","operator":"Cunningham Falls State Park","reservation":"recommended","tents":"yes","website":"https://dnr.maryland.gov/publiclands/Pages/western/CunninghamFalls/Camping.aspx"}},"16323207":{"location":[39.497808,-77.6215617],"ct":"US","tp":"CS","ts":"2023-09-13T16:09:57Z","tX":291,"tY":389,"tags":{"backcountry":"no","caravans":"no","group_only":"yes","name":"Washington Monument State Park Youth Group Camp","operator":"Maryland Park Service","reservation":"required","tents":"yes","website":"https://dnr.maryland.gov/publiclands/Pages/western/Washington/Camping.aspx"}},"420401985":{"location":[39.5917594,-77.4366363],"ct":"US","tp":"CS","ts":"2023-10-28T15:35:37Z","tX":291,"tY":389,"tags":{"backcountry":"no","caravans":"yes","group_only":"no","internet_access":"no","name":"Cunningham Falls Manor Camping Area","operator":"Maryland Department of Natural Resources","reservation":"recommended","tents":"yes","website":"https://dnr.maryland.gov/publiclands/Pages/western/CunninghamFalls/Camping.aspx"}},"420401991":{"location":[39.581089,-77.4976492],"ct":"US","tp":"CS","ts":"2022-10-18T01:42:11Z","tX":291,"tY":389,"tags":{"access":"private","addr:city":"Thurmont","addr:housenumber":"12611","addr:postcode":"21788","addr:state":"MD","addr:street":"Tower Road","backcountry":"no","caravans":"no","name":"Catoctin Quaker Camp","operator":"BYM Camps","tents":"no","website":"https://bymcamps.org/our-camps/catoctin/"}},"420403372":{"location":[39.5872848,-77.4968379],"ct":"US","tp":"CS","ts":"2022-10-18T01:38:57Z","tX":291,"tY":389,"tags":{"addr:city":"Thurmont","addr:housenumber":"12806","addr:postcode":"21788","addr:state":"MD","addr:street":"Mink Farm Road","backcountry":"no","cabin":"yes","email":"info@oleminkfarm.com","group_only":"no","name":"Ole Mink Farm Recreation and Resort","phone":"+1 301 271 7012","reservation":"required","website":"https://oleminkfarm.com"}},"421699318":{"location":[39.5765147,-77.5882707],"ct":"US","tp":"CS","ts":"2022-10-31T17:48:47Z","tX":291,"tY":389,"tags":{"backcountry":"yes","caravans":"no","name":"Pogo Memorial AT Camping Area","opening_hours":"24/7","operator":"Potomac Appalachian Trail Club","tents":"yes"}},"421886446":{"location":[39.5578656,-77.5972201],"ct":"US","tp":"CS","ts":"2023-06-19T14:41:43Z","tX":291,"tY":389,"tags":{"access":"yes","backcountry":"yes","caravans":"no","check_date":"2023-06-18","drinking_water":"yes","fee":"no","group_only":"no","internet_access":"no","name":"Annapolis Rock AT Camping Area","nudism":"no","openfire":"no","opening_hours":"24/7","operator":"Potomac Appalachian Trail Club","payment:cards":"no","payment:credit_cards":"no","payment:debit_cards":"no","picnic_table":"no","power_supply":"no","reservation":"no","sanitary_dump_station":"no","shower":"no","static_caravans":"no","tents":"yes","toilets":"yes","wheelchair":"no"}},"552257183":{"location":[39.5518634,-77.3601622],"ct":"US","tp":"CR","ts":"2022-10-18T01:49:04Z","tX":291,"tY":389,"tags":{"access":"private","addr:city":"Thurmont","addr:housenumber":"11617","addr:postcode":"21788","addr:state":"MD","addr:street":"Hunt Club Road","contact:facebook":"thurmontsportsmansclub","email":"info@tcandsc.org","name":"Thurmont Conservation & Sportsman's Club Campground","operator":"Thurmont Conservation & Sportsman's Club","phone":"+1 301 898 9093","power_supply":"yes","sanitary_dump_station":"customers","website":"https://tcandsc.org"}},"552257184":{"location":[39.5533657,-77.361002],"ct":"US","tp":"SD","ts":"2018-01-11T03:22:02Z","tX":291,"tY":389,"tags":{}},"685335544":{"location":[39.4573566,-77.4935977],"ct":"US","tp":"CS","ts":"2023-10-28T15:36:21Z","tX":291,"tY":389,"tags":{"access":"yes","addr:city":"Frederick","addr:country":"US","addr:housenumber":"8002","addr:postcode":"21702","addr:state":"MD","addr:street":"Gambrill Park Road","caravans":"yes","fee":"yes","name":"Gambrill State Park Campgrounds","operator":"Maryland Department of Natural Resources","reservation":"recommended","sanitary_dump_station":"yes","tents":"yes","website":"https://dnr.maryland.gov/publiclands/Pages/western/Gambrill/Camping.aspx"}},"759755279":{"location":[39.5285832,-77.6234816],"ct":"US","tp":"CS","ts":"2022-03-31T02:53:00Z","tX":291,"tY":389,"tags":{"backcountry":"no","caravans":"yes","fee":"yes","group_only":"no","name":"Greenbrier State Park - Dogwood Campground","opening_hours":"Apr-Oct","operator":"Maryland Park Service","reservation":"required","sanitary_dump_station":"customers","tents":"yes","website":"https://dnr.maryland.gov/publiclands/Pages/western/Greenbrier/Camping.aspx"}},"759755280":{"location":[39.5304232,-77.6221164],"ct":"US","tp":"CS","ts":"2019-12-31T02:59:22Z","tX":291,"tY":389,"tags":{"backcountry":"no","caravans":"yes","fee":"yes","group_only":"no","name":"Greenbrier State Park - Cedar Campground","opening_hours":"Apr-Oct","operator":"Maryland Park Service","power_supply":"yes","reservation":"required","sanitary_dump_station":"customers","tents":"yes","website":"https://dnr.maryland.gov/publiclands/Pages/western/Greenbrier/Camping.aspx"}},"759755281":{"location":[39.5321063,-77.6212308],"ct":"US","tp":"CS","ts":"2019-12-31T02:59:22Z","tX":291,"tY":389,"tags":{"backcountry":"no","caravans":"yes","fee":"yes","group_only":"no","name":"Greenbrier State Park - Birch Campground","opening_hours":"Apr-Oct","operator":"Maryland Park Service","reservation":"required","sanitary_dump_station":"customers","tents":"yes","website":"https://dnr.maryland.gov/publiclands/Pages/western/Greenbrier/Camping.aspx"}},"759755282":{"location":[39.533995,-77.6204259],"ct":"US","tp":"CS","ts":"2019-12-31T02:59:22Z","tX":291,"tY":389,"tags":{"backcountry":"no","caravans":"yes","fee":"yes","group_only":"no","name":"Greenbrier State Park - Ash Campground","opening_hours":"Apr-Oct","operator":"Maryland Park Service","reservation":"required","sanitary_dump_station":"customers","tents":"yes","website":"https://dnr.maryland.gov/publiclands/Pages/western/Greenbrier/Camping.aspx"}},"759933000":{"location":[39.4119772,-77.6380034],"ct":"US","tp":"CS","ts":"2021-03-16T00:58:57Z","tX":291,"tY":389,"tags":{"backcountry":"yes","caravans":"no","fee":"no","group_only":"no","name":"Crampton Gap Shelter AT Camping Area","operator":"Potomac Appalachian Trail Club","shower":"no","tents":"yes"}},"917223073":{"location":[39.6306302,-77.5560126],"ct":"US","tp":"CS","ts":"2022-10-17T13:42:15Z","tX":291,"tY":389,"tags":{"backcountry":"yes","caravans":"no","group_only":"no","internet_access":"no","name":"Ensign Cowall AT Camping Area","operator":"Potomac Appalachian Trail Club","tents":"yes"}},"917629002":{"location":[39.4618089,-77.630635],"ct":"US","tp":"CS","ts":"2024-10-13T01:04:06Z","tX":291,"tY":389,"tags":{"access":"yes","backcountry":"yes","caravans":"no","drinking_water":"yes","fee":"no","name":"Rocky Run Shelters","opening_hours":"24/7","operator":"Potomac Appalachian Trail Club","power_supply":"no","reservation":"no","shower":"no","static_caravans":"no","tents":"yes","toilets":"yes","wheelchair":"no"}},"917629003":{"location":[39.4808782,-77.619467],"ct":"US","tp":"CS","ts":"2021-03-16T00:58:57Z","tX":291,"tY":389,"tags":{"backcountry":"yes","name":"Dahlgren AT Backpack Camping Area","opening_hours":"24/7","operator":"Maryland Department of Natural Resources","reservation":"no","shower":"yes","tents":"yes"}},"11137265688":{"location":[39.4962295,-77.6166118],"ct":"US","tp":"CS","ts":"2023-11-13T01:33:23Z","tX":291,"tY":389,"tags":{"backcountry":"yes","caravans":"no","fee":"no","group_only":"no","informal":"yes","reservation":"no","static_caravans":"no","tents":"yes"}},"7097284305":{"location":[39.5307322,-77.6203543],"ct":"US","tp":"SD","ts":"2019-12-31T02:53:28Z","tX":291,"tY":389,"tags":{"access":"customers","sanitary_dump_station:round_drain":"yes"}},"7973310022":{"location":[39.6225244,-77.4685057],"ct":"US","tp":"SD","ts":"2020-10-04T14:28:37Z","tX":291,"tY":389,"tags":{}},"11278418520":{"location":[39.622622,-77.4683937],"ct":"US","tp":"SD","ts":"2023-10-20T22:23:11Z","tX":291,"tY":389,"tags":{"access":"customers","fee":"no"}}}