{"15898080":{"location":[38.5542246,-77.3968538],"ct":"US","tp":"CS","ts":"2024-05-15T17:53:11Z","tX":291,"tY":392,"tags":{"access":"permit","backcountry":"yes","capacity:tents":"8","caravans":"yes","charge":"9 USD/day","dog":"no","drinking_water":"no","ele":"63","fee":"yes","gnis:feature_id":"1940319","group_only":"no","name":"Chopawamsic Backcountry Area","openfire":"no","operator":"National Park Service","power_supply":"no","sanitary_dump_station":"no","static_caravans":"no","tents":"yes","website":"https://www.nps.gov/prwi/planyourvisit/backcountrycamping.htm"}},"266761488":{"location":[38.5993455,-77.4177346],"ct":"US","tp":"CS","ts":"2023-05-23T14:25:44Z","tX":291,"tY":392,"tags":{"access":"permit","capacity:pitches":"67","capacity:tents":"33","caravans":"yes","charge":"26 USD/day","dog":"leashed","drinking_water":"yes","fee":"yes","group_only":"no","internet_access":"no","laundry_service":"no","name":"Oak Ridge Campground","opening_hours":"Mar-Nov","operator":"National Park Service","operator:wikipedia":"en:National Park Service","reservation":"required","shower":"yes","tents":"yes","website":"https://www.nps.gov/prwi/planyourvisit/oakridge.htm"}},"266762125":{"location":[38.5816407,-77.3730665],"ct":"US","tp":"CS","ts":"2024-12-26T03:39:56Z","tX":291,"tY":392,"tags":{"access":"permit","addr:city":"Triangle","addr:housenumber":"5475","addr:postcode":"22172","addr:state":"VA","addr:street":"Turkey Run Road","camp_site":"standard","caravans":"no","charge":"65 USD/day","fee":"yes","name":"Turkey Run Ridge Group Campground","operator":"National Park Service","operator:short":"NPS","operator:type":"public","operator:wikidata":"Q308439","operator:wikipedia":"en:National Park Service","seasonal":"no","static_caravans":"no","tents":"yes","website":"https://www.nps.gov/prwi/planyourvisit/turkeyrunridge.htm"}},"353062867":{"location":[38.5758016,-77.4125432],"ct":"US","tp":"CS","ts":"2023-05-23T14:25:44Z","tX":291,"tY":392,"tags":{"access":"permit","alt_name":"Happyland","cabins":"yes","capacity:persons":"210","caravans":"no","charge":"790 USD/day","fee":"yes","group_only":"yes","name":"Cabin Camp 5","operator":"National Park Service","operator:wikipedia":"en:National Park Service","smoking":"outside","static_caravans":"no","tents":"no","website":"https://www.nps.gov/prwi/planyourvisit/cabincamp5.htm"}},"381866295":{"location":[38.8062728,-77.477236],"ct":"US","tp":"CS","ts":"2015-11-22T01:16:34Z","tX":291,"tY":392,"tags":{}},"523131171":{"location":[38.5811236,-77.4151181],"ct":"US","tp":"CS","ts":"2023-05-23T14:25:44Z","tX":291,"tY":392,"tags":{"access":"permit","addr:city":"Triangle","addr:housenumber":"17175","addr:postcode":"22172","addr:state":"VA","addr:street":"Mawavi Road","cabins":"yes","capacity:persons":"149","caravans":"no","charge":"630 USD/day","fee":"yes","group_only":"yes","kitchen":"yes","name":"Cabin Camp 2","openfire":"no","operator":"National Park Service","operator:wikipedia":"en:National Park Service","reservation":"required","smoking":"outside","start_date":"1937","static_caravans":"no","tents":"no","website":"https://www.nps.gov/prwi/planyourvisit/cabincamp2.htm"}},"1060399811":{"location":[38.6032012,-77.3519816],"ct":"US","tp":"CR","ts":"2023-10-28T13:17:55Z","tX":291,"tY":392,"tags":{"addr:city":"Dumfries","addr:housenumber":"16058","addr:postcode":"22025","addr:state":"VA","addr:street":"Dumfries Road","cabins":"no","caravans":"yes","charge":"50 USD","fee":"yes","name":"Prince William Forest RV Campground","nudism":"no","owner":"National Park Service","owner:wikipedia":"en:National Park Service","phone":"+1 703-221-2474","power_supply":"yes","sanitary_dump_station":"yes","tents":"no","website":"https://www.princewilliamforestrvcampground.com/"}},"1119994687":{"location":[38.7985984,-77.6214937],"ct":"US","tp":"CR","ts":"2022-12-07T00:29:36Z","tX":291,"tY":392,"tags":{"name":"Hillwood Camping Park"}},"1119994688":{"location":[38.7965141,-77.6182522],"ct":"US","tp":"CR","ts":"2022-12-07T00:29:36Z","tX":291,"tY":392,"tags":{}},"1175111615":{"location":[38.5907553,-77.3544151],"ct":"US","tp":"CS","ts":"2024-05-15T20:45:13Z","tX":291,"tY":392,"tags":{"access":"permit","addr:city":"Dumfries","addr:housenumber":"16675","addr:postcode":"22025","addr:state":"VA","addr:street":"Pleasant Road","alt_name":"Pleasant Historic District","area":"yes","cabins":"yes","camp_site":"standard","capacity:persons":"200","caravans":"no","charge":"650 USD/day","dog":"no","drinking_water":"yes","ele":"61","fee":"yes","gnis:feature_id":"1761229","group_only":"yes","historic":"district","internet_access":"no","kitchen":"yes","lit":"no","name":"Cabin Camp 4","openfire":"no","operator":"National Park Service","operator:short":"NPS","operator:wikipedia":"en:National Park Service","picnic_table":"yes","power_supply":"no","reservation":"required","scout":"no","shower":"yes","static_caravans":"no","swimming_pool":"no","tents":"no","toilets":"yes","washing_machine":"no","website":"https://www.nps.gov/prwi/planyourvisit/cabincamp4.htm"}},"1175111617":{"location":[38.5960257,-77.3574688],"ct":"US","tp":"CS","ts":"2023-05-23T14:25:44Z","tX":291,"tY":392,"tags":{"access":"permit","addr:city":"Dumfries","addr:housenumber":"16450","addr:postcode":"22025","addr:state":"VA","addr:street":"Pleasant Road","area":"yes","cabins":"yes","capacity:persons":"205","charge":"670 USD/day","dog":"no","fee":"yes","group_only":"yes","kitchen":"yes","name":"Cabin Camp 1","operator":"National Park Service","operator:short":"NPS","operator:wikipedia":"en:National Park Service","reservation":"required","smoking":"outside","website":"https://www.nps.gov/prwi/planyourvisit/cabincamp1.htm"}},"1175125857":{"location":[38.5661081,-77.361104],"ct":"US","tp":"CS","ts":"2023-05-23T15:33:01Z","tX":291,"tY":392,"tags":{"access":"permit","addr:unit":"C","alt_name":"Orenda","cabins":"yes","capacity:persons":"76","caravans":"no","charge":"475 USD/day","fee":"yes","group_only":"yes","name":"Cabin Camp 3 Unit C","operator":"National Park Service","operator:short":"NPS","operator:wikipedia":"en:National Park Service","reservation":"required","smoking":"outside","static_caravans":"no","tents":"no"}},"1175125858":{"location":[38.5626435,-77.3591352],"ct":"US","tp":"CS","ts":"2023-05-23T15:33:01Z","tX":291,"tY":392,"tags":{"access":"permit","addr:unit":"A,B","cabins":"yes","capacity:cabins":"13","caravans":"no","charge":"35 USD/day","fee":"yes","group_only":"no","internet_access":"no","name":"Cabin Camp 3","opening_hours":"Apr-Nov","operator":"National Park Service","operator:short":"NPS","operator:wikipedia":"en:National Park Service","reservation":"required","smoking":"outside","static_caravans":"no","tents":"no","website":"https://www.recreation.gov/camping/campgrounds/10007130?tab=campsites"}},"2085042968":{"location":[38.7316455,-77.5405967],"ct":"US","tp":"CS","ts":"2012-12-27T20:31:13Z","tX":291,"tY":392,"tags":{"name":"Outpost 60 Campsite"}},"4439927083":{"location":[38.5577707,-77.3959894],"ct":"US","tp":"CS","ts":"2023-11-22T17:14:05Z","tX":291,"tY":392,"tags":{"backcountry":"yes","capacity:persons":"4","name":"Campsite #6","ref":"BC6","source":"survey 10/2016"}},"4439928480":{"location":[38.5564117,-77.3943733],"ct":"US","tp":"CS","ts":"2023-11-22T17:14:05Z","tX":291,"tY":392,"tags":{"backcountry":"yes","capacity:persons":"4","name":"Campsite #7","ref":"BC7","source":"survey 10/2016"}},"4439928520":{"location":[38.5554454,-77.3916841],"ct":"US","tp":"CS","ts":"2023-11-22T17:14:05Z","tX":291,"tY":392,"tags":{"backcountry":"yes","capacity:persons":"4","name":"Campsite #8","ref":"BC8","source":"survey 10/2016"}},"4439928866":{"location":[38.5512783,-77.4018033],"ct":"US","tp":"CS","ts":"2023-11-22T17:14:05Z","tX":291,"tY":392,"tags":{"backcountry":"yes","capacity:persons":"4","name":"Campsite #3","ref":"BC3","source":"survey 10/2016"}},"10934376513":{"location":[38.5505449,-77.3996237],"ct":"US","tp":"CS","ts":"2023-11-22T17:14:05Z","tX":291,"tY":392,"tags":{"backcountry":"yes","capacity:persons":"4","name":"Campsite #2"}},"10934376515":{"location":[38.5534062,-77.4024287],"ct":"US","tp":"CS","ts":"2023-11-22T17:14:05Z","tX":291,"tY":392,"tags":{"backcountry":"yes","capacity:persons":"4","name":"Campsite #4","ref":"BC3","source":"survey 10/2016"}},"10934376546":{"location":[38.54931,-77.3982899],"ct":"US","tp":"CS","ts":"2023-11-22T17:14:05Z","tX":291,"tY":392,"tags":{"backcountry":"yes","capacity:persons":"4","name":"Campsite #1","ref":"BC1","source":"survey 5/23"}},"11368993777":{"location":[38.5524381,-77.4002318],"ct":"US","tp":"CS","ts":"2023-11-22T17:14:05Z","tX":291,"tY":392,"tags":{"backcountry":"yes","capacity:persons":"4","name":"Campsite #5","ref":"BC3","source":"survey 10/2016"}}}