{"14475218":{"location":[34.4313316,-77.5665528],"ct":"US","tp":"CS","ts":"2022-09-01T19:55:38Z","tX":291,"tY":407,"tags":{"addr:city":"Holly Ridge/Surf City","addr:housenumber":"1161","addr:postcode":"28445","addr:street":"Spot Lane","caravans":"yes","fee":"yes","name":"Lanier's Campground","phone":"910-328-9431","tents":"yes","website":"http://www.lanierscampground.com/"}},"282784412":{"location":[34.4307574,-77.5481248],"ct":"US","tp":"CR","ts":"2022-08-19T08:20:52Z","tX":291,"tY":407,"tags":{"name":"Blackbeards Treasure Campground"}},"775163815":{"location":[34.4109543,-77.6579258],"ct":"US","tp":"CS","ts":"2020-02-21T05:01:28Z","tX":291,"tY":407,"tags":{"operator":"North Carolina Wildlife Resources Commission","tents":"yes"}},"949873997":{"location":[34.550791,-77.4339325],"ct":"US","tp":"CR","ts":"2023-10-16T19:55:46Z","tX":291,"tY":407,"tags":{"addr:city":"Sneads Ferry","addr:housenumber":"113","addr:postcode":"28460","addr:state":"NC","addr:street":"Bradshaw Road","name":"Silver Sands Campgrounds and RV Park","phone":"910-389-9554","website":"https://silversandscampground.com/"}},"949874050":{"location":[34.5528653,-77.4159046],"ct":"US","tp":"CR","ts":"2021-06-03T00:57:04Z","tX":291,"tY":407,"tags":{"addr:city":"Sneads Ferry","addr:housenumber":"2201","addr:postcode":"28460","addr:state":"NC","addr:street":"Sneads Ferry Road","name":"Wood Creek RV Park","phone":"910-526-8190","website":"woodcreekrv.com"}},"1087242537":{"location":[34.5547882,-77.3992622],"ct":"US","tp":"CS","ts":"2022-09-03T23:22:10Z","tX":291,"tY":407,"tags":{"name":"Willows Landing Campground","old_name":"Coastal RV Park"}},"1087424411":{"location":[34.4354825,-77.6005071],"ct":"US","tp":"CS","ts":"2022-08-19T08:17:11Z","tX":291,"tY":407,"tags":{"name":"Virginia Creek Campground"}},"1088052527":{"location":[34.4805055,-77.448251],"ct":"US","tp":"CR","ts":"2022-09-10T22:02:59Z","tX":291,"tY":407,"tags":{}},"1091732289":{"location":[34.5543004,-77.3895548],"ct":"US","tp":"CS","ts":"2022-09-03T23:36:29Z","tX":291,"tY":407,"tags":{"addr:housenumber":"141","addr:street":"Fulcher Landing Road","name":"Captain Jimâ€™s Campground"}},"1091734079":{"location":[34.4738971,-77.5149538],"ct":"US","tp":"CS","ts":"2022-09-03T23:50:24Z","tX":291,"tY":407,"tags":{"name":"Topsail Sound RV Park"}},"1093457296":{"location":[34.4517728,-77.502373],"ct":"US","tp":"CS","ts":"2022-09-10T21:53:16Z","tX":291,"tY":407,"tags":{"name":"Surf City Family Campground"}},"1093458491":{"location":[34.5742957,-77.3976067],"ct":"US","tp":"CS","ts":"2022-09-10T22:06:40Z","tX":291,"tY":407,"tags":{"name":"Seahaven Marine RV Park"}},"1093458791":{"location":[34.5628316,-77.384918],"ct":"US","tp":"CS","ts":"2022-09-10T22:10:48Z","tX":291,"tY":407,"tags":{"name":"Fulchers Landing Campground"}},"1093458794":{"location":[34.565651,-77.3829361],"ct":"US","tp":"CS","ts":"2022-09-10T22:10:48Z","tX":291,"tY":407,"tags":{}},"1098677513":{"location":[34.4891875,-77.5164067],"ct":"US","tp":"CS","ts":"2022-09-28T21:26:04Z","tX":291,"tY":407,"tags":{"name":"Stump Sound Campground"}},"1114698508":{"location":[34.5606734,-77.3827106],"ct":"US","tp":"CS","ts":"2022-11-16T19:56:13Z","tX":291,"tY":407,"tags":{"name":"Riverside RV Park"}},"1114699426":{"location":[34.5665362,-77.388543],"ct":"US","tp":"CS","ts":"2022-11-16T20:00:02Z","tX":291,"tY":407,"tags":{"name":"Millis Family Campground"}},"1377155859":{"location":[34.4829472,-77.5110346],"ct":"US","tp":"CR","ts":"2025-04-13T06:21:07Z","tX":291,"tY":407,"tags":{"name":"The Landing at Stump Sound"}},"9961670808":{"location":[34.550219,-77.3924606],"ct":"US","tp":"CS","ts":"2022-08-18T14:51:09Z","tX":291,"tY":407,"tags":{}},"9961753383":{"location":[34.5474419,-77.3939147],"ct":"US","tp":"CS","ts":"2022-08-18T14:52:55Z","tX":291,"tY":407,"tags":{"name":"Clay Hill Campground"}},"9961786547":{"location":[34.5485136,-77.3757706],"ct":"US","tp":"CS","ts":"2022-08-18T14:59:04Z","tX":291,"tY":407,"tags":{"name":"The Pines RV Park & Campground","website":"https://thepinesr-vparkcampgroundllc.com/"}},"9961986269":{"location":[34.4967041,-77.4580847],"ct":"US","tp":"CS","ts":"2022-08-18T16:39:55Z","tX":291,"tY":407,"tags":{"name":"Harbor Point RV Community"}},"9968780649":{"location":[34.5338793,-77.3978971],"ct":"US","tp":"CR","ts":"2022-08-21T22:52:40Z","tX":291,"tY":407,"tags":{"name":"Live Oak RV Park","website":"http://liveoakrvpark.net/"}},"10059609897":{"location":[34.4532159,-77.5656768],"ct":"US","tp":"CR","ts":"2022-09-28T21:28:06Z","tX":291,"tY":407,"tags":{}},"12789147010":{"location":[34.4837394,-77.5530604],"ct":"US","tp":"CR","ts":"2025-04-26T17:22:05Z","tX":291,"tY":407,"tags":{}}}