{"606114375":{"location":[46.0419202,-112.8043663],"ct":"US","tp":"CR","ts":"2018-07-08T16:30:42Z","tX":191,"tY":364,"tags":{"name":"Fairmont RV Resort"}},"859109507":{"location":[45.9939141,-112.5312051],"ct":"US","tp":"CR","ts":"2024-04-18T10:38:42Z","tX":191,"tY":364,"tags":{"addr:city":"Butte","addr:country":"US","addr:housenumber":"1601","addr:postcode":"59701","addr:state":"MT","addr:street":"Kaw Avenue","bbq":"yes","brand":"KOA","brand:wikidata":"Q16988635","cabins":"yes","camp_site":"deluxe","capacity:cabins":"6","capacity:caravans":"79","capacity:pitches":"116","capacity:tents":"31","caravans":"yes","cooking":"yes","dog":"leashed","drinking_water":"yes","dryer":"yes","email":"butte@koa.com","fee":"yes","generator:output:electricity:opening_hours":"07:00-22:00","hot_water":"yes","internet_access":"wlan","internet_access:access":"customers","kitchen":"yes","lit":"automatic","motor_vehicle":"yes","motorhome":"yes","name":"Butte KOA Journey Campgroung","nudism":"no","openfire":"yes","opening_hours":"Mo-Su 11:00-14:00","operator":"MARIC PROPERTIES LLC","payment:credit_cards":"yes","permanent_camping":"yes","phone":"+1-406-782-8080","phone:mobile":"+1-605-468-9532","picnic_table":"yes","power_supply":"yes","reservation":"required","sanitary_dump_station":"yes","short_name":"Butte KOA","shower":"yes","smoking":"outside","swimming_pool":"yes","tents":"yes","toilets":"yes","trucks":"yes","washing_machine":"yes","waste:excrement":"yes","waste_disposal":"yes","website":"https://koa.com/campgrounds/butte/","wheelchair":"yes"}},"1217880511":{"location":[45.9934021,-112.5302774],"ct":"US","tp":"CR","ts":"2023-10-23T23:52:49Z","tX":191,"tY":364,"tags":{"capacity:caravans":"15","caravans":"yes","drinking_water":"yes","fee":"yes","internet_access":"wlan","internet_access:fee":"customers","motorhome":"yes","name":"Satellite Friendly, Pull Through Full Hook-Up, 30 & 50 AMP","operator":"Butte KOA Journey Campground","power_supply":"50","reservation":"required","shower":"yes","smoking":"outside","surface":"paved","toilets":"yes"}},"1217895008":{"location":[45.9936639,-112.5313409],"ct":"US","tp":"CR","ts":"2023-10-23T23:52:49Z","tX":191,"tY":364,"tags":{"caravans":"yes","internet_access":"wlan","internet_access:fee":"customers","name":"Deluxe Patio, Full Hookup Pull-Through 50/30AMP","nudism":"no","operator":"Butte KOA Journey Campground","sanitary_dump_station":"yes","shower":"yes","tents":"yes","toilets":"yes","wheelchair":"yes"}},"1217899581":{"location":[45.9943764,-112.5313915],"ct":"US","tp":"CR","ts":"2023-10-23T23:52:49Z","tX":191,"tY":364,"tags":{"internet_access":"wlan","internet_access:fee":"customers","name":"Pull Through, Full Hookup 50AMP","operator":"Butte KOA Journey Campground","power_supply":"50","sanitary_dump_station":"yes","shower":"yes","smoking":"outside","tents":"yes","toilets":"yes"}},"1217899582":{"location":[45.9943436,-112.5317285],"ct":"US","tp":"CR","ts":"2023-10-23T23:52:49Z","tX":191,"tY":364,"tags":{"internet_access":"wlan","internet_access:fee":"customers","name":"Back In, Full Hookup 30 & 50AMP","operator":"Butte KOA Journey Campground","power_supply":"50, 30","sanitary_dump_station":"yes","shower":"yes","smoking":"outside","tents":"yes","toilets":"yes"}},"1217902109":{"location":[45.9935451,-112.5318814],"ct":"US","tp":"CS","ts":"2023-10-23T23:11:55Z","tX":191,"tY":364,"tags":{"name":"Deluxe Tent Water & Power"}},"1217904542":{"location":[45.9943098,-112.5310301],"ct":"US","tp":"CS","ts":"2023-10-23T23:52:49Z","tX":191,"tY":364,"tags":{"cabins":"yes","caravans":"no","dog":"yes","name":"Basic Tent & Cabin Camping","operator":"Butte KOA Journey Campground","tents":"yes"}},"1218658384":{"location":[45.9692815,-112.5060051],"ct":"US","tp":"SD","ts":"2024-07-17T14:04:28Z","tX":191,"tY":364,"tags":{"access":"yes","name":"RV Dump","opening_hours":"24/7","operator":"Town Pump Inc","ref":"RV Dump","surface":"concrete"}},"1218658385":{"location":[45.9692811,-112.5060635],"ct":"US","tp":"SD","ts":"2024-07-17T14:04:28Z","tX":191,"tY":364,"tags":{"access":"yes","name":"RV Dump","opening_hours":"24/7","operator":"Town Pump Inc","ref":"RV Dump","surface":"concrete"}},"1218658386":{"location":[45.9692806,-112.5061218],"ct":"US","tp":"SD","ts":"2024-07-17T14:04:28Z","tX":191,"tY":364,"tags":{"access":"yes","name":"RV Dump","opening_hours":"24/7","operator":"Town Pump Inc","ref":"RV Dump","surface":"concrete"}},"1218658404":{"location":[45.9692802,-112.5061802],"ct":"US","tp":"SD","ts":"2024-07-17T14:04:28Z","tX":191,"tY":364,"tags":{"access":"yes","name":"RV Dump","opening_hours":"24/7","operator":"Town Pump Inc","ref":"RV Dump","surface":"concrete"}},"1284552194":{"location":[46.0102702,-112.6235746],"ct":"US","tp":"CR","ts":"2024-05-19T03:56:51Z","tX":191,"tY":364,"tags":{"addr:city":"Rocker","addr:housenumber":"122015","addr:postcode":"59701","addr:state":"MT","addr:street":"West Browns Gulch Road","fee":"yes","large_vehicles":"yes","name":"2 Bar Lazy H RV Campground","phone":"+1-406-782-5464","power_supply":"yes","sanitary_dump_station":"yes"}},"11168657352":{"location":[45.8840871,-112.781394],"ct":"US","tp":"CS","ts":"2023-11-29T13:06:57Z","tX":191,"tY":364,"tags":{"bear_box":"yes","name":"Beaverdam campground","seasonal":"spring;summer;autumn","toilets":"outhouse","water_source":"pump"}}}