{"125201834":{"location":[37.9804743,-112.737038],"ct":"US","tp":"PK","ts":"2024-09-22T19:00:31Z","tX":191,"tY":395,"tags":{"access":"yes","caravans":"yes","covered":"no","fee":"no","hgv":"designated","mobile_reception":"yes","motorcar":"no","name":"Large Vehicle Parking","parking":"surface","source":"Bing","surface":"asphalt"}},"125201842":{"location":[37.9824968,-112.7385729],"ct":"US","tp":"PK","ts":"2024-08-04T16:32:37Z","tX":191,"tY":395,"tags":{"access":"yes","caravans":"yes","fee":"no","hgv":"yes","motorcar":"no","name":"Large Vehicle Parking","parking":"surface","source":"Bing"}},"334210668":{"location":[37.7462702,-112.58654],"ct":"US","tp":"CS","ts":"2019-02-17T05:23:56Z","tX":191,"tY":395,"tags":{"name":"White Bridge Campground","operator":"United States Forest Service","source":"www.fs.usda.gov","uuid":"sonora_20130614","website":"https://www.fs.usda.gov/recarea/dixie/recarea/?recid=24884"}},"334210669":{"location":[37.7603555,-112.7599032],"ct":"US","tp":"CS","ts":"2025-02-12T22:26:45Z","tX":191,"tY":395,"tags":{"name":"Yankee Meadow Campground","operator":"United States Forest Service","website":"https://www.fs.usda.gov/recarea/dixie/recarea/?recid=24888"}},"544439769":{"location":[37.8500913,-112.826923],"ct":"US","tp":"CR","ts":"2023-09-06T23:40:07Z","tX":191,"tY":395,"tags":{"addr:city":"Parowan","addr:housenumber":"492","addr:postcode":"84761","addr:state":"UT","addr:street":"North Main Street","name":"Sportsmen Country RV Park","phone":"+1-435-477-3714"}},"1762963121":{"location":[37.7694912,-112.7534756],"ct":"US","tp":"CS","ts":"2012-05-23T09:33:43Z","tX":191,"tY":395,"tags":{"source":"Bing"}},"2344692007":{"location":[37.773,-112.749],"ct":"US","tp":"CS","ts":"2013-06-14T18:27:46Z","tX":191,"tY":395,"tags":{"name":"Yankee Designated Dispersed Camping Area","operator":"USFS","source":"www.fs.usda.gov","uuid":"sonora_20130614"}},"4721628436":{"location":[37.7322383,-112.824398],"ct":"US","tp":"CS","ts":"2024-01-22T22:10:02Z","tX":191,"tY":395,"tags":{"name":"Camp Thunder Ridge (BSA)","operator":"Crossroads of the West Council, Boy Scouts of America"}}}