{"112926060":{"location":[37.0346872,-112.7348475],"ct":"US","tp":"CS","ts":"2022-11-15T23:08:49Z","tX":191,"tY":398,"tags":{"barrier":"fence","fence_type":"wire"}},"113586745":{"location":[37.0441479,-112.5166971],"ct":"US","tp":"CS","ts":"2023-08-18T04:28:13Z","tX":191,"tY":398,"tags":{"name":"Crazy Horse Campark"}},"113725902":{"location":[37.0421325,-112.5248858],"ct":"US","tp":"CR","ts":"2024-09-23T02:06:56Z","tX":191,"tY":398,"tags":{"caravans":"yes","check_date":"2024-06-04","fee":"yes","internet_access":"wlan","internet_access:fee":"customers","name":"Hitch‘n‘Post RV Park","power_supply":"yes","shower":"yes"}},"160247168":{"location":[37.0889197,-112.6721022],"ct":"US","tp":"CS","ts":"2024-04-03T15:15:07Z","tX":191,"tY":398,"tags":{"caravans":"yes","drinking_water":"no","name":"Ponderosa Grove Campground","power_supply":"no","shower":"no","tents":"yes","toilets":"yes"}},"1049643258":{"location":[37.0395206,-112.5254685],"ct":"US","tp":"CR","ts":"2024-07-19T15:21:55Z","tX":191,"tY":398,"tags":{"addr:city":"Kanab","addr:housenumber":"483","addr:postcode":"84741","addr:state":"UT","addr:street":"South 100 East","internet_access":"wlan","internet_access:fee":"customers","name":"Kanab RV Corral","phone":"+1 (435) 644-5330","power_supply":"yes","reservation":"yes","sanitary_dump_station":"yes","website":"https://kanabrvcorral.com/"}},"1113474373":{"location":[37.0376853,-112.7298231],"ct":"US","tp":"CS","ts":"2022-11-15T23:08:49Z","tX":191,"tY":398,"tags":{}},"1218787587":{"location":[37.0417667,-112.5170437],"ct":"US","tp":"CR","ts":"2023-10-27T14:02:19Z","tX":191,"tY":398,"tags":{"addr:city":"Kanab","addr:housenumber":"584 E","addr:postcode":"84741","addr:state":"UT","addr:street":"300 South","name":"J&J RV Park","phone":"+1 435-899-1956","power_supply":"yes","sanitary_dump_station":"yes"}},"1290335245":{"location":[36.9444381,-112.5338467],"ct":"US","tp":"CR","ts":"2024-06-07T21:02:32Z","tX":191,"tY":398,"tags":{"addr:city":"Fredonia","addr:housenumber":"295","addr:postcode":"86022","addr:state":"AZ","addr:street":"Pratt Street","name":"WheelInn RV Park","website":"https://wheelinnrvpark.com/"}},"3647766455":{"location":[37.0804349,-112.5293845],"ct":"US","tp":"CS","ts":"2023-02-05T20:04:21Z","tX":191,"tY":398,"tags":{"backcountry":"yes","source":"gps"}},"8026088107":{"location":[37.1267818,-112.5793479],"ct":"US","tp":"CS","ts":"2020-10-20T18:23:43Z","tX":191,"tY":398,"tags":{}},"9862569217":{"location":[37.0895509,-112.6714381],"ct":"US","tp":"CS","ts":"2024-04-03T15:15:08Z","tX":191,"tY":398,"tags":{"caravans":"yes","drinking_water":"no","name":"Ponderosa Grove Campground","power_supply":"no","shower":"no","tents":"yes","toilets":"yes"}},"11543852411":{"location":[37.0790165,-112.5363178],"ct":"US","tp":"CS","ts":"2024-01-23T18:59:05Z","tX":191,"tY":398,"tags":{"backcountry":"yes"}},"11543852412":{"location":[37.0821126,-112.5260639],"ct":"US","tp":"CS","ts":"2024-01-23T18:59:05Z","tX":191,"tY":398,"tags":{"backcountry":"yes"}}}