{"744218725":{"location":[33.4818755,-112.5585689],"ct":"US","tp":"CS","ts":"2019-11-11T02:33:25Z","tX":191,"tY":410,"tags":{}},"775841328":{"location":[33.602001,-112.5030151],"ct":"US","tp":"CS","ts":"2020-11-20T20:49:28Z","tX":191,"tY":410,"tags":{"ele":"459","name":"White Tank Campground","operator":"Maricopa County"}},"1094394561":{"location":[33.4328102,-112.5758106],"ct":"US","tp":"CR","ts":"2024-04-19T17:56:40Z","tX":191,"tY":410,"tags":{"addr:city":"Buckeye","addr:housenumber":"1500","addr:postcode":"85326","addr:state":"AZ","addr:street":"South Apache Road","landuse":"residential","name":"Leaf Verde RV Resort"}},"10257880394":{"location":[33.5923589,-112.5025049],"ct":"US","tp":"CS","ts":"2022-12-12T20:19:48Z","tX":191,"tY":410,"tags":{"name":"Willow Campground"}},"10257880395":{"location":[33.60098,-112.5025],"ct":"US","tp":"CS","ts":"2022-12-12T20:19:48Z","tX":191,"tY":410,"tags":{}},"7237831389":{"location":[33.601211,-112.5014413],"ct":"US","tp":"SD","ts":"2020-02-24T02:31:32Z","tX":191,"tY":410,"tags":{}}}