{"4452269889":{"location":[30.5601633,47.2358419],"ct":"IQ","tp":"CS","ts":"2016-10-17T17:54:47Z","tX":646,"tY":420,"tags":{"name":"شركة المجال لرجال الاعمال","name:ar":"شركة المجال لرجال الاعمال","name:en":"Al majal Business park"}},"5858214685":{"location":[30.4582459,47.3117861],"ct":"IQ","tp":"CS","ts":"2018-08-26T06:22:35Z","tX":646,"tY":420,"tags":{"name":"جسر 22"}},"6259195285":{"location":[30.5566696,47.2486464],"ct":"IQ","tp":"CS","ts":"2019-02-05T06:26:47Z","tX":646,"tY":420,"tags":{"name":"CAMERON-SLB"}},"7984095185":{"location":[30.4581919,47.3104203],"ct":"IQ","tp":"CS","ts":"2020-10-07T08:07:14Z","tX":646,"tY":420,"tags":{"name":"جسر ٨"}},"8602681419":{"location":[30.7484557,47.3844106],"ct":"IQ","tp":"CS","ts":"2021-04-07T13:15:41Z","tX":646,"tY":420,"tags":{"addr:housenumber":"14","addr:postcode":"61016","addr:street":"الدير","internet_access":"wlan","name":"نقطة الدير سعد اللويزي","name:en":"Deer point Saad Ellweezy","opening_hours":"24/7","phone":"07736998385"}},"8625117417":{"location":[30.5625035,47.2348759],"ct":"IQ","tp":"CS","ts":"2021-04-13T08:11:56Z","tX":646,"tY":420,"tags":{"name":"شركة الكرار الهندسية"}},"11431920470":{"location":[30.4537925,47.2749518],"ct":"IQ","tp":"CS","ts":"2023-12-19T11:24:29Z","tX":646,"tY":420,"tags":{"internet_access":"wlan","name":"office"}},"11801142169":{"location":[30.5724183,47.3358117],"ct":"IQ","tp":"CS","ts":"2024-04-08T02:12:46Z","tX":646,"tY":420,"tags":{"name":"كامب ابو ايمن المكعب الهندسي","name:en":"Camp cubic"}},"5309284521":{"location":[30.568306,47.3284704],"ct":"IQ","tp":"CR","ts":"2018-03-20T11:20:44Z","tX":646,"tY":420,"tags":{"name":"اكادمية الرميلة الشمالية","name:en":"Rumaila Training Academy - North Rumaila"}},"12432817901":{"location":[30.5243698,47.2174951],"ct":"IQ","tp":"CS","ts":"2024-12-19T07:37:25Z","tX":646,"tY":420,"tags":{"name:en":"TAAZ HQ"}},"12432818001":{"location":[30.6058142,47.3081009],"ct":"IQ","tp":"CS","ts":"2024-12-19T07:37:26Z","tX":646,"tY":420,"tags":{"name:en":"GW 411"}},"12432818002":{"location":[30.6058368,47.3386045],"ct":"IQ","tp":"CS","ts":"2024-12-19T07:37:28Z","tX":646,"tY":420,"tags":{"name":"R 411"}},"12432819401":{"location":[30.4615378,47.3127282],"ct":"IQ","tp":"CS","ts":"2024-12-19T07:37:42Z","tX":646,"tY":420,"tags":{"name:en":"R 022"}},"12432819501":{"location":[30.5470391,47.3296448],"ct":"IQ","tp":"CS","ts":"2024-12-19T07:37:45Z","tX":646,"tY":420,"tags":{"name:en":"R 011"}},"12433230406":{"location":[30.6372573,47.330255],"ct":"IQ","tp":"CS","ts":"2024-12-19T11:43:25Z","tX":646,"tY":420,"tags":{"name:en":"R 069"}},"12441214301":{"location":[30.6148559,47.3401775],"ct":"IQ","tp":"CS","ts":"2024-12-22T08:39:13Z","tX":646,"tY":420,"tags":{"name:en":"R 552"}},"12466926701":{"location":[30.492707,47.3134063],"ct":"IQ","tp":"CS","ts":"2025-01-01T13:53:35Z","tX":646,"tY":420,"tags":{"name":"R 164"}},"12466926702":{"location":[30.4920949,47.3140098],"ct":"IQ","tp":"CS","ts":"2025-01-01T13:53:35Z","tX":646,"tY":420,"tags":{}},"12466926801":{"location":[30.566058,47.2992979],"ct":"IQ","tp":"CS","ts":"2025-01-01T13:53:36Z","tX":646,"tY":420,"tags":{"name:en":"R 244"}},"12466926901":{"location":[30.6759123,47.3310928],"ct":"IQ","tp":"CS","ts":"2025-01-01T13:53:37Z","tX":646,"tY":420,"tags":{"name:en":"R 193"}},"12470919508":{"location":[30.6362981,47.3308335],"ct":"IQ","tp":"CS","ts":"2025-01-03T10:07:59Z","tX":646,"tY":420,"tags":{"name:en":"T 1"}},"12470919509":{"location":[30.6362609,47.3292846],"ct":"IQ","tp":"CS","ts":"2025-01-03T10:08:01Z","tX":646,"tY":420,"tags":{"name:en":"T 2"}},"12470919510":{"location":[30.6362671,47.3296729],"ct":"IQ","tp":"CS","ts":"2025-01-03T10:08:02Z","tX":646,"tY":420,"tags":{"name:en":"EEP"}},"12470925605":{"location":[30.637837,47.3307006],"ct":"IQ","tp":"CS","ts":"2025-01-03T10:08:05Z","tX":646,"tY":420,"tags":{"name:en":"T 4"}},"12470925702":{"location":[30.6378106,47.3294407],"ct":"IQ","tp":"CS","ts":"2025-01-03T10:08:03Z","tX":646,"tY":420,"tags":{"name:en":"T 3"}},"12478020301":{"location":[30.4915817,47.3350974],"ct":"IQ","tp":"CS","ts":"2025-01-06T09:00:19Z","tX":646,"tY":420,"tags":{"name:en":"R 445"}},"12513986001":{"location":[30.4920221,47.3344165],"ct":"IQ","tp":"CS","ts":"2025-01-19T10:52:58Z","tX":646,"tY":420,"tags":{"name:en":"T 1"}},"12513986801":{"location":[30.4919209,47.3350995],"ct":"IQ","tp":"CS","ts":"2025-01-19T10:52:59Z","tX":646,"tY":420,"tags":{"name:en":"T 2"}},"12513986802":{"location":[30.4903661,47.3377362],"ct":"IQ","tp":"CS","ts":"2025-01-19T10:53:00Z","tX":646,"tY":420,"tags":{"name:en":"T 3"}},"12513986803":{"location":[30.493127,47.3338147],"ct":"IQ","tp":"CS","ts":"2025-01-19T10:53:01Z","tX":646,"tY":420,"tags":{"name:en":"T 4"}},"12517708701":{"location":[30.6071663,47.3298039],"ct":"IQ","tp":"CS","ts":"2025-01-20T05:55:39Z","tX":646,"tY":420,"tags":{"name:en":"R 046"}},"12517708702":{"location":[30.6064176,47.3278883],"ct":"IQ","tp":"CS","ts":"2025-01-20T05:55:42Z","tX":646,"tY":420,"tags":{"name:en":"T 2"}},"12517708801":{"location":[30.6059584,47.3288043],"ct":"IQ","tp":"CS","ts":"2025-01-20T05:55:40Z","tX":646,"tY":420,"tags":{"name:en":"T 1"}},"12517708802":{"location":[30.6073678,47.3287639],"ct":"IQ","tp":"CS","ts":"2025-01-20T05:55:43Z","tX":646,"tY":420,"tags":{"name:en":"T 3"}},"12517708803":{"location":[30.5844309,47.3237121],"ct":"IQ","tp":"CS","ts":"2025-01-20T05:55:45Z","tX":646,"tY":420,"tags":{"name:en":"R 077"}},"12517708901":{"location":[30.6060906,47.3284928],"ct":"IQ","tp":"CS","ts":"2025-01-20T05:55:41Z","tX":646,"tY":420,"tags":{"name:en":"SG"}},"12517709001":{"location":[30.6073491,47.3297926],"ct":"IQ","tp":"CS","ts":"2025-01-20T05:55:44Z","tX":646,"tY":420,"tags":{"name:en":"T 4"}},"12517709002":{"location":[30.6071917,47.3296962],"ct":"IQ","tp":"CS","ts":"2025-01-20T05:55:44Z","tX":646,"tY":420,"tags":{"name:en":"MG"}},"12543563301":{"location":[30.6295154,47.3339664],"ct":"IQ","tp":"CS","ts":"2025-01-30T11:47:37Z","tX":646,"tY":420,"tags":{"name:en":"R 077"}},"12565526201":{"location":[30.6487951,47.3669263],"ct":"IQ","tp":"CS","ts":"2025-02-07T13:49:39Z","tX":646,"tY":420,"tags":{"name":"R 284","name:en":"R-284"}},"12701667501":{"location":[30.6209427,47.3351358],"ct":"IQ","tp":"CS","ts":"2025-03-26T06:38:18Z","tX":646,"tY":420,"tags":{"name:en":"R 519"}}}