{"4209674037":{"location":[30.2313376,47.4158634],"ct":"IQ","tp":"CS","ts":"2016-05-26T20:17:24Z","tX":646,"tY":421,"tags":{"addr:street":"ROO HQ Perimeter Road","name":"ROO HQ Camp"}},"5103216322":{"location":[30.4459713,47.2651406],"ct":"IQ","tp":"CS","ts":"2017-09-13T12:56:13Z","tX":646,"tY":421,"tags":{"name":"DACIA CAMP","name:ku":"DACIA CAMP"}},"5135340821":{"location":[30.1899987,47.4140668],"ct":"IQ","tp":"CS","ts":"2017-09-28T13:19:52Z","tX":646,"tY":421,"tags":{"name":"74"}},"5612178321":{"location":[30.2255534,47.420056],"ct":"IQ","tp":"CS","ts":"2018-05-11T18:49:44Z","tX":646,"tY":421,"tags":{"name:en":"GCMC camp"}},"6312188685":{"location":[30.4443248,47.2673514],"ct":"IQ","tp":"CS","ts":"2019-03-02T07:51:36Z","tX":646,"tY":421,"tags":{"name":"Ce","name:ar":"Ceppac"}},"8176360819":{"location":[30.1955995,47.120127],"ct":"IQ","tp":"CS","ts":"2020-11-29T13:42:59Z","tX":646,"tY":421,"tags":{"addr:street":"مخيم نادي الفيحاء"}},"8343503017":{"location":[30.3582555,47.1136326],"ct":"IQ","tp":"CS","ts":"2021-01-20T22:42:44Z","tX":646,"tY":421,"tags":{"addr:street":"شارع القاعدة الجوية","name":"المهبط القديم"}},"8343503018":{"location":[30.2295725,47.140505],"ct":"IQ","tp":"CS","ts":"2021-01-20T22:42:44Z","tX":646,"tY":421,"tags":{"name":"الرمث"}},"8343503317":{"location":[30.1825558,47.1125114],"ct":"IQ","tp":"CS","ts":"2021-01-20T22:42:45Z","tX":646,"tY":421,"tags":{"name":"شعيب البطين"}},"9747654017":{"location":[30.2202527,47.1758677],"ct":"IQ","tp":"CS","ts":"2022-05-17T00:53:44Z","tX":646,"tY":421,"tags":{"addr:street":"بر ايهاب التميمي","internet_access":"wlan","name":"ايهاب التميمي","name:en":"البر","name:ku":"البر"}},"6370612187":{"location":[30.4484483,47.2687446],"ct":"IQ","tp":"CR","ts":"2023-08-16T09:00:48Z","tX":646,"tY":421,"tags":{"addr:street":"Old highway to Nasyria","country":"CN","name":"الكم الصيني","name:en":"CPECC","operator:short":"CPECC"}}}