{"153138541":{"location":[64.8453346,-147.7720738],"ct":"US","tp":"CR","ts":"2012-03-04T07:49:18Z","tX":91,"tY":267,"tags":{}},"487228692":{"location":[64.840497,-147.8356988],"ct":"US","tp":"CR","ts":"2024-10-13T03:33:38Z","tX":91,"tY":267,"tags":{"addr:city":"Fairbanks","addr:country":"US","addr:housenumber":"4140","addr:postcode":"99701","addr:state":"AK","addr:street":"Boat Street","dog":"yes","email":"info@riversedge.net","fee":"yes","internet_access":"wlan","internet_access:fee":"no","name":"River's Edge RV Park","opening_hours":"May 18-Sep 15","operator":"River's Edge Resort","phone":"+1 907 474 0286","power_supply":"yes","reservation":"recommended","sanitary_dump_station":"customers","tents":"yes","website":"https://www.riversedge.net/fairbanks-rv-park"}},"943652711":{"location":[64.8655914,-147.7607019],"ct":"US","tp":"CS","ts":"2024-06-25T11:46:34Z","tX":91,"tY":267,"tags":{"backcountry":"no","capacity":"50","contact:facebook":"https://www.facebook.com/tananavalleystatefair/","contact:instagram":"https://www.instagram.com/officialtananavalleystatefair/","drinking_water":"yes","email":"reservations@tananavalleycampgroundandrv.com","internet_access":"wlan","internet_access:fee":"no","name":"Tanana Valley Campground and RV park","opening_hours":"May 15-Sep 15: 09:00-18:00","operator":"Tanana Valley State Fair","phone":"+1-907-456-7956","power_supply":"yes","shower":"yes","tents":"yes","toilets":"yes","website":"https://www.tananavalleycampgroundandrv.com/"}},"1121118745":{"location":[64.8397703,-147.8103178],"ct":"US","tp":"CS","ts":"2024-10-13T18:57:35Z","tX":91,"tY":267,"tags":{"access":"yes","addr:city":"Fairbanks","addr:housenumber":"3530","addr:postcode":"99709","addr:state":"AK","addr:street":"Geraghty Avenue","name":"Chena River State Recreation Site","operator":"State of Alaska - State Parks","tents":"yes","website":"https://alaskastateparks.reserveamerica.com/camping/chena-river-state-recreation-site/r/campgroundDetails.do?contractCode=AK&parkId=1181551"}},"9705302913":{"location":[64.8349942,-147.6901134],"ct":"US","tp":"CS","ts":"2022-04-30T14:54:48Z","tX":91,"tY":267,"tags":{"name":"Moose Loop RV Campground","phone":"(907) 353-7615","website":"https://www.camping.org/campgrounds/alaska/fort-wainwright/moose-loop-rv-campground"}},"9946203718":{"location":[64.8641835,-147.7591098],"ct":"US","tp":"CS","ts":"2022-08-11T00:33:41Z","tX":91,"tY":267,"tags":{}},"4946467035":{"location":[64.8576468,-147.7972175],"ct":"US","tp":"SD","ts":"2017-07-31T01:25:15Z","tX":91,"tY":267,"tags":{"fee":"no"}}}