{"1132397476":{"location":[21.7702978,92.0791019],"ct":"BD","tp":"CS","ts":"2023-01-16T08:10:51Z","tX":773,"tY":448,"tags":{"name":"Spectra Base camp"}},"5151108922":{"location":[21.6777652,92.0777247],"ct":"BD","tp":"CS","ts":"2017-10-06T06:32:17Z","tX":773,"tY":448,"tags":{"name:en":"Bangabandhu Safari park"}},"6160617700":{"location":[21.8398495,91.8547243],"ct":"BD","tp":"CS","ts":"2018-12-25T05:33:24Z","tX":773,"tY":448,"tags":{"name:en":"Kaiyarbil Union Porisod"}},"6160617701":{"location":[21.8434094,91.8513153],"ct":"BD","tp":"CS","ts":"2018-12-25T05:33:33Z","tX":773,"tY":448,"tags":{"addr:street":"Kaiyarbil union","name:en":"Prijom cyclone Centre"}},"6160618286":{"location":[21.8634168,91.8849423],"ct":"BD","tp":"CS","ts":"2018-12-25T05:45:29Z","tX":773,"tY":448,"tags":{"addr:street":"Lamshikhali Union","name:en":"Toholipara Cyclone Shelter Station"}},"6160618986":{"location":[21.8550931,91.8712967],"ct":"BD","tp":"CS","ts":"2018-12-25T05:33:53Z","tX":773,"tY":448,"tags":{"addr:street":"Lamshikhali Union","name:en":"West Lamshikhali primary school"}},"6160618990":{"location":[21.8787518,91.8832673],"ct":"BD","tp":"CS","ts":"2018-12-25T05:46:19Z","tX":773,"tY":448,"tags":{"addr:street":"Lamshikhali Union","name:en":"Uttar Lamshikhali Govt Primary school"}},"6160619086":{"location":[21.8503807,91.8470177],"ct":"BD","tp":"CS","ts":"2018-12-25T05:33:39Z","tX":773,"tY":448,"tags":{"addr:street":"Kaiyarbil","name:en":"KUTUBDIA Zamea Nurania Girls Madrasha"}},"6160619186":{"location":[21.8571341,91.8771687],"ct":"BD","tp":"CS","ts":"2018-12-25T05:45:17Z","tX":773,"tY":448,"tags":{"addr:street":"Lamshikhali Union","name:en":"Al Faruq Adorsho Dakhil Madrasha"}},"6160619190":{"location":[21.8607736,91.8650077],"ct":"BD","tp":"CS","ts":"2018-12-25T05:57:34Z","tX":773,"tY":448,"tags":{"addr:street":"Dhakkhin Dhurung Union","name:en":"Purbo Dhurung Govt primary school"}},"6160630685":{"location":[21.8692973,91.8690448],"ct":"BD","tp":"CS","ts":"2018-12-25T05:46:26Z","tX":773,"tY":448,"tags":{"addr:street":"Lamshikhali Union","name:en":"Rajakhali Govt Primary school"}},"6165313485":{"location":[21.8127773,91.855768],"ct":"BD","tp":"CS","ts":"2018-12-27T07:27:16Z","tX":773,"tY":448,"tags":{"addr:street":"boroghop Union","name:en":"Master Talebullah Model school & College"}},"6165334785":{"location":[21.8038396,91.8585347],"ct":"BD","tp":"CS","ts":"2018-12-27T07:45:55Z","tX":773,"tY":448,"tags":{"addr:street":"Boroghop Union","name:en":"Baroghop Community Centre"}},"6165353685":{"location":[21.7816059,91.8574415],"ct":"BD","tp":"CS","ts":"2018-12-27T08:05:44Z","tX":773,"tY":448,"tags":{"addr:street":"ALI Akbar Dail Union","name:en":"Purbo ALI Akbar Dail Govt Primary school"}},"6165371285":{"location":[21.7732852,91.8504159],"ct":"BD","tp":"CS","ts":"2018-12-27T08:22:58Z","tX":773,"tY":448,"tags":{"addr:street":"Ali Akbar Dail Union","name:en":"Purbo tabaler char Cyclone Centre"}},"6165389885":{"location":[21.8071317,91.8478021],"ct":"BD","tp":"CS","ts":"2018-12-27T08:39:43Z","tX":773,"tY":448,"tags":{"name:en":"moddhe ALI Akbar Dail school"}},"6165509688":{"location":[21.7725238,91.8488735],"ct":"BD","tp":"CS","ts":"2018-12-27T10:12:01Z","tX":773,"tY":448,"tags":{"addr:street":"Ali Akbar Dail Union","name:en":"Tabaler char Govt Primary school"}},"6165704685":{"location":[21.8144894,91.8676727],"ct":"BD","tp":"CS","ts":"2018-12-27T11:26:58Z","tX":773,"tY":448,"tags":{"addr:street":"Boroghop Union","name:en":"Pilotkata Govt Primary school"}},"6172757385":{"location":[21.8053455,91.8687063],"ct":"BD","tp":"CS","ts":"2018-12-30T12:13:33Z","tX":773,"tY":448,"tags":{"addr:street":"Baroghop Union","name:en":"Amjakhali Govt Primary school"}}}