{"53849101":{"location":[43.7570074,-80.3341803],"ct":"CA","tp":"CS","ts":"2022-09-19T00:41:10Z","tX":283,"tY":373,"tags":{"attribution":"Natural Resources Canada","canvec:CODE":"2480012","canvec:UUID":"3a03c15e26c845a79cb64763844d874b","name":"Camp Nokomis","source":"CanVec_Import_2009","tents":"yes","wheelchair":"no"}},"53849102":{"location":[43.778536,-80.3441165],"ct":"CA","tp":"CS","ts":"2015-03-07T18:58:23Z","tX":283,"tY":373,"tags":{"attribution":"Natural Resources Canada","canvec:CODE":"2480012","canvec:UUID":"74110db539ee4a0286d21d632438bdc7","source":"CanVec_Import_2009","tents":"yes"}},"53849104":{"location":[43.7633406,-80.3434024],"ct":"CA","tp":"CS","ts":"2010-04-16T11:59:40Z","tX":283,"tY":373,"tags":{"attribution":"Natural Resources Canada","canvec:CODE":"2480012","canvec:UUID":"6133a4aaf3ef44b28bde2501c9edd2f3","source":"CanVec_Import_2009","tents":"yes"}},"53849107":{"location":[43.7682901,-80.2260712],"ct":"CA","tp":"CS","ts":"2023-09-07T23:26:14Z","tX":283,"tY":373,"tags":{"attribution":"Natural Resources Canada","canvec:CODE":"2480012","canvec:UUID":"3a558f3a570c49cbad5fca80d9c7f4af","source":"CanVec_Import_2009","tents":"yes"}},"178082189":{"location":[43.5888221,-80.4739882],"ct":"CA","tp":"CS","ts":"2023-08-11T20:10:38Z","tX":283,"tY":373,"tags":{"access":"private","addr:city":"West Montrose","addr:housenumber":"6344","addr:postcode":"N0B 2V0","addr:province":"ON","addr:street":"Line 86","landuse":"residential","name":"West Montrose Trailer Park"}},"550930629":{"location":[43.7745795,-80.340422],"ct":"CA","tp":"CR","ts":"2022-12-28T13:51:27Z","tX":283,"tY":373,"tags":{"addr:housenumber":"8523","addr:street":"Wellington Road 19","name":"Highland Pines Campground","power_supply":"yes","sanitary_dump_station":"yes","website":"https://highlandpines.com/"}},"556132775":{"location":[43.778536,-80.3441165],"ct":"CA","tp":"CR","ts":"2022-12-28T13:51:27Z","tX":283,"tY":373,"tags":{"name":"Highland Pines Campground","power_supply":"yes","sanitary_dump_station":"yes"}},"823825447":{"location":[43.8078447,-80.385921],"ct":"CA","tp":"CS","ts":"2010-07-18T23:00:05Z","tX":283,"tY":373,"tags":{"source":"CanVec 6.0 - NRCan"}},"823835061":{"location":[43.7575713,-80.3279844],"ct":"CA","tp":"CS","ts":"2018-04-06T18:25:34Z","tX":283,"tY":373,"tags":{"name":"Maple Leaf Acres","operator":"Maple Leaf Acres Membersâ€™ Association","source":"CanVec 6.0 - NRCan"}},"908579421":{"location":[43.7048581,-80.3554258],"ct":"CA","tp":"CS","ts":"2021-02-19T01:39:45Z","tX":283,"tY":373,"tags":{"capacity":"25"}},"1197154701":{"location":[43.608082,-80.2457174],"ct":"CA","tp":"CS","ts":"2024-06-23T18:44:05Z","tX":283,"tY":373,"tags":{"access":"permit","addr:city":"Guelph","addr:housenumber":"7743","addr:postcode":"N1H6J1","addr:province":"ON","addr:street":"Conservation Road","caravans":"yes","name":"Guelph Lake Conservation Area","operator":"Grand River Conservation Areas","phone":"+1 519-824-5061","tents":"yes","website":"https://www.grandriver.ca/en/outdoor-recreation/Guelph-Lake.aspx#gsc.tab=0"}},"1197154702":{"location":[43.6024222,-80.2453566],"ct":"CA","tp":"CS","ts":"2024-06-23T18:44:05Z","tX":283,"tY":373,"tags":{"access":"permit","addr:city":"Guelph","addr:housenumber":"7743","addr:postcode":"N1H6J1","addr:province":"ON","addr:street":"Conservation Road","name":"Guelph Lake Conservation Area","operator":"Grand River Conservation Areas","phone":"+1 519-824-5061","tents":"yes","website":"https://www.grandriver.ca/en/outdoor-recreation/Guelph-Lake.aspx#gsc.tab=0"}},"1197157109":{"location":[43.6077295,-80.2351938],"ct":"CA","tp":"CS","ts":"2023-08-11T18:34:01Z","tX":283,"tY":373,"tags":{"addr:city":"Guelph","addr:housenumber":"5422","addr:postcode":"N1H 6J1","addr:province":"ON","addr:street":"Jones Base Line","leisure":"summer_camp","name":"Camp Conestogo","operator":"YMCA","website":"https://www.ymcathreerivers.ca/day-camp-program-information"}},"1307823072":{"location":[43.7735473,-80.3508857],"ct":"CA","tp":"CR","ts":"2024-08-14T19:53:34Z","tX":283,"tY":373,"tags":{"name":"Highland Pines Campground"}},"2186852713":{"location":[43.6720499,-80.4444484],"ct":"CA","tp":"CS","ts":"2022-12-12T02:58:36Z","tX":283,"tY":373,"tags":{"name":"Elora Gorge Conservation Area","wikidata":"Q115569279"}}}