{"875898749":{"location":[41.9829791,-80.23573],"ct":"US","tp":"CS","ts":"2023-11-05T22:04:13Z","tX":283,"tY":380,"tags":{"addr:city":"Fairview","addr:housenumber":"8600","addr:postcode":"16415","addr:state":"PA","addr:street":"Avonia Road","caravans":"yes","fee":"yes","name":"Folly's End Campground","openfire":"yes","phone":"+18144745730","tents":"yes","toilets":"yes","website":"http://www.follysend.com/"}},"876753044":{"location":[42.0029066,-80.3930977],"ct":"US","tp":"CS","ts":"2023-11-05T21:24:50Z","tX":283,"tY":380,"tags":{"addr:city":"Springfield Township","addr:housenumber":"11709","addr:postcode":"16411","addr:state":"PA","addr:street":"West Lake Road","caravans":"yes","fee":"yes","name":"Pine Lane Campground","phone":"+18147744808","tents":"yes","website":"www.pinelanecampground.com"}},"897156026":{"location":[42.0015531,-80.4454007],"ct":"US","tp":"CS","ts":"2023-11-05T23:43:43Z","tX":283,"tY":380,"tags":{"addr:city":"North Springfield","addr:housenumber":"352","addr:postcode":"16430","addr:state":"PA","addr:street":"Old Holliday Road","caravans":"yes","fee":"yes","name":"Virginiaâ€™s Beach Campground","phone":"+18149223261","tents":"yes","website":"https://virginiasbeach.com/"}},"897174099":{"location":[41.9972659,-80.4533018],"ct":"US","tp":"CS","ts":"2021-01-19T15:29:01Z","tX":283,"tY":380,"tags":{"addr:city":"West Springfield","addr:housenumber":"13110","addr:postcode":"16443","addr:state":"PA","addr:street":"Old West Lake Road","name":"Camp Lambec"}},"897246121":{"location":[42.0055892,-80.4271993],"ct":"US","tp":"CS","ts":"2021-01-19T19:28:04Z","tX":283,"tY":380,"tags":{"addr:city":"North Springfield","addr:housenumber":"12600","addr:postcode":"16430","addr:state":"PA","addr:street":"Abels Road","name":"YMCA Camp Fitch","operator":"YMCA"}},"897279309":{"location":[42.0003667,-80.4398287],"ct":"US","tp":"CS","ts":"2021-01-19T20:00:26Z","tX":283,"tY":380,"tags":{"addr:city":"North Springfield","addr:housenumber":"398","addr:postcode":"16430","addr:state":"PA","addr:street":"Holliday Road","name":"Camp Judson"}},"1001498182":{"location":[42.01122,-80.1905074],"ct":"US","tp":"CS","ts":"2021-11-11T16:18:44Z","tX":283,"tY":380,"tags":{"addr:city":"Fairview","addr:housenumber":"6601","addr:postcode":"16415","addr:state":"PA","addr:street":"Sterrettania Road","name":"West Haven RV Park & Campground"}},"1001498183":{"location":[42.0230412,-80.1880006],"ct":"US","tp":"CS","ts":"2023-11-05T21:54:34Z","tX":283,"tY":380,"tags":{"addr:city":"Fairview","addr:housenumber":"6300","addr:postcode":"16415","addr:state":"PA","addr:street":"Sterrettania Road","caravans":"yes","fee":"yes","name":"Presque Isle Passage RV Park & Campground","openfire":"yes","phone":"+18148333272","shower":"yes","tents":"yes","toilets":"yes","website":"https://presqueislepassage.com/"}},"1005263216":{"location":[41.9719877,-80.2384275],"ct":"US","tp":"CS","ts":"2021-11-22T13:35:37Z","tX":283,"tY":380,"tags":{"addr:city":"Girard","addr:housenumber":"7755","addr:postcode":"16417","addr:state":"PA","addr:street":"Hawthorne Ridge Road","name":"Camp Hawthorne Ridge"}},"1221429362":{"location":[42.0014668,-80.1919909],"ct":"US","tp":"CR","ts":"2023-11-05T22:44:15Z","tX":283,"tY":380,"tags":{"addr:housenumber":"6645","addr:street":"West Road","brand":"KOA","brand:wikidata":"Q16988635","caravans":"yes","fee":"yes","name":"Erie KOA Holiday","openfire":"yes","operator":"KOA","phone":"+18144767706","short_name":"KOA","shower":"yes","tents":"yes","toilets":"yes","website":"https://koa.com/campgrounds/erie/"}},"1233883238":{"location":[42.0212548,-80.3628833],"ct":"US","tp":"CS","ts":"2023-12-24T21:12:00Z","tX":283,"tY":380,"tags":{"addr:city":"Lake City","addr:housenumber":"575","addr:postcode":"16423","addr:state":"PA","addr:street":"Elk Creek Road","caravans":"yes","fee":"yes","name":"Uncle John's Elk Creek Campground","phone":"+18147748672","website":"https://unclejohnselkcreekcamp.com/"}}}