{"369367027":{"location":[41.6601257,-80.463177],"ct":"US","tp":"CS","ts":"2022-10-22T02:11:17Z","tX":283,"tY":381,"tags":{"caravans":"yes","name":"Linesville Campground","operator":"Pymatuning State Park","tents":"yes"}},"1052173325":{"location":[41.5204364,-80.5053214],"ct":"US","tp":"CS","ts":"2024-01-22T18:14:26Z","tX":283,"tY":381,"tags":{"access":"customers","addr:city":"Jamestown","addr:housenumber":"716","addr:postcode":"16134","addr:state":"PA","addr:street":"Williamsfield Road","backcountry":"no","bbq":"yes","cabins":"no","camp_site":"deluxe","capacity:caravans":"199","capacity:pitches":"308","capacity:tents":"109","caravans":"yes","dog":"yes","drinking_water":"yes","fee":"yes","group_only":"no","hot_water":"no","impromptu":"no","internet_access":"no","kitchen":"no","motor_vehicle":"yes","motorhome":"yes","name":"Jamestown Campground","nudism":"no","openfire":"yes","opening_hours":"Apr Fr[2]-Oct Su[4]","operator":"Pymatuning State Park","payment:cash":"yes","payment:credit_cards":"yes","permanent_camping":"no","picnic_table":"yes","power_supply":"yes","reservation":"yes","sanitary_dump_station":"customers","scout":"no","shower":"yes","static_caravans":"no","swimming_pool":"no","tents":"yes","toilets":"yes","washing_machine":"yes","website":"https://www.dcnr.pa.gov/StateParks/FindAPark/PymatuningStatePark/Pages/default.aspx"}},"1221420073":{"location":[41.6355377,-80.3214847],"ct":"US","tp":"CS","ts":"2023-11-05T21:18:34Z","tX":283,"tY":381,"tags":{"addr:city":"Conneaut Lake","addr:housenumber":"12405","addr:postcode":"16316","addr:state":"PA","addr:street":"State Highway 618","caravans":"yes","name":"Camperland at Conneaut Lake Park","shower":"yes","tents":"yes","toilets":"yes","website":"www.conneautlakepark.com/camperland"}},"1221427923":{"location":[41.5648825,-80.494384],"ct":"US","tp":"CS","ts":"2023-11-05T22:25:57Z","tX":283,"tY":381,"tags":{"addr:housenumber":"7730","addr:street":"South Lake Road","caravans":"yes","fee":"yes","laundry_service":"yes","name":"Meadow Lake Campground","phone":"+17249276736","shower":"yes","toilets":"yes","website":"https://meadowlakecamping.com/"}},"1221428471":{"location":[41.673663,-80.3761877],"ct":"US","tp":"CS","ts":"2024-11-14T03:23:16Z","tX":283,"tY":381,"tags":{"addr:city":"Linesville","addr:housenumber":"15075","addr:postcode":"16424","addr:state":"PA","addr:street":"Shermansville Road","caravans":"yes","fee":"yes","name":"Pineview Camplands","openfire":"yes","phone":"+18146835561","shower":"yes","website":"https://www.pineviewcamplands.com"}},"6509676708":{"location":[41.6428128,-80.490906],"ct":"US","tp":"CS","ts":"2019-05-29T20:23:27Z","tX":283,"tY":381,"tags":{"access":"private","addr:state":"PA","name":"Tuttle Point"}},"10958501671":{"location":[41.5180251,-80.5064287],"ct":"US","tp":"SD","ts":"2023-06-05T22:56:19Z","tX":283,"tY":381,"tags":{"access":"unknown","fee":"yes","water_point":"yes"}}}