{"535376075":{"location":[37.0524239,-80.1926016],"ct":"US","tp":"CR","ts":"2019-04-24T01:17:26Z","tX":283,"tY":398,"tags":{"addr:city":"Copper Hill","addr:country":"US","addr:housenumber":"6517","addr:postcode":"24079","addr:state":"VA","addr:street":"Highland Haven Run Northeast","capacity":"46","description":"Only travel trailers and motorhomes produced by Airstream, Inc. are permitted in the park.","email":"info@vahighlandhaven.com","fee":"yes","internet_access":"wlan","name":"Virginia Highland Haven Airstream Park","payment:american_express":"no","payment:cryptocurrencies":"no","payment:diners_club":"no","payment:discover_card":"yes","payment:electronic_purses":"no","payment:jcb":"no","payment:mastercard":"yes","payment:visa":"yes","phone":"+1 540 200-9567","power_supply":"yes","website":"https://vahighlandhaven.com/"}},"544146293":{"location":[36.9343401,-80.2278667],"ct":"US","tp":"CR","ts":"2023-11-04T03:38:00Z","tX":283,"tY":398,"tags":{"addr:city":"Floyd","addr:housenumber":"2697","addr:postcode":"24091","addr:state":"VA","addr:street":"Franklin Pike Southeast","email":"ccromer@floydfamilycampground.com","fee":"yes","internet_access":"wlan","name":"Floyd Family Campground","phone":"+1 540-251-2250","power_supply":"yes","reservation":"yes","sanitary_dump_station":"yes","tents":"yes","website":"https://floydfamilycampground.com"}},"1013622678":{"location":[37.1454353,-80.319983],"ct":"US","tp":"CS","ts":"2021-12-20T03:27:15Z","tX":283,"tY":398,"tags":{"access":"private","addr:city":"Christiansburg","addr:housenumber":"4704","addr:postcode":"24073","addr:state":"VA","addr:street":"Roanoke Street","name":"Camp Christi","operator":"Church of God Virginia"}},"11311087682":{"location":[36.9329368,-80.2264354],"ct":"US","tp":"SD","ts":"2023-11-04T03:38:00Z","tX":283,"tY":398,"tags":{}}}