{"233904147":{"location":[36.3481112,-80.4728391],"ct":"US","tp":"CS","ts":"2016-07-16T08:12:21Z","tX":283,"tY":400,"tags":{"camp_site":"standard","capacity":"49","caravans":"yes","drinking_water":"yes","fee":"yes","name":"Pilot Mountain State Park Campground","operator":"Pilot Mountain State Park","tents":"yes"}},"431104719":{"location":[36.408119,-80.2565048],"ct":"US","tp":"CS","ts":"2016-07-15T01:28:53Z","tX":283,"tY":400,"tags":{"fee":"yes","name":"Group Campground","operator":"Hanging Rock State Park"}},"431337771":{"location":[36.3899548,-80.2752557],"ct":"US","tp":"CS","ts":"2020-02-13T14:15:37Z","tX":283,"tY":400,"tags":{"camp_site":"standard","capacity":"73","caravans":"yes","drinking_water":"yes","fee":"yes","name":"Hanging Rock State Park Campground","openfire":"yes","operator":"Hanging Rock State Park","tents":"yes"}},"634311445":{"location":[36.381999,-80.3881102],"ct":"US","tp":"CS","ts":"2018-10-15T17:34:07Z","tX":283,"tY":400,"tags":{"addr:city":"Pinnacle","addr:housenumber":"1630","addr:postcode":"27043","addr:state":"NC","addr:street":"Merridon Drive","backcountry":"no","caravans":"yes","fee":"yes","name":"Mountain Trail Stables","tents":"yes","website":"http://www.mtntrailstables.com/"}},"634358080":{"location":[36.3786721,-80.3786908],"ct":"US","tp":"CS","ts":"2022-07-05T12:56:13Z","tX":283,"tY":400,"tags":{"addr:city":"Pinnacle","addr:housenumber":"1460","addr:postcode":"27043","addr:state":"NC","addr:street":"Mackay Lane","group_only":"yes","name":"Mountain Top Youth Camp","phone":"+13363513485"}},"635465796":{"location":[36.342512,-80.4485983],"ct":"US","tp":"CR","ts":"2023-11-10T04:49:05Z","tX":283,"tY":400,"tags":{"addr:city":"Pinnacle","addr:country":"US","addr:housenumber":"1164","addr:postcode":"27043","addr:state":"NC","addr:street":"Pilot Knob Park Road","backcountry":"no","capacity":"10","caravans":"yes","drinking_water":"yes","email":"info@greystonervpark.com","fee":"yes","internet_access":"wlan","internet_access:fee":"no","motor_vehicle":"yes","name":"Greystone RV Park","openfire":"yes","phone":"336-368-5588","power_supply":"yes","static_caravans":"no","tents":"no","website":"https://greystonervpark.com/","wheelchair":"yes"}},"1134389165":{"location":[36.3657058,-80.3606691],"ct":"US","tp":"CS","ts":"2023-01-22T23:56:09Z","tX":283,"tY":400,"tags":{"addr:city":"King","addr:postcode":"27021","addr:state":"NC","addr:street":"Camp Hanes Road","capacity:caravans":"22","group_only":"yes","name":"YMCA Camp Hanes"}},"7346159735":{"location":[36.3938292,-80.1906386],"ct":"US","tp":"CS","ts":"2020-03-30T12:08:21Z","tX":283,"tY":400,"tags":{"addr:city":"Walnut Cove","addr:housenumber":"1070","addr:postcode":"27052","addr:state":"NC","addr:street":"Sunset Park Road","name":"Sunset Park Campground","phone":"(336) 593-2992"}},"10695238250":{"location":[36.3166175,-80.4448557],"ct":"US","tp":"CS","ts":"2023-02-26T17:14:18Z","tX":283,"tY":400,"tags":{"addr:city":"Pinnacle","addr:housenumber":"1140","addr:postcode":"27043","addr:state":"NC","addr:street":"Paces Place Road","name":"Jomeokee Campground","phone":"+13362836483"}}}