{"702930877":{"location":[35.7329909,-80.3838527],"ct":"US","tp":"CR","ts":"2024-08-09T20:05:16Z","tX":283,"tY":403,"tags":{"addr:city":"Linwood","addr:housenumber":"160","addr:postcode":"27299","addr:state":"NC","addr:street":"Campground Lane","internet_access":"wlan","name":"Cross Winds Family Campground","website":"https://www.crosswindsfamilycampground.com/"}},"1308470867":{"location":[35.6378027,-80.2697634],"ct":"US","tp":"CS","ts":"2024-08-17T16:24:48Z","tX":283,"tY":403,"tags":{"access":"private","addr:city":"Salisbury","addr:housenumber":"938","addr:postcode":"28146","addr:state":"NC","addr:street":"Scout Road","capacity:persons":"36","caravans":"no","dog":"no","drinking_water":"yes","fee":"yes","name":"Raven Point","nudism":"no","operator":"Old Hickory Council","picnic_table":"yes","power_supply":"yes","reservation":"required","shower":"yes","static_caravans":"no","toilets":"yes","website":"https://www.oldhickorycouncil.org/camps"}},"1332880534":{"location":[35.6645063,-80.3139027],"ct":"US","tp":"CS","ts":"2024-11-11T14:30:38Z","tX":283,"tY":403,"tags":{}}}