{"445629119":{"location":[32.7225545,-102.6494196],"ct":"US","tp":"CR","ts":"2018-07-25T10:40:53Z","tX":220,"tY":413,"tags":{"name":"City RV Park"}},"446261207":{"location":[32.7125009,-102.635164],"ct":"US","tp":"CR","ts":"2017-12-08T03:49:03Z","tX":220,"tY":413,"tags":{"name":"B&J RV Park"}},"460252699":{"location":[32.7291439,-102.6434627],"ct":"US","tp":"CR","ts":"2018-04-07T15:58:49Z","tX":220,"tY":413,"tags":{"addr:city":"Seminole","addr:housenumber":"900","addr:postcode":"79360","addr:state":"TX","addr:street":"North Main Street","name":"Stowe's RV Park"}},"546495161":{"location":[32.7279047,-102.6423542],"ct":"US","tp":"CR","ts":"2017-12-13T05:41:31Z","tX":220,"tY":413,"tags":{"name":"Unknow RV hookups"}},"546506115":{"location":[32.7350229,-102.6442134],"ct":"US","tp":"CR","ts":"2018-04-07T16:01:18Z","tX":220,"tY":413,"tags":{"addr:city":"Seminole","addr:housenumber":"1303","addr:postcode":"79360","addr:state":"TX","addr:street":"North Main Street","name":"Lantern RV & Cabins"}},"546516816":{"location":[32.738682,-102.6445014],"ct":"US","tp":"CR","ts":"2018-04-07T16:01:19Z","tX":220,"tY":413,"tags":{"addr:city":"Seminole","addr:housenumber":"115","addr:postcode":"79360","addr:state":"TX","addr:street":"County Road 200-E","name":"Sunland RV & Cabins"}},"547588752":{"location":[32.7270574,-102.6478044],"ct":"US","tp":"CR","ts":"2017-12-18T07:30:40Z","tX":220,"tY":413,"tags":{}},"556442731":{"location":[32.6956701,-102.6472055],"ct":"US","tp":"CR","ts":"2018-02-01T11:21:29Z","tX":220,"tY":413,"tags":{"name":"Lantern Rv & Cabins South"}}}