{"226297265":{"location":[53.9241334,-106.0819508],"ct":"CA","tp":"PK","ts":"2021-08-06T20:22:50Z","tX":210,"tY":329,"tags":{"access":"yes","bus":"yes","caravan":"yes","fee":"no","motorcar":"no","parking":"surface","source":"Bing","trailer":"yes"}},"260492726":{"location":[53.8738551,-105.9738836],"ct":"CA","tp":"CS","ts":"2014-02-07T17:41:51Z","tX":210,"tY":329,"tags":{"source":"NRCan-CanVec-10.0"}},"545343614":{"location":[53.9272047,-106.0742269],"ct":"CA","tp":"CR","ts":"2018-10-28T15:02:08Z","tX":210,"tY":329,"tags":{"addr:city":"Waskesiu Lake","name":"Red Deer Campground"}},"545345077":{"location":[53.9370142,-106.0662756],"ct":"CA","tp":"CR","ts":"2018-10-28T15:02:08Z","tX":210,"tY":329,"tags":{"addr:city":"Waskesiu Lake","name":"Beaver Glen Campground"}},"548424673":{"location":[53.9428913,-106.0729708],"ct":"CA","tp":"CR","ts":"2025-04-17T00:08:06Z","tX":210,"tY":329,"tags":{"addr:city":"Waskesiu Lake","addr:housenumber":"2500","addr:postcode":"S0J 2Y0","addr:province":"SK","addr:street":"Northshore Road","name":"Kapasiwin Bungalows"}},"1299636898":{"location":[53.8379635,-106.0487358],"ct":"CA","tp":"CS","ts":"2024-07-07T02:25:56Z","tX":210,"tY":329,"tags":{"name":"Namekus Lake Campground","operator":"Parks Canada","operator:wikidata":"Q349487","tents":"yes","website":"https://parks.canada.ca/pn-np/sk/princealbert/activ/camping/avantpays-frontcountry/namekus","website:fr":"https://parcs.canada.ca/pn-np/sk/princealbert/activ/camping/avantpays-frontcountry/namekus"}}}