{"779003960":{"location":[38.1694778,-105.9250141],"ct":"US","tp":"CR","ts":"2023-10-14T19:12:47Z","tX":210,"tY":394,"tags":{"addr:city":"Moffat","addr:housenumber":"28640","addr:postcode":"81143","addr:state":"CO","addr:street":"County Road 58EE","alt_name":"Joyful Journey RV Sites","name":"Joyful Journey Hot Springs RV Sites","old_name":"Joyful Journey Hot Springs Spa RV Sites","phone":"+1 719 256 4328","source":"Bing","website":"https://joyfuljourneyhotsprings.com/rv-sites-2/"}},"782838953":{"location":[38.2171478,-105.9527475],"ct":"US","tp":"CS","ts":"2020-03-19T22:38:42Z","tX":210,"tY":394,"tags":{"addr:city":"Villa Grove","addr:housenumber":"31625","addr:postcode":"81155","addr:state":"CO","addr:street":"Highway 285","email":"inquiry@slvcampground.com","name":"San Luis Valley Campground","phone":"+1 719 655 2220","source":"EsriWorldImageryClarity","website":"http://www.slvcampground.com/San_Luis_Valley_Campground/SLVC_Home.html","wifi":"free"}},"782838955":{"location":[38.2163946,-105.9520385],"ct":"US","tp":"CR","ts":"2020-03-19T22:38:42Z","tX":210,"tY":394,"tags":{"addr:city":"Villa Grove","addr:housenumber":"31625","addr:postcode":"81155","addr:state":"CO","addr:street":"Highway 285","email":"inquiry@slvcampground.com","name":"San Luis Valley Campground","phone":"+1 719 655 2220","source":"EsriWorldImageryClarity","website":"http://www.slvcampground.com/San_Luis_Valley_Campground/SLVC_Home.html","wifi":"free"}},"5618182182":{"location":[38.2279205,-105.9798949],"ct":"US","tp":"CS","ts":"2018-05-14T19:15:33Z","tX":210,"tY":394,"tags":{"leisure":"firepit","name":"Clayton Camp","note":"Near Joyful Journey Hot Springs"}},"7273545593":{"location":[38.1696861,-105.9232153],"ct":"US","tp":"CS","ts":"2023-10-14T19:13:12Z","tX":210,"tY":394,"tags":{"operator":"Joyful Journey Hot Springs","source":"EsriWorldImageryClarity","website":"https://joyfuljourneyhotsprings.com/camp-2/"}},"7273545598":{"location":[38.1691058,-105.923329],"ct":"US","tp":"CS","ts":"2023-10-14T19:12:56Z","tX":210,"tY":394,"tags":{"operator":"Joyful Journey Hot Springs","source":"EsriWorldImageryClarity","website":"https://joyfuljourneyhotsprings.com/camp-2/"}},"7273545602":{"location":[38.1698598,-105.9231788],"ct":"US","tp":"CS","ts":"2020-03-07T04:27:56Z","tX":210,"tY":394,"tags":{"source":"EsriWorldImageryClarity"}},"7273545674":{"location":[38.1692003,-105.9230994],"ct":"US","tp":"CS","ts":"2023-10-14T19:14:08Z","tX":210,"tY":394,"tags":{"operator":"Joyful Journey Hot Springs","source":"EsriWorldImageryClarity","website":"https://joyfuljourneyhotsprings.com/camp-2/"}},"7273545683":{"location":[38.1693908,-105.923299],"ct":"US","tp":"CS","ts":"2023-10-14T19:14:22Z","tX":210,"tY":394,"tags":{"operator":"Joyful Journey Hot Springs","source":"EsriWorldImageryClarity","website":"https://joyfuljourneyhotsprings.com/camp-2/"}},"7273546789":{"location":[38.1692474,-105.9234385],"ct":"US","tp":"CS","ts":"2023-10-14T19:13:40Z","tX":210,"tY":394,"tags":{"operator":"Joyful Journey Hot Springs","source":"EsriWorldImageryClarity","website":"https://joyfuljourneyhotsprings.com/camp-2/"}},"7273546806":{"location":[38.1689468,-105.9233757],"ct":"US","tp":"CS","ts":"2023-10-14T19:14:19Z","tX":210,"tY":394,"tags":{"operator":"Joyful Journey Hot Springs","source":"EsriWorldImageryClarity","website":"https://joyfuljourneyhotsprings.com/camp-2/"}}}