{"846751192":{"location":[-26.758646,-52.4623718],"ct":"BR","tp":"CS","ts":"2021-03-23T08:35:51Z","tX":362,"tY":591,"tags":{"access":"private","fee":"yes"}},"908206970":{"location":[-26.9253666,-52.449736],"ct":"BR","tp":"CS","ts":"2021-02-17T20:56:20Z","tX":362,"tY":591,"tags":{}},"908206971":{"location":[-26.9250306,-52.450103],"ct":"BR","tp":"CS","ts":"2021-02-17T20:56:20Z","tX":362,"tY":591,"tags":{}},"1120924802":{"location":[-26.7589332,-52.4644521],"ct":"BR","tp":"CS","ts":"2022-12-11T04:28:22Z","tX":362,"tY":591,"tags":{"access":"private","addr:city":"Xanxerê","addr:postcode":"89820-000","addr:street":"XRE - 401","addr:suburb":"Linha Santa Manuela","capacity:caravans":"30","capacity:persons":"100"}},"1120924804":{"location":[-26.7598493,-52.4657706],"ct":"BR","tp":"CS","ts":"2022-12-11T04:28:22Z","tX":362,"tY":591,"tags":{}},"1120924805":{"location":[-26.766056,-52.4657784],"ct":"BR","tp":"CS","ts":"2022-12-11T04:28:22Z","tX":362,"tY":591,"tags":{}},"4440707643":{"location":[-27.0566679,-52.7007748],"ct":"BR","tp":"CS","ts":"2017-04-11T13:36:02Z","tX":362,"tY":591,"tags":{"addr:hamlet":"Linha Boa Vista","alt_name":"Balneário e Condomínio Tropeiro Velho","fee":"yes","name":"Camping Tropeiro Velho","operator":"Tropeiro Velho","phone":"+55-49-3330-0036","ref":"CH197","source:ref":"PMSC"}},"4440738940":{"location":[-27.0563404,-52.7059057],"ct":"BR","tp":"CS","ts":"2017-03-27T22:12:53Z","tX":362,"tY":591,"tags":{"addr:hamlet":"Linha Boa Vista","email":"sitiopousada@gmail.com","internet_access":"wlan","name":"Camping Sítio Pousada","phone":"+55-49-3330-0072","website":"http://sitiopousada.blogspot.com.br/","wheelchair":"limited"}},"8194855495":{"location":[-26.8989476,-52.4392209],"ct":"BR","tp":"CS","ts":"2024-05-10T20:18:12Z","tX":362,"tY":591,"tags":{"access":"yes","addr:city":"xanxerê","addr:place":"Loteamento Lírio Tronco","addr:postcode":"89820-000","capacity:persons":"300","charge":"25","fee":"yes","name":"Aqua Club (antigo lirio camping)","payment:cards":"yes","payment:cash":"yes","payment:lightning":"yes","website":"https://aquaclubxanxere.com.br/"}}}