{"327403494":{"location":[-31.4105496,-52.5186882],"ct":"BR","tp":"CS","ts":"2015-02-10T12:26:20Z","tX":362,"tY":606,"tags":{}},"333251897":{"location":[-31.3855885,-52.4090428],"ct":"BR","tp":"CS","ts":"2016-11-30T19:38:16Z","tX":362,"tY":606,"tags":{"name":"Recanto dos Coswig","phone":"+55 53 3224-9064;+55 53 98409-1467","website":"http://www.recantodoscoswig.com.br/"}},"333255744":{"location":[-31.3861275,-52.4071364],"ct":"BR","tp":"CS","ts":"2015-03-17T13:01:15Z","tX":362,"tY":606,"tags":{"name":"Camping Moinho das Pedras"}},"477377744":{"location":[-31.5450571,-52.5348012],"ct":"BR","tp":"CS","ts":"2024-10-05T13:35:49Z","tX":362,"tY":606,"tags":{"addr:city":"Pelotas","addr:housenumber":"km 96","addr:postcode":"96045-060","addr:street":"BR-392","addr:suburb":"Santo Antonio de Padua","name":"Camping Chácara doa Pinus","phone":"+55 53 98121-2209;+55 53 98446-0391","website":"http://www.pelotascolonial.com.br/site/content/empreendimentos/camping-chacara-dos-pinus"}},"3274725501":{"location":[-31.4986741,-52.5798656],"ct":"BR","tp":"CS","ts":"2017-09-22T13:10:56Z","tX":362,"tY":606,"tags":{"name":"Cascata do Imigrante"}},"3274758761":{"location":[-31.4101313,-52.5188817],"ct":"BR","tp":"CS","ts":"2015-02-10T12:26:51Z","tX":362,"tY":606,"tags":{"addr:city":"Pelotas","addr:street":"Rincão da Cruz","name":"Cascata do Arco íris"}},"3373510564":{"location":[-31.4736034,-52.614603],"ct":"BR","tp":"CS","ts":"2015-02-26T17:41:54Z","tX":362,"tY":606,"tags":{"addr:city":"Canguçu","addr:street":"Glória","addr:suburb":"1º distrito","name":"Camping Cadeado"}}}