{"408065880":{"location":[45.8900766,-123.9546084],"ct":"US","tp":"CR","ts":"2022-05-26T23:43:03Z","tX":159,"tY":364,"tags":{"addr:city":"Cannon Beach","addr:housenumber":"340","addr:postcode":"97110","addr:state":"OR","addr:street":"Elk Creek Road","capacity":"100","fee":"yes","name":"Cannon Beach RV Resort","phone":"503-436-2231","power_supply":"yes","sanitary_dump_station":"yes","website":"https://www.cbrvresort.com/"}},"422890182":{"location":[46.0382791,-123.9138663],"ct":"US","tp":"CR","ts":"2016-06-05T03:41:37Z","tX":159,"tY":364,"tags":{"name":"Bud's RV Park"}},"422890183":{"location":[45.9650831,-123.9256545],"ct":"US","tp":"CR","ts":"2020-07-20T17:29:07Z","tX":159,"tY":364,"tags":{"addr:housenumber":"85658","addr:street":"Highway 101","name":"Circle Creek RV Resort"}},"422890184":{"location":[45.9508776,-123.924493],"ct":"US","tp":"CR","ts":"2022-12-03T14:54:18Z","tX":159,"tY":364,"tags":{"addr:city":"Seaside","addr:country":"US","addr:state":"OR","addr:street":"Greenwood Lane","name":"Forest Lake Resorts"}},"422890191":{"location":[45.99892,-123.906881],"ct":"US","tp":"CR","ts":"2016-06-05T03:41:38Z","tX":159,"tY":364,"tags":{"addr:housenumber":"1703","addr:street":"12th Avenue","name":"Seaside RV Resort & Campground"}},"422890194":{"location":[46.011045,-123.9122006],"ct":"US","tp":"CR","ts":"2020-07-24T16:51:22Z","tX":159,"tY":364,"tags":{"name":"Venice RV Park"}},"422896232":{"location":[46.0036551,-123.9038659],"ct":"US","tp":"CR","ts":"2022-03-07T17:52:53Z","tX":159,"tY":364,"tags":{}},"423050242":{"location":[45.9015882,-123.9565667],"ct":"US","tp":"CS","ts":"2024-10-01T00:56:17Z","tX":159,"tY":364,"tags":{"caravans":"yes","drinking_water":"yes","fee":"yes","name":"The Retreat","power_supply":"yes","sanitary_dump_station":"yes","shower":"yes","tents":"yes","toilets":"yes","website":"https://www.theretreatatcannonbeach.com"}},"1305641801":{"location":[45.9428025,-123.9849928],"ct":"US","tp":"CS","ts":"2023-11-19T21:04:14Z","tX":159,"tY":364,"tags":{"backcountry":"yes","check_date":"2023-11-19","drinking_water":"no","fee":"yes","internet_access":"no","name":"Ecola Park Hiker's Camp","power_supply":"no","shower":"no","toilets":"yes"}},"1700549477":{"location":[45.9648997,-123.9252444],"ct":"US","tp":"CS","ts":"2012-04-01T02:48:10Z","tX":159,"tY":364,"tags":{}},"4773331222":{"location":[45.8830402,-123.9622236],"ct":"US","tp":"CR","ts":"2017-04-03T17:56:21Z","tX":159,"tY":364,"tags":{"addr:street":"South Hemlock Street","name":"cannon beach park"}},"9835112524":{"location":[46.0141456,-123.9089851],"ct":"US","tp":"CR","ts":"2022-06-21T05:07:25Z","tX":159,"tY":364,"tags":{"name":"Four Winds Mobile Estates"}}}