{"388939958":{"location":[44.935264,-124.021715],"ct":"US","tp":"CR","ts":"2023-08-09T09:12:09Z","tX":159,"tY":368,"tags":{"addr:city":"Lincoln City","addr:housenumber":"4100","addr:postcode":"97367","addr:state":"OR","addr:street":"Southeast Highway 101","email":"lincolncity@premierrvresorts.com","fax":"+1 541 996 3492","internet_access":"wlan","internet_access:fee":"no","name":"Premier RV Resort","phone":"+1 541 996 2778;+1 877 871 0663","power_supply":"yes","sanitary_dump_station":"yes","website":"https://www.premierrvresorts.com/lincoln-city-or.html"}},"389125609":{"location":[45.0004847,-124.004076],"ct":"US","tp":"CR","ts":"2016-01-02T01:04:38Z","tX":159,"tY":368,"tags":{}},"481697829":{"location":[44.8435188,-124.0462797],"ct":"US","tp":"CR","ts":"2019-03-08T04:24:11Z","tX":159,"tY":368,"tags":{"name":"Fogarty Creek RV Park"}},"617853530":{"location":[44.8602772,-124.0411927],"ct":"US","tp":"CR","ts":"2019-08-23T17:29:45Z","tX":159,"tY":368,"tags":{"addr:city":"Depoe Bay","addr:housenumber":"4985","addr:postcode":"97341","addr:state":"OR","addr:street":"North Highway 101","fax":"+1-541-764-2184","internet_access":"wlan","internet_access:fee":"no","name":"Sea and Sand RV Park","phone":"+1-877-821-2231","website":"https://seaandsandrvpark.com/"}},"630726327":{"location":[44.9701778,-124.0118695],"ct":"US","tp":"CS","ts":"2024-08-06T02:06:26Z","tX":159,"tY":368,"tags":{"caravans":"yes","drinking_water":"yes","name":"Devil's Lake State Park Campground","power_supply":"yes","sanitary_dump_station":"no","shower":"yes","tents":"yes","toilets":"yes"}},"717669131":{"location":[44.8597313,-124.0416435],"ct":"US","tp":"CR","ts":"2019-08-23T17:29:45Z","tX":159,"tY":368,"tags":{"addr:city":"Depoe Bay","addr:housenumber":"4875","addr:postcode":"97341","addr:state":"OR","addr:street":"North Highway 101","name":"Holiday Hills"}},"1157738703":{"location":[44.9952673,-123.9983869],"ct":"US","tp":"CR","ts":"2025-01-13T16:06:08Z","tX":159,"tY":368,"tags":{"addr:city":"Lincoln City","addr:housenumber":"4041","addr:postcode":"97367","addr:state":"OR","addr:street":"Northeast West Devils Lake Road","contact:facebook":"LincolnCityOR","dog":"yes","email":"dlakervpark@gmail.com","internet_access":"wlan","name":"Devil's Lake RV Park","phone":"+1 541 994 3400;+1 800 460 0616","power_supply":"yes","sanitary_dump_station":"yes","website":"https://devilslakervpark.com/"}},"1344463086":{"location":[44.992337,-123.9786663],"ct":"US","tp":"CR","ts":"2024-12-21T00:33:22Z","tX":159,"tY":368,"tags":{"addr:city":"Otis","addr:housenumber":"5298","addr:postcode":"97368","addr:state":"OR","addr:street":"NE Park Ln","brand":"KOA","brand:wikidata":"Q16988635","name":"KOA Journey","short_name":"KOA"}},"2404075053":{"location":[44.880703,-123.9622911],"ct":"US","tp":"CS","ts":"2024-07-18T18:57:42Z","tX":159,"tY":368,"tags":{"addr:housenumber":"2920","addr:street":"Siletz Highway","name":"Chinook Bend RV Resort","phone":"(541)996-2032","website":"https://www.chinookbend.com/"}},"11032149415":{"location":[44.9706259,-124.0129766],"ct":"US","tp":"CS","ts":"2024-08-05T23:13:52Z","tX":159,"tY":368,"tags":{"backcountry":"no","capacity:tents":"12","caravans":"no","charge":"$8","drinking_water":"yes","fee":"yes","group_only":"no","name":"Hiker/Biker","openfire":"yes","operator":"Devil's Lake State Recreation Area","picnic_table":"yes","power_supply":"yes","reservation":"no","sanitary_dump_station":"no","shower":"yes","static_caravans":"no","tents":"yes","toilets":"yes"}},"6191267636":{"location":[44.9153055,-123.9821506],"ct":"US","tp":"CR","ts":"2019-01-08T02:36:13Z","tX":159,"tY":368,"tags":{"name":"Wapiti RV Park"}}}