{"405215205":{"location":[44.4935446,-124.0823751],"ct":"US","tp":"CR","ts":"2016-03-23T01:34:58Z","tX":159,"tY":370,"tags":{}},"405235358":{"location":[44.5486438,-124.0702363],"ct":"US","tp":"CR","ts":"2016-03-23T02:28:35Z","tX":159,"tY":370,"tags":{"name":"Whalers Rest RV & Camping Resort"}},"463377218":{"location":[44.4358087,-124.0760801],"ct":"US","tp":"CS","ts":"2017-01-03T06:34:14Z","tX":159,"tY":370,"tags":{"name":"Waldport/Newport KOA"}},"481478135":{"location":[44.3826707,-124.0890299],"ct":"US","tp":"CS","ts":"2024-11-26T05:23:46Z","tX":159,"tY":370,"tags":{"addr:city":"Waldport","addr:full":"5960 Southwest Pacific Coast Highway","addr:housenumber":"5960","addr:postcode":"97394","addr:state":"OR","addr:street":"Southwest Pacific Coast Highway","caravans":"yes","fee":"yes","leisure":"park","name":"Beachside State Recreation Site","operator":"Oregon Parks and Recreation Department","operator:type":"government","operator:wikidata":"Q7101287","static_caravans":"yes","tents":"yes","wikidata":"Q4875882"}},"998207337":{"location":[44.3678565,-123.9270091],"ct":"US","tp":"CS","ts":"2025-03-10T20:34:20Z","tX":159,"tY":370,"tags":{"access":"yes","addr:city":"Waldport","addr:postcode":"97394","addr:state":"OR","addr:street":"United States Forest Service Road 3462","camp_site":"standard","fee":"yes","group_only":"yes","name":"Canal Creek Group Campground","nohousenumber":"yes","operator":"American Land and Liesure for Siuslaw National Forest","reservation":"required","website":"https://www.fs.usda.gov/recarea/siuslaw/recarea/?recid=42379"}},"1354773463":{"location":[44.3771597,-123.800993],"ct":"US","tp":"CS","ts":"2025-01-27T23:35:37Z","tX":159,"tY":370,"tags":{"addr:city":"Alsea","addr:full":"23116 East Alsea Highway","addr:housenumber":"23116","addr:postcode":"97324","addr:state":"OR","addr:street":"East Alsea Highway","name":"River Edge Group Campground","operator":"United States Forest Service","website":"https://www.fs.usda.gov/recarea/siuslaw/recarea/?recid=42385"}},"1356275239":{"location":[44.3721101,-123.8351477],"ct":"US","tp":"CS","ts":"2025-02-02T23:14:38Z","tX":159,"tY":370,"tags":{"addr:city":"Tidewater","addr:full":"17686 East Alsea Highway","addr:housenumber":"17686","addr:postcode":"97390","addr:state":"OR","addr:street":"East Alsea Highway","name":"Blackberry Campground","operator":"United States Forest Service","website":"https://www.fs.usda.gov/recarea/siuslaw/recarea/?recid=42375"}},"1368161270":{"location":[44.4138499,-124.0059354],"ct":"US","tp":"CR","ts":"2025-05-15T16:20:20Z","tX":159,"tY":370,"tags":{"addr:city":"Waldport","addr:full":"3851 East Alsea Highway","addr:housenumber":"3851","addr:postcode":"97394","addr:state":"OR","addr:street":"East Alsea Highway","fee":"yes","landuse":"residential","name":"Drift Creek Landing RV Park & Marina"}},"1368161271":{"location":[44.4140258,-124.0073983],"ct":"US","tp":"CR","ts":"2025-05-15T16:20:15Z","tX":159,"tY":370,"tags":{"addr:city":"Waldport","addr:full":"3703 East Alsea Highway","addr:housenumber":"3703","addr:postcode":"97394","addr:state":"OR","addr:street":"East Alsea Highway","fee":"yes","fixme":"Need space numbers.","landuse":"residential","name":"King Silver RV Park & Marina"}},"1369407334":{"location":[44.4139591,-124.0156901],"ct":"US","tp":"CR","ts":"2025-05-15T16:19:51Z","tX":159,"tY":370,"tags":{"addr:city":"Waldport","addr:full":"3299 East Alsea Highway","addr:housenumber":"3299","addr:postcode":"97394","addr:state":"OR","addr:street":"East Alsea Highway","email":"camp@roversrvpark.com","fee":"yes","name":"Rovers RV Park","old_name":"Chinook RV Park","phone":"+1 541 563 3485","website":"https://www.roversrvpark.com/"}},"1371397201":{"location":[44.431819,-124.0534598],"ct":"US","tp":"CR","ts":"2025-03-26T02:12:55Z","tX":159,"tY":370,"tags":{"addr:city":"Waldport","addr:full":"850 Northeast Alsea Highway","addr:housenumber":"850","addr:postcode":"97394","addr:state":"OR","addr:street":"Northeast Alsea Highway","contact:facebook":"https://www.facebook.com/mckinleysrvparkandmarina/","email":"mckinleysmarina@hotmail.com","internet_access":"wlan","internet_access:fee":"customers","name":"McKinley's RV Park & Marina","phone":"+1 541 563 4656","website":"https://mckinleysrvparkandmarina.com/"}},"1891086868":{"location":[44.3824199,-124.0887151],"ct":"US","tp":"CS","ts":"2024-03-27T22:45:22Z","tX":159,"tY":370,"tags":{"addr:city":"Waldport","addr:housenumber":"5960","addr:postcode":"97394","addr:state":"OR","addr:street":"Southwest Pacific Coast Highway","caravans":"yes","fee":"yes","name":"Beachside State Recreation Site","operator":"Oregon State Parks","static_caravans":"yes","tents":"yes"}},"3389576482":{"location":[44.3722614,-123.8353654],"ct":"US","tp":"CS","ts":"2019-02-15T21:30:48Z","tX":159,"tY":370,"tags":{"name":"Blackberry Campground","operator":"United States Forest Service","website":"https://www.fs.usda.gov/recarea/siuslaw/recarea/?recid=42375"}},"12650692219":{"location":[44.3683687,-123.9264545],"ct":"US","tp":"CS","ts":"2025-03-10T20:34:20Z","tX":159,"tY":370,"tags":{"addr:city":"Waldport","addr:postcode":"97394","addr:state":"OR","addr:street":"United States Forest Service Road 3462","addr:unit":"Alsea","group_only":"yes","name":"Canal Creek Group Campground - Alsea Site","nohousenumber":"yes"}},"12650692220":{"location":[44.3676925,-123.9275853],"ct":"US","tp":"CS","ts":"2025-03-10T20:34:20Z","tX":159,"tY":370,"tags":{"addr:city":"Waldport","addr:postcode":"97394","addr:state":"OR","addr:street":"United States Forest Service Road 3462","addr:unit":"Canal Creek","group_only":"yes","name":"Canal Creek Group Campground - Canal Creek Site","nohousenumber":"yes"}}}