{"463559870":{"location":[43.9993548,-124.1001446],"ct":"US","tp":"CS","ts":"2023-08-30T07:48:37Z","tX":159,"tY":372,"tags":{"caravans":"yes","fee":"yes","name":"B&E Wayside RV Park","static_caravans":"yes"}},"463559874":{"location":[44.0022458,-124.0996882],"ct":"US","tp":"CR","ts":"2023-08-31T06:20:14Z","tX":159,"tY":372,"tags":{"addr:city":"Florence","addr:housenumber":"4044","addr:postcode":"97439","addr:state":"OR","addr:street":"Highway 101","name":"Pacific Pines RV Park","phone":"+1 541 997 1434"}},"718929570":{"location":[44.0208805,-123.8050094],"ct":"US","tp":"CR","ts":"2019-08-27T15:09:43Z","tX":159,"tY":372,"tags":{"fee":"yes","name":"Archie Knowles Campground","note":"boundary is approximate","operator":"Lane County Parks"}},"719543511":{"location":[43.9826327,-124.0533645],"ct":"US","tp":"CR","ts":"2019-11-08T07:01:17Z","tX":159,"tY":372,"tags":{"name":"Suislaw Marina RV Park"}},"873159682":{"location":[43.9690412,-124.0995434],"ct":"US","tp":"CR","ts":"2024-07-18T18:57:40Z","tX":159,"tY":372,"tags":{"addr:city":"Florence","addr:housenumber":"100","addr:postcode":"97439","addr:state":"OR","addr:street":"Harbor Street","name":"Port of Suislaw Campground","website":"https://portofsiuslaw.com/"}}}