{"36055329":{"location":[41.5399639,-124.0501843],"ct":"US","tp":"CR","ts":"2020-09-26T15:21:09Z","tX":159,"tY":381,"tags":{"addr:city":"Klamath","addr:housenumber":"17581","addr:postcode":"95548","addr:state":"CA","addr:street":"US-101","capacity":"54","internet_access":"yes","internet_access:fee":"customers","name":"Golden Bear RV Park","power_supply":"yes","sanitary_dump_station":"yes"}},"1185627085":{"location":[41.6879242,-123.9091811],"ct":"US","tp":"CS","ts":"2023-06-29T03:06:40Z","tX":159,"tY":381,"tags":{"name":"Big Flat Campground","website":"https://www.fs.usda.gov/recarea/srnf/recarea/?recid=11442"}},"1303588246":{"location":[41.7003876,-124.0964877],"ct":"US","tp":"CS","ts":"2024-07-24T23:26:26Z","tX":159,"tY":381,"tags":{"addr:city":"Klamath","addr:postcode":"95548","addr:state":"CA","backcountry":"no","capacity":"145","caravans":"yes","internet_access":"no","name":"Mill Creek Campground","sanitary_dump_station":"yes","tents":"yes"}},"1326144580":{"location":[41.5137326,-124.0268265],"ct":"US","tp":"CR","ts":"2024-10-19T21:57:18Z","tX":159,"tY":381,"tags":{"addr:city":"Klamath","addr:housenumber":"170","addr:postcode":"95548","addr:state":"CA","addr:street":"Nepeuy Road","internet_access":"yes","internet_access:fee":"no","name":"Cher'ere Campground & RV Park","operator":"Pulikla Tribe of Yurok People","power_supply":"yes","sanitary_dump_station":"yes","tents":"yes"}},"3117926430":{"location":[41.5250638,-124.0782697],"ct":"US","tp":"CS","ts":"2023-11-25T20:46:40Z","tX":159,"tY":381,"tags":{"addr:city":"Crescent City","addr:housenumber":"1111","addr:postcode":"95531","addr:street":"Second Street","name":"Flint Ridge","operator":"Redwood National and State Parks","phone":"+1-707-465-7335","website":"https://www.nps.gov/redw/index.htm"}},"5037756463":{"location":[41.5226951,-124.0356186],"ct":"US","tp":"CS","ts":"2023-08-31T04:19:26Z","tX":159,"tY":381,"tags":{"addr:city":"Klamath","addr:housenumber":"18151","addr:street":"Hwy 101","caravans":"yes","email":"host@campercorral.net","fax":"+1 707 482 6625","name":"Klamath Camper Corral","note":"phone is for reservation. Main Office +17074825741","openfire":"yes","phone":"+1 800 7017275","tents":"yes"}},"5037994277":{"location":[41.5736202,-124.0702101],"ct":"US","tp":"CS","ts":"2017-08-16T03:33:17Z","tX":159,"tY":381,"tags":{"name":"Marie Gold Campground"}},"5470193421":{"location":[41.5160682,-124.0386121],"ct":"US","tp":"CS","ts":"2024-10-15T23:57:16Z","tX":159,"tY":381,"tags":{"addr:housenumber":"700","addr:postcode":"95548","addr:street":"Klamath Beach Road","name":"Klamath River RV Park","website":"https://klamathriverrv.com/contact.html"}},"7624191475":{"location":[41.6431107,-123.811019],"ct":"US","tp":"CS","ts":"2020-06-15T23:39:56Z","tX":159,"tY":381,"tags":{"backcountry":"yes","name":"Eightmile Camp"}},"7624191476":{"location":[41.6525628,-123.8229495],"ct":"US","tp":"CS","ts":"2020-06-15T23:39:56Z","tX":159,"tY":381,"tags":{"backcountry":"yes","name":"Elkhorn Bar Camp"}},"7624191477":{"location":[41.6507591,-123.8464134],"ct":"US","tp":"CS","ts":"2020-06-15T23:39:56Z","tX":159,"tY":381,"tags":{"backcountry":"yes","name":"Buck Creek Shelter"}},"7624213203":{"location":[41.5942126,-123.8120704],"ct":"US","tp":"CS","ts":"2020-06-15T23:39:56Z","tX":159,"tY":381,"tags":{"backcountry":"yes","name":"Summit Valley Camp"}},"5038115847":{"location":[41.5760619,-124.0753576],"ct":"US","tp":"CR","ts":"2017-08-16T05:23:02Z","tX":159,"tY":381,"tags":{"name":"Mystic RV Park"}},"9888601317":{"location":[41.5306912,-124.0518521],"ct":"US","tp":"CR","ts":"2022-07-15T05:32:36Z","tX":159,"tY":381,"tags":{"addr:housenumber":"1661","addr:postcode":"95548","addr:street":"Klamath Beach Road","internet_access":"wlan","name":"Kamp Klamath RV Campground","phone":"+1 (707) 482-0227","website":"https://www.kampklamath.com/"}}}