{"404306019":{"location":[42.9565119,41.1429836],"ct":"GE","tp":"CS","ts":"2016-03-17T21:35:08Z","tX":629,"tY":376,"tags":{}},"4449910689":{"location":[43.037832,41.324377],"ct":"GE","tp":"CS","ts":"2018-01-22T13:43:07Z","tX":629,"tY":376,"tags":{"addr:city":"Амтҟьал - Амткел","addr:housenumber":"23","addr:street":"Кавказская","capacity":"50","description":"Кемпинг, Охраняемая территория, душ, туалет, горячая вода. Кухня, бар.  Проживание в палатках, трёхразовое питание. Экскурсии,Треккинг, Рафтинг, Каньонинг, Прогулки к водопадам и в пещеры.","fee":"yes","internet_access":"no","name":"Apsny Adventure","name:en":"Apsny Adventure","name:ru":"Апсны Адвентюре","operator":"Аврора"}},"8710203017":{"location":[43.0283504,41.328699],"ct":"GE","tp":"CS","ts":"2021-10-19T16:08:57Z","tX":629,"tY":376,"tags":{"contact:phone":"+79409937202","name":"Кемпинг Кафе Чегем"}},"9013070717":{"location":[42.9554417,41.2891035],"ct":"GE","tp":"CR","ts":"2021-08-17T06:05:34Z","tX":629,"tY":376,"tags":{"name":"Пикник"}}}