{"5029665426":{"location":[-27.0464312,-54.3996516],"ct":"AR","tp":"CS","ts":"2025-04-04T11:15:15Z","tX":357,"tY":591,"tags":{"access":"yes","addr:city":"San Vicente","addr:street":"Ruta Provincial 13 km 42","caravans":"yes","fee":"yes","instagram":"@elmayno","name":"Salto El Mayno","payment:electronic_purses":"yes","phone":"+54 9 221 5628948","static_caravans":"yes","tents":"yes"}},"5334937649":{"location":[-26.7658101,-54.1814991],"ct":"AR","tp":"CS","ts":"2024-02-09T12:29:00Z","tX":357,"tY":591,"tags":{"access":"yes","addr:city":"San Pedro","caravans":"yes","name":"Camping Fortalecita","phone":"+54 3751 44-6156","static_caravans":"yes","tents":"yes"}},"5532216608":{"location":[-26.9417369,-54.3828701],"ct":"AR","tp":"CS","ts":"2024-02-05T11:55:33Z","tX":357,"tY":591,"tags":{"addr:city":"San Vicente","addr:street":"Ruta Nacional 14 km 990","fee":"yes","name":"Camping Salto Bella Vista","payment:electronic_purses":"yes","phone":"+54 9 3755 670751","website":"https://misionesnatural.com/salto-bella-vista.html"}},"11155898938":{"location":[-27.0557062,-54.4835894],"ct":"AR","tp":"CS","ts":"2024-02-05T12:01:11Z","tX":357,"tY":591,"tags":{"access":"yes","addr:city":"San Vicente","addr:street":"Ruta Provincial 13 km 49","alt_name":"Balneario Tío Mario","contact:facebook":"https://www.facebook.com/people/Cabañas-Tío-Mario/100071729389799","name":"Balneario y Camping Tío Mario","phone":"+54 3755 340570","tents":"yes"}},"11586797867":{"location":[-26.9719462,-54.4551353],"ct":"AR","tp":"CS","ts":"2024-02-05T12:20:07Z","tX":357,"tY":591,"tags":{"addr:city":"San Vicente","addr:street":"Ruta Nacional 14","caravans":"yes","fee":"yes","name":"Quinta La Express","payment:electronic_purses":"yes","phone":"+54 9 3755 413248","static_caravans":"yes","tents":"yes"}}}