{"790958323":{"location":[36.2447305,58.9199835],"ct":"IR","tp":"CS","ts":"2023-01-14T08:24:24Z","tX":679,"tY":401,"tags":{"addr:city":"نیشابور","addr:street":"بلوار باغرود","name":"اردوگاه بزرگ شهید رجایی"}},"5703886764":{"location":[36.2442341,58.9142564],"ct":"IR","tp":"CS","ts":"2018-06-20T05:51:12Z","tX":679,"tY":401,"tags":{"addr:city":"نیشابور","capacity":"5000","internet_access":"wlan","name":"اردوگاه شهید رجایی","name:en":"Shahid Rajaee camp","phone":"+985142443690","website":"http://www.rajaeecamp.ir","wikidata":"Q26433869","wikipedia":"fa:اردوگاه باغرود"}},"8720281917":{"location":[36.2482152,58.9557591],"ct":"IR","tp":"CS","ts":"2021-05-11T02:55:54Z","tX":679,"tY":401,"tags":{"name":"دره پلسو","name:en":"Pelaso valley"}},"10769485505":{"location":[36.2459464,58.918766],"ct":"IR","tp":"CS","ts":"2023-03-28T20:11:49Z","tX":679,"tY":401,"tags":{"addr:street":"جاده باغرود. نیشابور  استان خراسان رضوی ایران","name":"Camping","opening_hours":"24/7","phone":"+985142443690","website":"http://www.rajaicamp.com/"}}}