{"101010345":{"location":[54.7442037,9.4370265],"ct":"DE","tp":"CS","ts":"2023-02-06T10:56:50Z","tX":538,"tY":325,"tags":{"addr:city":"Handewitt","addr:country":"DE","addr:housenumber":"80","addr:postcode":"24976","addr:street":"Europastraße","addr:suburb":"Jarplund","caravans":"yes","email":"campingplatz.jarplund@web.de","fax":"+49 461 9041234","name":"Campingplatz Jarplund","opening_hours":"Mar 15-Nov 15: 08:30-12:00, 14:30-21:00","payment:maestro":"yes","payment:visa":"yes","phone":"+49 461 979024","tents":"yes","website":"http://www.campingplatz-jarplund.de","wheelchair":"yes"}},"1220656956":{"location":[54.7738729,9.3941806],"ct":"DE","tp":"CR","ts":"2024-11-25T20:49:35Z","tX":538,"tY":325,"tags":{"capacity":"30","caravan_site":"motorhome_stopover","caravan_site:type":"supermarket","dog":"yes","fee":"no","maxstay":"1 day","name":"Wohnmobilstellplatz CITTI-PARK Flensburg","sanitary_dump_station":"yes","seasonal":"no","water_point":"yes","website":"https://www.citti-park-flensburg.de/dk/services/wohnmobil-stellplaetze"}},"1286400283":{"location":[54.6173917,9.383593],"ct":"DE","tp":"CR","ts":"2024-07-26T09:17:01Z","tX":538,"tY":325,"tags":{"capacity":"5","caravan_site":"motorhome_stopover","caravan_site:type":"restaurant","charge":"15 EUR","dog":"yes","fee":"yes","name":"Gasthaus Langstedt Wohnmobilstellplatz","power_supply":"yes","sanitary_dump_station":"yes","seasonal":"no","shower":"yes","toilets":"yes","water_point":"yes","website":"https://gasthaus-langstedt.com/"}},"2311419300":{"location":[54.6525277,9.4491773],"ct":"DE","tp":"CR","ts":"2024-11-30T18:07:18Z","tX":538,"tY":325,"tags":{"addr:city":"Sieverstedt","addr:country":"DE","addr:housenumber":"7a","addr:postcode":"24885","addr:street":"Süderholz","capacity":"14","caravan_site":"motorhomd_stopover","caravan_site:type":"camp_site","caravans":"yes","charge":"15 EUR","email":"info@campingplatz-suederholz.de","fee":"yes","kitchen":"yes","name":"Wohnmobilpark Süderholz","opening_hours":"easter-Sep 31","phone":"+49 4638 213841","power_supply":"yes","seasonal":"yes","tents":"yes","website":"https://www.campingplatz-suederholz.de/"}},"10245340977":{"location":[54.7738023,9.3928684],"ct":"DE","tp":"SD","ts":"2022-12-07T18:56:13Z","tX":538,"tY":325,"tags":{"water_point":"yes"}}}