{"449369720":{"location":[54.5683444,9.3294145],"ct":"DE","tp":"CS","ts":"2022-09-25T07:12:06Z","tX":538,"tY":326,"tags":{"addr:city":"Silberstedt","addr:housenumber":"7","addr:postcode":"24887","addr:street":"Zur Treene","capacity:caravans":"56","fee":"yes","name":"Treene Camping","operator":"Treene Camping oHG","payment:cards":"yes","website":"https://www.treenecamping.de/"}},"598399749":{"location":[54.3953017,9.2614082],"ct":"DE","tp":"CS","ts":"2023-04-16T11:15:21Z","tX":538,"tY":326,"tags":{"backcountry":"yes","caravans":"no","fee":"yes","internet_access":"no","name":"Zeltplatz Fresendelf","note":"Zeltplatz Fresendelf mit Kanuverleih","old_website":"https://web.archive.org/web/20210506101155/http://www.kanuverleih-fresendelf.de/","openfire":"no","operator":"Kanuverleih Thomsen","phone":"+49 4884 1240","power_supply":"no","shower":"no","tents":"yes","toilets":"yes","website:note":"kanuverleih-fresendelf.de does not exist"}},"691100953":{"location":[54.5482806,9.3360511],"ct":"DE","tp":"CS","ts":"2023-11-07T15:50:49Z","tX":538,"tY":326,"tags":{"name":"Treene Camp Horn","website":"https://www.treene-camp-horn.de/"}},"8974177387":{"location":[54.5118465,9.3593846],"ct":"DE","tp":"CS","ts":"2023-09-18T20:11:22Z","tX":538,"tY":326,"tags":{"addr:city":"Silberstedt","addr:housenumber":"2","addr:postcode":"24887","addr:street":"Hollingstedter Stra√üe","caravans":"yes","drinking_water":"yes","email":"info@nord-ostsee-camp.de","name":"Nord-Ostsee Camp","operator":"Hauke Peter Thomsen","phone":"+49 4626-187952","power_supply":"yes","shower":"yes","tents":"yes","toilets":"yes","website":"https://www.nord-ostsee-camp.de/"}}}