{"168800186":{"location":[54.3065006,9.2569966],"ct":"DE","tp":"CS","ts":"2023-09-19T11:15:23Z","tX":538,"tY":327,"tags":{"addr:city":"Delve","addr:housenumber":"20","addr:postcode":"25788","addr:street":"Eiderstraße","contact:email":"info@eidertal-camping.de","contact:fax":"+49 4803 551","contact:phone":"+49 4803 1058","contact:website":"https://www.eidertal-camping.de/","name":"Eidertal","operator":"Eidertal Camping GmbH"}},"225203435":{"location":[54.2984226,9.2714994],"ct":"DE","tp":"CS","ts":"2021-06-13T04:31:22Z","tX":538,"tY":327,"tags":{"addr:city":"Erfde","addr:country":"DE","addr:housenumber":"23","addr:postcode":"24803","addr:street":"Eiderstraße","addr:suburb":"Bargen","name":"Bargener Fähre"}},"272777096":{"location":[54.3473577,9.2191203],"ct":"DE","tp":"CS","ts":"2025-04-28T15:45:01Z","tX":538,"tY":327,"tags":{"addr:city":"Stapel","addr:housenumber":"1","addr:postcode":"25879","addr:street":"Alter Fährweg","caravans":"yes","drinking_water":"yes","fee":"yes","name":"Ferienpark Süderstapel","operator":"Peck & Graham Ferienpark GbR","permanent_camping":"yes","phone":"+49 175 7693414","power_supply":"yes","sanitary_dump_station":"yes","shower":"yes","static_caravans":"yes","tents":"yes","toilets":"yes","website":"http://www.ferienpark-suederstapel.de"}},"377449578":{"location":[54.2206898,9.4361132],"ct":"DE","tp":"CS","ts":"2015-10-29T11:05:38Z","tX":538,"tY":327,"tags":{}},"489448567":{"location":[54.2859441,9.3983914],"ct":"DE","tp":"CS","ts":"2020-08-26T05:50:58Z","tX":538,"tY":327,"tags":{"addr:city":"Friedrichsgraben","addr:housenumber":"1","addr:postcode":"24799","addr:street":"Hohner Fähre","name":"Hohner Fähre"}},"643127663":{"location":[54.3147258,9.1900666],"ct":"DE","tp":"CS","ts":"2024-07-12T07:31:24Z","tX":538,"tY":327,"tags":{"addr:city":"Hennstedt","addr:housenumber":"1","addr:postcode":"25779","addr:street":"An der Eider","capacity":"130","caravans":"yes","drinking_water":"yes","email":"info@camping-eider.de","name":"CampingOase Eider","operator":"Ulfrad Wagner","phone":"+49 4836 9968800","power_supply":"yes","sanitary_dump_station":"yes","shower":"yes","tents":"yes","toilets":"yes","website":"https://www.camping-eider.de/"}},"1078985028":{"location":[54.2085279,9.2645605],"ct":"DE","tp":"CS","ts":"2022-07-16T09:09:05Z","tX":538,"tY":327,"tags":{"addr:city":"Tellingstedt","addr:housenumber":"6a","addr:postcode":"25782","addr:street":"Heider Straße","fee":"yes","name":"Wohnmobilstellplatz Tellingstedt","website":"https://womo-tellingstedt.de/"}},"6497068312":{"location":[54.3583008,9.1574022],"ct":"DE","tp":"CS","ts":"2024-02-18T08:02:00Z","tX":538,"tY":327,"tags":{"backcountry":"yes","contact:phone":"+49 4881 7797","fee":"no","name":"Trekkingplatz Drage","operator":"Ute Gröne","reservation":"required","shower":"yes","tents":"yes","toilets":"yes","website":"https://www.naturschutz-sh.de/wildes-sh/trekkingplatz-drage"}},"8693330361":{"location":[54.3526325,9.2100212],"ct":"DE","tp":"CS","ts":"2021-05-03T10:49:02Z","tX":538,"tY":327,"tags":{"access":"private","capacity":"2","name":"1nitetent Übernachtungsplatz 254","operator":"1nitetent","website":"https://1nitetent.com"}},"9897677746":{"location":[54.218625,9.4358428],"ct":"DE","tp":"CS","ts":"2024-06-27T14:56:11Z","tX":538,"tY":327,"tags":{"addr:city":"Wrohm","addr:housenumber":"9","addr:place":"Lexfähre","addr:postcode":"25799","bbq":"yes","caravans":"yes","check_date":"2024-06-26","description":"Hier ist ein Campingplatz. Der weiter nördlich ist nur für Dauercamper.","dog":"leashed","drinking_water":"yes","fee":"yes","internet_access":"wlan","internet_access:fee":"customers","internet_access:ssid":"Eiderhafen Gäste","name":"Eiderhafen Lexfähre","phone":"+49 160 96847256","picnic_table":"yes","power_supply":"yes","reservation":"yes","sanitary_dump_station":"no","shower":"yes","static_caravans":"no","tents":"yes","toilets":"yes","washing_machine":"yes","website":"https://eider-charter.de/eiderhafen-lexfaehre/camping/index.php/"}},"11945145733":{"location":[54.2354584,9.1746528],"ct":"DE","tp":"CR","ts":"2024-05-30T14:21:53Z","tX":538,"tY":327,"tags":{"caravan_site":"motorhome_stopover","caravan_site:type":"restaurant","charge":"10 EUR","fee":"yes","name":"Gaststätte Jägerstuben, Barkenholm","opening_hours":"Mar-Nov","power_supply":"yes","sanitary_dump_station":"yes","toilets":"no","trailer":"yes","water_point":"yes","website":"https://www.jaegerstuben-barkenholm.de/freizeit/parken"}}}