{"119219337":{"location":[53.9239465,9.3730441],"ct":"DE","tp":"CR","ts":"2017-02-23T06:33:43Z","tX":538,"tY":329,"tags":{"capacity":"15","fee":"no","name":"Wohnmobilstellplatz Wilster","note":"Nur 4 Steckdosen für Stromanschluß","power_supply":"yes","website":"http://www.wilstermarsch-service.de/index.php?option=com_content&task=view&id=46&Itemid=111"}},"163793268":{"location":[53.7516397,9.3875542],"ct":"DE","tp":"CS","ts":"2023-11-03T14:28:20Z","tX":538,"tY":329,"tags":{"addr:city":"Drochtersen","addr:country":"DE","addr:housenumber":"58","addr:postcode":"21706","addr:street":"Elbinsel Krautsand","fax":"+49 4143 999077","leisure":"playground","name":"Campingplatz Krautsand","opening_hours":"Apr-Oct","phone":"+49 4143 1494","toilets:wheelchair":"yes","website":"https://www.campingplatz-krautsand.de/","wheelchair":"yes"}},"166971160":{"location":[53.7861291,9.3405432],"ct":"DE","tp":"CR","ts":"2021-04-28T16:18:45Z","tX":538,"tY":329,"tags":{"capacity":"15","description":"Spende von 4 Euro erbeten","fee":"donation","internet_access":"no","name":"Wohnmobilstellplatz Wischhafen-Fähre","power_supply":"no","sanitary_dump_station":"no"}},"172076288":{"location":[53.758483,9.3785048],"ct":"DE","tp":"CS","ts":"2023-11-03T14:28:20Z","tX":538,"tY":329,"tags":{"addr:housenumber":"5a","addr:street":"Leuchtturmweg","name":"Camping Am Leuchtturm","phone":"+49 4143 55 22","seasonal":"spring;summer;autumn;christmas","website":"https://www.camping-krautsand.de/"}},"238828657":{"location":[53.823121,9.2935659],"ct":"DE","tp":"CR","ts":"2024-01-05T11:07:19Z","tX":538,"tY":329,"tags":{"access":"yes","capacity":"20","charge":"EUR 11","fee":"yes","internet_access":"no","name":"Wohnmobilstellplatz Friburg Elbe","power_supply":"yes","sanitary_dump_station":"yes","sanitary_dump_station:chemical_toilet":"yes","sanitary_dump_station:grey_water":"yes","shower":"yes","shower:charge":"1 EUR","supervised":"no","surface":"paving_stones","toilets":"yes","water_point":"yes"}},"241163043":{"location":[53.7728115,9.3222732],"ct":"DE","tp":"CR","ts":"2023-11-03T11:26:17Z","tX":538,"tY":329,"tags":{"capacity":"8","description":"free of charge, a donation is requested.","fee":"donation","name":"Wischhafen Hafen Stellplatz","power_supply":"yes","power_supply:fee":"yes","sanitary_dump_station":"no","water_point":"no"}},"276123824":{"location":[53.8642535,9.3169061],"ct":"DE","tp":"CR","ts":"2024-02-14T06:58:13Z","tX":538,"tY":329,"tags":{"drinking_water":"yes","fee":"yes","internet_access":"no","name":"Wohnmobilstation Brokdorf","operator":"Gemeinde Brokdorf","payment:cash":"yes","power_supply":"yes","sanitary_dump_station":"yes","shower":"yes","toilets":"yes"}},"363855394":{"location":[53.7517471,9.390513],"ct":"DE","tp":"CR","ts":"2024-07-02T07:59:56Z","tX":538,"tY":329,"tags":{"addr:city":"Drochtersen","addr:postcode":"21706","addr:street":"Hinterm Elbdeich","area":"yes","capacity":"10","charge":"10 EUR","description:de":"Wohnmobil-Stellplätze","dog":"yes","fee":"yes","name":"Wohnmobilstellplatz Krautsand","power_supply":"yes","power_supply:fee":"inclusive","sanitary_dump_station":"no","surface":"paving_stones","water_point":"no","wheelchair":"limited"}},"516869352":{"location":[53.7752389,9.3209995],"ct":"DE","tp":"CR","ts":"2023-11-03T12:23:50Z","tX":538,"tY":329,"tags":{"capacity":"6","description":"free of charge, a donation is requested","description:de":"Reisemobilstellplatz","fee":"donation","name":"Wischhafen, Ortsmitte Stellplatz","power_supply":"no","sanitary_dump_station":"no","water_point":"no"}},"614213851":{"location":[53.8959467,9.4333821],"ct":"DE","tp":"CS","ts":"2024-08-05T22:23:00Z","tX":538,"tY":329,"tags":{"addr:city":"Hodorf","addr:country":"DE","addr:housenumber":"14","addr:postcode":"25569","addr:street":"Dorfstraße","building":"house","caravans":"yes","drinking_water":"yes","email":"info@faehrhaus-hodorf.de","internet_access":"wlan","name":"Fährhaus Hodorf","phone":"+49 152 09403445","power_supply":"yes","shower":"yes","tents":"yes","toilets":"yes","website":"https://www.faehrhaus-hodorf.de/"}},"1194689386":{"location":[53.7539139,9.150559],"ct":"DE","tp":"CR","ts":"2024-03-30T19:15:55Z","tX":538,"tY":329,"tags":{"caravan_site":"motorhome_stopover","caravans":"no","description":"Stellplatz i.O., Entsorgung total ekelig","name":"Wohnmobilstellplatz Oberndorf Bentwisch","reservation":"no","sanitary_dump_station":"yes","shower":"yes","tents":"no","toilets":"yes","water_point":"yes","website":"https://www.otterndorf.de/hotel/wohnmobilstellplatz-oberndorf-bentwisch"}},"1220560642":{"location":[53.7643922,9.3213673],"ct":"DE","tp":"CR","ts":"2023-11-03T16:22:43Z","tX":538,"tY":329,"tags":{"capacity":"3","charge":"EUR 4","fee":"donation","name":"Servicestation Ziegelstraße Wischhafen","sanitary_dump_station":"yes","seasonal":"no","water_point":"yes"}},"1339044622":{"location":[53.924375,9.3729492],"ct":"DE","tp":"SD","ts":"2024-10-25T12:18:56Z","tX":538,"tY":329,"tags":{"fee":"yes","sanitary_dump_station:accepted":"black_water;tank_chemicals"}},"11310061228":{"location":[53.804222,9.2449562],"ct":"DE","tp":"CR","ts":"2023-11-03T16:22:43Z","tX":538,"tY":329,"tags":{"capacity":"6","fee":"donation","name":"Oederquart Wohnmobilstellplatz","seasonal":"no"}},"5008103482":{"location":[53.7512611,9.3872112],"ct":"DE","tp":"SD","ts":"2017-08-01T19:41:13Z","tX":538,"tY":329,"tags":{"access":"customers","fee":"no","sanitary_dump_station:basin":"yes"}},"6798962582":{"location":[53.864559,9.3167089],"ct":"DE","tp":"SD","ts":"2019-09-16T09:50:12Z","tX":538,"tY":329,"tags":{"access":"customers","fee":"no","opening_hours":"24/7"}},"6798962584":{"location":[53.8645013,9.3168017],"ct":"DE","tp":"SD","ts":"2019-09-16T09:50:12Z","tX":538,"tY":329,"tags":{"fee":"yes","sanitary_dump_station:basin":"yes"}}}