{"22894714":{"location":[53.6025823,9.4657412],"ct":"DE","tp":"CR","ts":"2024-06-15T12:23:59Z","tX":538,"tY":330,"tags":{"addr:city":"Stade","addr:country":"DE","addr:housenumber":"21","addr:postcode":"21682","addr:street":"Schiffertorsstraße","capacity":"79","caravans":"no","charge":"20€ (Stand 06/2024)","contact:email":"wohnmobilstellplatz@stade-tourismus.de","contact:phone":"+49 4141 7769840","contact:website":"https://www.stade-tourismus.de/planen-und-buchen/uebernachten/mit-dem-wohnmobil-in-stade/wohnmobilstellplatz-am-schiffertor/","description":"Parzellen teils sehr eng - WLAN vorhanden aber nicht ausreichend auf allen Plätzen gut","dog":"yes","drinking_water":"yes","dryer":"yes","fee":"yes","internet_access":"wlan","internet_access:fee":"no","lit":"yes","name":"Wohnmobilstellplatz Am Schiffertor","operator":"STADE Marketing und Tourismus GmbH","power_supply":"cee_17_blue","sanitary_dump_station":"yes","sanitary_dump_station:chemical_toilet":"yes","sanitary_dump_station:grey_water":"yes","seasonal":"no","shower":"yes","tents":"no","toilets":"yes","washing_machine":"yes","water_point":"yes","wheelchair":"yes"}},"34598744":{"location":[53.6961373,9.1885526],"ct":"DE","tp":"CR","ts":"2024-07-25T20:38:40Z","tX":538,"tY":330,"tags":{"capacity":"4","caravans":"no","charge":"10,00€","comment":"Anmeldung beim nahegelegenen Möbelhaus Toborg während dessen Öffnungszeiten. Ansonsten den Betrag für die Übernachtung in einem Briefumschlag in den Briefkasten des Möbelhauses werfen.","fee":"yes","motorhome":"designated","name":"Parkplatz am Osteland-Festhaus","permanent_camping":"no","sanitary_dump_station":"yes","static_caravans":"no","tents":"no","toilets":"yes","water_point":"no"}},"58828782":{"location":[53.6238504,9.2050391],"ct":"DE","tp":"CS","ts":"2024-06-23T11:27:58Z","tX":538,"tY":330,"tags":{"backcountry":"no","bbq":"yes","cabins":"yes","caravans":"yes","drinking_water":"yes","fax":"+4947749178","fee":"yes","hot_water":"no","internet_access":"wlan","kitchen":"no","lit":"yes","name":"Ferienpark Geesthof","nudism":"no","operator":"Freizeit- und Campingpark Geesthof GmbH & Co.KG","permanent_camping":"yes","phone":"+494774512","picnic_table":"yes","power_supply":"yes","sanitary_dump_station":"yes","shower":"hot","static_caravans":"yes","swimming_pool":"yes","tents":"yes","toilets":"yes","washing_machine":"yes","waste_disposal":"yes","website":"https://www.geesthof.de","wheelchair":"yes"}},"158014152":{"location":[53.5581025,9.4195953],"ct":"DE","tp":"CS","ts":"2021-02-14T12:53:40Z","tX":538,"tY":330,"tags":{"name":"FKK-Camping auf der Geest","note":"Platzgrenze nach Bing","nudism":"yes","website":"http://www.sun-stade.de/"}},"178007848":{"location":[53.5792704,9.3299546],"ct":"DE","tp":"CS","ts":"2021-04-25T16:50:12Z","tX":538,"tY":330,"tags":{}},"680702099":{"location":[53.7057442,9.3825806],"ct":"DE","tp":"CR","ts":"2023-11-03T14:28:20Z","tX":538,"tY":330,"tags":{"addr:city":"Drochtersen","addr:country":"DE","addr:housenumber":"8","addr:postcode":"21706","addr:street":"Am Sportplatz","capacity":"6","fee":"no","name":"Wohnmobilstellplatz Drochtersen","surface":"paving_stones"}},"1161218786":{"location":[53.6534442,9.2028656],"ct":"DE","tp":"CR","ts":"2024-01-01T10:52:18Z","tX":538,"tY":330,"tags":{"addr:city":"Hechthausen","addr:housenumber":"14","addr:postcode":"21755","addr:street":"Basbecker Straße","capacity":"5","charge":"10 EUR","drinking_water":"yes","email":"info@hoerstensmeier.de","fee":"yes","motorhome":"designated","name":"Wohnmobilstellplatz Zur Linde","operator":"Hotel und Restaurant Zur Linde","phone":"+49 4774 991161","power_supply":"yes","reservation":"yes","sanitary_dump_station":"no","toilets":"yes","water_point":"yes","website":"https://www.taucherhotel.de/womo-stellplatz.html"}},"1202755499":{"location":[53.7250854,9.4903147],"ct":"DE","tp":"CR","ts":"2023-11-03T16:22:43Z","tX":538,"tY":330,"tags":{"charge":"EUR 20","fee":"yes","name":"Wohnmobilstellplatz Kollmar","sanitary_dump_station":"no"}},"1220571831":{"location":[53.6778527,9.2571563],"ct":"DE","tp":"CR","ts":"2023-11-03T17:03:13Z","tX":538,"tY":330,"tags":{"capacity":"3","charge":"EUR 5","dog":"yes","fee":"yes","name":"Wohnmobilstellplatz Großenwörden","power_supply":"yes","seasonal":"no","surface":"grass_paver","toilets":"yes"}},"1220587412":{"location":[53.5970389,9.1706332],"ct":"DE","tp":"CR","ts":"2023-11-03T18:21:50Z","tX":538,"tY":330,"tags":{"capacity":"5","charge":"15 EUR","dog":"yes","fee":"yes","name":"Wohnmobilstellplatz am Fährkrug in Kranenburg","opening_hours":"May-Sep","power_supply":"yes","sanitary_dump_station":"yes","shower":"yes","surface":"paving_stones","toilets":"yes","water_point":"yes"}},"1220587414":{"location":[53.5662271,9.1729568],"ct":"DE","tp":"CR","ts":"2023-11-03T18:21:50Z","tX":538,"tY":330,"tags":{"capacity":"3","caravan_site:type":"harbour","fee":"no","maxstay":"2 days","name":"Gräpel an der Prahmfähre","power_supply":"no","sanitary_dump_station":"no","seasonal":"no","water_point":"no"}},"4459334280":{"location":[53.6921781,9.4374728],"ct":"DE","tp":"CR","ts":"2023-11-03T17:03:13Z","tX":538,"tY":330,"tags":{"capacity":"6","fee":"no","internet_access":"no","name":"Wohnmobilstellplatz Drochtersen-Assel","operator":"Gemeinde Assel","power_supply":"no","sanitary_dump_station":"no","seasonal":"no"}},"11099788821":{"location":[53.6782701,9.4890606],"ct":"DE","tp":"CR","ts":"2024-07-04T15:36:51Z","tX":538,"tY":330,"tags":{"addr:city":"Stade","addr:postcode":"21683","addr:street":"Am Elbdeich","alt_name":"Wohnmobilstellplatz Grauerort","capacity":"25","charge":"16 EUR","dog":"yes","email":"wohnmobilstellplatz@stade-tourismus.de","fee":"yes","internet_access":"yes","name":"Wohnmobilstellplatz in der Festung Grauerort","operator":"Hansestadt Stade","phone":"+4941417769840","power_supply":"yes","reservation":"recommended","sanitary_dump_station":"yes","seasonal":"spring;summer;autumn","shower":"yes","toilets":"yes","water_point":"yes","website":"https://www.stade-tourismus.de/planen-und-buchen/uebernachten/mit-dem-wohnmobil-in-stade/wohnmobilstellplatz-in-der-festung-grauerort/"}},"5949979748":{"location":[53.6026507,9.4662505],"ct":"DE","tp":"SD","ts":"2024-09-06T13:45:42Z","tX":538,"tY":330,"tags":{"fee":"no"}},"8593029392":{"location":[53.6251537,9.2038618],"ct":"DE","tp":"SD","ts":"2021-04-04T18:45:48Z","tX":538,"tY":330,"tags":{}},"11109372084":{"location":[53.6783488,9.4882561],"ct":"DE","tp":"SD","ts":"2023-08-12T10:49:53Z","tX":538,"tY":330,"tags":{"fee":"yes","opening_hours":"24/7","sanitary_dump_station:basin":"yes"}},"12074111371":{"location":[53.6960196,9.1885681],"ct":"DE","tp":"SD","ts":"2024-07-25T20:38:40Z","tX":538,"tY":330,"tags":{}}}