{"138221338":{"location":[52.925645,9.2275246],"ct":"DE","tp":"CR","ts":"2024-03-06T14:33:32Z","tX":538,"tY":333,"tags":{"addr:city":"Verden (Aller)","addr:postcode":"27283","addr:street":"Conrad-Wode-Straße","capacity":"14","charge":"10 EUR","email":"touristik@verden.de","fee":"yes","name":"Wohnmobilstellplatz Verden","opening_hours":"24/7","operator":"Stadt Verden","power_supply":"yes","sanitary_dump_station":"yes","water_point":"yes"}},"296428868":{"location":[52.9239081,9.387785],"ct":"DE","tp":"CS","ts":"2022-03-28T09:33:37Z","tX":538,"tY":333,"tags":{"addr:city":"Kirchlinteln","addr:housenumber":"16","addr:postcode":"27308","addr:street":"Kükenmoorer Dorfstraße","name":"Campingplatz \"Am Salingsloh\"","operator":"Karin Drewes","website":"https://www.campingplatz-kirchlinteln.de/"}},"330733325":{"location":[53.0817466,9.1757988],"ct":"DE","tp":"CS","ts":"2022-07-31T20:15:20Z","tX":538,"tY":333,"tags":{"addr:city":"Sottrum","addr:country":"DE","addr:housenumber":"17","addr:postcode":"27367","addr:street":"Everinghauser Dorfstraße","email":"info@camping-paradies.de","fax":"+49 4205 319115","name":"Camping-Paradies Grüner Jäger","phone":"+49 4205 319113","website":"http://www.camping-paradies.de/"}},"373824728":{"location":[53.1196548,9.2783109],"ct":"DE","tp":"CS","ts":"2021-08-27T14:31:46Z","tX":538,"tY":333,"tags":{"email":"campingpark-stuerberg@gmx.de","fax":"+49 4264 821440","name":"Camping Stürberg","phone":"+49 4264 9124","website":"https://www.stuerberg.de/"}},"409290807":{"location":[53.0830009,9.1760389],"ct":"DE","tp":"CS","ts":"2012-08-04T07:00:08Z","tX":538,"tY":333,"tags":{"name":"Campingplatz Eikhöfe"}},"2108690087":{"location":[52.9125117,9.2288178],"ct":"DE","tp":"CS","ts":"2022-11-17T19:17:02Z","tX":538,"tY":333,"tags":{"addr:city":"Verden (Aller)","addr:country":"DE","addr:housenumber":"1","addr:postcode":"27283","addr:street":"Am Dithmarsberg","contact:phone":"+49 4231 3291","contact:website":"http://www.wsv-verden.de/","fee":"yes","name":"Wassersportverein Verden e.V.","shower":"yes","tents":"yes","toilets":"yes"}},"3080104689":{"location":[53.1196902,9.3834706],"ct":"DE","tp":"CR","ts":"2018-08-13T11:26:40Z","tX":538,"tY":333,"tags":{"capacity":"20","email":"strandhouse@weichelsee.de","fee":"yes","name":"Parkplatz am Weichelsee","phone":"+49 173 4128933","power_supply":"yes","sanitary_dump_station":"yes","water_point":"yes","website":"http://weichelsee.de/stellplatz-am-weichelsee/urlaub-inmitten-der-natur/"}}}