{"110399155":{"location":[52.4285471,9.2061979],"ct":"DE","tp":"CS","ts":"2024-06-21T16:44:44Z","tX":538,"tY":336,"tags":{"access":"customers","addr:city":"Rehburg-Loccum","addr:country":"DE","addr:housenumber":"7","addr:postcode":"31547","addr:street":"Zum Erlengrund","addr:suburb":"Münchehagen","capacity":"120","caravans":"yes","contact:email":"info@lieblingsgruen-camping.de","contact:fax":"+49 5037 300587","contact:phone":"+49 5037 300582","contact:website":"http://www.camping-erlengrund.de","dog":"leashed","drinking_water":"yes","email":"info@lieblingsgruen-camping.de","fee":"yes","internet_access":"no","name":"Camping Lieblingsgrün","opening_hours":"07:00-13:00,15:00-22:00","payment:cash":"yes","power_supply":"yes","shower":"yes","tents":"yes","toilets":"yes","website":"https://www.camping-erlengrund.de/","wheelchair":"limited"}},"119295084":{"location":[52.4732911,9.2325474],"ct":"DE","tp":"CR","ts":"2025-02-14T14:48:03Z","tX":538,"tY":336,"tags":{"capacity":"8","caravans":"no","charge":"5 EUR","dog":"yes","fee":"yes","name":"Wohnmobilstellplatz Rehburg","operator":"Stadt Rehburg-Loccum","power_supply":"yes","sanitary_dump_station":"yes","tents":"no","water_point":"yes","wheelchair":"limited"}},"121876638":{"location":[52.2790499,9.2333759],"ct":"DE","tp":"CS","ts":"2025-03-14T10:58:59Z","tX":538,"tY":336,"tags":{"access":"customers","addr:city":"Stadthagen","addr:postcode":"31655","addr:street":"Wormstaler Weg","bbq":"yes","bin":"yes","cabins":"no","camp_site":"serviced","capacity:persons":"ab ca. 20 Personen bis max. 100 - 150","caravans":"no","drinking_water":"yes","email":"kreisforstamt@schaumburg.de","fee":"yes","group_only":"yes","kitchen":"yes","landuse":"grass","leisure":"summer_camp","motor_vehicle":"no","motorcar":"no","motorhome":"no","name":"Jugendzeltplatz Forsthaus Halt","openfire":"yes","operator":"Kreisforstamt Schaumburg","permanent_camping":"no","phone":"+49 5721 703-1185","shower":"yes","source":"Bing","static_caravans":"no","swimming_pool":"no","tents":"yes","toilets":"yes","website":"https://www.schaumburg.de/Jugendzeltplatz/"}},"127170919":{"location":[52.4485522,9.3551433],"ct":"DE","tp":"CR","ts":"2024-04-05T21:34:07Z","tX":538,"tY":336,"tags":{"capacity":"164","caravan_site":"motorhome_stopover","caravan_site:type":"village","charge":"18 EUR","contact:email":"steinhude@steinhuder-meer.de","contact:fax":"+49 5033 950120","contact:mobile":"+49 160 92632722","contact:phone":"+49 5033 95010","contact:website":"https://www.steinhuder-meer.de/hotel/wohnmobilstellplatz-steinhude","dog":"yes","dryer":"yes","fee":"yes","name":"Wohnmobilstellplatz Steinhude","operator":"Steinhuder Meer Tourismus GmbH","power_supply":"yes","sanitary_dump_station":"yes","sanitary_dump_station:chemical_toilet":"yes","sanitary_dump_station:grey_water":"yes","shower":"yes","tents":"no","toilets":"yes","washing_machine":"yes","water_point":"yes","website":"https://www.steinhuder-meer.de/buchen-planen/wohnmobilstellplatz-steinhude"}},"227123582":{"location":[52.3433793,9.3767975],"ct":"DE","tp":"CR","ts":"2023-06-26T18:21:19Z","tX":538,"tY":336,"tags":{"fee":"no","name":"Wohnmobilstellplatz Bad Nenndorf","power_supply":"yes","sanitary_dump_station":"yes","surface":"gravel","wheelchair":"yes"}},"243806446":{"location":[52.2925687,9.2874544],"ct":"DE","tp":"CS","ts":"2022-08-19T08:08:09Z","tX":538,"tY":336,"tags":{"addr:city":"Apelern","addr:housenumber":"5","addr:postcode":"31552","addr:street":"Rackenurt","capacity":"116","description":"Grillplatz und Boule Bahn","fax":"+49 5043 987518","mobile":"+49 172 7731512","name":"Calido-Camping","operator":"Frank Eberle","phone":"+49 5043 2722","website":"https://www.calido-camping.de/"}},"374416131":{"location":[52.3222463,9.186097],"ct":"DE","tp":"CR","ts":"2024-10-25T16:50:16Z","tX":538,"tY":336,"tags":{"capacity":"8","caravan_site":"motorhome_stopover","caravan_site:type":"village","caravans":"no","description:de":"Reisemobilplatz des Tropicana Stadthagen","dog":"yes","fee":"no","maxstay":"3 days","name":"Tropicana Stadthagen","power_supply":"cee_17_blue","surface":"grass_paver","tents":"no","website":"https://www.tropicana-stadthagen.de/tropicana/reisemobilplatz/","wheelchair":"limited"}},"744755367":{"location":[52.2988407,9.4695041],"ct":"DE","tp":"CR","ts":"2020-10-03T20:04:39Z","tX":538,"tY":336,"tags":{"addr:city":"Barsinghausen","addr:housenumber":"6a","addr:postcode":"30890","addr:street":"Hinterkampstraße","area":"yes","capacity":"8","name":"Wohnmobilstellplatz am Klosterstollen","power_supply":"yes","sanitary_dump_station":"yes","wheelchair":"limited"}},"844617192":{"location":[52.4200255,9.2362365],"ct":"DE","tp":"CR","ts":"2024-03-19T18:37:59Z","tX":538,"tY":336,"tags":{"capacity":"3","caravans":"no","dog":"yes","fee":"no","name":"Wohnmobilstellplatz der Gemeinde Wölpinghauen","operator":"Gemeinde Wölpinghauen","power_supply":"no","tents":"no","water_point":"no"}},"846325418":{"location":[52.3429677,9.3770428],"ct":"DE","tp":"SD","ts":"2020-09-11T07:09:02Z","tX":538,"tY":336,"tags":{"access":"yes","fee":"no","sanitary_dump_station:chemical_toilet":"yes","sanitary_dump_station:gravity":"yes","sanitary_dump_station:grey_water":"yes"}},"1250263042":{"location":[52.4215446,9.3729485],"ct":"DE","tp":"CR","ts":"2011-04-18T18:21:52Z","tX":538,"tY":336,"tags":{"name":"Bokeloh"}},"1250275909":{"location":[52.4368216,9.3238817],"ct":"DE","tp":"CR","ts":"2024-03-19T17:25:51Z","tX":538,"tY":336,"tags":{"capacity":"6","caravans":"no","dog":"yes","fee":"no","internet_access":"no","name":"Stellplatz Hagenburg","power_supply":"no","sanitary_dump_station":"no","tents":"no"}},"3778058209":{"location":[52.3219163,9.1873133],"ct":"DE","tp":"SD","ts":"2024-10-25T16:27:34Z","tX":538,"tY":336,"tags":{"fee":"yes","sanitary_dump_station:chemical_toilet":"yes","sanitary_dump_station:gravity":"yes","sanitary_dump_station:grey_water":"yes"}},"3778058219":{"location":[52.4740947,9.2334277],"ct":"DE","tp":"SD","ts":"2015-10-08T11:06:12Z","tX":538,"tY":336,"tags":{"sanitary_dump_station:chemical_toilet":"yes","sanitary_dump_station:gravity":"yes","sanitary_dump_station:grey_water":"yes"}},"11954786998":{"location":[52.2790682,9.3687656],"ct":"DE","tp":"CR","ts":"2024-08-04T16:02:34Z","tX":538,"tY":336,"tags":{"capacity":"10","caravan_site":"motorhome_stopover","caravan_site:type":"winery","drinking_water":"no","fee":"no","internet_access":"no","name":"Reisemobilstellplatz Lauenau Am Felsenkeller","power_supply":"no","reservation":"no","sanitary_dump_station":"no","seasonal":"no","toilets":"no","website":"https://www.ruppbraeu.de/pages/kostenlose-wohnmobil-stellplaetze","wheelchair":"yes"}},"12207074419":{"location":[52.4255414,9.4177628],"ct":"DE","tp":"CR","ts":"2025-01-19T18:15:32Z","tX":538,"tY":336,"tags":{"addr:city":"Wunstorf","addr:postcode":"31515","addr:street":"In den Ellern","name":"Wunstorf","power_supply":"no","sanitary_dump_station":"no"}},"5999160234":{"location":[52.448487,9.3558186],"ct":"DE","tp":"SD","ts":"2018-10-19T22:26:36Z","tX":538,"tY":336,"tags":{}}}