{"33139279":{"location":[52.1058494,9.2961507],"ct":"DE","tp":"CS","ts":"2023-08-07T14:07:58Z","tX":538,"tY":337,"tags":{"addr:city":"Hameln","addr:housenumber":"2","addr:postcode":"31787","addr:street":"Pferdeweg","addr:suburb":"Halvestorf","caravans":"yes","name":"Camping am Waldbad","phone":"+49 5158 2774","shower":"yes","static_caravans":"yes","tents":"yes","toilets":"yes","website":"https://www.campingamwaldbad.de/"}},"95670617":{"location":[52.1100732,9.3470128],"ct":"DE","tp":"CS","ts":"2020-09-07T05:29:01Z","tX":538,"tY":337,"tags":{"addr:city":"Hameln","addr:housenumber":"80","addr:postcode":"31787","addr:street":"Uferstraße","internet_access":"wlan","name":"Campingplatz Hameln an der Weser","tents":"yes","website":"https://campingplatz-hameln.de/","wheelchair":"no"}},"129645725":{"location":[52.0887502,9.3830787],"ct":"DE","tp":"CS","ts":"2025-03-14T13:43:11Z","tX":538,"tY":337,"tags":{"addr:city":"Hameln","addr:country":"DE","addr:housename":"Tönebön-Camp","addr:housenumber":"8","addr:postcode":"31789","addr:street":"Tönebönweg","area":"yes","cabins":"yes","camp_site":"serviced","capacity:persons":"400","caravans":"no","drinking_water":"yes","email":"toeneboencamp@aol.com","fee":"yes","group_only":"yes","kitchen":"yes","mobile":"+49 151 17275874","name":"Pfadfinderzeltplatz Tönebön-Camp Hameln","operator":"Töneböncamp e.V.","phone":"+49 5151 26223","scout":"yes","short_name":"Töneböncamp","shower":"yes","static_caravans":"no","tents":"yes","toilets":"yes","toilets:wheelchair":"no","website":"https://toeneboencamp-hameln.de","wheelchair":"limited"}},"196709980":{"location":[52.0864091,9.1907312],"ct":"DE","tp":"CS","ts":"2024-03-17T17:48:06Z","tX":538,"tY":337,"tags":{"addr:city":"Aerzen","addr:housenumber":"2","addr:postcode":"31855","addr:street":"Flakenholz","email":"naturisten-flaki@gmx.de","name":"Familiensport-Naturistenbund Hameln","nudism":"yes","operator":"Familiensport-Naturistenbund Hameln e.V.","phone":"+49 5158 2823","website":"https://naturisten-hameln.de/"}},"196709981":{"location":[52.0842006,9.1771457],"ct":"DE","tp":"CS","ts":"2023-03-12T21:54:59Z","tX":538,"tY":337,"tags":{"name":"Privater Platz"}},"196709996":{"location":[52.0826983,9.1581025],"ct":"DE","tp":"CS","ts":"2023-06-09T03:57:24Z","tX":538,"tY":337,"tags":{"caravans":"yes","drinking_water":"yes","name":"Campingplatz Bambi","shower":"yes","tents":"yes"}},"218881734":{"location":[52.1076644,9.297044],"ct":"DE","tp":"CS","ts":"2025-03-14T13:35:23Z","tX":538,"tY":337,"tags":{"addr:city":"Hameln","addr:country":"DE","addr:housenumber":"2","addr:postcode":"31787","addr:street":"Pferdeweg","addr:suburb":"Halvestorf","area":"yes","camp_site":"deluxe","capacity:persons":"2500","caravans":"no","community_centre":"youth_centre","drinking_water":"yes","email":"team@zeltplatz-alphaone.de","fee":"yes","fireplace":"yes","internet_access":"no","motor_vehicle":"no","motorhome":"no","name":"Zeltplatz Alpha One","phone":"+4951582774","reservation":"yes","sanitary_dump_station":"yes","shower":"yes","static_caravans":"no","tents":"yes","toilets":"yes","website":"https://www.zeltplatz-alphaone.de","wheelchair":"limited"}},"364783532":{"location":[52.0595,9.2616496],"ct":"DE","tp":"CR","ts":"2023-11-04T17:04:31Z","tX":538,"tY":337,"tags":{"capacity:caravans":"4","caravan_site:type":"restaurant","charge":"8 EUR","fee":"yes","name":"Waldquelle","phone":"+49 5154 95220","power_supply":"yes","power_supply:charge":"4.5 EUR / day","power_supply:fee":"yes","website":"https://www.hotel-waldquelle.de/service/wohnmobilstellplatz"}},"386262871":{"location":[52.0960852,9.358184],"ct":"DE","tp":"CR","ts":"2020-06-07T14:39:04Z","tX":538,"tY":337,"tags":{"capacity":"27","contact:phone":"+49 5151 9310-33","description":"Kosten 8€ für 24 Std.","fee":"yes","name":"Wohnmobilstandplatz am Anleger","operator":"Hamelner Wohnungsbau-Gesellschaft mbH","power_supply":"yes","sanitary_dump_station":"yes","water_point":"yes"}},"527046678":{"location":[52.1078475,9.3484782],"ct":"DE","tp":"CS","ts":"2022-09-04T14:51:45Z","tX":538,"tY":337,"tags":{"access":"permit","fee":"yes","lit":"no","name":"Womo Stellplatz Hameln Erweiterung","surface":"gravel","wheelchair":"limited"}},"537123300":{"location":[52.2354558,9.1476612],"ct":"DE","tp":"CR","ts":"2024-04-22T13:11:30Z","tX":538,"tY":337,"tags":{"capacity":"4","caravan_site":"motorhome_stopover","caravan_site:type":"swimming_pool","caravans":"no","fee":"no","name":"Wohnmobil-Stellplätze Rolfshagen","power_supply":"yes","sanitary_dump_station":"yes","tents":"no","website":"http://rolfshagen.de/?Tourismus:Wohnmobil-Stellpl%E4tze"}},"1112736082":{"location":[52.1641862,9.3475658],"ct":"DE","tp":"CS","ts":"2025-03-13T19:31:25Z","tX":538,"tY":337,"tags":{"addr:city":"Haddessen","addr:street":"Pötzer Straße","bbq":"yes","camp_site":"deluxe","caravan":"no","caravans":"no","drinking_water":"yes","email":"zeltplatz@haddessen.de","fee":"yes","internet_access":"wlan","motor_vehicle":"no","motorhome":"no","name":"Süntelbad Haddessen","shower":"yes","static_caravans":"no","tents":"yes","toilets":"yes","website":"https://www.suentelbad-haddessen.de/"}},"1298490688":{"location":[52.1718587,9.1897614],"ct":"DE","tp":"CR","ts":"2024-07-02T09:47:22Z","tX":538,"tY":337,"tags":{"addr:city":"Hessisch Oldendorf","addr:postcode":"31840","addr:street":"Am Steinbrink","capacity":"5","caravan_site":"motorhome_stopover","caravan_site:type":"river","description:de":"Weserfähre in der Nähe","fee":"no","maxlength":"none","maxstay":"5 days","name":"Wohnmobilstellplatz Großenwieden","opening_hours":"24/7","power_supply":"no","sanitary_dump_station":"no","seasonal":"no","website":"https://www.westliches-weserbergland.de/de/westliches-weserbergland/default/detail/Hotel/h_58374/wohnmobilstellplatz-grossenwieden"}},"1367776727":{"location":[52.2585574,9.1933095],"ct":"DE","tp":"CS","ts":"2025-03-15T15:28:43Z","tX":538,"tY":337,"tags":{"access":"customers","addr:city":"Obernkirchen","addr:housenumber":"2","addr:postcode":"31683","addr:street":"Auf dem Bückeberg","bbq":"yes","camp_site":"serviced","capacity:persons":"300","caravan":"no","caravans":"no","drinking_water":"yes","email":"jbf-centrum@schaumburg.de","fee":"yes","fireplace":"yes","motor_vehicle":"no","motorcar":"no","motorhome":"no","name":"Jugend-, Bildung-, Freizeit-Centrum Bückeberg","phone":"+49 5721 703 5600","phone:mobile":"+49 173 658 9298","power_supply":"yes","shower":"yes","static_caravans":"no","tents":"yes","toilets":"yes","website":"https://www.schaumburgerland-tourismus.de/de/lodging/jugendherberge/jbf-centrum-bueckeberg/6435745/#dmdtab=oax-tab1"}},"10012283908":{"location":[52.1670491,9.2516165],"ct":"DE","tp":"CR","ts":"2024-07-02T09:41:31Z","tX":538,"tY":337,"tags":{"addr:city":"Hessisch Oldendorf","addr:postcode":"31840","addr:street":"Weserstraße","capacity:caravans":"5","caravan_site":"motorhome_stopover","caravan_site:type":"parking_lot","caravans":"no","fee":"no","maxstay":"5 days","name":"P Südwall","sanitary_dump_station":"yes","sanitary_dump_station:grey_water":"yes","tents":"no"}},"5201932208":{"location":[52.2356357,9.1473235],"ct":"DE","tp":"SD","ts":"2017-10-31T11:14:50Z","tX":538,"tY":337,"tags":{}},"6807560893":{"location":[52.2356556,9.147312],"ct":"DE","tp":"SD","ts":"2019-09-19T09:41:53Z","tX":538,"tY":337,"tags":{"fee":"no"}},"7600170206":{"location":[52.0960957,9.358113],"ct":"DE","tp":"SD","ts":"2020-06-07T14:34:29Z","tX":538,"tY":337,"tags":{"access":"yes","fee":"no","note":"Kosten für Frischwasser 1€ ca 90 Ltr","water_point":"yes"}}}