{"11772463":{"location":[51.9215246,9.1653627],"ct":"DE","tp":"CR","ts":"2024-06-27T17:58:24Z","tX":538,"tY":338,"tags":{"capacity":"300","caravan_site":"motorhome_stopover","caravan_site:type":"lake","charge":"18 EUR","email":"schiedersee@infinityevents.de","fee":"yes","internet_access":"yes","name":"Wohnmobilhafen Schiedersee","operator":"Infinity GmbH & Co. KG","phone":"+49 5282 411","power_supply":"yes","shower":"yes","tents":"yes","toilets":"yes","water_point":"yes","website":"https://www.schiedersee.de/wohnmobilhafen"}},"25707312":{"location":[51.9198378,9.1640411],"ct":"DE","tp":"CS","ts":"2020-10-19T00:13:22Z","tX":538,"tY":338,"tags":{}},"30931714":{"location":[51.8983072,9.254355],"ct":"DE","tp":"CS","ts":"2024-11-25T20:51:25Z","tX":538,"tY":338,"tags":{"addr:city":"Lügde","addr:housenumber":"80","addr:postcode":"32676","addr:street":"Obere Dorfstraße","email":"info@amaron-camping.de","name":"Amaron Campingplatz & Resort","operator":"Amaron Invest GmbH","phone":"+49 5283 335","website":"https://www.amaron-camping.de/"}},"99027796":{"location":[52.0182838,9.4265227],"ct":"DE","tp":"CS","ts":"2024-08-23T17:25:17Z","tX":538,"tY":338,"tags":{"addr:city":"Emmerthal","addr:country":"DE","addr:housenumber":"1","addr:postcode":"31860","addr:street":"Grohnder Fähre","addr:suburb":"Grohnde","caravans":"yes","contact:fax":"+49 5155 7990","contact:phone":"+49 5155 380","contact:website":"http://www.grohnder-faehrhaus.de","name":"Campingplatz Grohnder Fährhaus","shower":"yes","tents":"yes","toilets":"yes","url":"https://www.grohnder-faehrhaus-camping.de/","wheelchair":"yes"}},"192922949":{"location":[51.9121279,9.4647238],"ct":"DE","tp":"CS","ts":"2024-10-15T08:50:32Z","tX":538,"tY":338,"tags":{"addr:city":"Brevörde","addr:country":"DE","addr:postcode":"37647","addr:street":"Hauptstraße","name":"Campingplatz Grave","wheelchair":"limited"}},"192939374":{"location":[51.8855853,9.4421741],"ct":"DE","tp":"CS","ts":"2024-08-23T13:16:14Z","tX":538,"tY":338,"tags":{"access":"customers","addr:city":"Heinsen","addr:housenumber":"66","addr:postcode":"37649","addr:street":"Weserstraße","camp_site":"deluxe","capacity:pitches":"128","caravans":"yes","dog":"leashed","drinking_water":"yes","fee":"yes","internet_access":"wlan","kitchen":"yes","motor_vehicle":"yes","name":"Campingplatz Weserbergland","nudism":"no","payment:cash":"yes","payment:girocard":"yes","phone":"+49 5535 8733","power_supply":"yes","reservation":"yes","sanitary_dump_station":"yes","shower":"yes","source":"Bing","sport":"table_tennis;boules;swimming","swimming_pool":"yes","tents":"yes","toilets":"yes","url":"https://www.weserbergland-camping.com/","washing_machine":"yes","wheelchair":"limited"}},"331502442":{"location":[51.9949865,9.2759937],"ct":"DE","tp":"CS","ts":"2024-07-25T15:45:14Z","tX":538,"tY":338,"tags":{"addr:city":"Bad Pyrmont","addr:housenumber":"1-3","addr:postcode":"31812","addr:street":"Am Schellenhof","caravans":"yes","email":"camping@schellental.de","internet_access":"wlan","name":"Campingpark Schellental","phone":"+49 5281 8772","smoking":"outside","tents":"yes","website":"https://camping.schellental.de/","wheelchair":"limited"}},"362476430":{"location":[51.9790719,9.2534263],"ct":"DE","tp":"CR","ts":"2023-12-31T15:41:29Z","tX":538,"tY":338,"tags":{"drinking_water":"no","fee":"yes","internet_access":"wlan","name":"Reisemobilhafen in den Emmerauen","power_supply":"no","toilets":"no"}},"860782608":{"location":[51.9224193,9.1661985],"ct":"DE","tp":"CS","ts":"2024-10-03T10:48:39Z","tX":538,"tY":338,"tags":{"caravans":"yes","name":"SchiederSee","tents":"yes"}},"911067189":{"location":[52.0190557,9.4272041],"ct":"DE","tp":"CR","ts":"2024-07-02T09:50:53Z","tX":538,"tY":338,"tags":{"bakery_service":"yes","capacity":"55","caravan_site":"motorhome_stopover","caravan_site:type":"camp_site;river","charge":"28 EUR","fee":"yes","maxlength":"none","name":"Stellplatz Grohnder Fährhaus","power_supply":"yes","power_supply:charge":"1 EUR/kWh","power_supply:fee":"yes","sanitary_dump_station":"yes","seasonal":"yes","shower":"yes","toilets":"yes","water_point":"yes","website":"https://www.grohnder-faehrhaus-camping.de/"}},"1278465423":{"location":[51.9465596,9.402599],"ct":"DE","tp":"CR","ts":"2024-05-20T12:59:22Z","tX":538,"tY":338,"tags":{"capacity":"19","caravan_site":"motorhome_stopover","caravan_site:type":"village","charge":"10 EUR","fee":"yes","name":"Wohnmobilstellplatz \"Alte Oberförsterei\" Ottenstein","power_supply":"yes","power_supply:charge":"1 EUR/2 kWh","power_supply:fee":"yes","sanitary_dump_station":"yes","sanitary_dump_station:charge":"0.50 EUR","sanitary_dump_station:fee":"yes","seasonal":"no","water_point":"yes","water_point:charge":"1 EUR/100 liter","website":"https://www.muenchhausenland.de/portal/seiten/wohnmobilstellplatz-alte-oberfoersterei-ottenstein-900000232-25640.html"}},"11147652928":{"location":[51.8848595,9.4423821],"ct":"DE","tp":"SD","ts":"2024-08-23T13:16:14Z","tX":538,"tY":338,"tags":{"access":"customers","sanitary_dump_station:gravity":"yes"}}}