{"12182747":{"location":[51.7457031,9.3769634],"ct":"DE","tp":"CS","ts":"2021-01-15T07:56:28Z","tX":538,"tY":339,"tags":{}},"12338835":{"location":[51.7658447,9.3844087],"ct":"DE","tp":"CS","ts":"2024-11-04T08:37:42Z","tX":538,"tY":339,"tags":{"addr:city":"Höxter","addr:country":"DE","addr:housenumber":"4","addr:postcode":"37671","addr:street":"Sportzentrum","caravans":"yes","check_date":"2024-10-29","contact:facebook":"https://www.facebook.com/Wesercamping-H%C3%B6xter-100063691654103/","contact:instagram":"https://www.instagram.com/wesercamping_hoexter","dog":"leashed","email":"info@wesercamping-hoexter.de","fax":"+49 5271 496335","fee":"yes","name":"Wesercamping Höxter","operator":"Thomas Hachmann","phone":"+49 5271 2589","power_supply":"yes","shower":"yes","static_caravans":"yes","tents":"yes","toilets":"yes","toilets:wheelchair":"no","website":"https://www.wesercamping-hoexter.de","wheelchair":"yes"}},"18510561":{"location":[51.829037,9.4391329],"ct":"DE","tp":"PK","ts":"2025-01-06T14:28:39Z","tX":538,"tY":339,"tags":{"access":"yes","fee":"no","motorhome":"yes","parking":"surface"}},"18510563":{"location":[51.8257756,9.4390409],"ct":"DE","tp":"CR","ts":"2025-01-06T14:28:39Z","tX":538,"tY":339,"tags":{"addr:city":"Holzminden","addr:housenumber":"16a","addr:postcode":"37603","addr:street":"Stahler Ufer","capacity":"150","charge":"15 EUR","charge:conditional":"10.50 @ (Nov 15-Dec 15,Jan 10-Mar 15)","fee":"yes","name":"Mobilcamping Holzminden","operator":"Christoph Mehlhaff und Viktor Schmidt GbR Mobilcamping","phone":"+49 5531 990965","power_supply":"yes","reservation":"yes","water_point":"yes","website":"https://camping-holzminden.de/","wheelchair":"no"}},"46263579":{"location":[51.7725058,9.1886415],"ct":"DE","tp":"CR","ts":"2019-03-10T07:50:57Z","tX":538,"tY":339,"tags":{"capacity":"20","name":"Wohnmobilhafen Bellersen","website":"https://www.wohnmobilhafen-bellersen.de/"}},"62091122":{"location":[51.7592816,9.3756827],"ct":"DE","tp":"CR","ts":"2025-04-28T19:03:12Z","tX":538,"tY":339,"tags":{"addr:city":"Höxter","addr:postcode":"37671","addr:street":"Godelheimer Straße","capacity:caravans":"50","charge":"9 EUR","email":"info@wesercamping-hoexter.de","fee":"yes","name":"Freizeitanlage Godelheim","operator":"Wesercamping Höxter","phone":"+49 5271 2589","power_supply":"no","sanitary_dump_station":"yes","sanitary_dump_station:grey_water":"yes","website":"https://www.wesercamping-hoexter.de/","wheelchair":"yes"}},"94233565":{"location":[51.6445688,9.4470264],"ct":"DE","tp":"CS","ts":"2024-02-29T23:21:29Z","tX":538,"tY":339,"tags":{"addr:city":"Bad Karlshafen","addr:country":"DE","addr:housenumber":"2","addr:postcode":"34385","addr:street":"Am Rechten Weserufer","caravans":"yes","contact:email":"j.m.camping-bad-karlshafen@t-online.de","contact:fax":"+49 5672 1350","contact:phone":"+49 5672 710","drinking_water":"yes","internet_access":"wlan","landuse":"grass","name":"Campingplatz Bad Karlshafen","power_supply":"yes","shower":"yes","tents":"yes","toilets":"yes","website":"https://www.camper-karli-event.de","wheelchair":"yes"}},"94965849":{"location":[51.6463875,9.3818766],"ct":"DE","tp":"CS","ts":"2025-05-16T16:07:37Z","tX":538,"tY":339,"tags":{"addr:city":"Beverungen","addr:country":"DE","addr:housenumber":"1","addr:postcode":"37688","addr:street":"Axelsee","cabins":"yes","caravans":"yes","dog":"yes","drinking_water":"yes","dryer":"yes","email":"axel-see@freenet.de","fax":"+49 5273 88848","internet_access":"wlan","kitchen":"yes","lit":"yes","motor_vehicle":"yes","name":"Freizeitgelände Axelsee","openfire":"yes","opening_hours":"Jan-Dec","operator":"Familie Weller GbR","payment:cash":"yes","payment:girocard":"yes","payment:mastercard":"yes","payment:visa":"yes","permanent_camping":"yes","phone":"+49 5273 88818","power_supply":"yes","sanitary_dump_station":"yes","shower":"yes","static_caravans":"yes","tents":"yes","toilets":"yes","washing_machine":"yes","website":"http://www.axel-see.de/","wheelchair":"no"}},"249441723":{"location":[51.829037,9.4391329],"ct":"DE","tp":"PK","ts":"2025-01-19T12:25:09Z","tX":538,"tY":339,"tags":{"access":"yes","fee":"no","motorhome":"yes","parking":"surface"}},"321903759":{"location":[51.82578,9.4390409],"ct":"DE","tp":"CR","ts":"2024-08-23T11:49:45Z","tX":538,"tY":339,"tags":{"addr:city":"Holzminden","addr:housenumber":"16a","addr:postcode":"37603","addr:street":"Stahler Ufer","capacity":"150","charge":"15 EUR","charge:conditional":"10.50 @ (Nov 15-Dec 15,Jan 10-Mar 15)","fee":"yes","name":"Mobilcamping Holzminden","operator":"Christoph Mehlhaff und Viktor Schmidt GbR Mobilcamping","phone":"+49 5531 990965","power_supply":"yes","reservation":"yes","water_point":"yes","website":"https://camping-holzminden.de/","wheelchair":"no"}},"330572020":{"location":[51.7739427,9.3877338],"ct":"DE","tp":"CR","ts":"2025-01-20T15:25:18Z","tX":538,"tY":339,"tags":{"addr:city":"Höxter","addr:postcode":"37671","addr:street":"Im Brückfeld","capacity":"80","caravan_site":"motorhome_stopover","caravan_site:type":"river","caravans":"no","charge":"11 EUR","dog":"yes","email":"info@wesercamping-hoexter.de","fee":"yes","internet_access":"no","name":"Floßplatz","operator":"Wesercamping Höxter","phone":"+49 5271 2589","power_supply":"yes","sanitary_dump_station":"yes","tents":"no","website":"https://www.wesercamping-hoexter.de/","wheelchair":"yes"}},"346095841":{"location":[51.6503745,9.3780562],"ct":"DE","tp":"CS","ts":"2025-05-16T16:24:47Z","tX":538,"tY":339,"tags":{"caravans":"yes","contact:facebook":"https://www.facebook.com/people/Yachthafen-Dreil%C3%A4ndereck-Lauenf%C3%B6rde/100057121553601/","drinking_water":"yes","email":"wvoessing@t-online.de","internet_access":"no","name":"Yachthafen Dreiländereck","operator":"Wilfried Vössing","phone":"+495273-21836","power_supply":"yes","sanitary_dump_station":"yes","shower":"yes","tents":"yes","toilets":"yes","website":"http://www.yachthafen-dreiländereck.de/","wheelchair":"limited"}},"600835298":{"location":[51.6448082,9.4182157],"ct":"DE","tp":"CR","ts":"2024-07-01T16:32:27Z","tX":538,"tY":339,"tags":{"name":"Wohnmobilstellplatz am Landhotel Alte Linde"}},"809150283":{"location":[51.6513599,9.3761012],"ct":"DE","tp":"CR","ts":"2025-03-16T14:20:05Z","tX":538,"tY":339,"tags":{"capacity":"16","dog":"yes","email":"wvoessing@t-online.de","fee":"yes","internet_access":"no","name":"Wohnmobilstellplatz am Yachthafen in Lauenförde","operator":"Wilfried Vössing","phone":"+495273-21836","power_supply":"yes","sanitary_dump_station":"yes","toilets":"no","water_point":"yes","website":"http://www.yachthafen-dreiländereck.de/","wheelchair":"yes"}},"851250191":{"location":[51.7771361,9.4100544],"ct":"DE","tp":"CS","ts":"2023-07-18T11:55:23Z","tX":538,"tY":339,"tags":{"contact:email":"info@weser-aktivhotel-corvey.de","contact:phone":"+49 5271 6946869","contact:website":"http://www.weser-aktivhotel-corvey.de/","name":"Weser AktivHotel Corvey"}},"978192079":{"location":[51.7072309,9.2912336],"ct":"DE","tp":"CR","ts":"2024-05-31T12:22:55Z","tX":538,"tY":339,"tags":{"caravan_site":"motorhome_stopover","caravan_site:type":"river;village","fee":"no","name":"Wohnmobilstellplatz Ottbergen/Bruchhausen.","picnic_area":"yes","power_supply":"no","sanitary_dump_station":"no","seasonal":"no","water_point":"no"}},"1200946880":{"location":[51.6508831,9.3736044],"ct":"DE","tp":"CS","ts":"2024-09-12T05:27:17Z","tX":538,"tY":339,"tags":{"caravans":"yes","email":"info@campingambootshaus.de","name":"Am Bootshaus","object:city":"Beverungen","object:postcode":"37688","object:street":"Hersteller Straße","old_name":"WSV Beverungen","opening_hours":"Apr-Oct","operator":"Jeroen & Lisanne","phone":"+49 5273 5335","shower":"yes","surface":"grass","tents":"yes","toilets":"yes","website":"https://campingambootshaus.de/de/camping/"}},"1288353177":{"location":[51.7567997,9.3884245],"ct":"DE","tp":"CR","ts":"2024-05-31T12:22:55Z","tX":538,"tY":339,"tags":{"capacity":"2","caravan_site":"motorhome_stopover","caravan_site:type":"shop","fee":"no","name":"Wohnmobilstellplatz Ölmühle Solling","sanitary_dump_station":"no","water_point":"no","website":"https://www.hoexter-tourismus.de/hotel/wohnmobilstellplatz-oelmuehle-solling/"}},"1313684282":{"location":[51.6506184,9.3793983],"ct":"DE","tp":"CS","ts":"2024-09-06T08:13:51Z","tX":538,"tY":339,"tags":{"building":"yes","contact:facebook":"https://www.facebook.com/people/Yachthafen-Dreil%C3%A4ndereck-Lauenf%C3%B6rde/100057121553601/","email":"wvoessing@t-online.de","name":"Yachthafen Dreiländereck","operator":"Wilfried Vössing","phone":"+495273-21836","sanitary_dump_station":"yes","tents":"yes","website":"http://www.yachthafen-dreiländereck.de/"}},"2595494716":{"location":[51.7195969,9.1842142],"ct":"DE","tp":"CR","ts":"2024-04-29T10:43:55Z","tX":538,"tY":339,"tags":{"caravan_site":"motorhome_stopover","caravan_site:type":"parking_lot","email":"tourist-info@brakel.de","fee":"no","name":"Parkplatz P9 (Bredenweg) Stadt Brakel","operator":"Stadt Brakel","phone":"+49 5272 360269","power_supply":"no","water_point":"no","website":"https://www.brakel.de/Quick-Navigation/Adressverzeichnis/Parkplatz-P9-Bredenweg-.php?ModID=9&FID=2209.1020.1&object=tx%7C2209.637.1&redir=1"}},"3375762871":{"location":[51.7735297,9.3874297],"ct":"DE","tp":"SD","ts":"2015-04-28T07:03:43Z","tX":538,"tY":339,"tags":{"sanitary_dump_station:accepted":"black_water;tank_chemicals"}},"8964002908":{"location":[51.6273268,9.4589388],"ct":"DE","tp":"CS","ts":"2024-12-01T12:04:32Z","tX":538,"tY":339,"tags":{"addr:city":"Bad Karlshafen","addr:country":"DE","addr:housenumber":"6","addr:postcode":"34385","addr:street":"Breiter Weg","addr:suburb":"Helmarshausen","contact:phone":"+49 5672 9959995","name":"Diemelaue","website":"http://campingplatz-diemelaue.de/"}},"12277251802":{"location":[51.8078365,9.3808141],"ct":"DE","tp":"CS","ts":"2024-10-21T19:41:12Z","tX":538,"tY":339,"tags":{}},"7563472831":{"location":[51.6464158,9.3821955],"ct":"DE","tp":"SD","ts":"2025-01-29T08:19:18Z","tX":538,"tY":339,"tags":{"fee":"yes","sanitary_dump_station:chemical_toilet":"yes","sanitary_dump_station:gravity":"yes","sanitary_dump_station:grey_water":"yes"}}}