{"14571961":{"location":[51.2493738,9.1569474],"ct":"DE","tp":"CS","ts":"2022-09-12T14:12:17Z","tX":538,"tY":341,"tags":{"addr:city":"Naumburg","addr:country":"DE","addr:housenumber":"12","addr:postcode":"34311","addr:street":"Am Schwimmbad","cabins":"yes","camp_site":"reception","caravans":"yes","contact:email":"camping@naumburg.eu","contact:facebook":"https://www.facebook.com/CampingNaumburg/","contact:fax":"+49 5625 790950","contact:mobile":"+49 170 4418621","contact:phone":"+49 5625 9239670","contact:webcam":"https://www.camping-in-naumburg.de/","contact:website":"https://camping-in-naumburg.de","contact:youtube":"https://www.youtube.com/watch?v=50ArZqP_sMY","image":"https://www.camping-in-naumburg.de/layout/logo.png","internet_access":"yes","internet_access:fee":"yes","name":"Camping in Naumburg","operator":"Sven und Odette Bettermann","power_supply":"yes","sanitary_dump_station":"yes","source":"https://camping-in-naumburg.de","stars":"4","surface":"grass","tents":"yes","washing_machine":"yes"}},"41987576":{"location":[51.3327928,9.3709868],"ct":"DE","tp":"CS","ts":"2019-08-25T10:10:56Z","tX":538,"tY":341,"tags":{"caravans":"no","group_only":"yes","name":"Jugendzeltplatz","operator":"Zweckverband Naturpark Habichtswald","phone":"+49 160 7014089","tents":"yes"}},"147454089":{"location":[51.2130848,9.2769516],"ct":"DE","tp":"CS","ts":"2023-11-01T08:22:55Z","tX":538,"tY":341,"tags":{"addr:city":"Niedenstein","addr:housenumber":"1","addr:postcode":"34305","addr:street":"Weißenthalsmühle","addr:suburb":"Kirchberg","email":"info@weissenthalsmuehle.com","name":"Campingplatz Weißenthalsmühle","operator":"Lavina van Ewijck","phone":"+49 5624 363","website":"https://www.weissenthalsmuehle.com/"}},"148995080":{"location":[51.2577918,9.3987735],"ct":"DE","tp":"CR","ts":"2022-08-18T20:37:22Z","tX":538,"tY":341,"tags":{"capacity":"16","fee":"yes","name":"Wohnmobilstellplatz am Parkstadion","operator":"Stadt Baunatal","power_supply":"yes","sanitary_dump_station":"yes","website":"http://stadtmarketing-baunatal.de/baunatal/wohnmobilstellplatz.php"}},"187873097":{"location":[51.2912408,9.486938],"ct":"DE","tp":"CR","ts":"2024-07-11T21:07:05Z","tX":538,"tY":341,"tags":{"capacity":"20","caravan_site":"motorhome_stopover","caravan_site:type":"river","caravans":"no","fee":"yes","internet_access":"wlan","internet_access:fee":"yes","motorhome":"designated","name":"Wohnmobilstellplatz Kassel","power_supply":"yes","sanitary_dump_station":"yes","source:position":"HiRes aerial Imagery","website":"https://campingplatz-kassel.de/"}},"192322553":{"location":[51.3668454,9.3152891],"ct":"DE","tp":"CS","ts":"2019-03-10T07:31:03Z","tX":538,"tY":341,"tags":{"addr:city":"Zierenberg","addr:housenumber":"2","addr:postcode":"34289","addr:street":"Im Nordbruch","fee":"yes","name":"Campingplatz \"Zur Warme\"","phone":"+49 5606 3966","website":"https://www.campingplatz-zierenberg.de/"}},"210523382":{"location":[51.3438372,9.3438292],"ct":"DE","tp":"CR","ts":"2019-09-13T19:30:36Z","tX":538,"tY":341,"tags":{"name":"Wohnmobilstellplatz am Kressenborn","parking":"surface"}},"220847054":{"location":[51.2694283,9.2527706],"ct":"DE","tp":"CS","ts":"2024-08-07T13:47:10Z","tX":538,"tY":341,"tags":{"addr:city":"Bad Emstal","addr:housenumber":"21","addr:postcode":"34308","addr:street":"Birkenstraße","addr:suburb":"Balhorn","fax":"+49 5625 7116","internet_access":"wlan","internet_access:fee":"no","name":"Ferienanlage Erzeberg","operator":"Horst & Oliver Kleffel GbR","phone":"+49 5625 5274","website":"https://www.camping-kassel-bad-emstal-ferienhaus-mit-hund-wellness.de/","wheelchair":"yes"}},"220860467":{"location":[51.2484432,9.2498951],"ct":"DE","tp":"CR","ts":"2024-03-24T22:01:58Z","tX":538,"tY":341,"tags":{"capacity":"8","caravan_site":"motorhome_stopover","caravan_site:type":"swimming_pool;town","caravans":"no","fee":"yes","internet_access":"no","name":"Wohnmobil- Stellplatz am Kurpark Bad Emstal","operator":"Gemeinde Bad Emstal","power_supply":"yes","tents":"no"}},"255575788":{"location":[51.2459769,9.3251026],"ct":"DE","tp":"CS","ts":"2024-02-28T16:31:51Z","tX":538,"tY":341,"tags":{"nudism":"yes","operator":"Naturistensportbund Kassel e.V.","website":"https://www.naturistensportbund-kassel.de/"}},"262299316":{"location":[51.3295969,9.1705873],"ct":"DE","tp":"CR","ts":"2024-05-14T15:48:25Z","tX":538,"tY":341,"tags":{"capacity":"48","caravan_site":"motorhome_stopover","caravan_site:type":"town","caravans":"no","charge":"8 EUR","dog":"leashed","fee":"yes","internet_access":"wlan","internet_access:fee":"no","name":"Wohnmobilstellplatz Bruchwiesen","opening_hours":"24/7","operator":"Stadt Wofhagen","power_supply":"yes","sanitary_dump_station":"yes","tents":"no","website":"https://www.wolfhagen.de/kultur-und-tourismus/entdecken-und-verweilen/wohnmobilstellplatz.php"}},"324212636":{"location":[51.3560121,9.3865639],"ct":"DE","tp":"CS","ts":"2024-07-28T18:28:54Z","tX":538,"tY":341,"tags":{"addr:city":"Ahnatal","addr:housenumber":"24","addr:postcode":"34292","addr:street":"Am Bühl","addr:suburb":"Weimar","name":"Campingplatz Bühl","operator":"Campingverein \"Bühl\" e.V.","phone":"+49 5609 9216","website":"https://campingplatz-buehl.de/"}},"419842535":{"location":[51.2911057,9.4871429],"ct":"DE","tp":"SD","ts":"2024-05-13T23:37:50Z","tX":538,"tY":341,"tags":{}},"480339884":{"location":[51.2912264,9.4880024],"ct":"DE","tp":"CS","ts":"2024-05-12T16:35:38Z","tX":538,"tY":341,"tags":{"addr:city":"Kassel","addr:housenumber":"9","addr:postcode":"34121","addr:street":"Giesenallee","capacity":"129","capacity:caravans":"99","capacity:tents":"30","caravans":"yes","contact:email":"info@campingplatz-kassel.de","fee":"yes","motorhome":"no","name":"Campingplatz Kassel","operator":"Kassel Marketing GmbH","phone":"+49 561 7077170","tents":"yes","website":"https://www.campingplatz-kassel.de/"}},"494218538":{"location":[51.212428,9.4487827],"ct":"DE","tp":"CR","ts":"2024-07-29T19:15:32Z","tX":538,"tY":341,"tags":{"addr:city":"Edermünde","addr:place":"Grifte","caravan_site":"motorhome_stopover","caravan_site:type":"village","caravans":"no","description:de":"5 EUR/24 hours","fee":"yes","name":"Wohnmobilstellplatz Grifte","operator":"Gemeinde Edermünde","power_supply":"yes","power_supply:fee":"no","sanitary_dump_station":"yes","sanitary_dump_station:chemical_toilet":"yes","sanitary_dump_station:grey_water":"yes","tents":"no","water_point":"yes","water_point:charge":"1 EUR/100 liter","water_point:conditional":"no@(Nov-Mar)","water_point:fee":"yes","website":"https://edermuende.de/wohnmobilstellplatz/"}},"566346049":{"location":[51.3230221,9.3198684],"ct":"DE","tp":"CR","ts":"2024-04-04T15:05:31Z","tX":538,"tY":341,"tags":{"bbq":"yes","capacity:caravans":"6","caravan_site":"motorhome_stopover","caravan_site:type":"sports_centre;village","description":"Strom nur in der Badesaison am Schwimmbad melden","fee":"no","name":"Grillplatz Erlegrill","object:city":"Habichtswald","object:country":"DE","object:postcode":"34317","object:street":"Hasenbreite","object:suburb":"Ehlen","operator":"Gemeinde Habichtswald Ehlen","power_supply":"yes","surface":"grass","website":"https://www.habichtswald.de/tourismus-kultur/freizeit/wohnmobilstellplaetze/"}},"1238054756":{"location":[51.2448057,9.1415797],"ct":"DE","tp":"CS","ts":"2025-04-03T21:19:47Z","tX":538,"tY":341,"tags":{"backcountry":"yes","capacity:persons":"4","capacity:tents":"2","caravans":"no","dog":"yes","drinking_water":"no","fee":"yes","name":"Trekkingplatz Brederich","openfire":"no","operator":"Naturpark Habichtswald","reservation":"required","tents":"yes","toilets":"yes","website":"https://www.naturpark-habichtswald.de/planen-buchen/uebernachten/trekkingplaetze-hwst-fuer-buchung/trekkingplaetze-nph-vorstellung-und-lage"}},"1287154094":{"location":[51.2857251,9.4247922],"ct":"DE","tp":"SD","ts":"2024-06-16T17:02:23Z","tX":538,"tY":341,"tags":{"access":"permit","building":"toilets","building:levels":"1","sanitary_dump_station:basin":"yes"}},"1306368788":{"location":[51.2496666,9.4920985],"ct":"DE","tp":"CS","ts":"2024-08-08T14:01:17Z","tX":538,"tY":341,"tags":{"addr:city":"Fuldabrück","addr:postcode":"34277","addr:street":"In der Aue","caravans":"yes","dog":"yes","drinking_water":"yes","fee":"yes","name":"Campingplatz Fuldabrück-Dennhausen","phone":"+49 56143887","power_supply":"yes","shower":"yes","static_caravans":"yes","tents":"yes"}},"10298400145":{"location":[51.2552493,9.2636647],"ct":"DE","tp":"CS","ts":"2024-01-08T13:35:04Z","tX":538,"tY":341,"tags":{"backcountry":"yes","capacity:persons":"4","capacity:tents":"2","caravans":"no","dog":"yes","drinking_water":"no","fee":"yes","name":"Trekkingplatz Läuseküppel","openfire":"no","operator":"Naturpark Habichtswald","reservation":"required","tents":"yes","toilets":"yes","website":"https://www.naturpark-habichtswald.de/planen-buchen/uebernachten/trekkingplaetze-hwst-fuer-buchung/trekkingplaetze-nph-vorstellung-und-lage"}},"10799774352":{"location":[51.2937337,9.3682519],"ct":"DE","tp":"CS","ts":"2024-01-08T13:35:04Z","tX":538,"tY":341,"tags":{"backcountry":"yes","capacity:persons":"4","capacity:tents":"2","caravans":"no","dog":"yes","drinking_water":"no","fee":"yes","name":"Trekkingplatz Firnsbachtal","openfire":"no","operator":"Naturpark Habichtswald","reservation":"required","static_caravans":"no","tents":"yes","toilets":"yes","toilets:disposal":"pitlatrine","toilets:number":"1","website":"https://www.naturpark-habichtswald.de/planen-buchen/uebernachten/trekkingplaetze-hwst-fuer-buchung/trekkingplaetze-nph-vorstellung-und-lage"}},"6212780804":{"location":[51.2506714,9.1603459],"ct":"DE","tp":"SD","ts":"2019-01-16T09:26:33Z","tX":538,"tY":341,"tags":{"sanitary_dump_station:grey_water":"yes"}},"6212780805":{"location":[51.250553,9.1597304],"ct":"DE","tp":"SD","ts":"2019-01-16T09:26:33Z","tX":538,"tY":341,"tags":{"access":"customers","sanitary_dump_station:basin":"yes"}},"6212780806":{"location":[51.2500292,9.1565372],"ct":"DE","tp":"SD","ts":"2019-01-16T09:26:33Z","tX":538,"tY":341,"tags":{"access":"customers","sanitary_dump_station:basin":"yes"}},"9956207814":{"location":[51.2575916,9.3986308],"ct":"DE","tp":"SD","ts":"2022-08-18T20:37:22Z","tX":538,"tY":341,"tags":{}},"10855636234":{"location":[51.2910235,9.486921],"ct":"DE","tp":"SD","ts":"2023-04-29T09:15:19Z","tX":538,"tY":341,"tags":{}},"11397545416":{"location":[51.3295939,9.1707233],"ct":"DE","tp":"SD","ts":"2023-12-06T09:31:12Z","tX":538,"tY":341,"tags":{"access":"yes","charge":"1 EUR / 80 Ltr.","fee":"yes","operator":"Stadt Wolfhagen","payment:cash":"yes","water_point":"yes"}},"12875397951":{"location":[51.1928724,9.4889809],"ct":"DE","tp":"CS","ts":"2025-05-30T13:55:12Z","tX":538,"tY":341,"tags":{"description":"Weidenäckerhof"}}}