{"3361435":{"location":[50.9951169,9.2691095],"ct":"DE","tp":"CS","ts":"2019-08-29T05:42:39Z","tX":538,"tY":342,"tags":{"access":"customers","addr:city":"Neuental","addr:housenumber":"14","addr:postcode":"34599","addr:street":"Seeblick","fee":"yes","internet_access":"wlan","internet_access:fee":"yes","name":"Neuenhainer See","operator":"Gemeinde Neuental","payment:cash":"yes","payment:debit_cards":"yes","phone":"+49 6693 1287","power_supply":"yes","reservation":"yes","sanitary_dump_station":"yes","website":"https://neuenhainer-see.de/"}},"9759941":{"location":[51.0472463,9.1901397],"ct":"DE","tp":"CS","ts":"2023-06-17T16:45:09Z","tX":538,"tY":342,"tags":{"addr:city":"Bad Zwesten","addr:housenumber":"1","addr:postcode":"34596","addr:street":"Am Campingplatz","cabins":"yes","caravans":"yes","drinking_water":"yes","email":"Info@waldcamping.de","name":"Waldcamping Bad Zwesten","opening_hours":"Apr 1- Oct 31","operator":"Camping Club Kassel e. V.","phone":"+49 5626 379","power_supply":"yes","sanitary_dump_station":"yes","swimming_pool":"yes","tents":"yes","toilets":"yes","washing_machine":"yes","website":"https://www.waldcamping.de/","wheelchair":"yes"}},"104673520":{"location":[51.1509808,9.3913645],"ct":"DE","tp":"CS","ts":"2017-04-29T09:16:29Z","tX":538,"tY":342,"tags":{"name":"Forstmühle","website":"http://www.forstmuehle-felsberg.de"}},"125870453":{"location":[51.1283814,9.2160564],"ct":"DE","tp":"CS","ts":"2016-11-05T19:55:49Z","tX":538,"tY":342,"tags":{"name":"Campingplatz Ederblick","website":"http://www.campingplatz-ederblick-decher.de"}},"158383793":{"location":[50.9762267,9.3390453],"ct":"DE","tp":"CS","ts":"2019-05-27T12:23:28Z","tX":538,"tY":342,"tags":{"name":"Wildniscamp"}},"161842804":{"location":[51.1776754,9.4773236],"ct":"DE","tp":"CS","ts":"2022-07-20T14:10:39Z","tX":538,"tY":342,"tags":{"addr:city":"Guxhagen","addr:housenumber":"6","addr:postcode":"34302","addr:street":"Zum Bruch","addr:suburb":"Büchenwerra","caravans":"yes","email":"info@fuldaschleife.de","fax":"+49 5665 961043","internet_access":"wlan","name":"Camping Fuldaschleife","opening_hours":"Mar-Oct 07:00-13:00,15:00-22:00","operator":"Michael Schlag","phone":"+49 5665 961044;+49 5665 2771","source":"http://www.guxhagen.de/tourismus/campingplatz/index.html;http://www.guxhagen.de/tourismus/uebernachtung/index.html","website":"https://www.fuldaschleife.de/","wheelchair":"yes"}},"199388853":{"location":[50.970096,9.3153369],"ct":"DE","tp":"CS","ts":"2023-08-02T10:20:21Z","tX":538,"tY":342,"tags":{"addr:city":"Frielendorf","addr:housenumber":"14","addr:postcode":"34621","addr:street":"Stettiner Straße","camp_site":"deluxe","caravans":"yes","designation":"Dauercamperkolonie;Besucher willkommen","dog":"yes","drinking_water":"yes","fee":"yes","internet_access":"wlan","lit":"yes","motor_vehicle":"yes","name":"Campingplatz Frielendorf","phone":"+49 5684 922856","power_supply":"yes","reservation":"required","shower":"yes","source":"visit","swimming_pool":"yes","tents":"yes","toilets":"yes","washing_machine":"yes","website":"http://www.camping-frielendorf.de"}},"237586127":{"location":[51.0584556,9.1763412],"ct":"DE","tp":"CR","ts":"2024-07-29T06:18:46Z","tX":538,"tY":342,"tags":{"access":"yes","capacity":"8","caravan_site":"motorhome_stopover","caravan_site:type":"swimming_pool","charge":"6 EUR","fee":"yes","internet_access":"no","maxstay":"3 days","name":"Wohnmobilhafen Bad Zwesten","operator":"Gemeinde Bad Zwesten","power_supply":"yes","power_supply:charge":"1 EUR/kWh","power_supply:fee":"yes","reservation":"no","sanitary_dump_station":"yes","toilets":"no","water_point":"yes","water_point:charge":"1 EUR/100 liter","water_point:fee":"yes","website":"https://www.badzwesten.de/tourismus/camping/","wheelchair":"yes"}},"255091508":{"location":[50.9842678,9.3472956],"ct":"DE","tp":"CR","ts":"2024-08-20T14:45:37Z","tX":538,"tY":342,"tags":{"capacity":"40","charge":"15€ (Stand 08/2024)","fee":"yes","name":"Wohnmobilpark am Silbersee","note":"Gebühr beinhaltet Frischwasser Kurtaxe Entsorgung Toilette und Grauwasser","opening_hours":"Apr 01-Oct 31","operator":"Familie Althaus","power_supply":"yes","sanitary_dump_station":"customers","water_point":"yes","website":"https://www.wohnmobilpark-silbersee.de/"}},"259341021":{"location":[51.027689,9.4147858],"ct":"DE","tp":"CR","ts":"2024-12-28T17:17:08Z","tX":538,"tY":342,"tags":{"capacity":"9","caravan_site":"motorhome_stopover","caravan_site:type":"town","fee":"no","name":"Wohnmobilstellplatz Homberg (Efze)","power_supply":"yes","power_supply:fee":"no","sanitary_dump_station:chemical_toilet":"yes","seasonal":"no","tents":"no","water_point":"yes","water_point:fee":"yes"}},"291311331":{"location":[50.995997,9.2670595],"ct":"DE","tp":"CR","ts":"2019-08-29T06:42:07Z","tX":538,"tY":342,"tags":{"addr:city":"Neuental","addr:housenumber":"14","addr:postcode":"34599","addr:street":"Seeblick","fee":"yes","name":"Neuenhainer See","operator":"Erholungszentrum Neuental  - Neuenhainer See","payment:cash":"yes","payment:debit_cards":"yes","power_supply":"yes"}},"291311333":{"location":[51.0445818,9.2739514],"ct":"DE","tp":"CR","ts":"2022-10-02T07:55:07Z","tX":538,"tY":342,"tags":{"capacity":"2","contact:email":"CarinaKessler@borken-hessen.de","contact:phone":"+49 5682 808-271","fee":"no","name":"Wohnmobilstellplatz am Borkener See","operator":"Stadt Borken (Hessen)","power_supply":"no","sanitary_dump_station":"no","tents":"no","water_point":"no","website":"https://www.borken-hessen.de/freizeit-tourismus/freizeit-und-sport/wohnmobilstellplaetze/wohnmobilstellplatz-borkener-see/"}},"331285546":{"location":[51.1320258,9.4181435],"ct":"DE","tp":"CS","ts":"2023-10-26T17:34:25Z","tX":538,"tY":342,"tags":{"addr:city":"Felsberg","addr:housenumber":"29","addr:postcode":"34587","addr:street":"Untere Birkenallee","caravans":"yes","charge":"485 €/a","email":"stadtverwaltung@felsberg.de","fee":"yes","name":"Campingplatz am Freibad","opening_hours":"24/7","operator":"Stadt Felsberg","payment:automat":"yes","permanent_camping":"yes","phone":"+49 5662 502-19","sanitary_dump_station":"yes","source":"https://www.felsberg.de/Kultur-und-Freizeit/Tourismusangebote/Campingplaetze-1.htm","tents":"yes","website":"https://www.felsberg.de/Kultur-und-Freizeit/Tourismusangebote/Campingplaetze-1.htm"}},"554508938":{"location":[51.0584646,9.1760003],"ct":"DE","tp":"SD","ts":"2024-03-07T17:22:24Z","tX":538,"tY":342,"tags":{"fee":"yes","operator":"Gemeinde Bad Zwesten"}},"1218585304":{"location":[51.132317,9.4184158],"ct":"DE","tp":"CR","ts":"2023-11-10T10:58:52Z","tX":538,"tY":342,"tags":{"addr:city":"Felsberg","addr:housenumber":"29","addr:postcode":"34587","addr:street":"Untere Birkenallee","capacity":"6","capacity:caravans":"6","caravans":"yes","charge":"8 EUR/24 hours","email":"stadtverwaltung@felsberg.de","fee":"yes","name":"Campingplatz am Freibad","opening_hours":"24/7","operator":"Stadt Felsberg","payment:automat":"yes","permanent_camping":"no","phone":"+49 5662 502-19","phone:conditional":"+49 5662 9392880 @ Summer","power_supply":"yes","sanitary_dump_station":"yes","source":"https://www.felsberg.de/Kultur-und-Freizeit/Tourismusangebote/Campingplaetze-1.htm","tents":"no","website":"https://www.felsberg.de/Kultur-und-Freizeit/Tourismusangebote/Campingplaetze-1.htm"}},"1316851046":{"location":[51.1311495,9.4616869],"ct":"DE","tp":"CR","ts":"2024-12-28T16:53:21Z","tX":538,"tY":342,"tags":{"capacity":"6","caravan_site":"motorhome_stopover","caravan_site:type":"restaurant","charge":"13.50 EUR","fee":"yes","name":"Wohnmobilstellplatz Burghotel Heiligenberg","power_supply":"yes","sanitary_dump_station":"yes","seasonal":"no","surface":"grass_paver","water_point":"yes","water_point:charge":"0.10 EUR/10 liter","website":"http://www.burghotel-heiligenberg.de/"}},"3651031861":{"location":[51.1241637,9.2650651],"ct":"DE","tp":"CR","ts":"2022-10-07T05:56:55Z","tX":538,"tY":342,"tags":{"description:de":"geöffnet 1. März bis 31. Oktober. 7 € pro Nacht (Stand 07-2020)","fee":"yes","internet_access":"no","name":"Wohnmobilstellplatz Ederaue","toilets":"no","website":"https://www.fritzlar.de/smap---1825--default-.html","wheelchair":"yes"}},"4061326736":{"location":[51.1312556,9.269169],"ct":"DE","tp":"CR","ts":"2021-07-25T20:09:33Z","tX":538,"tY":342,"tags":{"capacity":"10","description:de":"Gebühr 7 € / 24 Stunden.","fee":"yes","internet_access":"no","name":"Wohnmobilstellplatz - Am Grauen Turm","power_supply":"yes","sanitary_dump_station":"yes","water_point":"yes","website":"https://www.fritzlar.de/smap---1825--default-.html","wheelchair":"yes"}},"4190396609":{"location":[51.0669468,9.2447022],"ct":"DE","tp":"CR","ts":"2023-01-21T17:43:12Z","tX":538,"tY":342,"tags":{"capacity":"3","contact:email":"CarinaKessler@borken-hessen.de","contact:phone":"+49 5682 808-271","fee":"yes","name":"Wohnmobilstellplatz am Naturbadesee Stockelache","operator":"Stadt Borken (Hessen)","power_supply":"no","sanitary_dump_station":"no","tents":"no","water_point":"no","website":"https://www.borken-hessen.de/freizeit-tourismus/freizeit-und-sport/wohnmobilstellplaetze/wohnmobilstellplatz-borkener-see/"}},"4305965922":{"location":[51.1306757,9.432044],"ct":"DE","tp":"CS","ts":"2016-07-16T13:36:55Z","tX":538,"tY":342,"tags":{"fee":"yes","name":"Kanu Raststation Felsberg","operator":"Gasthaus zum Schwane, Familie Hilgenberg"}},"10068119921":{"location":[51.0555154,9.3111391],"ct":"DE","tp":"CR","ts":"2023-01-21T17:13:38Z","tX":538,"tY":342,"tags":{"capacity":"12","contact:email":"CarinaKessler@borken-hessen.de","contact:phone":"+49 5682 808-271","fee":"yes","name":"Wohnmobilstellplatz am Singliser See","operator":"Stadt Borken (Hessen)","power_supply":"no","sanitary_dump_station":"yes","tents":"no","water_point":"yes","website":"https://www.borken-hessen.de/freizeit-tourismus/freizeit-und-sport/wohnmobilstellplaetze/wohnmobilstellplatz-singliser-see/"}},"8946095749":{"location":[51.1315736,9.2689267],"ct":"DE","tp":"SD","ts":"2021-07-24T07:49:14Z","tX":538,"tY":342,"tags":{"access":"customers","water_point":"yes"}},"9903782795":{"location":[51.0470887,9.1903958],"ct":"DE","tp":"SD","ts":"2022-07-22T11:36:52Z","tX":538,"tY":342,"tags":{"sanitary_dump_station":"chemical_toilets"}},"12125229293":{"location":[50.9839366,9.3465845],"ct":"DE","tp":"SD","ts":"2024-08-21T19:10:03Z","tX":538,"tY":342,"tags":{}}}