{"38085100":{"location":[49.7260166,9.2179676],"ct":"DE","tp":"CS","ts":"2023-08-30T18:55:07Z","tX":538,"tY":348,"tags":{"addr:city":"Großheubach","addr:housenumber":"16","addr:postcode":"63920","addr:street":"Mainstraße","cabins":"no","caravans":"yes","dog":"yes","drinking_water":"yes","email":"mail@camping-am-leinritt.de","name":"Camping am Leinritt","operator":"Thomas Mühling","permanent_camping":"yes","phone":"+49 151 640 56 886","shower":"yes","tents":"yes","toilets":"yes","website":"https://camping-am-leinritt.de"}},"55385522":{"location":[49.7628254,9.3186524],"ct":"DE","tp":"CS","ts":"2024-09-15T09:50:36Z","tX":538,"tY":348,"tags":{"addr:city":"Freudenberg","addr:housenumber":"8","addr:postcode":"97896","addr:street":"Mühlgrundweg","caravans":"yes","dog":"yes","drinking_water":"yes","email":"info@seecamping-freudenberg.de","fee":"yes","name":"Campingplatz Freudenberg","permanent_camping":"yes","phone":"+49 9375 8389","power_supply":"yes","sanitary_dump_station":"yes","shower":"yes","tents":"yes","toilets":"yes","washing_machine":"yes","website":"http://www.seecamping-freudenberg.de/Seecamping-Freudenberg/frame_seecamping-freudenberg.html","wheelchair":"yes"}},"87756902":{"location":[49.7753864,9.3841472],"ct":"DE","tp":"CR","ts":"2025-01-06T00:32:51Z","tX":538,"tY":348,"tags":{"capacity":"15","caravan_site":"motorhome_stopover","caravan_site:type":"river","fee":"no","name":"Wohnmobilstellplatz Festhalle Dorfprozelten","power_supply":"no","sanitary_dump_station":"no","toilets":"yes","water_point":"no","website":"https://willkommen.spessart-mainland.de/de/spessart-mainland/streaming/detail/Hotel/h_44095/wohnmobilstellplatz-dorfprozelten"}},"88029616":{"location":[49.7839001,9.4119658],"ct":"DE","tp":"CS","ts":"2023-11-11T04:18:09Z","tX":538,"tY":348,"tags":{"addr:city":"Stadtprozelten","addr:country":"DE","addr:housenumber":"1","addr:postcode":"97909","addr:street":"Am Mainufer","caravans":"yes","email":"info@boote-hock.com","name":"Campingplatz Hock","operator":"Camping + Bootsmarina Hock","phone":"+49 9392 7866","source":"Bing Aerial Maps","tents":"yes","website":"https://www.boote-hock.com/index.php/campingpage"}},"106444767":{"location":[49.6968294,9.3397378],"ct":"DE","tp":"CS","ts":"2023-04-13T19:00:23Z","tX":538,"tY":348,"tags":{"addr:city":"Eichenbühl","addr:housenumber":"1","addr:postcode":"63928","addr:street":"In den Rittern","caravans":"yes","contact:mobile":"+49 170 116 0276","dog":"yes","fee":"yes","name":"Erftal - Camping","operator":"Familie Hofmann","permanent_camping":"yes","tents":"yes","website":"https://www.erftal-camping.com"}},"149220715":{"location":[49.6353261,9.2118668],"ct":"DE","tp":"CS","ts":"2023-11-11T05:44:09Z","tX":538,"tY":348,"tags":{"caravans":"yes","fee":"yes","name":"Trailer Campingplatz","static_caravans":"yes","tents":"yes","website":"https://trailer-campingplatz.de/"}},"203389228":{"location":[49.7998161,9.2581176],"ct":"DE","tp":"CS","ts":"2021-03-22T21:07:53Z","tX":538,"tY":348,"tags":{"caravans":"no","group_only":"yes","name":"Jugendzeltplatz des Kreis Miltenberg","tents":"yes"}},"204924618":{"location":[49.7130034,9.2637539],"ct":"DE","tp":"CR","ts":"2024-12-29T20:36:12Z","tX":538,"tY":348,"tags":{"alt_name":"Winzerfestplatz","capacity":"25","caravan_site":"motorhome_stopover","caravan_site:type":"river","charge":"6 EUR","contact:phone":"+49 9371 9738-0","dog":"leashed","fee":"yes","maxstay":"6 days","name":"Wohnmobilstellplatz Bürgstadt","opening_hours":"24/7","power_supply":"yes","power_supply:charge":"1 EUR/6 hours","power_supply:fee":"yes","reservation":"no","sanitary_dump_station":"yes","surface":"asphalt","toilets":"no","water_point":"yes","water_point:charge":"1 EUR/40 liter","water_point:fee":"yes","website":"https://www.buergstadt.de/gemeinde/gemeindliche-einrichtungen/wohnmobilstellplatz/"}},"255518803":{"location":[49.8125229,9.4411925],"ct":"DE","tp":"CS","ts":"2020-01-03T18:42:49Z","tX":538,"tY":348,"tags":{"caravans":"no","group_only":"yes","name":"Jugendzeltplatz Breitenbrunn","power_supply":"no","shower":"yes","tents":"yes","toilets":"yes","website":"http://fvvb.info/Zeltplatz.html"}},"307020191":{"location":[49.7026354,9.2526261],"ct":"DE","tp":"CS","ts":"2024-12-07T12:22:19Z","tX":538,"tY":348,"tags":{"addr:city":"Miltenberg","addr:housenumber":"1","addr:postcode":"63897","addr:street":"Josef-Wirth-Straße","caravans":"yes","check_in":"15:00","check_out":"12:00","email":"info@campingplatz-miltenberg.de","name":"MainCamping Miltenberg","operator":"Peter Ullrich","phone":"+49 9371 3985","phone:alternative":"+49 9352 600239","tents":"yes","toilets":"yes","website":"https://www.campingplatz-miltenberg.de/"}},"345909933":{"location":[49.7895049,9.2634599],"ct":"DE","tp":"CS","ts":"2023-02-22T03:42:17Z","tX":538,"tY":348,"tags":{"addr:city":"Mönchberg","addr:housenumber":"2","addr:postcode":"63933","addr:street":"Campingstraße","cabins":"yes","caravans":"yes","dog":"yes","landuse":"residential","name":"Campingplatz Heiter","phone":"+49 9374 1330","shower":"yes","tents":"yes","toilets":"yes","website":"https://campingplatz-moenchberg.jimdofree.com/"}},"363551437":{"location":[49.7884641,9.1725592],"ct":"DE","tp":"CS","ts":"2024-10-06T08:10:18Z","tX":538,"tY":348,"tags":{"addr:city":"Wörth am Main","addr:housenumber":"85","addr:postcode":"63939","addr:street":"Landstraße","caravans":"yes","dryer":"yes","email":"info@campingplatzmainruh.de","fax":"+49 9372 949684","name":"Campingplatz Mainruh","opening_hours":"Apr 1-Oct 31","phone":"+49 9372 73359","power_supply":"yes","tents":"yes","washing_machine":"yes","website":"https://campingplatzmainruh.de","wheelchair":"limited"}},"363551439":{"location":[49.7936624,9.1656349],"ct":"DE","tp":"CS","ts":"2023-04-10T17:37:35Z","tX":538,"tY":348,"tags":{"addr:city":"Wörth am Main","addr:housenumber":"3","addr:postcode":"63939","addr:street":"Wiesenweg","caravans":"yes","email":"info@campingplatz-mainaue.de","mobile":"+49 172 6876149","motorhome":"yes","name":"Campingplatz Mainaue","phone":"+49 9372 5165","shower":"yes","tents":"yes","toilets":"yes","website":"https://www.campingplatz-mainaue.de/"}},"368050137":{"location":[49.7255832,9.2154936],"ct":"DE","tp":"CS","ts":"2023-09-20T19:31:49Z","tX":538,"tY":348,"tags":{"addr:city":"Kleinheubach","addr:postcode":"63924","addr:street":"An den Engern","bottle":"yes","caravan":"yes","caravans":"yes","drinking_water":"yes","email":"camping_wsg_kleinheubach@yahoo.de","fee":"yes","name":"Campingplatz des WSG Kleinheubach","payment:cash":"yes","phone":"+49 152 04491202","power_supply":"yes","shower":"hot","tents":"yes","website":"https://wsgkleinheubach.de/campingplatz.htm","wheelchair":"limited"}},"368790865":{"location":[49.7654248,9.1785407],"ct":"DE","tp":"CS","ts":"2024-10-05T19:31:06Z","tX":538,"tY":348,"tags":{"addr:city":"Klingenberg am Main","addr:country":"DE","addr:housenumber":"3","addr:postcode":"63911","addr:street":"Am Campingplatz","addr:suburb":"Trennfurt","caravans":"yes","contact:email":"m.denger@gmx.de","contact:fax":"+49 9372 408324","contact:mobile":"+49 175 8537848","dog":"yes","dryer":"yes","name":"Aqua Camping","power_supply":"yes","tents":"yes","washing_machine":"yes","website":"www.aqua-campingplatz.de","wheelchair":"limited"}},"374165335":{"location":[49.7854823,9.1771702],"ct":"DE","tp":"CR","ts":"2024-12-30T10:46:47Z","tX":538,"tY":348,"tags":{"capacity":"55","caravan_site":"motorhome_stopover","caravan_site:type":"river","caravans":"no","charge":"12 EUR","contact:email":"info@mainbergblick.de","contact:mobile":"+49 15678 600100","contact:website":"https://www.mainbergblick.de/","fee":"yes","internet_access":"wlan","name":"Main.Berg.Blick","object:city":"Klingenberg am Main","object:housenumber":"1","object:postcode":"63911","object:street":"Zur Einladung","opening_hours":"Apr-Oct: open","operator":"D. Herzing & B. Zoll","payment:cash":"yes","payment:debit_cards":"yes","power_supply":"yes","sanitary_dump_station":"yes","sanitary_dump_station:chemical_toilet":"yes","sanitary_dump_station:fee":"no","sanitary_dump_station:grey_water":"yes","water_point":"yes","water_point:charge":"1 EUR/80 liter","wheelchair":"yes"}},"733416944":{"location":[49.740098,9.3190343],"ct":"DE","tp":"CR","ts":"2024-06-15T00:32:25Z","tX":538,"tY":348,"tags":{"capacity":"10","caravan_site":"motorhome_stopover","caravan_site:type":"river","charge":"6 EUR","check_out":"15:00","fee":"yes","internet_access":"wlan","name":"Wohnmobilstellplatz Freudenberg am Main","phone":"+49 170 9176459","power_supply":"yes","sanitary_dump_station":"yes","water_point":"yes","website":"https://www.freudenberg-main.de/de/tourismus-freizeit/gastronomie-unterkuenfte/wohnmobilstellplatz","wikimedia_commons":"Category:Wohnmobilstellplatz Freudenberg (Baden)"}},"740982665":{"location":[49.7082953,9.2611001],"ct":"DE","tp":"PK","ts":"2024-12-29T20:36:12Z","tX":538,"tY":348,"tags":{"access":"yes","capacity":"20","fee":"yes","lit":"yes","maxlength":"7.5","maxstay":"48 hours","motorhome":"yes","name":"Martinsbrücke","opening_hours":"24/7","operator":"EMB Energieversorgung","parking":"surface","supervised":"no","surface":"pebblestone","website":"https://miltenberg.info/camping-wohnmobilstellplaetze/"}},"932027956":{"location":[49.7256026,9.2201061],"ct":"DE","tp":"CR","ts":"2025-01-06T22:58:41Z","tX":538,"tY":348,"tags":{"addr:city":"Großheubach","addr:housenumber":"1","addr:postcode":"63920","addr:street":"Kirchstraße","capacity":"20","caravan_site":"motorhome_stopover","caravan_site:type":"winery","charge":"20 EUR","email":"weinbretzel@t-online.de","fee":"yes","internet_access":"no","name":"Reisemobilstellplatz - Weingut-Gasthaus \"Zur Bretzel\"","phone":"+49 9371 2824","power_supply":"yes","sanitary_dump_station":"yes","seasonal":"no","shower":"yes","surface":"grass","toilets":"yes","website":"https://weingut-bretzel.de/wohnmobile.htm"}},"954021485":{"location":[49.7016933,9.2427169],"ct":"DE","tp":"CR","ts":"2024-12-05T23:11:00Z","tX":538,"tY":348,"tags":{"capacity":"20","caravan_site":"motorhome_stopover","caravan_site:type":"river","fee":"no","maxstay":"3 days","name":"Wohnmobilstellplatz am Schwertfegertor","name:signed":"no","power_supply":"no","sanitary_dump_station":"no","tents":"no","water_point":"yes","website":"https://miltenberg.info/camping-wohnmobilstellplaetze/"}},"979828225":{"location":[49.7043953,9.2554478],"ct":"DE","tp":"CR","ts":"2024-12-05T22:30:52Z","tX":538,"tY":348,"tags":{"capacity":"10","caravan_site":"motorhome_stopover","caravan_site:type":"river","dog":"yes","fee":"no","loc_name":"Wohnmobilstellplatz am Yachthafen","maxstay":"3 days","name":"Wohnmobilstellplatz Yachthafen Miltenberg","name:signed":"no","opening_hours":"24/7","operator":"Stadt Miltenberg","power_supply":"no","sanitary_dump_station":"no","surface":"gravel","water_point":"no","website":"https://miltenberg.info/camping-wohnmobilstellplaetze/"}},"1134200550":{"location":[49.7693177,9.3420738],"ct":"DE","tp":"CS","ts":"2023-01-22T06:18:45Z","tX":538,"tY":348,"tags":{"caravans":"yes","email":"iinfo@maintalresort.de","name":"Maintal Resort","phone":"+49 9376 1270","tents":"yes","website":"https://maintalresort.de/"}},"1349106314":{"location":[49.8292047,9.2058127],"ct":"DE","tp":"CR","ts":"2025-01-06T22:28:17Z","tX":538,"tY":348,"tags":{"capacity":"16","caravan_site":"motorhome_stopover","caravan_site:type":"winery","charge":"15 EUR","contact:phone":"+49 6022 5083877","email":"Info@Schalkhaus.de","fee":"yes","name":"Schalkhaus","phone":"+49 6022 5083877","power_supply":"yes","sanitary_dump_station":"yes","sanitary_dump_station:fee":"no","water_point":"yes","water_point:fee":"no","website":"https://schalkhaus.de/wohnmobil/"}},"1903636373":{"location":[49.7602984,9.1800743],"ct":"DE","tp":"CS","ts":"2023-04-10T17:37:35Z","tX":538,"tY":348,"tags":{"addr:city":"Klingenberg am Main","addr:housenumber":"24","addr:postcode":"63911","addr:street":"Ringstraße","addr:suburb":"Röllfeld","caravans":"yes","dog":"yes","dryer":"yes","email":"hallo@campingplatz-mainwiese.de","fax":"+49 9372 947648","fee":"yes","mobile":"+49 171 2089835","name":"Campingplatz Mainwiese","phone":"+49 9372 947601","power_supply":"yes","shower":"yes","tents":"yes","toilets":"yes","washing_machine":"yes","website":"http://www.campingplatz-mainwiese.de"}},"3719654995":{"location":[49.712344,9.2642967],"ct":"DE","tp":"SD","ts":"2021-08-30T17:04:25Z","tX":538,"tY":348,"tags":{"sanitary_dump_station:chemical_toilet":"yes","sanitary_dump_station:grey_water":"yes"}},"4278575391":{"location":[49.7702707,9.3221553],"ct":"DE","tp":"CR","ts":"2019-10-14T19:09:04Z","tX":538,"tY":348,"tags":{"capacity":"3","fee":"no","name":"Wohnmobilstellplatz Collenberg","operator":"Gemeinde Collenberg","power_supply":"no","sanitary_dump_station":"no","water_point":"no"}},"8536918315":{"location":[49.8362933,9.1476464],"ct":"DE","tp":"CR","ts":"2025-01-06T00:21:31Z","tX":538,"tY":348,"tags":{"addr:city":"Obernburg am Main","addr:postcode":"63785","addr:street":"Ziegelhüttenweg","capacity":"8","caravan_site:type":"parking_lot;river","description":"Wohnmobil-Stellplatz Obernburg","fee":"no","name":"Festplatz Obernburg","power_supply":"no","sanitary_dump_station":"no","water_point":"no"}},"8610738945":{"location":[49.8293365,9.2056699],"ct":"DE","tp":"CR","ts":"2021-09-14T07:05:08Z","tX":538,"tY":348,"tags":{"capacity":"16","contact:phone":"+49 6022 5083877","fee":"yes","name":"Schalkhaus","power_supply":"yes","sanitary_dump_station":"yes","water_point":"yes","website":"https://schalkhaus.de/wohnmobil/"}},"9243910850":{"location":[49.7933756,9.1656822],"ct":"DE","tp":"CR","ts":"2021-11-11T16:14:55Z","tX":538,"tY":348,"tags":{"emergency":"fire_hydrant"}},"9575576140":{"location":[49.7051843,9.2585067],"ct":"DE","tp":"PK","ts":"2024-12-21T13:26:03Z","tX":538,"tY":348,"tags":{"capacity":"20","loc_name":"Wohnmobilstellplatz am Schwimmbad","motorhome":"yes","motorhome:overnight":"no","name:signed":"no","opening_hours":"Mo-Su 17:00-10:00","parking":"surface","power_supply":"no","sanitary_dump_station":"no","surface":"asphalt","tents":"no","website":"https://miltenberg.info/camping-wohnmobilstellplaetze/"}},"4340142724":{"location":[49.7845525,9.1774962],"ct":"DE","tp":"SD","ts":"2016-08-08T13:23:11Z","tX":538,"tY":348,"tags":{}},"4341072067":{"location":[49.7845672,9.177463],"ct":"DE","tp":"SD","ts":"2024-10-06T17:46:48Z","tX":538,"tY":348,"tags":{"fee":"yes"}},"9297282881":{"location":[49.7398551,9.3188809],"ct":"DE","tp":"SD","ts":"2021-11-30T18:31:11Z","tX":538,"tY":348,"tags":{}},"12461742358":{"location":[49.6469349,9.2211691],"ct":"DE","tp":"CR","ts":"2024-12-30T10:46:20Z","tX":538,"tY":348,"tags":{"capacity":"5","caravan_site":"motorhome_stopover","caravan_site:type":"parking_lot","fee":"no","name":"Wohnmobilstellplatz Altstadt Amorbach","power_supply":"no","sanitary_dump_station":"no","water_point":"no","website":"https://www.bayerischer-odenwald.de/detail/id=5f802a4cd73b167b76cefea4"}}}