{"4216646":{"location":[49.6060304,9.1583598],"ct":"DE","tp":"CS","ts":"2019-05-25T16:38:17Z","tX":538,"tY":349,"tags":{"addr:city":"Kirchzell","addr:country":"DE","addr:housenumber":"1","addr:postcode":"63931","addr:street":"Am Campingplatz","caravans":"yes","email":"info@campingpark-kirchzell.de","name":"Campingpark Kirchzell","phone":"+499373566","tents":"yes","website":"https://www.campingpark-kirchzell.de/"}},"14023485":{"location":[49.4573408,9.1774639],"ct":"DE","tp":"CS","ts":"2024-09-01T17:41:55Z","tX":538,"tY":349,"tags":{"addr:city":"Limbach","addr:housenumber":"1","addr:postcode":"74838","addr:street":"Alte Mühle","caravans":"yes","fee":"yes","internet_access":"wlan","name":"Odenwald Camping","operator":"Odenwald Camping Bialecki GmbH","permanent_camping":"yes","power_supply":"yes","sanitary_dump_station":"yes","tents":"yes","website":"https://www.odenwald-camping.de/","wheelchair":"limited","wikidata":"Q107529427"}},"62091858":{"location":[49.5288929,9.3098047],"ct":"DE","tp":"CR","ts":"2024-12-29T21:53:03Z","tX":538,"tY":349,"tags":{"capacity":"12","caravan_site":"motorhome_stopover","caravan_site:type":"town","charge":"10 EUR","fee":"yes","name":"Wohnmobilhafen Morretal","power_supply":"yes","power_supply:charge":"1 EUR/ KWh","water_point":"yes","water_point:charge":"0.10 EUR/10 liter","water_point:fee":"yes","website":"https://www.morretal.de","wheelchair":"yes","wikidata":"Q114805637"}},"171353125":{"location":[49.4833538,9.3052801],"ct":"DE","tp":"CS","ts":"2021-01-12T13:04:07Z","tX":538,"tY":349,"tags":{"addr:city":"Buchen (Odenwald)","addr:housenumber":"40","addr:postcode":"74722","addr:street":"Am Römer","capacity":"45","caravans":"no","description":"Einrichtung mit Übernachtungsmöglichkeit für Jugendfreizeiten und Schulklassen bis 45 Personen.","fee":"yes","fireplace":"yes","group_only":"yes","internet_access":"no","name":"Jugenderholungsanlage Eckbuckel","operator":"Verkehrsamt Buchen","power_supply":"yes","tents":"yes","website":"https://www.buchen.de/tourismus/uebernachtungen/167-jugenderholungsanlage-eckbuckel.html"}},"182613112":{"location":[49.5081365,9.2761601],"ct":"DE","tp":"CS","ts":"2019-08-25T10:10:56Z","tX":538,"tY":349,"tags":{"caravans":"no","group_only":"yes","landuse":"residential","name":"Jugenderholungsanlage Hollerhaus","operator":"Evangelisches Jugendwerk Neuenstadt","phone":"+49 6264 7100","tents":"yes","website":"http://www.hollerhaus.de"}},"198023145":{"location":[49.6023408,9.4709742],"ct":"DE","tp":"CR","ts":"2024-12-30T10:46:47Z","tX":538,"tY":349,"tags":{"capacity":"12","caravan_site":"motorhome_stopover","caravan_site:type":"village","description":"Ganzjährig mit Stromsäulen - kostenlos","maxstay":"8 days","name":"Wohnmobil Stellplatz am alten Bahnhof Hardheim","power_supply":"yes","power_supply:charge":"0.50 EUR/KWh","power_supply:fee":"yes","sanitary_dump_station":"yes","sanitary_dump_station:fee":"no","socket:cee_blue":"yes","water_point":"yes","water_point:charge":"1 EUR","water_point:fee":"yes","website":"https://www.bergstrasse-odenwald.de/detail/id=5f803be0d73b167b76ceff78"}},"313186061":{"location":[49.3936952,9.255406],"ct":"DE","tp":"CR","ts":"2019-02-26T18:10:05Z","tX":538,"tY":349,"tags":{"name":"MSC Schefflenz","wheelchair":"limited"}},"669604056":{"location":[49.5945893,9.2501545],"ct":"DE","tp":"CS","ts":"2021-01-30T00:53:44Z","tX":538,"tY":349,"tags":{"caravans":"no","fee":"yes","group_only":"yes","name":"Jugendzeltplatz Zittenfelden","openfire":"yes","operator":"Gemeinde Schneeberg","reservation":"required","scout":"yes","tents":"yes","website":"https://www.schneeberg-odenwald.de/index.asp?NAVIID={A0643B52-921E-4386-8CB5-3E769D483826}"}},"669604211":{"location":[49.5894451,9.3074661],"ct":"DE","tp":"CS","ts":"2021-01-30T00:53:44Z","tX":538,"tY":349,"tags":{"caravans":"no","drinking_water":"yes","fee":"yes","group_only":"yes","name":"Jugendzeltplatz Im Hornbacher Tal","openfire":"yes","operator":"Stadt Walldürn","reservation":"required","scout":"yes","tents":"yes"}},"719715303":{"location":[49.4300331,9.4303097],"ct":"DE","tp":"CR","ts":"2024-12-30T10:46:47Z","tX":538,"tY":349,"tags":{"addr:city":"Osterburken","addr:housenumber":"2","addr:postcode":"74706","addr:street":"Am Kirchberg","capacity":"5","caravan_site":"motorhome_stopover","caravan_site:type":"town","dog":"yes","fee":"no","lit":"yes","name":"Wohnmobilstellplatz \"Am Kirchberg\" Osterburken","opening_hours":"24/7","operator":"Stadt Osterburken","power_supply":"yes","sanitary_dump_station":"yes","sanitary_dump_station:fee":"no","surface":"asphalt","water_point":"yes"}},"818008353":{"location":[49.4573968,9.4707657],"ct":"DE","tp":"CR","ts":"2024-09-23T06:50:11Z","tX":538,"tY":349,"tags":{"addr:city":"Rosenberg","addr:postcode":"74749","addr:street":"Dörrhöfer Weg","capacity":"2","fee":"no","internet_access":"no","name":"Wohnmobilstellplatz Rosenberg","power_supply":"no","reservation":"no","sanitary_dump_station":"no"}},"1088927565":{"location":[49.5471451,9.2906964],"ct":"DE","tp":"CS","ts":"2024-09-01T17:41:54Z","tX":538,"tY":349,"tags":{"capacity:persons":"100","caravans":"no","drinking_water":"yes","group_only":"yes","name":"Jugendzeltplatz \"Am Stürzenhardter Brückle\"","power_supply":"yes","shower":"no","tents":"yes","toilets":"yes","website":"https://www.buchen.de/tourismus/uebernachtungen/166-jugendzeltplatz-am-stuerzenhardter-brueckle.html","wikidata":"Q107528667"}},"1151496149":{"location":[49.5886318,9.3924766],"ct":"DE","tp":"CR","ts":"2023-03-05T12:08:24Z","tX":538,"tY":349,"tags":{"name":"Goldschmitt","power_supply":"yes","sanitary_dump_station":"yes"}},"1226739846":{"location":[49.5398399,9.4890603],"ct":"DE","tp":"CS","ts":"2024-03-25T10:47:56Z","tX":538,"tY":349,"tags":{"group_only":"yes","name":"Zeltplatz Kappelhütte","shower":"no","tents":"yes","toilets":"yes","wikidata":"Q108914238"}},"1237855229":{"location":[49.5460576,9.2894224],"ct":"DE","tp":"CS","ts":"2024-09-10T07:30:54Z","tX":538,"tY":349,"tags":{"access":"customers","backcountry":"yes","bbq":"yes","capacity:tents":"3","caravans":"no","drinking_water":"yes","fee":"yes","motor_vehicle":"no","name":"Trekking-Camp \"Zapfenglück\"","operator":"Stadt Buchen","operator:wikidata":"Q179252","picnic_table":"no","reservation":"required","shower":"no","static_caravans":"no","tents":"yes","toilets":"yes","website":"https://www.trekking-odenwald.de/camp/camp-zapfenglueck/","wikidata":"Q121008261","wikimedia_commons":"Category:Trekking_Camp_Zapfenglück"}},"1252125570":{"location":[49.579455,9.3252277],"ct":"DE","tp":"CS","ts":"2024-09-10T07:30:54Z","tX":538,"tY":349,"tags":{"access":"customers","backcountry":"yes","bbq":"yes","capacity:tents":"3","caravans":"no","fee":"yes","motor_vehicle":"no","name":"Trekking-Camp Bachgeflüster","operator":"Stadt Walldürn","operator:wikidata":"Q503285","picnic_table":"no","reservation":"required","shower":"no","static_caravans":"no","tents":"yes","toilets":"yes","website":"https://www.trekking-odenwald.de/camp/camp-bachgefluester/","wikidata":"Q120799882","wikimedia_commons":"Category:Trekking_Camp_Bachgeflüster"}},"11086700635":{"location":[49.4077621,9.2276037],"ct":"DE","tp":"CS","ts":"2024-09-10T08:22:21Z","tX":538,"tY":349,"tags":{"access":"customers","backcountry":"yes","camp_site":"basic","capacity:tents":"3","caravans":"no","charge":"12 EUR / tent","drinking_water":"no","fee":"yes","motor_vehicle":"no","name":"Trekking-Camp Sonnenberg","openfire":"yes","opening_hours":"May-Oct: \"needs reservation\"","reservation":"required","shower":"no","tents":"yes","toilets":"yes","website":"https://www.trekking-odenwald.de/camp/camp-sonnenberg/","wikidata":"Q121080369"}},"7964755447":{"location":[49.5865479,9.3672074],"ct":"DE","tp":"CR","ts":"2024-12-30T10:46:47Z","tX":538,"tY":349,"tags":{"capacity:caravans":"4","caravan_site":"motorhome_stopover","caravan_site:type":"town","fee":"no","name":"Reisemobilstellplatz Walldürn","power_supply":"yes","power_supply:charge":"0.50 EUR/KWh","power_supply:fee":"yes","sanitary_dump_station":"yes","sanitary_dump_station:fee":"no","water_point":"yes","water_point:charge":"1 EUR/80 liter"}},"4352992619":{"location":[49.6022018,9.4714813],"ct":"DE","tp":"SD","ts":"2016-08-16T19:04:50Z","tX":538,"tY":349,"tags":{"access":"yes","fee":"no","sanitary_dump_station:basin":"yes"}},"10712061621":{"location":[49.5888917,9.3926246],"ct":"DE","tp":"SD","ts":"2023-03-05T12:08:24Z","tX":538,"tY":349,"tags":{"access":"yes","sanitary_dump_station:basin":"yes","sanitary_dump_station:round_drain":"yes"}},"12461225525":{"location":[49.4457246,9.3338594],"ct":"DE","tp":"CR","ts":"2024-12-29T17:27:51Z","tX":538,"tY":349,"tags":{"capacity":"1","caravan_site":"motorhome_stopover","caravan_site:type":"sports_centre","fee":"no","name":"Wohnmobilstellplatz Seckach","power_supply":"no","sanitary_dump_station":"no","website":"https://www.bergstrasse-odenwald.de/detail/id=5f80392fd73b167b76ceff51"}},"12461662282":{"location":[49.5971603,9.4292803],"ct":"DE","tp":"CR","ts":"2024-12-29T21:25:38Z","tX":538,"tY":349,"tags":{"capacity":"2","caravan_site":"motorhome_stopover","caravan_site:type":"village","fee":"no","name":"Wohnmobilstellplatz Höpfingen","power_supply":"no","sanitary_dump_station":"no"}},"12461830184":{"location":[49.4300489,9.430205],"ct":"DE","tp":"SD","ts":"2024-12-29T23:16:59Z","tX":538,"tY":349,"tags":{"access":"yes","fee":"no","water_point":"yes"}}}