{"37350886":{"location":[49.2424436,9.2308529],"ct":"DE","tp":"CS","ts":"2023-07-22T21:47:46Z","tX":538,"tY":350,"tags":{"access":"customers","addr:city":"Oedheim","addr:housenumber":"3","addr:postcode":"74229","addr:street":"Hirschfeld","caravans":"yes","dog":"leashed","email":"info@sperrfechter-freizeitpark.de","fax":"+49 7136 20081","fee":"yes","name":"Sperrfechter Freizeit-Park","operator":"Rolf Sperrfechter","payment:cash":"yes","permanent_camping":"yes","phone":"+49 7136 22653","power_supply":"yes","sanitary_dump_station":"yes","shower":"yes","tents":"yes","toilets":"yes","website":"https://www.sperrfechter-freizeit.de/","wheelchair":"limited"}},"88239451":{"location":[49.1875863,9.2466554],"ct":"DE","tp":"CS","ts":"2021-05-01T09:44:13Z","tX":538,"tY":350,"tags":{"addr:city":"Neckarsulm","addr:country":"DE","addr:housenumber":"6","addr:postcode":"74172","addr:street":"Reisachmühle","caravans":"yes","dog":"yes","internet_access":"wlan","name":"Campingplatz Reisachmühle","permanent_camping":"yes","power_supply":"yes","shower":"yes","tents":"yes","toilets":"yes","website":"https://campingplatz-reisachmuehle.de/"}},"90133296":{"location":[49.3114324,9.4441543],"ct":"DE","tp":"CS","ts":"2022-06-29T20:30:46Z","tX":538,"tY":350,"tags":{"caravans":"yes","description":"Nearby sanitary facilities of SV Olnhausen are also available for campsite customers.","description:de":"Angrenzende Sanitäranlagen des SV Olnhausen stehen zur Mitbenutzung zur Verfügung.","dog":"leashed","name":"Heilbronner Campingclub e.V.","permanent_camping":"yes","shower":"yes","tents":"yes","toilets":"yes","website":"http://www.heilbronner-camping-club.de/"}},"142459189":{"location":[49.187995,9.2418056],"ct":"DE","tp":"CR","ts":"2012-04-25T17:56:03Z","tX":538,"tY":350,"tags":{"capacity":"25","fee":"no"}},"347977258":{"location":[49.1675076,9.2434068],"ct":"DE","tp":"CR","ts":"2021-08-15T18:19:34Z","tX":538,"tY":350,"tags":{"access":"customers","capacity":"13","capacity:disabled":"no","note":"Neubau 2015","operator":"Wingärtner Genossenschaft Heilbronn-Erlenbach","parking":"surface","power_supply":"yes","surface":"grass_paver","wheelchair":"yes"}},"354504241":{"location":[49.2339073,9.1504829],"ct":"DE","tp":"CR","ts":"2019-03-11T01:14:49Z","tX":538,"tY":350,"tags":{"capacity":"8","email":"info@gbw.srh.de","fee":"yes","phone":"+49 7063 520","power_supply":"yes","source:outline":"Bing","tents":"no","website":"https://www.badwimpfen.de/uebernachtungen/unterkuenfte/wohnmobilstellplatz-srh.html"}},"422973231":{"location":[49.3141586,9.4191983],"ct":"DE","tp":"CR","ts":"2022-12-02T13:09:47Z","tX":538,"tY":350,"tags":{"addr:city":"Widdern","addr:country":"DE","addr:housenumber":"11","addr:postcode":"74259","addr:street":"Heilbronner Straße","capacity":"16","fee":"yes","internet_access":"no","name":"Jagstcamp Widdern","operator":"Jagstcamp Widdern GbR","power_supply":"yes","sanitary_dump_station":"yes","surface":"fine_gravel","website":"https://www.jagstcamp-widdern.de/index.html","wheelchair":"yes"}},"498173754":{"location":[49.2114694,9.4227769],"ct":"DE","tp":"CS","ts":"2021-05-01T09:59:11Z","tX":538,"tY":350,"tags":{"caravans":"yes","dog":"yes","name":"Gelände FFS Heilbronn","nudism":"yes","operator":"FFS Heilbronn e.V.","permanent_camping":"yes","tents":"yes","website":"https://ffs-heilbronn.de"}},"630235106":{"location":[49.3606347,9.1475591],"ct":"DE","tp":"CR","ts":"2018-11-24T10:15:04Z","tX":538,"tY":350,"tags":{"capacity":"15","internet_access":"no","name":"Wasemweg","power_supply":"yes","sanitary_dump_station":"public","stars":"3"}},"684450645":{"location":[49.1920334,9.4808934],"ct":"DE","tp":"CR","ts":"2023-06-23T18:53:30Z","tX":538,"tY":350,"tags":{"addr:city":"Öhringen","addr:housenumber":"33","addr:postcode":"74613","addr:street":"Verrenberger Weg","capacity":"50","caravans":"yes","dog":"yes","email":"urlaub@heicamp.de","fee":"yes","internet_access":"yes","internet_access:fee":"yes","name":"HEICamp","operator":"Rainer Heidemann","payment:cash":"yes","payment:credit_cards":"yes","payment:girocard":"yes","phone":"+49 7941 9898855","power_supply":"yes","reservation":"yes","sanitary_dump_station":"customers","shower":"yes","toilets":"yes","water_point":"yes","website":"https://heicamp.de/","wheelchair":"yes"}},"1077485866":{"location":[49.3235635,9.3675633],"ct":"DE","tp":"CR","ts":"2022-07-10T17:48:45Z","tX":538,"tY":350,"tags":{}},"3654516853":{"location":[49.3002655,9.152273],"ct":"DE","tp":"CR","ts":"2015-07-16T16:02:52Z","tX":538,"tY":350,"tags":{}},"3755892674":{"location":[49.3075605,9.4625569],"ct":"DE","tp":"CS","ts":"2023-01-21T17:52:56Z","tX":538,"tY":350,"tags":{"caravans":"no","email":"katja.kohle@gemeinde.jagsthausen.de","internet_access":"no","name":"Jagstinsel Wörd","operator":"Gemeinde Jagsthausen","phone":"+497943 91010","sanitary_dump_station":"no","shower":"no","tents":"yes","toilets":"yes"}},"5498703544":{"location":[49.2874922,9.2962253],"ct":"DE","tp":"CS","ts":"2023-11-04T10:16:19Z","tX":538,"tY":350,"tags":{"addr:city":"Neudenau","addr:housenumber":"8","addr:postcode":"74861","addr:street":"Deitingen","caravans":"no","dog":"no","name":"Campingplatz Freibad Neudenau","operator":"Freibadfreunde Neudenau e. V.","phone":"+49 176 52426356","shower":"yes","tents":"yes","toilets":"yes","website":"https://www.freibadfreunde-neudenau.de/campingplatz"}},"6489998427":{"location":[49.3065721,9.149361],"ct":"DE","tp":"CS","ts":"2023-11-04T10:16:33Z","tX":538,"tY":350,"tags":{"access":"private","caravans":"no","description":"According to the website, this is rather an event location than a normal campsite","description:de":"Laut Webseite ist das eher eine Eventlocation als ein Zeltplatz","name":"Crow River Tipi Camp","tents":"yes","website":"https://www.indianerfreizeit.de/"}},"5566680928":{"location":[49.3472291,9.2561809],"ct":"DE","tp":"CR","ts":"2018-04-20T12:49:24Z","tX":538,"tY":350,"tags":{"addr:city":"Billigheim","addr:housenumber":"10","addr:postcode":"74842","addr:street":"Karl-von-Goebel-Straße","capacity":"3","fee":"no","name":"Stellplatz am Schlosspark","power_supply":"no","sanitary_dump_station":"no"}},"5891073575":{"location":[49.3145825,9.4198094],"ct":"DE","tp":"SD","ts":"2022-12-02T13:09:47Z","tX":538,"tY":350,"tags":{}},"6577152860":{"location":[49.2417906,9.2300248],"ct":"DE","tp":"SD","ts":"2019-06-28T16:47:06Z","tX":538,"tY":350,"tags":{"access":"customers","fee":"no","opening_hours":"24/7","operator":"Sperrfechter Freizeitpark","water_point":"yes"}}}