{"58838275":{"location":[48.979901,9.4588679],"ct":"DE","tp":"CR","ts":"2019-03-08T01:48:07Z","tX":538,"tY":351,"tags":{"addr:city":"Oppenweiler","addr:country":"DE","addr:housenumber":"15","addr:postcode":"71570","addr:street":"Murrwiesenstraße","capacity":"2","dog":"yes","drinking_water":"yes","fee":"no","maxstay":"3 days","name":"Caravanstation Oppenweiler","operator":"Gemeinde Oppenweiler","phone":"+49 7191 484 0","power_supply":"no","surface":"asphalt","tents":"no","waste":"grey_water","website":"https://www.oppenweiler.de/index.php?id=128"}},"74222185":{"location":[49.1169543,9.3822816],"ct":"DE","tp":"CS","ts":"2023-05-22T19:53:30Z","tX":538,"tY":351,"tags":{"cabins":"yes","caravans":"yes","email":"info@breitenauer-see.de","fax":"+49 7130 - 3622","internet_access":"wlan","name":"Breitenauer See","permanent_camping":"yes","phone":"+49 7130 - 8558","smoking":"yes","stars":"5","tents":"yes","website":"https://www.campingpark-breitenauer-see.de/startseite","wheelchair":"yes"}},"91755639":{"location":[49.086698,9.469332],"ct":"DE","tp":"CS","ts":"2024-08-27T16:58:21Z","tX":538,"tY":351,"tags":{"access":"customers","addr:city":"Wüstenrot","addr:postcode":"71543","addr:street":"Weg zum Freibad","email":"camping@gemeinde-wuestenrot.de","name":"Campingplatz Wüstenrot","operator":"Gemeinde Wüstenrot","phone":"+49 7945 919952","website":"https://www.gemeinde-wuestenrot.de/index.php?id=138&objectId=363441"}},"102966101":{"location":[49.1306055,9.204214],"ct":"DE","tp":"CR","ts":"2023-06-27T17:32:34Z","tX":538,"tY":351,"tags":{"drinking_water":"yes","fee":"no","name":"Wohnmobilstellplatz Heilbronn","power_supply":"yes","sanitary_dump_station":"yes","toilets":"yes","website":"https://www.heilbronnerland.de/de/partner/poi/wohnmobilstellplatz-heilbronn-neckarhalde","wheelchair":"yes"}},"113531622":{"location":[49.1487827,9.2839801],"ct":"DE","tp":"CR","ts":"2020-12-20T15:08:39Z","tX":538,"tY":351,"tags":{"addr:city":"Weinsberg","addr:postcode":"74189","addr:street":"Eugen-Diez-Straße","capacity":"6","fee":"no","internet_access":"wlan","internet_access:fee":"yes","name":"Wohnmobil Stellplatz Stadt Weinsberg","note":"Stromsäulen vorhanden - 50 Cent p Kwh","operator":"Stadt Weinsberg","power_supply":"yes","sanitary_dump_station":"yes","wheelchair":"limited"}},"310652738":{"location":[48.9978002,9.1485671],"ct":"DE","tp":"CR","ts":"2023-08-12T19:33:00Z","tX":538,"tY":351,"tags":{"addr:city":"Besigheim","addr:housenumber":"32","addr:postcode":"74354","addr:street":"Auf dem Kies","name":"Wohnmobilstellplatz \"Auf dem Kies\"","note":"Dies ist kein Zeltplatz=camp_site sondern ein Wohnmobilstellplatz=caravan_site!","tents":"no","toilets:wheelchair":"no","website":"http://besigheim.de/,Lde/start/gaeste/wohnmobilstellplatz.html","wheelchair":"yes","wheelchair:description":"Anzahl Stellplätze: 15"}},"454900467":{"location":[49.0417889,9.1876607],"ct":"DE","tp":"CR","ts":"2016-11-21T15:52:35Z","tX":538,"tY":351,"tags":{"capacity":"2","fee":"no","name":"Wohnmobilstellplatz Neckarwestheim","power_supply":"yes","sanitary_dump_station":"yes","tents":"no","water_point":"yes"}},"674528818":{"location":[49.0694652,9.1635593],"ct":"DE","tp":"CR","ts":"2024-03-31T00:23:54Z","tX":538,"tY":351,"tags":{"capacity":"4","fee":"no","name":"Am Freibad Lauffen","phone":"+49 7133 20770","power_supply":"yes","sanitary_dump_station":"yes","toilets":"no","water_point":"seasonal","website":"https://www.lauffen.de/website/de/tourismus/uebernachtung/wohnmobilstellplaetze"}},"798510740":{"location":[48.9347282,9.260405],"ct":"DE","tp":"CR","ts":"2025-01-04T00:41:12Z","tX":538,"tY":351,"tags":{"capacity":"5","caravan_site":"motorhome_stopover","caravan_site:type":"sports_centre","fee":"yes","maxlength":"7","maxstay":"2 nights","maxweight":"7.5","name":"Wohnmobilstellplatz am Bolzplatz - Marbach am Neckar","operator":"Stadt Marbach","power_supply":"yes","power_supply:capacity":"4","power_supply:charge":"2 EUR/1 KWh","sanitary_dump_station":"no","surface":"asphalt","water_point":"no","website":"https://www.schillerstadt-marbach.de/touristik-kultur/unterkunft-gastronomie/wohnmobil-camping/"}},"830008759":{"location":[48.9619668,9.2625461],"ct":"DE","tp":"CR","ts":"2020-07-25T14:09:40Z","tX":538,"tY":351,"tags":{"access":"yes","fee":"no","name":"Sportanlagen Murr","parking":"surface"}},"1087542529":{"location":[48.9457756,9.2334038],"ct":"DE","tp":"CR","ts":"2024-04-16T20:48:56Z","tX":538,"tY":351,"tags":{"access":"yes","capacity":"4","caravan_site":"motorhome_stopover","drinking_water":"no","fee":"no","lit":"no","maxstay":"1 night","name":"Wohnmobilstellplatz Benningen am Neckar","opening_hours":"24/7","operator":"Gemeinde Benningen am Neckar","power_supply":"no","sanitary_dump_station":"no","seasonal":"no","supervised":"no","surface":"grass","website":"https://www.stuttgart-tourist.de/a-wohnmobil-stellplatz-benningen-am-neckar"}},"1110606749":{"location":[48.9502829,9.452919],"ct":"DE","tp":"CR","ts":"2023-02-06T12:21:43Z","tX":538,"tY":351,"tags":{"area":"yes","capacity":"4","dog":"yes","drinking_water":"yes","name":"Wohnmobilstellplatz Backnang","operator":"Stadt Backnang","power_supply":"no","tents":"no","toilets":"no","waste":"grey_water","wheelchair":"yes"}},"1237208991":{"location":[49.0044713,9.2864597],"ct":"DE","tp":"CR","ts":"2024-02-11T16:43:18Z","tX":538,"tY":351,"tags":{"capacity":"5","fee":"yes","maxstay":"5 nights","name":"Großbottwar","opening_hours":"24/7","operator":"Stadt Großbottwar","power_supply":"yes","reg_name":"Wohnmobilstellplatz im Sportgebiet \"Winzerhäuser Tal\"","sanitary_dump_station":"yes","toilets":"no","water_point":"yes","website":"https://www.grossbottwar.de/seite/226467/wohnmobilstellplatz.html"}},"1348395401":{"location":[48.9620494,9.2623208],"ct":"DE","tp":"CR","ts":"2025-01-04T00:36:05Z","tX":538,"tY":351,"tags":{"capacity":"2","caravan_site":"motorhome_stopover","caravan_site:type":"river;sports_centre","fee":"no","name":"Wohnmobilstellplatz Hermannsplatz Murr","seasonal":"no","website":"https://www.gemeinde-murr.de/freizeit-kultur-tourismus/sport-freizeitanlagen/in-murr"}},"4514103707":{"location":[48.963983,9.2798394],"ct":"DE","tp":"CR","ts":"2025-01-04T01:27:53Z","tX":538,"tY":351,"tags":{"capacity":"4","caravan_site":"motorhome_stopover","caravan_site:type":"river;town","fee":"no","maxstay":"2 days","name":"Wohnmobilstellplatz Steinheim an der Murr","power_supply":"yes","power_supply:charge":"0.50 EUR/KWh","power_supply:fee":"yes","sanitary_dump_station":"no","seasonal":"no","website":"https://www.stuttgart-tourist.de/a-wohnmobil-stellplatz-steinheim-an-der-murr"}},"6467095699":{"location":[48.9638493,9.3963912],"ct":"DE","tp":"CR","ts":"2020-11-23T09:38:31Z","tX":538,"tY":351,"tags":{"addr:city":"Aspach","addr:housenumber":"22","addr:street":"Rübengasse","fee":"no","internet_access":"no","name":"Basislager Gemeindehalle","opening_hours":"24/7","power_supply":"no","sanitary_dump_station":"no"}},"6467102887":{"location":[48.9784223,9.3953395],"ct":"DE","tp":"CR","ts":"2020-11-23T12:21:02Z","tX":538,"tY":351,"tags":{"addr:city":"Aspach","addr:postcode":"71546","fee":"no","name":"Caravanstellplatz im Fautenhau","opening_hours":"24/7","power_supply":"no","sanitary_dump_station":"no"}},"8213475598":{"location":[48.9917251,9.3656822],"ct":"DE","tp":"CR","ts":"2022-11-17T14:34:19Z","tX":538,"tY":351,"tags":{"addr:city":"Aspach","addr:postcode":"71546","name":"Caravanstellplatz am Eselsweg"}},"8393300582":{"location":[48.9866399,9.4103831],"ct":"DE","tp":"CR","ts":"2021-02-04T09:07:22Z","tX":538,"tY":351,"tags":{"addr:city":"Aspach","name":"Caravanstellplatz Sportplatz Rietenau"}},"11774454004":{"location":[49.0763556,9.1420922],"ct":"DE","tp":"CR","ts":"2024-03-31T00:44:56Z","tX":538,"tY":351,"tags":{"capacity":"2","caravan_site":"motorhome_stopover","caravan_site:type":"winery","caravans":"no","dog":"yes","fee":"no","maxlength":"8","maxstay":"2 nights","name":"Wohnmobilstellplatz Lauffener Weingärtner eG","power_supply":"yes","tents":"no","water_point":"yes"}},"11774494720":{"location":[49.0926595,9.1541071],"ct":"DE","tp":"CR","ts":"2024-03-31T00:36:06Z","tX":538,"tY":351,"tags":{"capacity":"8","caravan_site":"motorhome_stopover","caravan_site:type":"winery","caravans":"no","dog":"yes","fee":"yes","fee:conditional":"no @ (30 EUR purchace)","name":"Eberbach-Schäfer","power_supply":"yes","reservation":"required","tents":"no","website":"https://www.eberbach-schaefer.de/vermietung/"}},"4589885166":{"location":[49.1305214,9.2038986],"ct":"DE","tp":"SD","ts":"2017-01-04T21:58:37Z","tX":538,"tY":351,"tags":{}},"4590964227":{"location":[49.1489142,9.2835494],"ct":"DE","tp":"SD","ts":"2017-01-18T16:40:35Z","tX":538,"tY":351,"tags":{"fee":"yes","internet_access":"wlan","name":"Entsorgung und Versorgungsanlage","note":"Entsorgung Kostenlos - Versorgung gegen Gebühr","operator":"Stadt Weinsberg","water_point":"yes"}},"4962391714":{"location":[48.9512282,9.2522811],"ct":"DE","tp":"SD","ts":"2017-07-10T18:07:33Z","tX":538,"tY":351,"tags":{}},"5264331562":{"location":[48.9637425,9.3758379],"ct":"DE","tp":"SD","ts":"2019-05-11T22:19:49Z","tX":538,"tY":351,"tags":{"water_point":"yes"}},"12472759751":{"location":[48.9357078,9.2727453],"ct":"DE","tp":"CR","ts":"2025-01-04T00:52:35Z","tX":538,"tY":351,"tags":{"capacity":"2","caravan_site":"motorhome_stopover","caravan_site:type":"winery","email":"info@wg-marbach.de","fee":"no","maxstay":"2 days","name":"Wohnmobilstellplatz Marbach am Neckar Weingärtner","network":"Landvergnuegen","phone":"+49 7144 6419","power_supply":"no","sanitary_dump_station":"no","tourism:website":"https://www.stuttgart-tourist.de/a-wohnmobilstellplatz-weingaertner-marbach-am-neckar","water_point":"no","website":"https://www.weingaertner-marbach.de/"}}}