{"24526142":{"location":[48.6315476,9.4337457],"ct":"DE","tp":"CS","ts":"2024-07-17T22:07:05Z","tX":538,"tY":353,"tags":{"caravans":"yes"}},"97363970":{"location":[48.6668769,9.287178],"ct":"DE","tp":"CS","ts":"2023-11-06T12:07:16Z","tX":538,"tY":353,"tags":{"capacity:persons":"60","caravans":"no","fee":"yes","group_only":"yes","internet_access":"no","name":"DPSG Lagerplatz Neuhausen","openfire":"yes","operator":"Freundes- und Fördererkreis der DPSG Neuhausen e.V.","power_supply":"no","tents":"yes","website":"https://dpsg-neuhausen.de/scoutpress/lagerplatz/"}},"177565978":{"location":[48.5042866,9.4254975],"ct":"DE","tp":"CS","ts":"2025-01-03T17:09:09Z","tX":538,"tY":353,"tags":{"addr:city":"Bad Urach","addr:country":"DE","addr:housenumber":"1","addr:postcode":"72574","addr:street":"Pfählhof","breakfast":"bun_service","cabin:rental":"yes","caravans":"yes","drinking_water":"yes","dryer":"yes","email":"camping@pfaehlhof.de","fax":"+49 7125 8091","internet_access":"wlan","internet_access:fee":"no","name":"Pfählhof","opening_hours:reception":"Apr-Nov 08:00-13:00,15:00-18:00; Dec-Mar 9:00-12:00,15:00-17:00","phone":"+49 7125 8098","power_supply":"yes","sanitary_dump_station":"yes","shower":"yes","sport":"table_tennis","tents":"yes","toilets":"yes","washing_machine":"yes","website":"https://www.pfaehlhof.de/"}},"200063884":{"location":[48.5005204,9.3772832],"ct":"DE","tp":"CR","ts":"2024-05-14T00:32:03Z","tX":538,"tY":353,"tags":{"addr:postcode":"72574","addr:street":"Bäderstraße","capacity":"26","caravan_site":"motorhome_stopover","caravan_site:type":"sports_centre","charge":"13€ incl. Kurtaxe (April 2024)","drinking_water":"yes","fee":"yes","internet_access":"wlan","internet_access:fee":"no","name":"Wohnmobilstellplatz Bad Urach","note":"Plätze eng bemessen","opening_hours":"24/7","power_supply":"yes (inclusive 04/2024)","sanitary_dump_station":"yes","toilets:wheelchair":"no","waste":"grey_water","website":"https://www.badurach-tourismus.de/Urlaubsplanung/Uebernachten/Wohnmobil-und-Camping","wheelchair":"limited"}},"532594517":{"location":[48.5259842,9.4122934],"ct":"DE","tp":"CR","ts":"2024-03-19T15:32:01Z","tX":538,"tY":353,"tags":{"access":"permissive","addr:city":"Hülben","addr:postcode":"72584","addr:street":"Kaltentalstraße","capacity":"12","caravans":"no","fee":"no","maxstay":"5 days","name":"Phoenix Wohnmobilhafen","operator":"Gemeinde Hülben","operator:type":"public","power_supply":"yes","sanitary_dump_station":"yes","source":"https://www.huelben.de/wohnmobilhafen/","surface":"gravel","water_point":"yes"}},"594226596":{"location":[48.6344363,9.1528492],"ct":"DE","tp":"CR","ts":"2024-05-09T17:12:19Z","tX":538,"tY":353,"tags":{"addr:city":"Waldenbuch","addr:postcode":"71111","addr:street":"Bahnhofstraße","capacity":"3","description":"Kostenlos ohne jegliche Infrastruktur aber gut für eine Übernachtung - Max. Aufenthaltsdauer 3 Tage","drinking_water":"no","fee":"no","internet_access":"no","name":"Glashütte","operator":"Stadt Waldenbuch","permanent_camping":"no","power_supply":"no","sanitary_dump_station":"no","toilets":"no","wheelchair":"yes"}},"669518700":{"location":[48.6106399,9.4173772],"ct":"DE","tp":"CS","ts":"2023-11-12T16:27:06Z","tX":538,"tY":353,"tags":{"access":"customers","addr:city":"Dettingen unter Teck","addr:postcode":"73265","addr:street":"Gotthilf-Kurz-Weg","capacity:persons":"100","caravans":"no","email":"verwaltung@rauhe-wiesen.de","group_only":"yes","name":"Zeltplatz Rauhe Wiesen","operator":"Freundeskreis des VCP Gau Teck e.V.","power_supply":"no","scouts":"yes","shower":"yes","static_caravans":"no","tents":"yes","toilets":"yes","website":"https://rauhe-wiesen.de/"}},"777660495":{"location":[48.5573898,9.3460062],"ct":"DE","tp":"CR","ts":"2024-07-17T00:25:08Z","tX":538,"tY":353,"tags":{"addr:city":"Kohlberg","addr:housenumber":"1","addr:postcode":"72664","addr:street":"Beim Steinbrückle","area":"yes","capacity":"6","caravans":"yes","contact:website":"rathaus@kohlberg.de","dog":"yes","fee":"yes","internet_access":"no","name":"Wohnmobilstellplatz Kohlberg am Jusi","operator":"Gemeinde Kohlberg Metzingerstr. 1","phone":"+49 7025 910180","power_supply":"yes","sanitary_dump_station":"no","surface":"gravel","website":"https://www.kohlberg.de/index.php?id=121"}},"971986048":{"location":[48.6502644,9.4588805],"ct":"DE","tp":"CR","ts":"2023-05-25T17:58:13Z","tX":538,"tY":353,"tags":{"campers":"yes","capacity":"8","fee":"no","internet_access":"no","maxstay":"1 week","motorhome":"yes","name":"Ziegelwasen","power_supply":"no","tents":"no","waste":"no","website":"https://www.kirchheim-teck.de/de/Freizeit-Tourismus/Tourismus/Wohnmobilstellplatz","wheelchair":"yes"}},"1040831185":{"location":[48.5271823,9.2878915],"ct":"DE","tp":"CS","ts":"2023-09-09T23:01:49Z","tX":538,"tY":353,"tags":{"capacity:persons":"180","caravans":"no","fee":"yes","group_only":"yes","name":"Jugend- und Naturzeltplatz Metzingen","openfire":"yes","operator":"Pfadfinder Metzingen","reservation":"required","tents":"yes","website":"https://pfadfinder-metzingen.de/jugend-und-naturzeltplatz/"}},"1089674950":{"location":[48.5472515,9.3708631],"ct":"DE","tp":"CR","ts":"2025-01-02T13:07:09Z","tX":538,"tY":353,"tags":{"bbq":"no","capacity":"8","caravan_site":"motorhome_stopover","caravan_site:type":"town","caravans":"no","charge":"10 EUR/24 hours","drinking_water":"yes","fee":"yes","name":"Wohnmobilstellplatz Am Schützenhaus Neuffen","power_supply":"yes","power_supply:fee":"motorhome_storage","sanitary_dump_station":"yes","tents":"no","water_point":"yes","water_point:fee":"yes","website":"https://www.neuffen.de/index.php?id=157"}},"1094237652":{"location":[48.5657968,9.3951427],"ct":"DE","tp":"CR","ts":"2024-09-16T11:48:11Z","tX":538,"tY":353,"tags":{"addr:city":"Beuren","addr:housenumber":"20","addr:postcode":"72660","addr:street":"Am Thermalbad","addr:suburb":"Balzholz","capacity":"58","capacity:caravans":"58","charge":"10 EUR","fee":"yes","internet_access":"wlan","internet_access:fee":"no","name":"WoMo-Stellplatz Beuren","power_supply":"yes","sanitary_dump_station":"yes","website":"https://www.wohnmobil-beuren.de/"}},"1104932378":{"location":[48.5938216,9.4465789],"ct":"DE","tp":"CR","ts":"2022-10-18T11:46:47Z","tX":538,"tY":353,"tags":{"addr:city":"Owen","addr:housenumber":"36","addr:postcode":"73277","addr:street":"Lauterweg","capacity:caravans":"8","fee":"yes","name":"Wohnmobilstellplatz Stadt Owen","permanent_camping":"no","power_supply":"yes","sanitary_dump_station":"yes","website":"https://www.owen.de/freizeit-kultur/gastronomie-uebernachtung/wohnmobil-stellplatz"}},"1270692307":{"location":[48.4886944,9.2811166],"ct":"DE","tp":"CR","ts":"2025-01-02T13:11:00Z","tX":538,"tY":353,"tags":{"capacity":"2","caravan_site":"motorhome_stopover","caravan_site:type":"swimming_pool","fee":"no","name":"Wohnmobilstellplatz Waldfreibad Eningen","picnic_table":"yes","power_supply":"yes","power_supply:charge":"1 EUR/2 KWh","power_supply:fee":"yes","surface":"fine_gravel","traffic_sign":"DE:314,1010-67","website":"https://www.eningen.de/kultur-und-freizeit/essen-trinken-uebernachten.html"}},"1270692308":{"location":[48.4918421,9.2859356],"ct":"DE","tp":"CR","ts":"2025-01-02T13:17:01Z","tX":538,"tY":353,"tags":{"capacity":"4","caravan_site":"motorhome_stopover","caravan_site:type":"restaurant","fee":"no","name":"Wohnmobilstellplatz Schützenhaus Eningen","picnic_table":"yes","power_supply":"yes","power_supply:capacity":"4","sanitary_dump_station":"no","surface":"fine_gravel","traffic_sign":"DE:314,1010-67"}},"1299615288":{"location":[48.5819697,9.376349],"ct":"DE","tp":"CR","ts":"2024-07-07T00:30:14Z","tX":538,"tY":353,"tags":{"capacity":"8","charge":"10 EUR","fee":"yes","maxstay":"21 days","name":"Wohnmobile Stellplatz Katzengarten","power_supply":"yes","sanitary_dump_station":"yes","url":"https://www.frickenhausen.de/freizeit-gaeste/wohnmobilstellplaetze/herzlich-willkommen","water_point":"yes"}},"2129978735":{"location":[48.6703406,9.2110545],"ct":"DE","tp":"CR","ts":"2023-05-17T05:57:05Z","tX":538,"tY":353,"tags":{"capacity":"8","charge":"7,- €","fee":"yes","internet_access":"no","name":"Festgelände Bernhausen","payment:coins:denominations":".50EUR;1EUR;2EUR","permanent_camping":"no","power_supply":"yes","sanitary_dump_station":"yes","tents":"no","toilets":"no","water_point":"yes","website":"https://www.filderstadt.de/,Lde/start/tourismus/Wohnmobilstellplaetze.html"}},"3065256667":{"location":[48.6238905,9.1462458],"ct":"DE","tp":"CS","ts":"2019-08-25T10:10:56Z","tX":538,"tY":353,"tags":{"caravans":"no","contact:email":"forstamt@lrabb.de","contact:fax":"+49 7031 6631029","contact:phone":"+49 7031 6631001","contact:website":"http://www.landkreis-boeblingen.de","group_only":"yes","name":"Waldjugendzeltplatz Jungviehweide","operator":"Landratsamt Böblingen-Forsten","tents":"yes"}},"3275178517":{"location":[48.6363987,9.3305522],"ct":"DE","tp":"CR","ts":"2022-09-25T20:06:01Z","tX":538,"tY":353,"tags":{"capacity":"12","drinking_water":"yes","fee":"yes","internet_access":"no","name":"Reisemobilstellplatz Nürtingen","operator":"Stadt Nürtingen","power_supply":"yes","sanitary_dump_station":"yes","tents":"no","website":"https://www.nuertingen.de/de/nuertingen-fuer-alle/kultur-sport-freizeit/uebernachten-einkehren/reisemobilstellplatz"}},"3414720358":{"location":[48.5472627,9.3708551],"ct":"DE","tp":"CR","ts":"2024-11-06T18:09:09Z","tX":538,"tY":353,"tags":{"capacity":"8","drinking_water":"yes","fee":"yes","name":"Wohnmobilstellplatz Am Schützenhaus","power_supply":"yes","sanitary_dump_station":"yes","tents":"no","website":"https://www.neuffen.de/index.php?id=157"}},"3556615298":{"location":[48.4743354,9.1937489],"ct":"DE","tp":"CR","ts":"2023-11-07T21:02:45Z","tX":538,"tY":353,"tags":{"capacity":"10","drinking_water":"yes","fee":"yes","name":"Reutlinger Wohnmobilstellplatz","operator":"Stadtmarketing Reutlingen","power_supply":"yes","sanitary_dump_station":"yes","website":"https://www.tourismus-reutlingen.de/uebernachten-gastronomie/wohnmobilstellplatz.html"}},"3710374988":{"location":[48.4831823,9.2286827],"ct":"DE","tp":"SD","ts":"2019-12-06T17:15:44Z","tX":538,"tY":353,"tags":{"access":"yes","sanitary_dump_station:gravity":"yes","sanitary_dump_station:grey_water":"yes","source":"local knowledge","water_point":"yes"}},"9672732331":{"location":[48.6204135,9.2027783],"ct":"DE","tp":"CR","ts":"2022-05-02T10:55:05Z","tX":538,"tY":353,"tags":{"capacity":"4","charge":"no","fee":"no","internet_access":"no","name":"Sportplatz Neuenhaus","permanent_camping":"no","power_supply":"yes","power_supply:maxcurrent":"16A","sanitary_dump_station":"no","tents":"no","toilets":"no","water_point":"no","website":"https://www.aichtal.de/freizeit-kultur/gastronomie-uebernachtung/wohnmobilstellplatz"}},"8638377873":{"location":[48.5007255,9.3772786],"ct":"DE","tp":"SD","ts":"2024-04-11T16:06:01Z","tX":538,"tY":353,"tags":{"access":"customers","charge":"1€ 60ltr für Frischwasser","fee":"yes","name":"Sani Station","payment:cash":"yes","water_point":"yes"}},"9909537316":{"location":[48.5258513,9.4121836],"ct":"DE","tp":"SD","ts":"2024-04-15T14:53:54Z","tX":538,"tY":353,"tags":{"access":"yes","fee":"no","name":"Holiday Clean","note":"Wasserversorgung mit Kleinmengen möglich 10/20/50cent 1€=100 ltr.","operator":"Gemeinde Hülben","water_point":"yes"}},"11181161934":{"location":[48.5659709,9.3954677],"ct":"DE","tp":"SD","ts":"2023-09-10T14:05:27Z","tX":538,"tY":353,"tags":{"access":"customers","fee":"yes","operator":"WoMo-Stellplatz Beuren","water_point":"yes"}},"12222370589":{"location":[48.5474773,9.3705825],"ct":"DE","tp":"SD","ts":"2024-10-04T13:23:38Z","tX":538,"tY":353,"tags":{}}}