{"124738511":{"location":[48.0845765,9.2087725],"ct":"DE","tp":"CS","ts":"2025-06-14T19:16:23Z","tX":538,"tY":355,"tags":{"access":"customers","addr:city":"Sigmaringen","addr:country":"DE","addr:housenumber":"6","addr:postcode":"72488","addr:street":"Georg-Zimmerer-Straße","bbq":"yes","cabins":"yes","camp_site":"deluxe","capacity:persons":"100","caravans":"yes","check_date":"19.05,2023","dog":"yes","drinking_water":"yes","email":"Info@outandback.de","fee":"yes","internet_access":"yes","name":"Campingplatz Sigmaringen","opening_hours":"Mar 26-Oct 11","operator":"Out & Back","permanent_camping":"no","phone":"+49 7571 50411","power_supply":"yes","reception":"yes","sanitary_dump_station":"yes","shower":"yes","source":"http://www.outandback.de/camping_der_platz.html","stars":"4","tents":"yes","toilets":"yes","website":"http://www.outandback.de/camping_der_platz.html","wheelchair":"yes"}},"232245414":{"location":[48.0167126,9.4886918],"ct":"DE","tp":"CR","ts":"2024-05-15T22:55:56Z","tX":538,"tY":355,"tags":{"capacity":"53","caravan_site":"motorhome_stopover","caravan_site:type":"theme_park","contact:website":"http://www.sonnenhof-therme.de/wohnmobilstellplaetze.html","description":"Wir bieten Ihnen außerdem Waschmaschine, Trockner u.v.m.","fee":"yes","internet_access":"WLAN free","internet_access:fee":"no","name":"SP Sonnenhof-Therme","power_supply":"yes","sanitary_dump_station":"yes","water_point":"yes"}},"233024505":{"location":[48.0308661,9.2823109],"ct":"DE","tp":"CR","ts":"2019-08-17T09:07:53Z","tX":538,"tY":355,"tags":{"capacity":"50","contact:email":"reservierung@zielfinger-angelseen.de","contact:mobile":"+49 173 6602483","contact:website":"https://wohnmobilstellplatz-zielfingerseen.de/reisemobilstellplatz","fee":"yes","internet_access":"wlan","name":"Wohnmobilstellplatz Zielfinger Seen","power_supply":"yes","sanitary_dump_station":"yes","water_point":"yes","wheelchair":"limited"}},"254539536":{"location":[48.0190909,9.2333886],"ct":"DE","tp":"CS","ts":"2025-04-26T19:12:50Z","tX":538,"tY":355,"tags":{"addr:city":"Krauchenwies","addr:housenumber":"4","addr:postcode":"72505","addr:street":"Ablacher Straße","caravans":"yes","contact:email":"info@ablacherseencamping.de","contact:fax":"+49 7576 960830","contact:mobile":"+49 170 5759032","ele":"580","fee":"yes","internet_access":"yes","internet_access:fee":"yes","name":"Seen Camping Krauchenwies","tents":"yes","website":"https://www.seencamping.de/"}},"306872538":{"location":[48.0852228,9.209648],"ct":"DE","tp":"CR","ts":"2024-09-30T09:08:33Z","tX":538,"tY":355,"tags":{"capacity":"24","caravans":"no","charge":"10 EUR / day","dog":"yes","drinking_water":"yes","fee":"yes","internet_access":"no","name":"An der Stadthalle","opening_hours":"24/7","operator":"out & back GmbH","payment:coins":"yes","payment:notes":"no","power_supply":"yes","power_supply:frequency":"60","power_supply:voltage":"230","reservation":"no","sanitary_dump_station":"yes","smoking":"yes","tents":"no","toilets":"no","water_point":"yes","website":"https://www.wohnmobilstellplatz-sigmaringen.de","wheelchair":"yes"}},"703055669":{"location":[48.181512,9.213457],"ct":"DE","tp":"CR","ts":"2025-01-02T11:25:12Z","tX":538,"tY":355,"tags":{"access":"yes","caravan_site":"motorhome_stopover","caravan_site:type":"town","email":"info@veringenstadt.de","fee":"no","internet_access":"no","name":"Wohnmobilstellplatz Veringenstadt","parking":"surface","phone":"+49 7577 930-0","sanitary_dump_station":"no","seasonal":"no","surface":"gravel","website":"https://www.veringenstadt.de/freizeit-erlebnis/essen-uebernachten/wohnmobilstellplatz"}},"885629974":{"location":[48.1080783,9.1491834],"ct":"DE","tp":"CS","ts":"2020-12-16T18:17:59Z","tX":538,"tY":355,"tags":{"capacity":"150","email":"diebold@sigmaringen","group_only":"yes","name":"Jugendzeltplatz Nr. 9","ref":"9","website":"https://www.landkreis-sigmaringen.de/de/Landratsamt/Kreisverwaltung/Fachbereiche/Umwelt-Arbeitsschutz/Naturschutz/Jugendzelplaetze"}},"885634782":{"location":[48.0759008,9.1574513],"ct":"DE","tp":"CS","ts":"2020-12-28T15:02:32Z","tX":538,"tY":355,"tags":{"capacity":"130","description":"Trockentoiletten aber kein fließend Wasser","group_only":"yes","name":"Jugendzeltplatz Nr. 5","operator":"Herr Stroppel","phone":"+49 7571 51421","ref":"5","scout":"yes","shower":"no","toilets":"yes","website":"https://www.landkreis-sigmaringen.de/de/Landratsamt/Kreisverwaltung/Fachbereiche/Umwelt-Arbeitsschutz/Naturschutz/Jugendzelplaetze"}},"885634783":{"location":[48.0787598,9.1494654],"ct":"DE","tp":"CS","ts":"2020-12-16T18:32:44Z","tX":538,"tY":355,"tags":{"capacity":"100","caravans":"no","group_only":"yes","name":"Jugendzeltplatz Nr. 3","phone":"+49 7552 929289","ref":"3","tents":"yes","website":"https://www.landkreis-sigmaringen.de/de/Landratsamt/Kreisverwaltung/Fachbereiche/Umwelt-Arbeitsschutz/Naturschutz/Jugendzelplaetze"}},"885634784":{"location":[48.0767903,9.149704],"ct":"DE","tp":"CS","ts":"2020-12-16T18:32:44Z","tX":538,"tY":355,"tags":{"capacity":"70","caravans":"no","group_only":"yes","name":"Jugendzeltplatz Nr. 10","operator":"Hans-Jürgen Gombold","phone":"+49 7571 51671","ref":"10","tents":"yes","website":"https://www.landkreis-sigmaringen.de/de/Landratsamt/Kreisverwaltung/Fachbereiche/Umwelt-Arbeitsschutz/Naturschutz/Jugendzelplaetze"}},"885634785":{"location":[48.0794597,9.1428185],"ct":"DE","tp":"CS","ts":"2021-06-06T12:16:26Z","tX":538,"tY":355,"tags":{"capacity":"70","caravans":"no","drinking_water":"yes","group_only":"yes","name":"Jugendzeltplatz Nr. 1","openfire":"yes","operator":"Hans-Jürgen Gombold","phone":"+49 7571 51671","power_supply":"no","ref":"1","shower":"no","tents":"yes","toilets":"yes","website":"https://www.landkreis-sigmaringen.de/de/Landratsamt/Kreisverwaltung/Fachbereiche/Umwelt-Arbeitsschutz/Naturschutz/Jugendzelplaetze"}},"1108380371":{"location":[48.0927839,9.1489593],"ct":"DE","tp":"CR","ts":"2022-10-30T21:09:53Z","tX":538,"tY":355,"tags":{"name":"Gasthaus Krone"}},"1210302708":{"location":[48.1521594,9.4780241],"ct":"DE","tp":"CR","ts":"2024-05-16T12:09:45Z","tX":538,"tY":355,"tags":{"capacity":"8","caravan_site":"motorhome_stopover","caravan_site:type":"town","fee":"no","name":"Wohnmobilstellplatz Stadthalle Riedlingen","power_supply":"yes","reservation":"no","sanitary_dump_station":"yes"}},"3501232006":{"location":[48.1520867,9.4778806],"ct":"DE","tp":"SD","ts":"2024-05-16T12:09:45Z","tX":538,"tY":355,"tags":{"operator":"Stadt Riedlingen","power_supply":"yes"}},"4083166328":{"location":[48.0852142,9.2096727],"ct":"DE","tp":"SD","ts":"2022-08-15T20:59:15Z","tX":538,"tY":355,"tags":{"sanitary_dump_station:chemical_toilet":"yes","sanitary_dump_station:fee":"no","sanitary_dump_station:gravity":"yes","sanitary_dump_station:grey_water":"yes","sanitary_dump_station:suction":"no"}},"5062284489":{"location":[48.0819102,9.4594659],"ct":"DE","tp":"CR","ts":"2025-01-02T11:36:40Z","tX":538,"tY":355,"tags":{"capacity":"24","caravan_site":"motorhome_stopover","caravan_site:type":"lake","caravans":"no","charge":"14 EUR/24 hours","description":"Self-suffient RV only","fee":"yes","name":"Wohnmobilstellplatz Schwarzachtalseen","opening_hours":"Apr-Oct","operator":"Zweckverband Schwarzachtalseen","power_supply":"yes","power_supply:charge":"1 EUR/KWh","power_supply:fee":"yes","reservation":"no","sanitary_dump_station":"yes","seasonal":"yes","survey:date":"2017-08-27","tents":"no","waste":"grey_water","water_point":"yes","water_point:charge":"1 EUR","water_point:fee":"yes","website":"http://www.schwarzachtalseen.de/wohnmobilstellplatz/"}},"6343196072":{"location":[48.0189935,9.2341754],"ct":"DE","tp":"CR","ts":"2025-04-26T18:57:29Z","tX":538,"tY":355,"tags":{"addr:city":"Krauchenwies","addr:housenumber":"4","addr:postcode":"72505","addr:street":"Ablacher Straße","capacity":"15","description":"Stellplatz vor der Schranke","fee":"yes","internet_access":"wlan","maxstay":"4 days","name":"Wohnmobil Stellplatz Seen Camping","power_supply":"yes","sanitary_dump_station":"yes","water_point":"yes","website":"https://www.seencamping.de/stellplatz-ausserhalb-der-schranke"}},"10795899705":{"location":[48.1329247,9.4024561],"ct":"DE","tp":"CR","ts":"2023-04-08T21:02:36Z","tX":538,"tY":355,"tags":{"addr:housenumber":"1","addr:postcode":"88499","addr:street":"Nussbaumweg","email":"info@backdorf.de","internet_access":"wlan","name":"Häussler Backdorf","operator":"Karl-Heinz Häussler GmbH","website":"https://www.backdorf.de/Ausstellung-und-Ofenpark/"}},"4542217569":{"location":[48.0169539,9.4885917],"ct":"DE","tp":"SD","ts":"2020-02-11T19:10:56Z","tX":538,"tY":355,"tags":{"description":"Sanitäre Entsorgungsanlage mit Abwasser Entsorgung im Übernachtungstarif enthalten","fee":"no","name":"Holiday Clean","operator":"Therme Sonnenhof","water_point":"yes"}},"6343117866":{"location":[48.0187209,9.2341624],"ct":"DE","tp":"SD","ts":"2025-04-26T18:47:17Z","tX":538,"tY":355,"tags":{"access":"customers","description":"Sanitäre Entsorgungsstation"}},"12789865444":{"location":[48.0187259,9.2342397],"ct":"DE","tp":"SD","ts":"2025-04-26T18:47:17Z","tX":538,"tY":355,"tags":{"access":"customers","description":"Sanitäre Entsorgungsstation"}},"12915427619":{"location":[48.0849123,9.2091599],"ct":"DE","tp":"SD","ts":"2025-06-14T19:14:03Z","tX":538,"tY":355,"tags":{}}}