{"34052280":{"location":[47.7703548,9.308662],"ct":"DE","tp":"CS","ts":"2025-01-03T13:52:16Z","tX":538,"tY":356,"tags":{"addr:city":"Salem","addr:country":"DE","addr:housenumber":"46","addr:postcode":"88682","addr:street":"Weildorfer Straße","addr:suburb":"Neufrach","alt_name":"Camping Gern","cabins":"yes","capacity:pitches":"108","caravans":"yes","dog":"yes","drinking_water":"yes","email":"info@campinghof-salem.de","fee":"yes","name":"Campinghof Salem","naturism":"no","operator":"Familie Gern","phone":"+49 7553 829695","power_supply":"yes","reservation":"yes","sanitary_dump_station":"yes","sauna":"yes","shower":"yes","tents":"yes","toilets":"yes","website":"https://www.campinghof-salem.de/"}},"207284797":{"location":[47.9335953,9.2372697],"ct":"DE","tp":"CR","ts":"2024-10-01T14:27:38Z","tX":538,"tY":356,"tags":{"capacity":"25","contact:phone":"+49 7552 251131","contact:website":"https://www.pfullendorf.de/seepark/wohnmobilhafen/","description":"Entsorgung u. Frischwasser beim nahegelegenen Klärwek","dog":"yes","fee":"yes","motorhome":"yes","name":"Wohnmobilstellplatz am Seepark Pfullendorf","power_supply":"yes","sanitary_dump_station":"yes","stars":"4","tents":"no","water_point":"yes","website":"https://www.pfullendorf.de/seepark/wohnmobilhafen/"}},"496587208":{"location":[47.7624797,9.2448441],"ct":"DE","tp":"PK","ts":"2018-08-11T13:54:06Z","tX":538,"tY":356,"tags":{"bus":"yes","fee":"no","motorcar":"no","motorhome":"yes","park_ride":"no","parking":"surface","surface":"gravel","wheelchair":"yes"}},"535462477":{"location":[47.8650467,9.3857238],"ct":"DE","tp":"CS","ts":"2022-11-09T15:41:30Z","tX":538,"tY":356,"tags":{"addr:city":"Wilhelmsdorf","addr:housenumber":"1","addr:postcode":"88271","addr:street":"Buhhof","email":"buhhof@gmx.de","fax":"+49 7503 916887","fee":"yes","name":"Camping Buhhof","phone":"+49 7503 916876","website":"https://www.camping-buhhof.de/camping"}},"724754616":{"location":[47.7759925,9.148567],"ct":"DE","tp":"CR","ts":"2024-12-30T01:41:38Z","tX":538,"tY":356,"tags":{"capacity":"42","capacity:caravans":"42","caravan_site":"motorhome_stopover","caravan_site:type":"town","description":"18 EUR/24 hours","drinking_water":"yes","fee":"yes","maxstay":"3 days","motorhome":"yes","name":"Reisemobilhafen Überlingen","power_supply":"yes","power_supply:charge":"0.50 EUR/kWh","power_supply:fee":"yes","sanitary_dump_station":"yes","shower":"no","stars":"4","tents":"no","toilets":"yes","water_point":"yes","water_point:charge":"0.10 EUR/10 liter","water_point:fee":"yes","website":"https://www.ueberlingen-bodensee.de/reisemobilhafen-ueberlingen","wheelchair":"yes"}},"767446375":{"location":[47.8185853,9.3143628],"ct":"DE","tp":"CR","ts":"2024-12-28T16:55:30Z","tX":538,"tY":356,"tags":{"addr:city":"Heiligenberg","addr:postcode":"88633","addr:street":"Betenbrunner Straße","capacity":"10","caravan_site":"motorhome_stopover","caravan_site:type":"village","charge":"9 EUR","dog":"yes","fee":"yes","motorhome":"yes","name":"Wohnmobilstellplatz Heiligenberg","power_supply":"no","reservation":"no","sanitary_dump_station":"yes","stars":"4","website":"https://www.heiligenberg.de/de/gaeste/tourist-info/wohnmobil-stellplatz"}},"938819563":{"location":[47.7861136,9.4442873],"ct":"DE","tp":"CS","ts":"2025-01-08T20:35:43Z","tX":538,"tY":356,"tags":{"access":"private","caravans":"no","group_only":"yes","landuse":"grass","name":"BDKJ Ferienwelt Zeltlager Benistobel","tents":"yes","website":"https://www.foerderverein-benistobel.de/"}},"1053351022":{"location":[47.93431,9.4478051],"ct":"DE","tp":"CR","ts":"2022-04-20T14:19:25Z","tX":538,"tY":356,"tags":{"capacity:caravans":"10","email":"info@gemeinde-hosskirch.de","internet_access":"wlan","internet_access:fee":"no","name":"Wohnmobil-Stellplatz am Königseggsee","operator":"Gemeinde Hoßkirch","power_supply":"yes","sanitary_dump_station":"yes"}},"1195289424":{"location":[47.7559643,9.186679],"ct":"DE","tp":"CR","ts":"2024-04-04T14:59:10Z","tX":538,"tY":356,"tags":{"addr:city":"Überlingen","addr:postcode":"88662","addr:street":"Nußdorfer Straße","capacity":"22","charge":"16 EUR","check_date":"2023-08-06","email":"info@ueberlingen-bodensee.de","fee":"yes","internet_access":"no","maxstay":"3 days","motorhome":"designated","name":"Reisemobilhafen Überlingen Ost","opening_hours":"24/7","operator":"Große Kreisstadt Überlingen","payment:account_cards":"yes","payment:app":"yes","payment:cards":"yes","payment:cash":"yes","payment:credit_cards":"yes","payment:ec_cards":"yes","payment:handyparken":"yes","payment:notes":"yes","payment:sms":"yes","phone":"+49 7551 9471522","power_supply":"yes","reservation":"no","sanitary_dump_station":"no","smoking":"yes","start_date":"2023-04","water_point:charge":"0.10 EUR/10 liter","website":"https://www.ueberlingen-bodensee.de/reisemobilhafen-ueberlingen-ost","wheelchair":"yes"}},"1266558815":{"location":[47.7799979,9.3811744],"ct":"DE","tp":"CS","ts":"2025-02-18T17:37:33Z","tX":538,"tY":356,"tags":{"caravans":"yes","contact:website":"https://obsthof-moll.de/camping/","dog":"yes","drinking_water":"yes","dryer":"no","internet_access":"wlan","internet_access:fee":"no","kitchen":"no","name":"Camping Obsthof Moll","naturism":"no","operator":"Obsthof Moll","power_supply":"yes","reservation":"yes","sanitary_dump_station":"no","sauna":"no","smoking":"yes","tents":"yes","washing_machine":"no"}},"1301445639":{"location":[47.7955745,9.262904],"ct":"DE","tp":"CR","ts":"2024-12-30T02:06:04Z","tX":538,"tY":356,"tags":{"capacity":"3","caravan_site":"motorhome_stopover","caravan_site:type":"distillery","dog":"no","fee":"yes","internet_access":"no","name":"Wohnmobilstellplatz Edelbrände Senft","operator":"Edelbrände Senft GmbH & Co. KG","power_supply":"no","reservation":"required","sanitary_dump_station":"no","tents":"no","water_point":"no","website":"https://www.senft-destillerie.de"}},"1315613264":{"location":[47.8597172,9.3759836],"ct":"DE","tp":"CS","ts":"2024-09-14T23:55:34Z","tX":538,"tY":356,"tags":{"addr:country":"DE","addr:housenumber":"2/1","addr:postcode":"88636","addr:street":"Kirchplatz","caravans":"yes","email":"info@camping-illmensee.de","fax":"+49 7558 1507","fee":"yes","internet_access":"wlan","internet_access:fee":"no","name":"Camping Seewiese","nudism":"no","opening_hours":"May 01-Oct 03: Mo-Su,PH 09:30-12:30,14:30-21:00,12:30-14:30","operator":"Daniela Heigle","phone":"+49 7558 466;+49 170 8057129","reservation":"recommended","sanitary_dump_station":"yes","site":"camp_site","tents":"yes","website":"https://camping-illmensee.de/","wheelchair":"limited"}},"9523652317":{"location":[47.9176152,9.3551508],"ct":"DE","tp":"CR","ts":"2024-10-01T14:27:38Z","tX":538,"tY":356,"tags":{"addr:city":"Ostrach","addr:country":"DE","addr:housenumber":"12","addr:postcode":"88356","addr:street":"Schulstraße","addr:suburb":"Burgweiler","capacity":"4","dog":"leashed","email":"info@ostrach.de","fee":"yes","name":"Wohnmobilstellplatz \"Weites Ried\"","name:de":"Weites Ried","phone":"+49 7585 30044","power_supply":"yes","reservation":"no","stars":"3","website":"https://www.noerdlicher-bodensee.de/uebernachtung/wohnmobilstellplatz-weites-ried-in-ostrach-burgweiler-7df8fee772"}},"9851460522":{"location":[47.8187225,9.3140022],"ct":"DE","tp":"CR","ts":"2024-01-29T15:15:37Z","tX":538,"tY":356,"tags":{"description":"Übernachtungsparkplatz 48h","maxstay":"2 days","toilets":"no"}},"12848280476":{"location":[47.8141451,9.4080285],"ct":"DE","tp":"CR","ts":"2025-05-19T06:58:51Z","tX":538,"tY":356,"tags":{"access":"customers","charge":"26.50 EUR","dog":"yes","fee":"yes","internet_access":"no","noname":"yes","power_supply":"no","sanitary_dump_station":"no","website":"https://www.alpacacamping.de/properties/5053"}},"12848291677":{"location":[47.8641591,9.3747299],"ct":"DE","tp":"CR","ts":"2025-05-19T06:39:34Z","tX":538,"tY":356,"tags":{"name":"Illmensee"}},"12848327145":{"location":[47.9224751,9.2551638],"ct":"DE","tp":"CR","ts":"2025-05-19T07:21:15Z","tX":538,"tY":356,"tags":{"description":"Wohnmobil Parken Schild auf allgemeinem Parkplatz","name":"Pfullendorf"}}}