{"7041927":{"location":[47.5367035,9.3985315],"ct":"CH","tp":"CS","ts":"2020-10-15T20:02:02Z","tX":538,"tY":357,"tags":{"addr:city":"Egnach","addr:postcode":"9322","addr:street":"Wiedehorn","fee":"yes","name":"Camping Seehorn","phone":"+41 71 477 10 06","power_supply":"yes","tents":"yes","website":"https://www.seehorn.ch/","wheelchair":"yes"}},"14965769":{"location":[47.7136055,9.4088997],"ct":"DE","tp":"CS","ts":"2024-07-29T10:16:10Z","tX":538,"tY":357,"tags":{"addr:city":"Markdorf","addr:country":"DE","addr:housenumber":"12","addr:postcode":"88677","addr:street":"Steibensteg","backcountry":"no","cabins":"yes","camp_site":"deluxe","camp_type":"established","capacity:cabins":"57","capacity:caravans":"158","capacity:permanent_camping":"100","capacity:pitches":"181","capacity:tents":"23","caravans":"yes","contact:phone":"+49 7544 96270","contact:website":"https://www.wirthshof.de/","dog":"yes","drinking_water":"yes","dryer":"yes","fee":"yes","group_only":"no","internet_access":"wlan","internet_access:fee":"no","motorhome":"yes","name":"Camping Wirthshof","nudism":"no","operator":"Wirthshof GmbH","permanent_camping":"yes","power_supply":"yes","reservation":"recommended","sanitary_dump_station":"yes","sauna":"yes","shower":"yes","source":"extrapolation","stars":"5","static_caravans":"no","swimming_pool":"yes","tents":"yes","toilets":"yes","washing_machine":"yes","wheelchair":"yes"}},"25636582":{"location":[47.6659617,9.3769877],"ct":"DE","tp":"CS","ts":"2024-09-07T20:19:44Z","tX":538,"tY":357,"tags":{"capacity:caravans":"300","capacity:pitches":"300","caravans":"yes","drinking_water":"yes","dryer":"yes","email":"info@schlosshelmsdorf.de","name":"Camping Schloss Helmsdorf","naturism":"no","operator":"Frau Angelika Flemisch und Herr Tobias Flemisch","phone":"+4975456252","power_supply":"yes","sanitary_dump_station":"yes","shower":"no","tents":"yes","toilets":"no","washing_machine":"yes","website":"https://www.schlosshelmsdorf.de/de/schlafen/camping/"}},"25640193":{"location":[47.6723734,9.3270314],"ct":"DE","tp":"CS","ts":"2023-11-07T11:37:12Z","tX":538,"tY":357,"tags":{"addr:city":"Hagnau am Bodensee","addr:housenumber":"13","addr:postcode":"88709","addr:street":"Strandbadstraße","caravans":"yes","contact:email":"info@campingplatz-alpenblick.de","contact:fax":"+49 7532 495761","contact:phone":"+49 7532 495760","internet_access":"wlan","internet_access:fee":"yes","name":"Campingplatz Alpenblick","tents":"no","website":"https://campingplatz-alpenblick.de/"}},"53754565":{"location":[47.6276835,9.2524319],"ct":"CH","tp":"CS","ts":"2024-06-08T11:55:18Z","tX":538,"tY":357,"tags":{"caravans":"yes","comment":"only permanent residents, no tourists","name":"Camping Möwe","tents":"no"}},"54437445":{"location":[47.6688922,9.4030356],"ct":"DE","tp":"CS","ts":"2024-09-07T20:20:55Z","tX":538,"tY":357,"tags":{"caravans":"yes","charge":"29 EUR / day","dog":"no","dryer":"yes","email":"info@camping-fischbach.de","fax":"+49 7541 401113","fee":"yes","internet_access":"wlan","name":"Campingplatz Fischbach","phone":"+49 7541 42059","power_supply":"yes","shower":"yes","tents":"yes","washing_machine":"yes","website":"http://www.camping-fischbach.de/","wheelchair":"yes"}},"71746062":{"location":[47.7125331,9.180364],"ct":"DE","tp":"CS","ts":"2024-04-26T08:32:55Z","tX":538,"tY":357,"tags":{"addr:city":"Konstanz","addr:country":"DE","addr:housenumber":"27","addr:postcode":"78465","addr:street":"Großherzog-Friedrich-Straße","area":"yes","caravans":"no","group_only":"yes","name":"Jugendzeltplatz Heinrich-Suso","phone":"+49 7774 8524","social_facility:for":"children","tents":"yes","website":"http://www.zeltplatz-konstanz.de","wheelchair":"limited"}},"87550212":{"location":[47.702231,9.2698628],"ct":"DE","tp":"CR","ts":"2024-10-01T14:27:38Z","tX":538,"tY":357,"tags":{"addr:city":"Meersburg","addr:street":"Allmendweg","capacity":"20","caravan_site":"motorhome_stopover","caravan_site:type":"village","charge":"16 - 20€ Saisonabhängig","fee":"yes","maxstay":"72 hours","motorhome":"yes","name":"Allmend 1","note":"Bezahlung am Automat - Gebühr Saisonabhängig","power_supply":"yes","power_supply:charge":"0.50 EUR/kWh","power_supply:fee":"yes","reservation":"no","sanitary_dump_station":"yes","shower":"no","shuttle_bus":"yes","stars":"4","water_point":"yes","water_point:charge":"0.10 EUR/10 liter","water_point:fee":"yes","website":"https://www.meersburg.de/de/Tourismus/uebernachten/Wohnmobilstellplatz"}},"89313223":{"location":[47.6460603,9.1984234],"ct":"CH","tp":"CS","ts":"2023-06-14T11:55:18Z","tX":538,"tY":357,"tags":{"addr:city":"Kreuzlingen","addr:country":"CH","addr:housenumber":"52","addr:postcode":"8280","addr:street":"Promenadenstrasse","name":"Camping Fischerhaus","phone":"+41 71 688 49 03","website":"https://camping-fischerhaus.ch/","wheelchair":"yes"}},"121499169":{"location":[47.7011276,9.268212],"ct":"DE","tp":"CR","ts":"2024-10-01T14:27:38Z","tX":538,"tY":357,"tags":{"capacity":"38","caravan_site:type":"village","fee":"yes","maxstay":"72 hours","motorhome":"yes","name":"Ergeten","power_supply":"yes","reservation":"no","sanitary_dump_station":"yes","stars":"4","water_point":"yes","website":"https://www.meersburg.de/de/Tourismus/uebernachten/Wohnmobilstellplatz"}},"136317924":{"location":[47.6581949,9.1692852],"ct":"DE","tp":"CR","ts":"2024-10-01T14:27:38Z","tX":538,"tY":357,"tags":{"capacity":"3","check_date":"2024-08-12","description":"25€ / 24h","drinking_water":"no","fee":"yes","maxstay":"24 hour","name":"Wohnmobilstellplatz Döbele","opening_hours":"24/7","power_supply":"no","reservation":"no","sanitary_dump_station":"no","stars":"2","toilets":"no","website":"https://www.konstanz.de/leben+in+konstanz/mobilitaet/parkleitsystem/parkplatz+doebele"}},"176868296":{"location":[47.7470187,9.2112046],"ct":"DE","tp":"CS","ts":"2024-10-06T07:25:59Z","tX":538,"tY":357,"tags":{"addr:city":"Überlingen","addr:country":"DE","addr:housenumber":"3","addr:postcode":"88662","addr:street":"Untermaurach","addr:suburb":"Nußdorf","alt_name":"Campingplatz Untermaurach Nussdorf","caravans":"yes","dog":"yes","name":"Campingplatz Brändle-Köhne","opening_hours":"Apr 01 - Oct 10","phone":"+49 7551 8 328 888","power_supply":"yes","reception":"yes","tents":"yes","website":"http://www.untermaurach.de","wheelchair":"yes"}},"178065576":{"location":[47.7465931,9.1473623],"ct":"DE","tp":"CS","ts":"2023-08-31T09:23:37Z","tX":538,"tY":357,"tags":{"addr:city":"Konstanz","addr:country":"DE","addr:housenumber":"40-42","addr:postcode":"78465","addr:street":"Hornwiesenstraße","addr:suburb":"Dingelsdorf","caravans":"yes","drinking_water":"yes","email":"info@camping-klausenhorn.de","fax":"+49 7533 7541","internet_access":"wlan","internet_access:fee":"no","name":"Klausenhorn","opening_hours":"Apr 01-Oct 03","phone":"+49 7533 6372","power_supply":"yes","shower":"yes","stars":"4","tents":"yes","toilets":"yes","website":"https://www.camping-klausenhorn.de/","wheelchair":"yes"}},"190310732":{"location":[47.7409363,9.2260635],"ct":"DE","tp":"CS","ts":"2023-10-10T11:05:14Z","tX":538,"tY":357,"tags":{"addr:city":"Uhldingen-Mühlhofen","addr:country":"DE","addr:postcode":"88690","addr:street":"An der Sandelmühle","caravans":"yes","dog":"yes","drinking_water":"yes","dryer":"yes","fax":"+49 7556 6687","internet_access":"wlan","internet_access:fee":"no","name":"Camping Birnau-Maurach","opening_hours":"Mar 16 - Oct 27","payment:cash":"yes","payment:credit_cards":"no","payment:girocard":"yes","phone":"+49 7556 6699","power_supply":"yes","shower":"yes","tents":"yes","toilets":"yes","washing_machine":"yes","website":"https://www.birnau-maurach.de/"}},"234922071":{"location":[47.6180179,9.2708769],"ct":"CH","tp":"CS","ts":"2024-04-06T06:36:20Z","tX":538,"tY":357,"tags":{"caravans":"no","contact:email":"panorama.vermietung@cgsg.ch","contact:phone":"+41 76 215 60 62","contact:website":"https://www.cgsg.ch/?page_id=289","description":"nur für Dauermieter, es gibt keine Touristenplätze","description:en":"only permanent residents, no tourists","dog":"leashed","drinking_water":"yes","dryer":"yes","fee":"yes","group_only":"no","hot_water":"yes","motorhome":"no","name":"Camping Panorama","nudism":"no","openfire":"no","operator":"Campinggenossenschaft St. Gallen","permanent_camping":"only","scout":"no","shower":"yes","tents":"no","toilets":"yes","washing_machine":"yes"}},"247743875":{"location":[47.7522204,9.1925574],"ct":"DE","tp":"CS","ts":"2019-10-22T19:26:01Z","tX":538,"tY":357,"tags":{"caravans":"yes","charge":"27€","email":"info@campingplatz-nell.de","fee":"yes","name":"Camping Nell","opening_hours":"Apr 01 - Oct 16","operator":"Christian Nell","phone":"+49 7551 4254","reception":"yes","tents":"yes","website":"http://www.campingplatz-nell.de","wheelchair":"yes"}},"288064331":{"location":[47.5894155,9.3340217],"ct":"CH","tp":"CS","ts":"2019-03-24T19:33:30Z","tX":538,"tY":357,"tags":{"name":"Campingplatz und Strandbad Amriswil","phone":"+41 71 463 47 73","website":"https://strandbad-amriswil.ch/"}},"288800611":{"location":[47.5883261,9.3321569],"ct":"CH","tp":"CS","ts":"2022-08-08T23:17:16Z","tX":538,"tY":357,"tags":{"name":"Buchen","note":"only permanent residents, no tourists","website":"https://campingplatz-buchen.ch/"}},"371180725":{"location":[47.6933891,9.2978562],"ct":"DE","tp":"CR","ts":"2024-10-01T14:27:38Z","tX":538,"tY":357,"tags":{"capacity":"35","charge":"14 EUR/day","contact:phone":"+49 7532 5709","fee":"yes","motorhome":"yes","name":"Wohnmobil Stellplatz Alte Brennerei","power_supply":"yes","sanitary_dump_station":"yes","stars":"4","tents":"no"}},"405505862":{"location":[47.7016553,9.2720382],"ct":"DE","tp":"CR","ts":"2024-10-01T14:27:38Z","tX":538,"tY":357,"tags":{"capacity":"30","caravan_site:type":"village","fee":"yes","maxstay":"72 hours","motorhome":"yes","name":"Allmend 2","stars":"4","website":"https://www.meersburg.de/de/Tourismus/uebernachten/Wohnmobilstellplatz"}},"438988296":{"location":[47.6696368,9.3310227],"ct":"DE","tp":"CS","ts":"2024-06-17T10:09:29Z","tX":538,"tY":357,"tags":{"barrier":"fence","caravans":"yes","drinking_water":"yes","internet_access":"wlan","name":"Campingplatz Schloss Kirchberg","phone":"+49 7545 6413","sanitary_dump_station":"yes","shower":"yes","source":"http://www.camping-kirchberg.de","tents":"yes","toilets":"yes","website":"http://www.camping-kirchberg.de","wheelchair":"yes"}},"449138778":{"location":[47.7315755,9.2381123],"ct":"DE","tp":"PK","ts":"2024-09-07T19:23:40Z","tX":538,"tY":357,"tags":{"access":"yes","alt_name":"Parkplatz am Sportgelände (P2)","fee":"yes","hgv":"no","motorhome":"yes","name":"Parkplatz am Sport- und Funpark (P2)","parking":"surface","ref":"P2"}},"481088237":{"location":[47.6723779,9.1640193],"ct":"DE","tp":"CR","ts":"2024-11-04T13:15:18Z","tX":538,"tY":357,"tags":{"access":"yes","capacity":"8","check_date":"2024-11-04","fee":"no","motorhome":"yes","opening_hours":"24/7","power_supply":"no","sanitary_dump_station":"no","surface":"paved","traffic_sign":"DE:314,1048-17"}},"521339518":{"location":[47.7395309,9.4727303],"ct":"DE","tp":"CR","ts":"2024-10-01T14:27:38Z","tX":538,"tY":357,"tags":{"access":"private","addr:city":"Oberteuringen","addr:country":"DE","addr:housenumber":"8","addr:postcode":"88094","addr:street":"Sankt-Georg-Straße 8","addr:suburb":"Neuhaus","capacity":"6","dog":"no","fee":"yes","motorhome":"yes","name":"Camping am Bauernhof","parking":"surface","power_supply":"yes","sanitary_dump_station":"yes","stars":"3","wheelchair":"yes"}},"521339519":{"location":[47.7406678,9.4719319],"ct":"DE","tp":"CS","ts":"2017-09-04T18:58:56Z","tX":538,"tY":357,"tags":{"internet_access":"wlan","internet_access:fee":"no","name":"Ferienhof Kramer","website":"http://www.camping-am-bauernhof.de/campingplatz"}},"674487915":{"location":[47.6232345,9.2629306],"ct":"CH","tp":"CS","ts":"2019-04-04T01:08:25Z","tX":538,"tY":357,"tags":{"addr:city":"Altnau","addr:housenumber":"3","addr:postcode":"8595","addr:street":"Ruderbaum","name":"Ruderbaum Camping","opening_hours":"Apr-Oct: 08:00-12:00,14:00-20:00","phone":"+41 71 695 29 65","website":"https://www.ruderbaum.ch/"}},"971995353":{"location":[47.711467,9.1800075],"ct":"DE","tp":"CS","ts":"2024-08-15T22:15:20Z","tX":538,"tY":357,"tags":{"access":"customers","addr:city":"Konstanz","addr:housenumber":"43","addr:postcode":"78465","addr:street":"Großherzog-Friedrich-Straße","addr:suburb":"Litzelstetten","caravans":"no","drinking_water":"yes","fee":"yes","name":"Naturcampingplatz Litzelstetten-Mainau","operator":"Marketing und Tourismus Konstanz GmbH","phone":"+49 7531 1330-30","power_supply":"yes","sanitary_dump_station":"yes","shower":"yes","tents":"yes","toilets":"yes","website":"https://www.naturcamping-mainau.de/"}},"998013032":{"location":[47.6655905,9.2083655],"ct":"DE","tp":"CR","ts":"2024-09-16T12:57:01Z","tX":538,"tY":357,"tags":{"caravans":"no","cars":"no","fee":"yes","maxstay":"72 hours","motorhome":"yes","parking":"surface","permanent_camping":"no","reservation":"no","sanitary_dump_station":"no","surface":"grass","toilets:wheelchair":"no","traffic_sign":"DE:314,1048-17"}},"1064693926":{"location":[47.6741924,9.2097633],"ct":"DE","tp":"CS","ts":"2024-05-21T15:33:06Z","tX":538,"tY":357,"tags":{"addr:city":"Konstanz","addr:country":"DE","addr:housenumber":"50","addr:postcode":"78464","addr:street":"Fohrenbühlweg","addr:suburb":"Staad","caravans":"yes","drinking_water":"yes","email":"mail@campingplatz-bruderhofer.de","internet_access":"wlan","name":"Campingplatz Bruderhofer","operator":"Christian Metzger","phone":"+49 7531 31388","power_supply":"yes","sanitary_dump_station":"no","shower":"yes","tents":"yes","toilets":"yes","website":"https://www.campingplatz-konstanz.de/"}},"1085036671":{"location":[47.7342107,9.2273479],"ct":"DE","tp":"CS","ts":"2024-08-29T21:21:30Z","tX":538,"tY":357,"tags":{"access":"private","description":"NUR noch für DAUERCAMPER","impromptu":"no","name":"Camping Seeperle","permanent_camping":"only","phone":"+49 7556 5454","reservation":"required","website":"http://www.camping-seeperle.de"}},"1126703319":{"location":[47.7238282,9.4035673],"ct":"DE","tp":"CS","ts":"2023-01-03T15:03:28Z","tX":538,"tY":357,"tags":{"backcountry":"yes","cabins":"no","capacity:persons":"40","caravans":"no","dryer":"no","email":"info@survival-scout-bodensee.de","internet_access":"no","kitchen":"no","name":"Naturcampingwiese Bodensee","naturism":"no","phone":"+49 16098488342","power_supply":"no","sanitary_dump_station":"no","sauna":"no","tents":"only","washing_machine":"no","website":"http://www.survival-scout-bodensee.de/"}},"1271204398":{"location":[47.695171,9.3404824],"ct":"DE","tp":"CR","ts":"2024-04-09T15:17:58Z","tX":538,"tY":357,"tags":{"caravans":"no","charge":"12 EUR/day","dog":"yes","fee":"yes","internet_access":"no","mobile":"+49 151 61497285","name":"Wohnmobilstellplatz Weingartenhof","opening_hours":"Apr - Sep","operator":"Familie Huber","phone":"+49 7544 4624","power_supply":"yes","sanitary_dump_station":"no","shower":"no","surface":"grass","tents":"no","toilets":"no","water_point":"yes"}},"1305786908":{"location":[47.7339997,9.1724243],"ct":"DE","tp":"CS","ts":"2024-08-05T17:35:26Z","tX":538,"tY":357,"tags":{"addr:city":"Konstanz","addr:country":"DE","addr:housenumber":"1","addr:postcode":"78465","addr:street":"Am Fließhorn","internet_access":"wlan","name":"Camping Fließhorn / Seepark","phone":"+49 7533 5262","website":"https://www.fliesshorn.de/"}},"1307313160":{"location":[47.6580368,9.1692886],"ct":"DE","tp":"CR","ts":"2024-10-01T14:27:38Z","tX":538,"tY":357,"tags":{"capacity":"6","check_date":"2024-08-12","description":"25€ / 24h","drinking_water":"no","fee":"yes","maxstay":"24 hour","name":"Wohnmobilstellplatz Döbele","opening_hours":"24/7","power_supply":"no","reservation":"no","sanitary_dump_station":"no","stars":"2","toilets":"no","website":"https://www.konstanz.de/leben+in+konstanz/mobilitaet/parkleitsystem/parkplatz+doebele"}},"1314854194":{"location":[47.6662264,9.2080584],"ct":"DE","tp":"PK","ts":"2024-09-11T13:24:02Z","tX":538,"tY":357,"tags":{"bus":"no","capacity":"5","cars":"no","fee":"yes","lit":"yes","motorhome":"yes","orientation":"parallel","parking":"layby","surface":"asphalt","tourist_bus":"yes","traffic_sign":"DE:314,1010-57,1010-67,1053-32"}},"1319888281":{"location":[47.6917179,9.3458603],"ct":"DE","tp":"CR","ts":"2024-10-01T14:27:38Z","tX":538,"tY":357,"tags":{"capacity":"4","dog":"yes","motorhome":"yes","name":"Wohnmobilstellplatz am Hundweilerhof","phone":"+49 7544 73386","power_supply":"yes"}},"2435752031":{"location":[47.7460954,9.1466455],"ct":"DE","tp":"CR","ts":"2023-08-31T09:24:48Z","tX":538,"tY":357,"tags":{"capacity":"58","fee":"yes","internet_access":"wlan","name":"Wohnmobilstellplätze Klausenhorn","stars":"4","toilets":"yes","wheelchair":"yes"}},"9051279245":{"location":[47.5853459,9.2524479],"ct":"CH","tp":"CR","ts":"2023-11-02T17:23:57Z","tX":538,"tY":357,"tags":{"capacity":"3","description":"CHF 22.-, ganzjährig, Stellplatz auf der Wiese bei Wohnmobile-Bodensee. Ruhige Umgebung, schöne Aussicht ins Grüne.","email":"info@wohnmobile-bodensee.ch","name":"Stellplatz Heiss Wohnmobile-Bodensee","phone":"+41 78 822 14 22","power_supply":"yes","sanitary_dump_station":"no","website":"https://www.wohnmobile-bodensee.ch/"}},"4881562521":{"location":[47.7314534,9.2384458],"ct":"DE","tp":"CR","ts":"2024-09-07T19:23:40Z","tX":538,"tY":357,"tags":{"charge":"24 EUR / 24 hours","fee":"yes","lastcheck":"2023-08-01","maxstay":"24 hours","name":"Wohnmobilstellplatz P2 Parkplatz","sanitary_dump_station":"yes"}},"6799479646":{"location":[47.7316332,9.2385176],"ct":"DE","tp":"SD","ts":"2019-09-16T13:33:57Z","tX":538,"tY":357,"tags":{}},"6806102759":{"location":[47.6583757,9.1694263],"ct":"DE","tp":"SD","ts":"2024-08-15T13:08:37Z","tX":538,"tY":357,"tags":{"name":"ST-SAN"}},"6974200007":{"location":[47.7010806,9.2683429],"ct":"DE","tp":"SD","ts":"2024-03-21T11:47:30Z","tX":538,"tY":357,"tags":{"name":"Holiday Clean"}},"6974217911":{"location":[47.7022712,9.2702151],"ct":"DE","tp":"SD","ts":"2024-03-24T11:42:10Z","tX":538,"tY":357,"tags":{"addr:street":"Allmendweg","name":"Holiday Clean","note":"Wasserentnahme 10 cent 8 Ltr. 1€ 80ltr. - Bei Frostgefahr ist Anlage außer Betrieb","sanitary_dump_station:chemical_toilet":"yes"}},"8832056026":{"location":[47.7356685,9.340868],"ct":"DE","tp":"SD","ts":"2021-12-03T12:55:28Z","tX":538,"tY":357,"tags":{"fee":"yes"}},"11794993501":{"location":[47.7145608,9.4094507],"ct":"DE","tp":"SD","ts":"2024-04-06T07:23:28Z","tX":538,"tY":357,"tags":{}}}