{"2857845":{"location":[47.2457424,9.1730827],"ct":"CH","tp":"CS","ts":"2020-05-03T17:24:46Z","tX":538,"tY":359,"tags":{"name":"Adler","stars":"2"}},"7292613":{"location":[47.1181681,9.3004865],"ct":"CH","tp":"CS","ts":"2024-02-02T16:12:11Z","tX":538,"tY":359,"tags":{"addr:city":"Walenstadt","addr:housenumber":"50","addr:postcode":"8880","addr:street":"Walenseestrasse","email":"kontakt@see-camping.ch","fee":"yes","name":"See-Camping","operator":"Max Bürer","phone":"+41 81 735 18 96","website":"https://www.see-camping.ch/"}},"37962050":{"location":[47.1654863,9.4653659],"ct":"CH","tp":"CS","ts":"2023-03-31T16:27:26Z","tX":538,"tY":359,"tags":{"caravans":"yes","drinking_water":"yes","name":"Camping Werdenberg","phone":"+4181 756 15 07","power_supply":"yes","shower":"yes","tents":"yes","toilets":"yes","website":"https://www.verkehrsverein-buchs.ch/camping"}},"193412043":{"location":[47.1150538,9.214668],"ct":"CH","tp":"CS","ts":"2022-07-30T14:53:49Z","tX":538,"tY":359,"tags":{"caravans":"yes","fee":"yes","internet_access":"yes","internet_access:fee":"no","name":"Camping Murg","permanent_camping":"yes","phone":"+41 81 738 15 30","power_supply":"yes","sanitary_dump_station":"yes","shower":"yes","stars":"3","tents":"yes","toilets":"yes","toilets:wheelchair":"no","washing_machine":"yes","website":"https://www.murg-camping.ch/","wheelchair":"yes"}},"236129081":{"location":[47.1938263,9.2874516],"ct":"CH","tp":"CS","ts":"2022-09-11T19:54:04Z","tX":538,"tY":359,"tags":{"addr:city":"Alt Sankt Johann","addr:country":"CH","addr:housename":"Thurcamping Alt Sankt Johann","addr:postcode":"9656","email":"thurcamping@bluewin.ch","fax":"+41719993575","name":"Thurcamping Alt Sankt Johann","phone":"+41719991330","power_supply":"yes","website":"https://www.sellamatt.ch/index.php/camping"}},"283021236":{"location":[47.1841505,9.2558871],"ct":"CH","tp":"CS","ts":"2023-05-23T12:09:11Z","tX":538,"tY":359,"tags":{"capacity":"25","contact:email":"info@drei-eidgenossen-altstjohann.ch","contact:phone":"+41 71 999 12 74","contact:website":"https://www.drei-eidgenossen-altstjohann.ch/camping/","name":"Camping Drei Eidgenossen","permanent_camping":"only"}},"291237420":{"location":[47.1041534,9.2616259],"ct":"CH","tp":"CR","ts":"2019-03-24T16:25:42Z","tX":538,"tY":359,"tags":{"email":"info@camping-terza.ch","name":"Camping Terza","operator":"Fam. Gubser","phone":"+41 81 738 17 46","website":"https://www.camping-terza.ch/"}},"309848930":{"location":[47.0997026,9.3019854],"ct":"CH","tp":"CS","ts":"2021-07-17T15:20:46Z","tX":538,"tY":359,"tags":{"internet_access":"yes","name":"Höfli","shower":"yes","stars":"3","toilets":"yes"}},"414879499":{"location":[47.2000257,9.3607462],"ct":"CH","tp":"CS","ts":"2023-07-02T13:42:24Z","tX":538,"tY":359,"tags":{"addr:city":"Wildhaus","addr:postcode":"9658","name":"Schafbergblick","operator":"WECA AG, Alois und Rita Wenk","website":"http://www.schafbergblick.ch/5101.html"}},"799424533":{"location":[47.0927728,9.2780026],"ct":"CH","tp":"CS","ts":"2024-12-19T12:35:15Z","tX":538,"tY":359,"tags":{"caravans":"yes","name":"Tannenbodenalp","opening_hours":"Oct-May 08:00-17:00","stars":"3"}},"1116210786":{"location":[47.2571613,9.3202114],"ct":"CH","tp":"CR","ts":"2023-01-09T15:58:14Z","tX":538,"tY":359,"tags":{"capacity:caravans":"11","fee":"yes","power_supply":"no","sanitary_dump_station":"no","website":"https://www.parknsleep.eu"}},"11348941282":{"location":[47.2501665,9.4096122],"ct":"CH","tp":"CS","ts":"2023-11-14T16:27:22Z","tX":538,"tY":359,"tags":{"access":"yes","caravans":"no","fee":"yes","name":"Fählenalp","operator":"Fählenalp","static_caravans":"no"}},"6429093541":{"location":[47.0730781,9.1975677],"ct":"CH","tp":"CR","ts":"2020-05-10T18:00:45Z","tX":538,"tY":359,"tags":{"name":"Bachlaui"}},"8890479443":{"location":[47.2292088,9.1979058],"ct":"CH","tp":"CR","ts":"2021-07-03T15:00:05Z","tX":538,"tY":359,"tags":{"fee":"yes","name":"Zwinglis Stellplatz","power_supply":"yes","sanitary_dump_station":"customers","website":"https://www.zwinglis.ch/"}},"8890479454":{"location":[47.2460072,9.1703795],"ct":"CH","tp":"CR","ts":"2024-03-30T20:43:15Z","tX":538,"tY":359,"tags":{"fee":"yes","name":"Wohnmobil-Stellplatz Parkplatz Wolzenalp","reservation":"required","website":"https://shop.e-guma.ch/wolzenalp/de/tickets/stellplatz-fuer-wohnmobile-3856383","website:booking":"https://shop.e-guma.ch/wolzenalp/de/tickets"}},"9051747217":{"location":[47.0469638,9.4339858],"ct":"CH","tp":"CR","ts":"2021-08-31T19:53:44Z","tX":538,"tY":359,"tags":{"capacity":"5","caravans":"yes","fee":"yes","opening_hours":"Jun 01-Oct 31 00:00-24:00; PH off","tents":"no"}},"9915337470":{"location":[47.1966807,9.3095168],"ct":"CH","tp":"CR","ts":"2024-04-03T18:56:42Z","tX":538,"tY":359,"tags":{"caravan_site":"motorhome_stopover","caravan_site:type":"village","caravans":"no","charge":"20.20 SFR","fee":"yes","name":"Wohnmobil-Stellplatz Unterwasser","power_supply":"yes","power_supply:capacity":"10","sanitary_dump_station":"yes","seasonal":"no","tents":"no","water_point":"yes","website":"https://womo-post-unterwasser.ch/"}},"9919013980":{"location":[47.1151574,9.21499],"ct":"CH","tp":"SD","ts":"2022-07-29T17:28:14Z","tX":538,"tY":359,"tags":{"access":"customers","fee":"no","sanitary_dump_station:chemical_toilet":"yes","sanitary_dump_station:grey_water":"no"}}}