{"214130605":{"location":[46.6069679,9.4261487],"ct":"CH","tp":"CS","ts":"2023-09-12T13:47:30Z","tX":538,"tY":361,"tags":{"capacity":"155","caravans":"yes","drinking_water":"yes","email":"camping.andeer@bluewin.ch","name":"Camping Andeer - Sut Baselgia","phone":"+41 81 661 14 53","power_supply":"yes","sanitary_dump_station":"yes","shower":"yes","stars":"3","tents":"yes","toilets":"yes","website":"https://www.campingandeer.ch/"}},"265500261":{"location":[46.7604615,9.144157],"ct":"CH","tp":"CS","ts":"2021-07-18T17:35:20Z","tX":538,"tY":361,"tags":{"addr:city":"Surcuolm-Obersaxen","addr:housenumber":"11","addr:postcode":"7138","addr:street":"Via Principala","capacity":"63","caravans":"yes","contact:website":"https://www.camping-surcuolm.ch/","dog":"yes","dryer":"yes","fee":"yes","name":"Camping Surcuolm","naturism":"no","power_supply":"yes","reservation":"yes","shower":"yes","start_date":"2005-12","tents":"yes","toilets":"yes","washing_machine":"yes","website":"http://camping-surcuolm.ch/"}},"438886348":{"location":[46.6997864,9.4450332],"ct":"CH","tp":"CS","ts":"2022-09-23T18:41:46Z","tX":538,"tY":361,"tags":{"addr:city":"Thusis","addr:housenumber":"3","addr:postcode":"7430","addr:street":"Pantunweg","caravans":"yes","drinking_water":"yes","email":"camping.thusis@tcs.ch","fee":"yes","name":"TCS Camping Thusis Viamala","operator":"Touring Club Schweiz","phone":"+41 81 651 24 72","power_supply":"yes","shower":"yes","tents":"yes","toilets":"yes"}},"438886349":{"location":[46.6502733,9.4481604],"ct":"CH","tp":"CS","ts":"2021-07-17T15:25:21Z","tX":538,"tY":361,"tags":{"addr:city":"Zillis-Rania","addr:postcode":"7432","addr:street":"Italienische Strasse","fee":"yes","name":"Rania","website":"https://www.campingrania.ch"}},"637616712":{"location":[46.7864977,9.2973022],"ct":"CH","tp":"CS","ts":"2021-05-23T15:37:50Z","tX":538,"tY":361,"tags":{"addr:city":"Valendas","addr:housenumber":"80","addr:postcode":"7122","addr:street":"Carrera","name":"Camping Carrera","operator":"Werner Stucki","website":"http://camping-carrera.ch/"}},"695087838":{"location":[46.5682554,9.4387467],"ct":"CH","tp":"CS","ts":"2022-05-31T09:36:08Z","tX":538,"tY":361,"tags":{"description":"fee 11.50 CHF/EUR","name":"Bodhi Camping","opening_hours":"Apr-Oct","power_supply":"no","reservation":"no","sanitary_dump_station":"customers","shower":"yes","toilets":"yes","website":"https://www.valferrera.com/bodhi-camping"}},"1099631965":{"location":[46.7777368,9.2140058],"ct":"CH","tp":"CR","ts":"2024-06-16T20:30:13Z","tX":538,"tY":361,"tags":{"access":"yes","capacity":"30","capacity:caravans":"30","fee":"no","internet_access":"no","parking":"surface","power_supply":"no","sanitary_dump_station":"yes","surface":"gravel"}},"1303001232":{"location":[46.7678251,9.2067939],"ct":"CH","tp":"CR","ts":"2024-07-22T05:46:07Z","tX":538,"tY":361,"tags":{}},"2928874309":{"location":[46.6070346,9.4257419],"ct":"CH","tp":"CR","ts":"2023-09-12T13:47:46Z","tX":538,"tY":361,"tags":{"name":"Camping Andeer","toilets":"yes"}},"4988741623":{"location":[46.708126,9.1530511],"ct":"CH","tp":"CS","ts":"2022-01-03T19:01:40Z","tX":538,"tY":361,"tags":{"access":"yes","addr:city":"Vattiz","addr:housenumber":"190a","addr:place":"Lag Davos Munts","addr:postcode":"7146","capacity":"100","caravans":"no","fee":"yes","internet_access":"wlan","name":"Zeltplatz Davos Munts","name:de":"Zeltplatz Davos Munts","name:rm":"Camping Davos Munts","nudism":"no","operator":"Mr. and Mrs. Capaul","reservation":"yes","tents":"yes","website":"https://davosmunts.ch/"}},"7796199045":{"location":[46.7083363,9.1550419],"ct":"CH","tp":"CS","ts":"2022-01-03T19:01:40Z","tX":538,"tY":361,"tags":{"access":"yes","addr:city":"Vattiz","addr:housenumber":"190a","addr:place":"Lag Davos Munts","addr:postcode":"7146","caravans":"yes","fee":"yes","internet_access":"wlan","name":"Camping Davos Munts","name:de":"Camping Davos Munts","name:rm":"Camping Davos Munts","nudism":"no","operator":"Mr. and Mrs. Capaul","reservation":"yes","tents":"no","website":"https://davosmunts.ch/"}},"8930993255":{"location":[46.7443385,9.1837141],"ct":"CH","tp":"CS","ts":"2024-11-17T18:48:59Z","tX":538,"tY":361,"tags":{"description":"Wildcamping","fee":"yes","name":"Camping Lumnezia","static_caravans":"no","website":"https://www.lumnezia.ch/de/tourismus/campieren-lumnezia"}},"8931043409":{"location":[46.7938641,9.1589329],"ct":"CH","tp":"CS","ts":"2021-07-18T18:18:35Z","tX":538,"tY":361,"tags":{"fee":"yes","name":"Wohnmobil-/Zeltstellplatz Tuf"}},"7767842088":{"location":[46.6095935,9.1735623],"ct":"CH","tp":"CR","ts":"2022-12-30T14:20:37Z","tX":538,"tY":361,"tags":{"name":"Vals (Talstation)","name:de":"Stellplatz Vals","sanitary_dump_station":"no"}},"8747425925":{"location":[46.6970463,9.385397],"ct":"CH","tp":"CR","ts":"2024-11-01T10:22:55Z","tX":538,"tY":361,"tags":{"capacity":"20","description":"Parkplatz Skilift, Sommerhalbjahr 1.5. - 31.10., ruhiger Stellplatz mit grandioser Aussicht.","fee":"CHF 24.-","name":"Stellplatz Oberurmein"}},"8747425926":{"location":[46.570129,9.3690785],"ct":"CH","tp":"CR","ts":"2022-05-30T17:52:44Z","tX":538,"tY":361,"tags":{"capacity":"6","description":"Wohnmobile dürfen ab 17 Uhr bis morgens 10 Uhr für CHF 25.- übernachten. Bei Dinner ab CHF 50.- entfällt die Parkgebühr.","email":"info@seeblick-sufers.ch","internet_access":"no","name":"Stellplatz Hotel Seeblick","phone":"+41 81 664 11 86","power_supply":"yes","sanitary_dump_station":"no","website":"https://www.seeblick-sufers.ch"}},"9033103727":{"location":[46.7627192,9.1453686],"ct":"CH","tp":"CR","ts":"2021-08-24T20:13:54Z","tX":538,"tY":361,"tags":{"name":"Stellplatz Mundauns, Surcuol"}},"9042275599":{"location":[46.77779,9.21414],"ct":"CH","tp":"CR","ts":"2023-11-08T02:03:58Z","tX":538,"tY":361,"tags":{"capacity":"20","description":"CHF 25.-","email":"info@schluein.ch","fee":"yes","name":"Stellplatz Schluein","power_supply":"yes","website":"https://www.schluein.ch/"}},"11866172581":{"location":[46.7228982,9.4040432],"ct":"CH","tp":"CR","ts":"2024-04-29T12:34:14Z","tX":538,"tY":361,"tags":{"addr:city":"Sarn","addr:postcode":"7423","addr:street":"Parkplatz Skilift Sarn-Lescha","description":"Die Stellplätze bei Sarn bieten auf verschiedenen Ebenen viel Platz und eine fantastische, unverbaubare Aussicht ins Tal und die gegenüberliegenden Bergketten.","email":"tomdietz@hotmail.ch","image":"https://img.oastatic.com/img2/85629929/max/variant.jpg?revbust=de522f32","mobile":"+41 79 290 47 86","name":"Wohnmobil-Stellplatz +plus+ Heinzenberg-Lescha","power_supply":"yes","sanitary_dump_station":"yes","website":"https://www.stellplatzplus-heinzenberg.ch/"}},"12098875645":{"location":[46.6388338,9.4162217],"ct":"CH","tp":"CR","ts":"2024-08-08T13:48:12Z","tX":538,"tY":361,"tags":{"addr:city":"Mathon","addr:housenumber":"1","addr:postcode":"7433","addr:street":"Laresch","name":"Stellplatz Muntsulej Mathon","sanitary_dump_station":"no"}},"12098883600":{"location":[46.6998032,9.4454787],"ct":"CH","tp":"CR","ts":"2024-08-08T13:53:07Z","tX":538,"tY":361,"tags":{"addr:city":"Thusis","addr:housenumber":"3","addr:postcode":"7430","addr:street":"Pantunweg","name":"Stellplatz TCS Camping Thusis","opening_hours":"Nur im Winter geöffnet. Im Sommer bitte auf den TCS Camping Thusis."}},"9028588056":{"location":[46.7778812,9.2143667],"ct":"CH","tp":"SD","ts":"2021-08-23T11:49:19Z","tX":538,"tY":361,"tags":{"description":"Sehr gute Infrastruktur und gute Anfahrt"}}}