{"76372370":{"location":[46.3296906,9.4328017],"ct":"IT","tp":"CS","ts":"2025-03-31T15:36:26Z","tX":538,"tY":362,"tags":{"addr:city":"Piuro","addr:housenumber":"1b","addr:postcode":"23020","addr:street":"Strada per Sant'Abbondio","capacity:pitches":"60","caravans":"yes","drinking_water":"yes","email":"info@campingacquafraggia.com","fee":"yes","motorcycle_friendly":"customary","name":"Camping Acquafraggia","opening_hours":"Mar 1-Nov 1","operator":"Guido Lisignoli","phone":"+39 0343 36755","power_supply":"yes","sanitary_dump_station":"yes","shower":"yes","tents":"yes","toilets":"yes","website":"http://www.campingacquafraggia.com/"}},"91518067":{"location":[46.4118864,9.3441572],"ct":"IT","tp":"CS","ts":"2022-01-24T23:19:13Z","tX":538,"tY":362,"tags":{"name":"Campodolcino Camping"}},"132374006":{"location":[46.5488955,9.3137994],"ct":"CH","tp":"CS","ts":"2024-06-29T18:04:32Z","tX":538,"tY":362,"tags":{"alt_name":"Auf dem Sand","caravans":"yes","drinking_water":"yes","email":"camping@spluegen.ch","internet_access":"wlan","internet_access:fee":"no","name":"Camping Splügen","opening_hours":"24/7","operator":"R. und D. Ardüser-Hardegger","phone":"+41 81 664 14 76","stars":"4","tents":"yes","website":"https://viamala.graubuenden.ch/camping-spluegen"}},"1051553187":{"location":[46.5259804,9.1879252],"ct":"CH","tp":"CR","ts":"2025-05-30T22:54:18Z","tX":538,"tY":362,"tags":{"addr:city":"Hinterrhein","addr:postcode":"7437","capacity:caravans":"4","caravan_site":"motorhome_stopover","internet_access":"no","power_supply":"no","sanitary_dump_station":"no","toilets":"yes"}},"1051554186":{"location":[46.5267552,9.1885561],"ct":"CH","tp":"CR","ts":"2025-05-30T22:54:18Z","tX":538,"tY":362,"tags":{"capacity":"4","capacity:caravans":"4","caravan_site":"motorhome_stopover","check_date":"2025-05-31","internet_access":"no","power_supply":"no","sanitary_dump_station":"no","toilets":"yes"}},"1057422382":{"location":[46.4629791,9.1873887],"ct":"CH","tp":"CR","ts":"2022-05-04T21:26:56Z","tX":538,"tY":362,"tags":{"capacity:caravans":"4","internet_access":"no","power_supply":"no","sanitary_dump_station":"no"}},"1065071477":{"location":[46.4673036,9.186706],"ct":"CH","tp":"CS","ts":"2022-12-26T20:48:07Z","tX":538,"tY":362,"tags":{"name":"San Bernardino"}},"7861880828":{"location":[46.4899262,9.3380503],"ct":"IT","tp":"CR","ts":"2024-08-31T19:04:43Z","tX":538,"tY":362,"tags":{"capacity":"10","fee":"yes","internet_access":"no","name":"Stellplatz Montespluga","power_supply":"no","sanitary_dump_station":"yes"}},"7942247362":{"location":[46.4898195,9.3377501],"ct":"IT","tp":"SD","ts":"2020-09-25T13:00:42Z","tX":538,"tY":362,"tags":{"access":"yes","fee":"no","water_point":"no"}},"8931001813":{"location":[46.4761746,9.4871802],"ct":"CH","tp":"CS","ts":"2021-10-17T08:16:49Z","tX":538,"tY":362,"tags":{"addr:city":"Cröt","addr:postcode":"7446","name":"Cröt Sägeplatz"}},"8614559838":{"location":[46.32981,9.21126],"ct":"CH","tp":"CR","ts":"2021-04-10T11:09:25Z","tX":538,"tY":362,"tags":{"capacity":"5","email":"kurispike@hotmail.com","fee":"CHF 20.- / 19.3. - 30.10.","name":"Stellplatz Lostallo","phone":"+41 78 843 74 11"}},"12098753298":{"location":[46.4525391,9.4797409],"ct":"CH","tp":"CR","ts":"2024-08-08T12:50:40Z","tX":538,"tY":362,"tags":{"addr:city":"Avers","addr:postcode":"7447","addr:street":"Val Madris","name":"Stellplatz Madris","sanitary_dump_station":"no"}},"12098771650":{"location":[46.4765506,9.4869626],"ct":"CH","tp":"CR","ts":"2024-08-08T12:36:30Z","tX":538,"tY":362,"tags":{"addr:city":"Avers","addr:place":"Cröt","addr:postcode":"7447","name":"Stellplatz Avers-Cröt","power_supply":"no","sanitary_dump_station":"no"}},"12098814997":{"location":[46.4811584,9.4573981],"ct":"CH","tp":"CR","ts":"2024-08-08T13:14:36Z","tX":538,"tY":362,"tags":{"addr:city":"Avers","addr:postcode":"7447","addr:street":"Valle di Lei","name":"Stellplatz Valle di Lei","power_supply":"no","sanitary_dump_station":"no"}}}