{"1746300":{"location":[46.1536342,9.3376979],"ct":"IT","tp":"CS","ts":"2025-05-31T16:36:22Z","tX":538,"tY":363,"tags":{"addr:city":"Domaso","addr:housenumber":"236","addr:street":"Via Case Sparse","camp_site":"serviced","caravans":"yes","contact:email":"info@campingsolarium.com","contact:phone":"+39 034496395","contact:website":"https://www.campingsolarium.com/","dog":"yes","fee":"yes","internet_access":"yes","internet_access:fee":"no","motorhome":"yes","name":"Camping Solarium","power_supply":"yes","power_supply:maxcurrent":"6","ref:cin":"IT013089B1FKMY7RF6","ref:vatin":"IT03740250133","reservation":"yes","tents":"yes"}},"1746301":{"location":[46.1542996,9.3376864],"ct":"IT","tp":"CS","ts":"2025-05-29T08:38:42Z","tX":538,"tY":363,"tags":{"addr:city":"Domaso","addr:country":"IT","addr:housenumber":"244","addr:postcode":"22013","addr:province":"CO","addr:street":"Via Case Sparse","camp_site":"deluxe","caravans":"yes","contact:facebook":"https://m.facebook.com/hotel.camping.levele/","contact:google_plus":"+Resortlevele","contact:twitter":"@campinglevele","contact:website":"https://www.resortlevele.com/","dog":"yes","email":"info@resortlevele.com","fee":"yes","motorhome":"yes","name":"Le vele","operator":"Holiday Services s.a.s.","phone":"+39 0344 965049","power_supply":"yes","ref:cin":"IT013089B1ID8QRB4D","ref:vatin":"IT02308620133","tents":"yes"}},"1748282":{"location":[46.1531609,9.3378876],"ct":"IT","tp":"CS","ts":"2025-05-29T08:38:42Z","tX":538,"tY":363,"tags":{"addr:city":"Domaso","addr:housenumber":"230","addr:street":"Via Case Sparse","camp_site":"serviced","caravans":"yes","contact:email":"info@campinggefara.it","contact:phone":"+39 0344 96163","contact:website":"http://www.campinggefara.it/","fee":"yes","motorhome":"yes","name":"Camping Gefara","ref:cin":"IT013089B144GHYZWX","ref:vatin":"IT03025820139","start_date":"1958","tents":"yes"}},"1749204":{"location":[46.1497835,9.3316607],"ct":"IT","tp":"CS","ts":"2025-05-29T09:07:02Z","tX":538,"tY":363,"tags":{"access":"private","addr:city":"Domaso","addr:housenumber":"18","addr:postcode":"22013","addr:street":"Via Case Sparse","cabins":"yes","camp_site":"deluxe","caravans":"yes","email":"info@hotelcampingeuropa.com","fee":"yes","internet_access":"wlan","motorhome":"yes","name":"Camping Europa","payment:cash":"yes","payment:credit_cards":"yes","phone":"+39 0344 96044","power_supply":"yes","ref:vatin":"IT02381740139","reservation":"yes","sanitary_dump_station":"yes","sanitary_dump_station:chemical_toilet":"yes","tents":"yes","website":"https://www.hotelcampingeuropa.com"}},"7418932":{"location":[46.1539302,9.3374901],"ct":"IT","tp":"CS","ts":"2025-05-29T08:22:07Z","tX":538,"tY":363,"tags":{"addr:city":"Domaso","addr:housenumber":"236/bis","addr:postcode":"22013","addr:street":"Via Case Sparse","caravans":"yes","contact:email":"%20info@campinggoldensheep.it","contact:mobile":"+39 351 5267731","contact:phone":"+39 351 5267731","contact:website":"https://www.campinggoldensheep.it/","contact:whatsapp":"+39 351 5267731","description":"Camping a conduzione famigliare con accesso diretto alla spiaggia","dog":"yes","fee":"yes","internet_access":"yes","internet_access:fee":"no","motorhome":"yes","name":"Camping Golden Sheep","power_supply":"yes","power_supply:maxcurrent":"6","ref:cin":"IT013089B1A2HIZ5HP","ref:vatin":"IT03556680134","reservation":"yes","shower":"hot","tents":"yes","washing_machine":"yes"}},"79120186":{"location":[46.1282857,9.2861104],"ct":"IT","tp":"CS","ts":"2023-07-15T10:10:42Z","tX":538,"tY":363,"tags":{"capacity:pitches":"100","caravans":"yes","email":"info@campingmiralago.com","motorhome":"yes","name":"Miralago","phone":"+39 0344 82816","shower":"yes","source":"Regione Lombardia - La banca dati territoriali CTR10000 Ã¨ prodotta da Regione Lombardia - Infrastruttura per l'Informazione Territoriale","start_date":"1958","tents":"yes","toilets":"yes","website":"https://www.campingmiralago.com/"}},"110403598":{"location":[46.1715114,9.385577],"ct":"IT","tp":"CS","ts":"2025-05-27T14:42:46Z","tX":538,"tY":363,"tags":{"addr:city":"Sorico","addr:housenumber":"2","addr:postcode":"22010","addr:street":"Via Don Antonio Pasini","caravans":"yes","contact:email":"campingboothill@gmail.com","contact:phone":"+39 3348018700","contact:website":"https://www.campingboothill.com/","dog":"yes","fee":"yes","internet_access":"yes","internet_access:fee":"no","motorhome":"yes","name":"Camping Boothill","tents":"yes"}},"124156174":{"location":[46.1712571,9.382554],"ct":"IT","tp":"CS","ts":"2025-05-27T14:42:46Z","tX":538,"tY":363,"tags":{"addr:city":"Sorico","addr:housenumber":"1","addr:street":"Via Torre","contact:phone":"+39 0344 84106","dog":"no","dryer":"yes","fee":"yes","internet_access":"yes","internet_access:fee":"no","name":"Camping La Torre","permanent_camping":"yes","power_supply":"yes","start_date":"1974","washing_machine":"yes","website":"https://www.campinglatorresorico.com/","wheelchair":"yes"}},"127110172":{"location":[46.0743862,9.2995245],"ct":"IT","tp":"CS","ts":"2024-09-17T19:14:32Z","tX":538,"tY":363,"tags":{"addr:city":"Dervio","caravans":"yes","fee":"yes","name":"Campeggio Tourisport","restaurant":"yes","shower":"yes","source":"UDB60","tents":"yes","toilets":"yes","website":"https://www.turisportdervio.it"}},"128839318":{"location":[46.1491169,9.3293947],"ct":"IT","tp":"CS","ts":"2025-05-29T09:07:02Z","tX":538,"tY":363,"tags":{"cabins":"yes","caravans":"yes","contact:email":"info@campingmadonnina.com","contact:phone":"+39 339 1706168","contact:website":"https://www.campingmadonnina.com/","dog":"yes","fee":"yes","internet_access":"yes","internet_access:fee":"no","motorhome":"yes","name":"Camping Madonnina","power_supply":"yes","power_supply:maxcurrent":"3:6","ref:cin":"IT013089B18Y9HO7BZ","tents":"yes","washing_machine":"yes"}},"176050997":{"location":[46.1498865,9.3324478],"ct":"IT","tp":"CS","ts":"2025-05-29T09:07:02Z","tX":538,"tY":363,"tags":{"barrier":"fence","cabins":"y","camp_site":"serviced","caravans":"yes","dog":"yes","email":"info@campeggioparadiso.it;campeggio.paradiso@gmail.it","fax":"+39-0344-83470","fee":"yes","motorhome":"yes","name":"Paradiso","permanent_camping":"yes","phone":"+39-0344-83470","reservation":"yes","shower":"yes","tents":"yes","toilets":"yes","washing_machine":"yes","website":"https://www.campeggioparadiso.it/"}},"184068517":{"location":[46.1422877,9.3748829],"ct":"IT","tp":"CR","ts":"2025-05-27T15:37:42Z","tX":538,"tY":363,"tags":{"addr:city":"Colico","addr:housenumber":"27","addr:street":"Via Montecchio Nord","area":"yes","capacity":"25","contact:email":"info@ontano.net","contact:phone":"+39 0341 941782","contact:website":"https://ontano.net/","drinking_water":"yes","name":"L'Ontano camper area","power_supply":"yes","sanitary_dump_station":"yes","shower":"hot","source":"bing","toilets":"yes"}},"219531088":{"location":[46.0890792,9.2793434],"ct":"IT","tp":"CS","ts":"2025-06-03T09:58:24Z","tX":538,"tY":363,"tags":{"camp_site":"serviced","capacity:caravans":"35","caravans":"yes","contact:phone":"+39 0344 86244","contact:website":"https://campeggioaurora.it/","fee":"yes","motorhome":"yes","name":"Camping Aurora","power_supply":"yes","tents":"yes"}},"223594720":{"location":[46.1322622,9.2893014],"ct":"IT","tp":"CS","ts":"2017-10-13T10:24:14Z","tX":538,"tY":363,"tags":{"name":"Campeggio Alla Vigna del Lago"}},"228731697":{"location":[46.1504217,9.3344361],"ct":"IT","tp":"CS","ts":"2025-05-29T09:07:02Z","tX":538,"tY":363,"tags":{"addr:city":"Domaso","addr:housenumber":"108","addr:street":"Via Case Sparse","contact:email":"info@campoverde-domaso.com","contact:website":"https://campoverde-domaso.com/","name":"Campo Verde"}},"228731699":{"location":[46.1507536,9.3353923],"ct":"IT","tp":"CS","ts":"2025-05-29T09:15:28Z","tX":538,"tY":363,"tags":{"addr:housenumber":"132","addr:street":"Via Case Sparse","camp_site":"reception","caravans":"yes","contact:website":"https://www.campingdeserto.com/","dog":"no","fee":"yes","internet_access":"wlan","internet_access:fee":"yes","name":"Camping Deserto","power_supply":"yes","power_supply:maxcurrent":"3;6","ref:cin":"IT013089B1KM8RQIL7","ref:vatin":"IT02131270130","stars":"3","start_date":"1960","tents":"no"}},"228732005":{"location":[46.151155,9.3361303],"ct":"IT","tp":"CS","ts":"2025-05-29T09:07:02Z","tX":538,"tY":363,"tags":{"addr:city":"Domaso","addr:housenumber":"140","addr:street":"Via Case Sparse","camp_site":"deluxe","caravans":"yes","contact:email":"info@campingitalia90.it","contact:phone":"+39 339 2352759","contact:website":"https://campingitalia90.it/","dog":"yes","internet_access":"yes","internet_access:fee":"no","motorhome":"yes","name":"Camping Italia '90","ref:cin":"IT013089B1N55SIOTB","ref:vatin":"IT04102190131","tents":"yes"}},"228733935":{"location":[46.1523351,9.3371651],"ct":"IT","tp":"CS","ts":"2025-05-29T08:38:42Z","tX":538,"tY":363,"tags":{"addr:city":"Domaso","addr:street":"Via Case Sparse","caravans":"yes","contact:email":"info@piccolocamping.com","contact:phone":"+39 0344 96247","contact:website":"https://www.piccolocamping.com/","dog":"yes","drinking_water":"yes","fee":"yes","internet_access":"yes","name":"Piccolo Camping","power_supply":"yes","power_supply:maxcurrent":"4;6","ref:cin":"IT013089B1XWGK2VCY","ref:vatin":"02094490139","shower":"yes","tents":"yes","toilets":"yes","washing_machine":"yes"}},"228733942":{"location":[46.1513424,9.3367018],"ct":"IT","tp":"CS","ts":"2025-05-29T09:07:02Z","tX":538,"tY":363,"tags":{"addr:city":"Domaso","addr:housenumber":"164","addr:street":"Via Case Sparse","camp_site":"serviced","capacity:caravans":"91","caravans":"yes","contact:email":"info@campingdomaso.com","contact:phone":"+39 344 96262","contact:website":"https://www.campingdomaso.com/","dog":"yes","fee":"yes","internet_access":"yes","internet_access:fee":"no","motorhome":"yes","name":"Camping Gardenia","opening_hours":"Mo-Th, Sa, Su 08:00-21:00; Fr 08:00-22:00","power_supply":"yes","power_supply:maxcurrent":"4;6","ref:cin":"IT013089B16CA6Z4IY","ref:vatin":"IT01159370137","reservation":"yes","tents":"yes","wheelchair":"yes"}},"233528495":{"location":[46.1362926,9.2933231],"ct":"IT","tp":"CS","ts":"2025-06-03T09:08:46Z","tX":538,"tY":363,"tags":{"addr:city":"Gravedona ed Uniti","addr:housenumber":"17","addr:postcode":"22015","addr:street":"Via alla Poncia","caravans":"yes","contact:email":"info@campingideal.eu","contact:phone":"+39 0344 80101","contact:website":"https://campingideal.eu/","dog":"yes","fee":"yes","internet_access":"yes","internet_access:fee":"no","motorhome":"yes","name":"Camping Ideal","power_supply":"yes","power_supply:maxcurrent":"4","ref:cin":"IT013249B1DM8RN6LX","ref:vatin":"IT03874640133","reservation":"yes","shower":"yes","socket:cee_blue":"yes","tents":"yes","toilets":"yes","washing_machine":"yes"}},"247056483":{"location":[46.1183464,9.3462919],"ct":"IT","tp":"CS","ts":"2023-03-12T13:03:53Z","tX":538,"tY":363,"tags":{"addr:street":"Via Palazzo","caravans":"yes","email":"campingpiona@libero.it","internet_access":"wlan","name":"Piona","phone":"+39 0341 940173","shower":"yes","tents":"yes","toilets":"yes","website":"http://www.campingpiona.com/"}},"247056485":{"location":[46.1215814,9.3475641],"ct":"IT","tp":"CS","ts":"2023-03-20T20:28:26Z","tX":538,"tY":363,"tags":{"cabins":"yes","caravans":"yes","name":"Green Village","phone":"+39 0341 940248","shower":"yes","tents":"yes","toilets":"yes","website":"http://www.greenvillageitaly.com"}},"304581485":{"location":[46.1647845,9.3798921],"ct":"IT","tp":"CS","ts":"2025-05-27T15:34:30Z","tX":538,"tY":363,"tags":{"addr:city":"Sorico","addr:housenumber":"193","addr:street":"Via Boschetto","caravans":"yes","contact:email":"info@lagrandequiete.com","contact:phone":"+39 034484743","contact:website":"https://www.lagrandequiete.com","dog":"yes","drinking_water":"yes","name":"La Grande Quiete","power_supply":"yes","ref:cin":"IT013216B1B8G6PNX2","sanitary_dump_station":"yes","shower":"yes","tents":"yes","toilets":"yes"}},"312038928":{"location":[46.3110682,9.2001502],"ct":"CH","tp":"CS","ts":"2024-06-24T04:46:35Z","tX":538,"tY":363,"tags":{"caravans":"yes","drinking_water":"no","internet_access":"no","name":"Camping Lostallo","power_supply":"no","shower":"no","tents":"yes","toilets":"no","wheelchair":"yes"}},"326153161":{"location":[46.1234924,9.3475716],"ct":"IT","tp":"CS","ts":"2025-05-29T10:33:51Z","tX":538,"tY":363,"tags":{"addr:city":"Colico","addr:country":"IT","addr:housenumber":"5","addr:place":"Laghetto","addr:postcode":"23823","addr:province":"Lecco","addr:street":"Via Logasc","caravans":"yes","description":"Consigliato seguire le indicazioni del Sito e non del navigatore per arrivare al campeggio","dog":"yes","email":"info@logasc.com","name":"Agricampeggio El Logasc","phone":"+39 3477886293","power_supply":"yes","power_supply:maxcurrent":"2","shower":"yes","tents":"yes","toilets":"yes","website":"http://www.logasc.com"}},"329337638":{"location":[46.1360158,9.3642081],"ct":"IT","tp":"CS","ts":"2025-05-27T15:44:04Z","tX":538,"tY":363,"tags":{"addr:city":"Colico","addr:housenumber":"4","addr:street":"Via Lungolario Polti","contact:email":"lidocolico@tiscalinet.it","contact:phone":"+39 3280333201","contact:website":"https://www.lidocolico.it/","name":"Area Camper Lido di Colico"}},"336744693":{"location":[46.1359676,9.360493],"ct":"IT","tp":"CS","ts":"2025-05-27T15:44:04Z","tX":538,"tY":363,"tags":{"caravans":"yes","contact:email":"lidocolico@tiscalinet.it","contact:phone":"+39 3280333201","contact:website":"https://www.lidocolico.it/","drinking_water":"yes","name":"Lido di Colico","tents":"no"}},"410106259":{"location":[46.151459,9.3366755],"ct":"IT","tp":"CR","ts":"2016-04-13T21:57:34Z","tX":538,"tY":363,"tags":{"operator":"Camping Gardenia"}},"427691491":{"location":[46.1347398,9.262211],"ct":"IT","tp":"CR","ts":"2009-06-21T19:13:02Z","tX":538,"tY":363,"tags":{}},"487062413":{"location":[46.1329537,9.2891544],"ct":"IT","tp":"CS","ts":"2017-04-15T21:12:54Z","tX":538,"tY":363,"tags":{"name":"Camping Panorama"}},"487062414":{"location":[46.1318541,9.2895655],"ct":"IT","tp":"CS","ts":"2017-04-15T21:12:54Z","tX":538,"tY":363,"tags":{"name":"Magiclake"}},"500966166":{"location":[46.2103319,9.4552799],"ct":"IT","tp":"CS","ts":"2022-04-14T17:06:36Z","tX":538,"tY":363,"tags":{"name":"El Ranchero","website":"https://www.elrancherocamping.it"}},"507510119":{"location":[46.1710277,9.3789652],"ct":"IT","tp":"CS","ts":"2025-05-27T14:46:57Z","tX":538,"tY":363,"tags":{"caravans":"yes","contact:website":"https://aulacdecomo.it/","drinking_water":"yes","name":"Camping Au lac de Como","power_supply":"yes","reservation":"yes","sanitary_dump_station":"yes","shower":"yes","tents":"yes","toilets":"yes"}},"507510496":{"location":[46.1711628,9.376552],"ct":"IT","tp":"CS","ts":"2022-04-14T16:57:27Z","tX":538,"tY":363,"tags":{"name":"Camping Belvedere","website":"http://www.campeggiobelvedere.com"}},"530396594":{"location":[46.1517479,9.3366153],"ct":"IT","tp":"CS","ts":"2025-05-29T08:38:42Z","tX":538,"tY":363,"tags":{"capacity:caravans":"94","caravans":"yes","contact:email":"info@domasocamping.com","contact:phone":"+39.0344.97418","contact:website":"https://domasocamping.com/","contact:whatsapp":"+39 329 275 0042","dog":"yes","fee":"yes","internet_access":"yes","internet_access:fee":"no","motorhome":"yes","name":"North Wind","ref:vatin":"IT03320000130","reservation":"yes","tents":"yes"}},"601317597":{"location":[46.1706018,9.3931304],"ct":"IT","tp":"CS","ts":"2024-10-26T13:12:19Z","tX":538,"tY":363,"tags":{"caravans":"yes","drinking_water":"yes","name":"Campeggio La Riva","power_supply":"yes","sanitary_dump_station":"yes","shower":"yes","tents":"yes","toilets":"yes","website":"https://www.campinglariva.com/"}},"601317679":{"location":[46.1711424,9.3934841],"ct":"IT","tp":"CS","ts":"2019-07-24T08:43:05Z","tX":538,"tY":363,"tags":{"name":"Campeggio Poncione","website":"https://www.pitchup.com/campsites/italy/lombardia/como/sorico/campeggio_poncione/"}},"791008886":{"location":[46.2443395,9.4767576],"ct":"IT","tp":"CS","ts":"2020-04-12T12:40:11Z","tX":538,"tY":363,"tags":{"access":"private","name":"Base Scout - La Centralina"}},"1098294045":{"location":[46.1245271,9.3466978],"ct":"IT","tp":"CR","ts":"2024-12-11T15:12:44Z","tX":538,"tY":363,"tags":{"caravans":"yes","charge":"5 EUR/24h","fee":"yes","opening_hours":"Mo-Su 09:00-20:00","parking":"surface","power_supply":"no","sanitary_dump_station":"no","toilets":"no"}},"1189806875":{"location":[46.1256526,9.2846693],"ct":"IT","tp":"CS","ts":"2023-07-15T10:01:12Z","tX":538,"tY":363,"tags":{"addr:city":"Dongo","addr:housenumber":"19","addr:postcode":"22014","addr:street":"Via Cimitero","caravans":"yes","contact:email":"info@campinglabreva.com","contact:facebook":"https://www.facebook.com/pg/CampeggioLaBreva","contact:instagram":"https://www.instagram.com/campinglabreva/","contact:whatsapp":"+39 338 906 0099","mobile":"+39 338 906 0099","name":"La Breva","phone":"+39 0344 80017","shower":"yes","tents":"yes","toilets":"yes","website":"https://www.campinglabreva.com/"}},"1390654612":{"location":[46.1517891,9.3372698],"ct":"IT","tp":"CS","ts":"2025-05-29T08:44:31Z","tX":538,"tY":363,"tags":{"name":"Alto Lario","name:de":"Residenz Geranio"}},"1893805533":{"location":[46.1002876,9.2767951],"ct":"IT","tp":"CS","ts":"2022-10-13T07:56:58Z","tX":538,"tY":363,"tags":{"caravans":"yes","name":"Mec","tents":"yes"}},"1893805542":{"location":[46.0993056,9.2768273],"ct":"IT","tp":"CS","ts":"2012-09-01T20:07:46Z","tX":538,"tY":363,"tags":{"name":"Laguna Beach"}},"6822599885":{"location":[46.1520137,9.3369256],"ct":"IT","tp":"CS","ts":"2019-09-25T12:27:35Z","tX":538,"tY":363,"tags":{"name":"Alto Lario","name:de":"Residenz Geranio"}},"5618994722":{"location":[46.2109293,9.449221],"ct":"IT","tp":"CR","ts":"2018-05-15T06:41:26Z","tX":538,"tY":363,"tags":{"addr:street":"Via al Lido","name":"Via al Lido","name:it":"Novate Mezzola"}},"4296699403":{"location":[46.3142249,9.3962663],"ct":"IT","tp":"SD","ts":"2016-07-11T15:44:51Z","tX":538,"tY":363,"tags":{"access":"yes","fee":"no","opening_hours":"24/7","sanitary_dump_station:basin":"yes","sanitary_dump_station:round_drain":"yes"}},"5046838235":{"location":[46.1539994,9.3364637],"ct":"IT","tp":"SD","ts":"2017-08-20T20:19:44Z","tX":538,"tY":363,"tags":{}},"6644654795":{"location":[46.1705028,9.3922982],"ct":"IT","tp":"SD","ts":"2019-07-24T20:02:56Z","tX":538,"tY":363,"tags":{}},"12872719459":{"location":[46.1515439,9.3369799],"ct":"IT","tp":"SD","ts":"2025-05-29T08:38:42Z","tX":538,"tY":363,"tags":{"access":"customers","water_point":"yes"}}}