{"35148790":{"location":[45.7798724,9.1586525],"ct":"IT","tp":"CS","ts":"2024-09-09T13:34:42Z","tX":538,"tY":365,"tags":{"caravans":"yes","drinking_water":"yes","name":"Camping Montorfano","shower":"yes","source":"Regione Lombardia - La banca dati territoriali CTR10000 è prodotta da Regione Lombardia - Infrastruttura per l'Informazione Territoriale","stars":"2","tents":"yes","website":"https://www.campingmontorfano.it/"}},"35148792":{"location":[45.8172155,9.3425906],"ct":"IT","tp":"CS","ts":"2023-04-29T10:13:03Z","tX":538,"tY":365,"tags":{"caravans":"yes","name":"Campeggio 2 Laghi","power_supply":"yes","shower":"yes","tents":"yes","toilets":"yes","wheelchair":"yes"}},"186926958":{"location":[45.7979452,9.2530986],"ct":"IT","tp":"CS","ts":"2018-04-08T09:41:33Z","tX":538,"tY":365,"tags":{"addr:street":"Via Cascina Gera","email":"info@campingclass.it","name":"Camping Class","phone":"+39 031 3338599","stars":"3"}},"187096694":{"location":[45.815799,9.4005605],"ct":"IT","tp":"CR","ts":"2018-04-26T10:18:58Z","tX":538,"tY":365,"tags":{"name":"Camping Riviera"}},"187151192":{"location":[45.7953489,9.4165978],"ct":"IT","tp":"CR","ts":"2024-08-31T20:20:20Z","tX":538,"tY":365,"tags":{"capacity:caravans":"39","fee":"yes","name":"Piazza 18 agosto 1909","opening_hours":"Mo-We, Sa, Su 00:00-00:00; Th 00:00-16:00; Fr 14:00-00:00","power_supply":"yes;used","sanitary_dump_station":"yes","surface":"paved","water_supply":"yes"}},"221129030":{"location":[45.630892,9.2883831],"ct":"IT","tp":"CR","ts":"2024-11-21T07:32:08Z","tX":538,"tY":365,"tags":{"fee":"no","name":"Parcheggio Palarovagnati","parking":"surface","surface":"asphalt"}},"231259556":{"location":[45.623738,9.280532],"ct":"IT","tp":"CS","ts":"2021-07-17T20:06:50Z","tX":538,"tY":365,"tags":{"addr:city":"Monza","addr:postcode":"20900","email":"segreteria@campeggiomonza.it","name":"Camping Autodromo","phone":"+39 339 2665529","website":"https://www.monzacamping.it/"}},"236839651":{"location":[45.8211949,9.415112],"ct":"IT","tp":"CS","ts":"2019-03-24T14:47:53Z","tX":538,"tY":365,"tags":{"addr:city":"Lecco","addr:housenumber":"35","addr:postcode":"23900","addr:street":"Via Alla Spiaggia","fee":"yes","name":"Rivabella","phone":"+39 341 421143","website":"https://www.rivabellalecco.it/"}},"492955247":{"location":[45.623077,9.1794245],"ct":"IT","tp":"CR","ts":"2017-05-12T08:04:55Z","tX":538,"tY":365,"tags":{}},"492965348":{"location":[45.6253339,9.1823562],"ct":"IT","tp":"CR","ts":"2017-05-12T08:45:09Z","tX":538,"tY":365,"tags":{}},"561753676":{"location":[45.7130435,9.4186475],"ct":"IT","tp":"CR","ts":"2024-09-10T19:09:04Z","tX":538,"tY":365,"tags":{"barrier":"fence","capacity":"8","caravans":"no","charge":"15€ / 24h","fee":"yes","fence_type":"split_rail","operator":"Citta di Merate","power_supply":"yes","sanitary_dump_station":"yes","tents":"no","wheelchair":"yes"}},"1006291300":{"location":[45.819266,9.4174818],"ct":"IT","tp":"CS","ts":"2021-11-25T22:15:22Z","tX":538,"tY":365,"tags":{}},"1008202555":{"location":[45.802861,9.3563022],"ct":"IT","tp":"CS","ts":"2022-02-05T18:29:10Z","tX":538,"tY":365,"tags":{"addr:city":"Oggiono","addr:housenumber":"21","addr:postcode":"23848","addr:street":"Via Dante Alighieri","area":"yes","fax":"+390341577143","name":"Campeggio Quattro Stagioni","phone":"+390341577022","website":"https://www.campeggio4stagioni.com/"}},"2485519945":{"location":[45.8154147,9.399638],"ct":"IT","tp":"CS","ts":"2016-05-12T15:38:10Z","tX":538,"tY":365,"tags":{"addr:city":"Garlate","addr:housenumber":"113","addr:postcode":"23852","addr:street":"Via Foppaola","fee":"yes","name":"Camping Riviera","phone":"+39 341 680346","website":"http://www.campingvillageriviera.com/"}},"12113238571":{"location":[45.6168072,9.2991677],"ct":"IT","tp":"CS","ts":"2024-08-15T20:12:13Z","tX":538,"tY":365,"tags":{"name":"Base scout - Area tende 1"}},"12113238572":{"location":[45.6169026,9.2980362],"ct":"IT","tp":"CS","ts":"2024-08-15T20:12:13Z","tX":538,"tY":365,"tags":{"name":"Base scout - Area tende 2"}},"12113273393":{"location":[45.5922832,9.2873401],"ct":"IT","tp":"CS","ts":"2024-08-15T20:36:28Z","tX":538,"tY":365,"tags":{"group_only":"yes","name":"Base scout - Area tende"}},"12361106110":{"location":[45.6310312,9.2886532],"ct":"IT","tp":"SD","ts":"2024-11-21T07:32:08Z","tX":538,"tY":365,"tags":{"access":"yes","fee":"no","water_point":"yes"}},"12628125450":{"location":[45.7766342,9.4524865],"ct":"IT","tp":"CR","ts":"2025-03-01T10:29:41Z","tX":538,"tY":365,"tags":{"capacity":"2","charge":"6 EUR","fee":"yes","internet_access":"no","name":"Area Camper","power_supply":"yes","sanitary_dump_station":"yes"}},"12703069298":{"location":[45.7994664,9.2515947],"ct":"IT","tp":"SD","ts":"2025-03-26T16:34:04Z","tX":538,"tY":365,"tags":{"sanitary_dump_station:chemical_toilet":"no","sanitary_dump_station:fee":"no","sanitary_dump_station:gravity":"yes","sanitary_dump_station:grey_water":"yes","sanitary_dump_station:suction":"no"}}}