{"35146342":{"location":[44.7757184,9.2539752],"ct":"IT","tp":"CS","ts":"2024-08-31T07:12:01Z","tX":538,"tY":369,"tags":{"barrier":"fence","cabins":"yes","caravans":"yes","dog":"yes","motorhome":"yes","name":"Campeggio Alta Valle Staffora","phone":"+39 0383 551939","power_supply":"yes","power_supply:maxcurrent":"3;6","shower":"yes","socket:cee_blue":"yes","tents":"yes","toilets":"yes","website":"https://info459743.wixsite.com/campeggiostaffora"}},"221752163":{"location":[44.7959398,9.4176208],"ct":"IT","tp":"CS","ts":"2023-11-07T00:11:49Z","tX":538,"tY":369,"tags":{"access":"customers","fee":"yes","name":"Ponte Barberino","website":"https://www.campeggiopontebarberino.com/"}},"227852258":{"location":[44.7654975,9.1536844],"ct":"IT","tp":"CS","ts":"2013-06-28T20:58:35Z","tX":538,"tY":369,"tags":{"name":"Camping Val Curone"}},"343534933":{"location":[44.7620442,9.3840448],"ct":"IT","tp":"CR","ts":"2024-03-27T15:36:42Z","tX":538,"tY":369,"tags":{"addr:city":"Bobbio","addr:street":"Strada Statale di Val Trebbia","capacity":"50","capacity:caravans":"40","fee":"yes","internet_access":"no","name":"Area camper Bobbio","operator":"Comune","power_supply":"yes","sanitary_dump_station":"yes","tents":"no"}},"428767200":{"location":[44.7237816,9.1492564],"ct":"IT","tp":"CS","ts":"2024-08-31T08:27:56Z","tX":538,"tY":369,"tags":{"cabins":"yes","caravans":"yes","dog":"yes","fee":"yes","motorhome":"yes","name":"Camping Lino","phone":"+39346 3807603","power_supply":"yes","shower":"yes","socket:cee_blue":"yes","tents":"yes","toilets":"yes","website":"http://www.linocamping.it/index.htm"}},"433050867":{"location":[44.7510976,9.381701],"ct":"IT","tp":"CS","ts":"2024-08-31T03:12:32Z","tX":538,"tY":369,"tags":{"caravans":"yes","dog":"yes","fee":"yes","motorhome":"yes","name":"Camping Pontegobbo","power_supply":"yes","shower":"yes","socket:cee_blue":"yes","tents":"yes","toilets":"yes","website":"https://www.campingpontegobbo.com/"}},"1287370652":{"location":[44.6714637,9.3613868],"ct":"IT","tp":"CS","ts":"2024-10-02T07:01:39Z","tX":538,"tY":369,"tags":{"addr:city":"Cerignale","addr:postcode":"29020","addr:street":"Via Aldo Moro","cabins":"yes","caravans":"yes","email":"armando.fiocchini@gmail.com","fee":"yes","motorhome":"yes","name":"Camping Le Piane","reservation":"yes","tents":"yes","website":"https://www.campinglepiane.it/"}},"1353735194":{"location":[44.6964121,9.2606212],"ct":"IT","tp":"CS","ts":"2024-08-31T08:35:37Z","tX":538,"tY":369,"tags":{"addr:city":"Brallo di Pregola","addr:postcode":"27050","addr:street":"Fraz. Piani Di Lesima","caravans":"yes","motorhome":"yes","name":"Agriturismo Sulla Via Del Sale","tents":"yes","washing_machine":"yes","website":"https://www.sullaviadelsale.it/"}},"4229637298":{"location":[44.6363801,9.4903716],"ct":"IT","tp":"CS","ts":"2016-06-07T07:05:14Z","tX":538,"tY":369,"tags":{"capacity":"10","description":"Quite place without shadow","fee":"yes","name":"Rocca dei Folli Village"}}}