{"26859642":{"location":[44.3580599,9.2099893],"ct":"IT","tp":"CS","ts":"2023-11-07T18:31:52Z","tX":538,"tY":370,"tags":{"addr:housenumber":"10","addr:postcode":"16035","addr:street":"Via Savagna","name":"Miraflores","website":"https://www.campingmiraflores.it/"}},"430790711":{"location":[44.583096,9.2734081],"ct":"IT","tp":"CS","ts":"2024-08-31T08:40:23Z","tX":538,"tY":370,"tags":{"addr:city":"Rovegno","addr:housenumber":"17","addr:street":"Via alla Baracchina","cabins":"yes","caravans":"yes","dog":"yes","email":"info@campeggiofontanelle.it","fee":"yes","motorhome":"yes","name":"Camping le Fontanelle","phone":"+39 010 955114","power_supply":"yes","socket:cee_blue":"yes","tents":"yes","website":"https://www.campeggiolefontanelle.it/"}},"531149858":{"location":[44.3511893,9.3556671],"ct":"IT","tp":"CS","ts":"2023-11-07T18:31:25Z","tX":538,"tY":370,"tags":{"name":"Parco vacanze Paradiso","website":"https://www.parcovacanzeparadiso.it/"}},"792293094":{"location":[44.3570579,9.1996342],"ct":"IT","tp":"CS","ts":"2023-11-07T18:31:26Z","tX":538,"tY":370,"tags":{"email":"campingrapallo@libero.it","name":"Rapallo","phone":"+39 0185 262018","website":"https://www.campingrapallo.it/"}},"870771137":{"location":[44.5167421,9.1602008],"ct":"IT","tp":"CR","ts":"2024-08-31T08:44:40Z","tX":538,"tY":370,"tags":{"name":"Area camper Torriglia"}},"8902036732":{"location":[44.5039587,9.4091999],"ct":"IT","tp":"CS","ts":"2021-07-07T20:50:46Z","tX":538,"tY":370,"tags":{"camp_site":"standard","operator":"Albergo delle Lame"}},"4752395803":{"location":[44.3414911,9.174834],"ct":"IT","tp":"CR","ts":"2017-03-24T08:52:41Z","tX":538,"tY":370,"tags":{}},"9782458022":{"location":[44.5493492,9.4553202],"ct":"IT","tp":"CR","ts":"2025-02-06T17:57:02Z","tX":538,"tY":370,"tags":{"name":"AREA ATTREZZATA PER CAMPER"}}}