{"14595331":{"location":[44.2401173,9.4854397],"ct":"IT","tp":"CS","ts":"2024-09-04T06:21:12Z","tX":538,"tY":371,"tags":{"addr:city":"Moneglia","addr:housenumber":"1","addr:place":"Località La Secca","addr:postcode":"16030","camp_site":"reception","caravans":"yes","dog":"leashed","email":"la.secca@alice.it","name":"Camping La Secca","operator":"di de Franchi Roberto","phone":"+39 0185 49441","power_supply":"yes","power_supply:maxcurrent":"3","socket:cee_blue":"yes","tents":"yes","website":"https://www.camping-la-secca.com"}},"293014859":{"location":[44.3016827,9.3591738],"ct":"IT","tp":"CS","ts":"2024-09-16T19:20:11Z","tX":538,"tY":371,"tags":{"caravans":"yes","name":"Lo Scoglio","phone":"+39 0185 395738","stars":"2","tents":"yes","website":"https://www.parcovacanzeloscoglio.it/"}},"324950042":{"location":[44.2721921,9.426832],"ct":"IT","tp":"CS","ts":"2024-12-12T09:09:24Z","tX":538,"tY":371,"tags":{"access":"permissive","addr:city":"Sestri Levante","addr:housenumber":"111","addr:postcode":"16039","addr:street":"Via Sara","caravans":"yes","fee":"yes","name":"Tigullio Camping & Resort ****","payment:cash":"yes","payment:contactless":"yes","payment:credit_cards":"yes","payment:debit_cards":"yes","payment:maestro":"yes","payment:mastercard":"yes","payment:visa":"yes","phone":"+39 0185 485495","source":"Local Knowledge;owner","static_caravans":"yes","tents":"yes"}},"333063281":{"location":[44.2579405,9.4915943],"ct":"IT","tp":"CS","ts":"2023-10-16T12:27:58Z","tX":538,"tY":371,"tags":{"name":"camping oasi"}},"446693619":{"location":[44.2821847,9.3912696],"ct":"IT","tp":"CS","ts":"2024-09-16T19:24:03Z","tX":538,"tY":371,"tags":{"access":"yes","addr:city":"Sestri Levante","addr:housenumber":"390","addr:postcode":"16039","addr:street":"Via Antica Romana Occidentale","caravans":"yes","fee":"yes","name":"SantAnna Camping al Mare","payment:cash":"yes","payment:credit_cards":"yes","payment:debit_cards":"yes","payment:maestro":"yes","payment:mastercard":"yes","payment:visa":"yes","phone":"+39 018543924","tents":"yes","website":"https://www.campingsantanna.com"}},"952734218":{"location":[44.2390044,9.4781728],"ct":"IT","tp":"CS","ts":"2024-09-04T06:53:44Z","tX":538,"tY":371,"tags":{"addr:city":"Moneglia","addr:postcode":"16030","addr:street":"Località Preata","area":"yes","caravans":"yes","email":"info@villaggiosmeraldo.it","fee":"yes","name":"Smeraldo","payment:cash":"yes","payment:credit_cards":"yes","payment:debit_cards":"yes","phone":"+39 0185 49375","power_supply":"yes","shower":"yes","socket:cee_blue":"yes","tents":"yes","toilets":"yes","website":"http://www.villaggiosmeraldo.it"}},"1306674193":{"location":[44.2641783,9.4420402],"ct":"IT","tp":"CS","ts":"2024-08-09T20:17:48Z","tX":538,"tY":371,"tags":{"name":"Camping Mare Monti","name:en":"Camping Mare Monti","name:it":"Camping Mare Monti"}},"1306677627":{"location":[44.2665873,9.4346084],"ct":"IT","tp":"CS","ts":"2024-08-09T20:44:31Z","tX":538,"tY":371,"tags":{"name":"Campeggio Trigoso"}},"1313064103":{"location":[44.2893148,9.4269282],"ct":"IT","tp":"CS","ts":"2024-09-03T16:05:40Z","tX":538,"tY":371,"tags":{"addr:city":"Sestri Levante","addr:postcode":"16039","addr:street":"Via Villa Rocca","area":"yes","cabins":"yes","caravans":"yes","dog":"yes","fee":"yes","fixme":"Area poco precisa","motorhome":"yes","name":"Camping Santa Vittoria","phone":"+39 0185409204","power_supply:maxcurrent":"3","shower":"yes","socket:cee_blue":"yes","tents":"yes","toilets":"yes","website":"https://www.campingsantavittoria.com/"}},"5012938088":{"location":[44.2580387,9.4326795],"ct":"IT","tp":"CS","ts":"2023-11-08T12:36:38Z","tX":538,"tY":371,"tags":{"name":"La Pineta","phone":"+39 0185 42364","website":"https://www.lapinetaonline.it/"}},"11288845541":{"location":[44.2738903,9.4229808],"ct":"IT","tp":"CS","ts":"2023-10-25T14:03:28Z","tX":538,"tY":371,"tags":{"addr:city":"sestri levante","addr:housenumber":"31","addr:postcode":"16039","addr:street":"Via Villa Costa","caravans":"yes","name":"Camping Fossa Lupara","tents":"yes"}},"11966225052":{"location":[44.2737422,9.4230261],"ct":"IT","tp":"CS","ts":"2024-06-09T10:50:32Z","tX":538,"tY":371,"tags":{"name":"Camping Fossa Lupara"}},"9079939717":{"location":[44.235717,9.4757433],"ct":"IT","tp":"CR","ts":"2021-09-10T15:35:55Z","tX":538,"tY":371,"tags":{}}}