{"3662663137":{"location":[55.7846,25.7685],"ct":"LT","tp":"CS","ts":"2015-07-23T07:45:57Z","tX":585,"tY":319,"tags":{"description":"Į ežerą įrengtas pontoninis 15 metrų ilgio lieptas, prieplauka valtims. Aktyviam poilsiui yra tinklinio aikštelė ir kiti stovyklavietei būtini miško baldai bei statiniai.","name":"Sartų stovyklavietė"}},"5557622573":{"location":[55.77816,25.8249816],"ct":"LT","tp":"CS","ts":"2022-08-01T03:25:59Z","tX":585,"tY":319,"tags":{"fireplace":"yes","name":"Jaskoniškių II stovyklavietė","operator":"Valstybinė miškų urėdija","phone":"+370 386 52246"}},"5594200129":{"location":[55.832146,25.8700971],"ct":"LT","tp":"CS","ts":"2021-11-18T16:16:01Z","tX":585,"tY":319,"tags":{"addr:city":"Bradesiai","addr:housenumber":"5A","addr:street":"Zalvės g.","name":"Bradesių stovyklavietė","website":"https://saugoma.lt/lt/objektai/bradesiu-stovyklaviete"}},"5661222723":{"location":[55.8262737,25.8717851],"ct":"LT","tp":"CS","ts":"2019-02-24T11:11:31Z","tX":585,"tY":319,"tags":{"name":"Zalvės poilsiavietė","name:en":"Camping site at Zalve","name:lt":"Zalvės poilsiavietė"}},"6681211391":{"location":[55.7776124,25.7909337],"ct":"LT","tp":"CS","ts":"2020-03-21T17:58:15Z","tX":585,"tY":319,"tags":{"fireplace":"yes","name":"Stovyklavietė prie Sartų"}},"9856322630":{"location":[55.7772912,25.7795193],"ct":"LT","tp":"CS","ts":"2022-06-29T18:17:29Z","tX":585,"tY":319,"tags":{"name":"Kavolių stovyklavietė"}},"9856322631":{"location":[55.780656,25.7837768],"ct":"LT","tp":"CS","ts":"2022-06-29T18:17:29Z","tX":585,"tY":319,"tags":{"name":"Dusetų girios stovyklavietė"}},"9856322642":{"location":[55.7806463,25.8275698],"ct":"LT","tp":"CS","ts":"2022-08-01T03:25:59Z","tX":585,"tY":319,"tags":{"fireplace":"yes","name":"Jaskoniškių IV stovyklavietė","operator":"Valstybinė miškų urėdija","phone":"+370 386 52246"}},"9856322745":{"location":[55.83611,25.8055114],"ct":"LT","tp":"CS","ts":"2022-06-29T18:17:29Z","tX":585,"tY":319,"tags":{"name":"Kriaunų stovyklavietė"}}}