{"191124588":{"location":[55.5862067,25.6810794],"ct":"LT","tp":"CS","ts":"2024-05-18T08:38:56Z","tX":585,"tY":320,"tags":{"addr:city":"Sudeikiai","addr:housenumber":"1","addr:street":"Pakrantės g.","fee":"yes","landuse":"residential","name":"Stovyklavietė „Sudeikiai“","operator":"Utenos r. Sudeikių daugiafunkcis centras","stars":"2"}},"5557622590":{"location":[55.773764,25.822868],"ct":"LT","tp":"CS","ts":"2022-08-01T03:25:59Z","tX":585,"tY":320,"tags":{"fireplace":"yes","name":"Jaskoniškių I stovyklavietė","operator":"Valstybinė miškų urėdija","phone":"+370 386 52246"}},"5695911986":{"location":[55.6152982,25.6788683],"ct":"LT","tp":"CS","ts":"2019-03-26T16:35:06Z","tX":585,"tY":320,"tags":{"addr:city":"Bikuškis","addr:contact":"yes","addr:housenumber":"53","addr:postcode":"28401","addr:street":"Pakrantės g.","name":"Alaušo slėnis","website":"https://www.alausoslenis.lt/"}},"6681211393":{"location":[55.7759922,25.7967943],"ct":"LT","tp":"CS","ts":"2020-03-21T17:58:15Z","tX":585,"tY":320,"tags":{"fireplace":"yes","name":"Stovyklavietė prie Sartų"}},"6681211394":{"location":[55.7745485,25.8122492],"ct":"LT","tp":"CS","ts":"2022-08-01T03:25:59Z","tX":585,"tY":320,"tags":{"alt_name":"230 kvartalo atokvėpio vieta","fireplace":"yes","name":"Stovyklavietė prie Sartų","operator":"Valstybinė miškų urėdija"}}}