{"5472809122":{"location":[53.447279,25.9092631],"ct":"BY","tp":"CS","ts":"2018-03-12T11:20:18Z","tX":585,"tY":331,"tags":{}},"5596714347":{"location":[53.4268569,25.9042773],"ct":"BY","tp":"CS","ts":"2023-05-21T19:31:38Z","tX":585,"tY":331,"tags":{"fee":"yes","name":"Хутарок","name:be":"Хутарок","name:ru":"Хуторок","name:uk":"Хуторок"}},"7814530192":{"location":[53.4392364,25.9101922],"ct":"BY","tp":"CS","ts":"2023-05-21T19:31:38Z","tX":585,"tY":331,"tags":{"fee":"yes","name":"Каля возера","name:be":"Каля возера","name:ru":"У озера","name:uk":"Біля озера"}},"7825819865":{"location":[53.4393456,25.9217965],"ct":"BY","tp":"CS","ts":"2020-08-19T11:09:08Z","tX":585,"tY":331,"tags":{}},"7825820723":{"location":[53.4316307,25.9273724],"ct":"BY","tp":"CS","ts":"2021-09-13T12:34:34Z","tX":585,"tY":331,"tags":{}},"9872071758":{"location":[53.4383138,25.928072],"ct":"BY","tp":"CS","ts":"2023-05-21T19:31:38Z","tX":585,"tY":331,"tags":{"fee":"yes","name":"Падарожнік","name:be":"Падарожнік","name:ru":"Путешественник","name:uk":"Мандрівник"}}}