{"4216453":{"location":[50.5296586,-127.4340682],"ct":"CA","tp":"CS","ts":"2024-07-10T05:49:30Z","tX":149,"tY":344,"tags":{"name":"Marble River Recreation Site","ref:FFID":"REC0242","website":"https://www.sitesandtrailsbc.ca/search/search-result.aspx?site=REC0242&type=Site"}},"827174746":{"location":[50.6987211,-127.479505],"ct":"CA","tp":"CR","ts":"2024-06-10T05:33:54Z","tX":149,"tY":344,"tags":{"addr:city":"Port Hardy","addr:housenumber":"8080","addr:postcode":"V0N 2P0","addr:street":"Goodspeed Road","drinking_water":"yes","fee":"yes","internet_access":"yes","name":"Port Hardy RV Resort & Cabins","power_supply":"yes","sanitary_dump_station":"customers","tents":"yes","toilets":"yes"}},"1855197579":{"location":[50.6906874,-127.4859211],"ct":"CA","tp":"CS","ts":"2012-08-07T05:44:55Z","tX":149,"tY":344,"tags":{"name":"Quatse River Campground"}},"5792360124":{"location":[50.7098541,-127.4769566],"ct":"CA","tp":"CS","ts":"2018-10-25T14:21:01Z","tX":149,"tY":344,"tags":{"addr:city":"Port Hardy","addr:housenumber":"8000","addr:postcode":"V0N 2P0","addr:street":"Clyde Creek Road","capacity":"75","description":"Office Hours: Every day from 8:30AM to 5:30PM Arrival also possible after ferry arrival","email":"pjranger@telus.net","name":"Wildwoods Campground","phone":"+1-250-949-6753","website":"http://www.wildwoodscampsite.com"}},"9871498541":{"location":[50.7139855,-127.405941],"ct":"CA","tp":"CS","ts":"2023-07-16T21:24:23Z","tX":149,"tY":344,"tags":{"backcountry":"yes","description":"Shell, sand beach. Sheltered, undeveloped. Large forested upland site reached from N end of beach along shell trail. Suited to small groups. Additional beach camping except at Springs. Attractive.","name":"Cattle Islands (BCMT)","url":"https://www.bcmarinetrails.org/map_site/10943"}}}