{"1349104776":{"location":[46.4386109,-95.1199898],"ct":"US","tp":"CS","ts":"2025-01-06T22:21:00Z","tX":241,"tY":362,"tags":{"addr:city":"Wadena","addr:housenumber":"210","addr:state":"MN","addr:street":"Harry Rich Drive","capacity":"35","capacity:caravans":"30","capacity:tents":"4","caravans":"yes","charge":"30 USD","description":"$5-$30","drinking_water":"yes","fee":"yes","name":"Sunnybrook City Park","phone":"+1-218-631-7711","power_supply":"yes","reservation":"accepted","sanitary_dump_station":"yes","shower":"yes","tents":"yes","toilets:disposal":"flush"}},"7140241878":{"location":[46.4387928,-95.1200625],"ct":"US","tp":"CS","ts":"2024-12-01T06:45:16Z","tX":241,"tY":362,"tags":{"addr:city":"Wadena","addr:housenumber":"210","addr:state":"MN","addr:street":"Harry Rich Drive","capacity":"35","charge":"30 USD","description":"$5-$30","drinking_water":"yes","fee":"yes","name":"Sunnybrook City Park","phone":"+1-218-631-7711","power_supply":"yes","reservation":"accepted","sanitary_dump_station":"yes","shower":"yes","toilets:disposal":"flush"}}}