{"7160670656":{"location":[44.2461927,-95.270835],"ct":"US","tp":"CS","ts":"2024-11-02T16:23:33Z","tX":241,"tY":371,"tags":{"addr:city":"Lamberton","addr:housenumber":"13516","addr:state":"MN","addr:street":"County Road 6","charge":"20 USD","fee":"yes","name":"Kuhar Park","power_supply":"yes","reservation":"no","shelter_type":"picnic_shelter","toilets":"yes"}},"7338931918":{"location":[44.2366539,-94.974022],"ct":"US","tp":"CS","ts":"2024-12-01T06:45:16Z","tX":241,"tY":371,"tags":{"addr:city":"Springfield","addr:postcode":"56037","addr:state":"MN","charge":"35 USD","description":"$12-$35","fee":"yes","name":"Rothenburg Campground","phone":"+1-507-723-3517","power_supply":"yes","reservation":"yes","shelter_type":"picnic_shelter","shower":"yes","tents":"yes","toilets":"yes"}},"7369708806":{"location":[44.2046392,-95.130392],"ct":"US","tp":"CS","ts":"2024-12-01T06:45:16Z","tX":241,"tY":371,"tags":{"addr:housenumber":"171","addr:street":"N. Main St","capacity":"24","charge":"25 USD","description":"$15-$25","fee":"yes","name":"Sailors and Soldiers Memorial Campground","phone":"+1-507-430-6515","power_supply":"yes","shelter_type":"picnic_shelter","toilets":"yes"}},"5517411149":{"location":[44.1199399,-95.0910637],"ct":"US","tp":"CR","ts":"2018-03-30T22:47:37Z","tX":241,"tY":371,"tags":{}}}