{"1185625542":{"location":[43.4128425,-95.0677409],"ct":"US","tp":"CS","ts":"2023-06-29T02:54:06Z","tX":241,"tY":374,"tags":{"name":"Elinor Bedell State Park Campground"}},"1328094194":{"location":[43.397158,-95.0967818],"ct":"US","tp":"CS","ts":"2011-06-17T04:08:47Z","tX":241,"tY":374,"tags":{"name":"Lutheran Lakeside"}},"2366283136":{"location":[43.4251141,-95.181989],"ct":"US","tp":"CR","ts":"2021-08-24T23:22:23Z","tX":241,"tY":374,"tags":{"addr:city":"Spirit Lake","addr:housenumber":"1528","addr:postcode":"51360","addr:street":"Highway 86","name":"Cutty's Okoboji Resort Club","phone":"+1-712-336-2226","website":"http://cuttysofokoboji.com/"}},"2526002959":{"location":[43.3556573,-95.1749633],"ct":"US","tp":"CS","ts":"2013-11-10T01:42:20Z","tX":241,"tY":374,"tags":{"name":"Emerson Bay State Recreation Area Campground"}},"2526026931":{"location":[43.3706521,-95.1680623],"ct":"US","tp":"CS","ts":"2024-08-26T05:15:41Z","tX":241,"tY":374,"tags":{"addr:city":"Milford","addr:state":"IA","capacity":"74","charge":"16 USD","fee":"yes","name":"Gull Point State Park Campground","phone":"+1-712-337-3211","power_supply":"yes","reservation":"yes","shower":"yes"}},"3009007931":{"location":[43.3525399,-95.1295369],"ct":"US","tp":"CR","ts":"2023-09-21T03:55:56Z","tX":241,"tY":374,"tags":{"addr:city":"Arnold Parks","addr:housenumber":"110","addr:postcode":"51331","addr:street":"202nd Street","name":"Fieldstone RV Park","phone":"+1-712-332-7631","website":"https://www.fieldstonervpark.com/"}},"4895992612":{"location":[43.3648203,-95.1288594],"ct":"US","tp":"CS","ts":"2017-06-04T20:55:26Z","tX":241,"tY":374,"tags":{"name":"Minnewashta Campground"}},"7148643033":{"location":[43.5221112,-95.1076652],"ct":"US","tp":"CS","ts":"2020-01-21T12:12:02Z","tX":241,"tY":374,"tags":{"addr:city":"Jackson","addr:housenumber":"71693","addr:postcode":"56143","addr:state":"MN","addr:street":"483rd Ave","capacity":"18","drinking_water":"yes","fee":"Tents $15, Rv's $25","name":"Brown Park South Campground","picnic_table":"yes","power_supply":"yes","reservation":"no","shelter":"roof","toilets":"yes"}},"7148649467":{"location":[43.5267655,-95.1212904],"ct":"US","tp":"CS","ts":"2020-09-02T16:56:13Z","tX":241,"tY":374,"tags":{"addr:city":"Jackson","addr:housenumber":"71816","addr:postcode":"56143","addr:state":"MN","addr:street":"475th Ave","capacity":"25","fee":"Tents $15, Rv's $25","name":"Anderson County Park Campground","phone":"+1-507-847-2240","reservation":"no","shelter":"roof","shower":"yes","toilets":"yes"}},"7160617747":{"location":[43.471555,-95.1248534],"ct":"US","tp":"CS","ts":"2024-08-26T05:15:41Z","tX":241,"tY":374,"tags":{"addr:city":"Spirit Lake","addr:housenumber":"12320","addr:postcode":"51360","addr:state":"IA","addr:street":"240th Ave,","capacity":"221","charge":"16 USD","drinking_water":"yes","fee":"yes","name":"Marble Beach State Recreation Area Campground","phone":"+1-712-337-3211","power_supply":"yes","reservation":"yes","sanitary_dump_station":"yes","shower":"yes","toilets":"yes"}},"7278580792":{"location":[43.527012,-95.1086212],"ct":"US","tp":"CS","ts":"2023-11-29T13:08:45Z","tX":241,"tY":374,"tags":{"addr:city":"Jackson","addr:housenumber":"71639","addr:postcode":"56143","addr:state":"MN","addr:street":"483rd Ave","capacity":"30","fee":"$15-$25","name":"Brown Parik","power_supply":"yes","reservation":"yes","seasonal":"spring;summer;autumn","shower":"yes"}},"7278723641":{"location":[43.5292278,-95.0995511],"ct":"US","tp":"CS","ts":"2020-03-09T04:19:15Z","tX":241,"tY":374,"tags":{"addr:city":"Jackson","addr:housenumber":"48804","addr:state":"MN","addr:street":"715th St","capacity":"21","fee":"$15-$25","name":"Robertson Park","reservation":"no","shower":"yes","toilets":"yes"}},"7490927281":{"location":[43.5230407,-95.0998428],"ct":"US","tp":"CS","ts":"2021-08-24T23:22:23Z","tX":241,"tY":374,"tags":{"addr:city":"Jackson","addr:state":"MN","capacity":"30","drinking_water":"yes","fee":"$15-$20","name":"Robertson County Park","phone":"+1-507-841-2902","reservation":"no","shower":"yes","toilets:type":"flush"}},"7633913199":{"location":[43.4125961,-95.1416016],"ct":"US","tp":"CS","ts":"2020-06-19T02:50:18Z","tX":241,"tY":374,"tags":{"addr:city":"Okoboji","addr:state":"IA","backcountry":"yes","drinking_water":"no","name":"Center Lake -DNR","toilets":"no"}},"7633913200":{"location":[43.4974143,-95.1657682],"ct":"US","tp":"CS","ts":"2020-06-19T02:50:18Z","tX":241,"tY":374,"tags":{"addr:city":"Spirit Lake","addr:state":"IA","backcountry":"yes","drinking_water":"no","name":"Grover's Marsh WMA","toilets":"no"}},"7633913201":{"location":[43.4921504,-95.1299592],"ct":"US","tp":"CS","ts":"2020-06-19T02:50:18Z","tX":241,"tY":374,"tags":{"addr:city":"Spirit Lake","addr:state":"IA","backcountry":"yes","drinking_water":"no","fee":"no","toilets":"no"}},"11013325005":{"location":[43.4128033,-95.068333],"ct":"US","tp":"CS","ts":"2023-06-29T02:54:06Z","tX":241,"tY":374,"tags":{"group_only":"yes","name":"Youth Group Site"}}}