{"591504075":{"location":[32.5255809,-94.9431531],"ct":"US","tp":"CR","ts":"2024-01-15T07:58:40Z","tX":241,"tY":414,"tags":{"addr:city":"Gladewater","addr:housenumber":"500","addr:postcode":"75647","addr:state":"TX","addr:street":"South Loop 485","landuse":"residential","name":"Antique Capital RV Park","website":"http://www.antiquecapitalrvpark.com/"}},"1079331533":{"location":[32.4549109,-94.9353529],"ct":"US","tp":"CR","ts":"2022-07-17T23:48:56Z","tX":241,"tY":414,"tags":{"addr:city":"Gladewater","addr:housenumber":"5261","addr:postcode":"75647","addr:state":"TX","addr:street":"State Highway 135","name":"Shallow Creek RV Park"}},"1168337416":{"location":[32.5344418,-94.9462161],"ct":"US","tp":"CR","ts":"2024-01-15T06:43:30Z","tX":241,"tY":414,"tags":{"name":"Boomtown RV Park"}},"1210131576":{"location":[32.4870668,-95.1697286],"ct":"US","tp":"CR","ts":"2023-09-22T19:21:56Z","tX":241,"tY":414,"tags":{"addr:city":"Winona","addr:housenumber":"415","addr:postcode":"75792","addr:state":"TX","addr:street":"South Main Street","name":"Old Barn RV Park"}},"1241801742":{"location":[32.2723166,-94.9869169],"ct":"US","tp":"CR","ts":"2024-01-22T01:40:19Z","tX":241,"tY":414,"tags":{}}}