{"961092403":{"location":[29.538494,-95.0319489],"ct":"US","tp":"CR","ts":"2021-07-03T17:32:55Z","tX":241,"tY":423,"tags":{}},"1018187393":{"location":[29.7548049,-94.9394094],"ct":"US","tp":"CR","ts":"2022-01-04T06:12:31Z","tX":241,"tY":423,"tags":{"addr:city":"Baytown","addr:housenumber":"2916","addr:postcode":"77520","addr:state":"TX","addr:street":"McKinney Road","name":"Chase Village Mobile Home Park"}},"1018187394":{"location":[29.7533118,-94.9424272],"ct":"US","tp":"CR","ts":"2022-01-04T06:12:31Z","tX":241,"tY":423,"tags":{"addr:city":"Baytown","addr:housenumber":"2902","addr:postcode":"77520","addr:state":"TX","addr:street":"North Alexander Drive","name":"Baytown RV Park"}},"1018187395":{"location":[29.7550992,-94.9481004],"ct":"US","tp":"CR","ts":"2022-01-04T06:12:31Z","tX":241,"tY":423,"tags":{"addr:city":"Baytown","addr:housenumber":"2305","addr:postcode":"77520","addr:state":"TX","addr:street":"North Robert C Lanier Freeway","name":"Willow Creek RV Park"}},"1018187396":{"location":[29.7547634,-94.9491944],"ct":"US","tp":"CR","ts":"2022-01-04T06:12:31Z","tX":241,"tY":423,"tags":{"addr:city":"Baytown","addr:housenumber":"1103","addr:postcode":"77520","addr:state":"TX","addr:street":"Bob Smith Road","name":"Casa RV Park"}},"1394011595":{"location":[29.6608641,-95.2123066],"ct":"US","tp":"CR","ts":"2025-06-10T20:10:13Z","tX":241,"tY":423,"tags":{"addr:city":"South Houston","addr:housenumber":"613","addr:postcode":"77587","addr:state":"TX","addr:street":"South Allen-Genoa Road","source":"esri_USDOT_HarrisCountyTX"}},"1394011596":{"location":[29.6618103,-95.2121396],"ct":"US","tp":"CR","ts":"2025-06-10T20:10:13Z","tX":241,"tY":423,"tags":{"addr:city":"South Houston","addr:housenumber":"602","addr:postcode":"77587","addr:state":"TX","addr:street":"15th Street","source":"esri_USDOT_HarrisCountyTX"}}}