{"143523034":{"location":[29.4540445,-94.9858738],"ct":"US","tp":"CR","ts":"2021-05-21T19:54:35Z","tX":241,"tY":424,"tags":{"name":"Galveston Bay RV Resort & Marina"}},"520110010":{"location":[29.4979762,-94.9341555],"ct":"US","tp":"CS","ts":"2017-08-30T19:35:36Z","tX":241,"tY":424,"tags":{}},"520336959":{"location":[29.4774516,-95.0408186],"ct":"US","tp":"CR","ts":"2017-08-31T14:56:53Z","tX":241,"tY":424,"tags":{}},"520389151":{"location":[29.4757605,-95.0457429],"ct":"US","tp":"CR","ts":"2017-08-31T19:23:25Z","tX":241,"tY":424,"tags":{}},"520588476":{"location":[29.4864233,-94.9415275],"ct":"US","tp":"CR","ts":"2017-09-01T16:02:15Z","tX":241,"tY":424,"tags":{}},"520588504":{"location":[29.4921392,-94.9420479],"ct":"US","tp":"CR","ts":"2023-07-07T16:50:40Z","tX":241,"tY":424,"tags":{"name":"Tropical Gardens RV Park & Resort"}},"521593228":{"location":[29.4845227,-94.9324489],"ct":"US","tp":"CR","ts":"2017-09-05T16:58:03Z","tX":241,"tY":424,"tags":{}},"522187796":{"location":[29.5026738,-94.9549755],"ct":"US","tp":"CR","ts":"2017-09-07T16:46:23Z","tX":241,"tY":424,"tags":{}},"960135225":{"location":[29.5149073,-94.9998801],"ct":"US","tp":"CR","ts":"2021-07-01T16:22:53Z","tX":241,"tY":424,"tags":{}},"961633858":{"location":[29.5101822,-94.9965725],"ct":"US","tp":"CR","ts":"2021-07-05T14:58:12Z","tX":241,"tY":424,"tags":{"addr:city":"Bacliff","addr:housenumber":"715","addr:postcode":"77519","addr:state":"TX","addr:street":"Gordy Road","name":"Gordy Road RV Park","website":"https://www.gordyroadrvpark.com/"}},"992082581":{"location":[29.4481217,-95.0827089],"ct":"US","tp":"CR","ts":"2021-10-12T01:18:22Z","tX":241,"tY":424,"tags":{}},"1019627895":{"location":[29.3520846,-94.9725666],"ct":"US","tp":"CR","ts":"2022-01-09T04:56:49Z","tX":241,"tY":424,"tags":{"addr:city":"La Marque","addr:housenumber":"1905","addr:postcode":"77568","addr:state":"TX","addr:street":"Gulf Freeway","name":"Ron Hoover Oasis RV Park"}},"1148344408":{"location":[29.5200351,-95.233706],"ct":"US","tp":"CR","ts":"2023-02-21T21:45:39Z","tX":241,"tY":424,"tags":{"addr:city":"Pearland","addr:housenumber":"1911","addr:postcode":"77581","addr:state":"TX","addr:street":"County Road 130","contact:facebook":"https://www.facebook.com/HarvestAcresRVPark","contact:twitter":"https://twitter.com/harvestacres","name":"Harvest Acres RV Park & Mini Storage","phone":"+1-832-219-7080","website":"https://www.harvestacresrvpark.com/"}},"5067192632":{"location":[29.4956569,-95.0809729],"ct":"US","tp":"CR","ts":"2017-08-29T18:12:29Z","tX":241,"tY":424,"tags":{}}}