{"83338090":{"location":[38.2232537,128.499242],"ct":"KR","tp":"CS","ts":"2017-04-10T22:35:57Z","tX":877,"tY":394,"tags":{"addr:housenumber":"238","addr:street":"잼버리동로","name":"잼버리수야영장 (Jamboree Camping Ground)","name:en":"Jamboree Camping Ground","name:ko":"잼버리수야영장"}},"168747533":{"location":[38.0540369,128.5741058],"ct":"KR","tp":"CS","ts":"2019-01-07T03:04:04Z","tX":877,"tY":394,"tags":{"name":"고인돌오토캠핑장","name:ko":"고인돌오토캠핑장"}},"179283258":{"location":[38.1889377,128.6025452],"ct":"KR","tp":"CS","ts":"2012-09-03T13:35:53Z","tX":877,"tY":394,"tags":{}},"368942863":{"location":[38.089225,128.655302],"ct":"KR","tp":"CS","ts":"2019-01-06T17:05:48Z","tX":877,"tY":394,"tags":{"name":"양양오토캠핑장","name:en":"Yangyang Autocamping Site","name:ko":"양양오토캠핑장","name:ko-Latn":"Yangyangotokaempingjang","ncat":"캠핑장","source":"http://kr.open.gugi.yahoo.com"}},"883995166":{"location":[38.1618946,128.5448892],"ct":"KR","tp":"CS","ts":"2020-12-12T02:19:26Z","tX":877,"tY":394,"tags":{"name":"설악동야영장","name:en":"Seorak-dong Campground"}},"1198841789":{"location":[38.2144561,128.5477397],"ct":"KR","tp":"CS","ts":"2023-08-17T01:31:48Z","tX":877,"tY":394,"tags":{"name":"속초밤하늘글램핑"}},"1298336203":{"location":[38.1472884,128.6090903],"ct":"KR","tp":"CS","ts":"2024-07-02T07:31:04Z","tX":877,"tY":394,"tags":{}},"1391610148":{"location":[38.2404674,128.5746677],"ct":"KR","tp":"CR","ts":"2025-06-09T15:35:00Z","tX":877,"tY":394,"tags":{"access":"private","caravan_site:type":"beach","caravans":"yes","static_caravans":"yes"}},"4981937121":{"location":[38.1129196,128.6375038],"ct":"KR","tp":"CS","ts":"2025-01-12T11:06:41Z","tX":877,"tY":394,"tags":{"access":"customers","addr:city":"양양군","addr:province":"강원특별자치도","addr:town":"양양읍","charge":"35,000KRW","fee":"yes","name":"낙산해변송림 야영장","name:en":"Yangyang Campgrounds located by a direction to Sukcho from South"}},"6778806781":{"location":[38.1924782,128.3241403],"ct":"KR","tp":"CS","ts":"2019-09-07T05:41:59Z","tX":877,"tY":394,"tags":{}},"7703891985":{"location":[38.116136,128.6331737],"ct":"KR","tp":"CS","ts":"2020-07-11T00:19:21Z","tX":877,"tY":394,"tags":{"name":"해미장"}},"7996533585":{"location":[38.0781162,128.5113982],"ct":"KR","tp":"CS","ts":"2020-10-11T06:39:53Z","tX":877,"tY":394,"tags":{"addr:street":"설악로","name":"수봉야영장","name:en":"Subong camping site","opening_hours":"24/7","phone":"+8210-9972-2015","website":"http://naver.me/GTMw7KSw"}},"8570597727":{"location":[38.239566,128.5740204],"ct":"KR","tp":"CS","ts":"2021-03-29T06:00:24Z","tX":877,"tY":394,"tags":{"name:en":"Kensington Beach"}}}