{"368871181":{"location":[37.828662,128.4441773],"ct":"KR","tp":"CS","ts":"2025-01-13T02:22:55Z","tX":877,"tY":395,"tags":{"addr:city":"홍천군","addr:housenumber":"6390","addr:province":"강원특별자치도","addr:street":"구룡령로","addr:subdistrict":"광원리","addr:town":"내면","email":"http://kwcamp.co.kr/","name":"백두대간 광원캠프","name:en":"Baekdudaegwan Camp Light Camp","name:ko":"백두대간 광원캠프","name:ko-Latn":"Baekdudaegwan Camp Light Camp","ncat":"야영장"}},"469415903":{"location":[37.815633,128.463023],"ct":"KR","tp":"CS","ts":"2024-01-31T05:58:43Z","tX":877,"tY":395,"tags":{}},"469619005":{"location":[37.8148003,128.4630955],"ct":"KR","tp":"CS","ts":"2019-07-21T01:52:51Z","tX":877,"tY":395,"tags":{}},"1206777559":{"location":[37.9396031,128.3814736],"ct":"KR","tp":"CS","ts":"2023-09-11T05:52:34Z","tX":877,"tY":395,"tags":{"name":"방태산솔마루펜션식당오토캠핑장"}},"1244823208":{"location":[37.8180249,128.4576515],"ct":"KR","tp":"CS","ts":"2024-08-27T05:23:58Z","tX":877,"tY":395,"tags":{"addr:housenumber":"127","addr:street":"을수길","name":"을수골볓빛계곡"}},"1878883542":{"location":[37.766292,128.577262],"ct":"KR","tp":"CS","ts":"2018-08-11T06:09:22Z","tX":877,"tY":395,"tags":{"name":"동피골야영장 (Dongpigol Camping Site)","name:en":"Dongpigol Camping Site","name:ko":"동피골야영장","name:ko-Latn":"Dongpigol Camping Site","source":"gps"}},"1881934629":{"location":[37.9158457,128.4062467],"ct":"KR","tp":"CS","ts":"2012-08-25T04:17:11Z","tX":877,"tY":395,"tags":{"source":"gps"}},"4634558859":{"location":[37.8334158,128.4758888],"ct":"KR","tp":"CS","ts":"2019-07-21T01:53:52Z","tX":877,"tY":395,"tags":{"name":"샘골솔밭야영장","name:ko":"샘골솔밭야영장"}}}