{"1027295820":{"location":[35.9188153,128.6117696],"ct":"KR","tp":"CS","ts":"2022-02-03T08:07:23Z","tX":877,"tY":402,"tags":{"group_only":"yes","name":"모터캠핑장"}},"1027295831":{"location":[35.899744,128.6259378],"ct":"KR","tp":"CS","ts":"2022-02-03T08:07:23Z","tX":877,"tY":402,"tags":{"group_only":"yes","name":"캠핑장"}},"1200999391":{"location":[35.8239387,128.5562879],"ct":"KR","tp":"CS","ts":"2023-08-22T05:53:53Z","tX":877,"tY":402,"tags":{"name":"달서별빛캠프"}},"1265830631":{"location":[35.9983803,128.4540551],"ct":"KR","tp":"CS","ts":"2025-03-31T04:43:28Z","tX":877,"tY":402,"tags":{"addr:city":"칠곡군","addr:province":"경상북도","addr:street":"봉계1길 6","addr:town":"왜관읍","name":"꿈애오토캠핑장"}},"1311388164":{"location":[36.0172102,128.6204242],"ct":"KR","tp":"CS","ts":"2024-08-27T00:04:58Z","tX":877,"tY":402,"tags":{"name":"가산산성야영장","name:en":"Gasansanseong Camping Site","name:ko":"가산산성야영장","name:ko-Latn":"Gasansanseongyayeongjang","ncat":"야영장","source":"http://kr.open.gugi.yahoo.com"}},"6522433785":{"location":[35.9820573,128.3935568],"ct":"KR","tp":"CS","ts":"2019-06-05T02:20:45Z","tX":877,"tY":402,"tags":{"name:en":"tennis court camping"}},"5045976322":{"location":[35.8121419,128.5010448],"ct":"KR","tp":"CR","ts":"2017-08-20T09:16:36Z","tX":877,"tY":402,"tags":{"name":"office","name:ko":"office"}}}