{"479402044":{"location":[34.8140686,128.665526],"ct":"KR","tp":"CS","ts":"2017-03-09T02:41:19Z","tX":877,"tY":406,"tags":{}},"479740128":{"location":[34.7769432,128.6423348],"ct":"KR","tp":"CR","ts":"2018-11-25T14:43:06Z","tX":877,"tY":406,"tags":{"name":"학동자동차야영장","name:en":"Hakdong Autocampground","name:ko":"학동자동차야영장"}},"498986010":{"location":[34.7903333,128.5796045],"ct":"KR","tp":"CS","ts":"2017-06-08T05:32:47Z","tX":877,"tY":406,"tags":{}},"498986012":{"location":[34.7901468,128.5787529],"ct":"KR","tp":"CS","ts":"2017-06-08T05:32:47Z","tX":877,"tY":406,"tags":{}},"498986031":{"location":[34.7888267,128.5786235],"ct":"KR","tp":"CS","ts":"2017-06-08T05:32:49Z","tX":877,"tY":406,"tags":{}},"556657018":{"location":[34.7281945,128.6054211],"ct":"KR","tp":"CS","ts":"2025-01-14T23:10:02Z","tX":877,"tY":406,"tags":{"addr:city":"거제시","addr:housenumber":"48","addr:province":"경상남도","addr:street":"명사해수욕장길","addr:subdistrict":"저구리","addr:town":"남부면","name":"북캠프지오","name:en":"Bookcampgo","name:ko":"북캠프지오"}},"4903178183":{"location":[34.7895514,128.5798962],"ct":"KR","tp":"CS","ts":"2018-11-25T14:42:44Z","tX":877,"tY":406,"tags":{"addr:city":"오송리","addr:housenumber":"123","addr:street":"가배오송길","name":"문화관광농장","name:en":"Tourism Farm Park Munhwa","name:ko":"문화관광농장","website":"https://munhwapark.modoo.at/"}},"5305831170":{"location":[34.8386301,128.492959],"ct":"KR","tp":"CS","ts":"2025-01-14T23:09:25Z","tX":877,"tY":406,"tags":{"addr:city":"거제시","addr:housenumber":"4766-15","addr:province":"경상남도","addr:street":"거제남서로","addr:subdistrict":"술역리","addr:town":"둔덕면","name":"에스터수양관","name:en":"Esther Prayer House","name:ko":"에스터수양관"}}}