{"623993412":{"location":[-25.6700278,-53.9341639],"ct":"AR","tp":"CS","ts":"2010-01-31T13:47:36Z","tX":358,"tY":587,"tags":{"name":"Camping Salto Escondido"}},"11602211054":{"location":[-25.7891971,-54.041918],"ct":"AR","tp":"CS","ts":"2024-02-09T12:55:45Z","tX":358,"tY":587,"tags":{"access":"yes","addr:city":"Andresito","addr:street":"Paraje Deseado","caravans":"yes","fee":"yes","name":"Complejo Recreativo Doña Eva","payment:electronic_purses":"yes","phone":"+54 3757 617522","static_caravans":"yes","tents":"yes"}},"11602267179":{"location":[-25.6451451,-53.9800571],"ct":"AR","tp":"CS","ts":"2024-02-09T13:07:19Z","tX":358,"tY":587,"tags":{"access":"yes","addr:city":"Andresito","addr:street":"Ruta Provincial 19","caravans":"yes","name":"Camping HB","phone":"+54 3757 672809","static_caravans":"yes","tents":"yes"}},"11602321409":{"location":[-25.6600328,-54.0635765],"ct":"AR","tp":"CS","ts":"2024-02-09T13:26:59Z","tX":358,"tY":587,"tags":{"access":"yes","addr:city":"Comandante Andresito","addr:street":"Avenida Primero de Mayo","caravans":"yes","fee":"yes","name":"Cabañas del Parque","payment:electronic_purses":"yes","phone":"+54 3757 676896","static_caravans":"yes","tents":"yes"}},"11602340885":{"location":[-25.6099013,-54.0851772],"ct":"AR","tp":"CS","ts":"2024-02-09T13:41:10Z","tX":358,"tY":587,"tags":{"access":"yes","addr:city":"Comandante Andresito","caravans":"yes","fee":"yes","name":"Camping Yiyo","payment:electronic_purses":"yes","phone":"+54 3757 416654","static_caravans":"yes","tents":"yes"}}}