{"870931272":{"location":[-26.6288523,-54.1247852],"ct":"AR","tp":"CS","ts":"2010-08-20T19:36:35Z","tX":358,"tY":590,"tags":{"name":"Camping de los Municipales"}},"4933289489":{"location":[-26.6099155,-54.0997377],"ct":"AR","tp":"CS","ts":"2019-11-05T10:19:38Z","tX":358,"tY":590,"tags":{"addr:city":"San Pedro","addr:milestone":"1049.5","addr:street":"Ruta Nacional 14","name":"Complejo Turístico Der Wald","phone":"(03751) 603 063 / 498 993"}},"10559244437":{"location":[-26.4644747,-53.9040056],"ct":"AR","tp":"CS","ts":"2023-01-16T11:09:27Z","tX":358,"tY":590,"tags":{}},"11602197606":{"location":[-26.6382861,-54.1335605],"ct":"AR","tp":"CS","ts":"2024-02-09T12:37:02Z","tX":358,"tY":590,"tags":{"access":"yes","addr:city":"San Pedro","addr:street":"Paraje 2 de Abril","caravans":"yes","fee":"yes","name":"Complejo Adrenalina","payment:electronic_purses":"yes","static_caravans":"yes","tents":"yes"}},"11602255569":{"location":[-26.6025669,-54.1125201],"ct":"AR","tp":"CS","ts":"2024-02-09T12:45:55Z","tX":358,"tY":590,"tags":{"access":"yes","addr:city":"San Pedro","addr:postcode":"3364","beds":"27","camping":"yes","caravans":"yes","contact:facebook":"https://www.facebook.com/pg/Camping-Farelluk-San-Pedro-Misiones-188958567792202/about/?ref=page_internal","email":"campingfarelluk@gmail.com","fee":"yes","name":"Complejo Turístico Farelluk","payment:debit_cards":"yes","payment:electronic_purses":"yes","phone":"+54 3751 50-4880","rooms":"5","static_caravans":"yes","tents":"yes"}}}