{"138502960":{"location":[-34.968682,173.5399969],"ct":"NZ","tp":"CS","ts":"2020-12-26T21:37:55Z","tX":1005,"tY":618,"tags":{"addr:city":"Mangonui","addr:country":"NZ","addr:district":"RD1","addr:housename":"Hihi","addr:street":"Hihi Road","caravans":"yes","email":"info@hihibeachholidaypark.nz","internet_access":"wlan","internet_access:fee":"no","name":"Hihi Beach Holiday Park","phone":"+64 9 406 0307","tents":"yes","website":"http://www.hihibeachholidaypark.nz/"}},"366303574":{"location":[-34.992141,173.5117843],"ct":"NZ","tp":"CS","ts":"2015-08-18T12:08:34Z","tX":1005,"tY":618,"tags":{"group_only":"yes","name":"Coopers Bay Christian Youth Camp"}},"900986613":{"location":[-34.9488718,173.3868142],"ct":"NZ","tp":"CR","ts":"2021-01-28T02:10:39Z","tX":1005,"tY":618,"tags":{"fee":"no","name":"Tokerau Beach (Freedom Camping)","opening_hours":"24/7","operator":"Department of Conservation","reservation":"no","sanitary_dump_station":"no"}},"1014538209":{"location":[-35.1696573,173.4346996],"ct":"NZ","tp":"CS","ts":"2022-02-08T07:05:30Z","tX":1005,"tY":618,"tags":{"access":"yes","capacity:caravans":"0","capacity:tents":"65","caravans":"yes","caravans:conditional":"no @ (Jul-Oct)","description":"Take a break at the northern foot of Raetea, a lowland coastal forest situated in the Mangamuka Gorge.","dog":"no","fee":"no","name":"Raetea North Side Campsite","operator":"Department of Conservation","operator:wikidata":"Q1191417","operator:wikipedia":"en:Department of Conservation (New Zealand)","ref:doc":"100039423","reservation":"no","tents":"yes","toilets":"yes","toilets:disposal":"pitlatrine","website":"https://doc.govt.nz/link/82b87ca747bf4410983f558fcbd389a5"}},"6185022894":{"location":[-34.9935786,173.5042544],"ct":"NZ","tp":"CR","ts":"2019-01-04T23:34:40Z","tX":1005,"tY":618,"tags":{"description":"Overnight parking allowed","fee":"no","operator":"Coopers Beach Bowling Club"}},"8262681246":{"location":[-34.9958817,173.5347751],"ct":"NZ","tp":"CR","ts":"2020-12-26T21:37:55Z","tX":1005,"tY":618,"tags":{"description":"Freedom camping for self-contained vehicles only, max 24h","fee":"no","name":"Mangonui Lions Park","name:en":"Mangonui Lions Park"}},"5636538449":{"location":[-34.9956326,173.5346471],"ct":"NZ","tp":"SD","ts":"2020-12-26T21:37:55Z","tX":1005,"tY":618,"tags":{"drinking_water":"yes"}},"11337022897":{"location":[-34.9956015,173.534642],"ct":"NZ","tp":"SD","ts":"2023-11-10T02:05:49Z","tX":1005,"tY":618,"tags":{}}}