{"15842692":{"location":[43.819594,-96.7075014],"ct":"US","tp":"CS","ts":"2024-02-19T16:38:55Z","tX":236,"tY":373,"tags":{"access":"yes","addr:city":"Dell Rapids","addr:housenumber":"600","addr:postcode":"57022","addr:state":"SD","addr:street":"Zero Street","name":"Dell Rapids Campground"}},"17153210":{"location":[43.7652861,-96.7383747],"ct":"US","tp":"CS","ts":"2024-02-05T15:29:38Z","tX":236,"tY":373,"tags":{"name":"River Park Campground"}},"808867362":{"location":[43.6069009,-96.7066236],"ct":"US","tp":"CR","ts":"2024-01-23T22:55:49Z","tX":236,"tY":373,"tags":{"addr:city":"Sioux Falls","addr:housenumber":"1401","addr:postcode":"57104","addr:state":"SD","addr:street":"East Robur Drive","brand":"KOA","brand:wikidata":"Q16988635","email":"siouxfalls@koa.com","fee":"yes","internet_access":"wlan","internet_access:fee":"customers","internet_access:ssid":"KOA Guest","name":"Sioux Falls KOA Journey","opening_hours":"Dec-Feb closed \"winter off\"","phone":"+1-605-332-9987","power_supply":"yes","reservation":"required","sanitary_dump_station":"yes","short_name":"KOA","website":"https://koa.com/campgrounds/sioux-falls/"}},"8755712679":{"location":[43.6074816,-96.7073644],"ct":"US","tp":"SD","ts":"2021-05-22T14:54:19Z","tX":236,"tY":373,"tags":{"access":"customers","fee":"no","sanitary_dump_station:round_drain":"yes"}}}