{"713099397":{"location":[33.7804363,-96.8085109],"ct":"US","tp":"CS","ts":"2019-08-12T15:44:18Z","tX":236,"tY":409,"tags":{"name":"Big Mineral"}},"713099398":{"location":[33.7853522,-96.8080645],"ct":"US","tp":"CS","ts":"2019-08-12T15:27:39Z","tX":236,"tY":409,"tags":{"name":"Big Mineral"}},"1085728501":{"location":[33.8548583,-96.8314537],"ct":"US","tp":"CR","ts":"2022-08-12T02:24:01Z","tX":236,"tY":409,"tags":{"addr:city":"Gordonville","addr:housenumber":"730","addr:postcode":"76245","addr:state":"TX","addr:street":"Oxford Drive","name":"Gone Fishing RV Resort","phone":"+1-903-523-3474","website":"https://gonefishingrvresort.com/"}},"1085728522":{"location":[33.8329801,-96.8460174],"ct":"US","tp":"CR","ts":"2022-08-12T02:24:01Z","tX":236,"tY":409,"tags":{"addr:city":"Gordonville","addr:housenumber":"30714","addr:postcode":"76245","addr:state":"TX","addr:street":"US Highway 377","name":"Roys RV Resort"}},"1288682297":{"location":[33.7914181,-96.7890288],"ct":"US","tp":"CS","ts":"2024-08-20T12:13:59Z","tX":236,"tY":409,"tags":{"addr:housenumber":"503","ele":"189","gnis:feature_id":"1889627","name":"Paradise Cove"}},"3524689367":{"location":[33.8104134,-96.7716036],"ct":"US","tp":"CS","ts":"2019-10-25T14:11:06Z","tX":236,"tY":409,"tags":{"addr:city":"Pottsboro","addr:housenumber":"418","addr:postcode":"75076","addr:state":"TX","addr:street":"Stanton Way","name":"All Saints Camp & Conference Center","operator":"Episcopal Diocese of Dallas, Texas","phone":"+1-903-786-3148","website":"https://www.campallsaints.com/"}},"6521799447":{"location":[33.8226748,-96.7842252],"ct":"US","tp":"CS","ts":"2019-06-04T18:06:15Z","tX":236,"tY":409,"tags":{"name":"Cedar"}},"6521799448":{"location":[33.8239314,-96.7834596],"ct":"US","tp":"CS","ts":"2019-06-04T18:06:15Z","tX":236,"tY":409,"tags":{"name":"Hanta Pa Ha"}},"6521799461":{"location":[33.8202854,-96.780605],"ct":"US","tp":"CS","ts":"2019-06-04T18:06:15Z","tX":236,"tY":409,"tags":{"name":"Staff Camp"}},"6521799462":{"location":[33.8206122,-96.779598],"ct":"US","tp":"CS","ts":"2019-06-04T18:06:15Z","tX":236,"tY":409,"tags":{"name":"Tejas"}},"6521799467":{"location":[33.8212701,-96.7785374],"ct":"US","tp":"CS","ts":"2019-06-04T18:06:15Z","tX":236,"tY":409,"tags":{"name":"Comanche"}},"6521810428":{"location":[33.8229847,-96.779409],"ct":"US","tp":"CS","ts":"2019-06-04T18:14:55Z","tX":236,"tY":409,"tags":{"name":"Geronimo"}},"6521810433":{"location":[33.822148,-96.7785633],"ct":"US","tp":"CS","ts":"2019-06-04T18:14:55Z","tX":236,"tY":409,"tags":{"name":"Sioux"}},"6521810442":{"location":[33.8244712,-96.7786292],"ct":"US","tp":"CS","ts":"2019-06-04T18:14:55Z","tX":236,"tY":409,"tags":{"name":"Cherokee"}},"6521810443":{"location":[33.8252463,-96.7797806],"ct":"US","tp":"CS","ts":"2019-06-04T18:14:55Z","tX":236,"tY":409,"tags":{"name":"Navajo"}},"6521810448":{"location":[33.8257216,-96.7804143],"ct":"US","tp":"CS","ts":"2019-06-04T18:14:55Z","tX":236,"tY":409,"tags":{"name":"Lone Eagle"}},"6521810453":{"location":[33.8254079,-96.7818685],"ct":"US","tp":"CS","ts":"2019-06-04T18:14:55Z","tX":236,"tY":409,"tags":{"name":"Apache"}}}