{"700244851":{"location":[28.8142432,-97.0098392],"ct":"US","tp":"CR","ts":"2021-03-24T08:20:53Z","tX":236,"tY":426,"tags":{"addr:city":"Victoria","addr:housenumber":"2005","addr:postcode":"77901","addr:state":"TX","addr:street":"North Vine Street","name":"Victoria RV Park"}},"922356910":{"location":[28.8539041,-96.9801058],"ct":"US","tp":"CR","ts":"2021-03-26T05:25:38Z","tX":236,"tY":426,"tags":{"addr:city":"Victoria","addr:housenumber":"4302","addr:postcode":"77904","addr:state":"TX","addr:street":"North John Stockbauer Drive","name":"Oakwood"}},"922907835":{"location":[28.853799,-96.9846086],"ct":"US","tp":"CR","ts":"2021-03-27T16:22:08Z","tX":236,"tY":426,"tags":{"addr:city":"Victoria","addr:housenumber":"4507","addr:postcode":"77904","addr:state":"TX","addr:street":"North John Stockbauer Drive","name":"Shalom Village"}},"1330226762":{"location":[28.7883564,-96.9925141],"ct":"US","tp":"CR","ts":"2024-11-02T18:18:15Z","tX":236,"tY":426,"tags":{"name":"Dad's RV Park"}},"1330226764":{"location":[28.7835086,-96.9850334],"ct":"US","tp":"CR","ts":"2024-11-02T18:18:15Z","tX":236,"tY":426,"tags":{}}}