{"183961775":{"location":[58.2780981,58.3668457],"ct":"RU","tp":"CS","ts":"2019-03-04T10:06:02Z","tX":678,"tY":306,"tags":{"addr:city":"Кусье-Александровский","addr:country":"RU","addr:district":"Горнозаводский район","addr:housenumber":"6","addr:postcode":"618831","addr:region":"Пермский край","addr:street":"улица Демьяна Бедного","addr:subdistrict":"Кусье-Александровское сельское поселение","name":"Турбаза «Затерянный Мир»","phone":"+7 342 2942258;+7 342 2942259","website":"https://zmtravel.ru/"}},"1272252003":{"location":[58.2683374,58.4479122],"ct":"RU","tp":"CS","ts":"2011-05-04T17:36:41Z","tX":678,"tY":306,"tags":{}},"1272252008":{"location":[58.2700279,58.4657882],"ct":"RU","tp":"CS","ts":"2011-05-04T17:36:41Z","tX":678,"tY":306,"tags":{}},"1272252020":{"location":[58.2714452,58.4617457],"ct":"RU","tp":"CS","ts":"2011-05-04T17:36:42Z","tX":678,"tY":306,"tags":{}},"1272252065":{"location":[58.2718092,58.4518805],"ct":"RU","tp":"CS","ts":"2011-05-04T17:36:44Z","tX":678,"tY":306,"tags":{}},"1272252073":{"location":[58.3335249,58.6319097],"ct":"RU","tp":"CS","ts":"2011-05-04T17:36:44Z","tX":678,"tY":306,"tags":{}},"2704301580":{"location":[58.2887767,58.5440524],"ct":"RU","tp":"CS","ts":"2014-03-06T18:06:33Z","tX":678,"tY":306,"tags":{}},"2704301591":{"location":[58.331322,58.6076036],"ct":"RU","tp":"CS","ts":"2014-03-06T18:06:33Z","tX":678,"tY":306,"tags":{}},"5574475665":{"location":[58.3203678,58.5693162],"ct":"RU","tp":"CS","ts":"2018-04-23T19:38:16Z","tX":678,"tY":306,"tags":{}},"5574475666":{"location":[58.3322077,58.5975404],"ct":"RU","tp":"CS","ts":"2018-04-23T19:38:16Z","tX":678,"tY":306,"tags":{}},"5814015553":{"location":[58.3614789,58.7012342],"ct":"RU","tp":"CS","ts":"2021-04-25T14:27:37Z","tX":678,"tY":306,"tags":{}},"7449125086":{"location":[58.3005483,58.5617561],"ct":"RU","tp":"CS","ts":"2020-04-26T15:02:36Z","tX":678,"tY":306,"tags":{"name":"Поляна Вудвард"}}}