{"4085905":{"location":[45.8414145,34.9228552],"ct":"UA","tp":"CS","ts":"2023-10-23T02:10:33Z","tX":611,"tY":364,"tags":{"barrier":"fence","description":"Дитячий оздоровчий заклад","name":"ДОЗ Голубе полум'я","name:en":"Children summer camp Blue Flame","name:ru":"ДОЦ Голубое пламя","name:uk":"ДОЗ Голубе полум'я","operator":"ПАТ Дніпропетровськгаз"}},"119419364":{"location":[46.014333,34.8440622],"ct":"UA","tp":"CS","ts":"2023-10-23T02:10:55Z","tX":611,"tY":364,"tags":{"barrier":"fence","name":"База відпочинку \"Азов\"","name:ru":"База отдыха \"Азов\"","name:uk":"База відпочинку \"Азов\"","stars":"2"}},"538795028":{"location":[45.9608316,34.8640336],"ct":"UA","tp":"CS","ts":"2018-07-02T17:23:26Z","tX":611,"tY":364,"tags":{}},"604396953":{"location":[45.9702051,34.8568387],"ct":"UA","tp":"CS","ts":"2018-07-02T21:13:02Z","tX":611,"tY":364,"tags":{"leisure":"resort"}},"604733526":{"location":[45.9645027,34.8602475],"ct":"UA","tp":"CS","ts":"2018-07-03T20:19:25Z","tX":611,"tY":364,"tags":{}},"617692075":{"location":[45.9474158,34.8681231],"ct":"UA","tp":"CR","ts":"2022-01-07T21:45:18Z","tX":611,"tY":364,"tags":{"barrier":"wall"}},"2411190305":{"location":[45.9978169,34.8519829],"ct":"UA","tp":"CR","ts":"2013-08-08T14:52:54Z","tX":611,"tY":364,"tags":{}},"4373192689":{"location":[46.0167406,34.8403586],"ct":"UA","tp":"CS","ts":"2022-10-04T18:43:46Z","tX":611,"tY":364,"tags":{"internet_access":"wlan","name":"База відпочинку \"ЕДЕЛЬВЕЙС\"","name:uk":"База відпочинку \"ЕДЕЛЬВЕЙС\"","opening_hours":"24/7","phone":"+380 67 376 6317"}},"4379585542":{"location":[45.907792,34.8889526],"ct":"UA","tp":"CS","ts":"2016-09-01T18:36:36Z","tX":611,"tY":364,"tags":{}},"4379591096":{"location":[45.9001182,34.8929067],"ct":"UA","tp":"CS","ts":"2016-09-01T18:38:19Z","tX":611,"tY":364,"tags":{}},"4502489174":{"location":[45.8373272,34.9250142],"ct":"UA","tp":"CS","ts":"2023-03-04T00:58:25Z","tX":611,"tY":364,"tags":{"name":"Десна","name:uk":"Десна"}},"5787559753":{"location":[46.0453865,34.8394081],"ct":"UA","tp":"CS","ts":"2023-03-04T00:58:25Z","tX":611,"tY":364,"tags":{"name":"Чайка 3","name:uk":"Чайка 3"}},"6423855885":{"location":[45.9511216,34.8690034],"ct":"UA","tp":"CS","ts":"2023-10-24T00:00:40Z","tX":611,"tY":364,"tags":{"name":"Стоянка клубу караванерів України","name:ru":"Стоянка клуба караванеров Украины","name:uk":"Стоянка клубу караванерів України"}},"9809168517":{"location":[46.0380401,34.8417072],"ct":"UA","tp":"CS","ts":"2023-03-12T20:51:00Z","tX":611,"tY":364,"tags":{"name":"Винна троянда","name:en":"Wine rose","name:uk":"Винна троянда"}},"4374480389":{"location":[46.0169951,34.8473821],"ct":"UA","tp":"CR","ts":"2016-08-29T17:02:31Z","tX":611,"tY":364,"tags":{}},"6569740594":{"location":[45.9038259,34.8906975],"ct":"UA","tp":"CR","ts":"2022-10-04T18:51:32Z","tX":611,"tY":364,"tags":{"addr:street":"Берегова вулиця","fee":"no"}},"6569741094":{"location":[45.9058688,34.8892162],"ct":"UA","tp":"CR","ts":"2023-03-04T00:58:25Z","tX":611,"tY":364,"tags":{"addr:housenumber":"12д","addr:street":"Берегова вулиця","internet_access":"wlan","name":"Р.А.С.А.","name:uk":"Р.А.С.А.","opening_hours":"24/7"}},"8743873211":{"location":[45.9517591,34.8686248],"ct":"UA","tp":"CR","ts":"2021-12-04T14:21:23Z","tX":611,"tY":364,"tags":{"description":"Стоянка \"Клуба караванеров Украины\""}}}