{"181134774":{"location":[32.7226451,35.0098857],"ct":"IL","tp":"CS","ts":"2021-04-12T10:56:42Z","tX":611,"tY":413,"tags":{"name":"חניון האגם","name:en":"Chenyon Ha'Agam","name:he":"חניון האגם"}},"219029488":{"location":[32.7439573,35.0420824],"ct":"IL","tp":"CS","ts":"2024-06-20T06:38:19Z","tX":611,"tY":413,"tags":{"name":"חניון הרקפות","name:en":"Harakafot parking site","name:he":"חניון הרקפות","picnic_table":"yes"}},"278478727":{"location":[32.725556,35.013889],"ct":"IL","tp":"CS","ts":"2024-04-14T13:48:18Z","tX":611,"tY":413,"tags":{"gns_ref":"-781679","name":"חוות משמר הכרמל","name:en":"Havat Mishmar Ha-Carmel","name:he":"חוות משמר הכרמל","wikidata":"Q16132058","wikipedia":"he:חוות משמר הכרמל","wikipedia:he":"חוות משמר הכרמל"}},"665044705":{"location":[32.6248321,35.1159993],"ct":"IL","tp":"CS","ts":"2024-04-20T20:14:17Z","tX":611,"tY":413,"tags":{"access":"permit","description":"לתיאום קבוצות: 1-800-350-350 קו ליער","name":"חניון לילה הר גחר","name:en":"HaZorea HaTsofim Park","note":"לתיאום קבוצות: 1-800-350-350 קו ליער","operator":"קק״ל"}},"685075007":{"location":[32.7949598,35.1459147],"ct":"IL","tp":"CS","ts":"2020-04-18T16:36:56Z","tX":611,"tY":413,"tags":{}},"756745357":{"location":[32.7353375,35.0129905],"ct":"IL","tp":"CS","ts":"2024-05-02T18:58:54Z","tX":611,"tY":413,"tags":{"name":"חניון פיתולים","name:en":"Pitulim Campground","name:he":"חניון פיתולים"}},"2204534919":{"location":[32.7405002,35.051906],"ct":"IL","tp":"CS","ts":"2024-06-20T06:38:19Z","tX":611,"tY":413,"tags":{"description":"פינת קפה וישיבה בצל הרבה סינגלים מסביב","description:he":"פינת קפה וישיבה בצל הרבה סינגלים מסביב","image":"https://upload.wikimedia.org/wikipedia/commons/d/d9/IHM_בית_היערן.jpeg","name":"בית היערן","name:en":"Beit HaYaaran","name:he":"בית היערן","picnic_table":"yes"}},"2517125362":{"location":[32.714344,35.0129051],"ct":"IL","tp":"CS","ts":"2023-11-06T19:45:09Z","tX":611,"tY":413,"tags":{"description":"חניון לילה עם שירותים ציבוריים ושולחנות וספסלים נגישים","description:he":"חניון עם שירותים, שולחנות וספסלים נגישים.","image":"https://upload.wikimedia.org/wikipedia/commons/3/3d/IHM_חניון_רקית.jpeg","image1":"https://upload.wikimedia.org/wikipedia/commons/2/20/IHM_חניון_רקית_1.jpeg","name":"חניון רקית","name:en":"Rakit","name:he":"חניון רקית"}},"5270392121":{"location":[32.7139075,34.9764741],"ct":"IL","tp":"CS","ts":"2023-04-23T19:19:34Z","tX":611,"tY":413,"tags":{"name":"חניון נחל אורן","name:en":"Nahal Oren Campsite","name:he":"חניון נחל אורן"}},"6333387883":{"location":[32.73189,35.0026387],"ct":"IL","tp":"CS","ts":"2023-05-26T10:27:41Z","tX":611,"tY":413,"tags":{"description":"Paid camp ground: water, shower, toilet, fireplace, fridge","name":"יער הפיות","name:en":"Fairy Forest","name:he":"יער הפיות","phone":"0528797920"}},"7958530185":{"location":[32.6325918,35.1178832],"ct":"IL","tp":"CS","ts":"2024-04-20T18:18:27Z","tX":611,"tY":413,"tags":{"description":"פינה מדהימה לפיקניק וקפה הוקמה לזכרו של טל יפרח ז״ל","description:he":"פינה מדהימה לפיקניק וקפה הוקמה לזכרו של טל יפרח ז״ל","image":"https://upload.wikimedia.org/wikipedia/commons/5/51/IHM_חורשה_לזכרו_של_טל.jpeg","image1":"https://upload.wikimedia.org/wikipedia/commons/4/43/IHM_חורשה_לזכרו_של_טל_1.jpeg","image2":"https://upload.wikimedia.org/wikipedia/commons/a/a1/IHM_חורשה_לזכרו_של_טל_2.jpeg","image3":"https://upload.wikimedia.org/wikipedia/commons/f/fb/IHM_חורשה_לזכרו_של_טל_3.jpeg","name":"חניון אלת הטל","name:he":"חניון אלת הטל"}},"8174595213":{"location":[32.7339493,35.0404814],"ct":"IL","tp":"CS","ts":"2022-06-26T21:31:14Z","tX":611,"tY":413,"tags":{"description":"חניון עם שולחנות, ברז ושירותים ומעט עצים.","description:he":"חניון עם שולחנות, ברז ושירותים ומעט עצים.","name":"חניון לילה הר אלון","name:he":"חניון לילה הר אלון"}},"8570834596":{"location":[32.677584,35.0554722],"ct":"IL","tp":"CS","ts":"2021-05-11T13:23:39Z","tX":611,"tY":413,"tags":{"barrier":"yes","capacity":"400","fee":"no","int_name":"Oren Ha-Sela","motor_vehicle":"no","name":"חניון לילה אורן הסלע","name:de":"Kiefern Felsen","name:en":"Oren Ha-Sela","name:he":"חניון לילה אורן הסלע","toilets":"yes","water_source":"yes"}},"9315127944":{"location":[32.728021,35.0706288],"ct":"IL","tp":"CS","ts":"2023-08-06T22:43:41Z","tX":611,"tY":413,"tags":{"camp_site":"basic","description":"חניון לילה עם שירותים פתוחים ומים, אסור מדורות אבל מותר מנגל","description:he":"חניון לילה עם שירותים פתוחים ומים, אסור מדורות אבל מותר מנגל","image":"https://upload.wikimedia.org/wikipedia/commons/4/42/IHM_בית_השומר.jpeg","image1":"https://upload.wikimedia.org/wikipedia/commons/0/07/IHM_בית_השומר_1.jpeg","name":"בית השומר","name:he":"בית השומר"}},"9899008517":{"location":[32.7428051,35.0588188],"ct":"IL","tp":"CS","ts":"2022-07-20T07:31:59Z","tX":611,"tY":413,"tags":{"fee":"no","image":"https://upload.wikimedia.org/wikipedia/commons/3/35/IHM_חניון_שביל_ישראל.jpeg","name":"חניון שביל ישראל","name:en":"Israel Trail Campground","name:he":"חניון שביל ישראל","operator":"npa"}},"10876035105":{"location":[32.7438503,35.0719918],"ct":"IL","tp":"CS","ts":"2023-06-10T18:17:06Z","tX":611,"tY":413,"tags":{"description":"חניון לילה על גבול של השמורה. יש ספסלים, מים ושקעי חשמל","description:he":"חניון לילה על גבול של השמורה. יש ספסלים, מים ושקעי חשמל","name":"חניון יגור","name:he":"חניון יגור"}},"11000967753":{"location":[32.56825,35.0763556],"ct":"IL","tp":"CS","ts":"2024-04-20T20:56:52Z","tX":611,"tY":413,"tags":{"access":"yes","capacity:persons":"300","fee":"no","name":"חניון לילה יער גלעד","name:he":"חניון לילה יער גלעד","operator":"קק\"ל","tents":"yes"}},"11074906105":{"location":[32.7628425,35.0135773],"ct":"IL","tp":"CS","ts":"2023-12-09T21:32:26Z","tX":611,"tY":413,"tags":{"description":"חניון לילה גדול מאוד, בהמשך יש גם ברזים למילוי מים","description:he":"חניון לילה גדול מאוד, בהמשך יש גם ברזים למילוי מים","image":"https://upload.wikimedia.org/wikipedia/commons/6/6b/IHM_חניון_טללים.jpeg","image1":"https://upload.wikimedia.org/wikipedia/commons/a/a8/IHM_חניון_טללים_1.jpeg","image2":"https://upload.wikimedia.org/wikipedia/commons/9/95/IHM_חניון_טללים_2.jpeg","image3":"https://upload.wikimedia.org/wikipedia/commons/7/75/IHM_חניון_טללים_3.jpeg","image4":"https://upload.wikimedia.org/wikipedia/commons/2/25/IHM_חניון_טללים_4.jpeg","image5":"https://upload.wikimedia.org/wikipedia/commons/0/08/IHM_חניון_טללים_5.jpeg","name":"חניון טללים","name:he":"חניון טללים"}},"11991816696":{"location":[32.6468618,34.9715567],"ct":"IL","tp":"CS","ts":"2024-10-26T21:18:52Z","tX":611,"tY":413,"tags":{"description":"יער חוף הכרמל - יער עופר מכסה את המורדות המערביים של הכרמל, בין כפר הנוער מאיר שפיה בדרום ונחל מערות בצפון. מדרונות היער משקיפים על נוף מרהיב של מישור חוף הכרמל והים, מרחב שבו יער נטע האדם משתלב בעצי חורש ים תיכוני.","email":"irits@kkl.org.il","name":"חניון לילה - תנועות הנוער","name:he":"חניון לילה תנועות הנוער","operator":"קק\"ל","phone":"04-9950102","website":"https://www.kkl.org.il/recreation_areas_overnight_ofer_forest/"}}}