{"5476005968":{"location":[31.5629218,34.8479622],"ct":"IL","tp":"CS","ts":"2018-03-13T16:32:36Z","tX":611,"tY":417,"tags":{"name":"חניון תל לכיש","name:he":"חניון תל לכיש"}},"5473235021":{"location":[31.5011006,35.042379],"ct":"PS","tp":"CS","ts":"2018-03-12T14:28:29Z","tX":611,"tY":417,"tags":{"name":"ارض امجد"}},"5875265693":{"location":[31.595155,35.0094208],"ct":"PS","tp":"CS","ts":"2018-09-02T07:10:42Z","tX":611,"tY":417,"tags":{"name":"مزرعة الادهمي / بيت اولا"}},"7683764885":{"location":[31.5158656,35.0722678],"ct":"PS","tp":"CS","ts":"2020-07-04T21:06:12Z","tX":611,"tY":417,"tags":{"addr:street":"Dwer Ban Street"}},"8143024770":{"location":[31.5084247,35.0739784],"ct":"PS","tp":"CS","ts":"2020-11-19T15:36:41Z","tX":611,"tY":417,"tags":{"name":"المركز الكوري"}},"5083763822":{"location":[31.4243138,35.0729887],"ct":"PS","tp":"CR","ts":"2017-09-06T13:26:06Z","tX":611,"tY":417,"tags":{"name":"الجبر","name:ar":"الجبر"}},"5228353723":{"location":[31.4153064,34.9781716],"ct":"PS","tp":"CR","ts":"2017-11-14T14:39:52Z","tX":611,"tY":417,"tags":{"name":"بيت جمال عبد الهادي"}},"5324427222":{"location":[31.5673248,34.9726827],"ct":"PS","tp":"CR","ts":"2018-01-06T20:10:08Z","tX":611,"tY":417,"tags":{"addr:street":"واد عزيز-المنطار","name":"خالد الطميزي","name:en":"Khalid Tomizy"}},"5381677622":{"location":[31.554908,35.0959617],"ct":"PS","tp":"CR","ts":"2018-02-02T22:44:37Z","tX":611,"tY":417,"tags":{"addr:street":"دائرة السير","name":"بيتي","phone":"0595207200","website":"http://samer.zall@hotmail.com"}},"5531873422":{"location":[31.538769,35.0701443],"ct":"PS","tp":"CR","ts":"2018-04-05T19:50:50Z","tX":611,"tY":417,"tags":{}},"5613549621":{"location":[31.5139988,35.0913956],"ct":"PS","tp":"CR","ts":"2018-05-12T13:04:19Z","tX":611,"tY":417,"tags":{"name":"الضاحيه","name:ar":"منزل مروان"}},"5796804355":{"location":[31.5414735,35.0875633],"ct":"PS","tp":"CR","ts":"2018-07-30T19:39:36Z","tX":611,"tY":417,"tags":{"name":"منزل الحاج محسن ارشيد"}},"7922813689":{"location":[31.542676,35.1476335],"ct":"PS","tp":"CR","ts":"2020-09-19T11:21:35Z","tX":611,"tY":417,"tags":{"addr:street":"شارع العديسة","name":"حارة الجرادات","name:en":"Al-Jaradat Place"}}}