{"275890910":{"location":[30.2796383,34.9969164],"ct":"IL","tp":"CS","ts":"2023-04-08T12:16:33Z","tX":611,"tY":421,"tags":{"description":"חניון לילה בשטח עם עוקב מים של רט״ג","description:en":"Overnight parking in the area with RTG water tracker","description:he":"חניון לילה בשטח עם עוקב מים של רט״ג","fee":"no","image":"https://upload.wikimedia.org/wikipedia/commons/b/b3/Israel_Hiking_Map_%D7%97%D7%A0%D7%99%D7%95%D7%9F_%D7%9C%D7%99%D7%9C%D7%94_%D7%A6%D7%95%D7%9E%D7%AA_%D7%A6%D7%99%D7%97%D7%95%D7%A8.jpeg","name":"חניון לילה צומת ציחור","name:en":"Tzihor Junction Campsite","name:he":"חניון לילה צומת ציחור","source":"GPS"}},"385475359":{"location":[30.2050954,34.9132042],"ct":"IL","tp":"CS","ts":"2023-04-08T12:16:33Z","tX":611,"tY":421,"tags":{"name":"חניון לילה נחל ציחור","name:en":"Nahal Tzihor Campsite","name:he":"חניון לילה נחל ציחור","source":"GPS"}},"2241653346":{"location":[30.324131,34.90376],"ct":"IL","tp":"CS","ts":"2023-08-07T11:25:51Z","tX":611,"tY":421,"tags":{"access":"yes","capacity:persons":"200","ele":"297.2","fee":"no","name":"חניון לילה באר עדה","name:en":"Beer Ada Campsite","name:he":"חניון לילה באר עדה","operator":"Israel Nature and Parks Authority","tents":"yes"}},"3468127952":{"location":[30.3162641,35.009175],"ct":"IL","tp":"CS","ts":"2017-06-10T05:07:47Z","tX":611,"tY":421,"tags":{"ele":"219","name":"חניון לילה מפגש ציחור-פארן","name:en":"Paran Night Camp","name:he":"חניון לילה מפגש ציחור-פארן","source":"GPS"}},"3468128701":{"location":[30.3338986,34.9552121],"ct":"IL","tp":"CS","ts":"2022-05-18T05:57:59Z","tX":611,"tY":421,"tags":{"ele":"259.0","fee":"no","name":"חניון לילה באר אשלים","name:en":"Ashalim Well Campground","name:he":"חניון לילה באר אשלים","source":"GPS"}},"3468129095":{"location":[30.3324236,34.9548323],"ct":"IL","tp":"CS","ts":"2022-05-18T05:57:58Z","tX":611,"tY":421,"tags":{"fee":"no","name":"חניון לילה נחל פארן","name:en":"Wadi Paran Campground","name:he":"חניון לילה נחל פארן"}},"3832560922":{"location":[30.4159584,35.1416664],"ct":"IL","tp":"CS","ts":"2024-03-14T07:40:32Z","tX":611,"tY":421,"tags":{"description":"חניון הלילה בנחל ברק הוקם לזכרו של ברק רודבסקי מרחובות שנעלם בנהר האפורימק בפרו2003. החניון הוקם על ידי המשפחה חברים ובסיוע רשות הטבע והגנים. בחניון יש ברז מחובר למכל מים לטובת המטיילים.","description:he":"חניון הלילה בנחל ברק הוקם לזכרו של ברק רודבסקי מרחובות שנעלם בנהר האפורימק בפרו2003. החניון הוקם על ידי המשפחה חברים ובסיוע רשות הטבע והגנים. בחניון יש ברז מחובר למכל מים לטובת המטיילים.","name":"חניון לילה נחל ברק","name:en":"Barak Night Camp","name:he":"חניון לילה נחל ברק"}},"8891535917":{"location":[30.4012434,35.0250901],"ct":"IL","tp":"CS","ts":"2023-08-14T15:10:06Z","tX":611,"tY":421,"tags":{"image":"https://upload.wikimedia.org/wikipedia/commons/6/62/IHM_חניון_לילה_הר_כיפה.jpeg","image1":"https://upload.wikimedia.org/wikipedia/commons/9/9f/IHM_חניון_לילה_הר_כיפה_1.jpeg","name":"חניון לילה הר כיפה","name:he":"חניון לילה הר כיפה"}}}