{"7845750885":{"location":[36.3176813,36.6599963],"ct":"SY","tp":"CS","ts":"2020-08-26T09:57:32Z","tX":616,"tY":400,"tags":{"name":"مخيم العمر","name:en":"Alomar Camp"}},"7845780685":{"location":[36.319676,36.659294],"ct":"SY","tp":"CS","ts":"2020-08-26T09:57:34Z","tX":616,"tY":400,"tags":{"name":"مخيم الاتحاد","name:en":"Ittehad Camp"}},"7845782586":{"location":[36.319717,36.6623785],"ct":"SY","tp":"CS","ts":"2020-08-26T09:57:33Z","tX":616,"tY":400,"tags":{"name":"مخيم ريف حماه الغربي","name:en":"Ref Hama Algharbi Camp"}},"7845870885":{"location":[36.3231104,36.661903],"ct":"SY","tp":"CS","ts":"2020-08-26T09:57:35Z","tX":616,"tY":400,"tags":{"name":"مخيم العربية","name:en":"Alarabia Camp"}},"7846029385":{"location":[36.3236434,36.6614537],"ct":"SY","tp":"CS","ts":"2020-08-26T09:57:36Z","tX":616,"tY":400,"tags":{"name":"مخيم الجزيرة","name:en":"Aljazerah Camp"}},"7849327985":{"location":[36.3229781,36.6621445],"ct":"SY","tp":"CS","ts":"2020-08-27T09:47:25Z","tX":616,"tY":400,"tags":{"name":"مخيم الفاروق عمر","name:en":"Alfarok Omar camp"}},"10097345117":{"location":[36.3262895,36.6700791],"ct":"SY","tp":"CS","ts":"2023-02-25T23:21:01Z","tX":616,"tY":400,"tags":{"name":"مخيم رحمة","name:en":"Alrahma Camp"}}}