{"528086805":{"location":[43.6402991,-111.6998837],"ct":"US","tp":"CS","ts":"2017-09-27T09:45:50Z","tX":194,"tY":373,"tags":{"addr:city":"Ririe","addr:housenumber":"98","addr:postcode":"83443","addr:state":"ID","addr:street":"North 5050 East","name":"Mountain River Ranch RV Park/Campground","website":"https://www.mountainriverranch.com"}},"5045436825":{"location":[43.630271,-111.5901259],"ct":"US","tp":"CS","ts":"2017-08-19T22:07:52Z","tX":194,"tY":373,"tags":{"name":"Table Rock Campground","name:en":"Table Rock Campground"}},"5107343295":{"location":[43.6417743,-111.7017371],"ct":"US","tp":"CS","ts":"2017-09-15T11:47:30Z","tX":194,"tY":373,"tags":{"name":"Aspen Grove Inn"}},"9760549594":{"location":[43.6001002,-111.6083828],"ct":"US","tp":"CS","ts":"2022-05-21T21:45:34Z","tX":194,"tY":373,"tags":{"addr:city":"Ririe","addr:postcode":"83443","addr:state":"ID","addr:street":"Burns Creek Rd","name":"Wolf Flats Recreation Area"}},"12297538571":{"location":[43.6072054,-111.5552039],"ct":"US","tp":"CS","ts":"2024-10-29T19:49:32Z","tX":194,"tY":373,"tags":{}}}