{"14412207":{"location":[40.3355241,-111.6129156],"ct":"US","tp":"CS","ts":"2022-08-02T00:09:15Z","tX":194,"tY":386,"tags":{"name":"Nunn's Park Campground"}},"14919202":{"location":[40.3195399,-111.5179879],"ct":"US","tp":"CS","ts":"2022-11-21T20:06:45Z","tX":194,"tY":386,"tags":{"access":"private","name":"Trefoil Ranch Girl Scout Camp"}},"14936736":{"location":[40.4041605,-111.604169],"ct":"US","tp":"CS","ts":"2024-10-19T06:35:40Z","tX":194,"tY":386,"tags":{"name":"Theater In The Pines Group Campsite"}},"15035581":{"location":[40.2405078,-111.7354592],"ct":"US","tp":"CS","ts":"2024-04-23T23:24:13Z","tX":194,"tY":386,"tags":{"access":"yes","addr:city":"Provo","addr:housenumber":"4400","addr:postcode":"84601","addr:state":"UT","addr:street":"West Center Street","caravans":"yes","fee":"yes","name":"Utah Lake State Park Campground","operator":"Utah State Parks","power_supply":"yes","sanitary_dump_station":"yes","shower":"yes","tents":"yes","toilets":"yes","website":"https://stateparks.utah.gov/parks/utah-lake"}},"18461860":{"location":[40.4327117,-111.63798],"ct":"US","tp":"CS","ts":"2024-12-25T06:49:13Z","tX":194,"tY":386,"tags":{"access":"yes","addr:country":"US","addr:state":"UT","area":"yes","campers":"yes","caravans":"yes","description":"Maximum RV length: 30 feet. Open only June to October. See web site for specific opening dates each year.","drinking_water":"yes","horse":"yes","maxlength":"30'","name":"Timpooneke Campground","openfire":"yes","opening_hours":"Jun-Oct 00:00-24:00; Nov-May off","operator":"US Forest Service","payment:cash":"yes","phone":"+1-801-785-3563","sanitary_dump_station":"no","shower":"no","tents":"yes","toilets":"yes","website":"https://www.fs.usda.gov/recarea/uwcnf/recreation/camping-cabins/recarea/?recid=9906&actid=29","wheelchair":"yes"}},"82361225":{"location":[40.3639459,-111.7874754],"ct":"US","tp":"CR","ts":"2023-09-26T23:05:55Z","tX":194,"tY":386,"tags":{"addr:city":"American Fork","addr:housenumber":"418","addr:postcode":"84003","addr:state":"UT","addr:street":"East 620 South","fixme":"Needs survey to determine if this RV park still exists","name":"RV Park (possibly closed)"}},"282986389":{"location":[40.4060255,-111.6057181],"ct":"US","tp":"CS","ts":"2024-10-17T17:31:19Z","tX":194,"tY":386,"tags":{"access":"yes","camp_site":"standard","campers":"yes","capacity":"27","caravans":"yes","description":"Seven day stay limit. See web site for specific opening dates each season.","drinking_water":"yes","fee":"yes","maxlength":"20'","motor_vehicle":"yes","name":"Mount Timpanogos","openfire":"yes","opening_hours":"Jun-Sep 00:00-24:00; Oct-May off","operator":"USDA","phone":"+1-801-785-3563","power_supply":"no","reservation":"required","sanitary_dump_station":"no","shower":"no","tents":"yes","toilets":"yes","website":"https://www.fs.usda.gov/recarea/uwcnf/recreation/camping-cabins/recarea/?recid=9903&actid=29"}},"282986394":{"location":[40.4318839,-111.6455365],"ct":"US","tp":"CS","ts":"2024-12-25T06:49:13Z","tX":194,"tY":386,"tags":{"access":"yes","addr:country":"US","addr:state":"UT","area":"yes","campers":"yes","caravans":"yes","description":"Maximum RV length: 30 feet. Open only June to October. See web site for specific opening dates each year.","drinking_water":"yes","horse":"yes","maxlength":"30'","name":"Timpooneke Campground","openfire":"yes","opening_hours":"Jun-Oct 00:00-24:00; Nov-May off","operator":"US Forest Service","payment:cash":"yes","phone":"+1-801-785-3563","sanitary_dump_station":"no","shower":"no","tents":"yes","toilets":"yes","website":"https://www.fs.usda.gov/recarea/uwcnf/recreation/camping-cabins/recarea/?recid=9906&actid=29","wheelchair":"yes"}},"338633243":{"location":[40.3032478,-111.6165977],"ct":"US","tp":"CS","ts":"2024-05-03T17:29:50Z","tX":194,"tY":386,"tags":{"access":"yes","addr:postcode":"84604","addr:state":"UT","addr:street":"Squaw Peak Rd","camp_site":"standard","campers":"yes","caravans":"yes","description":"Seven day stay limit. Check website for exact openig dates each season.","drinking_water":"no","fee":"yes","motor_vehicle":"yes","name":"Hope Campground","openfire":"yes","opening_hours":"May-Sep 00:00-24:00; Oct-Apr off","operator":"US Forest Service","phone":"+1-801-785-3563","power_supply":"no","reservation":"required","sanitary_dump_station":"no","shower":"no","tents":"yes","toilets":"yes","website":"https://www.fs.usda.gov/recarea/uwcnf/recreation/natureviewing/recarea/?recid=9899&actid=31"}},"458256321":{"location":[40.1891178,-111.6404533],"ct":"US","tp":"CR","ts":"2024-04-24T00:53:22Z","tX":194,"tY":386,"tags":{"addr:city":"Springville","addr:country":"US","addr:housenumber":"550","addr:postcode":"84663","addr:state":"UT","addr:street":"North 1750 West Street","campers":"yes","caravans":"yes","dog":"yes","email":"springville@koa.com","fee":"yes","internet_access":"wlan","maxlength":"21","motor_vehicle":"yes","name":"Springville / Provo KOA","operator":"KOA","permanent_camping":"yes","phone":"+1-801-491-0700","power_supply":"yes","sanitary_dump_station":"yes","shower":"yes","swimming_pool":"yes","tents":"yes","toilets":"yes","washing_machine":"yes","website":"https://koa.com/campgrounds/springville-provo/","wheelchair":"yes"}},"540257977":{"location":[40.236157,-111.7279583],"ct":"US","tp":"CR","ts":"2023-09-26T23:14:17Z","tX":194,"tY":386,"tags":{"addr:city":"Provo","addr:housenumber":"4000","addr:postcode":"84601","addr:state":"UT","addr:street":"West Center Street","internet_access":"wlan","internet_access:fee":"customers","name":"Lakeside RV Campground","phone":"+1-801-373-5267","power_supply":"yes","sanitary_dump_station":"yes","tents":"yes","website":"https://lakesidervcampground.com"}},"762990452":{"location":[40.4398362,-111.6263519],"ct":"US","tp":"CS","ts":"2024-05-11T15:52:03Z","tX":194,"tY":386,"tags":{"camp_site":"basic","campers":"yes","capacity":"50","caravans":"yes","charge":"6 USD / 3 days","fee":"yes","maxlength":"30'","motor_vehicle":"yes","name":"Salamander Flat Dispersed Campground","openfire":"yes","operator":"US Forest Service","reservation":"no","shower":"no","tents":"yes","toilets":"yes"}},"763128717":{"location":[40.268999,-111.5854748],"ct":"US","tp":"CS","ts":"2023-09-25T16:59:29Z","tX":194,"tY":386,"tags":{"access":"yes","camp_site":"basic","campers":"yes","caravans":"yes","description":"Seven day stay limit. Check website for exact opening dates each season.","drinking_water":"no","fee":"yes","group_only":"yes","motor_vehicle":"yes","name":"Rock Canyon Campground","openfire":"yes","opening_hours":"May-Oct 00:00-24:00; Nov-Apr off","operator":"US Forest Service","power_supply":"no","reservation":"required","sanitary_dump_station":"no","tents":"yes","toilets":"no","website":"https://www.fs.usda.gov/recarea/uwcnf/recarea/?recid=9630"}},"832414684":{"location":[40.4350264,-111.6348035],"ct":"US","tp":"CS","ts":"2024-02-06T18:00:45Z","tX":194,"tY":386,"tags":{"access":"customers","capacity":"100","charge":"255 USD / day","description":"This is a groups-only campground. See the web site for specific opening dates each season. Stay limit is seven days.","fee":"yes","group_only":"yes","name":"Altamont Group Campground","openfire":"yes","opening_hours":"Jun-Sep 00:00-24:00; Oct-May off","operator":"US Forest Service","phone":"+1-801-785-3563","reservation":"required","shower":"no","toilets":"yes","toilets:disposal":"flush","toilets:wheelchair":"yes","website":"https://www.fs.usda.gov/recarea/uwcnf/recarea/?recid=9900"}},"1323217297":{"location":[40.2687457,-111.5859933],"ct":"US","tp":"CS","ts":"2024-10-11T16:09:04Z","tX":194,"tY":386,"tags":{"group_only":"yes","name":"Gifford Pinchot Group Area"}},"1323217298":{"location":[40.2695067,-111.586646],"ct":"US","tp":"CS","ts":"2024-10-11T16:09:04Z","tX":194,"tY":386,"tags":{"group_only":"yes","name":"Aldo Leopold Group Area"}},"1323217299":{"location":[40.2695293,-111.5857792],"ct":"US","tp":"CS","ts":"2024-10-11T16:09:04Z","tX":194,"tY":386,"tags":{"group_only":"yes","name":"Vivian West Group Area"}},"1323217301":{"location":[40.268577,-111.5853988],"ct":"US","tp":"CS","ts":"2024-10-11T16:09:04Z","tX":194,"tY":386,"tags":{"group_only":"yes","name":"Albert F Potter Group Area"}},"7771574704":{"location":[40.4431744,-111.6164959],"ct":"US","tp":"CS","ts":"2020-07-31T01:26:38Z","tX":194,"tY":386,"tags":{"backcountry":"yes","camp_site":"basic"}},"9796128659":{"location":[40.4334233,-111.6377198],"ct":"US","tp":"CS","ts":"2024-11-04T21:43:19Z","tX":194,"tY":386,"tags":{"group_only":"yes","name":"Site 1"}},"9796128660":{"location":[40.4330416,-111.6373882],"ct":"US","tp":"CS","ts":"2024-11-04T21:43:19Z","tX":194,"tY":386,"tags":{"group_only":"yes","name":"Site 2"}},"10195502023":{"location":[40.3165528,-111.5404715],"ct":"US","tp":"CS","ts":"2023-07-28T18:16:43Z","tX":194,"tY":386,"tags":{"name":"Provo School District Camp"}},"10552763880":{"location":[40.4466448,-111.6427691],"ct":"US","tp":"CS","ts":"2023-01-13T19:20:59Z","tX":194,"tY":386,"tags":{"access":"private","capacity:persons":"12","name":"Site 1","tents":"only"}},"10552763881":{"location":[40.4465567,-111.6426023],"ct":"US","tp":"CS","ts":"2023-01-13T19:20:59Z","tX":194,"tY":386,"tags":{"access":"private","capacity:persons":"12","name":"Site 2","tents":"only"}},"10552763882":{"location":[40.4464292,-111.6424693],"ct":"US","tp":"CS","ts":"2023-01-13T19:20:59Z","tX":194,"tY":386,"tags":{"access":"private","capacity:persons":"8","name":"Site 3","tents":"only"}},"10552763883":{"location":[40.4465405,-111.6429933],"ct":"US","tp":"CS","ts":"2023-01-13T19:20:59Z","tX":194,"tY":386,"tags":{"access":"private","capacity:persons":"16","name":"Site 4","tents":"only"}},"10552763884":{"location":[40.4463515,-111.6428384],"ct":"US","tp":"CS","ts":"2023-01-13T19:20:59Z","tX":194,"tY":386,"tags":{"access":"private","capacity:persons":"12","name":"Site 5","tents":"only"}},"10552763885":{"location":[40.4463017,-111.6426651],"ct":"US","tp":"CS","ts":"2023-01-13T19:20:59Z","tX":194,"tY":386,"tags":{"access":"private","capacity:persons":"12","name":"Site 6","tents":"only"}},"10552763886":{"location":[40.4463716,-111.6431216],"ct":"US","tp":"CS","ts":"2023-01-13T19:20:59Z","tX":194,"tY":386,"tags":{"access":"private","capacity:persons":"12","name":"Site 7","tents":"only"}},"10552763887":{"location":[40.4462454,-111.6431817],"ct":"US","tp":"CS","ts":"2023-01-13T19:20:59Z","tX":194,"tY":386,"tags":{"access":"private","capacity:persons":"16","name":"Site 8","tents":"only"}},"10552763888":{"location":[40.4461464,-111.6430154],"ct":"US","tp":"CS","ts":"2023-01-13T19:20:59Z","tX":194,"tY":386,"tags":{"access":"private","capacity:persons":"12","name":"Site 9","tents":"only"}},"10552763889":{"location":[40.4460294,-111.6426164],"ct":"US","tp":"CS","ts":"2023-01-13T19:20:59Z","tX":194,"tY":386,"tags":{"access":"private","capacity:persons":"12","name":"Site 11","tents":"only"}},"10552763890":{"location":[40.4461199,-111.6428196],"ct":"US","tp":"CS","ts":"2023-01-13T19:20:59Z","tX":194,"tY":386,"tags":{"access":"private","capacity:persons":"12","name":"Site 10","tents":"only"}},"10552763891":{"location":[40.446042,-111.6424028],"ct":"US","tp":"CS","ts":"2023-01-13T19:20:59Z","tX":194,"tY":386,"tags":{"access":"private","capacity:persons":"16","name":"Site 12","tents":"only"}},"10552763892":{"location":[40.4458005,-111.6423232],"ct":"US","tp":"CS","ts":"2023-01-13T19:20:59Z","tX":194,"tY":386,"tags":{"access":"private","capacity:persons":"12","name":"Site 13","tents":"only"}}}