{"334879804":{"location":[38.8027174,-111.6854927],"ct":"US","tp":"CS","ts":"2022-07-28T22:12:43Z","tX":194,"tY":392,"tags":{"ele":"2377","name":"Gooseberry Campground","operator":"United States Forest Service","source":"www.fs.usda.gov","uuid":"sonora_20130614","website":"https://www.fs.usda.gov/recarea/fishlake/recarea/?recid=12165"}},"335203191":{"location":[38.5609584,-111.7098724],"ct":"US","tp":"CS","ts":"2024-04-05T18:44:49Z","tX":194,"tY":392,"tags":{"backcountry":"no","caravans":"yes","description":"Be prepared for cold weather. Campground is adjacent to Fishlake Scenic Byway and within a short walk of Fish Lake.","drinking_water":"yes","fee":"yes","group_only":"no","internet_access":"no","name":"Bowery Creek Campground","nudism":"no","opening_hours":"May - Sep","operator":"High Country Recreation","phone":"+1 435 638 1069","power_supply":"no","reservation":"recommended","sanitary_dump_station":"no","shower":"no","source":"www.fs.usda.gov","tents":"yes","toilets":"yes","uuid":"sonora_20130614","website":"https://www.fs.usda.gov/recarea/fishlake/recarea/?recid=12129"}},"335204986":{"location":[38.6090988,-111.6786024],"ct":"US","tp":"CS","ts":"2020-10-15T15:15:14Z","tX":194,"tY":392,"tags":{"backcountry":"no","caravans":"yes","drinking_water":"yes","fee":"yes","group_only":"no","internet_access":"no","name":"Frying Pan Campground","nudism":"no","opening_hours":"May-Sep","operator":"High Country Recreation","phone":"+1 435 638 1069","power_supply":"no","reservation":"recommended","sanitary_dump_station":"no","shower":"no","source":"www.fs.usda.gov","tents":"yes","toilets":"yes","uuid":"sonora_20130614","website":"https://www.fs.usda.gov/recarea/fishlake/recreation/camping-cabins/recarea/?recid=12163"}},"335204987":{"location":[38.5557728,-111.7166232],"ct":"US","tp":"CS","ts":"2024-04-05T18:13:44Z","tX":194,"tY":392,"tags":{"backcountry":"no","caravans":"yes","description":"High elevation. Be prepared for cold weather. Campground is adjacent to Fishlake Scenic Byway. Evening programs are held on weekends from Memorial Day weekend through Labor Day weekend.","dog":"leashed","drinking_water":"yes","fee":"yes","group_only":"no","internet_access":"no","name":"Mackinaw Campground","nudism":"no","operator":"High Country Recreation","phone":"+1 435 638 1069","power_supply":"no","reservation":"recommended","sanitary_dump_station":"no","shower":"yes","source":"www.fs.usda.gov","toilets":"yes","uuid":"sonora_20130614","website":"https://www.fs.usda.gov/recarea/fishlake/recreation/camping-cabins/recarea/?recid=12201"}},"729711657":{"location":[38.5628411,-111.7049115],"ct":"US","tp":"CR","ts":"2024-04-05T18:44:49Z","tX":194,"tY":392,"tags":{"addr:city":"Fish Lake","addr:country":"US","addr:housenumber":"869","addr:postcode":"84701","addr:state":"UT","addr:street":"North SR 25","caravans":"yes","drinking_water":"yes","email":"boweryhaven@live.com","fee":"yes","name":"Bowery Haven Resort","opening_hours":"May-Sep","phone":"+1 435 638 1040","power_supply":"yes","reservation":"required","sanitary_dump_station":"yes","shower":"yes","tents":"no","toilets":"yes","website":"https://boweryhaven.com"}},"859344792":{"location":[38.6214599,-111.6599831],"ct":"US","tp":"CS","ts":"2020-10-15T15:19:00Z","tX":194,"tY":392,"tags":{"backcountry":"no","caravans":"yes","description":"Facilities include Group Camping facilities, hitch racks and rails, horse camp facility, horse corrals, horse loading ramp, horse trail, equestrian area, pavilion, picnic shelter, picnic tables, sheltered dining area, trailer parking.","drinking_water":"yes","fee":"yes","group_only":"no","horse":"yes","internet_access":"no","name":"Tasha Equestrian Campground","nudism":"no","opening_hours":"May-Sep","operator":"High Country Recreation","phone":"+1 435 638 1069","power_supply":"no","reservation":"recommended","sanitary_dump_station":"no","shower":"no","source":"www.fs.usda.gov","tents":"yes","toilets":"yes","uuid":"sonora_20130614","website":"https://www.fs.usda.gov/recarea/fishlake/recreation/camping-cabins/recarea/?recid=12257&actid=29"}},"859347056":{"location":[38.6175903,-111.6529235],"ct":"US","tp":"CS","ts":"2021-03-02T02:44:21Z","tX":194,"tY":392,"tags":{"backcountry":"no","capacity":"47","caravans":"yes","description":"This is a parking area where camping is permitted. Johnson Reservoir is within walking distance. Campground will remain open with vault toilets and no water until closed by snow.","drinking_water":"yes","fee":"yes","group_only":"no","internet_access":"no","name":"Paiute Campground","nudism":"no","opening_hours":"\"see website\"","operator":"High Country Recreation","phone":"+1 435 638 1069","power_supply":"no","reservation":"no","sanitary_dump_station":"no","shower":"no","source":"www.fs.usda.gov","tents":"yes","toilets":"yes","uuid":"sonora_20130614","website":"https://www.fs.usda.gov/recarea/fishlake/recarea/?recid=12225"}},"2344691812":{"location":[38.678743,-111.596261],"ct":"US","tp":"CS","ts":"2020-10-15T15:27:57Z","tX":194,"tY":392,"tags":{"backcountry":"yes","caravans":"yes","drinking_water":"no","internet_access":"no","name":"Black Flat CUA Dispersed","nudism":"no","operator":"USFS","reservation":"no","sanitary_dump_station":"no","shower":"no","source":"www.fs.usda.gov","tents":"yes","toilets":"yes","uuid":"sonora_20130614","website":"https://www.fs.usda.gov/recarea/fishlake/recreation/camping-cabins/recarea/?recid=12127&actid=34"}},"2344691818":{"location":[38.803216,-111.645376],"ct":"US","tp":"CS","ts":"2013-06-14T19:17:49Z","tX":194,"tY":392,"tags":{"name":"Brown's Hole Trailhead","operator":"USFS","source":"www.fs.usda.gov","uuid":"sonora_20130614"}},"2344691827":{"location":[38.782656,-111.6438],"ct":"US","tp":"CS","ts":"2013-06-14T18:27:36Z","tX":194,"tY":392,"tags":{"name":"Cold Springs CUA Dispersed","operator":"USFS","source":"www.fs.usda.gov","uuid":"sonora_20130614"}},"2344691843":{"location":[38.765947,-111.686149],"ct":"US","tp":"CS","ts":"2013-06-14T18:27:37Z","tX":194,"tY":392,"tags":{"name":"Gates Lake CUA Dispersed","operator":"USFS","source":"www.fs.usda.gov","uuid":"sonora_20130614"}},"2344691852":{"location":[38.768753,-111.655706],"ct":"US","tp":"CS","ts":"2013-06-14T18:27:38Z","tX":194,"tY":392,"tags":{"name":"Harves CUA Dispersed","operator":"USFS","source":"www.fs.usda.gov","uuid":"sonora_20130614"}},"2344691931":{"location":[38.774123,-111.651822],"ct":"US","tp":"CS","ts":"2013-06-14T18:27:40Z","tX":194,"tY":392,"tags":{"name":"Lower Farnsworth CUA Dispersed","operator":"USFS","source":"www.fs.usda.gov","uuid":"sonora_20130614"}},"2344691952":{"location":[38.784602,-111.634854],"ct":"US","tp":"CS","ts":"2013-06-14T18:27:42Z","tX":194,"tY":392,"tags":{"name":"Niotche Creek Trailhead","operator":"USFS","source":"www.fs.usda.gov","uuid":"sonora_20130614"}},"2344691974":{"location":[38.788086,-111.76829],"ct":"US","tp":"CS","ts":"2022-07-28T22:12:43Z","tX":194,"tY":392,"tags":{"access":"yes","fee":"no","name":"Rex Reservoir CUA Dispersed","operator":"USFS","source":"www.fs.usda.gov","uuid":"sonora_20130614"}},"2344691977":{"location":[38.759478,-111.65354],"ct":"US","tp":"CS","ts":"2013-06-14T18:27:44Z","tX":194,"tY":392,"tags":{"name":"Salina Reservoir CUA Dispersed","operator":"USFS","source":"www.fs.usda.gov","uuid":"sonora_20130614"}},"2344691996":{"location":[38.786957,-111.641733],"ct":"US","tp":"CS","ts":"2013-06-14T18:27:45Z","tX":194,"tY":392,"tags":{"name":"Twin Ponds CUA Dispersed","operator":"USFS","source":"www.fs.usda.gov","uuid":"sonora_20130614"}},"12250788040":{"location":[38.6059108,-111.617347],"ct":"US","tp":"CS","ts":"2024-10-14T16:26:58Z","tX":194,"tY":392,"tags":{"backcountry":"yes"}},"12250788041":{"location":[38.6051312,-111.6168899],"ct":"US","tp":"CS","ts":"2024-10-14T16:26:58Z","tX":194,"tY":392,"tags":{"backcountry":"yes"}}}