{"109062963":{"location":[36.9976339,-111.498441],"ct":"US","tp":"CS","ts":"2023-03-24T09:56:46Z","tX":194,"tY":398,"tags":{"access":"yes","addr:city":"Page","addr:housenumber":"100","addr:postcode":"86040","addr:state":"AZ","addr:street":"Lake Shore Drive","fee":"yes","internet_access":"wlan","name":"Wahweap Campground","phone":"(888) 896 3829","power_supply":"yes","reservation":"yes","sanitary_dump_station":"yes","shower":"yes","website":"https://www.lakepowell.com/rv-camping/wahweap-rv-campground/"}},"217389827":{"location":[36.9013426,-111.4525036],"ct":"US","tp":"CS","ts":"2024-06-04T22:09:44Z","tX":194,"tY":398,"tags":{"access":"yes","caravans":"yes","check_date":"2024-06-03","dog":"leashed","drinking_water":"yes","email":"cgmanager@baits.com","fax":"+1 928 6452625","fee":"yes","internet_access":"wlan","internet_access:fee":"customers","name":"Page Lake Powell Campground","phone":"+1 928 6453374","picnic_table":"yes","power_supply":"yes","sanitary_dump_station":"yes","tents":"no","toilets":"yes","website":"http://www.pagecampground.com"}},"1124299896":{"location":[36.9385117,-111.496363],"ct":"US","tp":"CS","ts":"2022-12-22T22:39:10Z","tX":194,"tY":398,"tags":{"camp_site":"basic","drinking_water":"no","toilets":"no","waste_disposal":"no"}},"1289238225":{"location":[36.9001584,-111.4487239],"ct":"US","tp":"CR","ts":"2025-03-14T17:49:02Z","tX":194,"tY":398,"tags":{"branch":"Horseshoe Bend","capacity":"219","drinking_water":"yes","fee":"yes","internet_access":"wlan","name":"Roam America","power_supply":"yes","toilets":"yes"}},"1466946736":{"location":[37.0332404,-111.7513688],"ct":"US","tp":"CS","ts":"2012-05-16T19:25:35Z","tX":194,"tY":398,"tags":{"internet_access":"no","internet_access:fee":"no","name":"Camping Judd Hollow","smoking":"yes","wheelchair":"no"}},"1826580092":{"location":[37.0164072,-111.5387104],"ct":"US","tp":"CS","ts":"2012-07-15T16:17:58Z","tX":194,"tY":398,"tags":{"name":"Lone Rock Campground"}},"3988305196":{"location":[36.997461,-111.4970182],"ct":"US","tp":"SD","ts":"2016-02-04T16:01:57Z","tX":194,"tY":398,"tags":{}},"6876489186":{"location":[37.0187728,-111.5407159],"ct":"US","tp":"CS","ts":"2019-10-14T00:13:22Z","tX":194,"tY":398,"tags":{"name":"Lone rock camping site","name:ca":"Lone rock pernocta"}},"6919125607":{"location":[36.9698673,-111.7695036],"ct":"US","tp":"CS","ts":"2019-10-26T21:22:06Z","tX":194,"tY":398,"tags":{"capacity":"20","fee":"no","internet_access":"no"}},"11203534397":{"location":[37.0707202,-111.4657139],"ct":"US","tp":"CS","ts":"2023-09-19T21:08:58Z","tX":194,"tY":398,"tags":{"camp_site":"basic"}},"10862188561":{"location":[36.9981421,-111.4982687],"ct":"US","tp":"CR","ts":"2023-05-02T11:20:28Z","tX":194,"tY":398,"tags":{"addr:city":"Page","addr:housenumber":"100","addr:postcode":"86040","addr:state":"AZ","addr:street":"Lakeshore Drive","name":"Wahweap RV & Campground","phone":"888-896-3829","website":"https://www.lakepowell.com/rv-camping/wahweap-rv-campground/"}},"5391119050":{"location":[36.9088345,-111.4833006],"ct":"US","tp":"SD","ts":"2018-02-05T22:57:56Z","tX":194,"tY":398,"tags":{}}}