{"111887828":{"location":[35.2339693,-111.5774268],"ct":"US","tp":"CR","ts":"2022-05-01T00:05:56Z","tX":194,"tY":404,"tags":{"addr:city":"Flagstaff","addr:housenumber":"5803","addr:postcode":"86004","addr:state":"AZ","addr:street":"North Highway 89","brand":"KOA","brand:wikidata":"Q16988635","ele":"2069","email":"info@flagstaffkoa.com","internet_access":"wlan","internet_access:fee":"customers","internet_access:ssid":"FLGKOA","name":"KOA Holiday - Flagstaff","phone":"+1 (800) 562-3524","power_supply":"yes","reservation":"yes","sanitary_dump_station":"yes","short_name":"KOA","tents":"yes","website":"https://koa.com/campgrounds/flagstaff/"}},"176021345":{"location":[35.3694821,-111.5415963],"ct":"US","tp":"CS","ts":"2020-08-13T16:27:52Z","tX":194,"tY":404,"tags":{"capacity":"44","fee":"yes","internet_access":"no","internet_access:fee":"no","name":"Bonito Campground","operator":"Concessionaire - Contact Flagstaff Ranger District - 928-526-0866","website":"https://www.fs.usda.gov/recarea/coconino/recreation/camping-cabins/recarea/?recid=55072&actid=29"}},"361989924":{"location":[35.1876045,-111.6889884],"ct":"US","tp":"CR","ts":"2018-04-15T02:13:36Z","tX":194,"tY":404,"tags":{"addr:city":"Flagstaff","addr:housenumber":"2727","addr:postcode":"86001","addr:state":"AZ","addr:street":"West Historic Route 66","contact:phone":"(928) 774-7727","contact:website":"http://www.woodymountaincampground.com","internet_access":"yes","landuse":"commercial","name":"Woody Mountain Campground","power_supply":"yes","sanitary_dump_station":"customers","tents":"yes"}},"396320229":{"location":[35.3733106,-111.5416559],"ct":"US","tp":"CS","ts":"2016-02-05T22:26:33Z","tX":194,"tY":404,"tags":{"name":"O'Leary Group Campground","operator":"USFS","source":"www.fs.usda.gov","uuid":"sonora_20130603"}},"579996619":{"location":[35.1861463,-111.6812417],"ct":"US","tp":"CR","ts":"2024-08-06T05:25:17Z","tX":194,"tY":404,"tags":{"addr:city":"Flagstaff","addr:housenumber":"2101","addr:postcode":"86001","addr:state":"AZ","addr:street":"West Historic Route 66","charge":"40 USD/day; 38 USD/senior; 30 USD/tents; 260 USD/week; 245 USD/senior; 780 USD/month","contact:email":"kitcarsonrv@gmail.com","contact:phone":"(928)-774-6993","contact:website":"www.kitcarsonrvparkflagstaff.com","fee":"yes","landuse":"commercial","name":"Kit Carson RV Park","power_supply":"yes","sanitary_dump_station":"customers","tents":"yes"}},"846229327":{"location":[35.1884548,-111.7344868],"ct":"US","tp":"CS","ts":"2018-04-04T06:09:46Z","tX":194,"tY":404,"tags":{}},"1152823722":{"location":[35.242112,-111.5703799],"ct":"US","tp":"CR","ts":"2023-03-09T04:37:35Z","tX":194,"tY":404,"tags":{"contact:website":"http://www.greerspineshadowsrvpark.com","name":"Greer's Pine Shadows RV Park"}},"1183476805":{"location":[35.2539,-111.55646],"ct":"US","tp":"CS","ts":"2011-03-05T23:33:48Z","tX":194,"tY":404,"tags":{"ele":"2047","name":"RV Park Flagstaff","source":"collected by Volker Bartheld, converted and imported by malenki"}},"1196691434":{"location":[35.1940229,-111.6163979],"ct":"US","tp":"CR","ts":"2023-08-10T05:44:53Z","tX":194,"tY":404,"tags":{"addr:city":"Flagstaff","addr:housenumber":"2760","addr:postcode":"86004","addr:state":"AZ","addr:street":"East Butler Avenue"}},"2330847215":{"location":[35.3586,-111.6208],"ct":"US","tp":"CS","ts":"2013-06-03T18:00:50Z","tX":194,"tY":404,"tags":{"name":"Lockett Meadow Campground","operator":"USFS","source":"www.fs.usda.gov","uuid":"sonora_20130603"}},"2333632677":{"location":[35.2813452,-111.5756016],"ct":"US","tp":"CS","ts":"2021-06-22T00:13:16Z","tX":194,"tY":404,"tags":{"name":"Little Elden Spring Horse Camp","operator":"USFS","source":"www.fs.usda.gov","uuid":"sonora_20130605"}},"2935203242":{"location":[35.3916261,-111.7479177],"ct":"US","tp":"CS","ts":"2014-06-27T09:33:27Z","tX":194,"tY":404,"tags":{"fuzzy":"yes","name":"Hart's Prairie"}},"3663901728":{"location":[35.188421,-111.6887916],"ct":"US","tp":"SD","ts":"2018-04-13T01:04:18Z","tX":194,"tY":404,"tags":{"access":"private"}},"5583721021":{"location":[35.1929344,-111.616631],"ct":"US","tp":"CS","ts":"2023-10-19T18:38:43Z","tX":194,"tY":404,"tags":{"addr:city":"Flagstaff","addr:housenumber":"2760","addr:postcode":"86004","addr:state":"AZ","addr:street":"East Butler Avenue","name":"Black Barts RV Park","website":"https://blackbartsrvpark.com/"}},"6868561421":{"location":[35.4000743,-111.7904806],"ct":"US","tp":"CS","ts":"2019-10-11T00:15:02Z","tX":194,"tY":404,"tags":{}},"12192963082":{"location":[35.4157291,-111.7109843],"ct":"US","tp":"CS","ts":"2024-09-22T16:40:39Z","tX":194,"tY":404,"tags":{"backcountry":"yes","capacity:tents":"12","fee":"no","tents":"yes"}},"9706190397":{"location":[35.2343048,-111.5761376],"ct":"US","tp":"SD","ts":"2022-05-01T00:05:56Z","tX":194,"tY":404,"tags":{}}}