{"9699170":{"location":[33.4209073,-111.7480133],"ct":"US","tp":"CR","ts":"2023-08-26T22:42:43Z","tX":194,"tY":411,"tags":{"access":"private","ele":"396","gnis:feature_id":"36975","landuse":"residential","name":"Fiesta RV Resort"}},"43173913":{"location":[33.4211049,-111.762906],"ct":"US","tp":"CR","ts":"2021-06-20T00:50:00Z","tX":194,"tY":411,"tags":{"access":"private","landuse":"residential","name":"Orangewood Shadows RV Resort"}},"43178416":{"location":[33.4195482,-111.7676923],"ct":"US","tp":"CR","ts":"2020-09-05T04:10:19Z","tX":194,"tY":411,"tags":{"access":"private","landuse":"residential","name":"Mesa Spirit RV Resort"}},"44157591":{"location":[33.4172952,-111.776937],"ct":"US","tp":"CR","ts":"2023-08-26T22:42:43Z","tX":194,"tY":411,"tags":{"access":"private","addr:city":"Mesa","addr:country":"US","addr:housenumber":"2460","addr:postcode":"85213","addr:state":"AZ","addr:street":"East Main Street","ele":"384","gnis:feature_id":"25166","landuse":"residential","name":"Trail Riders Holiday Park"}},"45290303":{"location":[33.414873,-111.7830847],"ct":"US","tp":"CR","ts":"2021-03-01T21:13:46Z","tX":194,"tY":411,"tags":{"landuse":"commercial","name":"Twin Palms RV Park"}},"48113603":{"location":[33.41777,-111.7396659],"ct":"US","tp":"CR","ts":"2024-03-26T19:11:19Z","tX":194,"tY":411,"tags":{"addr:city":"Mesa","addr:housenumber":"4220 E","addr:postcode":"85205","addr:state":"AZ","addr:street":"Main Street","landuse":"residential","name":"Aztec RV Resort"}},"166139226":{"location":[33.4185727,-111.5718423],"ct":"US","tp":"CR","ts":"2024-03-26T17:51:20Z","tX":194,"tY":411,"tags":{"addr:city":"Apache Junction","addr:housenumber":"355","addr:postcode":"85120","addr:state":"AZ","addr:street":"North Delaware Drive","landuse":"residential","name":"Melrose RV Park"}},"166139231":{"location":[33.4168793,-111.5710474],"ct":"US","tp":"CR","ts":"2024-02-02T19:08:29Z","tX":194,"tY":411,"tags":{"addr:city":"Apache Junction","addr:housenumber":"105","addr:postcode":"85120","addr:state":"AZ","addr:street":"North Delaware Drive","gnis:feature_id":"2670294","landuse":"residential","name":"Sundowner Mobile Home Park","residential":"trailer_park"}},"166140288":{"location":[33.3569834,-111.4739625],"ct":"US","tp":"CR","ts":"2022-10-10T14:12:02Z","tX":194,"tY":411,"tags":{"landuse":"residential","name":"Canyon Vistas RV Resort","place":"neighbourhood"}},"166140293":{"location":[33.3554411,-111.4712223],"ct":"US","tp":"CR","ts":"2019-09-02T06:00:15Z","tX":194,"tY":411,"tags":{"landuse":"residential","name":"Gold Canyon RV & Golf Resort","place":"neighbourhood"}},"170411796":{"location":[33.4096697,-111.5936569],"ct":"US","tp":"CR","ts":"2023-07-14T06:24:20Z","tX":194,"tY":411,"tags":{"addr:city":"Apache Junction","addr:housenumber":"301","addr:postcode":"85120","addr:state":"AZ","addr:street":"South Signal Butte Road","landuse":"residential","name":"Superstition Buttes","phone":"+1 480 984 1108","residential":"trailer_park","source":"esri_USDOT_Arizona","website":"http://superstitionbuttes.com/"}},"237616114":{"location":[33.4015995,-111.5305721],"ct":"US","tp":"CR","ts":"2024-03-26T17:51:20Z","tX":194,"tY":411,"tags":{"addr:city":"Apache Junction","addr:housenumber":"1540","addr:postcode":"85119","addr:state":"AZ","addr:street":"South Tomahawk Road","alt_name":"KOA Campground","brand":"KOA","brand:wikidata":"Q16988635","caravans":"yes","name":"KOA Kampground","short_name":"KOA","tents":"yes"}},"256379520":{"location":[33.4116733,-111.5624251],"ct":"US","tp":"CR","ts":"2024-03-26T17:51:20Z","tX":194,"tY":411,"tags":{"addr:city":"Apache Junction","addr:housenumber":"401","addr:state":"AZ","addr:street":"South Ironwood Drive","building":"yes","name":"VIP RV Resort","website":"https://viprvresort.com/"}},"318203894":{"location":[33.4119246,-111.7234799],"ct":"US","tp":"CR","ts":"2023-08-26T22:42:43Z","tX":194,"tY":411,"tags":{"ele":"405","gnis:feature_id":"37117","landuse":"residential","name":"Venture Out","place":"neighbourhood"}},"318935021":{"location":[33.4160259,-111.567296],"ct":"US","tp":"CR","ts":"2022-09-03T22:38:12Z","tX":194,"tY":411,"tags":{"landuse":"residential","name":"Pleasant Acres RV Park","residential":"mobile"}},"612327060":{"location":[33.419467,-111.743742],"ct":"US","tp":"CR","ts":"2024-02-03T00:20:34Z","tX":194,"tY":411,"tags":{"addr:city":"Mesa","addr:housenumber":"4065","addr:postcode":"85205","addr:state":"AZ","addr:street":"East University Drive","gnis:feature_id":"2669754","landuse":"residential","name":"Citrus Gardens Mobile Home Park","residential":"trailer_park"}},"700897129":{"location":[33.4149641,-111.7608867],"ct":"US","tp":"CR","ts":"2020-01-11T04:29:24Z","tX":194,"tY":411,"tags":{}},"700897130":{"location":[33.4149671,-111.7603333],"ct":"US","tp":"CR","ts":"2020-01-11T04:29:24Z","tX":194,"tY":411,"tags":{}},"762405875":{"location":[33.4121557,-111.7320922],"ct":"US","tp":"CR","ts":"2021-06-19T23:43:19Z","tX":194,"tY":411,"tags":{"landuse":"residential"}},"762405876":{"location":[33.4165715,-111.7179835],"ct":"US","tp":"CR","ts":"2020-08-16T23:01:33Z","tX":194,"tY":411,"tags":{"landuse":"residential","name":"XB Ranch Mobile Home & RV Park"}},"762405877":{"location":[33.4196776,-111.7218744],"ct":"US","tp":"CR","ts":"2020-08-16T23:01:33Z","tX":194,"tY":411,"tags":{"landuse":"residential","name":"Sun Life Vacation Resort"}},"762405878":{"location":[33.4195124,-111.7243527],"ct":"US","tp":"CR","ts":"2023-06-29T21:14:45Z","tX":194,"tY":411,"tags":{"landuse":"residential"}},"762405879":{"location":[33.420012,-111.7320371],"ct":"US","tp":"CR","ts":"2022-12-10T22:00:18Z","tX":194,"tY":411,"tags":{"landuse":"residential"}},"1107278872":{"location":[33.2185701,-111.7023236],"ct":"US","tp":"CR","ts":"2023-06-22T04:19:53Z","tX":194,"tY":411,"tags":{"addr:city":"Queen Creek","addr:housenumber":"17611","addr:postcode":"85142","addr:state":"AZ","addr:street":"East Riggs Road","name":"Seville RV & Boat Storage","source":"esri_USDOT_Arizona"}},"1185812238":{"location":[33.4134357,-111.7160102],"ct":"US","tp":"CR","ts":"2023-06-29T21:14:45Z","tX":194,"tY":411,"tags":{"name":"Desert Vista RV Resort"}},"7911631028":{"location":[33.395003,-111.7377125],"ct":"US","tp":"CS","ts":"2020-09-16T04:28:52Z","tX":194,"tY":411,"tags":{"name":"Legacy Adventures Ministry, Inc"}},"9231348623":{"location":[33.3614083,-111.7324992],"ct":"US","tp":"CS","ts":"2021-11-07T00:40:09Z","tX":194,"tY":411,"tags":{"name":"Honey Bee Point Campsite"}},"9231348625":{"location":[33.3620273,-111.7330708],"ct":"US","tp":"CS","ts":"2021-11-07T00:40:09Z","tX":194,"tY":411,"tags":{"name":"Water Sedge Edge Campsite"}},"10802571580":{"location":[33.3631202,-111.7316216],"ct":"US","tp":"CS","ts":"2023-04-11T19:34:15Z","tX":194,"tY":411,"tags":{"access":"yes","caravans":"no","charge":"50 USD","fee":"yes","name":"Canal Campsite","static_caravans":"no","tents":"yes"}},"6169469089":{"location":[33.3625778,-111.4742059],"ct":"US","tp":"CR","ts":"2024-03-30T01:30:56Z","tX":194,"tY":411,"tags":{"addr:housenumber":"6601","addr:postcode":"85118","addr:state":"AZ","addr:street":"E US Hwy 60","name":"Canyon Vistas RV Park"}},"7233739286":{"location":[33.393434,-111.5438897],"ct":"US","tp":"CR","ts":"2024-05-30T00:16:17Z","tX":194,"tY":411,"tags":{"addr:city":"Apache Junction","addr:housenumber":"200","addr:postcode":"85119","addr:state":"AZ","addr:street":"East Southern Avenue","name":"Superstition Mountain Resort"}},"11517551628":{"location":[33.3941338,-111.6332829],"ct":"US","tp":"SD","ts":"2024-01-14T22:16:03Z","tX":194,"tY":411,"tags":{"access":"customers","charge":"15","description":"$10 with fuel fill, $15 without. Staff noted that you may only dump from onboard tanks, no transfer tanks.","fee":"yes","operator":"Chevron","payment:cash":"yes","payment:credit_cards":"yes","payment:debit_cards":"yes","water_point":"no"}}}