{"803908533":{"location":[32.4496649,-100.5377084],"ct":"US","tp":"CR","ts":"2021-07-17T01:12:22Z","tX":226,"tY":414,"tags":{"addr:city":"Roscoe","addr:housenumber":"200","addr:postcode":"79545","addr:state":"TX","addr:street":"North Cypress Street","name":"Stone Tower RV Park and Cabins"}},"919692444":{"location":[32.4636428,-100.3923282],"ct":"US","tp":"CR","ts":"2024-05-21T14:39:44Z","tX":226,"tY":414,"tags":{"landuse":"residential","name":"Spring Acres Village Mobile Home Park","residential":"trailer_park"}},"965454474":{"location":[32.4479647,-100.3996647],"ct":"US","tp":"CR","ts":"2021-07-18T22:45:41Z","tX":226,"tY":414,"tags":{"addr:city":"Sweetwater","addr:housenumber":"201","addr:postcode":"79556","addr:state":"TX","addr:street":"West Florida Avenue","name":"Freedom RV Park"}},"965456754":{"location":[32.4516698,-100.4435307],"ct":"US","tp":"CR","ts":"2021-07-18T23:09:06Z","tX":226,"tY":414,"tags":{"addr:city":"Sweetwater","addr:housenumber":"50","addr:postcode":"79556","addr:state":"TX","addr:street":"Hopkins Road","name":"Bar J Hitchin' Post RV Park"}},"966016087":{"location":[32.4858795,-100.3719598],"ct":"US","tp":"CR","ts":"2021-07-20T20:17:27Z","tX":226,"tY":414,"tags":{"name":"Blue Bonnet RV Park"}},"966321276":{"location":[32.4511793,-100.4571914],"ct":"US","tp":"CR","ts":"2021-09-12T01:59:03Z","tX":226,"tY":414,"tags":{"addr:city":"Sweetwater","addr:housenumber":"9909","addr:postcode":"79556","addr:state":"TX","addr:street":"South Interstate 20","name":"Freedom RV Park"}}}