{"591847105":{"location":[31.3767845,-100.4870912],"ct":"US","tp":"CR","ts":"2024-04-05T04:12:12Z","tX":226,"tY":417,"tags":{"addr:housenumber":"1950","addr:postcode":"76904","addr:state":"TX","addr:street":"South Concho Drive","description":"Military Eligible Patrons Only (You'll need an ID card)","fee":"yes","name":"Goodfellow Recreation Camp","operator":"Goodfellow AFB MWR","power_supply":"yes","sanitary_dump_station":"yes"}},"862769381":{"location":[31.5591558,-100.5389585],"ct":"US","tp":"CR","ts":"2021-02-17T06:58:57Z","tX":226,"tY":417,"tags":{"addr:city":"San Angelo","addr:housenumber":"8201","addr:postcode":"76901","addr:state":"TX","addr:street":"Sunflower Avenue","description":"Grapecreek Phoenix RV Park a new RV-Mobile Home Park, located 8 miles north of San Angelo TX, off HWY 87, with a excellent service and a great location. Youâ€™ll get a great value for the price and experience when you stay with us.","email":"info@grapecreekrvpark.com","name":"Grape Creek Phoenix RV Park","phone":"+1(325) 656-8441","website":"https://www.grapecreekrvpark.com/"}},"862789418":{"location":[31.5167884,-100.4798684],"ct":"US","tp":"CR","ts":"2020-10-22T17:01:58Z","tX":226,"tY":417,"tags":{"addr:city":"San Angelo","addr:housenumber":"5320","addr:postcode":"76901","addr:state":"TX","addr:street":"US Highway 87 North","name":"Brown's Trailer Park"}},"9397426471":{"location":[31.5380301,-100.5466187],"ct":"US","tp":"SD","ts":"2022-01-06T18:38:43Z","tX":226,"tY":417,"tags":{}},"9397532797":{"location":[31.5375252,-100.5420173],"ct":"US","tp":"SD","ts":"2022-01-06T19:14:38Z","tX":226,"tY":417,"tags":{}}}