{"87362077":{"location":[45.2587752,-75.5525803],"ct":"CA","tp":"CS","ts":"2023-10-21T15:53:41Z","tX":297,"tY":367,"tags":{"addr:housenumber":"6154","addr:street":"Bank Street","name":"Poplar Grove Campground","source":"CanVec 6.0 - NRCan","website":"https://ottawaspoplargrovecamp.com/contact-us.htm"}},"87362311":{"location":[45.2914107,-75.574025],"ct":"CA","tp":"CS","ts":"2022-06-01T19:39:59Z","tX":297,"tY":367,"tags":{"addr:housenumber":"5227","addr:street":"Bank Street","name":"Camp Hither Hills","operator":"Camp Hither Hills","source":"CanVec 6.0 - NRCan","website":"https://www.camphitherhills.com/"}},"630821274":{"location":[45.3239973,-75.2443878],"ct":"CA","tp":"CR","ts":"2018-10-05T02:51:15Z","tX":297,"tY":367,"tags":{"addr:housenumber":"651","addr:street":"Limoges Road","fee":"yes","internet_access":"wlan","name":"Kittawa Camping","power_supply":"yes","swimming_pool":"yes","tents":"yes"}},"5069270126":{"location":[45.322223,-75.2461191],"ct":"CA","tp":"CS","ts":"2018-10-05T02:51:18Z","tX":297,"tY":367,"tags":{"internet_access":"wlan"}},"6150453862":{"location":[45.2705626,-75.2455428],"ct":"CA","tp":"SD","ts":"2018-12-20T20:55:32Z","tX":297,"tY":367,"tags":{"access":"yes","fee":"no","operator":"Township of Russell","water_point":"no"}}}