{"441928820":{"location":[40.9369155,-75.5254032],"ct":"US","tp":"CS","ts":"2018-04-17T01:48:03Z","tX":297,"tY":384,"tags":{"name":"Camp Harlam","religion":"jewish","website":"https://campharlam.org/"}},"580678715":{"location":[40.9334937,-75.5336732],"ct":"US","tp":"CS","ts":"2018-04-17T01:48:03Z","tX":297,"tY":384,"tags":{"addr:city":"Kunkletown","addr:housenumber":"575","addr:postcode":"18058","addr:state":"PA","addr:street":"Smith Road","name":"Camp Harlam","religion":"jewish","website":"https://campharlam.org/"}},"823831009":{"location":[40.9774392,-75.2503102],"ct":"US","tp":"CS","ts":"2024-01-03T09:46:10Z","tX":297,"tY":384,"tags":{"addr:city":"Stroudsburg","addr:housenumber":"110","addr:postcode":"18360","addr:state":"PA","addr:street":"Arnie Way","area":"yes","caravans":"yes","dog":"yes","fee":"yes","name":"Pocono Vacation Park","openfire":"yes","payment:american_express":"yes","payment:discover_card":"yes","payment:mastercard":"yes","payment:paypal":"yes","payment:visa":"yes","phone":"+15704242587","power_supply":"yes","website":"https://www.poconovacationpark.com/"}},"1236544642":{"location":[40.8668747,-75.5189957],"ct":"US","tp":"CS","ts":"2024-01-05T19:26:29Z","tX":297,"tY":384,"tags":{"caravans":"yes","drinking_water":"yes","fee":"yes","name":"Don Laine Campground","openfire":"yes","phone":"+16103813381","power_supply":"yes","sanitary_dump_station":"yes","shower":"yes","tents":"yes","toilets":"yes","website":"https://www.donlaine.com/"}},"1236546703":{"location":[40.9432915,-75.3766365],"ct":"US","tp":"CS","ts":"2024-06-30T07:30:25Z","tX":297,"tY":384,"tags":{"caravans":"yes","drinking_water":"yes","fee":"yes","name":"Silver Valley Campsites","phone":"+15709924824","power_supply":"yes","sanitary_dump_station":"yes","shower":"yes","tents":"yes","toilets":"yes","website":"https://www.silvervalleycamp.com/"}},"1236552684":{"location":[40.8153875,-75.3986893],"ct":"US","tp":"CS","ts":"2024-01-03T10:11:40Z","tX":297,"tY":384,"tags":{"caravans":"yes","fee":"yes","name":"Evergreen Lake Campground","openfire":"yes","phone":"+16108376401","sanitary_dump_station":"yes","shower":"yes","tents":"yes","toilets":"yes","website":"https://www.evergreenlake.net/camping/"}},"5923175744":{"location":[40.9194349,-75.3801034],"ct":"US","tp":"CS","ts":"2024-01-05T19:26:26Z","tX":297,"tY":384,"tags":{"caravans":"yes","fee":"yes","name":"Chestnut Lake Campground","phone":"+15709926179","power_supply":"yes","sanitary_dump_station":"yes","shower":"yes","tents":"yes","toilets":"yes","website":"https://www.chestnutlakecampground.com/"}},"5926740874":{"location":[40.9757594,-75.4589209],"ct":"US","tp":"CS","ts":"2018-09-24T13:36:38Z","tX":297,"tY":384,"tags":{"name":"Camp Jaycee"}},"5941555143":{"location":[40.9761239,-75.3148002],"ct":"US","tp":"CS","ts":"2018-09-30T23:50:36Z","tX":297,"tY":384,"tags":{"name":"Twin Pines"}},"6634394986":{"location":[40.8177233,-75.4536953],"ct":"US","tp":"CS","ts":"2019-07-20T22:06:54Z","tX":297,"tY":384,"tags":{"name":"Forest campsite (no water)"}},"10023102330":{"location":[40.8543414,-75.3233889],"ct":"US","tp":"CS","ts":"2022-09-14T00:04:12Z","tX":297,"tY":384,"tags":{"description":"large site with 2 fire rings and space for several tents, no water"}},"10024522968":{"location":[40.8430992,-75.357261],"ct":"US","tp":"CS","ts":"2022-09-14T13:36:28Z","tX":297,"tY":384,"tags":{"description":"camp site with fire ring and room for a few tents, no water"}},"10026926280":{"location":[40.8071857,-75.5282273],"ct":"US","tp":"CS","ts":"2022-09-15T12:54:12Z","tX":297,"tY":384,"tags":{"description":"large site with room for several tents, no water"}},"10026930838":{"location":[40.8076978,-75.5360877],"ct":"US","tp":"CS","ts":"2022-09-15T13:16:53Z","tX":297,"tY":384,"tags":{"description":"camp site with fire ring and room for a few tents, no water"}},"10027029274":{"location":[40.8063425,-75.5443328],"ct":"US","tp":"CS","ts":"2022-09-15T13:39:24Z","tX":297,"tY":384,"tags":{"description":"large site with fire ring and room for several tents, no water"}},"10078517206":{"location":[40.807455,-75.5226903],"ct":"US","tp":"CS","ts":"2022-10-05T21:41:39Z","tX":297,"tY":384,"tags":{"description":"site with room for a few tents, no water"}},"11482267958":{"location":[40.8208968,-75.506017],"ct":"US","tp":"CS","ts":"2024-01-03T09:17:48Z","tX":297,"tY":384,"tags":{"caravans":"yes","fee":"yes","name":"Blue Mountain Resort Campground","openfire":"yes","phone":"+16108267700","shower":"yes","tents":"yes","toilets":"yes","website":"https://www.skibluemt.com/camping/"}}}