{"471846959":{"location":[38.797878,-75.2419433],"ct":"US","tp":"CS","ts":"2024-06-27T12:16:23Z","tX":297,"tY":392,"tags":{"name":"Steamboat Landing Campground","website":"https://sblrvpark.com/"}},"553100850":{"location":[38.7295039,-75.3045646],"ct":"US","tp":"CS","ts":"2019-11-12T05:04:05Z","tX":297,"tY":392,"tags":{"addr:city":"Georgetown","addr:housenumber":"25167","addr:postcode":"19947","addr:state":"DE","addr:street":"Prettyman Road","name":"Homestead Campground","website":"https://www.homesteadde.com/"}},"672328547":{"location":[38.7940048,-75.2733003],"ct":"US","tp":"CS","ts":"2024-01-03T02:08:31Z","tX":297,"tY":392,"tags":{"name":"Smiths Landing"}},"672375041":{"location":[38.806939,-75.2840286],"ct":"US","tp":"CS","ts":"2019-11-13T07:04:58Z","tX":297,"tY":392,"tags":{"name":"Deep Branch Family Campground","old_name":"Eagleâ€™s Nest Family Campground","website":"https://www.deepbranchcampground.com/"}},"8356227080":{"location":[38.7392291,-75.4138829],"ct":"US","tp":"CS","ts":"2021-01-24T00:39:10Z","tX":297,"tY":392,"tags":{}}}