{"11747252":{"location":[35.5776134,-75.4654256],"ct":"US","tp":"CS","ts":"2023-04-11T02:20:01Z","tX":297,"tY":403,"tags":{"addr:state":"NC","alt_name":"Camp Hatteras","backcountry":"no","caravans":"yes","dog":"leashed","drinking_water":"yes","fee":"yes","group_only":"no","internet_access":"wlan","kitchen":"yes","name":"Camp Hatteras RV Resort & Campground","payment:american_express":"yes","payment:discover_card":"yes","payment:mastercard":"yes","payment:visa":"yes","phone":"+1 252 987 2777","power_supply":"yes","reservation":"required","sanitary_dump_station":"customers","shower":"yes","tents":"yes","washing_machine":"yes","waste_disposal":"yes","website":"https://www.camphatteras.com"}},"472156180":{"location":[35.5715695,-75.4647812],"ct":"US","tp":"CS","ts":"2020-10-12T16:19:29Z","tX":297,"tY":403,"tags":{"addr:city":"Waves","addr:country":"US","addr:housenumber":"25313","addr:postcode":"27982","addr:state":"NC","addr:street":"North Carolina Highway 12","backcountry":"no","caravans":"yes","drinking_water":"yes","email":"info@oceanwavescampground.com","group_only":"no","internet_access":"wlan","name":"Ocean Waves Campground","nudism":"no","opening_hours":"Mar 15-Nov 15 open; closed","phone":"+1 252 987 2556","power_supply":"yes","reservation":"required","shower":"yes","tents":"yes","toilets":"yes","washing_machine":"yes","waste_disposal":"yes","website":"http://www.oceanwavescampground.com/"}},"686723824":{"location":[35.574444,-75.4645045],"ct":"US","tp":"CR","ts":"2024-01-11T15:37:48Z","tX":297,"tY":403,"tags":{"addr:city":"Rodanthe","addr:country":"US","addr:housenumber":"25099","addr:postcode":"27968","addr:state":"NC","addr:street":"North Carolina Highway 12","backcountry":"no","brand":"KOA","brand:wikidata":"Q16988635","cabins":"yes","caravans":"yes","dog":"leashed","drinking_water":"yes","email":"capehatteras@koa.net","group_only":"no","internet_access":"wlan","name":"Cape Hatteras / Outer Banks KOA","nudism":"no","operator":"Kampgrounds of America, Inc","phone":"+1 252 987 2307","power_supply":"yes","reservation":"recommended","sanitary_dump_station":"customers","short_name":"KOA","shower":"yes","tents":"yes","washing_machine":"yes","website":"https://koa.com/campgrounds/cape-hatteras/"}},"687244489":{"location":[35.5939916,-75.4654881],"ct":"US","tp":"CS","ts":"2023-04-24T18:10:16Z","tX":297,"tY":403,"tags":{"access":"customers","addr:city":"Rodanthe","addr:housenumber":"23781","addr:postcode":"27968","addr:state":"NC","addr:street":"NC-12","fee":"yes","name":"North Beach Campground","phone":"(252) 987-2378"}},"957910453":{"location":[35.5762626,-75.4685229],"ct":"US","tp":"CS","ts":"2021-06-24T15:47:19Z","tX":297,"tY":403,"tags":{"name":"St. Clair Landing Family Campground"}},"1155249942":{"location":[35.5885725,-75.4688094],"ct":"US","tp":"CS","ts":"2023-10-21T07:03:32Z","tX":297,"tY":403,"tags":{"access":"customers","addr:city":"Rodanthe","addr:housenumber":"24170","addr:postcode":"27968","addr:state":"NC","addr:street":"North Carolina Highway 12","caravans":"yes","fee":"yes","name":"Rodanthe Watersports and Campground","phone":"+1-252-987-1431","website":"https://rodanthewatersports.com/"}},"1160958140":{"location":[35.5594577,-75.4675615],"ct":"US","tp":"CS","ts":"2023-04-10T00:26:53Z","tX":297,"tY":403,"tags":{"addr:city":"Salvo","addr:postcode":"27972","addr:state":"NC","addr:street":"Mullis Way","name":"Lazy Days Campground"}},"1161807347":{"location":[35.5663464,-75.4662806],"ct":"US","tp":"CR","ts":"2023-04-12T20:32:47Z","tX":297,"tY":403,"tags":{"addr:city":"Waves","addr:postcode":"27982","addr:state":"NC","addr:street":"North Carolina Highway 12","name":"Cedar Hammock RV Park"}}}