{"150564654":{"location":[35.2361365,-75.5388858],"ct":"US","tp":"CS","ts":"2021-11-05T08:00:10Z","tX":297,"tY":404,"tags":{"addr:city":"Buxton","addr:country":"US","addr:housenumber":"46700","addr:postcode":"27920","addr:state":"NC","addr:street":"Lighthouse Road","caravans":"yes","internet_access":"no","name":"Cape Point Campground","nudism":"no","operator":"National Park Service","reservation":"recommended","sanitary_dump_station":"no","tents":"yes","website":"https://www.nps.gov/caha/planyourvisit/campgrounds.htm"}},"672619837":{"location":[35.3549726,-75.5061892],"ct":"US","tp":"CS","ts":"2023-06-24T14:20:53Z","tX":297,"tY":404,"tags":{"addr:city":"Avon","addr:housenumber":"40523","addr:postcode":"27915","addr:state":"NC","addr:street":"North End Road","backcountry":"no","caravans":"yes","email":"sandsoftimecamping@embarqmail.com","fee":"yes","group_only":"no","internet_access":"wlan","internet_access:fee":"no","name":"Sands of Time Campground","nudism":"no","payment:credit_cards":"no","payment:cryptocurrencies":"no","payment:debit_cards":"no","payment:electronic_purses":"no","phone":"+1 252-995-5596","power_supply":"yes","sanitary_dump_station":"customers","tents":"yes","website":"http://www.sandsoftimecampground.com"}},"685972275":{"location":[35.2642805,-75.5374811],"ct":"US","tp":"CR","ts":"2022-10-18T03:40:32Z","tX":297,"tY":404,"tags":{"addr:city":"Buxton","addr:housenumber":"47513","addr:postcode":"27020","addr:state":"NC","addr:street":"Buxton Back Road","description":"The Capâ€™n B RV Park is a quiet, family and fisherman oriented secondary residence vacation park where the tenant may keep their camper/rv set up on site year round but the tenant only occupies the site for vacation purposes. The park is not intended for a","dog":"leashed","fee":"yes","name":"Cap'n B RV Park","permanent_camping":"yes","phone":"(252) 995-5616","power_supply":"yes","website":"http://www.capnbrvpark.com/"}},"820616097":{"location":[35.2642704,-75.5306026],"ct":"US","tp":"CR","ts":"2022-10-18T03:28:07Z","tX":297,"tY":404,"tags":{"fee":"yes","internet_access":"wlan","name":"Island Hide-A-Way Campground","phone":"+1 252 995 6628","power_supply":"yes","reservation":"required","sanitary_dump_station":"customers","shower":"hot","tents":"yes","website":"https://www.visitnc.com/listing/eWmE/island-hide-a-way"}},"960178981":{"location":[35.263611,-75.5402175],"ct":"US","tp":"CS","ts":"2021-07-01T19:33:38Z","tX":297,"tY":404,"tags":{"addr:city":"Buxton","addr:housenumber":"47649","addr:postcode":"27920","addr:state":"NC","addr:street":"Buxton Back Road","fee":"yes","name":"Cape Woods Campgrounds and Cabins","website":"https://www.capewoods.com/"}},"960191445":{"location":[35.2663275,-75.5407697],"ct":"US","tp":"CR","ts":"2022-10-18T03:32:25Z","tX":297,"tY":404,"tags":{"email":"capewoodscampground@yahoo.com","name":"Cape Woods Campground","permanent_camping":"yes","phone":"+1 252 996 3600","power_supply":"yes","reservation":"required","tents":"no","website":"https://www.capewoods.com/"}},"1085608985":{"location":[35.2659124,-75.5380245],"ct":"US","tp":"CR","ts":"2022-08-11T13:40:04Z","tX":297,"tY":404,"tags":{"addr:city":"Buxton","addr:postcode":"27920","addr:state":"NC","name":"KMB RV Park"}},"1085689283":{"location":[35.259439,-75.5312086],"ct":"US","tp":"CR","ts":"2022-08-11T21:03:03Z","tX":297,"tY":404,"tags":{"addr:city":"Buxton","addr:housenumber":"46323","addr:postcode":"27920","addr:state":"NC","addr:street":"Flowers Ridge Road","capacity:caravans":"19","email":"flowersridgervpark@gmail.com","name":"Flowers Ridge RV Park","phone":"(252) 996-0113","power_supply":"yes","sanitary_dump_station":"yes","website":"https://www.flowersridgervpark.com/"}},"1282848988":{"location":[35.3477938,-75.5023999],"ct":"US","tp":"CR","ts":"2024-12-29T20:50:17Z","tX":297,"tY":404,"tags":{"addr:city":"Avon","addr:housenumber":"41001","addr:postcode":"27915","addr:state":"NC","addr:street":"North Carolina Highway 12","internet_access":"wlan","internet_access:fee":"customers","name":"Avon by the Sea RV Park","phone":"+12529865009","power_supply":"yes","reservation":"required","tents":"no","website":"https://www.avonbytheseanc.com"}},"9807654406":{"location":[35.3547691,-75.5070554],"ct":"US","tp":"SD","ts":"2022-06-10T02:58:24Z","tX":297,"tY":404,"tags":{}}}