{"60848809":{"location":[44.808323,-81.1663669],"ct":"CA","tp":"CS","ts":"2019-11-20T23:02:47Z","tX":281,"tY":369,"tags":{"addr:housenumber":"102","addr:street":"Parkside Avenue","name":"Roth Park Family Campground","source":"CanVec_Import_2009","tents":"yes","website":"https://www.rothparkfamilycamping.com/"}},"60848814":{"location":[44.8102838,-81.1593407],"ct":"CA","tp":"CS","ts":"2013-08-17T21:31:39Z","tX":281,"tY":369,"tags":{"source":"CanVec_Import_2009","tents":"yes"}},"60849110":{"location":[44.82491,-81.1781671],"ct":"CA","tp":"CS","ts":"2013-08-17T21:31:42Z","tX":281,"tY":369,"tags":{"source":"CanVec_Import_2009","tents":"yes"}},"112933331":{"location":[44.7456944,-81.1387005],"ct":"CA","tp":"CS","ts":"2025-01-22T23:35:45Z","tX":281,"tY":369,"tags":{"addr:city":"Wiarton","addr:housenumber":"400","addr:province":"ON","addr:street":"William Street","name":"Bluewater Park Campground","source":"NRCan-CanVec-7.0","website":"https://www.southbrucepeninsula.com/en/townhall/bluewatercampground.asp"}},"113102472":{"location":[44.7085668,-81.0472513],"ct":"CA","tp":"CS","ts":"2012-09-06T22:37:16Z","tX":281,"tY":369,"tags":{"source":"NRCan-CanVec-7.0"}},"113103252":{"location":[44.6335615,-81.119114],"ct":"CA","tp":"CS","ts":"2023-10-28T05:31:50Z","tX":281,"tY":369,"tags":{"name":"Whispering Pines","phone":"+1-519-935-2571","source":"NRCan-CanVec-7.0","website":"https://campontario.net/"}},"113357289":{"location":[44.5932133,-81.2090638],"ct":"CA","tp":"CS","ts":"2011-05-15T05:01:10Z","tX":281,"tY":369,"tags":{"source":"NRCan-CanVec-7.0"}},"1281832715":{"location":[44.6966817,-80.9081499],"ct":"CA","tp":"CS","ts":"2011-05-12T16:46:15Z","tX":281,"tY":369,"tags":{"source":"NRCan-CanVec-7.0"}},"5031150622":{"location":[44.8015969,-81.1894347],"ct":"CA","tp":"CS","ts":"2017-08-12T21:07:02Z","tX":281,"tY":369,"tags":{"name":"Hela camp","name:en":"Hela camp"}},"5033360021":{"location":[44.7951877,-81.1890355],"ct":"CA","tp":"CS","ts":"2019-11-20T23:02:47Z","tX":281,"tY":369,"tags":{"addr:housenumber":"760","addr:street":"Highway 6","name":"Sherwood Park Campground","name:fa":"Hegel camp"}}}