{"113215288":{"location":[44.5661346,-80.8796277],"ct":"CA","tp":"CR","ts":"2023-10-28T05:22:16Z","tX":281,"tY":370,"tags":{"brand":"KOA","brand:wikidata":"Q16988635","name":"Owen Sound KOA Journey","short_name":"KOA","source":"NRCan-CanVec-7.0","website":"https://koa.com/campgrounds/owen-sound/"}},"375409699":{"location":[44.4911203,-80.921919],"ct":"CA","tp":"CS","ts":"2023-10-28T05:30:32Z","tX":281,"tY":370,"tags":{"addr:city":"Owen Sound","addr:housenumber":"62703","addr:street":"Sunny Valley Road","name":"Sunny Valley Park Campground","phone":"+1-519-794-3297","website":"https://www.sunnyvalleypark.com/"}},"403665106":{"location":[44.5766454,-80.9484372],"ct":"CA","tp":"CS","ts":"2018-01-18T00:50:58Z","tX":281,"tY":370,"tags":{"name":"Kelso Campground"}},"510825187":{"location":[44.5437599,-80.9373872],"ct":"CA","tp":"CS","ts":"2021-07-07T20:34:06Z","tX":281,"tY":370,"tags":{"addr:city":"Owen Sound","addr:housenumber":"137","addr:postcode":"N4K 5T2","addr:province":"Ontario","addr:street":"2nd Avenue East","caravans":"yes","drinking_water":"yes","fee":"yes","name":"Harrison Park Family Campground","operator":"City of Owen Sound","swimming_pool":"yes","tents":"yes","toilets":"yes","website":"https://www.owensoundtourism.ca/en/stay/Camping-and-RV.aspx"}},"510825189":{"location":[44.5428968,-80.9368802],"ct":"CA","tp":"CS","ts":"2017-07-27T17:32:34Z","tX":281,"tY":370,"tags":{}},"1288046643":{"location":[44.513404,-81.0286093],"ct":"CA","tp":"CS","ts":"2011-05-16T18:09:17Z","tX":281,"tY":370,"tags":{"source":"NRCan-CanVec-7.0"}},"1877769308":{"location":[44.5427452,-80.9369738],"ct":"CA","tp":"CR","ts":"2014-09-11T10:11:37Z","tX":281,"tY":370,"tags":{"fee":"yes","name":"Harrision Park","power_supply":"yes","tents":"yes"}}}