{"200864327":{"location":[42.9188148,-80.8623137],"ct":"CA","tp":"CS","ts":"2017-10-02T15:54:06Z","tX":281,"tY":376,"tags":{"name":"Spring Lake RV Park","source":"NRCan-CanVec-10.0"}},"747942352":{"location":[43.0513551,-81.1752126],"ct":"CA","tp":"CS","ts":"2019-11-21T23:54:44Z","tX":281,"tY":376,"tags":{"name":"Fanshawe Conservation Area Campground"}},"963849718":{"location":[42.981922,-81.0315946],"ct":"CA","tp":"CS","ts":"2022-04-04T20:59:26Z","tX":281,"tY":376,"tags":{"access":"permit","addr:city":"Dorchester","addr:housenumber":"4926","addr:postcode":"N0L 1G6","addr:province":"Ontario","addr:street":"Hamilton Road","drinking_water":"yes","fee":"yes","group_only":"yes","name":"Camp Bel","operator":"Scouts Canada","phone":"+1 519-421-0118","reservation":"required","scout":"yes","tents":"yes","website":"http://campbel.ca/"}},"2019030897":{"location":[42.9480603,-81.0974835],"ct":"CA","tp":"CS","ts":"2021-09-26T01:30:02Z","tX":281,"tY":376,"tags":{"name":"Camper's Corner RV Campground","source":"NRCan-CanVec-10.0"}},"2108166403":{"location":[42.9143296,-80.9557195],"ct":"CA","tp":"CS","ts":"2013-01-13T03:21:09Z","tX":281,"tY":376,"tags":{"source":"NRCan-CanVec-10.0"}},"2108184845":{"location":[42.9704566,-80.9436105],"ct":"CA","tp":"CS","ts":"2021-09-28T01:17:16Z","tX":281,"tY":376,"tags":{"addr:city":"Mossley","addr:housenumber":"4340","addr:postcode":"N0L 1V0","addr:province":"ON","addr:street":"Cromarty Drive","name":"Golden Pond RV Resort","phone":"+1-519-485-0679","source":"NRCan-CanVec-10.0","website":"https://www.goldenpondrv.com/"}}}