{"1338508160":{"location":[40.0406844,-81.0235403],"ct":"US","tp":"CS","ts":"2024-11-28T03:25:41Z","tX":281,"tY":387,"tags":{"access":"permit","capacity:caravans":"25","capacity:tents":"25","caravans":"yes","description":"25 sites accommodate campers with horses. All have electric hookups. Pets are permitted. Horse wash facility. Accessible mountain ramp.","drinking_water":"yes","fee":"yes","name":"Equestrian Camp Loop","operator":"OH DNR","power_supply":"yes","shower":"yes","static_caravans":"yes","tents":"yes","website":"https://ohiodnr.gov/go-and-do/plan-a-visit/find-a-property/barkcamp-state-park-campground"}},"10754942968":{"location":[40.0425849,-81.0255411],"ct":"US","tp":"CS","ts":"2023-07-04T18:56:43Z","tX":281,"tY":387,"tags":{"caravans":"yes","fee":"yes","name":"Barkcamp State Park Campground","tents":"yes","website":"https://ohiodnr.gov/go-and-do/plan-a-visit/campgrounds"}},"5233363024":{"location":[40.0707306,-81.0301853],"ct":"US","tp":"CR","ts":"2020-12-18T05:03:11Z","tX":281,"tY":387,"tags":{"addr:city":"Belmont","addr:housenumber":"42561","addr:postcode":"43718","addr:state":"OH","addr:street":"National Road","name":"Ye Olde Barn RV Park","phone":"+1-740-526-6275","website":"https://www.yeoldebarn.com/"}},"12381659189":{"location":[40.0442275,-81.0260795],"ct":"US","tp":"SD","ts":"2024-11-28T04:50:58Z","tX":281,"tY":387,"tags":{}}}