{"9154699":{"location":[36.4290089,-81.156976],"ct":"US","tp":"CS","ts":"2023-01-05T13:58:12Z","tX":281,"tY":400,"tags":{"addr:city":"Laurel Springs","addr:postcode":"28644","addr:state":"NC","addr:street":"Milepost 241","name":"Doughton Park Campground","operator":"National Park Service","phone":"(336) 372-8877"}},"195837147":{"location":[36.4092518,-81.0878167],"ct":"US","tp":"CS","ts":"2016-10-18T07:33:42Z","tX":281,"tY":400,"tags":{"backcountry":"yes","capacity":"6","fee":"yes","name":"Site F","operator":"Stone Mountain State Park"}},"432344350":{"location":[36.3898453,-81.1622844],"ct":"US","tp":"CS","ts":"2020-04-03T17:53:19Z","tX":281,"tY":400,"tags":{"backcountry":"yes","caravans":"no","group_only":"no","name":"Basin Cove Campground","nudism":"no","operator":"National Park Service","tents":"yes","wheelchair":"no"}},"432344352":{"location":[36.3748008,-81.1435188],"ct":"US","tp":"CS","ts":"2020-03-27T05:16:46Z","tX":281,"tY":400,"tags":{"fee":"no","operator":"NC Wildlife Resources Commission"}},"448262460":{"location":[36.3845503,-81.024457],"ct":"US","tp":"CS","ts":"2020-04-03T19:08:13Z","tX":281,"tY":400,"tags":{"backcountry":"no","caravans":"no","drinking_water":"yes","fee":"yes","group_only":"yes","internet_access":"no","name":"Stone Mountain Group Campground","nudism":"no","openfire":"yes","operator":"North Carolina Division of Parks & Recreation","sanitary_dump_station":"no","tents":"yes","wheelchair":"yes"}},"658222902":{"location":[36.4300773,-81.156976],"ct":"US","tp":"CS","ts":"2020-04-03T17:53:19Z","tX":281,"tY":400,"tags":{"backcountry":"no","caravans":"no","group_only":"no","internet_access":"no","name":"Doughton Park Campground","nudism":"no","operator":"National Park Service","sanitary_dump_station":"no","tents":"yes","wheelchair":"limited"}},"658223122":{"location":[36.4271687,-81.1570029],"ct":"US","tp":"CS","ts":"2020-04-03T17:53:19Z","tX":281,"tY":400,"tags":{"backcountry":"no","caravans":"yes","group_only":"no","internet_access":"no","name":"Doughton Park Campground","nudism":"no","operator":"National Park Service","sanitary_dump_station":"customers","tents":"no","wheelchair":"limited"}},"785770484":{"location":[36.3560249,-81.2067465],"ct":"US","tp":"CS","ts":"2020-03-30T05:28:13Z","tX":281,"tY":400,"tags":{"backcountry":"no","fee":"no","group_only":"no","nudism":"no","operator":"NC Wildlife Resources Commission","tents":"yes"}},"787669911":{"location":[36.3815827,-81.0208875],"ct":"US","tp":"CS","ts":"2020-04-03T19:08:13Z","tX":281,"tY":400,"tags":{"backcountry":"no","caravans":"yes","group_only":"no","internet_access":"no","name":"Stone Mountain Campground","nudism":"no","operator":"North Carolina Division of Parks & Recreation","sanitary_dump_station":"yes","tents":"yes","wheelchair":"yes"}},"1106847694":{"location":[36.567842,-80.9432206],"ct":"US","tp":"CR","ts":"2022-10-25T13:54:47Z","tX":281,"tY":400,"tags":{"name":"Cool Breeze Campground"}},"1106847707":{"location":[36.566133,-80.9436375],"ct":"US","tp":"CR","ts":"2022-10-25T13:54:47Z","tX":281,"tY":400,"tags":{"name":"Deer Creek Motorcoach Resort"}},"4315873394":{"location":[36.4057283,-81.0855811],"ct":"US","tp":"CS","ts":"2016-10-18T07:33:42Z","tX":281,"tY":400,"tags":{"backcountry":"yes","capacity":"6","fee":"yes","name":"Site E","operator":"Stone Mountain State Park"}},"4452960974":{"location":[36.4038031,-81.0844356],"ct":"US","tp":"CS","ts":"2016-10-18T07:33:40Z","tX":281,"tY":400,"tags":{"backcountry":"yes","capacity":"6","fee":"yes","name":"Site A","operator":"Stone Mountain State Park"}},"4452962227":{"location":[36.4014203,-81.0889015],"ct":"US","tp":"CS","ts":"2016-10-18T07:33:41Z","tX":281,"tY":400,"tags":{"backcountry":"yes","capacity":"6","fee":"yes","name":"Site D","operator":"Stone Mountain State Park"}},"4452962228":{"location":[36.4020032,-81.0876221],"ct":"US","tp":"CS","ts":"2016-10-18T07:33:41Z","tX":281,"tY":400,"tags":{"backcountry":"yes","capacity":"6","fee":"yes","name":"Site C","operator":"Stone Mountain State Park"}},"4452962229":{"location":[36.4029876,-81.0871527],"ct":"US","tp":"CS","ts":"2016-10-18T07:33:41Z","tX":281,"tY":400,"tags":{"backcountry":"yes","capacity":"6","fee":"yes","name":"Site B","operator":"Stone Mountain State Park"}},"6131379751":{"location":[36.4387358,-81.0937156],"ct":"US","tp":"CS","ts":"2018-12-11T20:23:00Z","tX":281,"tY":400,"tags":{"backcountry":"yes","capacity":"12","drinking_water":"no","fee":"no","openfire":"no","operator":"National Park Service","ref":"H5","tents":"yes"}},"8223711984":{"location":[36.3712899,-81.0473958],"ct":"US","tp":"CS","ts":"2020-12-13T08:01:23Z","tX":281,"tY":400,"tags":{"addr:city":"Traphill","addr:housenumber":"969","addr:postcode":"28685","addr:state":"NC","addr:street":"Traphill-Brown Road","name":"Sandy Creek Family Campground","phone":"13369578525"}},"4452899639":{"location":[36.3834017,-81.0236183],"ct":"US","tp":"SD","ts":"2020-04-03T19:08:13Z","tX":281,"tY":400,"tags":{"access":"customers","fee":"yes","operator":"North Carolina Division of Parks & Recreation","water_point":"yes"}},"5603379692":{"location":[36.42777,-81.1562962],"ct":"US","tp":"SD","ts":"2018-05-08T02:54:28Z","tX":281,"tY":400,"tags":{"access":"customers"}}}