{"551981101":{"location":[35.5394519,-81.0254279],"ct":"US","tp":"CS","ts":"2023-11-07T16:27:33Z","tX":281,"tY":403,"tags":{"access":"private","name":"Rock Springs Campground","website":"https://www.rockspringscampmeeting.com/","wikipedia":"en:Rock Springs Camp Meeting Ground"}},"1070642486":{"location":[35.5676485,-81.0309573],"ct":"US","tp":"CS","ts":"2022-06-17T13:58:45Z","tX":281,"tY":403,"tags":{"addr:city":"Sherrills Ford","addr:housenumber":"4582","addr:postcode":"28673","addr:state":"NC","addr:street":"Beaver Boulevard","fee":"yes","name":"Wildlife Woods Campground"}},"1070652188":{"location":[35.5716963,-81.0250628],"ct":"US","tp":"CR","ts":"2022-06-17T14:31:23Z","tX":281,"tY":403,"tags":{"addr:city":"Sherrills Ford","addr:housenumber":"6738","addr:postcode":"28673","addr:state":"NC","addr:street":"East NC 150 Highway","internet_access":"wlan","internet_access:fee":"no","name":"Lake Norman RV Resort","power_supply":"yes","sanitary_dump_station":"yes","website":"https://www.lakenormanmotorcoachresort.com/"}}}