{"14743582":{"location":[35.0130939,-81.0002395],"ct":"US","tp":"CS","ts":"2022-10-28T20:00:33Z","tX":281,"tY":405,"tags":{"access":"customers","addr:city":"Rock Hill","addr:housenumber":"3111","addr:postcode":"29732","addr:state":"SC","addr:street":"Sand Island Road","fee":"yes","group_only":"yes","name":"Camp Canaan","phone":"+1-803-327-6932","website":"https://campcanaan.org/"}},"544260755":{"location":[35.0641256,-80.9682172],"ct":"US","tp":"CS","ts":"2022-07-18T15:19:22Z","tX":281,"tY":405,"tags":{"addr:city":"Fort Mill","addr:housenumber":"940","addr:postcode":"29708","addr:state":"SC","addr:street":"Gold Hill Road","caravans":"yes","drinking_water":"yes","internet_access":"wlan","motor_vehicle":"yes","name":"Charlotte / Fort Mill KOA","swimming_pool":"yes","tents":"yes","website":"https://koa.com/campgrounds/charlotte/"}},"545133129":{"location":[35.0589836,-80.9039344],"ct":"US","tp":"CR","ts":"2018-10-07T15:29:35Z","tX":281,"tY":405,"tags":{"name":"Crown Cove RV Park"}},"896027650":{"location":[35.1043547,-80.9491016],"ct":"US","tp":"CR","ts":"2021-01-26T06:16:31Z","tX":281,"tY":405,"tags":{"addr:city":"Charlotte","addr:housenumber":"14609","addr:postcode":"28273","addr:state":"NC","addr:street":"Best Day Boulevard","fee":"yes","name":"Carowinds Camp Wilderness","operator":"Cedar Fair Entertainment Company","website":"https://www.carowinds.com/stay/camp-wilderness"}},"995905850":{"location":[35.0979611,-81.0251977],"ct":"US","tp":"CS","ts":"2021-10-23T16:42:22Z","tX":281,"tY":405,"tags":{"name":"McDowell Campground"}},"1254048526":{"location":[35.0235898,-81.0425903],"ct":"US","tp":"CR","ts":"2018-04-18T18:35:11Z","tX":281,"tY":405,"tags":{"internet_access":"no","website":"https://www.yorkcountygov.com/212/Ebenezer-Park"}},"1409254996":{"location":[35.0234738,-81.043403],"ct":"US","tp":"CR","ts":"2018-04-18T18:35:11Z","tX":281,"tY":405,"tags":{"internet_access":"no","website":"https://www.yorkcountygov.com/212/Ebenezer-Park"}},"1409255033":{"location":[35.022369,-81.0430623],"ct":"US","tp":"CS","ts":"2023-11-29T10:23:29Z","tX":281,"tY":405,"tags":{"access":"permissive","bicycle":"yes","foot":"yes","motor_vehicle":"yes","website":"https://www.yorkcountygov.com/212/Ebenezer-Park"}},"1409255045":{"location":[35.0225052,-81.0438563],"ct":"US","tp":"CR","ts":"2018-04-18T18:35:11Z","tX":281,"tY":405,"tags":{"internet_access":"no","website":"https://www.yorkcountygov.com/212/Ebenezer-Park"}},"1409255053":{"location":[35.0228215,-81.0425742],"ct":"US","tp":"CR","ts":"2018-04-18T18:35:11Z","tX":281,"tY":405,"tags":{"internet_access":"no","website":"https://www.yorkcountygov.com/212/Ebenezer-Park"}},"2594360727":{"location":[35.0346469,-80.9420358],"ct":"US","tp":"CS","ts":"2013-12-25T20:26:39Z","tX":281,"tY":405,"tags":{}},"2594360728":{"location":[35.034117,-80.9421736],"ct":"US","tp":"CS","ts":"2013-12-25T20:26:39Z","tX":281,"tY":405,"tags":{}},"2594360730":{"location":[35.0349604,-80.9398529],"ct":"US","tp":"CS","ts":"2013-12-25T20:26:39Z","tX":281,"tY":405,"tags":{}},"2594360731":{"location":[35.034825,-80.9414464],"ct":"US","tp":"CS","ts":"2013-12-25T20:26:39Z","tX":281,"tY":405,"tags":{}},"2594360732":{"location":[35.0348081,-80.941879],"ct":"US","tp":"CS","ts":"2013-12-25T20:26:39Z","tX":281,"tY":405,"tags":{}},"4357186692":{"location":[35.0093661,-80.9219437],"ct":"US","tp":"CS","ts":"2016-08-19T09:06:45Z","tX":281,"tY":405,"tags":{"name":"Sign Language"}},"8497773662":{"location":[35.1078449,-81.0486744],"ct":"US","tp":"CS","ts":"2021-03-08T18:21:26Z","tX":281,"tY":405,"tags":{}},"8497807096":{"location":[35.1051293,-81.046374],"ct":"US","tp":"CS","ts":"2021-03-08T18:41:40Z","tX":281,"tY":405,"tags":{}}}