{"135878910":{"location":[29.4379188,-81.1076943],"ct":"US","tp":"CR","ts":"2011-11-04T15:09:26Z","tX":281,"tY":424,"tags":{}},"135878921":{"location":[29.436404,-81.1069567],"ct":"US","tp":"CR","ts":"2011-11-04T15:09:26Z","tX":281,"tY":424,"tags":{}},"710053416":{"location":[29.2847315,-81.0617407],"ct":"US","tp":"CR","ts":"2021-07-02T18:09:17Z","tX":281,"tY":424,"tags":{"addr:city":"Ormond Beach","addr:housenumber":"19","addr:postcode":"32174","addr:state":"FL","addr:street":"North Yonge Street","name":"Granada RV & Mobile Home Park"}},"1023072418":{"location":[29.418895,-81.1898595],"ct":"US","tp":"CR","ts":"2022-01-20T22:25:16Z","tX":281,"tY":424,"tags":{"name":"Green Acres RV Park"}},"3209565442":{"location":[29.339165,-81.0818979],"ct":"US","tp":"CS","ts":"2014-11-28T19:00:50Z","tX":281,"tY":424,"tags":{}},"3209565443":{"location":[29.336116,-81.0802885],"ct":"US","tp":"CS","ts":"2014-11-28T19:00:50Z","tX":281,"tY":424,"tags":{}},"8291764714":{"location":[29.3389463,-81.081643],"ct":"US","tp":"CR","ts":"2021-03-20T02:18:31Z","tX":281,"tY":424,"tags":{"addr:city":"Ormond Beach","addr:housenumber":"2099","addr:postcode":"32174","addr:state":"FL","addr:street":"North Beach Street","capacity":"65","internet_access":"no","name":"Tomoko State Park","power_supply":"yes","sanitary_dump_station":"yes"}}}