{"350705264":{"location":[29.1782029,-81.0758015],"ct":"US","tp":"CR","ts":"2019-02-17T22:57:04Z","tX":281,"tY":425,"tags":{"name":"GEICO Park West"}},"407713739":{"location":[29.184948,-81.0683978],"ct":"US","tp":"CR","ts":"2016-04-04T14:28:17Z","tX":281,"tY":425,"tags":{"name":"Geico Shores at Lake Lloyd"}},"407713795":{"location":[29.1901919,-81.0670508],"ct":"US","tp":"CR","ts":"2016-04-04T14:15:09Z","tX":281,"tY":425,"tags":{"name":"Geico Grounds Green"}},"407716023":{"location":[29.1893346,-81.0646813],"ct":"US","tp":"CR","ts":"2023-08-16T20:20:26Z","tX":281,"tY":425,"tags":{"name":"Geico Grounds Orange"}},"407716029":{"location":[29.1872808,-81.0668171],"ct":"US","tp":"CR","ts":"2016-04-04T14:28:15Z","tX":281,"tY":425,"tags":{"name":"Geico Ground Red Premium"}},"407716030":{"location":[29.1836323,-81.0697843],"ct":"US","tp":"CR","ts":"2016-04-04T14:28:15Z","tX":281,"tY":425,"tags":{"name":"Geico Grounds Red Premium"}},"407716031":{"location":[29.1853516,-81.0687855],"ct":"US","tp":"CR","ts":"2016-04-04T14:28:15Z","tX":281,"tY":425,"tags":{"name":"Geico Grounds Red"}},"407716033":{"location":[29.1809446,-81.0719621],"ct":"US","tp":"CR","ts":"2024-04-01T22:07:04Z","tX":281,"tY":425,"tags":{"name":"Geico Grounds Yellow Premium"}},"407716034":{"location":[29.1810231,-81.0720201],"ct":"US","tp":"CR","ts":"2016-04-04T14:28:16Z","tX":281,"tY":425,"tags":{"name":"Geico Grounds Yellow"}},"477051560":{"location":[29.16402,-81.0867865],"ct":"US","tp":"CS","ts":"2020-12-11T13:47:45Z","tX":281,"tY":425,"tags":{"addr:city":"Daytona Beach","addr:housenumber":"3003","addr:postcode":"32124","addr:state":"FL","addr:street":"West International Speedway Boulevard","email":"info@daytonaspeedwayrv.com","name":"Daytona Speedway RV","phone":"+1 386-257-6137","website":"https://www.daytonaspeedwayrv.com/"}},"556117915":{"location":[29.1403522,-81.0154491],"ct":"US","tp":"CS","ts":"2018-09-05T20:00:20Z","tX":281,"tY":425,"tags":{"addr:city":"Port Orange","addr:housenumber":"3520","addr:state":"FL","addr:street":"South Nova Rd","name":"Daytona's Endless Summer Campground"}},"659767059":{"location":[29.0578369,-81.1841334],"ct":"US","tp":"CS","ts":"2019-01-01T18:51:57Z","tX":281,"tY":425,"tags":{}},"671159495":{"location":[29.1816705,-81.0775859],"ct":"US","tp":"CR","ts":"2019-02-17T22:57:02Z","tX":281,"tY":425,"tags":{"name":"GEICO Park West Premium"}},"671159497":{"location":[29.1812679,-81.076344],"ct":"US","tp":"CR","ts":"2019-02-17T22:57:02Z","tX":281,"tY":425,"tags":{"name":"GEICO Park West Premium"}},"702550184":{"location":[29.1351075,-81.0130645],"ct":"US","tp":"CS","ts":"2019-11-07T11:50:34Z","tX":281,"tY":425,"tags":{"name":"Nova Family Campground"}},"882793561":{"location":[29.1553873,-81.0979084],"ct":"US","tp":"CR","ts":"2023-05-01T17:21:03Z","tX":281,"tY":425,"tags":{"addr:city":"Daytona Beach","addr:housenumber":"3175","addr:postcode":"32124","addr:state":"FL","addr:street":"International Speedway Boulevard","name":"International RV Park","phone":"+1 386-239-0249","website":"https://www.internationalrvdaytona.com/"}},"891054388":{"location":[28.9371991,-81.0825633],"ct":"US","tp":"CS","ts":"2021-01-01T20:18:46Z","tX":281,"tY":425,"tags":{"group_only":"yes"}},"1017622236":{"location":[29.1563525,-81.0246599],"ct":"US","tp":"CR","ts":"2022-01-02T18:09:56Z","tX":281,"tY":425,"tags":{"addr:city":"South Daytona","addr:housenumber":"2430","addr:postcode":"32119","addr:state":"FL","addr:street":"South Nova Road","email":"office@daytonarvpark.com","fax":"+1 396 310 7995","fee":"yes","internet_access":"yes","internet_access:fee":"no","name":"Daytona RV Park","phone":"+1 386 304 8680","website":"https://daytonarvpark.com/"}},"1281175467":{"location":[29.1899641,-81.0609754],"ct":"US","tp":"CR","ts":"2024-05-09T13:53:33Z","tX":281,"tY":425,"tags":{"name":"Daytona International Speedway RV Park - East"}},"1349349489":{"location":[29.0234694,-81.1400971],"ct":"US","tp":"CS","ts":"2022-09-07T07:12:03Z","tX":281,"tY":425,"tags":{"fixme":"verify - the mapper who added these made some questionable additions nearby"}},"4267517889":{"location":[29.0982427,-81.0437268],"ct":"US","tp":"CS","ts":"2016-06-27T03:09:25Z","tX":281,"tY":425,"tags":{"name":"Girls SummerCamp"}},"8400860218":{"location":[29.0925907,-80.9727501],"ct":"US","tp":"CS","ts":"2021-02-06T21:56:14Z","tX":281,"tY":425,"tags":{}}}