{"301960719":{"location":[28.8482103,-81.1417761],"ct":"US","tp":"CR","ts":"2014-09-05T18:42:09Z","tX":281,"tY":426,"tags":{"addr:city":"Osteen","addr:housenumber":"650","addr:postcode":"32764","addr:street":"Osteen Maytown Road","name":"Cypress Point RV Park","phone":"407-323-0760","website":"http://www.cypresspointgolfrvpark.com/"}},"532942863":{"location":[28.7744667,-80.8931347],"ct":"US","tp":"CR","ts":"2017-10-16T13:16:45Z","tX":281,"tY":426,"tags":{"addr:city":"Scottsmoor","addr:housenumber":"4240","addr:postcode":"32775","addr:state":"FL","addr:street":"Deering Parkway","fee":"yes","name":"Crystal Lake RV Park","power_supply":"yes","sanitary_dump_station":"yes"}},"756382944":{"location":[28.665251,-80.875286],"ct":"US","tp":"CR","ts":"2024-01-17T03:40:38Z","tX":281,"tY":426,"tags":{"addr:city":"Mims","addr:housenumber":"4513","addr:postcode":"32754","addr:state":"FL","addr:street":"FL 46","alt_name":"KOA Campground","brand":"KOA","brand:wikidata":"Q16988635","name":"KOA Kampground","short_name":"KOA"}},"756382971":{"location":[28.6638511,-80.8761734],"ct":"US","tp":"CR","ts":"2019-12-17T22:11:18Z","tX":281,"tY":426,"tags":{"name":"Seasons in the Sun"}},"4377349893":{"location":[28.7902306,-81.1387439],"ct":"US","tp":"CS","ts":"2016-08-31T14:13:53Z","tX":281,"tY":426,"tags":{"name":"Mullet Lake Boat Ramp"}},"4710281589":{"location":[28.6315692,-81.1243687],"ct":"US","tp":"CS","ts":"2023-08-30T06:45:32Z","tX":281,"tY":426,"tags":{"name":"Lake Mills Park Camping","name:en":"Lake Mills Park Camping","phone":"+1 407 665 2001"}},"11381288875":{"location":[28.6337889,-81.0964315],"ct":"US","tp":"CS","ts":"2023-12-22T16:06:44Z","tX":281,"tY":426,"tags":{"access":"yes","backcountry":"yes","maintainer":"FTA Central Florida","name":"Wiley Dykes Camp","operator":"Florida Trail Association","tents":"yes","wikimedia_commons":"Category:WileyDykesSrCamp"}}}