{"2294779466":{"location":[34.8988636,-92.1624196],"ct":"US","tp":"CR","ts":"2013-05-07T15:06:37Z","tX":249,"tY":405,"tags":{}},"9294121810":{"location":[34.9797252,-92.3853142],"ct":"US","tp":"CS","ts":"2021-11-29T18:03:53Z","tX":249,"tY":405,"tags":{"access":"permissive","backcountry":"yes","capacity":"1","name":"Camp Robinson Camping Area 4"}},"9294134060":{"location":[34.998388,-92.3801386],"ct":"US","tp":"CS","ts":"2021-11-29T18:03:53Z","tX":249,"tY":405,"tags":{"access":"permissive","backcountry":"yes","name":"Camp Robinson Camping Area 1","operator":"Arkansas Game and Fish Commission"}},"9294268088":{"location":[34.961796,-92.3765699],"ct":"US","tp":"CS","ts":"2021-11-29T18:55:37Z","tX":249,"tY":405,"tags":{"backcountry":"yes"}},"9294738932":{"location":[34.9928678,-92.3614243],"ct":"US","tp":"CS","ts":"2021-11-29T22:50:00Z","tX":249,"tY":405,"tags":{"access":"permissive","name":"Camp Robinson SUA Camp Ground","operator":"Arkansas Game and Fish Commission"}},"10785776664":{"location":[34.8990952,-92.1622524],"ct":"US","tp":"CR","ts":"2023-09-04T13:44:56Z","tX":249,"tY":405,"tags":{"addr:city":"Jacksonville","addr:housenumber":"1","addr:postcode":"72099","addr:state":"AR","addr:street":"Fam Camp Loop","name":"Fam Camp 1"}},"10785776665":{"location":[34.899157,-92.1623006],"ct":"US","tp":"CR","ts":"2023-09-04T13:44:56Z","tX":249,"tY":405,"tags":{"addr:city":"Jacksonville","addr:housenumber":"2","addr:postcode":"72099","addr:state":"AR","addr:street":"Fam Camp Loop","name":"Fam Camp 2"}},"10785776666":{"location":[34.899299,-92.1625149],"ct":"US","tp":"CR","ts":"2023-09-04T13:44:56Z","tX":249,"tY":405,"tags":{"addr:city":"Jacksonville","addr:housenumber":"3","addr:postcode":"72099","addr:state":"AR","addr:street":"Fam Camp Loop","name":"Fam Camp 3"}},"10785776667":{"location":[34.8993241,-92.1625856],"ct":"US","tp":"CR","ts":"2023-09-04T13:44:56Z","tX":249,"tY":405,"tags":{"addr:city":"Jacksonville","addr:housenumber":"4","addr:postcode":"72099","addr:state":"AR","addr:street":"Fam Camp Loop","name":"Fam Camp 4"}},"10785776668":{"location":[34.8993106,-92.1627516],"ct":"US","tp":"CR","ts":"2023-09-04T13:44:56Z","tX":249,"tY":405,"tags":{"addr:city":"Jacksonville","addr:housenumber":"5","addr:postcode":"72099","addr:state":"AR","addr:street":"Fam Camp Loop","name":"Fam Camp 5"}},"10785776669":{"location":[34.8992826,-92.1628117],"ct":"US","tp":"CR","ts":"2023-09-04T13:44:56Z","tX":249,"tY":405,"tags":{"addr:city":"Jacksonville","addr:housenumber":"6","addr:postcode":"72099","addr:state":"AR","addr:street":"Fam Camp Loop","name":"Fam Camp 6"}},"10785776670":{"location":[34.899243,-92.16292],"ct":"US","tp":"CR","ts":"2023-09-04T13:44:56Z","tX":249,"tY":405,"tags":{"addr:city":"Jacksonville","addr:housenumber":"7","addr:postcode":"72099","addr:state":"AR","addr:street":"Fam Camp Loop","name":"Fam Camp 7"}},"10785776671":{"location":[34.8992131,-92.1629894],"ct":"US","tp":"CR","ts":"2023-09-04T13:44:56Z","tX":249,"tY":405,"tags":{"addr:city":"Jacksonville","addr:housenumber":"8","addr:postcode":"72099","addr:state":"AR","addr:street":"Fam Camp Loop","name":"Fam Camp 8"}},"10785776672":{"location":[34.8992198,-92.1631131],"ct":"US","tp":"CR","ts":"2023-09-04T13:44:56Z","tX":249,"tY":405,"tags":{"addr:city":"Jacksonville","addr:housenumber":"9","addr:postcode":"72099","addr:state":"AR","addr:street":"Fam Camp Loop","name":"Fam Camp 9"}},"10785776673":{"location":[34.8991889,-92.1631778],"ct":"US","tp":"CR","ts":"2023-09-04T13:44:56Z","tX":249,"tY":405,"tags":{"addr:city":"Jacksonville","addr:housenumber":"10","addr:postcode":"72099","addr:state":"AR","addr:street":"Fam Camp Loop","name":"Fam Camp 10"}},"10785776674":{"location":[34.8995755,-92.1635219],"ct":"US","tp":"CR","ts":"2023-09-04T13:44:56Z","tX":249,"tY":405,"tags":{"addr:city":"Jacksonville","addr:housenumber":"11","addr:postcode":"72099","addr:state":"AR","addr:street":"Fam Camp Loop","name":"Fam Camp 11"}},"10785776675":{"location":[34.8997338,-92.1636409],"ct":"US","tp":"CR","ts":"2023-09-04T13:44:56Z","tX":249,"tY":405,"tags":{"addr:city":"Jacksonville","addr:housenumber":"14","addr:postcode":"72099","addr:state":"AR","addr:street":"Fam Camp Loop","name":"Fam Camp 14"}},"10785776676":{"location":[34.8998682,-92.1637598],"ct":"US","tp":"CR","ts":"2023-09-04T13:44:56Z","tX":249,"tY":405,"tags":{"addr:city":"Jacksonville","addr:housenumber":"18","addr:postcode":"72099","addr:state":"AR","addr:street":"Fam Camp Loop","name":"Fam Camp 18"}},"10785776677":{"location":[34.9000134,-92.1638867],"ct":"US","tp":"CR","ts":"2023-09-04T13:44:56Z","tX":249,"tY":405,"tags":{"addr:city":"Jacksonville","addr:housenumber":"22","addr:postcode":"72099","addr:state":"AR","addr:street":"Fam Camp Loop","name":"Fam Camp 22"}},"10785776678":{"location":[34.8998747,-92.1640241],"ct":"US","tp":"CR","ts":"2023-09-04T13:44:56Z","tX":249,"tY":405,"tags":{"addr:city":"Jacksonville","addr:housenumber":"23","addr:postcode":"72099","addr:state":"AR","addr:street":"Fam Camp Loop","name":"Fam Camp 23"}},"10785776679":{"location":[34.8997229,-92.1638946],"ct":"US","tp":"CR","ts":"2023-09-04T13:44:56Z","tX":249,"tY":405,"tags":{"addr:city":"Jacksonville","addr:housenumber":"19","addr:postcode":"72099","addr:state":"AR","addr:street":"Fam Camp Loop","name":"Fam Camp 19"}},"10785776680":{"location":[34.8995734,-92.1637915],"ct":"US","tp":"CR","ts":"2023-09-04T13:44:56Z","tX":249,"tY":405,"tags":{"addr:city":"Jacksonville","addr:housenumber":"15","addr:postcode":"72099","addr:state":"AR","addr:street":"Fam Camp Loop","name":"Fam Camp 15"}},"10785776681":{"location":[34.8994303,-92.1636329],"ct":"US","tp":"CR","ts":"2023-09-04T13:44:56Z","tX":249,"tY":405,"tags":{"addr:city":"Jacksonville","addr:housenumber":"12","addr:postcode":"72099","addr:state":"AR","addr:street":"Fam Camp Loop","name":"Fam Camp 12"}},"10785776682":{"location":[34.8993956,-92.1640717],"ct":"US","tp":"CR","ts":"2023-09-04T13:44:56Z","tX":249,"tY":405,"tags":{"addr:city":"Jacksonville","addr:housenumber":"16","addr:postcode":"72099","addr:state":"AR","addr:street":"Fam Camp Loop","name":"Fam Camp 16"}},"10785776683":{"location":[34.8995322,-92.164151],"ct":"US","tp":"CR","ts":"2023-09-04T13:44:56Z","tX":249,"tY":405,"tags":{"addr:city":"Jacksonville","addr:housenumber":"20","addr:postcode":"72099","addr:state":"AR","addr:street":"Fam Camp Loop","name":"Fam Camp 20"}},"10785776684":{"location":[34.899749,-92.1643149],"ct":"US","tp":"CR","ts":"2023-09-04T13:44:56Z","tX":249,"tY":405,"tags":{"addr:city":"Jacksonville","addr:housenumber":"24","addr:postcode":"72099","addr:state":"AR","addr:street":"Fam Camp Loop","name":"Fam Camp 24"}},"10785776685":{"location":[34.8998471,-92.1634258],"ct":"US","tp":"CR","ts":"2023-09-04T13:44:56Z","tX":249,"tY":405,"tags":{"addr:city":"Jacksonville","addr:housenumber":"13","addr:postcode":"72099","addr:state":"AR","addr:street":"Fam Camp Loop","name":"Fam Camp 13"}},"10785776686":{"location":[34.8999983,-92.1635184],"ct":"US","tp":"CR","ts":"2023-09-04T13:44:56Z","tX":249,"tY":405,"tags":{"addr:city":"Jacksonville","addr:housenumber":"17","addr:postcode":"72099","addr:state":"AR","addr:street":"Fam Camp Loop","name":"Fam Camp 17"}},"10785776687":{"location":[34.9001119,-92.1636915],"ct":"US","tp":"CR","ts":"2023-09-04T13:44:56Z","tX":249,"tY":405,"tags":{"addr:city":"Jacksonville","addr:housenumber":"21","addr:postcode":"72099","addr:state":"AR","addr:street":"Fam Camp Loop","name":"Fam Camp 21"}},"10785776688":{"location":[34.9003182,-92.1641553],"ct":"US","tp":"CR","ts":"2023-09-04T13:44:56Z","tX":249,"tY":405,"tags":{"addr:city":"Jacksonville","addr:housenumber":"27","addr:postcode":"72099","addr:state":"AR","addr:street":"Fam Camp Loop","name":"Fam Camp 27"}},"10785776689":{"location":[34.900471,-92.1642626],"ct":"US","tp":"CR","ts":"2023-09-04T13:44:56Z","tX":249,"tY":405,"tags":{"addr:city":"Jacksonville","addr:housenumber":"28","addr:postcode":"72099","addr:state":"AR","addr:street":"Fam Camp Loop","name":"Fam Camp 28"}},"10785776690":{"location":[34.9006155,-92.1644186],"ct":"US","tp":"CR","ts":"2023-09-04T13:44:56Z","tX":249,"tY":405,"tags":{"addr:city":"Jacksonville","addr:housenumber":"30","addr:postcode":"72099","addr:state":"AR","addr:street":"Fam Camp Loop","name":"Fam Camp 30"}},"10785776691":{"location":[34.900755,-92.1645502],"ct":"US","tp":"CR","ts":"2023-09-04T13:44:56Z","tX":249,"tY":405,"tags":{"addr:city":"Jacksonville","addr:housenumber":"33","addr:postcode":"72099","addr:state":"AR","addr:street":"Fam Camp Loop","name":"Fam Camp 33"}},"10785776692":{"location":[34.9001737,-92.1643538],"ct":"US","tp":"CR","ts":"2023-09-04T13:44:56Z","tX":249,"tY":405,"tags":{"addr:city":"Jacksonville","addr:housenumber":"26","addr:postcode":"72099","addr:state":"AR","addr:street":"Fam Camp Loop","name":"Fam Camp 26"}},"10785776693":{"location":[34.9003298,-92.1644571],"ct":"US","tp":"CR","ts":"2023-09-04T13:44:56Z","tX":249,"tY":405,"tags":{"addr:city":"Jacksonville","addr:housenumber":"29","addr:postcode":"72099","addr:state":"AR","addr:street":"Fam Camp Loop","name":"Fam Camp 29","sanitary_dump_station":"yes"}},"10785776694":{"location":[34.9004344,-92.1645846],"ct":"US","tp":"CR","ts":"2023-09-04T13:44:56Z","tX":249,"tY":405,"tags":{"addr:city":"Jacksonville","addr:housenumber":"31","addr:postcode":"72099","addr:state":"AR","addr:street":"Fam Camp Loop","name":"Fam Camp 31"}},"10785776695":{"location":[34.9005955,-92.1647001],"ct":"US","tp":"CR","ts":"2023-09-04T13:44:56Z","tX":249,"tY":405,"tags":{"addr:city":"Jacksonville","addr:housenumber":"34","addr:postcode":"72099","addr:state":"AR","addr:street":"Fam Camp Loop","name":"Fam Camp 34"}},"10785776696":{"location":[34.9006354,-92.165099],"ct":"US","tp":"CR","ts":"2023-09-04T13:44:56Z","tX":249,"tY":405,"tags":{"addr:city":"Jacksonville","addr:housenumber":"36","addr:postcode":"72099","addr:state":"AR","addr:street":"Fam Camp Loop","name":"Fam Camp 36"}},"10785776697":{"location":[34.9004992,-92.1649532],"ct":"US","tp":"CR","ts":"2023-09-04T13:44:56Z","tX":249,"tY":405,"tags":{"addr:city":"Jacksonville","addr:housenumber":"35","addr:postcode":"72099","addr:state":"AR","addr:street":"Fam Camp Loop","name":"Fam Camp 35"}},"10785776698":{"location":[34.9003315,-92.1648216],"ct":"US","tp":"CR","ts":"2023-09-04T13:44:56Z","tX":249,"tY":405,"tags":{"addr:city":"Jacksonville","addr:housenumber":"32","addr:postcode":"72099","addr:state":"AR","addr:street":"Fam Camp Loop","name":"Fam Camp 32"}},"10785776699":{"location":[34.9001786,-92.1647143],"ct":"US","tp":"CR","ts":"2023-09-04T13:44:56Z","tX":249,"tY":405,"tags":{"addr:city":"Jacksonville","addr:housenumber":"25","addr:postcode":"72099","addr:state":"AR","addr:street":"Fam Camp Loop","name":"Fam Camp 25"}}}