{"704993537":{"location":[63.5932345,27.1607852],"ct":"FI","tp":"CS","ts":"2022-02-16T19:12:02Z","tX":589,"tY":275,"tags":{"access":"yes","addr:city":"Iisalmi","addr:housenumber":"6","addr:postcode":"74160","addr:street":"Ylemmäisentie","cabins":"yes","cafe":"yes","camp_site":"serviced","capacity:caravans":"120","caravans":"yes","drinking_water":"yes","fee":"yes","internet_access":"wlan","name":"Koljonvirta Kartano & Camping","name:en":"Koljonvirta Kartano & Camping","name:fi":"Koljonvirta Kartano & Camping","phone":"+358 50 321 3846","power_supply":"yes","reservation":"yes","restaurant":"yes","sanitary_dump_station":"yes","sauna":"yes","shower":"yes","tents":"yes","toilets":"yes","website":"http://www.koljonvirrankartano.fi/"}},"11128423530":{"location":[63.5928141,27.1606179],"ct":"FI","tp":"CR","ts":"2023-08-19T17:13:30Z","tX":589,"tY":275,"tags":{"addr:city":"Iisalmi","addr:housenumber":"6","addr:postcode":"74160","addr:street":"Ylemmäisentie","name":"Koljonvirta Caravan","power_supply":"yes","sanitary_dump_station":"yes","website":"http://www.koljonvirrankartano.fi/leirintamokit/"}}}