{"3554721455":{"location":[57.745735,27.1053645],"ct":"EE","tp":"CS","ts":"2023-06-27T10:18:26Z","tX":589,"tY":309,"tags":{"backcountry":"yes","bbq":"yes","capacity:persons":"16","capacity:tents":"4","drinking_water":"no","name":"Kavadi järve lõkkekoht","openfire":"yes","operator":"RMK","power_supply":"no","shower":"no","source":"maaamet","tents":"yes","toilets":"yes","toilets:wheelchair":"no","website":"https://loodusegakoos.ee/kuhuminna/kaitsealad/haanja-looduspark/5215","wheelchair":"limited"}},"3554721456":{"location":[57.7162547,27.0832367],"ct":"EE","tp":"CS","ts":"2023-05-12T21:15:36Z","tX":589,"tY":309,"tags":{"backcountry":"yes","bbq":"yes","capacity:persons":"40","capacity:tents":"10","name":"Vaskna järve lõkkekoht","name:en":"Vaskna lake campfire site","openfire":"yes","operator":"RMK","shower":"no","tents":"yes","toilets":"yes","website":"https://loodusegakoos.ee/kuhuminna/kaitsealad/haanja-looduspark/5211"}},"4796207999":{"location":[57.7973429,27.3611715],"ct":"EE","tp":"CS","ts":"2023-08-22T03:53:36Z","tX":589,"tY":309,"tags":{"backcountry":"yes","bbq":"yes","covered":"yes","drinking_water":"no","fireplace":"yes","name":"Härma lõkkekoht","name:en":"Härma campfire site","name:ru":"Хярмаское место для костра","openfire":"yes","operator":"RMK","power_supply":"no","shower":"no","tents":"yes","toilets":"yes","website":"https://loodusegakoos.ee/kuhuminna/puhkealad/haanja-karula-puhkeala/harma-lokkekoht","wheelchair":"no"}},"9074247491":{"location":[57.8165407,27.3356268],"ct":"EE","tp":"CS","ts":"2024-06-18T18:02:41Z","tX":589,"tY":309,"tags":{"backcountry":"yes","capacity:persons":"24","capacity:tents":"6","covered":"yes","drinking_water":"no","fireplace":"yes","name":"Lindora lõkkekoht","name:en":"Lindora campfire site","name:ru":"Место для костра Линдора","operator":"RMK","power_supply":"no","shower":"no","source":"maaamet","tents":"yes","toilets":"yes","website":"https://loodusegakoos.ee/kuhuminna/puhkealad/haanja-karula-puhkeala/1398","wheelchair":"yes"}},"9074247492":{"location":[57.7513694,27.3559356],"ct":"EE","tp":"CS","ts":"2023-08-22T03:53:36Z","tX":589,"tY":309,"tags":{"backcountry":"yes","bbq":"yes","name":"Make lõkkekoht","name:en":"Make campfire site","name:ru":"Макеское место для костра","openfire":"yes","operator":"RMK","shower":"no","tents":"yes","toilets":"yes","website":"https://loodusegakoos.ee/kuhuminna/puhkealad/haanja-karula-puhkeala/make-lokkekoht"}},"11445009647":{"location":[57.7160229,27.0793075],"ct":"EE","tp":"CS","ts":"2023-12-22T20:52:45Z","tX":589,"tY":309,"tags":{"access":"permit","backcountry":"yes","name":"Sepotalo lõkkeplats","openfire":"yes","picnic_table":"yes","power_supply":"no","sanitary_dump_station":"no","toilets":"no"}},"12037575200":{"location":[57.7374246,27.2764739],"ct":"EE","tp":"CS","ts":"2024-07-06T12:22:40Z","tX":589,"tY":309,"tags":{"check_date":"2024-07-06","name":"Vastselinna Metskond"}}}