{"306065066":{"location":[55.69287,27.15777],"ct":"BY","tp":"CS","ts":"2024-11-08T15:48:30Z","tX":589,"tY":320,"tags":{"int_name":"Duby","name":"Дубы","name:be":"Дубы","name:ru":"Дубы"}},"306065079":{"location":[55.716412,27.0962237],"ct":"BY","tp":"CS","ts":"2024-11-08T15:48:30Z","tX":589,"tY":320,"tags":{"alt_name":"Турстоянка «Будилы»","alt_name:ru":"Турстоянка «Будилы»","capacity":"40","description":"Вместимость: 40 человек  Стоимость: 4,00 BYN с человека в сутки (3,50 BYN при оплате за 11 и более дней) . Береговая линия с песчаным дном. Дрова необходимо приобретать заранее.  Размещение разрешено без предварительной брони. ","fee":"yes","name":"Будзілы","name:be":"Будзілы","name:ru":"Будилы"}},"306065100":{"location":[55.59468,27.08482],"ct":"BY","tp":"CS","ts":"2024-11-08T15:48:30Z","tX":589,"tY":320,"tags":{"name":"Вушына","name:be":"Вушына","name:ru":"Ушино"}},"306065129":{"location":[55.7606612,27.1025537],"ct":"BY","tp":"CS","ts":"2024-11-08T15:48:30Z","tX":589,"tY":320,"tags":{"name":"т/с Ручай","name:be":"т/с Ручай","name:ru":"т/с Ручей","phone":"+375215367710","website":"http://braslavpark.by/rybalks/pokupka-putevok-online"}},"306065145":{"location":[55.60284,27.07194],"ct":"BY","tp":"CR","ts":"2024-11-08T15:48:30Z","tX":589,"tY":320,"tags":{"name":"Месца для кемпінгаў","name:be":"Месца для кемпінгаў","name:ru":"Место Для Кемпингов"}},"747013229":{"location":[55.7678384,27.2131484],"ct":"BY","tp":"CS","ts":"2010-05-24T10:27:44Z","tX":589,"tY":320,"tags":{}},"777923742":{"location":[55.580349,27.4204505],"ct":"BY","tp":"CS","ts":"2024-11-08T15:48:30Z","tX":589,"tY":320,"tags":{"capacity":"35","description":"no caravan. Tent only","internet_access":"no","name":"Кемпінг на воз. Важа","name:be":"Кемпінг на воз. Важа","name:ru":"Кемпинг на оз. Важа","wheelchair":"no"}},"1844355640":{"location":[55.6155044,27.0726875],"ct":"BY","tp":"CS","ts":"2024-11-08T15:48:30Z","tX":589,"tY":320,"tags":{"name":"База адпачынку «Браслаўскія азёры»","name:be":"База адпачынку «Браслаўскія азёры»","name:ru":"База отдыха «Браславские озёра»","name:uk":"База відпочинку «Браславські озера»"}},"2405177519":{"location":[55.711668,27.0790439],"ct":"BY","tp":"CS","ts":"2024-11-08T15:48:30Z","tX":589,"tY":320,"tags":{"name":"Турстаянка «Турцыя»","name:be":"Турстаянка «Турцыя»","name:ru":"Турстоянка «Турция»"}},"2961332939":{"location":[55.7160596,27.0861208],"ct":"BY","tp":"CS","ts":"2024-11-08T15:48:30Z","tX":589,"tY":320,"tags":{"fee":"yes","name":"т/с Выселкі (заказная на 8чал.)","name:be":"т/с Выселкі (заказная на 8чал.)","name:ru":"т/с Выселки (заказная на 8чел.)","payment:cash":"yes","phone":"+375292262246","website":"https://www.braslavpark.by"}},"3664477238":{"location":[55.7217913,27.0875851],"ct":"BY","tp":"CS","ts":"2024-11-08T15:48:30Z","tX":589,"tY":320,"tags":{"fee":"yes","name":"т/с Перавалока (заказная на 8чал.)","name:be":"т/с Перавалока (заказная на 8чал.)","name:ru":"т/с Переволока (заказная на 8чел.)","payment:cash":"yes","phone":"+375292262246","website":"https://www.braslavpark.by"}},"3664477246":{"location":[55.7084235,27.0742398],"ct":"BY","tp":"CS","ts":"2024-11-08T15:48:30Z","tX":589,"tY":320,"tags":{"name":"Бярозы-1 (заказная на 10чал.)","name:be":"Бярозы-1 (заказная на 10чал.)","name:ru":"Берёзы-1 (заказная на 10чел.)"}},"3664477247":{"location":[55.7086653,27.0744115],"ct":"BY","tp":"CS","ts":"2024-11-08T15:48:30Z","tX":589,"tY":320,"tags":{"name":"Бярозы-2 (заказная на 8чал.)","name:be":"Бярозы-2 (заказная на 8чал.)","name:ru":"Берёзы-2 (заказная на 8чел.)"}},"3664477252":{"location":[55.7279777,27.1074295],"ct":"BY","tp":"CS","ts":"2024-11-08T15:48:30Z","tX":589,"tY":320,"tags":{"name":"т/с Кірылаўка (заказная на 10чал.)","name:be":"т/с Кірылаўка (заказная на 10чал.)","name:ru":"т/с Кирилловка (заказная на 10чел.)"}},"3664477253":{"location":[55.7652806,27.2379752],"ct":"BY","tp":"CS","ts":"2024-11-08T15:48:30Z","tX":589,"tY":320,"tags":{"capacity":"20","fee":"yes","name":"Мядзведна-1 (заказная тур. стаянка)","name:be":"Мядзведна-1 (заказная тур. стаянка)","name:ru":"Медведно-1  (заказная тур. стоянка)","website":"https://braslavpark.by/otdykh-i-turizm/turstoyanki/zakazniye/medvedno/"}},"3664477255":{"location":[55.7113029,27.0803754],"ct":"BY","tp":"CS","ts":"2024-11-08T15:48:30Z","tX":589,"tY":320,"tags":{"name":"т/с Туніс (заказная на 8чал.)","name:be":"т/с Туніс (заказная на 8чал.)","name:ru":"т/с Тунис (заказная на 8чел.)"}},"3664477256":{"location":[55.6003726,27.3411521],"ct":"BY","tp":"CS","ts":"2024-11-08T15:48:30Z","tX":589,"tY":320,"tags":{"capacity":"15","description":"Заказная туристическая стоянка расположена на поляне рядом с сосновым лесом у озера Укля. Оснащение: беседка, баня, кострище с лавками, лестница и пирсом для подхода к воде, навес для дров, туалет и мусоросборник.","email":"braslav_by@tut.by","fee":"yes","internet_access":"no","internet_access:fee":"no","name":"Карыбы (заказная турстаянка)","name:be":"Карыбы (заказная турстаянка)","name:ru":"Карибы (заказная турстоянка)","operator":"ГПУ НП Браславские озера","phone":"+375292262246","website":"https://braslavpark.by/otdykh-i-turizm/turstoyanki/zakazniye/uklya/#Kariby_uk"}},"3664477257":{"location":[55.6001973,27.3451561],"ct":"BY","tp":"CS","ts":"2024-11-08T15:48:30Z","tX":589,"tY":320,"tags":{"capacity":"15","description":"Заказная туристическая стоянка расположена на возвышенности у озера Укля в смешанном лесу (в зоне видимости турстоянка Ямайка) Оснащена: беседкой, баней, мангалом, навесом для дров, туалетом, кострищем с лавками.","email":"braslav_by@tut.by","fee":"yes","internet_access":"no","name":"Марока (заказная турстаянка)","name:be":"Марока (заказная турстаянка)","name:ru":"Марокко (заказная турстоянка)","operator":"ГПУ НП Браславские озера","phone":"+375292262246","website":"https://braslavpark.by/otdykh-i-turizm/turstoyanki/zakazniye/uklya/#Marok_uk"}},"3664477258":{"location":[55.6018843,27.3273037],"ct":"BY","tp":"CS","ts":"2024-11-08T15:48:30Z","tX":589,"tY":320,"tags":{"capacity":"8","description":"Заказная туристическая стоянка расположена на берегу озера Укля, по берегу растут деревья, рядом полянка (в зоне видимости турстоянка Фиджи) Оснащена: беседкой, навесом для дров, туалетом, кострищем с лавками.","email":"braslav_by@tut.by","fee":"yes","internet_access":"no","name":"Маямі (заказная турстаянка)","name:be":"Маямі (заказная турстаянка)","name:ru":"Майами (заказная турстоянка)","operator":"ГПУ НП Браславские озёра","phone":"+375292262246","website":"https://braslavpark.by/otdykh-i-turizm/turstoyanki/zakazniye/uklya/#Miami_uk"}},"3664477259":{"location":[55.6019451,27.3254414],"ct":"BY","tp":"CS","ts":"2024-11-08T15:48:30Z","tX":589,"tY":320,"tags":{"capacity":"8","description":"Заказная туристическая стоянка расположена на полянке берега озера Укля, по берегу растут деревья (в зоне видимости турстоянка Майами) Оснащена: беседкой, навесом для дров, туалетом, кострищем с лавками.","email":"braslav_by@tut.by","fee":"yes","internet_access":"no","name":"Фіджы (заказная турстаянка на 8чал.)","name:be":"Фіджы (заказная турстаянка на 8чал.)","name:ru":"Фиджи (заказная турстоянка на 8чел.)","operator":"ГПУ НП Браславские озёра","phone":"+375292262246","website":"https://braslavpark.by/otdykh-i-turizm/turstoyanki/zakazniye/uklya/#Fiji_uk"}},"3664477260":{"location":[55.600209,27.3441856],"ct":"BY","tp":"CS","ts":"2024-11-08T15:48:30Z","tX":589,"tY":320,"tags":{"capacity":"8","description":"Заказная туристическая стоянка расположена на возвышенности у озера Укля в смешанном лесу.(в зоне видимости турстоянка Марокко) Оснащена: беседкой, навесом для дров, туалетом, кострищем с лавками.","email":"braslav_by@tut.by","fee":"yes","internet_access":"no","name":"т/с Ямайка (заказная на 8чал.)","name:be":"т/с Ямайка (заказная на 8чал.)","name:ru":"т/с Ямайка (заказная на 8чел.)","operator":"ГПУ НП Браславские озера","phone":"+375292262246","website":"https://braslavpark.by/otdykh-i-turizm/turstoyanki/zakazniye/uklya/#Jamayka_uk"}},"4354515591":{"location":[55.7405491,27.0966486],"ct":"BY","tp":"CS","ts":"2024-11-08T15:48:30Z","tX":589,"tY":320,"tags":{"name":"т/с Міжазёрная (заказная на 8 чал.)","name:be":"т/с Міжазёрная (заказная на 8 чал.)","name:ru":"т/с Межозерная (заказная на 8 чел.)"}},"5056344923":{"location":[55.7572297,27.1171264],"ct":"BY","tp":"CS","ts":"2024-11-08T15:48:30Z","tX":589,"tY":320,"tags":{"capacity":"7","fee":"yes","name":"Чысты бераг (заказная турстаянка)","name:be":"Чысты бераг (заказная турстаянка)","name:ru":"Чистый берег (заказная турстоянка)"}},"5685145486":{"location":[55.5809978,27.4208441],"ct":"BY","tp":"CS","ts":"2020-03-03T08:06:03Z","tX":589,"tY":320,"tags":{"wheelchair":"no"}},"5834368831":{"location":[55.6008052,27.3314295],"ct":"BY","tp":"CS","ts":"2024-11-08T15:48:30Z","tX":589,"tY":320,"tags":{"capacity":"8","description":"Заказная туристическая стоянка расположена на поляне рядом с озером Укля.  Оснащение: беседка, кострище с лавками, пирс к воде, навес для дров, туалет, мусоросборник. Береговая линия с незначительной прибрежно-водной растительностью.","email":"braslav_by@tut.by","fee":"yes","internet_access":"no","name":"Куба (заказная турстаянка)","name:be":"Куба (заказная турстаянка)","name:ru":"Куба (заказная турстоянка)","operator":"ГПУ НП Браславские озера","phone":"+375292262246","website":"https://braslavpark.by/otdykh-i-turizm/turstoyanki/zakazniye/uklya/#Kuba_uk"}},"5834368832":{"location":[55.5996648,27.3330721],"ct":"BY","tp":"CS","ts":"2024-11-08T15:48:30Z","tX":589,"tY":320,"tags":{"capacity":"8","description":"Заказная туристическая стоянка расположена на возвышенности у озера Укля, по берегу растут деревья. Оснащение: беседка, кострище с лавками, пирс к воде, навес для дров, туалет и мусоросборник.","email":"braslav_by@tut.by","fee":"yes","internet_access":"no","name":"Балі (заказная турстаянка)","name:be":"Балі (заказная турстаянка)","name:ru":"Бали (заказная турстоянка)","operator":"ГПУ НП Браславские озера","phone":"+375292262246","website":"https://braslavpark.by/otdykh-i-turizm/turstoyanki/zakazniye/uklya/#Bali_uk"}},"5834368833":{"location":[55.5990718,27.334858],"ct":"BY","tp":"CS","ts":"2024-11-08T15:48:30Z","tX":589,"tY":320,"tags":{"capacity":"8","description":"Заказная туристическая стоянка расположена на поляне у озера Укля. Оснащение: беседка, кострище с лавками, навес для дров, туалет, мусоросборник. Береговая линия с незначительной прибрежно-водной растительностью, песчаное дно.  Обрывистый спуск к воде.","email":"braslav_by@tut.by","fee":"yes","internet_access":"no","name":"Мальдывы (заказная турстаянка)","name:be":"Мальдывы (заказная турстаянка)","name:ru":"Мальдивы (заказная турстоянка)","operator":"ГПУ НП Браславские озера","phone":"+375292262246","website":"https://braslavpark.by/otdykh-i-turizm/turstoyanki/zakazniye/uklya/#Maldivy_uk"}},"5834368834":{"location":[55.5990508,27.3369228],"ct":"BY","tp":"CS","ts":"2024-11-08T15:48:30Z","tX":589,"tY":320,"tags":{"capacity":"8","description":"Заказная туристическая стоянка расположена на полянке берега озера Укля, по кругу турстоянки растут деревья. Оснащена: беседкой, навесом для дров, туалетом, кострищем.","email":"braslav_by@tut.by","fee":"yes","internet_access":"no","name":"Таіці (заказная турстаянка)","name:be":"Таіці (заказная турстаянка)","name:ru":"Таити (заказная турстоянка)","operator":"ГПУ НП Браславские озера","phone":"+375292262246","website":"https://braslavpark.by/otdykh-i-turizm/turstoyanki/zakazniye/uklya/#Taiti_uk"}},"5835951090":{"location":[55.7354174,27.1406836],"ct":"BY","tp":"CS","ts":"2024-11-08T15:48:30Z","tX":589,"tY":320,"tags":{"fee":"yes","internet_access":"no","name":"Лазурная (заказная турстоянка)","name:ru":"Лазурная (заказная турстоянка)","operator":"ГПУ НП Браславские озера"}},"5836173657":{"location":[55.7316334,27.1028772],"ct":"BY","tp":"CS","ts":"2024-11-08T15:48:30Z","tX":589,"tY":320,"tags":{"access":"customers","capacity":"15","description":"(заказная турстоянка). Расположена на открытом месте возле озера Снуды, рядом сосновый лес. Оснащение: беседка, пирс к воде, кострище с лавками, туалет, мусоросборник. Песчаный пляж, плавный вход в воду. ","email":"braslav_by@tut.by","fee":"yes","internet_access":"no","name":"Сонечная","name:be":"Сонечная","name:ru":"Солнечная","operator":"ГПУ НП Браславские озера","phone":"+375292262246"}},"6451335187":{"location":[55.6148365,27.0915487],"ct":"BY","tp":"CS","ts":"2024-11-08T15:48:30Z","tX":589,"tY":320,"tags":{"name":"тур база","name:be":"тур база","name:ru":"тур база"}},"6501763887":{"location":[55.6169056,27.395813],"ct":"BY","tp":"CS","ts":"2024-11-08T15:48:30Z","tX":589,"tY":320,"tags":{"name":"Абстэрна","name:be":"Абстэрна","name:en":"Obsterno","name:ru":"Обстерно"}},"6708493105":{"location":[55.7170756,27.0888929],"ct":"BY","tp":"CS","ts":"2024-11-08T15:48:30Z","tX":589,"tY":320,"tags":{"fee":"yes","name":"т/с Пратока (заказная на 8чал.)","name:be":"т/с Пратока (заказная на 8чал.)","name:ru":"т/с Протока (заказная на 8чел.)","payment:cash":"yes","phone":"+375292262246","website":"https://www.braslavpark.by"}},"6708493106":{"location":[55.7187579,27.0885274],"ct":"BY","tp":"CS","ts":"2024-11-08T15:48:30Z","tX":589,"tY":320,"tags":{"fee":"yes","name":"т/с Хутарок (заказная на 8чал.)","name:be":"т/с Хутарок (заказная на 8чал.)","name:ru":"т/с Хуторок (заказная на 8чел.)","payment:cash":"yes","phone":"+375292262246","website":"https://www.braslavpark.by"}},"6708784980":{"location":[55.5968379,27.3616219],"ct":"BY","tp":"CS","ts":"2019-08-13T22:00:36Z","tX":589,"tY":320,"tags":{}},"6708784981":{"location":[55.6099537,27.3535377],"ct":"BY","tp":"CS","ts":"2024-11-08T15:48:30Z","tX":589,"tY":320,"tags":{"name":"Прасторны","name:be":"Прасторны","name:ru":"Просторный"}},"6708785249":{"location":[55.6185033,27.3469877],"ct":"BY","tp":"CS","ts":"2019-08-13T22:00:36Z","tX":589,"tY":320,"tags":{}},"7259178661":{"location":[55.5854398,27.3494822],"ct":"BY","tp":"CS","ts":"2020-03-02T21:37:48Z","tX":589,"tY":320,"tags":{}},"7259178662":{"location":[55.5830598,27.3528618],"ct":"BY","tp":"CS","ts":"2020-03-02T21:37:48Z","tX":589,"tY":320,"tags":{}},"7259178663":{"location":[55.5822199,27.3505658],"ct":"BY","tp":"CS","ts":"2020-03-02T21:37:48Z","tX":589,"tY":320,"tags":{}},"7741340870":{"location":[55.6252403,27.3520687],"ct":"BY","tp":"CS","ts":"2024-11-08T15:48:30Z","tX":589,"tY":320,"tags":{"access":"yes","addr:city":"Зачарэўе","addr:postcode":"211287","capacity":"5","charge":"20 BYN","description":"Инфраструктура для ночевок и бытового обслуживания автодомов (слив, залив воды, чистка биотуалета).","fee":"yes","name":"Мярэя","name:be":"Мярэя","name:ru":"Мерея","opening_hours":"24/7","payment:cash":"yes","phone":"+375 33 3464621;+375 29 5418411","power_supply":"yes","sanitary_dump_station":"yes","shower":"yes","toilets":"yes","website":"https://mereyacamp.by/"}},"7959012227":{"location":[55.7643634,27.2449561],"ct":"BY","tp":"CS","ts":"2024-11-08T15:48:30Z","tX":589,"tY":320,"tags":{"capacity":"20","fee":"yes","name":"Лясная (заказная тур. стаянка)","name:be":"Лясная (заказная тур. стаянка)","name:ru":"Лесная  (заказная тур. стоянка)","website":"https://braslavpark.by/otdykh-i-turizm/turstoyanki/zakazniye/medvedno/"}},"7959028741":{"location":[55.7661236,27.2467467],"ct":"BY","tp":"CS","ts":"2024-11-08T15:48:30Z","tX":589,"tY":320,"tags":{"capacity":"18","fee":"yes","name":"Мядзведна-2 (заказная тур. стаянка)","name:be":"Мядзведна-2 (заказная тур. стаянка)","name:ru":"Медведно-2  (заказная тур. стоянка)","website":"https://braslavpark.by/otdykh-i-turizm/turstoyanki/zakazniye/medvedno/"}},"7959038893":{"location":[55.7613473,27.2382624],"ct":"BY","tp":"CS","ts":"2024-11-08T15:48:30Z","tX":589,"tY":320,"tags":{"capacity":"8","fee":"yes","name":"Два рыбакі (заказная тур. стаянка)","name:be":"Два рыбакі (заказная тур. стаянка)","name:ru":"Два рыбака (заказная тур. стоянка)","website":"https://braslavpark.by/otdykh-i-turizm/turstoyanki/zakazniye/medvedno/"}},"7959047913":{"location":[55.7690627,27.2505474],"ct":"BY","tp":"CS","ts":"2024-11-08T15:48:30Z","tX":589,"tY":320,"tags":{"capacity":"8","fee":"yes","name":"Мядзведна-3 (заказная тур. стаянка)","name:be":"Мядзведна-3 (заказная тур. стаянка)","name:ru":"Медведно-3 (заказная тур. стоянка)","website":"https://braslavpark.by/otdykh-i-turizm/turstoyanki/zakazniye/medvedno/"}},"8356984373":{"location":[55.723747,27.0717299],"ct":"BY","tp":"CS","ts":"2024-11-08T15:48:30Z","tX":589,"tY":320,"tags":{"fee":"yes","name":"т/с Беларусачка","name:be":"т/с Беларусачка","name:ru":"т/с Беларусачка","payment:cash":"yes","phone":"+375292262246","website":"https://www.braslavpark.by"}},"8356984378":{"location":[55.7245229,27.0761193],"ct":"BY","tp":"CS","ts":"2024-11-08T15:48:30Z","tX":589,"tY":320,"tags":{"fee":"yes","name":"т/с Песняры","name:be":"т/с Песняры","name:ru":"т/с Песняры","payment:cash":"yes","phone":"+375292262246","website":"https://www.braslavpark.by"}},"8356984382":{"location":[55.723659,27.0835444],"ct":"BY","tp":"CS","ts":"2024-11-08T15:48:30Z","tX":589,"tY":320,"tags":{"fee":"yes","name":"т/с Каляда","name:be":"т/с Каляда","name:ru":"т/с Каляда","payment:cash":"yes","phone":"+375292262246","website":"https://www.braslavpark.by"}},"8356984387":{"location":[55.7226911,27.0884541],"ct":"BY","tp":"CS","ts":"2024-11-08T15:48:30Z","tX":589,"tY":320,"tags":{"fee":"yes","name":"т/с Купальская ноч","name:be":"т/с Купальская ноч","name:ru":"т/с Купальская ночь","payment:cash":"yes","phone":"+375292262246","website":"https://www.braslavpark.by"}},"8356984413":{"location":[55.7184196,27.0744657],"ct":"BY","tp":"CS","ts":"2024-11-08T15:48:30Z","tX":589,"tY":320,"tags":{"fee":"yes","name":"т/с Талака","name:be":"т/с Талака","name:ru":"т/с Талака","payment:cash":"yes","phone":"+375292262246","website":"https://www.braslavpark.by"}},"9942904651":{"location":[55.7587622,27.1025205],"ct":"BY","tp":"CS","ts":"2024-11-08T15:48:30Z","tX":589,"tY":320,"tags":{"name":"т/с Чысты бераг","name:be":"т/с Чысты бераг","name:ru":"т/с Чистый берег","phone":"+375215367710","website":"http://braslavpark.by/rybalks/pokupka-putevok-online"}},"10589444623":{"location":[55.6670654,27.1711902],"ct":"BY","tp":"CS","ts":"2023-01-28T17:45:26Z","tX":589,"tY":320,"tags":{"backcountry":"yes"}},"12186666604":{"location":[55.6003973,27.3484059],"ct":"BY","tp":"CS","ts":"2024-09-19T17:35:04Z","tX":589,"tY":320,"tags":{}},"12186666605":{"location":[55.5996023,27.3517707],"ct":"BY","tp":"CS","ts":"2024-09-19T17:35:04Z","tX":589,"tY":320,"tags":{}},"5046711022":{"location":[55.7208334,27.1260627],"ct":"BY","tp":"CR","ts":"2017-08-20T18:28:07Z","tX":589,"tY":320,"tags":{}},"5046802021":{"location":[55.724179,27.1373754],"ct":"BY","tp":"CR","ts":"2017-08-20T19:41:26Z","tX":589,"tY":320,"tags":{}}}