{"306063110":{"location":[54.4786735,27.2190165],"ct":"BY","tp":"CR","ts":"2024-11-08T15:48:30Z","tX":589,"tY":326,"tags":{"name":"Дзіцячы Аздараўленчы Цэнтр «Надзея 21 Стагоддзе»","name:be":"Дзіцячы Аздараўленчы Цэнтр «Надзея 21 Стагоддзе»","name:ru":"Детский Оздоровительный Центр 'Надежда 21 Век'","opening_hours":"Mo-Fr 09:00-22:00","phone":"+375291434972","website":"https://nadeshda.by/"}},"348167100":{"location":[54.4471796,27.1681094],"ct":"BY","tp":"CS","ts":"2024-11-08T15:48:30Z","tX":589,"tY":326,"tags":{"email":"klev_mesto@mail.ru","fee":"yes","name":"Клёвае месца","name:be":"Клёвае месца","name:ru":"Клёвое место","phone":"+375291867774","website":"https://klevmesto.by/"}},"511904446":{"location":[54.5200797,27.2446146],"ct":"BY","tp":"CS","ts":"2024-11-08T15:48:30Z","tX":589,"tY":326,"tags":{"charge":"3.5$","description":"Платный кемпинг. Удобства: беседки, мангалы, дрова, биотулеты. (OSM data version: 2016-06-20T05:57:02Z) #mapsme","fee":"yes","internet_access":"no","name":"Жоўты Бераг","name:be":"Жоўты Бераг","name:ru":"Желтый Берег","openfire":"yes","phone":"+375 29 6205209;+375 29 6205409","reservation":"required","website":"https://vk.com/yellowcoast"}},"616932706":{"location":[54.4771042,27.1156096],"ct":"BY","tp":"CS","ts":"2024-11-08T15:48:30Z","tX":589,"tY":326,"tags":{"name":"Рыбчына","name:be":"Рыбчына","name:ru":"Рыбчино","phone":"+375447124995","website":"https://ribchino.by/"}},"960740733":{"location":[54.4914476,27.1037307],"ct":"BY","tp":"CS","ts":"2024-11-08T15:48:30Z","tX":589,"tY":326,"tags":{"access":"yes","capacity":"500","fee":"yes","name":"Кемпінг «Казантып»","name:be":"Кемпінг «Казантып»","name:ru":"Кемпинг «Казантип»","name:uk":"Кемпінг «Казантип»","opening_hours":"24/7","payment:cash":"yes","payment:credit_cards":"no"}},"1060044851":{"location":[54.4644835,27.1216819],"ct":"BY","tp":"CS","ts":"2022-05-14T10:22:18Z","tX":589,"tY":326,"tags":{"backcountry":"yes"}},"1137029633":{"location":[54.4883953,27.1933532],"ct":"BY","tp":"CS","ts":"2023-10-19T09:26:58Z","tX":589,"tY":326,"tags":{"phone":"+375445092545","website":"https://berloga-camp.by/"}},"4373730301":{"location":[54.4766981,27.0989357],"ct":"BY","tp":"CS","ts":"2018-09-10T08:37:30Z","tX":589,"tY":326,"tags":{}},"4398874101":{"location":[54.4919808,27.2120576],"ct":"BY","tp":"CS","ts":"2024-11-08T15:48:30Z","tX":589,"tY":326,"tags":{"name":"Палаткава-аздараўленчы лагер «Крыніца»","name:be":"Палаткава-аздараўленчы лагер «Крыніца»","name:ru":"Палаточно-оздоровительный лагерь «Родник»","name:uk":"Наметово-оздоровчий табір «Джерельце»"}},"4910874498":{"location":[54.441962,27.1670102],"ct":"BY","tp":"CS","ts":"2017-06-12T13:37:37Z","tX":589,"tY":326,"tags":{}},"4910890513":{"location":[54.4436131,27.1636801],"ct":"BY","tp":"CS","ts":"2017-06-12T13:47:39Z","tX":589,"tY":326,"tags":{}},"4910890514":{"location":[54.4441031,27.1638091],"ct":"BY","tp":"CS","ts":"2017-06-12T13:47:39Z","tX":589,"tY":326,"tags":{}},"4910891025":{"location":[54.4425525,27.1637214],"ct":"BY","tp":"CS","ts":"2017-06-12T13:48:05Z","tX":589,"tY":326,"tags":{}},"5828770288":{"location":[54.476473,27.0947957],"ct":"BY","tp":"CS","ts":"2018-09-10T08:37:31Z","tX":589,"tY":326,"tags":{}},"5895656614":{"location":[54.4648444,27.1401304],"ct":"BY","tp":"CS","ts":"2024-11-08T15:48:30Z","tX":589,"tY":326,"tags":{"name":"База адпачынку 4","name:be":"База адпачынку 4","name:ru":"База отдыха 4"}},"5895656625":{"location":[54.4635217,27.1402591],"ct":"BY","tp":"CS","ts":"2018-09-10T07:15:02Z","tX":589,"tY":326,"tags":{}},"5895657149":{"location":[54.47534,27.1292353],"ct":"BY","tp":"CS","ts":"2024-11-08T15:48:30Z","tX":589,"tY":326,"tags":{"name":"База адпачынку 1","name:be":"База адпачынку 1","name:ru":"База отдыха 1"}},"5895657155":{"location":[54.4753073,27.1303457],"ct":"BY","tp":"CS","ts":"2018-09-10T07:21:16Z","tX":589,"tY":326,"tags":{}},"5895657156":{"location":[54.4749753,27.13144],"ct":"BY","tp":"CS","ts":"2018-09-10T07:21:16Z","tX":589,"tY":326,"tags":{}},"5895657157":{"location":[54.4737004,27.1322608],"ct":"BY","tp":"CS","ts":"2024-11-08T15:48:30Z","tX":589,"tY":326,"tags":{"name":"База адпачынку 2","name:be":"База адпачынку 2","name:ru":"База отдыха 2"}},"5895657169":{"location":[54.4701124,27.1334892],"ct":"BY","tp":"CS","ts":"2018-09-10T07:21:16Z","tX":589,"tY":326,"tags":{}},"5895846487":{"location":[54.4762003,27.0937604],"ct":"BY","tp":"CS","ts":"2018-09-10T08:37:24Z","tX":589,"tY":326,"tags":{}},"5895846488":{"location":[54.4763094,27.0929396],"ct":"BY","tp":"CS","ts":"2018-09-10T08:37:24Z","tX":589,"tY":326,"tags":{}},"5895846502":{"location":[54.4756782,27.0985079],"ct":"BY","tp":"CS","ts":"2018-09-10T08:37:24Z","tX":589,"tY":326,"tags":{}},"5895846508":{"location":[54.4765868,27.0981485],"ct":"BY","tp":"CS","ts":"2018-09-10T08:37:24Z","tX":589,"tY":326,"tags":{}},"5895846526":{"location":[54.4764091,27.1007019],"ct":"BY","tp":"CS","ts":"2018-09-10T08:37:25Z","tX":589,"tY":326,"tags":{}},"5895846527":{"location":[54.4762782,27.1021503],"ct":"BY","tp":"CS","ts":"2018-09-10T08:37:25Z","tX":589,"tY":326,"tags":{}},"5895846528":{"location":[54.4763935,27.1031105],"ct":"BY","tp":"CS","ts":"2018-09-10T08:37:25Z","tX":589,"tY":326,"tags":{}},"5895846539":{"location":[54.4762548,27.106415],"ct":"BY","tp":"CS","ts":"2018-09-10T08:37:25Z","tX":589,"tY":326,"tags":{}},"5895846540":{"location":[54.4762455,27.1055379],"ct":"BY","tp":"CS","ts":"2018-09-10T08:37:25Z","tX":589,"tY":326,"tags":{}},"7899878085":{"location":[54.4941409,27.1255381],"ct":"BY","tp":"CS","ts":"2024-11-08T15:48:30Z","tX":589,"tY":326,"tags":{"name":"Платны кемпінг","name:be":"Платны кемпінг","name:ru":"Платный кемпинг"}},"8851209528":{"location":[54.4715067,27.1580364],"ct":"BY","tp":"CS","ts":"2021-06-20T19:06:45Z","tX":589,"tY":326,"tags":{"fee":"no"}},"8857961791":{"location":[54.4824682,27.1613517],"ct":"BY","tp":"CS","ts":"2021-06-23T19:01:23Z","tX":589,"tY":326,"tags":{}},"8857961792":{"location":[54.4837016,27.1617583],"ct":"BY","tp":"CS","ts":"2021-06-23T19:01:23Z","tX":589,"tY":326,"tags":{}},"8857961793":{"location":[54.48029,27.1580903],"ct":"BY","tp":"CS","ts":"2021-06-23T19:01:23Z","tX":589,"tY":326,"tags":{}},"8857961794":{"location":[54.4847302,27.1647848],"ct":"BY","tp":"CS","ts":"2021-06-23T19:01:23Z","tX":589,"tY":326,"tags":{}},"8857961795":{"location":[54.4840374,27.1685973],"ct":"BY","tp":"CS","ts":"2021-06-23T19:01:23Z","tX":589,"tY":326,"tags":{}},"8857961796":{"location":[54.4860318,27.1691845],"ct":"BY","tp":"CS","ts":"2021-06-23T19:01:23Z","tX":589,"tY":326,"tags":{}},"8857961797":{"location":[54.4847565,27.1730603],"ct":"BY","tp":"CS","ts":"2021-06-23T19:01:23Z","tX":589,"tY":326,"tags":{}},"8857961798":{"location":[54.4874592,27.1895028],"ct":"BY","tp":"CS","ts":"2021-06-23T19:01:23Z","tX":589,"tY":326,"tags":{}},"8857961799":{"location":[54.4871548,27.1942007],"ct":"BY","tp":"CS","ts":"2021-06-23T19:01:23Z","tX":589,"tY":326,"tags":{}},"8857961800":{"location":[54.4895688,27.1932792],"ct":"BY","tp":"CS","ts":"2021-06-23T19:01:23Z","tX":589,"tY":326,"tags":{}},"8936526416":{"location":[54.475453,27.1276083],"ct":"BY","tp":"CS","ts":"2024-11-08T15:48:30Z","tX":589,"tY":326,"tags":{"name":"База адпачынку 1","name:be":"База адпачынку 1","name:ru":"База отдыха 1"}},"8936547536":{"location":[54.4954647,27.1297234],"ct":"BY","tp":"CS","ts":"2022-07-12T11:12:42Z","tX":589,"tY":326,"tags":{}},"8936547537":{"location":[54.4952155,27.1295786],"ct":"BY","tp":"CS","ts":"2022-07-12T11:12:42Z","tX":589,"tY":326,"tags":{}},"8936547538":{"location":[54.4946796,27.1283126],"ct":"BY","tp":"CS","ts":"2022-07-12T11:12:42Z","tX":589,"tY":326,"tags":{}},"8936547539":{"location":[54.4944989,27.1276742],"ct":"BY","tp":"CS","ts":"2022-07-12T11:12:42Z","tX":589,"tY":326,"tags":{}},"8936547540":{"location":[54.4943151,27.1267998],"ct":"BY","tp":"CS","ts":"2022-07-12T11:12:42Z","tX":589,"tY":326,"tags":{}},"8936547541":{"location":[54.4917453,27.1178918],"ct":"BY","tp":"CS","ts":"2022-07-12T11:12:42Z","tX":589,"tY":326,"tags":{"ref":"13"}},"8936547542":{"location":[54.4912804,27.1172072],"ct":"BY","tp":"CS","ts":"2022-07-12T11:12:42Z","tX":589,"tY":326,"tags":{"ref":"12"}},"8936547543":{"location":[54.4903083,27.1135718],"ct":"BY","tp":"CS","ts":"2022-08-11T07:05:54Z","tX":589,"tY":326,"tags":{"description":"Кемпинг \"Казантип\"","opening_hours":"24/7","phone":"+375296777969","ref":"11","website":"https://kazantip.by"}},"8936547544":{"location":[54.4900621,27.1127424],"ct":"BY","tp":"CS","ts":"2022-11-12T00:27:56Z","tX":589,"tY":326,"tags":{"addr:place":"Левы бераг","description":"Кемпінг \"Казантып\"","opening_hours":"24/7","phone":"+375296777969","ref":"10","website":"https://kazantip.by"}},"8936547545":{"location":[54.4898315,27.1112725],"ct":"BY","tp":"CS","ts":"2022-11-12T00:27:56Z","tX":589,"tY":326,"tags":{"addr:place":"Левы бераг","description":"Кемпінг \"Казантып\"","opening_hours":"24/7","phone":"+375296777969","ref":"8","website":"https://kazantip.by"}},"8936547546":{"location":[54.4997265,27.0831174],"ct":"BY","tp":"CS","ts":"2022-07-12T11:12:42Z","tX":589,"tY":326,"tags":{}},"8936547547":{"location":[54.5000442,27.0815939],"ct":"BY","tp":"CS","ts":"2022-07-12T11:12:42Z","tX":589,"tY":326,"tags":{}},"8936547548":{"location":[54.5003464,27.0819265],"ct":"BY","tp":"CS","ts":"2022-07-12T11:12:42Z","tX":589,"tY":326,"tags":{}},"8936547549":{"location":[54.4971221,27.0818728],"ct":"BY","tp":"CS","ts":"2022-07-12T11:12:42Z","tX":589,"tY":326,"tags":{}},"8936547550":{"location":[54.4957607,27.0825916],"ct":"BY","tp":"CS","ts":"2022-07-12T11:12:42Z","tX":589,"tY":326,"tags":{}},"8936547551":{"location":[54.4946453,27.0840347],"ct":"BY","tp":"CS","ts":"2022-07-12T11:12:42Z","tX":589,"tY":326,"tags":{}},"8936547552":{"location":[54.4937574,27.0842278],"ct":"BY","tp":"CS","ts":"2022-07-12T11:12:42Z","tX":589,"tY":326,"tags":{}},"8936547553":{"location":[54.4922463,27.0846409],"ct":"BY","tp":"CS","ts":"2022-07-12T11:12:42Z","tX":589,"tY":326,"tags":{}},"8936547554":{"location":[54.4913895,27.0851666],"ct":"BY","tp":"CS","ts":"2022-07-12T11:12:42Z","tX":589,"tY":326,"tags":{}},"8936547555":{"location":[54.4909813,27.0857084],"ct":"BY","tp":"CS","ts":"2022-07-12T11:12:42Z","tX":589,"tY":326,"tags":{}},"8936547556":{"location":[54.4907445,27.0861643],"ct":"BY","tp":"CS","ts":"2022-07-12T11:12:42Z","tX":589,"tY":326,"tags":{}},"8936547557":{"location":[54.4906448,27.0869851],"ct":"BY","tp":"CS","ts":"2022-07-12T11:12:42Z","tX":589,"tY":326,"tags":{}},"8936547558":{"location":[54.4906759,27.0875162],"ct":"BY","tp":"CS","ts":"2022-07-12T11:12:42Z","tX":589,"tY":326,"tags":{}},"8936547559":{"location":[54.4910125,27.0898873],"ct":"BY","tp":"CS","ts":"2022-07-12T11:12:42Z","tX":589,"tY":326,"tags":{}},"8936547560":{"location":[54.4905529,27.0936048],"ct":"BY","tp":"CS","ts":"2022-07-12T11:12:42Z","tX":589,"tY":326,"tags":{}},"8936547561":{"location":[54.4904594,27.0955494],"ct":"BY","tp":"CS","ts":"2022-07-12T11:12:42Z","tX":589,"tY":326,"tags":{}},"8936547562":{"location":[54.4905887,27.0972446],"ct":"BY","tp":"CS","ts":"2022-07-12T11:12:42Z","tX":589,"tY":326,"tags":{}},"9880054592":{"location":[54.4900576,27.1101721],"ct":"BY","tp":"CS","ts":"2024-11-08T15:48:30Z","tX":589,"tY":326,"tags":{"addr:place":"Левы бераг","description":"Кемпінг \"Казантып\"","name":"Альтанка №4","name:be":"Альтанка №4","name:ru":"Альтанка №4","opening_hours":"24/7","phone":"+375296777969","ref":"4","website":"https://kazantip.by"}},"9880122944":{"location":[54.4904517,27.1094557],"ct":"BY","tp":"CS","ts":"2022-11-12T00:27:56Z","tX":589,"tY":326,"tags":{"addr:place":"Левы бераг","description":"Кемпінг \"Казантып\"","opening_hours":"24/7","phone":"+375296777969","ref":"1","website":"https://kazantip.by"}},"9880134033":{"location":[54.4902227,27.1098942],"ct":"BY","tp":"CS","ts":"2022-07-26T05:53:00Z","tX":589,"tY":326,"tags":{"description":"Кемпінг \"Казантып\"","opening_hours":"24/7","phone":"+375296777969","ref":"3","website":"https://kazantip.by"}},"9880141143":{"location":[54.4902955,27.1096218],"ct":"BY","tp":"CS","ts":"2022-07-26T05:53:01Z","tX":589,"tY":326,"tags":{"description":"Кемпінг \"Казантып\"","opening_hours":"Mo-Su 09:00-09:00","phone":"+375296777969","ref":"2","website":"https://kazantip.by"}},"9881073941":{"location":[54.4900073,27.1109383],"ct":"BY","tp":"CS","ts":"2022-11-12T00:27:56Z","tX":589,"tY":326,"tags":{"addr:place":"Левы бераг","description":"Кемпінг \"Казантып\"","opening_hours":"24/7","phone":"+375296777969","ref":"7","website":"https://kazantip.by"}},"9881124185":{"location":[54.4900027,27.1102372],"ct":"BY","tp":"CS","ts":"2022-11-12T00:27:56Z","tX":589,"tY":326,"tags":{"addr:place":"Левы бераг","description":"Кемпінг \"Казантып\"","opening_hours":"24/7","phone":"+375296777969","ref":"5","website":"https://kazantip.by"}},"9881135994":{"location":[54.4899026,27.1106306],"ct":"BY","tp":"CS","ts":"2022-07-26T05:53:04Z","tX":589,"tY":326,"tags":{"description":"Кемпінг \"Казантып\"","opening_hours":"Mo-Su 09:00-09:00","phone":"+375296777969","ref":"6","website":"https://kazantip.by"}},"9881137370":{"location":[54.4899661,27.1115413],"ct":"BY","tp":"CS","ts":"2022-11-12T00:27:56Z","tX":589,"tY":326,"tags":{"addr:place":"Левы бераг","description":"Кемпінг \"Казантып\"","opening_hours":"24/7","phone":"+375296777969","ref":"9","website":"https://kazantip.by"}}}