{"9860202217":{"location":[36.7571406,43.9009013],"ct":"IQ","tp":"CS","ts":"2022-07-01T11:31:45Z","tX":636,"tY":399,"tags":{"name":"مصيف سيبه"}},"4604526801":{"location":[36.7056278,43.6244644],"ct":"IQ","tp":"CR","ts":"2017-01-12T21:14:09Z","tX":636,"tY":399,"tags":{"addr:housenumber":"07511247002","addr:street":"گرگوران","email":"gehadzebari4@yahoo.com","name":"Gîhad Zêbarî","name:ar":"Gîhad Zêbarî","name:en":"Gîhad Zêbarî","name:fa":"جیهاد زێباری","name:ku":"Gîhad Zêbarî","phone":"07511247002","website":"http://gehadzebari4@yahoo.com"}},"9316221143":{"location":[36.7301578,43.8642162],"ct":"IQ","tp":"CR","ts":"2021-12-06T19:27:07Z","tX":636,"tY":399,"tags":{"name":"جيهاني كردستان"}},"9316221529":{"location":[36.7301421,43.8644701],"ct":"IQ","tp":"CR","ts":"2021-12-06T19:27:07Z","tX":636,"tY":399,"tags":{"name":"حجي ياسين"}},"11329851073":{"location":[36.7624435,43.8915199],"ct":"IQ","tp":"CR","ts":"2023-11-06T20:27:08Z","tX":636,"tY":399,"tags":{"addr:housenumber":"157","addr:postcode":"42004","addr:street":"Kanizark","name":"zryan.mstafa","phone":"07504878582"}}}