{"985861499":{"location":[45.5703106,-87.2491262],"ct":"US","tp":"CR","ts":"2021-12-26T22:27:47Z","tX":263,"tY":366,"tags":{"addr:city":"Bark River","addr:housenumber":"850","addr:postcode":"49807","addr:state":"MI","addr:street":"State Highway M35","capacity":"44","name":"Fuller Campground","phone":"+1-906-786-1020"}},"985861740":{"location":[45.3905183,-87.364862],"ct":"US","tp":"CR","ts":"2021-09-22T14:27:40Z","tX":263,"tY":366,"tags":{"addr:state":"MI","name":"J.W. Wells State Park Campground","phone":"+1-906-863-9747"}},"994103347":{"location":[45.478037,-87.3069672],"ct":"US","tp":"CS","ts":"2021-10-20T01:10:14Z","tX":263,"tY":366,"tags":{"capacity":"25","name":"Fox County Park Campground"}},"1173765380":{"location":[45.5022094,-87.3984477],"ct":"US","tp":"CS","ts":"2023-11-17T05:06:35Z","tX":263,"tY":366,"tags":{"county":"Menominee","gnis:feature_id":"2353265","midnr:park_id":"656","name":"Cedar River North State Forest Campground","source":"Michigan DNR","website":"https://www.michigandnr.com/parksandtrails/Details.aspx?id=656&type=SFCG"}}}