{"7675156":{"location":[34.7765018,-87.239624],"ct":"US","tp":"CR","ts":"2024-01-20T23:54:47Z","tX":263,"tY":406,"tags":{"capacity":"48","name":"Riverview RV Park","phone":"+1-256-729-6329","power_supply":"yes"}},"441659734":{"location":[34.8028409,-87.32159],"ct":"US","tp":"CS","ts":"2020-04-22T10:18:28Z","tX":263,"tY":406,"tags":{"addr:city":"Rogersville","addr:housenumber":"3171","addr:postcode":"35652","addr:state":"AL","addr:street":"McLean Drive","capacity":"116","caravans":"yes","dog":"leashed","email":"joewheeler.campground@dcnr.alabama.gov","fee":"yes","internet_access":"wlan","name":"Joe Wheeler State Park Campground","note":"As of April 22, 2020, closed until further notice due to tornado damage on December 19, 2019, for updates see https://www.alapark.com/parks/joe-wheeler-state-park","opening_hours":"closed","phone":"+1-256-247-1184","power_supply":"yes","sanitary_dump_station":"yes","tents":"yes","website":"https://www.alapark.com/parks/joe-wheeler-state-park/campground"}},"532962437":{"location":[34.80039,-87.4990289],"ct":"US","tp":"CR","ts":"2023-10-28T19:58:01Z","tX":263,"tY":406,"tags":{"addr:city":"Muscle Shoals","addr:housenumber":"180","addr:state":"AL","addr:street":"Alloys Park Lane","caravans":"yes","fee":"yes","internet_access":"wlan","name":"Alloys Park","phone":"+1-256-577-9619","tents":"yes","website":"https://www.colbertcounty.org/parks/alloyspark/"}},"725982435":{"location":[34.8456888,-87.3638502],"ct":"US","tp":"CS","ts":"2019-09-18T21:15:12Z","tX":263,"tY":406,"tags":{}},"4419452356":{"location":[34.804943,-87.3201908],"ct":"US","tp":"SD","ts":"2016-09-26T19:40:55Z","tX":263,"tY":406,"tags":{}}}