{"1873830739":{"location":[21.5268748,-87.3724778],"ct":"MX","tp":"CS","ts":"2012-08-20T00:29:30Z","tX":263,"tY":449,"tags":{}},"4980469822":{"location":[21.5250558,-87.379392],"ct":"MX","tp":"CS","ts":"2017-07-19T20:09:44Z","tX":263,"tY":449,"tags":{"internet_access":"wlan","name":"Camping + Hostel Holbox Sunset","name:de":"Campng + Hostel Holbox Sunset","name:en":"Camping + Hostel Holbox Sunset","name:es":"Camping + Hostel Holbox Sunset","opening_hours":"24/7","phone":"9841000619"}},"5317486288":{"location":[21.5138807,-87.3905474],"ct":"MX","tp":"CS","ts":"2018-01-03T02:37:14Z","tX":263,"tY":449,"tags":{"name":"Balam"}},"5317492978":{"location":[21.521595,-87.3774505],"ct":"MX","tp":"CS","ts":"2018-01-03T02:48:00Z","tX":263,"tY":449,"tags":{"name":"Coconut"}},"5370689026":{"location":[21.5134263,-87.3911645],"ct":"MX","tp":"CS","ts":"2018-01-29T17:11:43Z","tX":263,"tY":449,"tags":{"addr:postcode":"77310","addr:street":"Avienda Pedro Joaquin Caldwell","name":"Balam ecocamping"}},"5532875124":{"location":[21.5200564,-87.3838595],"ct":"MX","tp":"CS","ts":"2018-04-06T09:10:03Z","tX":263,"tY":449,"tags":{"internet_access":"wlan","name":"One Love Camping and hostal"}},"8326281417":{"location":[21.5195705,-87.3816871],"ct":"MX","tp":"CS","ts":"2021-01-15T23:57:18Z","tX":263,"tY":449,"tags":{"addr:postcode":"77310","addr:street":"Calle Porfirio DÃ­az","internet_access":"wlan","name":"Camping Kin","opening_hours":"24/7","phone":"+52 984 239 2402","website":"https://kin-camping.business.site"}},"10916982606":{"location":[21.5196536,-87.3834],"ct":"MX","tp":"CS","ts":"2023-05-21T23:17:46Z","tX":263,"tY":449,"tags":{"name":"Aldea Camping"}}}