{"689580938":{"location":[36.4930699,59.1834006],"ct":"IR","tp":"CS","ts":"2019-05-13T04:46:52Z","tX":680,"tY":400,"tags":{"addr:city":"گلمکان","name":"اردوگاه شهید بهشتی گلمکان"}},"1034608822":{"location":[36.3219666,59.3493269],"ct":"IR","tp":"CS","ts":"2023-09-12T08:25:55Z","tX":680,"tY":400,"tags":{"addr:street":"ورودی سد چالیدره","leisure":"resort","name":"منطقه توریستی چالیدره","name:en":"Chalidareh","website":"https://www.chalidarreh.com"}},"5134032023":{"location":[36.4143536,59.0882662],"ct":"IR","tp":"CS","ts":"2023-03-28T03:30:32Z","tX":680,"tY":400,"tags":{"addr:housenumber":"12345678","addr:street":"عاشقان","name":"کمپ گردشگری عاشقان","name:en":"lovely tuorism camp","opening_hours":"24/7","phone":"+98 915 514 0447"}},"6408821185":{"location":[36.3768354,59.3446558],"ct":"IR","tp":"CS","ts":"2019-06-26T06:09:30Z","tX":680,"tY":400,"tags":{"name":"کمپ احسان مهرافروزیان","name:en":"Ehsan Mehrafrouzian"}},"7994179247":{"location":[36.4208401,59.3854158],"ct":"IR","tp":"CS","ts":"2020-10-10T06:25:42Z","tX":680,"tY":400,"tags":{"name":"کمپ اتباع افغانی"}}}