{"285221581":{"location":[51.755424,-9.7612776],"ct":"IE","tp":"CS","ts":"2023-08-25T06:30:57Z","tX":484,"tY":339,"tags":{"addr:city":"Lauragh","addr:province":"Co Kerry","addr:street":"Healy Pass Road","caravans":"yes","email":"info@creveenlodge.com","fee":"yes","kitchen":"yes","motor_vehicle":"yes","motorhome":"yes","name":"Creveen Lodge Caravan and Camping Park","nudism":"no","openfire":"yes","operator":"Michael & Mary Moriarty","phone":"+353 64 668 3131","power_supply":"yes","sanitary_dump_station":"yes","shower":"yes","tents":"yes","toilets":"yes","website":"http://creveenlodge.com"}},"285225929":{"location":[51.7360515,-9.5623132],"ct":"IE","tp":"CS","ts":"2023-08-23T12:35:32Z","tX":484,"tY":339,"tags":{"caravans":"yes","name":"Glengarriff Caravan and Camping Park","stars":"3","tents":"yes","website":"https://glengarriff-caravan-camping-park.business.site"}},"286065992":{"location":[51.7352499,-9.5666917],"ct":"IE","tp":"CR","ts":"2014-06-03T11:55:19Z","tX":484,"tY":339,"tags":{}},"286067903":{"location":[51.8269978,-9.7307314],"ct":"IE","tp":"CS","ts":"2023-08-26T21:32:51Z","tX":484,"tY":339,"tags":{"cabins":"yes","caravans":"yes","internet_access":"wlan","internet_access:fee":"no","motor_vehicle":"yes","motorhome":"yes","name":"Beara Camping","nudism":"no","old_name":"The Peacock Camping & Hostel","opening_hours":"Apr 15-Oct 15","phone":"+353 64 668 4287","shower":"yes","tents":"yes","toilets":"yes","washing_machine":"yes","website":"https://www.bearacamping.com"}},"286070524":{"location":[51.6937517,-9.725067],"ct":"IE","tp":"CS","ts":"2024-05-18T16:17:15Z","tX":484,"tY":339,"tags":{"cabins":"yes","caravans":"yes","email":"info@hungryhilllodgeandcampsite.com","motor_vehicle":"yes","motorhome":"yes","name":"Hungry Hill Lodge","nudism":"no","phone":"+353 83 119 6659","shower":"yes","tents":"yes","website":"https://www.hungryhilllodgeandcampsite.com"}},"286481237":{"location":[51.7367274,-9.5598916],"ct":"IE","tp":"CS","ts":"2023-08-23T12:30:25Z","tX":484,"tY":339,"tags":{"caravans":"yes","drinking_water":"yes","motor_vehicle":"yes","motorhome":"yes","name":"O'Sheas Caravan & Camping Park","nudism":"no","power_supply":"yes","shower":"yes","stars":"2","tents":"yes"}},"706445292":{"location":[51.7429497,-9.6178818],"ct":"IE","tp":"CS","ts":"2019-09-28T09:02:58Z","tX":484,"tY":339,"tags":{"name":"Coomarkane Visitor Centre","phone":"+353 027 63826","website":"https://www.coomarkanevisitorcentre.com/"}},"9525134641":{"location":[51.6337171,-9.602276],"ct":"IE","tp":"CS","ts":"2022-02-21T18:07:06Z","tX":484,"tY":339,"tags":{"addr:city":"Glenlough West Bantry","addr:country":"IE","cabins":"yes","email":"goatspathpods@gmail.com","name":"Goats Path Pod Park","phone":"+353 86 8570186","website":"http://www.goatspathpods.ie/"}}}