{"7147712":{"location":[31.4918403,-9.763053],"ct":"MA","tp":"CS","ts":"2024-03-15T09:26:41Z","tX":484,"tY":417,"tags":{"name":"Camp Sidi Magdoul Essaouira"}},"1150020663":{"location":[31.6427051,-9.6767112],"ct":"MA","tp":"CR","ts":"2023-02-27T23:07:28Z","tX":484,"tY":417,"tags":{}},"1150319637":{"location":[31.5537898,-9.624348],"ct":"MA","tp":"CS","ts":"2024-12-05T16:01:50Z","tX":484,"tY":417,"tags":{"name":"Camping Esprit Nature / jakady"}},"1804781196":{"location":[31.4677037,-9.7649311],"ct":"MA","tp":"CS","ts":"2012-06-28T08:11:56Z","tX":484,"tY":417,"tags":{"name":"Tangaro"}},"2078758282":{"location":[31.4326178,-9.6582214],"ct":"MA","tp":"CS","ts":"2019-03-10T09:50:53Z","tX":484,"tY":417,"tags":{"addr:postcode":"44005","addr:street":"Essaouira Village Idaougourd","contact:pobox":"bp 53","email":"campinglecalme@yahoo.fr","internet_access":"wlan","name":"Hôtel et Camping Le Calme","name:fr":"Hôtel et Camping Le Calme","opening_hours":"24/7","phone":"+212661530413","website":"https://m.facebook.com/campinglecalme1/"}},"3305934206":{"location":[31.400232,-9.7087646],"ct":"MA","tp":"CS","ts":"2015-01-23T14:15:27Z","tX":484,"tY":417,"tags":{"name":"Camp Aire Dar Ch'Tis"}},"5295863777":{"location":[31.6443983,-9.6762387],"ct":"MA","tp":"CS","ts":"2023-03-18T18:21:02Z","tX":484,"tY":417,"tags":{"addr:city":"مولاي بوزرقطون","addr:city:ar":"مولاي بوزرقطون","addr:city:es":"Mulay Buzerktún","addr:postcode":"44000","addr:street":"Calle Labdi","addr:street:es":"Calle Labdi","description":"moulay-bouzerktoun@gmail.com","language:ar":"main","language:es":"yes","leisure":"sports_centre","name":"Complexe sportif El Mouja","name:es":"Complejo Deportivo El Mouja","name:fr":"Complexe sportif El Mouja","opening_hours":"24/7","phone":"+212678303670","sport":"multi;swimming","website":"www.moulay-bouzerktoun.com"}},"10764568305":{"location":[31.5019989,-9.7483288],"ct":"MA","tp":"CS","ts":"2023-03-26T20:37:43Z","tX":484,"tY":417,"tags":{"name":"Eukalyptus forest"}},"11403451569":{"location":[31.532453,-9.5469278],"ct":"MA","tp":"CS","ts":"2023-12-08T15:57:02Z","tX":484,"tY":417,"tags":{"name":"Camping Oliveras"}},"11510688269":{"location":[31.5326484,-9.5475258],"ct":"MA","tp":"CS","ts":"2024-01-12T11:27:47Z","tX":484,"tY":417,"tags":{"name":"Camping Les Oliviers"}},"11560806778":{"location":[31.5326832,-9.5469715],"ct":"MA","tp":"CS","ts":"2024-01-28T19:32:52Z","tX":484,"tY":417,"tags":{"name":"Camping Les Oliviers"}},"5258200621":{"location":[31.4960716,-9.7636275],"ct":"MA","tp":"CR","ts":"2017-12-01T18:59:04Z","tX":484,"tY":417,"tags":{"name":"Essaouira"}}}