{"1157384142":{"location":[29.6305877,-9.5350386],"ct":"MA","tp":"CR","ts":"2025-04-10T07:33:20Z","tX":484,"tY":423,"tags":{"fee":"yes","name":"Ouijjane","power_supply":"yes","sanitary_dump_station":"no","toilets":"yes","water_point":"yes"}},"2066668947":{"location":[29.8037251,-9.8275199],"ct":"MA","tp":"CS","ts":"2020-08-22T21:39:32Z","tX":484,"tY":423,"tags":{"name":"Camp Municipal D'Aglou تخييم أغلو البلدي","name:ar":"تخييم أغلو البلدي","name:fr":"Camp Municipal D'Aglou"}},"2073488757":{"location":[29.6944596,-9.7260616],"ct":"MA","tp":"CS","ts":"2022-08-02T19:32:17Z","tX":484,"tY":423,"tags":{"name":"Camping International de Tiznit","name:es":"Camping International de Tiznit"}},"2073539810":{"location":[29.6965042,-9.7094411],"ct":"MA","tp":"CS","ts":"2012-12-18T20:57:54Z","tX":484,"tY":423,"tags":{"name":"Camp Riad Tiznit"}},"2235499101":{"location":[29.6424836,-9.7210643],"ct":"MA","tp":"CS","ts":"2015-12-31T19:13:40Z","tX":484,"tY":423,"tags":{"name":"Camp Tazerzite"}},"2519684230":{"location":[29.7099775,-9.7123875],"ct":"MA","tp":"CS","ts":"2013-11-04T11:59:48Z","tX":484,"tY":423,"tags":{"note":"no fee for caravan, but loud noise"}},"3306212608":{"location":[29.7134176,-9.7306687],"ct":"MA","tp":"CS","ts":"2017-12-14T16:20:09Z","tX":484,"tY":423,"tags":{"internet_access":"wlan","name:en":"Targua International Camping","operator":"Mohammed"}},"10733197006":{"location":[29.7050433,-9.7305697],"ct":"MA","tp":"CS","ts":"2023-03-13T16:43:51Z","tX":484,"tY":423,"tags":{"addr:postcode":"85000","addr:street":"Hors Bab Lkhmis, Hay Dou Targa - Tiznit","name:fr":"Camping Timbar","phone":"+212 528 865 689"}}}