{"405266721":{"location":[-45.0869279,169.1595588],"ct":"NZ","tp":"CS","ts":"2025-02-06T18:35:09Z","tX":993,"tY":655,"tags":{"addr:housenumber":"4","addr:street":"Domain Road","caravans":"yes","drinking_water":"yes","email":"bannockburnreserve@gmail.com","fee":"yes","fee:url":"https://www.bannockburnreserve.co.nz/prices.html","mobile":"+64 27 445 0004","name":"Bannockburn Domain Camping","power_supply":"yes","shower":"yes","tents":"yes","website":"https://www.bannockburnreserve.co.nz/"}},"405267750":{"location":[-45.0843438,169.179266],"ct":"NZ","tp":"CS","ts":"2025-02-06T18:35:09Z","tX":993,"tY":655,"tags":{"access":"customers","addr:city":"Cromwell","addr:housenumber":"219","addr:street":"Cairnmuir Road","caravans":"yes","drinking_water":"yes","email":"cairnmuirmc@slingshot.co.nz","fee":"yes","mobile":"+64 27 479 3471","name":"Cairnmuir Motor Camp","power_supply":"yes","sanitary_dump_station":"yes","shower":"yes","tents":"yes","toilets":"yes","website":"https://www.cairnmuirmc.co.nz/"}},"442150622":{"location":[-45.0279446,169.1980057],"ct":"NZ","tp":"CS","ts":"2025-02-05T09:19:58Z","tX":993,"tY":655,"tags":{"fee":"yes","fixme":"Is this still available? No info on website.","internet_access":"no","name":"Jackson Orchard","operator":"Jackson Orchard","wheelchair":"yes"}},"1318763730":{"location":[-45.0869918,169.2701366],"ct":"NZ","tp":"CR","ts":"2024-09-27T10:49:27Z","tX":993,"tY":655,"tags":{"addr:city":"Cromwell","addr:street":"Cromwell-Clyde Road","name":"Jacksons Inlet Freedom Camping","website":"https://www.linz.govt.nz/products-services/camping-areas/location-and-guidelines-our-camping-areas"}},"1320825705":{"location":[-44.9872191,169.2323298],"ct":"NZ","tp":"CR","ts":"2024-10-04T22:40:33Z","tX":993,"tY":655,"tags":{"addr:city":"Cromwell","addr:housenumber":"630","addr:street":"Luggate Cromwell Road","addr:suburb":"Mount Pisa","area":"yes","caravan_site":"motorhome_stopover","name":"Lowburn NZMCA Park","operator":"NZMCA","power_supply":"no","sanitary_dump_station":"no"}},"4542039589":{"location":[-44.9379495,169.2904473],"ct":"NZ","tp":"CR","ts":"2025-01-20T05:46:56Z","tX":993,"tY":655,"tags":{"addr:street":"State Highway 8","description":"Only rest area between Wanaka and Queenstown, that is suitable also for tenting and non-self-contained vehicles. Toilets and boat ramp on site, great view on the lake.","drinking_water":"no","fee":"no","name":"Bendigo Freedom Camping Area","name:en":"Bendigo Freedom Camping Area","opening_hours":"24/7","power_supply":"no","sanitary_dump_station":"no","toilets":"yes","website":"https://www.linz.govt.nz/products-services/camping-areas/location-and-guidelines-our-camping-areas"}},"4646530717":{"location":[-45.0089115,169.2133051],"ct":"NZ","tp":"CR","ts":"2025-01-20T00:43:40Z","tX":993,"tY":655,"tags":{"description":"Camping for self contained vehicles only","drinking_water":"no","fee":"no","internet_access":"no","name":"Lowburn Harbour","power_supply":"no","sanitary_dump_station":"no","toilets":"yes","wheelchair":"limited"}},"6622702290":{"location":[-45.0568616,169.195149],"ct":"NZ","tp":"SD","ts":"2019-07-17T12:47:07Z","tX":993,"tY":655,"tags":{}}}