{"29280131":{"location":[-45.2465141,169.4044197],"ct":"NZ","tp":"CS","ts":"2025-01-19T00:23:19Z","tX":993,"tY":656,"tags":{"addr:city":"Alexandra","addr:housenumber":"40","addr:street":"Manuherikia Road","caravans":"yes","drinking_water":"yes","email":"info@alexandraholidaypark.com","fee":"yes","name":"Alexandra Holiday Park","phone":"+64 3 448 8297","power_supply":"yes","sanitary_dump_station":"yes","shower":"yes","tents":"yes","toilets":"yes","website":"http://www.alexandraholidaypark.com"}},"383587259":{"location":[-45.2425116,169.3962702],"ct":"NZ","tp":"CS","ts":"2025-02-11T12:35:11Z","tX":993,"tY":656,"tags":{"access":"customers","addr:housenumber":"31","addr:street":"Ngapara Street","booking":"required","caravans":"yes","email":"alex.touristpark@xtra.co.nz","name":"Alexandra Tourist Park","phone":"+64 3 448 8861","tents":"yes","website":"https://www.alexandratouristpark.co.nz/"}},"383735326":{"location":[-45.1926808,169.3194175],"ct":"NZ","tp":"CS","ts":"2018-07-23T04:58:21Z","tX":993,"tY":656,"tags":{"name":"Clyde Holiday Park"}},"1318765836":{"location":[-45.1292876,169.3169506],"ct":"NZ","tp":"CR","ts":"2025-01-23T06:44:30Z","tX":993,"tY":656,"tags":{"addr:city":"Cromwell Community","addr:street":"Cromwell-Clyde Road","drinking_water":"no","fee":"no","name":"Champagne Gully Freedom Camping","power_supply":"no","sanitary_dump_station":"no","toilets":"yes","website":"https://www.linz.govt.nz/products-services/camping-areas/location-and-guidelines-our-camping-areas"}},"3351793797":{"location":[-45.192179,169.3189386],"ct":"NZ","tp":"SD","ts":"2015-03-29T20:57:39Z","tX":993,"tY":656,"tags":{"addr:city":"Clyde","addr:housenumber":"10","addr:street":"Whitby Street","name":"Clyde Holiday & Sporting Complex"}},"4931617823":{"location":[-45.1292221,169.3165493],"ct":"NZ","tp":"CS","ts":"2025-01-23T06:44:39Z","tX":993,"tY":656,"tags":{"addr:street":"State Highway 8","caravans":"yes","drinking_water":"no","name":"Champagne Gully","name:de":"Champagne Gully","name:en":"Champagne Gully","power_supply":"no","sanitary_dump_station":"no","shower":"no","tents":"yes","toilets":"yes"}},"6415486886":{"location":[-45.1759235,169.301975],"ct":"NZ","tp":"CS","ts":"2025-03-13T05:15:28Z","tX":993,"tY":656,"tags":{"access":"yes","caravans":"yes","fee":"no","name":"Burton Creek Recreation Reserve (Freedom camping)","tents":"no","toilets":"separate"}},"11359629869":{"location":[-45.209372,169.3471229],"ct":"NZ","tp":"CS","ts":"2023-11-18T06:58:53Z","tX":993,"tY":656,"tags":{}},"12616477565":{"location":[-45.2431645,169.3806285],"ct":"NZ","tp":"CR","ts":"2025-02-24T19:46:56Z","tX":993,"tY":656,"tags":{"capacity:caravans":"40","check_date":"2025-02-25","internet_access":"no","name":"Alexandra NZMCA Park","operator":"NZMCA","power_supply":"no","sanitary_dump_station":"no"}}}