{"779689964":{"location":[46.3264885,-95.6684633],"ct":"US","tp":"CS","ts":"2024-11-02T16:23:33Z","tX":239,"tY":362,"tags":{"addr:city":"Battle Lake","addr:housenumber":"24869","addr:state":"MN","addr:street":"Whitetail Lane","caravans":"no","charge":"16 USD","drinking_water":"yes","fee":"yes","name":"Glendalough State Park Cart-in Campground","static_caravans":"no","toilets":"yes"}},"7280750718":{"location":[46.3228172,-95.6567686],"ct":"US","tp":"CS","ts":"2020-03-09T20:38:07Z","tX":239,"tY":362,"tags":{"capacity":"3","name":"Glendalough State Park Canoe Campsite"}},"7281063989":{"location":[46.5245208,-95.9411457],"ct":"US","tp":"CS","ts":"2020-03-09T22:21:07Z","tX":239,"tY":362,"tags":{"addr:city":"Pelican Rapids","addr:housenumber":"39721","addr:state":"MN","addr:street":"Park Entrance Road","capacity":"71","name":"Maplewood State Park Campground","power_supply":"yes"}},"11183746328":{"location":[46.5104822,-95.9376183],"ct":"US","tp":"CS","ts":"2024-07-31T01:57:30Z","tX":239,"tY":362,"tags":{"backcountry":"yes","caravans":"no","charge":"22 USD","fee":"yes","name":"Beers Hike-in Site","static_caravans":"no","tents":"yes"}},"12084185598":{"location":[46.5167548,-95.9450983],"ct":"US","tp":"CS","ts":"2024-07-31T01:57:30Z","tX":239,"tY":362,"tags":{"charge":"75 USD","fee":"yes","group_only":"yes","tents":"yes"}}}