{"1298895457":{"location":[44.8904792,-95.6473438],"ct":"US","tp":"CS","ts":"2024-07-03T23:16:59Z","tX":239,"tY":368,"tags":{"name":"Wegdahl County Park","website":"https://www.exploreminnesota.com/profile/wegdahl-park/5726"}},"7160944429":{"location":[44.9517124,-95.7296366],"ct":"US","tp":"CS","ts":"2024-11-02T16:23:33Z","tX":239,"tY":368,"tags":{"addr:city":"Montevideo","addr:state":"MN","capacity":"10","charge":"12 USD","fee":"yes","name":"Lagoon Park Campground","picnic_table":"yes","power_supply":"yes","reservation":"no","toilets:disposal":"flush"}},"7347035594":{"location":[45.0208678,-95.8875923],"ct":"US","tp":"CS","ts":"2020-03-30T17:05:39Z","tX":239,"tY":368,"tags":{"addr:city":"Watson","addr:housenumber":"14047","addr:state":"MN","addr:street":"20th Street Northwest","capacity":"67","name":"Lac qui Parle State Park","website":"https://www.dnr.state.mn.us/state_parks/park.html?id=spk00197#overnight_facilities"}},"7495776774":{"location":[44.8513112,-95.8963217],"ct":"US","tp":"CS","ts":"2020-08-30T18:28:35Z","tX":239,"tY":368,"tags":{"addr:city":"Boyd","addr:state":"MN","capacity":"12","fee":"yes","name":"Boyd City Park","phone":"+1-320-855-2242"}}}