{"566767070":{"location":[44.0947685,-95.7021608],"ct":"US","tp":"CS","ts":"2021-08-24T23:22:23Z","tX":239,"tY":371,"tags":{"fee":"yes","name":"Camp Shetek","operator":"Sioux Council","phone":"+1-605-361-2697","website":"https://www.siouxcouncil.org/shetek"}},"1373822949":{"location":[44.1072304,-95.7143209],"ct":"US","tp":"CR","ts":"2025-04-01T19:04:08Z","tX":239,"tY":371,"tags":{}},"1373822951":{"location":[44.1073702,-95.7300809],"ct":"US","tp":"CR","ts":"2025-04-01T19:04:08Z","tX":239,"tY":371,"tags":{}},"1373822952":{"location":[44.1143764,-95.6726073],"ct":"US","tp":"CR","ts":"2025-04-01T19:04:08Z","tX":239,"tY":371,"tags":{}},"1373822953":{"location":[44.1247932,-95.6540846],"ct":"US","tp":"CS","ts":"2025-04-01T19:04:08Z","tX":239,"tY":371,"tags":{}},"7377226598":{"location":[44.2634296,-95.7459617],"ct":"US","tp":"CS","ts":"2024-12-01T06:45:16Z","tX":239,"tY":371,"tags":{"addr:city":"Garvin","addr:state":"MN","charge":"15 USD","description":"$10-$15","fee":"yes","name":"Garvin CP - Upper Campground","phone":"+1-507-629-4081","power_supply":"yes","shower":"yes","toilets":"yes"}},"7377379052":{"location":[44.2723257,-95.740874],"ct":"US","tp":"CS","ts":"2024-12-01T06:45:16Z","tX":239,"tY":371,"tags":{"addr:city":"Garvin","addr:state":"MN","charge":"15 USD","description":"$10-$15","fee":"yes","name":"Garvin CP- Lower Campground","phone":"+1-507-629-4081","power_supply":"yes","shower":"yes"}},"7494353123":{"location":[44.1530408,-95.7788356],"ct":"US","tp":"CS","ts":"2024-11-02T16:23:33Z","tX":239,"tY":371,"tags":{"addr:city":"Garvin","addr:state":"MN","capacity":"14","charge":"14 USD","drinking_water":"yes","fee":"yes","name":"Sundquist Park at West Lake Sarah","power_supply":"yes","reservation":"no","toilets":"vault"}}}