{"242170330":{"location":[43.6403769,-95.9407402],"ct":"US","tp":"CR","ts":"2013-10-15T02:19:06Z","tX":239,"tY":373,"tags":{"name":"Adrian Municipal Campground Park","source":"Bing"}},"550909298":{"location":[43.6071005,-95.6355385],"ct":"US","tp":"CS","ts":"2018-01-04T17:05:04Z","tX":239,"tY":373,"tags":{"addr:city":"Worthington","addr:housenumber":"951","addr:postcode":"56187","addr:state":"MN","addr:street":"Crailshaim Drive","name":"Olson Campground"}},"7148699295":{"location":[43.6071729,-95.6356705],"ct":"US","tp":"CS","ts":"2023-11-29T13:08:45Z","tX":239,"tY":373,"tags":{"addr:city":"Worthington","addr:state":"MN","capacity":"68","drinking_water":"yes","fee":"Tents $21-$32","name":"Olson Park Municipal Park","phone":"+1-507-329-0760","power_supply":"yes","seasonal":"spring;summer;autumn","shelter":"yes","shower":"yes","toilets":"yes"}},"7148724530":{"location":[43.6404664,-95.9407276],"ct":"US","tp":"CS","ts":"2023-11-29T13:08:45Z","tX":239,"tY":373,"tags":{"addr:city":"Adrian","addr:housenumber":"501","addr:state":"MN","addr:street":"Franklin","capacity":"121","drinking_water":"yes","fee":"$18-$33","internet_access":"wlan","laundry_service":"yes","name":"Adrian Campground Municipal Park","phone":"+1-507-483-2820","power_supply":"yes","sanitary_dump_station":"yes","seasonal":"spring;summer;autumn","shower":"yes","swimming_pool":"yes","toilets:type":"flush"}}}