{"425679960":{"location":[40.6591777,-95.8432249],"ct":"US","tp":"CR","ts":"2023-10-28T08:17:30Z","tX":239,"tY":385,"tags":{"addr:city":"Nebraska City","addr:housenumber":"6591","addr:postcode":"68410","addr:state":"NE","addr:street":"Highway 2","alt_name":"Victorian Acres RV Park","name":"Victorian Acres Campground","phone":"402-873-6866","source":"Mapbox","website":"https://victorianacresrvpark.com/"}},"1311817919":{"location":[40.6626484,-95.8742181],"ct":"US","tp":"CR","ts":"2024-08-28T16:54:03Z","tX":239,"tY":385,"tags":{"name":"Hidden Falls RV Park"}},"2176631401":{"location":[40.6714416,-95.8711075],"ct":"US","tp":"CS","ts":"2013-02-27T03:56:44Z","tX":239,"tY":385,"tags":{"name":"Camp Woodmen","source":"bing"}},"2530171314":{"location":[40.6830058,-95.6790654],"ct":"US","tp":"CS","ts":"2024-04-18T18:41:59Z","tX":239,"tY":385,"tags":{"name":"Waubonsie State Park Campground","note":"Horse Camp"}},"4249755218":{"location":[40.6608725,-95.843909],"ct":"US","tp":"CS","ts":"2023-10-28T08:16:23Z","tX":239,"tY":385,"tags":{"addr:city":"Nebraska City","addr:housenumber":"6591","addr:postcode":"68410","addr:state":"NE","addr:street":"Highway 2","name":"Victorian Acres Campground","phone":"402-873-6866","source":"Bing","website":"https://victorianacresrvpark.com/"}},"8571885370":{"location":[40.6733109,-95.6879059],"ct":"US","tp":"CS","ts":"2021-03-29T13:57:05Z","tX":239,"tY":385,"tags":{}},"8571885371":{"location":[40.6637704,-95.6892684],"ct":"US","tp":"CS","ts":"2021-03-29T13:57:05Z","tX":239,"tY":385,"tags":{}},"11832124800":{"location":[40.6706566,-95.6862132],"ct":"US","tp":"CS","ts":"2024-04-21T03:08:50Z","tX":239,"tY":385,"tags":{"caravans":"no","drinking_water":"yes","name":"Organized Youth Camping","power_supply":"no","shower":"no","tents":"yes"}}}