{"137283777":{"location":[38.931867,-95.6728471],"ct":"US","tp":"CS","ts":"2011-11-17T04:06:43Z","tX":239,"tY":391,"tags":{"name":"Lot 1"}},"137283778":{"location":[38.9327609,-95.6716421],"ct":"US","tp":"CS","ts":"2011-11-17T04:06:43Z","tX":239,"tY":391,"tags":{"name":"Lot 2"}},"137283779":{"location":[38.9346436,-95.6753896],"ct":"US","tp":"CS","ts":"2011-11-17T04:06:44Z","tX":239,"tY":391,"tags":{"name":"Lot 3"}},"137283780":{"location":[38.9345589,-95.6814319],"ct":"US","tp":"CS","ts":"2011-11-17T04:06:45Z","tX":239,"tY":391,"tags":{"name":"Lot 4"}},"195759714":{"location":[39.0321922,-95.6353201],"ct":"US","tp":"CS","ts":"2024-06-28T03:27:10Z","tX":239,"tY":391,"tags":{"name":"Deer Creek Valley RV Park","phone":"785-357-8555","website":"https://www.deercreekvalleyrvpark.com/"}},"942466551":{"location":[38.9762632,-95.7048623],"ct":"US","tp":"CR","ts":"2024-11-07T05:11:55Z","tX":239,"tY":391,"tags":{"addr:city":"Topeka","addr:housenumber":"1949","addr:postcode":"66609","addr:state":"KS","addr:street":"Southwest 49th Street","brand":"KOA","brand:wikidata":"Q16988635","email":"office@capitalcitykoa.com","fee":"yes","internet_access":"wlan","internet_access:fee":"customers","name":"Capital City KOA Journey","phone":"+1-785-862-5267","power_supply":"yes","short_name":"KOA","website":"https://koa.com/campgrounds/topeka"}}}