{"758564087":{"location":[32.6040786,-95.9241355],"ct":"US","tp":"CR","ts":"2019-12-25T18:50:02Z","tX":239,"tY":413,"tags":{"addr:city":"Wills Point","addr:housenumber":"30488","addr:postcode":"75169","addr:state":"TX","addr:street":"Highway 64","name":"BlueBird RV Park & Campground"}},"959025911":{"location":[32.8187433,-95.8896902],"ct":"US","tp":"CS","ts":"2021-08-31T07:32:06Z","tX":239,"tY":413,"tags":{"access":"private","addr:city":"point","addr:housenumber":"1490","addr:postcode":"75472","addr:state":"TX","addr:street":"1446 RS county road","capacity":"325","description":"Camp Akiva, a Christian youth camp who exists to serve the needs of our ministry owner, Our Fatherâ€™s Children, to create positive, uplifting memories for children of abuse and neglect, ages 6-18, in camp settings, weekend retreats, and in mentoring clubs","email":"info@campakiva.org","group_only":"yes","name":"Camp Akiva","opening_hours":"Mo-Fr 08:00-17:00","operator":"Our Fathers Children","reservation":"required","website":"https://www.campakiva.org/"}},"1302110362":{"location":[32.6313054,-95.9536272],"ct":"US","tp":"CR","ts":"2024-07-17T20:07:51Z","tX":239,"tY":413,"tags":{}}}