{"938020436":{"location":[51.4858225,-113.1514152],"ct":"CA","tp":"CR","ts":"2024-07-19T23:46:23Z","tX":190,"tY":340,"tags":{"internet_access":"wlan","internet_access:fee":"customers","name":"Carbon Main Campground","power_supply":"yes","sanitary_dump_station":"yes","website":"https://www.villageofcarbon.com/attractions/campgrounds/#tab-id-2-active"}},"938020437":{"location":[51.4845469,-113.1446035],"ct":"CA","tp":"CR","ts":"2024-07-19T23:46:23Z","tX":190,"tY":340,"tags":{"internet_access":"wlan","internet_access:fee":"customers","name":"Carbon East Campground","power_supply":"yes","sanitary_dump_station":"yes","website":"https://www.villageofcarbon.com/attractions/campgrounds/#tab-id-3-active"}},"1036129060":{"location":[51.5166828,-112.877911],"ct":"CA","tp":"CS","ts":"2022-03-03T19:48:15Z","tX":190,"tY":340,"tags":{"addr:city":"Drumheller","addr:housenumber":"Highway 837","addr:postcode":"T0J 2C0","addr:province":"Alberta","addr:street":"South Dinosaur Trail","name":"Drumheller Lions Campground & Hall Rental","operator":"Lions International"}},"1176004693":{"location":[51.4148568,-112.8864942],"ct":"CA","tp":"CS","ts":"2024-07-21T23:46:41Z","tX":190,"tY":340,"tags":{"caravans":"yes","internet_access":"wlan","name":"Horseshoe canyon Campground","phone":"+1 (403) 856-8107","tents":"yes","website":"https://horseshoecanyon.ca/"}},"5037219821":{"location":[51.5668306,-112.8873627],"ct":"CA","tp":"CS","ts":"2017-08-15T16:29:57Z","tX":190,"tY":340,"tags":{"name":"Bleriot Ferry","name:en":"Bleriot Ferry"}}}