{"1213387943":{"location":[46.1712726,-113.1651173],"ct":"US","tp":"CS","ts":"2024-11-12T16:01:35Z","tX":190,"tY":363,"tags":{"caravans":"yes","name":"Spring Hill Campground","operator":"Beaverhead-Deerlodge National Forest, Pintler Ranger District","tents":"yes"}},"1316718176":{"location":[46.1302612,-112.9285486],"ct":"US","tp":"CR","ts":"2024-09-19T15:13:19Z","tX":190,"tY":363,"tags":{"addr:city":"Anaconda","addr:housenumber":"300","addr:postcode":"59711","addr:state":"MT","addr:street":"North Polk Street","name":"Copper Court RV Park","website":"https://coppercourtrvpark.com/"}},"3423488548":{"location":[46.1346328,-112.9537545],"ct":"US","tp":"CR","ts":"2015-03-28T15:06:58Z","tX":190,"tY":363,"tags":{"name":"Big Sky RV Park & Campground"}},"3423772854":{"location":[46.1445665,-112.9967557],"ct":"US","tp":"CR","ts":"2015-03-28T18:58:55Z","tX":190,"tY":363,"tags":{"name":"Hunters RV Park And Mobile Home Community"}},"3424912826":{"location":[46.2094224,-113.0033819],"ct":"US","tp":"CS","ts":"2024-11-01T17:01:59Z","tX":190,"tY":363,"tags":{"name":"Lost Creek Campground"}},"12301940452":{"location":[46.2802662,-112.9392147],"ct":"US","tp":"CS","ts":"2024-10-31T22:27:39Z","tX":190,"tY":363,"tags":{"name":"Racetrack Campground"}}}