{"14420265":{"location":[37.2741198,-112.8771048],"ct":"US","tp":"CS","ts":"2023-08-06T22:24:52Z","tX":190,"tY":397,"tags":{"access":"customers","addr:city":"Orderville","addr:postcode":"84758","addr:state":"UT","addr:street":"Twin Knolls Road","caravans":"yes","email":"resort@zionponderosa.com","internet_access":"wlan","internet_access:fee":"no","name":"Zion Ponderosa Ranch Resort","phone":"+1 435-648-2700","start_date":"1995-01-01","tents":"yes","website":"https://www.zionponderosa.com"}},"16219625":{"location":[37.1963985,-112.9876446],"ct":"US","tp":"CS","ts":"2024-07-17T18:22:11Z","tX":190,"tY":397,"tags":{"capacity":"178","caravans":"yes","drinking_water":"yes","fee":"yes","name":"Watchman Campground","operator":"National Park Service","operator:wikipedia":"en:National Park Service","power_supply":"yes","sanitary_dump_station":"yes","tents":"yes","toilets":"yes","website":"https://www.nps.gov/zion/planyourvisit/watchman-campground.htm","wheelchair":"yes"}},"17590735":{"location":[37.1928087,-112.9913444],"ct":"US","tp":"CS","ts":"2024-06-11T03:32:54Z","tX":190,"tY":397,"tags":{"addr:city":"Springdale","addr:housenumber":"479","addr:postcode":"84767","addr:state":"UT","addr:street":"Zion Park Boulevard","check_date":"2024-06-06","name":"Zion Canyon Campground and RV Resort","operator":"Ferber Resorts"}},"111784879":{"location":[37.2026395,-113.1775393],"ct":"US","tp":"CR","ts":"2024-06-06T18:24:20Z","tX":190,"tY":397,"tags":{"addr:city":"Virgin","addr:housenumber":"551","addr:postcode":"84779","addr:street":"E State Route 9","check_date":"2024-06-04","fee":"yes","internet_access":"wlan","internet_access:fee":"customers","name":"Zion River Resort RV Park","phone":"+18888228594","power_supply":"yes","reservation":"yes","sanitary_dump_station":"yes","website":"https://www.zionriverresort.com/camping/"}},"428272104":{"location":[37.3733189,-112.9834316],"ct":"US","tp":"CS","ts":"2023-11-25T17:33:28Z","tX":190,"tY":397,"tags":{"access":"private","name":"Kolob Deer Haven Camp","operator":"LDS Church"}},"428272105":{"location":[37.4084166,-113.0006178],"ct":"US","tp":"CS","ts":"2020-01-14T16:50:02Z","tX":190,"tY":397,"tags":{"access":"private","name":"Kolob Spring Creek Camp","operator":"LDS Church"}},"428273276":{"location":[37.4233782,-112.9852494],"ct":"US","tp":"CS","ts":"2020-01-14T16:51:36Z","tX":190,"tY":397,"tags":{"access":"private","name":"Oak Valley Camp","operator":"LDS Church"}},"524270563":{"location":[37.2031099,-112.9841627],"ct":"US","tp":"CS","ts":"2023-08-19T14:42:13Z","tX":190,"tY":397,"tags":{"area":"yes","fee":"yes","name":"South Campground","operator":"National Park Service","operator:short":"NPS","operator:type":"public","operator:wikidata":"Q308439","operator:wikipedia":"en:National Park Service","website":"https://www.nps.gov/zion/planyourvisit/south-campground.htm"}},"1193038640":{"location":[37.3838834,-113.0329589],"ct":"US","tp":"CS","ts":"2024-08-07T02:06:07Z","tX":190,"tY":397,"tags":{"caravans":"yes","drinking_water":"no","name":"Lava Point Campground","operator":"Zion National Park","operator:wikidata":"Q205325","shower":"no","tents":"yes","toilets":"yes","website":"https://www.nps.gov/zion/planyourvisit/lava-point-campground.htm"}},"1296218071":{"location":[37.311032,-113.1092579],"ct":"US","tp":"CS","ts":"2024-06-26T03:14:44Z","tX":190,"tY":397,"tags":{"access":"yes","backcountry":"yes","caravans":"no","drinking_water":"no","fee":"no","name":"Lambs Knoll Campground","reservation":"no","shower":"no"}},"1503591724":{"location":[37.4155268,-113.154758],"ct":"US","tp":"CS","ts":"2022-01-31T02:31:47Z","tX":190,"tY":397,"tags":{"access":"permit","backcountry":"yes","camp_site":"basic","capacity:persons":"2","fee":"yes","name":"Campsite 7 - Oak Point Camp","operator":"Zion National Park","reservation":"no","website":"https://www.nps.gov/zion/planyourvisit/backpackinginfo.htm"}},"1503591736":{"location":[37.4068586,-113.197633],"ct":"US","tp":"CS","ts":"2022-01-31T02:31:47Z","tX":190,"tY":397,"tags":{"access":"permit","backcountry":"yes","camp_site":"basic","capacity:persons":"6","fee":"yes","name":"Campsite 3 - Dry Camp","operator":"Zion National Park","reservation":"no","website":"https://www.nps.gov/zion/planyourvisit/backpackinginfo.htm"}},"1503591774":{"location":[37.4154664,-113.152143],"ct":"US","tp":"CS","ts":"2022-01-31T01:55:07Z","tX":190,"tY":397,"tags":{"access":"permit","backcountry":"yes","camp_site":"basic","capacity:persons":"12","fee":"yes","name":"Campsite 8 - Flat Rock Camp","operator":"Zion National Park","reservation":"required","website":"https://www.nps.gov/zion/planyourvisit/backpackinginfo.htm"}},"1503591787":{"location":[37.4076295,-113.175934],"ct":"US","tp":"CS","ts":"2022-01-31T01:55:07Z","tX":190,"tY":397,"tags":{"access":"permit","backcountry":"yes","camp_site":"basic","capacity:persons":"7","fee":"yes","name":"Campsite 4 - Juniper Camp","operator":"Zion National Park","reservation":"required","website":"https://www.nps.gov/zion/planyourvisit/backpackinginfo.htm"}},"1503591840":{"location":[37.4105999,-113.1700863],"ct":"US","tp":"CS","ts":"2023-08-18T06:41:03Z","tX":190,"tY":397,"tags":{"access":"permit","backcountry":"yes","camp_site":"basic","capacity:persons":"4","fee":"yes","name":"Campsite 5 - Neagle Camp","operator":"Zion National Park","reservation":"required","website":"https://www.nps.gov/zion/planyourvisit/backpackinginfo.htm"}},"1503591841":{"location":[37.4213041,-113.195195],"ct":"US","tp":"CS","ts":"2022-01-31T02:31:47Z","tX":190,"tY":397,"tags":{"backcountry":"yes","camp_site":"basic","capacity:persons":"4","fee":"yes","name":"Campsite 1 - Deer Creek","operator":"Zion National Park","reservation":"no","website":"https://www.nps.gov/zion/planyourvisit/backpackinginfo.htm"}},"1503591858":{"location":[37.4142324,-113.1937719],"ct":"US","tp":"CS","ts":"2022-01-31T01:55:07Z","tX":190,"tY":397,"tags":{"access":"permit","backcountry":"yes","camp_site":"basic","capacity:persons":"4","fee":"yes","name":"Campsite 2 - Ringtail Camp","operator":"Zion National Park","reservation":"required","website":"https://www.nps.gov/zion/planyourvisit/backpackinginfo.htm"}},"2374082108":{"location":[37.2368544,-112.8541163],"ct":"US","tp":"CS","ts":"2024-04-25T18:06:21Z","tX":190,"tY":397,"tags":{"name":"High Road Campground"}},"2422613068":{"location":[37.188136,-113.1416646],"ct":"US","tp":"CS","ts":"2020-04-27T15:32:55Z","tX":190,"tY":397,"tags":{"description":"BLM free camping SR9 near Zion NP","fee":"no","toilets":"no"}},"3593021106":{"location":[37.2874832,-112.969365],"ct":"US","tp":"CS","ts":"2023-08-18T20:20:12Z","tX":190,"tY":397,"tags":{"backcountry":"yes","name":"Campsite 1","reservation":"no","website":"https://www.nps.gov/zion/planyourvisit/backpackinginfo.htm"}},"3986395298":{"location":[37.197763,-112.986948],"ct":"US","tp":"SD","ts":"2016-02-03T16:00:04Z","tX":190,"tY":397,"tags":{}},"4206083902":{"location":[37.2857814,-112.983956],"ct":"US","tp":"CS","ts":"2023-08-18T20:20:12Z","tX":190,"tY":397,"tags":{"access":"permit","backcountry":"yes","camp_site":"basic","name":"Campsite 4","operator":"Zion National Park","reservation":"required","website":"https://www.nps.gov/zion/planyourvisit/backpackinginfo.htm"}},"4487993591":{"location":[37.284966,-112.982348],"ct":"US","tp":"CS","ts":"2023-08-18T20:20:12Z","tX":190,"tY":397,"tags":{"access":"permit","backcountry":"yes","camp_site":"basic","name":"Campsite 3","name:en":"Campsite 3","operator":"Zion National Park","reservation":"no","website":"https://www.nps.gov/zion/planyourvisit/backpackinginfo.htm"}},"4858295722":{"location":[37.4148646,-113.151709],"ct":"US","tp":"CS","ts":"2022-01-31T02:31:47Z","tX":190,"tY":397,"tags":{"access":"permit","backcountry":"yes","camp_site":"basic","capacity:persons":"12","fee":"yes","name":"Campsite 9 - Cross Creek West Camp","operator":"Zion National Park","reservation":"no","website":"https://www.nps.gov/zion/planyourvisit/backpackinginfo.htm"}},"4858295724":{"location":[37.4201743,-113.139916],"ct":"US","tp":"CS","ts":"2022-01-31T01:55:07Z","tX":190,"tY":397,"tags":{"access":"permit","backcountry":"yes","camp_site":"basic","capacity:persons":"8","fee":"yes","name":"Campsite 12 - Cottonwood Camp","operator":"Zion National Park","reservation":"required","website":"https://www.nps.gov/zion/planyourvisit/backpackinginfo.htm"}},"4858295725":{"location":[37.4172176,-113.143191],"ct":"US","tp":"CS","ts":"2022-01-31T01:55:07Z","tX":190,"tY":397,"tags":{"access":"permit","backcountry":"yes","camp_site":"basic","capacity:persons":"4","fee":"yes","name":"Campsite 11 - Cougar Camp","name:en":"Campsite 11","operator":"Zion National Park","reservation":"required","website":"https://www.nps.gov/zion/planyourvisit/backpackinginfo.htm"}},"4858402321":{"location":[37.4164251,-113.1496398],"ct":"US","tp":"CS","ts":"2023-08-18T06:41:03Z","tX":190,"tY":397,"tags":{"access":"permit","backcountry":"yes","camp_site":"basic","capacity:persons":"2","fee":"yes","name":"Campsite 10 - Bird Camp","operator":"Zion National Park","reservation":"no","website":"https://www.nps.gov/zion/planyourvisit/backpackinginfo.htm"}},"5093450269":{"location":[37.2863549,-112.9687743],"ct":"US","tp":"CS","ts":"2023-08-18T20:20:12Z","tX":190,"tY":397,"tags":{"access":"permit","backcountry":"yes","camp_site":"basic","name":"Campsite 2","operator":"Zion National Park","reservation":"required","website":"https://www.nps.gov/zion/planyourvisit/backpackinginfo.htm"}},"5213150039":{"location":[37.3707006,-113.0171945],"ct":"US","tp":"CS","ts":"2023-08-18T19:31:56Z","tX":190,"tY":397,"tags":{"access":"permit","backcountry":"yes","camp_site":"basic","name":"Campsite 9","operator":"Zion National Park","reservation":"no","website":"https://www.nps.gov/zion/planyourvisit/backpackinginfo.htm"}},"5213150049":{"location":[37.3212885,-112.986939],"ct":"US","tp":"CS","ts":"2022-01-31T02:59:20Z","tX":190,"tY":397,"tags":{"access":"permit","backcountry":"yes","camp_site":"basic","name":"Campsite 8","operator":"Zion National Park","reservation":"required","website":"https://www.nps.gov/zion/planyourvisit/backpackinginfo.htm"}},"5213150065":{"location":[37.3203436,-112.9908461],"ct":"US","tp":"CS","ts":"2023-08-18T19:50:48Z","tX":190,"tY":397,"tags":{"access":"permit","backcountry":"yes","camp_site":"basic","name":"Campsite 7","operator":"Zion National Park","reservation":"no","website":"https://www.nps.gov/zion/planyourvisit/backpackinginfo.htm"}},"5213150068":{"location":[37.3045062,-112.9880438],"ct":"US","tp":"CS","ts":"2023-08-18T20:20:12Z","tX":190,"tY":397,"tags":{"access":"permit","backcountry":"yes","camp_site":"basic","name":"Campsite 6","operator":"Zion National Park","reservation":"required","website":"https://www.nps.gov/zion/planyourvisit/backpackinginfo.htm"}},"5213150071":{"location":[37.2905144,-112.987176],"ct":"US","tp":"CS","ts":"2023-08-18T20:20:12Z","tX":190,"tY":397,"tags":{"access":"permit","backcountry":"yes","camp_site":"basic","name":"Campsite 5","operator":"Zion National Park","reservation":"no","website":"https://www.nps.gov/zion/planyourvisit/backpackinginfo.htm"}},"5584675041":{"location":[37.4106267,-113.1675551],"ct":"US","tp":"CS","ts":"2023-08-18T06:25:14Z","tX":190,"tY":397,"tags":{"access":"permit","backcountry":"yes","camp_site":"basic","capacity:persons":"4","fee":"yes","name":"Campsite 6 - Dipper Camp","operator":"Zion National Park","reservation":"no","website":"https://www.nps.gov/zion/planyourvisit/backpackinginfo.htm"}},"5755059433":{"location":[37.2113184,-113.1728452],"ct":"US","tp":"CS","ts":"2018-07-12T01:47:45Z","tX":190,"tY":397,"tags":{"fee":"no","internet_access":"no","name":"BLM Campground"}},"6502581526":{"location":[37.2059901,-113.055735],"ct":"US","tp":"CS","ts":"2022-01-31T02:51:33Z","tX":190,"tY":397,"tags":{"access":"permit","backcountry":"yes","camp_site":"basic","capacity:persons":"6","fee":"yes","name":"Campsite 1 - West Temple Veiw Camp","operator":"Zion National Park","reservation":"no","website":"https://www.nps.gov/zion/planyourvisit/backpackinginfo.htm"}},"6502581527":{"location":[37.2034963,-113.067641],"ct":"US","tp":"CS","ts":"2022-01-31T02:51:33Z","tX":190,"tY":397,"tags":{"access":"permit","backcountry":"yes","camp_site":"basic","capacity:persons":"6","fee":"yes","name":"Campsite 3 - Sandy Camp","operator":"Zion National Park","reservation":"no","website":"https://www.nps.gov/zion/planyourvisit/backpackinginfo.htm"}},"6502581557":{"location":[37.2157887,-113.0779212],"ct":"US","tp":"CS","ts":"2022-03-23T18:11:36Z","tX":190,"tY":397,"tags":{"access":"permit","backcountry":"yes","camp_site":"basic","capacity:persons":"6","fee":"yes","name":"Campsite 5 - Lava Rock Camp","operator":"Zion National Park","reservation":"required","website":"https://www.nps.gov/zion/planyourvisit/backpackinginfo.htm"}},"6502581558":{"location":[37.2131357,-113.078058],"ct":"US","tp":"CS","ts":"2022-01-31T02:51:33Z","tX":190,"tY":397,"tags":{"access":"permit","backcountry":"yes","camp_site":"basic","capacity:persons":"6","fee":"yes","name":"Campsite 4 - Spring Camp","operator":"Zion National Park","reservation":"no","website":"https://www.nps.gov/zion/planyourvisit/backpackinginfo.htm"}},"8149822589":{"location":[37.2199256,-113.1621221],"ct":"US","tp":"CS","ts":"2020-11-21T21:27:06Z","tX":190,"tY":397,"tags":{"description":"Free, primitive, dispersed camping area on public BLM land.","name":"BLM Dispersed Camping"}},"9109297398":{"location":[37.3591247,-112.951558],"ct":"US","tp":"CS","ts":"2023-08-06T21:59:43Z","tX":190,"tY":397,"tags":{"access":"permit","backcountry":"yes","capacity:persons":"4","fee":"yes","name":"Campsite 1 - Deep Creek","note":"At the confluence of Deep Creek. The site is located on the left side of the river. This site has a maximum group size of 4 and is available for reservations online or on a walk-up basis.","operator":"Zion National Park","reservation":"required","website":"https://www.nps.gov/zion/planyourvisit/backpackinginfo.htm"}},"9109297399":{"location":[37.3577169,-112.951946],"ct":"US","tp":"CS","ts":"2023-08-06T21:59:43Z","tX":190,"tY":397,"tags":{"access":"permit","backcountry":"yes","capacity:persons":"4","fee":"yes","name":"Campsite 2 - River Bend","note":"A 10-15 minute walk beyond Deep Creek, River Bend is located on the right side of the point of a sharp bench 10 feet above the river. This site has a maximum group size of 4 and is available for walk-up permit only.","operator":"Zion National Park","reservation":"no","website":"https://www.nps.gov/zion/planyourvisit/backpackinginfo.htm"}},"9109297400":{"location":[37.3547891,-112.951686],"ct":"US","tp":"CS","ts":"2023-08-06T21:59:43Z","tX":190,"tY":397,"tags":{"access":"permit","backcountry":"yes","capacity:persons":"6","fee":"yes","name":"Campsite 3 - Right Bench","note":"A 10-15 minute walk beyond Deep Creek, River Bend is located on the right side of the point of a sharp bench 10 feet above the river. This site has a maximum group size of 4 and is available for walk-up permit only.","operator":"Zion National Park","reservation":"required","website":"https://www.nps.gov/zion/planyourvisit/backpackinginfo.htm"}},"9109297401":{"location":[37.3516865,-112.949057],"ct":"US","tp":"CS","ts":"2023-08-06T21:59:43Z","tX":190,"tY":397,"tags":{"access":"permit","backcountry":"yes","capacity:persons":"2","fee":"yes","name":"Campsite 4 - Flat Rock","note":"Flat Rock is a 5-10 minute walk beyond Right Bench, located beside a large flat rock next to the river. The site is next to the rock, on a 6 foot high bench next to the canyon wall. This site has a maximum group size of 2 and is available for walk-up perm","operator":"Zion National Park","reservation":"no","website":"https://www.nps.gov/zion/planyourvisit/backpackinginfo.htm"}},"9109297402":{"location":[37.3503685,-112.9492],"ct":"US","tp":"CS","ts":"2023-08-06T21:59:43Z","tX":190,"tY":397,"tags":{"access":"permit","backcountry":"yes","capacity:persons":"6","fee":"yes","name":"Campsite 5 - Ringtail","note":"Flat Rock is a 5-10 minute walk beyond Right Bench, located beside a large flat rock next to the river. The site is next to the rock, on a 6 foot high bench next to the canyon wall. This site has a maximum group size of 2 and is available for walk-up perm","operator":"Zion National Park","reservation":"required","website":"https://www.nps.gov/zion/planyourvisit/backpackinginfo.htm"}},"9109297403":{"location":[37.3490981,-112.950437],"ct":"US","tp":"CS","ts":"2023-08-06T21:59:43Z","tX":190,"tY":397,"tags":{"access":"permit","backcountry":"yes","capacity:persons":"12","fee":"yes","name":"Campsite 6 - Kolob Creek","note":"At the confluence of Kolob Creek. The site is located on the right side, 20 feet above the river on a bench. This site has a maximum group size of 12 and is available for walk-up permit only.","operator":"Zion National Park","reservation":"no","website":"https://www.nps.gov/zion/planyourvisit/backpackinginfo.htm"}},"9109297404":{"location":[37.3452796,-112.950661],"ct":"US","tp":"CS","ts":"2023-08-06T21:59:43Z","tX":190,"tY":397,"tags":{"access":"permit","backcountry":"yes","capacity:persons":"6","fee":"yes","name":"Campsite 7 - Box Elder","note":"A 10 minute walk beyond Kolob Creek. This site is located on the left about 30 feet up on a bench. This site has a maximum group size of 6 and is available for reservations online or on a walk-up basis.","operator":"Zion National Park","reservation":"required","website":"https://www.nps.gov/zion/planyourvisit/backpackinginfo.htm"}},"9109297405":{"location":[37.3448007,-112.950664],"ct":"US","tp":"CS","ts":"2023-08-06T21:59:43Z","tX":190,"tY":397,"tags":{"access":"permit","backcountry":"yes","capacity:persons":"6","fee":"yes","name":"Campsite 8 - Boulder Camp","note":"Across the river from Box Elder, a 10 minute walk beyond Kolob Creek around a sharp bend. The access trail is to the right up slope about 50 feet. This site has a maximum group size of 6 and is available for walk-up permit only.","operator":"Zion National Park","reservation":"no","website":"https://www.nps.gov/zion/planyourvisit/backpackinginfo.htm"}},"9109297406":{"location":[37.3400805,-112.954712],"ct":"US","tp":"CS","ts":"2023-08-06T21:59:43Z","tX":190,"tY":397,"tags":{"access":"permit","backcountry":"yes","capacity:persons":"6","fee":"yes","name":"Campsite 9 - Left Bench","note":"Across the river from Box Elder, a 10 minute walk beyond Kolob Creek around a sharp bend. The access trail is to the right up slope about 50 feet. This site has a maximum group size of 6 and is available for walk-up permit only.","operator":"Zion National Park","reservation":"required","website":"https://www.nps.gov/zion/planyourvisit/backpackinginfo.htm"}},"9109297407":{"location":[37.3386127,-112.957419],"ct":"US","tp":"CS","ts":"2023-08-06T21:59:43Z","tX":190,"tY":397,"tags":{"access":"permit","backcountry":"yes","capacity:persons":"6","fee":"yes","name":"Campsite 10 - West Bend","note":"A 5 minute hike from Left Bench. This site is on a high bank located on a western bend. This site has a maximum group size of 6 and is available for walk-up permit only.","operator":"Zion National Park","reservation":"no","website":"https://www.nps.gov/zion/planyourvisit/backpackinginfo.htm"}},"9109297408":{"location":[37.3333242,-112.955457],"ct":"US","tp":"CS","ts":"2023-08-06T21:59:43Z","tX":190,"tY":397,"tags":{"access":"permit","backcountry":"yes","capacity:persons":"4","fee":"yes","name":"Campsite 11 - Spotted Owl","note":"This sunny site is located on the left side, immediately after the first stream crossing. It is up a slope 10 feet above the river. This site has a maximum group size of 4 and is available for walk-up permit only.","operator":"Zion National Park","reservation":"no","website":"https://www.nps.gov/zion/planyourvisit/backpackinginfo.htm"}},"9109297409":{"location":[37.3320617,-112.957175],"ct":"US","tp":"CS","ts":"2023-08-06T21:59:43Z","tX":190,"tY":397,"tags":{"access":"permit","backcountry":"yes","capacity:persons":"12","fee":"yes","name":"Campsite 12 - High Camp","note":"High Camp is a 15-20 minute walk beyond Spotted Owl on a slow, difficult section of the river, 300 yards before Big Spring. The site is on the left side of the river on a 25 foot high bench in a stand of maple and Douglas-fir. It can be easy to miss. This","operator":"Zion National Park","reservation":"required","website":"https://www.nps.gov/zion/planyourvisit/backpackinginfo.htm"}},"9461901123":{"location":[37.431037,-113.126551],"ct":"US","tp":"CS","ts":"2022-01-31T02:31:47Z","tX":190,"tY":397,"tags":{"access":"permit","backcountry":"yes","camp_site":"basic","capacity:persons":"4","fee":"yes","name":"Campsite 13 - Bear Camp","operator":"Zion National Park","reservation":"no","website":"https://www.nps.gov/zion/planyourvisit/backpackinginfo.htm"}},"9461924567":{"location":[37.4041311,-113.1399747],"ct":"US","tp":"CS","ts":"2022-01-31T03:07:32Z","tX":190,"tY":397,"tags":{"access":"permit","backcountry":"yes","camp_site":"basic","capacity:persons":"12","capacity:stock":"6","fee":"yes","name":"Hop Valley Campsite A - Horse Camp","operator":"Zion National Park","reservation":"required","website":"https://www.nps.gov/zion/planyourvisit/hop-valley-trail.htm"}},"9461924568":{"location":[37.4021281,-113.1369732],"ct":"US","tp":"CS","ts":"2023-08-18T05:25:55Z","tX":190,"tY":397,"tags":{"access":"permit","backcountry":"yes","camp_site":"basic","capacity:persons":"7","fee":"yes","name":"Hop Valley Campsite B - Boundary Camp","operator":"Zion National Park","reservation":"no","website":"https://www.nps.gov/zion/planyourvisit/hop-valley-trail.htm"}},"9461939633":{"location":[37.2105925,-113.0553661],"ct":"US","tp":"CS","ts":"2022-01-31T02:51:33Z","tX":190,"tY":397,"tags":{"access":"permit","backcountry":"yes","camp_site":"basic","capacity:persons":"6","fee":"yes","name":"Campsite 2 - Slickrock Camp","operator":"Zion National Park","reservation":"required","website":"https://www.nps.gov/zion/planyourvisit/backpackinginfo.htm"}},"9461939634":{"location":[37.1938259,-113.0767435],"ct":"US","tp":"CS","ts":"2022-01-31T02:51:33Z","tX":190,"tY":397,"tags":{"access":"permit","backcountry":"yes","camp_site":"basic","capacity:persons":"12","fee":"yes","name":"Campsite 6 - Coalpits Wash Camp","operator":"Zion National Park","reservation":"required","website":"https://www.nps.gov/zion/planyourvisit/backpackinginfo.htm"}},"10582570517":{"location":[37.2705571,-112.8737162],"ct":"US","tp":"CR","ts":"2023-01-25T20:44:20Z","tX":190,"tY":397,"tags":{"name":"RV Site 13"}},"10582570523":{"location":[37.2706515,-112.873343],"ct":"US","tp":"CR","ts":"2023-01-25T20:44:20Z","tX":190,"tY":397,"tags":{"name":"RV Site 8"}},"10582570546":{"location":[37.2707782,-112.873545],"ct":"US","tp":"CR","ts":"2023-01-25T20:44:20Z","tX":190,"tY":397,"tags":{"name":"RV Site 10"}},"10582570554":{"location":[37.2704867,-112.873391],"ct":"US","tp":"CR","ts":"2023-01-25T20:44:20Z","tX":190,"tY":397,"tags":{"name":"RV Site 7"}},"10582570561":{"location":[37.2706022,-112.873207],"ct":"US","tp":"CR","ts":"2023-01-25T20:44:20Z","tX":190,"tY":397,"tags":{"name":"RV Site 5"}},"10582570562":{"location":[37.2706923,-112.872899],"ct":"US","tp":"CR","ts":"2023-01-25T20:44:20Z","tX":190,"tY":397,"tags":{"name":"RV Site 4"}},"10582570564":{"location":[37.2705642,-112.872872],"ct":"US","tp":"CR","ts":"2023-01-25T20:44:20Z","tX":190,"tY":397,"tags":{"name":"RV Site 3"}},"10582570566":{"location":[37.2704572,-112.872846],"ct":"US","tp":"CR","ts":"2023-01-25T20:44:20Z","tX":190,"tY":397,"tags":{"name":"RV Site 2"}},"10582570567":{"location":[37.2703966,-112.872885],"ct":"US","tp":"CR","ts":"2023-01-25T20:44:20Z","tX":190,"tY":397,"tags":{"name":"RV Site 1"}},"10582570571":{"location":[37.2710364,-112.873494],"ct":"US","tp":"CR","ts":"2023-01-25T20:44:20Z","tX":190,"tY":397,"tags":{"name":"RV Site 9"}},"10582606076":{"location":[37.2705407,-112.8731674],"ct":"US","tp":"CR","ts":"2023-01-25T20:44:20Z","tX":190,"tY":397,"tags":{"name":"RV Site 6"}},"10582606077":{"location":[37.2707036,-112.8736115],"ct":"US","tp":"CR","ts":"2023-01-25T20:44:20Z","tX":190,"tY":397,"tags":{"name":"RV Site 11"}},"10582606078":{"location":[37.2706275,-112.8736729],"ct":"US","tp":"CR","ts":"2023-01-25T20:44:20Z","tX":190,"tY":397,"tags":{"name":"RV Site 12"}},"6506684539":{"location":[37.204021,-112.9837049],"ct":"US","tp":"SD","ts":"2023-08-19T14:42:13Z","tX":190,"tY":397,"tags":{}}}