{"238274025":{"location":[-23.443061,144.2664286],"ct":"AU","tp":"CR","ts":"2023-02-03T04:53:19Z","tX":922,"tY":580,"tags":{"addr:housenumber":"12","addr:street":"Thrush Road","email":"info@longreachtouristpark.com.au","name":"Longreach Tourist Park","phone":"+61 7 4658 2667","power_supply":"yes"}},"400750548":{"location":[-23.4460592,144.2422052],"ct":"AU","tp":"CR","ts":"2022-12-03T13:43:52Z","tX":922,"tY":580,"tags":{"name":"Longreach Caravan Park","source:geometry":"Bing"}},"968365971":{"location":[-23.4402102,144.2489836],"ct":"AU","tp":"PK","ts":"2021-07-29T05:44:08Z","tX":922,"tY":580,"tags":{"bin":"yes","capacity":"10","caravans":"yes","name":"Caravan Daytime Parking","operator":"Longreach Regional Council","operator:type":"government","parking":"surface","surface":"asphalt"}},"998728741":{"location":[-23.409813,144.2291221],"ct":"AU","tp":"CS","ts":"2021-11-03T11:48:23Z","tX":922,"tY":580,"tags":{"group_only":"yes","name":"Apex Park Bush Camp"}},"1119168542":{"location":[-23.4363353,144.2493925],"ct":"AU","tp":"CS","ts":"2022-12-03T13:43:52Z","tX":922,"tY":580,"tags":{"area":"yes","landuse":"recreation_ground","name":"Longreach Showgrounds","recreation_ground":"showground"}},"1811183700":{"location":[-23.4106926,144.2295002],"ct":"AU","tp":"CS","ts":"2021-04-16T22:19:09Z","tX":922,"tY":580,"tags":{"charge":"$8/v/n","fee":"yes","name":"Apex Park Riverside Buish Camp - Longreach Waterhole","operator":"Longreach Regional Council","payment:cash":"yes"}},"1984157208":{"location":[-23.4458066,144.2422103],"ct":"AU","tp":"CR","ts":"2023-02-03T04:51:08Z","tX":922,"tY":580,"tags":{"addr:housenumber":"176","addr:street":"Ibis Street","name":"Longreach Caravan Park","phone":"+61 7 4658 1770","power_supply":"yes"}},"8636663371":{"location":[-23.4102553,144.230064],"ct":"AU","tp":"CS","ts":"2024-08-24T08:00:15Z","tX":922,"tY":580,"tags":{"charge":"$8/v/n","fee":"yes","name":"Apex Park Riverside Buish Camp - Overflow Only","operator":"Longview Regional Council","payment:cash":"yes"}}}