{"316598439":{"location":[-37.1708082,144.2384689],"ct":"AU","tp":"CS","ts":"2011-10-05T07:01:09Z","tX":922,"tY":626,"tags":{"name":"Warburton Bridge Reserve"}},"316598484":{"location":[-37.4351079,144.410003],"ct":"AU","tp":"CS","ts":"2011-10-05T06:45:35Z","tX":922,"tY":626,"tags":{"name":"Firth Park Campground - Wombat SF"}},"1238258093":{"location":[-37.366724,144.1502001],"ct":"AU","tp":"CR","ts":"2024-01-09T08:18:41Z","tX":922,"tY":626,"tags":{"name":"Jubilee Lake Holiday Park"}},"1343335685":{"location":[-37.2459988,144.3687068],"ct":"AU","tp":"CS","ts":"2024-12-18T04:51:53Z","tX":922,"tY":626,"tags":{"access":"customers","addr:housenumber":"69","addr:postcode":"3444","addr:state":"VIC","addr:street":"Shepherds Hill Road","addr:suburb":"Lauriston","capacity:persons":"0","group_only":"yes","name":"Noonameena Scout Camp","operator":"Scouts Victoria","static_caravans":"no","tents":"yes"}},"1455710447":{"location":[-37.2648651,144.1507105],"ct":"AU","tp":"CS","ts":"2013-04-28T01:47:57Z","tX":922,"tY":626,"tags":{"name":"Mount Franklin Reserve Campground - Hepburn Regional Park"}},"3008570189":{"location":[-37.4391373,144.3286216],"ct":"AU","tp":"CS","ts":"2014-08-10T12:50:33Z","tX":922,"tY":626,"tags":{}},"3365555445":{"location":[-37.2456836,144.3687932],"ct":"AU","tp":"CS","ts":"2025-03-04T08:38:40Z","tX":922,"tY":626,"tags":{"addr:housenumber":"69","addr:postcode":"3444","addr:street":"Shepherds Hill Road","addr:suburb":"Lauriston","name":"Noonameena Scout Camp"}},"3414165716":{"location":[-37.3895529,144.1742718],"ct":"AU","tp":"CS","ts":"2015-03-23T11:51:11Z","tX":922,"tY":626,"tags":{}}}