{"26158672":{"location":[-36.8334146,143.8862888],"ct":"AU","tp":"CR","ts":"2021-07-08T06:07:58Z","tX":921,"tY":624,"tags":{"name":"Laanecoorie Lakeside Park","website":"www.laanecoorie.com.au"}},"44398727":{"location":[-36.606402,143.9362656],"ct":"AU","tp":"CR","ts":"2023-11-13T10:33:21Z","tX":921,"tY":624,"tags":{"addr:city":"Bridgewater","addr:housenumber":"9","addr:postcode":"3516","addr:street":"Park Street","name":"Bridgewater on Loddon Tourist Park","phone":"+61 3 9998 4146"}},"166803309":{"location":[-36.8169503,143.8010954],"ct":"AU","tp":"CS","ts":"2015-04-20T09:08:15Z","tX":921,"tY":624,"tags":{"name":"Waanyarra Recreation Site"}},"225913224":{"location":[-36.8252374,143.8993307],"ct":"AU","tp":"CR","ts":"2021-03-12T05:14:26Z","tX":921,"tY":624,"tags":{"name":"Laanecoorie River Reserve Camping Area"}},"230286227":{"location":[-36.7328382,144.1279],"ct":"AU","tp":"CR","ts":"2024-12-04T01:58:15Z","tX":921,"tY":624,"tags":{"addr:city":"Marong","addr:housenumber":"1449","addr:postcode":"3515","addr:street":"Calder Highway","brand":"Big4","fee":"yes","name":"Bendigo Marong Caravan Park","phone":"+61 3 5435 2329","source":"survey","website":"https://www.big4.com.au/caravan-parks/vic/goldfields/big4-bendigo-marong-holiday-park"}},"316598725":{"location":[-36.7393866,143.9024157],"ct":"AU","tp":"CS","ts":"2011-11-01T23:52:18Z","tX":921,"tY":624,"tags":{"name":"Newbridge Recreation Reserve"}},"1808391875":{"location":[-36.63583,143.83556],"ct":"AU","tp":"CS","ts":"2012-07-01T04:20:41Z","tX":921,"tY":624,"tags":{"name":"Hoopers Bridge (tallaroop Creek)"}},"1808391924":{"location":[-36.82556,143.89861],"ct":"AU","tp":"CS","ts":"2012-07-01T04:20:46Z","tX":921,"tY":624,"tags":{"name":"Laanecoorie River Reserve"}},"1808393825":{"location":[-36.73778,144.1325],"ct":"AU","tp":"CS","ts":"2012-07-01T04:28:59Z","tX":921,"tY":624,"tags":{"name":"Malone Park"}},"9791514254":{"location":[-36.7753944,143.8272679],"ct":"AU","tp":"CS","ts":"2022-06-03T01:50:17Z","tX":921,"tY":624,"tags":{"fee":"yes","shower":"yes","toilets":"yes","website":"https://www.loddon.vic.gov.au/For-residents/Business-Directory/Tarnagulla-Recreation-Reserve-Camping"}}}