{"506954984":{"location":[48.2037119,-116.5635721],"ct":"US","tp":"CR","ts":"2023-08-08T01:33:01Z","tX":180,"tY":355,"tags":{"name":"Alpine Park"}},"1209793344":{"location":[48.2030719,-116.5694699],"ct":"US","tp":"CR","ts":"2023-09-21T16:11:26Z","tX":180,"tY":355,"tags":{"name":"Travel America Park"}},"1296755331":{"location":[48.0616194,-116.6390844],"ct":"US","tp":"CR","ts":"2024-06-28T00:50:28Z","tX":180,"tY":355,"tags":{"name":"Hidden Meadow RV Senior Park"}},"1799737092":{"location":[48.1766184,-116.4056709],"ct":"US","tp":"CS","ts":"2012-06-23T19:21:37Z","tX":180,"tY":355,"tags":{"name":"Green Bay Campground"}},"5788642553":{"location":[48.0510102,-116.454476],"ct":"US","tp":"CS","ts":"2023-01-01T15:45:37Z","tX":180,"tY":355,"tags":{"addr:postcode":"83803","name":"Whiskey Rock Bay Campground","phone":"+1-208-263-5111"}},"5362541921":{"location":[48.1649666,-116.6368553],"ct":"US","tp":"CR","ts":"2024-03-28T16:25:27Z","tX":180,"tY":355,"tags":{"addr:city":"Sagle","addr:housenumber":"1880","addr:postcode":"83860","addr:state":"ID","addr:street":"Dufort Road","capacity:caravans":"51","caravans":"yes","fee":"yes","maxlength":"7.32","name":"Round Lake State Park Campground","operator":"Idaho Department of Parks and Recreation","power_supply":"yes","sanitary_dump_station":"yes","shower":"yes","tents":"yes","toilets":"yes","water_point":"unknown","website":"https://parksandrecreation.idaho.gov/parks/round-lake"}}}