{"80105954":{"location":[35.0391877,-116.3829127],"ct":"US","tp":"CS","ts":"2024-07-22T03:32:47Z","tX":180,"tY":405,"tags":{"addr:housenumber":"2601","addr:street":"Mojave Road","charge":"6 USD","description":"Afton Canyon is one of few places where the Mojave River flows above ground making Afton an ideal location for bird and wildlife viewing. The area is ideal for hiking, hunting, camping, nature study, rock hounding, horseback riding, and vehicle touring.","email":"BLM_CA_Web_BA@blm.gov","fee":"yes","name":"Afton Canyon campground","operator":"Bureau of Land Management","source":"https://www.blm.gov/sites/blm.gov/files/documents/files/Rasor_Mobile_Final.pdf","website":"https://www.blm.gov/visit/afton-canyon"}},"806989751":{"location":[34.9493272,-116.5830592],"ct":"US","tp":"CS","ts":"2023-08-07T23:40:01Z","tX":180,"tY":405,"tags":{"addr:city":"Newberry Springs","addr:country":"US","addr:housenumber":"49191","addr:postcode":"92365","addr:state":"CA","addr:street":"Cherokee Road","name":"Ironwood Christian Camp"}},"11099751867":{"location":[35.0404887,-116.3901445],"ct":"US","tp":"CS","ts":"2023-08-08T16:36:39Z","tX":180,"tY":405,"tags":{"fee":"yes","impromptu":"yes","name":"Afton Canyon Campground","operator":"Bureau of Land Management","toilets":"yes","website":"https://www.blm.gov/visit/afton-canyon"}}}