{"347418029":{"location":[34.1285883,-116.7088027],"ct":"US","tp":"CS","ts":"2009-02-18T23:16:57Z","tX":180,"tY":408,"tags":{"created_by":"Potlatch 0.10f"}},"1115305050":{"location":[34.1174883,-116.4558023],"ct":"US","tp":"CR","ts":"2023-12-27T02:57:28Z","tX":180,"tY":408,"tags":{"addr:city":"Yucca Valley","addr:housenumber":"55408","addr:postcode":"92284","addr:state":"CA","addr:street":"29 Palms Highway","name":"Desert Drifter"}},"1295251145":{"location":[34.0736273,-116.3900278],"ct":"US","tp":"CS","ts":"2024-06-23T11:27:36Z","tX":180,"tY":408,"tags":{"access":"yes","capacity:caravans":"99","capacity:tents":"99","caravans":"yes","fee":"yes","name":"Black Rock Campground","operator":"NPS","static_caravans":"no","tents":"yes"}},"9681190195":{"location":[34.1496325,-116.7107164],"ct":"US","tp":"CS","ts":"2022-04-20T21:13:48Z","tX":180,"tY":408,"tags":{"name":"Coon Creek Cabin Group Campground","operator":"USFS"}},"9800509200":{"location":[34.2372132,-116.7089224],"ct":"US","tp":"CS","ts":"2022-06-07T02:30:48Z","tX":180,"tY":408,"tags":{"name":"Round Valley Group Campground","operator":"USFS"}},"12002703460":{"location":[34.0747762,-116.3911142],"ct":"US","tp":"SD","ts":"2024-06-23T11:27:36Z","tX":180,"tY":408,"tags":{}}}