{"38475994":{"location":[33.7486306,-116.7153942],"ct":"US","tp":"CS","ts":"2025-01-01T23:37:59Z","tX":180,"tY":409,"tags":{"addr:city":"Idyllwild","addr:postcode":"92549","addr:state":"CA","addr:street":"State Highway 243","attribution":"CASIL CSP_Opbdys072008","caravans":"yes","coverage:mobile_phone:verizon":"yes","csp:globalid":"{3CA15D72-2AC9-4E54-BBB1-B77794B5DD02}","csp:unitcode":"616","drinking_water":"yes","name":"Mount San Jacinto State Park Idyllwild Campground","operator":"State Dept of Parks and Rec","picnic_table":"yes","shower":"yes","tents":"yes","toilets":"yes","url":"https://www.parks.ca.gov/?page_id=636"}},"329589367":{"location":[33.9448448,-116.5428865],"ct":"US","tp":"CR","ts":"2024-12-10T15:56:13Z","tX":180,"tY":409,"tags":{"addr:city":"Palm Springs","addr:housenumber":"14200","addr:state":"CA","addr:street":"North Indian Canyon Drive","alt_name":"Two Springs R.V. Resort","fee":"yes","name":"Two Springs RV Resort","phone":"+18009748982","source":"Bing","website":"http://www.twospringsrv.com/"}},"406245471":{"location":[33.7495345,-116.7180419],"ct":"US","tp":"CS","ts":"2021-04-19T02:20:12Z","tX":180,"tY":409,"tags":{"access":"private","addr:city":"Idyllwild","addr:postcode":"92549","addr:state":"CA","addr:street":"Maranatha Drive","name":"Camp Maranatha","source:area":"USGS Topo"}},"797101949":{"location":[33.749923,-116.7015821],"ct":"US","tp":"CS","ts":"2021-02-26T01:17:56Z","tX":180,"tY":409,"tags":{"access":"private","addr:postcode":"92549","addr:state":"CA","fee":"yes","name":"Tahquitz Pines","note":"Geometry approximate"}},"880051951":{"location":[33.8049056,-116.6626928],"ct":"US","tp":"CS","ts":"2010-08-26T04:12:32Z","tX":180,"tY":409,"tags":{"name":"Round Valley Campground","source":"USGS Topo"}},"880052468":{"location":[33.8094782,-116.6605474],"ct":"US","tp":"CS","ts":"2017-07-03T03:45:54Z","tX":180,"tY":409,"tags":{"name":"Tamarack Valley Campground","source":"USGS Topo"}},"880807521":{"location":[33.7803978,-116.6447],"ct":"US","tp":"CS","ts":"2025-04-03T04:35:18Z","tX":180,"tY":409,"tags":{"name":"Laws Camp","source":"USGS Topo"}},"1334668574":{"location":[33.9299165,-116.4822239],"ct":"US","tp":"CR","ts":"2024-11-17T09:33:07Z","tX":180,"tY":409,"tags":{"addr:city":"Desert Hot Springs","addr:housenumber":"16400","addr:postcode":"92240","addr:state":"CA","addr:street":"Bubbling Wells Road","caravans":"yes","phone":"+1760-251-1030","tents":"no","website":"https://www.sandsrvgolfresort.com"}},"2628670894":{"location":[33.8080484,-116.5470936],"ct":"US","tp":"CR","ts":"2014-01-19T15:07:55Z","tX":180,"tY":409,"tags":{"name":"Happy Traveller RV Park","website":"http://happytravelerrv.com/"}},"4948028985":{"location":[33.809248,-116.6572668],"ct":"US","tp":"CS","ts":"2020-07-14T01:10:15Z","tX":180,"tY":409,"tags":{"name":"Pyrite"}},"4948029007":{"location":[33.809601,-116.6595154],"ct":"US","tp":"CS","ts":"2020-07-14T01:10:15Z","tX":180,"tY":409,"tags":{"name":"Feldspar"}},"4948038725":{"location":[33.8101891,-116.6605569],"ct":"US","tp":"CS","ts":"2020-07-14T01:10:15Z","tX":180,"tY":409,"tags":{"name":"Pegiarlite"}},"4948038745":{"location":[33.8107584,-116.6637969],"ct":"US","tp":"CS","ts":"2020-07-14T01:10:15Z","tX":180,"tY":409,"tags":{"name":"Diorite"}},"4948038746":{"location":[33.8099971,-116.6634869],"ct":"US","tp":"CS","ts":"2020-07-14T01:10:15Z","tX":180,"tY":409,"tags":{"name":"Andesite"}},"4948038752":{"location":[33.8097973,-116.662423],"ct":"US","tp":"CS","ts":"2020-07-14T01:10:15Z","tX":180,"tY":409,"tags":{"name":"Mica"}},"4948038767":{"location":[33.8074227,-116.656932],"ct":"US","tp":"CS","ts":"2020-07-14T01:10:15Z","tX":180,"tY":409,"tags":{"name":"David Neel"}},"4948038770":{"location":[33.8089479,-116.6589389],"ct":"US","tp":"CS","ts":"2020-07-14T01:10:15Z","tX":180,"tY":409,"tags":{"name":"Irvine"}},"4948038776":{"location":[33.8087815,-116.6568313],"ct":"US","tp":"CS","ts":"2020-07-14T01:10:15Z","tX":180,"tY":409,"tags":{"name":"Mallory"}},"4948038816":{"location":[33.8075039,-116.660885],"ct":"US","tp":"CS","ts":"2020-07-14T01:10:15Z","tX":180,"tY":409,"tags":{"name":"Raven"}},"4948038818":{"location":[33.8066502,-116.6605534],"ct":"US","tp":"CS","ts":"2020-07-14T01:10:15Z","tX":180,"tY":409,"tags":{"name":"Stellar's Jay"}},"4948038822":{"location":[33.8072245,-116.6632153],"ct":"US","tp":"CS","ts":"2020-07-14T01:10:15Z","tX":180,"tY":409,"tags":{"name":"Snowberry"}},"4948038824":{"location":[33.8063476,-116.6633461],"ct":"US","tp":"CS","ts":"2020-07-14T01:10:15Z","tX":180,"tY":409,"tags":{"name":"Upper Mistletoe"}},"4948038846":{"location":[33.8057034,-116.6604624],"ct":"US","tp":"CS","ts":"2020-07-14T01:10:15Z","tX":180,"tY":409,"tags":{"name":"Swallow"}},"4948038848":{"location":[33.8052412,-116.6611518],"ct":"US","tp":"CS","ts":"2020-07-14T01:10:15Z","tX":180,"tY":409,"tags":{"name":"Red Tail"}},"6277662594":{"location":[33.7367783,-116.704463],"ct":"US","tp":"CS","ts":"2022-04-06T16:49:43Z","tX":180,"tY":409,"tags":{"access":"yes","addr:city":"Idyllwild","addr:postcode":"92549","addr:state":"CA","addr:street":"Forest Route 5S11","internet_access":"no","name":"South Ridge Yellow Post #1","operator":"San Bernardino National Forest"}},"7700636486":{"location":[33.7608258,-116.6444013],"ct":"US","tp":"CS","ts":"2025-04-03T04:35:18Z","tX":180,"tY":409,"tags":{"caravans":"no","fee":"no","static_caravans":"no","tents":"yes"}},"7725475785":{"location":[33.7800914,-116.6956516],"ct":"US","tp":"CS","ts":"2020-07-17T21:09:18Z","tX":180,"tY":409,"tags":{}},"7983307661":{"location":[33.8046797,-116.6647145],"ct":"US","tp":"CS","ts":"2020-10-07T03:05:45Z","tX":180,"tY":409,"tags":{"name":"Upper Chinquapin"}},"7983327118":{"location":[33.8116044,-116.6880286],"ct":"US","tp":"CS","ts":"2020-10-07T02:57:56Z","tX":180,"tY":409,"tags":{"access":"permit","name":"Little Round Valley"}},"8240921128":{"location":[33.7829328,-116.7043921],"ct":"US","tp":"CS","ts":"2020-12-18T16:41:43Z","tX":180,"tY":409,"tags":{"backcountry":"yes","name":"Strawberry Junction","reservation":"required"}},"9646146288":{"location":[33.7364683,-116.6997287],"ct":"US","tp":"CS","ts":"2022-04-06T16:49:43Z","tX":180,"tY":409,"tags":{"name":"South Ridge Yellow Post #2","operator":"USFS"}},"9646146289":{"location":[33.7304242,-116.7010832],"ct":"US","tp":"CS","ts":"2022-04-06T16:49:43Z","tX":180,"tY":409,"tags":{"name":"South Ridge Yellow Post #3","operator":"USFS"}},"11034254230":{"location":[33.7494837,-116.7147975],"ct":"US","tp":"CS","ts":"2023-07-08T14:42:33Z","tX":180,"tY":409,"tags":{"fee":"yes","name":"Hike and Bike Campsite","operator":"Mount San Jacinto State Park","tents":"yes"}},"12195370290":{"location":[33.736754,-116.7054563],"ct":"US","tp":"CS","ts":"2024-09-23T19:24:36Z","tX":180,"tY":409,"tags":{"access":"yes","addr:city":"Idyllwild","addr:postcode":"92549","addr:state":"CA","addr:street":"Forest Route 5S11","internet_access":"no","name":"South Ridge Yellow Post","operator":"San Bernardino National Forest"}},"12195395113":{"location":[33.8056956,-116.6637433],"ct":"US","tp":"CS","ts":"2024-09-23T19:26:52Z","tX":180,"tY":409,"tags":{"name":"Gooseberry"}},"4524227484":{"location":[33.773929,-116.4640288],"ct":"US","tp":"CR","ts":"2016-11-27T05:26:59Z","tX":180,"tY":409,"tags":{"addr:street":"H Street","description":"Trailer Park","name":"Sky Ridge"}},"11282526969":{"location":[33.9131311,-116.4401193],"ct":"US","tp":"CR","ts":"2023-10-23T01:32:34Z","tX":180,"tY":409,"tags":{"name":"Catalina Spa RV Park"}}}