{"85416643":{"location":[32.6842866,-116.5192736],"ct":"US","tp":"CS","ts":"2022-11-10T04:24:01Z","tX":180,"tY":413,"tags":{"addr:city":"Campo","addr:housenumber":"2550","addr:postcode":"91906","addr:state":"CA","addr:street":"Lake Morena Drive","area":"yes","caravans":"yes","fee":"yes","name":"Lake Morena County Park Campground","phone":"+1 858-565-3600","tents":"yes","website":"https://www.sdparks.org/content/sdparks/en/park-pages/LakeMorena.html"}},"97036250":{"location":[32.7291046,-116.4833997],"ct":"US","tp":"CS","ts":"2016-08-19T00:04:54Z","tX":180,"tY":413,"tags":{"area":"yes","name":"Boulder Oaks Campground","operator":"USFS"}},"844055642":{"location":[32.6240298,-116.6106954],"ct":"US","tp":"CR","ts":"2020-09-03T19:36:08Z","tX":180,"tY":413,"tags":{"addr:city":"Potrero","addr:housenumber":"25275","addr:postcode":"91963","addr:state":"CA","addr:street":"Potrero Valley Road","name":"Twin Lakes Resorts"}},"1966046287":{"location":[32.7127165,-116.5718602],"ct":"US","tp":"CS","ts":"2013-07-11T22:36:37Z","tX":180,"tY":413,"tags":{"name":"Corral Canyon Campground","operator":"USFS"}},"1966088929":{"location":[32.7109246,-116.5566467],"ct":"US","tp":"CS","ts":"2013-07-11T22:32:38Z","tX":180,"tY":413,"tags":{"name":"Bobcat Meadow Campground","operator":"USFS"}},"1977356213":{"location":[32.612801,-116.5939686],"ct":"US","tp":"CS","ts":"2012-10-22T00:15:33Z","tX":180,"tY":413,"tags":{}},"2263112486":{"location":[32.7771854,-116.4478844],"ct":"US","tp":"CS","ts":"2013-07-11T22:49:02Z","tX":180,"tY":413,"tags":{"name":"Cibbets Flat Campground","operator":"USFS"}},"4677116393":{"location":[32.6071844,-116.5014197],"ct":"US","tp":"CS","ts":"2019-11-16T17:19:40Z","tX":180,"tY":413,"tags":{"backcountry":"yes","name":"Campsite in a dry meadow","name:en":"Campsite in a dry meadow","name:es":"Campamento en un prado seco PCT"}},"4677237590":{"location":[32.8182416,-116.4145307],"ct":"US","tp":"CS","ts":"2019-11-16T23:59:38Z","tX":180,"tY":413,"tags":{"backcountry":"yes"}},"4677239590":{"location":[32.80171,-116.4208917],"ct":"US","tp":"CS","ts":"2017-02-09T21:22:12Z","tX":180,"tY":413,"tags":{"name":"Campsite by large oak tree PCT","name:es":"Campsite by large oak tree PCT"}},"4677274789":{"location":[32.8125437,-116.4208766],"ct":"US","tp":"CS","ts":"2019-11-16T23:59:38Z","tX":180,"tY":413,"tags":{"backcountry":"yes"}},"6966901485":{"location":[32.8134894,-116.4185644],"ct":"US","tp":"CS","ts":"2019-11-16T23:59:38Z","tX":180,"tY":413,"tags":{"backcountry":"yes"}},"6966901785":{"location":[32.7643703,-116.4391707],"ct":"US","tp":"CS","ts":"2019-11-20T04:10:03Z","tX":180,"tY":413,"tags":{}}}