{"7858819836":{"location":[7.6173761,125.4713801],"ct":"PH","tp":"CS","ts":"2022-09-27T15:00:48Z","tX":868,"tY":490,"tags":{"addr:barangay":"Santo Ni√±o","addr:city":"Talaingod","addr:place":"Sitio Milako","addr:postcode":"8107","addr:province":"Davao del Norte","contact:facebook":"https://www.facebook.com/montblancmountainresort","contact:phone":"+63 925 556 6692","name":"Montblanc Mountain Resort"}},"8936952317":{"location":[7.485269,125.2671675],"ct":"PH","tp":"CS","ts":"2021-07-20T23:35:58Z","tX":868,"tY":490,"tags":{}},"12327894703":{"location":[7.4759709,125.283824],"ct":"PH","tp":"CS","ts":"2024-11-10T03:49:25Z","tX":868,"tY":490,"tags":{"name":"Camp Box"}},"12334656254":{"location":[7.4810433,125.2936515],"ct":"PH","tp":"CS","ts":"2024-11-12T14:00:13Z","tX":868,"tY":490,"tags":{"addr:barangay":"Datu Salumay","addr:city":"Davao City","addr:district":"Marilog District","addr:place":"Sitio Bongbong","addr:postcode":"8000","addr:province":"Davao del Sur","contact:facebook":"https://www.facebook.com/profile.php?id=61559823224889","name":"In Thy Clouds"}}}