{"1355647119":{"location":[13.8077703,100.6920128],"ct":"TH","tp":"CS","ts":"2025-01-31T11:37:52Z","tX":798,"tY":472,"tags":{"description":"ค่ายลูกเสือสยามอะเมซิ่งพาร์ค ค่ายลูกเสือชั้นนำของประเทศที่พรั่งพร้อมด้วยบุคลากรครู ผู้ฝึกสอนซึ่งผ่านการอบรมวิชาผู้กำกับลูกเสือเชี่ยวชาญทั้งภาคทฤษฎีและปฏิบัติ พรั่งพร้อมด้วยสถานที่และสิ่งอำนวยความสะดวกต่าง ๆ","name":"ค่ายลูกเสือสยามอะเมซิ่งพาร์ค","name:th":"ค่ายลูกเสือสยามอะเมซิ่งพาร์ค","website":"https://www.siamamazingpark.com/service-camping-scout"}},"4156064100":{"location":[13.8927644,100.8237302],"ct":"TH","tp":"CS","ts":"2016-04-29T17:48:33Z","tX":798,"tY":472,"tags":{"addr:street":"คลองสิบ-คลองสิบสี่","name":"สนาม ลำหิน Park"}},"4308452089":{"location":[13.876623,100.7934173],"ct":"TH","tp":"CS","ts":"2016-07-18T07:59:27Z","tX":798,"tY":472,"tags":{"name":"บ่อดิน หนองจอก"}},"4715288892":{"location":[13.7885588,100.5908076],"ct":"TH","tp":"CS","ts":"2017-03-03T16:36:35Z","tX":798,"tY":472,"tags":{"addr:street":"ลาดพร้าว 64 แยก 4","name":"Grace Apartments","name:th":"Grace Apartments"}},"4715362196":{"location":[13.7601292,100.6285002],"ct":"TH","tp":"CS","ts":"2017-03-03T16:58:41Z","tX":798,"tY":472,"tags":{"addr:street":"รามคำแหง 24 แยก 34-1 ซอย","name:en":"Thongchai Apartment"}},"4715377290":{"location":[13.7565402,100.6338586],"ct":"TH","tp":"CS","ts":"2017-03-03T17:01:45Z","tX":798,"tY":472,"tags":{"name:en":"DD Apartment"}},"4715398189":{"location":[13.7831431,100.6365361],"ct":"TH","tp":"CS","ts":"2017-03-03T17:09:37Z","tX":798,"tY":472,"tags":{"addr:street":"Soi Lat Phrao 107, Lane 28","name":"K&K Residences","name:th":"K&K Residences"}},"4715436189":{"location":[13.8004399,100.5847676],"ct":"TH","tp":"CS","ts":"2017-03-03T17:38:14Z","tX":798,"tY":472,"tags":{"addr:street":"1519 Soi Lat Phrao 41 Yaek 6-4, Khwaeng Samsen Nok, Khet Huai Khwang, Krung Thep Maha Nakhon 10310","name":"P.T. Apartment","name:th":"P.T. Apartment"}},"4716024489":{"location":[13.7786775,100.6186587],"ct":"TH","tp":"CS","ts":"2017-03-04T06:15:51Z","tX":798,"tY":472,"tags":{"addr:street":"67 ซอย ลาดพร้าว 112 Lat Phrao Rd, Khwaeng Phlabphla, Khet Wang Thonglang, Krung Thep Maha Nakhon 103","name":"Welcome Place Ladprao 112","name:th":"Welcome Place Ladprao 112"}},"4716181389":{"location":[13.7811974,100.6365371],"ct":"TH","tp":"CS","ts":"2017-03-04T09:31:18Z","tX":798,"tY":472,"tags":{"name":"LP 107 Mansion","name:th":"LP 107 Mansion"}},"5174319321":{"location":[13.6391321,100.5991344],"ct":"TH","tp":"CS","ts":"2017-10-18T09:10:48Z","tX":798,"tY":472,"tags":{"name":"บ้านเจเอ"}},"5174339521":{"location":[13.6390008,100.5991415],"ct":"TH","tp":"CS","ts":"2017-10-18T09:22:03Z","tX":798,"tY":472,"tags":{"name":"บ้านเจเอ"}},"5758212521":{"location":[13.798723,100.5789823],"ct":"TH","tp":"CS","ts":"2018-07-13T09:07:30Z","tX":798,"tY":472,"tags":{"name":"จิลิดดาเพลส"}},"6287631786":{"location":[13.6823303,100.8951876],"ct":"TH","tp":"CS","ts":"2019-02-19T05:51:30Z","tX":798,"tY":472,"tags":{"name:en":"temple festival camping"}},"10120097117":{"location":[13.7233932,100.7379429],"ct":"TH","tp":"CS","ts":"2022-10-22T03:01:32Z","tX":798,"tY":472,"tags":{}},"10316495009":{"location":[13.914365,100.780761],"ct":"TH","tp":"CS","ts":"2023-01-09T09:32:14Z","tX":798,"tY":472,"tags":{"addr:housenumber":"894","addr:postcode":"10510","addr:street":"ถนนไมตรีจิต","name:en":"Bangkok Backyard","phone":"0993939747"}},"4296637389":{"location":[13.8037626,100.6488349],"ct":"TH","tp":"CR","ts":"2016-07-11T14:52:07Z","tX":798,"tY":472,"tags":{}},"4580189196":{"location":[13.6956887,100.6961199],"ct":"TH","tp":"CR","ts":"2016-12-29T21:14:32Z","tX":798,"tY":472,"tags":{"addr:housenumber":"64/117","addr:street":"Soi 38","opening_hours":"24/7","operator":"ออโต้","phone":"0881059628"}},"7712592205":{"location":[13.6818221,100.611071],"ct":"TH","tp":"CR","ts":"2020-07-14T05:30:35Z","tX":798,"tY":472,"tags":{}}}