{"654569524":{"location":[32.4405923,-99.8074647],"ct":"US","tp":"CR","ts":"2018-12-12T20:24:45Z","tX":228,"tY":414,"tags":{"name":"VFW RV Parking"}},"684096398":{"location":[32.45075,-99.80662],"ct":"US","tp":"CR","ts":"2021-07-13T00:56:58Z","tX":228,"tY":414,"tags":{"addr:city":"Abilene","addr:housenumber":"225","addr:postcode":"79605","addr:state":"TX","addr:street":"Arnold Boulevard","name":"Big Tree Mobile Home Park"}},"690148430":{"location":[32.439345,-99.8142656],"ct":"US","tp":"CR","ts":"2019-05-15T08:07:14Z","tX":228,"tY":414,"tags":{}},"691824263":{"location":[32.4837512,-99.7141127],"ct":"US","tp":"CR","ts":"2021-03-08T05:59:39Z","tX":228,"tY":414,"tags":{"addr:city":"Abilene","addr:housenumber":"695","addr:postcode":"79601","addr:state":"TX","addr:street":"East Stamford Street","name":"Whistle Stop RV Resort"}},"733422621":{"location":[32.477426,-99.7830727],"ct":"US","tp":"CR","ts":"2024-01-17T09:45:24Z","tX":228,"tY":414,"tags":{"addr:city":"Abilene","addr:housenumber":"4851","addr:postcode":"79603","addr:state":"TX","addr:street":"West Stamford Street","brand":"KOA","brand:wikidata":"Q16988635","name":"KOA Resort","short_name":"KOA"}},"914529684":{"location":[32.4344308,-99.6232773],"ct":"US","tp":"CR","ts":"2021-03-08T02:44:25Z","tX":228,"tY":414,"tags":{"addr:city":"Abilene","addr:housenumber":"6195","addr:postcode":"79601","addr:state":"TX","addr:street":"East Highway 80","name":"Abilene RV Park"}},"961264380":{"location":[32.4941688,-99.7481888],"ct":"US","tp":"CR","ts":"2021-07-04T10:10:33Z","tX":228,"tY":414,"tags":{"addr:city":"Abilene","addr:housenumber":"2301","addr:postcode":"79603","addr:state":"TX","addr:street":"Huckleberry Lane","name":"Huckleberry Lane Mobile Home Park"}},"963798032":{"location":[32.4513847,-99.810334],"ct":"US","tp":"CR","ts":"2021-07-13T00:56:58Z","tX":228,"tY":414,"tags":{"addr:city":"Abilene","addr:housenumber":"210","addr:postcode":"79605","addr:state":"TX","addr:street":"Arnold Boulevard","name":"Continental Villa"}},"963798033":{"location":[32.4495774,-99.8103483],"ct":"US","tp":"CR","ts":"2021-07-13T00:56:58Z","tX":228,"tY":414,"tags":{"addr:city":"Abilene","addr:housenumber":"318","addr:postcode":"79605","addr:state":"TX","addr:street":"Arnold Boulevard","name":"Village Mobile Home Park"}},"995339560":{"location":[32.4663379,-99.6871806],"ct":"US","tp":"CR","ts":"2022-12-22T21:35:39Z","tX":228,"tY":414,"tags":{"addr:city":"Abilene","addr:housenumber":"2233","addr:postcode":"79601","addr:state":"TX","addr:street":"East Stamford Street","name":"Ridgeview RV Resort"}},"1020423283":{"location":[32.437428,-99.7095293],"ct":"US","tp":"CR","ts":"2022-12-22T21:35:39Z","tX":228,"tY":414,"tags":{"addr:city":"Abilene","addr:housenumber":"902","addr:postcode":"79602","addr:state":"TX","addr:street":"East South 11th Street","name":"Lake Breeze Trailer Park","residential":"trailer_park"}},"1200045704":{"location":[32.4166539,-99.5268199],"ct":"US","tp":"CR","ts":"2023-08-20T05:35:23Z","tX":228,"tY":414,"tags":{"name":"Landmark"}},"9191270397":{"location":[32.4671272,-99.6858243],"ct":"US","tp":"CR","ts":"2021-10-21T19:27:49Z","tX":228,"tY":414,"tags":{"name":"Ridgeview RV Resort"}}}