{"1087248720":{"location":[45.9977445,-83.7888567],"ct":"US","tp":"CS","ts":"2022-08-18T15:19:05Z","tX":273,"tY":364,"tags":{"area":"yes","caravans":"yes","name":"Drummond Township Park Campground","tents":"yes"}},"1121727423":{"location":[45.9580169,-84.0006087],"ct":"US","tp":"CS","ts":"2023-10-02T08:48:34Z","tX":273,"tY":364,"tags":{"capacity":"21","charge":"20 USD","county":"Chippewa","fee":"yes","midnr:park_id":"694","name":"DeTour State Forest Campground","payment:cash":"yes","payment:cheque":"yes","source":"Michigan DNR","website":"https://www.michigandnr.com/parksandtrails/Details.aspx?id=694&type=SFCG"}},"1193640941":{"location":[45.9861764,-83.6924288],"ct":"US","tp":"CS","ts":"2023-07-31T21:38:06Z","tX":273,"tY":364,"tags":{"addr:city":"Drummond Island","addr:country":"US","addr:housenumber":"32316","addr:postcode":"49726","addr:state":"MI","addr:street":"East Johnswood Road","backcountry":"no","caravans":"yes","contact:facebook":"https://www.facebook.com/profile.php?id=100054317718979","email":"trailhead2010@yahoo.com","group_only":"no","internet_access":"wlan","internet_access:fee":"no","name":"Trailhead Restaurant, Bar & Campground","phone":"+1 906 493 5463","reservation":"yes","tents":"yes","website":"https://trailheadbarrestaurantandcampgrounddrummondisland.com","wheelchair":"yes"}},"2919707568":{"location":[46.0233707,-83.7438109],"ct":"US","tp":"CR","ts":"2014-06-17T03:36:21Z","tX":273,"tY":364,"tags":{"gnis:feature_id":"2356319","name":"H and H Cabins and Campground"}},"2919707579":{"location":[46.0339479,-83.6750255],"ct":"US","tp":"CR","ts":"2024-07-13T10:06:30Z","tX":273,"tY":364,"tags":{"addr:city":"Drummond Island","addr:housenumber":"32884","addr:postcode":"49726","addr:street":"South Maxton Road","name":"Wa-Wen Resort","website":"https://www.wawenresort.com/"}}}