{"995059680":{"location":[45.0598245,-83.9027361],"ct":"US","tp":"CS","ts":"2021-12-26T22:40:04Z","tX":273,"tY":368,"tags":{"access":"yes","capacity":"38","name":"Emerick Park Campground","phone":"+1-989-742-4751","reservation":"no","website":"http://www.hillmanmichigan.org/index.php?option=com_content&view=featured&Itemid=308"}},"995059992":{"location":[45.0605908,-83.8860653],"ct":"US","tp":"CR","ts":"2021-10-20T23:57:36Z","tX":273,"tY":368,"tags":{"addr:city":"Hillman","addr:housenumber":"27800","addr:postcode":"49746","addr:state":"MI","addr:street":"M-32","name":"Thunder Bay Resort RV Park","phone":"+1 800 729 9375","website":"https://www.thunderbayresort.com/rv-park"}},"11314959187":{"location":[44.9907802,-83.8624496],"ct":"US","tp":"CS","ts":"2023-11-04T17:40:00Z","tX":273,"tY":368,"tags":{"name":"Jack's Landing Camprground"}},"11327585845":{"location":[44.9953388,-83.8715451],"ct":"US","tp":"CS","ts":"2023-11-05T14:36:19Z","tX":273,"tY":368,"tags":{"access":"customers","addr:city":"Hillman","addr:housenumber":"5428","addr:postcode":"49746","addr:state":"MI","addr:street":"Emils Landing Road","caravans":"yes","fee":"yes","name":"Killion's Landing Campground","operator":"Killion's Landing","phone":"+1-989-742-4385","static_caravans":"no","website":"https://www.killionslanding.com/"}},"11328461206":{"location":[45.0229296,-83.7892666],"ct":"US","tp":"CS","ts":"2023-11-06T00:47:43Z","tX":273,"tY":368,"tags":{"access":"customers","addr:city":"Lachine","addr:housenumber":"16991","addr:postcode":"49753","addr:state":"MI","addr:street":"Taylor Hawks Road","email":"paradiselodge24@yahoo.com","name":"Paradise Lodge Campground","phone":"+1-989-379-2628","website":"http://www.fletcherspond.com/"}},"11206308661":{"location":[45.0600202,-83.9014739],"ct":"US","tp":"SD","ts":"2023-09-20T21:16:38Z","tX":273,"tY":368,"tags":{}},"11314959032":{"location":[44.9912251,-83.8628671],"ct":"US","tp":"SD","ts":"2023-11-04T17:40:00Z","tX":273,"tY":368,"tags":{"access":"customers"}}}