{"353197829":{"location":[44.3625587,-83.9614358],"ct":"US","tp":"CR","ts":"2020-12-13T04:23:50Z","tX":273,"tY":370,"tags":{"addr:state":"MI","name":"Driftwood Resort & Marina","phone":"+1-989-473-2440","website":"http://www.theenchantedforest.com/DriftwoodResort/"}},"1030437965":{"location":[44.4853571,-83.7945233],"ct":"US","tp":"CS","ts":"2022-02-11T17:33:04Z","tX":273,"tY":370,"tags":{"gnis:feature_id":"1622908","name":"South Branch Trail Campground","operator":"United States Forest Service"}},"1079887020":{"location":[44.5627497,-83.780558],"ct":"US","tp":"CS","ts":"2024-02-06T14:39:31Z","tX":273,"tY":370,"tags":{"addr:city":"Glennie","addr:housenumber":"6352","addr:postcode":"48737","addr:street":"Bamfield Road","gnis:feature_id":"2498751","name":"Alcona Canoe Rental & Campground","website":"http://alconacanoe.com/"}},"1153012506":{"location":[44.4617249,-83.7733105],"ct":"US","tp":"CR","ts":"2023-03-09T18:28:47Z","tX":273,"tY":370,"tags":{"gnis:feature_id":"1622909","name":"Rollways Campground","operator":"Huron National Forest","operator:type":"public","operator:wikidata":"Q33384278","wikidata":"Q117037322"}},"1225895707":{"location":[44.3606427,-83.9761466],"ct":"US","tp":"CR","ts":"2023-11-22T12:38:49Z","tX":273,"tY":370,"tags":{"access":"private","addr:city":"Lupton","addr:housenumber":"3700","addr:postcode":"48635","addr:street":"Sage Lake Road","gnis:feature_id":"2503025","name":"Lost Valley Campground"}},"1225895708":{"location":[44.3533583,-83.9787949],"ct":"US","tp":"CR","ts":"2023-11-22T12:38:49Z","tX":273,"tY":370,"tags":{"addr:city":"Lupton","addr:housenumber":"3426","addr:postcode":"48635","addr:state":"MI","addr:street":"East Sage Lake Road","name":"Warblers Cove","phone":"+1-989-473-2211","website":"https://www.warblerscove.com/"}},"1324484910":{"location":[44.4227353,-84.0231367],"ct":"US","tp":"CR","ts":"2024-10-16T20:55:33Z","tX":273,"tY":370,"tags":{"addr:city":"Lupton","addr:housenumber":"2575","addr:postcode":"48635","addr:street":"East Rose City Road","name":"Parkview Acres Campground"}},"2928624242":{"location":[44.5726773,-83.8206601],"ct":"US","tp":"CR","ts":"2014-06-23T02:02:41Z","tX":273,"tY":370,"tags":{}},"2928624286":{"location":[44.5740155,-83.8020934],"ct":"US","tp":"CR","ts":"2014-06-23T02:02:42Z","tX":273,"tY":370,"tags":{}}}