{"456118026":{"location":[44.2747389,-83.7188586],"ct":"US","tp":"CR","ts":"2016-11-26T21:56:38Z","tX":273,"tY":371,"tags":{"name":"Northern Bear Paw R.V. Park"}},"2928623613":{"location":[44.2747777,-83.7206629],"ct":"US","tp":"CR","ts":"2020-12-13T04:18:39Z","tX":273,"tY":371,"tags":{"addr:city":"Tawas City","addr:housenumber":"4793","addr:postcode":"48763","addr:state":"MI","addr:street":"West M-55","name":"Northern Bear Paw R.V. Park","phone":"+1-989-362-8000","website":"https://northernbearpawrvpark.com/"}},"2928623643":{"location":[44.2806771,-83.7254116],"ct":"US","tp":"CR","ts":"2014-06-23T02:02:29Z","tX":273,"tY":371,"tags":{}},"2930271280":{"location":[44.2422046,-83.9982032],"ct":"US","tp":"CR","ts":"2020-12-13T04:24:59Z","tX":273,"tY":371,"tags":{"addr:housenumber":"3231","addr:state":"MI","addr:street":"South Henderson Lake Road","gnis:feature_id":"2503017","name":"Hardwood Lake Campground","phone":"+1-989-873-6581","website":"http://www.hardwoodlake.org/campground.html"}}}