{"16928130":{"location":[42.7462429,-83.8556999],"ct":"US","tp":"CS","ts":"2024-01-03T18:26:04Z","tX":273,"tY":377,"tags":{"name":"Hidden Park Campground"}},"1268443603":{"location":[42.8059583,-83.8831163],"ct":"US","tp":"CR","ts":"2024-04-02T18:41:19Z","tX":273,"tY":377,"tags":{"addr:city":"Byron","addr:housenumber":"10575","addr:postcode":"48418","addr:state":"MI","addr:street":"Silver Lake Road","name":"Myers Lake Camping and Cabins","phone":"+1-810-370-1232","website":"https://www.myerslakecampingcabins.com/"}},"2942682590":{"location":[42.5813339,-83.8168137],"ct":"US","tp":"CS","ts":"2022-08-16T13:34:17Z","tX":273,"tY":377,"tags":{"gnis:feature_id":"623319","name":"Camp Chaldean","old_name":"City of Detroit Recreation Camp"}},"2942685216":{"location":[42.6879965,-83.9996394],"ct":"US","tp":"CR","ts":"2023-11-04T21:38:31Z","tX":273,"tY":377,"tags":{"addr:city":"Howell","addr:housenumber":"6197","addr:postcode":"48855","addr:state":"MI","addr:street":"North Burkhart Road","gnis:feature_id":"2630288","name":"Taylor's Beach Campground","phone":"+1-517-546-2679","tents":"yes","website":"https://www.taylorsbeachcampground.com/"}},"2942685219":{"location":[42.691423,-84.0020873],"ct":"US","tp":"CR","ts":"2020-12-08T03:43:41Z","tX":273,"tY":377,"tags":{"addr:city":"Howell","addr:housenumber":"4171","addr:postcode":"48855","addr:state":"MI","addr:street":"Woodland Drive","gnis:feature_id":"633242","name":"Water's Edge Camp","phone":"+1-517-546-9683","website":"https://www.watersedgecamp.org/"}},"2979936521":{"location":[42.6489944,-83.7611228],"ct":"US","tp":"CR","ts":"2020-12-14T04:14:36Z","tX":273,"tY":377,"tags":{"addr:city":"Hartland","addr:housenumber":"2975","addr:postcode":"48855","addr:state":"MI","addr:street":"Old US-23","name":"Waldenwoods Family Recreation Resort","phone":"+1-810-632-6400"}}}