{"267384619":{"location":[40.4817348,-83.9143653],"ct":"US","tp":"CR","ts":"2014-03-20T10:13:10Z","tX":273,"tY":385,"tags":{"name":"Four Seasons Camp"}},"267384664":{"location":[40.4815138,-83.9131931],"ct":"US","tp":"CR","ts":"2014-03-20T10:13:13Z","tX":273,"tY":385,"tags":{"name":"Frontier Resort Cottages"}},"410378456":{"location":[40.6821778,-83.9232833],"ct":"US","tp":"CS","ts":"2022-08-28T05:17:27Z","tX":273,"tY":385,"tags":{"addr:city":"Harrod","addr:country":"US","addr:housenumber":"9779","addr:postcode":"45850","addr:state":"OH","addr:street":"Faulkner Road","landuse":"recreation_ground","name":"Sun Valley Family Campground","operator":"Sun Valley Family Campground, LLC","phone":"+1 419 648 2235","website":"http://www.sunvalleycampground.com/"}},"881736285":{"location":[40.5231811,-83.8895258],"ct":"US","tp":"CS","ts":"2020-12-06T21:26:58Z","tX":273,"tY":385,"tags":{}},"881736286":{"location":[40.5198564,-83.8988407],"ct":"US","tp":"CS","ts":"2020-12-06T21:26:58Z","tX":273,"tY":385,"tags":{}},"881736287":{"location":[40.5187323,-83.905798],"ct":"US","tp":"CS","ts":"2020-12-06T21:26:58Z","tX":273,"tY":385,"tags":{}},"881736405":{"location":[40.5141562,-83.8993159],"ct":"US","tp":"CS","ts":"2024-02-24T10:23:04Z","tX":273,"tY":385,"tags":{"name":"Indian Lake State Park"}},"11822652300":{"location":[40.5137134,-83.8990273],"ct":"US","tp":"SD","ts":"2024-04-16T17:23:40Z","tX":273,"tY":385,"tags":{"access":"customers","operator":"Indian Lake State Park Campground","water_point":"yes"}}}