{"13941087":{"location":[34.3927587,-83.9843824],"ct":"US","tp":"CS","ts":"2022-04-03T00:20:39Z","tX":273,"tY":407,"tags":{"addr:city":"Dawsonville","addr:housenumber":"154","addr:postcode":"30506","addr:state":"GA","addr:street":"Toto Creek Park Road","backcountry":"no","cabins":"no","camp_site":"standard","caravans":"no","drinking_water":"yes","fee":"yes","name":"Toto Creek Campground","phone":"770-945-9531","sanitary_dump_station":"no","shower":"no","tents":"yes","toilets":"yes","washing_machine":"no","website":"https://www.recreation.gov/camping/campgrounds/255286?tab=campsites"}},"13941127":{"location":[34.3357319,-83.9507327],"ct":"US","tp":"CS","ts":"2022-03-19T17:28:34Z","tX":273,"tY":407,"tags":{"name":"Bolding Mill Campground","website":"https://www.recreation.gov/camping/campgrounds/232531?tab=info"}},"13942079":{"location":[34.3310854,-83.961453],"ct":"US","tp":"CS","ts":"2022-03-20T01:07:12Z","tX":273,"tY":407,"tags":{"name":"War Hill Park Campground","website":"https://www.dawsoncounty.org/parksrec/page/war-hill-park"}},"456269017":{"location":[34.3900916,-83.7468251],"ct":"US","tp":"CS","ts":"2025-05-09T00:29:22Z","tX":273,"tY":407,"tags":{"leisure":"park","name":"Don Carter State Park","website":"https://gastateparks.org/DonCarter"}},"9590591872":{"location":[34.3380122,-83.9504928],"ct":"US","tp":"SD","ts":"2022-03-19T20:54:32Z","tX":273,"tY":407,"tags":{}}}