{"437874333":{"location":[32.9723309,-83.8281825],"ct":"US","tp":"SD","ts":"2017-04-02T03:59:43Z","tX":273,"tY":412,"tags":{"addr:state":"GA","addr:street":"I 75 (GA southbound)","area":"yes","contact:phone:enhancement_coordinator":"+1 (706) 646-7520","contact:phone:maintenance_engineer":"+1 (706) 646-7525","highway":"rest_area","name":"Rest Area #22 (Monroe County, I 75 Southbound)","opening_hours":"24/7","operator":"Georgia Department of Transportation","phone:enhancement_coordinator":"+1 (706) 646-7520","phone:maintenance_engineer":"+1 (706) 646-7525"}},"484295685":{"location":[32.8665651,-83.7533962],"ct":"US","tp":"SD","ts":"2017-06-04T12:00:24Z","tX":273,"tY":412,"tags":{"addr:county":"Bibb","addr:state":"GA","addr:street":"I 475 (GA)","area":"yes","contact:phone:enhancement_coordinator":"+1 (706) 646-7520","contact:phone:maintenance_engineer":"+1 (706) 646-7525","contact:website":"http://www.dot.ga.gov/DS/Travel/RestAreas","highway":"rest_area","name":"Rest Area #19 (Bibb County, I-475 Northbound)","opening_hours":"24/7","operator":"Georgia Department of Transportation","phone:enhancement_coordinator":"+1 (706) 646-7520","phone:maintenance_engineer":"+1 (706) 646-7525","website":"http://www.dot.ga.gov/DS/Travel/RestAreas"}},"837588629":{"location":[33.0390828,-83.9271806],"ct":"US","tp":"CS","ts":"2021-02-26T21:00:37Z","tX":273,"tY":412,"tags":{}}}