{"289886663":{"location":[44.4822396,-109.3359765],"ct":"US","tp":"CS","ts":"2015-02-26T01:37:26Z","tX":200,"tY":370,"tags":{"name":"North Fork Campground"}},"968565335":{"location":[44.4618308,-109.6046841],"ct":"US","tp":"CS","ts":"2021-07-29T19:25:52Z","tX":200,"tY":370,"tags":{}},"968600754":{"location":[44.4607045,-109.6682052],"ct":"US","tp":"CS","ts":"2021-07-29T22:07:07Z","tX":200,"tY":370,"tags":{}},"1249321820":{"location":[44.4748764,-109.4094205],"ct":"US","tp":"CR","ts":"2023-09-22T04:01:54Z","tX":200,"tY":370,"tags":{"addr:city":"Cody","addr:housenumber":"3324","addr:postcode":"82414","addr:state":"WY","addr:street":"Yellowstone Highway","name":"Yellowstone Valley Inn","phone":"+1-877-587-3961"}},"1357534303":{"location":[44.4659528,-109.6240927],"ct":"US","tp":"CS","ts":"2025-02-06T15:49:19Z","tX":200,"tY":370,"tags":{"name":"Wapiti Campground"}},"4064506527":{"location":[44.461915,-109.6055137],"ct":"US","tp":"CS","ts":"2016-03-17T02:56:26Z","tX":200,"tY":370,"tags":{"name":"Big Game Campground"}},"4064506529":{"location":[44.460449,-109.6686387],"ct":"US","tp":"CS","ts":"2016-03-17T02:56:26Z","tX":200,"tY":370,"tags":{"name":"Clearwater Creek Campground"}},"4064506530":{"location":[44.4632876,-109.6291278],"ct":"US","tp":"CS","ts":"2016-03-17T02:56:26Z","tX":200,"tY":370,"tags":{"name":"Elk Fork Campground"}},"4064506531":{"location":[44.4661494,-109.6242087],"ct":"US","tp":"CS","ts":"2016-03-17T02:56:26Z","tX":200,"tY":370,"tags":{"name":"Wapiti Campground"}},"5570973620":{"location":[44.467526,-109.437433],"ct":"US","tp":"CS","ts":"2022-08-08T20:01:16Z","tX":200,"tY":370,"tags":{"addr:city":"Wapiti","addr:postcode":"82450","addr:state":"WY","addr:street":"Streamside Drive","cabin:rental":"yes","email":"Info@WOWMCCG.com","motorcycle":"yes","name":"Wheels of Wonderment Motorcycle Campground","operator":"Pete Pleban","phone":"+1-218-821-2222","website":"https://wowmccg.com/"}},"5852871986":{"location":[44.4858267,-109.3477975],"ct":"US","tp":"CS","ts":"2018-08-24T04:08:20Z","tX":200,"tY":370,"tags":{"addr:housenumber":"1","internet_access":"wlan","name":"W.O.W. cottage 3Bed 2Bath","name:en":"W.O.W. #1 (the cottage)"}}}