{"422318802":{"location":[46.7615477,-88.5017512],"ct":"US","tp":"CS","ts":"2024-08-13T20:04:52Z","tX":260,"tY":361,"tags":{"addr:city":"Baraga","addr:housenumber":"1300","addr:postcode":"49908","addr:state":"MI","addr:street":"US-41 South","ele":"186","gnis:feature_id":"2129365","leisure":"park","name":"Baraga State Park","operator":"Michigan Department of Natural Resources","operator:short":"Michigan DNR","operator:type":"public","operator:website":"http://www.michigandnr.com/parksandtrails/Details.aspx?id=408&type=SPRK","operator:wikidata":"Q6837532","ownership":"State","protect_class":"5","protected":"perpetuity","protection_title":"State Park","website":"http://www.shorelinevisitorsguide.com/select-michigan-state-park-maps-and-guides/baraga-state-park","wikidata":"Q4858169","wikipedia":"en:Baraga State Park"}},"2412121646":{"location":[46.6116545,-88.5725225],"ct":"US","tp":"CS","ts":"2023-10-01T18:48:41Z","tX":260,"tY":361,"tags":{"county":"Baraga","midnr:park_id":"641","name":"Big Lake State Forest Campground","source":"Michigan DNR","website":"https://www.michigandnr.com/parksandtrails/Details.aspx?id=641&type=SFCG"}},"2916769534":{"location":[46.7848075,-88.4374552],"ct":"US","tp":"CS","ts":"2022-05-20T11:23:06Z","tX":260,"tY":361,"tags":{"capacity":"30","caravans":"yes","charge":"26","fee":"yes","gnis:feature_id":"2129331","group_only":"no","internet_access":"wlan","motor_vehicle":"yes","name":"L'Anse Township Park Campground","operator":"L'Anse Township","phone":"+1-906-524-6985","sanitary_dump_station":"yes","tents":"yes","website":"https://www.lansetownship.org/township_park.html"}},"2916769541":{"location":[46.7830652,-88.4719879],"ct":"US","tp":"CR","ts":"2018-06-28T14:50:44Z","tX":260,"tY":361,"tags":{"gnis:feature_id":"2129159","name":"Ojibwa Campground","tents":"yes","website":"http://www.ojibwacampground.com/"}}}