{"10541852":{"location":[43.0733912,-88.5052774],"ct":"US","tp":"CS","ts":"2020-01-04T20:20:28Z","tX":260,"tY":375,"tags":{"name":"Indian Mound Scout Reservation","operator":"Three Harbors Council, Boy Scouts of America"}},"10542071":{"location":[43.1408091,-88.5425462],"ct":"US","tp":"CS","ts":"2023-10-16T22:48:55Z","tX":260,"tY":375,"tags":{"access":"private","addr:city":"Lac La Belle","addr:housenumber":"600","addr:postcode":"53066","addr:state":"WI","addr:street":"Lac La Belle Drive","leisure":"summer_camp","name":"URJ Olin-Sang-Ruby Union Institute","website":"https://osrui.org/","wikidata":"Q65120840","wikipedia":"en:Olin Sang Ruby Union Institute"}},"10552523":{"location":[43.1758019,-88.323843],"ct":"US","tp":"CS","ts":"2022-02-26T17:31:52Z","tX":260,"tY":375,"tags":{"addr:city":"Hartland","addr:housenumber":"W294 N8436","addr:state":"WI","addr:street":"Camp Whitcomb Road","name":"Camp Whitcomb/Mason","operator":"Boys & Girls Clubs of Greater Milwaukee"}},"262527144":{"location":[43.314852,-88.3087503],"ct":"US","tp":"SD","ts":"2024-08-11T22:27:42Z","tX":260,"tY":375,"tags":{"fee":"yes"}},"758985986":{"location":[43.2915797,-88.471745],"ct":"US","tp":"CS","ts":"2019-12-27T15:36:35Z","tX":260,"tY":375,"tags":{"addr:city":"Neosho","addr:housenumber":"W1468","addr:state":"WI","addr:street":"County Road NN","name":"Camp Winding River","operator":"Girl Scouts of Wisconsin Southeast"}},"2951697734":{"location":[43.2111967,-88.5435113],"ct":"US","tp":"CS","ts":"2024-10-09T05:37:34Z","tX":260,"tY":375,"tags":{"addr:city":"Ixonia","addr:housenumber":"W3048","addr:state":"WI","addr:street":"Crawfish Road","capacity":"9","charge":"24 USD","fee":"yes","name":"Harnischefeger Park","operator":"Dodge County","shower":"yes","website":"https://www.co.dodge.wi.gov/government/departments-e-m/land-resources-and-parks/parks-and-trails/harnischfeger-park"}}}