{"10484510":{"location":[42.8127869,-88.3786741],"ct":"US","tp":"CS","ts":"2019-12-27T06:10:32Z","tX":260,"tY":376,"tags":{"addr:city":"East Troy","addr:postcode":"53120","addr:state":"WI","name":"Army Lake Camp","operator":"Salvation Army","religion":"christian"}},"10484529":{"location":[42.8167928,-88.3782001],"ct":"US","tp":"CS","ts":"2022-02-26T05:39:22Z","tX":260,"tY":376,"tags":{"addr:city":"East Troy","addr:housenumber":"N8901","addr:postcode":"53120","addr:state":"WI","addr:street":"Army Lake Road","alt_name":"Camp Edwards","name":"Edwards YMCA Camp and Retreat Center"}},"10484558":{"location":[42.8157679,-88.400401],"ct":"US","tp":"CS","ts":"2019-12-27T06:10:32Z","tX":260,"tY":376,"tags":{"name":"Camp Charles Allis"}},"19186722":{"location":[42.8118979,-88.3781907],"ct":"US","tp":"CS","ts":"2025-05-28T16:10:14Z","tX":260,"tY":376,"tags":{"addr:city":"East Troy","addr:postcode":"53120","addr:state":"WI","name":"Army Lake Camp","operator":"Salvation Army","religion":"christian"}},"829771032":{"location":[42.8685217,-88.5758671],"ct":"US","tp":"CS","ts":"2024-02-27T03:39:41Z","tX":260,"tY":376,"tags":{"access":"yes","addr:city":"Palmyra","addr:housenumber":"W830","addr:postcode":"53156","addr:state":"WI","addr:street":"Little Prairie Road","name":"Horseriders' Campground","operator":"Wisconsin Department of Natural Resources","website":"https://dnr.wisconsin.gov/topic/parks/kms/recreation/camping"}},"1071983005":{"location":[42.9388528,-88.4765431],"ct":"US","tp":"CS","ts":"2024-11-02T15:17:01Z","tX":260,"tY":376,"tags":{"caravans":"yes","drinking_water":"yes","name":"Ottawa Lake Campground","operator":"Wisconsin DNR","shower":"yes","tents":"yes"}},"1268190180":{"location":[42.9610258,-88.4483089],"ct":"US","tp":"CS","ts":"2024-04-01T17:21:25Z","tX":260,"tY":376,"tags":{"addr:city":"Dousman","addr:housenumber":"W348 S4695","addr:postcode":"53118","addr:state":"WI","addr:street":"Waterville Road","caravans":"yes","name":"Pinewoods Campground","operator":"Wisconsin Department of Natural Resources","phone":"+1-262-594-6200","tents":"yes"}},"1361443724":{"location":[42.847267,-88.2739506],"ct":"US","tp":"CR","ts":"2025-02-20T13:58:33Z","tX":260,"tY":376,"tags":{"addr:city":"Mukwonago","addr:housenumber":"S110W26400","addr:postcode":"53149","addr:state":"WI","addr:street":"Craig Avenue","name":"County View Campground","phone":"+1 262-662-3654","website":"https://countryviewcampground.wordpress.com/"}},"6285151818":{"location":[42.9232648,-88.46478],"ct":"US","tp":"CS","ts":"2022-12-16T03:53:11Z","tX":260,"tY":376,"tags":{"name":"KMSF-SU Shelter 1","shelter":"yes"}},"7501607573":{"location":[42.8640969,-88.3868577],"ct":"US","tp":"CS","ts":"2024-10-09T05:37:34Z","tX":260,"tY":376,"tags":{"addr:city":"Mukwonago","addr:state":"WI","capacity":"30","charge":"18 USD","drinking_water":"yes","fee":"yes","name":"Mukwonago County Park Campground","operator":"Mukwonago County","reservation":"no","toilets:type":"pit"}},"7502314167":{"location":[43.0643198,-88.3774705],"ct":"US","tp":"CS","ts":"2024-01-23T15:40:01Z","tX":260,"tY":376,"tags":{"addr:city":"Harland","addr:housenumber":"651","addr:postcode":"53029","addr:state":"WI","addr:street":"State Highway 83","capacity":"33","drinking_water":"yes","fee":"yes","name":"Naga-Waukee County Park Campground","operator":"Naga-Waukee County","phone":"262-548-7801","reservation":"yes","toilets:disposal":"pitlatrine"}},"8169513986":{"location":[42.8453249,-88.3604837],"ct":"US","tp":"CS","ts":"2024-01-21T19:00:47Z","tX":260,"tY":376,"tags":{"addr:city":"Mukwonago","addr:housenumber":"W309S10910","addr:postcode":"53149","addr:state":"WI","addr:street":"County Highway I","name":"Phantom Ranch Bible Camp","url:map":"https://www.phantomranch.org/graphics/map/2018PRBC-BWMap.jpg","website":"https://phantomranch.org"}},"9150463508":{"location":[43.0562953,-88.3761266],"ct":"US","tp":"CS","ts":"2021-10-06T02:20:49Z","tX":260,"tY":376,"tags":{}},"9150463509":{"location":[43.0559365,-88.3750607],"ct":"US","tp":"CS","ts":"2021-10-06T02:20:49Z","tX":260,"tY":376,"tags":{}}}