{"10481013":{"location":[42.7946107,-88.5523347],"ct":"US","tp":"CS","ts":"2019-12-26T05:47:02Z","tX":260,"tY":377,"tags":{"addr:city":"East Troy","addr:housenumber":"W5091","addr:postcode":"53120","addr:state":"WI","addr:street":"State Highway 20","name":"Camp Juniper Knoll","operator":"Girl Scouts of Greater Chicago and Northwest Indiana"}},"10481015":{"location":[42.7777086,-88.5576502],"ct":"US","tp":"CS","ts":"2024-08-25T01:50:02Z","tX":260,"tY":377,"tags":{"contact:facebook":"https://www.facebook.com/Lutherdale1944/","contact:website":"https://www.lutherdale.org/","contact:youtube":"https://www.youtube.com/user/lutherdale1944","denomination":"lutheran","fee":"yes","name":"Lutherdale Ministries","phone":"+1-262-742-2352","religion":"christian"}},"10481016":{"location":[42.7821228,-88.5437251],"ct":"US","tp":"CS","ts":"2019-12-26T05:47:02Z","tX":260,"tY":377,"tags":{"addr:city":"East Troy","addr:housenumber":"N8005","addr:postcode":"53120","addr:state":"WI","addr:street":"Pleasant Lake Road","name":"Camp Pottawatomie Hills","operator":"Girl Scouts of Wisconsin Southeast"}},"10484437":{"location":[42.8058915,-88.4244677],"ct":"US","tp":"CS","ts":"2019-12-27T05:09:13Z","tX":260,"tY":377,"tags":{"addr:city":"East Troy","addr:housenumber":"N8651","addr:state":"WI","addr:street":"Townline Road","name":"Camp Alice Chester"}},"10484561":{"location":[42.8037657,-88.3815535],"ct":"US","tp":"CS","ts":"2019-12-27T06:10:32Z","tX":260,"tY":377,"tags":{}},"538587680":{"location":[42.674983,-88.2488837],"ct":"US","tp":"CS","ts":"2023-10-03T22:31:24Z","tX":260,"tY":377,"tags":{"addr:city":"Burlington","addr:housenumber":"31401","addr:postcode":"53105","addr:state":"WI","addr:street":"Durand Ave","alt_name":"Camp MacLean","gnis:feature_id":"1562634;1562633","name":"YMCA Camp MacLean","phone":"+1-262-763-7742","website":"https://www.ymcachicago.org/maclean/"}},"1180532707":{"location":[42.8107944,-88.5127255],"ct":"US","tp":"CS","ts":"2023-06-18T15:19:45Z","tX":260,"tY":377,"tags":{"addr:city":"East Troy","addr:housenumber":"N8705","addr:postcode":"53120","addr:state":"WI","addr:street":"Scout Road","fee":"yes","group_only":"yes","name":"Camp Timber-lee","phone":"+1-262-642-7345","website":"https://www.timber-lee.com/"}},"1308350593":{"location":[42.5867498,-88.4521469],"ct":"US","tp":"CS","ts":"2024-08-16T23:32:34Z","tX":260,"tY":377,"tags":{"group_only":"yes","name":"Covenant Harbor"}},"3381577059":{"location":[42.5712604,-88.4256133],"ct":"US","tp":"CS","ts":"2015-03-03T18:29:19Z","tX":260,"tY":377,"tags":{"name":"RV Camping @ Big Foot Beach State Park"}},"3381618111":{"location":[42.5696294,-88.4276899],"ct":"US","tp":"CS","ts":"2015-03-03T18:29:12Z","tX":260,"tY":377,"tags":{"name":"Tent Camping @ Big Foot Beach State Park"}},"6513536899":{"location":[42.5744446,-88.4327243],"ct":"US","tp":"CS","ts":"2023-02-07T03:25:50Z","tX":260,"tY":377,"tags":{"access":"private","addr:city":"Lake Geneva","addr:housenumber":"W2655","addr:postcode":"53147","addr:state":"WI","addr:street":"West South Street","contact:facebook":"https://www.facebook.com/lgyc1","fee":"yes","name":"Lake Geneva Youth Camp","phone":"+1-262-248-5500","website":"https://www.lgyc.org/"}},"12102929829":{"location":[42.566659,-88.432075],"ct":"US","tp":"SD","ts":"2024-08-10T16:49:52Z","tX":260,"tY":377,"tags":{"fee":"no","water_point":"yes"}}}