{"874059390":{"location":[37.6282466,-88.2739161],"ct":"US","tp":"CS","ts":"2022-05-06T21:53:01Z","tX":260,"tY":396,"tags":{"addr:city":"Junction","addr:housenumber":"5320","addr:postcode":"62954","addr:state":"IL","addr:street":"Thacker Hollow Road","name":"Double M Campground","phone":"+1-618-275-4440","website":"http://doublemcampground.com/"}},"874059400":{"location":[37.578293,-88.2446683],"ct":"US","tp":"CS","ts":"2020-11-18T13:21:26Z","tX":260,"tY":396,"tags":{"access":"yes","camp_site:reservations":"no","capacity":"8","fee":"yes","name":"Camp Cadiz Campground","phone:ranger":"+1-618-253-7114","website":"https://www.fs.usda.gov/recarea/shawnee/recreation/horseriding-camping/recarea/?recid=10682&actid=30"}},"1257620840":{"location":[37.6128889,-88.4981341],"ct":"US","tp":"CS","ts":"2024-03-04T22:57:43Z","tX":260,"tY":396,"tags":{"access":"customers","addr:city":"Harrisburg","addr:housenumber":"1935","addr:postcode":"62946","addr:state":"IL","addr:street":"Peak Road","caravans":"yes","name":"Williams Pass & OHV Park","phone":"+1-618-252-6978","tents":"yes","website":"https://williamshillpass.org"}},"2150566260":{"location":[37.5256849,-88.5826521],"ct":"US","tp":"CS","ts":"2025-02-21T22:18:23Z","tX":260,"tY":396,"tags":{"name":"Bear Branch Horse Resort"}},"2150567042":{"location":[37.5265698,-88.584594],"ct":"US","tp":"CR","ts":"2013-02-11T16:39:19Z","tX":260,"tY":396,"tags":{"name":"Bear Branch Horse Resort"}},"6004130755":{"location":[37.6148412,-88.268178],"ct":"US","tp":"CS","ts":"2019-10-29T15:46:34Z","tX":260,"tY":396,"tags":{"name":"Pine Ridge Campground","other_name":"Pounds Hollow Recreation Area"}},"6033321402":{"location":[37.592306,-88.3831928],"ct":"US","tp":"CS","ts":"2020-10-09T22:11:13Z","tX":260,"tY":396,"tags":{}},"6928911364":{"location":[37.6022558,-88.3792508],"ct":"US","tp":"CS","ts":"2022-11-24T15:21:20Z","tX":260,"tY":396,"tags":{"access":"yes","fee":"yes","name":"Pharaoh Campground"}},"6928948099":{"location":[37.6920231,-88.39288],"ct":"US","tp":"CS","ts":"2025-03-07T01:06:48Z","tX":260,"tY":396,"tags":{"name":"Saline County State Fish & Wildlife Area"}},"7949205080":{"location":[37.6007186,-88.3336113],"ct":"US","tp":"CS","ts":"2023-10-28T19:18:01Z","tX":260,"tY":396,"tags":{"addr:city":"Equality","addr:housenumber":"2245","addr:postcode":"62934","addr:state":"IL","addr:street":"Knob Hill Lane","contact:facebook":"https://www.facebook.com/groups/144344675580490/","fee":"yes","name":"High Knob Campground","phone":"+1-618-275-4494","website":"https://highknobcampground.net/"}},"12641909356":{"location":[37.6950415,-88.3796437],"ct":"US","tp":"CS","ts":"2025-03-07T01:06:48Z","tX":260,"tY":396,"tags":{"name":"Horse Campground"}}}