{"2861996436":{"location":[-19.4148447,-43.3249342],"ct":"BR","tp":"CS","ts":"2018-06-12T13:14:51Z","tX":388,"tY":568,"tags":{"addr:city":"Itambé do Mato Dentro","addr:housenumber":"s/n","addr:postcode":"35820000","addr:street":"Rua Antônio Monteiro da Silva","addr:suburb":"Centro","name":"Camping Ouro Fino","phone":"+55 31 3836 5252"}},"3496953315":{"location":[-19.5792821,-43.4896597],"ct":"BR","tp":"CS","ts":"2018-02-26T18:10:37Z","tX":388,"tY":568,"tags":{"name":"Camping - Cachoeira Alta - Selvagem"}},"9081148174":{"location":[-19.4521845,-43.4955677],"ct":"BR","tp":"CS","ts":"2022-04-07T13:34:18Z","tX":388,"tY":568,"tags":{"backcountry":"yes","fee":"no","name":"Casa dos Currais","tents":"yes"}},"9081148213":{"location":[-19.4309319,-43.5362962],"ct":"BR","tp":"CS","ts":"2021-09-10T23:28:20Z","tX":388,"tY":568,"tags":{"backcountry":"yes","fee":"no","name":"Tatinha"}},"9083097100":{"location":[-19.3781141,-43.4964911],"ct":"BR","tp":"CS","ts":"2022-04-07T02:59:06Z","tX":388,"tY":568,"tags":{"backcountry":"yes","fee":"no","name":"Casa de Tábuas","tents":"yes"}}}