{"454771578":{"location":[-23.0331963,-43.4901672],"ct":"BR","tp":"CS","ts":"2021-07-07T01:41:13Z","tX":388,"tY":579,"tags":{"addr:city":"Rio de Janeiro","addr:housenumber":"5900","addr:street":"Estrada do Pontal","addr:suburb":"Recreio dos Bandeirantes","name":"Camping Club do Brasil Recreio","operator":"Camping Club do Brasil","phone":"+55 21 2490 0584","ref":"RJ-10","website":"http://www.campingclube.com.br/rj_10.htm"}},"3258928429":{"location":[-23.0122593,-43.5158054],"ct":"BR","tp":"CS","ts":"2014-12-29T21:13:48Z","tX":388,"tY":579,"tags":{"addr:city":"Rio de Janeiro","addr:housenumber":"29967","addr:street":"Estrada dos Bandeirantes","addr:suburb":"Recreio dos Bandeirantes","email":"contato@campingverdemar.com.br","fixme":"Localização imprecisa","name":"Camping Verde Mar","phone":"+55 21 2428 3417","website":"http://www.campingverdemar.com.br/"}},"4629272464":{"location":[-22.9947014,-43.5281883],"ct":"BR","tp":"CS","ts":"2023-10-21T23:40:31Z","tX":388,"tY":579,"tags":{"addr:city":"Rio de Janeiro","addr:housenumber":"458","addr:street":"Rua Professor Castro Rebelo","addr:suburb":"Ilha de Guaratiba","name":"Glamping SPAço Livre","phone":"+55 21 3377-0617","website":"https://www.spacolivre.com.br/"}},"4629773161":{"location":[-22.9276337,-43.513126],"ct":"BR","tp":"CS","ts":"2017-01-24T17:21:42Z","tX":388,"tY":579,"tags":{"name":"Farol da Prata"}},"7722033469":{"location":[-22.9924796,-43.2911112],"ct":"BR","tp":"CS","ts":"2020-07-16T19:23:44Z","tX":388,"tY":579,"tags":{"name":"Descampado com bancos de troncos"}}}