{"228333841":{"location":[50.0738018,88.4227221],"ct":"RU","tp":"CS","ts":"2022-08-11T13:23:33Z","tX":763,"tY":346,"tags":{"name":"Тыдту-Ярык (юрточный)","phone":"+7-963-511-76-92"}},"1080192898":{"location":[50.0991152,88.3662184],"ct":"RU","tp":"CS","ts":"2022-10-16T17:28:23Z","tX":763,"tY":346,"tags":{"barrier":"fence","cabins":"yes","fee":"yes","name":"Тоолос","phone":"+7-913-694-46-33"}},"1085604928":{"location":[50.0713551,88.4106895],"ct":"RU","tp":"CS","ts":"2022-08-11T13:23:33Z","tX":763,"tY":346,"tags":{"name":"Кыпчак","phone":"89139984208"}},"1085604929":{"location":[50.1004253,88.369787],"ct":"RU","tp":"CS","ts":"2022-08-11T13:23:33Z","tX":763,"tY":346,"tags":{"addr:street":"Центральная улица","name":"Юрты NOMAD URTS","name:en":"NOMAD URTS","phone":"+79139951437"}},"1085604930":{"location":[50.0992687,88.3682446],"ct":"RU","tp":"CS","ts":"2022-10-29T17:04:16Z","tX":763,"tY":346,"tags":{"barrier":"fence","name":"Altay GLAMP","phone":"+7-983-607-38-98"}},"1085604931":{"location":[50.1001214,88.3633897],"ct":"RU","tp":"CS","ts":"2022-08-11T13:23:33Z","tX":763,"tY":346,"tags":{"name":"Родной Очаг","phone":"8-999-804-5598"}},"1085604932":{"location":[50.0968376,88.3660479],"ct":"RU","tp":"CS","ts":"2022-10-22T21:40:02Z","tX":763,"tY":346,"tags":{"barrier":"fence","name":"Приют у альпиниста","phone":"+7-913-914-55-97"}},"1085604933":{"location":[50.0699376,88.3557195],"ct":"RU","tp":"CS","ts":"2022-10-23T20:41:18Z","tX":763,"tY":346,"tags":{"name":"Кезер Таш","phone":"8-963-511-66-16"}},"1085604937":{"location":[50.1149513,88.3457178],"ct":"RU","tp":"CS","ts":"2022-08-11T13:23:33Z","tX":763,"tY":346,"tags":{"addr:housenumber":"1","addr:street":"Чуйский тракт 862 км трасса","name":"Софийская поляна","opening_hours":"24/7","phone":"89136904361"}},"1085604940":{"location":[50.1188582,88.3465704],"ct":"RU","tp":"CS","ts":"2022-08-11T13:23:33Z","tX":763,"tY":346,"tags":{"name":"Тихая гавань","phone":"8-913-699-10-00"}},"1085604941":{"location":[50.154933,88.309853],"ct":"RU","tp":"CS","ts":"2022-08-11T13:23:33Z","tX":763,"tY":346,"tags":{"addr:housenumber":"1","addr:street":"Чуйский тракт 857 км","name":"Тулпар","name:en":"Camping \"Tulpar\"","opening_hours":"24/7","phone":"+7-913-691-89-32"}},"1085604942":{"location":[50.1610383,88.3105418],"ct":"RU","tp":"CS","ts":"2022-08-11T13:23:33Z","tX":763,"tY":346,"tags":{"name":"Куйактанар","phone":"+7-913-693-21-82"}},"1085611435":{"location":[50.1553495,88.2966311],"ct":"RU","tp":"CS","ts":"2022-08-11T13:49:31Z","tX":763,"tY":346,"tags":{"addr:housenumber":"1","addr:street":"Чуйский тракт 856 км","name":"Теленгит","opening_hours":"24/7","phone":"89136933783","website":"https://instagram.com/telengit856/"}},"1085611436":{"location":[50.1798295,88.2677168],"ct":"RU","tp":"CS","ts":"2022-08-11T13:49:31Z","tX":763,"tY":346,"tags":{"name":"Синегорье","phone":"+7-913-992-51-23"}},"1085611437":{"location":[50.1563416,88.2980154],"ct":"RU","tp":"CS","ts":"2022-08-11T13:49:31Z","tX":763,"tY":346,"tags":{"name":"ТурЛу","phone":"8-913-697-4340"}},"10867067106":{"location":[50.1501132,88.3003127],"ct":"RU","tp":"CS","ts":"2023-05-04T10:31:27Z","tX":763,"tY":346,"tags":{}},"11092787305":{"location":[50.0676907,88.4136811],"ct":"RU","tp":"CS","ts":"2023-08-06T05:04:50Z","tX":763,"tY":346,"tags":{}}}