{"311354611":{"location":[45.8587749,-95.3907745],"ct":"US","tp":"CR","ts":"2021-09-07T05:12:27Z","tX":240,"tY":364,"tags":{"addr:city":"Alexandria","addr:housenumber":"910","addr:postcode":"56308","addr:street":"34th Avenue West","name":"America's Best Inn RV Park","phone":"+1-320-763-5121","source":"Bing","website":"http://www.americasbestinnalexandria.com/rv-park/"}},"853865360":{"location":[45.9949994,-95.585628],"ct":"US","tp":"CS","ts":"2024-11-02T16:23:33Z","tX":240,"tY":364,"tags":{"capacity":"14","charge":"15 USD","drinking_water":"yes","fee":"yes","leisure":"park","name":"Chippewa County Park","operator":"Douglas County","power_supply":"yes","reservation":"no","seasonal":"spring;summer;autumn","shower":"yes","toilets:disposal":"flush","website":"https://www.co.douglas.mn.us/chippewa-park"}},"5804674354":{"location":[45.9787801,-95.3736784],"ct":"US","tp":"CS","ts":"2023-11-18T05:29:59Z","tX":240,"tY":364,"tags":{"addr:housenumber":"8231","addr:postcode":"56308","addr:street":"County Road 11 Northeast","drinking_water":"yes","internet_access":"wlan","name":"Luther Crest Bible Camp","opening_hours":"24/7","phone":"+1-320-846-2431","shower":"yes","website":"https://luthercrest.org/"}},"7140239858":{"location":[46.0044464,-95.3411294],"ct":"US","tp":"CS","ts":"2023-06-26T01:17:38Z","tX":240,"tY":364,"tags":{"capacity":"7","charge":"$23","drinking_water":"yes","fee":"yes","name":"Lake Carlos Sate Park - Horse Camp","operator":"Lake Carlos State Park","phone":"+1-320-852-7200","reservation":"accepted","toilets":"vault"}},"7152609254":{"location":[46.00349,-95.3373984],"ct":"US","tp":"CS","ts":"2023-06-26T01:17:38Z","tX":240,"tY":364,"tags":{"cabins":"yes","capacity":"51","caravans":"yes","drinking_water":"yes","name":"Lake Carlos State Park - Upper Campground","operator":"Lake Carlos State Park","phone":"(866) 857-2757","power_supply":"yes","reservation":"required","sanitary_dump_station":"yes","shower":"hot","tents":"yes","toilets:type":"flush"}},"7489465948":{"location":[45.9932329,-95.5864403],"ct":"US","tp":"CS","ts":"2024-11-02T16:23:33Z","tX":240,"tY":364,"tags":{"addr:city":"Brandon","addr:state":"MN","capacity":"14","charge":"15 USD","fee":"yes","name":"Chippewa County Park Campground","phone":"+1-320-762-2966","power_supply":"yes","reservation":"no","toilets:disposal":"flush"}},"10998552751":{"location":[46.0028587,-95.3417587],"ct":"US","tp":"CS","ts":"2023-07-01T14:36:56Z","tX":240,"tY":364,"tags":{"bbq":"yes","cabins":"no","capacity:caravans":"1","capacity:motor_vehicle":"25","capacity:persons":"35","caravans":"yes","dog":"yes","group_only":"yes","name":"Pioneer Group Camp","operator":"Lake Carlos State Park","picnic_table":"yes","power_supply":"yes","reservation":"required","tents":"yes"}},"11006415322":{"location":[45.9976939,-95.3378454],"ct":"US","tp":"CS","ts":"2023-06-26T01:17:38Z","tX":240,"tY":364,"tags":{"cabins":"no","capacity":"74","caravans":"yes","drinking_water":"yes","name":"Lake Carlos State Park - Lower Campground","operator":"Lake Carlos State Park","phone":"(866) 857-2757","power_supply":"yes","reservation":"required","sanitary_dump_station":"yes","shower":"hot","tents":"yes","toilets:type":"flush"}},"11006415444":{"location":[45.9917478,-95.3479439],"ct":"US","tp":"CS","ts":"2023-06-26T01:17:38Z","tX":240,"tY":364,"tags":{"cabins":"yes","capacity:persons":"60","caravans":"no","group_only":"yes","kitchen":"yes","name":"Hidden Lake Group Center","operator":"Lake Carlos State Park","reservation":"required","tents":"no"}},"11006415445":{"location":[45.9942094,-95.3451437],"ct":"US","tp":"CS","ts":"2023-07-01T14:36:56Z","tX":240,"tY":364,"tags":{"bbq":"yes","capacity:motor_vehicle":"25","capacity:persons":"50","caravans":"no","group_only":"yes","name":"Lakeview Group Camp","operator":"Lake Carlos State Park","picnic_table":"yes","reservation":"required","tents":"yes"}},"7152508337":{"location":[45.9066068,-95.5181311],"ct":"US","tp":"CR","ts":"2020-01-22T23:01:31Z","tX":240,"tY":364,"tags":{"name":"Oak Park Kampground"}},"10997693261":{"location":[45.998497,-95.3370166],"ct":"US","tp":"SD","ts":"2023-06-22T15:54:40Z","tX":240,"tY":364,"tags":{}}}