{"18203164":{"location":[45.5433138,-95.5222318],"ct":"US","tp":"CS","ts":"2024-11-20T20:18:01Z","tX":240,"tY":366,"tags":{"name":"Lower Campground","tiger:cfcc":"A41","tiger:county":"Pope, MN","tiger:reviewed":"no"}},"411203845":{"location":[45.5427963,-95.5177772],"ct":"US","tp":"CS","ts":"2016-04-18T02:44:37Z","tX":240,"tY":366,"tags":{"name":"Oakridge Campground"}},"4129417125":{"location":[45.5267547,-95.5000664],"ct":"US","tp":"CS","ts":"2016-04-18T02:28:58Z","tX":240,"tY":366,"tags":{"name":"Kettle Lake"}},"7152466836":{"location":[45.4011037,-95.4206117],"ct":"US","tp":"CS","ts":"2024-12-01T06:45:16Z","tX":240,"tY":366,"tags":{"addr:city":"Benson","addr:postcode":"56215","addr:state":"MN","capacity":"15","charge":"20 USD","description":"$8-$20","drinking_water":"yes","fee":"yes","name":"Swift Falls County Park Campground","phone":"+1-320-843-534","power_supply":"yes","shower":"hot","toilets:type":"flush"}},"7152467818":{"location":[45.5432329,-95.5205735],"ct":"US","tp":"CS","ts":"2024-12-01T06:45:16Z","tX":240,"tY":366,"tags":{"addr:city":"Starbuck","addr:housenumber":"25022","addr:postcode":"56381","addr:state":"MN","addr:street":"Cty Rd 41","cabins":"yes","capacity":"41","charge":"21 USD","description":"$17-$21","drinking_water":"yes","fee":"yes","name":"Glacial Lakes State Park Campground","phone":"+1-320-239-2860","power_supply":"yes","reservation":"yes","sanitary_dump_station":"yes","shower":"hot","tents":"yes","toilets:type":"flush"}},"7489794563":{"location":[45.5301638,-95.4961752],"ct":"US","tp":"CS","ts":"2021-09-07T05:12:27Z","tX":240,"tY":366,"tags":{"addr:city":"Starbuck","addr:state":"MN","backcountry":"yes","fee":"yes","name":"Glacial Lakes SP - Baby Lake","phone":"+1-320-239-2860","tents":"only"}},"7489794565":{"location":[45.5329598,-95.5234793],"ct":"US","tp":"CS","ts":"2024-11-02T16:23:33Z","tX":240,"tY":366,"tags":{"addr:city":"Starbuck","addr:state":"MN","backcountry":"yes","charge":"15 USD","fee":"yes","name":"Glacial Lakes SP - Hill TC","phone":"+1-320-239-2860","reservation":"yes"}},"7489794566":{"location":[45.5342602,-95.5211645],"ct":"US","tp":"CS","ts":"2024-12-01T06:45:16Z","tX":240,"tY":366,"tags":{"addr:city":"Starbuck","addr:state":"MN","charge":"29 USD","description":"$21-$29","drinking_water":"yes","fee":"yes","name":"Glacial Lakes SP - Horse Camp","phone":"+1-320-239-2860","reservation":"yes","toilets:type":"flush"}}}