{"7152435975":{"location":[45.3214911,-95.6179759],"ct":"US","tp":"CS","ts":"2024-12-01T06:45:16Z","tX":240,"tY":367,"tags":{"addr:city":"Benson","addr:housenumber":"1410","addr:postcode":"56215","addr:state":"MN","addr:street":"Kansas Ave","capacity":"17","charge":"20 USD","description":"$15-$20","drinking_water":"yes","fee":"yes","name":"Ambush Park Campground","phone":"+1-320-843-4775","power_supply":"yes","sanitary_dump_station":"yes","seasonal":"spring;summer;autumn","shower":"hot","toilets:type":"flush"}},"7152456130":{"location":[45.3201704,-95.2762552],"ct":"US","tp":"CS","ts":"2024-12-01T06:45:16Z","tX":240,"tY":367,"tags":{"addr:city":"Sunburg","addr:housenumber":"1690","addr:postcode":"56289","addr:state":"MN","addr:street":"15th Street Northeast","capacity":"20","charge":"19 USD","description":"$15-$19","drinking_water":"yes","fee":"yes","name":"Monson Lake State Park campground","power_supply":"yes","seasonal":"spring;summer;autumn","shower":"hot","toilets:type":"flush"}}}