{"18262439":{"location":[35.2779254,-95.5799937],"ct":"US","tp":"CR","ts":"2024-11-09T06:20:21Z","tX":240,"tY":404,"tags":{"addr:city":"Eufaula","addr:housenumber":"610","addr:postcode":"74432","addr:state":"OK","addr:street":"Lakeshore Drive","brand":"Yogi Bear's Jellystone Park","brand:wikidata":"Q8054389","leisure":"resort","name":"Yogi Bear's Jellystone Park","official_name":"Yogi Bear's Jellystone Park Camp-Resorts"}},"18269320":{"location":[35.2820139,-95.5768925],"ct":"US","tp":"CR","ts":"2024-11-09T19:42:36Z","tX":240,"tY":404,"tags":{"addr:city":"Eufaula","addr:housenumber":"203","addr:postcode":"74432","addr:state":"OK","addr:street":"Adams Avenue","leisure":"resort","name":"Xtreme RV Resort"}},"548877192":{"location":[35.405564,-95.5639556],"ct":"US","tp":"CR","ts":"2017-12-24T16:06:20Z","tX":240,"tY":404,"tags":{"building":"office","building:levels":"1","internet_access":"wlan","name":"Onapa RV Park","power_supply":"yes","sanitary_dump_station":"customers","tents":"yes"}},"1241358903":{"location":[35.357323,-95.5717052],"ct":"US","tp":"CR","ts":"2024-01-20T13:33:44Z","tX":240,"tY":404,"tags":{"name":"Little Turtle RV Park"}}}