{"16778775":{"location":[32.3929893,-95.2928756],"ct":"US","tp":"CR","ts":"2023-12-02T18:26:31Z","tX":240,"tY":414,"tags":{"addr:city":"Tyler","addr:housenumber":"240","addr:postcode":"75706","addr:state":"TX","addr:street":"East Northeast Loop 323","name":"Hidden Lake RV Park"}},"609339548":{"location":[32.372003,-95.3912909],"ct":"US","tp":"CR","ts":"2023-10-03T15:52:18Z","tX":240,"tY":414,"tags":{"name":"Spring Creek RV Park"}},"758025643":{"location":[32.470266,-95.368628],"ct":"US","tp":"CR","ts":"2019-12-23T05:35:46Z","tX":240,"tY":414,"tags":{"addr:city":"Tyler","addr:housenumber":"14102","addr:postcode":"75706","addr:state":"TX","addr:street":"Jim Hogg Road","name":"Texas Rose RV Park"}},"758841503":{"location":[32.3139657,-95.4541146],"ct":"US","tp":"CR","ts":"2019-12-27T03:37:11Z","tX":240,"tY":414,"tags":{"addr:city":"Chandler","addr:housenumber":"1300","addr:postcode":"75758","addr:state":"TX","addr:street":"East Highway 31","name":"Lake Palestine Gateway RV Park"}},"887741096":{"location":[32.4230276,-95.3094888],"ct":"US","tp":"CR","ts":"2020-12-23T06:33:28Z","tX":240,"tY":414,"tags":{"addr:city":"Tyler","addr:housenumber":"10929","addr:postcode":"75706","addr:state":"TX","addr:street":"Lavender Road","name":"5 Star RV Park"}},"1077272699":{"location":[32.4954801,-95.5640602],"ct":"US","tp":"CR","ts":"2022-07-09T22:46:22Z","tX":240,"tY":414,"tags":{"addr:city":"Lindale","addr:housenumber":"23560","addr:postcode":"75771","addr:state":"TX","addr:street":"Interstate 20 West","name":"Willow Branch RV Park"}},"1217107136":{"location":[32.4217451,-95.3610997],"ct":"US","tp":"CS","ts":"2024-10-05T10:03:04Z","tX":240,"tY":414,"tags":{}},"9175200217":{"location":[32.4820405,-95.2905419],"ct":"US","tp":"CS","ts":"2021-10-15T18:58:49Z","tX":240,"tY":414,"tags":{"name":"103"}},"11746953082":{"location":[32.4961322,-95.5170619],"ct":"US","tp":"CR","ts":"2024-03-21T05:21:10Z","tX":240,"tY":414,"tags":{"drinking_water":"yes","fee":"no","name:signed":"no","power_supply":"yes","sanitary_dump_station":"yes","toilets":"yes","wheelchair":"yes"}}}