{"1018158668":{"location":[29.595019,-95.3808682],"ct":"US","tp":"CR","ts":"2022-01-04T02:15:23Z","tX":240,"tY":423,"tags":{"addr:city":"Houston","addr:housenumber":"2850","addr:postcode":"77047","addr:state":"TX","addr:street":"South Sam Houston Parkway East","name":"Advanced RV Resort"}},"1102687229":{"location":[29.6520051,-95.4442422],"ct":"US","tp":"CR","ts":"2023-11-28T20:55:11Z","tX":240,"tY":423,"tags":{"addr:city":"Houston","addr:housenumber":"11911","addr:postcode":"77035","addr:state":"TX","addr:street":"South Main Street","contact:facebook":"https://www.facebook.com/LakeviewRVTexas","contact:twitter":"https://twitter.com/lakeviewrvtx","contact:yelp":"https://www.yelp.com/biz/lakeview-rv-resort-houston","internet_access":"wlan","name":"Lakeview RV Resort","operator":"Quality RV Resorts","website":"https://www.qualityrvresorts.com/destinations/houston/lakeview-rv-resort"}},"1104975857":{"location":[29.6595939,-95.4246151],"ct":"US","tp":"CR","ts":"2022-10-18T14:51:55Z","tX":240,"tY":423,"tags":{"addr:city":"Houston","addr:housenumber":"815","addr:postcode":"77045","addr:state":"TX","addr:street":"Holmes Road","capacity:caravans":"185","email":"stay@medicalcenterrvresort.com","name":"Medical Center RV Resort","phone":"+1-713-561-5335"}},"1386417305":{"location":[29.6264716,-95.4161201],"ct":"US","tp":"CR","ts":"2025-05-14T04:26:21Z","tX":240,"tY":423,"tags":{"addr:city":"Houston","addr:housenumber":"2919","addr:postcode":"77045","addr:state":"TX","addr:street":"West Orem Drive","branch":"Houston;Med Center","brand":"KOA","brand:wikidata":"Q16988635","name":"KOA Holiday","website":"https://koa.com/campgrounds/houston/"}}}