{"519498365":{"location":[28.95837,-95.2773145],"ct":"US","tp":"CR","ts":"2017-08-29T06:25:03Z","tX":240,"tY":425,"tags":{}},"991814392":{"location":[28.9507618,-95.289104],"ct":"US","tp":"CR","ts":"2022-01-01T23:08:19Z","tX":240,"tY":425,"tags":{"addr:city":"Surfside Beach","addr:housenumber":"102","addr:postcode":"77541","addr:state":"TX","addr:street":"Fort Velasco Drive","name":"Surfside Beach RV Park"}},"1017476901":{"location":[28.9630719,-95.3033919],"ct":"US","tp":"CR","ts":"2022-01-02T01:16:06Z","tX":240,"tY":425,"tags":{"addr:city":"Freeport","addr:housenumber":"1617","addr:postcode":"77541","addr:state":"TX","addr:street":"State Highway 332","name":"Shipmans' Landing RV Park"}},"1017480670":{"location":[28.9966919,-95.3294126],"ct":"US","tp":"CR","ts":"2022-01-02T02:04:58Z","tX":240,"tY":425,"tags":{"addr:city":"Oyster Creek","addr:housenumber":"2815","addr:postcode":"77541","addr:state":"TX","addr:street":"FM 523","name":"Oyster Creek RV Ranch"}},"1017480674":{"location":[29.0054942,-95.3239899],"ct":"US","tp":"CR","ts":"2022-01-02T02:04:58Z","tX":240,"tY":425,"tags":{"addr:city":"Oyster Creek","addr:housenumber":"234","addr:postcode":"77541","addr:state":"TX","addr:street":"Tamanda Lane","name":"Green Acres RV Park"}},"1017480677":{"location":[28.9949589,-95.3310637],"ct":"US","tp":"CR","ts":"2022-01-02T02:04:58Z","tX":240,"tY":425,"tags":{"addr:city":"Oyster Creek","addr:housenumber":"2501","addr:postcode":"77541","addr:state":"TX","addr:street":"FM 523","name":"Gulf Coast 5 Star RV Resort"}},"1017489611":{"location":[29.0229224,-95.3965525],"ct":"US","tp":"CR","ts":"2022-01-02T03:13:59Z","tX":240,"tY":425,"tags":{"addr:city":"Clute","addr:housenumber":"310","addr:postcode":"77531","addr:state":"TX","addr:street":"Brazosport Boulevard South","name":"Brazoswood Mobile Home Park"}},"1017489615":{"location":[29.0239216,-95.3931099],"ct":"US","tp":"CR","ts":"2022-01-02T03:13:59Z","tX":240,"tY":425,"tags":{"addr:city":"Clute","addr:housenumber":"215","addr:postcode":"77531","addr:state":"TX","addr:street":"Stratton Ridge Road","name":"Pecan Forest Manufactured Home Community"}}}