{"339701096":{"location":[34.9956423,135.9698158],"ct":"JP","tp":"CS","ts":"2019-12-12T19:56:38Z","tX":898,"tY":405,"tags":{"name":"ロクハ公園（キャンプ地）"}},"1039576533":{"location":[35.0042624,135.9134802],"ct":"JP","tp":"CS","ts":"2022-03-12T12:30:50Z","tX":898,"tY":405,"tags":{"name":"矢橋帰帆島　キャンプ・バーベキュー場","operator":"草津市"}},"1151983314":{"location":[35.0049115,136.0420893],"ct":"JP","tp":"CS","ts":"2023-03-06T14:50:46Z","tX":898,"tY":405,"tags":{"addr:block_number":"1","addr:city":"湖南市","addr:housenumber":"1","addr:neighbourhood":"2丁目","addr:province":"滋賀県","addr:quarter":"雨山","fee":"yes","name":"雨山キャンプ場","website":"https://www.city.shiga-konan.lg.jp/soshiki/sogo_seisaku/30/sisethu/11409.html"}},"4921478921":{"location":[35.1426596,135.9899673],"ct":"JP","tp":"CS","ts":"2017-10-15T17:28:44Z","tX":898,"tY":405,"tags":{"email":"auto-camp@maiami.info","name":"マイアミ浜オートキャンプ場","name:en":"Bewako Maiami Auto Camp","phone":"+81775895725","website":"http://www.maiami.info"}},"4921581323":{"location":[35.0499832,135.917563],"ct":"JP","tp":"CS","ts":"2017-06-18T05:51:43Z","tX":898,"tY":405,"tags":{}},"7812792085":{"location":[35.1355757,135.9905598],"ct":"JP","tp":"CS","ts":"2020-08-14T12:37:14Z","tX":898,"tY":405,"tags":{"name":"中主吉川公園"}},"8227707217":{"location":[35.1201291,135.8013928],"ct":"JP","tp":"CS","ts":"2020-12-14T14:00:08Z","tX":898,"tY":405,"tags":{"name":"静原キャンプ場"}},"9704920236":{"location":[35.0202815,135.7996601],"ct":"JP","tp":"CS","ts":"2022-04-30T09:53:28Z","tX":898,"tY":405,"tags":{"access":"private","name":"大文字山キャンプ場"}}}