{"242489154":{"location":[-20.0869486,148.4871935],"ct":"AU","tp":"CR","ts":"2022-02-03T03:11:13Z","tX":934,"tY":570,"tags":{"addr:housenumber":"414","addr:postcode":"4800","addr:state":"QLD","addr:street":"Hydeaway Bay Drive","addr:suburb":"Hideaway Bay","name":"Hydeaway Bay Caravan & Camping Park","source":"Bing"}},"245287563":{"location":[-20.2852074,148.6785537],"ct":"AU","tp":"CR","ts":"2025-03-06T07:24:03Z","tX":934,"tY":570,"tags":{"addr:housenumber":"25- 29","addr:street":"Shute Harbour Road","brand":"Big 4 Holiday Parks","brand:wikidata":"Q18636678","brand:wikipedia":"en:BIG4 Holiday Parks","email":"reservations@adventurewhitsunday.com.au","name":"BIG 4 Adventure Whitsunday Resort","phone":"+61 7 4948 5400","phone:AU":"1300 640 587","short_name":"Big4","source":"Bing","website":"https://www.adventurewhitsunday.com.au/"}},"245924818":{"location":[-20.2762091,148.7033016],"ct":"AU","tp":"CR","ts":"2014-01-04T14:15:30Z","tX":934,"tY":570,"tags":{"name":"Seabreeze Tourist Park"}},"8117001418":{"location":[-20.2759673,148.6987445],"ct":"AU","tp":"CS","ts":"2020-11-13T19:37:34Z","tX":934,"tY":570,"tags":{"name":"EJ stealth camp"}},"11057807540":{"location":[-20.1969617,148.3827547],"ct":"AU","tp":"CS","ts":"2023-07-21T01:20:59Z","tX":934,"tY":570,"tags":{"caravans":"yes","fee":"yes","name":"Ben Lomond Station camping","tents":"yes"}},"11752548903":{"location":[-20.28647,148.6782304],"ct":"AU","tp":"SD","ts":"2024-03-22T10:53:59Z","tX":934,"tY":570,"tags":{}},"12631393501":{"location":[-20.2752111,148.7023974],"ct":"AU","tp":"CR","ts":"2025-03-02T21:00:58Z","tX":934,"tY":570,"tags":{"addr:housenumber":"234","addr:postcode":"4802","addr:street":"Proserpine Shute Harbour Road","name":"NRMA Airlie Beach Holiday Park","website":"https://www.nrmaparksandresorts.com.au/airlie-beach/"}}}