{"223117931":{"location":[-20.5652791,148.6157884],"ct":"AU","tp":"CR","ts":"2014-08-03T10:38:18Z","tX":934,"tY":571,"tags":{"name":"O'connell River Whitsunday Tourist Park","source":"Bing"}},"242598016":{"location":[-20.3515092,148.5554679],"ct":"AU","tp":"CR","ts":"2022-02-03T03:09:04Z","tX":934,"tY":571,"tags":{"addr:housenumber":"13067","addr:postcode":"4800","addr:state":"QLD","addr:street":"Bruce Highway","addr:suburb":"Myrtlevale","name":"Gunna Go Caravan Park","source":"Bing"}},"525586593":{"location":[-20.404683,148.5713599],"ct":"AU","tp":"CR","ts":"2022-02-03T03:10:35Z","tX":934,"tY":571,"tags":{"addr:housenumber":"79","addr:postcode":"4800","addr:state":"QLD","addr:street":"Anzac Road","addr:suburb":"Proserpine","name":"Proserpine Tourist Park"}},"525586594":{"location":[-20.4053386,148.5720865],"ct":"AU","tp":"CR","ts":"2021-09-12T15:53:30Z","tX":934,"tY":571,"tags":{"name":"Proserpine Tourist Park"}},"846596285":{"location":[-20.3782688,148.3776631],"ct":"AU","tp":"CS","ts":"2020-09-12T00:39:17Z","tX":934,"tY":571,"tags":{"name":"Lake Proserpine Camp Area","operator":"Whitsunday Regional Council"}},"1811163773":{"location":[-20.3636712,148.3943368],"ct":"AU","tp":"CS","ts":"2014-01-10T11:57:27Z","tX":934,"tY":571,"tags":{"name":"Camp Kanga"}},"1811190919":{"location":[-20.5656954,148.6162395],"ct":"AU","tp":"CS","ts":"2014-01-09T08:29:23Z","tX":934,"tY":571,"tags":{}},"7230052573":{"location":[-20.4029834,148.5858575],"ct":"AU","tp":"CS","ts":"2020-02-20T11:01:09Z","tX":934,"tY":571,"tags":{"name":"Proserpine FREE Rv Park"}},"8843011817":{"location":[-20.4075153,148.6710224],"ct":"AU","tp":"CS","ts":"2024-08-27T07:17:37Z","tX":934,"tY":571,"tags":{"name":"Tourist Park"}}}