{"243864013":{"location":[45.0283956,-109.8956495],"ct":"US","tp":"CS","ts":"2019-02-17T12:46:16Z","tX":199,"tY":368,"tags":{"name":"Colter Campground","opening_hours":"Jul 7-Sep 7 unknown; Sep 8-Jul 6 closed","operator":"USDA","tents":"no","website":"https://www.fs.usda.gov/recarea/gallatin/recreation/camping-cabins/recarea/?recid=5589&actid=29"}},"243864015":{"location":[45.0238388,-109.9146785],"ct":"US","tp":"CS","ts":"2019-02-17T12:46:15Z","tX":199,"tY":368,"tags":{"name":"Soda Butte","opening_hours":"Jul 1-Sep 30 unknown; Oct 1-Jun 30 closed","operator":"USDA","tents":"no","website":"https://www.fs.usda.gov/recarea/gallatin/recreation/ohv/recarea/?recid=5623&actid=29"}},"243871059":{"location":[44.9424751,-109.7751869],"ct":"US","tp":"CS","ts":"2019-02-17T08:49:39Z","tX":199,"tY":368,"tags":{"name":"Crazy Creek","operator":"USDA","website":"https://www.fs.usda.gov/recarea/shoshone/recreation/camping-cabins/recarea/?recid=35861&actid=29"}},"243871062":{"location":[44.9766866,-109.8339706],"ct":"US","tp":"CS","ts":"2019-02-17T08:49:40Z","tX":199,"tY":368,"tags":{"caravans":"yes","name":"Fox Creek Campground","operator":"USDA","tents":"yes","website":"https://www.fs.usda.gov/recarea/shoshone/recarea/?recid=35889"}},"293638455":{"location":[44.9447033,-109.7132679],"ct":"US","tp":"CS","ts":"2014-07-21T04:19:26Z","tX":199,"tY":368,"tags":{"internet_access":"no","name":"Lily Lake Campground","operator":"USFS"}},"308050077":{"location":[44.9216929,-109.7071233],"ct":"US","tp":"CS","ts":"2014-10-16T13:14:00Z","tX":199,"tY":368,"tags":{"name":"Lake Creek Campground"}},"3064201365":{"location":[44.9231791,-110.0046328],"ct":"US","tp":"CS","ts":"2019-02-05T22:43:31Z","tX":199,"tY":368,"tags":{"backcountry":"yes","capacity":"12","caravans":"no","fee":"yes","name":"Upper Cache Creek","operator":"National Park Service","ref":"3C4","reservation":"required","tents":"yes","website":"https://www.nps.gov/yell/planyourvisit/backcountryhiking.htm"}},"9760591741":{"location":[44.9425173,-109.7760835],"ct":"US","tp":"CS","ts":"2022-05-21T21:43:55Z","tX":199,"tY":368,"tags":{"addr:city":"Cody","addr:postcode":"82414","addr:state":"WY","addr:street":"US-212","name":"Crazy Creek Campground","operator":"Shoshone National Forest"}},"11986211670":{"location":[44.9580781,-109.8107082],"ct":"US","tp":"CS","ts":"2024-06-17T18:55:02Z","tX":199,"tY":368,"tags":{"toilets":"no","water_source":"no"}}}