{"386558210":{"location":[42.8636987,-109.871953],"ct":"US","tp":"CS","ts":"2025-04-27T23:32:58Z","tX":199,"tY":376,"tags":{"addr:city":"Pinedale","addr:housenumber":"204","addr:postcode":"82941","addr:state":"WY","addr:street":"South Jackson Avenue","caravans":"no","drinking_water":"no","internet_access":"no","name:signed":"no","operator":"Town of Pinedale","shower":"no","tents":"yes"}},"391054348":{"location":[43.0060023,-109.75209],"ct":"US","tp":"CS","ts":"2022-07-23T18:43:19Z","tX":199,"tY":376,"tags":{"access":"yes","charge":"12","fee":"yes","name":"Trails End Campground","operator":"Bridger National Forest","payment:cash":"yes"}},"654779541":{"location":[42.9369928,-109.7611866],"ct":"US","tp":"CS","ts":"2018-12-13T18:43:29Z","tX":199,"tY":376,"tags":{"name":"Halfmoon Lake Campground"}},"1093705528":{"location":[42.8641679,-109.8828726],"ct":"US","tp":"CR","ts":"2022-09-12T02:59:14Z","tX":199,"tY":376,"tags":{"addr:city":"Pinedale","addr:housenumber":"1500","addr:postcode":"82941","addr:state":"WY","addr:street":"Wilson Street","area":"yes","capacity:caravans":"51","email":"307camping@gmail.com","name":"Yellowstone Trail RV Park","phone":"+1 307 360 7275","website":"https://www.yellowstonetrailrvpark.com/"}},"8543725014":{"location":[42.9415656,-109.7970426],"ct":"US","tp":"CS","ts":"2021-03-21T11:01:59Z","tX":199,"tY":376,"tags":{"name":"Fremont Lake Campground"}},"12165542811":{"location":[42.8674605,-109.8742288],"ct":"US","tp":"SD","ts":"2024-09-09T17:34:22Z","tX":199,"tY":376,"tags":{"access":"yes","fee":"yes","operator":"Town of Pinedale","water_point":"yes","water_point:fee":"yes"}}}