{"1055479968":{"location":[38.8287748,-109.7660234],"ct":"US","tp":"CS","ts":"2024-08-04T13:51:08Z","tX":199,"tY":391,"tags":{"addr:city":"Moab","addr:housenumber":"82","addr:postcode":"84532","addr:state":"UT","addr:street":"East Dogwood Avenue","capacity:motorcar":"6","capacity:persons":"20","caravans":"yes","charge":"100 USD/night","dog":"yes","fee":"yes","group_only":"yes","name":"North Klondike Bluffs Campground Group Sites","openfire":"yes","operator":"Bureau of Land Management","phone":"435-259-2100","picnic_table":"yes","reservation":"required","reservation:website":"https://www.recreation.gov/camping/campgrounds/10169589","tents":"yes","toilets":"yes","website":"https://www.blm.gov/visit/north-klondike-campground"}},"1055479972":{"location":[38.8255651,-109.7677958],"ct":"US","tp":"CS","ts":"2024-08-04T13:51:08Z","tX":199,"tY":391,"tags":{"access":"yes","addr:city":"Moab","addr:housenumber":"82","addr:postcode":"84532","addr:state":"UT","addr:street":"East Dogwood Avenue","capacity:caravans":"25","capacity:tents":"25","caravans":"yes","charge":"20 USD/night","dog":"yes","fee":"yes","group_only":"no","name":"North Klondike Bluffs Campground","openfire":"yes","operator":"Bureau of Land Management","phone":"435-259-2100","picnic_table":"yes","reservation":"no","reservation:website":"https://www.recreation.gov/camping/campgrounds/10169589","tents":"yes","toilets":"yes","website":"https://www.blm.gov/visit/north-klondike-campground"}},"1340604925":{"location":[38.9690473,-109.7138102],"ct":"US","tp":"CS","ts":"2024-12-06T18:01:22Z","tX":199,"tY":391,"tags":{"addr:street":"Ballard Avenue","caravans":"yes","internet_access":"wlan","name":"Ballard RV park","website":"http://moabrvpark.com/","wheelchair":"no"}},"4594286493":{"location":[38.9695624,-109.7138673],"ct":"US","tp":"CS","ts":"2022-07-05T03:29:35Z","tX":199,"tY":391,"tags":{"addr:street":"Ballard Avenue","caravans":"yes","internet_access":"wlan","name":"Ballard RV park","website":"http://moabrvpark.com/","wheelchair":"no"}},"9139295319":{"location":[38.9710146,-109.716492],"ct":"US","tp":"CS","ts":"2021-10-02T05:44:33Z","tX":199,"tY":391,"tags":{"addr:city":"Thompson Springs","addr:street":"West Old Highway 6 & 50","alt_name":"Desert Moon Hotel and RV Park","caravans":"yes","name":"The Desert Moon Hotel and RV Park","tents":"yes","website":"https://www.desertmoonrvpark.com/"}},"12041691353":{"location":[39.0337942,-109.7033158],"ct":"US","tp":"CS","ts":"2024-07-08T14:06:07Z","tX":199,"tY":391,"tags":{"backcountry":"yes","leisure":"firepit"}},"12041691354":{"location":[39.0310596,-109.7039361],"ct":"US","tp":"CS","ts":"2024-07-08T14:06:07Z","tX":199,"tY":391,"tags":{"backcountry":"yes","leisure":"firepit"}},"12041691355":{"location":[39.0459081,-109.7230783],"ct":"US","tp":"CS","ts":"2024-07-08T14:06:07Z","tX":199,"tY":391,"tags":{"backcountry":"yes","leisure":"firepit"}},"12041691356":{"location":[39.039922,-109.7240114],"ct":"US","tp":"CS","ts":"2024-07-08T14:06:07Z","tX":199,"tY":391,"tags":{"backcountry":"yes","leisure":"firepit"}},"12041691357":{"location":[39.0460118,-109.723815],"ct":"US","tp":"CS","ts":"2024-07-08T14:06:07Z","tX":199,"tY":391,"tags":{"backcountry":"yes","leisure":"firepit"}},"12041691358":{"location":[39.0195097,-109.7107689],"ct":"US","tp":"CS","ts":"2024-07-08T14:06:07Z","tX":199,"tY":391,"tags":{"backcountry":"yes"}},"12041691359":{"location":[39.0322708,-109.7048356],"ct":"US","tp":"CS","ts":"2024-07-08T14:06:07Z","tX":199,"tY":391,"tags":{"backcountry":"yes","leisure":"firepit"}}}