{"291946187":{"location":[23.7538936,120.7731993],"ct":"TW","tp":"CS","ts":"2014-07-08T16:36:03Z","tX":855,"tY":442,"tags":{"name":"麒麟潭東湖露營區"}},"291946188":{"location":[23.7537517,120.7722095],"ct":"TW","tp":"CS","ts":"2014-07-08T16:36:03Z","tX":855,"tY":442,"tags":{"name":"麒麟潭波斯園營地"}},"292008818":{"location":[23.7533078,120.7708365],"ct":"TW","tp":"CS","ts":"2014-07-09T00:00:50Z","tX":855,"tY":442,"tags":{"name":"麒麟潭湖畔營地"}},"376654369":{"location":[23.6781955,120.798068],"ct":"TW","tp":"CS","ts":"2025-03-08T14:18:15Z","tX":855,"tY":442,"tags":{"name":"溪頭露營區"}},"440875162":{"location":[23.8358856,120.8983921],"ct":"TW","tp":"CS","ts":"2024-05-13T07:53:11Z","tX":855,"tY":442,"tags":{"name":"頭社水庫露營區","name:en":"Toushe Reservoir Camping Area"}},"470674020":{"location":[23.8847073,120.6101038],"ct":"TW","tp":"CS","ts":"2017-02-01T06:58:42Z","tX":855,"tY":442,"tags":{"name":"清水岩童軍營地"}},"528625708":{"location":[23.6782487,120.7977125],"ct":"TW","tp":"CS","ts":"2023-08-10T03:36:24Z","tX":855,"tY":442,"tags":{"name":"A區"}},"528625710":{"location":[23.6780762,120.7980048],"ct":"TW","tp":"CS","ts":"2023-08-10T03:36:24Z","tX":855,"tY":442,"tags":{"name":"B區"}},"528625713":{"location":[23.6779309,120.798575],"ct":"TW","tp":"CS","ts":"2023-08-10T03:36:24Z","tX":855,"tY":442,"tags":{"name":"C區"}},"746296429":{"location":[23.7002995,120.6456113],"ct":"TW","tp":"CS","ts":"2023-09-19T10:50:26Z","tX":855,"tY":442,"tags":{"addr:city":"南投縣","addr:country":"TW","addr:district":"竹山鎮","addr:full":"南投縣竹山鎮鯉魚里鯉行路152號","addr:housenumber":"152","addr:province":"台灣省","addr:street":"鯉行路","name":"竹山鎮盈樟農場 牛母坪露營區","operator":"余老闆","phone":"+886 933 651 978","website":"http://www.lugu.com.tw/yingjhang/"}},"854777480":{"location":[23.8853594,120.8937411],"ct":"TW","tp":"CS","ts":"2020-10-04T01:38:58Z","tX":855,"tY":442,"tags":{"name":"青綠園"}},"868965705":{"location":[23.8727951,120.9143767],"ct":"TW","tp":"CS","ts":"2020-11-10T06:22:42Z","tX":855,"tY":442,"tags":{"name":"斗內籽露營區"}},"1001894436":{"location":[23.8668757,120.9038479],"ct":"TW","tp":"CS","ts":"2024-05-12T06:19:37Z","tX":855,"tY":442,"tags":{"caravans":"yes","drinking_water":"yes","name":"畢瓦客露營地","name:en":"Biwak","shower":"yes","tents":"yes"}},"1016046312":{"location":[23.8507806,120.9349973],"ct":"TW","tp":"CS","ts":"2024-05-11T06:39:41Z","tX":855,"tY":442,"tags":{"caravans":"no","drinking_water":"yes","name":"帖泊喀露營區","old_name":"盤石露營區","shower":"yes","tents":"yes"}},"1198896244":{"location":[23.8434988,120.9281337],"ct":"TW","tp":"CS","ts":"2023-08-17T08:14:14Z","tX":855,"tY":442,"tags":{"name":"日月潭齊樂事露營區"}},"1907771292":{"location":[23.5830988,120.8025517],"ct":"TW","tp":"CS","ts":"2018-12-06T00:24:41Z","tX":855,"tY":442,"tags":{"name":"水漾森林營地"}},"4505707896":{"location":[23.6820219,120.7252849],"ct":"TW","tp":"CS","ts":"2016-11-17T07:05:39Z","tX":855,"tY":442,"tags":{"addr:street":"頂林路","name":"竹內露營區","name:zh":"竹內露營區"}},"4535566891":{"location":[23.8172686,120.8858491],"ct":"TW","tp":"CS","ts":"2023-08-05T14:58:24Z","tX":855,"tY":442,"tags":{"addr:city":"南投縣","addr:country":"TW","addr:district":"魚池鄉","addr:housenumber":"18","addr:postcode":"55547","addr:province":"台灣省","addr:street":"銃櫃巷","internet_access":"wlan","name":"日月潭特色遊學中心","name:en":"Atunas Taiwan Outdoor Center","name:zh":"歐都納戶外山野勇氣館","opening_hours":"We-Mo 09:00-17:00","phone":"+886 49 286 1723"}},"5006184509":{"location":[23.5953068,120.8150086],"ct":"TW","tp":"CS","ts":"2020-01-11T12:59:43Z","tX":855,"tY":442,"tags":{"name":"巨石營地"}},"5006243165":{"location":[23.6079791,120.8195256],"ct":"TW","tp":"CS","ts":"2020-01-11T12:59:43Z","tX":855,"tY":442,"tags":{"name":"獵寮"}},"5300338097":{"location":[23.7015831,120.7164761],"ct":"TW","tp":"CS","ts":"2023-08-08T07:46:34Z","tX":855,"tY":442,"tags":{"addr:city":"南投縣","addr:country":"TW","addr:district":"竹山鎮","addr:housenumber":"19-15","addr:place":"大鞍里","addr:postcode":"557","addr:province":"台灣省","addr:street":"竹寮巷","camp_site":"standard","name":"神采奕奕露營區","phone":"+886 931 993 095","website":"https://www.facebook.com/神采奕奕露營區-1187176038032546/"}},"6120203380":{"location":[23.5748092,120.8092636],"ct":"TW","tp":"CS","ts":"2018-12-05T23:41:24Z","tX":855,"tY":442,"tags":{"name":"酒瓶營地"}},"6120237894":{"location":[23.5922771,120.8027914],"ct":"TW","tp":"CS","ts":"2018-12-06T00:24:39Z","tX":855,"tY":442,"tags":{"name":"杉木營地"}},"6300356341":{"location":[23.6004509,120.8867784],"ct":"TW","tp":"CS","ts":"2019-02-25T02:11:49Z","tX":855,"tY":442,"tags":{"name":"瑪兒莎莎露營區"}},"6300356343":{"location":[23.6007408,120.8868826],"ct":"TW","tp":"CS","ts":"2019-02-25T02:11:49Z","tX":855,"tY":442,"tags":{"name":"薩曼卡露營區"}},"6300356344":{"location":[23.600711,120.8871454],"ct":"TW","tp":"CS","ts":"2019-02-25T02:11:49Z","tX":855,"tY":442,"tags":{"name":"迪仰露營區"}},"6300356357":{"location":[23.6021145,120.8884035],"ct":"TW","tp":"CS","ts":"2019-02-25T02:11:49Z","tX":855,"tY":442,"tags":{"name":"五餅二魚露營區"}},"6535289252":{"location":[23.8440252,120.9051435],"ct":"TW","tp":"CS","ts":"2020-04-26T21:59:23Z","tX":855,"tY":442,"tags":{"name":"月牙灣營地"}},"6979925123":{"location":[23.6912611,120.773448],"ct":"TW","tp":"CS","ts":"2019-11-15T14:33:33Z","tX":855,"tY":442,"tags":{"name":"一陽露營區"}},"7051591886":{"location":[23.5756678,120.7906233],"ct":"TW","tp":"CS","ts":"2020-02-25T06:04:09Z","tX":855,"tY":442,"tags":{"covered":"yes","name":"千人洞營地","name:en":"Thousand People Cave Campsite","name:zh":"千人洞營地","opening_hours":"24/7","operator":"Mother Nature"}},"7051621385":{"location":[23.5797068,120.7998044],"ct":"TW","tp":"CS","ts":"2019-12-12T10:31:58Z","tX":855,"tY":442,"tags":{}},"7051621585":{"location":[23.5744334,120.7856864],"ct":"TW","tp":"CS","ts":"2019-12-12T10:32:02Z","tX":855,"tY":442,"tags":{}},"11395821269":{"location":[23.6657731,120.7874729],"ct":"TW","tp":"CS","ts":"2023-12-05T10:40:50Z","tX":855,"tY":442,"tags":{}}}