{"16400421":{"location":[23.4636574,120.7050206],"ct":"TW","tp":"CS","ts":"2023-09-30T13:54:41Z","tX":855,"tY":443,"tags":{"name":"晨光"}},"1103106420":{"location":[23.4217246,120.6516443],"ct":"TW","tp":"CS","ts":"2022-10-12T07:35:30Z","tX":855,"tY":443,"tags":{"name":"星月傳説"}},"1174704907":{"location":[23.4631095,120.6954046],"ct":"TW","tp":"CS","ts":"2023-05-21T06:39:45Z","tX":855,"tY":443,"tags":{"name":"山波△露營"}},"1174704910":{"location":[23.4624066,120.7007351],"ct":"TW","tp":"CS","ts":"2023-05-21T06:39:45Z","tX":855,"tY":443,"tags":{"name":"來灣哈露營區"}},"1212053281":{"location":[23.4536159,120.7177229],"ct":"TW","tp":"CS","ts":"2023-09-30T13:54:41Z","tX":855,"tY":443,"tags":{"name":"福山星月"}},"1212053282":{"location":[23.4559542,120.719026],"ct":"TW","tp":"CS","ts":"2023-09-30T13:54:41Z","tX":855,"tY":443,"tags":{"name":"杉緣星空"}},"1212053284":{"location":[23.47348,120.7603903],"ct":"TW","tp":"CS","ts":"2023-09-30T13:54:41Z","tX":855,"tY":443,"tags":{"name":"蝶戀"}},"1212053305":{"location":[23.4523899,120.7344103],"ct":"TW","tp":"CS","ts":"2023-09-30T13:54:41Z","tX":855,"tY":443,"tags":{"name":"老鼠溪營地B區"}},"1212053308":{"location":[23.4524578,120.7351514],"ct":"TW","tp":"CS","ts":"2024-08-17T02:47:23Z","tX":855,"tY":443,"tags":{"name":"老鼠溪營地C區"}},"1212053309":{"location":[23.4598891,120.7097686],"ct":"TW","tp":"CS","ts":"2023-09-30T13:54:41Z","tX":855,"tY":443,"tags":{"name":"禾田農莊"}},"1212053316":{"location":[23.4625127,120.6969341],"ct":"TW","tp":"CS","ts":"2023-09-30T13:54:41Z","tX":855,"tY":443,"tags":{"name":"來彎哈B區"}},"1212053318":{"location":[23.4611641,120.6983686],"ct":"TW","tp":"CS","ts":"2023-09-30T13:54:41Z","tX":855,"tY":443,"tags":{"name":"汪爸"}},"1212053319":{"location":[23.4601959,120.6976478],"ct":"TW","tp":"CS","ts":"2023-09-30T13:54:41Z","tX":855,"tY":443,"tags":{"name":"羅老爸的家"}},"4819720033":{"location":[23.3846718,120.6663822],"ct":"TW","tp":"CS","ts":"2023-07-08T03:16:53Z","tX":855,"tY":443,"tags":{"name":"舒壓莎露營區"}},"6009117786":{"location":[23.5632674,120.6488634],"ct":"TW","tp":"CS","ts":"2023-08-05T16:10:41Z","tX":855,"tY":443,"tags":{"addr:city":"嘉義縣","addr:country":"TW","addr:district":"梅山鄉","addr:housenumber":"15-1","addr:province":"台灣省","addr:street":"二坪仔","name":"29.5k咖啡莊園","phone":"+886 937 650 166"}},"7568736285":{"location":[23.4942131,120.6854489],"ct":"TW","tp":"CS","ts":"2023-08-21T10:09:45Z","tX":855,"tY":443,"tags":{"addr:city":"嘉義縣","addr:country":"TW","addr:district":"竹崎鄉","addr:full":"604嘉義縣竹崎鄉光華村頂笨宅1鄰2-2號","addr:housenumber":"2-2","addr:place":"頂笨宅","addr:postcode":"604","addr:province":"台灣省","name":"仙坪露營區","opening_hours":"24/7","phone":"+886 910 750 719","website":"https://052561187.ego.tw/"}},"10588755205":{"location":[23.4448789,120.606717],"ct":"TW","tp":"CS","ts":"2023-01-28T11:10:01Z","tX":855,"tY":443,"tags":{"name":"花田小露露營區","phone":"0916 215 718"}},"10836459243":{"location":[23.445504,120.8191147],"ct":"TW","tp":"CS","ts":"2023-04-24T07:11:14Z","tX":855,"tY":443,"tags":{"name":"南鞍營地"}},"11518318497":{"location":[23.4430784,120.647846],"ct":"TW","tp":"CS","ts":"2024-01-15T05:39:18Z","tX":855,"tY":443,"tags":{"name":"星知心露營地"}},"11934509569":{"location":[23.5348843,120.7958208],"ct":"TW","tp":"CR","ts":"2024-05-26T08:09:40Z","tX":855,"tY":443,"tags":{"name":"塔山車站木棧板撘營區"}}}