{"301805746":{"location":[21.9362934,120.7151411],"ct":"TW","tp":"CS","ts":"2014-09-04T15:34:46Z","tX":855,"tY":448,"tags":{}},"301806562":{"location":[21.9360495,120.7161012],"ct":"TW","tp":"CS","ts":"2024-02-25T01:51:04Z","tX":855,"tY":448,"tags":{}},"4786403974":{"location":[21.9350064,120.8159654],"ct":"TW","tp":"CS","ts":"2023-08-08T07:46:34Z","tX":855,"tY":448,"tags":{"addr:city":"屏東縣","addr:country":"TW","addr:district":"恆春鎮","addr:housenumber":"938","addr:province":"台灣省","addr:street":"屏鵝路","description":"Dirt cheap camping next to the ocean (rocky). On 04/2017 150NT per person. Hot shower, electricity and lighting available. Boss doesn't speak English. Next sandy beach ~400m away, Kenting ~1,800m. The place could use some love, but at 150NT well worth it.","name":"Camping area"}},"7928622065":{"location":[21.9120073,120.8483345],"ct":"TW","tp":"CS","ts":"2024-02-25T06:07:02Z","tX":855,"tY":448,"tags":{"addr:city":"屏東縣","addr:country":"TW","addr:district":"恆春鎮","addr:housenumber":"200-1","addr:place":"鵝鑾里","addr:province":"台灣省","addr:street":"砂島路","contact:facebook":"https://www.facebook.com/camping.sandisland/","contact:website":"https://ktsandisland.weebly.com","name":"沙島露營區"}}}