{"4281483689":{"location":[19.7978968,96.1854],"ct":"MM","tp":"CS","ts":"2016-07-04T06:11:09Z","tX":785,"tY":454,"tags":{"name":"စစ္​​ေၾကာ​ေရး"}},"4704910990":{"location":[19.801811,96.2916667],"ct":"MM","tp":"CS","ts":"2017-02-25T09:58:18Z","tX":785,"tY":454,"tags":{"name:en":"MINE CAMP"}},"4710916289":{"location":[19.7979146,96.285874],"ct":"MM","tp":"CS","ts":"2018-01-25T18:56:23Z","tX":785,"tY":454,"tags":{"name:en":"PRADE GROUND START"}},"4875284722":{"location":[19.7674362,96.048857],"ct":"MM","tp":"CS","ts":"2022-04-22T08:06:25Z","tX":785,"tY":454,"tags":{"name:en":"Sports Village"}},"5107792830":{"location":[19.8254496,96.1854293],"ct":"MM","tp":"CS","ts":"2017-09-15T16:21:33Z","tX":785,"tY":454,"tags":{"name:en":"၉၂၀"}},"5119073125":{"location":[19.7361863,96.0418722],"ct":"MM","tp":"CS","ts":"2017-09-21T07:17:13Z","tX":785,"tY":454,"tags":{"name:en":"MA EI EI SOE"}},"5147234522":{"location":[19.7350769,96.0443438],"ct":"MM","tp":"CS","ts":"2021-09-29T17:48:46Z","tX":785,"tY":454,"tags":{"name":"သီရိမဂၤလာရြာထိပ္"}},"5147234524":{"location":[19.8672402,96.1848682],"ct":"MM","tp":"CS","ts":"2017-10-04T10:43:47Z","tX":785,"tY":454,"tags":{"name:en":"Maj;MYO WIN SHEIN"}},"5147264421":{"location":[19.7195847,96.1445076],"ct":"MM","tp":"CS","ts":"2017-10-04T10:43:37Z","tX":785,"tY":454,"tags":{"name:en":"KYAR BIN"}},"5147264921":{"location":[19.7172514,96.1457352],"ct":"MM","tp":"CS","ts":"2017-10-04T10:43:40Z","tX":785,"tY":454,"tags":{"name:en":"KYARBIN 2"}},"5174058022":{"location":[19.7543988,96.1980452],"ct":"MM","tp":"CS","ts":"2017-10-18T04:40:16Z","tX":785,"tY":454,"tags":{"name:en":"U SOE THIN"}},"5227832021":{"location":[19.8744908,96.0051941],"ct":"MM","tp":"CS","ts":"2017-11-14T08:38:25Z","tX":785,"tY":454,"tags":{"name:en":"Nga Light Dam Elephant Camp"}},"5252025024":{"location":[19.7360433,96.1346433],"ct":"MM","tp":"CS","ts":"2021-09-29T17:35:33Z","tX":785,"tY":454,"tags":{"name":"တည္းခိုခန္း"}},"6539249385":{"location":[19.7726147,96.3125865],"ct":"MM","tp":"CS","ts":"2019-06-11T10:24:04Z","tX":785,"tY":454,"tags":{"name:en":"DHPI"}},"6979299985":{"location":[19.8526127,96.3025326],"ct":"MM","tp":"CS","ts":"2021-09-29T17:11:55Z","tX":785,"tY":454,"tags":{"name":"အဆောင် ၁"}},"6300709185":{"location":[19.6852237,96.1141136],"ct":"MM","tp":"CR","ts":"2019-02-25T08:33:11Z","tX":785,"tY":454,"tags":{"name:en":"PARK ROYAL ENTRANCE"}}}