{"4580618491":{"location":[16.8371933,96.1161012],"ct":"MM","tp":"CS","ts":"2021-09-29T17:57:25Z","tX":785,"tY":463,"tags":{"name":"အခြန္ရံုးကမာရြတ္"}},"4592249789":{"location":[16.7969263,96.2203485],"ct":"MM","tp":"CS","ts":"2017-01-06T09:05:55Z","tX":785,"tY":463,"tags":{"name:en":"သာေကတ"}},"4685625989":{"location":[16.7811227,96.1730725],"ct":"MM","tp":"CS","ts":"2017-02-14T17:59:45Z","tX":785,"tY":463,"tags":{"addr:housenumber":"no.21","addr:postcode":"095","addr:street":"ဝိဇယလမ္း"}},"4735688628":{"location":[16.8942647,96.1773055],"ct":"MM","tp":"CS","ts":"2017-03-15T08:25:11Z","tX":785,"tY":463,"tags":{"name:en":"Rema Orphans Charity"}},"5147234523":{"location":[16.8418832,96.2252154],"ct":"MM","tp":"CS","ts":"2021-09-29T17:32:20Z","tX":785,"tY":463,"tags":{"name":"ခ်မ္းေျမ႕ရိပ္"}},"5242011822":{"location":[16.891407,96.1173842],"ct":"MM","tp":"CS","ts":"2018-03-02T07:48:16Z","tX":785,"tY":463,"tags":{"name":"မြင့်မိုရ် Myint Mo","name:en":"Myint Mo","name:my":"မြင့်မိုရ်"}},"6114429486":{"location":[16.8331807,96.1876683],"ct":"MM","tp":"CS","ts":"2024-07-12T03:15:20Z","tX":785,"tY":463,"tags":{"addr:street":"သုမင်္ဂလာလမ်း Thu Mingala Road","name":"ဓမ္မပီယ ကျောင်းတိုက်","name:en":"DaMaPiYa Monasteries"}},"6130166485":{"location":[16.7407503,96.246155],"ct":"MM","tp":"CS","ts":"2018-12-11T08:44:08Z","tX":785,"tY":463,"tags":{"name:en":"Thanlyin plot"}},"4392937089":{"location":[16.8288774,96.2335116],"ct":"MM","tp":"CR","ts":"2017-11-04T19:25:59Z","tX":785,"tY":463,"tags":{"addr:housenumber":"1445","addr:postcode":"11431","addr:street":"pann hlaing street ,","email":"gmesteel@gmail.com","name:am":"GME,စတီး-သံ စက္မႈလက္မႈအမွတ္ 1445. ပန္းလႈိင္လမ္း,63 ရပ္ကြက္,ဒဂံုၿမိဳ႕သစ္ ေတာင္ပိုင္း,စက္မႈဇုန္ 2 , ရန္ကုန္ ဆက္သြယ္ရန္ ဖုန္း- 09421163562","name:en":"South Dagon Industrial Zone 2,yangon","opening_hours":"Mo-Sa 08:20-17:00","operator":"တင္ေအာင္ဝင္း စတီးအလုပ့္ရံု","phone":"+959421163562","website":"https://www.facebook.com/Steel-Global-GME-979112835519082"}},"4529650894":{"location":[16.852459,96.1665928],"ct":"MM","tp":"CR","ts":"2017-09-07T05:04:44Z","tX":785,"tY":463,"tags":{"name":"ငွေကြာရံရိပ်သာ ပါရမီ","name:my":"ငွေကြာရံရိပ်သာ ပါရမီ"}}}