{"1369709241":{"location":[46.9786932,-65.320109],"ct":"CA","tp":"CS","ts":"2025-03-20T18:25:03Z","tX":326,"tY":360,"tags":{"addr:city":"Black River Bridge","addr:country":"CA","addr:housenumber":"116","addr:postcode":"E1N 5S4","addr:street":"North Black River Road","cabins":"yes","caravans":"yes","email":"miramichitreehouse.camping@gmail.com","motorhome":"yes","name":"Miramichi Treehouse & Camping Adventures","phone":"+1 506 7736252","tents":"yes","website":"https://www.campingmiramichi.com"}},"1724719043":{"location":[46.9549655,-65.3005839],"ct":"CA","tp":"CS","ts":"2012-04-20T23:37:21Z","tX":326,"tY":360,"tags":{"source":"NRCan-CanVec-8.0"}},"1724761444":{"location":[46.8806067,-65.2361071],"ct":"CA","tp":"CS","ts":"2012-04-21T00:30:18Z","tX":326,"tY":360,"tags":{"source":"NRCan-CanVec-8.0"}},"6742648064":{"location":[46.9784162,-65.3202705],"ct":"CA","tp":"CS","ts":"2019-09-01T14:14:47Z","tX":326,"tY":360,"tags":{"addr:city":"Black River Bridge","addr:housenumber":"116","addr:postcode":"E1N 5S4","addr:street":"N Black River Rd","name":"Camping Miramichi","phone":"+1-506-773-6252","website":"http://www.miramichicamping.com"}},"12685167782":{"location":[46.9782998,-65.3198093],"ct":"CA","tp":"SD","ts":"2025-03-20T17:09:47Z","tX":326,"tY":360,"tags":{}}}