{"499236429":{"location":[-19.0430854,-65.2551218],"ct":"BO","tp":"CS","ts":"2025-06-22T10:55:11Z","tX":326,"tY":567,"tags":{"addr:city":"Sucre","addr:country":"BO","addr:housenumber":"89","addr:street":"Avel Arduz","bar":"no","camp_type":"established","caravans":"yes","description":"Place for up to 4 vehicles. If nobody is there check at Aniceto Arce 416, just around the corner, where the owners live.","dish_washing":"yes","dryer":"no","fee":"BOB 100 (2 adults, camper)","fenced":"protecting","fireplace":"no","general_room":"yes","guarded":"no","internet":"wifi","kitchen":"yes","laundry":"yes","name":"Alberto y Felicidad","payment:credit_card":"no","pets":"yes","picnic_benches":"no","power_supply":"yes","power_supply:voltage":"220","restaurant":"no","sanitary_dumpstation":"no","shop":"no","shower":"warm","source":"Survey","swimming_pool":"no","tents":"yes","toilets:disposal":"flush","toilets:position":"seated","washing_machine":"no","water:location":"central","water:quality":"potable"}},"1209784052":{"location":[-19.0518241,-65.2402555],"ct":"BO","tp":"CR","ts":"2023-09-21T15:43:02Z","tX":326,"tY":567,"tags":{"addr:city":"Sucre","addr:neighbourhood":"San Antonio","addr:street":"AV. San Antonio","name":"Parqueo de Autos"}},"7172755685":{"location":[-19.0442713,-65.2590517],"ct":"BO","tp":"CS","ts":"2020-01-30T16:53:30Z","tX":326,"tY":567,"tags":{"name:en":"한인식당","name:ko":"한인식당"}}}