{"150418426":{"location":[-40.8047196,-65.0840786],"ct":"AR","tp":"CS","ts":"2019-10-29T05:43:38Z","tX":326,"tY":639,"tags":{"name":"Mutual Policía de Río Negro"}},"150418428":{"location":[-40.8043032,-65.0830635],"ct":"AR","tp":"CS","ts":"2019-11-04T18:01:16Z","tX":326,"tY":639,"tags":{"addr:city":"Las Grutas","addr:housenumber":"555","addr:postcode":"8521","addr:street":"Sierra Grande","name":"SOECYT - Sindicato de Obreros y Empleados de Correo/Telecom"}},"150418429":{"location":[-40.8050218,-65.0852277],"ct":"AR","tp":"CS","ts":"2019-10-28T23:31:38Z","tX":326,"tY":639,"tags":{"name":"FOYEM - Federación de Obreros y Empleados Municipales"}},"150568311":{"location":[-40.8057385,-65.0833176],"ct":"AR","tp":"CS","ts":"2019-11-04T20:22:22Z","tX":326,"tY":639,"tags":{"addr:city":"Las Grutas","addr:housenumber":"150","addr:postcode":"8521","addr:street":"Avenida Río Negro","name":"UPCN - Unión del Personal Civil de la Nación"}},"150572403":{"location":[-40.8092823,-65.0898332],"ct":"AR","tp":"CS","ts":"2019-11-04T20:22:22Z","tX":326,"tY":639,"tags":{"addr:city":"Las Grutas","addr:housenumber":"750","addr:postcode":"8521","addr:street":"Avenida Río Negro","name":"Mutual Banco Provincia de Río Negro"}},"150572417":{"location":[-40.8080175,-65.0909828],"ct":"AR","tp":"CS","ts":"2019-11-05T19:43:32Z","tX":326,"tY":639,"tags":{"addr:city":"Las Grutas","addr:housenumber":"750","addr:postcode":"8521","addr:street":"Avenida San Antonio","name":"Guardalaola"}},"649612028":{"location":[-40.7980304,-65.0656175],"ct":"AR","tp":"CS","ts":"2019-10-28T23:31:38Z","tX":326,"tY":639,"tags":{"access":"yes","addr:city":"Las Grutas","addr:housenumber":"1170","addr:postcode":"8521","addr:street":"Avenida Currú Leuvú","capacity":"100","fee":"yes","internet_access":"yes","internet_access:fee":"no","name":"SOSUNC - Servicio de Obra Social de la Universidad Nacional del Comahue","operator":"SOSUNC"}},"739679202":{"location":[-40.8024446,-65.0816913],"ct":"AR","tp":"CS","ts":"2019-10-29T05:43:38Z","tX":326,"tY":639,"tags":{"name":"Mutual Para el Magisterio Rionegrino"}},"739679203":{"location":[-40.8011848,-65.0820157],"ct":"AR","tp":"CS","ts":"2019-11-04T22:58:16Z","tX":326,"tY":639,"tags":{"addr:city":"Las Grutas","addr:housenumber":"290","addr:postcode":"8521","addr:street":"Colectora","name":"ISSN - Instituto de Seguridad Social del Neuquén"}},"739679204":{"location":[-40.799803,-65.0689598],"ct":"AR","tp":"CS","ts":"2019-10-28T23:31:38Z","tX":326,"tY":639,"tags":{"name":"Golfo Azul - Personal de la Policía del Neuquén"}},"739679205":{"location":[-40.7985523,-65.0661555],"ct":"AR","tp":"CS","ts":"2019-10-28T23:31:38Z","tX":326,"tY":639,"tags":{"name":"Mutual Poder Judicial de Río Negro"}},"739679206":{"location":[-40.7990231,-65.0646072],"ct":"AR","tp":"CS","ts":"2019-10-29T05:43:38Z","tX":326,"tY":639,"tags":{"addr:city":"Las Grutas","addr:housenumber":"1235","addr:postcode":"8521","addr:street":"Avenida Currú Leuvú","name":"Círculo de Legisladores de Río Negro"}},"739714411":{"location":[-40.7975369,-65.0680113],"ct":"AR","tp":"CS","ts":"2019-10-29T05:43:38Z","tX":326,"tY":639,"tags":{"name":"Mutullama"}},"741321077":{"location":[-40.8038868,-65.0836907],"ct":"AR","tp":"CS","ts":"2019-11-04T18:01:16Z","tX":326,"tY":639,"tags":{"addr:city":"Las Grutas","addr:housenumber":"675","addr:postcode":"8521","addr:street":"Sierra Grande","name":"Para La Familia"}},"741321104":{"location":[-40.8062436,-65.0842554],"ct":"AR","tp":"CS","ts":"2019-11-04T18:01:16Z","tX":326,"tY":639,"tags":{"addr:city":"Las Grutas","addr:housenumber":"230","addr:postcode":"8521","addr:street":"Avenida Río Negro","name":"Amoem"}},"741321110":{"location":[-40.8050434,-65.0818761],"ct":"AR","tp":"CS","ts":"2019-11-04T18:01:16Z","tX":326,"tY":639,"tags":{"addr:city":"Las Grutas","addr:housenumber":"82","addr:postcode":"8521","addr:street":"Avenida Río Negro","name":"Personal del DPA - Departamento Provincial de Aguas"}},"772457698":{"location":[-40.8420549,-65.1251125],"ct":"AR","tp":"CS","ts":"2020-02-14T15:57:17Z","tX":326,"tY":639,"tags":{"name":"Camping Piedras Coloradas"}}}