{"113980595":{"location":[45.6632374,-82.2632963],"ct":"CA","tp":"CR","ts":"2023-11-19T09:17:04Z","tX":278,"tY":365,"tags":{"addr:housenumber":"5466","addr:street":"Highway 551","capacity":"250","internet_access":"wlan","name":"Providence Bay Tent & Trailer Park","phone":"+1-705-377-4650","power_supply":"yes","sanitary_dump_station":"yes","website":"https://www.manitoulin-island.com/providencebaypark/"}},"113998921":{"location":[45.7410323,-82.2425219],"ct":"CA","tp":"CS","ts":"2011-05-19T18:38:23Z","tX":278,"tY":365,"tags":{"source":"NRCan-CanVec-7.0"}},"355210367":{"location":[45.6661828,-81.9680505],"ct":"CA","tp":"CS","ts":"2023-06-07T16:37:51Z","tX":278,"tY":365,"tags":{"addr:city":"Tehkummah","addr:housenumber":"18777","addr:postcode":"P0P 2C0","addr:province":"ON","addr:street":"Highway 6","fee":"yes","name":"Manitoulin Eco Park","phone":"+1-705-859-2470","website":"https://www.manitoulinecopark.com/"}},"373915863":{"location":[45.7517487,-82.1598881],"ct":"CA","tp":"CS","ts":"2022-05-26T22:18:18Z","tX":278,"tY":365,"tags":{"name":"Idyll Glenn Road","phone":"+1-705-929-4952","source":"NRCan-CanVec-7.0;mapbox","website":"https://idyllglen.ca/"}},"1390975791":{"location":[45.7507133,-82.1919016],"ct":"CA","tp":"CS","ts":"2011-08-08T15:20:05Z","tX":278,"tY":365,"tags":{"source":"NRCan-CanVec-7.0"}},"1390995097":{"location":[45.8263547,-82.1571095],"ct":"CA","tp":"CS","ts":"2011-08-08T15:32:48Z","tX":278,"tY":365,"tags":{"source":"NRCan-CanVec-7.0"}},"1391408696":{"location":[45.7826124,-81.9482805],"ct":"CA","tp":"CS","ts":"2011-08-08T20:07:33Z","tX":278,"tY":365,"tags":{"source":"NRCan-CanVec-7.0"}},"1391468302":{"location":[45.715092,-81.9194596],"ct":"CA","tp":"CS","ts":"2015-10-02T18:36:28Z","tX":278,"tY":365,"tags":{"name":"L & J Tent and Trailer Park","source":"NRCan-CanVec-7.0"}},"1391477822":{"location":[45.6963967,-81.9811218],"ct":"CA","tp":"CS","ts":"2011-08-08T20:45:41Z","tX":278,"tY":365,"tags":{"source":"NRCan-CanVec-7.0"}}}