{"172671886":{"location":[40.5707733,-82.1894659],"ct":"US","tp":"CS","ts":"2022-08-11T19:04:40Z","tX":278,"tY":385,"tags":{"access":"customers","addr:city":"Loudonville","addr:housenumber":"23270","addr:postcode":"44842","addr:state":"OH","addr:street":"Wally Road","caravans":"yes","description":"Not Affiliated with any Indian Tribe","fee":"yes","name":"Mohican Reservation Campgrounds & Canoeing","phone":"+1-740-599-6631","tents":"yes","website":"https://mohicanreservation.com"}},"172671890":{"location":[40.5910741,-82.1895535],"ct":"US","tp":"CS","ts":"2019-12-31T20:09:10Z","tX":278,"tY":385,"tags":{"name":"Wally World Riverside Resort"}},"172671891":{"location":[40.593265,-82.2128212],"ct":"US","tp":"CR","ts":"2020-01-09T19:20:24Z","tX":278,"tY":385,"tags":{"name":"Arrow Point Family Campground"}},"373111406":{"location":[40.5215303,-82.1953948],"ct":"US","tp":"CS","ts":"2019-12-21T18:41:34Z","tX":278,"tY":385,"tags":{}},"373111407":{"location":[40.5237543,-82.1953808],"ct":"US","tp":"CS","ts":"2015-09-30T22:14:45Z","tX":278,"tY":385,"tags":{}},"591851053":{"location":[40.6168634,-82.2582852],"ct":"US","tp":"CR","ts":"2022-10-03T14:38:24Z","tX":278,"tY":385,"tags":{"addr:state":"OH","name":"Mohican Adventures Campground","phone":"+1-419-994-2267","website":"https://www.mohicanadventures.com/campground/"}},"591851059":{"location":[40.609933,-82.2652201],"ct":"US","tp":"CR","ts":"2024-12-11T22:03:56Z","tX":278,"tY":385,"tags":{"name":"Mohican State Park - Class A","website":"https://ohiodnr.gov/go-and-do/plan-a-visit/find-a-property/mohican-state-park-campground"}},"649206878":{"location":[40.6126747,-82.2512671],"ct":"US","tp":"CR","ts":"2018-11-26T16:18:37Z","tX":278,"tY":385,"tags":{}},"649206879":{"location":[40.6113451,-82.2520369],"ct":"US","tp":"CR","ts":"2018-11-26T16:18:37Z","tX":278,"tY":385,"tags":{"caravans":"yes","impromptu":"no","name":"River Run Family Campground and Canoe","openfire":"yes"}},"740529776":{"location":[40.5555121,-81.9487026],"ct":"US","tp":"CS","ts":"2019-10-30T21:37:52Z","tX":278,"tY":385,"tags":{"name":"Campground"}},"759911648":{"location":[40.5517064,-82.1994871],"ct":"US","tp":"CR","ts":"2019-12-31T20:09:08Z","tX":278,"tY":385,"tags":{"name":"Mohican Wilderness Campground"}},"759911651":{"location":[40.5938083,-82.2022712],"ct":"US","tp":"CR","ts":"2019-12-31T20:09:08Z","tX":278,"tY":385,"tags":{"name":"Smith's Family Campground"}},"1151585465":{"location":[40.6434224,-82.0656126],"ct":"US","tp":"CS","ts":"2023-03-05T17:37:22Z","tX":278,"tY":385,"tags":{}},"2166272232":{"location":[40.4960209,-82.2020666],"ct":"US","tp":"CS","ts":"2013-02-22T02:11:19Z","tX":278,"tY":385,"tags":{"name":"Camp Mohaven"}},"5763805779":{"location":[40.6313786,-82.184602],"ct":"US","tp":"CS","ts":"2021-05-01T18:03:32Z","tX":278,"tY":385,"tags":{"addr:city":"Loudonville","addr:housenumber":"7700","addr:postcode":"44842","addr:state":"OH","addr:street":"Township Road 462","internet_access":"wlan","name":"Camp Toodik Family Campground","phone":"+1-419-994-3835"}}}