{"1287413385":{"location":[36.123925,-82.0538985],"ct":"US","tp":"CS","ts":"2024-05-28T14:47:30Z","tX":278,"tY":401,"tags":{"backcountry":"yes","capacity:tents":"15","description":"Flat field near the Overmountain shelter. Water source nearby, a couple of fire rings and a picnic table is available.","fee":"no","name":"Overmountain shelter camping area","tents":"yes"}},"1287416184":{"location":[36.1518132,-82.011157],"ct":"US","tp":"CS","ts":"2024-05-28T14:59:07Z","tX":278,"tY":401,"tags":{"access":"yes","backcountry":"yes","capacity:tents":"15","name":"Doll Flats Camping Area","tents":"yes"}},"5857307978":{"location":[36.3123923,-82.1167389],"ct":"US","tp":"CS","ts":"2019-05-01T03:17:59Z","tX":278,"tY":401,"tags":{"access":"yes","capacity":"40","description":"Located on a bluff overlooking the 6,430-acre Watauga Lake, Cardens Bluff Campground offers more than 40 sites, primarily for tent camping. There is a bathhouse with showers and flush toilets. No electrical hookups are provided. Day use areas are located ","internet_access":"no","name":"Cardens Bluff Campground","operator":"US Forest Service"}},"5857313093":{"location":[36.2570045,-82.1103576],"ct":"US","tp":"CS","ts":"2023-04-23T13:18:10Z","tX":278,"tY":401,"tags":{"capacity":"14","description":"Dennis Cove offers camping opportunities for tents and RVs up to 30 foot","fee":"yes","internet_access":"no","name":"Dennis Cove Campground","operator":"US Forest Service","website":"https://www.recreation.gov/camping/campgrounds/251724"}},"6506381086":{"location":[36.2201621,-81.985662],"ct":"US","tp":"CS","ts":"2021-05-26T21:56:17Z","tX":278,"tY":401,"tags":{"name":"Mountaineer Campsites"}},"6506381087":{"location":[36.2204775,-82.0296708],"ct":"US","tp":"CS","ts":"2019-05-28T14:32:27Z","tX":278,"tY":401,"tags":{"name":"Upper Laurel Fork"}},"7240848883":{"location":[36.0624041,-82.1173471],"ct":"US","tp":"CS","ts":"2020-02-24T20:01:32Z","tX":278,"tY":401,"tags":{"addr:city":"Bakersville","addr:housenumber":"37","addr:postcode":"28705","addr:state":"NC","addr:street":"Binary Road","name":"Lil Rock Creek Campground","phone":"(828) 688-1047"}},"7240848884":{"location":[36.0608748,-82.1220614],"ct":"US","tp":"CS","ts":"2020-02-24T20:01:32Z","tX":278,"tY":401,"tags":{"addr:city":"Bakersville","addr:housenumber":"218","addr:postcode":"28705","addr:state":"NC","addr:street":"Trout Pond Lane","name":"Living Waters Campground","phone":"(828) 688-2000"}},"8462661804":{"location":[36.1698921,-81.9934038],"ct":"US","tp":"CS","ts":"2021-02-27T02:20:04Z","tX":278,"tY":401,"tags":{"addr:city":"Elk Park","addr:housenumber":"401","addr:postcode":"28622","addr:state":"NC","addr:street":"Mountain View Lane","name":"Mountain View Motorcycle Campground","phone":"+18285282861"}},"9309473201":{"location":[36.1595502,-82.0999413],"ct":"US","tp":"CS","ts":"2021-12-03T21:45:07Z","tX":278,"tY":401,"tags":{"name":"Roan Mountain State Park Campground"}},"9505319556":{"location":[36.3131325,-82.0727661],"ct":"US","tp":"CS","ts":"2022-02-14T15:39:34Z","tX":278,"tY":401,"tags":{"fee":"no","name":"Little Stoney Creek Campground","tents":"yes"}},"10093505324":{"location":[36.0358306,-81.9926841],"ct":"US","tp":"CS","ts":"2022-10-11T21:20:31Z","tX":278,"tY":401,"tags":{"addr:city":"Newland","addr:housenumber":"913","addr:postcode":"28657","addr:state":"NC","addr:street":"Big Plumtree Creek Road","name":"Plumtree Campground and Retreat","phone":"+18285285559"}},"10103248817":{"location":[36.2095633,-82.1111454],"ct":"US","tp":"CS","ts":"2023-03-28T01:36:09Z","tX":278,"tY":401,"tags":{"addr:housenumber":"151","addr:postcode":"37687","addr:street":"Bob Ray Road","name":"Doe River Campground","name:en":"Doe River Campground","phone":"423-772-3137","website":"https://thedyrt.com/camping/tennessee/doe-river-primitive-campground"}},"11939888672":{"location":[36.15209,-82.0108879],"ct":"US","tp":"CS","ts":"2024-05-28T14:59:07Z","tX":278,"tY":401,"tags":{"backcountry":"yes","capacity:tents":"15","name":"Doll Flats camping area","tents":"yes"}},"10789308436":{"location":[36.080061,-81.9244984],"ct":"US","tp":"CR","ts":"2023-12-11T21:18:02Z","tX":278,"tY":401,"tags":{"addr:city":"Newland","addr:housenumber":"400","addr:postcode":"28657","addr:state":"NC","addr:street":"Wyatt Street","email":"rent@meadowbrookrvresort.com","name":"Big Mike's Creekside RV Resort","phone":"(828) 897-1289","website":"https://bigmikesrvresort.com/"}},"11140046838":{"location":[36.2703082,-82.1806575],"ct":"US","tp":"CR","ts":"2024-01-17T13:25:13Z","tX":278,"tY":401,"tags":{"name":"The Hamptons RV Park","website":"https://www.hamptonsrvpark.com/"}}}