{"14615458":{"location":[35.894826,-81.9724545],"ct":"US","tp":"CS","ts":"2022-09-23T22:03:52Z","tX":278,"tY":402,"tags":{"addr:housenumber":"600","addr:street":"Bear Den Mountain Drive","name":"Bear Den Family Campground and Creekside Cabins"}},"14615551":{"location":[35.804259,-82.2039163],"ct":"US","tp":"CS","ts":"2022-09-23T22:59:29Z","tX":278,"tY":402,"tags":{"name":"Carolina Hemlocks Rec. Area Campground"}},"33068753":{"location":[35.8111873,-82.2528942],"ct":"US","tp":"CS","ts":"2021-05-20T14:01:07Z","tX":278,"tY":402,"tags":{"backcountry":"yes","caravans":"no","group_only":"no","name":"Deep Gap Backcountry Campsite","operator":"United States Forest Service","reservation":"no","tents":"yes","wheelchair":"no"}},"233927572":{"location":[35.8141635,-82.1469857],"ct":"US","tp":"CS","ts":"2013-08-18T03:54:24Z","tX":278,"tY":402,"tags":{"name":"Crabtree Falls Campground","operator":"National Park Service"}},"357801125":{"location":[35.8055501,-82.2038937],"ct":"US","tp":"CS","ts":"2024-08-11T14:04:34Z","tX":278,"tY":402,"tags":{"addr:city":"Burnsville","addr:state":"NC","description":"Open Season: April 13th - October 30th Usage: Heavy Closest Towns: Burnsville Water: Drinking Water Restroom: Flush toilets and showers","ele":"842","fee":"yes","gnis:feature_id":"1010041","leisure":"park","name":"Carolina Hemlocks Recreation Area","operator":"Cradle of Forestry in America Campground Division","phone":"+1-(828) 689-9694","website":"https://www.fs.usda.gov/recarea/nfsnc/recarea/?recid=48596","wikidata":"Q34871246"}},"492599990":{"location":[35.9669661,-81.9329269],"ct":"US","tp":"CS","ts":"2017-05-10T18:12:09Z","tX":278,"tY":402,"tags":{"name":"Linville Falls Campground"}},"945136749":{"location":[35.7544059,-82.2555612],"ct":"US","tp":"CS","ts":"2021-05-20T14:01:00Z","tX":278,"tY":402,"tags":{"backcountry":"yes","caravans":"no","group_only":"no","name":"Commissary Hill Backcountry Campsite","operator":"United States Forest Service","reservation":"no","tents":"yes","wheelchair":"no"}},"1097402405":{"location":[35.7521705,-82.2208029],"ct":"US","tp":"CS","ts":"2022-09-23T22:49:19Z","tX":278,"tY":402,"tags":{"addr:city":"Burnsville","addr:housenumber":"50","addr:postcode":"28714","addr:state":"NC","addr:street":"Black Mountain Campground Road","fee":"yes","name":"Black Mountain Campground","note":"Open Season: April 10, 2015 Usage: Heavy Closest Towns: Burnsville Water: Drinking Water Restroom: Flush toilets and showers","operator":"Cradle of Forestry In America Campground Division","phone":"+1-828-689-9694","website":"https://www.fs.usda.gov/recarea/nfsnc/recarea/?recid=48522"}},"1097402406":{"location":[35.7472505,-82.2253317],"ct":"US","tp":"CS","ts":"2022-09-23T22:49:19Z","tX":278,"tY":402,"tags":{"name":"Briar Bottom Campground","operator":"United States Forest Service"}},"1105811972":{"location":[35.9563868,-81.9517743],"ct":"US","tp":"CR","ts":"2022-10-21T14:23:41Z","tX":278,"tY":402,"tags":{"addr:housenumber":"717","addr:street":"Gurney Franklin Road","name":"Linville Falls Campground RV Park & Cabins"}},"1315903629":{"location":[36.0114582,-82.021198],"ct":"US","tp":"CS","ts":"2024-09-16T11:36:14Z","tX":278,"tY":402,"tags":{"addr:city":"Newland","addr:housenumber":"6401","addr:postcode":"28657","addr:state":"NC","addr:street":"US-19 East","name":"Buck Hill Campground","phone":"+18287666162","website":"https://www.buckhillrvcampground.com/"}},"8421754372":{"location":[35.9967167,-82.1534275],"ct":"US","tp":"CS","ts":"2021-02-14T02:33:45Z","tX":278,"tY":402,"tags":{"addr:city":"Bakersville","addr:housenumber":"399","addr:postcode":"28705","addr:state":"NC","addr:street":"Lakeside Drive","name":"Saylor Lake RV Park","phone":"+18286884411"}},"9788860728":{"location":[35.8026448,-82.0844382],"ct":"US","tp":"CS","ts":"2022-06-01T17:48:30Z","tX":278,"tY":402,"tags":{"addr:city":"Marion","addr:housenumber":"1123","addr:postcode":"28752","addr:state":"NC","addr:street":"Armstrong Creek Road","name":"Clearwater Campground","phone":"+17046924823"}},"9790434866":{"location":[35.7523401,-81.9631157],"ct":"US","tp":"CS","ts":"2022-06-02T13:33:48Z","tX":278,"tY":402,"tags":{"addr:city":"Marion","addr:postcode":"28752","addr:state":"NC","name":"Black Bear Camp Ground"}},"10093384201":{"location":[35.9826703,-82.0145828],"ct":"US","tp":"CS","ts":"2022-10-11T21:01:07Z","tX":278,"tY":402,"tags":{"addr:city":"Newland","addr:housenumber":"8555","addr:postcode":"28657","addr:state":"NC","addr:street":"US-19 E","name":"Mountain River Family Campground","phone":"+18287654810"}},"10209607604":{"location":[36.0010259,-81.9378612],"ct":"US","tp":"CS","ts":"2022-11-22T12:38:04Z","tX":278,"tY":402,"tags":{"addr:city":"Newland","addr:housenumber":"6841","addr:postcode":"28657","addr:state":"NC","addr:street":"Linville Falls Highway","name":"Linville River Campground"}},"10223666489":{"location":[35.8383068,-81.9889619],"ct":"US","tp":"CS","ts":"2022-11-28T13:58:25Z","tX":278,"tY":402,"tags":{"addr:city":"Marion","addr:housenumber":"226","addr:postcode":"28752","addr:state":"NC","addr:street":"North Cove School Road","name":"The Outpost - RV Sites at North Cove","phone":"+18287567729"}},"10541956521":{"location":[36.0247231,-82.2487883],"ct":"US","tp":"CS","ts":"2023-01-11T22:16:48Z","tX":278,"tY":402,"tags":{"addr:city":"Bakersville","addr:housenumber":"241","addr:postcode":"28705","addr:state":"NC","addr:street":"Harrell Hill Road","name":"Hidden Meadow Campground LLC","phone":"+18282081192"}}}