{"570290387":{"location":[35.5277019,-81.9711316],"ct":"US","tp":"CS","ts":"2018-03-16T14:05:34Z","tX":278,"tY":403,"tags":{"name":"Thermal City Gold Mine"}},"1185086665":{"location":[35.6909803,-82.196194],"ct":"US","tp":"CS","ts":"2023-06-26T17:51:25Z","tX":278,"tY":403,"tags":{"name":"Curtis Creek Campsites"}},"1185087163":{"location":[35.689249,-82.1970043],"ct":"US","tp":"CS","ts":"2023-06-26T17:53:21Z","tX":278,"tY":403,"tags":{"name":"Curtis Creek Campground","operator":"Pisgah National Forest"}},"1355430658":{"location":[35.5172094,-82.1062211],"ct":"US","tp":"CS","ts":"2025-01-30T18:17:12Z","tX":278,"tY":403,"tags":{}},"4315813494":{"location":[35.7224504,-82.2484954],"ct":"US","tp":"CS","ts":"2016-07-22T16:09:32Z","tX":278,"tY":403,"tags":{"addr:street":"South Toe River Road","name":"BPW","opening_hours":"24/7","operator":"USA"}},"4315873393":{"location":[35.7113742,-82.250311],"ct":"US","tp":"CS","ts":"2021-09-13T00:55:26Z","tX":278,"tY":403,"tags":{"addr:street":"South Toe River Road","fee":"no","name":"Blue Ridge Parkway Tent","opening_hours":"24/7","operator":"USA"}},"4315900089":{"location":[35.7104247,-82.2507639],"ct":"US","tp":"CS","ts":"2021-09-13T00:55:26Z","tX":278,"tY":403,"tags":{"addr:street":"South Toe River Road","description":"Very Close to water. Could potentially flood.","name":"Blue Ridge Parkway Tent","opening_hours":"24/7","operator":"USA","power_supply":"no"}},"5155545523":{"location":[35.6955826,-82.1971442],"ct":"US","tp":"CS","ts":"2017-11-04T23:18:09Z","tX":278,"tY":403,"tags":{"backcountry":"yes","camp_site":"basic","description":"Dispersed free camping area","fee":"no"}},"5155545524":{"location":[35.7209581,-82.1829092],"ct":"US","tp":"CS","ts":"2017-11-04T23:18:09Z","tX":278,"tY":403,"tags":{"backcountry":"yes","camp_site":"basic","description":"Dispersed free campsite area","fee":"no"}},"6760996131":{"location":[35.6137102,-82.223377],"ct":"US","tp":"CS","ts":"2019-08-31T05:21:07Z","tX":278,"tY":403,"tags":{"addr:city":"Old Fort","addr:housenumber":"35","addr:postcode":"28762","addr:state":"NC","addr:street":"Peggy Loop","name":"Catawba Falls Campground, LLC","phone":"(828) 668-4831"}},"6872648630":{"location":[35.546048,-81.9590173],"ct":"US","tp":"CS","ts":"2021-02-09T00:55:37Z","tX":278,"tY":403,"tags":{"addr:city":"Marion","addr:housenumber":"1694","addr:postcode":"28752","addr:state":"NC","addr:street":"Polly Spout Road","name":"Vein Mountain Gold Camp & Carolina Emerald Mine","phone":"+18287389544"}},"7222985107":{"location":[35.6947749,-82.0499492],"ct":"US","tp":"CS","ts":"2020-02-18T15:31:30Z","tX":278,"tY":403,"tags":{"addr:city":"Marion","addr:housenumber":"1423","addr:postcode":"28752","addr:state":"NC","addr:street":"US-70","name":"Mad Mama's River Run Campground"}},"8405650086":{"location":[35.5522736,-81.9647304],"ct":"US","tp":"CS","ts":"2021-02-08T17:12:06Z","tX":278,"tY":403,"tags":{"addr:city":"Marion","addr:housenumber":"251","addr:postcode":"28752","addr:state":"NC","addr:street":"Lucky Strike Drive","name":"Lucky Strike Campground","phone":"+18287384893"}},"9819899898":{"location":[35.7354413,-82.1287924],"ct":"US","tp":"CS","ts":"2022-11-13T19:39:56Z","tX":278,"tY":403,"tags":{"addr:city":"Marion","addr:housenumber":"6621","addr:postcode":"27852","addr:state":"NC","addr:street":"Buck Creek Road","name":"Triple C Campground","phone":"+18287244099"}},"11409998191":{"location":[35.4714254,-82.0725089],"ct":"US","tp":"CS","ts":"2023-12-11T16:34:42Z","tX":278,"tY":403,"tags":{"name":"Shingle Hollow Congregational Holiness Camp Ground","operator":"Shingle Hollow Congregational Holiness Church"}},"8405626671":{"location":[35.602484,-81.9763028],"ct":"US","tp":"CR","ts":"2021-02-08T17:05:29Z","tX":278,"tY":403,"tags":{"addr:city":"Marion","addr:housenumber":"203","addr:postcode":"28752","addr:state":"NC","addr:street":"Mud Cut Loop","name":"Mountain View RV Park","phone":"+18288039777"}},"9737355383":{"location":[35.7389941,-82.1340018],"ct":"US","tp":"CR","ts":"2022-05-13T10:47:26Z","tX":278,"tY":403,"tags":{"addr:city":"Marion","addr:housenumber":"6954","addr:postcode":"28752","addr:state":"NC","addr:street":"Buck Creek Road","name":"Mountain Stream RV Park","phone":"+1 (828) 724-9013"}},"9819899897":{"location":[35.7188405,-82.0741049],"ct":"US","tp":"CR","ts":"2022-06-15T13:29:33Z","tX":278,"tY":403,"tags":{"addr:city":"Marion","addr:housenumber":"2576","addr:postcode":"28752","addr:state":"NC","addr:street":"Toms Creek Road","name":"Buck Creek RV Park","phone":"+18287244888"}}}