{"407100671":{"location":[35.4542913,-82.1779672],"ct":"US","tp":"CR","ts":"2016-04-02T01:45:32Z","tX":278,"tY":404,"tags":{}},"1212363463":{"location":[35.4523423,-81.926629],"ct":"US","tp":"CS","ts":"2023-10-01T18:35:51Z","tX":278,"tY":404,"tags":{"group_only":"yes","name":"Campsite 8"}},"1212363464":{"location":[35.4531795,-81.9265412],"ct":"US","tp":"CS","ts":"2023-10-01T18:35:51Z","tX":278,"tY":404,"tags":{"group_only":"yes","name":"Campsite 10"}},"1212363465":{"location":[35.4530576,-81.9255789],"ct":"US","tp":"CS","ts":"2023-10-01T18:35:51Z","tX":278,"tY":404,"tags":{"group_only":"yes","name":"Campsite 11"}},"1212363466":{"location":[35.4493078,-81.9222579],"ct":"US","tp":"CS","ts":"2023-10-01T18:35:51Z","tX":278,"tY":404,"tags":{"group_only":"yes","name":"Campsite 12"}},"1212363467":{"location":[35.4482254,-81.9248315],"ct":"US","tp":"CS","ts":"2023-10-01T18:35:51Z","tX":278,"tY":404,"tags":{"group_only":"yes","name":"Campsite 13"}},"1212363468":{"location":[35.4460896,-81.9246545],"ct":"US","tp":"CS","ts":"2023-10-01T18:35:51Z","tX":278,"tY":404,"tags":{"group_only":"yes","name":"Campsite 16"}},"1212363469":{"location":[35.4474954,-81.9259695],"ct":"US","tp":"CS","ts":"2023-10-01T18:35:51Z","tX":278,"tY":404,"tags":{"group_only":"yes","name":"Campsite 15"}},"1212363470":{"location":[35.4504632,-81.9279565],"ct":"US","tp":"CS","ts":"2023-10-01T18:35:51Z","tX":278,"tY":404,"tags":{"group_only":"yes","name":"Campsite 1"}},"1212363471":{"location":[35.4503595,-81.9295602],"ct":"US","tp":"CS","ts":"2023-10-01T18:35:51Z","tX":278,"tY":404,"tags":{"group_only":"yes","name":"Campsite 2"}},"1228632759":{"location":[35.2837441,-82.0763502],"ct":"US","tp":"CR","ts":"2023-12-04T13:31:05Z","tX":278,"tY":404,"tags":{}},"1228632760":{"location":[35.2866582,-82.0753488],"ct":"US","tp":"CR","ts":"2023-12-04T13:31:05Z","tX":278,"tY":404,"tags":{}},"1313818782":{"location":[35.3864647,-82.127937],"ct":"US","tp":"CS","ts":"2024-09-06T16:51:46Z","tX":278,"tY":404,"tags":{"name":"Emberglow Outdoor Resort","website":"https://emberglowoutdoorresort.com/"}},"8328985007":{"location":[35.4175798,-82.126248],"ct":"US","tp":"CS","ts":"2021-01-16T22:19:54Z","tX":278,"tY":404,"tags":{"addr:city":"Rutherforton","addr:housenumber":"217","addr:postcode":"28139","addr:state":"NC","addr:street":"Rivercreek Drive","name":"River Creek Camp Ground"}},"10202161782":{"location":[35.3113701,-82.2120424],"ct":"US","tp":"CS","ts":"2022-11-19T15:55:21Z","tX":278,"tY":404,"tags":{"addr:city":"Mill Spring","addr:housenumber":"3111","addr:postcode":"28756","addr:state":"NC","addr:street":"Silver Creek Road","name":"Silver Creek Campground & Whitewater Outfitters","phone":"+18288942331"}},"10601379938":{"location":[35.41867,-81.9743149],"ct":"US","tp":"CS","ts":"2023-02-02T14:47:35Z","tX":278,"tY":404,"tags":{"addr:city":"Rutherfordton","addr:housenumber":"535","addr:postcode":"28139","addr:state":"NC","addr:street":"Gilboa Church Road","name":"Rail Trail RV Park","phone":"+18282887653"}}}