{"14889305":{"location":[34.9607959,-82.1587575],"ct":"US","tp":"CR","ts":"2022-11-15T01:20:54Z","tX":278,"tY":405,"tags":{}},"755742128":{"location":[34.9185783,-82.1666035],"ct":"US","tp":"CR","ts":"2023-11-03T14:29:50Z","tX":278,"tY":405,"tags":{"addr:city":"Greer","addr:housenumber":"894","addr:postcode":"29651","addr:state":"SC","addr:street":"Robinson Road","capacity:caravans":"37","fee":"yes","internet_access":"wlan","internet_access:fee":"yes","laundry":"no","name":"GSP RV Park","phone":"+1 864 655 4399","power_supply":"yes","toilets":"no","website":"https://gsp-rvpark.com/"}},"767696729":{"location":[34.9859621,-82.0421575],"ct":"US","tp":"CS","ts":"2022-08-07T22:29:59Z","tX":278,"tY":405,"tags":{"addr:housenumber":"600","caravans":"yes","name":"Cunningham RV Park","phone":"+1-864-576-1973","power_supply":"yes","sanitary_dump_station":"yes","shower":"yes","swimming_pool":"yes","tents":"yes","waste_disposal":"yes","website":"http://www.cunninghamrvpark.com/"}},"845402978":{"location":[34.9361126,-82.163742],"ct":"US","tp":"CR","ts":"2021-07-30T11:49:48Z","tX":278,"tY":405,"tags":{"addr:city":"Greer","addr:housenumber":"1836","addr:postcode":"29651","addr:state":"SC","addr:street":"East Poinsett Street","addr:unit":"A","name":"290 RV PARK","phone":"864-303-1575","website":"https://www.290rvpark.com/"}},"1016024020":{"location":[34.9469121,-82.1980528],"ct":"US","tp":"CR","ts":"2021-12-28T05:02:34Z","tX":278,"tY":405,"tags":{"name":"Creekside RV Park"}},"1385069526":{"location":[34.9139641,-82.1467617],"ct":"US","tp":"CR","ts":"2025-05-09T12:37:49Z","tX":278,"tY":405,"tags":{"name":"Beckon Ridge RV Park"}}}