{"4503249090":{"location":[29.8314658,-82.0428333],"ct":"US","tp":"CS","ts":"2022-05-23T04:29:30Z","tX":278,"tY":423,"tags":{"addr:city":"Starke","addr:country":"US","addr:housenumber":"6724","addr:postcode":"32091","addr:state":"FL","addr:street":"Camp Crystal Road","fax":"+13524732402","name":"Camp Crystal Lake","phone":"+18556512267","website":"https://campcrystal.com/"}},"11424106620":{"location":[29.6516127,-81.9868327],"ct":"US","tp":"CS","ts":"2023-12-17T04:01:48Z","tX":278,"tY":423,"tags":{"name":"Camp Davis"}},"11424106625":{"location":[29.6537653,-81.9847129],"ct":"US","tp":"CS","ts":"2023-12-17T04:01:48Z","tX":278,"tY":423,"tags":{"name":"Fort Hart Treehouses"}},"11424106626":{"location":[29.6539513,-81.9839864],"ct":"US","tp":"CS","ts":"2023-12-17T04:01:48Z","tX":278,"tY":423,"tags":{"name":"Campsite 5"}},"11424106627":{"location":[29.6561098,-81.9836388],"ct":"US","tp":"CS","ts":"2023-12-17T04:01:48Z","tX":278,"tY":423,"tags":{"name":"Campsite 9"}},"11424106628":{"location":[29.6565071,-81.9859591],"ct":"US","tp":"CS","ts":"2023-12-17T04:01:48Z","tX":278,"tY":423,"tags":{"name":"Campsite 8"}},"11424106629":{"location":[29.653289,-81.9823871],"ct":"US","tp":"CS","ts":"2023-12-17T04:01:48Z","tX":278,"tY":423,"tags":{"name":"Campsite 6"}},"11424106630":{"location":[29.6542126,-81.9826314],"ct":"US","tp":"CS","ts":"2023-12-17T04:01:48Z","tX":278,"tY":423,"tags":{"name":"Campsite 11"}},"11424106631":{"location":[29.6543046,-81.9798521],"ct":"US","tp":"CS","ts":"2023-12-17T04:01:48Z","tX":278,"tY":423,"tags":{"name":"Campsite 1"}},"11424106632":{"location":[29.6533069,-81.9779083],"ct":"US","tp":"CS","ts":"2023-12-17T04:01:48Z","tX":278,"tY":423,"tags":{"name":"Campsite 2"}},"11424106637":{"location":[29.6528707,-81.9796819],"ct":"US","tp":"CS","ts":"2023-12-17T04:01:48Z","tX":278,"tY":423,"tags":{"name":"Campsite 3"}},"11424106638":{"location":[29.6535591,-81.9801398],"ct":"US","tp":"CS","ts":"2023-12-17T04:01:48Z","tX":278,"tY":423,"tags":{"name":"Campsite 4"}},"11424106639":{"location":[29.6555421,-81.9835147],"ct":"US","tp":"CS","ts":"2023-12-17T04:01:48Z","tX":278,"tY":423,"tags":{"name":"Campsite 10"}},"11424106640":{"location":[29.6561447,-81.9859056],"ct":"US","tp":"CS","ts":"2023-12-17T04:01:48Z","tX":278,"tY":423,"tags":{"name":"Campsite 7"}},"10683966454":{"location":[29.8032248,-82.0632727],"ct":"US","tp":"CR","ts":"2023-02-21T18:54:54Z","tX":278,"tY":423,"tags":{"addr:city":"Keystone Heights","addr:housenumber":"1177","addr:postcode":"32656","addr:state":"FL","addr:street":"SE Keystone Ave","name":"Keystone Heights RV Resort"}}}