{"8415115":{"location":[26.4461918,-81.9361212],"ct":"US","tp":"CR","ts":"2018-06-28T15:10:17Z","tX":278,"tY":433,"tags":{"addr:city":"Fort Myers Beach","addr:country":"US","addr:housenumber":"3001","addr:postcode":"33931","addr:state":"FL","addr:street":"Estero Boulevard","fee":"yes","internet_access":"wlan","name":"Red Coconut RV Resort","website":"https://www.redcoconut.com/"}},"603066792":{"location":[26.4467796,-81.9369086],"ct":"US","tp":"CR","ts":"2018-07-05T20:23:13Z","tX":278,"tY":433,"tags":{"fee":"yes","name":"Gulf View Colony"}},"1793687011":{"location":[26.4605676,-81.9522897],"ct":"US","tp":"CR","ts":"2021-09-16T01:06:57Z","tX":278,"tY":433,"tags":{"name":"Gulf Cove Mobile Home Park"}},"1816148616":{"location":[26.4682927,-81.949431],"ct":"US","tp":"CR","ts":"2012-07-07T16:16:31Z","tX":278,"tY":433,"tags":{"name":"San Carlos RV Park and Island Resort"}},"1843533103":{"location":[26.4900636,-81.9414485],"ct":"US","tp":"CR","ts":"2012-07-30T06:43:10Z","tX":278,"tY":433,"tags":{"name":"Gulf Air MHP"}},"1843539997":{"location":[26.4898503,-81.9372019],"ct":"US","tp":"CR","ts":"2012-07-30T06:54:05Z","tX":278,"tY":433,"tags":{"name":"Gulf Waters RV Resort"}},"1911678616":{"location":[26.6822147,-82.1522693],"ct":"US","tp":"CR","ts":"2024-05-29T17:54:41Z","tX":278,"tY":433,"tags":{"addr:city":"Bokeelia","addr:housenumber":"15175","addr:postcode":"33922","addr:state":"FL","addr:street":"Stringfellow Road","contact:facebook":"https://www.facebook.com/TropicalWatersRVPark/","name":"Tropical Waters RV Park"}},"2395523684":{"location":[26.6854363,-82.2580847],"ct":"US","tp":"CS","ts":"2014-11-30T09:40:39Z","tX":278,"tY":433,"tags":{"name":"Cayo Costa SP Tent Camping"}},"9100606251":{"location":[26.4619054,-81.9518739],"ct":"US","tp":"CR","ts":"2021-09-17T11:23:09Z","tX":278,"tY":433,"tags":{"name":"Sunnyland Trailer Court"}},"4478032470":{"location":[26.6241802,-81.9208639],"ct":"US","tp":"SD","ts":"2016-11-02T23:09:39Z","tX":278,"tY":433,"tags":{"access":"customers","fee":"yes","sanitary_dump_station:pump-out":"yes","waterway":"sanitary_dump_station"}}}