{"439042284":{"location":[-26.9712621,-55.3355143],"ct":"AR","tp":"CS","ts":"2017-02-10T03:13:51Z","tX":354,"tY":591,"tags":{"name":"Balneario El Solito"}},"6244904721":{"location":[-27.0339173,-55.4161616],"ct":"AR","tp":"CS","ts":"2023-12-11T11:07:42Z","tX":354,"tY":591,"tags":{"access":"yes","addr:city":"General Urquiza","caravans":"yes","name":"Camping Balneario El Francés","phone":"+54 9 3743 414628","tents":"yes"}},"11409463960":{"location":[-27.0544865,-55.2584701],"ct":"AR","tp":"CS","ts":"2023-12-11T11:17:17Z","tX":354,"tY":591,"tags":{"addr:city":"Jardín América","addr:milestone":"1435","addr:postcode":"3328","addr:street":"Ruta Nacional 12","contact:facebook":"https://www.facebook.com/Baden-Baden-caba%C3%B1as-y-camping-240632695956886/","email":"campingbaden@yahoo.com.ar","fee":"yes","internet_access":"wlan","name":"Camping Baden Baden","opening_hours":"24/7","payment:debit_cards":"yes","payment:electronic_purses":"yes","phone":"+54 3743 482081","website":"https://www.complejobadenbaden.com.ar/"}}}