{"159308046":{"location":[-27.2645779,-55.5343692],"ct":"AR","tp":"CS","ts":"2020-11-14T22:09:10Z","tX":354,"tY":592,"tags":{}},"623938247":{"location":[-27.28845,-55.53012],"ct":"AR","tp":"CS","ts":"2014-03-11T19:06:32Z","tX":354,"tY":592,"tags":{"disused":"yes","name":"Campamento Educativo San Ignacio"}},"623938287":{"location":[-27.13907,-55.51821],"ct":"AR","tp":"CS","ts":"2023-12-04T14:06:32Z","tX":354,"tY":592,"tags":{"addr:city":"Corpus Christi","alt_name":"Balneario Curupaity","caravans":"yes","name":"Camping Municipal Curupayty","phone":"+54 9 3755 668131","tents":"yes"}},"623947819":{"location":[-27.3334732,-55.2361143],"ct":"AR","tp":"CS","ts":"2023-12-04T13:59:18Z","tX":354,"tY":592,"tags":{"access":"yes","addr:city":"Gobernador Roca","fee":"yes","name":"Camping El Portal de las Sierras","payment:electronic_purses":"yes","phone":"+54 9 3755 688184"}},"623947820":{"location":[-27.3345833,-55.2359167],"ct":"AR","tp":"CS","ts":"2024-02-26T14:22:48Z","tX":354,"tY":592,"tags":{"addr:city":"Colonia Alberdi","caravans":"yes","name":"Complejo Recreativo El Chapá","phone":"+54 3755 486001","static_caravans":"yes","tents":"yes"}},"4744201529":{"location":[-27.0721728,-55.2382092],"ct":"AR","tp":"CS","ts":"2022-11-07T13:28:45Z","tX":354,"tY":592,"tags":{"addr:city":"Jardín América","name":"La Isla Balneario Camping","phone":"03743 - 15 509457 / 03743 - 15537145"}},"4960742941":{"location":[-27.1520622,-55.4137644],"ct":"AR","tp":"CS","ts":"2021-02-22T02:12:45Z","tX":354,"tY":592,"tags":{"addr:city":"Santo Pipó","contact:facebook":"https://www.facebook.com/piletacamping.apepu?ref=fs","name":"Pileta Camping Apepú"}},"8119534325":{"location":[-27.2644846,-55.5346829],"ct":"AR","tp":"CS","ts":"2023-12-04T13:36:31Z","tX":354,"tY":592,"tags":{"addr:city":"San Ignacio","addr:street":"Ruta Nacional 12","contact:phone":"+54 376 4900819","fee":"yes","name":"Camping La Familia","payment:electronic_purses":"yes","static_caravans":"yes"}}}