{"623938195":{"location":[-27.4833178,-55.4497753],"ct":"AR","tp":"CS","ts":"2024-02-26T13:51:23Z","tX":354,"tY":593,"tags":{"addr:city":"Bonpland","name":"Camping Balneario Bonpland","phone":"+54 3764 228631","tents":"yes"}},"623938197":{"location":[-27.465819,-55.3365896],"ct":"AR","tp":"CS","ts":"2017-05-05T21:14:10Z","tX":354,"tY":593,"tags":{"name":"Camping Municipal de San Martín"}},"623938300":{"location":[-27.4021166,-55.2027679],"ct":"AR","tp":"CS","ts":"2024-02-26T14:16:33Z","tX":354,"tY":593,"tags":{"addr:city":"Oberà","caravans":"yes","name":"Camping Paraje Los Indios","phone":"+54 3755 211005","static_caravans":"yes"}},"623947824":{"location":[-27.6212945,-55.3107188],"ct":"AR","tp":"CS","ts":"2016-06-25T12:20:52Z","tX":354,"tY":593,"tags":{"fixme":"verificar ubicacion","name":"Camping Los Cardenales"}},"623947826":{"location":[-27.6325127,-55.29591],"ct":"AR","tp":"CS","ts":"2010-01-31T12:12:33Z","tX":354,"tY":593,"tags":{"name":"Camping Tío Corazón"}},"623947827":{"location":[-27.622145,-55.3084586],"ct":"AR","tp":"CS","ts":"2019-02-15T11:34:07Z","tX":354,"tY":593,"tags":{"fixme":"verificar ubicacion","name":"Camping Olaf"}},"623947828":{"location":[-27.6357529,-55.345676],"ct":"AR","tp":"CS","ts":"2019-12-31T13:36:10Z","tX":354,"tY":593,"tags":{"name":"Camping Tante Paula"}},"623950898":{"location":[-27.5895098,-55.4287834],"ct":"AR","tp":"CS","ts":"2016-11-26T03:53:44Z","tX":354,"tY":593,"tags":{"name":"Camping Arroyo Mártires"}},"3599704969":{"location":[-27.6291979,-55.3594591],"ct":"AR","tp":"CS","ts":"2017-02-10T03:01:57Z","tX":354,"tY":593,"tags":{"name":"Camping Camioneros"}},"3824067481":{"location":[-27.4803978,-55.1958339],"ct":"AR","tp":"CS","ts":"2024-02-26T14:05:09Z","tX":354,"tY":593,"tags":{"addr:city":"Oberá","addr:street":"Ruta Provincial 103","caravans":"yes","name":"Parque Recreativo Salto Berrondo","opening_hours":"Mo-Su 07:00-19:00","phone":"+54 3755 421808","static_caravans":"yes","tents":"yes"}},"4448138758":{"location":[-27.5437632,-55.3306186],"ct":"AR","tp":"CS","ts":"2019-05-03T14:19:22Z","tX":354,"tY":593,"tags":{"name":"Camping S.U.E.T.R.A."}},"4546380591":{"location":[-27.4756424,-55.2202028],"ct":"AR","tp":"CS","ts":"2022-11-14T10:19:26Z","tX":354,"tY":593,"tags":{"alt_name":"AMECO","name":"A.e.co","name:es":"A.e.co"}},"4695536243":{"location":[-27.6388667,-55.3529452],"ct":"AR","tp":"CS","ts":"2017-02-20T13:56:30Z","tX":354,"tY":593,"tags":{"name":"Pileta y Camping Don Antonio"}},"5618801535":{"location":[-27.5958846,-55.3146197],"ct":"AR","tp":"CS","ts":"2018-05-15T03:46:28Z","tX":354,"tY":593,"tags":{"name":"Camping La Isla"}},"8100482354":{"location":[-27.4219442,-55.4249739],"ct":"AR","tp":"CS","ts":"2024-02-26T13:56:19Z","tX":354,"tY":593,"tags":{"addr:city":"Colonia Martires","addr:milestone":"23","addr:postcode":"3318","addr:street":"Ruta Provincial 103","email":"yasy.selvayagua@gmail.com","facebook":"https://www.facebook.com/yasy.selvayagua","fee":"yes","name":"Yasý, Selva & Agua","payment:debit_cards":"yes","payment:electronic_purses":"yes","phone":"+54 3755 509980","tents":"yes","website":"https://yasy-selva-agua.business.site/"}},"10182371244":{"location":[-27.4776878,-55.2190983],"ct":"AR","tp":"CS","ts":"2022-11-14T10:19:26Z","tX":354,"tY":593,"tags":{"addr:city":"Oberá","addr:street":"Ruta Provincial 103","name":"Camping Recreativo y Deportivo Empleados de Comercio"}},"11589184077":{"location":[-27.6201006,-55.3415912],"ct":"AR","tp":"CS","ts":"2024-02-23T13:31:50Z","tX":354,"tY":593,"tags":{"addr:city":"Leandro N. Alem","fee":"yes","name":"Las Palmeras","payment:electronic_purses":"yes","phone":"+54 3754 437678","tents":"yes"}},"11656320926":{"location":[-27.5645962,-55.4081953],"ct":"AR","tp":"CS","ts":"2024-02-23T13:39:55Z","tX":354,"tY":593,"tags":{"addr:city":"Leandro N. Alem","name":"La Familia Balneario y Camping","phone":"+54 376 4518600","static_caravans":"yes","tents":"yes"}},"11665231922":{"location":[-27.519216,-55.4501217],"ct":"AR","tp":"CS","ts":"2024-02-26T13:47:02Z","tX":354,"tY":593,"tags":{"addr:city":"Lenadro N. Alem","fee":"yes","name":"La Paulita","payment:debit_cards":"yes","payment:electronic_purses":"yes","phone":"+54 376 4767369","tents":"yes"}},"11665242754":{"location":[-27.506867,-55.4430913],"ct":"AR","tp":"CS","ts":"2024-02-26T13:31:12Z","tX":354,"tY":593,"tags":{"addr:city":"Leandro N. Alem","caravans":"yes","name":"Don Alejandro","phone":"+54 3754 475831","tents":"yes"}},"11665266906":{"location":[-27.5769785,-55.3790803],"ct":"AR","tp":"CS","ts":"2024-02-26T13:40:42Z","tX":354,"tY":593,"tags":{"addr:city":"Leandro N. Alem","name":"Camping Ruta 4","phone":"+54 3754 463003","tents":"yes"}},"11665268451":{"location":[-27.6089465,-55.3614424],"ct":"AR","tp":"CS","ts":"2024-02-26T13:32:58Z","tX":354,"tY":593,"tags":{"addr:city":"Leandro N. Alem","name":"Camping Las Malvinas","tents":"yes"}}}