{"14001049":{"location":[48.8148226,-67.6061861],"ct":"CA","tp":"CR","ts":"2022-04-04T10:42:37Z","tX":319,"tY":352,"tags":{"addr:housenumber":"2345","addr:street":"Avenue Du Phare Ouest","name":"Camping Parc Sirois la Baleine","power_supply":"yes","sanitary_dump_station":"yes","website":"https://www.facebook.com/campinglabaleine"}},"211378647":{"location":[48.8194487,-67.5412826],"ct":"CA","tp":"CS","ts":"2022-04-04T10:42:37Z","tX":319,"tY":352,"tags":{"addr:city":"Matane","addr:housenumber":"150","addr:street":"Route Louis-Félix Dionne","email":"information@campingmatane.com","fax":"+1-418-562-5058","image":"http://campingmatane.com/images/Upload/sans_service/site-amenage-bord-riviere.jpg","internet_access":"wlan","name":"Camping de la Rivière Matane","phone":"+1-418-562-3414","sanitary_dump_station":"customers","stars":"3","website":"campingmatane.com"}},"10825680475":{"location":[48.7836382,-67.7197852],"ct":"CA","tp":"CR","ts":"2023-04-20T02:14:43Z","tX":319,"tY":352,"tags":{"name":"Halte routière caravane 24h"}},"4813879893":{"location":[48.8182188,-67.5405586],"ct":"CA","tp":"SD","ts":"2017-04-24T17:49:55Z","tX":319,"tY":352,"tags":{"access":"customers"}}}