{"7172588180":{"location":[45.2221048,-67.6137843],"ct":"US","tp":"CS","ts":"2020-06-01T21:05:52Z","tX":319,"tY":367,"tags":{"addr:city":"Princeton","addr:housenumber":"2","addr:postcode":"04668","addr:state":"ME","addr:street":"Muwin Camp Road","building":"cabin"}},"7172588181":{"location":[45.2217443,-67.6144936],"ct":"US","tp":"CS","ts":"2020-06-01T21:05:52Z","tX":319,"tY":367,"tags":{"addr:city":"Princeton","addr:housenumber":"3","addr:postcode":"04668","addr:state":"ME","addr:street":"Muwin Camp Road","building":"cabin"}},"7172588182":{"location":[45.2214508,-67.6144179],"ct":"US","tp":"CS","ts":"2020-06-01T21:05:52Z","tX":319,"tY":367,"tags":{"addr:city":"Princeton","addr:housenumber":"4","addr:postcode":"04668","addr:state":"ME","addr:street":"Muwin Camp Road","building":"cabin"}},"7172588183":{"location":[45.2212706,-67.6140338],"ct":"US","tp":"CS","ts":"2020-06-01T21:05:52Z","tX":319,"tY":367,"tags":{"addr:city":"Princeton","addr:housenumber":"6","addr:postcode":"04668","addr:state":"ME","addr:street":"Muwin Camp Road","building":"cabin"}},"7172588184":{"location":[45.2208902,-67.6138392],"ct":"US","tp":"CS","ts":"2020-06-01T21:05:52Z","tX":319,"tY":367,"tags":{"addr:city":"Princeton","addr:housenumber":"8","addr:postcode":"04668","addr:state":"ME","addr:street":"Muwin Camp Road","building":"cabin"}},"7172588185":{"location":[45.2205632,-67.6135925],"ct":"US","tp":"CS","ts":"2020-06-01T21:05:52Z","tX":319,"tY":367,"tags":{"addr:city":"Princeton","addr:housenumber":"9","addr:postcode":"04668","addr:state":"ME","addr:street":"Muwin Camp Road","building":"cabin"}},"7172588186":{"location":[45.2205668,-67.6131529],"ct":"US","tp":"CS","ts":"2020-06-01T21:05:52Z","tX":319,"tY":367,"tags":{"addr:city":"Princeton","addr:housenumber":"11","addr:postcode":"04668","addr:state":"ME","addr:street":"Muwin Camp Road","building":"cabin"}},"7172588187":{"location":[45.221085,-67.6135734],"ct":"US","tp":"CS","ts":"2020-06-01T21:05:52Z","tX":319,"tY":367,"tags":{"addr:city":"Princeton","addr:housenumber":"10","addr:postcode":"04668","addr:state":"ME","addr:street":"Muwin Camp Road","building":"cabin"}},"7172588188":{"location":[45.2208248,-67.613274],"ct":"US","tp":"CS","ts":"2020-06-01T21:05:52Z","tX":319,"tY":367,"tags":{"addr:city":"Princeton","addr:housenumber":"13","addr:postcode":"04668","addr:state":"ME","addr:street":"Muwin Camp Road","building":"cabin"}},"7172588189":{"location":[45.2215732,-67.6133768],"ct":"US","tp":"CS","ts":"2020-06-02T01:21:40Z","tX":319,"tY":367,"tags":{"addr:city":"Princeton","addr:housenumber":"6","addr:postcode":"04668","addr:state":"ME","addr:street":"Muwin Lodge Drive"}}}