{"7970246845":{"location":[-18.7004737,-67.5103503],"ct":"BO","tp":"CS","ts":"2024-03-30T23:51:10Z","tX":319,"tY":566,"tags":{"addr:city":"Arenales de Jalakheri","addr:street":"Arenales de Jalakheri","name":"Campamento Dunas Expedicion 1"}},"7970593992":{"location":[-18.7068119,-67.5064627],"ct":"BO","tp":"CS","ts":"2024-03-30T23:51:10Z","tX":319,"tY":566,"tags":{"addr:city":"Arenales de Jalakheri","addr:street":"Arenales de Jalakheri","alt_name":"Campamento 2","name":"Campamento Dunas 2"}},"8596306952":{"location":[-18.7051374,-67.528816],"ct":"BO","tp":"CS","ts":"2024-03-30T23:51:10Z","tX":319,"tY":566,"tags":{"addr:city":"Arenales de Jalakheri","addr:street":"Arenales de Jalakheri","name":"Campamento Dunas 3"}},"10856714914":{"location":[-18.7021304,-67.5300367],"ct":"BO","tp":"CS","ts":"2024-03-30T23:51:10Z","tX":319,"tY":566,"tags":{"addr:city":"Arenales de Jalakheri","addr:street":"Arenales de Jalakheri","name":"Campamento Dunas Expedicion 4"}},"11772647740":{"location":[-18.7041866,-67.5123169],"ct":"BO","tp":"CS","ts":"2024-03-30T23:51:10Z","tX":319,"tY":566,"tags":{"addr:city":"Arenales de Jalakheri","addr:street":"Arenales de Jalakheri","name":"Campamento Dunas Expedicion 5"}}}