{"4297303289":{"location":[20.6321375,96.5527743],"ct":"MM","tp":"CS","ts":"2016-07-12T01:52:25Z","tX":786,"tY":452,"tags":{"name":"chit su ko ko"}},"4349434290":{"location":[20.5349757,96.6726558],"ct":"MM","tp":"CS","ts":"2016-08-14T08:22:17Z","tX":786,"tY":452,"tags":{"name":"Village - Lunch Restpoint"}},"5246876422":{"location":[20.5774728,96.5408266],"ct":"MM","tp":"CS","ts":"2017-11-25T09:57:22Z","tX":786,"tY":452,"tags":{}},"7020201885":{"location":[20.6032749,96.5111051],"ct":"MM","tp":"CS","ts":"2019-11-29T16:40:33Z","tX":786,"tY":452,"tags":{"addr:street":"Palaung Taung Road","email":"winkhaing1964@gmail.com","name:en":"Palaung Taung Camp","opening_hours":"24/7","operator":"Win","phone":"0959456115552"}},"7092000985":{"location":[20.6033225,96.5111507],"ct":"MM","tp":"CS","ts":"2019-12-28T23:16:47Z","tX":786,"tY":452,"tags":{"addr:postcode":"06021","addr:street":"Palaung Taung Road, near viewport restaurant","email":"campkalaw@gmail.com","name:en":"Camp Kalaw","opening_hours":"24/7","operator":"Win","phone":"0959452257771"}},"7104178185":{"location":[20.5578291,96.580033],"ct":"MM","tp":"CS","ts":"2020-01-03T09:45:42Z","tX":786,"tY":452,"tags":{"name:en":"Nice camping spot with fire place and water not far"}}}