{"202259197":{"location":[23.265811,120.3920826],"ct":"TW","tp":"CS","ts":"2020-02-04T01:39:12Z","tX":854,"tY":443,"tags":{}},"263156737":{"location":[23.3986768,120.5741397],"ct":"TW","tp":"CS","ts":"2025-03-29T03:47:58Z","tX":854,"tY":443,"tags":{"addr:city":"嘉義縣","addr:country":"TW","addr:district":"中埔鄉","addr:full":"嘉義縣中埔鄉石硦村6鄰籐寮仔54號","addr:hamlet":"石硦村","addr:housenumber":"54","addr:neighbourhood":"6","addr:place":"籐寮仔","addr:province":"台灣省","name":"石硦童軍營區"}},"275865107":{"location":[23.5588024,120.4656384],"ct":"TW","tp":"CS","ts":"2023-08-05T16:10:41Z","tX":854,"tY":443,"tags":{"addr:city":"嘉義縣","addr:country":"TW","addr:district":"民雄鄉","addr:housenumber":"196-5","addr:province":"台灣省","addr:street":"豐收村","name":"納米運動休閒園區","phone":"+886-5-272-4639"}},"496134418":{"location":[23.2637894,120.3385334],"ct":"TW","tp":"CS","ts":"2017-05-26T14:27:31Z","tX":854,"tY":443,"tags":{}},"496183574":{"location":[23.3303185,120.373207],"ct":"TW","tp":"CS","ts":"2017-05-26T18:23:16Z","tX":854,"tY":443,"tags":{}},"552057299":{"location":[23.4814469,120.4815977],"ct":"TW","tp":"CS","ts":"2018-01-10T07:11:46Z","tX":854,"tY":443,"tags":{"name":"蘭潭露營區"}},"571551060":{"location":[23.2978807,120.5858302],"ct":"TW","tp":"CS","ts":"2021-03-08T03:29:11Z","tX":854,"tY":443,"tags":{}}}