{"1110679273":{"location":[40.9025976,45.060001],"ct":"AM","tp":"CS","ts":"2022-11-06T07:05:22Z","tX":640,"tY":384,"tags":{"access":"yes","fee":"yes","name":"Լաստիվեր Անապատ","name:en":"Lastiver Hermitage","name:fr":"Campement Lastiver","name:hy":"Լաստիվեր Անապատ","name:ru":"Ластивер Анапат","operator":"https://www.facebook.com/vahagn.tananyan","phone":"+37493365437"}},"6472063190":{"location":[40.8135435,45.1457024],"ct":"AM","tp":"CS","ts":"2019-05-14T08:44:29Z","tX":640,"tY":384,"tags":{"name":"RFC Armenia 2019 Camp Site","name:en":"RFC Armenia 2019 camp site","name:ru":"RFC Armenia 2019 Палаточный Лагерь"}},"6709969469":{"location":[40.7269315,45.0504309],"ct":"AM","tp":"CS","ts":"2019-08-14T12:46:57Z","tX":640,"tY":384,"tags":{"name":"Elves of Armenia","phone":"‭+37494611348‬","tents":"yes","website":"https://www.booking.com/hotel/am/elves-of-armenia"}},"11051349970":{"location":[40.8998374,45.0313845],"ct":"AM","tp":"CS","ts":"2023-07-17T16:01:18Z","tX":640,"tY":384,"tags":{}},"11119545705":{"location":[40.8566301,45.1224248],"ct":"AM","tp":"CS","ts":"2023-08-16T16:11:41Z","tX":640,"tY":384,"tags":{"name:ru":"Место под ночевку с видом"}},"4471697391":{"location":[40.8751255,45.1467895],"ct":"AM","tp":"CR","ts":"2016-10-30T19:04:44Z","tX":640,"tY":384,"tags":{"addr:street":"Մայիսի 28 ի փողոց","name:ru":"Досаф"}},"6483519685":{"location":[40.8668434,45.1562172],"ct":"AM","tp":"CR","ts":"2019-05-19T09:05:37Z","tX":640,"tY":384,"tags":{"name":"Trailer park RFC Armenia 2019","name:ru":"Привал для прицепов RFC Armenia 2019"}}}