{"4398135589":{"location":[34.2775206,45.1675698],"ct":"IQ","tp":"CS","ts":"2016-09-12T20:53:00Z","tX":640,"tY":408,"tags":{"name":"حي العروبة","name:ar":"حي العروبة"}},"4398135889":{"location":[34.2908695,45.1609882],"ct":"IQ","tp":"CS","ts":"2016-09-12T20:53:10Z","tX":640,"tY":408,"tags":{"name":"حي الخضراء","name:ar":"حي الخضراء"}},"4942385335":{"location":[34.1870275,45.1201203],"ct":"IQ","tp":"CS","ts":"2017-06-29T14:53:21Z","tX":640,"tY":408,"tags":{"name":"ابو موستةفا","name:ar":"آبو مصطفى","name:en":"abu mistags","name:ku":"ابو موستةفا"}},"7706139486":{"location":[34.0408911,45.0055811],"ct":"IQ","tp":"CS","ts":"2020-07-12T00:55:41Z","tX":640,"tY":408,"tags":{"name":"مقررررر الواجب"}},"4936710022":{"location":[34.2708342,45.168219],"ct":"IQ","tp":"CR","ts":"2017-06-26T10:36:24Z","tX":640,"tY":408,"tags":{"name":"حميد الابرش","name:ar":"حميد الابرش"}},"4942377726":{"location":[34.1856941,45.119494],"ct":"IQ","tp":"CR","ts":"2017-06-29T15:00:37Z","tX":640,"tY":408,"tags":{}},"4942377727":{"location":[34.185111,45.1192605],"ct":"IQ","tp":"CR","ts":"2017-06-29T15:00:37Z","tX":640,"tY":408,"tags":{}},"4942377728":{"location":[34.1852279,45.1192916],"ct":"IQ","tp":"CR","ts":"2017-06-29T15:00:38Z","tX":640,"tY":408,"tags":{}},"4942377825":{"location":[34.1854703,45.1204587],"ct":"IQ","tp":"CR","ts":"2017-06-29T14:52:34Z","tX":640,"tY":408,"tags":{"name":"گةرگى جاف","name:ar":"حي الجاف","name:en":"aljaf","name:ku":"گةرگى جاف"}},"4942377828":{"location":[34.1866691,45.1188502],"ct":"IQ","tp":"CR","ts":"2017-06-29T14:52:37Z","tX":640,"tY":408,"tags":{"name":"گةركى يةكيتى","name:ar":"حي الوحدة","name:en":"united","name:ku":"گةركى يةكيتى"}},"4942385232":{"location":[34.1854811,45.1190956],"ct":"IQ","tp":"CR","ts":"2017-06-29T14:54:43Z","tX":640,"tY":408,"tags":{}},"4942385233":{"location":[34.1851178,45.1189987],"ct":"IQ","tp":"CR","ts":"2017-06-29T14:54:44Z","tX":640,"tY":408,"tags":{}},"4942385344":{"location":[34.1854137,45.1190837],"ct":"IQ","tp":"CR","ts":"2017-06-29T14:54:43Z","tX":640,"tY":408,"tags":{}},"4942385345":{"location":[34.1850099,45.1189307],"ct":"IQ","tp":"CR","ts":"2017-06-29T14:54:44Z","tX":640,"tY":408,"tags":{}},"4942385623":{"location":[34.1855799,45.1194437],"ct":"IQ","tp":"CR","ts":"2017-06-29T15:00:37Z","tX":640,"tY":408,"tags":{}},"4943532326":{"location":[34.2010947,45.1276599],"ct":"IQ","tp":"CR","ts":"2017-06-30T08:44:25Z","tX":640,"tY":408,"tags":{}},"8284451618":{"location":[34.2755773,45.1831225],"ct":"IQ","tp":"CR","ts":"2021-01-02T19:11:00Z","tX":640,"tY":408,"tags":{"name":"واثف","name:ar":"واثق"}}}