{"5817394053":{"location":[31.395135,45.2562387],"ct":"IQ","tp":"CS","ts":"2018-08-08T07:57:12Z","tX":640,"tY":417,"tags":{"name":"حيدر أبو ماجد"}},"8411609317":{"location":[31.3783245,45.2596933],"ct":"IQ","tp":"CS","ts":"2021-02-10T11:44:34Z","tX":640,"tY":417,"tags":{"addr:street":"شارع ال المجاور","internet_access":"wlan","name":"دكان خضير","name:en":"Yas","name:ku":"Yas"}},"5064297621":{"location":[31.556427,45.2418672],"ct":"IQ","tp":"CR","ts":"2017-08-28T14:30:40Z","tX":640,"tY":417,"tags":{"name":"قرية ال طواش","name:ar":"قرية ال طواش"}},"5064297622":{"location":[31.5556982,45.241528],"ct":"IQ","tp":"CR","ts":"2017-08-28T14:30:42Z","tX":640,"tY":417,"tags":{"name":"قرية ال طواش","name:ar":"قرية ال طواش"}},"6903954385":{"location":[31.4425357,45.2563848],"ct":"IQ","tp":"CR","ts":"2019-10-21T21:17:55Z","tX":640,"tY":417,"tags":{"name":"شبير كاظم"}},"9914309117":{"location":[31.4437577,45.2094938],"ct":"IQ","tp":"CR","ts":"2022-07-27T10:31:16Z","tX":640,"tY":417,"tags":{}},"10188907919":{"location":[31.4783347,45.3171516],"ct":"IQ","tp":"CR","ts":"2022-11-16T14:54:29Z","tX":640,"tY":417,"tags":{"addr:housenumber":"2","addr:street":"شارع الكرامة","internet_access":"wlan","name":"حيدرمشكورضريس","opening_hours":"24/7","phone":"07810042060"}},"10281344909":{"location":[31.3876205,45.2006919],"ct":"IQ","tp":"CR","ts":"2022-12-22T23:00:38Z","tX":640,"tY":417,"tags":{"addr:street":"احمد رسمان","opening_hours":"24/7"}},"10747884505":{"location":[31.4905999,45.3129595],"ct":"IQ","tp":"CR","ts":"2023-03-20T08:47:07Z","tX":640,"tY":417,"tags":{"internet_access":"wlan","name":"منطقة الشهداء"}},"10836472705":{"location":[31.4197898,45.2688966],"ct":"IQ","tp":"CR","ts":"2023-04-24T07:23:43Z","tX":640,"tY":417,"tags":{"name":"ابو مصطفى"}},"11521504669":{"location":[31.5268362,45.3024664],"ct":"IQ","tp":"CR","ts":"2024-01-16T10:03:37Z","tX":640,"tY":417,"tags":{"addr:street":"الوركاء","name":"صافي الياسري","name:en":"Safi Alyassiry","phone":"+9647817700944"}},"11521504769":{"location":[31.5258202,45.3030521],"ct":"IQ","tp":"CR","ts":"2024-01-16T10:03:38Z","tX":640,"tY":417,"tags":{"addr:street":"الوركاء","name":"صافي الياسري","name:en":"Safi Alyassiry","phone":"07712222321"}},"11611814669":{"location":[31.4601028,45.2925229],"ct":"IQ","tp":"CR","ts":"2024-02-11T21:43:25Z","tX":640,"tY":417,"tags":{"addr:housenumber":"313","email":"ahmaedas432@gmail.com","internet_access":"wlan","name":"حيدر جاسب","phone":"07831030800"}},"11906708569":{"location":[31.544326,45.2111208],"ct":"IQ","tp":"CR","ts":"2024-05-15T09:29:52Z","tX":640,"tY":417,"tags":{"name":"قطعه سكنيه"}}}