{"570994085":{"location":[34.305501,132.9975489],"ct":"JP","tp":"CS","ts":"2018-03-19T13:09:24Z","tX":890,"tY":408,"tags":{"name":"大久野島キャンプ場","name:ja":"大久野島キャンプ場"}},"714387575":{"location":[34.1997992,133.0762658],"ct":"JP","tp":"CS","ts":"2023-10-14T16:31:45Z","tX":890,"tY":408,"tags":{"name":"ドルフィンファームオートキャンプ場"}},"714741193":{"location":[34.1933007,133.082826],"ct":"JP","tp":"CS","ts":"2021-01-25T20:08:57Z","tX":890,"tY":408,"tags":{"fee":"yes","name":"鶏小島キャンプ場"}},"714741202":{"location":[34.1965822,133.0861951],"ct":"JP","tp":"CS","ts":"2021-01-25T20:08:57Z","tX":890,"tY":408,"tags":{"fee":"yes","name":"舟折の瀬戸キャンプ場"}},"864249570":{"location":[34.2801876,133.0732295],"ct":"JP","tp":"CS","ts":"2020-10-27T18:55:42Z","tX":890,"tY":408,"tags":{}},"4256269897":{"location":[34.1958295,133.0748433],"ct":"JP","tp":"CS","ts":"2021-02-22T11:16:34Z","tX":890,"tY":408,"tags":{"name":"見近島キャンプ場","name:en":"Michikajima Camping Site","name:ja":"見近島キャンプ場"}},"4903008622":{"location":[34.280066,133.0731067],"ct":"JP","tp":"CS","ts":"2021-05-10T14:12:33Z","tX":890,"tY":408,"tags":{"fee":"yes","name":"瀬戸田サンセットビーチ","name:en":"Setoda Sunset beach","wikidata":"Q24876269","wikipedia":"ja:瀬戸田サンセットビーチ"}},"4937644442":{"location":[34.0824371,132.9233038],"ct":"JP","tp":"CS","ts":"2017-06-26T22:15:53Z","tX":890,"tY":408,"tags":{"name":"鴨池海岸公園","name:en":"Kamoikekaigan Park","name:zh":"鴨池海岸公園"}},"6405143006":{"location":[34.2578307,133.0525808],"ct":"JP","tp":"CS","ts":"2023-09-13T11:57:21Z","tX":890,"tY":408,"tags":{"fee":"yes","name":"多々羅キャンプ場","name:en":"Tatara camping ground"}},"7039141115":{"location":[34.1836304,133.0693009],"ct":"JP","tp":"CS","ts":"2019-12-06T17:59:57Z","tX":890,"tY":408,"tags":{"name":"カレイ山展望公園キャンプ場"}},"7446669906":{"location":[34.1936199,133.0828657],"ct":"JP","tp":"CS","ts":"2020-04-25T16:04:13Z","tX":890,"tY":408,"tags":{"name:en":"Niwatorikojima Camping Ground"}},"7446669908":{"location":[34.183749,133.0692077],"ct":"JP","tp":"CS","ts":"2020-04-25T16:04:15Z","tX":890,"tY":408,"tags":{"name:en":"Kareiyamatenbo Camping Ground"}},"7446670102":{"location":[34.1965078,133.0862432],"ct":"JP","tp":"CS","ts":"2021-01-25T20:08:57Z","tX":890,"tY":408,"tags":{"name:en":"Funeorinoseto Camping Ground","phone":"+81897720018"}}}