{"220727372":{"location":[20.5554133,-13.0528919],"ct":"MR","tp":"CS","ts":"2017-08-05T19:08:11Z","tX":474,"tY":452,"tags":{"name":"نزل","name:ar":"نزل","name:fr":"Auberge"}},"221519525":{"location":[20.5012792,-13.0601756],"ct":"MR","tp":"CS","ts":"2024-04-23T07:22:20Z","tX":474,"tY":452,"tags":{"name":"Camping Inimi","name:ar":"نزل","name:en":"Camping Inimi","name:fr":"Auberge","name:it":"Camping Inimi","opening_hours":"24/7","phone":"22247554537"}},"221788941":{"location":[20.5192549,-13.0618121],"ct":"MR","tp":"CS","ts":"2023-11-16T10:44:08Z","tX":474,"tY":452,"tags":{"access":"customers","addr:city":"أطار","caravans":"yes","name":"نزل","name:ar":"نزل","name:fr":"Auberge","operator":"Bab Sahara","static_caravans":"no"}},"221917734":{"location":[20.5181856,-13.0490793],"ct":"MR","tp":"CS","ts":"2017-11-30T03:19:34Z","tX":474,"tY":452,"tags":{"addr:city":"أطار","name":"نزل","name:ar":"نزل","name:fr":"AUBERGE"}},"221974474":{"location":[20.5227756,-13.0449874],"ct":"MR","tp":"CS","ts":"2017-11-30T03:19:34Z","tX":474,"tY":452,"tags":{"addr:city":"أطار","name":"نزل","name:ar":"نزل","name:fr":"AUBERGE"}},"223962142":{"location":[20.5419841,-13.0560181],"ct":"MR","tp":"CS","ts":"2017-08-05T19:23:28Z","tX":474,"tY":452,"tags":{"name":"نزل لوحات مغاربي","name:ar":"نزل لوحات مغاربي","name:fr":"AUBERGE toiles maures"}},"428119325":{"location":[20.4808046,-13.066566],"ct":"MR","tp":"CS","ts":"2016-07-03T03:09:49Z","tX":474,"tY":452,"tags":{}},"2578282035":{"location":[20.5594804,-13.1035722],"ct":"MR","tp":"CR","ts":"2017-08-05T18:41:24Z","tX":474,"tY":452,"tags":{"addr:city":"آزوكي","internet_access:fee":"no","name":"موريتانيا مغامرة","name:ar":"موريتانيا مغامرة","name:fr":"Mauritanie Aventure"}},"5497532430":{"location":[20.5784206,-13.1160276],"ct":"MR","tp":"CS","ts":"2019-03-04T02:04:09Z","tX":474,"tY":452,"tags":{"addr:street":"BP 52 Atar Mauritanie","name:en":"Auberge de la Medina - Chez Kassem à Azougui","name:fr":"Auberge de la Medina - Chez Kassem à Azougui","operator":"Kassem Ould Sebbar","phone":"+2226749206","website":"https://www.point-afrique.com/"}}}