{"1205126984":{"location":[20.218324,-13.1464045],"ct":"MR","tp":"CS","ts":"2023-09-05T06:12:49Z","tX":474,"tY":453,"tags":{"group_only":"yes"}},"3359885868":{"location":[20.2584835,-13.0963176],"ct":"MR","tp":"CS","ts":"2023-11-24T21:06:10Z","tX":474,"tY":453,"tags":{"email":"agencecaravanemauritanie@gmail.com","internet_access":"no","name":"L'auberge Caravane du Désert","name:ar":"تخييم","name:fr":"L'auberge Caravane du Désert","phone":"+22244304511"}},"4796701621":{"location":[20.255772,-13.091984],"ct":"MR","tp":"CS","ts":"2023-11-19T14:10:52Z","tX":474,"tY":453,"tags":{"fee":"yes","name":"Chez Jemal","name:ar":"عند جمال","name:en":"Chez Jemal","static_caravans":"yes","tents":"yes"}},"6262624885":{"location":[20.0450057,-13.1132951],"ct":"MR","tp":"CS","ts":"2020-04-21T10:19:10Z","tX":474,"tY":453,"tags":{"email":"cinguetti@gmail.com","internet_access":"wlan","name:en":"Camp Erch, Oasis Toungad","name:it":"Camp Erch, Oasis Toungad","operator":"Riccardo Yahya and his wife Fatimatou","phone":"0022249911343"}},"6274806989":{"location":[20.0450482,-13.1133736],"ct":"MR","tp":"CS","ts":"2019-02-12T18:53:31Z","tX":474,"tY":453,"tags":{"name:en":"Camp Erch","name:it":"Camp Erch","opening_hours":"24/7","phone":"49911343"}},"7424354644":{"location":[20.1892497,-13.2273352],"ct":"MR","tp":"CS","ts":"2020-04-20T04:47:01Z","tX":474,"tY":453,"tags":{"backcountry":"yes"}}}