{"11335052":{"location":[61.9565579,17.338754],"ct":"SE","tp":"CR","ts":"2020-07-22T12:45:07Z","tX":561,"tY":285,"tags":{"addr:postcode":"82076","fee":"yes","name":"Mellanfjärden camping","website":"http://www.mellanfjarden.se"}},"12228439":{"location":[62.0330888,17.418193],"ct":"SE","tp":"CS","ts":"2021-01-24T15:21:10Z","tX":561,"tY":285,"tags":{"addr:city":"Gnarp","addr:postcode":"82077","name":"Sörfjärdens Camping"}},"828575563":{"location":[62.0609036,17.4321632],"ct":"SE","tp":"CS","ts":"2020-07-21T21:17:21Z","tX":561,"tY":285,"tags":{"name":"Norrfjärdens hamn"}},"1183960599":{"location":[61.9638108,17.2528731],"ct":"SE","tp":"CR","ts":"2024-04-05T09:55:30Z","tX":561,"tY":285,"tags":{"charge":"220 SEK","fee":"yes","internet_access":"wlan","internet_access:fee":"customers","name":"Älvstalodges","power_supply":"yes","power_supply:charge":"30 SEK","power_supply:fee":"yes","reservation":"yes","surface":"gravel","website":"https://alvstalodges.se/"}},"4448464163":{"location":[61.9573,17.34312],"ct":"SE","tp":"SD","ts":"2017-09-23T18:46:08Z","tX":561,"tY":285,"tags":{"access":"yes","addr:place":"Mellanfjärdens gästhamn och fritidsbåtshamn","boat":"yes","fee":"no","opening_hours":"24/7","sanitary_dump_station:accepted":"black_water","sanitary_dump_station:pump-out":"yes","seamark:small_craft_facility:category":"pump-out","seamark:type":"small_craft_facility","vehicle":"no","waterway":"sanitary_dump_station","website":"https://hamnkartan.azurewebsites.net"}}}