{"292291719":{"location":[54.7660001,17.5730442],"ct":"PL","tp":"CS","ts":"2024-07-31T22:08:59Z","tX":561,"tY":325,"tags":{"addr:city":"Łeba","addr:housenumber":"9","addr:postcode":"84-360","addr:street":"Nadmorska","barrier":"fence","capacity":"150","capacity:persons":"450","caravans":"yes","check_date":"2024-07-31","email":"biuro@camping-leba.pl","fee":"yes","internet_access":"wlan","name":"Camping nr 48 \"Przymorze\"","operator":"CAMPING \"PRZYMORZE\" NR 48 S.C.","parcells":"yes","phone":"+48 59 866 50 16;+48 59 866 13 04;+48 509 996 917","power_supply":"yes","ref:pfcc":"48","stars":"3","tents":"yes","website":"http://camping-leba.pl/"}},"292291720":{"location":[54.7659338,17.571139],"ct":"PL","tp":"CS","ts":"2024-10-07T07:51:51Z","tX":561,"tY":325,"tags":{"addr:city":"Łeba","addr:country":"PL","addr:housenumber":"9","addr:postcode":"84-360","addr:street":"Nadmorska","barrier":"fence","capacity":"170","capacity:persons":"750","check_date":"2024-07-31","contact:facebook":"https://www.facebook.com/Domki-i-Camping-nr-41-AMBRE-%C5%81eba-223919301401466","email":"ambre@leba.info","fee":"yes","internet_access":"terminal","mobile":"+48 515 049 779 , +48 500 533 466","name":"Ambre","phone":"+48 666 165 659, +48 59 866 24 72, +48 662 264 059","power_supply":"yes","ref:pfcc":"41","stars":"4","static_caravans":"yes","tents":"yes","website":"https://ambre.leba.info/"}},"292317716":{"location":[54.7588099,17.5406382],"ct":"PL","tp":"CS","ts":"2024-07-31T22:08:59Z","tX":561,"tY":325,"tags":{"addr:city":"Łeba","addr:housenumber":"10-12","addr:postcode":"84-360","addr:street":"Turystyczna","caravans":"yes","check_date":"2024-07-31","email":"recepcja@intercamp84.eu","fee":"yes","internet_access":"wlan","internet_access:fee":"no","name":"Intercamp '84","phone":"+48 503 041 838, +48 513 031 025","ref:pfcc":"84","stars":"3","static_caravans":"yes","tents":"yes","tourism_1":"camp_site","website":"https://www.intercamp84.eu/"}},"351272204":{"location":[54.7620278,17.5650945],"ct":"PL","tp":"CS","ts":"2024-08-20T09:09:02Z","tX":561,"tY":325,"tags":{"addr:city":"Łeba","addr:housenumber":"16A","addr:postcode":"84-360","addr:street":"Brzozowa","capacity:caravans":"90","capacity:persons":"200","caravans":"yes","check_date":"2024-07-31","dog":"yes","email":"camping_51_lesny@wp.pl","fax":"+48 59 8662811","fee":"yes","fridge":"yes","internet_access":"wlan","internet_access:fee":"no","kitchen":"yes","maxtents":"50","name":"Camping Leśny nr 51","operator":"Elżbieta i Jan Stanuch","phone":"+48 59 8662811, 503071245","power_supply":"yes","ref:pfcc":"51","sanitary_dump_station":"yes","shower":"yes","stars":"4","static_caravans":"yes","tents":"yes","toilets":"yes","website":"http://www.camping51.pl/"}},"352128073":{"location":[54.7571288,17.5463847],"ct":"PL","tp":"CS","ts":"2024-08-31T20:05:52Z","tX":561,"tY":325,"tags":{"addr:city":"Łeba","addr:postcode":"84-360","caravans":"yes","email":"campingrafael@campingrafael.pl","fee":"yes","name":"Rafael","phone":"+48 598661972","power_supply":"yes","ref:pfcc":"145","stars":"4","tents":"yes","tourism_1":"camp_site","website":"https://www.campingrafael.pl/"}},"886678409":{"location":[54.7565168,17.551345],"ct":"PL","tp":"CS","ts":"2024-07-31T20:02:16Z","tX":561,"tY":325,"tags":{"addr:city":"Łeba","addr:housenumber":"6","addr:postcode":"84-360","addr:street":"Wspólna","cabins":"yes","capacity:persons":"250","caravans":"yes","email":"marcopolo@leba.info","internet_access":"wlan","mobile":"+48 604 969 317;+48 602 713 162","name":"Marco Polo","phone":"+48 59 866 17 66;+48 59 866 23 33","ref:pfcc":"81","shower":"yes","stars":"3","tents":"yes","toilets":"yes","website":"https://www.marcopolo.leba.info/"}},"918591897":{"location":[54.7617253,17.5396136],"ct":"PL","tp":"CS","ts":"2024-07-31T22:08:59Z","tX":561,"tY":325,"tags":{"addr:city":"Łeba","addr:housenumber":"3","addr:postcode":"84-360","addr:street":"Turystyczna","cabins":"yes","capacity:persons":"600","caravans":"yes","check_date":"2024-07-31","email":"camping.morski@gmail.com","fax":"+48 59 8661 380","internet_access":"wlan","name":"Camping nr 21 Morski","phone":"+48 664 258 806","ref:pfcc":"21","shower":"yes","stars":"3","tents":"yes","toilets":"yes","website":"https://www.camping21.pl/"}},"919096995":{"location":[54.6788676,17.4359859],"ct":"PL","tp":"CS","ts":"2010-09-19T21:54:53Z","tX":561,"tY":325,"tags":{}},"966577016":{"location":[54.7655224,17.5500904],"ct":"PL","tp":"CR","ts":"2021-07-22T20:43:59Z","tX":561,"tY":325,"tags":{}},"966577017":{"location":[54.765305,17.5491073],"ct":"PL","tp":"CR","ts":"2021-07-22T20:45:53Z","tX":561,"tY":325,"tags":{}},"1063647780":{"location":[54.7230549,17.5358104],"ct":"PL","tp":"CS","ts":"2022-05-25T14:38:01Z","tX":561,"tY":325,"tags":{"name":"U Woja","residential":"rural"}},"1069488235":{"location":[54.7638499,17.5312614],"ct":"PL","tp":"CS","ts":"2024-03-21T15:47:42Z","tX":561,"tY":325,"tags":{"barrier":"fence","cabins":"4","caravans":"yes","dog":"yes","drinking_water":"yes","fee":"yes","hot_water":"yes","internet_access":"wlan","internet_access:fee":"no","name":"FLY Resort Łeba","natural":"wood","payment:cash":"yes","payment:coins":"yes","payment:credit_cards":"yes","payment:mastercard":"yes","payment:visa":"yes","phone":"+48 500 240 142","power_supply":"yes","sanitary_dump_station":"no","shower":"yes","stars":"2","tents":"yes","toilets":"yes","website":"https://leba.flyresort.pl/"}},"1069593120":{"location":[54.7626673,17.5363835],"ct":"PL","tp":"CS","ts":"2025-06-14T10:13:41Z","tX":561,"tY":325,"tags":{"addr:city":"Łeba","addr:housenumber":"1","addr:postcode":"84-360","addr:street":"Turystyczna","alt_name":"Camping nr 275 Łebski Kemping","barrier":"fence","cabins":"yes","caravans":"yes","email":"biuro@lebskikemping.pl","internet_access":"wlan","internet_access:fee":"no","name":"Camping Łebski","operator":"Baltic Pro S.c.","phone":"+48 797 185 036; +48 692 194 685; +48 59 866 14 35","ref:pfcc":"275","shower":"yes","stars":"2","tents":"yes","toilets":"yes","website":"http://www.lebskikemping.pl/"}},"1083463834":{"location":[54.7626042,17.571549],"ct":"PL","tp":"CS","ts":"2022-08-03T09:32:21Z","tX":561,"tY":325,"tags":{"name":"Filarówka"}},"1086745706":{"location":[54.6990289,17.2480051],"ct":"PL","tp":"CS","ts":"2022-08-16T16:51:15Z","tX":561,"tY":325,"tags":{"name":"Camp-Classic"}},"1201179887":{"location":[54.7626673,17.536417],"ct":"PL","tp":"CS","ts":"2024-04-18T15:55:34Z","tX":561,"tY":325,"tags":{"addr:city":"Łeba","addr:housenumber":"1","addr:postcode":"84-360","addr:street":"Turystyczna","alt_name":"Camping nr 275 Łebski Kemping","barrier":"fence","cabins":"yes","caravans":"yes","email":"biuro@lebskikemping.pl","internet_access":"wlan","internet_access:fee":"no","name":"Camping Łebski","operator":"Baltic Pro S.c.","phone":"+48 797 185 036; +48 692 194 685; +48 59 866 14 35","ref:pfcc":"275","shower":"yes","stars":"2","tents":"yes","toilets":"yes","website":"http://www.lebskikemping.pl/"}},"2438736808":{"location":[54.7603321,17.5562748],"ct":"PL","tp":"CS","ts":"2013-08-30T08:05:36Z","tX":561,"tY":325,"tags":{"internet_access":"yes","name":"Stella"}},"2996262850":{"location":[54.7023226,17.2463406],"ct":"PL","tp":"CS","ts":"2024-06-28T17:38:15Z","tX":561,"tY":325,"tags":{"email":"kontakt@rybaczowka.com","name":"Rybaczówka","phone":"+48693430785","website":"https://www.rybaczowka.com/"}},"2996262898":{"location":[54.7013075,17.2469235],"ct":"PL","tp":"CS","ts":"2016-07-25T21:53:20Z","tX":561,"tY":325,"tags":{}},"9795519117":{"location":[54.6459635,17.2408585],"ct":"PL","tp":"CS","ts":"2022-06-04T19:58:12Z","tX":561,"tY":325,"tags":{"name":"Baza pod Lasem","name:en":"Base near the forest"}},"9827939155":{"location":[54.6939916,17.25681],"ct":"PL","tp":"CS","ts":"2022-06-18T10:47:48Z","tX":561,"tY":325,"tags":{"name":"Spokojne Ranczo"}},"9953016307":{"location":[54.7009082,17.2472437],"ct":"PL","tp":"CS","ts":"2022-08-14T16:36:18Z","tX":561,"tY":325,"tags":{"caravans":"yes","name":"Pole Namiotowe U Jadzi","sanitary_dump_station":"yes","tents":"yes"}},"11884956996":{"location":[54.6873366,17.2823462],"ct":"PL","tp":"CS","ts":"2024-05-06T20:55:52Z","tX":561,"tY":325,"tags":{"name":"Historic Camp"}},"4337140614":{"location":[54.7593832,17.5412063],"ct":"PL","tp":"CR","ts":"2016-08-05T14:41:30Z","tX":561,"tY":325,"tags":{"internet_access":"wlan"}}}