{"352142481":{"location":[53.9327799,17.5260898],"ct":"PL","tp":"CS","ts":"2023-12-24T08:41:27Z","tX":561,"tY":329,"tags":{"addr:city":"Laska","name":"Pole namiotowe Laska","natural":"grassland","phone":"+48 600759423;+48 600755766"}},"364859306":{"location":[53.853206,17.5776934],"ct":"PL","tp":"CS","ts":"2015-08-10T07:13:08Z","tX":561,"tY":329,"tags":{"caravans":"yes","fee":"yes","name":"Camping Drzewicz","tents":"yes"}},"368365202":{"location":[53.8731353,17.5051115],"ct":"PL","tp":"CS","ts":"2023-11-04T16:43:56Z","tX":561,"tY":329,"tags":{"fee":"yes","landcover":"grass","name":"Stanica wodna PTTK Swornegacie","source":"survey","website":"https://www.swornegacie-pttk.pl/"}},"501019683":{"location":[53.8670214,17.506158],"ct":"PL","tp":"CS","ts":"2017-06-16T16:05:40Z","tX":561,"tY":329,"tags":{"internet_access":"no","name":"kajaki-kaszuby.pl","smoking":"yes"}},"888249686":{"location":[53.8562642,17.4991373],"ct":"PL","tp":"CS","ts":"2021-07-15T20:56:26Z","tX":561,"tY":329,"tags":{"cabins":"yes","capacity:cabins":"18","caravans":"yes","dog":"leashed","fee":"yes","lit":"no","name":"Wodnik Ośrodek Wypoczynkowy","phone":"+48600123464","power_supply":"yes","shower":"yes","tents":"yes","toilets":"yes","website":"http://www.wodnikswornegacie.pl/"}},"951899368":{"location":[53.7798358,17.2531373],"ct":"PL","tp":"CS","ts":"2022-09-19T08:24:56Z","tX":561,"tY":329,"tags":{"addr:city":"Przechlewo","addr:housenumber":"60","addr:postcode":"77-320","addr:street":"Człuchowska","landuse":"recreation_ground","name":"Ośrodek Sportu i Rekreacji Przechlewo","phone":"+48598334405","website":"http://www.poleprzechlewo.maxmedia.pl"}},"1050207533":{"location":[53.8064332,17.3515145],"ct":"PL","tp":"CS","ts":"2022-04-08T08:30:18Z","tX":561,"tY":329,"tags":{"name":"Pole namiotowe - \"Żmijowisko\"","operator":"Żmijowisko"}},"1233778946":{"location":[53.9325166,17.5455956],"ct":"PL","tp":"CS","ts":"2023-12-24T09:12:35Z","tX":561,"tY":329,"tags":{"landuse":"meadow","name":"Pole biwakowe w Widnie"}},"1307291195":{"location":[53.9036528,17.232852],"ct":"PL","tp":"CS","ts":"2024-08-12T16:59:12Z","tX":561,"tY":329,"tags":{"cabins":"no","fee":"no","internet_access":"no","motorhome":"no","reservation":"no","sanitary_dump_station":"no","tents":"yes","wheelchair":"no"}},"1307291196":{"location":[53.9045583,17.2324379],"ct":"PL","tp":"CS","ts":"2024-08-12T16:30:47Z","tX":561,"tY":329,"tags":{"cabins":"no","fee":"no","internet_access":"no","motorhome":"no","reservation":"no","sanitary_dump_station":"no","tents":"yes","wheelchair":"no"}},"2329326292":{"location":[53.7990885,17.4429744],"ct":"PL","tp":"CS","ts":"2024-08-27T08:13:57Z","tX":561,"tY":329,"tags":{"designation":"Campsite","name":"BABILON HOME&FAMILY - domki w Borach Tucholskich","phone":"666111827","website":"https://babilonhf.pl/"}},"3744677222":{"location":[53.8172693,17.4879726],"ct":"PL","tp":"CS","ts":"2016-08-24T08:34:56Z","tX":561,"tY":329,"tags":{"name":"Camping"}},"4255578694":{"location":[53.8700911,17.5475024],"ct":"PL","tp":"CR","ts":"2016-06-21T09:38:27Z","tX":561,"tY":329,"tags":{"addr:housenumber":"4","addr:place":"Płęsno","addr:postcode":"89-608","name":"Agrokemping","opening_hours":"24/7"}},"4364353899":{"location":[53.8048424,17.3518583],"ct":"PL","tp":"CS","ts":"2022-11-05T14:23:30Z","tX":561,"tY":329,"tags":{}},"4364353900":{"location":[53.8051666,17.3501234],"ct":"PL","tp":"CS","ts":"2022-11-05T14:23:31Z","tX":561,"tY":329,"tags":{}},"4364353901":{"location":[53.8140092,17.4101377],"ct":"PL","tp":"CS","ts":"2022-11-05T14:23:32Z","tX":561,"tY":329,"tags":{}},"4408025669":{"location":[53.8384667,17.4939278],"ct":"PL","tp":"CS","ts":"2016-09-19T11:29:31Z","tX":561,"tY":329,"tags":{"name":"Kokoszka"}},"4408027594":{"location":[53.8322616,17.4942302],"ct":"PL","tp":"CS","ts":"2016-09-19T11:30:04Z","tX":561,"tY":329,"tags":{}},"5829104653":{"location":[53.8508468,17.4347642],"ct":"PL","tp":"CS","ts":"2018-08-13T10:05:38Z","tX":561,"tY":329,"tags":{"is_in:village":"Sepiot","name":"U Dolnych","website":"https://www.facebook.com/Sepiot.uDolnych/"}},"8920075869":{"location":[53.8619118,17.5536232],"ct":"PL","tp":"CS","ts":"2021-07-14T16:53:23Z","tX":561,"tY":329,"tags":{}},"11053607204":{"location":[53.8765311,17.5241403],"ct":"PL","tp":"CS","ts":"2023-07-29T09:07:43Z","tX":561,"tY":329,"tags":{"addr:housenumber":"5","addr:place":"Kamionka","name":"u Gosi i Michala","phone":"+48 662 322 956"}},"12236250843":{"location":[53.8622778,17.5665377],"ct":"PL","tp":"CS","ts":"2024-10-08T19:51:40Z","tX":561,"tY":329,"tags":{"name":"Miejsce biwakowania Na Cyplu"}}}