{"823395860":{"location":[52.5648188,17.3840835],"ct":"PL","tp":"CS","ts":"2023-04-25T08:02:10Z","tX":561,"tY":335,"tags":{"access":"private","addr:city:simc":"0584857","addr:place":"Imiołki","addr:postcode":"62-280","alt_name":"Baza Imiołki","description":"Stanica harcerska Baza Imiołki przyjmuje biwaki i obozy harcerskie oraz imprezy okolicznościowe. Przez większą część roku baza jest zamknięta. Z infrastruktury mogą korzystać tylko uczestnicy wypoczynku na bazie- dla osób z zewnątrz obiekt jest zamknięty.","email":"jakub.pozniak@zhp.net.pl","group_only":"yes","internet_access":"no","name":"Stanica „Orle Gniazdo”","official_name":"Stanica Obozowa Hufca Poznań Nowe Miasto w Imiołkach","operator":"Hufiec Poznań-Nowe Miasto, Związek Harcerstwa Polskiego","phone":"+48 579 965 227","scout":"yes","shower":"yes","toilets":"yes","website":"http://www.bazaimiolki.pl"}},"2390822197":{"location":[52.4923098,17.2465298],"ct":"PL","tp":"CS","ts":"2019-08-20T10:17:35Z","tX":561,"tY":335,"tags":{"backcountry":"yes"}},"5816404565":{"location":[52.5543574,17.3871195],"ct":"PL","tp":"CS","ts":"2024-05-23T11:17:36Z","tX":561,"tY":335,"tags":{"addr:housenumber":"12","addr:place":"Waliszewo","addr:postcode":"62-270","backcountry":"no","caravans":"yes","contact:facebook":"facebook.com/AgroturystykaMatMar","email":"matmar121@wp.pl","group_only":"no","internet_access":"no","name":"MatMar","payment:cash":"yes","payment:coins":"yes","payment:notes":"no","phone":"+48 695 562 435;+48 609 302 086;","tents":"yes"}},"5816404566":{"location":[52.5547243,17.387207],"ct":"PL","tp":"CS","ts":"2018-08-07T21:18:47Z","tX":561,"tY":335,"tags":{"backcountry":"no","caravans":"yes","group_only":"no","tents":"yes"}},"6719711105":{"location":[52.5561256,17.3782409],"ct":"PL","tp":"CS","ts":"2020-12-19T12:44:45Z","tX":561,"tY":335,"tags":{"addr:city:simc":"0584857","addr:place":"Imiołki","addr:postcode":"62-280","caravans":"yes","email":"kontakt@biwaklednica.pl","name":"Biwak Lednica","phone":"+48 501 519 933","power_supply":"yes","tents":"yes","website":"http://biwaklednica.pl/","wheelchair":"yes"}},"8473841438":{"location":[52.6596959,17.4759748],"ct":"PL","tp":"CS","ts":"2021-02-28T22:30:28Z","tX":561,"tY":335,"tags":{"alt_name":"Kemping Borzątew","caravans":"yes","email":"campingborzatew@wp.pl","mobile":"+48 603 632 795","name":"Camping Borzątew","tents":"yes","website":"https://pl-pl.facebook.com/pg/campingborzatew/"}}}