{"497644142":{"location":[46.8028836,17.5189405],"ct":"HU","tp":"CS","ts":"2023-11-16T17:57:24Z","tX":561,"tY":360,"tags":{"addr:city":"Badacsonytomaj","addr:housenumber":"13","addr:postcode":"8258","addr:street":"Balaton utca","contact:fax":"+36 87 471 321","dog":"permissive","email":"tomajcamping@t-online.hu","name":"Tomaj Camping","note":"Házirend: \"A kemping területére állatot csak előzetes egyeztetés után, térítés ellenében lehet behozni.\"","phone":"+36 87 571 027;+36 70 947 9739","source":"turistautak.hu","source:date":"2011-06-28","url":"http://turistautak.hu/poi.php?id=15583","website":"https://www.tomajcamping.hu/"}},"2347344632":{"location":[46.8944921,17.2317573],"ct":"HU","tp":"CS","ts":"2015-08-31T15:28:44Z","tX":561,"tY":360,"tags":{"addr:city":"Zalaszántó","addr:housenumber":"192/3","addr:postcode":"8353","addr:street":"Fő utca","name":"St. Vendel Camping"}},"3448565446":{"location":[46.9879865,17.5645097],"ct":"HU","tp":"CS","ts":"2016-06-10T10:47:46Z","tX":561,"tY":360,"tags":{"name":"Napfény kemping","source":"turistautak.hu http://www.napfenycamping.hu/","source:date":"2011-11-01","url":"http://turistautak.hu/poi.php?id=127186"}},"4891954621":{"location":[46.9646727,17.2914666],"ct":"HU","tp":"CS","ts":"2021-01-30T12:26:52Z","tX":561,"tY":360,"tags":{"contact:facebook":"https://facebook.com/mogyorosdomb/","contact:phone":"+36 20 417 6346","dog":"yes","fixme":"verify","name":"Kovakő Camp"}},"11059927205":{"location":[46.8479778,17.5097277],"ct":"HU","tp":"CS","ts":"2023-07-22T08:51:30Z","tX":561,"tY":360,"tags":{"name:en":"Nomad Camping","website":"https://kaptalantoti.hu/news.php?item.149.2"}}}