{"2805035":{"location":[46.7892547,17.4747363],"ct":"HU","tp":"CS","ts":"2013-03-06T17:13:57Z","tX":561,"tY":361,"tags":{"name":"Eldorado Camping"}},"4848368":{"location":[46.7522439,17.331796],"ct":"HU","tp":"CS","ts":"2024-05-23T19:51:52Z","tX":561,"tY":361,"tags":{"fee":"yes","internet_access":"wlan","openfire":"yes","payment:visa":"yes","tents":"no","website":"https://www.balatontourist.hu/"}},"80823689":{"location":[46.7673609,17.2593404],"ct":"HU","tp":"CS","ts":"2013-01-18T17:08:43Z","tX":561,"tY":361,"tags":{"name":"Castrum Camping"}},"210755360":{"location":[46.7336579,17.5322892],"ct":"HU","tp":"CS","ts":"2024-12-04T09:59:59Z","tX":561,"tY":361,"tags":{"addr:city":"Fonyód","addr:housenumber":"37","addr:postcode":"8640","addr:street":"Vitorlás utca","contact:email":"napsugar@balatontourist.hu","contact:mobile":"+36 30 486 3953","contact:website":"https://www.napsugarkemping.hu/","internet_access":"wlan","name":"Napsugár Kemping","operator":"Napsugár Kemping"}},"296485514":{"location":[46.6840355,17.5596036],"ct":"HU","tp":"CS","ts":"2025-06-21T10:07:04Z","tX":561,"tY":361,"tags":{"name":"Csiszta Fürdő Thermál Camping","website":"http://www.csisztafurdo.hu/"}},"356338082":{"location":[46.7908966,17.3853155],"ct":"HU","tp":"CS","ts":"2023-07-01T23:11:11Z","tX":561,"tY":361,"tags":{"addr:postcode":"8312","addr:street":"Strand utca","capacity":"200","contact:website":"https://deltacamping.hu/","email":"delcamp@t-online.hu","name":"Delta Camping","opening_hours":"May-Sep: sunrise-sunset","phone":"+36 20 924 5662"}},"520114548":{"location":[46.7033279,17.3707004],"ct":"HU","tp":"CR","ts":"2017-08-30T19:55:53Z","tX":561,"tY":361,"tags":{}},"986970962":{"location":[46.7832333,17.4995192],"ct":"HU","tp":"CS","ts":"2024-11-11T12:37:17Z","tX":561,"tY":361,"tags":{"contact:email":"info@badacsonycamping.hu","contact:facebook":"https://www.facebook.com/Badacsonycamping","contact:mobile":"+36 30 339 9643","contact:website":"https://badacsonycamping.hu/","dog":"yes","name":"Badacsony Camping"}},"1095473941":{"location":[46.7144195,17.3274724],"ct":"HU","tp":"CS","ts":"2023-10-31T10:54:42Z","tX":561,"tY":361,"tags":{"caravans":"no","drinking_water":"yes","internet_access":"wlan","name":"Tekergő","power_supply":"yes","shower":"yes","tents":"yes","toilets":"yes","website":"https://www.tekergobalaton.hu/Satorozas/Satorozas.html"}},"1200912072":{"location":[46.7642919,17.2912439],"ct":"HU","tp":"CS","ts":"2023-08-21T18:29:14Z","tX":561,"tY":361,"tags":{}},"1200912900":{"location":[46.7649408,17.2895822],"ct":"HU","tp":"CS","ts":"2023-08-21T18:32:35Z","tX":561,"tY":361,"tags":{}},"2112223647":{"location":[46.7649897,17.285985],"ct":"HU","tp":"CS","ts":"2025-06-22T00:19:59Z","tX":561,"tY":361,"tags":{"access":"yes","addr:city":"Gyenesdiás","addr:housenumber":"68","addr:postcode":"8315","addr:street":"Béke utca","camp_site":"serviced","caravans":"yes","contact:mobile":"+36 70 379 8781","email":"info@tunderkemping.hu","name":"Tündérkert Kemping","opening_hours":"01:01-31:12","tents":"yes","website":"https://tkcamping.my.canva.site/magyar","website:1":"https://tkcamping.my.canva.site/english"}},"2119239151":{"location":[46.7538048,17.3167068],"ct":"HU","tp":"CS","ts":"2023-07-30T19:11:39Z","tX":561,"tY":361,"tags":{"access":"customers","caravans":"yes","drinking_water":"yes","internet_access":"wlan","name":"Eldorádó Kemping, Campsite","power_supply":"yes","shower":"yes","tents":"yes","wheelchair":"limited"}},"3454647468":{"location":[46.764878,17.289977],"ct":"HU","tp":"CS","ts":"2023-11-16T17:57:24Z","tX":561,"tY":361,"tags":{"addr:city":"Gyenesdiás","addr:housenumber":"43","addr:postcode":"8315","addr:street":"Madách utca","contact:fax":"+36 83 316 382","email":"caravancamping@freemail.hu","name":"Caravan Camping","phone":"+36 83 316 020;+36 30 391 8307","source":"turistautak.hu","source:date":"2011-05-26","stars":"3","url":"http://turistautak.hu/poi.php?id=15426","website":"http://www.caravancamping.hu/"}},"3454647482":{"location":[46.760695,17.316278],"ct":"HU","tp":"CS","ts":"2023-11-16T17:57:24Z","tX":561,"tY":361,"tags":{"addr:city":"Vonyarcvashegy","addr:housenumber":"2","addr:postcode":"8314","addr:street":"Fürdő utca","contact:fax":"+36 83 348 714","email":"elan97@t-online.hu","name":"Eldorádó Fogadó-Kemping","phone":"+36 83 348 714;+36 20 476 1984","source":"turistautak.hu","source:date":"2011-05-26","url":"http://turistautak.hu/poi.php?id=17553","website":"http://www.eldorado.tar.hu"}},"3454648855":{"location":[46.781983,17.282933],"ct":"HU","tp":"CS","ts":"2023-11-16T17:57:24Z","tX":561,"tY":361,"tags":{"addr:city":"Gyenesdiás","addr:housenumber":"36","addr:postcode":"8315","addr:street":"Lőtéri utca","contact:fax":"+36 83 316 803","email":"st.ilona@freemail.hu","name":"Szent Ilona Kemping","phone":"+36 83 316 803;+36 30 480 0010","source":"turistautak.hu","source:date":"2012-11-01","url":"http://turistautak.hu/poi.php?id=146639","website":"http://sz-grof.wix.com/st_ilona_camping2"}},"3454648876":{"location":[46.76486,17.290883],"ct":"HU","tp":"CS","ts":"2015-04-13T20:39:10Z","tX":561,"tY":361,"tags":{"name":"Tulipán kemping","source":"turistautak.hu","source:date":"2011-05-26","url":"http://turistautak.hu/poi.php?id=27451"}},"3454649794":{"location":[46.76415,17.302783],"ct":"HU","tp":"CS","ts":"2023-11-16T17:57:24Z","tX":561,"tY":361,"tags":{"addr:city":"Gyenesdiás","addr:housenumber":"6","addr:postcode":"8315","addr:street":"Napfény utca","contact:fax":"+36 83 316 483","description":"Josef Apartmanház","email":"josef@josef.hu","fixme":"resurvey (source was old)","name":"Wellness Park Panzió & Camping","phone":"+36 83 316 483;+36 70 384 8633","source":"turistautak.hu","source:date":"2008-02-12","url":"http://turistautak.hu/poi.php?id=15106","website":"http://www.josef.hu"}},"3454650785":{"location":[46.770283,17.289067],"ct":"HU","tp":"CS","ts":"2023-11-16T17:57:24Z","tX":561,"tY":361,"tags":{"addr:city":"Gyenesdiás","addr:housenumber":"9","addr:postcode":"8315","addr:street":"Madách utca","contact:fax":"+36 83 316 806","fixme":"resurvey (source was old)","name":"Éden kemping","phone":"+36 83 316 867;+36 30 911 1795","source":"turistautak.hu","source:date":"2008-02-12","url":"http://turistautak.hu/poi.php?id=15104"}},"3469977698":{"location":[46.713383,17.311],"ct":"HU","tp":"CS","ts":"2023-11-16T17:57:24Z","tX":561,"tY":361,"tags":{"addr:city":"Balatonberény","addr:housenumber":"2","addr:postcode":"8649","addr:street":"Hétvezér utca","contact:fax":"+36 85 377 715","contact:website":"https://turizmus.balatonbereny.hu/strandok/naturista-strand","email":"naturista@t-online.hu","name":"Naturista Camping","nudism":"obligatory","opening_hours":"09:00-19:00","phone":"+36 85 377 715;+36 70 379 7901","source":"turistautak.hu","source:date":"2012-10-14","url":"http://turistautak.hu/poi.php?id=15038"}},"4083290875":{"location":[46.7505998,17.3498717],"ct":"HU","tp":"CS","ts":"2016-03-28T16:25:27Z","tX":561,"tY":361,"tags":{"name":"Camping Carina"}},"5825414653":{"location":[46.7303663,17.5280298],"ct":"HU","tp":"CS","ts":"2018-08-11T15:35:05Z","tX":561,"tY":361,"tags":{}},"5918796586":{"location":[46.6984151,17.3568791],"ct":"HU","tp":"CS","ts":"2023-03-13T15:31:44Z","tX":561,"tY":361,"tags":{"name":"Hamvas Béla Borút - Pihenőhely"}},"5918801585":{"location":[46.6961729,17.3613206],"ct":"HU","tp":"CS","ts":"2018-12-26T20:34:23Z","tX":561,"tY":361,"tags":{"name":"Vadkempingező hely","name:en":"Wild camping spot"}},"5918801885":{"location":[46.7105781,17.3594788],"ct":"HU","tp":"CS","ts":"2018-12-26T20:34:25Z","tX":561,"tY":361,"tags":{"name":"Vadkempingező hely a parton","name:en":"Wild camping spot on the beach"}},"6765257666":{"location":[46.7049336,17.4209073],"ct":"HU","tp":"CS","ts":"2019-09-01T23:55:32Z","tX":561,"tY":361,"tags":{}},"6772625685":{"location":[46.765885,17.2560518],"ct":"HU","tp":"CS","ts":"2024-10-03T14:52:21Z","tX":561,"tY":361,"tags":{"addr:city":"Keszthely","addr:housenumber":"33","addr:postcode":"8360","addr:street":"Apát utca","caravans":"yes","contact:email":"molcamp90@gmail.com","contact:facebook":"https://facebook.com/campinggartnerhof","contact:phone":"+36 20 524 7665; +36 83 319 900","contact:website":"https://www.campinggartnerhof.eu/","motorhome":"yes","name":"Camping Gärtnerhof","opening_hours":"Apr 15-Oct 15","shower":"yes","tents":"yes","toilets":"yes"}},"7685203488":{"location":[46.7106621,17.3014003],"ct":"HU","tp":"CS","ts":"2023-11-17T19:26:15Z","tX":561,"tY":361,"tags":{"addr:city":"Balatonberény","addr:housenumber":"1","addr:postcode":"8649","addr:street":"Gábor Áron utca","cabins":"yes","caravans":"yes","contact:email":"kempingkocsag@gmail.com","contact:mobile":"+36 30 459 7221","contact:phone":"+36 85 310 036","contact:website":"https://kocsagkemping.hu/","name":"Kócsag kemping","name:en":"Kócsag Camping","shower":"yes","tents":"yes","toilets":"yes"}},"9911585772":{"location":[46.7650488,17.2907198],"ct":"HU","tp":"CS","ts":"2022-07-26T11:52:23Z","tX":561,"tY":361,"tags":{"name":"Vadócztanya sport- és ifjúsági tábor"}}}