{"89140163":{"location":[46.1048255,17.4349395],"ct":"HU","tp":"CR","ts":"2010-12-11T21:06:42Z","tX":561,"tY":363,"tags":{}},"3465201703":{"location":[46.239248,17.364006],"ct":"HU","tp":"CS","ts":"2023-11-16T17:57:24Z","tX":561,"tY":363,"tags":{"addr:city":"Nagyatád","addr:housenumber":"75","addr:postcode":"7500","addr:street":"Zrínyi Miklós utca","caravans":"yes","contact:fax":"+36 83 314 422","email":"nagyatad@castrum-gruo.hu","name":"Nagyatádi Castrum Termálkemping","phone":"+36 82 452 136","source":"turistautak.hu","source:date":"2013-08-15","tents":"no","url":"http://turistautak.hu/poi.php?id=15173","website":"http://www.castrum-group.hu"}},"3468120051":{"location":[46.1054499,17.4354075],"ct":"HU","tp":"CS","ts":"2024-06-24T16:14:00Z","tX":561,"tY":363,"tags":{"addr:postcode":"7555","addr:street":"Fürdő tér","contact:fax":"+36 82 475 024","email":"csokonya@t-online.hu","name":"Thermal Camping","phone":"+36 82 475 024","source":"turistautak.hu","source:date":"2012-10-14","url":"http://turistautak.hu/poi.php?id=15074","website":"https://www.csokonyavisontafurdo.hu/"}}}