{"729678861":{"location":[43.1397286,17.2808121],"ct":"HR","tp":"CS","ts":"2019-09-29T15:51:41Z","tX":561,"tY":375,"tags":{"name":"Camp Viter","website":"http://www.camp-viter.com/"}},"1181833540":{"location":[43.1224353,17.3056974],"ct":"HR","tp":"CS","ts":"2024-09-21T14:04:33Z","tX":561,"tY":375,"tags":{"addr:city":"Podaca","addr:housenumber":"31a","addr:postcode":"21335","addr:street":"Ravanje","capacity:caravans":"16","capacity:tents":"7","caravans":"yes","dog":"yes","drinking_water":"yes","email":"info@camp-podaca.com","fee":"yes","internet_access":"wlan","motor_vehicle":"yes","name":"Camp Podaca","nudism":"no","opening_hours":"Apr 15-Oct 20; PH open","phone":"+385 99 600 2577","power_supply":"yes","reservation":"recommended","sanitary_dump_station":"customers","tents":"yes","washing_machine":"yes","website":"https://www.camp-podaca.com"}},"2990011601":{"location":[43.1311456,17.2872781],"ct":"HR","tp":"CS","ts":"2023-01-08T09:52:44Z","tX":561,"tY":375,"tags":{"addr:city":"Podaca","addr:housenumber":"23","addr:postcode":"21333","addr:street":"Lučica","name":"Camp Uvala Borova","phone":"+385 21 629 111","wheelchair":"yes"}},"4249213881":{"location":[43.0733351,17.4193974],"ct":"HR","tp":"CS","ts":"2016-06-22T15:24:17Z","tX":561,"tY":375,"tags":{"addr:housenumber":"21","addr:street":"Baćinska jezera","capacity":"50","fee":"yes","name":"Kamp Baćinska jezera","operator":"camping bacinska jezera"}},"6835298492":{"location":[43.1394791,17.2807914],"ct":"HR","tp":"SD","ts":"2019-09-29T15:51:41Z","tX":561,"tY":375,"tags":{}},"10974550457":{"location":[43.1224461,17.3058361],"ct":"HR","tp":"SD","ts":"2023-06-13T18:31:30Z","tX":561,"tY":375,"tags":{"access":"customers"}}}