{"325863925":{"location":[40.3012535,17.5774365],"ct":"IT","tp":"CS","ts":"2024-09-23T11:32:20Z","tX":561,"tY":386,"tags":{"caravans":"no","name":"GianVille","tents":"no","website":"https://www.gianville.com/"}},"423831009":{"location":[40.3803469,17.2901608],"ct":"IT","tp":"CS","ts":"2023-04-01T10:49:06Z","tX":561,"tY":386,"tags":{"access":"private","addr:city":"Leporano","addr:postcode":"74020","addr:street":"via margherite","fee":"yes","name":"Santomaj","nohousenumber":"yes","phone":"+39 099 533 2275","website":"http://www.santomaj.com/"}},"1317588228":{"location":[40.363332,17.3235021],"ct":"IT","tp":"CR","ts":"2024-10-23T09:52:03Z","tX":561,"tY":386,"tags":{"addr:city":"Leporano","area":"yes","bbq":"yes","capacity":"14","email":"pigalle76@gmail.com","fee":"yes","name":"Sosta Camper Baia d'argento","phone":"+39 392 1320941","power_supply":"yes","sanitary_dump_station":"yes","socket:cee_blue":"yes","washing_machine":"yes","website":"https://www.facebook.com/sostacamperbaiadargento/"}},"1317590471":{"location":[40.3701567,17.3107747],"ct":"IT","tp":"CS","ts":"2024-10-23T09:53:11Z","tX":561,"tY":386,"tags":{"cabins":"yes","caravans":"yes","dog":"yes","drinking_water":"yes","email":"info@portopirronecamping.it","fee":"yes","motorhome":"yes","name":"Camping Porto Pirrone","phone":"+39 099 5315184","power_supply":"yes","sanitary_dump_station":"yes","socket:cee_blue":"yes","tents":"yes","toilets":"yes","website":"https://portopirronecamping.it/"}},"1327477953":{"location":[40.3784754,17.3841098],"ct":"IT","tp":"CS","ts":"2024-10-27T20:03:27Z","tX":561,"tY":386,"tags":{"caravans":"yes","contact:phone":"+393479302002","dog":"yes","fee":"yes","motorhome":"yes","name":"Monticchio Resort","power_supply":"yes","sanitary_dump_station":"yes","socket:cee_blue":"yes","tents":"yes","toilets":"yes","website":"https://masseriamonticchio.it/"}},"1327481666":{"location":[40.3567295,17.3548768],"ct":"IT","tp":"CR","ts":"2024-10-23T09:48:39Z","tX":561,"tY":386,"tags":{"addr:city":"Pulsano","addr:street":"Viale dei micenei","contact:phone":"+39 348 5534246","dog":"yes","fee":"yes","name":"Sosta Camper con servizi H24","power_supply":"yes","sanitary_dump_station":"yes","shower":"yes","socket:cee_blue":"yes","start_date":"2021","toilets":"yes"}}}