{"6591202923":{"location":[-8.8791375,17.3613104],"ct":"AO","tp":"CS","ts":"2019-07-05T12:38:24Z","tX":561,"tY":537,"tags":{"name":"Ponte do Rio Luhanda/Milando","name:pt":"Ponte do Rio Luhanda/Milando"}},"6591203666":{"location":[-8.8542999,17.3169492],"ct":"AO","tp":"CS","ts":"2019-07-05T12:38:23Z","tX":561,"tY":537,"tags":{"name":"Bairro Caxangá/Kunda Dia Base","name:pt":"Bairro Caxangá/Kunda Dia Base"}},"6591203667":{"location":[-8.8951352,17.4086331],"ct":"AO","tp":"CS","ts":"2019-07-05T12:38:26Z","tX":561,"tY":537,"tags":{"name":"Bairro Kibau/Milando","name:pt":"Bairro Kibau/Milando"}},"6591203669":{"location":[-8.7774278,17.554088],"ct":"AO","tp":"CS","ts":"2019-07-05T12:38:30Z","tX":561,"tY":537,"tags":{"name":"Bairro Ganga Muxica/Milando","name:pt":"Bairro Ganga Muxica/Milando"}},"6591217512":{"location":[-8.7746081,17.5532746],"ct":"AO","tp":"CS","ts":"2019-07-05T12:38:31Z","tX":561,"tY":537,"tags":{"name":"Bairro Kivota/Milando","name:pt":"Bairro Kivota/Milando"}},"6591217513":{"location":[-8.7615221,17.566179],"ct":"AO","tp":"CS","ts":"2019-07-05T12:38:32Z","tX":561,"tY":537,"tags":{"name":"Rio Lui/Kivota-Milando","name:pt":"Rio Lui/Kivota-Milando"}}}