{"1014208928":{"location":[48.1445468,-69.6879505],"ct":"CA","tp":"CS","ts":"2022-01-10T23:20:14Z","tX":313,"tY":355,"tags":{"addr:housenumber":"585","name":"Domaine des Dunes","phone":"+1-418-235-4843","website":"https://www.domainedesdunes.com"}},"1014208929":{"location":[48.1494117,-69.7120391],"ct":"CA","tp":"CR","ts":"2021-12-22T02:44:30Z","tX":313,"tY":355,"tags":{"name":"Camping Tadoussac"}},"1014284708":{"location":[48.0805448,-69.7390033],"ct":"CA","tp":"CR","ts":"2022-01-10T23:20:14Z","tX":313,"tY":355,"tags":{"name":"Camping et Ranch du Fjord"}},"1014284712":{"location":[48.0786049,-69.7376336],"ct":"CA","tp":"CS","ts":"2024-06-23T22:31:26Z","tX":313,"tY":355,"tags":{"name":"Camping et Ranch du Fjord"}},"3687520918":{"location":[48.1597918,-69.7866983],"ct":"CA","tp":"CS","ts":"2015-08-08T22:38:09Z","tX":313,"tY":355,"tags":{"capacity":"7","fee":"yes","name":"Camping de l'anse à la boule","note":"7 emplacements sur plateformes en bois, vue partielle sur le fjord","operator":"Sepaq"}},"3687539920":{"location":[48.1623913,-69.8350946],"ct":"CA","tp":"CS","ts":"2019-02-11T19:18:00Z","tX":313,"tY":355,"tags":{"backcountry":"yes","fee":"yes","name":"Camping de la pointe à la passe-pierre","operator":"Sepaq"}},"4177422389":{"location":[48.2053818,-69.9110238],"ct":"CA","tp":"CS","ts":"2022-05-30T08:16:48Z","tX":313,"tY":355,"tags":{"addr:city":"Petit-Saguenay","addr:housenumber":"99","addr:postcode":"G0V 1N0","addr:street":"chemin St-Étienne","name":"Village-Vacances Petit-Saguenay","phone":"+1-418-272-3193","website":"https://villagevacances.ca/"}},"6272507117":{"location":[48.1429167,-69.844079],"ct":"CA","tp":"CS","ts":"2019-02-11T19:18:00Z","tX":313,"tY":355,"tags":{"backcountry":"yes","name":"Anse à David"}},"6272507118":{"location":[48.1632123,-69.8784381],"ct":"CA","tp":"CS","ts":"2019-02-11T19:18:00Z","tX":313,"tY":355,"tags":{"backcountry":"yes","name":"Anse aux Petites Îles"}},"12004740694":{"location":[48.0702882,-69.7578638],"ct":"CA","tp":"CS","ts":"2024-07-18T09:21:33Z","tX":313,"tY":355,"tags":{"addr:city":"Baie-Sainte-Catherine","addr:housenumber":"660","addr:street":"Route de la Grande-Alliance","name":"Sauvage Charlevoix","phone":"+1 514-758-8296","website":"https://www.sauvagecharlevoix.com/"}},"5039725397":{"location":[48.1503107,-69.7125999],"ct":"CA","tp":"SD","ts":"2018-03-27T10:05:48Z","tX":313,"tY":355,"tags":{"fee":"20 CAD"}}}