{"475984541":{"location":[44.4954255,-69.7696726],"ct":"US","tp":"CS","ts":"2020-01-30T17:02:04Z","tX":313,"tY":370,"tags":{"addr:city":"Sidney","addr:housenumber":"8","addr:postcode":"04330","addr:state":"ME","addr:street":"Goldenrod Lane","building":"yes","name":"New England Music Camp"}},"977050485":{"location":[44.5585969,-69.8194836],"ct":"US","tp":"CS","ts":"2021-08-27T18:50:06Z","tX":313,"tY":370,"tags":{"addr:city":"Belgrade","addr:housenumber":"656","addr:postcode":"04917","addr:state":"ME","addr:street":"Horse Point Road"}},"977050486":{"location":[44.5618916,-69.8184217],"ct":"US","tp":"CS","ts":"2021-08-27T18:50:06Z","tX":313,"tY":370,"tags":{"group_only":"yes"}},"1126778545":{"location":[44.4087537,-69.6350031],"ct":"US","tp":"CS","ts":"2024-10-25T18:55:37Z","tX":313,"tY":370,"tags":{"addr:city":"Vassalboro","addr:housenumber":"27","addr:postcode":"04989","addr:state":"ME","addr:street":"Green Valley Road","alt_name":"Green Valley Park","name":"Green Valley Campground"}},"9041578246":{"location":[44.5568084,-69.8219305],"ct":"US","tp":"CS","ts":"2021-08-27T18:50:06Z","tX":313,"tY":370,"tags":{"access":"private","addr:city":"Belgrade","addr:housenumber":"656","addr:postcode":"04917","addr:state":"ME","addr:street":"Horse Point Road","name":"BSA Camp Bomazeen","operator":"Boy Scouts of America Pine Tree Council","phone":"(207) 716-1355"}}}