{"616554848":{"location":[43.8777358,-69.655205],"ct":"US","tp":"CS","ts":"2025-02-02T19:48:54Z","tX":313,"tY":372,"tags":{"addr:city":"Boothbay","addr:housenumber":"157","addr:postcode":"04537","addr:state":"ME","addr:street":"Barters Island Road","name":"Camp Knickerbocker","operator":"Boothbay Region YMCA"}},"790693844":{"location":[43.8958693,-69.8931555],"ct":"US","tp":"CS","ts":"2010-06-26T04:07:12Z","tX":313,"tY":372,"tags":{}},"1283369823":{"location":[43.9557834,-69.7178488],"ct":"US","tp":"CS","ts":"2024-11-19T14:44:12Z","tX":313,"tY":372,"tags":{"addr:city":"Wiscasset","addr:housenumber":"235","addr:postcode":"04578","addr:state":"ME","addr:street":"Chewonki Neck Road","name":"Chewonki Campground","operator:type":"private"}},"1349002482":{"location":[43.8961686,-69.8939933],"ct":"US","tp":"CS","ts":"2025-05-18T00:52:53Z","tX":313,"tY":372,"tags":{"name":"Thomas Point Beach & Campground"}},"1351094681":{"location":[43.9051275,-69.623012],"ct":"US","tp":"CS","ts":"2025-01-14T03:38:42Z","tX":313,"tY":372,"tags":{"addr:city":"Boothbay","addr:housenumber":"553","addr:postcode":"04537","addr:state":"ME","addr:street":"Wiscasset Road","name":"Shore Hills Campground"}},"4249009743":{"location":[44.0727915,-69.7916327],"ct":"US","tp":"CS","ts":"2016-06-17T19:13:36Z","tX":313,"tY":372,"tags":{}}}