{"4982745424":{"location":[4.45659,-69.7810665],"ct":"CO","tp":"CS","ts":"2017-07-20T13:01:58Z","tX":313,"tY":499,"tags":{"name":"Granja Reina Sofia","name:es":"Granja Reina Sofia"}},"5225385730":{"location":[4.4628981,-69.83649],"ct":"CO","tp":"CS","ts":"2017-11-12T21:28:06Z","tX":313,"tY":499,"tags":{"name":"Finca Profe Edgar","name:es":"Finca Profe Edgar"}},"5225400524":{"location":[4.4695247,-69.848978],"ct":"CO","tp":"CS","ts":"2017-11-12T21:28:09Z","tX":313,"tY":499,"tags":{"name":"Comunidad La Estancia","name:es":"Comunidad La Estancia"}},"5225400525":{"location":[4.5193222,-69.751488],"ct":"CO","tp":"CS","ts":"2017-11-12T21:28:12Z","tX":313,"tY":499,"tags":{"name":"Finca Rancho Alegre","name:es":"Finca Rancho Alegre"}},"5225403422":{"location":[4.4613186,-69.845837],"ct":"CO","tp":"CS","ts":"2017-11-12T21:28:08Z","tX":313,"tY":499,"tags":{"name":"Finca Briceño","name:es":"Finca Briceño"}},"5225429821":{"location":[4.4051513,-69.788572],"ct":"CO","tp":"CS","ts":"2017-11-12T21:28:28Z","tX":313,"tY":499,"tags":{"name":"El viso Rio Vichada","name:es":"El viso Rio Vichada"}},"5545125022":{"location":[4.5430055,-69.7347448],"ct":"CO","tp":"CS","ts":"2018-04-11T12:37:08Z","tX":313,"tY":499,"tags":{"name":"Comunidad puerto paloma","name:es":"Comunidad puerto paloma"}}}