{"358562074":{"location":[64.3106551,-20.2318326],"ct":"IS","tp":"CS","ts":"2023-07-04T16:32:49Z","tX":454,"tY":271,"tags":{"addr:city":"Geysir","addr:postcode":"806","addr:street":"Kjóastaðir","caravans":"yes","description":"This camp site is part of the Icelandic Camping Card Project","email":"skjolcamping@skjol.com","fee":"yes","internet_access":"wlan","internet_access:fee":"no","name":"Skjól","openfire":"no","phone":"+354 899 4541","sanitary_dump_station":"no","tents":"yes","website":"http://www.skjolcamping.com/","wheelchair":"yes"}},"466609566":{"location":[64.3101986,-20.3056028],"ct":"IS","tp":"CS","ts":"2023-08-22T03:57:59Z","tX":454,"tY":271,"tags":{"caravans":"yes","drinking_water":"yes","email":"geysir@geysircenter.is","fee":"yes","internet_access":"wlan","internet_access:fee":"yes","name":"Tjaldsvæðið við Geysi","name:de":"Campingplatz Geysir","name:en":"Campingsite Geysir","name:ru":"Гейсир","phone":"+354 480 6800","shower":"yes","shower:fee":"yes","tents":"yes","website":"http://www.geysircenter.is"}},"485091591":{"location":[64.2272557,-20.3339309],"ct":"IS","tp":"CS","ts":"2024-04-20T16:26:31Z","tX":454,"tY":271,"tags":{"cabins":"no","caravans":"yes","email":"heidibisk@uppsveitir.is","fee":"yes","internet_access":"no","kitchen":"no","name":"Tjaldsvæðið við Faxa","name:en":"Faxi Campground","phone":"+354 774 7440","power_supply":"yes","sanitary_dump_station":"yes","shower":"no","tents":"yes"}},"3629512606":{"location":[64.309546,-20.307959],"ct":"IS","tp":"SD","ts":"2015-07-01T17:23:21Z","tX":454,"tY":271,"tags":{"fixme":"location approximate"}}}