{"241958700":{"location":[64.1382954,-20.3298222],"ct":"IS","tp":"CS","ts":"2022-05-18T12:33:13Z","tX":454,"tY":272,"tags":{"addr:city":"Flúðir","addr:postcode":"846","addr:street":"Skeiða- og Hrunamannavegur","email":"tjaldmidstod@fludir.is","fee":"yes","internet_access":"wlan","internet_access:fee":"no","name":"Tjaldmiðstöðin Flúðum","phone":"+354 618 5005","shower":"yes","website":"https://www.tjaldmidstod.is/"}},"320851773":{"location":[64.042315,-20.2542035],"ct":"IS","tp":"CS","ts":"2019-11-25T20:02:45Z","tX":454,"tY":272,"tags":{"addr:postcode":"804","addr:street":"Skólabraut","fee":"yes","name":"Tjaldsvæðið Árnesi"}},"357832894":{"location":[64.136514,-20.3273567],"ct":"IS","tp":"CR","ts":"2022-05-18T12:31:57Z","tX":454,"tY":272,"tags":{"addr:city":"Flúðir","addr:postcode":"846","addr:street":"Skeiða- og Hrunamannavegur","email":"tjaldmidstod@fludir.is","fee":"yes","internet_access":"wlan","internet_access:fee":"yes","name":"Tjaldmiðstöðin á Flúðum","phone":"+354 618 5005","power_supply":"yes","sanitary_dump_station":"yes","website":"https://www.tjaldmidstod.is/"}},"3629510937":{"location":[64.1375857,-20.3282787],"ct":"IS","tp":"SD","ts":"2015-07-01T17:20:47Z","tX":454,"tY":272,"tags":{"fixme":"location approximate"}}}