{"1229283096":{"location":[45.87004,-93.0495784],"ct":"US","tp":"CR","ts":"2024-04-18T19:43:37Z","tX":247,"tY":364,"tags":{"addr:city":"Pine City","addr:housenumber":"18425","addr:postcode":"55063","addr:state":"MN","addr:street":"Island Resort Road","caravans":"yes","landuse":"residential","name":"Pokegama Lake RV Park & Golf","residential":"trailer_park","static_caravans":"yes","tents":"yes"}},"1229283102":{"location":[45.8650229,-93.0482172],"ct":"US","tp":"CS","ts":"2023-12-07T14:01:38Z","tX":247,"tY":364,"tags":{"access":"yes","caravans":"yes","name":"Pokegama Shores RV Resort","residential":"trailer_park","website":"https://www.pokegamalakerv.com/rates"}},"1229289033":{"location":[45.8700427,-93.0495898],"ct":"US","tp":"CR","ts":"2023-12-07T12:40:19Z","tX":247,"tY":364,"tags":{"name":"Pokegama RV Park"}},"9313252178":{"location":[46.0096738,-92.9119007],"ct":"US","tp":"CR","ts":"2022-02-26T04:44:01Z","tX":247,"tY":364,"tags":{"access":"private","addr:city":"Hinckley","addr:housenumber":"1326","addr:postcode":"55037","addr:state":"MN","addr:street":"Fire Monument Road","name":"Grand Casino Hinckley RV Resort","operator":"Grand Casino Mille Lacs and Hinckley","phone":"+1-800-472-6321","url":"https://grandcasinomn.com/lodging/rv-resort/"}}}