{"6826711627":{"location":[45.5680053,-92.863767],"ct":"US","tp":"CS","ts":"2019-09-26T11:46:09Z","tX":247,"tY":366,"tags":{}},"7556861233":{"location":[45.3460011,-92.8876549],"ct":"US","tp":"CS","ts":"2024-11-02T16:23:33Z","tX":247,"tY":366,"tags":{"addr:city":"Chisago City","addr:state":"MN","charge":"15 USD","drinking_water":"yes","fee":"yes","name":"Ojiketa Regional Park","phone":"+1 651 257 4162","tents":"8","website":"https://www.ci.chisago.mn.us/index.asp?SEC=A547A0D6-2156-4941-A013-4221726F2D5E"}},"7557586737":{"location":[45.4039175,-92.8315167],"ct":"US","tp":"CS","ts":"2024-11-02T16:23:33Z","tX":247,"tY":366,"tags":{"addr:city":"Lindstrom","addr:housenumber":"31316","addr:state":"MN","addr:street":"N. Olinda Trail","charge":"15 USD","drinking_water":"no","fee":"yes","name":"Allemanstratt Wilderness Park"}},"12184882488":{"location":[45.5740754,-92.8836677],"ct":"US","tp":"CS","ts":"2024-09-18T20:59:53Z","tX":247,"tY":366,"tags":{"backcountry":"yes","caravans":"no","name":"Goose Creek","static_caravans":"no","tents":"yes"}},"12184882489":{"location":[45.567901,-92.8695849],"ct":"US","tp":"CS","ts":"2024-09-18T20:59:53Z","tX":247,"tY":366,"tags":{"name":"Sunrise Landing"}}}