{"1331159070":{"location":[43.2217768,-93.1082733],"ct":"US","tp":"CS","ts":"2024-11-06T00:52:45Z","tX":247,"tY":375,"tags":{}},"2442149940":{"location":[43.1271294,-92.8936034],"ct":"US","tp":"CR","ts":"2013-09-02T03:16:18Z","tX":247,"tY":375,"tags":{}},"7427512084":{"location":[43.3198427,-92.8814987],"ct":"US","tp":"CS","ts":"2024-08-26T05:15:41Z","tX":247,"tY":375,"tags":{"addr:city":"Mitchell","addr:state":"IA","capacity":"40","charge":"20 USD","fee":"yes","name":"Interstate County Park Campground","power_supply":"yes","reservation":"yes","shower":"yes"}},"7427546985":{"location":[43.2742526,-92.8574107],"ct":"US","tp":"CS","ts":"2024-11-05T14:44:04Z","tX":247,"tY":375,"tags":{"addr:city":"Osage","addr:state":"IA","capacity":"12","charge":"7 USD","fee":"yes","name":"Spring Park Campground","phone":"+1-641-732-3709","seasonal":"spring;summer;autumn","toilets":"yes"}},"7428159565":{"location":[43.2044706,-93.0825994],"ct":"US","tp":"CS","ts":"2024-08-26T05:15:41Z","tX":247,"tY":375,"tags":{"addr:city":"Rock Falls","addr:state":"IA","capacity":"66","charge":"12 USD","fee":"yes","name":"Wilkinson Pioneer County Park Campgrounds","phone":"+1-641-423-5309","power_supply":"yes","reservation":"no","toilets:disposal":"flush"}},"7428159566":{"location":[43.1867659,-93.0553211],"ct":"US","tp":"CS","ts":"2020-04-21T02:02:44Z","tX":247,"tY":375,"tags":{"backcountry":"yes","drinking_water":"no","fee":"no","toilets":"vault"}}}