{"472151389":{"location":[34.5244712,-93.0362051],"ct":"US","tp":"CS","ts":"2022-02-15T19:07:21Z","tX":247,"tY":407,"tags":{"addr:city":"Hot Springs","addr:housenumber":"305","addr:postcode":"71901","addr:state":"AR","addr:street":"Gorge Road","capacity":"40","charge":"30 USD","fee":"yes","leisure":"park","name":"Gulpha Gorge Campground","operator":"National Park Service","operator:short":"NPS","operator:type":"public","operator:wikidata":"Q308439","operator:wikipedia":"en:National Park Service","website":"https://www.nps.gov/hosp/planyourvisit/campground.htm"}},"672975580":{"location":[34.458078,-93.058093],"ct":"US","tp":"CR","ts":"2024-06-17T17:31:32Z","tX":247,"tY":407,"tags":{"addr:city":"Hot Springs","addr:housenumber":"3921","addr:postcode":"71913","addr:state":"AR","addr:street":"Central Avenue","name":"Timbercrest RV & Mobile Home Park","power_supply":"yes"}},"755036741":{"location":[34.3505909,-92.8924432],"ct":"US","tp":"CS","ts":"2019-12-12T22:40:59Z","tX":247,"tY":407,"tags":{"access":"yes","name":"overnight camping"}},"833285000":{"location":[34.4351121,-92.9141035],"ct":"US","tp":"CS","ts":"2020-08-02T18:48:27Z","tX":247,"tY":407,"tags":{}},"998153506":{"location":[34.4422968,-93.0000965],"ct":"US","tp":"CR","ts":"2021-11-01T13:29:31Z","tX":247,"tY":407,"tags":{"name":"Catherine's Landing","website":"https://rvcoutdoors.com/catherines-landing/"}},"11191775838":{"location":[34.5158365,-93.0679129],"ct":"US","tp":"CS","ts":"2023-09-14T22:53:15Z","tX":247,"tY":407,"tags":{}}}