{"4159830931":{"location":[17.4741633,-14.9133467],"ct":"MR","tp":"CR","ts":"2016-10-27T13:04:04Z","tX":469,"tY":461,"tags":{"name":"قرية بوسدرة","name:ar":"بوسدرة","name:en":"Bousedre"}},"5187202023":{"location":[17.5471851,-15.0762433],"ct":"MR","tp":"CS","ts":"2025-03-14T22:38:02Z","tX":469,"tY":461,"tags":{"name:en":"old Noubaghiya","name:fr":"vieille Noubaghiya"}},"5187202123":{"location":[17.547216,-15.0761789],"ct":"MR","tp":"CS","ts":"2017-10-24T21:37:46Z","tX":469,"tY":461,"tags":{}},"5187202124":{"location":[17.5471908,-15.0761523],"ct":"MR","tp":"CS","ts":"2021-09-21T17:21:54Z","tX":469,"tY":461,"tags":{"name":"عقلة النباغية"}},"5187202125":{"location":[17.5473014,-15.0761858],"ct":"MR","tp":"CS","ts":"2025-03-14T22:38:02Z","tX":469,"tY":461,"tags":{"name":"Ogla Noubaghiya عقلة النباغية","name:fr":"Ogla Noubaghiya"}},"6886911986":{"location":[17.4734899,-14.9483681],"ct":"MR","tp":"CS","ts":"2019-10-16T19:19:08Z","tX":469,"tY":461,"tags":{"name:ar":"تنبنيوگ","name:en":"Tinbenyoug"}}}