{"372471401":{"location":[47.8940196,-96.2739683],"ct":"US","tp":"CS","ts":"2024-11-04T16:10:01Z","tX":238,"tY":356,"tags":{"name":"Voyageur's View Campground"}},"1180507802":{"location":[47.8138357,-96.0026888],"ct":"US","tp":"CR","ts":"2023-06-08T18:19:01Z","tX":238,"tY":356,"tags":{}},"7368754325":{"location":[47.8916313,-96.2810613],"ct":"US","tp":"CS","ts":"2024-12-01T06:45:16Z","tX":238,"tY":356,"tags":{"addr:city":"Red Lake Falls","addr:state":"MN","charge":"30 USD","description":"$20-$30","fee":"yes","name":"Sportsman's Park","phone":"+1-218-253-2684.","power_supply":"yes","toilets":"yes","website":"https://redlakefalls.com/wp-content/uploads/2019/05/NEW-2019-campground-maps.pdf"}},"7368754326":{"location":[47.8874149,-96.2752176],"ct":"US","tp":"CS","ts":"2024-12-01T06:45:16Z","tX":238,"tY":356,"tags":{"addr:city":"Red Lake Falls","addr:state":"MN","charge":"30 USD","description":"$20-$30","fee":"yes","name":"Riverside Park","phone":"+1-218-253-2684.","power_supply":"yes","reservation":"yes","shower":"yes"}},"7638933995":{"location":[47.9100028,-96.0390328],"ct":"US","tp":"CS","ts":"2021-09-07T02:36:34Z","tX":238,"tY":356,"tags":{"addr:city":"Plummer Park","addr:state":"MN","capacity":"4","fee":"yes","name":"Plummwe Park","phone":"+1-218-465-4231","reservation":"no","shower":"yes"}}}