{"188814601":{"location":[43.7210034,-96.1915327],"ct":"US","tp":"CS","ts":"2021-09-06T02:04:07Z","tX":238,"tY":373,"tags":{"name":"Blue Mounds State Park Campground"}},"469523444":{"location":[43.7732565,-96.2014197],"ct":"US","tp":"CS","ts":"2017-01-27T18:36:15Z","tX":238,"tY":373,"tags":{}},"7373248551":{"location":[43.7156354,-96.187642],"ct":"US","tp":"CS","ts":"2024-11-02T16:23:33Z","tX":238,"tY":373,"tags":{"addr:city":"Luverne","addr:state":"MN","capacity":"14","charge":"19 USD","drinking_water":"yes","fee":"yes","name":"Blue Mound State Park Tipi and Cart-In Campground","phone":"+1-507-283-1307","reservation":"yes","toilets":"yes"}},"7490927282":{"location":[43.6462597,-96.0820658],"ct":"US","tp":"CS","ts":"2024-11-02T16:23:33Z","tX":238,"tY":373,"tags":{"addr:city":"Magnolia","addr:state":"MN","capacity":"20","charge":"10 USD","drinking_water":"yes","fee":"yes","name":"Magnolia City Campground","phone":"+1-507-227-0495","power_supply":"yes","seasonal":"spring;summer;autumn","shower":"yes"}},"9064921808":{"location":[43.7166451,-96.190088],"ct":"US","tp":"CS","ts":"2021-09-06T02:04:07Z","tX":238,"tY":373,"tags":{"addr:city":"Luverne","addr:state":"MN","capacity":"14","drinking_water":"yes","name":"Blue Mound State Park Group Camp","phone":"+1-507-283-1307","reservation":"yes","toilets":"yes"}},"9063193069":{"location":[43.7217664,-96.1924823],"ct":"US","tp":"SD","ts":"2021-09-05T19:19:02Z","tX":238,"tY":373,"tags":{}}}