{"335657563":{"location":[36.0952391,-95.9971537],"ct":"US","tp":"CR","ts":"2022-04-27T13:04:39Z","tX":238,"tY":401,"tags":{"addr:city":"Tulsa","addr:housenumber":"4808","addr:postcode":"74017","addr:state":"OK","addr:street":"South Elwood Avenue","landuse":"residential","name":"Cherry Hill Park","phone":"+1-918-446-9342","website":"http://cherryhillmhc.com"}},"616413498":{"location":[36.1502641,-96.2049573],"ct":"US","tp":"CR","ts":"2018-08-12T23:01:54Z","tX":238,"tY":401,"tags":{"landuse":"residential","name":"Tanglewood RV Park"}},"718209154":{"location":[36.2990744,-96.1792356],"ct":"US","tp":"CS","ts":"2019-08-26T02:43:48Z","tX":238,"tY":401,"tags":{"access":"private","leisure":"scout_camp","name":"Zink Ranch","operator":"Indian Nation Council;Boy Scouts of America","scout":"yes"}},"1234504324":{"location":[36.15262,-96.2289163],"ct":"US","tp":"CR","ts":"2023-12-27T02:42:36Z","tX":238,"tY":401,"tags":{}},"1326357056":{"location":[36.1899344,-96.2877148],"ct":"US","tp":"CR","ts":"2024-10-20T21:19:34Z","tX":238,"tY":401,"tags":{"name":"Shady Grove Campground & RV Park"}},"3700498959":{"location":[36.1496071,-96.2468618],"ct":"US","tp":"CR","ts":"2015-08-17T02:49:35Z","tX":238,"tY":401,"tags":{}},"3700499429":{"location":[36.209133,-96.226219],"ct":"US","tp":"CR","ts":"2015-08-17T02:49:35Z","tX":238,"tY":401,"tags":{}},"5618815624":{"location":[36.0844977,-96.2352589],"ct":"US","tp":"CS","ts":"2018-05-15T04:07:01Z","tX":238,"tY":401,"tags":{"name":"Prayer Mountain"}}}