{"1327607798":{"location":[40.4733078,45.7275305],"ct":"AZ","tp":"CS","ts":"2025-01-01T20:36:24Z","tX":642,"tY":385,"tags":{"name":"Yaylaq","place":"farm"}},"1337519070":{"location":[40.6521855,45.7496345],"ct":"AZ","tp":"CS","ts":"2025-01-02T19:34:26Z","tX":642,"tY":385,"tags":{"landuse":"farmyard","name":"Yaylaq"}},"1337519071":{"location":[40.6526027,45.7531589],"ct":"AZ","tp":"CS","ts":"2025-01-02T19:34:26Z","tX":642,"tY":385,"tags":{"landuse":"farmyard","name":"Yaylaq"}},"1339096132":{"location":[40.6909164,45.718435],"ct":"AZ","tp":"CS","ts":"2025-01-02T19:34:26Z","tX":642,"tY":385,"tags":{"landuse":"farmyard","name":"Yaylaq"}},"1339096133":{"location":[40.6938277,45.7061868],"ct":"AZ","tp":"CS","ts":"2025-01-02T19:34:26Z","tX":642,"tY":385,"tags":{"landuse":"farmyard","name":"Yaylaq"}},"1347832033":{"location":[40.4624052,45.7179656],"ct":"AZ","tp":"CS","ts":"2025-01-01T20:36:23Z","tX":642,"tY":385,"tags":{"name":"Yaylaq","place":"farm"}},"1347832038":{"location":[40.4724549,45.711869],"ct":"AZ","tp":"CS","ts":"2025-01-01T20:36:23Z","tX":642,"tY":385,"tags":{"name":"Yaylaq","place":"farm"}},"1347832039":{"location":[40.4776741,45.7099754],"ct":"AZ","tp":"CS","ts":"2025-01-01T20:36:23Z","tX":642,"tY":385,"tags":{"name":"Yaylaq","place":"farm"}},"1347832040":{"location":[40.4755766,45.7040155],"ct":"AZ","tp":"CS","ts":"2025-01-01T20:36:23Z","tX":642,"tY":385,"tags":{"name":"Yaylaq","place":"farm"}},"1347832041":{"location":[40.4718816,45.7082561],"ct":"AZ","tp":"CS","ts":"2025-01-01T20:36:23Z","tX":642,"tY":385,"tags":{"name":"Yaylaq","place":"farm"}},"1347832042":{"location":[40.4745647,45.7129848],"ct":"AZ","tp":"CS","ts":"2025-01-01T20:36:23Z","tX":642,"tY":385,"tags":{"name":"Yaylaq","place":"farm"}},"1347832052":{"location":[40.4597195,45.7063812],"ct":"AZ","tp":"CS","ts":"2025-01-01T20:36:24Z","tX":642,"tY":385,"tags":{"name":"Yaylaq","place":"farm"}},"1348035066":{"location":[40.449377,45.7934176],"ct":"AZ","tp":"CS","ts":"2025-01-02T17:40:37Z","tX":642,"tY":385,"tags":{"landuse":"farmyard","name":"Yaylaq"}},"1348035087":{"location":[40.4721345,45.8190071],"ct":"AZ","tp":"CS","ts":"2025-01-02T17:40:37Z","tX":642,"tY":385,"tags":{"landuse":"farmyard","name":"Yaylaq"}},"1348035090":{"location":[40.4668456,45.8011544],"ct":"AZ","tp":"CS","ts":"2025-01-02T17:40:37Z","tX":642,"tY":385,"tags":{"landuse":"farmyard","name":"Yaylaq"}},"1348035092":{"location":[40.4768518,45.7832963],"ct":"AZ","tp":"CS","ts":"2025-01-02T17:40:37Z","tX":642,"tY":385,"tags":{"landuse":"farmyard","name":"Yaylaq"}},"1348035093":{"location":[40.4734425,45.7844067],"ct":"AZ","tp":"CS","ts":"2025-01-02T17:40:37Z","tX":642,"tY":385,"tags":{"landuse":"farmyard","name":"Yaylaq"}},"1348035106":{"location":[40.449029,45.7521129],"ct":"AZ","tp":"CS","ts":"2025-01-02T17:40:37Z","tX":642,"tY":385,"tags":{"landuse":"farmyard","name":"Yaylaq"}},"1348035107":{"location":[40.4524764,45.7575148],"ct":"AZ","tp":"CS","ts":"2025-01-02T17:40:37Z","tX":642,"tY":385,"tags":{"landuse":"farmyard","name":"Yaylaq"}},"1348035108":{"location":[40.4507415,45.7517428],"ct":"AZ","tp":"CS","ts":"2025-01-02T17:40:37Z","tX":642,"tY":385,"tags":{"landuse":"farmyard","name":"Yaylaq"}},"1348035109":{"location":[40.4479452,45.7480896],"ct":"AZ","tp":"CS","ts":"2025-01-02T17:40:37Z","tX":642,"tY":385,"tags":{"landuse":"farmyard","name":"Yaylaq"}},"1348035111":{"location":[40.4597032,45.745815],"ct":"AZ","tp":"CS","ts":"2025-01-02T17:40:37Z","tX":642,"tY":385,"tags":{"landuse":"farmyard","name":"Yaylaq"}},"1348035112":{"location":[40.4568215,45.7297459],"ct":"AZ","tp":"CS","ts":"2025-01-02T17:40:37Z","tX":642,"tY":385,"tags":{"landuse":"farmyard","name":"Yaylaq"}},"1348035113":{"location":[40.4672027,45.752027],"ct":"AZ","tp":"CS","ts":"2025-01-02T17:40:37Z","tX":642,"tY":385,"tags":{"landuse":"farmyard","name":"Yaylaq"}},"1348045720":{"location":[40.4541989,45.8344271],"ct":"AZ","tp":"CS","ts":"2025-01-02T18:30:30Z","tX":642,"tY":385,"tags":{"landuse":"farmyard","name":"Yaylaq"}},"1348045721":{"location":[40.4648948,45.7676589],"ct":"AZ","tp":"CS","ts":"2025-01-02T18:30:30Z","tX":642,"tY":385,"tags":{"landuse":"farmyard","name":"Yaylaq"}},"1348045722":{"location":[40.4669232,45.7742492],"ct":"AZ","tp":"CS","ts":"2025-01-02T18:30:30Z","tX":642,"tY":385,"tags":{"landuse":"farmyard","name":"Yaylaq"}},"1348045725":{"location":[40.4583849,45.8095067],"ct":"AZ","tp":"CS","ts":"2025-01-02T18:30:30Z","tX":642,"tY":385,"tags":{"landuse":"farmyard","name":"Yaylaq"}},"1348057344":{"location":[40.6971272,45.7245478],"ct":"AZ","tp":"CS","ts":"2025-01-02T19:34:26Z","tX":642,"tY":385,"tags":{"landuse":"farmyard","name":"Yaylaq"}},"1348057345":{"location":[40.6803654,45.7133147],"ct":"AZ","tp":"CS","ts":"2025-01-02T19:34:26Z","tX":642,"tY":385,"tags":{"landuse":"farmyard","name":"Yaylaq"}},"1348057346":{"location":[40.678433,45.7209027],"ct":"AZ","tp":"CS","ts":"2025-01-02T19:34:26Z","tX":642,"tY":385,"tags":{"landuse":"farmyard","name":"Yaylaq"}},"1348057347":{"location":[40.6676503,45.7296293],"ct":"AZ","tp":"CS","ts":"2025-01-02T19:34:26Z","tX":642,"tY":385,"tags":{"landuse":"farmyard","name":"Yaylaq"}},"1348057348":{"location":[40.6676757,45.7229197],"ct":"AZ","tp":"CS","ts":"2025-01-02T19:34:26Z","tX":642,"tY":385,"tags":{"landuse":"farmyard","name":"Yaylaq"}},"1348057349":{"location":[40.6604428,45.7215599],"ct":"AZ","tp":"CS","ts":"2025-01-02T19:34:26Z","tX":642,"tY":385,"tags":{"landuse":"farmyard","name":"Yaylaq"}},"1348057350":{"location":[40.6568209,45.724934],"ct":"AZ","tp":"CS","ts":"2025-01-02T19:34:26Z","tX":642,"tY":385,"tags":{"landuse":"farmyard","name":"Yaylaq"}},"1348709868":{"location":[40.4483677,45.9622801],"ct":"AZ","tp":"CS","ts":"2025-01-05T14:56:01Z","tX":642,"tY":385,"tags":{"landuse":"farmyard","name":"Yaylaq"}},"1348730442":{"location":[40.4550599,45.997789],"ct":"AZ","tp":"CS","ts":"2025-01-05T16:32:38Z","tX":642,"tY":385,"tags":{"landuse":"farmyard","name":"Yaylaq"}},"1348730479":{"location":[40.458642,45.9546049],"ct":"AZ","tp":"CS","ts":"2025-01-05T16:32:38Z","tX":642,"tY":385,"tags":{"landuse":"farmyard","name":"Yaylaq"}},"1348756843":{"location":[40.4810864,46.0380312],"ct":"AZ","tp":"CS","ts":"2025-01-05T18:25:06Z","tX":642,"tY":385,"tags":{"landuse":"farmyard","name":"Yaylaq"}},"1348756845":{"location":[40.4769467,46.0416476],"ct":"AZ","tp":"CS","ts":"2025-01-05T18:25:06Z","tX":642,"tY":385,"tags":{"landuse":"farmyard","name":"Yaylaq"}},"5569207851":{"location":[40.4683515,45.798403],"ct":"AZ","tp":"CS","ts":"2018-11-21T19:06:07Z","tX":642,"tY":385,"tags":{"name:en":"Winter quarters","name:ru":"Кочевье"}},"5569207852":{"location":[40.4746367,45.7860813],"ct":"AZ","tp":"CS","ts":"2018-11-21T19:06:07Z","tX":642,"tY":385,"tags":{"name:en":"Winter quarters","name:ru":"Кочевье"}},"5569211091":{"location":[40.4668677,45.7739024],"ct":"AZ","tp":"CS","ts":"2018-11-21T19:06:07Z","tX":642,"tY":385,"tags":{"name:en":"Winter quarters","name:ru":"Кочевье"}},"5569211092":{"location":[40.4651004,45.7673946],"ct":"AZ","tp":"CS","ts":"2018-11-21T19:06:07Z","tX":642,"tY":385,"tags":{"name:en":"Winter quarters","name:ru":"Кочевье"}},"5569218012":{"location":[40.4731201,45.8192904],"ct":"AZ","tp":"CS","ts":"2018-04-21T14:22:19Z","tX":642,"tY":385,"tags":{}},"5569229861":{"location":[40.6568526,45.7239749],"ct":"AZ","tp":"CS","ts":"2018-04-21T14:30:54Z","tX":642,"tY":385,"tags":{"name":"Armudlu"}},"5569231748":{"location":[40.6605981,45.721549],"ct":"AZ","tp":"CS","ts":"2018-04-21T14:32:27Z","tX":642,"tY":385,"tags":{"name":"Qirmizi Alma"}},"5569396170":{"location":[40.4584433,45.8098824],"ct":"AZ","tp":"CS","ts":"2018-04-21T16:05:47Z","tX":642,"tY":385,"tags":{}},"5569729667":{"location":[40.4506441,45.7514915],"ct":"AZ","tp":"CS","ts":"2018-11-21T19:06:07Z","tX":642,"tY":385,"tags":{"name:ru":"Кочевье"}},"5569729668":{"location":[40.4477743,45.7477203],"ct":"AZ","tp":"CS","ts":"2018-11-21T19:06:07Z","tX":642,"tY":385,"tags":{"name:ru":"Кочевье"}},"5569730333":{"location":[40.4590286,45.7450382],"ct":"AZ","tp":"CS","ts":"2018-11-21T19:06:07Z","tX":642,"tY":385,"tags":{"name:ru":"Кочевье"}},"5569730336":{"location":[40.452111,45.7573975],"ct":"AZ","tp":"CS","ts":"2018-11-21T19:06:07Z","tX":642,"tY":385,"tags":{"name:ru":"Кочевье"}},"5569731009":{"location":[40.4469834,45.7773364],"ct":"AZ","tp":"CS","ts":"2018-04-21T18:55:59Z","tX":642,"tY":385,"tags":{}},"5570345066":{"location":[40.4569408,45.7299218],"ct":"AZ","tp":"CS","ts":"2018-11-21T19:06:07Z","tX":642,"tY":385,"tags":{"name:en":"The Nomad Camp","name:ru":"Кочевье"}},"5570354811":{"location":[40.4626899,45.7177576],"ct":"AZ","tp":"CS","ts":"2018-04-22T05:48:01Z","tX":642,"tY":385,"tags":{}},"5570359766":{"location":[40.4671558,45.7517463],"ct":"AZ","tp":"CS","ts":"2018-04-22T05:48:02Z","tX":642,"tY":385,"tags":{}},"5572913102":{"location":[40.4597075,45.7062919],"ct":"AZ","tp":"CS","ts":"2018-04-23T07:49:51Z","tX":642,"tY":385,"tags":{}},"5573095366":{"location":[40.475611,45.7039574],"ct":"AZ","tp":"CS","ts":"2018-04-23T09:05:29Z","tX":642,"tY":385,"tags":{}},"5578556504":{"location":[40.4718673,45.7082157],"ct":"AZ","tp":"CS","ts":"2018-04-25T14:46:15Z","tX":642,"tY":385,"tags":{}},"5578556505":{"location":[40.4776286,45.7096941],"ct":"AZ","tp":"CS","ts":"2018-04-25T14:46:15Z","tX":642,"tY":385,"tags":{}},"5578556506":{"location":[40.4747779,45.7127524],"ct":"AZ","tp":"CS","ts":"2018-04-25T14:46:15Z","tX":642,"tY":385,"tags":{}},"5584504076":{"location":[40.6677189,45.729696],"ct":"AZ","tp":"CS","ts":"2018-11-21T19:06:06Z","tX":642,"tY":385,"tags":{"name:en":"Winter quarters","name:ru":"Кочевье"}},"5584504077":{"location":[40.6676726,45.7228843],"ct":"AZ","tp":"CS","ts":"2018-11-21T19:06:06Z","tX":642,"tY":385,"tags":{"name:en":"Winter quarters","name:ru":"Кочевье"}},"5584504078":{"location":[40.6630357,45.719771],"ct":"AZ","tp":"CS","ts":"2018-11-21T19:06:06Z","tX":642,"tY":385,"tags":{"name:en":"Winter quarters","name:ru":"Кочевье"}},"5584504082":{"location":[40.693847,45.70591],"ct":"AZ","tp":"CS","ts":"2024-11-23T21:22:57Z","tX":642,"tY":385,"tags":{"name":"Qışlaq","name:az":"Qışlaq"}},"5584504083":{"location":[40.6909683,45.7184538],"ct":"AZ","tp":"CS","ts":"2024-11-23T21:22:57Z","tX":642,"tY":385,"tags":{"name":"Qışlaq","name:az":"Qışlaq","name:en":"Winter quarters"}},"5584504084":{"location":[40.6968484,45.7248367],"ct":"AZ","tp":"CS","ts":"2024-11-23T21:22:57Z","tX":642,"tY":385,"tags":{"name":"Qışlaq","name:az":"Qışlaq","name:en":"Winter quarters","name:ru":"Зимовье"}},"5584551017":{"location":[40.6782973,45.7210058],"ct":"AZ","tp":"CS","ts":"2024-11-23T21:22:57Z","tX":642,"tY":385,"tags":{"name":"Qışlaq","name:az":"Qışlaq","name:en":"Winter quarters"}},"5584557528":{"location":[40.6771202,45.7255352],"ct":"AZ","tp":"CS","ts":"2018-10-13T11:44:55Z","tX":642,"tY":385,"tags":{"name:en":"Winter quarters","name:ru":"Зимовье"}},"5608497319":{"location":[40.6463539,45.7505358],"ct":"AZ","tp":"CS","ts":"2018-05-10T05:23:38Z","tX":642,"tY":385,"tags":{}},"5608497546":{"location":[40.6521386,45.7495714],"ct":"AZ","tp":"CS","ts":"2018-05-10T05:23:40Z","tX":642,"tY":385,"tags":{}},"5608497547":{"location":[40.6526,45.7533243],"ct":"AZ","tp":"CS","ts":"2018-05-10T05:23:40Z","tX":642,"tY":385,"tags":{}},"5611808310":{"location":[40.6802569,45.7132133],"ct":"AZ","tp":"CS","ts":"2018-10-13T11:44:55Z","tX":642,"tY":385,"tags":{"name:en":"Winter quarters","name:ru":"Зимовье"}},"5612744291":{"location":[40.4540881,45.834686],"ct":"AZ","tp":"CS","ts":"2018-05-12T01:06:45Z","tX":642,"tY":385,"tags":{}},"5642428445":{"location":[40.5399405,45.862617],"ct":"AZ","tp":"CS","ts":"2018-05-25T20:07:28Z","tX":642,"tY":385,"tags":{}},"5642471880":{"location":[40.5331669,45.8331088],"ct":"AZ","tp":"CS","ts":"2018-05-25T20:05:42Z","tX":642,"tY":385,"tags":{}},"5642472031":{"location":[40.5428672,45.8391719],"ct":"AZ","tp":"CS","ts":"2018-05-25T20:05:45Z","tX":642,"tY":385,"tags":{}},"5642474021":{"location":[40.5281455,45.8538454],"ct":"AZ","tp":"CS","ts":"2018-05-25T20:07:52Z","tX":642,"tY":385,"tags":{}},"5642476199":{"location":[40.522823,45.8650339],"ct":"AZ","tp":"CS","ts":"2018-10-13T11:44:55Z","tX":642,"tY":385,"tags":{"name:en":"Winter quarters","name:ru":"Зимовье"}},"5645886841":{"location":[40.5716948,45.8848967],"ct":"AZ","tp":"CS","ts":"2024-12-06T20:45:25Z","tX":642,"tY":385,"tags":{}},"6273485224":{"location":[40.4942207,45.8304072],"ct":"AZ","tp":"CS","ts":"2019-02-12T05:02:05Z","tX":642,"tY":385,"tags":{"name:en":"Winter quarters","name:ru":"Зимовье"}}}