{"1347832053":{"location":[40.4284453,45.727855],"ct":"AZ","tp":"CS","ts":"2025-01-01T20:36:24Z","tX":642,"tY":386,"tags":{"name":"Yaylaq","place":"farm"}},"1347832054":{"location":[40.4245577,45.7230323],"ct":"AZ","tp":"CS","ts":"2025-01-01T20:36:24Z","tX":642,"tY":386,"tags":{"name":"Yaylaq","place":"farm"}},"1347832055":{"location":[40.4290048,45.716308],"ct":"AZ","tp":"CS","ts":"2025-01-01T20:36:24Z","tX":642,"tY":386,"tags":{"name":"Yaylaq","place":"farm"}},"1347832058":{"location":[40.433327,45.7175124],"ct":"AZ","tp":"CS","ts":"2025-01-01T20:36:24Z","tX":642,"tY":386,"tags":{"name":"Yaylaq","place":"farm"}},"1348035073":{"location":[40.4344007,45.7810808],"ct":"AZ","tp":"CS","ts":"2025-01-02T17:40:37Z","tX":642,"tY":386,"tags":{"landuse":"farmyard","name":"Yaylaq"}},"1348035074":{"location":[40.4432218,45.7827731],"ct":"AZ","tp":"CS","ts":"2025-01-02T17:40:37Z","tX":642,"tY":386,"tags":{"landuse":"farmyard","name":"Yaylaq"}},"1348035075":{"location":[40.4468654,45.7772505],"ct":"AZ","tp":"CS","ts":"2025-01-02T17:40:37Z","tX":642,"tY":386,"tags":{"landuse":"farmyard","name":"Yaylaq"}},"1348035078":{"location":[40.4451896,45.7695097],"ct":"AZ","tp":"CS","ts":"2025-01-02T17:40:37Z","tX":642,"tY":386,"tags":{"landuse":"farmyard","name":"Yaylaq"}},"1348035079":{"location":[40.4060334,45.7584536],"ct":"AZ","tp":"CS","ts":"2025-01-02T17:40:37Z","tX":642,"tY":386,"tags":{"landuse":"farmyard","name":"Yaylaq"}},"1348035080":{"location":[40.418,45.761624],"ct":"AZ","tp":"CS","ts":"2025-01-02T17:40:37Z","tX":642,"tY":386,"tags":{"landuse":"farmyard","name":"Yaylaq"}},"1348035081":{"location":[40.4224219,45.765607],"ct":"AZ","tp":"CS","ts":"2025-01-02T17:40:37Z","tX":642,"tY":386,"tags":{"landuse":"farmyard","name":"Yaylaq"}},"1348035082":{"location":[40.397994,45.7376182],"ct":"AZ","tp":"CS","ts":"2025-01-02T17:40:37Z","tX":642,"tY":386,"tags":{"landuse":"farmyard","name":"Yaylaq"}},"1348035083":{"location":[40.4457836,45.783433],"ct":"AZ","tp":"CS","ts":"2025-01-02T17:40:37Z","tX":642,"tY":386,"tags":{"landuse":"farmyard","name":"Yaylaq"}},"1348035084":{"location":[40.4400618,45.7852704],"ct":"AZ","tp":"CS","ts":"2025-01-02T17:40:37Z","tX":642,"tY":386,"tags":{"landuse":"farmyard","name":"Yaylaq"}},"1348035096":{"location":[40.4363189,45.7640957],"ct":"AZ","tp":"CS","ts":"2025-01-02T17:40:37Z","tX":642,"tY":386,"tags":{"landuse":"farmyard","name":"Yaylaq"}},"1348035097":{"location":[40.4387022,45.767498],"ct":"AZ","tp":"CS","ts":"2025-01-02T17:40:37Z","tX":642,"tY":386,"tags":{"maxspeed":"30","name":"Yaylaq"}},"1348035100":{"location":[40.4325144,45.7575524],"ct":"AZ","tp":"CS","ts":"2025-01-02T17:40:37Z","tX":642,"tY":386,"tags":{"landuse":"farmyard","name":"Yaylaq"}},"1348035101":{"location":[40.4349194,45.7583812],"ct":"AZ","tp":"CS","ts":"2025-01-02T17:40:37Z","tX":642,"tY":386,"tags":{"landuse":"farmyard","name":"Yaylaq"}},"1348035102":{"location":[40.4393494,45.7584482],"ct":"AZ","tp":"CS","ts":"2025-01-02T17:40:37Z","tX":642,"tY":386,"tags":{"landuse":"farmyard","name":"Yaylaq"}},"1348035103":{"location":[40.442144,45.7601944],"ct":"AZ","tp":"CS","ts":"2025-01-02T17:40:37Z","tX":642,"tY":386,"tags":{"landuse":"farmyard","name":"Yaylaq"}},"1348035104":{"location":[40.4436505,45.7599663],"ct":"AZ","tp":"CS","ts":"2025-01-02T17:40:37Z","tX":642,"tY":386,"tags":{"landuse":"farmyard","name":"Yaylaq"}},"1348035105":{"location":[40.4463061,45.7523837],"ct":"AZ","tp":"CS","ts":"2025-01-02T17:40:37Z","tX":642,"tY":386,"tags":{"landuse":"farmyard","name":"Yaylaq"}},"1348035110":{"location":[40.4457427,45.7343405],"ct":"AZ","tp":"CS","ts":"2025-01-02T17:40:37Z","tX":642,"tY":386,"tags":{"landuse":"farmyard","name":"Yaylaq"}},"1348035114":{"location":[40.4051838,45.7223082],"ct":"AZ","tp":"CS","ts":"2025-01-02T17:40:37Z","tX":642,"tY":386,"tags":{"landuse":"farmyard","name":"Yaylaq"}},"1348035118":{"location":[40.409239,45.7188615],"ct":"AZ","tp":"CS","ts":"2025-01-02T17:40:37Z","tX":642,"tY":386,"tags":{"landuse":"farmyard","name":"Yaylaq"}},"1348035119":{"location":[40.4100671,45.721525],"ct":"AZ","tp":"CS","ts":"2025-01-02T17:40:37Z","tX":642,"tY":386,"tags":{"landuse":"farmyard","name":"Yaylaq"}},"1348035120":{"location":[40.4216112,45.7301268],"ct":"AZ","tp":"CS","ts":"2025-01-02T17:40:37Z","tX":642,"tY":386,"tags":{"landuse":"farmyard","name":"Yaylaq"}},"1348035121":{"location":[40.4199429,45.7126576],"ct":"AZ","tp":"CS","ts":"2025-01-02T17:40:37Z","tX":642,"tY":386,"tags":{"landuse":"farmyard","name":"Yaylaq"}},"1348045710":{"location":[40.4033476,45.911243],"ct":"AZ","tp":"CS","ts":"2025-01-02T18:30:30Z","tX":642,"tY":386,"tags":{"landuse":"farmyard","name":"Yaylaq"}},"1348045711":{"location":[40.3984087,45.9079921],"ct":"AZ","tp":"CS","ts":"2025-01-02T18:30:30Z","tX":642,"tY":386,"tags":{"landuse":"farmyard","name":"Yaylaq"}},"1348045712":{"location":[40.402357,45.884209],"ct":"AZ","tp":"CS","ts":"2025-01-02T18:30:30Z","tX":642,"tY":386,"tags":{"landuse":"farmyard","name":"Yaylaq"}},"1348045713":{"location":[40.4046364,45.8707792],"ct":"AZ","tp":"CS","ts":"2025-01-02T18:30:30Z","tX":642,"tY":386,"tags":{"landuse":"farmyard","name":"Yaylaq"}},"1348045714":{"location":[40.4061805,45.8129695],"ct":"AZ","tp":"CS","ts":"2025-01-02T18:30:30Z","tX":642,"tY":386,"tags":{"landuse":"farmyard","name":"Yaylaq"}},"1348045715":{"location":[40.4032455,45.791933],"ct":"AZ","tp":"CS","ts":"2025-01-02T18:30:30Z","tX":642,"tY":386,"tags":{"landuse":"farmyard","name":"Yaylaq"}},"1348045716":{"location":[40.3994811,45.7868596],"ct":"AZ","tp":"CS","ts":"2025-01-02T18:30:30Z","tX":642,"tY":386,"tags":{"landuse":"farmyard","name":"Yaylaq"}},"1348045717":{"location":[40.4292497,45.8043301],"ct":"AZ","tp":"CS","ts":"2025-01-02T18:30:30Z","tX":642,"tY":386,"tags":{"landuse":"farmyard","name":"Yaylaq"}},"1348045723":{"location":[40.4434219,45.7929951],"ct":"AZ","tp":"CS","ts":"2025-01-02T18:30:30Z","tX":642,"tY":386,"tags":{"landuse":"farmyard","name":"Yaylaq"}},"1348045724":{"location":[40.4454529,45.7956504],"ct":"AZ","tp":"CS","ts":"2025-01-02T18:30:30Z","tX":642,"tY":386,"tags":{"landuse":"farmyard","name":"Yaylaq"}},"1348045728":{"location":[40.4348315,45.8069748],"ct":"AZ","tp":"CS","ts":"2025-01-02T18:30:30Z","tX":642,"tY":386,"tags":{"landuse":"farmyard","name":"Yaylaq"}},"1348045729":{"location":[40.4225792,45.8221882],"ct":"AZ","tp":"CS","ts":"2025-01-02T18:30:30Z","tX":642,"tY":386,"tags":{"landuse":"farmyard","name":"Yaylaq"}},"1348045731":{"location":[40.3984934,45.7596928],"ct":"AZ","tp":"CS","ts":"2025-01-02T18:30:30Z","tX":642,"tY":386,"tags":{"landuse":"farmyard","name":"Yaylaq"}},"1348045732":{"location":[40.3992247,45.7669522],"ct":"AZ","tp":"CS","ts":"2025-01-02T18:30:30Z","tX":642,"tY":386,"tags":{"landuse":"farmyard","name":"Yaylaq"}},"1348045733":{"location":[40.4005064,45.7660684],"ct":"AZ","tp":"CS","ts":"2025-01-02T18:30:30Z","tX":642,"tY":386,"tags":{"landuse":"farmyard","name":"Yaylaq"}},"1348045734":{"location":[40.403221,45.770773],"ct":"AZ","tp":"CS","ts":"2025-01-02T18:30:30Z","tX":642,"tY":386,"tags":{"landuse":"farmyard","name":"Yaylaq"}},"1348045735":{"location":[40.4110107,45.7755634],"ct":"AZ","tp":"CS","ts":"2025-01-02T18:30:30Z","tX":642,"tY":386,"tags":{"landuse":"farmyard","name":"Yaylaq"}},"1348045736":{"location":[40.4126404,45.7673693],"ct":"AZ","tp":"CS","ts":"2025-01-02T18:30:30Z","tX":642,"tY":386,"tags":{"landuse":"farmyard","name":"Yaylaq"}},"1348048580":{"location":[40.3691903,45.8798155],"ct":"AZ","tp":"CS","ts":"2025-01-02T18:43:49Z","tX":642,"tY":386,"tags":{"landuse":"farmyard","name":"Yaylaq"}},"1348048582":{"location":[40.4368262,45.913724],"ct":"AZ","tp":"CS","ts":"2025-01-02T18:43:49Z","tX":642,"tY":386,"tags":{"landuse":"farmyard","name":"Yaylaq"}},"1348709858":{"location":[40.4040441,46.0288551],"ct":"AZ","tp":"CS","ts":"2025-01-05T14:56:01Z","tX":642,"tY":386,"tags":{"landuse":"farmyard","name":"Yaylaq"}},"1348709860":{"location":[40.4109065,46.0316152],"ct":"AZ","tp":"CS","ts":"2025-01-06T18:23:07Z","tX":642,"tY":386,"tags":{"landuse":"farmyard","name":"Qoşaqapı Yaylaq"}},"1348709866":{"location":[40.4246782,45.9732502],"ct":"AZ","tp":"CS","ts":"2025-01-05T14:56:01Z","tX":642,"tY":386,"tags":{"landuse":"farmyard","name":"Yaylaq"}},"1348709869":{"location":[40.4428401,45.954287],"ct":"AZ","tp":"CS","ts":"2025-01-05T14:56:01Z","tX":642,"tY":386,"tags":{"landuse":"farmyard","name":"Yaylaq"}},"1348709874":{"location":[40.425887,45.914518],"ct":"AZ","tp":"CS","ts":"2025-01-05T14:56:01Z","tX":642,"tY":386,"tags":{"landuse":"farmyard","name":"Yaylaq"}},"1348709875":{"location":[40.438739,45.9314668],"ct":"AZ","tp":"CS","ts":"2025-01-05T14:56:01Z","tX":642,"tY":386,"tags":{"landuse":"farmyard","name":"Yaylaq"}},"1348709877":{"location":[40.429456,45.9315607],"ct":"AZ","tp":"CS","ts":"2025-01-05T14:56:01Z","tX":642,"tY":386,"tags":{"landuse":"farmyard","name":"Yaylaq"}},"1348709878":{"location":[40.429654,45.9419704],"ct":"AZ","tp":"CS","ts":"2025-01-05T14:56:01Z","tX":642,"tY":386,"tags":{"landuse":"farmyard","name":"Yaylaq"}},"1348709879":{"location":[40.4248048,45.9457469],"ct":"AZ","tp":"CS","ts":"2025-01-05T14:56:01Z","tX":642,"tY":386,"tags":{"landuse":"farmyard","name":"Yaylaq"}},"1348709880":{"location":[40.4226097,45.9521976],"ct":"AZ","tp":"CS","ts":"2025-01-05T14:56:01Z","tX":642,"tY":386,"tags":{"landuse":"farmyard","name":"Yaylaq"}},"1348709882":{"location":[40.4302176,45.9224224],"ct":"AZ","tp":"CS","ts":"2025-01-05T14:56:01Z","tX":642,"tY":386,"tags":{"landuse":"farmyard","name":"Yaylaq"}},"1348709883":{"location":[40.4305054,45.9040251],"ct":"AZ","tp":"CS","ts":"2025-01-05T14:56:01Z","tX":642,"tY":386,"tags":{"landuse":"farmyard","name":"Yaylaq"}},"1348709884":{"location":[40.4298071,45.8995378],"ct":"AZ","tp":"CS","ts":"2025-01-05T14:56:01Z","tX":642,"tY":386,"tags":{"landuse":"farmyard","name":"Yaylaq"}},"1348709885":{"location":[40.4330697,45.8987331],"ct":"AZ","tp":"CS","ts":"2025-01-05T14:56:01Z","tX":642,"tY":386,"tags":{"landuse":"farmyard","name":"Yaylaq"}},"1348709886":{"location":[40.4321264,45.8907724],"ct":"AZ","tp":"CS","ts":"2025-01-05T14:56:01Z","tX":642,"tY":386,"tags":{"landuse":"farmyard","name":"Yaylaq"}},"1348709887":{"location":[40.4330635,45.8850083],"ct":"AZ","tp":"CS","ts":"2025-01-05T14:56:01Z","tX":642,"tY":386,"tags":{"landuse":"farmyard","name":"Yaylaq"}},"1348709888":{"location":[40.4375488,45.8815134],"ct":"AZ","tp":"CS","ts":"2025-01-05T14:56:01Z","tX":642,"tY":386,"tags":{"landuse":"farmyard","name":"Yaylaq"}},"1348730439":{"location":[40.4422794,46.0171702],"ct":"AZ","tp":"CS","ts":"2025-01-05T16:32:38Z","tX":642,"tY":386,"tags":{"landuse":"farmyard","name":"Yaylaq"}},"1348730440":{"location":[40.4426713,46.0227843],"ct":"AZ","tp":"CS","ts":"2025-01-05T16:32:38Z","tX":642,"tY":386,"tags":{"landuse":"farmyard","name":"Yaylaq"}},"1348730441":{"location":[40.4455722,46.0023731],"ct":"AZ","tp":"CS","ts":"2025-01-05T16:32:38Z","tX":642,"tY":386,"tags":{"landuse":"farmyard","name":"Yaylaq"}},"1348730443":{"location":[40.4454347,45.988603],"ct":"AZ","tp":"CS","ts":"2025-01-05T16:32:38Z","tX":642,"tY":386,"tags":{"landuse":"farmyard","name":"Yaylaq"}},"1348730444":{"location":[40.4423322,45.9831784],"ct":"AZ","tp":"CS","ts":"2025-01-05T16:32:38Z","tX":642,"tY":386,"tags":{"landuse":"farmyard","name":"Yaylaq"}},"1348730445":{"location":[40.4329182,45.9876293],"ct":"AZ","tp":"CS","ts":"2025-01-05T16:32:38Z","tX":642,"tY":386,"tags":{"name":"Yaylaq"}},"1348730446":{"location":[40.4360379,45.994501],"ct":"AZ","tp":"CS","ts":"2025-01-05T16:32:38Z","tX":642,"tY":386,"tags":{"landuse":"farmyard","name":"Yaylaq"}},"1348730447":{"location":[40.436056,46.0051046],"ct":"AZ","tp":"CS","ts":"2025-01-05T16:32:38Z","tX":642,"tY":386,"tags":{"landuse":"farmyard","name":"Yaylaq"}},"1348730448":{"location":[40.4312692,46.0343673],"ct":"AZ","tp":"CS","ts":"2025-01-05T16:32:38Z","tX":642,"tY":386,"tags":{"landuse":"farmyard","name":"Yaylaq"}},"1348730449":{"location":[40.4340568,46.0323386],"ct":"AZ","tp":"CS","ts":"2025-01-05T16:32:38Z","tX":642,"tY":386,"tags":{"landuse":"farmyard","name":"Yaylaq"}},"1348730451":{"location":[40.4349905,46.0527335],"ct":"AZ","tp":"CS","ts":"2025-01-05T16:32:38Z","tX":642,"tY":386,"tags":{"landuse":"farmyard","name":"Yaylaq"}},"1348730452":{"location":[40.4385449,46.0541659],"ct":"AZ","tp":"CS","ts":"2025-01-05T16:32:38Z","tX":642,"tY":386,"tags":{"landuse":"farmyard","name":"Yaylaq"}},"1348730453":{"location":[40.4427591,46.0512449],"ct":"AZ","tp":"CS","ts":"2025-01-05T16:32:38Z","tX":642,"tY":386,"tags":{"landuse":"farmyard","name":"Yaylaq"}},"1348730458":{"location":[40.4317243,46.0460588],"ct":"AZ","tp":"CS","ts":"2025-01-05T16:32:38Z","tX":642,"tY":386,"tags":{"landuse":"farmyard","name":"Yaylaq"}},"1348730459":{"location":[40.4219664,46.0416302],"ct":"AZ","tp":"CS","ts":"2025-01-05T16:32:38Z","tX":642,"tY":386,"tags":{"landuse":"farmyard","name":"Yaylaq"}},"1348730460":{"location":[40.4199583,45.9908724],"ct":"AZ","tp":"CS","ts":"2025-01-05T16:32:38Z","tX":642,"tY":386,"tags":{"landuse":"farmyard","name":"Yaylaq"}},"1348730525":{"location":[40.4314037,46.0228228],"ct":"AZ","tp":"CS","ts":"2025-01-05T16:32:38Z","tX":642,"tY":386,"tags":{"landuse":"farmyard","name":"Yaylaq"}},"1348730526":{"location":[40.4355063,46.0277863],"ct":"AZ","tp":"CS","ts":"2025-01-05T16:32:38Z","tX":642,"tY":386,"tags":{"landuse":"farmyard","name":"Yaylaq"}},"1348730529":{"location":[40.4251764,46.0122121],"ct":"AZ","tp":"CS","ts":"2025-01-06T18:23:07Z","tX":642,"tY":386,"tags":{"landuse":"farmyard","name":"Zağalətrafı Yaylaq"}},"1348730530":{"location":[40.4190179,46.0100931],"ct":"AZ","tp":"CS","ts":"2025-01-05T16:32:38Z","tX":642,"tY":386,"tags":{"landuse":"farmyard","name":"Yaylaq"}},"1348730531":{"location":[40.4193304,46.0042231],"ct":"AZ","tp":"CS","ts":"2025-01-05T16:32:38Z","tX":642,"tY":386,"tags":{"landuse":"farmyard","name":"Yaylaq"}},"1348730532":{"location":[40.4174424,46.001337],"ct":"AZ","tp":"CS","ts":"2025-01-05T16:32:38Z","tX":642,"tY":386,"tags":{"landuse":"farmyard","name":"Yaylaq"}},"1348730533":{"location":[40.4231264,46.0082773],"ct":"AZ","tp":"CS","ts":"2025-01-05T16:32:38Z","tX":642,"tY":386,"tags":{"landuse":"farmyard","name":"Yaylaq"}},"1348730538":{"location":[40.3927452,46.009554],"ct":"AZ","tp":"CS","ts":"2025-01-05T16:32:38Z","tX":642,"tY":386,"tags":{"landuse":"farmyard","name":"Yaylaq"}},"1348730539":{"location":[40.4072997,45.9908054],"ct":"AZ","tp":"CS","ts":"2025-01-05T16:32:38Z","tX":642,"tY":386,"tags":{"landuse":"farmyard","name":"Yaylaq"}},"1348730540":{"location":[40.4099507,45.9874499],"ct":"AZ","tp":"CS","ts":"2025-01-05T16:32:38Z","tX":642,"tY":386,"tags":{"landuse":"farmyard","name":"Yaylaq"}},"1348730541":{"location":[40.4171106,45.9769074],"ct":"AZ","tp":"CS","ts":"2025-01-05T16:32:38Z","tX":642,"tY":386,"tags":{"landuse":"farmyard","name":"Yaylaq"}},"1348730542":{"location":[40.4249967,45.9750246],"ct":"AZ","tp":"CS","ts":"2025-01-05T16:32:38Z","tX":642,"tY":386,"tags":{"landuse":"farmyard","name":"Yaylaq"}},"1349062275":{"location":[40.4033648,46.051944],"ct":"AZ","tp":"CS","ts":"2025-01-06T18:23:06Z","tX":642,"tY":386,"tags":{"landuse":"farmyard","name":"Əskudar Yaylağı"}},"5569218008":{"location":[40.4452243,45.7693149],"ct":"AZ","tp":"CS","ts":"2018-04-21T14:22:19Z","tX":642,"tY":386,"tags":{}},"5569218009":{"location":[40.4388104,45.7673521],"ct":"AZ","tp":"CS","ts":"2018-04-21T14:22:19Z","tX":642,"tY":386,"tags":{}},"5569218010":{"location":[40.4400329,45.7853604],"ct":"AZ","tp":"CS","ts":"2018-04-21T14:22:19Z","tX":642,"tY":386,"tags":{}},"5569218011":{"location":[40.4349284,45.7811689],"ct":"AZ","tp":"CS","ts":"2018-04-21T14:22:19Z","tX":642,"tY":386,"tags":{}},"5569396495":{"location":[40.4453707,45.792846],"ct":"AZ","tp":"CS","ts":"2018-04-21T16:05:49Z","tX":642,"tY":386,"tags":{}},"5569396680":{"location":[40.4348724,45.8066435],"ct":"AZ","tp":"CS","ts":"2018-04-21T16:05:51Z","tX":642,"tY":386,"tags":{}},"5569427311":{"location":[40.3979485,45.9078357],"ct":"AZ","tp":"CS","ts":"2018-04-21T16:18:10Z","tX":642,"tY":386,"tags":{}},"5569427600":{"location":[40.4366342,45.9141979],"ct":"AZ","tp":"CS","ts":"2018-04-21T16:18:11Z","tX":642,"tY":386,"tags":{}},"5569427650":{"location":[40.4023295,45.8839611],"ct":"AZ","tp":"CS","ts":"2018-04-21T16:18:12Z","tX":642,"tY":386,"tags":{}},"5569480305":{"location":[40.4050515,45.8704659],"ct":"AZ","tp":"CS","ts":"2018-04-21T16:35:55Z","tX":642,"tY":386,"tags":{}},"5569480527":{"location":[40.4032611,45.9117487],"ct":"AZ","tp":"CS","ts":"2018-04-21T16:35:56Z","tX":642,"tY":386,"tags":{}},"5569575012":{"location":[40.402772,45.7923687],"ct":"AZ","tp":"CS","ts":"2018-04-21T17:09:10Z","tX":642,"tY":386,"tags":{}},"5569575173":{"location":[40.39957,45.7866364],"ct":"AZ","tp":"CS","ts":"2018-04-21T17:09:11Z","tX":642,"tY":386,"tags":{}},"5569589778":{"location":[40.406098,45.8128166],"ct":"AZ","tp":"CS","ts":"2018-04-21T17:15:27Z","tX":642,"tY":386,"tags":{}},"5569688258":{"location":[40.424493,45.7229211],"ct":"AZ","tp":"CS","ts":"2018-11-21T19:06:06Z","tX":642,"tY":386,"tags":{"name":"Çadır","name:en":"Winter quarters","name:ru":"Кочевье"}},"5569688259":{"location":[40.4219295,45.7299941],"ct":"AZ","tp":"CS","ts":"2018-11-21T19:06:06Z","tX":642,"tY":386,"tags":{"name:en":"The Nomad Camp","name:ru":"Кочевье"}},"5569688260":{"location":[40.4289008,45.7162255],"ct":"AZ","tp":"CS","ts":"2018-11-21T19:06:07Z","tX":642,"tY":386,"tags":{"name":"Çadır","name:en":"Winter quarters","name:ru":"Кочевье"}},"5569728654":{"location":[40.4331351,45.7173587],"ct":"AZ","tp":"CS","ts":"2018-11-21T19:06:07Z","tX":642,"tY":386,"tags":{"name":"Çadır","name:en":"Winter quarters","name:ru":"Кочевье"}},"5569728655":{"location":[40.4286268,45.7276781],"ct":"AZ","tp":"CS","ts":"2018-11-21T19:06:07Z","tX":642,"tY":386,"tags":{"name":"Çadır","name:en":"Winter quarters","name:ru":"Кочевье"}},"5569728656":{"location":[40.4456784,45.7343239],"ct":"AZ","tp":"CS","ts":"2018-11-21T19:06:07Z","tX":642,"tY":386,"tags":{"name:en":"The Nomad Camp","name:ru":"Кочевье"}},"5569729669":{"location":[40.446283,45.7520461],"ct":"AZ","tp":"CS","ts":"2018-04-21T18:53:00Z","tX":642,"tY":386,"tags":{}},"5569729670":{"location":[40.4433123,45.7600452],"ct":"AZ","tp":"CS","ts":"2018-04-21T18:53:00Z","tX":642,"tY":386,"tags":{}},"5569729671":{"location":[40.4394092,45.7583715],"ct":"AZ","tp":"CS","ts":"2018-04-21T18:53:00Z","tX":642,"tY":386,"tags":{}},"5569730041":{"location":[40.442242,45.7601265],"ct":"AZ","tp":"CS","ts":"2018-04-21T18:53:34Z","tX":642,"tY":386,"tags":{}},"5569730042":{"location":[40.4364307,45.7638598],"ct":"AZ","tp":"CS","ts":"2018-04-21T18:53:34Z","tX":642,"tY":386,"tags":{}},"5569730043":{"location":[40.4351249,45.7582474],"ct":"AZ","tp":"CS","ts":"2018-04-21T18:53:34Z","tX":642,"tY":386,"tags":{}},"5569731010":{"location":[40.4459154,45.7832807],"ct":"AZ","tp":"CS","ts":"2018-04-21T18:55:59Z","tX":642,"tY":386,"tags":{}},"5569731011":{"location":[40.443385,45.7824214],"ct":"AZ","tp":"CS","ts":"2018-04-21T18:55:59Z","tX":642,"tY":386,"tags":{}},"5569731559":{"location":[40.4181247,45.7614406],"ct":"AZ","tp":"CS","ts":"2018-04-21T18:57:02Z","tX":642,"tY":386,"tags":{}},"5569731815":{"location":[40.4127022,45.7672322],"ct":"AZ","tp":"CS","ts":"2018-04-21T18:56:39Z","tX":642,"tY":386,"tags":{}},"5569731816":{"location":[40.4112309,45.7752043],"ct":"AZ","tp":"CS","ts":"2018-04-21T18:56:39Z","tX":642,"tY":386,"tags":{}},"5569733785":{"location":[40.3977835,45.7375791],"ct":"AZ","tp":"CS","ts":"2018-11-21T19:06:06Z","tX":642,"tY":386,"tags":{"name:en":"The Nomad Camp","name:ru":"Кочевье"}},"5569733786":{"location":[40.3883178,45.7733838],"ct":"AZ","tp":"CS","ts":"2018-04-21T18:59:08Z","tX":642,"tY":386,"tags":{}},"5570345067":{"location":[40.4096382,45.7212753],"ct":"AZ","tp":"CS","ts":"2018-11-21T19:06:06Z","tX":642,"tY":386,"tags":{"name:en":"The Nomad Camp","name:ru":"Кочевье"}},"5570345116":{"location":[40.4092253,45.7189304],"ct":"AZ","tp":"CS","ts":"2018-11-21T19:06:06Z","tX":642,"tY":386,"tags":{"name:en":"The Nomad Camp","name:ru":"Кочевье"}},"5570354810":{"location":[40.4048587,45.7223963],"ct":"AZ","tp":"CS","ts":"2018-11-21T19:06:06Z","tX":642,"tY":386,"tags":{"name:en":"The Nomad Camp","name:ru":"Кочевье"}},"5570359987":{"location":[40.4336967,45.7174075],"ct":"AZ","tp":"CS","ts":"2018-11-21T19:06:07Z","tX":642,"tY":386,"tags":{"name":"Çadır","name:en":"Winter quarters","name:ru":"Кочевье"}},"5570360047":{"location":[40.4196487,45.7125505],"ct":"AZ","tp":"CS","ts":"2018-04-22T05:48:07Z","tX":642,"tY":386,"tags":{}},"5570533561":{"location":[40.4059202,45.7580967],"ct":"AZ","tp":"CS","ts":"2018-04-22T08:10:32Z","tX":642,"tY":386,"tags":{}},"5570548350":{"location":[40.422461,45.7655957],"ct":"AZ","tp":"CS","ts":"2018-04-22T08:22:55Z","tX":642,"tY":386,"tags":{}},"5570548351":{"location":[40.432334,45.7809731],"ct":"AZ","tp":"CS","ts":"2018-04-22T08:22:55Z","tX":642,"tY":386,"tags":{}},"5570548352":{"location":[40.4365803,45.7813817],"ct":"AZ","tp":"CS","ts":"2018-04-22T08:22:55Z","tX":642,"tY":386,"tags":{}},"5570548382":{"location":[40.4322866,45.7571986],"ct":"AZ","tp":"CS","ts":"2018-04-22T08:22:56Z","tX":642,"tY":386,"tags":{}},"5570722596":{"location":[40.3985598,45.7596724],"ct":"AZ","tp":"CS","ts":"2018-04-22T10:33:18Z","tX":642,"tY":386,"tags":{}},"5570726783":{"location":[40.4005349,45.7659857],"ct":"AZ","tp":"CS","ts":"2018-04-23T06:56:20Z","tX":642,"tY":386,"tags":{}},"5570726784":{"location":[40.3993779,45.7669567],"ct":"AZ","tp":"CS","ts":"2018-04-23T06:56:20Z","tX":642,"tY":386,"tags":{}},"5570727172":{"location":[40.4032049,45.7706156],"ct":"AZ","tp":"CS","ts":"2018-04-23T06:56:20Z","tX":642,"tY":386,"tags":{}},"5573702111":{"location":[40.3693415,45.8795812],"ct":"AZ","tp":"CS","ts":"2018-04-23T13:45:31Z","tX":642,"tY":386,"tags":{}},"5612732244":{"location":[40.4292826,45.8042711],"ct":"AZ","tp":"CS","ts":"2018-05-12T01:16:30Z","tX":642,"tY":386,"tags":{}},"5612758122":{"location":[40.4226458,45.8221199],"ct":"AZ","tp":"CS","ts":"2018-05-12T01:12:43Z","tX":642,"tY":386,"tags":{}},"5734623024":{"location":[40.4073348,45.8321613],"ct":"AZ","tp":"CS","ts":"2018-07-02T18:05:29Z","tX":642,"tY":386,"tags":{}}}