{"478245066":{"location":[33.1070524,45.9803491],"ct":"IQ","tp":"CS","ts":"2017-03-03T10:00:07Z","tX":642,"tY":412,"tags":{"addr:city":"Badra","addr:street":"Gazprom","name":"GCC services","operator":"GCC"}},"4708785989":{"location":[33.0786309,45.9717274],"ct":"IQ","tp":"CS","ts":"2017-02-27T19:26:05Z","tX":642,"tY":412,"tags":{"addr:street":"بدرة","name":"شركة سامسونك","name:ar":"شركة سامسونك","name:en":"samsung camp"}},"4708785990":{"location":[33.0728741,45.9768086],"ct":"IQ","tp":"CS","ts":"2019-09-29T20:26:48Z","tX":642,"tY":412,"tags":{"addr:street":"Badra oil feild st","name":"شركة 77 انشاءات وتعهدات","name:ar":"شركة 77 انشاءات وتعهدات"}},"4725903092":{"location":[33.1154247,45.925167],"ct":"IQ","tp":"CR","ts":"2017-03-09T12:38:07Z","tX":642,"tY":412,"tags":{"email":"mustafamu30@yahoo.com","internet_access":"wlan"}},"6633045400":{"location":[33.0847604,45.989255],"ct":"IQ","tp":"CR","ts":"2019-07-20T09:47:02Z","tX":642,"tY":412,"tags":{"addr:street":"الشعب حي الجزائر","name":"أولاد حسن فولاذ مصطفى قمير حيدر","name:ar":"أولاد (حسن فولاذ )قمبر ومصطفى وحيدر","phone":"0770093130"}}}