{"8345519":{"location":[51.4133048,-121.196156],"ct":"CA","tp":"CS","ts":"2023-10-15T22:59:59Z","tX":167,"tY":340,"tags":{"capacity":"54","email":"parkinquiries@telus.net","fee":"yes","internet_access":"no","name":"Sunset View Campground","operator":"Shuswap Adams Parks Ltd.","phone":"+1-250-320-9305","website":"https://www.env.gov.bc.ca/bcparks/explore/parkpgs/green_lk/"}},"8345523":{"location":[51.4416269,-121.1600884],"ct":"CA","tp":"CS","ts":"2023-10-15T23:00:12Z","tX":167,"tY":340,"tags":{"capacity":"51","email":"parkinquiries@telus.net","fee":"yes","internet_access":"no","name":"Emerald Bay Campground","operator":"Shuswap Adams Parks Ltd.","phone":"+1-250-320-9305","website":"https://www.env.gov.bc.ca/bcparks/explore/parkpgs/green_lk/"}},"307003852":{"location":[51.4633218,-121.1214877],"ct":"CA","tp":"CS","ts":"2023-10-15T23:00:34Z","tX":167,"tY":340,"tags":{"addr:city":"70 Mile House","addr:housenumber":"6355","addr:postcode":"V0K 2K1","building":"yes","email":"dimps@watchlake.com","fax":"+1-250-456-7492","name":"Watch Lake Lodge","phone":"+1-250-456-7741","website":"https://watchlake.com/"}},"3387140920":{"location":[51.5462016,-121.165081],"ct":"CA","tp":"CS","ts":"2015-03-07T06:17:50Z","tX":167,"tY":340,"tags":{}},"5049842921":{"location":[51.5794133,-121.1196807],"ct":"CA","tp":"CS","ts":"2019-07-17T15:26:39Z","tX":167,"tY":340,"tags":{"addr:city":"Lone Butte","addr:housenumber":"6384","addr:postcode":"V0K 1X3","addr:street":"Watson Road","name":"Bonanza Resort","name:en":"Bonanza Resort","operator":"Bruno und Dora Sprecher","website":"https://www.cariboobonanza.com/"}},"5657345997":{"location":[51.4124271,-121.2006996],"ct":"CA","tp":"CS","ts":"2018-06-01T22:04:56Z","tX":167,"tY":340,"tags":{"capacity":"4","name":"Walk-In Campsite"}},"7624411225":{"location":[51.5556239,-120.98874],"ct":"CA","tp":"CR","ts":"2020-06-30T14:27:26Z","tX":167,"tY":340,"tags":{"addr:housenumber":"6850","addr:street":"Fawn Lake Access No 1","fee":"32$ per night","internet_access":"wlan","internet_access:fee":"no","name":"Fawn Lake Resort","operator":"Fawn Lake Resort","phone":"+1-250-593-4654","power_supply":"yes","sanitary_dump_station":"no","smoking":"outside","tents":"yes","website":"http://fawnlakeresort.com","wheelchair":"no"}}}