{"4391442218":{"location":[39.9118026,-121.1868945],"ct":"US","tp":"CS","ts":"2016-09-08T07:56:09Z","tX":167,"tY":387,"tags":{"name":"Mill Creek Campground"}},"4391442222":{"location":[39.9802873,-121.0047665],"ct":"US","tp":"CS","ts":"2016-09-08T07:56:09Z","tX":167,"tY":387,"tags":{"name":"Snake Lake Campground"}},"6985526056":{"location":[40.0149121,-121.2252212],"ct":"US","tp":"CS","ts":"2019-11-17T19:25:14Z","tX":167,"tY":387,"tags":{"addr:city":"Belden","addr:housenumber":"16242","addr:postcode":"95915","addr:state":"CA","addr:street":"Hwy. 70","email":"cariboucrossroads@outlook.com","name":"Caribou Crossroads","opening_hours":"Mo-Su 07:00-19:00","phone":"+1-530-283-1384","shop":"general"}},"7851825361":{"location":[40.1614212,-121.095929],"ct":"US","tp":"CS","ts":"2021-05-10T01:59:04Z","tX":167,"tY":387,"tags":{"backcountry":"yes"}},"8716279611":{"location":[40.1553779,-121.093734],"ct":"US","tp":"CS","ts":"2021-05-10T01:59:04Z","tX":167,"tY":387,"tags":{"backcountry":"yes"}},"8716382883":{"location":[40.162028,-121.091633],"ct":"US","tp":"CS","ts":"2021-05-10T01:59:04Z","tX":167,"tY":387,"tags":{"backcountry":"yes"}}}