{"111412568":{"location":[36.9865743,-120.9389675],"ct":"US","tp":"CS","ts":"2011-05-01T17:55:22Z","tX":167,"tY":398,"tags":{}},"170555290":{"location":[37.0272566,-121.063599],"ct":"US","tp":"CS","ts":"2019-06-27T02:55:44Z","tX":167,"tY":398,"tags":{"acres":"26.0635230209","addr:county":"Merced","capacity":"79","fee":"yes","name":"Basalt Campground","operator":"California State Parks"}},"170555556":{"location":[37.1082309,-121.0644468],"ct":"US","tp":"CS","ts":"2013-02-11T02:27:35Z","tX":167,"tY":398,"tags":{"FMMP_modified":"no","FMMP_reviewed":"no","acres":"25.5888511751","addr:county":"Merced","attribution":"Farmland Mapping and Monitoring Program","description":"urban land","source":"http://www.consrv.ca.gov/dlrp/fmmp/products/Pages/DownloadGISdata.aspx"}},"307196641":{"location":[37.0547821,-121.0069665],"ct":"US","tp":"CR","ts":"2014-10-10T18:53:28Z","tX":167,"tY":398,"tags":{"FMMP_modified":"yes","addr:city":"Los Banos","addr:county":"Merced","addr:housenumber":"28485","addr:postcode":"95322","addr:street":"West Gonzaga Road","attribution":"Farmland Mapping and Monitoring Program","name":"KOA","source":"http://www.consrv.ca.gov/dlrp/fmmp/products/Pages/DownloadGISdata.aspx"}},"6573668876":{"location":[37.0311591,-121.0651053],"ct":"US","tp":"SD","ts":"2019-06-27T02:44:10Z","tX":167,"tY":398,"tags":{}}}