{"391111646":{"location":[46.2555696,-63.6721161],"ct":"CA","tp":"CR","ts":"2023-02-04T00:14:26Z","tX":330,"tY":363,"tags":{"addr:city":"Borden","addr:housenumber":"13714","addr:postcode":"C0B 1X0","addr:street":"Trans Canada Highway","brand":"KOA","brand:wikidata":"Q16988635","name":"Borden/Summerside KOA Journey","short_name":"KOA"}},"1027444301":{"location":[46.1271467,-63.7849942],"ct":"CA","tp":"CR","ts":"2023-02-01T23:48:05Z","tX":330,"tY":363,"tags":{"access":"yes","addr:city":"Cape Tormentine","addr:housenumber":"1","addr:postcode":"E4M 2A3","addr:province":"NB","addr:street":"Route 955","capacity:caravans":"69","fee":"yes","name":"Cape Tormentine Beach Campground","operator":"Cape Tormentine Community Development Corporation"}},"1138181464":{"location":[46.1805861,-63.9807828],"ct":"CA","tp":"CS","ts":"2023-02-06T02:10:48Z","tX":330,"tY":363,"tags":{"name":"Murray Beach Provincial Park Campground"}},"1138181468":{"location":[46.1792706,-63.9742969],"ct":"CA","tp":"CS","ts":"2023-02-06T02:10:48Z","tX":330,"tY":363,"tags":{"name":"Strang`s Shore Camping"}},"6467098017":{"location":[46.1804511,-63.9815134],"ct":"CA","tp":"SD","ts":"2019-05-11T22:08:11Z","tX":330,"tY":363,"tags":{}},"10605248468":{"location":[46.2557191,-63.6732619],"ct":"CA","tp":"SD","ts":"2023-02-04T00:14:26Z","tX":330,"tY":363,"tags":{}}}