{"289065094":{"location":[-17.4640677,-63.6635408],"ct":"BO","tp":"CS","ts":"2017-06-09T08:22:56Z","tX":330,"tY":562,"tags":{"addr:city":"Buena Vista","addr:country":"BO","addr:street":"Avel Arduz","bar":"no","barrier":"wall","big_rigs":"yes","camp_type":"established","caravans":"yes","dish_washing":"no","dryer":"no","fee":"BOB 50 (2 adults, camper)","fenced":"protecting","fireplace":"no","general_room":"no","guarded":"no","internet":"no","kitchen":"no","laundry":"no","name":"La Carcel","payment:credit_card":"no","pets":"yes","picnic_benches":"no","power_supply":"yes","power_supply:voltage":"220","restaurant":"no","sanitary_dumpstation":"no","shop":"no","source":"Survey","swimming_pool":"no","tents":"yes","toilets:disposal":"flush","toilets:position":"sitting","washing_machine":"yes","water:location":"central","water:quality":"potable"}},"4255415304":{"location":[-17.470773,-63.6531803],"ct":"BO","tp":"CS","ts":"2019-07-26T00:41:30Z","tX":330,"tY":562,"tags":{"access":"permissive","addr:city":"Buena Vista","addr:postcode":"SCZ","name":"Campamento Scout Distrito Santa Cruz","operator":"Asociacion Scout de Bolivia"}},"4788118322":{"location":[-17.4452418,-63.6737695],"ct":"BO","tp":"CS","ts":"2021-03-06T05:04:54Z","tX":330,"tY":562,"tags":{"name":"Propiedad Pecuaria \"Las Delicias\"","name:es":"Propiedad Pecuaria \"Las Delicias\""}},"5307691721":{"location":[-17.550479,-63.8679594],"ct":"BO","tp":"CS","ts":"2020-05-18T19:40:35Z","tX":330,"tY":562,"tags":{"access":"customers","addr:city":"Villa Imperial","contact:mobile":"+591-70849871","contact:phone":"+591-3-3396470","fee":"yes","name":"Mataracu Tent Camp","old_name":"Mataracu Temp Camp","opening_hours":"24/7"}}}