{"5487708":{"location":[64.8889222,-23.6880201],"ct":"IS","tp":"CS","ts":"2020-02-21T17:23:29Z","tX":444,"tY":267,"tags":{"addr:city":"Ólafsvík","addr:postcode":"355","addr:street":"Ólafsvík","email":"info@snb.is","fee":"yes","name":"Tjaldstæðið í Ólafsvík","name:en":"Camping Ólafsvík","phone":"+354 433 6929","website":"https://snb.is/"}},"14452771":{"location":[64.9119328,-23.8895666],"ct":"IS","tp":"CS","ts":"2024-05-09T23:10:33Z","tX":444,"tY":267,"tags":{"addr:city":"Hellissandur","addr:postcode":"360","caravans":"yes","drinking_water":"yes","email":"info@snb.is","fee":"yes","internet_access":"yes","internet_access:fee":"no","name":"Tjaldsvæðið á Hellissandi","name:en":"Hellissandur Camping Ground","payment:contactless":"yes","payment:credit_cards":"yes","payment:debit_cards":"yes","phone":"+354 433 6929","picnic_table":"yes","power_supply":"yes","sanitary_dump_station":"yes","shower":"yes","static_caravans":"yes","tents":"yes","toilets":"yes","website":"https://snb.is/"}},"3620374960":{"location":[64.9223528,-23.8165681],"ct":"IS","tp":"SD","ts":"2015-06-26T16:09:31Z","tX":444,"tY":267,"tags":{"fixme":"exact location"}},"11892423608":{"location":[64.912916,-23.8890039],"ct":"IS","tp":"SD","ts":"2024-05-09T23:10:33Z","tX":444,"tY":267,"tags":{"fee":"no","water_point":"yes"}}}