{"33079864":{"location":[54.5996305,10.0239538],"ct":"DE","tp":"CS","ts":"2019-07-15T11:06:14Z","tX":540,"tY":325,"tags":{"addr:city":"Dörphof","addr:country":"DE","addr:postcode":"24398","addr:street":"Schubystrand","addr:suburb":"Schubystrand","cabins":"yes","caravans":"yes","dog":"yes","email":"camping@damp-ostseecamping.de","fax":"+49 4644 814","fee":"yes","internet_access":"wlan","loc_name":"Campingplatz Schubystrand","name":"Damp Ostseecamping","opening_hours":"Apr-Sep: 07:00-13:00,15:00-22:00","opening_hours:reception":"Mo-Su 08:00-13:00, 15:00-19:00","operator":"CSS Campingplatz Schubystrand GmbH & Co.KG","phone":"+49 4644 96010","power_supply":"yes","tents":"yes","website":"https://www.damp-ostseecamping.de/"}},"33893685":{"location":[54.6835466,9.994784],"ct":"DE","tp":"CR","ts":"2024-10-20T10:28:12Z","tX":540,"tY":325,"tags":{"addr:city":"Maasholm","addr:country":"DE","addr:housenumber":"31","addr:postcode":"24404","addr:street":"Uleweg","capacity":"40","charge":"20 €","fee":"yes","internet_access":"wlan","name":"Reisemobilplatz Maasholm","opening_hours":"24/7","payment:cards":"yes","phone":"+49 4642 965068","power_supply":"yes","sanitary_dump_station":"yes","toilets":"yes","water_point":"yes","website":"https://maasholm.de/urlaub/wohnmobilstellplatz/"}},"87536146":{"location":[54.7573026,9.8802365],"ct":"DE","tp":"CS","ts":"2019-03-26T01:02:48Z","tX":540,"tY":325,"tags":{"addr:city":"Gelting","addr:country":"DE","addr:housenumber":"2a","addr:postcode":"24395","addr:street":"Strandweg","addr:suburb":"Wackerballig","caravans":"yes","email":"info@campingplatz-wackerballig.de","fax":"+49 4643 185306","internet_access":"wlan","name":"Camping Wackerballig","phone":"+49 4643 - 13 35","tents":"yes","website":"https://www.campingplatz-wackerballig.de/"}},"87604543":{"location":[54.6202122,9.8816279],"ct":"DE","tp":"CS","ts":"2019-03-21T06:07:38Z","tX":540,"tY":325,"tags":{"addr:city":"Rabenkirchen-Faulück","addr:country":"DE","addr:housenumber":"56","addr:postcode":"24407","addr:street":"Karschau","caravans":"yes","email":"info@campingpark-schlei.de","fax":"+49 4642 920821","name":"Campingpark Schlei-Karschau","phone":"+49 4642 920820","tents":"yes","website":"https://www.campingpark-schlei.de/"}},"98986145":{"location":[54.727192,9.9741107],"ct":"DE","tp":"CS","ts":"2019-03-26T01:02:58Z","tX":540,"tY":325,"tags":{"addr:city":"Kronsgaard","addr:country":"DE","addr:housenumber":"3","addr:postcode":"24395","addr:street":"Dänische Straße","caravans":"yes","email":"hoeckmarion@aol.com","name":"Campingplatz Hof Hoeck","phone":"+49 4643 2547","power_supply":"yes","tents":"yes","website":"https://www.campingplatz-hoeck-ostsee.de/","wheelchair":"limited"}},"111450903":{"location":[54.6645334,10.0069153],"ct":"DE","tp":"CS","ts":"2023-07-29T09:06:30Z","tX":540,"tY":325,"tags":{"addr:city":"Kappeln","addr:country":"DE","addr:housenumber":"33a","addr:postcode":"24376","addr:street":"Olpenitzer Dorfstraße","caravans":"yes","email":"info@campingplatz-schleimuende.de","fax":"+49 4642 987709","name":"Campingplatz Schleimünde","old_name":"Campingplatz Olpenitz","opening_hours":"Apr 01-Oct 15","phone":"+49 4642 81647","power_supply":"yes","shower":"yes","tents":"yes","toilets":"yes","website":"https://www.campingplatz-schleimuende.de/"}},"118626121":{"location":[54.7137818,9.9919066],"ct":"DE","tp":"CS","ts":"2024-06-27T08:11:36Z","tX":540,"tY":325,"tags":{"addr:city":"Hasselberg","addr:country":"DE","addr:housenumber":"6","addr:postcode":"24376","addr:street":"Drecht","caravans":"yes","check_date":"2024-06-25","drinking_water":"yes","email":"camping@gut-oehe.de","fax":"+49 4642 69159","internet_access":"wlan","internet_access:fee":"yes","kitchen":"yes","name":"Ostseecamping Gut Oehe","old_name":"Oehe-Draecht","opening_hours":"Mar 21-Sep 30","payment:cash":"yes","payment:visa":"yes","payment:visa_contactless":"yes","phone":"+49 4642 6124","power_supply":"yes","sanitary_dump_station":"yes","shower":"yes","stars":"3","tents":"yes","toilets":"yes","washing_machine":"yes","website":"https://www.camping-oehe.de/","wheelchair":"yes"}},"139902187":{"location":[54.6569024,9.944827],"ct":"DE","tp":"CR","ts":"2023-12-04T12:28:52Z","tX":540,"tY":325,"tags":{"capacity":"10","fee":"yes","name":"Wohnmobilstellplatz Tankstelle Kappeln","power_supply":"yes","power_supply:fee":"yes","sanitary_dump_station":"yes","seasonal":"no","water_point":"yes","website":"https://www.kappeln.de/Unsere-Stadt/F%C3%BCr-unsere-G%C3%A4ste/Wohnmobil-Camping/","wheelchair":"limited","wikimedia_commons":"Category:Wohnmobilstellplatz Kappeln"}},"162586316":{"location":[54.673197,9.9268813],"ct":"DE","tp":"CS","ts":"2019-03-21T06:08:07Z","tX":540,"tY":325,"tags":{"addr:city":"Kappeln","addr:country":"DE","addr:housenumber":"3","addr:postcode":"24376","addr:street":"Wassermühlenholz","caravans":"yes","email":"info@goosbusters.de","fax":"+49 4642-82853","name":"Campingplatz Wassermühlenholz","phone":"+49 4642-924077","tents":"yes","website":"https://www.goosbusters.de/campingplatz/"}},"164150908":{"location":[54.7622933,9.970683],"ct":"DE","tp":"CS","ts":"2023-03-20T12:36:49Z","tX":540,"tY":325,"tags":{"addr:city":"Pommerby","addr:country":"DE","addr:housenumber":"6","addr:postcode":"24395","addr:street":"Gammeldamm","caravans":"yes","drinking_water":"yes","email":"post@camping-ostseesonne.de","fax":"+49 4643 2223","name":"Campingplatz Ostseesonne","opening_hours":"Apr 1-Oct 31","phone":"+49 4643 2223","power_supply":"yes","shower":"yes","tents":"yes","toilets":"yes","website":"https://www.camping-ostseesonne.de/"}},"164150923":{"location":[54.7662023,9.9656382],"ct":"DE","tp":"CS","ts":"2023-03-11T07:49:04Z","tX":540,"tY":325,"tags":{"addr:city":"Pommerby","addr:housenumber":"5","addr:postcode":"24395","addr:street":"Gammeldamm","caravans":"yes","email":"anfrage@camping-seehof.de","fax":"+49 4643 3269","name":"Campingplatz Seehof","phone":"+49 4643 693","power_supply":"yes","tents":"yes","website":"https://www.camping-seehof.de/"}},"164432358":{"location":[54.7192041,9.9863586],"ct":"DE","tp":"CS","ts":"2022-07-24T11:11:43Z","tX":540,"tY":325,"tags":{"addr:city":"Hasselberg","addr:country":"DE","addr:housenumber":"7","addr:postcode":"24376","addr:street":"Drecht","caravans":"yes","email":"kontakt@campingplatz-hasselberg.de","fax":"+49 4642 923761","internet_access":"wlan","name":"Campingplatz Hasselberg","phone":"+49 4642 6383","power_supply":"yes","tents":"yes","website":"http://www.campingplatz-hasselberg.de/","wheelchair":"yes"}},"294198320":{"location":[54.5969432,10.0201461],"ct":"DE","tp":"CS","ts":"2021-11-04T13:48:34Z","tX":540,"tY":325,"tags":{"website":"https://www.damp-ostseecamping.de/mietmobilheime.html"}},"330147071":{"location":[54.674235,10.0330784],"ct":"DE","tp":"CS","ts":"2022-09-28T21:17:39Z","tX":540,"tY":325,"tags":{"cabins":"no","contact:phone":"+49 4642 921133","tents":"yes"}},"341000570":{"location":[54.5763915,10.0167399],"ct":"DE","tp":"CR","ts":"2024-04-26T21:23:13Z","tX":540,"tY":325,"tags":{"addr:city":"Damp","addr:country":"DE","addr:housenumber":"2","addr:postcode":"24351","addr:street":"Parkstraße","capacity":"170","caravan_site":"motorhome_stopover","caravan_site:type":"beach","caravans":"no","charge":"19 EUR","dog":"yes","dryer":"yes","email":"info@wohnmobilpark-damp.de","fee":"yes","internet_access":"wlan","internet_access:fee":"no","lit":"yes","name":"Wohnmobilpark Damp","operator":"Attila Ögretici","phone":"+49 4352 9117198","power_supply":"yes","sanitary_dump_station:chemical_toilet":"yes","sanitary_dump_station:grey_water":"yes","shower":"yes","tents":"no","toilets":"yes","washing_machine":"yes","water_point":"yes","website":"https://www.wohnmobilpark-damp.de/","wheelchair":"yes"}},"432773928":{"location":[54.6681143,9.9362742],"ct":"DE","tp":"CR","ts":"2024-07-20T09:45:19Z","tX":540,"tY":325,"tags":{"addr:city":"Kappeln","addr:country":"DE","addr:housenumber":"23a","addr:postcode":"24376","addr:street":"Am Hafen","capacity":"60","charge":"17 EUR, 22 EUR for 8+ meter","contact:phone":"+49 4642 1563","dog":"yes","fee":"yes","internet_access":"wlan","internet_access:fee":"no","name":"Wohnmobilstellplatz Ancker Yachting","operator":"Ancker Yachting GmbH","power_supply":"yes","power_supply:charge":"0.6 EUR/kWh","power_supply:fee":"yes","reservation":"no","sanitary_dump_station":"customers","shower":"yes","surface":"gravel","toilets":"yes","toilets:wheelchair":"yes","water_point":"yes","website":"https://ancker-yachting.de/wohnmobile/","wheelchair":"limited"}},"699442532":{"location":[54.7519818,9.8642179],"ct":"DE","tp":"CR","ts":"2024-04-25T20:24:48Z","tX":540,"tY":325,"tags":{"capacity":"31","caravan_site":"motorhome_stopover","caravan_site:type":"harbour","charge":"25 EUR","fee":"yes","laundry":"yes","name":"Wohnmobilstellplatz - Sporthafen Gelting Mole","power_supply":"yes","sanitary_dump_station":"yes","toilets":"yes","water_point":"yes","website":"https://www.sporthafen-gelting-mole.de/wohnmobilstellplatz"}},"1080922390":{"location":[54.7242295,9.9840452],"ct":"DE","tp":"CS","ts":"2023-10-21T07:43:23Z","tX":540,"tY":325,"tags":{}},"1304743959":{"location":[54.6344082,9.9293092],"ct":"DE","tp":"CR","ts":"2024-07-30T23:52:08Z","tX":540,"tY":325,"tags":{"addr:housenumber":"21","addr:street":"Friedenshöher Straße","capacity":"20","caravan_site":"motorhome_stopover","caravan_site:type":"harbour","charge":"25 EUR","check_date":"2024-06-25","email":"hafenmeister@wsg-arnis.de","fee":"yes","internet_access":"wlan","name":"Wohnmobil-Stellplätze Wassersportgemeinschaft Arnis/Grödersby","operator":"Wassersportgemeinschaft Arnis/Grödersby e.V.","phone":"+49 4642 4421","power_supply":"yes","power_supply:fee":"no","reservation":"no","sanitary_dump_station":"yes","shower":"yes","toilets":"yes","water_point":"yes","website":"https://wsg-arnis.de/fuer-gaeste/#womo"}},"1311085693":{"location":[54.6890865,9.9248812],"ct":"DE","tp":"CR","ts":"2024-08-25T18:07:18Z","tX":540,"tY":325,"tags":{"addr:city":"Kappeln","addr:housenumber":"17","addr:postcode":"24376","addr:street":"Stutebüll","charge":"10 EUR","fee":"yes","mobile":"+49 160 94940252","name":"Wohnmobil Wiese Stutebüll","power_supply":"yes","reservation":"no"}},"3482186221":{"location":[54.577259,10.0153232],"ct":"DE","tp":"SD","ts":"2017-02-12T16:46:56Z","tX":540,"tY":325,"tags":{"access":"customers","sanitary_dump_station:basin":"yes","sanitary_dump_station:round_drain":"yes"}},"3705313818":{"location":[54.7551216,9.848087],"ct":"DE","tp":"CS","ts":"2023-06-03T19:53:24Z","tX":540,"tY":325,"tags":{"backcountry":"yes","caravans":"no","email":"info@sn-sh.de","fee":"no","name":"Trekkingplatz Koppelheck","note":"Nur für kleine Zelte für eine Nacht, kein Feuer","openfire":"no","phone":"+49 431 21090101","reservation":"no","shower":"no","tents":"yes","toilets":"no","website":"https://www.naturschutz-sh.de/wildes-sh/uebernachtungsplatz-koppelheck"}},"3754233360":{"location":[54.5978209,10.0217536],"ct":"DE","tp":"SD","ts":"2015-09-22T10:09:52Z","tX":540,"tY":325,"tags":{"sanitary_dump_station:accepted":"black_water;tank_chemicals"}},"4317297913":{"location":[54.6658389,9.9354061],"ct":"DE","tp":"SD","ts":"2016-07-24T13:00:38Z","tX":540,"tY":325,"tags":{"access":"customers","sanitary_dump_station:basin":"yes","sanitary_dump_station:round_drain":"yes"}},"6985000497":{"location":[54.6832942,9.9936873],"ct":"DE","tp":"SD","ts":"2019-11-17T15:25:18Z","tX":540,"tY":325,"tags":{"fee":"no","water_point":"yes"}},"10861589931":{"location":[54.572312,10.0163904],"ct":"DE","tp":"SD","ts":"2023-05-02T04:18:35Z","tX":540,"tY":325,"tags":{"sanitary_dump_station:chemical_toilet":"yes","sanitary_dump_station:gravity":"yes","sanitary_dump_station:grey_water":"yes","sanitary_dump_station:suction":"no"}},"11349901351":{"location":[54.6194501,9.8838482],"ct":"DE","tp":"SD","ts":"2023-11-14T23:03:40Z","tX":540,"tY":325,"tags":{"water_point":"yes"}}}