{"24896924":{"location":[54.4784031,9.8834032],"ct":"DE","tp":"CS","ts":"2020-06-24T20:48:12Z","tX":540,"tY":326,"tags":{"addr:city":"Barkelsby","addr:country":"DE","addr:postcode":"24360","addr:street":"Hemmelmark","caravans":"yes","dog":"yes","dryer":"yes","email":"info@ostsee-camping-hemmelmark.de","fax":"+49 4351 87606","internet_access":"wlan","internet_access:fee":"yes","kitchen":"yes","name":"Campingplatz Hemmelmark","phone":"+49 4351 81149","power_supply":"yes","tents":"yes","washing_machine":"yes","website":"https://www.ostsee-camping-hemmelmark.de/","wheelchair":"yes"}},"27199496":{"location":[54.4628802,9.9436981],"ct":"DE","tp":"CS","ts":"2023-11-09T11:05:51Z","tX":540,"tY":326,"tags":{"access":"private","name":"Campingplatz Lindhöft","permanent_camping":"only","website":"https://www.vncl.de/"}},"28839670":{"location":[54.4117553,10.1829537],"ct":"DE","tp":"CS","ts":"2022-10-28T17:24:44Z","tX":540,"tY":326,"tags":{"access":"private","addr:city":"Kiel","addr:country":"DE","addr:housenumber":"171","addr:postcode":"24159","addr:street":"Palisadenweg","caravans":"yes","dog":"yes","dryer":"yes","email":"campingplatzkiel@gmail.com","fax":"+49 431 392078","internet_access":"wlan","internet_access:fee":"yes","name":"Campingplatz Kiel-Falckenstein","note":"Nudist beach FFK Strand","openfire":"yes","phone":"+49 431 392078","power_supply":"yes","tents":"yes","washing_machine":"yes","website":"http://www.campingkiel.de/","wheelchair":"yes"}},"28845573":{"location":[54.4687039,10.0077156],"ct":"DE","tp":"CS","ts":"2023-08-31T18:09:17Z","tX":540,"tY":326,"tags":{"contact:website":"https://www.camping-jensen.de/","name":"Campingplatz Jensen","permanent_camping":"only"}},"28845574":{"location":[54.4700967,10.0028684],"ct":"DE","tp":"CS","ts":"2023-09-11T19:08:40Z","tX":540,"tY":326,"tags":{"access":"private","caravans":"yes","name":"Zeltgemeinschaft Noer","operator":"Zeltgemeinschaft Noer e.V.","operator:type":"private_non_profit","permanent_camping":"only","start_date":"1962","tents":"no","website":"https://zg-noer.de/"}},"30660845":{"location":[54.5018099,9.9550825],"ct":"DE","tp":"CS","ts":"2022-05-10T20:08:04Z","tX":540,"tY":326,"tags":{"addr:city":"Waabs","addr:country":"DE","addr:postcode":"24369","area":"yes","caravans":"yes","dryer":"yes","email":"info@ostseecamping-ludwigsburg.de","fax":"+49 4358 460","internet_access":"wlan","name":"Ostsee-Campingplatz Gut Ludwigsburg","phone":"+49 4358 370","tents":"yes","washing_machine":"yes","website":"https://www.ostseecamping-ludwigsburg.de/","wheelchair":"yes"}},"31989891":{"location":[54.478901,10.079718],"ct":"DE","tp":"CS","ts":"2024-02-12T18:09:45Z","tX":540,"tY":326,"tags":{"addr:city":"Schwedeneck","addr:country":"DE","addr:housenumber":"5","addr:postcode":"24229","addr:street":"Zum Kurstrand","caravans":"yes","email":"info@schwedeneck.de","fax":"+49 4308 1260","internet_access":"wlan","internet_access:fee":"yes","name":"Campingplatz Surendorf","operator":"Schwedeneck Touristik","phone":"+49 4308 331","power_supply":"yes","tents":"yes","toilets:wheelchair":"yes","website":"https://www.schwedeneck.de/campingplatz-surendorf","wheelchair":"yes"}},"31991040":{"location":[54.4742093,10.0335619],"ct":"DE","tp":"CS","ts":"2017-12-15T17:39:02Z","tX":540,"tY":326,"tags":{"addr:city":"Schwedeneck","addr:country":"DE","addr:postcode":"24229","addr:street":"Kronshörn","caravans":"yes","contact:email":"info@groenwohld-camping.de","contact:fax":"+49 4308 189973","contact:phone":"+49 4308 189972","contact:website":"http://www.groenwohld-camping.de/","dog":"yes","dryer":"yes","email":"info@groenwohld-camping.de","fax":"+49 4308 189973","name":"Campingplatz Grönwohld","phone":"+49 4308 189972","power_supply":"yes","tents":"yes","washing_machine":"yes","website":"http://www.groenwohld-camping.de/"}},"37656849":{"location":[54.490278,9.9213255],"ct":"DE","tp":"CS","ts":"2023-03-05T14:45:20Z","tX":540,"tY":326,"tags":{"access":"private","addr:city":"Waabs","addr:postcode":"24369","addr:street":"Waldweg","description":"privater Campingplatz","name":"Campingplatz Eickholt","tents":"yes"}},"37656850":{"location":[54.4962249,9.9410092],"ct":"DE","tp":"CS","ts":"2024-08-31T15:56:21Z","tX":540,"tY":326,"tags":{"addr:city":"Waabs","addr:country":"DE","addr:postcode":"24369","addr:suburb":"Karlsminde","caravans":"yes","contact:phone":"+49 4358 344","dog":"yes","dryer":"yes","email":"info@karlsminde.de","fax":"+49 4358 683","internet_access":"wlan","name":"Ostseecamping - Gut Karlsminde","phone":"+49 4358 344","power_supply":"yes","stars":"4","tents":"yes","washing_machine":"yes","website":"https://www.karlsminde.de/"}},"39435562":{"location":[54.5078822,9.9711957],"ct":"DE","tp":"CS","ts":"2024-04-08T09:47:23Z","tX":540,"tY":326,"tags":{"addr:city":"Waabs","addr:country":"DE","addr:housenumber":"11","addr:postcode":"24369","addr:street":"Lehmberger Straße","capacity:caravans":"80","caravans":"yes","email":"info@ostseecamp-lehmberg.de","fee":"yes","name":"Ostseecamp Lehmberg","old_name":"Campingplatz Lehmberg","phone":"+49 4358 6380180","power_supply":"yes","static_caravans":"yes","tents":"yes","website":"https://www.ostseecamp-lehmberg.de/"}},"39532827":{"location":[54.5628255,10.0219806],"ct":"DE","tp":"CS","ts":"2024-05-21T10:54:22Z","tX":540,"tY":326,"tags":{"addr:city":"Waabs","addr:country":"DE","addr:postcode":"24369","addr:street":"Seestraße","caravans":"yes","dryer":"yes","email":"ahlefeldt-dehn@t-online.de","fax":"+49 4352 1646","name":"Campingplatz Booknis","operator":"Booknis - Das Ostseeressort","phone":"+49 4352 2311","power_supply":"yes","static_caravans":"yes","tents":"yes","washing_machine":"yes","website":"https://www.camping-booknis.de/"}},"52077442":{"location":[54.5314436,10.0022282],"ct":"DE","tp":"CS","ts":"2023-03-05T14:24:14Z","tX":540,"tY":326,"tags":{"addr:city":"Waabs","addr:country":"DE","addr:housenumber":"31","addr:postcode":"24369","addr:street":"Strandweg","addr:suburb":"Klein Waabs","caravans":"yes","dryer":"yes","email":"info@waabs.de","fax":"+49 4352 1398","name":"Ostseecampingplatz Familie Heide","naturism":"yes","nudism":"yes","phone":"+49 4352 2530","power_supply":"yes","sauna":"yes","tents":"yes","washing_machine":"yes","website":"https://www.waabs.de/"}},"52077573":{"location":[54.5273056,10.0014983],"ct":"DE","tp":"CS","ts":"2023-04-10T17:37:35Z","tX":540,"tY":326,"tags":{"addr:city":"Waabs","addr:country":"DE","addr:housenumber":"2","addr:postcode":"24369","addr:street":"Strandbek","addr:suburb":"Klein Waabs","caravans":"yes","dog":"yes","dryer":"yes","email":"info@campingplatz-jordan.de","mobile":"+49 173 3526267","name":"Campingplatz Jordan","opening_hours":"Apr 1-Sep 30","phone":"+49 170 2816616","power_supply":"yes","shower":"yes","tents":"yes","toilets":"yes","washing_machine":"yes","website":"https://www.campingplatz-jordan.de/","wheelchair":"yes"}},"67233650":{"location":[54.5401195,10.0089094],"ct":"DE","tp":"CS","ts":"2023-11-03T02:27:50Z","tX":540,"tY":326,"tags":{"addr:city":"Waabs","addr:country":"DE","addr:housenumber":"4","addr:postcode":"24369","addr:street":"Ritenrade","email":"info@camping-eckernfoerde.de","fax":"+49 4352 9117032","name":"Camping Hökholz","phone":"+49 4352 9117031","website":"https://www.camping-eckernfoerde.de/"}},"70830086":{"location":[54.5122972,9.981207],"ct":"DE","tp":"CS","ts":"2023-07-06T17:27:27Z","tX":540,"tY":326,"tags":{"addr:city":"Waabs","addr:country":"DE","addr:housenumber":"9","addr:postcode":"24369","addr:street":"Fischerstraße","caravans":"yes","dryer":"yes","email":"camp-langholz@gmx.de","fax":"+49 4352 911483","name":"Camping Langholz","payment:cash":"yes","payment:contactless":"yes","payment:credit_cards":"no","phone":"+49 4352 911484","power_supply":"yes","source":"bing","tents":"yes","washing_machine":"yes","website":"https://camp-langholz.de/"}},"78335521":{"location":[54.5669978,10.0222331],"ct":"DE","tp":"CS","ts":"2024-03-12T19:46:19Z","tX":540,"tY":326,"tags":{"addr:city":"Damp","addr:country":"DE","addr:postcode":"24351","addr:street":"Fischleger","caravans":"yes","dog":"yes","email":"info@campingplatz-koralle.de","fax":"+49 4352 911340","mobile":"+49 173 2085756","motorhome":"yes","name":"Campingplatz Koralle","opening_hours":"Apr 01-Oct 15: 00:00-24:00","operator":"Rolf Schüttpelz","phone":"+49 4352 5109","power_supply":"yes","shower":"yes","tents":"yes","toilets":"yes","website":"https://campingplatz-koralle.de/","wheelchair":"no"}},"78335550":{"location":[54.5718055,10.0206916],"ct":"DE","tp":"CS","ts":"2019-03-31T14:48:39Z","tX":540,"tY":326,"tags":{"addr:city":"Damp","addr:country":"DE","addr:postcode":"24351","addr:street":"Dorotheenthal","caravans":"yes","dog":"yes","dryer":"yes","email":"verwaltung@camping-damp.de","fax":"+49 4352 5603","name":"Campingplatz Dorotheenthal","phone":"+49 4352 5121/5103","power_supply":"yes","tents":"yes","washing_machine":"yes","website":"https://www.camping-damp.de/"}},"233006479":{"location":[54.491151,9.9252208],"ct":"DE","tp":"CS","ts":"2023-11-09T21:36:39Z","tX":540,"tY":326,"tags":{}},"276953260":{"location":[54.461349,9.9277389],"ct":"DE","tp":"CS","ts":"2022-04-06T19:08:39Z","tX":540,"tY":326,"tags":{"addr:city":"Altenhof","addr:country":"DE","addr:housenumber":"9","addr:postcode":"24340","addr:street":"Aschauhof","name":"Campingplatz Aschauer Lagune","operator":"Brücke Rendsburg-Eckernförde e. V.","permanent_camping":"only","website":"http://www.campingplatz-aschauerlagune.de/"}},"409870893":{"location":[54.4847594,10.1255841],"ct":"DE","tp":"CS","ts":"2016-04-12T21:09:10Z","tX":540,"tY":326,"tags":{"access":"private"}},"464219309":{"location":[54.41047,10.1879493],"ct":"DE","tp":"CS","ts":"2024-09-22T14:20:55Z","tX":540,"tY":326,"tags":{"access":"private","caravans":"no","group_only":"yes","name":"Jugendgruppenzeltplatz Falkenhorst","tents":"yes","website":"https://www.verein-falkenhorst.de"}},"691089530":{"location":[54.5353907,10.0054258],"ct":"DE","tp":"CS","ts":"2022-07-10T16:46:48Z","tX":540,"tY":326,"tags":{"name":"Ostseecampingplatz Familie Heide Mobilheime"}},"868644771":{"location":[54.4125085,9.9834428],"ct":"DE","tp":"CR","ts":"2022-01-09T13:22:43Z","tX":540,"tY":326,"tags":{"capacity":"12","fee":"yes","name":"Premium Mobilpark","opening_hours":"24/7","operator":"Premium Mobile Kuntz"}},"1075492235":{"location":[54.4312569,10.1662775],"ct":"DE","tp":"CR","ts":"2023-05-31T09:47:44Z","tX":540,"tY":326,"tags":{"fee":"yes","internet_access":"no","name":"Olympiahafen Schilksee","operator":"Hafenmeister","power_supply":"yes","sanitary_dump_station":"yes","water_point":"yes"}},"1167875390":{"location":[54.5718375,10.0161774],"ct":"DE","tp":"CR","ts":"2024-05-02T19:24:49Z","tX":540,"tY":326,"tags":{"caravan_site":"motorhome_stopover","caravan_site:type":"beach","charge":"27 EUR","fee":"yes","internet_access":"wlan","internet_access:fee":"no","name":"Campingplatz Damp Dorotheenthal Wohnmobilstellplatz","power_supply":"yes","power_supply:fee":"yes","power_supply:maxcurrent":"16","sanitary_dump_station":"yes","website":"https://www.camping-damp.de/"}},"1206971515":{"location":[54.4709876,10.0076299],"ct":"DE","tp":"CS","ts":"2023-09-11T19:08:40Z","tX":540,"tY":326,"tags":{"caravans":"no","group_only":"yes","internet_access":"no","kitchen":"yes","name":"Jugendzeltplatz Noer","permanent_camping":"no","shower":"yes","tents":"yes","toilets":"yes","washing_machine":"yes","website":"https://www.freizeit-am-meer.de/reiseziele/noer/zeltplatz"}},"5058587696":{"location":[54.4437821,9.9062696],"ct":"DE","tp":"SD","ts":"2017-08-25T16:54:22Z","tX":540,"tY":326,"tags":{"sanitary_dump_station:basin":"yes","sanitary_dump_station:round_drain":"yes"}},"9038775388":{"location":[54.5126476,9.9833362],"ct":"DE","tp":"SD","ts":"2021-08-26T19:22:10Z","tX":540,"tY":326,"tags":{"access":"customers","fee":"no","opening_hours":"24/7","sanitary_dump_station:basin":"yes","sanitary_dump_station:round_drain":"yes"}}}