{"32917350":{"location":[54.2695757,9.9628307],"ct":"DE","tp":"CS","ts":"2019-11-07T17:55:08Z","tX":540,"tY":327,"tags":{"addr:city":"Westensee","addr:housenumber":"22","addr:postcode":"24259","addr:street":"Seeweg","contact:phone":"+49 4305 9913018","email":"buggi@naturcampingplatz-westensee.de","fax":"+49 4305 9913019","internet_access":"wlan","name":"Naturcampingplatz Wrohe am Westensee","operator":"Burkhard Behnke","phone":"+49 4305 9913018","website":"https://www.naturcampingplatz-westensee.de/"}},"36160532":{"location":[54.2149618,9.9177664],"ct":"DE","tp":"CS","ts":"2023-05-11T08:42:07Z","tX":540,"tY":327,"tags":{"addr:city":"Langwedel","addr:country":"DE","addr:housenumber":"30a","addr:postcode":"24631","addr:street":"Mühlenstraße","alt_name":"Brahmsee Camping","name":"Caravanpark am Brahmsee","phone":"+49 4329 1567","website":"http://www.caravanpark-sh.de/index.php/de/"}},"69330347":{"location":[54.3363707,9.9596948],"ct":"DE","tp":"CS","ts":"2022-08-17T08:40:24Z","tX":540,"tY":327,"tags":{"addr:city":"Krummwisch","addr:postcode":"24796","addr:street":"Am See","name":"Naturist Camping am Flemhuder See","naturism":"yes","nudism":"yes","operator":"Naturist Camping am Flemhuder See Kiel e.V.","phone":"+49 4334 9829913","website":"https://www.nc-kiel.eu/"}},"71271120":{"location":[54.1825936,9.8880644],"ct":"DE","tp":"CS","ts":"2023-11-06T07:04:53Z","tX":540,"tY":327,"tags":{"addr:city":"Borgdorf-Seedorf","addr:housenumber":"99","addr:postcode":"24589","addr:street":"Hauptstraße","area":"yes","email":"info@seecampingbum.de","fee":"yes","internet_access":"wlan","name":"Seecamping BUM","operator":"Kurt Ulrich","phone":"+494392 - 84 84 0","toilets:wheelchair":"no","website":"https://www.seecampingbum.de/","wheelchair":"limited"}},"81042735":{"location":[54.214321,9.9172042],"ct":"DE","tp":"CS","ts":"2022-05-12T19:08:27Z","tX":540,"tY":327,"tags":{"addr:city":"Langwedel","addr:country":"DE","addr:housenumber":"2","addr:postcode":"24631","addr:street":"Fischersiedlung","alt_name":"Campingplatz am Brahmsee","name":"Brahmsee-Camping","phone":"+49 4329 464","website":"http://www.ferienpark-brahmsee.de/","wheelchair":"limited"}},"645963061":{"location":[54.3641049,10.1461874],"ct":"DE","tp":"CR","ts":"2023-12-04T15:50:20Z","tX":540,"tY":327,"tags":{"addr:city":"Kiel","addr:housenumber":"58","addr:postcode":"24106","addr:street":"Mecklenburger Straße","area:highway":"yes","capacity":"30","charge":"17 EURO; 19 EURO","fee":"yes","name":"Förde- und Kanalblick","power_supply":"yes","power_supply:charge":"5 EUR/day","power_supply:fee":"yes","reservation":"no","sanitary_dump_station":"yes","surface":"gravel","toilets":"yes","website":"https://www.bella-vista-kiel.de/","wikimedia_commons":"File:2017-06-11 Wohnmobilstellplatz Kiel-Holtenau an der Schleuse (2001).jpg"}},"851768318":{"location":[54.2150379,9.9198587],"ct":"DE","tp":"CR","ts":"2025-02-02T11:54:27Z","tX":540,"tY":327,"tags":{"addr:city":"Langwedel","addr:country":"DE","addr:housenumber":"30a","addr:postcode":"24631","addr:street":"Mühlenstraße","alt_name":"Brahmsee Camping","capacity":"16","caravan_site":"motorhome_stopover","caravan_site:type":"lake","dog":"yes","email":"Info@caravanpark-sh.de","fee":"yes","name":"Caravanpark am Brahmsee","phone":"+49 4329 1567","power_supply":"yes","reservation":"yes","seasonal":"no","toilets":"yes","water_point":"yes","website":"http://www.caravanpark-sh.de/index.php/de/"}},"880479125":{"location":[54.2142045,9.9190959],"ct":"DE","tp":"CS","ts":"2020-12-03T06:07:26Z","tX":540,"tY":327,"tags":{}},"961341998":{"location":[54.1838305,10.0267249],"ct":"DE","tp":"CR","ts":"2025-02-02T11:56:56Z","tX":540,"tY":327,"tags":{"capacity":"8","caravan_site":"motorhome_stopover","caravan_site:type":"countryside","caravans":"no","fee":"no","internet_access":"no","maxstay":"18 hours","name":"Reisemobil Stellplatz Bordesholm","operator":"Stadt Bordesholm","power_supply":"no","sanitary_dump_station":"no","shower":"no","surface":"gravel","tents":"no","toilets":"no","water_point":"no"}},"1039362421":{"location":[54.3503932,10.1409368],"ct":"DE","tp":"CR","ts":"2024-04-26T22:11:58Z","tX":540,"tY":327,"tags":{"capacity":"27","charge":"10 EUR","dog":"yes","fee":"yes","internet_access":"no","name":"Wohnmobilstellplatz Koesterallee","opening_hours":"May-Sep; Oct-Apr Off","operator":"Stadt Kiel","power_supply":"no","sanitary_dump_station":"no","website":"https://kiel-sailing-city.de/wohnmobilstellplatz-koesterallee"}},"1129121703":{"location":[54.3313379,10.1750102],"ct":"DE","tp":"CR","ts":"2023-01-09T18:52:29Z","tX":540,"tY":327,"tags":{"capacity":"12","fee":"no","name":"Wohnmobilstellplatz Ostuferhafen"}},"1356145078":{"location":[54.2210917,10.0714316],"ct":"DE","tp":"CR","ts":"2025-02-02T12:08:35Z","tX":540,"tY":327,"tags":{"caravan_site":"motorhome_stopover","caravan_site:type":"farm","caravans":"yes","charge":"13 EUR","description":"food events on weekends","dog":"yes","dog:fee":"no","fee":"yes","internet_access":"no","motorhome":"yes","name":"Hof Treptow","opening_hours":"24/7","power_supply":"yes","power_supply:charge":"6 EUR","power_supply:fee":"yes","reservation":"no","sanitary_dump_station":"yes","shower":"yes","tents":"yes","toilets":"yes","water_point":"yes","website":"https://www.hof-treptow.de/Uebernachtungsangebote/wohnmobil-stellplatz"}},"5487042501":{"location":[54.1962683,9.9203839],"ct":"DE","tp":"CS","ts":"2023-09-15T14:43:45Z","tX":540,"tY":327,"tags":{"backcountry":"yes","capacity":"10","caravans":"no","contact:email":"info@sn-sh.de","contact:phone":"+49 431 210 90 101","description":"Zeltmöglichkeit. Nur kleine Zelte. Kein Wasser.","drinking_water":"no","fee":"no","name":"Übernachtungsplatz Olendieksau","operator":"Stiftung Naturschutz Schleswig-Holstein","reservation":"no","tents":"yes","website":"https://www.naturschutz-sh.de/wildes-sh/uebernachtungsplatz-olendieksau"}},"5751756386":{"location":[54.1910455,10.0529945],"ct":"DE","tp":"CS","ts":"2023-06-03T19:39:38Z","tX":540,"tY":327,"tags":{"backcountry":"yes","caravans":"no","contact:email":"info@sn-sh.de","drinking_water":"no","fee":"no","internet_access":"no","name":"Trekkingplatz Eidertal","operator":"Stiftung Naturschutz Schleswig-Holstein","payment:cash":"no","payment:credit_cards":"no","payment:cryptocurrencies":"no","payment:debit_cards":"no","payment:electronic_purses":"no","sanitary_dump_station":"no","shower":"no","tents":"yes","toilets":"no","website":"https://www.naturschutz-sh.de/wildes-sh/uebernachtungsplatz-eidertal","wheelchair":"no"}},"7599723505":{"location":[54.2210755,10.0714574],"ct":"DE","tp":"CR","ts":"2022-06-21T14:58:33Z","tX":540,"tY":327,"tags":{"caravans":"yes","fee":"yes","internet_access":"no","motorhome":"yes","name":"Hof Treptow","power_supply":"yes","sanitary_dump_station":"yes","shower":"yes","tents":"yes","toilets":"yes","website":"https://www.hof-treptow.de/Uebernachtungsangebote/wohnmobil-stellplatz"}},"9624151899":{"location":[54.3143181,10.098601],"ct":"DE","tp":"CR","ts":"2022-10-11T15:51:59Z","tX":540,"tY":327,"tags":{"capacity":"7","fee":"no","internet_access":"no","level":"1","name":"Citti-Park Kiel","operator":"Citti-Park Kiel","sanitary_dump_station":"no","smoking":"yes","stars":"1","wheelchair":"yes"}},"5595861670":{"location":[54.3653845,10.1375662],"ct":"DE","tp":"SD","ts":"2020-10-25T10:03:52Z","tX":540,"tY":327,"tags":{"access":"customers","water_point":"no"}},"6070704094":{"location":[54.3639293,10.146605],"ct":"DE","tp":"SD","ts":"2018-11-18T14:10:34Z","tX":540,"tY":327,"tags":{"fee":"no","water_point":"no"}},"7668976441":{"location":[54.3309888,10.1752733],"ct":"DE","tp":"SD","ts":"2020-06-30T08:28:45Z","tX":540,"tY":327,"tags":{"fee":"no"}},"7944426434":{"location":[54.2147927,9.9196002],"ct":"DE","tp":"SD","ts":"2020-09-26T09:39:02Z","tX":540,"tY":327,"tags":{"sanitary_dump_station:chemical_toilet":"yes","sanitary_dump_station:fee":"no","sanitary_dump_station:gravity":"yes","sanitary_dump_station:grey_water":"yes","sanitary_dump_station:suction":"no"}}}