{"35906842":{"location":[53.7874702,10.0687736],"ct":"DE","tp":"CS","ts":"2024-10-13T15:12:58Z","tX":540,"tY":329,"tags":{"access":"customers","addr:city":"Henstedt-Ulzburg","addr:housenumber":"108","addr:postcode":"24558","addr:street":"Götzberger Straße","caravans":"yes","check_date":"2024-09-20","contact:email":"info@campingplatz-ulmenhof.de","contact:phone":"+49 173 2449762","contact:website":"https://www.campingplatz-ulmenhof.de/","fee":"yes","name":"Campingplatz Ulmenhof","nudism":"no","operator":"Timo Pöhls","payment:cash":"yes","power_supply":"yes","reservation":"yes","shower":"yes","static_caravans":"yes","swimming_pool":"yes","tents":"yes","toilets":"yes"}},"58001025":{"location":[53.9173516,9.8867056],"ct":"DE","tp":"CS","ts":"2017-07-25T19:55:50Z","tX":540,"tY":329,"tags":{"landuse":"recreation_ground","name":"Kanurastplatz","sport":"canoe"}},"78008391":{"location":[53.813726,10.16565],"ct":"DE","tp":"CS","ts":"2024-02-11T13:24:46Z","tX":540,"tY":329,"tags":{"addr:city":"Itzstedt","addr:housenumber":"4","addr:postcode":"23845","addr:street":"Oeringer Weg","email":"campitz@aol.com","name":"Campingplatz Itzstedt","operator":"Swen Wilms","phone":"+49 4535 598707","website":"http://www.campingplatz-itzstedt.de/"}},"312590966":{"location":[53.8376823,9.9464479],"ct":"DE","tp":"CR","ts":"2024-05-01T20:29:13Z","tX":540,"tY":329,"tags":{"charge":"12 EUR","fee":"yes","name":"Wohnmobilstellplatz Holsten-Therme - Kaltenkirchen","power_supply":"yes","power_supply:fee":"yes","sanitary_dump_station":"yes","seasonal":"no","water_point":"yes","website":"https://www.holstentherme.de/informationen/kontakt/uebernachtung"}},"532757259":{"location":[53.933194,10.0853455],"ct":"DE","tp":"CS","ts":"2023-09-16T14:16:21Z","tX":540,"tY":329,"tags":{"backcountry":"yes","caravans":"no","contact:phone":"+49 4195 15270","drinking_water":"no","fee":"no","internet_access":"no","name":"Übernachtungsplatz Segeberger Heide","power_supply":"no","shower":"no","tents":"yes","toilets":"yes","website":"https://www.naturschutz-sh.de/wildes-sh/trekkingplatz-segeberger-heide"}},"731787307":{"location":[53.8069694,10.1459491],"ct":"DE","tp":"CS","ts":"2019-10-04T21:52:17Z","tX":540,"tY":329,"tags":{"name":"Campingplatz Seeblick"}},"986763504":{"location":[53.9183497,9.888783],"ct":"DE","tp":"CR","ts":"2024-04-27T21:08:39Z","tX":540,"tY":329,"tags":{"capacity":"8","caravan_site":"motorhome_stopover","caravan_site:type":"town< swimming_pool","charge":"15 EUR","dog":"yes","fee":"yes","name":"Wohnmobilstellplatz An der Roland Oase","power_supply":"yes"}},"3074749420":{"location":[53.9284708,9.889748],"ct":"DE","tp":"CS","ts":"2020-02-03T16:01:09Z","tX":540,"tY":329,"tags":{"addr:city":"Bad Bramstedt","addr:housenumber":"52","addr:postcode":"24576","addr:street":"Kieler Straße","name":"Campingplatz Roland","website":"http://www.campingplatz-roland.de/"}},"3520383339":{"location":[53.8399452,9.9427121],"ct":"DE","tp":"SD","ts":"2022-03-23T18:11:16Z","tX":540,"tY":329,"tags":{"fee":"yes","opening_hours":"24/7"}},"3932998777":{"location":[53.9485009,10.034427],"ct":"DE","tp":"CR","ts":"2024-05-01T20:41:13Z","tX":540,"tY":329,"tags":{"capacity":"10","fee":"no","name":"Wohnmobilstellplatz Wildpark Eekholt","operator":"Wildpark Eekholt","power_supply":"no","sanitary_dump_station":"no","seasonal":"no","water_point":"no","website":"https://www.wildpark-eekholt.de/besucherinformationen_lageplan.htm"}},"8813917632":{"location":[53.7961847,10.0637383],"ct":"DE","tp":"CS","ts":"2024-09-04T17:52:46Z","tX":540,"tY":329,"tags":{"access":"private","camp_site":"basic","club":"scout","name":"Pfadfinder Stamm St. Johannes Henstedt","operator":"Ev.- Luth. Kirchengemeinde Henstedt-Ulzburg","website":"http://www.kirche-henstedt.de/#/jugend-pfadfinder"}}}