{"20929491":{"location":[53.651213,9.9289224],"ct":"DE","tp":"CS","ts":"2024-05-21T18:11:40Z","tX":540,"tY":330,"tags":{"addr:city":"Hamburg","addr:country":"DE","addr:housenumber":"2","addr:postcode":"22457","addr:street":"Wunderbrunnen","addr:suburb":"Schnelsen","caravans":"yes","check_date":"2024-05-21","dog":"yes","fee":"yes","name":"Campingplatz Schnelsen-Nord","operator":"KNAUS Campingpark Hamburg","phone":"+49 40 5594225","tents":"yes","website":"https://www.knauscamp.de/hamburg","wheelchair":"limited"}},"27320541":{"location":[53.5900355,9.9320231],"ct":"DE","tp":"CS","ts":"2024-11-15T14:48:36Z","tX":540,"tY":330,"tags":{"access":"customers","caravans":"yes","drinking_water":"no","fee":"yes","internet_access":"wlan","internet_access:fee":"no","name":"Camping Buchholz","payment:cash":"yes","phone":"+49 40 5404532","power_supply":"yes","sanitary_dump_station":"yes","shower":"yes","tents":"yes","toilets":"yes","url":"http://www.camping-buchholz.de","wheelchair":"yes"}},"33685252":{"location":[53.6815448,10.1916257],"ct":"DE","tp":"CS","ts":"2018-12-29T22:17:44Z","tX":540,"tY":330,"tags":{"addr:city":"Ammersbek","addr:postcode":"22949","addr:street":"Wulfsdorfer Weg","name":"Campingplatz Bredenbeker Teich","operator":"Campingplatz Bredenbeker Teich e.V.","phone":"+49 4102 5 85 63","url":"http://camping-bredenbeker-teich.de"}},"42774683":{"location":[53.6923947,10.1181679],"ct":"DE","tp":"CS","ts":"2018-10-21T13:15:45Z","tX":540,"tY":330,"tags":{"caravans":"yes","name":"Campingplatz Haselknick","tents":"yes","website":"http://www.haselknick.de/Camping/body_camping.html"}},"48822724":{"location":[53.7105452,9.9566693],"ct":"DE","tp":"CS","ts":"2022-05-18T19:52:22Z","tX":540,"tY":330,"tags":{"caravans":"no","name":"Voßbarch","openfire":"yes","scouts":"yes","tents":"yes","website":"https://www.vossbarch.de/"}},"239008932":{"location":[53.608973,9.8654567],"ct":"DE","tp":"CS","ts":"2017-04-21T11:50:18Z","tX":540,"tY":330,"tags":{"addr:city":"Schenefeld","addr:housenumber":"3","addr:postcode":"22869","addr:street":"Eidelstedter Weg","email":"info@fkk-liga-hamburg.de","internet_access":"wlan","name":"Liga für freie Lebensgestaltung e.V. (FKK-Gelände)","nudism":"yes","phone":"+49 40 8308296","website":"https://fkk-liga-hamburg.de"}},"470517088":{"location":[53.6037898,10.0481584],"ct":"DE","tp":"PK","ts":"2024-09-17T12:37:35Z","tX":540,"tY":330,"tags":{"access":"private","capacity":"6","motorhome":"yes","parking":"surface"}},"631613578":{"location":[53.5434004,10.0266981],"ct":"DE","tp":"CR","ts":"2024-03-16T12:08:06Z","tX":540,"tY":330,"tags":{"capacity":"60","charge":"29 EUR","contact:email":"wohnmobilhafen-hamburg@die-roten-doppeldecker.de","contact:phone":"+49 40 30091890","description:de":"Bürozeiten 8:00-12:00; 12:30-16:30","fee":"yes","internet_access":"no","name":"Wohnmobilhafen Hamburg","opening_hours":"24/7","opening_hours:registration":"08:00-12:00,12:30-16:30","operator":"Die Roten Doppeldecker","power_supply":"yes","reservation":"no","sanitary_dump_station":"yes","shower":"yes","water_point":"yes","website":"https://www.wohnmobilhafen-hamburg.de/stellplatz.html","wheelchair":"no","wikimedia_commons":"File:Hammerbrook, Hamburg, Germany - panoramio (15).jpg"}},"833446034":{"location":[53.6912054,9.9271339],"ct":"DE","tp":"CS","ts":"2021-08-01T21:25:16Z","tX":540,"tY":330,"tags":{"access":"customers","addr:city":"Hasloh","addr:housenumber":"36a","addr:postcode":"25474","addr:street":"Garstedter Weg","capacity":"37","contact:mobile":"+49 177 3605261","dog":"yes","email":"kontakt@tante-henni.de","fee":"yes","internet_access":"wlan","internet_access:fee":"no","internet_access:ssid":"Tante-Henni Free","name":"Tante Henni","opening_hours":"24/7","operator":"Norbert Schadendorf","payment:american_express":"yes","payment:apple_pay":"yes","payment:cash":"yes","payment:coins":"yes","payment:contactless":"yes","payment:credit_cards":"yes","payment:debit_cards":"yes","payment:girocard":"yes","payment:maestro":"yes","payment:mastercard":"yes","payment:visa":"yes","payment:vpay":"yes","phone":"+49 4106 798966","power_supply":"yes","ref:vatin":"DE 31 079 01889","sanitary_dump_station":"yes","shower":"yes","tents":"yes","toilets":"yes","website":"https://www.tante-henni.de/","wheelchair":"yes"}},"2956265458":{"location":[53.5460882,9.9608881],"ct":"DE","tp":"CR","ts":"2015-02-17T17:28:47Z","tX":540,"tY":330,"tags":{"fee":"yes","name":"St. Pauli","operator":"Pütz Security AG","power_supply":"no"}},"4228680599":{"location":[53.6522138,10.0460484],"ct":"DE","tp":"CS","ts":"2020-12-09T13:18:50Z","tX":540,"tY":330,"tags":{"addr:city":"Hamburg","addr:housenumber":"28","addr:postcode":"22339","addr:street":"Wüsthofweg","name":"HSN e.V.","operator":"Hamburger Sport und Naturismus e.V.","website":"https://www.hsn-ev.de/"}},"11215641551":{"location":[53.5554157,9.9734715],"ct":"DE","tp":"CR","ts":"2023-09-26T15:43:34Z","tX":540,"tY":330,"tags":{"addr:housenumber":"20","addr:street":"Glacischaussee","capacity":"30","description":"Während der Spielzeiten des Hamburger DOM ist das Abstellen von Wohnmobilen, LKW und Bussen nicht möglich. Jeweils zwei Wochen vor und danach ist die verfügbare Stellplatzanzahl bereits stark limitiert (Auf/Abbau DOM)","fee":"yes","name":"Wohnmobilstellplatz Heiligengeistfeld","phone":"+49 172 400 18 09","power_supply":"yes","sanitary_dump_station":"no","website":"https://www.goldbeck-parking.de/parkplatzsuche#/p/7258/Parkplatz%20Heiligengeistfeld"}},"6002470484":{"location":[53.7171163,9.9393799],"ct":"DE","tp":"SD","ts":"2024-03-05T22:11:22Z","tX":540,"tY":330,"tags":{"brand":"Sani-Station","charge":"0.50 EUR","fee":"yes","motorhome":"designated","opening_hours":"24/7","sanitary_dump_station:basin":"yes","water_point":"yes"}}}