{"1443300":{"location":[52.9859511,9.9116248],"ct":"DE","tp":"CS","ts":"2019-02-16T08:54:52Z","tX":540,"tY":333,"tags":{"addr:city":"Soltau","addr:housenumber":"2","addr:postcode":"29614","addr:street":"Wietzendorfer Straße","fee":"yes","internet_access":"yes","name":"Ferienparadies Mühlenbach","operator":"FPM"}},"38335445":{"location":[53.0700497,9.8657163],"ct":"DE","tp":"CS","ts":"2024-10-03T13:23:25Z","tX":540,"tY":333,"tags":{"addr:city":"Schneverdingen","addr:country":"DE","addr:housenumber":"3","addr:postcode":"29640","addr:street":"Badeweg","addr:suburb":"Heber","caravans":"yes","drinking_water":"yes","name":"Camping-Park Lüneburger Heide","phone":"+49 5199 275","power_supply":"yes","sanitary_dump_station":"yes","shower":"yes","tents":"yes","toilets":"yes","website":"https://camping-lh.de/","wheelchair":"yes"}},"74185960":{"location":[52.9350569,9.9682832],"ct":"DE","tp":"CS","ts":"2025-02-28T18:58:32Z","tX":540,"tY":333,"tags":{"alt_name":"Südseecamp","cabins":"yes","capacity:caravans":"1508","caravans":"yes","contact:email":"info@suedsee-camp.de","contact:fax":"+49 5196 980299","contact:phone":"+49 5196 980116","contact:website":"https://www.suedsee-camp.de/","fee":"yes","internet_access":"wlan","name":"Südsee-Camp","permanent_camping":"yes","shower":"yes","start_date":"1970","static_caravans":"yes","tents":"yes","toilets":"yes","wheelchair":"yes"}},"79293021":{"location":[53.0062052,9.9378096],"ct":"DE","tp":"CS","ts":"2025-06-17T06:02:09Z","tX":540,"tY":333,"tags":{"addr:city":"Soltau","addr:country":"DE","addr:housenumber":"25","addr:postcode":"29614","addr:street":"An der Bundesstraße","camp_site":"serviced","name":"Naturcamping Lüneburger Heide","opening_hours":"Mo-Su 08:00-20:00","phone":"+49 5191 6232 201","website":"https://naturcamping-lh.de/"}},"90964212":{"location":[53.0166247,9.9217706],"ct":"DE","tp":"CS","ts":"2022-03-14T18:34:57Z","tX":540,"tY":333,"tags":{"name":"Camping- & Mobilheimpark Moränasee","operator":"Claudia Senkbeil","website":"https://www.ferienpark-soltau.de/"}},"95817624":{"location":[53.0238187,9.8594715],"ct":"DE","tp":"CS","ts":"2024-07-17T08:53:29Z","tX":540,"tY":333,"tags":{"addr:city":"Soltau","addr:housenumber":"1","addr:postcode":"29614","addr:street":"Auf dem Simpel","capacity":"250","caravans":"yes","description":"Der Campingplatz \"Auf dem Simpel\" liegt im Herzen der Lüneburger Heide und ist nur 800m vom Heide Park Resort entfernt sowie ca. 5km von der Stadt Soltau. Neben der Campingmöglichkeit bietet die Anlage eine Vielzahl von verschiedenen Mietunterkünften.","ele":"81","email":"info@auf-dem-simpel.de","fax":"+49 5191 16095","fee":"yes","internet_access":"wlan","internet_access:fee":"yes","internet_access:ssid":"Auf dem Simpel","name":"Campingplatz \"Auf dem Simpel\"","operator":"Mark Charitonenkow","phone":"+49 5191 3651","source":"Campingplatzbetreiber","tents":"no","website":"https://auf-dem-simpel.de/","wheelchair":"yes"}},"113813290":{"location":[52.9205922,10.129406],"ct":"DE","tp":"CS","ts":"2024-09-06T15:32:00Z","tX":540,"tY":333,"tags":{"addr:city":"Munster","addr:housenumber":"22","addr:postcode":"29633","addr:street":"Kreutzen","caravans":"yes","drinking_water":"yes","email":"info@oertzewinkel.de","fax":"+49 5055 1353","name":"Campingplatz Zum Oertzewinkel","phone":"+49 5055 5549","power_supply":"no","sanitary_dump_station":"yes","shower":"yes","source":"https://www.oertzewinkel.de/","source:date":"2019-03-04","tents":"yes","toilets":"yes","website":"https://www.oertzewinkel.de/"}},"160162842":{"location":[53.0973077,10.032547],"ct":"DE","tp":"CS","ts":"2023-07-15T10:38:26Z","tX":540,"tY":333,"tags":{"caravans":"yes","name":"Campingplatz Opalsee","note":"Der Besitzer des Campingplatzes wünscht keine Informationen zu veröffentlichen, noch nicht mal das hier ein Campingplatz ist.","tents":"yes","website":"http://www.campingplatz-opalsee.de"}},"170749192":{"location":[53.1088377,9.9661578],"ct":"DE","tp":"CS","ts":"2025-04-16T07:17:37Z","tX":540,"tY":333,"tags":{"addr:city":"Bispingen","addr:country":"DE","addr:housenumber":"17","addr:postcode":"29646","addr:street":"Seestraße","addr:suburb":"Behringen","caravans":"yes","dog":"yes","drinking_water":"yes","internet_access":"wlan","internet_access:fee":"no","name":"Brunautal","opening_hours":"Mo-Su 09:00-13:00,15:00-18:00","phone":"+49 5194 4188022","power_supply":"yes","sanitary_dump_station":"yes","shower":"hot","source":"survey","tents":"yes","toilets":"yes","website":"http://www.campingplatz-brunautal.de","wheelchair":"no"}},"195438321":{"location":[52.9307644,9.9654283],"ct":"DE","tp":"CR","ts":"2019-10-31T16:13:50Z","tX":540,"tY":333,"tags":{"addr:city":"Wietzendorf","addr:country":"DE","addr:housenumber":"1","addr:postcode":"29649","addr:street":"Südsee-Camp","capacity":"40","caravans":"yes","contact:email":"info@suedsee-camp.de","contact:fax":"+49 5196 980299","contact:phone":"+49 5196 980116","contact:website":"https://www.suedsee-camp.de","dog":"yes","dryer":"no","fee":"yes","internet_access":"no","lit":"yes","name":"Südsee Camp Übernachtungsoase","operator":"Firma Südsee-Camp Gottfried & Per Thiele OHG","power_supply":"yes","sanitary_dump_station:chemical_toilet":"yes","sanitary_dump_station:grey_water":"yes","shower":"yes","toilets":"yes","washing_machine":"no","water_point":"yes","wheelchair":"yes"}},"195438329":{"location":[52.9319269,9.9624601],"ct":"DE","tp":"CR","ts":"2024-10-08T10:45:37Z","tX":540,"tY":333,"tags":{"capacity":"16","fee":"yes","name":"Motor Caravan Stellpätze Südsee Camp","note":"capacity estimated based on aerail image","power_supply":"yes"}},"202406550":{"location":[52.9614488,9.8946581],"ct":"DE","tp":"PK","ts":"2023-06-08T19:27:50Z","tX":540,"tY":333,"tags":{"access":"yes","coach":"yes","fee":"no","hgv":"no","motorcar":"yes","motorhome":"yes","orientation":"parallel","parking":"street_side","surface":"paving_stones","tourist_bus":"yes","trailer":"yes"}},"221104990":{"location":[52.9474434,9.8490177],"ct":"DE","tp":"CS","ts":"2023-06-16T15:11:07Z","tX":540,"tY":333,"tags":{"caravans":"yes","drinking_water":"yes","name":"Camping Imbrock","phone":"+49 5191 5202","power_supply":"yes","shower":"yes","tents":"yes","toilets":"yes","website":"https://www.camping-imbrock.de/"}},"301459337":{"location":[53.1083459,9.9665246],"ct":"DE","tp":"CR","ts":"2025-04-16T07:17:56Z","tX":540,"tY":333,"tags":{"caravan_site:type":"camp_site","caravans":"yes","dog":"yes","fee":"yes","name":"Wohnmobilpark Brunautal","note":"transit caravans","power_supply":"yes","reservation":"yes","sanitary_dump_station":"yes","seasonal":"spring;summer;autumn","shower":"yes","toilets":"yes","water_point":"yes","website":"https://www.camping-brunautal.de/stellplaetze/"}},"1230091998":{"location":[53.0711146,9.8636145],"ct":"DE","tp":"CR","ts":"2024-10-03T06:35:10Z","tX":540,"tY":333,"tags":{"capacity":"18","caravan_site":"motorhome_stopover","caravan_site:type":"camp_site","charge":"22 EUR","fee":"yes","name":"Camping-Park Lüneburger Heide Quick Camp","phone":"+49 1751004050","power_supply":"yes","power_supply:maxcurrent":"16","reservation":"yes","sanitary_dump_station":"yes","sanitary_dump_station:chemical_toilet":"yes","sanitary_dump_station:grey_water":"yes","seasonal":"spring;summer;autumn","shower":"yes","toilets":"yes","water_point":"yes","website":"https://camping-lh.de/wohnmobilstellplatz/"}},"2060104750":{"location":[52.9309048,9.9651707],"ct":"DE","tp":"SD","ts":"2025-03-29T23:21:51Z","tX":540,"tY":333,"tags":{"fee":"yes","sanitary_dump_station:accepted":"black_water;tank_chemicals"}},"11607406673":{"location":[53.0594291,9.8466329],"ct":"DE","tp":"CR","ts":"2024-04-24T21:21:08Z","tX":540,"tY":333,"tags":{"capacity":"4","caravan_site":"motorhome_stopover","charge":"16 EUR","description":"Wohnmobilstellplätze in Heber Surbostel 11 Lüneburger Heide zwischen Schneverdingen und Soltau Heide Park Pietzmoor","dog":"yes","fee":"yes","name":"Wohnmobilstellplatz Heber (Surbostel)","power_supply":"yes","shower":"no","toilets":"no","water_point":"yes"}},"11608386239":{"location":[53.0604524,9.8458203],"ct":"DE","tp":"CR","ts":"2024-12-19T13:42:47Z","tX":540,"tY":333,"tags":{"addr:city":"Schneverdingen","addr:housenumber":"9","addr:postcode":"29640","addr:street":"Surbosteler Straße","capacity:caravans":"3","caravan_site":"motorhome_stopover","caravans":"yes","charge":"20 EUR","description":"Wohnmobilstellplätze auf dem Bauernhof zwischen Soltau und Schneverdingen in Heber Surbostel 9 Lüneburger Heide am Jacobsweg","fee":"yes","name":"Unter den Eichen - Surbostel 9","operator":"A. von Fintel","static_caravans":"no"}},"11953555461":{"location":[52.9834995,10.0988738],"ct":"DE","tp":"CR","ts":"2024-06-03T10:34:31Z","tX":540,"tY":333,"tags":{"capacity":"3","caravan_site":"motorhome_stopover","caravan_site:type":"swimming_pool","fee":"no","name":"Wohnmobilstellplätze Allwetterbad Munster","website":"https://www.erlebniswelt-lueneburger-heide.de/detail/id=5ffc632a833e135bfca6ea00"}},"6139159045":{"location":[52.931051,9.9654244],"ct":"DE","tp":"SD","ts":"2025-03-29T23:21:51Z","tX":540,"tY":333,"tags":{"fee":"yes"}},"11152303756":{"location":[52.9360875,9.9666376],"ct":"DE","tp":"SD","ts":"2023-08-29T06:30:23Z","tX":540,"tY":333,"tags":{"fee":"no","water_point":"yes"}},"11913514984":{"location":[52.9339987,9.962028],"ct":"DE","tp":"SD","ts":"2024-05-17T14:38:35Z","tX":540,"tY":333,"tags":{}}}