{"59406689":{"location":[52.6071682,10.1234297],"ct":"DE","tp":"CS","ts":"2020-06-01T16:29:20Z","tX":540,"tY":335,"tags":{"addr:city":"Celle","addr:housenumber":"26","addr:postcode":"29227","addr:street":"Alte Dorfstraße","club":"sport","name":"Celler Kanu Wanderer","operator":"Celler Kanu-Wanderer e.V.","phone":"+49 5141 881510","sport":"canoe","website":"http://cellerkanu-wanderer.de/"}},"99089874":{"location":[52.6604119,10.1104097],"ct":"DE","tp":"CS","ts":"2014-11-30T20:15:31Z","tX":540,"tY":335,"tags":{"name":"Campingplatz Silbersee"}},"108273476":{"location":[52.6754918,9.8997588],"ct":"DE","tp":"CS","ts":"2022-04-27T20:13:20Z","tX":540,"tY":335,"tags":{"addr:city":"Winsen (Aller)","addr:housenumber":"1","addr:postcode":"29308","addr:street":"Auf der Hude","contact:phone":"+49 5143 93199","contact:website":"http://www.campingplatz-winsen.de/","internet_access":"wlan","internet_access:operator":"LAN1","name":"Campingplatz Winsen","opening_hours":"Jan 01-Dec 31","source":"bing","website":"https://www.campingplatz-winsen.de/"}},"109359428":{"location":[52.6542918,10.19405],"ct":"DE","tp":"CS","ts":"2024-09-21T14:10:52Z","tX":540,"tY":335,"tags":{"access":"customers","addr:city":"Celle","addr:country":"DE","addr:housename":"Campingplatz Alvern","addr:housenumber":"7","addr:postcode":"29229","addr:street":"Beedenbosteler Weg","backcountry":"no","caravans":"yes","check_date":"2024-07-01","dish_washing":"yes","drinking_water":"yes","email":"campingplatz-alvern@web.de","fee":"yes","group_only":"no","internet_access":"wlan","internet_access:fee":"customers","kitchen":"no","name":"Campingplatz Alvern","openfire":"no","phone":"+49 5145 6000","picnic_table":"no","power_supply":"yes","sanitary_dump_station":"no","shower":"hot","source":"survey","static_caravans":"yes","tents":"yes","toilets":"yes","washing_machine":"yes","website":"https://campingplatz-alvern.de/"}},"145851451":{"location":[52.6476086,9.9786148],"ct":"DE","tp":"CS","ts":"2024-04-22T13:17:16Z","tX":540,"tY":335,"tags":{"area":"yes","name":"Camping Hambühren","website":"https://camping-hambuehren.de/"}},"194368901":{"location":[52.5096561,10.0139366],"ct":"DE","tp":"CS","ts":"2022-10-06T11:26:51Z","tX":540,"tY":335,"tags":{"caravans":"yes","email":"info@campingplatz-waldsee.info","name":"Waldsee","note":"nur Jahres-Camping, keine Kurzzeitcamper","tents":"no","website":"campingplatz-waldsee.info"}},"194943719":{"location":[52.5124464,10.0230253],"ct":"DE","tp":"CS","ts":"2022-10-06T11:26:35Z","tX":540,"tY":335,"tags":{"caravans":"yes","name":"Grüner See","source":"Bing 2012","tents":"no"}},"259066249":{"location":[52.6727397,9.9350291],"ct":"DE","tp":"CS","ts":"2024-07-24T19:03:59Z","tX":540,"tY":335,"tags":{"addr:city":"Winsen (Aller)","addr:housenumber":"20","addr:postcode":"29308","addr:street":"Im Stillen Winkel","caravans":"yes","contact:email":"info@campingpark-suedheide.de","contact:phone":"+49 5143 6661803","contact:website":"http://www.campingpark-suedheide.de","dog":"yes","fee":"yes","internet_access":"wlan","internet_access:fee":"no","name":"CampingPark Südheide","payment:cash":"no","payment:girocard":"yes","payment:mastercard":"yes","payment:paypal":"yes","payment:visa":"yes","power_supply":"yes","seasonal":"spring;summer;autumn","tents":"yes","website":"https://www.campingpark-suedheide.de/"}},"313111472":{"location":[52.674088,9.9528829],"ct":"DE","tp":"CS","ts":"2014-11-16T16:52:05Z","tX":540,"tY":335,"tags":{}},"324457243":{"location":[52.4861454,10.1072249],"ct":"DE","tp":"CS","ts":"2021-09-17T01:41:50Z","tX":540,"tY":335,"tags":{"caravans":"yes","name":"Campingplatz an der Badeanstalt","power_supply":"yes","shower":"yes"}},"616749212":{"location":[52.617171,10.0834583],"ct":"DE","tp":"CR","ts":"2024-11-24T17:16:46Z","tX":540,"tY":335,"tags":{"addr:city":"Celle","addr:housenumber":"36","addr:postcode":"29221","addr:street":"77er Straße","bbq":"yes","capacity":"45","capacity:motorhomes":"45","caravan_site:type":"swimming_pool","charge":"15 EUR","email":"info@womo-celle.de","fee":"yes","internet_access":"wlan","internet_access:fee":"no","laundry":"yes","lit":"yes","name":"Wohnmobilstellplatz am Badeland Celle","phone":"+49 05141 - 951 93 88","power_supply":"yes","power_supply:charge":"0.7 EUR/kWh","reservation":"limited","sanitary_dump_station":"yes","sanitary_dump_station:chemical_toilet":"yes","sanitary_dump_station:grey_water":"yes","sanitary_dump_station:seasonal":"no","seasonal":"no","shower":"yes","tents":"no","toilets":"yes","umweltzone":"no","water_point":"yes","water_point:charge":"1 EUR/80 liter","website":"https://www.womo-celle.de/","wheelchair":"yes"}},"852475936":{"location":[52.5568339,10.1072553],"ct":"DE","tp":"CR","ts":"2022-09-24T18:16:42Z","tX":540,"tY":335,"tags":{"capacity":"6","capacity:disabled":"1","dog":"yes","fee":"donation","internet_access":"wlan","name":"Wohnmobilstellplatz Nienhagen","power_supply":"yes","power_supply:fee":"yes","socket:cee_blue":"8","water_point":"yes"}},"884054247":{"location":[52.6797201,9.8686742],"ct":"DE","tp":"CS","ts":"2024-04-13T11:38:26Z","tX":540,"tY":335,"tags":{"addr:city":"Wietze","addr:housenumber":"35","addr:postcode":"29323","addr:street":"Tannenpark","backcountry":"no","camp_site":"serviced","caravans":"yes","drinking_water":"yes","fee":"yes","group_only":"no","lit":"yes","motor_vehicle":"yes","name":"Campingplatz Wacholderpark","permanent_camping":"yes","picnic_table":"yes","power_supply":"yes","reservation":"recommended","scout":"no","shower":"yes","tents":"yes","toilets":"yes","waste_disposal":"yes","website":"http://www.wacholderpark.de"}},"992055832":{"location":[52.6178453,10.0841255],"ct":"DE","tp":"CR","ts":"2023-12-10T11:56:30Z","tX":540,"tY":335,"tags":{"addr:city":"Celle","addr:housenumber":"36","addr:postcode":"29221","addr:street":"77er Straße","capacity":"10","caravan_site:type":"extra","description":"10 zusätzliche Stellplätze ohne Strom.","fee":"yes","internet_access":"wlan","lit":"yes","name":"Wohnmobilstellplatz am Badeland (Zusatzplätze)","power_supply":"no","sanitary_dump_station":"yes","tents":"no","water_point":"yes","website":"https://www.womo-celle.de/"}},"7953713246":{"location":[52.5565719,10.1074249],"ct":"DE","tp":"SD","ts":"2020-09-29T08:07:06Z","tX":540,"tY":335,"tags":{"sanitary_dump_station:chemical_toilet":"yes","sanitary_dump_station:fee":"no","sanitary_dump_station:gravity":"yes","sanitary_dump_station:grey_water":"yes","sanitary_dump_station:suction":"no"}},"9165950995":{"location":[52.6174946,10.0835881],"ct":"DE","tp":"SD","ts":"2021-10-11T21:28:22Z","tX":540,"tY":335,"tags":{"access":"customers","fee":"yes","water_point":"yes"}},"9165958620":{"location":[52.6173553,10.0830767],"ct":"DE","tp":"SD","ts":"2023-12-10T11:56:30Z","tX":540,"tY":335,"tags":{"access":"customers","motorhome":"designated","sanitary_dump_station:chemical_toilet":"yes","sanitary_dump_station:grey_water":"yes","waste":"trash;recycling"}}}