{"108027756":{"location":[52.1020035,10.1410645],"ct":"DE","tp":"CS","ts":"2012-09-08T12:27:28Z","tX":540,"tY":337,"tags":{"name":"Campingplatz Seecamp Derneburg","wheelchair":"no"}},"113047162":{"location":[52.1041673,10.1739482],"ct":"DE","tp":"CS","ts":"2023-07-16T07:45:07Z","tX":540,"tY":337,"tags":{"caravans":"yes","name":"Bergmühle","tents":"yes","website":"https://campingplatz-bergmuehle.de/"}},"256792215":{"location":[52.1575801,9.9739108],"ct":"DE","tp":"CR","ts":"2023-12-22T20:01:15Z","tX":540,"tY":337,"tags":{"addr:city":"Hildesheim","addr:housenumber":"43a","addr:postcode":"31135","addr:street":"Frankenstraße","capacity":"20","fee":"no","internet_access":"no","name":"Wohnmobilstellplatz am Berliner Kreisel","operator":"Stadt Hildesheim","permanent_camping":"no","power_supply":"no","sanitary_dump_station":"no","water_point":"no","website":"https://www.hildesheim-tourismus.de/anreise/wohnmobil"}},"853734892":{"location":[52.0719205,10.0188954],"ct":"DE","tp":"CR","ts":"2024-04-06T09:35:45Z","tX":540,"tY":337,"tags":{"capacity":"10","capacity:caravans":"10","caravans":"no","charge":"10 EUR","check_date":"2024-04-06","dog":"yes","fee":"yes","internet_access":"no","name":"Reisemobilstellplatz Solebadstraße","opening_hours":"24/7","operator":"Stadt Bad Salzdetfurth","payment:cash":"yes","payment:credit_cards":"yes","payment:debit_cards":"yes","power_supply":"yes","power_supply:charge":"1 EUR/6 hours","reservation":"no","sanitary_dump_station":"yes","source":"survey","tents":"no","water_point":"yes","water_point:charge":"1 EUR/50 liter","water_point:fee":"yes","website":"https://www.bad-salzdetfurth.de/G%C3%A4ste/Wohnmobilstellplatz-/","wheelchair":"yes","wikimedia_commons":"Category:Wohnmobilstellplatz Bad Salzdetfurth"}},"977485991":{"location":[52.0723884,10.1346115],"ct":"DE","tp":"CS","ts":"2021-08-29T17:56:17Z","tX":540,"tY":337,"tags":{}},"1367338811":{"location":[52.0606502,10.1541963],"ct":"DE","tp":"CS","ts":"2025-03-14T14:38:00Z","tX":540,"tY":337,"tags":{"bbq":"yes","camp_site":"serviced","capacity:persons":"70","caravans":"no","drinking_water":"yes","email":"kontakt@hauswohldenberg.de","fee":"yes","group_only":"yes","leisure":"summer_camp","motor_vehicle":"no","motorcar":"no","motorhome":"no","name":"Zeltplatz Wohldenberg","note":"Gemäß der Umstrukturierungen im Bistum beherbergen wir ab dem Jahr 2023 nur noch die Zielgruppe der Kinder, Jugendlichen und jungen Erwachsenen (bis 27 Jahre). Wir bitten von Anfragen außerhalb dieser Zielgruppe abzusehen.","operator":"Jugendbildungsstätte Wohldenberg","power_supply":"yes","shower":"yes","static_caravans":"no","tents":"yes","toilets":"yes","website":"https://www.hauswohldenberg.de"}},"1367351882":{"location":[52.0972486,9.8972814],"ct":"DE","tp":"CS","ts":"2025-03-15T14:56:05Z","tX":540,"tY":337,"tags":{"addr:city":"Diekholzen","addr:housenumber":"6-8","addr:postcode":"31199","addr:street":"St.-Georg-Ring","camp_site":"yes","capacity:persons":"150","caravans":"no","drinking_water":"yes","email":"hildesholz@dpsg-hildesheim.de","fee":"yes","fireplace":"yes","group_only":"yes","kitchen":"yes","leisure":"summer_camp","motor_vehicle":"no","motorcar":"no","motorhome":"no","name":"Diözesanzentrum Hildesholz","note":"Pfadfinder (DPSG)","operator":"DPSG DV Hildesheim","scouts:website":"http://www.dpsg-hildesheim.de/","shower":"yes","static_caravans":"no","tents":"yes","toilets":"yes","website":"http://hildesholz.de/"}},"4113632299":{"location":[52.1388189,9.9540517],"ct":"DE","tp":"CR","ts":"2024-08-20T11:24:24Z","tX":540,"tY":337,"tags":{"addr:city":"Hildesheim","addr:postcode":"31134","capacity":"6","fee":"no","internet_access":"no","name":"Wohnmobilstellplatz Hohnsensee","note":"Maximal 2 Nächte","operator":"Stadt Hildesheim","power_supply":"no","sanitary_dump_station":"no","toilets":"yes","water_point":"no","website":"https://www.hildesheim-tourismus.de/anreise/wohnmobil"}},"4917756050":{"location":[52.097394,9.8976937],"ct":"DE","tp":"CS","ts":"2018-04-02T17:35:48Z","tX":540,"tY":337,"tags":{"addr:housenumber":"6","addr:street":"St.-Georg-Ring","name":"Diözesanzentrum Hildesholz","note":"Pfadfinder (DPSG)","operator":"DPSG DV Hildesheim","scout":"yes","scouts:website":"http://www.dpsg-hildesheim.de/","website":"http://hildesholz.de/"}},"7962880270":{"location":[52.0719926,10.0185125],"ct":"DE","tp":"SD","ts":"2024-04-07T19:58:44Z","tX":540,"tY":337,"tags":{"fee":"no","operator":"Stadt Bad Salzdetfurth","sanitary_dump_station:chemical_toilet":"yes","sanitary_dump_station:fee":"yes","sanitary_dump_station:gravity":"yes","sanitary_dump_station:grey_water":"yes","sanitary_dump_station:suction":"no","water_point":"yes"}}}