{"40931691":{"location":[51.8674982,10.0489852],"ct":"DE","tp":"CS","ts":"2024-10-13T21:23:52Z","tX":540,"tY":338,"tags":{"addr:city":"Bad Gandersheim","addr:housenumber":"12","addr:postcode":"37581","addr:street":"Braunschweiger Straße","caravans":"yes","fee":"yes","internet_access":"wlan","name":"Regenbogen Bad Gandersheim","operator":"Regenbogen AG","static_caravans":"yes","tents":"yes","website":"https://www.regenbogen.ag/ferienanlagen/bad-gandersheim.html"}},"89115020":{"location":[52.0210886,10.1801278],"ct":"DE","tp":"CS","ts":"2023-02-10T09:43:11Z","tX":540,"tY":338,"tags":{"addr:city":"Bockenem","addr:housenumber":"25","addr:postcode":"31167","addr:street":"Hainbergstraße","name":"FKK - Sportpark - Naturist Bffl Volkersheim","nudism":"yes","operator":"Naturist Bffl Volkersheim"}},"93660258":{"location":[51.9062602,10.1849686],"ct":"DE","tp":"CS","ts":"2024-07-31T19:17:39Z","tX":540,"tY":338,"tags":{"caravans":"yes","internet_access":"wlan","internet_access:fee":"no","name":"Campingplatz Brillteich","sanitary_dump_station":"customers","tents":"yes","website":"https://ambrillteich.de"}},"94255969":{"location":[51.9521244,10.0879696],"ct":"DE","tp":"CS","ts":"2021-11-24T10:24:22Z","tX":540,"tY":338,"tags":{"name":"Heberbaude","website":"http://www.heberbaude.de/"}},"157211629":{"location":[51.9303307,9.8934296],"ct":"DE","tp":"CS","ts":"2025-06-13T12:39:06Z","tX":540,"tY":338,"tags":{"access":"permissive","description":"Nur Dauercamper, keine Kurzzeitgäste"}},"209732326":{"location":[51.8719969,10.0207471],"ct":"DE","tp":"CR","ts":"2024-05-11T07:26:27Z","tX":540,"tY":338,"tags":{"drinking_water":"no","fee":"yes","name":"Wohnmobilstellplatz \"Rio Gande\"","power_supply":"yes","sanitary_dump_station":"yes","toilets":"no"}},"1021088368":{"location":[51.9532153,10.0063027],"ct":"DE","tp":"CR","ts":"2024-05-31T10:23:36Z","tX":540,"tY":338,"tags":{"capacity":"4","description":"no water when frost","fee":"no","internet_access":"no","maxstay":"3 days","name":"Wohnmobilstellplatz der Gemeinde Lamspringe","power_supply":"yes","sanitary_dump_station":"no","seasonal":"no","surface":"asphalt","water_point":"yes","website":"https://www.lamspringe.de/Touristinfo-Freizeit/Touristinfo-Freizeit/Wohnmobilstellplatz/"}},"1265860920":{"location":[52.0080572,10.1357929],"ct":"DE","tp":"CR","ts":"2024-06-21T19:20:10Z","tX":540,"tY":338,"tags":{"addr:city":"Bockenem","addr:housenumber":"29","addr:postcode":"31167","addr:street":"Mahlumer Straße","capacity":"6","caravans":"no","fee":"no","internet_access":"no","name":"Wohnmobilstellplatz Bockenem","power_supply":"yes","sanitary_dump_station":"no","sanitary_dump_station:grey_water":"yes","tents":"no","toilets":"no","water_point":"yes","website":"http://www.bockenem.de/tourismus/wohnmobilstellplatz.html"}},"1265909307":{"location":[51.9308111,9.89642],"ct":"DE","tp":"CR","ts":"2024-04-01T10:25:59Z","tX":540,"tY":338,"tags":{"capacity":"4","caravan_site":"motorhome_stopover","caravan_site:type":"river","caravans":"no","dog":"yes","fee":"no","internet_access":"no","lit":"yes","maxstay":"3 nights","name":"Wohnmobilstellplatz in Freden (Leine) Wohnmobilstellplatz · Leinebergland · 95 m","power_supply":"yes","power_supply:socket":"cee_blue","tents":"no","water_supply":"yes","website":"https://leinebergland-tourismus.de/de/lodging/wohnmobilstellplatz/wohnmobilstellplatz-in-freden-leine-/802900841/"}}}