{"13456471":{"location":[51.4096864,9.9788856],"ct":"DE","tp":"CS","ts":"2021-11-19T01:57:57Z","tX":540,"tY":340,"tags":{"caravans":"yes","name":"Camping Club Reiffenhausen"}},"32847823":{"location":[51.5212502,9.9304304],"ct":"DE","tp":"CR","ts":"2024-12-27T15:03:24Z","tX":540,"tY":340,"tags":{"addr:city":"Göttingen","addr:country":"DE","addr:postcode":"37073","addr:street":"Windausweg","capacity":"28","caravans":"no","charge":"17 EUR","contact:phone":"+49 551 507090","contact:website":"https://www.goesf.de/reisemobilhafen","description":"Gebühr am Automat nur mit Girokarte bezahlbar. Ver- und Entsorgung sowie Strom incl.","dog":"yes","fee":"yes","internet_access":"wlan","internet_access:fee":"yes","name":"Reisemobilhafen Göttingen Eiswiese","opening_hours":"24/7","operator":"GöSF","power_supply":"yes","power_supply:fee":"no","reservation":"no","sanitary_dump_station":"yes","seasonal":"no","tents":"no","toilets":"yes","water_point":"yes","website":"https://www.goesf.de/reisemobilhafen","wikimedia_commons":"Category:Wohnmobilstellplatz Göttingen"}},"52879187":{"location":[51.5632645,10.1544444],"ct":"DE","tp":"CS","ts":"2025-01-09T10:29:54Z","tX":540,"tY":340,"tags":{"caravans":"yes","mobile":"+49 151 2297 4221","motorhome":"yes","name":"Campingplatz Seeburger See","phone":"+49 5507 1319","shower":"yes","tents":"yes","toilets":"yes","website":"https://campingseeburgersee.com"}},"120511998":{"location":[51.4848796,10.1570479],"ct":"DE","tp":"CS","ts":"2022-05-21T22:46:31Z","tX":540,"tY":340,"tags":{"addr:city":"Duderstadt","addr:country":"DE","addr:housenumber":"1","addr:postcode":"37115","addr:street":"Nesselröder Warte","addr:suburb":"Nesselröden","contact:website":"http://www.campingplatz-nesselroeden.de","name":"Campingplatz \"Nesselröder Warte\"","phone":"+49 5508 1364"}},"421153188":{"location":[51.5220125,9.9311296],"ct":"DE","tp":"CR","ts":"2024-12-27T15:03:24Z","tX":540,"tY":340,"tags":{"capacity":"12","caravans":"no","charge":"17 EUR","description":"Zusatzübernachtungsplätze des Reisemobilhafen Eiswiese","dog":"yes","name":"Reisemobilhafen Göttingen Eiswiese (Badeparadies)","name:signed":"no","power_supply":"yes","sanitary_dump_station":"yes","tents":"no","toilets":"no","water_point":"yes","website":"https://www.goesf.de/reisemobilhafen"}},"1102408569":{"location":[51.5861245,9.9194989],"ct":"DE","tp":"CR","ts":"2024-12-14T20:02:54Z","tX":540,"tY":340,"tags":{"capacity":"4","charge":"8.00 EUR/night","fee":"yes","lit":"yes","maxstay":"4 days","name":"Wohnmobilstellplatz Bovenden","opening_hours":"24/7; Oct Sa[1] -3day off; Oct Sa[1] -2day off; Oct Sa[1] -1day off; Oct Su[1] off; Oct Su[1] +1day off; Oct Su[2] +1day off"}},"4209700184":{"location":[51.5216114,9.9299849],"ct":"DE","tp":"SD","ts":"2024-06-24T19:21:22Z","tX":540,"tY":340,"tags":{"fee":"yes","sanitary_dump_station:chemical_toilet":"yes","sanitary_dump_station:fee":"yes","sanitary_dump_station:gravity":"yes","sanitary_dump_station:grey_water":"yes","sanitary_dump_station:suction":"no"}}}