{"49981396":{"location":[51.2718683,9.9712224],"ct":"DE","tp":"CR","ts":"2024-12-28T13:22:59Z","tX":540,"tY":341,"tags":{"addr:street":"Franzrasen","capacity":"120","caravan_site":"motorhome_stopover","caravan_site:type":"town;spa","caravans":"no","charge":"20 EUR","charge:description":"3 nights for 40 EUR @ (Nov-Mar)","fee":"yes","fee:description":"includes Kurtax incluse bus travel, museum visits, Spa etc","internet_access":"wlan","internet_access:fee":"no","name":"Wohnmobilstellplatz Franzrasen","opening_hours":"00:00-24:00;Aug Fr[3] off;Aug Sa[3] off; Aug Su[3] off","power_supply":"yes","power_supply:fee":"no","reservation":"no","sanitary_dump_station":"yes","seasonal":"no","tents":"no","toilets":"yes","water_point":"yes","water_point:fee":"no","website":"https://www.bad-sooden-allendorf.de/wohnmobilstellplatz","wheelchair":"yes"}},"61314005":{"location":[51.1887847,10.0673287],"ct":"DE","tp":"CS","ts":"2023-12-28T14:08:08Z","tX":540,"tY":341,"tags":{"club":"sport","name":"Eschweger Kanu-Club","sport":"canoe","website":"https://www.eschweger-kanuclub.de/","wheelchair":"yes"}},"61870419":{"location":[51.2889495,9.9765745],"ct":"DE","tp":"CS","ts":"2022-12-04T16:05:22Z","tX":540,"tY":341,"tags":{"addr:city":"Wahlhausen","addr:country":"DE","addr:housenumber":"32","addr:postcode":"37318","addr:street":"Kreisstraße","caravans":"yes","internet_access":"wlan","internet_access:fee":"no","name":"Camping-Oase Wahlhausen","opening_hours":"Mar-Oct","phone":"+49 36087 98671","source":"website","tents":"yes","website":"https://camping-oase.de/"}},"163556891":{"location":[51.3481408,9.8691172],"ct":"DE","tp":"CS","ts":"2023-05-20T19:36:30Z","tX":540,"tY":341,"tags":{"access":"customers","addr:city":"Witzenhausen","addr:housenumber":"11","addr:postcode":"37213","addr:street":"Am Sande","capacity":"130","caravans":"yes","drinking_water":"yes","fee":"yes","internet_access":"wlan","internet_access:fee":"yes","name":"Campingplatz Witzenhausen","phone":"+49 5542 1465","power_supply":"yes","shower":"yes","tents":"yes","toilets":"yes","website":"http://campingplatz-werratal.de/","wheelchair":"no"}},"163717379":{"location":[51.2061857,10.0428448],"ct":"DE","tp":"CS","ts":"2024-07-03T18:05:07Z","tX":540,"tY":341,"tags":{"alt_name":"Freizeitzentrum Meinhard-Grebendorf","capacity":"250","caravans":"yes","drinking_water":"yes","email":"info@werra-meissner-camping.de","name":"Werra-Meissner-Camping","nudism":"yes","permanent_camping":"yes","phone":"+49 5651 6200","power_supply":"yes","sanitary_dump_station":"yes","shower":"yes","tents":"yes","toilets":"yes","website":"http://www.meinhardsee.de/","wheelchair":"yes"}},"174286488":{"location":[51.1914441,10.0946442],"ct":"DE","tp":"CS","ts":"2023-08-28T09:18:54Z","tX":540,"tY":341,"tags":{"addr:housenumber":"1","addr:street":"Am Seepark","caravans":"no","dog":"yes","email":"info@werratalsee-naturcamp-meinhard.de","internet_access":"no","name":"Werratalsee-Naturcamp-Meinhard","openfire":"yes","opening_hours":"24/7","phone":"+49 5651 992621 0","power_supply":"no","shower":"hot","smoking":"yes","tents":"yes","website":"https://www.werratalsee-naturcamp-meinhard.de/","wheelchair":"yes"}},"178160725":{"location":[51.1909663,10.0690901],"ct":"DE","tp":"CS","ts":"2024-12-01T13:56:52Z","tX":540,"tY":341,"tags":{"addr:city":"Eschwege","addr:country":"DE","addr:housenumber":"2","addr:postcode":"37269","addr:street":"Am Werratalsee","email":"eschwege@knauscamp.de","fax":"+49 5651 338884","internet_access":"wlan","name":"Knaus Campingpark Eschwege","operator":"Helmut Knaus KG","phone":"+49 5651 338883","website":"https://www.knauscamp.de/eschwege/","wheelchair":"yes"}},"240287939":{"location":[51.1865763,10.1669714],"ct":"DE","tp":"CR","ts":"2024-09-30T11:59:59Z","tX":540,"tY":341,"tags":{"capacity":"12","fee":"yes","name":"Reisemobilhafen \"In der Werraaue\"","note":"maximum stay 7 days","power_supply":"yes","sanitary_dump_station":"yes","tents":"no","website":"https://www.kvvw.de/wohnmobilhafen"}},"317406728":{"location":[51.1922582,10.0672288],"ct":"DE","tp":"CR","ts":"2025-01-31T12:38:16Z","tX":540,"tY":341,"tags":{"capacity":"56","caravan_site":"motorhome_stopover","caravan_site:type":"camp_site;lake","charge":"31 EUR","email":"eschwege@knauscamp.de","fax":"+49 5651 338884","fee":"yes","name":"KNAUS Campingpark Eschwege","note":"Reisemobilstellplatz vor der Schranke","operator":"Helmut KNAUS KG","phone":"+49 5651 338883","power_supply":"yes","website":"https://www.knauscamp.de/eschwege/","wheelchair":"yes"}},"405502938":{"location":[51.3448849,9.8536357],"ct":"DE","tp":"CR","ts":"2024-12-28T16:18:56Z","tX":540,"tY":341,"tags":{"capacity":"10","caravan_site":"motorhome_stopover","caravan_site:type":"river","charge":"7 EUR","fee":"yes","name":"Josef-Pott-Platz","power_supply":"yes","sanitary_dump_station":"yes","seasonal":"no","surface":"grass_paver","toilets":"no","water_point":"yes","website":"https://kirschenland.de/camping-und-reisemobile/"}},"580526849":{"location":[51.340863,9.854399],"ct":"DE","tp":"CR","ts":"2024-12-28T13:55:27Z","tX":540,"tY":341,"tags":{"alt_name":"Am Diebesturm - Witzenhausen","capacity":"4","caravan_site":"motorhome_stopover","caravan_site:type":"town","charge":"7 EUR","designation":"Wohnmobilstellplatz","fee":"yes","lit":"yes","name":"Wohnmobilstellplatz Oberburgstraße - Witzenhausen","power_supply":"yes","power_supply:maxcurrent":"16","sanitary_dump_station":"yes","seasonal":"no","socket:cee_blue":"yes","tents":"no","water_point":"yes","website":"https://kirschenland.de/camping-und-reisemobile/"}},"708679751":{"location":[51.2843551,9.9960283],"ct":"DE","tp":"CR","ts":"2020-06-21T17:04:20Z","tX":540,"tY":341,"tags":{"capacity":"10","name":"Reisemobilstellplatz Grenzmuseum Schifflersgrund","power_supply":"yes"}},"771199970":{"location":[51.352822,10.0421901],"ct":"DE","tp":"CS","ts":"2023-10-31T14:48:31Z","tX":540,"tY":341,"tags":{"addr:city":"Thalwenden","addr:country":"DE","addr:housenumber":"73","addr:postcode":"37318","addr:street":"Trift","caravans":"yes","name":"Campingplatz Bergwiese Thüringen","phone":"+49 36083 41168","source":"website","tents":"yes","website":"https://www.bergwiese-thueringen.de/"}},"799495156":{"location":[51.3741607,10.1376016],"ct":"DE","tp":"CR","ts":"2024-12-12T23:46:10Z","tX":540,"tY":341,"tags":{"capacity":"6","check_date":"2024-12-13","email":"touristinfo@heilbad-heiligenstadt.de","fee":"yes","internet_access":"no","name":"Reisemobilstellplatz \"Am Kulturhaus\"","phone":"+49 3606 677-141","power_supply":"yes","sanitary_dump_station":"yes","website":"https://www.heilbad-heiligenstadt.de/","wheelchair":"yes"}},"1280014567":{"location":[51.3475929,9.8727018],"ct":"DE","tp":"CS","ts":"2024-08-09T17:58:02Z","tX":540,"tY":341,"tags":{"caravans":"yes","name":"KC-Witzenhausen","operator":"KC-Witzenhausen","tents":"yes"}},"1280014568":{"location":[51.3480658,9.8716517],"ct":"DE","tp":"CS","ts":"2024-08-09T17:58:01Z","tX":540,"tY":341,"tags":{"caravans":"yes","name":"KC-Witzenhausen","operator":"KC-Witzenhausen","tents":"yes"}},"1282908313":{"location":[51.237609,9.9150797],"ct":"DE","tp":"CR","ts":"2024-05-14T15:54:42Z","tX":540,"tY":341,"tags":{"capacity":"3","caravan_site":"motorhome_stopover","caravan_site:type":"village","fee":"no","name":"Frankershausen","surface":"asphalt"}},"1346874310":{"location":[51.313198,9.9449648],"ct":"DE","tp":"CR","ts":"2024-12-28T13:02:49Z","tX":540,"tY":341,"tags":{"capacity":"8","caravan_site":"motorhome_stopover","caravan_site:type":"river","description":"Toiletten in der Nähe beim Museum, Zelten also auch möglich theoretisch.","fee":"no","name":"Wohnmobilstellplatz Lindewerra","picnic_table":"yes","power_supply":"yes","power_supply:capacity":"4","sanitary_dump_station":"no","surface":"grass_paver","tents":"yes","water_point":"no","website":"https://www.lindewerra.de/Gastgewerbe/Wohnmobilstellplatz/"}},"4284504094":{"location":[51.3131897,9.9453161],"ct":"DE","tp":"CR","ts":"2023-08-28T14:34:41Z","tX":540,"tY":341,"tags":{"description":"Münz-Stromsäule mit 4 Anschlüssen vorhanden. Toiletten in der Nähe beim Museum, Zelten also auch möglich theoretisch."}},"4289440989":{"location":[51.1918363,9.90092],"ct":"DE","tp":"CR","ts":"2018-07-03T03:49:32Z","tX":540,"tY":341,"tags":{"capacity":"6","contact:email":"info@gemeinde-meissner.de","contact:phone":"+49 5657 98960","description":"Keine Toilettenentsorgung","fee":"no","name":"Klosterfreiheit","operator":"Gemeinde Meißner","power_supply":"yes","sanitary_dump_station":"yes","sanitary_dump_station:chemical_toilet":"no","sanitary_dump_station:grey_water":"yes","water_point":"no","website":"https://www.gemeinde-meissner.de/verzeichnis/visitenkarte.php?mandat=136694","wheelchair":"limited"}},"5951889889":{"location":[51.2043408,10.0453864],"ct":"DE","tp":"CR","ts":"2024-07-03T18:04:41Z","tX":540,"tY":341,"tags":{"description":"Stellplatz vor der Schranke","fee":"yes","name":"Werra-Meissner-Camping","name:de":"Werra-Meissner-Camping - Wohnmobilstellplatz","name:en":"Werra-Meissner-Camping - Caravan Parking","power_supply":"yes","sanitary_dump_station":"yes","water_point":"yes","website":"http://www.meinhardsee.de/pdf/Preisliste_2018_camper.pdf"}},"7616435134":{"location":[51.2694,9.9728394],"ct":"DE","tp":"CR","ts":"2024-12-28T13:22:59Z","tX":540,"tY":341,"tags":{"caravan_site":"motorhome_stopover","caravan_site:type":"backup","description":"Backup at Erntedank- und Heimatfest 3. Weekend of August, and when Franzrasen site is full","name":"Alleerasen - Bad Sooden-Allendorf","power_supply":"no","sanitary_dump_station":"no","water_point":"no","website":"https://www.bad-sooden-allendorf.de/wohnmobilstellplatz"}},"5557017249":{"location":[51.340878,9.8544775],"ct":"DE","tp":"SD","ts":"2024-12-28T13:55:27Z","tX":540,"tY":341,"tags":{"access":"yes"}},"6836265032":{"location":[51.3450809,9.8532598],"ct":"DE","tp":"SD","ts":"2019-09-30T05:20:27Z","tX":540,"tY":341,"tags":{"sanitary_dump_station:chemical_toilet":"yes","sanitary_dump_station:fee":"no","sanitary_dump_station:gravity":"yes","sanitary_dump_station:grey_water":"yes","sanitary_dump_station:suction":"no"}},"12199076927":{"location":[51.2713957,9.9721587],"ct":"DE","tp":"SD","ts":"2024-12-30T10:46:07Z","tX":540,"tY":341,"tags":{"access":"yes","fee":"yes","sanitary_dump_station:basin":"yes","sanitary_dump_station:round_drain":"yes"}},"12458898460":{"location":[51.385589,10.1462632],"ct":"DE","tp":"CR","ts":"2024-12-28T14:12:54Z","tX":540,"tY":341,"tags":{"capacity":"16","caravan_site":"motorhome_stopover","caravan_site:type":"spa","charge":"19 EUR","check_in":"12:00","check_out":"11:00","dog":"yes","dog:charge":"3.80 EUR","dog:fee":"yes","fee":"yes","name":"Stellplatz Wiesenglück","opening_hours":"24/7","power_supply":"yes","power_supply:charge":"0.60 EUR/KWh","power_supply:fee":"yes","power_supply:maxcurrent":"16","reservation":"yes","reservation:description":"reservation on website","sanitary_dump_station":"yes","sanitary_dump_station:chemical_toilet":"yes","sanitary_dump_station:grey_water":"yes","socket:cee_blue":"yes","surface":"asphalt","toilets":"yes","water_point":"yes","water_point:charge":"0.02 EUR/liter","water_point:fee":"yes","website":"https://www.wiesenglueck.de/stellplatz"}}}