{"51814674":{"location":[50.8831452,10.0221262],"ct":"DE","tp":"CS","ts":"2017-06-18T15:04:42Z","tX":540,"tY":343,"tags":{"addr:city":"Heringen","addr:country":"DE","addr:housenumber":"7","addr:postcode":"36266","addr:street":"Am Steinberg","name":"Campingplatz Werratal Heringen","phone":"+49 6624 542022","source":"website","website":"http://www.werratalcamping.de/","wheelchair":"limited"}},"176238334":{"location":[50.834538,10.1631396],"ct":"DE","tp":"CR","ts":"2021-09-18T08:21:03Z","tX":540,"tY":343,"tags":{"capacity":"6","email":"gemeinde@tiefenort.de","fee":"no","internet_access":"no","name":"Reisemobilstellplatz Heerstatt","operator":"Gemeinde Tiefenort","phone":"+49 3695 8276-0","power_supply":"yes","sanitary_dump_station":"no","tents":"yes","wheelchair":"yes"}},"303318477":{"location":[50.9387006,10.06396],"ct":"DE","tp":"CS","ts":"2024-10-06T13:25:45Z","tX":540,"tY":343,"tags":{"cabins":"yes","caravans":"no","email":"uwe@freizeitcamp-werra.de","internet_access":"wlan","internet_access:fee":"no","leisure":"recreation_ground","name":"Freizeitcamp Berka","phone":"+49 173 2958531","tents":"yes","website":"https://www.freizeitcamp-werra.de/"}},"425073084":{"location":[50.7899966,10.1161856],"ct":"DE","tp":"CR","ts":"2016-08-21T14:44:51Z","tX":540,"tY":343,"tags":{"capacity":"6","contact:email":"stadtverwaltung@stadt-stadtlengsfeld.de","contact:phone":"+49 36965 672-0","fee":"no","name":"Am Schwimmbad","operator":"Stadt Stadtlengsfeld","power_supply":"yes","sanitary_dump_station":"yes","water_point":"yes","website":"http://thueringerrhoen.de/73-wohnmobilstellplatz-am-schwimmbad-stadtlengsfeld","wheelchair":"yes"}},"1011087308":{"location":[50.9444107,9.8779754],"ct":"DE","tp":"CR","ts":"2022-09-06T20:43:38Z","tX":540,"tY":343,"tags":{"addr:city":"Ronshausen","addr:postcode":"36217","addr:street":"Am Sportplatz","capacity":"4","operator":"Gemeinde Ronshausen","power_supply":"no","sanitary_dump_station":"no"}},"1321934707":{"location":[50.9257355,10.0071492],"ct":"DE","tp":"CR","ts":"2024-10-07T19:07:21Z","tX":540,"tY":343,"tags":{"operator":"Hotel Waldschlösschen","phone":"+49 36922 437200","website":"https://www.urlaub-im-werratal.de/"}},"1867835589":{"location":[50.8296341,10.0218243],"ct":"DE","tp":"CR","ts":"2015-12-06T22:20:21Z","tX":540,"tY":343,"tags":{"capacity":"2","fee":"no","name":"Reisemobilstellplatz Werrabrücke","power_supply":"yes","sanitary_dump_station":"yes"}},"4018350065":{"location":[50.8247988,9.8448365],"ct":"DE","tp":"CR","ts":"2023-01-21T17:13:35Z","tX":540,"tY":343,"tags":{"capacity":"3","contact:phone":"+49 6629 9202-0","fee":"no","maxstay":"3 days","operator":"Gemeinde Schenklengsfeld","power_supply":"yes","sanitary_dump_station":"yes","water_point":"yes","website":"https://www.schenklengsfeld.de/seite/237667/wohnmobilstellplatz.html"}},"11970663153":{"location":[50.884682,9.8540455],"ct":"DE","tp":"CR","ts":"2024-06-10T21:04:17Z","tX":540,"tY":343,"tags":{"capacity":"2","internet_access":"no","power_supply":"no","sanitary_dump_station":"no"}},"4360196491":{"location":[50.7901209,10.1162986],"ct":"DE","tp":"SD","ts":"2018-01-21T14:20:22Z","tX":540,"tY":343,"tags":{"fee":"no","sanitary_dump_station:chemical_toilet":"yes","sanitary_dump_station:grey_water":"yes"}}}