{"45424867":{"location":[50.714584,9.9031838],"ct":"DE","tp":"CR","ts":"2022-01-29T10:39:37Z","tX":540,"tY":344,"tags":{"capacity":"4","description":"Gebühr 4€","email":"info@rasdorf.de","fee":"yes","maxstay":"3 nights","name":"Reisemobilstellplatz Rasdorf","object:city":"Rasdorf","object:postcode":"36169","object:street":"Setzelbacher Straße","phone":"+49 6651 9601-0","power_supply":"yes","sanitary_dump_station":"yes","tents":"no","water_point":"yes","website":"https://www.rasdorf.de/essen-trinken-schlafen/","wheelchair":"yes"}},"45439191":{"location":[50.726629,9.9030803],"ct":"DE","tp":"CS","ts":"2024-11-10T08:25:19Z","tX":540,"tY":344,"tags":{"addr:city":"Rasdorf","addr:housenumber":"3","addr:postcode":"36169","addr:street":"Grabenweg","capacity:persons":"50","caravans":"no","charge":"3.50 EUR/person/day","drinking_water":"yes","fee":"yes","fireplace":"yes","group_only":"yes","name":"Jugendzeltplatz Kirchberg","operator":"Gemeinde Rasdorf","power_supply":"yes","reservation":"required","shower":"yes","static_caravans":"no","tents":"yes","toilets":"yes","website":"https://rasdorf.de/raeume-zum-mieten/"}},"51815271":{"location":[50.6128548,10.031656],"ct":"DE","tp":"CS","ts":"2020-03-20T10:53:18Z","tX":540,"tY":344,"tags":{"caravans":"yes","fee":"yes","name":"Campingplatz Ulstertal","phone":"+49 6682 8292","shower":"yes","source":"website","tents":"yes","toilets":"yes","website":"http://www.camping-ulstertal.de/"}},"167602691":{"location":[50.5210904,10.1381515],"ct":"DE","tp":"CS","ts":"2023-08-03T08:33:48Z","tX":540,"tY":344,"tags":{"caravans":"yes","name":"Campingplatz Fladungen","phone":"+49 9778-919111","tents":"yes","website":"https://www.fladungen-rhoen.de/urlaub-in-fladungen/gastgeber/camping/","wheelchair":"no"}},"204772520":{"location":[50.630163,10.1594809],"ct":"DE","tp":"CR","ts":"2021-04-07T08:02:10Z","tX":540,"tY":344,"tags":{"capacity":"4","email":"info@kaltennordheim.de","fee":"no","name":"Wohnmobilstellplatz \"In der Aue\"","object:city":"Kaltennordheim","object:postcode":"36452","object:street":"In der Aue","operator":"Stadt Kaltennordheim","phone":"+49 36966 778-0","power_supply":"yes","sanitary_dump_station":"no","water_point":"no","website":"https://www.rhoenforum.de/tourismus-tipps/camping-reisemobil/kaltennordheim/","wheelchair":"limited"}},"272625033":{"location":[50.5242366,9.8652223],"ct":"DE","tp":"CS","ts":"2024-04-28T20:21:57Z","tX":540,"tY":344,"tags":{"addr:street":"Steinwand 5\n36163 Poppenhausen","name":"Steinwand","phone":"06658/328","website":"https://www.gasthaus-zusteinwand.de/about#Zelten"}},"275161987":{"location":[50.5611893,9.9204032],"ct":"DE","tp":"CS","ts":"2021-09-13T16:04:21Z","tX":540,"tY":344,"tags":{"access":"private","operator":"Camping-Club-Rhön Hilders-Dörmbach","permanent_camping":"only"}},"354660781":{"location":[50.7320578,10.1936808],"ct":"DE","tp":"CS","ts":"2024-08-29T13:07:18Z","tX":540,"tY":344,"tags":{"addr:city":"Dermbach","addr:country":"DE","addr:housenumber":"29","addr:place":"Bernshausen","addr:postcode":"36466","name":"Rhön Feeling","operator":"Michael Heidinger","website":"https://www.rhoen-feeling-hotel.de/hotel/campingplatz"}},"425074817":{"location":[50.7001645,10.1707607],"ct":"DE","tp":"CR","ts":"2016-06-15T09:05:17Z","tX":540,"tY":344,"tags":{"capacity":"4","contact:mobile":"+49 160 2282761","fee":"yes","operator":"Gemeinde Wiesenthal","power_supply":"yes","water_point":"yes","website":"http://thueringerrhoen.de/74-wohnmobilstellplatz-am-schwimmbad-wiesenthal"}},"954160543":{"location":[50.5250538,10.0816131],"ct":"DE","tp":"CR","ts":"2023-07-23T19:24:01Z","tX":540,"tY":344,"tags":{"capacity":"4"}},"1150824774":{"location":[50.6414646,10.0183444],"ct":"DE","tp":"CR","ts":"2024-10-23T22:00:03Z","tX":540,"tY":344,"tags":{"capacity":"8","contact:phone":"+49 6682 9611-12","fee":"yes","internet_access":"wlan","maxstay":"3 days","name":"Wohnmobilstellplatz \"Am Unsbach\"","operator":"Stadt Tann (Rhön)","power_supply":"yes","sanitary_dump_station":"yes","water_point":"yes","website":"https://tann-rhoen.de/tourismus-und-kultur/uebernachten-und-geniessen/wohnmobil-stellplatz","wheelchair":"yes"}},"1170390280":{"location":[50.5408802,9.8764793],"ct":"DE","tp":"CS","ts":"2023-05-08T20:06:04Z","tX":540,"tY":344,"tags":{"addr:city":"Hofbieber","addr:country":"DE","addr:housenumber":"5","addr:postcode":"36145","addr:street":"Vorderstellberg","cables":"no","capacity:persons":"70","caravans":"no","dog":"yes","email":"touristinformation@hofbieber.de","fee":"yes","group_only":"yes","lit":"no","motor_vehicle":"no","name":"Zeltplatz Malerdorf Kleinsassen-Stellberg","openfire":"yes","operator":"Gemeinde Hofbieber","permanent_camping":"no","phone":"+49 6657 981 1403","reservation":"required","tents":"yes","website":"https://www.hofbieber-tourismus.de/unterkunftssuche#/unterkuenfte/RHO/b7a1ec3e-fea7-46d5-8c0f-402a1d36d8e0/zeltplatz-malerdorf--kleinsassen-stellberg?useDetailSearch=false"}},"1202564530":{"location":[50.5247946,10.0163533],"ct":"DE","tp":"CR","ts":"2024-12-29T13:27:39Z","tX":540,"tY":344,"tags":{"capacity":"3","caravan_site":"motorhome_stopover","caravan_site:type":"winery","email":"info@krenzers-rhoen.de","fee":"yes","name":"Krenzers Rhön Wohnmobilstellplatz","operator":"krenzers rhön e. K.","phone":"+49 66 83 9 63 40","power_supply":"yes","product":"Apfelwein","sanitary_dump_station":"no","website":"https://rhoenerlebnis.de/reisemobil"}},"2526591996":{"location":[50.611353,10.1313186],"ct":"DE","tp":"CR","ts":"2023-01-21T17:38:28Z","tX":540,"tY":344,"tags":{"capacity":"2","contact:email":"zentrale@vghoherhoen.de","contact:phone":"+49 36946 216-0","fee":"no","internet_access":"no","name":"Reisemobilstellplatz Alte Dreschscheune","operator":"Verwaltungsgemeinschaft \"Hohe Rhön\"","power_supply":"no","sanitary_dump_station":"no","water_point":"no","wheelchair":"no"}},"3935572741":{"location":[50.7071385,9.9499578],"ct":"DE","tp":"CR","ts":"2024-11-17T08:43:57Z","tX":540,"tY":344,"tags":{"capacity":"8","caravans":"no","check_date":"2021-07-05","contact:email":"info@geisa.de","contact:phone":"+49 36967 69-150","contact:website":"https://stadt-geisa.org/ich-bin-gast/wohnmobilstellplaetze/","fee":"no","maxstay":"5 days","name":"Freizeit- und Sportanlage an der Ulster","operator":"Stadt Geisa","power_supply":"yes","sanitary_dump_station":"yes","water_point":"seasonal","wheelchair":"limited"}},"3935633683":{"location":[50.7072694,9.9502571],"ct":"DE","tp":"SD","ts":"2024-11-17T08:46:58Z","tX":540,"tY":344,"tags":{"charge":"1 EUR/80 litre","fee":"yes","sanitary_dump_station:chemical_toilet":"yes","water_point":"yes"}},"4357553233":{"location":[50.5775717,10.0231411],"ct":"DE","tp":"CS","ts":"2022-05-24T15:07:39Z","tX":540,"tY":344,"tags":{"addr:housenumber":"20","addr:postcode":"36115","addr:street":"Buchschirmweg","name":"Zeltplatz Thomas-Morus-Haus","operator":"Jugendwerk St. Michael e.V.","phone":"+49 6681 7361","website":"https://www.thomas-morus-haus.de/thomasmorushaus/"}},"5420398216":{"location":[50.6047179,10.0844032],"ct":"DE","tp":"CS","ts":"2024-05-07T07:53:06Z","tX":540,"tY":344,"tags":{"capacity:caravans":"30","contact:email":"info@weidberg-camping.de","contact:mobile":"+49 157 73277195","contact:phone":"+49 36946 29195","contact:website":"http://www.weidberg-camping.de","name":"Weidberg Camping","openfire":"yes","opening_hours":"May-Sep","operator":"Angela Abe","tents":"yes","wheelchair":"limited"}},"9790980387":{"location":[50.5718653,10.0220531],"ct":"DE","tp":"CS","ts":"2024-11-13T10:22:31Z","tX":540,"tY":344,"tags":{"capacity:persons":"100","caravans":"no","charge":"1.50 EUR","drinking_water":"no","email":"tourist-info@hilders.de","fee":"yes","group_only":"yes","image":"https://www.hilders.de/fileadmin/_processed_/0/a/csm_Zeltplatz_Hilders_bd5a96f952.jpg","internet_access":"no","name":"Am Buchschirmhang","operator":"Stadt Hilders","phone":"+49 6681 960815","power_supply":"no","reservation":"yes","shower":"no","tents":"yes","toilets":"yes","toilets:wheelchair":"no","website":"https://www.hilders.de/tourismus/uebernachten/wohnmobil-und-zeltplaetze","wheelchair":"limited"}},"10060973637":{"location":[50.5249431,10.125746],"ct":"DE","tp":"CS","ts":"2023-01-21T16:53:16Z","tX":540,"tY":344,"tags":{"addr:housenumber":"25","addr:street":"Weihersweg","name":"Weihersmühle","phone":"+499778356","website":"https://www.weihersmuehle.com/"}},"4359152105":{"location":[50.5692501,9.9923269],"ct":"DE","tp":"CR","ts":"2024-12-29T13:16:31Z","tX":540,"tY":344,"tags":{"capacity":"5","caravan_site":"motorhome_stopover","caravan_site:type":"swimming_pool","contact:phone":"+49 6681 960815","fee":"no","name":"Stellplatz Hilders - Erlebnisbades Ulsterwelle","operator":"Gemeinde Hilders","power_supply":"no","sanitary_dump_station":"no","water_point":"no","website":"https://www.hilders.de/tourismus/uebernachten/wohnmobil-und-zeltplaetze"}},"9383266589":{"location":[50.7237435,9.9337193],"ct":"DE","tp":"CR","ts":"2024-12-29T13:13:53Z","tX":540,"tY":344,"tags":{"capacity":"3","caravan_site":"motorhome_stopover","caravan_site:type":"museum","caravans":"no","charge":"10 EUR","contact:phone":"+49 6651 919030","fee":"yes","maxstay":"2 nights","name":"US Camp - Point Alpha Wohnmobilstellplätze","object:city":"Rasdorf","object:housenumber":"1","object:postcode":"36169","object:street":"Hummelsberg","power_supply":"no","reservation":"no","sanitary_dump_station":"no","seasonal":"no","tents":"no","water_point":"no","website":"https://www.pointalpha.com/produkt/wohnmobilstellplatzticket/"}},"11207146467":{"location":[50.6143077,10.1639011],"ct":"DE","tp":"CR","ts":"2023-09-21T08:07:02Z","tX":540,"tY":344,"tags":{"addr:city":"Kaltennordheim","addr:housenumber":"2","addr:place":"Erbsmühle","addr:postcode":"36452","capacity":"2","fee":"no","name":"Fuchsbau Camp","power_supply":"yes","sanitary_dump_station":"no"}},"5187115817":{"location":[50.7143367,9.903399],"ct":"DE","tp":"SD","ts":"2020-08-11T17:49:24Z","tX":540,"tY":344,"tags":{"access":"yes","fee":"no","sanitary_dump_station:chemical_toilet":"yes","sanitary_dump_station:gravity":"yes","sanitary_dump_station:grey_water":"yes","water_point":"yes"}},"6710497325":{"location":[50.7072772,9.9501707],"ct":"DE","tp":"SD","ts":"2019-08-24T12:46:54Z","tX":540,"tY":344,"tags":{"fee":"no","sanitary_dump_station:chemical_toilet":"no","sanitary_dump_station:gravity":"yes","sanitary_dump_station:grey_water":"yes"}}}