{"42084439":{"location":[50.4961199,10.1003703],"ct":"DE","tp":"CS","ts":"2024-06-23T18:30:05Z","tX":540,"tY":345,"tags":{"capacity":"150","email":"susanne.perleth@rhoen-grabfeld.de","fee":"yes","name":"Jugendzeltplatz Hillenberg","operator":"Landkreis Rhön-Grabfeld"}},"52078564":{"location":[50.5071753,10.0113802],"ct":"DE","tp":"CS","ts":"2023-11-09T19:29:15Z","tX":540,"tY":345,"tags":{"addr:city":"Ehrenberg","addr:country":"DE","addr:housenumber":"1","addr:postcode":"36115","addr:street":"An der Ulster","caravans":"yes","dog":"yes","dryer":"yes","fax":"+49 6683 1269","fixme":"shape and location","kitchen":"yes","name":"Rhön Camping Park","operator":"Rhön Camping-Park GmbH","phone":"+49 6683 1268","power_supply":"yes","sauna":"yes","source":"http://www.rhoen-camping-park.de/","source:date":"2014-11-06","tents":"yes","washing_machine":"yes","website":"http://www.rhoen-camping-park.de/","wheelchair":"yes"}},"52079093":{"location":[50.3794968,9.9528911],"ct":"DE","tp":"CS","ts":"2023-12-02T09:33:39Z","tX":540,"tY":345,"tags":{"addr:city":"Wildflecken","addr:country":"DE","addr:housenumber":"7","addr:postcode":"97772","addr:street":"Schulstraße","addr:suburb":"Oberwildflecken","contact:mobile":"+49 171 1971700","email":"info@camping-kreuzberg.de","fax":"+49 9745 930191","name":"Campingplatz Kreuzberg","operator":"Ralf Köhler","phone":"+49 9745 2294","source":"https://campingplatz-kreuzberg.jimdosite.com/","source:date":"2014-11-19","website":"https://campingplatz-kreuzberg.jimdosite.com/"}},"52079335":{"location":[50.3959821,10.0215367],"ct":"DE","tp":"CS","ts":"2024-08-07T20:04:06Z","tX":540,"tY":345,"tags":{"addr:city":"Bischofsheim i.d.Rhön","addr:country":"DE","addr:housenumber":"53","addr:postcode":"97653","addr:street":"Kissinger Straße","caravans":"yes","email":"info@rhoencamping.de","fax":"+49 9772 931351","fee":"yes","name":"Camping am Schwimmbad","phone":"+49 9772 1350","shower":"yes","source":"https://www.rhoencamping.de/","source:date":"2014-11-10","tents":"yes","toilets":"yes","toilets:wheelchair":"no","website":"https://www.rhoencamping.de/","wheelchair":"limited"}},"110936310":{"location":[50.4900223,9.8766825],"ct":"DE","tp":"CR","ts":"2025-01-09T14:57:41Z","tX":540,"tY":345,"tags":{"capacity":"10","caravan_site":"motorhome_stopover","caravan_site:type":"sports_centre","charge":"7 EUR","dog":"leashed","fee":"yes","name":"Reisemobilstellplatz am Lüttergrund","operator":"Gemeinde Poppenhausen","phone":"+49 6658 960013","power_supply":"yes","power_supply:capacity":"2 EUR/12 hours","power_supply:fee":"yes","reservation":"no","sanitary_dump_station":"yes","seasonal":"no","surface":"paving_stones","toilets":"no","water_point":"yes","water_point:charge":"1 EUR/100 liter","water_point:fee":"yes","website":"https://www.poppenhausen-wasserkuppe.de/de/tourismus/unterkuenfte-gastro/unterkuenfte/wohnmobilstellplaetze.html","wheelchair":"yes"}},"179269685":{"location":[50.4630383,9.9204736],"ct":"DE","tp":"CS","ts":"2024-12-29T13:32:34Z","tX":540,"tY":345,"tags":{"addr:city":"Gersfeld","addr:country":"DE","addr:postcode":"36129","addr:suburb":"Schachen","name":"Camping Hochrhön","phone":"+49 6654 7836","website":"https://www.rhoenline.de/camping-hochrhoen/"}},"180915288":{"location":[50.3210293,9.9406605],"ct":"DE","tp":"CS","ts":"2020-02-17T14:00:02Z","tX":540,"tY":345,"tags":{"capacity":"80","email":"evi.kaiser@kg.de","group_only":"yes","name":"Jugendzeltplatz Totnansberg","operator":"Landkreis Bad Kissingen","website":"https://www.landkreis-badkissingen.de"}},"186353828":{"location":[50.3943946,9.9972489],"ct":"DE","tp":"CR","ts":"2024-10-20T15:18:05Z","tX":540,"tY":345,"tags":{"capacity":"8","contact:email":"tourist-info@bischofsheim-rhoen.de","contact:phone":"+49 9772 910150","fee":"yes","internet_access":"no","name":"Wohnmobilstellplatz am Hallenbad","opening_hours":"24/7","operator":"Stadt Bischofsheim","power_supply":"no","sanitary_dump_station":"yes","smoking":"yes","water_point":"yes","website":"https://www.rhoen.info/resources?otg-node-id=230608543227-qnyw"}},"245417523":{"location":[50.4418014,10.1136086],"ct":"DE","tp":"CR","ts":"2022-07-29T09:03:17Z","tX":540,"tY":345,"tags":{"capacity":"6","capacity:caravans":"6","check_date:website":"2021-06-26","contact:email":"touristinfo@oberelsbach.de","contact:phone":"+49 9774 9191-0","fee":"yes","maxstay":"3 days","name":"Reisemobilstellplatz an der Els","note":"Kein Vodafone Datenempfang","operator":"Marktgemeinde Oberelsbach","power_supply":"yes","sanitary_dump_station":"yes","water_point":"yes","website":"http://www.oberelsbach-rhoen.de/15.html?&cHash=1e15a928f04e029eeb3aaaf13284250e&tx_mhbranchenbuch_pi1[detail]=32","wheelchair":"yes"}},"289513192":{"location":[50.3389554,9.9891429],"ct":"DE","tp":"CS","ts":"2024-03-05T14:37:15Z","tX":540,"tY":345,"tags":{"addr:city":"Sandberg","addr:country":"DE","addr:housenumber":"1","addr:postcode":"97657","addr:street":"Dr.-Bühner-Straße","addr:suburb":"Waldberg","contact:email":"camping-waldberg@gmx.de","contact:phone":"+49 170 2199882","contact:website":"http://camping-waldberg.de","name":"Waldberg Rhön"}},"291396077":{"location":[50.3171351,9.8854828],"ct":"DE","tp":"CS","ts":"2020-01-11T14:19:07Z","tX":540,"tY":345,"tags":{"email":"evi.kaiser@kg.de","name":"Jugendzeltplatz Farnsberg","operator":"Landkreis Bad Kissingen","website":"https://www.landkreis-badkissingen.de"}},"434708290":{"location":[50.5028027,9.9998161],"ct":"DE","tp":"CS","ts":"2022-05-22T14:19:54Z","tX":540,"tY":345,"tags":{"description":"Anmeldung im Rathaus Tourist - Information oder Kiosk Schwimmbad","operator":"Gemeinde Ehrenberg","website":"http://ehrenberg-rhoen.de/jugendzeltplatz"}},"762459156":{"location":[50.5083515,10.1448117],"ct":"DE","tp":"CS","ts":"2023-10-31T15:08:56Z","tX":540,"tY":345,"tags":{"group_only":"yes","name":"Jugendzeltplatz Am Reith","operator":"Gemeinde Hausen","website":"https://www.lkrhoengrabfeld.rhoen-saale.net/internet/index.php?page=10078&&detailID=44149"}},"762468719":{"location":[50.4088854,9.9623708],"ct":"DE","tp":"CS","ts":"2023-12-02T09:36:09Z","tX":540,"tY":345,"tags":{"group_only":"yes","name":"Jugendzeltplatz Erlichshütte","operator":"Jugendzeltplatz Erlichshütte e.V.","website":"https://www.bischofsheim.info/camping"}},"849896601":{"location":[50.4771195,10.1809874],"ct":"DE","tp":"CR","ts":"2025-01-30T12:27:09Z","tX":540,"tY":345,"tags":{"capacity":"12","caravan_site":"motorhome_stopover","caravan_site:type":"train_station","charge":"8 EUR","fee":"yes","internet_access":"no","name":"Wohnmobilstellplatz am alten Bahnhof Nordheim vor der Rhön","operator":"Gemeinde Nordheim vor der Rhön","phone":"+49 9778 9191-33","picnic_table":"yes","power_supply":"yes","power_supply:charge":"0.50 EUR/kWh","sanitary_dump_station":"yes","seasonal":"no","socket:cee_blue":"yes","surface":"gravel","toilets":"no","water_point":"yes","wheelchair":"limited"}},"1193230888":{"location":[50.4986516,9.8779079],"ct":"DE","tp":"CS","ts":"2023-12-29T14:58:45Z","tX":540,"tY":345,"tags":{"caravans":"yes","fee":"yes","kitchen":"yes","name":"Rhön Indianer Hotel","note":"eigene Zelte nur unter bestimmten Umständen erlaubt, siehe Website","nudism":"no","openfire":"yes","power_supply":"yes","reservation":"yes","swimming_pool":"no","toilets":"yes","waste_disposal":"yes","website":"https://rhoenindianerhotel.com/"}},"1347083622":{"location":[50.4645483,9.9202594],"ct":"DE","tp":"CR","ts":"2024-12-29T13:32:34Z","tX":540,"tY":345,"tags":{"addr:city":"Gersfeld","addr:postcode":"36129","addr:suburb":"Schachen","capacity":"20","charge":"17.10 EUR","check_in":"11:00-12:00,15:00-19:00","check_out":"11:00","contact:phone":"+49 6654 7836","dog":"yes","dog:fee":"no","fee":"yes","internet_access":"no","laundry":"yes","name":"Wohnmobilstellplatz Hochrhoen","opening_hours":"Apr-Oct","operator":"Camping Hochrhön","power_supply":"yes","water_point":"yes","website":"https://www.rhoenline.de/camping-hochrhoen/"}},"1349795915":{"location":[50.5003985,9.9494203],"ct":"DE","tp":"CR","ts":"2025-01-09T15:19:24Z","tX":540,"tY":345,"tags":{"attraction":"Deutsches Segelflugmuseum mit Modellflug Wasserkuppe","capacity":"10","caravan_site":"motorhome_stopover","caravan_site:type":"museum;parking_lot;skiing","fee":"yes","name":"Stellplatz Wasserkuppe - Abtsroda","power_supply":"no","ref":"P5W","sanitary_dump_station":"no","surface":"asphalt","water_point":"no"}},"1354930793":{"location":[50.3671928,9.8858734],"ct":"DE","tp":"CR","ts":"2025-01-28T14:09:01Z","tX":540,"tY":345,"tags":{"addr:city":"Wildflecken","addr:housenumber":"9","addr:postcode":"97772","addr:street":"Am Auersberg","bbq":"yes","capacity:caravans":"3","caravan_site":"motorhome_stopover","caravan_site:type":"countryside","charge":"15 EUR","dog":"leashed","dog:fee":"no","email":"Kleinheinz-h@t-online.de","fee":"yes","internet_access":"no","name":"Wohnmobilstellplatz am Rhöner Auersberg","note":"Nur Wohnmobile (autark), keine Wohnwagen.","phone":"+49 171 8479172","power_supply":"yes","power_supply:charge":"3 EUR/3kWh","power_supply:fee":"yes","sanitary_dump_station":"no","toilets":"no","water_point":"yes","water_point:charge":"1 EUR/100 liter","water_point:fee":"yes","website":"https://sra.chayns.site/"}},"1419372380":{"location":[50.4997264,9.951925],"ct":"DE","tp":"CS","ts":"2025-02-20T09:08:55Z","tX":540,"tY":345,"tags":{"caravans":"no","description":"Reservation required ; mindestens 20 Personen","email":"geschaeftsstelle@djohessen.de","fee":"yes","group_only":"yes","internet_access":"no","name":"Camp ErNa (Erholung und Natur)","operator":"Deutsche Jugend in Europa – Landesverband Hessen","phone":"+49 6658 919001","reservation":"required","toilets":"yes","website":"https://www.camp-erna.de/"}},"2807956584":{"location":[50.4645372,9.9202238],"ct":"DE","tp":"CR","ts":"2023-10-31T15:07:50Z","tX":540,"tY":345,"tags":{"addr:city":"Gersfeld","addr:postcode":"36129","addr:suburb":"Schachen","capacity":"20","contact:phone":"+49 6654 7836","fee":"yes","internet_access":"no","operator":"Camping Hochrhön","power_supply":"yes","water_point":"yes","website":"https://www.rhoenline.de/camping-hochrhoen/"}},"3614694297":{"location":[50.3943711,9.9975634],"ct":"DE","tp":"SD","ts":"2015-06-24T09:31:35Z","tX":540,"tY":345,"tags":{}},"6413057515":{"location":[50.3824893,9.9782737],"ct":"DE","tp":"CR","ts":"2024-05-11T15:22:03Z","tX":540,"tY":345,"tags":{"addr:city":"Bischofsheim","addr:housenumber":"10","addr:postcode":"97653","addr:street":"Kreuzberg","addr:suburb":"Kreuzberg","capacity":"25","drinking_water":"no","fee":"yes","internet_access":"no","name":"Stellplatz am Berggasthof Roth","phone":"+49 9772 1245","power_supply":"no","sanitary_dump_station":"no","website":"https://www.berggasthof-roth.de/reisemobile/"}},"6699780235":{"location":[50.3451044,9.8819339],"ct":"DE","tp":"CR","ts":"2025-01-09T14:20:03Z","tX":540,"tY":345,"tags":{"addr:city":"Wildflecken","addr:postcode":"97772","addr:suburb":"Oberbach","caravan_site":"motorhome_stopover","caravan_site:type":"village","fee":"no","name":"Stellplatz Oberbach","power_supply":"no","sanitary_dump_station":"no","water_point":"no","wheelchair":"yes"}},"6743848584":{"location":[50.4738559,10.1853684],"ct":"DE","tp":"CR","ts":"2025-01-30T12:30:04Z","tX":540,"tY":345,"tags":{"addr:city":"Nordheim v.d. Rhön","addr:housenumber":"16","addr:postcode":"97647","addr:street":"Bünd","capacity":"3","caravan_site":"motorhome_stopover","caravan_site:type":"distillery","charge":"4 EUR","dog":"yes","fee":"yes","name":"Stellplatz an der Edelbrennerei Hohmann","opening_hours:shop":"Mo-Fr 18:00-19:30; Sa 13:00-15:00","phone":"+49 9779 1718","power_supply":"yes","power_supply:charge":"2 EUR","power_supply:fee":"yes","reservation":"yes","water_point":"yes","website":"https://edelbrennerei-hohmann.de/camping/","wheelchair":"yes"}},"8997990287":{"location":[50.5004015,9.9494136],"ct":"DE","tp":"CR","ts":"2021-08-11T08:13:51Z","tX":540,"tY":345,"tags":{"capacity":"10","fee":"yes","power_supply":"no","sanitary_dump_station":"no","water_point":"no"}},"9847807950":{"location":[50.4422899,9.9315505],"ct":"DE","tp":"CR","ts":"2022-06-26T10:56:40Z","tX":540,"tY":345,"tags":{"description":"provisorische Beschilderung als Wohnmobilparkplatz","name":"Wildpark Gersfeld"}},"9921245554":{"location":[50.3672067,9.8857202],"ct":"DE","tp":"CR","ts":"2022-07-30T17:15:56Z","tX":540,"tY":345,"tags":{"addr:city":"Wildflecken","addr:housenumber":"9","addr:postcode":"97772","addr:street":"Am Auersberg","capacity:caravans":"3","charge":"12 Euro Stellplatz,  3 Euro Strom (3 kw)","email":"Kleinheinz-h@t-online.de","fee":"yes","internet_access":"no","name":"Wohnmobilstellplatz am Rhöner Auersberg","note":"Nur Wohnmobile (autark), keine Wohnwagen.","phone":"+49 171 8479172","power_supply":"yes","sanitary_dump_station":"no"}},"5184834156":{"location":[50.4423498,10.1140778],"ct":"DE","tp":"SD","ts":"2018-01-21T14:20:24Z","tX":540,"tY":345,"tags":{"fee":"no","sanitary_dump_station:chemical_toilet":"yes","sanitary_dump_station:gravity":"yes","sanitary_dump_station:grey_water":"yes"}},"6572277805":{"location":[50.4899443,9.8766659],"ct":"DE","tp":"SD","ts":"2025-01-09T14:57:41Z","tX":540,"tY":345,"tags":{"access":"yes","sanitary_dump_station:chemical_toilet":"yes","sanitary_dump_station:fee":"no","sanitary_dump_station:gravity":"yes","sanitary_dump_station:grey_water":"yes","sanitary_dump_station:suction":"no"}},"6937927880":{"location":[50.5063614,10.0113076],"ct":"DE","tp":"SD","ts":"2019-11-01T18:27:44Z","tX":540,"tY":345,"tags":{"access":"customers","operator":"Camping Rhönpark","sanitary_dump_station:round_drain":"yes"}},"12271241337":{"location":[50.3943843,9.9975603],"ct":"DE","tp":"SD","ts":"2024-10-20T15:18:05Z","tX":540,"tY":345,"tags":{"fee":"yes","sanitary_dump_station:basin":"yes"}},"12486665670":{"location":[50.4815644,9.8975149],"ct":"DE","tp":"CR","ts":"2025-01-09T15:03:56Z","tX":540,"tY":345,"tags":{"capacity":"3","caravan_site":"motorhome_stopover","caravan_site:type":"farm","charge":"17 EUR","check_out":"11:00","fee":"yes","name":"Wohnmobilstellplätze Lahmenhof (Rodholz)","operator":"Familie Grösch","phone":"+49 151 20243789","power_supply":"yes","power_supply:charge":"5 EUR/10 KWh","power_supply:fee":"yes","seasonal":"no","water_point":"yes","website":"https://www.lahmenhof-rhoen.de/#/wohnmobilstellplatz"}}}