{"14444194":{"location":[49.8678541,9.8793511],"ct":"DE","tp":"CS","ts":"2022-08-30T02:02:01Z","tX":540,"tY":347,"tags":{"addr:city":"Güntersleben","addr:housenumber":"1","addr:postcode":"97261","addr:street":"Leitensee","landuse":"grass","name":"Naturistenbund Frankenland e.V.","naturism":"yes","nudism":"yes","operator":"Naturistenbund Frankenland e.V.","phone":"+49 1590 5276968","website":"https://www.nbf-wuerzburg.de/"}},"25537441":{"location":[50.0605298,10.1757278],"ct":"DE","tp":"CR","ts":"2014-02-08T19:36:41Z","tX":540,"tY":347,"tags":{"capacity":"30","email":"info@freizeit-reisch.de","fee":"no","name":"Reisemobilstellplatz Kirchweihplatz","phone":"+49 9723 91160","power_supply":"no"}},"42676235":{"location":[49.859103,10.1765216],"ct":"DE","tp":"CS","ts":"2023-07-26T18:53:13Z","tX":540,"tY":347,"tags":{"addr:city":"Volkach","addr:country":"DE","addr:housenumber":"9a","addr:postcode":"97332","addr:street":"An der Güß","addr:suburb":"Escherndorf","capacity":"70","caravans":"yes","contact:city":"Volkach","contact:email":"info@campingplatz-mainschleife.de","contact:housenumber":"9A","contact:phone":"+49 9381 2889","contact:postcode":"97332","contact:street":"An der Güß","contact:suburb":"Escherndorf","drinking_water":"yes","internet_access":"wlan","internet_access:fee":"no","name":"Campingplatz Escherndorf am Main","nudism":"no","operator":"Dagmar Sauer-Maier, Kirsten Maier","power_supply":"yes","reservation":"recommended","shower":"yes","tents":"yes","website":"https://www.campingplatz-mainschleife.de/"}},"219930700":{"location":[49.9190828,10.1788874],"ct":"DE","tp":"CR","ts":"2013-05-03T17:14:40Z","tX":540,"tY":347,"tags":{"fee":"yes","name":"Wohnmobilstellplatz Wipfeld","note":"5 EUR/Tag"}},"227484410":{"location":[50.0042251,9.9217424],"ct":"DE","tp":"CS","ts":"2023-12-03T08:23:33Z","tX":540,"tY":347,"tags":{"access":"private","capacity":"250","caravans":"no","charge":"2,50€","email":"Cornelia.Dietrich@Lramsp.de","fee":"yes","group_only":"yes","name":"Jugendzeltplatz Gut Erlasee","openfire":"yes","operator":"Landkreis Main-Spessart","phone":"+49 9353 793 1541","power_supply":"yes","reservation":"required","shower":"yes","tents":"yes","toilets":"yes","toilets:wheelchair":"yes","website":"https://www.main-spessart.de/themen/tourismus-kultur/neuer-ordner/664.Jugendzeltplaetze.html?detID=377","wheelchair":"yes"}},"245684813":{"location":[49.8738647,10.1640152],"ct":"DE","tp":"CR","ts":"2024-05-01T13:08:25Z","tX":540,"tY":347,"tags":{"capacity":"10","charge":"8€ (Stand 05/2024)","description":"Der Platz liegt im Überschwemmungsgebiet des Maines Nutzung nur zwischen 1.April bis 31.Oktober. Kosten für 24 Std 8€ Höchstparkdauer 72 Std. !!! Nur innerhalb der markierten Stellplätze !!!!","fee":"yes","internet_access":"no","name":"Wohnmobilstellplatz Fahr","opening_hours":"24/7","operator":"Stadt Volkach","power_supply":"no","sanitary_dump_station":"yes"}},"302652543":{"location":[49.9767287,9.9593647],"ct":"DE","tp":"CR","ts":"2022-08-13T14:22:54Z","tX":540,"tY":347,"tags":{"capacity":"6","contact:email":"poststelle@arnstein.bayern.de","contact:phone":"+49 9363 8010","fee":"yes","name":"Reisemobilstellplatz - Am Alten Schwimmbad","operator":"Stadt Arnstein","power_supply":"yes","sanitary_dump_station":"yes","water_point":"yes","website":"https://stadtarnstein.de/tourismus/","wheelchair":"yes"}},"368283791":{"location":[50.0633684,10.0092148],"ct":"DE","tp":"CS","ts":"2020-10-10T13:55:34Z","tX":540,"tY":347,"tags":{"capacity":"80","caravans":"no","contact:email":"stoerlein@wasserlosen.de","contact:phone":"+49 9726 906710","description":"Versorgungsgebäude Kochgelegenheit (Gas), Duschen und Toiletten getrennt nach Damen und Herren. Feuerstelle.","fee":"yes","group_only":"yes","name":"Zeltplatz Wülfershausen","operator":"Gemeinde Wasserlosen","tents":"yes","website":"https://www.wasserlosen.de/fileadmin/Dateien/Dateien/FlyerZelt.pdf"}},"420023026":{"location":[49.8878992,10.1782788],"ct":"DE","tp":"SD","ts":"2016-10-06T14:55:00Z","tX":540,"tY":347,"tags":{"description":"Abwasser Entsorgung"}},"437482051":{"location":[49.9706998,10.1742913],"ct":"DE","tp":"CR","ts":"2024-11-11T11:20:13Z","tX":540,"tY":347,"tags":{"addr:city":"Bergrheinfeld","addr:suburb":"Garstadt","capacity":"5","capacity:caravans":"12","description":"Enfacher Stellplatz direkt am Main ohne jede Ausstattung","fee":"no","name":"Einstiegsstelle Garstadt","note":"Um eine Spende wird gebeten - Einwurf an der Info Tafel","power_supply":"no","sanitary_dump_station":"no"}},"440491986":{"location":[49.8876462,10.1786133],"ct":"DE","tp":"CR","ts":"2023-03-14T19:15:35Z","tX":540,"tY":347,"tags":{"addr:city":"Eisenheim","addr:postcode":"97247","addr:street":"An der Mainaue","capacity":"80","contact:email":"helmut.jung@gmx.de","contact:phone":"+49 9386 282","fee":"yes","name":"Wohnmobilstellplatz Obereisenheim","power_supply":"yes","sanitary_dump_station":"yes","water_point":"yes","website":"http://www.stellplatz-obereisenheim.de"}},"441198171":{"location":[49.8937853,10.0633219],"ct":"DE","tp":"CR","ts":"2019-03-09T08:35:15Z","tX":540,"tY":347,"tags":{"website":"https://www.privat-weingut-schmitt.de/weingut/auf-dem-hof/index.html"}},"441245546":{"location":[49.8599387,10.1761204],"ct":"DE","tp":"CR","ts":"2024-04-07T13:47:04Z","tX":540,"tY":347,"tags":{"addr:street":"An der Güß","capacity":"25","fee":"yes","name":"Wohnmobilhafen \"Mainschleife\" Escherndorf","note":"Ab 16€ pro Nacht","operator":"Campingplatz","power_supply":"yes","sanitary_dump_station":"yes"}},"1133299054":{"location":[49.9682737,10.1729142],"ct":"DE","tp":"CR","ts":"2023-01-18T21:44:04Z","tX":540,"tY":347,"tags":{}},"1263790831":{"location":[49.8604844,10.1802166],"ct":"DE","tp":"CR","ts":"2024-03-24T08:49:16Z","tX":540,"tY":347,"tags":{"addr:city":"Nordheim am Main","addr:country":"DE","addr:postcode":"97334","addr:street":"Escherndorfer Weg","capacity":"50","caravans":"no","charge":"12 EUR","description":"Bezahlung am Automat ink. Ver- und Entsorgung","email":"info@nordheim-main.de","fee":"yes","maxstay":"3 days","name":"Wohnmobilstellplatz Nordheim","opening_hours":"Mar 01-Nov 30","operator":"Gemeinde Nordheim","power_supply":"yes","sanitary_dump_station":"yes","toilets":"yes","traffic_sign":"DE:314,1048-17","water_point":"yes"}},"3069015016":{"location":[49.9766226,9.9596383],"ct":"DE","tp":"SD","ts":"2018-01-08T16:42:33Z","tX":540,"tY":347,"tags":{"fee":"yes","sanitary_dump_station:chemical_toilet":"yes","sanitary_dump_station:gravity":"yes","sanitary_dump_station:grey_water":"yes","water_point":"yes"}},"5733510742":{"location":[50.039584,10.0989036],"ct":"DE","tp":"CS","ts":"2022-10-08T01:41:40Z","tX":540,"tY":347,"tags":{"name":"Hütte Egenhausen","website":"https://www.huette-egenhausen.de"}},"5760723510":{"location":[49.8581301,10.1716366],"ct":"DE","tp":"CR","ts":"2023-01-21T16:53:10Z","tX":540,"tY":347,"tags":{"capacity":"5","fee":"yes","name":"Wohnmobilstellplatz Laudenbach","operator":"Weinbau Laudenbach","phone":"+49 93811444","power_supply":"yes","sanitary_dump_station":"yes","tents":"no","water_point":"yes"}},"8236077521":{"location":[50.0588457,10.1360772],"ct":"DE","tp":"CR","ts":"2020-12-17T01:17:11Z","tX":540,"tY":347,"tags":{}},"4352947475":{"location":[49.9753887,10.1746795],"ct":"DE","tp":"SD","ts":"2016-08-16T18:22:31Z","tX":540,"tY":347,"tags":{"access":"yes","fee":"no","water_point":"yes"}},"4556951788":{"location":[49.8769283,10.1643163],"ct":"DE","tp":"SD","ts":"2016-12-16T10:39:25Z","tX":540,"tY":347,"tags":{"fee":"yes","name":"Sanitäre Entsorgungsanlage","note":"Entsorgung mit Parkticket Kostenlos - Wasserentnahme Kostenpflichtig nimmt alle Münzen","operator":"Stadt Volkach","water_point":"yes"}},"5071879149":{"location":[49.8600702,10.1805256],"ct":"DE","tp":"SD","ts":"2023-04-23T08:58:54Z","tX":540,"tY":347,"tags":{"access":"yes","fee":"no","operator":"Gemeinde Nordheim","water_point":"yes"}},"9599731595":{"location":[49.854998,10.1746386],"ct":"DE","tp":"SD","ts":"2022-03-23T12:58:53Z","tX":540,"tY":347,"tags":{"access":"yes","description":"Bei Frostgefahr wird das Wasser abgestellt. Entsorgung durchgehend möglich.","fee":"no","operator":"Gemeinde Nordheim","water_point":"yes"}}}