{"17378233":{"location":[49.7798155,9.9281885],"ct":"DE","tp":"CS","ts":"2024-03-23T21:03:26Z","tX":540,"tY":348,"tags":{}},"28808595":{"location":[49.803513,9.9186174],"ct":"DE","tp":"CR","ts":"2024-11-03T10:45:42Z","tX":540,"tY":348,"tags":{"capacity":"20","description":"Ist offiziell kein Wohnmobilstellplatz mehr. Parken auf eigene Gefahr max. Betrag 8€ für 24 Std.","drinking_water":"no","fee":"yes","lit":"yes","name":"Alter Hafen Außengelände","power_supply":"no","sanitary_dump_station":"no","toilets":"no"}},"34341115":{"location":[49.7308435,10.1684419],"ct":"DE","tp":"CS","ts":"2024-08-27T22:43:03Z","tX":540,"tY":348,"tags":{"addr:city":"Kitzingen","addr:country":"DE","addr:housenumber":"20","addr:postcode":"97318","addr:street":"Marktbreiter Straße","caravans":"yes","drinking_water":"yes","name":"Schiefer Turm","opening_hours":"Apr 1 - Oct 6","phone":"+49 9321 33125","power_supply":"yes","sanitary_dump_station":"yes","shower":"yes","tents":"yes","toilets":"yes","website":"https://www.camping-kitzingen.de"}},"58791225":{"location":[49.836413,9.869272],"ct":"DE","tp":"CR","ts":"2024-09-02T09:10:23Z","tX":540,"tY":348,"tags":{"access":"yes","capacity":"42","capacity:caravans":"5","drinking_water":"no","fee":"no","internet_access":"no","name":"Stellplatz am Güßgraben","operator":"Gemeinde Veitshöchheim","parking":"surface","permanent_camping":"no","power_supply":"no","sanitary_dump_station":"no","supervised":"no","toilets":"no","website":"https://www.frankentourismus.de/poi/wohnmobilstellplatz_veitshoech-3693/","wheelchair":"yes"}},"58802412":{"location":[49.8007875,10.1680929],"ct":"DE","tp":"CR","ts":"2022-09-27T18:25:57Z","tX":540,"tY":348,"tags":{"addr:city":"Dettelbach","addr:postcode":"97337","addr:street":"An der Mainlände","capacity":"60","capacity:caravans":"60","charge":"7€","contact:phone":"+49 9324 3560","description":"Strom und Wasser exclusive","fee":"yes","internet_access":"wlan","internet_access:fee":"no","name":"Wohnmobilstellplatz \"An der Mainlände\"","operator":"Stadt Dettelbach","power_supply":"yes","sanitary_dump_station":"yes","water_point":"yes","website":"https://www.dettelbach-entdecken.de/wohnmobilstellplatz-dettelbach"}},"62091482":{"location":[49.7442896,10.1625146],"ct":"DE","tp":"CR","ts":"2024-05-15T18:29:31Z","tX":540,"tY":348,"tags":{"capacity":"70","caravan_site":"motorhome_stopover","caravan_site:type":"river","caravans":"no","charge":"11 EUR/1 night","description":"WIFI offen, im Preis inbegriffen, gilt 3 Tage ab 1. LOGIN. Nutzername beim Kontrolleur erfragen, der kommt ca. 3 mal am Tag.","dog":"yes","fee":"yes","internet_access":"wlan","internet_access:fee":"no","maxlength":"9","maxstay":"3 days","name":"Wohnmobilstellplatz Kitzingen","operator":"Stadt Kitzingen","power_supply":"yes","power_supply:charge":"0.50 EUR/kWh","power_supply:fee":"yes","sanitary_dump_station":"yes","tents":"no","water_point":"yes","website":"https://www.kitzingen.info/tourismus/wohnmobilstellplatz/"}},"62938838":{"location":[49.7714435,10.1552213],"ct":"DE","tp":"CR","ts":"2023-01-18T18:01:20Z","tX":540,"tY":348,"tags":{"addr:city":"Mainstockheim","addr:postcode":"97320","addr:street":"Albertshöfer Straße","capacity":"70","caravans":"no","charge":"9.00 EUR/1 night","description":"Gebühr ist beim Fährmann oder Kontrolleur zu entrichten, beinhaltet Strom, Wasser, Ver- u. Entsorgung sowie Freies WLAN.","dog":"yes","fee":"yes","internet_access":"wlan","internet_access:fee":"no","name":"Wohnmobilhafen Mainstockheim","power_supply":"yes","sanitary_dump_station":"yes","surface":"unpaved","tents":"no","water_point":"yes"}},"104980605":{"location":[49.7435764,9.9839404],"ct":"DE","tp":"CS","ts":"2023-06-28T03:32:45Z","tX":540,"tY":348,"tags":{"addr:city":"Würzburg","addr:country":"DE","addr:housenumber":"180","addr:postcode":"97084","addr:street":"Winterhäuser Straße","caravans":"yes","email":"info@kalte-quelle.de","name":"Campingplatz Kalte Quelle","phone":"+49 931 65598","tents":"yes","website":"https://www.kalte-quelle.de/"}},"112368454":{"location":[49.6705175,10.1438344],"ct":"DE","tp":"CR","ts":"2018-09-06T12:28:06Z","tX":540,"tY":348,"tags":{"capacity":"10","contact:email":"info@goldenen-anker-segnitz.de","contact:phone":"+49 9332 3079","fee":"yes","name":"Zum Goldenen Anker","power_supply":"yes","sanitary_dump_station":"yes","water_point":"yes","website":"https://goldenen-anker-segnitz.de/uebernachten/wohnmobilstellplatz/"}},"116624892":{"location":[49.7729349,10.1571755],"ct":"DE","tp":"CR","ts":"2023-01-18T18:01:20Z","tX":540,"tY":348,"tags":{"addr:city":"Albertshofen","addr:postcode":"97320","addr:street":"Mainstraße","capacity":"18","caravans":"no","charge":"9€","dog":"yes","fee":"yes","name":"Wohnmobilhafen Albertshofen","note":"Kosten incl. Ver. und Entsorgung","operator":"Gemeinde Albertshofen","power_supply":"yes","sanitary_dump_station":"yes","tents":"no","water_point":"yes","website":"http://www.zum-anker-albertshofen.de/wohnmobilhafen/","wheelchair":"limited"}},"119638451":{"location":[49.6642736,10.0966361],"ct":"DE","tp":"CS","ts":"2017-02-21T15:35:28Z","tX":540,"tY":348,"tags":{"addr:city":"Ochsenfurt","addr:housenumber":"265","addr:postcode":"97199","addr:street":"Marktbreiter Straße","email":"info@camping-polisina.de","name":"Campingplatz Polisina","phone":"+49 9331 844-0","website":"http://www.camping-polisina.de/"}},"128728290":{"location":[49.6687284,10.0756375],"ct":"DE","tp":"CS","ts":"2023-04-15T16:14:45Z","tX":540,"tY":348,"tags":{"addr:city":"Frickenhausen","addr:housenumber":"49","addr:postcode":"97252","addr:street":"Ochsenfurter Straße","caravans":"yes","email":"frickenhausen@knauscamp.de","name":"Campingpark Frickenhausen","operator":"Knaus","phone":"+49 9331 3171","shower":"yes","stars":"4","tents":"yes","toilets":"yes","website":"https://www.knauscamp.de/frickenhausen.html"}},"138584463":{"location":[49.7314158,9.9875696],"ct":"DE","tp":"CR","ts":"2023-06-28T03:32:45Z","tX":540,"tY":348,"tags":{"addr:city":"Eibelstadt","addr:country":"DE","addr:postcode":"97246","addr:street":"Mainparkring","capacity":"90","charge":"12€","contact:email":"info@wsc-eibelstadt.de","contact:mobile":"+49 173 6350339","contact:phone":"+49 9303 9849584","description":"Im Übernachtungs Betrag ist Strom Ver und Entsorgung incl.Fahrzeuge über 7 mtr Kosten 15€","fee":"yes","name":"Reisemobilstellplatz WSC Eibelstadt","operator":"Wassersportclub Eibelstadt","power_supply":"yes","sanitary_dump_station":"yes","surface":"grass","water_point":"yes","website":"https://www.wsc-eibelstadt.de/"}},"237501176":{"location":[49.759888,9.9780296],"ct":"DE","tp":"CR","ts":"2024-02-23T08:21:24Z","tX":540,"tY":348,"tags":{"addr:city":"Randersacker","addr:country":"DE","addr:housenumber":"22","addr:postcode":"97236","addr:street":"Würzburger Straße","contact:email":"info@winzerhof-und-gaestezimmer.de","contact:phone":"+49 931 700502","drinking_water":"yes","fee":"yes","name":"Winzerhof","operator":"Winzerhof Anton Schmachtenberger","power_supply":"yes","sanitary_dump_station":"yes","toilets":"no","water_point":"yes","website":"http://www.winzerhof-und-gaestezimmer.de/wohnmobilstellplaetze.html"}},"356051496":{"location":[49.6725394,10.1501072],"ct":"DE","tp":"CR","ts":"2021-11-13T17:06:42Z","tX":540,"tY":348,"tags":{"addr:city":"Marktbreit","addr:housenumber":"1","addr:postcode":"97340","addr:street":"Marktstefter Straße","capacity":"18","charge":"7.50 EUR/24 hours","contact:phone":"+49 9332 591595","description":"Stromsäulen vorhanden 50cent kwh am Automat - Parkgebühr ebenfalls am Automat mit allen Münzen bezahlbar.","fee":"yes","internet_access":"wlan","name":"An den Mainwiesen","operator":"Stadt Marktbreit","payment:coins":"only","power_supply":"yes","sanitary_dump_station":"yes","water_point":"yes","website":"https://www.marktbreit.de/freizeit-tourismus/tourist-information/wohnmobilstellplatz"}},"438623190":{"location":[49.6592184,10.1657102],"ct":"DE","tp":"CR","ts":"2023-01-28T16:10:08Z","tX":540,"tY":348,"tags":{"capacity":"10","contact:phone":"+49 9332 1403","fee":"yes","name":"Pröschelwiese","operator":"Markt Obernbreit","power_supply":"yes","sanitary_dump_station":"no","water_point":"yes","website":"https://www.fraenkisches-weinland.de/unterkunft/wohnmobilstellplatz_an_der_pro-237/"}},"491932558":{"location":[49.7980219,9.92317],"ct":"DE","tp":"CR","ts":"2024-11-02T10:56:14Z","tX":540,"tY":348,"tags":{"charge":"15€","drinking_water":"no","fee":"yes","internet_access":"no","name":"Friedensbrücke","parking":"surface","power_supply":"yes","sanitary_dump_station":"yes","toilets":"no","wheelchair":"yes"}},"696215589":{"location":[49.7731347,10.1546212],"ct":"DE","tp":"CS","ts":"2019-10-01T19:42:01Z","tX":540,"tY":348,"tags":{"addr:city":"Mainstockheim","addr:postcode":"97320","addr:street":"Albertshöfer Straße","name":"M.Y.C. Ansbach"}},"774070198":{"location":[49.7427897,10.1647804],"ct":"DE","tp":"SD","ts":"2024-05-15T18:29:31Z","tX":540,"tY":348,"tags":{"access":"yes","description":"Holiday Clean mit Ver- und Entsorgung; Versorgung gegen Gebühr mit 10, 20, 50 1 und 2 €","fee":"no","motorhome":"designated","operator":"Stadt Kitzingen","sanitary_dump_station:chemical_toilet":"yes","sanitary_dump_station:fee":"no","sanitary_dump_station:gravity":"yes","sanitary_dump_station:grey_water":"yes","water_point":"no"}},"935884245":{"location":[49.7055301,10.0420699],"ct":"DE","tp":"CS","ts":"2024-09-13T10:18:41Z","tX":540,"tY":348,"tags":{"group_only":"yes","name":"Tipi-Zeltplatz der Umweltsation Tierpark Sommerhausen","operator":"Tierpark Sommerhausen","reservation":"required","sanitary_dump_station":"no","tents":"no"}},"1106451401":{"location":[49.7348595,10.1209097],"ct":"DE","tp":"CR","ts":"2024-03-15T08:35:29Z","tX":540,"tY":348,"tags":{"access":"permit","addr:city":"Kitzingen","addr:country":"DE","addr:housenumber":"115","addr:postcode":"97318","addr:street":"Kaltensondheimer Straße","description":"Weingut mit Restaurant. Große Stellplatzwiese. 9 Euro/Nacht incl. Strom. (Okt. 22). Vorherige Anmeldung empfohlen.","email":"info@weingut-hassold.de","fee":"yes","name":"Wohnmobilstellplatz \"Weingut Eherieder Mühle\"","phone":"+49 9321 24464","power_supply":"yes","website":"https://shop.weingut-hassold.de/"}},"1116479924":{"location":[49.7796496,9.9761444],"ct":"DE","tp":"CR","ts":"2024-07-05T17:10:13Z","tX":540,"tY":348,"tags":{"addr:city":"Gerbrunn","addr:country":"DE","addr:housenumber":"23","addr:postcode":"97218","addr:street":"Sieboldstraße","capacity:caravans":"4","fee":"no","note":"Frischwasser und Abwasser nur in der frostfreien Periode","power_supply":"yes","website":"https://gerbrunn.de/leben-in-gerbrunn/wohnmobilparkplaetze/"}},"1157724577":{"location":[49.8293689,10.1750175],"ct":"DE","tp":"CR","ts":"2023-03-27T16:05:03Z","tX":540,"tY":348,"tags":{"charge":"10€","fee":"yes","name":"Stellplatz Weinbau Düll","power_supply":"yes","website":"https://weinbau-duell.de/uebernachtungen/"}},"1190353250":{"location":[49.7798155,9.928922],"ct":"DE","tp":"CS","ts":"2024-06-27T17:02:52Z","tX":540,"tY":348,"tags":{"addr:city":"Würzburg","addr:housenumber":"13B","addr:postcode":"97082","addr:street":"Mergentheimer Straße","backcountry":"no","caravans":"yes","contact:email":"campingplatz@kc-wuerzburg.de","contact:phone":"+49 931 72536","contact:website":"https://www.kc-wuerzburg.de/camping-gastst%C3%A4tte/","group_only":"no","internet_access":"no","landuse":"grass","name":"Kanu-Club","operator":"Kanu-Club Würzburg e.V.","shower":"yes","tents":"yes","toilets":"yes"}},"1242515508":{"location":[49.7982145,9.9050757],"ct":"DE","tp":"CS","ts":"2024-01-24T14:34:49Z","tX":540,"tY":348,"tags":{"addr:street":"Schulring (SFSW)","caravans":"yes","static_caravans":"yes"}},"1270898093":{"location":[49.6965124,10.0263964],"ct":"DE","tp":"CR","ts":"2024-04-08T14:07:55Z","tX":540,"tY":348,"tags":{"addr:city":"Sommerhausen","addr:postcode":"97286","addr:street":"Sandtal","name":"Steinmanns Töchter Wohnmobilstellplatz Sommerhausen","power_supply":"yes","website":"https://www.steinmanns-toechter.de/wohnmobilstellplatz"}},"1293503873":{"location":[49.6659545,10.1218005],"ct":"DE","tp":"CR","ts":"2024-06-18T19:31:22Z","tX":540,"tY":348,"tags":{}},"1706135245":{"location":[49.6701123,10.1424259],"ct":"DE","tp":"CR","ts":"2012-04-12T03:27:44Z","tX":540,"tY":348,"tags":{"fee":"no","wheelchair":"yes"}},"3442591732":{"location":[49.7579074,9.9802476],"ct":"DE","tp":"CR","ts":"2015-04-07T10:21:08Z","tX":540,"tY":348,"tags":{"capacity":"1","fee":"no","power_supply":"no","tents":"no"}},"3664270313":{"location":[49.7734534,10.1577637],"ct":"DE","tp":"SD","ts":"2018-11-04T12:56:25Z","tX":540,"tY":348,"tags":{"access":"customers","fee":"no","operator":"Albertshofen","sanitary_dump_station:chemical_toilet":"yes","sanitary_dump_station:fee":"no","sanitary_dump_station:gravity":"yes","sanitary_dump_station:grey_water":"yes","water_point":"yes"}},"3664970600":{"location":[49.7725842,10.1550138],"ct":"DE","tp":"SD","ts":"2019-04-17T07:42:24Z","tX":540,"tY":348,"tags":{"access":"customers","fee":"no","sanitary_dump_station:chemical_toilet":"yes","sanitary_dump_station:gravity":"yes","sanitary_dump_station:grey_water":"yes","water_point":"yes"}},"6418067480":{"location":[49.8297305,10.1759618],"ct":"DE","tp":"CR","ts":"2019-04-20T15:44:43Z","tX":540,"tY":348,"tags":{"fee":"yes","name":"Stellplatz am Weingut Mangold"}},"7688430381":{"location":[49.7708885,10.154977],"ct":"DE","tp":"CR","ts":"2023-08-20T14:54:06Z","tX":540,"tY":348,"tags":{"name":"Stellplatz Ausweichfläche","toilets":"no"}},"8151739371":{"location":[49.7022962,10.1267375],"ct":"DE","tp":"CR","ts":"2021-08-16T14:58:14Z","tX":540,"tY":348,"tags":{"capacity":"6","contact:phone":"+49 9321 24270","fee":"yes","internet_access":"wlan","name":"Weingut Bernard","opening_hours":"24/7","operator":"Weingut Bernard","power_supply":"cee_17_blue","sanitary_dump_station":"yes","water_point":"yes","website":"https://www.weingut-bernard.de/wohnmobilstellplatz.html"}},"10727299092":{"location":[49.7027692,10.1256861],"ct":"DE","tp":"CR","ts":"2023-03-11T09:19:47Z","tX":540,"tY":348,"tags":{"name":"Weingut Staudt"}},"4356362999":{"location":[49.6721252,10.1501738],"ct":"DE","tp":"SD","ts":"2019-08-18T18:35:39Z","tX":540,"tY":348,"tags":{"description":"Sanitäre Entsorgungsanlage","fee":"no","operator":"Gemeinde Marktbreit","water_point":"yes"}},"5071858795":{"location":[49.7448162,10.1622421],"ct":"DE","tp":"SD","ts":"2017-08-31T16:22:49Z","tX":540,"tY":348,"tags":{"access":"yes","fee":"no","note":"Wasser Entnahme gegen Gebühr","operator":"Stadt Kitzingen","water_point":"yes"}},"5682206851":{"location":[49.7316526,9.9874641],"ct":"DE","tp":"SD","ts":"2022-09-08T14:01:34Z","tX":540,"tY":348,"tags":{"access":"customers","description":"Entsorgung Kostenlos für Besucher - für Fremdfahrzeuge 3,50€ - Wasser auch in Kleinmengen erhältlich","operator":"WSC Eibelstadt","water_point":"yes"}},"9458538494":{"location":[49.8011248,10.1676285],"ct":"DE","tp":"SD","ts":"2024-10-06T12:10:19Z","tX":540,"tY":348,"tags":{"access":"yes","fee":"yes","operator":"Dettelbach","payment:cash":"yes","water_point":"yes"}},"11207590055":{"location":[49.779817,9.9762403],"ct":"DE","tp":"SD","ts":"2023-09-21T12:09:44Z","tX":540,"tY":348,"tags":{"water_point":"yes"}},"11300389617":{"location":[49.7975884,9.9227186],"ct":"DE","tp":"SD","ts":"2024-11-02T10:56:14Z","tX":540,"tY":348,"tags":{"fee":"yes"}},"11990804689":{"location":[49.6658641,10.1216562],"ct":"DE","tp":"SD","ts":"2024-06-18T19:31:22Z","tX":540,"tY":348,"tags":{}}}