{"997922731":{"location":[48.5018051,10.1218509],"ct":"DE","tp":"CR","ts":"2024-08-19T12:27:38Z","tX":540,"tY":353,"tags":{"addr:city":"Langenau","addr:housenumber":"27","addr:postcode":"89129","addr:street":"Karlstraße","capacity":"4","caravans":"no","dog":"yes","fee":"no","internet_access":"no","name":"Wohnmobilstellplätze Langenau","operator":"Stadt Langenau","power_supply":"yes","sanitary_dump_station":"yes","shower":"no","toilets":"no","website":"https://www.langenau.de/de/Erleben/Zu-Besuch/uebernachten/Gastgeber?view=publish&item=lodgingHost&id=1017au.de/de/04_tourismus/04.03_hotels_gaststaetten/c_detail.php?id=43"}},"1006230293":{"location":[48.6178139,10.173251],"ct":"DE","tp":"CR","ts":"2025-01-31T21:00:28Z","tX":540,"tY":353,"tags":{"addr:city":"Herbrechtingen","addr:housenumber":"25","addr:postcode":"89542","addr:street":"Baumschulenweg","capacity":"4","caravan_site":"motorhome_stopover","caravan_site:type":"swimming_pool;town","caravans":"no","fee":"yes","internet_access":"no","lit":"yes","maxstay":"3 days","name":"Wohnmobilstellplatz Eselsburger Tal","opening_hours":"24/7","operator":"Stadtverwaltung Herberechtingen","phone":"+49 7324 9550","power_supply":"yes","sanitary_dump_station":"yes","shower":"no","start_date":"2021","tents":"no","toilets":"yes","water_point":"yes","website":"https://www.herbrechtingen.de/Startseite/kultur+_+freizeit/wohnmobilstellplatz.html"}},"3416510750":{"location":[48.5284078,10.1481652],"ct":"DE","tp":"CR","ts":"2024-01-27T08:44:51Z","tX":540,"tY":353,"tags":{"addr:city":"Öllingen","addr:country":"DE","addr:housenumber":"42","addr:postcode":"89129","addr:street":"Hauptstraße","capacity":"4","drinking_water":"yes","fee":"no","name":"Wohnmobilstellplätze Öllingen","note":"Ein Stromanschluss ist nur nach vorheriger Reservierung gegen eine Gebühr möglich","operator":"Gemeinde Öllingen","power_supply":"yes","tents":"no","waste":"grey_water","website":"https://www.oellingen.de/sehenswuerdigkeiten/camperparkplatz.php"}},"6512490677":{"location":[48.5790017,9.8707678],"ct":"DE","tp":"CR","ts":"2025-01-02T13:44:59Z","tX":540,"tY":353,"tags":{"addr:city":"Amstetten","addr:postcode":"73340","addr:street":"Industriestraße","capacity":"4","caravan_site":"motorhome_stopover","caravan_site:type":"village","caravans":"no","drinking_water":"yes","fee":"no/1 night","maxstay":"4 days","name":"Wohnmobilstellplatz Lonetalstraße - Amstetten","power_supply":"yes","sanitary_dump_station":"no","shower":"no","tents":"no","toilets":"no"}},"9214173218":{"location":[48.5018731,10.1217876],"ct":"DE","tp":"SD","ts":"2024-12-05T20:28:08Z","tX":540,"tY":353,"tags":{}},"11998628500":{"location":[48.617813,10.1729608],"ct":"DE","tp":"SD","ts":"2024-06-21T09:38:09Z","tX":540,"tY":353,"tags":{}}}