{"302956554":{"location":[48.3929849,9.9902062],"ct":"DE","tp":"CS","ts":"2024-07-20T20:26:13Z","tX":540,"tY":354,"tags":{"camp_site":"standard","caravans":"no","charge":"10.00 EUR","description":"Toiletten vom Restaurant können benutzt werden. Duschen nach Eingangstür links in Korridor. Nach 20 Uhr muss Code an Tür eingegeben werden.","email":"info@ukf-ulm.de","fax":"+49 731 85267","fee":"yes","internet_access":"wlan","kitchen":"yes","motor_vehicle":"no","name":"Zeltplatz Kanufahrer","note":"Relativ laut nachts durch die Güterzüge.","openfire":"yes","operator":"Ulmer Kanufahrer e.V.","payment:cash":"yes","phone":"+49 731 85267","shower":"yes","tents":"yes","toilets":"yes","washing_machine":"yes","website":"https://www.ukf-ulm.de/Zeltplatz/Preise/","wheelchair":"limited"}},"440356605":{"location":[48.2904829,9.8495509],"ct":"DE","tp":"CS","ts":"2021-05-26T14:41:14Z","tX":540,"tY":354,"tags":{"addr:city":"Erbach","addr:housenumber":"4","addr:postcode":"89155","addr:street":"Rißtisser Straße","camp_site":"standard","capacity":"10","caravans":"yes","email":"info@greiff-ersingen.de","fee":"yes","name":"Zeltplatz beim Gasthof Hirsch","operator":"Gasthof Hirsch / Familie Greiff","phone":"+49 7305 4160","playground":"yes","restaurant":"yes","tents":"yes","website":"https://www.greiff-ersingen.de/camping/"}},"799093247":{"location":[48.3832034,9.9856562],"ct":"DE","tp":"CR","ts":"2025-01-29T11:55:13Z","tX":540,"tY":354,"tags":{"addr:city":"Neu-Ulm","addr:country":"DE","addr:housenumber":"6","addr:postcode":"89231","addr:street":"Öschweg","capacity":"49","contact:email":"womo@donaubad.de","contact:fax":"+49 731 98599-29","contact:phone":"+49 731 98599-20","fee":"yes","internet_access":"wlan","internet_access:fee":"customers","name":"Wohnmobilstellplatz am Donaubad","operator":"Donaubad Ulm / Neu-Ulm GmbH","power_supply":"yes","sanitary_dump_station":"yes","start_date":"2020-06-25","tents":"no","water_point":"yes","website":"https://www.donaubad.de/womo/"}},"851170593":{"location":[48.2298779,9.8876627],"ct":"DE","tp":"CR","ts":"2025-01-02T10:53:21Z","tX":540,"tY":354,"tags":{"capacity":"7","caravan_site":"motorhome_stopover","caravan_site:type":"town","fee":"yes","internet_access":"no","name":"Reisemobilplatz Schloss Grosslaupheim","operator":"Stadt Laupheim","power_supply":"yes","sanitary_dump_station":"yes","tents":"no","water_point":"yes","wheelchair":"yes"}},"1175438382":{"location":[48.2943248,9.8634318],"ct":"DE","tp":"CS","ts":"2025-05-14T21:47:34Z","tX":540,"tY":354,"tags":{"capacity:persons":"30","caravans":"no","group_only":"yes","internet_access":"no","name":"Zeltplatz DLRG","opening_hours":"May 15-Sep 15","operator":"DLRG","phone":"+49 7305 3539","shower":"yes","static_caravans":"no","tents":"yes","toilets":"yes","website":"https://oberdischingen-erbach.dlrg.de/zeltplatz/"}},"1187204450":{"location":[48.3432104,9.9155421],"ct":"DE","tp":"CS","ts":"2023-07-04T08:00:54Z","tX":540,"tY":354,"tags":{"access":"private"}},"1225888311":{"location":[48.3229095,9.8949361],"ct":"DE","tp":"CR","ts":"2024-03-03T22:04:06Z","tX":540,"tY":354,"tags":{"name":"Wohnmobilstellplatz Erbach","parking":"surface","power_supply":"yes","water_supply":"yes"}},"1309361391":{"location":[48.4179619,9.9165815],"ct":"DE","tp":"CR","ts":"2024-04-16T11:42:19Z","tX":540,"tY":354,"tags":{"capacity":"3","drinking_water":"no","fee":"no","name":"Wohnmobilstellplätze Blaustein","power_supply":"no","sanitary_dump_station":"no","tents":"no","toilets":"no","waste":"no"}},"1347969471":{"location":[48.4305109,10.1407798],"ct":"DE","tp":"PK","ts":"2025-01-02T12:43:17Z","tX":540,"tY":354,"tags":{"motorhome":"yes","parking":"surface","surface":"gravel"}},"3887524522":{"location":[48.2298636,9.8877014],"ct":"DE","tp":"CR","ts":"2022-03-24T07:35:29Z","tX":540,"tY":354,"tags":{"capacity":"7","fee":"yes","noname":"yes","operator":"Stadt Laupheim","power_supply":"yes","wheelchair":"yes"}},"9806489771":{"location":[48.3909006,9.9883278],"ct":"DE","tp":"CS","ts":"2022-09-09T21:31:23Z","tX":540,"tY":354,"tags":{"addr:city":"Neu-Ulm","addr:housenumber":"5","addr:postcode":"89231","addr:street":"Bootshausstraße","caravans":"no","drinking_water":"yes","fee":"yes","internet_access":"wlan","kitchen":"yes","name":"Ulmer Paddler e.V. Zeltwiese","openfire":"yes","operator":"Ulmer Paddler e.V.","power_supply":"yes","shower":"yes","tents":"yes","toilets":"yes","washing_machine":"yes","website":"https://ulmer-paddler.de/camping-anmeldung.html"}},"12186397832":{"location":[48.4303396,10.1405914],"ct":"DE","tp":"CR","ts":"2025-01-02T12:43:17Z","tX":540,"tY":354,"tags":{"capacity":"4","caravan_site":"motorhome_stopover","caravan_site:type":"lake;village","fee":"no","internet_access":"no","name":"Wohnmobilstellplatz Nersingen","power_supply":"no","reservation":"no","sanitary_dump_station":"no","surface":"gravel","toilets":"no","water_point":"no","website":"https://www.landkreis.neu-ulm-tourismus.de/hotel/wohnmobil-stellplatz-nersingen"}},"9779423476":{"location":[48.3833431,9.9862374],"ct":"DE","tp":"SD","ts":"2022-05-29T15:20:50Z","tX":540,"tY":354,"tags":{"fee":"no"}},"11866884631":{"location":[48.2999426,10.160192],"ct":"DE","tp":"SD","ts":"2024-04-29T17:20:40Z","tX":540,"tY":354,"tags":{}}}