{"75529012":{"location":[48.1374284,10.1034591],"ct":"DE","tp":"CS","ts":"2022-01-22T17:58:48Z","tX":540,"tY":355,"tags":{"addr:city":"Kirchberg an der Iller","addr:country":"DE","addr:housenumber":"6","addr:postcode":"88486","addr:street":"Werte","addr:suburb":"Werte","caravans":"yes","dryer":"yes","email":"kontakt@camping-christophorus.de","fax":"+49 7354 91314","internet_access":"wlan","name":"Campingplatz Christophorus","phone":"+49 7354 663","power_supply":"yes","tents":"yes","washing_machine":"yes","website":"https://www.camping-christophorus.de/"}},"107414157":{"location":[47.9927444,10.1357166],"ct":"DE","tp":"CS","ts":"2024-06-27T21:05:46Z","tX":540,"tY":355,"tags":{"addr:city":"Buxheim","addr:country":"DE","addr:housenumber":"7","addr:postcode":"87740","addr:street":"Am Weiherhaus","caravans":"yes","dryer":"yes","email":"info@camping-buxheim.de","fax":"+49 8331 63554","name":"Camping am See International","phone":"+49 8331 71800","power_supply":"yes","tents":"yes","washing_machine":"yes","website":"https://www.camping-buxheim.de/"}},"124437702":{"location":[48.2109203,10.088168],"ct":"DE","tp":"CS","ts":"2025-03-27T08:48:51Z","tX":540,"tY":355,"tags":{"addr:city":"Illertissen","addr:country":"DE","addr:housenumber":"91","addr:postcode":"89257","addr:street":"Dietenheimer Straße","contact:phone":"+49 7303 7888","contact:website":"http://www.camping-illertissen.de/","name":"Camping Illertissen","operator":"Hans und Priska Steinhart"}},"245132826":{"location":[47.9955925,10.1823693],"ct":"DE","tp":"CR","ts":"2023-11-09T11:27:04Z","tX":540,"tY":355,"tags":{"drinking_water":"no","fee":"yes","name":"Städtischer Wohnmobilparkplatz","power_supply":"yes","surface":"asphalt","toilets":"no","water_supply":"yes"}},"489540191":{"location":[48.0667915,9.9494932],"ct":"DE","tp":"CR","ts":"2025-01-02T10:17:49Z","tX":540,"tY":355,"tags":{"capacity":"5","caravan_site":"motorhome_stopover","caravan_site:type":"town","fee":"no","name":"Reisemobilstellplatz An der Kapfhalle - Ochsenhausen","sanitary_dump_station":"no","surface":"gravel","website":"https://www.oberschwaben-tourismus.de/unterkuenfte/reisemobilstellplatz-an-der-kapfhalle-57b53d4fe9"}},"1009157616":{"location":[47.9973156,9.912899],"ct":"DE","tp":"CS","ts":"2024-05-23T17:32:20Z","tX":540,"tY":355,"tags":{"capacity":"250","group_only":"yes","name":"Holzweiher","operator":"BDP Baden-Württemberg","website":"https://www.bawue.bdp.org/haeuser-zeltplatz/zeltplatz"}},"6454446371":{"location":[48.0899083,10.0724321],"ct":"DE","tp":"CR","ts":"2025-01-02T10:44:05Z","tX":540,"tY":355,"tags":{"capacity":"2","caravan_site":"motorhome_stopover","caravan_site:type":"village","caravans":"no","fee":"no","internet_access":"no","name":"Wohnmobilstellplatz Erolzheim","power_supply":"no","sanitary_dump_station":"no","shower":"no","surface":"asphalt","tents":"no","toilets":"no","water_point":"no","website":"https://www.erolzheim.de"}},"9892899419":{"location":[47.9954302,10.1825304],"ct":"DE","tp":"SD","ts":"2022-07-17T08:55:23Z","tX":540,"tY":355,"tags":{"name":"Stadtpark Neue Welt","opening_hours":"24/7"}}}