{"25629562":{"location":[47.9489028,10.0858319],"ct":"DE","tp":"CS","ts":"2024-12-09T11:44:50Z","tX":540,"tY":356,"tags":{"access":"customers","addr:city":"Aitrach","addr:country":"DE","addr:housenumber":"57","addr:postcode":"88319","addr:street":"Illerstraße","caravans":"yes","drinking_water":"yes","dryer":"yes","email":"info@camping-iller.de","fax":"+49 7565 5222","name":"Park-Camping Iller","opening_hours":"Apr 1-Oct 15","phone":"+49 7565 5419","power_supply":"yes","sanitary_dump_station":"yes","shower":"yes","tents":"yes","toilets":"yes","washing_machine":"yes","website":"https://www.camping-iller.de/"}},"28221657":{"location":[47.7957368,9.8796325],"ct":"DE","tp":"CR","ts":"2023-10-03T17:38:13Z","tX":540,"tY":356,"tags":{"addr:city":"Kißlegg","addr:postcode":"88353","addr:street":"Strandbadweg","capacity":"24","fee":"yes","internet_access":"no","name":"Kißlegg Strandbad","operator":"Stadt Kißlegg","payment:coins":"yes","payment:notes":"yes","payment:sms":"EasyPark","power_supply":"yes","sanitary_dump_station":"yes","toilets":"no","water_point":"yes","website":"https://www.kisslegg.de/gaeste/planen-buchen/wohnmobilstellplatz"}},"32762018":{"location":[47.9145843,9.9037703],"ct":"DE","tp":"CR","ts":"2023-06-16T16:06:22Z","tX":540,"tY":356,"tags":{"addr:city":"Bad Wurzach","addr:housenumber":"1","addr:postcode":"88410","addr:street":"An der Thermalquelle","capacity":"26","caravans":"no","contact:email":"service@bad-wurzach.de","contact:phone":"+49 7564 302150","internet_access":"wlan","maxstay":"no","name":"Stellplatz am Wurzacher Ried","operator":"Stadt Bad Wurzach","payment:cash":"no","payment:debit_cards":"yes","payment:maestro":"yes","payment:mastercard":"yes","payment:v_pay":"yes","payment:visa":"yes","power_supply":"yes","sanitary_dump_station":"yes","start_date":"2023-06-16","water_point":"yes","website":"https://www.bad-wurzach.de/tourismus/de/unterkuenfte/wohnmobilstellplatz#/collection/86083809-9bf5-4bbc-b5c7-8be3d02cd114","wheelchair":"yes"}},"74141619":{"location":[47.7787184,10.00493],"ct":"DE","tp":"CS","ts":"2021-08-18T09:54:12Z","tX":540,"tY":356,"tags":{"camp_site":"reception","capacity":"200","contact:city":"Leutkirch im Allgäu","contact:housenumber":"2","contact:postcode":"88299","contact:street":"Moorbad","email":"info@campingmoorbad.de","fax":"+49 7561 906895","internet_access":"yes","internet_access:fee":"no","name":"Camping Moorbad Riedle","opening_hours":"Apr 15-Oct 15","operator":"Familie Riedle","phone":"+49 7561 3345","power_supply":"yes","tents":"yes","website":"http://campingmoorbad.de"}},"241706166":{"location":[47.82216,10.0394746],"ct":"DE","tp":"CR","ts":"2025-03-25T09:41:23Z","tX":540,"tY":356,"tags":{"addr:city":"Leutkirch im Allgäu","addr:country":"DE","addr:housenumber":"62","addr:postcode":"88299","addr:street":"Kemptener Straße","capacity":"14","caravan_site":"motorhome_stopover","caravans":"no","charge":"12 EUR","contact:phone":"+49 7561 87154","fee":"yes","internet_access":"yes","maxstay":"unlimited","name":"Wohnmobilstellplatz Leutkirch","payment:coins":"yes","payment:coins:denominations":"0.10 EUR;0.20 EUR;0.50 EUR;1 EUR;2 EUR","payment:maestro":"yes","payment:mastercard":"yes","payment:notes":"no","payment:v_pay":"yes","payment:visa":"yes","power_supply":"yes","power_supply:current":"16","sanitary_dump_station":"yes","socket:cee_blue":"yes","tents":"no","toilets":"no","water_point":"yes","website":"https://www.leutkirch.de/de/Urlaub/uebernachten/Wohnmobilstellplatz","wheelchair":"yes"}},"355960345":{"location":[47.8540492,10.1464684],"ct":"DE","tp":"CS","ts":"2022-04-11T20:21:42Z","tX":540,"tY":356,"tags":{"name":"Umweltstation Unterallgäu","website":"https://www.bzu.de/umweltstation-unterallgaeu/"}},"541772333":{"location":[47.8158251,9.9544357],"ct":"DE","tp":"CS","ts":"2025-03-25T08:09:38Z","tX":540,"tY":356,"tags":{"addr:city":"Leutkirch im Allgäu","addr:country":"DE","addr:housenumber":"13","addr:postcode":"88299","addr:street":"Campingweg","addr:suburb":"Herlazhofen","capacity:caravans":"5","capacity:tents":"15","dog":"no","gas":"yes","name":"Campingplatz am Ellerazhofer Weiher","operator":"RoBa Camping GmbH","phone":"+49 7563 7018","power_supply":"yes","shower":"hot","toilets":"yes","website":"https://www.robacamping.de/"}},"817669549":{"location":[47.7819917,10.0036259],"ct":"DE","tp":"CS","ts":"2021-08-18T09:54:12Z","tX":540,"tY":356,"tags":{"capacity":"100","caravans":"yes","contact:city":"Leutkirch im Allgäu","contact:housenumber":"7","contact:postcode":"88299","contact:street":"Naturweiher Herlazhofen","dryer":"yes","fax":"+49 7561 914388","name":"Camping Naturweiher Moorbad","opening_hours":"Apr 1-Oct 15","phone":"+49 7561 5513","power_supply":"yes","tents":"yes","washing_machine":"yes","website":"https://www.naturweiher.de/"}},"1218601006":{"location":[47.8596171,10.1338199],"ct":"DE","tp":"CR","ts":"2025-04-15T09:51:15Z","tX":540,"tY":356,"tags":{"addr:city":"Legau","addr:postcode":"87764","addr:street":"Rapunzelstraße","capacity":"10","caravan_site":"motorhome_stopover","caravan_site:type":"supermarket","charge":"15 EUR","check_in":"10:00-16:30","check_out":"08:00-10:00","dog":"no","fee":"yes","name":"Rapunzel Wohnmobilstellplatz","opening_hours":"00:00-24:00; Su off; Mo 00:00-08:00; Sa 00:00-10:00","operator":"Rapunzel","phone":"+49 8330 529","power_supply":"yes","reservation":"no","sanitary_dump_station":"no","surface":"grass","website":"https://www.rapunzelwelt.de/de/besuchen/pilgerherberge#camping"}},"1346969836":{"location":[47.8462627,10.1360781],"ct":"DE","tp":"CR","ts":"2024-12-28T22:58:21Z","tX":540,"tY":356,"tags":{"capacity":"3","caravan_site":"motorhome_stopover","caravan_site:type":"farm","charge":"15 EUR","description":"Camping am Bauernhof","dog":"yes","fee":"yes","name":"Wohnmobilstellplatz Bauernhof Lebau","power_supply":"yes","power_supply:charge":"3 EUR","power_supply:fee":"yes","reservation":"yes","sanitary_dump_station:seasonal":"yes","seasonal":"no","surface":"grass","water_point":"yes","water_point:fee":"no","water_point:seasonal":"yes"}},"1631537434":{"location":[47.9639114,9.9284775],"ct":"DE","tp":"CS","ts":"2021-04-30T19:55:20Z","tX":540,"tY":356,"tags":{"fee":"yes","name":"Freizeitplatz Truilz","parking":"surface","website":"http://freizeitpl-truilz.de/"}},"2492991060":{"location":[47.8222132,10.0397739],"ct":"DE","tp":"SD","ts":"2024-04-30T21:23:23Z","tX":540,"tY":356,"tags":{"fee":"yes","sanitary_dump_station:gravity":"yes","sanitary_dump_station:grey_water":"yes"}},"6973023548":{"location":[47.94897,10.0850415],"ct":"DE","tp":"CR","ts":"2024-05-18T13:40:19Z","tX":540,"tY":356,"tags":{"drinking_water":"yes","fee":"yes","name":"Park-Camping Iller","power_supply":"yes","sanitary_dump_station":"yes","toilets":"yes"}},"11024844901":{"location":[47.8465693,10.1372266],"ct":"DE","tp":"CR","ts":"2023-07-04T07:53:04Z","tX":540,"tY":356,"tags":{"description":"Camping am Bauernhof"}},"9141588668":{"location":[47.7954719,9.8794737],"ct":"DE","tp":"SD","ts":"2021-10-03T12:43:34Z","tX":540,"tY":356,"tags":{"sanitary_dump_station:chemical_toilet":"yes","sanitary_dump_station:fee":"no","sanitary_dump_station:gravity":"yes","sanitary_dump_station:grey_water":"yes","sanitary_dump_station:suction":"no"}},"10754034152":{"location":[47.8222078,10.0398121],"ct":"DE","tp":"SD","ts":"2024-04-30T21:23:20Z","tX":540,"tY":356,"tags":{"fee":"yes","sanitary_dump_station:basin":"yes","water_point":"yes"}}}