{"24493425":{"location":[47.5727333,10.1937024],"ct":"DE","tp":"CS","ts":"2023-06-19T11:17:16Z","tX":540,"tY":357,"tags":{"addr:city":"Immenstadt i.Allgäu","addr:country":"DE","addr:housenumber":"25","addr:postcode":"87509","addr:street":"Seestraße","addr:suburb":"Bühl","backcountry":"no","capacity:pitches":"236","caravans":"yes","dog":"leashed","drinking_water":"yes","dryer":"yes","email":"mail@alpsee-camping.de","fax":"+49 8323 2956","internet_access":"wlan","internet_access:access":"customers","internet_access:fee":"no","kitchen":"yes","motor_vehicle":"yes","name":"Alpsee Camping","nudism":"no","operator":"Alpsee Camping GmbH & Co. KG","phone":"+49 8323 7726","power_supply":"yes","reservation":"required","sanitary_dump_station":"customers","shower":"yes","source":"Bing","stars":"5","swimming_pool":"yes","tents":"yes","toilets":"yes","washing_machine":"yes","waste_disposal":"yes","website":"https://www.alpsee-camping.de/","wheelchair":"yes"}},"32765857":{"location":[47.7532437,10.0026414],"ct":"DE","tp":"CS","ts":"2024-07-25T12:42:33Z","tX":540,"tY":357,"tags":{"addr:city":"Isny im Allgäu","addr:country":"DE","addr:housenumber":"1","addr:postcode":"88316","addr:street":"Allmisried","caravans":"yes","drinking_water":"yes","email":"CampingBadsee@t-online.de","fax":"+49 7567 1092","name":"Camping am Badsee","phone":"+49 7567 1026","power_supply":"yes","sanitary_dump_station":"yes","shower":"yes","tents":"yes","toilets":"yes","website":"https://campingbadsee.de/","wheelchair":"yes"}},"36275572":{"location":[47.5223695,9.9736782],"ct":"DE","tp":"CS","ts":"2024-07-18T05:37:52Z","tX":540,"tY":357,"tags":{"addr:city":"Oberstaufen","addr:country":"DE","addr:housenumber":"1","addr:place":"Aach","addr:postcode":"87534","addr:suburb":"Aach","caravans":"yes","drinking_water":"yes","email":"info@camping-aach.de","fax":"+49 8386 962878","name":"Camping Aach","phone":"+49 8386 363","power_supply":"yes","sanitary_dump_station":"yes","shower":"yes","source":"website","tents":"yes","toilets":"yes","toilets:wheelchair":"no","website":"https://www.camping-aach.de/","wheelchair":"limited"}},"72670606":{"location":[47.6525063,9.9637166],"ct":"DE","tp":"CS","ts":"2023-09-12T15:23:20Z","tX":540,"tY":357,"tags":{"addr:city":"Röthenbach (Allgäu)","addr:country":"DE","addr:housenumber":"1","addr:postcode":"88167","addr:street":"In der Höll","capacity":"10","caravans":"yes","email":"ferien@maurus.de","maxtents":"10","name":"Ferienhof Maurus","phone":"+49 8383 617","tents":"yes","website":"https://maurus.de/"}},"162802122":{"location":[47.5869244,10.1120766],"ct":"DE","tp":"CS","ts":"2024-06-30T17:10:25Z","tX":540,"tY":357,"tags":{"addr:city":"Missen-Wilhams","addr:country":"DE","addr:housenumber":"12","addr:postcode":"87547","addr:street":"Zur Thaler Höhe","addr:suburb":"Wiederhofen","caravans":"yes","dryer":"yes","email":"info@campingplatz-wiederhofen.de","fax":"+49 8320 9259959","name":"Campingplatz Wiederhofen","phone":"+49 8320 481","power_supply":"yes","tents":"yes","washing_machine":"yes","website":"https://www.campingplatz-wiederhofen.de/"}},"166684643":{"location":[47.6778004,10.0307109],"ct":"DE","tp":"CS","ts":"2024-05-06T12:48:39Z","tX":540,"tY":357,"tags":{"caravans":"yes","drinking_water":"yes","dryer":"yes","email":"info@camping-isny.de","fax":"+49 7562 2389","name":"Waldbad Camping Isny","phone":"+49 7562 2389","power_supply":"yes","sanitary_dump_station":"yes","shower":"yes","tents":"yes","toilets":"yes","washing_machine":"yes","website":"https://www.camping-isny.de/"}},"166688835":{"location":[47.6420697,10.0392792],"ct":"DE","tp":"CS","ts":"2019-03-24T22:06:56Z","tX":540,"tY":357,"tags":{"addr:city":"Maierhöfen","addr:country":"DE","addr:housenumber":"16","addr:postcode":"88167","addr:street":"Riedholz","email":"ferien@sonnenbuckl.de","fax":"+49 8383 9533","name":"Campingplatz Sonnenbuckl","phone":"+49 8383 383","website":"https://www.sonnenbuckl.de/"}},"175059212":{"location":[47.6454863,10.1512825],"ct":"DE","tp":"CR","ts":"2024-12-28T22:17:25Z","tX":540,"tY":357,"tags":{"caravan_site":"motorhome_stopover","caravan_site:type":"countryside","caravans":"yes","fee":"no","maxstay":"1 night","name":"Wohnmobilstellplatz Weitnau","power_supply":"no","sanitary_dump_station":"no","tents":"no","water_point":"no","wheelchair":"no"}},"178327207":{"location":[47.5266199,10.0280293],"ct":"DE","tp":"CR","ts":"2020-11-01T10:11:49Z","tX":540,"tY":357,"tags":{"addr:city":"Oberstaufen","addr:postcode":"87534","addr:street":"Am Hößl","capacity":"26","charge":"15,70€","email":"info@womo-hochgratblick.de","fee":"yes","internet_access":"wlan","internet_access:fee":"no","name":"Hochgratblick","operator":"KFZ Bechteler","payment:cash":"yes","phone":"+49 8386 8180","power_supply":"yes","sanitary_dump_station":"yes","tents":"no","water_point":"yes","website":"http://www.womo-hochgratblick.de","wheelchair":"yes"}},"256679658":{"location":[47.5620224,10.1404935],"ct":"DE","tp":"PK","ts":"2024-12-28T20:58:07Z","tX":540,"tY":357,"tags":{"motorhome":"yes","motorhome:overnight":"no"}},"307281326":{"location":[47.5724794,9.8449741],"ct":"DE","tp":"CR","ts":"2020-05-02T20:16:38Z","tX":540,"tY":357,"tags":{"fee":"yes","name":"Am Kurhaus"}},"308693337":{"location":[47.694574,10.0376274],"ct":"DE","tp":"CR","ts":"2024-11-20T20:28:37Z","tX":540,"tY":357,"tags":{"capacity":"9","fee":"yes","name":"Wohnmobilstellplatz Untere Mühle","note":"Aufenthaltsdauer Max. 2 Nächte.","operator":"Stadt Isny","power_supply":"yes","sanitary_dump_station":"yes","wheelchair":"yes"}},"334148874":{"location":[47.6993906,10.054936],"ct":"DE","tp":"CR","ts":"2019-02-12T09:28:48Z","tX":540,"tY":357,"tags":{"capacity":"9","fee":"yes","name":"Dethleffs Caravaning","operator":"Fa Dethleffs","power_supply":"yes","sanitary_dump_station":"yes"}},"335652209":{"location":[47.7180532,9.9488081],"ct":"DE","tp":"CS","ts":"2019-01-21T19:12:11Z","tX":540,"tY":357,"tags":{"caravans":"4","email":"info@der-zeltplatz-am-buchweiher.de","name":"Zeltplatz am Buchweiher","phone":"+49-7566-652","shower":"yes","tents":"yes","toilets":"yes","website":"http://www.der-zeltplatz-am-buchweiher.de/"}},"388586511":{"location":[47.5995225,9.9011325],"ct":"DE","tp":"CS","ts":"2020-05-19T09:37:50Z","tX":540,"tY":357,"tags":{"cabins":"yes","caravans":"yes","internet_access":"wlan","name":"Campingplatz Alpenblick","phone":"+49 8381 3447","power_supply":"yes","tents":"yes","website":"https://camping-alpenblick.de/"}},"420780764":{"location":[47.563049,10.1448969],"ct":"DE","tp":"CR","ts":"2013-10-14T08:38:24Z","tX":540,"tY":357,"tags":{}},"1305889418":{"location":[47.6497851,10.0412016],"ct":"DE","tp":"CS","ts":"2024-08-06T07:43:24Z","tX":540,"tY":357,"tags":{"capacity:caravans":"3","caravans":"yes","fee":"yes","name":"Genau so! Allgäu Campingplatz","static_caravans":"no"}},"1313984227":{"location":[47.6008827,9.876189],"ct":"DE","tp":"CR","ts":"2024-09-07T20:42:39Z","tX":540,"tY":357,"tags":{"capacity":"11","charge":"15 EUR / day","fee":"yes","internet_access":"no","maxlength":"10 m","maxstay":"7 days","name":"Wohnmobilstellplatz Waldsee","power_supply":"yes","reservation":"no","sanitary_dump_station":"yes","shower":"no","surface":"grass_paver","tents":"no","toilets":"no","water_point":"yes","website":"https://www.lindenberg.de/tourismus/mit-dem-wohnmobil-unterwegs?tourismus-wohnmobilstellplatz","wheelchair":"limited"}},"1322111196":{"location":[47.5583965,9.94413],"ct":"DE","tp":"CR","ts":"2024-10-08T10:56:31Z","tX":540,"tY":357,"tags":{"name":"Wohnmobilstellplatz Oberreute"}},"5155918831":{"location":[47.721987,9.9043583],"ct":"DE","tp":"CR","ts":"2021-02-28T12:06:07Z","tX":540,"tY":357,"tags":{"capacity":"2","fee":"no","name":"Ratzenried","power_supply":"no","sanitary_dump_station":"no"}},"12296954949":{"location":[47.552719,10.0526673],"ct":"DE","tp":"CR","ts":"2024-10-29T14:28:40Z","tX":540,"tY":357,"tags":{"name":"Hündlebahn Parkplatz","power_supply":"yes"}},"5225240468":{"location":[47.6943668,10.0378815],"ct":"DE","tp":"SD","ts":"2021-06-24T06:57:16Z","tX":540,"tY":357,"tags":{"access":"yes","operator":"Stadt Isny","water_point":"yes"}},"5258120321":{"location":[47.7000464,10.0539519],"ct":"DE","tp":"SD","ts":"2017-12-01T18:08:55Z","tX":540,"tY":357,"tags":{"access":"yes","fee":"no","operator":"Fa Dethleffs","water_point":"yes"}},"6801792989":{"location":[47.5723958,10.1933448],"ct":"DE","tp":"SD","ts":"2023-06-19T10:32:11Z","tX":540,"tY":357,"tags":{"access":"customers","fee":"no"}}}