{"1310283":{"location":[47.3565241,10.1877567],"ct":"AT","tp":"CS","ts":"2024-01-03T21:48:52Z","tX":540,"tY":358,"tags":{"name":"Alpencamping Haller","source":"survey","website":"https://www.camping-haller.at"}},"1854928":{"location":[47.3116885,10.1325612],"ct":"AT","tp":"CS","ts":"2022-09-11T19:57:06Z","tX":540,"tY":358,"tags":{"addr:city":"Mittelberg","addr:country":"AT","addr:housenumber":"1","addr:place":"Vorderboden","addr:postcode":"6993","at_bev:addr_date":"2018-10-01","contact:email":"info@camping-vorderboden.de","contact:facebook":"https://www.facebook.com/Camping-Vorderboden-119649538098124/","email":"info@camping-vorderboden.de","fax":"+43 5517 56968","name":"Campingplatz Vorderboden","note":"In AT-6993 Mittelberg ist auch DE-87569 Mittelberg zur Adressfindung vergeben.","opening_hours":"Sep 29-Jun 25: Mo-Su,PH 07:45-12:30,14:00-19:00; Jun 26-Sep 28: Mo-Su,PH 07:45-12:30,14:00-20:00","operator":"Marion Schwendiger","phone":"+43 5517 6138; +43 676 6947672","website":"https://www.camping-vorderboden.at/"}},"9472141":{"location":[47.380729,9.8888013],"ct":"AT","tp":"CS","ts":"2023-09-20T06:54:40Z","tX":540,"tY":358,"tags":{"camp_site":"serviced","capacity":"45","caravans":"yes","description":"Eher unterdurchschnittliche Onlinebewertungen, vor allem durch nicht sehr freundlichen Platzwart.","drinking_water":"yes","email":"campingplatz.bezau@aon.at","internet_access":"wlan","internet_access:fee":"1€/Tag","name":"Campingplatz Bezau","phone":"+43 5514 2964","power_supply":"yes","shower":"yes","source":"photograph + knowledge","source_ref":"http://wiki.openstreetmap.org/index.php/User:Han013/Bezau","tents":"yes","toilets":"yes","washing_machine":"yes","website":"http://www.campingplatz-bezau.at"}},"89181038":{"location":[47.3628206,10.1944949],"ct":"AT","tp":"CS","ts":"2023-11-04T13:25:51Z","tX":540,"tY":358,"tags":{"addr:country":"AT","addr:street":"Walserstraße 10","capacity:pitches":"75","caravans":"yes","designation":"camping site","fax":"+43 5517 57924","name":"Camping Jochum","phone":"+43 5517 5792","shower":"yes","source":"survey","tents":"yes","toilets":"yes","website":"https://www.camping-jochum.at/index.html"}},"121855002":{"location":[47.349507,10.1790389],"ct":"AT","tp":"CS","ts":"2023-01-01T21:09:40Z","tX":540,"tY":358,"tags":{"caravans":"yes","contact:email":"specht@camping-zwerwald.de","contact:phone":"+43 5517 5727","contact:website":"http://www.camping-zwerwald.de","fee":"yes","name":"Camping Zwerwald","sanitary_dump_station":"yes","tents":"yes"}},"128766353":{"location":[47.4813872,9.846233],"ct":"AT","tp":"CS","ts":"2024-08-17T14:03:08Z","tX":540,"tY":358,"tags":{"addr:country":"AT","addr:housenumber":"121","addr:postcode":"6933","addr:street":"Bozenau","caravans":"yes","contact:phone":"+43 650 4992100","contact:website":"https://camping-bregenzerwald.at/","drinking_water":"yes","name":"Camping Bregenzerache","sanitary_dump_station":"yes","shower":"yes","tents":"yes","toilets":"yes"}},"182669269":{"location":[47.4135692,10.0411388],"ct":"AT","tp":"CR","ts":"2023-05-18T19:43:39Z","tX":540,"tY":358,"tags":{"ele":"924.42","name":"Bilgeri Camping"}},"204259807":{"location":[47.4577927,10.1280121],"ct":"DE","tp":"CR","ts":"2024-12-26T22:46:31Z","tX":540,"tY":358,"tags":{"bbq":"bring_you_own","caravan_site":"motorhome_stopover","caravan_site:type":"skiing;hiking","charge":"15 EUR","description:de":"Wohnmobilstellplatz","fee":"yes","name":"Schwabenhof Wohnmobilstellplatz","sanitary_dump_station":"yes","water_point":"yes","website":"https://www.schwabenhof.com/"}},"232312026":{"location":[47.3158291,9.9997542],"ct":"AT","tp":"CS","ts":"2023-09-02T12:56:47Z","tX":540,"tY":358,"tags":{"caravans":"yes","contact:email":"info@campingaustria.at","contact:fax":"+43 5515 2331 4","contact:phone":"+43 5515 2331","contact:website":"https://www.campingaustria.at","drinking_water":"yes","internet_access":"wlan","internet_access:fee":"no","name":"Camping Austria","operator":"Artur Köb","power_supply":"yes","shower":"yes","tents":"yes","toilets":"yes"}},"529762013":{"location":[47.4178692,9.9864799],"ct":"AT","tp":"CS","ts":"2023-01-01T21:02:59Z","tX":540,"tY":358,"tags":{"capacity:pitches":"25","caravans":"yes","contact:website":"https://www.schettereggerhof.at/camping","name":"Campingplatz beim Schettereggerhof","operator":"Schetteregger Hof","power_supply":"yes","shower":"yes","tents":"no","toilets":"yes"}},"822546085":{"location":[47.5086697,9.9778371],"ct":"AT","tp":"CS","ts":"2022-12-19T06:15:56Z","tX":540,"tY":358,"tags":{"addr:city":"Riefensberg","addr:country":"AT","addr:housenumber":"238","addr:place":"Riefensberg","addr:postcode":"6943","caravans":"yes","name":"Camping Hochlitten","phone":"+43 5513 8291","tents":"yes","website":"https://www.camping-hochlitten.at/"}},"975907336":{"location":[47.4512275,9.9352137],"ct":"AT","tp":"CS","ts":"2022-04-09T09:15:35Z","tX":540,"tY":358,"tags":{"access":"customers","addr:city":"Lingenau","addr:country":"AT","addr:housenumber":"185","addr:postcode":"6961","addr:street":"Haidach","fee":"yes","name":"Camping Feurstein","phone":"+43 5513 6114","shower":"yes","toilets":"yes"}},"1075016027":{"location":[47.4053188,9.8721588],"ct":"AT","tp":"CS","ts":"2022-10-04T19:36:18Z","tX":540,"tY":358,"tags":{"addr:city":"Andelsbuch","addr:housenumber":"228","addr:postcode":"6866","addr:street":"Tanna","caravans":"no","fee":"yes","name":"Gastgarten Tanna","operator":"Maria Kohler und Franz Felder","phone":"+43 664 7815421","shower":"yes","tents":"yes","toilets":"yes","website":"https://www.tanna-ferienhofheidegg.at/tanna"}},"7819627027":{"location":[47.456671,10.1308864],"ct":"DE","tp":"CR","ts":"2020-08-17T08:58:50Z","tX":540,"tY":358,"tags":{"fee":"yes","note":"im Sommer ist ein Teil des Parkplatzes ein Wohnmobilstellplatz"}}}