{"91264748":{"location":[47.1418617,9.9276854],"ct":"AT","tp":"CS","ts":"2023-08-06T12:53:49Z","tX":540,"tY":359,"tags":{"contact:email":"info@landhauswalch.at","contact:fax":"+43 5552 28115","contact:phone":"+43 5552 28102-0","contact:website":"http://www.landhauswalch.at/camping.html","name":"Walch's Camping","operator":"Landhaus Walch"}},"122285451":{"location":[47.0718388,9.8781434],"ct":"AT","tp":"CS","ts":"2024-02-26T11:19:53Z","tX":540,"tY":359,"tags":{"group_only":"yes","name":"Lagerplatz Latschau","operator":"Pfadfinder/innen St. Martin Montafon","source":"Orthophoto: www.geoimage.at (c)","tents":"yes"}},"123705620":{"location":[47.0777701,9.9106501],"ct":"AT","tp":"CS","ts":"2023-09-14T14:36:32Z","tX":540,"tY":359,"tags":{"access":"customers","addr:city":"Schruns","addr:housenumber":"4","addr:postcode":"6780","addr:street":"Flurstraße","caravans":"no","contact:website":"http://www.camping-thoeny.com","name":"Camping Thöny","operator":"Christian Thöny","permanent_camping":"only","shower":"yes","source":"geoimage.at","static_caravans":"yes","tents":"no","toilets":"yes"}},"123954563":{"location":[47.1309552,10.0971271],"ct":"AT","tp":"CS","ts":"2022-06-10T13:38:40Z","tX":540,"tY":359,"tags":{"name":"Alpencamping Klösterle","website":"https://www.alpencamping-kloesterle.at/"}},"129861804":{"location":[47.1229261,9.9971398],"ct":"AT","tp":"CS","ts":"2024-09-07T19:09:44Z","tX":540,"tY":359,"tags":{"capacity":"43","dryer":"yes","internet_access":"wlan","internet_access:fee":"no","name":"Camping Erne","power_supply":"yes","washing_machine":"yes","website":"https://www.erne-dalaas.at"}},"130331869":{"location":[47.1472093,9.9028768],"ct":"AT","tp":"CS","ts":"2023-01-01T21:17:16Z","tX":540,"tY":359,"tags":{"addr:city":"Außerbraz","addr:country":"AT","addr:housenumber":"12","addr:postcode":"6751","addr:street":"Klostertalerstraße","caravans":"yes","contact:email":"office@traubebraz.at","contact:phone":"+43 5552 28103","contact:website":"https://campingtraube.at","dryer":"yes","internet_access":"wlan","internet_access:fee":"no","name":"Camping Hotel Traube","shower":"yes","toilets":"yes","washing_machine":"yes"}},"132768253":{"location":[47.2159697,9.8532953],"ct":"AT","tp":"CS","ts":"2023-01-01T20:56:59Z","tX":540,"tY":359,"tags":{"addr:city":"Raggal","addr:country":"AT","addr:housenumber":"21","addr:place":"Plazera","addr:postcode":"6741","capacity":"55","caravans":"yes","dryer":"yes","email":"info@camping-grosswalsertal.at","internet_access":"wlan","internet_access:fee":"no","name":"Camping Grosswalsertal","opening_hours":"May 18-Oct 01","phone":"+43 5553209","power_supply":"yes","shower":"yes","tents":"yes","toilets":"yes","washing_machine":"yes","website":"http://www.camping-grosswalsertal.at"}},"220780454":{"location":[47.1304296,10.0536585],"ct":"AT","tp":"CS","ts":"2023-12-26T08:11:49Z","tX":540,"tY":359,"tags":{"caravans":"yes","drinking_water":"yes","name":"Arlberg Camping","power_supply":"yes","shower":"yes","tents":"yes","toilets":"yes","website":"https://www.arlbergcamping.at/"}},"669219714":{"location":[47.0686721,9.9172975],"ct":"AT","tp":"CS","ts":"2019-02-08T20:36:48Z","tX":540,"tY":359,"tags":{"addr:city":"Tschagguns","addr:country":"AT","addr:housenumber":"79","addr:street":"Zelfenstraße","name":"Aktivcamping Montafon","website":"https://www.aktivcamping.at"}},"849342657":{"location":[47.0912244,9.880067],"ct":"AT","tp":"CS","ts":"2024-11-26T18:40:34Z","tX":540,"tY":359,"tags":{"addr:city":"Bartholomäberg","addr:country":"AT","addr:housenumber":"8","addr:postcode":"6781","addr:street":"Rätikonweg","name":"Camping Montlantis","old_name":"Rätikon Camping"}},"12047617289":{"location":[47.2159392,9.8536608],"ct":"AT","tp":"SD","ts":"2024-07-11T16:41:54Z","tX":540,"tY":359,"tags":{}}}