{"13912657":{"location":[46.2692342,9.8779828],"ct":"IT","tp":"CS","ts":"2022-03-10T21:51:57Z","tX":540,"tY":363,"tags":{"name":"Campeggio Pradasc"}},"270760359":{"location":[46.2943898,10.080794],"ct":"CH","tp":"CS","ts":"2023-08-21T15:30:09Z","tX":540,"tY":363,"tags":{"addr:city":"Le Prese","addr:country":"CH","addr:housenumber":"1","addr:postcode":"7746","addr:street":"Via dal Cavresc","caravans":"yes","email":"camping.cavresc@bluewin.ch","fax":"+41 81 844 0259","internet_access":"wlan","internet_access:fee":"no","name":"Camping Cavresc","phone":"+41 81 844 0259","sanitary_dump_station":"yes","shower":"yes","tents":"yes","toilets":"yes","website":"https://campingcavresc.ch/"}},"270760363":{"location":[46.306998,10.0638773],"ct":"CH","tp":"CS","ts":"2019-10-10T07:35:27Z","tX":540,"tY":363,"tags":{"addr:city":"Li Curt","addr:housenumber":"40","addr:postcode":"7745","addr:street":"Via da Vial","name":"Camping Boomerang","operator":"Fam. Priuli-Bondolfi","website":"http://camping-boomerang.ch"}},"423124911":{"location":[46.2136387,10.1570101],"ct":"IT","tp":"CR","ts":"2023-02-06T21:05:24Z","tX":540,"tY":363,"tags":{"name":"Area Camper Tirano"}},"472680855":{"location":[46.1574099,10.1744111],"ct":"IT","tp":"CS","ts":"2019-10-17T13:00:58Z","tX":540,"tY":363,"tags":{"addr:city":"Aprica","addr:housenumber":"507","addr:street":"Via Nazionale","capacity":"100","internet_access":"wlan","name":"Camping APRICA"}},"956558207":{"location":[46.2695492,9.8774258],"ct":"IT","tp":"CR","ts":"2022-03-10T21:51:57Z","tX":540,"tY":363,"tags":{"addr:city":"Lanzada","addr:postcode":"23020","addr:street":"Ponte Pradasc","capacity":"20","name":"Area Camper - Pradasc","power_supply":"yes","sanitary_dump_station":"yes"}},"1265918142":{"location":[46.1567479,9.9550526],"ct":"IT","tp":"CR","ts":"2024-03-24T22:34:24Z","tX":540,"tY":363,"tags":{"capacity":"5","caravan_site":"motorhome_stopover","caravan_site:type":"village","caravans":"no","internet_access":"wlan","internet_access:fee":"no","name":"Area Attrezzata Camper Boffetto di Piateda","playground":"yes","power_supply":"yes","power_supply:capacity":"4","sanitary_dump_station":"yes","sanitary_dump_station:chemical_toilet":"yes","sanitary_dump_station:grey_water":"yes","surface":"grass_paver","tents":"no","toilets":"no","water_point":"yes","website":"https://giropercampeggi.it/campeggi/area-attrezzata-camper-boffetto/"}},"7178228187":{"location":[46.1606229,9.8693291],"ct":"IT","tp":"CR","ts":"2020-02-01T22:49:26Z","tX":540,"tY":363,"tags":{"addr:city":"Sondrio","addr:housenumber":"79D","addr:street":"Via Ezio Vanoni","capacity":"4","internet_access":"no","power_supply":"yes","sanitary_dump_station":"yes"}},"8592233417":{"location":[46.1675708,9.8638446],"ct":"IT","tp":"CR","ts":"2022-05-22T00:03:20Z","tX":540,"tY":363,"tags":{"opening_hours":"24/7"}},"9025026667":{"location":[46.1560026,10.1653207],"ct":"IT","tp":"CR","ts":"2021-08-21T15:21:48Z","tX":540,"tY":363,"tags":{"fee":"yes","power_supply":"yes"}},"9048805227":{"location":[46.2943229,10.0867782],"ct":"CH","tp":"CR","ts":"2021-08-30T17:27:18Z","tX":540,"tY":363,"tags":{"capacity":"10","description":"CHF 25.- Ã–ffnungszeiten:1.6. - 30.9.","fee":"yes","name":"Stellplatz Lago di Poschiavo","phone":"+41 76 459 71 81","power_supply":"yes","sanitary_dump_station":"no"}},"8892301917":{"location":[46.3072982,10.0644253],"ct":"CH","tp":"SD","ts":"2021-07-04T11:49:58Z","tX":540,"tY":363,"tags":{}},"10056847189":{"location":[46.2937439,10.0806073],"ct":"CH","tp":"SD","ts":"2022-09-27T18:39:41Z","tX":540,"tY":363,"tags":{"access":"customers","sanitary_dump_station:basin":"yes"}}}