{"3824534":{"location":[45.89759,10.0015139],"ct":"IT","tp":"CS","ts":"2022-11-25T07:25:16Z","tX":540,"tY":364,"tags":{"name":"Don Bosco"}},"5609531":{"location":[45.9392821,10.1781245],"ct":"IT","tp":"CS","ts":"2023-11-09T01:07:10Z","tX":540,"tY":364,"tags":{"addr:city":"Borno","addr:housenumber":"41","addr:postcode":"25042","addr:street":"Via Funivia","email":"reception@campingvillageboscoblu.it","name":"Camping Village Boscoblù","phone":"+39 0364 41386","ref:vatin":"IT02746640156","stars":"3","website":"https://www.campingvillageboscoblu.it/"}},"7606452":{"location":[45.9416261,10.1788087],"ct":"IT","tp":"CR","ts":"2023-11-09T01:07:04Z","tX":540,"tY":364,"tags":{"addr:city":"Borno","addr:place":"Località Ogne","addr:postcode":"25042","email":"info@adventureland-borno.eu","fee":"yes","name":"Area Camper Adventure Land","operator":"Adventure Land S.n.c.","phone":"+39 333 3646633","ref:vatin":"IT02846260988","surface":"fine_gravel","website":"https://www.adventureland-borno.eu/"}},"11096618":{"location":[46.0303629,10.0012573],"ct":"IT","tp":"CS","ts":"2022-09-25T19:26:34Z","tX":540,"tY":364,"tags":{"checked":"yes","name":"Camping Valbondione","source":"Regione Lombardia - La banca dati territoriali CTR10000 è prodotta da Regione Lombardia - Infrastruttura per l'Informazione Territoriale"}},"232663458":{"location":[45.9245726,10.0726873],"ct":"IT","tp":"CS","ts":"2014-11-22T21:05:34Z","tX":540,"tY":364,"tags":{"email":"info@campingpatrice.it","name":"Camping International Patrice","phone":"+39 0346 36599","stars":"2","website":"http://www.campingpatrice.it"}},"298890218":{"location":[45.8905023,10.1902658],"ct":"IT","tp":"CR","ts":"2019-11-07T19:38:31Z","tX":540,"tY":364,"tags":{"parking":"surface","toilets:wheelchair":"no","wheelchair":"yes"}},"525101576":{"location":[45.9420446,10.178911],"ct":"IT","tp":"SD","ts":"2017-09-16T07:22:32Z","tX":540,"tY":364,"tags":{"access":"yes","fee":"no","power_supply":"yes","water_point":"yes"}},"739174506":{"location":[45.9948633,10.0929163],"ct":"IT","tp":"CR","ts":"2024-08-09T08:12:36Z","tX":540,"tY":364,"tags":{"fee":"no"}},"1200895055":{"location":[45.9139533,10.073959],"ct":"IT","tp":"CR","ts":"2023-08-27T10:33:51Z","tX":540,"tY":364,"tags":{"power_supply":"yes","sanitary_dump_station":"yes"}},"1796716149":{"location":[45.8729978,9.9168145],"ct":"IT","tp":"CR","ts":"2012-06-21T07:23:40Z","tX":540,"tY":364,"tags":{}},"6569229750":{"location":[45.8344294,10.0493252],"ct":"IT","tp":"CS","ts":"2024-09-06T13:02:26Z","tX":540,"tY":364,"tags":{"caravans":"no","name":"EcoCampeggio Placàt","shower":"yes","tents":"yes","toilets":"yes","website":"https://www.bossico.com/ospitalita/eco-campeggio-placat/"}},"6572422155":{"location":[46.0376347,10.0098351],"ct":"IT","tp":"CR","ts":"2019-06-26T12:29:28Z","tX":540,"tY":364,"tags":{}},"6913594054":{"location":[45.8901431,10.1900976],"ct":"IT","tp":"SD","ts":"2019-10-24T18:34:51Z","tX":540,"tY":364,"tags":{}},"6920714943":{"location":[45.9942579,10.0930109],"ct":"IT","tp":"SD","ts":"2020-04-09T00:47:09Z","tX":540,"tY":364,"tags":{}}}