{"1376312":{"location":[45.6673944,10.0677444],"ct":"IT","tp":"CS","ts":"2024-09-06T06:07:13Z","tX":540,"tY":365,"tags":{"addr:city":"Iseo","addr:country":"IT","addr:housenumber":"18","addr:postcode":"25049","addr:street":"Via Covelo","caravans":"yes","checked":"yes","contact:website":"https://www.campingcovelo.com/","fee":"yes","internet_access":"wlan","name":"Camping Covelo","power_supply":"yes","power_supply:maxcurrent":"3;6","socket:cee_blue":"yes","source":"Regione Lombardia - La banca dati territoriali CTR10000 è prodotta da Regione Lombardia - Infrastruttura per l'Informazione Territoriale","static_caravans":"yes","tents":"yes"}},"1376316":{"location":[45.6572446,10.0380077],"ct":"IT","tp":"CS","ts":"2024-09-05T18:54:56Z","tX":540,"tY":365,"tags":{"addr:street":"Via per Rovato","area":"yes","caravans":"yes","dog":"yes","fee":"yes","motorhome":"yes","name":"Camping del Sole","power_supply:maxcurrent":"6","shower":"yes","socket:cee_blue":"yes","stars":"5","static_caravans":"yes","tents":"yes","toilets":"yes","website":"https://www.campingdelsole.it/"}},"2183196":{"location":[45.7532195,10.1196769],"ct":"IT","tp":"CS","ts":"2017-03-28T19:37:18Z","tX":540,"tY":365,"tags":{"name":"Campeggio Val Tress"}},"6367948":{"location":[45.8063652,10.1036126],"ct":"IT","tp":"CS","ts":"2024-09-06T12:43:56Z","tX":540,"tY":365,"tags":{"caravans":"yes","dog":"yes","email":"camping.eden.pisogne@gmail.com","fee":"yes","name":"Camping Eden","phone":"+39 0364 880500","power_supply":"yes","power_supply:maxcurrent":"6","socket:cee_blue":"yes","tents":"yes","website":"https://campingedenpisogne.com/"}},"7388247":{"location":[45.7915503,10.1761209],"ct":"IT","tp":"CR","ts":"2017-07-11T11:32:49Z","tX":540,"tY":365,"tags":{}},"13956203":{"location":[45.6586092,10.0330366],"ct":"IT","tp":"CS","ts":"2024-09-05T18:54:56Z","tX":540,"tY":365,"tags":{"caravans":"yes","dog":"yes","fee":"yes","motorhome":"yes","name":"Sassabanek","power_supply":"yes","power_supply:maxcurrent":"4","shower":"yes","socket:cee_blue":"yes","tents":"yes","toilets":"yes","washing_machine":"yes","website":"https://www.sassabanek.com/"}},"17489422":{"location":[45.6659548,10.0645721],"ct":"IT","tp":"CS","ts":"2024-09-06T06:04:09Z","tX":540,"tY":365,"tags":{"addr:city":"Iseo","addr:country":"IT","addr:housenumber":"73","addr:postcode":"25049","addr:street":"Via Ippolito Antonioli","cabins":"yes","caravans":"yes","contact:email":"info@campingquai.it","contact:phone":"+39 030 9821610","contact:website":"https://campingquai.it/","dog":"yes","fee":"yes","motorhome":"yes","name":"Camping Quai","power_supply":"yes","socket:cee_blue":"yes","tents":"yes"}},"35149762":{"location":[45.6762331,10.0761749],"ct":"IT","tp":"CS","ts":"2024-09-06T06:19:54Z","tX":540,"tY":365,"tags":{"addr:housenumber":"7","addr:street":"Via Cave","caravans":"yes","dog":"yes","motorhome":"yes","name":"Camping Olivella","phone":"+39 030 980575","power_supply":"yes","socket:cee_blue":"yes","source":"Regione Lombardia - La banca dati territoriali CTR10000 è prodotta da Regione Lombardia - Infrastruttura per l'Informazione Territoriale","stars":"2","tents":"yes","website":"https://www.campingolivella.it/"}},"35149763":{"location":[45.7307148,10.0937721],"ct":"IT","tp":"CS","ts":"2024-09-06T12:39:07Z","tX":540,"tY":365,"tags":{"cabins":"yes","caravans":"yes","checked":"yes","dog":"yes","drinking_water":"yes","motorhome":"yes","name":"Camping Riva di San Pietro","note":"replace existing camp_site","power_supply":"yes","power_supply:maxcurrent":"6","shower":"yes","socket:cee_blue":"yes","source":"Regione Lombardia - La banca dati territoriali CTR10000 è prodotta da Regione Lombardia - Infrastruttura per l'Informazione Territoriale","tents":"yes","toilets":"yes","washing_machine":"yes","website":"https://www.rivasanpietro.it/"}},"35149768":{"location":[45.702949,10.107759],"ct":"IT","tp":"CS","ts":"2022-06-14T11:28:24Z","tX":540,"tY":365,"tags":{"checked":"yes","source":"Regione Lombardia - La banca dati territoriali CTR10000 è prodotta da Regione Lombardia - Infrastruttura per l'Informazione Territoriale"}},"35150161":{"location":[45.679868,10.0039681],"ct":"IT","tp":"CS","ts":"2024-09-06T06:23:48Z","tX":540,"tY":365,"tags":{"caravans":"yes","name":"Camping Eurovil","power_supply":"yes","shower":"yes","socket:cee_blue":"yes","static_caravans":"yes","tents":"yes","toilets":"yes","website":"https://campingeurovil.it/"}},"73025879":{"location":[45.6883707,10.1031432],"ct":"IT","tp":"CR","ts":"2023-05-23T07:14:42Z","tX":540,"tY":365,"tags":{"addr:city":"Sulzano","addr:housenumber":"14","addr:postcode":"25058","addr:street":"Via Tassano","fee":"yes","name":"Parcheggio Gerolo","name:en":"Gerolo Parking","power_supply":"yes","sanitary_dump_station":"yes","waste-disposal":"yes"}},"143949964":{"location":[45.7518245,10.1179586],"ct":"IT","tp":"CR","ts":"2024-09-06T12:35:41Z","tX":540,"tY":365,"tags":{"fee":"yes","power_supply":"yes","socket:cee_blue":"yes","toilets":"no"}},"161695171":{"location":[45.78878,9.9455019],"ct":"IT","tp":"CS","ts":"2024-09-06T13:06:07Z","tX":540,"tY":365,"tags":{"caravans":"yes","dog":"yes","dryer":"yes","fee":"yes","motorhome":"yes","name":"Camping La Tartufaia","power_supply":"yes","power_supply:maxcurrent":"4","socket:cee_blue":"yes","source":"http://www.latartufaia.com","tents":"yes","washing_machine":"yes"}},"180398872":{"location":[45.770306,10.035869],"ct":"IT","tp":"CS","ts":"2024-09-06T12:59:26Z","tX":540,"tY":365,"tags":{"caravans":"yes","fee":"yes","motorhome":"yes","name":"Trenta Passi","power_supply":"yes","power_supply:maxcurrent":"6","shower":"yes","stars":"3","tents":"yes","toilets":"yes"}},"224494883":{"location":[45.6656444,9.9889672],"ct":"IT","tp":"CS","ts":"2024-09-05T19:11:36Z","tX":540,"tY":365,"tags":{"addr:city":"Iseo","addr:hamlet":"Clusane","addr:housenumber":"162","addr:postcode":"25049","addr:street":"Via Risorgimento","caravans":"yes","motorhome":"yes","name":"Camping Girasole","name:it":"Campeggio Girasole","phone":"+39 030.989182","phone:mobile":"+39 338 3887277","power_supply":"yes","power_supply:maxcurrent":"4","socket:cee_blue":"yes","tents":"yes","website":"https://camping-girasole.com/"}},"239362170":{"location":[45.6641107,10.0562195],"ct":"IT","tp":"CS","ts":"2024-09-05T21:56:47Z","tX":540,"tY":365,"tags":{"access":"private","addr:city":"Iseo BS","addr:housenumber":"51/53","addr:postcode":"25049","addr:street":"Via Ippolito Antonioli","caravans":"yes","drinking_water":"yes","fee":"yes","internet_access":"wlan","internet_access:fee":"customers","motorhome":"yes","name":"Camping Punta d'Oro","picnic_table":"no","power_supply":"yes","power_supply:maxcurrent":"6","sanitary_dump_station":"yes","shower":"yes","socket:cee_blue":"yes","stars":"2","static_caravans":"no","tents":"yes","toilets":"yes","toilets:wheelchair":"yes","website":"https://www.camping-puntadoro.com","wheelchair":"yes"}},"239362172":{"location":[45.6644156,10.0574484],"ct":"IT","tp":"CS","ts":"2024-09-05T21:56:47Z","tX":540,"tY":365,"tags":{"addr:housenumber":"57","addr:street":"Via Ippolito Antonioli","caravans":"yes","fee":"yes","motorhome":"yes","name":"Camping Iseo","phone":"+39 030 980213","socket:cee_blue":"yes","static_caravans":"yes","website":"https://www.campingiseo.it/"}},"360584656":{"location":[45.663904,10.0795627],"ct":"IT","tp":"CS","ts":"2024-09-06T06:26:50Z","tX":540,"tY":365,"tags":{"addr:city":"Iseo","addr:postcode":"25049","addr:street":"Via Silvio Bonomelli","capacity:caravans":"26","capacity:tents":"26","caravans":"yes","fee":"yes","motorhome":"yes","name":"AgriCamping La Tesa","phone":"+39.0309822984","phone:mobile":"+39.3408658633","power_supply:maxcurrent":"3","socket:cee_blue":"yes","tents":"yes"}},"472682702":{"location":[45.8226945,10.087261],"ct":"IT","tp":"CR","ts":"2024-09-06T12:47:27Z","tX":540,"tY":365,"tags":{"addr:city":"Costa Volpino","addr:housenumber":"24","addr:postcode":"24062","addr:province":"Bergamo","addr:street":"Via Nazionale","capacity":"50","description":"https://www.comune.costavolpino.bg.it/luogo/area-camper-e-caravan","fax":"+39 035 970891","fee":"yes","internet_access:fee":"yes","name":"Area Camper e Caravan","note":"I veicoli al servizio di persone invalide, provvisti dello speciale contrassegno di cui all’art. 188 del Codice della Strada e con la stessa persona invalida presente, potranno sostare gratuitamente","phone":"+39 035 970290","power_supply":"yes","sanitary_dump_station":"yes","socket:cee_blue":"yes","toilets":"yes","website":"https://www.comune.costavolpino.bg.it"}},"506239264":{"location":[45.6790204,10.0766601],"ct":"IT","tp":"CS","ts":"2024-09-06T06:19:54Z","tX":540,"tY":365,"tags":{"addr:city":"Iseo","addr:housename":"Camping Cave","addr:housenumber":"13","addr:place":"Pilzone","addr:postcode":"25049","addr:street":"Via Cave","caravans":"yes","dog":"yes","fee":"yes","name":"Camping Cave","power_supply":"yes","socket:cee_blue":"yes","stars":"3","static_caravans":"yes","tents":"yes","website":"http://www.campingcave.it"}},"618785064":{"location":[45.6782151,10.0761539],"ct":"IT","tp":"CS","ts":"2024-09-11T12:41:35Z","tX":540,"tY":365,"tags":{"addr:housenumber":"11","addr:street":"Via Cave","caravans":"yes","drinking_water":"yes","fee":"yes","group_only":"no","internet_access":"wlan","motorhome":"yes","name":"Camping Pilzone","nudism":"no","openfire":"no","payment:cash":"yes","payment:credit_cards":"yes","payment:debit_cards":"yes","permanent_camping":"yes","phone":"+39 030 980766","picnic_table":"no","power_supply":"yes","sanitary_dump_station":"yes","shower":"yes","socket:cee_blue":"yes","stars":"2","static_caravans":"yes","tents":"yes","toilets":"yes","website":"www.campingpilzone.altervista.org"}},"653373716":{"location":[45.5961425,10.0981647],"ct":"IT","tp":"CR","ts":"2018-12-07T13:33:59Z","tX":540,"tY":365,"tags":{"capacity":"2","fee":"no","internet_access:fee":"no","power_supply":"no","sanitary_dump_station":"no"}},"653376087":{"location":[45.5956697,10.1067643],"ct":"IT","tp":"CR","ts":"2018-12-07T13:45:16Z","tX":540,"tY":365,"tags":{}},"1043101486":{"location":[45.6586088,10.0367443],"ct":"IT","tp":"CS","ts":"2022-03-23T18:21:47Z","tX":540,"tY":365,"tags":{"name":"Lido Belvedere"}},"1188649060":{"location":[45.6653245,9.996054],"ct":"IT","tp":"CS","ts":"2024-09-05T19:11:36Z","tX":540,"tY":365,"tags":{"addr:city":"Clusane d'Iseo","addr:housenumber":"132-134","addr:postcode":"25049","addr:street":"Via Risorgimento","caravans":"yes","fee":"yes","name":"Belvedere Clusane","phone":"+39 0309898030","power_supply":"yes","shower":"yes","socket:cee_blue":"yes","tents":"yes","toilets":"yes"}},"1188649062":{"location":[45.6654026,9.9862151],"ct":"IT","tp":"CS","ts":"2024-09-05T19:11:36Z","tX":540,"tY":365,"tags":{"addr:city":"Iseo","addr:hamlet":"Clusane","addr:housenumber":"166","addr:postcode":"25049","addr:street":"Via Risorgimento","caravans":"yes","motorhome":"yes","name":"Camping Sebino","phone":"+39 030 989216","power_supply":"yes","shower":"yes","socket:cee_blue":"yes","tents":"yes","toilets":"yes","website":"https://www.campingsebino.com/"}},"1313756547":{"location":[45.7397288,10.115177],"ct":"IT","tp":"CR","ts":"2024-09-06T12:28:16Z","tX":540,"tY":365,"tags":{"addr:housenumber":"16","addr:postcode":"25054","addr:street":"Via Madonna della Rota","area":"yes","email":"cilenef@libero.it","internet_access":"wlan","name":"Chalet della Rota","phone":"+393388776687","power_supply":"yes","shower":"yes","socket:cee_blue":"yes","toilets":"yes"}},"1313762094":{"location":[45.8072029,10.0504326],"ct":"IT","tp":"CR","ts":"2024-09-06T12:52:41Z","tX":540,"tY":365,"tags":{"capacity:caravans":"4","fee":"no","internet_access":"no","name":"Pianico","power_supply":"yes","sanitary_dump_station":"no","wheelchair":"yes"}},"9777314743":{"location":[45.8072028,10.0504051],"ct":"IT","tp":"CR","ts":"2024-09-06T12:52:41Z","tX":540,"tY":365,"tags":{"capacity:caravans":"4","fee":"no","internet_access":"no","name":"Pianico","power_supply":"yes","sanitary_dump_station":"no","wheelchair":"yes"}},"10572937609":{"location":[45.7055688,10.1098904],"ct":"IT","tp":"CR","ts":"2023-01-21T16:24:07Z","tX":540,"tY":365,"tags":{"name":"Centro camper Sebino"}},"11549453718":{"location":[45.6884851,10.1030585],"ct":"IT","tp":"CR","ts":"2024-01-25T11:15:21Z","tX":540,"tY":365,"tags":{"addr:city":"Sulzano","addr:housenumber":"14","addr:postcode":"25058","addr:street":"Via Tassano","name":"Area Sosta Camper Gerolo","phone":"+39 030 985262","website":"https://gerolo.com/"}},"11826274235":{"location":[45.663977,10.0568108],"ct":"IT","tp":"SD","ts":"2024-04-17T20:31:22Z","tX":540,"tY":365,"tags":{"access":"private","fee":"no","water_point":"no"}},"12159304113":{"location":[45.6657209,10.0639721],"ct":"IT","tp":"SD","ts":"2024-09-06T06:04:09Z","tX":540,"tY":365,"tags":{"access":"customers","fee":"yes"}},"12160014998":{"location":[45.7518737,10.1182273],"ct":"IT","tp":"SD","ts":"2024-09-06T12:35:41Z","tX":540,"tY":365,"tags":{"water_point":"yes"}},"12174610718":{"location":[45.677936,10.0768144],"ct":"IT","tp":"SD","ts":"2024-09-13T10:45:13Z","tX":540,"tY":365,"tags":{"access":"customers","fee":"no","operator":"Camping pilzone","water_point":"no"}}}