{"283069009":{"location":[44.9529885,10.0722305],"ct":"IT","tp":"CR","ts":"2024-10-29T09:17:06Z","tX":540,"tY":368,"tags":{"access":"tourist_bus","caravans":"yes","fee":"no","maxstay":"12 hours","operator":"Parcheggio Roncole Verdi","power_supply":"no","reservation":"no","sanitary_dump_station":"no","shower":"no","surface":"asphalt","tents":"no","toilets":"yes","website":"https://bussetolive.com/it/ambiente-natura/camper/"}},"544393855":{"location":[44.8774882,10.1715884],"ct":"IT","tp":"CR","ts":"2024-08-30T22:11:35Z","tX":540,"tY":368,"tags":{"addr:city":"Fontanellato","addr:postcode":"43012","addr:street":"via XXIV Maggio","capacity":"110","charge":"10 EUR","dog":"yes","fee":"yes","internet_access":"no","mobile":"+393458879979","name":"Area Sosta Camper Fontanellato","operator":"Vagabond Camper","power_supply":"yes","sanitary_dump_station":"yes","shower":"no","socket:cee_blue":"yes","supervised":"yes","surface":"asphalt","toilets":"yes","website":"https://www.castellidelducato.it/castellidelducato/area-camper.asp?el=area-sosta-camper-fontanellato"}},"822635133":{"location":[44.8497739,9.8630868],"ct":"IT","tp":"CR","ts":"2024-01-01T14:40:50Z","tX":540,"tY":368,"tags":{"fee":"no","operator":"Area Camper","parking":"surface","ref":"4"}},"1077720438":{"location":[44.9774199,10.049438],"ct":"IT","tp":"CR","ts":"2024-08-30T22:20:16Z","tX":540,"tY":368,"tags":{"addr:city":"Busseto","addr:street":"Via Wolfgang Amadeus Mozart","capacity":"16","dog":"yes","fee":"yes","name":"Area Camper “Don Camillo e Peppone”","power_supply":"yes","sanitary_dump_station":"yes","socket:cee_blue":"yes","website":"https://bussetolive.com/it/ambiente-natura/camper/"}},"4794008921":{"location":[44.9614101,9.9050437],"ct":"IT","tp":"CR","ts":"2017-04-14T19:52:53Z","tX":540,"tY":368,"tags":{}}}