{"26859374":{"location":[44.806667,10.008056],"ct":"IT","tp":"CS","ts":"2024-08-30T16:29:58Z","tX":540,"tY":369,"tags":{"caravans":"yes","created_by":"JOSM","drinking_water":"yes","name":"Arizona","power_supply":"yes","sanitary_dump_station":"yes","shower":"yes","tents":"yes","toilets":"yes"}},"119392785":{"location":[44.6253139,10.1009307],"ct":"IT","tp":"CR","ts":"2015-04-27T17:21:59Z","tX":540,"tY":369,"tags":{"area":"yes","highway":"service","power_supply":"yes","service":"parking_aisle","tents":"no","toll":"yes"}},"767502713":{"location":[44.6252956,10.1009027],"ct":"IT","tp":"CR","ts":"2016-04-14T10:40:32Z","tX":540,"tY":369,"tags":{"caravans":"yes","name":"area bardone"}},"1098315731":{"location":[44.8201519,9.9899572],"ct":"IT","tp":"CR","ts":"2024-08-09T15:33:43Z","tX":540,"tY":369,"tags":{"addr:city":"Salsomaggiore Terme","addr:street":"Via Antonio Gramsci","capacity":"20","drinking_water":"yes","fee":"no","name":"Area sosta Salsomaggiore Terme","power_supply":"no","toilets":"no","website":"https://www.comune.salsomaggiore-terme.pr.it/vivere-il-comune/luoghi/struttura-ricettiva/area-sosta-camper"}},"1458904376":{"location":[44.6250964,9.8644617],"ct":"IT","tp":"CS","ts":"2024-08-27T16:07:20Z","tX":540,"tY":369,"tags":{"addr:housenumber":"119","addr:place":"Ca' Fornello","cabins":"yes","name":"Villaggio turistico Il falco","phone":"+39 052570191","shower":"yes","tents":"yes","toilets":"yes","washing_machine":"yes","website":"https://www.villaggioturisticoilfalco.com/"}},"1458904377":{"location":[44.6251185,9.8649109],"ct":"IT","tp":"CR","ts":"2011-10-08T14:58:29Z","tX":540,"tY":369,"tags":{}},"4133792789":{"location":[44.6300111,9.8690459],"ct":"IT","tp":"CS","ts":"2019-04-15T21:23:14Z","tX":540,"tY":369,"tags":{"addr:housenumber":"110","addr:street":"Ca'Fornello110","internet_access":"wlan","name":"Camping il Falco","phone":"+39 0525 70102","website":"https://www.villaggioturisticoilfalco.com/"}}}