{"1358530":{"location":[44.3092915,10.0838265],"ct":"IT","tp":"CS","ts":"2024-04-19T10:28:37Z","tX":540,"tY":371,"tags":{"name":"Tavernelle"}},"231340489":{"location":[44.3041912,9.9498841],"ct":"IT","tp":"CS","ts":"2024-09-03T15:56:50Z","tX":540,"tY":371,"tags":{"addr:housenumber":"2","addr:street":"Via Nazionale","name":"Camping il Castagneto","note":"Closed","phone":"+39 0187 493492","website":"http://www.campingilcastagneto.it/"}},"235927194":{"location":[44.170096,10.1562706],"ct":"IT","tp":"CR","ts":"2024-08-19T13:13:22Z","tX":540,"tY":371,"tags":{"capacity":"25","drinking_water":"yes","fee":"no","internet_access":"no","level":"0","name":"Area Camper di Equi Terme","power_supply":"no","sanitary_dump_station":"yes","toilets":"no","wheelchair":"yes"}},"375462717":{"location":[44.09281,9.9513495],"ct":"IT","tp":"CS","ts":"2024-09-17T19:21:43Z","tX":540,"tY":371,"tags":{"barrier":"fence","caravans":"yes","fence_type":"chain_link","name":"Senato Park","phone":"+39 33 636 5489","tents":"yes","website":"https://www.facebook.com/senatoparklerici/?locale=it_IT"}},"378942658":{"location":[44.0942358,9.9520843],"ct":"IT","tp":"CS","ts":"2024-09-17T19:21:43Z","tX":540,"tY":371,"tags":{"addr:city":"Lerici","addr:country":"IT","addr:housenumber":"11","addr:place":"Senato","addr:postcode":"19032","addr:street":"Via del Fiume","alt_name":"Camping Da Gianni","barrier":"fence","fence_type":"chain_link","internet_access":"wlan","internet_access:fee":"no","name":"Da Gianni","old_name":"Camping River","operator":"Gianini","power_supply":"yes","tents":"yes","website":"https://www.facebook.com/p/Camping-da-Gianni-100069210408929/"}},"736359200":{"location":[44.1326424,10.0170486],"ct":"IT","tp":"CR","ts":"2023-03-22T15:38:57Z","tX":540,"tY":371,"tags":{}},"862836997":{"location":[44.0905482,10.0217708],"ct":"IT","tp":"CS","ts":"2020-10-22T20:20:32Z","tX":540,"tY":371,"tags":{"name":"Ippotur Agriturismo"}},"1122582421":{"location":[44.1093536,9.8616559],"ct":"IT","tp":"CR","ts":"2025-04-30T19:49:36Z","tX":540,"tY":371,"tags":{"addr:city":"La Spezia","addr:postcode":"19136","addr:street":"Via Valdilocchi per Via delle Casermette","capacity:caravans":"36","email":"ParkCamperSP@mobpark.it","fax":"+39 0187 187 5308","internet_access":"yes","motorhome":"designated","name":"Area Sosta Camper ATCMP","note":"Area Sosta per Camper e Roulotte ATCMP di nuova costruzione, inaugurata il 10 giugno 2022, con 36 piazzole, docce calde e colonnine di ricarica elettrica 25A Per informazioni contattare ATC Mobilità e Parcheggi Spa www.mobpark.it Tel. +39.0187.1875303 F","phone":"+39 0187 187 5303","power_supply":"yes","sanitary_dump_station":"yes"}},"1313062456":{"location":[44.2601439,10.0054747],"ct":"IT","tp":"CS","ts":"2024-09-17T18:52:32Z","tX":540,"tY":371,"tags":{"caravans":"yes","facebook":"https://www.facebook.com/AgriCampingUlivetta","fax":"+39 0187 1852512","internet_access":"no","internet_access:fee":"no","motorhome":"yes","name":"Ulivetta","phone":"+39 347 2343196;+39 347 2343197","shower":"yes","tents":"yes","toilets":"yes","wheelchair":"no"}},"1316181118":{"location":[44.201397,10.058974],"ct":"IT","tp":"CR","ts":"2024-09-17T18:49:52Z","tX":540,"tY":371,"tags":{"addr:housenumber":"13","addr:street":"Via Francesco Rismondo","name":"Area Camper Rometta","power_supply":"yes","power_supply:fee":"yes","socket:cee_blue":"yes"}},"1316184250":{"location":[44.2389084,10.1280381],"ct":"IT","tp":"CR","ts":"2024-09-17T18:51:03Z","tX":540,"tY":371,"tags":{"fee":"no","name":"Area Camper Fivizzano","power_supply":"yes","power_supply:fee":"yes","sanitary_dump_station":"yes"}},"1316221651":{"location":[44.101963,10.0028695],"ct":"IT","tp":"CS","ts":"2024-09-17T19:16:03Z","tX":540,"tY":371,"tags":{"addr:housenumber":"49","addr:street":"Via Montefrancio","area":"yes","caravans":"yes","fee":"yes","name":"Agricampeggio Ca' Romeo","power_supply":"yes","website":"https://www.agricampeggiocaromeo.it/"}},"1316394586":{"location":[44.1036906,9.9067558],"ct":"IT","tp":"CS","ts":"2024-09-18T14:31:54Z","tX":540,"tY":371,"tags":{"addr:city":"Arcola","addr:housenumber":"71/e","addr:postcode":"19021","addr:street":"Via Ressora","caravans":"no","drinking_water":"yes","motorhome":"no","name":"Oasi del Belvivere","phone":"+39 3408549378","power_supply":"yes","tents":"yes","washing_machine":"yes","website":"https://www.oasidelbelvivere.it/"}},"8940830087":{"location":[44.1993607,10.1732491],"ct":"IT","tp":"CS","ts":"2024-09-17T15:54:33Z","tX":540,"tY":371,"tags":{"access":"yes","addr:city":"Casola in Lunigiana","addr:housenumber":"3","addr:postcode":"54014","addr:street":"Via Casola","caravans":"yes","email":"asdcampinglatraina@gmail.com","fee":"yes","name":"ASD Camping La Traìna","note":"+39 327 0944031 Cellulari\n+39 340 9398323\n+39 392 0300113\nZona (Campo Sportivo)\nArea Sosta Camper e Campeggio attrezzato","openfire":"yes","opening_hours":"24/7","operator":"Club Alpino Sez. di Sarzana","power_supply":"yes","shower":"yes","toilets":"yes","wheelchair":"yes"}},"6893905949":{"location":[44.1327462,10.0172863],"ct":"IT","tp":"CR","ts":"2019-10-17T21:28:00Z","tX":540,"tY":371,"tags":{}},"9774175017":{"location":[44.3065413,9.9941052],"ct":"IT","tp":"CR","ts":"2022-05-27T05:41:57Z","tX":540,"tY":371,"tags":{"addr:housenumber":"8","addr:postcode":"54021","addr:street":"Località Pagazzana","name":"Azienda Agricola del Lupo"}},"12182383686":{"location":[44.2014712,10.0591332],"ct":"IT","tp":"SD","ts":"2024-09-17T15:43:49Z","tX":540,"tY":371,"tags":{"fee":"no","water_point":"yes"}}}