{"1347626":{"location":[44.0615463,9.9312201],"ct":"IT","tp":"CS","ts":"2024-09-17T19:55:15Z","tX":540,"tY":372,"tags":{"capacity:caravans":"25","capacity:tents":"40","caravans":"yes","fee":"yes","name":"Gianna","phone":"+39 0187 966411","tents":"yes","website":"https://www.campeggiogianna.com"}},"329210356":{"location":[44.0696214,9.9101555],"ct":"IT","tp":"CS","ts":"2015-02-20T00:05:00Z","tX":540,"tY":372,"tags":{"name":"Maralunga","phone":"+39 0187 966589","website":"http://www.campeggiomaralunga.it"}},"380886919":{"location":[44.0510776,10.0071334],"ct":"IT","tp":"CR","ts":"2021-02-22T14:42:13Z","tX":540,"tY":372,"tags":{"fee":"yes","toilets:wheelchair":"no","wheelchair":"yes"}},"420074083":{"location":[44.0273185,10.0774195],"ct":"IT","tp":"CS","ts":"2024-08-16T07:35:29Z","tX":540,"tY":372,"tags":{"addr:city":"Massa","addr:housenumber":"6","addr:postcode":"54037","addr:street":"Via dei Campeggi","capacity":"700","caravans":"yes","description":"Campeggio con piscina, bar, alimentari","email":"info@campinglillymoderno.com","fee":"yes","motorhome":"yes","name":"Campeggio Lilly Moderno","phone":"+39 0585 86936","phone:mobile":"+39 324 6352993","power_supply":"yes","socket:cee_blue":"yes","static_caravans":"no","tents":"yes"}},"430206448":{"location":[44.075598,9.980385],"ct":"IT","tp":"CS","ts":"2025-03-09T16:19:36Z","tX":540,"tY":372,"tags":{"addr:city":"Sarzana","addr:housenumber":"54","addr:street":"Viale 25 Aprile","cabins":"yes","capacity:caravans":"200","caravans":"yes","email":"info@marina3b.it","fee":"yes","motorhome":"yes","name":"Parco vacanze Marina 3B","phone":"+39 0187 676370","tents":"yes","website":"https://www.marina3b.it/it"}},"463398872":{"location":[44.0288455,10.0724381],"ct":"IT","tp":"CS","ts":"2024-08-16T07:35:29Z","tX":540,"tY":372,"tags":{"addr:city":"Marina di Massa","addr:housenumber":"119","addr:postcode":"54100","addr:street":"Via Flavio Torello Baracchini","contact:whatsapp":"+39 331.6797719","fee":"yes","fixme":"Resurvey. Exact location except entrance and reception unknown","motorhome":"yes","name":"Dal Pino","phone":"+39 0585.630164","power_supply":"yes","power_supply:maxcurrent":"6","sanitary_dump_station":"yes","shower":"yes","socket:cee_blue":"yes","stars":"3","static_caravans":"yes","washing_machine":"yes"}},"463599234":{"location":[44.0456104,10.0199976],"ct":"IT","tp":"CS","ts":"2024-08-08T09:11:55Z","tX":540,"tY":372,"tags":{"addr:city":"Carrara","addr:postcode":"54033","addr:street":"Via Carlo Fabbricotti","caravans":"yes","facebook":"Camping-Carrara-100063564823040","name":"Camping Carrara","phone":"+39 351 764 2855","power_supply":"yes","tents":"yes"}},"508579815":{"location":[44.0289666,10.0808667],"ct":"IT","tp":"CS","ts":"2024-08-17T17:30:29Z","tX":540,"tY":372,"tags":{"addr:city":"Marina di Massa","addr:postcode":"54100","addr:street":"Via Silcia","dog":"no","email":"info@campingapuano.com","internet_access":"wlan","motorhome":"yes","name":"Camping Apuano","nohousenumber":"yes","phone":"+39 0585 869288","power_supply":"yes","socket:cee_blue":"yes","website":"https://www.campingapuano.com/"}},"508579816":{"location":[44.0280588,10.0798246],"ct":"IT","tp":"CS","ts":"2017-07-19T04:26:39Z","tX":540,"tY":372,"tags":{}},"518290996":{"location":[44.0818107,9.9125965],"ct":"IT","tp":"CR","ts":"2024-04-01T20:32:14Z","tX":540,"tY":372,"tags":{"addr:city":"Lerici","addr:postcode":"19032","addr:street":"Località Vallata","capacity":"10","name":"Parking Vallata","operator":"STL Srl","supervised":"no"}},"751609709":{"location":[44.0318305,10.0620925],"ct":"IT","tp":"CR","ts":"2019-12-02T15:24:41Z","tX":540,"tY":372,"tags":{"name":"Area occupata"}},"974098797":{"location":[44.0304253,10.073856],"ct":"IT","tp":"CS","ts":"2023-06-16T21:49:07Z","tX":540,"tY":372,"tags":{"access":"yes","addr:city":"Massa","addr:housenumber":"30","addr:postcode":"54100","addr:street":"Via del Cacciatore","cabins":"yes","capacity":"240","caravans":"yes","description":"Campeggio 4 stelle con ampie piazzole, piscina, bar, ristorante, colonnina di ricarica per auto","dog":"leashed","email":"info@campingtaimi.it","fee":"yes","internet_access":"wlan","name":"Camping Taimì","payment:cash":"yes","payment:contactless":"yes","payment:credit_cards":"yes","phone":"+390585789262","power_supply":"yes","shower":"yes","stars":"4","swimming_pool":"yes","tents":"yes","toilets":"yes","website":"https://www.campingtaimi.it","wheelchair":"yes"}},"1026178688":{"location":[44.0296739,10.0685053],"ct":"IT","tp":"CS","ts":"2024-08-16T08:55:02Z","tX":540,"tY":372,"tags":{"addr:city":"Massa","addr:country":"IT","addr:housenumber":"412","addr:place":"Marina di Massa in località Partaccia","addr:postcode":"54100","addr:street":"Via delle Pinete","cabins":"yes","caravans":"yes","dog":"yes","email":"info@campeggioitalia.com","fax":"+39 0585 631733","internet_access":"yes","motorhome":"yes","name":"Campeggio Italia","phone":"+39 0585 780055","power_supply":"yes","sanitary_dump_station":"yes","socket:cee_blue":"yes","stars":"3","tents":"yes","website":"https://www.campeggioitalia.com/"}},"1182538363":{"location":[44.0273141,10.0706021],"ct":"IT","tp":"CS","ts":"2023-06-16T21:55:24Z","tX":540,"tY":372,"tags":{"access":"yes","addr:city":"Massa","addr:housenumber":"392","addr:postcode":"54100","addr:street":"Viale delle Pinete","capacity":"200","charge":"0.40€ a notte a persona","description":"Camping Luna con piazzole e bungalow","dog":"leashed","email":"info@campingluna.it","fee":"yes","internet_access":"yes","name":"Camping Luna","payment:cash":"yes","payment:credit_cards":"yes","phone":"+390585780460","playground":"no","power_supply":"yes","shower":"yes","stars":"3","swimming_pool":"no","toilets":"yes","website":"https://www.campingluna.it","wheelchair":"yes"}},"1182652350":{"location":[44.0293827,10.0730373],"ct":"IT","tp":"CS","ts":"2024-08-16T07:35:29Z","tX":540,"tY":372,"tags":{"addr:city":"Marina di Massa","addr:housenumber":"117","addr:postcode":"54100","addr:street":"Via Flavio Torello Baracchini","caravans":"yes","dog":"yes","email":"info@campingnuovo.it","fixme":"Resurvey. Exact location except entrance and reception unknown","motorhome":"yes","name":"Nuovo","phone":"+39 0585 780047","power_supply":"yes","sanitary_dump_station":"yes","shower":"yes","socket:cee_blue":"yes","stars":"3","tents":"yes","toilets":"yes","washing_machine":"yes","website":"https://www.campingnuovo.it/"}},"1182652351":{"location":[44.0280664,10.0708174],"ct":"IT","tp":"CS","ts":"2024-08-16T07:35:29Z","tX":540,"tY":372,"tags":{"cabins":"yes","caravans":"yes","dog":"yes","fixme":"Resurvey. Exact location except entrance and reception unknown","motorhome":"yes","name":"Partaccia 1","power_supply":"yes","power_supply:maxcurrent":"6","sanitary_dump_station":"yes","socket:cee_blue":"yes","tents":"yes","washing_machine":"yes","website":"https://www.partaccia.it/"}},"1182655160":{"location":[44.0305511,10.0700136],"ct":"IT","tp":"CS","ts":"2024-08-16T08:55:02Z","tX":540,"tY":372,"tags":{"addr:city":"Marina di Massa","addr:housenumber":"184","addr:postcode":"54100","addr:street":"Via Flavio Torello Baracchini","cabins":"yes","caravans":"yes","dog":"no","fee":"yes","fixme":"Resurvey. Exact location except entrance unknown","motorhome":"yes","name":"Sogno","phone":"+39 0585 780233","power_supply":"yes","socket:cee_blue":"yes","stars":"3","tents":"yes","website":"https://www.campingsogno.com/"}},"1308101381":{"location":[44.0283958,10.0788718],"ct":"IT","tp":"CS","ts":"2024-08-16T07:35:29Z","tX":540,"tY":372,"tags":{"addr:housenumber":"15","addr:street":"Via dei Campeggi","area":"yes","caravans":"yes","contact:facebook":"https://m.facebook.com/ilariag87/","motorhome":"yes","name":"Parco Vacanze Edera","phone":"+39 0585 869298","power_supply":"yes","shower":"yes","socket:cee_blue":"yes","tents":"yes","toilets":"yes","washing_machine":"yes"}},"1308101382":{"location":[44.0278506,10.0759026],"ct":"IT","tp":"CS","ts":"2024-08-16T07:35:29Z","tX":540,"tY":372,"tags":{"addr:city":"Massa","addr:housenumber":"2","addr:street":"Via del Cacciatore","capacity:caravans":"150","capacity:tents":"150","caravans":"yes","dog":"yes","motorhome":"yes","name":"Camping Il Prato","phone":"+39 0585 868454","power_supply":"yes","socket:cee_blue":"yes","stars":"3","tents":"yes"}},"1308101383":{"location":[44.0258939,10.0754217],"ct":"IT","tp":"CS","ts":"2024-08-16T07:35:29Z","tX":540,"tY":372,"tags":{"addr:city":"Marina di Massa","addr:housenumber":"382","addr:postcode":"54100","addr:street":"Viale delle Pinete","area":"yes","cabins":"yes","dog":"yes","email":"info@campinggiardino.com","height":"4","internet_access":"yes","internet_access:fee":"customers","motorhome":"yes","name":"Camping Giardino","phone":"+39 0585 1980493","power_supply":"yes","shower":"yes","socket:cee_blue":"yes","stars":"3","toilets":"yes","washing_machine":"yes","website":"https://www.campinggiardino.com/"}},"1308101385":{"location":[44.0277698,10.0742149],"ct":"IT","tp":"CS","ts":"2024-08-16T07:35:29Z","tX":540,"tY":372,"tags":{"addr:housenumber":"1a","addr:street":"Via del Cacciatore","cabins":"yes","capacity:caravans":"152","capacity:tents":"152","caravans":"yes","email":"info@campingverdemare.com","facebook":"https://www.facebook.com/p/Camping-Verde-Mare-100066259674497/","fee":"yes","motorhome":"yes","name":"Camping Verde Mare","phone":"+39 0585 240849","power_supply":"yes","socket:cee_blue":"yes","tents":"yes"}},"1308115507":{"location":[44.0327566,10.0711954],"ct":"IT","tp":"CS","ts":"2024-08-16T08:55:02Z","tX":540,"tY":372,"tags":{"addr:city":"Marina di Massa","addr:postcode":"54100","addr:street":"Via Partaccia","capacity":"384","internet_access":"wlan","internet_access:fee":"no","name":"Campeggio Linus","nudism":"no","operator":"Simone","power_supply":"yes","power_supply:maxcurrent":"4","reservation":"required","shower":"hot","socket:cee_blue":"yes","stars":"3","tents":"yes","toilets":"yes","wheelchair":"limited"}},"1308115509":{"location":[44.0319191,10.0708906],"ct":"IT","tp":"CS","ts":"2024-08-16T08:55:02Z","tX":540,"tY":372,"tags":{"addr:city":"Marina di Massa","addr:housenumber":"10","addr:postcode":"54100","addr:street":"Via Partaccia","area":"yes","cabins":"yes","caravans":"yes","email":"nfo@campeggiocucciolo.com","motorhome":"yes","name":"Campeggio Il Cucciolo","phone":"+39 0585 780013","power_supply":"yes","socket:cee_blue":"yes","tents":"yes","website":"https://www.campeggiocucciolo.com/"}},"1308120942":{"location":[44.0249008,10.0782134],"ct":"IT","tp":"CS","ts":"2024-08-16T09:18:13Z","tX":540,"tY":372,"tags":{"addr:city":"Marina di Massa","addr:postcode":"54100","addr:street":"Via Fortino di San Francesco","cabins":"yes","caravans":"yes","dog":"no","fee":"yes","internet_access":"yes","motorhome":"yes","name":"Campeggio Lilly Pineta","phone":"+39 0585 869294","power_supply":"yes","sanitary_dump_station":"yes","socket:cee_blue":"yes","tents":"yes","website":"https://www.lillypineta.com/"}},"1316226040":{"location":[44.0764553,9.9722641],"ct":"IT","tp":"CS","ts":"2024-09-26T00:09:21Z","tX":540,"tY":372,"tags":{"area":"yes","caravans":"yes","fee":"yes","motorhome":"yes","name":"River","power_supply":"yes","power_supply:maxcurrent":"6;10","service":"driveway","socket:cee_blue":"yes","tents":"yes","website":"https://campingriver.com/"}},"1718937768":{"location":[44.0228502,10.0797837],"ct":"IT","tp":"CS","ts":"2016-06-13T14:46:13Z","tX":540,"tY":372,"tags":{"name":"Camping Giardino","source":"http://www.campinggiardino.com/"}},"4438212173":{"location":[44.0626066,9.9762856],"ct":"IT","tp":"CS","ts":"2016-10-08T20:07:15Z","tX":540,"tY":372,"tags":{"name":"Agrituristica / Agri Camping","operator":"Fattoria di Fasano di Grassi Alessandra"}},"8155164737":{"location":[44.0323341,10.0738661],"ct":"IT","tp":"CS","ts":"2020-11-23T16:13:03Z","tX":540,"tY":372,"tags":{"name":"Camping Calatella"}},"10967980405":{"location":[44.0220224,10.0797898],"ct":"IT","tp":"CS","ts":"2023-06-10T16:24:05Z","tX":540,"tY":372,"tags":{"addr:city":"Massa","addr:housenumber":"350","addr:postcode":"54100","addr:street":"Via delle Pinete","dog":"yes","fee":"yes","internet_access":"wlan","name":"Campeggio Souvenir","phone":"+39 0585 869422","reservation":"yes","static_caravans":"yes"}},"9674487617":{"location":[44.0327692,10.0749366],"ct":"IT","tp":"CR","ts":"2022-04-18T14:49:19Z","tX":540,"tY":372,"tags":{"name":"Time Break","opening_hours":"Mo-Su 08:00-12:30,15:00-22:00"}}}