{"236010445":{"location":[45.6717091,-62.3511816],"ct":"CA","tp":"CR","ts":"2019-07-17T18:51:36Z","tX":334,"tY":365,"tags":{"fee":"yes","name":"Cranberry Campground","phone":"+1-902-926-2571","power_supply":"yes","source":"NRCan-CanVec-10.0","tents":"yes"}},"237466962":{"location":[45.5968599,-62.3892008],"ct":"CA","tp":"CS","ts":"2013-09-10T23:12:57Z","tX":334,"tY":365,"tags":{"source":"NRCan-CanVec-10.0"}},"2440850999":{"location":[45.6853793,-62.3243562],"ct":"CA","tp":"CS","ts":"2020-10-21T13:48:54Z","tX":334,"tY":365,"tags":{"access":"customers","addr:city":"Merigomish","addr:housenumber":"3555","addr:postcode":"B0K1G0","addr:province":"Nova Scotia","addr:street":"Highway 245","group_only":"yes","name":"Camp Geddie","note":"remote area building","operator":"The Synod of the Atlantic Provinces","phone":"+1(902)926-2632","source":"NRCan-CanVec-10.0","website":"https://campgeddie.ca/"}},"2474566207":{"location":[45.653682,-62.5577434],"ct":"CA","tp":"CS","ts":"2013-09-27T22:58:49Z","tX":334,"tY":365,"tags":{"source":"NRCan-CanVec-10.0"}},"2474570173":{"location":[45.6635668,-62.5610478],"ct":"CA","tp":"CS","ts":"2013-09-27T22:59:42Z","tX":334,"tY":365,"tags":{"source":"NRCan-CanVec-10.0"}},"8032571567":{"location":[45.6860282,-62.3127511],"ct":"CA","tp":"CR","ts":"2024-04-25T00:49:36Z","tX":334,"tY":365,"tags":{"addr:city":"Merigomish","addr:housenumber":"64","addr:postcode":"B0K 1G0","addr:province":"Nova Scotia","addr:street":"Kennedy Lane","capacity":"55","email":"info@oceanfrontrvpark","internet_access":"wlan","internet_access:fee":"no","name":"Oceanfront Seasonal RV Park","phone":"+1 902-754-7733","power_supply":"yes","sanitary_dump_station":"yes","website":"https://www.oceanfrontrvpark.ca/"}}}