{"117020595":{"location":[44.9271188,-66.985196],"ct":"CA","tp":"CS","ts":"2018-02-13T04:05:23Z","tX":321,"tY":368,"tags":{"addr:city":"Lord's Cove","addr:housenumber":"PO Box 333","addr:postcode":"E5V 1W2","name":"Deer Island Point Campground","source":"NRCan-CanVec-7.0","website":"http://www.deerislandpointpark.com/"}},"564461944":{"location":[45.0705412,-67.0396106],"ct":"CA","tp":"CS","ts":"2020-07-20T19:15:53Z","tX":321,"tY":368,"tags":{"addr:city":"St. Andrews","addr:housenumber":"550","addr:street":"Water Street","capacity":"175","fee":"yes","internet_access":"wlan","name":"Kiwanis Oceanfront Camping","phone":"+1-506-529-3439"}},"1049624487":{"location":[44.8764018,-66.9366884],"ct":"CA","tp":"CS","ts":"2022-08-17T13:03:47Z","tX":321,"tY":368,"tags":{"addr:city":"Campobello Island","addr:housenumber":"136","addr:province":"NB","addr:street":"Herring Cove Road","fee":"yes","name":"Herring Cove Provincial Park Campground","operator":"Parks New Brunswick","reservation":"recommended"}},"7567036456":{"location":[44.9184056,-67.0041592],"ct":"US","tp":"CS","ts":"2020-05-28T18:53:17Z","tX":321,"tY":368,"tags":{"addr:city":"Eastport","addr:housenumber":"16","addr:postcode":"04631","addr:state":"ME","addr:street":"Norwood Road"}},"7567036474":{"location":[44.9194402,-67.0028373],"ct":"US","tp":"CS","ts":"2020-05-28T18:53:17Z","tX":321,"tY":368,"tags":{"addr:city":"Eastport","addr:housenumber":"21","addr:postcode":"04631","addr:state":"ME","addr:street":"Norwood Road"}},"5438523151":{"location":[45.0700488,-67.0406325],"ct":"CA","tp":"SD","ts":"2018-02-26T21:54:05Z","tX":321,"tY":368,"tags":{}}}