{"992054401":{"location":[18.3804967,-66.9268068],"ct":"US","tp":"CS","ts":"2021-10-11T21:16:30Z","tX":321,"tY":458,"tags":{"group_only":"yes"}},"1365341292":{"location":[18.3696293,-66.8989325],"ct":"US","tp":"CS","ts":"2025-03-07T16:25:38Z","tX":321,"tY":458,"tags":{"access":"customers","camp_site":"standard","caravans":"no","group_only":"no","name":"Aventureo PR Campsite Guajataca","operator":"Aventureo PR","static_caravans":"no","tents":"no","website":"https://aventureopr.com/campsites/"}},"1983206589":{"location":[18.3679651,-66.9206686],"ct":"US","tp":"CS","ts":"2025-03-27T11:47:02Z","tX":321,"tY":458,"tags":{"access":"permissive","addr:city":"San Sebasti√°n","addr:postcode":"00685","addr:state":"PR","addr:street":"PR-119 km 23.9","alt_name":"Campamento Guajataka","alt_name:en":"Camp Guajataka","capacity":"500","facebook":"https://www.facebook.com/guajataka","fee":"no","name":"Guajataka Scout Reservation","name:en":"Guajataka Scout Reservation","name:es":"Campamento Guajataka","official_name":"Guajataka Scout Reservation","official_name:en":"Guajataka Scout Reservation","official_name:es":"Campamento Guajataka","operator":"Concilio de Puerto Rico","short_name":"Camp Guajataka","wikidata":"Q110255114","wikipedia":"en:Guajataka Scout Reservation","year":"1938"}},"11004259897":{"location":[18.4130834,-66.9669347],"ct":"US","tp":"CS","ts":"2023-06-24T20:14:26Z","tX":321,"tY":458,"tags":{}}}