{"219760845":{"location":[-38.6550378,146.2051008],"ct":"AU","tp":"CS","ts":"2013-09-20T06:06:08Z","tX":927,"tY":631,"tags":{"source":"bing"}},"239254990":{"location":[-38.8111573,146.0367594],"ct":"AU","tp":"CR","ts":"2024-06-23T02:27:11Z","tX":927,"tY":631,"tags":{"addr:city":"Waratah Bay","addr:postcode":"3959","addr:street":"Freycinet Street","name":"Waratah Bay Caravan Park","phone":"+61 3 5684 1339","website":"https://www.waratahbaycaravanpark.com.au/"}},"537644335":{"location":[-38.8106729,146.0632276],"ct":"AU","tp":"CS","ts":"2024-04-27T06:06:12Z","tX":927,"tY":631,"tags":{"addr:city":"Waratah Bay","addr:housenumber":"30","addr:postcode":"3959","addr:state":"VIC","addr:street":"Gale Street","name":"Waratah Beach Camp","phone":"+61 3 5684 1435","website":"https://www.waratahbeachcamp.com.au/"}},"1808392104":{"location":[-38.82111,146.17167],"ct":"AU","tp":"CS","ts":"2012-07-01T04:21:01Z","tX":927,"tY":631,"tags":{"name":"Shallow Inlet Campground"}},"4724991789":{"location":[-38.8189157,146.1718593],"ct":"AU","tp":"CR","ts":"2019-12-29T01:12:30Z","tX":927,"tY":631,"tags":{"name":"Shallow Inlet Caravan Park","name:en":"Shallow Inlet Caravan Park","phone":"+61 3 5687 1385","website":"http://www.sicp.com.au"}}}