{"230620781":{"location":[-41.1534435,146.1875312],"ct":"AU","tp":"CS","ts":"2013-07-21T01:01:49Z","tX":927,"tY":640,"tags":{}},"230699482":{"location":[-41.144382,146.1618941],"ct":"AU","tp":"CR","ts":"2023-07-21T17:59:49Z","tX":927,"tY":640,"tags":{"name":"Apex Beachside Holiday Park"}},"230699483":{"location":[-41.1417785,146.1600065],"ct":"AU","tp":"CS","ts":"2013-07-21T13:16:00Z","tX":927,"tY":640,"tags":{}},"230915900":{"location":[-41.153628,146.1816867],"ct":"AU","tp":"CR","ts":"2023-08-10T17:31:08Z","tX":927,"tY":640,"tags":{"brand":"Big 4 Holiday Parks","brand:wikidata":"Q18636678","name":"BIG4 Ulverstone Holiday Park","operator":"Big 4","short_name":"Big4","website":"http://www.big4ulverstone.com.au"}},"310751213":{"location":[-41.0939396,146.0280052],"ct":"AU","tp":"CR","ts":"2014-11-02T04:57:57Z","tX":927,"tY":640,"tags":{"fee":"no","internet_access":"no","name":"Hall Point","power_supply":"no","surface":"grass","tents":"no"}},"316590859":{"location":[-41.0686826,145.930016],"ct":"AU","tp":"CS","ts":"2012-06-16T13:21:19Z","tX":927,"tY":640,"tags":{"name":"Wivenhoe Showgrounds"}},"316590860":{"location":[-41.1066254,146.066539],"ct":"AU","tp":"CR","ts":"2023-11-14T03:21:38Z","tX":927,"tY":640,"tags":{"addr:housenumber":"6","addr:postcode":"7316","addr:state":"TAS","addr:street":"Johnsons Beach Road","addr:suburb":"Penguin","name":"Penguin Beachside Tourist Park"}},"667427701":{"location":[-41.2156489,145.9985434],"ct":"AU","tp":"CS","ts":"2019-01-31T11:55:37Z","tX":927,"tY":640,"tags":{"name":"Pioneer Park Camping Ground Riana"}},"697669557":{"location":[-41.1581348,146.242862],"ct":"AU","tp":"CR","ts":"2023-09-08T17:07:25Z","tX":927,"tY":640,"tags":{"addr:country":"AU","addr:housenumber":"45","addr:postcode":"7315","addr:state":"TAS","addr:street":"Esplanade","addr:suburb":"Turners Beach","name":"Turners Beach Caravan Park"}},"1175896050":{"location":[-41.1380304,146.1353624],"ct":"AU","tp":"CR","ts":"2023-06-29T05:52:43Z","tX":927,"tY":640,"tags":{"addr:housenumber":"225","addr:postcode":"7315","addr:state":"TAS","addr:street":"Penguin Road","addr:suburb":"West Ulverstone","name":"Blue Wren Gardens and Accommodation"}},"1811191588":{"location":[-41.1141086,146.075815],"ct":"AU","tp":"CS","ts":"2015-12-23T04:18:46Z","tX":927,"tY":640,"tags":{"name":"Penguin Lions Park"}},"2425003217":{"location":[-41.2348427,146.0515582],"ct":"AU","tp":"CS","ts":"2019-02-10T23:43:52Z","tX":927,"tY":640,"tags":{"backcountry":"yes","name":"Adit Creek Campsite","operator":"Penguin to Cradle Trail","shower":"no","tents":"yes"}},"2425003218":{"location":[-41.2039021,146.0509457],"ct":"AU","tp":"CS","ts":"2020-08-17T06:47:09Z","tX":927,"tY":640,"tags":{"backcountry":"yes","caravans":"no","name":"Hardstaff Creek Campsite","operator":"Penguin to Cradle Trail","shower":"no","tents":"yes"}},"6275988843":{"location":[-41.083257,145.9760367],"ct":"AU","tp":"CS","ts":"2019-02-13T07:44:27Z","tX":927,"tY":640,"tags":{"access":"private","name":"Blythe Park","operator":"Scouts Tasmania"}},"10669891798":{"location":[-41.0969042,146.0403523],"ct":"AU","tp":"CS","ts":"2023-02-16T13:53:08Z","tX":927,"tY":640,"tags":{"name":"Preservation Bay"}},"10669901126":{"location":[-41.1097674,146.069309],"ct":"AU","tp":"SD","ts":"2023-02-16T13:47:17Z","tX":927,"tY":640,"tags":{}}}