{"738309725":{"location":[60.4412276,26.2371262],"ct":"FI","tp":"CS","ts":"2022-05-26T08:53:28Z","tX":586,"tY":294,"tags":{"access":"yes","addr:city":"Loviisa","addr:housenumber":"1","addr:postcode":"07900","addr:street":"Kapteenintie","bbq":"yes","cabins":"no","capacity":"50","caravans":"yes","charge":"30 €/matkailuajoneuvo, 15 €/teltta","ele":"2","email":"camping@loviisa.fi","fee":"yes","internet_access":"wlan","kitchen":"yes","name":"Loviisa Camping","name:fi":"Loviisa Camping","phone":"+358 40 579 5527","reservation":"yes","sanitary_dump_station":"no","shower":"yes","tents":"yes","toilets":"yes","washing_machine":"yes","website":"https://www.loviisa.fi/loviisa-camping"}},"9798825443":{"location":[60.4563057,26.2206893],"ct":"FI","tp":"CR","ts":"2022-12-25T14:39:14Z","tX":586,"tY":294,"tags":{"addr:city":"Loviisa","addr:housenumber":"3","addr:postcode":"07900","addr:street":"Sibeliuksenkatu","website":"https://matkaparkki.com/"}},"9961125478":{"location":[60.4416086,26.2370224],"ct":"FI","tp":"CR","ts":"2023-01-25T11:58:02Z","tX":586,"tY":294,"tags":{"addr:city":"Loviisa","addr:housenumber":"1","addr:postcode":"07900","addr:street":"Kapteenintie","email":"camping@lovisa.fi","internet_access":"yes","name":"Lovisa Caravan","name:fi":"Loviisa Caravan","website":"https://www.loviisa.fi/kulttuuri-ja-vapaa-aika/loviisa-camping/"}},"11576955649":{"location":[60.4594227,26.1912782],"ct":"FI","tp":"CR","ts":"2024-02-01T18:27:28Z","tX":586,"tY":294,"tags":{"name":"BestPark Loviisa"}}}