{"232603049":{"location":[58.4297773,26.1760562],"ct":"EE","tp":"CS","ts":"2023-05-16T21:20:45Z","tX":586,"tY":306,"tags":{"backcountry":"yes","bbq":"yes","building":"yes","capacity:persons":"16","capacity:tents":"4","covered":"yes","fireplace":"yes","fixme":"According to the website the site is 300m to the North","name":"Rasti lõkkekoht","openfire":"yes","operator":"RMK","shower":"no","source":"GPS","tents":"yes","toilets":"yes","website":"https://loodusegakoos.ee/kuhuminna/kaitsealad/alam-pedja-looduskaitseala/5199"}},"391640678":{"location":[58.4077142,26.0530595],"ct":"EE","tp":"CS","ts":"2024-12-20T16:03:09Z","tX":586,"tY":306,"tags":{"addr:street":"Vaibla tee","email":"info@vaiblauhkekeskus.ee","name":"Vaibla Puhkekeskus","phone":"+37256226980","website":"https://www.vaiblapuhkekeskus.ee/"}},"3587530736":{"location":[58.3857354,26.1317638],"ct":"EE","tp":"CR","ts":"2024-06-23T05:35:23Z","tX":586,"tY":306,"tags":{"fee":"no"}},"4673565031":{"location":[58.4405678,26.1673417],"ct":"EE","tp":"CS","ts":"2023-12-26T22:07:14Z","tX":586,"tY":306,"tags":{"access":"yes","backcountry":"yes","capacity:persons":"16","capacity:tents":"4","caravans":"no","description":"Ligipääsetav ainult jõe kaudu.","description:en":"Accessible only by river.","fee":"no","name":"Rasti lõkkekoht","openfire":"yes","opening_hours":"24/7","operator":"RMK","power_supply":"no","reservation":"no","static_caravans":"no","tents":"yes","website":"https://loodusegakoos.ee/kuhuminna/kaitsealad/alam-pedja-looduskaitseala/5199"}},"5085198922":{"location":[58.3162389,26.3554658],"ct":"EE","tp":"CS","ts":"2019-12-01T09:31:23Z","tX":586,"tY":306,"tags":{"internet_access":"wlan","name":"Koomasaare","name:en":"Koomasaare","name:et":"Koomasaare","website":"http://www.koomasaare.ee/"}},"9966238037":{"location":[58.3653075,26.151739],"ct":"EE","tp":"CS","ts":"2024-08-07T19:42:31Z","tX":586,"tY":306,"tags":{"cabins":"yes","caravans":"yes","drinking_water":"yes","email":"kiviranna@kiviranna.ee","fee":"yes","motorhome":"yes","name":"Kiviranna Puhkemaja","name:en":"Kiviranna Holiday Home","openfire":"yes","payment:cards":"yes","phone":"+372 529 8561","power_supply":"yes","shower":"yes","static_caravans":"no","tents":"yes","toilets":"yes","website":"https://kiviranna.ee"}},"11457609180":{"location":[58.4231957,26.1787692],"ct":"EE","tp":"CS","ts":"2023-12-26T22:02:45Z","tX":586,"tY":306,"tags":{"access":"yes","backcountry":"yes","bbq":"yes","capacity:persons":"12","capacity:tents":"3","caravans":"no","description":"Ligipääsetav ainult jõe kaudu.","description:en":"Accessible only by river.","fee":"no","fireplace":"yes","name":"Naela lõkkekoht","openfire":"yes","opening_hours":"24/7","operator":"RMK","reservation":"no","shower":"no","static_caravans":"no","tents":"yes","toilets":"yes","website":"https://loodusegakoos.ee/kuhuminna/kaitsealad/alam-pedja-looduskaitseala/5197"}},"4307008991":{"location":[58.4082991,26.0508964],"ct":"EE","tp":"CR","ts":"2022-04-04T18:01:31Z","tX":586,"tY":306,"tags":{"addr:street":"Vaibla tee","email":"info@vaiblapukekeskus.ee","name":"Vaibla Puhkeskeskus","website":"https://www.vaiblapuhkekeskus.ee/"}}}