{"125209503":{"location":[57.5973514,26.2735833],"ct":"LV","tp":"CS","ts":"2011-08-08T19:05:51Z","tX":586,"tY":310,"tags":{}},"2334546171":{"location":[57.6214408,26.2567928],"ct":"EE","tp":"CS","ts":"2023-08-22T03:53:36Z","tX":586,"tY":310,"tags":{"access":"yes","backcountry":"yes","capacity:tents":"4","drinking_water":"no","fee":"no","name":"RMK Kõrgeperve lõkkekoht","name:en":"Kõrgeperve campfire site","name:ru":"Место для костра Кыргеперве","openfire":"yes","operator":"RMK","power_supply":"no","shower":"no","tents":"yes","toilets":"yes","website":"https://loodusegakoos.ee/kuhuminna/puhkealad/haanja-karula-puhkeala/1445","wheelchair":"no"}},"2359066130":{"location":[57.6286815,26.3099029],"ct":"EE","tp":"CS","ts":"2023-08-22T03:53:36Z","tX":586,"tY":310,"tags":{"access":"yes","backcountry":"yes","bbq":"yes","capacity:tents":"2","caravans":"no","drinking_water":"no","fee":"no","name":"Alumati lõkkekoht","name:en":"Alumati campfire site","name:ru":"Место для костра Алумати","openfire":"yes","operator":"RMK","power_supply":"no","shower":"no","static_caravans":"no","tents":"yes","toilets":"yes","toilets:wheelchair":"no","website":"https://loodusegakoos.ee/kuhuminna/puhkealad/haanja-karula-puhkeala/1446","wheelchair":"limited"}},"3556789085":{"location":[57.598743,26.3331124],"ct":"EE","tp":"CS","ts":"2023-08-22T03:53:36Z","tX":586,"tY":310,"tags":{"access":"yes","backcountry":"yes","bbq":"yes","covered":"yes","drinking_water":"no","fee":"no","fireplace":"yes","name":"Rattaradade lõkkekoht","name:en":"Cycling trails campfire site","name:ru":"Место для костра для путешествующих по велосипедным тропам","openfire":"yes","operator":"RMK","power_supply":"no","shower":"no","source":"maaamet","tents":"yes","toilets":"no","website":"https://loodusegakoos.ee/kuhuminna/puhkealad/haanja-karula-puhkeala/1439","wheelchair":"yes"}},"3556789086":{"location":[57.5971441,26.3289915],"ct":"EE","tp":"CS","ts":"2023-08-22T03:53:36Z","tX":586,"tY":310,"tags":{"access":"yes","backcountry":"yes","capacity:tents":"10","covered":"yes","fireplace":"yes","name":"Tellingumäe lõkkekoht","name:en":"Tellingumäe campfire site","name:ru":"Место для костра Теллингумяэ","operator":"RMK","source":"maaamet","website":"https://loodusegakoos.ee/kuhuminna/puhkealad/haanja-karula-puhkeala/1444"}},"4989659165":{"location":[57.6936562,26.1764662],"ct":"LV","tp":"CS","ts":"2017-07-24T08:53:50Z","tX":586,"tY":310,"tags":{"capacity":"20","fee":"no"}},"6611934369":{"location":[57.6427806,26.3270011],"ct":"EE","tp":"CS","ts":"2023-07-27T15:05:17Z","tX":586,"tY":310,"tags":{"fee":"yes","name":"Kaldavere Camping","phone":"+37253030150","tents":"yes","website":"https://kaldavere.ee/"}},"9870549530":{"location":[57.6248603,26.2492549],"ct":"EE","tp":"CS","ts":"2023-08-07T19:26:59Z","tX":586,"tY":310,"tags":{"backcountry":"yes","bbq":"yes","capacity:persons":"16","capacity:tents":"4","drinking_water":"no","name":"Laagriplatsi lõkkekoht","openfire":"yes","operator":"RMK","power_supply":"no","shower":"no","tents":"yes","toilets":"yes","website":"https://loodusegakoos.ee/kuhuminna/puhkealad/haanja-karula-puhkeala/laagriplatsi-lokkekoht","wheelchair":"yes"}},"10895853050":{"location":[57.682344,26.346886],"ct":"EE","tp":"CS","ts":"2023-05-14T11:26:14Z","tX":586,"tY":310,"tags":{"backcountry":"yes","bbq":"yes","cabins":"yes","capacity:persons":"160","capacity:tents":"40","description":"Very basic cabin (see website)","name":"Oore telkimisala","openfire":"yes","operator":"RMK","shower":"no","tents":"yes","toilets":"yes","website":"https://loodusegakoos.ee/kuhuminna/puhkealad/haanja-karula-puhkeala/1442"}}}