{"39765673":{"location":[55.3273838,26.1052356],"ct":"LT","tp":"CR","ts":"2021-05-17T13:53:44Z","tX":586,"tY":322,"tags":{"name":"Kempingas „Palūšė“","name:en":"Camping Palūšė","name:lt":"Kempingas „Palūšė“"}},"807718795":{"location":[55.3583145,26.0418434],"ct":"LT","tp":"CS","ts":"2021-07-29T11:08:51Z","tX":586,"tY":322,"tags":{"description":"Privati stovyklavietė įsikūrusi prie Asalnų ežero.","fee":"yes","name":"Stovyklavietė „Mėmio ragas“"}},"1422113873":{"location":[55.3121908,26.0635487],"ct":"LT","tp":"CS","ts":"2022-08-02T06:31:09Z","tX":586,"tY":322,"tags":{"addr:approximate":"yes","addr:city":"Šilinė","description":"Stovyklavietė įsikūrusi prie Šakarvų ežero. Čia įrengtos pavėsinės, lauko stalai su suolais, laužavietės, lauko tualetai. Stovyklavietėje galima statyti palapines, kūrenti laužą. Stovyklavietė yra nemokama.","fee":"no","fireplace":"yes","name":"Šakarvos stovyklavietė","operator":"Aukštaitijos nacionalinis parkas"}},"2360186097":{"location":[55.2756105,26.0536358],"ct":"LT","tp":"CS","ts":"2021-07-29T11:08:51Z","tX":586,"tY":322,"tags":{"alt_name":"Pakretuonės I-oji stovyklavietė","description":"Netoli stovyklavietės yra vienas iš 6 Aukštaitijos Nacionaliniame parke esančių malūnų. Ši stovyklaviete ypač mėgstama vandens turistų, nes iš Žeimenio ežero išteka Žeimenos upė. Čia praeina daug vandens turizmo trasų.","fee":"no","fireplace":"yes","name":"Pakretuonės stovyklavietė","operator":"Trainiškis.lt","source":"no","website":"https://www.aparkai.lt/apgyvendinimas/pakretuones-stovyklaviete/"}},"2375290127":{"location":[55.3555,26.1032],"ct":"LT","tp":"CS","ts":"2022-08-02T06:31:09Z","tX":586,"tY":322,"tags":{"description":"Stovyklavietė užima 1 ha ploto. Joje yra pavėsine, 17 stalų, 33 suolai, 3 laužavietės, lieptas į ežerą, persirengimo kabina. Stovyklavietėje galima statyti palapines ir kūrenti laužą. Stovyklavietė yra nemokama.","fee":"no","fireplace":"yes","name":"Gaveikėnų stovyklavietė","operator":"Valstybinė miškų urėdija","phone":"+370 386 52246"}},"2902680530":{"location":[55.3210702,26.0547392],"ct":"LT","tp":"CS","ts":"2024-07-19T07:58:51Z","tX":586,"tY":322,"tags":{"email":"baidares.drutunai@gmail.com","name":"Drūtūnų stovyklavietė","phone":"+370 648 70809","website":"https://www.drutunai.com/"}},"3751868571":{"location":[55.3318925,26.1059782],"ct":"LT","tp":"CS","ts":"2024-06-25T10:49:29Z","tX":586,"tY":322,"tags":{"description":"Stovyklavietė įsikūrusi Palūšės kaime, prie Lūšių ežero nuo Ignalinos pusės. Yra pavėsinės, rekreacinių baldų komplektai. Greta yra pliažas, automobilių stovėjimo aikštelė. Tai nemokama stovyklavietė, tad ilsėtis gali visi norintys.","fee":"no","fireplace":"yes","name":"Palūšės I stovyklavietė","operator":"Aukštaitijos nacionalinis parkas","tents":"yes","toilets":"yes"}},"3948282175":{"location":[55.2707654,26.0485817],"ct":"LT","tp":"CS","ts":"2022-08-02T06:31:09Z","tX":586,"tY":322,"tags":{"alt_name":"Žeimenio poilsiavietė","fireplace":"yes","name":"Pakretuonės II-oji stovyklavietė","operator":"Trainiškis.lt","source":"no","website":"https://www.aparkai.lt/apgyvendinimas/p/"}},"4315945837":{"location":[55.3269317,26.094343],"ct":"LT","tp":"CS","ts":"2024-10-27T10:30:56Z","tX":586,"tY":322,"tags":{"addr:city":"Palūšė","addr:contact":"yes","addr:housenumber":"1","addr:street":"Pašakarvio g.","description":"Stovyklavietė prie Lūšių ežero kranto. Geras privažiavimas, yra maudykla.","fee":"no","fireplace":"yes","name":"Palūšės II stovyklavietė","name:de":"Campingplatz Palušės II","operator":"Aukštaitijos nacionalinis parkas","website":"https://www.ignalina.info/apgyvendinimas/paluses-stovyklaviete-ii/"}},"5623010994":{"location":[55.3450021,26.0634829],"ct":"LT","tp":"CS","ts":"2022-08-02T06:31:09Z","tX":586,"tY":322,"tags":{"fireplace":"yes","name":"Meironių stovyklavietė","operator":"Valstybinė miškų urėdija","phone":"+370 386 52246"}},"8739525891":{"location":[55.2661951,26.0219249],"ct":"LT","tp":"CS","ts":"2021-05-17T13:53:44Z","tX":586,"tY":322,"tags":{"name":"Ožkinių stovyklavietė"}},"8739525900":{"location":[55.357808,26.0173364],"ct":"LT","tp":"CS","ts":"2021-05-17T13:53:44Z","tX":586,"tY":322,"tags":{"name":"Salų stovyklavietė"}}}