{"5006955769":{"location":[54.8750598,26.2492252],"ct":"BY","tp":"CS","ts":"2024-11-08T15:48:30Z","tX":586,"tY":324,"tags":{"name":"Кемпінг","name:be":"Кемпінг","name:ru":"Кемпинг"}},"6789305386":{"location":[54.8891536,26.210767],"ct":"BY","tp":"CS","ts":"2024-11-08T15:48:30Z","tX":586,"tY":324,"tags":{"name":"Каймінскае","name:be":"Каймінскае","name:ru":"Кайминское"}},"8728321404":{"location":[54.8586385,26.320222],"ct":"BY","tp":"CS","ts":"2021-05-13T12:50:39Z","tX":586,"tY":324,"tags":{}},"8728321405":{"location":[54.872375,26.236124],"ct":"BY","tp":"CS","ts":"2024-11-08T15:48:30Z","tX":586,"tY":324,"tags":{"name":"Тумскае","name:be":"Тумскае","name:ru":"Тумское"}},"9878478485":{"location":[54.8730558,26.2438197],"ct":"BY","tp":"CS","ts":"2022-07-10T08:31:06Z","tX":586,"tY":324,"tags":{"backcountry":"yes","check_date":"2022-07-10"}},"9878490897":{"location":[54.8881443,26.2107646],"ct":"BY","tp":"CS","ts":"2022-07-10T08:54:02Z","tX":586,"tY":324,"tags":{"backcountry":"yes","check_date":"2022-07-10"}},"12066328469":{"location":[54.8742892,26.2464993],"ct":"BY","tp":"CS","ts":"2024-07-21T13:32:09Z","tX":586,"tY":324,"tags":{"name":"Кемпинг А+С+А 2024"}},"8956615317":{"location":[54.8721315,26.2360063],"ct":"BY","tp":"CR","ts":"2024-11-08T15:48:30Z","tX":586,"tY":324,"tags":{"name":"Тумскае","name:be":"Тумскае","name:ru":"Тумское"}}}