{"822298435":{"location":[53.003922,26.219497],"ct":"BY","tp":"CS","ts":"2024-11-08T15:48:30Z","tX":586,"tY":333,"tags":{"name":"Кемпінг","name:be":"Кемпінг","name:ru":"Кемпинг","phone":"+375298219695"}},"822298436":{"location":[52.9653606,26.2396699],"ct":"BY","tp":"CS","ts":"2024-11-08T15:48:30Z","tX":586,"tY":333,"tags":{"name":"Кемпінг","name:be":"Кемпінг","name:ru":"Кемпинг","phone":"+375298219695"}},"822298437":{"location":[52.9703255,26.2325326],"ct":"BY","tp":"CS","ts":"2024-11-08T15:48:30Z","tX":586,"tY":333,"tags":{"name":"Кемпінг","name:be":"Кемпінг","name:ru":"Кемпинг","phone":"+375298219695"}},"7677968080":{"location":[52.9747916,26.2378836],"ct":"BY","tp":"CS","ts":"2020-07-02T18:06:57Z","tX":586,"tY":333,"tags":{"phone":"+375298219695"}},"7677968081":{"location":[52.973002,26.2388921],"ct":"BY","tp":"CS","ts":"2020-07-02T18:06:57Z","tX":586,"tY":333,"tags":{"phone":"+375298219695"}},"7677968082":{"location":[52.9656264,26.2509325],"ct":"BY","tp":"CS","ts":"2020-07-02T18:06:57Z","tX":586,"tY":333,"tags":{"phone":"+375298219695"}},"7677968083":{"location":[52.9603111,26.2521636],"ct":"BY","tp":"CS","ts":"2020-07-02T18:06:57Z","tX":586,"tY":333,"tags":{"phone":"+375298219695"}},"7677968084":{"location":[52.9597796,26.2522227],"ct":"BY","tp":"CS","ts":"2020-07-02T18:06:57Z","tX":586,"tY":333,"tags":{"phone":"+375298219695"}},"7677969299":{"location":[52.967258,26.2369823],"ct":"BY","tp":"CS","ts":"2020-07-02T18:06:57Z","tX":586,"tY":333,"tags":{"phone":"+375298219695"}},"7678234147":{"location":[53.0183747,26.2061174],"ct":"BY","tp":"CS","ts":"2024-05-31T22:24:28Z","tX":586,"tY":333,"tags":{}}}