{"6709642905":{"location":[50.715668,26.2455867],"ct":"UA","tp":"CS","ts":"2019-08-14T10:05:40Z","tX":586,"tY":344,"tags":{}},"5334122434":{"location":[50.5251506,26.2274813],"ct":"UA","tp":"CR","ts":"2023-05-10T12:54:53Z","tX":586,"tY":344,"tags":{"name":"Парковка","name:en":"Parking","name:uk":"Парковка","toilets":"no"}},"5334157628":{"location":[50.525512,26.2409027],"ct":"UA","tp":"CR","ts":"2023-03-03T21:44:58Z","tX":586,"tY":344,"tags":{"name":"Парковка","name:en":"Parking","name:uk":"Парковка"}},"5334180526":{"location":[50.5255867,26.2273559],"ct":"UA","tp":"CR","ts":"2023-03-03T21:44:58Z","tX":586,"tY":344,"tags":{"name":"Парковка","name:en":"Parking","name:uk":"Парковка"}},"5334180533":{"location":[50.5253153,26.2266803],"ct":"UA","tp":"CR","ts":"2023-03-03T21:44:58Z","tX":586,"tY":344,"tags":{"name":"Парковка","name:en":"Parking","name:uk":"Парковка"}},"5334122426":{"location":[50.5274005,26.2322698],"ct":"UA","tp":"PK","ts":"2024-04-03T12:04:07Z","tX":586,"tY":344,"tags":{"motorhome":"yes"}},"12628160456":{"location":[50.5738703,26.3432086],"ct":"UA","tp":"CS","ts":"2025-03-01T11:08:40Z","tX":586,"tY":344,"tags":{"group_only":"yes","name":"Місце для пікніку"}}}