{"315064667":{"location":[45.2978402,-76.8280186],"ct":"CA","tp":"CS","ts":"2024-10-21T22:54:35Z","tX":293,"tY":367,"tags":{"name":"Ferguson Farm Campground Renfrew","note":"154 Campground Sideroad,"}},"612797604":{"location":[45.2233853,-76.9040605],"ct":"CA","tp":"CS","ts":"2018-08-22T21:08:28Z","tX":293,"tY":367,"tags":{"addr:housenumber":"594","addr:street":"Black Donald Road","name":"Black Donald Tent & Trailer Park"}},"1069107214":{"location":[45.1082657,-76.7294442],"ct":"CA","tp":"CS","ts":"2022-06-13T01:47:34Z","tX":293,"tY":367,"tags":{}},"1069107215":{"location":[45.1266678,-76.736959],"ct":"CA","tp":"CS","ts":"2022-06-13T01:47:34Z","tX":293,"tY":367,"tags":{}},"1069107218":{"location":[45.1280673,-76.7334731],"ct":"CA","tp":"CS","ts":"2022-06-13T01:47:34Z","tX":293,"tY":367,"tags":{}},"5799126853":{"location":[45.2239734,-76.9044076],"ct":"CA","tp":"CS","ts":"2022-05-31T15:01:31Z","tX":293,"tY":367,"tags":{"addr:housenumber":"594","addr:street":"Black Donald Road","name":"Black Donald Tent & Trailer Park","website":"https://blackdonaldtntpark.ca/"}},"7627895084":{"location":[45.1917047,-76.9103119],"ct":"CA","tp":"CS","ts":"2020-06-17T04:10:56Z","tX":293,"tY":367,"tags":{"name":"Franks Park","phone":"+1-613-752-0453"}},"7810635091":{"location":[45.2939048,-76.7523197],"ct":"CA","tp":"CS","ts":"2020-08-13T17:41:36Z","tX":293,"tY":367,"tags":{"addr:housenumber":"5372","addr:street":"Calabogie Road","name":"Calabogie Camping and RV Park","phone":"+1-613-899-1313","website":"https://calabogiecamping.com/"}}}