{"529753575":{"location":[40.8869648,-76.7872072],"ct":"US","tp":"CR","ts":"2017-10-03T18:25:07Z","tX":293,"tY":384,"tags":{"name":"Fantasy Island Campground"}},"1231995074":{"location":[40.8320645,-76.8714309],"ct":"US","tp":"CS","ts":"2023-12-30T22:20:09Z","tX":293,"tY":384,"tags":{"caravans":"yes","fee":"yes","name":"Penn Avon Campground","openfire":"yes","phone":"+15703749468","power_supply":"yes","shower":"yes","toilets":"yes","website":"https://pennavon.com/"}},"1232006425":{"location":[40.8709876,-76.938833],"ct":"US","tp":"CS","ts":"2023-12-17T20:08:17Z","tX":293,"tY":384,"tags":{"cabins":"yes","caravans":"yes","drinking_water":"yes","fee":"yes","name":"Little Mexico Campground","openfire":"yes","phone":"+15703749742","power_supply":"yes","sanitary_dump_station":"yes","shower":"yes","tents":"yes","toilets":"yes","website":"http://www.littlemexico.net/"}},"5569835396":{"location":[40.9436451,-76.8656254],"ct":"US","tp":"CS","ts":"2024-04-20T03:19:39Z","tX":293,"tY":384,"tags":{"cabin:rental":"yes","motorcycle:theme":"yes","motorcycle_friendly":"yes","name":"Steel Steeds Motorcycle Campground","opening_hours":"Apr-Oct","phone":"+1 570-524-9433","website":"https://www.steelsteedscamp.com"}},"9165061145":{"location":[40.7941577,-76.6998486],"ct":"US","tp":"CS","ts":"2021-10-11T13:49:20Z","tX":293,"tY":384,"tags":{"addr:city":"Paxinos","addr:postcode":"17860","addr:state":"PA","addr:street":"Irish Valley Road","fee":"yes","name":"Irish Valley Campground","payment:cash":"yes","power_supply":"yes","website":"https://www.irishvalleycampground.com"}},"11660137075":{"location":[40.8295052,-76.825371],"ct":"US","tp":"CS","ts":"2024-02-24T20:07:26Z","tX":293,"tY":384,"tags":{"access":"yes","backcountry":"yes","caravans":"no","fee":"no","fixme":"Verify exact location","name":"River Mile 120 Campsite A","operator":"Susquehanna River Trail Association","ref":"120a","static_caravans":"no","tents":"yes","website":"https://www.susquehannarivertrail.org/trail-navigation"}},"11660137083":{"location":[40.8179215,-76.8355633],"ct":"US","tp":"CS","ts":"2024-02-24T20:07:26Z","tX":293,"tY":384,"tags":{"access":"yes","backcountry":"yes","caravans":"no","fee":"no","fixme":"Verify exact location","name":"River Mile 120 Campsite B","operator":"Susquehanna River Trail Association","ref":"120b","static_caravans":"no","tents":"yes","website":"https://www.susquehannarivertrail.org/trail-navigation"}},"11660137088":{"location":[40.7685626,-76.8531193],"ct":"US","tp":"CS","ts":"2024-02-24T20:07:26Z","tX":293,"tY":384,"tags":{"access":"yes","backcountry":"yes","caravans":"no","fee":"no","fixme":"Verify exact location","name":"River Mile 116 Campsite","operator":"Susquehanna River Trail Association","ref":"116","static_caravans":"no","tents":"yes","website":"https://www.susquehannarivertrail.org/trail-navigation"}},"9165061154":{"location":[40.7936961,-76.6999217],"ct":"US","tp":"SD","ts":"2021-10-11T13:49:20Z","tX":293,"tY":384,"tags":{}}}