{"594312561":{"location":[39.9220661,-76.74825],"ct":"US","tp":"CS","ts":"2018-06-05T18:22:46Z","tX":293,"tY":387,"tags":{"addr:city":"York","addr:housenumber":"436","addr:postcode":"17403","addr:state":"PA","addr:street":"Indian Rock Dam Road","name":"Indian Rock Campground","website":"http://www.indianrockcampground.com/"}},"847012564":{"location":[40.0629426,-76.8982503],"ct":"US","tp":"CS","ts":"2023-09-03T15:07:45Z","tX":293,"tY":387,"tags":{"caravans":"yes","drinking_water":"yes","fee":"yes","name":"Gifford Pinchot State Park Campground","operator":"PA DCNR","power_supply":"yes","reservation":"required","shower":"yes","tents":"yes","toilets":"yes","website":"https://pennsylvaniastateparks.reserveamerica.com/camping/gifford-pinchot-state-park/r/campgroundDetails.do?contractCode=PA&parkId=880306"}},"847181172":{"location":[40.0616666,-76.9022389],"ct":"US","tp":"CS","ts":"2020-09-14T13:24:46Z","tX":293,"tY":387,"tags":{"group_only":"yes"}},"1233160818":{"location":[39.9649603,-76.9566735],"ct":"US","tp":"CS","ts":"2023-12-21T23:14:24Z","tX":293,"tY":387,"tags":{"caravans":"yes","drinking_water":"yes","fee":"yes","name":"Campground Island","openfire":"yes","phone":"+17172921461","power_supply":"yes","sanitary_dump_station":"yes","shower":"yes","tents":"yes","toilets":"yes","website":"https://campgroundisland.com/"}},"1233161780":{"location":[39.9601804,-76.9548217],"ct":"US","tp":"CS","ts":"2023-12-21T23:24:05Z","tX":293,"tY":387,"tags":{"cabins":"yes","caravans":"yes","fee":"yes","name":"Gettysburg Farm RV Campground","openfire":"yes","phone":"+17172927191","power_supply":"yes","sanitary_dump_station":"yes","shower":"yes","tents":"yes","toilets":"yes","website":"https://thousandtrails.com/pennsylvania/gettysburg-farm-rv-campground/"}},"1233162392":{"location":[40.1399845,-76.6571647],"ct":"US","tp":"CS","ts":"2023-12-25T11:50:39Z","tX":293,"tY":387,"tags":{"cabins":"yes","caravans":"yes","drinking_water":"yes","fee":"yes","name":"Elizabethtown / Hershey KOA Holiday","openfire":"yes","phone":"+17173677718","power_supply":"yes","sanitary_dump_station":"yes","shower":"yes","tents":"yes","toilets":"yes","website":"https://koa.com/campgrounds/elizabethtown/"}},"11441595462":{"location":[39.9739825,-76.9356073],"ct":"US","tp":"CS","ts":"2023-12-21T23:17:39Z","tX":293,"tY":387,"tags":{"cabins":"yes","caravans":"yes","fee":"yes","name":"Cedar Lake Campground","openfire":"yes","phone":"+17172922918","tents":"yes","toilets":"yes","website":"https://cedarlakefamilycampground.com/"}},"11480980070":{"location":[39.9348048,-76.8003749],"ct":"US","tp":"CS","ts":"2024-02-08T08:13:15Z","tX":293,"tY":387,"tags":{"caravans":"yes","drinking_water":"yes","fee":"yes","name":"Ben franklin RV Park","phone":"+17177448237","power_supply":"yes","shower":"yes","toilets":"yes","website":"https://www.benfranklinrvpark.com/"}},"7903707386":{"location":[40.060041,-76.9003436],"ct":"US","tp":"SD","ts":"2020-09-14T02:23:36Z","tX":293,"tY":387,"tags":{"water_point":"yes"}},"7903707387":{"location":[40.0601199,-76.9004496],"ct":"US","tp":"SD","ts":"2020-09-14T02:23:36Z","tX":293,"tY":387,"tags":{"water_point":"yes"}}}