{"85684338":{"location":[39.0948705,-76.7286249],"ct":"US","tp":"CR","ts":"2022-10-18T02:29:11Z","tX":293,"tY":391,"tags":{"access":"private","fee":"yes","name":"Camp Meade RV Park","operator":"Army MWR","phone":"+1 301 677 6196","power_supply":"yes","reservation":"required","sanitary_dump_station":"customers","tents":"yes","website":"https://meade.armymwr.com/programs/camp-meade-rv-park"}},"235772273":{"location":[39.0259918,-76.9441008],"ct":"US","tp":"CS","ts":"2024-11-18T01:20:02Z","tX":293,"tY":391,"tags":{"addr:city":"College Park","addr:country":"US","addr:housenumber":"9800","addr:postcode":"20740","addr:state":"MD","addr:street":"Cherry Hill Road","backcountry":"no","caravans":"yes","contact:facebook":"CherryHillPark","contact:instagram":"cherryhillpark","email":"info@cherryhillpark.com","group_only":"no","internet_access":"wlan","name":"Cherry Hill Park","phone":"+1 301 937 7116","power_supply":"yes","reservation":"required","sanitary_dump_station":"customers","tents":"yes","website":"https://www.cherryhillpark.com/"}},"481651952":{"location":[39.0693197,-76.648208],"ct":"US","tp":"CS","ts":"2022-10-18T02:35:10Z","tX":293,"tY":391,"tags":{"addr:city":"Millersville","addr:housenumber":"768","addr:postcode":"21108","addr:state":"MD","addr:street":"Cecil Avenue North","backcountry":"no","brand":"KOA","cabins":"yes","caravans":"yes","contact:facebook":"capitolkoa","contact:pinterest":"capitolkoa","email":"capitolkoa@racpack.com","group_only":"no","internet_access":"wlan","internet_access:fee":"no","name":"Washington DC / Capitol KOA Holiday","not:brand:wikidata":"Q16988635","opening_hours":"Mar-Oct","operator":"KOA","phone":"+1 410 923 2771","power_supply":"yes","reservation":"recommended","tents":"yes","website":"https://koa.com/campgrounds/washington-dc/"}},"639248807":{"location":[38.8872091,-76.7863213],"ct":"US","tp":"CS","ts":"2024-11-21T15:12:31Z","tX":293,"tY":391,"tags":{"access":"yes","addr:city":"Upper Marlboro","addr:housenumber":"301","addr:state":"MD","addr:street":"Watkins Park Drive","capacity:tents":"30","caravans":"no","fee":"yes","name":"Watkins Regional Park","opening_hours":"Mar 01-Nov 15 open; Nov 16-Feb 29 closed","operator":"Maryland-National Capital Park and Planning Commission","static_caravans":"no","tents":"yes","website":"https://www.pgparks.com/parks_trails/watkins-regional-park"}},"759770890":{"location":[38.9779635,-76.9054721],"ct":"US","tp":"CS","ts":"2022-05-07T16:18:10Z","tX":293,"tY":391,"tags":{"addr:city":"Riverdale","addr:postcode":"20737","addr:state":"MD","group_only":"yes","leisure":"park","name":"Greenbelt Park Campground","operator":"National Park Service","operator:short":"NPS","operator:type":"public","operator:wikidata":"Q308439","reservation":"required","website":"https://www.nps.gov/gree/planyourvisit/campground.htm"}},"759770891":{"location":[38.9793807,-76.9030966],"ct":"US","tp":"CS","ts":"2022-05-07T16:18:10Z","tX":293,"tY":391,"tags":{"addr:city":"Riverdale","addr:postcode":"20737","addr:state":"MD","bbq":"yes","capacity":"174","caravans":"yes","fee":"yes","leisure":"park","name":"Greenbelt Park Campground","operator":"National Park Service","operator:short":"NPS","operator:type":"public","operator:wikidata":"Q308439","reservation":"required","sanitary_dump_station":"customers","tents":"yes","website":"https://www.nps.gov/gree/planyourvisit/campground.htm"}},"6968386377":{"location":[39.0250495,-76.9433528],"ct":"US","tp":"SD","ts":"2019-11-12T08:26:08Z","tX":293,"tY":391,"tags":{}}}