{"419812743":{"location":[37.1420684,-76.7410364],"ct":"US","tp":"CS","ts":"2016-05-21T02:58:20Z","tX":293,"tY":398,"tags":{}},"880268681":{"location":[36.8886829,-76.8390996],"ct":"US","tp":"CR","ts":"2020-12-02T15:10:59Z","tX":293,"tY":398,"tags":{"addr:city":"Ivor","addr:housenumber":"39033","addr:postcode":"23866","addr:state":"VA","addr:street":"White Tail Drive","leisure":"resort","name":"White Tail Resort","nudism":"yes","phone":"+1-757-859-6123","website":"https://whitetailresort.org/"}},"913001952":{"location":[36.9073528,-76.7930797],"ct":"US","tp":"CS","ts":"2023-10-25T04:30:01Z","tX":293,"tY":398,"tags":{"addr:city":"Windsor","addr:housenumber":"7651","addr:postcode":"23487","addr:street":"Whispering Pines Trail","caravans":"yes","dog":"yes","drinking_water":"yes","name":"Isle of Wight Family Campground","phone":"+1-757-357-7211","power_supply":"yes","shower":"yes","swimming_pool":"yes","tents":"yes","toilets":"yes","washing_machine":"yes","website":"https://iowcamp.com/"}},"11971630447":{"location":[37.1434834,-76.7454175],"ct":"US","tp":"SD","ts":"2024-06-11T09:55:42Z","tX":293,"tY":398,"tags":{}}}