{"18034889":{"location":[35.4384458,-76.9458765],"ct":"US","tp":"CS","ts":"2024-09-12T12:26:38Z","tX":293,"tY":404,"tags":{"caravans":"no","fee":"yes","leisure":"summer_camp","name":"Camp Boddie","old_name":"Camp Bonner","static_caravans":"no","tents":"yes","website":"https://www.eccbsa.org/camping/camp-boddie/"}},"18034952":{"location":[35.4088014,-76.965692],"ct":"US","tp":"CS","ts":"2024-09-17T15:34:16Z","tX":293,"tY":404,"tags":{"caravans":"yes","fee":"yes","name":"Southern Point Campground","static_caravans":"yes","website":"https://southernpointcampground.com/"}},"1315190897":{"location":[35.3733118,-76.7190572],"ct":"US","tp":"CR","ts":"2024-09-12T20:16:40Z","tX":293,"tY":404,"tags":{}},"8691112242":{"location":[35.1809126,-76.6646491],"ct":"US","tp":"CS","ts":"2021-05-02T16:58:29Z","tX":293,"tY":404,"tags":{"access":"private","addr:city":"Vandemere","addr:housenumber":"215","addr:postcode":"28587","addr:state":"NC","addr:street":"3rd Street","name":"Camp Vandemere","website":"https://campvandemere.wixsite.com/home/"}},"10166466840":{"location":[35.3360223,-76.6894865],"ct":"US","tp":"CS","ts":"2022-11-07T13:24:40Z","tX":293,"tY":404,"tags":{"addr:city":"Aurora","addr:housenumber":"285","addr:postcode":"27806","addr:state":"NC","addr:street":"Muddy Creek Road","name":"Creekside Lodging, Rentals & Campground (Full Hook-Up RV Sites)","phone":"+12524025749"}}}