{"14552967":{"location":[34.9725815,-76.802518],"ct":"US","tp":"CS","ts":"2022-09-07T10:58:43Z","tX":293,"tY":405,"tags":{"name":"YMCA Camp Sea Gull","website":"https://www.seagull-seafarer.org/"}},"640674375":{"location":[34.9957936,-76.7498698],"ct":"US","tp":"CS","ts":"2022-09-07T10:44:27Z","tX":293,"tY":405,"tags":{"addr:city":"Arapahoe","addr:housenumber":"3398","addr:postcode":"28510","addr:state":"NC","addr:street":"Janiero Road","leisure":"summer_camp","name":"Camp Caroline","website":"https://campcaroline.org/"}},"640741990":{"location":[35.1603617,-76.6930417],"ct":"US","tp":"CS","ts":"2023-10-17T19:24:01Z","tX":293,"tY":405,"tags":{"access":"customers","addr:city":"Bayboro","addr:housenumber":"149","addr:postcode":"28515","addr:state":"NC","addr:street":"Tempe Gut Road","fee":"yes","name":"Rivers Edge Family Campground","website":"https://riversedgefamilycampground.com/"}},"678536161":{"location":[34.9818194,-76.9482214],"ct":"US","tp":"CS","ts":"2019-03-22T02:47:53Z","tX":293,"tY":405,"tags":{"capacity":"40","caravans":"yes","description":"Located under tall pines and hardwoods, each of the 40 campsites is equipped with a picnic table, fire ring and lantern poles. Two of these sites only allow double occupancy. Electrical hookups are available at 24 sites. The campground offers showers, res","fee":"yes","name":"Flanners Beach/Neuse River Campground","operator":"USDA-Forest Service, Croatan National Forest","sanitary_dump_station":"customers","tents":"yes","website":"https://www.fs.usda.gov/recarea/nfsnc/recreation/camping-cabins/recarea/?recid=48472&actid=31"}},"1092594176":{"location":[34.9735771,-76.7940119],"ct":"US","tp":"CS","ts":"2024-10-02T13:32:46Z","tX":293,"tY":405,"tags":{"ele":"1","gnis:feature_id":"1019490","name":"Don Lee Camp & Retreat Center","website":"https://donleecenter.org/"}},"1097408893":{"location":[34.9425599,-76.9320309],"ct":"US","tp":"CR","ts":"2022-09-23T23:59:41Z","tX":293,"tY":405,"tags":{"name":"Paul's RV Park & Boat Ramp"}},"1097408903":{"location":[34.9416484,-76.9025231],"ct":"US","tp":"CR","ts":"2022-09-23T23:59:41Z","tX":293,"tY":405,"tags":{"name":"Pelican Point RV Park"}},"1316150786":{"location":[35.0012118,-76.8510188],"ct":"US","tp":"CS","ts":"2024-09-17T15:32:38Z","tX":293,"tY":405,"tags":{"addr:city":"Arapahoe","addr:housenumber":"2744","addr:postcode":"28510","addr:state":"NC","addr:street":"Seafarer Road","name":"YMCA Camp Seafarer"}}}