{"769546961":{"location":[34.7604718,-76.7629249],"ct":"US","tp":"CS","ts":"2020-03-10T15:01:58Z","tX":293,"tY":406,"tags":{"backcountry":"no","caravans":"yes","drinking_water":"yes","group_only":"no","internet_access":"no","name":"Oyster Point Campground","nudism":"no","opening_hours":"24/7","operator":"United States Forest Service","power_supply":"no","reservation":"recommended","sanitary_dump_station":"no","shower":"no","tents":"yes","website":"https://www.fs.usda.gov/recarea/nfsnc/recreation/camping-cabins/recarea/?recid=48474&actid=29"}},"1091047085":{"location":[34.7305316,-76.8722972],"ct":"US","tp":"CS","ts":"2022-09-01T16:38:13Z","tX":293,"tY":406,"tags":{"fee":"yes","name":"Waters Edge RV Park","website":"https://watersedgenorthcarolina.com/"}},"1091050033":{"location":[34.7271988,-76.8945901],"ct":"US","tp":"CS","ts":"2022-09-01T16:45:39Z","tX":293,"tY":406,"tags":{"addr:city":"Newport","addr:housenumber":"156","addr:postcode":"28570","addr:state":"NC","addr:street":"Albemarle Drive","email":"office@campalbemarle.org","name":"Camp Albemarle","phone":"+1-252-726-4848","website":"https://campalbemarle.org/"}},"1097408908":{"location":[34.7233497,-76.9294572],"ct":"US","tp":"CR","ts":"2022-09-23T23:59:41Z","tX":293,"tY":406,"tags":{"name":"Whispering Pines RV Park & Campground"}},"11662985669":{"location":[34.7424359,-76.9131034],"ct":"US","tp":"CS","ts":"2024-02-25T14:57:18Z","tX":293,"tY":406,"tags":{"name":"Camp Sam Hatcher","name:en":"Camp Sam Hatcher (Boy Scouts)"}},"10006228791":{"location":[34.8259584,-76.6903374],"ct":"US","tp":"CR","ts":"2022-09-07T10:17:22Z","tX":293,"tY":406,"tags":{}}}