{"12652977":{"location":[46.945741,-90.888377],"ct":"US","tp":"CS","ts":"2024-08-06T18:12:43Z","tX":253,"tY":360,"tags":{"addr:city":"Bayfield","addr:housenumber":"32665","addr:postcode":"54814","addr:state":"WI","addr:street":"Little Sand Bay Road","capacity:caravans":"32","capacity:tents":"14","caravans":"yes","dog":"leashed","fee":"yes","name":"Little Sand Bay Campground","operator":"Town of Russell","operator:type":"government","power_supply":"yes","shower":"yes","tents":"yes","website":"https://townofrussellwi.gov/little-sand-bay-recreation-area/"}},"13552194":{"location":[46.9310389,-90.8271972],"ct":"US","tp":"CS","ts":"2023-08-14T16:39:31Z","tX":253,"tY":360,"tags":{"access":"permit","alt_name":"Raspberry Bay Campground","name":"Raspberry Tribal Campground","operator":"Red Cliff Band of Lake Superior Chippewa"}},"14226426":{"location":[46.9420071,-90.8809761],"ct":"US","tp":"CS","ts":"2025-05-29T01:40:01Z","tX":253,"tY":360,"tags":{"access":"private","addr:city":"Bayfield","addr:housenumber":"33095","addr:postcode":"54814","addr:state":"WI","addr:street":"Little Sand Bay Road","fee":"yes","name":"Wilderness Inquiry Little Sand Bay Base Camp"}},"14237222":{"location":[46.9591274,-90.8748208],"ct":"US","tp":"CS","ts":"2024-07-03T14:43:57Z","tX":253,"tY":360,"tags":{"addr:city":"Red Cliff","addr:housenumber":"95995","addr:postcode":"54814","addr:state":"WI","addr:street":"Point Detour Road","capacity":"25","charge":"25 USD","fee":"yes","name":"Point Detour “Wilderness” Campground","operator":"Legendary Waters Casino","reservation":"no","toilets":"yes","website":"http://legendarywaters.com/campground-marina/"}},"17918377":{"location":[46.9801698,-90.9353846],"ct":"US","tp":"CS","ts":"2024-08-08T03:58:37Z","tX":253,"tY":360,"tags":{"access":"yes","caravans":"no","fee":"yes","name":"Sand Island East Dock Campsites","operator":"National Park Service","operator:short":"NPS","operator:type":"public","operator:wikidata":"Q308439","operator:wikipedia":"en:National Park Service","picnic_table":"yes","static_caravans":"no","tents":"yes","toilets":"yes"}},"19260433":{"location":[46.804578,-90.8366846],"ct":"US","tp":"CS","ts":"2025-06-17T02:55:22Z","tX":253,"tY":360,"tags":{"addr:city":"Bayfield","addr:housenumber":"85150","addr:postcode":"54814","addr:state":"WI","addr:street":"Trailer Court Rd.","backcountry":"no","capacity":"63","caravans":"yes","drinking_water":"yes","group_only":"no","internet_access":"wlan","name":"Apostle Islands Area Campground","power_supply":"yes","reservation":"required","tents":"yes","toilets":"yes","website":"https://www.aiacamping.com/"}},"866095823":{"location":[46.8055073,-90.8353696],"ct":"US","tp":"CS","ts":"2020-11-01T22:18:35Z","tX":253,"tY":360,"tags":{}},"1298806913":{"location":[46.8557812,-90.785611],"ct":"US","tp":"CR","ts":"2024-10-09T05:37:34Z","tX":253,"tY":360,"tags":{"addr:city":"Bayfield","addr:postcode":"54814","addr:state":"WI","addr:street":"State Highway 13","capacity":"34","charge":"45 USD","drinking_water":"yes","fee":"yes","name":"Buffalo Bay Campground","operator":"Legendary Waters Casino","power_supply":"yes","reservation":"yes","shower":"yes","website":"http://legendarywaters.com/campground-marina/"}},"1860293088":{"location":[46.9253456,-90.9847745],"ct":"US","tp":"CS","ts":"2012-08-10T14:19:01Z","tX":253,"tY":360,"tags":{"name":"Lakeshore Trail Campsite"}},"2398923475":{"location":[46.9458146,-90.8881943],"ct":"US","tp":"CS","ts":"2025-05-28T04:48:26Z","tX":253,"tY":360,"tags":{"addr:city":"Bayfield","addr:housenumber":"32665","addr:postcode":"54814","addr:state":"WI","addr:street":"Little Sand Bay Road","name":"Little Sand Bay Campground","operator":"Town of Russell","operator:type":"government","phone":"+1-715-779-5233","shower":"yes","website":"https://www.townofrussell.org/little-sand-bay-recreation-area/"}},"7153842362":{"location":[46.8188589,-90.807544],"ct":"US","tp":"CS","ts":"2024-09-03T05:08:23Z","tX":253,"tY":360,"tags":{"addr:city":"Bayfield","addr:housenumber":"86070","addr:postcode":"54814","addr:state":"WI","addr:street":"State Highway 13","capacity":"28","name":"Dalrymple Park Campground","power_supply":"yes","reservation":"no","seasonal":"spring;summer;autumn","toilets":"vault","website":"https://www.cityofbayfield.com/dalrymple-campground.html"}},"7153872300":{"location":[46.8054411,-90.8346452],"ct":"US","tp":"CS","ts":"2020-09-27T08:42:50Z","tX":253,"tY":360,"tags":{"addr:city":"Bayfield","addr:housenumber":"85150","addr:postcode":"54814","addr:state":"WI","addr:street":"Trailer Court Rd.","capacity":"63","drinking_water":"yes","internet_access":"wlan","name":"Apostle Islands Area Campground","power_supply":"yes","tents":"yes","toilets":"yes","website":"https://www.aiacamping.com/"}}}