{"18075259":{"location":[46.6766126,-90.8800941],"ct":"US","tp":"CS","ts":"2024-09-21T20:33:16Z","tX":253,"tY":361,"tags":{"caravans":"yes","drinking_water":"yes","fee":"yes","group_only":"no","name":"Memorial Park Campground","operator":"City of Washburn","operator:type":"government","picnic_table":"yes","reservation":"no","sanitary_dump_station":"yes","shower":"yes","tents":"yes","toilets":"yes"}},"461504035":{"location":[46.5975474,-90.8799918],"ct":"US","tp":"CS","ts":"2025-05-20T04:27:17Z","tX":253,"tY":361,"tags":{"access":"yes","caravans":"yes","fee":"no","name":"Kreher RV Park","operator":"City of Ashland","operator:type":"government","operator:wikidata":"Q725594","toilets":"yes"}},"975416384":{"location":[46.6663475,-90.9068439],"ct":"US","tp":"CS","ts":"2024-09-22T21:18:40Z","tX":253,"tY":361,"tags":{"addr:city":"Washburn","addr:housenumber":"401","addr:postcode":"54891","addr:state":"WI","addr:street":"South 8th Avenue West","charge":"$22-$27","drinking_water":"yes","fee":"yes","internet_access":"wlan","name":"Thompson's West End Park Campground","operator":"City of Washburn","operator:type":"government","power_supply":"yes","reservation":"no","sanitary_dump_station":"yes","shower":"fee","toilets":"yes","toilets:disposal":"flush","website":"http://www.cityofwashburn.org/parks--campgrounds.html#prmempark"}},"7153969438":{"location":[46.7101149,-90.9254973],"ct":"US","tp":"CS","ts":"2024-10-09T05:37:34Z","tX":253,"tY":361,"tags":{"addr:city":"Washburn","addr:housenumber":"78550","addr:postcode":"54891","addr:state":"WI","addr:street":"Big Rock Road","capacity":"13","charge":"13 USD","drinking_water:type":"hand_pump","fee":"yes","name":"Big Rock Campground","toilets":"pit","website":"https://www.bayfieldcounty.org/240/Big-Rock-Campground"}},"7154253296":{"location":[46.579122,-90.9230567],"ct":"US","tp":"CS","ts":"2025-05-20T04:27:17Z","tX":253,"tY":361,"tags":{"access":"yes","addr:city":"Ashland","addr:postcode":"54806","addr:state":"WI","capacity:caravans":"7","capacity:tents":"6","caravans":"yes","charge":"30 USD","drinking_water":"yes","fee":"yes","internet_access":"wlan","name":"Prentice Park Campground","operator":"City of Ashland","operator:type":"government","phone":"+1-715-682-7059","picnic_table":"yes","power_supply":"yes","reservation":"no","seasonal":"spring;summer;autumn","shelter_type":"pavilion","shower":"yes","tents":"yes","toilets":"yes","website":"https://www.coawi.org/222/Prentice-Park"}},"9026871787":{"location":[46.6179299,-90.9324259],"ct":"US","tp":"CS","ts":"2024-09-28T05:13:40Z","tX":253,"tY":361,"tags":{"access":"private","addr:city":"Ashland","addr:housenumber":"72220","addr:postcode":"54806","addr:state":"WI","addr:street":"State Highway 13","name":"Boy Scouts Camp Barksdale"}},"11077335591":{"location":[46.6668029,-90.903886],"ct":"US","tp":"CS","ts":"2024-09-21T20:33:16Z","tX":253,"tY":361,"tags":{"caravans":"yes","drinking_water":"yes","fee":"yes","name":"Thompson's West End Park Campground Overflow Camping","operator":"City of Washburn","operator:type":"government"}},"12773403487":{"location":[46.7909648,-90.7593301],"ct":"US","tp":"SD","ts":"2025-04-22T00:56:36Z","tX":253,"tY":361,"tags":{"access":"yes","fee":"no","fixme":"Needs site survey to confirm exact location at the airport","name":"Madeline Island Sanitary Dump Station","operator":"Town of La Pointe","operator:type":"government"}}}