{"805100325":{"location":[44.4309497,-90.7226945],"ct":"US","tp":"CS","ts":"2020-05-17T19:53:52Z","tX":253,"tY":370,"tags":{}},"3665276976":{"location":[44.3747444,-90.8199921],"ct":"US","tp":"CS","ts":"2023-10-29T06:29:19Z","tX":253,"tY":370,"tags":{"addr:city":"Black River Falls","addr:country":"US","addr:housenumber":"N8390","addr:postcode":"54615","addr:state":"WI","addr:street":"US 12","name":"Camp NCN North","nudism":"customary","phone":"715-299-7138","website":"https://www.campncn.com/"}},"7529932511":{"location":[44.4269364,-90.7235072],"ct":"US","tp":"CS","ts":"2020-05-17T19:53:52Z","tX":253,"tY":370,"tags":{"addr:city":"Merrillan","addr:housenumber":"W8180","addr:postcode":"54754","addr:state":"WI","addr:street":"South Road","fee":"yes","name":"Russell Memorial Campground","operator":"Clark County"}},"5138769674":{"location":[44.4223953,-90.9504495],"ct":"US","tp":"CR","ts":"2017-09-30T02:15:40Z","tX":253,"tY":370,"tags":{"addr:city":"Alma Center","addr:housenumber":"N9657","addr:postcode":"54611","addr:street":"State Highway 95","name":"KOA","operator":"Hixton Alma Center"}}}