{"444041241":{"location":[42.4320765,-90.7392897],"ct":"US","tp":"CS","ts":"2023-09-03T15:44:12Z","tX":253,"tY":378,"tags":{"caravans":"yes","name":"Swiss Valley Campground","tents":"yes"}},"892900694":{"location":[42.5517331,-90.7082349],"ct":"US","tp":"CS","ts":"2021-02-23T23:48:01Z","tX":253,"tY":378,"tags":{}},"7431920574":{"location":[42.4321438,-90.7391685],"ct":"US","tp":"CS","ts":"2024-08-26T05:15:41Z","tX":253,"tY":378,"tags":{"addr:city":"Dubuque","addr:state":"IA","capacity":"60","charge":"16 USD","fee":"yes","name":"Swiss Valley County Park Campground","phone":"+1-563-556-6745","power_supply":"yes","reservation":"yes","sanitary_dump_station":"yes","shower":"yes","toilets":"yes"}},"7442084000":{"location":[42.3244216,-90.9116409],"ct":"US","tp":"CS","ts":"2024-08-26T05:15:41Z","tX":253,"tY":378,"tags":{"addr:city":"Filmore","addr:state":"IA","capacity":"18","charge":"18 USD","drinking_water":"yes","fee":"yes","name":"Fillmore Recreation Area Campground","phone":"+1-563-852-3377","power_supply":"yes","reservation":"yes","shower":"yes","toilets":"yes"}},"7442084005":{"location":[42.5517654,-90.7082888],"ct":"US","tp":"CS","ts":"2023-09-21T03:50:47Z","tX":253,"tY":378,"tags":{"addr:city":"Dubuque","addr:housenumber":"11330","addr:state":"IA","addr:street":"Rupp Hollow Road","drinking_water":"yes","fee":"yes","name":"Heritage Campground & Pond","phone":"+1-563-556-6745","toilets":"yes"}}}