{"116045689":{"location":[14.555698,-90.7395791],"ct":"GT","tp":"CR","ts":"2011-06-02T22:50:54Z","tX":253,"tY":470,"tags":{}},"1309608205":{"location":[14.5558485,-90.7397371],"ct":"GT","tp":"CS","ts":"2011-06-02T22:50:53Z","tX":253,"tY":470,"tags":{}},"1309608208":{"location":[14.5559209,-90.7394903],"ct":"GT","tp":"CR","ts":"2011-06-02T22:50:54Z","tX":253,"tY":470,"tags":{}},"4011737999":{"location":[14.507592,-90.8783665],"ct":"GT","tp":"CS","ts":"2016-02-17T20:53:45Z","tX":253,"tY":470,"tags":{"name":"La Y"}},"4927357021":{"location":[14.4954956,-90.8714485],"ct":"GT","tp":"CS","ts":"2024-04-08T17:30:31Z","tX":253,"tY":470,"tags":{"addr:housenumber":"00","addr:postcode":"04001","addr:street":"10 calle 2 Avenida Norte","ele":"3564","email":"info@aprode.net","internet_access":"wlan","name":"Campamento base Acatenango","name:en":"Acatenango base camp APRODE","name:es":"Campamento base Acatenango APRODE","opening_hours":"24/7","operator":"Asociación de Guías Aprode","phone":"+50247082809","website":"https://www.aprode.net/"}},"4978676835":{"location":[14.4976236,-90.8795031],"ct":"GT","tp":"CS","ts":"2024-04-08T17:24:12Z","tX":253,"tY":470,"tags":{"ele":"3690","name":"Comercial Camp"}},"5406022223":{"location":[14.4963358,-90.8712505],"ct":"GT","tp":"CS","ts":"2023-04-26T01:55:21Z","tX":253,"tY":470,"tags":{"name":"Wicho & Charlie's base camp","name:en":"Wicho & Charlies basecamp 2018","operator":"Wicho&Charlie's hostel"}},"5520342327":{"location":[14.4958172,-90.8716278],"ct":"GT","tp":"CS","ts":"2019-03-06T05:11:14Z","tX":253,"tY":470,"tags":{"addr:housenumber":"06","addr:postcode":"04001","addr:street":"10 calle 2 avenida Norte","email":"info@aprode.net","internet_access":"wlan","name":"Asociación APRODE Basecamp","opening_hours":"24/7","operator":"ONG APRODE","phone":"+50247082809","website":"https://www.aprode.net/"}},"6023315935":{"location":[14.4963287,-90.8703727],"ct":"GT","tp":"CS","ts":"2018-10-29T21:05:40Z","tX":253,"tY":470,"tags":{"name":"Tour","name:de":"Pablo Tours Camping","name:en":"Pablo Tours Camping","name:es":"Pablo Tours Camping"}},"6661452786":{"location":[14.4949475,-90.872919],"ct":"GT","tp":"CS","ts":"2024-03-30T18:40:32Z","tX":253,"tY":470,"tags":{"addr:housenumber":"25","addr:postcode":"03001","addr:street":"2 da calle","email":"catravelers502@gmail.com","name":"CA TRAVELERS","opening_hours":"24/7","phone":"+50231156478","shop":"travel_agency","website":"http://www.centralamericantourist.com"}},"6733457385":{"location":[14.5057142,-90.8749932],"ct":"GT","tp":"CS","ts":"2019-08-21T21:16:07Z","tX":253,"tY":470,"tags":{}},"6767019934":{"location":[14.4954372,-90.8696439],"ct":"GT","tp":"CS","ts":"2019-11-27T23:35:21Z","tX":253,"tY":470,"tags":{"access":"private","addr:street":"14°29.72580', -090°52.17864'","name":"OX EXPEDITIONS","operator":"Ox Expeditions"}},"7089375386":{"location":[14.4950934,-90.8721045],"ct":"GT","tp":"CS","ts":"2019-12-27T17:04:15Z","tX":253,"tY":470,"tags":{"name:en":"Association Aprode Base Camp"}},"9362274917":{"location":[14.4955194,-90.8728066],"ct":"GT","tp":"CS","ts":"2021-12-23T17:48:07Z","tX":253,"tY":470,"tags":{"name":"ASOAVA guías association de Acatenango","name:en":"ASOAVA guides for Acatenango hike","name:fr":"ASOAVA GUIDES","phone":"+50255004707"}},"10313853016":{"location":[14.4651902,-90.7431925],"ct":"GT","tp":"CS","ts":"2023-01-08T00:25:56Z","tX":253,"tY":470,"tags":{"name":"Camping 2pack"}},"10560117710":{"location":[14.4996951,-90.8798602],"ct":"GT","tp":"CS","ts":"2023-01-16T19:02:28Z","tX":253,"tY":470,"tags":{"name":"Soy Tours Camping"}},"10679511705":{"location":[14.4997983,-90.8798504],"ct":"GT","tp":"CS","ts":"2023-02-19T23:59:42Z","tX":253,"tY":470,"tags":{"name":"SOY Tour basecamp"}},"11774034680":{"location":[14.4942325,-90.8749406],"ct":"GT","tp":"CS","ts":"2024-03-30T18:40:32Z","tX":253,"tY":470,"tags":{}},"11774034681":{"location":[14.4942377,-90.8745369],"ct":"GT","tp":"CS","ts":"2024-03-30T18:40:32Z","tX":253,"tY":470,"tags":{}},"11774034682":{"location":[14.4949012,-90.8734292],"ct":"GT","tp":"CS","ts":"2024-03-30T18:40:32Z","tX":253,"tY":470,"tags":{}},"12119547801":{"location":[14.4953214,-90.8722429],"ct":"GT","tp":"CS","ts":"2024-08-19T03:14:21Z","tX":253,"tY":470,"tags":{"name":"Free camping spot with view of Fuego"}},"9517953617":{"location":[14.5459778,-90.7287195],"ct":"GT","tp":"CR","ts":"2025-04-04T19:45:32Z","tX":253,"tY":470,"tags":{"fee":"yes","name":"Vagamundo","name:ru":"Вагамундо","phone":"+50253330697"}},"9517996717":{"location":[14.5458613,-90.7287302],"ct":"GT","tp":"CR","ts":"2025-03-23T14:25:03Z","tX":253,"tY":470,"tags":{"fee":"yes","name":"Vagacamping"}},"9520722017":{"location":[14.5353409,-90.8774784],"ct":"GT","tp":"CR","ts":"2022-02-20T00:31:21Z","tX":253,"tY":470,"tags":{"name":"Miratenango"}},"12574969102":{"location":[14.4958207,-90.8717774],"ct":"GT","tp":"CS","ts":"2025-02-10T18:36:19Z","tX":253,"tY":470,"tags":{"name":"Extreme Life Tours Cabañas"}}}