{"593820670":{"location":[38.1267195,140.3949966],"ct":"JP","tp":"CS","ts":"2023-07-08T07:26:04Z","tX":911,"tY":394,"tags":{"name":"蔵王坊平キャンプ場","name:en":"Zaobodaira Camping Ground"}},"1227597051":{"location":[38.2537765,140.3273181],"ct":"JP","tp":"CS","ts":"2013-02-17T12:38:42Z","tX":911,"tY":394,"tags":{"capacity":"1000","name":"山形県体育館","refugee":"53","source":"Yamagata pref;Cyberjapan","temporary":"yes"}},"3739851492":{"location":[38.2017945,140.3494463],"ct":"JP","tp":"CS","ts":"2015-09-12T03:38:36Z","tX":911,"tY":394,"tags":{"name":"西蔵王公園キャンプ場"}},"3739851514":{"location":[38.1866497,140.3464446],"ct":"JP","tp":"CS","ts":"2015-09-12T03:38:37Z","tX":911,"tY":394,"tags":{"name":"古竜湖キャンプ場"}},"8242080918":{"location":[37.9976704,140.367287],"ct":"JP","tp":"CS","ts":"2020-12-19T06:44:21Z","tX":911,"tY":394,"tags":{"name":"七ヶ宿オートキャンプ場 きららの森","name:en":"Kirara no Mori","phone":"+81 224 37 3111"}},"9778339037":{"location":[38.1492369,140.5357795],"ct":"JP","tp":"CS","ts":"2022-05-29T00:35:35Z","tX":911,"tY":394,"tags":{"addr:block_number":"3","addr:city":"川崎町","addr:county":"柴田郡","addr:housenumber":"7","addr:postcode":"989-0901","addr:province":"宮城県","addr:quarter":"前川名号下山","name":"AONE×MATKA(アオネマトカ)","name:en":"AONE×MATKA","name:ja":"AONE×MATKA(アオネマトカ)"}}}