{"5714727097":{"location":[43.2240421,60.3964109],"ct":"UZ","tp":"CS","ts":"2025-03-26T06:14:34Z","tX":683,"tY":375,"tags":{"name":"Qara u'y","name:ru":"Юрта"}},"8206187459":{"location":[43.2241579,60.3964284],"ct":"UZ","tp":"CS","ts":"2025-03-26T06:14:34Z","tX":683,"tY":375,"tags":{"name":"Qara u'y","name:ru":"Юрта"}},"8206187460":{"location":[43.2242683,60.3964382],"ct":"UZ","tp":"CS","ts":"2025-03-26T06:14:34Z","tX":683,"tY":375,"tags":{"name":"Qara u'y","name:ru":"Юрта"}},"8206187461":{"location":[43.2243897,60.3964591],"ct":"UZ","tp":"CS","ts":"2025-03-26T06:14:34Z","tX":683,"tY":375,"tags":{"name":"Qara u'y","name:ru":"Юрта"}},"8206187462":{"location":[43.224489,60.3964803],"ct":"UZ","tp":"CS","ts":"2025-03-26T06:14:34Z","tX":683,"tY":375,"tags":{"name":"Qara u'y","name:ru":"Юрта"}},"12701630600":{"location":[43.2244944,60.3963054],"ct":"UZ","tp":"CS","ts":"2025-03-26T06:14:34Z","tX":683,"tY":375,"tags":{"name":"Qara u'y","name:ru":"Юрта"}},"12701630601":{"location":[43.2243952,60.3962842],"ct":"UZ","tp":"CS","ts":"2025-03-26T06:14:34Z","tX":683,"tY":375,"tags":{"name":"Qara u'y","name:ru":"Юрта"}},"12701630602":{"location":[43.2242738,60.3962633],"ct":"UZ","tp":"CS","ts":"2025-03-26T06:14:34Z","tX":683,"tY":375,"tags":{"name":"Qara u'y","name:ru":"Юрта"}},"12701630603":{"location":[43.2241633,60.3962535],"ct":"UZ","tp":"CS","ts":"2025-03-26T06:14:34Z","tX":683,"tY":375,"tags":{"name":"Qara u'y","name:ru":"Юрта"}},"12701630604":{"location":[43.2240476,60.396236],"ct":"UZ","tp":"CS","ts":"2025-03-26T06:14:34Z","tX":683,"tY":375,"tags":{"name":"Qara u'y","name:ru":"Юрта"}}}