{"6044078588":{"location":[31.3476965,48.6951306],"ct":"IR","tp":"CS","ts":"2019-10-02T15:21:07Z","tX":650,"tY":418,"tags":{"name":"پارک ساحلی","name:en":"Patogh ahvaz saheli","source:name":"map.ir"}},"7313771603":{"location":[31.321865,48.6868055],"ct":"IR","tp":"CS","ts":"2020-03-20T20:38:42Z","tX":650,"tY":418,"tags":{"name:en":"hotel karon"}},"7470971423":{"location":[31.318673,48.7368149],"ct":"IR","tp":"CS","ts":"2020-05-01T14:34:42Z","tX":650,"tY":418,"tags":{"name":"اردوگاه راهیان نور شهید مسعودیان"}},"4370859070":{"location":[31.2439186,48.662874],"ct":"IR","tp":"CR","ts":"2016-12-10T20:47:01Z","tX":650,"tY":418,"tags":{"name":"بیت سعید الدرویشیه"}},"7071947685":{"location":[31.2930129,48.7056461],"ct":"IR","tp":"CR","ts":"2019-12-20T11:53:00Z","tX":650,"tY":418,"tags":{"addr:street":"بلوار سینا","name":"میدان","name:en":"Square"}},"10114347517":{"location":[31.3008737,48.6727575],"ct":"IR","tp":"CR","ts":"2022-10-19T14:35:44Z","tX":650,"tY":418,"tags":{"name:ar":"بيت السيد"}},"10997322608":{"location":[31.3055781,48.736978],"ct":"IR","tp":"CR","ts":"2023-06-22T13:17:20Z","tX":650,"tY":418,"tags":{"addr:street":"سپیدار ۲۸"}}}