{"1024350876":{"location":[48.6802297,-118.6664376],"ct":"US","tp":"CR","ts":"2022-01-24T21:01:28Z","tX":174,"tY":353,"tags":{"addr:city":"Republic","addr:housenumber":"8","addr:postcode":"99166","addr:state":"WA","addr:street":"West Curlew Lake Road","internet_access":"wlan","name":"Winchester RV Resort","website":"https://www.winchesterrvpark.com"}},"2493209911":{"location":[48.6402044,-118.7311798],"ct":"US","tp":"CR","ts":"2013-10-11T23:19:56Z","tX":174,"tY":353,"tags":{}},"3532017906":{"location":[48.5007081,-118.8110067],"ct":"US","tp":"CS","ts":"2018-02-26T01:32:39Z","tX":174,"tY":353,"tags":{"name":"Long Lake Campground"}},"11027146627":{"location":[48.6518001,-118.483167],"ct":"US","tp":"CS","ts":"2023-07-05T05:39:37Z","tX":174,"tY":353,"tags":{"backcountry":"yes"}},"5304086364":{"location":[48.6527712,-118.6704801],"ct":"US","tp":"CR","ts":"2017-12-27T03:47:59Z","tX":174,"tY":353,"tags":{"addr:city":"Republic","addr:housenumber":"4","addr:postcode":"99166","addr:state":"WA","addr:street":"Old Kettle Falls Road","capacity":"20","internet_access":"wlan","name":"Gold Mountain RV Park","power_supply":"yes"}}}