{"489136028":{"location":[42.5907414,-91.7286752],"ct":"US","tp":"CR","ts":"2017-04-24T20:10:01Z","tX":251,"tY":377,"tags":{"name":"Jakway Forest County Park"}},"4145246766":{"location":[42.602796,-91.5428078],"ct":"US","tp":"SD","ts":"2016-04-24T22:45:05Z","tX":251,"tY":377,"tags":{}},"7419638637":{"location":[42.673442,-91.5991277],"ct":"US","tp":"CS","ts":"2024-08-26T05:15:41Z","tX":251,"tY":377,"tags":{"addr:city":"Strawberry Point,","addr:state":"IA","backcountry":"yes","capacity":"6","charge":"10 USD","fee":"yes","name":"Joy Springs County Park"}},"7419638646":{"location":[42.5967415,-91.638302],"ct":"US","tp":"CS","ts":"2024-08-26T05:15:41Z","tX":251,"tY":377,"tags":{"addr:city":"Lamont","addr:state":"IA","capacity":"6","charge":"20 USD","fee":"yes","name":"Scout City Park"}},"7419638647":{"location":[42.6118706,-91.566583],"ct":"US","tp":"CS","ts":"2024-08-26T05:15:41Z","tX":251,"tY":377,"tags":{"addr:city":"Strawberry Point","addr:state":"IA","capacity":"27","charge":"16 USD","fee":"yes","name":"Backbone State Park six Pines","phone":"+1-563-924-2000","reservation":"yes","toilets":"yes"}},"7419638648":{"location":[42.6026037,-91.5410665],"ct":"US","tp":"CS","ts":"2024-08-26T05:15:41Z","tX":251,"tY":377,"tags":{"addr:city":"Stawberry Park","addr:state":"IA","capacity":"96","charge":"16 USD","fee":"yes","name":"Backbone SP - South Lake CG","phone":"+1-563-924-2000","reservation":"yes","shower":"yes","toilets":"yes"}},"7419638649":{"location":[42.5907056,-91.7286262],"ct":"US","tp":"CS","ts":"2024-08-26T05:15:41Z","tX":251,"tY":377,"tags":{"addr:city":"Aurora","addr:state":"IA","capacity":"13","charge":"18 USD","fee":"yes","name":"Jakway County Park Campground","phone":"+1-319-636-2617","reservation":"yes","shower":"yes","toilets":"yes"}}}