{"11087436":{"location":[41.7276686,-91.5352809],"ct":"US","tp":"CS","ts":"2020-05-10T15:19:22Z","tX":251,"tY":381,"tags":{"name":"West Overlook"}},"608010812":{"location":[41.7273455,-91.5352809],"ct":"US","tp":"CS","ts":"2020-05-10T15:19:22Z","tX":251,"tY":381,"tags":{"addr:city":"Iowa City","addr:postcode":"52240","addr:state":"IA","description":"Tent camping and trailer camping with electricity, water, and sewer hookups; costs $14-$26 per night","fee":"yes","internet_access":"no","name":"West Overlook Campground","phone":"319-338-3543 ext 6300"}},"608010814":{"location":[41.7253786,-91.5405134],"ct":"US","tp":"CS","ts":"2020-05-10T15:19:22Z","tX":251,"tY":381,"tags":{"name":"Linder Point"}},"608010818":{"location":[41.7228481,-91.5295311],"ct":"US","tp":"CS","ts":"2020-05-10T15:19:22Z","tX":251,"tY":381,"tags":{"name":"Tailwater West"}},"802194217":{"location":[41.7203753,-91.5283525],"ct":"US","tp":"CS","ts":"2020-05-10T15:19:22Z","tX":251,"tY":381,"tags":{"name":"Tailwater East"}},"802200236":{"location":[41.7594531,-91.5621027],"ct":"US","tp":"CS","ts":"2021-02-22T16:05:15Z","tX":251,"tY":381,"tags":{"name":"Sugar Bottom Campgrounds"}},"3259026502":{"location":[41.7307913,-91.721495],"ct":"US","tp":"CS","ts":"2015-05-16T08:29:00Z","tX":251,"tY":381,"tags":{"name":"Youth Group Camp","operator":"Johnson County, Iowa"}},"3259112678":{"location":[41.7326649,-91.7246538],"ct":"US","tp":"CS","ts":"2023-06-12T17:45:47Z","tX":251,"tY":381,"tags":{"addr:city":"Oxford","addr:housenumber":"2048","addr:postcode":"52322","addr:state":"IA","addr:street":"US 6 NW","fee":"yes","internet_access":"wlan","name":"Kent Park Family Campground","operator":"Johnson County, Iowa"}},"3260333476":{"location":[41.7302952,-91.7250232],"ct":"US","tp":"SD","ts":"2015-04-11T05:24:50Z","tX":251,"tY":381,"tags":{"sanitary_dump_station:round_drain":"yes"}},"5506697118":{"location":[41.5554079,-91.5204613],"ct":"US","tp":"CS","ts":"2018-03-26T21:25:09Z","tX":251,"tY":381,"tags":{}}}