{"732154060":{"location":[37.3048895,-91.406922],"ct":"US","tp":"CS","ts":"2019-10-06T17:02:38Z","tX":251,"tY":397,"tags":{}},"1785576655":{"location":[37.389111,-91.5216383],"ct":"US","tp":"CS","ts":"2012-06-13T04:03:25Z","tX":251,"tY":397,"tags":{"name":"Jason's Place"}},"10960496754":{"location":[37.4226732,-91.6090145],"ct":"US","tp":"CS","ts":"2025-05-06T20:46:43Z","tX":251,"tY":397,"tags":{"access":"yes","caravans":"yes","charge":"10 USD","fee":"yes","name":"Cedar Grove Campground","operator":"National Park Service","payment:cash":"yes","static_caravans":"no","tents":"yes"}},"10960524710":{"location":[37.4202713,-91.6037653],"ct":"US","tp":"CS","ts":"2025-05-06T20:46:43Z","tX":251,"tY":397,"tags":{"access":"yes","caravans":"no","charge":"10 USD","fee":"yes","name":"Dee Murray Campground","operator":"National Park Service","payment:cash":"yes","static_caravans":"no","tents":"yes"}},"12513148330":{"location":[37.3760763,-91.5612948],"ct":"US","tp":"CS","ts":"2025-05-06T21:09:51Z","tX":251,"tY":397,"tags":{"group_only":"yes","name":"Akers Group Campground"}},"12518746421":{"location":[37.2843726,-91.4075704],"ct":"US","tp":"CS","ts":"2025-03-18T02:48:43Z","tX":251,"tY":397,"tags":{"group_only":"yes","name":"Round Spring Group Campground A","operator":"National Park Service","operator:short":"NPS","operator:wikidata":"Q308439"}},"12663429799":{"location":[37.2799592,-91.4079194],"ct":"US","tp":"CS","ts":"2025-03-25T16:44:14Z","tX":251,"tY":397,"tags":{"addr:city":"Eminence","addr:housenumber":"13209","addr:postcode":"65466","addr:state":"MO","addr:street":"Round Spring Campground","name":"Round Spring Campground","operator":"National Park Service","operator:short":"NPS","operator:wikidata":"Q308439"}},"12675372265":{"location":[37.2891763,-91.412495],"ct":"US","tp":"CS","ts":"2025-03-18T02:48:43Z","tX":251,"tY":397,"tags":{"group_only":"yes","name":"Round Spring Group Campground B","operator":"National Park Service","operator:short":"NPS","operator:wikidata":"Q308439"}},"12705803642":{"location":[37.3035794,-91.4145149],"ct":"US","tp":"CS","ts":"2025-03-27T21:40:40Z","tX":251,"tY":397,"tags":{"addr:city":"Eminence","addr:postcode":"65466","addr:state":"MO","addr:street":"NPS 145","backcountry":"yes","name":"Sinking Creek Campground","operator":"National Park Service","operator:short":"NPS","operator:wikidata":"Q308439","website":"https://www.nps.gov/ozar/planyourvisit/sinking-creek-campground.htm"}},"12705803695":{"location":[37.3053388,-91.4067439],"ct":"US","tp":"CS","ts":"2025-03-27T20:00:30Z","tX":251,"tY":397,"tags":{"name":"Special-use Area"}},"12688434591":{"location":[37.280439,-91.4091759],"ct":"US","tp":"SD","ts":"2025-03-21T19:53:54Z","tX":251,"tY":397,"tags":{"operator":"National Park Service","operator:short":"NPS","operator:wikidata":"Q308439"}},"12815495466":{"location":[37.3337234,-91.4773813],"ct":"US","tp":"CS","ts":"2025-05-06T21:09:51Z","tX":251,"tY":397,"tags":{"name":"Pulltite Campground","operator":"National Park Service"}},"12815495467":{"location":[37.3351922,-91.4829192],"ct":"US","tp":"CS","ts":"2025-05-06T21:09:51Z","tX":251,"tY":397,"tags":{"group_only":"yes","name":"Pulltite Group Campground"}}}