{"470480436":{"location":[33.4974131,-102.015044],"ct":"US","tp":"CR","ts":"2020-03-31T23:45:53Z","tX":221,"tY":410,"tags":{"addr:city":"Wolfforth","addr:housenumber":"1202","addr:postcode":"79382","addr:state":"TX","addr:street":"Elm Avenue","name":"Cooper's Park"}},"472844005":{"location":[33.5903684,-101.9768274],"ct":"US","tp":"CR","ts":"2023-08-13T16:17:12Z","tX":221,"tY":410,"tags":{"addr:city":"Lubbock","addr:housenumber":"7331","addr:postcode":"79416","addr:state":"TX","addr:street":"4th Street","landuse":"residential","name":"Town and Country Mobile Estates"}},"667984130":{"location":[33.590506,-102.298211],"ct":"US","tp":"CR","ts":"2019-02-07T23:49:00Z","tX":221,"tY":410,"tags":{"addr:city":"Opdyke West","addr:housenumber":"301","addr:postcode":"79336","addr:state":"TX","addr:street":"Drew Drive","name":"Opdyke West RV Park Office"}},"720402860":{"location":[33.5769855,-102.0244668],"ct":"US","tp":"CR","ts":"2019-08-31T04:46:02Z","tX":221,"tY":410,"tags":{"addr:city":"Lubbock","addr:housenumber":"9401","addr:postcode":"79407","addr:state":"TX","addr:street":"19th Street","name":"Westgate Mobile Home Park"}},"720404022":{"location":[33.5643912,-101.9962455],"ct":"US","tp":"CR","ts":"2019-08-31T04:54:40Z","tX":221,"tY":410,"tags":{"addr:city":"Lubbock","addr:housenumber":"8008","addr:postcode":"79407","addr:state":"TX","addr:street":"34th Street","name":"Executive Mobile Home Village"}},"786389329":{"location":[33.5136033,-101.9975231],"ct":"US","tp":"CR","ts":"2020-04-01T00:12:23Z","tX":221,"tY":410,"tags":{"addr:city":"Wolfforth","addr:housenumber":"503","addr:postcode":"79382","addr:state":"TX","addr:street":"East Highway 62","name":"Mesa Verde RV Park"}},"1010794024":{"location":[33.5836643,-102.107609],"ct":"US","tp":"CR","ts":"2022-12-12T21:02:43Z","tX":221,"tY":410,"tags":{"addr:city":"Lubbock","addr:housenumber":"102","addr:postcode":"79407","addr:state":"TX","addr:street":"Leon Road","name":"Cotton Patch RV Park"}},"1010794038":{"location":[33.5852075,-102.1651133],"ct":"US","tp":"CR","ts":"2021-12-09T21:21:42Z","tX":221,"tY":410,"tags":{}},"1307397468":{"location":[33.5915086,-102.2977536],"ct":"US","tp":"CR","ts":"2024-08-13T04:03:07Z","tX":221,"tY":410,"tags":{"description":"RV Park maintained/Ran by the owners of Opdyke West."}}}