{"4633830410":{"location":[43.3909441,86.1726607],"ct":"CN","tp":"CS","ts":"2018-11-11T04:44:35Z","tX":757,"tY":374,"tags":{"name":"CD线岔口营地","name:en":"CD Line Mouth Camp"}},"4633830411":{"location":[43.4912016,86.2054641],"ct":"CN","tp":"CS","ts":"2018-11-11T04:44:35Z","tX":757,"tY":374,"tags":{"description":"可以看见河源峰","name":"一棵树营地","name:en":"a tree camp"}},"4633830417":{"location":[43.5325531,86.2591807],"ct":"CN","tp":"CS","ts":"2018-11-11T04:44:35Z","tX":757,"tY":374,"tags":{"name":"台河营地","name:en":"Taihe Camp","stars":"5"}},"4633830424":{"location":[43.3723701,86.1770608],"ct":"CN","tp":"CS","ts":"2018-11-11T04:44:35Z","tX":757,"tY":374,"tags":{"name":"小冰湖营地","name:en":"Xiaobing Lake Camp (frozen lake camp)"}},"4633830434":{"location":[43.4065195,86.2008024],"ct":"CN","tp":"CS","ts":"2018-11-11T04:44:36Z","tX":757,"tY":374,"tags":{"name":"狼塔牧场营地","name:en":"Wolf Tower Ranch Camp"}},"4633830453":{"location":[43.4344523,86.2255243],"ct":"CN","tp":"CS","ts":"2018-11-11T04:44:36Z","tX":757,"tY":374,"tags":{"name":"高原牧场营地","name:en":"Highland Ranch Camp"}},"4633830455":{"location":[43.5282088,86.2522794],"ct":"CN","tp":"CS","ts":"2018-11-11T04:44:36Z","tX":757,"tY":374,"tags":{"name":"草地","name:en":"Grassland"}},"4633830458":{"location":[43.5558794,86.2485658],"ct":"CN","tp":"CS","ts":"2018-11-11T04:44:36Z","tX":757,"tY":374,"tags":{"name":"马鞍营地（无水源）","name:en":"Saddle camp (waterless source)"}},"5519962268":{"location":[43.5486389,86.2556842],"ct":"CN","tp":"CS","ts":"2018-04-01T08:48:00Z","tX":757,"tY":374,"tags":{"name":"水源营地"}}}