{"219995400":{"location":[28.3042895,83.8284518],"ct":"NP","tp":"CS","ts":"2017-01-30T07:34:12Z","tX":750,"tY":428,"tags":{"landuse":"grass"}},"340400302":{"location":[28.260131,83.8202854],"ct":"NP","tp":"CS","ts":"2015-04-25T10:27:47Z","tX":750,"tY":428,"tags":{}},"403057266":{"location":[28.2149101,83.9572496],"ct":"NP","tp":"CS","ts":"2024-01-29T17:01:34Z","tX":750,"tY":428,"tags":{"landuse":"recreation_ground","name":"Hallan Chok Camping Ground"}},"554653329":{"location":[28.2065561,83.9371187],"ct":"NP","tp":"CS","ts":"2018-01-21T13:45:07Z","tX":750,"tY":428,"tags":{"name":"Himalayan View","tents":"yes"}},"750336811":{"location":[28.2305841,83.9200407],"ct":"NP","tp":"CS","ts":"2019-11-28T03:34:12Z","tX":750,"tY":428,"tags":{}},"1089853276":{"location":[28.2760518,83.8929978],"ct":"NP","tp":"CS","ts":"2024-04-06T07:40:24Z","tX":750,"tY":428,"tags":{"building":"hotel","name":"Moonlight Honestay & Campground"}},"3846343827":{"location":[28.2359275,83.9067704],"ct":"NP","tp":"CR","ts":"2015-11-20T08:41:13Z","tX":750,"tY":428,"tags":{"name":"Overlander Camping","website":"http://www.overlander-camping.com"}},"4793167421":{"location":[28.303276,83.829704],"ct":"NP","tp":"CS","ts":"2017-04-14T10:26:00Z","tX":750,"tY":428,"tags":{"name:en":"Sunrise Camp Resort"}},"5172467724":{"location":[28.2107001,83.9668694],"ct":"NP","tp":"CS","ts":"2017-10-17T07:22:36Z","tX":750,"tY":428,"tags":{"name:en":"camping for porters"}},"5509834493":{"location":[28.2246257,83.951101],"ct":"NP","tp":"CS","ts":"2018-03-28T03:26:31Z","tX":750,"tY":428,"tags":{"name":"Sedi Camping side"}},"5626680353":{"location":[28.259142,83.935996],"ct":"NP","tp":"CS","ts":"2018-05-18T12:58:47Z","tX":750,"tY":428,"tags":{"capacity":"20","name":"Bishauni Camp & Restaurant"}},"6153521285":{"location":[28.1990126,84.0142294],"ct":"NP","tp":"CS","ts":"2018-12-22T13:35:33Z","tX":750,"tY":428,"tags":{"name:en":"Krishna Office"}},"7015981874":{"location":[28.2307384,83.919994],"ct":"NP","tp":"CS","ts":"2019-11-28T03:34:12Z","tX":750,"tY":428,"tags":{"addr:city":"pokhara","addr:street":"chankhapur , pokhara 18","internet_access":"no","name":"seasonal paragliding landing spot"}},"8041250987":{"location":[28.2515942,83.8626774],"ct":"NP","tp":"CS","ts":"2020-10-24T01:33:49Z","tX":750,"tY":428,"tags":{"name:en":"360 Mani Dada Camping"}},"8167783480":{"location":[28.2183182,83.8109874],"ct":"NP","tp":"CS","ts":"2020-11-26T12:28:26Z","tX":750,"tY":428,"tags":{"group_only":"yes","name":"Panchase Paradise Camp"}},"8457229817":{"location":[28.2227427,83.9572671],"ct":"NP","tp":"CS","ts":"2021-02-25T11:11:59Z","tX":750,"tY":428,"tags":{"addr:postcode":"33700","addr:street":"23rd Street, Khahare lakeside","email":"themachan12@gmail.com","internet_access":"wlan","name:en":"The machan","opening_hours":"Mo-Su 07:00-22:00","phone":"061590409"}},"11198465547":{"location":[28.2504738,83.8878819],"ct":"NP","tp":"CS","ts":"2024-02-04T07:16:29Z","tX":750,"tY":428,"tags":{"access":"yes","fee":"no"}},"11880253469":{"location":[28.2226852,83.9547625],"ct":"NP","tp":"CS","ts":"2024-05-29T07:09:26Z","tX":750,"tY":428,"tags":{"name:en":"Shanti space camping (150 NPR)"}},"6873541085":{"location":[28.1884533,83.9567473],"ct":"NP","tp":"CR","ts":"2019-10-12T16:35:21Z","tX":750,"tY":428,"tags":{"name:en":"Concert"}}}