{"154966525":{"location":[43.9155824,-70.592142],"ct":"US","tp":"CS","ts":"2012-03-14T03:27:36Z","tX":311,"tY":372,"tags":{}},"154966526":{"location":[43.9162433,-70.5985254],"ct":"US","tp":"CS","ts":"2012-03-14T03:27:37Z","tX":311,"tY":372,"tags":{}},"364712605":{"location":[44.0414485,-70.3749712],"ct":"US","tp":"CS","ts":"2025-01-12T02:22:05Z","tX":311,"tY":372,"tags":{"name":"Poland Spring Campground"}},"518854422":{"location":[43.919312,-70.5504562],"ct":"US","tp":"CS","ts":"2020-02-04T02:13:01Z","tX":311,"tY":372,"tags":{"addr:city":"Casco","addr:housenumber":"261","addr:postcode":"04015","addr:state":"ME","addr:street":"Point Sebago Road","building":"yes","description":"Welcome Center","name":"Point Sebago Resort"}},"625278189":{"location":[43.9241782,-70.6170833],"ct":"US","tp":"CS","ts":"2018-09-13T12:45:25Z","tX":311,"tY":372,"tags":{"addr:city":"Naples","addr:housenumber":"838","addr:postcode":"04055","addr:state":"ME","addr:street":"Sebago Road","name":"Camp Mataponi"}},"820089645":{"location":[44.0451826,-70.3744639],"ct":"US","tp":"CS","ts":"2025-01-12T02:22:05Z","tX":311,"tY":372,"tags":{"addr:city":"Poland","addr:housenumber":"70","addr:postcode":"04274","addr:state":"ME","addr:street":"Connor Lane","fee":"yes","name":"Camp Tall Pines"}},"1079778008":{"location":[43.8750087,-70.6354358],"ct":"US","tp":"CS","ts":"2022-07-26T13:26:53Z","tX":311,"tY":372,"tags":{"leisure":"summer_camp","name":"Camp O-AT-KA"}},"1079778016":{"location":[43.8745422,-70.6331735],"ct":"US","tp":"CS","ts":"2022-07-19T13:43:52Z","tX":311,"tY":372,"tags":{"leisure":"summer_camp","name":"Camp O-AT-KA","website":"https://campoatka.org/"}},"1079927293":{"location":[43.8877255,-70.6315431],"ct":"US","tp":"CS","ts":"2022-07-20T06:15:45Z","tX":311,"tY":372,"tags":{"leisure":"beach_resort","name":"Nason's Beach and Campground","website":"https://www.nasonsbeach.com/"}},"1312450999":{"location":[43.9673958,-70.5888509],"ct":"US","tp":"CS","ts":"2024-08-31T15:15:39Z","tX":311,"tY":372,"tags":{"name":"Brandy Pond Park"}},"1350545427":{"location":[44.0460495,-70.3752512],"ct":"US","tp":"CS","ts":"2025-01-12T02:36:08Z","tX":311,"tY":372,"tags":{"name":"Camp Connor"}},"1350545435":{"location":[44.0636724,-70.4373984],"ct":"US","tp":"CS","ts":"2025-01-12T02:34:40Z","tX":311,"tY":372,"tags":{"name":"Tripp Lake Camp"}},"7173187234":{"location":[43.9951812,-70.6450096],"ct":"US","tp":"CS","ts":"2020-01-30T20:39:53Z","tX":311,"tY":372,"tags":{"addr:city":"Naples","addr:housenumber":"23","addr:postcode":"04055","addr:state":"ME","addr:street":"Colonial Mast Road","name":"Office/Recreation Hall"}},"7173188814":{"location":[43.994814,-70.6445567],"ct":"US","tp":"CS","ts":"2020-01-30T20:39:53Z","tX":311,"tY":372,"tags":{"addr:city":"Naples","addr:housenumber":"1","addr:postcode":"04055","addr:state":"ME","addr:street":"Colonial Mast Road"}},"7183097552":{"location":[44.017877,-70.5112036],"ct":"US","tp":"CS","ts":"2020-02-04T02:13:01Z","tX":311,"tY":372,"tags":{"addr:city":"Casco","addr:housenumber":"1","addr:postcode":"04015","addr:state":"ME","addr:street":"Hoop Camp Drive","name":"Hoop Basketball Camp"}},"7183097633":{"location":[43.9873748,-70.4682992],"ct":"US","tp":"CS","ts":"2020-02-04T02:13:01Z","tX":311,"tY":372,"tags":{"addr:city":"Casco","addr:housenumber":"48","addr:postcode":"04015","addr:state":"ME","addr:street":"Laurel Road","name":"Laurel South"}},"7183098592":{"location":[43.9134775,-70.5176567],"ct":"US","tp":"CS","ts":"2021-01-01T23:53:56Z","tX":311,"tY":372,"tags":{"addr:city":"Casco","addr:housenumber":"90","addr:postcode":"04015","addr:state":"ME","addr:street":"Roosevelt Trail","name":"Migis Lodge"}},"7183099947":{"location":[43.983969,-70.4667439],"ct":"US","tp":"CS","ts":"2020-02-04T02:13:01Z","tX":311,"tY":372,"tags":{"addr:city":"Casco","addr:housenumber":"54","addr:postcode":"04015","addr:state":"ME","addr:street":"Agawam Road"}},"7185054248":{"location":[43.8810364,-70.6326759],"ct":"US","tp":"CS","ts":"2020-06-12T15:39:51Z","tX":311,"tY":372,"tags":{"addr:city":"Sebago","addr:housenumber":"686","addr:postcode":"04029","addr:state":"ME","addr:street":"Sebago Road","name":"Goodwins Lodge"}},"7215333735":{"location":[44.0249325,-70.6605812],"ct":"US","tp":"CS","ts":"2020-02-16T00:24:00Z","tX":311,"tY":372,"tags":{"addr:city":"Bridgton","addr:housenumber":"11","addr:postcode":"04009","addr:state":"ME","addr:street":"Camp Woodlands Road"}},"7511659812":{"location":[44.0609834,-70.5319396],"ct":"US","tp":"CS","ts":"2020-05-12T16:00:59Z","tX":311,"tY":372,"tags":{"addr:city":"Otisfield","addr:housenumber":"183","addr:postcode":"04270","addr:state":"ME","addr:street":"Powhatan Road","name":"SEEDS OF PEACE CAMP"}},"12450960989":{"location":[44.0306778,-70.6600665],"ct":"US","tp":"CS","ts":"2024-12-25T12:16:05Z","tX":311,"tY":372,"tags":{"addr:city":"Bridgton","addr:housenumber":"70","addr:state":"ME","addr:street":"Weymouth Road","email":"vicki-lin@roadrunner.com","name":"Vicki-Lin Camping Area","website":"https://campmaine.com/directory/vicki-lin-camping-area/"}}}