{"469766972":{"location":[43.5001015,-70.3925174],"ct":"US","tp":"CS","ts":"2022-03-08T14:24:46Z","tX":311,"tY":374,"tags":{"name":"Oceanwood Camp and Conference Center","operator":"TABCOM","website":"https://oceanwood.org"}},"545098438":{"location":[43.5088301,-70.3914927],"ct":"US","tp":"CS","ts":"2022-03-04T15:38:46Z","tX":311,"tY":374,"tags":{"name":"Sun Retreats Wild Acres"}},"545357854":{"location":[43.5052129,-70.4089259],"ct":"US","tp":"CS","ts":"2022-12-19T01:54:03Z","tX":311,"tY":374,"tags":{"name":"Wagon Wheel Campground"}},"726079641":{"location":[43.3980148,-70.4312709],"ct":"US","tp":"CS","ts":"2023-10-29T20:25:23Z","tX":311,"tY":374,"tags":{"access":"customers","fee":"yes","name":"Sandy Pines Campground","website":"https://sandypinescamping.com/"}},"995872989":{"location":[43.419083,-70.5112142],"ct":"US","tp":"CR","ts":"2021-10-23T12:58:11Z","tX":311,"tY":374,"tags":{"name":"Bentleys Campground","phone":"+1-207-985-8966","website":"https://bentleyssaloon.com/reserve-lodging/"}},"995956101":{"location":[43.3914014,-70.491418],"ct":"US","tp":"CR","ts":"2022-12-19T01:54:03Z","tX":311,"tY":374,"tags":{"caravans":"yes","name":"Red Apple Campground","sanitary_dump_station":"yes","tents":"yes","website":"http://redapplecampground.com/"}},"1032406002":{"location":[43.3263343,-70.5746873],"ct":"US","tp":"CR","ts":"2023-01-03T12:11:52Z","tX":311,"tY":374,"tags":{"name":"Sea-Vu Campground"}},"1032406008":{"location":[43.325972,-70.6116842],"ct":"US","tp":"CS","ts":"2022-02-17T00:17:45Z","tX":311,"tY":374,"tags":{"name":"Gregoire's Campgrounds"}},"1033631630":{"location":[43.4723248,-70.3870706],"ct":"US","tp":"CS","ts":"2022-02-20T21:56:25Z","tX":311,"tY":374,"tags":{"name":"Ferry Beach Resort and Conference Center - Camping Site"}},"1034404328":{"location":[43.536242,-70.4272315],"ct":"US","tp":"CR","ts":"2023-01-03T13:49:57Z","tX":311,"tY":374,"tags":{"addr:city":"Saco","addr:housenumber":"814","addr:postcode":"04072","addr:state":"ME","addr:street":"Portland Road","name":"Sun Outdoors Saco Old Orchard Beach","phone":"+1-207-282-0502","website":"https://koa.com/campgrounds/saco"}},"1035448417":{"location":[43.5059295,-70.4182259],"ct":"US","tp":"CR","ts":"2023-01-03T13:26:28Z","tX":311,"tY":374,"tags":{"name":"Old Orchard Beach Campground"}},"1035762023":{"location":[43.5201273,-70.4252185],"ct":"US","tp":"CR","ts":"2022-02-27T15:56:50Z","tX":311,"tY":374,"tags":{"addr:city":"Saco","addr:housenumber":"705","addr:postcode":"04072","addr:state":"ME","addr:street":"Portland Road","name":"Silver Springs Campground and Cottages","phone":"+1-207-283-3880","website":"http://www.silverspringscampgroundandcottages.com/"}},"1037157946":{"location":[43.5073969,-70.3977473],"ct":"US","tp":"CS","ts":"2023-01-03T13:26:28Z","tX":311,"tY":374,"tags":{"addr:city":"Old Orchard Beach","addr:housenumber":"4","addr:postcode":"04064","addr:state":"ME","addr:street":"William Street","name":"Virginia Tent at Wild Acres","note":"Uncertain as to the status, couldn't find a web page"}},"1037242133":{"location":[43.513033,-70.4052897],"ct":"US","tp":"CR","ts":"2023-01-03T13:26:28Z","tX":311,"tY":374,"tags":{"addr:city":"Old Orchard Beach","addr:housenumber":"7","addr:postcode":"04064","addr:state":"ME","addr:street":"Oregon Avenue","name":"Pinehirst RV Resort"}},"1037829627":{"location":[43.5290666,-70.3860636],"ct":"US","tp":"CR","ts":"2022-03-06T21:48:15Z","tX":311,"tY":374,"tags":{"addr:city":"Old Orchard Beach","addr:housenumber":"48","addr:postcode":"04064","addr:street":"Cascade Road","name":"Powder Horn Family Camping Resort","phone":"+1-207-934-4733","website":"https://www.mainecampgrounds.com/"}},"1037829628":{"location":[43.5265365,-70.3809821],"ct":"US","tp":"CR","ts":"2022-03-08T13:32:24Z","tX":311,"tY":374,"tags":{"addr:city":"Old Orchard Beach","addr:housenumber":"8","addr:postcode":"04064","addr:state":"ME","addr:street":"Cascade Road","name":"Hid'n Pines Family Campground","phone":"+1-207-934-2352","tents":"yes","website":"http://mainefamilycamping.com/"}},"1069412802":{"location":[43.5651139,-70.3828973],"ct":"US","tp":"CR","ts":"2022-06-13T21:16:30Z","tX":311,"tY":374,"tags":{"addr:city":"Scarborough","addr:housenumber":"39","addr:postcode":"04074","addr:state":"ME","addr:street":"Dunstan Landing Road","email":"info@wildduckcampground.com","name":"Wild Duck Campground & RV Park","phone":"+1-207-883-4432","website":"https://www.wildduckcampground.com/"}},"1069909016":{"location":[43.5441426,-70.3607396],"ct":"US","tp":"CR","ts":"2023-11-08T02:01:50Z","tX":311,"tY":374,"tags":{"addr:city":"Scarborough","addr:housenumber":"275","addr:postcode":"04074","addr:state":"ME","addr:street":"Pine Point Road","internet_access":"wlan","name":"Bayley's Camping Resort","opening_hours":"24/7","phone":"+1-207-883-6043","website":"https://bayleysresort.com/"}},"1123231363":{"location":[43.444055,-70.4108129],"ct":"US","tp":"CS","ts":"2022-12-19T01:54:03Z","tX":311,"tY":374,"tags":{"addr:city":"Biddeford","addr:housenumber":"391","addr:street":"West Street","name":"Shamrock Campground"}},"1126674350":{"location":[43.3361541,-70.5664902],"ct":"US","tp":"CR","ts":"2023-01-03T12:11:52Z","tX":311,"tY":374,"tags":{"name":"Drakes Island Resort"}},"1126674358":{"location":[43.3429733,-70.5613899],"ct":"US","tp":"CS","ts":"2023-01-03T12:11:52Z","tX":311,"tY":374,"tags":{"name":"Riverside Campground"}},"1126680658":{"location":[43.4113832,-70.5184598],"ct":"US","tp":"CS","ts":"2023-01-03T12:37:46Z","tX":311,"tY":374,"tags":{"name":"Hemlock Grove Campground"}},"1126692134":{"location":[43.5427191,-70.5150872],"ct":"US","tp":"CR","ts":"2023-01-03T13:49:57Z","tX":311,"tY":374,"tags":{"name":"Homestead By The River Family Campground","tiger:cfcc":"A41","tiger:county":"York, ME","tiger:name_base":"Homestead Campground","tiger:reviewed":"no"}},"2611801912":{"location":[43.5103185,-70.3975991],"ct":"US","tp":"CR","ts":"2020-12-07T01:38:06Z","tX":311,"tY":374,"tags":{"addr:city":"Old Orchard Beach","addr:housenumber":"179","addr:postcode":"04064","addr:street":"Saco Avenue","name":"Wild Acres","phone":"+1-888-681-9103","tents":"yes","website":"http://www.sunrvresorts.com/Community/WAC.aspx"}},"3017305518":{"location":[43.5197753,-70.38218],"ct":"US","tp":"CR","ts":"2020-01-31T16:56:57Z","tX":311,"tY":374,"tags":{"addr:city":"Old Orchard Beach","addr:housenumber":"50","addr:postcode":"04064","addr:state":"ME","addr:street":"Adelaide Road","name":"Paradise Park Resort","phone":"+1-207-934-4633","website":"https://paradiseparkresort.com/"}},"5131734122":{"location":[43.5070604,-70.4118764],"ct":"US","tp":"CS","ts":"2022-03-04T14:16:34Z","tX":311,"tY":374,"tags":{}},"12446053834":{"location":[43.357492,-70.4433449],"ct":"US","tp":"CS","ts":"2024-12-24T01:01:41Z","tX":311,"tY":374,"tags":{"backcountry":"yes","cabins":"no","capacity:persons":"8","caravans":"no","fee":"no","impromptu":"no","motorhome":"no","name":"Grove","openfire":"yes","operator":"Kennebunkport Conservation Trust","reservation":"yes","scout":"no","toilets":"no","website":"https://kctislands.org/vaughn-island/"}},"12446053835":{"location":[43.3568724,-70.4426391],"ct":"US","tp":"CS","ts":"2024-12-24T01:01:41Z","tX":311,"tY":374,"tags":{"backcountry":"yes","cabins":"no","capacity:persons":"8","caravans":"no","fee":"no","impromptu":"no","motorhome":"no","name":"Cobble Cove","openfire":"yes","operator":"Kennebunkport Conservation Trust","reservation":"yes","scout":"no","toilets":"no","website":"https://kctislands.org/vaughn-island/"}},"12446053836":{"location":[43.3558532,-70.4396859],"ct":"US","tp":"CS","ts":"2024-12-24T01:01:41Z","tX":311,"tY":374,"tags":{"backcountry":"yes","cabins":"no","capacity:persons":"8","caravans":"no","fee":"no","impromptu":"no","motorhome":"no","name":"North Beach","openfire":"yes","operator":"Kennebunkport Conservation Trust","reservation":"yes","scout":"no","toilets":"no","website":"https://kctislands.org/vaughn-island/"}},"12446053837":{"location":[43.3624017,-70.4214309],"ct":"US","tp":"CS","ts":"2024-12-24T01:01:41Z","tX":311,"tY":374,"tags":{"backcountry":"yes","cabins":"no","capacity:persons":"8","caravans":"no","fee":"no","impromptu":"no","motorhome":"no","name":"East Point","openfire":"yes","operator":"Kennebunkport Conservation Trust","reservation":"yes","scout":"no","toilets":"no","website":"https://kctislands.org/trott-island/"}},"12446053838":{"location":[43.3631042,-70.4220225],"ct":"US","tp":"CS","ts":"2024-12-24T01:01:41Z","tX":311,"tY":374,"tags":{"backcountry":"yes","cabins":"no","capacity:persons":"8","caravans":"no","fee":"no","impromptu":"no","motorhome":"no","name":"Pine Grove","openfire":"yes","operator":"Kennebunkport Conservation Trust","reservation":"yes","scout":"no","toilets":"no","website":"https://kctislands.org/trott-island/"}},"12446053839":{"location":[43.3665253,-70.4254833],"ct":"US","tp":"CS","ts":"2024-12-24T01:01:41Z","tX":311,"tY":374,"tags":{"backcountry":"yes","cabins":"no","capacity:persons":"8","caravans":"no","fee":"no","impromptu":"no","motorhome":"no","name":"Northwest Point","openfire":"yes","operator":"Kennebunkport Conservation Trust","reservation":"yes","scout":"no","toilets":"no","website":"https://kctislands.org/trott-island/"}},"12446053840":{"location":[43.3630889,-70.4174098],"ct":"US","tp":"CS","ts":"2024-12-24T01:01:41Z","tX":311,"tY":374,"tags":{"backcountry":"yes","cabins":"no","capacity:persons":"8","caravans":"no","fee":"no","impromptu":"no","motorhome":"no","name":"Westpoint","openfire":"yes","operator":"Kennebunkport Conservation Trust","reservation":"yes","scout":"no","toilets":"no","website":"https://kctislands.org/cape-island/"}},"12446053841":{"location":[43.3627801,-70.4184829],"ct":"US","tp":"CS","ts":"2024-12-24T01:01:41Z","tX":311,"tY":374,"tags":{"backcountry":"yes","cabins":"no","capacity:persons":"8","caravans":"no","fee":"no","impromptu":"no","motorhome":"no","name":"Bayview","openfire":"yes","operator":"Kennebunkport Conservation Trust","reservation":"yes","scout":"no","toilets":"no","website":"https://kctislands.org/cape-island/"}}}