{"158813003":{"location":[43.1571953,-70.626142],"ct":"US","tp":"CR","ts":"2024-05-05T15:16:27Z","tX":311,"tY":375,"tags":{"designation":"Flagg's Trailer Park","ele":"3","gnis:feature_id":"1910884","name":"Flagg's Trailer Park","source":"Live near the park"}},"158843541":{"location":[43.1698377,-70.6119345],"ct":"US","tp":"CR","ts":"2024-05-05T15:16:27Z","tX":311,"tY":375,"tags":{"ele":"6","gnis:feature_id":"1911242","name":"Wayside Trailer Park"}},"752107304":{"location":[43.1464156,-70.6264123],"ct":"US","tp":"CR","ts":"2019-12-04T04:05:54Z","tX":311,"tY":375,"tags":{}},"752107305":{"location":[43.147001,-70.6290604],"ct":"US","tp":"CR","ts":"2019-12-04T04:05:54Z","tX":311,"tY":375,"tags":{"name":"Libby's Oceanside Camp"}},"753154509":{"location":[43.1765047,-70.6124229],"ct":"US","tp":"CR","ts":"2023-01-03T12:11:52Z","tX":311,"tY":375,"tags":{"name":"Burnette's Campground"}},"762724648":{"location":[43.2783027,-70.6368595],"ct":"US","tp":"CR","ts":"2023-10-29T20:25:29Z","tX":311,"tY":375,"tags":{"name":"Coastal Pines Camp Sites","phone":"+1-207-646-2492","website":"https://www.pinederosa.com/index.html"}},"1032406003":{"location":[43.3232898,-70.5749901],"ct":"US","tp":"CS","ts":"2022-02-17T00:17:45Z","tX":311,"tY":375,"tags":{"addr:city":"Wells","addr:housenumber":"84","addr:street":"Harbor Road","name":"Ocean View Cottage & Camping"}},"1123232604":{"location":[43.2202245,-70.6129252],"ct":"US","tp":"CS","ts":"2022-12-19T02:05:04Z","tX":311,"tY":375,"tags":{"addr:city":"Cape Neddick","addr:housenumber":"1740","addr:postcode":"03902","addr:state":"ME","addr:street":"Route 1","name":"Dixon's Campgrounds","operator":"Dixon's Coastal Maine Campground"}},"1123310970":{"location":[43.2680203,-70.6222559],"ct":"US","tp":"CS","ts":"2022-12-19T10:35:36Z","tX":311,"tY":375,"tags":{"name":"Pinederosa Campground"}},"1123311030":{"location":[43.2810571,-70.6008245],"ct":"US","tp":"CR","ts":"2022-12-19T10:35:36Z","tX":311,"tY":375,"tags":{"name":"Moody Beach RV Campground"}},"1123380573":{"location":[43.3045551,-70.5898645],"ct":"US","tp":"CR","ts":"2025-01-26T18:42:33Z","tX":311,"tY":375,"tags":{"name":"Sun Outdoors Wells Beach"}},"1126674323":{"location":[43.1877777,-70.6048235],"ct":"US","tp":"CS","ts":"2023-01-03T12:11:52Z","tX":311,"tY":375,"tags":{"addr:city":"York","addr:housenumber":"63","addr:postcode":"03909","addr:state":"ME","addr:street":"Shore Road","name":"Cape Neddick Oceanside Campground","operator":"Cape Neddick Campground"}},"1126674324":{"location":[43.3115004,-70.5995093],"ct":"US","tp":"CR","ts":"2023-01-03T12:11:52Z","tX":311,"tY":375,"tags":{"name":"Sea-Vu West Resort RV Park and Campground"}},"1126674325":{"location":[43.3102171,-70.5920022],"ct":"US","tp":"CR","ts":"2023-01-03T12:11:52Z","tX":311,"tY":375,"tags":{"name":"Sea-Vu South Campground"}},"1279637796":{"location":[43.2908075,-70.5875585],"ct":"US","tp":"CS","ts":"2024-05-04T13:05:10Z","tX":311,"tY":375,"tags":{"access":"customers","addr:city":"Wells","addr:housenumber":"76","addr:postcode":"04090","addr:state":"ME","addr:street":"Eldridge Road","caravans":"yes","charge":"see website","dog":"no","fee":"yes","name":"Beach Acres","payment:cash":"yes","phone":"+1 207-656-2288","reservation":"yes","static_caravans":"yes","tents":"yes","website":"https://beachacres.com"}},"7549047791":{"location":[43.1456584,-70.627694],"ct":"US","tp":"CS","ts":"2020-05-22T14:39:43Z","tX":311,"tY":375,"tags":{"addr:city":"York","addr:housenumber":"750","addr:postcode":"03909","addr:state":"ME","addr:street":"York Street","operator":"Camp Eaton"}},"7549048292":{"location":[43.1750797,-70.6121981],"ct":"US","tp":"CS","ts":"2020-05-22T14:39:43Z","tX":311,"tY":375,"tags":{"addr:city":"York","addr:housenumber":"21","addr:postcode":"03909","addr:state":"ME","addr:street":"Railroad Avenue"}},"7549048664":{"location":[43.1567144,-70.6255952],"ct":"US","tp":"CS","ts":"2020-05-22T14:39:43Z","tX":311,"tY":375,"tags":{"addr:city":"York","addr:housenumber":"68","addr:postcode":"03909","addr:state":"ME","addr:street":"Garrison Avenue","operator":"Flaggs RV Park"}},"7549050832":{"location":[43.1468737,-70.6261337],"ct":"US","tp":"CS","ts":"2020-05-22T14:39:43Z","tX":311,"tY":375,"tags":{"addr:city":"York","addr:housenumber":"25","addr:postcode":"03909","addr:state":"ME","addr:street":"Boon Island Way","operator":"Libby's Oceanside Camp"}}}