{"335017580":{"location":[-30.123356,-70.49672],"ct":"CL","tp":"CS","ts":"2023-05-20T05:10:08Z","tX":311,"tY":601,"tags":{"fee":"yes","name":"Rancho Rodriguez","note":"Hay fiesta toda la noche","note:en":"There's party all night long","tents":"yes"}},"1530398569":{"location":[-30.0626634,-70.4912714],"ct":"CL","tp":"CS","ts":"2024-01-14T15:50:58Z","tX":311,"tY":601,"tags":{"ele":"1026.8061523","name":"Ai Eden","sym":"Campground"}},"1530398570":{"location":[-30.0693083,-70.4950866],"ct":"CL","tp":"CS","ts":"2024-01-14T15:50:58Z","tX":311,"tY":601,"tags":{"ele":"1075.8327637","name":"Rio Claro","sym":"Campground"}},"1530398572":{"location":[-30.0946558,-70.4949706],"ct":"CL","tp":"CS","ts":"2024-01-14T15:50:58Z","tX":311,"tY":601,"tags":{"ele":"1130.3872070","name":"Los Paltos","sym":"Campground"}},"1949113207":{"location":[-30.1273863,-70.4354791],"ct":"CL","tp":"CS","ts":"2012-10-06T13:26:23Z","tX":311,"tY":601,"tags":{"name":"Camping"}},"2095761039":{"location":[-30.1259546,-70.4895977],"ct":"CL","tp":"CS","ts":"2016-05-31T22:49:00Z","tX":311,"tY":601,"tags":{"name":"Camping Refugio Del Ángel"}},"2095762152":{"location":[-30.1260521,-70.491207],"ct":"CL","tp":"CS","ts":"2023-05-20T05:10:08Z","tX":311,"tY":601,"tags":{"fee":"yes","name":"Los Pipiolos"}},"3807921355":{"location":[-30.0234574,-70.6365186],"ct":"CL","tp":"CS","ts":"2015-10-29T06:31:25Z","tX":311,"tY":601,"tags":{}},"4741572127":{"location":[-29.9898833,-70.5421603],"ct":"CL","tp":"CS","ts":"2017-03-18T14:58:10Z","tX":311,"tY":601,"tags":{}},"5229406124":{"location":[-30.0351245,-70.5160444],"ct":"CL","tp":"CS","ts":"2017-11-15T02:06:06Z","tX":311,"tY":601,"tags":{"name":"Camping Lecho Nativo","name:es":"Camping Lecho Nativo"}},"5237830931":{"location":[-30.0304316,-70.5229954],"ct":"CL","tp":"CS","ts":"2017-11-19T13:57:22Z","tX":311,"tY":601,"tags":{"addr:housenumber":"30","addr:street":"Ignacio Carrera Pinto","name":"Camping Elki Glarus","opening_hours":"24/7","phone":"56996337769"}},"5393487623":{"location":[-29.8493017,-70.3841],"ct":"CL","tp":"CS","ts":"2018-02-06T16:24:34Z","tX":311,"tY":601,"tags":{"name":"Camping Salvaje","name:en":"Wild Camping","name:fr":"Camping Sauvage"}},"5724132457":{"location":[-30.1353644,-70.4971128],"ct":"CL","tp":"CS","ts":"2020-04-17T17:25:43Z","tX":311,"tY":601,"tags":{"name":"Camping entre Viñas","office":"camping","phone":"+56 950176340"}},"5936010705":{"location":[-30.0645831,-70.4921381],"ct":"CL","tp":"CS","ts":"2018-09-28T04:06:52Z","tX":311,"tY":601,"tags":{"access":"permissive","addr:city":"Pueblo Hundido","description":"Sitios para acampar, con acceso a río y piscina","fee":"yes","internet_access":"no","name":"Camping Cañaveral del Elqui","phone":"+56976300215","website":"https://www.facebook.com/campingcanaveral.delelqui.31"}},"6175675785":{"location":[-30.1101677,-70.4701937],"ct":"CL","tp":"CS","ts":"2018-12-31T23:11:32Z","tX":311,"tY":601,"tags":{"name":"Luz de luna"}},"6233133586":{"location":[-30.142696,-70.4073578],"ct":"CL","tp":"CS","ts":"2023-05-29T19:37:16Z","tX":311,"tY":601,"tags":{"addr:street":"Montegrande - Cochiguaz - El Pangue","name":"Camping Rio Magico","website":"http://www.valledeelqui.cl/maincampriomagico.htm"}},"6848478288":{"location":[-30.1428159,-70.407786],"ct":"CL","tp":"CS","ts":"2024-12-28T03:02:47Z","tX":311,"tY":601,"tags":{"addr:city":"Cochiguaz","addr:street":"Ruta D-487","name":"Campamento Río Mágico","name:de":"Camping Rio Magico","name:en":"Camping Rio Magico"}},"10937914737":{"location":[-30.1425716,-70.4071733],"ct":"CL","tp":"CS","ts":"2023-05-29T19:37:16Z","tX":311,"tY":601,"tags":{"name":"Refugio Cochiguaz","name:de":"Camping Rio Magico","name:en":"Camping Rio Magico"}}}