{"15670835":{"location":[53.4555421,5.7706953],"ct":"NL","tp":"CS","ts":"2023-04-01T22:17:23Z","tX":528,"tY":331,"tags":{"cabins":"yes","caravans":"yes","fee":"yes","motorhome":"yes","name":"Camping Duinoord","phone":"+31 519 542 070","shower":"yes","static_caravans":"yes","tents":"yes","toilets":"yes","website":"https://www.campingduinoordameland.nl"}},"15875435":{"location":[53.4532792,5.8095976],"ct":"NL","tp":"CS","ts":"2023-05-19T05:15:36Z","tX":528,"tY":331,"tags":{"landuse":"residential","name":"Vakantiepark Klein Vaarwater","website":"https://kleinvaarwater-ameland.nl"}},"48910650":{"location":[53.3706629,5.8959722],"ct":"NL","tp":"CR","ts":"2025-01-25T14:29:58Z","tX":528,"tY":331,"tags":{"bakery_service":"yes","bicycle_rental":"yes","capacity":"20","caravan_site":"motorhome_stopover","caravan_site:type":"village","caravans":"yes","charge":"29.50 EUR","check_in":"13:00-21:00","dog":"yes","email":"info@zeevantijd.nl","fee":"yes","internet_access":"wlan","motorhome":"yes","name":"Zee van Tijd","old_name":"Camping De Dobbe","opening_hours":"Apr 01 - Oct 31","phone":"+31 519 543 003","power_supply":"yes","power_supply:maxcurrent":"4","reservation":"no","seasonal":"yes","shower":"yes","tents":"yes","toilets":"yes","website":"https://www.campingzeevantijd.nl/"}},"52717751":{"location":[53.380513,5.966477],"ct":"NL","tp":"CS","ts":"2016-11-18T08:22:59Z","tX":528,"tY":331,"tags":{"capacity":"20","name":"Het Groene Hart","operator":"Stichting het groene hart van Ternaard","source":"3dShapes"}},"53293789":{"location":[53.3452395,5.8359278],"ct":"NL","tp":"CS","ts":"2023-09-23T14:27:23Z","tX":528,"tY":331,"tags":{"caravans":"yes","email":"campingfoswert@outlook.com","name":"Foswert","phone":"+31 518 412 498","shower":"yes","tents":"yes","toilets":"yes"}},"72799437":{"location":[53.4545178,5.8176441],"ct":"NL","tp":"CS","ts":"2011-03-08T19:19:38Z","tX":528,"tY":331,"tags":{"description:de":"Zeltplatz für Jugendgruppen","description:en":"Camp-site for youth groups"}},"178032976":{"location":[53.4523039,5.7549993],"ct":"NL","tp":"CS","ts":"2021-05-11T18:10:17Z","tX":528,"tY":331,"tags":{"name":"Middelpolle","operator":"Staatsbosbeheer"}},"462200341":{"location":[53.3465869,5.971196],"ct":"NL","tp":"CS","ts":"2024-01-19T20:43:09Z","tX":528,"tY":331,"tags":{"addr:city":"Hiaure","addr:housenumber":"2","addr:postcode":"9148BD","addr:street":"Krûdikker","contact:email":"info@campingdeterp.nl","contact:phone":"+31 519 571 978","contact:website":"https://www.campingdeterp.nl","name":"Camping De Terp"}},"1080250381":{"location":[53.4389621,5.7092741],"ct":"NL","tp":"CS","ts":"2022-07-21T12:22:28Z","tX":528,"tY":331,"tags":{"addr:city":"Ballum","addr:housenumber":"8","addr:postcode":"9162EC","addr:street":"Smitteweg","name":"Tussen Wad en Strand","website":"https://tussenwadenstrand.com/nl/home/"}},"1354182328":{"location":[53.3842416,5.9626043],"ct":"NL","tp":"CR","ts":"2025-01-25T14:25:11Z","tX":528,"tY":331,"tags":{"addr:city":"Ternaard","addr:housenumber":"22","addr:postcode":"9145RB","addr:street":"Wjuk","capacity":"6","caravan_site":"motorhome_stopover","caravan_site:type":"village","charge":"15 EUR","email":"simone.nijholt@outlook.com","facebook":"https://www.facebook.com/camperplaatsoerdewjuk/","fee":"yes","internet_access":"wlan","name":"Camperplaats \"Oer de Wjuk\"","phone":"+31 6 19051429","power_supply":"yes","power_supply:fee":"yes","sanitary_dump_station":"yes","seasonal":"yes","shower":"no","socket:cee_blue":"yes","surface":"pebblestone","toilets":"no","water_point":"yes","website":"https://ternaard.nu/content/toerisme/camperplaats-oer-de-wjuk/"}},"2732923736":{"location":[53.4514214,5.6885586],"ct":"NL","tp":"CS","ts":"2022-11-04T11:20:57Z","tX":528,"tY":331,"tags":{"addr:city":"Ballum","addr:housenumber":"20","addr:postcode":"9162EV","addr:street":"Strandweg","bic":"RABONL2U","cabins":"yes","email":"info@roosdunen.nl","fax":"+31 519 554 454","fee":"yes","iban":"NL50RABO0302000216","internet_access":"wlan","name":"Roosdunen","phone":"+31 519 554 134","power_supply":"yes","source":"BAG","source:date":"2014-02-11","stars":"3","tents":"yes","website":"https://www.roosdunen.nl/","website:de":"https://www.roosdunen.nl/de"}},"7797419285":{"location":[53.3414931,5.8896694],"ct":"NL","tp":"CS","ts":"2022-06-06T06:45:12Z","tX":528,"tY":331,"tags":{"addr:city":"Blije","addr:housenumber":"5","addr:postcode":"9171GD","addr:street":"Mieddyk","email":"info@campingblijerwadden.nl","name":"Camping De Blijer Wadden","phone":"+31 6 15378578","website":"https://www.campingblijerwadden.nl"}},"10814052888":{"location":[53.4503238,5.6437871],"ct":"NL","tp":"CS","ts":"2023-04-27T09:11:45Z","tX":528,"tY":331,"tags":{"cabins":"yes","caravans":"yes","email":"info@koudenburg.nl","name":"Parc Koudenburg","phone":"+31 519 554 367","shower":"yes","tents":"yes","toilets":"yes","website":"https://www.koudenburg.nl/accommodaties/kamperen"}},"10814072127":{"location":[53.4550442,5.8025394],"ct":"NL","tp":"CS","ts":"2023-05-19T06:07:03Z","tX":528,"tY":331,"tags":{"cabins":"yes","caravans":"yes","email":"receptie@kiekduun.nl","internet_access":"wlan","internet_access:fee":"no","name":"De Kiekduun","phone":"+31 519 542 389","shower":"yes","tents":"yes","toilets":"yes"}},"10933501405":{"location":[53.4531361,5.7675102],"ct":"NL","tp":"CS","ts":"2023-06-23T14:41:22Z","tX":528,"tY":331,"tags":{"caravans":"no","drinking_water":"yes","name":"Duinoord Zuid Little Canvas Escape","shower":"yes","tents":"yes","website":"https://littlecanvasescape.com/"}},"9648273217":{"location":[53.3842373,5.9624645],"ct":"NL","tp":"CR","ts":"2022-08-28T08:38:07Z","tX":528,"tY":331,"tags":{"addr:city":"Ternaard","addr:housenumber":"22","addr:postcode":"9145RB","addr:street":"Wjuk","email":"simone.nijholt@outlook.com","internet_access":"wlan","name":"Camperplaats \"Oer de Wjuk\"","phone":"+31 6 19051429"}}}