{"13339998":{"location":[53.1990297,5.8301076],"ct":"NL","tp":"CR","ts":"2025-01-13T17:07:59Z","tX":528,"tY":332,"tags":{"capacity":"15","caravan_site":"motorhome_stopover","caravan_site:type":"harbour","caravans":"no","charge":"11.90 EUR","fee":"yes","internet_access":"wlan","internet_access:fee":"no","name":"Camperplaats Leeuwarder Jachthaven","opening_hours":"Apr-Oct","operator":"Stichting Nieuwe Leeuwarder Jachthaven","power_supply":"yes","power_supply:charge":"3.50 EUR","power_supply:fee":"yes","reservation":"no","sanitary_dump_station":"yes","shower":"yes","shower:charge":"1 EUR","shower:fee":"yes","water_point":"yes","website":"https://www.leeuwarderjachthaven.nl/"}},"16368855":{"location":[53.3060398,5.8715799],"ct":"NL","tp":"CS","ts":"2023-09-23T14:57:11Z","tX":528,"tY":332,"tags":{"caravans":"yes","email":"campingzwanenburg@gmail.com","name":"Zwanenburg","phone":"+31 6 15033993","shower":"yes","tents":"yes","toilets":"yes","website":"https://campingzwanenburg.nl/"}},"26859257":{"location":[53.1267511,5.9455177],"ct":"NL","tp":"CS","ts":"2022-06-06T06:28:14Z","tX":528,"tY":332,"tags":{"addr:city":"Earnewâld","addr:country":"NL","addr:housenumber":"10","addr:postcode":"9264TP","addr:street":"Koaidyk","name":"It Wiid","phone":"+31 511 539 223","source":"BAG","source:date":"2014-07-03","toilets:wheelchair":"yes","website":"https://www.wiid.nl/","wheelchair":"yes"}},"53529161":{"location":[53.3288431,5.7736308],"ct":"NL","tp":"CS","ts":"2024-05-13T09:04:06Z","tX":528,"tY":332,"tags":{"addr:city":"Marrum","addr:housenumber":"8","addr:postcode":"9073TN","addr:street":"Zeedijk","caravans":"yes","contact:email":"info@hetlagenoorden.nl","contact:phone":"+31 6 45674411","contact:website":"https://www.hetlagenoorden.nl/camping","drinking_water":"yes","email":"info@hetlagenoorden.nl","fee":"yes","group_only":"no","internet_access":"wlan","mobile":"+31 6 45674411","name":"Het Lage Noorden","picnic_table":"yes","power_supply":"yes","shower":"yes","source":"3dShapes","tents":"yes","toilets":"yes","website":"https://www.hetlagenoorden.nl"}},"56698735":{"location":[53.2434172,5.9749187],"ct":"NL","tp":"CS","ts":"2023-05-30T12:17:22Z","tX":528,"tY":332,"tags":{"addr:street":"Bûtefjild 24","cabins":"yes","caravans":"yes","email":"info@boerderijdeomleiding.nl","name":"Boerderij de Omleiding","phone":"+31 6 30848902;+31 6 51775535","shower":"yes","source":"3dShapes","tents":"yes","toilets":"yes","website":"https://www.boerderijdeomleiding.nl/"}},"56699316":{"location":[53.2876353,5.9719663],"ct":"NL","tp":"CS","ts":"2024-06-24T08:32:09Z","tX":528,"tY":332,"tags":{"capacity:pitches":"14","caravans":"yes","email":"koaipleats@gmail.com","mobile":"+31 6 21616874","name":"De Koaipleats","phone":"+31 511 424 549","shower":"yes","tents":"yes","toilets":"yes","website":"https://dekoaipleats.nl/"}},"64306812":{"location":[53.2267633,5.9120491],"ct":"NL","tp":"CS","ts":"2023-07-25T21:30:04Z","tX":528,"tY":332,"tags":{"cabins":"yes","capacity:cabins":"4","capacity:pitches":"35","caravans":"yes","email":"camping@johanna-hoeve.nl","landcover":"grass","mobile":"+31 6 29350244","name":"Johanna Hoeve","phone":"+31 511 431 166","shower":"yes","tents":"yes","toilets":"yes","website":"https://www.johanna-hoeve.nl/"}},"79575034":{"location":[53.1211963,5.8463787],"ct":"NL","tp":"CS","ts":"2025-02-06T18:56:37Z","tX":528,"tY":332,"tags":{"description":"Minicamping: alleen seizoensplaatsen.","dog":"yes","name":"Minicamping De Âlde Stjelp","permanent_camping":"only","website":"https://aldestjelp.riedjedesign.nl/"}},"79645600":{"location":[53.1298732,5.9320002],"ct":"NL","tp":"CS","ts":"2025-02-13T21:36:12Z","tX":528,"tY":332,"tags":{"addr:city":"Earnewâld","addr:housenumber":"2","addr:postcode":"9264TK","addr:street":"Smidspaed","contact:email":"info@simmerwille.nl","contact:phone":"+31 511 539 390","contact:website":"https://www.simmerwille.nl","name":"Simmerwille"}},"186016567":{"location":[53.1370368,5.6454261],"ct":"NL","tp":"CS","ts":"2023-05-30T18:16:10Z","tX":528,"tY":332,"tags":{"addr:city":"Easterlittens","addr:housenumber":"10","addr:postcode":"8835XE","addr:street":"Skrinserdyk","contact:email":"info@it-kruswetter.nl","contact:phone":"+31 517 341 040","contact:website":"https://www.it-kruswetter.nl","name":"Camping It 'Kruswetter'"}},"532558834":{"location":[53.1950411,5.7381171],"ct":"NL","tp":"CS","ts":"2021-08-29T14:46:49Z","tX":528,"tY":332,"tags":{"caravans":"yes","internet_access":"yes","internet_access:fee":"no","name":"Minicamping Van Harinxma","website":"https://www.minicamping-van-harinxma.nl/"}},"550687325":{"location":[53.2607833,5.6688528],"ct":"NL","tp":"CS","ts":"2024-06-07T19:56:05Z","tX":528,"tY":332,"tags":{"email":"info@blikvaart.nl","name":"Mini-camping De Blikvaart","website":"https://blikvaart.nl/mini-camping-2/"}},"560165116":{"location":[53.1846946,5.8371493],"ct":"NL","tp":"CR","ts":"2025-01-25T15:54:59Z","tX":528,"tY":332,"tags":{"addr:city":"Leeuwarden","addr:housenumber":"3","addr:postcode":"8939CA","addr:street":"De Zwemmer","capacity":"18","caravan_site":"motorhome_stopover","caravan_site:type":"city;harbour","charge":"13.80 EUR","dog_park":"yes","email":"info@camperplaatsleeuwarden.nl","fee":"yes","internet_access":"wlan","internet_access:fee":"no","name":"Camperplaats Leeuwarden","phone":"+31 58 299 0065","power_supply":"yes","power_supply:charge":"3.50 EUR","power_supply:fee":"yes","sanitary_dump_station":"yes","water_point":"yes","website":"https://www.camperplaatsleeuwarden.nl","wheelchair":"yes"}},"560360915":{"location":[53.3092354,5.6304956],"ct":"NL","tp":"CR","ts":"2025-01-15T18:15:50Z","tX":528,"tY":332,"tags":{"capacity":"20","caravan_site":"motorhome_stopover","caravan_site:type":"restaurant","charge":"14.50 EUR","email":"info@dezwartehaan.nl","fee":"yes","internet_access":"no","name":"Camperpark Zwarte Haan","operator":"De Zwarte Haan","power_supply":"yes","sanitary_dump_station":"yes","sanitary_dump_station:chemical_toilet":"yes","sanitary_dump_station:grey_water":"yes","seasonal":"no","surface":"fine_gravel","water_point":"yes","website":"https://www.friesland.nl/nl/locaties/2997620012/camperpark-zwarte-haan"}},"591413567":{"location":[53.128967,5.934451],"ct":"NL","tp":"CR","ts":"2025-01-25T15:46:06Z","tX":528,"tY":332,"tags":{"access":"customers","capacity":"19","caravan_site":"motorhome_stopover","caravan_site:type":"harbour","dog":"yes","internet_access":"wlan","internet_access:fee":"no","laundry":"yes","name":"Camperplaats Westerdijk","opening_hours":"Apr 01 - Nov 01","phone":"+31 511539300","power_supply:fee":"no","power_supply:maxcurrent":"10","reservation":"no","sanitary_dump_station":"yes","toilets":"yes","website":"https://westerdijk.com/camperplaatsen"}},"688171108":{"location":[53.1716868,5.8409161],"ct":"NL","tp":"CS","ts":"2021-06-30T21:26:20Z","tX":528,"tY":332,"tags":{"capacity":"50","caravans":"yes","dog":"yes","email":"nelliedeboer@kpnmail.nl","fee":"yes","internet_access":"wlan","internet_access:fee":"no","name":"Camping Hiddema State","tents":"yes","website":"https://www.hiddemastate.nl/"}},"746692117":{"location":[53.1600249,5.8612846],"ct":"NL","tp":"CS","ts":"2022-08-17T08:11:52Z","tX":528,"tY":332,"tags":{"caravans":"yes","name":"Buorren1","start_date":"2019","tents":"yes","website":"https://campingbuorren1.nl/"}},"828542195":{"location":[53.2237535,5.8166636],"ct":"NL","tp":"CR","ts":"2025-01-25T16:04:03Z","tX":528,"tY":332,"tags":{"capacity":"15","caravan_site":"motorhome_stopover","caravan_site:type":"village","charge":"19 EUR","dog":"yes","dog:fee":"no","email":"info@camperplaatslekkum.nl","fee":"yes","internet_access":"yes","internet_access:fee":"no","laundry":"yes","motorhome":"designated","name":"Camperplaats Lekkum","opening_hours":"24/7","phone":"+31 6 45902357","phone:NL":"+31 6 45 90 23 57","power_supply":"yes","power_supply:fee":"no","power_supply:maxcurrent":"10","sanitary_dump_station":"customers","sanitary_dump_station:chemical_toilet":"yes","sanitary_dump_station:fee":"no","sanitary_dump_station:grey_water":"yes","seasonal":"no","shower":"yes","shower:fee":"no","toilets":"yes","toilets:fee":"no","water_point":"yes","water_point:fee":"no","website":"https://www.camperplaatslekkum.nl/"}},"879900557":{"location":[53.2886873,5.7652555],"ct":"NL","tp":"CS","ts":"2023-06-13T05:53:36Z","tX":528,"tY":332,"tags":{"cabins":"yes","caravans":"yes","email":"info@minicampingdeloane.nl","name":"Mini camping de Loane","phone":"+31 518 402 572","shower":"yes","tents":"yes","toilets":"yes","website":"http://minicampingdeloane.nl/"}},"907866591":{"location":[53.2194542,5.7923842],"ct":"NL","tp":"CS","ts":"2024-05-09T19:21:17Z","tX":528,"tY":332,"tags":{"addr:city":"Leeuwarden","addr:housenumber":"72","addr:postcode":"8919AH","addr:street":"Vierhuisterweg","cabins":"yes","caravans":"yes","dog":"yes","drinking_water":"yes","fee":"yes","hot_water":"yes","internet_access":"wlan","internet_access:fee":"customers","name":"Taniaburg","phone":"+31 6 10868919","power_supply":"yes","sanitary_dump_station":"customers","shower":"yes","tents":"yes","toilets":"yes","washing_machine":"yes","website":"https://www.camping-taniaburg.nl/"}},"927865168":{"location":[53.167113,5.8369534],"ct":"NL","tp":"CR","ts":"2025-01-25T15:50:39Z","tX":528,"tY":332,"tags":{"caravan_site":"motorhome_stopover","caravan_site:type":"restaurant","dog":"yes","drinking_water":"no","fee":"no","name":"Gasterij de Waldwei","power_supply":"no","toilets":"no"}},"927865181":{"location":[53.1529534,5.8264533],"ct":"NL","tp":"CS","ts":"2025-04-26T20:04:05Z","tX":528,"tY":332,"tags":{"addr:city":"Swichum","addr:housenumber":"10","addr:postcode":"9087CD","addr:street":"Ayttadyk","caravans":"yes","contact:email":"info@swichumerpleats.nl","contact:mobile":"+31 6 12812954;+31 6 23178293","contact:phone":"+31 58 250 2244","contact:website":"https://swichumerpleats.nl/","name":"Swichumer Pleats","tents":"yes"}},"943457327":{"location":[53.2319672,5.8194097],"ct":"NL","tp":"CR","ts":"2025-01-25T16:00:19Z","tX":528,"tY":332,"tags":{"capacity":"5","caravan_site":"motorhome_stopover","caravan_site:type":"river","charge":"14 EUR","check_out":"14:00","dog":"yes","dog:fee":"no","email":"info@jelsumaandeee.nl","fee":"yes","laundry":"yes","name":"Camperplaats Jelsum","phone":"+31 6 12662220","power_supply":"yes","power_supply:charge":"0.50 EUR/kWh","power_supply:fee":"yes","sanitary_dump_station":"yes","sanitary_dump_station:chemical_toilet":"yes","sanitary_dump_station:fee":"no","sanitary_dump_station:grey_water":"yes","website":"https://www.jelsumaandeee.nl/camperplaatsjelsum"}},"943460653":{"location":[53.2966299,5.8821972],"ct":"NL","tp":"CS","ts":"2023-05-30T12:17:41Z","tX":528,"tY":332,"tags":{"caravans":"yes","dog":"leashed","email":"tollenaarmolenmeel@ziggo.nl","internet_access":"yes","internet_access:fee":"no","name":"Mûnehiem","operator":"Jan- en Marjan Tollenaar","phone":"+31 519 332 342","tents":"yes","website":"https://campinghavenburdaard.nl"}},"998014507":{"location":[53.1296008,5.9360887],"ct":"NL","tp":"CR","ts":"2025-01-25T15:48:41Z","tX":528,"tY":332,"tags":{"capacity":"5","caravan_site":"motorhome_stopover","caravan_site:type":"harbour","charge":"12.10 EUR","email":"havenearnewald@t-diel.nl","fee":"yes","name":"Camperplaats jachthaven Earnewâld","phone":"+31 6 12142631","power_supply":"yes","sanitary_dump_station:chemical_toilet":"yes","toilets:wheelchair":"no","website":"https://www.havenearnewald.nl","wheelchair":"no"}},"1005645260":{"location":[53.1572775,5.7645995],"ct":"NL","tp":"CS","ts":"2024-06-24T08:32:09Z","tX":528,"tY":332,"tags":{"name":"Eco Boerencamping De Swetteblom","short_name":"De Swetteblom","website":"https://www.swetteblom.nl/"}},"1010990381":{"location":[53.1556166,5.8451581],"ct":"NL","tp":"CS","ts":"2021-12-10T19:12:39Z","tX":528,"tY":332,"tags":{"addr:city":"Wergea","addr:housenumber":"17","addr:postcode":"9005NA","addr:street":"Nieuwe Hoek","name":"It Hellingslân","note":"Chaletpark voor 50-plussers; geen permanente bewoning.","static_caravans":"only","website":"http://jachtwerfvdwerff.nl/index.php/it-hellingslan"}},"1060522069":{"location":[53.3070903,5.656379],"ct":"NL","tp":"CS","ts":"2024-08-02T19:07:13Z","tX":528,"tY":332,"tags":{"addr:city":"St.-Annaparochie","addr:housenumber":"289","addr:postcode":"9076PP","addr:street":"Nieuwebildtdijk","email":"noordster@noordster.nl","name":"De Noordster","phone":"+31 518 403 040","website":"http://www.noordster.nl"}},"1183728620":{"location":[53.2440549,5.7844808],"ct":"NL","tp":"CS","ts":"2024-05-05T19:49:25Z","tX":528,"tY":332,"tags":{"caravans":"yes","drinking_water":"yes","fee":"yes","internet_access":"no","name":"Natuurkampeerterrein Martenastate","power_supply":"yes","shower":"yes","static_caravans":"no","tents":"yes","toilets":"yes","website":"https://martenastate.nl/natuurkampeerterrein/"}},"1193094221":{"location":[53.2955112,5.9442847],"ct":"NL","tp":"CS","ts":"2023-07-29T10:00:02Z","tX":528,"tY":332,"tags":{"capacity:pitches":"25","caravans":"yes","email":"info@campingtjaerdastate.nl","mobile":"+31 6 83659803","motorhome":"yes","name":"Tjaerdastate","phone":"+31 511 424 145","short_description":"Camping Tjaerdastate is een prachtige camping gelegen in het hart van Friesland, vlakbij Elfstedenstad Dokkum. Met zijn rustige en groene omgeving de perfecte plek voor ontspannen vakantie.Er zijn 25","shower":"yes","tents":"yes","toilets":"yes","website":"https://campingtjaerdastate.nl/"}},"1193097559":{"location":[53.2291079,5.9110582],"ct":"NL","tp":"CS","ts":"2023-07-29T10:33:59Z","tX":528,"tY":332,"tags":{"caravans":"yes","email":"info@campingdeterpen.nl","mobile":"+31 6 52680350","name":"De Terpen","phone":"+31 511 431 331","shower":"yes","tents":"yes","toilets":"yes","website":"https://www.campingdeterpen.nl/"}},"1193118107":{"location":[53.1491292,5.8764215],"ct":"NL","tp":"CS","ts":"2023-07-29T12:17:13Z","tX":528,"tY":332,"tags":{"capacity:pitches":"25","caravans":"yes","email":"info@dewartenster.nl","mobile":"+31 6 21455832","motorhome":"yes","name":"De Wartenster","shower":"yes","tents":"yes","toilets":"yes","website":"https://www.dewartenster.nl/diensten/camping/"}},"1228961863":{"location":[53.2053018,5.7967629],"ct":"NL","tp":"CR","ts":"2024-12-25T16:21:40Z","tX":528,"tY":332,"tags":{"capacity":"2","caravans":"no","charge":"14.5 EUR","fee":"yes","maxstay":"3 days","name":"Camperplaats Prinsentuin","power_supply":"yes","sanitary_dump_station":"no","water_point":"no"}},"1277907404":{"location":[53.1379098,5.9369927],"ct":"NL","tp":"CS","ts":"2024-06-30T21:06:50Z","tX":528,"tY":332,"tags":{"name":"Natuurkampeerterrein De Reidplûm","website":"http://www.outdoorveldboom.nl/natuurkampeerterrein.html"}},"1279047076":{"location":[53.1266809,5.9410938],"ct":"NL","tp":"CS","ts":"2024-05-20T13:55:29Z","tX":528,"tY":332,"tags":{"name":"It Wiid"}},"1351836044":{"location":[53.3025735,5.7127022],"ct":"NL","tp":"CR","ts":"2025-04-22T22:11:51Z","tX":528,"tY":332,"tags":{"caravan_site":"motorhome_stopover","caravan_site:type":"farm","charge":"17.50 EUR","email":"info@hoevenoordveld.nl","fee":"yes","internet_access":"wlan","internet_access:fee":"no","name":"Camperplaats Hoeve Noordveld","phone":"+31 6 25253866","power_supply":"yes","power_supply:fee":"no","reservation":"yes","shower":"yes","shower:fee":"no","website":"https://www.hoevenoordveld.nl/accommodation/camperplaats/"}},"1354191799":{"location":[53.3172916,5.950467],"ct":"NL","tp":"CR","ts":"2025-04-15T14:28:22Z","tX":528,"tY":332,"tags":{"capacity":"12","caravan_site":"motorhome_stopover","caravan_site:type":"river","charge":"21 EUR","charge:conditional":"25 EUR @ (lenghth>8)","dog":"yes","dog:fee":"no","email":"info@aandeee.nl","fee":"yes","internet_access":"wlan","internet_access:fee":"no","laundry":"yes","name":"Camperplaats aan de Ee","phone":"+31 6 156 222 93","power_supply":"yes","power_supply:fee":"no","power_supply:maxcurrent":"10","reservation":"yes","reservation:description":"email or phone","seasonal":"yes","shower":"yes","shower:fee":"no","toilets":"yes","toilets:fee":"no","website":"https://www.aandeee.nl/"}},"1354200065":{"location":[53.1711839,5.9334339],"ct":"NL","tp":"CR","ts":"2025-01-25T15:37:20Z","tX":528,"tY":332,"tags":{"capacity":"15","caravan_site":"motorhome_stopover","caravan_site:type":"canal","caravans":"no","charge":"16 EUR","email":"recreatietrefpuntsuwald@gmail.com","fee":"yes","internet_access":"wlan","name":"Camperplaats & Jachthaven Suwâld","opening_hours":"24/7","operator":"Leedert vd Heide","phone":"+31 6 57624840","power_supply":"yes","power_supply:charge":"3 EUR","power_supply:fee":"yes","power_supply:maxcurrent":"16","sanitary_dump_station":"yes","tents":"no","website":"https://doarpsuwald.nl/camperplaats-jachthaven-suwald/"}},"2102912879":{"location":[53.2156878,5.8906351],"ct":"NL","tp":"CS","ts":"2025-01-25T15:55:41Z","tX":528,"tY":332,"tags":{"name":"De Kleine Wielen","website":"https://www.campingdekleinewielen.nl/"}},"5004268724":{"location":[53.2185358,5.6274153],"ct":"NL","tp":"CS","ts":"2022-07-16T07:11:39Z","tX":528,"tY":332,"tags":{"addr:city":"Slappeterp","addr:housenumber":"12A","addr:postcode":"9037JW","addr:street":"Kleasterdyk","contact:website":"https://www.minicampingslappeterp.nl","name":"Minicamping Slappeterp"}},"5592816854":{"location":[53.2830847,5.7231003],"ct":"NL","tp":"CS","ts":"2023-05-27T19:57:02Z","tX":528,"tY":332,"tags":{"name":"Boerencamping de Roos","website":"https://www.kamperen-bij-de-boer.com/boerencamping-de-roos.html"}},"9906237917":{"location":[53.3220864,5.9714308],"ct":"NL","tp":"CS","ts":"2022-11-04T11:22:03Z","tX":528,"tY":332,"tags":{"addr:full":"De Kegen 4, 9156AK Bornwird","email":"info@minicamping-aldsyl.nl","name":"Minicamping en Theetuin Aldsyl","phone":"+31 6 18405808","website":"https://www.minicamping-aldsyl.nl/"}},"11207165578":{"location":[53.162268,5.8662821],"ct":"NL","tp":"CS","ts":"2023-09-21T08:33:17Z","tX":528,"tY":332,"tags":{"caravans":"yes","disused:website":"http://www.gerkemazathe.nl/","facebook":"https://www.facebook.com/BoerderijcampingGerkemaZathe","name":"Gerkema Zathe","phone":"+31 58 255 1292","shower":"yes","tents":"yes","toilets":"yes"}},"4311156309":{"location":[53.1715139,5.9331322],"ct":"NL","tp":"CR","ts":"2022-06-06T06:42:27Z","tX":528,"tY":332,"tags":{"internet_access":"wlan","name":"Suawoude","opening_hours":"24/7","operator":"Leedert vd Heide","phone":"+31 6 57624840","power_supply":"yes","sanitary_dump_station":"yes"}},"9906234117":{"location":[53.3173989,5.9504995],"ct":"NL","tp":"CR","ts":"2022-07-23T16:54:06Z","tX":528,"tY":332,"tags":{"name":"Camperplaats aan de Ee"}},"11207637537":{"location":[53.1492541,5.7624315],"ct":"NL","tp":"CR","ts":"2025-01-25T13:48:55Z","tX":528,"tY":332,"tags":{"canoe":"yes","caravan_site":"motorhome_stopover","caravan_site:type":"restaurant","charge":"22.80 EUR","email":"welkom@weidumerhout.nl","motorhome":"designated","name":"WeidumerHout","opening_hours":"Jun-Sep","phone":"+31 58 251 9888","power_supply":"yes","power_supply:maxcurrent":"10","reservation":"yes","reservation:email":"reserveringen@weidumerhout.nl","sanitary_dump_station:grey_water":"yes","sauna":"yes","shower":"yes","toilets":"yes","water_point":"yes","water_point:fee":"no","website":"https://www.weidumerhout.nl/nl/camperplaatsen/"}},"5403959911":{"location":[53.3091038,5.6297582],"ct":"NL","tp":"SD","ts":"2018-02-10T17:29:10Z","tX":528,"tY":332,"tags":{"access":"customers","fee":"no","opening_hours":"24/7","sanitary_dump_station:basin":"yes","sanitary_dump_station:round_drain":"yes"}}}