{"16192729":{"location":[52.9353638,5.6918442],"ct":"NL","tp":"CS","ts":"2023-08-12T14:50:44Z","tX":528,"tY":333,"tags":{"caravans":"yes","email":"mail@dekoevoet.nl","name":"De Koevoet","opening_hours":"Apr 1 - Oct 31","phone":"+31 513 431 685","shower":"yes","tents":"yes","toilets":"yes","website":"https://www.dekoevoet.nl/camping-aan-het-water"}},"16336864":{"location":[52.9896208,5.6692779],"ct":"NL","tp":"CS","ts":"2023-09-16T08:03:42Z","tX":528,"tY":333,"tags":{"alt_name":"D'Uylenburgh","capacity:motorhome":"10","capacity:pitches":"18","caravans":"yes","motorhome":"yes","name":"De Uilenburg","opening_hours":"Apr 01 - Oct 31","phone":"+31 515 442 387","shower":"yes","tents":"yes","toilets":"yes","website":"https://www.deuilenburg.com/voorzieningen/kampeerplaatsen/"}},"16337588":{"location":[52.9396703,5.7521823],"ct":"NL","tp":"CS","ts":"2023-09-16T17:21:26Z","tX":528,"tY":333,"tags":{"caravans":"yes","email":"info@eysingastate.nl","name":"Landgoed Eysinga State","old_name":"Camping Blaauw","phone":"+31 513 431 361","shower":"yes","tents":"yes","toilets":"yes","website":"https://www.eysingastate.nl/standaard-kampeerplaatsen/"}},"26859295":{"location":[53.0308971,5.7257319],"ct":"NL","tp":"CS","ts":"2022-07-16T07:11:39Z","tX":528,"tY":333,"tags":{"addr:city":"Offingawier","addr:country":"NL","addr:postcode":"8626GD","addr:street":"Paviljoenwei","contact:website":"https://www.rcn.nl/nl/vakantieparken/nederland/friesland/rcn-de-potten","name":"RCN de Potten","toilets:wheelchair":"yes","wheelchair":"yes"}},"28319516":{"location":[52.935788,5.9591319],"ct":"NL","tp":"CS","ts":"2023-05-31T14:52:18Z","tX":528,"tY":333,"tags":{"addr:city":"Oudeschoot","addr:housenumber":"15","addr:postcode":"8451KE","addr:street":"van Bienemalaan","contact:email":"info@woutersbergje.nl","contact:phone":"+31 513 681 192","contact:website":"http://www.woutersbergje.nl","name":"'t Woutersbergje"}},"35981191":{"location":[52.9471267,5.6265092],"ct":"NL","tp":"CR","ts":"2022-10-23T18:58:45Z","tX":528,"tY":333,"tags":{"fee":"yes","name":"De Rakken","power_supply":"yes","sanitary_dump_station":"yes","url":"http://www.derakken.nl"}},"78053378":{"location":[53.0967326,5.6884834],"ct":"NL","tp":"CS","ts":"2023-09-21T12:13:27Z","tX":528,"tY":333,"tags":{"cabins":"yes","capacity:pitches":"15","caravans":"yes","email":"info@nijwybranda.nl","name":"Nij Wybranda","phone":"+31 515 521 344","shower":"yes","tents":"yes","toilets":"yes","website":"http://www.nijwybranda.nl/camping/"}},"78054716":{"location":[53.0776601,5.7432375],"ct":"NL","tp":"CR","ts":"2023-08-22T19:47:24Z","tX":528,"tY":333,"tags":{"capacity:motorhome":"6","caravans":"no","email":"info@wsblegegeaen.nl","fee":"yes","internet_access":"wlan","mobile":"+31 6 22373833;+31 6 23326894","motorhome":"designated","name":"Lege Geaen","opening_hours":"May 1 - Oct 1","phone":"+31 515 521 304","power_supply":"yes","reservation":"recommended","shower":"yes","toilets":"yes","website":"https://www.wettersportbedriuwlegegeaen.nl/"}},"80446032":{"location":[53.0753942,5.8676798],"ct":"NL","tp":"CS","ts":"2014-12-21T11:33:43Z","tX":528,"tY":333,"tags":{"addr:city":"Nes","addr:housenumber":"7","addr:postcode":"8494NA","addr:street":"Soarremoarre","name":"Minicamping Wartena (te Nes)","source":"3dShapes"}},"81296180":{"location":[53.103136,5.9472468],"ct":"NL","tp":"CS","ts":"2024-09-17T17:52:32Z","tX":528,"tY":333,"tags":{"landcover":"grassland","source":"3dShapes"}},"81296442":{"location":[53.0877971,5.9710892],"ct":"NL","tp":"CS","ts":"2024-09-18T15:18:08Z","tX":528,"tY":333,"tags":{"addr:city":"De Veenhoop","addr:housenumber":"16","addr:postcode":"9215VT","addr:street":"Kanaeldyk","contact:email":"info@campingstoker.nl","contact:phone":"+31 512 461 765","contact:website":"https://www.campingstoker.nl","name":"Camping Stoker","source":"3dShapes"}},"81296470":{"location":[53.0962852,5.9480702],"ct":"NL","tp":"CS","ts":"2024-09-06T17:57:11Z","tX":528,"tY":333,"tags":{"fee":"yes","name":"Camping de Veenhoop","source":"Local"}},"83849475":{"location":[52.9948521,5.7172583],"ct":"NL","tp":"CS","ts":"2023-11-07T14:25:18Z","tX":528,"tY":333,"tags":{"addr:city":"Boornzwaag","addr:housenumber":"10","addr:postcode":"8526DS","addr:street":"Horsewei","capacity:motorhome":"3","caravans":"yes","email":"team@detijnjehoeve.nl","motorhome":"yes","name":"De Tijnjehoeve","phone":"+31 515 559 814","shower":"yes","tents":"yes","toilets":"yes","website":"https://www.detijnjehoeve.nl/minicamping"}},"84050969":{"location":[52.9587535,5.7266567],"ct":"NL","tp":"CS","ts":"2023-05-30T18:16:08Z","tX":528,"tY":333,"tags":{"addr:city":"Langweer","addr:housenumber":"26","addr:postcode":"8525GM","addr:street":"Hendrik Dijkstraleane","contact:email":"info@minicamping-friesland.nl","contact:phone":"+31 513 499 149","contact:website":"https://www.minicamping-friesland.nl","name":"Minicamping Friesland","opening_hours":"Apr 01-Sep 30","source":"BAG","source:date":"2014-07-03","website":"https://www.minicamping-friesland.nl"}},"84215908":{"location":[52.9367518,5.7497344],"ct":"NL","tp":"CS","ts":"2023-09-16T17:21:26Z","tX":528,"tY":333,"tags":{"capacity:pitches":"30","caravans":"yes","email":"info@eysingastate.nl","landcover":"grass","motorhome":"yes","name":"Landgoed Eysinga State","note":"Natuurkampeerplaats","old_name":"Camping Blaauw","phone":"+31 513 431 361","shower":"yes","tents":"yes","toilets":"yes","website":"https://www.eysingastate.nl/natuurkampeerplaatsen/"}},"84216682":{"location":[52.9300382,5.7096007],"ct":"NL","tp":"CS","ts":"2023-08-12T16:39:49Z","tX":528,"tY":333,"tags":{"caravans":"yes","email":"info@rp-idskenhuizen.nl","landcover":"grass","name":"Idskenhuizen","opening_hours":"Apr 15 - Oct 15","phone":"+31 513 431 846","shower":"yes","tents":"yes","toilets":"yes","website":"https://www.rp-idskenhuizen.nl/kamperen/"}},"86550126":{"location":[52.9846771,5.7875452],"ct":"NL","tp":"CS","ts":"2023-05-30T12:17:26Z","tX":528,"tY":333,"tags":{"addr:city":"Snikzwaag","addr:housenumber":"19","addr:postcode":"8505AA","addr:street":"Leeuwarderweg","contact:email":"info@zwagemer.nl","contact:phone":"+31 513 416 729","contact:website":"http://minicampingde.zwagemer.nl/","name":"Minicamping de Zwagemer"}},"86713342":{"location":[53.0476085,5.9265631],"ct":"NL","tp":"CS","ts":"2023-05-30T18:16:09Z","tX":528,"tY":333,"tags":{"addr:city":"Aldeboarn","addr:housenumber":"6","addr:postcode":"8495NB","addr:street":"Easterboarn","contact:email":"info@boarnshiem.nl","contact:phone":"+31 6 21293166","contact:website":"https://www.boarnshiem.nl","name":"Boarnshiem"}},"89120198":{"location":[52.9173049,5.8142232],"ct":"NL","tp":"CS","ts":"2023-06-13T05:53:35Z","tX":528,"tY":333,"tags":{"brand":"SVR","cabins":"yes","capacity:cabins":"4","caravans":"yes","contact:email":"info@eddyeefting.nl","contact:phone":"+31 513 551 231","contact:website":"https://www.eddyeefting.nl/","internet_access":"wlan","internet_access:fee":"no","mobile":"+31 6 55707243","name":"Eefting","operator":"Eddy en Ineke Eefting","shower":"yes","tents":"yes","toilets":"yes"}},"89122700":{"location":[52.9301875,5.8062649],"ct":"NL","tp":"CS","ts":"2023-09-16T18:05:09Z","tX":528,"tY":333,"tags":{"caravans":"yes","email":"info@jantinahoeve.nl","name":"Jantina Hoeve","phone":"+31 513 551 122","shower":"yes","tents":"yes","toilets":"yes","website":"https://www.jantinahoeve.nl"}},"131450329":{"location":[52.994018,5.7517774],"ct":"NL","tp":"CS","ts":"2023-08-19T18:11:40Z","tX":528,"tY":333,"tags":{"addr:city":"Broek","addr:housenumber":"8","addr:postcode":"8512AA","addr:street":"Bloksleat","email":"info@rufus.nl","fax":"+31 513 417 840","name":"Rufus","phone":"+31 513 412 594","website":"https://www.rufus.nl/"}},"224327220":{"location":[52.9478506,5.6270812],"ct":"NL","tp":"CR","ts":"2022-10-23T18:58:45Z","tX":528,"tY":333,"tags":{"campers":"yes","fee":"yes","landuse":"grass","power_supply":"yes","sanitary_dump_station":"yes","source":"3dShapes","website":"https://www.derakken.nl"}},"301425854":{"location":[53.0652167,5.8502539],"ct":"NL","tp":"CS","ts":"2023-11-01T11:18:49Z","tX":528,"tY":333,"tags":{"name":"Camping Marsicht"}},"306423951":{"location":[53.0905978,5.9042527],"ct":"NL","tp":"CS","ts":"2024-05-01T18:52:01Z","tX":528,"tY":333,"tags":{"addr:city":"Goëngahuizen","addr:housenumber":"5","addr:postcode":"8497NJ","addr:street":"Kobbewei","cabins":"yes","caravans":"yes","email":"info@campingitlegemidden.nl","mobile":"+31 6 13564291","name":"It Lege Midden","phone":"+31 566 631 201","shower":"yes","tents":"yes","toilets":"yes","url":"http://www.campingitlegemidden.nl/kamperen-in-friesland/","wheelchair":"limited"}},"398384544":{"location":[53.0314494,5.7903963],"ct":"NL","tp":"CS","ts":"2024-08-29T20:30:02Z","tX":528,"tY":333,"tags":{"addr:city":"Terherne","addr:housenumber":"48","addr:postcode":"8493MA","addr:street":"Utbuorren","caravans":"yes","drinking_water":"yes","name":"Kampeerboerderij Hettinga","phone":"+31 566 689 239","power_supply":"yes","shower":"yes","tents":"yes","toilets":"yes","website":"https://www.kampeerboerderijhettinga.nl"}},"462130828":{"location":[53.0831088,5.8846422],"ct":"NL","tp":"CS","ts":"2024-02-04T16:30:15Z","tX":528,"tY":333,"tags":{"addr:city":"Goëngahuizen","addr:housenumber":"10","addr:postcode":"8497NL","addr:street":"Peansterdyk","contact:email":"info@depolle.nl","contact:phone":"+31 566 631 319","contact:website":"https://www.depolle.nl","name":"Minicamping De Polle","toilets:wheelchair":"no","wheelchair":"no"}},"475161102":{"location":[52.9924108,5.8652927],"ct":"NL","tp":"CS","ts":"2023-05-30T18:16:19Z","tX":528,"tY":333,"tags":{"addr:city":"Vegelinsoord","addr:housenumber":"1","addr:postcode":"8467SH","addr:street":"Ontginning","contact:email":"eddyadema@hetnet.nl","contact:phone":"+31 513 671 262","contact:website":"https://lytsmarsmuk.jouwweb.nl","name":"Camping Lyts mar Smûk"}},"475161113":{"location":[52.9514684,5.8715108],"ct":"NL","tp":"CS","ts":"2023-05-30T18:16:19Z","tX":528,"tY":333,"tags":{"addr:city":"Oudehaske","addr:housenumber":"32","addr:postcode":"8465NN","addr:street":"Badweg","contact:email":"info@nannewiid.nl","contact:phone":"+31 513 677 226","contact:website":"https://www.nannewiid.nl","name":"Camping Nannewiid"}},"497512847":{"location":[53.0752933,5.632806],"ct":"NL","tp":"CS","ts":"2023-05-30T12:17:38Z","tX":528,"tY":333,"tags":{"addr:city":"Reahûs","addr:housenumber":"6","addr:postcode":"8736JB","addr:street":"Sânleansterdyk","capacity":"50","contact:email":"info@campingdefinne.nl","contact:mobile":"+31 6 10954997;+31 6 51783045","contact:phone":"+31 515 331 219","contact:website":"https://www.campingdefinne.nl/","name":"Camping de Finne","website":"https://www.campingdefinne.nl/"}},"703165447":{"location":[53.107376,5.7398822],"ct":"NL","tp":"CS","ts":"2019-07-10T17:37:12Z","tX":528,"tY":333,"tags":{"addr:city":"Easterwierrum","addr:housenumber":"3","addr:postcode":"9021BH","addr:street":"De Dille","caravans":"yes","contact:phone":"+31 6 30057451","contact:website":"https://www.dedille.nl/","name":"Minicamping de Dille","operator":"André en Tjitske Bootsma","tents":"yes"}},"929405792":{"location":[53.033656,5.7901396],"ct":"NL","tp":"CS","ts":"2023-08-19T11:08:50Z","tX":528,"tY":333,"tags":{"addr:city":"Terherne","addr:housenumber":"46","addr:postcode":"8493MA","addr:street":"Utbuorren","capacity:pitches":"25","caravans":"yes","name":"Us Wetterpleats","phone":"+31 6 21958430","shower":"yes","tents":"yes","toilets":"yes","website":"https://www.uswetterpleats.nl/"}},"989362638":{"location":[53.0748849,5.7461194],"ct":"NL","tp":"CS","ts":"2023-08-19T12:55:08Z","tX":528,"tY":333,"tags":{"caravans":"yes","email":"familiereiding@gmail.com","name":"Tersoal","phone":"+31 515 521 589","shower":"yes","tents":"yes","toilets":"yes","website":"https://www.camping-tersoal.nl/"}},"992258031":{"location":[53.0480549,5.6803815],"ct":"NL","tp":"CS","ts":"2023-08-14T06:46:14Z","tX":528,"tY":333,"tags":{"caravans":"yes","motorhome":"yes","name":"Pasveer","phone":"+31 515 413 977","shower":"yes","tents":"yes","toilets":"yes","website":"https://www.campingpasveer.nl"}},"1011215778":{"location":[53.0395786,5.7694192],"ct":"NL","tp":"CS","ts":"2022-07-16T07:11:39Z","tX":528,"tY":333,"tags":{"contact:website":"https://www.strandcamping.nl","name":"Strandcamping Terherne"}},"1024047080":{"location":[53.0050159,5.9594721],"ct":"NL","tp":"CS","ts":"2023-05-30T12:17:42Z","tX":528,"tY":333,"tags":{"addr:city":"Gersloot","addr:housenumber":"415","addr:postcode":"8457CB","addr:street":"Aengwirderweg","contact:email":"camping@vasthihoeve.nl","contact:phone":"+31 513 529 479","contact:website":"https://www.vasthihoeve.nl/kampeerplaatsen/","name":"minicamping de Vashti-hoeve"}},"1027941135":{"location":[53.0357603,5.6785963],"ct":"NL","tp":"CS","ts":"2023-05-30T12:17:41Z","tX":528,"tY":333,"tags":{"addr:city":"Sneek","addr:housenumber":"4","addr:postcode":"8605CP","addr:street":"Jachthaven de Domp","email":"camping@dedomp.nl","name":"Camping de Domp","phone":"+31 515 755 640","tents":"yes","website":"https://dedomp.nl/nl/camping"}},"1081686734":{"location":[53.0126632,5.6269718],"ct":"NL","tp":"CR","ts":"2022-07-27T07:55:00Z","tX":528,"tY":333,"tags":{"capacity:caravans":"4","internet_access":"no","name":"Camperplaats IJlst","power_supply":"yes","sanitary_dump_station":"no","shower":"yes","toilets":"yes","website":"https://www.friesland.nl/nl/locaties/268153680/camperplaats-ijlst"}},"1163029591":{"location":[53.1011467,5.8468637],"ct":"NL","tp":"CR","ts":"2024-10-08T09:12:13Z","tX":528,"tY":333,"tags":{"addr:city":"Grou","addr:housenumber":"1","addr:postcode":"9001ZR","addr:street":"Yn 'e Lijte","cabins":"yes","campers":"yes","caravans":"yes","email":"info@ynelijte.nl","fee":"yes","motorhome":"yes","name":"Waterpark Yn'e Lijte","name:fy":"Grou","name:nl":"Waterpark Yn'e Lijte","phone":"+31 566 621 487","power_supply":"yes","tents":"yes","toilets":"yes","toilets:wheelchair":"no","website":"https://www.ynelijte.nl","wheelchair":"no"}},"1197432752":{"location":[52.9401606,5.6946584],"ct":"NL","tp":"CS","ts":"2023-08-12T14:36:05Z","tX":528,"tY":333,"tags":{"caravans":"yes","email":"info@campingleenstra.nl","name":"Leenstra","phone":"+31 513 431 501","shower":"yes","tents":"yes","toilets":"yes","website":"https://www.campingleenstra.nl/"}},"1197883853":{"location":[53.0064873,5.6644371],"ct":"NL","tp":"CS","ts":"2023-08-14T07:21:16Z","tX":528,"tY":333,"tags":{"capacity:pitches":"25","caravans":"yes","motorhome":"yes","name":"Synneveer","opening_hours":"Apr 1 - Oct 1","shower":"yes","tents":"yes","toilets":"yes","website":"https://www.campingsynneveer.nl/"}},"1199761627":{"location":[53.035428,5.7868956],"ct":"NL","tp":"CR","ts":"2023-08-19T11:08:50Z","tX":528,"tY":333,"tags":{"landcover":"grass","name":"Kalsbeek","permanent_camping":"only"}},"1199776488":{"location":[52.914492,5.9227374],"ct":"NL","tp":"CS","ts":"2023-08-19T12:35:24Z","tX":528,"tY":333,"tags":{"cabins":"yes","caravans":"yes","name":"It Peareltsje","phone":"+31 6 43497876","shower":"yes","tents":"yes","toilets":"yes","website":"https://www.minicampingitpeareltsje.nl/"}},"1209684969":{"location":[53.0533667,5.635155],"ct":"NL","tp":"CS","ts":"2023-09-21T08:57:14Z","tX":528,"tY":333,"tags":{"capacity:pitches":"15","caravans":"yes","email":"info@thaborhoeve.nl","name":"Thaborhoeve","phone":"+31 6 12810805","shower":"yes","tents":"yes","toilets":"yes","website":"https://www.thaborhoeve.nl/camping/"}},"1209708096":{"location":[53.0894454,5.721928],"ct":"NL","tp":"CS","ts":"2023-09-21T10:34:28Z","tX":528,"tY":333,"tags":{"caravans":"yes","email":"info@hierishetmooi.nl","motorhome":"yes","name":"De Wynmole","phone":"+31 6 41556875","shower":"yes","tents":"yes","toilets":"yes","website":"https://hierishetmooi.nl/minicamping/"}},"1263095175":{"location":[52.939533,5.8125877],"ct":"NL","tp":"CR","ts":"2024-03-15T23:33:20Z","tX":528,"tY":333,"tags":{"contact:email":"info@novmuseum.nl","contact:phone":"+31 513 795 068","contact:website":"https://www.novmuseum.nl","name":"Camperplaats Nationaal Openbaar Vervoermuseum"}},"1281164604":{"location":[53.1066796,5.9626897],"ct":"NL","tp":"CS","ts":"2024-05-09T13:15:50Z","tX":528,"tY":333,"tags":{"name":"Brêgeham","website":"https://bregeham-natuurrecreatie.nl/"}},"1314004480":{"location":[53.0121012,5.6250028],"ct":"NL","tp":"CS","ts":"2024-07-06T10:11:09Z","tX":528,"tY":333,"tags":{"name":"Koekoek en de waard","note:name":"Afwijkende spelling (geen hoofdletter op 'waard') is zoals gehanteerd door eigenaar.","website":"https://koekoekendewaard.nl/"}},"1319810726":{"location":[53.0423711,5.7699095],"ct":"NL","tp":"CR","ts":"2024-10-01T07:14:01Z","tX":528,"tY":333,"tags":{"name":"Terhernstersyl Camperplaatsen","url":"https://www.terhernstersyl.nl/"}},"1494132890":{"location":[53.0462574,5.7839537],"ct":"NL","tp":"CS","ts":"2023-05-27T19:56:38Z","tX":528,"tY":333,"tags":{"addr:city":"Terherne","addr:housenumber":"1","addr:postcode":"8493LP","addr:street":"Terhernsterdyk","email":"info@de-koaipleats.nl","fax":"+31 566 689 687","name":"Camping De Koaipleats","phone":"+31 566 689 218","website":"https://www.de-koaipleats.nl","wheelchair":"yes"}},"1530803509":{"location":[53.0493052,5.8260996],"ct":"NL","tp":"CR","ts":"2021-02-17T18:10:39Z","tX":528,"tY":333,"tags":{"fee":"yes","internet_access":"wlan","name":"Camping Drijfveer","power_supply":"yes","sanitary_dump_station":"yes","website":"https://www.drijfveer.nl/"}},"2263021895":{"location":[53.0084618,5.6272696],"ct":"NL","tp":"CR","ts":"2024-03-21T14:11:43Z","tX":528,"tY":333,"tags":{"cabins":"no","campers":"yes","capacity":"2","caravans":"no","fee":"yes","maxstay":"72 hours","power_supply":"yes","tents":"no"}},"2973122494":{"location":[53.0126996,5.7852975],"ct":"NL","tp":"CS","ts":"2022-11-04T11:22:08Z","tX":528,"tY":333,"tags":{"addr:city":"Terkaple","addr:housenumber":"12","addr:postcode":"8542AJ","addr:street":"Skûtmakkerspôle","contact:email":"yachtcharter@maran.nl","contact:phone":"+31 566 689 305","contact:website":"https://www.maran.nl/accommodaties/camping-maran","name":"Maran Camping"}},"3931226836":{"location":[53.0494447,5.8268997],"ct":"NL","tp":"CS","ts":"2021-02-17T18:10:39Z","tX":528,"tY":333,"tags":{"fee":"yes","internet_access":"wlan","name":"Camping Drijfveer","power_supply":"yes","sanitary_dump_station":"yes","website":"https://www.drijfveer.nl/"}},"5019737856":{"location":[53.0871572,5.7906236],"ct":"NL","tp":"CS","ts":"2019-06-17T08:31:24Z","tX":528,"tY":333,"tags":{"name":"Natuurkampeerterrein In de Boomgaard","website":"https://www.natuurkampeerterreinen.nl/terreinen/friesland/in-de-boomgaard/"}},"11482899269":{"location":[53.071614,5.9696756],"ct":"NL","tp":"CR","ts":"2024-01-04T14:29:25Z","tX":528,"tY":333,"tags":{"designation":"campers"}}}