{"89297444":{"location":[52.9084228,5.9174562],"ct":"NL","tp":"CS","ts":"2023-05-31T14:52:18Z","tX":528,"tY":334,"tags":{"addr:city":"Rotstergaast","addr:housenumber":"2","addr:postcode":"8462TD","addr:street":"Schoterweg","capacity":"15","caravans":"yes","email":"info@gebrdevries.nl","internet_access":"yes","internet_access:fee":"no","name":"De frije Fries","operator":"C. de Vries","phone":"+31 513 636 178","power_supply":"yes","surface":"grass","tents":"yes","website":"https://www.defrijefries.nl"}},"89587979":{"location":[52.8765592,5.7774667],"ct":"NL","tp":"CR","ts":"2025-01-24T16:06:58Z","tX":528,"tY":334,"tags":{"addr:city":"Oosterzee","addr:housenumber":"26","addr:street":"Zuivelweg","capacity":"12","caravan_site":"motorhome_stopover","caravan_site:type":"harbour","fee":"yes","internet_access":"wlan","internet_access:fee":"no","name":"Trekkersveld Oosterzee","operator":"Plaatselijk Belang Oosterzee","payment:cards":"yes","payment:cash":"yes","payment:contactless":"yes","power_supply":"yes","surface":"grass","website":"https://www.oosterzee.com/toerisme.html","wheelchair":"limited"}},"89592065":{"location":[52.877397,5.8513828],"ct":"NL","tp":"CS","ts":"2023-05-30T12:17:26Z","tX":528,"tY":334,"tags":{"contact:email":"info@kampari.nl","contact:phone":"+31 84 745 8477","contact:website":"https://www.kampari.nl/","name":"Kampari"}},"89592633":{"location":[52.8619015,5.8519001],"ct":"NL","tp":"CS","ts":"2022-09-06T15:35:33Z","tX":528,"tY":334,"tags":{"addr:city":"Langelille","addr:housenumber":"20","addr:postcode":"8484KK","addr:street":"Lemsterweg","name":"Waterpark Langelille","operator":"Roompot"}},"90174898":{"location":[52.733474,5.9518194],"ct":"NL","tp":"CS","ts":"2023-05-30T21:25:44Z","tX":528,"tY":334,"tags":{"brand":"SVR","capacity:pitches":"15","caravans":"yes","contact:email":"camping@rabbinge.nl","contact:mobile":"+31 6 17107398","contact:website":"https://www.rabbinge.nl","internet_access":"yes","landcover":"grass","name":"Veldhuis","operator":"familie J.L.H. Rabbinge","shower":"yes","tents":"yes","toilets":"yes"}},"90218781":{"location":[52.8047102,5.9082397],"ct":"NL","tp":"CS","ts":"2023-05-30T21:25:39Z","tX":528,"tY":334,"tags":{"addr:city":"Ossenzijl","addr:housenumber":"20","addr:postcode":"8376HW","addr:street":"Lageweg","caravans":"yes","contact:phone":"+31 6 23303496","contact:website":"https://www.destilleverkwikking.nl/destilleverkwikking.nl","name":"De Stille Verkwikking","operator":"Fam. Weemstra","tents":"yes"}},"90265757":{"location":[52.7829068,5.8438254],"ct":"NL","tp":"CS","ts":"2025-01-20T17:36:09Z","tX":528,"tY":334,"tags":{"cabins":"yes","caravans":"no","name":"KomGenieten","old_name":"Craneburcht","permanent_camping":"only","phone":"+31 6 49522273","static_caravans":"only","tents":"no","website":"https://komgenieten.nl/camping/"}},"90339401":{"location":[52.7876641,5.7731138],"ct":"NL","tp":"CS","ts":"2024-09-26T12:20:26Z","tX":528,"tY":334,"tags":{"caravans":"yes","contact:phone":"+31 527 261 899","contact:website":"https://www.vakantieparkeigenwijze.nl/kampeerplaatsen/nederland-flevoland-toeristische-kampeerplaats-gezinsveld","contact:whatsapp":"+31 6 28477418","email":"info@vakantieparkeigenwijze.nl","landuse":"grass","name":"Eigen Wijze","shower":"yes","tents":"yes","toilets":"yes"}},"90423389":{"location":[52.7650369,5.7480501],"ct":"NL","tp":"CS","ts":"2023-01-10T17:36:50Z","tX":528,"tY":334,"tags":{"addr:city":"Bant","addr:housenumber":"17","addr:postcode":"8314PA","addr:street":"Banterweg","name":"MTB Camping Fiederels","website":"https://www.campingfiederels.nl/"}},"345796717":{"location":[52.7399139,5.7783804],"ct":"NL","tp":"PK","ts":"2020-10-27T19:09:00Z","tX":528,"tY":334,"tags":{"motorcar":"no","motorhome":"yes"}},"367976838":{"location":[52.7293385,5.9689435],"ct":"NL","tp":"CS","ts":"2024-02-28T21:15:49Z","tX":528,"tY":334,"tags":{"name":"Tussen de Diepen","tents":"yes","website":"https://www.tussendediepen.nl"}},"413932276":{"location":[52.893288,5.6448517],"ct":"NL","tp":"CS","ts":"2016-08-13T19:47:33Z","tX":528,"tY":334,"tags":{"name":"Jachthaven 'De Lemsterpoort'"}},"446815303":{"location":[52.8967451,5.7026774],"ct":"NL","tp":"CR","ts":"2025-01-24T16:12:52Z","tX":528,"tY":334,"tags":{"capacity":"9","caravan_site":"motorhome_stopover","caravan_site:type":"harbour","caravans":"yes","charge":"18 EUR","email":"info@delytsebrekken.nl","fee":"yes","name":"De Lytse Brekken","phone":"+31 6 18908359","seasonal":"yes","shower":"yes","surface":"gravel","tents":"yes","toilets":"yes","website":"https://www.delytsebrekken.nl/","wheelchair":"limited"}},"466201342":{"location":[52.8623903,5.8539815],"ct":"NL","tp":"CR","ts":"2025-01-24T15:56:42Z","tX":528,"tY":334,"tags":{"addr:city":"Langelille","addr:housenumber":"20","addr:postcode":"8484KK","addr:street":"Lemsterweg","caravan_site":"motorhome_stopover","caravan_site:type":"harbour","fee":"yes","name":"De Driesprong Yachtcenter Mini-camping","phone":"+31 561 481473","power_supply":"yes","shower":"yes","toilets":"yes","water_point":"yes","website":"https://www.driesprong.net/"}},"471837038":{"location":[52.8695329,5.6507542],"ct":"NL","tp":"CS","ts":"2022-07-16T07:43:00Z","tX":528,"tY":334,"tags":{"addr:city":"Lemmer","addr:housenumber":"1a","addr:postcode":"8531PV","addr:street":"Kooiweg","capacity":"15","contact:website":"https://delangesloot.nl","fee":"yes","name":"de Langesloot"}},"510825910":{"location":[52.9001681,5.6398689],"ct":"NL","tp":"CR","ts":"2023-01-18T17:57:46Z","tX":528,"tY":334,"tags":{"dog":"yes","fee":"yes","internet_access":"wlan","name":"Camping de Jerden","operator":"Familie Seinstra","power_supply":"yes","sanitary_dump_station":"yes","tents":"yes","website":"https://recreatieparkdejerden.nl/"}},"717527966":{"location":[52.8440553,5.7278318],"ct":"NL","tp":"CS","ts":"2022-07-16T07:43:00Z","tX":528,"tY":334,"tags":{"contact:website":"https://camping-lemsterhop.nl","name":"'t Lemsterhop"}},"803074423":{"location":[52.8360864,5.9352995],"ct":"NL","tp":"CR","ts":"2025-01-24T15:51:43Z","tX":528,"tY":334,"tags":{"capacity":"5","caravan_site":"motorhome_stopover","caravan_site:type":"harbour","charge":"10 EUR","fee":"yes","name":"Driewegsluis","power_supply":"yes","power_supply:charge":"1 EUR/kWh","power_supply:fee":"yes","reservation":"no","sanitary_dump_station":"yes","sanitary_dump_station:fee":"no","shower":"yes","toilets":"yes","water_point":"yes","website":"https://www.weststellingwerf.nl/driewegsluis"}},"834236306":{"location":[52.7760802,5.9574776],"ct":"NL","tp":"CS","ts":"2023-05-30T12:24:08Z","tX":528,"tY":334,"tags":{"addr:city":"Kalenberg","addr:housenumber":"1","addr:postcode":"8377HE","addr:street":"Kalenberg Zuid","caravans":"yes","contact:email":"info@hetdoevehuis.nl","contact:phone":"+31 561 477 394;+31 6 11640343","contact:website":"https://www.hetdoevehuis.nl/mini-camping/","name":"Minicamping Het Doevehuis","operator":"Jurjen en Jacoline Rienmeyer","tents":"yes"}},"890744840":{"location":[52.8249921,5.8731816],"ct":"NL","tp":"CS","ts":"2023-08-19T10:54:43Z","tX":528,"tY":334,"tags":{"cabins":"yes","caravans":"yes","email":"info@campingpietersfarm.nl","name":"Pieter's Farm","phone":"+31 6 38005544","shower":"grass","tents":"yes","toilets":"yes"}},"893130834":{"location":[52.8170981,5.8181796],"ct":"NL","tp":"CS","ts":"2023-10-26T10:08:52Z","tX":528,"tY":334,"tags":{"name":"Camping 't Sluisje"}},"893130835":{"location":[52.8178834,5.8187954],"ct":"NL","tp":"CS","ts":"2021-01-07T18:55:14Z","tX":528,"tY":334,"tags":{}},"893352159":{"location":[52.8108395,5.8059965],"ct":"NL","tp":"CS","ts":"2024-08-28T11:55:34Z","tX":528,"tY":334,"tags":{"cabins":"yes","capacity:pitches":"20","caravans":"yes","email":"kamperen@schotererf.nl","name":"Schotererf","opening_hours":"Apr 01-Sep 30","phone":"+31 527 231 526","shower":"yes","start_date":"2008-08-16","tents":"yes","toilets":"yes","website":"https://schotererf.nl"}},"904192173":{"location":[52.846944,5.6965762],"ct":"NL","tp":"CR","ts":"2025-01-15T16:55:42Z","tX":528,"tY":334,"tags":{"capacity":"30","caravan_site":"motorhome_stopover","caravan_site:type":"harbour","charge":"18 EUR+tax","dog":"yes","dog:fee":"no","email":"info@lemmerbinnen.nl","fee":"yes","name":"Jachthaven Lemmer-binnen","picnic_table":"yes","power_supply":"yes","power_supply:fee":"yes","reservation":"yes","restaurant":"yes","sanitary_dump_station":"yes","shower":"yes","toilets":"yes","website":"https://lemmerbinnen.nl/campers/"}},"906848671":{"location":[52.8762332,5.7776123],"ct":"NL","tp":"CR","ts":"2023-05-30T18:16:21Z","tX":528,"tY":334,"tags":{"dog":"yes","fee":"yes","internet_access":"wlan","name":"Camping Oosterzee","power_supply":"yes","website":"https://www.oosterzee.com/toerisme.html"}},"923094920":{"location":[52.8155038,5.954016],"ct":"NL","tp":"CS","ts":"2023-06-13T05:57:04Z","tX":528,"tY":334,"tags":{"brand":"SVR","caravans":"yes","contact:email":"info@slamme.nl","contact:mobile":"+31 6 18276618","contact:phone":"+31 561 451 537","contact:website":"https://slamme.nl/","name":"De Slamme","shower":"yes","tents":"yes","toilets":"yes","website":"https://slamme.nl/"}},"935459792":{"location":[52.7144616,5.972897],"ct":"NL","tp":"CS","ts":"2021-04-26T15:17:16Z","tX":528,"tY":334,"tags":{"name":"Minicamping de Duin"}},"980073347":{"location":[52.8445092,5.824205],"ct":"NL","tp":"CS","ts":"2023-07-17T17:59:01Z","tX":528,"tY":334,"tags":{"cabins":"yes","capacity:cabins":"4","capacity:pitches":"15","caravans":"yes","email":"hetzwerversnest@gmail.com","motorhome":"yes","name":"Het Zwerversnest","phone":"+31 6 14130818","shower":"yes","tents":"yes","toilets":"yes","website":"https://www.hetzwerversnest.nl"}},"999847174":{"location":[52.8717557,5.8268052],"ct":"NL","tp":"CS","ts":"2023-09-16T17:54:15Z","tX":528,"tY":334,"tags":{"caravans":"yes","email":"info@turfskip.com","name":"Turfland","permanent_camping":"yes","phone":"+31 514 541 467","shower":"yes","static_caravans":"y","tents":"yes","toilets":"yes"}},"1056437962":{"location":[52.8064539,5.9277286],"ct":"NL","tp":"CS","ts":"2024-09-06T13:26:35Z","tX":528,"tY":334,"tags":{"addr:city":"Ossenzijl","addr:housenumber":"26","addr:postcode":"8376EM","addr:street":"Hoogeweg","bar":"yes","big_rigs":"yes","camp_type":"established","caravans":"yes","credit_card:uplift":"no","dish_washing":"yes","dryer":"yes","email":"info@dekluft.nl","fee":"yes","fenced":"non_protecting","fireplace":"no","general_room":"yes","guarded":"no","impromptu":"no","internet_access":"wlan","internet_access:fee":"no","kitchen":"no","laundry":"no","name":"Recreatiecentrum De Kluft","payment:credit_cards":"yes","pets":"yes","phone":"+31 561 477 370","picnic_benches":"no","power_supply":"yes","power_supply:voltage":"220","restaurant":"yes","sanitary_dump_station":"yes","shower":"hot","source":"Survey","swimming_pool":"yes","tents":"yes","toilets:disposal":"flush","toilets:position":"sitting","washing_machine":"yes","water:location":"central","water:quality":"potable","website":"https://www.dekluft.nl"}},"1080725242":{"location":[52.7400755,5.7721842],"ct":"NL","tp":"CR","ts":"2025-01-26T11:00:38Z","tX":528,"tY":334,"tags":{"bbq":"yes","capacity:caravans":"15","caravan_site":"motorhome_stopover","caravan_site:type":"countryside","charge":"10 EUR","dog":"yes","drinking_water":"yes","email":"info@camperplaatsemmeloord.nl","fee":"yes","hot_water":"yes","internet_access":"wlan","name":"Camperplaats Emmeloord","opening_hours":"24/7","phone":"+31 629535056","power_supply":"yes","power_supply:charge":"3 EUR","power_supply:fee":"yes","reservation":"no","sanitary_dump_station":"yes","seasonal":"no","service:bicycle:service":"yes","shower":"no","toilets":"no","website":"https://www.camperplaatsemmeloord.nl/Home/"}},"1092148181":{"location":[52.8296301,5.8766653],"ct":"NL","tp":"CS","ts":"2022-09-05T15:40:09Z","tX":528,"tY":334,"tags":{"addr:city":"Scherpenzeel","addr:housenumber":"155A","addr:postcode":"8483JM","addr:street":"Grindweg","name":"natuurkampeerterrein De Landerij","website":"http://www.delanderij.nl/camping"}},"1092391055":{"location":[52.8597896,5.8507314],"ct":"NL","tp":"CS","ts":"2022-09-06T15:35:33Z","tX":528,"tY":334,"tags":{"addr:city":"Langelille","addr:housenumber":"9","addr:postcode":"8484KL","addr:street":"H.W. Stekelenburgweg","name":"Waterpark Langelille","operator":"Roompot","website":"https://watervilla-langelille.nl/"}},"1190521956":{"location":[52.8155103,5.6668953],"ct":"NL","tp":"CS","ts":"2023-07-19T05:47:34Z","tX":528,"tY":334,"tags":{"capacity:pitches":"15","caravans":"yes","email":"campingboerengroen@outlook.com","motorhome":"yes","name":"Boerengroen","phone":"+31 6 43045036","shower":"yes","tents":"yes","toilets":"yes","website":"https://www.campingboerengroen.nl/"}},"1192514270":{"location":[52.8161413,5.9746663],"ct":"NL","tp":"CS","ts":"2023-08-01T08:06:32Z","tX":528,"tY":334,"tags":{"caravans":"yes","email":"info@waterbuffelfarm.nl","motorhome":"yes","name":"De Waterbuffelfarm","phone":"+31 6 30353018;+31 6 51122287","shower":"yes","tents":"yes","toilets":"yes","website":"https://waterbuffelfarm.nl"}},"1208340036":{"location":[52.874759,5.8175517],"ct":"NL","tp":"CS","ts":"2025-01-20T17:38:28Z","tX":528,"tY":334,"tags":{"capacity:motorhome":"2","caravans":"no","motorhome":"yes","name":"Jachthaven Echtenerbrug","permanent_camping":"yes","phone":"+31 514 232 425","shower":"yes","static_caravans":"only","tents":"no","toilets":"yes","website":"https://jachthavenechtenerbrug.nl/Camping/"}},"1208697278":{"location":[52.8527695,5.6828243],"ct":"NL","tp":"CS","ts":"2023-09-18T06:39:40Z","tX":528,"tY":334,"tags":{"caravans":"yes","email":"info@tacozijl.nl","name":"Tacozijl","phone":"+31 514 562 003","shower":"yes","static_caravans":"yes","tents":"yes","toilets":"yes","website":"https://tacozijl.nl/watersportcamping"}},"1318376403":{"location":[52.7874615,5.7733441],"ct":"NL","tp":"CS","ts":"2024-09-26T12:20:26Z","tX":528,"tY":334,"tags":{"caravans":"yes","contact:phone":"+31 527 261 899","contact:website":"https://www.vakantieparkeigenwijze.nl/kampeerplaatsen/nederland-flevoland-toeristische-kampeerplaats-gezinsveld","contact:whatsapp":"+31 6 28477418","email":"info@vakantieparkeigenwijze.nl","landuse":"grass","name":"Eigen Wijze","shower":"yes","tents":"yes","toilets":"yes"}},"1351627908":{"location":[52.8927286,5.6452426],"ct":"NL","tp":"CR","ts":"2025-01-15T18:03:52Z","tX":528,"tY":334,"tags":{"capacity":"10","caravan_site":"motorhome_stopover","caravan_site:type":"harbour","charge":"14.50 EUR","fee":"yes","laundry":"yes","name":"Jachthaven De Lemsterpoort","power_supply":"yes","power_supply:fee":"yes","power_supply:maxcurrent":"6","sanitary_dump_station":"yes","sanitary_dump_station:chemical_toilet":"yes","shower":"yes","surface":"concrete:plates","toilets":"yes","water_point":"yes","water_point:fee":"no","website":"https://www.lemsterpoort.nl/passanten/camperplaats/"}},"1353976696":{"location":[52.8692475,5.8287182],"ct":"NL","tp":"CR","ts":"2025-01-24T16:00:56Z","tX":528,"tY":334,"tags":{"caravan_site":"motorhome_stopover","caravan_site:type":"farm","charge":"22-50 EUR","email":"camperkrompad@gmail.com","fee":"yes","motorhome":"designated","name":"Krompad","phone":"+31 6 20406832","power_supply":"yes","power_supply:fee":"no","shower":"yes","shower:fee":"no","toilets":"yes","toilets:fee":"no","water_point":"yes","water_point:fee":"no","website":"https://www.camperkrompad.nl"}},"2263209032":{"location":[52.8928214,5.6455431],"ct":"NL","tp":"CR","ts":"2018-08-06T19:19:18Z","tX":528,"tY":334,"tags":{"fee":"yes","power_supply":"yes","sanitary_dump_station":"yes"}},"2426002752":{"location":[52.719199,5.7547935],"ct":"NL","tp":"CS","ts":"2018-06-24T21:52:52Z","tX":528,"tY":334,"tags":{"name":"Camping het Bosbad"}},"2467757159":{"location":[52.8469299,5.6966375],"ct":"NL","tp":"CR","ts":"2021-05-08T20:47:23Z","tX":528,"tY":334,"tags":{"charge":"15.00 EUR","fee":"yes"}},"2715398535":{"location":[52.7883173,5.798521],"ct":"NL","tp":"CS","ts":"2024-05-03T20:38:43Z","tX":528,"tY":334,"tags":{"addr:city":"Bant","addr:housenumber":"21","addr:postcode":"8314PX","addr:street":"Hopweg","caravans":"yes","dog":"yes","drinking_water":"yes","fee":"yes","name":"Natuurkampeerterrein De Veenkuil","sanitary_dump_station":"yes","shower":"yes","source":"BAG","source:date":"2014-02-11","tents":"yes","toilets":"yes","website":"https://www.logerenbijdeboswachter.nl/kamperen/de-veenkuil"}},"2906287208":{"location":[52.8922374,5.6469108],"ct":"NL","tp":"CS","ts":"2022-11-04T11:19:40Z","tX":528,"tY":334,"tags":{"addr:city":"Sloten","addr:housenumber":"7","addr:postcode":"8556AM","addr:street":"Jachthaven","campers":"yes","caravans":"yes","contact:phone":"+31 514 531 668","name":"Jachthaven 'De Lemsterpoort'","source":"BAG","source:date":"2014-06-08","tents":"yes"}},"4663610146":{"location":[52.82176,5.7250948],"ct":"NL","tp":"CS","ts":"2017-02-04T16:43:56Z","tX":528,"tY":334,"tags":{"name":"Nieuw Leven"}},"11070135478":{"location":[52.8978032,5.847259],"ct":"NL","tp":"CS","ts":"2023-08-01T08:02:26Z","tX":528,"tY":334,"tags":{"caravans":"yes","email":"info@boerderijrecreatie.nl","mobile":"+31 6 10018683;+31 6 52643638","name":"Boerderijrecreatie","phone":"+31 514 541 267","shower":"yes","tents":"yes","toilets":"yes","website":"https://www.boerderijrecreatie.nl/camping"}},"11196325244":{"location":[52.8692889,5.828484],"ct":"NL","tp":"CR","ts":"2023-09-16T17:49:36Z","tX":528,"tY":334,"tags":{"email":"camperkrompad@gmail.com","motorhome":"designated","name":"Krompad","phone":"+31 6 20406832","website":"https://www.camperkrompad.nl"}}}