{"15822112":{"location":[52.5187232,5.8380696],"ct":"NL","tp":"CS","ts":"2023-05-07T14:02:31Z","tX":528,"tY":335,"tags":{"cabins":"yes","capacity:cabins":"5","capacity:pitches":"15","caravans":"yes","email":"info@campingdehinde.nl","internet_access":"wlan","internet_access:fee":"no","mobile":"+31 6 49535458","motorhome":"yes","name":"De Hinde","phone":"+31 321 317 669","shower":"yes","tents":"yes","toilets":"yes","website":"https://campingdehinde.nl/"}},"16204611":{"location":[52.684232,5.8794866],"ct":"NL","tp":"CS","ts":"2023-08-15T20:59:15Z","tX":528,"tY":335,"tags":{"caravans":"yes","email":"info@netl.nl","motorhome":"yes","name":"Kallumaan","operator":"Netl","phone":"+31 527 203 043","shower":"yes","tents":"yes","toilets":"yes","website":"https://www.netl.nl/campingkallumaan"}},"37295315":{"location":[52.6763664,5.894835],"ct":"NL","tp":"CS","ts":"2023-05-30T17:54:41Z","tX":528,"tY":335,"tags":{"addr:city":"Kraggenburg","addr:housenumber":"33","addr:postcode":"8317RD","addr:street":"Leemringweg","caravans":"yes","contact:email":"devoorst@vdbrecreatie.nl","contact:phone":"+31 527 252 524","contact:website":"https://www.vdbholiday.com/recreatie/devoorst/","internet_access":"yes","internet_access:fee":"no","name":"Recreatiepark De Voorst","operator":"VDB Holiday","tents":"yes","website":"https://www.campingdevoorst.nl"}},"66328391":{"location":[52.4858344,5.8302282],"ct":"NL","tp":"CS","ts":"2023-05-30T12:16:56Z","tX":528,"tY":335,"tags":{"cabins":"yes","caravans":"yes","landcover":"grass","name":"Minicamping P90","opening_hours":"Apr 1 - Oct 5","phone":"+31 321 316 190","shower":"yes","tents":"yes","toilets":"yes","website":"https://www.p90.nl/"}},"88370670":{"location":[52.5217365,5.6907338],"ct":"NL","tp":"CS","ts":"2024-01-20T15:31:16Z","tX":528,"tY":335,"tags":{"addr:city":"Dronten","addr:housenumber":"1","addr:postcode":"8251ST","addr:street":"De West","email":"info@wisentbos.nl","name":"Camping ’t Wisentbos","phone":"+31 321 316 606","website":"https://wisentbos.nl"}},"89010029":{"location":[52.6899449,5.974175],"ct":"NL","tp":"CS","ts":"2023-07-29T12:40:54Z","tX":528,"tY":335,"tags":{"capacity:pitches":"15","caravans":"yes","email":"info@molsbongerd.nl","landcover":"grass","mobile":"+31 6 30039269","name":"Molsbongerd","phone":"+31 527 243 421","shower":"yes","tents":"yes","toilets":"yes","website":"https://www.molsbongerd.nl/"}},"167900893":{"location":[52.5515201,5.816211],"ct":"NL","tp":"CS","ts":"2024-05-18T17:33:47Z","tX":528,"tY":335,"tags":{"access":"private","addr:city":"Dronten","addr:housenumber":"25","addr:postcode":"8251PS","addr:street":"Roggebotweg","description":"Dit kampeerterrein is alleen toegankelijk voor leden van de NTKC","dog":"leashed","internet_access":"no","name":"NTKC Roggebot","operator":"Nederlandse Touristen Kampeer Club","power_supply":"no","website":"https://www.kampeerclub.nl/terrein/kampeerterrein-roggebot"}},"419050406":{"location":[52.5700684,5.9144474],"ct":"NL","tp":"CS","ts":"2024-10-25T18:49:53Z","tX":528,"tY":335,"tags":{"addr:city":"Kampen","addr:housenumber":"7","addr:postcode":"8267AD","addr:street":"Frieseweg","email":"info@seveningen.com","name":"Camping Seveningen","phone":"+31 38 331 4891","website":"http://www.seveningen.eu"}},"693532131":{"location":[52.6111317,5.9555395],"ct":"NL","tp":"CS","ts":"2020-06-30T13:37:10Z","tX":528,"tY":335,"tags":{"horse":"yes","name":"Minicamping De Paardeboer","pet":"yes","stars":"4"}},"731152666":{"location":[52.6749131,5.9411955],"ct":"NL","tp":"CS","ts":"2023-06-16T06:47:55Z","tX":528,"tY":335,"tags":{"addr:city":"Vollenhove","addr:housenumber":"3","addr:postcode":"8325PP","addr:street":"Noordwal","cabins":"yes","caravans":"yes","contact:email":"akkertien@ardoer.com","contact:phone":"+31 527 241 378","contact:website":"https://akkertien.ardoer.com/","motorhome":"yes","name":"Camping Vakantiepark 't Akkertien","shower":"yes","tents":"yes"}},"963395872":{"location":[52.495636,5.8373881],"ct":"NL","tp":"CS","ts":"2021-07-11T13:06:19Z","tX":528,"tY":335,"tags":{"name":"De Ruimte","toilets:wheelchair":"yes","wheelchair":"yes"}},"963420033":{"location":[52.5066389,5.8461129],"ct":"NL","tp":"CS","ts":"2021-07-11T15:07:14Z","tX":528,"tY":335,"tags":{"name":"De Abbert"}},"963420048":{"location":[52.5051964,5.8389525],"ct":"NL","tp":"CS","ts":"2021-07-11T19:16:08Z","tX":528,"tY":335,"tags":{"name":"Het Abbertsbos","operator":"NCC","website":"https://www.ncc.nl/campings/dronten-het-abbertbos/"}},"1151189638":{"location":[52.5684699,5.6337286],"ct":"NL","tp":"CS","ts":"2023-06-09T08:30:16Z","tX":528,"tY":335,"tags":{"cabins":"yes","caravans":"yes","drinking_water":"yes","email":"info@buytenplaets-abelen.nl","name":"Buytenplaets Abelen","phone":"+31 6 19903368","shower":"yes","tents":"yes","toilets":"yes","website":"https://buytenplaets-abelen.nl/mini-camping/"}},"1169650658":{"location":[52.5334029,5.8382828],"ct":"NL","tp":"CS","ts":"2023-05-30T12:17:00Z","tX":528,"tY":335,"tags":{"caravans":"yes","email":"info@revehof.nl","name":"De Revehof","opening_hours":"Apr 1 - Sep 30","phone":"+31 6 22327755;+31 6 22365481","shower":"yes","tents":"yes","toilets":"yes;24/7","website":"https://www.revehof.nl/minicamping/"}},"1190703254":{"location":[52.6913798,5.9465052],"ct":"NL","tp":"CS","ts":"2023-07-19T22:01:17Z","tX":528,"tY":335,"tags":{"camp_site":"basic","capacity:pitches":"7","caravans":"yes","email":"minicamping@efkes-lins.nl","name":"Efkes-Lins","phone":"+31 6 12106457","shower":"yes","tents":"yes","toilets":"yes","website":"http://www.efkes-lins.nl/"}},"2058652733":{"location":[52.5528089,5.9130778],"ct":"NL","tp":"CR","ts":"2024-05-18T09:31:04Z","tX":528,"tY":335,"tags":{"capacity":"25","charge":"13.75€","fee":"yes","name":"Burgemeester Berghuisplein"}},"2636787922":{"location":[52.6507408,5.6863873],"ct":"NL","tp":"CR","ts":"2021-02-15T18:59:19Z","tX":528,"tY":335,"tags":{"fee":"yes","name":"Afslag Nagele","power_supply":"yes","website":"https://www.afslagnagele.nl/"}},"5691489078":{"location":[52.5333428,5.8165205],"ct":"NL","tp":"CS","ts":"2023-05-27T19:41:36Z","tX":528,"tY":335,"tags":{"fee":"yes","name":"Mini camping de Hanze","website":"https://www.minicampingdehanze.nl"}},"9041448676":{"location":[52.6473383,5.7178547],"ct":"NL","tp":"CS","ts":"2022-02-27T15:05:10Z","tX":528,"tY":335,"tags":{"description":"Minicamping","name":"Welkom op de boerderij","website":"https://welkomopdeboerderij.blog/"}},"11076852003":{"location":[52.5027918,5.9117167],"ct":"NL","tp":"CS","ts":"2023-07-30T13:54:34Z","tX":528,"tY":335,"tags":{"caravans":"yes","contact:facebook":"https://nl-nl.facebook.com/edelveen/","email":"info@edelveen.nl","motorhome":"yes","name":"Edelveen","phone":"+31 525 621 564","shower":"yes","tents":"yes","toilets":"yes","website":"http://edelveen.nl/"}}}