{"1026479":{"location":[52.3416704,5.9402451],"ct":"NL","tp":"CS","ts":"2025-01-20T09:59:21Z","tX":528,"tY":336,"tags":{"email":"info@develdkamp.nl","lit":"yes","name":"De Veldkamp","permanent_camping":"yes","phone":"+31 6 48030054","static_caravans":"yes","website":"https://www.develdkamp.nl"}},"13218694":{"location":[52.3133924,5.6319574],"ct":"NL","tp":"CS","ts":"2023-05-30T12:19:17Z","tX":528,"tY":336,"tags":{"access":"permissive","addr:city":"Ermelo","addr:housenumber":"4","addr:postcode":"3852AM","addr:street":"Fazantlaan","capacity":"300","caravans":"yes","drinking_water":"yes","email":"haeghehorst@ardoer.com","fee":"yes","internet_access":"wlan","name":"De Haeghehorst","operator":"Ardoer","phone":"+31 341 553 185","reservation":"yes","scout":"no","stars":"5","swimming_pool":"yes","tents":"yes","website":"https://haeghehorst.ardoer.com/"}},"17416485":{"location":[52.4462993,5.8028918],"ct":"NL","tp":"CR","ts":"2024-04-02T11:20:21Z","tX":528,"tY":336,"tags":{"fee":"yes","internet_access":"wlan","landuse":"grass","name":"EuroParcs Resort Zuiderzee","website":"https://www.europarcsresorts.com/holiday-park/resort-zuiderzee?resortids=358401"}},"66087107":{"location":[52.3404432,5.9383505],"ct":"NL","tp":"CS","ts":"2023-08-20T13:33:53Z","tX":528,"tY":336,"tags":{"cabins":"yes","caravans":"yes","email":"info@campingvossenberg.nl","phone":"+31 578 613 800","shower":"yes","static_caravans":"yes","tents":"yes","toilets":"yes"}},"66094562":{"location":[52.3556593,5.9463166],"ct":"NL","tp":"CS","ts":"2020-07-04T13:23:44Z","tX":528,"tY":336,"tags":{"landuse":"grass","name":"Camping Livonia","source":"3dShapes"}},"66153020":{"location":[52.287425,5.7801383],"ct":"NL","tp":"CS","ts":"2023-08-30T17:47:39Z","tX":528,"tY":336,"tags":{"capacity:pitches":"40","caravans":"yes","drinking_water":"yes","email":"info@meulebarg.nl","internet_access":"wlan","internet_access:fee":"no","motorhome":"yes","name":"De Meulebarg","phone":"+31 577 491 351","power_supply":"yes","shower":"yes","static_caravans":"yes","tents":"yes","toilets":"yes","website":"https://www.meulebarg.nl"}},"66219144":{"location":[52.3645878,5.8432673],"ct":"NL","tp":"CS","ts":"2025-05-07T23:27:46Z","tX":528,"tY":336,"tags":{"addr:city":"Nunspeet","addr:housenumber":"1","addr:postcode":"8072PL","addr:street":"Pas-Opweg","contact:email":"nieuwsoerel@staatsbosbeheer.nl","name":"Natuurkampeerterrein Nieuw Soerel","operator":"Staatsbosbeheer","phone":"+31 6 55358978 @ 08:00-22:00","source":"3dShapes;local knowledge","website":"https://www.logerenbijdeboswachter.nl/kamperen/nieuw-soerel"}},"66235145":{"location":[52.3624877,5.7948197],"ct":"NL","tp":"CS","ts":"2021-10-01T07:02:46Z","tX":528,"tY":336,"tags":{"access":"private","landuse":"grass","name":"Het Zwarte Veldje","scout":"yes","source":"AHN"}},"66236292":{"location":[52.3257565,5.8201785],"ct":"NL","tp":"CS","ts":"2024-12-30T18:40:43Z","tX":528,"tY":336,"tags":{"addr:city":"Vierhouten","addr:housenumber":"91","addr:postcode":"8076RG","addr:street":"'t Frusselt","contact:email":"campingfrusselt@gmail.com","contact:phone":"+31 6 45757311","name":"Camping Frusselt","source":"AHN","website":"https://www.frusselt.nl"}},"66239652":{"location":[52.3255322,5.8222899],"ct":"NL","tp":"CS","ts":"2024-02-17T18:12:02Z","tX":528,"tY":336,"tags":{"addr:city":"Vierhouten","addr:housenumber":"74","addr:postcode":"8076RC","addr:street":"Elspeterbosweg","contact:email":"info@beans-hill.nl","contact:phone":"+31 577 411 326","contact:website":"https://www.beans-hill.nl","name":"Camping Beans-Hill","source":"AHN"}},"66269854":{"location":[52.423629,5.9044898],"ct":"NL","tp":"CS","ts":"2022-04-21T19:28:49Z","tX":528,"tY":336,"tags":{"name":"Campertuin CP Veluwe Noord","source":"AHN","website":"https://www.campertuin.com/"}},"66325940":{"location":[52.4331301,5.8971331],"ct":"NL","tp":"CS","ts":"2018-07-09T21:06:55Z","tX":528,"tY":336,"tags":{"landuse":"grass","name":"Camping de Lijsterbes","source":"3dShapes"}},"74571652":{"location":[52.3483245,5.6810851],"ct":"NL","tp":"CS","ts":"2023-08-19T08:39:19Z","tX":528,"tY":336,"tags":{"caravans":"yes","email":"info@minicampingdeduunnen.nl","landcover":"grass","mobile":"+31 6 51680008","name":"De Duunnen","phone":"+31 341 452 085","shower":"yes","tents":"yes","toilets":"yes"}},"74735662":{"location":[52.3521117,5.6513865],"ct":"NL","tp":"CS","ts":"2024-06-24T08:38:50Z","tX":528,"tY":336,"tags":{"capacity:pitches":"16","caravans":"yes","email":"info@campingthofje.nl","landcover":"grass","mobile":"+31 6 30075960","name":"'T Hofje","phone":"+31 341 452 435","shower":"yes","tents":"yes","toilets":"yes","website":"https://campingthofje.nl"}},"74788976":{"location":[52.2853653,5.6461825],"ct":"NL","tp":"CS","ts":"2022-07-08T08:08:38Z","tX":528,"tY":336,"tags":{"contact:website":"https://www.kriemelberg.nl","name":"Camping de Kriemelberg"}},"125600104":{"location":[52.3317813,5.9625685],"ct":"NL","tp":"CS","ts":"2023-05-30T12:18:36Z","tX":528,"tY":336,"tags":{"addr:city":"Emst","addr:housenumber":"14","addr:postcode":"8166GT","addr:street":"Langeweg","email":"zandhegge@ardoer.com","name":"De Zandhegge","phone":"+31 578 613 936","website":"https://www.zandhegge.nl"}},"126807570":{"location":[52.3298809,5.954071],"ct":"NL","tp":"CS","ts":"2024-07-11T21:19:26Z","tX":528,"tY":336,"tags":{"caravans":"yes","drinking_water":"yes","name":"Natuurkampeerterrein De Toekomst","power_supply":"yes","shower":"yes","tents":"yes","toilets":"yes","website":"https://www.kampeerterreindetoekomst.nl"}},"166970156":{"location":[52.4151728,5.7380445],"ct":"NL","tp":"CS","ts":"2025-01-22T23:50:30Z","tX":528,"tY":336,"tags":{"fee":"yes","internet_access":"wlan","name":"Aqua Centrum Bremerbergse Hoek","static_caravans":"yes","website":"https://www.aquacentrum.nl"}},"167922607":{"location":[52.3935921,5.7804778],"ct":"NL","tp":"CS","ts":"2023-05-30T19:04:54Z","tX":528,"tY":336,"tags":{"contact:phone":"+31 341 252 941","contact:website":"https://www.grobbenhorst.nl","name":"Camping Groot Grobbenhorst","website":"https://www.grobbenhorst.nl"}},"167922611":{"location":[52.3906003,5.7275136],"ct":"NL","tp":"CS","ts":"2023-05-30T19:04:54Z","tX":528,"tY":336,"tags":{"name":"Camping/Jachthaven \"de Oude Pol\"","website":"https://www.deoudepol.nl"}},"167922612":{"location":[52.394256,5.7364283],"ct":"NL","tp":"CS","ts":"2023-07-18T19:31:13Z","tX":528,"tY":336,"tags":{"caravans":"yes","contact:website":"https://www.campingpolsmaten.nl/","name":"Camping Polsmaten","shower":"yes","tents":"yes","toilets":"yes"}},"217483316":{"location":[52.3831311,5.629672],"ct":"NL","tp":"CR","ts":"2024-04-04T10:47:32Z","tX":528,"tY":336,"tags":{"caravan_site":"motorhome_stopover","caravan_site:type":"harbour","fee":"yes","maxlength":"8","motorhome":"yes","name":"Molecaten Parc Flevostrand Strandcampingplaats","power_supply":"yes","power_supply:maxcurrent":"10","water_point":"yes","website":"https://www.molecaten.nl/flevostrand"}},"291731235":{"location":[52.4700911,5.9749727],"ct":"NL","tp":"CS","ts":"2016-11-13T14:45:05Z","tX":528,"tY":336,"tags":{"name":"Boerderij-camping 't Heeterveen"}},"306796441":{"location":[52.4547123,5.8213515],"ct":"NL","tp":"CS","ts":"2025-01-22T23:49:38Z","tX":528,"tY":336,"tags":{"fee":"yes","internet_access":"wlan","name":"Camping Veluwemeer","power_supply":"yes","static_caravans":"yes","website":"https://www.aquacentrum.nl/nl/camping-veluwemeer-in-biddinghuizen"}},"310150427":{"location":[52.3146875,5.9280747],"ct":"NL","tp":"CS","ts":"2025-05-14T12:55:08Z","tX":528,"tY":336,"tags":{"addr:city":"Emst","addr:housenumber":"102","addr:postcode":"8166JJ","addr:street":"Hanendorperweg","contact:email":"info@wildhoeve.nl","contact:phone":"+31 578 661 324","contact:website":"https://www.wildhoeve.nl","name":"Camping De Wildhoeve","toilets:wheelchair":"yes","wheelchair":"yes"}},"310551346":{"location":[52.3362132,5.8233545],"ct":"NL","tp":"CS","ts":"2023-05-30T12:18:54Z","tX":528,"tY":336,"tags":{"addr:city":"Vierhouten","addr:housenumber":"31","addr:postcode":"8076PL","addr:street":"Plaggeweg","contact:phone":"+31 577 411 662","contact:website":"http://campingdeplagge.nl/","name":"Camping De Plagge"}},"357241690":{"location":[52.3214653,5.9569425],"ct":"NL","tp":"CS","ts":"2023-04-12T20:01:49Z","tX":528,"tY":336,"tags":{"fixme":"Kampeerterrijn lijkt op 02-02-2023 heringericht te worden","name":"De Veluwse Wagen"}},"383872260":{"location":[52.3305866,5.8209016],"ct":"NL","tp":"CS","ts":"2023-05-30T19:05:03Z","tX":528,"tY":336,"tags":{"addr:city":"Vierhouten","addr:housenumber":"30","addr:postcode":"8076RE","addr:street":"'t Frusselt","name":"De Paasheuvel","operator":"Paasheuvelgroep","website":"https://www.paasheuvel.nl","wikidata":"Q3900221","wikipedia":"nl:Paasheuvel (Vierhouten)"}},"469230411":{"location":[52.4152772,5.7472654],"ct":"NL","tp":"CS","ts":"2012-06-11T15:35:17Z","tX":528,"tY":336,"tags":{"name":"Surfcamp Veluwemeer"}},"474230092":{"location":[52.2888278,5.6512933],"ct":"NL","tp":"CR","ts":"2022-05-03T18:54:09Z","tX":528,"tY":336,"tags":{}},"485882917":{"location":[52.3805221,5.7030385],"ct":"NL","tp":"CS","ts":"2021-06-17T10:30:06Z","tX":528,"tY":336,"tags":{}},"485882922":{"location":[52.3809828,5.7020034],"ct":"NL","tp":"CS","ts":"2021-06-17T10:30:06Z","tX":528,"tY":336,"tags":{}},"521885654":{"location":[52.3874249,5.8327839],"ct":"NL","tp":"CS","ts":"2023-05-30T12:18:59Z","tX":528,"tY":336,"tags":{"addr:city":"Doornspijk","addr:housenumber":"9","addr:postcode":"8085SB","addr:street":"Klaterweg","email":"scheepsbel@capfun.com","fee":"yes","internet_access":"wlan","internet_access:fee":"yes","name":"Camping De Scheepsbel","phone":"+31 525 661 422","website":"https://www.descheepsbel.nl"}},"534993956":{"location":[52.3228937,5.6291351],"ct":"NL","tp":"CS","ts":"2024-06-24T08:38:50Z","tX":528,"tY":336,"tags":{"caravans":"yes","email":"campingdestrokel@xs4all.nl","landuse":"grass","name":"De Strokel","phone":"+31 341 412 145","shower":"yes","tents":"yes","toilets":"yes","website":"https://www.campingdestrokel.nl"}},"615484499":{"location":[52.3519952,5.7006232],"ct":"NL","tp":"CS","ts":"2024-06-24T08:38:50Z","tX":528,"tY":336,"tags":{"name":"Caravanpark Beekzicht","source":"AHN","website":"https://www.deboskant.info"}},"644411475":{"location":[52.3911772,5.9685077],"ct":"NL","tp":"CS","ts":"2021-05-19T21:15:21Z","tX":528,"tY":336,"tags":{"access":"customers","addr:city":"Heerde","addr:street":"Dellenweg","drinking_water":"no","fee":"yes","internet_access":"no","name":"Natuurcamping De Dellen","operator":"Geldersch Landschap & Kasteelen","toilets":"no","website":"https://www.glk.nl/landschappen-kastelen/locatie/de-dellen-en-ambtsbos"}},"756073965":{"location":[52.3480106,5.7148404],"ct":"NL","tp":"CS","ts":"2023-05-30T19:04:52Z","tX":528,"tY":336,"tags":{"addr:city":"Hulshorst","addr:housenumber":"241","addr:postcode":"8077TG","addr:street":"Onder de Bos","caravans":"yes","contact:email":"info@zwaluwenhof.nl","contact:phone":"+31 341 452 141;+31 6 54375045","contact:website":"https://www.zwaluwenhof.nl","name":"Camping Zwaluwenhof","operator":"Ronald Kwist","tents":"yes"}},"799844397":{"location":[52.3468906,5.8253271],"ct":"NL","tp":"CS","ts":"2025-06-03T18:49:03Z","tX":528,"tY":336,"tags":{"name":"Samoza","website":"https://www.samoza.nl","website:map":"https://www.samoza.nl/assets/uploads/Samoza/PDF/241024-SAMOZA-plattegrond-A3-liggend-NL.jpg"}},"833488187":{"location":[52.414908,5.8496011],"ct":"NL","tp":"CS","ts":"2023-05-30T12:19:08Z","tX":528,"tY":336,"tags":{"brand":"SVR","capacity:pitches":"25","caravans":"yes","email":"info@campingdeplaats.nl","name":"De Plaats","opening_hours":"Apr 1 - Oct 31","phone":"+31 525 661 057","shower":"yes","tents":"yes","toilets":"yes","website":"http://www.campingdeplaats.nl/"}},"833523342":{"location":[52.4096628,5.8456933],"ct":"NL","tp":"CS","ts":"2020-08-03T13:13:51Z","tX":528,"tY":336,"tags":{"name":"SVR Camping De Haerhagen"}},"876141420":{"location":[52.3722732,5.6339778],"ct":"NL","tp":"CS","ts":"2024-11-19T08:03:10Z","tX":528,"tY":336,"tags":{"capacity:tents":"14","fee":"yes","name":"CampSpirit","tents":"yes","website":"https://www.campspirit.nl/"}},"906067622":{"location":[52.349671,5.6844758],"ct":"NL","tp":"CS","ts":"2023-06-24T12:09:30Z","tX":528,"tY":336,"tags":{"addr:city":"Hierden","addr:housenumber":"6","addr:postcode":"3849NJ","addr:street":"Duinweg","cabins":"yes","caravans":"yes","email":"info@depeperkamp.nl","motorhome":"yes","name":"Camping De Peperkamp","phone":"+31 341 453 232","shower":"yes","static_caravans":"yes","tents":"yes","toilets":"yes","website":"https://www.depeperkamp.nl"}},"944349692":{"location":[52.3812393,5.8149233],"ct":"NL","tp":"CS","ts":"2021-05-18T17:33:38Z","tX":528,"tY":336,"tags":{"name":"Camping de Witte Wieven"}},"951426996":{"location":[52.3280481,5.8226076],"ct":"NL","tp":"CS","ts":"2021-06-05T10:30:05Z","tX":528,"tY":336,"tags":{"name":"Heidepark Veluwsch Karakter","website":"https://www.vdbholiday.com/recreatie/veluwschkarakter/"}},"962357736":{"location":[52.2907271,5.9458485],"ct":"NL","tp":"CS","ts":"2025-04-30T17:11:28Z","tX":528,"tY":336,"tags":{"caravans":"yes","cash_withdrawal:type":"checkout","drinking_water":"yes","internet_access":"wlan","internet_access:fee":"no","name":"De Helfterkamp","reservation":"yes","sanitary_dump_station":"customers","shower":"yes","tents":"yes","toilets":"yes","website":"https://www.helfterkamp.nl/"}},"963749826":{"location":[52.4594736,5.8162928],"ct":"NL","tp":"PK","ts":"2022-02-17T07:31:19Z","tX":528,"tY":336,"tags":{"motorhome":"yes","parking":"street_side","vehicle":"no"}},"963749839":{"location":[52.4594787,5.8164018],"ct":"NL","tp":"PK","ts":"2022-02-17T07:31:19Z","tX":528,"tY":336,"tags":{"motorhome":"yes","parking":"street_side","vehicle":"no"}},"963749840":{"location":[52.4594915,5.8166516],"ct":"NL","tp":"PK","ts":"2022-02-17T07:31:19Z","tX":528,"tY":336,"tags":{"motorhome":"yes","parking":"street_side","vehicle":"no"}},"980137386":{"location":[52.4681572,5.827311],"ct":"NL","tp":"CS","ts":"2021-09-06T14:05:58Z","tX":528,"tY":336,"tags":{"access":"private","name":"Scouting N.S. Rambonnet","scout":"yes"}},"985287799":{"location":[52.4232029,5.8654228],"ct":"NL","tp":"CS","ts":"2021-09-21T16:53:08Z","tX":528,"tY":336,"tags":{"name":"camping de Rozehoeve","source":"AHN","website":"https://derozehoeve.nl/"}},"988503183":{"location":[52.3732504,5.8002291],"ct":"NL","tp":"CS","ts":"2025-01-23T17:37:35Z","tX":528,"tY":336,"tags":{"name":"Camping de Vossenberg","website":"https://www.campingvossenberg.nl/"}},"996815053":{"location":[52.3281742,5.8317722],"ct":"NL","tp":"CS","ts":"2024-04-12T11:38:23Z","tX":528,"tY":336,"tags":{"caravans":"no","name":"Zandhul","permanent_camping":"only","static_caravans":"yes","tents":"no","website":"http://www.huizevierhouten.info/camping.html"}},"996844739":{"location":[52.3301045,5.8351838],"ct":"NL","tp":"CS","ts":"2024-04-12T11:39:36Z","tX":528,"tY":336,"tags":{"caravans":"no","name":"De Driehoek","permanent_camping":"only","static_caravans":"yes","tents":"no","website":"http://www.huizevierhouten.info/camping.html"}},"997134517":{"location":[52.3562315,5.7901699],"ct":"NL","tp":"CS","ts":"2023-07-15T15:11:40Z","tX":528,"tY":336,"tags":{"cabins":"yes","caravans":"yes","contact:email":"info@camping-detol.nl","contact:phone":"+31 341 252 413","contact:website":"https://www.camping-detol.nl","name":"Camping De Tol","shower":"yes","static_caravans":"yes","tents":"yes","toilets":"yes"}},"1030608352":{"location":[52.441497,5.8434324],"ct":"NL","tp":"CS","ts":"2023-05-30T12:19:13Z","tX":528,"tY":336,"tags":{"addr:city":"Elburg","addr:housenumber":"65","addr:postcode":"8081LB","addr:street":"Zuiderzeestraatweg Oost","caravans":"yes","email":"info@oldputten.nl","name":"Camping Landgoed Old Putten","phone":"+31 525 681 938","tents":"yes","website":"https://www.oldputten.nl"}},"1051486279":{"location":[52.3544308,5.7020407],"ct":"NL","tp":"CS","ts":"2025-06-18T12:41:03Z","tX":528,"tY":336,"tags":{"name":"Camping de Waterlelie","website":"https://campingdewaterlelie.nl/"}},"1051486283":{"location":[52.3504777,5.70287],"ct":"NL","tp":"CS","ts":"2022-04-13T10:05:24Z","tX":528,"tY":336,"tags":{"name":"Buitenplaats de Hierdense Beek","source":"AHN","website":"https://www.deboskant.info"}},"1065044373":{"location":[52.2878425,5.6609536],"ct":"NL","tp":"CS","ts":"2024-08-19T12:48:27Z","tX":528,"tY":336,"tags":{"addr:city":"Ermelo","addr:housenumber":"125","addr:postcode":"3852MA","addr:street":"Drieërweg","cabins":"yes","campers":"yes","caravans":"yes","dog":"yes","email":"info@paalberg.nl","fee":"yes","internet_access":"wlan","name":"Recreatiepark De Paalberg","phone":"+31 341 552 373","power_supply":"yes","sanitary_dump_station":"yes","tents":"yes","website":"https://www.vdbholiday.com/recreatie/depaalberg"}},"1065101170":{"location":[52.2927797,5.9389589],"ct":"NL","tp":"CS","ts":"2023-05-30T12:19:13Z","tX":528,"tY":336,"tags":{"addr:city":"Vaassen","addr:housenumber":"32","addr:postcode":"8171RA","addr:street":"Gortelseweg","name":"De Rollekoot","phone":"+31 578 571 970","website":"http://www.rollekoot.nl"}},"1071292158":{"location":[52.3210631,5.9250036],"ct":"NL","tp":"CS","ts":"2023-06-13T05:54:48Z","tX":528,"tY":336,"tags":{"brand":"SVR","capacity:pitches":"25","caravans":"yes","email":"info@campingdepollen.nl","mobile":"+31 6 49405743","name":"De Pollen","phone":"+31 578 755 536","shower":"yes","tents":"yes","toilets":"yes","website":"https://campingdepollen.nl"}},"1071295016":{"location":[52.3251868,5.9546615],"ct":"NL","tp":"CS","ts":"2024-12-30T19:29:21Z","tX":528,"tY":336,"tags":{"addr:city":"Emst","addr:housenumber":"24","addr:postcode":"8166HC","addr:street":"Schaverenseveldweg","name":"Camping Reina's hoeve","phone":"+31 578 661 479","website":"https://campingreinashoeve.nl"}},"1153879337":{"location":[52.2885015,5.6416867],"ct":"NL","tp":"CS","ts":"2023-03-12T20:05:18Z","tX":528,"tY":336,"tags":{"cabins":"yes","caravans":"yes","email":"info@hetvossenhol.nl","name":"Het Vossenhol","phone":"+31 341 552 101","shower":"yes","static_caravans":"yes","tents":"yes","toilets":"yes","website":"https://www.hetvossenhol.nl/"}},"1154851104":{"location":[52.2920603,5.6513373],"ct":"NL","tp":"CS","ts":"2025-05-30T17:21:13Z","tX":528,"tY":336,"tags":{"caravans":"yes","contact:website":"https://inderimboe.nl","drinking_water":"yes","name":"In de Rimboe","power_supply":"yes","sanitary_dump_station":"yes","shower":"yes","tents":"yes","toilets":"yes"}},"1156358434":{"location":[52.3797357,5.7532109],"ct":"NL","tp":"CR","ts":"2025-01-23T16:00:09Z","tX":528,"tY":336,"tags":{"addr:city":"Nunspeet","addr:housenumber":"46","addr:postcode":"8071SM","addr:street":"Hardenbrinkweg","capacity":"60","caravan_site":"motorhome_stopover","caravan_site:type":"countryside","charge":"16 EUR","check_in":"Mo-Sa","dog":"leashed","email":"info@camperplaatsdezwaan.com","fee":"yes","internet_access":"wlan","laundry":"yes","maxlength":"none","name":"Camperplaats De Zwaan","phone":"+31 31341258242","power_supply":"yes","power_supply:charge":"0.50 EUR/kWh","power_supply:fee":"yes","power_supply:maxcurrent":"6","sanitary_dump_station":"yes","sanitary_dump_station:chemical_toilet":"yes","sanitary_dump_station:grey_water":"yes","seasonal":"no","website":"https://www.camperplaatsdezwaan.com/camperplaats"}},"1185761599":{"location":[52.4490774,5.8278342],"ct":"NL","tp":"CR","ts":"2025-01-19T23:28:13Z","tX":528,"tY":336,"tags":{"capacity":"15","caravan_site":"motorhome_stopover","caravan_site:type":"parking_lot","description":"right at the old city. 15 designated to campers, more can park here.","fee":"no","name":"De Oude Vos Elburg","power_supply":"no","sanitary_dump_station":"no","surface":"grass","water_point":"no","wikimedia_commons":"File:Elburg caravan site.jpg"}},"1188255858":{"location":[52.3845625,5.7678819],"ct":"NL","tp":"CS","ts":"2023-07-08T11:25:44Z","tX":528,"tY":336,"tags":{"cabins":"yes","capacity:cabins":"2","caravans":"yes","motorhome":"yes","name":"Kostverloren","opening_hours":"Apr 1 - Sep 30","phone":"+31 6 21390264","shower":"yes","tents":"yes","toilets":"yes","website":"https://campingkostverloren.nl/"}},"1191611678":{"location":[52.4086265,5.8102979],"ct":"NL","tp":"CS","ts":"2023-07-23T15:42:34Z","tX":528,"tY":336,"tags":{"capacity:pitches":"10","caravans":"yes","name":"De Glindehoeve","phone":"+31 525 661 420","shower":"yes","tents":"yes","toilets":"yes"}},"1193319981":{"location":[52.3529176,5.9638808],"ct":"NL","tp":"CS","ts":"2025-01-01T16:32:04Z","tX":528,"tY":336,"tags":{"caravans":"yes","email":"info@eperwoud.nl","motorhome":"yes","name":"Recreatiepark Het Eperwoud","phone":"+31 578 614 117","shower":"yes","tents":"yes","toilets":"yes","website":"https://eperwoud.nl"}},"1195057809":{"location":[52.3543542,5.7171294],"ct":"NL","tp":"CS","ts":"2023-08-05T19:52:43Z","tX":528,"tY":336,"tags":{"caravans":"yes","email":"campinglieuwendaal@gmail.com","landcover":"grass","name":"Lieuwendaal","opening_hours":"Mar 15 - Oct 15","phone":"+31 6 44516381","shower":"yes","tents":"yes","toilets":"yes","website":"https://www.campinglieuwendaal.com"}},"1199736500":{"location":[52.3474576,5.7067775],"ct":"NL","tp":"CS","ts":"2024-07-27T18:42:38Z","tX":528,"tY":336,"tags":{"cabins":"yes","capacity:pitches":"30","caravans":"yes","drinking_water":"yes","email":"info@vuurkuil.nl","name":"Vuurkuil","phone":"+31 341 451 380","power_supply":"yes","sanitary_dump_station":"yes","shower":"yes","tents":"yes","toilets":"yes","website":"https://vuurkuil.nl/kamperen/"}},"1199739382":{"location":[52.3145068,5.9578836],"ct":"NL","tp":"CS","ts":"2024-06-26T20:05:45Z","tX":528,"tY":336,"tags":{"capacity:pitches":"15","caravans":"yes","name":"Klein Hanenveld","opening_hours":"Apr 1 - Oct 1","phone":"+31 6 13590677","shower":"yes","tents":"yes","toilets":"yes","website":"https://www.kleinhanenveld.nl/"}},"1201537617":{"location":[52.2780422,5.8093053],"ct":"NL","tp":"CS","ts":"2023-08-23T20:00:29Z","tX":528,"tY":336,"tags":{"capacity:pitches":"50","caravans":"yes","email":"info@mennorode.nl","name":"Mennorode","opening_hours":"Apr 1 - Sep 28","phone":"+31 577 498 111","shower":"yes","tents":"yes","toilets":"yes","website":"https://www.mennorode.nl/nl/overnachten/kamperen/"}},"1227680023":{"location":[52.2973699,5.9508431],"ct":"NL","tp":"CS","ts":"2023-11-29T21:49:05Z","tX":528,"tY":336,"tags":{"FIXME":"Overige gegevens"}},"1227887942":{"location":[52.3653456,5.9589469],"ct":"NL","tp":"CS","ts":"2023-11-30T21:42:55Z","tX":528,"tY":336,"tags":{"addr:city":"Epe","addr:housenumber":"86","addr:postcode":"8162NR","addr:street":"Officiersweg","contact:website":"https://www.rcn.nl/nl/vakantieparken/nederland/veluwe/rcn-de-jagerstee","name":"RCN de Jagerstee","operator":"RCN Vakantieparken","toilets:wheelchair":"yes","wheelchair":"yes"}},"1262258909":{"location":[52.3477704,5.6680559],"ct":"NL","tp":"CR","ts":"2025-01-23T15:54:27Z","tX":528,"tY":336,"tags":{"caravan_site":"motorhome_stopover","caravan_site:type":"countryside","charge":"20 EUR","check_in":"12:00","check_out":"12:00","mobile":"+31 653 250327","name":"Camperplaats De Doornekamp","power_supply":"yes","power_supply:maxcurrent":"6;10;16","reservation":"yes","sanitary_dump_station":"yes","sanitary_dump_station:chemical_toilet":"yes","sanitary_dump_station:grey_water":"yes","water_point":"yes","water_point:fee":"no","website":"https://camperplaats-dedoornekamp.nl/"}},"1320075986":{"location":[52.384504,5.7101163],"ct":"NL","tp":"CS","ts":"2024-10-03T06:55:59Z","tX":528,"tY":336,"tags":{"name":"Trailerveld"}},"1352314495":{"location":[52.3522809,5.6256438],"ct":"NL","tp":"CR","ts":"2025-01-18T12:46:54Z","tX":528,"tY":336,"tags":{"capacity":"4","caravan_site":"motorhome_stopover","caravan_site:type":"parking_lot;town","charge":"8.50/24 hours","fee":"yes","maxstay":"2 nights","name":"P2 Lelykade Harderwijk","power_supply":"no","sanitary_dump_station":"no","seasonal":"no","website":"https://www.heerlijkharderwijk.nl/location/2826142931/camperplekken-molen-de-hoop"}},"3080765033":{"location":[52.2900679,5.965422],"ct":"NL","tp":"CR","ts":"2014-09-16T19:59:28Z","tX":528,"tY":336,"tags":{}},"11005486716":{"location":[52.425161,5.8610708],"ct":"NL","tp":"CS","ts":"2023-06-25T10:28:54Z","tX":528,"tY":336,"tags":{"cabins":"yes","capacity:pitches":"3","caravans":"yes","name":"Bloemenboerderij Aperloo","phone":"+31 6 17010747","shower":"yes","tents":"yes","toilets":"yes","website":"https://www.bloemenboerderij-aperloo.nl/rustpunt-en-campspace/"}},"11738489316":{"location":[52.4150943,5.7482784],"ct":"NL","tp":"CS","ts":"2024-03-17T09:25:13Z","tX":528,"tY":336,"tags":{"addr:city":"Biddinghuizen","addr:housenumber":"33","addr:postcode":"8256RD","addr:street":"Bremerbergdijk","camp_site":"basic","name":"Camperplaats Veluwemeer","operator":"– 350 bv"}},"4786514026":{"location":[52.3829927,5.706996],"ct":"NL","tp":"SD","ts":"2017-04-10T15:34:32Z","tX":528,"tY":336,"tags":{}},"8900329085":{"location":[52.2896404,5.9468658],"ct":"NL","tp":"SD","ts":"2025-03-24T07:53:54Z","tX":528,"tY":336,"tags":{}},"12647149304":{"location":[52.3847876,5.7093719],"ct":"NL","tp":"SD","ts":"2025-03-09T09:02:23Z","tX":528,"tY":336,"tags":{}}}