{"1151523":{"location":[52.1727293,5.699293],"ct":"NL","tp":"CS","ts":"2023-06-24T11:11:39Z","tX":528,"tY":337,"tags":{"caravans":"yes","landcover":"grass","name":"Hoeve Kootwijk","old_name":"De Stroe","phone":"+31 342 220 022","shower":"yes","tents":"yes","toilets":"yes","website":"https://hoeve-koorwijk.business.site"}},"15850158":{"location":[52.1185553,5.6818096],"ct":"NL","tp":"CS","ts":"2023-06-13T05:54:48Z","tX":528,"tY":337,"tags":{"capacity:pitches":"21","caravans":"yes","email":"willekevandekamp1967@gmail.com","mobile":"+31 6 30653992","motorhome":"yes","name":"De Hucht","phone":"+31 318 461 050","shower":"yes","tents":"yes","toilets":"yes","website":"https://www.campingdehucht.nl"}},"15850646":{"location":[52.092822,5.770714],"ct":"NL","tp":"CS","ts":"2023-10-23T08:24:33Z","tX":528,"tY":337,"tags":{"addr:city":"Otterlo","addr:housenumber":"4","addr:postcode":"6731SN","addr:street":"Heideweg","cabins":"yes","caravans":"yes","dog":"yes","fee":"yes","internet_access":"wlan","motorhome":"yes","name":"Beek en Hei","phone":"+31 318 591 483","shower":"yes","tents":"yes","toilets":"yes","website":"http://www.campingbeekenhei.nl"}},"15851827":{"location":[52.0944897,5.7675042],"ct":"NL","tp":"CS","ts":"2023-05-30T12:19:18Z","tX":528,"tY":337,"tags":{"cabins":"yes","caravans":"yes","email":"receptie@lorkenbos.nl","name":"Het Lorkenbos","operator":"Familie Lenderink","phone":"+31 318 591 567","shower":"yes","start_date":"1954","tents":"yes","toilets":"yes","website":"https://lorkenbos.nl/"}},"26859329":{"location":[52.088145,5.7779883],"ct":"NL","tp":"CS","ts":"2024-06-20T16:25:03Z","tX":528,"tY":337,"tags":{"caravans":"yes","drinking_water":"no","email":"kcc@europarcs.nl","motorhome":"yes","name":"EuroParcs De Zanding","note":"Onderdeel van https://www.openstreetmap.org/relation/15850392","phone":"+31 88 070 8090","power_supply":"no","reservation":"yes","sanitary_dump_station":"no","shower":"yes","tents":"yes","toilets":"yes","website":"https://www.europarcs.nl/vakantieparken/nederland/gelderland/de-zanding"}},"60461221":{"location":[52.0630476,5.9348523],"ct":"NL","tp":"CS","ts":"2023-01-14T10:27:58Z","tX":528,"tY":337,"tags":{"contact:website":"https://www.campingterlet.nl","name":"Camping Terlet","operator":"VOZT","source":"AHN"}},"60600952":{"location":[52.1065387,5.754964],"ct":"NL","tp":"CS","ts":"2023-06-21T18:09:33Z","tX":528,"tY":337,"tags":{"addr:city":"Otterlo","addr:housenumber":"80","addr:postcode":"6731ED","addr:street":"Westenengerdijk","cabins":"yes","capacity:pitches":"25","caravans":"yes","contact:website":"https://campingdenieuwehof.nl/","fee":"yes","motorhome":"yes","name":"De Nieuwe Hof","phone":"+31 318 591 485","shower":"yes","surface":"grass","tents":"yes","toilets":"yes","website":"https://www.campingdenieuwehof.nl/"}},"60601400":{"location":[52.128506,5.7612764],"ct":"NL","tp":"CS","ts":"2023-05-30T12:18:34Z","tX":528,"tY":337,"tags":{"brand":"SVR","caravans":"yes","email":"camping-detepelenburg@hotmail.com","landcover":"grass","mobile":"+31 6 38392100","name":"De Tepelenburg","phone":"+31 318 456 315","shower":"yes","tents":"yes","toilets":"yes","website":"http://www.camping-detepelenburg.nl/"}},"60638002":{"location":[52.1718779,5.9140179],"ct":"NL","tp":"CS","ts":"2023-05-30T12:18:34Z","tX":528,"tY":337,"tags":{"addr:city":"Ugchelen","addr:housenumber":"187","addr:postcode":"7339GG","addr:street":"Hoenderloseweg","contact:email":"dewapenberg@hotmail.com","contact:phone":"+31 55 533 4539","contact:website":"https://www.dewapenberg.nl","name":"Camping De Wapenberg"}},"60655140":{"location":[52.2546545,5.925244],"ct":"NL","tp":"CS","ts":"2023-07-08T12:11:34Z","tX":528,"tY":337,"tags":{"cabins":"yes","caravans":"yes","contact:phone":"+31 6 15426466","contact:whatsapp":"+31 6 15426466","email":"vraag@landgoeddeploeg.nl","landcover":"grass","name":"Landgoed de Ploeg","operator":"Familie de Bruijn","shower":"yes","start_date":"2015","tents":"yes","toilets":"yes"}},"74879887":{"location":[52.2379159,5.6942812],"ct":"NL","tp":"CS","ts":"2023-05-30T12:18:35Z","tX":528,"tY":337,"tags":{"addr:city":"Garderen","addr:housenumber":"57","addr:postcode":"3886AN","addr:street":"Speulderbosweg","caravans":"yes","contact:email":"info@hetspeulderbos.nl","contact:phone":"+31 577 461 385","contact:website":"https://www.hetspeulderbos.nl/","name":"Camping het Speulderbos","tents":"yes"}},"74889595":{"location":[52.2287768,5.6709974],"ct":"NL","tp":"CR","ts":"2023-04-17T14:57:46Z","tX":528,"tY":337,"tags":{"capacity":"18","name":"De Herdershof","source":"3dShapes"}},"74890078":{"location":[52.2331462,5.6715645],"ct":"NL","tp":"CS","ts":"2022-08-27T14:23:11Z","tX":528,"tY":337,"tags":{"contact:website":"https://rusthoeve.nl","name":"Camping Rusthoeve","source":"3dShapes"}},"74913655":{"location":[52.1512544,5.7140603],"ct":"NL","tp":"CS","ts":"2024-06-24T08:38:50Z","tX":528,"tY":337,"tags":{"addr:city":"Kootwijkerbroek","addr:housenumber":"174","addr:postcode":"3774LD","addr:street":"Essenerweg","caravans":"yes","contact:email":"info@dehazendonk.com","contact:phone":"+31 342 441 792","contact:website":"https://www.dehazendonk.com/","name":"Boerderijcamping De Hazendonk","operator":"Ab en Stina van Donselaar","tents":"yes"}},"74929360":{"location":[52.2048131,5.650072],"ct":"NL","tp":"CS","ts":"2023-08-06T09:39:33Z","tX":528,"tY":337,"tags":{"caravans":"yes","email":"info@zevenbosch.nl","landcover":"grass","motorhome":"yes","name":"'t Zevenbosch","opening_hours":"Apr 1 - Sep 30","phone":"+31 342 470 101","sanitary_dump_station":"customers","shower":"yes","tents":"yes","toilets":"yes","website":"https://www.zevenbosch.nl/"}},"74952669":{"location":[52.1070574,5.7434002],"ct":"NL","tp":"CS","ts":"2023-08-19T08:05:53Z","tX":528,"tY":337,"tags":{"capacity:pitches":"25","caravans":"yes","email":"cobi.meijer61@gmail.com","landcover":"grass","name":"De Damakker","phone":"+31 318 591 625","shower":"yes","tents":"yes","toilets":"yes","website":"https://campingdedamakker.nl/"}},"74958668":{"location":[52.0950359,5.7513172],"ct":"NL","tp":"CS","ts":"2022-07-08T08:19:27Z","tX":528,"tY":337,"tags":{"contact:website":"https://www.hetmussennest-otterlo.nl/","name":"Het Mussennest","source":"3dShapes"}},"75470800":{"location":[52.075553,5.626171],"ct":"NL","tp":"CS","ts":"2023-05-30T12:18:35Z","tX":528,"tY":337,"tags":{"caravans":"yes","email":"info@wuitekamp.nl","landcover":"grass","name":"De Wuitekamp","opening_hours":"Apr 1- Sep 24","phone":"+31 318 482 904","shower":"yes","tents":"yes","toilets":"yes","website":"http://wuitekamp.nl/"}},"103199174":{"location":[52.1036101,5.7627587],"ct":"NL","tp":"CS","ts":"2024-11-08T12:04:49Z","tX":528,"tY":337,"tags":{"capacity:pitches":"39","caravans":"yes","email":"info@campingotterloendeveluwe.nl","name":"Camping Otterlo","opening_hours":"Apr 1 - Oct 31","phone":"+31 6 46132643","shower":"yes","tents":"yes","toilets":"yes","website":"https://campingotterloendeveluwe.nl/camping-otterlo/"}},"275411710":{"location":[52.1992204,5.8425827],"ct":"NL","tp":"CS","ts":"2020-01-17T08:47:38Z","tX":528,"tY":337,"tags":{"addr:city":"Hoog Soeren","addr:housenumber":"21","addr:postcode":"7346AL","addr:street":"Alverschotenseweg","contact:phone":"+31 6 53396912;+31 6 10921091","contact:website":"https://landgoedcampingwesterwolde.nl/","name":"Landgoedcamping Westerwolde"}},"277155373":{"location":[52.0864713,5.6684947],"ct":"NL","tp":"CS","ts":"2016-04-12T07:44:10Z","tX":528,"tY":337,"tags":{}},"277155384":{"location":[52.0889413,5.664454],"ct":"NL","tp":"CS","ts":"2017-04-04T00:33:03Z","tX":528,"tY":337,"tags":{}},"366779575":{"location":[52.1815246,5.6441858],"ct":"NL","tp":"CS","ts":"2023-08-05T17:09:39Z","tX":528,"tY":337,"tags":{"cabins":"yes","capacity:pitches":"25","caravans":"yes","drinking_water":"yes","email":"wemi.westdorp@gmail.com","fee":"yes","name":"'t Westdorp","phone":"+31 342 474 016","shower":"yes","tents":"yes","toilets":"yes","website":"https://www.twestdorp.nl/minicamping.htm"}},"398038153":{"location":[52.0931502,5.7451298],"ct":"NL","tp":"CS","ts":"2022-07-10T05:53:16Z","tX":528,"tY":337,"tags":{"contact:website":"https://www.woudegge.nl/kampeerboerderij-woudegge","name":"Kampeerboerderij De Woudegge","operator":"http://www.woudegge.nl/"}},"398790320":{"location":[52.0935525,5.7504927],"ct":"NL","tp":"CS","ts":"2016-02-19T20:05:42Z","tX":528,"tY":337,"tags":{"name":"Het Mussennest"}},"398803229":{"location":[52.0981118,5.7428462],"ct":"NL","tp":"CS","ts":"2023-05-30T12:18:56Z","tX":528,"tY":337,"tags":{"brand":"SVR","caravans":"yes","contact:website":"https://www.nieuwbeekdal.nl","email":"info@nieuwbeekdal.nl","mobile":"+31 6 23584572","name":"Nieuw Beekdal","phone":"+31 318 591 597","shower":"yes","tents":"yes","toilets":"yes"}},"398804199":{"location":[52.0993987,5.74655],"ct":"NL","tp":"CS","ts":"2022-07-08T08:19:27Z","tX":528,"tY":337,"tags":{"contact:website":"http://www.peppelenburg.nl","name":"Kampeerboerderij Pepelenburg"}},"399513317":{"location":[52.0988023,5.76412],"ct":"NL","tp":"CS","ts":"2024-07-22T20:21:07Z","tX":528,"tY":337,"tags":{"addr:city":"Otterlo","addr:housenumber":"2","addr:postcode":"6731SE","addr:street":"Haarweg","caravans":"yes","drinking_water":"yes","email":"jgduijs@xs4all.nl","name":"Minicamping De Kwekerij","phone":"+31 6 51837091","power_supply":"no","sanitary_dump_station":"yes","shower":"yes","tents":"yes","toilets":"yes","toilets:wheelchair":"no","website":"http://www.minicampingdekwekerij.nl","wheelchair":"limited"}},"400284024":{"location":[52.1042942,5.761805],"ct":"NL","tp":"CS","ts":"2023-09-02T15:19:30Z","tX":528,"tY":337,"tags":{"caravans":"yes","contact:website":"https://campingotterloendeveluwe.nl/camping-de-veluwe","drinking_water":"yes","email":"info@campingotterloendeveluwe.nl","name":"Camping De Veluwe","opening_hours":"Apr 1 - Oct 31","phone":"+31 6 46132643","shower":"yes","tents":"yes","toilets":"yes"}},"400296231":{"location":[52.1083817,5.7604366],"ct":"NL","tp":"CS","ts":"2023-07-18T14:18:56Z","tX":528,"tY":337,"tags":{"brand":"SVR","caravans":"yes","contact:website":"https://www.kikkergat.nl/","drinking_water":"yes","email":"contact@kikkergat.nl","internet_access":"wlan","internet_access:fee":"no","motorhome":"yes","name":"Het Kikkergat","phone":"+31 6 15143959","shower":"yes","start_date":"1991","tents":"yes","toilets":"yes"}},"401061357":{"location":[52.177505,5.7641818],"ct":"NL","tp":"CS","ts":"2019-12-07T12:48:40Z","tX":528,"tY":337,"tags":{"capacity":"23","fee":"yes","name":"Natuurkampeerterrein Zanderdennen","operator":"Staatsbosbeheer","website":"https://www.natuurkampeerterreinen.nl/terreinen/gelderland/zanderdennen/"}},"402047318":{"location":[52.0861683,5.7696385],"ct":"NL","tp":"CS","ts":"2023-05-13T14:37:27Z","tX":528,"tY":337,"tags":{"addr:city":"Otterlo","addr:housenumber":"100-102","addr:postcode":"6731BV","addr:street":"Arnhemseweg","cabins":"yes","caravans":"yes","contact:website":"https://www.europarcs.nl/vakantieparken/nederland/gelderland/de-wije-werelt","email":"kcc@europarcs.nl","leisure":"resort","name":"De Wije Werelt","operator":"EuroParcs","phone":"+31 88 070 8090","reservation":"yes","shower":"yes","tents":"yes","toilets":"yes"}},"449587004":{"location":[52.0936321,5.6607317],"ct":"NL","tp":"CS","ts":"2025-01-26T08:28:27Z","tX":528,"tY":337,"tags":{"cabins":"yes","caravans":"yes","email":"info@campingderimboe.com","internet_access":"wlan","internet_access:fee":"no","name":"Camping de Rimboe","phone":"+31 318 482 371","shower":"yes","static_caravans":"yes","tents":"yes","toilets":"yes","website":"https://www.campingderimboe.com"}},"481595549":{"location":[52.1329444,5.9439458],"ct":"NL","tp":"CR","ts":"2025-01-23T11:46:16Z","tX":528,"tY":337,"tags":{"addr:housenumber":"7","addr:street":"Spoekweg","capacity":"20","caravan_site":"motorhome_stopover","caravan_site:type":"holiday_village","charge":"33.70 EUR","charge:conditional":"26.20 EUR@ (\"low_season\")","fee":"yes","name":"Camperplaats Het Lierderholt","operator":"Het Lierderholt","phone":"+31 555061458","power_supply":"yes","reservation":"yes","sanitary_dump_station":"yes","toilets":"yes","water_point":"yes","website":"https://www.lierderholt.nl/accommodaties/kamperen/camperplaatsen"}},"514543659":{"location":[52.1344198,5.9648977],"ct":"NL","tp":"CS","ts":"2023-05-30T12:18:59Z","tX":528,"tY":337,"tags":{"addr:city":"Beekbergen","addr:housenumber":"45","addr:postcode":"7361TG","addr:street":"Kaapbergweg","email":"info@hertenhorst.nl","fax":"+31 55 506 1381","name":"Vakantiecentrum De Hertenhorst","phone":"+31 55 506 1343","website":"https://www.hertenhorst.nl/"}},"517669762":{"location":[52.0741354,5.6643916],"ct":"NL","tp":"CS","ts":"2022-06-26T18:10:02Z","tX":528,"tY":337,"tags":{"contact:website":"https://www.topparken.nl/recreatiepark-t-gelloo","name":"'t Gelloo"}},"583727973":{"location":[52.1317514,5.9498297],"ct":"NL","tp":"CS","ts":"2024-02-22T15:41:06Z","tX":528,"tY":337,"tags":{"campers":"yes","caravans":"yes","fee":"yes","internet_access":"wlan","name":"Vakantiepark Het Lierderholt","power_supply":"yes","sanitary_dump_station":"yes","tents":"yes","website":"https://www.lierderholt.nl/"}},"625764014":{"location":[52.1830858,5.9664801],"ct":"NL","tp":"CR","ts":"2021-06-12T10:52:14Z","tX":528,"tY":337,"tags":{"capacity":"4","fee":"no","maxstay":"72 hours"}},"630742421":{"location":[52.1854728,5.6253586],"ct":"NL","tp":"CR","ts":"2023-08-05T16:19:06Z","tX":528,"tY":337,"tags":{"caravans":"yes","contact:whatsapp":"+31 342 471 274","email":"info@ackersate.nl","fee":"yes","internet_access:fee":"yes","name":"Ackersate","operator":"Ardoer","phone":"+31 342 471 274","power_supply":"yes","sanitary_dump_station":"yes","shower":"yes","static_caravans":"yes","tents":"yes","toilets":"yes","website":"https://www.ackersate.nl/","wheelchair":"yes"}},"682048950":{"location":[52.2182977,5.7880092],"ct":"NL","tp":"CS","ts":"2022-05-12T14:55:18Z","tX":528,"tY":337,"tags":{"caravans":"yes","leisure":"resort","name":"Landal Rabbit Hill","operator":"Landal Greenparks","operator:wikidata":"Q835845","tents":"yes","website":"https://www.landal.nl/parken/rabbit-hill"}},"739818643":{"location":[52.2317686,5.7517829],"ct":"NL","tp":"CS","ts":"2025-03-08T13:51:07Z","tX":528,"tY":337,"tags":{"brand":"SVR","cabins":"yes","camp_site":"serviced","caravans":"yes","email":"info@kampeerboerderijmeerveld.nl","fee":"yes","mobile":"+31 6 83052721","name":"Camping Meerveld","phone":"+31 577 456 372","shower":"yes","start_date":"1972","tents":"yes","toilets":"yes","website":"https://campingmeerveld.nl/index.php/home/camping-meerveld/"}},"741766356":{"location":[52.2593632,5.7103202],"ct":"NL","tp":"CS","ts":"2023-05-30T12:19:04Z","tX":528,"tY":337,"tags":{"contact:email":"info@campingdebosrand.info","contact:phone":"+31 577 407 328","contact:website":"https://www.campingdebosrand.info/","name":"Recreatiepark De Bosrand"}},"753506451":{"location":[52.151112,5.7452918],"ct":"NL","tp":"CS","ts":"2023-05-30T12:19:04Z","tX":528,"tY":337,"tags":{"addr:city":"Kootwijk","addr:housenumber":"25","addr:postcode":"3775KB","addr:street":"Houtvester van 't Hoffweg","capacity":"192","caravans":"yes","dog":"yes","email":"info@harskamperdennen.nl","fee":"yes","internet_access":"wlan","internet_access:fee":"customers","internet_access:ssid":"Harskamperdennen","name":"Kampeerterrein de Harskamperdennen","openfire":"yes","opening_hours":"Mo-Su 09:00-21:00","payment:cash":"yes","payment:coins":"yes","payment:credit_cards":"yes","payment:maestro":"yes","payment:mastercard":"yes","payment:visa":"yes","phone":"+31 318 456 272","power_supply":"yes","reservation":"yes","sanitary_dump_station":"yes","shower":"yes","tents":"yes","toilets":"yes","website":"https://harskamperdennen.nl","wheelchair":"limited"}},"753638570":{"location":[52.2635229,5.7552062],"ct":"NL","tp":"CR","ts":"2025-01-23T14:55:03Z","tX":528,"tY":337,"tags":{"addr:city":"Uddel","addr:housenumber":"31","addr:postcode":"3888MP","addr:street":"Oudedijk","capacity":"8","caravan_site":"motorhome_stopover","caravan_site:type":"countryside","contact:email":"camperplaats@ouwediek.nl","contact:phone":"+31 577 402 116;+31 6 13176556","facebook":"https://www.facebook.com/p/Camperplaats-Ouwediek-100039036920742/","fee":"yes","name":"Camperplaats Ouwediek","phone":"+31 6 13176556","power_supply":"yes","power_supply:maxcurrent":"10","sanitary_dump_station":"yes","surface":"grass","water_point":"yes"}},"753638599":{"location":[52.232646,5.7079141],"ct":"NL","tp":"CS","ts":"2023-05-30T12:19:05Z","tX":528,"tY":337,"tags":{"addr:city":"Garderen","addr:housenumber":"34","addr:postcode":"3886PR","addr:street":"Hoge Boeschoterweg","caravans":"yes","contact:email":"info@dekalverhoeve.nl","contact:phone":"+31 577 460 960;+31 6 22130239;+31 6 27323057","contact:website":"https://www.dekalverhoeve.nl/","name":"Camping de Kalverhoeve","operator":"Arie en Heidi Pluim","tents":"yes"}},"753638614":{"location":[52.2291372,5.7284768],"ct":"NL","tp":"CS","ts":"2025-01-31T12:12:00Z","tX":528,"tY":337,"tags":{"addr:city":"Garderen","addr:housenumber":"27","addr:postcode":"3886MT","addr:street":"Hulakkerweg","caravans":"yes","contact:email":"info@campingdeboerenzwaluw.nl","contact:phone":"+31 577 462 070;+31 6 40472215","contact:website":"http://www.campingdeboerenzwaluw.nl/","internet_access":"yes","name":"Camping De Boerenzwaluw","operator":"Aart en Maartje Huisman","tents":"yes"}},"753638619":{"location":[52.2280063,5.7275773],"ct":"NL","tp":"CS","ts":"2023-05-30T12:19:05Z","tX":528,"tY":337,"tags":{"addr:city":"Garderen","addr:housenumber":"29","addr:postcode":"3886MS","addr:street":"Sleedoornweg","contact:email":"info@campingdereebok.nl","contact:phone":"+31 577 462 860","contact:website":"https://www.campingdereebok.nl/","name":"Minicamping De Reebok"}},"757674781":{"location":[52.2375675,5.6918976],"ct":"NL","tp":"CS","ts":"2024-04-28T18:01:05Z","tX":528,"tY":337,"tags":{"caravans":"yes","contact:email":"info@campingdewijdeblik.nl","contact:phone":"+31 577 461 201","contact:website":"http://www.campingdewijdeblik.nl/","name":"Camping de Wijde Blik","tents":"yes"}},"757674782":{"location":[52.2383277,5.6894828],"ct":"NL","tp":"CS","ts":"2024-04-28T18:01:05Z","tX":528,"tY":337,"tags":{"addr:city":"Garderen","addr:housenumber":"68-70","addr:postcode":"3886PG","addr:street":"Putterweg","caravans":"yes","contact:email":"hertshoorn@ardoer.com","contact:phone":"+31 577 461 529","contact:website":"https://hertshoorn.ardoer.com/","name":"Camping de Hertshoorn","tents":"yes"}},"780369772":{"location":[52.0969198,5.6426285],"ct":"NL","tp":"CS","ts":"2023-05-30T12:19:07Z","tX":528,"tY":337,"tags":{"cabins":"yes","caravans":"yes","leisure":"resort","motorhome":"yes","name":"Recreatiecentrum De Goudsberg","phone":"+31 318 482 386","shower":"yes","tents":"yes","toilets":"yes","website":"https://www.goudsberg.nl/"}},"883386443":{"location":[52.242598,5.7767264],"ct":"NL","tp":"CS","ts":"2021-09-26T07:45:38Z","tX":528,"tY":337,"tags":{"addr:city":"Uddel","addr:housenumber":"38","addr:postcode":"3888NH","addr:street":"Lageveldseweg","caravans":"yes","email":"info@campingwildzoom.nl","name":"Camping Wildzoom","phone":"+31 6 41333290","tents":"yes","website":"https://campingwildzoom.nl"}},"897956420":{"location":[52.130815,5.9425087],"ct":"NL","tp":"CS","ts":"2023-05-30T12:19:10Z","tX":528,"tY":337,"tags":{"addr:city":"Beekbergen","addr:housenumber":"55","addr:postcode":"7361TM","addr:street":"Spoekweg","cabins":"yes","caravans":"yes","email":"info@spoek.nl","name":"'t Spoek","phone":"+31 55 506 1423","tents":"yes","website":"https://www.spoek.nl"}},"949152558":{"location":[52.2619918,5.6777842],"ct":"NL","tp":"CS","ts":"2024-03-17T14:44:16Z","tX":528,"tY":337,"tags":{"addr:city":"Ermelo","addr:housenumber":"207","addr:postcode":"3852MK","addr:street":"Sprielderweg","backcountry":"no","cabins":"no","camp_site":"serviced","capacity:pitches":"43","caravans":"yes","dog":"yes","drinking_water":"yes","fee":"yes","group_only":"no","hot_water":"yes","internet_access":"no","kitchen":"no","maxlength":"8","motor_vehicle":"yes","motorhome":"yes","name":"Natuurkampeerterrein Drie","nudism":"no","openfire":"yes","opening_hours":"24/7","operator":"Staatsbosbeheer","permanent_camping":"no","picnic_table":"yes","power_supply":"yes","reservation":"yes","sanitary_dump_station":"customers","shower":"yes","static_caravans":"no","swimming_pool":"no","tents":"yes","toilets":"yes","washing_machine":"no","waste_disposal":"yes","website":"https://www.logerenbijdeboswachter.nl/natuurkampeerterreinen/drie"}},"975266164":{"location":[52.1877679,5.9057308],"ct":"NL","tp":"CS","ts":"2023-08-12T18:40:56Z","tX":528,"tY":337,"tags":{"access":"private","addr:city":"Ugchelen","addr:housenumber":"90","addr:street":"Hoog Buurloseweg","caravans":"yes","email":"ugchelen@ncc.nl","name":"De Sprengen","operator":"Nederlandse Caravan Club","phone":"+31 55 542 4961","tents":"no","website":"https://www.ncc.nl/campings/ugchelen-de-sprengen"}},"975269098":{"location":[52.1332475,5.8989661],"ct":"NL","tp":"CS","ts":"2021-08-21T16:55:59Z","tX":528,"tY":337,"tags":{"access":"private","addr:city":"Hoenderloo","addr:housenumber":"56","addr:postcode":"7351TJ","addr:street":"Koudebergweg","caravans":"no","name":"Scoutinglabelterrein Spelderholt","openfire":"yes","operator":"Scouting Nederland","power_supply":"no","scout":"yes","shower":"no","source":"BAG;local knowledge","source:date":"2014-02-11","tents":"yes","toilets":"no","website":"https://spelderholt.scouting.nl"}},"992431393":{"location":[52.1741701,5.8936959],"ct":"NL","tp":"CS","ts":"2024-06-02T12:08:21Z","tX":528,"tY":337,"tags":{"access":"private","addr:city":"Ugchelen","caravans":"no","dog":"leashed","drinking_water":"yes","internet_access":"no","name":"NTKC de Kooiberg","openfire":"no","power_supply":"no","shower":"no","tents":"yes","toilets":"no","website":"https://www.kampeerclub.nl/terrein/kampeerterrein-de-kooiberg"}},"1033953689":{"location":[52.2084639,5.958513],"ct":"NL","tp":"CR","ts":"2023-07-19T20:26:15Z","tX":528,"tY":337,"tags":{"fee":"yes"}},"1090992161":{"location":[52.1197808,5.9075673],"ct":"NL","tp":"CS","ts":"2023-05-30T12:19:14Z","tX":528,"tY":337,"tags":{"addr:city":"Hoenderloo","addr:housenumber":"35","addr:postcode":"7351TN","addr:street":"Woeste Hoefweg","cabins":"yes","caravans":"yes","contact:phone":"+31 55 378 1760","email":"info@pampel.nl","name":"De Pampel","phone":"+31 55 378 1760","shower":"yes","tents":"yes","toilets":"yes","website":"https://www.pampel.nl/"}},"1172469307":{"location":[52.1277427,5.7447665],"ct":"NL","tp":"CS","ts":"2023-06-13T05:54:48Z","tX":528,"tY":337,"tags":{"cabins":"yes","caravans":"yes","email":"info@deharscamp.nl","mobile":"+31 6 15085413","name":"De Harscamp","phone":"+31 318 456 202","shower":"yes","static_caravans":"yes","tents":"yes","toilets":"yes","website":"http://deharscamp.nl/"}},"1172484249":{"location":[52.1363078,5.7558265],"ct":"NL","tp":"CS","ts":"2023-05-30T12:19:16Z","tX":528,"tY":337,"tags":{"cabins":"yes","caravans":"yes","name":"'t Zandwater","phone":"+31 318 456 491","shower":"yes","static_caravans":"yes","tents":"yes","toilets":"yes","website":"https://www.zandwater.nl/"}},"1172503632":{"location":[52.1269583,5.9050585],"ct":"NL","tp":"CS","ts":"2023-05-30T12:19:16Z","tX":528,"tY":337,"tags":{"addr:city":"Hoenderloo","addr:housenumber":"60","addr:postcode":"7351BP","addr:street":"Miggelenbergweg","capacity:pitches":"275","caravans":"yes","contact:website":"https://www.hetschinkel.nl","email":"info@hetschinkel.nl","internet_access":"wlan","internet_access:fee":"no","name":"'t Schinkel","phone":"+31 55 378 1367","shower":"yes","tents":"yes","toilets":"yes"}},"1188172591":{"location":[52.0723663,5.6339108],"ct":"NL","tp":"CS","ts":"2023-07-17T18:00:21Z","tX":528,"tY":337,"tags":{"capacity:pitches":"11","caravans":"yes","email":"campingdeton@hotmail.com","name":"De Ton","phone":"+31 318 484 004","shower":"yes","tents":"yes","toilets":"yes","website":"http://www.campingdeton.nl/"}},"1194106685":{"location":[52.1209504,5.9198855],"ct":"NL","tp":"CS","ts":"2023-08-22T19:48:15Z","tX":528,"tY":337,"tags":{"caravans":"yes","email":"info@veluwshof.nl","name":"Camping 't Veluws Hof","opening_hours":"Apr - Oct","phone":"+31 55 378 1777","shower":"yes","tents":"yes","toilets":"yes","website":"https://www.veluwshof.nl/verblijf/camping"}},"1197495196":{"location":[52.1838881,5.6659464],"ct":"NL","tp":"CS","ts":"2025-01-20T00:59:12Z","tX":528,"tY":337,"tags":{"capacity:static_caravans":"130","caravans":"yes","name":"Camping Ruimzicht","shower":"yes","static_caravans":"yes","tents":"yes","toilets":"yes","website":"https://campingruimzichtstroe.nl/"}},"1197497690":{"location":[52.1875389,5.663603],"ct":"NL","tp":"CS","ts":"2025-02-14T18:00:15Z","tX":528,"tY":337,"tags":{"caravans":"yes","email":"info@meidoornstroe.nl","mobile":"+31 6 12634647","name":"De Meidoorn","phone":"+31 342 442 180","shower":"yes","static_caravans":"yes","tents":"yes","toilets":"yes","website":"https://meidoornstroe.nl/camping"}},"1199722333":{"location":[52.1821508,5.6440781],"ct":"NL","tp":"CS","ts":"2023-08-19T08:18:04Z","tX":528,"tY":337,"tags":{"capacity:pitches":"5","caravans":"yes","mobile":"+31 6 12571304","name":"Van Kerssen","phone":"+31 342 474 005","shower":"yes","tents":"yes","toilets":"yes"}},"1201594657":{"location":[52.2121784,5.7672263],"ct":"NL","tp":"CS","ts":"2023-08-24T06:30:39Z","tX":528,"tY":337,"tags":{"caravans":"yes","email":"info@caitwickerzand.nl","name":"Caitwickerzand","phone":"+31 577 456 295","shower":"yes","tents":"yes","toilets":"yes","website":"https://www.caitwickerzand.nl/kamperen"}},"1204503012":{"location":[52.2362397,5.7278675],"ct":"NL","tp":"CS","ts":"2023-09-02T19:55:15Z","tX":528,"tY":337,"tags":{"caravans":"yes","email":"info@solseberg.nl","landcover":"grass","name":"De Solse Berg","phone":"+31 577 723 245","shower":"yes","tents":"yes","toilets":"yes","website":"https://www.solseberg.nl/"}},"1247656044":{"location":[52.1293336,5.6509796],"ct":"NL","tp":"CR","ts":"2024-04-28T10:28:13Z","tX":528,"tY":337,"tags":{"capacity":"20","capacity:motorhome":"20","caravan_site":"motorhome_stopover","caravan_site:type":"farm","caravans":"no","charge":"17 EUR","dog":"leashed","email":"info@camperplaatsdehogevalk.nl","fee":"yes","internet_access":"wlan","internet_access:fee":"no","motorhome":"designated","name":"Camperplaats De Hoge Valk","phone":"+31 6 30454615","power_supply":"yes","power_supply:charge":"2 EUR","power_supply:fee":"yes","reservation":"yes","sanitary_dump_station":"yes","sanitary_dump_station:chemical_toilet":"yes","sanitary_dump_station:grey_water":"yes","shower":"yes","tents":"no","toilets":"yes","water_point":"yes","website":"https://camperplaatsdehogevalk.nl/"}},"1273366576":{"location":[52.1253562,5.8968217],"ct":"NL","tp":"CS","ts":"2024-04-17T13:44:03Z","tX":528,"tY":337,"tags":{"name":"Camping Wildrust"}},"1347149510":{"location":[52.0687719,5.6700849],"ct":"NL","tp":"CS","ts":"2024-12-29T19:38:14Z","tX":528,"tY":337,"tags":{"caravans":"no","leisure":"resort","name":"Bospark Ede","tents":"no","website":"https://www.topparken.nl/bospark-ede"}},"1950003789":{"location":[52.0676879,5.6699096],"ct":"NL","tp":"CS","ts":"2022-06-26T07:30:25Z","tX":528,"tY":337,"tags":{"contact:website":"https://www.topparken.nl/bospark-ede","name":"Bospark Ede"}},"1994418742":{"location":[52.0941519,5.7613293],"ct":"NL","tp":"CR","ts":"2023-05-27T20:42:55Z","tX":528,"tY":337,"tags":{"caravans":"permanent","chalets":"yes","fee":"yes","name":"Heidekamp","website":"https://www.heidekamp.nl"}},"2300231064":{"location":[52.0962984,5.7741937],"ct":"NL","tp":"CS","ts":"2022-06-26T07:30:25Z","tX":528,"tY":337,"tags":{"contact:website":"https://minicampingdebosrand.nl","name":"de Bosrand"}},"2300231065":{"location":[52.107029,5.7781159],"ct":"NL","tp":"CS","ts":"2022-06-26T07:30:25Z","tX":528,"tY":337,"tags":{"contact:website":"https://www.landgoedlindehof.nl","name":"de Lindehof"}},"2731679315":{"location":[52.1936106,5.67825],"ct":"NL","tp":"CS","ts":"2025-01-23T14:07:37Z","tX":528,"tY":337,"tags":{"addr:city":"Stroe","addr:housenumber":"53","addr:postcode":"3776PV","addr:street":"Tolnegenweg","dog":"yes","fee":"yes","internet_access":"wlan","name":"Jacobus Hoeve","phone":"+31 342 441 319","power_supply":"yes","sanitary_dump_station":"yes","static_caravans":"yes","website":"https://www.jacobus-hoeve.nl/"}},"2737013031":{"location":[52.2335742,5.768778],"ct":"NL","tp":"CS","ts":"2023-11-20T12:09:10Z","tX":528,"tY":337,"tags":{"addr:city":"Uddel","addr:housenumber":"12","addr:postcode":"3888NE","addr:street":"Buurtweg","email":"info@kleinemelaar.nl","name":"Klein Emelaar","phone":"+31 577 456 818","source":"BAG","source:date":"2014-02-11","website":"https://www.kleinemelaar.nl/"}},"2752624429":{"location":[52.0894204,5.6530684],"ct":"NL","tp":"CS","ts":"2015-02-11T13:03:22Z","tX":528,"tY":337,"tags":{"name":"Jeugd Kampeerterrein"}},"2765355165":{"location":[52.0760464,5.6494729],"ct":"NL","tp":"CS","ts":"2020-08-13T19:15:49Z","tX":528,"tY":337,"tags":{"addr:city":"Ede","addr:housenumber":"66","addr:postcode":"6718TB","addr:street":"Goorsteeg","name":"Scouting Kampeerterrein Belmont","scout":"yes","source":"BAG","source:date":"2014-03-24"}},"2767977414":{"location":[52.0881535,5.6688475],"ct":"NL","tp":"CS","ts":"2024-11-07T11:44:37Z","tX":528,"tY":337,"tags":{"addr:city":"Lunteren","addr:housenumber":"15","addr:postcode":"6741KP","addr:street":"Immenweg","name":"Landgoed de Scheleberg","source":"BAG","source:date":"2014-03-24","website:map":"https://cdn-cms.bookingexperts.nl/media/2635/59/lds___parkplattegrond___20242_d03de1d6-cab5-42b5-9178-7dafa0d923fe.jpg"}},"2768011524":{"location":[52.1082486,5.6250218],"ct":"NL","tp":"CS","ts":"2017-04-19T08:13:22Z","tX":528,"tY":337,"tags":{"addr:city":"Lunteren","addr:housenumber":"5","addr:postcode":"6741HD","addr:street":"Kijkveld","name":"Mini-camping De Kijkvelder","source":"BAG","source:date":"2014-03-24","website":"http://www.dekijkvelder.nl/"}},"2952837963":{"location":[52.1403181,5.7573374],"ct":"NL","tp":"CS","ts":"2023-05-13T15:29:08Z","tX":528,"tY":337,"tags":{"cabins":"yes","caravans":"yes","email":"info@demiddenveluwe.nl","name":"De Midden Veluwe","phone":"+31 318 456 491","reservation":"yes","shower":"yes","tents":"yes","toilets":"yes","website":"https://demiddenveluwe.nl/"}},"3143594461":{"location":[52.2428019,5.7091927],"ct":"NL","tp":"CS","ts":"2023-05-27T20:43:07Z","tX":528,"tY":337,"tags":{"addr:city":"Ermelo","addr:housenumber":"419","addr:postcode":"3852NJ","addr:street":"Garderenseweg","name":"Bungalowpark Kastelenhof","phone":"+31 577 461 386","source":"Lokale kennis","website":"https://www.kastelenhof.nl"}},"3824710562":{"location":[52.2173572,5.7903346],"ct":"NL","tp":"SD","ts":"2015-11-09T07:32:59Z","tX":528,"tY":337,"tags":{"name":"Chemisch Toilet"}},"5962696717":{"location":[52.1884272,5.6358116],"ct":"NL","tp":"CS","ts":"2022-06-26T07:30:25Z","tX":528,"tY":337,"tags":{"contact:website":"https://florinata.nl","name":"Park Florinata"}},"5962696718":{"location":[52.1887347,5.6364196],"ct":"NL","tp":"CS","ts":"2022-06-26T08:16:11Z","tX":528,"tY":337,"tags":{"contact:website":"https://beertjeshoeve.nl/","name":"Beertjeshoeve"}},"10892877887":{"location":[52.1139599,5.654855],"ct":"NL","tp":"CS","ts":"2023-05-13T10:12:00Z","tX":528,"tY":337,"tags":{"cabins":"yes","caravans":"yes","motorhome":"yes","name":"Stal 't Lage Veld","phone":"+31 6 45808398","shower":"yes","tents":"yes","toilets":"yes","website":"http://www.paardenvakantielunteren.nl/"}},"11091811116":{"location":[52.1741501,5.6269014],"ct":"NL","tp":"CS","ts":"2023-08-05T16:56:49Z","tX":528,"tY":337,"tags":{"caravans":"yes","email":"info@costadelzeumeren.nl","name":"Costa del Zeumeren","opening_hours":"Apr 1 - Oct 31","phone":"+31 6 20421106","shower":"yes","tents":"yes","toilets":"yes","website":"https://costadelzeumeren.nl/accomodaties/camping.html"}},"11093110977":{"location":[52.2021345,5.6534862],"ct":"NL","tp":"CS","ts":"2023-08-22T19:48:12Z","tX":528,"tY":337,"tags":{"caravans":"yes","email":"info@zanderij.nl","name":"De Zanderij","phone":"+31 342 471 343;+31 342 473 330","shower":"yes","static_caravans":"yes","tents":"yes","toilets":"yes","website":"https://www.zanderij.nl/"}},"11163613478":{"location":[52.2680441,5.7766816],"ct":"NL","tp":"CS","ts":"2023-09-02T20:27:08Z","tX":528,"tY":337,"tags":{"cabins":"yes","caravans":"yes","email":"info@weijdehorst.nl","mobile":"+31 6 49407982","name":"Weijdehorst","opening_hours":"Mo-Sa","phone":"+31 577 402 520","shower":"yes","tents":"yes","toilets":"yes","website":"https://www.weijdehorst.nl/"}},"11001001816":{"location":[52.1234317,5.6383032],"ct":"NL","tp":"CR","ts":"2024-03-28T17:18:18Z","tX":528,"tY":337,"tags":{"alt_name":"'t Veldhuiz","caravan_site":"motorhone_stopover","caravan_site:type":"farm_shop","charge":"10 EUR","fee":"yes","name":"De Groene Hoek","phone":"+31 318 461 209","power_supply":"yes","sanitary_dump_station":"customers","sanitary_dump_station:chemical_toilet":"yes","sanitary_dump_station:grey_water":"yes","surface":"grass","waterpoint":"yes"}},"5868968651":{"location":[52.2179597,5.7907962],"ct":"NL","tp":"SD","ts":"2018-08-30T17:39:54Z","tX":528,"tY":337,"tags":{"access":"customers"}},"7894696218":{"location":[52.2315489,5.7510583],"ct":"NL","tp":"SD","ts":"2020-09-10T18:51:04Z","tX":528,"tY":337,"tags":{"access":"customers","fee":"no","operator":"Camping Meerveld","sanitary_dump_station:round_drain":"yes"}},"11014493369":{"location":[52.1235031,5.6394249],"ct":"NL","tp":"SD","ts":"2023-06-29T18:38:43Z","tX":528,"tY":337,"tags":{"access":"customers","description":"if you are a customer of the farm shop, you may use this dump_station","fee":"no","sanitary_dump_station:basin":"yes","sanitary_dump_station:round_drain":"yes","waterpoint":"yes","wikimedia_commons":"File:De groene hook dump dtation.jpg"}},"11771907805":{"location":[52.2623777,5.6780795],"ct":"NL","tp":"SD","ts":"2024-03-29T16:19:51Z","tX":528,"tY":337,"tags":{"access":"customers","fee":"no","operator":"Staatsbosbeheer","water_point":"yes"}}}