{"15448963":{"location":[51.9732494,5.7734332],"ct":"NL","tp":"CS","ts":"2023-05-05T20:01:56Z","tX":528,"tY":338,"tags":{"brand":"SVR","cabins":"yes","capacity:cabins":"2","caravans":"yes","email":"info@deboersberg.nl","name":"Camping De Boersberg","phases":"+31 317 31 22 90","shower":"yes","tents":"yes","toilets":"yes","website":"https://www.deboersberg.nl/"}},"57403587":{"location":[51.9482532,5.7751616],"ct":"NL","tp":"CS","ts":"2022-07-09T14:38:57Z","tX":528,"tY":338,"tags":{"contact:website":"https://www.campingoverbetuwe.nl","name":"Landgoed Overbetuwe"}},"59211149":{"location":[51.910177,5.9441198],"ct":"NL","tp":"CS","ts":"2017-12-27T23:17:47Z","tX":528,"tY":338,"tags":{"source":"3dShapes"}},"59351894":{"location":[51.9732775,5.8463104],"ct":"NL","tp":"CS","ts":"2023-06-07T18:31:23Z","tX":528,"tY":338,"tags":{"cabins":"yes","capacity:cabins":"3","capacity:caravans":"25","capacity:static_caravans":"23","capacity:tents":"12","caravans":"yes","drinking_water":"yes","email":"contact@oosterbeeksrijnoever.nl","fee":"yes","internet_access":"wlan","motorhome":"yes","name":"Oosterbeeks Rijnoever","payment:cash":"yes","phone":"+31 26 333 3777","power_supply":"yes","shower":"yes","static_caravans":"yes","tents":"yes","toilets":"yes","website":"https://www.oosterbeeksrijnoever.nl","wheelchair":"yes"}},"59362583":{"location":[52.0083322,5.8007674],"ct":"NL","tp":"CS","ts":"2023-08-13T20:57:17Z","tX":528,"tY":338,"tags":{"caravans":"yes","contact:website":"https://www.camping-lindenhof.nl","drinking_water":"yes","landuse":"grass","name":"Camping Lindenhof","power_supply":"yes","shower":"yes","source":"AHN","tents":"yes","toilets":"yes"}},"75573291":{"location":[51.9971252,5.7388316],"ct":"NL","tp":"CS","ts":"2024-07-29T06:21:21Z","tX":528,"tY":338,"tags":{"addr:city":"Renkum","addr:housenumber":"5","addr:postcode":"6871NG","addr:street":"Quadenoord","name":"Natuurkampeerterrein Quadenoord","website":"https://quadenoord.nl/"}},"133407500":{"location":[51.9951868,5.8242029],"ct":"NL","tp":"CS","ts":"2019-03-28T11:53:43Z","tX":528,"tY":338,"tags":{"name":"AanVeluwe","website":"https://www.aanveluwe.nl/camping"}},"166656331":{"location":[51.8895706,5.9098861],"ct":"NL","tp":"CR","ts":"2020-05-06T09:34:58Z","tX":528,"tY":338,"tags":{"capacity":"10","internet_access":"no","note":"parking:camping_van","sanitary_dump_station":"no"}},"203956841":{"location":[51.8763167,5.804533],"ct":"NL","tp":"CS","ts":"2022-07-09T14:38:57Z","tX":528,"tY":338,"tags":{"contact:website":"https://campingdegrotealtena.nl","name":"de Grote Altena"}},"203957076":{"location":[51.8964218,5.7871112],"ct":"NL","tp":"CS","ts":"2019-06-19T14:28:53Z","tX":528,"tY":338,"tags":{"name":"De Hooge Brug"}},"402045552":{"location":[52.0389657,5.7333501],"ct":"NL","tp":"CS","ts":"2024-02-11T13:55:50Z","tX":528,"tY":338,"tags":{"addr:city":"Ede","addr:housenumber":"97","addr:postcode":"6718SM","addr:street":"Verlengde Arnhemseweg","cabins":"yes","capacity:cabins":"114","capacity:pitches":"77","caravans":"yes","email":"info@zuidginkel.nl","name":"Camping Zuid Ginkel","phone":"+31 318 611 740","shower":"yes","source":"local knowledge","source:date":"2018-09-24","tents":"yes","toilets":"yes","website":"https://www.zuidginkel.nl/"}},"616750250":{"location":[51.8414757,5.922453],"ct":"NL","tp":"CS","ts":"2023-05-30T12:19:01Z","tX":528,"tY":338,"tags":{"addr:city":"Persingen","addr:housenumber":"17","addr:postcode":"6575JA","addr:street":"Persingensestraat","contact:mobile":"+31 6 23508085","contact:website":"http://deweijdeblick.nl","email":"dorusjansen@live.nl","name":"Camping De Weijde Blick","operator":"Dorus Jansen","phone":"+31 24 684 1778"}},"640372879":{"location":[51.9733776,5.9158876],"ct":"NL","tp":"CR","ts":"2023-12-06T00:06:40Z","tX":528,"tY":338,"tags":{"capacity":"4","caravan_site:type":"harbour","charge":"9 EUR","fee":"yes","internet_access":"no","lit":"yes","name":"Camperplaats lage Nieuwe Kade","note":"closed to 2025. Check if it reopens","power_supply":"yes","sanitary_dump_station":"no","start_date":"2025","surface":"paving_stones","website":"https://www.visitarnhem.com/locaties/2456969798/camperplaats-lage-nieuwe-kade-arnhem","wheelchair":"yes","wikimedia_commons":"File:Motorhome Stopover Arnhem, Rijnkade, Netherlands-9350.jpg"}},"992558785":{"location":[51.9867664,5.7751872],"ct":"NL","tp":"CS","ts":"2021-10-16T10:59:44Z","tX":528,"tY":338,"tags":{"name":"Camping Gerritsen-van Dijk"}},"1013049182":{"location":[52.0258461,5.8563754],"ct":"NL","tp":"CS","ts":"2023-06-05T16:30:43Z","tX":528,"tY":338,"tags":{"caravans":"yes","drinking_water":"yes","name":"Arnhem Vakantiepark Oostappen","power_supply":"yes","shower":"yes","static_caravans":"yes","tents":"yes","toilets":"yes","website":"https://www.oostappenvakantieparken.nl/arnhem"}},"1013192662":{"location":[52.022317,5.839688],"ct":"NL","tp":"CS","ts":"2022-10-19T12:21:39Z","tX":528,"tY":338,"tags":{"name":"Nieuwe Maesberg","static_caravans":"yes","website":"https://www.denieuwemaesberg.nl"}},"1014427377":{"location":[52.0071323,5.8705803],"ct":"NL","tp":"CS","ts":"2024-09-06T13:14:12Z","tX":528,"tY":338,"tags":{"addr:city":"Arnhem","addr:housenumber":"257","addr:postcode":"6816PB","addr:street":"Bakenbergseweg","bar":"no","big_rigs":"yes","camp_type":"established","caravans":"yes","description":"Very well equipped campground with various large lawns with fixed places. Many facilities for children. Adjacent to forest with walking and cycling paths. Small kitchen. Separate fields for campers/caravans and tents.","dish_washing":"yes","fireplace":"no","general_room":"no","guarded":"no","internet_access":"wlan","internet_access:fee":"yes","kitchen":"yes","landuse":"grass","name":"Warnsborn","operator":"Felix en Margo Breukers","payment:credit_cards":"yes","pets":"yes","phone":"+31 26 442 3469","picnic_benches":"yes","power_supply":"yes","power_supply:voltage":"220","restaurant":"no","sanitary_dump_station":"yes","shower":"hot","source":"Survey","swimming_pool":"no","tents":"yes","toilets:disposal":"flush","toilets:position":"sitting","washing_machine":"yes","water:location":"central","water:quality":"potable","website":"https://www.campingwarnsborn.nl"}},"1127339822":{"location":[52.0053629,5.726078],"ct":"NL","tp":"CS","ts":"2023-05-13T16:32:03Z","tX":528,"tY":338,"tags":{"addr:city":"Bennekom","addr:housenumber":"27","addr:postcode":"6721MK","addr:street":"Panoramaweg","cabins":"yes","caravans":"yes","contact:website":"https://www.dedikkenberg.nl","email":"info@dedikkenberg.nl","leisure":"resort","name":"Recreatiepark De Dikkenberg","phone":"+31 318 414 627","shower":"yes","tents":"yes","toilets":"yes"}},"1133847081":{"location":[51.8887549,5.8745636],"ct":"NL","tp":"CR","ts":"2023-11-08T22:33:53Z","tX":528,"tY":338,"tags":{"addr:city":"Ressen","addr:housenumber":"4","addr:postcode":"6684DL","addr:street":"Woerdsestraat","email":"info@dewoerdt.nl","motorhome":"designated","name":"De Woerdt","phone":"+31 481 464 027","power_supply":"yes","shower":"yes","toilets":"yes","website":"https://dewoerdt.nl/campers"}},"1183470639":{"location":[51.9269197,5.6447439],"ct":"NL","tp":"CS","ts":"2023-06-19T18:33:27Z","tX":528,"tY":338,"tags":{"capacity:pitches":"18","caravans":"yes","email":"info@campinggraafsland.com","landcover":"grass","name":"Camping Graafsland","opening_hours":"Apr 1 - Aug 31","phone":"+31 6 84840587","shower":"yes","tents":"yes","toilets":"yes","website":"https://www.campinggraafsland.com"}},"1188173104":{"location":[51.9104342,5.8885566],"ct":"NL","tp":"CS","ts":"2023-11-16T14:33:20Z","tX":528,"tY":338,"tags":{"caravans":"yes","email":"info@degrotebredelaar.nl","landcover":"grass","name":"De Grote Bredelaar","opening_hours":"week 01-53","phone":"+31 6 30058899","shower":"yes","start_date":"2018","tents":"yes","toilets":"yes","website":"https://bredelaar.nl/camping/"}},"1193642276":{"location":[51.8489969,5.6870626],"ct":"NL","tp":"CS","ts":"2023-07-31T21:53:53Z","tX":528,"tY":338,"tags":{"cabins":"yes","capacity:pitches":"80","caravans":"yes","email":"info@campingbuitenhuis.nl","name":"Het Buitenhuis","phone":"+31 6 20055867","shower":"yes","tents":"yes","toilets":"yes","website":"https://campingbuitenhuis.nl/"}},"1304735956":{"location":[51.9609992,5.6591743],"ct":"NL","tp":"CR","ts":"2024-07-30T22:36:10Z","tX":528,"tY":338,"tags":{"capacity":"5","caravan_site":"motorhome_stopover","caravan_site:type":"town;harbour","caravans":"no","fee":"no","name":"Wageningen, parkeerplaats Rijnhaven","power_supply":"no","sanitary_dump_station":"no","seasonal":"no","water_point":"no"}},"2293690780":{"location":[51.9103709,5.9445477],"ct":"NL","tp":"CS","ts":"2022-07-15T06:29:49Z","tX":528,"tY":338,"tags":{"name":"Minicamping qklq","website":"https://www.gercamping.com"}},"2367565988":{"location":[51.9856207,5.6876396],"ct":"NL","tp":"CR","ts":"2023-01-18T17:57:46Z","tX":528,"tY":338,"tags":{"addr:city":"Wageningen","addr:housenumber":"7-9","addr:postcode":"6705DM","addr:street":"Zoomweg","cabins":"yes","campers":"yes","caravans":"yes","dog":"yes","fee":"yes","internet_access":"wlan","name":"de Wielerbaan","power_supply":"yes","tents":"yes","website":"https://www.topparken.nl/recreatiepark-de-wielerbaan","wheelchair":"yes","wikidata":"Q106232562"}},"2630329109":{"location":[51.8439493,5.6711309],"ct":"NL","tp":"CS","ts":"2014-01-20T20:25:16Z","tX":528,"tY":338,"tags":{"name":"De Tolbrug"}},"2764649442":{"location":[52.038931,5.8857688],"ct":"NL","tp":"CS","ts":"2022-05-08T22:14:57Z","tX":528,"tY":338,"tags":{"addr:city":"Arnhem","addr:housenumber":"3","addr:postcode":"6816TR","addr:street":"Deelenseweg","name":"Petersburg","source":"BAG","source:date":"2014-03-24"}},"2976382509":{"location":[51.8679491,5.6946913],"ct":"NL","tp":"CS","ts":"2024-09-20T11:40:05Z","tX":528,"tY":338,"tags":{"addr:city":"Winssen","addr:housenumber":"3","addr:postcode":"6645KR","addr:street":"Betenlaan","name":"Camping de Muk","source":"BAG","source:date":"2014-07-23","website":"http://www.campingdemuk.nl"}},"3016629358":{"location":[51.9683084,5.8354675],"ct":"NL","tp":"CS","ts":"2022-01-31T19:45:02Z","tX":528,"tY":338,"tags":{"addr:city":"Driel","addr:housenumber":"17","addr:postcode":"6665LL","addr:street":"Vogelenzangsestraat","capacity":"4","fee":"yes","name":"Camperplaats Vogelenzang","operator":"Boerderij Melkvee","power_supply":"yes","source":"BAG","source:date":"2014-08-14"}},"3017842312":{"location":[51.8987915,5.7689339],"ct":"NL","tp":"CS","ts":"2020-08-16T22:53:59Z","tX":528,"tY":338,"tags":{"addr:city":"Herveld","addr:housenumber":"133","addr:postcode":"6674AA","addr:street":"Tielsestraat","email":"minicampingachterthofke@gmail.com","internet_access":"wlan","name":"Minicamping Achter t Hofke","operator":"Minicamping Achter t Hofke","phone":"+31 6 49764342"}},"4935641923":{"location":[51.8622296,5.648236],"ct":"NL","tp":"CS","ts":"2023-05-27T20:43:02Z","tX":528,"tY":338,"tags":{"addr:city":"Bergharen","addr:housenumber":"3","addr:postcode":"6617AP","addr:street":"Galgenberg","name":"Camping De Morgenster","phone":"+31 487 532 305","website":"https://www.campingdemorgenster.nl"}},"5810317553":{"location":[51.8810458,5.7990478],"ct":"NL","tp":"CS","ts":"2020-06-18T18:29:06Z","tX":528,"tY":338,"tags":{"addr:city":"Slijk-Ewijk","addr:country":"NL","addr:housenumber":"34","addr:postcode":"6677MB","addr:street":"Waaldijk","name":"Camping \"De camping\"","name:en":"Nederlands","website":"https://campingdecamping.nl/"}},"6231267069":{"location":[52.0186128,5.8947059],"ct":"NL","tp":"CS","ts":"2023-05-27T20:41:58Z","tX":528,"tY":338,"tags":{"name":"Scouting de Waterberg","ref:scoutingnl":"124342","scout":"yes","website":"https://www.waterbergarnhem.nl"}},"8827520102":{"location":[51.87044,5.6464845],"ct":"NL","tp":"CS","ts":"2021-06-12T14:36:49Z","tX":528,"tY":338,"tags":{"description":"info@camping-maasenwaal.eu","name":"Camping Maas en Waal","website":"https://www.camping-maasenwaal.eu/"}},"10116086177":{"location":[52.029479,5.822969],"ct":"NL","tp":"CS","ts":"2023-05-27T20:42:25Z","tX":528,"tY":338,"tags":{"name":"Minicamping Kooningsveld","website":"https://www.camping-kooningsveld.nl"}},"11410799881":{"location":[52.0031395,5.7374167],"ct":"NL","tp":"CS","ts":"2023-12-11T21:57:58Z","tX":528,"tY":338,"tags":{"name":"De Bruidssuite (Natuurcamping Quadenoord groepsterrein)","website":"https://quadenoord.nl/"}},"7669157752":{"location":[51.954515,5.7306068],"ct":"NL","tp":"CR","ts":"2021-02-25T19:29:32Z","tX":528,"tY":338,"tags":{"capacity":"3","fee":"no","maxstay":"72 hours","name":"Camperplaats Heteren","website":"https://www.campercontact.com/nl/nederland/gelderland/heteren/4269/parking-heteren","wheelchair":"yes"}},"8348758772":{"location":[51.9578167,5.769613],"ct":"NL","tp":"CR","ts":"2021-01-22T10:51:42Z","tX":528,"tY":338,"tags":{"name":"Caravanstalling Lamers"}},"10678376296":{"location":[51.8859829,5.9500923],"ct":"NL","tp":"CR","ts":"2023-02-19T21:13:44Z","tX":528,"tY":338,"tags":{"addr:city":"Gendt","addr:housenumber":"64","addr:postcode":"6691EH","addr:street":"Zandvoort","capacity:caravans":"20","charge":"16","designation":"camper","fee":"yes","name":"Camperpark Lingewaard","note":"https://camperparklingewaard.nl/","payment:cash":"yes","payment:pin":"yes","start_date":"2017","tents":"no"}},"10857551685":{"location":[51.8805803,5.6739202],"ct":"NL","tp":"CR","ts":"2023-04-30T07:44:44Z","tX":528,"tY":338,"tags":{"name":"Uivernest"}},"12084044744":{"location":[51.935764,5.945363],"ct":"NL","tp":"CR","ts":"2024-07-30T22:49:40Z","tX":528,"tY":338,"tags":{"fee":"no","name":"Parking Huissen Molenweide","power_supply":"no","sanitary_dump_station":"no","tents":"no"}}}