{"10667708":{"location":[51.7820374,5.7932698],"ct":"NL","tp":"CS","ts":"2023-05-30T12:19:17Z","tX":528,"tY":339,"tags":{"addr:city":"Overasselt","addr:housenumber":"11","addr:postcode":"6611KG","addr:street":"Sint Walrickweg","capacity":"26","contact:mobile":"+31 6 20549091","fee":"yes","name":"Scoutingkampeerterrein St. Walrick","phone":"+31 24 622 1557","scout":"yes","source":"3dShapes","website":"https://www.stwalrick.nl"}},"10694462":{"location":[51.6708681,5.7352735],"ct":"NL","tp":"CS","ts":"2020-02-09T12:59:49Z","tX":528,"tY":339,"tags":{"landuse":"grass","name":"'t Peelvenneke"}},"76565061":{"location":[51.7954147,5.936026],"ct":"NL","tp":"CS","ts":"2023-05-30T12:18:35Z","tX":528,"tY":339,"tags":{"addr:city":"Groesbeek","addr:housenumber":"14","addr:postcode":"6561KH","addr:street":"Derdebaan","caravans":"yes","contact:mobile":"+31 6 13409551","email":"info@dehogehof.com","fee":"yes","name":"Mini-Camping 'De Hoge Hof'","phone":"+31 24 397 1225","tents":"yes","website":"https://dehogehof.com/en/home-2/"}},"79270056":{"location":[51.8026824,5.9232084],"ct":"NL","tp":"CS","ts":"2023-05-30T19:04:54Z","tX":528,"tY":339,"tags":{"addr:city":"Berg en Dal","addr:housenumber":"47","addr:postcode":"6571CH","addr:street":"Zevenheuvelenweg","name":"Camping Nederrijkswald","phone":"+31 24 684 1782","source":"3dShapes","tents":"yes","website":"https://www.nederrijkswald.nl"}},"79270907":{"location":[51.781019,5.9173284],"ct":"NL","tp":"CS","ts":"2023-09-03T21:36:37Z","tX":528,"tY":339,"tags":{"addr:city":"Groesbeek","addr:housenumber":"2","addr:postcode":"6561KA","addr:street":"Dominee J.A.Visscherlaan","contact:mobile":"+31 6 23868772","email":"logerenbijdeboswachter@staatsbosbeheer.nl","name":"Natuurkampeerterrein Groesbeek","operator":"Staatsbosbeheer","phone":"+31 30 697 7749","tents":"yes","url":"https://www.natuurkampeerterreinen.nl/terreinen/gelderland/groesbeek/","website":"https://www.logerenbijdeboswachter.nl/natuurkampeerterreinen/groesbeek"}},"79300357":{"location":[51.7038835,5.966444],"ct":"NL","tp":"CR","ts":"2022-08-19T12:11:41Z","tX":528,"tY":339,"tags":{"internet_access":"wlan","name":"Maas Camp","power_supply":"yes","sanitary_dump_station":"yes","source":"3dShapes","website":"http://maascamp.nl"}},"79324600":{"location":[51.7158143,5.8459902],"ct":"NL","tp":"CR","ts":"2024-06-25T11:09:54Z","tX":528,"tY":339,"tags":{"landuse":"recreation_ground","name":"Camperplaats Ons Plekske","note":"Reserveren is NIET mogelijk, mocht u er zeker van zijn , kunt u beter even bellen van te voren .","website":"https://campersplaats.nl/"}},"80625371":{"location":[51.6517785,5.7863844],"ct":"NL","tp":"CS","ts":"2023-07-09T11:23:12Z","tX":528,"tY":339,"tags":{"capacity:pitches":"14","caravans":"yes","email":"campingamans@gmail.com","landcover":"grass","name":"’t Amans","phone":"+31 6 57002128","shower":"yes","tents":"yes","toilets":"yes"}},"80630487":{"location":[51.6264148,5.9533601],"ct":"NL","tp":"CS","ts":"2021-12-08T05:19:31Z","tX":528,"tY":339,"tags":{"addr:city":"Sambeek","addr:housenumber":"18","addr:postcode":"5836CB","addr:street":"Hoogeindseweg","cabins":"yes","caravans":"yes","description":"Kleinschalige camping heeft 24 plaatsen en een pipowagen voor 2 personen!","email":"info@tbrenneke.nl","internet_access":"wlan","landuse":"grass","name":"Minicamping 't Brenneke","phone":"+31 6 40027208","tents":"yes","website":"https://www.tbrenneke.nl"}},"80631824":{"location":[51.6774549,5.6820844],"ct":"NL","tp":"CS","ts":"2024-11-02T13:54:22Z","tX":528,"tY":339,"tags":{"caravans":"yes","landcover":"grass","motorhome":"yes","name":"'t Oventje","phone":"+31 6 23460074","shower":"yes","source":"http://www.oventje.nl/","tents":"yes","toilets":"yes","website":"http://www.oventje.nl"}},"80637861":{"location":[51.6358411,5.8870498],"ct":"NL","tp":"CS","ts":"2023-08-19T07:35:21Z","tX":528,"tY":339,"tags":{"cabins":"yes","caravans":"yes","name":"'t Buuteland","phone":"+31 485 380 185","shower":"yes","static_caravans":"yes","tents":"yes","toilets":"yes","website":"https://www.buuteland.nl"}},"80640295":{"location":[51.6805992,5.6746171],"ct":"NL","tp":"CS","ts":"2023-05-30T12:21:42Z","tX":528,"tY":339,"tags":{"caravans":"yes","landcover":"grass","mobile":"+31 6 27451197","name":"Molenzicht","phone":"+31 486 453 343","shower":"yes","tents":"yes","toilets":"yes","website":"https://www.campingmolenzicht.nl/"}},"221072327":{"location":[51.7075758,5.8116696],"ct":"NL","tp":"CS","ts":"2023-05-30T20:10:44Z","tX":528,"tY":339,"tags":{"addr:city":"Beers NB","addr:housenumber":"13","addr:postcode":"5437NB","addr:street":"Millseweg","email":"info@barendonk.nl","fax":"+31 485 330 027","internet_access":"wlan","internet_access:fee":"no","name":"Landgoed De Barendonk","operator":"Liesbeth Hermanussen-Thijssen","phone":"+31 485 321 551","tents":"yes","website":"https://www.barendonk.nl","wheelchair":"yes"}},"228422169":{"location":[51.7002741,5.6423578],"ct":"NL","tp":"CS","ts":"2019-03-28T10:44:56Z","tX":528,"tY":339,"tags":{"access":"private","caravans":"yes","fee":"yes","name":"Naturistenvereniging De Peelrand","nudism":"designated","tents":"yes","website":"https://www.peelrand.org/"}},"240170788":{"location":[51.7551572,5.9254449],"ct":"NL","tp":"CS","ts":"2024-10-30T14:45:11Z","tX":528,"tY":339,"tags":{"addr:city":"Groesbeek","addr:housenumber":"6","addr:postcode":"6562KC","addr:street":"Klein Amerika","contact:mobile":"+31 6 23382169","email":"camping@opdenstuwwal.nl","name":"Camping Op den Stuwwal","operator":"Benny en Els Lamers","phone":"+31 24 397 8909","source":"aerial imagery","tents":"yes","website":"https://www.camping-groesbeek.nl"}},"264965341":{"location":[51.809636,5.9206399],"ct":"NL","tp":"CS","ts":"2023-09-03T08:27:55Z","tX":528,"tY":339,"tags":{"addr:city":"Berg en Dal","addr:housenumber":"57","addr:postcode":"6571CH","addr:street":"Zevenheuvelenweg","caravans":"yes","contact:mobile":"+31 6 30866539","drinking_water":"yes","email":"info@campingdegrooteflierenberg.nl","fee":"yes","internet_access":"wlan","name":"Camping De Groote Flierenberg","phone":"+31 24 684 1481","power_supply":"yes","shower":"yes","tents":"yes","toilets":"yes","website":"https://www.campingdegrooteflierenberg.nl/wp"}},"273331724":{"location":[51.7382259,5.956434],"ct":"NL","tp":"CR","ts":"2021-01-18T11:38:06Z","tX":528,"tY":339,"tags":{"addr:housenumber":"62","addr:street":"Zwarteweg","description":"3*24h, no service","maxstay":"3 days","name":"Camperplaats De Diepen","operator":"NKC (Nederlandse Kampeerauto Club)"}},"325991554":{"location":[51.7985779,5.9698871],"ct":"NL","tp":"CS","ts":"2023-05-30T19:05:19Z","tX":528,"tY":339,"tags":{"addr:city":"Groesbeek","addr:housenumber":"13","addr:postcode":"6561KV","addr:street":"Lagewald","caravans":"yes","dryer":"yes","email":"info@campinglagewald.nl","fee":"yes","kitchen":"yes","name":"Minicamping Lagewald","phone":"+31 24 397 1269","source":"www.lagewald.nl","tents":"yes","washing_machine":"yes","website":"https://campinglagewald.nl"}},"383578075":{"location":[51.6202333,5.7222429],"ct":"NL","tp":"CS","ts":"2023-08-25T10:22:55Z","tX":528,"tY":339,"tags":{"name":"De Noordkant","website":"https://www.campingdenoordkant.nl"}},"426273762":{"location":[51.6377135,5.8070467],"ct":"NL","tp":"CS","ts":"2023-09-17T15:50:14Z","tX":528,"tY":339,"tags":{"name":"Vakantiepark de Bergen","website":"https://www.eldoradoparken.nl/de-bergen"}},"430652443":{"location":[51.7339268,5.9130069],"ct":"NL","tp":"CS","ts":"2023-05-30T12:20:42Z","tX":528,"tY":339,"tags":{"addr:city":"Plasmolen","addr:housenumber":"18","addr:postcode":"6585AE","addr:street":"Witteweg","email":"info@eldorado-mook.nl","fee":"yes","name":"Camping Eldorado","phone":"+31 24 696 1914","website":"https://www.eldorado-mook.nl"}},"442109831":{"location":[51.8066114,5.9111109],"ct":"NL","tp":"CS","ts":"2023-05-30T19:05:03Z","tX":528,"tY":339,"tags":{"addr:city":"Berg en Dal","addr:housenumber":"10","addr:postcode":"6571CS","addr:street":"Postweg","description":"Camping in a forest","name":"Camping De But","operator":"Fam. Brouwer","phone":"+31 24 684 1634","tents":"yes","website":"https://www.campingdebut.nl"}},"544128202":{"location":[51.8161343,5.9359693],"ct":"NL","tp":"CS","ts":"2023-05-30T12:19:00Z","tX":528,"tY":339,"tags":{"addr:city":"Berg en Dal","addr:housenumber":"427","addr:postcode":"6572AZ","addr:street":"Oude Kleefsebaan","contact:website":"https://minicamping-wylerberg.nl","email":"info-camping-wylerberg@kpnmail.nl","fee":"yes","name":"Minicamping Wylerberg","operator":"Johan en Dorien Teunissen","phone":"+31 24 397 4851","tents":"yes"}},"574854195":{"location":[51.6377954,5.6735502],"ct":"NL","tp":"CS","ts":"2021-05-11T12:42:30Z","tX":528,"tY":339,"tags":{"name":"Pop up Camping Hemels"}},"593611538":{"location":[51.6958602,5.6563051],"ct":"NL","tp":"CS","ts":"2018-06-04T06:19:01Z","tX":528,"tY":339,"tags":{"name":"De Heische Tip"}},"617401616":{"location":[51.7306463,5.8352256],"ct":"NL","tp":"CR","ts":"2023-05-30T12:21:59Z","tX":528,"tY":339,"tags":{"addr:city":"Beers NB","addr:housenumber":"7","addr:postcode":"5437PC","addr:street":"Dommelsvoort","email":"info@achteruthuus.nl","name":"Naturistencamping ‘Achter ut Huus’.","nudism":"yes","phone":"+31 485 312 996"}},"623090860":{"location":[51.6998004,5.9535602],"ct":"NL","tp":"CS","ts":"2023-07-27T06:09:19Z","tX":528,"tY":339,"tags":{"addr:city":"Oeffelt","addr:housenumber":"8","addr:postcode":"5441PL","addr:street":"Veerweg","capacity:tents":"`40","email":"demaasvalleioeffelt@gmail.com","fee":"yes","internet_access":"yes","name":"Camping de Maasvallei","phone":"+31 6 13572066","tents":"yes","website":"https://www.campingdemaasvallei.nl"}},"692626919":{"location":[51.7980321,5.9496557],"ct":"NL","tp":"CS","ts":"2024-07-15T10:28:45Z","tX":528,"tY":339,"tags":{"addr:city":"Groesbeek","addr:housenumber":"4","addr:postcode":"6561KD","addr:street":"De Klos","email":"info@campingdeklos.nl","fee":"yes","name":"Minicamping De Klos","phone":"+31 6 22104640","tents":"yes","website":"https://campingdeklos.nl/"}},"717926564":{"location":[51.7261338,5.6337612],"ct":"NL","tp":"CS","ts":"2020-07-11T09:13:27Z","tX":528,"tY":339,"tags":{"addr:city":"Schaijk","addr:housenumber":"14","addr:postcode":"5374RK","addr:street":"Udensedreef","name":"Charme camping Hartje Groen","website":"https://www.hartjegroen.com"}},"768842265":{"location":[51.7841797,5.936799],"ct":"NL","tp":"CS","ts":"2024-01-08T23:53:54Z","tX":528,"tY":339,"tags":{"addr:city":"Groesbeek","addr:housenumber":"2a","addr:postcode":"6561KR","addr:street":"Wylerbaan","email":"vakantiepark@oudemolen.nl","fee":"yes","name":"Vakantiepark De Oude Molen","phone":"+31 24 397 1715","tents":"yes","website":"https://oudemolen.nl/"}},"768883163":{"location":[51.7715974,5.8214444],"ct":"NL","tp":"CS","ts":"2024-06-24T08:38:50Z","tX":528,"tY":339,"tags":{"addr:city":"Heumen","addr:housenumber":"46","addr:postcode":"6582BR","addr:street":"Vosseneindseweg","fee":"yes","name":"Camping Heumens Bos","phone":"+31 24 358 1481","tents":"yes","website":"https://www.heumensbos.nl/"}},"769142768":{"location":[51.7770167,5.9758015],"ct":"NL","tp":"CS","ts":"2023-05-30T12:19:06Z","tX":528,"tY":339,"tags":{"addr:city":"Groesbeek","addr:housenumber":"178","addr:postcode":"6562LV","addr:street":"Cranenburgsestraat","email":"info@bijonsingroesbeek.nl","name":"Camping Bij Ons","phone":"+31 24 355 5096","tents":"yes","website":"https://bijonsingroesbeek.nl/"}},"769154793":{"location":[51.7356791,5.9307239],"ct":"NL","tp":"CS","ts":"2023-05-30T12:20:45Z","tX":528,"tY":339,"tags":{"addr:city":"Plasmolen","addr:housenumber":"6","addr:postcode":"6586AL","addr:street":"Schildersweg","email":"info@degeuldert.nl","fee":"yes","name":"Camping De Geuldert","phone":"+31 24 696 2767","tents":"yes","website":"https://www.degeuldert.nl"}},"769405259":{"location":[51.7997269,5.74867],"ct":"NL","tp":"CS","ts":"2022-04-07T17:48:23Z","tX":528,"tY":339,"tags":{"addr:city":"Wijchen","addr:housenumber":"263","addr:postcode":"6603AA","addr:street":"Oosterweg","fee":"yes","name":"Camping Het Scharrelnest","phone":"+31 6 23599907","tents":"yes","website":"https://scharrelnest.nl/"}},"769438330":{"location":[51.7682073,5.8077778],"ct":"NL","tp":"CS","ts":"2020-02-03T18:27:32Z","tX":528,"tY":339,"tags":{"addr:city":"Overasselt","addr:housenumber":"6","addr:postcode":"6611KN","addr:street":"IJkelaarstraat","email":"info@campingdeeikelaar.nl","fee":"yes","name":"Camping de Eikelaar","phone":"+31 6 30424006","tents":"yes","website":"https://www.campingdeeikelaar.nl/"}},"769446871":{"location":[51.7778744,5.7082136],"ct":"NL","tp":"CS","ts":"2022-07-09T14:38:57Z","tX":528,"tY":339,"tags":{"addr:city":"Balgoij","addr:housenumber":"66","addr:postcode":"6613AK","addr:street":"Veldsestraat","contact:website":"https://moasland.nl","email":"info@moasland.nl","fee":"yes","name":"Camping Het Moasland","phone":"+31 6 11480967","tents":"yes"}},"769951259":{"location":[51.7511055,5.8286665],"ct":"NL","tp":"CS","ts":"2023-05-30T12:22:01Z","tX":528,"tY":339,"tags":{"addr:city":"Linden","addr:housenumber":"10","addr:postcode":"5439NG","addr:street":"Hardweg","email":"info@campinghetloo.nl","fee":"yes","internet_access":"wlan","internet_access:fee":"no","name":"Watersportcamping 't Loo","phone":"+31 485 312 003","tents":"yes","website":"https://campinghetloo.nl"}},"769964343":{"location":[51.7172654,5.7939343],"ct":"NL","tp":"CS","ts":"2023-05-30T12:22:01Z","tX":528,"tY":339,"tags":{"addr:city":"Beers NB","addr:housenumber":"11","addr:postcode":"5437ND","addr:street":"Broekkant","cabins":"yes","capacity":"42","caravans":"yes","email":"gosens.detienmorgen@hetnet.nl","fee":"yes","name":"Camping De Tienmorgen","operator":"Fam. Gosens","phone":"+31 485 312 997","shower":"yes","tents":"yes","toilets":"yes","website":"https://www.detienmorgen.nl"}},"769984374":{"location":[51.7335499,5.7734496],"ct":"NL","tp":"CS","ts":"2023-05-30T12:22:01Z","tX":528,"tY":339,"tags":{"addr:city":"Gassel","addr:housenumber":"4","addr:postcode":"5438NN","addr:street":"Kapellaan","capacity":"9","capacity:tents":"9","caravans":"no","contact:mobile":"+31 6 18763985","dog":"leashed","email":"info@gloeiend-groen.nl","fee":"yes","name":"Natuurkampeerterrein Gloeiend Groen","operator":"Lennard & Diana Mokveld","phone":"+31 6 28423799","static_caravans":"no","tents":"yes","website":"https://www.gloeiend-groen.nl/"}},"769988248":{"location":[51.7320371,5.731796],"ct":"NL","tp":"CS","ts":"2023-05-30T12:22:01Z","tX":528,"tY":339,"tags":{"addr:city":"Escharen","addr:housenumber":"1","addr:postcode":"5364MX","addr:street":"Boltsebroek","contact:mobile":"+31 6 10003337","fee":"yes","name":"Boerderijcamping “Het Boltsebroek”","operator":"Familie Van Melis","phone":"+31 486 475 831","tents":"yes","website":"https://www.boltsebroek.nl/"}},"769991585":{"location":[51.7334045,5.7052511],"ct":"NL","tp":"CS","ts":"2023-05-31T16:08:12Z","tX":528,"tY":339,"tags":{"addr:city":"Reek","addr:housenumber":"15","addr:postcode":"5375KN","addr:street":"Driehuizerweg","contact:mobile":"+31 6 33586630","email":"info@minicampingdriehuis.nl","fee":"yes","name":"Minicamping Driehuis","operator":"Familie de Bruin","phone":"+31 486 475 907","website":"http://www.minicampingdriehuis.com"}},"929690926":{"location":[51.7945166,5.7658943],"ct":"NL","tp":"CR","ts":"2022-11-01T10:56:42Z","tX":528,"tY":339,"tags":{"name":"Wighenerhorst","website":"https://www.recreatiepark-wighenerhorst.nl/"}},"1007283899":{"location":[51.7537982,5.8946128],"ct":"NL","tp":"CS","ts":"2021-11-29T09:47:57Z","tX":528,"tY":339,"tags":{"addr:city":"Mook","addr:housenumber":"15","addr:postcode":"6585KK","addr:street":"Avilaweg","caravans":"no","name":"Scoutingkampeerterrein 't Herrendal","scout":"yes","tents":"yes","website":"https://herrendal.scouting.nl/nl/kampterrein-herrendal"}},"1040877498":{"location":[51.6367554,5.6806498],"ct":"NL","tp":"CS","ts":"2023-05-30T12:22:03Z","tX":528,"tY":339,"tags":{"caravans":"yes","internet_access":"yes","landuse":"grass","name":"Hemels","operator":"SNAPSK B.V.","phone":"+31 85 401 0205","shower":"yes","tents":"yes","toilets":"yes","website":"https://campinghemels.nl/"}},"1074249565":{"location":[51.6625782,5.7756876],"ct":"NL","tp":"CS","ts":"2023-05-30T20:11:06Z","tX":528,"tY":339,"tags":{"name":"Camping Boszicht","website":"https://www.boszichtcamping.nl"}},"1080966541":{"location":[51.7827554,5.8924737],"ct":"NL","tp":"CS","ts":"2023-05-28T15:17:22Z","tX":528,"tY":339,"tags":{"addr:city":"Groesbeek","addr:housenumber":"30","addr:postcode":"6561KC","addr:street":"Biesseltsebaan","name":"Bungalowpark en Camping Cantecleer"}},"1108942692":{"location":[51.7920855,5.7787779],"ct":"NL","tp":"CS","ts":"2022-11-01T08:05:17Z","tX":528,"tY":339,"tags":{"name":"Bij de 3 linden"}},"1156779792":{"location":[51.7114616,5.6792441],"ct":"NL","tp":"CS","ts":"2023-07-21T17:46:49Z","tX":528,"tY":339,"tags":{"cabins":"yes","capacity":"25","caravans":"yes","drinking_water":"yes","landcover":"grass","name":"De Kreitsberg","phone":"+31 486 454 045","power_supply":"yes","shower":"yes","tents":"yes","toilets":"yes","website":"https://www.dekreitsberg.nl/","wheelchair":"limited"}},"1169681033":{"location":[51.6691663,5.795346],"ct":"NL","tp":"CS","ts":"2023-05-30T12:22:05Z","tX":528,"tY":339,"tags":{"capacity:pitches":"50","capacity:static_caravans":"100","caravans":"yes","email":"info@rossumstroost.nl","name":"van Rossum's Troost","phone":"+31 485 470 193","shower":"yes","static_caravans":"yes","tents":"yes","toilets":"yes","website":"http://www.rossumstroost.nl/"}},"1188426223":{"location":[51.7161776,5.9533793],"ct":"NL","tp":"CS","ts":"2023-07-09T11:19:23Z","tX":528,"tY":339,"tags":{"cabins":"yes","capacity:pitches":"14","caravans":"yes","contact:phone":"+31 6 19293865","contact:website":"https://www.campinghetzwammetje.nl/","contact:whatsapp":"+31 6 19293865","name":"’t Zwammetje","shower":"yes","tents":"yes","toilets":"yes"}},"1188429156":{"location":[51.6976925,5.846507],"ct":"NL","tp":"CS","ts":"2023-07-17T18:01:42Z","tX":528,"tY":339,"tags":{"cabins":"yes","capacity:cabins":"1","capacity:pitches":"10","caravans":"yes","email":"carien@cinquant.nl","landcover":"grass","name":"De Cinquant","phone":"+31 6 45927359","shower":"yes","tents":"yes","toilets":"yes","website":"https://www.cinquant.nl/camping/"}},"1202628722":{"location":[51.7599335,5.9250895],"ct":"NL","tp":"CS","ts":"2023-08-27T21:13:15Z","tX":528,"tY":339,"tags":{"addr:city":"Groesbeek","addr:housenumber":"3a","addr:postcode":"6562KC","addr:street":"Klein Amerika","cabins":"yes","caravans":"yes","fee":"yes","name":"Klein Amerika","phone":"+31 24 397 2005","shower":"yes","tents":"yes","toilets":"yes","website":"https://klein-amerika.nl/"}},"1205480379":{"location":[51.6279809,5.8598118],"ct":"NL","tp":"CS","ts":"2023-09-06T19:15:55Z","tX":528,"tY":339,"tags":{"caravans":"yes","drinking_water":"yes","name":"Ullingse Bergen","shower":"yes","tents":"yes","toilets":"yes","website":"https://www.ullingsebergen.nl/"}},"1303566290":{"location":[51.6237522,5.8525713],"ct":"NL","tp":"CS","ts":"2024-07-24T20:44:42Z","tX":528,"tY":339,"tags":{"addr:city":"Sint Anthonis","addr:housenumber":"1","addr:street":"Heideweg","caravans":"yes","description":"Alleen toegankelijk voor kampeerders met een Natuurkampeerkaart (Stichting De Groene Koepel).","dog":"yes","fee":"yes","name":"Natuurkampeerterrein De Vlagberg","nudism":"no","operator":"Staatsbosbeheer","payment:cards":"yes","payment:cash":"no","payment:contactless":"yes","permanent_camping":"no","reservation":"recommended","sanitary_dump_station":"customers","shower":"yes","static_caravans":"no","tents":"yes","toilets":"yes","website":"https://www.logerenbijdeboswachter.nl/natuurkampeerterreinen/de-vlagberg"}},"1805052335":{"location":[51.8120703,5.658965],"ct":"NL","tp":"CS","ts":"2012-06-28T13:51:21Z","tX":528,"tY":339,"tags":{}},"2048741889":{"location":[51.751799,5.9465465],"ct":"NL","tp":"CS","ts":"2020-11-02T08:52:23Z","tX":528,"tY":339,"tags":{"addr:city":"Groesbeek","addr:housenumber":"31","addr:postcode":"6562KG","addr:street":"Grafwegen","email":"info@dezoeteaagt.nl","fee":"yes","name":"Camping de Zoete Aagt","phone":"+31 6 40606415","tents":"yes","website":"https://www.dezoeteaagt.nl/"}},"2454216361":{"location":[51.7959486,5.9570807],"ct":"NL","tp":"CS","ts":"2023-05-27T20:42:49Z","tX":528,"tY":339,"tags":{"addr:city":"Groesbeek","addr:housenumber":"18","addr:postcode":"6561KR","addr:street":"Wylerbaan","name":"Camping Landgoed Den Heuvel","operator":"Gebroeders Daamen","phone":"+31 24 397 1828","source":"survey","website":"https://www.camping-landgoeddenheuvel.nl"}},"2803586400":{"location":[51.7828135,5.9392049],"ct":"NL","tp":"CS","ts":"2024-05-24T09:03:55Z","tX":528,"tY":339,"tags":{"addr:city":"Groesbeek","addr:housenumber":"21","addr:postcode":"6561AL","addr:street":"Cranenburgsestraat","name":"Camping de Lubert Groesbeek","source":"BAG","source:date":"2014-03-24","website":"https://www.campingdelubert.nl/"}},"2870857105":{"location":[51.6287093,5.8203866],"ct":"NL","tp":"CS","ts":"2024-01-14T00:18:22Z","tX":528,"tY":339,"tags":{"addr:city":"Landhorst","addr:housenumber":"1","addr:street":"Beugense Bossen","name":"De Beugense Peel","note":"Groepskampeerterrein","operator":"Staatsbosbeheer","source":"BAG","source:date":"2014-05-20","website":"https://www.logerenbijdeboswachter.nl/groepskampeerterreinen/de-bergense-peel"}},"2963479430":{"location":[51.7296437,5.7184273],"ct":"NL","tp":"CS","ts":"2023-12-18T07:45:31Z","tX":528,"tY":339,"tags":{"addr:city":"Escharen","addr:housenumber":"1","addr:postcode":"5364TZ","addr:street":"Reekschebergpad","contact:mobile":"+31 6 83440301","email":"info@bruinsbergen.nl","name":"Camping Bruinsbergen","operator":"Tonnie Dorussen","phone":"+31 486 473 366","source":"BAG","source:date":"2014-06-01","website":"https://www.bruinsbergen.nl/","wheelchair":"yes"}},"3124173326":{"location":[51.7467411,5.7118833],"ct":"NL","tp":"CR","ts":"2014-10-11T15:35:41Z","tX":528,"tY":339,"tags":{}},"4490799112":{"location":[51.6790641,5.7729505],"ct":"NL","tp":"CS","ts":"2023-05-28T06:39:04Z","tX":528,"tY":339,"tags":{"addr:city":"Mill","addr:housenumber":"5","addr:postcode":"5451GG","addr:street":"Nieuwenhofweg","name":"De Nieuwenhof","old_name":"Slapen tussen de schapen","source":"BAG","source:date":"2016-11-09;2014-08-09","website":"https://www.groepsaccommodatiedenieuwenhof.nl"}},"6522222248":{"location":[51.6818924,5.8364546],"ct":"NL","tp":"CS","ts":"2019-06-04T22:49:09Z","tX":528,"tY":339,"tags":{"name":"De Keuterij ( Mini-Camping )","website":"https://www.dekeuterij.nl/"}},"6522222249":{"location":[51.6892824,5.8267236],"ct":"NL","tp":"CS","ts":"2019-06-04T22:49:09Z","tX":528,"tY":339,"tags":{"name":"Het Wisbroek ( groepsaccomodatie en boerderijcamping )","website":"https://www.hetwisbroek.nl/"}},"6655434261":{"location":[51.8283651,5.68863],"ct":"NL","tp":"CS","ts":"2023-05-27T20:42:55Z","tX":528,"tY":339,"tags":{"addr:city":"Hernen","addr:housenumber":"9","addr:postcode":"6616AK","addr:street":"Dassenloop","camp_site":"serviced","caravans":"yes","dog":"yes","drinking_water":"yes","email":"info@minicampingzusenzus.nl","fee":"yes","internet_access":"yes","internet_access:fee":"no","motor_vehicle":"yes","name":"Minicamping Zus & Zus","phone":"+31 6 22017485","power_supply":"yes","sanitary_dump_station":"yes","tents":"yes","website":"https://www.minicampingzusenzus.nl"}},"7179860531":{"location":[51.7746936,5.9746366],"ct":"NL","tp":"CS","ts":"2022-06-06T10:27:07Z","tX":528,"tY":339,"tags":{"addr:city":"Groesbeek","addr:housenumber":"5","addr:postcode":"6562LG","addr:street":"Ketelstraat","email":"info@sommersbv.nl","fee":"yes","fixme":"exact position of the camping site unknown - aerial imagery of the address given on the website does not show any area that seems like a camp site.","name":"Camping de Leigraaf","phone":"+31 24 397 5945","tents":"yes","website":"https://www.campingdeleigraaf.nl/"}},"9343733252":{"location":[51.7225783,5.8409615],"ct":"NL","tp":"CS","ts":"2022-07-09T14:38:57Z","tX":528,"tY":339,"tags":{"addr:city":"Beers NB","addr:housenumber":"19","addr:postcode":"5437AG","addr:street":"Leuvert","contact:website":"https://campingdriehoekbeers.nl","fee":"yes","name":"D'n Driehoek"}},"11129546834":{"location":[51.6387945,5.8975087],"ct":"NL","tp":"CS","ts":"2023-08-20T08:27:14Z","tX":528,"tY":339,"tags":{"capacity:pitches":"15","caravans":"yes","email":"informatie@deesrand.nl","mobile":"+31 6 10592989","name":"De Esrand","phone":"+31 485 383 088","shower":"yes","tents":"yes","toilets":"yes","website":"https://www.deesrand.nl/"}},"8996811520":{"location":[51.7900498,5.717214],"ct":"NL","tp":"CR","ts":"2022-06-06T10:28:30Z","tX":528,"tY":339,"tags":{"name":"Camper erf Balgoy","phone":"+31 6 22378368","website":"https://bbbalgoy.nl/index.php/nl/"}},"9557401730":{"location":[51.7432851,5.8972141],"ct":"NL","tp":"CR","ts":"2022-03-06T09:32:49Z","tX":528,"tY":339,"tags":{"name":"Camperplaats Starthoeve"}},"10980676906":{"location":[51.7941256,5.8413484],"ct":"NL","tp":"CR","ts":"2023-06-16T13:02:13Z","tX":528,"tY":339,"tags":{"name":"Camperplaats Malden"}},"12153502154":{"location":[51.7412854,5.8036737],"ct":"NL","tp":"CR","ts":"2024-09-03T12:25:08Z","tX":528,"tY":339,"tags":{"capacity":"25","fee":"yes","internet_access":"yes","name":"CP Camperplaats De Kleine Geest.","opening_hours":"24/7","phone":"+31640510877","power_supply":"yes","sanitary_dump_station":"yes","stars":"5"}},"12072326810":{"location":[51.6243567,5.8523648],"ct":"NL","tp":"SD","ts":"2024-07-24T20:44:42Z","tX":528,"tY":339,"tags":{"access":"customers","sanitary_dump_station:basin":"no"}},"12072326814":{"location":[51.6243587,5.8528751],"ct":"NL","tp":"SD","ts":"2024-07-24T20:44:42Z","tX":528,"tY":339,"tags":{"access":"customers"}},"12154916387":{"location":[51.7403659,5.8042923],"ct":"NL","tp":"SD","ts":"2024-09-04T08:30:39Z","tX":528,"tY":339,"tags":{}}}