{"26859287":{"location":[51.429722,5.737222],"ct":"NL","tp":"CS","ts":"2007-03-28T17:18:58Z","tX":528,"tY":340,"tags":{"created_by":"JOSM","name":"Oostappen"}},"80630874":{"location":[51.600132,5.8942701],"ct":"NL","tp":"CR","ts":"2025-01-20T14:23:19Z","tX":528,"tY":340,"tags":{"capacity":"12","caravan_site":"motorhome_stopover","caravan_site:type":"countryside","caravans":"no","charge":"15 EUR","dog":"leashed","email":"mgeurts@rumaweb.nl","fee":"yes","internet_access":"wlan","internet_access:fee":"no","maxlength":"8","motorhome":"designated","name":"De Schaopswei","phone":"+31 6 13160604","power_supply:fee":"no","power_supply:maxcurrent":"10","reservation":"yes","sanitary_dump_station":"yes","sanitary_dump_station:chemical_toilet":"yes","sanitary_dump_station:fee":"no","sanitary_dump_station:grey_water":"yes","water_point":"yes","water_point:fee":"no","website":"https://deschoapswei.nl/"}},"83350391":{"location":[51.5794647,5.8818065],"ct":"NL","tp":"CS","ts":"2024-12-29T15:54:48Z","tX":528,"tY":340,"tags":{"name":"d'n Twist","source":"3dShapes","website":"https://www.dntwist.nl/"}},"83354813":{"location":[51.5813076,5.7921931],"ct":"NL","tp":"CS","ts":"2023-07-15T19:26:03Z","tX":528,"tY":340,"tags":{"cabins":"yes","capacity:cabins":"4","capacity:caravans":"4","capacity:tents":"10","name":"Living Outdoor","phone":"+31 6 49390978","website":"https://livingoutdoor-elsendorp.nl/"}},"83410287":{"location":[51.5149179,5.9102859],"ct":"NL","tp":"CS","ts":"2023-05-30T12:20:30Z","tX":528,"tY":340,"tags":{"addr:city":"Merselo","addr:housenumber":"43","addr:postcode":"5815CB","addr:street":"Haag","email":"info@delinderecreatie.nl","landuse":"grass","name":"Minicamping De Linde","phone":"+31 478 541 391","source":"3dShapes","website":"https://www.delinderecreatie.nl"}},"83462124":{"location":[51.4807966,5.7887185],"ct":"NL","tp":"CS","ts":"2023-08-05T09:29:20Z","tX":528,"tY":340,"tags":{"caravans":"yes","email":"info@campingdepeelbloem.nl","mobile":"+31 6 38928552","name":"De Peelbloem","phone":"+31 493 354 427","shower":"yes","tents":"yes","toilets":"yes","website":"https://campingdepeelbloem.nl/"}},"83472172":{"location":[51.5127853,5.6822417],"ct":"NL","tp":"CS","ts":"2023-08-19T14:57:41Z","tX":528,"tY":340,"tags":{"caravans":"yes","description":"Minicamping","drinking_water":"yes","email":"info@aldorrum.nl","motorhome":"yes","name":"Ald√∂rrum","opening_hours":"Apr 1 - Nov 1","phone":"+31 6 23356383","power_supply":"yes","shower":"yes","tents":"yes","toilets":"yes","website":"https://www.aldorrum.nl/nl/minicamping.html"}},"85795639":{"location":[51.4139361,5.6631102],"ct":"NL","tp":"CS","ts":"2023-08-19T09:59:42Z","tX":528,"tY":340,"tags":{"addr:city":"Lierop","addr:housenumber":"2","addr:postcode":"5715RX","addr:street":"Moorselseweg","landuse":"grass","name":"Natuurkampeerterrein De Lier","phone":"+31 6 23269945","source":"3dShapes","website":"https://www.natuurkampeerterreindelier.nl/"}},"183474059":{"location":[51.5123203,5.9457987],"ct":"NL","tp":"CS","ts":"2023-05-30T12:20:32Z","tX":528,"tY":340,"tags":{"addr:city":"Heide","addr:housenumber":"46","addr:postcode":"5812AR","addr:street":"Deurneseweg","email":"info@minicampingheide.nl","name":"Minicamping Heide","phone":"+31 478 585 031","website":"https://minicampingheide.nl"}},"392577644":{"location":[51.592511,5.6958469],"ct":"NL","tp":"CS","ts":"2019-07-02T12:59:33Z","tX":528,"tY":340,"tags":{"caravans":"yes","fee":"yes","name":"Boekels Ven","tents":"yes","website":"https://www.boekelsven.nl/"}},"399115308":{"location":[51.6041562,5.6516314],"ct":"NL","tp":"CS","ts":"2023-08-01T08:05:05Z","tX":528,"tY":340,"tags":{"caravans":"yes","email":"info@deweidevogel.nl","landcover":"grass","motorhome":"yes","name":"De Weidevogel","opening_hours":"Apr 1 - Oct 1","phone":"+31 6 21659286;+31 6 50463633","shower":"yes","tents":"yes","toilets":"yes","website":"https://www.deweidevogel.nl"}},"436249722":{"location":[51.522831,5.6912215],"ct":"NL","tp":"CS","ts":"2023-05-30T20:10:51Z","tX":528,"tY":340,"tags":{"name":"Grotelse Heide","website":"https://www.grotelseheide.nl"}},"623762939":{"location":[51.4811359,5.648192],"ct":"NL","tp":"CR","ts":"2025-01-20T13:57:02Z","tX":528,"tY":340,"tags":{"capacity":"6","caravan_site":"motorhome_stopover","caravan_site:type":"city;parking_lot","charge":"3.50 EUR/day","charge:conditional":"no@(night)","dog":"yes","fee":"yes","maxstay":"72 hours","name":"Camperplaats Helmond - Beatrixlaan","power_supply":"no","sanitary_dump_station":"no","surface":"asphalt","water_point":"no","website":"https://www.visitbrabant.com/nl/locaties/2391834467/camperplaats-helmond-beatrixlaan"}},"704462832":{"location":[51.5610748,5.6764985],"ct":"NL","tp":"CS","ts":"2023-05-30T20:11:05Z","tX":528,"tY":340,"tags":{"capacity":"25","caravans":"yes","internet_access":"wlan","name":"Dorpscamping Gemert","shower":"yes","tents":"yes","toilets":"yes","website":"https://dorpscampinggemert.nl"}},"760023409":{"location":[51.576725,5.7780973],"ct":"NL","tp":"CS","ts":"2023-05-30T20:10:52Z","tX":528,"tY":340,"tags":{"caravans":"yes","fee":"yes","name":"Elsendorp","nudism":"yes","shower":"yes","tents":"yes","toilets":"yes","website":"https://www.elsendorp.nl"}},"1011412275":{"location":[51.4802069,5.8839781],"ct":"NL","tp":"CS","ts":"2023-05-30T19:34:14Z","tX":528,"tY":340,"tags":{"addr:city":"Ysselsteyn","addr:housenumber":"3","addr:postcode":"5813AK","addr:street":"Zeilbergseweg","name":"Camping de Berkhorst","phone":"+31 478 541 256","website":"https://www.de-berkhorst.nl"}},"1033444427":{"location":[51.5346163,5.9324155],"ct":"NL","tp":"CS","ts":"2023-05-30T12:20:50Z","tX":528,"tY":340,"tags":{"addr:city":"Merselo","addr:housenumber":"4","addr:postcode":"5815EE","addr:street":"Den Tiel","email":"info@campingdentiel.nl","name":"Camping Den Tiel","phone":"+31 478 546 501","website":"https://www.campingdentiel.nl"}},"1189830942":{"location":[51.5136618,5.7237467],"ct":"NL","tp":"CS","ts":"2024-06-24T08:48:56Z","tX":528,"tY":340,"tags":{"caravans":"yes","email":"tolbrugbakel@telfort.nl","mobile":"+31 6 58981690","name":"De Tolbrug","operator":"familie Kanters-Rovers","phone":"+31 492 785 653","shower":"yes","tents":"yes","toilets":"yes","website":"https://www.detolbrug.com/"}},"1189832138":{"location":[51.4941139,5.7538428],"ct":"NL","tp":"CS","ts":"2025-03-04T19:12:50Z","tX":528,"tY":340,"tags":{"caravans":"yes","email":"info@dekuunderthoeve.nl","landcover":"grass","motorhome":"yes","name":"De Kuunderthoeve","phone":"+31 492 342 498","shower":"yes","tents":"yes","toilets":"yes","website":"https://www.dekuunderthoeve.nl/"}},"1189878935":{"location":[51.4310424,5.7151296],"ct":"NL","tp":"CS","ts":"2024-08-12T19:37:21Z","tX":528,"tY":340,"tags":{"cabins":"yes","caravans":"yes","email":"info@opdendiesdonk.nl","motorhome":"yes","name":"Op den Diesdonk","phone":"+31 6 44088751","shower":"yes","tents":"yes","toilets":"yes","website":"https://www.opdendiesdonk.nl/camping"}},"1189883183":{"location":[51.4356181,5.9590039],"ct":"NL","tp":"CS","ts":"2023-07-15T19:40:42Z","tX":528,"tY":340,"tags":{"caravans":"yes","email":"info@campingdesleng.nl","mobile":"+31 6 51729528","motorhome":"yes","name":"De Sleng","operator":"Wim en Wies van der Sterren","phone":"+31 77 464 1727","shower":"yes","tents":"yes","toilets":"yes"}},"1194924283":{"location":[51.4650596,5.8203308],"ct":"NL","tp":"CS","ts":"2023-08-22T19:50:13Z","tX":528,"tY":340,"tags":{"caravans":"yes","landcover":"grass","motorhome":"yes","name":"De Koehorn","name:nl":"De Koehorn","phone":"+31 6 25364115;+31 6 41728799","shower":"yes","tents":"yes","toilets":"yes","website":"https://www.dekoehorn.nl/"}},"1199678804":{"location":[51.5754686,5.9612131],"ct":"NL","tp":"CS","ts":"2023-08-22T19:50:13Z","tX":528,"tY":340,"tags":{"caravans":"yes","email":"info@aartsenhof.nl","name":"Aartsenhof","phone":"+31 6 22864690;+31 6 25055906","shower":"yes","tents":"yes","toilets":"yes","website":"https://aartsenhof.nl/"}},"1351199985":{"location":[51.4092398,5.9060532],"ct":"NL","tp":"CR","ts":"2025-05-11T16:58:20Z","tX":528,"tY":340,"tags":{"caravan_site":"motorhome_stopover","caravan_site:type":"countryside","email":"wvermeulen6@gmail.com","fee":"yes","name":"Camperplaats De Oude Hoeven","phone":"+31 6 83079705","power_supply":"yes","power_supply:fee":"yes","reservation":"yes","sanitary_dump_station":"yes","shower":"no","surface":"grass","toilets":"no","water_point":"yes"}},"1352921906":{"location":[51.5753513,5.9750946],"ct":"NL","tp":"CR","ts":"2025-01-20T14:03:29Z","tX":528,"tY":340,"tags":{"bakery_service":"yes","caravan_site":"motorhome_stopover","caravan_site:type":"lake","charge":"27.50 EUR","charge:conditional":"no@(Nov-Mar)","check_in":"13:00","check_out":"11:00","dog":"yes","dog:capacity":"2/pitch","dog:charge":"1 EUR","dog:fee":"yes","internet_access":"wlan","internet_access:fee":"no","name":"Camperpark 't Schaartven","power_supply":"yes","power_supply:charge":"4 EUR/day","power_supply:fee":"yes","reservation":"yes","sanitary_dump_station":"yes","sanitary_dump_station:chemical_toilet":"yes","sanitary_dump_station:fee":"no","sanitary_dump_station:grey_water":"yes","shower":"yes","shower:fee":"no","toilets":"yes","toilets:conditional":"no@(Nov-Mar)","toilets:seasonal":"yes","water_point":"yes","water_point:fee":"no","website":"https://www.campingschaartven.nl/"}},"1636948647":{"location":[51.5704603,5.7454088],"ct":"NL","tp":"CS","ts":"2023-05-28T06:39:33Z","tX":528,"tY":340,"tags":{"addr:city":"Elsendorp","addr:housenumber":"22","addr:postcode":"5424TA","addr:street":"Diepertseweg","email":"info@dekastanjes.nl","internet_access":"no","name":"De Kastanjes","phone":"+31 492 319 403","source":"BAG","source:date":"2014-08-13","website":"https://www.dekastanjes.nl"}},"1750696697":{"location":[51.4009364,5.673339],"ct":"NL","tp":"CS","ts":"2016-07-05T19:59:24Z","tX":528,"tY":340,"tags":{"internet_access":"wlan","name":"Somerense Vennen"}},"2275868424":{"location":[51.5823063,5.8394505],"ct":"NL","tp":"CS","ts":"2023-05-28T06:39:56Z","tX":528,"tY":340,"tags":{"name":"An 't Kanaal","website":"https://www.antknaal.nl"}},"2339775668":{"location":[51.526521,5.6801577],"ct":"NL","tp":"CS","ts":"2022-08-12T14:49:43Z","tX":528,"tY":340,"tags":{"addr:city":"Aarle-Rixtel","addr:housenumber":"4a","addr:postcode":"5735SM","addr:street":"De Biezen","email":"info@eco-touristfarm.com","name":"Eco-touristfarm De Biezen","phone":"+31 6 54324517","source":"BAG","source:date":"2014-06-05","website":"http://www.eco-touristfarm.com"}},"2735550832":{"location":[51.4970876,5.9014218],"ct":"NL","tp":"CS","ts":"2022-11-04T11:40:40Z","tX":528,"tY":340,"tags":{"addr:city":"Ysselsteyn","addr:housenumber":"145","addr:postcode":"5813AA","addr:street":"Deurneseweg","name":"Kampeerboerderij de Zwaluw","phone":"+31 478 541 392","source":"BAG","source:date":"2014-02-11"}},"2872053430":{"location":[51.4113306,5.9013442],"ct":"NL","tp":"CS","ts":"2023-05-28T06:38:44Z","tX":528,"tY":340,"tags":{"addr:city":"Helenaveen","addr:housenumber":"107","addr:postcode":"5759RD","addr:street":"Soemeersingel","email":"info@landgoed-julianahoeve.nl","name":"Landgoed Julianahoeve","phone":"+31 6 82941946","source":"BAG","source:date":"2014-05-20","website":"https://www.landgoed-julianahoeve.nl"}},"3208243014":{"location":[51.4093082,5.9060795],"ct":"NL","tp":"CR","ts":"2014-11-27T21:12:45Z","tX":528,"tY":340,"tags":{}},"3517352828":{"location":[51.5547084,5.7438434],"ct":"NL","tp":"CS","ts":"2018-02-05T06:38:30Z","tX":528,"tY":340,"tags":{"addr:city":"De Mortel","addr:housenumber":"65","addr:postcode":"5425RD","addr:street":"Breemhorstsedijk","leisure":"horse_riding","name":"Recreatiecentrum Het Zwarte Water","note":"Manege, groepsaccommodatie, chalets, camping","phone":"+31 492 319 292","sport":"equestrian","website":"https://www.hetzwartewater.nl"}},"7757613485":{"location":[51.5788889,5.88],"ct":"NL","tp":"CS","ts":"2020-07-27T19:37:43Z","tX":528,"tY":340,"tags":{"website":"https://www.dntwist.nl/"}},"10937225028":{"location":[51.5753073,5.9748254],"ct":"NL","tp":"CR","ts":"2023-05-29T16:21:40Z","tX":528,"tY":340,"tags":{"name":"Camperpark 't Schaartven"}}}