{"30883043":{"location":[51.3871568,5.6676795],"ct":"NL","tp":"CS","ts":"2024-08-25T13:56:37Z","tX":528,"tY":341,"tags":{"addr:city":"Someren","addr:housenumber":"1","addr:postcode":"5711RL","addr:street":"Kempenweg","internet_access":"yes","name":"Camping, De Vaarselhof","nudism":"yes","reservation":"yes","sanitary_dump_station":"yes","source":"BAG","source:date":"2016-12-25"}},"84222638":{"location":[51.3987787,5.8963974],"ct":"NL","tp":"CS","ts":"2023-05-30T12:21:42Z","tX":528,"tY":341,"tags":{"addr:city":"Helenaveen","addr:housenumber":"7","addr:postcode":"5759PH","addr:street":"Centurioweg","email":"depeelkant@outlook.com","name":"Camping De Peelkant","phone":"+31 493 539 493","website":"http://www.peelkant.com"}},"85733214":{"location":[51.3720838,5.7537226],"ct":"NL","tp":"CS","ts":"2024-12-29T16:01:03Z","tX":528,"tY":341,"tags":{"name":"Camping de Peel","website":"https://www.campingdepeel.nl/"}},"85751528":{"location":[51.3658068,5.699618],"ct":"NL","tp":"CS","ts":"2019-03-28T12:07:13Z","tX":528,"tY":341,"tags":{"internet_access":"wlan","landuse":"grass","name":"Pipowagen Camping Puur Genieten","sanitary_dump_station":"customers","source":"3dShapes","website":"https://www.pipowagencamping.nl/"}},"85794707":{"location":[51.3764838,5.6718342],"ct":"NL","tp":"CS","ts":"2023-09-01T14:00:15Z","tX":528,"tY":341,"tags":{"name":"Camping \"De Kuilen\"","phone":"+31 493 494 582","website":"https://www.campingdekuilen.nl/kampeerplek/"}},"101812762":{"location":[51.2089145,5.8277395],"ct":"NL","tp":"CS","ts":"2025-05-31T15:15:38Z","tX":528,"tY":341,"tags":{"addr:city":"Kelpen-Oler","addr:housenumber":"16","addr:postcode":"6037NR","addr:street":"Grathemerweg","caravans":"yes","email":"info@geelenhoof.nl","name":"Geelenhoof","phone":"+31 495 651 858","tents":"yes","website":"https://www.geelenhoof.nl"}},"103424444":{"location":[51.2196637,5.8510403],"ct":"NL","tp":"CS","ts":"2023-05-30T12:20:30Z","tX":528,"tY":341,"tags":{"addr:city":"Kelpen-Oler","addr:housenumber":"6","addr:postcode":"6037NV","addr:street":"Ensebroekerweg","email":"camping@knienseerd.nl","name":"Knienseerd","phone":"+31 495 651 922","website":"http://knienseerd.nl"}},"111124696":{"location":[51.3464294,5.6676405],"ct":"NL","tp":"CS","ts":"2023-06-24T13:58:14Z","tX":528,"tY":341,"tags":{"access":"customers","capacity":"25","dog":"yes","email":"camping@heksenheuvel.nl","fee":"yes","image":"https://heksenheuvel.nl/images/Fotos/Heksenheuvel4.jpg","internet_access":"wlan","name":"Minicamping Heksenheuvel","note":"Geopend van april t/m oktober","openfire":"yes","operator":"Minicamping Heksenheuvel","payment:cash":"yes","payment:contactless":"yes","payment:debit_cards":"yes","payment:electronic_purses":"yes","phone":"+31 6 21594262","power_supply":"yes","reservation":"recommended","sanitary_dump_station":"yes","shower":"yes","source":"pdok;local knowledge","toilets":"yes","website":"https://heksenheuvel.nl/"}},"111235248":{"location":[51.3199331,5.8539688],"ct":"NL","tp":"CS","ts":"2022-03-13T08:08:44Z","tX":528,"tY":341,"tags":{"addr:city":"Ospel","addr:housenumber":"6","addr:postcode":"6035SM","addr:street":"Visvijversweg","email":"scher767@planet.nl","landuse":"grass","name":"De Peelfluiter","phone":"+31 6 51585829","source":"3dShapes","website":"https://www.depeelfluiter.nl"}},"111256301":{"location":[51.2953688,5.7916501],"ct":"NL","tp":"CS","ts":"2023-07-15T18:10:43Z","tX":528,"tY":341,"tags":{"capacity:caravans":"12","capacity:tents":"7","caravans":"yes","email":"info@kampeerderijdekaaiewaaier.nl","name":"Kampeerderij De Kaaiewaaier","phone":"+31 6 42187003","shower":"yes","tents":"yes","toilets":"yes","website":"https://kampeerderijdekaaiewaaier.nl/"}},"111257239":{"location":[51.2602657,5.7705906],"ct":"NL","tp":"CS","ts":"2023-08-27T21:25:19Z","tX":528,"tY":341,"tags":{"alt_name":"Natuurcamping Klein Schoor","cabins":"yes","capacity:pitches":"15","caravans":"yes","email":"info@kleinschoor.nl","landcover":"grass","name":"Klein Schoor","phone":"+31 6 39361144","shower":"yes","tents":"yes","toilets":"yes","website":"https://www.kleinschoor.nl"}},"113140147":{"location":[51.1946406,5.7331397],"ct":"NL","tp":"CS","ts":"2023-03-25T21:35:18Z","tX":528,"tY":341,"tags":{"addr:city":"Stramproy","addr:housenumber":"15","addr:postcode":"6039RJ","addr:street":"Molenbroek","cabins":"yes","caravans":"yes","contact:facebook":"https://www.facebook.com/CampingOergezellig","contact:instagram":"https://www.instagram.com/natuurlijkmolenbroek/","description":"Kamperen en Logeren","email":"info@oergezellig.nl","name":"Oergezellig","phone":"+31 6 22348910","shower":"yes","source":"3dShapes","tents":"yes","toilets":"yes","website":"https://oergezellig.nl/"}},"113152914":{"location":[51.1922823,5.78759],"ct":"NL","tp":"CS","ts":"2023-05-30T12:20:31Z","tX":528,"tY":341,"tags":{"addr:city":"Haler","addr:housenumber":"5","addr:postcode":"6012RL","addr:street":"Hostertstraat","email":"info@straoterhof.nl","name":"Stroaterhof","phone":"+31 495 551 527","source":"3dShapes","website":"https://www.straoterhof.nl"}},"113178266":{"location":[51.2058303,5.9761036],"ct":"NL","tp":"CS","ts":"2020-11-04T19:06:27Z","tX":528,"tY":341,"tags":{"name":"Camping Hermans"}},"239934735":{"location":[51.1957954,5.9724814],"ct":"NL","tp":"CS","ts":"2023-05-30T12:20:34Z","tX":528,"tY":341,"tags":{"addr:city":"Roermond","addr:housenumber":"51","addr:postcode":"6041TN","addr:street":"Hatenboer","email":"hatenboer.roermond@online.nl","fax":"+31 475 310 113","name":"Camping Hatenboer","phone":"+31 475 336 727","power_supply":"yes","toilets:wheelchair":"yes","website":"https://www.hatenboerroermond.nl","wheelchair":"yes"}},"513245117":{"location":[51.2074884,5.9746586],"ct":"NL","tp":"CS","ts":"2023-05-30T12:20:43Z","tX":528,"tY":341,"tags":{"addr:city":"Roermond","addr:housenumber":"3","addr:postcode":"6041TK","addr:street":"De Weerd","name":"Camping van Ass Roermond","phone":"+31 475 581 283","website":"https://camping-van-ass.business.site"}},"867062530":{"location":[51.20914,5.9754501],"ct":"NL","tp":"CS","ts":"2022-03-15T06:11:17Z","tX":528,"tY":341,"tags":{"addr:city":"Roermond","addr:housenumber":"62","addr:postcode":"6041TL","addr:street":"De Weerd","email":"info@campingvelmans.com","name":"Camping Velmans","phone":"+49 172 2505813","website":"https://campingvelmans.com"}},"985429406":{"location":[51.3500851,5.9617476],"ct":"NL","tp":"CS","ts":"2023-05-30T12:20:48Z","tX":528,"tY":341,"tags":{"addr:city":"Panningen","addr:housenumber":"5","addr:postcode":"5981NX","addr:street":"Heide","cabins":"yes","caravans":"yes","email":"info@beringerzand.nl","name":"Beringerzand","phone":"+31 77 307 2095","tents":"yes","website":"https://www.beringerzand.nl"}},"998775013":{"location":[51.3404068,5.8693222],"ct":"NL","tp":"CS","ts":"2023-05-30T12:20:48Z","tX":528,"tY":341,"tags":{"addr:city":"Meijel","addr:housenumber":"10","addr:postcode":"5768PK","addr:street":"Steenoven","cabins":"yes","caravans":"yes","email":"info@simonshoek.nl","name":"Simonshoek","phone":"+31 77 466 1797","tents":"yes","website":"https://www.simonshoek.nl"}},"1006402206":{"location":[51.27068,5.9620685],"ct":"NL","tp":"CS","ts":"2023-05-30T12:20:48Z","tX":528,"tY":341,"tags":{"addr:city":"Neer","addr:housenumber":"15","addr:postcode":"6086PV","addr:street":"Brumholt","caravans":"yes","name":"Minicamping De Roeëjbes","phone":"+31 475 494 570","tents":"yes","website":"https://www.campingneer.nl"}},"1008295726":{"location":[51.3552221,5.9489262],"ct":"NL","tp":"CS","ts":"2025-05-29T22:24:16Z","tX":528,"tY":341,"tags":{"addr:city":"Grashoek","addr:housenumber":"2","addr:postcode":"5985PE","addr:street":"Houwenberg","caravans":"yes","email":"info@minicampingthaasje.nl","name":"Minicamping 't Haasje","phone":"+31 77 307 7638","tents":"yes","website":"https://www.minicampingthaasje.nl"}},"1008297316":{"location":[51.3755837,5.9331527],"ct":"NL","tp":"CS","ts":"2021-12-02T07:48:11Z","tX":528,"tY":341,"tags":{"addr:city":"Grashoek","addr:housenumber":"23","addr:postcode":"5985NP","addr:street":"Spiesberg","caravans":"yes","email":"peelweide@outlook.com","name":"Camping de Peelweide","phone":"+31 6 42197610","tents":"yes","website":"https://www.peelweide.nl"}},"1009107287":{"location":[51.2987934,5.9687219],"ct":"NL","tp":"CS","ts":"2023-05-30T12:20:48Z","tX":528,"tY":341,"tags":{"addr:city":"Egchel","addr:housenumber":"131","addr:postcode":"5987NC","addr:street":"Roggelseweg","caravans":"yes","email":"camping@vossenveld.nl","name":"Camping t'Vossenveld","phone":"+31 77 307 2386","tents":"yes","website":"https://www.vossenveld.nl"}},"1009233379":{"location":[51.3275299,5.9038318],"ct":"NL","tp":"CS","ts":"2024-11-22T08:38:55Z","tX":528,"tY":341,"tags":{"addr:city":"Meijel","addr:housenumber":"30","addr:postcode":"5768RH","addr:street":"Katsberg","caravans":"yes","email":"info@frerichsoord.nl","name":"Camping Frerichsoord","phone":"+31 77 466 1975","tents":"yes","website":"https://www.frerichsoord.nl"}},"1013941074":{"location":[51.2773664,5.9327812],"ct":"NL","tp":"CS","ts":"2025-06-11T15:03:54Z","tX":528,"tY":341,"tags":{"access":"customers","addr:city":"Roggel","addr:housenumber":"5","addr:postcode":"6088NT","addr:street":"Heldensedijk","alt_name":"vakantiepark de Leistert","caravans":"yes","dog":"yes","group_only":"no","name":"Camping & Buitenhof De Leistert","phone":"+31 475 493 030","shower":"yes","tents":"yes","toilets":"yes","toilets:wheelchair":"yes","website":"https://www.leistert.nl","website:map":"https://www.leistert.nl/assets/uploads/Leistert.nl/Plattegrond/LEIS1466_plattegrond_Leistert_Legenda-2025.jpg","wheelchair":"yes"}},"1019673364":{"location":[51.238026,5.6706639],"ct":"NL","tp":"CS","ts":"2023-05-30T12:20:49Z","tX":528,"tY":341,"tags":{"addr:city":"Weert","addr:housenumber":"2","addr:postcode":"6006VZ","addr:street":"Kruisbergenweg","email":"info@natuurkampeerterreinweert.nl","name":"Natuurkampeerterrein Wega","phone":"+31 85 002 2282","website":"https://www.natuurkampeerterreinweert.nl"}},"1026296982":{"location":[51.2825979,5.798201],"ct":"NL","tp":"CS","ts":"2023-05-30T12:20:49Z","tX":528,"tY":341,"tags":{"addr:city":"Nederweert-Eind","addr:housenumber":"8","addr:postcode":"6034RM","addr:street":"De Riet","email":"info@minicampingderiet.nl","name":"Minicamping De Riet","phone":"+31 495 633 415","website":"https://www.minicampingderiet.nl"}},"1029549059":{"location":[51.1977558,5.8781258],"ct":"NL","tp":"CS","ts":"2023-05-30T12:20:49Z","tX":528,"tY":341,"tags":{"addr:city":"Heel","addr:housenumber":"13","addr:postcode":"6097NL","addr:street":"De Peel","email":"receptie@vakantieparkheelderpeel.nl","name":"Heelderpeel","phone":"+31 77 477 7224","website":"https://www.oostappenvakantieparken.nl/heelderpeel"}},"1029966142":{"location":[51.2082163,5.6920273],"ct":"NL","tp":"CS","ts":"2022-02-10T08:18:18Z","tX":528,"tY":341,"tags":{"addr:city":"Weert","addr:housenumber":"10","addr:postcode":"6006RZ","addr:street":"Heltenbosdijk","email":"info@campingdedeyel.nl","name":"Camping de Deyel","phone":"+31 6 14841808","website":"https://campingdedeyel.nl"}},"1039810652":{"location":[51.1902347,5.8455244],"ct":"NL","tp":"CS","ts":"2022-03-13T07:21:00Z","tX":528,"tY":341,"tags":{"addr:city":"Grathem","addr:housenumber":"7","addr:postcode":"6096NE","addr:street":"Loorderstraat","email":"camping@peelhof.info","name":"Boerderijcamping Peelhof","phone":"+31 6 44858179","website":"http://www.peelhof.info"}},"1039965540":{"location":[51.2258575,5.7996227],"ct":"NL","tp":"CS","ts":"2023-05-30T12:20:50Z","tX":528,"tY":341,"tags":{"addr:city":"Ell","addr:housenumber":"10","addr:postcode":"6011RV","addr:street":"Kampstraat","email":"info@lemmenhof.nl","name":"Lemmenhof","phone":"+31 495 551 277","website":"https://www.lemmenhof.nl/"}},"1041830942":{"location":[51.2508634,5.8584856],"ct":"NL","tp":"CS","ts":"2023-05-30T12:20:50Z","tX":528,"tY":341,"tags":{"addr:city":"Heythuysen","addr:housenumber":"10","addr:postcode":"6093PR","addr:street":"Scheyvenhofweg","email":"camping@scheyvenhof.nl","name":"Camping Scheyvenhof","phone":"+31 475 723 232","source":"3dShapes","website":"https://campingscheyvenhof.nl"}},"1041988134":{"location":[51.2348979,5.6888864],"ct":"NL","tp":"CS","ts":"2023-05-30T12:20:51Z","tX":528,"tY":341,"tags":{"addr:city":"Weert","addr:housenumber":"2","addr:postcode":"6006TE","addr:street":"Grotesteeg","email":"info@svrweert.nl","name":"Lempkes Hoôf","phone":"+31 495 541 177","website":"http://www.svrweert.nl"}},"1042825623":{"location":[51.38628,5.9728976],"ct":"NL","tp":"CS","ts":"2023-05-30T12:20:51Z","tX":528,"tY":341,"tags":{"addr:city":"Sevenum","addr:housenumber":"5","addr:postcode":"5975MZ","addr:street":"Midden Peelweg","email":"info@schatberg.nl","name":"De Schatberg","phone":"+31 77 467 7777","website":"https://www.schatberg.nl"}},"1169724197":{"location":[51.3673162,5.8410372],"ct":"NL","tp":"CS","ts":"2023-05-07T20:07:03Z","tX":528,"tY":341,"tags":{"cabins":"yes","caravans":"yes","email":"info@wetland.nl","motorhome":"yes","name":"Camping Wetland","opening_hours":"Mar 1 - Oct 31","phone":"+31 6 47898047","shower":"yes","tents":"yes","toilets":"yes","website":"https://www.wetland.nl/"}},"1177965389":{"location":[51.2381687,5.7469655],"ct":"NL","tp":"CS","ts":"2023-06-07T22:40:09Z","tX":528,"tY":341,"tags":{"name":"Camperplaats Hoeve Lieshout"}},"1179764110":{"location":[51.2161693,5.7155977],"ct":"NL","tp":"CS","ts":"2023-11-03T02:26:15Z","tX":528,"tY":341,"tags":{"name":"Paluda naturistenterrein","nudism":"yes","website":"https://paludaweert.nl/"}},"1189867207":{"location":[51.3639395,5.6753948],"ct":"NL","tp":"CS","ts":"2024-06-25T11:07:24Z","tX":528,"tY":341,"tags":{"capacity:pitches":"20","caravans":"yes","email":"info@campingdesomerweij.nl","landuse":"grass","name":"De Somerweij","phone":"+31 6 20310877","shower":"yes","tents":"yes","toilets":"yes","website":"https://www.campingdesomerweij.nl/"}},"1352652106":{"location":[51.1835098,5.9647459],"ct":"NL","tp":"CR","ts":"2025-01-19T17:38:55Z","tX":528,"tY":341,"tags":{"caravan_site":"motorhome_stopover","caravan_site:type":"harbour","charge":"25 EUR","charge:conditional":"20 EUR @ (Nov-Mar)","fee":"yes","name":"Roermond City Marina","opening_hours":"00:00-24:00;Dec 24-Jan 02 off","power_supply":"yes","power_supply:charge":"5 EUR","power_supply:fee":"yes","reservation":"no","seasonal":"no","toilets":"yes","water_point":"yes","water_point:fee":"no","website":"https://www.hollandmarinas.com/"}},"1352791993":{"location":[51.254786,5.69265],"ct":"NL","tp":"CR","ts":"2025-02-13T22:12:55Z","tX":528,"tY":341,"tags":{"addr:city":"Weert","addr:housenumber":"30","addr:postcode":"6002RX","addr:street":"Suffolkweg Zuid","capacity":"28","caravan_site":"motorhome_stopover","caravan_site:type":"town","charge":"17.50 EUR","facebook":"https://www.facebook.com/camperplaatsweert/","fee":"yes","maxstay":"72 hours","name":"Camperplaats Weert","opening_hours":"24/7","phone":"+31 495 531 079","power_supply":"yes","power_supply:fee":"yes","sanitary_dump_station":"yes","sanitary_dump_station:chemical_toilet":"yes","sanitary_dump_station:fee":"no","sanitary_dump_station:grey_water":"yes","seasonal":"no","website":"http://www.camperplaatsweert.nl/"}},"1352890268":{"location":[51.3237192,5.8154422],"ct":"NL","tp":"CR","ts":"2025-01-20T11:02:06Z","tX":528,"tY":341,"tags":{"capacity":"10","caravan_site":"motorhome_stopover","caravan_site:type":"countryside","charge":"17 EUR","fee":"yes","internet_access":"yes","internet_access:fee":"no","name":"Camperplaats Anselberg","picnic_table":"yes","power_supply":"yes","power_supply:fee":"yes","power_supply:maxcurrent":"10","reservation":"no","sanitary_dump_station":"yes","sanitary_dump_station:chemical_toilet":"yes","sanitary_dump_station:grey_water":"yes","seasonal":"yes","shower":"yes","stars":"5","toilets":"yes","water_point":"yes","website":"https://www.anselberg.nl/"}},"1352891845":{"location":[51.3625553,5.7696011],"ct":"NL","tp":"CR","ts":"2025-01-21T14:11:49Z","tX":528,"tY":341,"tags":{"caravan_site":"motorhome_stopover","caravan_site:type":"camp_site","check_in":"14:00","check_out":"11:00","laundry":"yes","minstay":"2 nights","name":"Camping de Peelpoort","power_supply":"yes","power_supply:fee":"no","power_supply:maxcurrent":"6","shower":"yes","toilets":"yes","website":"https://www.campingdepeelpoort.nl/accommodaties/camping/standaardplaats_camperveld"}},"1352903033":{"location":[51.3211656,5.6369694],"ct":"NL","tp":"CR","ts":"2025-01-20T12:18:02Z","tX":528,"tY":341,"tags":{"caravan_site":"motorhome_stopover","caravan_site:type":"countryside","charge":"13.50 EUR","dog":"yes","fee":"yes","internet_access":"yes","name":"Camperplaats Maarheeze","permanent_camping":"no","power_supply":"yes","power_supply:maxcurrent":"6","sanitary_dump_station":"yes","sanitary_dump_station:chemical_toilet":"yes","sanitary_dump_station:fee":"no","sanitary_dump_station:grey_water":"yes","water_point":"yes","water_point:fee":"no","website":"https://www.camperplaatsmaarheeze.nl/"}},"2353443642":{"location":[51.3725657,5.7535096],"ct":"NL","tp":"CS","ts":"2013-06-20T12:24:51Z","tX":528,"tY":341,"tags":{"name":"Camping de Peel"}},"2851430125":{"location":[51.3506814,5.6880722],"ct":"NL","tp":"CS","ts":"2023-05-28T06:39:41Z","tX":528,"tY":341,"tags":{"addr:city":"Someren","addr:housenumber":"23","addr:postcode":"5712PN","addr:street":"Smulderslaan","capacity:persons":"100","email":"fam.greijmans@solcon.nl","name":"Kamp-Bivakboerderij Greijmans","operator":"Familie Greijmans","phone":"+31 493 491 827","source":"BAG","source:date":"2014-05-07","website":"https://www.kamp-bivakboerderij-greijmans.nl"}},"3199801968":{"location":[51.2546977,5.6928169],"ct":"NL","tp":"CR","ts":"2014-11-22T11:34:00Z","tX":528,"tY":341,"tags":{"addr:city":"Weert","addr:housenumber":"30","addr:postcode":"6002RX","addr:street":"Suffolkweg Zuid","name":"Camperplaats Weert"}},"3450070147":{"location":[51.2104332,5.9757315],"ct":"NL","tp":"CS","ts":"2015-04-11T06:56:41Z","tX":528,"tY":341,"tags":{"name":"Camping Niessen"}},"3556703566":{"location":[51.3615769,5.7701871],"ct":"NL","tp":"CS","ts":"2015-05-29T17:45:40Z","tX":528,"tY":341,"tags":{"name":"Camping de Peelpoort"}},"3556705411":{"location":[51.3612017,5.7700047],"ct":"NL","tp":"CR","ts":"2019-03-28T10:34:18Z","tX":528,"tY":341,"tags":{"name":"Camping de Peelpoort","website":"https://www.campingdepeelpoort.nl/"}},"12254617483":{"location":[51.1849251,5.6286745],"ct":"BE","tp":"CR","ts":"2025-01-26T01:04:47Z","tX":528,"tY":341,"tags":{"caravan_site":"motorhome_stopover","caravan_site:type":"countryside","charge":"15 EUR","fee":"yes","internet_access":"wlan","internet_access:fee":"customers","maxstay":"3 nights","name":"De Luyshoeve","power_supply":"yes","power_supply:fee":"no","sanitary_dump_station":"no","water_point":"yes","water_point:fee":"no","website":"https://luyshoeve.be/"}},"4708306351":{"location":[51.1922741,5.9493562],"ct":"NL","tp":"CS","ts":"2022-11-04T11:44:43Z","tX":528,"tY":341,"tags":{"addr:city":"Roermond","addr:housenumber":"1","addr:postcode":"6041TR","addr:street":"Oolderhuuske","email":"info@oolderhuuske.nl","name":"Resort Marina Oolderhuuske","phone":"+31 475 588 686","source":"BAG","source:date":"2017-02-27"}},"9887705903":{"location":[51.2607322,5.7929048],"ct":"NL","tp":"CS","ts":"2022-07-14T16:11:44Z","tX":528,"tY":341,"tags":{"access":"yes","addr:city":"Nederweert-Eind","addr:housenumber":"2a","addr:street":"Banendijk","name":"Dagcamping De Houtsberg","operator":"Stichting Limburgs Landschap"}},"10699325915":{"location":[51.3581285,5.9278447],"ct":"NL","tp":"CS","ts":"2023-02-28T11:48:32Z","tX":528,"tY":341,"tags":{"addr:city":"Grashoek","addr:housenumber":"9","addr:postcode":"5985ND","addr:street":"Ontginningsweg","name":"Camping de Torenvalk","website":"http://www.campingdetorenvalk.nl/"}},"6188040389":{"location":[51.1834789,5.9649086],"ct":"NL","tp":"CR","ts":"2021-05-21T21:38:53Z","tX":528,"tY":341,"tags":{"name":"Roermond City Marina"}},"9463827475":{"location":[51.3212658,5.6364155],"ct":"NL","tp":"CR","ts":"2022-01-31T18:13:24Z","tX":528,"tY":341,"tags":{"charge":"13,5","fee":"yes","internet_access":"yes","name":"Camperplaats Maarheeze","permanent_camping":"no","power_supply":"yes","sanitary_dump_station":"yes","website":"https://www.camperplaatsmaarheeze.nl/"}},"12148186547":{"location":[51.3236812,5.815009],"ct":"NL","tp":"CR","ts":"2024-08-31T18:21:58Z","tX":528,"tY":341,"tags":{"fee":"yes","internet_access":"yes","internet_access:fee":"no","name":"Anselberg CP","power_supply":"yes","reservation":"no","sanitary_dump_station":"yes","stars":"5"}},"8464363733":{"location":[51.3837029,5.9752269],"ct":"NL","tp":"SD","ts":"2021-02-27T19:31:32Z","tX":528,"tY":341,"tags":{}},"12135605794":{"location":[51.3870689,5.6669095],"ct":"NL","tp":"SD","ts":"2024-08-25T12:19:53Z","tX":528,"tY":341,"tags":{}},"12148186540":{"location":[51.3235806,5.8151586],"ct":"NL","tp":"SD","ts":"2025-01-20T11:02:06Z","tX":528,"tY":341,"tags":{"sanitary_dump_station:chemical_toilet":"yes"}},"12148186541":{"location":[51.3236498,5.8150908],"ct":"NL","tp":"SD","ts":"2025-01-20T11:02:06Z","tX":528,"tY":341,"tags":{"sanitary_dump_station:grey_water":"yes"}}}