{"3360896":{"location":[51.0580942,5.6275641],"ct":"BE","tp":"CS","ts":"2023-08-25T09:46:12Z","tX":528,"tY":342,"tags":{"backcountry":"no","cabins":"yes","caravans":"yes","drinking_water":"yes","email":"zavelbos@limburgcampings.be","internet_access":"wlan","internet_access:fee":"no","motor_vehicle":"yes","motorhome":"yes","name":"Camping Zavelbos","phone":"+32 89 75 81 46","power_supply":"yes","shower":"yes","static_caravans":"yes","tents":"yes","toilets":"yes","washing_machine":"yes","website":"https://www.limburgcampings.be/zavelbos/"}},"75403063":{"location":[50.9765287,5.6599255],"ct":"BE","tp":"CS","ts":"2024-05-02T17:31:09Z","tX":528,"tY":342,"tags":{"addr:city":"Maasmechelen","addr:country":"BE","addr:housenumber":"280","addr:postcode":"3630","addr:street":"Joseph Smeetslaan","email":"info@campingsalamander.be","name":"Camping Salamander","phone":"+32 89 76 49 42","power_supply":"yes","sanitary_dump_station":"customers","website":"https://www.campingsalamander.be/"}},"75411777":{"location":[51.0721013,5.8893968],"ct":"NL","tp":"CS","ts":"2023-05-30T12:20:28Z","tX":528,"tY":342,"tags":{"addr:city":"Susteren","addr:country":"NL","addr:housenumber":"1","addr:postcode":"6114RR","addr:street":"Hommelweg","area":"yes","email":"infohommelhof@ziggo.nl","name":"HommelHof","phone":"+31 46 449 5656","website":"https://www.hommelhof.nl"}},"100575127":{"location":[51.1325152,5.7266511],"ct":"BE","tp":"CS","ts":"2024-06-24T12:58:03Z","tX":528,"tY":342,"tags":{"addr:housenumber":"1","addr:postcode":"3640","addr:street":"Batvendijk","alt_name":"Camping Batven","landuse":"residential","name":"Kampeerverblijfpark Batven","website":"https://www.batven.be/"}},"100575128":{"location":[51.1322349,5.7530224],"ct":"BE","tp":"CS","ts":"2023-05-09T17:20:46Z","tX":528,"tY":342,"tags":{"addr:housenumber":"14","addr:postcode":"3640","addr:street":"Steyvershofstraat","name":"Camping Papillon","old_name":"Geerensheide","website":"https://papillonkinrooi.be"}},"113274197":{"location":[51.1117811,5.8059275],"ct":"BE","tp":"CS","ts":"2025-02-11T14:14:53Z","tX":528,"tY":342,"tags":{"name":"Kampeerverblijfplaats Meinekom"}},"113389379":{"location":[51.008961,5.8013995],"ct":"NL","tp":"CS","ts":"2022-03-13T16:52:19Z","tX":528,"tY":342,"tags":{"access":"private","addr:city":"Geleen","addr:housenumber":"100","addr:postcode":"6167RK","addr:street":"Swentiboldweg","capacity":"120","name":"Naturistenvereniging Atlanta","nudism":"yes","phone":"+31 6 42784389","source":"3dShapes","website":"https://atlanta-geleen.nl"}},"114113602":{"location":[50.9901606,5.9584667],"ct":"DE","tp":"CS","ts":"2019-08-25T10:10:56Z","tX":528,"tY":342,"tags":{"caravans":"no","group_only":"yes","maxtents":"50","name":"Jugendzeltplatz \"Rodebachtal\"","tents":"yes"}},"213121119":{"location":[51.0843756,5.6527472],"ct":"BE","tp":"CS","ts":"2023-02-08T15:15:45Z","tX":528,"tY":342,"tags":{"group_only":"yes","landcover":"grass","name":"Bivak Pexhof 1","scout":"yes"}},"213121150":{"location":[51.0835818,5.6539635],"ct":"BE","tp":"CS","ts":"2023-02-08T15:15:45Z","tX":528,"tY":342,"tags":{"group_only":"yes","landcover":"grass","name":"Bivak Pexhof 1","scout":"yes"}},"213121155":{"location":[51.0848375,5.6537581],"ct":"BE","tp":"CS","ts":"2023-02-08T15:15:45Z","tX":528,"tY":342,"tags":{"group_only":"yes","landcover":"grass","name":"Bivak Pexhof 2","scout":"yes"}},"213161986":{"location":[51.0776803,5.6831183],"ct":"BE","tp":"CS","ts":"2024-10-28T21:57:54Z","tX":528,"tY":342,"tags":{"abandoned":"yes","disused:name":"Camping Bergerven","disused:tourism":"camp_site","noname":"yes"}},"213181019":{"location":[51.080998,5.7001292],"ct":"BE","tp":"CS","ts":"2022-11-06T22:56:24Z","tX":528,"tY":342,"tags":{"addr:city":"Neeroeteren","addr:housenumber":"11","addr:postcode":"3680","addr:street":"Komweg","name":"Camping 't Eilandje","permanent_camping":"only"}},"215572619":{"location":[51.1413699,5.8135211],"ct":"BE","tp":"CR","ts":"2025-01-26T11:08:35Z","tX":528,"tY":342,"tags":{"addr:city":"Kessenich","addr:housenumber":"34","addr:postcode":"3640","addr:street":"Kessenicherweg","caravan_site":"motorhome_stopover","caravan_site:type":"countryside","charge":"16 EUR","dog":"yes","dog_park":"yes","email":"Kris@camperplaatskessenich.be","fee":"yes","name":"Camperplaats Kessenich","phone":"+32 497 21 58 12","picnic_table":"yes","power_supply":"yes","power_supply:maxcurrent":"6;10","reservation":"yes","sanitary_dump_station":"yes","sanitary_dump_station:chemical_toilet":"yes","sanitary_dump_station:grey_water":"yes","seasonal":"yes","shower":"no","surface":"grass","toilets":"no","water_point":"yes","website":"https://www.camperplaatskessenich.be/"}},"225117955":{"location":[51.121555,5.9696135],"ct":"NL","tp":"CS","ts":"2023-05-30T19:34:15Z","tX":528,"tY":342,"tags":{"addr:city":"Montfort","addr:housenumber":"15","addr:postcode":"6065NK","addr:street":"Heinsbergerweg","cabins":"yes","caravans":"yes","email":"carlakelleners@gmail.com","landuse":"grass","name":"Camping Biej de Vogel","phone":"+31 6 30500775;+31 6 51891761","shower":"yes","tents":"yes","toilets":"yes","website":"https://www.campingbiejdevogel.nl"}},"231706411":{"location":[51.1026669,5.819898],"ct":"BE","tp":"CS","ts":"2024-11-04T09:54:13Z","tX":528,"tY":342,"tags":{"caravans":"yes","name":"Camping Heerenlaak","operator":"MAREC","tents":"yes","website":"https://www.marec.be/nl/Heerenlaak"}},"231706740":{"location":[51.1251214,5.8166956],"ct":"BE","tp":"CS","ts":"2025-02-08T11:27:41Z","tX":528,"tY":342,"tags":{"caravans":"yes","fee":"no","name":"Kampeerverblijfpark De Spaanjerd","operator":"MAREC","permanent_camping":"only","static_caravans":"only","tents":"yes","website":"https://www.marec.be/nl/de-spaanjerd"}},"234306336":{"location":[51.1237511,5.6551667],"ct":"BE","tp":"CR","ts":"2025-01-26T10:59:57Z","tX":528,"tY":342,"tags":{"capacity":"4","caravan_site":"motorhome_stopover","caravan_site:type":"canal","fee":"no","name":"Camperterrein De Kieper","power_supply":"yes","power_supply:fee":"yes","sanitary_dump_station":"yes","surface":"paving_stones","water_point":"yes","water_point:fee":"yes"}},"235615157":{"location":[51.0612749,5.6363055],"ct":"BE","tp":"CS","ts":"2023-02-08T15:15:45Z","tX":528,"tY":342,"tags":{"access":"customers","addr:city":"Maaseik","addr:housenumber":"70F","addr:postcode":"3680","addr:street":"Bergeindestraat","capacity":"80","fee":"yes","group_only":"yes","name":"Bivak Zandhoek De Oeter","scout":"yes","website":"http://www.bivakzandhoek.be/"}},"238837664":{"location":[51.0923444,5.9252275],"ct":"NL","tp":"CS","ts":"2023-05-30T12:20:34Z","tX":528,"tY":342,"tags":{"addr:city":"Maria Hoop","addr:housenumber":"3","addr:postcode":"6105BD","addr:street":"Dominicusweg","email":"pepinushof@hetnet.nl","landuse":"grass","name":"Camping Pepinushof","phone":"+31 475 481 355","website":"https://www.pepinushof.nl"}},"290600143":{"location":[51.0786503,5.6602476],"ct":"BE","tp":"CS","ts":"2024-06-24T12:58:03Z","tX":528,"tY":342,"tags":{"backcountry":"no","camp_site":"reception","caravans":"no","drinking_water":"yes","group_only":"yes","name":"Houtenveld Bivak 2","openfire":"yes","power_supply":"yes","scout":"yes","short_name":"HBV2","shower":"yes","tents":"yes","toilets":"yes","website":"https://www.bivakhoutenveld.be/"}},"290600144":{"location":[51.0776999,5.6605628],"ct":"BE","tp":"CS","ts":"2024-06-24T12:58:03Z","tX":528,"tY":342,"tags":{"backcountry":"no","camp_site":"reception","caravans":"no","drinking_water":"yes","group_only":"yes","name":"Houtenveld Bivak 1","openfire":"yes","power_supply":"yes","scout":"yes","short_name":"HBV1","shower":"yes","tents":"yes","toilets":"yes","website":"https://www.bivakhoutenveld.be/"}},"420288154":{"location":[51.104628,5.6534079],"ct":"BE","tp":"CS","ts":"2025-01-26T16:31:36Z","tX":528,"tY":342,"tags":{"backcountry":"yes","bicycle":"yes","camp_site":"basic","description":"site voor paalkamperen","fee":"no","maxtents":"3","name":"Paalkampeerplaats Itter","openfire":"no","opening_hours":"24/7","operator":"Agentschap voor Natuur en Bos","toilets":"yes","website":"https://www.duinengordel.be/#!bivakzones-itter-en-solt/q53r8","website:0":"https://bivakzone.be/duinengordel/201-bivakzone-paalkamperen-itter-en-solt.html"}},"420288156":{"location":[51.0998647,5.6533555],"ct":"BE","tp":"CS","ts":"2025-01-26T16:31:36Z","tX":528,"tY":342,"tags":{"backcountry":"yes","camp_site":"basic","capacity":"10","description":"site voor paalkamperen","drinking_water":"no","fee":"no","maxstay":"2 days","maxtents":"3","name":"Paalkamperen Solt","openfire":"no","operator":"Agentschap voor Natuur en Bos","toilets":"yes","website":"https://www.duinengordel.be/#!bivakzones-itter-en-solt/q53r8","website:0":"https://bivakzone.be/duinengordel/201-bivakzone-paalkamperen-itter-en-solt.html"}},"748647109":{"location":[51.1092672,5.8084551],"ct":"BE","tp":"CS","ts":"2024-10-20T09:36:40Z","tX":528,"tY":342,"tags":{"addr:city":"Maaseik","addr:housenumber":"67","addr:postcode":"3680","addr:street":"Leeuwerikstraat","cabins":"yes","caravans":"yes","email":"info@campingdeboomgaard.be","mobile":"+32 494 22 22 36","name":"Camping De Boomgaard","tents":"yes","website":"https://www.campingdeboomgaard.be"}},"824169056":{"location":[51.0810598,5.6643233],"ct":"BE","tp":"CS","ts":"2023-02-08T15:15:45Z","tX":528,"tY":342,"tags":{"access":"private","addr:city":"Maaseik","addr:housenumber":"36a","addr:postcode":"3680","addr:street":"Roosterbergstraat","group_only":"yes","name":"Tentenkamp Jomahei","operator":"Bivakhuizen 't Driege","scout":"yes","website":"https://tdriege.be/jomahei.html"}},"858835276":{"location":[51.0618039,5.637142],"ct":"BE","tp":"CS","ts":"2023-02-08T15:15:45Z","tX":528,"tY":342,"tags":{"access":"customers","addr:city":"Maaseik","addr:housenumber":"70F","addr:postcode":"3680","addr:street":"Bergeindestraat","capacity":"80","fee":"yes","group_only":"yes","name":"Bivak Zandhoek De Bosbeek","scout":"yes","website":"http://www.bivakzandhoek.be/"}},"865109285":{"location":[51.0838073,5.7028303],"ct":"BE","tp":"CR","ts":"2025-01-26T10:56:36Z","tX":528,"tY":342,"tags":{"bus":"yes","capacity":"8","caravan_site":"motorhome_stopover","caravan_site:type":"village","fee":"yes","name":"Camperplaats De Borg","power_supply":"yes","power_supply:capacity":"12","socket:cee_blue":"no","surface":"paving_stones"}},"908822365":{"location":[51.1051597,5.8571255],"ct":"NL","tp":"CR","ts":"2025-01-19T13:28:29Z","tX":528,"tY":342,"tags":{"capacity":"3","caravan_site":"motorhome_stopover","caravan_site:type":"parking_lot","fee":"no","maxlength":"10","name":"Natuurtransferium Echt","power_supply":"no","sanitary_dump_station":"no","seasonal":"no","water_point":"no","website":"https://www.visitzuidlimburg.com/experience-zuid-limburg/attraction/natuurtransferium-echt/64537/"}},"1006399420":{"location":[51.1581973,5.7804648],"ct":"NL","tp":"CS","ts":"2023-05-30T12:20:48Z","tX":528,"tY":342,"tags":{"addr:city":"Neeritter","addr:housenumber":"9","addr:postcode":"6015RD","addr:street":"Manestraat","caravans":"yes","email":"secretaris@campingdiepven.nl","name":"Naturistencamping Diepven","nudism":"designated","phone":"+31 475 566 214","tents":"yes"}},"1013449943":{"location":[51.062558,5.9397694],"ct":"NL","tp":"CS","ts":"2023-05-30T12:20:48Z","tX":528,"tY":342,"tags":{"addr:city":"Koningsbosch","addr:housenumber":"1","addr:postcode":"6104RM","addr:street":"Krimweg","email":"bohmerwald@online.nl","name":"Böhmerwald","phone":"+31 475 309 030","website":"https://www.bohmerwald.nl"}},"1025840520":{"location":[51.0933408,5.9112127],"ct":"NL","tp":"CS","ts":"2023-05-30T12:20:49Z","tX":528,"tY":342,"tags":{"email":"info@marisheem.nl","name":"Marisheem","phone":"+31 475 481 458","website":"https://marisheem.nl"}},"1030405949":{"location":[51.1605121,5.973449],"ct":"NL","tp":"CS","ts":"2022-02-11T15:20:13Z","tX":528,"tY":342,"tags":{"addr:city":"Sint Odiliënberg","addr:housenumber":"3","addr:postcode":"6077PK","addr:street":"Heideweg","email":"info@ossa.nl","name":"Ossa Basecamp","phone":"+31 6 25060698","website":"https://basecamp.ossa.nl"}},"1033450368":{"location":[51.1666323,5.7796713],"ct":"NL","tp":"CS","ts":"2022-02-20T11:03:12Z","tX":528,"tY":342,"tags":{"access":"private","addr:city":"Neeritter","addr:housenumber":"5a","addr:postcode":"6015RE","addr:street":"Rutjensstraat","email":"secretarisnvzuid@gmail.com","name":"De Waterhoeven","nudism":"yes","phone":"+31 6 51960997","website":"https://waterhoeve.wordpress.com"}},"1041991127":{"location":[51.1160975,5.8194993],"ct":"NL","tp":"CS","ts":"2023-05-30T12:20:51Z","tX":528,"tY":342,"tags":{"addr:city":"Ohé en Laak","addr:housenumber":"13","addr:postcode":"6109RC","addr:street":"Moeder Magdalenastraat","email":"maashoeve@kleinecamping.nl","name":"Maashoeve","phone":"+31 475 558 200","website":"https://www.kleinecamping.nl"}},"1042819133":{"location":[51.0714325,5.9723819],"ct":"NL","tp":"CS","ts":"2023-05-30T12:20:51Z","tX":528,"tY":342,"tags":{"addr:city":"Koningsbosch","addr:housenumber":"18","addr:postcode":"6104BG","addr:street":"Prinsenbaan","email":"info@boerderijcampingterweierhof.nl","name":"Boerderijcamping Terweierhof","phone":"+31 475 300 126","website":"https://www.boerderijcampingterweierhof.nl"}},"1067673865":{"location":[51.0084205,5.8811916],"ct":"NL","tp":"CR","ts":"2025-01-16T13:46:12Z","tX":528,"tY":342,"tags":{"access":"yes","bbq":"no","capacity":"10","caravan_site":"motorhome_stopover","caravan_site:type":"town","caravans":"no","description":"Camper van parking","fee":"no","maxstay":"48 hours","name":"Camperstandplaats De Nieuwe Hateboer, Sittard","reservation":"no","sanitary_dump_station":"yes","smoothness":"intermediate","surface":"asphalt","water_point":"yes","website":"https://www.sittard-geleen.nl/Bezoekers/Parkeren/Camperstandplaats_De_Nieuwe_Hateboer_Sittard","wheelchair":"yes"}},"1192577227":{"location":[51.1094824,5.8476308],"ct":"NL","tp":"CS","ts":"2023-07-27T07:00:24Z","tX":528,"tY":342,"tags":{"addr:city":"Ohé en Laak","addr:housenumber":"4","addr:postcode":"6109AB","addr:street":"Prior Gielenstraat","capacity:tents":"70","caravans":"yes","fee":"yes","name":"De Sangershoeve","tents":"yes"}},"1311670877":{"location":[51.0079385,5.8012527],"ct":"NL","tp":"CR","ts":"2011-06-04T09:54:47Z","tX":528,"tY":342,"tags":{}},"1352534653":{"location":[51.1585364,5.8439138],"ct":"NL","tp":"CR","ts":"2025-01-19T14:06:09Z","tX":528,"tY":342,"tags":{"capacity":"3","caravan_site":"motorhome_stopover","caravan_site:type":"village","charge":"3 EUR","fee":"yes","fee:conditional":"no@(18:00-09:00)","name":"Camperplaats Waterstratt - Thorn","power_supply":"no","sanitary_dump_station":"no","water_point":"no"}},"1352648921":{"location":[51.1764588,5.8218347],"ct":"NL","tp":"CR","ts":"2025-01-19T17:26:34Z","tX":528,"tY":342,"tags":{"addr:city":"Ittervoort","addr:housenumber":"31","addr:postcode":"6014AT","addr:street":"Brigittastraat","caravan_site":"motorhome_stopover","caravan_site:type":"village","charge":"15 EUR","fee":"yes","internet_access":"wlan","internet_access:fee":"no","name":"Camperplaats Ittervoort","power_supply":"yes","power_supply:charge":"2.50 EUR","power_supply:fee":"yes","power_supply:maxcurrent":"6","sanitary_dump_station:chemical_toilet":"yes","sanitary_dump_station:fee":"no","shower":"yes","shower:fee":"no","toilets":"yes","water_point":"yes","water_point:fee":"no","website":"https://www.camperplaats-ittervoort.nl/"}},"1358851960":{"location":[51.1503951,5.8201709],"ct":"BE","tp":"CS","ts":"2025-02-10T20:14:49Z","tX":528,"tY":342,"tags":{"addr:housenumber":"26","addr:street":"Meierstraat","name":"Biej Bokke","website":"https://biejbokke.be/"}},"1366974129":{"location":[51.1123892,5.8203415],"ct":"NL","tp":"CS","ts":"2025-03-13T14:00:19Z","tX":528,"tY":342,"tags":{"name":"de Maasterp","website":"https://www.eldoradoparken.nl/de-maasterp"}},"1854785438":{"location":[51.0922692,5.9076005],"ct":"NL","tp":"CR","ts":"2012-08-06T19:45:20Z","tX":528,"tY":342,"tags":{}},"2260441242":{"location":[51.1585537,5.8439168],"ct":"NL","tp":"CR","ts":"2013-04-09T18:04:40Z","tX":528,"tY":342,"tags":{"capacity":"3","fee":"2,50 euro","name":"Waterstraat"}},"2927850738":{"location":[51.1755844,5.8221531],"ct":"NL","tp":"CR","ts":"2022-02-11T14:50:13Z","tX":528,"tY":342,"tags":{"addr:city":"Ittervoort","addr:housenumber":"31","addr:postcode":"6014AT","addr:street":"Brigittastraat","name":"Camperplaats Ittervoort","source":"BAG","source:date":"2014-06-22","website":"https://www.camperplaats-ittervoort.nl/"}},"10937776883":{"location":[51.150081,5.8197198],"ct":"BE","tp":"CS","ts":"2024-06-24T12:58:03Z","tX":528,"tY":342,"tags":{"addr:housenumber":"26","addr:street":"Meierstraat","name":"Biej Bokke","website":"https://biejbokke.be/"}},"12273542083":{"location":[51.0020614,5.7027208],"ct":"BE","tp":"CS","ts":"2024-10-21T14:10:48Z","tX":528,"tY":342,"tags":{"access":"yes","capacity:persons":"10","caravans":"no","fee":"no","name":"Paalkamperen - National Park Visitor Center","operator":"Nationaal Park Hoge Kempen","static_caravans":"no","tents":"yes"}},"9234976456":{"location":[51.1236964,5.6552808],"ct":"BE","tp":"SD","ts":"2021-11-08T10:02:24Z","tX":528,"tY":342,"tags":{}},"12165027014":{"location":[51.0083806,5.8815211],"ct":"NL","tp":"SD","ts":"2024-09-09T07:36:53Z","tX":528,"tY":342,"tags":{}}}