{"7915591":{"location":[50.8529565,5.93564],"ct":"NL","tp":"CS","ts":"2023-05-30T12:20:27Z","tX":528,"tY":343,"tags":{"addr:city":"Voerendaal","addr:housenumber":"2","addr:postcode":"6367HE","addr:street":"Colmont","email":"info@colmont.nl","name":"Camping Colmont","phone":"+31 45 562 0057","website":"https://colmont.nl"}},"8101032":{"location":[50.7849609,5.7476871],"ct":"NL","tp":"CS","ts":"2023-10-17T17:00:26Z","tX":528,"tY":343,"tags":{"addr:city":"Sint Geertruid","addr:housenumber":"4","addr:postcode":"6265NC","addr:street":"Moerslag","caravans":"yes","drinking_water":"yes","email":"info@campingdebosrand.nl","name":"Camping De Bosrand","phone":"+31 43 409 1544","power_supply":"yes","shower":"yes","tents":"yes","toilets":"yes","website":"https://campingdebosrand.nl","wheelchair":"yes"}},"23954580":{"location":[50.857176,5.819077],"ct":"NL","tp":"CS","ts":"2023-07-05T16:42:59Z","tX":528,"tY":343,"tags":{"addr:city":"Berg en Terblijt","addr:housenumber":"171","addr:postcode":"6325AD","addr:street":"Rijksweg","caravans":"yes","drinking_water":"yes","email":"info@campingdecauberg.nl","name":"Camping De Cauberg","phone":"+31 43 601 2344","power_supply":"yes","shower":"yes","tents":"yes","toilets":"yes","website":"https://www.campingdecauberg.nl"}},"26384317":{"location":[50.8493674,5.8725072],"ct":"NL","tp":"CS","ts":"2024-11-03T11:03:44Z","tX":528,"tY":343,"tags":{"addr:city":"Schin op Geul","addr:housenumber":"2A","addr:postcode":"6305PM","addr:street":"Engwegen","caravans":"yes","drinking_water":"yes","email":"info@campingvinkenhof.nl","name":"Camping Vinkenhof","phone":"+31 43 459 1389","power_supply":"yes","sanitary_dump_station":"yes","shower":"yes","tents":"yes","toilets":"yes","website":"https://www.campingvinkenhof.nl"}},"44385318":{"location":[50.8303174,5.7002433],"ct":"NL","tp":"CS","ts":"2023-05-30T12:20:27Z","tX":528,"tY":343,"tags":{"access":"private","addr:city":"Maastricht","addr:housenumber":"10","addr:postcode":"6229AN","addr:street":"Lage Weerd","name":"Watersportvereniging Randwijck","phone":"+31 43 361 4437","website":"https://www.wsvrandwijck.nl"}},"44868676":{"location":[50.9113441,5.7387978],"ct":"NL","tp":"CS","ts":"2023-06-13T05:54:05Z","tX":528,"tY":343,"tags":{"addr:city":"Geulle","addr:housenumber":"60","addr:postcode":"6243CR","addr:street":"Brommelen","caravans":"yes","email":"alicer@xs4all.nl","mobile":"+31 6 51310513","name":"Camping De Boskant","phone":"+31 43 364 1237","tents":"yes","website":"https://www.campingdeboskant.com"}},"58913741":{"location":[50.8581607,5.7713743],"ct":"NL","tp":"CS","ts":"2024-07-29T18:46:41Z","tX":528,"tY":343,"tags":{"addr:city":"Berg en Terblijt","addr:housenumber":"6","addr:postcode":"6325PE","addr:street":"Rijksweg","cabins":"yes","caravans":"yes","drinking_water":"yes","motorhome":"yes","name":"EuroParcs Poort van Maastricht","operator":"EuroParcs","phone":"+31 43 604 0075","power_supply":"yes","shower":"yes","tents":"yes","toilets":"yes","website":"https://www.europarcs.nl/vakantieparken/nederland/limburg/poort-van-maastricht","wheelchair":"yes"}},"75408958":{"location":[50.9368611,5.7688046],"ct":"NL","tp":"CS","ts":"2023-06-13T05:54:05Z","tX":528,"tY":343,"tags":{"caravans":"yes","email":"info@campingcatsop.nl","mobile":"+31 6 51867302","motorhome":"yes","name":"Camping Catsop","phone":"+31 46 437 1029","shower":"yes","tents":"yes","toilets":"yes","website":"https://www.campingcatsop.nl/nl/"}},"75408962":{"location":[50.9496022,5.8800986],"ct":"NL","tp":"CS","ts":"2023-05-30T12:20:28Z","tX":528,"tY":343,"tags":{"addr:city":"Puth","addr:housenumber":"2","addr:postcode":"6155KJ","addr:street":"Kerkpad","email":"camping@botkoel.nl","name":"De Botkoel","phone":"+31 46 443 2374","website":"https://www.botkoel.nl"}},"75525941":{"location":[50.8692109,5.8666957],"ct":"NL","tp":"CS","ts":"2025-05-30T11:11:31Z","tX":528,"tY":343,"tags":{"addr:city":"Walem","addr:housenumber":"108","addr:postcode":"6342PA","addr:street":"Walem","alt_name":"Hubertushoeve","email":"info@hubertushoeve.com","name":"Hubertus Hoeve","phone":"+31 43 459 3016","website":"http://www.hubertushoeve.com/camping"}},"75720861":{"location":[50.7500014,5.9534916],"ct":"BE","tp":"CS","ts":"2025-05-09T11:29:51Z","tX":528,"tY":343,"tags":{"description":"In 2022 closed for overnight stays","name":"Camping Kon Tiki","phone":"+32 87 78 59 73","website":"https://kontiki-campground.business.site"}},"75720862":{"location":[50.7563186,5.9388534],"ct":"NL","tp":"CS","ts":"2024-12-27T17:00:41Z","tX":528,"tY":343,"tags":{"access":"yes","addr:city":"Plombières","addr:housenumber":"114","addr:postcode":"4851","addr:street":"Terbruggen","dog":"leashed","email":"info@camping-vieuxmoulin.be","fee":"yes","internet_access":"no","name":"Camping du Vieux Moulin","payment:cash":"yes","payment:credit_cards":"yes","phone":"+32 87 78 42 55","shower":"yes","source":"local knowledge","toilets":"yes","website":"http://www.camping-vieuxmoulin.be/","wheelchair":"yes"}},"75720863":{"location":[50.7708314,5.8954716],"ct":"NL","tp":"CS","ts":"2024-08-11T15:50:56Z","tX":528,"tY":343,"tags":{"addr:city":"Epen","addr:housenumber":"2","addr:postcode":"6285AD","addr:street":"Oosterberg","email":"info@camping-oosterberg.nl","name":"Camping Oosterberg","phone":"+31 43 455 1377","website":"https://www.camping-oosterberg.nl/"}},"75720865":{"location":[50.7590412,5.9063157],"ct":"NL","tp":"CS","ts":"2022-03-10T14:49:56Z","tX":528,"tY":343,"tags":{"addr:city":"Epen","addr:housenumber":"4","addr:postcode":"6285NS","addr:street":"Helberg","email":"info@hoevehelberg.nl","name":"Boerderijcamping Hoeve Helberg","phone":"+31 6 26962748","website":"https://hoevehelberg.nl/camping"}},"75720868":{"location":[50.767404,5.9312796],"ct":"NL","tp":"CS","ts":"2023-05-30T12:20:28Z","tX":528,"tY":343,"tags":{"addr:city":"Vijlen","addr:housenumber":"4","addr:postcode":"6294NA","addr:street":"Camerig Lingbergweg","caravans":"yes","name":"Hoeve Camping Lingberg","phone":"+31 43 455 1417","tents":"yes","website":"https://hoeve-camping-lingberg.business.site"}},"75720870":{"location":[50.7556463,5.9068067],"ct":"NL","tp":"CS","ts":"2025-05-19T07:23:57Z","tX":528,"tY":343,"tags":{"addr:city":"Epen","addr:housenumber":"17","addr:postcode":"6285ND","addr:street":"Terzieterweg","email":"reserveren@campingalleleijn.nl","name":"Camping Alleleijn","phone":"+31 43 455 1553","website":"https://www.landgoedalleleijn.nl"}},"75720873":{"location":[50.8003652,5.7059094],"ct":"NL","tp":"CS","ts":"2023-05-30T12:20:28Z","tX":528,"tY":343,"tags":{"addr:city":"Eijsden","addr:country":"NL","addr:housenumber":"1A","addr:postcode":"6245LC","addr:street":"Oosterweg","caravans":"yes","email":"info@oosterdriessen.nl","internet_access":"yes","name":"Camping De Oosterdriessen","phone":"+31 43 409 3215","tents":"yes","website":"https://www.oosterdriessen.nl"}},"75720874":{"location":[50.760478,5.9420079],"ct":"NL","tp":"CS","ts":"2023-05-30T12:20:28Z","tX":528,"tY":343,"tags":{"addr:city":"Vijlen","addr:housenumber":"6","addr:postcode":"6294NE","addr:street":"Cottessen","email":"info@cottesserhoeve.nl","name":"Camping Cottesserhoeve","phone":"+31 43 455 1352","website":"https://www.cottesserhoeve.nl"}},"75720876":{"location":[50.7577827,5.9093821],"ct":"NL","tp":"CS","ts":"2023-05-30T12:20:28Z","tX":528,"tY":343,"tags":{"addr:city":"Epen","addr:housenumber":"48","addr:postcode":"6285NE","addr:street":"Terzieterweg","email":"info@bovenstebos.nl","name":"Camping Bovenste Bos","phone":"+31 43 455 1342","website":"https://www.bovenstebos.nl"}},"75720878":{"location":[50.7571296,5.9112009],"ct":"NL","tp":"CS","ts":"2023-05-30T12:20:28Z","tX":528,"tY":343,"tags":{"addr:city":"Epen","addr:housenumber":"15","addr:postcode":"6285ND","addr:street":"Terzieterweg","email":"info@kleinkullen.nl","name":"Camping Klein Kullen","phone":"+31 43 455 1271","website":"https://www.kleinkullen.nl/camping"}},"77551353":{"location":[50.7894087,5.953794],"ct":"NL","tp":"CS","ts":"2023-05-30T12:20:28Z","tX":528,"tY":343,"tags":{"addr:city":"Vijlen","addr:housenumber":"38","addr:postcode":"6294NK","addr:street":"Melleschet","email":"info@campingzuidlimburg.nl","name":"Vandenbooren Camping","phone":"+31 43 306 1080","website":"https://www.campingzuidlimburg.nl"}},"77551842":{"location":[50.7705636,5.929276],"ct":"NL","tp":"CS","ts":"2025-04-23T06:53:44Z","tX":528,"tY":343,"tags":{"addr:city":"Vijlen","addr:housenumber":"12","addr:postcode":"6294NB","addr:street":"Camerig","cabins":"yes","caravans":"yes","email":"info@campingrozenhof.nl","motorhome":"yes","name":"Camping Rozenhof","phone":"+31 43 455 1611","swimming_pool":"yes","tents":"yes","toilets":"yes","website":"https://www.campingrozenhof.nl"}},"77552131":{"location":[50.7644621,5.9171215],"ct":"NL","tp":"CS","ts":"2023-05-30T12:20:29Z","tX":528,"tY":343,"tags":{"addr:city":"Epen","addr:housenumber":"2","addr:postcode":"6285NL","addr:street":"Kuttingerweg","email":"info@minicampinggulikers.nl","name":"Gullikers","phone":"+31 43 455 1385","website":"https://www.minicampinggulikers.nl"}},"80255403":{"location":[50.80012,5.8657224],"ct":"NL","tp":"CS","ts":"2023-11-06T12:27:14Z","tX":528,"tY":343,"tags":{"addr:city":"Gulpen","addr:housenumber":"1","addr:postcode":"6271PE","addr:street":"Slenakerweg","email":"info@campinggroenendaal.nl","landuse":"grass","name":"Camping Groenendaal","phone":"+31 43 450 1668","source":"3dShapes","website":"https://campinggroenendaal.nl/"}},"80256425":{"location":[50.7757713,5.8464696],"ct":"NL","tp":"CS","ts":"2025-05-29T12:17:31Z","tX":528,"tY":343,"tags":{"addr:city":"Slenaken","addr:housenumber":"27","addr:postcode":"6277NP","addr:street":"Hoogcruts","bar":"yes","big_rigs":"yes","camp_type":"established","caravans":"yes","charge":"€ 17.70 (2 adults, camper), electricity € 2.30 extra","description":"Basic, quiet campground with large sites on different grass fields separated by hedges.","dish_washing":"yes","dryer":"yes","email":"info@campingwelkom.nl","fee":"yes","fenced":"no","fireplace":"no","general_room":"no","guarded":"no","internet_access":"wlan","internet_access:fee":"no","kitchen":"no","laundry":"yes","name":"Welkom","payment:credit_cards":"yes","pets":"yes","phone":"+31 43 457 1296","picnic_benches":"no","power_supply":"yes","power_supply:voltage":"220V","restaurant":"no","sanitary_dump_station":"yes","shop":"no","shower":"hot","source":"Survey","swimming_pool":"no","tents":"yes","toilets:disposal":"flush","toilets:position":"seated","washing_machine":"yes","water:location":"central","water:quality":"potable","website":"https://campingwelkom.nl"}},"80272069":{"location":[50.7844778,5.7573562],"ct":"NL","tp":"CS","ts":"2023-05-30T12:20:29Z","tX":528,"tY":343,"tags":{"addr:city":"Sint Geertruid","addr:housenumber":"32","addr:postcode":"6265NC","addr:street":"Moerslag","email":"info@landgoedmoerslag.nl","name":"Landgoed Moerslag","phone":"+31 43 409 1238","website":"https://landgoedmoerslag.nl/camping"}},"80384016":{"location":[50.8063433,5.8054329],"ct":"NL","tp":"CS","ts":"2023-08-01T08:04:15Z","tX":528,"tY":343,"tags":{"cabins":"yes","capacity:pitches":"15","caravans":"yes","email":"info@bruisterbosch.nl","mobile":"+31 6 25137174","name":"Bruisterbosch","opening_hours":"Mar 15 - Oct 31","phone":"+31 43 458 1816","shower":"yes","tents":"yes","toilets":"yes","website":"https://www.bruisterbosch.nl/"}},"80425533":{"location":[50.8320925,5.8697973],"ct":"NL","tp":"CS","ts":"2019-07-21T12:31:24Z","tX":528,"tY":343,"tags":{"addr:city":"Wijlre","addr:housenumber":"2","addr:postcode":"6321PC","addr:street":"Berghof","name":"'t Bakhuis","phone":"+31 43 450 1453","source":"3dShapes","website":"https://www.het-bakhuis.nl"}},"80425591":{"location":[50.8432114,5.8296403],"ct":"NL","tp":"CS","ts":"2023-05-30T12:20:29Z","tX":528,"tY":343,"tags":{"addr:city":"Valkenburg","addr:housenumber":"2","addr:postcode":"6301AN","addr:street":"Klein Linde","email":"info@campingdelinde.nl","name":"De Linde","phone":"+31 43 601 2866","website":"https://www.campingdelinde.nl"}},"80593785":{"location":[50.8781843,5.769758],"ct":"NL","tp":"CS","ts":"2024-10-24T09:57:46Z","tX":528,"tY":343,"tags":{"addr:city":"Meerssen","addr:housenumber":"90","addr:postcode":"6231KW","addr:street":"Houthemerweg","email":"campinggeulenbos@hotmail.com","name":"Geul en Bos","phone":"+31 43 364 2085","website":"https://www.geulenbos.nl"}},"80724708":{"location":[50.8645093,5.9002592],"ct":"NL","tp":"CS","ts":"2024-04-19T12:34:21Z","tX":528,"tY":343,"tags":{"addr:city":"Ransdaal","addr:housenumber":"114","addr:postcode":"6312AK","addr:street":"Ransdalerstraat","email":"opgenbeukelskoel@home.nl","fee":"yes","internet_access":"wlan","mobile":"+31 6 51415051","name":"Op Gen Beukelskoel","phone":"+31 43 459 1516","source":"3dShapes","website":"https://camping-opgenbeukelskoel.com"}},"80724744":{"location":[50.8635292,5.8954873],"ct":"NL","tp":"CS","ts":"2023-07-05T09:07:14Z","tX":528,"tY":343,"tags":{"addr:city":"Ransdaal","addr:housenumber":"72","addr:postcode":"6312AJ","addr:street":"Ransdalerstraat","email":"info@campingladolcevita.nl","fee":"yes","name":"Camping La Dolce Vita","phone":"+31 6 19567959","source":"3dShapes","website":"https://www.campingladolcevita.nl"}},"107173314":{"location":[50.9421779,5.8979177],"ct":"NL","tp":"CS","ts":"2023-05-30T12:20:30Z","tX":528,"tY":343,"tags":{"addr:city":"Schinnen","addr:housenumber":"120","addr:postcode":"6365AM","addr:street":"Altaarstraat","caravans":"yes","email":"info@hoevekrekelberg.nl","name":"Natuurcamping Hoeve Krekelberg","phone":"+31 46 443 8313","surface":"unpaved","tents":"yes","url":"https://www.natuurkampeerterreinen.nl/terreinen/limburg/hoeve-krekelberg/","website":"https://hoevekrekelberg.nl"}},"144415080":{"location":[50.8806595,5.8312955],"ct":"NL","tp":"CS","ts":"2024-08-09T20:54:48Z","tX":528,"tY":343,"tags":{"access":"permit","addr:city":"Valkenburg","addr:housenumber":"5","addr:postcode":"6301WP","addr:street":"Stoepertweg","caravans":"yes","drinking_water":"yes","fee":"yes","internet_access":"wlan","name":"Camping Valkenburg - Maastricht","phone":"+31 45 405 9292","power_supply":"yes","shower":"yes","static_caravans":"yes","tents":"yes","toilets":"yes","toilets:wheelchair":"limited","website":"https://www.camping-valkenburg.com","wheelchair":"limited"}},"148377941":{"location":[50.7728844,5.9268226],"ct":"NL","tp":"CS","ts":"2025-04-23T10:58:06Z","tX":528,"tY":343,"tags":{"addr:city":"Vijlen","addr:housenumber":"17","addr:postcode":"6294NB","addr:street":"Camerig","email":"info@vakantievoncken.nl","name":"Camping Voncken","phone":"+31 43 455 1532","website":"https://vakantievoncken.nl"}},"166683386":{"location":[50.8082191,5.8690946],"ct":"NL","tp":"CS","ts":"2025-05-04T10:27:57Z","tX":528,"tY":343,"tags":{"addr:city":"Gulpen","addr:housenumber":"1","addr:postcode":"6271PP","addr:street":"Osebos","caravans":"yes","email":"info@osebos.nl","name":"Camping Osebos","phone":"+31 43 450 1611","source":"Survey","tents":"yes","website":"https://www.osebos.nl"}},"201641724":{"location":[50.8598778,5.8313131],"ct":"NL","tp":"CS","ts":"2023-05-30T12:20:33Z","tX":528,"tY":343,"tags":{"addr:city":"Valkenburg","addr:housenumber":"1","addr:postcode":"6301BN","addr:street":"Heunsbergerweg","email":"info@campingdendriesch.nl","name":"Den Driesch","phone":"+31 43 601 2025","website":"https://www.campingdendriesch.nl"}},"201667972":{"location":[50.8735496,5.7713891],"ct":"NL","tp":"CS","ts":"2023-09-16T13:51:58Z","tX":528,"tY":343,"tags":{"addr:city":"Meerssen","addr:housenumber":"13","addr:postcode":"6231RV","addr:street":"Gemeentebroek","caravans":"yes","drinking_water":"yes","email":"reserveringen@camping-geuldal.nl","internet_access":"wlan","name":"'t Geuldal","phone":"+31 43 604 0437","power_supply":"no","shower":"yes","source":"3dShapes","tents":"yes","toilets":"yes","website":"https://www.camping-geuldal.nl/"}},"203948843":{"location":[50.9080094,5.8322806],"ct":"NL","tp":"CS","ts":"2023-08-01T08:04:14Z","tX":528,"tY":343,"tags":{"addr:city":"Schimmert","addr:housenumber":"23","addr:postcode":"6333BR","addr:street":"Mareweg","email":"info@campingmareveld.nl","name":"Camping Mareveld","phone":"+31 45 404 1269","website":"https://www.campingmareveld.nl"}},"211728251":{"location":[50.9062786,5.6337533],"ct":"BE","tp":"CS","ts":"2025-04-24T07:28:47Z","tX":528,"tY":343,"tags":{"addr:city":"Lanaken","addr:housenumber":"1","addr:postcode":"3620","addr:street":"Maastrichterweg","addr:unit":"A","cabins":"yes","capacity:permanent_camping":"179","capacity:touristic":"120","caravans":"yes","dog":"yes","drinking_water":"yes","fee":"yes","motor_vehicle":"yes","name":"Jocomo-Parc","permanent_camping":"yes","power_supply":"yes","surface":"grass","tents":"yes","washing_machine":"yes","website":"https://www.jocomo.be/"}},"212002971":{"location":[50.954409,5.6569338],"ct":"BE","tp":"CS","ts":"2025-04-25T09:26:01Z","tX":528,"tY":343,"tags":{"addr:city":"Maasmechelen","addr:housenumber":"3","addr:postcode":"3630","addr:street":"Kikmolenstraat","cabins":"yes","capacity:permanent_camping":"750","capacity:touristic":"140","caravans":"yes","dog":"yes","drinking_water":"yes","fee":"yes","motor_vehicle":"yes","name":"Camping Kikmolen","permanent_camping":"yes","phone":"+32 89 77 09 00","power_supply":"yes","source":"AGIV & survey","surface":"grass","tents":"yes","washing_machine":"yes","website":"https://www.kikmolen.be/","wheelchair":"yes"}},"219396927":{"location":[50.8087821,5.897289],"ct":"NL","tp":"CS","ts":"2024-06-10T18:14:15Z","tX":528,"tY":343,"tags":{"addr:city":"Gulpen","addr:housenumber":"1","addr:postcode":"6271NP","addr:street":"Berghem","cabins":"yes","caravans":"yes","email":"info.gulperberg@europarcs.nl","motorhome":"yes","name":"EuroParcs Gulperberg","reservation":"required","shower":"yes","tents":"yes","toilets":"yes","website":"https://www.europarcs.nl/vakantieparken/nederland/limburg/gulperberg"}},"234805684":{"location":[50.9216179,5.7047161],"ct":"BE","tp":"CR","ts":"2025-01-26T10:47:01Z","tX":528,"tY":343,"tags":{"capacity":"10","caravan_site":"motorhome_stopover","caravan_site:type":"river","fee":"no","name":"Kanaaloever Mobilhomeparking","power_supply":"no","sanitary_dump_station":"no","seasonal":"no","toilets":"no","water_point":"no"}},"256363785":{"location":[50.8865321,5.8617873],"ct":"NL","tp":"CS","ts":"2025-06-16T11:14:45Z","tX":528,"tY":343,"tags":{"addr:city":"Hulsberg","addr:housenumber":"10","addr:postcode":"6336AV","addr:street":"Klimmenerweg","caravans":"yes","email":"info@hemelke.nl","name":"’t Hemelke","phone":"+31 45 405 1386","shower":"yes","tents":"yes","website":"https://hemelke.nl","website:map":"https://www.hemelke.nl/app/uploads/2024/11/Plattegrond_camping-t-Hemelke_HR-NL-2048x1448.jpg"}},"259875736":{"location":[50.9216885,5.9573292],"ct":"NL","tp":"CS","ts":"2023-05-30T12:20:35Z","tX":528,"tY":343,"tags":{"addr:city":"Heerlen","addr:housenumber":"101","addr:postcode":"6413TC","addr:street":"Willem Barentszweg","cabins":"yes","caravans":"yes","email":"info@hitjesvijver.nl","name":"Hitjesvijver","phone":"+31 45 521 1353","shower":"yes","tents":"yes","toilets":"yes","website":"https://www.hitjesvijver.nl"}},"316332979":{"location":[50.9046109,5.9724517],"ct":"NL","tp":"CS","ts":"2023-05-30T12:20:41Z","tX":528,"tY":343,"tags":{"addr:city":"Heerlen","addr:housenumber":"27","addr:postcode":"6414AB","addr:street":"Musschenbroek","email":"info@indenhof.nl","name":"In den Hof","phone":"+31 45 570 8234","website":"https://indenhof.nl/en/campsite"}},"325940381":{"location":[50.8413137,5.8784965],"ct":"NL","tp":"CS","ts":"2023-05-30T12:20:41Z","tX":528,"tY":343,"tags":{"addr:city":"Wijlre","addr:housenumber":"4","addr:postcode":"6305PK","addr:street":"Haasstad","email":"degeleanemoon@nivon.nl","name":"De Gele Anemoon","phone":"+31 43 459 1607","website":"https://degeleanemoon.nivon.nl"}},"330098445":{"location":[50.7615589,5.9260771],"ct":"NL","tp":"CS","ts":"2024-08-20T00:11:16Z","tX":528,"tY":343,"tags":{"addr:city":"Epen","addr:housenumber":"10","addr:postcode":"6285NK","addr:street":"Plaatweg","caravans":"yes","drinking_water":"yes","email":"info@zinkviooltje.nl","fee":"yes","name":"Camping 't Zinkviooltje","phone":"+31 43 455 1580","shower":"yes","tents":"yes","toilets":"yes","website":"https://www.zinkviooltje.nl/zinkviooltje"}},"330675593":{"location":[50.8427699,5.8773889],"ct":"NL","tp":"CS","ts":"2024-11-03T11:08:40Z","tX":528,"tY":343,"tags":{"addr:city":"Wijlre","addr:housenumber":"3","addr:postcode":"6321PK","addr:street":"Haasstad","caravans":"yes","drinking_water":"yes","email":"gronselenput@nivon.nl","name":"De Gronselenput","phone":"+31 43 459 1645","power_supply":"yes","sanitary_dump_station":"yes","shower":"yes","tents":"yes","toilets":"yes","website":"https://www.gronselenput.nl"}},"381501163":{"location":[50.7625769,5.9374014],"ct":"NL","tp":"CS","ts":"2023-05-30T12:20:42Z","tX":528,"tY":343,"tags":{"addr:city":"Vijlen","addr:housenumber":"10","addr:postcode":"6294NE","addr:street":"Cottessen","capacity":"17","caravans":"yes","dog":"leashed","dryer":"yes","email":"info@bellet.nl","internet_access":"wlan","internet_access:fee":"customers","motor_vehicle":"no","name":"Hoeve Bellet","opening_hours":"Mar 15-Sep 30","phone":"+31 43 455 1345","power_supply":"yes","shower":"yes","tents":"yes","toilets":"yes","washing_machine":"yes","website":"https://bellet.nl"}},"385761888":{"location":[50.7748896,5.7499767],"ct":"NL","tp":"CS","ts":"2023-05-30T12:20:42Z","tX":528,"tY":343,"tags":{"addr:city":"Sint Geertruid","addr:housenumber":"7","addr:postcode":"6265NL","addr:street":"Heiweg","name":"Mescherhei","phone":"+31 43 409 1450","website":"https://de-mescherhei.nl/camping"}},"385761889":{"location":[50.7777972,5.7552576],"ct":"NL","tp":"CS","ts":"2023-05-30T12:20:42Z","tX":528,"tY":343,"tags":{"addr:city":"Sint Geertruid","addr:housenumber":"6","addr:postcode":"6265NL","addr:street":"Heiweg","email":"info@rivarekreatie.nl","name":"Riva Recreatie","phone":"+31 43 409 1486","website":"https://www.rivarekreatie.nl"}},"405975938":{"location":[50.8415227,5.7440464],"ct":"NL","tp":"CS","ts":"2023-05-30T12:20:42Z","tX":528,"tY":343,"tags":{"name":"Thomma J H","phone":"+31 43 361 3517"}},"414488905":{"location":[50.7719518,5.8017044],"ct":"NL","tp":"CS","ts":"2022-02-25T13:33:53Z","tX":528,"tY":343,"tags":{"addr:city":"Noorbeek","addr:housenumber":"11","addr:postcode":"6255PB","addr:street":"Voerenstraat","email":"info@camping-grensheuvel.nl","name":"De Grensheuvel","phone":"+31 6 50665005","website":"https://www.camping-grensheuvel.nl"}},"478348542":{"location":[50.87449,5.6812531],"ct":"NL","tp":"CR","ts":"2025-01-18T15:53:55Z","tX":528,"tY":343,"tags":{"capacity":"100","caravan_site":"motorhome_stopover","caravan_site:type":"river","charge":"26 EUR","charge:conditional":"14 EUR @ (Jan-Mar); 18.50 EUR @ (Oct-Nov); 22 EUR@(Apr,May,Jun,Sep);24 EUR@(Aug)","check_date":"2022-07-05","dog":"yes","dog:fee":"no","email":"info@papillonmaastricht.nl","fee":"yes","internet_access":"wlan","internet_access:fee":"no","name":"Camperplaats Maastricht","phone":"+32 50 34 97 00","power_supply":"yes","power_supply:charge":"0.85 EUR/kWh","power_supply:fee":"yes","sanitary_dump_station":"yes","water_point":"yes","water_point:charge":"0.50 EUR/50 liter","water_point:fee":"yes","website":"http://www.camperplaatsnederland.nl/nl/camperplaats-maastricht"}},"506716107":{"location":[50.7835712,5.7616046],"ct":"NL","tp":"CS","ts":"2023-05-30T12:20:43Z","tX":528,"tY":343,"tags":{"addr:city":"Sint Geertruid","addr:housenumber":"2","addr:postcode":"6265NE","addr:street":"Libeek","email":"sjefandrien@home.nl","name":"De Kersengaard","phone":"+31 43 408 2827","website":"https://dekersengaard.nl"}},"577308427":{"location":[50.839296,5.9350034],"ct":"NL","tp":"CS","ts":"2022-02-22T06:27:23Z","tX":528,"tY":343,"tags":{"fixme":"Check locally if camp still exists. Website Korenwolf mentions Fien Fleur as new owner, website Fien Fleur says it's for sale. Imagery doesn't show any sign of a camp"}},"578223494":{"location":[50.8672481,5.8679489],"ct":"NL","tp":"CS","ts":"2022-03-13T07:47:02Z","tX":528,"tY":343,"tags":{"addr:city":"Walem","addr:housenumber":"55","addr:postcode":"6342PA","addr:street":"Walem","caravans":"yes","email":"waalheimerfarm@live.nl","internet_access":"wlan","internet_access:fee":"no","name":"Waalheimerfarm","phone":"+31 6 20975038","tents":"yes","website":"https://www.waalheimerfarm.nl"}},"588463625":{"location":[50.9077547,5.8117987],"ct":"NL","tp":"CS","ts":"2025-06-22T10:52:07Z","tX":528,"tY":343,"tags":{"addr:city":"Schimmert","addr:housenumber":"1a","addr:postcode":"6333EN","addr:street":"Oensel","capacity":"20","description":"U vindt hier kampeerplaatsen voor tenten (6), caravans en campers (14). Het Oensels Fruitweike is centraal gelegen op het plateau van Schimmert, gemeente Nuth en bevindt zich aan de rand van het oude gehucht Oensel","email":"Oenselsfruitweike@gmail.com","fee":"yes","internet_access":"wlan","internet_access:fee":"no","name":"Oensels Fruitweike","operator":"Fam. Pluijmaekers","payment:cash":"yes","payment:coins":"yes","phone":"+31 45 303 0340","website":"https://oenselsfruitweike.com/"}},"625163088":{"location":[50.7685911,5.881589],"ct":"NL","tp":"CS","ts":"2022-05-11T20:29:33Z","tX":528,"tY":343,"tags":{"addr:city":"Heijenrath","addr:housenumber":"4","addr:postcode":"6276PB","addr:street":"Givelderweg","capacity":"25","caravans":"yes","description":"50+ camping","email":"info@heuvelland-oaze.nl","name":"Heuvelland Oaze","power_supply":"yes","swimming_pool":"no","tents":"yes","website":"https://heuvelland-oaze.nl/camping"}},"671132964":{"location":[50.8786607,5.7716655],"ct":"NL","tp":"CS","ts":"2024-10-24T09:57:46Z","tX":528,"tY":343,"tags":{"addr:city":"Meerssen","addr:housenumber":"95","addr:postcode":"6231KT","addr:street":"Houthemerweg","name":"Mooidal Boutique Park","website":"https://mooidal.nl/"}},"732599823":{"location":[50.7662878,5.9336091],"ct":"NL","tp":"CS","ts":"2024-08-17T13:08:24Z","tX":528,"tY":343,"tags":{"addr:city":"Vijlen","addr:housenumber":"3","addr:postcode":"6294NA","addr:street":"Camerig","caravans":"yes","email":"info@vakantiegenezijde.nl","name":"Gene Zijde","nudism":"no","phone":"+31 43 455 1724","sanitary_dump_station":"customers","tents":"yes","website":"https://www.vakantiegenezijde.nl"}},"837218581":{"location":[50.7755798,5.8431259],"ct":"NL","tp":"CS","ts":"2023-06-01T04:47:57Z","tX":528,"tY":343,"tags":{"addr:city":"Noorbeek","addr:housenumber":"9","addr:postcode":"6255NS","addr:street":"Hoogcruts","bar":"no","big_rigs":"no","caravans":"yes","dish_washing":"no","dryer":"no","email":"info@kloostermuur.nl","general_room":"no","impromptu":"no","kitchen":"no","name":"De Kloostermuur","payment:credit_cards":"no","pets":"yes","phone":"+31 43 457 3204","picnic_benches":"no","power_supply":"yes","restaurant":"no","sanitary_dump_station":"no","shop":"no","source":"Survey;website","swimming_pool":"no","tents":"yes","toilets:disposal":"flush","toilets:position":"sitting","washing_machine":"yes","website":"https://www.kloostermuur.nl"}},"921969964":{"location":[50.8598358,5.8882317],"ct":"NL","tp":"CS","ts":"2023-05-30T12:20:47Z","tX":528,"tY":343,"tags":{"addr:city":"Ransdaal","addr:housenumber":"2","addr:postcode":"6312AH","addr:street":"Ransdalerstraat","email":"ingridkuypers@live.nl","fee":"yes","name":"Camping Op d'r Lubosch","phone":"+31 43 459 1675","website":"https://www.lubosch.nl"}},"931488636":{"location":[50.9354116,5.9184504],"ct":"NL","tp":"CS","ts":"2024-06-24T08:47:18Z","tX":528,"tY":343,"tags":{"addr:city":"Amstenrade","addr:housenumber":"288","addr:postcode":"6436AM","addr:street":"Hommerterweg","email":"info@campinghommerterallee.nl","name":"Hommerter Allee","phone":"+31 46 442 1822","website":"https://www.campinghommerterallee.nl"}},"940957120":{"location":[50.7617659,5.9244066],"ct":"NL","tp":"CS","ts":"2023-05-30T12:20:47Z","tX":528,"tY":343,"tags":{"addr:city":"Epen","addr:housenumber":"6","addr:postcode":"6285NK","addr:street":"Plaatweg","email":"info@tergracht.nl","name":"Camping Tergracht","phone":"+31 43 455 2762","website":"https://www.tergracht.nl/accommodaties/kamperen/kampeerplaatsen"}},"958256762":{"location":[50.8036688,5.8981791],"ct":"NL","tp":"CS","ts":"2021-06-25T18:13:33Z","tX":528,"tY":343,"tags":{"name":"Gerardushoeve"}},"1007243588":{"location":[50.893403,5.8716657],"ct":"NL","tp":"CS","ts":"2023-05-30T12:20:48Z","tX":528,"tY":343,"tags":{"addr:city":"Hulsberg","addr:housenumber":"65","addr:postcode":"6336TH","addr:street":"Wissengrachtweg","caravans":"yes","description":"Overnachting alleen voor volwassenen","email":"info@campingaandebeemden.nl","internet_access":"wlan","name":"Minicamping Aan de Beemden","operator":"Fam. Schiffelers","phone":"+31 45 405 5234","tents":"yes","website":"https://campingaandebeemden.nl"}},"1011825393":{"location":[50.8450781,5.7787996],"ct":"NL","tp":"CS","ts":"2023-05-30T12:20:48Z","tX":528,"tY":343,"tags":{"addr:city":"Bemelen","addr:housenumber":"1","addr:postcode":"6268NN","addr:street":"Gasthuis","email":"info@boerderijcamping-gasthoes.nl","name":"Boerderijcamping 't Gasthoes","phone":"+31 43 407 1346","website":"http://www.boerderijcamping-gasthoes.nl"}},"1013453591":{"location":[50.7927078,5.9196474],"ct":"NL","tp":"CS","ts":"2023-05-30T12:20:48Z","tX":528,"tY":343,"tags":{"addr:city":"Mechelen","addr:housenumber":"9-11","addr:postcode":"6281NA","addr:street":"Eperweg","caravans":"yes","email":"camping@geulhof.nl","internet_access":"wlan","internet_access:fee":"no","name":"Geulhof","phone":"+31 43 455 2527","tents":"yes","website":"https://www.geulhof.nl/mini-camping"}},"1030398098":{"location":[50.8198152,5.8182046],"ct":"NL","tp":"CS","ts":"2023-06-03T11:13:54Z","tX":528,"tY":343,"tags":{"addr:city":"Margraten","addr:housenumber":"13","addr:postcode":"6269BS","addr:street":"Hoenderstraat","email":"jef.blezer@gmail.com","name":"De Appelboerderij","phone":"+31 43 458 2452","tents":"no","website":"http://appelboerderij.nl"}},"1030408845":{"location":[50.8527571,5.8652943],"ct":"NL","tp":"CS","ts":"2024-11-03T11:00:41Z","tX":528,"tY":343,"tags":{"addr:city":"Schin op Geul","addr:housenumber":"48","addr:postcode":"6305AH","addr:street":"Strucht","caravans":"yes","drinking_water":"yes","email":"info@hoevekroonen.nl","name":"Hoeve Kroonen","phone":"+31 43 459 1506","shower":"yes","tents":"yes","website":"https://hoevekroonen.nl"}},"1031558468":{"location":[50.7744639,5.8707778],"ct":"NL","tp":"CS","ts":"2023-05-30T19:34:14Z","tX":528,"tY":343,"tags":{"addr:city":"Heijenrath","addr:housenumber":"13","addr:postcode":"6276PD","addr:street":"Heijenratherweg","email":"info@heyenrade.nl","name":"Heyenrade","phone":"+31 43 457 3260","website":"https://heyenrade.nl"}},"1032490123":{"location":[50.8048546,5.8935224],"ct":"NL","tp":"CS","ts":"2023-05-30T12:20:50Z","tX":528,"tY":343,"tags":{"addr:city":"Gulpen","addr:housenumber":"9","addr:postcode":"6271NP","addr:street":"Berghem","capacity":"25","email":"info@berghemmerhof.nl","internet_access":"wlan","internet_access:fee":"no","name":"Minicamping Boerderij Berghemmerhof","phone":"+31 43 450 4519","website":"https://berghemmerhof.nl"}},"1040437666":{"location":[50.7853322,5.7646451],"ct":"NL","tp":"CS","ts":"2023-05-30T12:20:50Z","tX":528,"tY":343,"tags":{"addr:city":"Sint Geertruid","addr:housenumber":"1","addr:postcode":"6265NE","addr:street":"Libeek","caravans":"yes","email":"info@hofvanlibeek.nl","motorhome":"yes","name":"Hof van Libeek","phone":"+31 43 852 4934","shower":"yes","tents":"yes","toilets":"yes","website":"https://www.hofvanlibeek.nl"}},"1087550756":{"location":[50.871607,5.683435],"ct":"NL","tp":"CS","ts":"2024-04-21T07:42:55Z","tX":528,"tY":343,"tags":{"cabins":"no","camp_site":"serviced","caravan":"yes","caravans":"yes","contact:email":"info@hoeve-de-ploeg.nl","contact:phone":"+31 6 57563881","fee":"yes","internet_access":"wlan","internet_access:fee":"no","motorhome":"yes","name":"Hoeve De Ploeg","opening_hours":"10:00-19:00","permanent_camping":"no","power_supply":"yes","reservation":"yes","tents":"yes"}},"1134370396":{"location":[50.7715417,5.8903762],"ct":"NL","tp":"CS","ts":"2023-01-22T22:14:14Z","tX":528,"tY":343,"tags":{"name":"Schaapskooi Mergelland","website":"https://www.schaapskooimergelland.nl/camping"}},"1190251239":{"location":[50.8144365,5.8023964],"ct":"NL","tp":"CS","ts":"2024-06-24T08:47:18Z","tX":528,"tY":343,"tags":{"capacity:pitches":"25","caravans":"yes","email":"info@beckersmargraten.nl","mobile":"+31 6 22228853","motorhome":"yes","name":"Beckers","opening_hours":"Mar 15 - Oct 31","phone":"+31 43 458 1297","shower":"yes","tents":"yes","toilets":"yes","website":"https://www.beckersmargraten.nl"}},"1190255027":{"location":[50.8400136,5.9200364],"ct":"NL","tp":"CS","ts":"2023-07-17T20:25:19Z","tX":528,"tY":343,"tags":{"cabins":"yes","capacity:pitches":"14","caravans":"yes","email":"g.j.m.brouwers@home.nl","name":"De Krekelberg","phone":"+31 6 51587056","shower":"yes","tents":"yes","toilets":"yes","website":"http://www.minicampingdekrekelberg.nl/"}},"1197526287":{"location":[50.8439695,5.9461627],"ct":"NL","tp":"CS","ts":"2023-08-12T21:45:48Z","tX":528,"tY":343,"tags":{"capacity:pitches":"15","caravans":"yes","landcover":"grass","name":"Trintelen","opening_hours":"Apr 1 - Oct 31","phone":"+31 43 451 1826","shower":"yes","tents":"yes","toilets":"yes","website":"https://www.campingtrintelen.nl/"}},"1197528234":{"location":[50.8607366,5.891262],"ct":"NL","tp":"CS","ts":"2023-08-12T22:03:28Z","tX":528,"tY":343,"tags":{"capacity:pitches":"15","caravans":"yes","email":"zorg@zbransdalerveld.nl","name":"Ransdalerveld","phone":"+31 6 43216233","shower":"yes","tents":"yes","toilets":"yes"}},"1290092914":{"location":[50.8055209,5.6761989],"ct":"BE","tp":"CR","ts":"2024-06-29T10:31:01Z","tX":528,"tY":343,"tags":{"capacity":"10","caravan_site":"motorhome_stopover","caravan_site:type":"harbour","charge":"18 EUR","fee":"yes","name":"Jachthaven Yakan Camperplaats","shower":"yes","toilets":"yes","website":"https://www.yakan.be/"}},"1290732434":{"location":[50.9043471,5.6331096],"ct":"BE","tp":"CR","ts":"2024-06-09T19:06:24Z","tX":528,"tY":343,"tags":{}},"1352347675":{"location":[50.8232632,5.7001237],"ct":"NL","tp":"CR","ts":"2025-02-14T10:28:19Z","tX":528,"tY":343,"tags":{"bbq":"yes","caravan_site":"motorhome_stopover","caravan_site:type":"harbour","charge":"30 EUR","charge:conditional":"34.50 EUR@(length>8)","dog":"leashed","fee":"yes","internet_access":"wlan","internet_access:fee":"no","maxlength":"9","maxstay":"5 days","name":"Maastricht marina","power_supply":"yes","power_supply:fee":"no","power_supply:maxcurrent":"10","reservation":"yes","sanitary_dump_station":"yes","sanitary_dump_station:fee":"no","water_point":"yes","water_point:fee":"no","website":"https://www.maastrichtmarina.nl/campers/camperplaatsen.html"}},"2770068369":{"location":[50.9537329,5.9147329],"ct":"NL","tp":"CS","ts":"2021-07-05T15:21:58Z","tX":528,"tY":343,"tags":{"addr:city":"Oirsbeek","addr:housenumber":"20","addr:postcode":"6438BL","addr:street":"Hagerweg","name":"Camping High Chaparral","source":"BAG","source:date":"2014-03-24"}},"2793144339":{"location":[50.7907502,5.7766334],"ct":"NL","tp":"CS","ts":"2021-11-01T13:59:04Z","tX":528,"tY":343,"tags":{"access":"private","addr:city":"Sint Geertruid","addr:housenumber":"15","addr:postcode":"6265NB","addr:street":"Heerkuil","description":"Dit kampeerterrein is alleen toegankelijk voor leden van de NTKC","name":"NTKC De Heerkuil","operator":"Nederlandse Toeristen Kampeer Club","power_supply":"yes","source":"BAG","source:date":"2014-03-24","website":"https://www.kampeerclub.nl/terrein/kampeerterrein-de-heerkuil"}},"3120959990":{"location":[50.8246857,5.703373],"ct":"NL","tp":"CR","ts":"2017-02-09T17:16:07Z","tX":528,"tY":343,"tags":{"name":"Maastricht marina"}},"3613362325":{"location":[50.8600746,5.8309665],"ct":"NL","tp":"CR","ts":"2021-05-21T08:54:30Z","tX":528,"tY":343,"tags":{"name":"Camperplaats Valkenburg"}},"12088918869":{"location":[50.7418143,5.8794576],"ct":"BE","tp":"CS","ts":"2024-08-07T19:14:26Z","tX":528,"tY":343,"tags":{"addr:postcode":"3791","addr:street":"Teuvenerweg - Rue de Teuven","caravans":"no","email":"info@greenvally.com","fee":"yes","internet_access":"no","name":"Kampeerterrein \"Op De Hei\"","openfire":"yes","phone":"043811368","picnic_table":"no","sanitary_dump_station":"no","shower":"no","static_caravans":"no","tents":"no","toilets":"no","website":"http://www.greenvalley.be"}},"12020020730":{"location":[50.7397911,5.6915014],"ct":"BE","tp":"CR","ts":"2024-06-29T10:09:40Z","tX":528,"tY":343,"tags":{"capacity":"4","caravan_site":"motorhome_stopover","caravan_site:type":"town","caravans":"no","fee":"no","name":"Aire Camping-car Visé","name:en":"Visé motor home area","opening_hours":"24/7","sanitary_dump_station":"no","website":"https://visitwallonia.com/en-gb/3/accommodation/motorhomes-vanlife/where-to-sleep-when-travelling-around-wallonia-with-a-motorhome/motor-home-area-in-vise-in-the-province-of-liege/49483"}},"11051661851":{"location":[50.8056778,5.7674476],"ct":"NL","tp":"CS","ts":"2023-07-17T19:42:59Z","tX":528,"tY":343,"tags":{"name":"Minicamping Rosenhof","phone":"+31 43 408 2099"}},"5896986257":{"location":[50.8749583,5.68103],"ct":"NL","tp":"SD","ts":"2018-09-10T18:38:09Z","tX":528,"tY":343,"tags":{"sanitary_dump_station:basin":"yes"}},"8667379018":{"location":[50.7719236,5.8959527],"ct":"NL","tp":"SD","ts":"2022-03-13T17:02:55Z","tX":528,"tY":343,"tags":{"access":"customers"}},"11267412815":{"location":[50.8715712,5.6834359],"ct":"NL","tp":"SD","ts":"2023-10-16T17:29:58Z","tX":528,"tY":343,"tags":{"access":"customers","fee":"no","sanitary_dump_station:round_drain":"yes"}},"11267412816":{"location":[50.8715412,5.6834822],"ct":"NL","tp":"SD","ts":"2023-10-16T17:29:58Z","tX":528,"tY":343,"tags":{"access":"customers","fee":"no","sanitary_dump_station:basin":"yes"}},"11970098593":{"location":[50.8100707,5.8978559],"ct":"NL","tp":"SD","ts":"2024-06-10T18:14:15Z","tX":528,"tY":343,"tags":{}},"11970169686":{"location":[50.8070267,5.8949941],"ct":"NL","tp":"SD","ts":"2024-06-10T18:41:34Z","tX":528,"tY":343,"tags":{}},"11970169694":{"location":[50.8086293,5.8976072],"ct":"NL","tp":"SD","ts":"2024-06-10T18:41:34Z","tX":528,"tY":343,"tags":{}},"11970169695":{"location":[50.8083081,5.8998573],"ct":"NL","tp":"SD","ts":"2024-06-10T18:41:34Z","tX":528,"tY":343,"tags":{}},"12782104296":{"location":[50.9042752,5.6332868],"ct":"BE","tp":"SD","ts":"2025-04-24T07:28:47Z","tX":528,"tY":343,"tags":{"access":"permit","sanitary_dump_station:round_drain":"yes"}},"12782104297":{"location":[50.9051122,5.6319407],"ct":"BE","tp":"SD","ts":"2025-04-24T07:28:47Z","tX":528,"tY":343,"tags":{"access":"permit","sanitary_dump_station:basin":"yes"}},"12785478237":{"location":[50.9535309,5.656248],"ct":"BE","tp":"SD","ts":"2025-04-25T09:26:01Z","tX":528,"tY":343,"tags":{"access":"permit","sanitary_dump_station:basin":"yes"}}}