{"47249337":{"location":[50.5321931,5.8637622],"ct":"BE","tp":"CS","ts":"2024-04-29T10:33:24Z","tX":528,"tY":344,"tags":{"contact:facebook":"https://www.facebook.com/polleurbe","contact:instagram":"https://www.instagram.com/domainepolleur/","contact:website":"https://www.campingpolleur.be/","name":"Camping de Polleur","name:fr":"Camping de Polleur","name:nl":"Camping van Polleur"}},"68565761":{"location":[50.5746363,5.9704043],"ct":"BE","tp":"CS","ts":"2023-11-08T14:06:51Z","tX":528,"tY":344,"tags":{"addr:city":"Jalhay","addr:housenumber":"59","addr:postcode":"4845","addr:street":"Route de la Gileppe","fee":"yes","name":"Camping de la Gileppe","note":"Ook groepsaccommodatie voor maximaal 76 personen","phone":"+32 87 64 70 22","website":"https://www.lagileppe.eu/"}},"92534326":{"location":[50.6106815,5.7376479],"ct":"BE","tp":"CS","ts":"2024-04-29T10:24:47Z","tX":528,"tY":344,"tags":{"caravans":"yes","email":"camping.wegimont@provincedeliege.be","internet_access":"wlan","internet_access:fee":"no","name":"Camping Domaine de Wégimont","opening_hours":"Feb 1-Dec 23","operator":"Domaine Provincial de Wégimont","permanent_camping":"yes","phone":"+32 4 279 24 02","tents":"yes","website":"https://www.provincedeliege.be/wegimont"}},"107101968":{"location":[50.5387463,5.9227342],"ct":"BE","tp":"CS","ts":"2024-12-26T09:12:09Z","tX":528,"tY":344,"tags":{}},"150011768":{"location":[50.7293703,5.8660152],"ct":"BE","tp":"CS","ts":"2022-04-16T08:30:18Z","tX":528,"tY":344,"tags":{"addr:city":"Voeren","addr:housenumber":"3","addr:postcode":"3791","addr:street":"Roodbos","name":"Camping Natuurlijk Limburg (ex Hacienda)","website":"https://www.campingnatuurlijklimburg.be/"}},"234685967":{"location":[50.5382368,5.8069369],"ct":"BE","tp":"CS","ts":"2024-12-06T11:14:20Z","tX":528,"tY":344,"tags":{"addr:housenumber":"7","addr:street":"Rue du Panorama","caravans":"yes","drinking_water":"yes","name":"Camping du Syndicat d'initiative de Theux","shower":"yes","tents":"yes","toilets":"yes","website":"https://www.sitheux.be/"}},"623557478":{"location":[50.68548,5.7231186],"ct":"BE","tp":"CR","ts":"2024-01-01T18:47:48Z","tX":528,"tY":344,"tags":{"maxstay":"24 hours","name":"Aire de Blegny-mine","power_supply":"yes","power_supply:charge":"2 EUR/12 hours","power_supply:fee":"yes","sanitary_dump_station":"yes","sanitary_dump_station:chemical_toilet":"yes","sanitary_dump_station:fee":"no","sanitary_dump_station:grey_water":"yes","water_point":"yes","website":"https://www.blegnymine.be/fr/brochure-destination-des-proprietaires-de-mobilhomes-et-camping-cars"}},"1231409432":{"location":[50.5811019,5.8187202],"ct":"BE","tp":"CR","ts":"2023-12-15T16:04:58Z","tX":528,"tY":344,"tags":{"capacity":"4","fee":"no","maxstay":"24 hours","name":"Aire de Wegnez","power_supply":"no","sanitary_dump_station":"no","tents":"no"}},"1231412035":{"location":[50.5876504,5.9698201],"ct":"BE","tp":"CR","ts":"2023-12-15T16:11:31Z","tX":528,"tY":344,"tags":{"capacity":"4","caravan_site":"motorhome_stopover","fee":"no","name":"Aire du Barrage de la Gileppe","power_supply":"no","sanitary_dump_station":"no","seasonal":"no","water_point":"no"}},"1372453583":{"location":[50.5236171,5.8061933],"ct":"BE","tp":"CS","ts":"2024-05-09T06:07:07Z","tX":528,"tY":344,"tags":{"contact:facebook":"https://www.facebook.com/Minicamping.Lescargot/","contact:instagram":"https://www.instagram.com/glamping_lescargot/","contact:website":"https://www.lescargot.be/","name":"Minicamping l'escargot","phone":"+32 (0)8785 3845"}},"12142268673":{"location":[50.5313833,5.861673],"ct":"BE","tp":"CS","ts":"2024-08-28T14:50:40Z","tX":528,"tY":344,"tags":{}},"11993533759":{"location":[50.6855658,5.7223706],"ct":"BE","tp":"SD","ts":"2024-06-21T08:20:19Z","tX":528,"tY":344,"tags":{"access":"yes","fee":"no"}},"11993586018":{"location":[50.6855393,5.7225373],"ct":"BE","tp":"SD","ts":"2024-06-21T08:20:19Z","tX":528,"tY":344,"tags":{"access":"yes","fee":"no"}}}