{"93404906":{"location":[50.4758629,5.6782524],"ct":"BE","tp":"CR","ts":"2024-08-24T07:51:36Z","tX":528,"tY":345,"tags":{"capacity":"8","caravan_site":"motorhome_stopover","charge":"8 EUR / 48 huors","fee":"yes","name":"Aire d'Aywaille","opening_hours":"24/7","power_supply":"yes","sanitary_dump_station":"yes","sanitary_dump_station:chemical_toilet":"yes","sanitary_dump_station:grey_water":"yes","seasonal":"no","services:charge":"3 EUR @ hours power_supply or sanitary_dump","source:name":"visitWallonia","toilets":"no","water_point":"yes","website":"https://www.aywaille.be/fr/loisirs/sports/agisca/infrastructures/aire-camping-car"}},"103272184":{"location":[50.4687085,5.7400489],"ct":"BE","tp":"CS","ts":"2023-02-02T14:02:01Z","tX":528,"tY":345,"tags":{"addr:housenumber":"12","addr:street":"Rue du Chemin de Fer","name":"Camping les Roseaux"}},"103272186":{"location":[50.4671957,5.7275376],"ct":"BE","tp":"CS","ts":"2023-09-26T16:19:15Z","tX":528,"tY":345,"tags":{"name":"Camping Le Plein Soleil"}},"106673946":{"location":[50.3667469,5.8377713],"ct":"BE","tp":"CS","ts":"2017-03-26T19:00:34Z","tX":528,"tY":345,"tags":{"name":"Plein Sud"}},"106776295":{"location":[50.3307146,5.9013378],"ct":"BE","tp":"CS","ts":"2024-11-03T14:04:50Z","tX":528,"tY":345,"tags":{"addr:housenumber":"7","addr:street":"Avenue de la Résistance","name":"Camping Les Neufs Prés","website":"https://www.camping-lesneufspres.com"}},"106804251":{"location":[50.31175,5.8185721],"ct":"BE","tp":"CS","ts":"2023-05-26T20:40:50Z","tX":528,"tY":345,"tags":{"cabins":"yes","caravans":"yes","email":"camping.gossaimont@florealgroup.be","motorhome":"yes","name":"Gossaimont","operator":"Floreal Holidays","phone":"+32 80 31 98 22","shower":"yes","stars":"3","static_caravans":"yes","tents":"yes","toilets":"yes","website":"https://www.florealgroup.be/nl/camping/camping-gossaimont"}},"107033102":{"location":[50.4102861,5.9527418],"ct":"BE","tp":"CS","ts":"2019-06-27T12:18:18Z","tX":528,"tY":345,"tags":{"addr:city":"Stavelot","addr:housenumber":"25","addr:street":"Cheneux","name":"Camping de l'Eau Rouge","website":"https://www.eaurouge.nl/"}},"107859213":{"location":[50.4848046,5.8829117],"ct":"BE","tp":"CS","ts":"2024-04-29T10:18:25Z","tX":528,"tY":345,"tags":{"addr:city":"Spa","addr:housenumber":"141","addr:postcode":"4900","addr:street":"Rue de la Sauvenière","caravans":"yes","contact:email":"info@campingspa.be","contact:facebook":"https://www.facebook.com/campingspa","contact:instagram":"https://www.instagram.com/camping_spa/","contact:website":"https://campingspa.be/","fee":"yes","name":"Parc des Sources","static_caravans":"yes","tents":"yes"}},"116067620":{"location":[50.5118315,5.6631992],"ct":"BE","tp":"CS","ts":"2023-10-03T09:07:10Z","tX":528,"tY":345,"tags":{"access":"private","addr:housenumber":"22","addr:street":"Rue du Tultay","name":"Royal Camping et Caravaning Club de Belgique ASBL","phone":"+32 4 382 11 62"}},"146876638":{"location":[50.5086821,5.9188729],"ct":"BE","tp":"CS","ts":"2015-12-15T21:00:54Z","tX":528,"tY":345,"tags":{"addr:housenumber":"17","addr:street":"Stockay","name":"Camping Spa d'Or"}},"147020702":{"location":[50.2896479,5.921164],"ct":"BE","tp":"CS","ts":"2020-06-22T09:04:54Z","tX":528,"tY":345,"tags":{"addr:housenumber":"1","addr:street":"Chemin de la Vallée","name":"Camping de la Salm"}},"153658403":{"location":[50.4105303,5.7686286],"ct":"BE","tp":"CS","ts":"2025-02-08T08:45:20Z","tX":528,"tY":345,"tags":{"addr:housenumber":"16","addr:street":"La Lienne","caravans":"yes","drinking_water":"yes","name":"Chalet-Weekend","power_supply":"yes","shower":"yes","tents":"yes","toilets":"yes","website":"https://www.campingchaletweekend.be"}},"168343334":{"location":[50.4577639,5.722393],"ct":"BE","tp":"CS","ts":"2023-09-07T16:52:51Z","tX":528,"tY":345,"tags":{"name":"Eden Camping"}},"326050123":{"location":[50.3631518,5.8779664],"ct":"BE","tp":"CS","ts":"2025-01-25T23:33:22Z","tX":528,"tY":345,"tags":{"fee":"yes","name":"Beau Rivage","static_caravans":"only"}},"326700716":{"location":[50.3689016,5.7826625],"ct":"BE","tp":"CS","ts":"2024-04-18T19:27:20Z","tX":528,"tY":345,"tags":{"addr:city":"Trois-Ponts","addr:housenumber":"1","addr:street":"Ancienne Barrière","drinking_water":"yes","fee":"yes","name":"L'Ancienne Barrière","tents":"yes","website":"https://nl.camping-ancienne-barriere.com/"}},"370751547":{"location":[50.3908722,5.8736656],"ct":"BE","tp":"CR","ts":"2025-01-26T00:44:22Z","tX":528,"tY":345,"tags":{"capacity":"7","caravan_site":"motorhome_stopover","caravan_site:type":"parking_lot","fee":"no","name":"Aire de Coo","power_supply":"no","sanitary_dump_station":"no","surface":"asphalt","water_point":"no"}},"406162662":{"location":[50.4658762,5.7150498],"ct":"BE","tp":"CS","ts":"2019-03-25T04:31:12Z","tX":528,"tY":345,"tags":{"addr:housenumber":"40","addr:street":"Rue de Trois-Ponts","name":"Camping Olympia","website":"https://campingolympia.be/"}},"454693854":{"location":[50.3966167,5.9486183],"ct":"BE","tp":"CS","ts":"2025-03-09T15:36:28Z","tX":528,"tY":345,"tags":{"name":"Camping des Challes"}},"464939641":{"location":[50.2939029,5.7210466],"ct":"BE","tp":"CS","ts":"2023-06-09T20:42:30Z","tX":528,"tY":345,"tags":{"addr:housenumber":"1","addr:street":"Moulin de Malempré","name":"Domaine du Moulin de Malempré","website":"https://www.camping-malempre.be/"}},"479840638":{"location":[50.4632335,5.725002],"ct":"BE","tp":"CS","ts":"2023-08-27T09:15:26Z","tX":528,"tY":345,"tags":{"addr:city":"Nonceveux","addr:housenumber":"56","addr:postcode":"4920","addr:street":"Rue du Fond","name":"Camping Arkeo","website":"https://www.arkeo.be"}},"481330150":{"location":[50.4783827,5.6895357],"ct":"BE","tp":"CS","ts":"2024-07-17T07:53:01Z","tX":528,"tY":345,"tags":{"addr:housenumber":"37","addr:street":"Dieupart","alt_name":"Camping Dieupart","name":"Domaine Chateau de Dieupart","website":"https://www.dieupart.be/","wheelchair":"no"}},"616239808":{"location":[50.3917294,5.8791779],"ct":"BE","tp":"CS","ts":"2019-03-25T04:29:42Z","tX":528,"tY":345,"tags":{"addr:street":"Chemin des Faravennes","name":"Camping de la Cascade","website":"https://www.camping-coo.be/"}},"1205915170":{"location":[50.4500264,5.7387317],"ct":"BE","tp":"CS","ts":"2023-09-07T15:48:24Z","tX":528,"tY":345,"tags":{"addr:city":"Sougné-Remouchamps","addr:housenumber":"2","addr:postcode":"4920","addr:street":"Quarreux","name":"Le moulin du Diable","operator":"Olympia Campings","static_caravans":"no","tents":"yes","website":"https://camping-moulindudiable.com/"}},"1212698230":{"location":[50.5107984,5.6620252],"ct":"BE","tp":"CS","ts":"2024-07-03T00:34:30Z","tX":528,"tY":345,"tags":{"access":"yes","addr:housenumber":"22","addr:street":"Rue du Tultay","capacity:caravans":"4","capacity:persons":"50","capacity:tents":"30","caravans":"yes","charge":"10","dog":"yes","drinking_water":"yes","fee":"yes","grass":"mown","internet_access":"wlan","motorhome":"yes","name":"Camping Le Tultay","payment:cards":"yes","payment:cash":"yes","picnic_table":"yes","sanitary_dump_station":"yes","shower":"yes","stars":"2","tents":"yes","toilets":"yes","wheelchair":"limited"}},"1212837225":{"location":[50.5110836,5.662265],"ct":"BE","tp":"SD","ts":"2023-10-03T19:02:48Z","tX":528,"tY":345,"tags":{"fee":"no","operator":"Camping Le Tultay","water_point":"yes"}},"9675159173":{"location":[50.4784269,5.6890161],"ct":"BE","tp":"SD","ts":"2022-04-18T19:09:33Z","tX":528,"tY":345,"tags":{"access":"customers","fee":"no","opening_hours":"24/7","sanitary_dump_station:basin":"yes"}},"10801067958":{"location":[50.4108142,5.9537984],"ct":"BE","tp":"SD","ts":"2023-04-11T06:44:35Z","tX":528,"tY":345,"tags":{"access":"customers","fee":"no","sanitary_dump_station:gravity":"yes","sanitary_dump_station:grey_water":"yes"}}}