{"106428584":{"location":[50.2502561,5.6339034],"ct":"BE","tp":"CS","ts":"2023-08-27T09:15:46Z","tX":528,"tY":346,"tags":{"website":"https://www.eurocamping.be"}},"106428647":{"location":[50.2484323,5.6345999],"ct":"BE","tp":"CS","ts":"2023-08-27T09:15:46Z","tX":528,"tY":346,"tags":{"website":"https://www.eurocamping.be"}},"114114858":{"location":[50.1294468,5.7796249],"ct":"BE","tp":"CS","ts":"2024-12-25T15:33:12Z","tX":528,"tY":346,"tags":{"capacity":"50","caravans":"yes","charge":"25 EUR","dog":"yes","fee":"yes","internet_access":"wlan","motorhome":"yes","name":"Camping du Viaduc - Houffalize","power_supply":"yes","power_supply:maxcurrent":"10","tents":"yes","water_point":"yes","website":"https://www.florealgroup.be/en/camping/camping-du-viaduc-houffalize"}},"117739387":{"location":[50.2685256,5.8537871],"ct":"BE","tp":"CS","ts":"2019-08-04T11:08:39Z","tX":528,"tY":346,"tags":{"addr:housenumber":"4","addr:street":"Moulin de Sart","name":"Camping des 3 Sarts","website":"http://www.ourthe-ambleve.be/fr/camping-des-trois-sarts"}},"150017640":{"location":[50.1195469,5.7069153],"ct":"BE","tp":"CS","ts":"2025-04-30T09:17:27Z","tX":528,"tY":346,"tags":{"addr:city":"Mabompr√©","addr:housenumber":"6","addr:postcode":"6663","addr:street":"Engreux","caravans":"yes","email":"campingauboutdumonde@skynet.be","fax":"+32 61 28 83 55","name":"Camping Au Bout du Monde","phone":"+32 61 28 83 55","tents":"yes","website":"https://campingauboutdumonde.be"}},"153578047":{"location":[50.2318361,5.6304993],"ct":"BE","tp":"CS","ts":"2022-08-08T19:01:46Z","tX":528,"tY":346,"tags":{"name":"Petite Suisse","website":"https://www.petitesuisse.be/"}},"161592409":{"location":[50.178382,5.9294869],"ct":"BE","tp":"CS","ts":"2020-11-01T11:31:35Z","tX":528,"tY":346,"tags":{"name":"Camping du lac de Cherapont"}},"228290332":{"location":[50.2404565,5.7546912],"ct":"BE","tp":"CS","ts":"2017-12-13T17:10:57Z","tX":528,"tY":346,"tags":{"name":"Camping aux Massotais","website":"http://www.camping-vielsalm.com"}},"278831136":{"location":[50.1758179,5.9242988],"ct":"BE","tp":"CS","ts":"2024-12-22T10:29:33Z","tX":528,"tY":346,"tags":{"caravans":"yes","name":"Lac de Cherapont","tents":"no"}},"318258005":{"location":[50.150704,5.8667522],"ct":"BE","tp":"CS","ts":"2019-09-17T23:35:11Z","tX":528,"tY":346,"tags":{"addr:housenumber":"32","addr:street":"Rettigny","name":"Moulin de Bistain"}},"438168291":{"location":[50.141503,5.6709324],"ct":"BE","tp":"CR","ts":"2025-01-25T21:54:06Z","tX":528,"tY":346,"tags":{"capacity":"11","caravan_site":"motorhome_stopover","caravan_site:type":"river","fee":"no","name":"Aire du Barrage de l'Ourthe","parking":"surface","power_supply":"no","sanitary_dump_station":"no","seasonal":"no","surface":"ground","water_point":"no","website":"https://visitwallonia.be/fr-be/content/aire-de-motor-homes-la-roche-en-ardenne-province-de-luxembourg?cookie_lang=fr-be"}},"459160419":{"location":[50.1606445,5.6866351],"ct":"BE","tp":"CS","ts":"2024-04-06T19:25:39Z","tX":528,"tY":346,"tags":{"addr:city":"Nadrin","addr:housenumber":"13","addr:postcode":"6660","addr:street":"Rue de Wibrin","caravans":"yes","description":"2024-04-03: Friendly owner is renovating the sanitairy building, might take some time. Mostly mobile homes with regular guests.","name":"Camping Belle-Meuse","tents":"yes","website":"http://www.camping-bellemeuse.be"}},"510562932":{"location":[50.0980723,5.675188],"ct":"BE","tp":"CS","ts":"2025-05-01T09:25:11Z","tX":528,"tY":346,"tags":{"addr:housenumber":"154","addr:postcode":"6687","addr:street":"Rue Tro Do We","email":"trodoway@gmail.com","name":"Tro Do Way","name:fr":"Tro Do Way","operator":"Gertjan en Lucinda Scherpenhof","phone":"+32 61 39 48 04","website":"https://www.trodoway.be"}},"753527624":{"location":[50.1323078,5.7883503],"ct":"BE","tp":"CR","ts":"2024-06-29T09:52:46Z","tX":528,"tY":346,"tags":{"capacity":"10","caravan_site":"motorhome_stopover","caravan_site:type":"river;village","charge":"20 EUR","fee":"yes","name":"A ire de Houffalize","power_supply":"yes","sanitary_dump_station":"yes","sanitary_dump_station:chemical_toilet":"yes","sanitary_dump_station:grey_water":"yes","seasonal":"no","water_point":"yes","website":"https://visitwallonia.com/en-gb/3/accommodation/camping-car/la-wallonie-en-camping-car-ou-dormir-/motorhome-camping-site-in-houffalize/36563"}},"765439965":{"location":[50.0686657,5.6387434],"ct":"BE","tp":"CS","ts":"2020-01-23T20:29:04Z","tX":528,"tY":346,"tags":{"backcountry":"yes","camp_site":"basic","capacity":"10","drinking_water":"no","maxstay":"16 hours","motor_vehicle":"no","name":"Bivouac de Gives","opening_hours":"16:00-10:00","operator":"bivakzone","reservation":"not required","toilets":"no"}},"885707002":{"location":[50.134242,5.7617319],"ct":"BE","tp":"CS","ts":"2023-08-27T09:15:37Z","tX":528,"tY":346,"tags":{"addr:city":"Houffalize","addr:housenumber":"63","addr:postcode":"6660","addr:street":"Rue de la Roche","fee":"yes","name":"Camping C&P Buitensport","website":"https://www.cpbuitensport.be"}},"893923778":{"location":[50.2805992,5.7143652],"ct":"BE","tp":"CR","ts":"2025-01-12T12:18:16Z","tX":528,"tY":346,"tags":{"capacity":"3","caravan_site":"motorhome_stopover","caravan_site:type":"farm_shop;guest_house","email":"info@fermestmartin.be","fee":"no","name":"Ferme Saint Martin jour & nuit","operator":"La ferme Saint-Martin","phone":"+32 86455122","reservation":"required","sanitary_dump_station":"no","surface":"gravel","website":"https://www.fermestmartin.be/aires-de-stationnement-jour-nuit/"}},"12917397737":{"location":[50.1634133,5.8511376],"ct":"BE","tp":"CS","ts":"2025-06-15T12:34:14Z","tX":528,"tY":346,"tags":{"access":"private","caravans":"no","group_only":"yes","name":"Ragnarok Larp","operator":"https://ragnaroklarp.be/","static_caravans":"no","tents":"yes"}}}