{"27912889":{"location":[49.9064807,5.940923],"ct":"LU","tp":"CS","ts":"2025-01-25T20:22:21Z","tX":528,"tY":347,"tags":{"addr:city":"Esch-sur-Sûre","addr:country":"LU","addr:housenumber":"1","addr:postcode":"9650","addr:street":"Rue Camping Aal","fax":"+352 899 117","name":"Camping \"im Aal\"","phone":"+352 839 514","ref:caclr":"203096","website":"http://www.campingaal.lu/"}},"28372399":{"location":[49.9733831,5.9316047],"ct":"LU","tp":"CS","ts":"2023-09-08T11:50:05Z","tX":528,"tY":347,"tags":{"addr:city":"Wiltz","addr:country":"LU","addr:housenumber":"60","addr:postcode":"9554","addr:street":"Campingstrooss","name":"Camping KAUL","operator":"Commune de Wiltz","ref:caclr":"234563","website":"http://www.wiltz.lu/fr/base-de-loisirs-et-camping-kaul"}},"28576308":{"location":[49.9057859,5.9585416],"ct":"LU","tp":"CS","ts":"2020-02-10T14:14:50Z","tX":528,"tY":347,"tags":{"addr:city":"Heiderscheidergrund","addr:country":"LU","addr:housenumber":"11","addr:postcode":"9659","addr:street":"Millewee","email":"info@camping-bissen.lu","fax":"+352 8991 42","name":"Camping Bissen","phone":"+352 8390 04","website":"https://camping-bissen.lu/","wheelchair":"limited"}},"97976877":{"location":[49.9655064,5.9532541],"ct":"LU","tp":"CS","ts":"2023-07-18T13:37:56Z","tX":528,"tY":347,"tags":{"scouts":"yes"}},"98106703":{"location":[49.9675572,5.9433732],"ct":"LU","tp":"CS","ts":"2023-09-08T11:50:05Z","tX":528,"tY":347,"tags":{"name":"Wiltz International Scout Centre / Camp 19 (Renards - Fox - Fuchs)","website":"https://scoutswiltz.lu"}},"111678206":{"location":[50.0051182,5.6962982],"ct":"BE","tp":"CS","ts":"2019-08-09T15:18:13Z","tX":528,"tY":347,"tags":{"addr:city":"Bastogne","addr:housenumber":"148","addr:postcode":"6600","addr:street":"Rue de la Briquetterie","name":"Camping de Renval","website":"http://www.campingderenval.be/"}},"119724157":{"location":[49.9059067,5.9652187],"ct":"LU","tp":"CS","ts":"2023-11-01T08:44:57Z","tX":528,"tY":347,"tags":{"email":"info@camping-moulin.eu","fax":"+352 89 9093","name":"Camping Le Moulin","phone":"+352 78 8859","website":"https://www.camping-moulin.eu/"}},"125105650":{"location":[49.8415688,5.7237109],"ct":"BE","tp":"CS","ts":"2025-01-24T18:01:28Z","tX":528,"tY":347,"tags":{"capacity:tents":"163","caravans":"yes","email":"info@campingleauvive.be","fee":"yes","name":"L'Eau Vive","phone":"+32 63 22 90 14","shower":"yes","static_caravans":"yes","swimming_pool":"yes","tents":"yes","toilets":"yes","washing_machine":"yes","website":"https://www.campingleauvive.be"}},"171363575":{"location":[49.9108254,5.8747412],"ct":"LU","tp":"CS","ts":"2024-12-11T17:52:26Z","tX":528,"tY":347,"tags":{"addr:city":"Liefrange","addr:country":"LU","addr:housenumber":"14","addr:postcode":"9665","addr:street":"Haaptstrooss","caravans":"yes","drinking_water":"yes","fax":"+352 26 8888 28","name":"Camping Liefrange","phone":"+352 26 8888 1","power_supply":"yes","ref:caclr":"148044","sanitary_dump_station":"yes","shower":"yes","tents":"yes","toilets":"yes","website":"https://www.camping-liefrange.lu"}},"214450640":{"location":[49.9457247,5.8000065],"ct":"LU","tp":"CR","ts":"2022-05-12T21:01:03Z","tX":528,"tY":347,"tags":{"addr:city":"Tarchamps","addr:housenumber":"32","addr:postcode":"9689","addr:street":"Um Bierg","capacity":"100","internet_access":"wlan","name":"Um Bierg","power_supply":"yes"}},"224789933":{"location":[49.9690398,5.939367],"ct":"LU","tp":"CS","ts":"2024-08-20T18:50:45Z","tX":528,"tY":347,"tags":{"name":"Wiltz International Scout Centre / Camp Castors"}},"418326276":{"location":[49.846495,5.7036478],"ct":"BE","tp":"CS","ts":"2022-04-01T09:15:43Z","tX":528,"tY":347,"tags":{"capacity:tents":"125","caravans":"yes","email":"beaurivagesud@gmail.com","name":"Beau Rivage","phone":"+32 456 18 59 47","shower":"yes","tents":"yes","toilets":"yes"}},"512399325":{"location":[49.9591029,5.9267221],"ct":"LU","tp":"CS","ts":"2024-08-20T18:50:45Z","tX":528,"tY":347,"tags":{"name":"Scout camp Aigles"}},"512399327":{"location":[49.9652448,5.9417189],"ct":"LU","tp":"CS","ts":"2021-07-30T10:20:24Z","tX":528,"tY":347,"tags":{"name":"Camp 9 Lièvre - Rabbit - Hase","note":"do not inner in the MP, there are trees over the surface"}},"512399328":{"location":[49.9664782,5.9445723],"ct":"LU","tp":"CS","ts":"2024-08-20T18:50:45Z","tX":528,"tY":347,"tags":{"name":"Marmottes"}},"512399329":{"location":[49.9656693,5.9513092],"ct":"LU","tp":"CS","ts":"2023-08-19T20:04:03Z","tX":528,"tY":347,"tags":{}},"670059707":{"location":[49.9083742,5.9456608],"ct":"LU","tp":"CS","ts":"2023-12-16T16:58:53Z","tX":528,"tY":347,"tags":{}},"869125003":{"location":[49.9330125,5.7901435],"ct":"LU","tp":"CS","ts":"2023-02-10T21:14:36Z","tX":528,"tY":347,"tags":{"landuse":"residential","name":"Saint Hubert"}},"899177841":{"location":[49.9717602,5.9344097],"ct":"LU","tp":"CR","ts":"2024-06-26T21:11:22Z","tX":528,"tY":347,"tags":{"capacity":"3","caravan_site":"motorhome_stopover","caravan_site:type":"town","fee":"no","name":"Camping Kaul","opening_hours":"24/7","sanitary_dump_station":"yes","surface":"fine_gravel","water_point":"yes","website":"https://kaul.lu/"}},"1212802063":{"location":[49.9716198,5.9343899],"ct":"LU","tp":"SD","ts":"2023-10-08T08:38:24Z","tX":528,"tY":347,"tags":{"access":"yes","charge":"1 euro","fee":"yes","payment:coins":"yes","water_point":"no"}},"1296460841":{"location":[49.9117337,5.8745742],"ct":"LU","tp":"CR","ts":"2024-06-26T21:04:20Z","tX":528,"tY":347,"tags":{"caravan_site":"motorhome_stopover","caravan_site:type":"camp_site","caravans":"no","charge":"25 EUR","charge:conditional":"19 EUR @ (\"low_season\")","fee":"yes","name":"Aire de camping-car Camping Liefrange","power_supply":"yes","power_supply:maxcurrent":"10","reservation":"no","sanitary_dump_station":"yes","tents":"no","water_point":"yes","website":"https://www.camping-liefrange.lu/fr/camping/aire-de-camping-car"}},"8962772681":{"location":[49.9638172,5.9451116],"ct":"LU","tp":"CS","ts":"2021-07-31T21:29:37Z","tX":528,"tY":347,"tags":{"access":"private","name":"Camp 10 - Sangliers - Wild Boar - Wildschwein","phone":"+352958199","website":"https://scoutswiltz.lu/"}},"6653995043":{"location":[49.9053,5.9564761],"ct":"LU","tp":"SD","ts":"2019-07-27T22:27:06Z","tX":528,"tY":347,"tags":{"access":"customers","fee":"no","opening_hours":"Apr 1-Oct 30"}},"6653995065":{"location":[49.9063003,5.960186],"ct":"LU","tp":"SD","ts":"2019-07-27T22:27:06Z","tX":528,"tY":347,"tags":{"access":"customers","fee":"no","opening_hours":"Apr 1-Oct 30","sanitary_dump_station:basin":"yes"}},"11983087122":{"location":[49.9982277,5.7152915],"ct":"BE","tp":"SD","ts":"2024-06-15T15:11:31Z","tX":528,"tY":347,"tags":{"access":"yes","fee":"no"}}}