{"107062390":{"location":[48.1995029,5.8454117],"ct":"FR","tp":"CS","ts":"2020-08-22T08:51:51Z","tX":528,"tY":355,"tags":{"name":"Camping Porte des Vosges","stars":"2","website":"https://www.camping-portedesvosges.com/"}},"221471968":{"location":[48.1806912,5.8862631],"ct":"FR","tp":"CS","ts":"2024-05-19T11:12:03Z","tX":528,"tY":355,"tags":{"addr:city":"Contrexéville","addr:country":"FR","addr:postcode":"88140","addr:street":"Rue du 11 Septembre 1944","caravans":"yes","email":"contact@opale-dmcc.com","name":"Camping \"Le Tir aux Pigeons\"","operator":"Sarl Opale DMCC","phone":"+33 3 29 08 15 06","stars":"3","tents":"yes","website":"https://camping-letirauxpigeons.fr/fr/nos-campings/camping-le-tir-aux-pigeons"}},"222121061":{"location":[48.0395927,5.9353262],"ct":"FR","tp":"CS","ts":"2019-07-03T21:55:10Z","tX":528,"tY":355,"tags":{"addr:city":"Bleurville","addr:country":"FR","addr:postcode":"88410","addr:street":"Le Bignovre","email":"bignovre@wanadoo.fr","name":"Camping \"Aire Naturelle Ferme du Bignovre\"","phone":"+33 3 29 09 93 17","tents":"12","website":"http://bignovre.blogspot.fr/"}},"222342367":{"location":[48.2078934,5.9572706],"ct":"FR","tp":"CS","ts":"2019-07-03T21:55:10Z","tX":528,"tY":355,"tags":{"addr:housenumber":"270","caravans":"yes","email":"vittel.camping@orange.fr","name":"Camping de Vittel","opening_hours":"Mar 29-Oct 13","operator":"Aquadis Loisirs","phone":"+33 3 29 08 02 71","stars":"3","tents":"73","website":"https://www.aquadis-loisirs.com/lorraine/camping-de-vittel,7.php","wheelchair":"yes"}},"839080561":{"location":[48.2074038,5.8387056],"ct":"FR","tp":"CR","ts":"2024-10-02T19:00:29Z","tX":528,"tY":355,"tags":{"capacity":"10","caravan_site":"motorhome_stopover","caravan_site:type":"village","charge":"5 EUR","fee":"yes","name":"Lac des Récollets - Bulgnéville","opening_hours":"24/7","picnic_table":"yes","power_supply":"no","sanitary_dump_station:chemical_toilet":"no","sanitary_dump_station:grey_water":"yes","seasonal":"no","surface":"asphalt","water_point":"yes","water_point:fee":"no","website":"https://www.contrextourisme.com/offres/aire-de-stationnement-bulgneville-fr-3505404/"}},"839080562":{"location":[48.2073398,5.8385415],"ct":"FR","tp":"SD","ts":"2020-08-20T16:46:36Z","tX":528,"tY":355,"tags":{}},"1274629829":{"location":[48.1810041,5.8981347],"ct":"FR","tp":"CR","ts":"2024-10-05T23:48:04Z","tX":528,"tY":355,"tags":{"capacity":"3","caravan_site":"motorhome_stopover","caravan_site:type":"village","caravans":"no","fee":"no","name":"Aire de Camping-cars Contrexéville","opening_hours":"24/7","sanitary_dump_station":"yes","seasonal":"no","surface":"asphalt","tents":"no","water_point":"yes","water_point:charge":"2.50 EUR","water_point:fee":"yes","website":"https://www.tourisme.vosges.fr/sejourner/hotellerie-de-plein-air/748002453-aire-daccueil-et-de-vidange-contrexeville"}},"1280599902":{"location":[48.0317108,5.9736013],"ct":"FR","tp":"CR","ts":"2024-05-07T15:09:08Z","tX":528,"tY":355,"tags":{"capacity":"10","caravan_site":"motorhome_stopover","caravan_site:type":"village","caravans":"no","fee":"no","name":"Aire de Camping car Monthureux-sur-Saône","sanitary_dump_station":"yes","tents":"no","water_point":"yes","website":"http://www.tourisme-vosgescotesudouest.fr/aire-de-camping-car-monthureux.html"}},"1284613699":{"location":[48.1805988,5.8848149],"ct":"FR","tp":"CR","ts":"2024-05-20T17:20:46Z","tX":528,"tY":355,"tags":{"bbq":"no","capacity":"16","caravan_site":"motorhome_stopover","caravan_site:type":"countryside","caravans":"no","charge":"13.16 EUR","charge:conditional":"12.16 EUR @ (Oct-Apr)","fee":"yes","internet_access":"wlan","maxlength":"none","name":"Aire Camping-Car Park Contrexéville","network":"CAMPING-CAR PARK","opening_hours":"24/7","operator":"CAMPING CAR-PARK","power_supply":"yes","power_supply:capacity":"20","power_supply:maxcurrent":"6","sanitary_dump_station":"yes","tents":"no","trailer":"no","website":"https://www.campingcarpark.com/fr_FR/sejour/aire-etape-camping-car/grand-est/88-vosges/contrexeville"}},"2968450643":{"location":[48.0316788,5.9735187],"ct":"FR","tp":"SD","ts":"2024-05-07T15:09:08Z","tX":528,"tY":355,"tags":{}},"11835063559":{"location":[48.1808959,5.8977914],"ct":"FR","tp":"SD","ts":"2024-04-21T14:44:47Z","tX":528,"tY":355,"tags":{"access":"yes","fee":"no","motorhome":"designated"}},"12216685036":{"location":[48.2073004,5.838597],"ct":"FR","tp":"SD","ts":"2024-10-02T19:00:29Z","tX":528,"tY":355,"tags":{}}}