{"233545900":{"location":[47.6612291,5.9763294],"ct":"FR","tp":"CS","ts":"2023-11-23T05:19:18Z","tX":528,"tY":357,"tags":{"addr:city":"Scey-sur-Saône-et-Saint-Albin","addr:country":"FR","addr:postcode":"70360","addr:street":"Rue du Bourg","email":"comscey@wanadoo.fr","fax":"+33 3 84 68 89 16","name":"Camping La Saone Jolie","opening_hours":"Jun 13-Sep 1","payment:credit_cards":"no","phone":"+33 3 84 68 85 07","source":"knowledge","stars":"1","tents":"yes","website":"www.tourisme-scey-valdesaone.fr"}},"538520416":{"location":[47.5633289,5.7409863],"ct":"FR","tp":"CR","ts":"2024-10-03T10:24:03Z","tX":528,"tY":357,"tags":{"capacity":"5","caravan_site":"motorhome_stopover","caravan_site:type":"harbour;canal","charge":"6 EUR","fee":"yes","name":"Port de Savoyeux","power_supply":"yes","power_supply:fee":"yes","sanitary_dump_station":"yes","shower":"yes","shower:fee":"yes","water_point":"yes","website":"https://www.destination70.com/dormir/aires-de-campings-cars/F333000925_saone-plaisance-port-de-plaisance-aire-de-camping-car-savoyeux.html"}},"797907357":{"location":[47.6536505,5.9748738],"ct":"FR","tp":"CR","ts":"2024-06-29T23:37:52Z","tX":528,"tY":357,"tags":{"capacity":"8","caravan_site":"motorhome_stopover","caravan_site:type":"harbour","fee":"yes","name":"Scey-sur-Saône-et-Saint-Albin Aire Communale","sanitary_dump_station":"yes","tents":"no","water_point":"yes","website":"http://www.destination70.com/dormir/aires-de-campings-cars/F351000566_aire-de-camping-car-scey-sur-saone-et-saint-albin.html"}},"962304111":{"location":[47.7128134,5.7061301],"ct":"FR","tp":"CS","ts":"2021-07-07T15:28:07Z","tX":528,"tY":357,"tags":{"capacity":"6","caravans":"yes","email":"benb.arigaud@gmail.com","name":"A-Rigaud","permanent_camping":"no","phone":"+33 3 84 91 08 58","tents":"yes","website":"https://a-rigaud.fr"}},"1102349887":{"location":[47.6345806,5.7561295],"ct":"FR","tp":"CS","ts":"2019-03-13T21:30:10Z","tX":528,"tY":357,"tags":{"addr:city":"Renaucourt","addr:postcode":"70180","name":"Camping La Fontaine aux fées","operator":"municipal","website":"http://www.franche-comte.org/offre/fiche/camping-caravaning-la-fontaine-aux-fees/333000033"}},"1284703784":{"location":[47.5461913,5.8595814],"ct":"FR","tp":"CR","ts":"2024-05-19T19:33:41Z","tX":528,"tY":357,"tags":{"capacity":"10","caravan_site":"motorhome_stopover","caravan_site:type":"village","fee":"no","name":"Aire Fresne-Saint-Mamès","picnic_area":"yes","sanitary_dump_station":"yes","water_point":"yes"}},"2190006066":{"location":[47.6127167,5.9647891],"ct":"FR","tp":"CS","ts":"2015-09-12T19:56:23Z","tX":528,"tY":357,"tags":{"addr:city":"Traves","addr:country":"FR","addr:postcode":"70360","email":"communedetraves@wanadoo.fr","name":"Aire Naturelle de Camping La Prairie","payment:credit_cards":"no","phone":"+33 3 84 68 85 93","tents":"yes","website":"www.tourisme-scey-valdesaone.fr"}},"2190134999":{"location":[47.5816869,5.8758484],"ct":"FR","tp":"CS","ts":"2024-07-24T17:16:10Z","tX":528,"tY":357,"tags":{"addr:city":"Soing-Cubry-Charentenay","addr:country":"FR","addr:postcode":"70130","addr:street":"Route de la Louvière","caravans":"yes","check_date":"2024-07-24","description":"Ouvert du 15/04 au 15/09 de chaque année","disused:name":"Camping La Louvière","drinking_water":"yes","email":"mairie.soing@wanadoo.fr","fax":"+33 3 84 78 43 42","fee":"yes","internet_access":"customers","internet_access:fee":"customers","name":"Camping La Louvière","name:fr":"Camping La Louvière","payment:account_cards":"no","payment:cash":"yes","payment:credit_cards":"yes","payment:debit_cards":"yes","phone":"+33 3 84 78 45 17","source":"knowledge;survey","stars":"2","static_caravans":"no","tents":"yes","toilets":"yes","website":"https://www.bourgogne-tourisme.com/campings/camping-la-louviere-a-soing"}},"2392036694":{"location":[47.5264989,5.6986696],"ct":"FR","tp":"CS","ts":"2024-07-16T14:07:03Z","tX":528,"tY":357,"tags":{"capacity":"30","caravans":"yes","contact:mobile":"+33 6 72 89 86 92","drinking_water":"yes","email":"laplageautet@orange.fr","fee":"yes","name":"Aire Naturelle de Camping Autet","opening_hours":"Jun-Oct","payment:cash":"yes","payment:debit_cards":"yes","phone":"+33 672898692","power_supply":"yes","sanitary_dump_station":"no","shower":"yes","tents":"yes","toilets":"yes","website":"https://www.laplageautet.com/"}},"5212404259":{"location":[47.5629363,5.7403403],"ct":"FR","tp":"SD","ts":"2017-11-05T13:36:22Z","tX":528,"tY":357,"tags":{"access":"yes","fee":"no"}},"7880875838":{"location":[47.6537739,5.9749934],"ct":"FR","tp":"SD","ts":"2020-09-06T11:48:28Z","tX":528,"tY":357,"tags":{}},"11918385085":{"location":[47.5463248,5.8596115],"ct":"FR","tp":"SD","ts":"2024-05-19T19:33:41Z","tX":528,"tY":357,"tags":{"access":"yes","fee":"yes","sanitary_dump_station:basin":"no","sanitary_dump_station:chemical_toilet":"yes","sanitary_dump_station:grey_water":"yes"}}}