{"2247144":{"location":[47.012549,5.6304622],"ct":"FR","tp":"CS","ts":"2024-07-16T02:33:55Z","tX":528,"tY":360,"tags":{"addr:city":"Montbarrey","addr:housenumber":"28","addr:postcode":"39380","addr:street":"Rue du Pont","fee":"yes","name":"Camping Les Trois Ours","stars":"3","website":"https://juracamping.fr/"}},"37605021":{"location":[46.8336206,5.6974732],"ct":"FR","tp":"CS","ts":"2025-05-29T20:23:09Z","tX":528,"tY":360,"tags":{"addr:city":"Poligny","addr:postcode":"39800","addr:street":"Route de Lons","caravans":"yes","contact:mobile":"+33 6 37 90 88 28","contact:phone":"+33 3 84 37 35 90","drinking_water":"yes","fee":"yes","name":"Camping La Tulipe de Vigne","power_supply":"yes","sanitary_dump_station":"yes","shower":"yes","tents":"yes","toilets":"yes","website":"https://www.camping-poligny.com/"}},"51065272":{"location":[46.904411,5.784831],"ct":"FR","tp":"CS","ts":"2024-01-08T12:01:24Z","tX":528,"tY":360,"tags":{"addr:city":"Arbois","addr:country":"FR","addr:postcode":"39600","addr:street":"Rue de la Piscine","name":"Camping Au coeur des Vignes","phone":"+33 3 84 66 14 12","seasonal":"yes","source":"cadastre-dgi-fr source : Direction Générale des Impôts - Cadastre. Mise à jour : 2010","website":"https://au-coeur-des-vignes.com","wheelchair":"limited"}},"113474872":{"location":[46.9470064,5.8791317],"ct":"FR","tp":"CS","ts":"2021-08-23T10:32:47Z","tX":528,"tY":360,"tags":{"addr:city":"Salins-les-Bains","addr:housenumber":"2","addr:postcode":"39110","addr:street":"Avenue du Général de Gaulle","email":"camping.lesalinslesbains@gmail.com","name":"Camping Le Salins Les Bains","old_name":"Domaine des Gabelous","phone":"+33 7 61 14 69 01","website":"https://campinglesalinsles.wixsite.com/le-salins-les-bains"}},"167004635":{"location":[47.0285555,5.7950135],"ct":"FR","tp":"CS","ts":"2021-03-18T16:47:26Z","tX":528,"tY":360,"tags":{"caravans":"yes","contact:phone":"+333 81 57 50 28","email":"camping.arcetsenans@free.fr","name":"Camping La Saline","source":"cadastre-dgi-fr source : Direction Générale des Impôts - Cadastre. Mise à jour : 2012","stars":"3","tents":"yes","url":"https://campinglasaline.fr/"}},"168355396":{"location":[47.0033731,5.6593241],"ct":"FR","tp":"CS","ts":"2023-09-07T14:17:42Z","tX":528,"tY":360,"tags":{"caravans":"yes","description":"Weitläufiger Campingplatz mit großen und oft schattenreichen Parzellen. Im Sommer 2023 war der Zutritt zum Fluss (\"La Loue\") gesperrt wegen Blaualgen.","name":"Camping La Plage Blanche","operator":"Huttopia","sanitary_dump_station":"yes","source":"cadastre-dgi-fr source : Direction Générale des Impôts - Cadastre. Mise à jour : 2012","stars":"3","tents":"yes","website":"https://europe.huttopia.com/site/camping-la-plage-blanche/"}},"183690538":{"location":[47.0025867,5.8250369],"ct":"FR","tp":"CS","ts":"2023-11-01T19:56:55Z","tX":528,"tY":360,"tags":{"email":"lesradeliers@woka.fr","fee":"yes","name":"Camping Les Radeliers","phone":"+33 3 84 73 81 44","source":"cadastre-dgi-fr source : Direction Générale des Impôts - Cadastre. Mise à jour : 2012","stars":"2","website":"https://www.camping-les-radeliers.com/"}},"301016327":{"location":[46.9922501,5.6703248],"ct":"FR","tp":"CS","ts":"2023-05-01T15:36:40Z","tX":528,"tY":360,"tags":{"email":"camping@levaldamour.com","name":"Camping du Val d'Amour","phone":"+33 3 84 37 61 89","stars":"3","website":"https://www.levaldamour.com/"}},"840709321":{"location":[46.8976837,5.8007658],"ct":"FR","tp":"CR","ts":"2024-11-05T23:46:32Z","tX":528,"tY":360,"tags":{"addr:city":"Mesnay","addr:postcode":"39600","addr:street":"Rue Vermot","caravan_site":"motorhome_stopover","caravan_site:type":"village","fee":"no","name":"Aire de service de Mesnay","note":"services out of order 2024","power_supply":"yes","sanitary_dump_station":"yes","water_point":"yes","water_point:fee":"yes","wikimedia_commons":"File:Aire de service de Mesnay.jpg"}},"984829151":{"location":[47.0334857,5.7809953],"ct":"FR","tp":"CR","ts":"2024-06-26T17:18:59Z","tX":528,"tY":360,"tags":{"caravan_site":"motorhome_stopover","caravan_site:type":"village","dog":"yes","fee":"no","name":"Aire de camping-cars d'Arc-et-Senans","sanitary_dump_station":"yes","water_point":"yes","website":"https://www.francevelotourisme.com/hebergements/aires-de-camping-car/aire-de-camping-cars-d-arc-et-senans"}},"1081210444":{"location":[46.8055023,5.6467038],"ct":"FR","tp":"CS","ts":"2025-05-03T05:40:39Z","tX":528,"tY":360,"tags":{"caravans":"no","drinking_water":"yes","name":"Camping de la Maison du Haut","operator":"Sylvie et Michel NICOD","phone":"+33 6 81 79 15 27","power_supply":"yes","shower":"yes","tents":"yes","toilets":"yes"}},"4406632932":{"location":[46.9035548,5.7940375],"ct":"FR","tp":"CS","ts":"2016-09-18T10:08:17Z","tX":528,"tY":360,"tags":{"internet_access":"no","name":"Ferme des Nouvelles","sanitary_dump_station":"no"}},"12305527175":{"location":[46.8439472,5.7117936],"ct":"FR","tp":"CR","ts":"2024-11-01T22:28:44Z","tX":528,"tY":360,"tags":{"caravan_site":"motorhome_stopover","caravan_site:type":"winery","name":"Aire Domaine Les Monts Martin","operator":"Domaine Les Monts Martin","phone":"+33 3 84 37 11 76","website":"https://www.domaine-les-monts-martin.fr/"}},"12305695902":{"location":[46.8808512,5.7560849],"ct":"FR","tp":"CR","ts":"2024-11-01T22:38:43Z","tX":528,"tY":360,"tags":{"caravan_site":"motorhome_stopover","craft":"winery","fee":"no","name":"Aire Domaine Désiré Petit","network":"France Passion","phone":"+33 3 84 66 01 20","website":"https://www.desirepetit.com/page.php?page=11"}},"4858352331":{"location":[47.0334437,5.7808035],"ct":"FR","tp":"SD","ts":"2017-05-16T19:47:09Z","tX":528,"tY":360,"tags":{}},"5019500796":{"location":[46.8979259,5.8006684],"ct":"FR","tp":"SD","ts":"2024-11-05T23:45:54Z","tX":528,"tY":360,"tags":{"fee":"yes","note":"out of order, 2024","water_point":"yes","water_point:fee":"yes","wikimedia_commons":"File:Aire de service de Mesnay out of order.jpg"}},"6716224119":{"location":[46.9323677,5.8789472],"ct":"FR","tp":"SD","ts":"2019-08-16T17:54:16Z","tX":528,"tY":360,"tags":{}},"7728744953":{"location":[47.0028354,5.6641813],"ct":"FR","tp":"SD","ts":"2020-07-19T16:29:13Z","tX":528,"tY":360,"tags":{"water_point":"yes"}},"9767583287":{"location":[47.0030247,5.8247897],"ct":"FR","tp":"SD","ts":"2022-05-24T15:57:42Z","tX":528,"tY":360,"tags":{}}}