{"17965010":{"location":[46.7229046,5.7842949],"ct":"FR","tp":"CS","ts":"2024-08-23T11:16:20Z","tX":528,"tY":361,"tags":{"addr:city":"Pont-du-Navoy","addr:postcode":"39300","addr:street":"Route du lac de Chalain","caravans":"yes","email":"lebivouac39@gmail.com","internet_access":"wlan","name":"Le Bivouac","phone":"+33 3 84 51 26 95","tents":"yes","website":"https://www.camping-le-bivouac.com/"}},"26858398":{"location":[46.6638594,5.8110895],"ct":"FR","tp":"CS","ts":"2023-04-17T12:29:54Z","tX":528,"tY":361,"tags":{"addr:city":"Doucier","addr:postcode":"39130","addr:street":"Domaine de Chalain","email":"chalain@chalain.com","name":"Domaine de Chalain","opening_hours":"closed","phone":"+33 3 84 25 78 78","website":"https://www.chalain.com/fr/"}},"103329902":{"location":[46.7209466,5.7988379],"ct":"FR","tp":"CS","ts":"2020-04-24T18:42:16Z","tX":528,"tY":361,"tags":{"access":"customers","addr:city":"Monnet-la-Ville","addr:postcode":"39300","addr:street":"Rue Marcel Hugon","email":"camping.sousdoriat@orange.fr","internet_access":"wlan","name":"Sous Doriat","source":"cadastre-dgi-fr source : Direction Générale des Impôts - Cadastre. Mise à jour : 2011","stars":"3","website":"https://www.vacances-camping-jura-location.com/","wheelchair":"yes"}},"103435447":{"location":[46.7121718,5.7961627],"ct":"FR","tp":"CS","ts":"2024-09-25T17:18:16Z","tX":528,"tY":361,"tags":{"addr:city":"Montigny Sur l’Ain","addr:housenumber":"7","addr:postcode":"39300","addr:street":"Chemin du Gît","name":"Camping du Gît","phone":"03 84 73 95 89","source":"cadastre-dgi-fr source : Direction Générale des Impôts - Cadastre. Mise à jour : 2011","website":"https://campingdugit.com/"}},"187965720":{"location":[46.5917814,5.7328612],"ct":"FR","tp":"CS","ts":"2019-03-20T22:34:53Z","tX":528,"tY":361,"tags":{"internet_access":"wlan","name":"La Prairie","source":"cadastre-dgi-fr source : Direction Générale des Impôts - Cadastre. Mise à jour : 2012","website":"https://juracamping-laprairie.com/"}},"188281542":{"location":[46.5770215,5.7408583],"ct":"FR","tp":"CS","ts":"2024-09-17T02:16:38Z","tX":528,"tY":361,"tags":{"addr:city":"CLAIRVAUX-LES-LACS","addr:housenumber":"6","addr:postcode":"39130","addr:street":"Chemin des Tilleuls","name":"Les Tilleuls","phone":"03 84 25 81 45","source":"cadastre-dgi-fr source : Direction Générale des Impôts - Cadastre. Mise à jour : 2012","website":"https://www.jura-tourism.com/camping/camping-les-tilleuls/"}},"188464747":{"location":[46.5689565,5.7537034],"ct":"FR","tp":"CS","ts":"2024-02-09T13:17:47Z","tX":528,"tY":361,"tags":{"addr:city":"Clairveaux-les-Lacs","addr:postcode":"39130","addr:street":"Chemin du Langard","name":"Le Grand Lac","phone":"+33 (0)3 84 25 26 19","source":"cadastre-dgi-fr source : Direction Générale des Impôts - Cadastre. Mise à jour : 2012","stars":"3","website":"https://camping-grandlac.fr"}},"188465937":{"location":[46.565856,5.7539697],"ct":"FR","tp":"CS","ts":"2024-02-09T13:13:55Z","tX":528,"tY":361,"tags":{"addr:city":"Clairvaux-les-Lacs","addr:housenumber":"7","addr:postcode":"39130","addr:street":"Chemin du Langard","brand":"clico chic","email":"grisiere@clicochic.com","name":"La Grisière","phone":"03 84 25 80 48","source":"cadastre-dgi-fr source : Direction Générale des Impôts - Cadastre. Mise à jour : 2012","stars":"3","website":"https://www.clicochic.com/camping-france-franche_comte-grisiere-FR.html"}},"188467949":{"location":[46.5639106,5.7568669],"ct":"FR","tp":"CS","ts":"2020-04-04T16:12:21Z","tX":528,"tY":361,"tags":{"addr:street":"Chemin du Langard","email":"lefayolan@odesia.eu","name":"Le Fayolan","operator":"Yelloh!","phone":"+33 3 84 25 88 52","source":"cadastre-dgi-fr source : Direction Générale des Impôts - Cadastre. Mise à jour : 2012","stars":"4","website":"www.campinglefayolan.fr","wheelchair":"yes"}},"194087814":{"location":[46.5998949,5.6864779],"ct":"FR","tp":"CS","ts":"2020-09-03T12:30:46Z","tX":528,"tY":361,"tags":{"caravans":"yes","fee":"yes","internet_access":"wlan","name":"Camping Beauregard","operator":"Franck Péan","ref:FR:SIRET":"39063409500017","shower":"yes","stars":"4","swimming_pool":"yes","tents":"yes","toilets":"yes","washing_machine":"yes","website":"https://www.juracampingbeauregard.com/"}},"194181598":{"location":[46.5815347,5.7472705],"ct":"FR","tp":"CR","ts":"2024-09-02T10:41:39Z","tX":528,"tY":361,"tags":{"access":"yes","addr:city":"Clairvaux-les-Lacs","addr:postcode":"39130","addr:street":"Route de Lons le Saunier","capacity":"6","caravan_site":"motorhome_stopover","caravan_site:type":"village","fee":"no","internet_access":"no","maxstay":"no","name":"Clairvaux-les-Lacs P2","operator":"Ville de Clairvaux-les-Lacs","power_supply":"no","sanitary_dump_station":"yes","sanitary_dump_station:chemical_toilet":"yes","sanitary_dump_station:grey_water":"yes","sanitary_dump_station:round_drain":"yes","seasonal":"no","supervised":"no","toilets":"no","water_point":"yes","website":"https://www.jura-tourism.com/aire-camping-car/aire-de-service-camping-car-p2/","wikimedia_commons":"File:Aire de camping car Clairvaux 01.jpg"}},"198036101":{"location":[46.5877954,5.6954235],"ct":"FR","tp":"CS","ts":"2022-06-07T13:01:53Z","tX":528,"tY":361,"tags":{"alt_name":"Camping des Pecheurs","capacity":"212","caravans":"yes","contact:housenumber":"9","contact:street":"Chemin de la Plage","fee":"yes","internet_access":"wlan","internet_access:fee":"yes","name":"Camping des Pêcheurs","operator":"Michel Lemattre","phone":"+33 3 84 48 31 33","ref:FR:SIRET":"32475972900019","seasonal":"spring/summer","shower":"yes","stars":"3","swimming_pool":"yes","tents":"yes","toilets":"yes","washing_machine":"yes","website":"https://www.camping-pecheurs.com/"}},"198036104":{"location":[46.586844,5.6999701],"ct":"FR","tp":"CS","ts":"2023-11-04T05:23:36Z","tX":528,"tY":361,"tags":{"caravans":"yes","contact:street":"Chemin du Camping","fee":"yes","internet_access":"wlan","name":"Le Moulin","phone":"+33 3 84 48 31 21","seasonal":"spring/summer","shower":"yes","stars":"4","swimming_pool":"yes","tents":"yes","toilets":"yes","washing_machine":"yes","website":"https://www.camping-moulin.com/"}},"231029821":{"location":[46.5755619,5.9636695],"ct":"FR","tp":"CS","ts":"2025-06-22T07:09:59Z","tX":528,"tY":361,"tags":{"addr:city":"Saint-Laurent-en-Grandvaux","addr:housenumber":"8","addr:postcode":"39150","addr:street":"Rue du Camping","caravans":"yes","drinking_water":"yes","email":"champmars.camping@orange.fr","internet_access":"wlan","motor_vehicle":"yes","name":"Le Champ de Mars","phone":"+33 3 84 60 19 30","power_supply":"yes","sanitary_dump_station":"yes","shower":"yes","stars":"3","swimming_pool":"no","tents":"yes","toilets":"yes","washing_machine":"yes","website":"https://www.camping-saint-laurent-jura.fr/"}},"233823194":{"location":[46.6138827,5.8480823],"ct":"FR","tp":"CS","ts":"2024-02-09T09:27:26Z","tX":528,"tY":361,"tags":{"addr:city":"Doucier","addr:postcode":"39130","addr:street":"Lieu-dit Val-Dessus","capacity":"53","caravans":"yes","email":"relais.de.leventail@gmail.com","name":"Camping du Hérisson","phone":"+33 (0))6 59 37 66 68","reservation":"yes","stars":"3","tents":"yes","website":"https://camping-du-herisson.fr/","wheelchair":"limited"}},"238464802":{"location":[46.6521521,5.7214152],"ct":"FR","tp":"CS","ts":"2023-11-04T05:23:45Z","tX":528,"tY":361,"tags":{"addr:city":"Châtillon","addr:housenumber":"15","addr:postcode":"39130","addr:street":"Rue de l'Épinette","capacity":"150","caravans":"yes","email":"contact@domaine-epinette.com","internet_access":"wlan","name":"Domaine de l'Épinette","phone":"+33 3 84 25 71 44","source":"cadastre-dgi-fr source : Direction Générale des Impôts - Cadastre. Mise à jour : 2013","stars":"3","swimming_pool":"yes","tents":"yes","washing_machine":"yes","website":"https://www.domaine-epinette.com/"}},"306184499":{"location":[46.6633147,5.9608156],"ct":"FR","tp":"CS","ts":"2023-11-04T05:23:52Z","tX":528,"tY":361,"tags":{"alt_name":"Les Chalets d'Alésia","area":"yes","leisure":"yes","name":"Camping du Bois Joli","phone":"+33 3 84 51 50 82","website":"https://www.chaletsalesiajura.com/"}},"355514786":{"location":[46.7469477,5.8976828],"ct":"FR","tp":"CS","ts":"2025-06-09T06:39:41Z","tX":528,"tY":361,"tags":{"name":"Camping de Boyse","stars":"4","website":"https://www.camping-boyse.com/","wheelchair":"yes"}},"356649152":{"location":[46.6779788,5.7790802],"ct":"FR","tp":"CR","ts":"2024-05-22T14:36:01Z","tX":528,"tY":361,"tags":{"bbq":"no","capacity":"48","caravan_site":"motorhome_stopover","caravan_site:type":"lake","caravans":"no","charge":"16.32 EUR","charge:conditional":"13.92 EUR @ (Oct-Apr)","dog":"leashed","fee":"yes","internet_access":"wlan","maxlength":"9","name":"Aire de Marigny, Lac de Chalain","network":"CAMPING-CAR PARK","opening_hours":"24/7","power_supply":"yes","power_supply:capacity":"50","power_supply:maxcurrent":"6","sanitary_dump_station":"yes","tents":"no","trailer":"no","water_point":"yes","website":"https://www.campingcarpark.com/fr_FR/sejour/aire-etape-camping-car/bourgogne-franche-comte/39-jura/marigny"}},"593149690":{"location":[46.676671,5.7861078],"ct":"FR","tp":"CS","ts":"2023-11-04T05:23:54Z","tX":528,"tY":361,"tags":{"addr:city":"Marigny","addr:postcode":"39130","camp_site":"deluxe","caravans":"yes","email":"pergola@capfun.com","internet_access":"wlan","motor_vehicle":"yes","name":"La Pergola","opening_hours":"Mo-Su 08:30-12:30, 13:30-19:00","operator":"capfun","phone":"+33 3 84 25 70 03","stars":"4","swimming_pool":"yes","tents":"yes","washing_machine":"yes","website":"https://www.lapergola.com/"}},"593465781":{"location":[46.6513091,5.7739968],"ct":"FR","tp":"CS","ts":"2024-05-13T07:09:50Z","tX":528,"tY":361,"tags":{"addr:city":"Doucier","addr:postcode":"39130","addr:street":"Rue des 3 lacs","caravans":"yes","drinking_water":"yes","email":"camping.lesmerilles@wanadoo.fr","internet_access":"wlan","name":"Camping des Mérilles","phone":"+33 3 84 25 73 06","power_supply":"yes","sanitary_dump_station":"yes","shower":"yes","stars":"3","swimming_pool":"yes","tents":"yes","toilets":"yes","website":"https://www.campingjura.com/"}},"654363471":{"location":[46.6181677,5.7010692],"ct":"FR","tp":"CS","ts":"2024-02-09T13:32:46Z","tX":528,"tY":361,"tags":{"addr:city":"Blye","addr:housenumber":"817","addr:postcode":"39130","addr:street":"Grande Rue","name":"Camping les Claies","operator":"Huberte Lacroix","ref:FR:SIRET":"35143781900011"}},"672497709":{"location":[46.5960929,5.8723637],"ct":"FR","tp":"CS","ts":"2023-11-04T05:23:39Z","tX":528,"tY":361,"tags":{"addr:housenumber":"2","addr:street":"Route du Lac","caravans":"yes","drinking_water":"yes","internet_access":"wlan","name":"Camping de l'Abbaye","opening_hours":"Mo-Su 08:30-12:15, 13:45-19:45","phone":"+33 3 84 25 57 04","power_supply":"yes","sanitary_dump_station":"yes","shower":"yes","stars":"3","swimming_pool":"no","tents":"yes","toilets":"yes","website":"https://www.camping-abbaye.com/"}},"834114772":{"location":[46.6406839,5.9073612],"ct":"FR","tp":"CS","ts":"2024-07-19T16:19:53Z","tX":528,"tY":361,"tags":{"camp_site":"serviced","caravans":"yes","drinking_water":"yes","internet_access":"no","name":"Camping Municipal sur Narlay","openfire":"no","opening_hours":"Mo-Su 09:00-12:00, 14:00-19:00","power_supply":"yes","sanitary_dump_station":"yes","shower":"yes","stars":"1","static_caravans":"no","swimming_pool":"no","tents":"yes","toilets":"yes","website":"https://www.camping-narlay.com/","wheelchair":"yes"}},"1022517664":{"location":[46.7464133,5.8992313],"ct":"FR","tp":"CR","ts":"2024-06-20T14:13:15Z","tX":528,"tY":361,"tags":{"capacity":"5","caravan_site":"motorhome_stopover","caravan_site:type":"town","description":"8 EUR","fee":"yes","fee:conditional":"no @ (Sep 16-May 7)","name":"Aire de services de Boÿse","power_supply":"no","sanitary_dump_station":"yes","services:charge":"5 EUR","water_point":"yes","website":"https://www.bourgognefranchecomte.com/aires-de-camping-car/aire-de-services-de-boyse"}},"1294772920":{"location":[46.7118299,5.6395155],"ct":"FR","tp":"CS","ts":"2024-09-25T17:19:02Z","tX":528,"tY":361,"tags":{"addr:city":"Baume-les-Messieurs","addr:postcode":"39210","capacity":"62","caravans":"yes","email":"camping@baumelesmessieurs.biz","fee":"yes","mobile":"+33 6 30 19 83 29","name":"Camping de la Toupe","operator":"Commune de Baume-les-Messieurs","phone":"+33 3 84 43 03 67","shower":"yes","static_caravans":"no","tents":"yes","toilets":"yes","website":"http://www.baumelesmessieurs.fr/camping-de-la-toupe/","wheelchair":"yes"}},"1296429078":{"location":[46.5759457,5.7400019],"ct":"FR","tp":"CR","ts":"2025-05-26T13:21:35Z","tX":528,"tY":361,"tags":{"capacity":"45","caravan_site":"motorhome_stopover","caravan_site:type":"village","fee":"yes","name":"Aire camping-cars Le Tilleul","official_name":"Aire de stationnement camping-car P1","operator":"Aireservices","phone":"+33 3 84 25 27 47","power_supply":"yes","ref":"P1","sanitary_dump_station":"yes","water_point":"yes","website":"https://www.clairvaux-les-lacs.com/page/aire-de-camping-car"}},"1310455628":{"location":[46.7251494,5.7840046],"ct":"FR","tp":"CS","ts":"2024-08-23T11:16:20Z","tX":528,"tY":361,"tags":{"name":"Le Pont du Navoy"}},"1374082737":{"location":[46.6523048,5.7210815],"ct":"FR","tp":"CS","ts":"2025-04-02T09:09:02Z","tX":528,"tY":361,"tags":{}},"3768014885":{"location":[46.7550428,5.726408],"ct":"FR","tp":"CS","ts":"2022-01-25T13:54:00Z","tX":528,"tY":361,"tags":{"addr:city":"Fay-en-Montagne","addr:country":"FR","addr:housenumber":"2","addr:postcode":"39800","addr:street":"Route du Fied","fax":"+33 9 64 45 12 08","name":"Camping du Petit Cheval Blanc","phone":"+33 3 84 85 32 07","website":"http://www.petitchevalblanc.fr/"}},"5884774973":{"location":[46.6268358,5.8292036],"ct":"FR","tp":"CR","ts":"2024-09-02T11:05:33Z","tX":528,"tY":361,"tags":{"addr:city":"Menétrux-en-Joux","addr:housenumber":"7","addr:postcode":"39130","addr:street":"Rue des Tilleuls","caravan_site":"motorhome_stopover","caravan_site:type":"farm","dog":"no","fee":"yes","name":"Scierie des Lacs","operator":"Sylvain Gauthier","website":"https://en.montagnes-du-jura.fr/sit/aire-de-camping-car-scierie-des-lacs"}},"6275942362":{"location":[46.5851612,5.7388745],"ct":"FR","tp":"CR","ts":"2024-10-23T08:37:59Z","tX":528,"tY":361,"tags":{"attraction":"Musée des Maquettes","caravan_site":"motorhome_stopover","caravan_site:type":"museum","fee":"no","name":"Aire Musée des machines à nourrir le monde P3","operator":"Commune de Clairvaux-les-Lacs","ref":"P3","website":"https://www.museemaquettebois.fr/"}},"12151348797":{"location":[46.7549198,5.6309221],"ct":"FR","tp":"CR","ts":"2024-09-02T10:08:43Z","tX":528,"tY":361,"tags":{"caravan_site":"motorhome_stopover","caravan_site:type":"chateau;parking_lot;village","fee":"no","name":"Château-Chalon de la Tour","opening_hours":"24/7","power_supply":"no","seasonal":"no","surface":"asphalt","website":"https://www.jura-tourism.com/aire-camping-car/aire-de-camping-car-8/"}},"7711775547":{"location":[46.666551,5.8151175],"ct":"FR","tp":"SD","ts":"2020-07-13T21:07:13Z","tX":528,"tY":361,"tags":{}},"8516035153":{"location":[46.5813637,5.7473265],"ct":"FR","tp":"SD","ts":"2021-11-20T14:40:26Z","tX":528,"tY":361,"tags":{"access":"yes","charge":"0 €","description":"Station de vidange pour Camping-car.","fee":"no","operator":"Ville de Clairvaux-les-Lacs","sanitary_dump_station":"public","sanitary_dump_station:chemical_toilet":"yes","sanitary_dump_station:grey_water":"yes","sanitary_dump_station:round_drain":"yes","water_point":"yes"}},"8946711523":{"location":[46.5971775,5.8723124],"ct":"FR","tp":"SD","ts":"2021-07-24T14:52:15Z","tX":528,"tY":361,"tags":{"access":"customers","drinking_water":"yes","fee":"yes","sanitary_dump_station:round_drain":"yes"}},"9489495528":{"location":[46.6640625,5.8114935],"ct":"FR","tp":"SD","ts":"2022-02-08T10:48:40Z","tX":528,"tY":361,"tags":{}},"11066953682":{"location":[46.6004823,5.6860156],"ct":"FR","tp":"SD","ts":"2023-07-25T12:26:48Z","tX":528,"tY":361,"tags":{"access":"customers"}},"6919736586":{"location":[46.5907091,5.8617597],"ct":"FR","tp":"PK","ts":"2024-10-30T23:45:07Z","tX":528,"tY":361,"tags":{"description":"bivouac","motorhome":"yes"}},"12691362601":{"location":[46.5801672,5.696606],"ct":"FR","tp":"CR","ts":"2025-03-22T17:05:36Z","tX":528,"tY":361,"tags":{"addr:postcode":"39130","addr:street":"Route de la Saisse","name":"Aire de camping car Pont-de-Poitte"}}}