{"117974178":{"location":[46.420733,5.7232803],"ct":"FR","tp":"CS","ts":"2024-02-09T13:02:08Z","tX":528,"tY":362,"tags":{"addr:city":"Moirans en Montagne","addr:housenumber":"54","addr:postcode":"39260","addr:street":"Avenue de Saint-Claude","email":"info@campinglapetitemontagne.com","name":"La petite montagne","phone":"03 84 42 34 98","source":"bing","stars":"3","website":"https://www.campinglapetitemontagne.com"}},"234379964":{"location":[46.5225369,5.6741508],"ct":"FR","tp":"CS","ts":"2024-07-18T07:22:19Z","tX":528,"tY":362,"tags":{"addr:city":"La Tour-du-Meix","addr:postcode":"39270","addr:street":"Le Pont de la Pyle","caravans":"yes","drinking_water":"yes","email":"info@camping-surchauffant.fr","name":"Camping Surchauffant","phone":"+33 3 84 254108","power_supply":"yes","sanitary_dump_station":"yes","seasonal":"spring/summer","shower":"yes","tents":"yes","toilets":"yes","website":"https://www.camping-surchauffant.fr/"}},"324131723":{"location":[46.3363588,5.6259131],"ct":"FR","tp":"CS","ts":"2024-08-30T09:43:30Z","tX":528,"tY":362,"tags":{"alt_name":"Camping Municipal de Condes","cabins":"yes","caravans":"yes","name":"Bel Air Village Sous le Moulin","phone":"+33 07 86 17 59 12","shower":"yes","source":"cadastre-dgi-fr source : Direction Générale des Impôts - Cadastre. Mise à jour : 2015","stars":"3","tents":"yes","toilets":"yes","website":"https://camping-sousmoulin.com/"}},"324131725":{"location":[46.3410528,5.6297609],"ct":"FR","tp":"CS","ts":"2024-08-29T14:35:43Z","tX":528,"tY":362,"tags":{"access":"customers","brand":"Clicochic","cabins":"yes","caravans":"yes","email":"chancia@clicochic.com","fee":"yes","motorhome":"yes","name":"Camping de Chancia","old_name":"La Presqu'Ile Du Jura;Les Cyclamens","operator":"Municpalité","phone":"+33 474758214","shower":"yes","source":"cadastre-dgi-fr source : Direction Générale des Impôts - Cadastre. Mise à jour : 2015","stars":"3","static_caravans":"yes","tents":"yes","toilets":"yes","website":"https://www.camping-chancia.com","website:contact":"https://www.clicochic.com/camping-france-franche_comte-chancia-FR.html"}},"324146316":{"location":[46.4693756,5.6885285],"ct":"FR","tp":"CS","ts":"2024-09-17T02:16:38Z","tX":528,"tY":362,"tags":{"addr:city":"Maisod","addr:housenumber":"50","addr:postcode":"39260","addr:street":"Rue du Mont du Cerf","brand":"clico chic","email":"trelachaume@clicochic.com","name":"Trelachaume","phone":"+33 3 84 420326","website":"https://www.clicochic.com/camping-france-franche_comte-trelachaume-FR.html"}},"469217700":{"location":[46.5215164,5.7232897],"ct":"FR","tp":"CS","ts":"2017-10-09T23:56:12Z","tX":528,"tY":362,"tags":{"addr:city":"Thoiria","addr:postcode":"39130","cuisine":"french","ele":"440","microbrewery":"no","name":"Domaine de la Fraite","phone":"+33 3 84 25 80 21","website":"http://www.alafraite.com/"}},"839909215":{"location":[46.4638256,5.6872634],"ct":"FR","tp":"CS","ts":"2020-08-23T17:12:04Z","tX":528,"tY":362,"tags":{"name":"Village VVF","operator":"VVF"}},"916899535":{"location":[46.3903575,5.9679716],"ct":"FR","tp":"CR","ts":"2024-10-31T14:48:20Z","tX":528,"tY":362,"tags":{"access":"yes","addr:city":"Lamoura","addr:postcode":"39310","addr:street":"Route de Lajoux","capacity":"6","caravan_site":"motorhome_stopover","caravan_site:type":"countryside","description":"Aire de camping-car en herbe tentes possibles.","fee":"no","internet_access":"no","maxstay":"no","name":"Lamoura - Route de Lajoux","operator":"Ville de Lamoura","power_supply":"no","sanitary_dump_station":"no","sanitary_dump_station:chemical_toilet":"yes","sanitary_dump_station:grey_water":"no","sanitary_dump_station:round_drain":"no","supervised":"no","surface":"grass","tents":"yes","toilets":"yes","water_point":"yes"}},"1029234560":{"location":[46.3729082,5.872142],"ct":"FR","tp":"CS","ts":"2024-09-26T13:28:50Z","tX":528,"tY":362,"tags":{"caravans":"yes","fee":"yes","mobile":"+33 6 07 47 60 22","name":"Flower camping du Martinet","operator":"Ville de Saint-Claude","phone":"+33 3 84 45 00 40","static_caravans":"yes","tents":"yes","website":"https://www.camping-saint-claude.fr/accueil-1-1.htm"}},"1280365628":{"location":[46.3801224,5.8520663],"ct":"FR","tp":"CR","ts":"2024-09-04T13:08:33Z","tX":528,"tY":362,"tags":{"capacity":"3","caravan_site":"motorhome_stopover","caravan_site:type":"primary_road","fee":"no","name":"Aire Saint-Claude - Avenue de la Libération","power_supply":"no","sanitary_dump_station":"yes","seasonal":"no","tents":"no","water_point":"yes","website":"https://www.jura-tourism.com/aire-camping-car/aire-daccueil-et-de-service-camping-car-saint-claude/"}},"1312770954":{"location":[46.4619628,5.7952357],"ct":"FR","tp":"CR","ts":"2024-09-02T09:04:48Z","tX":528,"tY":362,"tags":{"capacity":"3","caravan_site":"motorhome_stopover","caravan_site:type":"village","dog":"yes","ele":"800","fee":"no","name":"Aire de camping-cars Les Crozets","picnic_table":"yes","website":"https://en.montagnes-du-jura.fr/sit/aire-de-stationnement-camping-cars-les-crozets"}},"3068775340":{"location":[46.3659673,5.7061007],"ct":"FR","tp":"CR","ts":"2024-09-02T10:20:08Z","tX":528,"tY":362,"tags":{"bbq":"no","caravan_site":"motorhome_stopover","caravan_site:type":"village","charge":"5 EUR","fee":"yes","internet_access":"no","name":"Aire de camping-car Benoît - Jeurre","power_supply":"yes","power_supply:fee":"yes","toilets":"no","water_point":"yes","water_point:fee":"yes"}},"3168825464":{"location":[46.3801975,5.8522009],"ct":"FR","tp":"SD","ts":"2024-05-06T20:20:41Z","tX":528,"tY":362,"tags":{"fee":"no","sanitary_dump_station:accepted":"black_water;grey_water;tank_chemicals","sanitary_dump_station:chemical_toilet":"yes","sanitary_dump_station:grey_water":"yes"}},"4426036791":{"location":[46.4452923,5.7082605],"ct":"FR","tp":"CS","ts":"2016-10-01T05:46:25Z","tX":528,"tY":362,"tags":{}},"12151455073":{"location":[46.3966743,5.8670801],"ct":"FR","tp":"CR","ts":"2024-10-09T00:32:26Z","tX":528,"tY":362,"tags":{"caravan_site":"motorhome_stopover","caravan_site:type":"river","fee":"no","maxstay":"7 days","name":"Aire camping-car Saint-Claude Moulin Lacroix","power_supply":"no","sanitary_dump_station":"no","trailer":"no"}},"12153481234":{"location":[46.4673931,5.6925192],"ct":"FR","tp":"CR","ts":"2024-09-03T10:38:06Z","tX":528,"tY":362,"tags":{"caravan_site":"motorhome_stopover","caravan_site:type":"harbour","charge":"11 EUR","fee":"yes","name":"Aire de Camping-car La Mercantine à Maisod","sanitary_dump_station":"yes","tents":"no","water_point":"yes","website":"https://moirans-en-montagne.stationverte.com/fr/aire-de-camping-car-la-mercantine-a-maisod_t212506.html"}},"8516018626":{"location":[46.3902095,5.96808],"ct":"FR","tp":"SD","ts":"2021-06-21T12:37:41Z","tX":528,"tY":362,"tags":{"access":"yes","charge":"0 €","description":"Station de vidange eau noire dans les toilettes. Pas de vidange des eaux grises.possibilité de vidanger les eaux grise à Mijoux, 3.6 km à vol d'oiseau en direction du Sud-Est.","fee":"no","operator":"Ville de Lamoura","sanitary_dump_station:chemical_toilet":"yes","sanitary_dump_station:grey_water":"no","sanitary_dump_station:round_drain":"no","water_point":"yes"}},"12153481235":{"location":[46.4645388,5.6883095],"ct":"FR","tp":"SD","ts":"2024-09-03T10:38:06Z","tX":528,"tY":362,"tags":{"access":"yes","fee":"yes"}}}