{"61940537":{"location":[45.9630487,5.8359683],"ct":"FR","tp":"CS","ts":"2024-09-28T06:25:23Z","tX":528,"tY":364,"tags":{"name":"Camping du Haut-Rhone","operator":"Municipalité","phone":"+33 4 50 48 56 40","source":"cadastre-dgi-fr source : Direction Générale des Impôts - Cadastre. Mise à jour : 2010","website":"https://www.camping-seyssel.com/"}},"284872914":{"location":[45.9714266,5.7024438],"ct":"FR","tp":"CS","ts":"2020-10-24T21:06:47Z","tX":528,"tY":364,"tags":{"name":"Camping municipal de Songieu","operator":"Municipalité","phone":"+33 4 79 87 71 38","source":"Bing","website":"https://www.ain-tourisme.com/fiches/Songieu/Camping/Camping-Municipal/111626"}},"291518294":{"location":[45.949863,5.8230686],"ct":"FR","tp":"CS","ts":"2023-11-02T01:24:57Z","tX":528,"tY":364,"tags":{"email":"camp.inter@wanadoo.fr","internet_access":"wlan","name":"Camping International","phone":"+33 4 50 59 28 47","stars":"3","website":"https://camp-inter.fr/"}},"291518304":{"location":[45.9515562,5.8335201],"ct":"FR","tp":"CR","ts":"2024-08-15T12:58:05Z","tX":528,"tY":364,"tags":{"access":"customers","alt_name":"Aire de camping-cars de Seyssel Ain","branch":"Seyssel","brand":"CAMPING-CAR PARK","capacity":"22","caravan_site":"motorhome_stopover","caravan_site:type":"river","caravans":"no","charge":"150 EUR","charge:conditional":"12.29 EUR @(Oct-Apr)","dog":"leashed","fee":"yes","maxlength":"none","name":"Aire CAMPING-CAR PARK de Seyssel","network":"CAMPING-CAR PARK","opening_hours":"24/7","operator":"CAMPING-CAR PARK","power_supply":"yes","power_supply:maxcurrent":"6","sanitary_dump_station":"yes","surface":"gravel","tents":"no","trailer":"yes","water_point":"yes","website":"https://www.campingcarpark.com/fr_FR/sejour/aire-etape-camping-car/auvergne-rhone-alpes/01-ain/seyssel#0"}},"302046880":{"location":[45.8288505,5.6445859],"ct":"FR","tp":"CS","ts":"2024-01-06T14:39:00Z","tX":528,"tY":364,"tags":{"barrier":"fence","email":"campingvirieu@orange.fr","internet_access":"wlan","internet_access:fee":"no","name":"Le Lac","note":"maxtents: estimé","phone":"+33 4 79 87 82 02","stars":"3","tents":"80","website":"https://www.campingvirieu.com/camping-france.html"}},"317501672":{"location":[45.852986,5.7930229],"ct":"FR","tp":"CS","ts":"2024-04-01T13:49:56Z","tX":528,"tY":364,"tags":{"bbq":"yes","camp_site":"standard","capacity":"75","caravans":"yes","dog":"yes","drinking_water":"yes","email":"info@camping-alpes.net","fee":"yes","hot_water":"yes","internet_access":"wlan","internet_access:fee":"no","kitchen":"no","motor_vehicle":"yes","motorhome":"yes","name":"Le Colombier","nudism":"no","open_fire":"no","opening_hours":"Apr 15-Sep 30","operator":"LE COLOMBIER","phone":"+33 4 79 87 19 00","picnic_table":"no","power_supply":"yes","reservation":"yes","shower":"hot","stars":"3","static_caravans":"yes","tents":"yes","toilets":"yes","washing_machine":"yes","website":"https://www.camping-alpes.net/"}},"317501673":{"location":[45.8745016,5.682484],"ct":"FR","tp":"CS","ts":"2024-04-01T13:25:09Z","tX":528,"tY":364,"tags":{"bbq":"yes","cabins":"yes","capacity":"70","capacity:cabins":"4","capacity:pitch":"61","capacity:static_caravans":"7","caravans":"yes","dog":"yes","drinking_water":"yes","fee":"yes","hot_water":"yes","internet_access":"wlan","internet_access:fee":"yes","kitchen":"no","motor_vehicle":"yes","motorhome":"yes","name":"Le Vaugrais","nudism":"no","open_fire":"no","opening_hours":"Apr 15-Jun 30, Sep 01-30: PH,Mo-Su 08:00-12:00,14:00-19:00; Jul-Aug: PH,Mo-Su 08:00-12:00,14:00-20:00","operator":"SARL CAMPING LE VAUGRAIS","phone":"+33 4 79 87 37 34","picnic_table":"no","power_supply":"yes","reservation":"yes","shower":"hot","stars":"3","static_caravans":"yes","swimming_pool":"yes","tents":"yes","toilets":"yes","washing_machine":"yes","website":"http://www.camping-le-vaugrais.fr"}},"337051298":{"location":[45.9061424,5.679611],"ct":"FR","tp":"CS","ts":"2020-10-24T21:06:12Z","tX":528,"tY":364,"tags":{"name":"Camping municipal de Champagne","operator":"Municipalité","phone":"+33 4 79 87 61 40","website":"https://www.ain-tourisme.com/fiches/Champagne-en-Valromey/Camping/Camping-Municipal/85169"}},"437690002":{"location":[46.01699,5.9421795],"ct":"FR","tp":"CS","ts":"2016-08-17T23:31:15Z","tX":528,"tY":364,"tags":{"name":"Le Celestin","source":"BDOrtho IGN 2016"}},"660297193":{"location":[45.9023541,5.9270791],"ct":"FR","tp":"CS","ts":"2020-08-23T20:07:02Z","tX":528,"tY":364,"tags":{"name":"Les Charmilles"}},"916894408":{"location":[45.879474,5.8424745],"ct":"FR","tp":"CR","ts":"2024-10-09T14:10:19Z","tX":528,"tY":364,"tags":{"access":"yes","addr:city":"Serrières-en-Chautagne","addr:postcode":"73310","addr:street":"Impasse du Verdan","capacity":"18","caravan_site":"motorhome_stopover","caravan_site:type":"lake","caravans":"no","fee":"no","maxstay":"72 hours","name":"Aire Camping Car Serrières-en-Chautagne","operator":"Ville de Serrières-en-Chautagne","parking:direction":"backward","power_supply":"no","sanitary_dump_station":"yes","sanitary_dump_station:chemical_toilet":"yes","sanitary_dump_station:grey_water":"yes","sanitary_dump_station:round_drain":"yes","supervised":"no","water_point":"yes","website":"https://gassin.eu/fr/hebergement/aire-de-service-accueil-camping-cars/serrieres-en-chautagne/aire-d-accueil-et-de-service-camping-cars-152169/"}},"916895574":{"location":[46.0049809,5.7826359],"ct":"FR","tp":"CR","ts":"2024-09-02T08:47:23Z","tX":528,"tY":364,"tags":{"access":"yes","addr:city":"Chanay","addr:postcode":"01420","addr:street":"Route de Bocconod","capacity":"4","caravan_site":"motorhome_stopover","caravan_site:type":"village","charge":"0 EUR","description":"Aire de camping-car. Electricité 3€/1h","fee":"no","maxstay":"no","name":"Aire Camping Car Municipale Chanay","operator":"Ville de Chanay","power_supply":"yes","sanitary_dump_station":"yes","sanitary_dump_station:chemical_toilet":"yes","sanitary_dump_station:grey_water":"yes","sanitary_dump_station:round_drain":"yes","supervised":"no","surface":"asphalt","toilets":"yes","water_point":"yes","website":"https://en.montagnes-du-jura.fr/sit/aire-de-camping-cars-de-chanay"}},"1000272652":{"location":[45.8798254,5.8401164],"ct":"FR","tp":"CS","ts":"2023-11-19T16:17:30Z","tX":528,"tY":364,"tags":{"caravans":"yes","name":"Camping Le Clairet","stars":"3","tents":"yes","website":"https://www.camping-leclairet.fr"}},"1038813296":{"location":[46.0097901,5.9758986],"ct":"FR","tp":"CS","ts":"2022-03-09T17:26:49Z","tX":528,"tY":364,"tags":{"name":"Le Chamaloup"}},"1183594018":{"location":[45.9065391,5.8141079],"ct":"FR","tp":"CS","ts":"2024-09-11T03:00:21Z","tX":528,"tY":364,"tags":{"addr:city":"Anglefort","addr:housenumber":"420","addr:postcode":"01350","addr:street":"Chemin du Mansin","email":"contact@camping-anglefort.com","name":"Lac de Mansin","phone":"+33 6 61 77 04 00","website":"https://camping-anglefort.com"}},"1217826614":{"location":[45.849389,5.8332507],"ct":"FR","tp":"CS","ts":"2023-10-23T16:47:55Z","tX":528,"tY":364,"tags":{"addr:city":"Ruffieux","addr:postcode":"73310","caravans":"yes","drinking_water":"yes","email":"camping.saumont@wanadoo.fr","fee":"yes","internet_access":"wlan","internet_access:fee":"yes","name":"Camping Saumont","power_supply":"yes","shower":"yes","tents":"yes","toilets":"yes","website":"https://www.campingsaumont.com/"}},"4279658390":{"location":[45.9046057,5.9589943],"ct":"FR","tp":"CS","ts":"2021-04-11T08:01:00Z","tX":528,"tY":364,"tags":{"fee":"yes","name":"Autrucheland","phone":"+33 4 50 60 59 22","sanitary_dump_station":"yes","website":"http://www.autrucheland.com/"}},"9778918816":{"location":[46.0393082,5.701549],"ct":"FR","tp":"CS","ts":"2024-08-16T09:34:25Z","tX":528,"tY":364,"tags":{"access":"customers","name":"Aire naturelle de camping Les Plans d'Hotonnes","operator":"Municipalité","phone":"+33 6 58 75 65 01","website":"https://www.activpleinair.com/camping/jura-plateau-de-retord-ain/"}},"12238638357":{"location":[45.8344394,5.7420266],"ct":"FR","tp":"CR","ts":"2024-10-09T15:48:14Z","tX":528,"tY":364,"tags":{"caravan_site":"motorhome_stopover","caravan_site:type":"parking_lot","caravans":"no","fee":"no","name":"Aire de stationnement de Ceyzérieu","power_supply":"no","sanitary_dump_station":"no","seasonal":"no","tents":"no","water_point":"no","website":"https://www.ain-tourisme.com/fiches/Ceyzerieu/Aire-de-service-accueil-camping-cars/Aire-de-stationnement-de-Ceyzerieu/5736847/?view=liste"}},"5916173497":{"location":[45.8303075,5.6422587],"ct":"FR","tp":"SD","ts":"2024-10-09T15:50:17Z","tX":528,"tY":364,"tags":{"payment:token_coin":"only","power_supply":"yes","sanitary_dump_station:chemical_toilet":"yes","sanitary_dump_station:fee":"yes","sanitary_dump_station:gravity":"yes","sanitary_dump_station:grey_water":"yes","sanitary_dump_station:suction":"no","water_point":"yes","website":"https://www.ain-tourisme.com/fiches/Virieu-le-Grand/Aire-de-service-accueil-camping-cars/Borne-de-services-pour-camping-cars/4924161/"}},"8515937272":{"location":[45.8805141,5.8430866],"ct":"FR","tp":"SD","ts":"2024-10-09T14:09:46Z","tX":528,"tY":364,"tags":{"access":"yes","fee":"no","operator":"Ville de Serrières-en-Chautagne","sanitary_dump_station":"public","sanitary_dump_station:chemical_toilet":"yes","sanitary_dump_station:grey_water":"yes","sanitary_dump_station:round_drain":"yes","water_point":"yes"}},"8515973254":{"location":[46.0050104,5.782884],"ct":"FR","tp":"SD","ts":"2024-09-02T08:47:23Z","tX":528,"tY":364,"tags":{"access":"yes","fee":"no","operator":"Ville de Chanay","sanitary_dump_station":"public","sanitary_dump_station:chemical_toilet":"yes","sanitary_dump_station:grey_water":"yes","sanitary_dump_station:round_drain":"yes","water_point":"yes"}},"12151300919":{"location":[46.0384418,5.7001266],"ct":"FR","tp":"SD","ts":"2024-10-31T11:59:21Z","tX":528,"tY":364,"tags":{"access":"yes","charge":"2 EUR","fee":"yes","website":"https://www.ain-tourisme.com/fiches/Haut-Valromey/Aire-de-service-accueil-camping-cars/Aire-de-service-pour-camping-cars-des-Plans-d-Hotonnes/864902/"}}}