{"120438982":{"location":[45.762524,5.9085902],"ct":"FR","tp":"CS","ts":"2022-07-21T09:28:13Z","tX":528,"tY":365,"tags":{"caravans":"yes","name":"La Colombière","stars":"1","tents":"yes"}},"120438986":{"location":[45.767169,5.9024385],"ct":"FR","tp":"CS","ts":"2024-03-27T08:40:53Z","tX":528,"tY":365,"tags":{"capacity:pitches":"25","caravans":"yes","name":"Sous la Colline","phone":"+33 4 79 54 76 79","shower":"yes","stars":"1","tents":"yes","toilets":"yes","website":"https://www.gites-de-france-savoie.com/fiche-hebergement-73G43751.html"}},"141323281":{"location":[45.6550202,5.865032],"ct":"FR","tp":"CS","ts":"2022-05-07T02:12:56Z","tX":528,"tY":365,"tags":{"access":"customers","addr:city":"Le Bourget du Lac","addr:housenumber":"501","addr:postcode":"73370","addr:street":"Boulevard Ernest Coudurier","fee":"yes","internet_access":"wlan","name":"Camping de l'Île aux Cygnes","phone":"+33 4 79 72 28 25","seasonal":"spring/summer","stars":"3","wheelchair":"yes"}},"166736687":{"location":[45.6951739,5.8966209],"ct":"FR","tp":"CS","ts":"2022-06-08T15:40:55Z","tX":528,"tY":365,"tags":{"addr:city":"Aix-les-Bains","addr:housenumber":"160","addr:postcode":"73100","addr:street":"Avenue du Petit Port","capacity:caravans":"44","internet_access":"wlan","name":"Camping du Pêcheur","website":"https://campingpecheuraixlesbains.com"}},"168080424":{"location":[45.7666986,5.9121292],"ct":"FR","tp":"CS","ts":"2022-07-21T09:28:13Z","tX":528,"tY":365,"tags":{"caravans":"yes","name":"Le Meyrieux","stars":"1","tents":"yes"}},"171515585":{"location":[45.7058852,5.7541509],"ct":"FR","tp":"CS","ts":"2022-08-24T07:38:12Z","tX":528,"tY":365,"tags":{"addr:postcode":"73170","addr:street":"Avenue du Rhône","internet_access":"wlan","name":"Kanoti","phone":"+33614339222","website":"https://kanoti.fr/"}},"175590387":{"location":[45.7001692,5.8872201],"ct":"FR","tp":"CS","ts":"2019-09-12T09:10:32Z","tX":528,"tY":365,"tags":{"contact:email":"info@camping-sierroz.com","contact:fax":"+33 4 79618990","contact:phone":"+33 4 79618989","contact:website":"http://www.camping-sierroz.com/","internet_access":"wlan","internet_access:fee":"no","name":"Camping International du Sierroz","payment:coins":"yes","payment:notes":"yes","payment:visa":"yes","sanitary_dump_station":"customers","stars":"3"}},"195102499":{"location":[45.6947054,5.8234055],"ct":"FR","tp":"CS","ts":"2023-09-14T13:11:26Z","tX":528,"tY":365,"tags":{"addr:city":"Saint-Jean-de-Chevelu","addr:housenumber":"188","addr:postcode":"73170","addr:street":"Route des Lacs","caravans":"yes","drinking_water":"yes","email":"campingdeslacs73@gmail.com","fee":"yes","image":"https://www.camping-lacs-savoie.com/images/prov/slide.jpg","internet_access":"wlan","name":"Camping des Lacs","opening_hours":"08:00-12:00,14:00-19:00","operator":"SARL PACHAMAMA","phone":"+33 6 59 49 83 94","shower":"yes","stars":"3","static_caravans":"yes","tents":"yes","website":"https://www.camping-lacs-savoie.com/"}},"203345778":{"location":[45.5954404,5.6346349],"ct":"FR","tp":"CS","ts":"2023-02-23T08:40:21Z","tX":528,"tY":365,"tags":{"addr:city":"Saint-Genix-sur-Guiers","addr:postcode":"73240","addr:street":"Route de la Glière","capacity":"200","fee":"yes","internet_access":"yes","name":"Les Bords du Guiers","payment:credit_cards":"yes","payment:debit_cards":"yes","website":"https://www.lesbordsduguiers.com/"}},"317497873":{"location":[45.7684618,5.767955],"ct":"FR","tp":"CS","ts":"2019-08-15T08:46:54Z","tX":528,"tY":365,"tags":{"name":"Camping du Lac du Lit du Roi","operator":"VivaCamp","phone":"+33 4 79 42 12 03","stars":"4","website":"https://www.camping-savoie.com/"}},"317501670":{"location":[45.6409017,5.6288912],"ct":"FR","tp":"CR","ts":"2024-10-09T15:58:20Z","tX":528,"tY":365,"tags":{"bbq":"no","branch":"Brégnier-Cordon","brand":"CAMPING-CAR PARK","capacity":"23","caravan_site":"motorhome_stopover","caravan_site:type":"village;river","caravans":"no","charge":"14.26 EUR","charge:conditional":"12.29 EUR @(Nov-Apr)","dog":"leashed","fee":"yes","internet_access":"wlan","internet_access:fee":"no","maxlength":"9","name":"Aire camping-car park de Brégnier-Cordon","network":"CAMPING-CAR PARK","old_name":"La Bruyère","opening_hours":"24/7","operator":"CAMPING-CAR PARK","phone":"+33 4 79 87 26 89","power_supply":"yes","power_supply:capacity":"28","power_supply:fee":"no","power_supply:maxcurrent":"6","sanitary_dump_station":"yes","seasonal":"no","tents":"no","trailer":"no","water_point":"yes","website":"https://www.campingcarpark.com/fr_FR/sejour/aire-etape-camping-car/auvergne-rhone-alpes/01-ain/bregnier-cordon"}},"417381497":{"location":[45.6531464,5.8629058],"ct":"FR","tp":"CR","ts":"2024-06-19T09:35:44Z","tX":528,"tY":365,"tags":{"caravan_site":"motorhome_stopover","caravan_site:type":"camp_site","caravans":"no","charge":"14 EUR","charge:conditional":"11 EUR@(Apr 9-May 25), 14 EUR@(May 26-Sep 18)","fee":"yes","name":"L'Île aux Cygnes","operator":"Le Bourget du Lac","payment:credit_cards":"yes","sanitary_dump_station":"yes","services:charge":"2.50 EUR","water_point":"yes","website":"https://www.ileauxcygnes.fr/camping-car/"}},"485738069":{"location":[45.8107405,5.7886567],"ct":"FR","tp":"CS","ts":"2024-04-06T14:18:04Z","tX":528,"tY":365,"tags":{"access":"customers","addr:city":"Chanaz","addr:housenumber":"681","addr:postcode":"73310","addr:street":"Route de l'Écluse","capacity":"108","caravans":"yes","drinking_water":"yes","name":"Camping des Iles - Chanaz","sanitary_dump_station":"yes","tents":"yes","website":"https://www.campingdechanaz.com"}},"511406224":{"location":[45.6968778,5.8893642],"ct":"FR","tp":"CR","ts":"2024-05-18T09:16:24Z","tX":528,"tY":365,"tags":{"addr:city":"Aix-les-Bains","addr:postcode":"73100","addr:street":"Rue des Goélands","bbq":"no","capacity":"71","caravan_site":"motorhome_stopover","caravan_site:type":"lake","caravans":"no","charge":"17.30 EUR","dog":"leashed","fee":"yes","maxlength":"none","name":"Aire de camping-car d'Aix-les-Bains","network":"CAMPING-CAR PARK","operator":"Camping-Car Park","power_supply":"yes","power_supply:capacity":"78","power_supply:maxcurrent":"6","sanitary_dump_station":"yes","tents":"no","trailer":"no","website":"https://www.campingcarpark.com/en_GB/stay/stopover-site-motorhome/auvergne-rhone-alpes/73-savoie/aix-les-bains"}},"644535824":{"location":[45.8125939,5.8465999],"ct":"FR","tp":"CS","ts":"2023-11-05T03:56:58Z","tX":528,"tY":365,"tags":{"access":"yes","addr:city":"Chindrieux","addr:postcode":"73310","addr:street":"Chemin des Choîtres","email":"campinglespeupliers@chindrieux.fr","name":"Camping les Peupliers du Lac","website":"https://www.campinglespeupliersdulac.fr/"}},"681249775":{"location":[45.6793219,5.8023849],"ct":"FR","tp":"CS","ts":"2023-04-15T18:17:39Z","tX":528,"tY":365,"tags":{"cabins":"yes","capacity:cabins":"2","capacity:pitches":"120","caravans":"yes","mobile":"+33 6 13 59 19 66","name":"Le Bol d’Air","opening_hours":"Apr 1 - Sep 30","phone":"+33 3 27 59 05 54","shower":"yes","stars":"2","tents":"yes","toilets":"yes"}},"711084635":{"location":[45.7935286,5.8190326],"ct":"FR","tp":"CS","ts":"2024-01-20T15:24:16Z","tX":528,"tY":365,"tags":{"name":"Camping municipal Les Babelles","phone":"+33 4 79 54 25 40","stars":"1","website":"http://www.conjux.fr"}},"830314753":{"location":[45.7095948,5.9584616],"ct":"FR","tp":"CS","ts":"2020-07-26T13:40:23Z","tX":528,"tY":365,"tags":{"caravans":"yes","name":"Camping Marlice","source":"data.gouv.fr:DATAtourisme - 05/2020","stars":"2","tents":"yes","website":"https://www.camping-marlice.com/"}},"833822004":{"location":[45.6394279,5.6497851],"ct":"FR","tp":"CS","ts":"2020-08-04T10:49:19Z","tX":528,"tY":365,"tags":{"name":"L'Île de la Comtesse","phone":"+33 4 79 87 23 33","stars":"4","website":"https://www.ile-de-la-comtesse.com/","wheelchair":"yes"}},"1204419309":{"location":[45.7214756,5.9754751],"ct":"FR","tp":"CS","ts":"2024-02-13T17:41:58Z","tX":528,"tY":365,"tags":{"caravan":"yes","name":"Les Tilleuls","phone":"+33 4 79 34 33 56","shower":"yes","tents":"yes","toilets":"yes","website":"https://www.gites-de-france-savoie.com/fiche-hebergement-73G164752.html"}},"1232709070":{"location":[45.8138844,5.787675],"ct":"FR","tp":"CR","ts":"2024-08-06T10:36:54Z","tX":528,"tY":365,"tags":{"caravan_site":"parking_lot","caravan_site:type":"village","caravans":"no","charge":"5 EUR/24 hours","description":"aire de stationnement camping-car le long du Rhône à chanaz","fee":"yes","name":"Parking de l'écluse Chanaz","opening_hours":"24/7","seasonal":"no","tents":"no"}},"1233269576":{"location":[45.7243959,5.7037429],"ct":"FR","tp":"CR","ts":"2024-07-02T12:10:33Z","tX":528,"tY":365,"tags":{"addr:city":"Virignin","addr:postcode":"01300","addr:street":"Port de Plaisance de Virignin","bbq":"no","capacity":"30","caravan_site":"motorhome_stopover","caravan_site:type":"harbour","caravans":"no","charge":"14.26 EUR","dog":"leashed","fee":"yes","internet_access":"wlan","internet_access:fee":"no","maxlength":"none","name":"Aire CAMPING-CAR PARK du port de Virignin","network":"CAMPING-CAR PARK","opening_hours":"24/7","operator":"CAMPING-CAR PARK","power_supply":"yes","power_supply:capacity":"30","power_supply:fee":"no","power_supply:maxcurrent":"6","sanitary_dump_station":"yes","seasonal":"no","surface":"asphalt","tents":"no","trailer":"yes","water_point":"yes","website":"https://www.campingcarpark.com/fr_FR/sejour/aire-etape-camping-car/auvergne-rhone-alpes/01-ain/virignin"}},"1304631136":{"location":[45.6905431,5.7383594],"ct":"FR","tp":"CS","ts":"2024-07-31T15:15:38Z","tX":528,"tY":365,"tags":{"access":"private","addr:city":"Yenne","addr:street":"Le Chapinan","brand":"FFN","email":"clubsoleilsavoienature@gmail.com","fee":"yes","name":"Club du Soleil Savoie Nature (CSSN)","nudism":"yes","phone":"+33 6 35 66 62 41","website":"https://www.clubsoleilsavoienature.fr"}},"1330931484":{"location":[45.8137646,5.7227738],"ct":"FR","tp":"CR","ts":"2024-11-05T15:20:40Z","tX":528,"tY":365,"tags":{"capacity":"2","caravan_site":"motorhome_stopover","caravan_site:type":"winery","dog":"yes","fee":"no","name":"Aire d'accueil pour camping-cars Le Caveau Bugiste","network":"France Passion","picnic_table":"yes","power_supply":"yes","seasonal":"no","tourism:website":"https://en.montagnes-du-jura.fr/sit/aire-daccueil-pour-camping-cars-le-caveau-bugiste","water_supply":"yes","water_supply:fee":"no","website":"https://www.caveau-bugiste.fr/boutique/","wikimedia_commons":"Category:Aire camping-cars Le Caveau Bugiste"}},"1403077178":{"location":[45.778813,5.8148981],"ct":"FR","tp":"CS","ts":"2020-10-24T21:12:49Z","tX":528,"tY":365,"tags":{"addr:city":"Saint-Pierre-de-Curtille","addr:housenumber":"1218","addr:postcode":"73310","addr:street":"Route du tour du lac","capacity":"100","fee":"yes","name":"Camping municipal Le Bel Air","operator":"SARL Au Bien Hêtre","stars":"1","website":"https://www.lac-du-bourget-camping-le-bel-air.com/","wheelchair":"yes"}},"6791949714":{"location":[45.7555866,5.6779163],"ct":"FR","tp":"CR","ts":"2024-11-05T23:02:42Z","tX":528,"tY":365,"tags":{"addr:city":"Belley","addr:postcode":"01300","addr:street":"Route de Saint-Germain","caravan_site":"motorhome_stopover","caravan_site:type":"town","caravans":"no","fee":"no","internet_access":"no","name":"Aire de Camping-cars Belley","sanitary_dump_station":"yes","surface":"asphalt","water_point":"yes","waterpoint:fee":"no","wikimedia_commons":"Category:Aire de Camping-cars Belley"}},"7040120315":{"location":[45.8113526,5.7890904],"ct":"FR","tp":"SD","ts":"2023-12-20T15:49:31Z","tX":528,"tY":365,"tags":{"access":"yes","charge":"2 EUR","fee":"yes","sanitary_dump_station:chemical_toilet":"yes","sanitary_dump_station:grey_water":"yes","water_point":"yes"}},"7814982689":{"location":[45.6534729,5.8638321],"ct":"FR","tp":"SD","ts":"2020-08-15T11:35:18Z","tX":528,"tY":365,"tags":{"survey:date":"2020-08-15"}},"12311563139":{"location":[45.7554638,5.6777262],"ct":"FR","tp":"SD","ts":"2024-11-05T23:02:42Z","tX":528,"tY":365,"tags":{"access":"yes","fee":"no","power_supply":"yes","sanitary_dump_station:chemical_toilet":"yes","sanitary_dump_station:grey_water":"yes","water_point":"yes","water_point:fee":"no","wikimedia_commons":"File:Aire de Camping-cars Belley Service Area.jpg"}}}