{"55490344":{"location":[45.3806885,5.6403389],"ct":"FR","tp":"CS","ts":"2024-11-24T20:07:42Z","tX":528,"tY":366,"tags":{"addr:city":"Saint Etienne de Crossey","addr:postcode":"38960","addr:street":"Route de Saint Nicolas","caravans":"yes","name":"Camping municipal La Grande Forêt","tents":"yes","website":"https://www.st-etienne-de-crossey.fr/loisirs/camping/municipal-camping/"}},"123150839":{"location":[45.5409092,5.8035894],"ct":"FR","tp":"CS","ts":"2025-04-25T19:38:15Z","tX":528,"tY":366,"tags":{"addr:city":"Lépin-le-Lac","addr:postcode":"73610","cabins":"yes","caravans":"yes","drinking_water":"yes","internet_access":"wlan","internet_access:fee":"yes","motor_vehicle":"yes","motorhome":"yes","name":"Camping Le Mont Grêle","opening_hours":"apr-sept","permanent_camping":"yes","phone":"+33 4 79 36 06 64","power_supply":"yes","shower":"yes","source":"bing","stars":"3","static_caravans":"yes","tents":"yes","toilets":"yes","website":"https://www.camping-lemontgrele.com/"}},"123150840":{"location":[45.5408575,5.7799548],"ct":"FR","tp":"CS","ts":"2024-11-04T21:14:40Z","tX":528,"tY":366,"tags":{"cabins":"yes","capacity":"89","capacity:cabins":"1","capacity:pitches":"90","caravans":"yes","internet_access":"wlan","name":"Le Curtelet","phone":"+33 4 79 44 11 22","shower":"yes","source":"bing","stars":"3","tents":"yes","toilets":"yes","website":"https://camping-le-curtelet.com"}},"123150842":{"location":[45.5400161,5.8001779],"ct":"FR","tp":"CS","ts":"2024-06-22T22:52:17Z","tX":528,"tY":366,"tags":{"addr:city":"Lépin-le-Lac","addr:postcode":"73610","capacity":"156","fee":"yes","internet_access":"wlan","name":"Camping Les Peupliers","opening_hours":"Apr-Oct","phone":"+33 4 79 36 00 48","power_supply":"yes","sanitary_dump_station":"yes","shower":"yes","source":"bing","stars":"2","toilets":"yes","website":"https://www.camping-lespeupliers.net/"}},"135861246":{"location":[45.4304085,5.7021621],"ct":"FR","tp":"CS","ts":"2019-05-01T07:20:06Z","tX":528,"tY":366,"tags":{"name":"Camping Le Balcon De Chartreuse","source":"Bing"}},"177760567":{"location":[45.5399281,5.7984985],"ct":"FR","tp":"CS","ts":"2023-08-20T08:30:10Z","tX":528,"tY":366,"tags":{"addr:city":"Lépin-le-Lac","addr:postcode":"73610","capacity":"185","fee":"yes","name":"Camping Ferrand","opening_hours":"May-Sep","phone":"+33 4 79 36 01 50","stars":"2","website":"http://camping-aiguebelette-ferrand.com/"}},"254388750":{"location":[45.4824437,5.7484285],"ct":"FR","tp":"CS","ts":"2024-06-22T22:51:41Z","tX":528,"tY":366,"tags":{"addr:city":"Saint-Franc","addr:housename":"M. et Mme Jean et Marie-Agnès CURTET HOORNAERT","addr:postcode":"73360","addr:street":"Le Trépu","name":"Camping du Bois de la Teppe","operator":"M. et Mme Jean et Marie-Agnès CURTET HOORNAERT","phone":"+33 4 76 31 10 57","website":"https://campingduboisdelateppe.fr/"}},"298997963":{"location":[45.4347862,5.7565269],"ct":"FR","tp":"CS","ts":"2025-03-05T15:59:24Z","tX":528,"tY":366,"tags":{"addr:city":"Entre-deux-Guiers","addr:housenumber":"37","addr:postcode":"38380","addr:street":"Chemin des Berges","capacity":"60","caravans":"yes","drinking_water":"yes","name":"Camping L'Arc-en-Ciel","power_supply":"yes","sanitary_dump_station":"yes","shower":"yes","tents":"yes","toilets":"yes"}},"329466938":{"location":[45.4562886,5.8125392],"ct":"FR","tp":"CS","ts":"2024-04-10T15:24:46Z","tX":528,"tY":366,"tags":{"contact:email":"contact@camping-labruyere-savoie.com","name":"La Bruyère","phone":"+33 6 09 06 50 35","website":"https://www.camping-labruyere-savoie.com/"}},"370069558":{"location":[45.563453,5.7959162],"ct":"FR","tp":"CS","ts":"2015-09-10T21:40:01Z","tX":528,"tY":366,"tags":{"capacity":"80","contact:phone":"+33 4 79 36 08 79","contact:website":"http://www.camping-aiguebelette-arbaz.com/","name":"Camping de l'Arbaz"}},"370069711":{"location":[45.5667256,5.7953947],"ct":"FR","tp":"CS","ts":"2024-09-01T14:24:13Z","tX":528,"tY":366,"tags":{"caravans":"yes","drinking_water":"yes","name":"Camping Robert","shower":"yes","tents":"yes"}},"370071137":{"location":[45.5716697,5.7949636],"ct":"FR","tp":"CS","ts":"2015-09-10T21:22:23Z","tX":528,"tY":366,"tags":{"contact:email":"lambroisiere@orange.fr","contact:website":"http://campinglambroisiere.com/","name":"Camping l'Ambroisière","stars":"1"}},"370300956":{"location":[45.5566616,5.7907491],"ct":"FR","tp":"CS","ts":"2024-11-11T22:44:02Z","tX":528,"tY":366,"tags":{"addr:city":"Saint-Alban-de-Montbel","addr:housenumber":"231","addr:postcode":"73610","fax":"+33 4 79 44 19 01","name":"Camping Huttopia Lac d'Aiguebelette","phone":"+33 4 79 36 01 44","stars":"4","survey:date":"2022-05-15","website":"https://europe.huttopia.com/site/camping-lac-aiguebelette/"}},"496483464":{"location":[45.5429372,5.8139702],"ct":"FR","tp":"CS","ts":"2020-04-29T20:39:08Z","tX":528,"tY":366,"tags":{"addr:city":"Aiguebelette-le-Lac","addr:country":"FR","addr:place":"Les Grands Prés","addr:postcode":"73610","capacity":"99","caravans":"yes","internet_access":"yes","name":"Camping GCU d'Aiguebelette -le-Lac","operator":"Groupement des Campeurs Universitaires","phone":"+33 4 79 36 08 61","sanitary_dump_station":"customers","tents":"yes","website":"https://www.gcu.asso.fr","wheelchair":"yes"}},"599567535":{"location":[45.5238909,5.7922116],"ct":"FR","tp":"CS","ts":"2019-03-20T21:50:05Z","tX":528,"tY":366,"tags":{"caravans":"yes","name":"Camping du Signal","operator":"Accueil Paysan","phone":"+33647986420","tents":"yes","website":"https://www.accueil-paysan.com/fr/catalog/structure/170/"}},"618983024":{"location":[45.3429473,5.8126035],"ct":"FR","tp":"CR","ts":"2024-10-05T16:19:52Z","tX":528,"tY":366,"tags":{"bbq":"no","capacity":"16","caravan_site":"motorhome_stopover","caravan_site:type":"mountains","caravans":"no","dog":"leashed","fee":"yes","maxlength":"none","name":"Saint-Pierre-de-Chartreuse, Le Couzon","network":"CAMPING-CAR PARK","power_supply":"yes","power_supply:capacity":"16","power_supply:maxcurrent":"6","sanitary_dump_station":"yes","tents":"no","trailer":"no","water_point":"yes","website":"https://www.campingcarpark.com/fr_FR/sejour/aire-etape-camping-car/auvergne-rhone-alpes/38-isere/st-pierre-de-chartreuse-le-couzon"}},"746498220":{"location":[45.4533727,5.8833785],"ct":"FR","tp":"CS","ts":"2020-04-11T15:17:11Z","tX":528,"tY":366,"tags":{"capacity":"30","caravans":"yes","email":"contact@campingourson.com","internet_access":"wlan","internet_access:fee":"no","name":"Camping l'Ourson","phone":"+33 4 79 26 05 63","stars":"3","tents":"yes","website":"https://www.campingourson.com/"}},"793893765":{"location":[45.5682298,5.7861953],"ct":"FR","tp":"CS","ts":"2024-05-24T07:35:33Z","tX":528,"tY":366,"tags":{"capacity":"160","contact:email":"camping.des.chavannes@wanadoo.fr","contact:website":"http://www.camping-des-chavannes.com/","name":"Camping des Chavannes","stars":"3"}},"793893766":{"location":[45.5675669,5.7835427],"ct":"FR","tp":"CS","ts":"2024-07-27T17:01:00Z","tX":528,"tY":366,"tags":{"capacity":"116","caravans":"yes","contact:email":"contact@camping-legrandverney.info","contact:website":"http://camping-legrandverney.info","drinking_water":"yes","name":"Camping le Grand Verney","power_supply":"yes","sanitary_dump_station":"yes","shower":"yes","stars":"3","tents":"yes","toilets":"yes"}},"840662586":{"location":[45.5503615,5.6811882],"ct":"FR","tp":"CS","ts":"2020-08-25T20:09:43Z","tX":528,"tY":366,"tags":{"caravans":"yes","name":"Les Chants d'Oiseaux","source":"data.gouv.fr:DATAtourisme - 05/2020","stars":"2","tents":"yes","website":"https://www.camping-leschantsdoiseaux.com"}},"919390034":{"location":[45.5608516,5.9731874],"ct":"FR","tp":"CS","ts":"2023-07-10T12:02:48Z","tX":528,"tY":366,"tags":{}},"1101342270":{"location":[45.3910648,5.7367288],"ct":"FR","tp":"CS","ts":"2022-10-05T22:32:20Z","tX":528,"tY":366,"tags":{"addr:city":"Saint-Laurent-du-Pont","addr:housenumber":"25","addr:postcode":"38380","addr:street":"Rue du Guiers","email":"camping.st-laurent-du-pont@wanadoo.fr","name":"Camping municipal Les Berges du Guiers","phone":"+33476062255","shower":"yes","source":"cadastre-dgi-fr source : Direction Générale des Finances Publiques - Cadastre. Mise à jour : 2020","toilets":"yes","website":"https://www.camping-chartreuse.com/","wheelchair":"yes"}},"1194229153":{"location":[45.419568,5.8578494],"ct":"FR","tp":"CS","ts":"2024-10-10T22:05:36Z","tX":528,"tY":366,"tags":{"addr:housenumber":"34","addr:street":"Chemin de la Fruitière","contact:email":"contact@campingducozon.fr","description":"Après 19h, merci de préférer l'onglet réservation/contact du site","internet_access":"yes","name":"Camping Le Cozon","opening_hours":"Apr-Sep","phone":"+33 6 27 82 11 53","website":"https://www.campingducozon.fr/"}},"1322847490":{"location":[45.3895842,5.7375301],"ct":"FR","tp":"CR","ts":"2024-10-10T09:09:45Z","tX":528,"tY":366,"tags":{"addr:street":"Place du 10ème Groupement, Saint-Laurent-du-Pont","caravan_site":"motorhome_stopover","caravan_site:type":"village;river","drinking_water":"yes","fee":"no","name":"Area Saint-Laurent-du-Pont","opening_hours":"24/7","power_supply":"yes","sanitary_dump_station":"yes","toilets":"no","water_point":"yes"}},"2573462468":{"location":[45.5583846,5.6747911],"ct":"FR","tp":"CS","ts":"2018-06-23T09:40:32Z","tX":528,"tY":366,"tags":{"caravans":"yes","contact:email":"info@les3lacs.com","contact:phone":"+33 476 370 403","contact:website":"http://www.les3lacs.com/","internet_access":"wlan","internet_access:fee":"no","name":"Camping des 3 Lacs","stars":"4","tents":"yes"}},"5383782074":{"location":[45.5760188,5.7391679],"ct":"FR","tp":"CS","ts":"2018-02-03T18:37:07Z","tX":528,"tY":366,"tags":{}},"6534171002":{"location":[45.5552199,5.7928942],"ct":"FR","tp":"CS","ts":"2023-07-23T15:58:52Z","tX":528,"tY":366,"tags":{"caravans":"yes","drinking_water":"yes","name":"Camping Bellevue","power_supply":"yes","shower":"yes","tents":"yes","toilets":"yes"}},"12120528801":{"location":[45.3866151,5.8446892],"ct":"FR","tp":"CS","ts":"2024-08-19T15:36:44Z","tX":528,"tY":366,"tags":{"addr:housenumber":"435","addr:postcode":"38380","addr:street":"Route du Planolet","name":"Chartreuse Bivouac (Cabanes-refuges - Ferme Bailleux)","phone":"0033683107630","website":"https://www.chartreuse-tourisme.com/offres/cabanes-refuges-chartreuse-bivouac-saint-pierre-dentremont-fr-4219415/#sheetPart-equipments"}},"12300449204":{"location":[45.5082417,5.7392085],"ct":"FR","tp":"CS","ts":"2024-10-30T23:22:24Z","tX":528,"tY":366,"tags":{"name":"Le Londagne"}},"11899162017":{"location":[45.3579467,5.8330455],"ct":"FR","tp":"CR","ts":"2024-05-12T19:04:28Z","tX":528,"tY":366,"tags":{"caravan_site":"motorhome_stopover","caravan_site:type":"ski_resort","caravans":"no","ele":"888","fee":"no","name":"Aire de Stationnement camping-car du télésiège de la Combe de l'Ours","tents":"no","website":"https://www.chartreuse-tourisme.com/offres/aire-de-stationnement-camping-car-du-telesiege-de-la-combe-de-lours-saint-pierre-de-chartreuse-fr-2715829/"}},"12222226225":{"location":[45.5632001,5.9327473],"ct":"FR","tp":"CR","ts":"2024-10-04T12:01:45Z","tX":528,"tY":366,"tags":{"access":"yes","capacity":"50","caravan_site":"motorhome_stopover","caravan_site:type":"parking_lot;town","fee":"no","name":"Parking Delphine & Jonathan","sanitary_dump_station":"yes","surface":"paved"}},"8979485459":{"location":[45.5386701,5.7993693],"ct":"FR","tp":"SD","ts":"2021-08-04T09:48:33Z","tX":528,"tY":366,"tags":{"access":"customers"}},"11194525984":{"location":[45.5631779,5.9328033],"ct":"FR","tp":"SD","ts":"2024-10-04T12:01:45Z","tX":528,"tY":366,"tags":{"access":"yes"}},"11992573490":{"location":[45.380652,5.6410818],"ct":"FR","tp":"SD","ts":"2024-06-19T18:46:03Z","tX":528,"tY":366,"tags":{"access":"yes","fee":"no","name":"Camping municipal La Grande Forêt"}},"12020271270":{"location":[45.380673,5.6411737],"ct":"FR","tp":"SD","ts":"2024-06-29T13:32:29Z","tX":528,"tY":366,"tags":{}},"12121953001":{"location":[45.5299635,5.6905763],"ct":"FR","tp":"SD","ts":"2024-11-04T23:36:05Z","tX":528,"tY":366,"tags":{"fee":"yes","name":"Station vidange camping car hyper U","operator":"Flot bleu"}},"12196938302":{"location":[45.3894902,5.7376109],"ct":"FR","tp":"SD","ts":"2024-09-24T12:37:58Z","tX":528,"tY":366,"tags":{"outdoor_seating":"no"}}}