{"6506428":{"location":[44.4857388,5.9492717],"ct":"FR","tp":"CS","ts":"2017-10-18T01:45:11Z","tX":528,"tY":370,"tags":{"email":"camp.les.guerins@wanadoo.fr","name":"Camping Les Guérins","phone":"+33 4 92 57 98 85"}},"216924129":{"location":[44.5196294,5.7990691],"ct":"FR","tp":"CS","ts":"2019-03-22T20:05:27Z","tX":528,"tY":370,"tags":{"access":"private","caravans":"yes","email":"contact@camping-lac.com","internet_access":"yes","internet_access:fee":"yes","landuse":"tourism","name":"Les Rives du Lac","stars":"4","swimming_pool":"yes","tents":"yes","website":"https://camping-lac.com/","wheelchair":"yes"}},"216952276":{"location":[44.5220548,5.8032823],"ct":"FR","tp":"CS","ts":"2019-03-22T20:05:27Z","tX":528,"tY":370,"tags":{"landuse":"tourism","name":"Camping solaire","source":"cadastre-dgi-fr source : Direction Générale des Impôts - Cadastre ; mise à jour : 2012"}},"248782609":{"location":[44.4578552,5.7490831],"ct":"FR","tp":"CS","ts":"2024-09-25T17:32:15Z","tX":528,"tY":370,"tags":{"landuse":"tourism","mobile":"+33 6 81 99 67 47","name":"Glamping de la Jument Noire","sanitary_dump_station":"no","shower":"yes","toilets":"yes","website":"https://www.facebook.com/people/Glamping-de-La-Jument-Noire/61552706803442/"}},"320730581":{"location":[44.3595423,5.7599457],"ct":"FR","tp":"CS","ts":"2019-03-22T20:05:47Z","tX":528,"tY":370,"tags":{"email":"campinglescigales@orange.fr","internet_access":"wlan","internet_access:fee":"no","landuse":"tourism","name":"Les Cigales","stars":"2","website":"http://www.camping-lescigales.net","wheelchair":"yes"}},"427862682":{"location":[44.5640212,5.9173653],"ct":"FR","tp":"CS","ts":"2019-12-21T20:34:15Z","tX":528,"tY":370,"tags":{"addr:city":"La Roche-des-Arnauds","addr:housenumber":"300","addr:postcode":"05400","addr:street":"Chemin des Sérigons","caravans":"yes","description":"Camping de 15ha : chalets, mobile-homes et tentes 'Lodge'. Emplacements de 100 à 300 m², piscine, tennis, terrain multi sports, animation, bar/restaurant","dog":"permissive","email":"contact@camping-serigons.com","fee":"yes","internet_access":"wlan","internet_access:fee":"no","name":"Parc des Sérigons","openfire":"no","phone":"+33 4 92 57 81 77 ; +33 6 80 13 39 50","power_supply":"yes","reservation":"yes","shower":"yes","stars":"3","swimming_pool":"outdoor","toilets":"yes","toilets:access":"customers","website":"https://www.camping-serigons.com"}},"617872132":{"location":[44.5186359,5.8004353],"ct":"FR","tp":"CS","ts":"2022-07-25T06:06:02Z","tX":528,"tY":370,"tags":{"name":"Camping Les Rives du Lac"}},"706412405":{"location":[44.419236,5.7178791],"ct":"FR","tp":"CS","ts":"2024-10-07T06:24:52Z","tX":528,"tY":370,"tags":{"capacity:caravans":"45","caravans":"yes","dog":"yes","fee":"yes","landuse":"tourism","motorhome":"yes","name":"Camping des Barillons","phone":"+33 4 92 67 17 35","power_supply":"yes","stars":"2","tents":"yes","washing_machine":"yes","website":"http://campingdesbarillons.free.fr/"}},"836345839":{"location":[44.5653887,5.7482955],"ct":"FR","tp":"CS","ts":"2023-05-25T09:18:10Z","tX":528,"tY":370,"tags":{"name":"La Garrigue"}},"839556231":{"location":[44.3399665,5.7637681],"ct":"FR","tp":"CS","ts":"2024-06-02T07:59:26Z","tX":528,"tY":370,"tags":{"addr:city":"Lagrand","addr:postcode":"05300","addr:street":"Route de Saléon Lagrand","addr:suburb":"Quartier du Moulin","caravans":"no","fee":"yes","name":"Lagrand Soleil","static_caravans":"yes","tents":"no"}},"840648167":{"location":[44.5883087,5.8495143],"ct":"FR","tp":"CS","ts":"2020-08-25T19:43:27Z","tX":528,"tY":370,"tags":{"name":"Camping Les Prés","source":"data.gouv.fr:DATAtourisme - 05/2020","stars":"3","website":"https://www.camping-les-pres.com"}},"840650522":{"location":[44.5314013,5.6839603],"ct":"FR","tp":"CS","ts":"2020-08-25T19:50:46Z","tX":528,"tY":370,"tags":{"name":"Camping La Source","source":"data.gouv.fr:DATAtourisme - 05/2020","website":"http://lasource-hautesalpes.com"}},"911843784":{"location":[44.5201511,5.7540156],"ct":"FR","tp":"CR","ts":"2024-10-09T01:16:17Z","tX":528,"tY":370,"tags":{"access":"yes","addr:city":"Aspres-sur-Buëch","addr:postcode":"05140","addr:street":"Avenue de la Gare","capacity":"8","caravan_site":"motorhome_stopover","caravan_site:type":"village","description":"no water in the winter","fee":"no","name":"Aspres-sur-Buëch - Rue de la Gare","operator":"Ville de Aspres-sur-Buëch","power_supply":"no","sanitary_dump_station":"yes","sanitary_dump_station:chemical_toilet":"yes","sanitary_dump_station:grey_water":"yes","sanitary_dump_station:round_drain":"yes","seasonal":"no","supervised":"no","tents":"no","water_point":"yes","website":"https://provence-alpes-cotedazur.com/en/plan-your-stay/accommodation/campings/aire-de-service-et-de-stationnement-camping-cars-aspres-sur-buech-en-3516357/"}},"911845452":{"location":[44.3553725,5.7100079],"ct":"FR","tp":"CR","ts":"2024-10-08T19:34:35Z","tX":528,"tY":370,"tags":{"access":"yes","addr:city":"Trescléoux","addr:postcode":"05700","addr:street":"Rue des Commerces","capacity":"5","caravan_site":"motorhome_stopover","caravan_site:type":"parking_lot","fee":"no","name":"Trescléoux Aire Communale","operator":"Ville de Trescléoux","power_supply":"no","sanitary_dump_station":"yes","sanitary_dump_station:chemical_toilet":"yes","sanitary_dump_station:grey_water":"yes","sanitary_dump_station:round_drain":"yes","supervised":"no","tents":"no","water_point":"yes"}},"1081065820":{"location":[44.5178549,5.798832],"ct":"FR","tp":"CR","ts":"2024-08-10T14:51:42Z","tX":528,"tY":370,"tags":{"caravan_site":"motorhome_stopover","caravan_site:type":"lake","charge":"6.50 EUR","fee":"yes","fee:conditional":"no @ (Sep 16-Jun 14)","maxstay":"48 hours","name":"Plan d'eau des Iscles - Veynes","sanitary_dump_station":"yes","seasonal":"no"}},"1160823535":{"location":[44.5497966,5.9501186],"ct":"FR","tp":"CS","ts":"2023-04-15T20:42:12Z","tX":528,"tY":370,"tags":{"addr:city":"Manteyer","addr:postcode":"05400","addr:street":"Route de Céüze","caravans":"yes","email":"pierre.wampach@wanadoo.fr","motorhome":"no","name":"Au Blanc Manteau","operator":"Pierre et Judith WAMPACH","phone":"+33 4 92 57 85 89; +33 4 92 57 82 56","shower":"yes","swimming_pool":"outdoor","tents":"yes","toilets":"yes","toilets:access":"customers","toilets:wheelchair":"yes","website":"https://www.campingaublancmanteau.fr"}},"1317926201":{"location":[44.4851754,5.9369037],"ct":"FR","tp":"CS","ts":"2024-11-16T11:29:36Z","tX":528,"tY":370,"tags":{}},"1321770464":{"location":[44.4216363,5.7294412],"ct":"FR","tp":"CS","ts":"2024-10-07T06:19:21Z","tX":528,"tY":370,"tags":{"addr:city":"Serres","addr:housenumber":"845","addr:postcode":"05700","addr:street":"Chemin du Sacre","area":"yes","caravans":"yes","contact:city":"Serres","contact:phone":"+33 4 92 67 01 33","contact:postcode":"05700","contact:street":"Chemin Du Sacre","fee":"yes","motorhome":"yes","name":"Camping Les 2 Soleils","opening_hours":"Mo-Fr 09:00-18:00; Sa 09:00-13:00","operator":"Ciela Village","sanitary_dump_station":"no","source":"http://www.domaine-2soleils.com/","tents":"yes","website":"https://www.domaine-2soleils.com/"}},"1336281595":{"location":[44.4858297,5.9492754],"ct":"FR","tp":"CS","ts":"2024-11-20T21:05:36Z","tX":528,"tY":370,"tags":{"caravans":"yes","email":"camp.les.guerins@wanadoo.fr","name":"Camping Les Guérins","phone":"+33 4 92 57 98 85"}},"4159114637":{"location":[44.5211006,5.7342747],"ct":"FR","tp":"CS","ts":"2020-06-10T19:13:03Z","tX":528,"tY":370,"tags":{"addr:city":"Aspres-sur-Buëch","addr:postcode":"05140","name":"Camping du Chevalet","note":"camping.duchevalet@gmail.com ","website":"https://www.campingduchevalet.fr/"}},"6611791135":{"location":[44.5716892,5.8834312],"ct":"FR","tp":"CS","ts":"2024-07-24T19:15:18Z","tX":528,"tY":370,"tags":{"caravans":"yes","internet_access":"wlan","internet_access:fee":"customers","name":"Camping Mon Repos","stars":"2","tents":"yes","website":"https://www.campingmonrepos.fr/"}},"9835177112":{"location":[44.3400448,5.9137666],"ct":"FR","tp":"CS","ts":"2022-06-21T05:50:14Z","tX":528,"tY":370,"tags":{"access":"customers"}},"8467330832":{"location":[44.5198991,5.7543449],"ct":"FR","tp":"SD","ts":"2021-11-20T14:40:26Z","tX":528,"tY":370,"tags":{"description":"Station de vidange pour Camping-car.","fee":"no","operator":"Ville de Aspres-sur-Buëch","sanitary_dump_station:chemical_toilet":"yes","sanitary_dump_station:grey_water":"yes","sanitary_dump_station:round_drain":"yes","water_point":"yes"}},"8467351294":{"location":[44.3552956,5.7099664],"ct":"FR","tp":"SD","ts":"2021-11-20T14:40:26Z","tX":528,"tY":370,"tags":{"description":"Station de vidange pour Camping-car. Services non disponible durant l'hivers.","fee":"no","operator":"Ville de Trescléoux","sanitary_dump_station:chemical_toilet":"yes","sanitary_dump_station:grey_water":"yes","sanitary_dump_station:round_drain":"yes","water_point":"yes"}},"12015886443":{"location":[44.5520779,5.6366837],"ct":"FR","tp":"SD","ts":"2024-06-27T22:39:09Z","tX":528,"tY":370,"tags":{"access":"yes","fee":"yes","operator":"Flot Bleu","water_point":"yes"}},"12102825910":{"location":[44.5332272,5.8231509],"ct":"FR","tp":"SD","ts":"2024-08-10T15:02:35Z","tX":528,"tY":370,"tags":{"access":"yes","fee":"yes"}}}