{"159516153":{"location":[43.8958879,5.8617155],"ct":"FR","tp":"CR","ts":"2024-10-08T22:09:56Z","tX":528,"tY":372,"tags":{"bbq":"no","camping":"no","capacity":"12","caravan_site":"motorhome_stopover","caravan_site:type":"village","dog":"yes","fee":"no","maxstay":"48 hours","name":"Villeneuve","opening_hours":"24/7","picnic_table":"yes","sanitary_dump_station":"yes","water_point":"yes","water_point:conditional":"no@(Dec-Feb)","website":"https://www.tourisme-alpes-haute-provence.com/hebergement/villeneuve/apidae-aire-de-service-et-stationnement-camping-car-de-villeneuve-4853965/"}},"227166073":{"location":[43.9616434,5.7877766],"ct":"FR","tp":"CS","ts":"2022-12-08T08:13:46Z","tX":528,"tY":372,"tags":{"addr:city":"Forcalquier","addr:postcode":"04300","addr:street":"Avenue Claude Delorme","capacity":"126","contact:phone":"+33 4 66 60 07 00","landuse":"tourism","name":"Camping Koawa Forcalquier Les Routes de Provence","stars":"3","website":"https://www.camping-routes-de-provence.fr/fr"}},"346868707":{"location":[43.9088509,5.717532],"ct":"FR","tp":"PK","ts":"2024-10-08T22:03:03Z","tX":528,"tY":372,"tags":{"access":"yes","fee":"no","motorhome":"yes","motorhome:overnight":"yes","name":"Espace Frédéric Mistral","parking":"surface","seasonal":"yes"}},"425283094":{"location":[44.0225518,5.9376527],"ct":"FR","tp":"CS","ts":"2019-03-22T20:05:56Z","tX":528,"tY":372,"tags":{"capacity":"26","landuse":"tourism","name":"Camping Les Cigales","stars":"3","website":"http://www.camping-lescigales.fr/"}},"458357115":{"location":[43.875576,5.6355872],"ct":"FR","tp":"CS","ts":"2024-06-21T12:00:21Z","tX":528,"tY":372,"tags":{"access":"customers","addr:city":"Reillanne","addr:postcode":"04110","addr:street":"La Serpatière et Vallon","capacity":"91","contact:email":"info@levallon.com","contact:phone":"+33492764733;+33664106968","description":"Camping franco-néerlandais où règnent convivialité et hospitalité. Les maîtres-mots : nature, détente, simplicité et divertissement.","email":"info@levallon.com","fee":"yes","internet_access":"wlan","internet_access:fee":"yes","landuse":"tourism","name":"Le Vallon des Oiseaux","nudism":"yes","opening_hours":"Apr 30-Okt1 00:00-24:00","operator":"Amanda Pasma","phone":"+33492764733","stars":"1","website":"https://www.levallon.com/"}},"458358283":{"location":[44.0265849,5.6305378],"ct":"FR","tp":"CS","ts":"2023-12-05T10:57:44Z","tX":528,"tY":372,"tags":{"addr:city":"Banon","addr:housenumber":"381","addr:postcode":"04150","addr:street":"Route de l'Armée","capacity":"100","landuse":"tourism","name":"Flower Camping L'Épi Bleu","phone":"+33 4 92 73 30 30","stars":"3","website":"https://campingepibleu.com/"}},"458359679":{"location":[43.9721849,5.7371367],"ct":"FR","tp":"CS","ts":"2024-06-21T12:19:47Z","tX":528,"tY":372,"tags":{"access":"customers","addr:city":"Limans","addr:postcode":"04300","addr:street":"Campagne de Briasse","capacity":"163","caravans":"yes","contact:email":"leslauzons@wanadoo.fr","contact:phone":"+33 4 92 73 00 60","dog":"yes","email":"leslauzons@wanadoo.fr","fee":"yes","landuse":"tourism","laundry_service":"yes","motorhome":"yes","name":"Les Lauzons","nudism":"yes","opening_hours":"Apr 22-Okt 01 00:00-24:00","operator":"Domaine des Lauzons","phone":"+33 4 92 73 00 60","stars":"4","website":"https://www.camping-lauzons.com/"}},"458360975":{"location":[43.9104297,5.7806591],"ct":"FR","tp":"CS","ts":"2024-06-10T16:23:06Z","tX":528,"tY":372,"tags":{"capacity":"120","internet_access":"wlan","landuse":"tourism","name":"Au Tylo Soleil","stars":"3","website":"https://autylosoleil.fr/"}},"458361527":{"location":[43.8984883,5.8069928],"ct":"FR","tp":"CS","ts":"2022-11-25T10:58:48Z","tX":528,"tY":372,"tags":{"capacity":"104","landuse":"tourism","name":"Flower Camping La Rivière","stars":"3","website":"https://www.camping-lariviere.com/"}},"458467088":{"location":[43.8690701,5.8314491],"ct":"FR","tp":"CS","ts":"2024-05-30T10:15:33Z","tX":528,"tY":372,"tags":{"addr:city":"Volx","addr:country":"FR","addr:postcode":"04130","addr:street":"Chemin de Piétramal","capacity":"49","caravans":"yes","fee":"yes","landuse":"tourism","name":"GCU Volx","operator":"Groupement des Campeurs Universitaires","phone":"+33 4 92 78 54 26","sanitary_dump_station":"customers","stars":"2","static_caravans":"no","tents":"yes","website":"https://www.gcu.asso.fr/terrains/volx-alpes-de-haute-provence-04","wheelchair":"limited"}},"458529994":{"location":[43.931558,5.8679384],"ct":"FR","tp":"CS","ts":"2022-09-06T09:27:42Z","tX":528,"tY":372,"tags":{"capacity":"124","landuse":"tourism","name":"L'Oasis de Provence","stars":"4","website":"https://www.oasis-de-provence.com/"}},"458530494":{"location":[43.9223966,5.9231732],"ct":"FR","tp":"CS","ts":"2020-06-01T17:05:32Z","tX":528,"tY":372,"tags":{"capacity":"66","landuse":"tourism","name":"Camping Les Oliviers","stars":"4","website":"https://www.camping-oraison.com/"}},"458532466":{"location":[43.953308,5.9341222],"ct":"FR","tp":"CS","ts":"2023-10-30T06:50:38Z","tX":528,"tY":372,"tags":{"access":"yes","addr:city":"Les Mées","addr:postcode":"04190","addr:street":"Les Pourcelles","capacity":"40","dog":"no","fee":"yes","image":"https://www.littlecarpediem.com/public/LittleCarpeDiem/logoLCD.png","internet_access":"wlan","landuse":"tourism","name":"Little Carpe Diem","operator":"Little Carpe Diem SARL","payment:cash":"yes","payment:cheque":"yes","payment:contactless":"yes","payment:credit_cards":"yes","payment:mastercard":"yes","payment:unionpay":"yes","payment:visa":"yes","power_supply":"yes","stars":"3","website":"https://www.littlecarpediem.com/","wheelchair":"yes"}},"592078874":{"location":[44.0623299,5.9022594],"ct":"FR","tp":"CS","ts":"2019-03-22T20:06:18Z","tX":528,"tY":372,"tags":{"landuse":"tourism","name":"Lou Pèbre d'Ail"}},"708189347":{"location":[44.041208,5.7822656],"ct":"FR","tp":"CR","ts":"2024-10-08T21:53:56Z","tX":528,"tY":372,"tags":{"addr:city":"Saint-Étienne les Orgues","addr:postcode":"04230","addr:street":"Route de Fontienne","capacity":"8","caravan_site":"motorhome_stopover","caravan_site:type":"village","fee":"no","maxstay":"72 hours","name":"Aire municipale de Saint Etienne Les Orgues","operator":"Mairie de Saint Etienne les Orgues","phone":"+33 4 92 73 02 00","power_supply":"yes","power_supply:fee":"yes","sanitary_dump_station":"yes","seasonal":"no","water_point":"yes","water_point:fee":"yes","website":"https://www.tourisme-alpes-haute-provence.com/hebergement/saint-etienne-les-orgues/apidae-aire-de-service-municipale-de-saint-etienne-les-orgues-4766556/"}},"739090807":{"location":[43.9060432,5.7290368],"ct":"FR","tp":"CS","ts":"2024-08-07T21:18:46Z","tX":528,"tY":372,"tags":{"alt_name":"Lodg'ing - Nature Camp Luberon","name":"Nature Camp Luberon","website":"https://www.lodg-ing.com/luberon/"}},"821886036":{"location":[44.0405475,5.6306453],"ct":"FR","tp":"CR","ts":"2024-05-06T20:33:11Z","tX":528,"tY":372,"tags":{"capacity":"9","caravan_site":"motorhome_stopover","caravan_site:type":"village","charge":"5 EUR","fee":"yes","maxstay":"7 days","name":"Aire de service et de stationnement camping-car de Banon","power_supply":"no","sanitary_dump_station":"yes","seasonal":"no","toilets":"yes","water_point":"yes","website":"https://www.tourisme-alpes-haute-provence.com/hebergement/banon/apidae-aire-de-service-et-de-stationnement-camping-car-de-banon-4766435/"}},"1281676180":{"location":[43.9158391,5.7164327],"ct":"FR","tp":"CR","ts":"2024-10-08T22:03:03Z","tX":528,"tY":372,"tags":{"caravan_site":"motorhome_stopover","caravan_site:type":"village","fee":"no","name":"Aire Saint-Michel-l'Observatoire","power_supply":"no","sanitary_dump_station":"no"}},"1308149764":{"location":[43.880286,5.6640315],"ct":"FR","tp":"CR","ts":"2024-08-16T12:01:16Z","tX":528,"tY":372,"tags":{"capacity":"2","caravan_site":"motorhome_stopover","caravan_site:type":"village","fee":"no","name":"Aire CAmping car Reillanne","picnic_area":"yes","sanitary_dump_station":"yes","website":"https://www.tourisme-alpes-haute-provence.com/hebergement/reillanne/apidae-aire-de-camping-cars-5579834/"}},"4227795889":{"location":[44.0594524,5.9042791],"ct":"FR","tp":"CS","ts":"2016-06-06T07:02:06Z","tX":528,"tY":372,"tags":{"addr:street":"Les Trous et les Marquans","internet_access":"wlan","name":"Lou Pebre d'ail"}},"12115306892":{"location":[43.966689,5.8873455],"ct":"FR","tp":"CR","ts":"2024-08-16T15:30:59Z","tX":528,"tY":372,"tags":{"capacity":"4","caravan_site":"motorhome_stopover","caravan_site:type":"village","fee":"no","maxstay":"48 hours","name":"Aire de service municipale de Lurs","opening_hours":"24/7","seasonal":"no"}}}