{"15782231":{"location":[43.7491838,5.8790227],"ct":"FR","tp":"CS","ts":"2023-07-18T14:58:51Z","tX":528,"tY":373,"tags":{"camp_site":"serviced","capacity:caravans":"52","capacity:tents":"18","caravans":"yes","contact:city":"Gréoux-les-Bains","contact:housenumber":"571","contact:postcode":"04800","contact:street":"Chemin Gaspard de Besse","email":"camping.regain@sfr.fr","landuse":"tourism","name":"Le Regain","opening_hours":"Apr 1 - Oct 20 09:00-13:00, 15:00-20:00","phone":"+33 4 92 78 09 23","power_supply":"yes","sanitary_dump_station":"yes","shower":"yes","stars":"3","tents":"yes","toilets":"yes","water_point":"yes","website":"https://camping-regain.com/"}},"18765408":{"location":[43.7541161,5.9492584],"ct":"FR","tp":"CS","ts":"2025-02-28T16:58:24Z","tX":528,"tY":373,"tags":{"access":"customers","addr:city":"Esparron de Verdon","addr:postcode":"04800","addr:street":"Chemin des Cigales","capacity":"66","description":"Camping naturiste.","email":"contact@camping-verdon-provence.fr","fee":"yes","landuse":"tourism","name":"Verdon Provence","nudism":"obligatory","phone":"+33 4 92 78 23 29","stars":"3","website":"https://www.camping-verdon-provence.fr"}},"82134308":{"location":[43.7346175,5.9704016],"ct":"FR","tp":"CS","ts":"2024-04-23T13:08:45Z","tX":528,"tY":373,"tags":{"access":"customers","addr:city":"Esparron de Verdon","addr:housenumber":"1000","addr:postcode":"04800","addr:street":"Chemin de la Tuiliere","backcountry":"no","capacity":"100","dog":"no","fee":"yes","landuse":"tourism","name":"Camping Le Soleil","phone":"+33492771378","source":"cadastre-dgi-fr source : Direction Générale des Impôts - Cadastre. Mise à jour : 2010","stars":"4","website":"https://www.camping-esparron-verdon.fr/"}},"133625911":{"location":[43.8236656,5.8526567],"ct":"FR","tp":"CS","ts":"2019-03-22T20:05:18Z","tX":528,"tY":373,"tags":{"capacity":"100","landuse":"tourism","name":"Oxygene","stars":"3","website":"http://www.camping-oxygene.com"}},"154880827":{"location":[43.8299962,5.7620452],"ct":"FR","tp":"CS","ts":"2024-06-11T05:28:17Z","tX":528,"tY":373,"tags":{"addr:city":"Manosque","addr:country":"FR","addr:postcode":"04100","addr:street":"Avenue de la Repasse","capacity":"110","email":"contact@provence-vallee.fr","internet_access":"wlan","internet_access:fee":"no","landuse":"tourism","name":"Provence Vallée","operator":"Flower Camping","phone":"+33 4 92 72 28 08","stars":"3","website":"https://provence-vallee.fr/"}},"155271937":{"location":[43.750767,5.8809377],"ct":"FR","tp":"CS","ts":"2023-04-28T21:43:23Z","tX":528,"tY":373,"tags":{"cabins":"yes","capacity":"120","caravans":"yes","email":"info@camping-le-verseau.com","landuse":"tourism","mobile":"+33 6 69 97 92 35","name":"Le Verseau","opening_hours":"Mar 6 - Nov 15","phone":"+33 4 92 77 67 10","shower":"yes","stars":"3","tents":"yes","toilets":"yes","website":"https://www.camping-le-verseau.com/"}},"186928227":{"location":[43.7518118,5.8978746],"ct":"FR","tp":"CS","ts":"2023-04-28T21:43:23Z","tX":528,"tY":373,"tags":{"cabins":"yes","capacity":"448","caravans":"yes","motorhome":"yes","name":"Verdon Parc","opening_hours":"Apr 1 - Nov 5","phone":"+33 482751043","shower":"yes","stars":"4","tents":"yes","toilets":"yes","website":"https://www.campingverdonparc.fr"}},"231280702":{"location":[43.7489899,5.9579504],"ct":"FR","tp":"CS","ts":"2023-11-21T17:03:55Z","tX":528,"tY":373,"tags":{"landuse":"tourism","name":"Le Lac"}},"319019415":{"location":[43.6733506,5.846672],"ct":"FR","tp":"CS","ts":"2024-06-10T16:23:06Z","tX":528,"tY":373,"tags":{"landuse":"tourism","name":"Camping de Ginasservis","website":"https://www.camping-ginasservis.fr/"}},"342018545":{"location":[43.7850167,5.7645223],"ct":"FR","tp":"CR","ts":"2024-05-18T01:43:04Z","tX":528,"tY":373,"tags":{"caravan_site":"motorhome_stopover","caravan_site:type":"village","caravans":"no","charge":"14.70 EUR","charge:conditional":"12.84 EUR @ (Nov-Apr)","fee":"yes","internet_access":"wlan","name":"CAMPING-CAR PARK area of Sainte-Tulle, Porte de Haute Provence","network":"CAMPING-CAR PARK","operator":"CAMPING-CAR PARK","owner":"Mairie de Sainte Tulle","power_supply":"yes","sanitary_dump_station":"yes","sanitary_dump_station:chemical_toilet":"yes","sanitary_dump_station:grey_water":"yes","tents":"no","water_point":"yes","website":"https://www.campingcarpark.com/fr_FR/sejour/aire-etape-camping-car/provence-alpes-cote-dazur/04-alpes-de-haute-provence/sainte-tulle","wheelchair":"yes"}},"458347875":{"location":[43.7541161,5.9492584],"ct":"FR","tp":"CS","ts":"2021-08-01T06:38:56Z","tX":528,"tY":373,"tags":{"addr:city":"Esparron de Verdon","addr:postcode":"04800","addr:street":"Chemin des Cigales","capacity":"66","description":"Camping naturiste.","email":"contact@camping-verdon-provence.fr","fee":"yes","landuse":"tourism","name":"Verdon Provence","nudism":"obligatory","phone":"+33 4 92 78 23 29","stars":"3","website":"https://www.camping-verdon-provence.fr"}},"458350432":{"location":[43.7485963,5.8820425],"ct":"FR","tp":"CS","ts":"2023-07-18T14:58:51Z","tX":528,"tY":373,"tags":{"cabins":"yes","capacity:cabins":"121","capacity:pitches":"51","caravans":"yes","contact:city":"Gréoux-les-Bains","contact:housenumber":"938","contact:postcode":"04800","contact:street":"Route de Saint-Pierre","landuse":"tourism","name":"La Pinède","opening_hours":"Mar 06 - Oct 31","phone":"+33 4 92 78 05 47","shower":"yes","stars":"4","tents":"yes","toilets":"yes","website":"https://www.camping-lapinede-04.com/"}},"458350433":{"location":[43.7553256,5.8895001],"ct":"FR","tp":"CR","ts":"2024-09-28T00:49:14Z","tX":528,"tY":373,"tags":{"capacity":"72","caravan_site":"motorhome_stopover","caravan_site:type":"village","caravans":"no","charge":"13 EUR/24 hours","fee":"yes","landuse":"tourism","name":"Aire Camping-car municipale Gréoux-les-Bains","opening_hours":"Mo-Fr","power_supply":"yes","sanitary_dump_station":"yes","shadow":"yes","survey:date":"2022-11-01","tents":"no","toilets":"yes","water_point":"yes","website":"https://www.greoux-les-bains.com/hotellerie-plein-air/aire-daccueil-camping-cars-greoux-les-bains/"}},"509827014":{"location":[43.7428843,5.9739787],"ct":"FR","tp":"CR","ts":"2024-10-04T09:53:14Z","tX":528,"tY":373,"tags":{"caravan_site":"motorhome_stopover","caravan_site:type":"parking_lot","fee":"no","internet_access":"no","name":"Esparron-de-Verdon - Corniche des Aires parking","power_supply":"no","sanitary_dump_station":"no"}},"772735487":{"location":[43.6317269,5.6441393],"ct":"FR","tp":"CR","ts":"2024-11-07T16:02:26Z","tX":528,"tY":373,"tags":{"capacity":"4","caravan_site":"motorhome_stopover","caravan_site:type":"village","fee":"no","internet_access":"no","maxstay":"72 hours","name":"Aire de camping-car Jouques","sanitary_dump_station":"yes","surface":"asphalt","water_point":"yes"}},"1030531337":{"location":[43.696049,5.9130958],"ct":"FR","tp":"CR","ts":"2024-05-17T22:43:33Z","tX":528,"tY":373,"tags":{"alt_name":"Aire CAMPING-CAR PARK de Saint-Julien-Le -Montagnier","capacity":"35","caravan_site":"motorhome_stopover","caravan_site:type":"village","caravans":"no","charge":"15.30 EUR","charge:conditional":"13.30@(Oct-Apr)","dog":"leashed","fee":"yes","internet_access":"wlan","internet_access:fee":"no","maxlength":"none","name":"Les Portes du Vordon de Saint-Julien-Le -Montagnier","network":"CAMPING-CAR PARK","playground":"yes","power_supply:maxcurrent":"6","sanitary_dump_station":"yes","tents":"no","toilets":"yes","trailer":"yes","water_point":"yes","website":"https://www.campingcarpark.com/fr_FR/sejour/aire-etape-camping-car/provence-alpes-cote-dazur/83-var/st-julien-le-montagnier"}},"1161052817":{"location":[43.6415812,5.9348528],"ct":"FR","tp":"CS","ts":"2023-04-10T10:12:42Z","tX":528,"tY":373,"tags":{"addr:city":"La Verdière","addr:housenumber":"345","addr:postcode":"83560","addr:street":"Route de Manosque","cabins":"yes","capacity:pitches":"40","caravans":"yes","email":"campingdelaverdiere83@gmail.com","name":"Camping La Verdiere","phone":"+33 4 94 78 30 60","shower":"yes","tents":"yes","toilets":"yes","website":"https://www.camping-la-verdiere-83.com/"}},"1263780469":{"location":[43.7291309,5.8136619],"ct":"FR","tp":"CR","ts":"2024-05-19T17:01:08Z","tX":528,"tY":373,"tags":{"bbq":"no","capacity":"38","caravan_site":"motorhome_stopover","caravan_site:type":"village;river","caravans":"no","charge":"14.32 EUR","fee":"yes","internet_access":"wlan","maxlength":"none","name":"Aire de Camping-Car de Vinon-sur-Verdon","network":"CAMPING-CAR PARK","power_supply":"yes","power_supply:maxcurrent":"6","reservation":"yes","sanitary_dump_station":"yes","sanitary_dump_station:chemical_toilet":"yes","sanitary_dump_station:grey_water":"yes","tents":"no","trailer":"yes","water_point":"yes","website":"https://www.campingcarpark.com/fr_FR/sejour/aire-etape-camping-car/provence-alpes-cote-dazur/83-var/vinon-sur-verdon"}},"1288002260":{"location":[43.6878448,5.7140688],"ct":"FR","tp":"CR","ts":"2024-05-30T10:36:48Z","tX":528,"tY":373,"tags":{"capacity":"10","caravan_site":"motorhome_stopover","caravan_site:type":"town","charge":"11.72 EUR","fee":"yes","maxweight":"none","name":"Aire de camping-cars Saint-Paul-lès-Durance","network":"AirePark","opening_hours":"24/7","picnic_area":"yes","power_supply":"yes","power_supply:maxcurrent":"10","sanitary_dump_station":"yes","seasonal":"no","tents":"no","water_point":"yes","water_point:charge":"4 EUR","water_point:fee":"yes","website":"https://www.aireparkreservation.com/aires-camping-cars/provence-alpes-cote-azur/bouches-du-rhone/saint-paul-les-durance"}},"1319013304":{"location":[43.6866246,5.7059672],"ct":"FR","tp":"PK","ts":"2024-09-28T15:00:35Z","tX":528,"tY":373,"tags":{"motorhome":"yes","surface":"asphalt"}},"1319013305":{"location":[43.6873023,5.7059834],"ct":"FR","tp":"CR","ts":"2024-10-03T22:00:52Z","tX":528,"tY":373,"tags":{"capacity":"4","caravan_site":"motorhome_stopover","caravan_site:type":"village","caravans":"no","fee":"no","name":"Aire Saint-Paul-lès-Durance","sanitary_dump_station":"yes","tents":"no","water_point":"yes"}},"3005375093":{"location":[43.7344163,5.9724217],"ct":"FR","tp":"CS","ts":"2019-05-17T12:46:34Z","tX":528,"tY":373,"tags":{"name":"Caming Vivre Plain","name:fr":"Camping Vivre Plain"}},"3673764359":{"location":[43.7845517,5.7636706],"ct":"FR","tp":"SD","ts":"2023-06-12T10:21:45Z","tX":528,"tY":373,"tags":{"access":"yes","fee":"no","opening_hours":"24/7","sanitary_dump_station:basin":"yes"}},"5206750149":{"location":[43.7292309,5.8032399],"ct":"FR","tp":"SD","ts":"2017-11-02T16:07:19Z","tX":528,"tY":373,"tags":{}},"6333481023":{"location":[43.6317096,5.6442566],"ct":"FR","tp":"SD","ts":"2020-02-15T16:46:50Z","tX":528,"tY":373,"tags":{"fee":"no","sanitary_dump_station:chemical_toilet":"yes","sanitary_dump_station:grey_water":"yes","water_point":"yes"}},"12104975672":{"location":[43.7508156,5.8744167],"ct":"FR","tp":"SD","ts":"2024-08-11T20:21:15Z","tX":528,"tY":373,"tags":{"access":"yes","fee":"no","sanitary_dump_station:chemical_toilet":"yes","sanitary_dump_station:gravity":"yes","sanitary_dump_station:grey_water":"yes","water_point":"yes"}}}