{"333867413":{"location":[43.442076,5.6298292],"ct":"FR","tp":"CS","ts":"2022-09-16T06:27:52Z","tX":528,"tY":374,"tags":{"addr:street":"Chemin de Pourrachon","internet_access":"wlan","internet_access:fee":"no","landuse":"tourism","name":"Camping le Devançon","phone":"+33 4 42 58 10 06","stars":"3","website":"https://www.ledevancon.fr/"}},"817330799":{"location":[43.3773554,5.7903622],"ct":"FR","tp":"CS","ts":"2020-06-18T19:44:25Z","tX":528,"tY":374,"tags":{"name":"Camping Domaine de la Sainte-Baume"}},"1150773518":{"location":[43.5278466,5.6817272],"ct":"FR","tp":"CS","ts":"2023-11-20T11:41:19Z","tX":528,"tY":374,"tags":{"access":"permissive","fax":"+33 4 42 66 36 33","fee":"yes","internet_access":"wlan","name":"Le Cézanne","payment:cash":"yes","payment:credit_cards":"yes","phone":"+33 4 42 66 36 33","source":"website","website":"http://www.le-cezanne.com"}},"1190015221":{"location":[43.428855,5.8644442],"ct":"FR","tp":"PK","ts":"2024-10-02T16:56:24Z","tX":528,"tY":374,"tags":{"motorhome":"yes","parking":"surface"}},"5746887123":{"location":[43.4291152,5.8646707],"ct":"FR","tp":"CS","ts":"2024-10-02T16:56:24Z","tX":528,"tY":374,"tags":{"dog":"yes","laundry":"yes","name":"Camping le Provençal","opening_hours":"Apr-Sep","shower":"yes","toilets":"yes","website":"https://www.camping-le-provencal.com/"}},"11869718536":{"location":[43.4006188,5.7266995],"ct":"FR","tp":"CS","ts":"2024-04-30T18:34:14Z","tX":528,"tY":374,"tags":{"access":"permissive","addr:city":"Saint Zacharie","addr:postcode":"83640","addr:street":"Chemin de la gantesse","caravans":"yes","fee":"yes","name":"Camping la Gantesse","payment:cards":"yes","payment:cash":"yes","tents":"yes"}},"10259011784":{"location":[43.4679207,5.6560783],"ct":"FR","tp":"SD","ts":"2022-12-13T08:01:02Z","tX":528,"tY":374,"tags":{"name":"Borne Flot Bleu"}}}