{"6506077":{"location":[43.187209,5.6584285],"ct":"FR","tp":"CS","ts":"2016-08-19T19:39:38Z","tX":528,"tY":375,"tags":{"name":"La Baie des Anges","operator":"Homair Vacances"}},"163816248":{"location":[43.1519928,5.7152519],"ct":"FR","tp":"CS","ts":"2020-01-26T21:12:11Z","tX":528,"tY":375,"tags":{"addr:housenumber":"1647","addr:street":"Route de Port d'Alon","landuse":"tourism","name":"Camping Port d'Alon","phone":"+33 4 94 26 56 46","website":"https://www.saintcyrsurmer.com/hotellerie-plein-air/camping-du-port-dalon-saint-cyr-sur-mer/"}},"224944486":{"location":[43.1234109,5.7880081],"ct":"FR","tp":"CS","ts":"2024-06-13T17:29:44Z","tX":528,"tY":375,"tags":{"caravans":"yes","drinking_water":"yes","email":"mogador@campasun.eu","fax":"+33 4 94 74 10 58","internet_access":"wlan","landuse":"tourism","name":"Parc Mogador","operator":"Campasun","phone":"+33 4 94 74 53 16","power_supply":"cee_17_blue","sanitary_dump_station":"yes","shower":"yes","stars":"4","tents":"yes","toilets":"yes","website":"http://www.campasun-mogador.eu/"}},"225833716":{"location":[43.1162628,5.8386859],"ct":"FR","tp":"CS","ts":"2023-11-06T23:42:56Z","tX":528,"tY":375,"tags":{"addr:city":"Six-Fours-les-Plages","addr:country":"FR","addr:housenumber":"136","addr:street":"Chemin de Pépiole","internet_access":"wlan","internet_access:fee":"no","landuse":"tourism","name":"Camping Orly d'Azur","phone":"+33 4 94 25 59 41","stars":"3","website":"https://www.camping-orly.fr/"}},"260947632":{"location":[43.0698493,5.854168],"ct":"FR","tp":"CS","ts":"2021-06-05T08:35:35Z","tX":528,"tY":375,"tags":{"access":"customers","barrier":"fence","fee":"yes","landuse":"tourism","name":"Camping Huttopia Forêt de Janas","source":"gps","website":"https://europe.huttopia.com/site/foret-de-janas/"}},"288984749":{"location":[43.2521034,5.7659358],"ct":"FR","tp":"CS","ts":"2023-06-10T08:55:35Z","tX":528,"tY":375,"tags":{"addr:city":"Le Castellet","addr:housenumber":"5115","addr:postcode":"83330","addr:street":"Route des Hauts du Camp","landuse":"tourism","name":"Domaine de la Bergerie","source":"Bing"}},"294820680":{"location":[43.1595172,5.7310907],"ct":"FR","tp":"CS","ts":"2021-10-01T12:56:20Z","tX":528,"tY":375,"tags":{"landuse":"tourism","name":"Camping Clos Ste Thérèse"}},"300946216":{"location":[43.0892206,5.8169291],"ct":"FR","tp":"CS","ts":"2022-12-28T21:59:50Z","tX":528,"tY":375,"tags":{"landuse":"tourism","name":"Le Rayolet","operator":"Caisse Centrale d'Activités Sociales","phone":"+33 4 94 25 62 35"}},"301647209":{"location":[43.2013656,5.7381889],"ct":"FR","tp":"CS","ts":"2024-02-10T21:39:16Z","tX":528,"tY":375,"tags":{"landuse":"tourism","name":"Camping Capfun La Malissonne"}},"303211602":{"location":[43.1132901,5.8314895],"ct":"FR","tp":"CS","ts":"2023-11-06T23:42:55Z","tX":528,"tY":375,"tags":{"area":"yes","fax":"+33 4 94 07 19 90","internet_access":"wlan","internet_access:fee":"no","landuse":"tourism","name":"Les Playes","phone":"+33 4 94 25 57 57","stars":"4","website":"https://www.camplayes.com/index.htm"}},"303689158":{"location":[43.1101716,5.8529925],"ct":"FR","tp":"CS","ts":"2019-03-23T16:15:57Z","tX":528,"tY":375,"tags":{"addr:city":"La Seyne-sur-Mer","addr:country":"FR","addr:housenumber":"523","addr:postcode":"83500","addr:street":"Avenue Marcel Paul","area":"yes","fax":"+33 4 94 30 62 11","internet_access":"wlan","landuse":"tourism","name":"Les Fontanettes","phone":"+33 4 94 94 75 07","stars":"3","website":"https://www.camping-fontanettes.com//"}},"303845869":{"location":[43.1042054,5.8494417],"ct":"FR","tp":"CS","ts":"2024-06-03T11:01:02Z","tX":528,"tY":375,"tags":{"area":"yes","email":"campingstjeanazur@gmail.com","internet_access":"wlan","landuse":"tourism","name":"Saint-Jean","name:oc":"Sant Joan","phone":"+33 4 94 87 51 51","source:name:oc":"ieo-bdtopoc","stars":"3","website":"https://www.campingstjean.com/","wheelchair":"yes"}},"305201244":{"location":[43.082573,5.8380034],"ct":"FR","tp":"CS","ts":"2019-03-23T16:15:48Z","tX":528,"tY":375,"tags":{"area":"yes","email":"neigeetsoleilsixfours@wanadoo.fr","fax":"+33 4 94 34 51 36","internet_access":"wlan","internet_access:fee":"yes","landuse":"tourism","name":"Camping Mer et Montagne","phone":"+33 4 94 34 34 32","stars":"3","website":"https://www.neigeetsoleil.org/"}},"305974705":{"location":[43.1321424,5.81627],"ct":"FR","tp":"CS","ts":"2024-12-04T10:22:58Z","tX":528,"tY":375,"tags":{"email":"pierredon@campasun.eu","fax":"+33 4 94 74 61 42","internet_access":"wlan","landuse":"tourism","name":"Mas de Pierredon","operator":"Campasun","phone":"+33 4 94 74 25 02","stars":"4","website":"http://www.campasun-pierredon.eu/"}},"306103092":{"location":[43.0766433,5.9046546],"ct":"FR","tp":"CS","ts":"2019-03-22T20:05:46Z","tX":528,"tY":375,"tags":{"email":"info@homair.com","internet_access":"wlan","landuse":"tourism","name":"La presqu'île","operator":"Homair","phone":"+33 4 42 20 47 25","stars":"4","website":"https://www.camping-lapresquile.fr/","wheelchair":"no"}},"306103093":{"location":[43.0706214,5.8757613],"ct":"FR","tp":"CS","ts":"2019-03-22T20:05:46Z","tX":528,"tY":375,"tags":{"landuse":"tourism","name":"Les Pins","phone":"+33 4 94 94 06 89","source":"cadastre-dgi-fr source : Direction Générale des Impôts - Cadastre ; mise à jour : 2007"}},"377158917":{"location":[43.1864992,5.6786226],"ct":"FR","tp":"CS","ts":"2023-07-14T13:39:26Z","tX":528,"tY":375,"tags":{"landuse":"tourism","name":"AEC Les dauphins"}},"436215847":{"location":[43.1888291,5.6446796],"ct":"FR","tp":"CS","ts":"2024-05-02T19:43:24Z","tX":528,"tY":375,"tags":{"addr:city":"La Ciotat","addr:housenumber":"386","addr:postcode":"13600","addr:street":"Rue de toulon","caravans":"yes","fee":"yes","landuse":"tourism","name":"Santa Gusta","payment:cash":"yes","phone":"+33442831417","shower":"yes","stars":"2","tents":"yes","toilets":"yes","website":"https://www.santagusta.com/"}},"551696212":{"location":[43.2978777,5.6294156],"ct":"FR","tp":"CR","ts":"2024-10-08T19:42:27Z","tX":528,"tY":375,"tags":{"capacity":"3","caravan_site":"motorhome_stopover","caravan_site:type":"city","fee":"no","name":"Gémenos Aire Municipal","power_supply":"yes","sanitary_dump_station":"yes","water_point":"yes"}},"551697957":{"location":[43.0776879,5.9046463],"ct":"FR","tp":"CR","ts":"2024-10-10T15:04:58Z","tX":528,"tY":375,"tags":{"capacity":"8","caravan_site":"motorhome_stopover","caravan_site:type":"harbour","caravans":"no","fee":"no","maxstay":"48 hours","name":"Aire de stationnement camping car Saint Mandrier","permanent_camping":"no","power_supply":"no","sanitary_dump_station":"yes","seasonal":"no","tents":"no","water_point":"yes","website":"https://www.visitvar.fr/fiche/aire-de-stationnement-camping-car-de-saint-mandrier-4078440"}},"594320898":{"location":[43.2770137,5.969793],"ct":"FR","tp":"CS","ts":"2022-10-07T15:41:32Z","tX":528,"tY":375,"tags":{"addr:city":"Meounes","addr:country":"FR","addr:housenumber":"700","addr:postcode":"83136","addr:street":"Quartier Les Ferrages","caravans":"yes","contact:phone":"+33 4 94 33 98 34","contact:website":"http://www.camping-aux-tonneaux.com","internet_access":"wlan","internet_access:fee":"no","landuse":"tourism","name":"Aux Tonneaux","stars":"2","tents":"yes"}},"594698583":{"location":[43.0718406,5.8594519],"ct":"FR","tp":"CS","ts":"2019-03-22T20:06:18Z","tX":528,"tY":375,"tags":{"landuse":"tourism","name":"Buffalo Park"}},"697164700":{"location":[43.1982998,5.8061736],"ct":"FR","tp":"SD","ts":"2019-06-14T14:39:40Z","tX":528,"tY":375,"tags":{}},"730448980":{"location":[43.0775763,5.8698039],"ct":"FR","tp":"CS","ts":"2024-05-29T13:28:55Z","tX":528,"tY":375,"tags":{"addr:city":"La Seyne-sur-Mer","addr:country":"FR","addr:place":"Fabrégas","addr:postcode":"83500","addr:street":"Chemin de Fabrégas aux Moulières","capacity":"91","caravans":"yes","internet_access":"wlan","name":"GCU Fabrégas","operator":"Groupement des Campeurs Universitaires","phone":"+33 4 94 06 05 15","stars":"2","static_caravans":"yes","tents":"yes","website":"https://www.gcu.asso.fr/terrains/fabr%C3%A9gas-var-83","wheelchair":"limited"}},"1070327581":{"location":[43.1716415,5.6986339],"ct":"FR","tp":"CS","ts":"2023-11-15T14:39:41Z","tX":528,"tY":375,"tags":{"cabins":"yes","caravans":"yes","fee":"yes","hot_water":"yes","internet_access":"wlan","name":"Les Baumelles","openfire":"no","phone":"+33 4 94 26 21 27; +33 4 94 88 76 13","power_supply":"cee_17_blue;cee_7_5","seasonal":"spring/summer","shower":"yes","stars":"3","swimming_pool":"no","tents":"yes","toilets":"yes","washing_machine":"yes","website":"https://www.campinglesbaumelles.fr/"}},"1180931034":{"location":[43.2533337,5.7579131],"ct":"FR","tp":"CS","ts":"2023-06-10T08:55:35Z","tX":528,"tY":375,"tags":{"addr:city":"Le Castellet","addr:housenumber":"2810","addr:postcode":"83330","addr:street":"Montée du Vieux Camp","name":"Les Arbouses"}},"1180931035":{"location":[43.2534246,5.7566547],"ct":"FR","tp":"CS","ts":"2023-06-10T08:55:35Z","tX":528,"tY":375,"tags":{"addr:city":"Le Castellet","addr:housenumber":"5541","addr:postcode":"83330","addr:street":"Route des Hauts du Camp","name":"Capfun Arbois du Castellet"}},"1180931036":{"location":[43.2535843,5.7546024],"ct":"FR","tp":"CS","ts":"2023-06-10T08:55:35Z","tX":528,"tY":375,"tags":{"addr:city":"Le Castellet","addr:housenumber":"3084","addr:postcode":"83330","addr:street":"Montée du Vieux Camp","name":"Les Grands Pins"}},"1287080140":{"location":[43.2812514,5.7053255],"ct":"FR","tp":"CR","ts":"2024-05-27T13:44:30Z","tX":528,"tY":375,"tags":{"caravan_site":"motorhome_stopover","caravan_site:type":"forest;village","charge":"7.50 EUR","dog":"yes","fee":"yes","name":"Aire Cuges-les-Pins","opening_hours":"24/7","seasonal":"no","website":"https://www.marseille-tourisme.com/en/organize-your-stay/finding-accommodations-in-marseille/find-a-campsite-around-marseille/aire-de-camping-car-ste-madeleine-cuges-les-pins-en-3661929/"}},"2937784258":{"location":[43.2206709,5.6282659],"ct":"FR","tp":"CS","ts":"2024-10-05T23:23:52Z","tX":528,"tY":375,"tags":{"addr:city":"Ceyreste","addr:postcode":"13600","addr:street":"Avenue Eugène Julien","caravans":"yes","fee":"yes","name":"Camping de Ceyreste","phone":"+334 42 83 07 68","stars":"4","static_caravans":"yes","tents":"yes","website":"https://www.campingceyreste.com/"}},"6739075887":{"location":[43.0732753,5.8248509],"ct":"FR","tp":"CS","ts":"2019-08-23T15:36:43Z","tX":528,"tY":375,"tags":{"name":"Camping La Pinède"}},"9437511079":{"location":[43.2691873,5.7316098],"ct":"FR","tp":"CS","ts":"2022-01-22T09:01:13Z","tX":528,"tY":375,"tags":{"fee":"yes","name":"Le Monde des Tipis","website":"https://thelisresa.webcamp.fr/?camping=okcorral&sites%5B%5D=1601&lang=fr&PHPSESSID=7hbq3gtvoio40uspgadtv6tebh"}},"5329766050":{"location":[43.1268109,5.9365024],"ct":"FR","tp":"CR","ts":"2024-10-08T17:28:53Z","tX":528,"tY":375,"tags":{"capacity":"6","caravan_site":"motorhome_stopover","caravan_site:type":"parking_lot","fee":"yes","name":"Parc des Lices Soth, Toulon","sanitary_dump_station":"no"}},"5327771820":{"location":[43.2976445,5.6295195],"ct":"FR","tp":"SD","ts":"2018-01-08T17:43:55Z","tX":528,"tY":375,"tags":{"fee":"no","sanitary_dump_station:chemical_toilet":"yes","sanitary_dump_station:grey_water":"yes","water_point":"yes"}},"5327788768":{"location":[43.0772952,5.9053767],"ct":"FR","tp":"SD","ts":"2024-11-12T17:33:15Z","tX":528,"tY":375,"tags":{"access":"yes","fee":"no","panoramax":"36e4c6c6-adcd-4808-89d4-da3b7152f4e9","power_supply":"no","sanitary_dump_station:chemical_toilet":"yes","sanitary_dump_station:grey_water":"yes","water_point":"yes"}},"6952380343":{"location":[43.1125109,5.8116837],"ct":"FR","tp":"SD","ts":"2020-03-12T14:28:25Z","tX":528,"tY":375,"tags":{"access":"yes","water_point":"yes"}}}