{"11182252036":{"location":[-7.7483733,111.700485],"ct":"ID","tp":"CS","ts":"2023-11-24T16:23:58Z","tX":829,"tY":534,"tags":{"access":"yes","addr:city":"Madiun","addr:postcode":"63182","addr:street":"Branjang, Kare, Madiun Regency, East Java 63182","name":"Basecamp Kare"}},"11184844501":{"location":[-7.7484234,111.7777671],"ct":"ID","tp":"CS","ts":"2023-09-12T03:34:53Z","tX":829,"tY":534,"tags":{"access":"yes","addr:city":"Nganjuk","addr:postcode":"64475","addr:street":"Patuk, Bareng, Kec. Sawahan, Kabupaten Nganjuk, Jawa Timur 64475","charge":"Rp. 10.000,-","description":"Basecamp and registration or permit access","fee":"yes","name":"Pos Perijinan Gunung Wilis Via Bareng","name:en":"Permit access to Jontani peak of mount wilis via Bareng route","payment:cash":"yes"}},"11184859887":{"location":[-7.7669415,111.7806813],"ct":"ID","tp":"CS","ts":"2023-09-12T04:52:53Z","tX":829,"tY":534,"tags":{"access":"permit","capacity:tents":"10","check_date":"2023-09-12","description":"Some time ojek or motorcycle taxi available,","drinking_water":"yes","name":"Pos 2 (Pos banyu umbul or sendang panguripan), sumber air","openfire":"yes","tents":"yes"}}}