{"404669385":{"location":[22.1325938,113.5776571],"ct":"MO","tp":"CS","ts":"2018-12-06T18:11:33Z","tX":835,"tY":447,"tags":{"access":"permit","name":"九澳水庫戶外體驗營 Zona de Campismo e Diversões da Barragem de Ká-Hó","name:pt":"Zona de Campismo e Diversões da Barragem de Ká-Hó","name:zh":"九澳水庫戶外體驗營"}},"404669395":{"location":[22.1214582,113.5704492],"ct":"MO","tp":"CS","ts":"2020-02-23T07:07:00Z","tX":835,"tY":447,"tags":{}},"1187278929":{"location":[22.2306596,113.8672137],"ct":"HK","tp":"CS","ts":"2012-10-09T15:45:47Z","tX":835,"tY":447,"tags":{"name":"萬丈布營地 Man Cheung Po Campsite","name:en":"Man Cheung Po Campsite","name:zh":"萬丈布營地"}},"1233569033":{"location":[22.2088617,113.8442372],"ct":"HK","tp":"CS","ts":"2022-05-14T08:19:29Z","tX":835,"tY":447,"tags":{"name":"煎魚灣營地 Tsin Yue Wan Campsite","name:en":"Tsin Yue Wan Campsite","name:zh":"煎魚灣營地"}},"1236965238":{"location":[22.2386817,113.8529615],"ct":"HK","tp":"CS","ts":"2011-04-08T07:02:32Z","tX":835,"tY":447,"tags":{"name":"牙鷹角營地 Nga Ying Kok Campsite","name:en":"Nga Ying Kok Campsite","name:zh":"牙鷹角營地"}},"1252436998":{"location":[22.2138727,113.9031064],"ct":"HK","tp":"CS","ts":"2020-09-13T05:21:41Z","tX":835,"tY":447,"tags":{"name":"石欖洲營地 Shek Lam Chau Campsite","name:en":"Shek Lam Chau Campsite","name:yue":"石欖洲營地","name:zh":"石欖洲營地","name:zh-Hans":"石榄洲营地","name:zh-Hant":"石欖洲營地"}},"1955110567":{"location":[22.2141515,113.8778391],"ct":"HK","tp":"CS","ts":"2018-11-04T12:21:33Z","tX":835,"tY":447,"tags":{"name":"大浪灣營地 Tai Long Wan Camp Site","name:yue":"Tai Long Wan Camp Site","name:zh":"大浪灣營地","operator":"漁農自然護理署"}},"1955110572":{"location":[22.2045703,113.8637313],"ct":"HK","tp":"CS","ts":"2022-04-02T19:11:26Z","tX":835,"tY":447,"tags":{"fee":"no","name":"狗嶺涌營地 Kau Ling Chung Camp Site","name:en":"Kau Ling Chung Camp Site","name:zh":"狗嶺涌營地","name:zh-Hans":"狗岭涌营地","name:zh-Hant":"狗嶺涌營地"}},"1967306835":{"location":[22.2289309,113.8897257],"ct":"HK","tp":"CS","ts":"2022-05-14T08:48:02Z","tX":835,"tY":447,"tags":{"name":"石壁營地 Shek Pik Campsite","name:en":"Shek Pik Campsite","name:zh":"石壁營地"}},"2469603066":{"location":[22.2045959,113.8644287],"ct":"HK","tp":"CS","ts":"2013-09-24T03:56:58Z","tX":835,"tY":447,"tags":{}}}