{"44536112":{"location":[-24.8794311,113.6613974],"ct":"AU","tp":"CR","ts":"2025-03-05T22:22:46Z","tX":835,"tY":585,"tags":{"addr:housenumber":"108","addr:postcode":"6701","addr:street":"Robinson Street","addr:suburb":"Carnarvon","internet_access":"wlan","name":"Coral Coast Tourist Park","phone":"+61 8 9941 1438","power_supply":"yes","website":"https://www.coralcoasttouristpark.com.au/"}},"44536679":{"location":[-24.8657026,113.681619],"ct":"AU","tp":"CR","ts":"2025-03-06T09:11:50Z","tX":835,"tY":585,"tags":{"addr:housenumber":"49","addr:postcode":"6701","addr:street":"Wise Street","email":"info@outback-oasis.com.au","name":"Outback Oasis Caravan Park Carnarvon","phone":"+61 8 9941 1439","source":"nearmap","website":"http://www.carnarvon-caravan-park.com.au/"}},"44536684":{"location":[-24.8650213,113.6891764],"ct":"AU","tp":"CR","ts":"2023-11-18T06:08:11Z","tX":835,"tY":585,"tags":{"addr:housenumber":"477","addr:street":"Robinson Street","fee":"yes","name":"Carnarvon Caravan Park","phone":"+61 8 9941 8101","power_supply":"yes","source":"nearmap","source:name":"signs","website":"https://www.carnarvonpark.com.au/"}},"98416554":{"location":[-24.8615659,113.7006493],"ct":"AU","tp":"CR","ts":"2025-03-06T09:04:44Z","tX":835,"tY":585,"tags":{"addr:country":"AU","addr:housenumber":"589","addr:street":"Robinson Street","brand":"Big 4 Holiday Parks","brand:wikidata":"Q18636678","brand:wikipedia":"en:BIG4 Holiday Parks","name":"BIG4 Plantation Caravan Park","operator":"Big4","phone":"+61 8 9942 8100","phone:AU":"1800 261 166","short_name":"Big4","source":"nearmap"}},"240392046":{"location":[-25.1300974,113.7524134],"ct":"AU","tp":"CS","ts":"2022-11-04T10:29:46Z","tX":835,"tY":585,"tags":{"caravans":"yes","drinking_water":"no","fee":"no","internet_access":"no","name":"Bush Bay","opening_hours":"24/7","sanitary_dump_station":"yes","tents":"yes","toilets":"no"}},"242912732":{"location":[-24.8663306,113.6960257],"ct":"AU","tp":"CR","ts":"2025-03-06T09:11:50Z","tX":835,"tY":585,"tags":{"addr:housenumber":"546","addr:postcode":"6701","addr:street":"Robinson Street","fee":"yes","name":"Wintersun Caravan and Tourist Park","phone":"+61 8 9941 8150","phone:AU":"1300 555 585","power_supply":"yes","website":"https://www.wintersuncaravanpark.com.au/"}},"242914996":{"location":[-24.8642386,113.7030682],"ct":"AU","tp":"CR","ts":"2015-11-24T16:56:12Z","tX":835,"tY":585,"tags":{"fee":"yes","name":"Capricorn Holiday Park Carnarvon","phone":"+61 8 9941 8153","power_supply":"yes","website":"http://www.capricornholidaypark.com.au/"}},"242914997":{"location":[-24.8653329,113.6852144],"ct":"AU","tp":"CR","ts":"2025-03-06T09:04:51Z","tX":835,"tY":585,"tags":{"addr:housenumber":"24","addr:postcode":"6701","addr:street":"Angelo Street","email":"enquiries@norwesta.com.au","fee":"yes","name":"Norwesta Lifestyle Park","phone":"+61 8 9941 1277","power_supply":"yes","website":"https://www.norwesta.com.au/"}},"1109873358":{"location":[-25.1550055,113.7923631],"ct":"AU","tp":"CS","ts":"2022-11-03T01:37:25Z","tX":835,"tY":585,"tags":{"addr:street":"Bush Bay Road","fee":"yes","name":"New Beach","website":"https://www.carnarvon.org.au/accommodation/new-beach-bush-bay-campground"}},"1811190420":{"location":[-25.1576072,113.8029062],"ct":"AU","tp":"CS","ts":"2013-10-03T15:59:01Z","tX":835,"tY":585,"tags":{"name":"New Beach"}}}