{"891136241":{"location":[49.9142907,-121.4449593],"ct":"CA","tp":"CR","ts":"2021-03-23T19:09:06Z","tX":166,"tY":347,"tags":{"addr:city":"BOSTON BAR","addr:housenumber":"50490","addr:postcode":"V0K 1C0","addr:street":"TRANS CANADA HWY","name":"Canyon Alpine RV Park & Campground","phone":"+1-604-867-9734","phone:tollfree":"+1-800-644-7275","source":"website;survey","website":"https://www.canyonalpinervpark.com/"}},"1318244595":{"location":[49.9709252,-121.5228668],"ct":"CA","tp":"CS","ts":"2024-12-29T09:41:36Z","tX":166,"tY":347,"tags":{"access":"yes","addr:city":"Boston Bar","addr:housenumber":"52702","addr:province":"BC","addr:street":"Chaumox Road","backcountry":"no","caravans":"yes","email":"washtockfamilycampground@gmail.com","facebook":"https://www.facebook.com/profile.php?id=100076557039059","fee":"yes","group_only":"no","instagram":"https://www.instagram.com/washtock_family_farm/","name":"Washtok Family Campground","operator":"Washtok Family Farm","phone":"+1-604-869-6225","reservation":"unknown","static_caravans":"yes","website":"https://washtockfamilyfarm.ca/book-your-campsite/"}},"1318315906":{"location":[49.8394579,-121.4342956],"ct":"CA","tp":"CS","ts":"2024-09-26T07:21:06Z","tX":166,"tY":347,"tags":{"access":"yes","backcountry":"no","cabins":"no","caravans":"yes","fee":"yes","group_only":"no","name":"Tuckkwiowhum Campground","permanent_camping":"no","sanitary_dump_station":"yes","static_caravans":"yes","tents":"yes","toilets":"yes","website":"https://tuckkwiowhum.ca/campground/"}},"3393377682":{"location":[50.0014994,-121.569231],"ct":"CA","tp":"CS","ts":"2024-06-27T15:24:40Z","tX":166,"tY":347,"tags":{"access":"yes","capacity:persons":"5","charge":"15 CAD","fee":"yes","name":"Fir Flats","operator":"Rivers Edge Cabins","payment:cash":"yes","website":"https://www.sitesandtrailsbc.ca/search/search-result.aspx?site=REC0048&type=Site"}},"3393377683":{"location":[50.0028235,-121.584668],"ct":"CA","tp":"CS","ts":"2024-09-25T22:04:35Z","tX":166,"tY":347,"tags":{"access":"yes","name":"Nahatlatch River Campsite","operator":"Recreation Sites and Trails BC","operator:type":"government","tents":"yes"}},"4406172391":{"location":[49.9969366,-121.4946986],"ct":"CA","tp":"CS","ts":"2024-09-26T00:28:20Z","tX":166,"tY":347,"tags":{"access":"yes","addr:city":"Boston Bar","addr:housenumber":"63452","addr:street":"Blue Lake Road","facebook":"https://www.facebook.com/BlueLakeBC","fee":"yes","name":"Blue Lake Resort","website":"https://www.bluelakeresort.ca/"}},"4956170598":{"location":[50.0104599,-121.6403502],"ct":"CA","tp":"CS","ts":"2023-08-20T12:25:17Z","tX":166,"tY":347,"tags":{"access":"yes","charge":"15 CAD","fee":"yes","name":"Log Creek Campground","operator":"Rivers Edge Cabins","payment:cash":"yes","website":"https://www.riversedgecabins.com/log_creek.html"}},"4965043921":{"location":[49.9715533,-121.5205041],"ct":"CA","tp":"CS","ts":"2024-09-26T01:50:19Z","tX":166,"tY":347,"tags":{"access":"yes","backcountry":"no","email":"shoneena_loss@hotmail.com","name":"Sandy Pines Campground","name:en":"Sandy Pines Campground","name:fr":"Sandy Pines Campground","opening_hours":"24/7","operator":"Robert, Shoneena","phone":"+1-604-869-6225","website":"https://www.sandypinescampground.com/"}},"11131446060":{"location":[49.9973147,-121.5528134],"ct":"CA","tp":"CS","ts":"2023-11-14T14:06:06Z","tX":166,"tY":347,"tags":{"access":"yes","fee":"yes","name":"Apocynum Campground","operator":"Rivers Edge Cabins","payment:cash":"yes","website":"https://www.riversedgecabins.com/apocynum.html"}},"12201008135":{"location":[49.8399828,-121.4323394],"ct":"CA","tp":"SD","ts":"2024-09-26T07:21:06Z","tX":166,"tY":347,"tags":{"access":"customers"}}}