{"107896641":{"location":[49.3821435,-121.4477887],"ct":"CA","tp":"CS","ts":"2023-10-04T00:34:31Z","tX":166,"tY":350,"tags":{"addr:housenumber":"009","addr:street":"Water Avenue","caravans":"yes","name":"Telte-Yet","phone":"+1-604-869-9481","source":"NRCan-CanVec-7.0","tents":"yes","website":"https://www.facebook.com/TelteYet/"}},"305644991":{"location":[49.1585122,-121.6285808],"ct":"CA","tp":"CS","ts":"2023-11-21T11:12:38Z","tX":166,"tY":350,"tags":{"access":"yes","backcountry":"yes","caravans":"no","fee":"no","static_caravans":"no","tents":"no"}},"418546672":{"location":[49.3807749,-121.3539129],"ct":"CA","tp":"CS","ts":"2022-05-16T23:22:47Z","tX":166,"tY":350,"tags":{"addr:city":"Hope","addr:housenumber":"67851","addr:street":"Othello Road","capacity":"42","email":"camp@othellotunnels.com","fee":"yes","name":"Othello Tunnels Campground and RV Park","operator":"Bob and Lauretta Redlich","phone":"+1-604-869-9448","website":"https://www.othellotunnels.com/"}},"462275616":{"location":[49.3799437,-121.4251043],"ct":"CA","tp":"CS","ts":"2024-03-29T16:48:52Z","tX":166,"tY":350,"tags":{"addr:city":"Hope","addr:housenumber":"800","addr:street":"Kawkawa Lake Road","backcountry":"no","capacity":"117","drinking_water":"yes","fee":"yes","internet_access":"wlan","internet_access:fee":"no","laundry_service":"yes","name":"Coquihalla Campground","operator":"Pemborough Developments Ltd.","phone":"+1-604-869-7119","power_supply":"yes","reservation":"yes","sanitary_dump_station":"yes","shower":"yes","toilets":"yes","website":"https://www.coquihallacampground.ca/"}},"485989603":{"location":[49.3655354,-121.5065752],"ct":"CA","tp":"CR","ts":"2023-08-28T04:25:58Z","tX":166,"tY":350,"tags":{"addr:city":"Hope","addr:housenumber":"62280","addr:postcode":"V0X 1L2","addr:province":"BC","addr:street":"Flood Hope Road","cabins":"yes","email":"hopevalleyrv@hotmail.com","internet_access":"wlan","internet_access:fee":"customers","name":"Hope Valley RV & Campground","phone":"+1-604-869-9857","power_supply":"yes","shower":"yes","website":"https://www.hopevalleyrv.com/"}},"801340776":{"location":[49.3163863,-121.4189343],"ct":"CA","tp":"CS","ts":"2020-05-07T16:15:29Z","tX":166,"tY":350,"tags":{"capacity":"25","charge":"18 CDN","fee":"yes","name":"Silver Lake Provinical Campground","opening_hours:covid19":"off","operator":"Sea to Sky Park Services Ltd.","payment:cash":"yes"}},"1191956305":{"location":[49.2490629,-121.6021906],"ct":"CA","tp":"CS","ts":"2023-07-26T04:43:51Z","tX":166,"tY":350,"tags":{"access":"yes","alt_name":"Jones Lake East Recreation Area","cabins":"no","caravans":"yes","dog":"leashed","drinking":"no","fee":"no","group_only":"no","hot_water":"no","internet_access":"no","motor_vehicle":"yes","name":"Jones Lake Main Recreation Area","nudism":"no","operator":"BC Hydro","picnic_table":"yes","reservation":"no","scout":"no","shower":"no","smoking":"no","swimming_pool":"no","tents":"yes","toilets":"yes","washing_machine":"no"}},"1191956307":{"location":[49.2462044,-121.6034016],"ct":"CA","tp":"CS","ts":"2023-07-26T04:43:51Z","tX":166,"tY":350,"tags":{"access":"yes","alt_name":"Jones Lake East Recreation Area","cabins":"no","caravans":"yes","dog":"leashed","drinking":"no","fee":"no","group_only":"no","hot_water":"no","internet_access":"no","motor_vehicle":"yes","name":"Jones Lake Main Recreation Area","nudism":"no","operator":"BC Hydro","picnic_table":"yes","reservation":"no","scout":"no","shower":"no","smoking":"no","swimming_pool":"no","tents":"yes","toilets":"yes","washing_machine":"no"}},"1191956308":{"location":[49.2529873,-121.6090442],"ct":"CA","tp":"CS","ts":"2023-07-26T04:43:51Z","tX":166,"tY":350,"tags":{"access":"yes","alt_name":"Jones Lake West Recreation Area","cabins":"no","caravans":"yes","dog":"leashed","drinking":"no","fee":"no","group_only":"no","hot_water":"no","internet_access":"no","motor_vehicle":"yes","name":"Jones Lake West Recreation Area","nudism":"no","operator":"BC Hydro","picnic_table":"yes","reservation":"no","scout":"no","shower":"no","smoking":"no","swimming_pool":"no","tents":"yes","toilets":"yes","washing_machine":"no"}},"1205988842":{"location":[49.3518486,-121.5874269],"ct":"CA","tp":"CS","ts":"2011-03-17T18:25:12Z","tX":166,"tY":350,"tags":{"source":"NRCan-CanVec-7.0"}},"1317795963":{"location":[49.3602363,-121.5892927],"ct":"CA","tp":"CR","ts":"2024-09-24T04:46:26Z","tX":166,"tY":350,"tags":{"name":"Grace Estates","website":"https://grace-estates.ca/"}},"4438222791":{"location":[49.3422194,-121.4597941],"ct":"CA","tp":"CS","ts":"2016-10-08T20:23:03Z","tX":166,"tY":350,"tags":{"name":"Hope dispersed camping"}},"6678152572":{"location":[49.3658508,-121.5131823],"ct":"CA","tp":"CS","ts":"2023-08-28T04:25:58Z","tX":166,"tY":350,"tags":{"addr:city":"Hope","addr:housenumber":"62030","addr:province":"BC","addr:street":"Flood Hope Road","name":"Wild Rose Camping and RV Park","phone":"+1-604-869-9842","website":"https://www.wildrosecamp.com/"}},"9104690307":{"location":[49.1754681,-121.5750895],"ct":"CA","tp":"CS","ts":"2023-08-07T18:43:27Z","tX":166,"tY":350,"tags":{"backcountry":"yes","fee":"no","name":"Mile High Campsite"}},"11066406010":{"location":[49.2376465,-121.6035835],"ct":"CA","tp":"CS","ts":"2023-07-25T07:19:44Z","tX":166,"tY":350,"tags":{"access":"yes","backcountry":"yes","fee":"no","informal":"yes"}},"11101875699":{"location":[49.3804761,-121.4264839],"ct":"CA","tp":"SD","ts":"2023-08-09T14:43:08Z","tX":166,"tY":350,"tags":{"access":"yes","fee":"no","water_point":"yes"}},"12508582725":{"location":[49.379128,-121.4578561],"ct":"CA","tp":"CR","ts":"2025-01-17T03:31:23Z","tX":166,"tY":350,"tags":{"addr:city":"Hope","addr:housenumber":"20600","addr:province":"BC","addr:street":"Landstrom Road","name":"Croft Island RV & Campground","website":"https://croftisland.com/"}}}