{"280536467":{"location":[45.6511028,-121.5603712],"ct":"US","tp":"CS","ts":"2025-01-23T21:00:38Z","tX":166,"tY":365,"tags":{"addr:city":"Hood River","addr:housenumber":"2440","addr:postcode":"97031","addr:state":"OR","addr:street":"Dee Highway","capacity":"90","description":"Tucker Park is located only a few miles south of the city of Hood River and also sits directly on the Hood River itself. This park is probably the most heavily used facility in Hood River County's parks system due to the overwhelming popularity of windsur","leisure":"park","name":"Tucker County Park and Campground","operator":"Hood River County","phone":"+1 (541) 386-4477","website":"http://www.co.hood-river.or.us/index.asp?Type=B_BASIC&SEC={23A363AA-6590-4D1E-97A9-1EABD8672BBE}"}},"425653468":{"location":[45.7948777,-121.6342424],"ct":"US","tp":"CS","ts":"2023-04-26T19:57:49Z","tX":166,"tY":365,"tags":{"area":"yes","capacity:tents":"17","caravans":"yes","charge":"20 USD","fee":"yes","name":"Moss Creek Campground","tents":"yes","website":"https://www.recreation.gov/camping/campgrounds/232799"}},"542517850":{"location":[45.7033007,-121.4750266],"ct":"US","tp":"CS","ts":"2023-06-20T22:23:37Z","tX":166,"tY":365,"tags":{}},"619861024":{"location":[45.7228202,-121.4879658],"ct":"US","tp":"CR","ts":"2019-10-02T17:50:19Z","tX":166,"tY":365,"tags":{"name":"Bridge RV Park & Campground"}},"5401723215":{"location":[45.6968693,-121.3451421],"ct":"US","tp":"CS","ts":"2018-02-09T18:35:51Z","tX":166,"tY":365,"tags":{"name":"Memaloose State Park Campground"}},"11086839331":{"location":[45.7135516,-121.519447],"ct":"US","tp":"SD","ts":"2023-08-03T20:18:10Z","tX":166,"tY":365,"tags":{"access":"yes","fee":"no","sanitary_dump_station:round_drain":"yes"}}}