{"355568143":{"location":[43.7722904,-121.5415782],"ct":"US","tp":"CS","ts":"2024-05-30T17:48:20Z","tX":166,"tY":373,"tags":{"alt_name":"E Loop","caravans":"yes","drinking_water":"yes","name":"North Loop 100-148","tents":"yes"}},"355568150":{"location":[43.7674461,-121.5398335],"ct":"US","tp":"CS","ts":"2024-05-30T17:48:20Z","tX":166,"tY":373,"tags":{"alt_name":"G Loop","caravans":"yes","drinking_water":"yes","internet_access":"wlan","name":"South Loop 1-44","power_supply":"yes","shower":"yes","tents":"no","toilets":"yes"}},"355568151":{"location":[43.7695693,-121.5404353],"ct":"US","tp":"CS","ts":"2024-05-30T17:48:20Z","tX":166,"tY":373,"tags":{"alt_name":"F Loop","caravans":"yes","drinking_water":"yes","internet_access":"no","name":"Middle Loop 50-96","power_supply":"yes","shower":"yes","tents":"no","toilets":"yes"}},"356079148":{"location":[43.671546,-121.501722],"ct":"US","tp":"CR","ts":"2015-06-24T17:29:07Z","tX":166,"tY":373,"tags":{"name":"Whispering Pines"}},"356079157":{"location":[43.6712521,-121.5044099],"ct":"US","tp":"CR","ts":"2023-04-26T22:48:27Z","tX":166,"tY":373,"tags":{"addr:city":"La Pine","addr:postcode":"97739","addr:state":"OR","name":"Highlander RV Park","sanitary_dump_station":"yes"}},"1057983037":{"location":[43.8226492,-121.4549033],"ct":"US","tp":"CR","ts":"2022-08-07T17:24:15Z","tX":166,"tY":373,"tags":{"addr:city":"Bend","addr:housenumber":"17480","addr:postcode":"97707","addr:state":"OR","addr:street":"South Century Drive","name":"Bend-Sunriver RV Campground","operator":"Thousand Trails"}},"1296807876":{"location":[43.7125941,-121.4733045],"ct":"US","tp":"CR","ts":"2024-07-03T00:47:41Z","tX":166,"tY":373,"tags":{"addr:city":"La Pine","addr:housenumber":"52660","addr:state":"OR","addr:street":"The Dalles-California Highway","internet_access":"wlan","internet_access:fee":"customers","name":"Newberry RV Park","opening_hours":"Mo-Su 10:00-17:00","phone":"1-541-536-7596","power_supply":"yes","sanitary_dump_station":"yes","website":"http://www.newberryrv.com"}},"3111627011":{"location":[43.7163113,-121.3781684],"ct":"US","tp":"CS","ts":"2015-06-26T13:08:46Z","tX":166,"tY":373,"tags":{"fee":"yes","name":"McKay Crossing Campground","website":"http://hoodoorecreation.com/campgrounds/deschutes/bend-fort-rock-district/newberry-caldera-area/mckay-crossing/"}},"3611567832":{"location":[43.7725614,-121.620006],"ct":"US","tp":"CS","ts":"2015-06-22T21:34:44Z","tX":166,"tY":373,"tags":{"name":"Fall River Campground"}},"3611784692":{"location":[43.7483619,-121.6026696],"ct":"US","tp":"CS","ts":"2015-06-23T00:52:03Z","tX":166,"tY":373,"tags":{"name":"Pringle Falls Campground"}},"3611784793":{"location":[43.738007,-121.615835],"ct":"US","tp":"CS","ts":"2023-06-02T21:43:04Z","tX":166,"tY":373,"tags":{"access":"yes","capacity:caravans":"5","capacity:tents":"5","caravans":"yes","fee":"yes","name":"Wyeth Campground","operator":"US Forest Service","static_caravans":"no","tents":"yes"}},"3611785010":{"location":[43.7250654,-121.6282569],"ct":"US","tp":"CS","ts":"2015-06-23T00:52:06Z","tX":166,"tY":373,"tags":{"name":"Bull Bend Campground"}},"3619433999":{"location":[43.725255,-121.4237091],"ct":"US","tp":"CS","ts":"2018-01-29T20:13:27Z","tX":166,"tY":373,"tags":{"fee":"yes","name":"Prairie Campground","website":"http://hoodoorecreation.com/campgrounds/deschutes/bend-fort-rock-district/newberry-caldera-area/prairie/"}},"3619782992":{"location":[43.7299509,-121.4187288],"ct":"US","tp":"CS","ts":"2015-06-26T13:08:33Z","tX":166,"tY":373,"tags":{"fee":"yes","name":"Ogden Group Camp","website":"http://hoodoorecreation.com/campgrounds/deschutes/bend-fort-rock-district/newberry-caldera-area/ogden-group/"}}}