{"28713901":{"location":[36.9018227,-121.5583241],"ct":"US","tp":"CR","ts":"2023-01-27T07:34:31Z","tX":166,"tY":398,"tags":{"name":"Betabel RV Park"}},"44108890":{"location":[36.9949702,-121.3771284],"ct":"US","tp":"CR","ts":"2020-11-27T02:08:12Z","tX":166,"tY":398,"tags":{"addr:housenumber":"10031","addr:postcode":"95023","addr:state":"CA","addr:street":"Pacheco Pass Highway","name":"Casa de Fruta RV Park and Inn","operator":"CDF PARKWAY LLC"}},"45608675":{"location":[37.0809718,-121.5312323],"ct":"US","tp":"CS","ts":"2012-07-10T00:03:23Z","tX":166,"tY":398,"tags":{"name":"Lakeview Campground"}},"165349678":{"location":[36.9982684,-121.5533561],"ct":"US","tp":"CR","ts":"2022-08-22T18:21:23Z","tX":166,"tY":398,"tags":{"name":"Gilroy Garlic USA RV Park"}},"170823723":{"location":[36.9834347,-121.5562866],"ct":"US","tp":"CR","ts":"2012-07-09T23:59:31Z","tX":166,"tY":398,"tags":{"name":"Garlic Farm RV Park"}},"206393891":{"location":[37.1500283,-121.420362],"ct":"US","tp":"CS","ts":"2013-02-20T16:40:39Z","tX":166,"tY":398,"tags":{"name":"Pacheco Camp"}},"314088212":{"location":[37.0816557,-121.416582],"ct":"US","tp":"CS","ts":"2024-01-17T07:38:07Z","tX":166,"tY":398,"tags":{"name":"Willson Camp"}},"917553907":{"location":[37.1065405,-121.6305524],"ct":"US","tp":"CR","ts":"2021-03-15T19:11:12Z","tX":166,"tY":398,"tags":{"FMMP_modified":"no","FMMP_reviewed":"no","addr:city":"Morgan Hill","addr:county":"Santa Clara","addr:housenumber":"15200","addr:postcode":"95037","addr:state":"CA","addr:street":"Monterey Road","attribution":"Farmland Mapping and Monitoring Program","description":"urban land","name":"Maple Leaf RV Park","source":"http://www.consrv.ca.gov/dlrp/fmmp/products/Pages/DownloadGISdata.aspx"}},"1819595594":{"location":[37.0764713,-121.5243776],"ct":"US","tp":"SD","ts":"2020-01-18T03:59:46Z","tX":166,"tY":398,"tags":{}},"5185383496":{"location":[37.136593,-121.4248742],"ct":"US","tp":"CS","ts":"2017-10-24T06:26:12Z","tX":166,"tY":398,"tags":{"name":"Coit Lake Horse Camp"}},"5575227915":{"location":[37.1366584,-121.4783379],"ct":"US","tp":"CS","ts":"2018-04-24T05:58:57Z","tX":166,"tY":398,"tags":{"name":"Coit Horse Camp"}},"9784171341":{"location":[37.1381727,-121.4286954],"ct":"US","tp":"CS","ts":"2022-05-30T23:12:32Z","tX":166,"tY":398,"tags":{"backcountry":"yes"}},"6701112487":{"location":[36.9938912,-121.3781845],"ct":"US","tp":"CR","ts":"2023-11-13T21:11:43Z","tX":166,"tY":398,"tags":{"addr:housenumber":"10031","addr:postcode":"95023","addr:street":"Pacheco Pass Highway","internet_access":"wlan","name":"CASA de FRUTA R.V. ORCHARD RESORT","website":"https://www.casadefruta.com/"}}}