{"27564394":{"location":[36.6921959,-121.2969122],"ct":"US","tp":"CS","ts":"2013-02-18T08:24:55Z","tX":166,"tY":399,"tags":{"addr:city":"Paicines","addr:housenumber":"16225","name":"Thousand Trails"}},"28102886":{"location":[36.8606687,-121.6114959],"ct":"US","tp":"CS","ts":"2010-10-13T16:56:03Z","tX":166,"tY":399,"tags":{"name":"Monterey Vacation RV Park"}},"28712076":{"location":[36.8398764,-121.5253232],"ct":"US","tp":"CS","ts":"2024-07-29T08:36:36Z","tX":166,"tY":399,"tags":{"addr:city":"San Juan Bautista","addr:housenumber":"400","addr:postcode":"95045","addr:state":"CA","addr:street":"San Juan Hollister Road","name":"Mission Farm Campground"}},"84728277":{"location":[36.7629393,-121.4065121],"ct":"US","tp":"CS","ts":"2010-11-10T09:11:42Z","tX":166,"tY":399,"tags":{"name":"Group Camp Area 5"}},"126154243":{"location":[36.8763849,-121.5659017],"ct":"US","tp":"CS","ts":"2011-08-15T01:10:31Z","tX":166,"tY":399,"tags":{"addr:city":"San Juan Bautista","addr:county":"San Benito County","addr:housenumber":"900","addr:postcode":"95045-9564","addr:street":"Anzar Rd","name":"McAlpine Lake & Park","sbc_apn":"0120400390","sbc_id":"1498","sbc_parcel":"012 040 039"}},"329258487":{"location":[36.7620409,-121.4950319],"ct":"US","tp":"CS","ts":"2015-02-20T08:24:54Z","tX":166,"tY":399,"tags":{"name":"Doe Flat Group Campground"}},"329258490":{"location":[36.7614317,-121.5023231],"ct":"US","tp":"CS","ts":"2015-06-18T13:47:26Z","tX":166,"tY":399,"tags":{"addr:county":"San Benito","addr:postcode":"95045","addr:state":"CA","addr:street":"San Juan Canyon Road","name":"Oakpoint Campground"}},"329258504":{"location":[36.7598854,-121.5042332],"ct":"US","tp":"CS","ts":"2015-06-18T13:47:26Z","tX":166,"tY":399,"tags":{"addr:county":"San Benito","addr:postcode":"95045","addr:state":"CA","addr:street":"San Juan Canyon Road","name":"Valley View Campground"}},"692907893":{"location":[36.7717188,-121.4198785],"ct":"US","tp":"CS","ts":"2021-09-20T02:28:13Z","tX":166,"tY":399,"tags":{"internet_access":"wlan","internet_access:fee":"no","name":"Radio Ridge","nudism":"no","operator":"Hollister Hills State Vehicular Recreation Area","reservation":"no","website":"https://ohv.parks.ca.gov/?page_id=25986"}},"984070839":{"location":[36.7699447,-121.4387785],"ct":"US","tp":"CS","ts":"2021-09-20T02:28:13Z","tX":166,"tY":399,"tags":{"internet_access":"wlan","internet_access:fee":"no","name":"Madrone Camp","nudism":"no","operator":"Hollister Hills State Vehicular Recreation Area","reservation":"no","website":"https://ohv.parks.ca.gov/?page_id=25986"}},"984070865":{"location":[36.773687,-121.4293571],"ct":"US","tp":"CS","ts":"2021-09-20T02:28:13Z","tX":166,"tY":399,"tags":{"caravans":"yes","internet_access":"wlan","internet_access:fee":"no","name":"Lodge Camp","nudism":"no","operator":"Hollister Hills State Vehicular Recreation Area","reservation":"no","tents":"yes","website":"https://ohv.parks.ca.gov/?page_id=25986"}},"984071254":{"location":[36.7713007,-121.4221587],"ct":"US","tp":"CS","ts":"2021-09-20T02:28:13Z","tX":166,"tY":399,"tags":{"internet_access":"wlan","internet_access:fee":"no","name":"Walnut Camp","nudism":"no","operator":"Hollister Hills State Vehicular Recreation Area","reservation":"no","website":"https://ohv.parks.ca.gov/?page_id=25986"}},"984071283":{"location":[36.773007,-121.4334202],"ct":"US","tp":"CS","ts":"2021-09-20T02:28:13Z","tX":166,"tY":399,"tags":{"internet_access":"wlan","internet_access:fee":"no","name":"Bee Camp","nudism":"no","operator":"Hollister Hills State Vehicular Recreation Area","reservation":"no","website":"https://ohv.parks.ca.gov/?page_id=25986"}},"989057373":{"location":[36.7528683,-121.401047],"ct":"US","tp":"CS","ts":"2010-11-14T18:47:11Z","tX":166,"tY":399,"tags":{"name":"Sycamore Camp"}},"11066519878":{"location":[36.7677817,-121.3987278],"ct":"US","tp":"CS","ts":"2023-07-25T08:54:39Z","tX":166,"tY":399,"tags":{"name":"Ohlone Camp"}},"11066718026":{"location":[36.7720251,-121.4007337],"ct":"US","tp":"CS","ts":"2023-07-25T10:26:40Z","tX":166,"tY":399,"tags":{"name":"Hudner Pass Camp"}}}