{"5668859":{"location":[-34.3928178,119.3910771],"ct":"AU","tp":"CR","ts":"2022-05-08T19:46:36Z","tX":851,"tY":616,"tags":{"addr:city":"Bremer Bay","addr:housenumber":"130","addr:postcode":"6338","addr:state":"WA","addr:street":"Bremer Bay Road","addr:suburb":"Bremer Bay","email":"bremercarapark1@westnet.com.au","name":"Bremer Bay Caravan & Camping Park","opening_hours":"Mo-Su 09:00-17:00","phone":"+61 8 9837 4018","power_supply":"yes","website":"https://bremerbaycaravanpark.com.au/"}},"380589236":{"location":[-34.4264271,119.3743381],"ct":"AU","tp":"CR","ts":"2022-03-23T21:39:16Z","tX":851,"tY":616,"tags":{"addr:city":"Bremer Bay","addr:housenumber":"333","addr:postcode":"6338","addr:state":"WA","addr:street":"Wellstead Road","addr:suburb":"Bremer Bay","area":"yes","cabins":"yes","email":"frontoffice@bremerbaybeaches.com.au","name":"Bremer Bay Beaches Resort Tourist Park","opening_hours":"Mo-Su 08:30-17:00","phone":"+61 8 9837 4290","power_supply":"yes","sanitary_dump_station":"yes","website":"https://bremerbaybeaches.com.au/","wheelchair":"yes"}},"5253876423":{"location":[-34.343347,119.2024578],"ct":"AU","tp":"CS","ts":"2017-11-29T12:04:47Z","tX":851,"tY":616,"tags":{"name":"Tozer's Bush Camp"}},"5527972597":{"location":[-34.3837413,119.4961131],"ct":"AU","tp":"CS","ts":"2018-04-04T13:03:54Z","tX":851,"tY":616,"tags":{"name":"Peppermint Grove"}},"6681179543":{"location":[-34.3657347,119.5245788],"ct":"AU","tp":"CS","ts":"2019-08-04T09:54:11Z","tX":851,"tY":616,"tags":{"name":"House Beach Camping"}}}