{"13902640":{"location":[48.8401984,-117.2867252],"ct":"US","tp":"CS","ts":"2022-03-07T23:04:45Z","tX":178,"tY":352,"tags":{"name":"West Sullivan Lake Campground"}},"13916212":{"location":[48.7542524,-117.4073892],"ct":"US","tp":"CS","ts":"2022-03-12T07:10:28Z","tX":178,"tY":352,"tags":{"name":"Edgewater Campground"}},"18434754":{"location":[48.7900647,-117.2827464],"ct":"US","tp":"CS","ts":"2025-05-27T07:26:13Z","tX":178,"tY":352,"tags":{"caravans":"yes","fee":"yes","name":"Noisy Creek Campground","operator":"Scenic Canyons Recreational Services","phone":"+1-435-245-6521","tents":"yes","website":"https://www.fs.usda.gov/recarea/colville/recreation/hiking/recarea/?recid=67946&actid=29"}},"18794325":{"location":[48.8400196,-117.2798565],"ct":"US","tp":"CS","ts":"2025-03-07T22:55:18Z","tX":178,"tY":352,"tags":{"name":"East Sullivan Campground"}},"19163865":{"location":[48.8546901,-117.2913777],"ct":"US","tp":"CS","ts":"2025-05-23T03:53:22Z","tX":178,"tY":352,"tags":{"camp_site":"standard","caravans":"yes","fee":"yes","name":"Mill Pond Campground","operator":"Scenic Canyons","tents":"yes","website":"https://www.fs.usda.gov/r06/colville/recreation/mill-pond-campground"}},"901367159":{"location":[48.7806235,-117.4185902],"ct":"US","tp":"CS","ts":"2021-01-28T21:26:07Z","tX":178,"tY":352,"tags":{"name":"Campbell Park"}},"1073206149":{"location":[48.8510509,-117.3931148],"ct":"US","tp":"CR","ts":"2022-06-24T21:49:31Z","tX":178,"tY":352,"tags":{"addr:city":"Metaline","addr:housenumber":"103","addr:street":"Metaline Street","name":"Mt Linton RV and Trailer Park"}},"1086802056":{"location":[48.8400463,-117.2798175],"ct":"US","tp":"CS","ts":"2024-11-11T09:43:35Z","tX":178,"tY":352,"tags":{"name":"East Sullivan Campground"}},"2689125064":{"location":[48.790584,-117.2823669],"ct":"US","tp":"CS","ts":"2024-11-24T09:39:18Z","tX":178,"tY":352,"tags":{"caravans":"yes","fee":"yes","name":"Noisy Creek Campground","operator":"Scenic Canyons Recreational Services","phone":"+1-435-245-6521","tents":"yes","website":"https://www.fs.usda.gov/recarea/colville/recreation/hiking/recarea/?recid=67946&actid=29"}},"2689125077":{"location":[48.8331094,-117.2457788],"ct":"US","tp":"CS","ts":"2025-05-28T06:59:46Z","tX":178,"tY":352,"tags":{"access":"yes","camp_site":"basic","fee":"no","name":"Sullivan Creek Campground 7","operator":"Colville National Forest","tents":"yes","website":"https://www.fs.usda.gov/r06/colville/recreation/sullivan-creek-dispersed-sites"}},"2689125086":{"location":[48.8366032,-117.2222782],"ct":"US","tp":"CS","ts":"2025-05-28T06:59:46Z","tX":178,"tY":352,"tags":{"access":"yes","camp_site":"basic","fee":"no","name":"Sullivan Creek Campground 12","operator":"Colville National Forest","website":"https://www.fs.usda.gov/r06/colville/recreation/sullivan-creek-dispersed-sites"}},"3466532833":{"location":[48.8544086,-117.2918176],"ct":"US","tp":"CS","ts":"2024-08-11T20:19:22Z","tX":178,"tY":352,"tags":{"caravans":"yes","check_date":"2024-08-04","fee":"yes","name":"Mill Pond Campground","operator":"Scenic Canyons","tents":"yes"}},"3466581553":{"location":[48.8387163,-117.2594083],"ct":"US","tp":"CS","ts":"2025-05-28T06:59:46Z","tX":178,"tY":352,"tags":{"access":"yes","camp_site":"basic","fee":"no","name":"Sullivan Creek Campground 4","operator":"Colville National Forest","tents":"yes","website":"https://www.fs.usda.gov/r06/colville/recreation/sullivan-creek-dispersed-sites"}},"6568738695":{"location":[48.7479403,-117.4156361],"ct":"US","tp":"CR","ts":"2024-09-03T02:00:34Z","tX":178,"tY":352,"tags":{"addr:city":"Ione","addr:housenumber":"4404","addr:postcode":"99139","addr:state":"WA","addr:street":"WA-31","name":"Cedar RV Park","phone":"+1-509-442-2144"}},"12646888004":{"location":[48.8335079,-117.2421095],"ct":"US","tp":"CS","ts":"2025-05-28T06:59:46Z","tX":178,"tY":352,"tags":{"access":"yes","camp_site":"basic","fee":"no","name":"Sullivan Creek Campground 8","operator":"Colville National Forest","tents":"yes","website":"https://www.fs.usda.gov/r06/colville/recreation/sullivan-creek-dispersed-sites"}},"12646888038":{"location":[48.8379948,-117.2611407],"ct":"US","tp":"CS","ts":"2025-05-28T06:59:46Z","tX":178,"tY":352,"tags":{"access":"yes","camp_site":"basic","fee":"no","name":"Sullivan Creek Campground 3","operator":"Colville National Forest","tents":"yes","website":"https://www.fs.usda.gov/r06/colville/recreation/sullivan-creek-dispersed-sites"}},"12646888049":{"location":[48.8337264,-117.2435219],"ct":"US","tp":"CS","ts":"2025-05-23T04:13:59Z","tX":178,"tY":352,"tags":{"access":"yes","camp_site":"standard","fee":"no","name":"Conto Gulch","operator":"Colville National Forest","tents":"yes","website":"https://www.fs.usda.gov/r06/colville/recreation/sullivan-creek-dispersed-sites"}},"12646888101":{"location":[48.8361175,-117.2277686],"ct":"US","tp":"CS","ts":"2025-05-28T06:59:46Z","tX":178,"tY":352,"tags":{"camp_site":"basic","caravans":"yes","fee":"no","name":"Johns Creek Campsite","operator":"Colville National Forest","tents":"yes","website":"https://www.fs.usda.gov/recarea/colville/recreation/recarea/?recid=67966"}},"12646888133":{"location":[48.8399649,-117.2124005],"ct":"US","tp":"CS","ts":"2025-05-28T06:59:46Z","tX":178,"tY":352,"tags":{"fee":"no","name":"Sullivan Creek Campground 13","operator":"Colville National Forest","tents":"yes","website":"https://www.fs.usda.gov/r06/colville/recreation/sullivan-creek-dispersed-sites"}},"12646888144":{"location":[48.8713882,-117.1437994],"ct":"US","tp":"CS","ts":"2025-05-28T06:59:46Z","tX":178,"tY":352,"tags":{"access":"yes","camp_site":"basic","fee":"no","name":"Sullivan Creek Campground 16","operator":"Colville National Forest","tents":"yes","website":"https://www.fs.usda.gov/r06/colville/recreation/sullivan-creek-dispersed-sites"}},"12646888153":{"location":[48.9005815,-117.0821673],"ct":"US","tp":"CS","ts":"2025-05-28T06:59:46Z","tX":178,"tY":352,"tags":{"access":"yes","camp_site":"basic","fee":"no","name":"Sullivan Creek Campground 18","operator":"Colville National Forest","tents":"yes","website":"https://www.fs.usda.gov/r06/colville/recreation/sullivan-creek-dispersed-sites"}},"12646888154":{"location":[48.9013493,-117.0826292],"ct":"US","tp":"CS","ts":"2025-05-23T04:13:59Z","tX":178,"tY":352,"tags":{"access":"yes","camp_site":"standard","fee":"no","name":"Gypsy Meadows Campsite","operator":"Colville National Forest","tents":"yes","website":"https://www.fs.usda.gov/r06/colville/recreation/sullivan-creek-dispersed-sites"}},"12856802123":{"location":[48.856324,-117.3194127],"ct":"US","tp":"CS","ts":"2025-05-23T04:19:10Z","tX":178,"tY":352,"tags":{"access":"yes","camp_site":"standard","fee":"no","name":"Moon Flats","operator":"Colville National Forest","website":"https://www.fs.usda.gov/r06/colville/recreation/sullivan-creek-dispersed-sites"}},"12870119175":{"location":[48.8352303,-117.2344182],"ct":"US","tp":"CS","ts":"2025-05-28T06:59:46Z","tX":178,"tY":352,"tags":{"access":"yes","camp_site":"basic","fee":"no","name":"Sullivan Creek Campground 10","operator":"Colville National Forest","tents":"yes","website":"https://www.fs.usda.gov/r06/colville/recreation/sullivan-creek-dispersed-sites"}},"12870119178":{"location":[48.8346517,-117.2341673],"ct":"US","tp":"CS","ts":"2025-05-28T06:59:46Z","tX":178,"tY":352,"tags":{"access":"yes","camp_site":"basic","fee":"no","name":"Sullivan Creek Campground 11","operator":"Colville National Forest","tents":"yes","website":"https://www.fs.usda.gov/r06/colville/recreation/sullivan-creek-dispersed-sites"}},"12870119181":{"location":[48.8900007,-117.095989],"ct":"US","tp":"CS","ts":"2025-05-28T06:59:46Z","tX":178,"tY":352,"tags":{"access":"yes","camp_site":"basic","fee":"no","name":"Sullivan Creek Campground 17","operator":"Colville National Forest","tents":"yes","website":"https://www.fs.usda.gov/r06/colville/recreation/sullivan-creek-dispersed-sites"}},"12870119269":{"location":[48.8471231,-117.1884686],"ct":"US","tp":"CS","ts":"2025-05-28T06:59:46Z","tX":178,"tY":352,"tags":{"access":"yes","camp_site":"basic","fee":"no","name":"Sullivan Creek Campground 15","operator":"Colville National Forest","tents":"yes","website":"https://www.fs.usda.gov/r06/colville/recreation/sullivan-creek-dispersed-sites"}},"12870119274":{"location":[48.8452927,-117.1907029],"ct":"US","tp":"CS","ts":"2025-05-28T06:59:46Z","tX":178,"tY":352,"tags":{"access":"yes","camp_site":"basic","fee":"no","name":"Sullivan Creek Campground 14","operator":"Colville National Forest","tents":"yes","website":"https://www.fs.usda.gov/r06/colville/recreation/sullivan-creek-dispersed-sites"}},"12870119289":{"location":[48.8351859,-117.2385017],"ct":"US","tp":"CS","ts":"2025-05-28T06:59:46Z","tX":178,"tY":352,"tags":{"access":"yes","camp_site":"basic","fee":"no","name":"Sullivan Creek Campground 9","operator":"Colville National Forest","tents":"yes","website":"https://www.fs.usda.gov/r06/colville/recreation/sullivan-creek-dispersed-sites"}},"12870119295":{"location":[48.8329159,-117.2496083],"ct":"US","tp":"CS","ts":"2025-05-28T06:59:46Z","tX":178,"tY":352,"tags":{"access":"yes","camp_site":"basic","fee":"no","name":"Sullivan Creek Campground 5","operator":"Colville National Forest","tents":"yes","website":"https://www.fs.usda.gov/r06/colville/recreation/sullivan-creek-dispersed-sites"}},"12870119301":{"location":[48.8368663,-117.2565717],"ct":"US","tp":"CS","ts":"2025-05-28T06:59:46Z","tX":178,"tY":352,"tags":{"access":"yes","camp_site":"basic","fee":"no","name":"Sullivan Creek Campground 4","operator":"Colville National Forest","tents":"yes","website":"https://www.fs.usda.gov/r06/colville/recreation/sullivan-creek-dispersed-sites"}},"12870119317":{"location":[48.8437602,-117.2777649],"ct":"US","tp":"CS","ts":"2025-05-28T06:59:46Z","tX":178,"tY":352,"tags":{"camp_site":"basic","fee":"no","name":"Sullivan Creek 1","operator":"Colville National Forest"}}}