{"419645270":{"location":[47.8697397,-117.4204921],"ct":"US","tp":"CR","ts":"2016-05-20T08:08:30Z","tX":178,"tY":356,"tags":{"addr:city":"Colbert","addr:housenumber":"23106","addr:postcode":"99005","addr:state":"WA","addr:street":"North Highway 395","fee":"yes","internet_access":"wlan","name":"Wild Rose RV Park","power_supply":"yes","tents":"no"}},"422129588":{"location":[47.91337,-117.1120718],"ct":"US","tp":"CS","ts":"2024-05-28T04:16:13Z","tX":178,"tY":356,"tags":{"capacity":"8","caravans":"no","drinking_water":"yes","name":"Bald Knob Campground","operator":"Mount Spokane State Park","power_supply":"no","sanitary_dump_station":"no","shower":"no","tents":"yes","toilets":"yes"}},"453474216":{"location":[47.7848512,-117.3556179],"ct":"US","tp":"CR","ts":"2024-09-03T02:00:34Z","tX":178,"tY":356,"tags":{"addr:city":"Mead","addr:housenumber":"14007","addr:postcode":"99201","addr:state":"WA","addr:street":"North Newport Highway","fee":"yes","internet_access":"wlan","internet_access:fee":"no","name":"Alderwood RV Express","operator":"Highway West Vacations","phone":"+1-888-847-0500","power_supply":"yes","sanitary_dump_station":"public","website":"https://highwaywestvacations.com/properties/alderwood"}},"610064481":{"location":[47.7566597,-117.3939768],"ct":"US","tp":"CR","ts":"2024-08-05T00:38:38Z","tX":178,"tY":356,"tags":{"name":"North Spokane RV Park"}},"6038669633":{"location":[47.7713769,-117.0813967],"ct":"US","tp":"CR","ts":"2018-11-05T08:10:48Z","tX":178,"tY":356,"tags":{"name":"Newman Lake Marina and Resort"}}}