{"33069557":{"location":[33.0201543,-117.2836169],"ct":"US","tp":"CR","ts":"2017-01-28T03:41:29Z","tX":178,"tY":412,"tags":{"name":"San Elijo SP Campground","operator":"State of California"}},"461760959":{"location":[33.1019528,-117.3189156],"ct":"US","tp":"CS","ts":"2024-02-25T04:44:02Z","tX":178,"tY":412,"tags":{"caravans":"yes","drinking_water":"yes","name":"South Carlsbad State Beach Campground","sanitary_dump_station":"yes","shower":"yes","tents":"yes","toilets":"yes"}},"571044542":{"location":[32.9774421,-117.255084],"ct":"US","tp":"CR","ts":"2022-06-03T03:31:21Z","tX":178,"tY":412,"tags":{"addr:city":"Del Mar","addr:housenumber":"15555","addr:postcode":"92014","addr:state":"CA","addr:street":"Jimmy Durante Boulevard","capacity":"70","fee":"yes","name":"Surf and Turf RV Park","power_supply":"yes","sanitary_dump_station":"yes","website":"http://www.surfandturfrvpark.com/"}},"1118590273":{"location":[33.127078,-117.1941333],"ct":"US","tp":"CR","ts":"2022-12-11T09:17:50Z","tX":178,"tY":412,"tags":{}},"5275798526":{"location":[33.0212438,-117.2841606],"ct":"US","tp":"CS","ts":"2017-12-10T18:27:19Z","tX":178,"tY":412,"tags":{"addr:housenumber":"2050","addr:street":"South California Hwy 101","name":"San Elijo State Beach","website":"http://www.parks.ca.gov/?page_id=662"}},"4572247647":{"location":[33.1062039,-117.3206822],"ct":"US","tp":"SD","ts":"2016-12-25T23:38:01Z","tX":178,"tY":412,"tags":{}},"4572247648":{"location":[33.1062353,-117.3208337],"ct":"US","tp":"SD","ts":"2016-12-25T23:38:01Z","tX":178,"tY":412,"tags":{}},"4624291756":{"location":[33.0198787,-117.283573],"ct":"US","tp":"SD","ts":"2024-09-10T20:58:33Z","tX":178,"tY":412,"tags":{"access":"customers","charge":"10 USD","fee":"yes","sanitary_dump_station:round_drain":"yes"}},"4626827730":{"location":[33.0199143,-117.2835967],"ct":"US","tp":"SD","ts":"2024-09-10T20:58:33Z","tX":178,"tY":412,"tags":{"access":"customers","charge":"10 USD","fee":"yes","sanitary_dump_station:round_drain":"yes"}}}