{"189605665":{"location":[-17.5538181,133.5431849],"ct":"AU","tp":"CR","ts":"2012-11-07T22:21:04Z","tX":891,"tY":562,"tags":{"name":"Elliott Caravan Park","tents":"yes"}},"189605666":{"location":[-17.5563278,133.5477519],"ct":"AU","tp":"CR","ts":"2012-11-07T22:21:05Z","tX":891,"tY":562,"tags":{"name":"Midland Caravan Park","tents":"yes"}},"1811183699":{"location":[-17.61611,133.47389],"ct":"AU","tp":"CS","ts":"2012-07-03T12:02:52Z","tX":891,"tY":562,"tags":{"name":"Longreach Waterhole"}},"1811186737":{"location":[-17.5563825,133.5476841],"ct":"AU","tp":"CS","ts":"2025-03-06T06:59:05Z","tX":891,"tY":562,"tags":{"addr:country":"AU","addr:housenumber":"102","addr:postcode":"0862","addr:street":"Stuart Highway","addr:suburb":"Elliott","name":"Midland Caravan Park","operator":"Wayne McLean","phone":"+61 8 8969 2025","source":"http://www.dob.nt.gov.au/business/Documents/business-directory/elliott-business-directory.pdf"}},"1811190497":{"location":[-17.3753254,133.4396721],"ct":"AU","tp":"CS","ts":"2012-11-07T22:27:09Z","tX":891,"tY":562,"tags":{"name":"Newcastle Waters Rest Area"}},"7886431586":{"location":[-17.3992779,133.4541912],"ct":"AU","tp":"CS","ts":"2020-09-08T07:58:02Z","tX":891,"tY":562,"tags":{"name":"Free Camping","name:es":"Camping Gratuito"}}}