{"535412644":{"location":[50.3230331,87.4904583],"ct":"RU","tp":"CS","ts":"2022-08-10T11:30:56Z","tX":760,"tY":345,"tags":{"name":"Кочевник","phone":"+7-903-990-69-01","resort":"tourist_camp","website":"http://eco-kochevnik.ru"}},"632082988":{"location":[50.318008,87.5351431],"ct":"RU","tp":"CS","ts":"2022-08-10T10:14:26Z","tX":760,"tY":345,"tags":{"barrier":"fence","name":"Айу Бай","phone":"+7-913-996-75-44"}},"632083345":{"location":[50.3135066,87.5016735],"ct":"RU","tp":"CS","ts":"2022-08-10T11:08:20Z","tX":760,"tY":345,"tags":{"barrier":"fence","name":"Тоолос","phone":"+7-913-992-78-09","residential":"rural"}},"873292285":{"location":[50.3236541,87.5019397],"ct":"RU","tp":"CS","ts":"2022-08-10T11:08:20Z","tX":760,"tY":345,"tags":{"barrier":"fence","phone":"+7-913-697-81-85","residential":"rural"}},"873302092":{"location":[50.3239704,87.4914034],"ct":"RU","tp":"CS","ts":"2023-12-17T05:58:05Z","tX":760,"tY":345,"tags":{"barrier":"fence","name":"Шавло","phone":"+7-913-699-81-07","resort":"tourist_camp"}},"918547869":{"location":[50.3521019,87.373211],"ct":"RU","tp":"CS","ts":"2022-08-10T11:41:34Z","tX":760,"tY":345,"tags":{"access":"yes","cabins":"yes","capacity":"40","fee":"yes","name":"Сартакпай","phone":"+7-913-695-66-27","website":"sartakpai.ru"}},"1075078046":{"location":[50.3210921,87.5228187],"ct":"RU","tp":"CS","ts":"2022-08-10T10:14:26Z","tX":760,"tY":345,"tags":{"barrier":"fence","name":"Кара-Суу","phone":"+7-963-510-00-17"}},"1085302259":{"location":[50.3196183,87.5284242],"ct":"RU","tp":"CS","ts":"2022-08-10T10:14:26Z","tX":760,"tY":345,"tags":{"barrier":"fence","name":"Заречная","phone":"+7-950-330-11-59"}},"1085302260":{"location":[50.3195576,87.5217764],"ct":"RU","tp":"CS","ts":"2022-08-10T10:14:26Z","tX":760,"tY":345,"tags":{"barrier":"fence","name":"Облепиха","phone":"+7-913-990-46-56"}},"1085318644":{"location":[50.3207885,87.5060756],"ct":"RU","tp":"CS","ts":"2022-08-10T11:08:20Z","tX":760,"tY":345,"tags":{"barrier":"fence","name":"Одычак","phone":"+7-983-581-76-10"}},"1085318649":{"location":[50.3139592,87.5070376],"ct":"RU","tp":"CS","ts":"2022-08-10T11:08:20Z","tX":760,"tY":345,"tags":{"barrier":"fence","name":"Орой","phone":"+7-913-692-17-87"}},"1085318651":{"location":[50.3220564,87.4986646],"ct":"RU","tp":"CS","ts":"2022-08-10T11:08:20Z","tX":760,"tY":345,"tags":{"barrier":"fence","name":"Ёлка","phone":"+7-913-698-37-90"}},"1085318655":{"location":[50.3317584,87.48385],"ct":"RU","tp":"CS","ts":"2022-08-10T11:08:20Z","tX":760,"tY":345,"tags":{"name":"Сардыма","phone":"+7-913-990-02-96"}},"1085318656":{"location":[50.3294845,87.4803811],"ct":"RU","tp":"CS","ts":"2022-08-10T11:08:20Z","tX":760,"tY":345,"tags":{"barrier":"fence","name":"Берлога","phone":"+7-913-996-26-87"}},"1085318657":{"location":[50.3273342,87.4760753],"ct":"RU","tp":"CS","ts":"2022-08-10T11:08:20Z","tX":760,"tY":345,"tags":{"addr:housenumber":"781 км, 3","addr:street":"«Чуйский тракт»","barrier":"fence","name":"Чуя","phone":"89139924243"}},"1085323968":{"location":[50.3411235,87.4468944],"ct":"RU","tp":"CS","ts":"2022-08-10T11:30:56Z","tX":760,"tY":345,"tags":{"addr:housenumber":"778км","addr:postcode":"649744","addr:street":"«Чуйский тракт»","name":"Легенда","name:en":"Legenda Guest House","opening_hours":"24/7","phone":"+79039929929"}},"1085323973":{"location":[50.3399785,87.4496573],"ct":"RU","tp":"CS","ts":"2022-08-10T11:30:56Z","tX":760,"tY":345,"tags":{"name":"Каракабак","phone":"+7-983-580-10-91"}},"1085323975":{"location":[50.34091,87.4440419],"ct":"RU","tp":"CS","ts":"2022-08-10T11:30:56Z","tX":760,"tY":345,"tags":{"barrier":"fence","name":"Altay Kabay","phone":"+7-983-329-90-00"}},"1085323976":{"location":[50.3418093,87.4410553],"ct":"RU","tp":"CS","ts":"2022-08-10T11:30:56Z","tX":760,"tY":345,"tags":{"name":"Бельгибаш","phone":"8-913-697-52-64"}},"1085323977":{"location":[50.3437173,87.4391804],"ct":"RU","tp":"CS","ts":"2022-08-10T11:30:56Z","tX":760,"tY":345,"tags":{"barrier":"fence","name":"Кайа","phone":"+7-913-994-24-19"}},"1085323978":{"location":[50.3434614,87.447466],"ct":"RU","tp":"CS","ts":"2022-08-10T11:30:56Z","tX":760,"tY":345,"tags":{"barrier":"fence","name":"Долина Эже-Туру","phone":"+7-983-329-91-61"}},"1085323980":{"location":[50.3477094,87.4534981],"ct":"RU","tp":"CS","ts":"2022-08-10T11:30:56Z","tX":760,"tY":345,"tags":{"barrier":"fence","name":"Горная речка","phone":"+7-983-581-19-01"}},"1085323982":{"location":[50.3464538,87.4164014],"ct":"RU","tp":"CS","ts":"2022-08-10T11:30:56Z","tX":760,"tY":345,"tags":{"barrier":"fence","name":"Чуйский берег","phone":"+7-963-511-88-95"}},"1085326041":{"location":[50.3519747,87.3744638],"ct":"RU","tp":"CS","ts":"2022-08-10T11:41:34Z","tX":760,"tY":345,"tags":{"barrier":"fence","name":"Алтай-Бака","phone":"+7-913-996-88-96"}},"1085326042":{"location":[50.3642625,87.2952648],"ct":"RU","tp":"CS","ts":"2022-08-10T11:41:34Z","tX":760,"tY":345,"tags":{"name":"Jap-Балык","phone":"+7-983-326-62-89"}},"1085629228":{"location":[50.3068412,87.501288],"ct":"RU","tp":"CS","ts":"2024-09-01T14:48:28Z","tX":760,"tY":345,"tags":{"access":"customers","name":"Чибитская поляна","phone":"+7-913-696-41-36","tents":"yes"}},"1317585553":{"location":[50.3466767,87.4769463],"ct":"RU","tp":"CS","ts":"2024-09-23T13:08:39Z","tX":760,"tY":345,"tags":{"access":"customers","fee":"yes","name":"Тайгала","payment:cash":"yes","payment:credit_cards":"yes","payment:debit_cards":"yes"}},"4386626626":{"location":[50.3599258,87.3302226],"ct":"RU","tp":"CS","ts":"2018-12-24T00:09:08Z","tX":760,"tY":345,"tags":{"name":"Буревестник","name:fr":"Bourevestnik"}},"4416216110":{"location":[50.3549676,87.2354005],"ct":"RU","tp":"CS","ts":"2018-12-24T00:09:08Z","tX":760,"tY":345,"tags":{"fee":"no","name":"Айгулак","name:fr":"Aïgoulak"}},"6777231105":{"location":[50.3418595,87.3960048],"ct":"RU","tp":"CS","ts":"2019-09-06T14:16:11Z","tX":760,"tY":345,"tags":{"drinking_water":"yes"}},"8921955721":{"location":[50.341381,87.4338721],"ct":"RU","tp":"CS","ts":"2021-07-15T09:24:46Z","tX":760,"tY":345,"tags":{"name":"Турбаза \"Бельгибаш \""}},"11005339605":{"location":[50.3288152,87.470376],"ct":"RU","tp":"CS","ts":"2023-06-25T06:32:48Z","tX":760,"tY":345,"tags":{"phone":"+7 913 991 21 09;+7 983 327 75 49"}},"11099455805":{"location":[50.3574007,87.3515456],"ct":"RU","tp":"CS","ts":"2023-08-08T13:56:57Z","tX":760,"tY":345,"tags":{"name":"Бесплатное место для палатки"}},"12149904803":{"location":[50.3093258,87.5048088],"ct":"RU","tp":"CS","ts":"2024-09-01T14:48:28Z","tX":760,"tY":345,"tags":{"access":"yes","capacity:tents":"5","caravans":"no","description":"Место под несколько палаток перед платным кемпингом.","fee":"no","static_caravans":"no","tents":"yes"}},"8008009587":{"location":[50.3280352,87.4858114],"ct":"RU","tp":"CR","ts":"2020-10-14T23:28:39Z","tX":760,"tY":345,"tags":{"name":"Можно встать с палаткой"}}}