{"56210410":{"location":[44.729811,-79.7239244],"ct":"CA","tp":"CS","ts":"2023-08-26T15:54:50Z","tX":285,"tY":369,"tags":{"access":"customers","addr:city":"Waubaushene","addr:housenumber":"1927","addr:postcode":"L0K 2C0","addr:street":"Rosemount Road","email":"info@bellfalls.com","name":"Bell Falls Family Campground","phone":"+1-705-538-2898","source":"CanVec_Import_2009","tents":"yes","website":"https://bellfalls.com/"}},"59446468":{"location":[44.8062352,-79.7325975],"ct":"CA","tp":"CS","ts":"2010-05-17T05:13:15Z","tX":285,"tY":369,"tags":{"attribution":"Natural Resources Canada","canvec:CODE":"2480012","canvec:UUID":"f7d8ea60c4c04e54bfcfc3618ac152b1","source":"CanVec_Import_2009","tents":"yes"}},"197717137":{"location":[44.6013768,-79.7911345],"ct":"CA","tp":"CS","ts":"2012-12-22T23:14:41Z","tX":285,"tY":369,"tags":{"source":"Bing"}},"344302259":{"location":[44.5998347,-79.4922187],"ct":"CA","tp":"CS","ts":"2019-09-03T03:02:44Z","tX":285,"tY":369,"tags":{"addr:city":"Township of Oro-Medonte","addr:housenumber":"2540","addr:postcode":"L3V 6H2","addr:street":"Bass Lake Sideroad East","note":"Group Campsite","operator":"Bass Lake Provincial Park"}},"344304542":{"location":[44.6003856,-79.491226],"ct":"CA","tp":"CS","ts":"2019-09-03T03:02:44Z","tX":285,"tY":369,"tags":{"addr:city":"Township of Oro-Medonte","addr:housenumber":"2540","addr:postcode":"L3V 6H2","addr:street":"Bass Lake Sideroad East","note":"Group Camp Site","operator":"Bass Lake Provincial Park"}},"846702183":{"location":[44.6029922,-79.4844913],"ct":"CA","tp":"CS","ts":"2024-04-10T02:10:52Z","tX":285,"tY":369,"tags":{"name":"Bass Lake Campground","website":"https://www.ontarioparks.com/park/basslake"}}}