{"331022584":{"location":[-35.9685325,149.740204],"ct":"AU","tp":"CS","ts":"2016-01-03T12:27:57Z","tX":937,"tY":621,"tags":{"landuse":"grass","surface":"grass"}},"331022586":{"location":[-35.9691749,149.7408558],"ct":"AU","tp":"CS","ts":"2016-01-03T12:27:57Z","tX":937,"tY":621,"tags":{"landuse":"grass","surface":"grass"}},"331022587":{"location":[-35.9580675,149.7479165],"ct":"AU","tp":"CS","ts":"2016-01-03T12:27:57Z","tX":937,"tY":621,"tags":{"landuse":"grass","surface":"grass"}},"331022588":{"location":[-35.9660094,149.7407872],"ct":"AU","tp":"CS","ts":"2016-01-03T12:27:57Z","tX":937,"tY":621,"tags":{"landuse":"grass","surface":"grass"}},"331022589":{"location":[-35.9389003,149.7459791],"ct":"AU","tp":"CS","ts":"2016-01-03T12:27:56Z","tX":937,"tY":621,"tags":{"landuse":"grass","surface":"grass"}},"331022590":{"location":[-35.9430343,149.7490272],"ct":"AU","tp":"CS","ts":"2016-01-03T12:27:56Z","tX":937,"tY":621,"tags":{"landuse":"grass","surface":"grass"}},"331022591":{"location":[-35.954115,149.7447854],"ct":"AU","tp":"CS","ts":"2016-01-03T12:27:56Z","tX":937,"tY":621,"tags":{"landuse":"grass","surface":"grass"}},"331022592":{"location":[-35.9614285,149.7443642],"ct":"AU","tp":"CS","ts":"2016-01-03T12:27:57Z","tX":937,"tY":621,"tags":{"landuse":"grass","surface":"grass"}},"331022593":{"location":[-35.9499735,149.7445589],"ct":"AU","tp":"CS","ts":"2016-01-03T12:27:56Z","tX":937,"tY":621,"tags":{"landuse":"grass","surface":"grass"}},"331022594":{"location":[-35.945056,149.7437184],"ct":"AU","tp":"CS","ts":"2016-01-03T12:27:55Z","tX":937,"tY":621,"tags":{"landuse":"grass","surface":"grass"}},"331022595":{"location":[-35.9668609,149.7442676],"ct":"AU","tp":"CS","ts":"2016-01-03T12:27:57Z","tX":937,"tY":621,"tags":{"landuse":"grass","surface":"grass"}},"331022596":{"location":[-35.9524842,149.7476204],"ct":"AU","tp":"CS","ts":"2016-01-03T12:27:56Z","tX":937,"tY":621,"tags":{"landuse":"grass","surface":"grass"}},"331022597":{"location":[-35.9712398,149.7478346],"ct":"AU","tp":"CS","ts":"2016-01-03T12:27:58Z","tX":937,"tY":621,"tags":{"landuse":"grass","surface":"grass"}},"331022598":{"location":[-35.9576824,149.7460917],"ct":"AU","tp":"CS","ts":"2016-01-03T12:27:57Z","tX":937,"tY":621,"tags":{"landuse":"grass","surface":"grass"}},"389364743":{"location":[-35.9442238,149.7353315],"ct":"AU","tp":"CS","ts":"2016-01-03T12:27:53Z","tX":937,"tY":621,"tags":{"landuse":"grass","surface":"grass"}},"395065624":{"location":[-35.7948318,149.6830769],"ct":"AU","tp":"CS","ts":"2025-03-03T10:18:05Z","tX":937,"tY":621,"tags":{"addr:country":"AU","addr:postcode":"2622","addr:street":"Wyanbene Road","addr:suburb":"Wyanbene","alt_name":"Wyanbene Caves Camping Area","caravans":"yes","contact:phone":"+61 2 4476 2888","fee":"no","name":"Wyanbene Caves","tents":"yes"}}}