{"2915338164":{"location":[46.2202747,-86.4373798],"ct":"US","tp":"CS","ts":"2014-06-14T02:31:58Z","tX":266,"tY":363,"tags":{"gnis:feature_id":"1622666","name":"Colwell Lake Campground"}},"2915338168":{"location":[46.1548497,-86.4047714],"ct":"US","tp":"CS","ts":"2014-06-14T02:31:58Z","tX":266,"tY":363,"tags":{"gnis:feature_id":"1622630","name":"Indian River Campground"}},"2915338171":{"location":[46.1631172,-86.4504374],"ct":"US","tp":"CS","ts":"2014-06-14T02:31:59Z","tX":266,"tY":363,"tags":{"gnis:feature_id":"1622363","name":"Little Bass Lake Campground"}},"7779184515":{"location":[46.1519195,-86.3938204],"ct":"US","tp":"CS","ts":"2020-08-02T19:41:33Z","tX":266,"tY":363,"tags":{"addr:city":"Manistique","addr:housenumber":"5350N","addr:postcode":"49854","addr:state":"MI","addr:street":"M 94","name":"Jack Pine Lodge Campground","website":"https://www.jackpinelodgeup.com/"}},"9970682602":{"location":[46.1680919,-86.4815185],"ct":"US","tp":"CS","ts":"2023-01-31T00:45:35Z","tX":266,"tY":363,"tags":{"capacity":"1","name":"Bass Lake Campsite","website":"https://www.fs.usda.gov/recarea/hiawatha/recarea/?recid=13296"}}}