{"893378714":{"location":[44.2944814,-86.1348949],"ct":"US","tp":"CS","ts":"2021-01-08T16:07:07Z","tX":266,"tY":371,"tags":{}},"893378715":{"location":[44.2835717,-86.1607291],"ct":"US","tp":"CR","ts":"2023-10-27T22:27:42Z","tX":266,"tY":371,"tags":{"addr:city":"Manistee","addr:housenumber":"2680","addr:postcode":"49660","addr:street":"Bialik Road","gnis:feature_id":"2499830","name":"Matson's Big Manistee River Campground","tents":"yes","website":"https://www.matsonscampground.com/"}},"893378716":{"location":[44.2712703,-86.2008116],"ct":"US","tp":"CR","ts":"2023-10-27T22:29:59Z","tX":266,"tY":371,"tags":{"addr:city":"Manistee","addr:housenumber":"5025","addr:postcode":"49660","addr:state":"MI","addr:street":"River Road","gnis:feature_id":"2499831","name":"Coho Bend Campground","phone":"+1-231-723-7321","website":"https://cohobend.com/"}},"893378722":{"location":[44.2840184,-86.2499232],"ct":"US","tp":"CR","ts":"2021-01-08T16:07:07Z","tX":266,"tY":371,"tags":{"name":"Little River Casino Resort RV Park"}},"894581619":{"location":[44.28217,-86.3157559],"ct":"US","tp":"CS","ts":"2024-12-07T07:27:08Z","tX":266,"tY":371,"tags":{"addr:city":"Manistee","addr:housenumber":"2064","addr:postcode":"49660","addr:state":"MI","addr:street":"Lakeshore Road","capacity":"166","fee":"yes","gnis:feature_id":"2499290","name":"Orchard Beach-Modern","phone":"+1-231-723-7422","tents":"yes","website":"https://www2.dnr.state.mi.us/parksandtrails/details.aspx?id=480&type=SPRK"}},"937478930":{"location":[44.1150017,-86.425243],"ct":"US","tp":"CS","ts":"2021-05-01T02:54:23Z","tX":266,"tY":371,"tags":{"operator":"American Land and Leisure","owner":"U.S. Forest Service"}},"944483626":{"location":[44.2255955,-86.161357],"ct":"US","tp":"CR","ts":"2021-05-19T02:13:21Z","tX":266,"tY":371,"tags":{"capacity":"21","name":"Marzinski Horse Campground","operator":"Visit Huron-Manistee National Forest","reservation":"no"}},"994105809":{"location":[44.2654788,-86.3087819],"ct":"US","tp":"CR","ts":"2023-10-27T22:31:13Z","tX":266,"tY":371,"tags":{"addr:city":"Manistee","addr:housenumber":"20","addr:postcode":"49660","addr:state":"MI","addr:street":"Park Avenue","gnis:feature_id":"2499838","name":"Insta Launch Campground & Marina","phone":"+1-231-723-3901","tents":"yes","website":"https://www.instalaunch.com/"}},"994106057":{"location":[44.2517677,-86.2975828],"ct":"US","tp":"CS","ts":"2021-10-20T01:53:52Z","tX":266,"tY":371,"tags":{"capacity":"37","name":"Penny Park Campground"}},"2932072176":{"location":[44.2732339,-86.2014509],"ct":"US","tp":"CR","ts":"2023-10-27T22:30:12Z","tX":266,"tY":371,"tags":{"addr:city":"Manistee","addr:housenumber":"5025","addr:postcode":"49660","addr:state":"MI","addr:street":"River Road","gnis:feature_id":"2499831","name":"Coho Bend Campground","phone":"+1-231-723-7321","website":"https://cohobend.com/"}},"2932072190":{"location":[44.2834403,-86.1601459],"ct":"US","tp":"CR","ts":"2023-10-27T22:28:56Z","tX":266,"tY":371,"tags":{"addr:city":"Manistee","addr:housenumber":"2680","addr:postcode":"49660","addr:street":"Bialik Road","gnis:feature_id":"2499830","name":"Matson's Big Manistee River Campground","tents":"yes","website":"https://www.matsonscampground.com/"}},"9210255653":{"location":[44.2842608,-86.3141277],"ct":"US","tp":"SD","ts":"2021-10-29T15:14:44Z","tX":266,"tY":371,"tags":{}}}