{"158082970":{"location":[43.9527193,-86.4107846],"ct":"US","tp":"CR","ts":"2023-10-27T22:28:49Z","tX":266,"tY":372,"tags":{"addr:city":"Ludington","addr:housenumber":"5335","addr:postcode":"49431","addr:state":"MI","addr:street":"West Wallace Lane","backcountry":"no","bbq":"yes","cabins":"yes","capacity:caravans":"363","caravans":"yes","dog":"leashed","drinking_water":"yes","email":"poncho@poncho.com","gnis:feature_id":"2514540","hot_water":"yes","laundry_service":"fee","motor_vehicle":"yes","name":"Poncho's Pond","nudism":"no","openfire":"yes","phone":"+1-888-308-6602","picnic_table":"yes","power_supply":"yes","reservation":"yes","sanitary_dump_station":"customers","shower":"hot","swimming_pool":"yes","tents":"no","toilets":"yes","website":"https://www.poncho.com/"}},"220502072":{"location":[44.0666129,-86.3842889],"ct":"US","tp":"CR","ts":"2020-12-08T21:39:54Z","tX":266,"tY":372,"tags":{"addr:city":"Ludington","addr:housenumber":"6181","addr:postcode":"49431","addr:state":"MI","addr:street":"North Peterson Road","cabins":"no","gnis:feature_id":"2514539","name":"Lakeview Campsite","phone":"+1-231-843-3702","tents":"yes","website":"http://www.lakeviewcampsite.com"}},"909207908":{"location":[43.934694,-86.4508356],"ct":"US","tp":"CS","ts":"2024-06-26T21:51:09Z","tX":266,"tY":372,"tags":{"name":"Buttersville Campground","opening_hours":"May 15 - Oct 15","phone":"+1-231-843-2114","website":"https://www.pmtwp.org/residents/recreational_parks.php"}},"909209158":{"location":[43.9528727,-86.4013925],"ct":"US","tp":"CR","ts":"2023-10-27T22:29:11Z","tX":266,"tY":372,"tags":{"addr:city":"Ludington","addr:housenumber":"4895","addr:postcode":"49431","addr:state":"MI","addr:street":"West US-10","area":"yes","gnis:feature_id":"2514519","name":"Vacation Station RV Resort","phone":"+1-231-845-1100","website":"https://www.vacationstationrvpark.com/"}},"988074082":{"location":[43.9759602,-86.4568577],"ct":"US","tp":"CS","ts":"2023-10-14T21:10:38Z","tX":266,"tY":372,"tags":{"addr:city":"Ludington","addr:housenumber":"1254","addr:postcode":"49431","addr:state":"MI","addr:street":"North Lakeshore Drive","caravans":"yes","drinking_water":"yes","gnis:feature_id":"2514541","name":"Cartier Park Campground","operator":"City of Ludington","phone":"+1-231-845-1522","power_supply":"yes","shower":"yes","tents":"yes","toilets":"yes","website":"https://www.ludington.mi.us/374/Cartier-Park-Campground"}},"988080827":{"location":[44.076685,-86.28157],"ct":"US","tp":"CS","ts":"2021-12-26T22:28:28Z","tX":266,"tY":372,"tags":{"addr:city":"Free Soil","addr:housenumber":"6700","addr:postcode":"49411","addr:state":"MI","addr:street":"US-31","name":"Farm View Resort","phone":"+1-231-757-9447","website":"https://farmviewresort.com/"}},"995958699":{"location":[43.908097,-86.4286604],"ct":"US","tp":"CR","ts":"2025-04-11T18:48:16Z","tX":266,"tY":372,"tags":{"addr:city":"Ludington","addr:housenumber":"5906","addr:postcode":"49431","addr:state":"MI","addr:street":"West Chauvez Road","gnis:feature_id":"2514526","name":"Mason County Campground","phone":"+1-231-845-7609","toilets":"yes","website":"https://www.masoncounty.net/departments/parks-recreation/campground.html"}},"995959429":{"location":[43.8581435,-86.4013449],"ct":"US","tp":"CR","ts":"2021-10-23T23:13:56Z","tX":266,"tY":372,"tags":{"addr:city":"Ludington","addr:housenumber":"4900","addr:postcode":"49431","addr:state":"MI","addr:street":"West Deren Road","gnis:feature_id":"2514241","name":"Kibby Creek Campground","phone":"+1-800-574-3995","website":"http://www.kibbycreek.com/"}},"996881060":{"location":[43.8421581,-86.148202],"ct":"US","tp":"CS","ts":"2022-02-23T00:50:35Z","tX":266,"tY":372,"tags":{"addr:city":"Custer","addr:housenumber":"5080","addr:postcode":"49405","addr:state":"MI","addr:street":"Sippy Road","name":"Whiskey Creek Campground","phone":"+1-231-898-2030","website":"http://www.whiskeycreekcamp.com/"}},"1005600471":{"location":[43.9442179,-86.2808131],"ct":"US","tp":"CS","ts":"2021-12-26T22:28:54Z","tX":266,"tY":372,"tags":{"addr:city":"Scottville","addr:housenumber":"701","addr:state":"MI","addr:street":"South Scottville Road","capacity":"41","email":"henryslanding@yahoo.com","name":"Henry's Landing Campground","phone":"+1-231-757-0101","website":"http://www.henryslanding.com/"}},"1005600492":{"location":[43.9429155,-86.2766125],"ct":"US","tp":"CS","ts":"2025-04-15T14:25:08Z","tX":266,"tY":372,"tags":{"access":"yes","capacity:caravans":"55","capacity:tents":"5","caravans":"yes","name":"Riverside Park Campground","phone":"+1-231-757-2429","tents":"yes","website":"https://cityofscottville.org/riverside-park/"}},"1377871079":{"location":[43.9104673,-86.1573039],"ct":"US","tp":"CS","ts":"2025-04-15T18:35:13Z","tX":266,"tY":372,"tags":{"access":"yes","camp_site":"basic","drinking_water":"no","name":"Whelan Lake Area Primitive Campground","operator":"United States Forest Service","website":"https://www.fs.usda.gov/recarea/hmnf/recarea/?recid=18794"}},"2933398136":{"location":[43.9797969,-86.3263985],"ct":"US","tp":"CR","ts":"2023-10-27T22:26:35Z","tX":266,"tY":372,"tags":{"addr:city":"Scottville","addr:housenumber":"1884","addr:postcode":"49454","addr:state":"MI","addr:street":"West Hansen Road","gnis:feature_id":"2514584","name":"Crystal Lake Campground","phone":"+1-231-757-4510","website":"https://crystallakecamping.com/"}},"4368256292":{"location":[44.0034062,-86.4819965],"ct":"US","tp":"SD","ts":"2023-09-17T23:12:26Z","tX":266,"tY":372,"tags":{}},"6808163632":{"location":[44.0670491,-86.3845459],"ct":"US","tp":"SD","ts":"2019-09-19T14:14:37Z","tX":266,"tY":372,"tags":{}},"9196557010":{"location":[43.9076726,-86.4265971],"ct":"US","tp":"SD","ts":"2021-10-23T23:04:53Z","tX":266,"tY":372,"tags":{}}}