{"17414397":{"location":[43.6720777,-86.4775934],"ct":"US","tp":"CR","ts":"2024-04-01T18:32:02Z","tX":266,"tY":373,"tags":{"addr:city":"Mears","addr:housenumber":"1441","addr:postcode":"49436","addr:state":"MI","addr:street":"North 34th Avenue","gnis:feature_id":"2515824","name":"Silver Creek RV Resort","phone":"+1-231-873-9200"}},"610942697":{"location":[43.6934835,-86.4835559],"ct":"US","tp":"CS","ts":"2024-04-01T18:32:02Z","tX":266,"tY":373,"tags":{"name":"Dunes Harbor Family Camp","operator":"Grace Adventures"}},"995959763":{"location":[43.8293998,-86.4222248],"ct":"US","tp":"CR","ts":"2021-10-23T23:19:46Z","tX":266,"tY":373,"tags":{"addr:city":"Pentwater","addr:housenumber":"7070","addr:postcode":"49449","addr:state":"MI","addr:street":"South Lakeshore Drive","gnis:feature_id":"2514242","name":"Whispering Surf Camping Resort","phone":"+1-231-869-5050","tents":"yes","website":"http://www.whisperingsurfcamping.com/"}},"995960822":{"location":[43.8069462,-86.4211641],"ct":"US","tp":"CR","ts":"2023-10-27T22:26:23Z","tX":266,"tY":373,"tags":{"addr:city":"Pentwater","addr:housenumber":"8915","addr:postcode":"49449","addr:state":"MI","addr:street":"North Business 31","gnis:feature_id":"2515792","name":"Hill & Hollow Campground & RV Park","phone":"+1-231-869-5811","tents":"yes","website":"https://www.hillandhollowcampground.com/"}},"995962057":{"location":[43.7060345,-86.3585146],"ct":"US","tp":"CR","ts":"2023-10-27T22:28:59Z","tX":266,"tY":373,"tags":{"addr:state":"MI","name":"John Gurney Park Campground","phone":"+1-231-873-4959","tents":"yes","website":"https://www.johngurneypark.com/"}},"1097956416":{"location":[43.7476614,-86.1431472],"ct":"US","tp":"CS","ts":"2023-02-04T17:45:17Z","tX":266,"tY":373,"tags":{"addr:city":"Walkerville","addr:housenumber":"5733","addr:postcode":"49459","addr:state":"MI","addr:street":"N 168th Ave","capacity:caravans":"50","fee":"yes","name":"Enchanted Pebawma Lake Campground","phone":"+1-616-206-0923","website":"http://enchantedpebawmacampground.com/"}},"1268201752":{"location":[43.676991,-86.470634],"ct":"US","tp":"CR","ts":"2024-04-01T18:32:02Z","tX":266,"tY":373,"tags":{"addr:city":"Silver Lake","addr:housenumber":"1786","addr:postcode":"49436","addr:state":"MI","addr:street":"North 34th Avenue","gnis:feature_id":"2515825","name":"Silver Lake Resort & Campground","phone":"+1-231-873-7199","website":"https://www.silverlakerc.com/"}},"1268201778":{"location":[43.6658843,-86.4836358],"ct":"US","tp":"CR","ts":"2024-04-01T18:32:02Z","tX":266,"tY":373,"tags":{"addr:city":"Silver Lake","addr:housenumber":"8239","addr:postcode":"49436","addr:state":"MI","addr:street":"West Hazel Road","description":"Formerly Silver Lake Jellystone","name":"Dune Town Camp Resort","phone":"+1-231-873-4502","tents":"yes","website":"https://www.dunetown.com/"}},"1298146532":{"location":[43.7522717,-86.4536169],"ct":"US","tp":"CS","ts":"2024-07-01T15:52:55Z","tX":266,"tY":373,"tags":{"access":"yes","addr:city":"Pentwater","addr:housenumber":"5807","addr:postcode":"49449","addr:state":"MI","addr:street":"Ridge Road","name":"Lake Michigan Family Campground","operator":"Methodist Church"}},"2933398146":{"location":[43.783911,-86.4382255],"ct":"US","tp":"CR","ts":"2014-06-25T20:29:36Z","tX":266,"tY":373,"tags":{"gnis:feature_id":"2515817","name":"Mears-Modern"}}}