{"18818011":{"location":[43.4565906,-86.2653447],"ct":"US","tp":"CR","ts":"2025-03-13T15:00:54Z","tX":266,"tY":374,"tags":{"addr:city":"Montague","addr:housenumber":"735","addr:postcode":"49437","addr:state":"MI","addr:street":"West Fruitvale Road","gnis:feature_id":"2571934","name":"White River Campground","phone":"+1-231-894-4708","website":"https://whiterivercampground.com/"}},"958515153":{"location":[43.4156118,-86.3538511],"ct":"US","tp":"CS","ts":"2022-03-30T22:36:04Z","tX":266,"tY":374,"tags":{"addr:city":"Montague","addr:housenumber":"4540","addr:postcode":"49437","addr:state":"MI","addr:street":"Dowling Street","name":"Trailway Campground"}},"995962463":{"location":[43.511637,-86.3734564],"ct":"US","tp":"CS","ts":"2021-10-23T23:50:48Z","tX":266,"tY":374,"tags":{"name":"Lucky Lake Campground","website":"https://www.luckylakecampground.com/index.php"}},"995962850":{"location":[43.4162573,-86.3529733],"ct":"US","tp":"CR","ts":"2021-10-23T23:55:25Z","tX":266,"tY":374,"tags":{"addr:city":"Montague","addr:housenumber":"4540","addr:postcode":"49437","addr:state":"MI","addr:street":"Dowling Street","gnis:feature_id":"2571938","name":"Trailway Campground","phone":"+1-231-894-4903","website":"http://www.trailwaycampground.com/"}},"995963071":{"location":[43.3377212,-86.2691744],"ct":"US","tp":"CR","ts":"2023-10-29T01:31:22Z","tX":266,"tY":374,"tags":{"addr:city":"Muskegon","addr:housenumber":"1155","addr:postcode":"49445","addr:state":"MI","addr:street":"West Riley-Thompson Road","name":"Duck Creek RV Resort","phone":"+1-231-766-3646","tents":"no","website":"https://duckcreekrvresort.com/"}},"1074587335":{"location":[43.4604824,-86.4507233],"ct":"US","tp":"CR","ts":"2022-08-31T20:05:23Z","tX":266,"tY":374,"tags":{"addr:city":"Montague","addr:housenumber":"8390","addr:postcode":"49437","addr:street":"Meinert Park Road","gnis:feature_id":"2571933","name":"Meinert County Park Pines Campground"}},"1079886464":{"location":[43.5176777,-86.3604084],"ct":"US","tp":"CS","ts":"2022-07-20T00:14:10Z","tX":266,"tY":374,"tags":{"group_only":"yes","name":"Electric Forest Back 40"}},"1082096572":{"location":[43.4351845,-86.1906598],"ct":"US","tp":"CS","ts":"2022-07-28T13:57:39Z","tX":266,"tY":374,"tags":{"access":"private","name":"Mayo Lake"}},"1086301956":{"location":[43.4142658,-86.227756],"ct":"US","tp":"CS","ts":"2022-09-18T20:12:18Z","tX":266,"tY":374,"tags":{"access":"customers","addr:city":"Twin Lake","addr:housenumber":"9900","addr:postcode":"49457","addr:state":"MI","addr:street":"Russell Road","name":"Camp Reneker","operator":"Owasippe Scout Reservation"}},"1086301957":{"location":[43.4353952,-86.2387911],"ct":"US","tp":"CS","ts":"2022-08-14T22:59:01Z","tX":266,"tY":374,"tags":{"access":"customers","addr:city":"Twin Lake","addr:housenumber":"9900","addr:postcode":"49457","addr:state":"MI","addr:street":"Russell Road","name":"Gray Staff Village","operator":"Owasippe Scout Reservation"}},"1086301958":{"location":[43.4504133,-86.211719],"ct":"US","tp":"CS","ts":"2024-06-19T01:14:55Z","tX":266,"tY":374,"tags":{"access":"customers","addr:city":"Twin Lake","addr:housenumber":"9900","addr:postcode":"49457","addr:state":"MI","addr:street":"Russell Road","name":"Camp Blackhawk","operator":"Owasippe Scout Reservation"}},"1086301959":{"location":[43.4330448,-86.2264023],"ct":"US","tp":"CS","ts":"2023-02-20T03:33:39Z","tX":266,"tY":374,"tags":{"access":"customers","addr:city":"Twin Lake","addr:housenumber":"9900","addr:postcode":"49457","addr:state":"MI","addr:street":"Russell Road","name":"Camp Wolverine","operator":"Owasippe Scout Reservation"}},"1086301961":{"location":[43.4336011,-86.2101431],"ct":"US","tp":"CS","ts":"2023-01-24T17:16:13Z","tX":266,"tY":374,"tags":{"access":"customers","addr:city":"Twin Lake","addr:housenumber":"9900","addr:postcode":"49457","addr:state":"MI","addr:street":"Russell Road","name":"Camp Carlen","operator":"Owasippe Scout Reservation"}},"1086301962":{"location":[43.4375087,-86.2075301],"ct":"US","tp":"CS","ts":"2023-05-10T15:27:17Z","tX":266,"tY":374,"tags":{"access":"customers","addr:city":"Twin Lake","addr:housenumber":"9900","addr:postcode":"49457","addr:state":"MI","addr:street":"Russell Road","name":"Camp Crown","operator":"Owasippe Scout Reservation"}},"1086539425":{"location":[43.436928,-86.2328863],"ct":"US","tp":"CS","ts":"2022-08-16T21:28:58Z","tX":266,"tY":374,"tags":{"group_only":"yes","name":"'Tent City' Cabins - High Adventure Staff","operator":"Owasippe Scout Reservation"}},"1095741468":{"location":[43.4550182,-86.2168954],"ct":"US","tp":"CS","ts":"2022-09-18T21:43:49Z","tX":266,"tY":374,"tags":{"group_only":"yes","name":"Site 19"}},"1095741469":{"location":[43.4547402,-86.2186426],"ct":"US","tp":"CS","ts":"2022-09-18T21:43:49Z","tX":266,"tY":374,"tags":{"group_only":"yes","name":"Site 18"}},"1095741470":{"location":[43.4531505,-86.2185929],"ct":"US","tp":"CS","ts":"2022-09-18T21:43:49Z","tX":266,"tY":374,"tags":{"group_only":"yes","name":"Site 21"}},"1095741471":{"location":[43.4530983,-86.217384],"ct":"US","tp":"CS","ts":"2022-09-18T21:43:49Z","tX":266,"tY":374,"tags":{"group_only":"yes","name":"Site 17"}},"1095741472":{"location":[43.4536464,-86.2159114],"ct":"US","tp":"CS","ts":"2022-09-18T21:43:49Z","tX":266,"tY":374,"tags":{"group_only":"yes","name":"Site 16"}},"1095741475":{"location":[43.4543087,-86.2147078],"ct":"US","tp":"CS","ts":"2022-09-18T21:43:49Z","tX":266,"tY":374,"tags":{"group_only":"yes","name":"Site 20"}},"1095760870":{"location":[43.4478742,-86.2103816],"ct":"US","tp":"CS","ts":"2022-09-18T23:37:57Z","tX":266,"tY":374,"tags":{"group_only":"yes","name":"Site 9"}},"1095760873":{"location":[43.448247,-86.2112247],"ct":"US","tp":"CS","ts":"2022-09-18T23:37:57Z","tX":266,"tY":374,"tags":{"group_only":"yes","name":"Site 10"}},"1095760874":{"location":[43.4483541,-86.2118208],"ct":"US","tp":"CS","ts":"2022-09-18T23:37:57Z","tX":266,"tY":374,"tags":{"group_only":"yes","name":"Site 11"}},"1095760875":{"location":[43.448728,-86.2128221],"ct":"US","tp":"CS","ts":"2022-09-18T23:37:57Z","tX":266,"tY":374,"tags":{"group_only":"yes","name":"Site 12"}},"1095760876":{"location":[43.4488237,-86.2134727],"ct":"US","tp":"CS","ts":"2022-09-18T23:37:57Z","tX":266,"tY":374,"tags":{"group_only":"yes","name":"Site 13"}},"1095760882":{"location":[43.4491158,-86.2113024],"ct":"US","tp":"CS","ts":"2022-09-18T23:37:57Z","tX":266,"tY":374,"tags":{"group_only":"yes","name":"Site 15"}},"1095760889":{"location":[43.4492794,-86.2118252],"ct":"US","tp":"CS","ts":"2022-09-18T23:37:57Z","tX":266,"tY":374,"tags":{"group_only":"yes","name":"Site 14"}},"1095763770":{"location":[43.4492152,-86.205086],"ct":"US","tp":"CS","ts":"2022-09-19T00:10:50Z","tX":266,"tY":374,"tags":{"group_only":"yes","name":"Site 8"}},"1095763771":{"location":[43.4494146,-86.206024],"ct":"US","tp":"CS","ts":"2022-09-19T00:10:50Z","tX":266,"tY":374,"tags":{"group_only":"yes","name":"Site 7"}},"1095763773":{"location":[43.4499775,-86.2064328],"ct":"US","tp":"CS","ts":"2022-09-19T00:10:50Z","tX":266,"tY":374,"tags":{"group_only":"yes","name":"Site 6"}},"1095763775":{"location":[43.4503293,-86.207083],"ct":"US","tp":"CS","ts":"2022-09-19T00:10:50Z","tX":266,"tY":374,"tags":{"group_only":"yes","name":"Site 5"}},"1095763782":{"location":[43.4503593,-86.2088406],"ct":"US","tp":"CS","ts":"2022-09-19T00:10:50Z","tX":266,"tY":374,"tags":{"group_only":"yes","name":"Site 4"}},"1095763785":{"location":[43.4497592,-86.2089312],"ct":"US","tp":"CS","ts":"2022-09-19T00:10:50Z","tX":266,"tY":374,"tags":{"group_only":"yes","name":"Site 3"}},"1095763793":{"location":[43.4495588,-86.2078152],"ct":"US","tp":"CS","ts":"2022-09-19T00:10:50Z","tX":266,"tY":374,"tags":{"group_only":"yes","name":"Site 2"}},"1095763796":{"location":[43.4491099,-86.2070561],"ct":"US","tp":"CS","ts":"2022-09-19T00:10:50Z","tX":266,"tY":374,"tags":{"group_only":"yes","name":"Site 1"}},"1136583886":{"location":[43.4494761,-86.1936946],"ct":"US","tp":"CS","ts":"2024-02-20T19:15:06Z","tX":266,"tY":374,"tags":{"access":"yes","addr:city":"Holton","addr:housenumber":"10701","addr:postcode":"49425","addr:state":"MI","addr:street":"Nichols Road","capacity:caravans":"25","charge":"34 USD","fee":"yes","name":"Blue Lake Park Campground","operator":"Muskegon County"}},"1147782801":{"location":[43.4346639,-86.2232388],"ct":"US","tp":"CS","ts":"2023-02-20T02:01:55Z","tX":266,"tY":374,"tags":{"group_only":"yes","name":"Site 4"}},"1147782805":{"location":[43.4336555,-86.2233301],"ct":"US","tp":"CS","ts":"2023-02-20T02:01:55Z","tX":266,"tY":374,"tags":{"group_only":"yes","name":"Site 3"}},"1147782808":{"location":[43.4325762,-86.2227627],"ct":"US","tp":"CS","ts":"2023-02-20T02:01:55Z","tX":266,"tY":374,"tags":{"group_only":"yes","name":"Site 2"}},"1147782809":{"location":[43.4322928,-86.2215257],"ct":"US","tp":"CS","ts":"2023-02-20T02:01:55Z","tX":266,"tY":374,"tags":{"group_only":"yes","name":"Site 1"}},"1147782813":{"location":[43.4315544,-86.2215673],"ct":"US","tp":"CS","ts":"2023-02-20T03:33:39Z","tX":266,"tY":374,"tags":{"group_only":"yes","name":"Site 25"}},"1147782814":{"location":[43.4315264,-86.2221623],"ct":"US","tp":"CS","ts":"2023-02-20T03:33:39Z","tX":266,"tY":374,"tags":{"group_only":"yes","name":"Site 24"}},"1147782815":{"location":[43.4300801,-86.222153],"ct":"US","tp":"CS","ts":"2023-02-20T03:33:39Z","tX":266,"tY":374,"tags":{"group_only":"yes","name":"Site 23"}},"1147791109":{"location":[43.4292286,-86.2226898],"ct":"US","tp":"CS","ts":"2023-02-20T02:37:08Z","tX":266,"tY":374,"tags":{"group_only":"yes","name":"Site 21"}},"1147791112":{"location":[43.4312475,-86.226372],"ct":"US","tp":"CS","ts":"2023-02-20T02:37:08Z","tX":266,"tY":374,"tags":{"group_only":"yes","name":"Site 19"}},"1147791114":{"location":[43.4319112,-86.2283345],"ct":"US","tp":"CS","ts":"2023-02-20T02:37:08Z","tX":266,"tY":374,"tags":{"group_only":"yes","name":"Site 17"}},"1147791115":{"location":[43.431157,-86.228951],"ct":"US","tp":"CS","ts":"2023-02-20T02:37:08Z","tX":266,"tY":374,"tags":{"group_only":"yes","name":"Site 18"}},"1147791117":{"location":[43.4338918,-86.2251696],"ct":"US","tp":"CS","ts":"2023-02-20T02:37:08Z","tX":266,"tY":374,"tags":{"group_only":"yes","name":"Site 16"}},"1147791119":{"location":[43.4343866,-86.2263109],"ct":"US","tp":"CS","ts":"2023-02-20T02:37:08Z","tX":266,"tY":374,"tags":{"group_only":"yes","name":"Site 15"}},"1147791121":{"location":[43.4350395,-86.2252612],"ct":"US","tp":"CS","ts":"2023-02-20T02:37:08Z","tX":266,"tY":374,"tags":{"group_only":"yes","name":"Site 14"}},"1147791122":{"location":[43.4345945,-86.2277303],"ct":"US","tp":"CS","ts":"2023-02-20T02:37:08Z","tX":266,"tY":374,"tags":{"group_only":"yes","name":"Site 13"}},"1147791123":{"location":[43.4349479,-86.2283183],"ct":"US","tp":"CS","ts":"2023-02-20T03:33:39Z","tX":266,"tY":374,"tags":{"group_only":"yes","name":"Site 12"}},"1147791127":{"location":[43.4374862,-86.2287203],"ct":"US","tp":"CS","ts":"2023-02-20T03:27:48Z","tX":266,"tY":374,"tags":{"group_only":"yes","name":"Site 11"}},"1147791128":{"location":[43.4380134,-86.2260344],"ct":"US","tp":"CS","ts":"2023-02-20T03:33:39Z","tX":266,"tY":374,"tags":{"group_only":"yes","name":"Site 9"}},"1147791129":{"location":[43.4376014,-86.226826],"ct":"US","tp":"CS","ts":"2023-02-20T03:33:39Z","tX":266,"tY":374,"tags":{"group_only":"yes","name":"Site 10"}},"1147791130":{"location":[43.4378939,-86.2246822],"ct":"US","tp":"CS","ts":"2023-02-20T02:37:08Z","tX":266,"tY":374,"tags":{"group_only":"yes","name":"Site 7"}},"1147791131":{"location":[43.4367487,-86.225661],"ct":"US","tp":"CS","ts":"2023-02-20T03:33:39Z","tX":266,"tY":374,"tags":{"group_only":"yes","name":"Site 8"}},"1147791137":{"location":[43.4357217,-86.2212354],"ct":"US","tp":"CS","ts":"2023-02-20T02:37:08Z","tX":266,"tY":374,"tags":{"group_only":"yes","name":"Site 5"}},"1147791138":{"location":[43.4365912,-86.2210484],"ct":"US","tp":"CS","ts":"2023-02-20T03:33:39Z","tX":266,"tY":374,"tags":{"group_only":"yes","name":"Site 6"}},"1193576414":{"location":[43.3499578,-86.2438614],"ct":"US","tp":"CS","ts":"2023-10-29T01:28:26Z","tX":266,"tY":374,"tags":{"addr:city":"Twin Lake","addr:housenumber":"5281","addr:postcode":"49457","addr:street":"Russell Road","gnis:feature_id":"2106603","name":"Camp Lor-Ray","website":"https://camplor-ray.org/"}},"1197068918":{"location":[43.4744031,-86.2119191],"ct":"US","tp":"CS","ts":"2023-08-11T13:36:30Z","tX":266,"tY":374,"tags":{"access":"yes","capacity:tents":"2","name":"Diamond Point Campground","operator":"United States Forest Service","tents":"yes","website":"https://www.fs.usda.gov/recarea/hmnf/recarea/?recid=18660"}},"1341513342":{"location":[43.4442039,-86.184519],"ct":"US","tp":"CS","ts":"2022-09-24T17:44:41Z","tX":266,"tY":374,"tags":{"name":"Pegasus"}},"1341513349":{"location":[43.441792,-86.18669],"ct":"US","tp":"CS","ts":"2022-09-24T17:44:41Z","tX":266,"tY":374,"tags":{"name":"Sagittarius"}},"1341513357":{"location":[43.4427816,-86.1831233],"ct":"US","tp":"CS","ts":"2022-09-24T17:44:41Z","tX":266,"tY":374,"tags":{"name":"Leo"}},"1341513377":{"location":[43.4438839,-86.186837],"ct":"US","tp":"CS","ts":"2022-09-24T17:44:41Z","tX":266,"tY":374,"tags":{"name":"Aquila"}},"1341513428":{"location":[43.4399252,-86.192485],"ct":"US","tp":"CS","ts":"2022-09-24T17:44:41Z","tX":266,"tY":374,"tags":{"name":"Ojibwa"}},"1341513463":{"location":[43.4438839,-86.1903629],"ct":"US","tp":"CS","ts":"2022-09-24T17:44:41Z","tX":266,"tY":374,"tags":{"name":"Apache"}},"1341513623":{"location":[43.4426394,-86.1864125],"ct":"US","tp":"CS","ts":"2022-09-24T17:44:41Z","tX":266,"tY":374,"tags":{"name":"Gemini"}},"1341513648":{"location":[43.4410808,-86.1903792],"ct":"US","tp":"CS","ts":"2022-09-24T17:44:41Z","tX":266,"tY":374,"tags":{"name":"Illinois"}},"1341513685":{"location":[43.4423313,-86.1884449],"ct":"US","tp":"CS","ts":"2022-09-24T17:44:41Z","tX":266,"tY":374,"tags":{"name":"Pottawatomi"}},"1341513712":{"location":[43.4408853,-86.1941011],"ct":"US","tp":"CS","ts":"2022-09-24T17:44:41Z","tX":266,"tY":374,"tags":{"name":"Kiowa"}},"1341513848":{"location":[43.4419638,-86.1851964],"ct":"US","tp":"CS","ts":"2022-09-24T17:44:41Z","tX":266,"tY":374,"tags":{"name":"Orion"}},"1341513887":{"location":[43.4436468,-86.1825928],"ct":"US","tp":"CS","ts":"2022-09-24T17:44:41Z","tX":266,"tY":374,"tags":{"name":"Delphinius"}},"1341513897":{"location":[43.4416023,-86.1893753],"ct":"US","tp":"CS","ts":"2022-09-24T17:44:41Z","tX":266,"tY":374,"tags":{"name":"Ottawa"}},"1341513906":{"location":[43.4426098,-86.189963],"ct":"US","tp":"CS","ts":"2022-09-24T17:44:41Z","tX":266,"tY":374,"tags":{"name":"Comanche"}},"1341513933":{"location":[43.4431965,-86.1883714],"ct":"US","tp":"CS","ts":"2022-09-24T17:44:41Z","tX":266,"tY":374,"tags":{"name":"Dakota"}},"1367025269":{"location":[43.4639658,-86.2050437],"ct":"US","tp":"CR","ts":"2025-03-13T15:20:56Z","tX":266,"tY":374,"tags":{"addr:city":"Montague","addr:housenumber":"1522","addr:postcode":"49437","addr:state":"MI","addr:street":"East Fruitvale Road","gnis:feature_id":"2106615","name":"Oak Knoll Family Campground","phone":"+1-231-894-6063","tents":"yes","website":"http://www.oakknollfamilycampground.com/"}},"1408160382":{"location":[43.4455519,-86.1944193],"ct":"US","tp":"CS","ts":"2022-09-24T17:51:17Z","tX":266,"tY":374,"tags":{"name":"Schanerville"}},"1408160402":{"location":[43.4453769,-86.1989683],"ct":"US","tp":"CS","ts":"2022-09-24T17:51:17Z","tX":266,"tY":374,"tags":{"name":"Lower Tent Village"}},"1408160403":{"location":[43.4452436,-86.1974418],"ct":"US","tp":"CS","ts":"2023-08-28T22:24:01Z","tX":266,"tY":374,"tags":{"name":"Upper Tent Village"}},"1762305828":{"location":[43.4814507,-86.1687338],"ct":"US","tp":"CS","ts":"2012-05-22T16:41:38Z","tX":266,"tY":374,"tags":{}},"2933398155":{"location":[43.4655343,-86.2034731],"ct":"US","tp":"CR","ts":"2020-12-08T05:24:17Z","tX":266,"tY":374,"tags":{"addr:city":"Montague","addr:housenumber":"1522","addr:postcode":"49437","addr:state":"MI","addr:street":"East Fruitvale Road","gnis:feature_id":"2106615","name":"Oak Knoll Family Campground","phone":"+1-231-894-6063","tents":"yes","website":"http://www.oakknollfamilycampground.com/"}},"2933398166":{"location":[43.5551412,-86.478684],"ct":"US","tp":"CR","ts":"2023-08-06T20:40:47Z","tX":266,"tY":374,"tags":{"addr:city":"New Era","addr:housenumber":"8079","addr:postcode":"49446","addr:state":"MI","addr:street":"West Stoney Lake Road","cabins":"yes","fee":"yes","gnis:feature_id":"2515815","internet_access":"yes","name":"Stony Haven Campground & Cabins","phone":"+1-231-861-5201","sanitary_dump_station":"yes","tents":"yes","website":"http://www.campingfriend.com/StonyHavenCampground/"}},"2933398172":{"location":[43.4592871,-86.2635915],"ct":"US","tp":"CR","ts":"2020-12-08T05:23:14Z","tX":266,"tY":374,"tags":{"addr:city":"Montague","addr:housenumber":"735","addr:postcode":"49437","addr:state":"MI","addr:street":"West Fruitvale Road","gnis:feature_id":"2571934","name":"White River Campground","phone":"+1-231-894-4708","website":"https://whiterivercampground.com/"}},"3590220846":{"location":[43.5179094,-86.3758956],"ct":"US","tp":"CS","ts":"2022-06-21T17:19:21Z","tX":266,"tY":374,"tags":{"group_only":"yes","name":"Electric Forest General Admission Camping"}},"3590244936":{"location":[43.5211197,-86.3733364],"ct":"US","tp":"CS","ts":"2022-06-21T17:19:21Z","tX":266,"tY":374,"tags":{"group_only":"yes","name":"Electric Forest Maplewoods Camping"}},"8972504561":{"location":[43.4575281,-86.21931],"ct":"US","tp":"CS","ts":"2023-08-28T22:24:01Z","tX":266,"tY":374,"tags":{"access":"private","name":"Hiawatha Beach Lone Troop Site, Owasippe Scout Reservation","operator":"Owasippe Scout Reservation"}},"8978083097":{"location":[43.4431335,-86.2208446],"ct":"US","tp":"CS","ts":"2023-08-28T22:24:01Z","tX":266,"tY":374,"tags":{"access":"private","name":"Camp Frontier","operator":"Owasippe Scout Reservation"}},"8978083106":{"location":[43.4534829,-86.2430778],"ct":"US","tp":"CS","ts":"2023-08-28T22:24:01Z","tX":266,"tY":374,"tags":{"access":"private","name":"Dock 8","operator":"Owasippe Scout Reservation"}},"8978083113":{"location":[43.4193973,-86.2104189],"ct":"US","tp":"CS","ts":"2023-08-28T22:24:01Z","tX":266,"tY":374,"tags":{"access":"private","name":"Bass Lake Camp","operator":"Owasippe Scout Reservation"}},"9953633576":{"location":[43.4332133,-86.2468472],"ct":"US","tp":"CS","ts":"2023-08-28T22:24:01Z","tX":266,"tY":374,"tags":{"name":"Wrangler Outpost"}},"9953633577":{"location":[43.4145283,-86.2485287],"ct":"US","tp":"CS","ts":"2023-08-28T22:24:01Z","tX":266,"tY":374,"tags":{"name":"Badlands"}},"10034452462":{"location":[43.4472439,-86.2366333],"ct":"US","tp":"CS","ts":"2023-08-28T22:24:01Z","tX":266,"tY":374,"tags":{"name":"Old Canoe Base"}},"10042817415":{"location":[43.4055238,-86.2261339],"ct":"US","tp":"CS","ts":"2022-09-27T17:30:15Z","tX":266,"tY":374,"tags":{"access":"private","backcountry":"yes","name":"1994 OSR Trail Site","operator":"Owasippe Scout Reservation"}},"10042867854":{"location":[43.4041294,-86.1894385],"ct":"US","tp":"CS","ts":"2022-09-27T17:30:15Z","tX":266,"tY":374,"tags":{"access":"private","backcountry":"yes","name":"1994 OSR Trail Site","operator":"Owasippe Scout Reservation"}},"10043514459":{"location":[43.4174157,-86.144237],"ct":"US","tp":"CS","ts":"2022-09-27T17:30:15Z","tX":266,"tY":374,"tags":{"access":"private","backcountry":"yes","name":"1994 OSR Trail Site","operator":"Owasippe Scout Reservation"}},"10043514507":{"location":[43.4065122,-86.1448738],"ct":"US","tp":"CS","ts":"2022-09-27T17:30:15Z","tX":266,"tY":374,"tags":{"access":"private","backcountry":"yes","name":"1994 OSR Trail Site","operator":"Owasippe Scout Reservation"}},"10043514508":{"location":[43.408385,-86.1440519],"ct":"US","tp":"CS","ts":"2022-09-27T17:30:15Z","tX":266,"tY":374,"tags":{"access":"private","backcountry":"yes","name":"1994 OSR Trail Site","operator":"Owasippe Scout Reservation"}},"10043514640":{"location":[43.4333861,-86.1562441],"ct":"US","tp":"CS","ts":"2022-09-27T17:30:15Z","tX":266,"tY":374,"tags":{"access":"private","backcountry":"yes","name":"1994 OSR Trail Site","operator":"Owasippe Scout Reservation"}},"10043514658":{"location":[43.4628737,-86.1468779],"ct":"US","tp":"CS","ts":"2022-09-27T17:30:15Z","tX":266,"tY":374,"tags":{"access":"private","backcountry":"yes","name":"1994 OSR Trail Site - Lake Lebarge","operator":"Owasippe Scout Reservation"}},"10056713983":{"location":[43.4842134,-86.1415251],"ct":"US","tp":"CS","ts":"2022-09-27T17:30:15Z","tX":266,"tY":374,"tags":{"access":"private","backcountry":"yes","name":"1994 OSR Trail Site","operator":"Owasippe Scout Reservation"}},"10056715241":{"location":[43.4815053,-86.1745894],"ct":"US","tp":"CS","ts":"2022-09-27T17:30:15Z","tX":266,"tY":374,"tags":{"backcountry":"yes","name":"1994 OSR Trail Site"}},"10056715274":{"location":[43.4814073,-86.2029772],"ct":"US","tp":"CS","ts":"2022-09-27T17:30:15Z","tX":266,"tY":374,"tags":{"backcountry":"yes","name":"1994 OSR Trail Site - Poison Springs"}},"10056715275":{"location":[43.4774542,-86.1948597],"ct":"US","tp":"CS","ts":"2022-09-27T17:30:15Z","tX":266,"tY":374,"tags":{"backcountry":"yes","name":"1994 OSR Trail Site - Oil Well"}},"10056715276":{"location":[43.4851123,-86.1810738],"ct":"US","tp":"CS","ts":"2022-09-27T17:30:15Z","tX":266,"tY":374,"tags":{"backcountry":"yes","name":"1994 OSR Trail Site - Camp Splinter"}},"10056715277":{"location":[43.4812939,-86.1849904],"ct":"US","tp":"CS","ts":"2022-09-27T17:30:15Z","tX":266,"tY":374,"tags":{"backcountry":"yes","name":"1994 OSR Trail Site - Lloyd Island"}},"10056715338":{"location":[43.4833521,-86.2908619],"ct":"US","tp":"CS","ts":"2022-09-27T17:30:15Z","tX":266,"tY":374,"tags":{"backcountry":"yes","name":"1994 OSR Trail Site - High Banks"}},"10056715339":{"location":[43.4834959,-86.2890357],"ct":"US","tp":"CS","ts":"2022-09-27T17:30:15Z","tX":266,"tY":374,"tags":{"backcountry":"yes","name":"OSR 1994 Trail Site"}},"10056715340":{"location":[43.481236,-86.2480235],"ct":"US","tp":"CS","ts":"2022-09-27T17:30:15Z","tX":266,"tY":374,"tags":{"backcountry":"yes","name":"1994 OSR Trail Site"}},"10056715357":{"location":[43.4901525,-86.2566303],"ct":"US","tp":"CS","ts":"2022-09-27T17:30:15Z","tX":266,"tY":374,"tags":{"backcountry":"yes","name":"1994 OSR Trail Site"}},"9955788022":{"location":[43.4416656,-86.2274652],"ct":"US","tp":"CR","ts":"2022-08-15T21:54:32Z","tX":266,"tY":374,"tags":{}},"9979807336":{"location":[43.450179,-86.1936094],"ct":"US","tp":"SD","ts":"2022-08-26T12:39:29Z","tX":266,"tY":374,"tags":{}},"11094253380":{"location":[43.5543035,-86.4780344],"ct":"US","tp":"SD","ts":"2023-08-06T20:58:55Z","tX":266,"tY":374,"tags":{}}}