{"17597473":{"location":[43.3177201,-86.2266102],"ct":"US","tp":"CR","ts":"2024-05-15T15:59:28Z","tX":266,"tY":375,"tags":{"addr:city":"Muskegon","addr:housenumber":"3500","addr:postcode":"49445","addr:state":"MI","addr:street":"Strand Road","gnis:feature_id":"2571873","name":"Muskegon KOA Campground","phone":"+1-231-766-3900","tents":"yes","website":"https://koa.com/campgrounds/muskegon/"}},"355369646":{"location":[43.2843624,-86.3706366],"ct":"US","tp":"CS","ts":"2024-06-02T15:42:09Z","tX":266,"tY":375,"tags":{}},"404699810":{"location":[43.1377876,-86.2728003],"ct":"US","tp":"CS","ts":"2016-03-20T11:43:49Z","tX":266,"tY":375,"tags":{"name":"P.J. HoffmasterState ParkCampground"}},"964631930":{"location":[43.2451061,-86.2454281],"ct":"US","tp":"CR","ts":"2024-05-09T19:42:35Z","tX":266,"tY":375,"tags":{"addr:city":"Muskegon","addr:housenumber":"501","addr:postcode":"49442","addr:state":"MI","addr:street":"East Western Avenue","name":"Fisherman's Landing Campground","phone":"+1-231-726-6100","website":"https://muskegoncampground.com/"}},"1283318504":{"location":[43.3187718,-86.2339516],"ct":"US","tp":"CR","ts":"2024-05-15T15:59:28Z","tX":266,"tY":375,"tags":{"addr:city":"Muskegon","addr:housenumber":"390","addr:postcode":"49445","addr:state":"MI","addr:street":"East Tyler Road","gnis:feature_id":"2571874","name":"Lake Sch-Nepp-A-Ho Family Campground","phone":"+1-231-766-2209","tents":"yes","website":"https://www.michigan-campgrounds.com/"}},"2933398149":{"location":[43.2619637,-86.3570617],"ct":"US","tp":"CR","ts":"2024-06-06T15:45:32Z","tX":266,"tY":375,"tags":{"drinking_water":"yes","fee":"yes","internet_access":"no","name":"Muskegon-Lake Michigan","operator":"Michigan Department of Natural Resources","power_supply":"yes","sanitary_dump_station":"yes","tents":"yes","toilets":"yes","wheelchair":"yes"}},"2933398150":{"location":[43.234463,-86.3304806],"ct":"US","tp":"CR","ts":"2014-06-25T20:29:37Z","tX":266,"tY":375,"tags":{"gnis:feature_id":"2571769","name":"Muskegon-South Channel","tents":"yes"}},"2936088148":{"location":[43.1195011,-86.2060372],"ct":"US","tp":"CR","ts":"2014-06-27T21:26:31Z","tX":266,"tY":375,"tags":{"gnis:feature_id":"2571762","name":"Lake Fran Campground","website":"http://lakefran.com/"}},"3609906129":{"location":[43.2839625,-86.3711632],"ct":"US","tp":"SD","ts":"2015-06-21T23:31:31Z","tX":266,"tY":375,"tags":{}},"4069703077":{"location":[43.1251288,-86.2617222],"ct":"US","tp":"CS","ts":"2018-08-16T00:54:47Z","tX":266,"tY":375,"tags":{"name":"Organization Campground"}},"4069716800":{"location":[43.1375841,-86.2706164],"ct":"US","tp":"SD","ts":"2016-03-20T11:43:46Z","tX":266,"tY":375,"tags":{}}}