{"259284424":{"location":[42.4064939,-86.2102087],"ct":"US","tp":"CR","ts":"2014-09-30T18:44:59Z","tX":266,"tY":378,"tags":{"name":"Sunny Brook RV Resort"}},"259284426":{"location":[42.4060181,-86.1667461],"ct":"US","tp":"CR","ts":"2022-06-18T23:05:18Z","tX":266,"tY":378,"tags":{"addr:city":"South Haven","addr:housenumber":"3403","addr:postcode":"49090","addr:state":"MI","addr:street":"64th Street","gnis:feature_id":"2574637","internet_access":"wlan","name":"South Haven Jellystone Park","old_name":"South Haven Family Campground","phone":"+1-269-637-6153","tents":"yes","website":"https://www.southhavenjellystone.com/"}},"274257652":{"location":[42.4278859,-86.256939],"ct":"US","tp":"CR","ts":"2020-12-07T05:54:10Z","tX":266,"tY":378,"tags":{"addr:city":"South Haven","addr:housenumber":"7317","addr:postcode":"49090","addr:state":"MI","addr:street":"North Shore Drive","name":"Cousin's RV Park","phone":"+1-269-637-1499","website":"http://www.cousinssouthhaven.com/"}},"1184224277":{"location":[42.4189952,-86.2454683],"ct":"US","tp":"CS","ts":"2023-06-22T13:39:50Z","tX":266,"tY":378,"tags":{"access":"yes","capacity:tents":"2","name":"Eagle Point Campground","operator":"Michigan Department of Natural Resources","tents":"yes"}},"1238307897":{"location":[42.411875,-86.2601451],"ct":"US","tp":"CR","ts":"2024-01-09T12:55:42Z","tX":266,"tY":378,"tags":{"addr:city":"South Haven","addr:housenumber":"1073","addr:postcode":"49090","addr:state":"MI","addr:street":"East Wells Street","name":"Kal-Haven RV Park and Campground","phone":"+1-616-498-1063","website":"https://kal-havenrvpark.jimdofree.com/"}},"1339265512":{"location":[42.3296684,-86.3037501],"ct":"US","tp":"CR","ts":"2024-12-01T17:08:52Z","tX":266,"tY":378,"tags":{"fee":"yes","tents":"yes"}},"1863883329":{"location":[42.2995797,-86.3258917],"ct":"US","tp":"CS","ts":"2016-10-31T22:10:00Z","tX":266,"tY":378,"tags":{"caravans":"yes","name":"Covert Park Beach and Campground","tents":"yes"}},"2790213789":{"location":[42.4255118,-86.2619708],"ct":"US","tp":"CR","ts":"2020-12-07T05:56:48Z","tX":266,"tY":378,"tags":{"addr:city":"South Haven","addr:housenumber":"7366","addr:postcode":"49090","addr:state":"MI","addr:street":"North Shore Drive","gnis:feature_id":"2574633","name":"Jensen's RV Park & Motel","phone":"+1-269-637-3544","website":"https://www.jensensrvpark.com/"}},"2936296395":{"location":[42.5494927,-86.192275],"ct":"US","tp":"CR","ts":"2020-12-07T06:02:20Z","tX":266,"tY":378,"tags":{"addr:city":"Fennville","addr:housenumber":"6635","addr:postcode":"49408","addr:state":"MI","addr:street":"118th Avenue","gnis:feature_id":"2574364","name":"Campit Outdoor Resort","phone":"+1-269-543-4327","tents":"yes","website":"https://www.campitresort.com/"}},"2936296707":{"location":[42.4391409,-86.2619633],"ct":"US","tp":"CR","ts":"2014-06-28T02:49:54Z","tX":266,"tY":378,"tags":{"gnis:feature_id":"2574634","name":"Singing Sands RV Park"}},"5310206342":{"location":[42.3320093,-86.3001689],"ct":"US","tp":"CS","ts":"2024-12-01T17:08:52Z","tX":266,"tY":378,"tags":{"group_only":"yes","name":"Youth Campground"}},"5310206401":{"location":[42.3292233,-86.303696],"ct":"US","tp":"CR","ts":"2017-12-29T12:52:18Z","tX":266,"tY":378,"tags":{}},"4474213413":{"location":[42.2998582,-86.325153],"ct":"US","tp":"SD","ts":"2016-10-31T22:10:00Z","tX":266,"tY":378,"tags":{"sanitary_dump_station:round_drain":"yes"}},"12465641020":{"location":[42.3763535,-86.2534848],"ct":"US","tp":"CR","ts":"2024-12-31T16:43:42Z","tX":266,"tY":378,"tags":{}}}