{"17405942":{"location":[42.2075557,-86.2450854],"ct":"US","tp":"CS","ts":"2024-03-30T11:16:18Z","tX":266,"tY":379,"tags":{"addr:city":"Watervliet","addr:housenumber":"5355","addr:postcode":"49098","addr:state":"MI","addr:street":"M-140","gnis:feature_id":"2377456","name":"Paw Paw River Campgrounds","phone":"+1-269-463-5454","website":"https://pawpawrivercampgroundandcanoes.com/"}},"2936296391":{"location":[42.1883777,-86.3732763],"ct":"US","tp":"CR","ts":"2020-12-05T07:21:12Z","tX":266,"tY":379,"tags":{"addr:city":"Riverside","addr:housenumber":"3527","addr:postcode":"49084","addr:state":"MI","addr:street":"Coloma Road","gnis:feature_id":"2377540","name":"Benton Harbor/Saint Joseph KOA","phone":"+1-269-849-3333","website":"https://koa.com/campgrounds/coloma/"}},"2936296396":{"location":[42.2889001,-86.1765072],"ct":"US","tp":"CS","ts":"2022-05-13T16:25:51Z","tX":266,"tY":379,"tags":{"addr:city":"Bangor","addr:housenumber":"65361","addr:postcode":"49013","addr:street":"34th Avenue","gnis:feature_id":"2112810","group_only":"yes","name":"Circle Y Ranch","website":"https://circleyranch.net"}},"2936296397":{"location":[42.2749142,-86.2586164],"ct":"US","tp":"CR","ts":"2020-12-07T05:49:54Z","tX":266,"tY":379,"tags":{"addr:city":"Covert","addr:housenumber":"39397","addr:postcode":"49043","addr:state":"MI","addr:street":"M-140","gnis:feature_id":"2574974","name":"Covert/South Haven KOA","phone":"+1-269-764-0818","website":"https://koa.com/campgrounds/covert/"}},"2936296399":{"location":[42.2571006,-86.3287133],"ct":"US","tp":"CR","ts":"2023-10-29T01:33:42Z","tX":266,"tY":379,"tags":{"addr:city":"Coloma","addr:housenumber":"80855","addr:postcode":"49038","addr:state":"MI","addr:street":"County Road 376","gnis:feature_id":"2365071","name":"Dune Lake Campground","phone":"+1-269-764-8941","website":"https://www.dunelakecampground.com/"}},"2936296703":{"location":[42.0811722,-86.2021393],"ct":"US","tp":"CR","ts":"2020-12-05T06:44:41Z","tX":266,"tY":379,"tags":{"addr:city":"Dowagiac","addr:housenumber":"93283","addr:postcode":"49047","addr:state":"MI","addr:street":"County Road 690","gnis:feature_id":"2420839","name":"Land of Lakes Campground","phone":"+1-269-424-5070","tents":"yes"}}}