{"14610884":{"location":[41.9527328,-86.3332578],"ct":"US","tp":"CR","ts":"2024-08-13T15:02:09Z","tX":266,"tY":380,"tags":{"ele":"188","gnis:feature_id":"2377610","leisure":"park","name":"Shamrock Park","name:fa":"پارک شمروک","operator":"Village of Berrien Springs","operator:wikidata":"Q2207190","wikidata":"Q49560333"}},"592404268":{"location":[41.8348621,-86.4188137],"ct":"US","tp":"CR","ts":"2024-07-08T19:03:57Z","tX":266,"tY":380,"tags":{"addr:city":"Buchanan","addr:housenumber":"1622","addr:postcode":"49107","addr:state":"MI","addr:street":"East Clear Lake Road","gnis:feature_id":"2377410","name":"Fuller's Resort & Campground","phone":"+1-269-695-3785","tents":"yes","website":"https://www.fullersresort.com/"}},"1079886834":{"location":[41.9081034,-86.2782459],"ct":"US","tp":"CS","ts":"2023-08-18T16:57:32Z","tX":266,"tY":380,"tags":{"addr:city":"Niles","addr:housenumber":"7383","addr:postcode":"49120","addr:state":"MI","addr:street":"Steinbauer Road","alt_name":"Michiana Christian Service Camp","gnis:feature_id":"632192","group_only":"yes","name":"Michiana Christian Camp","phone":"+1-269-683-4403","website":"https://michianacamp.org/"}},"1200986275":{"location":[41.8458229,-86.258913],"ct":"US","tp":"CR","ts":"2023-08-22T03:16:02Z","tX":266,"tY":380,"tags":{"gnis:feature_id":"2401377","name":"Riverfront Park Campground","old_name":"Nub Lake Campground","website":"https://www.riverfrontparkcampground.com/"}},"1218751873":{"location":[41.9511443,-86.334369],"ct":"US","tp":"CS","ts":"2023-10-27T11:05:35Z","tX":266,"tY":380,"tags":{}},"2937772754":{"location":[41.7948312,-86.2156726],"ct":"US","tp":"CR","ts":"2022-12-13T17:33:46Z","tX":266,"tY":380,"tags":{"addr:city":"Niles","addr:housenumber":"33524","addr:postcode":"49120","addr:state":"MI","addr:street":"Bell Road","gnis:feature_id":"2402276","name":"Spaulding Lake Campground","phone":"+1-269-684-1393","website":"http://www.spauldinglake.com/"}},"10994764261":{"location":[41.9532153,-86.3347908],"ct":"US","tp":"SD","ts":"2023-06-21T14:25:30Z","tX":266,"tY":380,"tags":{}}}