{"380510693":{"location":[39.7376531,-86.315305],"ct":"US","tp":"CS","ts":"2024-11-11T20:13:00Z","tX":266,"tY":388,"tags":{"addr:city":"Indianapolis","addr:housenumber":"207","addr:postcode":"46231","addr:state":"IN","addr:street":"Bridgeport Rd.","name":"Jameson Camp","website":"https://www.jamesoncamp.org"}},"570796645":{"location":[39.7914813,-86.2356454],"ct":"US","tp":"CR","ts":"2018-03-19T02:27:24Z","tX":266,"tY":388,"tags":{"name":"VIP RV Lot"}},"1292212523":{"location":[39.8113638,-86.3477941],"ct":"US","tp":"CS","ts":"2024-06-13T22:01:50Z","tX":266,"tY":388,"tags":{"access":"customers","addr:city":"Indianapolis","addr:housenumber":"3380","addr:postcode":"46234","addr:state":"IN","addr:street":"County Road 100O East","name":"Raceview Family Campground"}},"1292772979":{"location":[39.7973257,-86.2840602],"ct":"US","tp":"CS","ts":"2024-06-21T20:50:01Z","tX":266,"tY":388,"tags":{"addr:city":"Indianapolis","addr:housenumber":"7201","addr:postcode":"46214","addr:state":"IN","addr:street":"Girl Scout Lane","name":"Camp Dellwood Girl Scouts Camp"}},"1295769874":{"location":[39.6624275,-86.229042],"ct":"US","tp":"CR","ts":"2024-06-24T16:01:34Z","tX":266,"tY":388,"tags":{"addr:city":"Indianapolis","addr:housenumber":"4001","addr:postcode":"46217","addr:state":"IN","addr:street":"West Southport Road","name":"Indy Lakes"}}}