{"5333204":{"location":[43.5450452,-5.6953429],"ct":"ES","tp":"CR","ts":"2024-03-25T14:58:12Z","tX":495,"tY":374,"tags":{"capacity":"18","caravans":"no","maxstay":"48 hours","name":"Área autocaravanas Playa de L'Arbeyal (Gijón)","opening_hours":"24/7","operator":"Ayuntamiento de Gijon/Xixon","picnic_area":"yes","sanitary_dump_station:chemical_toilet":"yes","sanitary_dump_station:grey_water":"yes","sanitary_dump_station:round_drain":"yes","water_point":"yes","website":"https://www.turismoasturias.es/en/organiza-tu-viaje/como-llegar-y-moverse/autocaravanas/area-de-el-arbeyal"}},"6726769":{"location":[43.5763869,-5.7448892],"ct":"ES","tp":"CS","ts":"2016-11-21T14:19:25Z","tX":495,"tY":374,"tags":{"internet_access":"wlan","internet_access:fee":"yes","name":"Camping Buenavista","sanitary_dump_station":"yes","wheelchair":"yes"}},"11308436":{"location":[43.5507806,-5.6382126],"ct":"ES","tp":"CS","ts":"2022-08-20T11:14:31Z","tX":495,"tY":374,"tags":{"ine:municipio":"Gijón/Xixón","name":"Camping Gijón","phone":"+34 985132199","stars":"2","website":"https://www.camping-gijon.com/"}},"920138485":{"location":[43.4070135,-5.8108204],"ct":"ES","tp":"CR","ts":"2024-04-24T13:06:52Z","tX":495,"tY":374,"tags":{"access":"yes","addr:city":"Lugones","addr:postcode":"33420","addr:street":"Avenida Conde Santa Bárbara","capacity":"4","caravan_site":"motorhome_stopover","caravans":"no","covered":"no","fee":"no","maxstay":"48 hours","name":"Aparcamiento autocaravanas de Lugones (Siero)","opening_hours":"24/7","operator":"ciudad de Lugones","power_supply":"no","sanitary_dump_station":"yes","sanitary_dump_station:chemical_toilet":"yes","sanitary_dump_station:grey_water":"yes","sanitary_dump_station:round_drain":"yes","supervised":"no","surface":"asphalt","tents":"no","water_point":"yes"}},"922493135":{"location":[43.5702328,-5.9587128],"ct":"ES","tp":"CR","ts":"2024-03-22T17:32:34Z","tX":495,"tY":374,"tags":{"access":"yes","addr:city":"Salinas","addr:postcode":"33405","addr:street":"Calle el Agüil","capacity":"6","caravan_site":"motorhome_stopover","caravan_site:type":"town","covered":"no","fee":"no","maxstay":"48 hours","name":"Área autocaravanas de El Agüil (Salinas)","opening_hours":"24/7","operator":"ciudad de Salinas","power_supply":"no","sanitary_dump_station":"yes","sanitary_dump_station:chemical_toilet":"yes","sanitary_dump_station:grey_water":"yes","sanitary_dump_station:round_drain":"yes","supervised":"no","surface":"asphalt","water_point":"yes","website":"https://www.turismoasturias.es/organiza-tu-viaje/como-llegar-y-moverse/autocaravanas/area-de-salinas"}},"1265493948":{"location":[43.5511551,-5.9137835],"ct":"ES","tp":"CR","ts":"2024-03-23T11:57:51Z","tX":495,"tY":374,"tags":{"addr:housenumber":"7","addr:postcode":"33460","addr:street":"Calle del Acero","capacity":"5","caravan_site":"motorhome_stopover","caravan_site:type":"town;parking_lot","fee":"no","maxstay":"48 hours","name":"Área de Autocaravanas Avilés","opening_hours":"24/7","sanitary_dump_station":"yes","water_point":"yes","website":"https://www.turismoasturias.es/organiza-tu-viaje/como-llegar-y-moverse/autocaravanas/area-de-aviles"}},"1265507971":{"location":[43.3974098,-5.7028284],"ct":"ES","tp":"CR","ts":"2024-03-23T13:09:48Z","tX":495,"tY":374,"tags":{"camping_behaviour":"no","capacity":"7","caravan_site":"motorhome_stopover","caravan_site:type":"village","caravans":"no","maxstay":"72 hours","name":"Área autocaravanas de Noreña","power_supply":"no","sanitary_dump_station":"yes","surface":"grass_paver","tents":"no","water_point":"yes","website":"https://www.turismoasturias.es/organiza-tu-viaje/como-llegar-y-moverse/autocaravanas/area-autocaravanas-de-norena"}},"1311122505":{"location":[43.3828547,-5.8236118],"ct":"ES","tp":"CR","ts":"2024-08-25T21:22:57Z","tX":495,"tY":374,"tags":{"addr:city":"La Corredoria","addr:housenumber":"8","addr:postcode":"33011","addr:street":"Calle Daniel Moyano","capacity":"16","caravan_site":"motorhome_stopover","caravan_site:type":"city","maxstay":"72 hours","name":"Area Autocaravanas La Corredoria","opening_hours":"24/7","power_supply":"no","sanitary_dump_station":"yes","water_point":"yes"}},"6239451679":{"location":[43.547046,-5.6364816],"ct":"ES","tp":"CR","ts":"2025-03-06T20:41:21Z","tX":495,"tY":374,"tags":{"addr:city":"Gijón/Xixón"}},"11753345650":{"location":[43.3916626,-5.667914],"ct":"ES","tp":"CR","ts":"2024-03-22T16:31:45Z","tX":495,"tY":374,"tags":{"capacity:caravans":"5","caravan_site":"motorhome_stopover","caravan_site:type":"parking_lot","fee":"no","name":"Aparcamiento Autocaravanas en Calle Asturias (Siero)","sanitary_dump_station":"yes","surface":"asphalt","water_point":"yes","website":"https://www.turismoasturias.es/organiza-tu-viaje/como-llegar-y-moverse/autocaravanas/aparcamiento-autocaravanas-en-calle-asturias-siero-"}},"11753448730":{"location":[43.5445335,-5.8831257],"ct":"ES","tp":"CR","ts":"2024-03-23T13:11:40Z","tX":495,"tY":374,"tags":{"access":"yes","addr:city":"Overo","addr:postcode":"33404","addr:street":"Avenida de Truyes","capacity":"10","covered":"no","fee":"no","maxstay":"48 hours","name":"Área de autocaravanas Overo","opening_hours":"24/7","operator":"ciudad de Overo","power_supply":"no","sanitary_dump_station":"yes","sanitary_dump_station:chemical_toilet":"yes","sanitary_dump_station:grey_water":"yes","sanitary_dump_station:round_drain":"yes","supervised":"no","surface":"asphalt","water_point":"yes","website":"https://www.turismoasturias.es/organiza-tu-viaje/como-llegar-y-moverse/autocaravanas/area-de-corvera"}},"8544185282":{"location":[43.4070268,-5.8108885],"ct":"ES","tp":"SD","ts":"2024-03-22T16:21:18Z","tX":495,"tY":374,"tags":{"access":"yes","fee":"no","motorhome":"designated","operator":"ciudad de Lugones","sanitary_dump_station":"public","sanitary_dump_station:chemical_toilet":"yes","sanitary_dump_station:grey_water":"yes","sanitary_dump_station:round_drain":"yes","water_point":"yes"}},"8564048859":{"location":[43.5702495,-5.9587631],"ct":"ES","tp":"SD","ts":"2024-03-22T17:32:34Z","tX":495,"tY":374,"tags":{"access":"yes","fee":"no","motorhome":"designated","operator":"ciudad de Salinas","sanitary_dump_station":"public","sanitary_dump_station:chemical_toilet":"yes","sanitary_dump_station:grey_water":"yes","sanitary_dump_station:round_drain":"yes","water_point":"yes"}},"8564050900":{"location":[43.5445511,-5.88299],"ct":"ES","tp":"SD","ts":"2024-03-22T17:26:52Z","tX":495,"tY":374,"tags":{"access":"yes","fee":"no","motorhome":"designated","operator":"ciudad de Overo","sanitary_dump_station":"public","sanitary_dump_station:chemical_toilet":"yes","sanitary_dump_station:grey_water":"yes","sanitary_dump_station:round_drain":"yes","water_point":"yes"}},"11755319035":{"location":[43.551085,-5.9140711],"ct":"ES","tp":"SD","ts":"2024-03-23T11:57:51Z","tX":495,"tY":374,"tags":{"access":"yes","fee":"no"}},"11755411297":{"location":[43.3974589,-5.7028753],"ct":"ES","tp":"SD","ts":"2024-03-23T13:08:51Z","tX":495,"tY":374,"tags":{"access":"yes","fee":"no","sanitary_dump_station:basin":"yes"}}}