{"297143827":{"location":[43.27814,-5.674271],"ct":"ES","tp":"CR","ts":"2024-03-23T13:52:38Z","tX":495,"tY":375,"tags":{"addr:city":"Ciañu","addr:postcode":"33900","capacity":"11","caravan_site":"motorhome_stopover","caravan_site:type":"museum","caravans":"no","fee":"no","maxstay":"2 days","maxweight":"3.5 t","name":"Área autocaravanas Ecomuseo de Samuño (Langreo)","sanitary_dump_station":"public","supervised":"no","surface":"asphalt","tents":"no","water_point":"yes"}},"922485400":{"location":[43.2813213,-5.8732441],"ct":"ES","tp":"CR","ts":"2024-03-23T13:17:41Z","tX":495,"tY":375,"tags":{"access":"yes","addr:city":"Santa Eulalia-Morcín","addr:postcode":"33162","addr:street":"Calle Pumarín","capacity":"10","caravan_site":"motorhome_stopover","caravan_site:type":"parking_lot","caravans":"no","covered":"no","description":"Área de autocaravanas mixto con auto","fee":"no","maxstay":"72 hours","name":"Área autocaravanas de Santa Eulalia (Morcín)","opening_hours":"24/7","operator":"ciudad de Santa Eulalia-Morcín","power_supply":"no","sanitary_dump_station":"yes","sanitary_dump_station:chemical_toilet":"yes","sanitary_dump_station:grey_water":"yes","sanitary_dump_station:round_drain":"yes","supervised":"no","surface":"asphalt","tents":"no","water_point":"yes"}},"922488433":{"location":[43.2516459,-5.7805012],"ct":"ES","tp":"CR","ts":"2024-04-24T12:34:06Z","tX":495,"tY":375,"tags":{"addr:city":"Mieres del Camino","addr:postcode":"33618","addr:street":"A-66","alt_name":"Área autocaravanas de Mieres","capacity":"6","caravan_site":"motorhome_stopover","caravans":"no","covered":"no","fee":"no","maxstay":"48 hours","name":"Área de Mieres del Camino","opening_hours":"24/7","operator":"ciudad de Mieres del Camino","power_supply":"no","sanitary_dump_station":"yes","sanitary_dump_station:chemical_toilet":"yes","sanitary_dump_station:grey_water":"yes","sanitary_dump_station:round_drain":"yes","supervised":"no","surface":"asphalt","tents":"no","water_point":"yes"}},"1265500685":{"location":[43.2529393,-5.8707513],"ct":"ES","tp":"CR","ts":"2024-04-24T11:21:42Z","tX":495,"tY":375,"tags":{"capacity":"10","caravan_site":"motorhome_stopover","caravan_site:type":"village","caravans":"no","fee":"no","maxstay":"48 hours","name":"Parking de La Foz de Morcín","power_supply":"no","sanitary_dump_station":"no","tents":"no","website":"https://www.turismoasturias.es/organiza-tu-viaje/como-llegar-y-moverse/autocaravanas/organiza-tu-viaje/como-llegar-y-moverse/autocaravanas/parking-autocaravanas-de-la-foz-de-morcin"}},"1265502204":{"location":[43.152879,-5.824655],"ct":"ES","tp":"CR","ts":"2024-03-23T12:39:27Z","tX":495,"tY":375,"tags":{"capacity":"15","caravan_site":"motorhome_stopover","caravan_site:type":"village","caravans":"no","fee":"no","name":"Área autocaravanas de Lena","picnic_area":"yes","sanitary_dump_station":"yes","sanitary_dump_station:chemical_toilet":"yes","sanitary_dump_station:grey_water":"yes","surface":"asphalt","tents":"yes","water_point":"yes"}},"1265516037":{"location":[43.2865139,-5.6388258],"ct":"ES","tp":"CR","ts":"2024-03-23T13:48:33Z","tX":495,"tY":375,"tags":{"addr:housenumber":"25","addr:postcode":"33940","addr:street":"Avenida de La Vega","capacity:caravans":"3","caravan_site":"motorhome_stopover","caravan_site:type":"parking_lot","fee":"no","maxstay":"48 hours","name":"Área autocaravanas del Pozo Entrego (L' Entregu/El Entrego)","opening_hours":"24/7","sanitary_dump_station":"yes","water_point":"yes","website":"https://www.turismoasturias.es/organiza-tu-viaje/como-llegar-y-moverse/autocaravanas/area-del-pozo-entrego"}},"7033534875":{"location":[43.1558386,-5.9726924],"ct":"ES","tp":"CR","ts":"2024-04-24T11:11:39Z","tX":495,"tY":375,"tags":{"addr:city":"Bárzana","alt_name":"Área de servicios para autocaravanas \"El Felgueru\"","caravan_site":"motorhome_stopover","caravans":"no","drinking_water":"yes","fee":"no","maxstay":"48 hours","name":"Área autocaravanas de Bárzana (Quirós)","name:en":"Bárzana motorhome area (Quirós)","name:es":"Área autocaravanas de Bárzana (Quirós)","sanitary_dump_station":"yes","tents":"no","water_point":"yes","website":"https://www.turismoasturias.es/organiza-tu-viaje/como-llegar-y-moverse/autocaravanas/area-de-barzana-quiros"}},"5827621315":{"location":[43.278293,-5.6744313],"ct":"ES","tp":"SD","ts":"2018-08-12T18:11:15Z","tX":495,"tY":375,"tags":{"drinking_water":"yes","fee":"no"}},"8563966743":{"location":[43.2814857,-5.8735586],"ct":"ES","tp":"SD","ts":"2024-05-17T09:55:16Z","tX":495,"tY":375,"tags":{"access":"yes","fee":"no","motorhome":"designated","operator":"ciudad de Santa Eulalia-Morcín","sanitary_dump_station":"public","sanitary_dump_station:chemical_toilet":"yes","sanitary_dump_station:grey_water":"yes","sanitary_dump_station:round_drain":"yes","water_point":"yes"}},"8563972614":{"location":[43.2514997,-5.7804559],"ct":"ES","tp":"SD","ts":"2024-03-23T12:45:38Z","tX":495,"tY":375,"tags":{"access":"yes","fee":"no","motorhome":"designated","operator":"ciudad de Mieres del Camino","sanitary_dump_station":"public","sanitary_dump_station:chemical_toilet":"yes","sanitary_dump_station:grey_water":"yes","sanitary_dump_station:round_drain":"yes","water_point":"yes"}}}