{"437839126":{"location":[42.8515235,-5.6606587],"ct":"ES","tp":"CS","ts":"2022-08-08T16:45:36Z","tX":495,"tY":376,"tags":{"addr:street":"C. Joaquin Blume, 4, 24600, La Pola de Gordón","name":"El Bosque de Gordón"}},"557737517":{"location":[42.8709731,-5.6994428],"ct":"ES","tp":"CS","ts":"2024-07-09T18:37:31Z","tX":495,"tY":376,"tags":{"addr:city":"La Pola de Gordón","addr:country":"ES","addr:postcode":"24600","addr:province":"León","addr:street":"Carretera Pola de Gordón a Geras de Gordón","caravans":"no","email":"ajvillamaninypola@arcotiempolibre.org","group_only":"yes","leisure":"summer_camp","mobile":"+34621040878;+34691293272","name":"Campamento Juvenil de Pola de Gordón","operator":"Escuela de tiempo libre Caracuel","phone":"+34987597098","tents":"yes","website":"https://juventud.jcyl.es/web/jcyl/Juventud/es/Plantilla100Detalle/1284710993928/AlberguesJuveniles/1284167020504/Albergue"}},"568194212":{"location":[42.9376956,-5.6640913],"ct":"ES","tp":"CS","ts":"2018-03-09T11:15:15Z","tX":495,"tY":376,"tags":{"addr:city":"Ventosilla","addr:country":"ES","addr:housenumber":"18","addr:postcode":"24680","addr:province":"León","addr:street":"Finca las Campas","caravans":"no","email":"info@campamentoscaracuel.com","group_only":"yes","leisure":"summer_camp","name":"Campamento Principe de Asturias","operator":"Escuela de tiempo libre Caracuel","phone":"+34 987 698003; +34 985 464361","website":"http://www.campamentoscaracuel.com/campamentos-juveniles/2-albergue-juvenil-de-villamanin-leon.html"}},"568194231":{"location":[42.9401241,-5.6548644],"ct":"ES","tp":"CS","ts":"2023-11-02T19:13:02Z","tX":495,"tY":376,"tags":{"addr:city":"Villamanín","addr:country":"ES","addr:housenumber":"12","addr:postcode":"24680","addr:province":"León","addr:street":"Avenida de la Tercia","caravans":"no","email":"gonzalo@campusturistico.es","group_only":"yes","leisure":"summer_camp","name":"Campus Turístico Villamanín","phone":"+34 987 598252; +34 646 482890","website":"https://campusturistico.es/"}},"946000068":{"location":[42.8551919,-5.6756643],"ct":"ES","tp":"CR","ts":"2024-02-09T19:58:44Z","tX":495,"tY":376,"tags":{"access":"yes","addr:city":"La Pola de Gordón","addr:postcode":"24600","addr:street":"Calle Luis Vives","capacity":"5","covered":"no","drinking_water":"yes","fee":"no","name":"La Pola de Gordon Area de Autocaravanas","operator":"Ayuntamiento de La Pola de Gordón","power_supply":"no","sanitary_dump_station":"yes","sanitary_dump_station:chemical_toilet":"yes","sanitary_dump_station:grey_water":"yes","sanitary_dump_station:round_drain":"yes","supervised":"no","surface":"asphalt","water_point":"yes"}},"1667145553":{"location":[42.8513784,-5.6623648],"ct":"ES","tp":"CR","ts":"2016-08-18T17:23:45Z","tX":495,"tY":376,"tags":{"name":"El Bosque de Gordón"}},"1876615703":{"location":[42.9217384,-5.961397],"ct":"ES","tp":"CS","ts":"2022-04-10T07:55:10Z","tX":495,"tY":376,"tags":{"addr:city":"Sena de Luna","addr:street":"LE-3416 acceso a Abelgas","internet_access":"wlan","name":"Camping Rio Luna","phone":"+34 987 597717"}},"8757640077":{"location":[42.8551494,-5.6755211],"ct":"ES","tp":"SD","ts":"2021-08-02T18:10:54Z","tX":495,"tY":376,"tags":{"access":"yes","description":"Estación de vaciado de tanque para autocaravanas","description:en":"Tank emptying station for motorhomes","description:fr":"Station de vidange pour Camping-car.","fee":"no","sanitary_dump_station":"public","sanitary_dump_station:chemical_toilet":"no","sanitary_dump_station:grey_water":"yes","sanitary_dump_station:round_drain":"yes","water_point":"yes"}}}