{"61094537":{"location":[42.4672082,-5.8812112],"ct":"ES","tp":"CS","ts":"2024-01-27T23:28:11Z","tX":495,"tY":378,"tags":{"addr:city":"Hospital de Orbigo","addr:postcode":"24286","addr:street":"Avenida Suero De Quiñones","contact:email":"camping@hospitaldeorbigo.com","contact:fax":"+34 987388236","contact:phone":"+34 987361018","name":"Camping Municipal de Hospital de Orbigo","opening_hours":"May-Oct","operator":"private","wheelchair":"yes"}},"91815184":{"location":[42.29428,-5.9118606],"ct":"ES","tp":"CS","ts":"2024-02-23T20:20:56Z","tX":495,"tY":378,"tags":{"addr:city":"La Bañeza","addr:street":"Calle Fueros Leoneses","caravans":"yes","drinking_water":"yes","fax":"+34987643829","name":"Camping Vía de la Plata","phone":"+34987643829","power_supply":"yes","shower":"yes","tents":"yes","toilets":"yes"}},"309295699":{"location":[42.4986425,-5.8943728],"ct":"ES","tp":"CS","ts":"2017-06-26T11:16:41Z","tX":495,"tY":378,"tags":{"addr:city":"Benavides de Órbigo","addr:country":"ES","addr:postcode":"24280","addr:street":"Calle Prao Palacio","contact:phone":"+34 987370276","internet_access":"no","name":"Camping El Antojano","operator":"private","wheelchair":"yes"}},"374528493":{"location":[42.511187,-5.7726665],"ct":"ES","tp":"CS","ts":"2015-10-09T08:56:05Z","tX":495,"tY":378,"tags":{"name":"Camping Camino de Santiago"}},"559176130":{"location":[42.5137379,-5.8692486],"ct":"ES","tp":"CS","ts":"2023-11-11T22:52:05Z","tX":495,"tY":378,"tags":{"addr:city":"Santa Marina del Rey","addr:country":"ES","addr:postcode":"24393","addr:province":"León","addr:street":"Calle Los Añeiros","caravans":"yes","email":"info@campingruviejo.com","internet_access":"wlan","name":"Ruviejo","phone":"+34 987 037888; +34 661 053655","tents":"yes","website":"https://www.campingruviejo.com/"}},"764401347":{"location":[42.4345387,-5.8750751],"ct":"ES","tp":"CS","ts":"2010-06-04T13:24:46Z","tX":495,"tY":378,"tags":{"name":"Camping de Veguellina"}},"945974795":{"location":[42.3543708,-5.7544347],"ct":"ES","tp":"CR","ts":"2024-05-17T10:03:34Z","tX":495,"tY":378,"tags":{"access":"yes","addr:city":"Santa María del Páramo","addr:postcode":"24240","addr:street":"Calle la Canal","capacity":"5","caravan_site":"motorhome_stopover","caravan_site:type":"village;sports_centre","covered":"no","drinking_water":"yes","fee":"no","name":"Área de Autocaravanas Calle El Molinon, Santa Maria del Paramo","operator":"Ayuntamiento de Santa María del Páramo","power_supply":"no","sanitary_dump_station":"yes","sanitary_dump_station:chemical_toilet":"yes","sanitary_dump_station:grey_water":"yes","sanitary_dump_station:round_drain":"yes","supervised":"no","surface":"asphalt","water_point":"yes","website":"https://www.santamariadelparamo.es/es/lugares/area-de-autocaravanas-0"}},"8757432894":{"location":[42.3539534,-5.7543763],"ct":"ES","tp":"SD","ts":"2024-05-17T10:01:36Z","tX":495,"tY":378,"tags":{"access":"yes","fee":"no","motorhome":"designated","operator":"Ayuntamiento de Santa María del Páramo","sanitary_dump_station":"public","sanitary_dump_station:chemical_toilet":"no","sanitary_dump_station:grey_water":"yes","sanitary_dump_station:round_drain":"yes","water_point":"yes"}}}