{"945969220":{"location":[42.1298994,-5.7300739],"ct":"ES","tp":"CR","ts":"2024-05-17T09:52:49Z","tX":495,"tY":379,"tags":{"access":"yes","addr:city":"San Adrián del Valle","addr:postcode":"24797","addr:street":"Calle José Antonio Cabañeros","capacity":"9","caravan_site":"motorhome_stopover","caravan_site:type":"village","covered":"no","drinking_water":"yes","fee":"no","maxstay":"72 hours","name":"San Adrian del Valle Área de Autocaravanas","operator":"Ayuntamiento de San Adrián del Valle","power_supply":"no","sanitary_dump_station":"yes","sanitary_dump_station:chemical_toilet":"yes","sanitary_dump_station:grey_water":"yes","sanitary_dump_station:round_drain":"yes","supervised":"no","surface":"asphalt","water_point":"yes"}},"945969913":{"location":[42.2392845,-5.6591812],"ct":"ES","tp":"CR","ts":"2024-05-17T09:44:54Z","tX":495,"tY":379,"tags":{"access":"yes","addr:city":"Laguna de Negrillos","addr:postcode":"24234","addr:street":"Calle el Jardín","capacity":"5","caravan_site":"motorhome_stopover","caravan_site:type":"village","covered":"no","drinking_water":"yes","fee":"no","maxstay":"72 hours","name":"Área de Autocaravanas Laguna de Negrillos","operator":"Ayuntamiento de Laguna de Negrillos","power_supply":"no","sanitary_dump_station":"yes","sanitary_dump_station:chemical_toilet":"yes","sanitary_dump_station:grey_water":"yes","sanitary_dump_station:round_drain":"yes","supervised":"no","surface":"asphalt","water_point":"yes","website":"https://www.aytolagunadenegrillos.es/turismo-y-ocio/xrea_de_Autocaravanas.html"}},"1279716042":{"location":[42.0669259,-5.7827179],"ct":"ES","tp":"CR","ts":"2024-05-04T18:33:17Z","tX":495,"tY":379,"tags":{"capacity":"8","caravan_site":"motorhome_stopover","caravan_site:type":"village","dog":"yes","fee":"no","name":"Área de autocaravanas de Morales de Rey","opening_hours":"24/7","sanitary_dump_station":"yes","water_point":"yes","water_point:charge":"5 EUR/100 liter","water_point:fee":"yes"}},"8757381644":{"location":[42.1299201,-5.7301447],"ct":"ES","tp":"SD","ts":"2024-05-17T10:05:45Z","tX":495,"tY":379,"tags":{"access":"yes","fee":"no","motorhome":"designated","operator":"Ayuntamiento de San Adrián del Valle","sanitary_dump_station":"public","sanitary_dump_station:chemical_toilet":"no","sanitary_dump_station:grey_water":"yes","sanitary_dump_station:round_drain":"yes","water_point":"yes"}},"8757389993":{"location":[42.2394052,-5.6592635],"ct":"ES","tp":"SD","ts":"2024-05-17T09:44:54Z","tX":495,"tY":379,"tags":{"access":"yes","fee":"no","operator":"Ayuntamiento de Laguna de Negrillos","sanitary_dump_station":"public","sanitary_dump_station:chemical_toilet":"no","sanitary_dump_station:grey_water":"yes","sanitary_dump_station:round_drain":"yes","water_point":"yes"}}}