{"1182655221":{"location":[41.9999939,-5.6721831],"ct":"ES","tp":"CR","ts":"2024-05-04T18:26:35Z","tX":495,"tY":380,"tags":{"addr:city":"Benavente","addr:postcode":"49600","addr:street":"Avenida Víctimas del Terrorismo","capacity":"4","caravan_site":"motorhome_stopover","caravan_site:type":"town","contact:email":"turismo@benavente.es","contact:phone":"+34 980 634 211","contact:website":"http://turismobenavente.es","fee":"no","maxstay":"48 hours","name":"Área de autocaravanas de Benavente","nudism":"no","operator":"Ayuntamiento de Benavente","permanent_camping":"no","picnic_area":"yes","sanitary_dump_station":"yes","static_caravans":"no","surface":"concrete","water_point":"yes"}},"1279729033":{"location":[41.887185,-5.7553487],"ct":"ES","tp":"CR","ts":"2024-05-04T19:33:43Z","tX":495,"tY":380,"tags":{"addr:postcode":"49698","addr:street":"Cuesta de los Nogales","bbq":"yes","caravan_site":"motorhome_stopover","caravan_site:type":"village","charge":"8 EUR","fee":"yes","laundry":"yes","name":"Area de Autocaravanas de Bretocino (Zamora)","opening_hours":"24/7","phone":"+34 615477225","power_supply":"yes","power_supply:charge":"3 EUR","power_supply:maxcurrent":"10","sanitary_dump_station":"yes","shower":"yes","surface":"asphalt","swimming_pool":"yes","water_point":"yes","website":"https://www.areabretocino.es/"}},"9013666210":{"location":[41.9858254,-5.9764291],"ct":"ES","tp":"SD","ts":"2021-08-17T09:47:08Z","tX":495,"tY":380,"tags":{"access":"yes","fee":"no","opening_hours":"24/7","power_supply":"no","water_point":"yes"}}}