{"80870262":{"location":[37.2778567,-5.9370214],"ct":"ES","tp":"CS","ts":"2022-02-27T19:01:52Z","tX":495,"tY":397,"tags":{"addr:city":"Dos Hermanas","addr:postcode":"41703","name":"Camping Villsom","toilets:wheelchair":"yes","website":"http://campingvillsom.blogspot.fr/","wheelchair":"yes"}},"636545496":{"location":[37.4107891,-5.9409548],"ct":"ES","tp":"CR","ts":"2025-01-25T09:19:41Z","tX":495,"tY":397,"tags":{"building":"parking","building:levels":"1","caravan_site":"motorhome_stopover","caravan_site:type":"city","charge":"15 EUR","fee":"yes","internet_access":"yes","name":"Área parking Autocaravanas Sevilla","power_supply":"yes","sanitary_dump_station":"yes","shower":"yes","surface":"asphalt","swimming_pool":"yes","toilets":"yes","website":"https://www.parkingcaravane.com/"}},"702047651":{"location":[37.2117395,-5.9631977],"ct":"ES","tp":"CR","ts":"2024-05-15T06:55:11Z","tX":495,"tY":397,"tags":{"addr:city":"Dos Hermanas","addr:milestone":"Km. 6.5","addr:street":"Carretera SE-9024","caravan_site":"motorhome_stopover","name":"Multiparking La Jabega","phone":"+34 622 049 412","sanitary_dump_station":"yes","website":"https://multiparkinglajabega.com"}},"7145909586":{"location":[37.3286386,-5.8050073],"ct":"ES","tp":"CR","ts":"2024-04-14T10:48:45Z","tX":495,"tY":397,"tags":{"capacity":"16","caravan_site":"motorhome_stopover","caravan_site:type":"motorhome_shop","caravans":"yes","charge":"12 EUR","fee":"yes","name":"Hidalgo parking","power_supply":"yes","sanitary_dump_station":"yes","seasonal":"no","water_point":"yes","website":"https://autocaravanashidalgo.com/"}},"9440575917":{"location":[37.3841315,-5.7212187],"ct":"ES","tp":"CR","ts":"2024-08-18T11:34:57Z","tX":495,"tY":397,"tags":{"fee":"no","maxstay":"72 hours","name":"El Viso del Alcor","power_supply":"yes","power_supply:charge":"2.50 EUR/3 hours","sanitary_dump_station":"yes","toilets":"no","water_point":"yes","website":"https://turismoelvisodelalcor.org/en/lugar/motorhome-area/"}},"10162333520":{"location":[37.1762431,-5.8760446],"ct":"ES","tp":"CR","ts":"2022-11-06T15:29:36Z","tX":495,"tY":397,"tags":{"addr:postcode":"41720","addr:street":"Vereda Real de la Armada","name":"Camper Park Cañada Real","opening_hours":"24/7","phone":"+34629175455"}},"11821978657":{"location":[37.3916762,-5.9734406],"ct":"ES","tp":"CR","ts":"2024-04-16T12:36:39Z","tX":495,"tY":397,"tags":{"caravan_site":"motorhome_stopover","caravan_site:type":"parking_lot","charge":"20 EUR","fee":"yes","name":"Parking de Santa Justa"}},"11816373115":{"location":[37.3560817,-5.8681597],"ct":"ES","tp":"PK","ts":"2024-04-14T10:48:45Z","tX":495,"tY":397,"tags":{"caravans":"yes","motorhome":"designated","name":"Parking de caravanas en Sevilla la liebre","overnight":"storage","parking":"surface","website":"http://parkingcaravanaslaliebre.es/instalaciones-aparcamiento-caravanas-sevilla/"}}}