{"486424194":{"location":[29.8267689,-5.6665691],"ct":"MA","tp":"CS","ts":"2018-11-02T22:12:00Z","tX":495,"tY":423,"tags":{"addr:housenumber":"N9","addr:street":"Kasr Bounou","name":"Caravane Rose du Sable","operator":"Brahim Ahansal"}},"1495623599":{"location":[29.807025,-5.729451],"ct":"MA","tp":"CS","ts":"2011-11-08T19:00:06Z","tX":495,"tY":423,"tags":{"name":"Nomadic Life"}},"1756189463":{"location":[29.8208964,-5.721624],"ct":"MA","tp":"CS","ts":"2013-08-27T08:09:27Z","tX":495,"tY":423,"tags":{"internet_access":"no","name":"Camping Auberge el Khaima","website":"www.aubergelkhaima.com"}},"2433508155":{"location":[29.8293288,-5.6553139],"ct":"MA","tp":"CS","ts":"2020-07-11T23:20:43Z","tX":495,"tY":423,"tags":{"name":"Kasbah Ouled Driss قصبة أولاد إدريس","name:ar":"قصبة أولاد إدريس","name:fr":"Kasbah Ouled Driss"}},"2433509400":{"location":[29.8290832,-5.6643091],"ct":"MA","tp":"CS","ts":"2017-04-03T15:53:05Z","tX":495,"tY":423,"tags":{"addr:city":"Ouled Driss (Mhamid)","addr:street":"N9","capacity":"15","fee":"yes","internet_access":"yes","name":"Carrefour des Nomades - camping - restaurant - piscine","website":"www.carrefourdesnomades.com"}},"2433513130":{"location":[29.8212663,-5.7203785],"ct":"MA","tp":"CS","ts":"2024-03-16T11:46:14Z","tX":495,"tY":423,"tags":{"caravans":"yes","drinking_water":"yes","name":"Hamada du Draa","power_supply":"yes","sanitary_dump_station":"yes","shower":"yes","tents":"yes","toilets":"yes","website":"https://www.hamada-sahara.com/"}},"2433517010":{"location":[29.8272618,-5.7317412],"ct":"MA","tp":"CR","ts":"2013-08-27T08:11:03Z","tX":495,"tY":423,"tags":{"name":"La Boussole"}},"2433518567":{"location":[29.8382614,-5.7433278],"ct":"MA","tp":"CR","ts":"2019-03-16T09:59:46Z","tX":495,"tY":423,"tags":{"name":"Iguidi Tours","website":"https://www.iguiditours.com/"}},"2433522749":{"location":[29.8290829,-5.713379],"ct":"MA","tp":"CR","ts":"2013-08-27T08:17:42Z","tX":495,"tY":423,"tags":{"name":"Kasbah Sahara Services","website":"www.hotelmhamid.com"}},"3305525267":{"location":[29.8285026,-5.732586],"ct":"MA","tp":"CS","ts":"2019-04-03T18:37:34Z","tX":495,"tY":423,"tags":{"name":"Camp La Boussole du Sahara"}},"3305525525":{"location":[29.8061216,-5.7398558],"ct":"MA","tp":"CS","ts":"2015-01-23T09:50:32Z","tX":495,"tY":423,"tags":{"name":"Camp Auberge Kasbah Aladin"}},"4904242546":{"location":[29.7318817,-5.8395825],"ct":"MA","tp":"CS","ts":"2020-01-08T23:31:46Z","tX":495,"tY":423,"tags":{"camp_site":"basic","name":"Kamp Sidi Naji"}},"6148088545":{"location":[29.8279212,-5.6674534],"ct":"MA","tp":"CS","ts":"2018-12-19T18:02:36Z","tX":495,"tY":423,"tags":{"access":"private","addr:city":"Douar Bounou - Oulad Driss - Mhamid","addr:street":"Palmeraie","capacity":"30","fee":"yes","internet_access":"yes","name":"Camping Esprit Désert","operator":"Jonac Philippe- 00212 6 59 51 67 99"}},"11869286545":{"location":[29.834035,-5.755004],"ct":"MA","tp":"CS","ts":"2024-04-30T14:52:11Z","tX":495,"tY":423,"tags":{"name":"Camp Bivouac Hassi Smara"}},"7710695059":{"location":[29.8331915,-5.736677],"ct":"MA","tp":"CS","ts":"2025-04-04T18:51:14Z","tX":495,"tY":423,"tags":{"addr:city":"Mhamid","addr:housenumber":"Atmospher Erg Chigaga","addr:postcode":"47402","addr:street":"RR703","backcountry":"yes","name":"NOMADS LIFE STYLE","opening_hours":"24/7","operator":"Desert Atmosphere","operator:type":"public"}},"12729562336":{"location":[29.8400419,-5.7474843],"ct":"MA","tp":"CS","ts":"2025-04-04T18:51:14Z","tX":495,"tY":423,"tags":{"addr:city":"M'Hamid El Ghizlane","addr:postcode":"47402","addr:street":"RR703","backcountry":"yes","camp_site":"basic","capacity:caravans":"5","capacity:persons":"5","capacity:tents":"3","fee":"yes","name":"Nomad Desert Campe","operator":"Mohammed","payment:cash":"yes","payment:paypal":"yes","tents":"yes"}},"12729562337":{"location":[29.8390863,-5.7481926],"ct":"MA","tp":"CS","ts":"2025-04-04T18:51:14Z","tX":495,"tY":423,"tags":{"backcountry":"yes"}}}