{"18331448":{"location":[51.6310663,-116.3315363],"ct":"CA","tp":"CS","ts":"2024-11-26T17:51:11Z","tX":181,"tY":339,"tags":{"access":"yes","addr:city":"Mosquito Creek","addr:province":"AB","addr:street":"Icefields Parkway","capacity":"unknown","capacity:caravans":"38","caravans":"yes","drinking_water":"yes","fee":"yes","informal":"no","internet_access":"no","large_vehicles":"yes","laundry":"unknown","maxlength":"10","mobile_reception":"no","name":"Mosquito Creek Campground","operator":"Parks Canada","phone":"unknown","power_supply":"no","reservation":"recommended","tents":"yes","toilets":"yes","water_point":"unknown","website":"https://parks.canada.ca/pn-np/ab/banff/activ/camping#mosquito"}},"1116068526":{"location":[51.6309531,-116.3313237],"ct":"CA","tp":"CS","ts":"2024-03-29T23:55:35Z","tX":181,"tY":339,"tags":{"access":"yes","addr:city":"Mosquito Creek","addr:province":"AB","addr:street":"Icefields Parkway","capacity":"unknown","capacity:caravans":"38","caravans":"yes","drinking_water":"yes","fee":"yes","informal":"no","internet_access":"no","large_vehicles":"yes","laundry":"unknown","maxlength":"10","mobile_reception":"no","name":"Mosquito Creek Campground","operator":"Parks Canada","phone":"unknown","power_supply":"no","reservation":"recommended","shower":"unknown","tents":"yes","toilets":"yes","water_point":"unknown","website":"https://parks.canada.ca/pn-np/ab/banff/activ/camping#mosquito"}},"2904538601":{"location":[51.7701272,-116.3610701],"ct":"CA","tp":"CS","ts":"2014-06-07T15:20:56Z","tX":181,"tY":339,"tags":{"source":"NRCan-CanVec-10.0"}},"3669118545":{"location":[51.6494216,-116.1578178],"ct":"CA","tp":"CS","ts":"2015-07-27T18:58:52Z","tX":181,"tY":339,"tags":{"fee":"yes","name":"Camp (random camping)","operator":"Parks Canada (random camping permit)"}},"4295571400":{"location":[51.6654284,-116.3068993],"ct":"CA","tp":"CS","ts":"2022-11-21T18:22:12Z","tX":181,"tY":339,"tags":{"backcountry":"yes","internet_access":"no","name":"Mosquito Creek Campsite","operator":"Parks Canada","sanitary_dump_station":"no","source":"NRCan-CanVec-10.0","tents":"yes","wheelchair":"no"}},"7851777857":{"location":[51.646093,-116.1911702],"ct":"CA","tp":"CS","ts":"2020-08-28T03:50:01Z","tX":181,"tY":339,"tags":{"backcountry":"yes","internet_access":"no","name":"Fish Lakes Camground","nudism":"no","operator":"Parks Canada","sanitary_dump_station":"no","tents":"yes","wheelchair":"no"}}}