{"18213509":{"location":[51.4168164,-116.1792486],"ct":"CA","tp":"CS","ts":"2024-10-26T20:07:52Z","tX":181,"tY":340,"tags":{"access":"yes","capacity":"206","caravans":"yes","description":"ALL soft-sided units (tents, tent-trailers, and units with soft-sided pop-outs) MUST camp in the Lake Louise soft-sided campground and stay within an enclosed electric fence, due to seasonal bear activity.","drinking_water":"yes","fee":"yes","informal":"no","internet_access":"unknown","large_vehicles":"no","laundry":"unknown","maxlength":"7","mobile_reception":"unknown","name":"Lake Louise Softsided Campground","operator":"Parks Canada","phone":"unknown","power_supply":"unknown","reservation":"recommended","shower":"yes","tents":"yes","toilets":"yes","water_point":"unknown","website":"https://parks.canada.ca/pn-np/ab/banff/activ/camping#lakelouisesoft"}},"18215859":{"location":[51.4111481,-116.1695993],"ct":"CA","tp":"CS","ts":"2024-10-28T05:11:45Z","tX":181,"tY":340,"tags":{"access":"yes","addr:city":"Lake Louise","addr:province":"AB","addr:street":"Fairview Road","capacity":"189","capacity:caravans":"189","caravans":"yes","description":"Only hard sided vehicles are permitted. Tents are not permitted.","drinking_water":"yes","fee":"yes","informal":"no","internet_access":"unknown","large_vehicles":"yes","maxlength":"22","mobile_reception":"unknown","name":"Lake Louise Hardsided Campground","operator":"Parks Canada","reservation":"recommended","shower":"yes","tents":"no","toilets":"yes","water_point":"unknown","website":"https://parks.canada.ca/pn-np/ab/banff/activ/camping#lakelouisehard"}},"301608536":{"location":[51.4157666,-116.2142899],"ct":"CA","tp":"PK","ts":"2023-09-23T16:19:11Z","tX":181,"tY":340,"tags":{"bus":"yes","car":"no","caravan":"yes","parking":"surface","trailer":"yes"}},"3624034785":{"location":[51.4159487,-116.0543769],"ct":"CA","tp":"CS","ts":"2024-03-27T21:53:34Z","tX":181,"tY":340,"tags":{"backcountry":"yes","fixme":"Needs verification","source":"NRCan-CanVec-10.0"}},"3624042732":{"location":[51.4755888,-116.099489],"ct":"CA","tp":"CS","ts":"2020-07-22T02:08:05Z","tX":181,"tY":340,"tags":{"name":"Hidden Lake","name:en":"Hidden Lake Campground - Sk5","source":"NRCan-CanVec-10.0"}},"3624044610":{"location":[51.493995,-116.033835],"ct":"CA","tp":"CS","ts":"2020-07-22T02:08:06Z","tX":181,"tY":340,"tags":{"backcountry":"yes","fee":"yes","name":"Baker Lake Camp Sk11","name:en":"Baker Lake Campground - Sk11","operator":"Parks Canada","source":"NRCan-CanVec-10.0"}},"3638189833":{"location":[51.5377009,-116.0430125],"ct":"CA","tp":"CS","ts":"2020-08-03T17:32:08Z","tX":181,"tY":340,"tags":{"name":"Red Deer Lakes SK19","name:en":"Red Deer Lakes Campground - Sk19","operator":"Parks Canada","source":"NRCan-CanVec-10.0"}},"3638195036":{"location":[51.5882335,-116.2008007],"ct":"CA","tp":"CS","ts":"2020-08-28T04:25:10Z","tX":181,"tY":340,"tags":{"backcountry":"yes","internet_access":"no","name":"Molar Creek Campground","operator":"Parks Canada","sanitary_dump_station":"no","source":"NRCan-CanVec-10.0","tents":"yes","wheelchair":"no"}},"4293978188":{"location":[51.5806701,-116.3321759],"ct":"CA","tp":"CS","ts":"2024-03-27T21:54:40Z","tX":181,"tY":340,"tags":{"backcountry":"yes","fixme":"Needs verification","source":"NRCan-CanVec-10.0"}},"5533916659":{"location":[51.5306126,-116.0869738],"ct":"CA","tp":"CS","ts":"2020-07-22T02:08:07Z","tX":181,"tY":340,"tags":{"name":"merlin meadows sk18","name:en":"Merlin Meadows Campground - Sk18","reservation":"required","website":"https://reservation.pc.gc.ca/Banff,KootenayandYohoBackcountry?Map"}},"5941588386":{"location":[51.5298178,-116.0864732],"ct":"CA","tp":"CS","ts":"2018-10-01T00:42:19Z","tX":181,"tY":340,"tags":{"name":"Merlin Meadows Campground"}},"12290676657":{"location":[51.4177926,-116.1734234],"ct":"CA","tp":"CS","ts":"2024-10-26T20:07:52Z","tX":181,"tY":340,"tags":{"addr:city":"Lake Louise","addr:housenumber":"131","addr:province":"AB","addr:street":"Fairview Road","operator":"Parks Canada"}},"4341498308":{"location":[51.414291,-116.1718782],"ct":"CA","tp":"SD","ts":"2024-10-28T05:11:45Z","tX":181,"tY":340,"tags":{"access":"customers"}}}