{"114625901":{"location":[32.8421765,-116.2260391],"ct":"US","tp":"CS","ts":"2023-03-30T16:42:23Z","tX":181,"tY":413,"tags":{"fee":"yes","name":"Bow Willow Creek Campground","note":"This campsite has ramadas over each official site"}},"669643549":{"location":[32.7306372,-116.2754452],"ct":"US","tp":"CS","ts":"2019-02-11T08:05:24Z","tX":181,"tY":413,"tags":{"name":"Lark Canyon Campground","operator":"BLM"}},"2377574748":{"location":[32.8003465,-116.3388184],"ct":"US","tp":"CS","ts":"2023-03-14T04:09:46Z","tX":181,"tY":413,"tags":{"camp_site":"basic","drinking_water":"no","fee":"yes","impromptu":"yes","name":"Cottonwood Campground","openfire":"yes","operator":"Bureau of Land Management","picnic_table":"yes","reservation":"no","website":"https://www.blm.gov/visit/cottonwood-campground"}},"5470381221":{"location":[32.6257907,-116.0963479],"ct":"US","tp":"CS","ts":"2019-06-24T21:47:41Z","tX":181,"tY":413,"tags":{"name":"Elliot Mine Area Dispersed Camping"}},"10735980621":{"location":[32.7278133,-116.2736052],"ct":"US","tp":"CS","ts":"2023-03-14T22:30:36Z","tX":181,"tY":413,"tags":{"name":"Lark Canyon Campground","operator":"BLM"}},"12372577420":{"location":[32.6525639,-116.1865731],"ct":"US","tp":"CR","ts":"2024-11-24T23:22:45Z","tX":181,"tY":413,"tags":{"addr:city":"Jacumba Hot Springs","addr:housenumber":"1951","addr:postcode":"91934","addr:state":"CA","addr:street":"Carrizo Gorge Rd","leisure":"resort","name":"DeAnza Springs Resort","website":"https://deanzasprings.com/"}}}