{"798644244":{"location":[8.8971556,76.6659992],"ct":"IN","tp":"CR","ts":"2020-09-14T10:04:56Z","tX":730,"tY":486,"tags":{}},"799163753":{"location":[9.091997,76.6830963],"ct":"IN","tp":"CS","ts":"2020-05-02T16:30:55Z","tX":730,"tY":486,"tags":{"name":"Panchayat stadium"}},"11430194472":{"location":[8.9593102,76.8089096],"ct":"IN","tp":"CS","ts":"2023-12-19T01:16:21Z","tX":730,"tY":486,"tags":{"addr:city":"Kollam","addr:district":"Kollam","addr:housenumber":"Anaswara activity group","addr:street":"Anaswara, ambalakkara po","group_only":"yes","name":"Anaswara activity group","operator":"microenterprises"}},"11435929652":{"location":[8.975268,76.8286512],"ct":"IN","tp":"CS","ts":"2023-12-20T23:53:21Z","tX":730,"tY":486,"tags":{"addr:city":"Kollam","addr:district":"Kollam","addr:housenumber":"Kavya activity group","addr:street":"Kavya, panaveli","group_only":"yes","name":"Kavya activity group"}},"11441810061":{"location":[9.0154616,76.8407042],"ct":"IN","tp":"CS","ts":"2023-12-22T00:39:06Z","tX":730,"tY":486,"tags":{"addr:city":"Kollam","addr:district":"Kollam","addr:housenumber":"Haritham harithakarmasena","addr:street":"Haritham, melila po","group_only":"yes","name":"Haritham harithakarmasena","operator":"microenterprises"}},"11643329611":{"location":[8.8414221,76.6847361],"ct":"IN","tp":"CS","ts":"2024-02-20T01:35:35Z","tX":730,"tY":486,"tags":{"addr:city":"Kollam","addr:district":"Kollam","addr:housenumber":"Anusree acitivity grop","addr:street":"Nedugolam","group_only":"yes","name":"Anusree acitivity grop"}},"11654993849":{"location":[9.0208508,76.9208855],"ct":"IN","tp":"CS","ts":"2024-02-23T01:41:53Z","tX":730,"tY":486,"tags":{"addr:city":"Kollam","addr:district":"Kollam","addr:housenumber":"Sreshtta hks group","addr:street":"VilakkuvettamPunalur","group_only":"yes","name":"Sreshtta hks group"}},"11654993851":{"location":[9.0208455,76.9209271],"ct":"IN","tp":"CS","ts":"2024-02-23T01:41:53Z","tX":730,"tY":486,"tags":{"addr:city":"Kollam","addr:district":"Kollam","addr:housenumber":"Thiruvathira hks group","addr:street":"ParavettamPunalur","group_only":"yes","name":"Thiruvathira hks group"}},"11654993853":{"location":[9.0207532,76.9208962],"ct":"IN","tp":"CS","ts":"2024-02-23T01:41:53Z","tX":730,"tY":486,"tags":{"addr:city":"Kollam","addr:district":"Kollam","addr:housenumber":"Kasthoorba cleaning unit","addr:street":"Kasthoorba cleaning unitTown","group_only":"yes","name":"Kasthoorba cleaning unit"}}}