{"1065156078":{"location":[23.6049477,90.0897801],"ct":"BD","tp":"CS","ts":"2022-05-30T12:56:52Z","tX":768,"tY":442,"tags":{"access":"yes","addr:city":"Dhaka","addr:postcode":"1330","addr:street":"Hajarbigha, Char Mohammad Pur, Dohar","capacity:persons":"100","name":"GoCamp - Dohar Campsite","operator":"GoCamp"}},"4748916129":{"location":[23.8615475,90.3492359],"ct":"BD","tp":"CS","ts":"2017-03-22T14:04:54Z","tX":768,"tY":442,"tags":{"addr:street":"N 501","name:en":"DBL LAND","opening_hours":"24/7","operator":"DBL GROUP"}},"9782031423":{"location":[23.6050091,90.0897761],"ct":"BD","tp":"CS","ts":"2022-05-30T12:58:31Z","tX":768,"tY":442,"tags":{"access":"yes","addr:city":"Dhaka","addr:postcode":"1330","addr:street":"Hajarbigha, Char Mohammadpur, Dohar","capacity:persons":"100","name":"GoCamp - Dohar Campsite and Activity Zone","operator":"GoCamp"}},"9810634664":{"location":[23.8608683,90.2601311],"ct":"BD","tp":"SD","ts":"2024-04-30T06:16:25Z","tX":768,"tY":442,"tags":{"fee":"no","name":"Kashem Sanetary"}},"9810704944":{"location":[23.847582,90.2561173],"ct":"BD","tp":"SD","ts":"2022-06-11T11:58:29Z","tX":768,"tY":442,"tags":{"name":"Saown Sanetary"}},"9810727185":{"location":[23.8474398,90.2561844],"ct":"BD","tp":"SD","ts":"2022-06-11T11:58:31Z","tX":768,"tY":442,"tags":{"name":"Bosundhara Sanetary"}}}