{"983242966":{"location":[13.2298299,123.7450232],"ct":"PH","tp":"CS","ts":"2013-02-15T06:32:14Z","tX":863,"tY":474,"tags":{"name":"Mayon Volcano Camp Site"}},"1118484018":{"location":[13.1284857,123.7148361],"ct":"PH","tp":"CS","ts":"2022-11-30T23:34:34Z","tX":863,"tY":474,"tags":{}},"2294691438":{"location":[13.2239208,123.7315332],"ct":"PH","tp":"CS","ts":"2018-02-24T10:13:24Z","tX":863,"tY":474,"tags":{"addr:city":"Legazpi City","addr:postcode":"4500","addr:street":"Lidong Trail","ele":"250","name":"AJâ€™s Mayon Basecamp","source":"Schadow1 Expeditions"}},"2294691439":{"location":[13.2380989,123.7102681],"ct":"PH","tp":"CS","ts":"2013-05-07T13:20:14Z","tX":863,"tY":474,"tags":{"addr:city":"Legazpi City","addr:postcode":"4500","addr:street":"Lidong Trail","ele":"700","name":"Mayon Camp 1","source":"Schadow1 Expeditions"}},"4423726992":{"location":[12.9715901,123.5065108],"ct":"PH","tp":"CS","ts":"2025-05-30T19:11:04Z","tX":863,"tY":474,"tags":{"addr:place":"Nabasan","name:en":"Milaos Cave"}},"6174440685":{"location":[13.1618224,123.6020851],"ct":"PH","tp":"CS","ts":"2018-12-31T08:13:48Z","tX":863,"tY":474,"tags":{"name":"La Hacienda"}},"11007267811":{"location":[13.1702105,123.6654491],"ct":"PH","tp":"CS","ts":"2024-06-29T16:09:33Z","tX":863,"tY":474,"tags":{"name":"Quituinan Ranch"}}}