{"4575139093":{"location":[9.8689153,123.4695979],"ct":"PH","tp":"CS","ts":"2019-02-01T17:42:06Z","tX":863,"tY":483,"tags":{"addr:postcode":"6022","addr:street":"Maloray, Dalaguete, Cebu","name":"Kandungaw Peak and Cave","name:en":"Kandungaw Peak and Cave"}},"4637126099":{"location":[10.016424,123.4082435],"ct":"PH","tp":"CS","ts":"2017-01-27T09:44:16Z","tX":863,"tY":483,"tags":{"name":"Ligo kasadya ronda","name:en":"Ligo kasadya ronda"}},"4638956490":{"location":[10.0360314,123.4111668],"ct":"PH","tp":"CS","ts":"2017-01-28T03:22:09Z","tX":863,"tY":483,"tags":{"name":"Ligo camboang","name:en":"Ligo camboang"}},"5698124122":{"location":[10.0141421,123.5712668],"ct":"PH","tp":"CS","ts":"2018-06-18T03:18:27Z","tX":863,"tY":483,"tags":{"name":"Camp Bato"}},"5997785656":{"location":[9.8204092,123.4430826],"ct":"PH","tp":"CS","ts":"2018-10-19T11:06:48Z","tX":863,"tY":483,"tags":{"name":"OPeak campsite"}},"9397999121":{"location":[9.9537422,123.4005416],"ct":"PH","tp":"CS","ts":"2022-01-06T23:13:31Z","tX":863,"tY":483,"tags":{"addr:city":"Moalboal","addr:city:es":"Moalboal","addr:postcode":"6032","name":"Cabañas Nipa y Acampada de Moalboal","name:es":"Cabañas Nipa y Acampada de Moalboal"}},"7068377685":{"location":[9.9172867,123.594756],"ct":"PH","tp":"CR","ts":"2019-12-19T02:38:45Z","tX":863,"tY":483,"tags":{"name":"Saquilabons Residence"}}}