{"1912457595":{"location":[41.1960077,47.8863442],"ct":"AZ","tp":"CS","ts":"2012-09-13T12:42:04Z","tX":648,"tY":383,"tags":{"name":"Camp 2","note":"unofficial"}},"11624313423":{"location":[41.2444537,47.8690356],"ct":"RU","tp":"CS","ts":"2024-02-14T20:17:51Z","tX":648,"tY":383,"tags":{}},"5713592986":{"location":[41.2022542,48.1394723],"ct":"AZ","tp":"CS","ts":"2020-07-10T21:31:50Z","tX":648,"tY":383,"tags":{"name:en":"Basecamp for mountain trek"}},"6669624000":{"location":[41.1894282,48.1466925],"ct":"AZ","tp":"CS","ts":"2020-07-10T21:31:50Z","tX":648,"tY":383,"tags":{"name:en":"perfect place for tent, clean water close","name:fr":"endroit parfait pour camper, eau propre à proximité"}},"6917987585":{"location":[40.9877996,47.9522182],"ct":"AZ","tp":"CS","ts":"2019-10-26T10:29:03Z","tX":648,"tY":383,"tags":{"name:en":"Vendam Camp"}},"9033724417":{"location":[41.0026353,47.8707665],"ct":"AZ","tp":"CS","ts":"2021-08-25T04:43:15Z","tX":648,"tY":383,"tags":{"name:en":"Place for a tent","name:ru":"Место для палатки"}}}