{"101950563":{"location":[46.6506945,-71.8239431],"ct":"CA","tp":"CS","ts":"2022-04-18T14:17:05Z","tX":307,"tY":361,"tags":{"name":"Camping Belle-Vue","source":"NRCan-CanVec-7.0"}},"101952946":{"location":[46.6873047,-71.9058527],"ct":"CA","tp":"CS","ts":"2024-06-03T23:25:36Z","tX":307,"tY":361,"tags":{"addr:housenumber":"464","addr:street":"Route François-Gignac","caravans":"yes","name":"Camping Panoramique","operator":"Parkbridge Lifestyle Communities Inc.","source":"NRCan-CanVec-7.0","tents":"yes"}},"1043115601":{"location":[46.5728356,-71.9965108],"ct":"CA","tp":"CR","ts":"2022-03-23T19:26:31Z","tX":307,"tY":361,"tags":{"addr:city":"Leclercville","addr:housenumber":"8008","addr:street":"Route Marie-Victorin","name":"Camping municipal Leclercville"}},"1043115617":{"location":[46.6178307,-71.9336682],"ct":"CA","tp":"CR","ts":"2022-03-23T19:26:31Z","tX":307,"tY":361,"tags":{"name":"Halte Camping Lotbinière"}},"9589935344":{"location":[46.6896425,-72.0606467],"ct":"CA","tp":"SD","ts":"2022-03-19T13:43:53Z","tX":307,"tY":361,"tags":{}}}