{"99263962":{"location":[45.801559,-71.8834867],"ct":"CA","tp":"CS","ts":"2020-12-18T12:59:48Z","tX":307,"tY":365,"tags":{"source":"NRCan-CanVec-7.0"}},"99336160":{"location":[45.7556744,-72.0664157],"ct":"CA","tp":"CS","ts":"2022-03-24T20:39:24Z","tX":307,"tY":365,"tags":{"addr:city":"Danville","addr:housenumber":"152","addr:street":"Chemin Scotch Hill","name":"Camping Mont Scotch Hill","source":"NRCan-CanVec-7.0"}},"833167557":{"location":[45.8005028,-71.9153333],"ct":"CA","tp":"CS","ts":"2022-03-24T20:21:05Z","tX":307,"tY":365,"tags":{"addr:city":"Val-des-Sources","addr:housenumber":"100","addr:street":"Rue Dusseault","name":"Camping De L'Oiseau Bleu","source":"NRCan-CanVec-7.0"}},"838991667":{"location":[45.5975439,-71.9248221],"ct":"CA","tp":"CS","ts":"2022-03-24T20:39:24Z","tX":307,"tY":365,"tags":{"addr:street":"Chemin Saint-Pierre","name":"Camping Des Baies","source":"CanVec 6.0 - NRCan"}},"1038045996":{"location":[45.753598,-71.7642235],"ct":"CA","tp":"CS","ts":"2022-03-22T10:56:21Z","tX":307,"tY":365,"tags":{"addr:city":"Wotton","addr:housenumber":"32","addr:street":"16e Rang","name":"Camping de la rivi√®re Nicolet"}},"1148019326":{"location":[45.7773915,-71.906149],"ct":"CA","tp":"CS","ts":"2024-11-06T15:09:24Z","tX":307,"tY":365,"tags":{"source":"NRCan-CanVec-7.0"}},"12290144636":{"location":[45.7849111,-72.0222628],"ct":"CA","tp":"SD","ts":"2024-10-26T13:12:01Z","tX":307,"tY":365,"tags":{}}}