{"1129051732":{"location":[44.9530499,-71.8984301],"ct":"US","tp":"CS","ts":"2023-01-10T04:41:57Z","tX":307,"tY":368,"tags":{"access":"yes","addr:city":"Norton","addr:housenumber":"2457","addr:postcode":"05907","addr:state":"VT","addr:street":"Hurricane Brook Road","backcountry":"yes","description":"Camping area allowed only during big game hunting season.","name":"Ben Cole Clearing","ref:vcgi:esiteid":"800162","seasonal":"yes","source":"esri/Vermont_US_Addresses"}},"1129051749":{"location":[44.9568694,-71.899502],"ct":"US","tp":"CS","ts":"2023-01-10T16:29:00Z","tX":307,"tY":368,"tags":{"access":"yes","area":"yes","backcountry":"yes","description":"Camping area allowed only during big game hunting season.","name":"Ben Cole Camp","seasonal":"yes"}},"10972095448":{"location":[44.8412496,-72.0249508],"ct":"US","tp":"CS","ts":"2023-06-12T21:13:13Z","tX":307,"tY":368,"tags":{"addr:housenumber":"466","addr:street":"Center School Road","name":"Clyde River Camping","website":"http://www.clyderivercamping.com/"}},"10975282304":{"location":[44.8755655,-72.0516],"ct":"US","tp":"CR","ts":"2023-06-14T00:30:59Z","tX":307,"tY":368,"tags":{"access":"private","addr:housenumber":"2836","addr:street":"Vermont Route 105"}},"10975555605":{"location":[44.8753961,-72.0515722],"ct":"US","tp":"CR","ts":"2023-06-14T00:30:59Z","tX":307,"tY":368,"tags":{"access":"private","addr:housenumber":"2840","addr:street":"Vermont Route 105"}},"10975555608":{"location":[44.8750752,-72.0515927],"ct":"US","tp":"CR","ts":"2023-06-14T00:30:59Z","tX":307,"tY":368,"tags":{"access":"private","addr:housenumber":"2856","addr:street":"Vermont Route 105"}}}