{"17974369":{"location":[44.7978966,-71.8529426],"ct":"US","tp":"CS","ts":"2024-08-25T23:45:53Z","tX":307,"tY":369,"tags":{"backcountry":"no","caravans":"yes","ele":"358","gnis:feature_id":"1460363","name":"Brighton State Park Campground","operator":"Vermont State Parks","reservation":"recommended","tents":"yes"}},"507770681":{"location":[44.7164725,-72.0291041],"ct":"US","tp":"CS","ts":"2022-08-15T13:56:29Z","tX":307,"tY":369,"tags":{"name":"White Caps Campground"}},"1101686187":{"location":[44.8085291,-71.8615721],"ct":"US","tp":"CS","ts":"2023-09-08T23:18:28Z","tX":307,"tY":369,"tags":{"addr:housenumber":"1348","addr:street":"East Brighton Road","name":"Lakeside Camping"}},"1101686229":{"location":[44.617356,-71.9707591],"ct":"US","tp":"CS","ts":"2022-10-07T10:20:20Z","tX":307,"tY":369,"tags":{"addr:city":"Burke","addr:housenumber":"2316","addr:street":"Lynburke Road","name":"Burke Cottage Rentals & Campground"}},"8085588011":{"location":[44.7966577,-71.854504],"ct":"US","tp":"SD","ts":"2020-11-05T17:23:12Z","tX":307,"tY":369,"tags":{}}}