{"631441460":{"location":[43.1908829,-71.7719324],"ct":"US","tp":"CS","ts":"2024-05-06T14:10:49Z","tX":307,"tY":375,"tags":{"access":"customers","addr:city":"Henniker","addr:housenumber":"479","addr:postcode":"03242","addr:state":"NH","addr:street":"Old W Hopkinton Road","capacity":"130","internet_access":"wlan","name":"Spacious Skies / French Pond campground","operator":"Spacious Skies","phone":"+1-800-787-4679"}},"1320447415":{"location":[43.1786945,-71.7599447],"ct":"US","tp":"CR","ts":"2024-10-03T18:49:12Z","tX":307,"tY":375,"tags":{}},"5955866122":{"location":[43.1894933,-71.7721014],"ct":"US","tp":"CS","ts":"2024-05-06T14:10:49Z","tX":307,"tY":375,"tags":{"addr:city":"Henniker","addr:housenumber":"479","addr:postcode":"03242","addr:state":"NH","addr:street":"Old W Hopkinton Road","internet_access":"yes","name":"Spacious Skies French Pond","operator":"Spacious Skies","website":"https://spaciousskiescampgrounds.com/french-pond/"}},"9150196604":{"location":[43.2151244,-71.7723586],"ct":"US","tp":"CS","ts":"2021-10-05T22:11:08Z","tX":307,"tY":375,"tags":{"addr:city":"Contoocook","addr:housenumber":"329","addr:postcode":"03229","addr:state":"NH","addr:street":"Camp Merrimac Road","fee":"yes","group_only":"yes","name":"Saint Methodios Faith and Heritage Center","reservation":"required","wikidata":"Q7590636","wikipedia":"en:St. Methodios Faith and Heritage Center"}}}