{"965292308":{"location":[42.9753762,-71.7251726],"ct":"US","tp":"CS","ts":"2021-07-18T03:21:52Z","tX":307,"tY":376,"tags":{"access":"customers","addr:city":"New Boston","addr:housenumber":"88","addr:postcode":"03070","addr:state":"NH","addr:street":"Cochran Hill Road","capacity":"288","fee":"yes","name":"Friendly Beaver Campground"}},"1024695185":{"location":[42.8701715,-72.0549497],"ct":"US","tp":"CS","ts":"2023-05-26T06:06:33Z","tX":307,"tY":376,"tags":{"access":"permissive","addr:city":"Dublin","addr:housenumber":"642","addr:postcode":"03444","addr:state":"NH","addr:street":"Upper Jaffrey Road","internet_access":"wlan","internet_access:fee":"customers","name":"Camp Wanocksett","openfire":"yes","operator":"Heart of New England Council","reservation":"required","shower":"yes","source":"local knowledge","toilets":"yes","website":"https://campwanocksett.org"}},"1024695194":{"location":[42.8658399,-72.0565803],"ct":"US","tp":"CS","ts":"2022-01-26T00:56:08Z","tX":307,"tY":376,"tags":{"access":"permissive","group_only":"yes","name":"CIT Village","operator":"Heart of New England Council"}},"1305717713":{"location":[42.8634969,-72.0629846],"ct":"US","tp":"CS","ts":"2011-10-16T23:47:17Z","tX":307,"tY":376,"tags":{"name":"Mt Monadnock State Park Campground"}},"9580659199":{"location":[42.9841352,-71.9784953],"ct":"US","tp":"CS","ts":"2022-03-16T06:21:59Z","tX":307,"tY":376,"tags":{"addr:city":"Hancock","addr:housenumber":"24","addr:postcode":"03449","addr:state":"NH","addr:street":"Longview Road","description":"Folded into the lowland hills of the watershed of the navigable Merrimack River sits tranquil Spacious Skies Seven Maples.","name":"Spacious Skies Campgrounds - Seven Maples","opening_hours":"Mo-Fr 09:00-18:00","phone":"+1-603-525-3321","website":"https://campatsevenmaples.com"}}}