{"13333940":{"location":[41.9544076,-71.8121145],"ct":"US","tp":"CS","ts":"2024-06-02T04:44:41Z","tX":307,"tY":380,"tags":{"ele":"138","gnis:feature_id":"210034","leisure":"nature_reserve","name":"Quaddick State Park","operator":"Connecticut Department of Energy and Environmental Protection","ownership":"state","park:type":"state_park","source":"CT Department of Environmental Protection shapefile","source_ref":"http://www.ct.gov/dep/cwp/view.asp?a=2698&q=322898&depNav_GID=1707","wikidata":"Q14715099","wikipedia":"en:Quaddick State Park"}},"879297607":{"location":[41.9715529,-72.0571848],"ct":"US","tp":"CS","ts":"2023-11-11T16:19:04Z","tX":307,"tY":380,"tags":{"addr:city":"Woodstock","addr:housenumber":"1379","addr:postcode":"06281","addr:state":"CT","addr:street":"Old Turnpike Road","name":"Chamberlain Lake Campground","phone":"+1 860 974 0567","website":"http://www.chamberlainlakecampground.net"}},"952493658":{"location":[41.8755731,-72.0307565],"ct":"US","tp":"CS","ts":"2024-11-24T02:46:43Z","tX":307,"tY":380,"tags":{"leisure":"nature_reserve","name":"Windham County 4H Camp"}},"966070560":{"location":[41.8533126,-71.8142678],"ct":"US","tp":"CR","ts":"2021-12-24T21:25:29Z","tX":307,"tY":380,"tags":{"addr:city":"Killingly","addr:housenumber":"1060","addr:postcode":"06243","addr:state":"CT","addr:street":"North Road","name":"Hide-Away-Cove Family Campground","phone":"+1 860 774 1128","website":"https://hide-away-cove.squarespace.com"}},"992023108":{"location":[41.8498659,-71.9674605],"ct":"US","tp":"CS","ts":"2021-10-11T18:50:57Z","tX":307,"tY":380,"tags":{"camp_site":"standard","caravans":"yes","drinking_water":"yes","name":"Wolf Den Campground","openfire":"yes","operator":"Connecticut Department of Energy and Environmental Protection","shower":"hot","tents":"yes","toilets":"yes","website":"https://portal.ct.gov/DEEP/State-Parks/Parks/Mashamoquet-Brook-State-Park/Camping"}},"1095773776":{"location":[42.0206809,-72.0550566],"ct":"US","tp":"CS","ts":"2024-06-02T04:57:15Z","tX":307,"tY":380,"tags":{"addr:city":"Woodstock","addr:housenumber":"65","addr:postcode":"06281","addr:state":"CT","addr:street":"Ide Perrin Road","ele":"243","email":"solair@solairrl.com","gnis:feature_id":"1924749","leisure":"nature_reserve","name":"Solair Recreation League","nudism":"yes","phone":"+1 860 928 9174","website":"https://www.solairrl.com","wikidata":"Q31823482"}},"2140964052":{"location":[41.9696889,-71.7822219],"ct":"US","tp":"CS","ts":"2013-12-06T22:20:05Z","tX":307,"tY":380,"tags":{"name":"Narragansett Council, Boy Scouts of America, Cub World"}},"3283895170":{"location":[41.9217544,-71.7554568],"ct":"US","tp":"CS","ts":"2015-01-12T14:46:03Z","tX":307,"tY":380,"tags":{"name":"George Washington State Campground"}}}