{"13145088":{"location":[41.5352645,-71.9538459],"ct":"US","tp":"CR","ts":"2023-11-09T14:48:08Z","tX":307,"tY":381,"tags":{"addr:city":"Preston","addr:housenumber":"42","addr:postcode":"06365","addr:state":"CT","addr:street":"Pierce Road","description":"Private, Open To Public With Fee","email":"camp@strawberrypark.net","magic:CATEGORY":"General Recreation","name":"Strawberry Park","phone":"+1 860 886 1944","website":"https://www.strawberrypark.net","wikidata":"Q7622464","wikipedia":"en:Strawberry Park"}},"13145089":{"location":[41.5535137,-72.0182646],"ct":"US","tp":"CR","ts":"2023-11-07T16:48:51Z","tX":307,"tY":381,"tags":{"addr:city":"Preston","addr:housenumber":"47","addr:postcode":"06365","addr:state":"CT","addr:street":"River Road","name":"Hidden Acres Family Campground","phone":"860-887-9633","website":"https://www.hiddenacrescamp.com/"}},"43442042":{"location":[41.5104539,-71.9745162],"ct":"US","tp":"CR","ts":"2021-08-29T21:56:27Z","tX":307,"tY":381,"tags":{"description":"Private, Open To Public With Fee","magic:CATEGORY":"General Recreation","name":"Amos Lake Campground","source":"University of Connecticut (http://magic.lib.uconn.edu/connecticut_data.html)"}},"380396805":{"location":[41.7572571,-71.7526746],"ct":"US","tp":"CR","ts":"2015-11-15T14:24:56Z","tX":307,"tY":381,"tags":{"addr:city":"Foster","addr:housenumber":"7","addr:postcode":"02825","addr:street":"Harrington Road","name":"Ginny-B Campground","phone":"+1 401 397 9477","website":"http://ginny-bcampground.com/"}},"911886938":{"location":[41.5632692,-71.886944],"ct":"US","tp":"CS","ts":"2021-02-28T17:09:51Z","tX":307,"tY":381,"tags":{"addr:city":"Griswold","addr:housenumber":"75","addr:postcode":"06351","addr:state":"CT","addr:street":"Cook Hill Road","name":"Countryside RV Park","phone":"+1 860 376 0029","website":"https://www.countrysidervcamp.com"}},"912115985":{"location":[41.5488881,-71.9007842],"ct":"US","tp":"CS","ts":"2021-06-16T20:21:30Z","tX":307,"tY":381,"tags":{"access":"private","addr:city":"Griswold","addr:housenumber":"262","addr:postcode":"06351","addr:state":"CT","addr:street":"Shetucket Turnpike","email":"BenW@westfordmgt.com","name":"Pachaug Marina and Campground","phone":"+1 860 207 4017","website":"http://www.pachaugmarina.net"}},"946183267":{"location":[41.6214496,-71.9847658],"ct":"US","tp":"CS","ts":"2024-11-24T02:46:43Z","tX":307,"tY":381,"tags":{"addr:city":"Lisbon","addr:housenumber":"170","addr:postcode":"06351","addr:state":"CT","addr:street":"Ross Hill Road","caravans":"yes","email":"rosshill@rosshillpark.com","fax":"+1 860 376 4806","leisure":"nature_reserve","name":"Ross Hill Park Family Campground","phone":"+1 860 376 9606","tents":"yes","website":"https://www.rosshillpark.com/"}},"952825549":{"location":[41.6891211,-71.8079605],"ct":"US","tp":"CS","ts":"2024-11-24T02:46:43Z","tX":307,"tY":381,"tags":{"leisure":"nature_reserve","name":"River's Edge Campground"}},"1009528134":{"location":[41.5930154,-71.8692427],"ct":"US","tp":"CS","ts":"2021-12-06T07:54:04Z","tX":307,"tY":381,"tags":{"name":"Mount Misery Campground"}},"1025033388":{"location":[41.509109,-71.8698614],"ct":"US","tp":"CS","ts":"2024-12-02T23:47:51Z","tX":307,"tY":381,"tags":{"addr:city":"Griswold","addr:housenumber":"207","addr:postcode":"06451","addr:state":"CT","addr:street":"Coal Pit Hill Road","leisure":"nature_reserve","name":"Camp Wightman","operator":"American Baptist Churches of Connecticut","website":"https://www.campwightman.org"}},"1095773777":{"location":[41.7451529,-71.7970535],"ct":"US","tp":"CS","ts":"2022-09-19T02:02:14Z","tX":307,"tY":381,"tags":{"addr:city":"Sterling","addr:housenumber":"131","addr:postcode":"06377","addr:state":"CT","addr:street":"Calvin French Road","email":"sunridge1@hotmail.com","leisure":"nature_reserve","name":"Sun Ridge Resort","nudism":"yes","phone":"+1 860 779 1512","website":"https://sunridgeresortct.com"}},"1236153984":{"location":[41.5924366,-72.0265753],"ct":"US","tp":"CS","ts":"2024-01-02T09:59:08Z","tX":307,"tY":381,"tags":{"email":"camp@sunfoxcampground.com","leisure":"nature_reserve","name":"Sunfox Campground","operator":"Sunfox Campground LLC","phone":"+1 860 376 1081","website":"https://sunfoxcampground.com/"}},"1245729061":{"location":[41.6058976,-71.933021],"ct":"US","tp":"CS","ts":"2024-02-03T02:03:04Z","tX":307,"tY":381,"tags":{"addr:city":"Griswold","addr:housenumber":"28","addr:postcode":"06351","addr:state":"CT","addr:street":"Nowakowski Road","email":"tim@educationworks.com","leisure":"nature_reserve","name":"Camper's World at Hopeville Pond","phone":"+1 860 245 1882","website":"https://www.campersworldcampground.com/"}},"1380138837":{"location":[41.5289341,-71.7408608],"ct":"US","tp":"CR","ts":"2025-04-23T00:33:46Z","tX":307,"tY":381,"tags":{"addr:city":"Hope Valley","addr:housenumber":"41","addr:postcode":"02832","addr:state":"RI","addr:street":"Saw Mill Road","name":"Whispering Pines Campground","website":"https://whisperingpinescamping.com/"}},"3837336137":{"location":[41.7676756,-71.7466742],"ct":"US","tp":"CS","ts":"2021-07-11T16:38:04Z","tX":307,"tY":381,"tags":{"access":"private","addr:city":"Foster","addr:housenumber":"114","addr:postcode":"02825","addr:street":"Johnson Road","name":"Dyer Woods Nudist Campgrounds","phone":"+1 401 397 3007","website":"http://www.dyerwoodscampground.com/"}},"5316305634":{"location":[41.6058307,-71.8657262],"ct":"US","tp":"CS","ts":"2021-12-06T07:54:04Z","tX":307,"tY":381,"tags":{"name":"Frog Hollow Horse Camp"}},"12874023358":{"location":[41.5199868,-71.7787242],"ct":"US","tp":"CS","ts":"2025-05-29T20:25:48Z","tX":307,"tY":381,"tags":{"group_only":"yes","name":"Frontier"}},"12874023359":{"location":[41.5196583,-71.7787095],"ct":"US","tp":"CS","ts":"2025-05-29T20:25:48Z","tX":307,"tY":381,"tags":{"group_only":"yes","name":"Santa Fe"}},"12874023360":{"location":[41.5193222,-71.7785841],"ct":"US","tp":"CS","ts":"2025-05-29T20:25:48Z","tX":307,"tY":381,"tags":{"group_only":"yes","name":"Tuocs"}},"12874023373":{"location":[41.5189298,-71.777055],"ct":"US","tp":"CS","ts":"2025-05-29T20:25:48Z","tX":307,"tY":381,"tags":{"group_only":"yes","name":"Sleepy Hollow"}},"12874023412":{"location":[41.5168519,-71.7811533],"ct":"US","tp":"CS","ts":"2025-05-29T20:25:48Z","tX":307,"tY":381,"tags":{"group_only":"yes","name":"Donald Dewing"}},"12874023413":{"location":[41.5157593,-71.7807172],"ct":"US","tp":"CS","ts":"2025-05-29T20:25:48Z","tX":307,"tY":381,"tags":{"group_only":"yes","name":"Wells Fargo"}},"12874023414":{"location":[41.5170664,-71.7789719],"ct":"US","tp":"CS","ts":"2025-05-29T20:25:48Z","tX":307,"tY":381,"tags":{"group_only":"yes","name":"Musketeer"}},"12874023415":{"location":[41.5161581,-71.7786899],"ct":"US","tp":"CS","ts":"2025-05-29T20:25:48Z","tX":307,"tY":381,"tags":{"group_only":"yes","name":"Forty-Niner"}},"12874023416":{"location":[41.5169191,-71.7795466],"ct":"US","tp":"CS","ts":"2025-05-29T20:25:48Z","tX":307,"tY":381,"tags":{"group_only":"yes","name":"Edward Bannister"}},"12874023421":{"location":[41.5173972,-71.7778309],"ct":"US","tp":"CS","ts":"2025-05-29T20:25:48Z","tX":307,"tY":381,"tags":{"group_only":"yes","name":"Oak Ridge"}},"12874023422":{"location":[41.5169742,-71.7782967],"ct":"US","tp":"CS","ts":"2025-05-29T20:25:48Z","tX":307,"tY":381,"tags":{"group_only":"yes","name":"Pioneer"}},"12874023434":{"location":[41.5157396,-71.7778155],"ct":"US","tp":"CS","ts":"2025-05-29T20:25:48Z","tX":307,"tY":381,"tags":{"group_only":"yes","name":"Paul Slade"}},"12874023435":{"location":[41.5152792,-71.7768522],"ct":"US","tp":"CS","ts":"2025-05-29T20:25:48Z","tX":307,"tY":381,"tags":{"group_only":"yes","name":"Zuccolo"}},"12874023436":{"location":[41.514813,-71.7776659],"ct":"US","tp":"CS","ts":"2025-05-29T20:25:48Z","tX":307,"tY":381,"tags":{"group_only":"yes","name":"Street"}},"12874023437":{"location":[41.5147299,-71.7767706],"ct":"US","tp":"CS","ts":"2025-05-29T20:25:48Z","tX":307,"tY":381,"tags":{"group_only":"yes","name":"Scott"}},"12874023496":{"location":[41.5217522,-71.7774139],"ct":"US","tp":"CS","ts":"2025-05-29T20:25:48Z","tX":307,"tY":381,"tags":{"group_only":"yes","name":"Sequan"}},"12874023529":{"location":[41.5210867,-71.7793178],"ct":"US","tp":"CS","ts":"2025-05-29T20:25:48Z","tX":307,"tY":381,"tags":{"group_only":"yes","name":"Weemat"}},"12874023530":{"location":[41.5213,-71.7794314],"ct":"US","tp":"CS","ts":"2025-05-29T20:25:48Z","tX":307,"tY":381,"tags":{"group_only":"yes","name":"Wuttah"}},"12874023531":{"location":[41.5215796,-71.7795346],"ct":"US","tp":"CS","ts":"2025-05-29T20:25:48Z","tX":307,"tY":381,"tags":{"group_only":"yes","name":"Netop"}},"12875929955":{"location":[41.5218921,-71.7791103],"ct":"US","tp":"CS","ts":"2025-05-30T19:30:45Z","tX":307,"tY":381,"tags":{"group_only":"yes","name":"Red Wing"}},"12875929956":{"location":[41.522322,-71.779253],"ct":"US","tp":"CS","ts":"2025-05-30T19:30:45Z","tX":307,"tY":381,"tags":{"group_only":"yes","name":"Wunegin"}},"12875929958":{"location":[41.5231085,-71.7777882],"ct":"US","tp":"CS","ts":"2025-05-30T19:30:45Z","tX":307,"tY":381,"tags":{"group_only":"yes","name":"Neimpaug"}},"12875929959":{"location":[41.5236053,-71.7778998],"ct":"US","tp":"CS","ts":"2025-05-30T19:30:45Z","tX":307,"tY":381,"tags":{"group_only":"yes","name":"Cautontowit"}},"12875929960":{"location":[41.5240348,-71.7781731],"ct":"US","tp":"CS","ts":"2025-05-30T19:30:45Z","tX":307,"tY":381,"tags":{"group_only":"yes","name":"Wetuomuck"}},"12875929963":{"location":[41.5251289,-71.7788306],"ct":"US","tp":"CS","ts":"2025-05-30T19:30:45Z","tX":307,"tY":381,"tags":{"group_only":"yes","name":"Donald Cady"}},"12875929964":{"location":[41.522861,-71.778763],"ct":"US","tp":"CS","ts":"2025-05-30T19:30:45Z","tX":307,"tY":381,"tags":{"group_only":"yes","name":"Minnikesu"}},"12875929965":{"location":[41.5233903,-71.7787384],"ct":"US","tp":"CS","ts":"2025-05-30T19:30:45Z","tX":307,"tY":381,"tags":{"group_only":"yes","name":"Manittoo"}},"12875929966":{"location":[41.5234688,-71.7792545],"ct":"US","tp":"CS","ts":"2025-05-30T19:30:45Z","tX":307,"tY":381,"tags":{"group_only":"yes","name":"Baden Powell"}},"12875929967":{"location":[41.5242116,-71.778984],"ct":"US","tp":"CS","ts":"2025-05-30T19:30:45Z","tX":307,"tY":381,"tags":{"group_only":"yes","name":"Abe Lincoln"}},"12875929968":{"location":[41.524028,-71.7796782],"ct":"US","tp":"CS","ts":"2025-05-30T19:30:45Z","tX":307,"tY":381,"tags":{"group_only":"yes","name":"Frederick Douglas"}},"12875929969":{"location":[41.5227021,-71.7798457],"ct":"US","tp":"CS","ts":"2025-05-30T19:30:45Z","tX":307,"tY":381,"tags":{"group_only":"yes","name":"Manchosi"}},"12875929970":{"location":[41.5230839,-71.7801282],"ct":"US","tp":"CS","ts":"2025-05-30T19:30:45Z","tX":307,"tY":381,"tags":{"group_only":"yes","name":"Waskecke"}},"12875929971":{"location":[41.5234723,-71.780514],"ct":"US","tp":"CS","ts":"2025-05-30T19:30:45Z","tX":307,"tY":381,"tags":{"group_only":"yes","name":"Dan Boone"}},"12875929998":{"location":[41.5240767,-71.7810233],"ct":"US","tp":"CS","ts":"2025-05-30T19:30:45Z","tX":307,"tY":381,"tags":{"group_only":"yes","name":"Neil Armstrong"}},"12875966803":{"location":[41.5263527,-71.7798292],"ct":"US","tp":"CS","ts":"2025-05-30T19:30:45Z","tX":307,"tY":381,"tags":{"group_only":"yes","name":"Audobon"}},"12875966804":{"location":[41.5263243,-71.7807655],"ct":"US","tp":"CS","ts":"2025-05-30T19:30:45Z","tX":307,"tY":381,"tags":{"group_only":"yes","name":"Paul Siple"}},"12875966805":{"location":[41.5268492,-71.7809027],"ct":"US","tp":"CS","ts":"2025-05-30T19:30:45Z","tX":307,"tY":381,"tags":{"group_only":"yes","name":"Richard Byrd"}},"12875966806":{"location":[41.5268665,-71.7801913],"ct":"US","tp":"CS","ts":"2025-05-30T19:30:45Z","tX":307,"tY":381,"tags":{"group_only":"yes","name":"Backwoods"}},"12875966807":{"location":[41.5275836,-71.7804257],"ct":"US","tp":"CS","ts":"2025-05-30T19:30:45Z","tX":307,"tY":381,"tags":{"group_only":"yes","name":"Davy Crockett"}},"12875966808":{"location":[41.527475,-71.7812084],"ct":"US","tp":"CS","ts":"2025-05-30T19:30:45Z","tX":307,"tY":381,"tags":{"group_only":"yes","name":"Teddy Roosevelt"}},"12875966809":{"location":[41.5281032,-71.7806927],"ct":"US","tp":"CS","ts":"2025-05-30T19:30:45Z","tX":307,"tY":381,"tags":{"group_only":"yes","name":"Norman Rockwell"}},"12875966810":{"location":[41.5277055,-71.7815637],"ct":"US","tp":"CS","ts":"2025-05-30T19:30:45Z","tX":307,"tY":381,"tags":{"group_only":"yes","name":"James West"}},"12875966815":{"location":[41.5285162,-71.7816082],"ct":"US","tp":"CS","ts":"2025-05-30T19:30:45Z","tX":307,"tY":381,"tags":{"group_only":"yes","name":"Silver Buffalo"}},"12875966816":{"location":[41.529489,-71.7813876],"ct":"US","tp":"CS","ts":"2025-05-30T19:30:45Z","tX":307,"tY":381,"tags":{"group_only":"yes","name":"Ernest Seton"}},"12875966817":{"location":[41.5289391,-71.7816042],"ct":"US","tp":"CS","ts":"2025-05-30T19:30:45Z","tX":307,"tY":381,"tags":{"group_only":"yes","name":"Ida Lewis"}},"12875966822":{"location":[41.5254157,-71.7837956],"ct":"US","tp":"CS","ts":"2025-05-30T19:30:45Z","tX":307,"tY":381,"tags":{"group_only":"yes","name":"Jim Bridger"}},"12875966823":{"location":[41.5255202,-71.7826556],"ct":"US","tp":"CS","ts":"2025-05-30T19:30:45Z","tX":307,"tY":381,"tags":{"group_only":"yes","name":"George Washington"}}}