{"47202359":{"location":[-34.3932492,-72.0125355],"ct":"CL","tp":"CS","ts":"2019-07-07T21:14:36Z","tX":307,"tY":616,"tags":{"fee":"yes","internet_access":"wlan","name":"Camping Pequeño Bosque","phone":"+56722842071","tents":"yes","website":"http://campingpbosque.cl"}},"387760734":{"location":[-34.4028453,-72.0096218],"ct":"CL","tp":"CS","ts":"2015-12-26T04:47:05Z","tX":307,"tY":616,"tags":{"name":"Camping Las Proteas"}},"628572764":{"location":[-34.3876586,-72.017168],"ct":"CL","tp":"CS","ts":"2025-03-09T14:50:02Z","tX":307,"tY":616,"tags":{"addr:city":"Pichilemu","addr:street":"Eugenio Suárez","name":"Eco Camping La Caletilla","nohousenumber":"yes"}},"2645051614":{"location":[-34.4529437,-72.0274094],"ct":"CL","tp":"CS","ts":"2014-01-31T04:42:25Z","tX":307,"tY":616,"tags":{"name":"Camping Laguna del perro"}},"3711140092":{"location":[-34.4880869,-72.005812],"ct":"CL","tp":"CS","ts":"2016-01-08T07:50:58Z","tX":307,"tY":616,"tags":{"name":"Camping Millaco"}},"3910161427":{"location":[-34.4962674,-72.0250455],"ct":"CL","tp":"CS","ts":"2015-12-26T04:47:00Z","tX":307,"tY":616,"tags":{"name":"Surfarm"}},"4311513290":{"location":[-34.3915325,-72.014615],"ct":"CL","tp":"CS","ts":"2017-09-18T06:26:40Z","tX":307,"tY":616,"tags":{"addr:housenumber":"568","addr:street":"Comercio","name":"Camping Emanuel","name:en":"Camping Emanuel","opening_hours":"24/7","phone":"+56995121288"}},"6280006085":{"location":[-34.3820226,-72.016026],"ct":"CL","tp":"CS","ts":"2019-02-15T02:03:21Z","tX":307,"tY":616,"tags":{"addr:housenumber":"5","addr:street":"Eugenio Díaz Lira","name":"Camping La Puntilla"}}}