{"1395498297":{"location":[-39.1855925,-71.8122826],"ct":"CL","tp":"CS","ts":"2014-08-08T23:19:34Z","tX":307,"tY":633,"tags":{"name":"Camping Caburgua Playa Blanca"}},"1999500072":{"location":[-39.28099,-71.979602],"ct":"CL","tp":"CS","ts":"2021-07-02T14:23:44Z","tX":307,"tY":633,"tags":{"addr:city":"Pucón","addr:country":"CL","addr:district":"Pucón","addr:postcode":"4920000","addr:state":"Región de La Araucanía","internet_access":"wlan","name":"Camping La Poza","website":"www.campinglapoza.com"}},"2284946070":{"location":[-39.1683074,-71.7257258],"ct":"CL","tp":"CS","ts":"2017-01-13T07:22:03Z","tX":307,"tY":633,"tags":{"name":"Camping Conaf","source":"GPS"}},"2683678236":{"location":[-39.1574795,-71.7189862],"ct":"CL","tp":"CS","ts":"2014-02-21T15:34:40Z","tX":307,"tY":633,"tags":{"name":"Camping Olga"}},"3093084029":{"location":[-39.2717177,-71.9596226],"ct":"CL","tp":"CS","ts":"2021-05-06T19:28:54Z","tX":307,"tY":633,"tags":{"name":"Camping Las Rosas"}},"3398710213":{"location":[-39.2628772,-71.9723397],"ct":"CL","tp":"CS","ts":"2015-03-14T20:52:05Z","tX":307,"tY":633,"tags":{"name":"Camping Aynoa"}},"3743279975":{"location":[-39.1756706,-71.7342956],"ct":"CL","tp":"CS","ts":"2015-09-14T19:48:29Z","tX":307,"tY":633,"tags":{}},"4098621870":{"location":[-39.2888468,-71.94038],"ct":"CL","tp":"CS","ts":"2016-04-05T00:50:22Z","tX":307,"tY":633,"tags":{}},"4098659428":{"location":[-39.326445,-71.7550339],"ct":"CL","tp":"CS","ts":"2016-04-05T00:49:04Z","tX":307,"tY":633,"tags":{}},"4098659429":{"location":[-39.3371075,-71.7535383],"ct":"CL","tp":"CS","ts":"2016-04-05T00:49:22Z","tX":307,"tY":633,"tags":{}},"4113903116":{"location":[-39.189674,-71.7725791],"ct":"CL","tp":"CS","ts":"2016-04-11T10:09:04Z","tX":307,"tY":633,"tags":{"name":"Las Vertientes Camping y Cabaña"}},"4113910621":{"location":[-39.2381692,-71.8338831],"ct":"CL","tp":"CS","ts":"2019-06-15T12:31:38Z","tX":307,"tY":633,"tags":{"name":"Camping Ojos de Caburgua"}},"4459135990":{"location":[-39.2589323,-71.7845015],"ct":"CL","tp":"CS","ts":"2016-10-22T14:01:40Z","tX":307,"tY":633,"tags":{}},"4497500390":{"location":[-39.257101,-71.8192752],"ct":"CL","tp":"CS","ts":"2016-11-12T22:07:26Z","tX":307,"tY":633,"tags":{"name":"Casa astorga","name:es":"Casa astorga"}},"4497699591":{"location":[-39.2840779,-71.8497006],"ct":"CL","tp":"CS","ts":"2016-11-13T01:46:34Z","tX":307,"tY":633,"tags":{"name":"Camping el Lleuque","name:es":"Camping el Lleuque","opening_hours":"24/7"}},"4613343267":{"location":[-39.2779431,-71.9535494],"ct":"CL","tp":"CS","ts":"2021-07-02T14:23:44Z","tX":307,"tY":633,"tags":{"addr:city":"Pucón","addr:country":"CL","addr:district":"Pucón","addr:housenumber":"1706","addr:postcode":"4920000","addr:state":"Región de La Araucanía","addr:street":"Camino a Quelhue","name":"Camping Los Alamos"}},"5005699523":{"location":[-39.2088689,-71.7369076],"ct":"CL","tp":"CS","ts":"2021-01-23T15:00:43Z","tX":307,"tY":633,"tags":{"name":"Los Tres Saltos de Huepil"}},"5401599822":{"location":[-39.2775077,-71.9674648],"ct":"CL","tp":"CS","ts":"2021-07-02T14:23:44Z","tX":307,"tY":633,"tags":{"addr:city":"Pucón","addr:country":"CL","addr:district":"Pucón","addr:housenumber":"865","addr:postcode":"4920000","addr:state":"Región de La Araucanía","addr:street":"Enrique Novoa","internet_access":"wlan","name":"Camping Minerva","name:en":"Minerva Camping","opening_hours":"Mo-Su 10:00-23:00","phone":"+56989678312"}},"5415021622":{"location":[-39.2072382,-71.8158446],"ct":"CL","tp":"CS","ts":"2018-02-15T19:48:07Z","tX":307,"tY":633,"tags":{"name":"Camping Bellavista"}},"5511910072":{"location":[-39.1250317,-71.7562625],"ct":"CL","tp":"CS","ts":"2018-03-28T23:52:12Z","tX":307,"tY":633,"tags":{}},"7034472686":{"location":[-39.1121254,-71.7498215],"ct":"CL","tp":"CS","ts":"2019-12-04T20:58:22Z","tX":307,"tY":633,"tags":{"name":"Camping Nido de Aguile"}},"7084011585":{"location":[-39.2793576,-71.8623113],"ct":"CL","tp":"CS","ts":"2019-12-25T15:09:02Z","tX":307,"tY":633,"tags":{"addr:housenumber":"11","addr:street":"Metreñehue","email":"p.millahual.m@gmail.com","name":"Camping Millahual Pesca&Picnic","name:en":"Millahual Pesca&Picnic camping zone","opening_hours":"24/7","phone":"+56932692836"}},"7209621385":{"location":[-39.1857051,-71.7718406],"ct":"CL","tp":"CS","ts":"2020-02-14T20:05:49Z","tX":307,"tY":633,"tags":{"addr:street":"Camino a Huerquehue","name":"Las Vertientes","opening_hours":"Mo-Su 09:00-18:00"}},"7209621386":{"location":[-39.1869788,-71.7751195],"ct":"CL","tp":"CS","ts":"2020-02-13T23:45:05Z","tX":307,"tY":633,"tags":{"addr:street":"Camino a Huerquehue","name":"Los Pilos","opening_hours":"Mo-Su 09:00-18:00"}},"8322659117":{"location":[-39.1886632,-71.8129913],"ct":"CL","tp":"CS","ts":"2021-01-14T23:22:07Z","tX":307,"tY":633,"tags":{"name":"Camping Vergara","phone":"+56 9 5643 8201","website":"https://campingvergara.blogspot.com"}},"10253550709":{"location":[-39.2742668,-71.9528851],"ct":"CL","tp":"CS","ts":"2023-07-04T11:18:26Z","tX":307,"tY":633,"tags":{"name":"Camping Copacabana"}},"11501645098":{"location":[-39.2995803,-71.9798942],"ct":"CL","tp":"CS","ts":"2024-01-09T02:02:14Z","tX":307,"tY":633,"tags":{"name":"Camping y Cabañas L'Etoile"}},"12740348503":{"location":[-39.3545993,-71.8637447],"ct":"CL","tp":"CS","ts":"2025-04-09T00:25:16Z","tX":307,"tY":633,"tags":{"name":"Camping el Cerduo"}}}