{"2070884082":{"location":[-43.188989,-71.8732037],"ct":"CL","tp":"CS","ts":"2022-05-07T08:43:14Z","tX":307,"tY":648,"tags":{"access":"customers","name":"Camping Los Coihues","name:es":"Camping Los Coihues","phone":"+56 9 9326 8777","website":"https://campingfutaleufu.cl/"}},"2209064824":{"location":[-43.1847167,-71.8610014],"ct":"CL","tp":"CS","ts":"2020-06-19T02:30:25Z","tX":307,"tY":648,"tags":{"addr:city":"Futaleufu","addr:housenumber":"913","addr:street":"José Manuel Balmaceda","internet_access":"wlan","name":"Camping Laguna Espejo"}},"2633710573":{"location":[-43.1917868,-71.8719214],"ct":"CL","tp":"CS","ts":"2014-01-23T13:16:00Z","tX":307,"tY":648,"tags":{}},"2633716499":{"location":[-43.1879344,-71.8711991],"ct":"CL","tp":"CS","ts":"2017-07-03T17:21:28Z","tX":307,"tY":648,"tags":{"addr:city":"Futaleufú","addr:postcode":"5870000","addr:street":"Puerto Ramírez - Futaleufú - Paso Futaleufú","name":"Camping - Aldea Puerto Espolón"}},"4042803140":{"location":[-43.1848544,-71.863028],"ct":"CL","tp":"CS","ts":"2022-03-11T12:52:56Z","tX":307,"tY":648,"tags":{"addr:city":"Futaleufú","addr:housenumber":"764","addr:street":"José Manuel Balmaceda","caravans":"no","fee":"yes","internet_access":"wlan","name":"El Pescador","phone":"982472698","tents":"yes"}},"4075953177":{"location":[-43.2636952,-71.9592244],"ct":"CL","tp":"CS","ts":"2017-12-18T22:36:40Z","tX":307,"tY":648,"tags":{"name":"Camping Lago Lonconao"}},"6199782204":{"location":[-43.1672218,-71.7355675],"ct":"AR","tp":"CS","ts":"2019-01-10T23:38:12Z","tX":307,"tY":648,"tags":{"fee":"yes","tents":"yes"}},"6175544678":{"location":[-43.2304376,-71.8726731],"ct":"CL","tp":"CS","ts":"2018-12-31T21:38:13Z","tX":307,"tY":648,"tags":{"name":"Hermanos Haussmann"}},"6202199710":{"location":[-43.182852,-71.8667641],"ct":"CL","tp":"CS","ts":"2019-01-11T21:23:22Z","tX":307,"tY":648,"tags":{"fee":"yes","name":"El Amigo Patagón","tents":"yes"}},"6204559164":{"location":[-43.1838019,-71.8733506],"ct":"CL","tp":"CS","ts":"2019-12-09T11:19:30Z","tX":307,"tY":648,"tags":{"fee":"yes","name":"El Chakay","tents":"yes"}}}