{"4581305590":{"location":[-45.6848676,-71.8815598],"ct":"CL","tp":"CS","ts":"2020-05-25T02:32:19Z","tX":307,"tY":658,"tags":{"addr:street":"Cruce X-667 (Lago Póllux) - Cruce X-659 (Lago Frío)","email":"franciscoalfredoaguilar@gmail.com","name":"Estrella del Pollux EcoCamping Rural","name:en":"Estrella del Pollux EcoCamping Rural","opening_hours":"Mo-Su 10:00-22:00","phone":"+56964059084"}},"4629294393":{"location":[-45.8081372,-71.9263983],"ct":"CL","tp":"CS","ts":"2020-09-04T13:41:39Z","tX":307,"tY":658,"tags":{"internet_access":"wlan","name":"Camping Las Confluencias","name:es":"Camping Las Confluencias"}},"4692491289":{"location":[-45.7613368,-71.927154],"ct":"CL","tp":"CS","ts":"2017-02-18T17:39:19Z","tX":307,"tY":658,"tags":{"addr:street":"la cordonada norte","email":"varaneda1967@hotmail.com","name":"Tres manantiales","operator":"facebook: tres manantiales","phone":"+56990339759"}},"8798279430":{"location":[-45.5902838,-72.0652499],"ct":"CL","tp":"CS","ts":"2021-06-04T10:10:54Z","tX":307,"tY":658,"tags":{"name":"Ecocamping Mingalegre"}}}