{"119090928":{"location":[53.3891052,5.287223],"ct":"NL","tp":"CS","ts":"2023-05-27T06:54:02Z","tX":527,"tY":331,"tags":{"name":"Veldzicht","source":"3dShapes"}},"119090948":{"location":[53.3900609,5.2909168],"ct":"NL","tp":"CS","ts":"2018-01-08T21:47:22Z","tX":527,"tY":331,"tags":{"name":"Gezinscamping Terpstra","source":"3dShapes"}},"119091203":{"location":[53.3892984,5.2895639],"ct":"NL","tp":"CS","ts":"2024-06-26T08:54:23Z","tX":527,"tY":331,"tags":{"addr:city":"Midsland","addr:housenumber":"8","addr:postcode":"8891HP","addr:street":"Noordlandweg","caravans":"yes","fee":"yes","name":"Hoeve 't Noord","source":"3dShapes;local knowledge","tents":"no"}},"119092207":{"location":[53.3925281,5.3082353],"ct":"NL","tp":"CS","ts":"2024-01-18T15:38:51Z","tX":527,"tY":331,"tags":{"contact:website":"https://dehaanvakantie.nl/index.php/parken-terschelling/camping-vis-formerum","landuse":"grass","name":"Camping Vis","source":"3dShapes","static_caravans":"yes","tents":"no"}},"119095023":{"location":[53.3957747,5.3146181],"ct":"NL","tp":"CS","ts":"2024-06-24T08:32:09Z","tX":527,"tY":331,"tags":{"landcover":"grass","local_name":"Bram van Halstadion","name":"Natuurkampeerterrein Lies","source":"3dShapes","website":"http://www.logerenbijdeboswachter.nl/natuurkampeerterreinen/lies"}},"119095236":{"location":[53.4047632,5.3795779],"ct":"NL","tp":"CS","ts":"2024-07-28T20:20:32Z","tX":527,"tY":331,"tags":{"email":"info@wantij-terschelling.nl","landuse":"grass","name":"Camping 't Wantij","phone":"+31 562 448 522","source":"3dShapes","website":"https://www.wantij-terschelling.nl/"}},"119095521":{"location":[53.3881205,5.314417],"ct":"NL","tp":"CS","ts":"2023-05-30T12:17:27Z","tX":527,"tY":331,"tags":{"addr:city":"Formerum","addr:housenumber":"12a","addr:postcode":"8894KH","addr:street":"Formerum Zuid","capacity":"2500","description":"Jongerencamping met eigen discotheek en (snack)bar.","email":"info@campingappelhof.nl","name":"Jongerencamping Appelhof","phone":"+31 562 448 699","website":"https://campingappelhof.nl/"}},"491757359":{"location":[53.4009312,5.3504026],"ct":"NL","tp":"CS","ts":"2024-07-25T23:16:30Z","tX":527,"tY":331,"tags":{"caravans":"no","name":"Natuurkampeerterrein Hoorn","tents":"yes","website":"https://www.logerenbijdeboswachter.nl/natuurkampeerterreinen/hoorn"}},"516953964":{"location":[53.3925162,5.2966882],"ct":"NL","tp":"CS","ts":"2024-01-18T15:38:51Z","tX":527,"tY":331,"tags":{"capacity":"300","name":"Nieuw Formerum","website":"https://www.nieuwformerum.nl/"}},"828913714":{"location":[53.386143,5.2932826],"ct":"NL","tp":"CS","ts":"2024-07-20T23:16:29Z","tX":527,"tY":331,"tags":{"email":"info@campingterpstra.nl","name":"Camping Terpstra","website":"https://campingterpstra.nl/"}},"2758134710":{"location":[53.3929067,5.2857476],"ct":"NL","tp":"CS","ts":"2019-06-20T19:05:32Z","tX":527,"tY":331,"tags":{"addr:city":"Midsland","addr:housenumber":"42","addr:postcode":"8891HT","addr:street":"Heereweg","name":"Recreatiepark Noordkaap","source":"BAG","source:date":"2014-03-24"}},"2758175827":{"location":[53.4054649,5.3844332],"ct":"NL","tp":"CS","ts":"2022-06-05T08:10:26Z","tX":527,"tY":331,"tags":{"addr:city":"Oosterend","addr:housenumber":"65","addr:postcode":"8897HX","addr:street":"Oosterend","email":"info@duinkant.nl","name":"Camping & Appartementen De Duinkant Terschelling","phone":"+31 562 448 917","source":"BAG","source:date":"2014-03-24","website":"https://www.campingdeduinkant.nl/"}},"3782347748":{"location":[53.4001198,5.3475176],"ct":"NL","tp":"CS","ts":"2024-07-26T01:01:43Z","tX":527,"tY":331,"tags":{"name":"Dennedune","phone":"+31 562 448 196","website":"https://www.dennedune.nl/"}},"4509279060":{"location":[53.3902561,5.3061087],"ct":"NL","tp":"CS","ts":"2020-06-09T19:29:43Z","tX":527,"tY":331,"tags":{"addr:city":"Formerum","addr:housenumber":"33","addr:postcode":"8894KB","addr:street":"Formerum","capacity":"200","name":"Mast"}},"4838436236":{"location":[53.4002161,5.3514586],"ct":"NL","tp":"CS","ts":"2023-06-07T22:07:58Z","tX":527,"tY":331,"tags":{"cabins":"yes","caravans":"no","email":"info@aasteruiltje.nl","name":"Natuurkampeerterrein Aaster Uiltje","phone":"+31 6 38108093","shower":"yes","tents":"yes","toilets":"yes","website":"https://aasteruiltje.nl/"}},"5690921837":{"location":[53.3949122,5.3415462],"ct":"NL","tp":"CS","ts":"2018-06-14T18:47:05Z","tX":527,"tY":331,"tags":{"email":"info@kamperenbijboervis.nl","fee":"no","name":"Kamperen bij Boer Vis"}}}