{"75002210":{"location":[53.1634217,5.5878081],"ct":"NL","tp":"CS","ts":"2023-07-02T15:51:06Z","tX":527,"tY":332,"tags":{"brand":"SVR","cabins":"yes","caravans":"yes","email":"s.r.riedstra@planet.nl","landcover":"grass","motorhome":"yes","name":"De Slypstien","shower":"yes","tents":"yes","toilets":"yes","website":"https://www.campingdeslypstien.frl/"}},"75002814":{"location":[53.1809584,5.5510637],"ct":"NL","tp":"CS","ts":"2024-01-19T08:28:43Z","tX":527,"tY":332,"tags":{"addr:city":"Franeker","addr:housenumber":"4","addr:postcode":"8801JM","addr:street":"Parallelweg","contact:email":"info@skuorre.nl","contact:mobile":"+31 6 134 885 13","contact:phone":"+31 517 395 906","contact:website":"http://www.skuorre.nl/","name":"de Skuorre","operator":"Stichting Vrije Recreatie","phone":"+31 517 395 906"}},"77691863":{"location":[53.1206898,5.4552565],"ct":"NL","tp":"CS","ts":"2025-01-24T12:09:26Z","tX":527,"tY":332,"tags":{"email":"info@denijetrije.nl","name":"Minicamping De Nije Trije","reservation":"yes","website":"https://www.denijetrije.nl/"}},"302949552":{"location":[53.1451804,5.5179388],"ct":"NL","tp":"CS","ts":"2023-05-30T12:17:35Z","tX":527,"tY":332,"tags":{"addr:city":"Lollum","addr:housenumber":"5","addr:postcode":"8823SH","addr:street":"Bayumerleane","email":"info@slachtehiem.nl","name":"Slachtehiem","phone":"+31 517 469 108","website":"https://www.slachtehiem.nl/plattelandscamping/"}},"477190031":{"location":[53.1643655,5.5336639],"ct":"NL","tp":"CS","ts":"2021-09-16T17:55:50Z","tX":527,"tY":332,"tags":{"name":"De Salix","website":"https://www.desalix.nl/"}},"560537141":{"location":[53.1793233,5.4180155],"ct":"NL","tp":"CR","ts":"2024-02-16T12:45:50Z","tX":527,"tY":332,"tags":{"capacity":"14","caravan_site":"motorhome_stopover","drinking_water":"no","fee":"yes","internet_access":"no","name":"Camperplaats Tsjerk Hiddesluizen","power_supply":"yes","sanitary_dump_station":"no","surface":"asphalt","toilets":"no","wheelchair":"yes"}},"897914080":{"location":[53.2353951,5.5497069],"ct":"NL","tp":"CR","ts":"2021-01-22T09:33:56Z","tX":527,"tY":332,"tags":{"name":"Recreatiepark De Friese wadden"}},"970654904":{"location":[53.1582522,5.5602593],"ct":"NL","tp":"CS","ts":"2025-03-19T12:28:41Z","tX":527,"tY":332,"tags":{"addr:city":"Tzum","addr:housenumber":"30","addr:postcode":"8804NA","addr:street":"Franekerweg","caravans":"yes","drinking_water":"yes","name":"Boerencamping Ny Herema","power_supply":"yes","sanitary_dump_station":"yes","shower":"yes","tents":"yes","toilets":"yes","website":"https://boerencamping-nyherema.nl/"}},"1259462409":{"location":[53.2722155,5.5575202],"ct":"NL","tp":"CR","ts":"2025-01-16T17:30:48Z","tX":527,"tY":332,"tags":{"bbq":"no","capacity":"6","caravan_site":"motorhome_stopover","caravan_site:type":"restaurant","caravans":"no","charge":"21 EUR","check_out":"11:00","email":"info@thefriezinn.nl","internet_access":"wlan","internet_access:fee":"no","maxstay":"2 nights","motorhome":"yes","name":"Hemisfeer â€“ Nachttuin Westhoek","opening_hours":"Apr-Oct","phone":"+31 518 853725","power_supply":"yes","power_supply:maxcurrent":"6","reservation":"yes","seasonal":"yes","socket:cee_blue":"yes","website":"https://www.thefriezinn.nl/hemisfeer/"}},"1314061225":{"location":[53.1614275,5.4182809],"ct":"NL","tp":"CS","ts":"2024-09-13T11:38:46Z","tX":527,"tY":332,"tags":{"caravans":"yes","drinking_water":"yes","fee":"yes","name":"De Zeehoeve","operator":"Recreatie de Zeehoeve","shower":"yes","tents":"yes","toilets":"yes","website":"https://zeehoeve.nl"}},"1358875890":{"location":[53.1808773,5.5031103],"ct":"NL","tp":"CR","ts":"2025-02-10T21:42:01Z","tX":527,"tY":332,"tags":{"addr:city":"Herbaijum","addr:housenumber":"51","addr:postcode":"8807PG","addr:street":"Kiesterzijl","internet_access":"wlan","name":"Camperplaats Kiesterzijl","power_supply":"yes","sanitary_dump_station":"yes","website":"https://www.camperplaatskiesterzijl.nl/"}},"2636767474":{"location":[53.2501069,5.6212986],"ct":"NL","tp":"CS","ts":"2023-05-27T19:56:34Z","tX":527,"tY":332,"tags":{"name":"Minicamping De Brinkhoeve","website":"https://www.debrinkhoeve.com"}},"4370232114":{"location":[53.1892162,5.5527428],"ct":"NL","tp":"CS","ts":"2022-08-28T08:46:46Z","tX":527,"tY":332,"tags":{"addr:city":"Franeker","addr:housenumber":"3","addr:postcode":"8801PG","addr:street":"Burgemeester J Dijkstraweg","capacity":"111","email":"info@bloemketerp.nl","internet_access":"wlan","name":"Bloemketerp","name:nl":"Bloemketerp","phone":"+31 517 395 099","website":"https://www.bloemketerp.nl/","wheelchair":"yes"}}}