{"77912705":{"location":[53.110935,5.5874668],"ct":"NL","tp":"CR","ts":"2023-04-23T10:39:05Z","tX":527,"tY":333,"tags":{}},"77932973":{"location":[53.0534345,5.3802848],"ct":"NL","tp":"CS","ts":"2023-08-22T11:31:22Z","tX":527,"tY":333,"tags":{"caravans":"yes","drinking_water":"yes","email":"info@hollepoarte.nl","landcover":"grass","name":"De Holle Poarte","phone":"+31 515 231 344","shower":"yes","tents":"yes","toilets":"yes","website":"https://www.hollepoarte.nl/en/accommodations/camping"}},"78036244":{"location":[53.0779632,5.5251017],"ct":"NL","tp":"CS","ts":"2023-05-30T12:17:22Z","tX":527,"tY":333,"tags":{"addr:city":"Hichtum","addr:housenumber":"2","addr:postcode":"8743KZ","addr:street":"Schwartzenbergweg","capacity":"25","contact:phone":"+31 515 575 226","contact:website":"http://www.fugelfrij.com/","fee":"yes","internet_access":"wlan","internet_access:fee":"no","name":"Fûgelfrij","operator":"VeKaBo"}},"83539980":{"location":[53.0242379,5.5315126],"ct":"NL","tp":"CS","ts":"2023-05-30T12:17:23Z","tX":527,"tY":333,"tags":{"addr:city":"Blauwhuis","addr:housenumber":"1A","addr:postcode":"8615LL","addr:street":"Vitusdyk","contact:phone":"+31 515 579 970","contact:website":"http://www.freonskip.nl/afrodite/","name":"Mini Camping Afrodite"}},"83859650":{"location":[52.9468899,5.434662],"ct":"NL","tp":"CS","ts":"2023-05-30T18:16:08Z","tX":527,"tY":333,"tags":{"addr:city":"Workum","addr:country":"NL","addr:housenumber":"11","addr:postcode":"8711HK","addr:street":"Lange Leane","contact:phone":"+31 514 522 442","contact:website":"https://welgelegen-workum.nl/camping-welgelegen","name":"Camping Welgelegen"}},"83924630":{"location":[52.9776003,5.4858554],"ct":"NL","tp":"CS","ts":"2022-07-16T07:43:00Z","tX":527,"tY":333,"tags":{"contact:website":"http://www.camping-sathelandzicht.nl","name":"Sathe Landzicht","source":"3dShapes"}},"83928227":{"location":[52.9376283,5.5608092],"ct":"NL","tp":"CS","ts":"2022-07-16T07:43:00Z","tX":527,"tY":333,"tags":{"contact:website":"https://pressefinne.nl","name":"Pressefinne"}},"83930093":{"location":[52.9698448,5.6003284],"ct":"NL","tp":"CS","ts":"2023-05-30T12:17:24Z","tX":527,"tY":333,"tags":{"addr:city":"Heeg","addr:housenumber":"7","addr:postcode":"8621BA","addr:street":"Weisleatstrjitte","cabins":"yes","caravans":"yes","email":"info@campingoanepoel.nl","internet_access":"wlan","name":"Oan’e Poel","phone":"+31 515 338 801","shower":"yes","source":"3dShapes","tents":"yes","toilets":"yes","website":"https://www.campingoanepoel.nl/"}},"83930295":{"location":[52.9570949,5.5404448],"ct":"NL","tp":"CS","ts":"2023-05-30T12:17:24Z","tX":527,"tY":333,"tags":{"addr:city":"It Heidenskip","addr:country":"NL","addr:housenumber":"15","addr:postcode":"8724LJ","addr:street":"Koaidyk","capacity":"25","fee":"yes","internet_access":"wlan","internet_access:fee":"no","name":"De Oosthoek","operator":"Klaas en Betty Bakker","phone":"+31 514 521 668","power_supply":"yes","tents":"yes","website":"http://www.campingdeoosthoek.nl/"}},"84117978":{"location":[52.9197788,5.5759485],"ct":"NL","tp":"CS","ts":"2022-07-16T07:43:00Z","tX":527,"tY":333,"tags":{"contact:website":"https://www.zwinzicht.nl","name":"Zwinzicht","source":"3dShapes"}},"136550085":{"location":[52.9911805,5.5443542],"ct":"NL","tp":"CS","ts":"2023-09-16T07:56:01Z","tX":527,"tY":333,"tags":{"addr:city":"Oudega","addr:housenumber":"2a","addr:postcode":"8614JD","addr:street":"Tsjerkewei","caravans":"yes","drinking_water":"yes","name":"De Bearshoeke","operator":"Recreatiestichting Oudega-SWF","phone":"+31 515 469 805","power_supply":"yes","shower":"yes","tents":"yes","toilets":"yes","website":"https://www.bearshoeke.nl/"}},"162207283":{"location":[52.9346865,5.4092263],"ct":"NL","tp":"CS","ts":"2024-08-23T20:18:45Z","tX":527,"tY":333,"tags":{"addr:city":"Hindeloopen","addr:country":"NL","addr:housenumber":"9","addr:postcode":"8713JA","addr:street":"Westerdijk","caravans":"yes","dog":"no","drinking_water":"yes","name":"Camping Hindeloopen","power_supply":"yes","sanitary_dump_station":"yes","shower":"yes","tents":"yes","toilets":"yes","website":"https://www.campinghindeloopen.nl/"}},"257159005":{"location":[52.9662271,5.4160847],"ct":"NL","tp":"CS","ts":"2022-07-16T07:43:00Z","tX":527,"tY":333,"tags":{"contact:website":"https://www.itsoal.nl","name":"Camping It Soal"}},"271093129":{"location":[52.9254937,5.4076822],"ct":"NL","tp":"CS","ts":"2023-12-28T16:07:24Z","tX":527,"tY":333,"tags":{"name":"Camping Schuilenburg","website":"https://www.camping-schuilenburg.nl"}},"317434601":{"location":[53.0730762,5.5205541],"ct":"NL","tp":"CS","ts":"2023-05-30T18:16:17Z","tX":527,"tY":333,"tags":{"addr:city":"Bolsward","addr:housenumber":"14","addr:postcode":"8701PG","addr:street":"Hichtumerweg","contact:phone":"+31 515 572 683","contact:website":"https://www.half-hichtum.nl","name":"Camping Half-Hichtum"}},"349487653":{"location":[52.9736951,5.5185782],"ct":"NL","tp":"CS","ts":"2023-05-30T18:16:18Z","tX":527,"tY":333,"tags":{"addr:city":"Gaastmeer","addr:housenumber":"5","addr:postcode":"8611JL","addr:street":"Kaepwei","contact:email":"info@campinggaastmeer.nl","contact:phone":"+31 515 469 978","contact:website":"https://campinggaastmeer.nl","name":"Camping Gaastmeer"}},"349487654":{"location":[52.9755356,5.4971181],"ct":"NL","tp":"CS","ts":"2023-05-30T12:17:36Z","tX":527,"tY":333,"tags":{"addr:city":"Gaastmeer","addr:country":"NL","addr:housenumber":"2","addr:postcode":"8611JL","addr:street":"Kaepwei","contact:email":"info@renemarecreatie.nl","contact:phone":"+31 6 31780849","contact:website":"http://www.renemarecreatie.nl/","name":"Camping In Gouden Plakje"}},"349487655":{"location":[52.9594929,5.5357198],"ct":"NL","tp":"CS","ts":"2023-05-30T12:17:36Z","tX":527,"tY":333,"tags":{"addr:city":"Gaastmeer","addr:housenumber":"4","addr:postcode":"8611JS","addr:street":"Yntemapolder","contact:phone":"+31 515 469 579","name":"Camping Van Netten"}},"349487656":{"location":[52.9866339,5.5095593],"ct":"NL","tp":"CS","ts":"2023-06-13T11:59:40Z","tX":527,"tY":333,"tags":{"addr:city":"Sandfirden","addr:housenumber":"11","addr:postcode":"8613JH","addr:street":"Nr","contact:email":"campingykema@hetnet.nl","contact:phone":"+31 515 469 444","contact:website":"https://www.campingykema.nl","name":"Camping Ykema"}},"349487659":{"location":[52.967862,5.5947783],"ct":"NL","tp":"CS","ts":"2023-12-28T16:07:24Z","tX":527,"tY":333,"tags":{"addr:city":"Heeg","addr:housenumber":"25A","addr:postcode":"8621JX","addr:street":"De Burd","contact:email":"wch@watersportcampingheeg.nl","contact:phone":"+31 515 442 328","contact:website":"https://www.watersportcampingheeg.frl","name":"Watersport-camping Heeg"}},"349487660":{"location":[52.9782928,5.5601519],"ct":"NL","tp":"CS","ts":"2023-05-30T12:17:36Z","tX":527,"tY":333,"tags":{"contact:email":"info@campinghetklokhuis.nl","contact:phone":"+31 515 469 858","contact:website":"http://www.campinghetklokhuis.nl/","name":"boerderijcamping het Klokhuis"}},"436406424":{"location":[52.9398888,5.5863822],"ct":"NL","tp":"CS","ts":"2023-09-13T20:47:09Z","tX":527,"tY":333,"tags":{"caravans":"yes","email":"info@wetterspetter.nl","motorhome":"yes","name":"De Wetterspetter","operator":"Familie Aukes","phone":"+31 6 23796120","shower":"yes","tents":"yes","website":"https://wetterspetter.nl"}},"549839335":{"location":[53.0040788,5.4776682],"ct":"NL","tp":"CS","ts":"2023-08-14T07:04:14Z","tX":527,"tY":333,"tags":{"cabins":"yes","caravans":"yes","motorhome":"yes","name":"Heeres","phone":"+31 515 579 832","shower":"yes","tents":"yes","toilets":"yes","website":"https://campingheeres.nl/"}},"853807831":{"location":[52.9725526,5.4264132],"ct":"NL","tp":"CS","ts":"2023-06-25T14:16:38Z","tX":527,"tY":333,"tags":{"cabins":"yes","caravans":"yes","email":"info@suderse.nl","motorhome":"yes","name":"Camping Sudersé","phone":"+31 515 541 924","shower":"yes","start_date":"1994","tents":"yes","toilets":"yes","website":"https://suderse.nl"}},"859705680":{"location":[52.9691966,5.4159745],"ct":"NL","tp":"CS","ts":"2021-08-02T14:59:49Z","tX":527,"tY":333,"tags":{"name":"Camping It Soal"}},"864141746":{"location":[52.9923862,5.4954017],"ct":"NL","tp":"CS","ts":"2023-05-30T12:17:40Z","tX":527,"tY":333,"tags":{"addr:city":"Nijhuizum","addr:housenumber":"19","addr:postcode":"8775XD","addr:street":"Nijhuizum","email":"info@minicampingdeklompen.nl","internet_access":"wlan","internet_access:fee":"yes","name":"Minicamping De Klompen","phone":"+31 515 541 597","source":"3dShapes+Bing+survey","website":"https://minicampingdeklompen.nl/"}},"866011742":{"location":[52.9820814,5.590318],"ct":"NL","tp":"CS","ts":"2020-11-01T16:45:46Z","tX":527,"tY":333,"tags":{"name":"Camping Poelzicht"}},"906855810":{"location":[52.9642526,5.5858424],"ct":"NL","tp":"CS","ts":"2023-05-30T18:16:21Z","tX":527,"tY":333,"tags":{"contact:email":"nfo@campingheeg.nl","contact:phone":"+31 515 442 423","contact:website":"https://www.campingheeg.nl","name":"Lân & Mar"}},"917632957":{"location":[53.0243441,5.4965459],"ct":"NL","tp":"CS","ts":"2023-05-30T18:16:27Z","tX":527,"tY":333,"tags":{"addr:city":"Dedgum","addr:housenumber":"8","addr:postcode":"8764PN","addr:street":"Arkumerlaan","contact:email":"info@naturistencampingzuidwest.frl","contact:phone":"+31 6 26376087","contact:website":"https://www.naturistencampingzuidwest.frl","name":"Naturistenterrein Buorkerij","nudism":"designated"}},"929005405":{"location":[53.0988455,5.4707078],"ct":"NL","tp":"CS","ts":"2022-06-06T06:29:35Z","tX":527,"tY":333,"tags":{"addr:city":"Witmarsum","addr:country":"NL","addr:housenumber":"1","addr:postcode":"8748DT","addr:street":"Mouneplein","name":"Mounewetter","phone":"+31 517 531 967","source":"BAG","source:date":"2014-07-16","website":"https://www.mounewetter.nl/","wheelchair":"yes"}},"982829098":{"location":[52.9616102,5.5476035],"ct":"NL","tp":"CS","ts":"2022-07-16T07:43:00Z","tX":527,"tY":333,"tags":{"contact:website":"https://www.campingflapper.nl","name":"Camping Flapper"}},"1069962572":{"location":[52.9274612,5.5954226],"ct":"NL","tp":"CR","ts":"2022-06-15T15:04:33Z","tX":527,"tY":333,"tags":{"capacity":"13","name":"Waterloo"}},"1197276519":{"location":[53.1002638,5.4199393],"ct":"NL","tp":"CS","ts":"2023-08-12T08:15:18Z","tX":527,"tY":333,"tags":{"caravans":"yes","mobile":"+31 517 434 340","name":"Hilarides","opening_hours":"Apr 24 - Oct 1","phone":"+31 517 434 340","shower":"yes","tents":"yes","toilets":"yes","website":"https://www.camping-groepsaccommodatie-friesland.nl/camping/"}},"1197277587":{"location":[53.0724502,5.401397],"ct":"NL","tp":"CS","ts":"2023-08-12T08:30:41Z","tX":527,"tY":333,"tags":{"caravans":"yes","email":"boeyenkamp@outlook.com","name":"Boeyenkamp","phone":"+31 515 231 315","shower":"yes","tents":"yes","toilets":"yes","website":"https://www.boeyenkamp.nl/toeristeninfo/de-camping/"}},"1197280913":{"location":[53.0649555,5.427053],"ct":"NL","tp":"CS","ts":"2023-08-12T09:07:03Z","tX":527,"tY":333,"tags":{"caravans":"yes","email":"minicampingdeweeren@hotmail.com","name":"De Weeren","phone":"+31 515 231 374","shower":"yes","tents":"yes","toilets":"yes","website":"https://deweeren.jouwweb.nl/"}},"1197284949":{"location":[53.0552874,5.4448163],"ct":"NL","tp":"CS","ts":"2023-08-12T09:32:59Z","tX":527,"tY":333,"tags":{"caravans":"yes","email":"info@hetzonnehuis.nl","name":"Het Zonnehuis","phone":"+31 515 233 567","shower":"yes","tents":"yes","toilets":"yes","website":"https://www.hetzonnehuis.nl/mini-camping/"}},"1197873753":{"location":[53.0754959,5.3932072],"ct":"NL","tp":"CS","ts":"2023-08-14T06:15:03Z","tX":527,"tY":333,"tags":{"cabins":"yes","capacity:pitches":"25","caravans":"yes","email":"info@sotterum.nl","fax":"+31 515 233 211","internet_access":"wlan","mobile":"+31 6 20747747","name":"Sotterum","opening_hours":"Mar 15-Oct 31","operator":"Fam. Tjeerdema","phone":"+31 515 231 573","shower":"yes","tents":"yes","toilets":"yes","website":"https://www.sotterum.nl/"}},"2965857859":{"location":[53.0630536,5.5282986],"ct":"NL","tp":"CS","ts":"2022-06-06T06:39:09Z","tX":527,"tY":333,"tags":{"addr:city":"Bolsward","addr:housenumber":"5","addr:postcode":"8701XG","addr:street":"Badweg","name":"Stadscamping Bolsward","phone":"+31 515 573 573","source":"BAG","source:date":"2014-07-16","tents":"yes"}},"3039803994":{"location":[52.9337995,5.4073359],"ct":"NL","tp":"CR","ts":"2023-01-18T17:57:46Z","tX":527,"tY":333,"tags":{"dog":"no","fee":"yes","internet_access":"wlan","name":"Stop & Go camping Hindeloopen","power_supply":"yes","website":"https://www.campinghindeloopen.nl/"}},"11020494336":{"location":[53.0903542,5.5427898],"ct":"NL","tp":"CS","ts":"2023-07-17T17:59:01Z","tX":527,"tY":333,"tags":{"brand":"SVR","caravans":"yes","email":"pyandela@aylvapolder.nl","mobile":"+31 6 26466342","motorhome":"yes","name":"Aylvapolder skieppebuorkerij","opening_hours":"Mar 15 - Nov 1","phone":"+31 515 575 167","shower":"yes","tents":"yes","toilets":"yes","website":"https://www.aylvapolder.nl/"}},"11035609065":{"location":[53.0895861,5.5857821],"ct":"NL","tp":"CS","ts":"2023-08-25T18:24:38Z","tX":527,"tY":333,"tags":{"addr:city":"Wommels","addr:housenumber":"9","addr:postcode":"8731CK","addr:street":"Súdhoeke","capacity":"15","caravans":"yes","name":"De achte","static_caravans":"yes","tents":"yes","website":"https://www.campingdeachte.nl"}},"8760583109":{"location":[52.9651755,5.6049061],"ct":"NL","tp":"CR","ts":"2021-05-24T09:45:13Z","tX":527,"tY":333,"tags":{"name":"Heegerwal"}},"11609836543":{"location":[53.1034776,5.5663087],"ct":"NL","tp":"CR","ts":"2024-02-11T10:23:52Z","tX":527,"tY":333,"tags":{"addr:city":"Wommels","addr:housenumber":"7","addr:postcode":"8731CG","addr:street":"Littenserbuorren","designation":"campers","name":"Camperplaats Oan'e Slachte","opening_hours":"Mo-Su 10:00-22:00","operator":"https://www.camperplaats-oan-e-slachte.nl","tents":"no"}},"9665939193":{"location":[52.9337816,5.4053931],"ct":"NL","tp":"SD","ts":"2022-04-14T13:40:47Z","tX":527,"tY":333,"tags":{"access":"customers","fee":"no","water_point":"yes"}},"9665939203":{"location":[52.9345337,5.4068214],"ct":"NL","tp":"SD","ts":"2022-04-14T13:40:47Z","tX":527,"tY":333,"tags":{"access":"customers","fee":"no","water_point":"yes"}}}