{"1891439":{"location":[52.8600914,5.5460532],"ct":"NL","tp":"CS","ts":"2023-05-30T18:16:28Z","tX":527,"tY":334,"tags":{"addr:city":"Oudemirdum","addr:housenumber":"7","addr:postcode":"8567HB","addr:street":"Sminkewei","contact:phone":"+31 514 571 223","contact:website":"https://www.dewigwam.nl","name":"Camping De Wigwam","source":"3dShapes+survey"}},"2250322":{"location":[52.8604479,5.5199495],"ct":"NL","tp":"CS","ts":"2023-05-30T18:16:28Z","tX":527,"tY":334,"tags":{"addr:city":"Oudemirdum","addr:housenumber":"4","addr:postcode":"8567HJ","addr:street":"Oude Balksterweg","contact:email":"info@campingzonneheuvel.nl","contact:phone":"+31 514 571 233","contact:website":"https://www.campingzonneheuvel.nl","name":"Camping Zonneheuvel","source":"3dShapes"}},"16327661":{"location":[52.8777082,5.3695666],"ct":"NL","tp":"CS","ts":"2023-09-14T05:49:28Z","tX":527,"tY":334,"tags":{"cabins":"yes","caravans":"yes","motorhome":"yes","name":"Camping Sùdermeer","operator":"Marina Stavoren","phone":"+31 88 050 4126","shower":"yes","tents":"yes","toilets":"yes","website":"https://www.marinastavoren.nl/camping-sudermeer/"}},"84055399":{"location":[52.9039499,5.3968129],"ct":"NL","tp":"CS","ts":"2023-05-30T12:17:24Z","tX":527,"tY":334,"tags":{"caravans":"yes","email":"info@camping-seleantsje.nl","name":"Camping ‘t Séleantsje","phone":"+31 514 681 395","stars":"3","tents":"yes","website":"https://www.camping-seleantsje.nl/"}},"84120368":{"location":[52.905436,5.5958698],"ct":"NL","tp":"CS","ts":"2023-05-30T18:16:08Z","tX":527,"tY":334,"tags":{"addr:city":"Balk","addr:housenumber":"6","addr:postcode":"8561HA","addr:street":"Tsjamkedykje","contact:email":"info@marswal.nl","contact:phone":"+31 514 602 089","contact:website":"https://www.marswal.nl","landuse":"grass","name":"Recreatiepark Marswâl","source":"3dShapes"}},"84120719":{"location":[52.8935574,5.5944882],"ct":"NL","tp":"CS","ts":"2024-08-08T15:50:08Z","tX":527,"tY":334,"tags":{"addr:city":"Wijckel","addr:housenumber":"51","addr:postcode":"8563AC","addr:street":"Jachtlustweg","contact:email":"info@jachtlusthoeve.nl","contact:phone":"+31 514 602 172","contact:website":"https://www.jachtlusthoeve.nl","name":"Minicamping de Jachtlusthoeve","source":"3dShapes"}},"84425656":{"location":[52.85843,5.5138173],"ct":"NL","tp":"CS","ts":"2023-06-21T20:01:34Z","tX":527,"tY":334,"tags":{"addr:city":"Oudemirdum","addr:housenumber":"2","addr:postcode":"8567HJ","addr:street":"Oude Balksterweg","caravans":"yes","contact:email":"info@campingdebosrand.com","contact:phone":"+31 514 571 319","contact:website":"https://www.campingdebosrand.com","drinking_water":"yes","name":"Camping de Bosrand","power_supply":"yes","shower":"yes","source":"3dShapes","tents":"yes","toilets":"yes"}},"84426049":{"location":[52.8605922,5.5131466],"ct":"NL","tp":"CS","ts":"2023-05-30T18:16:09Z","tX":527,"tY":334,"tags":{"addr:city":"Oudemirdum","addr:housenumber":"2","addr:postcode":"8567HJ","addr:street":"Oude Balksterweg","contact:email":"info@campingdebosrand.com","contact:phone":"+31 514 571 319","contact:website":"https://www.campingdebosrand.com","name":"Buitengoed Gaasterland","source":"3dShapes"}},"84431212":{"location":[52.8535043,5.4833039],"ct":"NL","tp":"CS","ts":"2024-09-26T13:21:08Z","tX":527,"tY":334,"tags":{"addr:city":"Mirns","addr:housenumber":"48","addr:postcode":"8573WP","addr:street":"Murnserdyk","caravans":"yes","contact:phone":"+31 514 581 574","contact:website":"https://www.debraamberg.nl","dog":"yes","drinking_water":"yes","fee":"yes","name":"Camping De Braamberg","power_supply":"yes","shower":"yes","source":"3dShapes","tents":"yes","toilets":"yes"}},"84432385":{"location":[52.8547826,5.5101664],"ct":"NL","tp":"CS","ts":"2023-06-13T05:53:35Z","tX":527,"tY":334,"tags":{"addr:city":"Oudemirdum","addr:housenumber":"57","addr:postcode":"8567HH","addr:street":"Jan Schotanuswei","contact:email":"kampeerboerderijgroen@gmail.com","contact:mobile":"+31 6 19267676","contact:phone":"+31 514 572 301","contact:website":"https://www.kampeerboerderijgroen.nl","description":"Kampeerboerderij \"Groen\" is camping en een groepsaccommodatie voor het houden van bijvoorbeeld schoolreisjes, excursies, werkweken, personeelsreisjes of familiebijeenkomsten. Onze gezellige recreatieruimte biedt ruimte aan 80 gasten","internet_access":"wlan","name":"Camping en Kampeerboerderij Groen","surface":"grass","website":"https://www.kampeerboerderijgroen.nl/"}},"84432441":{"location":[52.8611719,5.5004339],"ct":"NL","tp":"CS","ts":"2023-05-30T12:17:25Z","tX":527,"tY":334,"tags":{"addr:city":"Rijs","addr:housenumber":"4","addr:postcode":"8572WG","addr:street":"Marderleane","contact:email":"info@rijsterbos.nl","contact:fax":"+31 514 581 532","contact:phone":"+31 514 581 211","name":"Camping Rijsterbos","website":"https://www.rijsterbos.nl/"}},"84433354":{"location":[52.8626859,5.5025223],"ct":"NL","tp":"CS","ts":"2023-05-30T18:16:09Z","tX":527,"tY":334,"tags":{"addr:city":"Rijs","addr:housenumber":"9a","addr:postcode":"8572WG","addr:street":"Marderleane","contact:email":"info@campingdevossenhoek.nl","contact:phone":"+31 514 581 563","contact:website":"https://www.campingdevossenhoek.nl","landuse":"grass","name":"Camping en Chaletpark De Vossenhoek","source":"3dShapes"}},"84433521":{"location":[52.8712626,5.4706728],"ct":"NL","tp":"CS","ts":"2023-05-30T18:16:09Z","tX":527,"tY":334,"tags":{"addr:city":"Bakhuizen","addr:housenumber":"7","addr:postcode":"8574VC","addr:street":"Wite Burch","contact:email":"info@witeburch.nl","contact:phone":"+31 514 581 382","contact:website":"https://www.witeburch.nl","name":"Camping De Wite Burch"}},"84463791":{"location":[52.8648803,5.537115],"ct":"NL","tp":"CS","ts":"2023-12-28T16:07:24Z","tX":527,"tY":334,"tags":{"addr:city":"Oudemirdum","addr:housenumber":"5","addr:postcode":"8567HD","addr:street":"Beukenlaan","contact:email":"info@campingelfbergen.nl","contact:phone":"+31 514 571 235","contact:website":"https://www.campingelfbergen.nl","name":"Elfbergen","source":"3dShapes"}},"84464287":{"location":[52.8541535,5.5484228],"ct":"NL","tp":"CS","ts":"2024-06-24T08:32:09Z","tX":527,"tY":334,"tags":{"contact:email":"info@campingdeboegen.nl","contact:phone":"+31 514 571 918","contact:website":"https://www.campingdeboegen.nl/","name":"Mini Camping de Boegen"}},"169212652":{"location":[52.8733133,5.5433727],"ct":"NL","tp":"CS","ts":"2023-05-30T12:17:28Z","tX":527,"tY":334,"tags":{"addr:city":"Oudemirdum","addr:housenumber":"1","addr:postcode":"8567HA","addr:street":"Kippenburg","contact:email":"kippenburg@hetnet.nl","contact:phone":"+31 514 571 318","name":"Minicamping Kippenburg"}},"177173435":{"location":[52.8581789,5.6002801],"ct":"NL","tp":"CS","ts":"2023-08-25T18:24:39Z","tX":527,"tY":334,"tags":{"contact:website":"https://www.campingdegroninger.nl","name":"De Groninger"}},"306911466":{"location":[52.8934182,5.6214168],"ct":"NL","tp":"CS","ts":"2023-05-30T18:16:17Z","tX":527,"tY":334,"tags":{"addr:city":"Wijckel","addr:housenumber":"1","addr:postcode":"8563AV","addr:street":"Meerenstein","contact:email":"info@campingthop.nl","contact:phone":"+31 514 602 436","contact:website":"https://www.campingthop.nl","name":"'t Hop"}},"513959667":{"location":[52.7092173,5.2943568],"ct":"NL","tp":"CS","ts":"2022-09-30T21:44:52Z","tX":527,"tY":334,"tags":{"caravans":"yes","disused:tents":"yes","fee":"yes","name":"Enkhuizerzand","website":"https://www.campingenkhuizerzand.nl/"}},"517659508":{"location":[52.8557281,5.5312447],"ct":"NL","tp":"CS","ts":"2024-02-11T14:59:37Z","tX":527,"tY":334,"tags":{"caravans":"yes","contact:website":"https://www.campingdewaps.com","name":"De Waps","tents":"yes"}},"567465347":{"location":[52.7085632,5.2860006],"ct":"NL","tp":"CS","ts":"2022-07-09T12:52:20Z","tX":527,"tY":334,"tags":{"contact:website":"https://www.campingdevest.nl","name":"De Vest"}},"614597249":{"location":[52.9033483,5.4670912],"ct":"NL","tp":"CS","ts":"2020-06-22T08:58:56Z","tX":527,"tY":334,"tags":{"addr:city":"Koudum","addr:housenumber":"1","addr:postcode":"8723CG","addr:street":"De Kuilart","name":"De Kuilart","stars":"5","website":"https://www.kuilart.nl/"}},"727154000":{"location":[52.9045191,5.5947045],"ct":"NL","tp":"CS","ts":"2019-09-21T20:31:07Z","tX":527,"tY":334,"tags":{"name":"Camping Yn 'e Finne"}},"857473480":{"location":[52.8761444,5.4372722],"ct":"NL","tp":"CS","ts":"2020-10-10T15:51:01Z","tX":527,"tY":334,"tags":{"name":"Camping Martinus"}},"931575471":{"location":[52.8701387,5.4141243],"ct":"NL","tp":"CS","ts":"2022-07-16T07:43:00Z","tX":527,"tY":334,"tags":{"contact:website":"https://deweydeblick.nl","name":"de Weyde Blick"}},"977844847":{"location":[52.8570117,5.4656391],"ct":"NL","tp":"CR","ts":"2022-07-31T22:49:11Z","tX":527,"tY":334,"tags":{"addr:city":"Mirns","addr:housenumber":"7","addr:postcode":"8573WN","addr:street":"Murnserdyk","capacity":"15","contact:email":"info@mirnserheide.nl","contact:mobile":"+31 6 15483704","contact:website":"https://mirnserheide.nl","fee":"yes","internet_access":"yes","internet_access:fee":"no","name":"Camperplaats Mirnserheide"}},"978217331":{"location":[52.8782413,5.5154092],"ct":"NL","tp":"CS","ts":"2021-08-31T18:36:25Z","tX":527,"tY":334,"tags":{}},"978217359":{"location":[52.8902459,5.5278992],"ct":"NL","tp":"CS","ts":"2023-06-25T14:23:27Z","tX":527,"tY":334,"tags":{"cabins":"yes","caravans":"yes","email":"info@deverborgenhoek.nl","internet_access":"wlan","internet_access:fee":"yes","motorhome":"yes","name":"De verborgen hoek","name:fy":"De Ferburgen Hoeke","phone":"+31 514 602 065","shower":"yes","tents":"yes","toilets":"yes","website":"https://www.deverborgenhoek.nl/"}},"1086379410":{"location":[52.7173968,5.2875948],"ct":"NL","tp":"CR","ts":"2022-08-15T09:36:56Z","tX":527,"tY":334,"tags":{"name":"Droomparken Enkhuizer Strand","operator":"EuroParcs","power_supply":"yes","sanitary_dump_station":"yes"}},"1086379413":{"location":[52.7175898,5.287955],"ct":"NL","tp":"CS","ts":"2022-08-15T09:36:56Z","tX":527,"tY":334,"tags":{"name":"Enkhuizer Strand","operator":"EuroParcs"}},"1182037118":{"location":[52.883831,5.4015487],"ct":"NL","tp":"CR","ts":"2023-06-14T14:43:10Z","tX":527,"tY":334,"tags":{}},"1208217252":{"location":[52.8784578,5.621516],"ct":"NL","tp":"CS","ts":"2023-09-16T15:45:48Z","tX":527,"tY":334,"tags":{"capacity:pitches":"25","caravans":"yes","contact:mobile":"+31 6 31269635","contact:phone":"+31 514 605 869","contact:website":"https://www.campingdetjasker.nl/","contact:whatsapp":"+31 6 31269635","name":"De Tjasker","shower":"yes","tents":"yes","toilets":"yes"}},"1777248971":{"location":[52.9069239,5.461288],"ct":"NL","tp":"CS","ts":"2022-07-16T07:11:39Z","tX":527,"tY":334,"tags":{"contact:website":"https://campingvenema.nl","name":"Camping Venema","phone":"+31 514 521 354"}},"1801612958":{"location":[52.853786,5.5200678],"ct":"NL","tp":"CS","ts":"2022-11-04T11:19:04Z","tX":527,"tY":334,"tags":{"addr:city":"Oudemirdum","addr:housenumber":"92","addr:postcode":"8567LE","addr:street":"Jan Schotanuswei","contact:phone":"+31 514 571 370","name":"Minicamping Heechhiem"}},"8138335222":{"location":[52.8731881,5.3685431],"ct":"NL","tp":"CS","ts":"2020-11-18T17:12:55Z","tX":527,"tY":334,"tags":{"access":"customers","fee":"yes","name":"Marina Stavoren","operator":"Marina Stavoren"}},"11189716560":{"location":[52.8835077,5.377264],"ct":"NL","tp":"CS","ts":"2023-09-14T05:55:04Z","tX":527,"tY":334,"tags":{"caravans":"yes","email":"info@roggebroek.nl","name":"Roggebroek","phone":"+31 514 681 469","shower":"yes","tents":"yes","toilets":"yes","website":"https://roggebroek.nl/kampeerplaatsen/"}},"4958547711":{"location":[52.9041373,5.4692274],"ct":"NL","tp":"SD","ts":"2017-07-08T15:02:15Z","tX":527,"tY":334,"tags":{}}}