{"1151597":{"location":[52.2724948,5.536858],"ct":"NL","tp":"CS","ts":"2022-07-31T14:34:45Z","tX":527,"tY":336,"tags":{"name":"Strandparc Nulde"}},"23264510":{"location":[52.2738265,5.4384252],"ct":"NL","tp":"CS","ts":"2024-05-19T15:08:39Z","tX":527,"tY":336,"tags":{"addr:city":"Zeewolde","addr:country":"NL","addr:housenumber":"3","addr:postcode":"3896LA","addr:street":"Wielseweg","caravans":"yes","drinking_water":"yes","email":"info@flevonatuur.nl","internet_access":"yes","internet_access:fee":"yes","name":"Naturistenpark Flevo-Natuur","nudism":"designated","payment:maestro":"yes","phone":"+31 36 522 8880","power_supply":"no","sanitary_dump_station":"yes","shower":"yes","stars":"4","tents":"yes","toilets":"yes","toilets:wheelchair":"yes","website":"https://www.flevonatuur.nl/","wheelchair":"yes","wikidata":"Q36423263"}},"74741972":{"location":[52.3206369,5.5954085],"ct":"NL","tp":"CS","ts":"2023-05-30T12:18:35Z","tX":527,"tY":336,"tags":{"addr:city":"Harderwijk","addr:housenumber":"14","addr:postcode":"3845LA","addr:street":"Horloseweg","email":"info@campingelzenhof.com","landuse":"grass","name":"Elzenhof","phone":"+31 341 553 526","website":"https://www.campingelzenhof.com"}},"74869789":{"location":[52.2788078,5.6036148],"ct":"NL","tp":"CS","ts":"2020-07-14T08:46:36Z","tX":527,"tY":336,"tags":{"name":"Brem en Den","source":"3dShapes","website":"https://www.bremenden.nl/index.php?option=com_content&view=article&id=6&Itemid=120"}},"169638798":{"location":[52.3403093,5.5062237],"ct":"NL","tp":"CS","ts":"2024-01-22T10:15:13Z","tX":527,"tY":336,"tags":{"name":"Camping Het Groene Bos","website":"https://www.hetgroenebos.nl/"}},"169638799":{"location":[52.333844,5.4893274],"ct":"NL","tp":"CS","ts":"2023-06-21T06:04:51Z","tX":527,"tY":336,"tags":{"internet_access":"yes","name":"Camping de Parel","website":"https://www.campingdeparel.nl"}},"185652116":{"location":[52.2687723,5.4923633],"ct":"NL","tp":"CS","ts":"2025-06-20T19:35:19Z","tX":527,"tY":336,"tags":{"addr:city":"Zeewolde","addr:housenumber":"79E","addr:postcode":"3896LB","addr:street":"Erkemederweg","caravans":"yes","contact:website":"https://www.erkemederstrand.nl/nl/kamperen-met-hond-aan-het-water","name":"Erkemederstrand","source":"BAG","source:date":"2014-05-07","tents":"yes"}},"187515706":{"location":[52.3118959,5.54079],"ct":"NL","tp":"CS","ts":"2024-08-10T21:47:45Z","tX":527,"tY":336,"tags":{"caravans":"yes","name":"RCN Zeewolde","phone":"+31 36 522 1246","tents":"yes","website":"https://rcn.nl"}},"187923882":{"location":[52.3022722,5.5262333],"ct":"NL","tp":"CS","ts":"2023-03-12T23:08:19Z","tX":527,"tY":336,"tags":{"alt_name":"Natuurkampeerterrein de Dasselaar","caravans":"yes","motorhome":"yes","name":"De Dasselaar","shower":"yes","tents":"yes","toilets":"yes","website":"https://www.logerenbijdeboswachter.nl/kamperen/dasselaar"}},"188033703":{"location":[52.3073909,5.5386841],"ct":"NL","tp":"CS","ts":"2024-08-10T21:34:34Z","tX":527,"tY":336,"tags":{"addr:city":"Zeewolde","addr:housenumber":"45","addr:postcode":"3896LT","addr:street":"Dasselaarweg","caravans":"yes","drinking_water":"yes","group_only":"yes","name":"Groepskampeerterrein De Banken","operator":"Staatsbosbeheer","power_supply":"yes","sanitary_dump_station":"no","shower":"yes","tents":"yes","toilets":"yes","website":"https://www.logerenbijdeboswachter.nl/groepskampeerterreinen/de-banken"}},"188044703":{"location":[52.3036728,5.5322576],"ct":"NL","tp":"CS","ts":"2012-10-28T10:28:23Z","tX":527,"tY":336,"tags":{"name":"N.C.C. \"De Distel\""}},"217480769":{"location":[52.3820657,5.6241951],"ct":"NL","tp":"CS","ts":"2025-01-23T15:55:43Z","tX":527,"tY":336,"tags":{"fee":"yes","name":"Molecaten Parc Flevostrand","static_caravans":"yes","website":"https://www.molecaten.nl/flevostrand"}},"341792387":{"location":[52.2839372,5.5265358],"ct":"NL","tp":"CS","ts":"2022-09-17T06:57:53Z","tX":527,"tY":336,"tags":{"addr:city":"Zeewolde","addr:housenumber":"5","addr:postcode":"3896LV","addr:street":"Nulderpad","club":"scout","internet_access":"wired","name":"Scoutinglandgoed Zeewolde","place":"locality","scout":"yes","website":"https://scoutinglandgoed.nl/","wheelchair":"limited"}},"589005261":{"location":[52.3931667,5.5897889],"ct":"NL","tp":"CS","ts":"2023-05-30T12:16:59Z","tX":527,"tY":336,"tags":{"caravans":"yes","fee":"yes","mobile":"+31 6 10476665","name":"Sternhof","phone":"+31 320 288 222","shower":"yes","tents":"yes","toilets":"yes","website":"https://www.sternhof.nl/"}},"671216657":{"location":[52.318278,5.3029623],"ct":"NL","tp":"CS","ts":"2025-04-25T14:40:00Z","tX":527,"tY":336,"tags":{"access":"private","addr:city":"Almere","addr:housenumber":"4","addr:postcode":"1358CB","addr:street":"Lijsterweg","caravans":"yes","email":"secretaris@chamavi.nl","internet_access":"yes","internet_access:fee":"no","motorhome":"yes","name":"Naturistenvereniging Chamavi","nudism":"designated","operator":"Naturistenvereniging Chamavi","phone":"+31 6 51722257","private":"members","sanitary_dump_station":"yes","shower":"yes","smoking":"separated","tents":"yes","website":"https://www.chamavi.nl/","wheelchair":"yes"}},"906073784":{"location":[52.3131184,5.5662727],"ct":"NL","tp":"CS","ts":"2025-05-07T23:28:08Z","tX":527,"tY":336,"tags":{"addr:city":"Ermelo","addr:housenumber":"82","addr:postcode":"3853LZ","addr:street":"Buitenbrinkweg","caravans":"yes","dog":"yes","fee":"yes","internet_access":"wlan","motorhome":"yes","name":"Camping Strand Horst","phone":"+31 6 46286168","power_supply":"yes","sanitary_dump_station":"yes","tents":"yes","website":"https://www.campingstrandhorst.nl"}},"1175849738":{"location":[52.2710838,5.4368875],"ct":"NL","tp":"SD","ts":"2024-05-19T15:08:40Z","tX":527,"tY":336,"tags":{"fee":"no","note":"Bodenablaufrinne mittig"}},"1176889335":{"location":[52.2818071,5.5713144],"ct":"NL","tp":"CS","ts":"2023-05-30T12:19:16Z","tX":527,"tY":336,"tags":{"cabins":"yes","capacity:pitches":"30","caravans":"yes","email":"info@mariahoeveputten.nl","name":"Mariahoeve","phone":"+31 6 13194477;+31 6 30234032","shower":"yes","tents":"yes","toilets":"yes","website":"https://www.mariahoeveputten.nl/kamperen/"}},"1176914953":{"location":[52.2818822,5.5821081],"ct":"NL","tp":"CS","ts":"2023-06-13T05:54:48Z","tX":527,"tY":336,"tags":{"cabins":"yes","capacity:caravans":"25","capacity:motorhome":"30","capacity:tents":"50","caravans":"yes","mobile":"+31 6 54308033","motorhome":"yes","name":"Klarenbeek","phone":"+31 341 361 989","shower":"yes","tents":"yes","toilets":"yes","website":"https://campingklarenbeek.nl/"}},"1195347918":{"location":[52.318364,5.6053279],"ct":"NL","tp":"CS","ts":"2023-08-06T20:13:13Z","tX":527,"tY":336,"tags":{"capacity:pitches":"81","capacity:static_caravans":"163","caravans":"yes","email":"info@campingdehanenburg.nl","name":"De Hanenburg","opening_hours":"Apr 01 - Oct 31","phone":"+31 341 557 065","shower":"yes","static_caravans":"yes","swimming_pool":"yes","tents":"yes","toilets":"yes","website":"https://campingdehanenburg.nl/"}},"1246294933":{"location":[52.3789331,5.4724557],"ct":"NL","tp":"CS","ts":"2024-02-05T12:08:57Z","tX":527,"tY":336,"tags":{"name":"De Vrijgaard","nudism":"designated","operator":"Naturistenvereniging VRIJ","phone":"+31 6 20117617","website":"https://www.vrijgaard.com"}},"1267803796":{"location":[52.3207001,5.5767321],"ct":"NL","tp":"CS","ts":"2022-06-06T09:05:18Z","tX":527,"tY":336,"tags":{"addr:city":"Ermelo","addr:housenumber":"17","addr:postcode":"3853ME","addr:street":"Horster-Engweg","name":"de Horsterhoeve","phone":"+31 341 560 431","website":"https://www.horsterhoeve.nl/"}},"1770860731":{"location":[52.3131294,5.5727783],"ct":"NL","tp":"CS","ts":"2019-03-28T03:33:46Z","tX":527,"tY":336,"tags":{"name":"De Berkebomen","website":"https://www.deberkebomen.nl/"}},"2009195049":{"location":[52.2934016,5.5920731],"ct":"NL","tp":"CS","ts":"2022-06-26T07:30:25Z","tX":527,"tY":336,"tags":{"contact:website":"http://dezandkamp.com/","name":"Kampeerboerderij de Zandkamp"}},"2171665447":{"location":[52.3342753,5.5520874],"ct":"NL","tp":"CS","ts":"2022-06-26T15:55:01Z","tX":527,"tY":336,"tags":{"contact:website":"https://www.jachthaven-wolderwijd.nl/camping-aan-het-water","name":"Bolhaven","source":"local_knowledge"}},"2171668714":{"location":[52.3343048,5.5517278],"ct":"NL","tp":"CR","ts":"2025-01-23T15:51:07Z","tX":527,"tY":336,"tags":{"caravan_site":"motorhome_stopover","caravan_site:type":"harbour","charge":"16 EUR","fee":"yes","name":"Bolhaven","power_supply":"yes","sanitary_dump_station:chemical_toilet":"yes","source":"local_knowledge","website":"https://www.jachthaven-wolderwijd.nl/camperplaats-aan-het-water/"}},"2847953248":{"location":[52.3699497,5.6145461],"ct":"NL","tp":"CS","ts":"2020-08-13T19:15:49Z","tX":527,"tY":336,"tags":{"addr:city":"Zeewolde","addr:housenumber":"12","addr:postcode":"3898LP","addr:street":"Harderdijk","name":"Scoutcentrum Harderhaven","scout":"yes","source":"BAG","source:date":"2014-05-07","website":"https://harderhaven.scouting.nl/"}},"3820986281":{"location":[52.3177393,5.300982],"ct":"NL","tp":"SD","ts":"2023-08-21T14:25:04Z","tX":527,"tY":336,"tags":{}},"7775382924":{"location":[52.4802216,5.5311616],"ct":"NL","tp":"CS","ts":"2023-05-27T19:41:36Z","tX":527,"tY":336,"tags":{"name":"Swifterkamp","website":"https://www.swifterkamp.nl"}},"7796127085":{"location":[52.302711,5.3204254],"ct":"NL","tp":"PK","ts":"2025-01-15T15:02:32Z","tX":527,"tY":336,"tags":{"description":"Gedoogd gratis kamperen","description:en":"Free campspot","fee":"no","motorhome":"yes","motorhome:overnight":"permissive"}},"5639425969":{"location":[52.2745189,5.4367362],"ct":"NL","tp":"SD","ts":"2024-05-19T15:08:39Z","tX":527,"tY":336,"tags":{"fee":"no"}},"5639425981":{"location":[52.273758,5.4418131],"ct":"NL","tp":"SD","ts":"2024-05-19T15:08:37Z","tX":527,"tY":336,"tags":{"fee":"no"}},"11134228017":{"location":[52.3192782,5.3022616],"ct":"NL","tp":"SD","ts":"2023-08-22T09:17:44Z","tX":527,"tY":336,"tags":{}}}