{"11142151":{"location":[52.1510888,5.331022],"ct":"NL","tp":"CS","ts":"2025-04-25T14:39:48Z","tX":527,"tY":337,"tags":{"landuse":"forest","mobile":"+31 6 51 79 74 69","name":"Camping 't Monnickenbosch","phone":"+31 33 465 62 16","website":"https://www.campingsoest.nl"}},"15850862":{"location":[52.0796543,5.6027186],"ct":"NL","tp":"CS","ts":"2023-05-30T12:19:18Z","tX":527,"tY":337,"tags":{"brand":"SVR","cabins":"yes","capacity:pitches":"25","caravans":"yes","email":"info@camping-beukhof.nl","internet_access":"wlan","internet_access:fee":"no","name":"Beukhof","phone":"+31 318 484 086","shower":"yes","tents":"yes","toilets":"yes","website":"https://camping-beukhof.nl/"}},"36735448":{"location":[52.0552844,5.3177015],"ct":"NL","tp":"CS","ts":"2024-06-24T13:45:59Z","tX":527,"tY":337,"tags":{"cabins":"yes","caravans":"yes","email":"hetgrotebos@rcn.nl","name":"Het Grote Bos","operator":"RCN","phone":"+31 85 040 0700","shower":"yes","tents":"yes","toilets":"yes","website":"https://www.rcn.nl/grotebos"}},"36735536":{"location":[52.0627719,5.3334509],"ct":"NL","tp":"CS","ts":"2014-10-27T19:17:42Z","tX":527,"tY":337,"tags":{"name":"Vakantiepark De Maarnse Berg"}},"48978462":{"location":[52.0777295,5.3890222],"ct":"NL","tp":"CS","ts":"2023-05-30T12:26:06Z","tX":527,"tY":337,"tags":{"cabins":"yes","caravans":"yes","contact:website":"https://www.heigraaf.nl","email":"info@heigraaf.nl","name":"Vakantiepark De Heigraaf","phone":"+31 33 286 5066","shower":"yes","tents":"yes","toilets":"yes"}},"49183982":{"location":[52.0930052,5.3028944],"ct":"NL","tp":"CS","ts":"2024-08-02T15:03:32Z","tX":527,"tY":337,"tags":{"barrier":"fence","layer":"-1","name":"PBC Austerlitz","scout":"yes","website":"https://www.pbcausterlitz.nl"}},"74890281":{"location":[52.2467356,5.6192991],"ct":"NL","tp":"CS","ts":"2024-02-19T18:35:46Z","tX":527,"tY":337,"tags":{"cabins":"yes","caravans":"yes","email":"info@boslustputten.nl","name":"Boslust","phone":"+31 341 357 972","shower":"yes","static_caravans":"yes","tents":"yes","toilets":"yes","website":"https://www.boslustputten.nl/"}},"74939472":{"location":[52.1776093,5.615447],"ct":"NL","tp":"CS","ts":"2023-08-05T16:32:16Z","tX":527,"tY":337,"tags":{"capacity:pitches":"18","caravans":"yes","email":"info@dekleinestroet.nl","landcover":"grass","name":"De Kleine Stroet","opening_hours":"Apr 1 - Sep 30","phone":"+31 342 476 612","shower":"yes","tents":"yes","toilets":"yes","website":"https://dekleinestroet.nl/"}},"74978115":{"location":[52.1202291,5.6227318],"ct":"NL","tp":"CS","ts":"2023-09-02T19:03:56Z","tX":527,"tY":337,"tags":{"caravans":"yes","email":"info@morgensterlunteren.nl","facebook":"https://www.facebook.com/people/Camping-de-Morgenster/100063458172972/","landcover":"grass","name":"De Morgenster","shower":"yes","tents":"yes","toilets":"yes","website":"https://morgensterlunteren.nl/"}},"75424187":{"location":[52.1123219,5.5137332],"ct":"NL","tp":"CS","ts":"2023-05-30T19:04:44Z","tX":527,"tY":337,"tags":{"contact:website":"https://www.folda.nl","name":"Folda"}},"75556160":{"location":[52.0625692,5.5191385],"ct":"NL","tp":"CS","ts":"2023-05-30T12:26:12Z","tX":527,"tY":337,"tags":{"addr:city":"Renswoude","addr:housenumber":"19","addr:postcode":"3927CV","addr:street":"Biesbosserweg","email":"recreatieboerderij@dekleineweide.nl","name":"De Kleine Weide","phone":"+31 33 277 1400","source":"3dShapes","website":"https://dekleineweide.com/"}},"75558276":{"location":[52.0568506,5.507166],"ct":"NL","tp":"CS","ts":"2022-08-14T15:20:28Z","tX":527,"tY":337,"tags":{"addr:city":"Renswoude","addr:housenumber":"9","addr:postcode":"3927CR","addr:street":"Groeperweg","contact:website":"https://www.groeperkade.nl","name":"Minicamping Groeperkade","source":"3dShapes"}},"83375385":{"location":[52.2589572,5.5109035],"ct":"NL","tp":"CR","ts":"2011-12-28T20:50:08Z","tX":527,"tY":337,"tags":{"name":"Arlerstrand"}},"168285377":{"location":[52.1543397,5.3300512],"ct":"NL","tp":"CS","ts":"2023-05-30T12:26:13Z","tX":527,"tY":337,"tags":{"caravans":"yes","contact:phone":"+31 33 465 5044","name":"Naturistenterrein De Birk","nudism":"designated","tents":"yes","website":"https://debirk.nl/"}},"205528747":{"location":[52.0840485,5.5534835],"ct":"NL","tp":"CS","ts":"2022-06-26T16:12:16Z","tX":527,"tY":337,"tags":{"contact:website":"https://www.campingdegrebbelinie.nl","name":"Camping de Grebbelinie"}},"245668425":{"location":[52.1127966,5.4419074],"ct":"NL","tp":"CS","ts":"2022-05-04T14:48:07Z","tX":527,"tY":337,"tags":{"addr:city":"Leusden","addr:housenumber":"2B","addr:postcode":"3831RZ","addr:street":"Langesteeg","name":"Minicamping Larikâ€™s Hoeve","phone":"+31 6 31572669","website":"https://larikshoeve.nl"}},"265002128":{"location":[52.1223672,5.3873156],"ct":"NL","tp":"CS","ts":"2023-08-19T20:49:43Z","tX":527,"tY":337,"tags":{"building":"yes","capacity":"500","caravans":"no","drinking_water":"yes","group_only":"yes","motorhome":"no","name":"YMCA kampeerterrein","operator":"YMCA","permanent_camping":"no","ref:bag":"0327100000294615","shower":"yes","source":"BAG","source:date":"2019-10-17","start_date":"2013","static_caravans":"no","tents":"yes","toilets":"yes","website":"https://www.ymcakampeercentra.nl/leusden/"}},"299041387":{"location":[52.0691722,5.6199661],"ct":"NL","tp":"CS","ts":"2023-05-30T12:18:55Z","tX":527,"tY":337,"tags":{"capacity:pitches":"70","caravans":"yes","contact:website":"https://deoldenhove.nl","email":"contact@deoldenhove.nl","motorhome":"yes","name":"De Oldenhove","phone":"+31 318 482 956","shower":"yes","tents":"yes","toilets":"yes"}},"307156631":{"location":[52.2431671,5.3146628],"ct":"NL","tp":"CS","ts":"2024-04-27T20:11:00Z","tX":527,"tY":337,"tags":{"addr:city":"Eemdijk","addr:housenumber":"157-159","addr:postcode":"3754NG","addr:street":"Eemdijk","caravans":"yes","email":"info@boerencampingbuitenlust.nl","name":"Buitenlust","operator":"E. van Twillert","phone":"+31 6 50251420","shower":"yes","source":"3dShapes","static_caravans":"no","tents":"yes","toilets":"yes","website":"https://www.boerencampingbuitenlust.nl"}},"307905817":{"location":[52.1022745,5.5371024],"ct":"NL","tp":"CS","ts":"2024-12-03T22:52:04Z","tX":527,"tY":337,"tags":{"chalet":"yes","name":"De Leughte Resort Renswoude","website":"https://resortrenswoude.nl"}},"483910162":{"location":[52.2314684,5.5140608],"ct":"NL","tp":"CS","ts":"2024-06-30T06:28:13Z","tX":527,"tY":337,"tags":{"brand":"SVR","cabins":"yes","capacity:cabins":"1","capacity:pitches":"25","caravans":"yes","drinking_water":"yes","email":"info@spochthoorn.nl","name":"Kampeerboerderij De Spochthoorn","phone":"+31 6 49378700","power_supply":"no","sanitary_dump_station":"yes","shower":"yes","tents":"yes","toilets":"yes","website":"https://www.spochthoorn.nl/"}},"493958511":{"location":[52.1544869,5.5057506],"ct":"NL","tp":"CS","ts":"2022-05-12T15:08:06Z","tX":527,"tY":337,"tags":{"addr:city":"Terschuur","addr:housenumber":"4","addr:postcode":"3784VJ","addr:street":"Nieuw Hofweg","name":"Camping Nieuw Hof","website":"https://campingnieuwhof.nl/"}},"501810118":{"location":[52.1581941,5.3351906],"ct":"NL","tp":"CS","ts":"2024-04-27T11:32:35Z","tX":527,"tY":337,"tags":{"addr:city":"Soest","addr:housenumber":"132","addr:postcode":"3768HM","addr:street":"Birkstraat","cabins":"yes","camper":"yes","caravans":"yes","email":"receptie@duynparcsoest.nl","name":"Duynparc Soest","phone":"+31 33 203 0130","tents":"yes","website":"https://www.duynparcsoest.nl"}},"617857543":{"location":[52.17552,5.5851312],"ct":"NL","tp":"CS","ts":"2023-09-18T15:19:36Z","tX":527,"tY":337,"tags":{"name":"Camping Romalo","website":"https://www.camping-romalo.nl"}},"799377154":{"location":[52.216898,5.4436081],"ct":"NL","tp":"CS","ts":"2023-05-30T12:19:07Z","tX":527,"tY":337,"tags":{"brand":"SVR","cabins":"yes","capacity:cabins":"1","capacity:pitches":"25","caravans":"yes","contact:website":"http://www.campingcoterlet.nl","name":"Camping Coterlet","phone":"+31 6 22975474;+31 6 42961144","shower":"yes","tents":"yes","toilets":"yes"}},"813665566":{"location":[52.256434,5.3967316],"ct":"NL","tp":"CS","ts":"2023-06-16T12:58:59Z","tX":527,"tY":337,"tags":{"addr:city":"Zeewolde","addr:housenumber":"9","addr:postcode":"3896LD","addr:street":"Slingerweg","caravans":"yes","contact:website":"https://campingmarinaeemhof.nl/","name":"Camping Marina Hof","shower":"yes","tents":"yes","toilets":"yes"}},"814327099":{"location":[52.2594403,5.4391171],"ct":"NL","tp":"CS","ts":"2023-04-14T09:54:16Z","tX":527,"tY":337,"tags":{"cabins":"yes","caravans":"yes","contact:website":"https://landgoed-energy-up.nl/verblijf/kamperen","name":"Energy-up","tents":"yes"}},"870465788":{"location":[52.0525763,5.5095665],"ct":"NL","tp":"CS","ts":"2023-07-17T18:04:36Z","tX":527,"tY":337,"tags":{"cabins":"yes","capacity:cabins":"1","capacity:pitches":"11","caravans":"yes","email":"info@minicampingdereiger.nl","landcover":"grass","motorhome":"yes","name":"De Reiger","phone":"+31 6 25370190","shower":"yes","source":"3dShapes","tents":"yes","toilets":"yes","website":"https://minicampingdereiger.nl/"}},"877977454":{"location":[52.234008,5.6150078],"ct":"NL","tp":"CR","ts":"2020-11-26T19:06:06Z","tX":527,"tY":337,"tags":{"permanent_camping":"no","tents":"no"}},"888964375":{"location":[52.2128572,5.5703261],"ct":"NL","tp":"CS","ts":"2023-04-15T21:07:56Z","tX":527,"tY":337,"tags":{"addr:city":"Putten","addr:housenumber":"6","addr:postcode":"3882LT","addr:street":"Hevelschutterweg","caravans":"yes","name":"minicamping Gervense Heide","shower":"yes","source":"BAG","source:date":"2014-06-03","tents":"yes","toilets":"yes","website":"https://gervenseheide.nl/"}},"890224032":{"location":[52.1916437,5.5270478],"ct":"NL","tp":"CS","ts":"2020-12-30T17:38:38Z","tX":527,"tY":337,"tags":{}},"977495785":{"location":[52.0763862,5.4697704],"ct":"NL","tp":"CR","ts":"2025-01-18T13:45:38Z","tX":527,"tY":337,"tags":{"addr:city":"Scherpenzeel","addr:housenumber":"39","addr:postcode":"3925BA","addr:street":"Brinkkanterweg","capacity":"24","caravan_site":"motorhome_stopover","caravan_site:type":"farm","charge":"17 EUR","designation":"campers","dog":"leashed","email":"info@camperplaatsdepol.nl","fee":"yes","internet_access":"wlan","internet_access:fee":"no","name":"Camperplaats De Pol","phone":"+31 6 21355859","power_supply":"yes","power_supply:maxcurrent":"16","sanitary_dump_station":"yes","surface":"pebblestone","tents":"no","toilets":"yes","water_point":"yes","website":"https://camperplaatsdepol.nl"}},"1047231050":{"location":[52.262559,5.6077045],"ct":"NL","tp":"CR","ts":"2025-02-01T15:17:28Z","tX":527,"tY":337,"tags":{"cabins":"no","capacity":"6","caravan_site":"motorhome_stopover","end_date":"2025-12-31","fee":"no","internet_access":"no","name":"Camperplaats Putten","power_supply":"no","sanitary_dump_station":"no","static_caravans":"no","tents":"no","toilets":"no"}},"1053646999":{"location":[52.2262936,5.3561769],"ct":"NL","tp":"CS","ts":"2023-04-14T09:21:27Z","tX":527,"tY":337,"tags":{"access":"customers","addr:city":"Bunschoten-Spakenburg","addr:housenumber":"7","addr:postcode":"3752LK","addr:street":"bisschopsweg","capacity:caravans":"0","capacity:persons":"40","contact:website":"https://www.eemlandhoeve.nl/overnachten","fee":"yes","name":"Eemlandhoeve","operator":"Eemlandhoeve","payment:cash":"yes","payment:contactless":"yes","payment:credit_cards":"yes","payment:debit_cards":"yes","remark":"Only small 2p. tents","shower":"yes","tents":"yes","toilets":"yes"}},"1165995168":{"location":[52.0808475,5.3845724],"ct":"NL","tp":"CS","ts":"2023-05-30T12:26:24Z","tX":527,"tY":337,"tags":{"cabins":"yes","caravans":"yes","email":"info@campingboerenerf.nl","motorhome":"yes","name":"Camping 't Boerenerf","phone":"+31 33 286 1424","shower":"yes","tents":"yes","toilets":"yes","website":"https://www.campingboerenerf.nl/"}},"1169004050":{"location":[52.0932605,5.2850766],"ct":"NL","tp":"CS","ts":"2024-04-19T16:25:54Z","tX":527,"tY":337,"tags":{"addr:city":"Zeist","addr:housenumber":"17","addr:postcode":"3707HW","addr:street":"Woudenbergseweg","caravans":"yes","name":"Allurepark De Krakeling","tents":"yes","website":"https://www.dekrakeling.nl/"}},"1176646693":{"location":[52.0557886,5.4254281],"ct":"NL","tp":"CS","ts":"2023-08-25T21:03:06Z","tX":527,"tY":337,"tags":{"capacity:pitches":"100","caravans":"yes","email":"info@campingom.nl","mobile":"+31 6 50816868","name":"Oud Meijenhorst","phone":"+31 343 431 800","shower":"yes","static_caravans":"yes","tents":"yes","toilets":"yes","website":"https://www.campingom.nl"}},"1184609164":{"location":[52.2124403,5.5357144],"ct":"NL","tp":"CS","ts":"2023-06-24T10:13:38Z","tX":527,"tY":337,"tags":{"capacity:pitches":"20","caravans":"yes","internet_access":"wlan","internet_access:fee":"no","name":"De Elzenhoeve","phone":"+31 33 245 1736","shower":"yes","swimming_pool":"yes","tents":"yes","toilets":"yes","website":"https://www.elzenhoeve.com"}},"1188171269":{"location":[52.1736822,5.6037164],"ct":"NL","tp":"CS","ts":"2023-07-17T18:00:21Z","tX":527,"tY":337,"tags":{"capacity:pitches":"25","caravans":"yes","name":"Zeumeren","opening_hours":"Apr 1 - Oct 22","phone":"+31 6 11421334","shower":"yes","tents":"yes","toilets":"yes","website":"https://www.svrcampingzeumeren.nl/"}},"1195205569":{"location":[52.2460352,5.6194683],"ct":"NL","tp":"CS","ts":"2023-08-06T10:58:27Z","tX":527,"tY":337,"tags":{"capacity:pitches":"13","caravans":"yes","email":"info@ravenest.nl","name":"'t Ravenest","opening_hours":"Apr 1 - Oct 1","phone":"+31 341 352 159","shower":"yes","tents":"yes","toilets":"yes","website":"https://www.ravenest.nl/kamperen-rust/"}},"1195319820":{"location":[52.2663778,5.4269157],"ct":"NL","tp":"CS","ts":"2023-08-06T18:58:29Z","tX":527,"tY":337,"tags":{"addr:city":"Zeewolde","addr:housenumber":"2","addr:postcode":"3896LA","addr:street":"Wielseweg","caravans":"yes","name":"Natuurkamping De Altena","phone":"+31 6 48300767","shower":"yes","tents":"yes","toilets":"yes","website":"https://www.natuurcampingdealtena.nl/"}},"1208312223":{"location":[52.2563833,5.4632755],"ct":"NL","tp":"CR","ts":"2025-01-23T14:04:24Z","tX":527,"tY":337,"tags":{"capacity":"25","caravan_site":"motorhome_stopover","caravan_site:type":"beach;harbour","caravans":"no","charge":"24.50 EUR","dog":"leashed","dog:charge":"2 EUR","dog:fee":"yes","fee":"yes","maxlength":"12","name":"Nijkerk aan Zee","power_supply":"yes","power_supply:charge":"3 EUR","power_supply:fee":"yes","power_supply:maxcurrent":"10","reservation":"no","sanitary_dump_station":"yes","sanitary_dump_station:chemical_toilet":"yes","sanitary_dump_station:fee":"no","sanitary_dump_station:grey_water":"yes","tents":"no","water_point":"yes","water_point:fee":"no","website":"https://nijkerkaanzee.nl/camperpark/"}},"1236138131":{"location":[52.1620735,5.3783776],"ct":"NL","tp":"CR","ts":"2025-01-23T13:47:00Z","tX":527,"tY":337,"tags":{"addr:street":"Kleine Koppel","capacity":"3","caravan_site":"motorhome_stopover","caravan_site:type":"city;river","caravans":"no","charge":"13 EUR","fee":"yes","maxstay":"72 hours","name":"Camperplaatsen Eemhaven","power_supply":"yes","power_supply:seasonal":"yes","sanitary_dump_station":"yes","seasonal":"no","tents":"no","toilets":"yes","toilets:seasonal":"yes","water_point":"yes","water_point:seasonal":"yes","website":"https://www.vvvamersfoort.nl/nl/locaties/1383/camperplaatsen-eemhaven"}},"1246910318":{"location":[52.1151687,5.3780595],"ct":"NL","tp":"CS","ts":"2024-07-16T14:50:17Z","tX":527,"tY":337,"tags":{"access":"private","addr:city":"Leusden","addr:housenumber":"2","addr:postcode":"3832RK","addr:street":"Leusdensepad","description":"Dit kampeerterrein is alleen toegankelijk voor leden van de NTKC","dog":"leashed","internet_access":"no","name":"NTKC Den Treek","operator":"Nederlandse Toeristen Kampeer Club","power_supply":"yes","website":"https://www.kampeerclub.nl/terrein/kampeerterrein-den-treek"}},"1292381121":{"location":[52.0790384,5.3214055],"ct":"NL","tp":"CS","ts":"2024-06-14T13:41:05Z","tX":527,"tY":337,"tags":{"access":"private","addr:city":"Austerlitz","addr:housenumber":"37","addr:postcode":"3711CE","addr:street":"Hubertweg","description":"Dit kampeerterrein is alleen toegankelijk voor leden van de NTKC","dog":"leashed","internet_access":"no","name":"NTKC Austerlitz","operator":"Nederlandse Toeristen Kampeer Club","power_supply":"yes","website":"https://www.kampeerclub.nl/terrein/kampeerterrein-austerlitz"}},"1322303018":{"location":[52.1093301,5.6233285],"ct":"NL","tp":"CS","ts":"2024-10-08T16:42:25Z","tX":527,"tY":337,"tags":{}},"1353677157":{"location":[52.1678127,5.3644858],"ct":"NL","tp":"CR","ts":"2025-01-23T14:00:09Z","tX":527,"tY":337,"tags":{"capacity":"12","caravan_site":"motorhome_stopover","caravan_site:type":"city;harbour","charge":"13 EUR","dog":"yes","fee":"yes","maxstay":"7 days","name":"Camperplaatsen Insteekhaven","power_supply":"yes","power_supply:seasonal":"yes","sanitary_dump_station":"yes","sanitary_dump_station:chemical_toilet":"yes","sanitary_dump_station:grey_water":"yes","shower":"yes","toilets":"yes","water_point":"yes","water_point:seasonal":"yes","website":"https://www.vvvamersfoort.nl/nl/locaties/6027/camperplaatsen-insteekhaven"}},"1353680752":{"location":[52.2020466,5.4667466],"ct":"NL","tp":"CR","ts":"2025-01-23T14:13:59Z","tX":527,"tY":337,"tags":{"addr:city":"Nijkerkerveen","addr:housenumber":"6","addr:postcode":"3864DZ","addr:street":"Vrouwenweg","caravan_site":"motorhome_stopover","caravan_site:type":"equestrian","charge":"15 EUR","email":"stalhiensch@outlook.com","fee":"yes","name":"camperplaats Stal Hiensch","phone":"+31 6 51558872","source":"BAG","source:date":"2014-02-11","surface":"pebblestone","website":"https://stalhiensch.nl/camperplaats/"}},"1399690828":{"location":[52.1106092,5.5092842],"ct":"NL","tp":"CR","ts":"2025-06-20T14:11:56Z","tX":527,"tY":337,"tags":{"capacity":"24","fee":"yes","name":"Camperplaats Bij Frans","power_supply":"yes","sanitary_dump_station":"yes","website":"https://bij-frans.nl/"}},"1448950155":{"location":[52.0735581,5.3896768],"ct":"NL","tp":"CS","ts":"2022-06-26T07:09:41Z","tX":527,"tY":337,"tags":{"contact:website":"https://campingeijckelenburg.nl","name":"Camping Eijckelenburg"}},"1860427707":{"location":[52.1941613,5.4405912],"ct":"NL","tp":"CS","ts":"2022-06-26T07:09:41Z","tX":527,"tY":337,"tags":{"contact:website":"https://www.overbos-recreatiepark.nl/","name":"Overbos"}},"2242684123":{"location":[52.1874716,5.6230106],"ct":"NL","tp":"CR","ts":"2024-06-21T13:34:13Z","tX":527,"tY":337,"tags":{"addr:city":"Voorthuizen","addr:housenumber":"17","addr:postcode":"3781NG","addr:street":"Bosweg","cabins":"yes","campers":"yes","caravans":"yes","fee":"yes","internet_access":"wlan","name":"Het Beloofde Land","power_supply":"yes","source":"BAG","source:date":"2019-10-03","tents":"yes","website":"https://www.beloofde-land.nl/"}},"2347783006":{"location":[52.1883413,5.539828],"ct":"NL","tp":"CS","ts":"2022-06-26T07:09:41Z","tX":527,"tY":337,"tags":{"contact:website":"https://www.demaaneschijn.nl","name":"Camping De Maaneschijn"}},"2706624772":{"location":[52.1138319,5.3653341],"ct":"NL","tp":"CS","ts":"2025-03-16T07:23:15Z","tX":527,"tY":337,"tags":{"addr:city":"Leusden","addr:housenumber":"29b","addr:postcode":"3832RM","addr:street":"Doornseweg","caravans":"yes","contact:website":"https://www.derecreatie.nl/","name":"De ReCreatie","source":"BAG","source:date":"2014-02-11","tents":"yes"}},"2717379562":{"location":[52.2016315,5.4655795],"ct":"NL","tp":"CR","ts":"2023-06-28T09:26:16Z","tX":527,"tY":337,"tags":{"addr:city":"Nijkerkerveen","addr:housenumber":"8","addr:postcode":"3864DZ","addr:street":"Vrouwenweg","fee":"yes","name":"camperplaats Stal Hiensch","source":"BAG","source:date":"2014-02-11"}},"2718563259":{"location":[52.1914093,5.5270866],"ct":"NL","tp":"CS","ts":"2021-06-18T17:55:10Z","tX":527,"tY":337,"tags":{"addr:city":"Nijkerk","addr:housenumber":"21","addr:postcode":"3862PR","addr:street":"Koperweg","name":"Camping De Rode Berk","source":"BAG","source:date":"2014-02-11","website":"https://www.derodeberk.nl/"}},"10844768828":{"location":[52.0543961,5.3777092],"ct":"NL","tp":"CS","ts":"2023-08-05T16:07:28Z","tX":527,"tY":337,"tags":{"cabins":"yes","caravans":"yes","motorhome":"yes","name":"Vakantiecentrum De Halm","phone":"+31 343 441 413","shower":"yes","tents":"yes","toilets":"yes","website":"https://www.vakantiecentrumdehalm.nl/"}},"11961205465":{"location":[52.1422065,5.5047136],"ct":"NL","tp":"CS","ts":"2024-06-06T17:01:54Z","tX":527,"tY":337,"tags":{"addr:city":"Achterveld","addr:housenumber":"29","addr:postcode":"3792NK","addr:street":"Klettersteeg","name":"Camping de Kleine Fliert"}},"8752710806":{"location":[52.2312136,5.5138135],"ct":"NL","tp":"SD","ts":"2021-05-21T10:50:30Z","tX":527,"tY":337,"tags":{"access":"customers","fee":"no","operator":"Camping De Spochthoorn"}},"12544813401":{"location":[52.1676213,5.3654839],"ct":"NL","tp":"CR","ts":"2025-01-30T20:46:40Z","tX":527,"tY":337,"tags":{}},"12526429599":{"location":[52.1676641,5.3654949],"ct":"NL","tp":"SD","ts":"2025-01-23T14:00:09Z","tX":527,"tY":337,"tags":{"access":"yes","fee":"no","sanitary_dump_station:chemical_toilet":"yes","sanitary_dump_station:grey_water":"yes","water_point":"yes","water_point:seasonal":"yes"}}}