{"26859317":{"location":[51.704722,5.430833],"ct":"NL","tp":"CS","ts":"2007-03-28T17:19:02Z","tX":527,"tY":339,"tags":{"created_by":"JOSM","name":"Vinkeloord"}},"79848983":{"location":[51.7479048,5.3465438],"ct":"NL","tp":"CS","ts":"2019-04-22T20:45:57Z","tX":527,"tY":339,"tags":{"name":"Camping Ter Drucht","source":"3dShapes"}},"80648604":{"location":[51.6618535,5.5812438],"ct":"NL","tp":"CS","ts":"2019-12-06T20:12:04Z","tX":527,"tY":339,"tags":{"landuse":"grass","name":"mini camping \"Bedafs Hofke\"","source":"3dShapes"}},"80648869":{"location":[51.6940027,5.5815665],"ct":"NL","tp":"CS","ts":"2024-05-30T13:03:45Z","tX":527,"tY":339,"tags":{"caravans":"yes","email":"lindenhoeve@home.nl","landcover":"grass","mobile":"+31 6 15241157","name":"De Lindenhoeve.","phone":"+31 412 617 110","shower":"yes","tents":"yes","toilets":"yes","website":"http://minicamping.robvandeheuvel.nl/"}},"80771810":{"location":[51.6274485,5.3770112],"ct":"NL","tp":"CS","ts":"2024-09-01T15:51:04Z","tX":527,"tY":339,"tags":{"addr:housenumber":"2","addr:street":"Vogelenzang","landuse":"grass","name":"Natuurkampeerterrein Vogelenzang","source":"3dShapes","website":"https://kampeerboerderij-vogelenzang.nl"}},"303744687":{"location":[51.7622431,5.6214785],"ct":"NL","tp":"CS","ts":"2008-10-11T14:27:43Z","tX":527,"tY":339,"tags":{"name":"Vakantiepark Herperduin"}},"310486715":{"location":[51.6938782,5.2801129],"ct":"NL","tp":"CS","ts":"2023-09-30T23:35:02Z","tX":527,"tY":339,"tags":{"access":"customers","capacity":"66","caravans":"no","dog":"leashed","fee":"yes","lit":"yes","motorhome":"yes","name":"Camperplaats Den Bosch","name:de":"Stellplatz Den Bosch","name:en":"Motorhome site Den Bosch","tents":"no","website":"https://camperplaatsdenbosch.com/"}},"437075129":{"location":[51.6677315,5.4775599],"ct":"NL","tp":"CR","ts":"2016-11-25T21:15:34Z","tX":527,"tY":339,"tags":{"name":"De Wildhorst"}},"455818150":{"location":[51.667913,5.4818105],"ct":"NL","tp":"CS","ts":"2016-11-25T21:15:34Z","tX":527,"tY":339,"tags":{"name":"De Meerdonk"}},"499903751":{"location":[51.8102161,5.4131107],"ct":"NL","tp":"CS","ts":"2024-02-29T08:46:03Z","tX":527,"tY":339,"tags":{"name":"Maaspark De Lithse Ham"}},"706632367":{"location":[51.8227838,5.5753713],"ct":"NL","tp":"CS","ts":"2023-05-30T20:11:03Z","tX":527,"tY":339,"tags":{"addr:city":"Megen","addr:housenumber":"3","addr:postcode":"5366KA","addr:street":"Rulstraat","capacity":"12","fee":"yes","internet_access":"wlan","internet_access:fee":"no","name":"Natuurkampeerterrein De Maasakker","payment:cash":"yes","payment:debit_cards":"yes","phone":"+31 412 484 332","website":"https://www.campingdemaasakker.nl"}},"1091625843":{"location":[51.6939972,5.4172313],"ct":"NL","tp":"CS","ts":"2025-01-12T10:03:00Z","tX":527,"tY":339,"tags":{"addr:city":"Berlicum","addr:housenumber":"17","addr:postcode":"5258TC","addr:street":"Werstkant","name":"Camping De Hooghe Heide","website":"https://www.hoogheheide.nl/"}},"1157435284":{"location":[51.8312223,5.5366455],"ct":"NL","tp":"CS","ts":"2023-05-30T12:19:15Z","tX":527,"tY":339,"tags":{"cabins":"yes","caravans":"yes","mobile":"+31 6 22767552","name":"Moleneind","phone":"+31 487 562 397","shower":"yes","tents":"yes","toilets":"yes","website":"https://www.minicampingmoleneind.nl/"}},"1157507226":{"location":[51.8350262,5.5508279],"ct":"NL","tp":"CS","ts":"2024-05-30T15:53:37Z","tX":527,"tY":339,"tags":{"cabins":"yes","caravans":"yes","motorhome":"yes","name":"Het Groene Eiland","phone":"+31 487 562 130","shower":"yes","static_caravans":"yes","tents":"yes","toilets":"yes","website":"https://www.groeneeiland.nl/"}},"1157771796":{"location":[51.8296378,5.5667808],"ct":"NL","tp":"CS","ts":"2023-05-30T12:19:15Z","tX":527,"tY":339,"tags":{"caravans":"yes","email":"c.roffelsen@hetnet.nl;c.roffelsen@hetnet.nl","landcover":"grass","motorhome":"yes","name":"Het Megensche Veerhuis","phone":"+31 6 55336925","shower":"yes","tents":"yes","toilets":"yes","website":"https://www.megenscheveerhuis.nl/"}},"1183487659":{"location":[51.7392541,5.4413825],"ct":"NL","tp":"CS","ts":"2023-07-17T18:01:42Z","tX":527,"tY":339,"tags":{"caravans":"yes","email":"info@minicampinghuismans.nl","landcover":"grass","name":"Minicamping Huismans","phone":"+31 6 38026344","shower":"yes","tents":"yes","toilets":"yes","website":"https://www.minicampinghuismans.nl/"}},"1197505592":{"location":[51.6939827,5.5822857],"ct":"NL","tp":"CS","ts":"2023-08-12T20:56:50Z","tX":527,"tY":339,"tags":{"caravans":"yes","email":"info@minicampinguitgerust.nl","name":"Uitgerust","shower":"yes","tents":"yes","toilets":"yes","website":"https://www.minicampinguitgerust.nl"}},"1197646896":{"location":[51.6617548,5.476337],"ct":"NL","tp":"CS","ts":"2023-08-13T11:35:03Z","tX":527,"tY":339,"tags":{"cabins":"yes","capacity:pitches":"23","caravans":"yes","email":"info@minicampingbijonsachter.nl","name":"Bij ons achter","opening_hours":"Mar 31 - Oct 15","phone":"+31 413 300 577","shower":"yes","tents":"yes","toilets":"yes","website":"https://www.minicampingbijonsachter.nl/"}},"1211536093":{"location":[51.728591,5.6007026],"ct":"NL","tp":"CS","ts":"2024-07-01T17:22:54Z","tX":527,"tY":339,"tags":{"access":"private","addr:city":"Schaijk","addr:housenumber":"8","addr:postcode":"5374PC","addr:street":"Palmstraat","description":"Dit kampeerterrein is alleen toegankelijk voor leden van de NTKC","dog":"leashed","internet_access":"no","name":"NTKC De Brobbelbies","operator":"Nederlandse Toeristen Kampeer Club","power_supply":"yes","website":"https://www.kampeerclub.nl/terrein/kampeerterrein-brobbelbies"}},"1236408984":{"location":[51.8315762,5.5617775],"ct":"NL","tp":"CR","ts":"2025-01-19T20:32:33Z","tX":527,"tY":339,"tags":{"caravan_site":"motorhome_stopover","caravan_site:type":"lake","caravans":"no","charge":"12.50 EUR+tourist_tax","designation":"camper","fee":"yes","motorhome":"designated","name":"Riverside Camperplaats","opening_hours":"24/7","power_supply":"yes","power_supply:charge":"2.50 EUR","power_supply:fee":"yes","reservation":"no","seasonal":"no","shower":"yes","tents":"no","toilets":"yes","water_point":"yes","website":"https://www.riverside.nl/locatie/camping-kamperen/"}},"1352081592":{"location":[51.6956668,5.3909828],"ct":"NL","tp":"CR","ts":"2025-01-17T14:05:22Z","tX":527,"tY":339,"tags":{"capacity":"10","caravan_site":"motorhome_stopover","caravan_site:type":"farm_shop","charge":"12 EUR","facebook":"https://www.facebook.com/p/Camperplaats-Berlicum-100057596223176/","fee":"yes","name":"Camperplaats Berlicum","phone":"+31 6 23176033","power_supply":"yes","power_supply:charge":"2 EUR","power_supply:fee":"yes","sanitary_dump_station":"yes","sanitary_dump_station:chemical_toilet":"yes","sanitary_dump_station:grey_water":"yes","surface":"grass","water_point":"yes"}},"2743118159":{"location":[51.7335598,5.4019524],"ct":"NL","tp":"CS","ts":"2024-06-02T19:03:56Z","tX":527,"tY":339,"tags":{"WLAN":"no","addr:city":"Rosmalen","addr:housenumber":"58","addr:postcode":"5249PA","addr:street":"Kruisstraat","caravans":"yes","name":"Boerderijwinkel & Minicamping 'Het groene erf'","source":"BAG","source:date":"2014-03-24","tents":"yes","website":"https://www.het-groene-erf.nl/"}},"2792328466":{"location":[51.6354332,5.4072941],"ct":"NL","tp":"CS","ts":"2023-06-13T05:55:55Z","tX":527,"tY":339,"tags":{"addr:city":"Schijndel","addr:housenumber":"1A","addr:postcode":"5482ZG","addr:street":"Lieseindsestraat","caravans":"yes","contact:mobile":"+31 6 22453401","name":"De Miesboule","phone":"+31 73 547 4821","shower":"yes","source":"BAG","source:date":"2014-03-24","tents":"yes","toilets":"yes"}},"2796942020":{"location":[51.6509668,5.5684727],"ct":"NL","tp":"CS","ts":"2022-05-21T08:59:45Z","tX":527,"tY":339,"tags":{"addr:city":"Vorstenbosch","addr:housenumber":"7","addr:postcode":"5476VV","addr:street":"Scheiweg","name":"Leijland","source":"BAG","source:date":"2014-03-24","website":"https://www.leijland.nl/"}},"2914402239":{"location":[51.7309381,5.6031502],"ct":"NL","tp":"CS","ts":"2021-03-05T15:47:57Z","tX":527,"tY":339,"tags":{"addr:city":"Schaijk","addr:housenumber":"7","addr:postcode":"5374PC","addr:street":"Palmstraat","name":"Camping De Maashorst","source":"BAG","source:date":"2014-06-13","website":"https://campingdemaashorst.nl"}},"3006316575":{"location":[51.6627951,5.5811966],"ct":"NL","tp":"CS","ts":"2023-03-27T18:31:17Z","tX":527,"tY":339,"tags":{"addr:city":"Uden","addr:housenumber":"3","addr:postcode":"5406PH","addr:street":"Karperdijk","name":"mini camping \"Bedafs Hofke\"","source":"BAG","source:date":"2014-08-09","website":"https://www.bedafshofke.nl/"}},"5744111600":{"location":[51.7010032,5.4142093],"ct":"NL","tp":"CS","ts":"2020-12-15T18:48:25Z","tX":527,"tY":339,"tags":{"addr:city":"Rosmalen","addr:housenumber":"1","addr:postcode":"5248NP","addr:street":"Weteringstraat","fee":"yes","name":"Naturisten Vereniging Hertogstad","nudism":"obligatory","phone":"+31 73 203 2064","website":"https://www.hertogstad.nl"}},"7810807128":{"location":[51.6880328,5.5659538],"ct":"NL","tp":"CS","ts":"2023-11-09T07:07:38Z","tX":527,"tY":339,"tags":{"name":"Scoutcentrum Achter de Berg","scout":"yes","website":"https://www.achterdeberg.nl/index_nl.php"}},"10814012543":{"location":[51.6716719,5.3615137],"ct":"NL","tp":"CS","ts":"2023-04-15T07:52:19Z","tX":527,"tY":339,"tags":{"addr:housenumber":"50","addr:street":"Bosscheweg","name":"De Groene Donk","tents":"yes","website":"https://degroenedonk.nl/"}},"11033327602":{"location":[51.8165927,5.6191707],"ct":"NL","tp":"CS","ts":"2023-07-07T21:19:51Z","tX":527,"tY":339,"tags":{"alt_name":"Laurenshoeve","cabins":"yes","capacity:pitches":"25","caravans":"yes","fixme":"Exacte positie camping, bij voorkeur intekenen als area","name":"Maaspark recreatie","phone":"+31 6 55816866","shower":"yes","tents":"yes","toilets":"yes","website":"http://laurenshoeve.nl/camping/"}},"9847960548":{"location":[51.6963341,5.3909042],"ct":"NL","tp":"CR","ts":"2023-06-25T21:30:12Z","tX":527,"tY":339,"tags":{"name":"Camperplaats Berlicum"}},"11230122679":{"location":[51.6937124,5.2803785],"ct":"NL","tp":"SD","ts":"2023-09-30T23:35:02Z","tX":527,"tY":339,"tags":{"sanitary_dump_station:chemical_toilet":"yes","sanitary_dump_station:gravity":"yes","sanitary_dump_station:grey_water":"yes"}},"11230122680":{"location":[51.6934051,5.2805377],"ct":"NL","tp":"SD","ts":"2023-09-30T23:35:02Z","tX":527,"tY":339,"tags":{"sanitary_dump_station:chemical_toilet":"yes","sanitary_dump_station:gravity":"yes","sanitary_dump_station:grey_water":"yes"}}}