{"1257327":{"location":[51.5726184,5.3464936],"ct":"NL","tp":"CS","ts":"2017-03-28T20:28:28Z","tX":527,"tY":340,"tags":{"landuse":"grass","name":"Mini Camping Den Oorsprong","source":"3dShapes"}},"10529487":{"location":[51.4386988,5.5875417],"ct":"NL","tp":"CS","ts":"2020-01-02T22:01:05Z","tX":527,"tY":340,"tags":{"addr:city":"Mierlo","addr:housenumber":"4","addr:postcode":"5731XN","addr:street":"Patrijslaan","name":"Bospark 't Wolfsven","operator":"Roompot Vakanties","website":"https://www.roompot.nl/vakantieparken/nederland/noord-brabant/bospark-t-wolfsven/"}},"16094706":{"location":[51.452271,5.347974],"ct":"NL","tp":"CS","ts":"2023-07-17T18:01:43Z","tX":527,"tY":340,"tags":{"capacity:pitches":"30","caravans":"yes","email":"Info@campingtdekske.nl","mobile":"+31 6 39687540;+31 6 41725372","motorhome":"yes","name":"'t Dekske","operator":"Marja en Harry Geven","phone":"+31 40 205 2612","shower":"yes","tents":"yes","toilets":"yes","website":"https://www.campingtdekske.nl/"}},"26859268":{"location":[51.4964026,5.3199301],"ct":"NL","tp":"CS","ts":"2022-10-30T20:23:44Z","tX":527,"tY":340,"tags":{"addr:city":"Oirschot","addr:housenumber":"7","addr:postcode":"5688GP","addr:street":"Bloemendaal","name":"Latour","source":"BAG","source:date":"2014-03-24"}},"39906382":{"location":[51.5212179,5.3940446],"ct":"NL","tp":"PK","ts":"2023-10-11T10:13:19Z","tX":527,"tY":340,"tags":{"capacity":"44","fee":"no","motorhome":"yes","name":"Carpool Best-West A2","park_ride":"no","supervised":"yes","surface":"paved"}},"83465786":{"location":[51.5469965,5.4891657],"ct":"NL","tp":"CS","ts":"2023-07-29T22:45:31Z","tX":527,"tY":340,"tags":{"caravans":"yes","email":"info@degraspol.nl","name":"De Graspol","opening_hours":"Mar 1 - Nov 1","phone":"+31 499 338 229","reservation":"recommended","shower":"yes","tents":"yes","toilets":"yes","website":"https://www.landschapscamping.com/"}},"84091815":{"location":[51.5151188,5.3223238],"ct":"NL","tp":"CS","ts":"2018-08-05T14:22:30Z","tX":527,"tY":340,"tags":{"source":"3dShapes"}},"84093786":{"location":[51.500265,5.3249334],"ct":"NL","tp":"CR","ts":"2025-01-20T13:52:25Z","tX":527,"tY":340,"tags":{"caravan_site":"motorhome_stopover","caravan_site:type":"canal","charge":"19.50 EUR","check_out":"12:00","dog":"leashed","dog:fee":"no","dog_park":"yes","fee":"yes","internet_access":"wlan","internet_access:fee":"no","maxstay":"14 days","name":"Camperplaats Oirschot","phone":"+31 6 37228098","power_supply":"yes","power_supply:charge":"3.50 EUR/day","power_supply:fee":"yes","power_supply:maxcurrent":"6","reservation":"holidays","sanitary_dump_station":"yes","sanitary_dump_station:fee":"no","shower":"yes","toilets":"yes","water_point":"yes","water_point:fee":"no","website":"https://www.camperplaatsoirschot.nl"}},"85847358":{"location":[51.4366641,5.3369201],"ct":"NL","tp":"CS","ts":"2020-05-16T20:02:30Z","tX":527,"tY":340,"tags":{"landuse":"grass","name":"Het Caves","source":"3dShapes","website":"https://www.hetcaves.nl/","wheelchair":"yes"}},"85873484":{"location":[51.44857,5.2816254],"ct":"NL","tp":"CS","ts":"2023-08-13T09:25:19Z","tX":527,"tY":340,"tags":{"caravans":"yes","email":"deleemskuilen@planet.nl","landcover":"grass","name":"Leemskuilen","opening_hours":"Apr 1 - Oct 31","phone":"+31 6 11065647","shower":"yes","tents":"yes","toilets":"yes","website":"https://deleemskuilen.nl/"}},"85907546":{"location":[51.4048445,5.3667585],"ct":"NL","tp":"CS","ts":"2023-07-28T21:01:26Z","tX":527,"tY":340,"tags":{"cabins":"yes","caravans":"yes","email":"info@campingdeveldhoeve.nl","landcover":"grass","mobile":"+31 6 53304132","name":"De Veldhoeve","phone":"+31 6 53304132","shower":"yes","tents":"yes","toilets":"yes","website":"https://campingdeveldhoeve.nl/"}},"98019566":{"location":[51.406892,5.3604268],"ct":"NL","tp":"CS","ts":"2023-05-30T12:21:43Z","tX":527,"tY":340,"tags":{"addr:city":"Veldhoven","addr:housenumber":"25","addr:postcode":"5506LA","addr:street":"Banstraat","cabins":"yes","caravans":"yes","email":"molenvelden@kempenrecreatie.nl","name":"Molenvelden","phone":"+31 40 205 2384","tents":"yes","website":"https://molenvelden.kempenrecreatie.nl"}},"223449044":{"location":[51.6041496,5.4887145],"ct":"NL","tp":"CS","ts":"2023-08-13T10:28:14Z","tX":527,"tY":340,"tags":{"addr:city":"Eerde","addr:housenumber":"8B","addr:postcode":"5466PZ","addr:street":"Vlagheide","capacity:pitches":"70","caravans":"yes","email":"info@hetgoeieleven.nl","name":"Het Goeie Leven","opening_hours":"Mar 31 - Oct 1","phone":"+31 413 310 171","shower":"yes","tents":"yes","toilets":"yes","website":"https://www.hetgoeieleven.nl/"}},"342495067":{"location":[51.5854336,5.365177],"ct":"NL","tp":"CS","ts":"2023-05-30T12:21:55Z","tX":527,"tY":340,"tags":{"cabins":"yes","caravans":"yes","fee":"yes","mobile":"+31 6 53338834","name":"BlueWoods","phone":"+31 411 631 245","shower":"yes","tents":"yes","toilets":"yes","website":"https://bluewoods.nl/"}},"416598466":{"location":[51.4316285,5.6164756],"ct":"NL","tp":"CS","ts":"2020-01-03T01:11:33Z","tX":527,"tY":340,"tags":{"internet_access":"wlan","name":"Camping de Sprink"}},"471578058":{"location":[51.5773721,5.4451886],"ct":"NL","tp":"CS","ts":"2019-03-25T18:04:18Z","tX":527,"tY":340,"tags":{"name":"De Kienehoef","website":"https://www.kienehoef.nl/nl/camping"}},"472070653":{"location":[51.4405535,5.588876],"ct":"NL","tp":"CR","ts":"2017-02-04T11:18:34Z","tX":527,"tY":340,"tags":{}},"542421840":{"location":[51.4928981,5.2752913],"ct":"NL","tp":"CS","ts":"2017-11-23T12:45:32Z","tX":527,"tY":340,"tags":{}},"831699350":{"location":[51.5285752,5.3369097],"ct":"NL","tp":"CS","ts":"2020-07-28T18:07:59Z","tX":527,"tY":340,"tags":{"name":"Minicamping 't Laageind","website":"https://www.laageind.nl/"}},"1189844067":{"location":[51.418196,5.3521994],"ct":"NL","tp":"CS","ts":"2023-07-17T18:01:42Z","tX":527,"tY":340,"tags":{"cabins":"yes","caravans":"yes","name":"Het Denneke","phone":"+31 6 23187706","shower":"yes","static_caravans":"yes","tents":"yes","toilets":"yes","website":"https://campingdenneke.nl/"}},"1197613265":{"location":[51.4400986,5.2802036],"ct":"NL","tp":"CR","ts":"2025-01-20T13:41:28Z","tX":527,"tY":340,"tags":{"bakery_service":"yes","capacity":"25","capacity:motorhome":"25","caravan_site":"motorhome_stopover","caravan_site:type":"farm_shop;restaurant","caravans":"no","charge":"17.50 EUR","check_in":"12:00","check_out":"11:30","dog":"leashed","dog:fee":"no (first two dogs)","email":"info@de-spekdonken.nl","fee":"yes","motorhome":"designated","name":"De Spekdonken","opening_hours":"24/7","phone":"+31 6 57748888","power_supply":"yes","power_supply:charge":"0.50 EUR/kWh","power_supply:fee":"yes","reservation":"yes","restaurant":"yes","seasonal":"no","shower":"yes","toilets":"yes","website":"https://www.de-spekdonken.nl/camperplaats/"}},"1197644546":{"location":[51.596845,5.4997036],"ct":"NL","tp":"CS","ts":"2023-08-13T11:17:25Z","tX":527,"tY":340,"tags":{"caravans":"yes","email":"info@favora-eerde.nl","mobile":"+31 6 20528284","name":"Favora","nudism":"customary","phone":"+31 413 367 507","shower":"yes","tents":"yes","toilets":"yes","website":"https://www.favora-eerde.nl/camping"}},"1351205483":{"location":[51.4633283,5.5630187],"ct":"NL","tp":"CR","ts":"2025-01-14T13:23:04Z","tX":527,"tY":340,"tags":{"capacity":"5","caravan_site":"motorhome_stopover","caravan_site:type":"town","fee":"no","maxstay":"5 days","name":"Camperplaats Oude Landen - Nuenen","operator":"Gemeente Nuenen","power_supply":"no","sanitary_dump_station":"no","water_point":"no"}},"1352914201":{"location":[51.4349774,5.4242142],"ct":"NL","tp":"CR","ts":"2025-01-20T13:30:07Z","tX":527,"tY":340,"tags":{"capacity":"10","caravan_site":"motorhome_stopover","caravan_site:type":"city;parking_lot","caravans":"no","charge":"4 EUR","contact:website":"https://www.p1.nl/parkeren/eindhoven/p-r-meerhoven-eindhoven","fee":"yes","name":"P+R Meerhoven","note":"1,5 voor 1e uur, 1e dag voor 4 euro, daarna 5 euro per dag","opening_hours":"24/7","park_ride":"yes","power_supply":"no","sanitary_dump_station":"yes","supervised":"no","surface":"concrete","water_supply":"no"}},"1352915505":{"location":[51.4131723,5.2751582],"ct":"NL","tp":"CR","ts":"2025-01-20T13:36:26Z","tX":527,"tY":340,"tags":{"caravan_site":"motorhome_stopover","caravan_site:type":"camp_site","charge":"19 EUR","charge:conditional":"15.99 EUR@(\"low_season\")","dog":"leashed","email":"info@eurocampingvessem.nl","internet_access":"wlan","internet_access:fee":"no","name":"Eurocamping Vessem","phone":"+31 497591214","sanitary_dump_station":"yes","surface":"grass","toilets":"yes","water_point":"yes","website":"https://www.camperplaatsvessem.nl/accommodaties/kamperen/camperplaats"}},"1353038767":{"location":[51.6104163,5.3587643],"ct":"NL","tp":"CR","ts":"2025-04-15T07:23:49Z","tX":527,"tY":340,"tags":{"bbq":"yes","capacity":"20","caravan_site":"motorhome_stopover","caravan_site:type":"farm","charge":"24 EUR","charge:conditional":"12 EUR@(member)","dog":"leashed","dog:fee":"no","email":"info@bijboerjos.nl","fee":"yes","fireworks":"no","internet_access":"wlan","internet_access:fee":"no","lit":"yes","motorhome":"designated","name":"Bij Boer Jos","network":"SVR","opening_hours":"Mar-Oct","phone":"+31 6 57287359","picnic_table":"yes","power_supply":"yes","power_supply:fee":"no","power_supply:maxcurrent":"10","reservation":"yes","reservation:description":"telephone","sanitary_dump_station":"customers","sanitary_dump_station:chemical_toilet":"yes","sanitary_dump_station:grey_water":"yes","seasonal":"yes","shower":"yes","socket:cee_blue":"yes","surface":"gravel","toilets":"yes","water_point":"no","water_point:fee":"no","website":"https://www.bijboerjos.nl/"}},"1377742343":{"location":[51.5682006,5.442506],"ct":"NL","tp":"CS","ts":"2025-04-28T19:41:31Z","tX":527,"tY":340,"tags":{"addr:city":"Sint-Oedenrode","addr:housenumber":"119","addr:postcode":"5491XA","addr:street":"Ollandseweg","name":"Seniorencamping Donkershoeve","phone":"+31 6 13345256","source":"BAG","source:date":"2014-03-24","website":"https://www.donkershoeve.nl/"}},"2792211838":{"location":[51.6047186,5.4108314],"ct":"NL","tp":"CS","ts":"2024-01-16T20:52:24Z","tX":527,"tY":340,"tags":{"addr:city":"Schijndel","addr:housenumber":"23","addr:postcode":"5481VE","addr:street":"Boxtelseweg","caravans":"yes","drinking_water":"yes","name":"Winery and Herbs","power_supply":"yes","shower":"yes","source":"BAG","source:date":"2014-03-24","tents":"yes","toilets":"yes","website":"https://www.wineryandherbs.nl/","wheelchair":"yes"}},"2825910382":{"location":[51.5161536,5.3212556],"ct":"NL","tp":"CS","ts":"2022-11-04T12:41:01Z","tX":527,"tY":340,"tags":{"addr:city":"Oirschot","addr:housenumber":"3","addr:postcode":"5688NC","addr:street":"Schansstraat","internet_access":"wlan","internet_access:fee":"no","name":"De Steenuil","phone":"+31 499 573 004","source":"BAG","source:date":"2014-03-24","wheelchair":"yes"}},"2825911572":{"location":[51.5165399,5.3084585],"ct":"NL","tp":"CS","ts":"2022-11-04T12:41:02Z","tX":527,"tY":340,"tags":{"addr:city":"Oirschot","addr:housenumber":"69","addr:postcode":"5688MB","addr:street":"Oude Grintweg","fee":"yes","name":"De Bocht","phone":"+31 499 550 855","source":"BAG","source:date":"2014-03-24","website":"https://campingdebocht.nl/"}},"2877577689":{"location":[51.4350133,5.4242547],"ct":"NL","tp":"CR","ts":"2024-07-23T05:30:24Z","tX":527,"tY":340,"tags":{"capacity":"10","caravans":"no","contact:website":"https://www.p1.nl/parkeren/eindhoven/p-r-meerhoven-eindhoven","fee":"yes","name":"P+R Meerhoven","opening_hours":"24/7","power_supply":"no","sanitary_dump_station":"yes","supervised":"no","surface":"concrete","water_supply":"no"}},"2898840504":{"location":[51.5237753,5.5725176],"ct":"NL","tp":"CS","ts":"2022-11-04T12:23:00Z","tX":527,"tY":340,"tags":{"addr:city":"Mariahout","addr:housenumber":"2","addr:postcode":"5738PB","addr:street":"Broeksteeg","charge":"16 EUR","description":"Minicamping","email":"piet.vogels2@gmail.com","name":"Minicamping Rust en Ruimte","phone":"+31 499 421 272","source":"BAG","source:date":"2014-06-04","website":"https://www.rustenruimte.info"}},"3176511190":{"location":[51.463186,5.5626655],"ct":"NL","tp":"CR","ts":"2024-07-18T00:38:12Z","tX":527,"tY":340,"tags":{"capacity":"3","operator":"Gemeente Nuenen","power_supply":"no","sanitary_dump_station":"no"}},"3508229172":{"location":[51.5672459,5.457732],"ct":"NL","tp":"CR","ts":"2025-01-20T16:59:54Z","tX":527,"tY":340,"tags":{"caravan_site":"motorhome_stopover","caravan_site:type":"parking_lot;temporary","fixme":"check when it returns to Dommelpark/De Neul","name":"De Neul","note":"temporarily moved, return 1. half of 2025","start_date":"2025-07-01"}},"5018700436":{"location":[51.6037604,5.4314583],"ct":"NL","tp":"CS","ts":"2025-01-20T15:51:04Z","tX":527,"tY":340,"tags":{"contact:mobile":"+31 6 13492682","motorhome":"yes","name":"Mini Camping 't Sk√¥nste Plekske","website":"http://hetskonsteplekske.nl/"}},"5115857621":{"location":[51.4135285,5.2736241],"ct":"NL","tp":"CS","ts":"2022-11-04T12:24:12Z","tX":527,"tY":340,"tags":{"addr:city":"Vessem","addr:housenumber":"1","addr:postcode":"5512NW","addr:street":"Zwembadweg","email":"info@eurocampingvessem.nl","internet_access":"wlan","name":"Eurocamping Vessem bv","opening_hours":"24/7","operator":"Ralf Driesen","phone":"+31 497 591 214","website":"https://www.eurocampingvessem.nl/"}},"7760607485":{"location":[51.5850355,5.4008946],"ct":"NL","tp":"CS","ts":"2021-05-25T08:00:40Z","tX":527,"tY":340,"tags":{"contact:email":"degeelders@planet.nl","contact:phone":"+31 6 12303463","name":"Minicamping De Geelders","website":"https://www.campingdegeelders.nl/"}},"7761554486":{"location":[51.5458333,5.4366667],"ct":"NL","tp":"CS","ts":"2020-07-28T14:33:49Z","tX":527,"tY":340,"tags":{"website":"https://www.campingdengoeiendonk.nl/"}},"7762294785":{"location":[51.522688,5.281152],"ct":"NL","tp":"CS","ts":"2020-07-28T18:06:46Z","tX":527,"tY":340,"tags":{"website":"https://www.campingdekroon.nl/"}},"7762297185":{"location":[51.511344,5.359831],"ct":"NL","tp":"CS","ts":"2020-07-28T18:09:42Z","tX":527,"tY":340,"tags":{"website":"https://www.dereuten.com/"}},"9006723376":{"location":[51.5226425,5.5735702],"ct":"NL","tp":"CS","ts":"2021-08-14T15:19:24Z","tX":527,"tY":340,"tags":{"charge":"12 EUR","name":"Vogelhof","todo":"This is part of Vogelhof. I dont know if this is better mapped in a different way. Charge refers to camping, not the chalets."}},"12076831741":{"location":[51.4089238,5.5313875],"ct":"NL","tp":"CS","ts":"2024-07-27T13:17:24Z","tX":527,"tY":340,"tags":{"name":"Kampeerboerderij 't Uilenest","website":"https://het-uilenest.nl/page/kampeerboerderij"}},"5151756196":{"location":[51.5212629,5.3941054],"ct":"NL","tp":"CR","ts":"2025-01-14T13:31:52Z","tX":527,"tY":340,"tags":{"capacity":"3","caravan_site":"motorhome_stopover","caravan_site:type":"parking_lot","fee":"no","internet_access":"no","lit":"yes","maxstay":"24 hours","name":"Carpoolplaats de Wilg","power_supply":"no","sanitary_dump_station":"no","surface":"paving_stones","tents":"no","water_point":"no"}},"5942074004":{"location":[51.4132647,5.2754512],"ct":"NL","tp":"CR","ts":"2018-10-01T06:46:47Z","tX":527,"tY":340,"tags":{"name":"Eurocamping Vessem"}},"11048006514":{"location":[51.6100561,5.3598757],"ct":"NL","tp":"CR","ts":"2023-07-15T12:54:41Z","tX":527,"tY":340,"tags":{"email":"info@bijboerjos.nl","motorhome":"designated","name":"Bij Boer Jos","phone":"+31 6 57287359","sanitary_dump_station":"customers","shower":"yes","toilets":"yes"}},"12518462554":{"location":[51.5593787,5.4582202],"ct":"NL","tp":"CR","ts":"2025-01-20T15:40:27Z","tX":527,"tY":340,"tags":{"caravan_site":"motorhome_stopover","caravan_site:type":"sports_centre","charge":"5 EUR","end_date":"2025-07-01","fee":"yes","fixme":"check when it returns to Dommelpark/De Neul","maxlength":"9","maxstay":"72 hours","name":"Parking de Neul","note":"temporary location","seasonal":"no"}},"12518493935":{"location":[51.5838933,5.483078],"ct":"NL","tp":"CR","ts":"2025-01-20T15:49:00Z","tX":527,"tY":340,"tags":{"capacity":"25","caravan_site":"motorhome_stopover","caravan_site:type":"countryside","charge":"19 EUR","check_out":"12:00","dog":"leashed","email":"info@degeneugten.nl","fee":"yes","internet_access":"wlan","lit":"yes","name":"Camperplaats De Geneugten","phone":"+31 6 10142363","power_supply":"yes","power_supply:charge":"0.60 EUR/kWh","power_supply:fee":"yes","sanitary_dump_station":"yes","sanitary_dump_station:chemical_toilet":"yes","sanitary_dump_station:grey_water":"yes","seasonal":"yes","shower":"yes","toilets":"yes","water_point":"yes","website":"https://www.degeneugten.nl/"}}}