{"1287412":{"location":[51.3063184,5.364069],"ct":"NL","tp":"CS","ts":"2023-08-05T21:27:57Z","tX":527,"tY":341,"tags":{"cabins":"yes","capacity:cabins":"3","capacity:pitches":"23","caravans":"yes","landcover":"grass","name":"De Hulsdonken","opening_hours":"Apr 1 - Oct 15","phone":"+31 497 573 863","shower":"yes","tents":"yes","toilets":"yes","website":"https://dehulsdonken.nl/"}},"26859219":{"location":[51.3361871,5.3554839],"ct":"NL","tp":"CS","ts":"2024-06-22T19:05:26Z","tX":527,"tY":341,"tags":{"addr:city":"Bergeijk","addr:housenumber":"14","addr:postcode":"5571TN","addr:street":"De Paaldreef","caravans":"yes","name":"De Paal","phone":"+31 497 571 977","tents":"yes","website":"https://www.depaal.nl/"}},"60558176":{"location":[51.3223905,5.4772585],"ct":"NL","tp":"CS","ts":"2019-03-25T15:37:44Z","tX":527,"tY":341,"tags":{"addr:city":"Valkenswaard","addr:country":"NL","addr:housenumber":"5","addr:postcode":"5556XT","addr:street":"Opperheide","capacity":"15","email":"info@minicamping-depunder.nl","name":"De Punder","phone":"+31 40 201 3375","website":"https://www.minicamping-depunder.nl/"}},"86051679":{"location":[51.3207271,5.3041053],"ct":"NL","tp":"CS","ts":"2023-10-19T18:03:03Z","tX":527,"tY":341,"tags":{"landuse":"grass","name":"Mini-Camping De Boksheide","phone":"+31 497 535347","website":"http://www.rumaweb.nl/minicampingboksheide/"}},"86534999":{"location":[51.3133977,5.330229],"ct":"NL","tp":"CS","ts":"2023-07-17T18:01:42Z","tX":527,"tY":341,"tags":{"capacity:pitches":"15","caravans":"yes","email":"info@camping-bergeijk.nl","landcover":"grass","motorhome":"yes","name":"Bergeijk","operator":"Piet Theuws","phone":"+31 497 574 757","shower":"yes","tents":"yes","toilets":"yes","website":"https://www.campingbergeijk.nl/"}},"86546869":{"location":[51.349299,5.4001721],"ct":"NL","tp":"CS","ts":"2023-09-24T15:45:25Z","tX":527,"tY":341,"tags":{"caravans":"yes","email":"info@heierhof.nl","landcover":"grass","name":"Heierhof","phone":"+31 40 204 2721","shower":"yes","tents":"yes","toilets":"yes","website":"https://www.heierhof.nl/minicamping/"}},"86557221":{"location":[51.300981,5.3757563],"ct":"NL","tp":"CS","ts":"2017-07-09T15:22:07Z","tX":527,"tY":341,"tags":{"addr:city":"Bergeijk","addr:country":"NL","addr:housenumber":"39","addr:postcode":"5571TR","addr:street":"Burgemeester Aartslaan","name":"De Beekloop","phone":"+31 497 571 895","website":"http://www.minicampingdebeekloop.nl"}},"86557486":{"location":[51.2945762,5.3813549],"ct":"NL","tp":"CS","ts":"2024-07-26T20:21:42Z","tX":527,"tY":341,"tags":{"caravans":"yes","drinking_water":"yes","name":"Verblijf bij Hygge","power_supply":"yes","sanitary_dump_station":"yes","shower":"yes","tents":"yes","toilets":"yes","website":"https://www.verblijfbijhygge.nl/"}},"86557851":{"location":[51.3019579,5.3748184],"ct":"NL","tp":"CS","ts":"2019-03-25T15:36:49Z","tX":527,"tY":341,"tags":{"addr:city":"Bergeijk","addr:country":"NL","addr:housenumber":"37","addr:postcode":"5571TR","addr:street":"Burgemeester Aartslaan","name":"'t Tabakspad","website":"https://www.tabakspad.nl/"}},"86568308":{"location":[51.2917337,5.427866],"ct":"NL","tp":"CS","ts":"2023-05-06T07:42:48Z","tX":527,"tY":341,"tags":{"brand":"SVR","cabins":"yes","capacity:cabins":"1","capacity:pitches":"25","caravans":"yes","landcover":"grass","mobile":"+31 6 20595685","name":"'t Zwaluwnest","opening_hours":"Mar 15 - Sep 30","phone":"+31 40 206 8363","sanitary_dump_station":"customers","shower":"yes","tents":"yes","toilets":"yes","website":"https://zwaluwnest.eu/","wheelchair":"yes"}},"86600668":{"location":[51.2714584,5.5888981],"ct":"NL","tp":"CS","ts":"2023-08-13T10:07:10Z","tX":527,"tY":341,"tags":{"brand":"SVR","capacity:pitches":"26","caravans":"yes","email":"info@campingdeboschtuin.com","internet_access":"wlan","internet_access:fee":"no","name":"De Boschtuin","old_name":"De Hoef","phone":"+31 6 49532647","shower":"yes","tents":"yes","toilets":"yes","website":"https://www.campingdeboschtuin.nl/"}},"86601277":{"location":[51.2865345,5.5591646],"ct":"NL","tp":"CS","ts":"2023-05-30T20:10:43Z","tX":527,"tY":341,"tags":{"addr:city":"Gastel","addr:housenumber":"19","addr:postcode":"6028RK","addr:street":"Gravenkasteel","email":"camping@gravenkasteel.nl","fee":"€13,50","name":"Mini-camping Gravenkasteel","phone":"+31 495 495 367","source":"3dShapes","website":"https://www.gravenkasteel.nl"}},"109979823":{"location":[51.2446202,5.3741865],"ct":"BE","tp":"CS","ts":"2022-11-28T21:46:56Z","tX":527,"tY":341,"tags":{"name":"Parelstrand"}},"110240223":{"location":[51.195595,5.3068506],"ct":"BE","tp":"CS","ts":"2021-10-15T23:25:30Z","tX":527,"tY":341,"tags":{"addr:housenumber":"169","addr:street":"Kattenbos","brand":"Oostappen Vakantieparken","dog":"yes","fee":"yes","name":"Blauwe Meer","power_supply":"yes","reservation":"yes","sanitary_dump_station":"yes","shower":"yes","toilets":"yes","website":"https://www.oostappenvakantieparken.nl/blauwe-meer"}},"115738448":{"location":[51.2334374,5.432859],"ct":"BE","tp":"CR","ts":"2017-12-06T10:16:14Z","tX":527,"tY":341,"tags":{"fee":"no","maxstay":"2 days","name":"Passantenhaven De Welvaart","power_supply":"yes"}},"115792749":{"location":[51.2242702,5.4953399],"ct":"BE","tp":"CR","ts":"2024-11-19T09:43:36Z","tX":527,"tY":341,"tags":{"capacity":"20","fee":"yes","name":"Kampeerautoterrein De Bosuil","power_supply":"yes","surface":"grass"}},"160957191":{"location":[51.2449309,5.300775],"ct":"BE","tp":"CS","ts":"2022-11-29T08:15:46Z","tX":527,"tY":341,"tags":{"group_only":"yes","name":"Weide Scoutsheem"}},"237508785":{"location":[51.1821028,5.4233985],"ct":"BE","tp":"CS","ts":"2024-06-17T07:33:55Z","tX":527,"tY":341,"tags":{"addr:city":"Pelt","addr:housenumber":"75","addr:postcode":"3900","addr:street":"Ballaststraat","contact:email":"info@ballasthoeve.be","contact:facebook":"https://www.facebook.com/Ballasthoeve","contact:instagram":"https://www.instagram.com/ballasthoeve/","contact:phone":"+32 11 60 61 01","contact:website":"https://www.ballasthoeve.be/","dog":"leashed","name":"Ballasthoeve"}},"268875614":{"location":[51.3482887,5.5209639],"ct":"NL","tp":"CS","ts":"2023-08-07T10:30:33Z","tX":527,"tY":341,"tags":{"addr:city":"Leende","addr:housenumber":"5","addr:postcode":"5595XR","addr:street":"Strijperpad","caravans":"yes","drinking_water":"yes","fee":"yes","group_only":"no","name":"Natuurkampeerterrein Het Leenderbos","operator":"Staatsbosbeheer","sanitary_dump_station":"yes","shower":"yes","tents":"yes","toilets":"yes","website":"https://www.natuurkampeerterreinen.nl/terreinen/noord-brabant/het-leenderbos/","wheelchair":"yes"}},"425518105":{"location":[51.243278,5.3691551],"ct":"BE","tp":"CR","ts":"2016-06-17T10:21:51Z","tX":527,"tY":341,"tags":{"capacity":"8","fee":"yes","name":"De Meerpaal","power_supply":"yes","sanitary_dump_station":"yes"}},"480954027":{"location":[51.2892619,5.2926533],"ct":"NL","tp":"CS","ts":"2019-03-25T15:35:55Z","tX":527,"tY":341,"tags":{"addr:city":"Luyksgestel","addr:housenumber":"1","addr:postcode":"5575XP","addr:street":"Zwarte Bergendreef","name":"De Zwarte Bergen","website":"https://www.zwartebergen.nl/"}},"501241827":{"location":[51.3391727,5.338547],"ct":"NL","tp":"CS","ts":"2023-11-06T02:21:31Z","tX":527,"tY":341,"tags":{"capacity":"27","name":"Minicamping W'tjewel","website":"https://www.w-tjewel.nl/camping"}},"617209303":{"location":[51.299133,5.5581404],"ct":"NL","tp":"CS","ts":"2018-08-15T15:47:22Z","tX":527,"tY":341,"tags":{"addr:city":"Soerendonk","addr:housenumber":"4","addr:postcode":"6027NE","addr:street":"Kranenveld","fee":"yes","name":"Tipisch-ans"}},"647873466":{"location":[51.251517,5.4992549],"ct":"BE","tp":"CS","ts":"2023-11-02T18:38:43Z","tX":527,"tY":341,"tags":{"access":"yes","alt_name":"Paalkampeerplaats De Warande","backcountry":"yes","camp_site":"basic","capacity:tents":"3","caravans":"no","description":"site voor paalkamperen","drinking_water":"no","fee":"no","image":"http://www.bivakzone.be/images/warande/dewarande2.jpg","maxstay":"2 days","maxtents":"3","motor_vehicle":"no","name":"Bivakzone De Warande","openfire":"yes","operator":"the Flemish Agency for Nature and Forests","tents":"yes","toilets":"yes","website":"https://www.bivakzone.be/de-warande-achel.html"}},"950097119":{"location":[51.3770197,5.5503232],"ct":"NL","tp":"CS","ts":"2023-05-30T12:22:03Z","tX":527,"tY":341,"tags":{"addr:city":"Heeze","addr:housenumber":"6","addr:postcode":"5591TA","addr:street":"Heezerenbosch","cabins":"yes","caravans":"yes","email":"info@heezerenbosch.nl","name":"Heezerenbosch","phone":"+31 40 226 3811","tents":"yes","website":"https://www.heezerenbosch.nl"}},"976368960":{"location":[51.2968049,5.4292334],"ct":"NL","tp":"CS","ts":"2021-08-25T15:40:51Z","tX":527,"tY":341,"tags":{"addr:city":"Valkenswaard","addr:housenumber":"30","addr:postcode":"5556VN","addr:street":"Hoeverdijk","caravans":"yes","email":"info@campingdekapel.nl","fee":"yes","name":"Camping De Kapel","phone":"+31 6 19766482","power_supply":"yes","shower":"yes","tents":"yes","toilets":"yes","website":"https://www.campingdekapel.nl"}},"999248342":{"location":[51.3944448,5.4090348],"ct":"NL","tp":"CS","ts":"2023-05-30T20:11:04Z","tX":527,"tY":341,"tags":{"addr:city":"Veldhoven","addr:country":"NL","addr:housenumber":"6","addr:postcode":"5504PZ","addr:street":"Witvenseweg","name":"'t Witven","website":"https://witven.nl/camping-t-witven-veldhoven"}},"1020777289":{"location":[51.3291191,5.4639954],"ct":"NL","tp":"CS","ts":"2022-01-13T08:09:44Z","tX":527,"tY":341,"tags":{"addr:city":"Valkenswaard","addr:housenumber":"183","addr:postcode":"5556VB","addr:street":"Maastrichterweg","email":"info@vakantieparkbrugseheide.nl","name":"Brugse Heide","operator":"Oostappen","website":"https://www.oostappenvakantieparken.nl/brugse-heide"}},"1023027465":{"location":[51.3220446,5.5746434],"ct":"NL","tp":"CS","ts":"2022-01-20T20:25:34Z","tX":527,"tY":341,"tags":{"name":"Slot Cranendonck"}},"1027266520":{"location":[51.3804839,5.4222281],"ct":"NL","tp":"CS","ts":"2023-05-30T12:22:03Z","tX":527,"tY":341,"tags":{"addr:city":"Riethoven","addr:housenumber":"1","addr:postcode":"5561VH","addr:street":"Volmolen","email":"info@devolmolen.nl","name":"De Volmolen","phone":"+31 40 253 3498","website":"https://www.devolmolen.nl/camping"}},"1043113231":{"location":[51.336617,5.2992356],"ct":"NL","tp":"CS","ts":"2024-06-01T22:14:23Z","tX":527,"tY":341,"tags":{"caravans":"yes","drinking_water":"yes","name":"Ter Spegelt","power_supply":"yes","sanitary_dump_station":"yes","shower":"yes","tents":"yes","toilets":"yes","toilets:wheelchair":"yes","website":"https://www.terspegelt.nl/","wheelchair":"yes"}},"1195103086":{"location":[51.2991205,5.3774148],"ct":"NL","tp":"CS","ts":"2023-08-05T21:03:49Z","tX":527,"tY":341,"tags":{"capacity:pitches":"15","caravans":"yes","email":"info@mountain-oak.nl","mobile":"+31 6 53833787","name":"Mountain Oak","opening_hours":"Apr 21 - Oct 1","phone":"+31 6 53833787","shower":"yes","tents":"yes","toilets":"yes"}},"1195107609":{"location":[51.2975665,5.378621],"ct":"NL","tp":"CS","ts":"2023-08-05T21:17:11Z","tX":527,"tY":341,"tags":{"caravans":"yes","email":"petronellahoeve@hetnet.nl","landcover":"grass","name":"Petronellahoeve","phone":"+31 497 571 629","shower":"yes","tents":"yes","toilets":"yes"}},"1197509275":{"location":[51.368359,5.5881681],"ct":"NL","tp":"CS","ts":"2023-08-12T21:21:59Z","tX":527,"tY":341,"tags":{"caravans":"yes","email":"info@camping-de-kluis.nl","internet_access":"wlan","mobile":"+31 6 21912031","name":"De Kluis","phone":"+31 40 226 4900","shower":"yes","tents":"yes","toilets":"yes","website":"https://www.degrooteheide.eu/nl/locaties/1699009661/camping-de-kluis"}},"1197615071":{"location":[51.2622334,5.5904333],"ct":"NL","tp":"CR","ts":"2023-12-22T11:23:46Z","tX":527,"tY":341,"tags":{"caravans":"no","email":"mail@camperplaatsbudel.nl","motorhome":"designated","name":"Camperplaats Budel","opening_hours":"week 01-53","phone":"+31 6 43136928","website":"https://camperplaatsbudel.nl/"}},"1216822630":{"location":[51.327394,5.3132998],"ct":"NL","tp":"CS","ts":"2023-10-19T14:57:44Z","tX":527,"tY":341,"tags":{"access":"customers","addr:city":"Eersel","addr:housenumber":"30","addr:postcode":"5521PM","addr:street":"Boksheide","capacity:persons":"26","fee":"yes","name":"Mini-camping Hoeve Boord Ven","payment:account_cards":"yes","website":"https://hoeveboordven.nl"}},"1234773691":{"location":[51.3961726,5.4103302],"ct":"NL","tp":"CR","ts":"2021-11-04T19:17:52Z","tX":527,"tY":341,"tags":{"name":"'t Witven"}},"1271186706":{"location":[51.3610897,5.2852577],"ct":"NL","tp":"CR","ts":"2024-04-18T07:22:25Z","tX":527,"tY":341,"tags":{"name":"Blij Venneke Campercamping"}},"1313513485":{"location":[51.2248936,5.5578654],"ct":"BE","tp":"CS","ts":"2024-09-05T14:35:47Z","tX":527,"tY":341,"tags":{}},"1350681356":{"location":[51.2211988,5.312817],"ct":"BE","tp":"CR","ts":"2025-01-12T15:28:53Z","tX":527,"tY":341,"tags":{"capacity":"8","caravan_site":"motorhome_stopover","caravan_site:type":"town","caravans":"no","charge":"15 EUR","facebook":"https://www.facebook.com/p/Camperplaats-Calmante-61557726162026/","fee":"yes","maxstay":"72 hours","name":"Camperplaats Calmante, Lommel","phone":"+32 475425206","picnic_table":"yes","power_supply":"no","sanitary_dump_station":"yes","shower":"no","surface":"gravel","tents":"no","toilets":"no","water_point":"yes","water_point:fee":"no"}},"1350682187":{"location":[51.2542147,5.5437359],"ct":"BE","tp":"CR","ts":"2025-01-12T15:33:54Z","tX":527,"tY":341,"tags":{"capacity":"4","caravan_site":"motorhome_stopover","caravan_site:type":"village","fee":"no","name":"Camperplaats Hamont","power_supply":"no","sanitary_dump_station":"no","surface":"paving_stones","water_point":"no"}},"2721505226":{"location":[51.2541817,5.5437114],"ct":"BE","tp":"CR","ts":"2022-12-01T22:12:31Z","tX":527,"tY":341,"tags":{}},"2828765829":{"location":[51.3135762,5.2740339],"ct":"NL","tp":"CS","ts":"2024-11-22T23:20:13Z","tX":527,"tY":341,"tags":{"addr:city":"Bergeijk","addr:housenumber":"3a","addr:postcode":"5571XE","addr:street":"Kleine Witrijt","name":"Landschapscamping De Kleine Witrijt","source":"BAG","source:date":"2014-03-24","website":"https://www.domein-dekleinewitrijt.nl/camping/"}},"2829113470":{"location":[51.2951361,5.4253801],"ct":"NL","tp":"CS","ts":"2020-08-13T19:15:49Z","tX":527,"tY":341,"tags":{"addr:city":"Valkenswaard","addr:housenumber":"3","addr:postcode":"5556XD","addr:street":"Het Mortelke","email":"malpieschebergen@scouting.nl","name":"Scoutingkampeerterrein De Malpiesche Bergen","scout":"yes","source":"BAG","source:date":"2014-03-24"}},"2829373407":{"location":[51.3593118,5.6209799],"ct":"NL","tp":"CR","ts":"2021-07-26T00:34:29Z","tX":527,"tY":341,"tags":{"addr:city":"Sterksel","addr:housenumber":"16","addr:postcode":"6029PN","addr:street":"Albertlaan","name":"Caravanpark Recrenova","source":"BAG","source:date":"2014-03-24","website":"https://www.recrenova.nl/"}},"2830078095":{"location":[51.3732299,5.543843],"ct":"NL","tp":"CS","ts":"2020-08-13T19:15:49Z","tX":527,"tY":341,"tags":{"addr:city":"Heeze","addr:housenumber":"23","addr:postcode":"5591TA","addr:street":"Heezerenbosch","name":"Scouting Labelterrein Achter 't Heezerenbosch","scout":"yes","source":"BAG","source:date":"2014-03-24"}},"11048339418":{"location":[51.2306016,5.4588023],"ct":"BE","tp":"CR","ts":"2023-07-15T17:48:08Z","tX":527,"tY":341,"tags":{"capacity:motorhome":"6","email":"info@susberg.be","motorhome":"designated","name":"Susberg","phone":"+31 6 53962895","shower":"yes","toilets":"yes","website":"https://susberg.be/camperplaatsen/"}},"4374689270":{"location":[51.2933045,5.3620883],"ct":"NL","tp":"CS","ts":"2016-08-29T19:47:23Z","tX":527,"tY":341,"tags":{"capacity":"15","name":"camping 't Haike"}},"6815664826":{"location":[51.3134614,5.2750293],"ct":"NL","tp":"CS","ts":"2019-09-22T14:53:59Z","tX":527,"tY":341,"tags":{"name":"De Kleine Witrijt"}},"7981576157":{"location":[51.3299212,5.5311817],"ct":"NL","tp":"CS","ts":"2023-05-31T16:08:08Z","tX":527,"tY":341,"tags":{"name":"Camping Het Einde","phone":"+31 6 51867302","website":"http://www.campingheteinde.nl"}},"7981582430":{"location":[51.3303066,5.5338049],"ct":"NL","tp":"CS","ts":"2023-11-06T02:21:36Z","tX":527,"tY":341,"tags":{"email":"info@dezandbergleende.nl","name":"Camping de Zandberg","phone":"+31 40 206 1357","website":"https://www.dezandbergleende.nl/"}},"10911195500":{"location":[51.2991546,5.3311098],"ct":"NL","tp":"CS","ts":"2023-05-19T11:31:07Z","tX":527,"tY":341,"tags":{"capacity":"22","name":"Camping Ons Stekske"}},"5685900294":{"location":[51.3276773,5.5558934],"ct":"NL","tp":"CR","ts":"2022-01-31T18:06:13Z","tX":527,"tY":341,"tags":{"charge":"€15","fee":"yes","name":"Camperplaats Leenderstrijp","permanent_camping":"no","sanitary_dump_station":"yes","website":"https://www.camperplaatsleenderstrijp.nl/"}},"11048265394":{"location":[51.3425208,5.4262054],"ct":"NL","tp":"CR","ts":"2023-07-15T17:31:37Z","tX":527,"tY":341,"tags":{"capacity:motorhome":"4","contact:whatsapp":"+31 6 30252911","motorhome":"designated","name":"De Weitens","shower":"no","toilets":"no","website":"https://www.deweitens.nl/nl/overnachten"}}}