{"16893437":{"location":[50.4814134,5.5874569],"ct":"BE","tp":"CS","ts":"2023-12-28T21:49:35Z","tX":527,"tY":345,"tags":{"addr:housenumber":"15","addr:postcode":"4170","addr:street":"Rue du Pont","name":"Camperpark Comblain au Pont","operator":"Arden Parks","source":"survey","website":"https://www.ardenparks.be/camperpark-comblain-au-point"}},"95989591":{"location":[50.3455378,5.4523038],"ct":"BE","tp":"CS","ts":"2024-02-26T15:48:31Z","tX":527,"tY":345,"tags":{"addr:housenumber":"50","addr:street":"Rue du Gibet","name":"Adventure Valley Glamping","operator":"Adventure Valley","website":"https://www.adventure-valley.be/hebergements/glamping"}},"95989595":{"location":[50.3639852,5.4785457],"ct":"BE","tp":"CS","ts":"2021-02-17T09:32:51Z","tX":527,"tY":345,"tags":{"addr:street":"Tier de Rinze","name":"Le Val de l'Ourthe"}},"95989600":{"location":[50.3577851,5.4903462],"ct":"BE","tp":"CS","ts":"2024-08-25T19:59:29Z","tX":527,"tY":345,"tags":{"addr:housenumber":"25","addr:street":"Rue des Glawans","caravans":"yes","name":"Les Rochers du Glawan","tents":"yes","website":"http://www.glawan.be/"}},"95994158":{"location":[50.3548576,5.5034691],"ct":"BE","tp":"CS","ts":"2024-02-26T15:59:20Z","tX":527,"tY":345,"tags":{"addr:housenumber":"40","addr:street":"Basse Commène","name":"Camping Aux Frênes"}},"95994159":{"location":[50.3560221,5.506347],"ct":"BE","tp":"CS","ts":"2024-08-25T19:59:29Z","tX":527,"tY":345,"tags":{"addr:housenumber":"25","addr:street":"Route de Bomal","name":"Camping Rosa-Pré","website":"https://www.campingrosapre.be/index-fr.html"}},"95994160":{"location":[50.3654535,5.5067092],"ct":"BE","tp":"CS","ts":"2023-08-27T09:15:22Z","tX":527,"tY":345,"tags":{"addr:city":"Barvaux","addr:housenumber":"50","addr:postcode":"6940","addr:street":"Rue Haute Commène","name":"Outdoor camping Barvaux","website":"https://www.campingardennen.nl"}},"103898118":{"location":[50.300274,5.3523603],"ct":"BE","tp":"CS","ts":"2017-08-15T07:03:13Z","tX":527,"tY":345,"tags":{"addr:city":"Noiseux","addr:housenumber":"1","addr:postcode":"5377","addr:street":"Rue de Foret","name":"Résidentiel Le Panoramique"}},"103898139":{"location":[50.294923,5.3668469],"ct":"BE","tp":"CS","ts":"2011-03-12T22:06:05Z","tX":527,"tY":345,"tags":{"addr:city":"Noiseux","addr:housenumber":"1","addr:postcode":"5377","addr:street":"Rue des Chasseurs Ardennais","name":"La Sangare","website":"http://www.campingsangaree.com"}},"106548809":{"location":[50.4503589,5.5668099],"ct":"BE","tp":"CS","ts":"2024-08-25T19:59:29Z","tX":527,"tY":345,"tags":{"addr:city":"Hamoir","addr:housenumber":"14","addr:street":"Rue de Fairon","name":"Camping Le Rocher de la Vierge","website":"https://www.lerocherdelavierge.be/fr/"}},"111729661":{"location":[50.3011392,5.4174985],"ct":"BE","tp":"CS","ts":"2024-01-12T09:30:33Z","tX":527,"tY":345,"tags":{"fee":"yes","name":"Camping La Mayette","phone":"+32 476 72 00 21","power_supply":"yes","shower":"yes","toilets":"yes","website":"https://www.campinglamayette.be"}},"130399688":{"location":[50.4225793,5.5309645],"ct":"BE","tp":"CS","ts":"2017-02-24T09:43:52Z","tX":527,"tY":345,"tags":{"addr:housenumber":"10","addr:street":"Rue du Moulin","name":"Dessous Hamoir"}},"130994840":{"location":[50.3746863,5.5192083],"ct":"BE","tp":"CS","ts":"2024-08-25T19:59:29Z","tX":527,"tY":345,"tags":{"addr:housenumber":"3","addr:postcode":"6941","addr:street":"Pré Cawiai","contact:facebook":"https://www.facebook.com/www.campinginternational.be","contact:instagram":"https://www.instagram.com/campinginternationaldurbuy/","contact:website":"https://www.campinginternational.be/","drinking_water":"yes","name":"Camping International","tents":"yes"}},"438200598":{"location":[50.4752706,5.417929],"ct":"BE","tp":"CS","ts":"2022-01-31T21:33:48Z","tX":527,"tY":345,"tags":{"name":"Camping Fraiture","note":"fermeture complète à partir du 1er octobre","website":"http://www.fraiture.be/CAMPING.HTML"}},"439431801":{"location":[50.4852581,5.5846165],"ct":"BE","tp":"CS","ts":"2020-04-16T15:58:01Z","tX":527,"tY":345,"tags":{"addr:housenumber":"57","addr:street":"Rue de Rivage","name":"Au Bord de l'Ourthe","website":"https://auborddelourthe.be/"}},"465648492":{"location":[50.3637903,5.5981981],"ct":"BE","tp":"CS","ts":"2023-07-03T08:08:12Z","tX":527,"tY":345,"tags":{"addr:housenumber":"2","addr:street":"Grand Bru","name":"Grand Bru"}},"467410925":{"location":[50.3531585,5.5011056],"ct":"BE","tp":"CS","ts":"2024-08-17T13:06:01Z","tX":527,"tY":345,"tags":{"addr:housenumber":"70","addr:street":"Inzès Prés","name":"Rives De L'ourthe","website":"https://les-rives-de-lourthe.webnode.be/"}},"476877075":{"location":[50.4234551,5.5340098],"ct":"BE","tp":"PK","ts":"2024-01-25T14:36:19Z","tX":527,"tY":345,"tags":{"fee":"yes","maxweight":"5","motor_vehicle":"no","motorhome":"yes","parking":"surface","traffic_sign":"BE:C5"}},"477441813":{"location":[50.4034766,5.5219583],"ct":"BE","tp":"CS","ts":"2022-10-24T11:01:44Z","tX":527,"tY":345,"tags":{"addr:city":"Sy Ferrières","addr:housenumber":"6","addr:postcode":"4190","addr:street":"Rue de Luins","name":"Camping Village Sy","website":"https://camping-sy-ardennen.be/"}},"479020650":{"location":[50.4662207,5.6219747],"ct":"BE","tp":"CS","ts":"2020-04-17T15:45:13Z","tX":527,"tY":345,"tags":{"addr:housenumber":"73","addr:street":"Sur Hoyemont","name":"Air Pur"}},"515805118":{"location":[50.307274,5.3915425],"ct":"BE","tp":"CS","ts":"2024-08-25T19:59:29Z","tX":527,"tY":345,"tags":{"name":"Camping \"Pont de Deulin\"","operator":"Fam. Haring","website":"https://www.pontdedeulin.be/nl/home/"}},"870496009":{"location":[50.3378206,5.2760792],"ct":"BE","tp":"CS","ts":"2022-02-02T17:45:32Z","tX":527,"tY":345,"tags":{"backcountry":"yes","cabins":"no","camp_site":"basic","capacity:tents":"4","caravans":"no","dog":"leashed","drinking_water":"no","fee":"no","internet_access":"no","kitchen":"no","lit":"no","name":"Tout encoquillé","openfire":"no","operator":"Maison du Tourisme Condroz-Famenne","permanent_camping":"no","picnic_table":"no","power_supply":"no","reservation":"no","sanitary_dump_station":"no","shower":"no","static_caravans":"no","swimming_pool":"no","tents":"yes","toilets":"no","washing_machine":"no","website":"https://sentiersdart.be/oeuvres/tout-encoquille"}},"1085623443":{"location":[50.3578387,5.4580934],"ct":"BE","tp":"CR","ts":"2024-06-29T10:24:23Z","tX":527,"tY":345,"tags":{"addr:city":"Durbuy","addr:postcode":"6940","addr:street":"Fond de Vedeur","caravan_site":"motorhome_stopover","caravan_site:type":"river;village","charge":"30 EUR","fee":"yes","internet_access":"yes","internet_access:fee":"customers","name":"Le Vedeur","power_supply":"yes","sanitary_dump_station":"yes","shower":"yes","toilets":"yes"}},"1231409428":{"location":[50.4235926,5.5341764],"ct":"BE","tp":"CR","ts":"2024-07-31T18:31:29Z","tX":527,"tY":345,"tags":{"capacity":"10","caravan_site":"motorhome_stopover","caravan_site:type":"river","charge":"12 EUR","fee":"yes","fixme":"becoming CAMPING-CAR PARK site","name":"Aire de Hamoir","sanitary_dump_station":"yes","sanitary_dump_station:chemical_toilet":"yes","seasonal":"no","water_point":"yes"}},"1231576668":{"location":[50.3522446,5.495635],"ct":"BE","tp":"CR","ts":"2023-12-16T00:13:37Z","tX":527,"tY":345,"tags":{"capacity":"10","caravan_site":"motorhome_stopover","caravan_site:type":"river","charge":"10 EUR","fee":"yes","name":"Aire de Barvaux Sur Ourthe","power_supply":"yes","sanitary_dump_station":"yes","services:charge":"2 EUR","water_point":"yes","website":"https://www.ardennebelge.be/diffusio/fr/p/aire-pour-motor-homes/aire-de-motor-homes-de-barvaux-sur-ourthe-durbuy_TFOHBG-A0-008C-1IAB/"}},"9502157261":{"location":[50.3745667,5.5193073],"ct":"BE","tp":"SD","ts":"2022-09-25T09:48:48Z","tX":527,"tY":345,"tags":{}}}