{"99073667":{"location":[50.1269236,5.2840257],"ct":"BE","tp":"CS","ts":"2020-09-19T20:00:21Z","tX":527,"tY":346,"tags":{"addr:housenumber":"30","addr:street":"Rue de la Ramée","internet_access":"wlan","name":"Camping Pré du Blason","source":"bing","website":"http://www.camping-predublason.be"}},"99245688":{"location":[50.0983312,5.2879978],"ct":"BE","tp":"CS","ts":"2020-09-03T19:28:58Z","tX":527,"tY":346,"tags":{"caravans":"yes","name":"Parc La Clusure","tents":"yes","website":"https://www.parclaclusure.be/"}},"99249090":{"location":[50.2508252,5.2783125],"ct":"BE","tp":"CS","ts":"2023-07-21T18:53:33Z","tX":527,"tY":346,"tags":{"caravans":"yes","drinking_water":"yes","name":"Camping Le Relais","power_supply":"yes","shower":"yes","tents":"yes","toilets":"yes","website":"http://www.campinglerelais.com/welcome.htm"}},"100331424":{"location":[50.124106,5.3502168],"ct":"BE","tp":"CS","ts":"2016-06-29T09:34:07Z","tX":527,"tY":346,"tags":{"name":"Fontaine Monseu","website":"http://www.tourisme-marche-nassogne.be/nl/verblijfsmogelijkheden/campings/item/15680-fontaine-monseu","wheelchair":"yes"}},"130785263":{"location":[50.2714591,5.4372704],"ct":"BE","tp":"CS","ts":"2024-07-20T10:59:07Z","tX":527,"tY":346,"tags":{"addr:city":"Hotton","addr:housenumber":"10","addr:street":"Rue des Fonzays","caravans":"yes","drinking_water":"yes","fee":"yes","name":"Camping Eau Zone","power_supply":"yes","shower":"yes","tents":"yes","toilets":"yes","website":"https://campingeauzone.be"}},"131383561":{"location":[50.2687065,5.4418355],"ct":"BE","tp":"CS","ts":"2022-06-28T20:57:23Z","tX":527,"tY":346,"tags":{"addr:housenumber":"32","addr:street":"Rue du Batty","fixme":"Probably should be resort but currently not rendered. Issue 2290.","name":"Moulin de Hotton","website":"https://www.moulindehotton.be"}},"132452187":{"location":[50.2764765,5.5494165],"ct":"BE","tp":"CS","ts":"2021-02-05T09:29:00Z","tX":527,"tY":346,"tags":{"addr:city":"Blier-Erezee","addr:housenumber":"1a","addr:postcode":"6997","addr:street":"Rue du TTA","name":"Camping Le Val de l'Aisne","website":"https://levaldelaisne.be/"}},"147186149":{"location":[50.2726755,5.4368267],"ct":"BE","tp":"CS","ts":"2024-08-25T19:59:29Z","tX":527,"tY":346,"tags":{"name":"Camping du Père André","website":"https://www.campingbelgique.be/en/campings/camping-le-pere-andre/"}},"149913455":{"location":[50.1671043,5.6206427],"ct":"BE","tp":"CS","ts":"2024-04-05T19:35:04Z","tX":527,"tY":346,"tags":{"addr:city":"Maboge","addr:housenumber":"25","addr:postcode":"6980","addr:street":"Route de Houffalize","area":"yes","caravans":"yes","description":"No discount for hikers, backpackers or cyclists.","drinking_water":"yes","email":"info@ardennecamping.be","name":"Ardenne Camping","phone":"+32 496 47 18 94","power_supply":"yes","shower":"yes","tents":"yes","toilets":"yes","website":"https://www.ardennecamping.be"}},"197953498":{"location":[50.1859859,5.5179047],"ct":"BE","tp":"CS","ts":"2019-01-05T20:37:17Z","tX":527,"tY":346,"tags":{"addr:city":"Rendeux","addr:housenumber":"8","addr:postcode":"6987","addr:street":"Wate-Fosse","name":"Le Beau Rêve","phone":"+32 84 41 14 88"}},"199576114":{"location":[50.1906203,5.5718553],"ct":"BE","tp":"CS","ts":"2024-10-30T12:22:56Z","tX":527,"tY":346,"tags":{"addr:city":"La Roche-en-Ardenne","addr:housenumber":"24","addr:postcode":"6980","addr:street":"Rue de Harzé","caravans":"yes","email":"info@campingbenelux.be","fax":"+32 84 41 23 59;+32 58 51 26 18","hot_water":"yes","internet_access":"wlan","name":"Camping Benelux","phone":"+32 84 41 15 59;+32 58 51 25 46","power_supply":"yes","sanitary_dump_station":"customers","shower":"yes","swimming_pool":"yes","tents":"yes","toilets":"yes","website":"https://campingbenelux.be/"}},"199576115":{"location":[50.1759127,5.5963152],"ct":"BE","tp":"CS","ts":"2023-11-07T19:06:00Z","tX":527,"tY":346,"tags":{"addr:city":"La Roche-en-Ardenne","addr:housenumber":"18","addr:postcode":"6980","addr:street":"Route de Houffalize","area":"yes","cabins":"yes","caravans":"yes","email":"camping@camping-floreal.be","fax":"+32 84 22 35 68","internet_access":"wlan","internet_access:fee":"no","name":"Camping La Roche 1","operator":"Floreal Holidays","phone":"+32 84 21 94 67","shower":"yes","stars":"4","tents":"yes","toilets":"yes","toilets:wheelchair":"no","website":"http://www.camping-floreal.be","wheelchair":"limited"}},"199576116":{"location":[50.1762818,5.5839752],"ct":"BE","tp":"CS","ts":"2023-11-08T16:33:16Z","tX":527,"tY":346,"tags":{"addr:city":"La Roche en Ardenne","addr:housenumber":"12b","addr:postcode":"6980","addr:street":"Avenue de Villez","area":"yes","capacity:pitches":"100","caravans":"yes","internet_access":"wlan","internet_access:fee":"no","motorhome":"yes","name":"La Roche 2","operator":"Floreal Holidays","shower":"yes","stars":"4","tents":"yes","toilets":"yes","website":"https://www.florealgroup.be/page/la-roche-en-ardenne-2.html"}},"199576119":{"location":[50.1891948,5.5688839],"ct":"BE","tp":"CS","ts":"2024-08-12T11:57:12Z","tX":527,"tY":346,"tags":{"addr:city":"La Roche-en-Ardenne","addr:country":"BE","addr:housenumber":"8","addr:postcode":"6980","addr:street":"Rue des Echavées","area":"yes","bicycle":"yes","caravans":"yes","email":"info@campingbenelux.be","fax":"+32 58 51 26 18","fixme":"Survey if the both camping are now merged (check entrance)","internet_access":"wlan","name":"Camping Le Grillon","note":"Looks like the camping has merged with camping Benelux","phone":"+32 84 41 20 62;+32 58 51 25 46","power_supply":"yes","shower":"yes","tents":"yes","toilets":"yes","website":"https://www.campinglegrillon.be"}},"199576120":{"location":[50.1872829,5.5692486],"ct":"BE","tp":"CS","ts":"2019-03-20T21:43:01Z","tX":527,"tY":346,"tags":{"addr:city":"La Roche-en-Ardenne","addr:country":"BE","addr:postcode":"6980","addr:street":"Rue des Echavées","email":"info@campingdelourthe.be","horse":"no","internet_access":"wlan","name":"Camping de l'Ourthe","phone":"+32 84 41 14 59","website":"https://www.campingdelourthe.be/"}},"199576152":{"location":[50.1863369,5.5707652],"ct":"BE","tp":"CS","ts":"2020-07-21T15:42:07Z","tX":527,"tY":346,"tags":{"addr:city":"La Roche-en-Ardenne","addr:country":"BE","addr:postcode":"6980","addr:street":"Rue des Echavées","horse":"no","name":"Le Pont du Tram","operator":"RO.GI.MA: sa.","phone":"+32 84 41 21 04","stars":"3"}},"199637647":{"location":[50.1857428,5.547564],"ct":"BE","tp":"CS","ts":"2024-08-25T19:59:29Z","tX":527,"tY":346,"tags":{"addr:city":"Beausaint (La Roche-en-Ardenne)","addr:housenumber":"66A","addr:postcode":"6980","addr:street":"Vecpré","area":"yes","fax":"+32 84 41 11 84","name":"Camping Cosmopolite","phone":"+32 84 41 11 84","website":"https://www.campingcosmopolite.be/"}},"199637648":{"location":[50.2255989,5.5264902],"ct":"BE","tp":"CS","ts":"2024-05-13T06:31:42Z","tX":527,"tY":346,"tags":{"addr:city":"Rendeux","addr:housenumber":"89","addr:postcode":"6987","addr:street":"Route de La Roche","area":"yes","caravans":"yes","fax":"+32 84 47 73 64","internet_access":"wlan","internet_access:fee":"yes","motorhome":"yes","name":"Camping Le Festival","operator":"Floreal Holidays","phone":"+32 84 47 73 71","shower":"yes","stars":"4","tents":"yes","toilets":"yes","website":"https://www.florealgroup.be/nl/camping/domein-le-festival"}},"199784059":{"location":[50.0754505,5.5551914],"ct":"BE","tp":"CS","ts":"2019-03-20T21:42:13Z","tX":527,"tY":346,"tags":{"addr:city":"Tenneville","addr:housenumber":"9","addr:postcode":"6970","addr:street":"Bergueme","email":"info@pontbergueme.be","fax":"+32 84 45 62 31","name":"Camping \"Pont de Berguème\"","phone":"+32 84 45 54 43","website":"https://www.pontbergueme.be/"}},"263141012":{"location":[50.2151499,5.5208953],"ct":"BE","tp":"CS","ts":"2024-05-14T12:42:21Z","tX":527,"tY":346,"tags":{"addr:housenumber":"8","addr:street":"Pont de Marcourt","caravans":"yes","name":"Camping de Marcourt","tents":"yes"}},"338463261":{"location":[50.1709654,5.5727392],"ct":"BE","tp":"CS","ts":"2019-01-04T07:50:21Z","tX":527,"tY":346,"tags":{"addr:city":"Maboge/La Roche-en-Ardenne","addr:housenumber":"62","addr:postcode":"6980","addr:street":"Petite Strument","fax":"+32 84 41 10 80","name":"Camping du Vieux Moulin","phone":"+32 84 41 13 80","website":"http://www.strument.com"}},"391939220":{"location":[50.1801172,5.6063745],"ct":"BE","tp":"CS","ts":"2023-11-07T19:06:00Z","tX":527,"tY":346,"tags":{"addr:city":"La Roche-en-Ardenne","addr:housenumber":"20A","addr:postcode":"6980","addr:street":"Route de Houffalize","email":"info@campinglohan.be","name":"Lohan","phone":"+32 84 41 15 45","website":"https://www.campinglohan.be/"}},"401171967":{"location":[50.2775087,5.4989123],"ct":"BE","tp":"CS","ts":"2023-12-22T20:34:54Z","tX":527,"tY":346,"tags":{"addr:housenumber":"3","addr:street":"Rue du Moulin","caravans":"yes","motorhome":"yes","name":"Moulin de Méline","tents":"yes","website":"https://www.moulin-de-melines.be/"}},"410936679":{"location":[50.125844,5.6160784],"ct":"BE","tp":"CS","ts":"2020-07-17T14:30:50Z","tX":527,"tY":346,"tags":{"addr:housenumber":"11","addr:street":"Ortho","name":"Le Carrefour"}},"431496750":{"location":[50.0845693,5.3391806],"ct":"BE","tp":"CR","ts":"2024-07-05T14:06:46Z","tX":527,"tY":346,"tags":{"fee":"no","indoor":"no","name":"Aire du Fourneau Saint Michel","power_supply":"yes","power_supply:fee":"yes","sanitary_dump_station":"yes","tents":"no","water_point":"yes","website":"https://www.foretdesainthubert-tourisme.be/en/mobilhomes/HBG-A0-0066-44UJ&type=26/"}},"461535888":{"location":[50.1453056,5.2747551],"ct":"BE","tp":"CS","ts":"2024-08-19T19:55:32Z","tX":527,"tY":346,"tags":{"addr:housenumber":"116","addr:street":"Rue de Jemelle","caravans":"yes","drinking_water":"yes","name":"Relaxi","power_supply":"yes","shower":"yes","tents":"yes","toilets":"yes"}},"461850731":{"location":[50.1720105,5.3593978],"ct":"BE","tp":"CS","ts":"2023-02-05T15:18:10Z","tX":527,"tY":346,"tags":{"addr:housenumber":"20","addr:street":"Rue du Stoquet","name":"Le Stoquet"}},"462757520":{"location":[50.218501,5.5204163],"ct":"BE","tp":"CS","ts":"2024-08-25T19:59:29Z","tX":527,"tY":346,"tags":{"addr:housenumber":"1","addr:street":"Pont de Marcourt","name":"Le Passage","website":"https://www.campinglepassage.com/?lang=nl"}},"463044152":{"location":[50.1869568,5.532948],"ct":"BE","tp":"CS","ts":"2024-06-24T12:50:30Z","tX":527,"tY":346,"tags":{"addr:city":"Vecpré","addr:housenumber":"4","addr:street":"Route de Marche","caravans":"yes","drinking_water":"yes","email":"campingdupouhou@skynet.be","name":"Camping du Pouhou","phone":"+32 84 41 11 74","shower":"yes","tents":"yes","website":"https://www.campingdupouhou.be"}},"463689442":{"location":[50.2545978,5.4875119],"ct":"BE","tp":"CS","ts":"2023-09-23T10:48:23Z","tX":527,"tY":346,"tags":{}},"463689443":{"location":[50.2535645,5.4898597],"ct":"BE","tp":"CS","ts":"2017-01-04T16:21:53Z","tX":527,"tY":346,"tags":{}},"463689444":{"location":[50.2526845,5.4881603],"ct":"BE","tp":"CS","ts":"2017-01-04T16:21:53Z","tX":527,"tY":346,"tags":{}},"463841477":{"location":[50.2820182,5.4377759],"ct":"BE","tp":"CS","ts":"2021-04-03T14:47:49Z","tX":527,"tY":346,"tags":{"name":"Camping La Brise","website":"https://campinglabrise.be/"}},"463929700":{"location":[50.271996,5.4388774],"ct":"BE","tp":"CS","ts":"2017-08-23T17:34:18Z","tX":527,"tY":346,"tags":{"name":"Chez Philou"}},"464436423":{"location":[50.2835695,5.5678538],"ct":"BE","tp":"CS","ts":"2024-05-28T19:09:20Z","tX":527,"tY":346,"tags":{"addr:housenumber":"6b","addr:street":"Erpigny","name":"Thier de Hazeilles"}},"464726600":{"location":[50.287481,5.4967278],"ct":"BE","tp":"CS","ts":"2023-07-18T17:37:41Z","tX":527,"tY":346,"tags":{"addr:housenumber":"38","addr:street":"Rue Magerat","name":"SoyNature - espace naturiste","nudism":"designated","phone":"+32 86 21 88 31","website":"http://www.soynature.be/"}},"762874436":{"location":[50.1805876,5.3223582],"ct":"BE","tp":"CS","ts":"2023-10-27T02:43:17Z","tX":527,"tY":346,"tags":{"access":"customers","backcountry":"yes","bicycle":"yes","camp_site":"basic","capacity":"10","caravans":"no","charge":"2 EUR/night/person","description":"Reservation required by sending a mail or SMS a few days in advance, otherwise the cost is 15 EUR/night/person","description:reservation":"Reserve at least a few days in advance at vzw Brunehaut by SMS, you will then receive details for bank transfer + proof that can be presented on the spot when checked by competent authorities.","drinking_water":"no","email":"brunehautvzw@gmail.com","fee":"yes","image":"http://www.bivakzone.be/images/brunehaut/bivakzone_brunehaut.jpg","maxstay":"2 nights","maxtents":"3","motor_vehicle":"no","name":"Aire de Bivouac Brunehaut / Bivakzone Brunehaut","openfire":"yes","opening_hours":"24/7","operator":"VZW Brunehaut","payment:wire_transfer":"yes","phone":"+32 473 43 77 93","reservation":"required","toilets":"yes","website":"https://www.bivakzone.be/brunehaut-hargimont.html"}},"765431040":{"location":[50.1252415,5.3699117],"ct":"BE","tp":"CS","ts":"2023-08-27T09:14:54Z","tX":527,"tY":346,"tags":{"backcountry":"yes","bicycle":"yes","camp_site":"basic","capacity":"10","description:reservation":"By hanging a piece of paper on the notice board in advance. Especially during holiday periods and weekends it is better to reserve.","drinking_water":"no","fee":"no","image":"http://www.bivakzone.be/images/traqueurs/traqueurs.jpg","maxstay":"48 hours","maxtents":"3","motor_vehicle":"no","name":"Aire de Bivouac des Traqueurs","opening_hours":"16:00-10:00","operator":"Département de la Nature et des Forêts","reservation":"recommended","toilets":"no","website":"https://www.bivakzone.be/traqueurs-nassogne.html"}},"765434484":{"location":[50.0671673,5.4769875],"ct":"BE","tp":"CS","ts":"2023-11-21T00:33:18Z","tX":527,"tY":346,"tags":{"backcountry":"yes","camp_site":"basic","capacity":"10","drinking_water":"no","fee":"no","maxstay":"16 hours","motor_vehicle":"no","name":"Aire de bivouac du Golet","opening_hours":"16:00-10:00","operator":"bivakzone","reservation":"not required","toilets":"no"}},"823360988":{"location":[50.2694656,5.4594258],"ct":"BE","tp":"CR","ts":"2024-01-01T18:47:48Z","tX":527,"tY":346,"tags":{"charge":"15 EUR","fee":"yes","name":"Aire de Hotton 2","sanitary_dump_station:chemical_toilet":"yes","sanitary_dump_station:grey_water":"yes"}},"1199580054":{"location":[50.279213,5.296125],"ct":"BE","tp":"CS","ts":"2023-08-18T18:33:55Z","tX":527,"tY":346,"tags":{"access":"yes","backcountry":"yes","capacity:tents":"4","caravans":"no","fee":"no","fixme":"Emplacement à confirmer","name":"Aire de Bivouac de Heure","openfire":"no","static_caravans":"no","tents":"yes","website":"https://sentiersdart.be/hebergement/aire-de-bivouac-de-heure"}},"1231576667":{"location":[50.2687732,5.4440357],"ct":"BE","tp":"CR","ts":"2024-01-01T18:47:48Z","tX":527,"tY":346,"tags":{"capacity":"4","caravan_site":"motorhome_stopover","caravan_site:type":"river","charge":"10 EUR","fee":"yes","name":"Aire de Hotton 1","power_supply":"yes","sanitary_dump_station":"yes","sanitary_dump_station:chemical_toilet":"yes","sanitary_dump_station:grey_water":"yes","source:name":"visitWallonia","tents":"no","website":"https://www.ardennebelge.be/diffusio/fr/p/aire-pour-motor-homes/aire-de-motor-homes-hotton-1-hotton_TFOHBG-A0-008C-1LCU/"}},"11421736161":{"location":[50.2694477,5.4592509],"ct":"BE","tp":"SD","ts":"2024-01-01T19:01:47Z","tX":527,"tY":346,"tags":{"access":"yes","fee":"no","sanitary_dump_station:chemical_toilet":"yes","sanitary_dump_station:grey_water":"yes"}}}