{"40864678":{"location":[49.7028371,5.3184325],"ct":"BE","tp":"CR","ts":"2018-01-31T10:55:08Z","tX":527,"tY":348,"tags":{"name":"Camping La Rosière"}},"202811857":{"location":[49.8328801,5.4181739],"ct":"BE","tp":"CS","ts":"2022-10-07T09:32:12Z","tX":527,"tY":348,"tags":{"addr:city":"Neufchâteau","addr:housenumber":"7","addr:postcode":"6840","addr:street":"Malome","fee":"yes","name":"Glamping Neufchâteau","phone":"+32 61 27 73 20","reservation":"required","stars":"3","website":"https://www.landal.fr/domaine/glamping-neufchateau"}},"255637912":{"location":[49.7252136,5.5284234],"ct":"BE","tp":"CS","ts":"2022-03-29T18:28:01Z","tX":527,"tY":348,"tags":{"addr:city":"Marbehan","addr:housenumber":"15","addr:postcode":"6724","addr:street":"Rue des Prés","capacity:tents":"130","caravans":"yes","contact:facebook":"https://www.facebook.com/campingalaska.be","contact:instagram":"https://www.instagram.com/campingalaska/","contact:phone":"+32 495 54 32 31","contact:website":"https://www.campings-ardennes.be","email":"info@campingalaska.be","fee":"yes","name":"Camping Alaska","shower":"yes","stars":"2","static_caravans":"yes","tents":"yes","toilets":"yes"}},"260902420":{"location":[49.7121099,5.3063738],"ct":"BE","tp":"CS","ts":"2021-01-25T19:40:08Z","tX":527,"tY":348,"tags":{"addr:city":"Martué","addr:housename":"Ferme Equestre de Martué","addr:housenumber":"49","addr:postcode":"6821","addr:street":"Rue de Martué","name":"Ferme Équestre de Martué","wheelchair":"yes"}},"317779635":{"location":[49.7396948,5.3524092],"ct":"BE","tp":"CS","ts":"2023-09-24T19:38:10Z","tX":527,"tY":348,"tags":{"access":"customers","addr:city":"Chiny","addr:housenumber":"1","addr:postcode":"6810","addr:street":"Pont Saint Nicolas","caravans":"yes","contact:email":"info@campinglecanada.be","contact:phone":"+32 495 54 32 31","fee":"yes","name":"Camping le Canada","static_caravans":"yes"}},"443565173":{"location":[49.6855674,5.519514],"ct":"BE","tp":"CS","ts":"2023-07-20T07:00:41Z","tX":527,"tY":348,"tags":{"name":"Camping de Chênefleur"}},"560193912":{"location":[49.6908143,5.5250554],"ct":"BE","tp":"CR","ts":"2018-07-06T06:24:49Z","tX":527,"tY":348,"tags":{"name":"Camping Aux 2 Eaux"}},"1092107305":{"location":[49.6479191,5.508122],"ct":"BE","tp":"CS","ts":"2022-09-05T12:30:46Z","tX":527,"tY":348,"tags":{"camp_site":"basic","name":"Ferme de la Vieille Hage","phone":"+32 63 44 42 02"}},"1491165904":{"location":[49.6804263,5.4841431],"ct":"BE","tp":"CS","ts":"2011-11-04T07:55:23Z","tX":527,"tY":348,"tags":{"name":"Camping à la Ferme"}},"1636771412":{"location":[49.6849171,5.5200571],"ct":"BE","tp":"CR","ts":"2014-11-18T15:18:34Z","tX":527,"tY":348,"tags":{"name":"Camping de Chênefleur"}}}