{"178929079":{"location":[47.8132509,5.3191017],"ct":"FR","tp":"CS","ts":"2025-06-05T14:36:02Z","tX":527,"tY":356,"tags":{"addr:city":"Bourg","addr:postcode":"52200","addr:street":"D974","caravans":"yes","drinking_water":"yes","email":"croix.arles@yahoo.fr","internet_access":"yes","internet_access:fee":"yes","name":"Camping de la Croix d'Arles","phone":"+33 325882402","power_supply":"yes","sanitary_dump_station":"yes","shower":"yes","tents":"yes","toilets":"yes","website":"https://www.campingdelacroixdarles.com/"}},"227523158":{"location":[47.8601122,5.3292832],"ct":"FR","tp":"CS","ts":"2024-08-19T17:03:52Z","tX":527,"tY":356,"tags":{"addr:city":"Langres","addr:housenumber":"9","addr:postcode":"52200","addr:street":"Boulevard Maréchal de Lattre de Tassigny","caravans":"yes","contact:email":"camping.navarre@gmail.com","contact:phone":"+33 6 10 74 10 16","contact:website":"https://www.camping-navarre-langres.com/","drinking_water":"yes","internet_access":"wlan","name":"Camping Navarre","operator":"Mairie Langres","pet":"yes","power_supply":"yes","sanitary_dump_station":"no","shower":"yes","tents":"yes","toilets":"yes","wheelchair":"yes"}},"620396155":{"location":[47.8547743,5.3354688],"ct":"FR","tp":"CR","ts":"2024-10-03T10:35:09Z","tX":527,"tY":356,"tags":{"capacity":"30","caravan_site":"motorhome_stopover","caravan_site:type":"town","charge":"7.55 EUR","fee":"yes","lit":"yes","maxstay":"72 hours","name":"Aire camping-car du Grand Langres","opening_hours":"24/7","operator":"municipal","power_supply":"yes","power_supply:capacity":"16","power_supply:fee":"yes","power_supply:maxcurrent":"6","sanitary_dump_station":"yes","sanitary_dump_station:chemical_toilet":"yes","sanitary_dump_station:fee":"no","sanitary_dump_station:grey_water":"yes","services:charge":"2 EUR water_point,power_supply","surface":"asphalt","water_point":"yes","water_point:fee":"yes","website":"https://www.bienvenue-hautemarne.fr/sit/langres-aire-de-camping-cars-du-grand-langres-acccha052v50010u/"}},"1010921316":{"location":[47.8949215,5.3951639],"ct":"FR","tp":"CS","ts":"2023-07-07T06:32:10Z","tX":527,"tY":356,"tags":{"caravans":"yes","drinking_water":"yes","name":"Hautoreille","power_supply":"yes","shower":"yes","tents":"yes","toilets":"yes"}},"1111852820":{"location":[47.8709257,5.3789055],"ct":"FR","tp":"CS","ts":"2025-06-18T12:12:03Z","tX":527,"tY":356,"tags":{"contact:city":"Peigney","contact:phone":"+33 4 82 78 00 23","contact:postcode":"52200","contact:street":"Rue des Voiliers","name":"Camping de la Liez - Ciela Village - Haute Marne","opening_hours":"Mo-Su 09:00-19:00","phone":"+33325902779","ref:FR:SIRET":"44356436400018","website":"https://www.campingliez.com/fr","wheelchair":"yes"}},"5085667207":{"location":[47.902189,5.301504],"ct":"FR","tp":"CS","ts":"2022-01-25T16:38:05Z","tX":527,"tY":356,"tags":{"addr:city":"Hûmes","addr:country":"FR","addr:postcode":"52200","addr:street":"Rue de la Mouche","email":"mairie.humesjorquenay@wanadoo.fr","fax":"+33 3 25 87 50 65","name":"Camping municipal","phone":"+33 3 25 87 50 65;+33 6 35 94 76 83"}},"5861478000":{"location":[47.8550666,5.3350602],"ct":"FR","tp":"SD","ts":"2024-10-03T10:33:46Z","tX":527,"tY":356,"tags":{"access":"yes","charge":"2 EUR","fee":"yes","operator":"municipal","sanitary_dump_station:fee":"no","water_point:fee":"yes"}},"11581824350":{"location":[47.761069,5.3071404],"ct":"FR","tp":"SD","ts":"2024-11-12T17:33:15Z","tX":527,"tY":356,"tags":{"access":"yes","charge":"2 EUR","fee":"yes","panoramax":"e4627814-a021-46f6-aa1d-0dd5527b167c","power_supply":"no","sanitary_dump_station:chemical_toilet":"yes","sanitary_dump_station:grey_water":"yes","water_point":"yes"}},"4462276512":{"location":[47.8819432,5.3385039],"ct":"FR","tp":"PK","ts":"2024-04-22T12:15:18Z","tX":527,"tY":356,"tags":{"fee":"no","motorhome":"yes","name":"Halte Fluviale"}}}