{"113965302":{"location":[47.6254398,5.505165],"ct":"FR","tp":"CS","ts":"2024-07-15T08:09:41Z","tX":527,"tY":357,"tags":{"cabins":"6","capacity:cabins":"6","capacity:pitches":"20","caravans":"yes","email":"camping-champlitte@hotmail.fr","mobile":"+33 6 82 25 31 61","name":"Camping de Champlitte","opening_hours":"Apr 15 - Oct 15","shower":"yes","source":"cadastre-dgi-fr source : Direction Générale des Impôts - Cadastre. Mise à jour : 2011","tents":"yes","toilets":"yes","website":"https://www.bourgogne-tourisme.com/campings/camping-de-champlitte"}},"178927957":{"location":[47.7403835,5.3075202],"ct":"FR","tp":"CS","ts":"2017-10-09T04:06:43Z","tX":527,"tY":357,"tags":{"name":"Camping du Lac","phone":"+33 3 25 88 45 24","stars":"3"}},"311304019":{"location":[47.5673074,5.4320588],"ct":"FR","tp":"CS","ts":"2024-07-15T08:09:41Z","tX":527,"tY":357,"tags":{"addr:city":"Montigny-sur-Vingeanne","addr:postcode":"21610","name":"Camping Le Trou d'Argot","phone":"+33 6 77 51 69 33","sanitary_dump_station":"no","stars":"1","tents":"30"}},"434756184":{"location":[47.68533,5.3445721],"ct":"FR","tp":"CS","ts":"2024-07-15T08:09:41Z","tX":527,"tY":357,"tags":{"addr:city":"Dommarien","addr:postcode":"52190","caravans":"yes","fee":"yes","name":"Camping municipal","phone":"+33 3 25 88 45 83","tents":"yes","website":"https://www.bienvenue-hautemarne.fr/hebergements/dommarien-camping-de-la-pelletiere-hpacha052v5001ip/"}},"1309411735":{"location":[47.7488745,5.319166],"ct":"FR","tp":"PK","ts":"2024-09-01T14:31:10Z","tX":527,"tY":357,"tags":{"motorhome":"yes","motorhome:overnight":"yes","parking":"surface"}},"6542548971":{"location":[47.5248072,5.3677017],"ct":"FR","tp":"SD","ts":"2021-02-05T09:34:26Z","tX":527,"tY":357,"tags":{"description":"5 € (55 min electr. + 10 min eau)"}}}