{"227972904":{"location":[47.2724359,5.3867599],"ct":"FR","tp":"CR","ts":"2024-05-30T14:06:51Z","tX":527,"tY":359,"tags":{"addr:city":"Lamarche-sur-Saône","addr:postcode":"21760","addr:street":"Rue de la Marchotte","caravan_site":"motorhome_stopover","caravan_site:type":"river;village","fee":"no","internet_access":"no","name":"Aire de camping-car Lamarche-sur-Saône","picnic_area":"yes","power_supply":"yes","sanitary_dump_station":"yes","surface":"grass","water_point":"yes","website":"https://www.lamarche-sur-saone.fr/aire-de-camping-car"}},"262392444":{"location":[47.0890596,5.5014811],"ct":"FR","tp":"CS","ts":"2020-03-17T10:11:50Z","tX":527,"tY":359,"tags":{"addr:city":"Dole","addr:housenumber":"18","addr:postcode":"39100","addr:street":"Chemin Victor et Georges Thévenot","caravans":"yes","email":"camping-pasquier@wanadoo.fr","fax":"+33 3 84 79 23 44","fee":"yes","internet_access":"wlan","internet_access:fee":"no","name":"Camping du Pasquier","opening_hours":"Mar 15-Oct 25","phone":"+33 3 84 72 02 61","power_supply":"yes","shower":"yes","stars":"3","tents":"yes","toilets":"yes","website":"https://www.camping-le-pasquier.com/","wheelchair":"yes"}},"523402700":{"location":[47.1030648,5.2754033],"ct":"FR","tp":"CS","ts":"2021-03-25T21:19:33Z","tX":527,"tY":359,"tags":{"capacity":"65","caravans":"yes","email":"camping.les.herlequins@gmail.com","name":"Camping Les Herlequins","opening_hours":"Jan 1-Dec 31","phone":"+33 3 80392226","source":"cadastre-dgi-fr source : Direction Générale des Finances Publiques - Cadastre. Mise à jour : 2017","tents":"yes","website":"https://www.campinglesherlequins.fr"}},"591249838":{"location":[47.1975051,5.3826588],"ct":"FR","tp":"CS","ts":"2023-11-11T04:26:11Z","tX":527,"tY":359,"tags":{"addr:street":"Route d'Athée","email":"camping.arquebuse@wanadoo.fr","fax":"+33 3 80 31 13 62","internet_access":"wlan","internet_access:fee":"yes","name":"Camping de l'Arquebuse","phone":"+33 3 80 31 06 89","stars":"3","website":"https://www.campingarquebuse.com/"}},"694204569":{"location":[47.2764411,5.566201],"ct":"FR","tp":"CS","ts":"2022-12-17T07:21:31Z","tX":527,"tY":359,"tags":{"caravans":"yes","contact:email":"lacolombiere@woka.fr","contact:phone":"+33 384 312 015","contact:website":"https://www.camping-pesmes.com/","internet_access":"wlan","name":"La Colombière","opening_hours":"May 01-Sep 30","operator":"La Colombière","stars":"3","tents":"yes"}},"1093674815":{"location":[47.2033756,5.3832709],"ct":"FR","tp":"CS","ts":"2011-01-09T09:22:23Z","tX":527,"tY":359,"tags":{"name":"Aire naturelle de Amitie"}},"1177224010":{"location":[47.1250048,5.5892274],"ct":"FR","tp":"CS","ts":"2023-05-29T11:15:51Z","tX":527,"tY":359,"tags":{"addr:city":"Éclans-Nenon","addr:postcode":"39700","cabins":"yes","capacity:pitches":"120","caravans":"yes","email":"camping.lesmarronniers@orange.fr","facebook":"https://www.facebook.com/Camping-r%C3%A9sidentiel-les-marronniers-100974798380227/","motorhome":"yes","name":"Camping les Marroniers","phone":"+33 3 84 72 57 47; +33 6 28 19 40 33; +33 6 83 17 77 08","shower":"yes","tents":"yes","toilets":"yes","website":"https://www.camping-residentiellesmarronniers.fr/"}},"1296422733":{"location":[47.1340292,5.5895047],"ct":"FR","tp":"CR","ts":"2024-10-18T21:25:23Z","tX":527,"tY":359,"tags":{"capacity":"2","caravan_site":"motorhome_stopover","caravan_site:type":"river","fee":"no","name":"Aire de camping-cars Audelange","picnic_area":"yes","power_supply":"no","sanitary_dump_station":"no","water_point":"no"}},"7575088042":{"location":[47.0913938,5.4983695],"ct":"FR","tp":"CR","ts":"2024-09-02T11:11:32Z","tX":527,"tY":359,"tags":{"alt_name":"Parking Commanderie","caravan_site":"motorhome_stopover","caravan_site:type":"parking_lot","fee":"no","name":"Aire de stationnement avenue de lahr","power_supply":"no","sanitary_dump_station":"no","water_point":"no","website":"https://en.montagnes-du-jura.fr/sit/camping-car-aire-de-stationnement-avenue-de-lahr"}},"11979281903":{"location":[47.2761737,5.3872208],"ct":"FR","tp":"CR","ts":"2024-10-08T14:39:20Z","tX":527,"tY":359,"tags":{"caravan_site":"motorhome_stopover","caravan_site:type":"restaurant","fee":"no","name":"Aire camping-car du Nymphéa","network":"France Passion","power_supply":"yes","seasonal":"no","water_point":"yes","website":"https://www.lacotedorjadore.com/sit/aire-camping-car-du-nymphea"}},"4815117577":{"location":[47.0733571,5.4866393],"ct":"FR","tp":"SD","ts":"2017-04-25T08:42:16Z","tX":527,"tY":359,"tags":{"access":"yes","fee":"yes"}},"6549214822":{"location":[47.272708,5.3866121],"ct":"FR","tp":"SD","ts":"2021-09-14T09:44:28Z","tX":527,"tY":359,"tags":{"description":"3 € (Jetons)","operator":"Flot Bleu"}},"6778379417":{"location":[47.148929,5.584956],"ct":"FR","tp":"SD","ts":"2024-08-03T16:03:20Z","tX":527,"tY":359,"tags":{"fee":"no"}},"7346042104":{"location":[47.1469215,5.5798128],"ct":"FR","tp":"SD","ts":"2020-03-30T11:05:44Z","tX":527,"tY":359,"tags":{}},"7350111230":{"location":[47.1862108,5.3331488],"ct":"FR","tp":"SD","ts":"2020-03-31T07:55:03Z","tX":527,"tY":359,"tags":{}},"7351154903":{"location":[47.1784858,5.3345523],"ct":"FR","tp":"SD","ts":"2020-03-31T14:47:14Z","tX":527,"tY":359,"tags":{}},"12012763686":{"location":[47.2766775,5.566333],"ct":"FR","tp":"SD","ts":"2024-06-26T16:05:28Z","tX":527,"tY":359,"tags":{"access":"yes"}}}