{"317501669":{"location":[46.0477145,5.344221],"ct":"FR","tp":"CS","ts":"2024-06-29T02:44:29Z","tX":527,"tY":364,"tags":{"addr:city":"Pont-d'Ain","addr:country":"FR","addr:postcode":"01160","addr:street":"Rue Emile Le Bréüs","caravans":"yes","internet_access":"wlan","name":"Camping de l'Oiselon","phone":"+33 4 74 39 05 23","sanitary_dump_station":"customers","stars":"3","tents":"yes","website":"https://campingpontdain.e-monsite.com/"}},"369392135":{"location":[46.0040706,5.2969248],"ct":"FR","tp":"CS","ts":"2024-08-08T15:42:29Z","tX":527,"tY":364,"tags":{"addr:city":"Priay","addr:country":"FR","addr:postcode":"01160","alt_name":"Camping de l'Escapade","caravans":"yes","drinking_water":"yes","internet_access":"wlan","name":"L'Escapade","phone":"+33 4 37 86 47 13","power_supply":"yes","sanitary_dump_station":"customers","shower":"yes","stars":"2","tents":"yes","toilets":"yes","website":"https://www.camping-ain.fr/"}},"442260525":{"location":[45.9700361,5.5958332],"ct":"FR","tp":"CS","ts":"2024-08-04T15:35:24Z","tX":527,"tY":364,"tags":{"caravans":"yes","drinking_water":"yes","name":"Les 12 Cols","phone":"+33 4 37 86 55 87","power_supply":"yes","sanitary_dump_station":"yes","shower":"yes","stars":"3","tents":"yes","toilets":"yes","website":"https://www.camping-les12cols.fr/"}},"506749021":{"location":[45.8503362,5.4125394],"ct":"FR","tp":"CS","ts":"2022-11-01T10:34:29Z","tX":527,"tY":364,"tags":{"addr:street":"Isle de la Serre","caravans":"yes","internet_access":"yes","name":"Espace Eau Vive","phone":"+33 4 37 63 20 30","power_supply":"yes","shower":"yes","stars":"2","tents":"yes","toilets":"yes","website":"https://www.espace-eauvive.com/"}},"655411215":{"location":[46.0226416,5.5909346],"ct":"FR","tp":"CS","ts":"2019-03-07T05:52:03Z","tX":527,"tY":364,"tags":{"name":"Le Vieux Moulin","operator":"Municipalité","phone":"+33 4 74 36 48 15","stars":"2","website":"https://champdor.jimdo.com/le-camping-municipal/"}},"1232713865":{"location":[45.8322399,5.2921157],"ct":"FR","tp":"CR","ts":"2024-10-08T22:57:04Z","tX":527,"tY":364,"tags":{"bbq":"no","branch":"Saint-Vulbas","brand":"CAMPING-CAR PARK","capacity":"10","caravan_site":"motorhome_stopover","caravan_site:type":"river","caravans":"no","charge":"13.11 EUR","dog":"leashed","fee":"yes","internet_access":"wlan","internet_access:fee":"no","name":"Aire CAMPING-CAR PARK de Saint-Vulbas","network":"CAMPING-CAR PARK","opening_hours":"24/7","operator":"CAMPING-CAR PARK","power_supply":"yes","power_supply:maxcurrent":"6","sanitary_dump_station":"yes","tents":"no","trailer":"yes","water_point":"yes","website":"https://www.campingcarpark.com/fr_FR/sejour/aire-etape-camping-car/auvergne-rhone-alpes/01-ain/st-vulbas"}},"1256592246":{"location":[45.9510749,5.4586937],"ct":"FR","tp":"CS","ts":"2024-04-17T14:51:34Z","tX":527,"tY":364,"tags":{"cabins":"yes","caravans":"yes","dog":"yes","drinking_water":"yes","fee":"yes","motor_vehicle":"yes","motorhome":"yes","name":"Domaine de l'Ermitage","opening_hours":"Apr-Sep","phone":"+33 6 66 43 54 47","tents":"yes","washing_machine":"yes","website":"https://www.ain-tourisme.com/fiches/Saint-Rambert-en-Bugey/Camping/Camping-l-Ermitage/100131"}},"1311114139":{"location":[45.8867223,5.5873927],"ct":"FR","tp":"CS","ts":"2024-08-25T20:35:20Z","tX":527,"tY":364,"tags":{"name":"Le Genevray","operator":"Municipalité","phone":"+33 4 74 37 56 48","website":"https://www.ain-tourisme.com/fiches/Thezillieu/Camping/Camping-Municipal-Le-Genevray/131403"}},"1971392450":{"location":[45.8322806,5.2996999],"ct":"FR","tp":"CS","ts":"2024-05-19T18:19:19Z","tX":527,"tY":364,"tags":{"caravans":"yes","drinking_water":"yes","name":"Camping du Domaine de Beauséjour","power_supply":"yes","shower":"yes","tents":"yes","website":"http://www.campingdomainebeausejour.com"}},"3077040483":{"location":[45.9538766,5.5333311],"ct":"FR","tp":"CS","ts":"2019-03-07T05:52:02Z","tX":527,"tY":364,"tags":{"name":"Le Pré Commun","operator":"Municipalité","phone":"+33 4 74 36 41 27","website":"https://www.ain-tourisme.com/fiches/Chaley/Camping/Camping-Municipal-Au-pre-commun/100750"}},"3078075828":{"location":[46.0309297,5.4974679],"ct":"FR","tp":"CS","ts":"2023-11-07T08:21:57Z","tX":527,"tY":364,"tags":{"name":"Les Thuyas","operator":"Jacquemet Mireille","phone":"+33 4 74 38 57 12","website":"https://www.gites-refuges.com/v2/detail-1183.htm"}}}