{"12734300":{"location":[45.634657,5.5726768],"ct":"FR","tp":"CS","ts":"2022-09-12T13:48:25Z","tX":527,"tY":365,"tags":{"email":"camping@lesavenieres.fr","name":"Couleur Nature","opening_hours":"Apr-Jun,Sep Mo-Su 09:00-10:00,16:00-19:00; Jul-Aug Mo-Su 09:00-10:00,16:00-19:30","phone":"+33 4 74 33 92 92","website":"http://www.camping-couleur-nature.fr/"}},"96393108":{"location":[45.8271345,5.4222351],"ct":"FR","tp":"CS","ts":"2024-10-02T18:19:13Z","tX":527,"tY":365,"tags":{"layer":"1","name":"Camping de la Vallée Bleue","website":"http://www.camping-valleebleue.com/"}},"268613381":{"location":[45.8157507,5.4257822],"ct":"FR","tp":"CS","ts":"2024-01-27T22:47:38Z","tX":527,"tY":365,"tags":{"addr:city":"Serrières-de-Briord","addr:postcode":"01470","addr:street":"Chemin du Point Vert","caravans":"yes","email":"campingdupointvert@gmail.com","mobile":"+33 6 43 16 38 24","name":"Le Point Vert","payment:cash":"yes","payment:credit_cards":"yes","payment:debit_cards":"yes","phone":"+33 4 74 36 13 45","reservation":"yes","stars":"3","tents":"yes","website":"https://www.camping-ain-bugey.com/"}},"310679507":{"location":[45.8277003,5.4213684],"ct":"FR","tp":"CR","ts":"2024-10-02T18:19:13Z","tX":527,"tY":365,"tags":{"capacity":"10","caravan_site":"motorhome_stopover","caravan_site:type":"river","caravans":"no","fee":"no","name":"Aire Montalieu-Vercieu","tents":"no","water_point":"yes","water_point:fee":"yes"}},"427969637":{"location":[45.8027949,5.2995184],"ct":"FR","tp":"CS","ts":"2022-08-01T20:50:27Z","tX":527,"tY":365,"tags":{"addr:street":"Route de Marignieu","name":"Camping","opening_hours":"Mo-Su 08:00-11:00, 16:00-20:00","phone":"+33 757420595","website":"http://camping-valdamby.fr"}},"630457393":{"location":[45.7167162,5.3335997],"ct":"FR","tp":"CS","ts":"2018-10-04T06:57:31Z","tX":527,"tY":365,"tags":{"contact:email":"camping38.perdrix@gmail.com","contact:phone":"+33 437 051 430","contact:website":"https://www.camping-perdrix.com/","name":"Camping l’Île aux Perdrix","stars":"2","tents":"yes"}},"828578521":{"location":[45.6869916,5.3513064],"ct":"FR","tp":"CS","ts":"2022-09-16T11:35:14Z","tX":527,"tY":365,"tags":{"caravans":"yes","contact:email":"les3lacsdusoleil@hotmail.fr","contact:phone":"+33 474 929 206","contact:website":"https://www.camping-les3lacsdusoleil.com/","internet_access":"wlan","name":"Camping Les 3 Lacs du Soleil","note":"Terrain Camping cisconscrire le périmètre du ou des campings avec le nom.","tents":"yes"}},"1084931755":{"location":[45.785951,5.4081748],"ct":"FR","tp":"CS","ts":"2022-08-08T22:35:45Z","tX":527,"tY":365,"tags":{"access":"customers","addr:city":"Bouvesse","addr:housenumber":"114","addr:postcode":"38390","addr:street":"Chemin du Buis","fee":"yes","name":"La chèvre verte","operator":"Marie-Christine Moly","shower":"yes","swimming_pool":"yes","website":"http://www.lachevreverte.com/"}},"1281865226":{"location":[45.6888543,5.3493213],"ct":"FR","tp":"CR","ts":"2024-05-11T01:39:28Z","tX":527,"tY":365,"tags":{"capacity":"14","caravan_site":"motorhome_stopover","caravan_site:type":"countryside","caravans":"no","charge":"14.72 EUR","dog":"leashed","fee":"yes","internet_access":"wlan","internet_access:fee":"no","maxlength":"none","name":"Aire Trept, Les 3 lacs du soleil","network":"CAMPING-CAR PARK","opening_hours":"24/7","operator":"CAMPING-CAR PARK","power_supply":"yes","power_supply:maxcurrent":"6","sanitary_dump_station":"yes","surface":"gravel","tents":"no","trailer":"yes","water_point":"yes","website":"https://www.campingcarpark.com/fr_FR/sejour/aire-etape-camping-car/auvergne-rhone-alpes/38-isere/trept-les-3-lacs-du-soleil"}},"1770251219":{"location":[45.6778557,5.4649838],"ct":"FR","tp":"CS","ts":"2020-10-24T21:11:03Z","tX":527,"tY":365,"tags":{"name":"Camping municipal","stars":"1"}},"5761682285":{"location":[45.7785828,5.5449728],"ct":"FR","tp":"CS","ts":"2024-09-11T03:00:21Z","tX":527,"tY":365,"tags":{"addr:housenumber":"30","addr:street":"Rue du Clos","description":"small camp site with small hotel/apartment. lovely and peacefull place","name":"Goute La Vie","website":"https://www.goutelavie.com/"}},"11871639768":{"location":[45.706232,5.5313126],"ct":"FR","tp":"CS","ts":"2024-05-19T19:25:11Z","tX":527,"tY":365,"tags":{"name":"La Tour des Saveurs"}},"12216613823":{"location":[45.827648,5.4215236],"ct":"FR","tp":"SD","ts":"2024-10-02T18:19:13Z","tX":527,"tY":365,"tags":{"access":"yes"}}}