{"8407223":{"location":[45.1759951,5.5491897],"ct":"FR","tp":"CS","ts":"2024-12-24T11:16:34Z","tX":527,"tY":367,"tags":{"addr:city":"Autrans","addr:housenumber":"61","addr:postcode":"38880","capacity:tents":"28","fee":"yes","name":"Camping Les 4 Montagnes","tents":"yes","website":"https://www.yellohvillage.fr/camping/les_4_montagnes"}},"127025489":{"location":[45.1759869,5.5491824],"ct":"FR","tp":"CS","ts":"2021-09-04T14:02:54Z","tX":527,"tY":367,"tags":{"fee":"yes","name":"Camping Les 4 Montagnes","website":"http://www.camping-au-joyeux-reveil.fr"}},"127025491":{"location":[45.1706935,5.5392649],"ct":"FR","tp":"CS","ts":"2024-10-02T05:49:35Z","tX":527,"tY":367,"tags":{"addr:city":"Autrans","addr:housenumber":"115","addr:postcode":"38880","caravans":"yes","contact:website":"http://www.camping-du-vercors.fr","drinking_water":"yes","fee":"yes","name":"Camping Le Vercors","power_supply":"yes","sanitary_dump_station":"yes","shower":"yes","source":"http://www.camping-du-vercors.fr","tents":"yes","toilets":"yes"}},"128189508":{"location":[45.1294329,5.5331161],"ct":"FR","tp":"CS","ts":"2023-08-03T16:45:17Z","tX":527,"tY":367,"tags":{"caravans":"yes","drinking_water":"yes","name":"Les Buissonnets","power_supply":"yes","shower":"yes","tents":"yes","toilets":"yes","website":"http://www.camping-les-buissonnets.com/"}},"181616074":{"location":[45.1177668,5.5867041],"ct":"FR","tp":"CS","ts":"2023-04-12T19:04:20Z","tX":527,"tY":367,"tags":{"alt_name":"Le Peuil-Camping","contact:phone":"+334 76 95 47 02","name":"Camping de Bois Sigu","stars":"3","website":"https://camping-lans-en-vercors.fr/bois-sigu/"}},"199572192":{"location":[45.1775152,5.5423405],"ct":"FR","tp":"CR","ts":"2024-10-09T01:10:13Z","tX":527,"tY":367,"tags":{"access":"yes","caravan_site":"motorhome_stopover","caravan_site:type":"village","caravans":"no","dog":"yes","fee":"no","internet_access":"no","name":"Aire de stationnement camping car - Autrans","sanitary_dump_station":"no","tents":"no","water_point":"yes","website":"https://www.vercors-experience.com/aire-de-stationnement-camping-car.html"}},"204854984":{"location":[45.1027458,5.2910277],"ct":"FR","tp":"CS","ts":"2024-06-29T02:44:16Z","tX":527,"tY":367,"tags":{"addr:city":"Saint-Romans","addr:postcode":"38160","fee":"yes","name":"Camping Lac du Marandan","payment:ancv":"yes","payment:cash":"yes","payment:credit_cards":"yes","payment:debit_cards":"yes","stars":"3","website":"https://www.camping-lac-vercors.com/"}},"232222120":{"location":[45.1217707,5.3379635],"ct":"FR","tp":"CS","ts":"2023-01-27T18:02:38Z","tX":527,"tY":367,"tags":{"addr:city":"Beauvoir-en-Royans","addr:housenumber":"69","addr:postcode":"38160","addr:street":"Rue Porte du Château","name":"Camping du Château","opening_hours":"Mo-Th 08:00-12:00; Fr-Sa 08:00-13:00","phone":"+33 6 23 42 35 32","source":"cadastre-dgi-fr source : Direction Générale des Impôts - Cadastre. Mise à jour : 2012"}},"240638671":{"location":[45.241057,5.4556029],"ct":"FR","tp":"CR","ts":"2024-11-05T23:06:40Z","tX":527,"tY":367,"tags":{"capacity":"4","caravan_site":"motorhome_stopover","caravan_site:type":"farm","fee":"no","motorhome_stopover:type":"farm_shop","name":"Aire de Linage","network":"France Passion","surface":"grass","water_point":"yes","wikimedia_commons":"File:Aire de Linage.jpg"}},"269296417":{"location":[45.1449867,5.5159651],"ct":"FR","tp":"CS","ts":"2023-04-16T15:30:58Z","tX":527,"tY":367,"tags":{"cabins":"yes","capacity:cabins":"15","capacity:pitches":"34","caravans":"yes","email":"contact@camping-les-eymes.com","name":"Camping Les Eymes","opening_hours":"Apr 28 - Oct 1","phone":"+33 4 76 95 24 85","shower":"yes","stars":"3","tents":"yes","toilets":"yes","website":"http://www.camping-les-eymes.com/"}},"450003319":{"location":[45.1242777,5.5912209],"ct":"FR","tp":"SD","ts":"2024-10-01T10:35:47Z","tX":527,"tY":367,"tags":{"access":"yes","charge":"4 EUR","fee":"yes","name":"Parking de l'aigle","water_point":"yes"}},"599327368":{"location":[45.229741,5.3840652],"ct":"FR","tp":"CS","ts":"2019-03-07T04:36:38Z","tX":527,"tY":367,"tags":{"addr:city":"Vinay","addr:country":"FR","addr:postcode":"38470","addr:street":"route de Charroi","caravans":"yes","name":"Camping à la Ferme de Bresilias","phone":"+33 618 671 679","tents":"yes","website":"https://camping-a-la-ferme-de-bresillas.business.site/"}},"599364553":{"location":[45.1721079,5.4154638],"ct":"FR","tp":"CS","ts":"2018-06-19T12:38:57Z","tX":527,"tY":367,"tags":{"caravans":"yes","email":"enest@hotmail.fr","name":"Camping La Chatonnière","phone":"+33 476 381 876","tents":"yes","website":"https://www.la-chato.fr/"}},"943582355":{"location":[45.2111875,5.3190565],"ct":"FR","tp":"CS","ts":"2024-07-29T14:10:35Z","tX":527,"tY":367,"tags":{"addr:city":"Murinais","addr:postcode":"38160","email":"camping@peridriolle.com","name":"Domaine naturiste Le Pont d'Adèle","name:en":"Le Pont d'Adèle","nudism":"yes","phone":"+33954463655","website":"https://lepontdadele.com/"}},"1011243503":{"location":[45.1240923,5.591653],"ct":"FR","tp":"CR","ts":"2024-10-01T10:35:47Z","tX":527,"tY":367,"tags":{"addr:city":"Lans-en-Vercors","addr:street":"Route de l'aigle","caravan_site":"motorhome_stopover","caravan_site:type":"village;skiing","caravans":"no","fee":"no","internet_access":"no","maxstay":"48 hours","name":"Aire de service de l'Aigle","phone":"+33 476954262","power_supply":"no","sanitary_dump_station":"yes","seasonal":"no","services:charge":"4 EUR","services:fee":"yes","surface":"fine_gravel","tents":"no","toilets":"yes","water_point":"yes","website":"https://www.mairie-lansenvercors.fr/fr/mon-quotidien/mobilite/aires-de-service-de-camping-car/"}},"1380067191":{"location":[45.2565539,5.3379325],"ct":"FR","tp":"CR","ts":"2025-04-22T18:22:46Z","tX":527,"tY":367,"tags":{}},"4215029125":{"location":[45.1552056,5.3191949],"ct":"FR","tp":"SD","ts":"2016-05-30T08:54:44Z","tX":527,"tY":367,"tags":{"access":"yes","fee":"no"}},"12236569654":{"location":[45.1274109,5.5255517],"ct":"FR","tp":"CR","ts":"2024-10-09T01:15:07Z","tX":527,"tY":367,"tags":{"caravan_site":"motorhome_stopover","caravan_site:type":"skiing","fee":"no","name":"Aire de stationnement camping cars Méaudre","power_supply":"no","sanitary_dump_station":"no","water_point":"no","website":"https://www.vercors-experience.com/aire-de-stationnement-camping-cars.html"}},"12229617445":{"location":[45.1775007,5.5424564],"ct":"FR","tp":"SD","ts":"2024-10-06T12:54:47Z","tX":527,"tY":367,"tags":{}}}