{"174981481":{"location":[45.0302202,5.2980339],"ct":"FR","tp":"CS","ts":"2022-02-24T07:43:49Z","tX":527,"tY":368,"tags":{"addr:housenumber":"390","addr:street":"Chemin des Granges Buissières","capacity":"95","caravans":"yes","internet_access":"yes","name":"Camping GCU de Saint-Jean-en-Royans","operator":"Groupement des Campeurs Universitaires","phone":"+33 4 75 47 76 17","sanitary_dump_station":"customers","stars":"2","tents":"yes","website":"https://www.gcu.asso.fr","wheelchair":"limited"}},"192543327":{"location":[45.0664074,5.5557154],"ct":"FR","tp":"CR","ts":"2024-11-02T19:17:22Z","tX":527,"tY":368,"tags":{"caravan_site":"motorhome_stopover","caravan_site:type":"village","fee":"no","name":"Aire camping-car des Bartavelles","sanitary_dump_station":"no","shower":"no","tents":"no","toilets":"no","website":"https://www.villarddelans-correnconenvercors.com/offres/aire-de-camping-car-des-bartavelles-villard-de-lans-fr-3286680/"}},"232125305":{"location":[45.0617685,5.3333412],"ct":"FR","tp":"CS","ts":"2022-08-12T16:31:42Z","tX":527,"tY":368,"tags":{"caravans":"yes","fee":"yes","internet_access":"wlan","internet_access:fee":"no","name":"Camping municipal Les Seraines","operator":"Mairie de Pont-en-Royans","phone":"+33 6 31 02 77 60","power_supply":"yes","shower":"yes","tents":"yes","toilets":"yes","website":"http://www.pontenroyans-vercors.fr/3634-refuge-camping.htm"}},"334818406":{"location":[45.0123485,5.2874923],"ct":"FR","tp":"CS","ts":"2022-10-22T18:26:49Z","tX":527,"tY":368,"tags":{"addr:housenumber":"50","addr:street":"Avenue de Provence","cabins":"yes","capacity":"60","caravans":"yes","dog":"yes","email":"camping.stjeanenroyans@orange.fr","fee":"yes","name":"Camping les Bords de Lyonne","phone":"+33 475477460","power_supply":"yes","sanitary_dump_station":"yes","shower":"yes","tents":"yes","toilets":"yes","website":"https://www.camping-saintjeanenroyans.com/"}},"336360070":{"location":[45.0202637,5.290501],"ct":"FR","tp":"CR","ts":"2024-05-29T10:04:05Z","tX":527,"tY":368,"tags":{"capacity":"15","caravan_site":"motorhome_stopover","caravan_site:type":"village","fee":"no","name":"Aire Camping-Cars de Saint Jean en Royans","power_supply":"no","sanitary_dump_station":"yes","seasonal":"no","water_point":"yes","website":"https://www.ladrometourisme.com/fiches/aire-camping-cars-de-saint-jean-en-royans/"}},"366378679":{"location":[44.8699785,5.3775124],"ct":"FR","tp":"CS","ts":"2023-11-04T12:23:44Z","tX":527,"tY":368,"tags":{"name":"Base Nature Vercors","phone":"+33 4 75 48 29 48","website":"https://www.basenaturevercors.org/"}},"397585826":{"location":[44.8511141,5.6241052],"ct":"FR","tp":"CS","ts":"2019-04-28T08:58:50Z","tX":527,"tY":368,"tags":{"name":"La Chabannerie","phone":"+33 4 76 34 00 38","website":"http://www.camping-trieves.com/"}},"416971537":{"location":[44.9693779,5.4167347],"ct":"FR","tp":"CS","ts":"2024-07-15T12:19:36Z","tX":527,"tY":368,"tags":{"caravans":"yes","fee":"yes","internet_access":"wlan","name":"Camping municipal les Bruyères","operator":"Municipal","phone":"+33 6 86 44 80 78","stars":"2","static_caravans":"yes","tents":"yes","website":"https://campingmunicipallesbruyeres.blog4ever.com/"}},"421759299":{"location":[45.0631314,5.3353963],"ct":"FR","tp":"CR","ts":"2024-05-13T12:16:51Z","tX":527,"tY":368,"tags":{"caravan_site":"motorhome_stopover","caravan_site:type":"river","charge":"11 EUR","drinking_water":"yes","fee":"yes","internet_access":"wlan","internet_access:fee":"no","name":"Aire de camping-car Pont-en-Royans","power_supply":"yes","sanitary_dump_station":"yes","toilets":"no"}},"438489425":{"location":[44.9438863,5.3924113],"ct":"FR","tp":"CS","ts":"2023-07-04T20:02:18Z","tX":527,"tY":368,"tags":{"addr:street":"Cime du Mas","caravans":"yes","fee":"yes","name":"Camping les Réveilles","phone":"+33 4 75 48 21 81","tents":"yes","website":"http://www.campinglesreveilles.com/"}},"510919215":{"location":[45.063424,5.3946263],"ct":"FR","tp":"CS","ts":"2024-10-30T16:01:27Z","tX":527,"tY":368,"tags":{"addr:city":"Châtelus","addr:housenumber":"170","addr:postcode":"38680","addr:street":"Chemin Combe-Bernard","caravans":"yes","email":"daniel.berger07@orange.fr","fee":"yes","name":"Camping Chez la Mère Michon","phone":"+33 4 76 36 07 27","shower":"yes","tents":"yes","toilets":"yes"}},"514527839":{"location":[45.0773201,5.5592702],"ct":"FR","tp":"CS","ts":"2024-04-21T11:52:40Z","tX":527,"tY":368,"tags":{"addr:housenumber":"1080","addr:street":"Avenue du Général de Gaulle","caravans":"no","contact:facebook":"https://www.facebook.com/Oursiere/","contact:phone":"+33 4 76 95 14 77","contact:website":"https://www.capfun.com/camping-france-rhone_alpes-oursiere-FR.html","fee":"yes","internet_access":"wlan","internet_access:fee":"no","name":"Camping l'Oursière","static_caravans":"yes","tents":"no"}},"526570109":{"location":[44.8980695,5.3212737],"ct":"FR","tp":"CR","ts":"2024-05-29T13:12:40Z","tX":527,"tY":368,"tags":{"cabins":"no","capacity":"14","caravan_site":"motorhome_stopover","caravan_site:type":"ski_resort","caravans":"yes","description":"Aire de stationnement réservée aux camping cars avec point de ravitaillement en eau et eaux usées. Sanitaires avec WC et douches chaudes (jeton 2€ à acheter à l'hôtel Les Dryades à côté).","dog":"no","dryer":"no","fee":"no","kitchen":"no","name":"Aire Camping-Cars privée de Font d'Urle/Chaud Clapier","naturism":"no","opening_hours":"Jun 15-Sep 15","payment:cash":"no","payment:girocard":"no","payment:mastercard":"no","payment:visa":"no","power_supply":"yes","sanitary_dump_station":"yes","sauna":"no","scout":"no","seasonal":"yes","tents":"no","washing_machine":"no","website":"https://www.ladrometourisme.com/fiches/aire-camping-cars-privee-de-font-durle-chaud-clapier/"}},"549103330":{"location":[44.8957487,5.5548642],"ct":"FR","tp":"CS","ts":"2024-09-20T16:11:07Z","tX":527,"tY":368,"tags":{"internet_access":"wlan","name":"Camping les 4 Saisons","source":"cadastre-dgi-fr source : Direction Générale des Impôts - Cadastre;mise à jour : 2010","stars":"3","website":"https://www.camping-les4saisons.com/"}},"713125173":{"location":[44.897729,5.3697427],"ct":"FR","tp":"CR","ts":"2024-05-29T09:36:09Z","tX":527,"tY":368,"tags":{"capacity":"20","caravan_site":"motorhome_stopover","caravan_site:type":"village","fee":"no","name":"Aire de services camping cars de Vassieux en Vercors","payment:coins":"yes","sanitary_dump_station":"yes","sanitary_dump_station:chemical_toilet":"yes","sanitary_dump_station:grey_water":"yes","water_point":"yes","water_point:charge":"2 EUR/100 liter","water_point:fee":"yes","website":"https://www.vassieuxenvercors.fr/591/"}},"718444474":{"location":[44.8760223,5.3789417],"ct":"FR","tp":"CS","ts":"2023-11-04T12:23:43Z","tX":527,"tY":368,"tags":{"caravans":"yes","check_date:internet_access":"2023-08-09","drinking_water":"yes","internet_access":"no","name":"Camping Les Pins","phone":"+33 6 50 11 98 35","power_supply":"yes","shower":"yes","tents":"yes","toilets":"yes","website":"https://www.lespinsvassieuxenvercors.fr/","wheelchair":"yes"}},"840324621":{"location":[44.9417239,5.4307384],"ct":"FR","tp":"CS","ts":"2024-08-24T07:01:44Z","tX":527,"tY":368,"tags":{"addr:street":"Route de la Chapelle","caravans":"yes","drinking_water":"yes","email":"contact@etapeenvercors.com","fee":"yes","name":"Camping municipal de Saint-Agnan en Vercors","phone":"+33 601745796","power_supply":"yes","sanitary_dump_station":"no","shower":"yes","tents":"yes","toilets":"yes","website":"https://www.etapeenvercors.com/index.php/fr/le-camping"}},"893279033":{"location":[44.9695118,5.429935],"ct":"FR","tp":"CS","ts":"2024-06-30T04:06:32Z","tX":527,"tY":368,"tags":{"addr:place":"Les Chaberts","caravans":"yes","email":"contact@campingdesmyrtilles.fr","fee":"yes","internet_access":"wlan","internet_access:fee":"no","name":"Camping des Myrtilles","phone":"+33 7 68 86 43 66","static_caravans":"yes","tents":"yes","website":"https://www.campingdesmyrtilles.fr/"}},"942840378":{"location":[45.0638509,5.3950368],"ct":"FR","tp":"CS","ts":"2024-07-28T07:08:41Z","tX":527,"tY":368,"tags":{"addr:city":"Châtelus","addr:housenumber":"1050","addr:postcode":"38680","addr:street":"Route du Pont de Vezor","caravans":"yes","drinking_water":"yes","fee":"yes","name":"Camping Gouffre de la Croix","note":"Acces par Choranche","phone":"+33 4 76 36 07 13","stars":"3","tents":"yes","website":"https://camping-vercors-choranche.fr/"}},"1014008747":{"location":[45.0033585,5.44893],"ct":"FR","tp":"CS","ts":"2023-12-25T09:22:58Z","tX":527,"tY":368,"tags":{"group_only":"yes","name":"Dusserre - Aire naturelle","phone":"+33 6 63 79 31 43"}},"1018732985":{"location":[45.0178301,5.4448618],"ct":"FR","tp":"CS","ts":"2023-08-18T11:58:48Z","tX":527,"tY":368,"tags":{"description":"Closed","name":"Camping municipal","opening_hours":"closed","operator":"Mairie de Saint-Martin-En-Vercors"}},"1071449658":{"location":[45.0656601,5.3932677],"ct":"FR","tp":"CS","ts":"2024-07-20T14:58:06Z","tX":527,"tY":368,"tags":{"addr:city":"Choranche","addr:postcode":"38680","addr:street":"Le Village","caravans":"no","drinking_water":"yes","fee":"yes","name":"Camping municipal des Millières","operator":"Mairie de Choranche","phone":"+33 476360165","power_supply":"yes","shower":"yes","tents":"yes","toilets":"yes","website":"http://www.mairiedechoranche.fr/"}},"4789881624":{"location":[45.0253328,5.4431124],"ct":"FR","tp":"CS","ts":"2024-12-14T13:35:22Z","tX":527,"tY":368,"tags":{"caravans":"yes","drinking_water":"yes","internet_access":"wlan","internet_access:fee":"no","name":"Camping Les Portes Saint-Martin","power_supply":"yes","shower":"yes","source":"cadastre-dgi-fr source : Direction Générale des Impôts - Cadastre ; mise à jour : 2011","stars":"2","tents":"yes"}},"8943897968":{"location":[44.9040867,5.556272],"ct":"FR","tp":"CS","ts":"2021-07-23T10:41:05Z","tX":527,"tY":368,"tags":{"name":"La ferme du Grand Veymont"}},"9335252327":{"location":[45.0582616,5.4028511],"ct":"FR","tp":"CS","ts":"2022-06-19T12:58:00Z","tX":527,"tY":368,"tags":{"capacity":"4","caravans":"yes","fee":"yes","name":"La ferme du clos","operator":"Angelique Doucet","shower":"yes","tents":"yes","toilets":"yes","website":"http://lafermeduclos.fr/camping-ferme"}},"11010190617":{"location":[45.0596533,5.279143],"ct":"FR","tp":"CS","ts":"2023-10-12T12:08:17Z","tX":527,"tY":368,"tags":{"caravans":"yes","name":"Le pont de Manne","tents":"yes"}},"11197428337":{"location":[45.0420407,5.5348838],"ct":"FR","tp":"CS","ts":"2025-01-28T23:31:57Z","tX":527,"tY":368,"tags":{"backcountry":"yes","openfire":"no"}},"11899394102":{"location":[44.8965987,5.320666],"ct":"FR","tp":"CS","ts":"2024-05-12T21:32:28Z","tX":527,"tY":368,"tags":{"caravans":"no","fee":"no","name":"Aire de bivouac de Font d'Urle","tents":"yes","website":"https://www.ladrometourisme.com/fiches/aire-de-bivouac-de-font-durle/"}},"8943931672":{"location":[44.9037685,5.556006],"ct":"FR","tp":"CR","ts":"2024-10-02T18:01:25Z","tX":527,"tY":368,"tags":{"capacity":"2","caravan_site":"motorhome_stopover","caravan_site:type":"farm_shop","dog":"yes","fee":"yes","name":"La ferme du Grand Veymont","product":"cheese","seasonal":"no","tents":"no","toilets":"yes","website":"http://lafermedugrandveymont.com/camping-cariste/"}},"11942379619":{"location":[45.0308109,5.3005774],"ct":"FR","tp":"CR","ts":"2024-05-29T14:53:00Z","tX":527,"tY":368,"tags":{"capacity":"5","caravan_site":"motorhome_stopover","caravan_site:type":"farm_shop","fee":"no","name":"Aire de Camping-Car Vercors Noix","phone":"+33 04 75 05 09 68","product":"nuts","seasonal":"no","website":"https://vercornoix.com/"}},"6708539444":{"location":[44.8968358,5.3694673],"ct":"FR","tp":"SD","ts":"2019-08-13T20:52:57Z","tX":527,"tY":368,"tags":{"fee":"yes","water_point":"yes"}},"9004478601":{"location":[45.0630093,5.3361757],"ct":"FR","tp":"SD","ts":"2024-05-04T12:20:44Z","tX":527,"tY":368,"tags":{"fee":"no"}},"9335967022":{"location":[44.9685729,5.4166626],"ct":"FR","tp":"SD","ts":"2024-05-29T11:54:13Z","tX":527,"tY":368,"tags":{"charge":"3.5 EUR","fee":"yes","water_point":"yes","website":"https://www.ladrometourisme.com/fiches/aire-de-service-camping-cars-de-la-chapelle-en-vercors/"}},"11941810055":{"location":[45.0201108,5.2904387],"ct":"FR","tp":"SD","ts":"2024-05-29T10:04:05Z","tX":527,"tY":368,"tags":{}}}