{"35982068":{"location":[43.8963189,5.2964391],"ct":"FR","tp":"CR","ts":"2025-01-27T00:27:13Z","tX":527,"tY":372,"tags":{"caravan_site":"motorhome_stopover","caravan_site:type":"parking_lot","charge":"11 EUR/24 hours","fee":"yes","maxstay":"48 hours","motorhome":"yes","name":"Parking Saint-Joseph","parking":"surface","power_supply":"no","sanitary_dump_station":"no","water_point":"no","wikimedia_commons":"Category:Parking Saint-Joseph - Roussillon"}},"118622291":{"location":[43.8555354,5.5917611],"ct":"FR","tp":"PK","ts":"2024-10-04T09:35:39Z","tX":527,"tY":372,"tags":{"access":"yes","capacity":"18","fee":"no","motorhome":"yes","name":"Céreste","parking":"surface","surface":"asphalt","toilets":"yes"}},"120953418":{"location":[43.920689,5.3402812],"ct":"FR","tp":"CS","ts":"2024-04-21T17:32:40Z","tX":527,"tY":372,"tags":{"addr:street":"Chemin des Lombardes","contact:email":"leschenesblancs@pausado.com","landuse":"tourism","name":"Les Chênes Blancs","phone":"+33488700007","website":"https://les-chenes-blancs.pausado.com"}},"155016140":{"location":[43.8780378,5.4040554],"ct":"FR","tp":"CS","ts":"2024-05-09T10:50:34Z","tX":527,"tY":372,"tags":{"access":"yes","addr:city":"Apt","addr:postcode":"84400","caravans":"yes","contact:email":"reservation@escapade-vacances.fr","drinking_water":"yes","fax":"+33 4 90 74 14 61","fee":"yes","internet_access":"wlan","internet_access:fee":"no","landuse":"tourism","name":"Camping Les Cèdres","operator":"Escapade Vacances","phone":"+33 4 90 74 14 61","power_supply":"yes","sanitary_dump_station":"yes","shower":"yes","source":"Bing","tents":"yes","toilets":"yes","website":"https://www.escapade-vacances.com/fr/destinations/apt"}},"185230933":{"location":[43.9129341,5.4709125],"ct":"FR","tp":"CS","ts":"2024-07-09T07:36:08Z","tX":527,"tY":372,"tags":{"caravans":"yes","drinking_water":"yes","fee":"yes","landuse":"tourism","name":"Le Colorado","sanitary_dump_station":"yes","shower":"yes","stars":"3","tents":"yes","toilets":"yes","website":"https://www.camping-le-colorado.fr/"}},"223571619":{"location":[43.8894415,5.2773858],"ct":"FR","tp":"CS","ts":"2024-01-26T14:26:57Z","tX":527,"tY":372,"tags":{"addr:housenumber":"2317","addr:street":"Rout de Goult","landuse":"tourism","name":"L'Arc en Ciel","phone":"+33 4 90 05 73 96","stars":"3","website":"https://www.camping-arc-en-ciel.fr"}},"232628653":{"location":[43.8952294,5.3050452],"ct":"FR","tp":"PK","ts":"2024-10-05T15:32:20Z","tX":527,"tY":372,"tags":{"fee":"no","motorhome":"yes","name":"Parking Écomusée de l’ocre","parking":"surface"}},"285814441":{"location":[43.8961118,5.5652062],"ct":"FR","tp":"PK","ts":"2024-10-04T09:38:35Z","tX":527,"tY":372,"tags":{"access":"yes","fee":"no","motorhome":"yes","name":"Viens","parking":"surface"}},"304864370":{"location":[43.919308,5.5004681],"ct":"FR","tp":"PK","ts":"2025-03-02T07:08:53Z","tX":527,"tY":372,"tags":{"access":"yes","alt_name":"Le Colorado Provençal","dog":"leashed","fee":"yes","motorhome":"yes","name":"Les Mille Couleurs","operator":"Association du Colorado de Rustrel","operator:type":"private","parking":"surface","surface":"unpaved","website":"http://www.coloradoprovencal.fr/"}},"365511105":{"location":[44.0274698,5.4986736],"ct":"FR","tp":"CS","ts":"2024-06-17T10:13:56Z","tX":527,"tY":372,"tags":{"caravans":"yes","landuse":"tourism","name":"Camping municipal Le Seuil","stars":"1","tents":"yes"}},"391714035":{"location":[43.8405215,5.4714968],"ct":"FR","tp":"CS","ts":"2021-12-01T19:39:08Z","tX":527,"tY":372,"tags":{"addr:city":"Castellet","addr:postcode":"84400","fee":"yes","landuse":"tourism","name":"Les Bardons","website":"https://campinglesbardons.com"}},"422538398":{"location":[43.84407,5.4960764],"ct":"FR","tp":"CS","ts":"2021-07-31T19:59:22Z","tX":527,"tY":372,"tags":{"name":"Camping à la ferme","phone":"+33490752862"}},"458357116":{"location":[43.845478,5.5642517],"ct":"FR","tp":"CS","ts":"2019-03-22T20:06:03Z","tX":527,"tY":372,"tags":{"capacity":"25","internet_access":"yes","landuse":"tourism","name":"Bois de Sibourg","wheelchair":"no"}},"458358114":{"location":[44.0840209,5.5435965],"ct":"FR","tp":"CS","ts":"2025-02-10T13:37:05Z","tX":527,"tY":372,"tags":{"capacity":"20","landuse":"tourism","name":"Le Puits","sanitary_dump_station":"customers","stars":"1","website":"http://www.revestdubion.fr/"}},"458358871":{"location":[43.9622438,5.6041084],"ct":"FR","tp":"CS","ts":"2019-03-22T20:06:04Z","tX":527,"tY":372,"tags":{"capacity":"27","landuse":"tourism","name":"Camping de Valsaintes","stars":"2","website":"https://www.valsaintes.com/"}},"621416229":{"location":[43.8654677,5.4118314],"ct":"FR","tp":"CS","ts":"2019-03-22T20:06:20Z","tX":527,"tY":372,"tags":{"charge":"20€ (1 Camper, 2 Persons)","landuse":"tourism","name":"Camping le Luberon","opening_hours:gate":"Mo-Su 07:30-22:30","opening_hours:reception":"Mo-Su 09:00-12:00,14:00-19:00","stars":"4","website":"http://www.camping-le-luberon.com"}},"730230113":{"location":[43.9337392,5.3806816],"ct":"FR","tp":"CS","ts":"2024-05-30T10:19:06Z","tX":527,"tY":372,"tags":{"addr:city":"Saint-Saturnin-lès-Apt","addr:country":"FR","addr:housenumber":"348","addr:postcode":"84490","addr:street":"Chemin du Moulin à Huile","capacity":"143","caravans":"yes","fee":"yes","internet_access":"wlan","name":"GCU Saint-Saturnin-lès-Apt","operator":"Groupement des Campeurs Universitaires","phone":"+33 4 90 75 58 56","sanitary_dump_station":"customers","stars":"2","static_caravans":"yes","tents":"yes","website":"https://www.gcu.asso.fr/terrains/saint-saturnin-l%C3%A8s-apt-vaucluse-84","wheelchair":"limited"}},"832354928":{"location":[43.894166,5.4060271],"ct":"FR","tp":"CS","ts":"2022-09-04T15:16:21Z","tX":527,"tY":372,"tags":{"internet_access":"wlan","name":"Camping La Clé des Champs","source":"data.gouv.fr:DATAtourisme - 05/2020","stars":"2","website":"http://www.camping-luberon.com/"}},"1047721279":{"location":[43.8934578,5.3770131],"ct":"FR","tp":"CR","ts":"2025-01-10T07:29:37Z","tX":527,"tY":372,"tags":{"addr:city":"Apt","capacity":"20","caravan_site":"motorhome_stopover","caravan_site:type":"lake;fishing","caravans":"no","charge":"15.18 EUR","charge:conditional":"14.18 @ (Oct-Apr)","description":"public toilets nearby. 3 Km walk to Apt. Nice bar at the lake.","fee":"yes","internet_access":"wlan","internet_access:fee":"no","motorhome":"designated","name":"Aire Camping-Car Park Apt Lumière Luberon","network":"CAMPING-CAR PARK","operator":"Camping-Car Park","power_supply":"yes","power_supply:capacity":"18","power_supply:fee":"no","sanitary_dump_station":"yes","sanitary_dump_station:chemical_toilet":"yes","sanitary_dump_station:grey_water":"yes","socket:cee_blue":"yes","surface":"gravel","tents":"no","toilets":"no","water_point":"yes","water_point:fee":"no","website":"https://www.campingcarpark.com/fr_FR/sejour/aire-etape-camping-car/provence-alpes-cote-dazur/84-vaucluse/apt#0","wikimedia_commons":"Category:Aire CAMPING-CAR PARK Apt Lumière Luberon"}},"1069606275":{"location":[43.893284,5.3774741],"ct":"FR","tp":"SD","ts":"2024-11-30T15:14:33Z","tX":527,"tY":372,"tags":{"access":"yes","description":"located outside gate of CAMPING-CAR PARK","fee":"yes","network":"CAMPING-CAR PARK","operator":"CAMPING-CAR PARK","sanitary_dump_station:chemical_toilet":"yes","sanitary_dump_station:grey_water":"yes","source":"survey","water_point":"yes","wikimedia_commons":"File:Aire CAMPING-CAR PARK Apt Lumière Luberon service area.jpg"}},"1267465421":{"location":[43.9159877,5.4199509],"ct":"FR","tp":"CS","ts":"2024-03-29T14:39:40Z","tX":527,"tY":372,"tags":{"addr:city":"Villars","addr:housenumber":"1649","addr:postcode":"84400","addr:street":"Route des Trécassats","caravans":"no","fee":"yes","name":"La Colline des Ocres","resort":"tourist_camp","static_caravans":"yes","tents":"no","website":"https://www.lacollinedesocres.com"}},"1286912310":{"location":[43.9324344,5.4098546],"ct":"FR","tp":"CR","ts":"2024-10-02T13:48:57Z","tX":527,"tY":372,"tags":{"caravan_site":"motorhome_stopover","caravan_site:type":"countryside","charge":"14.50 EUR","fee":"yes","name":"Aire de Services Les Hautes Garrigues","opening_hours":"24/7","picnic_area":"yes","power_supply":"yes","sanitary_dump_station":"yes","seasonal":"no","water_point":"yes","water_point:fee":"yes","website":"https://www.provenceguide.com/campings/luberon/aire-de-services-les-hautes-garrigues/provence-5384125-1.html"}},"1287739599":{"location":[44.0577701,5.356993],"ct":"FR","tp":"CR","ts":"2024-05-29T16:24:31Z","tX":527,"tY":372,"tags":{"caravan_site":"motorhome_stopover","caravan_site:type":"lake;countryside","fee":"no","name":"Aire de de stationnement camping car du plan d'eau de Monieux","power_supply":"no","seasonal":"no","water_point":"no","website":"https://www.provenceguide.com/campings/mont-ventoux/aire-de-stationnement-camping-car-du-plan-deau/provence-6027164-1.html"}},"1316264061":{"location":[43.8845159,5.3550893],"ct":"FR","tp":"CR","ts":"2024-09-18T00:17:38Z","tX":527,"tY":372,"tags":{"bar":"yes","capacity":"9","caravan_site":"motorhome_stopover","caravan_site:type":"hotel","caravans":"no","charge":"18 EUR","charge:conditional":"11 EUR @ (Mar-May,Oct-Nov)","fee":"yes","name":"Aire camping-car - Hotel Carina Apt","opening_hours":"Mar-Nov","phone":"+33 06 27 63 04 40","power_supply":"yes","reservation":"recommended","restaurant":"yes","sanitary_dump_station":"yes","swimming_pool":"yes","water_point":"yes","website":"https://www.hotel-carina-apt.fr/services/"}},"1318509015":{"location":[43.945428,5.386095],"ct":"FR","tp":"CR","ts":"2024-09-26T21:12:59Z","tX":527,"tY":372,"tags":{"caravan_site":"motorhome_stopover","caravan_site:type":"village","caravans":"no","fee":"no","maxstay":"48 hours","name":"Aire Camping-car Saint-Saturnin-lès-Apt","power_supply":"no","sanitary_dump_station":"no","tents":"no","water_point":"no"}},"2953782558":{"location":[43.8543496,5.4844832],"ct":"FR","tp":"CS","ts":"2023-11-09T15:32:28Z","tX":527,"tY":372,"tags":{"name":"Aire naturelle Les Joncquiers","phone":"+33490752011","website":"https://www.lesjoncquiers.com/"}}}