{"121654612":{"location":[43.7686576,5.3741571],"ct":"FR","tp":"CS","ts":"2025-05-29T09:14:46Z","tX":527,"tY":373,"tags":{"addr:city":"Lourmarin","addr:postcode":"84160","addr:street":"Route de Vaugines","landuse":"tourism","name":"Camping Les Hautes Prairies","source":"Visit june 2012","stars":"4","website":"http://www.campinghautesprairies.com"}},"130545261":{"location":[43.6899251,5.5271],"ct":"FR","tp":"CS","ts":"2024-06-10T16:23:06Z","tX":527,"tY":373,"tags":{"addr:city":"Pertuis","addr:country":"FR","addr:postcode":"84120","addr:street":"Avenue Pierre Augier","caravans":"no","email":"pinedes-luberon@franceloc.fr","fax":"+33 4 90 09 03 99","landuse":"tourism","motorhome":"no","name":"Les Pinèdes du Luberon","phone":"+33 4 90 79 10 98","tents":"no","website":"https://www.camping-pinedes-luberon.com/"}},"222237185":{"location":[43.7598412,5.5027213],"ct":"FR","tp":"CS","ts":"2023-11-11T00:14:54Z","tX":527,"tY":373,"tags":{"addr:city":"Cabrières-d'Aigues","addr:country":"FR","addr:postcode":"84240","addr:street":"Quartier les Figuières","email":"contact@campingdelabonde.fr","internet_access":"wlan","landuse":"tourism","name":"Camping de L'Étang de La Bonde","opening_hours":"Mo-Fr 07:30-12:00,17:00-19:00; Sa,Su 07:30-19:00","phone":"+33 4 90 77 63 64","website":"https://www.campingdelabonde.fr/"}},"222238335":{"location":[43.7583233,5.5013021],"ct":"FR","tp":"CS","ts":"2024-05-28T10:29:28Z","tX":527,"tY":373,"tags":{"landuse":"tourism","name":"Les Chaines Verts","stars":"2"}},"223562970":{"location":[43.8184417,5.3116842],"ct":"FR","tp":"CS","ts":"2025-04-23T07:57:41Z","tX":527,"tY":373,"tags":{"addr:city":"Bonnieux","addr:country":"FR","addr:postcode":"84480","addr:street":"Route de Ménerbes","email":"info@campinglevallon.com","internet_access":"wlan","internet_access:fee":"no","landuse":"tourism","name":"Le Vallon","phone":"+33 4 90 75 86 14","website":"https://www.campinglevallon.com/"}},"232632120":{"location":[43.7206774,5.4308986],"ct":"FR","tp":"CS","ts":"2023-11-11T00:14:52Z","tX":527,"tY":373,"tags":{"email":"campinglairdutemps-luberon@orange.fr","landuse":"tourism","name":"L'Air du Temps","phone":"+33 4 90 77 12 84","website":"https://airdutemps-provence.com/"}},"232632121":{"location":[43.7474343,5.4178313],"ct":"FR","tp":"CS","ts":"2019-03-22T20:05:34Z","tX":527,"tY":373,"tags":{"landuse":"tourism","name":"Le Plan","source":"survey"}},"232632521":{"location":[43.7562932,5.44589],"ct":"FR","tp":"CS","ts":"2023-11-11T00:15:07Z","tX":527,"tY":373,"tags":{"caravans":"yes","drinking_water":"yes","internet_access":"wlan","internet_access:fee":"yes","landuse":"tourism","name":"Le Moulin à Vent","phone":"+33 4 90 77 25 77","power_supply":"yes","shower":"yes","source":"survey","stars":"2","tents":"yes","toilets":"yes","website":"https://www.le-moulin-a-vent.com/"}},"290557562":{"location":[43.7181364,5.3567736],"ct":"FR","tp":"CS","ts":"2019-12-01T17:28:15Z","tX":527,"tY":373,"tags":{"landuse":"tourism","name":"Val de Durance","phone":"+33 4 90 68 37 75","source":"Bing"}},"297107750":{"location":[43.6441663,5.4565843],"ct":"FR","tp":"CS","ts":"2024-11-14T14:11:46Z","tX":527,"tY":373,"tags":{"access":"customers","addr:city":"Le Puy Sainte Réparade","addr:housenumber":"70","addr:postcode":"13610","addr:street":"Montée du Château d'Eau","capacity":"85","caravans":"yes","contact:email":"contact@messidor.fr","contact:phone":"+33442619028","description":"Camping naturiste au cœur de la Provence","email":"contact@messidor.fr","fee":"yes","landuse":"tourism","name":"Messidor","nudism":"yes","phone":"+33442619028","stars":"3","static_caravans":"yes","tents":"yes","website":"https://www.messidor.fr/"}},"313537610":{"location":[43.6356106,5.2772762],"ct":"FR","tp":"CS","ts":"2012-03-04T23:47:56Z","tX":527,"tY":373,"tags":{"fixme":"name"}},"345204527":{"location":[43.8314703,5.3790908],"ct":"FR","tp":"PK","ts":"2025-02-23T15:49:39Z","tX":527,"tY":373,"tags":{"access":"yes","drinking_water":"no","fee":"no","motorhome":"yes","motorhome:overnight":"yes","name":"Buoux","parking":"surface","power_supply":"no","sanitary_dump_station":"no","toilets":"no"}},"366653423":{"location":[43.7266575,5.5519161],"ct":"FR","tp":"CS","ts":"2020-01-10T14:04:41Z","tX":527,"tY":373,"tags":{"addr:city":"La Tour-d'Aigues","addr:country":"FR","addr:postcode":"84240","addr:street":"Rue Georges Rouard","capacity":"50","drinking_water":"yes","email":"accueil.mairie@latourdaigues.fr","fee":"yes","landuse":"tourism","name":"La Tour d'Aigues","operator":"Municiplaité","phone":"+33 6 25 35 26 44","tents":"yes","website":"https://www.latourdaigues.fr/tourisme/camping-municipal-la-tour-d-aigues.html"}},"616105309":{"location":[43.824943,5.307],"ct":"FR","tp":"PK","ts":"2024-10-04T12:05:35Z","tX":527,"tY":373,"tags":{"access":"yes","fee":"no","internet_access":"no","motorhome":"yes","name":"Bonnieux","toilets":"no","wheelchair":"yes"}},"1288009724":{"location":[43.6499641,5.5805419],"ct":"FR","tp":"CR","ts":"2024-05-30T11:03:22Z","tX":527,"tY":373,"tags":{"capacity":"15","caravan_site":"motorhome_stopover","caravan_site:type":"village","charge":"8.72 EUR","charge:conditional":"6.72 EUR @ (Oct-Mar)","dog":"yes","fee":"yes","name":"Aire de camping-cars Peyrolles-en-Provence","network":"AirePark","opening_hours":"24/7","operator":"AireServices","power_supply":"yes","power_supply:charge":"2 EUR/hour","power_supply:fee":"yes","power_supply:maxcurrent":"16","reservation":"yes","sanitary_dump_station":"yes","water_point":"yes","website":"https://www.aireparkreservation.com/aires-camping-cars/provence-alpes-cote-azur/bouches-du-rhone/peyrolles-en-provence"}},"1288016314":{"location":[43.8255578,5.3044052],"ct":"FR","tp":"CR","ts":"2024-05-30T11:36:33Z","tX":527,"tY":373,"tags":{"capacity":"7","caravan_site":"motorhome_stopover","caravan_site:type":"village","fee":"no","internet_access":"wlan","maxstay":"48 hours","name":"Aire de camping-cars Bonnieux","opening_hours":"24/7","power_supply":"yes","power_supply:capacity":"4","sanitary_dump_station":"yes","tents":"no","water_point":"yes"}},"1377856618":{"location":[43.6381104,5.2748277],"ct":"FR","tp":"CS","ts":"2025-04-15T17:30:08Z","tX":527,"tY":373,"tags":{"name":"Camping Lou Paradou"}},"1384416860":{"location":[43.6594128,5.4228137],"ct":"FR","tp":"CR","ts":"2025-05-07T18:13:25Z","tX":527,"tY":373,"tags":{"capacity":"12","fee":"no","sanitary_dump_station":"no"}},"2361614777":{"location":[43.7680237,5.4484876],"ct":"FR","tp":"CS","ts":"2024-09-30T19:08:16Z","tX":527,"tY":373,"tags":{"caravans":"yes","drinking_water":"yes","internet_access":"wlan","internet_access:fee":"no","name":"Lou Badareu","payment:credit_cards":"no","phone":"+33 4 90 77 21 46","sanitary_dump_station":"yes","shower":"yes","stars":"2","tents":"yes","website":"https://www.loubadareu.com/wp/"}},"4382496929":{"location":[43.7710511,5.473549],"ct":"FR","tp":"CS","ts":"2022-01-24T14:04:58Z","tX":527,"tY":373,"tags":{"addr:city":"Cucuron","addr:postcode":"84160","addr:street":"Chemin de Lunès, \"le Vabre\"","name":"Camping à la ferme Roumavagi","phone":"+33 6 24 18 84 11","website":"http://campingroumavagi.blogspot.fr"}},"11998782495":{"location":[43.6439705,5.4567871],"ct":"FR","tp":"SD","ts":"2024-06-21T11:12:28Z","tX":527,"tY":373,"tags":{}}}