{"4518646793":{"location":[36.6389111,5.3203337],"ct":"DZ","tp":"CS","ts":"2019-07-22T18:06:12Z","tX":527,"tY":399,"tags":{"name":"Centre de Repos Familiale Militaire"}},"5013887823":{"location":[36.7717176,5.6117958],"ct":"DZ","tp":"CS","ts":"2017-08-04T10:48:57Z","tX":527,"tY":399,"tags":{}},"6429200877":{"location":[36.6403804,5.3447682],"ct":"DZ","tp":"CS","ts":"2023-09-05T16:21:59Z","tX":527,"tY":399,"tags":{"is_in:country":"Algeria الجزائر","is_in:country_code":"DZ","is_in:state":"Béjaïa بجاية","name":"Camps de toile MELBOU (FOSC - SONELGAZ) مخيم مالبو فوسك سونلغاز","name:ar":"مخيم مالبو فوسك سونلغاز","name:en":"Canvas camps MELBOU (FOSC - SONELGAZ)","name:fr":"Camps de toiles MELBOU (FOSC - SONELGAZ)"}},"6429286821":{"location":[36.6411156,5.3447528],"ct":"DZ","tp":"CS","ts":"2021-01-27T00:54:43Z","tX":527,"tY":399,"tags":{"name":"camping scout bejaia مخيم الكشافة بجاية","name:ar":"مخيم الكشافة بجاية","name:en":"Scout camp","name:fr":"Camp Scout"}},"6454857730":{"location":[36.6363261,5.293023],"ct":"DZ","tp":"CS","ts":"2019-05-07T18:39:52Z","tX":527,"tY":399,"tags":{"name":"Camps de toile Souk El Tenine (FOSC - SONELGAZ)"}},"6456255925":{"location":[36.6363304,5.2940798],"ct":"DZ","tp":"CS","ts":"2019-08-30T20:24:25Z","tX":527,"tY":399,"tags":{"name":"Centre de repos Souk El Tenine"}},"6939830161":{"location":[36.6394856,5.3439259],"ct":"DZ","tp":"CS","ts":"2020-11-10T07:54:48Z","tX":527,"tY":399,"tags":{"name":"Camping scout","name:ar":"مخيم الكشافة خراطة","name:fr":"Camp scout"}}}