{"885901656":{"location":[63.7313376,-148.8982147],"ct":"US","tp":"CS","ts":"2024-12-06T03:43:48Z","tX":88,"tY":274,"tags":{"backcountry":"no","capacity:caravans":"122","capacity:pitches":"142","capacity:tents":"142","caravans":"yes","description":"Riley Creek is a fairly wooded campground, with some screening between sites whenever possible. Most of the campground sites are open to either tent campers or vehicles / RVs.","drinking_water":"seasonal","email":"denali_info@nps.gov","fee":"yes","group_only":"no","informal":"no","large_vehicles":"yes","mobile_reception":"yes","name":"Riley Creek Campground","nudism":"no","opening_hours":"24/7","operator":"National Park Service","phone":"+1 907 683 9532","power_supply":"no","reservation":"recommended","sanitary_dump_station":"customers","tents":"yes","toilets":"yes","washing_machine":"seasonal","website":"https://www.nps.gov/dena/planyourvisit/campground-riley.htm"}},"1080165784":{"location":[63.7472276,-148.8983467],"ct":"US","tp":"CR","ts":"2024-07-19T06:39:42Z","tX":88,"tY":274,"tags":{"addr:city":"Denali Park","addr:housenumber":"Mile 238.6","addr:state":"AK","addr:street":"George Parks Highway","fee":"yes","internet_access":"yes","internet_access:fee":"yes","large_vehicles":"yes","mobile_reception":"yes","name":"Denali Rainbow Village RV Park","power_supply":"yes","sanitary_dump_station":"yes"}},"3713266787":{"location":[63.8208737,-148.9882563],"ct":"US","tp":"CR","ts":"2022-05-14T16:08:57Z","tX":88,"tY":274,"tags":{"name":"Denali RV Park & Motel","website":"https://denalirvpark.com/"}},"11029048105":{"location":[63.7239518,-148.90066],"ct":"US","tp":"CS","ts":"2023-07-06T05:31:03Z","tX":88,"tY":274,"tags":{"name:ja":"ライリークリーク"}},"11029191005":{"location":[63.7303626,-148.9005104],"ct":"US","tp":"CS","ts":"2023-07-06T05:33:29Z","tX":88,"tY":274,"tags":{"name:ja":"まみ"}},"11029296405":{"location":[63.7291426,-148.9016271],"ct":"US","tp":"CS","ts":"2023-07-06T05:34:56Z","tX":88,"tY":274,"tags":{"name:ja":"ひろ"}},"4315526580":{"location":[63.7332119,-148.8993372],"ct":"US","tp":"SD","ts":"2024-12-06T03:43:48Z","tX":88,"tY":274,"tags":{"access":"yes","charge":"5 USD","fee":"yes","large_vehicles":"yes","mobile_reception":"yes","name":"Riley Creek Campground Dump Station","operator":"Riley Creek Campground","water_point":"yes"}}}