{"559561811":{"location":[57.591774,-2.3149511],"ct":"GB","tp":"CR","ts":"2018-02-07T22:12:48Z","tX":505,"tY":310,"tags":{}},"563802075":{"location":[57.6573664,-2.4439007],"ct":"GB","tp":"CR","ts":"2022-03-07T22:03:36Z","tX":505,"tY":310,"tags":{"name":"Headiton Holidays"}},"590423589":{"location":[57.5330735,-2.4579036],"ct":"GB","tp":"CR","ts":"2022-08-03T18:45:21Z","tX":505,"tY":310,"tags":{"addr:city":"Turriff","addr:postcode":"AB53 4ER","addr:street":"Station Road","caravans":"yes","name":"Turriff Caravan Park","phone":"+441888 562205","source":"Bing, internet;survey","tents":"yes","website":"https://www.turriffcaravanpark.com/"}},"620126991":{"location":[57.6611439,-2.4380308],"ct":"GB","tp":"CS","ts":"2022-03-07T22:03:36Z","tX":505,"tY":310,"tags":{"addr:city":"Banff","addr:housename":"Westerbonnyton Farm","addr:postcode":"AB45 3EP","addr:street":"Gamrie","name":"Wester Bonnyton Caravan & Camping Site"}},"793281715":{"location":[57.6516229,-2.3341668],"ct":"GB","tp":"CS","ts":"2020-04-18T18:57:08Z","tX":505,"tY":310,"tags":{}},"9815615870":{"location":[57.5547676,-2.2668115],"ct":"GB","tp":"CR","ts":"2022-06-13T20:25:53Z","tX":505,"tY":310,"tags":{"name":"East Balthangie Caravan Park","sanitary_dump_station":"yes"}}}