{"99556136":{"location":[57.0918996,-2.2400446],"ct":"GB","tp":"CR","ts":"2021-05-31T14:23:06Z","tX":505,"tY":313,"tags":{"addr:city":"Aberdeen","addr:hamlet":"Maryculter","addr:housename":"Deeside Holiday Park","addr:postcode":"AB12 5FX","addr:street":"South Deeside Road","caravans":"yes","fee":"yes","name":"Deeside Holiday Park","operator":"Wood Leisure","tents":"no","website":"http://www.holiday-parks.co.uk/index.php?page=deeside"}},"118690513":{"location":[56.9708267,-2.2037457],"ct":"GB","tp":"CR","ts":"2024-06-26T07:55:02Z","tX":505,"tY":313,"tags":{"addr:city":"Stonehaven","addr:postcode":"AB39 2RD","changing_table":"yes","internet_access":"wlan","name":"Stonehaven Queen Elizabeth Park Caravan Club Site","phone":"+44 1569 760088","power_supply":"yes","tents":"yes","website":"https://www.caravanclub.co.uk/club-sites/scotland/aberdeenshire/stonehaven-queen-elizabeth-park-caravan-club-site/","wheelchair":"designated"}},"135530854":{"location":[56.9686371,-2.2065702],"ct":"GB","tp":"CR","ts":"2021-10-21T21:13:47Z","tX":505,"tY":313,"tags":{}}}