{"154726161":{"location":[55.0814537,-2.3242558],"ct":"GB","tp":"CS","ts":"2022-06-02T09:02:23Z","tX":505,"tY":323,"tags":{"addr:city":"Stonehaugh","addr:postcode":"NE48 3BU","caravans":"yes","name":"Stonehaugh Campsite","phone":"+44 1434 230798","website":"https://www.stonehaughcampsite.com/"}},"154738428":{"location":[55.1432559,-2.2526948],"ct":"GB","tp":"CS","ts":"2024-04-25T16:54:32Z","tX":505,"tY":323,"tags":{"addr:city":"Bellingham","addr:housename":"Demesne Farm","addr:postcode":"NE48 2BS","camp_site":"serviced","fee":"yes","name":"Demesne Farm Campsite & Granary Cottage","phone":"+44 1434 220258","tents":"yes","website":"https://www.demesnefarmcampsite.co.uk/"}},"208080989":{"location":[55.146237,-2.2470966],"ct":"GB","tp":"CR","ts":"2020-01-15T07:47:07Z","tX":505,"tY":323,"tags":{}},"234127225":{"location":[54.981529,-2.4518112],"ct":"GB","tp":"CR","ts":"2023-04-21T09:03:29Z","tX":505,"tY":323,"tags":{"addr:city":"Haltwhistle","addr:postcode":"NE49 9NW","addr:street":"Shield Hill","name":"Herding Hill Farm Camping","phone":"+44 1434 320175","website":"https://www.herdinghillfarm.co.uk/"}},"241849301":{"location":[55.1598353,-2.3024113],"ct":"GB","tp":"CS","ts":"2013-10-12T20:40:52Z","tX":505,"tY":323,"tags":{"name":"Boe Rigg"}},"417525572":{"location":[55.1370717,-2.2602009],"ct":"GB","tp":"CS","ts":"2020-02-15T09:00:41Z","tX":505,"tY":323,"tags":{"addr:city":"Bellingham","addr:postcode":"NE48 2JY","area":"yes","fee":"yes","name":"Bellingham Camping & Caravaning Club Site","phone":"+44 1434 220175","source":"ACSI","website":"https://www.campingandcaravanningclub.co.uk/campsites/uk/northumberland/hexham/bellingham"}},"417582270":{"location":[55.0844543,-2.1225768],"ct":"GB","tp":"CS","ts":"2023-10-18T06:12:19Z","tX":505,"tY":323,"tags":{"addr:city":"Barrasford","addr:housenumber":"1","addr:street":"Front Drive","area":"yes","name":"Barrasford Park Camping Site","phone":"+44 1434 681210","website":"https://barrasfordpark.co.uk/"}},"481460589":{"location":[54.9950283,-2.3987958],"ct":"GB","tp":"CS","ts":"2024-09-26T21:35:00Z","tX":505,"tY":323,"tags":{"addr:postcode":"NE47 7AN","email":"winshields-bardonmill@btconnect.com","name":"Winshields Farm Campsite","phone":"+44 1434 344243","website":"https://www.winshieldscampsite.co.uk/"}},"505047345":{"location":[54.9788898,-2.1109731],"ct":"GB","tp":"CR","ts":"2022-01-24T10:32:42Z","tX":505,"tY":323,"tags":{"addr:city":"Hexham","addr:housename":"Riverside Leisure","addr:postcode":"NE46 3RY","addr:street":"Tyne Green","name":"Riverside Leisure Holiday Park","operator":"Riverside Leisure (Hexham) Ltd","phone":"+44 1434 604705","source":"Bing;OS_OpenData_StreetView","website":"http://riverside-leisure.co.uk"}},"757515165":{"location":[55.0856337,-2.1230247],"ct":"GB","tp":"CR","ts":"2019-12-21T08:47:09Z","tX":505,"tY":323,"tags":{"building":"residential","name":"Barrasford Park Caravan Site","source":"Bing"}},"780859240":{"location":[54.9860001,-2.4214615],"ct":"GB","tp":"CS","ts":"2024-08-06T06:37:14Z","tX":505,"tY":323,"tags":{"caravans":"yes","contact:website":"https://www.hadrianswallcampsite.co.uk/","drinking_water":"yes","name":"Hadrian's Wall Campsite","phone":"+44 1434 320 495","power_supply":"yes","sanitary_dump_station":"yes","shower":"yes","tents":"yes","toilets":"yes"}},"11959918484":{"location":[55.0398751,-2.179243],"ct":"GB","tp":"CS","ts":"2024-09-24T18:24:33Z","tX":505,"tY":323,"tags":{"addr:postcode":"NE46 4BW","fhrs:id":"286230","fixme":"FHRS ID is presumably for bunkhouse (which needs mapping)","name":"Greencarts Campsite","website":"https://greencarts.co.uk/"}}}