{"145593803":{"location":[54.9079256,-2.2662066],"ct":"GB","tp":"CR","ts":"2020-05-16T11:43:45Z","tX":505,"tY":324,"tags":{"name":"Allendale Caravan Park","source":"Owner"}},"147533299":{"location":[54.9573591,-2.1197755],"ct":"GB","tp":"CR","ts":"2019-03-19T19:38:28Z","tX":505,"tY":324,"tags":{"addr:city":"Hexham","addr:street":"Causey Hill","name":"Causey Hill Camping & Caravan Park","phone":"+44 1434 602834","website":"https://www.dalyparks.co.uk/causeyhill/index.php"}},"180612655":{"location":[54.9719429,-2.1523037],"ct":"GB","tp":"CR","ts":"2021-02-02T09:23:32Z","tX":505,"tY":324,"tags":{"name":"Heathergate Country Park"}},"295270031":{"location":[54.8142687,-2.4435025],"ct":"GB","tp":"CS","ts":"2022-05-01T16:41:39Z","tX":505,"tY":324,"tags":{"name":"Tyne Willows"}},"314210703":{"location":[54.8061003,-2.3874883],"ct":"GB","tp":"CR","ts":"2017-09-30T19:36:06Z","tX":505,"tY":324,"tags":{"addr:city":"Alston","addr:postcode":"CA9 3LG","name":"Hudgill Caravan Park","phone":"+44 1434 381731"}},"331129149":{"location":[54.8001575,-2.3677851],"ct":"GB","tp":"CR","ts":"2017-09-02T17:08:43Z","tX":505,"tY":324,"tags":{"addr:city":"Nentsbury","addr:postcode":"CA9 3LH","name":"Horse & Wagon Caravan Park","phone":"+44 7913 418416"}},"338489480":{"location":[54.814757,-2.4435822],"ct":"GB","tp":"CR","ts":"2023-08-23T21:23:20Z","tX":505,"tY":324,"tags":{"addr:city":"Alston","addr:postcode":"CA9 3HZ","addr:street":"Station Road","area":"yes","name":"Tyne Willows","phone":"+44 1434 382515"}},"349575501":{"location":[54.9683493,-2.4427784],"ct":"GB","tp":"CR","ts":"2019-07-15T07:07:45Z","tX":505,"tY":324,"tags":{"addr:city":"Haltwhistle","addr:postcode":"NE49 0NE","name":"Seldom Seen Caravan Park","phone":"+44 1434 320571","website":"http://www.seldomseencaravanpark.co.uk/"}},"349578093":{"location":[54.970072,-2.2538113],"ct":"GB","tp":"CR","ts":"2020-03-23T08:02:05Z","tX":505,"tY":324,"tags":{"addr:city":"Haydon Bridge","addr:postcode":"NE47 6BY","addr:street":"Land Ends Road","name":"Poplars Riverside Caravan Park","phone":"+44 1434 684427"}},"460730259":{"location":[54.8910405,-2.3410534],"ct":"GB","tp":"CR","ts":"2020-05-09T12:40:53Z","tX":505,"tY":324,"tags":{"name":"Low Haber Caravan Park"}},"542598108":{"location":[54.7991961,-2.3650567],"ct":"GB","tp":"CS","ts":"2018-12-02T11:37:14Z","tX":505,"tY":324,"tags":{"addr:city":"Nentsbury","addr:postcode":"CA9 3LH","name":"Haggs Bank Bunkhouse and Campsite","phone":"+44 1434 382486","website":"http://haggsbank.com"}},"704619801":{"location":[54.7825613,-2.2736994],"ct":"GB","tp":"CS","ts":"2023-11-06T22:37:38Z","tX":505,"tY":324,"tags":{"addr:city":"Bishop Auckland","addr:housename":"Killhope Lead Mining Museum","addr:postcode":"DL13 1AR","fee":"yes","name":"Killhope Lead Mining Museum Yurts","website":"https://www.killhope.org.uk/things-to-do/yurts/"}}}