{"15697080":{"location":[54.3773406,-2.1527195],"ct":"GB","tp":"CS","ts":"2023-04-08T14:26:21Z","tX":505,"tY":326,"tags":{"caravans":"yes","email":"info@ushagap.co.uk","internet_access":"wlan","internet_access:fee":"no","motorhome":"yes","name":"Usha Gap Campsite","phone":"+44 1748 886110","shower":"yes","tents":"yes","toilets":"yes","website":"https://ushagap.co.uk/campsite/"}},"339535790":{"location":[54.5573307,-2.4485222],"ct":"GB","tp":"CR","ts":"2015-04-20T11:17:57Z","tX":505,"tY":326,"tags":{}},"341979235":{"location":[54.4084879,-2.1764589],"ct":"GB","tp":"CS","ts":"2020-08-02T14:41:23Z","tX":505,"tY":326,"tags":{"name":"Park House Camping & Keld Bunkhouse"}},"342065152":{"location":[54.462289,-2.3543318],"ct":"GB","tp":"CS","ts":"2024-07-05T17:59:32Z","tX":505,"tY":326,"tags":{"addr:city":"Kirkby Stephen","addr:country":"GB","addr:postcode":"CA17 4SZ","addr:street":"Station Road","cabins":"yes","camp_site":"serviced","capacity:caravans":"35","caravans":"yes","dog":"leashed","fee":"yes","internet_access":"wlan","internet_access:fee":"no","motor_vehicle":"yes","name":"Pennine View Park","name:en":"Pennine View Park","nudism":"no","permanent_camping":"no","phone":"+44 17683 71717","power_supply":"cee_17_blue","reservation":"recommended","shower":"yes","source":"ACSI","static_caravans":"no","tents":"yes","toilets":"yes","washing_machine":"yes","website":"https://www.pennineviewpark.co.uk/"}},"543268518":{"location":[54.5068085,-2.4287428],"ct":"GB","tp":"CR","ts":"2017-11-28T10:27:01Z","tX":505,"tY":326,"tags":{"name":"Grassgill"}},"543463614":{"location":[54.4900294,-2.3590726],"ct":"GB","tp":"CR","ts":"2017-11-29T09:46:41Z","tX":505,"tY":326,"tags":{}},"543521274":{"location":[54.5103368,-2.2722919],"ct":"GB","tp":"CR","ts":"2017-11-29T16:10:52Z","tX":505,"tY":326,"tags":{}},"771956211":{"location":[54.4241087,-2.4029387],"ct":"GB","tp":"CR","ts":"2020-02-12T18:19:18Z","tX":505,"tY":326,"tags":{}},"1039354552":{"location":[54.4322945,-2.4390171],"ct":"GB","tp":"CS","ts":"2023-10-21T22:48:32Z","tX":505,"tY":326,"tags":{"name":"Low Greenside Farm Campsite","phone":"+44 1539623217","website":"https://www.lowgreensidefarmcampsite.co.uk/"}},"1155779720":{"location":[54.4557642,-2.1607954],"ct":"GB","tp":"CS","ts":"2023-07-08T22:57:54Z","tX":505,"tY":326,"tags":{"access":"customers","addr:city":"Richmond","addr:postcode":"DL11 6ED","charge":"10 GBP","fee":"yes","name":"Tan Hill Inn Camping","operator":"Tan Hill Inn","payment:cash":"yes","payment:credit_cards":"yes","payment:debit_cards":"yes","shower":"yes","tents":"yes","toilets":"yes","website":"https://tanhillinn.com/tan-hill-inn-camping/"}},"3619429472":{"location":[54.4076758,-2.2036591],"ct":"GB","tp":"CS","ts":"2015-06-26T10:33:04Z","tX":505,"tY":326,"tags":{"name":"Hoggarths campsite"}},"3619429473":{"location":[54.4048428,-2.1664373],"ct":"GB","tp":"CS","ts":"2023-10-21T22:48:39Z","tX":505,"tY":326,"tags":{"name":"Rukin's Park Lodge Campsite","website":"https://rukins-keld.co.uk/"}},"8868473649":{"location":[54.4625193,-2.3542526],"ct":"GB","tp":"SD","ts":"2021-06-26T17:56:01Z","tX":505,"tY":326,"tags":{"source":"survey"}}}