{"51275479":{"location":[53.7899393,-2.3804575],"ct":"GB","tp":"CR","ts":"2020-12-04T10:36:10Z","tX":505,"tY":329,"tags":{"name":"Harwood Bar Caravan Park","source":"yahoo"}},"58648602":{"location":[53.8020068,-2.3690426],"ct":"GB","tp":"CR","ts":"2023-12-12T09:54:07Z","tX":505,"tY":329,"tags":{"addr:city":"Burnley","addr:postcode":"BB12 7RR","addr:suburb":"Read","name":"Bridge Heywood Caravan Park","source":"OS_OpenData_StreetView","website":"https://www.bridgeheywood.co.uk"}},"58842718":{"location":[53.8652746,-2.4168388],"ct":"GB","tp":"CS","ts":"2022-02-14T18:41:37Z","tX":505,"tY":329,"tags":{"caravans":"yes","name":"Clitheroe Camping & Caravanning Club","source":"OS_OpenData_StreetView"}},"154186166":{"location":[53.8694021,-2.4225632],"ct":"GB","tp":"CS","ts":"2022-02-27T20:56:21Z","tX":505,"tY":329,"tags":{"caravans":"yes","name":"Edisford Bridge Farm Camping & Caravan Site"}},"188036726":{"location":[53.8322623,-2.3345483],"ct":"GB","tp":"CR","ts":"2023-12-12T09:28:57Z","tX":505,"tY":329,"tags":{"addr:city":"Clitheroe","addr:postcode":"BB7 9EP","addr:suburb":"Sabden","area":"yes","name":"Stubbins Vale Caravan Park","phone":"+44 1282 778007","source":"bing;OS"}},"293403948":{"location":[53.9288401,-2.1496111],"ct":"GB","tp":"CS","ts":"2016-05-14T22:36:04Z","tX":505,"tY":329,"tags":{}},"335055864":{"location":[53.8737198,-2.4180317],"ct":"GB","tp":"CR","ts":"2022-02-14T18:41:37Z","tX":505,"tY":329,"tags":{"name":"Shireburn Park","source":"bing"}},"335899862":{"location":[53.9034909,-2.4019876],"ct":"GB","tp":"CR","ts":"2023-12-12T14:20:20Z","tX":505,"tY":329,"tags":{"addr:city":"Clitheroe","addr:postcode":"BB7 3JG","addr:street":"Eaves Hall Lane","addr:suburb":"West Bradford","name":"Three Rivers Woodland Park"}},"336861691":{"location":[53.8259367,-2.4364929],"ct":"GB","tp":"CR","ts":"2024-01-04T12:14:34Z","tX":505,"tY":329,"tags":{"name":"Hackings Holiday Park","source":"bing"}},"400771448":{"location":[53.9019727,-2.1635916],"ct":"GB","tp":"CS","ts":"2024-02-24T23:23:36Z","tX":505,"tY":329,"tags":{"fee":"yes","name":"Lower Greenhill Holiday Park"}},"634361684":{"location":[53.8009293,-2.406363],"ct":"GB","tp":"CS","ts":"2024-11-16T18:10:31Z","tX":505,"tY":329,"tags":{"addr:city":"Blackburn","addr:housename":"Bowley International Scout Centre","addr:postcode":"BB6 7UN","addr:street":"Dean Lane, Great Harwood","name":"Bowley International Scout Centre","operator":"East Lancashire Scouts","scout":"yes","website":"https://bowley.org.uk/"}},"829986867":{"location":[53.9160624,-2.2561303],"ct":"GB","tp":"CR","ts":"2021-06-26T09:21:13Z","tX":505,"tY":329,"tags":{"addr:city":"Clitheroe","addr:country":"GB","addr:postcode":"BB7 4JJ","addr:street":"Burnley Road","addr:suburb":"Gisburn","brand":"Parkdean Resorts","brand:wikidata":"Q7138226","name":"Todber Valley Holiday Park","operator":"Parkdean Resorts UK Limited","phone":"+44 1200 445322","website":"https://www.parkdeanresorts.co.uk/location/lancashire/todber-valley/"}},"895693257":{"location":[53.9261521,-2.1864501],"ct":"GB","tp":"CS","ts":"2021-01-15T20:38:18Z","tX":505,"tY":329,"tags":{"name":"Bridge Holme Caravan Site"}},"901254980":{"location":[53.9022856,-2.1882507],"ct":"GB","tp":"CR","ts":"2021-01-28T16:34:51Z","tX":505,"tY":329,"tags":{"name":"Dales View Park"}},"902984865":{"location":[53.8103801,-2.4411122],"ct":"GB","tp":"CR","ts":"2023-07-19T09:06:15Z","tX":505,"tY":329,"tags":{}},"914082137":{"location":[53.9186537,-2.2678117],"ct":"GB","tp":"CR","ts":"2021-03-07T09:42:19Z","tX":505,"tY":329,"tags":{}},"1036652211":{"location":[53.8560892,-2.2412466],"ct":"GB","tp":"CR","ts":"2022-03-02T20:36:55Z","tX":505,"tY":329,"tags":{"caravans":"no","motorhomes":"no","tents":"no"}},"1100613216":{"location":[53.9429314,-2.3386194],"ct":"GB","tp":"CS","ts":"2022-10-03T12:59:49Z","tX":505,"tY":329,"tags":{"name":"Calder Farm Campsite"}},"1679692907":{"location":[53.8947227,-2.4315481],"ct":"GB","tp":"CR","ts":"2012-03-18T12:30:59Z","tX":505,"tY":329,"tags":{"name":"Cross Lane Caravan and Camping Park","tents":"yes"}},"6690956563":{"location":[53.839965,-2.4528546],"ct":"GB","tp":"CS","ts":"2023-12-12T09:28:57Z","tX":505,"tY":329,"tags":{"addr:city":"Clitheroe","addr:housename":"Foxfields Farm","addr:postcode":"BB7 9PN","addr:street":"Whalley Road","fee":"yes","name":"Hobbit Hill","operator":"Foxfields Farm"}},"4454516397":{"location":[53.8651162,-2.4166449],"ct":"GB","tp":"CR","ts":"2020-06-06T13:56:19Z","tX":505,"tY":329,"tags":{"addr:city":"Clitheroe","addr:postcode":"BB7 3LA","addr:street":"Edisford Road","name":"Clitheroe Camping and Caravanning Club Site","website":"https://www.campingandcaravanningclub.co.uk/campsites/uk/lancashire/clitheroe/clitheroe"}}}