{"143617620":{"location":[53.2360584,-2.3889334],"ct":"GB","tp":"CR","ts":"2023-06-10T15:59:26Z","tX":505,"tY":332,"tags":{"landuse":"residential","name":"Woodlands Park"}},"159301481":{"location":[53.1649786,-2.3687831],"ct":"GB","tp":"CR","ts":"2012-04-13T08:36:41Z","tX":505,"tY":332,"tags":{}},"296654973":{"location":[53.1366412,-2.3375584],"ct":"GB","tp":"CR","ts":"2025-06-04T12:47:23Z","tX":505,"tY":332,"tags":{}},"336105187":{"location":[53.1955473,-2.1277363],"ct":"GB","tp":"CR","ts":"2009-02-01T18:27:39Z","tX":505,"tY":332,"tags":{"access":"private","name":"Boars Leigh Mobile Home Park Estate"}},"339912559":{"location":[53.2051951,-2.1282867],"ct":"GB","tp":"CR","ts":"2009-02-07T16:35:04Z","tX":505,"tY":332,"tags":{"name":"Stoneyfold Caravan Park"}},"527298221":{"location":[53.2129208,-2.4486717],"ct":"GB","tp":"CS","ts":"2019-03-06T12:36:10Z","tX":505,"tY":332,"tags":{"addr:city":"Middlewich","addr:housename":"Yatehouse Farm","addr:postcode":"CW10 9NS","addr:street":"Yatehouse Lane","capacity":"25","email":"info@yatehouse.co.uk","fee":"yes","internet_access":"no","name":"Yatehouse Farm Camping & Caravan Park","phone":"+44 7940 850500","website":"https://www.yatehouse.co.uk/"}},"536837845":{"location":[53.1820573,-2.4125005],"ct":"GB","tp":"CR","ts":"2019-03-06T12:36:23Z","tX":505,"tY":332,"tags":{"addr:city":"Middlewich","addr:housename":"Kinderton Park","addr:postcode":"CW10 0JS","addr:street":"Cledford Lane","name":"Kinderton Park","phone":"+44 1606 833492","source":"local_knowledge","website":"https://www.cheshireparkhomes.co.uk/"}},"537075666":{"location":[53.1297466,-2.3731161],"ct":"GB","tp":"SD","ts":"2023-10-04T16:43:47Z","tX":505,"tY":332,"tags":{"access":"customers","building":"yes","name":"C&RT Services","operator":"Canal & River Trust","sanitary_dump_station:basin":"yes","source":"Bing"}},"761094654":{"location":[53.1530193,-2.3964503],"ct":"GB","tp":"CR","ts":"2020-01-05T21:45:52Z","tX":505,"tY":332,"tags":{}},"763331166":{"location":[53.1835479,-2.2753351],"ct":"GB","tp":"CR","ts":"2021-07-03T20:39:05Z","tX":505,"tY":332,"tags":{"name":"River Dane Holiday Park"}},"777643034":{"location":[53.1805191,-2.4142528],"ct":"GB","tp":"CR","ts":"2023-06-11T10:52:04Z","tX":505,"tY":332,"tags":{}},"813966971":{"location":[53.1792124,-2.2989076],"ct":"GB","tp":"CS","ts":"2020-06-08T18:43:50Z","tX":505,"tY":332,"tags":{}},"919897650":{"location":[53.3172841,-2.3637245],"ct":"GB","tp":"CS","ts":"2010-09-20T21:54:03Z","tX":505,"tY":332,"tags":{"name":"Tatton Park Scout Campsite","scout":"yes"}},"1159529495":{"location":[53.2528,-2.2400832],"ct":"GB","tp":"CR","ts":"2023-04-03T23:15:55Z","tX":505,"tY":332,"tags":{"name":"Capesthorne Caravan Park","website":"https://www.caravan-park-cheshire.co.uk"}},"7523987807":{"location":[53.2066222,-2.263614],"ct":"GB","tp":"CR","ts":"2020-05-15T19:45:16Z","tX":505,"tY":332,"tags":{}},"10688926139":{"location":[53.1246367,-2.1281515],"ct":"GB","tp":"CR","ts":"2023-02-23T17:56:53Z","tX":505,"tY":332,"tags":{"addr:city":"Biddulph Moor","addr:postcode":"ST8 7JR","addr:street":"Top Road","capacity:caravans":"5","description":"Caravan & Motorhome Club certificated location. CAMC members only.","name":"Sky View CAMC Certificated Location","power_supply":"yes","sanitary_dump_station":"yes"}}}