{"54852294":{"location":[51.7124448,-2.2802549],"ct":"GB","tp":"CR","ts":"2023-09-04T08:56:51Z","tX":505,"tY":339,"tags":{}},"127680704":{"location":[51.733748,-2.3653869],"ct":"GB","tp":"CR","ts":"2012-05-20T06:57:09Z","tX":505,"tY":339,"tags":{}},"287340475":{"location":[51.7344056,-2.136812],"ct":"GB","tp":"CR","ts":"2014-06-10T19:09:27Z","tX":505,"tY":339,"tags":{}},"362763771":{"location":[51.7863737,-2.1522116],"ct":"GB","tp":"CS","ts":"2022-12-20T17:29:01Z","tX":505,"tY":339,"tags":{"addr:city":"Stroud","addr:housename":"Sevenacres","addr:postcode":"GL6 7EU","email":"info@cherrytreeglamping.co.uk","fee":"yes","name":"Cherry Tree Glamping","phone":"+44 7717 721213","website":"https://www.cherrytreeglamping.co.uk/"}},"376389551":{"location":[51.7537154,-2.3391465],"ct":"GB","tp":"CR","ts":"2015-10-22T14:29:54Z","tX":505,"tY":339,"tags":{"name":"Apple Tree Park","source":"bing"}},"731196338":{"location":[51.6466901,-2.3530859],"ct":"GB","tp":"CS","ts":"2022-10-28T11:13:49Z","tX":505,"tY":339,"tags":{"access":"customers","caravans":"no","internet_access":"no","name":"Conygres Scout Campsite","operator":"Wotton-under-Edge Scout Group","tents":"yes","wheelchair":"limited"}},"925377188":{"location":[51.8138172,-2.1266385],"ct":"GB","tp":"CS","ts":"2024-10-08T14:44:29Z","tX":505,"tY":339,"tags":{"caravans":"yes","charge":"5 GBP","fee":"yes","name":"Buckshead Farm campsite","phone":"+447340344979","source":"survey","static_caravans":"no","tents":"yes"}},"945820747":{"location":[51.703101,-2.1791712],"ct":"GB","tp":"CS","ts":"2023-07-25T11:42:43Z","tX":505,"tY":339,"tags":{"addr:postcode":"GL6 9JJ","caravans":"yes","drinking_water":"yes","name":"Tobacconist Farm Campsite","power_supply":"yes","shower":"yes","tents":"yes","toilets":"yes","wheelchair":"yes"}},"1155213469":{"location":[51.7344406,-2.3990081],"ct":"GB","tp":"CS","ts":"2023-03-18T12:05:21Z","tX":505,"tY":339,"tags":{"addr:postcode":"GL2 7BP","addr:street":"Shepherds Patch","caravans":"yes","email":"info@tudorcaravanpark.co.uk","name":"Tudor Caravan Park","phone":"+44 1453 890483","shower":"yes","tents":"yes","toilets":"yes","website":"http://www.tudorcaravanpark.com/"}},"1789140104":{"location":[51.7538784,-2.3401521],"ct":"GB","tp":"CS","ts":"2015-10-22T14:29:54Z","tX":505,"tY":339,"tags":{"name":"Apple Tree Park","source":"ACSI"}},"2659116466":{"location":[51.6733991,-2.4201858],"ct":"GB","tp":"CR","ts":"2014-02-07T09:18:17Z","tX":505,"tY":339,"tags":{"name":"Hogdown"}},"3970407042":{"location":[51.673443,-2.4199304],"ct":"GB","tp":"CS","ts":"2023-02-15T15:10:04Z","tX":505,"tY":339,"tags":{"addr:city":"Dursley","addr:street":"Wick Road","capacity":"63","name":"Hogsdown Farm","phone":"+44 1453 810224","website":"https://hogsdownfarm.co.uk/"}},"9917868280":{"location":[51.7886074,-2.3108002],"ct":"GB","tp":"CS","ts":"2022-07-28T21:02:40Z","tX":505,"tY":339,"tags":{"access":"yes","addr:housename":"Moreton, Valance","capacity:caravans":"30","capacity:persons":"100","charge":"$15 tent & no electricity","fee":"yes","name":"Gables Farm Caravan and Camping","payment:cash":"yes"}},"8790440317":{"location":[51.7244399,-2.3853698],"ct":"GB","tp":"CR","ts":"2023-10-15T16:59:40Z","tX":505,"tY":339,"tags":{"addr:street":"Moorend Lane","name":"Moorend Farm CL caravan site","website":"https://www.moorendfarmcl.co.uk/"}},"8974947457":{"location":[51.7729933,-2.2915056],"ct":"GB","tp":"CR","ts":"2021-08-02T16:06:14Z","tX":505,"tY":339,"tags":{"addr:city":"Standish","addr:housename":"Arlebrook House","addr:postcode":"GL10 3DN","addr:street":"Standish Court Farm","capacity":"5","description":"UK Caravan & Motorhome Club Certificated Location. CAMC members only.","name":"Arlebrook House CAMC CL","power_supply":"yes","sanitary_dump_station":"yes"}},"9022954809":{"location":[51.71694,-2.356691],"ct":"GB","tp":"CR","ts":"2021-08-20T15:07:52Z","tX":505,"tY":339,"tags":{"addr:city":"Cam Dursley","addr:postcode":"GL11 5DW","addr:street":"Halmore Lane","capacity":"5","description":"UK Caravan & Motorhome Club Certificated Location. CAMC members only. 5 caravan max.","name":"The Beeches Caravan CL","power_supply":"yes","sanitary_dump_station":"yes"}},"12309734230":{"location":[51.790428,-2.4274398],"ct":"GB","tp":"CR","ts":"2024-11-03T16:34:58Z","tX":505,"tY":339,"tags":{}},"4631918549":{"location":[51.7368217,-2.4556178],"ct":"GB","tp":"SD","ts":"2024-02-05T19:15:18Z","tX":505,"tY":339,"tags":{"access":"customers","name":"Purton Ships Graveyard Pump Out","operator":"Canal and River Trust","operator:wikidata":"Q5030960","sanitary_dump_station":"yes","sanitary_dump_station:accepted":"black_water","sanitary_dump_station:basin":"no","sanitary_dump_station:pump-out":"yes","waste":"toilet","waterway":"sanitary_dump_station"}}}