{"292174503":{"location":[51.5093976,-2.1611155],"ct":"GB","tp":"PK","ts":"2025-06-07T16:22:59Z","tX":505,"tY":340,"tags":{"access":"permissive","caravans":"yes","hgv":"yes","note":"This is parking for HGVs and Caravans, unsure if any legal restrictions, or just intended purpose","parking":"surface","surface":"asphalt"}},"342028519":{"location":[51.4130218,-2.129748],"ct":"GB","tp":"CS","ts":"2019-03-22T18:07:11Z","tX":505,"tY":340,"tags":{"name":"Piccadilly Caravan Park","source":"ACSI","website":"https://www.piccadillylacock.co.uk/"}},"519444452":{"location":[51.5716593,-2.3565875],"ct":"GB","tp":"CS","ts":"2022-02-18T13:13:07Z","tX":505,"tY":340,"tags":{"addr:city":"Bristol","addr:postcode":"BS37 6PF","addr:street":"King Lane","name":"Oakfield Farm Camping","source":"web","website":"http://www.oakfieldfarmcamping.co.uk"}},"1301714710":{"location":[51.4850819,-2.1266402],"ct":"GB","tp":"CR","ts":"2024-07-16T10:06:25Z","tX":505,"tY":340,"tags":{"name":"Plough Lane Caravan Site","website":"https://ploughlane.co.uk/"}},"1341553812":{"location":[51.5406832,-2.1302658],"ct":"GB","tp":"CR","ts":"2024-12-10T14:35:27Z","tX":505,"tY":340,"tags":{"name":"Rosefield"}},"3970803116":{"location":[51.5680606,-2.3950915],"ct":"GB","tp":"CS","ts":"2016-01-27T11:35:45Z","tX":505,"tY":340,"tags":{"addr:city":"Yate","addr:street":"Mapleridge Lane","name":"Little Wood Caravan Park","phone":"+44 1454 294544"}}}