{"38006272":{"location":[51.3887029,-2.4053623],"ct":"GB","tp":"CS","ts":"2024-08-23T11:45:44Z","tX":505,"tY":341,"tags":{"addr:postcode":"BA1 3JT","addr:street":"Brassmill Lane","caravans":"yes","fhrs:id":"688884","name":"Bath Marina & Caravan Park","tents":"no","website":"https://bathcaravanpark.com/"}},"129128520":{"location":[51.1909675,-2.2774449],"ct":"GB","tp":"CR","ts":"2014-10-16T21:48:15Z","tX":505,"tY":341,"tags":{"name":"Longleat Caravan Club Site","tents":"no"}},"175342975":{"location":[51.2700838,-2.2327972],"ct":"GB","tp":"CR","ts":"2012-08-09T22:16:03Z","tX":505,"tY":341,"tags":{"tents":"yes"}},"220117716":{"location":[51.378417,-2.2527335],"ct":"GB","tp":"CR","ts":"2019-07-20T15:08:15Z","tX":505,"tY":341,"tags":{"name":"Orchard Farm","website":"http://www.rushmeadcs.com/"}},"279709067":{"location":[51.2773084,-2.3041431],"ct":"GB","tp":"CS","ts":"2022-01-06T21:39:16Z","tX":505,"tY":341,"tags":{"caravans":"no","email":"info@pitchperfectcamping.co.uk","internet_access":"no","internet_access:fee":"no","name":"Pitchperfect","operator":"Camping","phone":"+441373830733","smoking":"yes","stars":"2","tents":"yes","website":"https://pitchperfectcamping.co.uk/","wheelchair":"yes"}},"448642360":{"location":[51.3930535,-2.4019658],"ct":"GB","tp":"CR","ts":"2023-10-22T20:56:42Z","tX":505,"tY":341,"tags":{"name":"Penn Hill CL Site","website":"https://www.penn-hill.com/"}},"474831191":{"location":[51.346964,-2.1486859],"ct":"GB","tp":"CR","ts":"2017-02-15T14:15:11Z","tX":505,"tY":341,"tags":{}},"619716659":{"location":[51.2708108,-2.231641],"ct":"GB","tp":"CS","ts":"2022-08-14T18:24:10Z","tX":505,"tY":341,"tags":{"name":"Brokerswood Holiday Park","operator":"Haulfryn Holidays","website":"https://haulfrynholidays.co.uk/our-parks/wiltshire/brokerswood/"}},"777267916":{"location":[51.3430407,-2.1916033],"ct":"GB","tp":"CR","ts":"2020-02-29T12:57:05Z","tX":505,"tY":341,"tags":{}},"777267917":{"location":[51.3412287,-2.1909421],"ct":"GB","tp":"CR","ts":"2020-02-29T12:57:05Z","tX":505,"tY":341,"tags":{"fee":"yes","website":"https://www.caravanclub.co.uk/certificated-locations/england/wiltshire/trowbridge/marsh-farm/"}},"894200629":{"location":[51.1853118,-2.1524059],"ct":"GB","tp":"CS","ts":"2021-01-11T11:04:14Z","tX":505,"tY":341,"tags":{"caravans":"yes","motorhome":"yes","name":"Coopers Bottom","tents":"no"}},"971330642":{"location":[51.1913677,-2.1992393],"ct":"GB","tp":"CS","ts":"2021-08-08T11:50:03Z","tX":505,"tY":341,"tags":{"name":"Botany Camping & Glamping"}},"972290848":{"location":[51.3937573,-2.2870511],"ct":"GB","tp":"CS","ts":"2024-08-05T12:11:40Z","tX":505,"tY":341,"tags":{"caravans":"yes","drinking_water":"yes","facebook":"https://www.facebook.com/theblackberrieswiltshire/","name":"The Blackberries Camping Park","power_supply":"yes","sanitary_dump_station":"no","shower":"yes","tents":"yes","toilets":"yes"}},"1058370772":{"location":[51.3182499,-2.2762843],"ct":"GB","tp":"CS","ts":"2024-06-30T01:03:48Z","tX":505,"tY":341,"tags":{"caravans":"yes","internet_access":"no","landuse":"grass","name":"Stowford Manor Farm Camping","phone":"+44 1225 752253","tents":"yes","website":"https://stowfordmanorfarm.co.uk/"}},"1215823009":{"location":[51.3943478,-2.4086433],"ct":"GB","tp":"CS","ts":"2023-10-15T16:24:05Z","tX":505,"tY":341,"tags":{"addr:city":"Bath","addr:postcode":"BA1 9AB","addr:street":"Kelston Road","group_only":"yes","name":"Cleeve Hill Campsite","operator":"City of Bath District Scouts","website":"https://www.bathscouts.org/about-us/district-campsite"}},"1215823010":{"location":[51.3632756,-2.4312458],"ct":"GB","tp":"CS","ts":"2023-10-15T16:24:05Z","tX":505,"tY":341,"tags":{"group_only":"yes","name":"Centenary Wood Campsite","operator":"Avon County Scouts","website":"https://www.avonscouts.org.uk/activity-adventure/campsites-activity-centres/"}},"1239756157":{"location":[51.2858852,-2.285177],"ct":"GB","tp":"CR","ts":"2024-01-14T22:39:17Z","tX":505,"tY":341,"tags":{"name":"Barrow Farm CL"}},"6034351388":{"location":[51.3098605,-2.1751422],"ct":"GB","tp":"CS","ts":"2018-11-03T16:28:15Z","tX":505,"tY":341,"tags":{"name":"West Wiltshire Scouts Jubilee Wood Campsite"}},"6673396783":{"location":[51.2957066,-2.3581893],"ct":"GB","tp":"CR","ts":"2019-08-10T18:42:59Z","tX":505,"tY":341,"tags":{"capacity":"50","drinking_water":"no","fee":"yes","internet_access":"no","operator":"Tucker's Grave Inn","power_supply":"no","sanitary_dump_station":"customers","tents":"yes"}},"12030941541":{"location":[51.3630884,-2.1982075],"ct":"GB","tp":"CR","ts":"2024-07-03T10:52:40Z","tX":505,"tY":341,"tags":{"addr:housename":"Copse farm ,","addr:postcode":"BA14 6FW","addr:street":"Great Chalfield","name":"Copse Farm Camping"}},"10434057517":{"location":[51.3405554,-2.2514617],"ct":"GB","tp":"SD","ts":"2023-01-09T21:40:57Z","tX":505,"tY":341,"tags":{"mapillary":"335165028021268","operator":"Canal & River Trust","sanitary_dump_station:pump-out":"yes"}},"10434057519":{"location":[51.3405941,-2.2513793],"ct":"GB","tp":"SD","ts":"2023-01-09T21:40:57Z","tX":505,"tY":341,"tags":{"mapillary":"335165028021268","operator":"Canal & River Trust","sanitary_dump_station:basin":"yes"}},"10438544020":{"location":[51.361794,-2.3119085],"ct":"GB","tp":"SD","ts":"2023-01-09T21:52:53Z","tX":505,"tY":341,"tags":{"operator":"Canal & River Trust","sanitary_dump_station:pump-out":"yes"}},"10438544021":{"location":[51.3617668,-2.3119438],"ct":"GB","tp":"SD","ts":"2023-01-09T21:52:53Z","tX":505,"tY":341,"tags":{"operator":"Canal & River Trust","sanitary_dump_station:basin":"yes"}}}