{"33352429":{"location":[50.7029128,-2.1812367],"ct":"GB","tp":"CS","ts":"2018-05-05T16:51:16Z","tX":505,"tY":344,"tags":{"addr:city":"Wareham","addr:postcode":"BH20 7NU","addr:street":"Puddletown Road","name":"Scout Adventures Buddens"}},"55806200":{"location":[50.5696601,-2.4561081],"ct":"GB","tp":"CR","ts":"2023-12-23T00:36:05Z","tX":505,"tY":344,"tags":{"access":"private","name":"WPNSA Motorhome Area","note":"For members of the Sailing Club only. No public camp site"}},"67810699":{"location":[50.7171884,-2.14638],"ct":"GB","tp":"CS","ts":"2017-09-26T07:25:04Z","tX":505,"tY":344,"tags":{"name":"Birchwood Tourist Park"}},"117128297":{"location":[50.626148,-2.2703628],"ct":"GB","tp":"CR","ts":"2022-03-13T11:57:36Z","tX":505,"tY":344,"tags":{"name":"Durdle Door Holiday Park","source":"bing","tents":"yes"}},"147360895":{"location":[50.6439924,-2.4222089],"ct":"GB","tp":"CR","ts":"2024-02-11T18:26:22Z","tX":505,"tY":344,"tags":{"addr:postcode":"DT3 6BQ","addr:street":"Preston Road","fhrs:id":"992368","name":"Weymouth Bay Holiday Park","operator":"Haven Holidays","source:addr":"FHRS Open Data"}},"147364249":{"location":[50.6393284,-2.4170605],"ct":"GB","tp":"CR","ts":"2023-07-27T16:36:10Z","tX":505,"tY":344,"tags":{"name":"Waterside Holiday Park"}},"151744577":{"location":[50.6380142,-2.3740207],"ct":"GB","tp":"CR","ts":"2023-07-28T10:24:02Z","tX":505,"tY":344,"tags":{"name":"Osmington Holiday Park"}},"151744580":{"location":[50.6450204,-2.3834457],"ct":"GB","tp":"CS","ts":"2024-07-29T16:01:28Z","tX":505,"tY":344,"tags":{"caravans":"yes","drinking_water":"yes","name":"Osmington Mills Corner Campsite","shower":"yes","tents":"yes","toilets":"yes"}},"151744581":{"location":[50.6396992,-2.3779606],"ct":"GB","tp":"CS","ts":"2023-07-28T10:24:02Z","tX":505,"tY":344,"tags":{"name":"Rosewall","surface":"grass"}},"151744587":{"location":[50.6364224,-2.3747904],"ct":"GB","tp":"CR","ts":"2023-07-28T10:24:02Z","tX":505,"tY":344,"tags":{"name":"Streamside"}},"151744606":{"location":[50.6415617,-2.3734554],"ct":"GB","tp":"CR","ts":"2019-07-30T16:16:04Z","tX":505,"tY":344,"tags":{}},"266063453":{"location":[50.6804461,-2.3310232],"ct":"GB","tp":"CS","ts":"2021-05-27T21:33:07Z","tX":505,"tY":344,"tags":{"addr:postcode":"DT2 8HZ","addr:street":"Moreton Road","addr:village":"Owermoigne","fhrs:id":"994830","name":"Sandyholme Holiday Park","source":"survey","source:addr":"FHRS Open Data"}},"268531468":{"location":[50.6077195,-2.1100904],"ct":"GB","tp":"CR","ts":"2022-03-14T18:10:57Z","tX":505,"tY":344,"tags":{"source":"bing"}},"271350426":{"location":[50.6816401,-2.2263677],"ct":"GB","tp":"CS","ts":"2018-04-18T17:11:51Z","tX":505,"tY":344,"tags":{"caravans":"yes","name":"Whitemead Caravan Park","surveillance":"public","tents":"yes"}},"298127811":{"location":[50.6385128,-2.4045119],"ct":"GB","tp":"CS","ts":"2023-07-27T16:36:10Z","tX":505,"tY":344,"tags":{"caravans":"no","email":"peter@eweleaze.co.uk","name":"Eweleaze Farm","opening_hours":"\"Only 4 weeks in summer, see website\"","phone":"+44 1305 833690","reservation":"required","shower":"yes","tents":"yes","toilets":"yes","website":"https://eweleaze.co.uk/eweleaze-farm"}},"299057613":{"location":[50.6315948,-2.3504373],"ct":"GB","tp":"CR","ts":"2018-06-23T16:33:07Z","tX":505,"tY":344,"tags":{"name":"Creek Caravan Park"}},"329964978":{"location":[50.6759714,-2.1799858],"ct":"GB","tp":"CS","ts":"2020-05-17T16:01:34Z","tX":505,"tY":344,"tags":{"caravans":"yes","name":"Luckford Wood","surveillance":"threatened","tents":"yes"}},"367477856":{"location":[50.6747272,-2.1842995],"ct":"GB","tp":"CS","ts":"2019-11-19T20:20:18Z","tX":505,"tY":344,"tags":{"addr:postcode":"BH20 6AR","caravans":"no","name":"Highwood Camping","tents":"yes","website":"http://www.highwoodcamping.co.uk/"}},"397705832":{"location":[50.7116127,-2.1459192],"ct":"GB","tp":"CS","ts":"2016-02-13T22:36:36Z","tX":505,"tY":344,"tags":{"addr:place":"Cold Harbour","addr:postcode":"BH20 7PA","internet_access":"wlan","internet_access:fee":"yes","name":"Hunters Moon","operator":"Caravan Club","phone":"+44 1929 556605","sanitary_dump_station":"customers"}},"506175250":{"location":[50.7213935,-2.153507],"ct":"GB","tp":"CS","ts":"2023-06-07T23:08:20Z","tX":505,"tY":344,"tags":{"addr:city":"Wareham","addr:country":"GB","addr:county":"Dorset","addr:postcode":"BH20 7NZ","addr:suburb":"North Trigon","fee":"yes","internet_access":"yes","internet_access:fee":"yes","name":"Wareham Forest Tourist Park","operator":"Tony and Sarah Birch","phone":"+44 1929 551393","website":"https://www.warehamforest.co.uk/"}},"516567617":{"location":[50.7010704,-2.3103571],"ct":"GB","tp":"CR","ts":"2023-12-23T00:36:05Z","tX":505,"tY":344,"tags":{"addr:postcode":"DT2 8BB","addr:street":"Station Road","addr:village":"Moreton","cabins":"yes","caravans":"yes","dog":"yes","drinking_water":"yes","fee":"yes","fhrs:id":"976456","internet_access":"wlan","lit":"yes","motor_vehicle":"yes","name":"Moreton Camping & Caravanning Club Site","operator":"Camping & Caravan Club","power_supply":"yes","sanitary_dump_station":"yes","shower":"yes","source":"survey","source:addr":"FHRS Open Data","swimming_pool":"no","tents":"yes","toilets":"yes","washing_machine":"yes"}},"605870915":{"location":[50.6450078,-2.4128542],"ct":"GB","tp":"CR","ts":"2023-03-25T10:23:02Z","tX":505,"tY":344,"tags":{"caravans":"yes","name":"Seaview Holiday Park"}},"605870918":{"location":[50.6440944,-2.4126112],"ct":"GB","tp":"CS","ts":"2023-03-25T10:23:02Z","tX":505,"tY":344,"tags":{"caravans":"yes","name":"Seaview Holiday Park","tents":"yes"}},"729930831":{"location":[50.6994263,-2.3131058],"ct":"GB","tp":"CR","ts":"2023-12-23T00:36:05Z","tX":505,"tY":344,"tags":{"addr:postcode":"DT2 8BE","addr:street":"Warmwell Road","addr:village":"Moreton","capacity":"103","caravans":"yes","fhrs:id":"1153181","name":"Caravan and Motorhome Club Crossways","seasonal":"yes","tents":"yes"}},"767308488":{"location":[50.6249751,-2.1330406],"ct":"GB","tp":"CS","ts":"2023-08-02T09:20:40Z","tX":505,"tY":344,"tags":{"access":"customers","fee":"yes","name":"Steaple Leaze Farm Campsite.","surface":"grass"}},"777290556":{"location":[50.6901065,-2.4596352],"ct":"GB","tp":"CR","ts":"2020-02-29T15:28:28Z","tX":505,"tY":344,"tags":{"capacity":"5","name":"The Manor House","website":"https://www.caravanclub.co.uk/certificated-locations/england/dorset/dorchester/the-manor-house/"}},"908700851":{"location":[50.6895262,-2.3334703],"ct":"GB","tp":"CR","ts":"2021-06-26T08:04:53Z","tX":505,"tY":344,"tags":{"addr:city":"Dorchester","addr:housename":"Warmwell Caravan Park","addr:postcode":"DT2 8JD","addr:street":"Warmwell Road","description":"Warmwell Caravan Park in Dorset is a Holiday Park for Seasonal Pitches. The Holiday Park has seasonal pitches for Static Caravan Holiday Homes, Lodges and Seasonal pitches for Touring Caravans.","email":"stay@warmwellcaravanpark.co.uk","name":"Warmwell Caravan Park","phone":"+44 1305 852313","website":"https://www.warmwellcaravanpark.co.uk"}},"1131300739":{"location":[50.7234897,-2.1922862],"ct":"GB","tp":"CS","ts":"2023-01-13T00:38:52Z","tX":505,"tY":344,"tags":{"facebook":"https://www.facebook.com/people/Philliols-Farm-Campsite/100057641761684/","fixme":"check boundaries","name":"Philliols Farm campsite"}},"1157147320":{"location":[50.6395483,-2.3897728],"ct":"GB","tp":"CS","ts":"2023-07-27T16:36:10Z","tX":505,"tY":344,"tags":{"caravans":"no","email":"peter@eweleaze.co.uk","name":"Shortlake Farm","opening_hours":"\"Only 4 weeks in summer, see website\"","phone":"+44 1305 833690","reservation":"required","shower":"yes","tents":"yes","toilets":"yes","website":"https://eweleaze.co.uk/shortlake-farm"}},"1192909340":{"location":[50.64121,-2.378286],"ct":"GB","tp":"CS","ts":"2023-07-28T10:24:02Z","tX":505,"tY":344,"tags":{}},"1312197925":{"location":[50.6881547,-2.1912937],"ct":"GB","tp":"CS","ts":"2024-08-30T10:03:35Z","tX":505,"tY":344,"tags":{"name":"Primrose Fields Campsite"}},"1666872928":{"location":[50.6411279,-2.3784418],"ct":"GB","tp":"CS","ts":"2023-07-28T10:24:02Z","tX":505,"tY":344,"tags":{}},"2351658414":{"location":[50.6531014,-2.4114075],"ct":"GB","tp":"CS","ts":"2023-03-25T10:05:02Z","tX":505,"tY":344,"tags":{"caravans":"no","name":"Northdown Farm","opening_hours":"May 24- Jun 1; Jul 23 - Aug 10","shower":"yes","tents":"yes","toilets":"yes"}},"3694852423":{"location":[50.7018776,-2.2191328],"ct":"GB","tp":"CS","ts":"2023-06-07T23:08:20Z","tX":505,"tY":344,"tags":{"addr:city":"Wareham","addr:country":"GB","addr:county":"Dorset","addr:housename":"Longthorns","addr:housenumber":"Longthorns","addr:postcode":"BH20 6HH","addr:street":"Tout Hill","capacity":"200","name":"Longthorns Farm Camping Site","operator":"Mark Muspratt","website":"https://www.longthornsfarm.co.uk/"}},"7580111985":{"location":[50.5306225,-2.4374775],"ct":"GB","tp":"CS","ts":"2021-08-22T00:34:06Z","tX":505,"tY":344,"tags":{"addr:street":"Southwell Road"}},"9831515020":{"location":[50.705464,-2.2686791],"ct":"GB","tp":"CS","ts":"2022-06-19T18:42:27Z","tX":505,"tY":344,"tags":{"name":"Snelling Farm Campsite","note":"Based on website + ariel photo.","operator":"Snelling Farm","source":"aerial imagery;web","website":"https://www.snellingfarmcampsitedorset.co.uk/"}},"4911799108":{"location":[50.6259095,-2.2685139],"ct":"GB","tp":"SD","ts":"2017-06-13T02:21:01Z","tX":505,"tY":344,"tags":{"access":"customers"}}}