{"130342945":{"location":[47.5196167,-2.3057665],"ct":"FR","tp":"CS","ts":"2024-09-23T10:52:45Z","tX":505,"tY":357,"tags":{"capacity:caravans":"43","caravans":"yes","fee":"yes","internet_access":"wlan","motorhome":"yes","name":"Camping municipal Le Pâtis","opening_hours":"Mar-Oct","phone":"+33 2 99 90 60 13","stars":"3","tents":"yes","website":"https://www.laroche-bernard.com/camping-du-patis/"}},"181768834":{"location":[47.5618566,-2.4492459],"ct":"FR","tp":"CS","ts":"2013-02-23T17:25:02Z","tX":505,"tY":357,"tags":{"name":"La Blanche Hermine","source":"bing"}},"430218112":{"location":[47.7107446,-2.1152601],"ct":"FR","tp":"CS","ts":"2024-05-26T20:08:08Z","tX":505,"tY":357,"tags":{"email":"campingbainssuroust@gmail.com","name":"Camping municipal de l'Île aux Pies","phone":"+33 2 99 81 71 41","stars":"2","swimming_pool":"no","website":"https://www.bainssuroust.fr/decouvrir/camping/"}},"435637654":{"location":[47.668076,-2.2311637],"ct":"FR","tp":"CS","ts":"2021-05-23T16:08:17Z","tX":505,"tY":357,"tags":{"area":"yes","name":"Camping municipal","name:br":"Tachenn-gampiñ Kêr","source:name:br":"proper translation"}},"467961029":{"location":[47.7118342,-2.1262724],"ct":"FR","tp":"CS","ts":"2021-07-27T19:16:34Z","tX":505,"tY":357,"tags":{"addr:city":"Saint-Vincent-sur-Oust","addr:postcode":"56350","addr:street":"Le Painfaut","contact:phone":"+33 6 88 64 69 87","email":"guenhael.lorcy56@orange.fr","fee":"yes","name":"Le Painfaut","phone":"+33 6 88 64 69 87","picnic_shelter":"yes","picnic_table":"yes","website":"http://www.camping-lepainfaut.fr/"}},"486309763":{"location":[47.6883965,-2.4438971],"ct":"FR","tp":"CR","ts":"2025-03-19T14:54:45Z","tX":505,"tY":357,"tags":{"caravan_site":"motorhome_stopover","caravan_site:type":"village","fee":"no","internet_access":"no","motorhome":"designated","power_supply":"no","sanitary_dump_station":"no","surface":"asphalt","tents":"no","water_point":"no"}},"488407369":{"location":[47.5764065,-2.284606],"ct":"FR","tp":"PK","ts":"2024-09-23T11:03:05Z","tX":505,"tY":357,"tags":{"fee":"no","motorhome":"yes","motorhome:overnight":"yes","parking":"street_side"}},"490391622":{"location":[47.6955773,-2.3484993],"ct":"FR","tp":"CS","ts":"2023-10-28T06:47:37Z","tX":505,"tY":357,"tags":{"addr:city":"Rochefort en Terre","addr:country":"FR","addr:housenumber":"2","addr:postcode":"56220","addr:street":"Chemin de Bogeais","email":"gredesvents@orange.fr","internet_access":"wlan","name":"Au Gré des Vents","phone":"+33 2 97 43 37 52","stars":"3","website":"https://www.campingaugredesvents.com/"}},"530761333":{"location":[47.7266636,-2.2142486],"ct":"FR","tp":"CS","ts":"2021-07-27T19:06:33Z","tX":505,"tY":357,"tags":{"addr:city":"Peillac","addr:postcode":"56220","addr:street":"Le pont d'oust","capacity":"66","caravans":"yes","contact:phone":"+33 2 99 91 39 33","description":"Label : Accueil vélo","email":"campingdupontdoust@gmail.com","name":"Camping du Pont d'Oust","opening_hours":"may-sep","phone":"+33 2 99 91 39 33","stars":"2","swimming_pool":"yes","tents":"yes","website":"https://www.campingdupontdoust.com/"}},"624753697":{"location":[47.5770788,-2.2833461],"ct":"FR","tp":"CR","ts":"2024-10-05T16:44:21Z","tX":505,"tY":357,"tags":{"access":"yes","caravan_site":"motorhome_stopover","caravan_site:type":"harbour","fee":"no","maxstay":"24 hours","motorhome":"yes","motorhome:overnight":"yes","name":"Parking Port de Foleux","sanitary_dump_station":"yes","seasonal":"no","surface":"grass"}},"681272321":{"location":[47.7250532,-2.1313427],"ct":"FR","tp":"CR","ts":"2023-12-19T01:12:50Z","tX":505,"tY":357,"tags":{"capacity":"8","caravan_site":"motorhome_stopover","caravan_site:type":"village","contact:phone":"+33 2 99 91 39 33","fee":"no","name":"Aire camping-car Glénac","opening_hours":"24/7","power_supply":"yes","sanitary_dump_station":"yes","sanitary_dump_station:chemical_toilet":"yes","sanitary_dump_station:grey_water":"yes","seasonal":"no","swimming_pool":"yes","water_point":"yes"}},"702302669":{"location":[47.7440373,-2.259654],"ct":"FR","tp":"CS","ts":"2024-03-17T17:56:47Z","tX":505,"tY":357,"tags":{"addr:city":"Saint-Martin-sur-Oust","addr:postcode":"56200","capacity":"56","caravans":"yes","contact:phone":"+33 2 99 91 55 76;+33 2 99 91 49 45","name":"Camping municipal La Digue","picnic_shelter":"yes","picnic_table":"yes","sanitary_dump_station":"no","swimming_pool":"no","tents":"yes","website":"http://www.st-martin-sur-oust.fr/camping_saint-martin-sur_oust.aspx"}},"839715583":{"location":[47.583686,-2.4154272],"ct":"FR","tp":"CS","ts":"2020-08-22T19:51:46Z","tX":505,"tY":357,"tags":{"caravans":"yes","contact:email":"mairie.leguerno@wanadoo.fr","contact:phone":"+33 2 97 42 94 76","contact:website":"http://leguerno.fr/index.php/le-camping-municipal","name":"Camping municipal de Borg Nehué","source":"data.gouv.fr:DATAtourisme - 05/2020","tents":"yes","wheelchair":"no"}},"909642583":{"location":[47.5810377,-2.3520285],"ct":"FR","tp":"CR","ts":"2024-10-24T23:10:22Z","tX":505,"tY":357,"tags":{"access":"yes","addr:city":"Péaule","addr:postcode":"56130","addr:street":"Rue du Stade","capacity":"15","caravan_site":"motorhome_stopover","caravan_site:type":"village","fee":"no","maxstay":"no","name":"Aire de service Péaule","operator":"Ville de Péaule","picnic_table":"yes","power_supply":"no","sanitary_dump_station":"yes","sanitary_dump_station:chemical_toilet":"yes","sanitary_dump_station:grey_water":"yes","sanitary_dump_station:round_drain":"yes","supervised":"no","water_point":"yes","website":"https://www.damgan-larochebernard-tourisme.com/aires-camping-cars/aire-de-service-peaule/"}},"911456342":{"location":[47.6780809,-2.2995919],"ct":"FR","tp":"CR","ts":"2024-10-08T17:44:13Z","tX":505,"tY":357,"tags":{"access":"yes","addr:city":"Malansac","addr:postcode":"56220","addr:street":"Rue de Gwenfol","capacity":"5","caravan_site":"motorhome_stopover","caravan_site:type":"town","description":"Aire de camping-car. hauteur limitée à 2,80 m en arrivant du coté de la voie rapide/Super U","dog":"yes","fee":"no","maxstay":"no","name":"Aire communale camping-car Malansac","opening_hours":"24/7","operator":"Ville de Malansac","power_supply":"no","sanitary_dump_station":"yes","sanitary_dump_station:chemical_toilet":"yes","sanitary_dump_station:grey_water":"yes","sanitary_dump_station:round_drain":"yes","seasonal":"no","supervised":"no","toilets":"yes","water_point":"yes"}},"967947240":{"location":[47.7018101,-2.1317271],"ct":"FR","tp":"CS","ts":"2021-09-18T21:49:40Z","tX":505,"tY":357,"tags":{"name":"Aire naturelle de camping du Ménéhy","phone":"+33 2 99 91 35 15","website":"https://campingmenehy.wordpress.com/"}},"978469509":{"location":[47.5828302,-2.4055185],"ct":"FR","tp":"CR","ts":"2024-06-20T14:33:26Z","tX":505,"tY":357,"tags":{"access":"yes","addr:city":"Le Guerno","addr:postcode":"56190","addr:street":"route de Glescouët","capacity":"15","caravan_site":"motorhome_stopover","caravan_site:type":"village","fee":"no","maxstay":"no","name":"Le Guerno - Rue des Oiseaux","operator":"Ville de Le Guerno","power_supply":"no","sanitary_dump_station":"yes","sanitary_dump_station:chemical_toilet":"yes","sanitary_dump_station:grey_water":"yes","sanitary_dump_station:round_drain":"yes","supervised":"no","surface":"gravel","water_point":"yes"}},"1191506469":{"location":[47.517488,-2.2975664],"ct":"FR","tp":"PK","ts":"2024-09-23T10:52:45Z","tX":505,"tY":357,"tags":{"motorhome":"yes","motorhome:overnight":"yes","surface":"asphalt","wikidata":"Q120806720"}},"1292677037":{"location":[47.5402561,-2.3237938],"ct":"FR","tp":"SD","ts":"2024-06-15T17:01:19Z","tX":505,"tY":357,"tags":{"description":"Station de vidange pour Camping-car.","fee":"no","operator":"Ville de Marzan","sanitary_dump_station:chemical_toilet":"yes","sanitary_dump_station:grey_water":"yes","sanitary_dump_station:round_drain":"yes","water_point":"yes"}},"1317558501":{"location":[47.5763845,-2.2844552],"ct":"FR","tp":"SD","ts":"2024-09-23T11:03:05Z","tX":505,"tY":357,"tags":{"access":"yes","fee":"no","sanitary_dump_station:chemical_toilet":"yes","sanitary_dump_station:grey_water":"yes"}},"6187052359":{"location":[47.5718254,-2.2516941],"ct":"FR","tp":"CS","ts":"2023-10-29T16:05:25Z","tX":505,"tY":357,"tags":{"addr:city":"Nivillac","addr:housenumber":"14","addr:postcode":"56130","addr:street":"Rue du Rofo","contact:phone":"+336 81 72 64 35","name":"Pertuis du Rofo","website":"https://www.hebergement-insolite-bretagne.fr/"}},"6765911361":{"location":[47.5194542,-2.3053715],"ct":"FR","tp":"SD","ts":"2024-09-23T10:52:45Z","tX":505,"tY":357,"tags":{"access":"yes","operator":"Camping du Patis","sanitary_dump_station:chemical_toilet":"yes","sanitary_dump_station:grey_water":"yes"}},"7876548990":{"location":[47.7254699,-2.1319598],"ct":"FR","tp":"SD","ts":"2023-12-19T01:12:50Z","tX":505,"tY":357,"tags":{"access":"yes","fee":"no","opening_hours":"24/7","water_point":"yes"}},"8445923916":{"location":[47.5810987,-2.352274],"ct":"FR","tp":"SD","ts":"2024-10-24T23:10:22Z","tX":505,"tY":357,"tags":{"description":"Station de vidange pour Camping-car.","fee":"no","operator":"Ville de Péaule","sanitary_dump_station:chemical_toilet":"yes","sanitary_dump_station:grey_water":"yes","sanitary_dump_station:round_drain":"yes","water_point":"yes"}},"8445982157":{"location":[47.582766,-2.4057383],"ct":"FR","tp":"SD","ts":"2021-11-20T14:40:26Z","tX":505,"tY":357,"tags":{"description":"Station de vidange pour Camping-car.","fee":"no","note":"nouvel equipement dont la position exacte est à confirmer","operator":"Ville de Le Guerno","sanitary_dump_station:chemical_toilet":"yes","sanitary_dump_station:grey_water":"yes","sanitary_dump_station:round_drain":"yes","water_point":"yes"}},"8463123429":{"location":[47.6782489,-2.2994805],"ct":"FR","tp":"SD","ts":"2023-12-18T16:19:27Z","tX":505,"tY":357,"tags":{"access":"yes","description":"Station de vidange pour Camping-car.","fee":"no","operator":"Ville de Malansac","sanitary_dump_station:chemical_toilet":"yes","sanitary_dump_station:grey_water":"yes","sanitary_dump_station:round_drain":"yes","water_point":"yes"}}}