{"72202342":{"location":[47.3209993,-2.3045282],"ct":"FR","tp":"CS","ts":"2024-11-16T15:18:23Z","tX":505,"tY":358,"tags":{"caravans":"yes","name":"Les Chalands Fleuris","tents":"yes","website":"https://www.leschalandsfleuris.com/"}},"113549104":{"location":[47.4779609,-2.176156],"ct":"FR","tp":"CS","ts":"2017-10-14T12:42:02Z","tX":505,"tY":358,"tags":{"fax":"+33 2 40 19 32 02","name":"Camping les Platanes","phone":"+33240883888"}},"128170879":{"location":[47.4774949,-2.1795288],"ct":"FR","tp":"CR","ts":"2024-09-23T13:02:46Z","tX":505,"tY":358,"tags":{"access":"yes","capacity":"7","capacity:disabled":"0","caravan_site":"motorhome_stopover","caravan_site:type":"motorway","caravans":"no","fee":"no","name":"Aire de camping cars de Missillac","picnic_area":"yes","surface":"asphalt","tents":"no","website":"https://www.atlantic-loire-valley.com/accommodation/campervan-sites/aire-de-camping-cars-de-missillac"}},"139529337":{"location":[47.2971367,-2.3981546],"ct":"FR","tp":"CS","ts":"2025-01-28T14:05:29Z","tX":505,"tY":358,"tags":{"name":"Tremondec"}},"166720400":{"location":[47.3494884,-2.4346043],"ct":"FR","tp":"CS","ts":"2024-08-04T08:30:16Z","tX":505,"tY":358,"tags":{"caravans":"yes","drinking_water":"yes","name":"La Fontaine","name:br":"Ar Feunteun","shower":"yes","source:name:br":"proper translation","tents":"yes"}},"188328545":{"location":[47.2981417,-2.3539394],"ct":"FR","tp":"CS","ts":"2025-01-28T14:52:02Z","tX":505,"tY":358,"tags":{"barrier":"fence","name":"La Roseraie","name:br":"Ar Rozeg","phone":"+33 2 40 60 46 66","source:name:br":"proper translation","stars":"4","website":"https://www.laroseraie.com/"}},"188754332":{"location":[47.4451259,-2.44936],"ct":"FR","tp":"CS","ts":"2023-08-12T14:40:58Z","tX":505,"tY":358,"tags":{"name":"Camping Le Moulin de l'Eclis","opening_hours":"Apr-Sep","operator":"Sandaya","phone":"+33 2 40 01 76 69","website":"https://www.sandaya.fr/nos-campings/moulin-de-l-eclis"}},"188754339":{"location":[47.4482454,-2.4504891],"ct":"FR","tp":"CS","ts":"2022-08-27T09:05:14Z","tX":505,"tY":358,"tags":{"name":"Camping Le Domaine de Pont-Mahé","opening_hours":"Apr-Oct","phone":"+33 2 40 01 74 98","website":"https://www.pont-mahe.com/"}},"275015246":{"location":[47.3025491,-2.374009],"ct":"FR","tp":"CS","ts":"2013-01-24T19:34:04Z","tX":505,"tY":358,"tags":{"name":"Eden"}},"275655027":{"location":[47.4404483,-2.329345],"ct":"FR","tp":"CR","ts":"2024-10-05T17:02:55Z","tX":505,"tY":358,"tags":{"caravan_site":"motorhome_stopover","caravan_site:type":"lake","caravans":"no","fee":"no","name":"Aire du Pré Grasseur","picnic_table":"yes","power_supply":"yes","power_supply:fee":"yes","sanitary_dump_station":"yes","water_point":"yes","website":"https://rando.loire-atlantique.fr/service/180204-AIRE-DU-PRE-GRASSEUR"}},"276470924":{"location":[47.3339563,-2.4207057],"ct":"FR","tp":"CR","ts":"2025-01-29T09:59:52Z","tX":505,"tY":358,"tags":{"access":"yes","alt_name":"Parking de la Brière","bbq":"no","capacity":"34","caravan_site":"motorhome_stopover","caravan_site:type":"town","caravans":"no","charge":"15.52 EUR","charge:conditional":"13.82 EUR@(Oct-Apr)","description":"1 km to town center","dog":"yes","fee":"yes","maxlength":"none","name":"Aire camping-car park de Guérande","network":"CAMPING-CAR PARK","operator":"Camping-Car Park","power_supply":"yes","power_supply:maxcurrent":"6","tents":"no","trailer":"no","water_point":"yes","website":"https://www.campingcarpark.com/fr_FR/sejour/aire-etape-camping-car/pays-de-la-loire/44-loire-atlantique/guerande"}},"278259648":{"location":[47.300936,-2.3311557],"ct":"FR","tp":"CS","ts":"2024-11-16T15:10:12Z","tX":505,"tY":358,"tags":{"cabins":"yes","caravans":"no","internet_access":"yes","name":"Camping des Ollivaud","nudism":"no","phone":"+33240245825","stars":"3","static_caravans":"yes","tents":"no","website":"https://www.lesollivaud.com/","wheelchair":"yes"}},"343388834":{"location":[47.4774352,-2.4543865],"ct":"FR","tp":"CS","ts":"2024-04-24T13:36:30Z","tX":505,"tY":358,"tags":{"name":"Camping Le Cénic","operator":"Capfun","phone":"+33 2 99 90 45 65","source":"Bing;survey","stars":"4","website":"https://www.lecenic.com/"}},"468000096":{"location":[47.3885776,-2.4394829],"ct":"FR","tp":"CS","ts":"2024-11-10T11:40:45Z","tX":505,"tY":358,"tags":{"area":"yes","caravans":"no","check_date":"2024-09-13","contact:email":"ledomainedekernodet@gmail.com","contact:phone":"+332 40 22 41 99","drinking_water":"yes","name":"Domaine du Mès","payment:cash":"yes","payment:credit_cards":"yes","payment:debit_cards":"yes","stars":"4","tents":"no","website":"https://www.domainedumes.fr/"}},"496887167":{"location":[47.3432388,-2.4188798],"ct":"FR","tp":"CS","ts":"2019-08-27T08:17:27Z","tX":505,"tY":358,"tags":{"addr:city":"Guérande","area":"yes","description":"4 étoiles => surévalué / 4 stars => overrated","name":"Camping de Bréhadour","stars":"4","website":"https://www.domainedebrehadour.com"}},"496898699":{"location":[47.3310474,-2.3911328],"ct":"FR","tp":"CS","ts":"2018-05-10T17:35:55Z","tX":505,"tY":358,"tags":{"area":"yes","brand":"campings CAP'A","camp_site":"deluxe","caravans":"yes","contact:phone":"+33 2 40247930","contact:website":"https://www.camping-leveno.com/","internet_access":"yes","internet_access:fee":"yes","name":"Domaine du Lévéno","stars":"4","tents":"yes","wheelchair":"yes"}},"504611126":{"location":[47.4543622,-2.1095624],"ct":"FR","tp":"CS","ts":"2022-09-16T06:43:08Z","tX":505,"tY":358,"tags":{"addr:city":"Pontchâteau","addr:housenumber":"1","addr:postcode":"44160","addr:street":"Rue de l'Île de Beaumard","camp_site":"serviced","fee":"no","internet_access":"wlan","name":"Camping du bois de Beaumard","operator":"delalande","stars":"3","website":"http://www.camping-beaumard.com/"}},"507262358":{"location":[47.4237212,-2.4447021],"ct":"FR","tp":"CS","ts":"2022-08-27T09:05:14Z","tX":505,"tY":358,"tags":{"name":"Camping de la Baie","phone":"+33 2 97 55 73 42","stars":"4"}},"511052016":{"location":[47.4396553,-2.160817],"ct":"FR","tp":"CS","ts":"2025-01-26T10:42:00Z","tX":505,"tY":358,"tags":{"caravans":"yes","name":"Camping du Deffay","tents":"yes","website":"https://www.camping-le-deffay.com/"}},"834151493":{"location":[47.396737,-2.3004099],"ct":"FR","tp":"CS","ts":"2023-10-28T15:56:36Z","tX":505,"tY":358,"tags":{"name":"Fleur de Brière","stars":"3","website":"https://www.campingfleurdebriere.com/"}},"836749247":{"location":[47.426667,-2.4548276],"ct":"FR","tp":"CS","ts":"2023-10-28T15:56:21Z","tX":505,"tY":358,"tags":{"addr:housenumber":"12","addr:street":"Route de l'Estran","cabins":"yes","capacity":"25","capacity:caravans":"25","caravans":"yes","mobile":"+33 6 07 50 43 84","name":"Camping de la Ferme de Pen-Bé","operator":"Maryvonne Imbault","phone":"+33 2 40 01 78 30","shower":"yes","tents":"yes","toilets":"yes","website":"https://www.campingdepenbe.fr/"}},"839460150":{"location":[47.2873495,-2.3721016],"ct":"FR","tp":"CS","ts":"2023-11-30T13:13:14Z","tX":505,"tY":358,"tags":{"caravans":"yes","name":"Le Bois d'Amour","source":"data.gouv.fr:DATAtourisme - 05/2020","stars":"3","tents":"yes"}},"839461475":{"location":[47.3451493,-2.3462835],"ct":"FR","tp":"CS","ts":"2020-08-21T20:02:20Z","tX":505,"tY":358,"tags":{"caravans":"yes","name":"Camping de l’Étang du Pays Blanc","source":"data.gouv.fr:DATAtourisme - 05/2020","stars":"3","tents":"yes","website":"https://guerande-camping.com"}},"839466647":{"location":[47.4300953,-2.4464482],"ct":"FR","tp":"CS","ts":"2022-08-27T09:05:14Z","tX":505,"tY":358,"tags":{"caravans":"yes","name":"L'Étoile de Mer","opening_hours":"May-Sep","phone":"+33 2 40 22 36 58","source":"data.gouv.fr:DATAtourisme - 05/2020","stars":"2","swimming_pool":"covered","tents":"yes","website":"https://www.camping-etoile2mer.com"}},"839712468":{"location":[47.4872955,-2.4213381],"ct":"FR","tp":"CS","ts":"2022-08-27T09:05:14Z","tX":505,"tY":358,"tags":{"caravans":"yes","contact:email":"contact@camping-lesembruns.com","name":"Les Embruns","phone":"+33 2 99 90 07 65","source":"data.gouv.fr:DATAtourisme - 05/2020","stars":"3","swimming_pool":"heated","tents":"yes","website":"https://www.camping-lesembruns.com","wheelchair":"yes"}},"1013994551":{"location":[47.4776383,-2.1794509],"ct":"FR","tp":"SD","ts":"2024-09-23T13:02:46Z","tX":505,"tY":358,"tags":{"access":"yes","sanitary_dump_station:chemical_toilet":"yes","sanitary_dump_station:grey_water":"yes","water_point":"yes"}},"1037782308":{"location":[47.471724,-2.4012533],"ct":"FR","tp":"CS","ts":"2022-06-29T13:05:18Z","tX":505,"tY":358,"tags":{"fixme":"camping ?"}},"1037782309":{"location":[47.4730099,-2.4044578],"ct":"FR","tp":"CS","ts":"2022-06-29T13:05:18Z","tX":505,"tY":358,"tags":{"fixme":"camping ?"}},"1037782320":{"location":[47.4804692,-2.4202933],"ct":"FR","tp":"CS","ts":"2022-06-29T13:05:18Z","tX":505,"tY":358,"tags":{"fixme":"Camping ?"}},"1038059685":{"location":[47.4912009,-2.3738046],"ct":"FR","tp":"CS","ts":"2024-07-29T11:05:58Z","tX":505,"tY":358,"tags":{"cabins":"yes","caravans":"yes","mobile":"+33 6 83 38 47 04","motorhome":"yes","name":"Les Rives de Vilaine","phone":"+33 2 99 90 02 06","shower":"yes","stars":"2","tents":"yes","toilets":"yes","website":"https://www.campinglesrivesdevilaine.com/"}},"1073084956":{"location":[47.4298362,-2.3957569],"ct":"FR","tp":"CS","ts":"2023-02-19T15:33:46Z","tX":505,"tY":358,"tags":{"capacity:caravans":"142","name":"Les Prairies de l’Étang","opening_hours":"apr-oct","phone":"+33 2 40 01 73 35","stars":"4","website":"https://www.lesprairies.net/"}},"1076162636":{"location":[47.3878668,-2.4383297],"ct":"FR","tp":"CS","ts":"2023-04-01T14:16:16Z","tX":505,"tY":358,"tags":{"caravans":"yes","contact:email":"contact@camping-iledekernodet.com","contact:mobile":"+33640844955","contact:phone":"+33240625562","name":"L'Île de Kernodet","stars":"3","tents":"yes","website":"https://camping-iledekernodet.com"}},"1136998365":{"location":[47.4480082,-2.3096353],"ct":"FR","tp":"CS","ts":"2025-02-02T12:01:58Z","tX":505,"tY":358,"tags":{"caravans":"yes","name":"Camping le Ranrouet","tents":"yes","website":"https://www.campingleranrouet.fr/"}},"1262193222":{"location":[47.5138174,-2.4351131],"ct":"FR","tp":"CS","ts":"2022-08-27T09:05:14Z","tX":505,"tY":358,"tags":{"name":"Camping de Kernéjeune","opening_hours":"Apr-Oct","phone":"+33 2 97450160","stars":"3","website":"https://www.camping-de-kernejeune.com/"}},"1266287299":{"location":[47.2822647,-2.424151],"ct":"FR","tp":"CR","ts":"2024-07-02T10:48:52Z","tX":505,"tY":358,"tags":{"bbq":"no","capacity":"24","caravan_site":"motorhome_stopover","caravan_site:type":"harbour","caravans":"no","charge":"16.32 EUR","charge:conditional":"13.32 EUR @ (Oct 01-May 03)","dog":"yes","fee":"yes","internet_access":"wlan","internet_access:fee":"no","maxlength":"9","name":"La Baule-Escoublat","network":"CAMPING-CAR PARK","power_supply":"yes","power_supply:maxcurrent":"6","sanitary_dump_station":"yes","tents":"no","trailer":"no","website":"https://www.campingcarpark.com/en_GB/stay/stopover-site-motorhome/pays-de-la-loire/44-loire-atlantique/baule-escoublac"}},"1354770646":{"location":[47.3025446,-2.3747845],"ct":"FR","tp":"CS","ts":"2025-01-27T23:17:44Z","tX":505,"tY":358,"tags":{"cabins":"yes","name":"Camping l'Eden","phone":"+33 240 600 323","stars":"4","tents":"yes","website":"https://www.campingeden.com/"}},"1354770651":{"location":[47.2946508,-2.3788713],"ct":"FR","tp":"CS","ts":"2025-01-27T23:17:44Z","tX":505,"tY":358,"tags":{"addr:street":"Chemin du Rocher","cabins":"yes","caravans":"no","email":"contact@ajoncs.com","name":"Les Ajoncs d'or","phone":"+33 2 40 60 33 29","stars":"3","tents":"no","website":"https://www.ajoncs.com/"}},"3887917736":{"location":[47.3337536,-2.4206065],"ct":"FR","tp":"SD","ts":"2019-09-03T13:03:54Z","tX":505,"tY":358,"tags":{"access":"yes","fee":"6€","sanitary_dump_station:basin":"yes"}},"6557989585":{"location":[47.2937873,-2.3785565],"ct":"FR","tp":"CS","ts":"2024-11-16T15:23:57Z","tX":505,"tY":358,"tags":{"addr:street":"Chemin du Rocher","cabins":"yes","caravans":"no","email":"contact@ajoncs.com","name":"Les Ajoncs d'or","phone":"+33 2 40 60 33 29","stars":"3","tents":"no","website":"https://www.ajoncs.com/"}},"5605435443":{"location":[47.3319389,-2.3916923],"ct":"FR","tp":"SD","ts":"2018-05-08T21:31:56Z","tX":505,"tY":358,"tags":{"access":"customers","sanitary_dump_station:round_drain":"yes"}},"5922807374":{"location":[47.2794182,-2.2036453],"ct":"FR","tp":"SD","ts":"2018-09-22T18:20:09Z","tX":505,"tY":358,"tags":{"access":"customers","fee":"no","opening_hours":"24/7","sanitary_dump_station:basin":"yes","sanitary_dump_station:round_drain":"yes"}},"6747076585":{"location":[47.3441332,-2.4188838],"ct":"FR","tp":"SD","ts":"2019-08-26T19:39:46Z","tX":505,"tY":358,"tags":{}},"11188372738":{"location":[47.3970448,-2.3016332],"ct":"FR","tp":"SD","ts":"2023-09-13T16:19:25Z","tX":505,"tY":358,"tags":{}}}