{"5880986":{"location":[47.2645922,-2.1697925],"ct":"FR","tp":"CS","ts":"2023-09-19T19:35:17Z","tX":505,"tY":359,"tags":{"access":"customers","addr:housenumber":"32","addr:street":"Avenue du Bois","cabins":"yes","caravans":"yes","fee":"yes","name":"Camping de Mindin","name:br":"Takad-kampiñ Mendin","phone":"+33 2 40 27 46 41","source:name:br":"proper translation","stars":"3","swimming_pool":"yes","tents":"yes","website":"https://www.campingmindin.com/"}},"84981148":{"location":[47.2376407,-2.3007454],"ct":"FR","tp":"CR","ts":"2024-05-12T16:13:32Z","tX":505,"tY":359,"tags":{"caravan_site":"motorhome_stopover","fee":"no","name":"Aire de Services des Jaunais","opening_hours":"24/7","power_supply":"yes","sanitary_dump_station":"yes","seasonal":"no","water_point":"yes","website":"https://www.saint-nazaire-tourisme.uk/offers/aire-de-service-des-jaunais-saint-nazaire-en-2501040/"}},"93139717":{"location":[47.1244315,-2.1962395],"ct":"FR","tp":"CS","ts":"2023-04-10T21:38:26Z","tX":505,"tY":359,"tags":{"capacity":"63","caravans":"yes","name":"Les amis de la Nature","phone":"+33 2 40 64 52 09; +33 7 72 20 64 16","stars":"2","tents":"yes"}},"93139719":{"location":[47.1431382,-2.2287692],"ct":"FR","tp":"CS","ts":"2022-08-28T09:11:16Z","tX":505,"tY":359,"tags":{"cabins":"yes","caravans":"yes","name":"La Prée","phone":"+33 2 40 21 02 64","stars":"1","tents":"yes","website":"http://www.camping-prefailles.fr/"}},"93139723":{"location":[47.1378486,-2.2227892],"ct":"FR","tp":"CS","ts":"2023-12-01T12:50:15Z","tX":505,"tY":359,"tags":{"cabins":"yes","caravans":"yes","name":"Camping de La Pointe","name:br":"Takad-kampiñ ar Beg","operator":"Mr et Mme MARTIN","phone":"+33 2 40 21 52 05","source:name:br":"proper translation","stars":"3","swimming_pool":"yes","tents":"yes","website":"http://camping-de-la-pointe.com"}},"93139733":{"location":[47.1149568,-2.1562566],"ct":"FR","tp":"CS","ts":"2024-05-30T08:19:08Z","tX":505,"tY":359,"tags":{"cabins":"yes","caravans":"yes","contact:email":"madrague@capfun.com","name":"La Madrague","operator":"Cap Fun","phone":"+33 2 40 82 06 73","stars":"4","tents":"yes","website":"https://www.madrague.net/"}},"93139764":{"location":[47.1325547,-2.2321243],"ct":"FR","tp":"CS","ts":"2022-08-28T09:11:16Z","tX":505,"tY":359,"tags":{"cabins":"yes","capacity":"56","caravans":"yes","name":"Éléovic","nudism":"no","phone":"+33 2 40 21 61 60","stars":"4","swimming_pool":"yes","tents":"yes","website":"https://www.camping-eleovic.com/"}},"95223190":{"location":[47.140658,-2.2041621],"ct":"FR","tp":"CS","ts":"2024-09-07T17:01:38Z","tX":505,"tY":359,"tags":{"addr:housenumber":"2","addr:street":"Rue de la Renaudière","cabins":"yes","caravans":"yes","drinking_water":"yes","name":"Camping de la Renaudière","phone":"+33 2 40 21 50 03","sanitary_dump_station":"yes","shower":"yes","source":"cadastre-dgi-fr source : Direction Générale des Impôts - Cadastre. Mise à jour : 2011","stars":"4","swimming_pool":"yes","tents":"yes","toilets":"yes","website":"https://www.campinglarenaudiere.com/"}},"102588215":{"location":[47.1533861,-2.2064825],"ct":"FR","tp":"CS","ts":"2023-08-22T12:55:00Z","tX":505,"tY":359,"tags":{"caravans":"yes","email":"laguichardiere@wanadoo.fr","fax":"+33 2 40 21 55 50","name":"La Guichardière","phone":"+33 2 40 21 55 09","stars":"3","tents":"yes","website":"https://www.camping-laguichardiere.net/"}},"128108469":{"location":[47.126233,-2.2022025],"ct":"FR","tp":"CS","ts":"2022-08-28T09:11:16Z","tX":505,"tY":359,"tags":{"barrier":"fence","cabins":"yes","caravans":"yes","contact:email":"camping.leportmeleu@gmail.com","name":"Port Meleu","phone":"+33 2 40 21 62 91","tents":"yes","website":"https://meleucamp.com/"}},"129650748":{"location":[47.2423156,-2.2685929],"ct":"FR","tp":"CS","ts":"2022-06-26T10:21:29Z","tX":505,"tY":359,"tags":{"barrier":"fence","brand":"CAMP'Atlantique","contact:phone":"+33 2 51204194","contact:website":"http://www.camping-eve.fr","internet_access":"wlan","internet_access:fee":"yes","name":"L'Ève","name:br":"Leve","source:name:br":"proper translation","stars":"4","tents":"yes","wheelchair":"yes"}},"221446095":{"location":[47.1657887,-2.1498706],"ct":"FR","tp":"CS","ts":"2022-08-28T09:11:16Z","tX":505,"tY":359,"tags":{"access":"customers","addr:street":"Rue des Gatineaux","cabins":"yes","caravans":"yes","contact:email":"contact@campinglariviera.com","fee":"yes","name":"La Riviera","phone":"+33 2 28 53 54 88","stars":"4","tents":"yes","website":"https://www.campinglariviera.com/"}},"257170870":{"location":[47.2362727,-2.1678795],"ct":"FR","tp":"CS","ts":"2022-08-28T09:11:16Z","tX":505,"tY":359,"tags":{"access":"customers","addr:housenumber":"57","addr:street":"Chemin du Fief","cabins":"yes","caravans":"yes","fee":"yes","name":"Camping Le Fief","operator":"Sunêlia","phone":"+33 2 40 27 23 86","stars":"5","tents":"yes"}},"257170883":{"location":[47.2340725,-2.1672589],"ct":"FR","tp":"CS","ts":"2018-11-18T14:40:01Z","tX":505,"tY":359,"tags":{}},"257211922":{"location":[47.2381471,-2.171478],"ct":"FR","tp":"CS","ts":"2024-09-08T13:58:39Z","tX":505,"tY":359,"tags":{"access":"customers","addr:housenumber":"110","addr:street":"Avenue du Maréchal Foch","cabins":"yes","caravans":"yes","drinking_water":"yes","fee":"yes","name":"Camping La Dune de Jade","phone":"+33 2 40 27 22 91","power_supply":"yes","sanitary_dump_station":"yes","shower":"hot","stars":"4","tents":"yes","toilets":"yes","website":"https://www.ladunedejade.fr/"}},"274839825":{"location":[47.2496475,-2.3221911],"ct":"FR","tp":"CS","ts":"2023-04-06T19:11:20Z","tX":505,"tY":359,"tags":{"name":"Bel Air","name:br":"Bel Air","source:name:br":"proper translation"}},"292800381":{"location":[47.1297239,-2.1910386],"ct":"FR","tp":"CR","ts":"2024-05-17T23:15:26Z","tX":505,"tY":359,"tags":{"access":"yes","bbq":"no","capacity":"50","caravan_site":"motorhome_stopover","caravan_site:type":"beach","caravans":"no","charge":"9.66 EUR","dog":"leashed","fee":"yes","maxlength":"9","name":"Aire CAMPING-CAR PARK de Préfailles, Biochon","network":"CAMPING-CAR PARK","operator":"CAMPING-CAR PARK","tents":"no","trailer":"yes","website":"https://www.campingcarpark.com/fr_FR/sejour/aire-etape-camping-car/pays-de-la-loire/44-loire-atlantique/prefailles-biochon"}},"301153648":{"location":[47.1545794,-2.1632594],"ct":"FR","tp":"CS","ts":"2023-12-01T09:28:31Z","tX":505,"tY":359,"tags":{"access":"customers","addr:street":"Chemin des Hautes Raillères","cabins":"yes","caravans":"yes","fee":"yes","name":"Le Ranch","phone":"+33 2 40 21 52 62","stars":"4","swimming_pool":"yes","tents":"yes","website":"https://www.camping-le-ranch.com/fr/"}},"331991452":{"location":[47.1761288,-2.1542221],"ct":"FR","tp":"CS","ts":"2023-11-26T19:49:33Z","tX":505,"tY":359,"tags":{"access":"customers","addr:street":"Rue de Tharon","cabins":"yes","caravans":"yes","contact:email":"campingbelessor@gmail.com","fee":"yes","name":"Camping Bel Essor","phone":"+33 2 40 27 85 40","tents":"yes","website":"https://www.campingbelessor.com"}},"332063068":{"location":[47.2133302,-2.1561569],"ct":"FR","tp":"CS","ts":"2022-08-28T09:33:11Z","tX":505,"tY":359,"tags":{"access":"customers","addr:street":"Chemin des Grandes Rivières","cabins":"yes","caravans":"yes","contact:email":"info@rochelets.com","fee":"yes","name":"Camping des rochelets","name:br":"Takad-kampiñ ar Roc'helloù","phone":"+33 2 40 27 40 25","source:name:br":"proper translation","tents":"yes","website":"https://www.rochelets.com/"}},"332697561":{"location":[47.2689249,-2.2932495],"ct":"FR","tp":"CS","ts":"2025-01-22T17:08:59Z","tX":505,"tY":359,"tags":{"barrier":"fence","name":"Camping les Forges","website":"https://campinglesforges.com/"}},"332708623":{"location":[47.2773692,-2.3023511],"ct":"FR","tp":"CS","ts":"2025-01-22T22:10:25Z","tX":505,"tY":359,"tags":{"addr:city":"Prnichet","addr:postcode":"44380","addr:street":"Route de la Villès-Hérioux","cabins":"yes","caravans":"yes","dog":"yes","drinking_water":"yes","email":"camping.lestroischenes@gmail.com","motor_vehicle":"yes","name":"Camping des Trois Chênes","nudism":"no","phone":"+33 6 02 01 33 73","power_supply":"yes","stars":"2","tents":"yes","website":"https://www.clicochic.com/camping-france-pays_de_la_loire-les_trois_chenes-FR.html"}},"407167105":{"location":[47.1911425,-2.1407],"ct":"FR","tp":"CS","ts":"2020-06-18T15:21:12Z","tX":505,"tY":359,"tags":{"access":"customers","addr:city":"Saint-Michel-Chef-Chef","addr:postcode":"44730","addr:street":"La Lande Malbrais","capacity":"182","caravans":"yes","fee":"yes","name":"La Lande Malbrais","phone":"+33 2 40 64 93 45","stars":"2","tents":"yes"}},"440591274":{"location":[47.1388129,-2.2230364],"ct":"FR","tp":"CR","ts":"2024-05-17T21:57:49Z","tX":505,"tY":359,"tags":{"capacity":"49","caravan_site":"motorhome_stopover","caravans":"no","charge":"14.66 EUR","charge:conditional":"12.86 EUR @ (Oct-Apr)","fee":"yes","internet_access":"wlan","internet_access:fee":"yes","name":"Aire Préfailles, La Pointe","network":"CAMPING-CAR PARK","opening_hours":"24/7","operator":"CAMPING CAR-Park","power_supply":"yes","power_supply:capacity":"49","power_supply:fee":"no","power_supply:maxcurrent":"unknown","sanitary_dump_station":"yes","tents":"no","water_point":"yes"}},"440591278":{"location":[47.1813303,-2.16102],"ct":"FR","tp":"CS","ts":"2023-04-10T21:38:26Z","tX":505,"tY":359,"tags":{"access":"customers","cabins":"yes","caravans":"yes","fee":"yes","name":"Camping du Bord de Mer","phone":"+33 2 40 27 93 16; +33 7 72 72 48 08","tents":"yes","website":"https://www.borddemer-camping.com/"}},"440591279":{"location":[47.1595094,-2.1634528],"ct":"FR","tp":"CS","ts":"2022-08-29T10:29:15Z","tX":505,"tY":359,"tags":{"access":"customers","addr:housenumber":"54","addr:street":"Avenue d'Anjou","cabins":"yes","capacity":"26","caravans":"yes","contact:email":"campingduvieuxchateau@gmail.com","name":"Camping du Vieux Château","name:br":"Takad-kampiñ ar C'hozh Kastell","phone":"+33 2 40 27 83 47","source:name:br":"proper translation","tents":"yes","website":"https://www.camping-duvieuxchateau.com/"}},"440591280":{"location":[47.1716134,-2.1568747],"ct":"FR","tp":"CS","ts":"2022-08-28T09:11:16Z","tX":505,"tY":359,"tags":{"access":"customers","addr:housenumber":"103","addr:street":"Rue de Tharon","cabins":"yes","caravans":"yes","fee":"yes","name":"Clos Mer et Nature","phone":"+33 2 40 27 85 71","stars":"3","swimming_pool":"yes","tents":"yes","website":"https://www.camping-clos-mer-nature.fr/"}},"440591281":{"location":[47.1397563,-2.2227125],"ct":"FR","tp":"CS","ts":"2023-04-10T21:38:26Z","tX":505,"tY":359,"tags":{"cabins":"yes","caravans":"yes","email":"campinglalbatros@orange.fr","name":"L'albatros","phone":"+33 2 40 21 03 77; +33 6 42 81 89 84","stars":"3","tents":"yes","website":"http://www.albatros-camping.com/"}},"440591282":{"location":[47.1504475,-2.1959343],"ct":"FR","tp":"CS","ts":"2022-08-28T09:11:16Z","tX":505,"tY":359,"tags":{"access":"customers","addr:housenumber":"56","addr:street":"Rue de la Cormorane","cabins":"yes","caravans":"yes","contact:email":"accueil@camping-lebernier.fr","fee":"yes","name":"Le Bernier","phone":"+33 2 40 21 04 31","stars":"3","tents":"yes","website":"https://www.camping-lebernier.fr/"}},"440591283":{"location":[47.1185994,-2.1295322],"ct":"FR","tp":"CS","ts":"2022-08-31T09:02:51Z","tX":505,"tY":359,"tags":{"addr:city":"Pornic","addr:housenumber":"40","addr:postcode":"44210","addr:street":"Rue de la Renaissance","cabins":"yes","caravans":"yes","contact:email":"contact@campingdugolf.fr","name":"Camping du Golf","name:br":"Takad-kampiñ ar Golf","phone":"+33 2 40 82 46 17","source:name:br":"proper translation","stars":"3","swimming_pool":"yes","tents":"yes","website":"https://www.campingdugolf.fr/","wheelchair":"yes"}},"440591284":{"location":[47.1708184,-2.1369203],"ct":"FR","tp":"CS","ts":"2023-10-28T00:29:33Z","tX":505,"tY":359,"tags":{"access":"customers","addr:housenumber":"4","addr:street":"Route de l'Étang","cabins":"yes","capacity":"162","caravans":"yes","fee":"yes","name":"Le Haut Village","phone":"+33 2 40 39 93 45","shower":"yes","tents":"yes","toilets":"yes","website":"https://www.camping-hautvillage.fr/"}},"440591285":{"location":[47.1406391,-2.1319744],"ct":"FR","tp":"CS","ts":"2022-08-28T09:11:16Z","tX":505,"tY":359,"tags":{"access":"customers","addr:place":"Sainte Marie sur Mer","addr:street":"Les Bleuets","cabins":"yes","caravans":"yes","contact:email":"contact@campinglesbleuets.com","fee":"yes","internet_access":"wlan","internet_access:fee":"yes","name":"Les Bleuets","opening_hours":"Apr 01-Sep 30","phone":"+33 2 40 82 11 07","shop":"convenience","shower":"yes","stars":"2","swimming_pool":"inground","tents":"yes","toilets":"yes","washing_machine":"yes","website":"https://www.campinglesbleuets.com/"}},"440591286":{"location":[47.2031472,-2.1517827],"ct":"FR","tp":"CS","ts":"2023-10-28T00:28:57Z","tX":505,"tY":359,"tags":{"barrier":"fence","cabins":"only","name":"Les Pierres Couchées","phone":"+33 2 40 27 85 64","website":"https://www.lespierrescouchees.fr/"}},"440591287":{"location":[47.1582331,-2.1663162],"ct":"FR","tp":"CS","ts":"2023-10-28T00:29:37Z","tX":505,"tY":359,"tags":{"access":"customers","addr:housenumber":"43","addr:street":"Avenue du Cormier","cabins":"yes","capacity":"134","caravans":"yes","contact:facebook":"https://www.facebook.com/campingtharcor","name":"Thar Cor","phone":"+33 2 40 27 82 81","stars":"3","tents":"yes","website":"https://www.camping-le-thar-cor.com/"}},"440591335":{"location":[47.1391894,-2.1526186],"ct":"FR","tp":"CS","ts":"2016-09-04T12:23:29Z","tX":505,"tY":359,"tags":{"name":"tabardiere"}},"541732291":{"location":[47.1387469,-2.1925462],"ct":"FR","tp":"CR","ts":"2024-12-09T22:13:25Z","tX":505,"tY":359,"tags":{"capacity":"14","caravan_site":"motorhome_stopover","caravan_site:type":"village","fee":"no","name":"Aire de stationnement à La Plaine-sur-Mer","sanitary_dump_station":"yes","surface":"asphalt","water_point":"yes","water_point:charge":"3.10 EUR/120 liter","website":"https://www.pornic.com/aire-de-stationnement-a-la-plaine-sur-mer.html"}},"584691197":{"location":[47.2738123,-2.4378578],"ct":"FR","tp":"CS","ts":"2020-11-01T17:09:48Z","tX":505,"tY":359,"tags":{"addr:city":"Le Pouliguen","addr:housenumber":"45","addr:postcode":"44510","addr:street":"Boulevard de l'Atlantique","capacity":"205","fee":"yes","name":"Camping municipal Les Mouettes","operator":"Ville du Pouliguen","phone":"+33 2 40 42 43 98"}},"609772046":{"location":[47.2474862,-2.312302],"ct":"FR","tp":"CS","ts":"2024-09-02T20:33:14Z","tX":505,"tY":359,"tags":{"addr:city":"Pornichet","addr:housenumber":"38","addr:postcode":"44380","addr:street":"Avenue des Bleuets","camp_site":"basic","capacity":"77","caravans":"yes","drinking_water":"yes","fee":"yes","name":"GCU Pornichet","name:br":"SKS Pornizhan","phone":"+33 2 40 61 25 75","power_supply":"yes","sanitary_dump_station":"customers","short_name":"GCU","shower":"yes","source:name:br":"proper translation","static_caravans":"yes","tents":"yes","toilets":"yes","washing_machine":"yes","website":"https://www.gcu.asso.fr/terrains/pornichet-loire-atlantique-44","wheelchair":"yes"}},"623091029":{"location":[47.2675044,-2.4538042],"ct":"FR","tp":"CR","ts":"2024-10-08T10:34:35Z","tX":505,"tY":359,"tags":{"caravan_site":"motorhome_stopover","caravan_site:type":"beach","charge":"9.80 EUR","charge:conditional":"7.80 EUR @(Apr,May,Jun,Sep,Oct)","fee":"yes","fee:conditional":"no@(Nov-Mar)","name":"Govelle","name:br":"Ar C'hovel","name:nl":"Govelle","power_supply":"yes","power_supply:fee":"yes","sanitary_dump_station":"yes","sanitary_dump_station:chemical_toilet":"yes","sanitary_dump_station:grey_water":"yes","source:name:br":"ofis publik ar brezhoneg","water_point":"yes","water_point:fee":"yes","website":"https://www.atlantic-loire-valley.com/accommodation/campervan-sites/aire-de-camping-cars-de-la-govelle"}},"627422719":{"location":[47.2792167,-2.2037384],"ct":"FR","tp":"CR","ts":"2024-10-26T19:12:08Z","tX":505,"tY":359,"tags":{"caravan_site":"motorhome_stopover","caravan_site:type":"town;parking_lot","charge":"7.75 EUR","charge:description":"EUR 7.00/jour (pour les 4 premières journées), EUR 10.00 par jour (a compter de la 5éme journée). Iincl. électrecité, plus taxe de séjour EUR 0.75 pae jour","charge:en":"EUR 7.00/day (for the first 4 days), EUR 10.00/day (for the 5th and following days). Incl. power supply, plus \"taxe de séjour\" EUR 0.75 per day","fee":"yes","internet_access":"no","name":"Aire de Camping-Cars du Theatre","power_supply":"yes","power_supply:fee":"no","sanitary_dump_station":"yes","seasonal":"no","surface":"asphalt","tents":"no","water_point":"yes","water_point:charge":"4.40 EUR","water_point:fee":"yes","wheelchair":"yes"}},"838799313":{"location":[47.2201146,-2.1546171],"ct":"FR","tp":"CS","ts":"2024-09-08T13:58:39Z","tX":505,"tY":359,"tags":{"caravans":"yes","contact:email":"campingpasdugu@orange.fr","contact:phone":"+332 40 27 07 22","fee":"yes","name":"Le Pas du Gû","source":"data.gouv.fr:DATAtourisme - 05/2020","stars":"1","tents":"yes","website":"https://www.campingpasdugu.net"}},"972510486":{"location":[47.1820118,-2.147038],"ct":"FR","tp":"CR","ts":"2024-10-15T15:59:36Z","tX":505,"tY":359,"tags":{"caravan_site":"motorhome_stopover","caravan_site:type":"village","caravans":"no","dog":"yes","fee":"no","maxstay":"24 hours","name":"Aire camping-cars Saint-Michel-Chef-Chef","opening_hours":"24/7","power_supply":"no","sanitary_dump_station":"yes","seasonal":"no","tents":"no","toilets":"yes","website":"https://en.pornic.com/municipal-parking-area.html"}},"986393192":{"location":[47.2369861,-2.3002949],"ct":"FR","tp":"SD","ts":"2024-05-12T16:13:32Z","tX":505,"tY":359,"tags":{"access":"yes"}},"993206249":{"location":[47.224115,-2.1120572],"ct":"FR","tp":"CS","ts":"2021-10-16T06:32:37Z","tX":505,"tY":359,"tags":{"name":"Les Peupliers","operator":"Madame DAVID Maud","phone":"+33 6 87 63 27 79"}},"993213094":{"location":[47.2196081,-2.1376897],"ct":"FR","tp":"CS","ts":"2023-04-10T18:51:38Z","tX":505,"tY":359,"tags":{"addr:place":"La Tansorais","cabins":"yes","capacity:pitches":"29","caravans":"yes","mobile":"+33 6 82 81 35 75","name":"Les Mouettes","phone":"+33 9 81 81 11 20","shower":"yes","stars":"1","tents":"yes","toilets":"yes","website":"https://www.les-mouettes-camping.com/"}},"1038766106":{"location":[47.136946,-2.2383867],"ct":"FR","tp":"CR","ts":"2024-07-02T11:23:48Z","tX":505,"tY":359,"tags":{"addr:postcode":"44770","addr:street":"Chemin des Pinettes","bbq":"no","capacity":"38","caravan_site":"motorhome_stopover","caravan_site:type":"beach","caravans":"no","charge":"15.16 EUR","charge:conditional":"14.16 EUR @ (Oct-Apr)","dog":"leashed","fee":"yes","maxlength":"9","name":"Aire de camping-car park de Préfailles-Pinettes","name:en":"Camping-car Park Préfailles-Pinettes","network":"CAMPING-CAR PARK","phone":"+33 1 83 64 69 21","power_supply":"yes","power_supply:capacity":"40","power_supply:fee":"no","power_supply:maxcurrent":"6","sanitary_dump_station":"yes","sanitary_dump_station:chemical_toilet":"yes","sanitary_dump_station:grey_water":"yes","tents":"no","trailer":"yes","water_point":"yes","website":"https://www.campingcarpark.com/fr_FR/sejour/aire-etape-camping-car/pays-de-la-loire/44-loire-atlantique/prefailles-pinettes"}},"1082772905":{"location":[47.2713024,-2.4311105],"ct":"FR","tp":"CS","ts":"2023-07-11T13:22:49Z","tX":505,"tY":359,"tags":{"addr:city":"Le Pouliguen","addr:housenumber":"22","addr:postcode":"44510","addr:street":"Avenue de Kerdun","camp_site":"serviced","capacity:pitches":"110","caravans":"yes","internet_access":"wlan","name":"Le clein","stars":"2","tents":"yes"}},"1131951292":{"location":[47.2533655,-2.3183754],"ct":"FR","tp":"CS","ts":"2023-09-19T16:31:28Z","tX":505,"tY":359,"tags":{"name":"Camping Le Bugeau","website":"https://www.campingdubugeau.com/fr"}},"1148287312":{"location":[47.2719106,-2.4323259],"ct":"FR","tp":"CR","ts":"2024-03-25T21:35:55Z","tX":505,"tY":359,"tags":{"addr:city":"Le Pouliguen","addr:housenumber":"49","addr:postcode":"44510","addr:street":"Avenue de l'Océan","capacity":"26","caravan_site":"motorhome_stopover","caravan_site:type":"town","caravans":"no","charge":"16 EUR","fee":"yes","internet_access":"wlan","internet_access:fee":"no","maxstay":"72 hours","name":"Aire de camping-car Le Pouliguen","opening_hours":"24/7","power_supply":"yes","power_supply:maxcurrent":"16","sanitary_dump_station":"yes","seasonal":"no","surface":"grass","water_point":"yes"}},"1284913784":{"location":[47.1595208,-2.1693539],"ct":"FR","tp":"CR","ts":"2024-05-20T16:35:17Z","tX":505,"tY":359,"tags":{"bbq":"no","capacity":"24","caravan_site":"motorhome_stopover","caravan_site:type":"beach","caravans":"no","charge":"13.96 EUR","charge:conditional":"12.16 @ (Oct-Apr)","dog":"leashed","fee":"yes","internet_access":"wlan","maxlength":"none","name":"Aire Camping-Car Park Saint-Michel-Chef-Chef, le Thar-Cor","network":"CAMPING-CAR PARK","opening_hours":"24/7","operator":"CAMPING CAR-PARK","power_supply":"yes","power_supply:capacity":"24","power_supply:maxcurrent":"6","sanitary_dump_station":"yes","tents":"no","trailer":"no","water_point":"yes","website":"https://www.campingcarpark.com/fr_FR/sejour/aire-etape-camping-car/pays-de-la-loire/44-loire-atlantique/st-michel-chef-chef-thar-cor"}},"1317588157":{"location":[47.2593981,-2.3238398],"ct":"FR","tp":"CR","ts":"2024-09-23T13:20:24Z","tX":505,"tY":359,"tags":{"caravan_site":"motorhome_stopover","caravan_site:type":"beach","caravans":"no","fee":"no","motorhome":"yes","motorhome:overnight":"yes","name":"Aire camping-car Pornichet","power_supply":"no","sanitary_dump_station":"no","surface":"asphalt","tents":"no","water_point":"no"}},"1341408756":{"location":[47.1387317,-2.1923833],"ct":"FR","tp":"CR","ts":"2024-12-09T22:13:25Z","tX":505,"tY":359,"tags":{"parking":"surface","surface":"asphalt","water_point":"yes","water_point:charge":"3.10 EUR/120 liter","website":"https://www.pornic.com/aire-de-stationnement-a-la-plaine-sur-mer.html"}},"11065290852":{"location":[47.2692659,-2.4566055],"ct":"FR","tp":"CS","ts":"2024-05-25T20:45:03Z","tX":505,"tY":359,"tags":{"addr:city":"Batz-sur-Mer","addr:postcode":"44740","addr:street":"10 Route de la Govelle","caravans":"yes","dog":"leashed","drinking_water":"yes","fee":"yes","name":"Camping La Govelle","phone":"+33240239163","stars":"3","tents":"yes","website":"https://lagovelle.wordpress.com/"}},"9179666132":{"location":[47.1384713,-2.1926423],"ct":"FR","tp":"SD","ts":"2024-12-09T22:13:25Z","tX":505,"tY":359,"tags":{}},"9994463892":{"location":[47.2712871,-2.4312408],"ct":"FR","tp":"SD","ts":"2024-07-31T20:51:18Z","tX":505,"tY":359,"tags":{"access":"customers","fee":"no","sanitary_dump_station:accepted":"black_water;grey_water","water_point":"yes"}},"9994483896":{"location":[47.2719224,-2.4320221],"ct":"FR","tp":"SD","ts":"2022-09-02T09:12:30Z","tX":505,"tY":359,"tags":{}},"9994870848":{"location":[47.2735964,-2.4398857],"ct":"FR","tp":"SD","ts":"2022-09-02T11:57:19Z","tX":505,"tY":359,"tags":{"power_supply":"no","water_point":"yes"}},"11109483651":{"location":[47.2674137,-2.4538885],"ct":"FR","tp":"SD","ts":"2024-10-08T10:34:35Z","tX":505,"tY":359,"tags":{"access":"customers","fee":"yes","opening_hours":"24/7","operator":"Mairie de Batz-sur-Mer","sanitary_dump_station:accepted":"black_water;grey_water","sanitary_dump_station:chemical_toilet":"yes","sanitary_dump_station:gravity":"yes","sanitary_dump_station:grey_water":"yes","survey:date":"2023-08-05","url":"https://www.ot-batzsurmer.fr/aire-de-camping-cars-de-la-govelle.html","water_point":"yes"}},"12606692301":{"location":[47.1408261,-2.1530227],"ct":"FR","tp":"CS","ts":"2025-02-21T10:40:56Z","tX":505,"tY":359,"tags":{"contact:city":"La Plaine-sur-Mer","contact:housenumber":"2","contact:phone":"+33 2 40 21 58 83","contact:postcode":"44770","contact:street":"Route de la Tabardière","name":"Slow Village Pornic","opening_hours":"Mo-Fr 09:00-12:30, 14:00-17:00","website":"https://www.slow-village.com/destinations/pays-de-la-loire/pornic/"}}}