{"10029455":{"location":[46.8100196,-2.1184981],"ct":"FR","tp":"CS","ts":"2023-06-26T12:48:35Z","tX":505,"tY":360,"tags":{"access":"customers","addr:housenumber":"18","cabins":"yes","capacity":"189","caravans":"yes","contact:email":"plage-tonnelles@campeole.com","fee":"yes","internet_access":"wlan","name":"Plage des Tonnelles","operator":"Campéole","phone":"+33 251588116","stars":"4","tents":"yes","website":"https://www.campeole.com/camping/vendee/plage-des-tonnelles-saint-jean-de-monts"}},"33708538":{"location":[46.9839985,-2.2861679],"ct":"FR","tp":"CS","ts":"2018-03-24T10:42:11Z","tX":505,"tY":360,"tags":{"addr:city":"L'Épine","addr:postcode":"85740","addr:street":"Rue du Port","caravans":"yes","email":"contact@campinglabosse.fr","name":"Camping de la Bosse","phone":"+33253469747","stars":"2","tents":"yes","website":"http://www.camping-de-la-bosse.com"}},"34214940":{"location":[46.9984741,-2.2231724],"ct":"FR","tp":"CS","ts":"2019-03-22T10:04:36Z","tX":505,"tY":360,"tags":{"addr:city":"Noirmoutier-en-l'Île","addr:postcode":"85330","addr:street":"Rue des Sableaux","caravans":"yes","email":"camping.clairmatin@ville-noirmoutier.fr","internet_access":"wlan","name":"Camping municipal Le Clair Matin","phone":"+33251390556","source":"cadastre-dgi-fr source : Direction Générale des Impôts - Cadastre ; mise à jour : 2009","stars":"2","website":"https://www.ile-noirmoutier.com/mon-sejour/ou-dormir/campings/113407-camping-municipal-le-clair-matin"}},"34305562":{"location":[46.9967437,-2.2199443],"ct":"FR","tp":"CS","ts":"2024-06-10T15:34:32Z","tX":505,"tY":360,"tags":{"addr:city":"Noirmoutier-en-l'Île","addr:housenumber":"23","addr:postcode":"85330","addr:street":"Allée des Sableaux","caravans":"yes","drinking_water":"yes","email":"noirmoutier@huttopia.com","internet_access":"wlan","name":"Camping Huttopia Noirmoutier","phone":"+33251390624","power_supply":"yes","sanitary_dump_station":"yes","shower":"yes","source":"Visit","stars":"3","tents":"yes","toilets":"yes","website":"https://europe.huttopia.com/contacter-camping-de-noirmoutier/","wheelchair":"yes"}},"34319026":{"location":[46.9810688,-2.2637905],"ct":"FR","tp":"CR","ts":"2024-05-08T23:01:44Z","tX":505,"tY":360,"tags":{"capacity":"62","caravan_site":"motorhome_stopover","caravan_site:type":"beach","charge":"14 EUR","fee":"yes","internet_access":"no","name":"Aire de l’Épine","opening_hours":"24/7","permanent_camping":"no","power_supply":"yes","sanitary_dump_station":"yes","seasonal":"no","toilets":"yes","water_point":"yes","website":"https://www.ile-noirmoutier.com/fr/se-loger/aires-de-camping-car"}},"35079510":{"location":[46.9296281,-2.1707389],"ct":"FR","tp":"CS","ts":"2018-03-24T16:00:48Z","tX":505,"tY":360,"tags":{"addr:city":"Barbâtre","addr:postcode":"85630","addr:street":"Chemin de la Martinière","caravans":"yes","email":"camping@les-oncheres.com","internet_access":"wlan","name":"Camping Les Onchères","phone":"+33251398131","source":"cadastre-dgi-fr source : Direction Générale des Impôts - Cadastre. Mise à jour : 2009","stars":"3","tents":"yes","website":"http://www.les-oncheres.com"}},"35262592":{"location":[46.8796086,-2.13365],"ct":"FR","tp":"CS","ts":"2024-11-14T18:11:22Z","tX":505,"tY":360,"tags":{"access":"customers","addr:housenumber":"47","addr:street":"Route de la Corsive","cabins":"yes","caravans":"yes","email":"campingdelacorsive@orange.fr","fee":"yes","name":"Camping de la Corsive","phone":"+33 2 51 68 50 06; +33 6 19 56 48 60","ref:FR:NAF":"5530Z","ref:FR:SIREN":"430424143","ref:FR:SIRET":"43042414300013","source":"cadastre-dgi-fr source : Direction Générale des Impôts - Cadastre;mise à jour : 2009","stars":"3","swimming_pool":"yes","tents":"yes","website":"https://www.campingdelacorsive.com/"}},"35281612":{"location":[46.9464111,-2.1870797],"ct":"FR","tp":"CS","ts":"2024-07-27T17:39:45Z","tX":505,"tY":360,"tags":{"access":"customers","addr:city":"Barbâtre","addr:postcode":"85630","addr:street":"Rue du Camping","barrier":"fence","caravans":"yes","drinking_water":"yes","email":"domainelemidi@sandaya.fr","fee":"yes","internet_access":"wlan","name":"Domaine Le Midi","opening_hours":"May-Sep","payment:cash":"yes","payment:cheque":"yes","payment:debit_cards":"yes","phone":"+33 2 51 39 63 74","power_supply":"yes","sanitary_dump_station":"yes","shower":"yes","source":"cadastre-dgi-fr source : Direction Générale des Impôts - Cadastre. Mise à jour : 2009","stars":"5","survey:date":"2022-05-29","tents":"yes","toilets":"yes","toilets:wheelchair":"limited","website":"https://www.domaine-le-midi.com/","wheelchair":"limited"}},"37901266":{"location":[46.8387918,-2.1398449],"ct":"FR","tp":"CS","ts":"2023-04-19T15:08:56Z","tX":505,"tY":360,"tags":{"addr:street":"Avenue Abbé Thibaud","backcountry":"no","cabins":"no","caravans":"yes","fee":"yes","group_only":"no","internet_access":"wlan","internet_access:fee":"yes","name":"Camping Municipal l'Orgatte","openfire":"no","phone":"+33 2 51 58 47 97; +33 2 51 58 84 31","power_supply":"yes","sanitary_dump_station":"yes","shower":"yes","stars":"2","swimming_pool":"no","tents":"yes","toilets":"yes","website":"https://campingmunicipalorgatte.com"}},"126485008":{"location":[46.8092587,-2.1112769],"ct":"FR","tp":"CS","ts":"2024-11-13T19:42:18Z","tX":505,"tY":360,"tags":{"addr:housenumber":"251","addr:street":"Route de Notre-Dame-de-Monts","name":"Aux Cœurs Vendéens","note":"Limite entre L'Abri des Pins et Aux Coeurs Vendéens déterminée à partir des images aériennes","phone":"+33 2 51 58 84 91","ref:FR:NAF":"5530Z","ref:FR:SIREN":"341802924","ref:FR:SIRET":"34180292400017","source":"INSEE - 2024-11","stars":"4","website":"https://www.coeursvendeens.com/"}},"126490080":{"location":[46.8121352,-2.1136678],"ct":"FR","tp":"CS","ts":"2022-08-30T20:39:44Z","tX":505,"tY":360,"tags":{"access":"customers","cabins":"yes","caravans":"yes","fee":"yes","name":"Aventuriers de la Calypso","operator":"APV","phone":"+33 2 51 56 08 78","stars":"4","tents":"yes","website":"https://www.camping-apv.com/fr/atlantique/camping-vendee/camping-saint-jean-de-monts/les-aventuriers-de-la-calypso"}},"126494229":{"location":[46.8185518,-2.1291686],"ct":"FR","tp":"CS","ts":"2022-08-30T20:39:44Z","tX":505,"tY":360,"tags":{"access":"customers","cabins":"yes","caravans":"yes","contact:email":"camping-la-foret@orange.fr","fee":"yes","internet_access":"wlan","internet_access:fee":"customers","name":"La Forêt","phone":"+33 2 51 58 84 63","stars":"4","swimming_pool":"inground","tents":"yes","website":"https://hpa-laforet.com/","wheelchair":"limited"}},"126530805":{"location":[46.8208624,-2.1326689],"ct":"FR","tp":"CS","ts":"2024-11-13T19:42:14Z","tX":505,"tY":360,"tags":{"access":"customers","cabins":"yes","caravans":"yes","contact:email":"info@camping-pontdyeu.com","fee":"yes","name":"Camping Le Pont d'Yeu","phone":"+33 2 51 58 83 76","ref:FR:NAF":"5530Z","ref:FR:SIREN":"378765853","ref:FR:SIRET":"37876585300015","source":"INSEE - 2024-11","stars":"3","swimming_pool":"inground","tents":"yes","website":"https://www.camping-pontdyeu.com/"}},"147256818":{"location":[47.0233719,-2.3039679],"ct":"FR","tp":"CS","ts":"2024-08-13T14:14:02Z","tX":505,"tY":360,"tags":{"addr:postcode":"85330","addr:street":"La Pointe","caravans":"yes","email":"camping.pointeherbaudiere@ville-noirmoutier.fr","internet_access":"wlan","name":"Camping municipal de la Pointe","operator":"Commune de Noirmoutier","phone":"+33251391670","source":"cadastre-dgi-fr source : Direction Générale des Impôts - Cadastre. Mise à jour : 2012","stars":"2","tents":"yes","toilets:wheelchair":"yes","wheelchair":"yes"}},"150697459":{"location":[46.9652837,-2.2149632],"ct":"FR","tp":"CR","ts":"2024-05-08T23:01:44Z","tX":505,"tY":360,"tags":{"capacity":"98","caravan_site":"motorhome_stopover","caravan_site:type":"beach","charge":"14 EUR","charge:conditional":"11.50 EUR @ (\"low season\");9 EUR @ (\"extra low season\");","fee":"yes","internet_access":"wlan","internet_access:fee":"no","name":"Aire de la Guérinière","power_supply":"yes","power_supply:fee":"no","sanitary_dump_station":"yes","seasonal":"no","tents":"no","water_point":"yes","website":"https://www.ile-noirmoutier.com/en/accommodation/motorhome-parks#la-gueriniere-camper-area"}},"259264564":{"location":[47.0148313,-2.2444247],"ct":"FR","tp":"CS","ts":"2023-10-27T18:56:12Z","tX":505,"tY":360,"tags":{"addr:city":"Noirmoutier-en-l'Île","addr:housenumber":"15","addr:postcode":"85330","addr:street":"Rue des Grandes Roussières","caravans":"yes","email":"contact@roussieres.com","internet_access":"wlan","name":"Camping Les Roussières","phone":"+33 2 51 39 13 01","stars":"3","tents":"yes","website":"https://www.campingdesroussieres.com/"}},"259366987":{"location":[46.96424,-2.215667],"ct":"FR","tp":"CS","ts":"2024-09-02T10:48:36Z","tX":505,"tY":360,"tags":{"addr:city":"La Guérinière","addr:housenumber":"1","addr:postcode":"85680","addr:street":"Rue de la Tresson","caravans":"yes","email":"contact@caravanile.com","fax":"+33251358685","internet_access":"wlan","name":"Le Caravan'Île","phone":"+33251395029","stars":"5","tents":"yes","website":"https://www.caravanile.com/"}},"259367013":{"location":[46.9654356,-2.2192947],"ct":"FR","tp":"CS","ts":"2024-05-08T23:01:44Z","tX":505,"tY":360,"tags":{"addr:city":"La Guérinière","addr:housenumber":"54","addr:postcode":"85680","addr:street":"Rue des Moulins","caravans":"yes","email":"contact@campingdelacourt.fr","internet_access":"wlan","motorhome":"yes","name":"Camping municipal de la Court","phone":"+33251395138","stars":"4","tents":"yes","website":"https://www.campingdelacourt.fr/camping-municipal-la-gueriniere/"}},"352562164":{"location":[46.8046189,-2.1124117],"ct":"FR","tp":"CS","ts":"2024-05-08T22:01:51Z","tX":505,"tY":360,"tags":{"access":"customers","fee":"yes","name":"Camping de la Parée du Jonc","operator":"APV","phone":"+33 2 51 56 08 78","website":"https://www.camping-apv.com/fr/atlantique/camping-vendee/camping-saint-jean-de-monts/la-paree-du-jonc"}},"364392579":{"location":[46.8820462,-2.1100796],"ct":"FR","tp":"CS","ts":"2023-04-10T21:38:26Z","tX":505,"tY":360,"tags":{"access":"customers","addr:housenumber":"55","cabins":"yes","capacity":"120","caravans":"yes","email":"campinglemarais@orange.fr","fee":"yes","name":"Camping Le Marais","phone":"+33 2 51 68 53 12; +33 6 75 03 16 20","tents":"yes","website":"http://campinglemarais.com/"}},"364392582":{"location":[46.8869571,-2.1205219],"ct":"FR","tp":"CS","ts":"2024-08-14T19:17:13Z","tX":505,"tY":360,"tags":{"access":"customers","addr:housenumber":"13","cabins":"yes","caravans":"yes","email":"contact@camping-ladarotte.com","fee":"yes","name":"La Darotte","phone":"+33 2 51 68 53 72","stars":"2","swimming_pool":"yes","tents":"yes","website":"https://campingladarotte.com/"}},"445997584":{"location":[46.8521798,-2.1227585],"ct":"FR","tp":"CS","ts":"2022-09-18T16:39:20Z","tX":505,"tY":360,"tags":{"access":"customers","addr:housenumber":"39","cabins":"yes","caravans":"yes","fee":"yes","name":"Le Lagon Bleu","phone":"+33 2 51 58 85 29","sanitary_dump_station":"yes","source":"survey","stars":"3","swimming_pool":"yes","tents":"yes","website":"https://www.camping-lelagonbleu.com/"}},"493059083":{"location":[46.820212,-2.1288246],"ct":"FR","tp":"CS","ts":"2024-11-13T19:42:07Z","tX":505,"tY":360,"tags":{"access":"customers","addr:street":"Chemin de la Menardière","cabins":"yes","caravans":"yes","email":"camping.menardiere@free.fr","fee":"yes","internet_access":"wlan","internet_access:fee":"customers","name":"La Ménardière","phone":"+33 2 51 58 86 92; +33 6 07 95 76 88","ref:FR:NAF":"5530Z","ref:FR:SIREN":"421593526","ref:FR:SIRET":"42159352600013","source":"INSEE - 2024-11","stars":"2","tents":"yes","website":"https://www.camping-la-menardiere.fr/","wheelchair":"yes"}},"517535058":{"location":[46.8858834,-2.151167],"ct":"FR","tp":"CR","ts":"2024-05-17T22:03:46Z","tX":505,"tY":360,"tags":{"capacity":"49","caravan_site":"motorhome_stopover","caravan_site:type":"beach","caravans":"no","charge":"15.60 EUR","dog":"leashed","fee":"yes","internet_access":"wlan","internet_access:fee":"no","maxlength":"none","name":"CampingCarPark La Barre-de-Monts","network":"CAMPING-CAR PARK","operator":"CampingCarPark.com","power_supply":"yes","power_supply:capacity":"52","power_supply:fee":"no","power_supply:maxcurrent":"6","sanitary_dump_station":"customers","tents":"no","trailer":"no","water_point":"yes","website":"https://www.campingcarpark.com/en_GB/stay/stopover-site-motorhome/pays-de-la-loire/85-vendee/la-barre-de-monts"}},"548567444":{"location":[47.0005333,-2.2215597],"ct":"FR","tp":"CS","ts":"2020-08-25T12:34:08Z","tX":505,"tY":360,"tags":{"name":"Caravaning de la baie"}},"570434934":{"location":[46.8347546,-2.1423105],"ct":"FR","tp":"CR","ts":"2024-09-24T13:24:14Z","tX":505,"tY":360,"tags":{"caravan_site":"motorhome_stopover","caravan_site:type":"beach","caravans":"no","fee":"yes","fee:conditional":"no@(08:00-20:00)","name":"Parking de la Clairière, Notre Dame","sanitary_dump_station":"yes","tents":"no","water_point":"yes","website":"https://villenotredamedemonts.fr/camping-cars/"}},"585331652":{"location":[46.8419358,-2.1256262],"ct":"FR","tp":"CS","ts":"2024-11-13T19:42:29Z","tX":505,"tY":360,"tags":{"addr:housenumber":"26","addr:street":"Rue de la Creusière","cabins":"yes","caravans":"yes","name":"Le bois Collin","phone":"+33 2 51 58 46 97","ref:FR:NAF":"5530Z","ref:FR:SIREN":"434535548","ref:FR:SIRET":"43453554800011","source":"INSEE - 2024-11","stars":"2","tents":"yes","website":"https://www.camping-le-bois-collin.com/"}},"585335022":{"location":[46.8405095,-2.1300625],"ct":"FR","tp":"CS","ts":"2022-09-18T14:55:40Z","tX":505,"tY":360,"tags":{"addr:housenumber":"21","cabins":"yes","caravans":"yes","contact:email":"contact@camping-despins85.com","name":"Les pins","phone":"+33 2 51 58 83 75","stars":"4","swimming_pool":"yes","tents":"yes","website":"https://www.camping-despins85.com"}},"608858322":{"location":[46.9323449,-2.1526089],"ct":"FR","tp":"CR","ts":"2024-09-24T13:15:16Z","tX":505,"tY":360,"tags":{"caravan_site":"motorhome_stopover","caravan_site:type":"street_side","caravans":"no","fee":"no","maxstay":"12 hours","name":"Passage du Gois","opening_hours":"21:00-09:00","power_supply":"no","sanitary_dump_station":"no","surface":"asphalt","tents":"no","toilets":"no","water_point":"no"}},"617843945":{"location":[46.8356188,-2.1255957],"ct":"FR","tp":"CS","ts":"2023-01-13T13:50:22Z","tX":505,"tY":360,"tags":{"cabins":"yes","caravans":"no","name":"Camping de l'Étoile","tents":"no"}},"687766563":{"location":[46.837167,-2.1243491],"ct":"FR","tp":"CS","ts":"2023-01-13T13:50:22Z","tX":505,"tY":360,"tags":{"addr:housenumber":"50","addr:street":"Route de la Barre","cabins":"yes","caravans":"yes","contact:email":"contact@legrandjardin.net","name":"Le Grand Jardin","phone":"+33 2 28 11 21 75","stars":"4","swimming_pool":"yes","tents":"no","website":"https://www.legrandjardin.net/"}},"687770573":{"location":[46.8333541,-2.1258364],"ct":"FR","tp":"CS","ts":"2023-01-29T18:28:44Z","tX":505,"tY":360,"tags":{"cabins":"yes","caravans":"yes","contact:email":"info@campingclosdubourg.com","fee":"yes","name":"Camping Le Clos du Bourg","phone":"+33 2 51 59 07 47","stars":"3","swimming_pool":"inground","tents":"yes","website":"https://www.campingclosdubourg.com/","wheelchair":"yes"}},"692994942":{"location":[46.8600047,-2.1160067],"ct":"FR","tp":"CS","ts":"2023-04-10T21:38:26Z","tX":505,"tY":360,"tags":{"access":"customers","addr:housenumber":"133","addr:street":"Rue de la Barre de Monts","cabins":"yes","capacity":"70","caravans":"yes","email":"campinglarive@yahoo.fr","fee":"yes","name":"Camping La Rive","phone":"+33 2 51 59 32 50; +33 6 08 10 37 86","stars":"3","tents":"yes","website":"https://camping-larive.fr"}},"693300585":{"location":[46.8667686,-2.1210506],"ct":"FR","tp":"CS","ts":"2023-10-28T18:00:50Z","tX":505,"tY":360,"tags":{"access":"customers","addr:street":"Chemin de la Senserie","cabins":"yes","caravans":"yes","email":"campinglemaraisneuf@yahoo.fr","name":"Camping Le Marais Neuf","phone":"+33 6 85 07 00 47; +33 2 51 49 05 02","stars":"3","swimming_pool":"yes","tents":"yes","website":"https://lemaraisneuf.campingdevendee.fr/"}},"696891534":{"location":[46.8871661,-2.146533],"ct":"FR","tp":"CS","ts":"2024-03-12T07:51:08Z","tX":505,"tY":360,"tags":{"name":"La Grande Côte","phone":"+33 2 51 68 51 89","stars":"3","website":"https://www.sandaya.fr/nos-campings/la-grande-cote"}},"696891537":{"location":[46.8823698,-2.1469927],"ct":"FR","tp":"CS","ts":"2023-08-14T15:09:30Z","tX":505,"tY":360,"tags":{"addr:city":"La Barre De Monts","addr:country":"FR","addr:postcode":"85550","addr:street":"Route de la Grande Côte","capacity":"360","caravans":"yes","check_date":"2023-07-29","contact:facebook":"https://www.facebook.com/grandcorseau/","drinking_water":"yes","email":"contact@corseau.com","fax":"+33 2 51 49 72 46","fee":"yes","internet_access":"wlan","internet_access:fee":"yes","name":"Le Grand Corseau","opening_hours":"Apr-Oct","phone":"+33 2 51 68 52 87","power_supply":"yes","sanitary_dump_station":"yes","shower":"yes","stars":"3","static_caravans":"yes","tents":"yes","toilets":"yes","website":"https://www.camping-grand-corseau.com/"}},"702705990":{"location":[46.8055299,-2.1111765],"ct":"FR","tp":"CS","ts":"2023-09-03T11:07:00Z","tX":505,"tY":360,"tags":{"capacity:pitches":"280","caravans":"yes","name":"Le Côté Plage","opening_hours":"Apr 15 - Sep 17","phone":"+33 2 51 58 86 58","shower":"yes","stars":"3","static_caravans":"yes","swimming_pool":"yes","tents":"yes","toilets":"yes","website":"https://www.campingcoteplage.com/"}},"818788512":{"location":[46.8425595,-2.1390127],"ct":"FR","tp":"CS","ts":"2024-11-13T19:42:11Z","tX":505,"tY":360,"tags":{"access":"customers","addr:housenumber":"74","addr:street":"Rue de la Braie","cabins":"no","caravans":"yes","contact:email":"la-paree-chalons@orange.fr","fee":"yes","name":"La Parée Chalons","phone":"+33 2 51 58 61 19","ref:FR:NAF":"5530Z","ref:FR:SIREN":"531533131","ref:FR:SIRET":"53153313100011","source":"INSEE - 2024-11","stars":"2","tents":"yes","website":"https://www.lapareechalons.fr"}},"818809537":{"location":[46.8189878,-2.1295433],"ct":"FR","tp":"CS","ts":"2023-10-28T18:00:44Z","tX":505,"tY":360,"tags":{"access":"customers","cabins":"yes","capacity":"10","caravans":"yes","contact:email":"campinglepetitbois85@orange.fr","fee":"yes","internet_access":"wlan","internet_access:fee":"no","name":"Le Petit Bois","phone":"+33 2 51 58 80 84","stars":"3","swimming_pool":"inground","tents":"yes","website":"https://www.camping-lepetitbois.fr/"}},"818819845":{"location":[46.8095813,-2.1200379],"ct":"FR","tp":"CS","ts":"2024-11-13T19:42:19Z","tX":505,"tY":360,"tags":{"access":"customers","addr:housenumber":"11","addr:street":"Route de la Tonnelle","cabins":"yes","capacity":"15","caravans":"no","contact:email":"contact@campinglerivage.com","fee":"yes","name":"Le Rivage","phone":"+33 2 51 58 11 38","ref:FR:NAF":"5530Z","ref:FR:SIREN":"809643364","ref:FR:SIRET":"80964336400015","source":"INSEE - 2024-11","tents":"no","website":"https://www.campinglerivage.com/"}},"994972146":{"location":[46.8313645,-2.1292488],"ct":"FR","tp":"CR","ts":"2024-10-05T01:05:55Z","tX":505,"tY":360,"tags":{"caravan_site":"motorhome_stopover","caravan_site:type":"village","caravans":"yes","fee":"yes","name":"Aire de Camping-Cars Notre Dame des Monts Place du Général de Gaulle","sanitary_dump_station":"yes","seasonal":"no","tents":"no","website":"http://www.ville-notre-dame-de-monts.fr/tourisme/aires-de-stationnement-camping-cars"}},"1037075137":{"location":[46.84977,-2.1262312],"ct":"FR","tp":"CS","ts":"2024-11-13T19:42:12Z","tX":505,"tY":360,"tags":{"addr:housenumber":"52","addr:street":"Route de la Rive","name":"Camping l'Albizia","ref:FR:NAF":"5530Z","ref:FR:SIREN":"417535093","ref:FR:SIRET":"41753509300013","source":"INSEE - 2024-11"}},"1037075138":{"location":[46.847165,-2.1247635],"ct":"FR","tp":"CS","ts":"2024-11-13T19:42:16Z","tX":505,"tY":360,"tags":{"addr:housenumber":"4","addr:street":"Route du Bois Soret","name":"Camping Beau Séjour","ref:FR:NAF":"5530Z","ref:FR:SIREN":"539237818","ref:FR:SIRET":"53923781800015","source":"INSEE - 2024-11"}},"1037075139":{"location":[46.84796,-2.1285578],"ct":"FR","tp":"CS","ts":"2022-03-04T08:58:49Z","tX":505,"tY":360,"tags":{"name":"Camping La Davière"}},"1037077727":{"location":[46.8106386,-2.1156795],"ct":"FR","tp":"CS","ts":"2024-11-13T19:42:24Z","tX":505,"tY":360,"tags":{"addr:housenumber":"86","addr:street":"Chemin de la Rive","name":"Camping les Chaumes","ref:FR:NAF":"5530Z","ref:FR:SIREN":"833294341","ref:FR:SIRET":"83329434100015","source":"INSEE - 2024-11"}},"1037077728":{"location":[46.8098581,-2.1138905],"ct":"FR","tp":"CS","ts":"2024-11-13T19:42:30Z","tX":505,"tY":360,"tags":{"addr:housenumber":"70","addr:street":"Chemin de la Rive","name":"Les Peupliers de la rive","ref:FR:NAF":"5530Z","ref:FR:SIREN":"809643364","ref:FR:SIRET":"80964336400023","source":"INSEE - 2024-11"}},"1106637899":{"location":[46.8362255,-2.1251089],"ct":"FR","tp":"CS","ts":"2023-01-13T13:50:22Z","tX":505,"tY":360,"tags":{"addr:city":"Notre-Dame-de-Monts","addr:housenumber":"37","addr:postcode":"85690","addr:street":"Impasse du Petit Brandeau","cabins":"yes","caravans":"no","name":"La Guillotière","operator":"Naya Village","stars":"4","tents":"no","website":"https://www.naya-village.fr/camping-guillotiere-vendee/"}},"1171358569":{"location":[46.9077941,-2.1574906],"ct":"FR","tp":"CR","ts":"2024-10-05T16:22:30Z","tX":505,"tY":360,"tags":{"caravan_site":"motorhome_stopover","caravan_site:type":"beach","charge":"8 EUR","fee":"yes","name":"Aire du Niaisois","power_supply":"yes","power_supply:charge":"1 EUR/2 hours","power_supply:fee":"yes","sanitary_dump_station":"yes","surface":"asphalt","water_point":"yes","water_point:charge":"2 EUR/100 liter","water_point:fee":"yes","website":"https://www.barbatre.fr/vie-pratique/services/camping-cars/"}},"1232158723":{"location":[47.0008132,-2.2521739],"ct":"FR","tp":"CR","ts":"2024-09-27T22:19:17Z","tX":505,"tY":360,"tags":{"bbq":"no","capacity":"142","caravan_site":"motorhome_stopover","caravan_site:type":"river","caravans":"no","charge":"16.12 EUR","dog":"yes","fee":"yes","internet_access":"wlan","internet_access:fee":"no","maxlength":"none","name":"Campingc-ar Park de Noirmoutier-en-l'Île","network":"CAMPING-CAR PARK","opening_hours":"24/7","operator":"CAMPING-CAR Park","power_supply":"yes","power_supply:maxcurrent":"6","sanitary_dump_station":"yes","seasonal":"no","tents":"no","trailer":"no","water_point":"yes","website":"https://www.campingcarpark.com/fr_FR/sejour/aire-etape-camping-car/pays-de-la-loire/85-vendee/noirmoutier"}},"1280978055":{"location":[46.8057738,-2.1138791],"ct":"FR","tp":"CR","ts":"2024-05-08T22:01:51Z","tX":505,"tY":360,"tags":{"alt_name":"Aire de service de la Parée du Jonc","caravan_site":"motorhome_stopover","caravan_site:type":"beach","charge":"13.50 EUR","charge:conditional":"10.50 EUR @ (Sep-Jun)","fee":"yes","internet_access":"wlan","name":"Aire de Camping Car la Paree du Jonc Saint-Jean de Monts","opening_hours":"24/7","power_supply":"yes","sanitary_dump_station":"yes","seasonal":"no","surface":"asphalt","toilets":"yes","water_point":"yes","website":"https://www.camping-apv.com/atlantique/camping-vendee/camping-saint-jean-de-monts/aire-de-camping-car-la-paree-du-jonc"}},"1283712671":{"location":[46.8113053,-2.1105211],"ct":"FR","tp":"CS","ts":"2024-05-16T18:59:22Z","tX":505,"tY":360,"tags":{"addr:city":"Saint-Jean-de-Monts","addr:housenumber":"248","addr:postcode":"85160","addr:street":"Route de Notre-Dame-de-Monts","name":"Les Places Dorées","operator":"Sunêlia","phone":"+33 2 51 59 02 93","stars":"5","website":"https://www.placesdorees.com/"}},"6512604974":{"location":[46.8308924,-2.1297826],"ct":"FR","tp":"SD","ts":"2024-09-24T12:57:29Z","tX":505,"tY":360,"tags":{"access":"yes"}},"8984775588":{"location":[46.8854948,-2.1513449],"ct":"FR","tp":"SD","ts":"2021-08-06T05:49:26Z","tX":505,"tY":360,"tags":{}},"11074804569":{"location":[46.8823014,-2.1486211],"ct":"FR","tp":"SD","ts":"2023-07-29T11:34:47Z","tX":505,"tY":360,"tags":{"access":"customers","sanitary_dump_station:chemical_toilet":"yes","sanitary_dump_station:grey_water":"yes","water_point":"yes"}},"11114513378":{"location":[46.9806161,-2.2638159],"ct":"FR","tp":"SD","ts":"2023-08-14T15:15:20Z","tX":505,"tY":360,"tags":{"sanitary_dump_station:basin":"yes","sanitary_dump_station:round_drain":"yes"}},"11889862253":{"location":[46.9219586,-2.163327],"ct":"FR","tp":"SD","ts":"2024-05-08T22:13:50Z","tX":505,"tY":360,"tags":{"water_point":"yes","website":"https://www.barbatre.fr/vie-pratique/services/camping-cars/"}},"11889862254":{"location":[46.9079246,-2.157986],"ct":"FR","tp":"SD","ts":"2024-05-08T22:13:50Z","tX":505,"tY":360,"tags":{"access":"yes"}},"12079644524":{"location":[46.9454301,-2.1863494],"ct":"FR","tp":"SD","ts":"2024-07-29T08:05:49Z","tX":505,"tY":360,"tags":{"access":"customers","fee":"no","network":"Sandaya","power_supply":"yes","sanitary_dump_station:chemical_toilet":"no","sanitary_dump_station:grey_water":"yes","water_point":"yes"}},"12108190097":{"location":[47.001122,-2.252979],"ct":"FR","tp":"SD","ts":"2024-08-13T12:47:16Z","tX":505,"tY":360,"tags":{}},"12108190098":{"location":[47.0010096,-2.2530546],"ct":"FR","tp":"SD","ts":"2024-08-13T12:47:16Z","tX":505,"tY":360,"tags":{}},"12196949882":{"location":[46.8345266,-2.142452],"ct":"FR","tp":"SD","ts":"2024-09-24T13:24:14Z","tX":505,"tY":360,"tags":{"access":"yes"}}}