{"28733404":{"location":[43.3167993,-2.4116745],"ct":"ES","tp":"CS","ts":"2024-09-22T12:27:34Z","tX":505,"tY":375,"tags":{"caravans":"yes","dog":"leashed","fee":"yes","internet_access":"wlan","internet_access:fee":"no","name":"Saturraran","phone":"+34 943 603847","power_supply":"yes","reservation":"no","sanitary_dump_station":"customers","start_date":"1964-07-07","tents":"yes","washing_machine":"yes","website":"https://www.campingsaturraran.com/es","wheelchair":"yes"}},"37853451":{"location":[43.3133375,-2.3929346],"ct":"ES","tp":"CS","ts":"2024-09-22T19:28:18Z","tX":505,"tY":375,"tags":{"addr:city":"Mutriku","addr:housenumber":"4","addr:postcode":"20830","addr:street":"Galdonamendi","bbq":"yes","caravans":"no","dog":"yes","fee":"yes","internet_access":"wlan","language:eu":"yes","name":"Santa Elena","phone":"+34 943603982","playground":"yes","power_supply":"yes","shower":"hot","tents":"yes","toilets":"yes","washing_machine":"yes","website":"https://www.camping-santaelena.com/"}},"37919849":{"location":[43.3173448,-2.4023691],"ct":"ES","tp":"CS","ts":"2025-05-30T19:43:16Z","tX":505,"tY":375,"tags":{"addr:city":"Mutriku","addr:postcode":"20830","caravans":"yes","dog":"leashed","drinking_water":"yes","fee":"yes","language:eu":"yes","name":"Galdona","payment:american_express":"yes","payment:cash":"yes","payment:mastercard":"yes","payment:visa":"yes","phone":"+34 943 60 35 09","power_supply":"yes","restaurant":"yes","sanitary_dump_station":"yes","shower":"hot","tents":"yes","toilets":"yes","washing_machine":"yes","website":"https://www.campinggaldona.com/sobre-nosotros"}},"39520958":{"location":[43.2930315,-2.3291431],"ct":"ES","tp":"CS","ts":"2025-04-30T00:37:04Z","tX":505,"tY":375,"tags":{"addr:city":"Deba","addr:postcode":"20829","bbq":"yes","caravans":"yes","check_date":"2024-04-21","dog":"yes","fee":"yes","name":"Itxaspe","payment:cash":"yes","payment:credit_cards":"yes","phone":"+34 943 199 377","playground":"yes","power_supply":"yes","swimming_pool":"yes","tents":"yes","website":"https://www.campingitxaspe.com","wheelchair":"yes"}},"45290184":{"location":[43.2893139,-2.1468136],"ct":"ES","tp":"CS","ts":"2024-09-23T19:47:30Z","tX":505,"tY":375,"tags":{"access":"private","addr:city":"Zarautz","addr:postcode":"20800","bbq":"yes","caravans":"yes","check_date":"2022-08-23","designation":"Camping Zarautz","dish_washing":"yes","dog":"yes","drinking_water":"yes","fee":"yes","fitness_station":"yes","internet_access":"wlan","internet_access:fee":"yes","name":"Gran Camping Zarautz","opening_hours":"Jan-Dec","payment:cards":"yes","payment:credit_cards":"yes","payment:debit_cards":"yes","playground":"yes","power_supply":"yes","sauna":"yes","shower":"yes","tents":"yes","toilets":"yes","washing_machine":"yes","website":"https://www.grancampingzarautz.com/en/"}},"45290186":{"location":[43.2866098,-2.1543168],"ct":"ES","tp":"CS","ts":"2024-09-23T19:30:45Z","tX":505,"tY":375,"tags":{"addr:city":"Zarautz","addr:postcode":"20800","caravans":"yes","dog":"yes","fee":"yes","internet_access":"wlan","internet_access:fee":"customers","name":"Camping Talaimendi","name:eu":"Talaimendi kanpina","payment:cash":"yes","payment:mastercard":"yes","payment:visa":"yes","phone":"+34 943 83 00 42","power_supply":"yes","reservation":"no","restaurant":"yes","shower":"hot","static_caravans":"no","tents":"yes","toilets":"yes","washing_machine":"yes","website":"https://www.campingseuskadi.com/en/socio/talaimendi/","wheelchair":"yes"}},"45290812":{"location":[43.2862695,-2.1248797],"ct":"ES","tp":"CS","ts":"2024-09-23T20:03:35Z","tX":505,"tY":375,"tags":{"addr:city":"Orio","addr:postcode":"20810","addr:street":"Hondartza bidea","cabins":"34","caravans":"yes","check_date":"2024-07-09","dog":"no","fee":"yes","internet_access":"wlan","name":"Orio kanpina","name:es":"Camping Orio","name:eu":"Orio Kanpina","playground":"yes","restaurant":"yes","sanitary_dump_station":"yes","shower":"yes","swimming_pool":"yes","tents":"yes","toilets":"yes","washing_machine":"yes","website":"https://oriokanpina.com","wheelchair":"yes"}},"126807828":{"location":[43.3054136,-2.3785457],"ct":"ES","tp":"CS","ts":"2024-09-22T19:44:08Z","tX":505,"tY":375,"tags":{"caravans":"yes","dog":"yes","fee":"yes","name":"Aitzeta","phone":"+34 943 60 33 56","playground":"yes","power_supply":"yes","shower":"hot","tents":"yes","toilets":"yes","website":"https://www.campingseuskadi.com/socio/aitzeta/"}},"234780687":{"location":[43.2958384,-2.2536102],"ct":"ES","tp":"CR","ts":"2018-10-21T09:09:49Z","tX":505,"tY":375,"tags":{"fee":"no","sanitary_dump_station":"no","wheelchair":"yes"}},"274736364":{"location":[43.2895994,-2.2490146],"ct":"ES","tp":"CS","ts":"2024-09-22T21:23:04Z","tX":505,"tY":375,"tags":{"addr:city":"Zumaia","addr:housenumber":"16","addr:postcode":"20750","addr:street":"Basusta-Bidea","bbq":"yes","cabins":"yes","caravans":"yes","dog":"yes","email":"info@campingzumaia.com","fee":"yes","internet_access":"wlan","internet_access:fee":"no","name":"Camping Zumaia","payment:cash":"yes","payment:credit_cards":"yes","phone":"+34 943 86 04 75","playground":"yes","power_supply":"yes","restaurant":"yes","shower":"hot","swimming_pool":"yes","tents":"yes","toilets":"yes","washing_machine":"yes","website":"https://www.campingzumaia.com"}},"314763080":{"location":[43.3201206,-2.4303224],"ct":"ES","tp":"CR","ts":"2018-05-28T07:45:27Z","tX":505,"tY":375,"tags":{"name":"Ondarroa - Zaldupe"}},"372090970":{"location":[43.0744883,-2.3538279],"ct":"ES","tp":"CS","ts":"2023-06-28T12:58:50Z","tX":505,"tY":375,"tags":{"access":"yes","backcountry":"yes","capacity:persons":"20","capacity:tents":"20","caravans":"no","fee":"no","name":"Kimu berri","operator":"Legazpiko Udala","static_caravans":"no","tents":"yes"}},"395286414":{"location":[43.2776329,-2.1719853],"ct":"ES","tp":"CR","ts":"2023-05-17T17:57:42Z","tX":505,"tY":375,"tags":{"capacity":"38","fee":"no","internet_access":"no","name":"Zarautz","power_supply":"no","sanitary_dump_station":"yes","surface":"grass"}},"591513411":{"location":[43.1047952,-2.4226414],"ct":"ES","tp":"CR","ts":"2024-06-20T21:53:59Z","tX":505,"tY":375,"tags":{"capacity:caravans":"10","drinking_water":"yes","fee":"no","internet_access":"no","name":"Bergara - Labegaraieta","opening_hours":"24/7","power_supply":"no","sanitary_dump_station":"yes","surface":"asphalt","toilets":"no"}},"772235347":{"location":[43.2546993,-2.1306423],"ct":"ES","tp":"CS","ts":"2024-09-23T20:30:34Z","tX":505,"tY":375,"tags":{"addr:city":"Aia","addr:housenumber":"38","addr:postcode":"20810","addr:street":"Barrio Olaskoegia","cabins":"yes","caravans":"yes","check_date":"2024-08-02","dog":"yes","drinking_water":"yes","fee":"yes","internet_access":"wlan","internet_access:fee":"no","name":"Zingira","payment:cash":"yes","payment:credit_cards":"yes","payment:debit_cards":"yes","phone":"+34 682 261 287","power_supply":"yes","restaurant":"yes","shower":"yes","source":"survey","tents":"yes","toilets":"yes","website":"https://zingiracamping.com/es/"}},"775769071":{"location":[43.3175166,-2.4003799],"ct":"ES","tp":"CR","ts":"2020-02-23T17:41:01Z","tX":505,"tY":375,"tags":{"fee":"yes","name":"Galdona","power_supply":"yes","sanitary_dump_station":"yes"}},"917128317":{"location":[43.1722453,-2.2618024],"ct":"ES","tp":"CR","ts":"2025-04-22T16:53:05Z","tX":505,"tY":375,"tags":{"access":"yes","addr:city":"Azpeitia","addr:postcode":"20730","addr:street":"Oñatz Auzoa","capacity":"4","fee":"no","maxstay":"3 nights","name":"Area de Autocaravanas Azpeitia","operator":"ciudad de Azpeitia","power_supply":"no","sanitary_dump_station":"yes","sanitary_dump_station:chemical_toilet":"yes","sanitary_dump_station:grey_water":"yes","sanitary_dump_station:round_drain":"yes","seasonal":"no","supervised":"no","toilets":"yes","water_point":"yes","wheelchair":"yes"}},"919660207":{"location":[43.2403125,-2.2608062],"ct":"ES","tp":"CR","ts":"2025-04-21T05:42:48Z","tX":505,"tY":375,"tags":{"access":"yes","addr:city":"Zestoa","addr:postcode":"20740","addr:street":"Toribio Altzaga Kalea","capacity":"20","caravan_site":"motorhome_stopover","caravan_site:type":"parking_lot","caravans":"no","fee":"no","maxstay":"72 hours","name":"Área de autocaravanas de Zestoa","name:fr":"Aire Camping Car Zestoa","operator":"ciudad de Zestoa","power_supply":"no","sanitary_dump_station":"yes","sanitary_dump_station:chemical_toilet":"yes","sanitary_dump_station:grey_water":"yes","sanitary_dump_station:round_drain":"yes","supervised":"no","tents":"no","toilets":"no","water_point":"yes","wheelchair":"yes"}},"1284676471":{"location":[43.3187327,-2.4121332],"ct":"ES","tp":"CR","ts":"2024-05-19T17:02:15Z","tX":505,"tY":375,"tags":{"fee":"yes","name":"Saturrarango autokarabana gunea"}},"2428113215":{"location":[43.2928436,-2.2472048],"ct":"ES","tp":"CR","ts":"2015-03-30T14:56:07Z","tX":505,"tY":375,"tags":{"source":"survey","wheelchair":"yes"}},"4361689090":{"location":[43.2851435,-2.13212],"ct":"ES","tp":"CR","ts":"2023-05-17T18:26:06Z","tX":505,"tY":375,"tags":{"highway":"rest_area","name":"Portuko aparkalekua","name:es":"Aparcamiento en Puerto","name:eu":"Portuko aparkalekua"}},"8829741617":{"location":[43.3172268,-2.4009734],"ct":"ES","tp":"CR","ts":"2021-06-13T15:36:37Z","tX":505,"tY":375,"tags":{}},"7237210741":{"location":[43.3176108,-2.400761],"ct":"ES","tp":"SD","ts":"2020-02-23T17:41:01Z","tX":505,"tY":375,"tags":{}},"8518351137":{"location":[43.1721329,-2.2617077],"ct":"ES","tp":"SD","ts":"2024-05-04T20:07:42Z","tX":505,"tY":375,"tags":{"access":"yes","fee":"no","operator":"ciudad de Azpeitia","sanitary_dump_station":"public","sanitary_dump_station:chemical_toilet":"yes","sanitary_dump_station:grey_water":"yes","sanitary_dump_station:round_drain":"yes","water_point":"yes"}},"8540517173":{"location":[43.240893,-2.2607931],"ct":"ES","tp":"SD","ts":"2024-03-21T18:30:22Z","tX":505,"tY":375,"tags":{"access":"yes","fee":"no","motorhome":"designated","operator":"ciudad de Zestoa","sanitary_dump_station":"public","sanitary_dump_station:chemical_toilet":"yes","sanitary_dump_station:grey_water":"yes","sanitary_dump_station:round_drain":"yes","water_point":"yes"}},"8865900632":{"location":[43.2905199,-2.1468191],"ct":"ES","tp":"SD","ts":"2023-05-17T18:26:06Z","tX":505,"tY":375,"tags":{"access":"customers","fee":"no","name":"Gran Camping Zarautz","operator":"Gran Camping Zarautz","water_point":"yes"}},"10297009482":{"location":[43.1047483,-2.4228414],"ct":"ES","tp":"SD","ts":"2024-03-20T17:15:08Z","tX":505,"tY":375,"tags":{"access":"yes","fee":"no","opening_hours":"24/7","operator":"Bergarako Udala","sanitary_dump_station:chemical_toilet":"yes","sanitary_dump_station:grey_water":"yes","water_point":"yes"}}}