{"925203998":{"location":[41.1712577,-2.4316097],"ct":"ES","tp":"CR","ts":"2024-05-04T17:12:51Z","tX":505,"tY":383,"tags":{"access":"yes","addr:city":"Medinaceli","addr:postcode":"42240","addr:street":"Calle Campo de San Nicolás","capacity":"8","covered":"no","drinking_water":"yes","fee":"no","maxstay":"48 hours","name":"Área de Autocaravanas de Medinaceli","opening_hours":"24/7","operator":"Ayuntamiento de Medinaceli","power_supply":"no","sanitary_dump_station":"yes","sanitary_dump_station:chemical_toilet":"yes","sanitary_dump_station:grey_water":"yes","sanitary_dump_station:round_drain":"yes","supervised":"no","surface":"unpaved","water_point":"yes"}},"1382389360":{"location":[41.0460537,-2.1991843],"ct":"ES","tp":"CR","ts":"2025-04-29T19:51:10Z","tX":505,"tY":383,"tags":{"addr:street":"Camino Familia Tabernero","fee":"no","name":"Área de autocaravanas de Maranchon","power_supply":"yes","sanitary_dump_station":"yes"}},"3046558114":{"location":[41.1712721,-2.4312311],"ct":"ES","tp":"SD","ts":"2024-05-04T16:57:24Z","tX":505,"tY":383,"tags":{"access":"yes","description":"Área de Vaciado y Llenado Para Autocarvanas","fee":"no","operator":"Ayuntamiento de Medinaceli","sanitary_dump_station":"public","sanitary_dump_station:chemical_toilet":"yes","sanitary_dump_station:grey_water":"yes","sanitary_dump_station:round_drain":"yes","water_point":"yes"}},"12798560478":{"location":[41.0460582,-2.1993555],"ct":"ES","tp":"SD","ts":"2025-04-29T19:51:10Z","tX":505,"tY":383,"tags":{"fee":"no","water_point":"yes"}}}