{"3903431":{"location":[-30.0600048,153.1959034],"ct":"AU","tp":"CR","ts":"2014-07-22T02:25:33Z","tX":947,"tY":601,"tags":{"name":"Arrawarra Caravan Park","source":"Bing"}},"3903789":{"location":[-30.0794997,153.1993378],"ct":"AU","tp":"CR","ts":"2014-07-22T11:04:59Z","tX":947,"tY":601,"tags":{"name":"Mullaway Beachside Caravan Park"}},"25981404":{"location":[-30.0471318,153.1922481],"ct":"AU","tp":"CS","ts":"2016-08-05T09:08:40Z","tX":947,"tY":601,"tags":{"fee":"yes","name":"Darlington Beach Resort, unpowered camping area","website":"https://www.nrmaholidayparks.com.au/darlingtonbeach/"}},"189453927":{"location":[-29.8709232,153.2651821],"ct":"AU","tp":"CR","ts":"2015-05-17T15:31:27Z","tX":947,"tY":601,"tags":{"name":"Wooli Camping and Caravan Park","source":"Bing"}},"189501899":{"location":[-29.8511051,153.2556417],"ct":"AU","tp":"CR","ts":"2015-05-17T15:28:55Z","tX":947,"tY":601,"tags":{"name":"Solitary Islands Resort","operator":"Big 4 Holiday Parks","source":"Bing"}},"190156076":{"location":[-30.1010753,153.1977855],"ct":"AU","tp":"CR","ts":"2023-08-25T02:21:51Z","tX":947,"tY":601,"tags":{"name":"Woolgoolga Lakeside Holiday Park"}},"256277229":{"location":[-29.9834407,153.2302337],"ct":"AU","tp":"CS","ts":"2024-05-27T05:59:35Z","tX":947,"tY":601,"tags":{"addr:housenumber":"1","addr:state":"NSW","addr:street":"Lawson Street","addr:suburb":"Red Rock","caravans":"yes","dog":"yes","email":"RedRock@reflectionsholidays.com.au","fax":"+61 2 6649 2730","name":"Reflections Red Rock - Holiday Park","operator":"Reflections Holidays","phone":"+61 2 6649 2730","power_supply":"yes","static_caravans":"yes","tents":"yes","website":"https://reflectionsholidays.com.au/parks/red-rock"}},"280214269":{"location":[-30.1083984,153.1961301],"ct":"AU","tp":"CR","ts":"2024-01-19T01:59:01Z","tX":947,"tY":601,"tags":{"drinking_water":"yes","fee":"yes","name":"Sunset Caravan Park","power_supply":"yes","sanitary_dump_station":"yes","toilets":"yes","website":"https://sunsetcaravanpark.com.au"}},"280457206":{"location":[-30.1096945,153.201349],"ct":"AU","tp":"CR","ts":"2024-07-02T22:29:10Z","tX":947,"tY":601,"tags":{"addr:city":"Woolgoolga","addr:housenumber":"12","addr:postcode":"2456","addr:street":"Wharf Street","contact:phone":"+61 2 6654 1373","name":"Woolgoolga Beach HolidayPark"}},"293804054":{"location":[-30.0482921,153.1899108],"ct":"AU","tp":"CR","ts":"2023-07-04T02:12:56Z","tX":947,"tY":601,"tags":{"fee":"yes","name":"Darlington Beach Resort","source":"Bing","toilets":"yes","website":"https://www.nrmaholidayparks.com.au/darlingtonbeach/"}},"293804400":{"location":[-30.0432504,153.1903714],"ct":"AU","tp":"CR","ts":"2017-05-04T04:12:38Z","tX":947,"tY":601,"tags":{"source":"Bing"}},"293941865":{"location":[-30.0284919,153.2017035],"ct":"AU","tp":"CR","ts":"2024-05-27T00:23:49Z","tX":947,"tY":601,"tags":{"addr:housenumber":"93","addr:postcode":"2456","addr:street":"Pacific Street","brand":"Reflections Holiday Parks","drinking_water":"yes","email":"CorindiBeach@reflectionsholidays.com.au","fee":"yes","name":"Reflections Corindi Beach - Holiday Park","phone":"+61 2 6649 2803","power_supply":"yes","sanitary_dump_station":"yes","toilets":"yes","website":"https://reflectionsholidays.com.au/parks/corindi-beach"}},"396491193":{"location":[-29.9453468,153.2567525],"ct":"AU","tp":"CS","ts":"2023-03-07T06:22:35Z","tX":947,"tY":601,"tags":{"name":"Pebbly Beach Camp Ground","operator":"NSW National Parks and Wildlife Service","operator:wikidata":"Q108872274","source":"survey","website":"https://www.nationalparks.nsw.gov.au/camping-and-accommodation/campgrounds/pebbly-beach-campground-yuraygir-national-park"}},"1244865867":{"location":[-29.9511326,153.2468212],"ct":"AU","tp":"CS","ts":"2024-01-31T10:13:30Z","tX":947,"tY":601,"tags":{"name":"Station Creek Campground"}},"1811177122":{"location":[-30.05222,152.97389],"ct":"AU","tp":"CS","ts":"2023-11-26T04:11:59Z","tX":947,"tY":601,"tags":{"access":"customers","addr:postcode":"2450","addr:state":"NSW","addr:street":"Bridge Street","addr:suburb":"Glenreagh","caravans":"yes","fee":"yes","kitchen":"yes","laundry":"yes","maxstay":"50 Days","name":"Glenreagh Recreation Reserve","operator":"Glenreagh Public Recreation Reserve Trust","phone":"+61 428 582 314","power_supply":"yes","sanitary_dump_station":"yes","shower":"yes","static_caravans":"no","tents":"yes","toilets":"yes"}},"8588171580":{"location":[-30.1298275,153.0185366],"ct":"AU","tp":"CS","ts":"2021-04-02T23:02:13Z","tX":947,"tY":601,"tags":{"name":"Nana Glen Equestrian Camping"}},"10999669800":{"location":[-30.0231171,153.1997604],"ct":"AU","tp":"CS","ts":"2023-06-23T00:22:15Z","tX":947,"tY":601,"tags":{"access":"yes","capacity:persons":"30","caravans":"yes","name":"Corindi Beach Reserve Campground","static_caravans":"yes","tents":"yes"}},"10110690082":{"location":[-30.0525063,152.9731854],"ct":"AU","tp":"SD","ts":"2024-05-10T01:06:06Z","tX":947,"tY":601,"tags":{"access":"yes"}}}