{"310192336":{"location":[-30.3736348,153.097983],"ct":"AU","tp":"CR","ts":"2022-11-09T09:35:52Z","tX":947,"tY":602,"tags":{"name":"Sawtell Beach Holiday Park"}},"311379070":{"location":[-30.2101796,153.1567639],"ct":"AU","tp":"CS","ts":"2024-06-06T10:56:00Z","tX":947,"tY":602,"tags":{"addr:housenumber":"50","addr:postcode":"2450","addr:state":"NSW","addr:street":"Moonee Beach Road","addr:suburb":"Moonee Beach","caravans":"yes","email":"MooneeBeach@reflectionsholidays.com.au","name":"Reflections Moonee Beach - Holiday Park","phone":"+61 2 6653 6552","static_caravans":"yes","tents":"yes","website":"https://reflectionsholidays.com.au/parks/moonee-beach/"}},"311379071":{"location":[-30.2284904,153.1526426],"ct":"AU","tp":"CR","ts":"2020-03-10T23:00:31Z","tX":947,"tY":602,"tags":{"addr:housenumber":"48","addr:street":"Split Solitary Road","addr:suburb":"Sapphire Beach","name":"Sapphire Beach Holiday Park"}},"353149948":{"location":[-30.4392281,153.0201358],"ct":"AU","tp":"CS","ts":"2021-02-11T07:19:29Z","tX":947,"tY":602,"tags":{"name":"Bellinger River Tourist Park"}},"371875713":{"location":[-30.2936862,153.135847],"ct":"AU","tp":"CR","ts":"2025-05-25T23:55:37Z","tX":947,"tY":602,"tags":{"addr:housenumber":"1","addr:street":"Ocean Parade","brand":"Big 4 Holiday Parks","brand:short":"Big4","brand:wikidata":"Q18636678","cabins":"yes","caravans":"yes","name":"Big 4 Park Beach Holiday Park","phone":"+61 2 6648 4888","power_supply":"yes","sanitary_dump_station":"yes","short_name":"Big4","tents":"yes","website":"https://www.big4.com.au/caravan-parks/nsw/north-coast/park-beach-holiday-park"}},"543860833":{"location":[-30.269192,153.1323159],"ct":"AU","tp":"CR","ts":"2021-05-13T06:12:45Z","tX":947,"tY":602,"tags":{"name":"Bananacoast Caravan Park","website":"https://bananacoastcaravanpark.com"}},"608018753":{"location":[-30.2932587,153.1179429],"ct":"AU","tp":"CS","ts":"2025-04-27T09:41:57Z","tX":947,"tY":602,"tags":{"access":"customers","addr:housenumber":"123","addr:postcode":"2450","addr:state":"NSW","addr:street":"Pacific Highway","addr:suburb":"Coffs Harbour","caravans":"yes","charging":"yes","email":"CoffsHarbour@reflectionsholidays.com.au","name":"Reflections Coffs Harbour - Holiday Park","phone":"+61 2 6652 1694","power_supply":"yes","static_caravans":"yes","tents":"yes","website":"https://reflectionsholidays.com.au/parks/coffs-harbour/"}},"902822004":{"location":[-30.3306782,153.0829232],"ct":"AU","tp":"CR","ts":"2021-02-01T22:07:41Z","tX":947,"tY":602,"tags":{"name":"Koala Villas and Caravan Park"}},"1370114423":{"location":[-30.4011249,153.0237894],"ct":"AU","tp":"CS","ts":"2025-03-21T22:29:15Z","tX":947,"tY":602,"tags":{"caravans":"yes","fee":"yes","motorhome":"yes","name":"Bonville Camp Ground","openfire":"yes","tents":"yes","toilets":"yes","website":"https://www.hipcamp.com/en-US/land/new-south-wales-bonville-camp-ground-nelh6oym?adults=1&children=0&srid=53d2794a-bf09-46e2-bf1d-20c63042016f"}},"1811168381":{"location":[-30.19944,153.01639],"ct":"AU","tp":"CS","ts":"2022-10-20T12:48:50Z","tX":947,"tY":602,"tags":{"name":"Coramba Recreation Reserve - Overnight"}},"2007666509":{"location":[-30.3538332,153.1013362],"ct":"AU","tp":"CR","ts":"2014-11-01T02:52:06Z","tX":947,"tY":602,"tags":{"name":"Boambee Waters Caravan Park"}},"3589181641":{"location":[-30.4390029,153.0208353],"ct":"AU","tp":"CR","ts":"2015-06-12T06:06:07Z","tX":947,"tY":602,"tags":{"name":"Bellinger River Tourist Park"}},"11029469266":{"location":[-30.293524,153.1360372],"ct":"AU","tp":"SD","ts":"2023-07-06T06:10:42Z","tX":947,"tY":602,"tags":{"access":"customers","fee":"no","operator":"Big 4 Park Beach Holiday Park","water_point":"no"}}}