{"190136655":{"location":[-30.7068852,152.9442261],"ct":"AU","tp":"CR","ts":"2012-11-11T02:06:23Z","tX":947,"tY":603,"tags":{"name":"Nambucca River Tourist Park"}},"196701615":{"location":[-30.7438012,152.9901392],"ct":"AU","tp":"CS","ts":"2012-12-16T16:18:42Z","tX":947,"tY":603,"tags":{"name":"Christian Youth Centre"}},"196705099":{"location":[-30.7458827,152.9947838],"ct":"AU","tp":"CS","ts":"2024-06-02T07:40:32Z","tX":947,"tY":603,"tags":{"addr:housenumber":"12","addr:postcode":"2447","addr:state":"NSW","addr:street":"Adin Street","addr:suburb":"Scotts Head","caravans":"yes","email":"ScottsHead@reflectionsholidays.com.au","name":"Reflections Scotts Head - Holiday Park","operator":"Reflections Holidays","phone":"+61 2 6569 8122","static_caravans":"yes","tents":"yes","website":"https://reflectionsholidays.com.au/parks/scotts-head/"}},"219867217":{"location":[-30.4963348,153.022944],"ct":"AU","tp":"CS","ts":"2025-03-04T01:17:17Z","tX":947,"tY":603,"tags":{"addr:housenumber":"2","addr:postcode":"2455","addr:street":"Morgo Street","addr:suburb":"Urunga","cabins":"yes","caravans":"yes","fee":"yes","motorhome":"yes","name":"Reflections Urunga - Holiday Park","operator":"Reflections Holidays","phone":"+61 2 6655 6355","tents":"yes","website":"https://reflectionsholidays.com.au/parks/urunga/"}},"295230664":{"location":[-30.4964235,153.0225869],"ct":"AU","tp":"CR","ts":"2016-08-05T09:08:42Z","tX":947,"tY":603,"tags":{"fee":"yes","name":"North Coast Holiday Parks Urunga Heads","operator":"North Coast Holiday Parks","source:name":"voice"}},"303941492":{"location":[-30.6472954,153.0140479],"ct":"AU","tp":"CR","ts":"2023-09-08T23:52:24Z","tX":947,"tY":603,"tags":{"name":"Ingenia Holidays - White Albatross","power_supply":"yes"}},"345716008":{"location":[-30.6373497,153.0137889],"ct":"AU","tp":"CS","ts":"2025-01-24T10:40:00Z","tX":947,"tY":603,"tags":{"access":"customers","addr:housenumber":"50","addr:street":"Liston Street","caravans":"yes","email":"NambuccaHeads@reflectionsholidays.com.au","name":"Reflections Nambucca Heads - Holiday Park","operator":"Reflections Holidays","phone":"+61 2 6568 6547","static_caravans":"yes","tents":"yes","website":"https://reflectionsholidays.com.au/parks/nambucca-heads/"}},"345718720":{"location":[-30.4812925,153.0043359],"ct":"AU","tp":"CR","ts":"2015-05-17T14:41:48Z","tX":947,"tY":603,"tags":{"name":"Urunga Waters Tourist Park","source":"Bing"}},"353146076":{"location":[-30.4630311,153.0465534],"ct":"AU","tp":"CR","ts":"2024-05-08T06:28:34Z","tX":947,"tY":603,"tags":{"addr:housenumber":"30","addr:postcode":"2454","addr:state":"NSW","addr:street":"Beach Parade","addr:suburb":"Mylestom","email":"Mylestom@reflectionsholidays.com.au","name":"Reflections Mylestom - Holiday Park","operator":"Reflections Holidays","power_supply":"yes","website":"https://reflectionsholidays.com.au/parks/mylestom/"}},"380919070":{"location":[-30.6501061,152.9979954],"ct":"AU","tp":"CR","ts":"2024-05-20T01:23:50Z","tX":947,"tY":603,"tags":{"drinking_water":"yes","fee":"yes","name":"Foreshore Caravan Park","power_supply":"yes","sanitary_dump_station":"yes","toilets":"yes"}},"383410111":{"location":[-30.6042517,153.0050864],"ct":"AU","tp":"CR","ts":"2022-12-11T20:28:08Z","tX":947,"tY":603,"tags":{"name":"Valla Beach Resort"}},"383412033":{"location":[-30.6289298,153.0118174],"ct":"AU","tp":"CR","ts":"2025-06-10T01:05:49Z","tX":947,"tY":603,"tags":{"addr:housenumber":"26","addr:postcode":"2448","addr:state":"NSW","addr:street":"Swimming Creek Road","addr:suburb":"Nambucca Heads","brand":"Big 4 Holiday Parks","brand:short":"Big4","brand:wikidata":"Q18636678","email":"nambucca@tasmanholidayparks.com","fee":"yes","internet_access":"wlan","internet_access:fee":"customers","internet_access:ssid":"Big 4 Wifi","name":"Tasman Holiday Parks - Nambucca Heads","operator":"Big 4","phone":"+61 2 6568 6120","reservation":"recommended","sanitary_dump_station":"yes","smoking":"outside","website":"https://tasmanholidayparks.com/"}},"410044828":{"location":[-30.6790009,152.9752713],"ct":"AU","tp":"CR","ts":"2012-11-11T05:25:09Z","tX":947,"tY":603,"tags":{"name":"Pelican Caravan Park","source":"GPS","tents":"yes"}},"450325197":{"location":[-30.6597358,153.0046446],"ct":"AU","tp":"CS","ts":"2016-10-31T10:13:51Z","tX":947,"tY":603,"tags":{"leisure":"firepit","name":"First Bay Camping Area","openfire":"yes"}},"450325199":{"location":[-30.6690314,152.9989476],"ct":"AU","tp":"CS","ts":"2016-10-31T10:13:51Z","tX":947,"tY":603,"tags":{"name":"Second Bay Camping Area"}},"934919991":{"location":[-30.6534159,152.9887235],"ct":"AU","tp":"CR","ts":"2023-09-08T10:33:01Z","tX":947,"tY":603,"tags":{"name":"Aukaka Caravan Park"}},"1301238912":{"location":[-30.5203688,153.0249614],"ct":"AU","tp":"CS","ts":"2024-07-14T05:47:55Z","tX":947,"tY":603,"tags":{"access":"customers","cabins":"only","caravans":"no","fee":"yes","name":"Reflections Hungry Head Holiday Park","operator":"Reflections Holidays","phone":"+61 2 6655 6355","static_caravans":"no","tents":"no","website":"https://reflectionsholidays.com.au/parks/hungry-head/"}},"1811163574":{"location":[-30.4726145,152.9346737],"ct":"AU","tp":"CS","ts":"2015-06-05T05:32:21Z","tX":947,"tY":603,"tags":{"name":"Burdett Park"}},"1811177598":{"location":[-30.7079707,152.9830832],"ct":"AU","tp":"CS","ts":"2016-10-31T10:30:15Z","tX":947,"tY":603,"tags":{"name":"Gumma Reserve"}},"3589132593":{"location":[-30.5017068,153.0211505],"ct":"AU","tp":"SD","ts":"2024-02-20T23:51:49Z","tX":947,"tY":603,"tags":{"access":"yes","name":"Motor Home Blackwater Dump-Ezy"}},"10143664380":{"location":[-30.6443069,153.0010229],"ct":"AU","tp":"CS","ts":"2023-11-05T02:31:55Z","tX":947,"tY":603,"tags":{"access":"customers","maxstay":"24 hours","name":"Nambucca Heads Bowling Club 24 Hr SC RV parking","operator":"Nambucca Heads Bowling Club","tents":"no"}},"5866700781":{"location":[-30.4966662,153.0224176],"ct":"AU","tp":"SD","ts":"2018-08-30T00:32:03Z","tX":947,"tY":603,"tags":{"access":"customers"}},"10143664379":{"location":[-30.6440669,153.0011317],"ct":"AU","tp":"SD","ts":"2022-10-31T18:41:19Z","tX":947,"tY":603,"tags":{}},"11517871086":{"location":[-30.6058764,153.0049814],"ct":"AU","tp":"SD","ts":"2024-01-15T01:00:27Z","tX":947,"tY":603,"tags":{"access":"customers","fee":"no","water_point":"yes"}},"11951421620":{"location":[-30.7460532,152.9950372],"ct":"AU","tp":"SD","ts":"2024-06-02T07:28:38Z","tX":947,"tY":603,"tags":{}}}