{"189773255":{"location":[-37.845726,140.7682835],"ct":"AU","tp":"CR","ts":"2024-01-20T02:17:25Z","tX":912,"tY":628,"tags":{"addr:city":"Mount Gambier","addr:country":"AU","addr:housenumber":"Lot 100","addr:postcode":"5290","addr:state":"SA","addr:street":"Bay Road","email":"info@bluelake.com.au","name":"Blue Lake Holiday Park","phone":"+61 8 8725 9856","website":"https://bluelake.com.au"}},"316601323":{"location":[-37.8463541,140.9205051],"ct":"AU","tp":"CS","ts":"2015-08-22T10:30:34Z","tX":912,"tY":628,"tags":{"name":"Kromelite Road Rest Area"}},"342488807":{"location":[-37.8048639,140.7934724],"ct":"AU","tp":"CR","ts":"2024-10-07T02:42:04Z","tX":912,"tY":628,"tags":{"addr:street":"Penola Road","fee":"yes","name":"Kalganyi Holiday Park","phone:AU":"1800 651 746","website":"https://www.kalganyi.com.au/"}},"856987896":{"location":[-37.8560581,140.7628383],"ct":"AU","tp":"CR","ts":"2023-12-25T19:20:30Z","tX":912,"tY":628,"tags":{"addr:city":"Mount Gambier","addr:country":"AU","addr:housenumber":"2-16","addr:postcode":"5290","addr:state":"SA","addr:street":"Kilsby Road","addr:suburb":"Moorak","drinking_water":"yes","fee":"yes","internet_access":"wlan","internet_access:fee":"customers","name":"Pine Country Caravan Park","phone":"+61 8 8725 1899","power_supply":"yes","sanitary_dump_station":"yes","start_date":"1972","toilets":"yes","website":"https://pinecountry.com.au","wheelchair":"yes"}},"1427891995":{"location":[-37.8469505,140.8388912],"ct":"AU","tp":"CR","ts":"2011-09-09T10:57:02Z","tX":912,"tY":628,"tags":{}},"1811187675":{"location":[-37.8378702,140.7976218],"ct":"AU","tp":"CS","ts":"2014-11-02T22:29:42Z","tX":912,"tY":628,"tags":{"name":"Mt Gambier Showgrounds"}},"3287567785":{"location":[-37.8414884,140.8232779],"ct":"AU","tp":"CR","ts":"2015-01-14T13:28:26Z","tX":912,"tY":628,"tags":{"name":"Limestone Coast Tourist Park"}},"11280806431":{"location":[-37.9935923,140.9659651],"ct":"AU","tp":"CS","ts":"2023-10-22T06:46:48Z","tX":912,"tY":628,"tags":{"name":"Dry Creek"}},"6208779285":{"location":[-37.8308337,140.7852168],"ct":"AU","tp":"CR","ts":"2019-10-10T10:29:07Z","tX":912,"tY":628,"tags":{"addr:housenumber":"6","addr:postcode":"5290","addr:street":"Krummel Street","email":"stay@mgccp.com.au","internet_access":"wlan","name":"Mt Gambier Central Caravan Park","phone":"+61 8 8725 4427","website":"http://mountgambiercentralcaravanpark.com.au"}},"6248777086":{"location":[-37.8308161,140.784805],"ct":"AU","tp":"CR","ts":"2019-01-31T08:39:31Z","tX":912,"tY":628,"tags":{"internet_access":"wlan","name":"Mount Gambier Caravan Park"}}}