{"181199413":{"location":[48.7570913,-113.4341187],"ct":"US","tp":"CR","ts":"2022-12-14T00:23:11Z","tX":189,"tY":352,"tags":{"brand":"KOA","brand:wikidata":"Q16988635","fee":"yes","name":"St Mary/East Glacier KOA Holiday","short_name":"KOA"}},"181282287":{"location":[48.7528899,-113.4425933],"ct":"US","tp":"CS","ts":"2012-09-16T23:11:28Z","tX":189,"tY":352,"tags":{"name":"Saint Mary Campground","operator":"NPS"}},"615890096":{"location":[48.6943951,-113.5206154],"ct":"US","tp":"CS","ts":"2025-03-31T17:12:06Z","tX":189,"tY":352,"tags":{"name":"Rising Sun Campground","source":"NPS map"}},"963033574":{"location":[48.8468586,-113.4071493],"ct":"US","tp":"CS","ts":"2021-07-09T21:13:10Z","tX":189,"tY":352,"tags":{"addr:city":"Babb","addr:housenumber":"State Highway 464","addr:postcode":"59411","addr:state":"MT","addr:street":"Duck Lake Road","name":"Leaning Tree Caf√© and Campground"}},"967712021":{"location":[48.82825,-113.4204171],"ct":"US","tp":"CS","ts":"2021-07-27T02:38:11Z","tX":189,"tY":352,"tags":{"name":"Chewing Backbones Campground"}},"1197731480":{"location":[48.7489727,-113.4291559],"ct":"US","tp":"CR","ts":"2023-08-13T16:03:35Z","tX":189,"tY":352,"tags":{"cabins":"yes","name":"Heart of Glacier RV Park & Cabins","website":"https://heartofglacierrvpark.weebly.com/"}},"6984470566":{"location":[48.8622845,-113.3259625],"ct":"US","tp":"CS","ts":"2025-01-13T00:16:34Z","tX":189,"tY":352,"tags":{"addr:city":"Babb","addr:housenumber":"464","addr:postcode":"59411","addr:state":"MT","addr:street":"Duck Lake Road","caravans":"yes","fee":"yes","name":"Duck Lake Campground","operator":"Blackfeet Tribal Campgrounds","power_supply":"yes","tents":"yes"}},"9912577988":{"location":[48.914845,-113.4368237],"ct":"US","tp":"CS","ts":"2022-07-26T14:11:58Z","tX":189,"tY":352,"tags":{"name":"Glacier Elkhorn Cabins & Campground"}},"5422897154":{"location":[48.750629,-113.424158],"ct":"US","tp":"CR","ts":"2023-11-15T18:29:42Z","tX":189,"tY":352,"tags":{"addr:city":"St Mary","addr:housenumber":"21","addr:postcode":"59417","addr:state":"MT","addr:street":"Red Eagle Road","name":"Johnson's Campground and RV Park","website":"https://johnsonsofstmary.squarespace.com/rvandcamping"}}}