{"1283757452":{"location":[47.0025964,-113.3675505],"ct":"US","tp":"SD","ts":"2024-05-16T21:53:36Z","tX":189,"tY":360,"tags":{"access":"yes","addr:city":"Greenough","addr:housenumber":"Mile 32","addr:postcode":"59823","addr:state":"MT","addr:street":"MT-200","operator":"Montana Department of Transportation"}},"3922364751":{"location":[47.0210032,-113.3896042],"ct":"US","tp":"CS","ts":"2016-01-01T18:52:28Z","tX":189,"tY":360,"tags":{"name":"Harpers Lake","source":"USGS;Bing"}},"12076058963":{"location":[46.9510149,-113.5375447],"ct":"US","tp":"CS","ts":"2024-07-26T22:16:20Z","tX":189,"tY":360,"tags":{"name":"Corricks Riverbend Campground"}},"12076072558":{"location":[46.9438867,-113.5036013],"ct":"US","tp":"CS","ts":"2024-07-26T22:20:29Z","tX":189,"tY":360,"tags":{"name":"Ninemile Prairie Camground"}},"12076084621":{"location":[47.0232987,-113.307127],"ct":"US","tp":"CS","ts":"2024-07-26T22:50:45Z","tX":189,"tY":360,"tags":{"name":"Russell Gates Memorial Campground"}},"12076088723":{"location":[47.0005701,-113.3811409],"ct":"US","tp":"CS","ts":"2024-07-26T22:32:18Z","tX":189,"tY":360,"tags":{"name":"Clearwater Crossing Campground"}}}