{"160218747":{"location":[37.2239603,-113.4047865],"ct":"US","tp":"CS","ts":"2025-06-12T22:55:16Z","tX":189,"tY":397,"tags":{"access":"yes","addr:city":"Hurricane","addr:postcode":"84737","addr:state":"UT","bbq":"yes","camp_site":"standard","caravans":"yes","drinking_water":"yes","fee":"yes","name":"Red Cliffs Campground","openfire":"yes","operator":"Bureau of Land Management","power_supply":"no","shower":"no","tents":"yes","toilets":"yes","website":"https://www.blm.gov/visit/red-cliffs-campground"}},"160219612":{"location":[37.1856221,-113.3961977],"ct":"US","tp":"CR","ts":"2024-11-03T03:28:09Z","tX":189,"tY":397,"tags":{"addr:city":"Hurricane","addr:housenumber":"451","addr:postcode":"84737","addr:state":"UT","addr:street":"North 5300 West","name":"Quail Creek Campground","power_supply":"yes","sanitary_dump_station":"no","shower":"yes","tents":"yes","toilets":"yes","website":"https://stateparks.utah.gov/parks/quail-creek"}},"169303922":{"location":[37.1705317,-113.3712292],"ct":"US","tp":"CR","ts":"2023-10-14T17:06:37Z","tX":189,"tY":397,"tags":{"access":"private","addr:city":"Hurricane","addr:housenumber":"150","addr:postcode":"84737","addr:state":"UT","addr:street":"North 3700 West","email":"zionsgaterv@gmail.com","fee":"yes","name":"Zions Gate RV Resort","phone":"+1-801-518-1784","power_supply":"yes","sanitary_dump_station":"yes","shower":"yes","source":"Bing","toilets":"yes","website":"https://www.camplife.com/campground/Zions+Gate+RV+Resort"}},"283053730":{"location":[37.1695448,-113.3884131],"ct":"US","tp":"CS","ts":"2019-11-18T15:01:20Z","tX":189,"tY":397,"tags":{"access":"private","internet_access":"no","name":"Boy Scout Campsite","operator":"Boy Scouts of America"}},"334161195":{"location":[37.3728375,-113.4657617],"ct":"US","tp":"CS","ts":"2025-02-21T00:21:23Z","tX":189,"tY":397,"tags":{"name":"Crackfoot Campground","operator":"United States Forest Service","source":"Bing","website":"https://www.fs.usda.gov/recarea/dixie/recarea/?recid=71883"}},"334161196":{"location":[37.3775081,-113.4755602],"ct":"US","tp":"CS","ts":"2025-02-21T00:49:59Z","tX":189,"tY":397,"tags":{"name":"Dean Gardner Campground","operator":"United States Forest Service","website":"https://www.fs.usda.gov/recarea/dixie/recarea/?recid=71882"}},"334161197":{"location":[37.3738327,-113.460893],"ct":"US","tp":"CS","ts":"2025-02-21T01:12:43Z","tX":189,"tY":397,"tags":{"name":"Ebenezer Bryce Campground","operator":"United States Forest Service","website":"https://www.fs.usda.gov/recarea/dixie/recreation/camping-cabins/recarea/?recid=24792"}},"334161198":{"location":[37.3754323,-113.4666089],"ct":"US","tp":"CS","ts":"2025-02-21T00:21:23Z","tX":189,"tY":397,"tags":{"group_only":"yes","name":"Effie Beckstrom Group Campgrounds","operator":"United States Forest Service","website":"https://www.fs.usda.gov/recarea/dixie/recreation/camping-cabins/recarea/?recid=71845"}},"334161199":{"location":[37.3795968,-113.4835847],"ct":"US","tp":"CS","ts":"2025-02-21T04:24:18Z","tX":189,"tY":397,"tags":{"name":"Equestrian Campground","operator":"USFS","source":"Bing","website":"https://www.fs.usda.gov/recarea/dixie/recreation/horseriding-camping/recarea/?recid=24806"}},"334161203":{"location":[37.3755899,-113.4558674],"ct":"US","tp":"CS","ts":"2025-02-20T22:54:43Z","tX":189,"tY":397,"tags":{"name":"Mitt Moody Campground","operator":"United States Forest Service","website":"https://www.fs.usda.gov/recarea/dixie/recreation/camping-cabins/recarea/?recid=71884"}},"334161210":{"location":[37.3799359,-113.480004],"ct":"US","tp":"CS","ts":"2025-02-21T04:24:18Z","tX":189,"tY":397,"tags":{"name":"Yellow Pine Loop","operator":"United States Forest Service","website":"https://www.fs.usda.gov/recarea/dixie/recarea/?recid=71844"}},"724069146":{"location":[37.205005,-113.3932537],"ct":"US","tp":"CR","ts":"2025-02-19T04:12:25Z","tX":189,"tY":397,"tags":{"access":"customers","addr:city":"Hurricane","addr:housenumber":"5800","addr:postcode":"84737","addr:state":"UT","addr:street":"North Highway 91","brand":"KOA","brand:wikidata":"Q16988635","camp_site":"deluxe","caravans":"yes","email":"stgeorge_mgr@equitylifestyle.com","fee":"yes","internet_access":"wlan","name":"St. George/Hurricane KOA","operator":"KOA","payment:cash":"yes","payment:credit_cards":"yes","phone":"+1-435-879-2212","power_supply":"yes","reservation":"required","short_name":"KOA","shower":"yes","source":"aerial imagery;streetlevel imagery;website","tents":"yes","toilets":"yes","website":"https://koa.com/campgrounds/st-george/","wheelchair":"yes"}},"746678854":{"location":[37.2326271,-113.3626237],"ct":"US","tp":"CR","ts":"2023-10-14T17:50:02Z","tX":189,"tY":397,"tags":{"addr:city":"Leeds","addr:housenumber":"97","addr:postcode":"84746","addr:state":"UT","addr:street":"South Valley Road","camp_site":"deluxe","description":"RV park, motel, campground","fee":"yes","internet_access":"wlan","laundry_service":"yes","name":"Leeds RV Park and Motel","opening_hours":"Mo-Fr 09:00-17:00; Sa 09:00-12:00","phone":"+1-435-879-2450","power_supply":"yes","reservation":"required","sanitary_dump_station":"yes","shower":"yes","tents":"yes","toilets":"yes","website":"https://leedsrvpark.com"}},"849558458":{"location":[37.1745692,-113.3080839],"ct":"US","tp":"CR","ts":"2021-11-10T14:32:04Z","tX":189,"tY":397,"tags":{"addr:city":"Hurricane","addr:housenumber":"80","addr:postcode":"84737","addr:state":"UT","addr:street":"South 1150 West","capacity":"183","internet_access":"wlan","internet_access:fee":"no","laundry_service":"yes","name":"WillowWind RV Park","phone":"+1-435-635-4154","power_supply":"yes","reservation":"recommended","shower":"yes","toilets":"yes","website":"https://www.willowwindrvpark.com/"}},"1176638554":{"location":[37.1755038,-113.3321678],"ct":"US","tp":"CR","ts":"2023-05-27T18:53:21Z","tX":189,"tY":397,"tags":{"addr:city":"Hurricane","addr:country":"US","addr:housenumber":"50","addr:postcode":"84737","addr:state":"UT","addr:street":"South Rlington Parkway","internet_access":"wlan","name":"Sand Hollow RV Resort","phone":"+1-435-850-7890","power_supply":"yes","sanitary_dump_station":"yes","website":"https://www.sandhollowrv.com"}},"1215614081":{"location":[37.2315126,-113.3635805],"ct":"US","tp":"CR","ts":"2023-10-14T17:49:27Z","tX":189,"tY":397,"tags":{"addr:city":"Leeds","addr:housenumber":"175","addr:postcode":"84746","addr:state":"UT","addr:street":"South Valley Road","charge":"45 USD/night;290 USD/week","fee":"yes","internet_access":"wlan","internet_access:fee":"customers","laundry_service":"yes","name":"Zions West RV Park","phone":"+1-435-627-9004","power_supply":"yes","sanitary_dump_station":"yes","shower":"yes","tents":"yes","toilets":"yes","website":"http://zionwestrv.com"}},"1348335841":{"location":[37.2094992,-113.3912653],"ct":"US","tp":"CR","ts":"2025-01-03T20:39:39Z","tX":189,"tY":397,"tags":{}},"1361567543":{"location":[37.3766057,-113.4793977],"ct":"US","tp":"CS","ts":"2025-02-21T00:21:23Z","tX":189,"tY":397,"tags":{"group_only":"yes","name":"Thomas Forsyth Group Camping Area"}},"1378360570":{"location":[37.2783197,-113.3086818],"ct":"US","tp":"CR","ts":"2025-04-17T15:07:04Z","tX":189,"tY":397,"tags":{}},"2422613075":{"location":[37.2727556,-113.3883833],"ct":"US","tp":"CS","ts":"2024-04-24T00:07:25Z","tX":189,"tY":397,"tags":{"access":"yes","camp_site":"basic","caravans":"yes","drinking_water":"no","fee":"no","informal":"yes","internet_access":"unknown","large_vehicles":"unknown","maxlength":"unknown","mobile_reception":"unknown","name":"Oak Grove Road Primitive Campground","shower":"no","source":"http://www.boondocking.org/","tents":"yes","toilets":"no"}},"4654624909":{"location":[37.2058004,-113.331517],"ct":"US","tp":"CS","ts":"2024-04-23T23:12:13Z","tX":189,"tY":397,"tags":{"camp_site":"basic","informal":"yes","name":"Sand Cove Primitive Camp"}},"8731477161":{"location":[37.2066405,-113.3303257],"ct":"US","tp":"CS","ts":"2024-04-23T23:12:35Z","tX":189,"tY":397,"tags":{"informal":"yes","name":"Sand Cove Primitive Camp"}},"10351772912":{"location":[37.1698699,-113.396695],"ct":"US","tp":"CS","ts":"2024-04-23T23:44:35Z","tX":189,"tY":397,"tags":{"camp_site":"basic","name":"Boy Scout Camp"}},"12605491795":{"location":[37.3771612,-113.4785061],"ct":"US","tp":"CS","ts":"2025-02-21T00:21:23Z","tX":189,"tY":397,"tags":{"group_only":"yes","name":"Group Site A"}},"12605491796":{"location":[37.3769123,-113.4791472],"ct":"US","tp":"CS","ts":"2025-02-21T00:21:23Z","tX":189,"tY":397,"tags":{"group_only":"yes","name":"Group Site B"}},"12605491797":{"location":[37.3761108,-113.4786599],"ct":"US","tp":"CS","ts":"2025-02-21T00:21:23Z","tX":189,"tY":397,"tags":{"group_only":"yes","name":"Group Site C"}},"12605491798":{"location":[37.3760341,-113.4801109],"ct":"US","tp":"CS","ts":"2025-02-21T00:21:23Z","tX":189,"tY":397,"tags":{"group_only":"yes","name":"Group Site D"}},"12605530491":{"location":[37.3756818,-113.4657985],"ct":"US","tp":"CS","ts":"2025-02-21T00:21:23Z","tX":189,"tY":397,"tags":{"group_only":"yes","name":"Effie Beckstrom East Site"}},"12605530492":{"location":[37.3752618,-113.4671744],"ct":"US","tp":"CS","ts":"2025-02-21T00:21:23Z","tX":189,"tY":397,"tags":{"group_only":"yes","name":"Effie Beckstrom West Site"}}}