{"472797486":{"location":[37.1223857,-113.3851527],"ct":"US","tp":"CS","ts":"2024-08-10T18:03:27Z","tX":189,"tY":398,"tags":{"access":"customers","camp_site":"serviced","capacity":"336","caravans":"yes","charge":"$15","drinking_water":"yes","fax":"+1-435-256-6544","fee":"yes","internet_access":"no","name":"Westside Campground","opening_hours":"Apr-Sep: PH,Mo-Su 06:00-22:00; Oct-Mar: PH,Mo-Su 07:00-21:00","operator":"State of Utah","phone":"+1-435-680-0715","power_supply":"yes","sanitary_dump_station":"yes","shower":"yes","tents":"yes","toilets":"yes","website":"https://stateparks.utah.gov/parks/sand-hollow/"}},"472797489":{"location":[37.1000732,-113.3698859],"ct":"US","tp":"CS","ts":"2021-11-10T14:45:27Z","tX":189,"tY":398,"tags":{"access":"customers","camp_site":"serviced","capacity":"700","caravans":"yes","charge":"$15","drinking_water":"yes","ele":"3000'","fax":"+1-435-256-6544","fee":"yes","internet_access":"no","maxlength":"60'","name":"Sand Pit Campground","opening_hours":"Apr-Sep: PH,Mo-Su 06:00-22:00; Oct-Mar: PH,Mo-Su 07:00-21:00","operator":"State of Utah","phone":"+1-435-680-0715","power_supply":"yes","reservation":"yes","sanitary_dump_station":"no","shower":"yes","tents":"yes","toilets":"yes","website":"https://stateparks.utah.gov/parks/sand-hollow/"}},"851620180":{"location":[37.1232032,-113.5376682],"ct":"US","tp":"CR","ts":"2023-10-15T02:42:18Z","tX":189,"tY":398,"tags":{"addr:city":"Saint George","addr:housenumber":"2100","addr:postcode":"84770","addr:state":"UT","addr:street":"East Middleton Drive","charge":"75 USD/night;360 USD/week","fee":"yes","name":"St. George RV Park and Campground","phone":"+1-435-673-2970","power_supply":"yes","sanitary_dump_station":"yes","shower":"yes","website":"https://www.stgeorgervpark.com"}},"1030800723":{"location":[37.0112286,-113.5071372],"ct":"US","tp":"CR","ts":"2022-02-12T22:25:09Z","tX":189,"tY":398,"tags":{}},"1038067177":{"location":[37.1421919,-113.4980961],"ct":"US","tp":"CR","ts":"2023-10-14T17:56:54Z","tX":189,"tY":398,"tags":{"addr:city":"Washington","addr:housenumber":"720","addr:postcode":"84780","addr:state":"UT","addr:street":"Merit Way","capacity":"80","charge":"USD 59/night;USD 325/week","fee":"yes","internet_access":"wlan","internet_access:fee":"customers","name":"Southern Utah RV Resort","name:de":"Südliches Utah RV Urlaubsort","name:ja":"南ユタRVリゾート","power_supply":"yes","sanitary_dump_station":"yes","shower":"yes","toilets":"yes","website":"https://southernutrv.com"}},"1211130618":{"location":[37.1416769,-113.4883952],"ct":"US","tp":"CR","ts":"2023-10-14T17:58:38Z","tX":189,"tY":398,"tags":{"addr:city":"Washington","addr:housenumber":"1355","addr:postcode":"84780","addr:state":"UT","addr:street":"East Bluff View Drive","charge":"69 USD/night;360 USD/week","fee":"yes","internet_access":"wlan","internet_access:fee":"customers","name":"Settlers Point Luxury RV Resort","phone":"+1-435-236-7458","power_supply":"yes","sanitary_dump_station":"yes","shower":"yes","toilets":"yes","website":"https://www.settlerspointluxuryrvresort.com"}},"1378356798":{"location":[37.1569634,-113.3833466],"ct":"US","tp":"CR","ts":"2025-04-17T14:54:37Z","tX":189,"tY":398,"tags":{}},"10208005746":{"location":[37.0517455,-113.3137826],"ct":"US","tp":"CS","ts":"2022-11-21T18:48:21Z","tX":189,"tY":398,"tags":{"backcountry":"yes"}},"5001184044":{"location":[37.1202926,-113.3873976],"ct":"US","tp":"SD","ts":"2017-07-29T08:21:58Z","tX":189,"tY":398,"tags":{"access":"customers","water_point":"yes"}},"11272947270":{"location":[37.1450517,-113.4864867],"ct":"US","tp":"SD","ts":"2023-10-18T19:34:13Z","tX":189,"tY":398,"tags":{"access":"yes","fee":"no","operator":"Maverik","water_point":"yes"}}}