{"1077819471":{"location":[43.1810641,-83.3163693],"ct":"US","tp":"CR","ts":"2022-07-11T23:03:01Z","tX":275,"tY":375,"tags":{"addr:city":"Columbiaville","addr:housenumber":"121","addr:postcode":"48421","addr:state":"MI","addr:street":"Kings Landing Drive","gnis:feature_id":"2575758","name":"Kings Landing R.V. Resort","phone":"+1-810-793-2608","website":"http://www.klkrvresort.com/"}},"1081028839":{"location":[43.132938,-83.2376876],"ct":"US","tp":"CS","ts":"2022-07-25T00:17:17Z","tX":275,"tY":375,"tags":{"name":"Lions Youth Camp"}},"2934996716":{"location":[43.2212295,-83.2910998],"ct":"US","tp":"CR","ts":"2023-11-02T13:17:52Z","tX":275,"tY":375,"tags":{"gnis:feature_id":"2575640","name":"Sutter's Recreation Area","tents":"yes","website":"https://sutterscamping.angelfire.com/"}},"2934996717":{"location":[43.2089924,-83.2184914],"ct":"US","tp":"CR","ts":"2019-02-18T09:49:38Z","tX":275,"tY":375,"tags":{"name":"Washakie Golf and RV Resort","tents":"no","website":"https://www.washakiegolfrv.com/"}}}