{"409612655":{"location":[42.9572674,-83.2574482],"ct":"US","tp":"CS","ts":"2024-04-23T11:12:14Z","tX":275,"tY":376,"tags":{"access":"private","group_only":"yes","leisure":"summer_camp","name":"D-Bar-A Scout Ranch","operator":"Boy Scouts of America","operator:type":"private","operator:wikidata":"Q608132","scout":"yes"}},"448959511":{"location":[42.866939,-83.2629491],"ct":"US","tp":"CS","ts":"2022-01-02T12:55:07Z","tX":275,"tY":376,"tags":{"addr:city":"Oxford","addr:country":"US","addr:housenumber":"1050","addr:postcode":"48371","addr:state":"MI","addr:street":"East Oakwood Road","name":"Detroit Sportsmen's Congress Campground"}},"1018783736":{"location":[42.8387393,-83.1672694],"ct":"US","tp":"CS","ts":"2022-01-06T13:05:51Z","tX":275,"tY":376,"tags":{"name":"Tee Pee Area"}},"1085612447":{"location":[42.9602302,-83.2431178],"ct":"US","tp":"CS","ts":"2022-08-11T13:52:58Z","tX":275,"tY":376,"tags":{"name":"Forester"}},"1174283353":{"location":[42.9684416,-83.2494341],"ct":"US","tp":"CS","ts":"2023-05-19T13:17:05Z","tX":275,"tY":376,"tags":{"access":"private","capacity:caravans":"17","caravans":"yes","name":"Elliott Family Camp","operator":"Scouts BSA","operator:type":"private_non_profit","operator:wikidata":"Q608132"}},"8140288631":{"location":[42.9555902,-83.2542765],"ct":"US","tp":"CS","ts":"2023-10-29T20:24:14Z","tX":275,"tY":376,"tags":{"access":"private","group_only":"yes","name":"Trailside","scout":"yes"}},"7182266542":{"location":[42.8657968,-83.2631784],"ct":"US","tp":"SD","ts":"2020-02-03T18:09:12Z","tX":275,"tY":376,"tags":{}}}