{"589535904":{"location":[42.7625785,-83.2693043],"ct":"US","tp":"CS","ts":"2024-03-06T13:14:55Z","tX":275,"tY":377,"tags":{"access":"yes","addr:city":"Orion Township","addr:housenumber":"1301","addr:postcode":"48360","addr:state":"MI","addr:street":"West Clarkston Road","description":"Former Boy Scouts of America camp, acquired in 2014 by Orion Township","name":"Camp Agawam","operator":"Orion Township","operator:wikidata":"Q7102810","website":"https://registration.orionparks.com/Facilities.aspx?id=26"}},"1169771223":{"location":[42.8104479,-83.0410447],"ct":"US","tp":"CS","ts":"2023-05-08T03:16:02Z","tX":275,"tY":377,"tags":{"name":"Simpson Park Campgrounds"}},"1174290494":{"location":[42.7384943,-83.0669432],"ct":"US","tp":"CS","ts":"2024-03-13T03:46:26Z","tX":275,"tY":377,"tags":{"access":"yes","name":"Ridgewood Campground","operator":"Huron-Clinton Metroparks","operator:wikidata":"Q12060621","phone":"+1 586-781-4242","website":"https://web1.myvscloud.com/wbwsc/mihuronclintonwt.wsc/search.html?Action=Start&display=Graphical&module=RN&primarycode=SC-Campground"}},"8588683613":{"location":[42.8092045,-83.1348298],"ct":"US","tp":"CR","ts":"2021-04-03T05:42:13Z","tX":275,"tY":377,"tags":{"addr:city":"Leonard","addr:housenumber":"505","addr:postcode":"48367","addr:state":"MI","addr:street":"Rochester Road","name":"Hidden Lake Estates"}},"7533758579":{"location":[42.7200338,-83.0783537],"ct":"US","tp":"SD","ts":"2020-05-18T18:52:20Z","tX":275,"tY":377,"tags":{}}}