{"254604521":{"location":[41.6058568,-83.1105865],"ct":"US","tp":"CR","ts":"2021-05-07T22:54:44Z","tX":275,"tY":381,"tags":{"addr:city":"Oak Harbor","addr:country":"US","addr:housenumber":"9055","addr:postcode":"43449","addr:state":"OH","addr:street":"West State Route 2","name":"Wild Wings Campground & Marina","phone":"+1-419-898-2005","website":"https://www.facebook.com/pages/Wild-Wings-Campground-Marina/167918793280782"}},"485237041":{"location":[41.6057435,-83.1369162],"ct":"US","tp":"CS","ts":"2017-04-07T01:12:56Z","tX":275,"tY":381,"tags":{"name":"Magee East Marina & Campground"}},"1093264962":{"location":[41.5132253,-83.0395146],"ct":"US","tp":"CR","ts":"2022-09-10T00:10:03Z","tX":275,"tY":381,"tags":{"addr:city":"Port Clinton","addr:housenumber":"265","addr:state":"OH","addr:street":"Meacham Road","name":"Portage View"}},"1093265584":{"location":[41.5099175,-83.0753335],"ct":"US","tp":"CS","ts":"2022-09-10T00:15:55Z","tX":275,"tY":381,"tags":{"fee":"yes","name":"Harbor Landing Campground","website":"https://harborlandingcampground.com/"}},"1218787846":{"location":[41.5428173,-83.0162186],"ct":"US","tp":"CR","ts":"2023-10-27T14:05:18Z","tX":275,"tY":381,"tags":{"name":"Camp Perry Campground"}},"7276651681":{"location":[41.6080351,-83.1216903],"ct":"US","tp":"CS","ts":"2021-09-28T19:26:25Z","tX":275,"tY":381,"tags":{"name":"Turtle Creek Campground"}}}