{"361056863":{"location":[40.1499283,-82.9729689],"ct":"US","tp":"PK","ts":"2019-12-31T15:38:17Z","tX":275,"tY":387,"tags":{"Pull_through":"yes","hgv":"yes","motorhome":"yes"}},"442755584":{"location":[39.9731721,-83.2410089],"ct":"US","tp":"CS","ts":"2009-07-17T01:55:28Z","tX":275,"tY":387,"tags":{"name":"Camp Ken-Jockety & Elam Environmental Center","scout":"girl"}},"554194474":{"location":[40.1250045,-83.0250916],"ct":"US","tp":"CS","ts":"2018-01-19T07:09:07Z","tX":275,"tY":387,"tags":{"landuse":"recreation_ground","name":"Camp Mary-Orton"}},"574120055":{"location":[39.9507889,-83.1757721],"ct":"US","tp":"CR","ts":"2024-07-15T16:27:04Z","tX":275,"tY":387,"tags":{"addr:city":"Galloway","addr:housenumber":"6552","addr:postcode":"43119","addr:state":"Ohio","addr:street":"West Broad Street","caravans":"yes","name":"Alton RV Park","phone":"+16148789127","power_supply":"yes","website":"https://altonrvpark.com/"}},"1207016595":{"location":[40.004905,-82.9944998],"ct":"US","tp":"CR","ts":"2023-11-30T15:52:02Z","tX":275,"tY":387,"tags":{"name":"Korbel North Campground","surface":"grass"}},"1207016596":{"location":[40.002339,-82.9944393],"ct":"US","tp":"CR","ts":"2023-11-30T15:52:02Z","tX":275,"tY":387,"tags":{"name":"Korbel West Campground","surface":"grass"}},"1207016597":{"location":[40.0028829,-82.9930657],"ct":"US","tp":"CR","ts":"2024-04-17T20:57:28Z","tX":275,"tY":387,"tags":{"name":"Korbel East Campground","surface":"grass"}},"3331913863":{"location":[40.0290702,-83.1687351],"ct":"US","tp":"CS","ts":"2015-02-05T13:55:50Z","tX":275,"tY":387,"tags":{"name":"Summer Camp Job"}}}