{"14730093":{"location":[35.5495947,-83.2636456],"ct":"US","tp":"CS","ts":"2022-10-25T12:07:52Z","tX":275,"tY":403,"tags":{"name":"Yogi in the Smokies"}},"173479329":{"location":[35.5437226,-83.2998707],"ct":"US","tp":"CS","ts":"2013-09-12T18:13:17Z","tX":275,"tY":403,"tags":{"fee":"yes","horse":"yes","leisure":"horse_riding","name":"Tow String Horse Camp","official_name":"Tow String Horse Camp","source":"NPS","sport":"equestrian"}},"233908081":{"location":[35.5598985,-83.3121079],"ct":"US","tp":"CS","ts":"2023-09-11T00:20:16Z","tX":275,"tY":403,"tags":{"access":"yes","caravans":"yes","fee":"yes","mobile_reception":"no","name":"Smokemont Campground","operator":"National Park Service","sanitary_dump_station":"yes","static_caravans":"no","tents":"yes","wikidata":"Q63565238"}},"237614303":{"location":[35.7282776,-83.1820789],"ct":"US","tp":"CS","ts":"2016-01-06T05:20:53Z","tX":275,"tY":403,"tags":{"backcountry":"yes","building":"hut","capacity":"12","ele":"1446","fee":"yes","horse":"yes","name":"Cosby Knob Shelter","official_name":"Cosby Knob Trail Shelter","reservation":"yes","shelter_type":"lean_to","source":"NPS"}},"237614446":{"location":[35.6653813,-83.1876869],"ct":"US","tp":"CS","ts":"2023-04-06T21:47:43Z","tX":275,"tY":403,"tags":{"backcountry":"yes","building":"hut","capacity":"14","ele":"1797","fee":"yes","name":"Laurel Gap Shelter","official_name":"Laurel Gap Trail Shelter","reservation":"yes","shelter_type":"lean_to","source":"NPS"}},"237614638":{"location":[35.6476287,-83.3074543],"ct":"US","tp":"CS","ts":"2013-09-12T03:20:16Z","tX":275,"tY":403,"tags":{"backcountry":"yes","building":"hut","capacity":"12","ele":"1613","fee":"yes","name":"Pecks Corner Shelter","official_name":"Pecks Corner Trail Shelter","reservation":"yes","shelter_type":"lean_to","source":"NPS"}},"237614978":{"location":[35.6938302,-83.2566404],"ct":"US","tp":"CS","ts":"2023-04-12T20:10:25Z","tX":275,"tY":403,"tags":{"backcountry":"yes","building":"hut","capacity":"12","ele":"1797","fee":"yes","name":"Tricorner Shelter","official_name":"Tricorner Shelter","reservation":"yes","shelter_type":"lean_to","source":"NPS","website":"https://www.nps.gov/grsm/planyourvisit/backcountry-camping.htm"}},"405056831":{"location":[35.5191689,-83.0593523],"ct":"US","tp":"CR","ts":"2016-03-22T05:40:28Z","tX":275,"tY":403,"tags":{}},"405056832":{"location":[35.5188044,-83.0608556],"ct":"US","tp":"CR","ts":"2016-03-22T05:40:28Z","tX":275,"tY":403,"tags":{}},"575441352":{"location":[35.5582892,-83.0245485],"ct":"US","tp":"CS","ts":"2018-04-02T05:37:26Z","tX":275,"tY":403,"tags":{"capacity":"7","description":"Tent Camping only, Creek side camping","fee":"yes","internet_access":"wlan","internet_access:fee":"no","landuse":"residential","operator":"Winngray Campground"}},"720713646":{"location":[35.5200775,-83.2810259],"ct":"US","tp":"CR","ts":"2021-07-04T10:10:12Z","tX":275,"tY":403,"tags":{"addr:city":"Cherokee","addr:housenumber":"2978","addr:postcode":"28719","addr:state":"NC","addr:street":"Big Cove Road","capacity":"160","name":"River Valley Campground","power_supply":"yes","sanitary_dump_station":"yes","website":"https://www.cherokeesmokies.com/rvcampground/"}},"720716303":{"location":[35.5325327,-83.282786],"ct":"US","tp":"CR","ts":"2022-10-25T12:07:52Z","tX":275,"tY":403,"tags":{"addr:city":"Cherokee","addr:housenumber":"92","addr:postcode":"28719","addr:state":"NC","addr:street":"KOA Campground Road","brand":"KOA","brand:wikidata":"Q16988635","capacity":"514","internet_access":"wlan","name":"Cherokee / Great Smokies KOA Holiday","power_supply":"yes","sanitary_dump_station":"yes","short_name":"KOA","website":"https://koa.com/campgrounds/cherokee/"}},"720914991":{"location":[35.4907217,-83.3133378],"ct":"US","tp":"CR","ts":"2019-09-01T15:00:21Z","tX":275,"tY":403,"tags":{"addr:city":"Cherokee","addr:housenumber":"1025","addr:postcode":"28719","addr:state":"NC","addr:street":"Acquoni Road","name":"Bradley's Campground"}},"721316688":{"location":[35.460989,-83.3122068],"ct":"US","tp":"CR","ts":"2024-05-25T17:27:38Z","tX":275,"tY":403,"tags":{"addr:city":"Whittier","addr:housenumber":"17","addr:postcode":"28789","addr:state":"NC","addr:street":"Old Soco Road","name":"Great Smokey Mountain RV","power_supply":"yes","sanitary_dump_station":"yes"}},"723615418":{"location":[35.471704,-83.2462062],"ct":"US","tp":"CR","ts":"2022-11-18T21:25:59Z","tX":275,"tY":403,"tags":{"addr:city":"Cherokee","addr:housenumber":"1553","addr:postcode":"28719","addr:state":"NC","addr:street":"Wolfetown Road","name":"Happy Holiday RV Village","power_supply":"yes","sanitary_dump_station":"yes","website":"https://www.happyholidayrv.com/"}},"1106824114":{"location":[35.5220451,-82.9819835],"ct":"US","tp":"CS","ts":"2022-10-25T12:07:52Z","tX":275,"tY":403,"tags":{"name":"Lake Junaluska Campground"}},"1106824157":{"location":[35.515395,-83.1882052],"ct":"US","tp":"CS","ts":"2023-04-02T22:57:28Z","tX":275,"tY":403,"tags":{"addr:street":"Mile High Road","name":"Mile High Campground - Tent Sites"}},"1106824158":{"location":[35.5131849,-83.18442],"ct":"US","tp":"CS","ts":"2022-10-25T12:07:52Z","tX":275,"tY":403,"tags":{"addr:housenumber":"346","addr:street":"Balsam Mountain Road","name":"Mile High Campground"}},"1107154603":{"location":[35.6314479,-83.085334],"ct":"US","tp":"CS","ts":"2023-09-11T00:21:33Z","tX":275,"tY":403,"tags":{"access":"yes","backcountry":"no","caravans":"yes","charge":"30 USD","drinking_water":"yes","fee":"yes","internet_access":"no","mobile_reception":"no","mobile_reception:strength":"none","name":"Cataloochee Campground","nudism":"no","official_name":"Cataloochee Campground","openfire":"yes","power_supply":"no","reservation":"yes","shower":"no","source":"NPS","static_caravans":"no","tents":"yes","toilets":"yes","website":"https://www.recreation.gov/camping/campgrounds/233284","wikidata":"Q63564924"}},"1107154604":{"location":[35.565439,-83.1746293],"ct":"US","tp":"CS","ts":"2023-09-11T00:14:46Z","tX":275,"tY":403,"tags":{"access":"yes","backcountry":"no","caravans":"yes","charge":"30 USD","drinking_water":"yes","fee":"yes","internet_access":"no","mobile_reception":"limited","mobile_reception:strength":"issues","name":"Balsam Mountain Campground","nudism":"no","official_name":"Balsam Mountain Campground","openfire":"yes","picnic_table":"yes","power_supply":"no","reservation":"yes","sanitary_dump_station":"no","shower":"no","source":"NPS","start_date":"2023-06-17","static_caravans":"no","tents":"yes","toilets":"yes","wheelchair":"yes","wikidata":"Q63564672"}},"1112531955":{"location":[35.4987146,-83.3035235],"ct":"US","tp":"CR","ts":"2022-11-12T17:44:12Z","tX":275,"tY":403,"tags":{"name":"Cherokee Riverfront RV Park","power_supply":"yes"}},"1287789861":{"location":[35.4693333,-83.3111277],"ct":"US","tp":"CS","ts":"2024-05-29T19:54:43Z","tX":275,"tY":403,"tags":{"addr:city":"Cherokee","addr:housenumber":"91","addr:postcode":"28719","addr:state":"NC","addr:street":"Cherokee Campground Road"}},"1788105463":{"location":[35.5841886,-83.1221777],"ct":"US","tp":"CS","ts":"2022-12-31T22:26:45Z","tX":275,"tY":403,"tags":{"backcountry":"yes","ele":"997","fee":"yes","horse":"yes","name":"Caldwell Fork #41","official_name":"Backcountry Camp 41, Caldwell Fork","operator":"National Park Service","source":"NPS","website":"https://smokiespermits.nps.gov/"}},"1788116175":{"location":[35.6017096,-83.1310517],"ct":"US","tp":"CS","ts":"2022-12-31T22:26:45Z","tX":275,"tY":403,"tags":{"backcountry":"yes","ele":"931","fee":"yes","horse":"no","name":"Big Hemlock #40","official_name":"Backcountry Camp 40, Big Hemlock","operator":"National Park Service","source":"NPS","website":"https://smokiespermits.nps.gov/"}},"1788118759":{"location":[35.6068795,-83.1806192],"ct":"US","tp":"CS","ts":"2022-12-31T22:26:45Z","tX":275,"tY":403,"tags":{"backcountry":"yes","ele":"1661","fee":"yes","horse":"no","name":"Spruce Mountain #42","official_name":"Backcountry Camp 42, Spruce Mountain","operator":"National Park Service","source":"NPS","website":"https://smokiespermits.nps.gov/"}},"1788121979":{"location":[35.6103802,-83.2548069],"ct":"US","tp":"CS","ts":"2022-12-31T22:26:45Z","tX":275,"tY":403,"tags":{"backcountry":"yes","ele":"1115","fee":"yes","horse":"no","name":"Enlow Creek #47","official_name":"Backcountry Camp 47, Enloe Creek","operator":"National Park Service","source":"NPS","website":"https://smokiespermits.nps.gov/"}},"1788201625":{"location":[35.6392927,-83.239177],"ct":"US","tp":"CS","ts":"2022-12-31T22:26:45Z","tX":275,"tY":403,"tags":{"backcountry":"yes","ele":"1532","fee":"yes","horse":"yes","name":"McGee Spring #44","official_name":"Backcountry Camp 44, McGee Spring","operator":"National Park Service","source":"NPS","website":"https://smokiespermits.nps.gov/"}},"1788203785":{"location":[35.6430366,-83.1282737],"ct":"US","tp":"CS","ts":"2022-12-31T22:26:45Z","tX":275,"tY":403,"tags":{"backcountry":"yes","ele":"938","fee":"yes","horse":"no","name":"Pretty Hollow #39","official_name":"Backcountry Camp 39, Pretty Hollow","operator":"National Park Service","source":"NPS","website":"https://smokiespermits.nps.gov/"}},"1788253463":{"location":[35.7023113,-83.1224343],"ct":"US","tp":"CS","ts":"2022-12-31T22:06:45Z","tX":275,"tY":403,"tags":{"backcountry":"yes","ele":"1777","fee":"yes","horse":"no","name":"Mount Sterling #38","official_name":"Backcountry Camp 38, Mount Sterling","operator":"National Park Service","source":"NPS","website":"https://smokiespermits.nps.gov/"}},"1788259742":{"location":[35.7119314,-83.1668019],"ct":"US","tp":"CS","ts":"2022-12-31T22:06:45Z","tX":275,"tY":403,"tags":{"backcountry":"yes","ele":"935","fee":"yes","horse":"yes","name":"Upper Walnut Bottom #36","official_name":"Backcountry Camp 36, UpperWalnutBot","operator":"National Park Service","source":"NPS","website":"https://smokiespermits.nps.gov/"}},"1788261980":{"location":[35.7183078,-83.1646203],"ct":"US","tp":"CS","ts":"2022-12-31T22:06:45Z","tX":275,"tY":403,"tags":{"backcountry":"yes","ele":"911","fee":"yes","horse":"no","name":"Lower Walnut Bottom #37","official_name":"Backcountry Camp 37, LowerWalnutBot","operator":"National Park Service","source":"NPS","website":"https://smokiespermits.nps.gov/"}},"1788265347":{"location":[35.7294922,-83.2535087],"ct":"US","tp":"CS","ts":"2022-12-31T22:04:50Z","tX":275,"tY":403,"tags":{"backcountry":"yes","ele":"1380","fee":"yes","horse":"no","name":"Otter Creek #29","official_name":"Backcountry Camp 29, Otter Creek","operator":"National Park Service","source":"NPS","website":"https://smokiespermits.nps.gov/"}},"2361010306":{"location":[35.5979569,-83.2930437],"ct":"US","tp":"CS","ts":"2022-12-31T22:26:45Z","tX":275,"tY":403,"tags":{"backcountry":"yes","ele":"1115","fee":"yes","horse":"no","name":"Upper Chasteen #48","official_name":"Backcountry Camp 48, Upper Chasteen","operator":"National Park Service","website":"https://smokiespermits.nps.gov/"}},"2361010307":{"location":[35.5780084,-83.3128216],"ct":"US","tp":"CS","ts":"2022-12-31T22:28:18Z","tX":275,"tY":403,"tags":{"backcountry":"yes","ele":"729","fee":"yes","horse":"yes","name":"Lower Chasteen Creek #50","official_name":"Backcountry Camp 50, Lower Chasteen Creek","operator":"National Park Service","source":"NPS","website":"https://smokiespermits.nps.gov/"}},"2366425070":{"location":[35.6286758,-83.1148662],"ct":"US","tp":"CS","ts":"2013-09-12T18:12:41Z","tX":275,"tY":403,"tags":{"fee":"yes","horse":"yes","leisure":"horse_riding","name":"Cataloochee Horse Camp","official_name":"Cataloochee Horse Camp","source":"NPS","sport":"equestrian"}},"2366427510":{"location":[35.6506668,-83.073845],"ct":"US","tp":"CS","ts":"2013-09-12T18:12:41Z","tX":275,"tY":403,"tags":{"fee":"yes","name":"Cataloochee Group Camp","official_name":"Cataloochee Group Camp","source":"NPS"}},"2454879859":{"location":[35.6152193,-83.2121369],"ct":"US","tp":"CS","ts":"2013-09-13T09:43:56Z","tX":275,"tY":403,"tags":{"fee":"yes","horse":"yes","leisure":"horse_riding","name":"Round Bottom Horse Camp","official_name":"Round Bottom Horse Camp","source":"NPS","sport":"equestrian"}},"3379221578":{"location":[35.5503992,-83.3083703],"ct":"US","tp":"SD","ts":"2015-04-11T05:24:51Z","tX":275,"tY":403,"tags":{"fee":"no","operator":"NPS","sanitary_dump_station:round_drain":"yes","source":"Official Park Map"}},"6896364685":{"location":[35.7239397,-83.0307919],"ct":"US","tp":"CS","ts":"2019-10-18T16:28:11Z","tX":275,"tY":403,"tags":{"name":"Dual Sport"}},"10606318722":{"location":[35.5171995,-83.058561],"ct":"US","tp":"CS","ts":"2023-02-04T16:27:51Z","tX":275,"tY":403,"tags":{"addr:city":"Maggie Valley","addr:housenumber":"1786","addr:postcode":"28751","addr:state":"NC","addr:street":"Soco Road","name":"Stonebridge RV Resort and Campgrounds","phone":"+18289261904"}},"10606318724":{"location":[35.5179832,-83.0523893],"ct":"US","tp":"CS","ts":"2023-02-04T16:27:51Z","tX":275,"tY":403,"tags":{"addr:city":"Maggie Valley","addr:housenumber":"1406","addr:postcode":"28751","addr:state":"NC","addr:street":"Soco Road","name":"Mountain Retreat RV Park","phone":"+18282313327"}},"10721573410":{"location":[35.558447,-83.0228712],"ct":"US","tp":"CS","ts":"2023-03-08T15:01:54Z","tX":275,"tY":403,"tags":{"addr:city":"Waynesville","addr:housenumber":"26","addr:postcode":"28785","addr:state":"NC","addr:street":"Winngray Lane","name":"Winngray Campground","phone":"+18289263170"}},"10721642095":{"location":[35.5173539,-83.0972574],"ct":"US","tp":"CS","ts":"2023-03-08T15:38:58Z","tX":275,"tY":403,"tags":{"addr:city":"Maggie Valley","addr:housenumber":"4115","addr:postcode":"28751","addr:state":"NC","addr:street":"Soco Road","name":"Hillbilly Campground","phone":"+18289263353"}},"10780613611":{"location":[35.5494652,-83.2297984],"ct":"US","tp":"CS","ts":"2023-04-02T22:45:29Z","tX":275,"tY":403,"tags":{"name":"Indian Creek Campground"}}}