{"102821942":{"location":[46.2813434,-74.7273735],"ct":"CA","tp":"CS","ts":"2016-12-17T22:35:59Z","tX":299,"tY":363,"tags":{"name":"Camping Chutes Aux Iroquois","source":"NRCan-CanVec-7.0"}},"103574103":{"location":[46.1296488,-74.6893604],"ct":"CA","tp":"CS","ts":"2021-08-24T13:29:56Z","tX":299,"tY":363,"tags":{"addr:housenumber":"1158","name":"Parc La Conception","source":"NRCan-CanVec-7.0","website":"https://www.parkbridge.com/fr-ca/rv-cottages/Parc-La-Conception"}},"103584967":{"location":[46.0839664,-74.6705833],"ct":"CA","tp":"CS","ts":"2021-05-30T15:12:40Z","tX":299,"tY":363,"tags":{"addr:city":"Brébeuf","addr:housenumber":"60","addr:postcode":"J0T 1B0","addr:street":"Chemin du Domaine-des-Cèdres","capacity":"250","internet_access":"wlan","internet_access:fee":"no","name":"Camping Domaine des Cèdres","phone":"+1 819 425 3950","source":"NRCan-CanVec-7.0","website":"https://www.campingdomainedescedres.com","wheelchair":"no"}},"176778665":{"location":[46.128526,-74.605582],"ct":"CA","tp":"CS","ts":"2022-12-31T22:35:04Z","tX":299,"tY":363,"tags":{"addr:city":"Mont-Tremblant","addr:housenumber":"140","addr:street":"Rue Régimbald","name":"Camping De La Diable","source":"NRCan-CanVec-10.0"}},"176782451":{"location":[46.111049,-74.5396688],"ct":"CA","tp":"CS","ts":"2023-03-29T01:31:56Z","tX":299,"tY":363,"tags":{"name":"Camping Boréal"}},"445328024":{"location":[46.1332382,-74.6924533],"ct":"CA","tp":"CS","ts":"2024-07-10T11:30:21Z","tX":299,"tY":363,"tags":{"addr:housenumber":"1321","name":"Camping de la Montagne D'Argent","phone":"+1 819 686-5207","website":"https://www.campingdelamontagnedargent.com/"}},"718877252":{"location":[46.2224271,-74.6973427],"ct":"CA","tp":"CS","ts":"2023-10-24T06:07:54Z","tX":299,"tY":363,"tags":{"access":"customers","addr:city":"Labelle","addr:housenumber":"252","addr:province":"Quebec","addr:street":"Chemin des Geais-Bleus","cabins":"yes","drinking_water":"no","fee":"yes","hot_water":"yes","internet_access":"no","name":"Labelle et la Rouge","payment:credit_cards":"yes","permanent_camping":"no","tents":"yes","website":"https://labelleetlarouge.com/"}},"4477447197":{"location":[46.3075966,-74.7043176],"ct":"CA","tp":"CS","ts":"2017-08-01T17:05:30Z","tX":299,"tY":363,"tags":{}},"4810372521":{"location":[46.090634,-74.6070141],"ct":"CA","tp":"CS","ts":"2018-09-21T14:40:24Z","tX":299,"tY":363,"tags":{"addr:housenumber":"3595","addr:street":"Rue Léonard","name":"Base de plein air de Mont-Tremblant","name:fr":"Base de plein air de Mont-Tremblant"}},"7741033478":{"location":[46.2896819,-74.5336137],"ct":"CA","tp":"CS","ts":"2020-07-23T14:48:30Z","tX":299,"tY":363,"tags":{"name":"Lot-des-Colons","operator":"SEPAQ"}},"7741033479":{"location":[46.2873485,-74.5350012],"ct":"CA","tp":"CS","ts":"2020-07-23T14:48:30Z","tX":299,"tY":363,"tags":{"name":"Camp David","operator":"SEPAQ"}},"9447278436":{"location":[46.1257383,-74.6036384],"ct":"CA","tp":"CS","ts":"2022-01-25T11:57:12Z","tX":299,"tY":363,"tags":{"backcountry":"yes","capacity:caravans":"4","name":"Île Gilligan","operator":"Camping De La Diable"}},"11408812521":{"location":[46.1847251,-74.8229797],"ct":"CA","tp":"CS","ts":"2023-12-11T02:43:28Z","tX":299,"tY":363,"tags":{"access":"yes","caravans":"no","name":"30","static_caravans":"no","tents":"yes"}},"11408812522":{"location":[46.1850032,-74.8232174],"ct":"CA","tp":"CS","ts":"2023-12-11T02:43:28Z","tX":299,"tY":363,"tags":{"access":"yes","caravans":"no","name":"31","static_caravans":"no","tents":"yes"}},"11408820583":{"location":[46.1832789,-74.8181479],"ct":"CA","tp":"CS","ts":"2023-12-11T02:40:43Z","tX":299,"tY":363,"tags":{"access":"yes","caravans":"no","name":"29","tents":"yes"}},"12133882318":{"location":[46.1320566,-74.8471074],"ct":"CA","tp":"CS","ts":"2024-08-24T14:06:01Z","tX":299,"tY":363,"tags":{"addr:housenumber":"105","addr:street":"Chemin du lac Labelle","description":"Free Camping with river access :)","name":"Stationnement public lac et rivière maskinongés"}},"10169413545":{"location":[46.1753242,-74.6030846],"ct":"CA","tp":"SD","ts":"2024-05-14T04:46:16Z","tX":299,"tY":363,"tags":{}}}