{"192574402":{"location":[45.6247242,-74.6852497],"ct":"CA","tp":"CS","ts":"2021-09-02T18:42:16Z","tX":299,"tY":365,"tags":{"name":"L'Orignal Camping","source":"NRCan-CanVec-10.0"}},"448991311":{"location":[45.640762,-74.6870157],"ct":"CA","tp":"CS","ts":"2022-05-16T21:53:50Z","tX":299,"tY":365,"tags":{"addr:housenumber":"2265","addr:street":"Chemin de Montréal Est","name":"Camping Des Chutes De La Rouge"}},"1033106956":{"location":[45.6982912,-74.6634218],"ct":"CA","tp":"CS","ts":"2022-05-16T21:53:50Z","tX":299,"tY":365,"tags":{"addr:housenumber":"700","addr:street":"Chemin de la Rivière-Rouge","name":"Camping Vallee de la Riviere-Rouge","phone":"+1-819-242-1819"}},"1082735974":{"location":[45.6193504,-74.6470015],"ct":"CA","tp":"CR","ts":"2022-12-24T12:05:11Z","tX":299,"tY":365,"tags":{"addr:housenumber":"1804","addr:street":"County Road 4","name":"Montreal Soaring Club - Club de vol à voile de Montréal","website":"https://montrealsoaring.ca/wp/"}},"1082735975":{"location":[45.624773,-74.7044617],"ct":"CA","tp":"CS","ts":"2022-07-31T18:33:04Z","tX":299,"tY":365,"tags":{"name":"Camping à l’arochelle"}},"1312722826":{"location":[45.6449078,-74.6889762],"ct":"CA","tp":"CS","ts":"2024-09-02T03:57:48Z","tX":299,"tY":365,"tags":{"name":"Halte-Camping Chute des Sept-Soeurs","phone":"+18192422883","website":"https://www.campingdeschutesdelarouge.ca/"}},"2034001979":{"location":[45.7260781,-74.7078019],"ct":"CA","tp":"CS","ts":"2018-09-06T22:40:40Z","tX":299,"tY":365,"tags":{"source":"NRCan-CanVec-10.0"}},"4459573439":{"location":[45.6446275,-74.6893747],"ct":"CA","tp":"CS","ts":"2024-09-02T03:57:48Z","tX":299,"tY":365,"tags":{"name":"Halte-Camping Chute des Sept-Soeurs"}},"9018218614":{"location":[45.747913,-74.6890262],"ct":"CA","tp":"CS","ts":"2023-02-13T11:26:52Z","tX":299,"tY":365,"tags":{"name":"ABV Kayak Camping"}}}