{"11523716":{"location":[41.519492,-74.7544302],"ct":"US","tp":"CS","ts":"2020-08-20T19:18:22Z","tX":299,"tY":381,"tags":{"name":"Orange & Rockland Rio Recreation Area"}},"433281254":{"location":[41.7393812,-74.5438812],"ct":"US","tp":"CS","ts":"2023-12-14T17:08:01Z","tX":299,"tY":381,"tags":{"name":"Jellystone Park at Birchwood Acres"}},"1233287271":{"location":[41.67104,-74.8362049],"ct":"US","tp":"CS","ts":"2024-02-21T00:00:07Z","tX":299,"tY":381,"tags":{"addr:city":"White Lake","addr:housenumber":"39","addr:postcode":"12786","addr:state":"NY","addr:street":"Covenanter Camp Road","caravans":"yes","denomination":"presbyterian","drinking_water":"yes","leisure":"summer_camp","name":"White Lake Covenanter Camp","operator":"Reformed Presbyterian Church of North America","power_supply":"yes","shower":"yes","tents":"yes","toilets":"yes","website":"https://www.whitelakecamp.com"}},"8780254998":{"location":[41.518661,-74.7451263],"ct":"US","tp":"CS","ts":"2022-07-15T21:48:17Z","tX":299,"tY":381,"tags":{"addr:city":"Forestburgh","addr:housenumber":"1723","addr:postcode":"12777","addr:state":"NY","addr:street":"State Route 42","name":"Dam Beard Camp, FSR","nysgissam:nysaddresspointid":"SULL028030","operator":"Monmouth Council BSA","website":"https://www.monmouthbsa.org/fsr"}},"9888108315":{"location":[41.526272,-74.7457306],"ct":"US","tp":"CS","ts":"2022-07-15T21:48:17Z","tX":299,"tY":381,"tags":{"name":"Billet Camp, FSR","operator":"Monmouth Council BSA","website":"https://www.monmouthbsa.org/fsr"}},"9888891387":{"location":[41.5303574,-74.7421543],"ct":"US","tp":"CS","ts":"2022-07-15T21:48:17Z","tX":299,"tY":381,"tags":{"addr:city":"Forestburgh","addr:housenumber":"1945","addr:postcode":"12777","addr:state":"NY","addr:street":"State Route 42","group_only":"no","name":"Forestburg Scout Reservation","operator":"Monmouth Council BSA","website":"https://www.monmouthbsa.org/fsr"}}}