{"40181963":{"location":[41.3273497,-74.7550279],"ct":"US","tp":"CS","ts":"2019-08-18T02:35:40Z","tX":299,"tY":382,"tags":{"source":"NJ2002LULC"}},"414840620":{"location":[41.2742301,-74.640484],"ct":"US","tp":"CS","ts":"2020-06-21T20:02:51Z","tX":299,"tY":382,"tags":{"addr:housenumber":"61","addr:postcode":"07461","addr:street":"Dewitt Road","name":"Pleasant Acres Farm Campground"}},"1001911333":{"location":[41.3439458,-74.7587626],"ct":"US","tp":"CS","ts":"2024-04-20T18:15:32Z","tX":299,"tY":382,"tags":{"addr:city":"Milford","addr:housenumber":"378","addr:postcode":"18337","addr:state":"PA","addr:street":"Route 6 & 209","capacity":"160","fee":"yes","name":"Kittatiny Canoes - River Beach Campground","openfire":"yes","operator":"Kittatiny Canoes","payment:cash":"yes","payment:credit_cards":"yes","phone":"+1 800-356-2852","reservation":"required","shower":"yes","toilets":"yes","website":"https://kittatinny.com/camping/river-beach-campground/"}},"1318769137":{"location":[41.478509,-74.6223181],"ct":"US","tp":"CS","ts":"2024-09-27T11:15:05Z","tX":299,"tY":382,"tags":{"name":"Oakland Valley Campground"}},"5016833021":{"location":[41.4420381,-74.6076064],"ct":"US","tp":"CS","ts":"2021-06-01T11:00:57Z","tX":299,"tY":382,"tags":{"addr:city":"Cuddebackville","addr:housenumber":"108","addr:postcode":"12729","addr:state":"NY","addr:street":"Guymard Turnpike","email":"deerparkkoa@acampfire.com","internet_access":"wlan","name":"Deerpark / Deerpark / New York City NW KOA","nysgissam:nysaddresspointid":"ORAN107318","opening_hours":"24/7","phone":"845 754 8388","website":"https://koa.com/campgrounds/deerpark/"}},"7702797407":{"location":[41.3576859,-74.6988402],"ct":"US","tp":"CR","ts":"2020-07-10T15:59:06Z","tX":299,"tY":382,"tags":{"addr:city":"Matamoras","addr:housenumber":"401","addr:postcode":"18336","addr:state":"PA","addr:street":"Shay Lane","name":"Tri-State RV Park"}}}