{"19016026":{"location":[40.9263496,-74.7721477],"ct":"US","tp":"CS","ts":"2025-04-20T17:52:58Z","tX":299,"tY":384,"tags":{"access":"private","name":"Camp Allamuchy","operator":"Scouting America"}},"39849011":{"location":[40.9653063,-74.7335221],"ct":"US","tp":"CS","ts":"2023-10-27T06:30:52Z","tX":299,"tY":384,"tags":{"addr:city":"Andover","addr:housenumber":"6","addr:postcode":"07821","addr:street":"Panther Lake Road","name":"Panther Lake Camping Resort","phone":"973-347-4440","source":"NJ tax maps","website":"https://www.njcamping.com/panther/index.htm"}},"40369476":{"location":[40.8885194,-74.7106857],"ct":"US","tp":"CR","ts":"2024-06-29T16:27:53Z","tX":299,"tY":384,"tags":{"addr:city":"Flanders","addr:housenumber":"10","addr:postcode":"07836","addr:state":"NJ","addr:street":"Flanders Netcong Road","cabins":"no","caravans":"yes","fee":"yes","laundry":"yes","name":"Fla-Net Park Campground","phone":"+1-973-347-4467","power_supply":"yes","power_supply:maxcurrent":"50","sanitary_dump_station":"yes","seasonal":"no","static_caravans":"no","tents":"yes","website":"https://flanetpark.com"}},"149184991":{"location":[40.7826475,-74.710765],"ct":"US","tp":"CS","ts":"2012-02-07T18:25:16Z","tX":299,"tY":384,"tags":{}},"265349067":{"location":[40.8604533,-74.7103407],"ct":"US","tp":"CS","ts":"2018-11-24T16:49:32Z","tX":299,"tY":384,"tags":{"addr:housenumber":"208","addr:state":"NJ","addr:street":"Flanders Netcong Road","leisure":"summer_camp","name":"Camp Deeny Riback","operator":"JCC MetroWest","phone":"973-530-3400","website":"https://jccmetrowest.org/venue/camp-deeny-riback/"}},"11577718037":{"location":[40.888899,-74.7105337],"ct":"US","tp":"SD","ts":"2024-02-01T22:45:51Z","tX":299,"tY":384,"tags":{}}}