{"28764064":{"location":[39.3764061,-74.5669644],"ct":"US","tp":"CS","ts":"2008-12-02T16:44:59Z","tX":299,"tY":389,"tags":{"created_by":"Potlatch 0.10f"}},"40336577":{"location":[39.5575537,-74.8094597],"ct":"US","tp":"CR","ts":"2022-08-05T22:14:01Z","tX":299,"tY":389,"tags":{"name":"Roamers Beach RV Resort"}},"40453769":{"location":[39.6217057,-74.5952635],"ct":"US","tp":"CR","ts":"2019-08-20T23:28:28Z","tX":299,"tY":389,"tags":{"addr:city":"Breenbank","addr:housenumber":"1213","addr:postcode":"08215","addr:street":"Route 542","capacity":"300","name":"Belhaven Lake RV Resort","power_supply":"yes","source":"NJ2002LULC","tents":"no","website":"https://www.belhavencampground.com/"}},"40542067":{"location":[39.5578743,-74.6091461],"ct":"US","tp":"CR","ts":"2024-08-18T14:16:05Z","tX":299,"tY":389,"tags":{"addr:city":"Egg Harbor City","addr:housenumber":"2300","addr:postcode":"08215","addr:state":"NJ","addr:street":"Philadelphia Avenue","cabins":"yes","caravans":"yes","dog":"no","email":"info@eggharborlake.com","fee":"yes","name":"Egg Harbor Lake Campground","phone":"609-965-0330","power_supply":"yes","sanitary_dump_station":"yes","source":"Bing","tents":"yes","website":"https://eggharborlake.com/"}},"40578477":{"location":[39.4730205,-74.5827927],"ct":"US","tp":"CR","ts":"2010-09-12T00:22:51Z","tX":299,"tY":389,"tags":{"name":"Pomona RV Park","source":"NJ2002LULC"}},"48666166":{"location":[39.369711,-74.853273],"ct":"US","tp":"CR","ts":"2024-01-25T22:17:24Z","tX":299,"tY":389,"tags":{"name":"Lazy River Campground"}},"79788330":{"location":[39.4917398,-74.7697567],"ct":"US","tp":"CS","ts":"2024-09-04T02:51:10Z","tX":299,"tY":389,"tags":{"addr:city":"Mays Landing","addr:housenumber":"6752","addr:postcode":"08330","addr:state":"NJ","addr:street":"Weymouth Road","caravans":"yes","name":"Winding River Campground","tents":"yes"}},"79788407":{"location":[39.4304554,-74.743167],"ct":"US","tp":"CS","ts":"2010-09-30T02:16:39Z","tX":299,"tY":389,"tags":{"name":"Pleasant Valley Campground"}},"79788680":{"location":[39.4180017,-74.7988812],"ct":"US","tp":"CS","ts":"2019-07-01T12:34:00Z","tX":299,"tY":389,"tags":{"name":"Yogi Bear's Jellystone Camp"}},"79789299":{"location":[39.4141908,-74.7150558],"ct":"US","tp":"CS","ts":"2019-07-05T13:27:15Z","tX":299,"tY":389,"tags":{"alt_name":"River Beach Resort by Zeman","name":"River Beach RV Resort and Marina","operator":"Zeman","website":"https://www.riverbeachrv.com/"}},"79792592":{"location":[39.4168502,-74.8353666],"ct":"US","tp":"CS","ts":"2010-09-30T02:37:51Z","tX":299,"tY":389,"tags":{"name":"Country Oaks Campgrounds"}},"1697028141":{"location":[39.5535657,-74.8104091],"ct":"US","tp":"CS","ts":"2012-03-30T03:45:18Z","tX":299,"tY":389,"tags":{"name":"Indian Branch Park Campground"}},"3545900996":{"location":[39.6288959,-74.6174742],"ct":"US","tp":"CS","ts":"2023-08-16T20:22:27Z","tX":299,"tY":389,"tags":{"backcountry":"yes","drinking_water":"no","name":"Buttonwood Hill Camp","source":"https://www.state.nj.us/dep/parksandforests/parks/maps/wsf_buttonwood_hill_camp.pdf"}},"6682373843":{"location":[39.4147737,-74.7330105],"ct":"US","tp":"CS","ts":"2024-01-31T18:59:49Z","tX":299,"tY":389,"tags":{"bench":"yes","group_only":"yes"}},"9580391400":{"location":[39.417472,-74.8368911],"ct":"US","tp":"CS","ts":"2022-07-12T05:44:40Z","tX":299,"tY":389,"tags":{"access":"yes","addr:city":"Dorothy","addr:housenumber":"13","addr:postcode":"08317","addr:state":"NJ","addr:street":"S Jersey Ave","capacity:caravans":"20","capacity:persons":"50","description":"Offering both wooded and open RV and tent sites, as well as a number of deluxe patio sites and rustic cabins, come enjoy the large swimming facilities onsite, traditional campground recreation hall, and pastoral ambiance.","group_only":"yes","image":"https://photo.isu.pub/spaciousskiesoaks/photo_large.jpg","name":"Spacious Skies Campgrounds - Country Oaks","opening_hours":"Mo-Fr 09:00-18:00","phone":"609-476-2143","website":"https://campatcountryoaks.com"}}}