{"1312237126":{"location":[-16.5707182,-68.0899392],"ct":"BO","tp":"CS","ts":"2024-08-30T16:17:21Z","tX":318,"tY":559,"tags":{"addr:city":"La Paz","addr:housenumber":"224","addr:neighbourhood":"Mallasa","addr:street":"Calle Las Tunas","building":"yes","community_centre":"cultural_centre","contact:whatsapp":"+59172041572","email":"contacto@barranco.life","food":"yes","internet_access":"wlan","name":"Proyecto Cultural Barranco","opening_hours":"Sa 16:20-23:00, Su 16:20-21:00","operator":"Ernesto Rivera","operator:type":"private","sanitary_dump_station":"no","short_name":"Barranco","website":"https://barranco.life"}},"1312237127":{"location":[-16.5706339,-68.0897901],"ct":"BO","tp":"CS","ts":"2024-09-04T21:11:02Z","tX":318,"tY":559,"tags":{"access":"customers","addr:city":"La Paz","addr:housenumber":"224","addr:neighbourhood":"Mallasa","addr:street":"Calle Las Tunas","capacity":"10","capacity:persons":"10","caravans":"no","name":"Area de feria","operator":"Proyecto Cultural Barranco","picnic_table":"yes","power_supply":"yes","static_caravans":"no","surface":"grass_scrub","tents":"yes"}},"2140878179":{"location":[-16.568242,-68.0893247],"ct":"BO","tp":"CS","ts":"2021-07-29T14:00:44Z","tX":318,"tY":559,"tags":{"addr:country":"BO","bar":"yes","big_rigs":"yes","camp_type":"established","caravans":"yes","description":"Well known meeting place for overlanders. Excellent shower, well protected, electricity, wifi only at the lobby, no facilities for dish or laundry washing. Good connections to La Paz.","dish_washing":"no","dryer":"no","fee":"BOB 120 (2 adults, camper)","fenced":"protecting","fireplace":"braai","general_room":"no","guarded":"nighttime","internet":"wifi","kitchen":"no","laundry":"no","name":"Camping Hotel Oberland","payment:credit_card":"yes","pets":"yes","picnic_benches":"no","power_supply":"yes","restaurant":"yes","sanitary_dumpstation":"no","shop":"no;travel_agency","shower":"hot","source":"Survey","swimming_pool":"no","tents":"no","toilets:disposal":"flush","toilets:position":"sitting","washing_machine":"no","water:location":"central","water:quality":"potable"}},"2608068359":{"location":[-16.5571097,-68.055269],"ct":"BO","tp":"CS","ts":"2014-03-09T06:12:21Z","tX":318,"tY":559,"tags":{}},"4585562798":{"location":[-16.5313929,-68.1443074],"ct":"BO","tp":"CS","ts":"2017-01-02T16:51:13Z","tX":318,"tY":559,"tags":{"name":"CRUZ","name:es":"CRUZ"}},"5097198108":{"location":[-16.3203239,-68.0737058],"ct":"BO","tp":"CS","ts":"2023-02-09T17:16:18Z","tX":318,"tY":559,"tags":{"name":"Campamento de Alta Monta√±a"}},"10862716905":{"location":[-16.4770129,-67.8636108],"ct":"BO","tp":"CS","ts":"2023-05-02T16:25:18Z","tX":318,"tY":559,"tags":{"name:en":"Small camp site by river +4100m"}},"12074279771":{"location":[-16.5266371,-67.8583937],"ct":"BO","tp":"CS","ts":"2024-07-25T22:42:45Z","tX":318,"tY":559,"tags":{"name":"Acampamento","name:en":"Campsite"}},"5987310185":{"location":[-16.5274553,-68.0506265],"ct":"BO","tp":"CR","ts":"2018-10-16T00:14:59Z","tX":318,"tY":559,"tags":{"addr:housenumber":"#20","addr:street":"Avenida Javier del Granado","internet_access":"wlan","name":"Camping Las Lomas","name:en":"Las Lomas Camping site","opening_hours":"24/7","phone":"+591076550000","website":"http://fb/campinglaslomas.com"}}}