{"2594006551":{"location":[-23.7552016,-46.2521304],"ct":"BR","tp":"CS","ts":"2013-12-25T16:37:05Z","tX":380,"tY":581,"tags":{"name":"Simplão de Tudo"}},"4437847094":{"location":[-23.817704,-46.084909],"ct":"BR","tp":"CS","ts":"2019-11-20T23:23:10Z","tX":380,"tY":581,"tags":{"addr:housenumber":"7860","addr:postcode":"11250-000","addr:street":"Avenida Anchieta","name":"Camping Clube Brasil Bertioga","name:pt":"Camping Clube Brasil Bertioga","website":"http://www.campingclube.com.br/tabela.htm"}},"5289790326":{"location":[-23.8628144,-46.1318832],"ct":"BR","tp":"CS","ts":"2017-12-17T14:16:58Z","tX":380,"tY":581,"tags":{"addr:street":"Prainha Branca","name":"Camping São José","opening_hours":"24/7","phone":"013996695597"}},"5289790327":{"location":[-23.8625179,-46.1314941],"ct":"BR","tp":"CS","ts":"2019-03-18T17:24:29Z","tX":380,"tY":581,"tags":{"addr:street":"Prainha Branca","name":"Camping Cantão","opening_hours":"24/7","phone":"013 996122575","website":"https://www.campingcantao.com.br/"}},"5289799221":{"location":[-23.8633342,-46.1325774],"ct":"BR","tp":"CS","ts":"2019-03-19T00:10:58Z","tX":380,"tY":581,"tags":{"addr:postcode":"11446-002","addr:street":"Prainha Branca","name":"Camping Tabajara","opening_hours":"24/7","phone":"013 997342798","website":"https://www.campingtabajara.com/"}},"11307528069":{"location":[-23.8275805,-46.1063668],"ct":"BR","tp":"CS","ts":"2023-11-02T13:13:36Z","tX":380,"tY":581,"tags":{"email":"reginabahiense50@gmail.com","name":"Camping dona Cida","phone":"+5511956051908"}}}