{"1190969167":{"location":[62.3148095,-150.2312941],"ct":"US","tp":"CR","ts":"2023-07-21T06:50:53Z","tX":84,"tY":283,"tags":{"addr:city":"Trapper Creek","addr:postcode":"99683","addr:state":"AK","power_supply":"yes","sanitary_dump_station":"yes","website":"https://www.trappercreek.biz/rv-park-map"}},"2852929274":{"location":[62.3233041,-150.118246],"ct":"US","tp":"CS","ts":"2024-08-05T23:58:49Z","tX":84,"tY":283,"tags":{"access":"yes","addr:city":"Talkeetna","addr:state":"AK","addr:street":"East Main Street","backcountry":"no","capacity":"11","capacity:persons":"11","capacity:tents":"11","caravans":"no","large_vehicles":"discouraged","mobile_reception":"yes","name":"Talkeetna River Park","operator":"City of Talkeetna","picnic_table":"yes","static_caravans":"no","tents":"yes","toilets":"yes"}},"10254655978":{"location":[62.3236836,-150.118245],"ct":"US","tp":"CS","ts":"2023-07-25T17:46:49Z","tX":84,"tY":283,"tags":{"access":"yes","caravans":"no","name":"Talkeetna River Park Campground","static_caravans":"no","tents":"no"}},"11058077421":{"location":[62.3144304,-150.2317347],"ct":"US","tp":"SD","ts":"2023-07-21T06:50:53Z","tX":84,"tY":283,"tags":{"access":"customers","fee":"yes"}}}