{"4647254994":{"location":[44.3549794,39.8136699],"ct":"RU","tp":"CS","ts":"2017-01-31T11:22:24Z","tX":625,"tY":370,"tags":{"name":"Зона отдыха","name:ru":"Зона отдыха"}},"4647299693":{"location":[44.3513242,39.8021348],"ct":"RU","tp":"CS","ts":"2017-01-31T11:20:05Z","tX":625,"tY":370,"tags":{"name":"Зона отдыха","name:ru":"Зона отдыха"}},"4647424992":{"location":[44.3756951,39.8034545],"ct":"RU","tp":"CS","ts":"2017-01-31T11:22:25Z","tX":625,"tY":370,"tags":{"name":"Зона отдыха","name:ru":"Зона отдыха"}},"4735099624":{"location":[44.487051,39.730109],"ct":"RU","tp":"CS","ts":"2017-03-14T21:27:26Z","tX":625,"tY":370,"tags":{"name":"Йодобромные ванны","name:ru":"Йодобромные ванны"}},"6319019187":{"location":[44.4669686,39.8667286],"ct":"RU","tp":"CS","ts":"2022-03-24T06:13:17Z","tX":625,"tY":370,"tags":{}},"4638558493":{"location":[44.4357251,39.7688155],"ct":"RU","tp":"CR","ts":"2017-01-27T21:58:52Z","tX":625,"tY":370,"tags":{"name":"Картодром","name:ru":"Картодром"}},"4684056190":{"location":[44.3513825,39.8020089],"ct":"RU","tp":"CR","ts":"2017-02-13T19:43:59Z","tX":625,"tY":370,"tags":{"name":"База отдыха Старый Ясень","name:ru":"База отдыха Старый Ясень"}},"4687664190":{"location":[44.4662142,39.7366699],"ct":"RU","tp":"CR","ts":"2017-02-15T22:03:18Z","tX":625,"tY":370,"tags":{"name":"Гаражи","name:ru":"Гаражи"}},"4687679492":{"location":[44.4555965,39.7354114],"ct":"RU","tp":"CR","ts":"2017-02-15T22:03:20Z","tX":625,"tY":370,"tags":{"name":"Гаражи","name:ru":"Гаражи"}},"4703140211":{"location":[44.4608044,39.738053],"ct":"RU","tp":"CR","ts":"2017-05-15T19:01:51Z","tX":625,"tY":370,"tags":{"addr:housenumber":"1","addr:street":"улица Королёва","name":"АТП","name:ru":"АТП"}}}