{"807817738":{"location":[57.5169071,-7.2858203],"ct":"GB","tp":"CS","ts":"2024-12-24T09:38:21Z","tX":491,"tY":310,"tags":{"addr:city":"Isle of North Uist","addr:city:en":"Isle of North Uist","addr:city:gd":"Uibhist a Tuath","addr:country":"GB","addr:housenumber":"17","addr:postcode":"HS6 5HN","addr:street":"Cairnish","cabins":"yes","caravans":"yes","drinking_water":"yes","email":"enquiries@moorcroftholidays.com","facebook":"https://www.facebook.com/moorcroftholidays/","fee":"yes","internet_access":"wlan","kitchen":"yes","motorhome":"yes","name":"Moorcroft Campsite and Bunkhouse","opening_hours":"Apr-Oct","phone":"+44 1876 580305","power_supply":"yes","shower":"yes","tents":"yes","washing_machine":"yes","website":"https://www.moorcroftholidays.com/"}},"5111004575":{"location":[57.703109,-7.1798976],"ct":"GB","tp":"SD","ts":"2017-09-17T14:18:19Z","tX":491,"tY":310,"tags":{}},"5175114644":{"location":[57.5971649,-7.156599],"ct":"GB","tp":"SD","ts":"2017-10-18T18:03:18Z","tX":491,"tY":310,"tags":{}}}