{"131930913":{"location":[43.5772515,-7.2552873],"ct":"ES","tp":"CS","ts":"2023-03-15T17:45:16Z","tX":491,"tY":374,"tags":{"caravans":"yes","email":"rapallas@hotmail.com","internet_access":"wlan","name":"Camping de Llas","phone":"+34 982 140 713","shower":"hot","tents":"yes","toilets":"yes","washing_machine":"yes","website":"http://campingfoz.com"}},"252993813":{"location":[43.5535541,-7.1669931],"ct":"ES","tp":"CS","ts":"2024-07-20T06:34:47Z","tX":491,"tY":374,"tags":{"addr:city":"Barreiros","cabins":"yes","capacity:pitches":"170","caravans":"yes","dog":"leashed","fee":"yes","internet_access":"wlan","internet_access:fee":"no","name":"A Nosa Casa","phone":"+34 982 13 40 05","power_supply":"yes","shower":"hot","tents":"yes","washing_machine":"yes","website":"https://www.campinganosacasa.com"}},"360802594":{"location":[43.3598311,-7.107088],"ct":"ES","tp":"CR","ts":"2024-04-24T13:00:35Z","tX":491,"tY":374,"tags":{"addr:city":"Taramundi","addr:postcode":"33775","capacity":"10","caravan_site":"motorhome_stopover","covered":"no","description":"Behind sports hall","fee":"no","internet_access":"wlan","internet_access:fee":"no","maxstay":"48 hours","name":"Áreas de Autocaravanas Taramundi Nucleo urbano","opening_hours":"24/7","operator":"Ayuntamiento de Taramundi","operator:type":"public","power_supply":"no","ref":"AREA 1","sanitary_dump_station":"yes","sanitary_dump_station:chemical_toilet":"yes","sanitary_dump_station:grey_water":"yes","sanitary_dump_station:round_drain":"yes","source":"Ayuntamiento de Taramundi","supervised":"no","surface":"asphalt","water_point":"yes","website":"https://www.taramundi.es/area-de-autocaravanas","wheelchair":"yes"}},"617706484":{"location":[43.5635336,-7.2425082],"ct":"ES","tp":"CR","ts":"2021-05-08T12:15:52Z","tX":491,"tY":374,"tags":{"fee":"no","name":"Área de Barreiros","parking":"surface","reservation":"no"}},"617706500":{"location":[43.5619138,-7.2078318],"ct":"ES","tp":"CS","ts":"2023-03-15T19:40:14Z","tX":491,"tY":374,"tags":{"addr:city":"Barreiros","bbq":"yes","cabins":"yes","caravans":"yes","dog":"leashed","email":"campinggaivota@gmail.com","facebook":"https://www.facebook.com/agaivotacamping","internet_access":"wlan","internet_access:fee":"no","name":"Gaivota","phone":"+34 982 124 451","playground":"yes","power_supply":"yes","shower":"hot","tents":"yes","toilets":"yes","website":"https://www.agaivotacamping.com"}},"642844652":{"location":[43.4276975,-7.369937],"ct":"ES","tp":"CR","ts":"2018-11-10T11:57:11Z","tX":491,"tY":374,"tags":{"access":"yes","fee":"no","note":"no \"camping behaviour allowed\"","power_supply":"no"}},"714006889":{"location":[43.360473,-7.110063],"ct":"ES","tp":"PK","ts":"2024-04-24T13:00:35Z","tX":491,"tY":374,"tags":{"fee":"no","motorhome":"yes","operator":"Ayuntamiento de Taramundi","operator:type":"public","parking":"surface","surface":"concrete"}},"729402991":{"location":[43.4134659,-7.1420161],"ct":"ES","tp":"CS","ts":"2023-11-01T02:39:39Z","tX":491,"tY":374,"tags":{"addr:postcode":"33774","cabins":"yes","capacity":"83","capacity:pitches":"83","caravans":"yes","email":"amaido@amaido.com","fee":"yes","hot_water":"yes","internet_access":"yes","internet_access:fee":"no","name":"Camping Amaido","phone":"+34 985 476 394","playground":"yes","power_supply":"yes","restaurant":"yes","shower":"hot","stars":"2","tents":"yes","toilets":"yes","washing_machine":"yes","website":"https://www.amaido.com/","wheelchair":"yes"}},"813446926":{"location":[43.5542596,-7.1115378],"ct":"ES","tp":"CS","ts":"2023-03-16T06:37:41Z","tX":491,"tY":374,"tags":{"access":"customers","bbq":"yes","cabins":"yes","caravans":"yes","dog":"leashed","email":"info@rinlocosta.es","facebook":"https://www.facebook.com/campingrinlo","fee":"yes","impromptu":"no","instagram":"https://www.instagram.com/rinlocosta","internet_access":"yes","motor_vehicle":"yes","name":"Rinlo Costa Camping","phone":"+34 679 255 281","power_supply":"yes","reservation":"yes","shower":"yes","swimming_pool":"yes","tents":"yes","toilets":"yes","washing_machine":"yes","website":"https://rinlocosta.es"}},"845325028":{"location":[43.5382642,-7.0844963],"ct":"ES","tp":"CS","ts":"2023-03-15T21:08:16Z","tX":491,"tY":374,"tags":{"addr:city":"Ribadeo","addr:housenumber":"2","addr:postcode":"27797","addr:street":"Estrada Ribadeo - A Coruña","bbq":"yes","cabins":"yes","caravans":"yes","dog":"no","email":"campingribadeo@hotmail.com","internet_access":"wlan","internet_access:fee":"no","name":"Camping Ribadeo","opening_hours":"Mo-Su 09:00-23:00","phone":"+34982131167","power_supply":"yes","sanitary_dump_station":"yes","tents":"yes","washing_machine":"yes","website":"https://www.campingribadeo.com/"}},"922809658":{"location":[43.4667633,-7.0519051],"ct":"ES","tp":"CR","ts":"2024-04-24T13:58:44Z","tX":491,"tY":374,"tags":{"access":"yes","addr:city":"A Veiga","addr:postcode":"33776","addr:street":"Calle Emilio Cotarelo y Mori","capacity":"10","caravan_site":"motorhome_stopover","caravan_site:type":"village","caravans":"no","covered":"no","fee":"no","maxstay":"72 hours","name":"Áreas de Autocaravanas en A Veiga/Vegadeo","opening_hours":"24/7","operator":"ciudad de Villanueva de A Veiga","power_supply":"no","sanitary_dump_station":"yes","sanitary_dump_station:chemical_toilet":"yes","sanitary_dump_station:grey_water":"yes","sanitary_dump_station:round_drain":"yes","supervised":"no","surface":"grass_paver","tents":"no","water_point":"yes"}},"922845665":{"location":[43.3557088,-7.1894491],"ct":"ES","tp":"CR","ts":"2024-05-05T15:11:54Z","tX":491,"tY":374,"tags":{"access":"yes","addr:city":"A Pontenova","addr:postcode":"33775","addr:street":"Camino Pista Antiguo Ferrocar","capacity":"3","caravan_site":"motorhome_stopover","caravan_site:type":"river","covered":"no","fee":"no","maxstay":"24 hours","name":"Área de Autocaravanas da Pontenova","opening_hours":"24/7","operator":"Concello da Pontenova","operator:type":"public","power_supply":"no","sanitary_dump_station":"yes","sanitary_dump_station:chemical_toilet":"yes","sanitary_dump_station:grey_water":"yes","sanitary_dump_station:round_drain":"yes","supervised":"no","surface":"asphalt","water_point":"yes"}},"940730460":{"location":[43.5637866,-7.2578209],"ct":"ES","tp":"CR","ts":"2021-05-08T14:28:48Z","tX":491,"tY":374,"tags":{"addr:housenumber":"6","addr:postcode":"27780","addr:street":"Rúa dos Estaleiros","description":"Aparcamiento para autocaravanas","fee":"no","opening_hours":"24/7","reservation":"no","sanitary_dump_station":"yes"}},"1025312429":{"location":[43.5463979,-7.1594098],"ct":"ES","tp":"CS","ts":"2022-01-27T19:15:30Z","tX":491,"tY":374,"tags":{"addr:city":"Ribadeo","addr:postcode":"27700","addr:street":"A Rochela","name":"Campamento Xuvenil A Devesa","operator":"Xunta de Galicia","website":"http://xuventude.xunta.es/component/k2/item/11202-campamento-xuvenil-a-devesa-ribadeo"}},"1204913036":{"location":[43.5550678,-7.199288],"ct":"ES","tp":"CS","ts":"2023-09-04T13:41:07Z","tX":491,"tY":374,"tags":{"name":"Camping Benquerencia"}},"1214149557":{"location":[43.5368162,-7.0494401],"ct":"ES","tp":"PK","ts":"2024-04-03T11:08:36Z","tX":491,"tY":374,"tags":{"motorhome":"yes"}},"1266765089":{"location":[43.4955769,-7.1395679],"ct":"ES","tp":"CR","ts":"2024-04-03T11:25:05Z","tX":491,"tY":374,"tags":{"access":"customers","addr:city":"Lugo","addr:housenumber":"6","addr:postcode":"27711 Ribadeo","addr:street":"LU-P-5203","bakery_service":"yes","campervan":"yes","capacity":"50","capacity:caravans":"26","capacity:tents":"25","caravan_site":"motorhome_stopover","caravan_site:type":"farm","caravans":"yes","charge":"15 EUR","dog":"yes","fee":"yes","internet_access":"wlan","internet_access:fee":"no","laundry":"yes","motorhome":"yes","name":"Área Granxa Casecha","name:es":"Área Granja Casecha","name:gl":"Área Granxa Casecha","operator":"Casecha","payment:cash":"yes","power_supply":"yes","sanitary_dump_station":"yes","seasonal":"no","shower":"yes","tents":"yes","toilets":"yes","water_point":"yes"}},"1270344507":{"location":[43.4423228,-7.0980689],"ct":"ES","tp":"CR","ts":"2024-04-06T10:28:19Z","tX":491,"tY":374,"tags":{"name":"Área de Autocaravanas da Ría de Abres"}},"5500400541":{"location":[43.4089475,-7.145679],"ct":"ES","tp":"CR","ts":"2019-08-25T00:32:16Z","tX":491,"tY":374,"tags":{"fee":"no","name":"Parking Piñeiro"}},"11844345894":{"location":[43.3604437,-7.1156967],"ct":"ES","tp":"CR","ts":"2024-04-24T13:00:35Z","tX":491,"tY":374,"tags":{"fee":"no","name":"Parque de empresas artesanales de Taramundi","ref":"AREA 2","sanitary_dump_station":"yes","surface":"asphalt","water_point":"yes","website":"https://www.taramundi.es/area-de-autocaravanas","wheelchair":"yes"}},"6050874341":{"location":[43.4275355,-7.3698085],"ct":"ES","tp":"SD","ts":"2018-11-10T11:57:11Z","tX":491,"tY":374,"tags":{"access":"yes","fee":"no","sanitary_dump_station:chemical_toilet":"yes","sanitary_dump_station:grey_water":"yes","water_point":"yes"}},"8566494169":{"location":[43.4666516,-7.0518792],"ct":"ES","tp":"SD","ts":"2024-03-23T13:32:26Z","tX":491,"tY":374,"tags":{"access":"yes","fee":"no","motorhome":"designated","operator":"ciudad de Villanueva de A Veiga","sanitary_dump_station":"public","sanitary_dump_station:chemical_toilet":"yes","sanitary_dump_station:grey_water":"yes","sanitary_dump_station:round_drain":"yes","water_point":"yes"}},"8566816608":{"location":[43.3602518,-7.1073908],"ct":"ES","tp":"SD","ts":"2022-01-03T10:17:18Z","tX":491,"tY":374,"tags":{"access":"yes","description":"Estación de vaciado de tanqué para autocaravanas","description:fr":"Station de vidange pour Camping-car.","fee":"no","sanitary_dump_station":"public","sanitary_dump_station:chemical_toilet":"yes","sanitary_dump_station:grey_water":"yes","sanitary_dump_station:round_drain":"yes","water_point":"yes"}},"8566828907":{"location":[43.3556829,-7.1896036],"ct":"ES","tp":"SD","ts":"2024-05-04T20:11:02Z","tX":491,"tY":374,"tags":{"access":"yes","fee":"no","operator":"Concello da Pontenova","sanitary_dump_station":"public","sanitary_dump_station:chemical_toilet":"yes","sanitary_dump_station:grey_water":"yes","sanitary_dump_station:round_drain":"yes","water_point":"yes"}},"10111824286":{"location":[43.539685,-7.060047],"ct":"ES","tp":"SD","ts":"2022-10-18T17:27:07Z","tX":491,"tY":374,"tags":{"access":"yes","fee":"no","opening_hours":"24/7","sanitary_dump_station":"public","sanitary_dump_station:basin":"yes","sanitary_dump_station:chemical_toilet":"yes","sanitary_dump_station:grey_water":"yes","sanitary_dump_station:round_drain":"yes","water_point":"yes"}},"10111824287":{"location":[43.563672,-7.2578983],"ct":"ES","tp":"SD","ts":"2022-10-18T17:27:07Z","tX":491,"tY":374,"tags":{"access":"yes","fee":"no","opening_hours":"24/7","sanitary_dump_station":"public","sanitary_dump_station:basin":"yes","sanitary_dump_station:chemical_toilet":"yes","sanitary_dump_station:grey_water":"yes","sanitary_dump_station:round_drain":"yes","water_point":"yes"}},"10738067333":{"location":[43.5386763,-7.0842729],"ct":"ES","tp":"SD","ts":"2023-03-15T21:08:16Z","tX":491,"tY":374,"tags":{}}}