{"951661449":{"location":[42.3889559,-7.1142519],"ct":"ES","tp":"CR","ts":"2025-03-03T13:33:35Z","tX":491,"tY":378,"tags":{"access":"yes","addr:city":"A Rúa","addr:postcode":"32315","addr:street":"Rúa da Noria","capacity":"10","caravan_site":"motorhome_stopover","covered":"no","drinking_water":"yes","fee":"no","maxstay":"48 hours","name":"Área de Autocaravanas do Aguillón","operator":"Concello da Rúa","power_supply":"no","sanitary_dump_station":"yes","sanitary_dump_station:chemical_toilet":"yes","sanitary_dump_station:grey_water":"yes","sanitary_dump_station:round_drain":"yes","supervised":"no","surface":"asphalt","water_point":"yes"}},"951663822":{"location":[42.3715104,-7.2972621],"ct":"ES","tp":"CR","ts":"2024-05-19T10:28:11Z","tX":491,"tY":378,"tags":{"access":"yes","addr:city":"San Xoán de Río","addr:postcode":"32770","addr:ref":"OU-0705","capacity":"14","covered":"no","drinking_water":"yes","fee":"no","name":"Área de Autocaravanas de San Xoán de Río","power_supply":"no","sanitary_dump_station":"yes","sanitary_dump_station:chemical_toilet":"yes","sanitary_dump_station:grey_water":"yes","sanitary_dump_station:round_drain":"yes","supervised":"no","surface":"asphalt","water_point":"yes"}},"956227276":{"location":[42.4682629,-7.2871581],"ct":"ES","tp":"CR","ts":"2024-05-21T18:24:05Z","tX":491,"tY":378,"tags":{"access":"yes","addr:city":"Ribas de Sil","addr:postcode":"27310","addr:street":"Camiño da Lama","capacity":"3","covered":"no","description:fr":"Possibilité de stationner dans la zone sans etre dans l'aire de camping car","drinking_water":"yes","fee":"no","maxstay":"48 hours","name":"Área de Autocaravanas da Pena da Mula","operator":"Ayuntamiento de Quiroga","power_supply":"no","sanitary_dump_station":"yes","sanitary_dump_station:chemical_toilet":"yes","sanitary_dump_station:grey_water":"yes","sanitary_dump_station:round_drain":"yes","supervised":"no","surface":"asphalt","toilets":"no","water_point":"yes"}},"5620577777":{"location":[42.3449737,-7.2632128],"ct":"ES","tp":"CS","ts":"2024-09-08T14:48:40Z","tX":491,"tY":378,"tags":{"fixme":"closed?","name":"Camping da Masía"}},"8808609523":{"location":[42.3889825,-7.1149798],"ct":"ES","tp":"SD","ts":"2024-02-16T21:08:20Z","tX":491,"tY":378,"tags":{"access":"yes","fee":"no","motorhome":"designated","operator":"Ayuntamiento de A Rúa","sanitary_dump_station":"public","sanitary_dump_station:chemical_toilet":"no","sanitary_dump_station:grey_water":"yes","sanitary_dump_station:round_drain":"yes","water_point":"yes"}},"8808622131":{"location":[42.3714262,-7.2971993],"ct":"ES","tp":"SD","ts":"2024-02-16T20:25:51Z","tX":491,"tY":378,"tags":{"access":"yes","fee":"no","motorhome":"designated","operator":"Concello de San Xoán de Río","sanitary_dump_station":"public","sanitary_dump_station:chemical_toilet":"no","sanitary_dump_station:grey_water":"yes","sanitary_dump_station:round_drain":"yes","water_point":"yes"}},"8849795214":{"location":[42.4682166,-7.2871803],"ct":"ES","tp":"SD","ts":"2024-05-21T18:24:05Z","tX":491,"tY":378,"tags":{"access":"yes","fee":"no","motorhome":"designated","operator":"Concello de Ribas de Sil","sanitary_dump_station":"public","sanitary_dump_station:chemical_toilet":"no","sanitary_dump_station:grey_water":"yes","sanitary_dump_station:round_drain":"yes","water_point":"yes"}}}