{"225571759":{"location":[37.2009846,-7.3013105],"ct":"ES","tp":"CS","ts":"2022-04-03T03:56:43Z","tX":491,"tY":397,"tags":{"cabins":"yes","caravans":"yes","name":"Camping Giralda Isla Cristina","tents":"yes","website":"https://www.campinggiralda.com/","wheelchair":"yes"}},"337763635":{"location":[37.2457757,-7.0821428],"ct":"ES","tp":"CS","ts":"2024-05-15T06:55:11Z","tX":491,"tY":397,"tags":{"addr:city":"Cartaya","addr:milestone":"Km. 6","addr:postcode":"21450","addr:street":"Carretera de El Portil a Cartaya","barrier":"fence","caravans":"no","fence_type":"wire","internet_access":"yes","internet_access:fee":"yes","name":"Casa del Gato - Territorio Activo","openfire":"no","payment:cash":"yes","payment:coins":"yes","phone":"+34 667695888","scout":"no","tents":"no","website":"https://www.territorioactivo.es/","wheelchair":"yes"}},"365853486":{"location":[37.2085093,-7.2518437],"ct":"ES","tp":"CS","ts":"2023-04-30T11:42:11Z","tX":491,"tY":397,"tags":{"name":"Camping Luz"}},"659499133":{"location":[37.2059701,-7.2655022],"ct":"ES","tp":"CS","ts":"2018-12-31T15:55:30Z","tX":491,"tY":397,"tags":{"access":"private","addr:city":"La Redondela","barrier":"fence","fee":"yes","internet_access":"wlan","internet_access:fee":"no","name":"Camping Playa Taray"}},"773603422":{"location":[37.2217427,-7.321922],"ct":"ES","tp":"CR","ts":"2023-04-14T05:28:41Z","tX":491,"tY":397,"tags":{"addr:city":"Pozo del Camino","addr:postcode":"21420","addr:street":"Barriada de la Estaci√≥n","capacity":"50","email":"camperparkplayasdeluz@gmail.com","internet_access":"wlan","internet_access:fee":"no","name":"Camper Park Playas de Luz","nohousenumber":"yes","phone":"+34 601 634 684","power_supply":"yes","sanitary_dump_station":"yes","website":"https://camperpark.es"}},"866353807":{"location":[37.2162066,-7.1934999],"ct":"ES","tp":"CS","ts":"2020-11-02T15:58:43Z","tX":491,"tY":397,"tags":{}},"4244794209":{"location":[37.3021427,-7.1488974],"ct":"ES","tp":"SD","ts":"2023-08-29T15:15:35Z","tX":491,"tY":397,"tags":{"access":"yes","charge":"3EUR","fee":"yes","sanitary_dump_station:chemical_toilet":"yes","sanitary_dump_station:grey_water":"yes","water_point":"yes"}},"5333954322":{"location":[37.2101994,-7.2023673],"ct":"ES","tp":"CR","ts":"2018-01-11T21:28:30Z","tX":491,"tY":397,"tags":{"name":"Parquear Gratuito","name:de":"Gratis Parkplatz","name:en":"Free Parking"}}}