{"381708697":{"location":[25.1578219,121.5485271],"ct":"TW","tp":"CS","ts":"2024-02-22T04:56:20Z","tX":857,"tY":438,"tags":{"barrier":"fence","name":"陽明山童軍露營場","operator":"教育部"}},"455734059":{"location":[25.1649779,121.4117873],"ct":"TW","tp":"CS","ts":"2019-07-20T23:30:13Z","tX":857,"tY":438,"tags":{"name":"八里文化公園","website":"https://tour.ntpc.gov.tw/zh-tw/Attraction/Detail?wnd_id=60&id=400310"}},"460859715":{"location":[24.900526,121.5508863],"ct":"TW","tp":"CS","ts":"2024-06-16T07:35:06Z","tX":857,"tY":438,"tags":{"addr:city":"新北市","addr:country":"TW","addr:district":"新店區","addr:hamlet":"龜山里","addr:housenumber":"5號","addr:street":"新烏路三段195巷","backcountry":"yes","name":"新北市童軍龜山營地"}},"481556811":{"location":[25.1041573,121.5799938],"ct":"TW","tp":"CS","ts":"2024-02-01T03:30:42Z","tX":857,"tY":438,"tags":{"name":"碧山露營場"}},"496634573":{"location":[24.9250076,121.5235585],"ct":"TW","tp":"CS","ts":"2020-03-12T00:29:08Z","tX":857,"tY":438,"tags":{"name":"確幸莊園"}},"496634575":{"location":[24.9253702,121.525111],"ct":"TW","tp":"CS","ts":"2022-08-31T15:00:04Z","tX":857,"tY":438,"tags":{"name":"長青谷"}},"521109316":{"location":[24.931443,121.558172],"ct":"TW","tp":"CS","ts":"2017-09-03T22:47:10Z","tX":857,"tY":438,"tags":{"barrier":"wall"}},"528943203":{"location":[25.0141038,121.4974259],"ct":"TW","tp":"CS","ts":"2017-09-30T09:09:13Z","tX":857,"tY":438,"tags":{"landuse":"grass","name":"華中露營場"}},"528943204":{"location":[25.0139353,121.4979719],"ct":"TW","tp":"CR","ts":"2017-09-30T09:05:23Z","tX":857,"tY":438,"tags":{"name":"第二汽車露營區"}},"528943206":{"location":[25.0147809,121.4975671],"ct":"TW","tp":"CR","ts":"2017-09-30T09:05:23Z","tX":857,"tY":438,"tags":{"name":"第一汽車露營區"}},"528945545":{"location":[25.0131667,121.496504],"ct":"TW","tp":"CS","ts":"2017-09-30T09:05:21Z","tX":857,"tY":438,"tags":{"name":"帳篷露營區"}},"529579968":{"location":[25.1033803,121.5566377],"ct":"TW","tp":"CS","ts":"2017-10-03T00:46:14Z","tX":857,"tY":438,"tags":{"name":"露營區"}},"695599100":{"location":[24.9219727,121.458285],"ct":"TW","tp":"CS","ts":"2019-06-07T11:09:21Z","tX":857,"tY":438,"tags":{"barrier":"fence","name":"山水畔農場"}},"718772275":{"location":[24.8602257,121.5385531],"ct":"TW","tp":"CS","ts":"2020-12-14T18:36:12Z","tX":857,"tY":438,"tags":{"name":"泰雅巴萊部落村"}},"936924218":{"location":[24.8578621,121.5410963],"ct":"TW","tp":"CS","ts":"2021-04-29T21:50:09Z","tX":857,"tY":438,"tags":{"name":"給樹營地"}},"1310002299":{"location":[25.1519675,121.4913888],"ct":"TW","tp":"CS","ts":"2024-08-23T05:24:25Z","tX":857,"tY":438,"tags":{"name":"貴子坑露營場"}},"3441625006":{"location":[24.8556092,121.4817795],"ct":"TW","tp":"CS","ts":"2015-04-06T20:13:24Z","tX":857,"tY":438,"tags":{}},"4361705233":{"location":[24.8469946,121.449551],"ct":"TW","tp":"CS","ts":"2024-05-19T05:26:50Z","tX":857,"tY":438,"tags":{"addr:city":"新北市","addr:country":"TW","addr:district":"三峽區","addr:housenumber":"149","addr:street":"有木","contact:mobile":"+886-937-003762","name":"831露營區","name:zh":"831露營區 結束營業","phone":"+886 2 2671 0632"}},"4583792389":{"location":[24.8830133,121.556385],"ct":"TW","tp":"CS","ts":"2017-12-08T22:44:59Z","tX":857,"tY":438,"tags":{"name":"桶壁角露營區","name:zh":"桶壁角露營區"}},"4731792141":{"location":[24.8544729,121.519693],"ct":"TW","tp":"CS","ts":"2017-03-13T08:23:35Z","tX":857,"tY":438,"tags":{"name":"水源營地"}},"10605754499":{"location":[25.1050729,121.5806636],"ct":"TW","tp":"CS","ts":"2023-02-04T10:18:33Z","tX":857,"tY":438,"tags":{"name":"J2鳥窩營區","operator":"碧山露營場"}},"10605754500":{"location":[25.1050835,121.5808405],"ct":"TW","tp":"CS","ts":"2023-02-04T10:18:33Z","tX":857,"tY":438,"tags":{"name":"J4蟻窩營區","operator":"碧山露營場"}},"11917101470":{"location":[24.8482426,121.4459158],"ct":"TW","tp":"CS","ts":"2024-05-19T02:30:36Z","tX":857,"tY":438,"tags":{"name":"東峰露營區"}},"6611813685":{"location":[25.0269293,121.5081963],"ct":"TW","tp":"CR","ts":"2019-07-13T14:19:38Z","tX":857,"tY":438,"tags":{"addr:street":"詔安街250巷"}}}