{"428442320":{"location":[23.4130129,121.4822188],"ct":"TW","tp":"CS","ts":"2017-02-18T15:48:46Z","tX":857,"tY":443,"tags":{"name":"樟原派出所免費露營地"}},"518136018":{"location":[23.4860771,121.5115411],"ct":"TW","tp":"CS","ts":"2022-04-10T07:07:21Z","tX":857,"tY":443,"tags":{"name":"石梯坪露營區"}},"519249245":{"location":[23.489016,121.4007252],"ct":"TW","tp":"CS","ts":"2017-08-28T08:00:10Z","tX":857,"tY":443,"tags":{"name":"瑞穗露營區"}},"1050702655":{"location":[23.4842543,121.5117396],"ct":"TW","tp":"CS","ts":"2022-04-10T07:07:21Z","tX":857,"tY":443,"tags":{"name":"石梯坪露營區"}},"1051541428":{"location":[23.4820673,121.5090868],"ct":"TW","tp":"CS","ts":"2023-08-04T00:36:48Z","tX":857,"tY":443,"tags":{"addr:city":"花蓮縣","addr:country":"TW","addr:district":"豐濱鄉","addr:housenumber":"45-2","addr:place":"石梯坪","addr:province":"台灣省","name":"加利利海石梯坪露營區"}},"5246393633":{"location":[23.4902952,121.3506247],"ct":"TW","tp":"CS","ts":"2017-11-24T23:38:19Z","tX":857,"tY":443,"tags":{"name":"camping/hotspring 300ntd/pax"}},"5246614723":{"location":[23.3361209,121.339839],"ct":"TW","tp":"CS","ts":"2023-02-11T08:50:38Z","tX":857,"tY":443,"tags":{"addr:postcode":"981","name":"東豐露營區","name:en":"Dongfeng camping","name:zh":"東豐露營區","phone":"0972 838 351"}}}