{"3651291645":{"location":[14.7814776,121.3181865],"ct":"PH","tp":"CS","ts":"2015-07-14T20:48:45Z","tX":857,"tY":469,"tags":{"name":"Mount Irid Campsite","source":"Schadow1 Expeditions"}},"6542468185":{"location":[14.7743399,121.3168182],"ct":"PH","tp":"CS","ts":"2019-06-12T13:24:46Z","tX":857,"tY":469,"tags":{"name":"Sadlak Resthouse"}},"8251099317":{"location":[14.6049112,121.3646257],"ct":"PH","tp":"CS","ts":"2020-12-22T08:53:48Z","tX":857,"tY":469,"tags":{"name":"Fresno Agro Forestry & Eco Tourism Campsite"}},"9435570934":{"location":[14.6653101,121.3423999],"ct":"PH","tp":"CS","ts":"2022-01-21T05:12:19Z","tX":857,"tY":469,"tags":{"access":"yes","addr:city":"Rizal","addr:street":"Santa Ines Road","capacity":"20","name":"Two Rivers Campsite"}},"10240298809":{"location":[14.685403,121.3343291],"ct":"PH","tp":"CS","ts":"2022-12-05T14:34:51Z","tX":857,"tY":469,"tags":{"name":"Camp boa"}},"10280330040":{"location":[14.6171197,121.3650857],"ct":"PH","tp":"CS","ts":"2022-12-24T01:41:00Z","tX":857,"tY":469,"tags":{"name":"Mount Mahimbing Camp Site 2"}},"10280330068":{"location":[14.6148279,121.3630097],"ct":"PH","tp":"CS","ts":"2022-12-24T01:41:00Z","tX":857,"tY":469,"tags":{"name":"Mount Mahimbing Camp Site 1","operator":"Elwelll Loma"}},"10913670906":{"location":[14.6054059,121.4258002],"ct":"PH","tp":"CS","ts":"2023-05-20T06:53:32Z","tX":857,"tY":469,"tags":{"name":"Camping","name:en":"Camp LGBT"}},"11801401978":{"location":[14.6556034,121.3495499],"ct":"PH","tp":"CS","ts":"2024-04-08T08:30:19Z","tX":857,"tY":469,"tags":{"addr:city":"Tanay","addr:province":"Rizal","landuse":"recreation_ground","leisure":"campsite","name":"Camp Hiatus","source":"aorlanes"}},"11801408305":{"location":[14.6471497,121.3583445],"ct":"PH","tp":"CS","ts":"2024-04-08T08:30:19Z","tX":857,"tY":469,"tags":{"addr:city":"Tanay","addr:province":"Rizal","landuse":"recreation_ground","leisure":"campsite","name":"Fika Haven Campsite","source":"aorlanes"}},"12098500014":{"location":[14.65306,121.3506241],"ct":"PH","tp":"CS","ts":"2024-08-08T09:20:57Z","tX":857,"tY":469,"tags":{"name":"Empire Dragon Campsite"}}}