{"204661188":{"location":[14.0610512,121.4535558],"ct":"PH","tp":"CS","ts":"2013-02-08T13:43:55Z","tX":857,"tY":471,"tags":{"addr:city":"Dolores","addr:postcode":"4323","name":"Tres Pico Waterfall Campsite"}},"220343860":{"location":[14.1122251,121.3970536],"ct":"PH","tp":"CS","ts":"2024-06-23T10:52:34Z","tX":857,"tY":471,"tags":{"addr:city":"Rizal","addr:postcode":"4003","addr:street":"Arban","name":"Rizal Re-Creation Center","smoking":"no","website":"https://www.re-creationcenter.com/"}},"985007145":{"location":[14.2379861,121.5476794],"ct":"PH","tp":"CS","ts":"2021-09-20T02:49:48Z","tX":857,"tY":471,"tags":{"addr:city":"Cavinti","addr:postcode":"4013","addr:province":"Laguna","addr:street":"Inao Awan - Bukal Road","contact:facebook":"https://www.facebook.com/BLOC.CampSite","mobile":"+63 (936) 9699644","name":"BLOC Camp Site","reservation":"yes","source":"Schadow1 Expeditions","survey:date":"2021-09-19","tents":"yes"}},"985007146":{"location":[14.2376754,121.5469133],"ct":"PH","tp":"CS","ts":"2021-09-20T02:48:02Z","tX":857,"tY":471,"tags":{"addr:city":"Cavinti","addr:postcode":"4013","addr:province":"Laguna","addr:street":"Inao Awan - Bukal Road","backcountry":"yes","contact:facebook":"https://www.facebook.com/KingsLandingCampingResort","internet_access":"wlan","internet_access:fee":"no","mobile":"+63 (939) 7784610","name":"King's Landing Waterfront Camping Resort","reservation":"yes","source":"Schadow1 Expeditions","survey:date":"2021-09-19","tents":"yes"}},"985007150":{"location":[14.2413087,121.5449667],"ct":"PH","tp":"CS","ts":"2021-09-20T02:48:02Z","tX":857,"tY":471,"tags":{"addr:city":"Cavinti","addr:postcode":"4013","addr:province":"Laguna","addr:street":"Inao Awan - Bukal Road","name":"Mt. Zion Lakefront Campsite","reservation":"yes","source":"Schadow1 Expeditions","survey:date":"2021-09-19","tents":"yes"}},"985007151":{"location":[14.2427411,121.5454106],"ct":"PH","tp":"CS","ts":"2021-09-20T02:48:02Z","tX":857,"tY":471,"tags":{"addr:city":"Cavinti","addr:postcode":"4013","addr:province":"Laguna","addr:street":"Inao Awan - Bukal Road","name":"5558 Campsite","reservation":"yes","source":"Schadow1 Expeditions","survey:date":"2021-09-19","tents":"yes"}},"985007152":{"location":[14.2511096,121.5419546],"ct":"PH","tp":"CS","ts":"2021-09-20T02:48:02Z","tX":857,"tY":471,"tags":{"addr:city":"Cavinti","addr:postcode":"4013","addr:province":"Laguna","addr:street":"Inao Awan - Bukal Road","backcountry":"yes","name":"Cavinti Eco Extreme Adventure","reservation":"yes","source":"Schadow1 Expeditions","survey:date":"2021-09-19","tents":"yes"}},"1242499177":{"location":[14.2620618,121.421116],"ct":"PH","tp":"CS","ts":"2024-01-24T13:44:07Z","tX":857,"tY":471,"tags":{"layer":"-1"}},"2125894858":{"location":[14.0628648,121.4247934],"ct":"PH","tp":"CS","ts":"2013-02-19T10:40:40Z","tX":857,"tY":471,"tags":{"addr:city":"Rizal","addr:postcode":"4003","addr:street":"Mt Cristobal Trail","campfire":"no","ele":"1425","name":"Bulwagan Saddle","source":"Camping Geeks"}},"2133326412":{"location":[14.1466462,121.3449115],"ct":"PH","tp":"CS","ts":"2014-03-05T02:30:30Z","tX":857,"tY":471,"tags":{"name":"Mount Nagcarlang Campsite"}},"2146598616":{"location":[14.062915,121.4265124],"ct":"PH","tp":"CS","ts":"2014-10-08T07:21:09Z","tX":857,"tY":471,"tags":{"addr:city":"Rizal","addr:postcode":"4003","addr:street":"Mt Cristobal Trail","campfire":"no","ele":"1402","name":"Crater Campsite","source":"Camping Geeks","url":"http://www.camping-geeks.com"}},"2149818752":{"location":[14.1324448,121.3583294],"ct":"PH","tp":"CS","ts":"2013-02-11T00:15:38Z","tX":857,"tY":471,"tags":{"name":"Mabilog Campsite"}},"2162436706":{"location":[14.0625967,121.4227787],"ct":"PH","tp":"CS","ts":"2022-11-05T09:44:43Z","tX":857,"tY":471,"tags":{"addr:city":"Rizal","addr:postcode":"4003","addr:street":"Mt Cristobal Trail","ele":"1460","note":"2-3 tents only","source":"Schadow1 Expeditions"}},"2594692117":{"location":[14.0649995,121.5100497],"ct":"PH","tp":"CS","ts":"2013-12-26T03:32:23Z","tX":857,"tY":471,"tags":{"name":"Camp 2","source":"Alain Orlanes"}},"4755573926":{"location":[14.0424761,121.4471332],"ct":"PH","tp":"CS","ts":"2023-10-01T13:16:43Z","tX":857,"tY":471,"tags":{"description":"open only during Holy Week","name":"Kinabuhayan Forestry Campsite","name:en":"Kinabuhayan Campsite","operator":"Kinabuhayan Barangay Council"}},"4778792522":{"location":[14.1104831,121.5072235],"ct":"PH","tp":"CS","ts":"2017-04-06T12:16:08Z","tX":857,"tY":471,"tags":{"name":"Taytay Falls Campsite","name:en":"Taytay Falls Campsite"}},"4987427530":{"location":[14.1446546,121.3351275],"ct":"PH","tp":"CS","ts":"2017-07-23T02:44:20Z","tX":857,"tY":471,"tags":{"name":"Mango tree","name:en":"Mango tree"}},"5751331021":{"location":[14.2594163,121.5409496],"ct":"PH","tp":"CS","ts":"2018-07-10T09:30:57Z","tX":857,"tY":471,"tags":{"name":"Hamak Hikers"}},"6064104888":{"location":[14.2494387,121.4576899],"ct":"PH","tp":"CS","ts":"2018-11-15T16:27:37Z","tX":857,"tY":471,"tags":{"name":"Serenity Christian Camp and Re-creation center"}},"6419201185":{"location":[14.1329735,121.4310269],"ct":"PH","tp":"CS","ts":"2019-10-06T15:30:20Z","tX":857,"tY":471,"tags":{"name":"Batis ng Liliw Swimming"}},"9106522638":{"location":[14.2408771,121.5490785],"ct":"PH","tp":"CS","ts":"2021-09-20T02:48:02Z","tX":857,"tY":471,"tags":{"addr:city":"Cavinti","addr:postcode":"4013","addr:province":"Laguna","addr:street":"Caliraya-Cavinti Arterial Road","contact:facebook":"https://www.facebook.com/kamp.aleixo/","name":"Kamp Aleixo","reservation":"yes","source":"Schadow1 Expeditions","survey:date":"2021-09-19"}},"9269083717":{"location":[14.0283264,121.4641688],"ct":"PH","tp":"CS","ts":"2021-11-20T04:26:40Z","tX":857,"tY":471,"tags":{"name":"Berhing Bato"}},"9523035704":{"location":[14.1136314,121.4588562],"ct":"PH","tp":"CS","ts":"2022-02-21T01:57:22Z","tX":857,"tY":471,"tags":{"name":"Esmeris Farm"}},"11527389969":{"location":[14.2257104,121.460491],"ct":"PH","tp":"CS","ts":"2024-01-18T06:51:36Z","tX":857,"tY":471,"tags":{"addr:street":"Pabilonia Street","name":"ANIBONG COTTAGE"}},"11808408161":{"location":[14.0810893,121.4174909],"ct":"PH","tp":"CS","ts":"2024-07-19T17:18:48Z","tX":857,"tY":471,"tags":{"addr:city":"Nagcarlan","addr:province":"Laguna","leisure":"campsite","name":"La Preza de Cacawa Campsite","source":"aorlanes"}},"11808909190":{"location":[14.2250667,121.4603325],"ct":"PH","tp":"CS","ts":"2024-04-11T05:38:12Z","tX":857,"tY":471,"tags":{"addr:city":"Magdalena","addr:province":"Laguna","landuse":"recreation_ground","leisure":"campsite","name":"The Rio at Magdalena","source":"aorlanes"}}}