{"2090530100":{"location":[18.4979823,99.2724832],"ct":"TH","tp":"CS","ts":"2016-09-28T21:35:09Z","tX":794,"tY":458,"tags":{"name":"จุดยุทธศาสตร์ที่2","name:en":"Camp 2","name:ko":"캠핑장","name:th":"จุดยุทธศาสตร์ที่2"}},"2090530102":{"location":[18.4990009,99.2787221],"ct":"TH","tp":"CS","ts":"2013-01-17T11:40:16Z","tX":794,"tY":458,"tags":{"name":"ยุทธศาสตร์ที่1(ย.1)","name:en":"Yaw 1","name:th":"ยุทธศาสตร์ที่1(ย.1)"}},"2090530103":{"location":[18.4978535,99.2855172],"ct":"TH","tp":"CS","ts":"2013-01-17T11:41:07Z","tX":794,"tY":458,"tags":{"name":"ยุทธศาสตร์ที่2 (ย.2)","name:en":"Yaw 2","name:th":"ยุทธศาสตร์ที่2 (ย.2)"}},"2090530115":{"location":[18.4957627,99.2701232],"ct":"TH","tp":"CS","ts":"2013-01-01T01:41:32Z","tX":794,"tY":458,"tags":{}},"2094249764":{"location":[18.498338,99.2771344],"ct":"TH","tp":"CS","ts":"2013-01-04T01:52:53Z","tX":794,"tY":458,"tags":{}},"3766703238":{"location":[18.5810382,99.1523581],"ct":"TH","tp":"CS","ts":"2015-10-01T02:42:47Z","tX":794,"tY":458,"tags":{"fee":"yes"}},"6263420485":{"location":[18.4928636,99.2993537],"ct":"TH","tp":"CS","ts":"2019-02-07T09:49:04Z","tX":794,"tY":458,"tags":{"name:en":"Yam 3"}}}