{"643655066":{"location":[14.9910686,99.2949169],"ct":"TH","tp":"CS","ts":"2023-05-24T13:23:23Z","tX":794,"tY":468,"tags":{"name":"Tapernkee"}},"1250200628":{"location":[15.2127034,99.4455247],"ct":"TH","tp":"CS","ts":"2024-02-14T07:23:05Z","tX":794,"tY":468,"tags":{"access":"customers","addr:city":"อุทัยธานี","addr:postcode":"61140","addr:street":"หมู่ 5 ต.คอกควาย อ.บ้านไร่","name":"เคบิ้น ห้วยขาแข้ง Cabin キャビン","name:en":"Cabin","name:th":"เคบิ้น ห้วยขาแข้ง","operator":"Cabin Projects"}},"5278833533":{"location":[14.9954393,99.2966704],"ct":"TH","tp":"CS","ts":"2017-12-12T03:20:16Z","tX":794,"tY":468,"tags":{}},"5311343921":{"location":[15.2807172,99.4752563],"ct":"TH","tp":"CS","ts":"2017-12-30T02:07:08Z","tX":794,"tY":468,"tags":{"name:en":"Camping"}},"6106322375":{"location":[14.9469563,99.4172606],"ct":"TH","tp":"CS","ts":"2018-11-30T14:29:03Z","tX":794,"tY":468,"tags":{"name:en":"Phu Toei Campsite"}},"4634075789":{"location":[15.1661734,99.2392988],"ct":"TH","tp":"CR","ts":"2017-01-26T06:20:17Z","tX":794,"tY":468,"tags":{"name":"ที่พัก"}}}