{"79409051":{"location":[57.1657898,-3.6959379],"ct":"GB","tp":"CS","ts":"2019-09-13T19:16:29Z","tX":501,"tY":312,"tags":{"addr:city":"Aviemore","addr:housename":"Glenmore Campsite","addr:postcode":"PH22 1QU","caravans":"yes","name":"Glenmore Camp Site","operator":"Camping in the Forest","phone":"+44 1479 861271","source":"GPS survey;Bing aerial","tents":"yes","website":"https://www.campingintheforest.co.uk/scotland/aviemore/glenmore-campsite"}},"147535157":{"location":[57.2502739,-3.7607703],"ct":"GB","tp":"CR","ts":"2022-05-13T18:49:31Z","tX":501,"tY":312,"tags":{"addr:city":"Boat of Garten","addr:housename":"The Boat of Garten Holiday Park","addr:postcode":"PH24 3BN","addr:street":"Deshar Road","name":"Boat of Garten Holiday Park","phone":"+44 1479 831652","tents":"no","website":"https://www.boatofgartenholidaypark.com/"}},"267098691":{"location":[57.1829671,-3.8335759],"ct":"GB","tp":"CR","ts":"2016-07-25T14:41:13Z","tX":501,"tY":312,"tags":{"name":"High Range Holiday Complex","note":"Touring Caravan & Camping Park ","operator":"High Range"}},"712544884":{"location":[57.1732955,-3.795247],"ct":"GB","tp":"CS","ts":"2024-03-17T09:43:52Z","tX":501,"tY":312,"tags":{"caravans":"yes","name":"Rothiemurchus Camp and Caravan","tents":"yes","website":"https://rothiemurchus.net/visit/stay/"}},"770330236":{"location":[57.2636171,-3.6321135],"ct":"GB","tp":"CS","ts":"2023-12-03T11:36:12Z","tX":501,"tY":312,"tags":{"name":"The Lazy Duck","tents":"no","website":"https://www.lazyduck.co.uk/"}},"1106921504":{"location":[57.2116711,-3.8247924],"ct":"GB","tp":"CS","ts":"2024-07-11T20:05:05Z","tX":501,"tY":312,"tags":{"access":"customers","addr:city":"Aviemore","addr:postcode":"PH22 1QD","addr:subdistrict":"Granish","caravans":"yes","contact:email":"info@oakwoodcampingpark.co.uk","contact:facebook":"https://www.facebook.com/OakwoodCampingPark/","contact:phone":"+44 1479 258 197","contact:website":"https://oakwoodcampingpark.co.uk/","drinking_water":"yes","name":"Oakwood Caravan & Camping Park","power_supply":"yes","sanitary_dump_station":"yes","shower":"yes","tents":"yes","toilets":"yes"}},"1332184177":{"location":[57.183832,-3.833672],"ct":"GB","tp":"CR","ts":"2024-11-09T12:00:41Z","tX":501,"tY":312,"tags":{"name":"High Range Holiday Complex","note":"Touring Caravan & Camping Park","operator":"High Range"}},"10913898992":{"location":[57.2907341,-3.7217384],"ct":"GB","tp":"CR","ts":"2024-03-11T11:48:00Z","tX":501,"tY":312,"tags":{"access":"customers","caravans":"yes","charge":"10 GBP/night","fee":"yes","name":"Clury Croft Airigh","phone":"+44 7533753414","static_caravans":"no","tents":"no","website":"https://www.clurycroftairigh.com/"}}}