{"25194866":{"location":[56.7023528,-3.7302581],"ct":"GB","tp":"PK","ts":"2024-04-27T18:23:20Z","tX":501,"tY":315,"tags":{"access":"yes","caravans":"yes","fee":"yes","name":"Atholl Road Car Park","park_ride":"no","parking":"surface","ref:ringgo":"18584","supervised":"no","surface":"asphalt"}},"28449748":{"location":[56.6570069,-3.7724177],"ct":"GB","tp":"CS","ts":"2021-07-03T12:11:02Z","tX":501,"tY":315,"tags":{"addr:postcode":"PH9 0PL","addr:street":"Lageonan Road","alt_name":"Grandtully","campervans":"11","caravans":"3","name":"SCA Grandtully","note":"The SCA campsite is at the old station yard, Grandtully near Aberfeldy. The site is just a short walk from the River Tay and canoe slalom site at Grandtully rapids.  The Campsite is suitable for individual and group bookings from outdoor enthusiasts","operator":"Scottish Canoe Association","phone":"+44 7760 117641","tents":"yes","toilets":"yes","website":"https://www.grandtully.scot/"}},"28449749":{"location":[56.6564829,-3.7743008],"ct":"GB","tp":"CS","ts":"2024-04-21T13:05:53Z","tX":501,"tY":315,"tags":{"addr:city":"Grandtully","addr:housename":"Grandtully Station Campsite","addr:postcode":"PH9 0PL","addr:street":"Lageonan Road","contact:email":"campsite@grandtully.scot","contact:phone":"+44 1796 922010","contact:website":"https://www.grandtully.scot/","name":"Grandtully Station Campsite"}},"181397697":{"location":[56.5603714,-3.601656],"ct":"GB","tp":"CS","ts":"2023-08-28T12:31:12Z","tX":501,"tY":315,"tags":{"name":"Invermill Farm Caravan Park","source":"Bing","tents":"yes"}},"210581975":{"location":[56.6230464,-3.8593161],"ct":"GB","tp":"CS","ts":"2025-06-13T22:20:02Z","tX":501,"tY":315,"tags":{"caravans":"yes","drinking_water":"yes","name":"Aberfeldy Caravan Park","power_supply":"yes","shower":"yes","tents":"yes","toilets":"yes"}},"240723827":{"location":[56.69556,-3.7243017],"ct":"GB","tp":"CR","ts":"2024-03-16T12:10:19Z","tX":501,"tY":315,"tags":{"addr:city":"Pitlochry","addr:housename":"Fonab Caravan Park","addr:postcode":"PH16 5NA","caravans":"yes","fee":"yes","internet_access":"wlan","name":"Milton of Fonab Caravan Park","note":"Single gender groups not allowed","phone":"+44 1796 472882","power_supply":"yes","tents":"no","website":"https://www.fonab.co.uk/"}},"514897700":{"location":[56.5798059,-3.6323427],"ct":"GB","tp":"CR","ts":"2017-08-11T20:47:30Z","tX":501,"tY":315,"tags":{}},"529478144":{"location":[56.5606842,-3.5965868],"ct":"GB","tp":"CR","ts":"2022-12-11T16:56:15Z","tX":501,"tY":315,"tags":{"static_caravans":"yes","tents":"no"}},"626389122":{"location":[56.7210832,-3.7709419],"ct":"GB","tp":"CR","ts":"2024-03-16T12:12:38Z","tX":501,"tY":315,"tags":{"addr:city":"Pitlochry","addr:housename":"Faskally Caravan Park","addr:postcode":"PH16 5LD","camp_site":"serviced","caravans":"yes","fee":"yes","name":"Faskally Caravan Park","note":"Single sex groups in tents not allowed","phone":"+44 1796 472007","tents":"no","toilets":"yes","website":"https://www.faskally.co.uk/"}}}