{"116638725":{"location":[54.4892069,-3.6018806],"ct":"GB","tp":"CR","ts":"2024-06-24T16:23:18Z","tX":501,"tY":326,"tags":{"fee":"yes","name":"Seacote Park (Beachcomber Site)","power_supply":"no","source":"Bing"}},"116638757":{"location":[54.4926726,-3.6061535],"ct":"GB","tp":"CR","ts":"2022-05-03T14:55:03Z","tX":501,"tY":326,"tags":{"name":"Seacote Park","noexit":"outline and details added following visit","source":"bing","tents":"yes"}},"117407919":{"location":[54.4537194,-3.5612008],"ct":"GB","tp":"CR","ts":"2024-03-12T13:52:44Z","tX":501,"tY":326,"tags":{"source":"Bing"}},"117407920":{"location":[54.4561334,-3.5602328],"ct":"GB","tp":"CR","ts":"2024-03-14T08:22:39Z","tX":501,"tY":326,"tags":{"addr:city":"Nethertown","addr:postcode":"CA22 2UH","addr:street":"Lakeland View","name":"Lakeland View Country Park","phone":"+44 870 044 4444"}},"117409563":{"location":[54.4400766,-3.5396566],"ct":"GB","tp":"CR","ts":"2022-05-24T19:22:17Z","tX":501,"tY":326,"tags":{"addr:city":"Braystones","addr:postcode":"CA21 2YW","name":"Tarnside Caravan Park","phone":"+44 1946 841308","website":"https://www.hoseasons.co.uk/holiday-parks/tarnside-park-tarn"}},"117409568":{"location":[54.4342257,-3.5339776],"ct":"GB","tp":"CR","ts":"2015-03-03T15:56:56Z","tX":501,"tY":326,"tags":{"name":"Lantern Moss Caravan Park"}},"295269598":{"location":[54.493513,-3.6082406],"ct":"GB","tp":"CS","ts":"2014-07-31T17:25:19Z","tX":501,"tY":326,"tags":{}}}