{"61187674":{"location":[51.9939756,-3.7827445],"ct":"GB","tp":"CR","ts":"2024-07-23T22:07:01Z","tX":501,"tY":338,"tags":{"addr:city":"Llandovery","addr:country":"GB","addr:postcode":"SA20 0RD","addr:street":"Brecon Road","dog":"yes","fee":"yes","internet_access":"wlan","internet_access:fee":"yes","name":"Erwlon Caravan & Camping Site","pets":"yes","phone":"+44 1550 721021","power_supply":"yes","shower":"yes","source":"survey","tents":"yes","toilets":"yes","website":"https://www.erwlon.co.uk/","wheelchair":"yes"}},"115107049":{"location":[51.9183042,-3.7869678],"ct":"GB","tp":"CR","ts":"2011-05-27T13:39:05Z","tX":501,"tY":338,"tags":{"addr:city":"Llanddeusant","addr:country":"GB","addr:postcode":"SA19 9YG","name":"Black Mountain Caravan and Camping Park","website":"http://www.blackmountainholidays.co.uk"}},"1054727490":{"location":[51.8413039,-3.6724856],"ct":"GB","tp":"CS","ts":"2022-04-25T13:09:15Z","tX":501,"tY":338,"tags":{"name":"Tafarn-y-Garreg"}},"1077409473":{"location":[51.8788814,-3.8511909],"ct":"GB","tp":"CS","ts":"2024-09-27T19:53:17Z","tX":501,"tY":338,"tags":{"addr:city":"Llangadog","addr:housename":"Cosmos Camping","addr:postcode":"SA19 9RB","contact:email":"welcome@cosmoscamping.co.uk","contact:facebook":"https://www.facebook.com/Cosmos-Camping-105695041836899","contact:instagram":"http://instgram.com/cosmos_camping","contact:phone":"+44 1550 740611","contact:website":"https://www.cosmoscamping.co.uk/","fee":"yes","name":"Cosmos Camping"}},"1159201626":{"location":[52.0494638,-3.7494922],"ct":"GB","tp":"CR","ts":"2023-04-02T16:31:45Z","tX":501,"tY":338,"tags":{"addr:city":"Cynghordy","addr:postcode":"SA20 0LY","name":"Cwmcuttan Caravan Site","operator":"Mrs Garske & Mr Link","phone":"+44 1550 750 262","website":"http://www.cwmcuttan.com/"}},"1350919239":{"location":[51.9892135,-3.8063068],"ct":"GB","tp":"CS","ts":"2025-01-13T14:22:11Z","tX":501,"tY":338,"tags":{"addr:city":"Llandovery","addr:housename":"Llandovery Caravan & Camping Park","addr:postcode":"SA20 0DT","addr:street":"Church Bank Playing fields","caravans":"yes","name":"Llandovery Caravan & Camping Park","power_supply":"yes","sanitary_dump_station":"yes","tents":"yes"}},"1389791906":{"location":[51.9404867,-3.6666134],"ct":"GB","tp":"CS","ts":"2025-05-26T12:18:02Z","tX":501,"tY":338,"tags":{"access":"customers","addr:postcode":"LD3 8YF","caravans":"yes","name":"Ynysfaen Camping"}},"4313660057":{"location":[51.9239341,-3.5455075],"ct":"GB","tp":"CS","ts":"2016-07-20T22:31:25Z","tX":501,"tY":338,"tags":{"name":"Llwynstyffilin Farm"}},"9978558282":{"location":[51.9027747,-3.7641407],"ct":"GB","tp":"CS","ts":"2022-09-03T13:28:20Z","tX":501,"tY":338,"tags":{"access":"customers","addr:housename":"The Wildman Woods","addr:postcode":"SA19 9UW","camp_site":"standard","caravans":"no","contact:facebook":"https://www.facebook.com/thewildmanwoods/","drinking_water":"yes","email":"wildman656@hotmail.com","fee":"yes","internet_access":"no","name":"The Wildman Woods Campsite","shower":"yes","tents":"yes","toilets":"yes","website":"http://www.thewildmanwoods.com/","wheelchair":"no"}}}