{"25199542":{"location":[51.6985325,-3.7672538],"ct":"GB","tp":"CS","ts":"2008-07-05T16:04:29Z","tX":501,"tY":339,"tags":{}},"25199671":{"location":[51.6996065,-3.7672166],"ct":"GB","tp":"CS","ts":"2008-07-05T16:04:28Z","tX":501,"tY":339,"tags":{}},"272044628":{"location":[51.674435,-3.6318651],"ct":"GB","tp":"CS","ts":"2024-08-20T14:08:03Z","tX":501,"tY":339,"tags":{"name":"Glyncorrwg Ponds Campsite","website":"https://glyncorrwgmtbcentreandcampsite.co.uk/campsite/"}},"274741123":{"location":[51.6965502,-3.7641848],"ct":"GB","tp":"CS","ts":"2008-06-29T18:53:59Z","tX":501,"tY":339,"tags":{"name":"Glyn Y Mul Farm","postal_code":"SA10 8HF","source":"local_knowledge"}},"360928867":{"location":[51.8068941,-3.6837112],"ct":"GB","tp":"CS","ts":"2022-04-25T12:21:32Z","tX":501,"tY":339,"tags":{"addr:city":"Penycae","addr:postcode":"SA9 1YY","addr:street":"Brecon Road","name":"Brecon Beacons Caravan Touring Park"}},"612363216":{"location":[51.6852041,-3.6281643],"ct":"GB","tp":"CS","ts":"2024-04-06T12:00:30Z","tX":501,"tY":339,"tags":{"addr:place":"Glyncorrwg","addr:postcode":"SA13 3DB","name":"Willow Springs Campsite","tents":"yes","website":"https://www.willowspringscampsite.co.uk/"}},"1280060116":{"location":[51.8100803,-3.5526046],"ct":"GB","tp":"CS","ts":"2024-05-06T01:20:44Z","tX":501,"tY":339,"tags":{"capacity":"16","name":"The New Inn","operator":"The New Inn"}},"1303524193":{"location":[51.727286,-3.6615962],"ct":"GB","tp":"CS","ts":"2025-06-11T15:29:03Z","tX":501,"tY":339,"tags":{"capacity:caravans":"30","capacity:tents":"60","caravans":"yes","name":"Spring Valley Camping","tents":"yes"}},"2967194451":{"location":[51.8346526,-3.68096],"ct":"GB","tp":"CS","ts":"2023-08-09T08:17:12Z","tX":501,"tY":339,"tags":{"name":"Brecon Beacons Camping & Caravan Park","source":"survey","tents":"yes","website":"https://brecon-beacons-camping-and-caravanning.co.uk/"}},"11201870329":{"location":[51.816595,-3.6839463],"ct":"GB","tp":"CS","ts":"2023-09-19T09:23:00Z","tX":501,"tY":339,"tags":{"contact:email":"caeglascamping@gmail.com","name":"Cae Glas Camping","website":"https://www.cae-glas.com/"}},"12811906601":{"location":[51.792584,-3.5690611],"ct":"GB","tp":"CS","ts":"2025-05-05T15:35:39Z","tX":501,"tY":339,"tags":{"addr:postcode":"SA11 5UT","addr:street":"Heol Calch","email":"brynbwchcamping@aol.com","name":"Bryn Bwch","phone":"+44 7511 563119;+44 7929 828667"}}}