{"14368366":{"location":[51.1469986,-3.6865581],"ct":"GB","tp":"CS","ts":"2022-07-19T13:28:30Z","tX":501,"tY":342,"tags":{}},"161710450":{"location":[51.0239378,-3.7286733],"ct":"GB","tp":"CS","ts":"2012-04-30T21:16:02Z","tX":501,"tY":342,"tags":{"name":"Yeo Valley Holiday Park","website":"http://www.yeovalleyholidays.co.uk/"}},"174463158":{"location":[51.0056002,-3.5252273],"ct":"GB","tp":"CR","ts":"2023-09-02T06:07:43Z","tX":501,"tY":342,"tags":{"addr:street":"Higher Grants, Exebridge, Dulverton, Devon, TA22 9BE","capacity:pitches":"79","caravans":"yes","motorhome":"yes","name":"Exebridge Lakeside Club Campsite","phone":"+44 1398 324068","shower":"yes","tents":"no","toilets":"yes","website":"https://www.caravanclub.co.uk/club-sites/england/devon-and-cornwall/devon/exebridge-lakeside-club-campsite/"}},"197565150":{"location":[51.041512,-3.5524493],"ct":"GB","tp":"CR","ts":"2023-04-26T17:05:04Z","tX":501,"tY":342,"tags":{"addr:city":"Dulverton","addr:country":"GB","addr:postcode":"TA22 9HL","addr:street":"Kemps Way","fhrs:authority":"West Somerset","fhrs:id":"161344","fhrs:local_authority_id":"PI/000001337","name":"Exmoor House Caravan Site"}},"314431780":{"location":[51.1456317,-3.6835266],"ct":"GB","tp":"CS","ts":"2010-07-23T22:01:11Z","tX":501,"tY":342,"tags":{"name":"Westermill Farm Campsite"}},"403496468":{"location":[51.0284641,-3.819356],"ct":"GB","tp":"CR","ts":"2022-11-10T16:05:09Z","tX":501,"tY":342,"tags":{"internet_access":"yes","internet_access:fee":"yes","name":"Riverside Camping & Caravan Park","source":"OS_OpenData_StreetView","tents":"yes"}},"1186069672":{"location":[51.089517,-3.5393903],"ct":"GB","tp":"CS","ts":"2023-06-30T19:23:20Z","tX":501,"tY":342,"tags":{}},"1192550515":{"location":[51.0978907,-3.5785531],"ct":"GB","tp":"CS","ts":"2023-08-12T22:29:49Z","tX":501,"tY":342,"tags":{}},"1789140401":{"location":[51.0884961,-3.5390245],"ct":"GB","tp":"CS","ts":"2019-07-20T09:07:42Z","tX":501,"tY":342,"tags":{"addr:city":"Dulverton","addr:country":"GB","addr:county":"Somerset","addr:housename":"Mill House","addr:postcode":"TA22 9JR","addr:street":"Week Lane","addr:village":"Bridgetown","fhrs:authority":"West Somerset","fhrs:id":"161256","fhrs:local_authority_id":"PI/000001238","name":"Exe Valley Caravan Site","source":"ACSI"}},"1789140505":{"location":[51.0976959,-3.5799049],"ct":"GB","tp":"CS","ts":"2018-07-17T09:36:31Z","tX":501,"tY":342,"tags":{"caravans":"yes","description":"caravan and tent park","motor_vehicle":"yes","name":"Halse Farm","source":"ACSI","tents":"yes"}},"1789141590":{"location":[51.00436,-3.6247],"ct":"GB","tp":"CS","ts":"2012-06-15T22:06:23Z","tX":501,"tY":342,"tags":{"name":"Zeacombe House Car.Park","source":"ACSI"}},"6710832883":{"location":[51.1328,-3.64075],"ct":"GB","tp":"CS","ts":"2022-05-16T18:53:34Z","tX":501,"tY":342,"tags":{"name":"Exmoor Youth Hostel Campsite","operator":"Youth Hostels Association"}}}