{"123690709":{"location":[48.7995608,-3.5844086],"ct":"FR","tp":"CS","ts":"2025-02-02T15:15:42Z","tX":501,"tY":352,"tags":{"caravans":"yes","fee":"yes","name":"Camping municipal de L'Ile Grande Le Dourlin","power_supply":"yes","stars":"2","tents":"yes","website":"https://www.pleumeur-bodou.com/Camping-Municipal-du-Dourlin.html?lang=fr"}},"176874584":{"location":[48.7612273,-3.563321],"ct":"FR","tp":"CS","ts":"2022-10-07T20:22:45Z","tX":501,"tY":352,"tags":{"addr:city":"Trébeurden","addr:housenumber":"10","addr:postcode":"22560","name":"Camping de Roz Ar Mor","name:br":"Takad-kampiñ Roz ar Mor","source:name:br":"proper translation"}},"176874589":{"location":[48.7637662,-3.5627876],"ct":"FR","tp":"CS","ts":"2025-02-01T13:23:20Z","tX":501,"tY":352,"tags":{"caravans":"yes","name":"Camping Armor Loisirs","stars":"3","tents":"yes","website":"https://www.armorloisirs.com/"}},"176874590":{"location":[48.7601329,-3.5630426],"ct":"FR","tp":"CS","ts":"2021-10-18T12:46:18Z","tX":501,"tY":352,"tags":{"addr:city":"Trébeurden","addr:postcode":"22560","addr:street":"Chemin de Parc ar C'Han","fee":"yes","name":"Camping de Kerdual","shower":"yes","toilets":"yes","website":"https://www.campingdekerdual.fr/index.html"}},"222911704":{"location":[48.7148905,-3.8150563],"ct":"FR","tp":"CS","ts":"2024-06-02T16:02:43Z","tX":501,"tY":352,"tags":{"addr:city":"Plougasnou","addr:postcode":"29630","addr:street":"Rue de Karreg An Ty","caravans":"yes","email":"camping-plougasnou@orange.fr","fee":"yes","name":"Camping de la Mer","name:br":"Tachenn-gampiñ ar Mor","operator":"Mairie de Plougasnou","phone":"+33 2 98 72 37 06","source:name:br":"proper translation","static_caravans":"no","tents":"yes","website":"https://www.camping-plougasnou.fr/"}},"232897775":{"location":[48.8107244,-3.5411945],"ct":"FR","tp":"CS","ts":"2025-02-01T13:19:59Z","tX":501,"tY":352,"tags":{"caravans":"yes","name":"Camping du port Landrellec","name:br":"Takad-kampiñ Porzh Landrelleg","source:name:br":"proper translation","tents":"yes","website":"https://www.campingsliberte.com/"}},"269839713":{"location":[48.812984,-3.5452726],"ct":"FR","tp":"CS","ts":"2024-05-24T11:04:58Z","tX":501,"tY":352,"tags":{"access:note":"Associatf","addr:city":"Pleumeur-Bodou","addr:housenumber":"24","addr:postcode":"22560","addr:street":"Route de Roscané","capacity":"133","caravans":"yes","check_date":"2024-05-24","dog":"leashed","drinking_water":"yes","fee":"yes","internet_access":"yes","internet_access:fee":"no","name":"GCU Landrellec","name:br":"SKS Landrelleg","openfire":"no","operator":"Groupement des Campeurs Universitaires","payment:cash":"yes","payment:cheque":"yes","picnic_table":"no","power_supply":"yes","reservation":"yes","sanitary_dump_station":"customers","shower":"yes","source":"survey","source:name:br":"proper translation","stars":"1","static_caravans":"no","tents":"yes","toilets":"yes","website":"https://www.gcu.asso.fr/terrains/landrellec-côtes-darmor-22","wheelchair":"yes"}},"269840961":{"location":[48.8181392,-3.537274],"ct":"FR","tp":"CS","ts":"2025-02-01T13:20:59Z","tX":501,"tY":352,"tags":{"capacity":"133","caravans":"yes","dog":"yes","drinking_water":"yes","email":"camping.landrellec@orange.fr","fee":"yes","impromptu":"yes","name":"Camping municipal de Landrellec","name:br":"Takad-kampiñ kêr Landrelleg","openfire":"no","opening_hours":"09:00-12:00,14:30-19:00","phone":"+33 296238792","power_supply":"yes","sanitary_dump_station":"yes","shower":"hot","source:name:br":"proper translation","stars":"2","tents":"yes","toilets":"yes","washing_machine":"yes","website":"https://www.pleumeur-bodou.com/Camping-Municipal-de-Landrellec.html?lang=fr"}},"337064987":{"location":[48.7671673,-3.5516523],"ct":"FR","tp":"CR","ts":"2024-10-26T19:18:29Z","tX":501,"tY":352,"tags":{"caravan_site":"motorhome_stopover","caravan_site:type":"sports_centre","charge":"EUR 7","fee":"yes","name":"Trébeurden - Route de Lannion","power_supply:fee":"yes","sanitary_dump_station":"yes","sanitary_dump_station:chemical_toilet":"yes","sanitary_dump_station:grey_water":"yes","seasonal":"no","services:charge":"5 EUR: water,power_supply","toilets":"no","water_point":"yes","website":"https://www.trebeurden.fr/fiche-annuaire/aires-stationnement-camping-cars/"}},"343934345":{"location":[48.801998,-3.5679462],"ct":"FR","tp":"CS","ts":"2025-02-02T15:17:29Z","tX":501,"tY":352,"tags":{"addr:city":"Pleumeur-Bodou","addr:housenumber":"5","addr:postcode":"22560","caravans":"yes","fee":"yes","name":"Abri Côtier","tents":"yes","website":"https://www.pleumeur-bodou.com/Camping-Municipal-du-Dourlin.html?lang=fr"}},"350195248":{"location":[48.7987062,-3.58332],"ct":"FR","tp":"CR","ts":"2024-10-29T00:19:50Z","tX":501,"tY":352,"tags":{"capacity":"10","caravan_site":"motorhome_stopover","caravan_site:type":"beach","fee":"yes","internet_access":"no","maxstay":"1 day","name":"Aire l’Ile Grande","power_supply":"yes","power_supply:charge":"3 EUR","sanitary_dump_station":"no","tents":"no","website":"https://www.pleumeur-bodou.com/Aires-d-accueil-Camping-cars.html?lang=fr"}},"368022316":{"location":[48.6940656,-3.792123],"ct":"FR","tp":"CR","ts":"2024-10-30T22:11:49Z","tX":501,"tY":352,"tags":{"capacity":"10","caravan_site":"motorhome_stopover","caravan_site:type":"village","caravans":"no","charge":"5 EUR","fee":"yes","lit":"yes","name":"Aire de service et de stationnement communale de la Métairie","power_supply":"yes","power_supply:fee":"yes","sanitary_dump_station":"yes","sanitary_dump_station:chemical_toilet":"yes","sanitary_dump_station:grey_water":"yes","services:charge":"4 EUR water,power_supply","tents":"no","water_point:fee":"yes","website":"https://www.baiedemorlaix.bzh/fr/hebergement/aire-de-service-et-de-stationnement-communale-de-la-metairie-b0018bre0290000r/"}},"463526567":{"location":[48.7388392,-3.5434607],"ct":"FR","tp":"CS","ts":"2018-08-31T07:47:34Z","tX":501,"tY":352,"tags":{"name":"Camping de Beg-Léguer","stars":"3","wheelchair":"yes"}},"463531811":{"location":[48.6920025,-3.5574074],"ct":"FR","tp":"CS","ts":"2025-02-07T22:10:44Z","tX":501,"tY":352,"tags":{"addr:city":"Trédrez-Locquémeau","addr:postcode":"22300","addr:street":"Voie Romaine","cabins":"yes","caravans":"yes","email":"les.capucines@wanadoo.fr","fee":"yes","name":"Les Capucines","name:br":"Ar Gabusined","phone":"+33 2 96 35 72 28","shower":"yes","stars":"4","static_caravans":"yes","tents":"yes","toilets":"yes","website":"https://www.lescapucines.fr/","wheelchair":"yes"}},"481287411":{"location":[48.7906487,-3.5572817],"ct":"FR","tp":"CS","ts":"2025-02-01T13:21:58Z","tX":501,"tY":352,"tags":{"caravans":"yes","name":"L'Espérance","tents":"yes","website":"https://www.camping-esperance.com/"}},"481373931":{"location":[48.8182382,-3.5341722],"ct":"FR","tp":"CS","ts":"2020-08-14T09:24:47Z","tX":501,"tY":352,"tags":{"noname":"yes"}},"592027604":{"location":[48.7080036,-3.7635751],"ct":"FR","tp":"PK","ts":"2024-09-26T11:11:27Z","tX":501,"tY":352,"tags":{"motorhome":"yes","motorhome:overnight":"yes","seasonal":"no"}},"832195624":{"location":[48.7831358,-3.5252823],"ct":"FR","tp":"CR","ts":"2024-10-05T00:51:00Z","tX":501,"tY":352,"tags":{"access":"yes","capacity":"20","caravan_site":"motorhome_stopover","caravan_site:type":"theme_park","caravans":"no","description":"other parking spaces can be used only if motorhome site is full","fee":"no","name":"Aire d’accueil au Parc du Radôme","power_supply":"yes","sanitary_dump_station":"yes","services:charge":"5 EUR","surface":"asphalt","tents":"no","toilets":"no","water_point":"yes","website":"https://www.parcduradome.com/"}},"846451008":{"location":[48.7022397,-3.7776849],"ct":"FR","tp":"PK","ts":"2024-09-26T11:11:27Z","tX":501,"tY":352,"tags":{"access":"yes","fee":"no","motorhome":"yes","parking":"surface"}},"1015256579":{"location":[48.7079087,-3.8274389],"ct":"FR","tp":"CR","ts":"2024-10-30T22:15:57Z","tX":501,"tY":352,"tags":{"capacity":"30","caravan_site":"motorhome_stopover","caravan_site:type":"harbour","charge":"5 EUR","drinking_water":"no","fee":"yes","name":"Port le Diben","power_supply":"no","power_supply:charge":"4 EUR","power_supply:fee":"yes","sanitary_dump_station":"yes","toilets":"no","water_point":"yes","water_point:charge":"4 EUR","water_point:fee":"yes","website":"https://www.baiedemorlaix.bzh/fr/hebergement/aire-de-service-et-de-stationnement-communale-du-diben-b0018bre0290000q/"}},"1267666572":{"location":[48.7236101,-3.5712485],"ct":"FR","tp":"CS","ts":"2024-08-20T06:49:46Z","tX":501,"tY":352,"tags":{"addr:city":"Trédrez-Locquémeau","addr:postcode":"22300","addr:street":"Hent Gwaz ar Gouez","caravans":"yes","drinking_water":"yes","email":"camping.keravilin@orange.fr","motorhome":"yes","name":"Camping municipal de Keravilin","opening_hours":"Apr 6 - Oct 31","phone":"+33 2 96 35 26 44","shower":"yes","stars":"2","tents":"yes","toilets":"yes","website":"http://www.tredrez-locquemeau.fr/Camping-municipal"}},"1318361399":{"location":[48.6955997,-3.7742567],"ct":"FR","tp":"CR","ts":"2024-09-26T11:11:27Z","tX":501,"tY":352,"tags":{"capacity":"6","caravan_site":"motorhome_stopover","caravan_site:type":"village","caravans":"no","fee":"no","maxstay":"48 hours","name":"Aire de Stationnement de St Jean du Doigt","opening_hours":"24/7","power_supply":"yes","power_supply:fee":"yes","sanitary_dump_station":"yes","seasonal":"no","services:charge":"4 EUR water,power_supply","surface":"dirt","tents":"no","water_point":"yes","water_point:fee":"yes","website":"https://www.baiedemorlaix.bzh/fr/hebergement/aire-de-stationnement-de-st-jean-du-doigt-b0018bre029v53l4c5/"}},"1321928183":{"location":[48.7601692,-3.577097],"ct":"FR","tp":"CR","ts":"2024-10-07T18:50:33Z","tX":501,"tY":352,"tags":{"capacity":"3","caravan_site":"motorhome_stopover","caravan_site:type":"coastal","fee":"no","maxstay":"72 hours","name":"Pointe de Bihit","power_supply":"no","sanitary_dump_station":"no","seasonal":"no","surface":"asphalt","water_point":"no"}},"1350768264":{"location":[48.6938191,-3.7753461],"ct":"FR","tp":"CS","ts":"2025-01-12T22:02:20Z","tX":501,"tY":352,"tags":{"addr:city":"Saint-Jean-du-Doigt","addr:postcode":"29630","addr:street":"Chemin de Saint-Julien","alt_name":"Camping municipal Saint-Jean-du-Doigt","capacity:tents":"34","caravans":"yes","dog":"leashed","email":"camping.pont.ar.gler@gmail.com","fee":"yes","kitchen":"yes","name":"Camping de Pont Ar Gler","name:br":"Tachenn-gampiñ kêr Sant-Yann-ar-Biz","operator":"Mairie de Saint-Jean-du-Doigt","phone":"+33 2 98 67 32 15","power_supply":"yes","shower":"yes","source:name:br":"proper translation","stars":"2","static_caravans":"no","tents":"yes","toilets":"yes","website":"https://campingstj.jimdofree.com/"}},"1861218957":{"location":[48.7240469,-3.5714127],"ct":"FR","tp":"SD","ts":"2024-08-20T06:49:10Z","tX":501,"tY":352,"tags":{"addr:city":"Trédrez-Locquémeau","addr:country":"FR","addr:postcode":"22300","fee":"no","website":"https://flotbleu.com"}},"2414211644":{"location":[48.7027574,-3.8349672],"ct":"FR","tp":"CS","ts":"2024-06-02T16:02:43Z","tX":501,"tY":352,"tags":{"addr:city":"Plougasnou","addr:postcode":"29630","addr:street":"Impasse Kerven, Le Diben","caravans":"yes","email":"camping.kerven@wanadoo.fr","fee":"yes","name":"Camping de Kerven","phone":"+33 2 98 72 41 22","stars":"2","static_caravans":"yes","tents":"yes","website":"https://www.camping-kerven-plougasnou.fr/"}},"3559436562":{"location":[48.7988995,-3.5835371],"ct":"FR","tp":"SD","ts":"2024-10-29T00:19:50Z","tX":501,"tY":352,"tags":{"access":"yes","brand":"Euro-Relais Junior","fee":"yes","operator":"Euro-Relais"}},"7730232285":{"location":[48.6938862,-3.7749164],"ct":"FR","tp":"CS","ts":"2024-06-02T15:49:35Z","tX":501,"tY":352,"tags":{"addr:city":"Saint-Jean-du-Doigt","addr:postcode":"29630","addr:street":"Chemin de Saint-Julien","alt_name":"Camping municipal Saint-Jean-du-Doigt","caravans":"yes","email":"camping.pont.ar.gler@gmail.com","fee":"yes","name":"Camping de Pont Ar Gler","name:br":"Tachenn-gampiñ kêr Sant-Yann-ar-Biz","operator":"Mairie de Saint-Jean-du-Doigt","phone":"+33 2 98 67 32 15","source:name:br":"proper translation","stars":"2","static_caravans":"no","tents":"yes","website":"https://campingstj.jimdofree.com/"}},"11077002105":{"location":[48.7603629,-3.5526946],"ct":"FR","tp":"CS","ts":"2023-07-30T15:07:11Z","tX":501,"tY":352,"tags":{}},"11076733122":{"location":[48.7684406,-3.5622612],"ct":"FR","tp":"CR","ts":"2024-10-08T17:32:53Z","tX":501,"tY":352,"tags":{"capacity":"3","caravan_site":"motorhome_stopover","caravan_site:type":"parking_lot","charge":"7 EUR","fee":"yes","name":"Parking Rue Pierre Marzin","website":"https://www.trebeurden.fr/fiche-annuaire/aires-stationnement-camping-cars/"}},"11076733133":{"location":[48.7589393,-3.5357885],"ct":"FR","tp":"CR","ts":"2023-07-30T11:41:14Z","tX":501,"tY":352,"tags":{"capacity":"3","fee":"no","name":"Aire du Corsaire","website":"https://www.trebeurden.fr/fiche-annuaire/aires-stationnement-camping-cars/"}},"11076733141":{"location":[48.7741522,-3.5782036],"ct":"FR","tp":"CR","ts":"2024-10-08T17:32:53Z","tX":501,"tY":352,"tags":{"capacity":"3","caravan_site":"motorhome_stopover","caravan_site:type":"parking_lot","charge":"EUR 7","fee":"yes","name":"Parking des Buissonnets","sanitary_dump_station":"no","water_point":"no"}},"11076733145":{"location":[48.7686156,-3.5778496],"ct":"FR","tp":"CR","ts":"2024-10-05T00:48:23Z","tX":501,"tY":352,"tags":{"caravan_site":"motorhome_stopover","caravan_site:type":"beach","charge":"7 EUR","fee":"yes","name":"Parking de la Corniche de Pors Mabo","website":"https://www.brittany-pinkgranitcoast.co.uk/offers/parking-corniche-de-pors-mabo-trebeurden-en-2714605/"}},"12223518653":{"location":[48.7615305,-3.5650434],"ct":"FR","tp":"CR","ts":"2024-10-05T00:48:23Z","tX":501,"tY":352,"tags":{"capacity":"10","caravan_site":"motorhome_stopover","caravan_site:type":"beach","charge":"7 EUR","fee":"yes","name":"parking Pors-Mabo","name:br":"Parklec'h Morzh Mabo","sanitary_dump_station":"no","source:name:br":"proper translation","website":"https://www.bretagne-cotedegranitrose.com/offres/parking-de-pors-mabo-trebeurden-fr-2714603/"}},"11076755609":{"location":[48.7671859,-3.5514204],"ct":"FR","tp":"SD","ts":"2023-07-30T11:41:14Z","tX":501,"tY":352,"tags":{"sanitary_dump_station:chemical_toilet":"yes","sanitary_dump_station:grey_water":"yes"}},"12201338594":{"location":[48.6939951,-3.7921956],"ct":"FR","tp":"SD","ts":"2024-09-26T11:20:37Z","tX":501,"tY":352,"tags":{"access":"yes","fee":"yes","sanitary_dump_station:chemical_toilet":"yes","sanitary_dump_station:grey_water":"yes","water_point":"yes","water_point:fee":"yes"}}}