{"26858844":{"location":[48.6647118,-3.7809098],"ct":"FR","tp":"CS","ts":"2010-05-16T06:13:54Z","tX":501,"tY":353,"tags":{"name":"Mesqeueau"}},"255683847":{"location":[48.4861997,-3.8020179],"ct":"FR","tp":"CS","ts":"2024-09-23T14:48:56Z","tX":501,"tY":353,"tags":{"addr:city":"Le Cloître-Saint-Thégonnec","addr:postcode":"29410","addr:street":"Route de Kergollot","caravans":"yes","fee":"yes","name":"Camping des Bruyères","phone":"+33 2 98 79 71 76","shower":"yes","static_caravans":"no","tents":"yes","website":"https://www.camping-bruyeres.com/"}},"267947853":{"location":[48.6673301,-3.6011249],"ct":"FR","tp":"CS","ts":"2024-09-01T04:32:32Z","tX":501,"tY":353,"tags":{"caravans":"yes","name":"Camping municipal Saint-Efflam","tents":"yes","website":"https://www.camping-municipal-bretagne.com/"}},"463532845":{"location":[48.6798385,-3.6509376],"ct":"FR","tp":"CS","ts":"2024-06-17T09:36:17Z","tX":501,"tY":353,"tags":{"addr:city":"Locquirec","addr:postcode":"29241","addr:street":"Route de Plestin","caravans":"yes","drinking_water":"yes","email":"contact@campinglocquirec.com","fee":"yes","internet_access":"wlan","motorhome":"yes","name":"Camping Municipal du Fond de la Baie","phone":"+33 2 98 67 40 85","power_supply":"yes","sanitary_dump_station":"yes","shower":"yes","static_caravans":"yes","tents":"yes","toilets":"yes","website":"https://www.campinglocquirec.com/","wheelchair":"limited"}},"582891835":{"location":[48.6786677,-3.6245535],"ct":"FR","tp":"CS","ts":"2024-06-02T15:17:23Z","tX":501,"tY":353,"tags":{"addr:city":"Plestin-les-Grèves","addr:housenumber":"18","addr:postcode":"22310","addr:street":"Rue de Milin Avel","caravans":"yes","fee":"yes","name":"Le Village de l'Armorique","phone":"+33 2 35 21 69 63","static_caravans":"yes","tents":"yes","website":"https://www.villagearmorique.com"}},"654469185":{"location":[48.6587513,-3.848793],"ct":"FR","tp":"CS","ts":"2023-07-22T13:35:49Z","tX":501,"tY":353,"tags":{"caravans":"yes","name":"Camping de la baie de Térénez","phone":"+33 2 98 67 26 80","tents":"yes","website":"https://www.campingbaiedeterenez.com"}},"729271256":{"location":[48.6904117,-3.6595103],"ct":"FR","tp":"CS","ts":"2024-05-24T11:10:12Z","tX":501,"tY":353,"tags":{"addr:city":"Locquirec","addr:housenumber":"16","addr:postcode":"29241","addr:street":"Rue des Sables Blancs","capacity":"100","caravans":"yes","fee":"yes","name":"GCU Locquirec","name:br":"SKS Lokireg","operator":"Groupement des Campeurs Universitaires","phone":"+33 2 98 67 43 91","sanitary_dump_station":"customers","source:name:br":"proper translation","stars":"2","static_caravans":"no","tents":"yes","website":"https://www.gcu.asso.fr/terrains/locquirec-finist%C3%A8re-29"}},"797852751":{"location":[48.6762246,-3.6512727],"ct":"FR","tp":"CS","ts":"2024-06-02T15:33:37Z","tX":501,"tY":353,"tags":{"addr:city":"Locquirec","addr:housenumber":"6","addr:postcode":"29241","addr:street":"Rue du Rugunay","caravans":"yes","email":"camping.le.rugunay@orange.fr","fee":"yes","mobile":"+33 6 30 04 73 18","name":"Camping le Rugunay","phone":"+33 2 98 67 41 06","static_caravans":"yes","tents":"yes","website":"https://www.campinglerugunay.com/"}},"826219384":{"location":[48.5193508,-3.5835305],"ct":"FR","tp":"CR","ts":"2024-10-07T18:55:24Z","tX":501,"tY":353,"tags":{"capacity":"15","caravan_site":"motorhome_stopover","caravan_site:type":"village","caravans":"no","fee":"no","maxstay":"48 hours","name":"Aire de stationnement de Guerlesquin","sanitary_dump_station":"yes","sanitary_dump_station:chemical_toilet":"yes","sanitary_dump_station:grey_water":"yes","seasonal":"no","tents":"no","website":"https://www.baiedemorlaix.bzh/fr/hebergement/aire-de-stationnement-de-guerlesquin-b0018bre029v51pvvg-2/"}},"1201767996":{"location":[48.685022,-3.7849074],"ct":"FR","tp":"CS","ts":"2023-08-24T19:34:55Z","tX":501,"tY":353,"tags":{"cabins":"yes","capacity:pitches":"40","caravans":"yes","name":"Camping du Trégor","phone":"+33 2 98 67 37 64","shower":"yes","stars":"2","tents":"yes","toilets":"yes","website":"https://www.campingdutregor.com/"}},"1233162174":{"location":[48.6716715,-3.6161374],"ct":"FR","tp":"CR","ts":"2024-10-08T17:32:39Z","tX":501,"tY":353,"tags":{"capacity":"80","caravan_site":"motorhome_stopover","caravan_site:type":"beach","charge":"14 EUR","fee":"yes","internet_access":"wlan","name":"Aire de camping-car de Toulinet","opening_hours":"24/7","seasonal":"no","shower":"yes","tents":"no","toilets":"yes","website":"https://www.bretagne-cotedegranitrose.com/offres/aire-camping-car-de-toulinet-plestin-les-greves-fr-4203366/"}},"1318223469":{"location":[48.573867,-3.8318186],"ct":"FR","tp":"CR","ts":"2024-09-25T21:34:48Z","tX":501,"tY":353,"tags":{"caravan_site":"motorhome_stopover","caravan_site:type":"parking_lot;town","caravans":"no","fee":"no","name":"Aire de service et de stationnement communale de Morlaix","power_supply":"no","sanitary_dump_station":"yes","surface":"asphalt","tents":"no","website":"https://www.baiedemorlaix.bzh/de/hebergement/aire-de-service-et-de-stationnement-communale-de-morlaix-b0018bre0290000p-3/"}},"4341203582":{"location":[48.6050174,-3.7409572],"ct":"FR","tp":"CS","ts":"2023-10-23T21:41:24Z","tX":501,"tY":353,"tags":{"addr:city":"Plouigneau","addr:postcode":"29610","name":"Ferme de Croas Men","operator":"The Cotty Family","website":"https://ferme-de-croasmen.com/"}},"9034852017":{"location":[48.5901054,-3.8484408],"ct":"FR","tp":"CS","ts":"2021-08-25T11:59:28Z","tX":501,"tY":353,"tags":{"name":"Le Verger de Morlaix"}},"9970897156":{"location":[48.681859,-3.6282516],"ct":"FR","tp":"CS","ts":"2024-06-02T14:46:05Z","tX":501,"tY":353,"tags":{"email":"campingleshortensias@hotmail.com","mobile":"+33 7 80 08 02 95","name":"Camping Les Hortensias"}},"11951950974":{"location":[48.6833542,-3.6260407],"ct":"FR","tp":"CS","ts":"2024-06-02T14:46:05Z","tX":501,"tY":353,"tags":{"addr:city":"Plestin-les-Grèves","addr:postcode":"22310","addr:street":"Rue Toul ar Vag","caravans":"yes","fee":"yes","mobile":"+33 6 14 44 35 44","name":"Camping de la corniche","static_caravans":"yes","tents":"yes","website":"https://www.campingdelacorniche.bzh/"}},"11986321922":{"location":[48.5824186,-3.8308745],"ct":"FR","tp":"CR","ts":"2024-06-16T22:18:04Z","tX":501,"tY":353,"tags":{"capacity":"10","caravan_site":"motorhome_stopover","caravan_site:type":"town","fee":"no","name":"La rampe Saint-Nicolas","power_supply":"yes","power_supply:capacity":"2","power_supply:maxcurrent":"10","water_point":"yes"}},"12098289618":{"location":[48.5827678,-3.828338],"ct":"FR","tp":"CR","ts":"2024-09-25T21:34:48Z","tX":501,"tY":353,"tags":{"caravan_site":"motorhome_stopover","caravan_site:type":"town","caravans":"no","fee":"no","name":"Aire de camping-car de Morlaix","picnic_area":"yes","power_supply":"yes","power_supply:fee":"yes","sanitary_dump_station":"yes","tents":"no","water_point":"yes","water_point:fee":"yes"}},"12200099266":{"location":[48.5741195,-3.8315131],"ct":"FR","tp":"SD","ts":"2024-09-25T21:34:48Z","tX":501,"tY":353,"tags":{"access":"yes"}},"12200238538":{"location":[48.5191947,-3.5832958],"ct":"FR","tp":"SD","ts":"2024-09-25T21:15:50Z","tX":501,"tY":353,"tags":{"access":"yes","sanitary_dump_station:chemical_toilet":"yes","sanitary_dump_station:grey_water":"yes"}}}