{"186546986":{"location":[48.1824315,-3.8136982],"ct":"FR","tp":"CS","ts":"2023-10-23T21:52:54Z","tX":501,"tY":355,"tags":{"comment:fr":"Réservation téléphonique demandée pour le camping (même le matin pour le soir)","name":"Gîtes et campings de Penn ar Pont","name:br":"Bodoù ha tachennoù-kampiñ Penn ar Pont","phone":"+33 298818125","website":"https://pennarpont.com/"}},"311044563":{"location":[48.1682386,-3.7750771],"ct":"FR","tp":"CR","ts":"2024-05-09T20:05:45Z","tX":501,"tY":355,"tags":{"addr:city":"Saint-Goazec","capacity":"31","caravan_site":"motorhome_stopover","caravan_site:type":"village","caravans":"yes","caravans:conditional":"no @ (Oct-May)","charge":"14.44 EUR","charge:conditional":"12.44 EUR @ (Oct-May)","fee":"yes","internet_access":"wlan","internet_access:fee":"no","name":"Camping du Gwaker","network":"CAMPING-CAR PARK","operator":"Ulamir Aulne","phone":"+33 298732076","power_supply":"yes","power_supply:capacity":"32","power_supply:fee":"no","power_supply:maxcurrent":"6","sanitary_dump_station":"yes","sanitary_dump_station:chemical_toilet":"yes","sanitary_dump_station:fee":"no","sanitary_dump_station:grey_water":"yes","source:name:br":"proper translation","tents":"yes","tents:conditional":"no @ (Oct-May)","trailer":"yes","water_point":"yes","website":"https://www.campingcarpark.com/fr_FR/sejour/camping/bretagne/29-finistere/st-goazec"}},"508658415":{"location":[48.0560909,-3.6535859],"ct":"FR","tp":"CS","ts":"2024-10-17T14:08:56Z","tX":501,"tY":355,"tags":{"camp_site:type:FR":"Aire Naturelle","caravans":"no","drinking_water":"no","internet_access":"yes","internet_access:fee":"no","name":"Aire Naturelle de Camping","operator":"Ar Marc'h du","payment:coins":"yes","payment:notes":"yes","phone":"+33297341580","power_supply:capacity":"4","power_supply:fee":"yes","sanitary_dump_station":"yes","tents":"yes","website":"https://www.lagaredeguiscriff.com/aire-naturelle-de-camping/","wheelchair":"designated"}},"911510535":{"location":[48.0471626,-3.6506381],"ct":"FR","tp":"CR","ts":"2024-10-08T17:44:13Z","tX":501,"tY":355,"tags":{"access":"yes","addr:city":"Guiscriff","addr:postcode":"56560","addr:street":"Rue de Scaër","capacity":"3","caravan_site":"motorhome_stopover","caravan_site:type":"parking_lot","description":"Aire de camping-car, mixte avec parking voiture","fee":"no","maxstay":"no","name":"Guiscriff Aire Municipale","operator":"Ville de Guiscriff","power_supply":"no","sanitary_dump_station":"yes","sanitary_dump_station:chemical_toilet":"yes","sanitary_dump_station:grey_water":"yes","sanitary_dump_station:round_drain":"yes","supervised":"no","water_point":"yes"}},"911549523":{"location":[48.1412274,-3.6005362],"ct":"FR","tp":"CR","ts":"2024-10-08T17:44:13Z","tX":501,"tY":355,"tags":{"access":"yes","addr:city":"Gourin","addr:postcode":"56110","addr:street":"Place du Général de Gaulle","capacity":"10","caravan_site":"motorhome_stopover","caravan_site:type":"parking_lot","description":"Aire de camping-car, mixte avec parking voiture et bus.","fee":"no","maxstay":"7 days","motorcar":"yes","name":"L'aire de camping-car de Gourin","operator":"Ville de Gourin","power_supply":"no","power_supply:fee":"no","sanitary_dump_station":"yes","sanitary_dump_station:chemical_toilet":"yes","sanitary_dump_station:grey_water":"yes","sanitary_dump_station:round_drain":"yes","seasonal":"no","source:name:br":"proper translation","supervised":"no","water_point":"yes","website":"https://www.tourismepaysroimorvan.com/preparer-votre-venue/ou-dormir/aires-de-camping-car/aire-de-camping-car-1010475"}},"1292950934":{"location":[48.0252067,-3.7061291],"ct":"FR","tp":"CR","ts":"2024-10-17T14:11:31Z","tX":501,"tY":355,"tags":{"caravan_site":"motorhome_stopover","caravan_site:type":"village","dog":"yes","fee":"no","name":"Aire municipale de Scaër","name:br":"Leur ti-kêr Skaer","opening_hours":"24/7","power_supply":"yes","sanitary_dump_station":"yes","sanitary_dump_station:chemical_toilet":"yes","sanitary_dump_station:grey_water":"railway","water_point":"yes","water_point:charge":"3.18 EUR","water_point:fee":"yes"}},"2340964042":{"location":[48.1415598,-3.6172781],"ct":"FR","tp":"CS","ts":"2020-08-07T16:30:28Z","tX":501,"tY":355,"tags":{"addr:city":"Gourin","addr:postcode":"56110","addr:street":"Route de Pont-Min","name":"Camping de Gourin","name:br":"Tachenn-gampiñ Pont Min","phone":"+33 2 97 23 42 74","source:name:br":"proper translation","website":"http://www.gourin.fr/piscine-camping.html"}},"3035135831":{"location":[48.0278892,-3.694768],"ct":"FR","tp":"CS","ts":"2022-09-01T13:50:40Z","tX":501,"tY":355,"tags":{"access":"customers","addr:city":"Scaër","addr:housenumber":"3","addr:postcode":"29390","addr:street":"Rue Louis Pasteur","capacity:caravans":"80","capacity:persons":"440","description":"Pour des vacances uniques en Bretagne\n\nCamping Kerisole***\n\nLe camping Kerisole*** est un camping convivial et chaleureux. Nous attachons beaucoup d’importance au bien-être, ainsi qu’aux besoins de nos clients.\nRappelez-vous étant jeune, ces vacances, à j","dog":"leashed","drinking_water":"yes","ele":"160","email":"info@camping-kerisole.fr","fee":"yes","image":"https://camping-kerisole.fr/","internet_access":"wlan","name":"Camping Kerisole***","opening_hours":"Mo-Su 08:00-12:00 Mo-Su 15:00-19:00","operator":"Andy et Nathalie","payment:cash":"yes","payment:contactless":"yes","payment:credit_cards":"yes","payment:mastercard":"yes","payment:visa":"yes","phone":"+33 646717640","reservation":"recommended","sanitary_dump_station":"yes","shower":"yes","stars":"3","swimming_pool":"no","toilets":"yes","washing_machine":"yes","website":"https://www.camping-kerisole.fr/","wheelchair":"yes"}},"4147322888":{"location":[48.2231636,-3.716505],"ct":"FR","tp":"CS","ts":"2023-10-23T21:44:15Z","tX":501,"tY":355,"tags":{"addr:city":"Cléden-Poher","addr:postcode":"29270","addr:street":"Pratulo","name":"Camping du Moulin Vert","phone":"+33 298938205","website":"https://a-pratulo.com/"}},"5012457264":{"location":[48.0573939,-3.654196],"ct":"FR","tp":"CR","ts":"2024-10-17T14:08:56Z","tX":501,"tY":355,"tags":{"capacity":"4","caravan_site":"motorhome_stopover","caravan_site:type":"museum","fee":"no","internet_access":"yes","internet_access:fee":"no","museum":"railway","name":"Aire de camping-car de la gare de Guiscriff","operator":"Ar Marc'h du","phone":"+33 297340300","power_supply":"no","toilets":"no","website":"https://www.lagaredeguiscriff.com/qui-sommes-nous/aire-naturelle-de-camping/"}},"11986342956":{"location":[48.1918036,-3.7139988],"ct":"FR","tp":"CR","ts":"2024-06-16T22:45:07Z","tX":501,"tY":355,"tags":{"caravan_site":"motorhome_stopover","caravan_site:type":"parking_lot","fee":"no","name":"Aire camping cars de Spezet","power_supply":"yes","sanitary_dump_station":"yes","water_point":"yes"}},"8463576236":{"location":[48.0471586,-3.650485],"ct":"FR","tp":"SD","ts":"2021-11-20T14:40:26Z","tX":501,"tY":355,"tags":{"description":"Station de vidange pour Camping-car.","fee":"no","operator":"Ville de Guiscriff","sanitary_dump_station:chemical_toilet":"yes","sanitary_dump_station:grey_water":"yes","sanitary_dump_station:round_drain":"yes","water_point":"yes"}},"8463913479":{"location":[48.1409898,-3.6009894],"ct":"FR","tp":"SD","ts":"2021-11-20T14:40:26Z","tX":501,"tY":355,"tags":{"description":"Station de vidange pour Camping-car.","fee":"no","operator":"Ville de Gourin","sanitary_dump_station:chemical_toilet":"yes","sanitary_dump_station:grey_water":"yes","sanitary_dump_station:round_drain":"yes","water_point":"yes"}},"11986184745":{"location":[48.025278,-3.7056938],"ct":"FR","tp":"SD","ts":"2024-06-16T22:47:36Z","tX":501,"tY":355,"tags":{"access":"yes"}},"11986342960":{"location":[48.1917302,-3.713985],"ct":"FR","tp":"SD","ts":"2024-06-16T22:45:07Z","tX":501,"tY":355,"tags":{"access":"yes","water_point":"yes"}}}