{"13631336":{"location":[47.7963723,-3.7995585],"ct":"FR","tp":"CS","ts":"2022-08-27T09:05:14Z","tX":501,"tY":356,"tags":{"addr:city":"Névez","addr:housenumber":"20","addr:postcode":"29920","addr:street":"Keroren Raguénez","cabins":"yes","caravans":"yes","internet_access":"wlan","name":"Camping du Vieux Verger","opening_hours":"Apr-Sep","phone":"+33 2 98 06 86 08","stars":"2","swimming_pool":"yes","tents":"yes","website":"https://www.campingduvieuxverger.com/"}},"13641329":{"location":[47.797166,-3.7740961],"ct":"FR","tp":"CS","ts":"2022-01-06T09:39:12Z","tX":501,"tY":356,"tags":{"addr:city":"Névez","addr:place":"Kérascoët","addr:postcode":"29920","cabins":"yes","caravans":"yes","name":"Camping des Chaumières","phone":"+33 2 98 06 73 06","stars":"3","swimming_pool":"no","tents":"yes","website":"https://www.camping-des-chaumieres.com"}},"39045581":{"location":[47.8456883,-3.7911805],"ct":"FR","tp":"CS","ts":"2022-01-06T10:05:24Z","tX":501,"tY":356,"tags":{"cabins":"yes","caravans":"no","name":"Domaine De Kerlann","operator":"SIBLU","tents":"no","website":"https://www.domainedekerlann.fr"}},"43066414":{"location":[47.8656336,-3.6180253],"ct":"FR","tp":"CS","ts":"2024-06-09T08:07:58Z","tX":501,"tY":356,"tags":{"addr:city":"Baye","addr:housenumber":"591","addr:postcode":"29300","addr:street":"route de la Madeleine","cabins":"yes","caravans":"yes","name":"À l'Abri de L'Océan","phone":"+33 2 98 96 80 35","stars":"3","tents":"yes","website":"https://www.alabridelocean.fr"}},"59162734":{"location":[47.8025547,-3.6790846],"ct":"FR","tp":"CS","ts":"2022-10-29T16:36:27Z","tX":501,"tY":356,"tags":{"caravans":"no","name":"Domaine de Kerguipp","name:br":"Domani Kergib","note":"this is a Residenz Park, not a public camp_site","permanent_camping":"only","source:name:br":"proper translation","tents":"no"}},"75393709":{"location":[47.7878414,-3.550917],"ct":"FR","tp":"CS","ts":"2023-07-19T22:15:32Z","tX":501,"tY":356,"tags":{"drinking_water":"yes","name":"Quinquis","name:br":"Ar Genkiz","phone":"+33 2 98 39 92 40","source:name:br":"proper translation","stars":"3","swimming_pool":"yes","washing_machine":"yes","website":"https://www.campingquinquis.com"}},"127728617":{"location":[47.7745028,-3.5709484],"ct":"FR","tp":"CS","ts":"2023-10-25T09:53:24Z","tX":501,"tY":356,"tags":{"addr:city":"Clohars-Carnoët","addr:housenumber":"12","addr:place":"Kervoën","addr:postcode":"29360","cabins":"yes","caravans":"yes","name":"Camping de Kervoën","stars":"3","swimming_pool":"yes","tents":"yes","website":"https://www.camping-de-kervoen.com/"}},"163247942":{"location":[47.8315157,-3.7584419],"ct":"FR","tp":"CS","ts":"2024-09-08T11:51:32Z","tX":501,"tY":356,"tags":{"backcountry":"yes","parking":"surface"}},"179938596":{"location":[47.7681927,-3.5524964],"ct":"FR","tp":"CR","ts":"2024-10-07T17:23:20Z","tX":501,"tY":356,"tags":{"capacity":"10","caravan_site":"motorhome_stopover","caravan_site:type":"village","caravans":"no","fee":"yes","fee:conditional":"no@(Nov-Apr)","name":"Aire du Pouldu","toilets":"no"}},"186018600":{"location":[47.8028815,-3.7165335],"ct":"FR","tp":"CS","ts":"2022-10-29T16:36:27Z","tX":501,"tY":356,"tags":{"name":"Tal Ar Moor","name:br":"Tal ar Mor","phone":"+33 2 98 71 11 98","source:name:br":"ofis publik ar brezhoneg","stars":"2","website":"https://www.campingkerfanyplage.fr"}},"226433792":{"location":[47.7705533,-3.5577735],"ct":"FR","tp":"CS","ts":"2023-05-25T20:40:06Z","tX":501,"tY":356,"tags":{"cabins":"yes","caravans":"yes","name":"Le Kérou","name:br":"Kerheroù","operator":"Sandaya","phone":"+33 2 98 39 92 57","source:name:br":"ofis publik ar brezhoneg","stars":"4","tents":"yes","website":"https://www.sandaya.fr/nos-campings/le-kerou"}},"229000688":{"location":[47.7834058,-3.588553],"ct":"FR","tp":"CS","ts":"2022-10-28T13:35:13Z","tX":501,"tY":356,"tags":{"cabins":"yes","caravans":"yes","name":"Le Kegariou","name:br":"Kergariou(-Dolan)","phone":"+33 2 98 71 54 65","source:name:br":"proper translation","stars":"3","tents":"yes","website":"https://www.campinglekergariou.com"}},"299419415":{"location":[47.8537992,-3.7432877],"ct":"FR","tp":"CR","ts":"2024-09-24T15:38:47Z","tX":501,"tY":356,"tags":{"bbq":"no","capacity":"37","caravan_site":"motorhome_stopover","caravan_site:type":"beach","caravans":"no","dog":"leashed","fee":"yes","internet_access":"wlan","maxlength":"9","name":"Aire Camping-Car Park Pont-Aven, Les Quatre Vents","network":"CAMPING-CAR PARK","opening_hours":"24/7","power_supply":"yes","power_supply:capacity":"40","power_supply:maxcurrent":"6","sanitary_dump_station":"yes","surface":"asphalt","tents":"no","trailer":"no","water_point":"yes","water_point:fee":"no"}},"301029916":{"location":[47.7980053,-3.5853862],"ct":"FR","tp":"CR","ts":"2024-10-05T00:49:27Z","tX":501,"tY":356,"tags":{"access":"yes","caravan_site":"motorhome_stopover","caravan_site:type":"village","fee":"no","name":"Aire Clohars-Carnoët","power_supply":"yes","sanitary_dump_station":"yes","surface":"asphalt","water_point":"yes","water_point:fee":"yes"}},"418322817":{"location":[47.8172618,-3.6309314],"ct":"FR","tp":"CR","ts":"2024-10-07T17:44:15Z","tX":501,"tY":356,"tags":{"capacity":"5","caravan_site":"motorhome_stopover","caravan_site:type":"street_side","fee":"no","name":"Parking Camping-Car Rue des Moulins","power_supply":"no","sanitary_dump_station":"no","water_point":"no"}},"425093879":{"location":[47.7980738,-3.8269279],"ct":"FR","tp":"CS","ts":"2022-01-02T10:31:39Z","tX":501,"tY":356,"tags":{"cabins":"yes","caravans":"yes","name":"Camping Le Suroît","phone":"+33 2 98 50 01 76","stars":"3","tents":"yes","website":"https://www.campinglesuroit.com/"}},"431069769":{"location":[47.8046686,-3.7454436],"ct":"FR","tp":"CS","ts":"2022-01-03T21:07:09Z","tX":501,"tY":356,"tags":{"cabins":"yes","caravans":"yes","name":"Côté Ô Port Manec'h","operator":"Côté Ô","stars":"4","swimming_pool":"yes","tents":"yes","website":"https://www.cote-o.fr/port-manech/"}},"547040402":{"location":[47.7700226,-3.5459045],"ct":"FR","tp":"CS","ts":"2024-12-05T20:04:48Z","tX":501,"tY":356,"tags":{"addr:city":"Clohars-Carnoët","addr:housenumber":"2","addr:postcode":"29360","addr:street":"Rue du Philosophe Alain","cabins":"yes","caravans":"yes","fee":"yes","name":"Les Embruns","payment:credit_cards":"yes","stars":"5","static_caravans":"yes","tents":"yes","website":"https://www.camping-les-embruns.com/"}},"547040403":{"location":[47.769329,-3.5473548],"ct":"FR","tp":"CS","ts":"2022-01-09T10:05:53Z","tX":501,"tY":356,"tags":{"addr:city":"Clohars-Carnoët","addr:housenumber":"22","addr:postcode":"29360","addr:street":"Rue du Philosophe Alain","cabins":"yes","caravans":"yes","name":"Les Grands Sables","stars":"3","swimming_pool":"no","tents":"yes","website":"https://www.camping-lesgrandssables.com/"}},"561196723":{"location":[47.7730055,-3.5448521],"ct":"FR","tp":"CS","ts":"2024-04-17T17:57:51Z","tX":501,"tY":356,"tags":{"addr:city":"Clohars-Carnoët","addr:housenumber":"83","addr:postcode":"29360","addr:street":"Rue des Grands Sables","cabins":"yes","capacity":"100","caravans":"yes","fee":"yes","internet_access":"wlan","name":"Camping du Pouldu","phone":"+33 2 98 39 92 32","stars":"3","tents":"yes","website":"https://www.camping-du-pouldu.com"}},"661607961":{"location":[47.8588622,-3.8451911],"ct":"FR","tp":"CS","ts":"2022-10-14T22:27:52Z","tX":501,"tY":356,"tags":{"access":"private","addr:city":"Trégunc","addr:postcode":"29910","addr:street":"Route de Melgven","cabins":"yes","fee":"yes","internet_access":"wlan","name":"Domaine de la Pinède","name:br":"Domani ar Bineg","source:name:br":"proper translation","stars":"3","static_caravans":"yes","swimming_pool":"yes","tents":"yes"}},"695553313":{"location":[47.80224,-3.6921239],"ct":"FR","tp":"SD","ts":"2024-10-07T17:45:55Z","tX":501,"tY":356,"tags":{"access":"yes","drinking_water":"yes","fee":"no","hgv":"limited","name":"Aire Campingcar Kergroes","operator":"Ville de Moelan","sanitary_dump_station:chemical_toilet":"yes","sanitary_dump_station:grey_water":"yes","water_point":"yes"}},"695553332":{"location":[47.8070242,-3.6865251],"ct":"FR","tp":"CS","ts":"2022-05-30T17:05:20Z","tX":501,"tY":356,"tags":{"caravans":"no","name":"Camping de la Grande Lande","phone":"+33 2 98 71 00 39","stars":"3","swimming_pool":"yes","tents":"no","website":"https://www.campingdelagrandelande.com"}},"729271326":{"location":[47.799634,-3.847891],"ct":"FR","tp":"CS","ts":"2024-05-24T12:16:07Z","tX":501,"tY":356,"tags":{"addr:city":"Trégunc","addr:housenumber":"7bis","addr:postcode":"29910","addr:street":"Hent-ar-Forn-Gozh","capacity":"94","caravans":"yes","fee":"yes","name":"GCU Trévignon","operator":"Groupement des Campeurs Universitaires","phone":"+33 2 98 50 07 56","stars":"2","static_caravans":"no","tents":"yes","website":"https://www.gcu.asso.fr/terrains/tr%C3%A9vignon-finist%C3%A8re-29"}},"731149189":{"location":[47.9254349,-3.6897422],"ct":"FR","tp":"CS","ts":"2022-01-12T12:38:18Z","tX":501,"tY":356,"tags":{"access":"customers","addr:city":"Bannalec","addr:postcode":"29380","addr:street":"Kermerour Pont Kereon","contact:email":"info@holidaybrittany.com","contact:phone":"+33298395435","fee":"yes","internet_access":"wlan","internet_access:fee":"no","name":"Camping les Genets d'or","name:br":"Tachenn-gampiñ ar Banal Aour","opening_hours":"Mo-Su 09:00-12:00, 14:00-19:00","operator":"Alan et Judy Thomas","source:name:br":"proper translation","website":"https://www.campingbannalec.com/"}},"911357310":{"location":[47.8137322,-3.5293338],"ct":"FR","tp":"CS","ts":"2024-02-22T11:51:02Z","tX":501,"tY":356,"tags":{"club":"scout","group_only":"yes","name":"Base Scouts et Guides de Coatroual","scout":"yes"}},"911508330":{"location":[47.8156895,-3.7896703],"ct":"FR","tp":"CR","ts":"2024-10-08T17:44:13Z","tX":501,"tY":356,"tags":{"access":"yes","addr:city":"Névez","addr:postcode":"29920","addr:street":"Impasse du Stade","capacity":"20","caravan_site":"motorhome_stopover","caravan_site:type":"parking_lot","description":"Aire de camping-car, mixte avec parking voiture","fee":"no","maxstay":"24 hours","motorcar":"yes","name":"Aire camping-cars Impasse du Stade - Névez","operator":"Ville de Névez","power_supply":"yes","sanitary_dump_station":"yes","sanitary_dump_station:chemical_toilet":"yes","sanitary_dump_station:grey_water":"yes","sanitary_dump_station:round_drain":"yes","supervised":"no","toilets":"yes","water_point":"yes"}},"968603989":{"location":[47.7937723,-3.7972189],"ct":"FR","tp":"CS","ts":"2023-10-25T09:53:04Z","tX":501,"tY":356,"tags":{"addr:housenumber":"15","addr:street":"Impasse des Mouettes","cabins":"yes","caravans":"yes","name":"Camping de l'Océan","opening_hours":"May-Sep","phone":"+33 2 98 06 87 13","stars":"3","swimming_pool":"yes","tents":"yes","website":"https://www.camping-ocean.fr/"}},"968603990":{"location":[47.7938231,-3.7995374],"ct":"FR","tp":"CS","ts":"2024-09-17T14:37:02Z","tX":501,"tY":356,"tags":{"addr:housenumber":"15","addr:street":"Rue des Îles","cabins":"yes","caravans":"yes","drinking_water":"yes","name":"Le Raguenes Plage","opening_hours":"Apr-Sep","phone":"+33 2 98 06 80 69","power_supply":"yes","sanitary_dump_station":"yes","shower":"yes","stars":"4","swimming_pool":"yes","tents":"yes","toilets":"yes","website":"https://www.camping-le-raguenes-plage.com/"}},"969758568":{"location":[47.7933654,-3.789417],"ct":"FR","tp":"CR","ts":"2024-10-07T17:59:34Z","tX":501,"tY":356,"tags":{"caravan_site":"motorhome_stopover","caravan_site:type":"countryside"}},"969758580":{"location":[47.8049154,-3.7434505],"ct":"FR","tp":"CR","ts":"2024-09-24T21:45:30Z","tX":501,"tY":356,"tags":{"capacity":"5","caravan_site":"motorhome_stopover","caravan_site:type":"river","fee":"no","maxstay":"24 hours","name":"Aire Névez","operator":"Municipalité","picnic_area":"yes"}},"969790621":{"location":[47.7664303,-3.5255566],"ct":"FR","tp":"CR","ts":"2024-08-12T13:28:34Z","tX":501,"tY":356,"tags":{"capacity":"7","caravan_site":"motorhome_stopover","caravan_site:type":"beach","fee":"no","internet_access":"no","maxstay":"24 hours","name":"Aire de Camping-car Guidel Plages","opening_hours":"24/7","power_supply":"no","sanitary_dump_station":"no","seasonal":"no","surface":"fine_gravel","website":"https://www.lorientbretagnesudtourisme.fr/fr/fiche/aire-sans-service-de-la-falaise-guidel_TFOGAIRELAFALAISE/"}},"1017537824":{"location":[47.807918,-3.8354298],"ct":"FR","tp":"CS","ts":"2023-09-11T14:28:31Z","tX":501,"tY":356,"tags":{"addr:city":"Trégunc","addr:housenumber":"3","addr:postcode":"29910","addr:street":"Stang Sant Laorans","cabins":"yes","caravans":"yes","name":"Pommeraie de l'Océan","phone":"+33 4 30 05 15 14","phone:note":"Le site web indique vraiment un numéro en 04 alors la région est en 02.","stars":"4","swimming_pool":"yes","tents":"yes","website":"https://www.camping-bretagne-lapommeraiedelocean.com"}},"1017541834":{"location":[47.8015332,-3.7905676],"ct":"FR","tp":"CS","ts":"2022-01-02T10:50:24Z","tX":501,"tY":356,"tags":{"addr:city":"Névez","addr:place":"Raguenez","addr:postcode":"29920","cabins":"yes","caravans":"yes","name":"Les 2 Fontaines","operator":"Sandaya","phone":"+33 2 98 06 81 91","stars":"4","swimming_pool":"yes","tents":"yes","website":"https://www.sandaya.fr/nos-campings/deux-fontaines"}},"1017966872":{"location":[47.8057545,-3.7485789],"ct":"FR","tp":"CS","ts":"2022-01-03T21:38:41Z","tX":501,"tY":356,"tags":{"cabins":"yes","caravans":"yes","name":"Camping Keraeren","phone":"+33 2 98 06 80 38","stars":"2","swimming_pool":"no","tents":"yes","website":"https://camping-keraeren.fr"}},"1019651919":{"location":[47.7849122,-3.5447925],"ct":"FR","tp":"CS","ts":"2023-10-25T09:53:48Z","tX":501,"tY":356,"tags":{"cabins":"yes","caravans":"yes","name":"Croaz An Ter","phone":"+33 2 98 39 94 19","stars":"2","swimming_pool":"no","tents":"yes","website":"https://www.campingcroasanter.com/"}},"1019655107":{"location":[47.7833821,-3.5483511],"ct":"FR","tp":"CS","ts":"2024-11-23T22:30:37Z","tX":501,"tY":356,"tags":{"addr:city":"Clohars-Carnoët","addr:housenumber":"1","addr:place":"Lieu-dit Locouarn Le Pouldu","addr:postcode":"29360","cabins":"yes","caravans":"yes","drinking_water":"yes","name":"Camping de Locouarn","phone":"+33 2 98 39 91 79","power_supply":"yes","sanitary_dump_station":"yes","shower":"yes","stars":"2","tents":"yes","toilets":"yes","website":"https://camping-locouarn.com"}},"1190656892":{"location":[47.8732816,-3.569813],"ct":"FR","tp":"CS","ts":"2024-05-01T11:43:18Z","tX":501,"tY":356,"tags":{"addr:housenumber":"2","addr:street":"Rue de Kermaria","caravans":"yes","drinking_water":"yes","name":"Camping municipal Quimperlé","phone":"+33 2 98 39 31 30","power_supply":"yes","shower":"yes","stars":"2","tents":"yes","toilets":"yes","website":"https://www.quimperle.bzh/decouvrir-la-ville/tourisme/camping-municipal/"}},"1222297046":{"location":[47.7762763,-3.5266319],"ct":"FR","tp":"CR","ts":"2024-10-07T23:08:44Z","tX":501,"tY":356,"tags":{"capacity":"7","caravan_site":"motorhome_stopover","caravan_site:type":"countryside","fee":"no","internet_access":"no","maxstay":"24 hours","name":"Aire Kerbrest","power_supply":"no","sanitary_dump_station":"no","surface":"gravel","water_point":"no","website":"https://www.lorientbretagnesudtourisme.fr/fr/fiche/aire-sans-service-du-bas-de-la-colline-kerbrest-guidel_TFOGAIREKERBREST/"}},"1266214097":{"location":[47.7773902,-3.6440628],"ct":"FR","tp":"CR","ts":"2024-09-24T21:36:13Z","tX":501,"tY":356,"tags":{"capacity":"4","caravan_site":"motorhome_stopover","caravan_site:type":"street_side","caravans":"no","fee":"no","maxstay":"48 hours","name":"Moëlan-sur-Mer","opening_hours":"24/7","power_supply":"no","sanitary_dump_station":"no","seasonal":"no","tents":"no","water_point":"no"}},"1282201220":{"location":[47.8661314,-3.543749],"ct":"FR","tp":"CR","ts":"2024-10-30T20:19:11Z","tX":501,"tY":356,"tags":{"caravan_site":"motorhome_stopover","caravan_site:type":"town","fee":"no","name":"Aire de Camping-car de Quimperlé","opening_hours":"24/7","power_supply":"yes","power_supply:capacity":"4","power_supply:fee":"yes","power_supply:maxcurrent":"10","reservation":"no","sanitary_dump_station":"yes","tents":"no","water_point":"yes","water_point:fee":"yes","website":"https://www.quimperle.bzh/point-d-interet/aire-de-camping-car/"}},"1307262750":{"location":[47.7973903,-3.8310148],"ct":"FR","tp":"CR","ts":"2024-08-12T13:54:07Z","tX":501,"tY":356,"tags":{"capacity":"10","caravan_site":"motorhome_stopover","caravan_site:type":"beach","fee":"no","maxstay":"2 nights","name":"Aire de Don","opening_hours":"24/7","power_supply":"no","sanitary_dump_station":"no","seasonal":"no","water_point":"no"}},"1312839924":{"location":[47.8170262,-3.7080889],"ct":"FR","tp":"CS","ts":"2024-12-05T20:01:51Z","tX":501,"tY":356,"tags":{"cabins":"yes","caravans":"yes","internet_access":"wlan","name":"Camping du Château de Bélon","phone":"+33 2 98 06 41 43","stars":"2","tents":"yes","website":"http://belon.bzh/camping/"}},"1312839925":{"location":[47.8152942,-3.7102082],"ct":"FR","tp":"CS","ts":"2024-09-02T15:32:05Z","tX":501,"tY":356,"tags":{}},"1320781655":{"location":[47.8596446,-3.7570138],"ct":"FR","tp":"PK","ts":"2024-10-04T17:53:31Z","tX":501,"tY":356,"tags":{"motorhome":"yes","motorhome:overnight":"yes","parking":"layby"}},"1321393605":{"location":[47.8573739,-3.7527563],"ct":"FR","tp":"CR","ts":"2024-10-30T22:33:08Z","tX":501,"tY":356,"tags":{"access":"yes","caravan_site":"motorhome_stopover","caravan_site:type":"cemetary","fee":"no","name":"Bel Air du cimetière","surface":"asphalt"}},"2407313368":{"location":[47.8545853,-3.8514649],"ct":"FR","tp":"CR","ts":"2024-08-12T13:57:56Z","tX":501,"tY":356,"tags":{"capacity":"6","caravan_site":"motorhome_stopover","caravan_site:type":"parking_lot","fee":"no","name":"Parking Quentel"}},"2407314493":{"location":[47.8281413,-3.8010302],"ct":"FR","tp":"CS","ts":"2022-01-06T10:12:32Z","tX":501,"tY":356,"tags":{"mobile":"+33 6 63 44 78 85","name":"Camping Fleuri","phone":"+33 2 98 06 74 76","website":"https://www.campingfleuri.com"}},"2983182207":{"location":[47.9666976,-3.8262027],"ct":"FR","tp":"CS","ts":"2023-10-23T21:52:17Z","tX":501,"tY":356,"tags":{"email":"contact@mairie-rosporden.fr","freezer":"yes","name":"Camping des 3 étangs","name:br":"Tachenn-gampiñ an 3 Lenn","phone":"+33 962649027","picnic_table":"yes","source:name:br":"proper translation","stars":"2","website":"https://camping3etangs.bzh/"}},"3672501627":{"location":[47.7856271,-3.5711084],"ct":"FR","tp":"CS","ts":"2022-03-06T17:31:56Z","tX":501,"tY":356,"tags":{"caravans":"yes","name":"Au Vieux Moulin","tents":"yes","website":"https://auvieuxmoulin-bretagne-sud.com/petit-camping-ecolo/"}},"4159622199":{"location":[47.8170558,-3.7093016],"ct":"FR","tp":"CS","ts":"2022-01-06T10:18:08Z","tX":501,"tY":356,"tags":{"cabins":"yes","caravans":"yes","internet_access":"wlan","name":"Camping du Château de Bélon","phone":"+33 2 98 06 41 43","stars":"2","tents":"yes","website":"http://belon.bzh/camping/"}},"4206418389":{"location":[47.8554503,-3.7673559],"ct":"FR","tp":"CR","ts":"2024-10-15T20:04:27Z","tX":501,"tY":356,"tags":{"caravan_site":"motorhome_stopover","caravan_site:type":"parimary_road","drinking_water":"no","fee":"no","name":"Kervandalen","sanitary_dump_station":"no","website":"https://www.pontaven.com/Accueil-des-camping-cars"}},"4293723130":{"location":[47.7882912,-3.70156],"ct":"FR","tp":"CS","ts":"2022-01-06T10:27:06Z","tX":501,"tY":356,"tags":{"addr:street":"Plage de Trenez","cabins":"yes","caravans":"yes","name":"Camping de l'Île Percée","phone":"+33298711625","stars":"3","swimming_pool":"no","tents":"yes","website":"https://www.camping-ile-percee.fr/"}},"9396402169":{"location":[47.8176566,-3.7998914],"ct":"FR","tp":"CS","ts":"2024-09-08T11:53:17Z","tX":501,"tY":356,"tags":{"addr:city":"Névez","addr:postcode":"29920","addr:street":"Route de Saint-Philibert","cabins":"yes","caravans":"yes","drinking_water":"yes","internet_access":"wlan","internet_access:fee":"yes","name":"Les Genêts","power_supply":"yes","shower":"yes","stars":"2","swimming_pool":"no","tents":"yes","toilets":"yes","website":"https://www.campinglesgenets-nevez.com"}},"9558832994":{"location":[47.7856131,-3.5714696],"ct":"FR","tp":"CS","ts":"2022-03-06T17:31:56Z","tX":501,"tY":356,"tags":{"caravans":"yes","name":"Yourtes et Roulotte de la laïta","tents":"yes","website":"https://auvieuxmoulin-bretagne-sud.com/petit-camping-ecolo/"}},"12151239626":{"location":[47.7700197,-3.5459107],"ct":"FR","tp":"CS","ts":"2024-09-02T09:00:18Z","tX":501,"tY":356,"tags":{"access":"private","addr:city":"Le pouldu","addr:postcode":"29360","caravans":"yes","fee":"yes","name":"Camping des Embruns","payment:credit_cards":"yes","static_caravans":"yes"}},"7204453999":{"location":[47.7888713,-3.8012517],"ct":"FR","tp":"CR","ts":"2024-10-07T17:53:24Z","tX":501,"tY":356,"tags":{"caravan_site":"motorhome_stopover","caravan_site:type":"coastal;streetside","fee":"no","maxstay":"24 hours","name":"Aire Raguenez Port","surface":"asphalt"}},"12302321230":{"location":[47.7945561,-3.7760554],"ct":"FR","tp":"CR","ts":"2024-10-31T19:47:55Z","tX":501,"tY":356,"tags":{"capacity":"10","caravan_site":"motorhome_stopover","caravan_site:type":"village","fee":"no","name":"Aire Kerascoët","power_supply":"no","sanitary_dump_station":"no","waterpoint":"no"}},"8463519976":{"location":[47.8159333,-3.789579],"ct":"FR","tp":"SD","ts":"2024-05-05T14:43:42Z","tX":501,"tY":356,"tags":{"fee":"no","operator":"Ville de Névez","sanitary_dump_station:chemical_toilet":"yes","sanitary_dump_station:grey_water":"yes","sanitary_dump_station:round_drain":"yes","water_point":"yes"}},"11898898882":{"location":[47.8661397,-3.5436936],"ct":"FR","tp":"SD","ts":"2024-05-12T16:11:05Z","tX":501,"tY":356,"tags":{"access":"yes","fee":"yes","motorhome":"designated"}}}