{"32955297":{"location":[43.501763,-3.5419208],"ct":"ES","tp":"CS","ts":"2025-05-29T16:28:36Z","tX":501,"tY":374,"tags":{"email":"info@playadeisla.com","name":"Camping Playa de Isla","phone":"+34 942 679361","website":"https://www.playadeisla.com/","wheelchair":"no"}},"44905708":{"location":[43.483883,-3.5398203],"ct":"ES","tp":"CS","ts":"2025-04-23T15:18:05Z","tX":501,"tY":374,"tags":{"addr:city":"Noja","addr:postcode":"39180","addr:street":"Calle de la Ría","email":"campinglosmolinos@campinglosmolinos.com","fax":"+34 942630725","name":"Camping Los Molinos","nohousenumber":"yes","phone":"+34 942630426","website":"https://www.campinglosmolinos.com"}},"75377830":{"location":[43.4976983,-3.576446],"ct":"ES","tp":"CS","ts":"2024-07-04T07:49:40Z","tX":501,"tY":374,"tags":{"addr:city":"Isla","addr:postcode":"39195","email":"puntamarina@ceoecant.es","fax":"+34 942 679617","name":"Camping Punta Marina","phone":"+34 942 679349","website":"https://www.campingpuntamarina.com/"}},"110254358":{"location":[43.4906002,-3.5340282],"ct":"ES","tp":"CS","ts":"2023-11-09T18:10:53Z","tX":501,"tY":374,"tags":{"access":"customers","barrier":"wall","email":"campingsuances@campingsuances.com","fax":"+34 942 844 120","name":"Camping Suaces","phone":"+34 942 810 280","website":"https://www.campingsuances.com/"}},"110254359":{"location":[43.4901333,-3.5406575],"ct":"ES","tp":"CS","ts":"2025-04-23T15:18:05Z","tX":501,"tY":374,"tags":{"access":"customers","addr:city":"Noja","addr:postcode":"39180","addr:street":"Playa de Ris","camp_site":"deluxe","email":"info@playajoyel.com","name":"Camping Playa Joyel","nohousenumber":"yes","phone":"+34 942 630 081","website":"https://www.playajoyel.com/"}},"110259488":{"location":[43.4889101,-3.5308911],"ct":"ES","tp":"CS","ts":"2019-07-16T16:23:33Z","tX":501,"tY":374,"tags":{"name":"Camping Playa de Ris","source":"PNOA","source:date":"2007"}},"110284296":{"location":[43.4867752,-3.5317866],"ct":"ES","tp":"CS","ts":"2020-01-18T10:45:54Z","tX":501,"tY":374,"tags":{"addr:city":"Noja","addr:housenumber":"51","addr:postcode":"39180","addr:street":"Avenida del Ris","email":"argoscamping@hotmail.com","name":"Camping Argos","phone":"+34 942 63 02 22","website":"https://www.campingargos.com"}},"139980364":{"location":[43.3447871,-3.7417977],"ct":"ES","tp":"CR","ts":"2016-11-04T21:35:52Z","tX":501,"tY":374,"tags":{"access":"yes","capacity":"10","fee":"no","operator":"Ayuntamiento de Liérganes","parking":"surface","sanitary_dump_station":"yes","tents":"no"}},"159078272":{"location":[43.5031972,-3.5756897],"ct":"ES","tp":"CS","ts":"2025-05-31T17:47:09Z","tX":501,"tY":374,"tags":{"caravans":"yes","drinking_water":"yes","email":"info@campinghotelplayalaarena.com","fax":"+34 942 679733","name":"Camping Playa la Arena","phone":"+34 942 679359","power_supply":"yes","shower":"yes","tents":"yes","toilets":"yes","website":"https://www.campinglaarena.com/"}},"198585088":{"location":[43.4722379,-3.8029224],"ct":"ES","tp":"CR","ts":"2024-04-28T21:50:34Z","tX":501,"tY":374,"tags":{"access":"yes","addr:city":"Santander","addr:postcode":"39005","addr:street":"Calle de Marino Fernández Fontecha","capacity":"25","caravan_site":"motorhome_stopover","caravan_site:type":"city","dog":"yes","fee":"no","maxstay":"48 hours","name":"Autocaravanas Parque de Las Llamas Santander","operator":"Ayuntamiento de Santander","power_supply":"no","sanitary_dump_station":"yes","start_date":"2017-06","supervised":"no","surface":"asphalt","tents":"no","toilets":"no","water_point":"yes","website":"https://turismo.santander.es/organiza-viaje/autocaravanas"}},"210616077":{"location":[43.4035257,-3.6291649],"ct":"ES","tp":"CR","ts":"2022-03-13T09:37:39Z","tX":501,"tY":374,"tags":{"access":"yes","capacity":"8","capacity:caravans":"8","dog":"yes","fee":"no","operator":"Aparcamiento de autocaravanas","power_supply":"no","sanitary_dump_station":"yes","water_point":"yes"}},"230824405":{"location":[43.4638129,-3.7239813],"ct":"ES","tp":"CS","ts":"2024-04-09T13:28:34Z","tX":501,"tY":374,"tags":{"caravans":"yes","drinking_water":"yes","email":"info@campingloredo.com","internet_access":"wlan","mobile":"+34 610 225 709","name":"Camping Derby Loredo","phone":"+34 942504106","power_supply":"no","sanitary_dump_station":"yes","shower":"yes","tents":"yes","toilets":"yes","website":"https://www.campingloredo.com/"}},"230824406":{"location":[43.4554155,-3.7175838],"ct":"ES","tp":"CS","ts":"2024-04-24T00:14:22Z","tX":501,"tY":374,"tags":{"addr:city":"Loredo","addr:country":"ES","addr:housenumber":"26","addr:postcode":"39160","addr:street":"Calle El Espadañal","name":"Camping El Arbolado","phone":"+34 942 504 414","website":"https://www.campingelarbolado.com/"}},"230824407":{"location":[43.454763,-3.7275962],"ct":"ES","tp":"CS","ts":"2024-04-03T14:09:46Z","tX":501,"tY":374,"tags":{"name":"Camping Latas (sur)","phone":"+34 942510249","stars":"3"}},"230824408":{"location":[43.456134,-3.727803],"ct":"ES","tp":"CS","ts":"2024-04-03T13:52:51Z","tX":501,"tY":374,"tags":{"name":"Camping Latas (norte)","phone":"+34 942510249","stars":"3"}},"230824409":{"location":[43.4461501,-3.7273427],"ct":"ES","tp":"CS","ts":"2023-04-05T07:34:16Z","tX":501,"tY":374,"tags":{"addr:city":"Suesa","addr:country":"ES","addr:postcode":"39150","addr:street":"Barrio Mojante","email":"somoparque@somoparque.com","name":"Camping Somo Parque","phone":"+34 942510309","website":"https://www.somoparque.com/"}},"230881873":{"location":[43.4660285,-3.6105059],"ct":"ES","tp":"CS","ts":"2024-07-20T14:24:36Z","tX":501,"tY":374,"tags":{"addr:city":"Bareyo","addr:country":"ES","addr:housenumber":"1750","addr:postcode":"39190","addr:street":"Calle Camino Real","cabins":"yes","contact:phone":"+34 942 67 05 69","email":"losmolinosdebareyo@ceoecant.es","name":"Camping Los Molinos de Bareyo","website":"https://www.campinglosmolinos.com"}},"230882600":{"location":[43.5053369,-3.5970395],"ct":"ES","tp":"CS","ts":"2024-06-07T08:36:15Z","tX":501,"tY":374,"tags":{"contact:fax":"+34 942 62 14 00","contact:phone":"+34 942 90 75 00","name":"Camping Cabo de Ajo","website":"https://www.campingcabodeajo.com/","wheelchair":"yes"}},"230886073":{"location":[43.490923,-3.6157965],"ct":"ES","tp":"CS","ts":"2020-08-28T18:59:28Z","tX":501,"tY":374,"tags":{"email":"campingarenas@hotmail.com","internet_access":"wlan","name":"Camping Arenas","phone":"+34 942 670663","website":"https://www.campingarenasdeajo.com"}},"230886769":{"location":[43.4945035,-3.6163951],"ct":"ES","tp":"CS","ts":"2024-07-10T08:36:03Z","tX":501,"tY":374,"tags":{"addr:city":"Ajo","addr:country":"ES","addr:housenumber":"1295","addr:postcode":"39170","addr:province":"Cantabria","addr:street":"Calle La Bandera","email":"info@campingplayadeajo.com","name":"Camping Playa de Ajo","phone":"+34 942621222","website":"http://campingplayadeajo.com/"}},"273229796":{"location":[43.4700553,-3.5605532],"ct":"ES","tp":"CS","ts":"2024-07-05T09:32:17Z","tX":501,"tY":374,"tags":{"addr:city":"Arnuero","addr:country":"ES","addr:postcode":"39195","fax":"+34 942677108","name":"Camping El Pradón","phone":"+34 942677108","stars":"1"}},"673857962":{"location":[43.4466407,-3.7280895],"ct":"ES","tp":"CR","ts":"2025-04-25T08:06:41Z","tX":501,"tY":374,"tags":{"drinking_water":"yes","fee":"yes","name":"Area Autocaravanas Somo Parque","power_supply":"yes","sanitary_dump_station":"yes","toilets":"yes","wheelchair":"yes"}},"833376717":{"location":[43.4923614,-3.5695806],"ct":"ES","tp":"PK","ts":"2024-07-04T08:24:41Z","tX":501,"tY":374,"tags":{"access":"yes","capacity:disabled":"1","fee":"no","motorhome":"yes","parking":"surface","surface":"asphalt"}},"836059166":{"location":[43.4637953,-3.5310469],"ct":"ES","tp":"CR","ts":"2025-01-27T23:24:21Z","tX":501,"tY":374,"tags":{"capacity":"17","fee":"yes","internet_access":"no","maxstay":"2 days","name":"Área de autocaravanas de Arnuero","power_supply":"no","reservation":"no","sanitary_dump_station":"yes","water_supply":"yes","website":"https://camprea-app.web.app/choicePage"}},"969479741":{"location":[43.4879326,-3.7930098],"ct":"ES","tp":"CS","ts":"2023-08-29T08:23:19Z","tX":501,"tY":374,"tags":{"addr:city":"Santander","addr:country":"ES","addr:housenumber":"19","addr:postcode":"39012","addr:street":"Avenida del Faro Pintor Eduardo Sanz","alt_name":"Camping de Mataleñas","cabins":"yes","caravans":"yes","contact:fax":"+34 942 39 15 42","contact:phone":"+34 942 39 15 42","drinking_water":"yes","email":"info@cabomayor.com","fee":"yes","internet_access":"yes","loc_name":"Camping del Faro","name":"Camping Cabo Mayor","sanitary_dump_station":"yes","swimming_pool":"yes","tents":"yes","toilets":"yes","washing_machine":"yes","website":"https://www.cabomayor.com"}},"1039823676":{"location":[43.4044391,-3.6249887],"ct":"ES","tp":"CR","ts":"2022-03-13T09:41:34Z","tX":501,"tY":374,"tags":{"access":"yes","dog":"yes","fee":"no","operator":"Aparcamiento de autocaravanas","power_supply":"no","sanitary_dump_station":"yes","water_point":"yes"}},"1268620370":{"location":[43.4434677,-3.8373883],"ct":"ES","tp":"CR","ts":"2024-04-03T11:50:26Z","tX":501,"tY":374,"tags":{"addr:street":"Calle de César Llamazares","caravan_site":"motorhome_stopover","caravan_site:type":"street_side","fee":"no","maxstay":"48 hours","name":"Aparcamiento para autocaravanas","opening_hours":"24/7","power_supply":"no","sanitary_dump_station":"no","seasonal":"no","tents":"no","water_point":"no","website":"https://turismo.santander.es/en/organising-your-journey/mothorhomes-and-campervans"}},"2781081271":{"location":[43.469595,-3.5605467],"ct":"ES","tp":"CR","ts":"2014-08-31T09:40:39Z","tX":501,"tY":374,"tags":{}},"4017850892":{"location":[43.3448666,-3.7409802],"ct":"ES","tp":"SD","ts":"2018-10-23T06:56:40Z","tX":501,"tY":374,"tags":{"water_point":"yes"}},"4224454390":{"location":[43.3585015,-3.8186186],"ct":"ES","tp":"CR","ts":"2020-08-11T12:49:20Z","tX":501,"tY":374,"tags":{"access":"yes","addr:city":"Obregón","addr:postcode":"39690","capacity":"50","fee":"no","internet_access":"no","name":"Área de autocaravanas de Cabárceno","operator":"Cantur","phone":"+34 902 210 112","picnic_table":"yes","power_supply":"no","sanitary_dump_station":"yes","shower":"no","tents":"yes","toilets":"no","website":"https://parquedecabarceno.com"}},"12095658697":{"location":[43.4940857,-3.6124449],"ct":"ES","tp":"CS","ts":"2024-08-06T18:19:05Z","tX":501,"tY":374,"tags":{"caravans":"yes","dog":"leashed","drinking_water":"yes","fee":"yes","motorhome":"yes","name":"La Vaca Pinta","phone":"+34 673305892","power_supply":"no","sanitary_dump_station":"yes","shower":"cold","toilets":"yes"}},"4523027552":{"location":[43.4033508,-3.6295545],"ct":"ES","tp":"SD","ts":"2018-08-15T22:06:07Z","tX":501,"tY":374,"tags":{"fee":"no"}},"4569032154":{"location":[43.4047963,-3.6245302],"ct":"ES","tp":"SD","ts":"2016-12-23T16:48:51Z","tX":501,"tY":374,"tags":{"fee":"no"}},"9612834328":{"location":[43.3827491,-3.8593695],"ct":"ES","tp":"SD","ts":"2022-03-28T10:33:31Z","tX":501,"tY":374,"tags":{"access":"yes","fee":"yes","water_point":"yes"}},"9896866366":{"location":[43.4639541,-3.5308376],"ct":"ES","tp":"SD","ts":"2022-07-19T08:01:57Z","tX":501,"tY":374,"tags":{"access":"yes","fee":"no"}},"11419870243":{"location":[43.4721005,-3.8035033],"ct":"ES","tp":"SD","ts":"2024-04-03T11:50:26Z","tX":501,"tY":374,"tags":{"access":"yes","fee":"no","operator":"Ayuntamiento de Santander","water_point":"yes"}}}