{"91460376":{"location":[41.0893869,-3.6226179],"ct":"ES","tp":"CS","ts":"2016-03-27T07:28:33Z","tX":501,"tY":383,"tags":{"area":"yes","name":"Camping de La Acebeda"}},"931018301":{"location":[41.0646635,-3.8075127],"ct":"ES","tp":"CR","ts":"2024-05-17T10:10:29Z","tX":501,"tY":383,"tags":{"access":"yes","addr:city":"Ceguilla","addr:postcode":"40162","addr:street":"Calle Raso","capacity":"4","caravan_site":"motorhome_stopover","caravan_site:type":"village","covered":"no","drinking_water":"yes","fee":"no","maxstay":"72 hours","name":"√Årea de autocaravanas de Ceguilla","name:fr":"Aire Camping Car Ceguilla","opening_hours":"24/7","operator":"ciudad de Ceguilla","power_supply":"no","sanitary_dump_station":"yes","sanitary_dump_station:chemical_toilet":"yes","sanitary_dump_station:grey_water":"yes","sanitary_dump_station:round_drain":"yes","supervised":"no","surface":"unpaved","water_point":"yes"}},"1121876039":{"location":[41.2379733,-3.7580006],"ct":"ES","tp":"CS","ts":"2022-12-13T17:46:43Z","tX":501,"tY":383,"tags":{"name":"Campamentos de verano El Colladito","website":"https://castillo.elcolladito.com/campamentos/"}},"6767195051":{"location":[40.9871964,-3.63824],"ct":"ES","tp":"SD","ts":"2019-09-02T18:04:31Z","tX":501,"tY":383,"tags":{"access":"yes","fee":"yes","water_point":"yes"}},"8632172575":{"location":[41.0645729,-3.8073293],"ct":"ES","tp":"SD","ts":"2024-05-17T10:10:29Z","tX":501,"tY":383,"tags":{"access":"yes","fee":"no","motorhome":"designated","operator":"Ayuntamiento de Ceguilla","sanitary_dump_station":"public","sanitary_dump_station:chemical_toilet":"yes","sanitary_dump_station:grey_water":"yes","sanitary_dump_station:round_drain":"yes","water_point":"yes"}}}