{"14063400":{"location":[40.3705225,-3.6414928],"ct":"ES","tp":"CR","ts":"2024-04-21T20:02:24Z","tX":501,"tY":386,"tags":{"addr:city":"Madrid","addr:postcode":"28051","addr:street":"Calle de Guadalcanal","caravans":"only","contact:facebook":"https://www.facebook.com/Mastercaravaning","fee":"yes","name":"Area de Autocaravanas Las Cigüeñas","power_supply":"yes"}},"560781613":{"location":[40.3193988,-3.6891882],"ct":"ES","tp":"CS","ts":"2024-07-23T05:12:18Z","tX":501,"tY":386,"tags":{"addr:city":"Madrid","addr:housenumber":"1","addr:postcode":"28906","addr:street":"Calle Calidad","bbq":"yes","cabins":"yes","caravans":"yes","email":"info@campingalpha.com","name":"Camping Alpha","phone":"+34916958069","shower":"yes","tents":"yes","toilets":"yes","washing_machine":"yes","website":"https://www.campingalpha.com/"}},"1005008488":{"location":[40.4194421,-3.8615494],"ct":"ES","tp":"CS","ts":"2024-09-29T16:27:33Z","tX":501,"tY":386,"tags":{"name":"Campamento Club Las Encinas de Boadilla","phone":"+34 674266927","website":"https://www.clublasencinas.es/Pages/30-CAMPAMENTOS__CAMPUS__CLUB_SOCIAL_MADRID__LAS_ENCINAS_DE_BOADILLA"}},"4231794114":{"location":[40.238862,-3.6905729],"ct":"ES","tp":"CR","ts":"2016-06-08T11:44:42Z","tX":501,"tY":386,"tags":{"name":"Area por Autocaravanas PINTO"}},"7107174923":{"location":[40.2383575,-3.691246],"ct":"ES","tp":"SD","ts":"2020-01-04T15:07:40Z","tX":501,"tY":386,"tags":{"access":"customers"}}}