{"1019013324":{"location":[39.8887271,-3.5355808],"ct":"ES","tp":"CR","ts":"2024-05-04T11:57:44Z","tX":501,"tY":388,"tags":{"addr:city":"Cabañas de Yepes","addr:postcode":"45312","addr:street":"Plaza Nueva","capacity":"2","caravan_site":"motorhome_stopover","caravan_site:type":"village","caravans":"no","covered":"no","drinking_water":"yes","fee":"no","maxstay":"72 hours","name":"Area de Autocaravanas de Cabañas de Yepes","opening_hours":"24/7","operator":"ciudad de Cabañas de Yepes","power_supply":"no","sanitary_dump_station":"yes","sanitary_dump_station:chemical_toilet":"yes","sanitary_dump_station:grey_water":"yes","sanitary_dump_station:round_drain":"yes","supervised":"no","surface":"asphalt","tents":"no","water_point":"yes"}},"1019019118":{"location":[39.8636923,-3.6103068],"ct":"ES","tp":"CR","ts":"2022-10-16T14:29:24Z","tX":501,"tY":388,"tags":{"access":"yes","addr:city":"Huerta de Valdecarábanos","addr:postcode":"45750","addr:street":"Plaza Mazón","capacity":"2","covered":"no","description":"Área de autocaravanas","description:fr":"station de service pour camping-car.","drinking_water":"yes","fee":"no","maxstay":"48 hours","opening_hours":"24/7","operator":"ciudad de Huerta de Valdecarábanos","power_supply":"no","sanitary_dump_station":"yes","sanitary_dump_station:chemical_toilet":"yes","sanitary_dump_station:grey_water":"yes","sanitary_dump_station:round_drain":"yes","supervised":"no","surface":"asphalt","water_point":"yes"}},"9398765964":{"location":[39.8887546,-3.5355665],"ct":"ES","tp":"SD","ts":"2024-05-04T11:57:44Z","tX":501,"tY":388,"tags":{"access":"yes","fee":"no","motorhome":"designated","operator":"Ayuntamiento de Cabañas de Yepes","sanitary_dump_station":"public","sanitary_dump_station:chemical_toilet":"yes","sanitary_dump_station:grey_water":"yes","sanitary_dump_station:round_drain":"yes","water_point":"yes"}}}