{"192913578":{"location":[37.1390483,-3.6183932],"ct":"ES","tp":"CS","ts":"2024-11-26T21:00:07Z","tX":501,"tY":398,"tags":{"access":"customers","cabins":"yes","fee":"yes","group_only":"yes","shower":"yes"}},"465774834":{"location":[37.1244904,-3.5864363],"ct":"ES","tp":"CS","ts":"2023-06-26T15:49:54Z","tX":501,"tY":398,"tags":{"access":"customers","addr:city":"La Zubia","addr:housenumber":"15","addr:postcode":"18140","addr:street":"Calle Laurel de la Reina","caravans":"yes","dog":"yes","drinking_water":"yes","email":"info@campingreinaisabel.com","fee":"yes","group_only":"no","name":"Camping Reina Isabel","phone":"+34 958 59 00 41","power_supply":"yes","reservation":"yes","shower":"yes","tents":"yes","toilets":"yes","website":"https://campingreinaisabel.com","wheelchair":"yes"}},"802902768":{"location":[37.0688461,-3.6526846],"ct":"ES","tp":"CS","ts":"2023-09-26T06:32:47Z","tX":501,"tY":398,"tags":{"access":"customers","addr:milestone":"km. 145","addr:street":"N-323a","air_conditioning":"yes","capacity":"64","contact:facebook":"https://www.facebook.com/SUSPIRODELMORO","internet_access":"wlan","internet_access:fee":"no","name":"Camping Suspiro del Moro","openfire":"no","opening_hours:covid19":"off","phone":"+34 958 55 54 11;+34 680 74 75 66","reservation":"yes","shower":"yes","smoking":"no","stars":"2","toilets":"yes","website":"https://www.campingsuspirodelmoro.com"}},"1034319211":{"location":[37.1343514,-3.5761987],"ct":"ES","tp":"CR","ts":"2024-01-26T22:32:58Z","tX":501,"tY":398,"tags":{"capacity":"24","capacity:caravans":"24","internet_access":"wlan","internet_access:fee":"no","name":"Área Camper Granada","power_supply":"yes","sanitary_dump_station":"yes","seasonal":"no","website":"https://areacampergranada.es"}},"11041990886":{"location":[36.888227,-3.7064558],"ct":"ES","tp":"CS","ts":"2024-02-15T16:02:16Z","tX":501,"tY":398,"tags":{"backcountry":"yes","name":"Zona de acampada El Cañuelo"}},"6001734585":{"location":[37.1510475,-3.5951034],"ct":"ES","tp":"CR","ts":"2024-01-27T15:39:10Z","tX":501,"tY":398,"tags":{"addr:city":"Granada","addr:housenumber":"9","addr:postcode":"18007","addr:street":"Calle Torre de Comares","capacity":"30","caravan_site":"motorhome_stopover","caravan_site:type":"underground","fee":"yes","level":"-1","name":"Área de Geysepark - Los Cármenes","operator":"Geysepark","phone":"+34 958 81 41 91","power_supply":"yes","sanitary_dump_station":"yes"}},"11483272241":{"location":[37.1465319,-3.5824909],"ct":"ES","tp":"CR","ts":"2024-01-29T17:54:55Z","tX":501,"tY":398,"tags":{"internet_access":"wlan","internet_access:fee":"no","name":"Área Camper el Cortijo","phone":"+34 655 974 048","power_supply":"yes","sanitary_dump_station":"yes","seasonal":"no","website":"https://areacamperelcortijo.com/"}},"9735927550":{"location":[37.1341215,-3.576309],"ct":"ES","tp":"SD","ts":"2022-05-12T21:28:52Z","tX":501,"tY":398,"tags":{"access":"customers"}},"11483295360":{"location":[37.1463574,-3.5825661],"ct":"ES","tp":"SD","ts":"2024-01-03T17:58:02Z","tX":501,"tY":398,"tags":{"fee":"5 EUR"}},"11488880112":{"location":[36.9865136,-3.6063777],"ct":"ES","tp":"SD","ts":"2024-01-04T20:23:45Z","tX":501,"tY":398,"tags":{"fee":"5EUR or buy 40L of Diesel","sanitary_dump_station:chemical_toilet":"yes","sanitary_dump_station:grey_water":"yes"}}}