{"26406289":{"location":[36.7185587,-3.547188],"ct":"ES","tp":"CS","ts":"2023-12-24T22:29:46Z","tX":501,"tY":399,"tags":{"addr:postcode":"18600","addr:street":"Playa de Poniente","area":"yes","caravans":"yes","email":"info@campingplayadeponiente.com","fax":"+34-958-604191","fee":"yes","image":"http://www.campingplayadeponiente.com/wp-content/uploads/2015/07/slider-01.jpg","internet_access":"wlan","internet_access:fee":"yes","name":"Camping Playa de Poniente","name:es":"Camping Playa de Poniente","name:pl":"Kemping Playa de Poniente","phone":"+34-958-820303","power_supply":"yes","shower":"hot","stars":"2","tents":"yes","website":"https://www.campingplayadeponiente.com/"}},"390794801":{"location":[36.7178454,-3.5479101],"ct":"ES","tp":"CS","ts":"2024-08-20T07:52:53Z","tX":501,"tY":399,"tags":{"addr:postcode":"18613","addr:street":"Camino del Pelaillo","area":"yes","caravans":"yes","dog":"yes","fee":"yes","internet_access":"wlan","name":"Camping Playa Granada","name:es":"Camping Playa Granada","name:pl":"Kemping Playa Granada","phone":"+34 958 82 27 16","power_supply":"yes","sanitary_dump_station":"yes","shower":"hot","tents":"yes","washing_machine":"yes","website":"https://campingplayagranada.com"}},"448921641":{"location":[36.7363354,-3.7434227],"ct":"ES","tp":"CS","ts":"2022-07-21T12:16:13Z","tX":501,"tY":399,"tags":{"addr:street":"Paseo Andrés Segovia","name":"Camping La Herradura"}},"604045214":{"location":[36.7402094,-3.7533964],"ct":"ES","tp":"CS","ts":"2022-01-07T10:18:48Z","tX":501,"tY":399,"tags":{"fee":"yes","name":"Nuevo"}},"1130596182":{"location":[36.7599411,-3.8348666],"ct":"ES","tp":"CS","ts":"2024-04-21T15:56:24Z","tX":501,"tY":399,"tags":{"alt_name":"Villa del Mar;Camping Nerja","name":"Villa del Mar - Camping Nerja"}},"1233437704":{"location":[36.7397587,-3.6710945],"ct":"ES","tp":"CR","ts":"2024-03-26T20:49:11Z","tX":501,"tY":399,"tags":{"bakery_service":"yes","caravan_site":"motorhome_stopover","caravan_site:type":"beach","charge":"15 EUR","check_in":"09:00-22:00","check_in:conditional":"09:00-20:00@(Oct-May)","check_out":"09:00-13:00","fee":"yes","internet_access":"wlan","laundry":"yes","lit":"yes","name":"Area de Autocaravanas de Almuñecar","opening_hours":"24/7","power_supply":"yes","power_supply:charge":"5 EUR","power_supply:fee":"yes","power_supply:maxcurrent":"6","reservation":"yes","sanitary_dump_station":"yes","sanitary_dump_station:chemical_toilet":"yes","sanitary_dump_station:grey_water":"yes","seasonal":"no","shower":"yes","shower:fee":"no","socket:cee_blue":"no","socket:schuko":"yes","supervised":"yes","surface":"grass","tents":"no","toilets":"yes","water_point":"yes","website":"https://www.alclubarea.com/","wikimedia_commons":"Category:Almuñecar motorhome stopover"}},"1233444909":{"location":[36.7350504,-3.7410197],"ct":"ES","tp":"CR","ts":"2023-12-23T01:17:26Z","tX":501,"tY":399,"tags":{"charge":"17 EUR","charge:conditional":"13 EUR @ (Sep 16-Jun 14)","email":"camperlaherradura@gmail.com","fee":"yes","laundry":"yes","name":"Aire Autocaravanas La Herradura","phone":"+34 666 024 111","power_supply":"yes","power_supply:charge":"5 EUR","power_supply:maxcurrent":"6","sanitary_dump_station":"yes","shower":"yes","water_point":"yes","website":"https://www.areacamperlaherradura.com/"}},"4396040492":{"location":[36.7380926,-3.6779705],"ct":"ES","tp":"CS","ts":"2023-10-16T17:29:41Z","tX":501,"tY":399,"tags":{"addr:city":"Almuñécar","addr:milestone":"km. 315.4","addr:postcode":"18690","addr:street":"N-340","email":"info@campingtropical.es","image":"http://campingtropical.es/wp-content/uploads/2014/03/logo.jpg","name":"Camping Tropical Almuñécar","operator":"Henning Maetz","phone":"+34 958 63 03 22","website":"https://campingtropical.es/"}}}