{"463181399":{"location":[48.0929481,-65.4542355],"ct":"CA","tp":"CS","ts":"2022-03-21T21:56:32Z","tX":325,"tY":355,"tags":{"addr:city":"Bonaventure","addr:housenumber":"200","addr:postcode":"G0C 1E0","addr:street":"Chemin Athanase Arsenault","description":"Accepte les chiens","name":"Camping Cime Aventures","phone":"+1-418-534-2333","website":"https://cimeaventures.com/"}},"479618295":{"location":[48.0383393,-65.4846278],"ct":"CA","tp":"CS","ts":"2023-08-13T12:14:43Z","tX":325,"tY":355,"tags":{"name":"Camping Beaubassin"}},"549180145":{"location":[48.0883985,-65.6344869],"ct":"CA","tp":"CR","ts":"2022-01-07T21:51:56Z","tX":325,"tY":355,"tags":{"addr:housenumber":"322","addr:street":"Boulevard Perron Est","name":"Camping Ruisselet","power_supply":"yes","sanitary_dump_station":"yes","source":"NRCan-CanVec-8.0","website":"https://www.campingruisselet.com/"}},"879974021":{"location":[48.1116902,-65.7161847],"ct":"CA","tp":"CR","ts":"2022-01-07T21:51:56Z","tX":325,"tY":355,"tags":{"addr:housenumber":"254","addr:street":"Boulevard Perron Ouest","capacity":"75","name":"Camping au bord de l'eau","power_supply":"yes","sanitary_dump_station":"yes"}},"1019243707":{"location":[48.0670492,-65.5497892],"ct":"CA","tp":"CR","ts":"2022-01-07T21:51:56Z","tX":325,"tY":355,"tags":{}},"1019243708":{"location":[48.0657926,-65.5457548],"ct":"CA","tp":"CR","ts":"2022-01-07T21:51:56Z","tX":325,"tY":355,"tags":{}},"6900309587":{"location":[48.1017739,-65.4618467],"ct":"CA","tp":"CS","ts":"2022-05-27T20:17:38Z","tX":325,"tY":355,"tags":{"name":"Camping le malin"}}}