{"164393321":{"location":[47.6586369,-65.6560477],"ct":"CA","tp":"CS","ts":"2022-04-22T12:15:52Z","tX":325,"tY":357,"tags":{"addr:city":"Bathurst","addr:housenumber":"747","addr:postcode":"E2A 4X9","addr:street":"Youghall Drive","capacity":"220","internet_access":"wlan","internet_access:fee":"no","name":"Youghall Camping","source":"NRCan-CanVec-10.0","website":"https://www.campingyoughall.ca/fr/index.html"}},"164500350":{"location":[47.7487541,-65.7153618],"ct":"CA","tp":"CS","ts":"2012-05-21T19:17:29Z","tX":325,"tY":357,"tags":{"source":"NRCan-CanVec-10.0"}},"864678674":{"location":[47.6850658,-65.6785285],"ct":"CA","tp":"CS","ts":"2020-11-14T20:00:22Z","tX":325,"tY":357,"tags":{"addr:housenumber":"1121","addr:street":"Chemin Bryar","backcountry":"no","capacity":"260","name":"Camping Malybel","phone":"+1-506-545-6888","website":"https://www.campingmalybel.ca/"}},"1369552837":{"location":[47.6822362,-65.469832],"ct":"CA","tp":"CS","ts":"2025-03-20T08:40:23Z","tX":325,"tY":357,"tags":{"source":"NRCan-CanVec-10.0"}},"1757811489":{"location":[47.6827801,-65.4689729],"ct":"CA","tp":"CS","ts":"2012-05-19T00:18:50Z","tX":325,"tY":357,"tags":{"source":"NRCan-CanVec-10.0"}},"5111840128":{"location":[47.6515479,-65.7210785],"ct":"CA","tp":"CS","ts":"2017-09-17T22:12:52Z","tX":325,"tY":357,"tags":{"internet_access":"wlan","internet_access:fee":"no","name":"Wildlife Campground"}}}