{"1289100504":{"location":[45.3518248,-65.5403191],"ct":"CA","tp":"CS","ts":"2024-06-03T11:28:16Z","tX":325,"tY":366,"tags":{"email":"info@seasidepark.ca","name":"Seaside Campground","phone":"+1 506 8334413","website":"https://seasidepark.ca"}},"1289105360":{"location":[45.3491632,-65.5428136],"ct":"CA","tp":"CS","ts":"2024-06-03T11:58:10Z","tX":325,"tY":366,"tags":{"email":"reservecffc@gmail.com","name":"Century Farm Family Camp Ground","phone":"+1 506 8332357","website":"http://www.centuryfarmcampground.com"}},"1289128258":{"location":[45.3529864,-65.5561093],"ct":"CA","tp":"CS","ts":"2024-06-03T14:22:32Z","tX":325,"tY":366,"tags":{"addr:city":"Saint Martins","addr:country":"CA","addr:housenumber":"2644","addr:postcode":"E5R 1Z9","addr:street":"Route 111","email":"fundywoodscampground@gmail.com","name":"Fundy Woods Campground & Cottages","phone":"+1 506 6092208","website":"https://www.fundywoods.com"}},"12068447301":{"location":[45.4205299,-65.4096266],"ct":"CA","tp":"CS","ts":"2024-07-22T16:30:43Z","tX":325,"tY":366,"tags":{"name":"Fundy Trail Provincial Park Campground"}}}