{"258378522":{"location":[44.6033469,-65.7326537],"ct":"CA","tp":"CS","ts":"2019-11-08T18:22:23Z","tX":325,"tY":369,"tags":{"addr:housenumber":"100","addr:street":"Highway 1","name":"Fundy Spray Camp Ground","source":"NRCan-CanVec-10.0","website":"https://www.fundyspraycampground.com/"}},"281467843":{"location":[44.7574262,-65.5071914],"ct":"CA","tp":"CR","ts":"2019-11-03T23:10:31Z","tX":325,"tY":369,"tags":{"addr:city":"Granville Ferry","addr:postcode":"B0S 1K0","addr:province":"Nova Scotia","camp_site":"deluxe","caravans":"yes","drinking_water":"yes","fee":"yes","internet_access":"wlan","internet_access:fee":"no","internet_access:ssid":"Dunromin","name":"Dunromin Waterfront Campground & Cabins","payment:credit_cards":"yes","phone":"+1-902-532-2808","sanitary_dump_station":"yes","shower":"yes","source":"NRCan-CanVec-10.0","tents":"yes","toilets":"yes","website":"http://www.dunromincampsite.com"}},"738978091":{"location":[44.8134462,-65.5343504],"ct":"CA","tp":"CR","ts":"2019-10-26T23:11:10Z","tX":325,"tY":369,"tags":{"addr:housenumber":"4","addr:street":"Shore Road West","internet_access":"wlan","internet_access:fee":"no","name":"Cove Oceanfront Campground","phone":"+1-902-532-5166","power_supply":"yes","sanitary_dump_station":"yes","website":"https://www.oceanfront-camping.com/"}},"743397038":{"location":[44.6131439,-65.7188969],"ct":"CA","tp":"CR","ts":"2019-11-08T18:22:23Z","tX":325,"tY":369,"tags":{"addr:housenumber":"57","addr:street":"Smiths Cove Cross Road","name":"Jaggars Point Oceanfront Campground","power_supply":"yes","sanitary_dump_station":"yes","website":"https://www.jaggarspoint.ca/"}},"744144118":{"location":[44.7680308,-65.6328541],"ct":"CA","tp":"CR","ts":"2020-06-27T22:39:04Z","tX":325,"tY":369,"tags":{"addr:housenumber":"62","addr:street":"Delaps Cove Road","name":"Fundy Trail Campground & Cottages","phone":"+1-902-532-7711"}},"4983701673":{"location":[44.7591891,-65.5084267],"ct":"CA","tp":"CS","ts":"2024-06-09T18:24:56Z","tX":325,"tY":369,"tags":{"addr:housenumber":"4618 Hwy #1","addr:province":"Nova Scotia","addr:street":"Granville Ferry","camp_site":"reception","check_date:currency:XBT":"2023-05-17","contact":"office@dunromincampsite.com","currency:XBT":"yes","name":"Dunromin Campground","payment:lightning":"yes","phone":"+1 902-532-2808","survey:date":"2023-04-16"}}}