{"2027784959":{"location":[22.3282834,103.7817505],"ct":"VN","tp":"CS","ts":"2024-01-14T04:49:22Z","tX":807,"tY":446,"tags":{"description":"Trạm nghỉ 2200m (Camp site 2200m)","designation":"Camp site 2200m"}},"6432486609":{"location":[22.571123,103.8852495],"ct":"CN","tp":"CS","ts":"2019-04-27T11:48:36Z","tX":807,"tY":446,"tags":{"name:en":"Free camping on river side"}},"4463097995":{"location":[22.2979064,103.9022699],"ct":"VN","tp":"CS","ts":"2016-10-25T10:05:13Z","tX":807,"tY":446,"tags":{"name":"Giang ta chai homestay","name:en":"Homestay Giang ta chai"}},"7035182985":{"location":[22.3322253,103.8012567],"ct":"VN","tp":"CS","ts":"2019-12-05T07:05:41Z","tX":807,"tY":446,"tags":{}},"12823775528":{"location":[22.335584,103.8345203],"ct":"VN","tp":"CS","ts":"2025-05-09T15:41:48Z","tX":807,"tY":446,"tags":{"access":"customers","addr:city":"Phan Si Păng - Sa Pa","addr:district":"Sapa","addr:housenumber":"73","addr:postcode":"31786","addr:province":"Lào Cai","addr:street":"Nguyễn Chí Thanh","addr:subdistrict":"Phan Si Păng","camp_site":"serviced","capacity:persons":"20","capacity:tents":"10","drinking_water":"yes","fee":"yes","name":"Glamper Sapa Campground","openfire":"yes","payment:cash":"yes","phone":"0919118858","power_supply":"yes","shower":"yes","tents":"yes","toilets":"yes"}}}