{"6232167785":{"location":[11.3358165,104.0508938],"ct":"KH","tp":"CS","ts":"2020-03-30T03:10:39Z","tX":807,"tY":479,"tags":{"name:ru":"Кемпинг, места для палаток"}},"6476798485":{"location":[11.2748951,103.8040433],"ct":"KH","tp":"CS","ts":"2021-10-22T17:00:52Z","tX":807,"tY":479,"tags":{"note":"ទ័ពជាង"}},"7658381485":{"location":[11.3648934,104.0153628],"ct":"KH","tp":"CS","ts":"2020-06-27T11:15:08Z","tX":807,"tY":479,"tags":{"name:en":"Veal Tun Sai"}},"7848584786":{"location":[11.253623,103.7851441],"ct":"KH","tp":"CS","ts":"2020-08-27T06:54:36Z","tX":807,"tY":479,"tags":{"name":"ស្ទឹងពពក","name:en":"Steung Por Pok"}},"7880213485":{"location":[11.2429079,104.0365153],"ct":"KH","tp":"CS","ts":"2020-09-06T01:37:46Z","tX":807,"tY":479,"tags":{"name:en":"ong-mong dike"}},"8282921817":{"location":[11.3346883,104.0522906],"ct":"KH","tp":"CS","ts":"2021-01-02T08:37:25Z","tX":807,"tY":479,"tags":{"name":"ផ្កាគីរីរម្យ","name:en":"PkaKirirom","opening_hours":"Mo-Su 06:00-21:00","phone":"0962398989"}},"12508526319":{"location":[11.3860732,104.0480717],"ct":"KH","tp":"CS","ts":"2025-01-17T02:50:03Z","tX":807,"tY":479,"tags":{"access":"yes","backcountry":"yes","name":"Campsite near Thmor Lory"}}}