{"18958494":{"location":[-43.1746178,172.7776874],"ct":"NZ","tp":"CS","ts":"2025-04-08T03:17:02Z","tX":1003,"tY":648,"tags":{"camp_site":"serviced","caravans":"yes","charge":"20 NZD site;10 NZD powered","fee":"yes","name":"Amberley Beach Campground","note":"Payment uses Penny card https://book.kiwicamp.nz/","operator":"Hurunui District Council","payment:penny":"yes","tents":"yes","website":"https://www.hurunui.govt.nz/recreation/camping-grounds/amberley-beach-camping-ground"}},"409902128":{"location":[-43.2110285,172.7543314],"ct":"NZ","tp":"CS","ts":"2021-05-09T10:39:52Z","tX":1003,"tY":648,"tags":{}},"4599243289":{"location":[-43.1320066,172.6572639],"ct":"NZ","tp":"CS","ts":"2017-01-10T06:56:43Z","tX":1003,"tY":648,"tags":{"name:en":"Grey River Camping"}},"4684229789":{"location":[-43.1741444,172.7782869],"ct":"NZ","tp":"CS","ts":"2017-02-13T21:04:18Z","tX":1003,"tY":648,"tags":{"name":"Amberley Beach Reserve Campground","name:en":"Amberley Beach Reserve Campground"}},"5249741062":{"location":[-43.0703065,172.7439589],"ct":"NZ","tp":"CS","ts":"2025-01-24T07:49:27Z","tX":1003,"tY":648,"tags":{"access":"private","addr:housenumber":"143","addr:postcode":"7483","addr:street":"Darnley Road","contact:facebook":"waiparaadventurecentre","contact:instagram":"waipara.adventure.centre","email":"bookings@waiparaadventure.nz","fee":"yes","name":"Waipara Adventure Centre","operator":"Sure & Stedfast Development Trust","website":"https://www.waiparaadventure.nz"}},"9393314267":{"location":[-43.0920852,172.7411113],"ct":"NZ","tp":"SD","ts":"2022-01-05T00:48:32Z","tX":1003,"tY":648,"tags":{}}}