{"432994567":{"location":[-37.6057311,178.3146367],"ct":"NZ","tp":"CS","ts":"2024-12-07T08:14:11Z","tX":1019,"tY":627,"tags":{"addr:country":"NZ","addr:hamlet":"Te Araroa","addr:housenumber":"4810","addr:street":"Te Araroa Road","email":"bill.martin@xtra.co.nz","internet_access":"no","name":"Te Araroa Camp Ground","phone":"+64 6 864 4873","website":"https://www.teararoaholidaypark.nz/"}},"731830766":{"location":[-37.6568235,178.4959601],"ct":"NZ","tp":"CS","ts":"2019-10-05T07:48:33Z","tX":1019,"tY":627,"tags":{"caravans":"yes","dog":"yes","fee":"yes","internet_access":"no","motor_vehicle":"yes","name":"East Cape Campsite","name:en":"East Cape Campsite","payment:coins":"yes","payment:notes":"yes","sanitary_dump_station":"no","tents":"yes"}},"1320231889":{"location":[-37.6364497,178.3612497],"ct":"NZ","tp":"CR","ts":"2024-10-03T05:01:11Z","tX":1019,"tY":627,"tags":{"access":"members","addr:housenumber":"4257","addr:street":"Te Araroa Road","addr:suburb":"Te Araroa","area":"yes","caravan_site":"motorhome_stopover","name":"Te Araroa NZMCA Park East Cape","operator":"NZMCA","power_supply":"no","sanitary_dump_station":"no"}},"4514879378":{"location":[-37.638812,178.3554063],"ct":"NZ","tp":"CR","ts":"2016-11-22T07:01:31Z","tX":1019,"tY":627,"tags":{"fee":"yes","internet_access":"no","name":"Parking on property"}},"12231121621":{"location":[-37.6331384,178.353678],"ct":"NZ","tp":"SD","ts":"2024-10-07T05:52:46Z","tX":1019,"tY":627,"tags":{"access":"yes","fee":"no","name":"Te Araroa Transfer Station PDS","operator":"Gisborne District Council","water_point":"no"}}}