{"369353856":{"location":[-32.7293174,148.1853238],"ct":"AU","tp":"CS","ts":"2022-05-05T07:05:53Z","tX":933,"tY":610,"tags":{"addr:housenumber":"42-56","addr:postcode":"2869","addr:state":"NSW","addr:street":"Bogan Street","addr:suburb":"Peak Hill","fee":"yes","name":"Double D Caravan Park","source":"bing for outline, gdal for the rest"}},"369353857":{"location":[-32.7207308,148.1907425],"ct":"AU","tp":"CS","ts":"2022-05-09T01:25:58Z","tX":933,"tY":610,"tags":{"addr:housenumber":"2","addr:postcode":"2869","addr:state":"NSW","addr:street":"Ween Street","addr:suburb":"Peak Hill","fee":"yes","name":"Peak Hill Caravan Park","source":"bing for outline, gdal for the rest","website":"https://www.peakhillcaravanpark.com.au/"}},"1469139926":{"location":[-32.771547,148.3529002],"ct":"AU","tp":"CS","ts":"2021-01-31T00:39:16Z","tX":933,"tY":610,"tags":{"fee":"yes","name":"Greenbah Camping Area","operator":"NSW National Parks and Wildlife Service","shower":"no","toilets":"yes"}},"1811183852":{"location":[-32.6979379,148.1906673],"ct":"AU","tp":"CS","ts":"2023-09-25T00:42:40Z","tX":933,"tY":610,"tags":{"access":"yes","caravans":"yes","name":"Lyndabale Rest Area","toilets":"no"}},"1811198182":{"location":[-32.5942422,148.2203395],"ct":"AU","tp":"CS","ts":"2023-11-05T07:15:49Z","tX":933,"tY":610,"tags":{"access":"yes","caravans":"yes","fee":"no","name":"Tomingley South Rest Area","static_caravans":"no","tents":"yes","toilets":"yes"}},"9534235257":{"location":[-32.7232826,148.1272712],"ct":"AU","tp":"CS","ts":"2022-02-25T09:39:16Z","tX":933,"tY":610,"tags":{"name":"Bogan Weir","toilets":"no"}},"9769864799":{"location":[-32.7276037,148.1862941],"ct":"AU","tp":"SD","ts":"2022-05-25T13:48:20Z","tX":933,"tY":610,"tags":{"access":"yes","water_point":"yes"}}}