{"827922279":{"location":[35.3232709,-106.5697512],"ct":"US","tp":"CR","ts":"2020-07-19T20:52:23Z","tX":208,"tY":404,"tags":{}},"957788670":{"location":[35.325062,-106.5605063],"ct":"US","tp":"CS","ts":"2023-06-08T14:18:45Z","tX":208,"tY":404,"tags":{"caravans":"yes","drinking_water":"yes","name":"Coronado State Monument","power_supply":"yes","shower":"yes","tents":"yes","toilets":"yes"}},"1166006696":{"location":[35.3261075,-106.55878],"ct":"US","tp":"CS","ts":"2023-06-08T14:18:43Z","tX":208,"tY":404,"tags":{"addr:city":"Bernalillo","addr:housenumber":"106","addr:state":"NM","addr:street":"Monument Road","caravans":"yes","drinking_water":"yes","name":"Coronado Campground","power_supply":"yes","shower":"yes","tents":"yes","toilets":"yes"}},"1215823539":{"location":[35.3066074,-106.5396074],"ct":"US","tp":"CR","ts":"2023-10-15T16:26:23Z","tX":208,"tY":404,"tags":{"addr:city":"Bernalillo","addr:housenumber":"555","addr:postcode":"87004","addr:state":"NM","addr:street":"South Hill Road","brand":"KOA","brand:wikidata":"Q16988635","cabins":"yes","fee":"yes","name":"KOA","power_supply":"yes","reservation":"required","short_name":"KOA","website":"https://koa.com/campgrounds/albuquerque-north"}}}