{"152664820":{"location":[32.2819196,-106.8667677],"ct":"US","tp":"PK","ts":"2021-11-09T03:01:13Z","tX":208,"tY":414,"tags":{"bus":"yes","hgv":"yes","motorcar":"no","motorhome":"yes","parking":"street_side","source":"Bing","trailer":"yes"}},"171323987":{"location":[32.310768,-106.7984741],"ct":"US","tp":"CR","ts":"2020-05-03T19:08:51Z","tX":208,"tY":414,"tags":{"name":"Sunny Acres RV Park"}},"172369586":{"location":[32.2831039,-106.7730427],"ct":"US","tp":"CR","ts":"2024-03-27T00:21:30Z","tX":208,"tY":414,"tags":{"addr:housenumber":"2224","addr:state":"NM","addr:street":"South Valley Drive","landuse":"residential","name":"Dalmont's RV and Trailer Corral","phone":"575-523-2992","source":"Bing"}},"172369588":{"location":[32.28572,-106.7877214],"ct":"US","tp":"CR","ts":"2024-03-27T00:21:30Z","tX":208,"tY":414,"tags":{"addr:housenumber":"740","addr:state":"NM","addr:street":"Stern Drive","name":"Hacienda RV Resort","phone":"575-528-5800","source":"Bing"}},"176295234":{"location":[32.2915988,-106.8063368],"ct":"US","tp":"CR","ts":"2024-03-27T00:21:30Z","tX":208,"tY":414,"tags":{"addr:housenumber":"301","addr:state":"NM","addr:street":"South Motel Boulevard","name":"The Coachlight RV Park","phone":"(575) 526-3301","source":"Bing","website":"http://www.zianet.com/coachlight/"}},"718668224":{"location":[32.2811307,-106.5836447],"ct":"US","tp":"CS","ts":"2010-05-03T12:23:53Z","tX":208,"tY":414,"tags":{}},"747005155":{"location":[32.3710633,-106.5579989],"ct":"US","tp":"CS","ts":"2023-05-16T23:02:49Z","tX":208,"tY":414,"tags":{"addr:city":"Organ","addr:country":"US","addr:housenumber":"15000","addr:postcode":"88052","addr:state":"NM","addr:street":"Aguirre Springs Campground","capacity:tents":"55","charge":"5 USD","dog":"leashed","drinking_water":"yes","fee":"yes","name":"Aguirre Springs Campground","nudism":"no","openfire":"yes","operator":"BLM","phone":"+1 575 525 4300","shower":"no","tents":"yes","toilets":"yes","website":"https://www.blm.gov/visit/aguirre-spring-campground"}},"897301210":{"location":[32.2812126,-106.8665778],"ct":"US","tp":"PK","ts":"2021-11-09T03:01:00Z","tX":208,"tY":414,"tags":{"bus":"yes","hgv":"yes","motorcar":"no","motorhome":"yes","parking":"street_side","source":"Bing","trailer":"yes"}},"1321966031":{"location":[32.2833218,-106.7941205],"ct":"US","tp":"CR","ts":"2024-10-07T21:32:26Z","tX":208,"tY":414,"tags":{"name":"Siesta RV Park"}},"10903280933":{"location":[32.3701331,-106.5616657],"ct":"US","tp":"CS","ts":"2023-05-16T19:35:43Z","tX":208,"tY":414,"tags":{"name":"8"}},"10903335515":{"location":[32.3716914,-106.5572323],"ct":"US","tp":"CS","ts":"2023-05-16T19:45:11Z","tX":208,"tY":414,"tags":{"name":"39"}},"7569244350":{"location":[32.2929157,-106.8592108],"ct":"US","tp":"CR","ts":"2020-05-29T11:06:08Z","tX":208,"tY":414,"tags":{"addr:city":"Las Cruces","addr:housenumber":"814","addr:postcode":"88007","addr:state":"NM","addr:street":"Weinrich Road","brand":"KOA","name":"Las Cruces KOA","website":"https://koa.com/campgrounds/las-cruces/"}}}