{"286081700":{"location":[51.4378956,85.6203422],"ct":"RU","tp":"CS","ts":"2022-08-11T10:03:02Z","tX":755,"tY":340,"tags":{"addr:housenumber":"1","addr:place":"урочище Секей","int_name":"Fromage","name":"Фромаж","opening_hours":"24/7","operator":"Анна","phone":"+7 913 9910220"}},"693558033":{"location":[51.4610836,85.5691932],"ct":"RU","tp":"CS","ts":"2022-08-11T10:03:02Z","tX":755,"tY":340,"tags":{"name":"Барсуган","phone":"+7-913-998-41-35"}},"1051077835":{"location":[51.4724237,85.5697713],"ct":"RU","tp":"CS","ts":"2022-08-11T10:03:02Z","tX":755,"tY":340,"tags":{"name":"Золотой Улей","phone":"+7-913-991-90-33"}},"1051316876":{"location":[51.458837,85.5814281],"ct":"RU","tp":"CS","ts":"2022-09-20T10:47:32Z","tX":755,"tY":340,"tags":{"contact:email":"malinoviy.ostrov@yandex.ru","contact:phone":"+79833261934","contact:website":"malinao.ru","name":"Малиновый остров"}},"1085561897":{"location":[51.4627957,85.5705074],"ct":"RU","tp":"CS","ts":"2022-08-11T10:03:02Z","tX":755,"tY":340,"tags":{"name":"Тырланда","phone":"+7-983-582-26-63"}},"1085561898":{"location":[51.6003564,85.5999934],"ct":"RU","tp":"CS","ts":"2022-08-11T10:03:02Z","tX":755,"tY":340,"tags":{"description":"конные прогулки круглый год, кемпинг на берегу.","name":"Чедоев привал","name:en":"Shedoev bivouac","name:ru":"Чедоев привал","phone":"+79236656044"}},"5781620553":{"location":[51.4799986,85.5677945],"ct":"RU","tp":"CS","ts":"2022-05-09T05:54:02Z","tX":755,"tY":340,"tags":{"backcountry":"no","cabins":"yes","fee":"yes","impromptu":"no","name":"Шаман камень","name:en":"Shaman stone"}},"7814358785":{"location":[51.6167158,85.7797548],"ct":"RU","tp":"CS","ts":"2020-08-15T03:07:25Z","tX":755,"tY":340,"tags":{}},"8765444487":{"location":[51.4550909,85.5946784],"ct":"RU","tp":"CS","ts":"2021-05-25T16:28:05Z","tX":755,"tY":340,"tags":{"backcountry":"yes"}},"8765444488":{"location":[51.4559064,85.5920345],"ct":"RU","tp":"CS","ts":"2021-05-25T16:28:05Z","tX":755,"tY":340,"tags":{"backcountry":"yes"}}}