{"534094200":{"location":[49.195833,85.470556],"ct":"KZ","tp":"CS","ts":"2023-08-21T02:42:16Z","tX":755,"tY":350,"tags":{"int_name":"Qaraşoqı qıstawı","name":"Қарашоқы қыстауы","name:kk":"Қарашоқы қыстауы","name:ru":"Зимовка Карашокы","source":"GNS"}},"534094201":{"location":[49.200556,85.602222],"ct":"KZ","tp":"CS","ts":"2023-08-21T02:42:16Z","tX":755,"tY":350,"tags":{"int_name":"Qarasw qıstawı","name":"Қарасу қыстауы","name:kk":"Қарасу қыстауы","name:ru":"Зимовка Карасу","source":"GNS"}},"534094203":{"location":[49.215833,85.453611],"ct":"KZ","tp":"CS","ts":"2023-08-21T02:42:16Z","tX":755,"tY":350,"tags":{"int_name":"Sarıbulaq qıstawı","name":"Сарыбұлақ қыстауы","name:kk":"Сарыбұлақ қыстауы","name:ru":"Зимовка Сарыбулак","source":"GNS"}},"534094217":{"location":[49.202222,85.6525],"ct":"KZ","tp":"CS","ts":"2023-08-21T02:42:16Z","tX":755,"tY":350,"tags":{"int_name":"Vayrman qıstaydı","name":"Вайрман қыстайды","name:kk":"Вайрман қыстайды","name:ru":"Зимовка Ваирман","source":"GNS"}},"534094218":{"location":[49.214444,85.633333],"ct":"KZ","tp":"CS","ts":"2023-08-21T02:42:16Z","tX":755,"tY":350,"tags":{"int_name":"Sarıtaqtay qıstawı","name":"Сарытақтай қыстауы","name:kk":"Сарытақтай қыстауы","name:ru":"Зимовка Сарытактай","source":"GNS"}},"534094233":{"location":[49.185556,85.657778],"ct":"KZ","tp":"CS","ts":"2023-08-21T02:42:16Z","tX":755,"tY":350,"tags":{"int_name":"Sarıqora qıstawı","name":"Сарықора қыстауы","name:kk":"Сарықора қыстауы","name:ru":"Зимовка Сарыкора","source":"GNS"}},"534095058":{"location":[49.295556,85.488889],"ct":"KZ","tp":"CS","ts":"2009-10-17T09:35:33Z","tX":755,"tY":350,"tags":{"name":"Зимовка лучагына","source":"GNS"}},"534095061":{"location":[49.288333,85.585833],"ct":"KZ","tp":"CS","ts":"2009-10-17T09:35:33Z","tX":755,"tY":350,"tags":{"name":"Зимовка кокжота","source":"GNS"}},"534095071":{"location":[49.255833,85.480833],"ct":"KZ","tp":"CS","ts":"2023-08-21T02:42:16Z","tX":755,"tY":350,"tags":{"name:ru":"Зимовка Усть-Каураха","source":"GNS"}},"534095073":{"location":[49.256944,85.557222],"ct":"KZ","tp":"CS","ts":"2009-10-17T09:35:36Z","tX":755,"tY":350,"tags":{"name":"Зимовка кимыетыбулак","source":"GNS"}},"534095077":{"location":[49.226667,85.463889],"ct":"KZ","tp":"CS","ts":"2023-08-21T02:42:16Z","tX":755,"tY":350,"tags":{"int_name":"Uzınjal qıstawı","name":"Ұзынжал қыстауы","name:kk":"Ұзынжал қыстауы","name:ru":"Зимовка Узынжал","source":"GNS"}},"534095078":{"location":[49.238333,85.535833],"ct":"KZ","tp":"CS","ts":"2009-10-17T09:35:37Z","tX":755,"tY":350,"tags":{"name":"Зимовка балтабай","source":"GNS"}},"534095079":{"location":[49.233611,85.568611],"ct":"KZ","tp":"CS","ts":"2009-10-17T09:35:38Z","tX":755,"tY":350,"tags":{"name":"Зимовка терисбулак","source":"GNS"}},"534095104":{"location":[49.238889,85.671111],"ct":"KZ","tp":"CS","ts":"2009-10-17T09:35:44Z","tX":755,"tY":350,"tags":{"name":"Зимовка коктерен","source":"GNS"}}}