{"342776061":{"location":[28.0007324,85.5668701],"ct":"NP","tp":"CS","ts":"2025-05-12T07:51:36Z","tX":755,"tY":428,"tags":{"building":"yes","internet_access":"wlan","name":"Ama Yangri Base Camp","tents":"yes"}},"5593408922":{"location":[28.0872906,85.5779835],"ct":"NP","tp":"CS","ts":"2018-05-02T23:25:43Z","tX":755,"tY":428,"tags":{"name:en":"Camp 4,000m","name:ko":"야영지 4,000m"}},"5593408924":{"location":[28.1420999,85.572391],"ct":"NP","tp":"CS","ts":"2018-05-02T23:25:44Z","tX":755,"tY":428,"tags":{"name:en":"High Camp 4,540m","name:ko":"High Camp 4,540m"}},"5593408925":{"location":[28.1850632,85.5726519],"ct":"NP","tp":"CS","ts":"2018-05-02T23:25:45Z","tX":755,"tY":428,"tags":{"name:en":"North Base Camp 4,330m","name:ko":"North Base Camp 4,330m"}},"5593409024":{"location":[28.0454088,85.5657356],"ct":"NP","tp":"CS","ts":"2018-05-02T23:25:43Z","tX":755,"tY":428,"tags":{"name:en":"Camp 3,800m","name:ko":"Camp 3,800m"}},"5593409025":{"location":[28.2143573,85.6762375],"ct":"NP","tp":"CS","ts":"2018-05-02T23:25:45Z","tX":755,"tY":428,"tags":{"name:en":"Camping","name:ko":"Camping"}},"5593409027":{"location":[28.1188339,85.7238241],"ct":"NP","tp":"CS","ts":"2024-04-15T23:46:06Z","tX":755,"tY":428,"tags":{}},"5593409029":{"location":[28.0682754,85.7152772],"ct":"NP","tp":"CS","ts":"2018-05-02T23:25:48Z","tX":755,"tY":428,"tags":{"name:en":"Camping","name:ko":"Camping"}},"10199604919":{"location":[28.0872923,85.577842],"ct":"NP","tp":"CS","ts":"2022-11-18T13:36:07Z","tX":755,"tY":428,"tags":{"name:en":"Not suitable for camping"}}}