{"8302694817":{"location":[27.0476697,85.5962176],"ct":"NP","tp":"CS","ts":"2021-01-08T11:22:50Z","tX":755,"tY":432,"tags":{"name:en":"SARLAHI BARRACK"}},"8347645317":{"location":[26.8482606,85.5514236],"ct":"NP","tp":"CS","ts":"2021-01-22T05:02:11Z","tX":755,"tY":432,"tags":{"name:en":"MALANGWA POST"}},"8373902518":{"location":[26.92692,85.445606],"ct":"NP","tp":"CS","ts":"2021-01-29T03:18:29Z","tX":755,"tY":432,"tags":{"name:en":"BASBARIYA CAMP, APF"}},"8477838817":{"location":[26.9143121,85.5589405],"ct":"NP","tp":"CS","ts":"2021-03-02T05:26:15Z","tX":755,"tY":432,"tags":{"name:en":"NO 10 BN APF"}},"8483259917":{"location":[26.7894463,85.4481954],"ct":"NP","tp":"CS","ts":"2021-03-03T15:42:48Z","tX":755,"tY":432,"tags":{"name:en":"BOP BARA(BISHNU GA PA)"}},"8483260017":{"location":[26.860418,85.566872],"ct":"NP","tp":"CS","ts":"2021-03-03T15:42:49Z","tX":755,"tY":432,"tags":{"name:en":"bop malangwa"}},"8585120518":{"location":[26.8993398,85.5727589],"ct":"NP","tp":"CS","ts":"2021-04-02T06:36:04Z","tX":755,"tY":432,"tags":{"name:en":"EXERCISE AREA"}}}