{"1375835456":{"location":[57.7556868,35.7687351],"ct":"RU","tp":"CS","ts":"2025-05-04T14:04:56Z","tX":613,"tY":309,"tags":{"addr:city":"Володарка","addr:country":"RU","addr:housenumber":"1 с1","addr:place":"Детский лагерь Максатиха Кэмп","addr:postcode":"171917","addr:street":"Солнечная улица","contact:email":"info@maksatiha.camp","contact:facebook":"https://www.facebook.com/MaksatihaCamp","contact:instagram":"http://instagram.com/maksatiha_camp","contact:telegram":"https://t.me/MaksatihaCamp","contact:vk":"https://vk.com/maksatihacamp","contact:website":"https://maksatiha.camp/","contact:whatsapp":"+79252055928","contact:youtube":"http://www.youtube.com/channel/UC7uB22Lo0TvZkXZPE2jscTw","description":"Детский кино лагерь Максатиха Кэмп","email":"info@maksatiha.camp","fixme":"Детский кино лагерь Максатиха Кэмп","image":"https://disk.yandex.ru/i/sCZ2Cqc3yT1SAQ","leisure":"resort","name":"Детский лагерь Максатиха Кэмп","note":"Детский кино лагерь Максатиха Кэмп","operator":"ООО \"Максатиха Кэмп\"","phone":"+7 (925) 205-59-28","resort":"kids_camp","start_date":"2008","website":"https://www.maksatiha.camp"}}}