{"4351595321":{"location":[34.0811558,35.7855583],"ct":"LB","tp":"CS","ts":"2019-01-01T14:42:35Z","tX":613,"tY":408,"tags":{"name":"بحيرة الشوان","name:ar":"بحيرة الشوان","name:en":"Bohayra Chouane"}},"6558337089":{"location":[34.1357693,35.6412704],"ct":"LB","tp":"CS","ts":"2020-10-30T15:11:50Z","tX":613,"tY":408,"tags":{"addr:city":"عمشيت","name":"Les Colombes","name:en":"Les Colombes","website":"https://campinglescolombes.com"}},"6558379685":{"location":[34.0704178,35.7465338],"ct":"LB","tp":"CS","ts":"2019-07-14T14:41:07Z","tX":613,"tY":408,"tags":{"name":"Yahchouch Camp","name:en":"Yahchouch Camp"}},"7467970949":{"location":[34.246161,35.7169098],"ct":"LB","tp":"CS","ts":"2020-04-30T17:43:18Z","tX":613,"tY":408,"tags":{"group_only":"yes"}},"9948069817":{"location":[34.2705236,35.7321746],"ct":"LB","tp":"CS","ts":"2022-08-11T19:49:42Z","tX":613,"tY":408,"tags":{}},"10275981110":{"location":[34.0753862,35.7693601],"ct":"LB","tp":"CS","ts":"2022-12-20T14:28:35Z","tX":613,"tY":408,"tags":{"name:en":"Up Hill Chouwen"}}}