{"683315600":{"location":[32.7057567,35.597039],"ct":"SY","tp":"CS","ts":"2023-02-18T02:20:38Z","tX":613,"tY":413,"tags":{"name":"כפר הנופש מעגן","name:en":"Ma'agan Recreation Village","name:he":"כפר הנופש מעגן","name:ru":"Деревня отдыха Мааган"}},"683315611":{"location":[32.7903865,35.6400244],"ct":"SY","tp":"CS","ts":"2011-09-29T20:04:30Z","tX":613,"tY":413,"tags":{"fee":"yes","name":"חוף סוסיתא","name:en":"Susita Camping","name:he":"חוף סוסיתא"}},"683315617":{"location":[32.8034656,35.6421064],"ct":"SY","tp":"CS","ts":"2021-10-05T15:51:45Z","tX":613,"tY":413,"tags":{}},"683315625":{"location":[32.824068,35.6460361],"ct":"SY","tp":"CS","ts":"2021-10-05T15:51:45Z","tX":613,"tY":413,"tags":{}},"924899330":{"location":[32.7950648,35.6769924],"ct":"SY","tp":"CS","ts":"2022-06-03T15:06:57Z","tX":613,"tY":413,"tags":{"fee":"yes","name":"קמפ בגולן","name:en":"Camp Golan","name:he":"קמפ בגולן","reservation":"recommended"}},"1107918630":{"location":[32.7126211,35.5143401],"ct":"IL","tp":"CS","ts":"2023-08-06T22:43:41Z","tX":613,"tY":413,"tags":{"barrier":"fence","caravans":"no","name":"בצל התל","name:en":"Betzel Hatel","name:he":"בצל התל","nudism":"no","reservation":"recommended","tents":"yes","toilets":"yes","website":"https://betzel-hatel.co.il/"}},"1492528122":{"location":[32.705519,35.5868135],"ct":"IL","tp":"CS","ts":"2011-11-05T17:10:43Z","tX":613,"tY":413,"tags":{"name":"חוף צמח","name:en":"Tsemach Camping","name:he":"חוף צמח"}},"2466847612":{"location":[32.761799,35.5580251],"ct":"IL","tp":"CS","ts":"2015-02-23T10:38:30Z","tX":613,"tY":413,"tags":{"name":"חוף שקמים","name:en":"Shikmim beach","name:he":"חוף שקמים"}},"4198750391":{"location":[32.592419,35.5207354],"ct":"IL","tp":"CS","ts":"2022-11-13T12:47:05Z","tX":613,"tY":413,"tags":{"camp_site":"basic","name":"חניון כוכב הירדן","name:he":"חניון כוכב הירדן","website":"https://www.parks.org.il/camping/חניון-לילה-גן-לאומי-כוכב-הירדן/"}},"5224367395":{"location":[32.8241959,35.5165634],"ct":"IL","tp":"CS","ts":"2023-04-11T12:50:40Z","tX":613,"tY":413,"tags":{"capacity":"500","contact:phone":"+972 54-319-2535","description":"עולה 25 ש\"ח לבן אדם. היה נקי, מסודר, מדשאות עם צל, יש נקודת חשמל. יש שירותים. 5 דקות הליכה מהכנרת. יש שולחנות. יש לתאם הגעה: 054-319-2535","description:de":"Es kostet NIS 25 pro Person, sauber, ordentlich, Rasen mit Schatten, gibt es einen elektrischen Punkt, gibt es Toiletten, 5 Minuten zu Fuß vom See Genezareth, gibt es Tische, rufen Sie bitte 054-319-2535","description:en":"It costs NIS 50 per person, lots of trash, lawns with shade and garbage, electrical point is not working, there are toilets, 5 minutes walk from the Sea of Galilee, there are tables, staff hardly speaks english","description:hu":"Fejenként 25 NIS , tiszta, rendezett, árnyékos pázsit, elektromos pont, WC-k, 5 percnyi sétára a Galileai-tengertől, asztalok, kérjük hívja a 054-319-2535","fee":"yes","image":"https://upload.wikimedia.org/wikipedia/commons/4/4c/Israel_Hiking_Map_%D7%97%D7%95%D7%A3_%D7%A8%D7%A1%D7%99%D7%98%D7%9C_%D7%97%D7%95%D7%A3_%D7%9E%D7%92%D7%93%D7%9C%D7%90_%D7%93%D7%91%D7%90%D7%97.jpeg","image1":"https://upload.wikimedia.org/wikipedia/commons/f/fd/IHM_Recital_Beach_Magdalah,_Dabach_Beach.jpeg","internet_access":"no","name":"חוף רסיטל חוף מגדלא דבאח","name:de":"Recital Strand Magdalah, Dabach Strand","name:en":"Recital Beach Magdalah, Dabach Beach","name:he":"חוף רסיטל חוף מגדלא דבאח"}},"5313433392":{"location":[32.7096638,35.568926],"ct":"IL","tp":"CS","ts":"2022-01-09T18:58:01Z","tX":613,"tY":413,"tags":{"description":"free overnight for shvilistim. There is an area with a tarp on the ground and thatched roof covering where you can sleep with tent or without. Bonfires allowed if you bring your own wood. Bathroom facilities were nice and clean","image":"https://upload.wikimedia.org/wikipedia/commons/7/78/IHM_Rob_Roy.jpeg","image1":"https://upload.wikimedia.org/wikipedia/commons/8/88/IHM_Rob_Roy_1.jpeg","name":"Rob Roy","name:en":"Rob Roy","phone":"+972 52-241-3176"}},"5598295959":{"location":[32.7736426,35.5297782],"ct":"IL","tp":"CS","ts":"2021-04-10T21:14:00Z","tX":613,"tY":413,"tags":{"name":"חניון לילה יער שווייץ","name:he":"חניון לילה יער שווייץ"}},"5961542219":{"location":[32.7691343,35.6882554],"ct":"SY","tp":"CS","ts":"2018-10-06T14:16:16Z","tX":613,"tY":413,"tags":{}},"6400115385":{"location":[32.8170319,35.6950798],"ct":"SY","tp":"CS","ts":"2022-10-30T07:11:43Z","tX":613,"tY":413,"tags":{"description":"במקום פעלה בעבר מסעדה בשם \"מור וקינמון\". כיום יש חניון ולידו חורשת עצים. חוץ מזה אין כלום.","description:he":"במקום פעלה בעבר מסעדה בשם \"מור וקינמון\". כיום יש חניון ולידו חורשת עצים. חוץ מזה אין כלום.","fixme":"name, name:he mismatch. Flagged by SafwatHalaby_bot-nameCopy","name":"מי גהה/מור וקינמון","name:he":"מי גהה/מור וקינמון"}},"8445993518":{"location":[32.7998928,35.6744735],"ct":"SY","tp":"CS","ts":"2022-05-30T06:44:29Z","tX":613,"tY":413,"tags":{"description":"חניון לילה עם בטון ומגני רוח לאוהלים, שירותים כימיים, ומקום למדורה.\n","description:he":"חניון לילה עם בטון ומגני רוח לאוהלים, שירותים כימיים, ומקום למדורה.\n","name":"חורשת גבעת יואב","name:he":"חורשת גבעת יואב"}},"8583900680":{"location":[32.7951403,35.6774251],"ct":"SY","tp":"CS","ts":"2023-05-26T12:37:52Z","tX":613,"tY":413,"tags":{"name":"סיני בגולן","name:en":"Sinai BaGolan","name:he":"סיני בגולן","website":"https://www.sinaibagolan.co.il/"}},"11801657173":{"location":[32.6896245,35.5389208],"ct":"IL","tp":"CS","ts":"2024-05-23T10:45:39Z","tX":613,"tY":413,"tags":{"description":"קמפינג וחופשה בטבע כיול עצמי ניקוי וריפוי","description:he":"קמפינג וחופשה בטבע כיול עצמי ניקוי וריפוי","fee":"yes","name":"גן החיים","name:he":"גן החיים","website":"https://ganhahaim.co.il/"}},"12179681401":{"location":[32.6851034,35.5305371],"ct":"IL","tp":"CS","ts":"2024-09-16T06:59:03Z","tX":613,"tY":413,"tags":{"opening_hours":"24/7","outdoor_seating":"no"}},"4377655494":{"location":[32.7859905,35.5383388],"ct":"IL","tp":"CR","ts":"2017-06-20T13:04:05Z","tX":613,"tY":413,"tags":{"name":"Bridge 2Peace Gates","name:en":"Bridge 2Peace Gates"}},"5938613487":{"location":[32.6612983,35.6783467],"ct":"JO","tp":"CR","ts":"2018-09-29T11:04:00Z","tX":613,"tY":413,"tags":{"name:ru":"Стихийный кемпинг"}}}