{"964952986":{"location":[30.6871227,35.5732921],"ct":"JO","tp":"CS","ts":"2010-10-25T15:51:10Z","tX":613,"tY":420,"tags":{"name":"Rummana Camp"}},"8022424311":{"location":[30.5265471,35.5631284],"ct":"JO","tp":"CS","ts":"2020-10-19T15:36:13Z","tX":613,"tY":420,"tags":{"name":"Jayyah Camping"}},"10126704817":{"location":[30.6765784,35.6111373],"ct":"JO","tp":"CS","ts":"2022-10-24T18:19:06Z","tX":613,"tY":420,"tags":{"addr:postcode":"00000","addr:street":"White Dome Trail","email":"Cesar.altafyly@gmail.com","internet_access":"wlan","name":"Hobbit houses","opening_hours":"24/7","phone":"+16676463768"}},"10139317618":{"location":[30.6015389,35.5400838],"ct":"JO","tp":"CS","ts":"2022-10-30T09:10:50Z","tX":613,"tY":420,"tags":{"name:en":"Good place for a tent (+water)","name:ru":"Место под палатку (вода есть)"}},"10139318618":{"location":[30.6135638,35.5329999],"ct":"JO","tp":"CS","ts":"2022-10-30T09:10:51Z","tX":613,"tY":420,"tags":{"name:en":"Good place for a tent","name:ru":"Место под палатку"}},"10139318619":{"location":[30.6186309,35.525388],"ct":"JO","tp":"CS","ts":"2022-10-30T09:10:51Z","tX":613,"tY":420,"tags":{"name:en":"Good place for a tent"}},"10139322017":{"location":[30.6210405,35.5171015],"ct":"JO","tp":"CS","ts":"2022-10-30T09:10:51Z","tX":613,"tY":420,"tags":{"name:en":"Good place for a tent"}},"10697927206":{"location":[30.6160864,35.6049451],"ct":"JO","tp":"CS","ts":"2023-02-27T19:51:36Z","tX":613,"tY":420,"tags":{"name:en":"Al nawatef camp eco"}},"10828132705":{"location":[30.6759037,35.6108682],"ct":"JO","tp":"CS","ts":"2023-04-20T22:08:28Z","tX":613,"tY":420,"tags":{"addr:street":"White Dome Trail","name":"طريق الهوبيت","name:en":"Hobbit’s trial"}}}