{"72509929":{"location":[51.996274,4.1318398],"ct":"NL","tp":"CS","ts":"2025-01-15T00:23:43Z","tX":523,"tY":338,"tags":{"contact:email":"info@jagtveld.nl","contact:phone":"+31174413479","name":"Jagtveld Camperplaats Hoek van Holland","power_supply":"yes","power_supply:maxcurrent":"10","sanitary_dump_station:fee":"no","shower":"yes","toilets":"yes","website":"https://www.jagtveld.nl/camperplaats-hoek-van-holland"}},"72509930":{"location":[52.001858,4.1375187],"ct":"NL","tp":"CS","ts":"2024-06-13T06:39:52Z","tX":523,"tY":338,"tags":{"caravans":"yes","contact:phone":"+31174412420","drinking_water":"yes","name":"Vlugtenburg","shower":"yes","tents":"yes","url":"https://vlugtenburg.nl/"}},"140591379":{"location":[51.9259397,4.1311879],"ct":"NL","tp":"CS","ts":"2014-12-03T17:12:23Z","tX":523,"tY":338,"tags":{"landuse":"grass","name":"Veld 8","source":"3dShapes"}},"140661500":{"location":[51.9124211,4.1773014],"ct":"NL","tp":"CS","ts":"2025-01-14T23:43:54Z","tX":523,"tY":338,"tags":{"fee":"yes","landcover":"grass","static_caravans":"yes","surface":"grass"}},"141264374":{"location":[51.9069922,4.0724437],"ct":"NL","tp":"CS","ts":"2024-11-16T10:19:42Z","tX":523,"tY":338,"tags":{"access":"customers","caravans":"no","description":"Camping op gebied ZHL, wordt beheerd door verderop gelegen camping Ketjil","motorhome":"no","name":"Kampeerterrein Duinen van Oostvoorne","natural":"grassland","operator":"Camping Ketjil","tents":"yes","website":"https://www.campingketjil.nl/camping-in-westvoorne.php/tentkampeerplaats-natuurveld-6m2"}},"141551960":{"location":[51.8580756,4.0745571],"ct":"NL","tp":"CS","ts":"2024-05-17T09:49:26Z","tX":523,"tY":338,"tags":{"capacity:pitches":"30","capacity:static_caravans":"60","caravans":"yes","email":"info@campingdehoutenpaardjes.nl","internet_access":"wlan","internet_access:fee":"yes","motorhome":"yes","name":"Camping Houten Paardjes","phone":"+31 181 401 581","shower":"yes","static_caravans":"yes","tents":"yes","toilets":"yes","website":"https://campingdehoutenpaardjes.nl/"}},"207626796":{"location":[51.9285738,4.1387877],"ct":"NL","tp":"CS","ts":"2024-11-08T18:42:56Z","tX":523,"tY":338,"tags":{"name":"Veld 12"}},"207626801":{"location":[51.928571,4.1375402],"ct":"NL","tp":"CS","ts":"2024-11-08T18:42:56Z","tX":523,"tY":338,"tags":{"name":"Veld 11"}},"207626803":{"location":[51.9286373,4.1399244],"ct":"NL","tp":"CS","ts":"2013-02-28T19:26:57Z","tX":523,"tY":338,"tags":{"landuse":"grass","name":"Veld 13"}},"207626805":{"location":[51.9284803,4.1353154],"ct":"NL","tp":"CS","ts":"2024-11-08T18:42:56Z","tX":523,"tY":338,"tags":{"name":"Veld 10"}},"214475713":{"location":[51.875707,4.054404],"ct":"NL","tp":"CR","ts":"2024-11-07T09:46:00Z","tX":523,"tY":338,"tags":{"addr:city":"Rockanje","addr:housenumber":"3","addr:postcode":"3235AB","addr:street":"C G van Kleijburgweg","name":"Van Itersoncamping","operator":"Molecaten","website:map":"https://www.molecaten.nl/Molecaten/media/Molecaten/Plattegronden/Plattegronden%20parkpagina/1008_groot.png"}},"214794334":{"location":[51.8539265,4.0805327],"ct":"NL","tp":"CS","ts":"2024-11-07T09:39:06Z","tX":523,"tY":338,"tags":{"addr:city":"Rockanje","addr:housenumber":"19","addr:postcode":"3235LA","addr:street":"Schapengorsedijk","name":"Camping Rondeweibos","operator":"Molecaten","website:map":"https://www.molecaten.nl/Molecaten/media/Molecaten/Plattegronden/Plattegronden%20parkpagina/1007_groot.png"}},"248797677":{"location":[51.9792726,4.1766158],"ct":"NL","tp":"CS","ts":"2023-03-23T12:04:48Z","tX":523,"tY":338,"tags":{"name":"Scouting Labelterrein Staelduin","openfire":"yes","scout":"yes","tents":"yes"}},"430020401":{"location":[51.9114261,4.1830495],"ct":"NL","tp":"CS","ts":"2025-01-07T08:02:39Z","tX":523,"tY":338,"tags":{"addr:city":"Brielle","addr:housenumber":"4","addr:postcode":"3231NC","addr:street":"Oude Veerdam","cabins":"yes","caravans":"yes","name":"De Krabbeplaat","note":"to do list: faciliteiten detailing n.a.v. website:map & andere infobronnen","phone":"+31 181 412 363","source":"BAG","source:date":"2014-02-11","static_caravans":"yes","tents":"yes","website":"https://www.krabbeplaat.nl/","website:map":"https://www.krabbeplaat.nl/images/plattegrond-krabbeplaat-v2.jpeg"}},"430441009":{"location":[51.8822846,4.054165],"ct":"NL","tp":"CS","ts":"2024-11-07T09:32:41Z","tX":523,"tY":338,"tags":{"addr:city":"Rockanje","addr:housenumber":"11","addr:postcode":"3235CC","addr:street":"Duinrand","internet_access":"wlan","name":"Camping Waterbos","operator":"Molecaten","website:map":"https://www.molecaten.nl/Molecaten/media/Molecaten/Plattegronden/Plattegronden%20parkpagina/1006_groot.png"}},"626708923":{"location":[51.9071541,4.078606],"ct":"NL","tp":"CS","ts":"2023-05-30T22:11:05Z","tX":523,"tY":338,"tags":{"addr:city":"Oostvoorne","addr:housenumber":"15","addr:postcode":"3233KH","addr:street":"Berkenrijsweg","caravans":"yes","email":"info@campingketjil.nl","fee":"yes","internet_access":"wlan","internet_access:fee":"yes","mobile":"+31 6 14728425","name":"Camping Ketjil","operator":"Camping Ketjil V.O.F","phone":"+31 181 483 305","shower":"yes","tents":"yes","toilets":"yes","website":"https://www.campingketjil.nl"}},"673202909":{"location":[51.9022306,4.2063483],"ct":"NL","tp":"CS","ts":"2023-04-08T16:02:06Z","tX":523,"tY":338,"tags":{"caravans":"yes","motorhome":"yes","name":"Dagcamping Staaldiepseweg","opening_hours":"sunrise-sunset","shower":"no","tents":"yes","toilets":"no"}},"707998808":{"location":[51.9912665,4.1302809],"ct":"NL","tp":"CS","ts":"2024-04-26T14:08:06Z","tX":523,"tY":338,"tags":{"caravans":"yes","contact:email":"campinghvh@rotterdam.nl","contact:phone":"+31174382550","fee":"yes","name":"Hoek van Holland","static_caravans":"yes","tents":"yes","website":"https://en.rotterdam.info/locations/camping-hoek-van-holland-en/"}},"708004435":{"location":[51.9185515,4.1459334],"ct":"NL","tp":"CS","ts":"2023-05-30T12:25:30Z","tX":523,"tY":338,"tags":{"cabins":"yes","caravans":"yes","name":"Modjo-Kerto","phone":"+31 6 10891796","static_caravans":"yes","tents":"yes","website":"https://www.modjo-kerto.nl/"}},"708004441":{"location":[51.9057964,4.1772255],"ct":"NL","tp":"CS","ts":"2023-05-30T12:25:30Z","tX":523,"tY":338,"tags":{"cabins":"yes","caravans":"yes","name":"Camping de Meeuw","phone":"+31 181 412 777","shower":"yes","static_caravans":"yes","tents":"yes","toilets":"yes","website":"https://www.demeeuw.nl/"}},"1150269820":{"location":[51.9203879,4.1185547],"ct":"NL","tp":"CS","ts":"2023-05-30T12:25:35Z","tX":523,"tY":338,"tags":{"caravans":"yes","name":"Camping Gorshoeve","phone":"+31 181 482 318","shower":"yes","tents":"yes","toilets":"yes","website":"https://www.camping-gorshoeve.nl/"}},"1150271666":{"location":[51.8994628,4.1270836],"ct":"NL","tp":"CS","ts":"2023-02-28T21:37:51Z","tX":523,"tY":338,"tags":{"caravans":"yes","email":"info@minicampingdebark.nl","name":"Mini Camping de Bark","shower":"yes","tents":"yes","toilets":"yes","website":"https://minicampingdebark.nl/"}},"1150272585":{"location":[51.9047798,4.0970615],"ct":"NL","tp":"CS","ts":"2023-05-30T22:10:50Z","tX":523,"tY":338,"tags":{"caravans":"yes","email":"info@minicampingroos.nl","internet_access":"yes","internet_access:fee":"no","name":"Mini Camping Roos","phone":"+31 181 483 205","sanitary_dump_station":"yes","shower":"yes","tents":"yes","toilets":"yes","website":"https://www.minicampingroos.nl","wheelchair":"yes"}},"1150273931":{"location":[51.8626278,4.0843758],"ct":"NL","tp":"CS","ts":"2023-05-30T12:25:35Z","tX":523,"tY":338,"tags":{"caravans":"yes","email":"info@minicamping-wilgenhoek.nl","name":"Wilgenhoek","phone":"+31 181 403 617","shower":"yes","tents":"yes","toilets":"yes","website":"https://www.minicamping-wilgenhoek.nl"}},"1160708890":{"location":[51.8560082,4.0945122],"ct":"NL","tp":"CS","ts":"2023-05-30T12:25:36Z","tX":523,"tY":338,"tags":{"cabins":"yes","caravans":"yes","email":"info@midicamping.nl","internet_access":"wlan","motorhome":"yes","name":"Midicamping van der Burgh","phone":"+31 181 404 179","shower":"yes","tents":"yes","toilets":"yes","website":"https://www.midicamping.nl/"}},"1163540978":{"location":[51.913595,4.180043],"ct":"NL","tp":"CS","ts":"2025-01-14T23:43:54Z","tX":523,"tY":338,"tags":{"access":"private","capacity":"42","caravans":"yes","dog":"yes","email":"brielle@caravanclub.nl","fee":"yes","internet_access":"wlan","laundry":"yes","name":"De Lepelaar","opening_hours":"Apr-Oct","operator":"Nederlandse Caravan Club","phone":"+31 181 417 338","power_supply":"yes","power_supply:maxcurrent":"6","reservation":"members_only","shower":"yes","surface":"grass","toilets":"yes","website":"https://www.ncc.nl/terreinen/brielle-de-lepelaar/"}},"1192494920":{"location":[51.9786458,4.1766262],"ct":"NL","tp":"CS","ts":"2023-07-26T19:41:31Z","tX":523,"tY":338,"tags":{"group_only":"yes","name":"Wortelveld","operator":"Scouting Labelterein Staelduin"}},"1192494921":{"location":[51.9788778,4.1761083],"ct":"NL","tp":"CS","ts":"2023-07-26T19:41:31Z","tX":523,"tY":338,"tags":{"group_only":"yes","name":"Andijvieveld","operator":"Scouting Labelterein Staelduin"}},"1192494922":{"location":[51.9791013,4.1754331],"ct":"NL","tp":"CS","ts":"2023-07-26T19:41:31Z","tX":523,"tY":338,"tags":{"group_only":"yes","name":"Spruitenveld","operator":"Scouting Labelterein Staelduin"}},"1192494923":{"location":[51.9787539,4.1750777],"ct":"NL","tp":"CS","ts":"2023-07-26T19:41:31Z","tX":523,"tY":338,"tags":{"group_only":"yes","name":"Bonenveld","operator":"Scouting Labelterein Staelduin"}},"1192494924":{"location":[51.9783621,4.1747835],"ct":"NL","tp":"CS","ts":"2023-07-26T19:41:31Z","tX":523,"tY":338,"tags":{"group_only":"yes","name":"Bloemkoolveld","operator":"Scouting Labelterein Staelduin"}},"1192494925":{"location":[51.9781679,4.1754338],"ct":"NL","tp":"CS","ts":"2023-07-26T19:41:31Z","tX":523,"tY":338,"tags":{"group_only":"yes","name":"Slaveld","operator":"Scouting Labelterein Staelduin"}},"1192494926":{"location":[51.9780138,4.1758205],"ct":"NL","tp":"CS","ts":"2023-07-26T19:41:31Z","tX":523,"tY":338,"tags":{"group_only":"yes","name":"Tomatenveld","operator":"Scouting Labelterein Staelduin"}},"1192494927":{"location":[51.9783172,4.1761461],"ct":"NL","tp":"CS","ts":"2023-07-26T19:41:31Z","tX":523,"tY":338,"tags":{"group_only":"yes","name":"Paprikaveld","operator":"Scouting Labelterein Staelduin"}},"1192494928":{"location":[51.9784894,4.175654],"ct":"NL","tp":"CS","ts":"2023-07-26T19:41:31Z","tX":523,"tY":338,"tags":{"group_only":"yes","name":"Komkommerveld","operator":"Scouting Labelterein Staelduin"}},"1192494929":{"location":[51.9795571,4.177444],"ct":"NL","tp":"CS","ts":"2023-07-26T19:41:31Z","tX":523,"tY":338,"tags":{"group_only":"yes","name":"Spinazieveld","operator":"Piet Ceelieveld"}},"1192494930":{"location":[51.9798821,4.1777902],"ct":"NL","tp":"CS","ts":"2023-07-26T19:41:31Z","tX":523,"tY":338,"tags":{"group_only":"yes","name":"Radijsveldje","operator":"Scouting Labelterein Staelduin"}},"1192494931":{"location":[51.9798868,4.1782636],"ct":"NL","tp":"CS","ts":"2023-07-26T19:41:31Z","tX":523,"tY":338,"tags":{"group_only":"yes","name":"Piet Ceelieveld","operator":"Scouting Labelterein Staelduin"}},"1230641936":{"location":[51.9782529,4.1207766],"ct":"NL","tp":"CR","ts":"2025-01-15T01:04:56Z","tX":523,"tY":338,"tags":{"capacity":"5","caravan_site":"motorhome_stopover","caravan_site:type":"beach","fee":"no","fixme":"Is the node for campervan parking correctly tagged?","maxstay":"48 hours","name":"Camperplaats Koningin Emmaboulevard","orientation":"diagonal","power_supply":"no","sanitary_dump_station":"no","seasonal":"no","water_point":"no"}},"1311578771":{"location":[51.9330705,4.0799528],"ct":"NL","tp":"CS","ts":"2024-09-02T20:20:13Z","tX":523,"tY":338,"tags":{"access":"customers","caravans":"no","fee":"yes","name":"Beachhotel & Lodges Oostvoorne","openfire":"yes","smoking":"no","static_caravans":"no","tents":"no","website":"https://www.beachhoteloostvoorne.nl"}},"1351433155":{"location":[51.9895373,4.1198636],"ct":"NL","tp":"CR","ts":"2025-01-15T00:23:43Z","tX":523,"tY":338,"tags":{"capacity":"12","caravan_site":"motorhome_stopover","caravan_site:type":"beach","fee":"no","lit":"yes","maxstay":"48 hours","name":"Camperplaats Strandboulevard Hoek van Holland","power_supply":"no","sanitary_dump_station":"no","surface":"paving_stones","water_point":"yes"}},"6789127187":{"location":[51.9229162,4.1620171],"ct":"NL","tp":"CS","ts":"2023-05-28T09:00:34Z","tX":523,"tY":338,"tags":{"contact:phone":"+31 6 57609162","name":"Schreiershaven","website":"https://www.schreiershaven.nl"}},"10079295317":{"location":[51.9895722,4.119814],"ct":"NL","tp":"CR","ts":"2022-10-06T07:15:47Z","tX":523,"tY":338,"tags":{"addr:street":"Rechtestraat"}},"11033924705":{"location":[51.9895241,4.1198377],"ct":"NL","tp":"CR","ts":"2023-07-08T09:33:05Z","tX":523,"tY":338,"tags":{"name":"Camperplaats Hoek van Holland"}},"4991280106":{"location":[51.8826728,4.0533966],"ct":"NL","tp":"SD","ts":"2017-07-24T21:55:17Z","tX":523,"tY":338,"tags":{}}}