{"6334416":{"location":[51.7037322,4.1371729],"ct":"NL","tp":"CS","ts":"2025-01-20T19:11:02Z","tX":523,"tY":339,"tags":{"addr:city":"Nieuwe-Tonge","addr:housenumber":"1","addr:postcode":"3244LK","addr:street":"Havenweg","name":"De Grevelingen","phone":"+31 187 651 259","static_caravans":"yes","website":"https://degrevelingen.nl/"}},"15559748":{"location":[51.726889,3.9483818],"ct":"NL","tp":"CS","ts":"2023-05-30T12:27:07Z","tX":523,"tY":339,"tags":{"caravans":"yes","email":"info@dezonnehoeve.nl","mobile":"+31 6 13953672","name":"De Zonnehoeve","phone":"+31 111 691 270","shower":"yes","tents":"yes","toilets":"yes","website":"https://www.dezonnehoeve.nl/"}},"15697968":{"location":[51.6902209,3.8799586],"ct":"NL","tp":"CS","ts":"2023-04-08T16:52:15Z","tX":523,"tY":339,"tags":{"cabins":"yes","capacity:pitches":"25","caravans":"yes","email":"info@tellershoeve.nl","internet_access":"wlan","internet_access:fee":"no","motorhome":"yes","name":"TellersHoeve","opening_hours":"Apr 1-Oct 22","phone":"+31 6 24723280","shower":"yes","tents":"yes","toilets":"yes","website":"https://www.tellershoeve.nl/"}},"17640456":{"location":[51.7607498,4.1003453],"ct":"NL","tp":"CS","ts":"2025-01-20T17:28:23Z","tX":523,"tY":339,"tags":{"cabins":"yes","contact:mobile":"+31 6 50491290","email":"info@oranjehof.nl","landuse":"orchard","name":"Oranjehof","phone":"+31 187 601 977","place":"farm","shower":"yes","static_caravans":"only","tents":"no","toilets":"yes","website":"https://www.oranjehof.nl/"}},"17919899":{"location":[51.6340474,3.9222723],"ct":"NL","tp":"CS","ts":"2024-08-08T16:19:10Z","tX":523,"tY":339,"tags":{"landuse":"grass","name":"De Val","source":"3dShapes"}},"18313942":{"location":[51.6729943,4.0321085],"ct":"NL","tp":"CS","ts":"2024-11-21T22:27:15Z","tX":523,"tY":339,"tags":{"addr:city":"Sirjansland","addr:housenumber":"4","addr:postcode":"4308AB","addr:street":"Zandweg","caravans":"yes","fee":"yes","internet_access":"yes","motorhome":"yes","name":"Camping 't Hoge Zand","phone":"+31 111 641989","shower":"yes","tents":"yes","toilets":"yes","website":"https://campinghogezand.nl/"}},"58401506":{"location":[51.799299,3.9030688],"ct":"NL","tp":"CR","ts":"2022-04-11T11:33:41Z","tX":523,"tY":339,"tags":{"addr:city":"Ouddorp","addr:housenumber":"82-A","addr:postcode":"3253LP","addr:street":"Oudelandseweg","fee":"yes","name":"Westduin","website":"http://www.campingwestduin.nl/"}},"58601507":{"location":[51.7960094,3.8919409],"ct":"NL","tp":"CS","ts":"2024-03-14T18:10:11Z","tX":523,"tY":339,"tags":{"name":"Camping Zuidhoek","website":"https://www.campingzuidhoek.nl"}},"58737302":{"location":[51.8181058,3.8979525],"ct":"NL","tp":"CS","ts":"2022-07-05T09:31:24Z","tX":523,"tY":339,"tags":{"dog":"yes","name":"Klepperstee"}},"60208231":{"location":[51.8158212,3.9012607],"ct":"NL","tp":"CS","ts":"2024-08-12T09:52:28Z","tX":523,"tY":339,"tags":{"addr:city":"Ouddorp","addr:housenumber":"1","addr:postcode":"3253LS","addr:street":"Vrijheidsweg","name":"Klepperstee","phone":"+31 187 681 511","source":"BAG","source:date":"2019-07-30","website":"https://www.klepperstee.com"}},"60223761":{"location":[51.8224441,3.9136015],"ct":"NL","tp":"CS","ts":"2024-07-05T10:11:08Z","tX":523,"tY":339,"tags":{"name":"Toppershoedje"}},"118955732":{"location":[51.6496075,3.940666],"ct":"NL","tp":"CS","ts":"2023-12-01T13:50:57Z","tX":523,"tY":339,"tags":{"caravans":"yes","drinking_water":"yes","name":"Camping Zierikzee","power_supply":"yes","shower":"yes","tents":"yes","toilets":"yes"}},"122289520":{"location":[51.6268674,3.9841422],"ct":"NL","tp":"CS","ts":"2012-08-26T08:08:14Z","tX":523,"tY":339,"tags":{"name":"Diving Duuveland"}},"141703316":{"location":[51.6967355,3.8790255],"ct":"NL","tp":"CS","ts":"2023-04-02T16:13:34Z","tX":523,"tY":339,"tags":{"caravans":"yes","email":"reservering@dehoogemeet.nl","landcover":"grass","landuse":"grass","name":"De Hooge Meet","phone":"+31 111 463 538","shower":"yes","tents":"yes","toilets":"yes","website":"https://dehoogemeet-camping.nl/"}},"141703443":{"location":[51.7053481,3.8886619],"ct":"NL","tp":"CS","ts":"2023-05-30T12:26:49Z","tX":523,"tY":339,"tags":{"cabins":"yes","capacity":"25","caravans":"yes","email":"info@minicampingdestrohalm.nl","landcover":"grass","name":"De Strohalm","phone":"+36 1 263 5103","shower":"yes","static_caravans":"yes","tents":"yes","toilets":"yes","website":"https://minicampingdestrohalm.nl/"}},"141703445":{"location":[51.7107218,3.8894399],"ct":"NL","tp":"CS","ts":"2023-05-30T12:26:50Z","tX":523,"tY":339,"tags":{"caravans":"yes","email":"info@minicampingdezonnehoek.nl","landcover":"grass","mobile":"+31 6 53788976","motorhome":"yes","name":"De Zonnehoek","phone":"+31 111 691 573","shower":"yes","tents":"yes","toilets":"yes","website":"http://www.minicampingdezonnehoek.nl/nl/"}},"141703497":{"location":[51.7192882,3.8757618],"ct":"NL","tp":"CS","ts":"2020-03-23T09:13:31Z","tX":523,"tY":339,"tags":{"landuse":"grass","name":"Het Brieden","source":"3dShapes"}},"141703654":{"location":[51.7018851,3.9139123],"ct":"NL","tp":"CS","ts":"2023-05-30T12:26:50Z","tX":523,"tY":339,"tags":{"caravans":"yes","email":"a.a.velde@zonnet.nl","landcover":"grass","mobile":"+31 6 46471790","name":"Ruimzicht","phone":"+31 111 691 286","shower":"yes","tents":"yes","toilets":"yes","website":"https://minicampingruimzicht.nl/mini-camping-ruimzicht"}},"141703920":{"location":[51.7116991,3.9414625],"ct":"NL","tp":"CR","ts":"2023-12-02T13:14:41Z","tX":523,"tY":339,"tags":{"cabins":"yes","email":"info@zeelanderij.nl","name":"Zeelanderij","phone":"+31 111 401 424","static_caravans":"yes","tents":"no","website":"http://zeelanderij.nl/"}},"141703951":{"location":[51.7337313,3.876036],"ct":"NL","tp":"CS","ts":"2024-10-02T13:35:19Z","tX":523,"tY":339,"tags":{"fee":"yes","landuse":"farmland","name":"Landschapscamping Claeskinderen","source":"3dShapes","website":"https://claeskinderen.nl/nl/index.htm"}},"141706027":{"location":[51.735619,3.88378],"ct":"NL","tp":"CS","ts":"2023-05-30T12:26:50Z","tX":523,"tY":339,"tags":{"cabins":"yes","capacity":"20","caravans":"yes","mobile":"+31 6 10853289","name":"d’Ouwe Weie","phone":"+31 111 691 723","shower":"yes","tents":"yes","toilets":"yes","website":"http://camping-douweweie.nl/"}},"141706339":{"location":[51.6995957,3.9416049],"ct":"NL","tp":"CS","ts":"2023-06-13T05:58:42Z","tX":523,"tY":339,"tags":{"caravans":"yes","mobile":"+31 6 22063464","name":"De Zeeuwse Vlag","phone":"+31 111 402 102","shower":"yes","tents":"yes","toilets":"yes","website":"https://www.dezeeuwsevlag.nl/"}},"141744507":{"location":[51.7119265,3.9534214],"ct":"NL","tp":"CS","ts":"2024-10-08T13:04:19Z","tX":523,"tY":339,"tags":{"caravans":"yes","contact:email":"campingzonnemaire@outlook.com","contact:mobile":"+31 6 53348697","contact:website":"https://www.campingzonnemaire.nl","landcover":"grass","name":"Zonnemaire","shower":"yes","tents":"yes","toilets":"yes"}},"141763556":{"location":[51.6822937,3.8919214],"ct":"NL","tp":"CS","ts":"2023-05-30T12:26:50Z","tX":523,"tY":339,"tags":{"cabins":"yes","capacity":"15","caravans":"yes","email":"info@campingzeesterzeeland.nl","landcover":"grass","mobile":"+31 6 10573004","name":"inicamping De Zeester","phone":"+31 111 416 587","shower":"yes","tents":"yes","toilets":"yes","website":"https://www.campingzeesterzeeland.nl/#Camping"}},"141764185":{"location":[51.6761524,3.8727156],"ct":"NL","tp":"CS","ts":"2020-11-07T18:50:49Z","tX":523,"tY":339,"tags":{"landcover":"grass","landuse":"grass","name":"D'Oute Poppe","source":"3dShapes","website":"https://www.doutepoppe.nl/nl/camping"}},"141764247":{"location":[51.6859747,3.8878989],"ct":"NL","tp":"CS","ts":"2025-01-20T17:05:44Z","tX":523,"tY":339,"tags":{"addr:city":"Kerkwerve","addr:housenumber":"30","addr:postcode":"4321TD","addr:street":"Verseputseweg","cabins":"yes","capacity":"4","caravans":"yes","charge":"15 EUR","email":"info@campingdehoogte.nl","fee":"yes","landcover":"grass","mobile":"+31 6 11495671","name":"Camping de Hoogte","phone":"+31 111 412 496","shower":"yes","static_caravans":"yes","tents":"yes","toilets":"yes","website":"https://www.campingdehoogte.nl/camping"}},"141764270":{"location":[51.6799273,3.897012],"ct":"NL","tp":"CS","ts":"2023-05-30T12:26:50Z","tX":523,"tY":339,"tags":{"capacity":"21","caravans":"yes","email":"info@appelgaerd.nl","landcover":"grass","name":"Appelgaerd","phone":"+31 6 14449924","shower":"yes","tents":"yes","toilets":"yes","website":"https://appelgaerd.nl/home/mini-camping"}},"141764279":{"location":[51.6842136,3.9008944],"ct":"NL","tp":"CS","ts":"2023-03-16T17:43:17Z","tX":523,"tY":339,"tags":{"cabins":"yes","caravans":"yes","email":"info@campingtwekken.nl","landcover":"grass","name":"‘t Wekken","phone":"+31 111 416 703","shower":"yes","static_caravans":"yes","tents":"yes","toilets":"yes","website":"https://www.campingtwekken.nl/"}},"141764615":{"location":[51.6854237,3.9064863],"ct":"NL","tp":"CS","ts":"2024-10-19T15:32:25Z","tX":523,"tY":339,"tags":{"cabins":"yes","capacity":"20","caravans":"yes","contact:email":"campingdeheuvel@gmail.com","contact:mobile":"+31 6 27841807","contact:website":"https://www.deheuvel.org/","landcover":"grass","name":"De Heuvel","shower":"yes","tents":"yes","toilets":"yes"}},"141774714":{"location":[51.6468203,3.9451268],"ct":"NL","tp":"CS","ts":"2024-10-21T14:04:34Z","tX":523,"tY":339,"tags":{"caravans":"yes","contact:email":"info@camping-gouweveer.nl","contact:mobile":"+31 6 51181561;+31 6 51103317","contact:website":"https://www.camping-gouweveer.nl","landuse":"grass","name":"Gouweveer","shower":"yes","tents":"yes","toilets":"yes"}},"141777717":{"location":[51.6697532,4.0156981],"ct":"NL","tp":"CS","ts":"2024-10-23T09:16:22Z","tX":523,"tY":339,"tags":{"addr:city":"Nieuwerkerk","addr:housenumber":"2","addr:postcode":"4306NL","addr:street":"Krabbenhoekseweg","cabins":"yes","caravans":"yes","contact:email":"info@boerenrustcamping.nl","contact:mobile":"+31 6 15148524;+31 6 53442746","contact:website":"https://www.boerenrustcamping.nl/","landuse":"grass","name":"Camping de Kermisrose","shower":"yes","toilets":"yes"}},"141778909":{"location":[51.6832448,3.982189],"ct":"NL","tp":"CS","ts":"2020-11-07T18:50:50Z","tX":523,"tY":339,"tags":{"landcover":"grass","landuse":"grass","name":"Boerderijcamping de Kleine Schorre","website":"https://www.dekleineschorre.nl/"}},"141818151":{"location":[51.6530573,4.0645134],"ct":"NL","tp":"CS","ts":"2023-05-30T12:26:50Z","tX":523,"tY":339,"tags":{"cabins":"yes","caravans":"yes","email":"info@dewelblok.nl","internet_access":"wlan","internet_access:fee":"no","landcover":"grass","mobile":"+31 6 17379414","motorhome":"yes","name":"De Welblok","phone":"+31 111 482 523","shower":"yes","static_caravans":"yes","tents":"yes","toilets":"yes","website":"http://www.dewelblok.nl/"}},"270513149":{"location":[51.710935,3.9574529],"ct":"NL","tp":"CS","ts":"2024-10-08T13:04:19Z","tX":523,"tY":339,"tags":{"addr:city":"Zonnemaire","addr:housenumber":"8","addr:postcode":"4316BC","addr:street":"Oostweg","contact:mobile":"+31 6 10236155","email":"goudveer@zeelandnet.nl","name":"Camping Akkerleven","operator":"B. & Y.","website":"https://www.campingakkerleven.nl"}},"288775865":{"location":[51.8179885,3.8848565],"ct":"NL","tp":"CS","ts":"2023-05-30T22:11:22Z","tX":523,"tY":339,"tags":{"backcountry":"no","caravans":"yes","name":"Camping Zonnewende","openfire":"yes","tents":"yes","website":"https://www.campingzonnewende.nl"}},"295215540":{"location":[51.7127615,3.8989109],"ct":"NL","tp":"CS","ts":"2024-10-02T13:35:19Z","tX":523,"tY":339,"tags":{"caravans":"yes","contact:phone":"+31 111 691 286","email":"a.a.velde@zonnet.nl","landcover":"grass","mobile":"+31 6 46471790","name":"Duivendijke","shower":"yes","tents":"yes","toilets":"yes","website":"https://minicampingruimzicht.nl/mini-camping-duivendijke"}},"299028085":{"location":[51.6814792,4.1989632],"ct":"NL","tp":"CS","ts":"2024-08-18T15:21:09Z","tX":523,"tY":339,"tags":{"contact:email":"informatie@dekrammer.nl","contact:facebook":"https://www.facebook.com/campingdekrammer","contact:mobile":"+31 6 12199277","contact:website":"https://www.dekrammer.nl/","name":"Camping De Krammer","operator":"Korteweg"}},"303538192":{"location":[51.6460103,3.9134966],"ct":"NL","tp":"CS","ts":"2023-05-30T12:26:57Z","tX":523,"tY":339,"tags":{"caravans":"yes","name":"Camping Kloet","phone":"+31 111 414 214","tents":"yes"}},"400305744":{"location":[51.7388135,3.8875494],"ct":"NL","tp":"CS","ts":"2023-05-30T12:26:58Z","tX":523,"tY":339,"tags":{"cabins":"yes","caravans":"yes","email":"info@campingdenosse.nl","name":"Den Osse","phone":"+31 111 691 513","shower":"yes","static_caravans":"yes","tents":"yes","toilets":"yes","website":"https://www.campingdenosse.nl"}},"430998241":{"location":[51.7006928,3.8847827],"ct":"NL","tp":"CS","ts":"2023-05-30T12:26:58Z","tX":523,"tY":339,"tags":{"cabins":"yes","capacity":"20","caravans":"yes","email":"info@hendrikahoeve.com","landcover":"grass","name":"de Zeester","phone":"+31 111 691 362","shower":"yes","tents":"yes","toilets":"yes","website":"https://www.hendrikahoeve.com"}},"444319421":{"location":[51.8174863,3.8975598],"ct":"NL","tp":"CR","ts":"2025-01-15T21:16:30Z","tX":523,"tY":339,"tags":{"addr:city":"Ouddorp","addr:street":"Klepperduindreef","capacity":"51","caravan_site":"motorhome_stopover","caravan_site:type":"camp_site","charge":"33 EUR","dog":"yes","fee":"yes","internet_access":"wlan","internet_access:fee":"no","name":"Drive-in Camperpark Ouddorp aan Zee","operator":"Klepperstee","power_supply":"yes","sanitary_dump_station":"yes","website":"https://www.driveincamperpark.com/"}},"513852631":{"location":[51.6913971,3.8882257],"ct":"NL","tp":"CS","ts":"2023-05-31T06:20:38Z","tX":523,"tY":339,"tags":{"caravans":"yes","drinking_water":"yes","name":"Slagershof","power_supply":"yes","reservation":"yes","sanitary_dump_station":"yes","shower":"yes","toilets":"yes","website":"https://www.campingslagershof.nl"}},"515565010":{"location":[51.790462,4.0323991],"ct":"NL","tp":"CS","ts":"2023-05-30T12:25:28Z","tX":523,"tY":339,"tags":{"caravans":"yes","email":"info@woutrinahoeve.nl","mobile":"+31 6 25373731","name":"Boerderijcamping Woutrinahoeve","phone":"+31 187 491 208","shower":"yes","tents":"yes","toilets":"yes","website":"https://www.woutrinahoeve.nl/camping/"}},"583924459":{"location":[51.8318521,4.1765212],"ct":"NL","tp":"CS","ts":"2021-06-15T21:47:02Z","tX":523,"tY":339,"tags":{"access":"private","caravans":"yes","name":"Camping Brongaard","nudism":"designated","phone":"+31 6 17228336","tents":"yes","website":"https://www.brongaard.nl"}},"765544789":{"location":[51.7313578,3.9477281],"ct":"NL","tp":"CS","ts":"2023-05-30T12:27:01Z","tX":523,"tY":339,"tags":{"email":"info@camping-kijkuit.nl","name":"Camping Kijkuit","phone":"+31 111 691 246"}},"778848162":{"location":[51.8302324,4.1154528],"ct":"NL","tp":"CS","ts":"2023-05-30T12:25:31Z","tX":523,"tY":339,"tags":{"caravans":"yes","contact:email":"info@weergors.nl","contact:phone":"+31 181 312 430","name":"Weergors","tents":"yes","website":"https://www.weergors.nl"}},"1051006529":{"location":[51.7924845,3.8738501],"ct":"NL","tp":"CS","ts":"2024-02-12T12:04:00Z","tX":523,"tY":339,"tags":{"caravans":"yes","email":"info@campingbrouwersdam.nl","name":"Brouwersdam","phone":"+31 6 82686905","shower":"yes","tents":"yes","toilets":"yes","website":"https://www.campingbrouwersdam.nl/"}},"1092981190":{"location":[51.6569291,3.9117222],"ct":"NL","tp":"CR","ts":"2025-01-20T17:04:39Z","tX":523,"tY":339,"tags":{"addr:city":"Zierikzee","addr:housenumber":"30","addr:street":"Zandweg","capacity:caravans":"12","caravan_site":"motorhome_stopover","caravan_site:type":"parking_lot","charge":"16.33 EUR","check_date:charge":"2024-10","check_in":"none","check_out":"no","contact:email":"Zandweg30@zeelandnet.nl","contact:mobile":"+31 6 53111740","contact:phone":"+31 111 415 326","contact:website":"https://camperplaatszierikzee.nl/#contact","fee":"yes","internet_access":"wlan","internet_access:fee":"no","name":"De Zandweg","payment:cash":"no","power_supply":"yes","power_supply:fee":"no","power_supply:maxcurrent":"10","reservation":"no","sanitary_dump_station":"yes","sanitary_dump_station:chemical_toilet":"yes","sanitary_dump_station:fee":"no","sanitary_dump_station:grey_water":"yes","surface":"asphalt","water_point":"yes","water_point:fee":"no"}},"1128256573":{"location":[51.8142174,4.1964986],"ct":"NL","tp":"CS","ts":"2023-05-30T22:11:17Z","tX":523,"tY":339,"tags":{"caravans":"yes","internet_access":"wlan","internet_access:fee":"no","name":"Camping Zonnehoeve","phone":"+31 181 461 790","shower":"yes","tents":"yes","toilets":"yes","website":"https://www.campingzonnehoeve.nl"}},"1150568573":{"location":[51.8083774,3.9026074],"ct":"NL","tp":"CR","ts":"2023-03-01T22:15:59Z","tX":523,"tY":339,"tags":{}},"1150568574":{"location":[51.8077884,3.9046125],"ct":"NL","tp":"CR","ts":"2023-06-13T05:57:47Z","tX":523,"tY":339,"tags":{"caravans":"no","email":"info@campingouwestee.nl","mobile":"+31 6 13035220","name":"Ouwe Stee Noord","phone":"+31 187 682 938","static_caravans":"yes","tents":"no"}},"1150568575":{"location":[51.8056153,3.9033189],"ct":"NL","tp":"CR","ts":"2024-03-14T18:10:11Z","tX":523,"tY":339,"tags":{"caravans":"yes","email":"info@kotestee.nl","name":"Kotestee","phone":"+31 187 681 678","shower":"yes","static_caravans":"yes","toilets":"yes","website":"https://www.kotestee.nl"}},"1150568577":{"location":[51.7103443,4.1305145],"ct":"NL","tp":"CR","ts":"2023-05-30T12:25:36Z","tX":523,"tY":339,"tags":{"cabins":"yes","mobile":"+31 6 57373987","name":"'t Anker","phone":"+31 187 651 567","shower":"yes","static_caravans":"yes","tents":"no","toilets":"yes","website":"https://www.vakantieopflakkee.nl"}},"1150568578":{"location":[51.6963538,4.1931252],"ct":"NL","tp":"CS","ts":"2023-06-13T05:57:47Z","tX":523,"tY":339,"tags":{"caravans":"yes","mobile":"+31 6 23408860","name":"Fase","phone":"+31 187 642 857","shower":"yes","tents":"yes","toilets":"yes","website":"https://www.campingfase.nl/"}},"1151075790":{"location":[51.7066598,3.9361449],"ct":"NL","tp":"CS","ts":"2023-05-30T12:27:03Z","tX":523,"tY":339,"tags":{"caravans":"yes","email":"info@minicampingdewijdeblik.nl","name":"Kristalmaire","old_name":"de Wijde Blik","phone":"+31 6 13614199","shower":"yes","tents":"yes","toilets":"yes","website":"https://minicampingdewijdeblik.nl/"}},"1151075800":{"location":[51.6396073,3.9842471],"ct":"NL","tp":"CS","ts":"2023-05-30T12:27:03Z","tX":523,"tY":339,"tags":{"capacity":"25","caravans":"yes","name":"de Vrijbuiter","phone":"+31 111 745 257","shower":"yes","tents":"yes","toilets":"yes","website":"https://www.campingdevrijbuiter.nl/"}},"1151283508":{"location":[51.7150929,3.8888355],"ct":"NL","tp":"CS","ts":"2024-10-02T13:35:19Z","tX":523,"tY":339,"tags":{"cabins":"yes","caravans":"yes","contact:phone":"+31 111 408 473","contact:website":"https://campinglaferme.nl/","name":"La Ferme","shower":"yes","tents":"yes","toilets":"yes"}},"1151332163":{"location":[51.7260539,3.9365699],"ct":"NL","tp":"CS","ts":"2024-10-13T04:45:00Z","tX":523,"tY":339,"tags":{"cabins":"yes","caravans":"yes","email":"info@oudbommenede.nl","name":"Oud Bommenede","phone":"+31 6 20354744","shower":"yes","tents":"yes","toilets":"yes","website":"https://campingoudbommenede.nl/#camping"}},"1151341958":{"location":[51.7308555,3.909065],"ct":"NL","tp":"CS","ts":"2023-05-30T12:27:04Z","tX":523,"tY":339,"tags":{"cabins":"yes","caravans":"yes","email":"Info@campingnoordernieuwland.nl","name":"Noordernieuwland","phone":"+31 111 691 223","shower":"yes","tents":"yes","toilets":"yes","website":"https://www.campingnoordernieuwland.nl/"}},"1151344023":{"location":[51.7309654,3.890025],"ct":"NL","tp":"CS","ts":"2023-05-30T12:27:04Z","tX":523,"tY":339,"tags":{"cabins":"yes","caravans":"yes","email":"info@buitenplaatsdeoorsprong.nl","name":"Buitenplaats De Oorsprong","old_name":"Minicamping Geluk","phone":"+31 111 202 054","shower":"yes","tents":"yes","toilets":"yes","website":"https://www.buitenplaatsdeoorsprong.nl"}},"1152783116":{"location":[51.7622755,4.070191],"ct":"NL","tp":"CS","ts":"2023-05-30T12:25:36Z","tX":523,"tY":339,"tags":{"caravans":"yes","email":"info@campingelizabethhoeve.nl","mobile":"+31 6 22553201","name":"Elizabethhoeve","phone":"+31 187 601 548","shower":"yes","tents":"yes","toilets":"yes","website":"https://www.campingelizabethhoeve.nl/decamping/"}},"1155652107":{"location":[51.71453,3.8827108],"ct":"NL","tp":"CS","ts":"2023-06-13T05:58:42Z","tX":523,"tY":339,"tags":{"caravans":"yes","email":"info@campinghogeheul.nl","landcover":"grass","mobile":"+31 6 27380339","name":"Hoge Heul","phone":"+31 111 691 274","shower":"yes","tents":"yes","toilets":"yes","website":"http://www.campinghogeheul.nl/"}},"1163022655":{"location":[51.6237344,3.9872479],"ct":"NL","tp":"CS","ts":"2025-01-20T17:01:06Z","tX":523,"tY":339,"tags":{"cabins":"forest","caravans":"yes","email":"info@dekreekoever.nl","fee":"yes","name":"De Kreekoever","phone":"+31 111 641 454","shower":"yes","static_caravans":"yes","tents":"yes","toilets":"yes","website":"https://www.dekreekoever.nl"}},"1193075800":{"location":[51.6897448,3.8994994],"ct":"NL","tp":"CS","ts":"2023-07-29T07:30:42Z","tX":523,"tY":339,"tags":{"addr:city":"Kerkwerve","addr:housenumber":"3","addr:postcode":"4321AH","addr:street":"Weelweg","caravans":"yes","drinking_water":"yes","email":"info@recreatievanlangeraad.nl","name":"Minicamping ’t Rond’oekje","phone":"+31 6 21624026","power_supply":"yes","shower":"yes","tents":"yes","toilets":"yes","website":"https://www.recreatievanlangeraad.nl/minicamping"}},"1193369614":{"location":[51.6590483,3.913098],"ct":"NL","tp":"CS","ts":"2024-10-17T13:42:50Z","tX":523,"tY":339,"tags":{"capacity:pitches":"24","caravans":"yes","contact:email":"info@campingtuulof.nl","contact:mobile":"+31 6 40015628;+31 6 14479547","contact:website":"https://campingtuulof.nl","name":"’t Uulof","shower":"yes","tents":"yes","toilets":"yes","wifi":"free"}},"1196892017":{"location":[51.7968433,3.8908297],"ct":"NL","tp":"CS","ts":"2023-08-10T19:56:57Z","tX":523,"tY":339,"tags":{"caravans":"yes","email":"mts.dejong@outlook.com","mobile":"+31 6 51400487","name":"Cornelia Hoeve","opening_hours":"Apr 1 - Nov 1","phone":"+31 187 683 097","shower":"yes","tents":"yes","toilets":"yes","website":"https://www.maatschap-dejong.nl/minicamping-corneliahoeve/"}},"1204158936":{"location":[51.8180664,3.9143444],"ct":"NL","tp":"CS","ts":"2025-02-19T18:12:19Z","tX":523,"tY":339,"tags":{"name":"Prinsenhof"}},"1258204235":{"location":[51.6249476,3.9629262],"ct":"NL","tp":"CS","ts":"2024-11-28T22:22:39Z","tX":523,"tY":339,"tags":{"caravans":"yes","email":"info@stelle.nl","name":"de Stelle","phone":"+31 6 51012219","shower":"yes","toilets":"yes","website":"https://stelle.nl/kampeerboerderij/kampeerplaats/"}},"1262322631":{"location":[51.6226843,3.9847423],"ct":"NL","tp":"CR","ts":"2024-06-22T23:55:39Z","tX":523,"tY":339,"tags":{"fee":"yes","name":"'t Sluitgat","website":"https://www.sluitgat.nl/"}},"1270664773":{"location":[51.7989876,4.0319561],"ct":"NL","tp":"CS","ts":"2024-04-07T16:44:04Z","tX":523,"tY":339,"tags":{"name":"Landschapscamping De Vlugtheuvel","website":"https://www.vlugtheuvel.nl"}},"1301712968":{"location":[51.774479,4.1546621],"ct":"NL","tp":"CS","ts":"2024-07-16T09:55:07Z","tX":523,"tY":339,"tags":{"name":"FarmCamps Op Flakkee","operator":"FarmCamps","reservation":"required","website":"https://farmcamps.com/nl/logeren-bij-de-boer/op-flakkee/"}},"1320094580":{"location":[51.7343071,3.8762279],"ct":"NL","tp":"CS","ts":"2025-01-20T17:07:30Z","tX":523,"tY":339,"tags":{"fee":"yes","name":"Landschapscamping Claeskinderen","static_caravans":"yes","website":"https://claeskinderen.nl/nl/index.htm"}},"1332168442":{"location":[51.6696291,3.8840995],"ct":"NL","tp":"CS","ts":"2024-11-09T11:01:43Z","tX":523,"tY":339,"tags":{"addr:city":"Kerkwerve","addr:housenumber":"5","addr:postcode":"4321TB","addr:street":"Brasweg","name":"De Brashoeve","phone":"+31 6 38284020","website":"http://wordpress.de-brashoeve.nl/"}},"1332721128":{"location":[51.6786236,3.8778748],"ct":"NL","tp":"CS","ts":"2024-11-10T23:12:36Z","tX":523,"tY":339,"tags":{"addr:city":"Kerkwerve","addr:housenumber":"9","addr:postcode":"4321TC","addr:street":"Verseputseweg","name":"Minicamping de Vospit","phone":"+31 111 412727"}},"1336650551":{"location":[51.6270605,3.9841315],"ct":"NL","tp":"CS","ts":"2024-11-21T22:44:12Z","tX":523,"tY":339,"tags":{"name":"Diving Duuveland"}},"1336655887":{"location":[51.6227206,3.9828427],"ct":"NL","tp":"CS","ts":"2024-11-21T23:11:57Z","tX":523,"tY":339,"tags":{"cabins":"yes","fee":"yes","name":"'t Sluitgat","phone":"+ 31 111 641599","website":"https://www.sluitgat.nl/"}},"1338736689":{"location":[51.6475023,3.9098267],"ct":"NL","tp":"CS","ts":"2024-11-28T22:33:30Z","tX":523,"tY":339,"tags":{"caravans":"yes","drinking_water":"yes","name":"De Toren","phone":"+31 111 41 23 08","power_supply":"yes","shower":"yes","tents":"yes","toilets":"yes","website":"https://www.campingdetoren.nl"}},"1351034947":{"location":[51.659476,4.1634331],"ct":"NL","tp":"CR","ts":"2025-01-16T17:11:35Z","tX":523,"tY":339,"tags":{"capacity":"4","caravan_site":"motorhome_stopover","caravan_site:type":"lock","fee":"no","name":"Camperplaats Krammersluizen, Bruinisse","picnic_table":"yes","power_supply":"no","sanitary_dump_station":"no","surface":"compacted","water_point":"no"}},"1353046785":{"location":[51.762617,4.1708875],"ct":"NL","tp":"CR","ts":"2025-01-21T01:47:41Z","tX":523,"tY":339,"tags":{"addr:street":"Oosthavendijk","capacity":"12","caravan_site":"motorhome_stopover","caravan_site:type":"harbour","internet_access":"wlan","internet_access:fee":"customers","name":"Jachthaven Middelharnis","power_supply":"yes","sanitary_dump_station":"yes","toilets":"yes","water_point":"yes","website":"https://www.goeree-overflakkee.nl/jachthavenmiddelharnis"}},"1353136819":{"location":[51.8003204,4.0327129],"ct":"NL","tp":"CR","ts":"2025-01-21T12:02:24Z","tX":523,"tY":339,"tags":{"capacity":"12","caravan_site":"motorhome_stopover","caravan_site:type":"camp_site","charge":"19 EUR","charge:conditional":"16.50 EUR@(\"low_season\")","fee":"yes","name":"De Vlugtheuvel Camperplein","power_supply":"yes","power_supply:maxcurrent":"16","reservation":"no","sanitary_dump_station":"yes","shower":"yes","static_caravans":"yes","toilets":"yes"}},"1940471446":{"location":[51.7089375,4.1283912],"ct":"NL","tp":"CS","ts":"2023-03-01T22:15:59Z","tX":523,"tY":339,"tags":{"name":"De Toverhazelaar"}},"2172139692":{"location":[51.8003585,4.0328008],"ct":"NL","tp":"CR","ts":"2013-02-24T19:55:24Z","tX":523,"tY":339,"tags":{"name":"De Vlugtheuvel"}},"2275786998":{"location":[51.7048874,4.1354457],"ct":"NL","tp":"CS","ts":"2022-06-06T15:00:58Z","tX":523,"tY":339,"tags":{"addr:city":"Nieuwe-Tonge","addr:housenumber":"1","addr:postcode":"3244LK","addr:street":"Havenweg","name":"De Grevelingen","phone":"+31 187 651 259","website":"https://degrevelingen.nl/"}},"2275789455":{"location":[51.7028723,4.1374679],"ct":"NL","tp":"CR","ts":"2017-04-18T17:59:42Z","tX":523,"tY":339,"tags":{"name":"De Grevelingen"}},"2754493906":{"location":[51.8176709,3.9441429],"ct":"NL","tp":"CS","ts":"2023-08-13T10:27:03Z","tX":523,"tY":339,"tags":{"access":"private","addr:city":"Ouddorp","addr:housenumber":"1","addr:street":"Klinkerweg","description":"Dit kampeerterrein is alleen toegankelijk voor leden van de NTKC","dog":"leashed","internet_access":"no","name":"NTKC Het Essenbos","operator":"Nederlandse Toeristen Kampeer Club","power_supply":"yes","source":"BAG","source:date":"2014-03-24","website":"https://www.kampeerclub.nl/terrein/kampeerterrein-het-essenbos"}},"2895887254":{"location":[51.6787669,3.8775165],"ct":"NL","tp":"CS","ts":"2019-08-05T12:44:40Z","tX":523,"tY":339,"tags":{"addr:city":"Kerkwerve","addr:housenumber":"9","addr:postcode":"4321TC","addr:street":"Verseputseweg","name":"Minicamping de Vospit","name:nl":"Minicamping de Vospit","source":"BAG","source:date":"2014-06-02"}},"3739344597":{"location":[51.6475482,3.9098324],"ct":"NL","tp":"CS","ts":"2023-07-20T20:49:13Z","tX":523,"tY":339,"tags":{"caravans":"yes","drinking_water":"yes","name":"De Toren","power_supply":"yes","shower":"yes","tents":"yes","toilets":"yes"}},"5846938785":{"location":[51.7165932,3.9759612],"ct":"NL","tp":"CS","ts":"2020-06-22T17:07:44Z","tX":523,"tY":339,"tags":{"addr:city":"Zonnemaire","addr:housenumber":"2","addr:street":"Zonnemairsedijk","name":"Veerhoek","website":"https://www.campingveerhoek.nl/"}},"6565871346":{"location":[51.6728479,4.0317571],"ct":"NL","tp":"CS","ts":"2019-06-23T11:28:11Z","tX":523,"tY":339,"tags":{"name":"Camping 't Hoge Zand","website":"https://campinghogezand.nl/"}},"8826300118":{"location":[51.6698115,3.8833781],"ct":"NL","tp":"CS","ts":"2023-08-03T07:01:12Z","tX":523,"tY":339,"tags":{"name":"De Brashoeve","website":"http://wordpress.de-brashoeve.nl/"}},"10707911849":{"location":[51.6242079,3.9637719],"ct":"NL","tp":"CS","ts":"2023-03-14T09:13:09Z","tX":523,"tY":339,"tags":{"caravans":"yes","email":"info@stelle.nl","name":"de Stelle","phone":"+31 6 51012219","shower":"yes","toilets":"yes","website":"https://stelle.nl/kampeerboerderij/kampeerplaats/"}},"7873827185":{"location":[51.7623167,4.1703311],"ct":"NL","tp":"CR","ts":"2021-03-07T13:02:09Z","tX":523,"tY":339,"tags":{"addr:street":"Oosthavendijk","capacity":"12","internet_access":"wlan","internet_access:fee":"customers","name":"Jachthaven Middelharnis","power_supply":"yes","sanitary_dump_station":"yes"}},"10725637636":{"location":[51.7621911,4.1013616],"ct":"NL","tp":"CR","ts":"2024-05-26T21:31:23Z","tX":523,"tY":339,"tags":{"cabins":"yes","contact:mobile":"+31 6 50491290","email":"info@oranjehof.nl","landuse":"orchard","name":"Oranjehof","phone":"+31 187 601 977","place":"farm","shower":"yes","static_caravans":"yes","tents":"no","toilets":"yes","website":"https://www.oranjehof.nl/"}},"6037480315":{"location":[51.817948,3.8982274],"ct":"NL","tp":"SD","ts":"2022-09-08T19:57:17Z","tX":523,"tY":339,"tags":{"access":"permit","fee":"no","water_point":"yes"}},"10009881176":{"location":[51.6567918,3.9119878],"ct":"NL","tp":"SD","ts":"2022-09-08T20:25:58Z","tX":523,"tY":339,"tags":{"fee":"no","water_point":"yes"}},"12455656301":{"location":[51.6595379,4.163436],"ct":"NL","tp":"CR","ts":"2024-12-27T10:41:10Z","tX":523,"tY":339,"tags":{}},"12507237973":{"location":[51.8200072,4.1301298],"ct":"NL","tp":"CR","ts":"2025-01-16T16:00:13Z","tX":523,"tY":339,"tags":{"capacity":"2","caravan_site":"motorhome_stopover","caravan_site:type":"harbour","charge":"15 EUR","fee":"yes","maxstay":"1 night","name":"Camperplaats Zuidfront Hellevoetsluis","power_supply":"no","sanitary_dump_station":"no","seasonal":"no","surface":"paving_stones","water_point":"no","website":"https://www.weergors.nl/en/campervan"}}}