{"1412255":{"location":[51.5334587,4.0794688],"ct":"NL","tp":"CS","ts":"2025-01-13T17:04:06Z","tX":523,"tY":340,"tags":{"caravans":"yes","name":"Gorishoek","phone":"+31 166 662 457","static_caravans":"yes","tents":"yes","website":"https://gorishoeksehoeve.nl/verblijven/#kamperen"}},"5633152":{"location":[51.5391285,4.1348902],"ct":"NL","tp":"CS","ts":"2025-01-18T14:48:44Z","tX":523,"tY":340,"tags":{"name":"Landschapscamping Kruytenburg","website":"https://www.kruytenburg.nl"}},"5634028":{"location":[51.535363,4.0763983],"ct":"NL","tp":"CR","ts":"2023-08-13T16:17:04Z","tX":523,"tY":340,"tags":{"surface":"grass"}},"13003764":{"location":[51.5240636,4.1597158],"ct":"NL","tp":"CR","ts":"2023-05-31T06:20:45Z","tX":523,"tY":340,"tags":{"access":"private","addr:housenumber":"2","addr:postcode":"4693PE","addr:street":"van der Slikkeweg","alt_name":"Camping De Striene; Recreatieoord De Striene","cabins":"yes","caravans":"yes","contact:facebook":"https://www.facebook.com/campingdestriene","email":"info@vakantieparkdestriene.nl","internet_access":"wlan","name":"Vakantiepark De Striene","permanent_camping":"yes","phone":"+31 166 600 281","power_supply":"yes","static_caravans":"yes","website":"https://www.vakantieparkdestriene.nl"}},"15582933":{"location":[51.5169274,4.009983],"ct":"NL","tp":"CS","ts":"2024-09-21T15:56:22Z","tX":523,"tY":340,"tags":{"cabins":"yes","caravans":"yes","contact:phone":"+31 113 621 259","email":"info@campinglinda.nl","name":"Linda","static_caravans":"yes","tents":"yes","website":"https://www.campinglinda.nl"}},"26859213":{"location":[51.434722,4.045556],"ct":"NL","tp":"CS","ts":"2022-07-10T05:08:12Z","tX":523,"tY":340,"tags":{"contact:website":"https://www.deninkel.nl","name":"Den Inkel"}},"61496834":{"location":[51.5808477,3.9857092],"ct":"NL","tp":"CS","ts":"2025-01-20T00:36:27Z","tX":523,"tY":340,"tags":{"fee":"yes","name":"Camping Stavenisse","static_caravans":"yes","website":"https://www.campingstavenisse.nl/"}},"61496842":{"location":[51.5812638,3.9874283],"ct":"NL","tp":"CS","ts":"2024-06-22T14:09:50Z","tX":523,"tY":340,"tags":{"name":"Camping Stavenisse","website":"https://www.campingstavenisse.nl/"}},"74068839":{"location":[51.4020338,3.9985215],"ct":"NL","tp":"CS","ts":"2023-05-31T06:20:26Z","tX":523,"tY":340,"tags":{"landuse":"grass","name":"Camping Perkpolder","source":"3dShapes","website":"https://www.campingperkpolder.nl"}},"75603647":{"location":[51.4160449,4.1672103],"ct":"NL","tp":"CS","ts":"2021-08-12T14:18:41Z","tX":523,"tY":340,"tags":{"addr:city":"Rilland","addr:housenumber":"42","addr:postcode":"4411NC","addr:street":"Kapucijnenweg","fee":"yes","name":"Hof Maire","source":"3dShapes"}},"78019455":{"location":[51.5041773,3.9481004],"ct":"NL","tp":"CS","ts":"2023-05-30T12:26:46Z","tX":523,"tY":340,"tags":{"caravans":"yes","email":"info@zwartenburg.nl","landuse":"grass","name":"Zwartenburg","phone":"+31 6 51224980","shower":"yes","tents":"yes","toilets":"yes","website":"https://www.zwartenburg.nl/"}},"78023366":{"location":[51.5194128,3.9677884],"ct":"NL","tp":"CS","ts":"2023-05-30T12:26:46Z","tX":523,"tY":340,"tags":{"cabins":"yes","caravans":"yes","fee":"yes","landuse":"grass","mobile":"+31 6 51767606","name":"De Rusen","phone":"+31 113 622 289","shower":"yes","source":"3dShapes","static_caravans":"yes","tents":"yes","toilets":"yes","website":"http://www.camping-derusen.nl/"}},"78173953":{"location":[51.4264178,3.871722],"ct":"NL","tp":"CS","ts":"2023-07-17T11:55:52Z","tX":523,"tY":340,"tags":{"cabins":"yes","caravans":"yes","drinking_water":"yes","email":"camping@kwedammertje.nl","landcover":"grass","name":"'t Kwedammertje","phone":"+31 113 649 700","power_supply":"yes","shower":"yes","tents":"yes","toilets":"yes"}},"98473796":{"location":[51.6026911,4.0397144],"ct":"NL","tp":"CS","ts":"2025-01-20T00:33:57Z","tX":523,"tY":340,"tags":{"caravans":"yes","email":"info@campinghetoudedorp.nl","name":"Camping ‘t Oude Dorp","phone":"+31 166 692 421","shower":"yes","static_caravans":"yes","tents":"no","toilets":"yes","website":"https://campinghetoudedorp.nl/"}},"98480900":{"location":[51.5630319,4.0359685],"ct":"NL","tp":"CS","ts":"2024-09-28T13:25:34Z","tX":523,"tY":340,"tags":{"caravans":"yes","contact:email":"mol@klinkenoord.nl","contact:phone":"+31 166 692 423","contact:website":"http://klinkenoord.nl/","landcover":"grass","mobile":"+31 6 53752343","name":"Klinkenoord","shower":"yes","static_caravans":"yes","tents":"yes","toilets":"yes"}},"376135432":{"location":[51.3995567,3.9705612],"ct":"NL","tp":"CS","ts":"2016-10-10T11:46:32Z","tX":523,"tY":340,"tags":{"caravans":"yes","drinking_water":"yes","fee":"yes","name":"de Zeemeeuw","tents":"yes","website":"http://www.campingdezeemeeuw.com/index.html"}},"448650731":{"location":[51.4207995,3.9075491],"ct":"NL","tp":"CS","ts":"2017-01-20T22:28:05Z","tX":523,"tY":340,"tags":{"landuse":"grass","name":"De Ganzepoel","source":"Bing;survey","website":"http://www.ganzepoel.nl/"}},"451720510":{"location":[51.4449978,3.8837136],"ct":"NL","tp":"CS","ts":"2024-11-16T17:20:09Z","tX":523,"tY":340,"tags":{"cabins":"yes","caravans":"yes","contact:mobile":"+31 6 26029988","email":"info@campingzwaakseweel.nl","fee":"yes","image":"https://campingzwaakseweel.nl/wp-content/uploads/2015/12/Logo-Zwaakse-Weel.png","internet_access":"wlan","internet_access:fee":"no","name":"Camping Zwaakse Weel","note":"adres kan/mag maar één keer gebruikt worden","operator":"Camping Zwaakseweel","payment:coins":"yes","payment:notes":"yes","power_supply":"yes","sanitary_dump_station":"customers","shower":"yes","toilets":"yes","website":"https://www.campingzwaakseweel.nl"}},"465628438":{"location":[51.5291705,4.0735036],"ct":"NL","tp":"CS","ts":"2025-01-20T00:31:04Z","tX":523,"tY":340,"tags":{"addr:city":"Scherpenisse","addr:housenumber":"33A","addr:postcode":"4694PJ","addr:street":"Gorishoeksedijk","caravans":"yes","contact:phone":"+31 166 663 292","fee":"yes","name":"De Zeester","power_supply":"yes","static_caravans":"yes","tents":"yes","website":"https://www.campingdezeester.nl"}},"513740319":{"location":[51.6169444,3.9879169],"ct":"NL","tp":"CS","ts":"2022-07-09T17:03:06Z","tX":523,"tY":340,"tags":{"name":"Camping Vierbannen"}},"577172915":{"location":[51.4903346,4.0529829],"ct":"NL","tp":"CR","ts":"2025-01-20T16:57:27Z","tX":523,"tY":340,"tags":{"capacity":"12","caravan_site":"motorhome_stopover","caravan_site:type":"town","charge":"10 EUR","fee":"yes","internet_access":"no","name":"Zaetepolder","phone":"+31 686865446","power_supply":"no","sanitary_dump_station":"no","surface":"compacted","water_point":"no"}},"671080770":{"location":[51.469403,4.0440531],"ct":"NL","tp":"CR","ts":"2025-01-20T16:51:13Z","tX":523,"tY":340,"tags":{"bakery_service":"yes","capacity":"30","caravan_site":"motorhome_stopover","caravan_site:type":"farm_shop","charge":"18 EUR","dog":"leashed","dog:fee":"no","email":"info@deplantagefruit.nl","fee":"yes","internet_access":"wlan","internet_access:fee":"no","name":"De Plantage","phone":"+31 113 381627","power_supply":"yes","power_supply:charge":"3.50 EUR","power_supply:fee":"yes","power_supply:maxcurrent":"10","product":"cheese;vegetables;milk","reservation":"yes","sanitary_dump_station":"yes","sanitary_dump_station:chemical_toilet":"yes","sanitary_dump_station:grey_water":"yes","seasonal":"yes","shower":"yes","shower:fee":"no","toilets":"yes","toilets:fee":"no","website":"https://deplantagefruit.nl/camperplaats"}},"848487471":{"location":[51.5383879,4.0651327],"ct":"NL","tp":"CS","ts":"2025-01-20T00:28:35Z","tX":523,"tY":340,"tags":{"cabins":"yes","caravans":"yes","name":"De Muie","phone":"+31 166 700 206","shower":"yes","static_caravans":"yes","tents":"yes","toilets":"yes","website":"https://www.campingdemuie.nl"}},"1057879527":{"location":[51.5814816,4.2135822],"ct":"NL","tp":"CS","ts":"2022-05-06T12:14:15Z","tX":523,"tY":340,"tags":{"addr:city":"Nieuw-Vossemeer","addr:housenumber":"1a","addr:postcode":"4681RH","addr:street":"Veerweg","email":"info@campingmattenburg.nl","name":"Mattenburg","phone":"+31 6 51792812","website":"https://campingmattenburg.nl"}},"1150809042":{"location":[51.6002387,4.0343031],"ct":"NL","tp":"CS","ts":"2025-01-20T00:34:38Z","tX":523,"tY":340,"tags":{"access":"private","caravans":"no","name":"Camping Coöperatieve Vereniging “Irenehoeve” U.A.","shower":"yes","static_caravans":"yes","tents":"no","toilets":"yes","website":"https://www.coopirenehoeve.nl/"}},"1152856969":{"location":[51.4423934,4.024534],"ct":"NL","tp":"CS","ts":"2024-09-21T15:56:22Z","tX":523,"tY":340,"tags":{"cabins":"yes","capacity":"25","caravans":"yes","contact:email":"camping@lf13.nl","contact:facebook":"https://www.facebook.com/CampingSaviraa/","contact:instagram":"https://www.instagram.com/campinglf13/","contact:phone":"+31 113 226 678","contact:website":"https://lf13.nl/","name":"LF13","old_name":"Savira","power_supply":"yes","power_supply:maxcurrent":"10","power_supply:voltage":"230","shower":"yes","tents":"yes","toilets":"yes"}},"1152985329":{"location":[51.5123088,4.0020199],"ct":"NL","tp":"CS","ts":"2023-12-22T13:06:27Z","tX":523,"tY":340,"tags":{"caravans":"yes","email":"info@camperparkmolenzicht.nl","name":"Molenzicht","phone":"+31 6 28276872","shower":"yes","tents":"yes","toilets":"yes","website":"https://www.camperparkmolenzicht.nl/nl/camping"}},"1159198774":{"location":[51.4157929,4.0818655],"ct":"NL","tp":"CS","ts":"2024-10-06T08:18:57Z","tX":523,"tY":340,"tags":{"cabins":"yes","caravans":"yes","contact:email":"zeeuwsgenieten@outlook.com","contact:mobile":"+31 6 38259276","contact:website":"https://zeeuwsgenieten.com/","name":"Zeeuws Genieten","shower":"yes","tents":"yes","toilets":"yes"}},"1332490125":{"location":[51.4342527,4.0484954],"ct":"NL","tp":"CS","ts":"2024-11-09T21:11:36Z","tX":523,"tY":340,"tags":{"email":"info@deninkel.nl","name":"Den Inkel","phone":"+31 113 320030","website":"https://www.deninkel.nl"}},"1339689945":{"location":[51.4652571,3.8855472],"ct":"NL","tp":"CS","ts":"2024-12-02T22:30:23Z","tX":523,"tY":340,"tags":{"name":"De Veldherberg","opening_hours":"Mo-Sa 09:00-11:00, 15:00-18:00; Su 09:00-11:00","phone":"+31 6 43 41 26 26","website":"https://www.develdherberg.nl"}},"1756938385":{"location":[51.5096159,3.8975746],"ct":"NL","tp":"CS","ts":"2022-11-04T13:26:19Z","tX":523,"tY":340,"tags":{"caravans":"yes","contact:email":"kassa@omnium.nl","contact:phone":"+31 113 233 388","contact:website":"https://omnium.nl/camping/","name":"Stadscamping","tents":"yes","washing_machine":"yes"}},"2435744975":{"location":[51.4692482,4.0437117],"ct":"NL","tp":"CR","ts":"2020-11-07T16:45:48Z","tX":523,"tY":340,"tags":{"capacity":"5","fee":"yes","name":"De Plantage"}},"2813489146":{"location":[51.5857776,4.2150391],"ct":"NL","tp":"CS","ts":"2023-03-14T09:07:46Z","tX":523,"tY":340,"tags":{"addr:city":"Nieuw-Vossemeer","addr:housenumber":"4","addr:postcode":"4681SR","addr:street":"Kortendijk","dog":"yes","email":"llfjansen@home.nl","motorhome":"yes","name":"The Hive","phone":"+31 6 12803583","source":"BAG","source:date":"2014-03-24","tents":"yes","website":"https://www.campercontact.com/nl/nederland/noord-brabant/nieuw-vossemeer/101439/camperplaats-the-hive"}},"2993938953":{"location":[51.523464,3.9853706],"ct":"NL","tp":"CS","ts":"2014-08-03T13:44:27Z","tX":523,"tY":340,"tags":{"name":"Camping Kleine Stelle","website":"http://kleinstelle.nl/camping/"}},"3669956751":{"location":[51.44487,4.0061047],"ct":"NL","tp":"CR","ts":"2024-11-17T09:46:15Z","tX":523,"tY":340,"tags":{"access":"no","capacity":"5","fee":"no","internet_access":"no","maxstay":"72 hours","name":"Camperparkeerplaats Hansweert","note":"Terrein wordt momenteel verbouwd (bron: luchtfoto)","operator":"Gemeente Reimerswaal","power_supply":"no","sanitary_dump_station":"no","water_point":"no"}},"11074176013":{"location":[51.4127797,4.1895003],"ct":"NL","tp":"CS","ts":"2023-07-28T21:32:58Z","tX":523,"tY":340,"tags":{"caravans":"yes","email":"info@hofstede-reigersberg.nl","name":"Hofstede Reigersberg","phone":"+31 6 48562847","shower":"yes","tents":"yes","toilets":"yes","website":"https://hofstede-reigersberg.nl/boerderijcamping/"}},"12087875669":{"location":[51.4654263,3.8853772],"ct":"NL","tp":"CS","ts":"2024-08-01T20:29:10Z","tX":523,"tY":340,"tags":{"name":"De Veldherberg","opening_hours":"Mo-Sa 09:00-11:00, 15:00-18:00; Su 09:00-11:00"}},"4431501917":{"location":[51.4446485,3.883426],"ct":"NL","tp":"CR","ts":"2024-09-24T15:03:46Z","tX":523,"tY":340,"tags":{"addr:city":"Kwadendamme","addr:housenumber":"15","addr:postcode":"4434RG","addr:street":"Groenewegje","capacity":"4","caravan_site:type":"camp_site","contact:website":"https://campingzwaakseweel.nl/","fee":"yes","internet_access":"yes","name":"Camping Zwaakseweel","operator":"Camping Zwaakseweel","power_supply":"yes","sanitary_dump_station":"customers","source":"BAG","source:date":"2016-10-04"}},"10705939138":{"location":[51.5335198,4.0738771],"ct":"NL","tp":"CR","ts":"2023-04-27T09:15:29Z","tX":523,"tY":340,"tags":{"cabins":"yes","caravans":"yes","email":"info@vakantiepark-dezeeuwseparel.nl","name":"Vakantiepark de Zeeuwse Parel","phone":"+31 166 662 727","shower":"yes","static_caravans":"yes","tents":"yes","toilets":"yes","website":"https://vakantiepark-dezeeuwseparel.nl/accommodatie/kampeerplaats/"}}}