{"27003802":{"location":[51.1539862,3.8919479],"ct":"BE","tp":"CS","ts":"2024-02-17T21:23:45Z","tX":523,"tY":342,"tags":{"access":"permit","addr:city":"Wachtebeke","addr:housenumber":"1a","addr:postcode":"9185","addr:street":"Puyenbrug","caravans":"yes","email":"puyenbroeck.camping@oost-vlaanderen.be","fee":"yes","name":"Camping Puyenbroeck","operator":"Provincie Oost-Vlaanderen","phone":"+32 9 342 42 07","static_caravans":"yes","tents":"yes"}},"27003897":{"location":[51.1544711,3.8780257],"ct":"BE","tp":"CR","ts":"2024-02-17T21:23:45Z","tX":523,"tY":342,"tags":{"addr:city":"Wachtebeke","addr:housenumber":"1A","addr:postcode":"9185","addr:street":"Puyenbrug","email":"puyenbroeck.camping@oost-vlaanderen.be","fee":"yes","name":"Puyenbroeck","operator":"Provincie Oost-Vlaanderen","phone":"+32 9 342 42 31","power_supply":"yes","website":"https://oost-vlaanderen.be/ontspannen/recreatiedomeinen/puyenbroeck/overnachten/stacaravan.html"}},"150974738":{"location":[51.0499992,3.9773758],"ct":"BE","tp":"CR","ts":"2023-05-25T07:29:32Z","tX":523,"tY":342,"tags":{"addr:housenumber":"190A","addr:street":"Donklaan","fee":"yes","name":"Rodeo"}},"150974750":{"location":[51.0466676,3.9721193],"ct":"BE","tp":"CS","ts":"2024-12-07T01:03:14Z","tX":523,"tY":342,"tags":{"fax":"+32 9 231 45 28","name":"Camping Lake Park","operator":"North Sea Caravans","phone":"+32 9 231 93 19"}},"151843047":{"location":[51.0445727,3.9711229],"ct":"BE","tp":"CS","ts":"2012-02-25T11:36:25Z","tX":523,"tY":342,"tags":{}},"151943878":{"location":[51.0458067,3.9875806],"ct":"BE","tp":"CR","ts":"2024-07-27T07:06:50Z","tX":523,"tY":342,"tags":{"addr:housenumber":"29","addr:street":"Schriekenstraat","fee":"yes","name":"Roosendael"}},"151943879":{"location":[51.0440531,3.9903747],"ct":"BE","tp":"CR","ts":"2024-07-27T07:06:50Z","tX":523,"tY":342,"tags":{"addr:housenumber":"37","addr:street":"Schriekenstraat"}},"151943880":{"location":[51.0385628,3.9855213],"ct":"BE","tp":"CR","ts":"2024-07-08T23:18:10Z","tX":523,"tY":342,"tags":{"fee":"yes"}},"151946305":{"location":[51.0520139,3.9801536],"ct":"BE","tp":"CS","ts":"2023-11-11T05:36:51Z","tX":523,"tY":342,"tags":{"addr:housenumber":"337","addr:street":"Gentsesteenweg","email":"Groenpark@scarlet.be","name":"Groenpark","phone":"+32 9 367 90 71","website":"https://www.campinggroenpark.be/"}},"154243685":{"location":[51.1268141,4.0863864],"ct":"BE","tp":"CR","ts":"2019-06-28T19:22:52Z","tX":523,"tY":342,"tags":{"name":"Gerstekot"}},"372257622":{"location":[51.0491067,3.9852042],"ct":"BE","tp":"CR","ts":"2024-07-27T07:27:04Z","tX":523,"tY":342,"tags":{"addr:housenumber":"8-10","addr:street":"Strijdamstraat","name":"Gamma"}},"372352023":{"location":[51.0489544,3.9801642],"ct":"BE","tp":"CR","ts":"2024-07-27T08:54:34Z","tX":523,"tY":342,"tags":{"addr:city":"Donk","addr:housenumber":"152A","addr:postcode":"9290","addr:street":"Luisbergwegel","capacity":"6","fee":"yes","name":"Kloosterputten","power_supply":"yes","sanitary_dump_station":"no","source":"AGIV aerial 2012"}},"839344804":{"location":[51.0073611,3.8790965],"ct":"BE","tp":"CR","ts":"2020-08-21T13:46:47Z","tX":523,"tY":342,"tags":{"permanent_camping":"yes","power_supply":"yes","sanitary_dump_station":"yes"}},"987973259":{"location":[51.0377788,4.0107738],"ct":"BE","tp":"CS","ts":"2021-09-29T12:14:19Z","tX":523,"tY":342,"tags":{"landuse":"meadow","name":"Spiritueel Centrum Moonchild"}},"1624607260":{"location":[51.0477166,3.9716095],"ct":"BE","tp":"CR","ts":"2024-12-07T01:03:14Z","tX":523,"tY":342,"tags":{"name":"Lake Park"}},"1624993263":{"location":[51.043487,3.9898391],"ct":"BE","tp":"CR","ts":"2024-07-27T07:06:50Z","tX":523,"tY":342,"tags":{"addr:housenumber":"37","addr:street":"Schriekenstraat","fee":"yes","name":"Bareldonk"}},"1624993286":{"location":[51.0438343,3.9891142],"ct":"BE","tp":"CR","ts":"2024-07-27T07:06:50Z","tX":523,"tY":342,"tags":{"addr:housenumber":"35","addr:street":"Schriekenstraat","fee":"yes","name":"Primavera"}},"1624993298":{"location":[51.0389194,3.9847857],"ct":"BE","tp":"CR","ts":"2019-01-02T14:55:39Z","tX":523,"tY":342,"tags":{"addr:housenumber":"29","addr:street":"Sparrendreef","name":"Ter Kapelle","operator":"North Sea Campings","phone":"+32 9 231 93 19"}},"6634281492":{"location":[50.9727896,4.0477613],"ct":"BE","tp":"CS","ts":"2022-02-03T13:32:12Z","tX":523,"tY":342,"tags":{"group_only":"yes","name":"scoutsterrein","scout":"yes"}},"5352460721":{"location":[51.002996,4.1247585],"ct":"BE","tp":"CR","ts":"2023-11-21T00:33:01Z","tX":523,"tY":342,"tags":{"fee":"no","maxstay":"24 hours","sanitary_dump_station":"yes","sanitary_dump_station:grey_water":"yes","water_point":"yes"}},"6952495979":{"location":[51.1098403,3.9948616],"ct":"BE","tp":"CR","ts":"2019-11-06T19:39:09Z","tX":523,"tY":342,"tags":{"capacity":"2","power_supply":"no","sanitary_dump_station":"no","tents":"no"}},"8533737908":{"location":[51.0593644,4.2020501],"ct":"BE","tp":"CR","ts":"2021-03-18T21:06:37Z","tX":523,"tY":342,"tags":{"permanent_camping":"no","sanitary_dump_station":"yes"}},"12092824411":{"location":[51.0332313,3.9118454],"ct":"BE","tp":"CR","ts":"2024-08-05T07:13:02Z","tX":523,"tY":342,"tags":{"addr:city":"Kalken","addr:postcode":"9270","addr:street":"Vaartstraat","caravan_site":"motorhome_stopover","fee":"no","internet_access":"no","name":"Vaartplein","power_supply":"no","sanitary_dump_station":"no","website":"https://www.campercontact.com/nl/belgie/vlaanderen/laarne/98886/parking-vaartplein-kalken"}}}