{"177804599":{"location":[49.9076756,3.9197466],"ct":"FR","tp":"CS","ts":"2024-03-30T13:00:42Z","tX":523,"tY":347,"tags":{"name":"Le Val d'Oise","phone":"+33 3 23 97 48 04","stars":"2","website":"https://www.evasion-aisne.com/fr/Sejourner-dans-l-Aisne/Votre-hebergement/Camping-du-Val-d-Oise-ETREAUPONT"}},"291306407":{"location":[50.007389,4.0604554],"ct":"FR","tp":"CS","ts":"2023-08-19T17:10:07Z","tX":523,"tY":347,"tags":{"addr:housenumber":"100","addr:street":"rue des Étangs","alt_name":"Camping municipal de Fourmies","capacity:motorhome":"7","capacity:pitches":"113","caravans":"yes","motorhome":"yes","name":"Les Etangs des Moines","opening_hours":"Apr 1 - Oct 31","phone":"+33 3 27 63 05 26","shower":"yes","tents":"yes","toilets":"yes","website":"https://www.etangsdesmoines.fr/hebergements/campingcaravaning/"}},"737713123":{"location":[50.0265011,4.1337433],"ct":"FR","tp":"CS","ts":"2022-07-27T11:28:19Z","tX":523,"tY":347,"tags":{"name":"Hututu"}},"981930403":{"location":[49.9430637,4.0898832],"ct":"FR","tp":"CS","ts":"2021-09-11T08:36:12Z","tX":523,"tY":347,"tags":{"name":"Domaine de Blangy","phone":"+33 375 100 100","stars":"2","website":"https://www.domainedeblangy.com/"}},"1061773050":{"location":[49.9919687,4.0962649],"ct":"FR","tp":"CR","ts":"2024-07-01T21:27:19Z","tX":523,"tY":347,"tags":{"capacity":"4","caravan_site":"motorhome_stopover","caravan_site:type":"village","fee":"no","name":"Aire de Camping-car Anor","payment:description":"tokens at Syndicat d'initiative and bar-tabac-presse \"Le Brazza\"","power_supply":"yes","sanitary_dump_station":"yes","services:charge":"3.50 EUR","services:fee":"yes","surface":"asphalt","water_point":"yes","water_point:fee":"yes","website":"https://www.anor.fr/camping.php"}},"1138328346":{"location":[50.0573962,3.8962449],"ct":"FR","tp":"CS","ts":"2024-06-04T07:37:00Z","tX":523,"tY":347,"tags":{"access":"customers","addr:city":"Boulogne-sur-Helpe","addr:housenumber":"25","addr:postcode":"59440","addr:street":"chemin de Montorgueil","capacity:pitches":"30","caravans":"yes","email":"ericlecomte15@gmail.com","name":"L'Eden Avesnois","nudism":"designated","operator":"association L'Eden Avesnois","phone":"+33 6 42 72 97 18","shower":"yes","tents":"yes","toilets":"yes","website":"https://www.aquadetente-edenavesnois.com/"}},"1162845049":{"location":[50.0531495,3.8809124],"ct":"FR","tp":"CS","ts":"2023-04-15T18:17:39Z","tX":523,"tY":347,"tags":{"capacity:pitches":"75","caravans":"yes","email":"ledomainedechevireuil@gmail.com","motorhome":"yes","name":"Le domaine de Chevireuil","opening_hours":"week 01-53","phone":"+33 781461972; +33 633186233","shower":"yes","tents":"yes","toilets":"yes","website":"https://www.ledomainedechevireuil.fr/6/camping-location-emplacements.html"}},"3660721497":{"location":[49.9862215,4.1609576],"ct":"BE","tp":"CS","ts":"2015-07-21T19:09:22Z","tX":523,"tY":347,"tags":{"name":"Bivouac du Nouveau Monde"}},"10814871527":{"location":[49.842966,4.0719232],"ct":"FR","tp":"CS","ts":"2023-04-15T17:03:16Z","tX":523,"tY":347,"tags":{"cabins":"yes","email":"info@atelierdelacharite.nl","name":"Atelier de la Charité","phone":"+33323984544","shower":"yes","tents":"yes","toilets":"yes","website":"https://atelierdelacharite.nl/Kamperen"}},"9737480274":{"location":[49.9919473,4.0961225],"ct":"FR","tp":"SD","ts":"2024-07-01T21:27:19Z","tX":523,"tY":347,"tags":{"brand":"Flot Bleau"}},"5504875431":{"location":[50.022595,4.2155904],"ct":"BE","tp":"CS","ts":"2024-10-28T16:01:51Z","tX":523,"tY":347,"tags":{"backcountry":"yes","camp_site":"basic","fee":"no","internet_access":"no","name":"Bivouac du Sentier des Pins","openfire":"yes","sanitary_dump_station":"no","tents":"yes","website":"https://www.cm-tourisme.be/fr/a/bivouac-du-sentier-des-pins"}}}