{"169476100":{"location":[48.311976,4.0951758],"ct":"FR","tp":"CR","ts":"2024-06-15T18:35:38Z","tX":523,"tY":354,"tags":{"addr:city":"Pont-Sainte-Marie","addr:country":"FR","addr:housenumber":"7","addr:postcode":"10150","addr:street":"Rue Roger Salengro","capacity":"37","caravan_site":"motorhome_stopover","caravan_site:type":"river","charge":"15 EUR","fee":"yes","internet_access":"no","name":"Aire de Camping-Car Troyes","opening_hours":"24/7","power_supply":"yes","power_supply:fee":"no","sanitary_dump_station":"yes","seasonal":"no","water_point":"yes","website":"https://www.campingcar-troyes.com"}},"475267086":{"location":[48.2932503,4.1645626],"ct":"FR","tp":"CS","ts":"2023-08-03T11:01:37Z","tX":523,"tY":354,"tags":{"group_only":"yes","name":"Aire de grand passage de Thennelières","operator":"Troyes Champagne métropole","residential":"halting_site","source":"BDOrtho IGN"}},"1303857852":{"location":[48.2335196,4.1369619],"ct":"FR","tp":"CS","ts":"2024-08-01T19:08:01Z","tX":523,"tY":354,"tags":{"access":"customers","addr:city":"Verrières","addr:postcode":"10390","addr:street":"Rue du Général de Gaulle","caravans":"yes","description":"Terrain du Club Soleil de Troyes, proposant des activités","email":"club-du-soleil-troyes@orange.fr","fee":"yes","internet_access":"wlan","internet_access:fee":"no","name":"Club Soleil de Troyes","nudism":"yes","operator":"Club Soleil de Troyes","phone":"+33 3 25 41 70 82","sanitary_dump_station":"customers","static_caravans":"yes","tents":"yes","website":"https://www.cstroyes.fr/","wheelchair":"limited"}}}