{"232004754":{"location":[46.8178865,4.0570795],"ct":"FR","tp":"CS","ts":"2024-06-06T12:55:32Z","tX":523,"tY":360,"tags":{"access":"customers","addr:city":"Luzy","addr:postcode":"58170","addr:street":"Route de Dône","capacity:caravans":"126","caravans":"yes","description":"Vivez le naturisme au milieu de la superbe nature du Parc Naturel Régional du Morvan en Bourgogne, région riche en histoire et en culture, mais surtout un havre de tranquillité et de beauté naturelle","email":"info@la-gagere.com","name":"Domaine de la Gagère","nudism":"yes","phone":"+33  3 86 30 48 11","static_caravans":"yes","tents":"yes","website":"https://www.la-gagere.com/"}},"430868746":{"location":[46.8036673,4.1343375],"ct":"FR","tp":"CS","ts":"2025-06-11T11:37:33Z","tX":523,"tY":360,"tags":{}},"560708599":{"location":[46.9573707,4.0279443],"ct":"FR","tp":"CR","ts":"2024-06-19T11:51:07Z","tX":523,"tY":360,"tags":{"caravan_site":"motorhome_stopover","caravan_site:type":"village","fee":"no","name":"Aire Camping-car Glux-en-Glenne","water_point":"yes"}},"614158953":{"location":[46.8605615,4.1912636],"ct":"FR","tp":"CS","ts":"2025-04-19T19:14:09Z","tX":523,"tY":360,"tags":{"addr:housenumber":"26-28","addr:postcode":"71190","addr:street":"Rue de Toulon","capacity":"100","caravans":"yes","drinking_water":"yes","email":"camping@des2rives.com","fax":"+33 3 85 82 32 97","internet_access":"wlan","internet_access:fee":"no","name":"Camping des 2 Rives","phone":"+33 3 85 82 39 73","power_supply":"yes","shower":"yes","swimming_pool":"no","tents":"yes","toilets":"yes","website":"https://des2rives.com"}},"754349277":{"location":[46.8663028,4.189424],"ct":"FR","tp":"CR","ts":"2024-06-26T12:19:36Z","tX":523,"tY":360,"tags":{"caravan_site":"motorhome_stopover","caravan_site:type":"village","fee":"no","name":"Aire de Camping-Car Étang-sur-Arroux","sanitary_dump_station":"yes","surface":"asphalt","water_point":"yes","website":"https://www.autun-tourisme.com/en/offers/aire-de-camping-car-etang-sur-arroux-en-3699898/"}},"823844444":{"location":[47.0116723,4.1924838],"ct":"FR","tp":"CS","ts":"2023-10-26T12:48:50Z","tX":523,"tY":360,"tags":{"caravans":"yes","name":"Camping les deux Rivières","reservation":"recommended","tents":"yes","website":"https://www.camping-morvan.fr/","wheelchair":"yes"}},"876634387":{"location":[46.903835,3.9993536],"ct":"FR","tp":"CS","ts":"2020-11-24T17:09:34Z","tX":523,"tY":360,"tags":{"addr:place":"La Forêt","name":"Camping La Forêt du Morvan","website":"http://www.campinglaforet.nl/"}},"967919177":{"location":[46.931721,4.0495495],"ct":"FR","tp":"CR","ts":"2024-07-09T16:34:31Z","tX":523,"tY":360,"tags":{"attraction":"Museum Bibracte","capacity":"10","caravan_site":"motorhome_stopover","caravan_site:type":"museum","drinking_water":"no","ele":"650","fee":"no","internet_access":"no","name":"Accueil des camping-cars Bibracte","name:signed":"no","picnic_area":"yes","power_supply":"no","sanitary_dump_station":"no","toilets":"no","website":"https://www.bibracte.fr/infos-pratiques"}},"1296354963":{"location":[46.8778497,4.0009243],"ct":"FR","tp":"CR","ts":"2024-10-03T12:59:22Z","tX":523,"tY":360,"tags":{"capacity":"4","caravan_site":"motorhome_stopover","caravan_site:type":"village","dog":"yes","fee":"no","maxstay":"48 hours","name":"Aire de service pour Camping-Car de Larochemillay","opening_hours":"24/7","sanitary_dump_station":"yes","seasonal":"no","water_point":"yes","website":"https://www.nievre-tourisme.com/camping-car/aire-de-service-pour-camping-car-de-larochemillay"}},"2449926266":{"location":[46.931632,4.1009803],"ct":"FR","tp":"CS","ts":"2013-09-07T21:42:23Z","tX":523,"tY":360,"tags":{"addr:city":"Saint-Léger-sous-Beuvray","addr:postcode":"71990","name":"La Boutière","phone":"+33 3 85 82 48 86","website":"http://www.la-boutiere.com"}},"2770336055":{"location":[46.9728121,4.0826067],"ct":"FR","tp":"CS","ts":"2014-04-05T18:21:09Z","tX":523,"tY":360,"tags":{}},"3833409238":{"location":[46.9491854,3.957494],"ct":"FR","tp":"CS","ts":"2015-11-12T21:28:13Z","tX":523,"tY":360,"tags":{}},"9966658714":{"location":[47.0060331,3.9053094],"ct":"FR","tp":"CS","ts":"2023-07-03T12:49:34Z","tX":523,"tY":360,"tags":{"addr:street":"Hameau de champs","contact:city":"Saint-Léger-de-Fougeret","contact:phone":"+33 3 86 85 11 85","contact:postcode":"58120","contact:street":"Hameau","name":"Camping En Bourgogne Dans Le Morvan : La Fougeraie","opening_hours":"24/7","phone":"+33386851185","website":"https://www.camping-fougeraie-bourgogne-morvan.com/"}},"12010022746":{"location":[46.9498897,4.1349106],"ct":"FR","tp":"CS","ts":"2024-07-14T17:40:28Z","tX":523,"tY":360,"tags":{"addr:city":"La Grande-Verrière","addr:postcode":"71990","caravans":"yes","email":"info@lachauvotte.eu","fee":"yes","name":"La Chauvotte","phone":"+33 3 85 82 49 71","tents":"yes","website":"http://www.lachauvotte.eu/"}},"4400842343":{"location":[46.9223747,4.0999009],"ct":"FR","tp":"SD","ts":"2024-10-10T22:06:45Z","tX":523,"tY":360,"tags":{"access":"yes","water_point":"yes","water_point:fee":"yes","website":"https://www.bourgogne-tourisme.com/aires-de-camping-car/aire-de-service-pour-les-campings-cars-32"}},"5894006887":{"location":[46.8663723,4.1894817],"ct":"FR","tp":"SD","ts":"2022-10-07T15:48:38Z","tX":523,"tY":360,"tags":{"access":"yes","fee":"no"}},"7833706774":{"location":[46.877574,4.0009345],"ct":"FR","tp":"SD","ts":"2024-10-03T12:59:22Z","tX":523,"tY":360,"tags":{}},"11960805904":{"location":[46.818668,4.0577102],"ct":"FR","tp":"SD","ts":"2024-06-06T12:55:32Z","tX":523,"tY":360,"tags":{}},"11991902996":{"location":[46.9571966,4.0280161],"ct":"FR","tp":"SD","ts":"2024-06-19T11:51:07Z","tX":523,"tY":360,"tags":{"access":"yes","fee":"no","motorhome":"designated"}}}