{"287243807":{"location":[46.6938882,4.1331522],"ct":"FR","tp":"CR","ts":"2024-05-19T12:10:02Z","tX":523,"tY":361,"tags":{"addr:city":"Toulon-sur-Arroux","addr:housenumber":"141","addr:postcode":"71320","addr:street":"Route d'Uxeau","capacity":"68","caravan_site":"motorhome_stopover","caravan_site:type":"camp_site","caravans:conditional":"no @ (Nov 11 -Apr 14)","charge":"14.50 EUR","fee":"yes","internet_access":"wlan","laundry_service":"yes","name":"Camping du Val d'Arroux","network":"CAMPING-CAR PARK","network:website":"https://www.campingcarpark.com/en_GB/stay/camping/bourgogne-franche-comte/71-saone-et-loire/toulon-sur-arroux","opening_hours":"24/7","power_supply":"yes","power_supply:capacity":"68","power_supply:maxcurrent":"6","sanitary_dump_station":"yes","seasonal":"no","shower":"yes","shower:conditional":"no @ (Nov 11 -Apr 14)","tents":"yes","tents:conditional":"no @ (Nov 11 -Apr 14)","toilets":"yes","toilets:conditional":"no @ (Nov 11 -Apr 14)","water_point":"yes","website":"https://www.toulon-sur-arroux.fr/campings"}},"799411703":{"location":[46.7084555,3.9616505],"ct":"FR","tp":"CS","ts":"2024-04-05T19:48:35Z","tX":523,"tY":361,"tags":{"addr:city":"Issy L'Eveque","addr:postcode":"71760","name":"Camping Les Portes du Morvan","old_name":"camping de l’Etang Neuf","phone":"+33 3 85 24 96 05","website":"http://www.camping-portesdumorvan.com"}},"957255610":{"location":[46.7772832,4.204992],"ct":"FR","tp":"CS","ts":"2022-02-05T13:10:26Z","tX":523,"tY":361,"tags":{"capacity":"25","email":"info@campingleparoy.com","name":"camping le paroy","website":"https://campingleparoy.com/"}},"958605315":{"location":[46.6596374,4.1087499],"ct":"FR","tp":"CS","ts":"2022-05-07T02:12:56Z","tX":523,"tY":361,"tags":{"capacity":"50","drinking_water":"yes","internet_access":"no","motor_vehicle":"yes","name":"Le Lac des Arrouettes","phone":"+33 3 85 79 42 60","sanitary_dump_station":"yes","shower":"yes","tents":"yes","toilets":"yes"}},"1078938909":{"location":[46.7543358,3.9480266],"ct":"FR","tp":"CS","ts":"2024-04-05T19:39:45Z","tX":523,"tY":361,"tags":{"addr:city":"Tazilly France","addr:housenumber":"360","addr:postcode":"58170","addr:street":"Chemin de Chigy","name":"Camping du château de Chigy","website":"https://chateaudechigy.fr"}},"1296351863":{"location":[46.5704477,4.0540212],"ct":"FR","tp":"CR","ts":"2024-06-26T12:40:52Z","tX":523,"tY":361,"tags":{"capacity":"3","caravan_site":"motorhome_stopover","caravan_site:type":"village","fee":"no","name":"Aire Camping-cars Gueugnon","power_supply":"yes","sanitary_dump_station":"yes","surface":"asphalt","water_point":"yes","website":"https://www.destination-saone-et-loire.fr/fr/aire-de-camping-car/aire-de-service-pour-les-campings-cars.html-23"}},"4857505623":{"location":[46.7960137,3.9770868],"ct":"FR","tp":"CS","ts":"2019-07-20T14:25:19Z","tX":523,"tY":361,"tags":{"email":"info@campinglabedure.com","internet_access":"wlan","name":"La Bedure","phone":"+33 386500551","website":"https://www.campinglabedure.com/"}},"8979452061":{"location":[46.7553903,3.8789103],"ct":"FR","tp":"CS","ts":"2022-01-25T16:38:10Z","tX":523,"tY":361,"tags":{"addr:city":"Ternant","addr:housenumber":"2","addr:postcode":"58250","addr:street":"Route des triptyques","name":"Minicamping Château de Satenot"}},"12188860406":{"location":[46.5708267,4.0535704],"ct":"FR","tp":"CS","ts":"2024-09-20T19:17:22Z","tX":523,"tY":361,"tags":{}},"11997755774":{"location":[46.570386,4.0540369],"ct":"FR","tp":"SD","ts":"2024-06-20T20:20:11Z","tX":523,"tY":361,"tags":{"access":"yes"}}}