{"159850434":{"location":[44.3964611,4.2011374],"ct":"FR","tp":"CS","ts":"2022-02-24T07:23:13Z","tX":523,"tY":370,"tags":{"contact:facebook":"https://www.facebook.com/campingmazetpalge/","email":"camping.mazet-plage@wanadoo.fr","name":"Camping Mazet Plage","operator":"Camping Mazet Plage","phone":"+33 4 75 39 32 56","ref":"119 541","stars":"4","swimming_pool":"yes","website":"https://www.camping-mazet-plage.com/"}},"191135012":{"location":[44.3537579,3.9481097],"ct":"FR","tp":"CR","ts":"2024-10-11T20:29:37Z","tX":523,"tY":370,"tags":{"access":"yes","addr:city":"Génolhac","addr:housename":"Place du 19 Mars 1962","addr:housenumber":"16","addr:postcode":"30450","addr:street":"Avenue de la Libération","capacity":"10","caravan_site":"motorhome_stopover","caravan_site:type":"village","description":"Aire de Camping-car","fee":"no","name":"Génolhac Aire Municipale","operator":"Ville de Génolhac","power_supply":"no","sanitary_dump_station:chemical_toilet":"yes","sanitary_dump_station:grey_water":"yes","sanitary_dump_station:round_drain":"yes","supervised":"no","water_point":"yes"}},"230355844":{"location":[44.4154595,4.0974524],"ct":"FR","tp":"CS","ts":"2022-02-24T07:34:31Z","tX":523,"tY":370,"tags":{"addr:place":"Graviéres","caravans":"yes","contact:facebook":"https://www.facebook.com/Camping-Le-Mas-Du-Serre-319392291404600/","email":"lemasduserre@gmail.com","group_only":"no","internet_access":"wlan","name":"Camping le Mas du Serre","operator":"Camping le Mas du Serre","phone":"+33 4 75 37 33 84","ref":"119 525","scout":"no","stars":"3","swimming_pool":"yes","tents":"yes","website":"https://www.campinglemasduserre.com"}},"230360279":{"location":[44.4145304,4.0948855],"ct":"FR","tp":"CS","ts":"2022-02-24T07:23:13Z","tX":523,"tY":370,"tags":{"addr:place":"Chambaud","contact:facebook":"https://www.facebook.com/Camping-La-Ch%C3%A2taigneraie-1333502466766714/","contact:instagram":"https://www.instagram.com/campinglachataigneraie/","email":"lachataigneraie07140@gmail.com","name":"Camping la Châtaigneraie","operator":"Camping la Châtaigneraie","phone":"+33 6 08 48 33 65","ref":"856 610","stars":"3","website":"https://www.camping-lachataigneraie.com/"}},"230360280":{"location":[44.4206247,4.0989001],"ct":"FR","tp":"CS","ts":"2016-12-19T12:56:06Z","tX":523,"tY":370,"tags":{"alt_name":"Rocheyrol","name":"Le Rocheyrol","phone":"+33 4 75 94 06 43","website":"https://sites.google.com/campinglerocheyrol.net/"}},"230360558":{"location":[44.4369835,4.0785729],"ct":"FR","tp":"CS","ts":"2022-02-24T07:23:13Z","tX":523,"tY":370,"tags":{"addr:place":"Champ d'Eynes","contact:facebook":"https://www.facebook.com/campinggorgeschassezac/","email":"campinggorgeschassezac@wanadoo.fr","name":"Camping les Gorges du Chassezac","operator":"Camping les Gorges du Chassezac","phone":"+33 4 75 39 45 12","ref":"214 299","stars":"2","website":"http://www.campinggorgeschassezac.com"}},"361182812":{"location":[44.4121594,4.1719561],"ct":"FR","tp":"CS","ts":"2023-11-06T17:46:52Z","tX":523,"tY":370,"tags":{"addr:place":"Chassagnes bas","email":"info@rouchetou.com","name":"Camping Lou Rouchetou","operator":"Camping Lou Rouchetou","phone":"+33 4 75 37 33 13","ref":"214 512","stars":"3","website":"https://www.camping-lourouchetou.com/"}},"364865430":{"location":[44.402666,4.2142258],"ct":"FR","tp":"CR","ts":"2024-08-19T22:56:53Z","tX":523,"tY":370,"tags":{"access":"private","caravan_site":"motorhome_stopover","caravan_site:type":"countryside"}},"364900315":{"location":[44.3999424,4.2006367],"ct":"FR","tp":"CS","ts":"2024-08-24T09:02:06Z","tX":523,"tY":370,"tags":{"access":"customers","addr:place":"Les Lauzasses","caravans":"yes","contact:mobile":"+33 4 75 39 02 79","drinking_water":"yes","email":"actinidias@orange.fr","name":"Camping les Actinidias","operator":"Camping les Actinidias","phone":"+33 4 75 37 29 06","power_supply":"yes","ref":"119 549","shower":"yes","stars":"3","tents":"yes","website":"https://www.actinidias.com/"}},"397741999":{"location":[44.5756424,3.8935613],"ct":"FR","tp":"CS","ts":"2024-02-29T08:10:29Z","tX":523,"tY":370,"tags":{"name":"L'Allier","phone":"+33 4 66460406","website":"https://www.camping-de-lallier.fr/"}},"428106798":{"location":[44.402613,4.2169678],"ct":"FR","tp":"CS","ts":"2024-09-28T00:30:11Z","tX":523,"tY":370,"tags":{"addr:place":"Les Tournaires","cabins":"yes","caravans":"no","contact:mobile":"+33 4 75 39 36 39","email":"camping-bel-air@orange.fr","name":"Camping Bel Air","operator":"Camping Bel Air","phone":"+33 6 08 09 03 41","ref":"86 733","stars":"3","static_caravans":"yes","website":"https://www.camping-belair-ardeche.com/"}},"460539398":{"location":[44.4189151,4.101337],"ct":"FR","tp":"CS","ts":"2016-12-19T12:55:57Z","tX":523,"tY":370,"tags":{"fixme":"zone approximative","source":"BDOrtho IGN"}},"478069002":{"location":[44.4920087,4.2075519],"ct":"FR","tp":"CS","ts":"2023-11-10T21:19:38Z","tX":523,"tY":370,"tags":{"camp_site":"serviced","email":"contact@campinglescruses.com","name":"Camping les Cruses","operator":"Camping les Cruses","phone":"+33 4 75 39 54 69","ref":"86 656","stars":"3","website":"https://campinglescruses.com/"}},"516480333":{"location":[44.4131195,4.1384009],"ct":"FR","tp":"CS","ts":"2023-11-06T17:46:54Z","tX":523,"tY":370,"tags":{"addr:place":"Le Roussillon","email":"contact@castanhada.fr","fee":"yes","internet_access":"wlan","internet_access:fee":"yes","name":"Camping Castanhada","operator":"Camping Castanhada","phone":"+33 4 75 37 25 18","ref":"119 540","stars":"2","website":"https://www.castanhada.fr/"}},"574695761":{"location":[44.5443594,4.048265],"ct":"FR","tp":"CS","ts":"2023-11-10T21:19:31Z","tX":523,"tY":370,"tags":{"addr:place":"Le Chambon","contact:mobile":"+33 6 85 17 35 50","email":"ladrobie@aliceadsl.fr","landuse":"residential","name":"Camping la Drobie","operator":"Camping la Drobie","phone":"+33 4 75 36 95 22","ref":"119 321","stars":"3","website":"https://www.ladrobie.com/","wheelchair":"limited"}},"619898529":{"location":[44.3765413,4.2067005],"ct":"FR","tp":"CS","ts":"2022-02-24T07:34:31Z","tX":523,"tY":370,"tags":{"addr:street":"Chemin de la Rouvière","email":"contact@camping-source-ardeche.com","name":"Camping la Source","operator":"Camping la Source","phone":"+33 4 75 39 39 13","ref":"119 546","stars":"3","website":"http://www.camping-source-ardeche.com"}},"619898659":{"location":[44.3790477,4.2104849],"ct":"FR","tp":"CS","ts":"2022-02-24T07:34:31Z","tX":523,"tY":370,"tags":{"addr:place":"La Rouvière","contact:mobile":"+33 6 80 25 82 02","email":"contact@camping-cigales-ardeche.com","name":"Camping les Cigales","operator":"Camping les Cigales","phone":"+33 4 75 39 30 33","ref":"214 265","source:geometry":"BDTopo IGN","stars":"3","website":"http://www.camping-cigales-ardeche.com"}},"751174452":{"location":[44.4096718,4.1684511],"ct":"FR","tp":"CS","ts":"2022-10-19T22:34:49Z","tX":523,"tY":370,"tags":{"addr:place":"Chassagnes Bas","email":"reception@domaine-des-chenes.fr","name":"Camping Domaine des Chênes","operator":"Camping Domaine des Chênes","phone":"+33 4 75 37 34 35","ref":"119 600","stars":"4","website":"https://domaine-des-chenes.fr"}},"761095512":{"location":[44.4036672,4.2172311],"ct":"FR","tp":"CS","ts":"2022-02-24T07:34:34Z","tX":523,"tY":370,"tags":{"addr:place":"Terres du Moulin","email":"camping@sarlrobert.fr","name":"Camping des Dalles","operator":"Camping des Dalles","phone":"+33 4 75 39 01 36","ref":"266 802","source:geometry":"BDTopo IGN","stars":"2","website":"http://campingdesdalles.fr/"}},"761095526":{"location":[44.4787309,4.1706688],"ct":"FR","tp":"CS","ts":"2022-05-08T23:46:45Z","tX":523,"tY":370,"tags":{"addr:street":"Route de Planzolles","email":"contact@hello-soleil.com","name":"Camping Hello Soleil","operator":"Camping Hello Soleil","phone":"+33 7 87 12 60 38","ref":"98 419","stars":"3","website":"https://www.hello-soleil.com"}},"761095532":{"location":[44.4075019,4.1099804],"ct":"FR","tp":"CS","ts":"2023-06-17T19:17:38Z","tX":523,"tY":370,"tags":{"email":"camping.lepradal@free.fr","fee":"yes","internet_access":"wlan","mobile":"+33 6 89 21 37 35","name":"Camping le Pradal","operator":"Camping le Pradal","phone":"+33 4 75 37 25 16","ref":"143 629","stars":"2","website":"http://www.camping-lepradal.com"}},"761590265":{"location":[44.3651871,4.0948895],"ct":"FR","tp":"CS","ts":"2023-11-06T17:46:47Z","tX":523,"tY":370,"tags":{"contact:email":"camping.gournier@gmail.com","contact:facebook":"https://www.facebook.com/Camping-Le-Moulin-de-Gournier-379016219130154/","contact:phone":"+33 4 75 37 35 50","name":"Le Moulin de Gournier","stars":"3","website":"https://www.camping-moulin-de-gournier.com/"}},"832232867":{"location":[44.4182297,3.909915],"ct":"FR","tp":"CS","ts":"2020-07-30T12:58:47Z","tX":523,"tY":370,"tags":{"name":"La Palhère","stars":"3","website":"https://www.campinglapalhere.com"}},"840641682":{"location":[44.5259774,3.9080932],"ct":"FR","tp":"CS","ts":"2024-02-13T19:51:26Z","tX":523,"tY":370,"tags":{"addr:housenumber":"7","capacity":"41","contact:phone":"+33 6 15 07 53 79","name":"Camping des Pervenches","operator":"Mairie","stars":"2","website":"http://prevencheres.fr/camping-cascade-cevennes/"}},"845891737":{"location":[44.4612897,3.9278864],"ct":"FR","tp":"CS","ts":"2021-01-10T22:33:13Z","tX":523,"tY":370,"tags":{"name":"Camping Le Lac de Villefort"}},"894052721":{"location":[44.4495981,4.1555712],"ct":"FR","tp":"CS","ts":"2021-01-10T22:33:13Z","tX":523,"tY":370,"tags":{"name":"Lou Cigalou","source":"BDTopo IGN"}},"894052722":{"location":[44.4828113,4.2053278],"ct":"FR","tp":"CS","ts":"2021-01-10T22:33:13Z","tX":523,"tY":370,"tags":{"source":"BDTopo IGN"}},"894052723":{"location":[44.4800161,4.2100263],"ct":"FR","tp":"CS","ts":"2021-01-10T22:33:13Z","tX":523,"tY":370,"tags":{"name":"Camping aire naturelle Les Écureuil","short_name":"Les Écureuils","source:geometry":"BDTopo IGN"}},"894052738":{"location":[44.5378836,4.190338],"ct":"FR","tp":"CS","ts":"2023-09-01T06:33:10Z","tX":523,"tY":370,"tags":{"addr:place":"Le Gua - CD 203","caravans":"yes","contact:mobile":"+33 4 75 39 43 52","drinking_water":"yes","email":"relaisdesbrison@orange.fr","name":"Camping le Relais des Brison","operator":"Camping le Relais des Brison","phone":"+33 6 71 38 89 35","power_supply":"yes","ref":"119 418","shower":"yes","source:geometry":"BDTopo IGN","stars":"2","tents":"yes","toilets":"yes","website":"https://www.camping-brison.com/"}},"894052748":{"location":[44.4972946,4.2095078],"ct":"FR","tp":"CS","ts":"2023-11-10T21:19:30Z","tX":523,"tY":370,"tags":{"addr:place":"Le Château","email":"camping-les-chataigniers@orange.fr","name":"Camping les Châtaigniers","operator":"Camping les Châtaigniers","phone":"+33 4 75 39 50 73","ref":"214 195","source:geometry":"BDTopo IGN","stars":"2","website":"https://www.camping-chataigniers.com/"}},"894052762":{"location":[44.4012084,4.1959634],"ct":"FR","tp":"CS","ts":"2024-11-26T23:28:06Z","tX":523,"tY":370,"tags":{"name":"Le Manoir (V.V.F.)"}},"894052763":{"location":[44.4043603,4.214381],"ct":"FR","tp":"CS","ts":"2022-02-24T07:34:34Z","tX":523,"tY":370,"tags":{"addr:place":"Terres du Moulin","capacity":"53","contact:mobile":"+33 6 84 11 64 91","email":"campinglavignasse@gmail.com","fee":"no","internet_access":"yes","internet_access:fee":"yes","name":"Camping la Vignasse","operator":"Camping la Vignasse","phone":"+33 9 86 77 31 34","ref":"119 547","source:geometry":"BDTopo IGN","stars":"3","website":"http://www.camping-la-vignasse.com"}},"894052764":{"location":[44.4055961,4.2130968],"ct":"FR","tp":"CS","ts":"2024-09-04T09:48:06Z","tX":523,"tY":370,"tags":{"addr:place":"Terre du Moulin","email":"chantal.blaches@wanadoo.fr","name":"Camping les Blaches","operator":"Camping les Blaches","phone":"+33 4 75 39 36 62","ref":"334 985","source:geometry":"BDTopo IGN","stars":"2","website":"https://www.les-blaches.com/"}},"894052767":{"location":[44.4050303,4.2154881],"ct":"FR","tp":"CS","ts":"2021-01-10T22:33:13Z","tX":523,"tY":370,"tags":{"name":"Chaulet Plage","source:geometry":"BDTopo IGN"}},"894052770":{"location":[44.5784127,4.1533039],"ct":"FR","tp":"CS","ts":"2021-01-10T22:33:13Z","tX":523,"tY":370,"tags":{"source":"BDTopo IGN"}},"894052783":{"location":[44.4752629,3.9855808],"ct":"FR","tp":"CS","ts":"2021-01-10T22:33:13Z","tX":523,"tY":370,"tags":{"name":"Les Chènevières","source:geometry":"BDTopo IGN","stars":"1"}},"894052784":{"location":[44.382962,4.1125866],"ct":"FR","tp":"CS","ts":"2022-01-01T22:16:28Z","tX":523,"tY":370,"tags":{"name":"Le Petit Âne Bleu","phone":"+33 4 75 37 27 98","source":"BDTopo IGN","website":"https://www.lepetitanebleu.fr/"}},"894052785":{"location":[44.4287812,4.132789],"ct":"FR","tp":"CS","ts":"2021-01-10T22:33:13Z","tX":523,"tY":370,"tags":{"name":"Camping la Surre","source":"BDTopo IGN"}},"894052791":{"location":[44.3802781,4.209873],"ct":"FR","tp":"CS","ts":"2021-01-10T22:33:13Z","tX":523,"tY":370,"tags":{"name":"Les Chênes","source":"BDTopo IGN"}},"894052792":{"location":[44.4040971,4.2162888],"ct":"FR","tp":"CS","ts":"2023-11-06T17:46:59Z","tX":523,"tY":370,"tags":{"addr:place":"Terres du Moulin","contact:mobile":"+33 6 29 62 00 67","email":"campinglevieuxmoulin07@gmail.com","name":"Camping le Vieux Moulin","operator":"Camping le Vieux Moulin","phone":"+33 4 75 39 25 70","ref":"119 548","source:geometry":"BDTopo IGN","stars":"2","website":"https://www.camping-le-vieux-moulin.com/"}},"906762598":{"location":[44.3398664,4.1531581],"ct":"FR","tp":"CR","ts":"2024-10-08T17:44:50Z","tX":523,"tY":370,"tags":{"access":"yes","addr:street":"Avenue Jean Radier","capacity":"6","caravan_site":"motorhome_stopover","caravan_site:type":"village","description":"Aire de Camping-car. Electricité à la borne Flot Bleu à 20m de l'aire","fee":"no","name":"Saint-Paul-le-Jeune Avenue Jean Radier","operator":"Ville de Saint-Paul-le-Jeune","power_supply":"yes","sanitary_dump_station:chemical_toilet":"yes","sanitary_dump_station:grey_water":"yes","sanitary_dump_station:round_drain":"yes","supervised":"no","water_point":"yes"}},"906824450":{"location":[44.3652159,4.156953],"ct":"FR","tp":"CR","ts":"2024-10-08T17:44:50Z","tX":523,"tY":370,"tags":{"access":"yes","addr:street":"L'Église","capacity":"10","caravan_site":"motorhome_stopover","caravan_site:type":"village","description":"Aire de Camping-car mixte placé sur le parking de l'église.","fee":"no","name":"Banne - Église Saint-Pierre-aux-Liens","operator":"Ville de Banne","power_supply":"yes","sanitary_dump_station:chemical_toilet":"yes","sanitary_dump_station:grey_water":"yes","sanitary_dump_station:round_drain":"yes","supervised":"no","water_point":"yes"}},"1196293068":{"location":[44.4324559,3.9317654],"ct":"FR","tp":"CS","ts":"2023-08-24T17:50:12Z","tX":523,"tY":370,"tags":{"caravans":"yes","drinking_water":"yes","name":"Camping Les Sédaries","power_supply":"yes","shower":"yes","tents":"yes","toilets":"yes"}},"4997170109":{"location":[44.4816621,4.2032554],"ct":"FR","tp":"CS","ts":"2020-09-20T17:23:50Z","tX":523,"tY":370,"tags":{"name":"Camping du Vignal"}},"7110872221":{"location":[44.4129472,4.1782622],"ct":"FR","tp":"CS","ts":"2023-11-06T17:46:50Z","tX":523,"tY":370,"tags":{"addr:place":"Le Pontier","email":"info@ceven-aventure.com","name":"Les Cabanes de Cornillon - Ceven' Aventure","operator":"Céven'Aventure","phone":"+33 4 75 94 98 68","ref":"517 844","stars":"2","website":"https://www.cabanes-cornillon.com/"}},"8309613305":{"location":[44.466456,4.214433],"ct":"FR","tp":"CS","ts":"2021-01-10T22:33:12Z","tX":523,"tY":370,"tags":{"source":"BDTopo IGN"}},"8309613306":{"location":[44.3599796,3.9992789],"ct":"FR","tp":"CS","ts":"2021-01-10T22:33:12Z","tX":523,"tY":370,"tags":{"name":"Le Moulin de Pistou","source":"BDTopo IGN"}},"10651647805":{"location":[44.5739341,4.1632913],"ct":"FR","tp":"CS","ts":"2023-02-12T13:07:36Z","tX":523,"tY":370,"tags":{"name":"La baume au coeur"}},"8420018482":{"location":[44.3536528,3.9481785],"ct":"FR","tp":"SD","ts":"2023-07-20T15:13:50Z","tX":523,"tY":370,"tags":{"caravan_site:type":"village","description":"Station de vidange pour Camping-car","fee":"no","name":"Génolhac","operator":"Ville de Génolhac","sanitary_dump_station:chemical_toilet":"yes","sanitary_dump_station:grey_water":"yes","sanitary_dump_station:round_drain":"yes","water_point":"yes"}},"8420582164":{"location":[44.3650866,4.1570376],"ct":"FR","tp":"SD","ts":"2021-11-20T14:40:26Z","tX":523,"tY":370,"tags":{"description":"Station de vidange pour Camping-car","fee":"no","operator":"Ville de Banne","sanitary_dump_station:chemical_toilet":"yes","sanitary_dump_station:grey_water":"yes","sanitary_dump_station:round_drain":"yes","water_point":"yes"}},"10110722147":{"location":[44.4921914,4.2070746],"ct":"FR","tp":"SD","ts":"2022-10-18T07:30:14Z","tX":523,"tY":370,"tags":{}},"11109523505":{"location":[44.4338306,3.9308269],"ct":"FR","tp":"SD","ts":"2023-08-12T12:07:19Z","tX":523,"tY":370,"tags":{}}}