{"172776341":{"location":[44.1226966,3.9197802],"ct":"FR","tp":"CS","ts":"2022-10-17T21:12:44Z","tX":523,"tY":371,"tags":{"internet_access":"wlan","name":"Camping les Plans","name:nl":"Camping les Plans"}},"175932232":{"location":[44.2451346,3.92672],"ct":"FR","tp":"CS","ts":"2020-05-14T02:53:40Z","tX":523,"tY":371,"tags":{"dog":"yes","name":"Camping Cap Lozère","source":"survey"}},"225418800":{"location":[44.3008871,4.0838917],"ct":"FR","tp":"CS","ts":"2023-11-06T17:46:56Z","tX":523,"tY":371,"tags":{"addr:street":"Rue Victor Hugo","area":"yes","capacity":"75","description":"Camping municipal de la Ville de Bessèges","name":"La Plaine - Parc plage municipal","operator":"Ville de Bessèges","phone":"+33466251306","ref:CD30":"54","stars":"2","website":"https://www.besseges.fr/index.php?page=camping-municipal-de-la-plaine"}},"261485255":{"location":[44.3352341,3.9589907],"ct":"FR","tp":"CS","ts":"2024-08-23T10:10:45Z","tX":523,"tY":371,"tags":{"addr:city":"Génolhac","addr:street":"Pont du Mas","capacity":"50","caravans":"yes","contact:email":"campinglepontdumas@gmail.com","drinking_water":"yes","fee":"yes","name":"Camping du Pont du Mas","operator":"Mairie de Genolhac","phone":"+33 6 33 76 64 36","power_supply":"yes","ref:CD30":"106","sanitary_dump_station":"yes","shower":"yes","tents":"yes","toilets":"yes","website":"https://lepontdumas-camping.fr/"}},"361741090":{"location":[44.0923701,3.9574257],"ct":"FR","tp":"CS","ts":"2023-03-03T07:30:05Z","tX":523,"tY":371,"tags":{"alt_name":"Camping municipal de Mialet","internet_access":"wlan","internet_access:fee":"no","name":"La Rouquette","website":"https://www.mialet.net/larouquette.html"}},"495202159":{"location":[44.1231069,3.9146663],"ct":"FR","tp":"CS","ts":"2024-07-28T11:49:56Z","tX":523,"tY":371,"tags":{"addr:postcode":"30140","name":"La Berge Fleurie","phone":"+33607631295"}},"496381347":{"location":[44.3043801,3.9831631],"ct":"FR","tp":"CS","ts":"2011-09-06T09:46:37Z","tX":523,"tY":371,"tags":{}},"504281692":{"location":[44.1137255,3.8925131],"ct":"FR","tp":"CS","ts":"2020-10-25T09:35:13Z","tX":523,"tY":371,"tags":{"addr:city":"Saint-Jean-du-Gard","addr:postcode":"30270","addr:street":"Route de Mialet","capacity":"92","fee":"yes","name":"Camping des Sources","phone":"+33 4 66 85 38 03","website":"https://www.camping-des-sources.fr/"}},"507796677":{"location":[44.2262175,4.0109305],"ct":"FR","tp":"CR","ts":"2024-05-17T17:48:22Z","tX":523,"tY":371,"tags":{"access":"yes","addr:postcode":"30110","addr:street":"Rue des Taillades","bbq":"no","capacity":"10","caravan_site":"motorhome_stopover","caravan_site:type":"village","caravans":"no","charge":"13.16 EUR","dog":"leashed","fee":"no","maxlength":"9","name":"Aire de camping-car Branoux-les-Taillades","network":"CAMPING-CAR PARK","owner":"Ville de Branoux-les-Taillades","power_supply":"no","power_supply:capacity":"10","power_supply:fee":"no","power_supply:maxcurrent":"6","ref:CD30":"255","sanitary_dump_station:chemical_toilet":"yes","sanitary_dump_station:grey_water":"yes","sanitary_dump_station:round_drain":"yes","tents":"no","trailer":"no","water_point":"yes","website":"https://www.campingcarpark.com/en_GB/stay/stopover-site-motorhome/occitanie/30-gard/branoux-les-taillades"}},"507898226":{"location":[44.1201014,4.0821907],"ct":"FR","tp":"CR","ts":"2024-08-04T22:21:49Z","tX":523,"tY":371,"tags":{"addr:street":"avenue Jules Guesde","bbq":"no","capacity":"12","caravan_site":"motorhome_stopover","caravan_site:type":"river;town","caravans":"no","charge":"15.46 EUR","charge:conditional":"13.26 EUR @ (Oct-Apr)","dog":"leashed","fee":"yes","internet_access":"wlan","name":"Aire de camping-car Alès","network":"CAMPING-CAR PARK","power_supply":"yes","power_supply:capacity":"12","power_supply:maxcurrent":"6","ref:CD30":"249","sanitary_dump_station":"yes","tents":"no","toilets":"no","trailer":"no","water_point":"yes","website":"https://www.campingcarpark.com/fr_FR/sejour/aire-etape-camping-car/occitanie/30-gard/ales"}},"508282319":{"location":[44.3174768,3.9631449],"ct":"FR","tp":"CS","ts":"2024-04-09T14:39:22Z","tX":523,"tY":371,"tags":{"addr:street":"pont de Rastel","capacity":"63","contact:phone":"+334 66 61 44 50","name":"Les Espanettes","ref:CD30":"134","stars":"3"}},"508283046":{"location":[44.3100559,3.9673022],"ct":"FR","tp":"CS","ts":"2024-04-09T14:39:22Z","tX":523,"tY":371,"tags":{"addr:street":"Pont de rastel","capacity":"50","contact:mobile":"+336 07 47 60 22","name":"Le Martinet","ref:CD30":"90","stars":"3","website":"https://www.camping-saint-claude.fr/"}},"508283307":{"location":[44.3081954,3.9705147],"ct":"FR","tp":"CS","ts":"2024-04-09T14:39:22Z","tX":523,"tY":371,"tags":{"addr:street":"Landiol","capacity":"50","contact:phone":"+334 66 61 44 29","name":"La Châtaigneraie","ref:CD30":"39","stars":"2","website":"https://campinglachataigneraiedotfr.wordpress.com/"}},"508283643":{"location":[44.3053975,3.9680487],"ct":"FR","tp":"CS","ts":"2024-08-04T21:25:00Z","tX":523,"tY":371,"tags":{"addr:city":"Chamborigaud","addr:country":"FR","addr:housenumber":"13B","addr:postcode":"30530","addr:street":"Route du Stade","capacity":"57","check_date":"2022-10-26","fax":"+33 4 66 61 42 01","internet_access":"wlan","name":"Camping GCU de Chamborigaud La Plaine","operator":"Groupement des Campeurs Universitaires","position":"entrée","ref:CD30":"55","sanitary_dump_station":"customers","source":"commune","stars":"2","website":"https://www.gcu.asso.fr"}},"508284486":{"location":[44.3037298,4.0125231],"ct":"FR","tp":"CS","ts":"2017-07-17T21:40:07Z","tX":523,"tY":371,"tags":{"addr:street":"village","capacity":"30","name":"Le Luech","ref:CD30":"178"}},"508286116":{"location":[44.3056661,4.0451657],"ct":"FR","tp":"CS","ts":"2021-12-02T19:55:21Z","tX":523,"tY":371,"tags":{"addr:street":"Chamborédon","capacity":"35","name":"Lou Pelous","old_name":"Chamborédon","ref:CD30":"198"}},"508286395":{"location":[44.3026536,4.0582243],"ct":"FR","tp":"CS","ts":"2020-10-26T10:13:00Z","tX":523,"tY":371,"tags":{"addr:city":"Peyremale","addr:postcode":"30160","addr:street":"Peyremale","capacity":"35","caravans":"yes","drinking_water":"yes","fee":"yes","name":"Camping municipal Vieux Moulin","operator":"Marie Peyremale","phone":"+33 4 66 25 02 41","ref:CD30":"186","tents":"yes"}},"508287578":{"location":[44.2911855,4.0661428],"ct":"FR","tp":"CS","ts":"2017-07-17T22:41:09Z","tX":523,"tY":371,"tags":{"addr:street":"Les Drouilhèdes","capacity":"90","name":"Les Drouilhèdes","ref:CD30":"133","stars":"3"}},"508488758":{"location":[44.2344262,4.1734751],"ct":"FR","tp":"CS","ts":"2024-09-21T17:13:43Z","tX":523,"tY":371,"tags":{"addr:street":"Le Moinas chemin Combe Méjanne","capacity":"32","name":"Camping Horizon","ref:CD30":"218"}},"508525345":{"location":[44.30878,4.1205648],"ct":"FR","tp":"CS","ts":"2019-07-25T09:26:18Z","tX":523,"tY":371,"tags":{"addr:street":"Le Martinet","capacity":"100","name":"Centre Chrétien La Source de vie","ref:CD30":"61"}},"508530474":{"location":[44.3250553,4.1183343],"ct":"FR","tp":"CS","ts":"2017-07-22T22:44:03Z","tX":523,"tY":371,"tags":{"addr:street":"Chavagnac","capacity":"30","name":"Clairval","phone":"+33 4 66 25 15 29","ref:CD30":"17"}},"508532509":{"location":[44.3001411,4.1552271],"ct":"FR","tp":"CS","ts":"2017-07-18T22:37:55Z","tX":523,"tY":371,"tags":{"addr:street":"La Borie","camp_site:type:FR":"Aire Naturelle","capacity":"25","name":"Les Piles - La Borie","ref:CD30":"151"}},"509499318":{"location":[44.2296842,3.9947069],"ct":"FR","tp":"CS","ts":"2019-08-19T07:50:46Z","tX":523,"tY":371,"tags":{"addr:street":"Route de Florac","capacity":"65","name":"Le Font de Merle","ref:CD30":"27","stars":"2","website":"https://www.camping-fontdemerle.com/"}},"509640843":{"location":[44.2349206,4.1366827],"ct":"FR","tp":"CS","ts":"2021-02-16T11:10:47Z","tX":523,"tY":371,"tags":{"addr:street":"30960 chemin du Piommier","capacity":"22","name":"L'Orée des Cévennes","old_name":"Pont du Pommier","ref:CD30":"107","stars":"2"}},"509641115":{"location":[44.2384493,4.2023767],"ct":"FR","tp":"CS","ts":"2022-02-24T21:14:06Z","tX":523,"tY":371,"tags":{"addr:street":"Le Moulinet","capacity":"119","name":"Beau Rivage","ref:CD30":"4","stars":"3"}},"509641246":{"location":[44.2582681,4.1942516],"ct":"FR","tp":"CS","ts":"2017-07-23T15:49:19Z","tX":523,"tY":371,"tags":{"addr:street":"Route d'Alès","capacity":"30","name":"La Tour","ref:CD30":"64","stars":"2"}},"509641278":{"location":[44.2630403,4.1956981],"ct":"FR","tp":"CS","ts":"2017-07-23T15:50:44Z","tX":523,"tY":371,"tags":{"addr:street":"Jardin Le Clos","capacity":"45","name":"Le Clos","ref:CD30":"85","stars":"3"}},"685516366":{"location":[44.1532638,4.0548],"ct":"FR","tp":"CS","ts":"2019-04-23T21:08:50Z","tX":523,"tY":371,"tags":{"addr:street":"Avenue Jean Moulin","capacity":"50","name":"Le Clos de l'Abbaye","ref:CD30":"86"}},"685517131":{"location":[44.1505454,4.0412092],"ct":"FR","tp":"CS","ts":"2024-05-14T07:50:28Z","tX":523,"tY":371,"tags":{"addr:street":"La Croix","capacity":"250","name":"Camping La Clémentine","operator":"Sunêlia","ref:CD30":"43","stars":"4","website":"https://www.camping-clementine.fr"}},"716904389":{"location":[44.1011314,3.8910628],"ct":"FR","tp":"CR","ts":"2024-05-09T18:37:22Z","tX":523,"tY":371,"tags":{"capacity":"21","caravan_site":"motorhome_stopover","caravan_site:type":"river","caravans":"no","charge":"14.82 EUR","dog":"yes","fee":"yes","maxlength":"none","name":"CAMPING-CAR PARK Saint-Jean-du-Gard","network":"CAMPING-CAR PARK","power_supply":"yes","power_supply:maxcurrent":"6","sanitary_dump_station":"yes","tents":"no","toilets":"no","trailer":"yes","water_point":"yes","website":"https://www.campingcarpark.com/en_GB/stay/stopover-site-motorhome/occitanie/30-gard/saint-jean-du-gard"}},"894052779":{"location":[44.2798522,4.0998157],"ct":"FR","tp":"CS","ts":"2024-09-19T08:19:31Z","tX":523,"tY":371,"tags":{"access":"no","name":"Camping la Valette fermé","source":"BDTopo IGN"}},"911716690":{"location":[44.2345698,4.169674],"ct":"FR","tp":"CR","ts":"2024-10-11T20:30:02Z","tX":523,"tY":371,"tags":{"access":"yes","addr:city":"Les Mages","addr:postcode":"30960","addr:street":"av du Moulin - Combe Méjanne","capacity":"10","caravan_site":"motorhome_stopover","caravan_site:type":"village","fee":"no","name":"Aire de camping-car Les Mages","operator":"Ville de Les Mages","power_supply":"no","sanitary_dump_station":"yes","sanitary_dump_station:chemical_toilet":"yes","sanitary_dump_station:grey_water":"yes","sanitary_dump_station:round_drain":"yes","supervised":"no","water_point":"yes"}},"1284602343":{"location":[44.2588468,4.1948938],"ct":"FR","tp":"CR","ts":"2024-05-19T10:03:10Z","tX":523,"tY":371,"tags":{"bbq":"no","capacity":"8","caravan_site":"motorhome_stopover","caravan_site:type":"village","caravans":"no","charge":"14.40 EUR","dog":"leashed","fee":"yes","internet_access":"wlan","maxlength":"9","name":"Aire de Saint-Ambroix","network":"CAMPING-CAR PARK","opening_hours":"24/7","operator":"CAMPING-CAR PARK","power_supply":"yes","sanitary_dump_station":"yes","seasonal":"no","tents":"no","trailer":"no","website":"https://www.campingcarpark.com/fr_FR/sejour/aire-etape-camping-car/occitanie/30-gard/saint-ambroix"}},"4176685610":{"location":[44.120078,4.081787],"ct":"FR","tp":"SD","ts":"2024-08-04T22:21:49Z","tX":523,"tY":371,"tags":{"sanitary_dump_station:chemical_toilet":"yes","sanitary_dump_station:fee":"no","sanitary_dump_station:gravity":"yes","sanitary_dump_station:grey_water":"yes","sanitary_dump_station:suction":"no","water_point":"yes"}},"7457597542":{"location":[44.2561327,4.0819795],"ct":"FR","tp":"CS","ts":"2020-04-28T11:22:55Z","tX":523,"tY":371,"tags":{}},"7750236850":{"location":[44.1322551,3.8911162],"ct":"FR","tp":"CS","ts":"2020-07-26T13:41:48Z","tX":523,"tY":371,"tags":{"name":"La Forêt"}},"7750358140":{"location":[44.1192454,3.8854066],"ct":"FR","tp":"CS","ts":"2022-01-11T07:31:33Z","tX":523,"tY":371,"tags":{"name":"Bivouac Nature"}},"7873395285":{"location":[44.1319487,3.8904005],"ct":"FR","tp":"CS","ts":"2023-11-01T11:45:02Z","tX":523,"tY":371,"tags":{"name":"Camping La Foret","website":"https://www.camping-cevennes-nature.com/"}},"9555943397":{"location":[44.3190931,3.8792208],"ct":"FR","tp":"CS","ts":"2022-04-01T20:11:25Z","tX":523,"tY":371,"tags":{"access":"private","addr:city":"VIALAS","addr:postcode":"48220","addr:street":"Castagnols","group_only":"no","name":"Camping à la Ferme","phone":"+33 603022184"}},"12085292452":{"location":[44.3318402,3.8974101],"ct":"FR","tp":"CS","ts":"2024-07-31T15:41:53Z","tX":523,"tY":371,"tags":{"addr:housenumber":"448","addr:street":"La Planche, 48220 Vialas Frankrijk","description":"'Petit camping chez l'habitant\nPour les amoureux de la nature et de la simplicité, La Rêverie vous accueille dans un cadre naturel et simple à 400 mètres du village de Vialas et de ses commerces.","name":"Camping la Rêverie/ La Pizzaïolette","phone":"+33 6 42 82 28 80","website":"https://www.campinglareverie-cevennes.fr/"}},"8420000547":{"location":[44.2260517,4.010578],"ct":"FR","tp":"SD","ts":"2021-11-20T14:40:26Z","tX":523,"tY":371,"tags":{"description":"Station de vidange pour Camping-car","fee":"no","operator":"Ville de Branoux-les-Taillades","sanitary_dump_station:chemical_toilet":"yes","sanitary_dump_station:grey_water":"yes","sanitary_dump_station:round_drain":"yes","water_point":"yes"}},"8420030857":{"location":[44.3395253,4.1533863],"ct":"FR","tp":"SD","ts":"2021-11-20T14:40:26Z","tX":523,"tY":371,"tags":{"description":"Station de vidange pour Camping-car","fee":"no","operator":"Ville de Saint-Paul-le-Jeune","sanitary_dump_station:chemical_toilet":"yes","sanitary_dump_station:grey_water":"yes","sanitary_dump_station:round_drain":"yes","water_point":"yes"}},"8465312683":{"location":[44.2345525,4.1697931],"ct":"FR","tp":"SD","ts":"2021-11-20T14:40:26Z","tX":523,"tY":371,"tags":{"description":"Station de vidange pour Camping-car. Acces à la trappe des eaux grises difficiles.","fee":"no","operator":"Ville de Les Mages","sanitary_dump_station:chemical_toilet":"yes","sanitary_dump_station:grey_water":"yes","sanitary_dump_station:round_drain":"yes","water_point":"yes"}}}