{"42023870":{"location":[44.0003479,4.002429],"ct":"FR","tp":"CS","ts":"2009-10-05T11:50:30Z","tX":523,"tY":372,"tags":{}},"136976361":{"location":[44.0785079,3.9662511],"ct":"FR","tp":"CS","ts":"2024-04-08T17:40:01Z","tX":523,"tY":372,"tags":{"access":"customers","cabins":"16","caravans":"yes","dog":"yes","fee":"yes","internet_access":"wlan;terminal","internet_access:fee":"no","name":"Respire Villages Anduze","phone":"+33466617310","power_supply":"cee_17_blue","tents":"yes","washing_machine":"yes","website":"http://www.camping-cevennes-provence.fr"}},"397105376":{"location":[44.0615799,3.9831481],"ct":"FR","tp":"CS","ts":"2017-10-21T00:40:52Z","tX":523,"tY":372,"tags":{"addr:housenumber":"200","addr:street":"Route de Générargues","capacity":"133","contact:email":"camping-le-pradal@orange.fr","contact:phone":"+33466617981","contact:website":"http://campinganduze.com","name":"Le Pradal","ref:CD30":"108","stars":"3"}},"506698244":{"location":[44.0549322,4.0043302],"ct":"FR","tp":"CS","ts":"2023-03-25T14:36:48Z","tX":523,"tY":372,"tags":{"addr:city":"Boisset-et-Gaujac","addr:housenumber":"1719","addr:postcode":"30140","addr:street":"Route d'Anduze","alt_name":"Cadabuech","camp_site:type:FR":"Aire Naturelle","capacity":"25","name":"Camping Bellevue","ref:CD30":"11"}},"506707767":{"location":[43.9563304,3.9647977],"ct":"FR","tp":"CS","ts":"2017-07-11T12:55:52Z","tX":523,"tY":372,"tags":{"addr:street":"Sebens","camp_site:type:FR":"Aire Naturelle","capacity":"49","name":"Domaine de Sebens","ref:CD30":"226"}},"506711179":{"location":[43.9400028,3.9522373],"ct":"FR","tp":"CR","ts":"2024-10-11T19:50:41Z","tX":523,"tY":372,"tags":{"addr:street":"Place de la Vabre","caravan_site":"motorhome_stopover","caravan_site:type":"village","fee":"no","name":"Aire de camping-car de Sauve","ref:CD30":"270","sanitary_dump_station":"yes","seasonal":"no","water_point":"yes","water_point:fee":"no"}},"506712338":{"location":[43.9805891,3.8876679],"ct":"FR","tp":"CS","ts":"2017-07-11T13:16:34Z","tX":523,"tY":372,"tags":{"addr:street":"Graniers","capacity":"50","name":"Le Graniers","ref:CD30":"31","stars":"3"}},"506716333":{"location":[43.8780696,4.0974305],"ct":"FR","tp":"CS","ts":"2017-07-11T13:33:16Z","tX":523,"tY":372,"tags":{"addr:street":"Camp Bertier","capacity":"92","name":"Le Mas de Reilhe","ref:CD30":"170","stars":"4"}},"507422100":{"location":[44.0281442,4.0733776],"ct":"FR","tp":"CS","ts":"2023-08-17T15:16:50Z","tX":523,"tY":372,"tags":{"addr:city":"Cardet","addr:street":"22 rue du Bosquet","capacity":"134","dog":"yes","name":"Beau Rivage","name:fr":"Beau Rivage","name:nl":"Beau Rivage","operator":"John & Vera","ref:CD30":"3","stars":"2","website":"https://camping-beau-rivage.net/"}},"508423465":{"location":[44.0657606,3.9768763],"ct":"FR","tp":"CS","ts":"2024-02-13T14:49:14Z","tX":523,"tY":372,"tags":{"addr:housenumber":"610","addr:street":"Chemin de Recoulin","capacity":"270","contact:phone":"+33 4 66 61 80 15","contact:website":"http://www.castelrose.com","name":"Ciela Village","opening_hours":"Mo-Fr 09:00-18:00; Sa 09:00-13:00","operator":"Ciela Village","ref:CD30":"79","ref:FR:SIRET":"41110957200023","stars":"4","website":"https://www.castelrose.com/"}},"508423487":{"location":[44.0600807,3.9752892],"ct":"FR","tp":"CS","ts":"2018-05-11T07:27:05Z","tX":523,"tY":372,"tags":{"addr:housenumber":"1030","addr:street":"Route de Saint-Jean du Gard","capacity":"144","contact:phone":"+33466617223","contact:website":"http://www.lesfauvettes.fr","name":"Les Fauvettes","ref:CD30":"135","stars":"3"}},"508429975":{"location":[44.0707685,3.9734083],"ct":"FR","tp":"CS","ts":"2024-08-18T19:53:29Z","tX":523,"tY":372,"tags":{"addr:street":"Quartier Labahou","capacity":"302","caravans":"yes","contact:email":"contact@camping-arche.com","contact:fax":"+33 4 66 61 88 94","contact:phone":"+33 4 66 61 74 08","contact:website":"http://www.camping-arche.fr","drinking_water":"yes","name":"L'Arche","power_supply":"yes","ref:CD30":"72","sanitary_dump_station":"yes","shower":"yes","stars":"4","tents":"yes","toilets":"yes"}},"508432122":{"location":[44.0694553,3.9680067],"ct":"FR","tp":"CS","ts":"2023-02-03T10:18:04Z","tX":523,"tY":372,"tags":{"addr:housenumber":"140","addr:street":"Chemin les Hauts de Labahou","camp_site:type:FR":"Aire Naturelle","capacity":"25","contact:email":"loucantoucevenol@gmail.com","contact:phone":"+33 767924242","contact:website":"https://www.loucantoucevenol.com/","name":"Camping Lou Cantou Cévenol","ref:CD30":"143"}},"535640420":{"location":[44.030955,4.0871949],"ct":"FR","tp":"CS","ts":"2023-03-03T07:39:36Z","tX":523,"tY":372,"tags":{"addr:street":"615 chemin de Libac","capacity":"150","name":"Les Chercheurs d'or","ref:CD30":"129","stars":"2","website":"https://www.camping-chercheur-dor.fr"}},"546079205":{"location":[44.0425796,3.882572],"ct":"FR","tp":"CS","ts":"2020-02-19T22:36:42Z","tX":523,"tY":372,"tags":{"addr:street":"Route de Lasalle","contact:email":"filament@capfun.com","contact:phone":"+33 4 66 85 20 52","contact:website":"http://www.camping-filament.fr","name":"Camping Filament","old_name":"Camping La Pommeraie","stars":"4"}},"676583482":{"location":[44.0223536,4.0454389],"ct":"FR","tp":"CS","ts":"2010-03-28T17:36:01Z","tX":523,"tY":372,"tags":{"name":"Camping Mas des Chênes"}},"678819495":{"location":[43.8846058,4.0002731],"ct":"FR","tp":"CS","ts":"2020-12-12T06:20:49Z","tX":523,"tY":372,"tags":{"capacity":"6","caravans":"yes","name":"Mas de Campagnani","phone":"+33 4 66773011","tents":"yes","url":"http://marcilieff.wixsite.com/camping"}},"687146417":{"location":[44.0445929,3.9389133],"ct":"FR","tp":"CS","ts":"2019-06-02T20:26:05Z","tX":523,"tY":372,"tags":{"camp_site":"basic"}},"816089982":{"location":[43.9785527,4.1191314],"ct":"FR","tp":"CS","ts":"2020-06-15T06:55:44Z","tX":523,"tY":372,"tags":{"name":"Aire Naturelle d'Accueil des Jardin de Manthes","source":"data.gouv.fr:DATAtourisme - 05/2020","wheelchair":"no"}},"833327554":{"location":[44.0283924,4.0279511],"ct":"FR","tp":"CS","ts":"2020-08-02T20:44:23Z","tX":523,"tY":372,"tags":{"name":"Camping Le Fief d'Anduze","source":"data.gouv.fr:DATAtourisme - 05/2020","stars":"3","website":"https://www.campinglefief.fr","wheelchair":"no"}},"995897547":{"location":[44.0392296,3.9921393],"ct":"FR","tp":"CS","ts":"2021-10-23T15:44:27Z","tX":523,"tY":372,"tags":{"name":"Le Bel Été","source":"survey"}},"1197329761":{"location":[44.0485977,3.9849573],"ct":"FR","tp":"CR","ts":"2024-08-12T22:29:26Z","tX":523,"tY":372,"tags":{"caravan_site":"motorhome_stopover","caravan_site:type":"railway_station","dog":"yes","fee":"no","name":"Aire Municipale Anduze","opening_hours":"24/7","power_supply":"yes","power_supply:maxcurrent":"16","sanitary_dump_station":"yes","water_point":"yes"}},"1303852372":{"location":[43.8769699,4.0530624],"ct":"FR","tp":"CS","ts":"2024-07-26T09:01:27Z","tX":523,"tY":372,"tags":{"access":"private","addr:city":"Sardan","addr:housenumber":"800","addr:postcode":"30260","addr:street":"Chemin de Gournie","description":"Terrain du Club Nature et Soleil de Sardan, écrin, clôturé et sécurisé, que le club vous accueille en journée, accessible 7 jours sur 7 pour les membres du club.","name":"Club Nature et Soleil de Sardan","nudism":"obligatory","operator":"Club Nature et Soleil de Sardan","phone":"+33617589517","website":"https://www.sardan.r5c3.fr/"}},"1308826263":{"location":[43.886106,4.1912459],"ct":"FR","tp":"CR","ts":"2024-08-19T14:14:42Z","tX":523,"tY":372,"tags":{"capacity":"5","caravan_site":"motorhome_stopover","caravan_site:type":"village","dog":"yes","fee":"no","maxstay":"72 hours","name":"Aire de Services à Saint Mamert","power_supply":"no","tents":"no","water_point":"yes","website":"https://www.tourismegard.com/fr/fiche/hotellerie-plein-air/aire-de-services-a-saint-mamert-saint-mamert-du-gard_TFO6214876/"}},"1328828393":{"location":[43.9400479,3.9523801],"ct":"FR","tp":"SD","ts":"2015-03-28T01:35:02Z","tX":523,"tY":372,"tags":{}},"2137955253":{"location":[44.0796412,4.0975243],"ct":"FR","tp":"CS","ts":"2025-02-07T16:03:20Z","tX":523,"tY":372,"tags":{"addr:city":"Saint-Christol-lès-Alès","addr:housenumber":"559","addr:postcode":"30380","addr:street":"Chemin du Mas Cauvy","cabins":"yes","camp_site":"serviced","caravans":"yes","check_date":"2025-02-07","description":"Le Mas Cauvy est un petit camping nature situé dans les Cévennes. Il offre des emplacements spacieux, une piscine et un cadre calme et verdoyant, idéal pour se ressourcer.\n28 emplacements nu, tentes safari et tipi à louer.","dog":"leashed","email":"mas.cauvy@hotmail.fr","fee":"yes","image":"https://www.camping-mascauvy.com/wp-content/uploads/2018/12/emplacement-vue-camping-cevennes.jpg","name":"Le Mas Cauvy","phone":"+33 769551579","reservation":"yes","shower":"yes","static_caravans":"no","tents":"yes","toilets":"yes","website":"https://www.camping-mascauvy.com"}},"3017809880":{"location":[44.0359132,4.024288],"ct":"FR","tp":"CS","ts":"2021-09-07T20:04:14Z","tX":523,"tY":372,"tags":{"addr:city":"Boisset-et-Gaujac","addr:housenumber":"2406","addr:postcode":"30140","addr:street":"Chemin de la Madeleine","name":"Camping domaine de Gaujac"}},"3069960592":{"location":[44.0785564,3.9543089],"ct":"FR","tp":"CS","ts":"2020-10-25T09:53:08Z","tX":523,"tY":372,"tags":{"internet_access":"wlan","internet_access:fee":"no","name":"Camping a la ferme Le Mas de l'Église","phone":"+33 4 66 61 80 80"}},"7780215733":{"location":[44.0277599,4.0742131],"ct":"FR","tp":"SD","ts":"2020-08-03T07:46:26Z","tX":523,"tY":372,"tags":{}},"8892389555":{"location":[43.8849808,4.190387],"ct":"FR","tp":"SD","ts":"2021-07-04T12:46:16Z","tX":523,"tY":372,"tags":{"fee":"no","power_supply":"no","water_point":"yes"}}}