{"7733270":{"location":[43.5332918,3.946167],"ct":"FR","tp":"CS","ts":"2018-02-14T20:08:25Z","tX":523,"tY":374,"tags":{"addr:city":"Palavas-les-Flots","addr:housenumber":"95","addr:postcode":"34250","addr:street":"Avenue de Saint-Maurice","contact:email":"camping.montpellier.plage@wanadoo.fr","contact:phone":"+334 67 68 00 91","internet_access":"wlan","internet_access:fee":"no","name":"Montpellier Plage","website":"http://www.camping-montpellier-plage.com"}},"25819018":{"location":[43.5508922,3.9965259],"ct":"FR","tp":"CS","ts":"2021-11-23T09:08:26Z","tX":523,"tY":374,"tags":{"alt_name":"Les Saladelles","area":"yes","contact:email":"mille-pepites@capfun.com","contact:phone":"+334 67 68 23 71","name":"Mille Pépites","operator":"Capfun","website":"https://www.capfun.com/camping-france-languedoc_roussillon-mille_pepites-FR.html"}},"25891110":{"location":[43.5536012,3.9437474],"ct":"FR","tp":"CS","ts":"2018-07-24T16:35:55Z","tX":523,"tY":374,"tags":{"name":"Camping le Lac des Rêves"}},"25895557":{"location":[43.5584866,3.939652],"ct":"FR","tp":"CS","ts":"2015-11-20T20:08:52Z","tX":523,"tY":374,"tags":{"name":"Camping de l'Estelle"}},"25965534":{"location":[43.5790744,3.9285957],"ct":"FR","tp":"CS","ts":"2024-01-22T11:33:24Z","tX":523,"tY":374,"tags":{"name":"L'Estanel","phone":"+33467657337","website":"http://www.camping-residentiel-estanel.com"}},"26370472":{"location":[43.5645897,4.1595883],"ct":"FR","tp":"CS","ts":"2017-10-23T15:12:57Z","tX":523,"tY":374,"tags":{"addr:street":"Route départementale 62","capacity":"553","name":"La Petite Camargue","ref:CD30":"53","stars":"5"}},"28801765":{"location":[43.5536257,3.8948332],"ct":"FR","tp":"CS","ts":"2024-10-08T06:20:25Z","tX":523,"tY":374,"tags":{"caravans":"yes","contact:website":"http://www.oasis-palavasienne.com/","dog":"leashed","fee":"yes","internet_access":"wlan","internet_access:fee":"yes","motorhome":"yes","name":"L'Oasis Palavasienne","power_supply":"yes","power_supply:maxcurrent":"10","socket:cee_blue":"yes","tents":"yes"}},"28801827":{"location":[43.5512282,3.8948351],"ct":"FR","tp":"CS","ts":"2024-10-08T06:20:25Z","tX":523,"tY":374,"tags":{"caravans":"yes","contact:website":"http://www.eden-camping.fr/","internet_access":"wlan","internet_access:fee":"no","motorhome":"yes","name":"L'Eden","power_supply":"yes","socket:cee_blue":"yes","stars":"4","tents":"yes"}},"37382407":{"location":[43.5389238,3.9582287],"ct":"FR","tp":"CS","ts":"2018-02-14T20:08:25Z","tX":523,"tY":374,"tags":{"contact:email":"roquilles@wanadoo.fr","contact:phone":"+334 67 68 03 47","name":"Les Roquilles","stars":"4","website":"https://www.camping-les-roquilles.fr/"}},"48845715":{"location":[43.5536615,4.1069578],"ct":"FR","tp":"CS","ts":"2021-02-27T15:51:29Z","tX":523,"tY":374,"tags":{"addr:city":"Le Grau-du-Roi","addr:housenumber":"1249","addr:postcode":"30240","addr:street":"Route de Carnon","capacity":"462","contact:email":"boucanet@franceloc.fr","contact:website":"https://www.campingboucanet.franceloc.fr","internet_access":"wlan","internet_access:fee":"no","name":"Le Boucanet","opening_hours":"Apr 04-Sep 28","operator":"Capfun","ref:CD30":"77","stars":"4","tents":"no"}},"60440016":{"location":[43.5069647,4.1260012],"ct":"FR","tp":"CS","ts":"2024-05-11T06:47:28Z","tX":523,"tY":374,"tags":{"addr:city":"Le Grau-du-Roi","addr:postcode":"30240","addr:street":"Route de l'Espiguette","capacity":"2078","caravans":"yes","contact:website":"https://www.campingespiguette.fr/","drinking_water":"yes","email":"reception@campingespiquette.fr","fee":"no","internet_access":"wlan","name":"Camping de L'Espiguette","phone":"+33 4 66 51 43 92","ref:CD30":"187","sanitary_dump_station":"yes","shower":"yes","stars":"3","tents":"yes","toilets":"yes"}},"66024698":{"location":[43.5074256,4.1437923],"ct":"FR","tp":"CS","ts":"2017-10-13T15:18:57Z","tX":523,"tY":374,"tags":{"addr:street":"Route du phare de l'espiguette","capacity":"293","name":"La Marine (Tohapi)","ref:CD30":"48","stars":"4"}},"66025554":{"location":[43.5095464,4.1437944],"ct":"FR","tp":"CS","ts":"2018-02-14T20:26:55Z","tX":523,"tY":374,"tags":{"addr:housenumber":"2070","addr:street":"2070 Route de l'Espiguette","capacity":"330","contact:email":"camping.soleil@free.fr","contact:phone":"+334 66 51 50 07","contact:website":"http://www.camping-soleil.com/","dog":"no","name":"Le Soleil","ref:CD30":"114","stars":"2","wheelchair":"yes"}},"66025859":{"location":[43.5149984,4.1472773],"ct":"FR","tp":"CS","ts":"2021-02-22T16:28:21Z","tX":523,"tY":374,"tags":{"addr:housenumber":"980","addr:street":"980 route de l'Espiguette","alt_name":"Camping Élysées Résidence","cabins":"658","capacity":"736","caravans":"20","contact:website":"http://www.odalys-vacances.com/location-mer/languedoc-roussillon/le-grau-du-roi-port-camargue/elysee.html","name":"Camping Odalys Elysée","official_name":"Domaine Résidentiel de Plein Air Elysée","operator":"Odalys Vacances","ref:CD30":"24","stars":"4","tents":"20"}},"66026739":{"location":[43.5119607,4.1444129],"ct":"FR","tp":"CS","ts":"2017-10-13T15:17:45Z","tX":523,"tY":374,"tags":{"addr:housenumber":"1730","addr:street":"Mas Salonique","capacity":"368","contact:website":"http://camping-bonsejour.com/","name":"Bon Séjour","opening_hours":"Apr - Sep","ref:CD30":"8","stars":"2","wheelchair":"yes"}},"66027007":{"location":[43.5041263,4.1440253],"ct":"FR","tp":"CS","ts":"2021-01-08T11:38:45Z","tX":523,"tY":374,"tags":{"addr:housenumber":"2495","addr:street":"Route de l'Espiguette","capacity":"219","contact:website":"http://www.yellohvillage-petits-camarguais.com/","name":"Yelloh Village - Les Petits Camarguais - Côté Village","ref:CD30":"113","stars":"5"}},"66104055":{"location":[43.5209187,4.1468477],"ct":"FR","tp":"CS","ts":"2024-05-14T08:18:05Z","tX":523,"tY":374,"tags":{"addr:city":"Le Grau-du-Roi","addr:housenumber":"470","addr:postcode":"30240","addr:street":"Route de l'Espiguette","capacity":"360","contact:email":"contact@lesjardinsdetivoli.com","contact:facebook":"https://www.facebook.com/campingtivoli","contact:website":"https://www.lesjardinsdetivoli.com","fee":"yes","name":"Les Jardins de Tivoli","operator":"Sunêlia","ref:CD30":"144","stars":"4"}},"66104096":{"location":[43.5229396,4.1454034],"ct":"FR","tp":"CS","ts":"2017-10-13T15:05:45Z","tX":523,"tY":374,"tags":{"addr:street":"Route de l'espiguette","capacity":"363","contact:website":"http://www.campingleden.fr/","name":"L'Eden Hôtel de Plein Air","ref:CD30":"119","stars":"5"}},"66771138":{"location":[43.5646051,4.0775709],"ct":"FR","tp":"CS","ts":"2024-05-29T13:18:28Z","tX":523,"tY":374,"tags":{"addr:city":"La Grande-Motte","addr:country":"FR","addr:housenumber":"298","addr:postcode":"34280","addr:street":"Allée des Peupliers","capacity":"195","caravans":"yes","contact:phone":"+33 4 67 56 55 05","fee":"yes","internet_access":"wlan","name":"GCU La Grande-Motte","operator":"Groupement des Campeurs Universitaires","sanitary_dump_station":"customers","source":"cadastre-dgi-fr source : Direction Générale des Impôts - Cadastre. Mise à jour : 2010","stars":"2","static_caravans":"yes","tents":"yes","website":"https://www.gcu.asso.fr/terrains/la-grande-motte-hérault-34","wheelchair":"limited"}},"66771140":{"location":[43.5634149,4.0742392],"ct":"FR","tp":"CS","ts":"2021-03-14T13:18:59Z","tX":523,"tY":374,"tags":{"addr:city":"La Grande-Motte","addr:housenumber":"95","addr:postcode":"34280","addr:street":"Place des Tamaris","contact:email":"contact@camping-maiana.com","contact:phone":"+334 67 56 50 08","email":"contact@camping-maiana.com","fee":"yes","name":"Maïana","opening_hours":"09:00-20:00","source":"cadastre-dgi-fr source : Direction Générale des Impôts - Cadastre. Mise à jour : 2010","stars":"4","website":"https://www.camping-maiana.com"}},"66771142":{"location":[43.5673172,4.0775018],"ct":"FR","tp":"CS","ts":"2010-07-08T22:20:14Z","tX":523,"tY":374,"tags":{"source":"cadastre-dgi-fr source : Direction Générale des Impôts - Cadastre. Mise à jour : 2010"}},"66771150":{"location":[43.5676292,4.0757211],"ct":"FR","tp":"CS","ts":"2021-11-27T14:49:39Z","tX":523,"tY":374,"tags":{"addr:city":"La Grande-Motte","addr:postcode":"34280","addr:street":"Allée des Pins","capacity":"148","contact:email":"camping.lescigales@paysdelor.fr","contact:phone":"+33 4 67 56 50 85","fee":"yes","name":"Camping des Cigales","source":"cadastre-dgi-fr source : Direction Générale des Impôts - Cadastre. Mise à jour : 2010","website":"https://www.capfun.com/camping-france-languedoc_roussillon-or-FR.html"}},"66771156":{"location":[43.5624337,4.073376],"ct":"FR","tp":"CS","ts":"2022-11-27T11:21:41Z","tX":523,"tY":374,"tags":{"addr:city":"La Grande-Motte","addr:housenumber":"44","addr:postcode":"34280","addr:street":"Place des Tamaris","caravans":"yes","contact:email":"campinglegarden@orange.fr","contact:phone":"+33 4 67 56 50 09","drinking_water":"yes","email":"campinglegarden@orange.fr","fee":"yes","name":"Camping Le Garden","phone":"+33 4 67 56 50 09","source":"cadastre-dgi-fr source : Direction Générale des Impôts - Cadastre. Mise à jour : 2010","stars":"4","tents":"yes","website":"https://www.legarden.fr"}},"66771157":{"location":[43.5652994,4.0752932],"ct":"FR","tp":"CS","ts":"2021-03-14T13:18:59Z","tX":523,"tY":374,"tags":{"addr:city":"La Grande-Motte","addr:housenumber":"195","addr:postcode":"34280","addr:street":"Allée des Peupliers","capacity":"196","caravans":"yes","contact:phone":"+334 67 56 54 75","email":"contact@camping-lapetitemotte.com","fee":"yes","internet_access":"wlan","name":"Camping de la Petite Motte","source":"cadastre-dgi-fr source : Direction Générale des Impôts - Cadastre. Mise à jour : 2010","stars":"3","tents":"yes","website":"https://www.camping-lapetitemotte.com"}},"66771159":{"location":[43.5664294,4.0755157],"ct":"FR","tp":"CS","ts":"2021-03-14T13:18:59Z","tX":523,"tY":374,"tags":{"addr:city":"La Grande-Motte","addr:postcode":"34280","addr:street":"Allée des Pins","contact:email":"or@capfun.com","contact:phone":"+334 67 56 50 85","email":"or@capfun.com","fee":"yes","internet_access":"wlan","name":"Camping de l'Or","source":"cadastre-dgi-fr source : Direction Générale des Impôts - Cadastre. Mise à jour : 2010","website":"https://www.capfun.com/camping-france-languedoc_roussillon-or-FR.html"}},"85041627":{"location":[43.5365692,3.9549113],"ct":"FR","tp":"CS","ts":"2023-01-05T18:01:23Z","tX":523,"tY":374,"tags":{"contact:email":"info@domaine-saint-maurice.com","contact:phone":"+334 67 68 99 61","name":"Saint-Maurice","source":"cadastre-dgi-fr source : Direction Générale des Impôts - Cadastre. Mise à jour : 2010","stars":"3","website":"https://www.domaine-saint-maurice.com/index.html"}},"115716055":{"location":[43.5422312,4.1323043],"ct":"FR","tp":"CR","ts":"2024-11-19T12:01:56Z","tX":523,"tY":374,"tags":{"bbq":"no","capacity":"43","caravan_site":"motorhome_stopover","caravan_site:type":"beach","caravans":"no","charge":"17.32 EUR","charge:conditional":"14.42 EUR @ (Oct-Apr)","dog":"leashed","fee":"yes","internet_access":"wlan","maxlength":"none","name":"Aire du Grau-du-Roi","network":"CAMPING-CAR PARK","power_supply":"yes","power_supply:capacity":"44","power_supply:maxcurrent":"6","sanitary_dump_station":"yes","surface":"asphalt","tents":"no","toilets":"yes","trailer":"no","water_point":"yes","website":"https://www.campingcarpark.com/fr_FR/sejour/aire-etape-camping-car/occitanie/30-gard/le-grau-du-roi","wheelchair":"yes"}},"127908457":{"location":[43.5230435,4.1480105],"ct":"FR","tp":"CS","ts":"2017-10-13T15:07:19Z","tX":523,"tY":374,"tags":{"addr:street":"Route du phare de l'Espiquette","capacity":"277","contact:website":"http://www.abridecamargue.fr/","name":"L'Abri de Camargue","ref:CD30":"70","stars":"4"}},"142384095":{"location":[43.5187759,3.9088698],"ct":"FR","tp":"CS","ts":"2023-11-04T16:16:39Z","tX":523,"tY":374,"tags":{"access":"private","contact:phone":"+334 30 05 17 64","description":"fermé : début octobre - début avril","name":"Palavas Camping","operator":"Tahopi","stars":"4","website":"https://www.palavas-camping.fr/"}},"159070732":{"location":[43.5287988,3.8689322],"ct":"FR","tp":"CR","ts":"2024-08-31T13:35:01Z","tX":523,"tY":374,"tags":{"capacity":"36","caravan_site":"motorhome_stopover","caravan_site:type":"town","charge":"19 EUR","charge:conditional":"14 EUR@(Oct-Apr)","fee":"yes","name":"Aire de camping-car Villeneuve-les-Maguelone","opening_hours":"24/7","operator":"municipale","payment:carte_bleue":"yes","payment:mastercard":"yes","payment:visa":"yes","phone":"+33638816686","power_supply":"yes","sanitary_dump_station":"yes","surface":"asphalt","toilets":"yes","website":"https://www.villeneuvelesmaguelone.fr/mon-quotidien/accueil-camping-cars/"}},"367587406":{"location":[43.5470799,3.895345],"ct":"FR","tp":"CS","ts":"2021-05-05T08:18:41Z","tX":523,"tY":374,"tags":{"contact:website":"http://www.campinglecamarguais.com/","internet_access":"wlan","internet_access:fee":"no","name":"Le Camarguais","source":"survey 2015; bing 2015"}},"419318959":{"location":[43.5771414,3.9265447],"ct":"FR","tp":"CS","ts":"2024-08-20T09:47:58Z","tX":523,"tY":374,"tags":{"addr:city":"Lattes","addr:housenumber":"172","addr:postcode":"34970","addr:street":"Route de Mauguio","contact:email":"camping-le-parc@orange.fr","contact:phone":"+33 4 67 65 85 67","contact:website":"https://www.leparccamping.com/","name":"Le Parc","name:es":"El Parque","shower":"yes","stars":"3","toilets":"yes"}},"532294874":{"location":[43.505711,4.1396615],"ct":"FR","tp":"CS","ts":"2022-10-09T17:05:14Z","tX":523,"tY":374,"tags":{"addr:street":"Le Salonique","capacity":"148","caravans":"yes","contact:website":"http://www.yellohvillage.fr/camping/secrets_de_camargue","drinking_water":"yes","name":"Yelloh Village - Les Petits Camarguais - Quartier des Secrets","ref:CD30":"209","shower":"yes","stars":"5","tents":"yes"}},"534587097":{"location":[43.5620621,4.1655036],"ct":"FR","tp":"CR","ts":"2024-08-19T14:28:49Z","tX":523,"tY":374,"tags":{"addr:description":"Face au camping Petite Camargue","addr:street":"D62","capacity":"120","caravan_site":"motorhome_stopover","caravan_site:type":"lake","fee":"yes","name":"Aire de camping-car les Poissons d'Argent","ref:CD30":"247"}},"845990538":{"location":[43.5055423,4.1419755],"ct":"FR","tp":"CS","ts":"2022-10-09T16:33:33Z","tX":523,"tY":374,"tags":{"addr:street":"Le Salonique","capacity":"148","contact:website":"http://www.yellohvillage.fr/camping/secrets_de_camargue","name":"Yelloh Village - Les Petits Camarguais - Quartier de l’Aquabulle","ref:CD30":"209","stars":"5"}},"1045541373":{"location":[43.5366601,3.8716561],"ct":"FR","tp":"CS","ts":"2022-03-28T22:34:33Z","tX":523,"tY":374,"tags":{"email":"contact@domaine-de-l-arnel.com","name":"Domaine de l'Arnel","phone":"+33 4 67 69 33 65","stars":"2","website":"https://www.domaine-de-l-arnel.com"}},"1127525848":{"location":[43.5311479,3.9228393],"ct":"FR","tp":"CR","ts":"2024-11-11T17:10:02Z","tX":523,"tY":374,"tags":{"capacity":"130","caravan_site":"motorhome_stopover","caravan_site:type":"harbour","fee":"yes","motorhome":"designated","name":"Aire Paul-Riquet - Palavas-les-Flots","power_supply":"yes","shower":"yes","toilets":"yes","water_point":"yes","website":"https://www.ot-palavaslesflots.com/en/touristic_sheet/aire-de-camping-car-palavas-les-flots-en-3095230/"}},"3744224143":{"location":[43.5328909,3.9277429],"ct":"FR","tp":"SD","ts":"2015-09-15T14:39:59Z","tX":523,"tY":374,"tags":{"fixme":"verifier si payant et bien place","source":"bing 2015"}},"12115964366":{"location":[43.5735303,3.8925027],"ct":"FR","tp":"CR","ts":"2024-08-24T18:20:20Z","tX":523,"tY":374,"tags":{"capacity":"6","caravan_site":"motorhome_stopover","caravan_site:type":"countryside","charge":"22 EUR","dog":"yes","fee":"yes","laundry":"yes","name":"68Camp","power_supply":"yes","sanitary_dump_station":"yes","seasonal":"no","water_point":"yes"}},"12120377752":{"location":[43.5652257,4.1958855],"ct":"FR","tp":"CR","ts":"2024-10-08T17:29:01Z","tX":523,"tY":374,"tags":{"capacity":"150","caravan_site":"motorhome_stopover","caravan_site:type":"town;parking_lot","charge":"21 EUR","fee":"yes","name":"Aire Aigues-Mortes","sanitary_dump_station":"yes","water_point":"yes","website":"https://www.tourismegard.com/fr/fiche/hotellerie-plein-air/aire-de-services-et-de-repos-a-aigues-mortes-aigues-mortes_TFO6214705/"}},"5984286677":{"location":[43.5654136,4.1966095],"ct":"FR","tp":"SD","ts":"2018-10-15T01:21:58Z","tX":523,"tY":374,"tags":{"fee":"no","water_point":"yes"}},"12354142583":{"location":[43.5420309,4.1317083],"ct":"FR","tp":"SD","ts":"2024-11-19T12:01:56Z","tX":523,"tY":374,"tags":{"fee":"yes"}}}