{"155866493":{"location":[39.9192388,4.0889578],"ct":"ES","tp":"CS","ts":"2024-08-02T19:25:43Z","tX":523,"tY":387,"tags":{"access":"customers","addr:city":"Alaior","addr:milestone":"km. 3.5","addr:postcode":"07730","addr:street":"Carretera de Sant Jaume","cabins":"yes","caravans":"yes","name":"Camping Son Bou","operator":"Yelloh Village!","phone":"+34 971 372 727;+34 971 372 605","shower":"yes","tents":"yes","toilets":"yes","website":"https://www.campingsonbou.com/"}},"392811434":{"location":[39.9513308,3.9875333],"ct":"ES","tp":"CS","ts":"2016-01-22T17:29:15Z","tX":523,"tY":387,"tags":{"name":"CÃ mping s'Atalaia"}},"9917390719":{"location":[39.9850282,4.0924373],"ct":"ES","tp":"CR","ts":"2022-07-28T20:22:50Z","tX":523,"tY":387,"tags":{"addr:postcode":"07740","addr:street":"Carretera Me-18","fee":"yes","opening_hours":"24/7"}},"9917398217":{"location":[39.9877874,4.0255497],"ct":"ES","tp":"CR","ts":"2022-07-28T20:24:03Z","tX":523,"tY":387,"tags":{"addr:housenumber":"27","addr:postcode":"07750","addr:street":"Carrer dels Trencadors","opening_hours":"24/7"}}}