{"154319367":{"location":[60.4244606,22.0948998],"ct":"FI","tp":"CS","ts":"2025-03-23T06:55:53Z","tX":574,"tY":294,"tags":{"caravans":"yes","drinking_water":"yes","internet_access":"wlan","name":"Ruissalo Camping","power_supply":"yes","sanitary_dump_station":"yes","seasonal":"summer","shower":"yes","tents":"yes","toilets":"yes"}},"342298662":{"location":[60.4307036,21.9898288],"ct":"FI","tp":"CR","ts":"2018-10-03T20:29:15Z","tX":574,"tY":294,"tags":{"tents":"no"}},"607733819":{"location":[60.4202717,21.8338548],"ct":"FI","tp":"CS","ts":"2022-07-12T09:46:46Z","tX":574,"tY":294,"tags":{"addr:city":"Naantali","addr:housenumber":"66","addr:postcode":"21130","addr:street":"Vehotniementie","addr:suburb":"Poikko","description":"SFC Saloranta on lapsiystävällinen leirintäalue saaristossa.","internet_access":"yes","internet_access:fee":"yes","name":"Camping SFC Saloranta","operator":"SF-Caravan Naantali ry","power_supply":"yes","sanitary_dump_station":"yes","website":"https://sfcnaantali.fi/"}},"696243256":{"location":[60.423082,21.843145],"ct":"FI","tp":"CS","ts":"2022-07-12T09:46:46Z","tX":574,"tY":294,"tags":{"addr:city":"Naantali","addr:housenumber":"99","addr:postcode":"21130","addr:street":"Vehotniementie","building":"yes","description":"Leirialue ensisijaisesti lasten ja nuorten retkitoimintaa varten","name":"Nuorisoleirialue Saloranta","operator":"Naatalin kaupunki","source":"NLS.fi Topographic Database","website":"https://www.naantali.fi/fi/kulttuuri-ja-vapaa-aika/vuokrattavat-tilat-ja-liikuntapaikat/saloranta"}},"976064896":{"location":[60.4244007,22.0930361],"ct":"FI","tp":"CR","ts":"2025-03-23T06:55:53Z","tX":574,"tY":294,"tags":{"addr:city":"Turku","addr:postcode":"20100","addr:street":"Saarontie"}},"1181398309":{"location":[60.4621095,22.0264971],"ct":"FI","tp":"CS","ts":"2024-08-05T07:19:03Z","tX":574,"tY":294,"tags":{"access":"customers","addr:city":"Naantali","addr:housenumber":"20","addr:postcode":"21100","addr:street":"Kopenkatu","alt_name":"Naantalin leirintäalue","capacity:caravans":"55","caravans":"yes","description":"Kuparivuorella sijaitseva leirintäalue, jossa paikkoja matkailuajoneuvoille ja teltoille, sekä vuokramökkejä.","drinking_water":"yes","email":"camping@visitnaantali.com","fee":"yes","name":"Naantali Camping","phone":"+35824350855","power_supply":"yes","shower":"yes","tents":"yes","toilets":"yes","website":"https://visitnaantali.com/yritys/naantali-camping/"}},"10280929471":{"location":[60.4287013,22.1100885],"ct":"FI","tp":"CS","ts":"2022-12-22T18:30:49Z","tX":574,"tY":294,"tags":{"access":"private","addr:city":"Turku","addr:housenumber":"585","addr:postcode":"20100","addr:street":"Ruissalon puistotie","name":"Y-Hovi"}},"5774320255":{"location":[60.4199943,21.8322613],"ct":"FI","tp":"CR","ts":"2022-07-12T09:46:46Z","tX":574,"tY":294,"tags":{"addr:city":"Naantali","addr:housenumber":"66","addr:postcode":"21130","addr:street":"Vehotniementie","description":"Salorannan karavaanialue","fee":"yes","name":"Saloranta Caravan","operator":"SF-CARAVAN NAANTALI ry","power_supply":"yes","sanitary_dump_station":"yes"}},"6239417087":{"location":[60.459763,22.0333554],"ct":"FI","tp":"CR","ts":"2022-07-12T11:44:56Z","tX":574,"tY":294,"tags":{"addr:postcode":"21100","addr:street":"Satamatie"}},"9868119447":{"location":[60.4792418,22.0697039],"ct":"FI","tp":"CR","ts":"2022-07-05T12:01:44Z","tX":574,"tY":294,"tags":{"addr:city":"Naantali","addr:housenumber":"3","addr:postcode":"21110","addr:street":"Tammistontilankatu","description":"Matkaparkissa tilaa 5 ajoneuvolle.","name":"Tammiston Matkaparkki","name:en":"Tammisto Caravan","name:fi":"Tammiston Matkaparkki","website":"https://www.tammiston.com/yopyva/tammiston-matkaparkki/"}}}