{"1086233229":{"location":[60.2604229,22.1188223],"ct":"FI","tp":"CS","ts":"2022-08-14T15:55:26Z","tX":574,"tY":295,"tags":{}},"2377502021":{"location":[60.3315196,21.8967219],"ct":"FI","tp":"CS","ts":"2013-07-07T22:56:47Z","tX":574,"tY":295,"tags":{}},"2377502027":{"location":[60.3314235,21.8955643],"ct":"FI","tp":"CR","ts":"2013-07-07T22:56:47Z","tX":574,"tY":295,"tags":{}},"9439623112":{"location":[60.3809721,22.0166981],"ct":"FI","tp":"CS","ts":"2022-07-12T09:46:46Z","tX":574,"tY":295,"tags":{"addr:city":"Naantali","addr:housenumber":"211","addr:postcode":"21140","addr:street":"Peltolantie","description":"Meren rannalla sijaitseva leirialue, jossa rantakeitti√∂ ja 2 laituria","description:en":"Campground by the sea with a beack kitchen and 2 brews","name":"Vienolan leirialue","name:en":"Camping ground Vienola","name:fi":"Vienolan leirialue","operator":"Turun kaupunki","tents":"yes","website":"https://www.turku.fi/kulttuuri-ja-liikunta/ulkoilualueet/leirialueet/vienolan-leirialue-rymattyla"}}}