{"238957518":{"location":[58.3721195,21.8624445],"ct":"EE","tp":"CS","ts":"2023-05-18T11:22:12Z","tX":574,"tY":306,"tags":{"addr:city":"Vilsandi küla","addr:housename":"Sääre","addr:postcode":"93421","bbq":"yes","building":"yes","cabins":"yes","caravans":"no","maaamet:ETAK":"511128","name":"Vikati information hut","openfire":"yes","source":"Maa-amet 2013","source:addr":"Maa-amet 2019","tents":"yes","toilets":"yes","website":"https://loodusegakoos.ee/where-to-go/national-parks/vilsandi-national-park/vikati-information-hut-and-campfire-site"}},"1076759260":{"location":[58.4226615,22.075466],"ct":"EE","tp":"CS","ts":"2023-08-22T03:53:36Z","tX":574,"tY":306,"tags":{"backcountry":"yes","bbq":"yes","name":"Veere telkimisala","name:ru":"Место для ночлега Веере","openfire":"yes","operator":"RMK","shower":"no","source":"www.rmk.ee","tents":"yes","toilets":"yes","website":"https://loodusegakoos.ee/kuhuminna/puhkealad/saaremaa-puhkeala/1685"}},"3733593177":{"location":[58.4282475,22.0730115],"ct":"EE","tp":"CS","ts":"2023-08-22T03:53:36Z","tX":574,"tY":306,"tags":{"backcountry":"yes","bbq":"yes","name":"Veere telkimisala","name:en":"Veere camping place","name:ru":"Место для ночлега Веере","openfire":"yes","operator":"RMK","shower":"no","source":"www.rmk.ee","tents":"yes","toilets":"yes","website":"https://loodusegakoos.ee/kuhuminna/puhkealad/saaremaa-puhkeala/1685"}},"4552039427":{"location":[58.2902271,21.8460602],"ct":"EE","tp":"CS","ts":"2023-05-10T19:12:45Z","tX":574,"tY":306,"tags":{"backcountry":"yes","bbq":"yes","name":"Elda telkimisala","openfire":"yes","operator":"RMK","shower":"no","tents":"yes","toilets":"yes","website":"https://loodusegakoos.ee/kuhuminna/rahvuspargid/vilsandi-rahvuspark/elda-telkimisala"}},"5019338307":{"location":[58.3509801,21.9362064],"ct":"EE","tp":"CS","ts":"2023-05-11T19:40:40Z","tX":574,"tY":306,"tags":{"backcountry":"yes","name":"Käkisilma telkimisala","openfire":"yes","operator":"RMK","shower":"no","tents":"yes","toilets":"yes","website":"https://loodusegakoos.ee/kuhuminna/rahvuspargid/vilsandi-rahvuspark/9260"}},"5032027894":{"location":[58.4325607,22.069172],"ct":"EE","tp":"CS","ts":"2023-08-22T03:53:36Z","tX":574,"tY":306,"tags":{"backcountry":"yes","bbq":"yes","name":"Veere telkimisala","name:ru":"Место для ночлега Веере","openfire":"yes","operator":"RMK","shower":"no","source":"www.rmk.ee","tents":"yes","toilets":"yes","website":"https://loodusegakoos.ee/kuhuminna/puhkealad/saaremaa-puhkeala/1685"}},"10891369504":{"location":[58.373903,21.830967],"ct":"EE","tp":"CS","ts":"2023-05-12T16:38:05Z","tX":574,"tY":306,"tags":{"backcountry":"yes","bbq":"yes","name":"Kulpri telkimisala","openfire":"yes","operator":"RMK","shower":"no","tents":"yes","toilets":"yes","website":"https://loodusegakoos.ee/kuhuminna/rahvuspargid/vilsandi-rahvuspark/9267"}}}