{"417838379":{"location":[55.0717532,22.0430328],"ct":"LT","tp":"CS","ts":"2023-07-03T08:19:21Z","tX":574,"tY":323,"tags":{"backcountry":"yes","caravans":"no","description":"Patogu apsistoti vykstant automobiliais, dviračiais, vandens transportu, pėsčiomis. Yra automobilių stovėjimo aikštelė, dviračių stovai, pavėsinės, Iaužavietės, sūpynės, Iipynės ir kita. Galima statyti palapines nakvynei.","drinking_water":"no","fireplace":"yes","image":"https://saugoma.lt/uploads/objects/images/2021-09/516x319_crop/36.jpg","landuse":"meadow","name":"Rambyno poilsiavietė","official_name":"Bitėnų poilsiavietė","shower":"no","tents":"yes","website":"https://saugoma.lt/lt/objektai/objektai-bitenu-poilsiaviete"}},"8068352400":{"location":[55.0248548,22.1239998],"ct":"RU","tp":"CS","ts":"2024-02-13T22:42:33Z","tX":574,"tY":323,"tags":{"name":"Хутор старого пасечника"}},"8815914017":{"location":[55.0849979,21.8958043],"ct":"RU","tp":"CR","ts":"2024-04-02T13:09:46Z","tX":574,"tY":323,"tags":{"addr:housenumber":"14","addr:postcode":"238750","addr:street":"улица Гагарина","motorhome":"yes"}},"8815914117":{"location":[55.0860435,21.8928778],"ct":"RU","tp":"CR","ts":"2024-04-02T13:09:46Z","tX":574,"tY":323,"tags":{"addr:housenumber":"14","addr:postcode":"238750","addr:street":"улица Гагарина","motorhome":"yes"}}}