{"368871126":{"location":[37.308968,127.709115],"ct":"KR","tp":"CS","ts":"2019-01-06T16:54:20Z","tX":875,"tY":397,"tags":{"name":"강천야영장","name:en":"Gangcheon Camping Site","name:ko":"강천야영장","name:ko-Latn":"Gangcheonyayeongjang","ncat":"야영장","source":"http://kr.open.gugi.yahoo.com"}},"1202299998":{"location":[37.3112447,127.8004848],"ct":"KR","tp":"CS","ts":"2024-11-06T02:45:49Z","tX":875,"tY":397,"tags":{"addr:housenumber":"106","addr:postcode":"26360","addr:street":"취병로"}},"1254635149":{"location":[37.2133682,127.9456368],"ct":"KR","tp":"CS","ts":"2024-02-25T16:27:37Z","tX":875,"tY":397,"tags":{"name":"산상낙원캠핑펜션"}},"1291188705":{"location":[37.3672242,127.8192042],"ct":"KR","tp":"CS","ts":"2024-06-11T03:36:00Z","tX":875,"tY":397,"tags":{"name":"소금산그랜드밸리포레스트캠핑장"}},"1291188718":{"location":[37.3672267,127.821771],"ct":"KR","tp":"CS","ts":"2024-06-11T03:36:00Z","tX":875,"tY":397,"tags":{}},"1304748870":{"location":[37.3109934,127.7276489],"ct":"KR","tp":"CS","ts":"2024-07-31T00:47:36Z","tX":875,"tY":397,"tags":{"name":"여주학생야영장"}},"4196993727":{"location":[37.2517754,127.7555857],"ct":"KR","tp":"CS","ts":"2019-06-02T03:19:15Z","tX":875,"tY":397,"tags":{"name":"섬강 두꺼비 오토 캠핑장","name:ko":"섬강 두꺼비 오토 캠핑장"}},"4412558193":{"location":[37.2342747,127.6955569],"ct":"KR","tp":"CS","ts":"2019-12-05T20:52:49Z","tX":875,"tY":397,"tags":{"access":"yes","addr:city":"여주시 강천면 강천리","fee":"no","internet_access":"no","name":"강천섬 캠핑장","name:en":"Gangcheon-seom Island Camping Ground","name:ko":"강천섬 캠핑장","operator":"여주시"}},"9941828401":{"location":[37.3111138,127.8006551],"ct":"KR","tp":"CS","ts":"2022-08-09T07:21:48Z","tX":875,"tY":397,"tags":{"name":"달콤이네 캠핑장"}},"10692474599":{"location":[37.4399444,127.8926468],"ct":"KR","tp":"CS","ts":"2023-02-25T08:19:47Z","tX":875,"tY":397,"tags":{"access":"customers","addr:city":"강원 원주시","addr:housenumber":"513-17","addr:postcode":"220925","addr:street":"산현리","name":"두루뭉 캠핑장"}},"12243998061":{"location":[37.1666911,127.7581517],"ct":"KR","tp":"CS","ts":"2024-10-11T11:51:14Z","tX":875,"tY":397,"tags":{"description":"wild camping spot nearby the cycling lane and Han River : very quiet and access to undrinkable water","name":"Wild camping spot"}}}