{"4521085192":{"location":[-21.8737837,-57.1381475],"ct":"BR","tp":"CS","ts":"2016-11-25T17:24:54Z","tX":349,"tY":575,"tags":{"addr:street":"Marca RS","name":"FAZENDA SANTA TEREZINHA"}},"4521085193":{"location":[-21.9414681,-57.1497012],"ct":"BR","tp":"CS","ts":"2016-11-25T17:24:57Z","tX":349,"tY":575,"tags":{"name":"FAZENDA ENCANTO HP (Júnior)","name:pt":"FAZENDA ENCANTO HP (Júnior)"}},"4521085199":{"location":[-21.7283513,-56.9890204],"ct":"BR","tp":"CS","ts":"2016-11-25T17:25:33Z","tX":349,"tY":575,"tags":{"addr:street":"visitei com o Thiago","name":"RETIRO ÁGUA BRANCA E CURRALÃO"}},"4521109591":{"location":[-21.7273987,-57.0390264],"ct":"BR","tp":"CS","ts":"2016-11-25T17:25:34Z","tX":349,"tY":575,"tags":{"name":"FAZENDA JR (Marca JR)","name:pt":"FAZENDA JR (Marca JR)"}},"4521109592":{"location":[-21.7209463,-57.0441387],"ct":"BR","tp":"CS","ts":"2016-11-25T17:25:37Z","tX":349,"tY":575,"tags":{"name":"FAZENDA CERRO BOCAJA","name:pt":"FAZENDA CERRO BOCAJA"}},"4521110389":{"location":[-21.8311807,-57.1239102],"ct":"BR","tp":"CS","ts":"2016-11-25T17:24:50Z","tX":349,"tY":575,"tags":{"internet_access":"wlan","name":"FAZENDA RODOSERV IV","name:pt":"FAZENDA RODOSERV IV"}},"4521110392":{"location":[-21.9289001,-57.2543916],"ct":"BR","tp":"CS","ts":"2016-11-25T17:25:17Z","tX":349,"tY":575,"tags":{"addr:street":"EMILIO BARBOSA","name":"FAZENDA GUANABARA"}},"4521110394":{"location":[-21.7291678,-57.0906941],"ct":"BR","tp":"CS","ts":"2016-11-25T17:25:42Z","tX":349,"tY":575,"tags":{"name":"FAZENDA BACURI","name:pt":"FAZENDA BACURI"}},"4521111589":{"location":[-21.917589,-57.151665],"ct":"BR","tp":"CS","ts":"2016-11-25T17:24:55Z","tX":349,"tY":575,"tags":{"name":"FAZENDA JATOBA (caracol)","name:pt":"FAZENDA JATOBA (caracol)"}},"4521111593":{"location":[-21.721035,-57.0444],"ct":"BR","tp":"CS","ts":"2016-11-25T17:25:38Z","tX":349,"tY":575,"tags":{"name":"FAZENDA SANTO ANTÔNIO","name:pt":"FAZENDA SANTO ANTÔNIO"}},"4521111594":{"location":[-21.7196924,-57.0528152],"ct":"BR","tp":"CS","ts":"2016-11-25T17:25:39Z","tX":349,"tY":575,"tags":{"name":"FAZENDA LONA PORA","name:pt":"FAZENDA LONA PORA"}},"4521111595":{"location":[-21.726633,-57.077327],"ct":"BR","tp":"CS","ts":"2016-11-25T17:25:41Z","tX":349,"tY":575,"tags":{"name":"FAZENDA KANEKURA","name:pt":"FAZENDA KANEKURA"}}}