{"354398466":{"location":[-25.607291,-57.1643278],"ct":"PY","tp":"CS","ts":"2015-06-17T22:25:49Z","tX":349,"tY":587,"tags":{"internet_access":"no","name":"Cielo Verde","phone":"+595531432117","phone:alt":"+595991334499","smoking":"yes","wheelchair":"limited"}},"3601378622":{"location":[-25.6074123,-57.1646956],"ct":"PY","tp":"CS","ts":"2015-06-17T22:25:48Z","tX":349,"tY":587,"tags":{}},"4990615123":{"location":[-25.6067102,-57.1297663],"ct":"PY","tp":"CS","ts":"2017-07-24T16:53:34Z","tX":349,"tY":587,"tags":{"name":"Camping Cerro Hu","name:es":"Camping Cerro Hu"}},"9888661276":{"location":[-25.6142722,-57.0528366],"ct":"PY","tp":"CS","ts":"2022-11-07T00:18:43Z","tX":349,"tY":587,"tags":{"addr:city":"Mbokajaty","addr:postcode":"090603","addr:street":"Camino a Hugua","group_only":"yes","name":"Cabaña Don Benjamin","phone":"+595 981 293 192"}},"9938243630":{"location":[-25.6075066,-57.0711075],"ct":"PY","tp":"CS","ts":"2022-10-21T03:39:13Z","tX":349,"tY":587,"tags":{"name":"Exploradores. Católica de Sordos","name:ca":"Exploradors. Catòlica de Sords","name:de":"Entdecker. Gehörloser Katholik","name:el":"εξερευνητές. Κωφός Καθολικός","name:en":"Explorers. Deaf Catholic","name:es":"Exploradores. Católica de Sordos","name:fr":"Explorateurs. Catholique sourd","name:it":"Esploratori. Sordo cattolico","name:ja":"探検家。 カトリックろう者","name:ka":"მკვლევარები. ყრუ კათოლიკე","name:ko":"탐험가. 청각 장애인 가톨릭","name:la":"Exploratores. Surdus Catholic","name:lb":"Explorer. Daaf kathoulesch","name:nb":"Utforskere. Døv katolikk","name:nn":"Utforskere. Døv katolikk","name:no":"Utforskere. Døv katolikk","name:pt":"Exploradores. católico surdo","name:uk":"дослідники. Глухий католик","name:zh-Hant":"探險家。 聾啞天主教徒"}},"10962218905":{"location":[-25.5281749,-56.9655397],"ct":"PY","tp":"CS","ts":"2023-06-07T20:00:26Z","tX":349,"tY":587,"tags":{"name":"Piri","name:en":"piribebuy"}}}