{"68578575":{"location":[50.9968912,2.0488739],"ct":"FR","tp":"CS","ts":"2022-06-21T11:29:57Z","tX":517,"tY":342,"tags":{"name":"Camping Clairette","phone":"+33321358351","stars":"2","website":"http://www.campingclairette62.com/"}},"251468776":{"location":[50.9853453,2.0416038],"ct":"FR","tp":"CS","ts":"2023-05-28T21:38:29Z","tX":517,"tY":342,"tags":{"name":"Camping Bouscarel","phone":"+33 321367637","website":"https://campingbouscarel.site-solocal.com"}},"251468777":{"location":[50.9966011,2.046278],"ct":"FR","tp":"CS","ts":"2022-06-21T11:29:57Z","tX":517,"tY":342,"tags":{"addr:city":"Oye-Plage","addr:housenumber":"237","addr:postcode":"62215","addr:street":"Route des Dunes","caravans":"yes","internet_access":"wlan","name":"Camping du Casino","phone":"+33 3 21 85 83 05","stars":"2","static_caravans":"yes","tents":"yes","website":"https://campingducasino.fr/"}},"251468778":{"location":[50.9972252,2.0506478],"ct":"FR","tp":"CS","ts":"2023-05-27T11:09:40Z","tX":517,"tY":342,"tags":{"capacity":"15","caravans":"no","name":"Camping Les 4 Vents","permanent_camping":"only","phone":"+33 6 71 36 15 66","tents":"no"}},"251468780":{"location":[50.9925314,1.9971607],"ct":"FR","tp":"CS","ts":"2023-05-28T21:44:15Z","tX":517,"tY":342,"tags":{"name":"Camping Les Oyats","phone":"+33 3 21 85 15 40","stars":"3","website":"https://les-oyats.com"}},"251468781":{"location":[50.980833,2.0136275],"ct":"FR","tp":"CS","ts":"2013-12-12T10:17:09Z","tX":517,"tY":342,"tags":{"name":"Camping Les Petits Moulins"}},"251468782":{"location":[50.9929633,1.9998826],"ct":"FR","tp":"CS","ts":"2024-05-24T07:22:01Z","tX":517,"tY":342,"tags":{"addr:city":"Oye-Plage","addr:postcode":"62215","addr:street":"Impasse du GCU","alt_name":"GCU","capacity":"33","name":"GCU Oye-Plage","operator":"Groupement des Campeurs Universitaires","phone":"+33 3 21 35 80 00","sanitary_dump_station":"customers","website":"https://www.gcu.asso.fr/terrains/oye-plage-pas-de-calais-62"}},"251468783":{"location":[50.9880384,1.9860541],"ct":"FR","tp":"CS","ts":"2023-05-28T21:46:30Z","tX":517,"tY":342,"tags":{"name":"Les Argousiers","phone":"+33 3 21 35 32 78","stars":"2","website":"https://www.lesargousiers.com"}},"251540120":{"location":[50.9863083,2.0568494],"ct":"FR","tp":"CS","ts":"2024-06-26T21:03:13Z","tX":517,"tY":342,"tags":{"capacity":"30","name":"Les Tamaris","phone":"+33 3 21 85 87 07","stars":"1","website":"https://campingtamaris.e-monsite.com/"}},"251540121":{"location":[50.9671357,2.0529118],"ct":"FR","tp":"CS","ts":"2025-02-15T08:41:38Z","tX":517,"tY":342,"tags":{"addr:city":"Oye-Plage","bar":"no","big_rigs":"yes","camp_type":"established","capacity":"37","caravans":"yes","description":"Small, basic campsite close to the ferry crossings with mainly cottages for locals. Small restaurant open during weekends. 2 stars according to French rating system.","dish_washing":"yes","dryer":"no","fee":"EUR 16 (2 adults, camper)","fireplace":"no","general_room":"no","guarded":"no","hot_water":"yes","kitchen":"no","laundry":"yes","name":"Pont d'Oye","payment:credit_card":"no","pets":"yes","phone":"+33 621856525","picnic_benches":"no","power_supply":"yes","power_supply:voltage":"220","restaurant":"yes","shop":"no","shower":"yes","source":"Survey","stars":"2","swimming_pool":"no","tents":"yes","toilets:disposal":"flush","toilets:position":"sitting","washing_machine":"no","water:location":"central","water:quality":"potable","website":"http://www.campingdupontdoye.fr/"}},"288150064":{"location":[51.0031631,2.0968312],"ct":"FR","tp":"CS","ts":"2023-05-28T21:29:17Z","tX":517,"tY":342,"tags":{"caravans":"yes","drinking_water":"yes","name":"Camping de la Plage","phone":"+33 962 611 201","shower":"yes","stars":"3","tents":"yes","toilets":"yes","website":"https://www.campingdelaplage.site"}},"1009937546":{"location":[50.9834765,1.9713989],"ct":"FR","tp":"CS","ts":"2021-12-07T13:42:26Z","tX":517,"tY":342,"tags":{"name":"Camping Le Proven√ßal"}},"1009937564":{"location":[50.9863671,1.9694904],"ct":"FR","tp":"CS","ts":"2023-04-18T19:44:16Z","tX":517,"tY":342,"tags":{"caravans":"yes","name":"Camping La Plage","operator":"Nature & Vacances","phone":"+33 3 21 82 92 80","stars":"3","tents":"yes","website":"https://www.campingplage62.fr"}},"1081614136":{"location":[51.0025031,2.0977004],"ct":"FR","tp":"CR","ts":"2024-09-10T01:50:39Z","tX":517,"tY":342,"tags":{"capacity":"8","caravan_site":"motorhome_stopover","caravan_site:type":"beach","caravans":"no","fee":"no","internet_access":"no","maxstay":"72 hours","motorhome":"designated","name":"Aire de Camping-Car de Grand-Fort-Philippe","opening_hours":"24/7","power_supply":"no","sanitary_dump_station":"no","seasonal":"no","surface":"asphalt","tents":"no","toilets":"no","water_point":"no","wheelchair":"yes"}},"1315136013":{"location":[50.958849,1.8305491],"ct":"FR","tp":"CS","ts":"2024-09-12T17:34:48Z","tX":517,"tY":342,"tags":{"fee":"yes","internet_access":"terminal","name":"Le Grand Gravelot","phone":"+33 3 91 91 52 34","stars":"3","website":"https://www.camping.calais.fr/","wheelchair":"yes"}}}