{"38509227":{"location":[50.417745,1.9120323],"ct":"FR","tp":"CS","ts":"2024-05-31T16:55:38Z","tX":517,"tY":345,"tags":{"cabins":"yes","capacity":"116","caravans":"yes","email":"campingbeaurainville@orange.fr","internet_access":"wlan","motorhome":"yes","name":"Camping-caravaning Municipal de la Source","phone":"+33 6 80 32 17 25; +33 9 63 67 97 54","short_name":"De la Source","stars":"3","static_caravans":"yes","tents":"yes","website":"https://www.campingdelasource-beaurainville.fr/"}},"373393823":{"location":[50.3993192,1.7593729],"ct":"FR","tp":"CS","ts":"2023-02-08T08:41:57Z","tX":517,"tY":345,"tags":{"capacity":"118","name":"Camping des Carrières","phone":"+33 321811966","stars":"2","website":"https://campingdescarrieres.fr/"}},"385135197":{"location":[50.4330702,1.8755259],"ct":"FR","tp":"CS","ts":"2023-02-08T09:51:09Z","tX":517,"tY":345,"tags":{"capacity":"84","capacity:tents":"22","email":"leclairvignon@orange.fr","name":"Le Clair Vignon","phone":"+33 3 21 81 42 26","stars":"2","tents":"yes","website":"https://leclairvignon.com/"}},"450195924":{"location":[50.4400138,1.8480876],"ct":"FR","tp":"CS","ts":"2023-02-08T09:40:54Z","tX":517,"tY":345,"tags":{"addr:city":"Brimeux","addr:country":"FR","addr:postcode":"62170","addr:street":"Allée des Étangs","capacity":"66","capacity:tents":"3","name":"Camping Municipal des Aulnaies","phone":"+33 321860600","stars":"1","tents":"yes"}},"450550327":{"location":[50.4417241,1.8743068],"ct":"FR","tp":"CS","ts":"2023-02-08T09:23:43Z","tX":517,"tY":345,"tags":{"addr:city":"Marenla","addr:country":"FR","addr:housenumber":"389","addr:postcode":"62990","addr:street":"Rue de Beaurainville","capacity":"50","name":"Camping Manon des Sources","phone":"+33 321815066","stars":"2","website":"https://www.valleesdopale.com/fr/offre-touristique/12734-camping-manon-sources/"}},"450831987":{"location":[50.3844089,2.0010908],"ct":"FR","tp":"CS","ts":"2020-05-13T16:50:24Z","tX":517,"tY":345,"tags":{"addr:city":"Bouin-Plumoison","addr:country":"FR","addr:postcode":"62140","addr:street":"Rue de la Vieille Canche","name":"Camping municipal - Les peupliers","stars":"1","website":"https://www.7valleesternoistourisme.com/fr/offre-touristique/12708-camping-municipal-peupliers/"}},"463932421":{"location":[50.4197511,2.0113222],"ct":"FR","tp":"CS","ts":"2023-02-09T16:12:49Z","tX":517,"tY":345,"tags":{"capacity":"45","name":"Camping Le Manoir","stars":"2"}},"536914953":{"location":[50.3950024,1.9750392],"ct":"FR","tp":"CS","ts":"2023-02-09T16:25:52Z","tX":517,"tY":345,"tags":{"capacity":"135","email":"commune.aubinstvaast@orange.fr","name":"Camping Municipal de la Canche","phone":"+33 321869898","stars":"2","website":"https://aubinsaintvaast.fr/hebergement/camping/"}},"541614771":{"location":[50.468295,1.762167],"ct":"FR","tp":"CS","ts":"2024-09-20T09:52:57Z","tX":517,"tY":345,"tags":{"capacity":"76","capacity:tents":"48","internet_access":"wlan","name":"Camping La Fontaine des Clercs","phone":"+33 321060728","stars":"2","tents":"yes","website":"https://campinglafontainedesclercs.ellohaweb.com/","wifi":"yes"}},"555549356":{"location":[50.3104541,1.8974403],"ct":"FR","tp":"CS","ts":"2021-11-24T11:13:59Z","tX":517,"tY":345,"tags":{"name":"Camping des Etangs de Dompierre","phone":"+33 322235090","ref:FR:SIRET":"45398488200010","source":"INSEE - 2021-11","website":"https://www.facebook.com/Camping-Des-Etangs-Dompierre-108582803148638/"}},"612905021":{"location":[50.4630096,1.9510953],"ct":"FR","tp":"CS","ts":"2024-05-27T08:56:29Z","tX":517,"tY":345,"tags":{"addr:street":"rue de la Sentinelle Perdue","camp_site":"basic","capacity":"10","name":"La Halte d'Autrefois","phone":"+33 3 21 81 97 14","reservation":"required","tents":"yes","website":"https://catalogue.accueil-paysan.com/fr/catalog/structure/349/"}},"652040499":{"location":[50.4936104,1.9647771],"ct":"FR","tp":"CR","ts":"2024-10-22T11:43:23Z","tX":517,"tY":345,"tags":{"capacity":"8","caravan_site":"motorhome_stopover","caravan_site:type":"village","caravans":"no","name":"Aire de camping-car du Patis","power_supply":"yes","sanitary_dump_station":"yes","seasonal":"no","tents":"no","website":"https://www.tourisme-en-hautsdefrance.com/offres/aire-de-camping-cars-du-patis-hesmond-fr-3392488/"}},"743814608":{"location":[50.3810189,2.0582914],"ct":"FR","tp":"CS","ts":"2024-05-15T14:57:58Z","tX":517,"tY":345,"tags":{"capacity":"50","caravans":"yes","name":"Camping municipal Le Vert Bocage","phone":"+33 3 21816922","tents":"yes"}},"785101947":{"location":[50.3147631,1.8999833],"ct":"FR","tp":"CS","ts":"2024-03-16T18:25:43Z","tX":517,"tY":345,"tags":{"capacity":"199","email":"contact@campingdumolinel.fr","internet_access":"wlan","maxtents":"30","name":"Camping du Molinel","phone":"+33 321065001","stars":"3","website":"https://www.campingdumolinel.fr/"}},"802692091":{"location":[50.4053354,1.9442314],"ct":"FR","tp":"CS","ts":"2024-02-04T19:10:37Z","tX":517,"tY":345,"tags":{"caravans":"yes","name":"Domaine Verte Vallée","ref:FR:SIRET":"82031007600014","stars":"2","tents":"yes","website":"https://www.domainevertevallee.com/"}},"803103981":{"location":[50.4078838,1.9547636],"ct":"FR","tp":"CS","ts":"2023-02-09T16:36:28Z","tX":517,"tY":345,"tags":{"capacity":"115","name":"camping Municipal des Etangs","phone":"+33 321068610"}},"942224025":{"location":[50.2932784,1.818531],"ct":"FR","tp":"CS","ts":"2024-05-15T14:47:24Z","tX":517,"tY":345,"tags":{"capacity":"64","capacity:tents":"22","caravans":"yes","fee":"yes","name":"Les Peupliers","phone":"+33  3 22 23 54 27","stars":"2","tents":"yes","website":"https://campingpeupliers.fr/index.html"}},"1005835832":{"location":[50.3614964,2.0675151],"ct":"FR","tp":"CS","ts":"2022-11-20T13:30:21Z","tX":517,"tY":345,"tags":{"internet_access":"wlan","name":"Camping de la Route Fleurie","phone":"+33 658866487","website":"https://www.campingdelaroutefleurie.com/"}},"1022712865":{"location":[50.349739,1.8395827],"ct":"FR","tp":"CS","ts":"2022-10-20T19:44:53Z","tX":517,"tY":345,"tags":{"capacity":"40","name":"Camping municipal du Gardon","phone":"+33 3 21 81 34 80","website":"https://www.valleesdopale.com/fr/offre-touristique/12752-camping-municipal-gardon/"}},"1022712867":{"location":[50.3487176,1.8550565],"ct":"FR","tp":"CS","ts":"2023-02-14T16:16:06Z","tX":517,"tY":345,"tags":{"name":"Camping Saint-Martin","phone":"+33 3 21 90 38 66"}},"1022712868":{"location":[50.3447928,1.854364],"ct":"FR","tp":"CS","ts":"2023-02-14T16:16:06Z","tX":517,"tY":345,"tags":{"capacity":"88","name":"Camping du Colombier","stars":"3","website":"https://campingducolombier.business.site/"}},"1106278353":{"location":[50.3310859,1.8605078],"ct":"FR","tp":"CS","ts":"2023-02-14T16:07:22Z","tX":517,"tY":345,"tags":{"capacity":"97","name":"Camping Municipal Le Marais","phone":"+33 3 22 29 92 82","source":"cadastre-dgi-fr source : Direction Générale des Impôts - Cadastre. Mise à jour : 2011","stars":"2","website":"https://www.somme-tourisme.com/le-marais/dominois/hpapic0800010499"}},"1289565602":{"location":[50.3087472,1.897278],"ct":"FR","tp":"CS","ts":"2024-06-05T05:59:31Z","tX":517,"tY":345,"tags":{"capacity":"136","name":"Camping municipal du Hamel","stars":"1"}},"1315184931":{"location":[50.4591937,1.7599442],"ct":"FR","tp":"CR","ts":"2024-09-12T19:42:19Z","tX":517,"tY":345,"tags":{"capacity":"8","caravan_site":"motorhome_stopover","caravan_site:type":"village","fee":"no","name":"Aire de camping-cars de Montreuil-sur-Mer","power_supply":"yes","sanitary_dump_station":"yes","water_point":"yes","website":"https://www.destinationmontreuilloisencotedopale.com/camping/aire-de-camping-cars/"}},"6113645896":{"location":[50.493697,1.96458],"ct":"FR","tp":"SD","ts":"2018-12-03T17:58:31Z","tX":517,"tY":345,"tags":{"sanitary_dump_station:basin":"yes"}}}