{"240714491":{"location":[50.2345328,2.1070675],"ct":"FR","tp":"CS","ts":"2024-02-10T17:28:10Z","tX":517,"tY":346,"tags":{"addr:city":"Auxi-le-Château","addr:housenumber":"22","addr:postcode":"62390","addr:street":"Rue du Cheval","caravans":"yes","fee":"yes","name":"Les Peupliers de l'Authie","source":"cadastre-dgi-fr source : Direction Générale des Impôts - Cadastre. Mise à jour : 2013","tents":"yes","website":"https://auxicamping.fr/"}},"256068308":{"location":[50.2718522,2.018702],"ct":"FR","tp":"CS","ts":"2022-10-15T11:08:33Z","tX":517,"tY":346,"tags":{"capacity":"197","email":"campingduvaldauthie@orange.fr","name":"Camping du Val d'Authie","phone":"+33 3 21 47 14 27","website":"https://campingduvaldauthie.fr/"}},"513698005":{"location":[50.0802979,1.8226981],"ct":"FR","tp":"CS","ts":"2024-05-08T20:38:58Z","tX":517,"tY":346,"tags":{"addr:street":"Rue du Marais Talsac","caravans":"yes","fee":"yes","internet_access":"no","motorhome":"yes","name":"Les Portes de la Baie de Somme","phone":"+33 3 22 31 85 47","tents":"yes","website":"https://campinglesportesdelabaiedesomme.odoo.com/"}},"815442259":{"location":[50.1414821,1.7648434],"ct":"FR","tp":"CS","ts":"2023-04-23T18:33:56Z","tX":517,"tY":346,"tags":{"cabins":"yes","caravans":"yes","email":"contact@chateaudestilleuls.com","motorhome":"yes","name":"Camping Château des Tilleuls","phone":"+33 3 22 24 07 75","shower":"yes","stars":"3","tents":"yes","toilets":"yes","website":"https://www.chateaudestilleuls.com"}},"841712772":{"location":[50.276253,1.9952255],"ct":"FR","tp":"CS","ts":"2024-05-13T12:35:00Z","tX":517,"tY":346,"tags":{"capacity":"103","name":"Camping municipale La Sapinière","phone":"+33 3 21 86 94 79"}},"11978956669":{"location":[50.1403246,1.7644882],"ct":"FR","tp":"CS","ts":"2024-06-13T18:43:27Z","tX":517,"tY":346,"tags":{}}}