{"128454077":{"location":[48.6266475,1.8465677],"ct":"FR","tp":"CS","ts":"2023-11-01T23:10:39Z","tX":517,"tY":353,"tags":{"barrier":"fence","caravans":"yes","name":"Camping Huttopia Rambouillet","source":"knowledge","tents":"yes","website":"https://europe.huttopia.com/site/camping-rambouillet/"}},"130447262":{"location":[48.5264251,2.0267417],"ct":"FR","tp":"CS","ts":"2016-03-26T09:35:08Z","tX":517,"tY":353,"tags":{"name":"Les Petits Prés"}},"1351141213":{"location":[48.5684322,1.9317864],"ct":"FR","tp":"CS","ts":"2011-07-06T09:46:43Z","tX":517,"tY":353,"tags":{}},"6739907195":{"location":[48.6766508,1.9723149],"ct":"FR","tp":"CS","ts":"2020-03-20T14:54:39Z","tX":517,"tY":353,"tags":{"caravans":"no","contact:street":"Rue de la Ferme","description":"Camping dans une acienne ferme.","name":"Le Bois Boisseau","phone":"+33 689181795","website":"https://www.cernayvacances.com/en/rentals/camping-a-la-ferme/"}},"7577775374":{"location":[48.6764835,1.9720962],"ct":"FR","tp":"CS","ts":"2020-06-21T13:15:26Z","tX":517,"tY":353,"tags":{"addr:housenumber":"37","addr:street":"Rue de la Ferme","name":"Cernay Vacances","phone":"+33 134852123","website":"http://www.cernayvacances.com"}},"11176846612":{"location":[48.6649534,1.8965865],"ct":"FR","tp":"CS","ts":"2023-09-10T06:21:35Z","tX":517,"tY":353,"tags":{"addr:city":"Auffargis","addr:place":"La Petite Hougue","addr:postcode":"78610","email":"jbgalloo@les4etoiles.net","mobile":"+33 6 20 04 37 54","name":"La ferme des 4 étoiles","phone":"+33 9 82 54 14 69","website":"http://les4etoiles.free.fr/"}}}