{"42031859":{"location":[46.5678468,1.9986776],"ct":"FR","tp":"CS","ts":"2024-04-12T11:54:26Z","tX":517,"tY":361,"tags":{"caravans":"yes","name":"Val Vert en Berry","tents":"yes"}},"372863256":{"location":[46.600976,1.9771148],"ct":"FR","tp":"CS","ts":"2023-07-17T21:32:13Z","tX":517,"tY":361,"tags":{"addr:city":"Montgivray","addr:housenumber":"2","addr:postcode":"36400","addr:street":"Place de Verdun","capacity:persons":"70","caravans":"yes","contact:phone":"+33 9 67 70 15 58","fee":"yes","name":"Solange Sand","operator":"Municipal","payment:cash":"yes","payment:credit_cards":"yes","shower":"yes","source":"cadastre-dgi-fr source : Direction Générale des Impôts - Cadastre. Mise à jour : 2015","stars":"2","static_caravans":"no","tents":"yes","toilets":"yes"}},"727218699":{"location":[46.7182861,1.9637463],"ct":"FR","tp":"CS","ts":"2025-04-13T13:45:56Z","tX":517,"tY":361,"tags":{"access":"customers","addr:city":"Saint-Août","addr:postcode":"36120","addr:street":"La Braudière","caravans":"yes","internet_access":"yes","name":"Fermette de la Haye","operator":"Hendrik Smits","phone":"+33254367905; +33633427960","shower":"yes","tents":"yes","toilets":"yes","website":"https://www.fermettedelahaye.com/"}},"771853980":{"location":[46.6548813,1.9749322],"ct":"FR","tp":"CS","ts":"2020-02-12T10:25:29Z","tX":517,"tY":361,"tags":{"internet_access":"no","internet_access:fee":"no","name":"Camping de Saint-Chartier","smoking":"yes","stars":"1","wheelchair":"yes"}},"816855022":{"location":[46.5818925,1.9832133],"ct":"FR","tp":"CR","ts":"2025-04-17T16:10:00Z","tX":517,"tY":361,"tags":{"capacity":"8","caravan_site":"motorhome_stopover","caravan_site:type":"town","drinking_water":"yes","fee":"no","internet_access":"no","name":"La Châtre - Aire Réservée Aux Camping-car","power_supply":"yes","sanitary_dump_station":"yes","toilets":"yes","website":"https://www.loirevalley-france.co.uk/aire-camping-car/aire-de-service-et-aire-de-stationnement-pour-camping-cars/","wheelchair":"yes"}},"836716479":{"location":[46.5919233,1.798449],"ct":"FR","tp":"CS","ts":"2024-11-13T23:29:43Z","tX":517,"tY":361,"tags":{"caravans":"yes","name":"Camping municipal Les Frênes","source":"data.gouv.fr:DATAtourisme - 05/2020","stars":"2","tents":"yes","website":"https://campingneuvy.pagesperso-orange.fr","wheelchair":"yes"}},"1286842269":{"location":[46.657723,1.8830716],"ct":"FR","tp":"CR","ts":"2024-05-26T15:49:09Z","tX":517,"tY":361,"tags":{"addr:city":"Mers-sur-Indre","addr:postcode":"36230","addr:street":"Route de Saint-Sylvain","caravan_site":"motorhome_stopover","caravan_site:type":"village","caravans":"no","fee":"yes","name":"Mers-sur-Indre","operator":"Flot Bleu","power_supply":"yes","sanitary_dump_station":"yes","seasonal":"no","tents":"no","water_point":"yes","website":"https://flotbleu.com/indre/aire-de-service/206"}},"11148588513":{"location":[46.5977016,1.8105279],"ct":"FR","tp":"CS","ts":"2023-08-27T17:04:53Z","tX":517,"tY":361,"tags":{"name":"Ancienne Aire De Camping"}},"6201601478":{"location":[46.5822209,2.001387],"ct":"FR","tp":"SD","ts":"2025-04-24T13:44:46Z","tX":517,"tY":361,"tags":{"access":"yes","fee":"yes","operator":"Super U - La Châtre","water_point":"yes"}},"11898200859":{"location":[46.5818439,1.9833578],"ct":"FR","tp":"SD","ts":"2025-04-17T15:49:51Z","tX":517,"tY":361,"tags":{"fee":"yes","sanitary_dump_station:round_drain":"yes"}}}