{"183977763":{"location":[45.7925906,1.9038196],"ct":"FR","tp":"CS","ts":"2024-08-15T01:18:15Z","tX":517,"tY":365,"tags":{"addr:city":"Royère-de-Vassivière","addr:hamlet":"Broussas","addr:postcode":"23460","caravans":"yes","contact:email":"lapresquilecamping@gmail.com","contact:phone":"+33 5 55 64 78 98","drinking_water":"yes","name":"La Presqu'ile","power_supply":"yes","shower":"yes","stars":"2","tents":"yes","toilets":"yes","website":"https://campings-vassiviere.com/"}},"220454522":{"location":[45.7881415,1.8992224],"ct":"FR","tp":"CS","ts":"2024-08-15T01:28:44Z","tX":517,"tY":365,"tags":{"addr:city":"Royère de Vassivière","addr:postcode":"23460","addr:street":"Vauveix","email":"lesterrassesdulac.camping@gmail.com","name":"Les Terrasses du Lac","phone":"05 55 64 76 77","website":"https://www.camping-vassiviere.fr"}},"233976493":{"location":[45.7864108,1.8695541],"ct":"FR","tp":"CR","ts":"2024-08-14T09:22:39Z","tX":517,"tY":365,"tags":{"capacity":"30","caravan_site":"motorhome_stopover","caravan_site:type":"lake","fee":"no","name":"Aire d'accueil de Chateaucourt","power_supply":"yes","seasonal":"yes","wheelchair":"yes"}},"597092591":{"location":[45.6062141,1.925842],"ct":"FR","tp":"CS","ts":"2023-10-28T07:41:59Z","tX":517,"tY":365,"tags":{"access":"private","addr:city":"Bugeat","addr:housenumber":"16","addr:postcode":"19170","addr:street":"Rue des Trois Ponts","capacity":"80","internet_access":"wlan","name":"Aux Portes des Mille Sources","phone":"+33 5 55 94 32 12","source":"Le ministère de la ville, de la jeunesse et des sports - 01/2018","stars":"3","surface":"concrete","website":"https://www.camping-en-correze.com/"}},"1056763026":{"location":[45.6423619,1.8254346],"ct":"FR","tp":"CS","ts":"2024-05-09T11:44:19Z","tX":517,"tY":365,"tags":{"caravan_site":"motorhome_stopover","caravans":"yes","email":"mairie-lacelle@orange.fr","fee":"no","motorhome":"yes","name":"Camping municipal de Lacelle","operator":"Mairie de Lacelle","phone":"+33 5 55 46 03 84","power_supply":"yes","power_supply:charge":"8 EUR","power_supply:fee":"yes","shower":"yes","shower:charge":"4 EUR","tents":"yes","website":"http://lacelle-correze.fr/activites/"}},"1221524477":{"location":[45.8102627,1.8973816],"ct":"FR","tp":"CS","ts":"2024-08-15T01:44:56Z","tX":517,"tY":365,"tags":{"addr:city":"Royère-de-Vassivière","addr:postcode":"23460","addr:street":"D3A2","caravans":"yes","fee":"yes","mobile":"06 85 16 29 22","name":"Bois et Nature","static_caravans":"yes","tents":"yes","website":"https://www.campingboisetnature.com"}},"1281151696":{"location":[45.6787233,1.9382158],"ct":"FR","tp":"CR","ts":"2024-05-09T12:19:32Z","tX":517,"tY":365,"tags":{"capacity":"5","caravan_site":"motorhome_stopover","caravan_site:type":"camp_site;lake","dog":"leashed","fee":"no","name":"Aire de camping-cars du camping de Tarnac","sanitary_dump_station":"yes","seasonal":"no","surface":"asphalt","tents":"no","water_point":"yes","website":"https://www.tourismecorreze.com/en/tourisme_detail/aire_d_accueil_de_camping-cars_du_camping_de_tarnac.html"}},"1281151697":{"location":[45.6778062,1.9368777],"ct":"FR","tp":"CS","ts":"2024-05-09T12:19:32Z","tX":517,"tY":365,"tags":{"addr:city":"Tarnac","addr:postcode":"19170","addr:street":"Rue de l'Enclose","name":"Camping Municipal de l'Enclose"}},"1282880847":{"location":[45.7004304,2.0400232],"ct":"FR","tp":"CS","ts":"2024-08-15T02:44:24Z","tX":517,"tY":365,"tags":{"addr:city":"Peyrelevade","addr:housenumber":"19","addr:postcode":"19290","addr:street":"route du Gué","email":"peyrelevadecamping@gmail.com","mobile":"07 50 75 99 76","name":"Camping municipal","website":"https://www.peyrelevade.fr/camping_fr.html"}},"1306696390":{"location":[45.8058481,1.841907],"ct":"FR","tp":"CR","ts":"2024-08-09T23:30:31Z","tX":517,"tY":365,"tags":{"capacity":"90","caravan_site":"motorhome_stopover","caravan_site:type":"lake","charge":"16 EUR","ele":"652","fee":"yes","name":"Aire d'accueil camping-car d'Auphelle","power_supply":"yes","power_supply:fee":"yes","sanitary_dump_station":"yes","seasonal":"yes","surface":"grass","water_point":"yes","water_point:fee":"yes","website":"https://www.tourisme-creuse.com/en/offers/aire-daccueil-camping-car-dauphelle-peyrat-le-chateau-peyrat-le-chateau-en-3494313/"}},"1307688296":{"location":[45.7774394,1.867969],"ct":"FR","tp":"PK","ts":"2024-08-14T09:49:29Z","tX":517,"tY":365,"tags":{"motorhome":"yes","motorhome:overnight":"yes"}},"1308049186":{"location":[45.6349097,2.0367703],"ct":"FR","tp":"CR","ts":"2024-08-15T23:39:07Z","tX":517,"tY":365,"tags":{"capacity":"10","caravan_site":"motorhome_stopover","caravan_site:type":"countryside","charge":"5 EUR","fee":"yes","name":"Aire de camping-cars de Saint Merd les Oussines","sanitary_dump_station":"yes","sanitary_dump_station:chemical_toilet":"yes","sanitary_dump_station:grey_water":"yes","water_point":"yes","water_point:fee":"yes","website":"https://www.tourismecorreze.com/en/tourisme_detail/aire_d_accueil_de_camping-cars_de_saint_merd_les_oussines.html"}},"1872642061":{"location":[45.7939586,1.9077396],"ct":"FR","tp":"CS","ts":"2024-05-11T07:03:20Z","tX":517,"tY":365,"tags":{"addr:city":"Faux-la-Montagne","addr:postcode":"23340","addr:street":"Broussas de Maulde","email":"broussasvillage@gmail.com","name":"Camping les Pitouilles - Centre de vacances de Broussas","phone":"+33 5 55 67 98 01","phone:mobile":"+33 7 87 84 13 80","website":"https://www.camping-vassiviere.com/"}},"2066210570":{"location":[45.7508116,1.9367854],"ct":"FR","tp":"CS","ts":"2024-08-15T02:18:59Z","tX":517,"tY":365,"tags":{"addr:city":"Faux-la-Montagne","email":"binhata@fauxlamontagne.fr","mobile":"06 45 53 60 19","name":"Camping du Puy de Faux","phone":"05 55 67 93 04","website":"https://fauxlamontagne.fr/camping"}},"2095513905":{"location":[45.6066254,1.8838392],"ct":"FR","tp":"CS","ts":"2024-08-15T02:56:45Z","tX":517,"tY":365,"tags":{"access":"customers","addr:city":"VIAM","addr:housenumber":"6","addr:postcode":"19170","addr:street":"Rue de la Plage","caravans":"yes","email":"campingdulac.viam@gmail.com","fee":"yes","mobile":"09 77 63 76 91","name":"Camping du Lac","source":"survey","static_caravans":"yes","tents":"yes","website":"https://www.camping-viam.fr"}},"2832436186":{"location":[45.7999689,1.842979],"ct":"FR","tp":"CS","ts":"2020-10-26T10:18:24Z","tX":517,"tY":365,"tags":{"name":"Camping Lac de Vassivière"}},"4129710371":{"location":[45.8255052,1.7655703],"ct":"FR","tp":"CS","ts":"2016-04-18T06:57:15Z","tX":517,"tY":365,"tags":{"name":"Le Moulin de l'Eau"}},"5193693466":{"location":[45.7195127,1.8252316],"ct":"FR","tp":"CS","ts":"2017-10-27T10:21:31Z","tX":517,"tY":365,"tags":{}},"7809888495":{"location":[45.8050446,1.8436795],"ct":"FR","tp":"CS","ts":"2024-08-15T01:59:43Z","tX":517,"tY":365,"tags":{"addr:city":"PEYRAT-LE-CHATEAU","addr:postcode":"87470","addr:street":"Auphelle","email":"les2iles.camping@gmail.com","name":"Camping Les Deux Îles","phone":"+33 5 55 35 60 81","stars":"3","website":"https://campingles2iles.fr"}},"11989794169":{"location":[45.6426531,2.0962368],"ct":"FR","tp":"CS","ts":"2024-09-28T15:07:32Z","tX":517,"tY":365,"tags":{"addr:housenumber":"7","addr:postcode":"19290","addr:street":"Route d'Aubusson","caravans":"no","name":"Aire de bivouac de la maison du parc","opening_hours":"24/7","tents":"yes","website":"https://www.pnr-millevaches.fr/Le-bivouac"}},"10223834149":{"location":[45.5857863,1.98385],"ct":"FR","tp":"CR","ts":"2024-10-02T18:51:44Z","tX":517,"tY":365,"tags":{"addr:city":"Pérols-sur-Vézère","addr:postcode":"19160","capacity":"20","caravan_site":"motorhome_stopover","caravan_site:type":"village","fee":"no","name":"Air de Camping-Car de Pérols-sur-Vézère","opening_hours":"Apr-Oct","power_supply":"no","sanitary_dump_station":"yes","services:charge":"2 EUR","services:fee":"+33 4 44 052158","water_point":"yes","website":"https://www.tourismecorreze.com/fr/tourisme_detail/aire_d_accueil_de_camping-cars_de_perols_sur_vezere.html"}},"7936937343":{"location":[45.5857985,1.9835115],"ct":"FR","tp":"SD","ts":"2020-09-24T08:39:58Z","tX":517,"tY":365,"tags":{"operator":"mairie"}},"9055493025":{"location":[45.6050984,1.9243553],"ct":"FR","tp":"SD","ts":"2021-09-02T08:09:40Z","tX":517,"tY":365,"tags":{}},"11891287357":{"location":[45.678736,1.9381253],"ct":"FR","tp":"SD","ts":"2024-05-09T12:19:32Z","tX":517,"tY":365,"tags":{"access":"yes"}},"12101536054":{"location":[45.8054499,1.8424952],"ct":"FR","tp":"SD","ts":"2024-08-09T23:28:36Z","tX":517,"tY":365,"tags":{}}}