{"171704856":{"location":[44.3418644,2.0274388],"ct":"FR","tp":"CR","ts":"2024-07-02T10:21:27Z","tX":517,"tY":370,"tags":{"caravan_site":"motorhome_stopover","caravan_site:type":"camp_site","charge":"12.60 EUR","fee":"yes","name":"Camping du Rouergue","network":"Onlypark","network:website":"https://www.onlypark.fr/aire-camping-car-villefranche-du-rouergue/","power_supply":"yes","sanitary_dump_station":"no","seasonal":"yes","website":"https://www.campingdurouergue.com/"}},"293103293":{"location":[44.5727582,2.0723016],"ct":"FR","tp":"CR","ts":"2025-03-15T12:53:40Z","tX":517,"tY":370,"tags":{"addr:city":"Capdenac-Gare","addr:postcode":"12700","addr:street":"Boulevard Paul Ramadier","bar":"yes","caravan_site":"motorhome_stopover","caravan_site:type":"river","caravans":"yes","charge":"17 EUR","charge:conditional":"15 EUR @ (Apr-Oct)","dog":"yes","dog:charge":"5 EUR","dog:fee":"yes","email":"contact@capdenacgare.fr","fee":"yes","internet_access":"wlan","name":"Les Portes du Pays de Figeac","old_name":"Camping municipal","opening_hours":"24/7","phone":"+33 5 65 43 20 53","power_supply":"yes","power_supply:charge":"2 EUR","sanitary_dump_station":"yes","sanitary_dump_station:charge":"4 EUR","sanitary_dump_station:fee":"asphalt","seasonal":"no","tents":"yes","toilets":"yes","water_point":"yes","website":"https://www.tourisme-aveyron.com/fr/diffusio/activites/aire-d-accueil-pour-camping-cars-les-portes-du-pays-de-figeac-capdenac-gare_TFO18207136431"}},"298488753":{"location":[44.4413601,2.0374136],"ct":"FR","tp":"CR","ts":"2025-03-18T16:41:32Z","tX":517,"tY":370,"tags":{"alt_name":"Camping La Coustoune","bbq":"no","capacity":"20","capacity:tents":"3","caravan_site":"motorhome_stopover","caravan_site:type":"village","caravans":"no","charge":"14.70","dog":"leashed","fee":"yes","internet_access":"wlan","internet_access:fee":"no","maxlength":"none","name":"Camping-car Park Villeneuve d'Aveyron","network":"CAMPING-CAR PARK","opening_hours":"24/7","operator":"CAMPING-CAR PARK","picnic_table":"no","power_supply":"yes","power_supply:capacity":"20","power_supply:fee":"no","power_supply:maxcurrent":"6","sanitary_dump_station":"yes","tents":"no","toilets":"yes","trailer":"yes","water_point":"yes","water_point:fee":"yes","website":"https://www.campingcarpark.com/fr_FR/sejour/aire-etape-camping-car/occitanie/12-aveyron/villeneuve-d-aveyron"}},"307694794":{"location":[44.4743386,1.7851905],"ct":"FR","tp":"CS","ts":"2014-10-14T09:30:32Z","tX":517,"tY":370,"tags":{"contact:website":"http://www.lotcamping.com/","name":"Camping Ruisseau du Treil","source":"bing 2014;website","stars":"2","wheelchair":"yes"}},"307888881":{"location":[44.4835841,1.8384533],"ct":"FR","tp":"CS","ts":"2023-08-13T14:24:04Z","tX":517,"tY":370,"tags":{"capacity":"45","internet_access":"wlan","internet_access:fee":"no","name":"Camping Le Terriol","opening_hours":"Apr 11 - Sep 30","source":"cadastre-dgi-fr source : Direction Générale des Impôts - Cadastre. Mise à jour : 2014","stars":"2","website":"https://www.campingleterriol.com/","wheelchair":"yes"}},"605256064":{"location":[44.5563229,1.7715092],"ct":"FR","tp":"CS","ts":"2018-07-05T10:42:25Z","tX":517,"tY":370,"tags":{"name":"Le Pré de Monsieur","phone":"+33 565 407 788","website":"http://lepredemonsieur.e-monsite.com/"}},"605258080":{"location":[44.5681126,1.7926008],"ct":"FR","tp":"CS","ts":"2024-01-07T14:11:21Z","tX":517,"tY":370,"tags":{"caravans":"yes","email":"camping_du_cele@yahoo.fr","name":"Le Célé","phone":"+33 6 29 46 48 22","stars":"2","tents":"yes","website":"https://www.camping-du-cele.fr/"}},"605259709":{"location":[44.5747206,1.8324577],"ct":"FR","tp":"CS","ts":"2023-07-20T17:22:09Z","tX":517,"tY":370,"tags":{"caravans":"yes","email":"contact@location-canoe-cele.com","name":"Camping municipal de Brengues","opening_hours":"Jul 1 - Sep 30","operator":"Marie de Brengues","phone":"+33 5 81 48 06 99","power_supply":"yes","shower":"yes","tents":"yes","toilets":"yes","website":"https://www.brengues.org/camping-municipal"}},"605263768":{"location":[44.5858779,1.8392926],"ct":"FR","tp":"CS","ts":"2023-06-15T14:12:40Z","tX":517,"tY":370,"tags":{"caravans":"yes","email":"lemoulinvieux@gmail.com","name":"Le Moulin Vieux ***","phone":"+33 565 400 041","stars":"3","tents":"yes","website":"http://camping-lemoulinvieux.com/"}},"605267018":{"location":[44.578328,1.9362183],"ct":"FR","tp":"CS","ts":"2023-11-04T21:37:08Z","tX":517,"tY":370,"tags":{"caravans":"yes","email":"contact@camping-pech-ibert.com","name":"Pech Ibert","phone":"+33 565 400 585","stars":"3","tents":"yes","website":"https://www.camping-pech-ibert.com/"}},"804248640":{"location":[44.3841883,1.8873638],"ct":"FR","tp":"CS","ts":"2024-09-11T16:31:18Z","tX":517,"tY":370,"tags":{"addr:city":"Martiel","addr:postcode":"12200","addr:street":"Moulin de Bannac","cabins":"yes","caravans":"yes","name":"Lac aux Oiseaux","operator":"Flower Campings","phone":"+33 5 65 65 67 59","shower":"yes","tents":"yes","toilets":"yes","website":"https://www.campinglacauxoiseaux.fr/"}},"837378770":{"location":[44.3951316,1.7648184],"ct":"FR","tp":"CS","ts":"2020-08-15T14:25:51Z","tX":517,"tY":370,"tags":{"name":"Camping Bel Air","source":"data.gouv.fr:DATAtourisme - 05/2020","website":"https://www.camping-le-bel-air.fr"}},"985740643":{"location":[44.5056824,1.8976779],"ct":"FR","tp":"CS","ts":"2023-08-27T15:05:55Z","tX":517,"tY":370,"tags":{"backcountry":"no","caravans":"yes","group_only":"no","mobile":"+33 6 03 23 13 56","name":"Les Cournoulises","tents":"yes","website":"https://lescournoulises.com/"}},"1090408763":{"location":[44.4825305,1.8394795],"ct":"FR","tp":"CR","ts":"2024-10-25T19:25:26Z","tX":517,"tY":370,"tags":{"capacity":"14","caravan_site":"motorhome_stopover","caravan_site:type":"river;village","charge":"7.50 EUR","fee":"yes","name":"Aire camping-car Cajarc","opening_hours":"24/7","sanitary_dump_station":"yes","sanitary_dump_station:chemical_toilet":"yes","sanitary_dump_station:grey_water":"yes","seasonal":"no","water_point":"yes","website":"https://www.cajarc.fr/decouverte/tourisme/accueil-camping-cars"}},"1123401583":{"location":[44.4923403,1.9306949],"ct":"FR","tp":"CS","ts":"2023-08-14T10:12:56Z","tX":517,"tY":370,"tags":{"capacity":"25","caravans":"no","drinking_water":"yes","internet_access":"yes","name":"Camping du causse","phone":"+33 5 65 81 74 48","power_supply":"yes","shower":"yes","tents":"yes","toilets":"yes","website":"www.camping-du-causse.fr"}},"1202565751":{"location":[44.4815991,1.8432234],"ct":"FR","tp":"CS","ts":"2023-08-27T15:31:53Z","tX":517,"tY":370,"tags":{"caravans":"yes","mobile":"+33 6 15 78 61 96","name":"Camping du plan d'eau","tents":"yes","website":"https://www.tourisme-aveyron.com/fr/diffusio/campings/camping-du-plan-d-eau-salvagnac-cajarc_TFO18207421276"}},"5809498529":{"location":[44.5691123,1.7906698],"ct":"FR","tp":"CS","ts":"2018-08-04T21:40:06Z","tX":517,"tY":370,"tags":{"name":"Camping le Célé"}},"6534344546":{"location":[44.5273126,2.0958602],"ct":"FR","tp":"CS","ts":"2023-04-10T12:28:01Z","tX":517,"tY":370,"tags":{"addr:city":"Sonnac","addr:postcode":"12700","addr:street":"Moulin de l'Aymerie","cabins":"yes","capacity:cabins":"2","capacity:pitches":"50","caravans":"yes","email":"info@campingladiege.fr","name":"Camping de la Diège","phone":"+33 5 65 43 20 53","shower":"yes","tents":"yes","toilets":"yes","website":"http://www.campingladiege.fr/"}},"7815296090":{"location":[44.3574395,1.9491588],"ct":"FR","tp":"CS","ts":"2020-08-15T14:31:03Z","tX":517,"tY":370,"tags":{"name":"Domaine L'Indien","source":"data.gouv.fr:DATAtourisme - 05/2020"}},"12034829870":{"location":[44.5732594,2.0727552],"ct":"FR","tp":"CS","ts":"2024-12-30T17:10:24Z","tX":517,"tY":370,"tags":{"access":"yes","capacity:tents":"10","caravans":"yes","charge":"5 EUR","drinking_water":"yes","fee":"yes","name":"Camping pour voyageur à pied ou à vélo uniquement","operator":"Guinguette","power_supply":"yes","sanitary_dump_station":"yes","shower":"yes","tents":"yes","toilets":"yes"}},"8962993794":{"location":[44.3561787,2.0249219],"ct":"FR","tp":"SD","ts":"2021-11-01T14:56:26Z","tX":517,"tY":370,"tags":{"access":"yes","description":"Estación de vaciado de tanque para autocaravanas","description:en":"Tank emptying station for motorhomes","description:fr":"Station de vidange pour Camping-car.","fee":"no","operator":"Intermarché","sanitary_dump_station":"public","sanitary_dump_station:chemical_toilet":"yes","sanitary_dump_station:fee":"no","sanitary_dump_station:gravity":"yes","sanitary_dump_station:grey_water":"yes","sanitary_dump_station:round_drain":"yes","sanitary_dump_station:suction":"no","water_point":"yes"}},"12444282520":{"location":[44.5723636,2.072857],"ct":"FR","tp":"SD","ts":"2024-12-23T13:34:54Z","tX":517,"tY":370,"tags":{"fee":"yes"}},"12669055820":{"location":[44.4409579,2.0370625],"ct":"FR","tp":"SD","ts":"2025-03-18T16:41:32Z","tX":517,"tY":370,"tags":{"fee":"yes","opening_hours":"24/7","source":"survey 2025"}}}