{"193270873":{"location":[43.8618103,1.818566],"ct":"FR","tp":"CR","ts":"2024-10-30T20:52:21Z","tX":517,"tY":372,"tags":{"capacity":"10","caravan_site":"motorhome_stopover","caravan_site:type":"lake","fee":"no","name":"Base de loisirs Lac de Bellevue","picnic_area":"yes","sanitary_dump_station":"no","water_supply":"yes","website":"https://www.la-toscane-occitane.com/commerce-et-service/lac-de-bellevue-lisle-sur-tarn"}},"231992599":{"location":[44.0008908,1.8692822],"ct":"FR","tp":"CS","ts":"2022-09-16T06:35:30Z","tX":517,"tY":372,"tags":{"name":"La Sesquière","nudism":"yes","website":"http://www.sesquiere.com"}},"302029251":{"location":[43.8953015,1.8859352],"ct":"FR","tp":"CR","ts":"2024-05-17T23:39:24Z","tX":517,"tY":372,"tags":{"bbq":"yes","capacity":"40","caravan_site":"motorhome_stopover","caravan_site:type":"village","caravans":"no","charge":"14.85 EUR","charge:conditional":"13.75 EUR @ (Oct-Apr)","dog":"yes","fee":"yes","internet_access":"wlan","internet_access:fee":"no","maxlength":"9","name":"CAMPING-CAR PARK area of Gaillac","name:fr":"Camping municipal des Sources","network":"CAMPING-CAR PARK","opening_hours":"24/7","operator":"CAMPING-CAR PARK","power_supply":"yes","sanitary_dump_station":"yes","tents":"no","water_point":"yes","website":"https://www.campingcarpark.com/en_GB/stay/stopover-site-motorhome/occitanie/81-tarn/gaillac"}},"329495814":{"location":[44.0641696,1.9584352],"ct":"FR","tp":"CR","ts":"2024-10-23T20:02:50Z","tX":517,"tY":372,"tags":{"capacity":"30","caravan_site":"motorhome_stopover","caravan_site:type":"village;parking_lot","caravans":"no","charge":"8 EUR","fee":"yes","name":"Aire de Camping Car Les Tuileries - Cordes sur Ciel","power_supply":"yes","power_supply:charge":"1 EUR/3 hours","power_supply:fee":"yes","ref":"P1","sanitary_dump_station":"yes","water_point":"yes","water_point:charge":"1 EUR/60 liter","water_point:fee":"yes","website":"https://www.la-toscane-occitane.com/hotellerie-plein-air/borne-de-services-et-aire-de-stationnement-camping-car-de-cordes-cordes-sur-ciel"}},"329495817":{"location":[44.0417147,2.0163998],"ct":"FR","tp":"CS","ts":"2023-11-09T03:19:12Z","tX":517,"tY":372,"tags":{"email":"info@campredon.com","name":"Camp Redon","phone":"+33 5 63 56 14 64","website":"https://campredon.com/"}},"329495818":{"location":[44.0534882,1.9719835],"ct":"FR","tp":"CS","ts":"2024-09-04T20:51:51Z","tX":517,"tY":372,"tags":{"email":"contact@campingmoulindejulien.com","name":"Le Moulin de Julien","phone":"+33 5 63 56 11 10","power_supply":"yes","shower":"yes","stars":"3","toilets":"yes","website":"https://campingmoulindejulien.com/"}},"381448508":{"location":[43.9085973,1.9818693],"ct":"FR","tp":"CS","ts":"2024-01-17T15:48:57Z","tX":517,"tY":372,"tags":{"access":"yes","addr:city":"Rivières","addr:housenumber":"32","addr:postcode":"81600","addr:street":"Place du Galion","bicycle_rental":"yes","camp_site":"deluxe","capacity:caravans":"47","capacity:tents":"47","caravans":"yes","contact:website":"https://www.camping-lespommiers.com","internet_access":"wlan","internet_access:fee":"yes","name":"Camping Les Pommiers d’Aiguelèze","phone":"+33 5 63 33 02 49","service:bicycle:rental":"yes","stars":"4","static_caravans":"yes","tents":"yes","wheelchair":"yes"}},"382343980":{"location":[44.0706759,2.0941073],"ct":"FR","tp":"CS","ts":"2021-07-27T22:11:32Z","tX":517,"tY":372,"tags":{"name":"Camping municipal Les Prunettes","phone":"+33623952155","source":"cadastre-dgi-fr source : Direction Générale des Impôts - Cadastre. Mise à jour : 2015","website":"https://www.monesties.fr/camping-municipal-les-prunettes-monesties-tarn_fr.html"}},"624539199":{"location":[44.0652276,1.9257576],"ct":"FR","tp":"CS","ts":"2024-01-19T17:06:56Z","tX":517,"tY":372,"tags":{"camp_site":"basic","name":"Huttopia Pays de Cordes-sur-Ciel","website":"https://europe.huttopia.com/site/pays-de-cordes-sur-ciel/"}},"692934373":{"location":[43.9703114,1.9868305],"ct":"FR","tp":"CS","ts":"2024-07-31T14:23:43Z","tX":517,"tY":372,"tags":{"addr:city":"Cestayrols","addr:housenumber":"465","addr:postcode":"81150","addr:street":"Chemin de La Couliche","capacity":"6","description":"Camping rural de six emplacements géré par des bénévoles et ouvert de mai à septembre","email":"contact.naturismetarn@gmail.com","name":"Camping naturiste La Couliche","nudism":"yes","operator":"Club Naturiste en Albigeois","phone":"+33 7 80 00 51 70","website":"https://naturismetarn.wixsite.com/lacouliche/votre-camping"}},"919450004":{"location":[43.9843881,1.9135287],"ct":"FR","tp":"CS","ts":"2023-11-09T03:19:14Z","tX":517,"tY":372,"tags":{"addr:street":"Route de Cordes","email":"info@le-soleil-des-bastides.fr","name":"Camping Le Soleil des Bastides","phone":"+33 5 63 33 91 94","stars":"3","website":"https://camping-le-soleil-des-bastides.fr/"}},"968800475":{"location":[43.9822525,1.9109301],"ct":"FR","tp":"CR","ts":"2025-01-27T18:17:16Z","tX":517,"tY":372,"tags":{"addr:city":"Cahuzac-Sur-Vère","addr:postcode":"81140","addr:street":"5124A Rue du Barry","capacity":"2","caravan_site":"motorhome_stopover","caravan_site:type":"village","covered":"no","drinking_water":"yes","fee":"no","internet_access":"no","maxstay":"24 hours","name":"Aire camping-car Cahuzac-Sur-Vère","operator":"Municipalité de Cahuzac-Sur-Vère","power_supply":"no","sanitary_dump_station":"yes","sanitary_dump_station:chemical_toilet":"yes","sanitary_dump_station:grey_water":"yes","sanitary_dump_station:round_drain":"yes","supervised":"no","surface":"gravel","water_point":"yes"}},"1322887101":{"location":[43.9664945,1.8026262],"ct":"FR","tp":"CR","ts":"2024-10-10T12:12:30Z","tX":517,"tY":372,"tags":{"breakfast":"yes","capacity":"6","caravan_site":"motorhome_stopover","caravan_site:type":"guest_house","charge":"10 EUR","description":"B&B with table d'hôtes","fee":"yes","name":"Aire Camping-car Les Miquels","phone":"+33 5 63 40 17 25","power_supply":"yes","restaurant":"yes","sanitary_dump_station":"yes","water_point":"yes","website":"https://www.les-miquels.com/en/le-domaine"}},"1328004117":{"location":[43.9847282,1.9153414],"ct":"FR","tp":"PK","ts":"2024-10-25T00:17:57Z","tX":517,"tY":372,"tags":{"capacity":"4","motorhome":"yes","motorhome:overnight":"yes","parking":"street_side","surface":"asphalt"}},"3846539719":{"location":[43.9089783,1.9830658],"ct":"FR","tp":"SD","ts":"2015-11-20T11:45:24Z","tX":517,"tY":372,"tags":{}},"4215068483":{"location":[43.8996283,1.894853],"ct":"FR","tp":"SD","ts":"2021-10-16T07:12:26Z","tX":517,"tY":372,"tags":{}},"5854524831":{"location":[43.9768682,1.789511],"ct":"FR","tp":"CS","ts":"2025-01-31T22:46:51Z","tX":517,"tY":372,"tags":{"addr:city":"Castelnau de Montmiral","addr:postcode":"81140","addr:street":"Travers du Rieutort","name":"Camping Le Chêne Vert","stars":"4","website":"https://campingduchenevert.com/index.php"}},"8919365078":{"location":[43.8519949,1.8804585],"ct":"FR","tp":"SD","ts":"2021-07-14T11:33:56Z","tX":517,"tY":372,"tags":{"fee":"no","water_point":"yes"}},"8963159338":{"location":[43.9820053,1.9111425],"ct":"FR","tp":"SD","ts":"2024-10-25T00:17:57Z","tX":517,"tY":372,"tags":{"access":"yes","fee":"no","operator":"Municipalité de Cahuzac-Sur-Vère","sanitary_dump_station":"public","sanitary_dump_station:chemical_toilet":"yes","sanitary_dump_station:fee":"no","sanitary_dump_station:gravity":"yes","sanitary_dump_station:grey_water":"yes","sanitary_dump_station:round_drain":"yes","sanitary_dump_station:suction":"no","water_point":"yes","website":"https://www.la-toscane-occitane.com/en/hotellerie-plein-air/borne-de-services-camping-car-de-cahuzac-cahuzac-sur-vere"}},"9603778556":{"location":[44.071117,2.0938196],"ct":"FR","tp":"SD","ts":"2022-03-24T17:33:18Z","tX":517,"tY":372,"tags":{}},"12945814611":{"location":[43.9107014,1.9889963],"ct":"FR","tp":"CS","ts":"2025-06-23T03:36:36Z","tX":517,"tY":372,"tags":{"addr:housenumber":"117","addr:street":"Rue des Chalets","caravans":"no","fee":"yes","name":"Les Chalets du lac","phone":"+33 5 63812909","static_caravans":"yes","tents":"no","website":"http://www.leschaletsdulac.com/"}},"12945814608":{"location":[43.9107885,1.9890008],"ct":"FR","tp":"CR","ts":"2025-06-23T03:36:36Z","tX":517,"tY":372,"tags":{"addr:street":"Rue des Chalets","name":"Aire de Camping-car de Rivières"}}}