{"426172715":{"location":[43.6621191,1.9694555],"ct":"FR","tp":"CS","ts":"2023-04-10T21:38:26Z","tX":517,"tY":373,"tags":{"cabins":"yes","caravans":"yes","email":"accueil@campingplandeau.com","name":"Le Plan d'Eau Saint-Charles","phone":"+33 5 63 70 66 07; +33 6 13 30 82 57","shower":"yes","stars":"3","tents":"yes","toilets":"yes","website":"http://campingplandeau.com"}},"456093133":{"location":[43.7577263,1.967461],"ct":"FR","tp":"CS","ts":"2024-09-12T14:51:38Z","tX":517,"tY":373,"tags":{"addr:city":"Graulhet","addr:housenumber":"281","addr:postcode":"81300","addr:street":"Route de Cabanès","contact:facebook":"https://www.facebook.com/obleupastel/","email":"info@obleupastel.fr","fee":"yes","name":"Ô Bleu Pastel","phone":"+33 7 67 83 80 42"}},"504276753":{"location":[43.6199846,2.0943727],"ct":"FR","tp":"CS","ts":"2022-09-16T12:59:15Z","tX":517,"tY":373,"tags":{"addr:city":"Vielmur-sur-Agout","addr:housenumber":"14","addr:postcode":"81570","addr:street":"Quartier de Pessac","email":"info@camping-lepessac.com","name":"Le Pessac","phone":"+33 563 743 024","stars":"3","website":"https://www.camping-lepessac.com/"}},"586072161":{"location":[43.6676543,2.0439479],"ct":"FR","tp":"CS","ts":"2019-03-05T00:59:15Z","tX":517,"tY":373,"tags":{"name":"Saint-Pierre de Rousieux","stars":"4","website":"https://www.camping81.com/"}},"891180445":{"location":[43.6217651,2.089504],"ct":"FR","tp":"CR","ts":"2023-12-28T20:44:21Z","tX":517,"tY":373,"tags":{"caravan_site":"motorhome_stopover","caravan_site:type":"village","fee":"no","name":"Aire de Camping-Car Vielmur-sur-Agout","opening_hours":"24/7","operator":"Ville de Vielmur-sur-Agout","power_supply":"no","sanitary_dump_station":"yes","seasonal":"no"}},"891182179":{"location":[43.6862383,1.8180072],"ct":"FR","tp":"CR","ts":"2023-12-28T21:54:30Z","tX":517,"tY":373,"tags":{"addr:city":"Lavaur","addr:postcode":"81500","addr:street":"Les Clauzades","capacity":"5","caravan_site":"motorhome_stopover","caravan_site:type":"town","description":"Ne pas se garer devant l'école ou il est marqué interdit au bus. rester à coté de l'aire de service.","fee":"no","name":"Aire de Stationnement Camping-Car de Lavaur","opening_hours":"24/7","power_supply":"no","sanitary_dump_station":"yes","seasonal":"no","water_point":"yes","website":"https://www.tourisme-tarn.com/hotellerie-plein-air/borne-de-services-et-aire-de-stationnement-camping-car-de-lavaur/"}},"1311088813":{"location":[43.60355,1.8307248],"ct":"FR","tp":"CS","ts":"2024-08-25T18:28:40Z","tX":517,"tY":373,"tags":{"caravans":"yes","name":"Domaine du Koukano","stars":"4","static_caravans":"yes","tents":"yes","website":"https://www.koukano.fr/"}},"8282927214":{"location":[43.6218026,2.089503],"ct":"FR","tp":"SD","ts":"2021-01-02T08:50:01Z","tX":517,"tY":373,"tags":{"access":"yes","fee":"no","operator":"Ville de Vielmur-sur-Agout","water_point":"yes"}},"8282940024":{"location":[43.6863352,1.8178205],"ct":"FR","tp":"SD","ts":"2021-01-02T09:01:18Z","tX":517,"tY":373,"tags":{"access":"yes","fee":"no","operator":"Ville de Lavaur","water_point":"yes"}}}