{"125010608":{"location":[42.9840157,1.935329],"ct":"FR","tp":"CS","ts":"2024-04-08T05:46:36Z","tX":517,"tY":376,"tags":{"addr:city":"Léran","addr:postcode":"09600","addr:street":"Route du Lac","email":"contact@campinglaregate.com","name":"Camping la Régate","phone":"+33 561 030 917","stars":"3","website":"https://www.campinglaregate.com"}},"178278140":{"location":[42.9222057,1.8449514],"ct":"FR","tp":"CS","ts":"2021-08-25T20:35:31Z","tX":517,"tY":376,"tags":{"contact:email":"leprecathare@orange.fr","contact:mobile":"+33 6 83 36 94 30","contact:phone":"+33 5 61 01 55 54","internet_access":"wlan","internet_access:fee":"no","name":"Camping de Lavelanet \"Le Pré Cathare\"","phone":"+33 5 61 01 55 54","stars":"3","website":"https://www.leprecathare.fr/"}},"238287662":{"location":[42.9152792,2.0447345],"ct":"FR","tp":"CS","ts":"2023-11-10T08:10:33Z","tX":517,"tY":376,"tags":{"email":"theolor11@orange.fr","internet_access":"wlan","name":"Camping de Fontclaire","note":"Municipal De Fontclaire - Puivert (11) >+33468200058","phone":"+33 4 68 20 00 58","stars":"2","website":"https://www.campings11.fr/"}},"300069427":{"location":[42.8162379,1.9501614],"ct":"FR","tp":"CS","ts":"2024-07-07T12:06:10Z","tX":517,"tY":376,"tags":{"addr:city":"Belcaire","addr:housenumber":"4","addr:postcode":"11340","addr:street":"Chemin du Lac","cabins":"yes","caravans":"yes","email":"chaletsdulac@gmail.com","fee":"yes","name":"Les Chalets du Lac","opening_hours":"Jan 01-Dec 31; Nov 01-10 closed","phone":"+33 468 203 947","shower":"yes","stars":"3","tents":"yes","toilets":"yes","washing_machine":"yes","website":"https://camping-pyrenees-cathare.fr/"}},"503080300":{"location":[42.9986992,1.8691614],"ct":"FR","tp":"CS","ts":"2023-04-26T04:08:47Z","tX":517,"tY":376,"tags":{"addr:city":"Aigues-Vives","addr:postcode":"09600","email":"contact@camping-la-serre.com","fee":"yes","name":"La Serre","opening_hours":"Mar 15-Oct 31","phone":"+33 5 61 03 06 16","stars":"3","website":"https://www.camping-la-serre.com/"}},"512372450":{"location":[42.8238975,2.0212684],"ct":"FR","tp":"CS","ts":"2025-06-23T20:33:33Z","tX":517,"tY":376,"tags":{"caravans":"yes","drinking_water":"yes","email":"mairie.espezel11340@orange.fr","name":"Camping municipal le Calcat","phone":"+33 468 203 034","power_supply":"yes","shower":"yes","tents":"yes","toilets":"yes"}},"577131038":{"location":[42.9085303,1.9371645],"ct":"FR","tp":"CS","ts":"2018-04-06T12:18:31Z","tX":517,"tY":376,"tags":{}},"593085756":{"location":[42.8191516,1.9952322],"ct":"FR","tp":"CS","ts":"2023-11-06T05:46:40Z","tX":517,"tY":376,"tags":{"name":"La Mare aux Fées","stars":"3","website":"https://www.camping-lamareauxfees.com/"}},"602619458":{"location":[42.8937712,2.1039871],"ct":"FR","tp":"CS","ts":"2022-01-26T11:09:30Z","tX":517,"tY":376,"tags":{"name":"Le Fontaulié Sud","phone":"+33468201762","website":"https://www.lefontauliesud.com/"}},"615221055":{"location":[42.867965,1.8325116],"ct":"FR","tp":"CS","ts":"2022-03-30T20:41:49Z","tX":517,"tY":376,"tags":{"description:de":"nur Zelte","description:en":"tents only","description:fr":"seulement tentes","name":"Camping municipal"}},"835489587":{"location":[42.9835523,1.7800582],"ct":"FR","tp":"CS","ts":"2022-01-28T16:21:15Z","tX":517,"tY":376,"tags":{"email":"lamaranthe@hotmail.fr","name":"L'Amaranthe","opening_hours":"Jun 15-Sep 15","phone":"+33 561 013 038","website":"http://www.amaranthe.sitew.com/"}},"875743016":{"location":[42.8799526,1.8958069],"ct":"FR","tp":"CS","ts":"2023-11-06T05:46:45Z","tX":517,"tY":376,"tags":{"addr:city":"Fougax-et-Barrineuf","addr:housenumber":"1","addr:postcode":"09300","addr:street":"Rue de la Liberté","email":"contact@ariege-lesbuis.com","name":"Camping Ariège les Buis","phone":"+33 534 146 069","stars":"2","website":"https://www.camping.ariege-lesbuis.com/"}},"875743529":{"location":[42.9741689,2.0023901],"ct":"FR","tp":"CS","ts":"2023-08-14T14:08:58Z","tX":517,"tY":376,"tags":{"fee":"no","name":"Camping Municipal Le Cazal","opening_hours":"Jun 29-Aug 30","operator":"Ville de Chalabre","website":"http://www.chalabre.fr/fr/tourisme-et-loisirs/hebergement"}},"893618049":{"location":[42.8925811,1.7918034],"ct":"FR","tp":"CR","ts":"2024-10-11T14:11:24Z","tX":517,"tY":376,"tags":{"addr:city":"Montferrier","addr:housenumber":"167","addr:postcode":"09300","addr:street":"Labarouse","caravan_site":"motorhome_stopover","caravan_site:type":"village;river","fee":"no","name":"Montferrier","opening_hours":"24/7","operator":"Ville de Montferrier","power_supply":"no","sanitary_dump_station":"yes","surface":"gravel"}},"893623027":{"location":[42.9520399,1.9577692],"ct":"FR","tp":"CR","ts":"2024-08-25T08:48:47Z","tX":517,"tY":376,"tags":{"caravan_site":"motorhome_stopover","caravan_site:type":"camp_site","fee":"no","name":"Aire Municipale Sainte-Colombe-sur-l'Hers","power_supply":"no","sanitary_dump_station":"yes","surface":"asphalt","water_point":"yes"}},"893629768":{"location":[42.8228618,2.0223467],"ct":"FR","tp":"CR","ts":"2024-10-01T13:28:22Z","tX":517,"tY":376,"tags":{"addr:city":"Espezel","addr:housenumber":"225","addr:postcode":"11340","addr:street":"Les Prats de Dejoux","bbq":"yes","capacity":"6","caravan_site":"motorhome_stopover","caravan_site:type":"village","caravans":"no","fee":"yes","name":"Espezel","operator":"Ville de Espezel","picnic_table":"yes","power_supply":"yes","sanitary_dump_station":"yes","tents":"no","water_point":"yes","website":"https://www.audetourisme.com/fr/fiche/espezel/aire-de-services-pour-camping-cars_TFOACCAMLAR0110001R/"}},"1075547159":{"location":[43.0388136,1.7797417],"ct":"FR","tp":"CS","ts":"2022-07-03T15:27:46Z","tX":517,"tY":376,"tags":{"fee":"yes","name":"Camping des Vignes","operator":"D'Âme Saveurs"}},"1217787570":{"location":[42.9805219,1.9707718],"ct":"FR","tp":"CS","ts":"2024-08-14T12:40:15Z","tX":517,"tY":376,"tags":{"addr:street":"Le Fort, 09600 Montbel, France","caravans":"yes","description":"+33 6 71 90 75 80","drinking_water":"yes","name":"Fort Montbel","phone":"+33 4 68 69 20 18","power_supply":"yes","shower":"yes","source":"BDOrtho IGN","tents":"yes","website":"http://camping-https://www.campinglefortmontbel.com/"}},"1305552807":{"location":[43.0118209,1.9239464],"ct":"FR","tp":"CS","ts":"2024-08-04T13:04:31Z","tX":517,"tY":376,"tags":{"access":"customers","addr:city":"Belloc","addr:postcode":"09600","caravans":"yes","fee":"yes","name":"Le Roc del Rey","operator":"Le Roc del Rey","payment:cash":"yes","payment:credit_cards":"yes","payment:debit_cards":"yes","phone":"+33(0)5 61 68 87 93","static_caravans":"yes","tents":"yes","website":"https://www.lerocdelrey.com/"}},"1786106237":{"location":[43.0136387,1.9720477],"ct":"FR","tp":"CS","ts":"2019-10-17T05:20:30Z","tX":517,"tY":376,"tags":{"name":"Camping La Besse","phone":"+33 561 688 463","stars":"4","website":"https://camping-labesse.com/"}},"1904133058":{"location":[42.8937616,1.7933163],"ct":"FR","tp":"CS","ts":"2024-08-17T16:01:44Z","tX":517,"tY":376,"tags":{"addr:city":"Montferrier","addr:postcode":"09300","capacity:caravans":"36","capacity:tents":"36","caravans":"yes","email":"camping.montferrier@gmail.com","internet_access":"wlan","internet_access:fee":"no","motorhome":"yes","name":"La Fount de Sicre","opening_hours":"Jan 01-Dec 31","phone":"+33 561 012 097","stars":"2","tents":"yes"}},"1904146097":{"location":[43.0311979,1.9374986],"ct":"FR","tp":"CS","ts":"2019-03-16T22:54:39Z","tX":517,"tY":376,"tags":{"email":"contact@campinglapibola.com","internet_access":"wlan","internet_access:fee":"no","name":"La Pibola","phone":"+33 5 61 68 12 14","stars":"3","website":"https://www.lapibola.com/"}},"8305289294":{"location":[42.8926914,1.7920823],"ct":"FR","tp":"SD","ts":"2021-01-09T09:58:11Z","tX":517,"tY":376,"tags":{"access":"yes","fee":"no","operator":"Ville de Montferrier","sanitary_dump_station:basin":"yes","water_point":"yes"}},"8305311238":{"location":[42.9629986,1.863024],"ct":"FR","tp":"SD","ts":"2021-03-07T17:12:51Z","tX":517,"tY":376,"tags":{"access":"yes","fee":"no","sanitary_dump_station:basin":"yes","water_point":"yes"}},"8305311258":{"location":[42.9744278,2.0019973],"ct":"FR","tp":"SD","ts":"2021-01-09T10:35:52Z","tX":517,"tY":376,"tags":{"access":"yes","description":"Services Payant en Juillet et Aout","fee":"no","name":"Service de vidange eaux grise et noire","operator":"Ville de Chalabre","sanitary_dump_station:basin":"yes","water_point":"yes"}},"8305375196":{"location":[42.8228104,2.0224944],"ct":"FR","tp":"SD","ts":"2024-10-01T13:28:22Z","tX":517,"tY":376,"tags":{"access":"yes","description":"Services Payant Voir avec la mairie","fee":"no","operator":"Ville de Espezel","sanitary_dump_station:basin":"yes","water_point":"yes"}},"8305407459":{"location":[42.9521685,1.9577992],"ct":"FR","tp":"SD","ts":"2024-08-25T08:48:47Z","tX":517,"tY":376,"tags":{"access":"yes","fee":"no","operator":"Ville de Sainte-Colombe-sur-l'Hers","sanitary_dump_station:basin":"yes","water_point":"yes"}}}