{"160928900":{"location":[42.582471,2.1076977],"ct":"FR","tp":"CS","ts":"2023-11-03T00:10:49Z","tX":517,"tY":377,"tags":{"addr:city":"Matemale","addr:postcode":"66210","email":"camping-lac-matemale@orange.fr","name":"Le Lac","phone":"+33 468 309 449","stars":"3","website":"https://www.camping-lac-matemale.com/"}},"196828087":{"location":[42.7920337,1.9250578],"ct":"FR","tp":"CS","ts":"2019-10-05T08:59:10Z","tX":517,"tY":377,"tags":{"email":"info@lessapins-camurac.com","name":"Camping les Sapins","opening_hours":"Jan 01-Nov 01","phone":"+33 468 203 811","stars":"3","website":"http://lessapins-camurac.com"}},"436617276":{"location":[42.7022989,1.8824243],"ct":"FR","tp":"CS","ts":"2019-05-27T21:08:33Z","tX":517,"tY":377,"tags":{"addr:city":"Orlu","camp_site":"deluxe","capacity":"100","email":"camping-chalet@vallee-orlu.com","name":"Camping des Ioules","operator":"Camping Municipal","operator:type":"public","phone":"+33 5 61 64 30 09 ;+33 5 61 64 21 70","stars":"3","website":"https://www.vallee-orlu.com/fr/hebergement/camping-chalets.html"}},"487041265":{"location":[42.5889143,1.7997726],"ct":"FR","tp":"CR","ts":"2024-09-05T12:33:42Z","tX":517,"tY":377,"tags":{"caravan_site":"motorhome_stopover","caravan_site:type":"village","ele":"1500","fee":"no","name":"Aire camping-cars L' Hospitalet-près-l'Andorre","opening_hours":"24/7","operator":"Ville de L'Hospitalet-près-l'Andorre","power_supply":"yes","power_supply:charge":"6 EUR/12 hours","power_supply:maxcurrent":"16","sanitary_dump_station":"yes","sanitary_dump_station:chemical_toilet":"yes","sanitary_dump_station:grey_water":"yes","seasonal":"no","surface":"asphalt","toilets":"yes","water_point":"yes","water_point:charge":"2 EUR","water_point:fee":"yes"}},"585916379":{"location":[42.8112522,1.8903424],"ct":"FR","tp":"CS","ts":"2019-10-05T08:59:10Z","tX":517,"tY":377,"tags":{"name":"Le Silence du Midi","website":"https://www.lesilencedumidi.com/fr/"}},"615273677":{"location":[42.704166,1.820977],"ct":"FR","tp":"CS","ts":"2018-08-08T14:49:02Z","tX":517,"tY":377,"tags":{"backcountry":"yes","fee":"no","name":"Aire de bivouac du \"Pla del Bau\""}},"624278613":{"location":[42.7581961,1.7625895],"ct":"FR","tp":"CS","ts":"2019-10-05T08:59:10Z","tX":517,"tY":377,"tags":{"email":"campinglecastella@orange.fr","name":"Camping le Castella","phone":"+33 561 644 753","stars":"1","website":"http://campingcastella.com/"}},"624278614":{"location":[42.7284528,1.8251527],"ct":"FR","tp":"CS","ts":"2024-09-07T17:06:06Z","tX":517,"tY":377,"tags":{"caravans":"yes","email":"contact@campingmalazeou.com","name":"Sunêlia Le Malazéou","phone":"+33 5 61 64 69 14","stars":"4","tents":"yes","website":"https://www.campingmalazeou.com/"}},"624278615":{"location":[42.7301383,1.811979],"ct":"FR","tp":"CS","ts":"2025-02-22T20:40:16Z","tX":517,"tY":377,"tags":{"caravans":"yes","drinking_water":"yes","email":"camping.lamarmotte@orange.fr","name":"Camping La Marmotte","phone":"+33 5 61 64 24 40","power_supply":"yes","sanitary_dump_station":"yes","shower":"yes","stars":"2","tents":"yes","toilets":"yes","website":"https://www.camping-lamarmotte.com/"}},"624278616":{"location":[42.7329559,1.8546087],"ct":"FR","tp":"CS","ts":"2022-08-20T08:04:51Z","tX":517,"tY":377,"tags":{"email":"camping@sorgeat.com","name":"Camping Municipal La Prade","opening_hours":"May 01-Oct 31","operator":"Mairie de Sorgeat","stars":"2","website":"https://www.camping-ariege-sorgeat.fr/"}},"680216140":{"location":[42.7146848,1.8415017],"ct":"FR","tp":"CR","ts":"2024-09-10T06:52:40Z","tX":517,"tY":377,"tags":{"capacity":"20","caravan_site":"motorhome_stopover","caravan_site:type":"mountains","dog":"yes","drinking_water":"no","ele":"720","fee":"yes","name":"Aire Camping-cars Parc d'Espagne - Ax-les-Thermes","opening_hours":"May-Sep","power_supply":"no","sanitary_dump_station":"no","seasonal":"yes","surface":"asphalt","toilets":"no","website":"https://www.pyrenees-ariegeoises.com/offres/aire-de-stationnement-pour-camping-cars-ax-les-thermes-fr-4240146/"}},"702188810":{"location":[42.6729416,2.0242547],"ct":"FR","tp":"CS","ts":"2019-07-07T07:48:19Z","tX":517,"tY":377,"tags":{"backcountry":"yes","internet_access":"no","name":"Bivouac possible","operator":"Bivouac libre","tents":"yes","wheelchair":"no"}},"702188811":{"location":[42.6747643,2.0267856],"ct":"FR","tp":"CS","ts":"2019-07-07T07:48:19Z","tX":517,"tY":377,"tags":{"backcountry":"yes","internet_access":"no","name":"Bivouac possible","operator":"Bivouac libre","tents":"yes","wheelchair":"no"}},"775119783":{"location":[42.7262084,1.8310644],"ct":"FR","tp":"CR","ts":"2024-09-05T10:27:02Z","tX":517,"tY":377,"tags":{"capacity":"24","caravan_site":"motorhome_stopover","caravan_site:type":"parking_lot","charge":"13.88 EUR","charge:conditional":"10.58 EUR @ (Apr-Jun); 10.58 EUR @ (Sep 16-Nov 30)","dog":"yes","fee":"yes","maxstay":"21 days","name":"Parking de la gare Ax-les-Thermes","network":"AirePark","opening_hours":"24/7","power_supply:capacity":"16","power_supply:maxcurrent":"10","sanitary_dump_station":"yes","surface":"asphalt","water_point":"yes","website":"https://www.pyrenees-ariegeoises.com/offres/aire-pour-camping-cars-ax-les-thermes-fr-4240157/"}},"875740840":{"location":[42.5922037,1.8045406],"ct":"FR","tp":"CS","ts":"2023-11-03T00:10:48Z","tX":517,"tY":377,"tags":{"email":"contact@camping-hospitalet.fr","name":"La Porte des Cimes","phone":"+33 5 61 05 21 10","website":"https://www.camping-hospitalet.fr/"}},"875741866":{"location":[42.723725,1.8935577],"ct":"FR","tp":"CS","ts":"2024-07-07T14:02:52Z","tX":517,"tY":377,"tags":{"caravans":"yes","drinking_water":"yes","email":"info@ascou-la-forge.fr","name":"La Forge","phone":"+33 561 646 003","power_supply":"yes","sanitary_dump_station":"yes","shower":"yes","tents":"yes","toilets":"yes","website":"https://www.ascou-la-forge.fr"}},"960159052":{"location":[42.6475949,1.8310529],"ct":"FR","tp":"CS","ts":"2021-07-01T18:13:59Z","tX":517,"tY":377,"tags":{"email":"camping.merens@wanadoo.fr","name":"Camping de Mérens Les Vals","note":"05 61 02 85 40 (mai à septembre) ; 05 61 64 33 77 (octobre à avril)","stars":"3","website":"https://www.camping.merenslesvals.fr/en/home/"}},"1079474578":{"location":[42.5790445,2.0956917],"ct":"FR","tp":"CR","ts":"2024-10-17T12:38:35Z","tX":517,"tY":377,"tags":{"bbq":"no","capacity":"40","caravan_site":"motorhome_stopover","caravan_site:type":"forest;lake","caravans":"no","charge":"15.22 EUR","dog":"leashed","fee":"yes","internet_access":"wlan","maxlength":"none","name":"Aire Camping-car Park De Matemale","network":"CAMPING-CAR PARK","power_supply":"yes","power_supply:capacity":"40","power_supply:fee":"no","power_supply:maxcurrent":"6","sanitary_dump_station":"yes","sanitary_dump_station:chemical_toilet":"yes","sanitary_dump_station:grey_water":"yes","tents":"no","trailer":"yes","water_point":"yes","website":"https://www.campingcarpark.com/fr_FR/sejour/aire-etape-camping-car/occitanie/66-pyrenees-orientales/matemale"}},"1130603145":{"location":[42.7104713,2.0753015],"ct":"FR","tp":"CS","ts":"2023-01-10T11:30:56Z","tX":517,"tY":377,"tags":{}},"1983301837":{"location":[42.6950795,2.0970311],"ct":"FR","tp":"CS","ts":"2018-09-21T17:58:11Z","tX":517,"tY":377,"tags":{"name":"Le Bosqet","opening_hours":"Jun 01-Sep 30","stars":"2","website":"http://www.camping-ariege-lebosquet.fr/camping-le-bosquet-querigut.php"}},"4268527782":{"location":[42.7773657,1.759501],"ct":"FR","tp":"CS","ts":"2019-10-05T08:59:10Z","tX":517,"tY":377,"tags":{"name":"La Ferme de Berbescou","opening_hours":"May 15-Oct 15","phone":"+33 561 644 577","website":"https://www.ariege.com/campings/ferme-berbescou"}},"6217096581":{"location":[42.6080317,2.0905647],"ct":"FR","tp":"CS","ts":"2019-10-09T06:25:47Z","tX":517,"tY":377,"tags":{"addr:city":"Formiguères","addr:housenumber":"19","addr:postcode":"66210","addr:street":"Route de la Devèze","email":"campingladeveze@wanadoo.fr","name":"Camping la Devèze","phone":"+33 468 046 673","stars":"3","website":"https://www.campingladeveze.com/"}},"10647069118":{"location":[42.5761876,1.9943565],"ct":"FR","tp":"CS","ts":"2023-02-10T20:15:42Z","tX":517,"tY":377,"tags":{"camp_site":"basic"}},"10647069119":{"location":[42.5744791,1.9938804],"ct":"FR","tp":"CS","ts":"2023-02-10T20:15:42Z","tX":517,"tY":377,"tags":{"camp_site":"basic"}},"11012406301":{"location":[42.6355916,1.8682256],"ct":"FR","tp":"CS","ts":"2023-06-28T13:53:15Z","tX":517,"tY":377,"tags":{"camp_site":"basic","name":"Bivouac possible","operator":"Bivouac libre"}},"11012417720":{"location":[42.5971934,1.9196978],"ct":"FR","tp":"CS","ts":"2023-06-28T13:53:15Z","tX":517,"tY":377,"tags":{"camp_site":"basic","name":"Bivouac possible","operator":"Bivouac libre"}},"11012417729":{"location":[42.6287455,1.9429157],"ct":"FR","tp":"CS","ts":"2023-06-28T13:53:15Z","tX":517,"tY":377,"tags":{"camp_site":"basic","name":"Bivouac possible","operator":"Bivouac libre"}},"12104644501":{"location":[42.6337899,1.9989606],"ct":"FR","tp":"CS","ts":"2024-08-11T17:48:32Z","tX":517,"tY":377,"tags":{"name":"bivouac"}},"12110678763":{"location":[42.5712347,1.9209002],"ct":"FR","tp":"CS","ts":"2024-08-14T16:41:01Z","tX":517,"tY":377,"tags":{"camp_site":"basic","description":"Bivouac entouré de pierres et protégé par un rocher à l'ouest"}},"12157489119":{"location":[42.7032398,1.8157965],"ct":"FR","tp":"CR","ts":"2024-09-05T12:25:09Z","tX":517,"tY":377,"tags":{"alt_name":"Aire Bonascre Plateau","caravan_site":"motorhome_stopover","caravan_site:type":"skiing","dog":"yes","fee":"no","name":"Aire pour camping-cars station Ax 3 Domaines","opening_hours":"24/7","power_supply":"yes","power_supply:charge":"6 EUR/12 hours","power_supply:fee":"yes","power_supply:maxcurrent":"16","sanitary_dump_station":"yes","sanitary_dump_station:chemical_toilet":"yes","sanitary_dump_station:grey_water":"yes","seasonal":"no","water_point":"yes","water_point:charge":"2 EUR","water_point:fee":"yes","website":"http://www.mairie-ax.fr/social/aires-de-camping-car"}},"8305810260":{"location":[42.5887226,1.7994245],"ct":"FR","tp":"SD","ts":"2024-09-05T12:23:03Z","tX":517,"tY":377,"tags":{"access":"yes","fee":"no","operator":"Ville de L'Hospitalet-près-l'Andorre","sanitary_dump_station:basin":"yes","sanitary_dump_station:chemical_toilet":"yes","sanitary_dump_station:grey_water":"yes","water_point":"yes"}},"12157489120":{"location":[42.7033472,1.8167648],"ct":"FR","tp":"SD","ts":"2024-09-05T10:49:22Z","tX":517,"tY":377,"tags":{}},"12307169601":{"location":[42.7306073,1.7989914],"ct":"FR","tp":"SD","ts":"2024-11-02T13:42:44Z","tX":517,"tY":377,"tags":{}},"12512916441":{"location":[42.7033454,1.8167742],"ct":"FR","tp":"SD","ts":"2025-01-18T21:04:49Z","tX":517,"tY":377,"tags":{"fee":"no"}}}