{"7566186":{"location":[42.3706314,1.8065551],"ct":"ES","tp":"CS","ts":"2024-07-25T15:01:54Z","tX":517,"tY":378,"tags":{"addr:city":"Isòvol","addr:milestone":"km. 193","addr:postcode":"17539","addr:street":"Eix Pirinenc","name":"Camping Bellver","phone":"+34 973 510 239","website":"https://campingbellver.com/"}},"7742210":{"location":[42.4700429,2.0018329],"ct":"FR","tp":"CS","ts":"2023-10-30T13:20:12Z","tX":517,"tY":378,"tags":{"addr:city":"Estavar","addr:postcode":"66800","addr:street":"Carrer dels Vinyals","contact:email":"contact@camping-lenclave.com","contact:phone":"+33 468 047 227","fee":"yes","name":"Camping L'Enclave","stars":"3","website":"https://camping-lenclave.com/"}},"7742828":{"location":[42.4084895,1.9897183],"ct":"FR","tp":"CS","ts":"2023-04-01T07:39:56Z","tX":517,"tY":378,"tags":{"addr:city":"Osséja","addr:postcode":"66340","addr:street":"Route Forestière d'Osséja","contact:email":"contact@camping-elpailles-pyrenees.com","contact:phone":"+33 468 047 850","internet_access":"wlan","motorhome":"yes","name":"Camping El Paillès","shower":"yes","stars":"3","tents":"yes","toilets":"yes","website":"https://camping-elpailles-pyrenees.fr/"}},"14054531":{"location":[42.4412061,1.9399006],"ct":"ES","tp":"CS","ts":"2023-03-31T18:05:13Z","tX":517,"tY":378,"tags":{"mapillary":"1114683652371819","name":"Càmping Stel","name:ca":"Càmping Stel","website":"https://www.stel.es/puigcerda/"}},"14062679":{"location":[42.4434568,1.9078004],"ct":"ES","tp":"CS","ts":"2022-11-26T04:39:49Z","tX":517,"tY":378,"tags":{"name":"Càmping Pirineus","name:ca":"Càmping Pirineus","website":"https://www.stel.es/guilsdecerdanya/"}},"14065485":{"location":[42.3916782,1.9164783],"ct":"ES","tp":"CS","ts":"2022-04-22T11:20:56Z","tX":517,"tY":378,"tags":{"name":"Camping Queixans S.L."}},"14453265":{"location":[42.3713411,1.7592291],"ct":"ES","tp":"CS","ts":"2023-10-30T13:18:54Z","tX":517,"tY":378,"tags":{"name":"Camping Solana del Segre","website":"https://www.solanadelsegre.com/"}},"79887893":{"location":[42.459531,2.0344614],"ct":"FR","tp":"CS","ts":"2017-11-18T12:51:23Z","tX":517,"tY":378,"tags":{"addr:city":"Saillagouse","addr:housenumber":"11","addr:postcode":"66800","addr:street":"Chemin d'Estavar","area":"yes","contact:phone":"+33468047046","fee":"yes","internet_access":"wlan","internet_access:fee":"yes","name":"Camping Domaine Le Cerdan","website":"https://www.lecerdan.com/"}},"148186292":{"location":[42.4398471,1.9439358],"ct":"FR","tp":"CS","ts":"2023-10-30T13:19:17Z","tX":517,"tY":378,"tags":{"addr:city":"Bourg-Madame","addr:postcode":"66760","addr:street":"Rue du Train Jaune","contact:email":"campiques@orange.fr","contact:phone":"+33612331258","name":"Mas-Piques","name:ca":"Mas-Piques","source":"cadastre-dgi-fr source : Direction Générale des Impôts - Cadastre;mise à jour : 2012","website":"https://www.campingmaspiques.com/"}},"148201230":{"location":[42.4348534,1.9455929],"ct":"FR","tp":"CS","ts":"2018-08-18T21:46:28Z","tX":517,"tY":378,"tags":{"addr:housenumber":"8","addr:postcode":"66760","addr:street":"Avenue Emmanuel Brousse","capacity":"44","contact:phone":"+33468046587","fee":"yes","internet_access":"wlan","internet_access:fee":"no","name":"Camping Le Segre","source":"cadastre-dgi-fr source : Direction Générale des Impôts - Cadastre. Mise à jour : 2012","stars":"3","website":"http://www.bourg-madame.fr/camping-le-segre/"}},"183901241":{"location":[42.5476848,1.8359007],"ct":"FR","tp":"CS","ts":"2019-10-05T08:59:10Z","tX":517,"tY":378,"tags":{"name":"La Rivière","website":"https://www.puymorens.fr/le-camping/"}},"190520085":{"location":[42.3345765,1.9318457],"ct":"ES","tp":"CR","ts":"2024-04-02T23:18:27Z","tX":517,"tY":378,"tags":{"access":"yes","caravan_site":"motorhome_stopover","caravan_site:type":"parking_lot;ski_resort","description":"Preferential for campers an caravans","fee":"no","name":"La Molina Pàrquing Telecabina","toilets":"no","website":"https://www.lamolina.cat/hivern/preguntes-frequents/"}},"230809267":{"location":[42.4636565,1.7837277],"ct":"ES","tp":"CS","ts":"2013-07-22T08:44:36Z","tX":517,"tY":378,"tags":{"name":"Zona d'acampada controlada","operator":"Refugi de Malniu"}},"232708282":{"location":[42.4614788,2.0024705],"ct":"FR","tp":"CS","ts":"2019-10-09T06:25:47Z","tX":517,"tY":378,"tags":{"addr:city":"Estavar","addr:postcode":"66800","addr:street":"Cami del Sègre","brand":"yelloh! village","contact:phone":"+33 468 308 100","name":"Résidence L'Escapade","stars":"4","website":"https://www.lescapade.com/"}},"233441123":{"location":[42.4594951,1.9114204],"ct":"FR","tp":"CS","ts":"2024-03-26T14:48:23Z","tX":517,"tY":378,"tags":{"addr:city":"Enveitg","addr:housenumber":"25","addr:postcode":"66760","addr:street":"Avenue de la Gare Internationale","contact:facebook":"https://fr-fr.facebook.com/CampingRobinsonCerdagne","email":"infos@robinson-cerdagne.com","name":"Camping Robinson","stars":"2","website":"https://www.robinson-cerdagne.com/"}},"293588254":{"location":[42.4705546,1.8805862],"ct":"FR","tp":"CS","ts":"2024-06-26T16:54:37Z","tX":517,"tY":378,"tags":{"addr:city":"Latour-de-Carol","addr:postcode":"66760","mapillary":"972417680164804","name":"Cerdagne Camping l'Oratoire","phone":"+33 468 048 370","stars":"3","website":"https://www.cerdagne-camping.com/"}},"293617529":{"location":[42.4782837,1.9566982],"ct":"FR","tp":"CS","ts":"2024-08-11T23:30:44Z","tX":517,"tY":378,"tags":{"caravans":"yes","fee":"yes","name":"Sol i Neu","name:ca":"Sol i Neu","phone":"+33 468 046 683","shower":"hot","stars":"2","tents":"yes","toilets":"customers","website":"http://www.angoustrine.net/index.php/tourisme/hebergements/camping-municipal"}},"305740686":{"location":[42.4407672,2.0309723],"ct":"FR","tp":"CS","ts":"2020-07-09T12:46:42Z","tX":517,"tY":378,"tags":{"addr:city":"Err","addr:housenumber":"1","addr:postcode":"66800","addr:street":"Place Sant Genis","contact:email":"reception@camping-las-closas.com","contact:phone":"+33468047142","fee":"yes","name":"Camping Las Closas","source":"gps, survey","website":"http://www.camping-las-closas.com/","wheelchair":"yes"}},"337779583":{"location":[42.3229772,2.105104],"ct":"ES","tp":"CS","ts":"2023-10-29T22:59:16Z","tX":517,"tY":378,"tags":{"name":"Càmping Can Fosses","name:ca":"Càmping Can Fosses","website":"https://www.canfosses.com/"}},"419451464":{"location":[42.4369743,2.0345174],"ct":"FR","tp":"CS","ts":"2020-08-09T16:53:37Z","tX":517,"tY":378,"tags":{"addr:city":"Err","addr:postcode":"66800","addr:street":"Route de Puigmal","name":"Camping Le Puigmal","phone":"+33 468 047 183","stars":"3","website":"https://www.camping-le-puigmal.fr"}},"431278992":{"location":[42.4955811,1.9858862],"ct":"FR","tp":"CS","ts":"2023-10-30T13:19:07Z","tX":517,"tY":378,"tags":{"addr:city":"Targassonne","addr:housenumber":"39","addr:postcode":"66120","addr:street":"Route d’Andorre","email":"celinebe66@gmail.com","name":"La Griole","phone":"+33 468 300 384","stars":"3","website":"https://www.lagriole.com/"}},"447965803":{"location":[42.4635284,2.0324518],"ct":"FR","tp":"CS","ts":"2021-06-24T11:30:37Z","tX":517,"tY":378,"tags":{"addr:city":"Saillagouse","addr:housenumber":"19","addr:postcode":"66800","addr:street":"Avenue du Roussillon","contact:phone":"+33468047508","fee":"yes","name":"Camping Ilisa","website":"https://www.ilisa.fr/"}},"541569152":{"location":[42.4559625,1.9430404],"ct":"FR","tp":"CS","ts":"2023-10-30T13:19:58Z","tX":517,"tY":378,"tags":{"addr:city":"Ur","addr:postcode":"66760","addr:street":"Route d'Espagne","contact:email":"contact@camping-cerdagne.com","contact:phone":"+33468048095","fee":"yes","internet_access":"wlan","internet_access:fee":"no","name":"Camping de la Gare","website":"https://www.camping-cerdagne.com/"}},"639037139":{"location":[42.4110656,1.9650268],"ct":"FR","tp":"CS","ts":"2019-10-09T06:25:47Z","tX":517,"tY":378,"tags":{"addr:city":"Palau-de-Cerdagne","addr:postcode":"66340","addr:street":"Avenue du Pouligou","email":"las.asperas@palacioloisirs.com","name":"Las Asperas","phone":"+33 468 046 208","stars":"3","website":"http://www.camping-pyrenees-cerdagne.com/"}},"730448966":{"location":[42.4630015,1.9345258],"ct":"FR","tp":"CS","ts":"2024-05-28T08:35:29Z","tX":517,"tY":378,"tags":{"addr:city":"Ur","addr:country":"FR","addr:housenumber":"3","addr:postcode":"66760","addr:street":"Rue de la Fontaine Bleue","capacity":"33","caravans":"yes","fee":"yes","name":"Camping GCU de Ur","operator":"Groupement des Campeurs Universitaires","phone":"+33 4 68 04 97 11","sanitary_dump_station":"customers","stars":"2","static_caravans":"no","tents":"yes","website":"https://www.gcu.asso.fr/terrains/ur-pyr%C3%A9n%C3%A9es-orientales-66","wheelchair":"limited"}},"730448971":{"location":[42.4400211,2.0395557],"ct":"FR","tp":"CS","ts":"2024-08-17T21:37:46Z","tX":517,"tY":378,"tags":{"addr:city":"Err","addr:country":"FR","addr:housenumber":"2","addr:postcode":"66800","addr:street":"Cami dels Aranets","capacity":"100","caravans":"yes","drinking_water":"yes","fee":"yes","name":"GCU Err","operator":"Groupement des Campeurs Universitaires","phone":"+33 4 68 04 00 62","power_supply":"yes","sanitary_dump_station":"customers","shower":"yes","stars":"2","static_caravans":"no","tents":"yes","toilets":"yes","website":"https://www.gcu.asso.fr/terrains/err-pyr%C3%A9n%C3%A9es-orientales-66","wheelchair":"yes"}},"815698349":{"location":[42.5067783,2.0472606],"ct":"FR","tp":"CS","ts":"2019-10-09T06:25:47Z","tX":517,"tY":378,"tags":{"addr:city":"Font-Romeu-Odeillo-Via","addr:postcode":"66120","addr:street":"Route de Mont Louis","name":"Huttopia Font-Romeu","phone":"+33 468 300 932","stars":"3","website":"https://europe.huttopia.com/site/camping-font-romeu/"}},"860918989":{"location":[42.5475265,1.8344604],"ct":"FR","tp":"CR","ts":"2024-05-17T22:34:46Z","tX":517,"tY":378,"tags":{"capacity":"31","caravan_site":"motorhome_stopover","caravan_site:type":"ski_resort","caravans":"no","charge":"15.15 EUR","dog":"leashed","fee":"yes","maxlength":"none","name":"Aire Camping-car Park de Porté-Puymorens","network":"CAMPING-CAR PARK","operator":"Camping-car Park","power_supply":"yes","power_supply:capacity":"36","power_supply:fee":"no","power_supply:maxcurrent":"6","sanitary_dump_station":"yes","tents":"no","toilets":"no","trailer":"yes","water_point":"yes","website":"https://www.campingcarpark.com/fr_FR/sejour/aire-etape-camping-car/occitanie/66-pyrenees-orientales/porte-puymorens"}},"932308632":{"location":[42.5193209,2.0961105],"ct":"FR","tp":"CS","ts":"2024-08-23T11:02:08Z","tX":517,"tY":378,"tags":{"addr:city":"La Llagonne","addr:postcode":"66210","addr:street":"Route des Bouillouses","alt_name":"Camping Les Bouillouses","name":"Camping Le Petit Canada","phone":"+33 07 89 08 78 98.","stars":"2","website":"https://www.camping-lepetitcanada.fr/"}},"957845781":{"location":[42.4560182,2.0422547],"ct":"FR","tp":"CS","ts":"2022-03-19T15:59:43Z","tX":517,"tY":378,"tags":{"addr:city":"Saillagouse","addr:street":"Route de Vedrignans","email":"contact@levedrignans.com","fax":"+33 4 68 04 06 89","fixme":"tourism=camp_site, chalet or apartments?","name":"Le Védrignans","phone":"+33 4 68 04 04 79","website":"https://levedrignans.com/"}},"965984112":{"location":[42.4539642,2.0587916],"ct":"FR","tp":"CR","ts":"2024-09-05T22:17:23Z","tX":517,"tY":378,"tags":{"bus":"no","caravan_site":"motorhome_stopover","caravan_site:type":"countryside","caravans":"designated","cars":"yes","description":"parking camping-cars et minibus, voitures autorisées","fee":"no"}},"1065471058":{"location":[42.4964361,2.038304],"ct":"FR","tp":"CR","ts":"2024-06-17T14:47:17Z","tX":517,"tY":378,"tags":{"capacity":"28","caravan_site":"motorhome_stopover","caravan_site:type":"ski_resort","charge":"13.30 EUR","fee":"yes","internet_access":"wlan","name":"Aire de camping-cars Font-Romeu-Odeillo-Via","network":"AirePark","power_supply:capacity":"28","power_supply:maxcurrent":"16","sanitary_dump_station":"yes","water_point":"yes","water_point:charge":"2 EUR","water_point:fee":"yes","website":"https://www.aireparkreservation.com/aires-camping-cars/occitanie/pyrenees-orientales/font-romeu-odeillo-via"}},"1308357434":{"location":[42.4869374,1.9444686],"ct":"FR","tp":"CR","ts":"2024-08-17T01:24:29Z","tX":517,"tY":378,"tags":{"capacity":"4","caravan_site":"motorhome_stopover","caravan_site:type":"village","dog":"yes","fee":"no","name":"Aire de camping car Dorres","sanitary_dump_station":"yes","website":"https://www.tourism-mediterraneanpyrenees.com/aire-de-stationnement-dorres/dorres/accamlar066v50iklc"}},"1339352470":{"location":[42.5041736,2.0159726],"ct":"FR","tp":"CS","ts":"2023-08-01T14:52:38Z","tX":517,"tY":378,"tags":{"addr:city":"Egat","addr:housenumber":"6","addr:postcode":"66120","addr:street":"Rue de la Nalga","caravans":"yes","email":"michel.marti66@orange.fr","name":"Camping Las Clotes","phone":"+33 468 302 690","stars":"2","tents":"yes","website":"https://www.campinglasclotes-egat-fontromeu.fr/"}},"2985985724":{"location":[42.4576169,2.037515],"ct":"FR","tp":"CR","ts":"2024-08-19T20:08:38Z","tX":517,"tY":378,"tags":{"caravan_site":"motorhome_stopover","caravan_site:type":"village","fee":"no","name":"Aire communale Saillagouse","toilets":"yes","water_point":"yes","water_point:charge":"4 EUR","water_point:fee":"yes","website":"https://www.saillagouse.com/en/services-renseignements-utiles/aires-de-services-pour-camping-cars"}},"11012417721":{"location":[42.5453006,2.0164982],"ct":"FR","tp":"CS","ts":"2024-07-17T08:16:10Z","tX":517,"tY":378,"tags":{"camp_site":"basic","caravans":"no","drinking_water":"no","name":"Bivouac possible","operator":"Bivouac libre","power_supply":"no","shower":"no","tents":"yes","toilets":"no"}},"11104490447":{"location":[42.5489803,2.0187665],"ct":"FR","tp":"CS","ts":"2023-08-10T10:29:57Z","tX":517,"tY":378,"tags":{"camp_site":"basic","caravans":"no","name":"Bivouac possible","opening_hours":"19:00-09:00","operator":"Bivouac libre","reservation":"no","tents":"yes"}},"11104674417":{"location":[42.5522964,2.0148052],"ct":"FR","tp":"CS","ts":"2023-08-10T12:26:50Z","tX":517,"tY":378,"tags":{"camp_site":"basic","caravans":"no","name":"Bivouac possible","opening_hours":"Mo-Su 19:00-09:00","operator":"Bivouac libre","tents":"yes"}},"8305841545":{"location":[42.4870305,1.9444392],"ct":"FR","tp":"SD","ts":"2021-01-09T13:56:50Z","tX":517,"tY":378,"tags":{"access":"yes","fee":"no","operator":"Ville de Dorres","sanitary_dump_station:basin":"yes","water_point":"yes"}},"12421665882":{"location":[42.43259,1.9365523],"ct":"ES","tp":"SD","ts":"2024-12-13T22:42:29Z","tX":517,"tY":378,"tags":{"fee":"no"}}}