{"7351529":{"location":[42.2280859,1.7589093],"ct":"ES","tp":"CS","ts":"2023-10-29T22:59:27Z","tX":517,"tY":379,"tags":{"name":"Càmping Repòs del Pedraforca","name:ca":"Càmping Repòs del Pedraforca","website":"https://www.campingpedraforca.com/"}},"7584006":{"location":[42.1115564,1.7990373],"ct":"ES","tp":"CS","ts":"2023-11-04T14:08:32Z","tX":517,"tY":379,"tags":{"name":"Càmping Font Freda","name:ca":"Càmping Font Freda","phone":"+34 938213354","website":"https://www.campingfontfreda.com/"}},"8338871":{"location":[42.0916413,1.8573701],"ct":"ES","tp":"CS","ts":"2023-11-04T14:08:21Z","tX":517,"tY":379,"tags":{"email":"bergaresort@bergaresort.com","name":"Berga Resort","phone":"+34 938211250","website":"https://www.bergaresort.com/"}},"10123489":{"location":[42.2427922,1.9221226],"ct":"ES","tp":"CS","ts":"2023-04-01T09:44:10Z","tX":517,"tY":379,"tags":{"name":"Càmping L'Espelt","name:ca":"Càmping L'Espelt","phone":"+34 938 236 502","website":"https://www.campinglespelt.com/"}},"10759774":{"location":[42.2165555,1.83632],"ct":"ES","tp":"CS","ts":"2023-09-21T20:26:55Z","tX":517,"tY":379,"tags":{"name":"Càmping El Berguedà","name:ca":"Càmping El Berguedà","website":"https://www.campingbergueda.com/"}},"11497409":{"location":[42.1456321,1.999992],"ct":"ES","tp":"CS","ts":"2023-09-21T20:26:55Z","tX":517,"tY":379,"tags":{"name":"Càmping Campalans","name:ca":"Càmping Campalans","website":"https://www.campalans.net/"}},"12546799":{"location":[42.259789,1.8343694],"ct":"ES","tp":"CS","ts":"2022-11-26T01:29:43Z","tX":517,"tY":379,"tags":{"access":"private","addr:city":"Bagà","capacity":"120","charge":"5.30 EUR","fee":"yes","group_only":"yes","name":"Terreny d'acampada Sant Joan de l'Avellanet","name:ca":"Terreny d'acampada Sant Joan de l'Avellanet","operator":"Generalitat de Catalunya","website":"https://www.campaments.cat/terreny/sant-joan-de-lavellanet"}},"14074801":{"location":[42.076962,1.8186913],"ct":"ES","tp":"CR","ts":"2024-04-02T23:24:42Z","tX":517,"tY":379,"tags":{"fee":"no","maxstay":"48 hours","name":"Àrea d'autocaravanes Avià","power_supply":"yes","power_supply:charge":"3 EUR","power_supply:fee":"yes","sanitary_dump_station":"yes","supervised":"no","water_point":"yes","website":"https://www.avia.cat/avia/guia-del-municipi/equipaments/area-dautocaravanes.html"}},"14214230":{"location":[42.0932227,2.0073149],"ct":"ES","tp":"CS","ts":"2023-09-21T20:26:55Z","tX":517,"tY":379,"tags":{"name":"Càmping Riera Merlès","name:ca":"Càmping Riera Merlès","website":"http://www.campingrieramerles.net/"}},"14217363":{"location":[42.1314325,2.0446688],"ct":"ES","tp":"CS","ts":"2024-08-06T06:34:54Z","tX":517,"tY":379,"tags":{"addr:city":"Borradà","addr:milestone":"km. 22","addr:postcode":"08619","addr:street":"Carretera Sant Quirze a Berga","caravans":"yes","contact:email":"info@campingpuigcercos.com","contact:phone":"+34938239250","name":"Camping Puigcercós","stars":"2","tents":"yes","website":"https://www.campingpuigcercos.com/"}},"14361051":{"location":[42.2297179,1.7854086],"ct":"ES","tp":"CS","ts":"2023-09-21T20:26:55Z","tX":517,"tY":379,"tags":{"name":"Càmping Susèn","website":"http://www.campingsusenpedraforca.cat/"}},"14648945":{"location":[42.2700016,1.8507243],"ct":"ES","tp":"CS","ts":"2023-10-29T23:00:15Z","tX":517,"tY":379,"tags":{"access":"private","addr:city":"Bagà","capacity":"80","charge":"5.30 EUR","fee":"yes","group_only":"yes","name":"Terreny d'acampada Riugréixer","operator":"Campaments.cat","website":"https://campaments.cat/terreny/riugreixer"}},"307131553":{"location":[42.2583896,1.8482065],"ct":"ES","tp":"CS","ts":"2024-09-29T12:58:27Z","tX":517,"tY":379,"tags":{"caravans":"yes","drinking_water":"yes","name":"Càmping Bastareny","name:ca":"Càmping Bastareny","tents":"yes","website":"http://campingbastareny.com"}},"348763965":{"location":[42.0698713,1.842138],"ct":"ES","tp":"CS","ts":"2022-11-26T01:21:00Z","tX":517,"tY":379,"tags":{"name":"Càmping Serrat Roig","name:ca":"Càmping Serrat Roig","website":"https://www.campingserratroig.com/"}},"624248299":{"location":[42.1575988,2.0536186],"ct":"ES","tp":"CS","ts":"2018-09-09T17:28:59Z","tX":517,"tY":379,"tags":{"name":"Camping Saiol"}},"966547208":{"location":[42.1433621,1.9998847],"ct":"ES","tp":"CS","ts":"2024-07-25T18:14:24Z","tX":517,"tY":379,"tags":{"access":"customers","addr:city":"Borredà","addr:milestone":"km. 1.5","addr:street":"carretera de Sant Jaume de Frontanyà","capacity":"80","charge":"3.70 EUR","fee":"yes","group_only":"yes","name":"Camp dels cavalls","name:ca":"Camp dels cavalls","operator":"Terreny d'acampada Camp dels Cavalls","website":"https://campaments.cat/terreny/camp-dels-cavalls"}},"966547209":{"location":[42.1420311,1.9980657],"ct":"ES","tp":"CS","ts":"2024-08-06T06:33:36Z","tX":517,"tY":379,"tags":{"access":"private","addr:city":"Borredà","addr:milestone":"km. 1.5","addr:street":"carretera de Sant Jaume de Frontanyà","capacity":"200","charge":"3.70 EUR","fee":"yes","group_only":"yes","name":"Terreny d'acampada Rocablanca","operator":"Campaments.cat","website":"https://campaments.cat/terreny/rocablanca"}},"966724558":{"location":[42.2072662,1.805923],"ct":"ES","tp":"CS","ts":"2023-10-29T23:00:03Z","tX":517,"tY":379,"tags":{"access":"private","addr:city":"Vallcebre","capacity":"20","charge":"3 EUR","fee":"yes","group_only":"yes","name":"Terreny d'acampada Coll de Vilamajor","name:ca":"Terreny d'acampada Coll de Vilamajor","website":"https://campaments.cat/terreny/coll-de-vilamajor"}},"966724559":{"location":[42.2074262,1.8047895],"ct":"ES","tp":"CS","ts":"2023-10-29T23:00:25Z","tX":517,"tY":379,"tags":{"access":"private","addr:city":"Vallcebre","capacity":"40","charge":"3 EUR","fee":"yes","group_only":"yes","name":"Terreny d'acampada Camp de la Cambrota","operator":"Campaments.cat","website":"https://campaments.cat/terreny/camp-de-la-cambrota"}},"967295592":{"location":[42.1517443,2.0666885],"ct":"ES","tp":"CS","ts":"2023-11-04T14:08:25Z","tX":517,"tY":379,"tags":{"access":"private","addr:city":"Les Llosses","addr:street":"Carretera de Ripoll","capacity":"80","charge":"3 EUR","fee":"yes","group_only":"yes","name":"Terreny d'acampada Bot de l'Oli (Can Llimós)","name:ca":"Terreny d'acampada Bot de l'Oli (Can Llimós)","operator":"Campaments.cat","website":"https://campaments.cat/terreny/bot-de-loli-can-llimos"}},"967295593":{"location":[42.1529351,2.0737214],"ct":"ES","tp":"CS","ts":"2023-11-04T14:08:28Z","tX":517,"tY":379,"tags":{"access":"private","addr:city":"Les Llosses","addr:street":"Carretera de Ripoll","capacity":"60","charge":"3 EUR","fee":"yes","group_only":"yes","name":"Terreny d'acampada La Bagueta (Can Llimós)","name:ca":"Terreny d'acampada La Bagueta (Can Llimós)","operator":"Campaments.cat","website":"https://campaments.cat/terreny/la-bagueta-can-llimos"}},"995146667":{"location":[42.1344249,1.9339285],"ct":"ES","tp":"CR","ts":"2021-10-21T06:32:51Z","tX":517,"tY":379,"tags":{"sanitary_dump_station":"yes"}},"1148153969":{"location":[42.2802555,2.0231211],"ct":"ES","tp":"CR","ts":"2024-11-06T14:06:26Z","tX":517,"tY":379,"tags":{"fee":"no","name":"Àrea gratuïta autocaravanes","note":"anteriorment era un camp de futbol","parking":"surface","power_supply":"no","sanitary_dump_station":"no"}},"12140205929":{"location":[42.0677652,2.0696621],"ct":"ES","tp":"CS","ts":"2024-08-27T15:27:29Z","tX":517,"tY":379,"tags":{}},"12318188704":{"location":[42.2486996,2.0891539],"ct":"ES","tp":"CR","ts":"2024-11-06T10:48:43Z","tX":517,"tY":379,"tags":{}},"9189391276":{"location":[42.1349494,1.9339546],"ct":"ES","tp":"SD","ts":"2021-10-21T06:32:51Z","tX":517,"tY":379,"tags":{"access":"yes","fee":"no","operator":"Ajuntament de Vilada","water_point":"yes"}},"9691945201":{"location":[42.0768743,1.8187858],"ct":"ES","tp":"SD","ts":"2022-04-25T10:58:00Z","tX":517,"tY":379,"tags":{"description":"descarga gratuïta d'aigües grises","fee":"no"}},"12318280256":{"location":[42.2802421,2.0227282],"ct":"ES","tp":"SD","ts":"2024-11-06T13:09:58Z","tX":517,"tY":379,"tags":{}},"12627934490":{"location":[42.1270504,1.885829],"ct":"ES","tp":"CR","ts":"2025-03-01T07:41:30Z","tX":517,"tY":379,"tags":{}},"12729656255":{"location":[42.1198594,2.1026388],"ct":"ES","tp":"CR","ts":"2025-04-04T19:42:17Z","tX":517,"tY":379,"tags":{"fee":"no"}}}