{"9217222":{"location":[41.9435915,1.7810525],"ct":"ES","tp":"CS","ts":"2023-11-11T06:54:34Z","tX":517,"tY":380,"tags":{"name":"Càmping L'Hostalet","name:ca":"Càmping L'Hostalet","website":"https://www.campinghostalet.cat/"}},"11134673":{"location":[42.0021797,1.9864443],"ct":"ES","tp":"CS","ts":"2022-11-26T08:28:39Z","tX":517,"tY":380,"tags":{"designation":"***","name":"Càmping Vall de Merlès","name:ca":"Càmping Vall de Merlès"}},"17745397":{"location":[42.0128252,1.8781485],"ct":"ES","tp":"CS","ts":"2024-06-21T08:46:12Z","tX":517,"tY":380,"tags":{"fixme":"limits","name":"Càmping Gironella","name:ca":"Càmping Gironella"}},"273823355":{"location":[41.9788339,2.1017297],"ct":"ES","tp":"CS","ts":"2022-01-26T17:13:43Z","tX":517,"tY":380,"tags":{"addr:city":"Olost","addr:postcode":"08516","name":"Camping Lluçanes","phone":"+34 938 12 91 31"}},"335268131":{"location":[41.9581329,1.8909475],"ct":"ES","tp":"CS","ts":"2022-11-26T06:59:16Z","tX":517,"tY":380,"tags":{"name":"Càmping Puig-reig","name:ca":"Càmping Puig-reig","website":"https://www.campingpuigreig.com/"}},"627456325":{"location":[42.0044812,2.0339789],"ct":"ES","tp":"CR","ts":"2023-10-25T00:32:26Z","tX":517,"tY":380,"tags":{"cabins":"no","caravans":"yes","drinking_water":"yes","fee":"no","internet_access":"wlan","nudism":"no","operator":"Ajuntament de Prats de Lluçanès","permanent_camping":"no","power_supply":"cee_7_4","sanitary_dump_station":"yes","shower":"hot","static_caravans":"no","surface":"gravel","tents":"no","toilets":"yes","water_point":"yes"}},"1290211021":{"location":[42.0273195,1.8871379],"ct":"ES","tp":"CR","ts":"2024-06-07T10:20:03Z","tX":517,"tY":380,"tags":{"charge:power_supply":"5 € /24h","name":"Àrea d'autocaravanes","power_supply":"cee_17_blue"}},"4570480727":{"location":[41.8654385,1.9748743],"ct":"ES","tp":"CR","ts":"2016-12-24T14:54:36Z","tX":517,"tY":380,"tags":{"fee":"no","sanitary_dump_station":"yes"}},"6744813058":{"location":[41.7796929,1.915233],"ct":"ES","tp":"CR","ts":"2022-11-27T02:48:11Z","tX":517,"tY":380,"tags":{"addr:city":"Artés","addr:postcode":"08271","addr:street":"El Morell","name":"La Granja","name:ca":"La Granja","phone":"+34 630 90 38 22","website":"https://www.aparcament-lagranja.com"}},"9358597503":{"location":[41.9847354,2.0996519],"ct":"ES","tp":"CR","ts":"2021-12-22T16:19:08Z","tX":517,"tY":380,"tags":{}},"4570476916":{"location":[41.8653596,1.9746859],"ct":"ES","tp":"SD","ts":"2016-12-24T14:52:06Z","tX":517,"tY":380,"tags":{"fee":"no"}},"5851738413":{"location":[42.0044639,2.0341126],"ct":"ES","tp":"SD","ts":"2023-10-25T00:32:26Z","tX":517,"tY":380,"tags":{"fee":"no","sanitary_dump_station:basin":"yes","sanitary_dump_station:chemical_toilet":"yes","sanitary_dump_station:grey_water":"yes"}},"8934972972":{"location":[42.0274585,1.886897],"ct":"ES","tp":"SD","ts":"2021-07-20T06:45:53Z","tX":517,"tY":380,"tags":{}}}