{"7283193":{"location":[41.738968,1.8595537],"ct":"ES","tp":"CR","ts":"2023-11-09T10:18:45Z","tX":517,"tY":381,"tags":{"fixme":"Not realy caravan_site but parking for caravans.","name":"Camping Freixa","website":"https://www.campingfreixa.com/"}},"7283194":{"location":[41.7382781,1.858881],"ct":"ES","tp":"CS","ts":"2023-11-09T10:19:19Z","tX":517,"tY":381,"tags":{"name":"Camping Freixa","phone":"+34 93 836 27 99","website":"https://www.campingfreixa.com/"}},"10781179":{"location":[41.7372012,1.9346949],"ct":"ES","tp":"CS","ts":"2023-03-31T17:13:31Z","tX":517,"tY":381,"tags":{"internet_access":"wlan","name":"la Tatgera","name:ca":"la Tatgera","phone":"+34 696 60 82 44","website":"http://campinglatatgera.wixsite.com"}},"476623643":{"location":[41.7566813,1.9082359],"ct":"ES","tp":"CR","ts":"2024-03-27T15:10:12Z","tX":517,"tY":381,"tags":{"capacity":"8","caravans":"no","fee":"no","name":"Área de Autocaravanas de Navarcles","power_supply":"yes","sanitary_dump_station":"yes","tents":"no","water_source":"yes","website":"https://bagesturisme.cat/es/allotjament/zona-autocaravanes/"}},"673317950":{"location":[41.5519688,2.0643033],"ct":"ES","tp":"CR","ts":"2024-01-18T18:22:10Z","tX":517,"tY":381,"tags":{"capacity":"200","name":"Expocaravan","operator":"Expocaravan","sanitary_dump_station":"yes","water_point":"yes","website":"http://expocaravan.es/"}},"673324971":{"location":[41.5525676,2.0538673],"ct":"ES","tp":"CR","ts":"2024-01-18T18:20:46Z","tX":517,"tY":381,"tags":{"name":"Caravanas Turmo","operator":"Caravanas Turmo"}},"779425899":{"location":[41.5909308,1.8386509],"ct":"ES","tp":"CS","ts":"2023-10-13T10:52:02Z","tX":517,"tY":381,"tags":{"access":"customers","caravans":"no","drinking_water":"yes","fee":"yes","internet_access":"no","name":"Area esportiva i d'acampada Montserrat","openfire":"no","payment:cash":"yes","phone":"+34938777777","picnic_table":"yes","power_supply":"yes","reservation":"no","sanitary_dump_station":"no","shower":"yes","tents":"yes","toilets":"yes"}},"966487520":{"location":[41.552144,1.8988451],"ct":"ES","tp":"CS","ts":"2023-10-30T16:28:05Z","tX":517,"tY":381,"tags":{"access":"private","addr:city":"Olesa de Montserrat","capacity":"40","charge":"4.20 EUR","fee":"yes","group_only":"yes","name":"Terreny d'acampada Els Ametllers","name:ca":"Terreny d'acampada Els Ametllers","operator":"Campaments.cat","website":"https://campaments.cat/terreny/els-ametllers"}},"966487521":{"location":[41.5340591,2.0082821],"ct":"ES","tp":"CS","ts":"2023-10-30T16:26:49Z","tX":517,"tY":381,"tags":{"access":"private","addr:city":"Terrassa","capacity":"30","charge":"3 EUR","fee":"yes","group_only":"yes","name":"Terreny d'acampada Kan Kaliu","operator":"Campaments.cat","website":"https://campaments.cat/terreny/kan-kaliu"}},"1361408060":{"location":[41.7251231,1.8107981],"ct":"ES","tp":"CR","ts":"2025-02-20T10:36:39Z","tX":517,"tY":381,"tags":{"capacity":"6","caravan_site":"motorhome_stopover","maxstay":"72 hours","name":"Zona d'autocaravanes del Congost","name:ca":"Zona d'autocaravanes del Congost","name:es":"Zona de autocaravanas del Congost","sanitary_dump_station":"yes","sanitary_dump_station:chemical_toilet":"no","sanitary_dump_station:grey_water":"yes"}},"11061811305":{"location":[41.72489,1.8108417],"ct":"ES","tp":"CR","ts":"2024-05-19T16:18:10Z","tX":517,"tY":381,"tags":{"capacity":"6","caravan_site":"motorhome_stopover","maxstay":"72 hours","name":"Zona d'autocaravanes del Congost","name:ca":"Zona d'autocaravanes del Congost","name:es":"Zona de autocaravanas del Congost","sanitary_dump_station":"yes","sanitary_dump_station:chemical_toilet":"no","sanitary_dump_station:grey_water":"yes"}},"12554458201":{"location":[41.6730096,1.8441247],"ct":"ES","tp":"CR","ts":"2025-02-03T18:24:09Z","tX":517,"tY":381,"tags":{"name":"Àrea d'autocaravanes Castellgalí","opening_hours":"24/7"}}}