{"368942858":{"location":[37.8184132,127.5208769],"ct":"KR","tp":"CS","ts":"2024-06-07T07:20:29Z","tX":874,"tY":395,"tags":{"name":"자라섬캠핑장","name:en":"Jaraseom Camping Site","name:ko":"자라섬캠핑장","name:ko-Latn":"Jaraseomkaempingjang","ncat":"캠핑장","source":"http://kr.open.gugi.yahoo.com"}},"1106526268":{"location":[37.9617504,127.5280291],"ct":"KR","tp":"CS","ts":"2022-10-24T08:40:47Z","tX":874,"tY":395,"tags":{"name":"토토큰바위캠프"}},"1206798596":{"location":[37.9350963,127.5635356],"ct":"KR","tp":"CS","ts":"2023-09-11T07:59:05Z","tX":874,"tY":395,"tags":{"name":"다둥이네캠핑장"}},"1213175775":{"location":[37.8190618,127.6015395],"ct":"KR","tp":"CS","ts":"2023-10-05T00:30:41Z","tX":874,"tY":395,"tags":{"name":"강촌관광농원글램핑"}},"1213203375":{"location":[37.7984592,127.5896962],"ct":"KR","tp":"CS","ts":"2023-10-05T03:33:18Z","tX":874,"tY":395,"tags":{"name":"문배골캠핑장"}},"1213206668":{"location":[37.8450211,127.4867309],"ct":"KR","tp":"CS","ts":"2024-08-21T12:06:37Z","tX":874,"tY":395,"tags":{"name":"용추파크캠핑장"}},"1213208714":{"location":[37.8385052,127.5041364],"ct":"KR","tp":"CS","ts":"2023-10-05T04:29:40Z","tX":874,"tY":395,"tags":{"name":"가평카라반캠핑농원"}},"1214705891":{"location":[37.7442854,127.4457883],"ct":"KR","tp":"CS","ts":"2023-10-11T04:34:47Z","tX":874,"tY":395,"tags":{"name":"호명산캠프"}},"1271037114":{"location":[37.8930962,127.5513768],"ct":"KR","tp":"CS","ts":"2024-04-09T01:15:05Z","tX":874,"tY":395,"tags":{"name":"플로렌스글램핑"}},"1271037128":{"location":[37.8877408,127.5387517],"ct":"KR","tp":"CS","ts":"2024-04-09T01:15:05Z","tX":874,"tY":395,"tags":{}},"1271037130":{"location":[37.8863437,127.5406996],"ct":"KR","tp":"CS","ts":"2024-04-09T01:15:05Z","tX":874,"tY":395,"tags":{"name":"가평화랑유원지캠핑장"}},"1289236568":{"location":[37.7742692,127.3941118],"ct":"KR","tp":"CS","ts":"2025-03-16T16:09:46Z","tX":874,"tY":395,"tags":{"addr:city":"가평군","addr:housenumber":"125","addr:postcode":"12446","addr:province":"경기도","addr:street":"녹수계곡로","addr:subdistrict":"덕현리","addr:town":"상면","name":"휴오토캠핑장","name:ko":"휴오토캠핑장"}},"1299901812":{"location":[37.7610439,127.4660799],"ct":"KR","tp":"CS","ts":"2025-03-15T12:55:03Z","tX":874,"tY":395,"tags":{"access":"yes","addr:city":"가평군","addr:housenumber":"83-25","addr:postcode":"12449","addr:province":"경기도","addr:street":"상지로64번길","addr:subdistrict":"상천리","addr:town":"청평면","dog":"no","fee":"yes","name":"호명산잣나무숲속캠핑장","name:en":"HM FOREST CAMP","name:ko":"호명산잣나무숲속캠핑장","power_supply":"yes","shower":"yes","toilets":"yes","website":"http://hmforestcamp.com/","wheelchair":"limited"}},"1302175110":{"location":[37.823354,127.4901173],"ct":"KR","tp":"CS","ts":"2024-07-28T05:59:25Z","tX":874,"tY":395,"tags":{"name":"사그막끝마을"}},"1305863527":{"location":[37.7936252,127.3586587],"ct":"KR","tp":"CS","ts":"2024-08-06T04:15:48Z","tX":874,"tY":395,"tags":{"name":"파머스힐캠핑장"}},"1305863559":{"location":[37.747271,127.3482439],"ct":"KR","tp":"CS","ts":"2024-08-06T04:15:48Z","tX":874,"tY":395,"tags":{"name":"블루문캠핑장"}},"6773386783":{"location":[37.7323015,127.4245405],"ct":"KR","tp":"CS","ts":"2022-01-27T14:48:38Z","tX":874,"tY":395,"tags":{"backcountry":"no","name":"와이캠핑장","name:en":"YCAMP","website":"http://ycamping.co.kr"}},"6773549588":{"location":[37.8250675,127.6167763],"ct":"KR","tp":"CS","ts":"2019-09-05T03:52:46Z","tX":874,"tY":395,"tags":{}},"11961802083":{"location":[37.8194972,127.5205998],"ct":"KR","tp":"CS","ts":"2024-06-07T07:20:29Z","tX":874,"tY":395,"tags":{"name":"자라섬오토캠핑장"}},"11961805263":{"location":[37.8165176,127.5230877],"ct":"KR","tp":"CS","ts":"2024-06-07T07:20:29Z","tX":874,"tY":395,"tags":{"name":"카라반사이트 B"}},"12703828206":{"location":[37.7537704,127.4048799],"ct":"KR","tp":"CS","ts":"2025-04-01T05:36:02Z","tX":874,"tY":395,"tags":{"addr:city":"가평군","addr:housenumber":"273","addr:postcode":"12446","addr:province":"경기도","addr:street":"청군로","addr:town":"상면","name":"보얀트캠핑"}},"12714908509":{"location":[37.8189718,127.4571015],"ct":"KR","tp":"CS","ts":"2025-03-31T01:30:52Z","tX":874,"tY":395,"tags":{"access":"customers","backcountry":"no","caravans":"no","check_date":"2025-03-31","dog":"leashed","fee":"yes","name":"뚜뚜키즈 풀빌라 & 글램핑","name:en":"Doodoo Kids Pool Villa & Glamping","name:ko":"뚜뚜키즈 풀빌라 & 글램핑","nudism":"no","shower":"yes","static_caravans":"no","tents":"no","toilets":"yes","website":"http://%EB%9A%9C%EB%9A%9C%ED%82%A4%EC%A6%88%ED%92%80%EB%B9%8C%EB%9D%BC.kr/"}}}