{"368871083":{"location":[37.424105,127.376995],"ct":"KR","tp":"CS","ts":"2018-08-11T09:06:39Z","tX":874,"tY":397,"tags":{"name":"경기도 우산청소년야영장","name:en":"Gyeonggido Usan Youth Camping Site","name:ko":"경기도 우산청소년야영장","name:ko-Latn":"Gyeonggido Usancheongsonyeonyayeongjang","ncat":"야영장","source":"http://kr.open.gugi.yahoo.com"}},"583619674":{"location":[37.3869607,127.5487286],"ct":"KR","tp":"CS","ts":"2020-02-02T21:54:06Z","tX":874,"tY":397,"tags":{"name":"이포보 오토캠핑장","name:en":"Ipo bo Auto Campsite","name:ko":"이포보 오토캠핑장"}},"583842406":{"location":[37.3928925,127.5474629],"ct":"KR","tp":"CS","ts":"2025-03-15T12:55:03Z","tX":874,"tY":397,"tags":{"access":"yes","addr:city":"여주시","addr:housenumber":"1935-69","addr:postcode":"12608","addr:province":"경기도","addr:street":"여양로","addr:subdistrict":"천서리","addr:town":"대신면","fee":"yes","name":"이포보 웰빙 캠핑장","name:en":"Ipo-bo Wellbing Campsite","name:ko":"이포보 웰빙 캠핑장","operator":"여주도시관리공단","website":"http://camp.yjcmc.or.kr/epoc/index.jsp"}},"1199796921":{"location":[37.3159213,127.2657504],"ct":"KR","tp":"CS","ts":"2023-08-19T13:41:56Z","tX":874,"tY":397,"tags":{"name":"미르힐자연캠핑장"}},"1268291786":{"location":[37.4172286,127.3805694],"ct":"KR","tp":"CS","ts":"2024-04-02T03:13:34Z","tX":874,"tY":397,"tags":{"name":"경기도청소년야영장"}},"4373194990":{"location":[37.3285328,127.6146005],"ct":"KR","tp":"CS","ts":"2021-01-27T20:26:08Z","tX":874,"tY":397,"tags":{}}}