{"368871149":{"location":[35.71695,127.407218],"ct":"KR","tp":"CS","ts":"2019-01-06T16:54:20Z","tX":874,"tY":403,"tags":{"name":"평장야영장","name:en":"Pyeongjang Camping Site","name:ko":"평장야영장","name:ko-Latn":"Pyeongjangyayeongjang","ncat":"야영장","source":"http://kr.open.gugi.yahoo.com"}},"368871155":{"location":[35.700991,127.282092],"ct":"KR","tp":"CS","ts":"2019-01-01T14:33:06Z","tX":874,"tY":403,"tags":{"name":"학생야영장","name:en":"Student Camping Site","name:ko":"학생야영장","name:ko-Latn":"Haksaengyayeongjang","ncat":"야영장","source":"http://kr.open.gugi.yahoo.com"}},"368975526":{"location":[35.6379915,127.407072],"ct":"KR","tp":"CS","ts":"2023-08-24T00:02:29Z","tX":874,"tY":403,"tags":{"name":"성수산자연휴양림","name:en":"Seongsusan Forest","name:ko":"성수산자연휴양림","name:ko-Latn":"Seongsusanjayeonhyuyangnim","ncat":"휴양림","source":"http://kr.open.gugi.yahoo.com","tourism_1":"chalet"}},"1391555934":{"location":[35.6418536,127.5233933],"ct":"KR","tp":"CS","ts":"2025-06-02T10:27:29Z","tX":874,"tY":403,"tags":{"name":"누리파크캠핑장"}}}