{"324541685":{"location":[67.9340971,23.6567828],"ct":"FI","tp":"CS","ts":"2023-04-29T16:12:15Z","tX":579,"tY":245,"tags":{"access":"yes","addr:city":"Muonio","addr:housenumber":"35","addr:postcode":"99300","addr:street":"Harrinivantie","bar":"yes","bbq":"yes","cabins":"yes","capacity:caravans":"32","capacity:tents":"20","caravans":"yes","drinking_water":"yes","email":"info@harriniva.fi","fax":"+358 16532750","fee":"yes","name":"Harriniva","name:en":"Harriniva Camping","opening_hours":"08:00-22:00","operator":"Harriniva Hotels & Safaris","phone":"+358 400155100","restaurant":"yes","sauna":"yes","shower":"yes","tents":"yes","toilets":"yes","website":"https://harriniva.fi/en/holiday-destination/harriniva/"}},"421620882":{"location":[67.9542306,23.6738856],"ct":"FI","tp":"CR","ts":"2020-01-11T18:33:39Z","tX":579,"tY":245,"tags":{"addr:city":"Muonio","addr:housenumber":"10","addr:postcode":"99300","addr:street":"Lahenrannantie","bbq":"yes","cabins":"yes","caravans":"yes","drinking_water":"yes","email":"info@lomamajapekonen.fi","fee":"yes","name":"Lomamaja Pekonen","operator":"Paula ja Pentti Pekonen","phone":"+358 40 550 8436","picnic_table":"yes","power_supply":"yes","reservation":"yes","sanitary_dump_station":"no","sauna":"yes","shower":"yes","tents":"yes","toilets":"yes","website":"https://lomamajapekonen.fi/"}},"10712361891":{"location":[67.9547263,23.6831775],"ct":"FI","tp":"SD","ts":"2023-03-05T15:12:17Z","tX":579,"tY":245,"tags":{"access":"customers","fee":"yes","operator":"Seo","water_point":"yes"}}}