{"993232453":{"location":[63.0754712,23.6722369],"ct":"FI","tp":"CS","ts":"2023-12-30T21:03:05Z","tX":579,"tY":278,"tags":{"access":"customers","addr:city":"Kurejoki","addr:housenumber":"570","addr:postcode":"62710","addr:street":"Isoniementie","alt_name":"Koivulehdon leirintäalue;SFC Järviseutu-Koivulehto","capacity:caravans":"52","caravans":"yes","contact:facebook":"https://www.facebook.com/koivulehto","contact:instagram":"https://www.instagram.com/sfcjarviseutu_koivulehto/","email":"sfcjarviseutu.koivulehto@gmail.com","fee":"yes","name":"SFC Koivulehto","operator":"SF-Caravan Järviseutu ry","phone":"+358 40 518 7205","start_date":"1996","tents":"yes","website":"https://www.sfcjarviseutu-koivulehto.net/"}},"1095452608":{"location":[63.2051845,23.75588],"ct":"FI","tp":"CR","ts":"2022-09-17T17:58:58Z","tX":579,"tY":278,"tags":{"addr:housenumber":"41","addr:street":"Joensuuntie","capacity":"13","fee":"yes","name":"Vieresniemen karavaanarialue","website":"https://www.vimpeli.fi/matkailu/vieresniemi"}}}