{"12043254":{"location":[62.604742,23.7104397],"ct":"FI","tp":"CR","ts":"2023-11-06T18:05:45Z","tX":579,"tY":281,"tags":{"addr:city":"Alavus","addr:housenumber":"45","addr:postcode":"63610","addr:street":"Onnelantie","name":"Karavaanarialue Onnela","power_supply":"yes","sanitary_dump_station":"yes","tents":"yes","wheelchair":"yes"}},"123723585":{"location":[62.6487002,23.8450305],"ct":"FI","tp":"CR","ts":"2021-07-12T10:09:16Z","tX":579,"tY":281,"tags":{"area":"yes","name":"Sepänniemi karavaanialue"}},"1378780283":{"location":[62.6485409,23.8450286],"ct":"FI","tp":"CS","ts":"2023-06-27T16:37:39Z","tX":579,"tY":281,"tags":{"name":"Sepänniemen leirintäalue"}},"2921983303":{"location":[62.5950519,23.8060009],"ct":"FI","tp":"CS","ts":"2014-06-18T14:52:31Z","tX":579,"tY":281,"tags":{"name":"Tuuri resorts teltta-alue"}},"2921983311":{"location":[62.5951215,23.8063431],"ct":"FI","tp":"CR","ts":"2018-04-06T19:49:27Z","tX":579,"tY":281,"tags":{"addr:city":"Alavus","addr:housenumber":"321","addr:postcode":"63610","addr:street":"Riihontie","fee":"yes","name":"Tuuri resorts karavaani-alue","power_supply":"yes","sanitary_dump_station":"yes"}},"8245496102":{"location":[62.6058257,23.7146426],"ct":"FI","tp":"SD","ts":"2020-12-20T18:17:57Z","tX":579,"tY":281,"tags":{"access":"customers","water_point":"yes"}},"8245576716":{"location":[62.605791,23.7146121],"ct":"FI","tp":"SD","ts":"2023-11-06T18:05:45Z","tX":579,"tY":281,"tags":{"access":"customers","fee":"yes","water_point":"yes"}}}