{"1680781587":{"location":[54.2130004,23.860139],"ct":"LT","tp":"CS","ts":"2012-03-18T21:30:01Z","tX":579,"tY":327,"tags":{"name":"Šilaičiai"}},"8628156457":{"location":[54.3028125,23.7143852],"ct":"LT","tp":"CS","ts":"2024-08-07T19:32:50Z","tX":579,"tY":327,"tags":{"addr:city":"Meteliai","addr:contact":"yes","addr:housenumber":"50","addr:street":"Seirijų g.","fee":"yes","name":"Vitrūna","openfire":"yes","phone":"+37068770748","power_supply":"yes","shower":"yes","tents":"yes","toilets":"yes"}},"8628311290":{"location":[54.3055725,23.7112395],"ct":"LT","tp":"CS","ts":"2021-08-16T11:21:37Z","tX":579,"tY":327,"tags":{"addr:city":"Meteliai","addr:contact":"yes","addr:housenumber":"58","addr:street":"Seirijų g.","facebook":"https://www.facebook.com/poilsiavietelelija","name":"Lelija","phone":"+370 658 15511"}},"8634433063":{"location":[54.2765464,23.7396796],"ct":"LT","tp":"CS","ts":"2021-06-13T18:51:28Z","tX":579,"tY":327,"tags":{"addr:approximate":"yes","addr:city":"Vaickūniškė","addr:street":"Dusios g.","capacity":"10","name":"Vaickūniškės stovyklavietė","phone":"+37068262779"}},"8634457845":{"location":[54.2761083,23.7395824],"ct":"LT","tp":"CS","ts":"2021-04-17T07:31:52Z","tX":579,"tY":327,"tags":{"addr:approximate":"yes","addr:city":"Vaickūniškė","addr:street":"Dusios g.","capacity":"10","name":"Vytauto stovyklavietė","phone":"+370 650 49733"}},"8735303860":{"location":[54.2704449,23.7324245],"ct":"LT","tp":"CS","ts":"2021-05-16T01:41:31Z","tX":579,"tY":327,"tags":{"name":"V. Kasiulionio stovyklavietė"}},"8735303865":{"location":[54.3085079,23.7101817],"ct":"LT","tp":"CS","ts":"2024-01-10T14:22:08Z","tX":579,"tY":327,"tags":{"addr:city":"Meteliai","addr:housenumber":"70","addr:street":"Seirijų g.","charge":"5 Eur","facebook":"https://www.facebook.com/dusia.pusele","fee":"yes","name":"Stovyklavietė „Pušelė“","payment:cash":"yes","phone":"+37068604201","tents":"yes"}},"8735303867":{"location":[54.2719361,23.77636],"ct":"LT","tp":"CS","ts":"2024-01-11T13:20:41Z","tX":579,"tY":327,"tags":{"addr:city":"Vaickūniškė","addr:contact":"yes","addr:housenumber":"1","addr:street":"Poilsiautojų g.","email":"akromusodyba@atostogoskaime.lt","name":"Akromų sodyba","phone":"+370 67175955","website":"https://www.prieezero.lt/lt/apgyvendinimas/akromu-sodyba-prie-meteliu-ezero-94/"}},"11506000124":{"location":[54.3130372,23.6979007],"ct":"LT","tp":"CS","ts":"2024-01-11T13:20:41Z","tX":579,"tY":327,"tags":{"access":"private","addr:approximate":"yes","addr:city":"Meteliai","addr:street":"Seirijų g.","facebook":"https://www.facebook.com/rinkotascamp","fee":"yes","mobile":"+37068659289","name":"Rinkotas Camp","payment:cash":"yes","tents":"yes","website":"https://rinkotas.lt/"}},"11985024923":{"location":[54.2932557,23.7288349],"ct":"LT","tp":"CS","ts":"2024-06-20T12:10:33Z","tX":579,"tY":327,"tags":{"name":"Vėjo Krantas","phone":"+37065969778","website":"https://www.vejokrantas.lt/"}}}