{"12842460":{"location":[53.6809161,23.7955641],"ct":"BY","tp":"CS","ts":"2021-06-12T18:34:33Z","tX":579,"tY":330,"tags":{"natural":"grassland"}},"101929474":{"location":[53.740431,23.8121089],"ct":"BY","tp":"SD","ts":"2020-04-11T21:28:22Z","tX":579,"tY":330,"tags":{"access":"private","building":"industrial","building:levels":"3"}},"245109065":{"location":[53.7145053,23.7700103],"ct":"BY","tp":"CS","ts":"2023-05-21T19:31:38Z","tX":579,"tY":330,"tags":{"addr:city":"Гродна","addr:housenumber":"22","addr:street":"вуліца Мелавыя Горы","barrier":"fence","name":"Крэйдавыя горы","name:be":"Крэйдавыя горы","name:ru":"Меловые горы","name:uk":"Крейдяні гори"}},"283000989":{"location":[53.6854816,23.7750773],"ct":"BY","tp":"CS","ts":"2021-05-10T23:31:14Z","tX":579,"tY":330,"tags":{"barrier":"fence"}},"427733167":{"location":[53.6812657,23.7954028],"ct":"BY","tp":"CS","ts":"2023-05-21T19:31:38Z","tX":579,"tY":330,"tags":{"name":"Лясная Казка","name:be":"Лясная Казка","name:ru":"Лесная Сказка","name:uk":"Лісова казка"}},"672561466":{"location":[53.5667055,23.727248],"ct":"BY","tp":"CS","ts":"2023-05-21T19:31:38Z","tX":579,"tY":330,"tags":{"addr:place":"Бакуны","description":"Пикник-база «Велес» в десяти километрах от Гродно, вблизи деревни Бакуны. Огромная территория, окруженная чистой лесной речкой, с домиками для ночлега, баней и мангалами, а также полянами для индивидуального отдыха и фанатов экотуризма.","name":"Пікнік-база «Вялес»","name:be":"Пікнік-база «Вялес»","name:ru":"Пикник-база «Велес»","name:uk":"Пікнік-база «Велес»","operator":"ИП Искам К.Р. (УНП: 590868246)","phone":"+375 29 786-93-84","source":"http://veles.grodno.in, https://vk.com/velesgrodno","website":"https://veles.grodno.in/"}},"4032719558":{"location":[53.7427216,23.7939407],"ct":"BY","tp":"CS","ts":"2021-11-09T13:45:04Z","tX":579,"tY":330,"tags":{"backcountry":"yes","description":"Место для палатки"}},"4920624521":{"location":[53.5903065,23.7656817],"ct":"BY","tp":"CS","ts":"2020-11-02T16:14:19Z","tX":579,"tY":330,"tags":{}},"4920624621":{"location":[53.7140057,23.7697197],"ct":"BY","tp":"CS","ts":"2017-06-17T14:25:16Z","tX":579,"tY":330,"tags":{}},"5953419989":{"location":[53.7384893,23.7931952],"ct":"BY","tp":"CS","ts":"2018-10-04T09:12:47Z","tX":579,"tY":330,"tags":{}},"10161738708":{"location":[53.7198361,23.7771157],"ct":"BY","tp":"CS","ts":"2022-11-06T10:54:59Z","tX":579,"tY":330,"tags":{"impromptu":"yes"}},"10165813127":{"location":[53.6081063,23.8784113],"ct":"BY","tp":"CS","ts":"2022-11-07T09:00:21Z","tX":579,"tY":330,"tags":{"impromptu":"yes"}}}