{"840092132":{"location":[52.6838935,23.8262063],"ct":"PL","tp":"CS","ts":"2014-01-30T21:15:35Z","tX":579,"tY":335,"tags":{}},"1414327595":{"location":[52.6925101,23.8309474],"ct":"PL","tp":"CS","ts":"2023-10-03T04:41:35Z","tX":579,"tY":335,"tags":{"caravans":"yes","email":"inazena@wp.pl","name":"U Michała","name:be":"У Міхала","phone":"+48 85 681 27 03","ref:pfcc":"124","stars":"1","tents":"yes","website":"https://www.campingbialowieza.pl/"}},"7614038120":{"location":[52.5759867,23.7812503],"ct":"BY","tp":"CS","ts":"2024-11-08T15:48:30Z","tX":579,"tY":335,"tags":{"name":"Платная стаянка Плянта","name:be":"Платная стаянка Плянта","name:ru":"Платная стоянка Плянта"}},"11199632493":{"location":[52.5332983,23.8700473],"ct":"BY","tp":"CS","ts":"2024-04-09T12:02:44Z","tX":579,"tY":335,"tags":{"access":"customers","addr:housenumber":"12","capacity:caravans":"2","capacity:persons":"50","capacity:tents":"15","caravans":"yes","fee":"yes","name":"Кемпінг «Буда»","name:be":"Кемпінг «Буда»","name:ru":"Кемпинг «Буда»","payment:cash":"yes","phone":"+375 29 626-03-11","static_caravans":"yes","tents":"yes","website":"https://agbuda.by/campingbuda/"}}}