{"9880694":{"location":[51.571997,23.9011912],"ct":"UA","tp":"CS","ts":"2019-08-03T14:19:30Z","tX":579,"tY":340,"tags":{"name":"Наметове містечко","name:uk":"Наметове містечко"}},"9882583":{"location":[51.5245913,23.8836978],"ct":"UA","tp":"CS","ts":"2019-08-04T10:26:06Z","tX":579,"tY":340,"tags":{"name":"Наметове містечко","name:uk":"Наметове містечко","stars":"1"}},"9922134":{"location":[51.5017858,23.7908396],"ct":"UA","tp":"CS","ts":"2019-08-15T07:37:09Z","tX":579,"tY":340,"tags":{"name":"Волинська Січ","name:uk":"Волинська Січ"}},"9922190":{"location":[51.5012602,23.7925859],"ct":"UA","tp":"CS","ts":"2019-08-15T07:37:09Z","tX":579,"tY":340,"tags":{"name":"Кемпінг Пульмо","name:uk":"Кемпінг Пульмо"}},"974059740":{"location":[51.5716011,23.8999029],"ct":"UA","tp":"CS","ts":"2021-08-17T14:33:57Z","tX":579,"tY":340,"tags":{}},"1360908445":{"location":[51.5102395,23.5587082],"ct":"PL","tp":"CS","ts":"2025-02-18T13:48:56Z","tX":579,"tY":340,"tags":{"access":"yes","camp_site":"basic"}},"8865501118":{"location":[51.523742,23.7657032],"ct":"UA","tp":"CS","ts":"2024-01-06T09:19:35Z","tX":579,"tY":340,"tags":{"name":"Оглядова вежа","name:ru":"Смотровая башня","name:uk":"Оглядова вежа"}},"9028070039":{"location":[51.4722449,23.8174581],"ct":"UA","tp":"CS","ts":"2023-03-04T00:06:08Z","tX":579,"tY":340,"tags":{"name":"Незабудка","name:uk":"Незабудка"}}}