{"312822300":{"location":[40.2358442,23.5634233],"ct":"GR","tp":"CS","ts":"2016-07-15T08:28:09Z","tX":579,"tY":386,"tags":{"name":"Happy Days"}},"346605933":{"location":[40.1923108,23.774306],"ct":"GR","tp":"CR","ts":"2024-09-13T02:53:45Z","tX":579,"tY":386,"tags":{"access":"customers","addr:city":"Βουρβουρού","addr:municipality":"Σιθωνία","addr:postcode":"63078","addr:province":"Χαλκιδική","addr:region":"Κεντρική Μακεδονία"}},"431131799":{"location":[40.2283683,23.5963467],"ct":"GR","tp":"CS","ts":"2016-07-15T08:28:09Z","tX":579,"tY":386,"tags":{"name":"Καλύβας"}},"484692839":{"location":[40.2054766,23.7629427],"ct":"GR","tp":"CS","ts":"2024-09-13T02:53:45Z","tX":579,"tY":386,"tags":{"access":"customers","addr:city":"Φτερωτή","addr:municipality":"Σιθωνία","addr:postcode":"63078","addr:province":"Χαλκιδική","addr:region":"Κεντρική Μακεδονία","area":"yes","caravans":"yes","drinking_water":"yes","name":"Camping Rea","power_supply":"yes"}},"885975911":{"location":[40.2283051,23.6010291],"ct":"GR","tp":"CS","ts":"2024-04-03T14:49:04Z","tX":579,"tY":386,"tags":{}},"1088255244":{"location":[40.2274745,23.5895012],"ct":"GR","tp":"CS","ts":"2024-09-13T17:43:37Z","tX":579,"tY":386,"tags":{"caravans":"yes","drinking_water":"yes","name":"Sunny Bay","power_supply":"yes","shower":"yes","tents":"yes"}},"1395879572":{"location":[40.4034532,23.8764965],"ct":"GR","tp":"CS","ts":"2025-05-28T19:42:51Z","tX":579,"tY":386,"tags":{"addr:city":"IERISSOS","addr:street":"Προφήτη Ηλία","caravans":"yes","email":"axtada@dimosaristoteli.gr","internet_access":"wlan","internet_access:fee":"no","name":"Camping Ierissos","nudism":"no","phone":"+30 2377 021125","reservation":"recommended","stars":"4","swimming_pool":"no","tents":"yes","website":"https://www.axtada.gr/","wheelchair":"limited"}},"2144313445":{"location":[40.2060865,23.7628182],"ct":"GR","tp":"CR","ts":"2023-09-07T21:15:16Z","tX":579,"tY":386,"tags":{"addr:postcode":"63078","name":"Camping Rea"}},"3476851390":{"location":[40.2063581,23.6785934],"ct":"GR","tp":"CS","ts":"2023-11-12T10:59:29Z","tX":579,"tY":386,"tags":{"name":"Άγιος Γεώργιος","name:de":"Agios Georgios","name:el":"Άγιος Γεώργιος","name:en":"Agios Georgios"}},"7309004289":{"location":[40.2269058,23.5872008],"ct":"GR","tp":"CS","ts":"2024-09-13T17:45:15Z","tX":579,"tY":386,"tags":{"cabins":"yes","caravans":"yes","dog":"yes","email":"info@sunny-bay.gr","internet_access":"wlan","opening_hours":"Mar 1 - Oct 15","phone":"+30 2375 061350","shower":"yes","stars":"2","start_date":"1989","tents":"yes","toilets":"yes","website":"https://www.sunny-bay.gr/"}},"5840373534":{"location":[40.3894113,23.893956],"ct":"GR","tp":"CR","ts":"2018-08-18T19:48:36Z","tX":579,"tY":386,"tags":{"name":"Camping Delphini"}}}