{"26860029":{"location":[40.1719777,23.8523559],"ct":"GR","tp":"CS","ts":"2024-09-13T02:53:45Z","tX":579,"tY":387,"tags":{"access":"customers","addr:city":"Βουρβουρού","addr:municipality":"Σιθωνία","addr:postcode":"63078","addr:province":"Χαλκιδική","addr:region":"Κεντρική Μακεδονία","caravans":"yes","internet_access":"wlan","internet_access:fee":"yes","name":"Camping Lacara","name:de":"Camping Lacara","name:el":"Camping Lacara","name:en":"Camping Lacara","source":"local knowledge;aerial imagery","survey:date":"2022-06-29"}},"26860094":{"location":[40.0425,23.813611],"ct":"GR","tp":"CS","ts":"2020-03-19T14:14:55Z","tX":579,"tY":387,"tags":{"dog":"leashed","name":"Stavros","phone":"+30 23750 71375","website":"https://campingstavros.gr"}},"251632757":{"location":[39.9661248,23.6742361],"ct":"GR","tp":"CR","ts":"2013-12-13T14:00:28Z","tX":579,"tY":387,"tags":{}},"302960459":{"location":[39.9958948,23.888048],"ct":"GR","tp":"CS","ts":"2020-03-10T21:29:43Z","tX":579,"tY":387,"tags":{"name":"Anamour","phone":"+30 23750 51112"}},"302960620":{"location":[39.996553,23.8812527],"ct":"GR","tp":"CS","ts":"2020-03-13T09:40:35Z","tX":579,"tY":387,"tags":{"addr:city":"Tristinika","addr:country":"GR","addr:postcode":"63072","contact:phone":"+30 23750 51235","contact:website":"https://www.iza.gr","dog":"no","internet_access":"wlan","name":"ΚΑΜΠΙΝΓΚ ΙΖΑ","name:en":"Camping Iza","start_date":"1987","wheelchair":"yes"}},"313840275":{"location":[40.1433362,23.7350984],"ct":"GR","tp":"CS","ts":"2023-03-07T11:15:54Z","tX":579,"tY":387,"tags":{"name":"Mitari"}},"365348082":{"location":[40.1257,23.7649399],"ct":"GR","tp":"CS","ts":"2020-10-01T13:21:13Z","tX":579,"tY":387,"tags":{"email":"info@camping-castello.gr","fax":"+302375072003","name":"Castello Camping","phone":"+302375071094","website":"https://camping-castello.gr/"}},"521158262":{"location":[40.0237798,23.8168594],"ct":"GR","tp":"CS","ts":"2020-03-10T20:15:29Z","tX":579,"tY":387,"tags":{"dog":"yes","name":"Areti","phone":"+30 23750 71430","website":"https://www.areti-campingandbungalows.gr"}},"528516166":{"location":[40.0970148,23.774603],"ct":"GR","tp":"CS","ts":"2024-10-02T16:50:27Z","tX":579,"tY":387,"tags":{"description":"open until 15.10.","internet_access":"wlan","name":"Κάμπινγκ Μαρμαρά","name:el":"Κάμπινγκ Μαρμαρά","name:en":"Marmaras Camping","phone":"+30 2375 071901","website":"https://marmarascamping.gr"}},"1406887051":{"location":[40.0282017,23.8142227],"ct":"GR","tp":"CS","ts":"2020-03-10T20:19:14Z","tX":579,"tY":387,"tags":{"name":"Psarotaverna: O Panos"}},"5081651699":{"location":[40.159413,23.895475],"ct":"GR","tp":"CS","ts":"2024-09-13T02:53:45Z","tX":579,"tY":387,"tags":{"addr:city":"Άγιος Νικόλαος","addr:housenumber":"10","addr:municipality":"Σιθωνία","addr:postcode":"63078","addr:province":"Χαλκιδική","addr:region":"Κεντρική Μακεδονία","addr:street":"Ταχ. Θυρίδα (PO Box)","building":"yes","drinking_water":"yes","email":"info@aktioneirou.gr","internet_access":"wlan","name":"Ακτή ονείρου Camping-Bungalows","name:de":"Akti Onirou Camping-Bungalows","name:el":"Ακτή ονείρου Camping-Bungalows","name:en":"Akti Onirou Camping-Bungalows","phone":"+302375770910;+302375770910","power_supply":"yes","shower":"yes","toilets":"yes","website":"https://www.aktioneirou.gr/"}},"4956235821":{"location":[39.9768502,23.668488],"ct":"GR","tp":"CR","ts":"2017-07-07T07:14:39Z","tX":579,"tY":387,"tags":{}}}