{"5044765824":{"location":[-20.9505726,23.6000901],"ct":"BW","tp":"CR","ts":"2017-08-19T13:17:55Z","tX":579,"tY":572,"tags":{"name":"5 Ways","name:en":"5 Ways"}},"5044765825":{"location":[-20.9357495,23.5590449],"ct":"BW","tp":"CR","ts":"2017-08-19T13:18:00Z","tX":579,"tY":572,"tags":{"name":"long Loop","name:en":"long Loop"}},"5044783721":{"location":[-20.9510847,23.5823486],"ct":"BW","tp":"CR","ts":"2017-08-19T13:17:57Z","tX":579,"tY":572,"tags":{"name":"Toti","name:en":"Toti"}},"5044783722":{"location":[-20.9315028,23.6078561],"ct":"BW","tp":"CR","ts":"2017-08-19T13:18:37Z","tX":579,"tY":572,"tags":{"name":"pyp lyn","name:en":"pyp lyn"}},"5044783723":{"location":[-20.9337155,23.6484735],"ct":"BW","tp":"CR","ts":"2017-08-19T13:18:39Z","tX":579,"tY":572,"tags":{"name":"Xalaps","name:en":"Xalaps"}},"5044783725":{"location":[-20.9534115,23.6371448],"ct":"BW","tp":"CR","ts":"2017-08-19T13:19:57Z","tX":579,"tY":572,"tags":{"name":"pere pan","name:en":"pere pan"}},"5044784221":{"location":[-20.9220509,23.5835486],"ct":"BW","tp":"CR","ts":"2017-08-19T13:18:30Z","tX":579,"tY":572,"tags":{"name":"Vars water Hek","name:en":"Vars water Hek"}},"5044784222":{"location":[-20.9442289,23.6116749],"ct":"BW","tp":"CR","ts":"2017-08-19T13:18:45Z","tX":579,"tY":572,"tags":{"name":"skyns paatjie","name:en":"skyns paatjie"}},"5044784224":{"location":[-20.9531067,23.6278639],"ct":"BW","tp":"CR","ts":"2017-08-19T13:19:14Z","tX":579,"tY":572,"tags":{"name":"toti pad","name:en":"toti pad"}},"5044785124":{"location":[-20.9564469,23.5842467],"ct":"BW","tp":"CR","ts":"2017-08-19T13:19:50Z","tX":579,"tY":572,"tags":{"name":"toti pan (birdhide)","name:en":"toti pan (birdhide)"}},"5044785125":{"location":[-20.8818923,23.5780935],"ct":"BW","tp":"CR","ts":"2017-08-19T13:20:11Z","tX":579,"tY":572,"tags":{"name":"vars water boorgat","name:en":"vars water boorgat"}},"8791118718":{"location":[-20.9090841,23.7511617],"ct":"BW","tp":"CR","ts":"2021-06-02T06:51:51Z","tX":579,"tY":572,"tags":{"name":"Blinkblaar pan"}},"8791144217":{"location":[-20.9054695,23.720009],"ct":"BW","tp":"CR","ts":"2021-06-02T06:51:53Z","tX":579,"tY":572,"tags":{"name":"Hardegat"}}}