{"523791606":{"location":[35.4610713,137.9991563],"ct":"JP","tp":"CS","ts":"2020-04-02T13:33:07Z","tX":904,"tY":403,"tags":{"name":"大島河原河川公園 オートキャンプ場","name:en":"Oshimagawara Kasen Park Auto Camping Ground","name:ja":"大島河原河川公園 オートキャンプ場"}},"523791608":{"location":[35.4622603,137.9994761],"ct":"JP","tp":"CS","ts":"2020-11-27T04:48:20Z","tX":904,"tY":403,"tags":{"name":"大島河原河川公園 オートキャンプ場","name:en":"Oshimagawara Kasen Park Auto Camping Ground","name:ja":"大島河原河川公園 オートキャンプ場"}},"825748801":{"location":[35.6140739,137.8730843],"ct":"JP","tp":"CS","ts":"2020-09-02T06:29:26Z","tX":904,"tY":403,"tags":{"addr:block_number":"2750","addr:city":"松川町","addr:county":"下伊那郡","addr:housenumber":"284","addr:postcode":"399-3304","addr:province":"長野県","addr:quarter":"大島","name":"ツリードーム南信州まつかわ","name:en":"Tree Dome Minami Shinshu Matsukawa","name:ja":"ツリードーム南信州まつかわ","website":"https://dansuki.jp/stay/td/"}},"826365541":{"location":[35.6023386,138.0724419],"ct":"JP","tp":"CS","ts":"2023-10-25T02:11:29Z","tX":904,"tY":403,"tags":{"addr:block_number":"大字鹿塩","addr:city":"大鹿村","addr:county":"下伊那","addr:postcode":"399-3501","addr:province":"長野県","name":"大池高原キャンプ場","name:en":"Ōike Kōgen Campsite","name:ja":"大池高原キャンプ場","website":"http://www.vill.ooshika.nagano.jp/2020/07/13/kyannpuzyou/"}},"826633060":{"location":[35.5560282,138.0859403],"ct":"JP","tp":"CS","ts":"2023-10-12T01:50:15Z","tX":904,"tY":403,"tags":{"backcountry":"yes","name":"鳥ヶ池キャンプ場","name:en":"Torigaike Campsite","name:ja":"鳥ヶ池キャンプ場","website":"http://www.vill.ooshika.nagano.jp/2023/03/31/kyannpuzyou/"}},"852286148":{"location":[35.5923414,137.8564505],"ct":"JP","tp":"CS","ts":"2021-09-24T02:15:54Z","tX":904,"tY":403,"tags":{"addr:block_number":"2347","addr:city":"高森町","addr:county":"下伊那郡","addr:postcode":"399-3101","addr:province":"長野県","addr:suburb":"山吹","name":"山の寺キャンプ場","name:en":"Yamanotera Camping Ground","name:ja":"山の寺キャンプ場","website":"https://www.town.nagano-takamori.lg.jp/branding/vol2/1489.html"}},"853190676":{"location":[35.5459702,137.8154751],"ct":"JP","tp":"CS","ts":"2023-03-03T00:32:50Z","tX":904,"tY":403,"tags":{"addr:block_number":"3840","addr:city":"飯田市","addr:postcode":"395-0004","addr:province":"長野県","addr:suburb":"上郷黒田","name":"野底山森林公園キャンプ場","name:en":"Nosokoyama Forest Park Camping Ground","name:ja":"野底山森林公園キャンプ場","website":"https://www.nosokoyama.net/"}},"883674598":{"location":[35.5885206,137.9597509],"ct":"JP","tp":"CS","ts":"2023-11-05T21:20:49Z","tX":904,"tY":403,"tags":{"name":"アルプスの郷","name:ja":"アルプスの郷","website":"https://baishoen.com/camp.html"}},"901471623":{"location":[35.5283364,137.9675003],"ct":"JP","tp":"CS","ts":"2023-11-05T21:20:38Z","tX":904,"tY":403,"tags":{"name":"野田平キャンプ場","name:en":"Notonohira Campground","name:ja":"野田平キャンプ場","website":"https://notanohira.com/"}},"944953472":{"location":[35.672888,137.9830938],"ct":"JP","tp":"CS","ts":"2021-05-20T05:20:20Z","tX":904,"tY":403,"tags":{"fee":"yes","name":"陣馬形山キャンプ場","name:en":"Jinbagatayama Campground","name:ja":"陣馬形山キャンプ場","website":"https://jinbagata.life/camp/"}},"1042821418":{"location":[35.5016698,138.0178604],"ct":"JP","tp":"CS","ts":"2022-03-23T05:50:31Z","tX":904,"tY":403,"tags":{"name":"大鹿キャンプ場ストリーム深ケ沢","name:en":"Shingasawa Campground","name:ja":"大鹿キャンプ場ストリーム深ケ沢","website":"http://ooshika-kanko.com/nikki/2016/07/post-72.html"}},"1059738769":{"location":[35.5674657,137.8582222],"ct":"JP","tp":"CS","ts":"2022-06-23T06:27:54Z","tX":904,"tY":403,"tags":{"area":"yes","name":"TENKU〜南信州グランピング〜","name:en":"Tenku Glamping","name:ja":"TENKU〜南信州グランピング〜","website":"https://www.tenku-glamping.jp/glamping"}},"1155828775":{"location":[35.6710404,137.908943],"ct":"JP","tp":"CR","ts":"2014-03-01T18:59:11Z","tX":904,"tY":403,"tags":{"name":"与田切キャンプ場"}},"1303592983":{"location":[35.5557662,138.1424346],"ct":"JP","tp":"CS","ts":"2024-07-25T00:24:38Z","tX":904,"tY":403,"tags":{"access":"customers","backcountry":"yes","capacity:persons":"100","capacity:tents":"50","caravans":"no","fee":"yes","name":"三伏峠キャンプ場","name:en":"Sanpuku-toge Camping Area","name:ja":"三伏峠キャンプ場","operator":"三伏峠小屋","payment:cash":"yes","static_caravans":"no","tents":"yes"}},"2519415661":{"location":[35.736371,137.893108],"ct":"JP","tp":"CS","ts":"2013-11-04T03:54:25Z","tX":904,"tY":403,"tags":{}},"2702643510":{"location":[35.6741074,137.8920626],"ct":"JP","tp":"CS","ts":"2014-03-05T15:07:33Z","tX":904,"tY":403,"tags":{"name":"御座松キャンプ場","name:ja":"御座松キャンプ場"}},"2708419258":{"location":[35.6805678,137.951336],"ct":"JP","tp":"CS","ts":"2014-03-09T08:02:10Z","tX":904,"tY":403,"tags":{"name":"キャンプファーム いなかの風","name:ja":"キャンプファーム いなかの風"}},"11070395203":{"location":[35.623514,137.9904726],"ct":"JP","tp":"CS","ts":"2023-07-27T03:58:22Z","tX":904,"tY":403,"tags":{"name":"KUWABARA CAMP（四徳温泉キャンプ場）","name:en":"Kuwabara Shitoku Onsen Campground","name:ja":"KUWABARA CAMP（四徳温泉キャンプ場）","website":"http://shitoku.net/kuwabaracamp/"}},"11070465738":{"location":[35.6532836,138.0055332],"ct":"JP","tp":"CS","ts":"2023-07-27T04:48:29Z","tX":904,"tY":403,"tags":{"name":"四徳温泉キャンプ場","name:en":"Shitoku Onsen Campground","name:ja":"四徳温泉キャンプ場","website":"https://shitoku.net/%e6%b3%8a%e3%81%be%e3%82%8b/%e5%85%b1%e6%9c%89%e6%96%bd%e8%a8%ad/"}},"11171034327":{"location":[35.6263215,138.0573734],"ct":"JP","tp":"CS","ts":"2023-09-06T04:19:13Z","tX":904,"tY":403,"tags":{"name":"高安断層鞍部（中央構造線）","name:ja":"高安断層鞍部（中央構造線）"}}}