{"266254600":{"location":[-34.7786714,137.8640473],"ct":"AU","tp":"CR","ts":"2024-10-20T06:37:18Z","tX":904,"tY":617,"tags":{"addr:housenumber":"12","addr:postcode":"5581","addr:state":"SA","addr:street":"Marine Parade","addr:suburb":"Port Vincent","name":"Port Vincent Foreshore Caravan Park","website":"https://portvincentfcp.com.au/"}},"266254873":{"location":[-34.6622909,137.8767638],"ct":"AU","tp":"CS","ts":"2022-12-09T09:46:32Z","tX":904,"tY":617,"tags":{"name":"Port Julia Oval (reichenbach Memorial P"}},"316602358":{"location":[-34.7788314,137.8635096],"ct":"AU","tp":"CR","ts":"2014-03-15T02:34:40Z","tX":904,"tY":617,"tags":{"name":"Port Vincent Seaside Flats and Caravan Park"}},"1168442034":{"location":[-34.607014,137.8821939],"ct":"AU","tp":"CS","ts":"2023-05-04T05:31:20Z","tX":904,"tY":617,"tags":{"caravans":"yes","fee":"yes","name":"Black Point Caravan Park","website":"https://blackpointcp.com.au/"}},"1811192688":{"location":[-34.7791999,137.8637245],"ct":"AU","tp":"CS","ts":"2014-03-15T02:34:40Z","tX":904,"tY":617,"tags":{"name":"Port Vincent Seaside Flats & Caravan Pa"}}}