{"44388886":{"location":[38.248225,-120.8446865],"ct":"US","tp":"CS","ts":"2021-04-02T16:07:12Z","tX":168,"tY":394,"tags":{"AREAID":"110205803539","COUNTYFP":"009","MTFCC":"K1228","STATEFP":"06","Tiger:MTFCC":"K1228","source":"Tiger2009","tiger:ALAND":"14626","tiger:AWATER":"0","tiger:reviewed":"no"}},"1367405346":{"location":[38.1805532,-120.7917236],"ct":"US","tp":"CS","ts":"2025-03-14T20:31:43Z","tX":168,"tY":394,"tags":{"addr:city":"Valley Springs","addr:housenumber":"2321","addr:postcode":"95252","addr:state":"CA","addr:street":"South Petersburg Road","check_date":"2025-03-14","drinking_water":"yes","fee":"yes","name":"Oak Knoll Campground","operator":"U.S. Army Corps of Engineers","reservation":"yes","website":"https://www.spk.usace.army.mil/Missions/Recreation/New-Hogan-Lake/"}},"4402074744":{"location":[38.1759219,-120.7941761],"ct":"US","tp":"CS","ts":"2016-09-15T05:18:44Z","tX":168,"tY":394,"tags":{"name":"Acorn Campground"}},"4402074745":{"location":[38.1812562,-120.7938248],"ct":"US","tp":"CS","ts":"2016-09-15T05:18:44Z","tX":168,"tY":394,"tags":{"name":"Oak Knoll Campground"}},"7290187769":{"location":[38.2223509,-120.6954951],"ct":"US","tp":"CS","ts":"2020-03-13T03:15:17Z","tX":168,"tY":394,"tags":{"name":"Gold Strike Village Campers"}},"10929443833":{"location":[38.1767362,-120.7958071],"ct":"US","tp":"SD","ts":"2023-05-26T17:05:12Z","tX":168,"tY":394,"tags":{"addr:state":"CA","addr:street":"South Petersburg Road"}},"12650241040":{"location":[38.1820261,-120.792696],"ct":"US","tp":"SD","ts":"2025-03-10T16:24:35Z","tX":168,"tY":394,"tags":{}}}