{"220554911":{"location":[35.6820052,-120.6984278],"ct":"US","tp":"CR","ts":"2022-10-15T16:11:16Z","tX":168,"tY":403,"tags":{"addr:city":"Paso Robles","addr:housenumber":"398","addr:postcode":"93446","addr:state":"CA","addr:street":"Exline Road","name":"Paso Robles RV Ranch","phone":"+1-805-237-8685"}},"311664012":{"location":[35.6976201,-120.6957288],"ct":"US","tp":"CR","ts":"2022-10-15T16:11:16Z","tX":168,"tY":403,"tags":{"addr:city":"Paso Robles","addr:housenumber":"88","addr:postcode":"93446","addr:state":"CA","addr:street":"Wellsona Road","name":"Vines RV Resort","phone":"+1 805 467 2100","website":"https://www.sunoutdoors.com/california/vines-rv-resort"}},"315822535":{"location":[35.6465783,-120.6397926],"ct":"US","tp":"CR","ts":"2023-09-12T03:08:35Z","tX":168,"tY":403,"tags":{"addr:full":"2500 Airport Road","addr:housenumber":"2500","addr:street":"Airport Road","name":"Wine Country RV Resort","phone":"+1-805-238-4560"}},"326824321":{"location":[35.6047018,-120.916182],"ct":"US","tp":"CS","ts":"2023-09-12T03:17:11Z","tX":168,"tY":403,"tags":{"addr:full":"1310 Cypress Mountain Drive","addr:housenumber":"1310","name":"Firebaugh 7x Ranch Campground","phone":"+1-805-238-1500"}},"406671490":{"location":[35.7337495,-120.8993779],"ct":"US","tp":"CS","ts":"2020-01-16T05:21:20Z","tX":168,"tY":403,"tags":{"name":"Heritage Ranch Campground"}},"1001569963":{"location":[35.6567033,-120.6552391],"ct":"US","tp":"CR","ts":"2021-11-11T22:40:59Z","tX":168,"tY":403,"tags":{"addr:city":"Paso Robles","addr:housenumber":"3800","addr:postcode":"93446","addr:state":"CA","addr:street":"Golden Hill Road","cabins":"yes","caravans":"yes","fee":"yes","leisure":"resort","name":"Cava Robles RV Resort","tents":"no","website":"https://www.sunoutdoors.com/california/cava-robles-rv-resort"}}}