{"159260163":{"location":[35.3233076,-120.7374863],"ct":"US","tp":"CR","ts":"2014-12-03T18:04:44Z","tX":168,"tY":404,"tags":{"name":"Camp San Luis Obispo RV Park","phone":"(805) 594-6500"}},"164559026":{"location":[35.3778526,-120.8606238],"ct":"US","tp":"CS","ts":"2023-03-24T10:09:03Z","tX":168,"tY":404,"tags":{"addr:city":"Morro Bay","addr:housenumber":"1700","addr:postcode":"93442","addr:street":"Embarcadero","name":"Morro Dunes RV Park","phone":"(805) 772-2722","website":"https://morrodunes.com/"}},"190787466":{"location":[35.4003442,-120.8668177],"ct":"US","tp":"CS","ts":"2024-03-12T02:24:33Z","tX":168,"tY":404,"tags":{"access":"yes","addr:city":"Morro Bay","addr:postcode":"93442","addr:state":"CA","addr:street":"Yerba Buena Street","fee":"yes","leisure":"park","name":"Morro Strand State Beach Campground","operator":"California Department of Parks and Recreation","operator:type":"public","operator:wikidata":"Q2933976","operator:wikipedia":"en:California State Parks","phone":"(805) 772-8812","source":"knowledge","website":"https://www.parks.ca.gov/?page_id=593"}},"200668982":{"location":[35.391634,-120.8386302],"ct":"US","tp":"CR","ts":"2022-10-15T11:40:43Z","tX":168,"tY":404,"tags":{"addr:city":"Morro Bay","addr:housenumber":"1045","addr:postcode":"93442","addr:state":"CA","addr:street":"Atascadero Road","name":"Rancho Colina RV Park","phone":"+1 805 772 8420"}},"309932710":{"location":[35.4511524,-120.9087804],"ct":"US","tp":"CR","ts":"2022-10-15T13:16:21Z","tX":168,"tY":404,"tags":{"addr:city":"Cayucos","addr:housenumber":"350","addr:state":"CA","addr:street":"North Ocean Avenue","name":"Bella Vista Mobile Lodge","phone":"+1 805 995 3644"}},"309948219":{"location":[35.3629477,-120.823033],"ct":"US","tp":"CR","ts":"2022-10-14T21:16:20Z","tX":168,"tY":404,"tags":{"addr:city":"Morro Bay","addr:housenumber":"1501","addr:postcode":"93442","addr:state":"CA","addr:street":"Quintana Road","name":"Bay Pines Travel Trailer Park","phone":"+1 805 772 3223"}},"310109898":{"location":[35.3672723,-120.8492279],"ct":"US","tp":"CR","ts":"2022-11-14T11:52:57Z","tX":168,"tY":404,"tags":{"addr:city":"Morro Bay","addr:housenumber":"355","addr:postcode":"93442","addr:state":"CA","addr:street":"Harbor Street","barrier":"fence","name":"Rancho Recreational Vehicle Park"}},"311445214":{"location":[35.380638,-120.858587],"ct":"US","tp":"CR","ts":"2022-10-14T00:59:11Z","tX":168,"tY":404,"tags":{"addr:housenumber":"221","addr:street":"Highway 41 West","name":"Morro Strand RV Park","phone":"(805) 772-8232"}},"311460728":{"location":[35.3795749,-120.8579893],"ct":"US","tp":"CR","ts":"2022-10-14T00:59:11Z","tX":168,"tY":404,"tags":{"addr:housenumber":"220","addr:street":"Highway 41 West","name":"Morro Strand RV Park","phone":"(805) 772-8232"}},"315958165":{"location":[35.3320523,-120.7308259],"ct":"US","tp":"CR","ts":"2022-10-16T13:20:52Z","tX":168,"tY":404,"tags":{"addr:housenumber":"3060","addr:street":"Santa Rosa Street","fee":"yes","internet_access":"no","name":"El Chorro Regional Park Campground","phone":"+1 805 781 5930","power_supply":"yes","sanitary_dump_station":"yes","website":"https://slocountyparks.com/camp/el-chorro/"}},"316458565":{"location":[35.3313145,-120.7310066],"ct":"US","tp":"CS","ts":"2014-12-08T22:46:47Z","tX":168,"tY":404,"tags":{"name":"Bishop"}},"316458566":{"location":[35.3322677,-120.7303706],"ct":"US","tp":"CS","ts":"2014-12-08T22:46:47Z","tX":168,"tY":404,"tags":{"name":"Chumash"}},"316458567":{"location":[35.3332385,-120.729906],"ct":"US","tp":"CS","ts":"2014-12-08T22:46:47Z","tX":168,"tY":404,"tags":{"name":"Romauldo"}},"316464931":{"location":[35.2744529,-120.8820635],"ct":"US","tp":"CS","ts":"2023-12-11T15:48:07Z","tX":168,"tY":404,"tags":{"addr:city":"Los Osos","addr:postcode":"93402","addr:state":"CA","addr:street":"Pecho Valley Road","capacity":"47","caravans":"yes","name":"Islay Creek Campground","tents":"yes"}},"316595700":{"location":[35.3471028,-120.8396697],"ct":"US","tp":"CS","ts":"2025-06-10T03:00:03Z","tX":168,"tY":404,"tags":{"addr:city":"Morro Bay","addr:housenumber":"60","addr:postcode":"93442","addr:state":"CA","addr:street":"State Park Road","backcountry":"no","caravans":"yes","drinking_water":"yes","fee":"yes","name":"Morro Bay State Park","phone":"+1 805 772 2560","power_supply":"yes","shower":"yes","static_caravans":"no","tents":"yes","toilets":"yes","wheelchair":"limited"}},"322031907":{"location":[35.369368,-120.8506413],"ct":"US","tp":"CR","ts":"2023-09-12T02:23:38Z","tX":168,"tY":404,"tags":{"addr:full":"1121 Main Street","addr:housenumber":"1121","addr:street":"Main Street","description":"mobile home park","landuse":"residential","name":"Cypress Morro Bay RV & Mobile Home Park","phone":"+1-805-772-2515"}},"322133780":{"location":[35.1758799,-120.7529438],"ct":"US","tp":"CR","ts":"2015-01-14T23:05:58Z","tX":168,"tY":404,"tags":{"name":"Nobi Point RV Camping"}},"322133783":{"location":[35.175009,-120.7547911],"ct":"US","tp":"CR","ts":"2023-03-22T17:04:38Z","tX":168,"tY":404,"tags":{"fee":"yes","name":"Port San Luis RV Campground"}},"326777325":{"location":[35.4244936,-120.7427703],"ct":"US","tp":"CS","ts":"2023-09-12T02:23:38Z","tX":168,"tY":404,"tags":{"addr:full":"13741 Cerro Alto Road, Los Padres National Forest","addr:housenumber":"13741","name":"Cerro Alto Campground","phone":"+1-805-434-1996","website":"https://www.recreation.gov/camping/cerro-alto-campground/r/campgroundDetails.do?contractCode=NRSO&parkId=71995"}},"390311273":{"location":[35.1836043,-120.7027843],"ct":"US","tp":"CS","ts":"2022-05-04T20:10:37Z","tX":168,"tY":404,"tags":{"backcountry":"no","fee":"yes","name":"Avila Koa Campground","power_supply":"yes","shower":"yes","toilets":"yes","website":"https://koa.com/campgrounds/avila/","wheelchair":"yes"}},"1132088425":{"location":[35.1767101,-120.7546157],"ct":"US","tp":"CS","ts":"2023-01-15T02:44:33Z","tX":168,"tY":404,"tags":{"drinking_water":"yes","fee":"yes","name":"Flying Flags Avila Beach","power_supply":"yes","reservation":"required","resort":"resort","shower":"yes","toilets":"yes","website":"https://www.flyingflagsavilabeach.com"}},"1760604402":{"location":[35.3475314,-120.8370758],"ct":"US","tp":"SD","ts":"2015-03-29T09:51:45Z","tX":168,"tY":404,"tags":{"fee":"yes"}},"1761657193":{"location":[35.3776657,-120.8600434],"ct":"US","tp":"SD","ts":"2024-07-30T05:12:53Z","tX":168,"tY":404,"tags":{"charge":"5 USD","fee":"yes"}},"1761794765":{"location":[35.3792778,-120.8582097],"ct":"US","tp":"SD","ts":"2015-03-29T09:51:45Z","tX":168,"tY":404,"tags":{"fee":"unknown"}},"4203414361":{"location":[35.2672619,-120.8879617],"ct":"US","tp":"CS","ts":"2016-10-04T16:56:13Z","tX":168,"tY":404,"tags":{"name":"Badger Flat Camp / Site e3"}},"4203414362":{"location":[35.2619505,-120.8872912],"ct":"US","tp":"CS","ts":"2016-10-04T16:56:12Z","tX":168,"tY":404,"tags":{"name":"Deer Flat Camp / Site e4"}},"4837817644":{"location":[35.2962406,-120.8610728],"ct":"US","tp":"CS","ts":"2017-05-06T02:33:26Z","tX":168,"tY":404,"tags":{"description":"Camping only for visitors with horses","name":"Horse camp"}},"7715975685":{"location":[35.3453371,-120.6436019],"ct":"US","tp":"CS","ts":"2020-07-15T07:24:42Z","tX":168,"tY":404,"tags":{"name":"TV tower road"}},"10902819189":{"location":[35.3479566,-120.8396387],"ct":"US","tp":"CS","ts":"2023-05-16T18:16:54Z","tX":168,"tY":404,"tags":{"access":"yes","caravans":"no","charge":"<$10","fee":"yes","name":"Hiker-Biker Campsite - Morro Bay SP","static_caravans":"no","tents":"yes"}}}