{"43701060":{"location":[35.1090039,-120.6271444],"ct":"US","tp":"CS","ts":"2022-10-15T12:37:46Z","tX":168,"tY":405,"tags":{"addr:housenumber":"555","addr:state":"CA","addr:street":"Pier Avenue","name":"Pismo State Beach Oceano Campground","phone":"+1 805 473 7220"}},"163114418":{"location":[35.1340481,-120.6372229],"ct":"US","tp":"CR","ts":"2023-05-22T20:04:41Z","tX":168,"tY":405,"tags":{"addr:city":"Pismo Beach","addr:housenumber":"165","addr:postcode":"93449","addr:state":"CA","addr:street":"South Dolliver Street","name":"Pismo Coast Village RV Resort","phone":"+1 888 782 3224","website":"http://www.pismocoastvillage.com/"}},"220452304":{"location":[35.1305445,-120.6351673],"ct":"US","tp":"CS","ts":"2023-09-12T02:19:32Z","tX":168,"tY":405,"tags":{"addr:full":"555 Pier Avenue","addr:housenumber":"555","addr:street":"Pier Avenue","name":"Pismo State Beach North Campground","phone":"+1-805-473-7220"}},"229708454":{"location":[35.0968603,-120.606489],"ct":"US","tp":"CR","ts":"2022-10-14T22:26:53Z","tX":168,"tY":405,"tags":{"addr:city":"Oceano","addr:housenumber":"2220","addr:postcode":"93445","addr:state":"CA","addr:street":"Cienaga Street","name":"Pismo Sands RV Park","phone":"+1 800 404 7004","website":"https://www.pismosands.com/"}},"309939462":{"location":[35.1373574,-120.6361155],"ct":"US","tp":"CR","ts":"2023-11-18T08:57:00Z","tX":168,"tY":405,"tags":{"addr:housenumber":"100","addr:street":"South Dolliver Street","name":"Holiday RV Park","phone":"+1 805 773 1121","website":"https://holidayrvpark.org/index.php"}},"309939464":{"location":[35.1377784,-120.6365116],"ct":"US","tp":"CR","ts":"2022-10-12T02:32:32Z","tX":168,"tY":405,"tags":{"addr:housenumber":"98","addr:street":"South Dolliver Street","addr:street:type":"Street","name":"Pismo Creek R.V.","phone":"+1 805 773 4434"}},"309942233":{"location":[35.1232107,-120.6309121],"ct":"US","tp":"CR","ts":"2022-10-18T02:50:10Z","tX":168,"tY":405,"tags":{"addr:city":"Grover Beach","addr:housenumber":"319","addr:postcode":"93433","addr:state":"CA","addr:street":"Highway 1","email":"info@lesageriviera.com","name":"Le Sage Riviera RV Park","phone":"+1 805 489 5506","website":"https://lesageriviera.com/"}},"309946255":{"location":[35.1203019,-120.6169316],"ct":"US","tp":"CR","ts":"2022-10-18T03:04:20Z","tX":168,"tY":405,"tags":{"addr:city":"Arroyo Grande","addr:housenumber":"1168","addr:postcode":"93433","addr:state":"CA","addr:street":"West Grand Avenue","name":"Grand Avenue Mobile Home Park"}},"310091186":{"location":[35.1052841,-120.6268994],"ct":"US","tp":"CR","ts":"2022-10-15T12:37:46Z","tX":168,"tY":405,"tags":{"access":"private","addr:city":"Oceano","addr:housenumber":"410","addr:postcode":"93445","addr:state":"CA","addr:street":"Air Park Drive","name":"Oceano / Five Cities Elks Lodge #2504 Rest Area","website":"https://elkslodge2504.com/"}},"310091202":{"location":[35.1061775,-120.6291575],"ct":"US","tp":"CR","ts":"2022-10-15T12:37:46Z","tX":168,"tY":405,"tags":{"addr:housenumber":"345","addr:state":"CA","addr:street":"Pier Avenue","name":"Colorado River Adventures Pismo Beach Club","phone":"+1 866 217 8111"}},"310132859":{"location":[35.1121536,-120.6249831],"ct":"US","tp":"CR","ts":"2025-01-05T18:56:24Z","tX":168,"tY":405,"tags":{"addr:housenumber":"1001","addr:state":"CA","addr:street":"Pacific Boulevard","name":"Coastal Dunes RV Park","operator":"County of San Luis Obispo","phone":"+1 805 781 4900","website":"https://slocountyparks.com/camp/coastal-dunes/"}},"312666609":{"location":[35.0923754,-120.6159272],"ct":"US","tp":"CR","ts":"2023-09-12T02:19:32Z","tX":168,"tY":405,"tags":{"addr:city":"Oceano","addr:full":"1205 Silver Spur Place","addr:housenumber":"1205","addr:street":"Silver Spur Place","name":"Pacific Dunes Ranch RV Resort","phone":"+1-805-489-8100","website":"http://pacificdunesranch.com/"}},"322133776":{"location":[35.1733691,-120.7562215],"ct":"US","tp":"CR","ts":"2023-03-22T17:04:38Z","tX":168,"tY":405,"tags":{"internet_access":"no","name":"Port San Luis RV Campground","power_supply":"yes","smoking":"no","tents":"no","website":"https://www.portsanluis.com/2163/RV-Camping","wheelchair":"yes"}},"326810768":{"location":[35.1034743,-120.6239801],"ct":"US","tp":"CS","ts":"2024-05-21T14:08:42Z","tX":168,"tY":405,"tags":{"backcountry":"no","name":"Oceano Airport Campground","note":"must fly in to use","static_caravans":"no","website":"https://www.oceanoairport.com/facilities.html"}},"398822039":{"location":[35.0413073,-120.6119022],"ct":"US","tp":"CS","ts":"2016-09-07T19:17:45Z","tX":168,"tY":405,"tags":{"name":"Boy Scout Camp Area"}},"685173278":{"location":[35.1045295,-120.6258806],"ct":"US","tp":"CR","ts":"2021-02-18T19:16:43Z","tX":168,"tY":405,"tags":{"addr:city":"Oceano","addr:housenumber":"494","addr:state":"CA","addr:street":"Air Park Drive","name":"County of San Luis Obispo Oceano Campground"}},"1761796874":{"location":[35.1323992,-120.6353991],"ct":"US","tp":"SD","ts":"2015-03-29T09:51:45Z","tX":168,"tY":405,"tags":{}},"6754295586":{"location":[35.0409433,-120.6255309],"ct":"US","tp":"CS","ts":"2019-08-28T21:02:21Z","tX":168,"tY":405,"tags":{"name":"Pipeline Panhandle"}},"6754328485":{"location":[35.057732,-120.6163865],"ct":"US","tp":"CS","ts":"2019-08-28T21:35:36Z","tX":168,"tY":405,"tags":{"name":"Indian Midden"}},"6754328685":{"location":[35.0549577,-120.6179068],"ct":"US","tp":"CS","ts":"2019-08-28T21:35:38Z","tX":168,"tY":405,"tags":{"name":"New Drags"}},"10902819190":{"location":[35.1105362,-120.6246485],"ct":"US","tp":"CS","ts":"2023-05-16T18:16:54Z","tX":168,"tY":405,"tags":{"access":"yes","caravans":"no","charge":"<$15","fee":"yes","name":"Hiker-Biker Campsite - Coastal Dunes","static_caravans":"no","tents":"yes"}}}