{"4257302489":{"location":[43.7000583,105.441325],"ct":"MN","tp":"CS","ts":"2016-06-21T19:18:52Z","tX":811,"tY":373,"tags":{"email":"topbizmn@gmail.com","name":"Bmg Telecom camp","opening_hours":"24/7","phone":"99004159"}},"5035946721":{"location":[43.7061153,105.4402936],"ct":"MN","tp":"CS","ts":"2017-08-15T03:43:21Z","tX":811,"tY":373,"tags":{"addr:street":"tsankhi camp","internet_access":"wlan","name":"эрдэнэс тавантолглй","name:en":"ETT","name:mn":"эрдэнэс тавантолглй","phone":"70118585","website":"http://www.erdenestt.mn"}},"5418442721":{"location":[43.6147093,105.2375826],"ct":"MN","tp":"CS","ts":"2018-02-17T15:03:14Z","tX":811,"tY":373,"tags":{"name":"umnugovi","name:en":"mongol"}},"5426275921":{"location":[43.6146501,105.2376282],"ct":"MN","tp":"CS","ts":"2018-02-21T09:48:01Z","tX":811,"tY":373,"tags":{"name":"VMP","name:en":"VMP camp"}},"7856555385":{"location":[43.7055083,105.4406536],"ct":"MN","tp":"CS","ts":"2020-08-29T12:47:40Z","tX":811,"tY":373,"tags":{"name":"tsanhi"}}}