{"146137920":{"location":[-36.8334037,175.7240068],"ct":"NZ","tp":"CS","ts":"2023-12-18T04:01:49Z","tX":1011,"tY":624,"tags":{"addr:city":"Whitianga","addr:country":"NZ","addr:housenumber":"1031","addr:postcode":"3591","addr:street":"Purangi Road","addr:suburb":"Cooks Beach","contact:email":"inquiries@flaxmill.co.nz","contact:fax":"+64 7 866 2386","contact:phone":"+64 7 866 2386","contact:website":"http://www.flaxmillbay.co.nz/campground-motorhome-park/","name":"Flaxmill Accommodation & Venue","ref:linz:address_id":"733219","sanitary_dump_station":"yes"}},"154482147":{"location":[-36.710641,175.753308],"ct":"NZ","tp":"CS","ts":"2015-04-01T16:31:25Z","tX":1011,"tY":624,"tags":{"addr:city":"Kuaotunu","addr:housenumber":"400","addr:street":"Blackjack Road","name":"Otama Beach Summer Camp","sanitary_dump_station":"yes"}},"205414484":{"location":[-36.7560755,175.5018768],"ct":"NZ","tp":"CS","ts":"2025-05-03T06:03:43Z","tX":1011,"tY":624,"tags":{"addr:city":"Coromandel","addr:housenumber":"636","addr:street":"Rings Road","cabins":"yes","capacity:powered":"29","caravans":"yes","dryer":"yes","kitchen":"yes","name":"Coromandel Top10 Holiday Park","name:ja":"コロマンデルTOP10ホリデーパーク","phone:NZ":"0800 267 646","power_supply":"yes","sanitary_dump_station":"yes","tents":"yes","washing_machine":"yes","website":"https://www.coromandeltop10.co.nz/"}},"222624383":{"location":[-36.6075571,175.5366586],"ct":"NZ","tp":"CS","ts":"2022-02-08T07:13:37Z","tX":1011,"tY":624,"tags":{"capacity:caravans":"12","capacity:tents":"120","caravans":"yes","description":"This spacious, family friendly, scenic campsite is nestled beside a stunning white sand beach. The untouched Waikawau Bay is a fabulous place to relax on the beach, fish, swim, kayak or explore.","dog":"no","drinking_water":"untreated","name":"Waikawau Bay Campsite","operator":"Department of Conservation","operator:wikidata":"Q1191417","operator:wikipedia":"en:Department of Conservation (New Zealand)","payment:cash":"yes","power_supply":"yes","ref:doc":"100044313","reservation":"required","shower":"cold","tents":"yes","toilets":"yes","toilets:disposal":"pitlatrine","website":"https://doc.govt.nz/link/35ca41563dbb4388987da305a1746033","wheelchair":"limited"}},"321473549":{"location":[-36.7352597,175.4823041],"ct":"NZ","tp":"CS","ts":"2023-12-18T04:01:49Z","tX":1011,"tY":624,"tags":{"addr:city":"Coromandel","addr:hamlet":"Coromandel","addr:housenumber":"243","addr:street":"Colville Road","caravans":"yes","name":"Shelly Beach Top 10 Holiday Park","ref:linz:address_id":"710563","sanitary_dump_station":"yes"}},"353799485":{"location":[-36.839747,175.7390757],"ct":"NZ","tp":"CS","ts":"2023-12-18T04:01:49Z","tX":1011,"tY":624,"tags":{"addr:housenumber":"874","addr:street":"Purangi Road","addr:suburb":"Cooks Beach","email":"info@cooksbeachresort.co.nz","name":"Cooks Beach Resort","phone":"+64 7 866 5469","ref:linz:address_id":"734051","website":"https://www.cooksbeachresort.com/"}},"353799489":{"location":[-36.8398842,175.7008775],"ct":"NZ","tp":"CS","ts":"2025-05-03T06:03:43Z","tX":1011,"tY":624,"tags":{"addr:city":"Whitianga","addr:housenumber":"135","addr:street":"Albert Street","capacity:powered":"45","contact:email":"contact@harboursideholidaypark.co.nz","contact:fax":"+64 7 866 5746","contact:phone":"+64 7 866 5746","contact:website":"www.harboursidewhitianga.co.nz","name":"Whitianga Harbourside Holiday Park","playground":"yes","sanitary_dump_station":"yes","swimming_pool":"yes"}},"407935557":{"location":[-36.812156,175.6975816],"ct":"NZ","tp":"CS","ts":"2025-02-11T18:55:13Z","tX":1011,"tY":624,"tags":{"addr:city":"Whitianga","addr:country":"NZ","addr:housenumber":"6","addr:postcode":"3591","addr:street":"Bongard Road","contact:email":"whitiangacampground@gmail.com","contact:phone":"+64 7 866 5834","contact:website":"https://www.whitiangacampground.co.nz/","mobile":"+64 27 666 5194","name":"Whitianga Campground"}},"408092786":{"location":[-36.7289117,175.7044271],"ct":"NZ","tp":"CS","ts":"2021-01-09T01:59:56Z","tX":1011,"tY":624,"tags":{"addr:city":"Kuaotunu","addr:housenumber":"33","addr:street":"Bluff Road","name":"Kuaotunu Motor Camp","sanitary_dump_station":"yes"}},"428377777":{"location":[-36.8387429,175.7013118],"ct":"NZ","tp":"CS","ts":"2019-01-10T06:09:28Z","tX":1011,"tY":624,"tags":{"addr:city":"Whitianga","addr:country":"NZ","addr:housenumber":"121","addr:postcode":"3510","addr:street":"Albert Street","contact:email":"info@mercurybayholidaypark.co.nz","contact:fax":"+64 7 866 5579","contact:phone":"+64 7 866 5579","contact:website":"http://mercurybayholidaypark.co.nz/","name":"Mercury Bay Holiday Park"}},"430881510":{"location":[-36.7462483,175.4771935],"ct":"NZ","tp":"CS","ts":"2016-07-14T00:55:18Z","tX":1011,"tY":624,"tags":{"addr:city":"Coromandel","addr:housenumber":"3200","addr:street":"Long Bay Road","name":"Long Bay Motor Camp & Cabins","sanitary_dump_station":"yes"}},"483325295":{"location":[-36.7571035,175.6012178],"ct":"NZ","tp":"CS","ts":"2021-06-06T07:01:01Z","tX":1011,"tY":624,"tags":{"internet_access":"wlan","name":"Whangapoua Holiday Park","wheelchair":"limited"}},"974195234":{"location":[-36.7315299,175.4705349],"ct":"NZ","tp":"CS","ts":"2021-08-18T05:00:52Z","tX":1011,"tY":624,"tags":{"caravans":"yes","name":"Oamaru Bay Holiday Park","tents":"yes"}},"1106964066":{"location":[-36.7571565,175.4986935],"ct":"NZ","tp":"CR","ts":"2022-12-12T23:57:33Z","tX":1011,"tY":624,"tags":{"access":"yes","capacity":"4","fee":"no","parking":"surface"}},"1225312176":{"location":[-36.7010097,175.4321472],"ct":"NZ","tp":"CS","ts":"2015-03-28T00:16:53Z","tX":1011,"tY":624,"tags":{"addr:city":"Papaaroha","addr:housenumber":"1091r","addr:street":"Colville Road","cabins":"yes","caravans":"yes","dryer":"yes","internet_access":"yes","internet_access:fee":"yes","kitchen":"yes","name":"Papa Aroha Holiday Park","power_supply":"yes","sanitary_dump_station":"yes","tents":"yes","washing_machine":"yes"}},"1320001588":{"location":[-36.7612879,175.4965815],"ct":"NZ","tp":"CR","ts":"2024-10-03T03:27:06Z","tX":1011,"tY":624,"tags":{"access":"members","addr:housenumber":"60","addr:street":"Tiki Road","addr:suburb":"Coromandel","area":"yes","caravan_site":"motorhome_stopover","caravans":"yes","name":"Coromandel NZMCA Park","operator":"NZMCA","power_supply":"no","sanitary_dump_station":"no","static_caravans":"no","tents":"no"}},"2242024508":{"location":[-36.6098877,175.4450205],"ct":"NZ","tp":"CS","ts":"2014-06-04T17:43:23Z","tX":1011,"tY":624,"tags":{"caravans":"yes","dryer":"yes","internet_access":"no","kitchen":"no","name":"Otauto Bay Farm Camp","payment:cash":"yes","payment:credit_card":"yes","payment:credit_cards":"yes","power_supply":"yes","tents":"yes","washing_machine":"yes"}},"3352590341":{"location":[-36.6292232,175.4669766],"ct":"NZ","tp":"CS","ts":"2023-10-28T15:07:37Z","tX":1011,"tY":624,"tags":{"addr:city":"Colville","addr:housenumber":"85","addr:street":"Wharf Road","email":"colvillemotel@colville.org.nz","name":"Colville Bay Motel & Motorcamp","phone":"+64 7 866 6814","sanitary_dump_station":"yes","website":"https://www.colvillebaymotel.co.nz/"}},"4599586589":{"location":[-36.8323953,175.4649818],"ct":"NZ","tp":"CS","ts":"2017-01-10T10:59:21Z","tX":1011,"tY":624,"tags":{"name:en":"Hostel camping"}},"4785561921":{"location":[-36.7181095,175.6141507],"ct":"NZ","tp":"CS","ts":"2017-04-10T05:43:07Z","tX":1011,"tY":624,"tags":{"name":"Earl's Paradise","name:en":"Earl's Paradise"}},"4824126823":{"location":[-36.8576021,175.5919072],"ct":"NZ","tp":"CS","ts":"2019-12-03T08:37:44Z","tX":1011,"tY":624,"tags":{"description":"Freedom camping for self contained vehicles","fee":"no","name":"Engas park reserve","name:en":"Engas park reserve"}},"5408662821":{"location":[-36.7309433,175.6996164],"ct":"NZ","tp":"CS","ts":"2025-05-05T19:24:04Z","tX":1011,"tY":624,"tags":{"addr:housenumber":"40","addr:postcode":"3592","addr:street":"Gray Avenue","internet_access":"wlan","internet_access:fee":"no","mobile":"+64 27 656 3442","name":"Chaeppi's Shebang","opening_hours":"24/7"}},"6226166787":{"location":[-36.7131724,175.6148922],"ct":"NZ","tp":"CS","ts":"2024-09-26T03:04:13Z","tX":1011,"tY":624,"tags":{"caravans":"yes","drinking_water":"no","name":"Freedom Camping for Self Contained Vehicles (2 Spaces Only)","power_supply":"no","sanitary_dump_station":"no","shower":"yes","tents":"no","toilets":"yes"}},"7190221185":{"location":[-36.8269194,175.7033362],"ct":"NZ","tp":"CR","ts":"2024-11-25T06:23:15Z","tX":1011,"tY":624,"tags":{"description":"Freedom Camping for self-contained"}},"5636537033":{"location":[-36.7132071,175.6148573],"ct":"NZ","tp":"CR","ts":"2023-10-23T20:59:44Z","tX":1011,"tY":624,"tags":{"capacity":"2","description":"Freedom Camping for self-contained vehicles only","fee":"no"}},"7167641489":{"location":[-36.830656,175.7124455],"ct":"NZ","tp":"CR","ts":"2020-01-29T04:43:02Z","tX":1011,"tY":624,"tags":{"description":"Freedom Camping restricted area - CSC vehicles only, departure by 09:00","fee":"no","maxstay":"2 days"}},"12195609188":{"location":[-36.8268006,175.6883882],"ct":"NZ","tp":"CR","ts":"2024-10-03T03:34:01Z","tX":1011,"tY":624,"tags":{"addr:street":"Debenham Drive","capacity:caravans":"120","caravan_site":"motorhome_stopover","check_date":"2024-09-24","drinking_water":"yes","fee":"yes","name":"Whitianga NZMCA Park","operator":"NZMCA","power_supply":"no","sanitary_dump_station":"no","toilets":"no"}},"12200294339":{"location":[-36.7924148,175.7268635],"ct":"NZ","tp":"CR","ts":"2024-09-25T22:33:16Z","tX":1011,"tY":624,"tags":{"check_date":"2024-09-26","drinking_water":"yes","fee":"yes","internet_access":"no","name":"Simpsons Beach Retreat","payment:cards":"no","payment:cash":"yes","payment:credit_cards":"no","payment:debit_cards":"no","power_supply":"no","sanitary_dump_station":"yes","source":"survey","toilets":"no"}},"5636537027":{"location":[-36.8301412,175.6741361],"ct":"NZ","tp":"SD","ts":"2018-05-23T05:38:42Z","tX":1011,"tY":624,"tags":{"drinking_water":"yes"}},"7451857326":{"location":[-36.837244,175.7418509],"ct":"NZ","tp":"SD","ts":"2024-01-11T03:35:20Z","tX":1011,"tY":624,"tags":{"access":"yes","fee":"no"}},"12200364381":{"location":[-36.8301587,175.6742772],"ct":"NZ","tp":"SD","ts":"2024-09-25T23:09:21Z","tX":1011,"tY":624,"tags":{"access":"yes"}},"12202732550":{"location":[-36.7607535,175.510583],"ct":"NZ","tp":"SD","ts":"2024-09-26T22:42:41Z","tX":1011,"tY":624,"tags":{"access":"yes","fee":"no","water_point":"yes"}}}