{"217462115":{"location":[-41.2155214,175.4518153],"ct":"NZ","tp":"CS","ts":"2023-09-23T12:01:55Z","tX":1011,"tY":640,"tags":{"addr:city":"Martinborough","addr:housenumber":"10","addr:street":"Vintners Lane","cabins":"yes","caravans":"yes","dryer":"yes","email":"camp@martinboroughholidaypark.com","internet_access":"yes","internet_access:fee":"yes","kitchen":"yes","leisure":"park","name":"Martinborough Top 10 Holiday Park","payment:cash":"yes","payment:mastercard":"yes","payment:visa":"yes","phone":"+64 6 306 8946","power_supply":"yes","sanitary_dump_station":"yes","tents":"yes","washing_machine":"yes","wheelchair":"no","wheelchair:description":"Kitchen has ramp access but bathroom has approx 10cm step. Female bathrooms easier to access than male bathrooms."}},"374045209":{"location":[-41.0179783,175.5233695],"ct":"NZ","tp":"CS","ts":"2015-10-06T04:46:35Z","tX":1011,"tY":640,"tags":{"fee":"yes"}},"756408773":{"location":[-41.0748988,175.4588604],"ct":"NZ","tp":"CS","ts":"2021-01-24T11:03:25Z","tX":1011,"tY":640,"tags":{"name":"Greytown Campground"}},"956191306":{"location":[-41.2175627,175.465165],"ct":"NZ","tp":"CR","ts":"2021-06-20T02:31:57Z","tX":1011,"tY":640,"tags":{}},"1026028571":{"location":[-41.154157,175.4886884],"ct":"NZ","tp":"CS","ts":"2022-01-30T09:23:28Z","tX":1011,"tY":640,"tags":{"backcountry":"yes","name":"Morison Bush"}},"3352228818":{"location":[-41.040508,175.501462],"ct":"NZ","tp":"SD","ts":"2021-03-06T16:19:34Z","tX":1011,"tY":640,"tags":{"access":"yes","name":"Carterton Public Dump Station","opening_hours":"24/7"}},"3352320992":{"location":[-41.0750998,175.4586595],"ct":"NZ","tp":"CS","ts":"2024-08-18T17:52:40Z","tX":1011,"tY":640,"tags":{"addr:city":"Greytown","addr:street":"Kuratawhiti Street","capacity:powered":"34","dog":"no","name":"Greytown Campground","phone":"+64 6 304 9837","sanitary_dump_station":"yes","tents":"yes","tents:capacity":"61","website":"https://www.greytowncampground.co.nz/"}}}