{"150466207":{"location":[-42.4680805,171.1870666],"ct":"NZ","tp":"CS","ts":"2021-05-21T08:15:54Z","tX":998,"tY":645,"tags":{"addr:city":"Greymouth","addr:country":"NZ","addr:housenumber":"2","addr:street":"Chesterfield Street","cabins":"yes","capacity:powered":"66","caravans":"yes","dryer":"yes","email":"nfo@top10greymouth.co.nz","internet_access":"yes","internet_access:fee":"yes","kitchen":"yes","name":"Greymouth Top 10 Holiday Park","payment:cash":"yes","payment:mastercard":"yes","payment:visa":"yes","phone":"+64 3 768 6618","power_supply":"yes","sanitary_dump_station":"yes","tents":"yes","washing_machine":"yes","womo":"camping","womo:capacity":"66","womo:fee":"20","womo:name":"Greymouth Seaside Top 10 Holiday Park","womo:nz:nr":"148"}},"397737054":{"location":[-42.4927487,171.1760226],"ct":"NZ","tp":"CS","ts":"2021-05-20T09:37:36Z","tX":998,"tY":645,"tags":{"addr:city":"Greymouth","addr:country":"NZ","addr:housenumber":"318","addr:street":"Main South Road","addr:suburb":"Paroa","caravans":"yes","email":"stay@greymouthkiwi.co.nz","name":"Greymouth Kiwi Holiday Park","phone":"+64 3 762 6768","ref:linz:address_id":"323921","sanitary_dump_station":"yes","tents":"yes"}},"4547050889":{"location":[-42.4531573,171.209731],"ct":"NZ","tp":"CR","ts":"2016-12-09T19:37:50Z","tX":998,"tY":645,"tags":{"addr:housenumber":"117","addr:street":"Tainui Street","email":"steveharria@xtra.co.nz","internet_access":"wlan","name:en":"Central Park Camping","opening_hours":"Mo-Su 08:30-20:30","operator":"Steve Harris","phone":"+64 21 119 1447"}},"11563399045":{"location":[-42.4423407,171.1937957],"ct":"NZ","tp":"CR","ts":"2024-01-29T06:44:52Z","tX":998,"tY":645,"tags":{"description":"Certified self-contained vehicles only","fee":"no"}}}