{"88292110":{"location":[-42.7072432,170.9740036],"ct":"NZ","tp":"CS","ts":"2024-12-06T21:02:07Z","tX":998,"tY":646,"tags":{"addr:housenumber":"16","addr:street":"Richards Drive","capacity:powered":"28","caravans":"yes","drinking_water":"yes","fee":"yes","name":"Shining Star Beachfront Accommodation","phone":"+64 3 755 8921;+64 800 744 646","power_supply":"yes","sanitary_dump_station":"yes","shower":"yes","tents":"yes","toilets":"yes","website":"https://www.accommodationwestcoast.co.nz/","wheelchair":"yes","womo":"camping","womo:capacity":"28","womo:fee":"17.5","womo:name":"Hokitika Shining Star","womo:nz:nr":"145"}},"153692230":{"location":[-42.7951767,170.9009991],"ct":"NZ","tp":"CS","ts":"2023-11-25T06:49:43Z","tX":998,"tY":646,"tags":{"capacity:caravans":"0","capacity:tents":"100","caravans":"yes","description":"Camp beside Lake Mahinapua within forest surroundings. A popular overnight and day stop. Enjoy water sports in the lake.","dog":"no","drinking_water":"untreated","name":"Lake Mahinapua Campsite","operator":"Department of Conservation","operator:wikidata":"Q1191417","operator:wikipedia":"en:Department of Conservation (New Zealand)","ref:doc":"100043034","reservation":"required","shelter":"yes","shower":"cold","tents":"yes","toilets":"yes","toilets:disposal":"flush","website":"https://doc.govt.nz/link/bc426fe344d54ff9ad39301449dab043","wheelchair":"limited"}},"440452520":{"location":[-42.6752943,171.0139708],"ct":"NZ","tp":"CS","ts":"2021-04-15T20:25:14Z","tX":998,"tY":646,"tags":{"addr:city":"Hokitika","addr:country":"NZ","addr:hamlet":"Arahura Valley","addr:housenumber":"8","addr:postcode":"7882","addr:street":"Greyhound Road","caravans":"yes","email":"office@cloud9lifestylepark.co.nz","fee":"yes","internet_access":"no","name":"Cloud 9 Lifestyle Park","phone":"+64 3 755 6050","ref:linz:address_id":"1315223","sanitary_dump_station":"yes","tents":"yes","website":"https://www.cloud9lifestylepark.co.nz/"}},"692983868":{"location":[-42.7079648,170.9720459],"ct":"NZ","tp":"CR","ts":"2025-01-11T12:36:51Z","tX":998,"tY":646,"tags":{"fee":"yes","name":"252 Beachside Motels & Holiday Park","sanitary_dump_station":"customers","website":"https://252beachside.co.nz"}},"829620393":{"location":[-42.6932166,171.0015578],"ct":"NZ","tp":"CS","ts":"2020-07-24T09:56:51Z","tX":998,"tY":646,"tags":{"name":"Hokitika Holiday Park"}},"842457647":{"location":[-42.7683068,171.0038086],"ct":"NZ","tp":"CS","ts":"2024-07-19T23:18:00Z","tX":998,"tY":646,"tags":{"charge":"5.00 NZD/night","fee":"yes","leisure":"park","name":"Woodstock Domain"}},"855823014":{"location":[-42.7165033,170.9791221],"ct":"NZ","tp":"CR","ts":"2021-10-06T03:38:34Z","tX":998,"tY":646,"tags":{"addr:housenumber":"160","addr:street":"Davie Street","addr:suburb":"Hokitika","email":"office@hokikiwihp.co.nz","internet_access":"wlan","internet_access:fee":"no","name":"Hokitika's Kiwi Holiday Park and Motel","operator":"Kiwi Holiday Parks","phone":"+6437555141","power_supply":"yes","ref:linz:address_id":"2143707","sanitary_dump_station":"customers","tents":"yes","website":"https://hokikiwihp.co.nz/","wheelchair":"yes"}},"1320633023":{"location":[-42.7280144,170.958947],"ct":"NZ","tp":"CR","ts":"2024-10-04T05:52:45Z","tX":998,"tY":646,"tags":{"addr:city":"Hokitika","addr:housenumber":"80","addr:street":"Ruatapu Road","area":"yes","caravan_site":"motorhome_stopover","name":"Southside NZMCA Park","operator":"NZMCA","power_supply":"no","sanitary_dump_station":"no"}},"2304353257":{"location":[-42.6754632,171.1242103],"ct":"NZ","tp":"CS","ts":"2022-02-07T07:38:53Z","tX":998,"tY":646,"tags":{"capacity:caravans":"0","capacity:tents":"40","caravans":"yes","description":"This sheltered and secluded campsite is the site of an old gold mining town. Explore the gold mining area and try your luck fossicking in the nearby creek.","dog":"leashed","drinking_water":"untreated","name":"Goldsborough Campsite","operator":"Department of Conservation","operator:wikidata":"Q1191417","operator:wikipedia":"en:Department of Conservation (New Zealand)","ref:doc":"100043032","reservation":"required","tents":"yes","toilets":"yes","toilets:disposal":"flush","website":"https://doc.govt.nz/link/1ccbb9c749f54d8086b0ebad6e584c14","wheelchair":"limited"}},"2304353259":{"location":[-42.8089224,171.1558643],"ct":"NZ","tp":"CS","ts":"2023-01-11T08:49:25Z","tX":998,"tY":646,"tags":{"capacity:caravans":"0","capacity:tents":"40","caravans":"yes","description":"This is a large, grassy lake-front campsite beside beautiful Lake Kaniere. Fish from the jetty, boat or swim in the lake.","dog":"no","drinking_water":"untreated","name":"Hans Bay - Lake Kaniere Campsite","operator":"Department of Conservation","operator:wikidata":"Q1191417","operator:wikipedia":"en:Department of Conservation (New Zealand)","power_supply":"no","ref:doc":"100043033","reservation":"no","shelter":"yes","shower":"no","tents":"yes","toilets":"yes","toilets:disposal":"flush","website":"https://doc.govt.nz/link/f63676a7ea0d49158c237a08020ae192"}},"3348723739":{"location":[-42.6977872,170.9864916],"ct":"NZ","tp":"SD","ts":"2021-03-06T16:35:09Z","tX":998,"tY":646,"tags":{"access":"yes","name":"Hokitika Public Dump Station"}},"4349322090":{"location":[-42.7202237,170.9668875],"ct":"NZ","tp":"CS","ts":"2016-08-14T04:19:21Z","tX":998,"tY":646,"tags":{"name":"STOP Caravan park"}},"4518635343":{"location":[-42.662881,171.1965123],"ct":"NZ","tp":"CS","ts":"2016-11-24T08:50:28Z","tX":998,"tY":646,"tags":{"camp_site":"basic","fee":"no"}},"5441519721":{"location":[-42.7420097,170.9383968],"ct":"NZ","tp":"CS","ts":"2019-01-11T09:34:14Z","tX":998,"tY":646,"tags":{"addr:housenumber":"368","addr:street":"Ruatapu Ross Road","email":"juliangearry@outlook.com","internet_access":"wlan","name":"Links View Holiday Park","opening_hours":"24/7","operator":"Julian and Kevin","phone":"+64 21 265 8663","website":"https://links-view.co.nz"}},"5619688224":{"location":[-42.7075618,170.9762822],"ct":"NZ","tp":"CS","ts":"2019-01-11T09:34:18Z","tX":998,"tY":646,"tags":{"addr:housenumber":"6","addr:postcode":"7882","addr:street":"Seaview Hill Rd","internet_access":"wlan","name":"Seaview Lodge","phone":"+64 3 755 5230"}},"9894291247":{"location":[-42.6351261,171.1957879],"ct":"NZ","tp":"CR","ts":"2022-07-18T02:33:48Z","tX":998,"tY":646,"tags":{"caravans":"yes","fee":"no","name":"Kumara Power Station Self-contained site","power_supply":"no","sanitary_dump_station":"no","tents":"no"}}}