{"167050408":{"location":[-30.5203013,151.6849476],"ct":"AU","tp":"CR","ts":"2021-10-28T01:11:39Z","tX":943,"tY":603,"tags":{"addr:housenumber":"39","addr:street":"Grafton Road","fee":"yes","internet_access":"wlan","internet_access:fee":"yes","name":"Armidale Tourist Park and YHA","old_name":"Pembroke Tourist and Caravan Park","operator":"Top Tourist Parks","power_supply":"yes","source":"survey","tents":"yes","wheelchair":"yes"}},"299850525":{"location":[-30.492864,151.6689918],"ct":"AU","tp":"CR","ts":"2021-08-28T06:49:06Z","tX":943,"tY":603,"tags":{"addr:housenumber":"76","addr:street":"Glen Innes Road","area":"yes","name":"Highlander Van Village","operator":"Big 4","source":"Bing"}},"411673852":{"location":[-30.6724414,151.7260211],"ct":"AU","tp":"CS","ts":"2021-01-30T22:39:45Z","tX":943,"tY":603,"tags":{"access":"yes","alt_name":"Dangars Falls & Gorge Campground","fee":"no","name":"Dangars Gorge Campground","operator":"NSW National Parks and Wildlife Service","shower":"no","source":"survey","source:alt_name":"gdal","survey:name":"LPI Base Map Aug 2016","toilets":"yes"}},"609916130":{"location":[-30.5210038,151.6463465],"ct":"AU","tp":"SD","ts":"2023-11-04T23:53:12Z","tX":943,"tY":603,"tags":{"access":"yes","building":"roof"}},"1811175797":{"location":[-30.5441494,151.7945507],"ct":"AU","tp":"CS","ts":"2023-11-05T02:31:55Z","tX":943,"tY":603,"tags":{"access":"yes","caravans":"yes","fee":"no","internet_access":"no","name":"Gara River Rest Area","opening_hours":"24/7","static_caravans":"no","tents":"yes","toilets":"no"}},"8859883927":{"location":[-30.5134514,151.6771063],"ct":"AU","tp":"SD","ts":"2021-06-23T11:32:48Z","tX":943,"tY":603,"tags":{}}}