{"319047383":{"location":[45.0912199,35.4250084],"ct":"UA","tp":"CS","ts":"2023-05-02T22:54:32Z","tX":612,"tY":367,"tags":{"addr:housenumber":"8","addr:postcode":"298179","addr:street":"Коронелли","capacity":"200","fee":"yes","internet_access":"wlan","name":"Турбаза и Кемпинг Коронелли","name:uk":"Турбаза та Кемпінг Коронеллі","opening_hours":"Mo-Su 08:00-21:00"}},"404668591":{"location":[45.1165365,35.4700279],"ct":"UA","tp":"CS","ts":"2023-07-23T13:34:57Z","tX":612,"tY":367,"tags":{"name":"ДОЛ «Орлёнок»","name:ru":"ДОЛ «Орлёнок»","name:uk":"ДОВ \"Орлятко\""}},"4326853299":{"location":[45.1073491,35.4670264],"ct":"UA","tp":"CS","ts":"2024-03-06T22:26:55Z","tX":612,"tY":367,"tags":{"addr:postcode":"298176","addr:street":"Керченская улица","email":"wild-beach@mail.ru","internet_access":"wlan","phone":"+79781151516","website":"http://surfcrimea.ru"}},"9921280218":{"location":[45.1036315,35.4583613],"ct":"UA","tp":"CS","ts":"2024-03-06T22:26:55Z","tX":612,"tY":367,"tags":{"name":"Кемпинг \"Феодельфия\"","name:en":"Camping \"Feodelfia\"","name:uk":"Кемпінг \"Феодельфія\"","opening_hours":"24/7","phone":"+79182852544"}},"7780898185":{"location":[45.1073052,35.4669928],"ct":"UA","tp":"CR","ts":"2024-03-06T22:26:55Z","tX":612,"tY":367,"tags":{}}}