{"8415056":{"location":[44.9690431,35.2729087],"ct":"UA","tp":"CS","ts":"2018-06-28T14:51:39Z","tX":612,"tY":368,"tags":{"fee":"no","natural":"beach","nudism":"yes"}},"8416598":{"location":[44.9652487,35.2582648],"ct":"UA","tp":"CS","ts":"2023-10-18T00:56:47Z","tX":612,"tY":368,"tags":{"addr:housenumber":"140","addr:street":"улица Ленина","capacity":"100","contact:vk":"https://vk.com/club93723085","email":"sidorova2011@yandex.ru","internet_access":"wlan","name":"Химик","name:ru":"Химик","name:uk":"Хімік","phone":"+7-978-916-30-62; +7-978-916-28-54","power_supply":"yes","tents":"yes","website":"https://bazahimik.ru/"}},"9621236":{"location":[44.9659755,35.260568],"ct":"UA","tp":"CS","ts":"2023-05-02T22:54:32Z","tX":612,"tY":368,"tags":{"name":"Рулит Рай","name:uk":"Руліт Рай","phone":"+7 918 094 20 22"}},"113309628":{"location":[44.8994514,35.1595671],"ct":"UA","tp":"CS","ts":"2023-05-02T21:10:56Z","tX":612,"tY":368,"tags":{"name":"Зеленка","name:uk":"Зеленка","natural":"scrub"}},"179463375":{"location":[45.0824079,35.4188821],"ct":"UA","tp":"CS","ts":"2023-05-02T22:54:32Z","tX":612,"tY":368,"tags":{"name":"Туристско-оздоровительный комплекс \"Золотой пляж\"","name:uk":"Туристсько-оздоровчий комплекс \"Золотий пляж\""}},"189987190":{"location":[44.9002956,35.1657715],"ct":"UA","tp":"CS","ts":"2012-11-10T06:20:17Z","tX":612,"tY":368,"tags":{}},"248212607":{"location":[44.9700709,35.2710169],"ct":"UA","tp":"CS","ts":"2023-05-02T22:54:32Z","tX":612,"tY":368,"tags":{"addr:housenumber":"5","addr:street":"улица Юнге","alt_name":"у Джокера","email":"ujokera@yandex.ru","fee":"yes","internet_access":"wlan","name":"В гостях у Джокера","name:uk":"У гостях у Джокера","phone":"+7-978-092-4784; +7-978-092-4783","power_supply":"yes","tents":"yes","website":"http://xn--80ahdduxqs.xn--p1ai/"}},"437662311":{"location":[44.9694084,35.2742604],"ct":"UA","tp":"CS","ts":"2018-06-28T14:52:00Z","tX":612,"tY":368,"tags":{"description":"Зеленкой исторически называется место, где в теплые сезоны живут хиппи. Здесь всегда можно поставить свою палатку, купаться нагишом, выпивать вместе с хиппи и играть с ними на гитаре.","fee":"no","loc_name":"Зеленка"}},"858662204":{"location":[44.9707435,35.2717114],"ct":"UA","tp":"CR","ts":"2021-12-04T14:21:23Z","tX":612,"tY":368,"tags":{"fixme":"resurvey"}},"858662205":{"location":[44.9708064,35.2711128],"ct":"UA","tp":"CS","ts":"2020-10-13T18:45:30Z","tX":612,"tY":368,"tags":{}},"1469433797":{"location":[45.0133895,35.2444523],"ct":"UA","tp":"CS","ts":"2021-11-05T13:42:28Z","tX":612,"tY":368,"tags":{"source":"survey"}},"1918956461":{"location":[44.9704758,35.2713634],"ct":"UA","tp":"CS","ts":"2023-05-02T22:54:32Z","tX":612,"tY":368,"tags":{"name":"Camping Bon","name:uk":"Camping Bon","source_ref":"http://www.poiplaza.com/","website":"https://vk.com/avtokemping2013"}},"1918956539":{"location":[44.9701386,35.3114319],"ct":"UA","tp":"CS","ts":"2023-05-02T22:54:32Z","tX":612,"tY":368,"tags":{"name":"Тихая бухта","name:uk":"Тиха бухта"}},"2514709465":{"location":[44.892864,35.1564349],"ct":"UA","tp":"CS","ts":"2023-05-02T22:54:32Z","tX":612,"tY":368,"tags":{"name":"Куба","name:uk":"Куба"}},"2514709469":{"location":[44.8954504,35.1590947],"ct":"UA","tp":"CS","ts":"2023-05-02T22:54:32Z","tX":612,"tY":368,"tags":{"name":"Ямайка","name:uk":"Ямайка"}},"5666397526":{"location":[44.9672738,35.2977915],"ct":"UA","tp":"CS","ts":"2023-05-02T22:54:32Z","tX":612,"tY":368,"tags":{"description":"Кемпинг в заповеднике","name":"Кемпинг Тихая бухта","name:uk":"Кемпінг Тиха бухта","opening_hours":"Mo-Su 09:00-20:00"}},"5998570907":{"location":[44.9885642,35.3582963],"ct":"UA","tp":"CS","ts":"2020-03-22T04:08:42Z","tX":612,"tY":368,"tags":{"description":"Дикое место на берегу","fee":"no","impromptu":"yes"}},"7774988585":{"location":[44.9567141,35.3551682],"ct":"UA","tp":"CS","ts":"2020-08-01T05:30:50Z","tX":612,"tY":368,"tags":{}},"7902657637":{"location":[44.9667507,35.3386701],"ct":"UA","tp":"CS","ts":"2020-09-13T13:13:29Z","tX":612,"tY":368,"tags":{}},"7903779255":{"location":[44.969036,35.2725095],"ct":"UA","tp":"CS","ts":"2020-09-14T03:56:20Z","tX":612,"tY":368,"tags":{"fee":"no"}},"8436385160":{"location":[44.9946592,35.3651941],"ct":"UA","tp":"CS","ts":"2021-02-19T02:23:20Z","tX":612,"tY":368,"tags":{}},"8872578918":{"location":[44.9301157,35.1701522],"ct":"UA","tp":"CS","ts":"2021-06-28T14:39:48Z","tX":612,"tY":368,"tags":{"internet_access":"wlan"}},"8953529417":{"location":[45.0517961,35.3859747],"ct":"UA","tp":"CS","ts":"2023-05-02T22:54:32Z","tX":612,"tY":368,"tags":{"name":"Лежбище зверя","name:uk":"Лежище звіра"}},"8953529717":{"location":[44.961066,35.2514591],"ct":"UA","tp":"CS","ts":"2023-05-02T22:54:32Z","tX":612,"tY":368,"tags":{"name":"Приют мертвеца","name:uk":"Притулок мерця"}},"9254348895":{"location":[44.9771094,35.3532422],"ct":"UA","tp":"CS","ts":"2021-12-02T19:16:47Z","tX":612,"tY":368,"tags":{}},"9254348912":{"location":[44.9745573,35.3539771],"ct":"UA","tp":"CS","ts":"2021-12-02T19:16:47Z","tX":612,"tY":368,"tags":{}},"4419999690":{"location":[44.9685299,35.3043734],"ct":"UA","tp":"CR","ts":"2023-05-02T22:54:32Z","tX":612,"tY":368,"tags":{"name":"Тихая бухта","name:uk":"Тиха бухта"}},"5865363085":{"location":[44.9664298,35.2617665],"ct":"UA","tp":"CR","ts":"2023-05-02T22:54:32Z","tX":612,"tY":368,"tags":{"fee":"yes","name":"Территория свободы","name:ru":"Территория свободы","name:uk":"Територія волі"}},"6580398385":{"location":[45.074864,35.4071981],"ct":"UA","tp":"CR","ts":"2023-05-02T22:54:32Z","tX":612,"tY":368,"tags":{"name":"Феодосия","name:uk":"Феодосія"}},"7762282387":{"location":[44.9769116,35.3533482],"ct":"UA","tp":"CR","ts":"2021-12-04T14:21:23Z","tX":612,"tY":368,"tags":{"capacity":"50","fee":"no","power_supply":"no","sanitary_dump_station":"no"}},"8834385841":{"location":[44.9786678,35.3532228],"ct":"UA","tp":"CR","ts":"2023-05-02T22:54:32Z","tX":612,"tY":368,"tags":{"name":"Кемпинг-пансионат «Донбасс»","name:uk":"Кемпінг-пансіонат «Донбас»","power_supply":"yes","sanitary_dump_station":"yes"}},"8835305567":{"location":[44.9289066,35.1716832],"ct":"UA","tp":"CR","ts":"2023-05-02T22:54:32Z","tX":612,"tY":368,"tags":{"fee":"yes","name":"Nordcamping","name:uk":"Nordcamping","power_supply":"yes","sanitary_dump_station":"yes"}}}