{"683315584":{"location":[33.0079857,35.4813575],"ct":"IL","tp":"CS","ts":"2017-06-03T15:59:17Z","tX":612,"tY":412,"tags":{"name":"פארק עין זיתים","name:en":"Ein Zeitim Park","name:he":"פארק עין זיתים"}},"685075015":{"location":[33.0091019,35.3937492],"ct":"IL","tp":"CS","ts":"2023-07-18T20:57:15Z","tX":612,"tY":412,"tags":{"description":"חניון לילה מסודר עם שולחנות בין העצים וברז מים. מותר להדליק מדורות.","description:he":"חניון לילה מסודר עם שולחנות בין העצים וברז מים. מותר להדליק מדורות.","drinking_water":"yes","image":"https://upload.wikimedia.org/wikipedia/commons/3/33/IHM_חניון_לילה_חורבת_חממה.jpeg","image1":"https://upload.wikimedia.org/wikipedia/commons/8/8c/IHM_חניון_לילה_חורבת_חממה_1.jpeg","image2":"https://upload.wikimedia.org/wikipedia/commons/6/60/IHM_חניון_לילה_חורבת_חממה_2.jpeg","name":"חניון לילה חורבת חממה","name:en":"Khurbat Khammama Camp Site","name:he":"חניון לילה חורבת חממה","picnic_table":"yes"}},"1427910682":{"location":[33.0462189,35.2478828],"ct":"IL","tp":"CS","ts":"2022-03-19T18:39:55Z","tX":612,"tY":412,"tags":{"name":"חניון הזיתים","name:he":"חניון הזיתים","natural":"wood"}},"4119260665":{"location":[32.9392295,35.4296532],"ct":"IL","tp":"CS","ts":"2016-04-13T15:50:35Z","tX":612,"tY":412,"tags":{"name":"חניון יער שפר","name:en":"Shefer forest camp site","name:he":"חניון יער שפר"}},"4394881307":{"location":[33.0490303,35.2230148],"ct":"IL","tp":"CS","ts":"2018-01-01T16:14:04Z","tX":612,"tY":412,"tags":{"description":"תאום מראש לקבוצות","description:he":"תאום מראש לקבוצות","name":"האלון","name:en":"HaAlon","name:he":"האלון","operator":"kkl","phone":"+97249950102;+97249950103;1800350550"}},"4394881308":{"location":[33.0493524,35.221611],"ct":"IL","tp":"CS","ts":"2016-09-10T15:39:14Z","tX":612,"tY":412,"tags":{"description":"תאום מראש לקבוצות","name":"האורן","name:en":"HaOren","name:he":"האורן","operator":"kkl","phone":"+97249950102;+97249950103;1800350550"}},"4394894146":{"location":[33.0556381,35.2302459],"ct":"IL","tp":"CS","ts":"2023-03-11T18:35:04Z","tX":612,"tY":412,"tags":{"description":"תאום מראש לקבוצות","name":"האלה","name:en":"HaEla Campsite","name:he":"האלה","operator":"kkl","phone":"+97249950102;+97249950103;1800350550"}},"4434032305":{"location":[32.9790383,35.4423535],"ct":"IL","tp":"CS","ts":"2024-03-02T13:50:54Z","tX":612,"tY":412,"tags":{"alt_name":"חניון לילה הפיתול","alt_name:en":"HaPitul Camp Site","alt_name:he":"חניון לילה הפיתול","description":"חניון לילה פופולרי עם שולחנות וברז מים.\n","description:he":"חניון לילה פופולרי עם שולחנות וברז מים.\n","fee":"no","fee:conditional":"yes @ groups","image":"https://upload.wikimedia.org/wikipedia/commons/7/72/IHM_חניון_לילה_פיתול_מירון.jpeg","image1":"https://upload.wikimedia.org/wikipedia/commons/3/34/IHM_חניון_לילה_פיתול_מירון_1.jpeg","image2":"https://upload.wikimedia.org/wikipedia/commons/a/ad/IHM_חניון_לילה_פיתול_מירון_2.jpeg","name":"חניון לילה פיתול מירון","name:en":"Pitul Meron Camp Site","name:he":"חניון לילה פיתול מירון"}},"6848307159":{"location":[33.0429609,35.286844],"ct":"IL","tp":"CS","ts":"2022-02-26T21:32:03Z","tX":612,"tY":412,"tags":{"access":"yes","description":"חניון לילה עם פח זבל וברז מים.","description:he":"חניון לילה עם פח זבל וברז מים.","drinking_water":"yes","image":"https://upload.wikimedia.org/wikipedia/commons/2/2b/IHM_חניון_אבירים.jpeg","image1":"https://upload.wikimedia.org/wikipedia/commons/a/a0/IHM_חניון_אבירים_1.jpeg","image2":"https://upload.wikimedia.org/wikipedia/commons/2/26/IHM_חניון_אבירים_2.jpeg","image3":"https://upload.wikimedia.org/wikipedia/commons/1/14/IHM_חניון_אבירים_3.jpeg","name":"חניון אבירים","name:he":"חניון אבירים"}},"8042139350":{"location":[33.0447821,35.4293388],"ct":"IL","tp":"CS","ts":"2023-01-10T09:56:35Z","tX":612,"tY":412,"tags":{"description":"חניון עם שולחנות, פחים ומנגלים בצל אורנים","description:he":"חניון עם שולחנות, פחים ומנגלים בצל אורנים","image":"https://upload.wikimedia.org/wikipedia/commons/b/b6/IHM_חניון_לאה_ויצחק_רבין.jpeg","name":"חניון לאה ויצחק רבין","name:he":"חניון לאה ויצחק רבין","website":"https://www.kkl.org.il/recreation_areas_overnight_rabin/"}},"9141986518":{"location":[33.0224065,35.3263154],"ct":"IL","tp":"CS","ts":"2023-07-03T15:57:24Z","tX":612,"tY":412,"tags":{"description":"חניון לילה לא רשמי אבל פופולרי.\nמקום להקים אוהל, אין מים, יש מים בתחנת הדלק הסמוכה.","description:he":"חניון לילה לא רשמי אבל פופולרי.\nמקום להקים אוהל, אין מים, יש מים בתחנת הדלק הסמוכה.","image":"https://upload.wikimedia.org/wikipedia/commons/1/1f/IHM_חניון_לילה_גשר_אלקוש.jpeg","name":"חניון לילה גשר אלקוש","name:he":"חניון לילה גשר אלקוש"}},"10915650605":{"location":[32.9123832,35.4858123],"ct":"IL","tp":"CS","ts":"2023-05-21T08:53:20Z","tX":612,"tY":412,"tags":{}},"6743662889":{"location":[33.0997068,35.4484209],"ct":"LB","tp":"CS","ts":"2019-08-25T09:10:35Z","tX":612,"tY":412,"tags":{"name":"حدیقة ایران","name:en":"Iran park","opening_hours":"Mo-Su 09:00-00:00"}}}