{"2178129452":{"location":[32.6937126,35.43377],"ct":"IL","tp":"CS","ts":"2022-01-12T11:09:50Z","tX":612,"tY":413,"tags":{"description":"חאן דרך העץ, חדרי מטיילים, אוהלים ממוזגים, לינת שטח ופארק אטרקציות בנושא העץ","description:he":"חאן דרך העץ, חדרי מטיילים, אוהלים ממוזגים, לינת שטח ופארק אטרקציות בנושא העץ","name":"דרך העץ","name:en":"Derech Ha'etz","name:he":"דרך העץ","website":"derechaetz.org.il "}},"2291522119":{"location":[32.7473117,35.1671927],"ct":"IL","tp":"CS","ts":"2024-05-30T10:08:28Z","tX":612,"tY":413,"tags":{"access":"yes","addr:city":"כפר טבאש","description":"אצל שמשון בחצר","fixme":"name, name:he mismatch. Flagged by SafwatHalaby_bot-nameCopy","internet_access":"yes","name":"שבט אחים","name:en":"Galilee Bedouin Camplodge","name:he":"מחנה שבט אחים","phone":"+972 526941188;+972 526941141","website":"https://www.shevet-ahim.co.il/"}},"9227757955":{"location":[32.6828741,35.2990508],"ct":"IL","tp":"CS","ts":"2021-11-05T16:29:01Z","tX":612,"tY":413,"tags":{}},"10793168558":{"location":[32.6572062,35.452299],"ct":"IL","tp":"CS","ts":"2023-04-07T16:23:14Z","tX":612,"tY":413,"tags":{}},"10793168559":{"location":[32.6591523,35.4368802],"ct":"IL","tp":"CS","ts":"2023-04-07T16:23:14Z","tX":612,"tY":413,"tags":{}},"11990241617":{"location":[32.7008253,35.349985],"ct":"IL","tp":"CS","ts":"2025-05-11T10:29:52Z","tX":612,"tY":413,"tags":{"email":"Maayanbn@kkl.org.il","name":"חניון לילה הר דבורה","operator":"קק\"ל","website":"https://www.kkl.org.il/recreation_areas_overnight_dvora/"}},"5698580521":{"location":[32.7449915,35.3493851],"ct":"IL","tp":"CR","ts":"2018-07-21T16:05:29Z","tX":612,"tY":413,"tags":{"name":"ابو فراس الدهامشه","name:ar":"ابو فراس الدهامشه","name:en":"كفر كنا"}}}