{"5335060622":{"location":[32.2620783,35.3793933],"ct":"PS","tp":"CS","ts":"2018-01-12T14:41:36Z","tX":612,"tY":414,"tags":{"name":"مزرعة قرطلو","name:en":"Farm Qartallo"}},"5084705321":{"location":[32.3224495,35.3777064],"ct":"PS","tp":"CR","ts":"2017-12-29T07:14:35Z","tX":612,"tY":414,"tags":{"name":"بيع مواد بناء","name:ar":"بيع مواد بناء","shop":"doityourself"}},"5180661122":{"location":[32.4580625,35.3013233],"ct":"PS","tp":"CR","ts":"2017-10-21T19:56:16Z","tX":612,"tY":414,"tags":{"addr:street":"Al-Razi","internet_access":"wlan","name":"منزل أيمن ستيتي","name:en":"جنين"}},"6597117286":{"location":[32.3521414,35.34873],"ct":"PS","tp":"CR","ts":"2019-07-09T20:47:44Z","tX":612,"tY":414,"tags":{"addr:housenumber":"00","addr:street":"عقابا-جنين","name":"منزل يحيى مثقال ابو عره","name:en":"yahia abu arra home"}},"7728859786":{"location":[32.3639637,35.3148908],"ct":"PS","tp":"CR","ts":"2020-07-19T17:20:42Z","tX":612,"tY":414,"tags":{"addr:street":"Sair area","name":"بيت عزالدين ارشيد"}},"10174732217":{"location":[32.4607393,35.306779],"ct":"PS","tp":"CR","ts":"2022-11-11T00:26:55Z","tX":612,"tY":414,"tags":{"name":"الدار الشرقية"}},"10234445317":{"location":[32.3188432,35.3740403],"ct":"PS","tp":"CR","ts":"2022-12-02T21:10:19Z","tX":612,"tY":414,"tags":{"name":"منزل علان ابو الزيت","name:en":"Allan abu alzait Home"}},"11917700882":{"location":[32.4987243,35.4596828],"ct":"IL","tp":"CS","ts":"2025-04-01T17:19:14Z","tX":612,"tY":414,"tags":{"name":"חניון נחל קיבוצים","name:he":"חניון נחל קיבוצים"}},"11179532302":{"location":[32.508827,35.4755052],"ct":"IL","tp":"CS","ts":"2025-06-02T16:32:26Z","tX":612,"tY":414,"tags":{"description":"נחל חרוד זורם ומתחתר בסמוך לבית שאן, הזרימה היא במפל יפה שעובר מתחת גשר הקנטרה. המים במקום מזוהמים ואסורים ברחצה. בקיץ הזרימה חלשה יחסית. קק\"ל הקימה בסמוך חניון עם ספסלים ופינות ישיבה.","description:he":"נחל חרוד זורם ומתחתר בסמוך לבית שאן, הזרימה היא במפל יפה שעובר מתחת גשר הקנטרה. המים במקום מזוהמים ואסורים ברחצה. בקיץ הזרימה חלשה יחסית. קק\"ל הקימה בסמוך חניון עם ספסלים ופינות ישיבה.","image":"https://upload.wikimedia.org/wikipedia/commons/b/b2/IHM_חניון_הקנטרה.jpeg","name":"חניון הקנטרה","name:en":"Qantara Picnic Area","name:he":"חניון הקנטרה","website":"https://cochav-hanofesh.com/springs/%D7%97%D7%A0%D7%99%D7%95%D7%9F-%D7%A7%D7%A0%D7%98%D7%A8%D7%94/","website1":"https://www.tiuli.com/camping/425/%D7%97%D7%A0%D7%99%D7%95%D7%9F-%D7%9C%D7%99%D7%9C%D7%94-%D7%92%D7%A9%D7%A8-%D7%94%D7%A7%D7%A0%D7%98%D7%A8%D7%94"}}}