{"7839324696":{"location":[32.0817493,35.2383154],"ct":"PS","tp":"CS","ts":"2020-08-24T08:58:07Z","tX":612,"tY":415,"tags":{"name":"مخيم عبود"}},"5316601321":{"location":[32.205094,35.2843467],"ct":"PS","tp":"CR","ts":"2018-01-02T15:53:43Z","tX":612,"tY":415,"tags":{"addr:street":"شارع القرس","name":"ابو الوفا. منزل","name:en":"Abualwsfa. House","phone":"00970599376353"}},"5412997821":{"location":[32.2235005,35.2128076],"ct":"PS","tp":"CR","ts":"2020-07-31T15:15:32Z","tX":612,"tY":415,"tags":{"addr:street":"شارع art عين صرة","internet_access":"wlan","name":"نابلس","name:ar":"منزل الحاج حسني قرادة","name:en":"nablus"}},"5516599026":{"location":[32.1486504,35.2550209],"ct":"PS","tp":"CR","ts":"2018-03-30T15:57:47Z","tX":612,"tY":415,"tags":{"name":"ابو داوود"}},"5520405421":{"location":[32.2247708,35.2537797],"ct":"PS","tp":"CR","ts":"2018-04-01T13:59:10Z","tX":612,"tY":415,"tags":{"name":"البيت","name:en":"Home"}},"5581302621":{"location":[32.1310734,35.3425403],"ct":"PS","tp":"CR","ts":"2018-04-26T20:57:34Z","tX":612,"tY":415,"tags":{"name":"دار ابو تيسير"}},"5582809021":{"location":[32.2233779,35.2932432],"ct":"PS","tp":"CR","ts":"2018-04-27T16:49:10Z","tX":612,"tY":415,"tags":{"addr:housenumber":"092311293","internet_access":"wlan","name":"آلِ هارون","name:en":"haroon","phone":"092311293"}}}