{"2934444274":{"location":[31.6868559,35.2992309],"ct":"PS","tp":"CS","ts":"2014-06-26T16:18:03Z","tX":612,"tY":416,"tags":{}},"5595931221":{"location":[31.8790105,35.2166176],"ct":"IL","tp":"CS","ts":"2018-06-12T11:47:04Z","tX":612,"tY":416,"tags":{"name":"عرموش","name:ar":"عرموش"}},"4815892323":{"location":[31.8862193,35.2151411],"ct":"PS","tp":"CS","ts":"2017-06-15T06:37:31Z","tX":612,"tY":416,"tags":{"name":"سكن السعاده","name:ar":"سكن السعاده"}},"5138567421":{"location":[31.9223743,35.1963985],"ct":"PS","tp":"CS","ts":"2017-09-29T21:45:09Z","tX":612,"tY":416,"tags":{}},"6308448986":{"location":[31.9312317,35.1831944],"ct":"PS","tp":"CS","ts":"2019-02-28T16:14:05Z","tX":612,"tY":416,"tags":{"name":"الحي الدبلوماسي"}},"6498670785":{"location":[31.9354363,35.1677897],"ct":"PS","tp":"CS","ts":"2019-05-24T23:17:49Z","tX":612,"tY":416,"tags":{"addr:street":"الثامن","name":"Amin abu zena","name:ar":"Amin abu zena الريحان"}},"6705425389":{"location":[31.7039928,35.2364349],"ct":"PS","tp":"CS","ts":"2019-08-13T10:17:13Z","tX":612,"tY":416,"tags":{"name":"IVE Campamento"}},"7227436687":{"location":[31.7021779,35.1806251],"ct":"PS","tp":"CS","ts":"2020-09-20T20:21:00Z","tX":612,"tY":416,"tags":{"addr:street":"AL_Doha street","name":"مادي تل","name:en":"Madi tel"}},"7227436785":{"location":[31.9041035,35.1899185],"ct":"PS","tp":"CS","ts":"2020-02-19T12:45:46Z","tX":612,"tY":416,"tags":{"addr:street":"Naguib Mahfouz St.","name":"مايستري كونترول","name:en":"MC"}},"5017936023":{"location":[31.7001177,35.2109313],"ct":"PS","tp":"CR","ts":"2017-08-06T11:51:11Z","tX":612,"tY":416,"tags":{"name":"منزل ومشغل ابو خليل","name:en":"Home And Work Abu Kahlil","opening_hours":"Mo-Su 18:00-09:00","operator":"مشغل ابو خليل","phone":"0598736610"}},"5150152621":{"location":[31.7674667,35.2704921],"ct":"PS","tp":"CR","ts":"2017-10-05T17:17:02Z","tX":612,"tY":416,"tags":{}},"5441194221":{"location":[31.8482899,35.4551845],"ct":"PS","tp":"CR","ts":"2018-06-17T05:22:24Z","tX":612,"tY":416,"tags":{"addr:city":"أريحا","addr:street":"شارع عثمان بن عفان","name":"المنزل سفيان","name:ar":"المنزل سفيان"}},"6442523085":{"location":[31.9060812,35.1702973],"ct":"PS","tp":"CR","ts":"2019-05-02T10:27:22Z","tX":612,"tY":416,"tags":{"name":"عمارة الشوعاني"}}}