{"524115022":{"location":[29.518884,35.4632476],"ct":"JO","tp":"CS","ts":"2022-02-15T19:57:44Z","tX":612,"tY":424,"tags":{"name":"Bedouin Roads","phone":"+962795899723","url":"http://www.bedouinroads.com/"}},"759644006":{"location":[29.4956265,35.4075055],"ct":"JO","tp":"CS","ts":"2019-12-30T17:25:00Z","tX":612,"tY":424,"tags":{"access":"customers","building":"yes","camp_site":"standard","camp_type":"established","name":"Al Amer Hostel Camp"}},"777578098":{"location":[29.5223843,35.4281012],"ct":"JO","tp":"CS","ts":"2021-01-03T13:56:27Z","tX":612,"tY":424,"tags":{"email":"info@wadirumnomads.com","name":"Wadi Rum Base Camp","operator":"Wadi Rum Nomads","phone":"+962 795467190","website":"https://www.wadirumnomads.com/"}},"1126954082":{"location":[29.511662,35.3884793],"ct":"JO","tp":"CS","ts":"2023-01-04T13:46:46Z","tX":612,"tY":424,"tags":{"name:en":"Al-Qatar Mountain Camp"}},"2284445843":{"location":[29.4942042,35.3965546],"ct":"JO","tp":"CS","ts":"2013-12-13T11:50:11Z","tX":612,"tY":424,"tags":{"name":"Rainbow Camp","website":"http://www.rainbowcampsite.com/"}},"2344061466":{"location":[29.4910853,35.3925568],"ct":"JO","tp":"CS","ts":"2013-06-14T06:06:43Z","tX":612,"tY":424,"tags":{"name":"Sunset Camp"}},"2344061490":{"location":[29.5097524,35.412288],"ct":"JO","tp":"CS","ts":"2013-06-14T06:06:44Z","tX":612,"tY":424,"tags":{"name":"Beduin lifestyle camp"}},"2495917212":{"location":[29.5302465,35.4430211],"ct":"JO","tp":"CS","ts":"2013-10-14T07:48:26Z","tX":612,"tY":424,"tags":{}},"2495917213":{"location":[29.5217247,35.4542337],"ct":"JO","tp":"CS","ts":"2013-10-14T07:48:26Z","tX":612,"tY":424,"tags":{}},"2495917214":{"location":[29.5226834,35.4543475],"ct":"JO","tp":"CS","ts":"2013-10-14T07:48:26Z","tX":612,"tY":424,"tags":{}},"2495933924":{"location":[29.5158552,35.4332261],"ct":"JO","tp":"CS","ts":"2013-10-14T08:03:02Z","tX":612,"tY":424,"tags":{}},"2495933925":{"location":[29.4979828,35.452037],"ct":"JO","tp":"CS","ts":"2013-10-14T08:03:02Z","tX":612,"tY":424,"tags":{}},"2495933926":{"location":[29.5086097,35.4105823],"ct":"JO","tp":"CS","ts":"2013-10-14T08:03:02Z","tX":612,"tY":424,"tags":{}},"2495936525":{"location":[29.5159607,35.4119831],"ct":"JO","tp":"CS","ts":"2020-01-15T20:40:01Z","tX":612,"tY":424,"tags":{"name":"Wadirum quiet village camp"}},"2495936527":{"location":[29.5249917,35.4270109],"ct":"JO","tp":"CS","ts":"2013-10-14T08:07:06Z","tX":612,"tY":424,"tags":{}},"2495936536":{"location":[29.5038125,35.4010644],"ct":"JO","tp":"CS","ts":"2013-10-14T08:07:06Z","tX":612,"tY":424,"tags":{}},"2495936537":{"location":[29.4990416,35.3983015],"ct":"JO","tp":"CS","ts":"2021-07-29T14:53:38Z","tX":612,"tY":424,"tags":{"name":"Desert Moon Camp"}},"2495936538":{"location":[29.4868419,35.3940851],"ct":"JO","tp":"CS","ts":"2019-03-17T14:15:20Z","tX":612,"tY":424,"tags":{"name:en":"Khaled's Camp","phone":"+962795609691","website":"https://www.wadi-rum.com/"}},"2495936539":{"location":[29.4834988,35.3929743],"ct":"JO","tp":"CS","ts":"2019-03-17T14:15:20Z","tX":612,"tY":424,"tags":{"name":"Bedouin Meditation Camp","website":"https://www.wadirumbedouinmeditationcamp.com/"}},"2495936540":{"location":[29.4798903,35.3903292],"ct":"JO","tp":"CS","ts":"2013-10-14T08:07:07Z","tX":612,"tY":424,"tags":{}},"2495936541":{"location":[29.4784155,35.3926328],"ct":"JO","tp":"CS","ts":"2013-10-14T08:07:07Z","tX":612,"tY":424,"tags":{}},"2495936542":{"location":[29.4790917,35.3958204],"ct":"JO","tp":"CS","ts":"2013-10-14T08:07:07Z","tX":612,"tY":424,"tags":{}},"2495940416":{"location":[29.483235,35.3868094],"ct":"JO","tp":"CS","ts":"2013-10-14T08:16:50Z","tX":612,"tY":424,"tags":{}},"2495940419":{"location":[29.4873381,35.3873472],"ct":"JO","tp":"CS","ts":"2019-09-28T17:35:02Z","tX":612,"tY":424,"tags":{"name:en":"Mohammed Mutlak Camp","name:es":"Mohammed Mutlak Camp"}},"2495940422":{"location":[29.482223,35.382689],"ct":"JO","tp":"CS","ts":"2013-10-14T08:16:50Z","tX":612,"tY":424,"tags":{}},"2495940424":{"location":[29.4948787,35.3935153],"ct":"JO","tp":"CS","ts":"2021-10-26T18:25:37Z","tX":612,"tY":424,"tags":{}},"2495940427":{"location":[29.4753074,35.4081142],"ct":"JO","tp":"CS","ts":"2024-11-13T17:18:06Z","tX":612,"tY":424,"tags":{"addr:postcode":"77110","name":"Khaled's Camp"}},"2495940430":{"location":[29.4818555,35.4089197],"ct":"JO","tp":"CS","ts":"2013-10-14T08:16:50Z","tX":612,"tY":424,"tags":{}},"2495940432":{"location":[29.4884175,35.4080038],"ct":"JO","tp":"CS","ts":"2013-10-14T08:16:51Z","tX":612,"tY":424,"tags":{}},"2495940435":{"location":[29.4382694,35.4460919],"ct":"JO","tp":"CS","ts":"2013-10-14T08:16:51Z","tX":612,"tY":424,"tags":{}},"2495957059":{"location":[29.4981072,35.454016],"ct":"JO","tp":"CS","ts":"2013-10-14T08:43:52Z","tX":612,"tY":424,"tags":{}},"2495957061":{"location":[29.5156249,35.4723001],"ct":"JO","tp":"CS","ts":"2022-06-04T11:26:39Z","tX":612,"tY":424,"tags":{"name":"Mzied's Camp","name:alt":"GoBedouin Camp"}},"2495957062":{"location":[29.517199,35.4751679],"ct":"JO","tp":"CS","ts":"2013-10-14T08:43:52Z","tX":612,"tY":424,"tags":{}},"2495957063":{"location":[29.5117035,35.4748964],"ct":"JO","tp":"CS","ts":"2019-01-30T07:04:17Z","tX":612,"tY":424,"tags":{}},"2495966412":{"location":[29.5008106,35.431439],"ct":"JO","tp":"CS","ts":"2017-11-19T21:23:22Z","tX":612,"tY":424,"tags":{"name:en":"Wadi Rum Nature & Tours Camp"}},"2497006158":{"location":[29.5271747,35.4810319],"ct":"JO","tp":"CS","ts":"2013-10-15T07:31:46Z","tX":612,"tY":424,"tags":{}},"2497008470":{"location":[29.5257449,35.4484981],"ct":"JO","tp":"CS","ts":"2024-01-11T10:20:00Z","tX":612,"tY":424,"tags":{"contact:email":"info@desertbirdcamp.com","contact:phone":"+962 7 7765 3791","name":"Desert Bird Camp","website":"https://www.desertbirdcamp.com/"}},"2497008550":{"location":[29.5198197,35.4423997],"ct":"JO","tp":"CS","ts":"2013-10-15T07:37:16Z","tX":612,"tY":424,"tags":{}},"2497008669":{"location":[29.5149446,35.4493487],"ct":"JO","tp":"CS","ts":"2013-10-15T07:37:59Z","tX":612,"tY":424,"tags":{}},"2497009725":{"location":[29.5011569,35.4382229],"ct":"JO","tp":"CS","ts":"2013-10-15T07:40:10Z","tX":612,"tY":424,"tags":{}},"2497011559":{"location":[29.5061086,35.4377812],"ct":"JO","tp":"CS","ts":"2013-10-15T07:42:51Z","tX":612,"tY":424,"tags":{}},"2497011811":{"location":[29.5152092,35.4405995],"ct":"JO","tp":"CS","ts":"2016-10-21T15:37:34Z","tX":612,"tY":424,"tags":{"email":"salem.guide.wadirum@gmail.com","name:en":"Welcome to Wadi Rum Camping","opening_hours":"24/7","operator":"Salem Sabbah","phone":"+962777225447","website":"http://www.welcom-to-wadirum.com"}},"2497012961":{"location":[29.5060414,35.4125743],"ct":"JO","tp":"CS","ts":"2013-10-15T07:46:23Z","tX":612,"tY":424,"tags":{}},"2497024744":{"location":[29.4247567,35.3902599],"ct":"JO","tp":"CS","ts":"2013-10-15T08:02:31Z","tX":612,"tY":424,"tags":{}},"4193625855":{"location":[29.4649678,35.377062],"ct":"JO","tp":"CS","ts":"2018-05-07T22:24:50Z","tX":612,"tY":424,"tags":{"email":"wadirum.mehedi@gmail.com","name":"Bedouin Directions Camp","phone":"+ 962 776 886 481","website":"https://wadirumjeeptours.com/"}},"4591418389":{"location":[29.5137982,35.479074],"ct":"JO","tp":"CS","ts":"2018-01-21T21:27:36Z","tX":612,"tY":424,"tags":{"addr:postcode":"77110","addr:street":"قريه وادي رم","email":"desertlovers2013@gmail.com","name":"مخيم عشاق الصحراء وادي رم","name:ar":"مخيم عشاق الصحراء","name:en":"desert lovers camp","name:he":"מחנה אוהבי המדבר חמיס","opening_hours":"24/7","phone":"00972545971587","website":"http://www.desertlovers.com"}},"5177718421":{"location":[29.4833812,35.415243],"ct":"JO","tp":"CS","ts":"2017-10-20T07:36:53Z","tX":612,"tY":424,"tags":{"email":"bedouinwhispers@yahoo.com","name:en":"Bedouin Whispers Camp","phone":"00962775627501"}},"6067928286":{"location":[29.4882619,35.3983492],"ct":"JO","tp":"CS","ts":"2018-11-17T07:07:11Z","tX":612,"tY":424,"tags":{"name:en":"Wadi Rum Bedouin Tour with a Camp"}},"6221608919":{"location":[29.442673,35.3344477],"ct":"JO","tp":"CS","ts":"2019-01-19T18:17:44Z","tX":612,"tY":424,"tags":{"name":"Um Ghada Rum"}},"6248683312":{"location":[29.5012904,35.4738196],"ct":"JO","tp":"CS","ts":"2019-01-31T06:38:10Z","tX":612,"tY":424,"tags":{"name":"Wadi Rum 7 Pillars Camp","phone":"+962 7 7227 3286"}},"6250361585":{"location":[29.4938821,35.3964035],"ct":"JO","tp":"CS","ts":"2021-10-26T22:24:58Z","tX":612,"tY":424,"tags":{"name":"Rainbow"}},"6293108788":{"location":[29.5035299,35.4368918],"ct":"JO","tp":"CS","ts":"2019-02-21T12:56:32Z","tX":612,"tY":424,"tags":{"name":"Arabian Nights Camp"}},"6394503686":{"location":[29.5137356,35.4508031],"ct":"JO","tp":"CS","ts":"2019-04-09T18:14:15Z","tX":612,"tY":424,"tags":{"name:en":"Beduin Camp","name:pl":"Beduiński Kamping"}},"6551939685":{"location":[29.5044134,35.4693568],"ct":"JO","tp":"CS","ts":"2019-06-17T00:43:10Z","tX":612,"tY":424,"tags":{"name":"Rum Stars camp"}},"6743588285":{"location":[29.5029274,35.4641115],"ct":"JO","tp":"CS","ts":"2019-08-25T07:45:45Z","tX":612,"tY":424,"tags":{"name:en":"Joy of Life","phone":"+962 7 7623 5279"}},"6833209223":{"location":[29.4973623,35.4125207],"ct":"JO","tp":"CS","ts":"2019-12-30T17:12:30Z","tX":612,"tY":424,"tags":{"addr:city":"wadirum","addr:street":"school.st","name":"Omar Bedouin camp","operator":"omar bedouin camp"}},"9921776819":{"location":[29.4801373,35.4205165],"ct":"JO","tp":"CS","ts":"2022-07-31T04:26:27Z","tX":612,"tY":424,"tags":{"name:en":"Firecamp"}},"9954442521":{"location":[29.4894187,35.4305756],"ct":"JO","tp":"CS","ts":"2022-08-15T10:52:19Z","tX":612,"tY":424,"tags":{"name":"Wadi Rum Fire Camp","url":"https://www.booking.com/hotel/jo/ibrahim-wadi-rum-wadi-rum.ru.html"}},"10210439923":{"location":[29.4979721,35.4594016],"ct":"JO","tp":"CS","ts":"2022-11-22T19:38:21Z","tX":612,"tY":424,"tags":{"name":"Local Camp","website":"https://wadirumlocalcamp.com/"}},"10235202717":{"location":[29.5129412,35.4772878],"ct":"JO","tp":"CS","ts":"2022-12-03T08:41:49Z","tX":612,"tY":424,"tags":{"addr:housenumber":"00962776470477","addr:postcode":"77110","addr:street":"Wildwadirum","email":"Wildwadirum@gmail.com","internet_access":"wlan","name":"برية وادي رم","name:en":"Wild Wadi Rum","opening_hours":"24/7","phone":"00962776470477","website":"http://Www.wildwadirum.com"}},"10308708282":{"location":[29.5036793,35.4369926],"ct":"JO","tp":"CS","ts":"2023-01-05T13:05:09Z","tX":612,"tY":424,"tags":{"name":"Wadi Rum EcoTours Bedouin Camp","phone":"+9620779312344","website":"https://wadirumecotours.com/"}},"10557271309":{"location":[29.4826788,35.4047075],"ct":"JO","tp":"CS","ts":"2023-01-15T17:36:04Z","tX":612,"tY":424,"tags":{"name:en":"Desert Shine Camp"}},"10649032835":{"location":[29.5093459,35.3858887],"ct":"JO","tp":"CS","ts":"2023-02-11T15:14:59Z","tX":612,"tY":424,"tags":{"backcountry":"yes","capacity:tents":"2"}},"12137512595":{"location":[29.4253013,35.3257602],"ct":"JO","tp":"CS","ts":"2024-08-26T11:26:48Z","tX":612,"tY":424,"tags":{"backcountry":"yes","name":"Wild Camp"}},"12337603901":{"location":[29.5221811,35.4500908],"ct":"JO","tp":"CS","ts":"2024-11-13T17:36:29Z","tX":612,"tY":424,"tags":{"addr:postcode":"77110","name":"Magic Bedouin Star"}}}