{"7624459":{"location":[54.9013668,9.7985349],"ct":"DK","tp":"CS","ts":"2025-02-02T19:08:19Z","tX":539,"tY":324,"tags":{"camp_site":"serviced","caravans":"yes","drinking_water":"yes","email":"info@sonderborgcamping.dk","fee":"yes","fvst:navnelbnr":"635310","internet_access":"wlan","motor_vehicle":"yes","name":"Sønderborg Camping","phone":"+45 74 42 41 89","picnic_table":"yes","ref:DK:cvr":"37240591","ref:DK:cvr:pnummer":"1020912118","shower":"yes","tents":"yes","toilets":"yes","website":"https://www.sonderborgcamping.dk/"}},"42309194":{"location":[54.8674132,9.7430527],"ct":"DK","tp":"CR","ts":"2021-06-18T20:38:30Z","tX":539,"tY":324,"tags":{"alt_name":"Spar Es Camping","name":"Broager Strand Camping","website":"https://broagerstrandcamping.dk/"}},"85474461":{"location":[54.8584011,9.5903492],"ct":"DE","tp":"CS","ts":"2023-07-17T10:30:36Z","tX":539,"tY":324,"tags":{"addr:city":"Glücksburg","addr:country":"DE","addr:housenumber":"1","addr:postcode":"24960","addr:street":"An der Promenade","caravans":"yes","dryer":"yes","email":"info@ostseecamp-holnis.de","fax":"+49 4631 622072","kitchen":"yes","motorhome":"yes","name":"Ostseecamp Glücksburg - Holnis","opening_hours":"Mar 27-Oct 13","phone":"+49 4631 622071","power_supply":"yes","reservation":"yes","sanitary_dump_station":"yes","sanitary_dump_station:chemical_toilet":"yes","sanitary_dump_station:grey_water":"yes","stars":"4","tents":"yes","washing_machine":"yes","water_point":"yes","website":"https://www.ostseecamp-holnis.de/"}},"90121652":{"location":[54.8289472,9.609061],"ct":"DE","tp":"CS","ts":"2023-11-09T22:06:23Z","tX":539,"tY":324,"tags":{"addr:city":"Munkbrarup","addr:country":"DE","addr:housenumber":"19","addr:postcode":"24960","addr:street":"Bockholmwik","caravans":"yes","dryer":"yes","email":"info@foerdeferien-bockholmwik.de","fax":"+49 4631 985","name":"Fördeferien Bockholmwik","opening_hours":"Apr 1-Oct 31","phone":"+49 4631 20 88","power_supply":"yes","tents":"yes","washing_machine":"yes","website":"https://www.foerdeferien-bockholmwik.de/camping/","wheelchair":"yes"}},"98294038":{"location":[54.9000762,9.572945],"ct":"DK","tp":"CS","ts":"2025-02-03T19:40:27Z","tX":539,"tY":324,"tags":{"camp_site":"serviced","caravans":"yes","email":"info@laerkelunden.dk","fee":"yes","fvst:navnelbnr":"79540","motor_vehicle":"yes","name":"Lærkelunden Camping","phone":"+45 74 65 02 50","ref:DK:cvr":"31982693","stars":"4","tents":"yes","toilets:wheelchair":"no","website":"https://www.laerkelunden.dk/","wheelchair":"limited"}},"112171420":{"location":[54.8542942,9.5884779],"ct":"DE","tp":"CS","ts":"2013-07-25T05:35:58Z","tX":539,"tY":324,"tags":{"caravans":"no","name":"Zeltlager Glücksburg-Holnis","scout":"yes","tents":"no"}},"114954378":{"location":[54.7854477,9.7978954],"ct":"DE","tp":"CS","ts":"2023-04-10T17:37:35Z","tX":539,"tY":324,"tags":{"addr:city":"Steinberg","addr:country":"DE","addr:housenumber":"1","addr:postcode":"24972","addr:street":"Nordstern","addr:suburb":"Norgaardholz","capacity:motorhome":"10","capacity:pitches":"30","capacity:static_caravans":"220","caravans":"yes","dog":"yes","email":"info@campingplatz-nordstern.de","fax":"+49 4632 871324","kitchen":"yes","mobile":"+49 171 3281210","motorhome":"yes","name":"Campingplatz Nordstern","opening_hours":"Apr 01-Sep 30 07:30-13:00,15:00-22:00","phone":"+49 4632 7406","power_supply":"yes","static_caravans":"yes","tents":"yes","toilets":"yes","website":"https://www.campingplatz-nordstern.de/","wheelchair":"yes"}},"114956035":{"location":[54.7946405,9.774686],"ct":"DE","tp":"CS","ts":"2023-11-09T22:06:30Z","tX":539,"tY":324,"tags":{"addr:city":"Steinberg","addr:country":"DE","addr:housenumber":"7","addr:postcode":"24972","addr:street":"Habernis","caravans":"yes","dog":"yes;leashed;clean","drinking_water":"yes","email":"info@campingplatz-habernis.de","fax":"+49 4632 875605","motor_vehicle":"yes","name":"Campingplatz Habernis","opening_hours":"Apr 1-Oct 31","phone":"+49 4632 7616","power_supply":"cee_17_blue","power_supply:voltage":"230","sanitary_dump_station":"customers","tents":"yes","washing_machine":"yes","website":"https://www.campingplatz-habernis.de/"}},"121725660":{"location":[54.8935106,9.5540904],"ct":"DK","tp":"CS","ts":"2025-02-03T19:40:27Z","tX":539,"tY":324,"tags":{"camp_site":"serviced","caravans":"yes","fee":"yes","motor_vehicle":"yes","name":"Rinkenæshus Camping","tents":"yes","website":"https://rinkenaeshus.dk/"}},"128634226":{"location":[54.8848577,9.7295524],"ct":"DK","tp":"CS","ts":"2025-02-02T19:08:19Z","tX":539,"tY":324,"tags":{"cabins":"yes","camp_site":"serviced","caravans":"yes","dog":"yes","drinking_water":"yes","email":"info@gammelmark.dk","fee":"yes","fvst:navnelbnr":"1282809","internet_access":"yes","kitchen":"yes","motor_vehicle":"yes","motorhome":"yes","name":"Gammelmark Strand Camping","phone":"+45 74 44 17 42","power_supply":"yes","ref:DK:cvr":"43693441","ref:DK:cvr:pnummer":"1028817785","shower":"yes","tents":"yes","toilets":"yes","website":"https://www.gammelmark.dk/"}},"172445201":{"location":[54.8200077,9.668807],"ct":"DE","tp":"CS","ts":"2022-05-10T14:48:05Z","tX":539,"tY":324,"tags":{"addr:city":"Westerholz","addr:country":"DE","addr:housenumber":"1","addr:postcode":"24977","addr:street":"Kummle","caravans":"yes","email":"info@campingplatz-westerholz.de","fax":"+49 4636 97 75 45","long_name":"Campingplatz \"Fördeblick\" Westerholz","name":"Fördeblick","opening_hours":"Apr 1-Sep 30","phone":"+49 4636 83 85","power_supply":"yes","tents":"yes","website":"https://campingplatz-westerholz.de/"}},"223801060":{"location":[54.8196697,9.670504],"ct":"DE","tp":"CS","ts":"2023-09-18T20:03:40Z","tX":539,"tY":324,"tags":{"name":"Camping-Vereinigung Westerholz e.V.","website":"https://www.cv-westerholz.de/"}},"223801061":{"location":[54.8197511,9.6659606],"ct":"DE","tp":"CR","ts":"2025-02-02T11:40:14Z","tX":539,"tY":324,"tags":{"caravan_site":"motorhome_stopover","caravan_site:type":"camp_site","charge":"12 EUR","description":"Der Stellplatz kann rund um die Uhr angefahren werden.","fee":"yes","name":"Caravan-Stellplatz Fördeblick","opening_hours":"Apr-Sep 00:00-24:00","power_supply":"yes","power_supply:charge":"5 EUR","power_supply:fee":"yes","power_supply:maxcurrent":"6","sanitary_dump_station":"yes","sanitary_dump_station:fee":"no","seasonal":"yes","website":"https://campingplatz-westerholz.de/preise/wohnmobil/"}},"234350463":{"location":[54.9019755,9.7333251],"ct":"DK","tp":"CS","ts":"2024-11-19T05:35:56Z","tX":539,"tY":324,"tags":{"camp_site":"basic","description":"Bord og bænkesæt og bålplads. Pladsen kan til tider være meget fugtig.","fee":"no","maxstay":"2 days","motor_vehicle":"no","name":"Dybbøl Shelter- og Teltplads","openfire":"yes","picnic_table":"yes","reservation":"no","shelter":"yes","shelter_type":"lean_to","shelters":"1","tents":"yes","website":"https://udinaturen.dk/shelter/3924"}},"238128790":{"location":[54.8216891,9.658133],"ct":"DE","tp":"CS","ts":"2025-01-31T13:29:04Z","tX":539,"tY":324,"tags":{"addr:city":"Langballig","addr:country":"DE","addr:housenumber":"3","addr:postcode":"24977","addr:street":"Strandweg","addr:suburb":"Langballigau","caravans":"yes","dog":"yes","email":"service@Campingplatz-Langballigau.de","fax":"+49 4636 653","name":"Camping Langballigau","phone":"+49 4636 308","power_supply":"yes","seasonal":"yes","tents":"yes","website":"https://www.campingplatz-langballigau.de/"}},"464999753":{"location":[54.9168116,9.5698543],"ct":"DK","tp":"CS","ts":"2024-11-12T21:20:34Z","tX":539,"tY":324,"tags":{"access":"permissive","camp_site":"basic","drinking_water":"no","email":"SDJ@nst.dk","fee":"no","motor_vehicle":"no","name":"Syvstjernen","openfire":"yes","operator":"Naturstyrelsen","phone":"+45 7254 3000","toilets":"no","website":"https://udinaturen.dk/shelter/1747","wheelchair":"yes"}},"534702959":{"location":[54.919667,9.5557795],"ct":"DK","tp":"CS","ts":"2024-11-12T21:20:34Z","tX":539,"tY":324,"tags":{"camp_site":"basic","drinking_water":"no","email":"SDJ@nst.dk","fee":"no","motor_vehicle":"no","name":"Rinkenæs Skov - Primitiv Teltplads","openfire":"yes","operator":"Naturstyrelsen","phone":"+45 72 54 30 00","toilets":"yes","website":"https://udinaturen.dk/facilitet/Gr%C3%A5sten--Rinken%C3%A6s-Skov/1842","wheelchair":"limited"}},"541070481":{"location":[54.8903641,9.8275827],"ct":"DK","tp":"CS","ts":"2024-11-17T16:05:52Z","tX":539,"tY":324,"tags":{"camp_site":"basic","capacity:tents":"1","description":"Primitiv teltplads - ligger på stranden 3 meter fra vandkanten. Jævn plads til teltet, godt bålsted - fri adgang.","fee":"no","maxstay":"2 days","motor_vehicle":"no","name":"Sønderskovens Teltplads","openfire":"yes","reservation":"no","tents":"yes","website":"https://udinaturen.dk/shelter/1230"}},"575490875":{"location":[54.9128382,9.6251741],"ct":"DK","tp":"CS","ts":"2024-11-22T08:26:05Z","tX":539,"tY":324,"tags":{"camp_site":"basic","caravans":"no","description":"Primitiv overnatningsplads lige ved Nybøl Nor og Skodsbøl Skov. Bålplads og borde/bænkesystem.","drinking_water":"no","fee":"no","motor_vehicle":"no","name":"Skodsbøl Skov primitive overnatningsplads","openfire":"yes","picnic_table":"yes","power_supply":"no","shower":"no","tents":"yes","toilets":"no","website":"https://udinaturen.dk/shelter/107024"}},"579309553":{"location":[54.8572879,9.7579066],"ct":"DK","tp":"CS","ts":"2024-11-19T06:24:36Z","tX":539,"tY":324,"tags":{"camp_site":"basic","capacity:persons":"500","caravans":"no","description":"Primitiv overnatning med bålsted, muldttoilet og vand (i sæsonen)","drinking_water":"yes","motor_vehicle":"no","name":"Skeldekobbel Lejrplads","openfire":"yes","operator":"Naturstyrelsen","reservation":"required","static_caravans":"no","tents":"yes","toilets":"yes","website":"https://udinaturen.dk/shelter/1754"}},"611604864":{"location":[54.8686515,9.6438215],"ct":"DK","tp":"CS","ts":"2024-11-12T21:20:34Z","tX":539,"tY":324,"tags":{"access":"yes","bin":"yes","camp_site":"basic","caravans":"no","drinking_water":"no","fee":"no","maxstay":"2 days","motor_vehicle":"yes","name":"Shelter- og Teltplads ved Iller Strand","openfire":"yes","picnic_table":"yes","power_supply":"no","reservation":"no","shelter":"yes","shelter_type":"lean_to","shelters":"1","shower":"no","tents":"yes","toilets":"no","website":"https://udinaturen.dk/shelter/1822"}},"611626215":{"location":[54.8531076,9.7590666],"ct":"DK","tp":"CS","ts":"2024-11-19T06:07:12Z","tX":539,"tY":324,"tags":{"camp_site":"basic","caravans":"no","description":"Primitiv teltplads - ingen adgang for motorkøretøjer. Bålplads og bord/bænkesæt.","description:de":"Wilder Campingplatz für max. 2 Nächte","drinking_water":"no","fee":"no","maxstay":"2 days","motor_vehicle":"no","name":"Skelde Kobbelskov Teltplads","openfire":"yes","picnic_table":"yes","static_caravans":"no","tents":"yes","toilets":"no","website":"https://udinaturen.dk/shelter/1372"}},"723870235":{"location":[54.7852285,9.7988795],"ct":"DE","tp":"CR","ts":"2024-04-05T11:19:35Z","tX":539,"tY":324,"tags":{"caravan_site":"motorhome_stopover","caravan_site:type":"camp_site","charge":"20 EUR","dog:charge":"3 EUR","fee":"yes","name":"Campingplatz Nordstern Wohnmobilstellplatz","power_supply":"yes","power_supply:fee":"yes","shower":"yes","toilets":"yes","website":"https://www.campingplatz-nordstern.de/"}},"833313450":{"location":[54.8982877,9.7973397],"ct":"DK","tp":"CR","ts":"2024-05-31T12:10:37Z","tX":539,"tY":324,"tags":{"bbq":"yes","capacity":"30","caravan_site:type":"harbour","caravans":"no","charge":"185 DKK","drinking_water":"yes","fee":"yes","laundry":"yes","name":"Sønderborg Lystbådehavn Autocamperplads","operator":"Sønderborg Lystbådehavn","phone":"+45 27848525","power_supply":"yes","power_supply:charge":"DKK 25","power_supply:fee":"yes","reservation":"no","sanitary_dump_station":"yes","sanitary_dump_station:chemical_toilet":"yes","sanitary_dump_station:fee":"no","seasonal":"summer","tents":"no","toilets":"no","website":"https://www.soenderborg-lystbaadehavn.dk/er-du-autocamper","wheelchair":"yes"}},"1311045772":{"location":[54.9754997,9.7386463],"ct":"DK","tp":"CS","ts":"2024-11-16T09:04:02Z","tX":539,"tY":324,"tags":{"camp_site":"standard","caravans":"no","drinking_water":"yes","fee":"no","motor_vehicle":"no","name":"Snogbækskov - Primitve Teltplads","openfire":"yes","operator:type":"private","phone":"+45 30287327","shower":"no","static_caravans":"no","tents":"yes","toilets":"yes","website":"https://udinaturen.dk/facilitet/snogb%C3%A6kskov-teltplads/5442","wheelchair":"yes"}},"1507188820":{"location":[54.9734397,9.7586759],"ct":"DK","tp":"CS","ts":"2024-11-16T09:04:02Z","tX":539,"tY":324,"tags":{"camp_site":"basic","caravans":"no","drinking_water":"no","maxstay":"2 days","motor_vehicle":"no","name":"Arnkil - Primitiv Teltplads","openfire":"yes","operator":"Naturstyrelsen","phone":"+45 7254 3000","picnic_table":"yes","power_supply":"no","shower":"no","static_caravans":"no","tents":"yes","toilets":"no","website":"https://udinaturen.dk/facilitet/als-arnkil/1462","wheelchair":"yes","wood_provided":"no"}},"2562154182":{"location":[54.8663026,9.4963204],"ct":"DK","tp":"CS","ts":"2024-11-12T21:20:34Z","tX":539,"tY":324,"tags":{"camp_site":"basic","caravans":"no","motor_vehicle":"no","name":"Natur Pladser - fri Overnatting","static_caravans":"no"}},"8892800042":{"location":[54.82188,9.6585334],"ct":"DE","tp":"CR","ts":"2021-07-04T16:50:12Z","tX":539,"tY":324,"tags":{"name":"Stellplatz am Campingplatz Langballig Platz 1"}},"8892872474":{"location":[54.822291,9.6601786],"ct":"DE","tp":"CR","ts":"2021-07-04T16:52:24Z","tX":539,"tY":324,"tags":{"name":"Stellplatz am Campingplatz Langballig Platz 2"}},"8443039345":{"location":[54.8573874,9.5073949],"ct":"DK","tp":"CS","ts":"2024-11-12T21:20:34Z","tX":539,"tY":324,"tags":{"camp_site":"basic","capacity:persons":"6","drinking_water":"no","fee":"no","maxstay":"2 days","motor_vehicle":"no","name":"Skarven","openfire":"yes","picnic_table":"no","reservation":"yes","shelter":"yes","shelter_type":"lean_to","shelters":"1","toilets":"yes","website":"https://udinaturen.dk/shelter/104130","wheelchair":"no","wood_provided":"no"}},"8443054617":{"location":[54.8580968,9.5083477],"ct":"DK","tp":"CS","ts":"2024-11-12T21:20:34Z","tX":539,"tY":324,"tags":{"camp_site":"basic","capacity:persons":"12","drinking_water":"no","fee":"no","maxstay":"2 days","motor_vehicle":"no","name":"Spurven og Mejsen","openfire":"yes","picnic_table":"no","reservation":"yes","shelter":"yes","shelter_type":"lean_to","shelters":"2","toilets":"yes","website":"https://udinaturen.dk/shelter/104133","wheelchair":"no","wood_provided":"no"}},"8954303717":{"location":[54.8588003,9.5082372],"ct":"DK","tp":"CS","ts":"2024-11-12T21:20:34Z","tX":539,"tY":324,"tags":{"camp_site":"basic","capacity:persons":"6","caravans":"no","drinking_water":"no","fee":"no","maxstay":"2 days","motor_vehicle":"no","name":"Mågen","openfire":"yes","picnic_table":"no","reservation":"yes","shelter":"yes","shelter_type":"lean_to","shelters":"1","static_caravans":"no","toilets":"yes","website":"https://udinaturen.dk/shelter/104131","wheelchair":"no","wood_provided":"no"}},"8975602218":{"location":[54.8587136,9.5070949],"ct":"DK","tp":"CS","ts":"2024-11-12T21:20:34Z","tX":539,"tY":324,"tags":{"camp_site":"basic","capacity:tents":"12","drinking_water":"no","fee":"no","maxstay":"2 days","name":"Store Okseø Teltplads","reservation":"no","tents":"yes","toilets":"yes","website":"https://udinaturen.dk/shelter/118344","wheelchair":"no"}},"11146669266":{"location":[54.9329918,9.765927],"ct":"DK","tp":"CS","ts":"2024-11-16T09:04:02Z","tX":539,"tY":324,"tags":{"access":"yes","camp_site":"basic","capacity:tents":"5","caravans":"no","dog":"leashed","drinking_water":"yes","fee":"yes","maxstay":"2 days","motor_vehicle":"no","name":"Kær Vestermark Stor Shelter- og Teltplads","openfire":"yes","operator":"Sønderborg Kommune","picnic_table":"yes","reservation":"yes","shelter":"yes","shelter_type":"lean_to","shelters":"5","static_caravans":"no","tents":"yes","toilets":"yes","website":"https://udinaturen.dk/shelter/3623","wood_provided":"no"}},"11070324160":{"location":[54.9120888,9.5998701],"ct":"DK","tp":"CR","ts":"2024-03-26T12:25:07Z","tX":539,"tY":324,"tags":{"bbq":"yes","capacity":"5","caravan_site:type":"harbour","caravans":"no","charge":"DKK 135","fee":"yes","name":"Gråsten Sejlklub","opening_hours":"May-Sep","power_supply":"yes","power_supply:fee":"yes","reservation":"no","tents":"no","website":"https://www.graasten-sejlklub.dk/autocamper"}},"11039988503":{"location":[54.8995265,9.7947386],"ct":"DK","tp":"SD","ts":"2024-03-06T14:18:49Z","tX":539,"tY":324,"tags":{"access":"yes","charge":"30 DKK","fee":"yes","fee:conditional":"no@(caravan_site_customers)","sanitary_dump_station:basin":"yes","sanitary_dump_station:chemical_toilet":"yes","sanitary_dump_station:grey_water":"no"}},"12345659755":{"location":[54.9357061,9.7656728],"ct":"DK","tp":"CS","ts":"2024-11-16T09:04:02Z","tX":539,"tY":324,"tags":{"camp_site":"basic","drinking_water":"yes","fee":"no","motor_vehicle":"no","name":"Kær Vestermark Lille Shelterplads","openfire":"yes","operator":"Sønderborg Kommune","reservation":"no","shelter":"yes","shelter_type":"lean_to","shelters":"2","toilets":"yes","wood_provided":"no"}},"12353427467":{"location":[54.8449732,9.7545852],"ct":"DK","tp":"CS","ts":"2024-11-19T06:17:13Z","tX":539,"tY":324,"tags":{"camp_site":"basic","capacity:persons":"4","description":"Shelter fra 2017 til 4 pers. med borde/bænkeset og grill/bålplads. Til fri afbenyttelse. Ingen booking.","drinking_water":"yes","fee":"no","name":"Frydenlund Shelterplads","openfire":"yes","operator":"Sønderborg Kommun","picnic_table":"yes","reservation":"no","shelter":"yes","shelter_type":"lean_to","shelters":"1","toilets":"no","website":"https://udinaturen.dk/shelter/1363"}},"12364367321":{"location":[54.9062612,9.5868495],"ct":"DK","tp":"CS","ts":"2024-11-22T08:13:41Z","tX":539,"tY":324,"tags":{"camp_site":"basic","capacity:persons":"4","drinking_water":"yes","fee":"no","motor_vehicle":"no","name":"Alnor Strandpark Shelter","openfire":"yes","picnic_table":"yes","reservation":"no","shelter":"yes","shelter_type":"lean_to","shelters":"1","tents":"no","toilets":"yes","website":"https://udinaturen.dk/shelter/1669"}},"12546383430":{"location":[54.8212211,9.6557658],"ct":"DE","tp":"CR","ts":"2025-01-31T13:29:04Z","tX":539,"tY":324,"tags":{"caravan_site":"motorhome_stopover","caravan_site:type":"lake","caravans":"no","charge":"10 EUR","fee":"yes","name":"Campingplatz Langballigau Winterstellplatz","opening_hours":"Nov-Mar","tents":"no","website":"https://campingplatz-langballigau.de/"}}}