{"33909561":{"location":[54.5869281,9.8147693],"ct":"DE","tp":"CS","ts":"2024-05-19T20:59:33Z","tX":539,"tY":325,"tags":{"addr:city":"Boren","addr:country":"DE","addr:housenumber":"1","addr:postcode":"24392","addr:street":"Schleistraße","addr:suburb":"Lindaunis","caravans":"yes","email":"kontakt@camping-lindaunis.de","fax":"+49 4641 7187","name":"Camping Lindaunis","opening_hours":"Apr 01-Oct 15: 07:30-13:00,15:00-22:00","phone":"+49 4641 7317","tents":"yes","website":"https://camping-lindaunis.de/"}},"114954376":{"location":[54.7685676,9.8204182],"ct":"DE","tp":"CS","ts":"2023-11-09T22:06:24Z","tX":539,"tY":325,"tags":{"addr:city":"Steinberg","addr:country":"DE","addr:housenumber":"21","addr:postcode":"24972","addr:street":"Fischerstraße","addr:suburb":"Steinberghaff","caravans":"yes","email":"campingplatz-steinberghaff@t-online.de","fax":"+49 4632 875605","name":"Campingplatz Steinberghaff","phone":"+49 4632 247","power_supply":"yes","tents":"yes","website":"https://campingplatz-steinberghaff.de/"}},"119497940":{"location":[54.6906029,9.6052892],"ct":"DE","tp":"PK","ts":"2024-04-25T15:49:50Z","tX":539,"tY":325,"tags":{"motorhome":"yes","surface":"paved","wheelchair":"yes"}},"246180181":{"location":[54.7108982,9.6654992],"ct":"DE","tp":"CR","ts":"2024-04-25T15:49:50Z","tX":539,"tY":325,"tags":{"capacity":"5","charge":"15 EUR","fee":"yes","name":"Wohnmobilstellplatz Sörup","opening_hours":"Apr-Oct","power_supply":"yes","power_supply:fee":"no","sanitary_dump_station":"yes","surface":"unpaved","toilets":"yes","website":"http://www.soerup.de/verzeichnis/visitenkarte.php?mandat=59841"}},"246685313":{"location":[54.5866547,9.8037029],"ct":"DE","tp":"CR","ts":"2024-06-24T18:54:34Z","tX":539,"tY":325,"tags":{"addr:housenumber":"5","addr:street":"Lindauhof","capacity":"5","caravan_site":"motorhome_stopover","caravan_site:type":"harbour","charge":"20 EUR","check_date":"2024-06-24","fee":"yes","internet_access":"wlan","internet_access:fee":"customers","internet_access:ssid":"SchleiMarinaGastzugang","maxlength":"8","name":"Schlei Marina Wohnmobilstellplatz","note":"Reservierung erforderlich","payment:cash":"yes","payment:visa":"yes","payment:visa_contactless":"yes","phone":"+49 4641 3141","power_supply":"yes","power_supply:charge":"2 EUR","power_supply:fee":"yes","sanitary_dump_station":"no","shower":"yes","toilets":"yes","url":"https://www.schlei-marina-lindauhof.de/Wohnmobilstellplaetze/","water_point":"yes"}},"3705226488":{"location":[54.7408,9.5881],"ct":"DE","tp":"CS","ts":"2022-07-31T16:30:57Z","tX":539,"tY":325,"tags":{"backcountry":"yes","caravans":"no","contact:email":"info@sn-sh.de","contact:phone":"+49 431 21090101","fee":"no","maxstay":"1 day","name":"Übernachtungsplatz Winderatter See","note":"Nur für kleine Zelte für eine Nacht, kein Feuer","shower":"no","tents":"yes","toilets":"no","website":"https://www.wildes-sh.de/trekkingplaetze/winderatter-see/"}},"6497072428":{"location":[54.7497377,9.5836454],"ct":"DE","tp":"CS","ts":"2023-09-15T14:43:45Z","tX":539,"tY":325,"tags":{"backcountry":"yes","caravans":"no","fee":"no","name":"Übernachtungsplatz Husby","openfire":"yes","operator":"Pfadfinder Angelbo Trop","reservation":"no","shower":"no","tents":"yes","toilets":"no","website":"https://www.naturschutz-sh.de/wildes-sh/trekkingplatz-husby"}},"8617631836":{"location":[54.7429189,9.7467682],"ct":"DE","tp":"CS","ts":"2023-06-03T17:04:38Z","tX":539,"tY":325,"tags":{"access":"yes","backcountry":"yes","camp_site":"basic","capacity:tents":"2","caravans":"no","contact:email":"h.d.brix@t-online.de","fee":"no","maxstay":"1 day","motor_vehicle":"no","name":"Trekkingplatz Steinbergkirche","openfire":"no","operator":"Familie Paulsen","reservation":"required","shower":"yes","tents":"yes","toilets":"yes","website":"https://www.wildes-sh.de/trekkingplaetze/steinbergkirche/"}},"11953289205":{"location":[54.683534,9.6432415],"ct":"DE","tp":"CR","ts":"2024-06-03T07:20:56Z","tX":539,"tY":325,"tags":{"fee":"yes","name":"Wiese beim Obstgarten","website":"https://spots.roadsurfer.com/de-de/shop/wohnmobil-stellplatz-wiese-beim-obstgarten~p777224"}},"11918499973":{"location":[54.5865865,9.8159],"ct":"DE","tp":"SD","ts":"2024-05-19T20:59:33Z","tX":539,"tY":325,"tags":{"sanitary_dump_station:basin":"yes"}}}