{"33529023":{"location":[54.46442,9.8335886],"ct":"DE","tp":"CR","ts":"2024-04-26T22:11:58Z","tX":539,"tY":326,"tags":{"capacity":"49","caravan_site":"motorhome_stopover","caravan_site:type":"town","charge":"29 EUR (including 2 pax tourist tax high season)","dog":"yes","fee":"yes","internet_access":"wlan","internet_access:fee":"no","name":"Wohnmobilstellplatz am Noor","old_description":"P2 (Festplatz / Kakabellenplatz)","old_name":"P2","opening_hours":"24/7","operator":"Stadtwerke Eckernförde","sanitary_dump_station":"yes","sanitary_dump_station:chemical_toilet":"yes","sanitary_dump_station:grey_water":"yes","seasonal":"no","shower":"yes","toilets":"yes","water_point":"yes","website":"https://www.stellplatzamnoor.de/","wheelchair":"yes"}},"35303563":{"location":[54.3941966,9.6820672],"ct":"DE","tp":"CS","ts":"2022-05-11T06:47:13Z","tX":539,"tY":326,"tags":{"addr:city":"Ahlefeld-Bistensee","addr:country":"DE","addr:housenumber":"3","addr:postcode":"24358","addr:street":"Hochfeld","caravans":"yes","email":"info@waldseehof.de","fax":"+49 4353 998216","name":"Waldseehof Ahlefeld","phone":"+49 4353 421","tents":"yes","website":"http://www.waldseehof.de/"}},"35305055":{"location":[54.3927672,9.6986765],"ct":"DE","tp":"CS","ts":"2020-07-23T14:33:05Z","tX":539,"tY":326,"tags":{"addr:city":"Ahlefeld-Bistensee","addr:country":"DE","addr:housenumber":"16","addr:postcode":"24358","addr:street":"Uferweg","addr:suburb":"Bistensee","cabins":"yes","caravans":"yes","email":"torsten.jarck@bistensee.de","fax":"+49 4353 486","name":"Campingplatz Jarck Bistensee","phone":"+49 4353 436","power_supply":"no","tents":"yes","website":"http://bistensee.de/"}},"36810574":{"location":[54.4800436,9.5856547],"ct":"DE","tp":"CS","ts":"2023-03-31T11:42:42Z","tX":539,"tY":326,"tags":{"access":"private","caravans":"no","group_only":"yes","name":"Jugendzeltlager Selker Noor","scout":"yes","tents":"yes","website":"https://www.selkernoor.de/"}},"43376095":{"location":[54.4648243,9.8371097],"ct":"DE","tp":"PK","ts":"2024-04-26T21:24:30Z","tX":539,"tY":326,"tags":{"fee":"yes","maxstay":"4 hours","motorhome":"yes","surface":"paved"}},"62047635":{"location":[54.5239997,9.7234699],"ct":"DE","tp":"CS","ts":"2023-10-04T09:46:17Z","tX":539,"tY":326,"tags":{"addr:city":"Kosel","addr:country":"DE","addr:housenumber":"16","addr:postcode":"24354","addr:street":"An de Wees","addr:suburb":"Missunde","caravans":"yes","dog":"yes","email":"info@camping-schlei.de","fax":"+49 4354 98432","internet_access":"wlan","internet_access:fee":"yes","name":"Campingplatz Wees","phone":"+49 4354 98430","power_supply":"yes","tents":"yes","website":"https://www.camping-schlei.de/","wheelchair":"yes"}},"72392060":{"location":[54.5013673,9.5717826],"ct":"DE","tp":"CS","ts":"2023-08-03T12:29:53Z","tX":539,"tY":326,"tags":{"access":"private","addr:city":"Busdorf","addr:country":"DE","addr:housenumber":"15","addr:postcode":"24866","addr:street":"Haddebyer Chaussee","capacity:tents":"0","caravans":"yes","description":"ab dem 01.01.2022 stellen wir den Betrieb fuer Tagesgaeste ein und bieten nur noch Dauerstellplaetze an","dog":"yes","dryer":"yes","email":"info@campingplatz-haithabu.de","fax":"+49 4621 33122","kitchen":"yes","name":"Campingplatz Haithabu","permanent_camping":"only","phone":"+49 4621 32450","power_supply":"yes","tents":"yes","washing_machine":"yes","website":"http://campingplatz-haithabu.de/"}},"105958096":{"location":[54.5354924,9.7341188],"ct":"DE","tp":"CS","ts":"2024-06-14T16:07:48Z","tX":539,"tY":326,"tags":{"addr:city":"Brodersby-Goltoft","addr:country":"DE","addr:housenumber":"1","addr:postcode":"24864","addr:street":"Hellör","addr:suburb":"Goltoft","caravans":"yes","dog":"yes","drinking_water":"yes","email":"klaus.uck@t-online.de","fax":"+49 4622 1024","name":"Naturcamping Hellör","opening_hours":"Apr 1-Oct 3: open","phone":"+49 4622 533","power_supply":"yes","sanitary_dump_station":"yes","shower":"yes","tents":"yes","toilets":"yes","website":"https://www.camping-helloer.de/","wheelchair":"limited"}},"216615268":{"location":[54.5117595,9.5680636],"ct":"DE","tp":"CR","ts":"2024-11-25T19:48:07Z","tX":539,"tY":326,"tags":{"caravan_site":"motorhome_stopover","caravan_site:type":"harbour","charge":"26 EUR","charge:conditional":"20 EUR @(Dec-Feb)","drinking_water":"yes","email":"hafen@schleswiger-stadtwerke.de","fax":"+49 4621 801459","fee":"yes","internet_access":"yes","name":"Wohnmobilstellplatz Stadthafen Schleswig","operator":"Stadtwerke","phone":"+49 4621 801450","power_supply":"yes","power_supply:fee":"no","power_supply:maxcurrent":"10","sanitary_dump_station":"yes","toilets":"yes","website":"http://www.wohnmobilplatz-schleswig.de/","wheelchair":"yes"}},"360838397":{"location":[54.4541961,9.5340945],"ct":"DE","tp":"CR","ts":"2025-02-01T14:05:08Z","tX":539,"tY":326,"tags":{"bbq":"yes","bicycle":"yes","capacity":"31","caravan_site":"motorhome_stopover","caravan_site:type":"caravan_shop","charge":"15 EUR","check_in":"-22:00","check_out":"11:00","dog":"yes","dog:charge":"1 EUR","dog:fee":"yes","fee":"yes","name":"Wohnmobilhof Jagel","picnic_table":"yes","power_supply":"yes","power_supply:charge":"6 EUR","power_supply:fee":"yes","sanitary_dump_station":"yes","seasonal":"yes","water_point":"yes","website":"https://wohnmobilhof-jagel.de/stellplatz/"}},"5109142938":{"location":[54.397367,9.7117209],"ct":"DE","tp":"CS","ts":"2017-09-16T13:34:28Z","tX":539,"tY":326,"tags":{"addr:city":"Ahlefeld-Bistensee","addr:country":"DE","addr:housenumber":"1","addr:postcode":"24358","addr:street":"Mühlenweg","camp_site":"serviced","capacity:caravans":"10","caravans":"yes","contact:email":"Noma48@aol.com","contact:fax":"+49 4356 1269","contact:phone":"+49 4356 1067","contact:website":"https://ferienplatz.de.tl/","fee":"yes","internet_access":"wlan","internet_access:fee":"no","name":"Ferienplatz bei Matz","operator":"Familie Matz"}},"6754063740":{"location":[54.5066758,9.7713733],"ct":"DE","tp":"CS","ts":"2023-06-03T19:53:24Z","tX":539,"tY":326,"tags":{"backcountry":"yes","caravans":"no","fixme":"Position auf Webseite ist falsch angegeben, Position geschätzt nach Anfahrtsplan auf Webseite.","name":"Trekkingplatz bei Kosel","operator":"Thiemo Florek","shower":"no","tents":"yes","toilets":"no","website":"https://www.naturschutz-sh.de/wildes-sh/trekkingplatz-kosel"}},"8929352622":{"location":[54.4010123,9.7666999],"ct":"DE","tp":"CS","ts":"2024-09-20T09:27:59Z","tX":539,"tY":326,"tags":{"name":"Witten See","website":"https://www.hotel-wittensee.de/campingplatz/"}},"8841397917":{"location":[54.5119228,9.5685218],"ct":"DE","tp":"SD","ts":"2021-06-17T09:16:27Z","tX":539,"tY":326,"tags":{"fee":"no = nur für Gäste incl.","note":"Ver und Entsorgung im Übernachtungstarif enthalten."}}}