{"114708530":{"location":[54.3056926,9.7119656],"ct":"DE","tp":"CR","ts":"2024-01-31T19:33:01Z","tX":539,"tY":327,"tags":{"addr:city":"Schacht-Audorf","addr:postcode":"24790","addr:street":"An der K76","capacity":"41","charge":"14 EUR","fee":"yes","internet_access":"wlan","name":"Wohnmobilpark Schacht-Audorf","operator":"Gemeinde Schacht-Audorf","phone":"+49 151 17769276","power_supply":"yes","sanitary_dump_station":"yes","toilets:wheelchair":"no","wheelchair":"yes","wikimedia_commons":"File:2016-06-14 Nord-Ostsee-Kanal Fähre Nobiskrug WohnmobilPark.jpg"}},"167164162":{"location":[54.224557,9.6022376],"ct":"DE","tp":"CR","ts":"2024-08-19T23:44:46Z","tX":539,"tY":327,"tags":{"addr:city":"Hörsten","addr:country":"DE","addr:housenumber":"1","addr:postcode":"24797","addr:street":"Schachtholm","capacity":"52","caravans":"no","charge":"14 EUR","dog":"yes","email":"flieger44@gmx.de","fax":"+49 4337 1422","fee":"yes","internet_access":"wlan","laundry":"no","name":"Wohnmobilhafen am Flugplatz Schachtholm NOK","note":"Strom nicht an allen Plätzen vorhanden - Sanitäre Entsorgung etws kompliziert und nicht im Preis","phone":"+49 4337 591","power_supply":"yes","power_supply:fee":"yes","sanitary_dump_station":"yes","seasonal":"no","shower":"no","start_date":"2024-03-01","tents":"no","toilets":"no","water_point":"yes","water_point:fee":"yes","website":"https://www.wohnmobilhafen-nok.de/am-flugplatz-schachtholm-nok/"}},"167174045":{"location":[54.2941617,9.6812452],"ct":"DE","tp":"CR","ts":"2024-08-19T23:46:51Z","tX":539,"tY":327,"tags":{"addr:city":"Rendsburg","addr:country":"DE","addr:housenumber":"30-32","addr:postcode":"24768","addr:street":"Am Kreishafen","capacity":"35","charge":"16 EUR","contact:email":"info@spann-an.com","contact:facebook":"https://www.facebook.com/groups/1893024780739972/","contact:phone":"+49 4331 70885-0","contact:webcam":"http://www.canalcup-cam.de/cam1.php","contact:website":"https://www.wohnmobilhafen-nok.de/wohnmobilhafen-am-kreishafen-nok.html","fee":"yes","image":"https://i.imgur.com/tvKLHFL.jpeg","internet_access":"wlan","name":"Wohnmobilhafen am Kreishafen NOK","operator":"Spann...an Osterrönfeld","power_supply":"yes","power_supply:fee":"yes","sanitary_dump_station":"yes","sanitary_dump_station:fee":"no","seasonal":"no","shower":"yes","shower:fee":"yes","toilets":"yes","water_point":"yes","water_point:fee":"yes","wheelchair":"yes"}},"215403445":{"location":[54.172249,9.8422196],"ct":"DE","tp":"CS","ts":"2024-07-05T12:34:50Z","tX":539,"tY":327,"tags":{"addr:city":"Nortorf","addr:country":"DE","addr:housenumber":"11","addr:postcode":"24589","addr:street":"Rendsburger Straße","caravans":"yes","internet_access":"no","name":"Campingplatz Ritzebüttel","operator":"Jochen + Uta Krogmann","phone":"+49 4392 84800","tents":"yes","website":"https://www.gasthof-ritzebuettel.de/nortorf/campingplatz.html"}},"369430554":{"location":[54.3040295,9.6565936],"ct":"DE","tp":"CR","ts":"2024-07-26T14:50:15Z","tX":539,"tY":327,"tags":{"addr:city":"Rendsburg","addr:country":"DE","addr:housenumber":"9","addr:postcode":"24768","addr:street":"An der Untereider","capacity":"45 Plätze","caravan_site":"motorhome_stopover","caravan_site:type":"town; canal","caravans":"no","charge":"26 EUR","description":"In der Winterpause von November bis Ende Februar ist kein Service [Duschen, WC, Müll und Anmeldung] vorhanden. Der Platz kann kostenfrei genutzt werden. Stromsäulen mit Münzen Kosten 50cent pro kwh.","fee":"yes","name":"Wohnmobilhafen am Rendsburger Stadtsee","operator":"NGD","phone":"+49 4331 4349491","power_supply":"yes","sanitary_dump_station":"yes","website":"http://www.wohnmobil-hafen.de/","wheelchair":"limited"}},"448963882":{"location":[54.3000797,9.4961066],"ct":"DE","tp":"CR","ts":"2024-08-01T11:31:58Z","tX":539,"tY":327,"tags":{"capacity":"5","charge":"20 EUR","description":"grey water disposal only using a bucket.","fee":"yes","internet_access":"wlan","internet_access:fee":"customers","internet_access:ssid":"StellplatzWomo","name":"Wohnmobilstellplatz Rosenhof, Hohn","opening_hours":"24/7","operator":"Café Rosenhof","power_supply":"yes","power_supply:capacity":"5","power_supply:fee":"no","sanitary_dump_station":"yes","sanitary_dump_station:chemical_toilet":"yes","sanitary_dump_station:grey_water":"no","shower":"no","socket:schuko":"yes","surface":"grass","toilets":"no","water_point":"no","wikimedia_commons":"Category:Wohnmobilstellplatz Hohn Rosenhof"}},"487783718":{"location":[54.2902184,9.6705171],"ct":"DE","tp":"CR","ts":"2024-01-31T16:52:13Z","tX":539,"tY":327,"tags":{"addr:city":"Osterrönfeld","addr:country":"DE","addr:housenumber":"1","addr:postcode":"24783","addr:street":"Am Kamp-Kanal","capacity":"33","charge":"20 EUR","contact:facebook":"https://www.facebook.com/groups/1893024780739972/","contact:phone":"+49 4331 70885-0","contact:website":"https://www.wohnmobilhafen-nok.de/wohnmobilhafen-am-kanal-cafe-nok.html","fee":"yes","internet_access":"wlan","name":"Wohnmobilhafen am Kanal-Café","operator":"Spann...an Osterrönfeld","power_supply":"yes","sanitary_dump_station":"yes","water_point":"yes"}},"699723346":{"location":[54.3645023,9.818029],"ct":"DE","tp":"CR","ts":"2023-12-04T12:28:52Z","tX":539,"tY":327,"tags":{"capacity":"10","fee":"8 EUR","name":"Wohnmobilparkplatz Sehestedt","parking:orientation":"diagonal","power_supply":"no","sanitary_dump_station":"public","tents":"no","toilets":"no","wikimedia_commons":"Category:Wohnmobilstellplatz Sehestedt"}},"1388593652":{"location":[54.2152888,9.531791],"ct":"DE","tp":"CS","ts":"2023-11-08T22:23:00Z","tX":539,"tY":327,"tags":{"access":"customers","addr:city":"Breiholz","addr:housenumber":"1","addr:postcode":"24797","addr:street":"Fährstraße","backcountry":"no","caravans":"yes","check_date":"2023-07-29","dog":"yes","drinking_water":"yes","email":"ahoi@bootsmann-lodge.de","fee":"yes","group_only":"no","internet_access":"wlan","internet_access:fee":"customers","name":"Bootsmann Campingplatz","phone":"+49 4332 9964200","picnic_table":"yes","power_supply":"yes","reservation":"yes","sanitary_dump_station":"yes","shower":"yes","source":"survey","static_caravans":"yes","tents":"yes","toilets":"yes","water_point":"yes","website":"https://www.bootsmann-lodge.de/","wheelchair":"yes"}},"5487773700":{"location":[54.3652654,9.6807297],"ct":"DE","tp":"CS","ts":"2023-09-15T14:43:45Z","tX":539,"tY":327,"tags":{"addr:housenumber":"11","addr:street":"Bornbarg","backcountry":"yes","caravans":"no","description":"Nur für kleine Zelte. Nur für Wanderer und Radfahrer.","fee":"no","name":"Trekkingplatz Kolonistenhof","operator":"Diakonie-Hilfswerk Schleswig-Holstein","reservation":"no","tents":"yes","toilets":"yes","website":"https://www.naturschutz-sh.de/wildes-sh/trekkingplatz-kolonistenhof"}},"6069022330":{"location":[54.3043726,9.65624],"ct":"DE","tp":"SD","ts":"2022-03-27T12:51:40Z","tX":539,"tY":327,"tags":{"access":"customers","description":"Fremdentsorgung 1€","fee":"no","water_point":"yes"}},"6069047683":{"location":[54.2942894,9.6820032],"ct":"DE","tp":"SD","ts":"2020-10-25T10:20:11Z","tX":539,"tY":327,"tags":{"access":"customers","fee":"no","water_point":"yes"}},"6570769301":{"location":[54.3646195,9.8186331],"ct":"DE","tp":"SD","ts":"2019-07-13T17:37:11Z","tX":539,"tY":327,"tags":{"sanitary_dump_station:basin":"yes"}},"11069388940":{"location":[54.2248448,9.6026099],"ct":"DE","tp":"SD","ts":"2023-07-26T15:42:46Z","tX":539,"tY":327,"tags":{"access":"customers","fee":"yes","operator":"Platzbetreiber Pan..An","water_point":"yes"}},"12087071687":{"location":[54.2998605,9.494985],"ct":"DE","tp":"SD","ts":"2024-08-01T11:31:58Z","tX":539,"tY":327,"tags":{"access":"customers","fee":"no","operator":"Rosenhof","sanitary_dump_station:chemical_toilet":"yes"}}}