{"24747805":{"location":[53.4715257,9.6953182],"ct":"DE","tp":"CR","ts":"2024-04-01T22:49:53Z","tX":539,"tY":331,"tags":{"capacity":"30","caravans":"yes","fee":"yes","maxstay":"3 days","name":"Schützenplatz Buxtehude Genslerweg","power_supply":"yes","sanitary_dump_station":"yes","surface":"compacted","tents":"no","water_point":"yes","website":"https://www.buxtehude.de/portal/seiten/wohnmobilstellplaetze-900000105-20351.html"}},"33040751":{"location":[53.4797354,9.6354156],"ct":"DE","tp":"PK","ts":"2019-06-09T15:25:06Z","tX":539,"tY":331,"tags":{"access":"yes","caravan":"yes","name":"Pfingstmarktplatz","park_ride":"no","parking":"surface","surface":"paving_stones","wheelchair":"yes"}},"132380789":{"location":[53.3816354,9.5939891],"ct":"DE","tp":"CS","ts":"2022-08-03T15:49:57Z","tX":539,"tY":331,"tags":{"alt_name":"Camping Klindworths","capacity":"70","fee":"yes","name":"Campingplatz Südliche Geest","phone":"+49 4169 91100","url":"http://www.klindworths.de/pages/category/camping/"}},"167710317":{"location":[53.3556322,9.6705617],"ct":"DE","tp":"CS","ts":"2020-02-03T16:45:14Z","tX":539,"tY":331,"tags":{"addr:city":"Regesbostel","addr:housenumber":"1","addr:postcode":"21649","addr:street":"Am Eribaplatz","name":"Hamburger-Eriba-Club e.V.","operator":"Hamburger-Eriba-Club e.V.","website":"https://www.eribaclub-hamburg.de/unser-platz/"}},"550892884":{"location":[53.510473,9.5685437],"ct":"DE","tp":"CR","ts":"2024-05-22T11:35:37Z","tX":539,"tY":331,"tags":{"capacity":"8","dog":"yes","drinking_water":"no","fee":"no","internet_access":"no","name":"Wohnmobilstellplatz am Freibad Horneburg","power_supply":"no","sanitary_dump_station":"no","seasonal":"no","surface":"paving_stones","toilets":"no","wheelchair":"yes"}},"842126572":{"location":[53.5299679,9.6801655],"ct":"DE","tp":"CR","ts":"2024-03-30T22:16:36Z","tX":539,"tY":331,"tags":{"capacity":"50","charge":"10 EUR","fee":"yes","name":"Festplatz Jork","opening_hours":"24/7","power_supply":"yes","power_supply:charge":"0.50 EUR/kWh","power_supply:fee":"yes","sanitary_dump_station":"yes","seasonal":"no","shower":"yes","toilets":"yes","water_point":"yes"}},"3510447535":{"location":[53.4713038,9.6948943],"ct":"DE","tp":"SD","ts":"2015-05-11T15:28:02Z","tX":539,"tY":331,"tags":{"sanitary_dump_station:chemical_toilet":"yes","sanitary_dump_station:gravity":"yes","sanitary_dump_station:grey_water":"yes"}},"4104409170":{"location":[53.4796928,9.6354037],"ct":"DE","tp":"SD","ts":"2019-06-09T15:25:06Z","tX":539,"tY":331,"tags":{}},"11779133381":{"location":[53.4797517,9.6352874],"ct":"DE","tp":"CR","ts":"2024-04-01T22:51:44Z","tX":539,"tY":331,"tags":{"capacity":"30","caravans":"yes","name":"Neukloster / Pfingstmarkt Buxtehude","sanitary_dump_station":"yes","seasonal":"no","surface":"asphalt","tents":"no","toilets":"yes","water_point":"yes"}},"12035726442":{"location":[53.4057234,9.7357474],"ct":"DE","tp":"CR","ts":"2024-07-05T11:06:53Z","tX":539,"tY":331,"tags":{"addr:housenumber":"4","addr:street":"Ruhmannshof","check_date":"2024-07-05","fee":"yes","name":"Bauernhof Camping bei Blümels","phone":"+49 4165 2238988","power_supply":"yes","website":"https://www.weihnachtsbaeume-bluemel.de/bauernhof-camping/"}},"7856442166":{"location":[53.530019,9.6805698],"ct":"DE","tp":"SD","ts":"2020-08-29T11:34:38Z","tX":539,"tY":331,"tags":{"sanitary_dump_station:basin":"yes","sanitary_dump_station:round_drain":"yes"}}}