{"3987704":{"location":[53.3061165,9.6189665],"ct":"DE","tp":"CS","ts":"2020-06-03T08:36:10Z","tX":539,"tY":332,"tags":{"wheelchair":"yes"}},"38241369":{"location":[53.2067881,9.5573069],"ct":"DE","tp":"CS","ts":"2021-12-31T22:04:33Z","tX":539,"tY":332,"tags":{"addr:city":"Lauenbrück","addr:country":"DE","addr:postcode":"27389","addr:street":"Aukampsweg","fee":"yes","name":"Mobilheimplatz Aukamp","permanent_camping":"only","source":"bing","url":"http://mobilheimpark-lauenbrueck.de"}},"150610689":{"location":[53.2018581,9.5483201],"ct":"DE","tp":"CS","ts":"2023-04-10T17:37:35Z","tX":539,"tY":332,"tags":{"addr:city":"Lauenbrück","addr:housenumber":"1","addr:postcode":"27389","addr:street":"Schmiedeberg","caravans":"yes","email":"info@campingplatz-lauenbrueck.de","fax":"+49 4267 1580","mobile":"+49 1609 7622315","motorhome":"yes","name":"Alte Löweninsel","phone":"+49 4267 8238","shower":"yes","tents":"yes","toilets":"yes","website":"http://www.campingplatz-lauenbrueck.de"}},"277436615":{"location":[53.2848382,9.6847351],"ct":"DE","tp":"CS","ts":"2017-10-08T22:41:22Z","tX":539,"tY":332,"tags":{"addr:city":"Tostedt","addr:country":"DE","addr:housenumber":"15a","addr:postcode":"21255","addr:street":"Wüstenhöfener Weg","name":"Campingplatz Tostedt","operator":"Campingplatz Tostedt","phone":"+49 4182 6539","website":"http://www.campingplatz-tostedt.de","wheelchair":"no"}},"299864436":{"location":[53.3089248,9.6156631],"ct":"DE","tp":"CS","ts":"2023-12-10T11:26:07Z","tX":539,"tY":332,"tags":{"addr:city":"Heidenau","addr:country":"DE","addr:housenumber":"1","addr:postcode":"21258","addr:street":"Zum Ferienzentrum","name":"Campingplatz Ferienzentrum Heidenau","operator":"Ferienzentrum Heidenau","phone":"+49 4182 4272","website":"https://www.ferienzentrum-heidenau.de/","wheelchair":"yes"}},"582577179":{"location":[53.3103791,9.6148098],"ct":"DE","tp":"SD","ts":"2015-04-29T00:43:32Z","tX":539,"tY":332,"tags":{"note":"Abwasser Wohnmobile","sanitary_dump_station:accepted":"black_water;tank_chemicals"}},"946007256":{"location":[53.2763367,9.5072661],"ct":"DE","tp":"CR","ts":"2023-11-08T18:00:13Z","tX":539,"tY":332,"tags":{"access":"yes","capacity":"6","caravan_site:type":"museum","description":"At Sittensen Handwerkermuseum und Wassermühle","fee":"no","name":"Wohnmobilstellplatz Sittensen","parking":"surface","seasonal":"no","shower":"no","source":"bing","surface":"grass_paver","water_point":"no","wheelchair":"yes"}},"1221024571":{"location":[53.2833701,9.7155814],"ct":"DE","tp":"CR","ts":"2023-11-04T16:19:32Z","tX":539,"tY":332,"tags":{"caravan_site:type":"restaurant","fee":"no","name":"Restaurant zum Meierhof","power_supply":"no","sanitary_dump_station":"no","surface":"grass","tents":"no","water_point":"no","website":"https://www.zum-meierhof.de/"}},"1229937688":{"location":[53.1310497,9.7724504],"ct":"DE","tp":"CR","ts":"2023-12-09T17:17:19Z","tX":539,"tY":332,"tags":{"capacity":"15","caravan_site:type":"swimming_pool","dog":"yes","fee":"no","name":"Quellenbad","sanitary_dump_station":"yes","sanitary_dump_station:fee":"yes","seasonal":"no","water_point":"yes","water_point:fee":"yes","website":"https://www.lueneburger-heide.de/service/unterkunft/6299/wohnmobilstellplatz-am-quellenbad.html"}},"1230076032":{"location":[53.3089708,9.6213079],"ct":"DE","tp":"CR","ts":"2023-12-10T11:26:07Z","tX":539,"tY":332,"tags":{"capacity:motorhomes":"22","caravan_site:type":"camp_site","charge":"14 EUR","dog":"yes","fee":"yes","internet_access":"wlan","internet_access:fee":"no","name":"Ferienzentrum Heidenau Wohnmobilstellplatz","opening_hours":"24/7","power_supply":"yes","power_supply:charge":"0.5 EUR/kWh","power_supply:fee":"yes","sanitary_dump_station":"yes","sanitary_dump_station:chemical_toilet":"yes","sanitary_dump_station:grey_water":"yes","seasonal":"no","shower":"yes","water_point":"yes","water_point:fee":"no","website":"https://www.ferienzentrum-heidenau.de/stellplatz-wohnmobil/"}},"3541461278":{"location":[53.1715747,9.8326228],"ct":"DE","tp":"CR","ts":"2020-08-09T10:48:08Z","tX":539,"tY":332,"tags":{"addr:city":"Schneverdingen","addr:country":"DE","addr:housenumber":"15","addr:postcode":"29640","addr:street":"Voßbarg","addr:suburb":"Wintermoor","fee":"yes","name":"Wohnwagenstellplatz Mariechens Hoff","phone":"+49 5198 454","power_supply":"yes","source":"survey","website":"http://www.urlaub-kdw.de/"}},"11407222424":{"location":[53.308849,9.6210515],"ct":"DE","tp":"SD","ts":"2023-12-10T11:26:07Z","tX":539,"tY":332,"tags":{"access":"customers"}}}