{"1074035":{"location":[51.9639562,9.6471157],"ct":"DE","tp":"CS","ts":"2025-03-14T13:57:15Z","tX":539,"tY":338,"tags":{"access":"customers","addr:city":"Eschershausen","backcountry":"no","caravans":"no","check_date":"2023-07-15","dog":"yes","drinking_water":"yes","fee":"yes","hot_water":"no","internet_access":"no","kitchen":"no","name":"JDAV Jugendzeltplatz Ith","note":"Zeltplatzgäste, die mit bis zu 9 Personen zum Zelten anreisen, bitten wir nicht vorher anzufragen, sondern einfach auf den Zeltplatz anzureisen. Eine Übernachtung ist nur in seltenen Ausnahmefällen nicht möglich. Am Pfingstwochenende findet jedes Jahr das","openfire":"yes","opening_hours":"24/7","operator":"Förderverein JDAV-Nord e.V.","permanent_camping":"no","shower":"yes","static_caravans":"no","swimming_pool":"no","tents":"yes","toilets":"yes","washing_machine":"no","waste_disposal":"yes","website":"https://www.jdav-nord.de/zeltplatz"}},"12376752":{"location":[52.0065812,9.641303],"ct":"DE","tp":"CS","ts":"2023-04-08T12:10:22Z","tX":539,"tY":338,"tags":{"cabins":"yes","caravans":"yes","fax":"+49 5186 95 71 39","internet_access":"no","motorhome":"yes","name":"Campingpark Humboldt-See","phone":"+49 5186 95 71 40","shower":"yes","tents":"yes","toilets":"yes","website":"https://www.campingpark-humboldtsee.de/","wheelchair":"limited"}},"55115546":{"location":[51.9419384,9.5097826],"ct":"DE","tp":"CS","ts":"2025-06-11T08:48:01Z","tX":539,"tY":338,"tags":{"name":"Campingplatz Rühler Schweiz","url":"http://www.brader-ruehler-schweiz.de/","wheelchair":"limited"}},"232536642":{"location":[51.9731498,9.7615818],"ct":"DE","tp":"CS","ts":"2025-03-13T18:04:04Z","tX":539,"tY":338,"tags":{"access":"permit","addr:city":"Delligsen","addr:postcode":"31073","addr:street":"Herzog-Julius-Straße","backcountry":"no","bbq":"no","cabins":"no","camp_site":"standard","caravans":"no","charge":"3.00 EUR/adult;2.00 EUR/14-18 years;0.00 EUR/<14 years","email":"post@hohenbuechen.work","fee":"yes","group_only":"no","impromptu":"yes","internet_access":"no","landuse":"grass","lit":"no","motor_vehicle":"no","motorcar":"no","motorhome":"no","name":"Jugendzeltplatz Hohenbüchen","note":"Es wird darum gebeten nach 22 Uhr und vor 6 Uhr die angegebene Telefonnummer nur per SMS, WhatsApp oder Telegram zu nutzen. Autos dürfen nur zum Be- und Entladen an den Platz gefahren werden und müssen im Ort abgestellt werden.","openfire":"permit","operator":"Bürgerverein Hohenbüchen","payment:cash":"yes","permanent_camping":"no","phone":"+49 179 2078745","picnic_table":"no","power_supply":"no","reservation":"required","sanitary_dump_station":"no","scout":"no","shower":"no","static_caravans":"no","tents":"yes","toilets":"yes","website":"https://www.hohenbuechen.work/zeltplatz/","wheelchair":"limited"}},"238751606":{"location":[51.9607146,9.5045674],"ct":"DE","tp":"CS","ts":"2020-01-06T09:23:29Z","tX":539,"tY":338,"tags":{"addr:city":"Bodenwerder","addr:housenumber":"1","addr:postcode":"37619","addr:street":"Ziegeleiweg","email":"Himmelspforte01@yahoo.de","fax":"+49 5533 4432","name":"Campingplatz Himmelspforte","operator":"Klaus Schünemann","phone":"+49 5533 4938","website":"https://www.camping-weserbergland.de/","wheelchair":"limited"}},"374982530":{"location":[51.9810613,9.5186261],"ct":"DE","tp":"CR","ts":"2025-06-15T20:44:57Z","tX":539,"tY":338,"tags":{"capacity":"62","caravan_site":"motorhome_stopover","caravan_site:type":"river;town","caravans":"no","charge":"12 EUR/24 hours","dog":"yes","dog:fee":"no","email":"info@muenchhausenland.de","fee":"yes","name":"Reisemobilstellplatz am Mühlentor Bodenwerder","operator":"Stadt Bodenwerder","phone":"+49 5533 405 41","power_supply":"yes","power_supply:charge":"0.50 EUR/kWh","power_supply:fee":"yes","sanitary_dump_station":"yes","sanitary_dump_station:grey_water":"yes","shower":"yes","shower:charge":"1.50 EUR","shower:fee":"yes","tents":"no","water_point:charge":"1 EUR/100 liter","water_point:fee":"yes","website":"https://www.muenchhausenland.de/tourismus-freizeit-kultur/tourismus/kommunale-wohnmobilstellplaetze/wohnmobilstellplatz-bodenwerder/"}},"971950132":{"location":[51.9297988,9.6281323],"ct":"DE","tp":"CR","ts":"2021-08-31T18:07:11Z","tX":539,"tY":338,"tags":{"capacity":"10","description":"Keine Abfallentsorgung. Am letzten Juniwochenende gesperrt für Schützenfest.","email":"info@eschershausen-stadtoldendorf.de","fee":"no","internet_access":"no","lit":"no","name":"Angerplatz","opening_hours":"24/7","operator":"Stadt Eschershausen","phone":"+49 5532 9005-0","power_supply":"cee_17_blue","sanitary_dump_station":"yes","surface":"paving_stones","tents":"no","water_point":"yes","website":"https://samtgemeindeverwaltung.de/einrichtungen/reisemobilstellplatz-angerplatz/"}},"1178138557":{"location":[52.0040075,9.6430474],"ct":"DE","tp":"SD","ts":"2023-06-01T16:18:07Z","tX":539,"tY":338,"tags":{"access":"customers","operator":"Campingpark Humboldtsee"}},"1235594055":{"location":[51.8976056,9.5393703],"ct":"DE","tp":"CR","ts":"2025-01-29T22:38:44Z","tX":539,"tY":338,"tags":{"addr:city":"Golmbach","addr:housenumber":"28","addr:postcode":"37640","addr:street":"Am Sportzentrum","caravan_site":"motorhome_stopover","caravan_site:type":"village","charge":"5 EUR","fee":"yes","motorhome":"designated","name":"Wohnmobilstellplatz Am Forstbach","operator":"Gemeinde Golmbach","phone":"+49 172 1805037","power_supply":"yes","power_supply:charge":"0.70 EUR/kWh","power_supply:fee":"yes","sanitary_dump_station":"yes","sanitary_dump_station:fee":"no","website":"https://www.kirschendorf-golmbach.com/kopie-von-aktuelles-1"}},"1288328135":{"location":[51.8782718,9.6350219],"ct":"DE","tp":"CR","ts":"2024-05-31T10:44:18Z","tX":539,"tY":338,"tags":{"addr:city":"Stadtoldendorf","addr:housenumber":"33","addr:postcode":"37627","addr:street":"Linnenkämper Straße","capacity":"25","charge":"7 EUR","fee":"yes","name":"Unter der Homburg - Stadtoldendorf","power_supply":"yes","power_supply:charge":"2 EUR/day","power_supply:fee":"yes","sanitary_dump_station":"yes","seasonal":"no","surface":"gravel","website":"https://www.solling-vogler-region.de/de/lodging/wohnmobilstellplatz/mobilcamping-unter-der-homburg-stadtoldendorf/31228581/"}},"1289229122":{"location":[51.9862627,9.8280586],"ct":"DE","tp":"CR","ts":"2024-06-04T00:11:32Z","tX":539,"tY":338,"tags":{"capacity":"2","caravan_site":"motorhome_stopover","caravan_site:type":"town","fee":"no","maxlength":"none","name":"Wohnmobilstellplätze in Alfeld (Leine)","power_supply":"yes","sanitary_dump_station":"yes","website":"https://www.alfeld.de/kultur-tourismus/wohnmobilstellplaetze","wheelchair":"yes"}},"1367336922":{"location":[51.9741657,9.8173006],"ct":"DE","tp":"CS","ts":"2025-03-14T14:09:26Z","tX":539,"tY":338,"tags":{"access":"permit","addr:city":"Alfeld (Leine)","addr:housenumber":"35","addr:postcode":"31061","addr:street":"Heinrich-Rinne-Str.","camp_site":"serviced","caravans":"no","drinking_water":"yes","email":"info@naturfreunde-alfeld.de","fee":"yes","internet_access":"wlan","motorcar":"no","motorhome":"no","name":"NaturFreundehaus Schlehberghütte","operator":"NaturFreunde Alfeld (Leine) e.V.","phone":"+49 5181 1693","shower":"yes","static_caravans":"no","tents":"yes","toilets":"yes","website":"https://www.naturfreunde-alfeld.de"}},"3783642889":{"location":[51.9804934,9.5183743],"ct":"DE","tp":"SD","ts":"2015-10-12T19:02:04Z","tX":539,"tY":338,"tags":{"sanitary_dump_station:chemical_toilet":"yes","sanitary_dump_station:fee":"no","sanitary_dump_station:gravity":"yes","sanitary_dump_station:grey_water":"yes","sanitary_dump_station:suction":"no"}},"4726040640":{"location":[51.9737113,9.6479142],"ct":"DE","tp":"CS","ts":"2023-07-15T18:22:30Z","tX":539,"tY":338,"tags":{"bbq":"yes","caravans":"yes","check_date":"2023-07-15","drinking_water":"yes","fee":"yes","impromptu":"yes","motor_vehicle":"yes","name":"Ith Campingplatz Capellenhagen","phone":"+49 5186 885","tents":"yes","website":"https://www.ithcampingplatz.de/","wheelchair":"limited"}},"5070203491":{"location":[51.8741321,9.6482242],"ct":"DE","tp":"CS","ts":"2024-08-16T12:53:53Z","tX":539,"tY":338,"tags":{"addr:city":"Stadtoldendorf","addr:housenumber":"41","addr:postcode":"37627","addr:street":"Linnenkämper Straße","caravans":"yes","drinking_water":"yes","name":"Mammut Camping","shower":"yes","tents":"yes","website":"https://www.fpmammut.de/"}},"8995729596":{"location":[51.9299319,9.6280697],"ct":"DE","tp":"SD","ts":"2021-08-31T18:07:11Z","tX":539,"tY":338,"tags":{"access":"yes","charge":"1.00 EUR","description":"Öffnet erst nach Einwurf von 1 € in die Frischwasserstation.","fee":"yes","payment:coins":"yes","payment:others":"no"}}}