{"108202920":{"location":[51.6401489,9.8330353],"ct":"DE","tp":"CS","ts":"2025-04-27T12:31:10Z","tX":539,"tY":339,"tags":{"contact:fax":"+49 5505 5585","contact:phone":"+49 5505 2272","contact:website":"http://www.campingplatz-hardegsen.de/","is_in:country":"Germany","is_in:district":"Landkreis Northeim","is_in:region":"Niedersachsen","is_in:town":"Hardegsen","name":"Campingplatz Hardegsen - Ferienpark Solling"}},"108593158":{"location":[51.6825202,9.7318177],"ct":"DE","tp":"CS","ts":"2022-09-10T14:39:15Z","tX":539,"tY":339,"tags":{"abandoned":"yes","name":"Bergseecamp Delliehausen","wheelchair":"limited"}},"110556481":{"location":[51.7718664,9.5479799],"ct":"DE","tp":"CS","ts":"2020-01-04T15:22:55Z","tX":539,"tY":339,"tags":{"addr:city":"Holzminden","addr:housenumber":"4","addr:postcode":"37603","addr:street":"Glash√ºttenweg","name":"Campingplatz Silberborn","phone":"+49 5536 664","url":"http://www.campingplatzsilberborn.de/","wheelchair":"limited"}},"161510050":{"location":[51.7053306,9.5556886],"ct":"DE","tp":"CS","ts":"2015-07-22T12:30:25Z","tX":539,"tY":339,"tags":{"caravans":"yes","drinking_water":"yes","dryer":"yes","fee":"yes","internet_access":"wlan","name":"Campingplatz am Freizeitsee","sanitary_dump_station":"customers","tents":"yes","toilets":"yes","url":"http://www.camping-schoenhagen.de/","washing_machine":"yes","wheelchair":"limited"}},"175564070":{"location":[51.7582163,9.765098],"ct":"DE","tp":"CS","ts":"2025-05-28T22:09:25Z","tX":539,"tY":339,"tags":{"access":"customers","addr:city":"Dassel - Lauenberg","addr:postcode":"37586","addr:street":"Am Henneckenberg/Lauenberg","bbq":"yes","camp_site":"deluxe","capacity:persons":"70","caravans":"no","drinking_water":"yes","email":"nolte@stadt-dassel.de","fee":"yes","fireplace":"yes","group_only":"yes","motor_vehicle":"no","motorcar":"no","motorhome":"no","name":"Jugendzeltplatz Lauenberg","openfire":"permit","operator":"Stadt Dassel","phone":"+49 5564 20256","power_supply":"yes","reservation":"required","shower":"yes","stars":"1","static_caravans":"no","tents":"yes","toilets":"yes","website":"https://www.stadt-dassel.de/freizeit-tourismus/sport-freizeiteinrichtungen/jugendzeltplatz-lauenberg/","website:de":"https://www.stadt-dassel.de/staticsite/staticsite.php?menuid=360&topmenu=116"}},"237946639":{"location":[51.6672545,9.6285979],"ct":"DE","tp":"CR","ts":"2025-01-22T10:33:34Z","tX":539,"tY":339,"tags":{"addr:city":"Uslar","addr:postcode":"37170","addr:street":"Zur Schwarzen Erde","capacity":"20","caravan_site":"motorhome_stopover","caravan_site:type":"swimming_pool","caravans":"no","charge":"6 EUR","dog":"yes","email":"info@uslar.de","fee":"yes","internet_access":"no","name":"Wohnmobilpark Am Uslaer Badeland","old_name":"Zwei Becken des Freibads und Liegewiese","operator":"Stadt Uslar","phone":"+49 5571 307 170","power_supply":"yes","power_supply:charge":"1 EUR/6 hours","power_supply:fee":"yes","sanitary_dump_station":"yes","sanitary_dump_station:fee":"no","tents":"no","water_point":"yes","water_point:charge":"1 EUR","water_point:fee":"yes","website":"https://www.uslar.de/portal/seiten/reisemobilpark-am-badeland-900000098-30090.html"}},"238197602":{"location":[51.6721579,9.6252667],"ct":"DE","tp":"CS","ts":"2020-08-05T09:35:06Z","tX":539,"tY":339,"tags":{"caravans":"no","group_only":"yes","name":"Jugendcamp Uslar","operator":"Albert-Schweitzer-Familienwerk e.V.","tents":"yes","website":"https://www.jugendcampuslar.de/"}},"274514333":{"location":[51.8069629,9.6896636],"ct":"DE","tp":"CR","ts":"2025-05-28T21:43:57Z","tX":539,"tY":339,"tags":{"capacity":"5","caravan_site":"motorhome_stopover","caravan_site:type":"swimming_pool;town","fee":"no","maxlength":"8","name":"Wohnmobilstellplatz Dassel am Sollingbad","reservation":"no","website":"https://www.weserbergland-tourismus.de/de/lodging/wohnmobilstellplatz/dassel-wohnmobilstellplatz-am-sollingbad/32080550/"}},"312398577":{"location":[51.6241665,9.5516636],"ct":"DE","tp":"CR","ts":"2023-08-08T08:36:02Z","tX":539,"tY":339,"tags":{"capacity":"45","charge":"14.00 EUR/1 day","email":"info@landhotel-zum-anker.de","fee":"yes","internet_access":"yes","internet_access:fee":"yes","name":"Wohnmobilstellplatz Weserbergland","operator":"Jennifer und Gudrun Best","phone":"+49 5572 1873","power_supply":"yes","website":"http://www.landhotel-zum-anker.de/?page_id=31","wheelchair":"limited"}},"341036489":{"location":[51.6406725,9.641891],"ct":"DE","tp":"CS","ts":"2025-06-08T20:39:44Z","tX":539,"tY":339,"tags":{"addr:city":"Uslar","addr:housenumber":"1","addr:postcode":"37170","addr:street":"Steimke","caravans":"yes","drinking_water":"yes","name":"Zeltwiese","operator":"Gut-Steimke","phone":"+49 5571 5434","power_supply":"yes","sanitary_dump_station":"no","shower":"yes","tents":"yes","toilets":"yes","website":"http://Gut-Steimke.de"}},"669548799":{"location":[51.7575335,9.7651787],"ct":"DE","tp":"CR","ts":"2025-05-28T22:09:25Z","tX":539,"tY":339,"tags":{"capacity":"8","charge":"5 EUR","description":"Information am Stellplatz","fee":"yes","fee:conditional":"no @ (Oct-Apr)","maxlength":"8","name":"Wohnmobilstellplatz Badesee Lauenberg","power_supply":"yes","power_supply:charge":"1 EUR","power_supply:fee":"yes","sanitary_dump_station":"yes","sanitary_dump_station:fee":"no","water_point":"yes","water_point:charge":"1 EUR","water_point:fee":"yes","website":"https://www.stadt-dassel.de/freizeit-tourismus/unterkuenfte-wohnmobilstellplatz/wohnmobilstellplatz-lauenberg/"}},"736881149":{"location":[51.650635,9.8233036],"ct":"DE","tp":"CR","ts":"2025-05-29T12:38:43Z","tX":539,"tY":339,"tags":{"capacity":"15","contact:mobile":"+49 151 27109936","fee":"yes","internet_access":"wlan","maxstay":"3 nights","name":"Wohnmobilhafen Steinbreite","operator":"Stadt Hardegsen","power_supply":"yes","sanitary_dump_station":"yes","tents":"no","toilets":"yes","water_point":"yes","website":"https://www.hardegsen.de/staticsite/staticsite.php?menuid=227&topmenu=10&keepmenu=inactive"}},"1120739805":{"location":[51.6446319,9.5586607],"ct":"DE","tp":"CS","ts":"2022-12-10T10:55:22Z","tX":539,"tY":339,"tags":{"addr:city":"Bodenfelde","addr:country":"DE","addr:housenumber":"21","addr:postcode":"37194","addr:street":"Nienoverer Weg","capacity":"30","caravans":"yes","name":"Campingverein Bodenfelde","permanent_camping":"yes","phone":"+49 5572 2074","tents":"yes","website":"https://campingplatz-bodenfelde.jimdofree.com/"}},"1349363748":{"location":[51.7380832,9.7945959],"ct":"DE","tp":"CR","ts":"2025-01-08T00:20:12Z","tX":539,"tY":339,"tags":{"addr:city":"Moringen","addr:street":"Am Hainberg","capacity":"6","name":"Wohnmobilstellplatz Fredelshloh Am Hainberg","power_supply":"yes","power_supply:charge":"1 EUR/KWh","power_supply:fee":"yes","sanitary_dump_station":"yes","surface":"asphalt","water_point":"yes","water_point:charge":"0.20 EUR/10 liter","water_point:fee":"yes","water_point:seasonal":"yes","website":"https://www.moringen.de/stadt-moringen/wohnen-freizeit-tourismus/uebernachten/wohnmobil-stellplaetze/stellplatz-fredelsloh/"}},"3182579033":{"location":[51.6242467,9.5523294],"ct":"DE","tp":"SD","ts":"2023-08-07T15:24:35Z","tX":539,"tY":339,"tags":{"fee":"no","sanitary_dump_station:accepted":"black_water;grey_water;tank_chemicals"}},"3784522991":{"location":[51.6658829,9.6286124],"ct":"DE","tp":"SD","ts":"2015-10-13T11:34:49Z","tX":539,"tY":339,"tags":{"sanitary_dump_station:chemical_toilet":"yes","sanitary_dump_station:fee":"yes","sanitary_dump_station:gravity":"yes","sanitary_dump_station:grey_water":"yes","sanitary_dump_station:suction":"no"}},"11804446548":{"location":[51.7381288,9.7946313],"ct":"DE","tp":"CR","ts":"2024-04-09T09:31:15Z","tX":539,"tY":339,"tags":{"addr:city":"Moringen","addr:street":"Am Hainberg","name":"Stellplatz","power_supply":"yes","sanitary_dump_station":"yes"}},"9004645599":{"location":[51.7377566,9.7943384],"ct":"DE","tp":"SD","ts":"2023-08-07T11:33:24Z","tX":539,"tY":339,"tags":{"fee":"yes","operator":"Stadt Moringen","water_point":"yes"}}}