{"30102769":{"location":[51.4007795,9.5486536],"ct":"DE","tp":"CS","ts":"2023-11-01T06:23:30Z","tX":539,"tY":340,"tags":{"addr:city":"Fuldatal","addr:country":"DE","addr:housenumber":"1","addr:postcode":"34233","addr:street":"Fulda-Freizeitzentrum","fax":"+49 5607 934501","name":"Fuldatal Freizeitzentrum","operator":"Michaela Patzke","phone":"+49 5607 340","website":"https://www.campingplatz-knickhagen.de/"}},"34378128":{"location":[51.4955257,9.7945777],"ct":"DE","tp":"CS","ts":"2021-08-06T22:26:09Z","tX":539,"tY":340,"tags":{"addr:city":"Dransfeld","addr:country":"DE","addr:housenumber":"1","addr:postcode":"37127","addr:street":"Willy-Vogel-Weg","addr:suburb":"Bördel","area":"yes","contact:website":"http://BfnL-Goettingen.de/","internet_access":"wlan","name":"Familiensportverein Bund für natürliche Lebensgestaltung Göttingen e.V.","nudism":"yes"}},"61889731":{"location":[51.4732533,9.6214753],"ct":"DE","tp":"CS","ts":"2023-01-11T23:36:53Z","tX":539,"tY":340,"tags":{"addr:city":"Reinhardshagen","addr:country":"DE","addr:housenumber":"6","addr:postcode":"34359","addr:street":"Ahletal","addr:suburb":"Vaake","leisure":"common","name":"Terassencampingplatz Ahletal","website":"http://www.campingplatz-reinhardshagen.de"}},"87226843":{"location":[51.5044246,9.6032084],"ct":"DE","tp":"CS","ts":"2022-12-29T16:29:38Z","tX":539,"tY":340,"tags":{"addr:city":"Hann. Münden","addr:housenumber":"34","addr:postcode":"34346","addr:street":"Unterdorf","caravans":"yes","internet_access":"wlan","name":"Wesercamping Hemeln","operator":"M. Damaschke","phone":"+49 5544 1414","smoking":"outside","tents":"yes","website":"http://www.wesercamping.de/"}},"89348299":{"location":[51.5926876,9.5886026],"ct":"DE","tp":"CS","ts":"2024-07-11T21:07:44Z","tX":539,"tY":340,"tags":{"addr:city":"Wesertal","addr:country":"DE","addr:housenumber":"3","addr:postcode":"34399","addr:street":"Am Hallenbad","addr:suburb":"Oedelsheim","caravans":"yes","contact:email":"info@campingplatz-wesertal.eu","contact:phone":"+49 5574 94 599 60","contact:website":"http://www.campingplatz-wesertal.eu","internet_access":"wlan","internet_access:fee":"yes","name":"Campingplatz Wesertal","phone":"+4955749459960","sanitary_dump_station":"customers","shower":"yes","tents":"yes","toilets":"yes","website":"https://www.campingplatz-wesertal.eu/"}},"89355326":{"location":[51.5991775,9.5566456],"ct":"DE","tp":"CS","ts":"2024-08-22T13:13:01Z","tX":539,"tY":340,"tags":{"addr:city":"Wesertal","addr:country":"DE","addr:housenumber":"21","addr:postcode":"34399","addr:street":"In der Klappe","addr:suburb":"Gieselwerder","capacity":"250","caravans":"yes","name":"Campingplatz Gieselwerder","phone":"+49 5572 7611","source":"Bing","static_caravans":"yes","tents":"yes","website":"https://www.camping-gieselwerder.de/"}},"160737093":{"location":[51.490538,9.7604825],"ct":"DE","tp":"CS","ts":"2024-01-28T19:36:24Z","tX":539,"tY":340,"tags":{"addr:city":"Dransfeld","addr:country":"DE","addr:housenumber":"12","addr:postcode":"37127","addr:street":"Hoher-Hagen-Straße","caravans":"yes","contact:email":"camping.lesser@t-online.de","contact:fax":"+49 5502 47239","contact:phone":"+49 5502 2147","contact:website":"https://www.regenbogen.ag/ferienanlagen/dransfeld.html","dog":"leashed","internet_access":"wlan","name":"Regenbogen Ferienanlage & Campingplatz Dransfeld","opening_hours":"Mar 28-Oct 6","operator":"Regenbogen AG","power_supply":"yes","tents":"yes"}},"163067547":{"location":[51.4391254,9.5092391],"ct":"DE","tp":"CS","ts":"2022-09-27T20:34:01Z","tX":539,"tY":340,"tags":{"addr:city":"Immenhausen","addr:country":"DE","addr:housenumber":"23","addr:postcode":"34376","addr:street":"Kesselhaken","caravans":"no","contact:email":"info@zentrum.pfadfinden.de","contact:fax":"+49 5673 9958444","contact:phone":"+49 5673 995840","contact:website":"http://www.zentrum.pfadfinden.de/","group_only":"yes","name":"Bund der Pfadfinderinnen und Pfadfinder e.V. - Bundeszentrum","openfire":"yes","operator":"Bund der Pfadfinderinnen und Pfadfinder e.V.","scout":"yes","source":"http://www.zentrum.pfadfinden.de/","tents":"yes"}},"284475206":{"location":[51.4833915,9.6742827],"ct":"DE","tp":"CR","ts":"2018-06-01T08:24:52Z","tX":539,"tY":340,"tags":{"capacity":"20","contact:phone":"+49 5502 2758","contact:website":"http://buehren.wtulo.de/Wandern/mobil.htm","fee":"yes","name":"Reisemobilstellplatz Bühren","operator":"Enno Fischer","power_supply":"no","tents":"yes"}},"362908783":{"location":[51.5664477,9.5972549],"ct":"DE","tp":"CS","ts":"2024-07-11T21:06:36Z","tX":539,"tY":340,"tags":{"internet_access":"wlan","name":"Campingplatz Weißehütte","website":"https://weissehuette.com/"}},"431599966":{"location":[51.417046,9.6472224],"ct":"DE","tp":"CR","ts":"2025-01-31T12:49:32Z","tX":539,"tY":340,"tags":{"caravan_site":"motorhome_stopover","caravan_site:type":"camp_site;river","charge":"28 EUR","dog":"yes","dog:charge":"3 EUR","dog:fee":"yes","fee":"yes","maxweight":"3.5","name":"Wohnmobilehafen des Campingplatzes \"Grüne Insel Tanzwerder\"","power_supply":"yes","power_supply:charge":"5 EUR","power_supply:fee":"yes","power_supply:maxcurrent":"6","reservation":"no","seasonal":"yes","website":"https://www.camping-und-kanu.de/"}},"431599967":{"location":[51.4155222,9.6471732],"ct":"DE","tp":"CS","ts":"2025-01-31T12:49:32Z","tX":539,"tY":340,"tags":{"addr:city":"Hann. Münden","addr:country":"DE","addr:housenumber":"1","addr:postcode":"34346","addr:street":"Tanzwerder","caravans":"yes","fee":"yes","name":"Grüne Insel Tanzwerder","operator":"Busch Freizeit & Touristik GmbH","seasonal":"yes","tents":"yes","website":"https://www.camping-und-kanu.de/","wheelchair":"limited"}},"432982378":{"location":[51.4200773,9.6485113],"ct":"DE","tp":"CR","ts":"2025-01-28T15:02:15Z","tX":539,"tY":340,"tags":{"addr:city":"Hann. Münden","addr:country":"DE","addr:postcode":"34346","addr:street":"Gustav-Blume-Weg","area":"yes","capacity":"30","caravan_site":"motorhome_stopover","caravan_site:type":"river;town","charge":"15 EUR/24 hours","fee":"yes","name":"Wohnmobilstellplatz Am Weserstein","opening_hours":"24/7","operator":"Stadt Hanne.Münden","power_supply":"yes","power_supply:capacity":"16","power_supply:charge":"1 EUR/8 hours","power_supply:fee":"yes","reservation":"no","sanitary_dump_station":"yes","sanitary_dump_station:charge":"1 EUR","sanitary_dump_station:fee":"yes","toilets":"yes","water_point":"yes","website":"https://hann.muenden-erlebnisregion.de/poi/wohnmobilstellplatz-am-weserstein","wheelchair":"yes"}},"435954274":{"location":[51.5233022,9.6125785],"ct":"DE","tp":"CS","ts":"2024-08-13T07:51:02Z","tX":539,"tY":340,"tags":{"contact:phone":"+49 5544 7211","fee":"yes","name":"Zeltplatz Bramwald / Glashütte","website":"https://www.goettingerland.de/de/lodging/campingplatz/zeltplatz-bramwald-glashuette/45985331/"}},"633726718":{"location":[51.5201428,9.6955175],"ct":"DE","tp":"CS","ts":"2024-02-10T21:20:32Z","tX":539,"tY":340,"tags":{"addr:city":"Niemetal","addr:country":"DE","addr:housenumber":"4","addr:postcode":"37127","addr:street":"Mühlenstraße","addr:suburb":"Löwenhagen","contact:phone":"+49 5502 998461","contact:website":"http://www.am-niemetal.com/de/","name":"Camping Niemetal","opening_hours":"Apr 1-Oct 31","wheelchair":"yes"}},"872383306":{"location":[51.4030897,9.7173593],"ct":"DE","tp":"CS","ts":"2020-11-16T17:13:10Z","tX":539,"tY":340,"tags":{}},"1018900259":{"location":[51.4100779,9.6491611],"ct":"DE","tp":"CS","ts":"2025-02-26T15:03:42Z","tX":539,"tY":340,"tags":{"addr:city":"Hann. Münden","addr:housenumber":"1","addr:postcode":"34346","addr:street":"Walter-Diestel-Weg","capacity":"10","caravans":"yes","description":"Für kleine Zelte z.B. für Kanuten und Fahrradfahrer","fee":"yes","internet_access":"no","name":"Campingplatz am Bootshaus","operator":"Mündener Kanu Club","shower":"yes","tents":"yes","toilets":"yes","website":"https://www.mkc-muenden.de/camping","wheelchair":"limited"}},"1096826981":{"location":[51.5910259,9.5909961],"ct":"DE","tp":"CS","ts":"2022-09-21T21:01:47Z","tX":539,"tY":340,"tags":{"caravans":"yes","name":"Campingplatz Familie Dietrich","tents":"yes"}},"10012283907":{"location":[51.4066373,9.6461285],"ct":"DE","tp":"CR","ts":"2024-12-28T16:32:28Z","tX":539,"tY":340,"tags":{"addr:city":"Hann. Münden","addr:housenumber":"3","addr:postcode":"34346","addr:street":"Auf dem Rattwerder","capacity":"10","caravan_site":"motorhome_stopover","caravan_site:type":"swimming_pool","fee":"no","name":"Am Hochbad","power_supply":"no","sanitary_dump_station":"no","water_point":"no","website":"https://www.weserbergland-tourismus.de/de/lodging/wohnmobilstellplatz/wohnmobilstellplatz-am-hochbad/32059075/"}},"4310428893":{"location":[51.5922511,9.5899353],"ct":"DE","tp":"SD","ts":"2016-07-19T07:16:12Z","tX":539,"tY":340,"tags":{}},"5794208515":{"location":[51.4202975,9.6490235],"ct":"DE","tp":"SD","ts":"2018-07-29T18:00:02Z","tX":539,"tY":340,"tags":{"access":"yes","fee":"no","operator":"Stadt Hannoversch Münden","water_point":"yes"}},"12621280387":{"location":[51.5451799,9.5280567],"ct":"DE","tp":"CR","ts":"2025-03-18T22:10:04Z","tX":539,"tY":340,"tags":{"capacity":"4","caravan_site":"motorhome_stopover","caravan_site:type":"zoo","caravans":"no","dog":"yes","fee":"no","name":"Wohnmobilstellplatz Tierpark Sababurg","power_supply":"yes","power_supply:fee":"yes","tents":"no","website":"https://www.tierpark-sababurg.de/ihr-besuch-bei-uns/anfahrt-parken/"}}}