{"87312962":{"location":[51.3966292,9.7250811],"ct":"DE","tp":"CS","ts":"2022-12-08T12:12:59Z","tX":539,"tY":341,"tags":{"caravans":"yes","email":"info@gasthausspiegelburg.de","name":"Spiegelburg Camping","phone":"+49 5541 904711","tents":"yes","website":"https://www.gasthausspiegelburg.de/"}},"93573945":{"location":[51.3091529,9.6436434],"ct":"DE","tp":"CS","ts":"2024-02-28T16:29:00Z","tX":539,"tY":341,"tags":{"capacity":"10","caravans":"no","email":"hausleitung@sensenstein.de","fax":"+49 5605 9449111","fee":"yes","internet_access":"no","motorhome":"yes","phone":"+49 5605 94490","power_supply":"yes","smoking":"isolated","tents":"yes","website":"https://www.sensenstein.de/","wheelchair":"yes"}},"125418068":{"location":[51.2020074,9.6277146],"ct":"DE","tp":"CS","ts":"2020-05-13T15:54:17Z","tX":539,"tY":341,"tags":{"addr:city":"Hessisch Lichtenau","addr:housenumber":"14","addr:postcode":"37235","addr:street":"Grundmühle","name":"Grundmühle Quentel","operator":"Martina Winkler","phone":"+49 5602 3659","website":"http://www.grundm%C3%BChle-quentel.de"}},"412188470":{"location":[51.2859115,9.6193729],"ct":"DE","tp":"CR","ts":"2023-11-11T01:42:07Z","tX":539,"tY":341,"tags":{"capacity":"2","description":"Stellplatz Kaufungen","fee":"no","maxstay":"3 days","name":"Reisemobilstellplatz Kaufungen","power_supply":"no","sanitary_dump_station":"yes","toilets":"no","water_point":"yes","website":"https://www.kaufungen.eu/Tourist_Info/Reisemobilstation/"}},"1265914700":{"location":[51.3268067,9.5551656],"ct":"DE","tp":"CR","ts":"2024-03-24T22:19:32Z","tX":539,"tY":341,"tags":{"capacity":"3","charge":"7 EUR","fee":"yes","name":"Wohnmobilstellplatz Niestetal Sandershausen","power_supply":"yes","power_supply:charge":"1 EUR/2 kWh","power_supply:fee":"yes","sanitary_dump_station":"yes","water_point":"yes","water_point:charge":"1 EUR/100 liter","water_point:fee":"yes","website":"https://www.niestetal.de/gv_niestetal/Freizeit%20&%20Tourismus/Tourismus/Wohnmobil-Stellplatz/"}},"1278108936":{"location":[51.2585676,9.7927819],"ct":"DE","tp":"CR","ts":"2024-04-29T10:28:02Z","tX":539,"tY":341,"tags":{"caravan_site":"motorhome_stopover","caravan_site:type":"village","drinking_water":"yes","fee":"yes","internet_access":"no","name":"Wiese am Mühlgraben - Großalmerode","power_supply":"yes","sanitary_dump_station":"yes","water_point":"yes","website":"https://www.grossalmerode.de/freizeit-tourismus/tourismus/wohnmobilstellplatz/","wheelchair":"no"}},"4172790896":{"location":[51.3146816,9.5225758],"ct":"DE","tp":"CR","ts":"2016-05-08T12:19:14Z","tX":539,"tY":341,"tags":{"access":"permissive","description":"Aufenthalt laut Beschilderung der Stadt Kassel insbesondere für reisende Sinti und Roma, andere Personengruppen nur eingeschränkt. Platz hat durch die benachbarte Dresdener Straße keine Aufenthaltsqualität.","name":"Stellplatz Königinhofstraße","operator":"Stadt Kassel"}},"4358015389":{"location":[51.2963487,9.5489496],"ct":"DE","tp":"CS","ts":"2023-11-24T17:12:25Z","tX":539,"tY":341,"tags":{"addr:country":"DE","addr:postcode":"34123","caravans":"yes","email":"bffl.kassel@t-online.de","internet_access":"wlan","name":"BffL Kassel (FKK)","nudism":"yes","operator":"Bund für freie Lebensgestaltung e.V.","phone":"+49 561 517200","website":"https://www.bffl-kassel.com/"}},"11865869505":{"location":[51.265577,9.7847226],"ct":"DE","tp":"CR","ts":"2024-04-29T10:28:02Z","tX":539,"tY":341,"tags":{"name":"Parkplatz am Sportzentrum Schwarzenbergstadion und Panoramabad","power_supply":"no","sanitary_dump_station":"no","water_point":"no","website":"https://www.grossalmerode.de/freizeit-tourismus/tourismus/wohnmobilstellplatz/"}},"4903855325":{"location":[51.3266059,9.5550646],"ct":"DE","tp":"SD","ts":"2024-03-24T22:19:32Z","tX":539,"tY":341,"tags":{"access":"yes","fee":"yes","water_point":"yes"}}}