{"13970602":{"location":[51.1127966,9.5433981],"ct":"DE","tp":"CS","ts":"2022-07-02T21:19:47Z","tX":539,"tY":342,"tags":{"addr:city":"Melsungen","addr:housenumber":"23","addr:postcode":"34212","addr:street":"Malsfelder Straße","fax":"+49 321 21268792","fee":"yes","name":"Camping- und Freizeitzentrum am See","phone":"+49 5661 923770","website":"http://www.campingplatz-melsungen.de"}},"35209094":{"location":[51.1127966,9.5433981],"ct":"DE","tp":"CS","ts":"2024-08-06T19:55:41Z","tX":539,"tY":342,"tags":{"addr:city":"Melsungen","addr:housenumber":"23","addr:postcode":"34212","addr:street":"Malsfelder Straße","addr:suburb":"Obermelsungen","caravans":"yes","contact:phone":"+495661923770","fee":"yes","name":"Camping und Freizeitzentrum am See","tents":"yes","website":"http://www.campingplatz-melsungen.de/"}},"50809966":{"location":[51.0008038,9.7213359],"ct":"DE","tp":"CR","ts":"2022-01-09T15:16:17Z","tX":539,"tY":342,"tags":{"capacity":"50","caravans":"no","contact:phone":"+49 6623 933-01","description":"Gebühr 6,50€ an Automat mit Münzen oder EC cart. Stromsäulen vorhanden.","fee":"yes","internet_access":"no","name":"Wohnmobilpark am Wittich","object:city":"Rotenburg an der Fulda","object:country":"DE","object:housenumber":"12a","object:postcode":"36199","object:street":"Braacher Straße","operator":"Stadt Rotenburg","power_supply":"yes","sanitary_dump_station":"yes","tents":"no","water_point":"yes","website":"https://www.rotenburg.de/freizeit/tourismus/camping-reisemobiltourismus/"}},"51748080":{"location":[51.0785613,9.5497116],"ct":"DE","tp":"CS","ts":"2024-06-08T13:57:57Z","tX":539,"tY":342,"tags":{"access":"customers","addr:city":"Malsfeld","addr:country":"DE","addr:postcode":"34323","caravans":"yes","drinking_water":"yes","fee":"yes","name":"Campingplatz Beiseförth","phone":"+491739708693","power_supply":"yes","shower":"yes","source":"url","tents":"yes","toilets":"yes","website":"https://camping-beisefoerth.de/"}},"51749525":{"location":[51.0334029,9.5361033],"ct":"DE","tp":"CS","ts":"2024-08-04T11:22:42Z","tX":539,"tY":342,"tags":{"addr:city":"Knüllwald","addr:housenumber":"1","addr:postcode":"34593","addr:street":"Zum Lierloch","addr:suburb":"Niederbeisheim","caravans":"yes","fee":"yes","name":"Campingplatz am Bauernhof","operator":"Hardy Limmeroth","phone":"+49 5685 228","source":"extrapolation;url","tents":"yes","website":"http://www.campingplatzambauernhof.de"}},"51807270":{"location":[50.9935036,9.7426661],"ct":"DE","tp":"CS","ts":"2023-10-31T01:24:09Z","tX":539,"tY":342,"tags":{"caravans":"yes","drinking_water":"yes","name":"Campingplatz Rotenburg an der Fulda","operator":"Stadt Rotenburg","phone":"+49 6623 5556","shower":"yes","source":"website","tents":"yes","website":"https://www.rotenburg.de/"}},"100630624":{"location":[50.9590482,9.7873654],"ct":"DE","tp":"CR","ts":"2024-11-04T22:13:54Z","tX":539,"tY":342,"tags":{"capacity":"40","caravans":"no","charge":"8 EUR","fee":"yes","maxstay":"21 days","name":"Reisemobilstellplatz am Breitenbacher See","object:city":"Bebra","object:postcode":"36179","object:street":"Hersfelder Straße","operator":"Stadt Bebra","payment:coins":"only","phone":"+49 6622 501-100","power_supply":"yes","sanitary_dump_station":"yes","tents":"no","water_point":"yes","website":"http://www.erlebnis-fuldaaue.de/texte/seite.php?id=72050","wheelchair":"yes"}},"140265112":{"location":[51.1134356,9.6750231],"ct":"DE","tp":"CS","ts":"2011-12-08T16:34:35Z","tX":539,"tY":342,"tags":{}},"198559167":{"location":[51.152882,9.5381068],"ct":"DE","tp":"CS","ts":"2024-04-28T17:13:01Z","tX":539,"tY":342,"tags":{"caravans":"yes","fax":"+49 5661 9296-380","name":"Campingplatz Fuldawiese","phone":"+49 5661 9296-381","tents":"yes","website":"http://www.mittleres-fuldatal.nordhessen.de/de/campingplaetze-2/a-campingplatz-fuldawiese"}},"256439036":{"location":[51.0086811,9.8199733],"ct":"DE","tp":"CS","ts":"2014-01-13T13:43:22Z","tX":539,"tY":342,"tags":{}},"381133699":{"location":[51.0259862,9.5792537],"ct":"DE","tp":"CS","ts":"2015-11-18T22:28:34Z","tX":539,"tY":342,"tags":{"addr:city":"Alheim","addr:housenumber":"4","addr:postcode":"36211","addr:street":"Zur alten Mühle","addr:suburb":"Licherode","email":"info@camping-altemuehle.de","name":"Campingplatz Alte Mühle","operator":"Erik van Wijk","phone":"+49 5664 8141","source":"http://www.camping-altemuehle.de/","website":"http://www.camping-altemuehle.de/"}},"452959340":{"location":[51.003923,9.695317],"ct":"DE","tp":"CR","ts":"2019-08-04T12:23:52Z","tX":539,"tY":342,"tags":{"capacity":"5","internet_access":"no","name":"Wohnmobil-Stellplatz Am Schindleich","power_supply":"no","sanitary_dump_station":"no"}},"484352295":{"location":[51.0059444,9.693782],"ct":"DE","tp":"CR","ts":"2024-05-15T22:42:48Z","tX":539,"tY":342,"tags":{"capacity":"10","caravan_site":"motorhome_stopover","caravan_site:type":"river","caravans":"no","fee":"no","internet_access":"no","maxstay":"3 days","name":"Braacher Brücke","operator":"Stadt Rotenburg an der Fulda","power_supply":"no","sanitary_dump_station":"no"}},"947491823":{"location":[51.1345539,9.5431172],"ct":"DE","tp":"CR","ts":"2024-03-18T14:57:59Z","tX":539,"tY":342,"tags":{"capacity":"10","fee":"yes","maxstay":"48 hours","name":"Wohnmobilpark am Fuldaufer","power_supply":"yes"}},"1151455905":{"location":[51.1150545,9.5416696],"ct":"DE","tp":"CR","ts":"2011-02-13T18:36:28Z","tX":539,"tY":342,"tags":{}},"1244812913":{"location":[51.150952,9.7917156],"ct":"DE","tp":"CS","ts":"2023-04-15T13:19:29Z","tX":539,"tY":342,"tags":{"addr:city":"Hessisch Lichtenau","addr:housenumber":"10","addr:postcode":"37235","addr:street":"Große Steine Weg","caravans":"no","group_only":"yes","name":"Haus der Jugend","phone":"+49 5602 5821","tents":"yes","website":"http://www.hdj-reichenbach.de/"}},"1283415620":{"location":[51.0045847,9.6929518],"ct":"DE","tp":"CR","ts":"2024-05-15T22:42:48Z","tX":539,"tY":342,"tags":{"caravan_site":"motorhome_stopover","fee":"no","name":"Stellplatz Vor der Gasse","sanitary_dump_station":"yes","water_point":"yes"}},"2896322114":{"location":[51.000385,9.7211935],"ct":"DE","tp":"SD","ts":"2020-06-26T18:15:06Z","tX":539,"tY":342,"tags":{"access":"customers","description":"Trinkwasser gegen Gebühr 80 ltr. für 1€ nach 2 Minuten schaltet Anlage ab.","fee":"no","operator":"Stadt Rotenburg","sanitary_dump_station:accepted":"black_water;tank_chemicals","water_point":"yes"}},"8824063858":{"location":[50.9697291,9.7901174],"ct":"DE","tp":"CR","ts":"2024-03-22T21:43:10Z","tX":539,"tY":342,"tags":{"object:city":"Bebra","object:country":"DE","object:housenumber":"2","object:postcode":"36179","object:street":"Bei der Laupfütze","power_supply":"no","sanitary_dump_station":"no","water_point":"no"}},"11526055086":{"location":[51.0141009,9.8133262],"ct":"DE","tp":"CR","ts":"2024-01-17T20:04:42Z","tX":539,"tY":342,"tags":{"addr:city":"Bebra","addr:housenumber":"7","addr:postcode":"36179","addr:street":"Rosweg","internet_access":"no","power_supply":"yes","website":"https://park4night.com/de/place/324188"}},"6657316141":{"location":[50.9591898,9.788143],"ct":"DE","tp":"SD","ts":"2022-08-08T17:06:18Z","tX":539,"tY":342,"tags":{"access":"yes","fee":"no","note":"Frischwasser Versorgung 1€ ca. 80 ltr 10 cent  ca. 10 ltr. - Es ist sehr schwierig hier Abwasser aus dem Bord Tank zu Entsorgen, da der Gulli direkt an der Holiday Clean Säule liegt. Zudem ist es noch abschüssig.","operator":"Stadt Bebra","water_point":"yes"}},"8964128802":{"location":[51.0046597,9.6929948],"ct":"DE","tp":"SD","ts":"2024-05-15T22:42:48Z","tX":539,"tY":342,"tags":{"addr:street":"Vor der Gasse, Rotenburg-Braach a.d. Fulda"}}}