{"15727129":{"location":[50.9503854,9.4960784],"ct":"DE","tp":"CS","ts":"2024-12-28T17:34:35Z","tX":539,"tY":343,"tags":{"access":"customers","addr:city":"Knüllwald","addr:country":"DE","addr:housenumber":"25","addr:postcode":"34593","addr:street":"Burgstraße","addr:suburb":"Wallenstein","camp_site":"reception","caravans":"yes","email":"info@burgwallenstein.de","internet_access":"no","name":"Campingplatz Wallenstein","note":"May until September","operator":"Familie Zinn","payment:coins":"yes","payment:debit_cards":"yes","payment:notes":"yes","phone":"+49 5686 395","power_supply":"yes","reservation":"recommended","sanitary_dump_station":"customers","shower":"yes","static_caravans":"yes","tents":"yes","toilets":"yes","website":"https://burgwallenstein.de/campingplatz-zinn-wallenstein/","wheelchair":"yes"}},"30620150":{"location":[50.8141678,9.5153223],"ct":"DE","tp":"CS","ts":"2024-12-13T20:54:10Z","tX":539,"tY":343,"tags":{"addr:city":"Kirchheim","addr:country":"DE","addr:housenumber":"20","addr:postcode":"36275","addr:street":"Brunnenstraße","addr:suburb":"Reimboldshausen","capacity":"450","email":"info@campseepark.de","fax":"+49 6628 8664","fee":"yes","internet_access":"wlan","internet_access:fee":"yes","name":"Campingplatz SeePark","opening_hours":"Mo-Su 07:00-13:00,15:00-22:00","operator":"Heinrich Hartung","payment:cash":"yes","payment:debit_cards":"yes","payment:mastercard":"yes","phone":"+49 6628 1525","source":"http://www.campseepark.de/","source:date":"2018-06-11","tents":"yes","website":"http://www.campseepark.de/"}},"176178184":{"location":[50.7872588,9.4960531],"ct":"DE","tp":"CS","ts":"2016-08-22T23:03:29Z","tX":539,"tY":343,"tags":{"name":"Campingplatz Silbersee"}},"217645616":{"location":[50.7686578,9.69544],"ct":"DE","tp":"CR","ts":"2025-03-18T23:14:29Z","tX":539,"tY":343,"tags":{"capacity":"2","caravan_site":"motorhome_stopover","caravan_site:type":"community_centre","fee":"no","name":"Wohnmobilstellplatz Bürgerhaus Haunetal-Neukirchen","power_supply":"yes","power_supply:fee":"yes","sanitary_dump_station":"no","surface":"paving_stones","water_point":"no"}},"226720204":{"location":[50.7395657,9.6707948],"ct":"DE","tp":"CS","ts":"2025-05-19T13:14:46Z","tX":539,"tY":343,"tags":{"addr:city":"Haunetal","addr:country":"DE","addr:housenumber":"22","addr:postcode":"36166","addr:street":"Hohenwehrdaer Straße","addr:suburb":"Wehrda","caravans":"yes","fax":"+49 6673 919311","name":"Ferienpark Wehrda","operator":"Iris Helfrich","phone":"+49 6673 919310","source":"http://www.ferienpark-wehrda.de/","source:date":"2015-10-28","tents":"yes","website":"http://www.ferienpark-wehrda.de/"}},"242867683":{"location":[50.8539842,9.7027683],"ct":"DE","tp":"CS","ts":"2013-10-20T19:19:43Z","tX":539,"tY":343,"tags":{"email":"guenter@mini-man.de","name":"Kanu-Wanderer Hersfeld 1986 e.V.","website":"http://www.kanuwanderer-hersfeld.de"}},"970995149":{"location":[50.9507538,9.4923211],"ct":"DE","tp":"CR","ts":"2024-12-28T17:34:35Z","tX":539,"tY":343,"tags":{"capacity":"3","caravan_site":"motorhome_stopover","caravan_site:type":"camp_site","charge":"15 EUR","fee":"yes","fee:conditional":"no @ 08:00-20:00","internet_access":"no","name":"Wohnmobilstellplatz Burg Wallenstein","power_supply":"yes","power_supply:fee":"no","sanitary_dump_station":"no","water_point":"yes","website":"https://burgwallenstein.de/campingplatz-zinn-wallenstein/"}},"1064529006":{"location":[50.8843395,9.6692433],"ct":"DE","tp":"CR","ts":"2016-04-12T11:21:21Z","tX":539,"tY":343,"tags":{"capacity":"20","email":"hotel@glimmesmuehle.de","fee":"no","name":"Reisemobilstellplatz Hotel Glimmesmühle","phone":"+49 6621 3081","power_supply":"yes","website":"http://www.glimmesmuehle.de/hotel.html"}},"1347069320":{"location":[50.8683282,9.704251],"ct":"DE","tp":"CR","ts":"2025-01-23T17:16:20Z","tX":539,"tY":343,"tags":{"capacity":"4","caravan_site":"motorhome_stopover","caravan_site:type":"parking_lot;town","description":"Closed at Lullusfest","drinking_water":"no","fee":"yes","name":"Stellplatz \"Am Markt\" - Bad Hersfeld","opening_hours":"24/7; \"Lullusfest off\"","power_supply":"no","sanitary_dump_station":"no","toilets":"no"}},"1347069321":{"location":[50.8678864,9.7295617],"ct":"DE","tp":"CR","ts":"2024-12-29T12:11:40Z","tX":539,"tY":343,"tags":{"capacity":"2","caravan_site":"motorhome_stopover","caravan_site:type":"swimming_pool","fee":"no","name":"Stellplatz \"Kolpingstraße\" - Bad Hersfeld","operator":"Stadt Bad Hersfeld","power_supply":"yes","sanitary_dump_station":"no","seasonal":"no","website":"https://www.badhersfeld-tourismus.de/uebernachtung-kulinarik/wohnmobilstellplaetze"}},"5602147195":{"location":[50.8678014,9.7295631],"ct":"DE","tp":"CR","ts":"2018-05-07T12:04:59Z","tX":539,"tY":343,"tags":{"capacity":"4","operator":"Stadt Bad Hersfeld","power_supply":"yes"}},"7626713385":{"location":[50.8578114,9.6977837],"ct":"DE","tp":"CR","ts":"2025-05-16T20:43:38Z","tX":539,"tY":343,"tags":{"capacity":"5","caravan_site":"motorhome_stopover","caravan_site:type":"town;sports_centre","fee":"no","name":"Wohnmobilstellplatz Auf der Unteraue","object:city":"Bad Hersfeld","object:housenumber":"1","object:postcode":"36251","object:street":"Auf der Unteraue","opening_hours":"24/7","operator":"Stadt Bad Hersfeld","power_supply":"no","sanitary_dump_station":"no","seasonal":"no","toilets":"no","water_point":"no","website":"https://www.badhersfeld-tourismus.de/uebernachtung-kulinarik/wohnmobilstellplaetze"}},"12460758977":{"location":[50.8746663,9.700225],"ct":"DE","tp":"CR","ts":"2024-12-29T12:11:40Z","tX":539,"tY":343,"tags":{"caravan_site":"motorhome_stopover","caravan_site:type":"swimming_pool;town","charge":"6.25 EUR","description":"Closed at Lullusfest","fee":"yes","name":"Stellplatz \"Am Schwimmbad/Geistalbad\" - Bad Hersfeld","opening_hours":"24/7; \"Lullusfest off\"","power_supply":"yes","power_supply:charge":"0.50 EUR/KWh","power_supply:fee":"yes","seasonal":"no","water_point":"yes","water_point:charge":"1 EUR/80 liter","water_point:fee":"yes","website":"https://web4.deskline.net/badhersfeld/de/infosystem/detail/DE1/69369c15-1e26-47dd-bc92-14a981feb989/stellplatz_am_schwimmbadgeistalbad?limINFOSYSTEMTOPICS=00b0fe39-b181-42f0-b701-5650f417ec6d"}}}