{"41077941":{"location":[50.381094,9.7137498],"ct":"DE","tp":"CS","ts":"2024-07-31T11:32:42Z","tX":539,"tY":345,"tags":{"addr:city":"Kalbach","addr:country":"DE","addr:housenumber":"7","addr:postcode":"36148","addr:street":"Birkenweg","addr:suburb":"Heubach","fee":"yes","name":"Campingplatz Birkenhain","phone":"+4997421404","website":"https://birkenhain-camping.de/Willkommen"}},"41339553":{"location":[50.3730495,9.7707104],"ct":"DE","tp":"CS","ts":"2024-10-08T12:39:00Z","tX":539,"tY":345,"tags":{"addr:city":"Motten","addr:country":"DE","addr:housenumber":"36","addr:postcode":"97786","addr:street":"Zum Schmelzhof","addr:suburb":"Kothen","email":"info@camping-rhoenperle.de","name":"Campingplatz Rhönperle","phone":"+49 9748 450","source":"website","website":"https://www.camping-rhoenperle.de/de/home"}},"160126888":{"location":[50.3387742,9.7103679],"ct":"DE","tp":"CS","ts":"2025-03-24T01:11:00Z","tX":539,"tY":345,"tags":{"email":"Horst.Krischeu@campingplatz-sinntal-oberzell.de","name":"Campingplatz Sinntal-Oberzell","phone":"+49 6664 6161","sanitary_dump_station":"customers","website":"https://www.campingplatz-sinntal-oberzell.de/"}},"177716319":{"location":[50.3055442,9.7486921],"ct":"DE","tp":"CR","ts":"2024-08-14T12:17:54Z","tX":539,"tY":345,"tags":{"capacity":"10","email":"tourismus@bad-brueckenau.de","fee":"yes","internet_access":"no","name":"Reisemobilstellplatz im Schlosspark","operator":"Stadt Bad Brückenau","phone":"+49 800 9911999","power_supply":"yes","sanitary_dump_station":"yes","tents":"no","toilets":"no","water_point":"yes","website":"https://www.bad-brueckenau.de/de/index.cfm?fuseaction=gaeste&rubrik=wohnmobile&id=57","wheelchair":"yes"}},"290131956":{"location":[50.3067182,9.78598],"ct":"DE","tp":"CR","ts":"2025-01-16T12:37:07Z","tX":539,"tY":345,"tags":{"alt_name":"Bahnhof Camping","capacity":"20","caravan_site":"motorhome_stopover","caravan_site:type":"railway_station","charge":"3 EUR","email":"tourismus@bad-brueckenau.de","fee":"yes","internet_access":"no","name":"Reisemobilstellplatz Buchwaldstraße","opening_hours":"24/7","operator":"Stadt Bad Brückenau","phone":"+49 9741 80411","power_supply":"yes","power_supply:charge":"2 EUR/8 hours","sanitary_dump_station":"no","seasonal":"no","tents":"no","website":"https://www.bad-brueckenau.de/wohnmobil/stellplatz-buchwaldstrasse-id_446/"}},"343007365":{"location":[50.3675935,9.6076082],"ct":"DE","tp":"CS","ts":"2024-07-01T18:33:35Z","tX":539,"tY":345,"tags":{"caravans":"yes","contact:email":"info@campingplatz-hutten.de","contact:phone":"+49 6661 2424","drinking_water":"yes","internet_access":"wlan","internet_access:fee":"yes","name":"Campingplatz Hutten-Heiligenborn","power_supply":"yes","sanitary_dump_station":"customers","shower":"yes","source":"http://www.campingplatz-hutten.de","tents":"yes","toilets":"yes","wheelchair":"limited"}},"495305892":{"location":[50.3067427,9.7859531],"ct":"DE","tp":"CR","ts":"2021-01-15T16:38:51Z","tX":539,"tY":345,"tags":{"capacity":"20","email":"tourismus@bad-brueckenau.de","fee":"yes","internet_access":"no","name":"Reisemobilstellplatz Buchwaldstraße","operator":"Stadt Bad Brückenau","phone":"+49 9741 80411","power_supply":"yes","tents":"no","website":"https://www.bad-brueckenau.de/de/index.cfm?fuseaction=gaeste&rubrik=wohnmobile&id=56"}},"495305894":{"location":[50.3119574,9.7974237],"ct":"DE","tp":"CR","ts":"2023-01-21T16:52:59Z","tX":539,"tY":345,"tags":{"capacity":"10","email":"tourismus@bad-brueckenau.de","fee":"yes","internet_access":"no","name":"Reisemobilstellplatz am Spaßbad Sinnflut","operator":"Stadt Bad Brückenau","phone":"+49 9741 804-11","power_supply":"yes","tents":"no","website":"https://www.bad-brueckenau.de/de/index.cfm?fuseaction=gaeste&rubrik=wohnmobile&id=55","wheelchair":"yes"}},"796545870":{"location":[50.4198499,9.8320413],"ct":"DE","tp":"CS","ts":"2023-11-15T14:56:30Z","tX":539,"tY":345,"tags":{"caravans":"yes","group_only":"yes","name":"Zeltplatz am Hauck","operator":"Evangelisch-Lutherische Kirchengemeinde Dalherda","tents":"yes","website":"https://zeltplatz-am-hauck.de/"}},"1037772797":{"location":[50.3978718,9.7695219],"ct":"DE","tp":"CR","ts":"2025-01-09T14:42:10Z","tX":539,"tY":345,"tags":{"access":"yes","caravan_site":"motorhome_stopover","caravan_site:type":"village","caravans":"no","fee":"no","maxstay":"5 days","motorhome":"yes","name":"Wohnmobilstellplatz Dorfplatz Motten","power_supply":"yes","reservation":"no","sanitary_dump_station":"no","surface":"compacted","water_point":"yes","website":"https://www.motten.de/rathaus/satzungen--verordnungen/2908.Kommunale-Satzungen-und-Verordnungen.html"}},"2526311613":{"location":[50.3055251,9.7488661],"ct":"DE","tp":"SD","ts":"2024-09-10T17:23:27Z","tX":539,"tY":345,"tags":{"fee":"no"}},"2787312477":{"location":[50.349364,9.5302293],"ct":"DE","tp":"CR","ts":"2023-01-21T17:13:35Z","tX":539,"tY":345,"tags":{"capacity":"5","check_date:website":"2021-03-01","fee":"no","name":"Reisemobilstellplatz Schlüchtern","phone":"+49 6661 85-0","power_supply":"no","website":"https://www.schluechtern.de/freizeit-tourismus/gastgeberverzeichnis/detail/rastanlage-distelrasen/","wheelchair":"yes"}},"5777129860":{"location":[50.3120014,9.7975343],"ct":"DE","tp":"SD","ts":"2018-07-22T14:29:35Z","tX":539,"tY":345,"tags":{}},"12486401280":{"location":[50.4178405,9.8299795],"ct":"DE","tp":"CR","ts":"2025-01-09T12:41:00Z","tX":539,"tY":345,"tags":{"capacity":"3","caravan_site":"motorhome_stopover","caravan_site:type":"village","dog":"yes","ele":"671","fee":"no","maxheight":"4","maxlength":"8","maxweight":"8","name":"Am Bürgerhaus Dalherda","power_supply":"no","sanitary_dump_station":"no","website":"https://info.wohnmobilstellplatz-rhoen.de/alle/65:am-buergerhaus-dalherda-in-36129-dalherda"}}}