{"11740465":{"location":[49.9586774,9.7629478],"ct":"DE","tp":"CS","ts":"2020-10-10T13:59:21Z","tX":539,"tY":347,"tags":{"addr:city":"Karlstadt","addr:country":"DE","addr:housenumber":"6","addr:postcode":"97753","addr:street":"Baggertsweg","caravans":"yes","email":"info@campingplatz-karlstadt.de","fax":"+49 9353 981271","fee":"yes","internet_access":"yes","name":"Campingplatz Karlstadt","phone":"+49 9353 996107","power_supply":"yes","shower":"yes","tents":"yes","toilets":"yes","website":"https://www.campingplatz-karlstadt.de/"}},"26782201":{"location":[49.8827487,9.8359169],"ct":"DE","tp":"CR","ts":"2024-05-14T22:17:59Z","tX":539,"tY":347,"tags":{"caravan_site":"motorhome_stopover","caravan_site:type":"river","charge":"12 EUR","fee":"yes","internet_access":"no","name":"Reisemobilstellplatz Main-Aue","operator":"Gemeinde Thüngersheim","permanent_camping":"no","power_supply":"yes","sanitary_dump_station":"no","toilets":"no","website":"https://www.thuengersheim.de/index.php?id=130"}},"27892795":{"location":[50.0613772,9.6954299],"ct":"DE","tp":"CS","ts":"2025-01-24T23:20:03Z","tX":539,"tY":347,"tags":{"addr:city":"Gemünden am Main","addr:country":"DE","addr:housenumber":"7","addr:postcode":"97737","addr:street":"Duivenallee","email":"poststelle@campingplatz-saaleinsel.de","fax":"+49 9351 1093","name":"Campingplatz Saale-Insel","operator":"Stadtverwaltung Gemünden am Main","phone":"+49 9351 8574","source":"website","website":"http://www.campingplatz-saaleinsel.de/"}},"28706712":{"location":[49.8970608,9.8261341],"ct":"DE","tp":"CS","ts":"2021-06-02T16:46:23Z","tX":539,"tY":347,"tags":{"addr:city":"Zellingen","addr:housenumber":"7","addr:postcode":"97225","addr:street":"Badstraße","email":"info@maincampresort.de","name":"Maincampresort Zellingen","phone":"+49 9364 8121323","website":"https://maincampresort.de"}},"30060704":{"location":[50.0561655,9.6868305],"ct":"DE","tp":"CS","ts":"2023-03-16T18:46:12Z","tX":539,"tY":347,"tags":{"addr:city":"Gemünden a. Main","addr:country":"DE","addr:postcode":"97737","addr:street":"Lindenwiese","name":"Campingplatz KSC Gemünden","phone":"+49 160 96870274","website":"https://www.ksc-gemuenden.de/content/campingplatz/","wheelchair":"no"}},"34571507":{"location":[49.9988623,9.5841256],"ct":"DE","tp":"CS","ts":"2025-03-14T04:15:08Z","tX":539,"tY":347,"tags":{"addr:city":"Lohr am Main","addr:country":"DE","addr:housenumber":"12","addr:postcode":"97816","addr:street":"Jahnstraße","caravans":"yes","email":"info@camping-lohr.de","name":"Campingplatz Mainufer","operator":"TSV 1846 Lohr am Main e.V.","phone":"+49 9352 89392","source":"website","tents":"yes","website":"http://www.tsv-lohr.de"}},"52122886":{"location":[50.0515496,9.6563424],"ct":"DE","tp":"CS","ts":"2020-09-14T19:08:29Z","tX":539,"tY":347,"tags":{"addr:city":"Gemünden am Main","addr:country":"DE","addr:postcode":"97737","addr:street":"Schönrainstraße","addr:suburb":"Hofstetten","contact:email":"info@spessart-camping.de","contact:phone":"+49 9351 8645","contact:website":"https://www.spessart-camping.de/","name":"Spessart Camping Schönrain","source":"website"}},"54583424":{"location":[49.8488459,9.5994602],"ct":"DE","tp":"CR","ts":"2022-10-22T21:59:34Z","tX":539,"tY":347,"tags":{"addr:city":"Marktheidenfeld","addr:postcode":"97828","addr:street":"Georg-Mayr-Straße","capacity":"30","fee":"yes","internet_access":"wlan","name":"Stellplatz Martinswiese","operator":"Stadt Marktheidenfeld","power_supply":"yes","sanitary_dump_station":"yes","toilets":"yes","toilets:wheelchair":"yes","water_point":"yes","website":"https://www.stadt-marktheidenfeld.de/kultur-tourismus/cingwohnmobil/wohnmobilstellplatze","wheelchair":"limited"}},"65600182":{"location":[49.9125958,9.5840285],"ct":"DE","tp":"CS","ts":"2023-07-15T15:42:13Z","tX":539,"tY":347,"tags":{"access":"customers","addr:city":"Neustadt am Main","addr:country":"DE","addr:postcode":"97845","addr:street":"Campingplatz","caravans":"yes","dog":"yes","email":"camp@mainglueck.com","fee":"yes","name":"Mainglück Camping","phone":"+49 177 2488 185","shower":"yes","tents":"yes","website":"https://mainglueck.com/"}},"66724032":{"location":[49.8909175,9.5956824],"ct":"DE","tp":"CS","ts":"2023-11-03T23:46:57Z","tX":539,"tY":347,"tags":{"addr:city":"Marktheidenfeld","addr:country":"DE","addr:housenumber":"9","addr:postcode":"97828","addr:street":"Mainstraße","addr:suburb":"Zimmern","caravans":"yes","email":"cafe-mainland@t-online.de","name":"Camping Mainland","phone":"+49 9391 2558","shower":"yes","tents":"yes","toilets":"yes","website":"https://www.cafe-mainland.de/","wheelchair":"no"}},"104001706":{"location":[49.9899986,9.5542676],"ct":"DE","tp":"CS","ts":"2024-10-08T09:36:06Z","tX":539,"tY":347,"tags":{"addr:city":"Lohr am Main","addr:country":"DE","addr:housenumber":"14","addr:postcode":"97816","addr:street":"Am Forellenhof","name":"Campingplatz Forellenhof","operator":"Walter Höfling","phone":"+49 9352 2865","phone:alternative":"+49 9352 600239","source":"Bing","website":"http://www.forellenhof-lohr-main.de"}},"363822927":{"location":[50.0587412,9.6891767],"ct":"DE","tp":"CR","ts":"2023-03-16T17:55:54Z","tX":539,"tY":347,"tags":{"capacity":"5","description":"Zu zahlen an Rezeption Campingplatz","email":"touristinformation@gemuenden.bayern.de","fax":"+49 9351 8001 1399","fee":"yes","maxstay":"2 days","name":"Reisemobilstellplatz Lindenwiese - Platz 1","opening_hours":"Apr-Sep: Mo-Su, PH 00:00-24:00","operator":"Stadt Gemünden a. Main","phone":"+49 9351 8001 1300","power_supply":"no","website":"https://www.stadt-gemuenden.de/seite/de/main-spessart/0816/msr/Wohnmobilstellplaetze.html","wheelchair":"yes"}},"363822932":{"location":[50.0569563,9.6879371],"ct":"DE","tp":"CR","ts":"2024-08-04T22:01:38Z","tX":539,"tY":347,"tags":{"capacity":"5","caravan_site":"motorhome_stopover","caravan_site:type":"town;river","charge":"7 EUR","description":"Zu zahlen an Rezeption Campingplatz","fee":"yes","maxstay":"2 days","name":"Reisemobilstellplatz Lindenwiese - Platz 2","opening_hours":"Apr-Sep: Mo-Su, PH 00:00-24:00","power_supply":"no"}},"563391224":{"location":[49.8497774,9.5104727],"ct":"DE","tp":"CS","ts":"2020-01-06T14:54:31Z","tX":539,"tY":347,"tags":{"caravans":"no","group_only":"yes","name":"RSV-Esselbach","shower":"yes","tents":"yes","toilets":"yes","website":"http://www.rsv-esselbach.de/zeltplatz-eventgelaende/"}},"595616244":{"location":[49.9605998,9.7598723],"ct":"DE","tp":"CR","ts":"2025-01-06T01:26:31Z","tX":539,"tY":347,"tags":{"capacity":"17","caravan_site":"motorhome_stopover","caravan_site:type":"river","charge":"10 EUR/24 hours","contact:email":"info@stadtwerke-karlstadt.de","contact:phone":"+49 9353 7902-0","fee":"yes","internet_access":"wlan","name":"Stellplatz Karlstadt","operator":"Stadtwerke Karlstadt","power_supply":"yes","power_supply:charge":"0.50 EUR/KWh","power_supply:fee":"yes","sanitary_dump_station":"yes","water_point":"yes","water_point:charge":"1 EUR/80 liter","water_point:fee":"yes","website":"https://www.stadtwerke-karlstadt.de/sites/gensite.asp?SID=cms260920181013288896905&Art=0322"}},"782502287":{"location":[49.8918849,9.5738338],"ct":"DE","tp":"CR","ts":"2023-05-10T12:24:36Z","tX":539,"tY":347,"tags":{"addr:city":"Rothenfels","addr:postcode":"97851","addr:street":"Käsreißenweg","capacity":"8","fee":"no","name":"Wohnmobilstellplatz Rothenfels","power_supply":"no","sanitary_dump_station":"no","surface":"asphalt"}},"785607551":{"location":[49.8861029,9.5708049],"ct":"DE","tp":"CS","ts":"2022-04-03T20:37:23Z","tX":539,"tY":347,"tags":{"caravans":"no","email":"Cornelia.Dietrich@lramsp.de","group_only":"yes","kitchen":"yes","name":"Jugendzeltplatz Windheim","phone":"+49 9353 7931541","tents":"yes","website":"https://www.hafenlohr.de/Tourismus/zeltplatz.html"}},"1263882104":{"location":[49.994698,9.5800454],"ct":"DE","tp":"CR","ts":"2024-03-19T16:21:26Z","tX":539,"tY":347,"tags":{"capacity":"21","caravans":"no","charge":"10 EUR","fee":"yes","name":"Wohnmobilstellplatz Mainlände","note":"Von Mitte Juli bis Anfang August gesperrt wegen Volksfest. V/E von November bis März außer Betrieb wegen Hochwassergefahr.","operator":"Stadt Lohr am Main","power_supply":"yes","power_supply:charge":"1 EUR/4 hours","sanitary_dump_station":"yes","water_point":"yes","water_point:charge":"1 EUR/100liter","website":"https://www.lohr.de/tourismus-und-kultur/planen-buchen/unterkuenfte/wohnmobile"}},"1277638032":{"location":[49.8831366,9.6141375],"ct":"DE","tp":"CS","ts":"2024-08-30T21:27:00Z","tX":539,"tY":347,"tags":{"name":"Jugendzeltplatz Fuchsenmühle","operator":"Fam. Karl Ludwig","phone":"+49 9391 75 96","reservation":"required","website":"https://www.landkreis-fuerth.de/fileadmin/_migrated/content_uploads/ZeltplaetzeVerzeichnis_Franken_01.pdf"}},"1297580797":{"location":[49.894684,9.8269485],"ct":"DE","tp":"CR","ts":"2023-03-16T21:02:42Z","tX":539,"tY":347,"tags":{"capacity":"6","check_date:website":"2021-08-14","contact:phone":"+49 9364 4454","description":"Fäkalienentsorgung an der Kläranlage Retzbach.","drinking_water":"yes","fee":"no","internet_access":"no","name":"Wohnmobilstellplatz Zellingen","operator":"Gemeinde Zellingen","power_supply":"yes","sanitary_dump_station":"no","tents":"no","water_point":"yes","website":"https://www.markt-zellingen.de/seite/ze/main-spessart/038:236/-/Wohnmobilstellplatz.html"}},"1349023188":{"location":[49.8945679,9.8270526],"ct":"DE","tp":"CR","ts":"2025-01-06T16:06:20Z","tX":539,"tY":347,"tags":{"capacity":"6","caravan_site":"motorhome_stopover","caravan_site:type":"river","check_date:website":"2021-08-14","contact:phone":"+49 9364 4454","description":"Fäkalienentsorgung an der Kläranlage Retzbach.","drinking_water":"yes","fee":"no","internet_access":"no","name":"Wohnmobilstellplatz Zellingen","operator":"Gemeinde Zellingen","power_supply":"yes","sanitary_dump_station":"no","services:charge":"3 EUR","tents":"no","water_point":"yes","website":"https://www.markt-zellingen.de/seite/ze/main-spessart/038:236/-/Wohnmobilstellplatz.html"}},"1349108583":{"location":[49.9870304,9.8042153],"ct":"DE","tp":"CR","ts":"2025-01-07T02:38:57Z","tX":539,"tY":347,"tags":{"capacity":"7","caravan_site":"motorhome_stopover","caravan_site:type":"winery","charge":"10 EUR","check_in":"-21:00","dog":"permit","email":"ge-jonas@t-online.de","fee":"yes","maxlength":"10","name":"Wohnmobilstellplatz Winzerfamilie Jonas Eußenheim","phone":"+49 9353 8988","power_supply":"yes","power_supply:charge":"3 EUR","power_supply:fee":"yes","sanitary_dump_station":"yes","shower":"no","water_point":"yes","website":"https://www.winzerfamilie-jonas.de/wohnmobilstellplatz"}},"9026984265":{"location":[50.0449456,9.5124476],"ct":"DE","tp":"CR","ts":"2025-05-01T21:42:48Z","tX":539,"tY":347,"tags":{"capacity":"2","contact:phone":"+49 9355 972111","maxstay":"2 days","name":"Wohnmobilstellplatz Partenstein","operator":"Verwaltungsgemeinschaft Partenstein","water_point":"no","website":"https://www.spessart-mainland.de/wohnmobilstellplaetze.html#/de/spessart-mainland/default/detail/Hotel/h_27275/wohnmobilstellplatz-partenstein?From=28.08.2021&Until=04.09.2021&people=2"}},"5979554614":{"location":[49.9608263,9.759705],"ct":"DE","tp":"SD","ts":"2018-10-12T18:04:49Z","tX":539,"tY":347,"tags":{}},"6764064744":{"location":[49.9947828,9.5800124],"ct":"DE","tp":"SD","ts":"2024-03-18T20:21:34Z","tX":539,"tY":347,"tags":{"access":"yes","fee":"no","sanitary_dump_station:chemical_toilet":"yes","sanitary_dump_station:fee":"no","sanitary_dump_station:gravity":"yes","sanitary_dump_station:grey_water":"yes","sanitary_dump_station:suction":"no","water_point":"yes"}},"7903193903":{"location":[50.0522738,9.656452],"ct":"DE","tp":"SD","ts":"2024-08-10T12:38:15Z","tX":539,"tY":347,"tags":{"access":"private","water_point":"yes"}}}