{"104669027":{"location":[49.4648654,9.7804716],"ct":"DE","tp":"CS","ts":"2024-04-10T07:50:14Z","tX":539,"tY":349,"tags":{"access":"customers","addr:city":"Bad Mergentheim","addr:housenumber":"1","addr:postcode":"97980","addr:street":"Willinger Tal","capacity:caravans":"70","capacity:persons":"200","capacity:tents":"30","caravans":"yes","charge":"yes","description":"Campingplatz für Wohnmobile, Wohnwägen, sonstige Reisemobile und es gibt auch eine große Gruppenwiese mit Feuerstelle für Gruppen. Zudem haben wir immer einen Platz frei für Radfahrer/Motorradfahrer mit Zelt.","dog":"leashed","drinking_water":"yes","email":"campingplatz@silvago24.de","fee":"yes","image":"https://stellplatz.info/img/500881/wohnmobilstellplatz-natur-campingplatz-bad-mergentheim-588161.jpg?h=748&w=1123&mode=crop&scale=canvas&autorotate=true","internet_access":"yes","internet_access:fee":"no","motorhome":"yes","name":"Naturcampingplatz Bad Mergentheim","opening_hours":"9:00-20:00","operator":"Silvago24 GmbH - A. Xhema & S.Zuzolo","payment:cards":"yes","payment:cash":"yes","payment:paypal":"yes","phone":"+49 7931 5329394","power_supply":"yes","reservation":"yes","sanitary_dump_station":"yes","shower":"yes","start_date":"2020.07.15","static_caravans":"yes","tents":"yes","toilets":"yes","website":"https://campingplatz-bad-mergentheim.de"}},"381947174":{"location":[49.5904267,9.6495987],"ct":"DE","tp":"CS","ts":"2024-09-03T18:09:20Z","tX":539,"tY":349,"tags":{"capacity:persons":"100","caravans":"no","email":"jugendzeltplatz-dittwar@kath-mose.de","fee":"yes","group_only":"yes","name":"Jugendzeltplatz Dittwar","phone":"+49 6261 7301","tents":"yes","website":"https://www.jugendzeltplatz-dittwar.de/","wikidata":"Q67201510"}},"428257814":{"location":[49.5589658,9.7007697],"ct":"DE","tp":"CR","ts":"2024-12-21T17:47:31Z","tX":539,"tY":349,"tags":{"caravan_site":"motorhome_stopover","caravan_site:type":"swimming_pool","contact:phone":"+49 9343 501-5332","description":"Entsorgung von Toilette und Grauwasser an der Kläranlage in Gerlachsheim möglich.","dog":"yes","fee":"no","name":"Wohnmobilstellplatz Lauda (Badstraße)","power_supply":"no","sanitary_dump_station":"no","seasonal":"no","water_point":"no","website":"https://www.lauda-koenigshofen.de/tourismus/wohnmobilstellplaetze/wohnmobilstellplatz+lauda+badstrasse"}},"757479565":{"location":[49.3829786,9.8305853],"ct":"DE","tp":"CS","ts":"2021-09-07T15:28:54Z","tX":539,"tY":349,"tags":{"addr:city":"Mulfingen","addr:housenumber":"1","addr:postcode":"74673","addr:street":"Mönchswald","addr:suburb":"Hollenbach","cabins":"yes","caravans":"yes","email":"info@waldcamping-hollenbacher-see.de","fax":"+4979386349999","name":"Waldcamping Hollenbacher See","permanent_camping":"yes","phone":"+4979387272","shower":"yes","tents":"yes","toilets":"yes","website":"https://www.waldcamping-hollenbacher-see.de"}},"973169205":{"location":[49.4931874,9.793527],"ct":"DE","tp":"CR","ts":"2024-03-19T15:49:05Z","tX":539,"tY":349,"tags":{"capacity":"30","caravans":"no","contact:phone":"+49 7931 574815","fee":"yes","internet_access":"wlan","name":"Wohnmobilstellplatz an der Solymar Therme","operator":"Stadt Bad Mergentheim","power_supply":"yes","sanitary_dump_station":"yes","sanitary_dump_station:chemical_toilet":"yes","sanitary_dump_station:gravity":"yes","sanitary_dump_station:grey_water":"yes","tents":"no","water_point":"yes","website":"https://visit.bad-mergentheim.de/de/reiseplanung-service/unterkunftsverzeichnis/GER00020060598038667/","wikidata":"Q67202179","wikimedia_commons":"Category:Wohnmobilstellplatz Bad Mergentheim"}},"1305189428":{"location":[49.4905108,9.8135671],"ct":"DE","tp":"CR","ts":"2024-08-02T07:06:04Z","tX":539,"tY":349,"tags":{"addr:city":"Igersheim","addr:postcode":"97999","addr:street":"Am Kitzberg","area":"yes","capacity":"6","fee":"no","internet_access":"no","name":"Am Kitzberg","operator":"Gemeinde Igersheim","power_supply":"no","sanitary_dump_station":"no","traffic_sign":"DE:314,1048-17","water_point":"no"}},"1312402865":{"location":[49.4002479,9.5034],"ct":"DE","tp":"CR","ts":"2024-12-29T22:40:36Z","tX":539,"tY":349,"tags":{"addr:city":"Ravenstein","addr:postcode":"74747","addr:street":"Ahornweg","capacity":"3","caravan_site":"motorhome_stopover","caravan_site:type":"village","fee":"no","name":"Ravenstein","power_supply":"yes","sanitary_dump_station":"no"}},"6171665491":{"location":[49.4920361,9.7919768],"ct":"DE","tp":"SD","ts":"2018-12-29T21:51:21Z","tX":539,"tY":349,"tags":{}}}