{"27038013":{"location":[48.9758736,9.6684107],"ct":"DE","tp":"CS","ts":"2023-03-03T01:12:55Z","tX":539,"tY":351,"tags":{"caravans":"yes","contact:email":"kontakt@camping-waldsee-murrhardt.de","contact:phone":"+49 7192 6436","contact:website":"http://camping-waldsee-murrhardt.de/","fee":"yes","name":"Campingplatz Waldsee","opening_hours":"Jan-Dec","shower":"yes","tents":"yes","toilets":"yes","website":"https://www.camping-waldsee-murrhardt.de","wheelchair":"limited"}},"32393183":{"location":[48.9545222,9.666431],"ct":"DE","tp":"CS","ts":"2024-06-01T19:54:18Z","tX":539,"tY":351,"tags":{"addr:city":"Murrhardt","addr:country":"DE","addr:housenumber":"22","addr:postcode":"71540","addr:street":"Tiefenmad","caravans":"yes","name":"Schönrain","nudism":"obligatory","operator":"Natursportbund Schwäbischer Wald e.V.","shower":"yes","tents":"yes","toilets":"yes","website":"https://www.nsb-murrhardt.de/","wheelchair":"limited"}},"33127496":{"location":[48.9725822,9.6284304],"ct":"DE","tp":"CS","ts":"2020-03-12T15:51:34Z","tX":539,"tY":351,"tags":{"caravans":"no","group_only":"yes","name":"Jugendzeltplatz Wahlenmühle","tents":"yes","website":"http://www.wahlenmuehle.de/index_dt.html"}},"37086124":{"location":[49.1526635,9.5001914],"ct":"DE","tp":"CS","ts":"2024-09-11T14:35:04Z","tX":539,"tY":351,"tags":{"name":"Seewiesen Homfeld"}},"39242116":{"location":[49.0387003,9.6227305],"ct":"DE","tp":"CS","ts":"2024-05-10T19:19:42Z","tX":539,"tY":351,"tags":{"addr:city":"Oberrot","addr:housenumber":"1","addr:postcode":"74420","addr:street":"Ofenberg","caravans":"yes","dog":"yes","name":"Campingplatz zum Ofenberg","note":"FKK-Anlage","nudism":"yes","permanent_camping":"yes","power_supply":"yes","shower":"yes","static_caravans":"yes","tents":"yes","toilets":"yes","washing_machine":"yes","website":"https://www.fkk-ofenberg.de/"}},"58487023":{"location":[49.1400096,9.5661406],"ct":"DE","tp":"CS","ts":"2019-08-31T10:35:54Z","tX":539,"tY":351,"tags":{"name":"Campingplatz Steinbacher Tal","website":"https://www.campingplatz-untersteinbach.de/"}},"150259663":{"location":[49.1175181,9.5090445],"ct":"DE","tp":"CS","ts":"2020-11-23T12:05:55Z","tX":539,"tY":351,"tags":{"addr:city":"Wüstenrot","addr:housenumber":"11","addr:postcode":"71543","addr:street":"Wendelshälden","contact:fax":"+4979452012","contact:phone":"+4979452454","name":"Campingplatz Maienfels","opening_hours":"24/7; Nov-Apr off","website":"http://www.camping-maienfels.de"}},"154532573":{"location":[49.097111,9.7423342],"ct":"DE","tp":"CS","ts":"2024-10-20T17:02:45Z","tX":539,"tY":351,"tags":{"caravans":"yes","name":"Am Steinbacher See","tents":"yes","website":"http://www.camping-schwaebisch-hall.de/index.html"}},"316028011":{"location":[49.1386347,9.5667752],"ct":"DE","tp":"CS","ts":"2019-08-31T10:35:54Z","tX":539,"tY":351,"tags":{"access":"private","caravans":"no","group_only":"yes","name":"Zeltlager der Sportkreisjugend Ludwigsburg","tents":"yes","website":"https://www.zeltlager-ustb.de/"}},"317817358":{"location":[49.1501695,9.5746716],"ct":"DE","tp":"CS","ts":"2021-05-01T10:06:15Z","tX":539,"tY":351,"tags":{"dog":"no","name":"FKK-Familiensportpark Simonsberg","nudism":"yes","operator":"BffL Stuttgart e.V."}},"326007362":{"location":[49.0712583,9.7702758],"ct":"DE","tp":"CR","ts":"2024-05-16T11:05:35Z","tX":539,"tY":351,"tags":{"addr:city":"Michelbach an der Bilz","capacity":"3","caravan_site":"motorhome_stopover","caravan_site:type":"sports_centre","fee":"no","name":"Wohnmobilstellplatz Rudolf-Then-Halle","operator":"Gemeinde Michelbach","sanitary_dump_station":"yes","source":"survey"}},"333424901":{"location":[49.1126806,9.6531809],"ct":"DE","tp":"CS","ts":"2019-08-25T10:10:56Z","tX":539,"tY":351,"tags":{"addr:city":"Michelfeld","addr:housenumber":"1","addr:place":"Baierbach","addr:postcode":"74545","capacity":"200","caravans":"no","contact:phone":"+49 791 7557877","drinking_water":"yes","email":"forst-schwaebisch-hall@lrasha.de","fridge":"yes","group_only":"yes","name":"Waldjugendzeltplatz Baierbacher Hof","operator":"Hospitalforst","shower":"yes","tents":"yes","toilets":"yes"}},"401029587":{"location":[48.9277765,9.6653843],"ct":"DE","tp":"CS","ts":"2024-06-12T11:17:53Z","tX":539,"tY":351,"tags":{"caravans":"no","email":"b.schniepp@rems-murr-kreis.de","group_only":"yes","name":"Waldjugendzeltplatz Häuptleswiese","operator":"Forstamt Rems-Murr-Kreis","shower":"yes","tents":"yes","toilets":"yes","website":"https://www.rems-murr-kreis.de/bauen-umwelt-verkehr/forst/waldjugendzeltplatz/"}},"430421270":{"location":[49.0024192,9.7658276],"ct":"DE","tp":"CR","ts":"2024-05-16T11:01:18Z","tX":539,"tY":351,"tags":{"addr:city":"Gaildorf","addr:postcode":"74405","addr:street":"Bleichgärten","capacity":"8","caravan_site":"motorhome_stopover","caravan_site:type":"sports_centre","description":"Stand 01/2023 -> Strom ist von November bis Februar abgestellt -> Ebenso die Ver und Entsorgung - Plätze sind etwas abschüssig","fee":"no","internet_access":"no","maxstay":"3 days","name":"Reisemobilstellplatz Gaildorf","operator":"Stadt Gaildorf","power":"free","power_supply":"yes","power_supply:fee":"no","sanitary_dump_station":"yes","surface":"gravel","tents":"no","toilets":"no","water_point":"yes","website":"https://www.gaildorf.de","wheelchair":"yes"}},"503565224":{"location":[49.0905652,9.4970613],"ct":"DE","tp":"CS","ts":"2024-08-31T20:46:42Z","tX":539,"tY":351,"tags":{"access":"private","caravans":"no","description":"Zeltplatz des Evangelischen Freizeitheims (kein öffentlicher Campingplatz)","group_only":"yes","impromptu":"no","name":"Freizeitheim-Zeltplatz","operator":"Kirchenbezirk Weinsberg","surface":"gravel","tents":"yes"}},"690821427":{"location":[49.1229123,9.7344708],"ct":"DE","tp":"CR","ts":"2025-01-05T01:17:08Z","tX":539,"tY":351,"tags":{"addr:city":"Schwäbisch Hall","addr:postcode":"74523","addr:street":"Spitalmühlenstraße","capacity":"9","caravan_site":"motorhome_stopover","caravan_site:type":"river","dog":"yes","fee":"no","internet_access":"no","maxstay":"48 hours","name":"Wohnmobilstellplatz Auwiese Schwäbisch Hall","power_supply":"yes","sanitary_dump_station":"yes","water_point":"yes","website":"https://www.schwaebischhall.de/de/kultur-tourismus/uebernachten/82/wohnmobilstellplaetze-auwiese"}},"4313285991":{"location":[49.1486899,9.572168],"ct":"DE","tp":"CR","ts":"2016-07-20T18:04:13Z","tX":539,"tY":351,"tags":{}},"8408247425":{"location":[49.0775319,9.5639493],"ct":"DE","tp":"CR","ts":"2024-12-18T17:48:51Z","tX":539,"tY":351,"tags":{"addr:city":"Mainhardt","addr:country":"DE","addr:housenumber":"27","addr:postcode":"74535","addr:street":"Friedhofstraße","name":"Wohnmobilstellplatz_am_Limes"}},"8971379017":{"location":[48.9792794,9.5747619],"ct":"DE","tp":"CR","ts":"2022-02-06T08:08:09Z","tX":539,"tY":351,"tags":{"addr:city":"Murrhardt","addr:housenumber":"3","addr:postcode":"71540","addr:street":"Helmut-Götz-Straße","name":"Wohnmobilstellplatz Murrhardt","name:en":"Camper parking Murrhardt","opening_hours":"24/7"}},"4542004772":{"location":[49.002283,9.7654164],"ct":"DE","tp":"SD","ts":"2024-05-16T11:01:18Z","tX":539,"tY":351,"tags":{"access":"yes","addr:postcode":"74405","water_point":"yes"}},"11783912293":{"location":[49.1230888,9.734686],"ct":"DE","tp":"SD","ts":"2025-01-05T01:17:08Z","tX":539,"tY":351,"tags":{"access":"yes"}}}