{"23129067":{"location":[48.4761435,9.7431329],"ct":"DE","tp":"CS","ts":"2022-12-21T18:03:34Z","tX":539,"tY":353,"tags":{"addr:city":"Laichingen","addr:housenumber":"50","addr:postcode":"89150","addr:street":"Heidehofstraße","caravans":"yes","fee":"yes","name":"Campingplatz Heidehof","permanent_camping":"yes","phone":"+49 7333 6408","tents":"yes","website":"https://www.camping-heidehof.de/"}},"26621256":{"location":[48.5109989,9.6075009],"ct":"DE","tp":"CS","ts":"2024-01-12T07:52:40Z","tX":539,"tY":353,"tags":{"access":"customers","area":"yes","backcountry":"no","barrier":"fence","cabins":"yes","camp_site":"deluxe","capacity":"900","caravans":"yes","contact:email":"info@alb-camping.de","contact:phone":"+49 7333 6140","contact:website":"https://www.alb-camping.de/","dog":"yes","fee":"yes","internet_access":"wlan","internet_access:fee":"yes","motor_vehicle":"yes","name":"Alb-Camping","operator":"Litz & Weller GmbH & Co. KG","permanent_camping":"yes","power_supply":"yes","sanitary_dump_station":"yes","shower":"yes","tents":"yes","toilets":"yes"}},"32474415":{"location":[48.6398505,9.5546135],"ct":"DE","tp":"CS","ts":"2024-08-14T07:08:38Z","tX":539,"tY":353,"tags":{"addr:city":"Aichelberg","addr:country":"DE","addr:housenumber":"1","addr:postcode":"73101","addr:street":"Bunzenberg","caravans":"yes","drinking_water":"yes","internet_access":"wlan","internet_access:fee":"yes","name":"Camping Aichelberg","phone":"+49 7164 2100","shower":"yes","tents":"yes","toilets":"yes","website":"https://www.camping-aichelberg.de/"}},"120226269":{"location":[48.6347094,9.8410541],"ct":"DE","tp":"CS","ts":"2022-05-21T23:11:24Z","tX":539,"tY":353,"tags":{"caravans":"yes","name":"5 Täler Camping Längental","operator":"5 Täler Camping Geislingen e.V.","permanent_camping":"yes","shower":"yes","tents":"yes","toilets":"yes","washing_machine":"yes","website":"http://www.5taelercamping.de/"}},"124844182":{"location":[48.5119673,9.5617691],"ct":"DE","tp":"CR","ts":"2015-11-06T15:56:16Z","tX":539,"tY":353,"tags":{}},"177821645":{"location":[48.4855163,9.5074353],"ct":"DE","tp":"CS","ts":"2023-11-03T14:10:21Z","tX":539,"tY":353,"tags":{"addr:city":"Römerstein","addr:country":"DE","addr:housenumber":"3","addr:postcode":"72587","addr:street":"Hinter Lau","addr:suburb":"Böhringen","caravans":"yes","email":"info@lauberg.de","fax":"+49 7382 1074","name":"Lauberg","phone":"+49 7382 1509","power_supply":"yes","tents":"yes","toilets:wheelchair":"no","website":"https://www.lauberg.de/","wheelchair":"limited"}},"448722738":{"location":[48.5502789,9.6676855],"ct":"DE","tp":"CS","ts":"2021-12-13T13:48:27Z","tX":539,"tY":353,"tags":{"name":"Camping Waldpark Hohenstadt","source:name":"u. a. Schild am Eingang","website":"https://www.waldpark-hohenstadt.de/"}},"965272288":{"location":[48.592465,9.6233169],"ct":"DE","tp":"CS","ts":"2023-02-15T18:30:44Z","tX":539,"tY":353,"tags":{"alt_name":"Campingplatz Winkelbachtal","caravans":"yes","name":"Campingplatz Gruibingen","phone":"+49 176 20512536","shower":"yes","tents":"yes","toilets":"yes","website":"http://campingplatz-gruibingen.de/"}},"1138858344":{"location":[48.6624378,9.6774701],"ct":"DE","tp":"CR","ts":"2023-02-07T16:36:38Z","tX":539,"tY":353,"tags":{}},"3414757800":{"location":[48.6356077,9.5276517],"ct":"DE","tp":"CR","ts":"2015-03-23T19:24:50Z","tX":539,"tY":353,"tags":{"capacity":"3","fee":"no","name":"Reisemobilstellplatz Holzmaden","note":"FIXME genauere Position","power_supply":"no","surface":"asphalt","tents":"no","waste":"no"}},"3416460369":{"location":[48.5160221,9.7590969],"ct":"DE","tp":"CR","ts":"2023-11-08T12:24:29Z","tX":539,"tY":353,"tags":{"addr:city":"Merklingen","addr:country":"DE","addr:housenumber":"24","addr:postcode":"89188","addr:street":"Nellinger Straße","capacity":"10","drinking_water":"yes","fee":"yes","name":"Wohnmobilstellplätze Merklingen","operator":"ARAL-Autohof Rolf Pohl","sanitary_dump_station":"yes","website":"https://www.merklingen.de/index.php?id=116"}},"6356506121":{"location":[48.6023278,9.7979097],"ct":"DE","tp":"CR","ts":"2019-03-30T11:17:49Z","tX":539,"tY":353,"tags":{"access":"customers","capacity":"4","contact:email":"info@thermalbad-ueberkingen.de","contact:phone":"+49 7331 61087","contact:website":"www.thermalbad-ueberkingen.de","fee":"yes","name":"Wohnmobil-Stellplatz Thermalbad"}},"6467574737":{"location":[48.6205216,9.5351863],"ct":"DE","tp":"CR","ts":"2023-05-22T19:16:54Z","tX":539,"tY":353,"tags":{"fee":"yes","name":"Weilheim Teck","operator":"Stadt Weilheim","power_supply":"yes","sanitary_dump_station":"yes","toilets":"no"}},"7577949271":{"location":[48.5658623,9.6291288],"ct":"DE","tp":"CR","ts":"2020-06-01T13:35:13Z","tX":539,"tY":353,"tags":{"addr:city":"Wiesensteig","addr:postcode":"73349","addr:street":"Sommerbergstraße","capacity":"1","internet_access":"no","power_supply":"yes","sanitary_dump_station":"yes"}},"9157308265":{"location":[48.5778044,9.616224],"ct":"DE","tp":"CR","ts":"2021-10-08T07:23:59Z","tX":539,"tY":353,"tags":{"fee":"no","internet_access":"no","permanent_camping":"no","sanitary_dump_station":"no","toilets":"yes"}}}