{"132368997":{"location":[48.4021795,9.5058041],"ct":"DE","tp":"CS","ts":"2024-08-18T05:37:58Z","tX":539,"tY":354,"tags":{"cabins":"yes","caravans":"yes","dog":"yes","drinking_water":"yes","internet_access":"wlan","name":"Hofgut Hopfenburg","phone":"+49 7381 931193 11","power_supply":"yes","sanitary_dump_station":"yes","shower":"yes","static_caravans":"yes","tents":"yes","toilets":"yes","washing_machine":"yes","website":"https://www.hofgut-hopfenburg.de/","wheelchair":"yes"}},"209307735":{"location":[48.4150068,9.7909581],"ct":"DE","tp":"CR","ts":"2023-09-08T07:03:42Z","tX":539,"tY":354,"tags":{"capacity":"21","charge":"17-20 €","description":"20 € mit Strom ; 17 € ohne Strom","drinking_water":"yes","fee":"yes","name":"Wohnmobilstellplatz Blaubeuren","operator":"Stadt Blaubeuren","power_supply":"yes","tents":"no","waste":"grey_water","website":"https://www.blaubeuren.de/de/Tourismus/%C3%9Cbernachten/Wohnmobilstellplatz"}},"310821836":{"location":[48.2315893,9.6524294],"ct":"DE","tp":"CS","ts":"2021-05-26T12:45:46Z","tX":539,"tY":354,"tags":{"alt_name":"Zeltplatz am alten Wasserwerk \"Im Bodenösch\"","caravans":"no","contact:phone":"+49 160 8709619","fee":"yes","name":"Zeltplatz Munderkingen","operator":"Stadt Munderkingen","shower":"yes","tents":"yes","toilets":"yes","website":"https://www.munderkingen.de/index.php/tourismus-freizeit/tourismus/camping"}},"438373282":{"location":[48.3296524,9.5027169],"ct":"DE","tp":"CS","ts":"2024-02-27T13:08:48Z","tX":539,"tY":354,"tags":{"backcountry":"yes","caravans":"no","fee":"yes","internet_access":"no","landuse":"recreation_ground","name":"Stettener Häule","operator":"Gasthof Hirsch","phone":"+49 7383 1491","tents":"yes","website":"https://www.muensingen.de/de/Freizeit-Kultur/Sport-Freizeiteinrichtung?view=publish&item=leisureFacility&id=1061"}},"715763162":{"location":[48.2794328,9.7342306],"ct":"DE","tp":"CR","ts":"2025-01-02T10:51:27Z","tX":539,"tY":354,"tags":{"capacity":"15","caravan_site":"motorhome_stopover","caravan_site:type":"town;sports_centre","caravans":"yes","fee":"no","internet_access":"wlan","internet_access:fee":"no","maxstay":"3 nights","name":"Wohnmobilstellplatz Ehingen","operator":"Stadt Ehingen","power_supply":"yes","power_supply:charge":"0.50 EUR/1 KWh","power_supply:fee":"yes","sanitary_dump_station":"yes","tents":"no","water_point":"seasonal","water_point:charge":"0.50 EUR/50 liter","website":"https://www.ehingen.de/wohnmobil"}},"844434302":{"location":[48.4337488,9.5022073],"ct":"DE","tp":"CR","ts":"2024-11-15T00:16:15Z","tX":539,"tY":354,"tags":{"addr:city":"Münsingen","addr:country":"DE","addr:housenumber":"59","addr:postcode":"72525","addr:street":"Tragolfstraße","capacity":"12","fee":"yes","internet_access":"wlan","internet_access:fee":"customers","name":"Wohnmobilstellplatz Trailfingen/Gruorn","panoramax":"c79ce8ac-6558-4b8f-a593-14cb10fd067e","power_supply":"yes","sanitary_dump_station":"yes","source":"local knowledge","surface":"yes"}},"973336556":{"location":[48.3231687,9.701268],"ct":"DE","tp":"CS","ts":"2021-08-15T20:47:39Z","tX":539,"tY":354,"tags":{"access":"permissive","addr:city":"Allmendingen","alt_name":"Lixe","description":"Für das Campen benötigt man die Erlaubnis des Bürgeramtes Allmendingen.","name":"Lichse","operator":"Gemeinde Allmendingen"}},"1065317413":{"location":[48.3158277,9.5077008],"ct":"DE","tp":"CR","ts":"2024-10-17T18:35:17Z","tX":539,"tY":354,"tags":{"addr:city":"Münsingen","addr:country":"DE","addr:housenumber":"1","addr:postcode":"72525","addr:street":"Heiligental","capacity:caravans":"4","fee":"yes","internet_access":"no","name":"Wohnmobilstellplatz Heiligental","operator":"Stadt Münsingen","power_supply":"yes","reservation":"no","sanitary_dump_station":"yes","toilets":"no","website":"https://www.muensingen.com/aufenthalt/uebernachten/campingplaetze-und-wohnmobilstellplaetze/im-heiligental-1"}},"1364846219":{"location":[48.2251753,9.7045004],"ct":"DE","tp":"CS","ts":"2021-06-06T21:21:14Z","tX":539,"tY":354,"tags":{"camp_site":"standard","caravans":"no","dog":"no","email":"info@rottenacker.de","fee":"yes","internet_access":"no","kiosk":"yes","motor_vehicle":"no","name":"Zeltplatz Heppenäcker","openfire":"yes","operator":"Herr Kurt Baier","owner":"Gemeinde Rottenacker","phone":"+49 7393 95040","picnic_table":"no","power_supply":"no","shower":"yes","tents":"yes","toilets":"yes","website":"https://www.rottenacker.de/badesee.html"}},"1858215451":{"location":[48.2312058,9.6760143],"ct":"DE","tp":"CS","ts":"2024-08-19T20:27:14Z","tX":539,"tY":354,"tags":{"camp_site":"standard","caravans":"no","description":"Speziell für Fahrradfahrer. 10€/Nacht","drinking_water":"yes","name":"Zeltmöglichkeit","operator":"Biolandhof Walter","phone":"+49 7393 6503","power_supply":"yes","shower":"yes","tents":"yes","toilets":"yes","toilets:wheelchair":"no","website":"http://www.biolandhof-walter.de/"}},"2483173798":{"location":[48.2820647,9.5331308],"ct":"DE","tp":"CS","ts":"2019-08-25T10:10:56Z","tX":539,"tY":354,"tags":{"caravans":"no","group_only":"yes","name":"Jugendzeltlagerplatz \"Am Berg\"","operator":"Landratsamt Alb-Donau-Kreis","tents":"yes"}},"4059960624":{"location":[48.3849022,9.6369721],"ct":"DE","tp":"CS","ts":"2019-08-25T10:10:56Z","tX":539,"tY":354,"tags":{"capacity":"maximal 100","caravans":"no","contact:email":"Kreisforst@alb-donau-kreis.de","contact:fax":"+49 731 1851666","contact:phone":"+49 731 1851686","description":"Ein Waschhaus, ein Toilettenhaus, eine Aufenthaltshütte, sowie eine Feuerstelle, Sportplatz, Geräteraum und Parkplatz sind vorhanden. Kosten: 2,50 Euro pro Nacht und Person.","fee":"yes","group_only":"yes","name":"Jugendzeltlager Platz Bärental","operator":"Landratsamt Alb-Donau Kreis Fachdienst Kreisforstamt Naturschutz","tents":"yes"}},"4933943037":{"location":[48.2334358,9.6504231],"ct":"DE","tp":"CR","ts":"2025-01-02T12:17:41Z","tX":539,"tY":354,"tags":{"caravan_site":"motorhome_stopover","caravan_site:type":"river;fire_station","fee":"no","name":"Wohnmobilstellplätze Munderkingen Stadionweg","operator":"Stadt Munderkigen","phone":"+49 7393 9534581; +49 7393 598101","sanitary_dump_station":"yes","tents":"no"}},"7932186763":{"location":[48.4027459,9.504989],"ct":"DE","tp":"SD","ts":"2024-08-18T05:37:21Z","tX":539,"tY":354,"tags":{"fee":"yes"}},"10047899159":{"location":[48.2793873,9.7337645],"ct":"DE","tp":"SD","ts":"2025-01-02T10:51:27Z","tX":539,"tY":354,"tags":{"access":"yes","sanitary_dump_station:chemical_toilet":"yes","sanitary_dump_station:fee":"no","sanitary_dump_station:gravity":"yes","sanitary_dump_station:grey_water":"yes","sanitary_dump_station:suction":"no"}},"11176054556":{"location":[48.4151714,9.790826],"ct":"DE","tp":"SD","ts":"2023-09-08T07:03:42Z","tX":539,"tY":354,"tags":{"access":"yes","fee":"yes","sanitary_dump_station:basin":"yes","sanitary_dump_station:round_drain":"yes"}},"12468626889":{"location":[48.2382175,9.6410407],"ct":"DE","tp":"CR","ts":"2025-01-02T12:17:41Z","tX":539,"tY":354,"tags":{"capacity":"3","caravan_site":"motorhome_stopover","caravan_site:type":"river","fee":"no","maxstay":"2 nights","name":"Wohnmobilstellplätze Munderkingen Marchtalerstraße","power_supply":"yes","sanitary_dump_station:chemical_toilet":"yes","socket:cee_blue":"yes","tents":"no","website":"https://www.tourismus.alb-donau-kreis.de/thema/wohnmobilstellplaetze-munderkingen-marchtaler-strasse/"}}}