{"29260178":{"location":[48.0920168,9.8433971],"ct":"DE","tp":"CS","ts":"2021-01-30T00:53:44Z","tX":539,"tY":355,"tags":{"caravans":"no","fee":"yes","group_only":"yes","name":"Jugendzeltplatz Hohes Haus","openfire":"yes","reservation":"required","tents":"yes"}},"253061203":{"location":[48.0681019,9.609057],"ct":"DE","tp":"CR","ts":"2024-10-06T09:36:01Z","tX":539,"tY":355,"tags":{"capacity":"17","check_date":"2024-10-06","contact:phone":"+49 7582 9336-0","fee":"yes","internet_access":"wlan","name":"Seegasse","operator":"Stadt Bad Buchau","power_supply":"yes","sanitary_dump_station":"yes","surface":"paving_stones","water_point":"yes","website":"http://www.bad-buchau.de/index.php?id=45#c109"}},"354645939":{"location":[48.1027945,9.7958418],"ct":"DE","tp":"CR","ts":"2020-05-21T14:04:31Z","tX":539,"tY":355,"tags":{"addr:city":"Biberach an der Riß","addr:housenumber":"29","addr:postcode":"88400","addr:street":"Rißstraße","capacity":"9","name":"Biberach","power_supply":"yes","sanitary_dump_station":"yes","water_point":"yes"}},"418541299":{"location":[48.0285761,9.6977089],"ct":"DE","tp":"CS","ts":"2023-11-07T15:19:09Z","tX":539,"tY":355,"tags":{"addr:city":"Bad Schussenried","addr:housenumber":"8","addr:postcode":"88427","addr:street":"Dorfstraße","addr:suburb":"Steinhausen","cabins":"no","capacity":"20","caravans":"yes","drinking_water":"yes","email":"heikeschmid@web.de","fee":"yes","internet_access":"no","motor_vehicle":"yes","name":"Campingplatz von Steinhausen","operator":"Heike Schmid","payment:cash":"yes","phone":"+49 7583 3060","power_supply":"yes","reservation":"yes","sanitary_dump_station":"yes","shower":"yes","tents":"yes","toilets":"yes","website":"https://camping-steinhausen.de/"}},"443049546":{"location":[48.0741337,9.8206038],"ct":"DE","tp":"CR","ts":"2020-05-21T13:53:12Z","tX":539,"tY":355,"tags":{"addr:city":"Ummendorf","addr:postcode":"88444","capacity":"8","internet_access":"no","name":"Jordanbad","power_supply":"no","sanitary_dump_station":"no"}},"486282548":{"location":[48.0688223,9.6064279],"ct":"DE","tp":"CR","ts":"2024-07-31T16:00:57Z","tX":539,"tY":355,"tags":{"capacity":"16","charge":"11,50 € - XXL Fahrzeuge 14€","contact:phone":"+49 7582 9336-0","description":"Strom und Wasser gegen Gebühr - Für XXL Fahrzeuge sind 4 Plätze reserviert","fee":"yes","internet_access":"wlan","internet_access:fee":"no","name":"Am Kurpark","operator":"Stadt Bad Buchau","power_supply":"yes","sanitary_dump_station":"yes","toilets":"no","water_point":"yes","website":"http://www.bad-buchau.de/index.php?id=45#c108","wheelchair":"yes"}},"486283466":{"location":[48.0630847,9.6173662],"ct":"DE","tp":"CR","ts":"2017-04-13T06:14:11Z","tX":539,"tY":355,"tags":{}},"587680294":{"location":[48.0703734,9.6093611],"ct":"DE","tp":"CR","ts":"2024-07-31T18:30:49Z","tX":539,"tY":355,"tags":{"capacity":"12","fee":"yes","internet_access":"wlan","name":"Beim Federseemuseum","power_supply":"yes","sanitary_dump_station":"no","toilets":"no","water_point":"no","website":"https://www.bad-buchau.de/index.php?id=45#c109","wheelchair":"yes"}},"972599993":{"location":[48.1598087,9.4933329],"ct":"DE","tp":"CS","ts":"2024-08-13T18:02:34Z","tX":539,"tY":355,"tags":{"addr:city":"Riedlingen","addr:housenumber":"1","addr:place":"Vöhringer Hof","addr:postcode":"88499","addr:suburb":"Eichenau","email":"radlerrastvoehof@aol.com","fee":"yes","name":"Radlerrast Vöhringerhof","operator":"Familie Weiss","phone":"+49 7371 12574","power_supply":"yes","shower":"yes","tents":"yes","toilets":"yes","website":"http://www.riedlingen.de/Zeltplaetze+_+Camping.html"}},"1070328547":{"location":[48.2165558,9.5337173],"ct":"DE","tp":"CR","ts":"2022-06-17T13:05:09Z","tX":539,"tY":355,"tags":{"name":"Donaublick"}},"1585689307":{"location":[48.0020001,9.6474744],"ct":"DE","tp":"CR","ts":"2012-01-11T14:02:37Z","tX":539,"tY":355,"tags":{}},"2008407406":{"location":[48.0029867,9.6597284],"ct":"DE","tp":"CR","ts":"2023-06-11T16:31:18Z","tX":539,"tY":355,"tags":{"capacity":"50","fee":"yes","maxstay":"14 nights","name":"Wohnmobilstellplatz am Bierkrugmuseum","operator":"Schussenrieder Brauerei Ott GmbH & Co.KG","power_supply":"yes","reservation":"yes","sanitary_dump_station":"yes","water_point":"yes","website":"https://www.schussenrieder.de/de/erstes-bierkrugmuseum/Wohnmobilstellplatz/index.php"}},"2600964552":{"location":[48.0634396,9.8332468],"ct":"DE","tp":"CR","ts":"2023-01-21T17:52:55Z","tX":539,"tY":355,"tags":{"addr:city":"Ummendorf","addr:housenumber":"10","addr:postcode":"88444","addr:street":"Bachstraße","capacity":"6","contact:phone":"+49 7351 4443-0","fee":"no","operator":"Bräuhaus Ummendorf","power_supply":"yes","sanitary_dump_station":"yes","water_point":"yes","website":"https://braeuhaus.de/","wheelchair":"yes"}},"3556686090":{"location":[48.1379791,9.6196355],"ct":"DE","tp":"CR","ts":"2020-06-08T07:41:55Z","tX":539,"tY":355,"tags":{"capacity":"6","fee":"yes","operator":"Gemeinde Uttenweiler","power_supply":"yes","sanitary_dump_station":"yes","survey:date":"2015-05-29","tents":"no","waste":"grey_water","water_point":"yes"}},"4705174925":{"location":[48.0681987,9.6093631],"ct":"DE","tp":"SD","ts":"2017-02-25T17:20:51Z","tX":539,"tY":355,"tags":{}},"10669591893":{"location":[48.068646,9.606621],"ct":"DE","tp":"SD","ts":"2024-07-31T16:00:38Z","tX":539,"tY":355,"tags":{"fee":"no"}}}