{"26351535":{"location":[47.8024369,9.6632163],"ct":"DE","tp":"CS","ts":"2024-01-08T17:19:03Z","tX":539,"tY":356,"tags":{"access":"customers","area":"yes","capacity":"90","caravans":"no","email":"nessenreben@gmx.de","fee":"yes","group_only":"yes","name":"Jugendzeltplatz Nessenreben","operator":"DPSG Weingarten Baienfurt","payment:cash":"yes","source":"Nur fuer Jugendgruppen","tents":"yes"}},"28207837":{"location":[47.9575716,9.6362497],"ct":"DE","tp":"CR","ts":"2018-02-20T23:01:12Z","tX":539,"tY":356,"tags":{"access":"customers","capacity":"20","fee":"no","internet_access":"no","internet_access:fee":"no","name":"P3 Schwaben-Therme","power_supply":"no","sanitary_dump_station":"no"}},"28210814":{"location":[47.9274931,9.7584608],"ct":"DE","tp":"CR","ts":"2013-09-20T21:15:35Z","tX":539,"tY":356,"tags":{"name":"Hymer AG","wheelchair":"limited"}},"60603435":{"location":[47.9143044,9.7603305],"ct":"DE","tp":"CR","ts":"2025-01-02T00:17:41Z","tX":539,"tY":356,"tags":{"addr:city":"Bad Waldsee","addr:country":"DE","addr:housenumber":"26","addr:postcode":"88339","addr:street":"Unterurbacher Weg","capacity":"39","capacity:caravans":"35","charge":"13 EUR","fee":"yes","internet_access":"yes","maxstay":"30 days","name":"Bei der Waldsee-Therme","operator":"Stadt Bad Waldsee","power_supply":"yes","power_supply:charge":"2 EUR/2 KWh","power_supply:fee":"yes","sanitary_dump_station:grey_water":"yes","water_point":"yes","website":"https://www.bad-waldsee.de/gaeste/de/gastgeber-kulinarisches/uebernachten/reisemobil-stellplatz"}},"209979057":{"location":[47.7817281,9.5996502],"ct":"DE","tp":"CR","ts":"2024-12-30T09:51:42Z","tX":539,"tY":356,"tags":{"capacity":"19","caravan_site":"motorhome_stopover","caravan_site:type":"town","charge":"11.50 EUR","fee":"yes","internet_access":"wlan","internet_access:fee":"no","maxstay":"3 nights","name":"Stellplatz Mühlbruckstraße","phone":"+49 751 82-800","power_supply":"yes","sanitary_dump_station":"yes","socket:cee_blue":"yes","toilets":"no","water_point":"yes","website":"https://www.ravensburg.de/rv/tourismus/hotels-unterkuenfte/wohnmobilstellplaeatz.php"}},"254522711":{"location":[47.937757,9.6526141],"ct":"DE","tp":"CR","ts":"2023-02-11T16:14:46Z","tX":539,"tY":356,"tags":{"access":"customers","addr:street":"Carthago Ring","description":"Übernachtung kostenlos - Strom und Wasser gegen Gebühr - Ver und Entsorgung vorhanden.","name":"Stellplatz Carthago City","operator":"Carthago Reisemobilbau GmbH"}},"285163493":{"location":[47.8365299,9.8334115],"ct":"DE","tp":"CS","ts":"2022-02-12T23:49:35Z","tX":539,"tY":356,"tags":{"group_only":"yes","name":"Gruppenzeltplatz Metzisweiler Weiher","note":"Abgebaut außerhalb Schulferien in Baden-Württemberg!","reservation":"required","website":"https://www.gruppenunterkuenfte.de/Zeltplatz-Metzisweiler-Weiher__i8432.html"}},"335652200":{"location":[47.880714,9.5719863],"ct":"DE","tp":"CS","ts":"2024-07-28T22:19:52Z","tX":539,"tY":356,"tags":{"name":"Buchseehof"}},"370560020":{"location":[47.8029173,9.4941276],"ct":"DE","tp":"CR","ts":"2024-10-01T14:27:38Z","tX":539,"tY":356,"tags":{"addr:city":"Horgenzell","addr:country":"DE","addr:housenumber":"15","addr:postcode":"88263","addr:street":"Alpenblick","camping":"no","capacity":"8","contact:phone":"+49 7504 970132","contact:website":"https://www.horgenzell.de/Freizeit-und-Tourismus/Wohnmobilstellplatz","fee":"no","internet_access":"no","maxstay":"7 days","motorhome":"yes","name":"Wohnmobilstellplatz in Horgenzell","operator":"Gemeinde Horgenzell","power_supply":"yes","sanitary_dump_station":"yes","stars":"4","water_point":"yes","website":"https://www.horgenzell.de/freizeit-und-tourismus/wohnmobilstellplatz/"}},"465152833":{"location":[47.9000157,9.5060023],"ct":"DE","tp":"CS","ts":"2023-10-03T16:41:37Z","tX":539,"tY":356,"tags":{"access":"yes","description":"Campingplatz mit Toilette und Dusche","landuse":"recreation_ground","name":"Zeltplatz am Weiher"}},"534540266":{"location":[47.8157064,9.7983071],"ct":"DE","tp":"CR","ts":"2024-04-04T21:38:12Z","tX":539,"tY":356,"tags":{"addr:city":"Wolfegg","addr:postcode":"88364","addr:street":"Rötenbacher Straße","capacity":"12","check_date":"2024-04-04","fee":"yes","internet_access":"no","name":"Loretopark","power_supply":"yes","sanitary_dump_station":"yes","website":"https://www.wolfegg.de/tourismus-freizeit/reisemobilhafen-loretopark/allgemein"}},"655312564":{"location":[47.7941164,9.5450867],"ct":"DE","tp":"CR","ts":"2014-05-25T02:03:13Z","tX":539,"tY":356,"tags":{}},"764184549":{"location":[47.8103056,9.6305505],"ct":"DE","tp":"SD","ts":"2022-07-01T18:12:17Z","tX":539,"tY":356,"tags":{"access":"yes","drinking_water":"yes","fee":"yes","name":"Wohnmobilstellplatz Weingarten","payment:cash":"yes","water_point":"yes"}},"3098241078":{"location":[47.8253241,9.5365725],"ct":"DE","tp":"CS","ts":"2019-08-25T10:10:56Z","tX":539,"tY":356,"tags":{"capacity":"120","caravans":"no","group_only":"yes","name":"Waldjugendzeltplatz Adelmühle","operator":"Forstamt Ravensburg","shower":"yes","tents":"yes","toilets":"yes","website":"http://www.landkreis-ravensburg.de/,Lde/Startseite/Umwelt_+Landwirtschaft+_+Forst/Waldjugendzeltplatz+Adelmuehle.html"}},"10969764674":{"location":[47.8110168,9.7613932],"ct":"DE","tp":"CS","ts":"2024-08-05T15:02:08Z","tX":539,"tY":356,"tags":{"backcountry":"yes","caravans":"no","drinking_water":"no","name":"Alti Besetzung","power_supply":"no","sanitary_dump_station":"no","shower":"no","tents":"yes","toilets":"no"}},"10969810373":{"location":[47.8103429,9.759695],"ct":"DE","tp":"CS","ts":"2024-08-05T15:02:08Z","tX":539,"tY":356,"tags":{"backcountry":"yes","drinking_water":"no","name":"Lost","power_supply":"no","sanitary_dump_station":"no","shower":"no","toilets":"no"}},"10969815864":{"location":[47.8106335,9.7609644],"ct":"DE","tp":"CS","ts":"2024-08-05T15:02:08Z","tX":539,"tY":356,"tags":{"backcountry":"yes","drinking_water":"no","name":"Oberobacht","power_supply":"no","sanitary_dump_station":"no","shower":"no","toilets":"no"}},"10996999306":{"location":[47.9510907,9.7586091],"ct":"DE","tp":"CS","ts":"2025-03-26T08:07:45Z","tX":539,"tY":356,"tags":{"addr:city":"Bad Waldsee","addr:country":"DE","addr:housenumber":"4","addr:postcode":"88339","addr:street":"Mattenhaus","caravans":"yes","motorhome":"yes","name":"Wohnmobilstellplatz Bertsch-Lott","name:de":"Wohnmobilstellplatz und Campingplatz Bertsch","opening_hours":"Mo-Su 10:00-20:00","operator":"Stellplatz Bertsch","phone":"+49 160 3754921","tents":"yes","toilets":"yes","website":"https://www.camping-stellplatz-bertsch-bad-waldsee.de/"}},"9732119426":{"location":[47.8102571,9.6307155],"ct":"DE","tp":"CR","ts":"2025-01-30T22:14:24Z","tX":539,"tY":356,"tags":{"addr:city":"Weingarten","addr:postcode":"88250","addr:street":"Abt-Hyller-Straße","capacity:caravans":"8","caravan_site":"motorhome_stopover","caravan_site:type":"town","charge":"10 EUR","fee":"yes","name":"Wohnmobilstellplatz Weingarten","power_supply":"yes","sanitary_dump_station":"yes","toilets":"no","water_point":"yes"}},"10076481509":{"location":[47.9143876,9.7604107],"ct":"DE","tp":"CR","ts":"2024-05-13T14:09:10Z","tX":539,"tY":356,"tags":{"addr:city":"Bad Waldsee","addr:country":"DE","addr:housenumber":"26","addr:postcode":"88339","addr:street":"Unterurbacher Weg","capacity:caravans":"35","charge":"9.00 EUR","fee":"yes","internet_access":"yes","sanitary_dump_station":"yes"}},"5183674419":{"location":[47.9140653,9.7607133],"ct":"DE","tp":"SD","ts":"2019-05-17T13:15:38Z","tX":539,"tY":356,"tags":{"sanitary_dump_station":"grey_water"}},"6343229412":{"location":[47.9379958,9.6521055],"ct":"DE","tp":"SD","ts":"2019-03-17T15:45:45Z","tX":539,"tY":356,"tags":{"fee":"no","operator":"Fa. Carthago","water_point":"yes"}}}