{"15646976":{"location":[47.5372902,9.7298074],"ct":"DE","tp":"CS","ts":"2023-06-16T08:01:32Z","tX":539,"tY":357,"tags":{"addr:city":"Lindau (Bodensee)","addr:housenumber":"20","addr:postcode":"88131","addr:street":"Fraunhoferstraße","caravans":"yes","contact:email":"info@park-camping.de","contact:phone":"+49 8382 2236","contact:website":"http://www.park-camping.de","name":"Park-Camping Lindau","phone":"+4983828899999","shower":"yes","tents":"yes","toilets":"yes","wheelchair":"limited"}},"48814014":{"location":[47.6641342,9.5916057],"ct":"DE","tp":"CR","ts":"2025-01-29T11:37:46Z","tX":539,"tY":357,"tags":{"capacity":"8","caravan_site":"motorhome_stopover","caravan_site:type":"town","charge":"10 EUR/24 hours","description":"Hier ist kein Campingplatz, sondern ein Parkplatz, etwa ein Drittel davon für Wohnmobile.","fee":"yes","internet_access":"no","maxstay":"3 days","motor_vehicle":"no","motorcar":"no","name":"Wohnmobilstellplatz Tettnang Loretostraße","opening_hours":"24/7","operator":"Stadt Tettnang","power_supply":"yes","power_supply:charge":"0.50 EUR/kWh","power_supply:fee":"yes","power_supply:maxcurrent":"6","reservation":"no","sanitary_dump_station":"yes","sanitary_dump_station:charge":"1 EUR","sanitary_dump_station:fee":"yes","stars":"2","surface":"gravel","water_point":"yes","water_point:charge":"1 EUR/100 liter","water_point:fee":"yes","website":"https://www.echt-bodensee.de/uebernachtung/wohnmobilstellplatz-tettnang-loretostrasse-2aa3d2d22a","wheelchair":"yes"}},"59385745":{"location":[47.5909105,9.571406],"ct":"DE","tp":"CS","ts":"2021-03-21T16:34:42Z","tX":539,"tY":357,"tags":{"access":"private","capacity":"50","caravans":"no","charge":"10 Euro","fee":"yes","group_only":"yes","name":"Gruppenzeltplatz des FöVe EJW RV","operator":"Förderverein ev. Jugendwerk e.EV.","scout":"yes","tents":"yes","website":"https://www.tunau.de"}},"81164280":{"location":[47.5839802,9.7054825],"ct":"DE","tp":"CS","ts":"2025-05-23T21:44:27Z","tX":539,"tY":357,"tags":{"addr:city":"Lindau (Bodensee)","addr:country":"DE","addr:housenumber":"88","addr:postcode":"88131","addr:street":"Gitzenweiler","addr:suburb":"Gitzenweiler","caravans":"yes","email":"info@gitzenweiler-hof.de","fax":"+49 8382 9494-15","name":"Gitzenweiler Hof","phone":"+49 8382 9494-0","stars":"5","tents":"yes","website":"https://www.gitzenweiler-hof.de/","wheelchair":"yes"}},"93499883":{"location":[47.6495127,9.4966576],"ct":"DE","tp":"CS","ts":"2024-09-07T20:21:39Z","tX":539,"tY":357,"tags":{"addr:city":"Friedrichshafen","addr:country":"DE","addr:housenumber":"2","addr:postcode":"88046","addr:street":"Lindauer Straße","caravans":"yes","charge":"28 EUR / day","contact:email":"rezeption@cap-rotach.de","contact:fax":"+49 7541 70077778","contact:phone":"+49 7541 70077777","contact:website":"http://www.cap-rotach.de/","fee":"yes","name":"CAP Rotach","shower":"yes","tents":"yes","toilets":"yes","toilets:wheelchair":"yes","wheelchair":"yes"}},"121926564":{"location":[47.5898213,9.5739928],"ct":"DE","tp":"CR","ts":"2024-10-01T14:27:38Z","tX":539,"tY":357,"tags":{"addr:city":"Kressbronn am Bodensee","addr:country":"DE","addr:housenumber":"4","addr:postcode":"88079","addr:street":"Tunau","cabins":"no","capacity":"45","caravans":"no","dog":"leashed","drinking_water":"yes","email":"info@dorfkrug.de","fax":"+49 7543 980-180","fee":"yes","internet_access":"wlan","internet_access:fee":"no","motorhome":"yes","name":"Wohnmobilstellplatz Tunau","operator":"Egon Leute","phone":"+49 7543 980-0","power_supply":"yes","scout":"no","stars":"3","tents":"no","website":"https://www.wohnmobilstellplatz-tunau.de/"}},"121926579":{"location":[47.5874109,9.5815307],"ct":"DE","tp":"CS","ts":"2024-09-19T16:56:55Z","tX":539,"tY":357,"tags":{"caravans":"yes","charge":"29.5€","drinking_water":"yes","email":"info@campingplatz-iriswiese.de","fax":"+49 7543 8032","fee":"yes","name":"Campingplatz Iriswiese","phone":"+49 7543 8010","power_supply":"yes","sanitary_dump_station":"yes","shower":"yes","tents":"yes","toilets":"yes","website":"https://www.campingplatz-iriswiese.de/"}},"133259099":{"location":[47.6330413,9.6470398],"ct":"DE","tp":"CS","ts":"2025-04-08T22:09:49Z","tX":539,"tY":357,"tags":{"caravans":"yes","contact:email":"info@gutshof-camping.de","contact:fax":"+49 7543 9633-15","contact:phone":"+49 7543 9633-0","contact:website":"https://gutshof-camping.de/","drinking_water":"yes","name":"Gutshof Camping Badhütten","opening_hours":"PH,Mo-Su 09:00-12:00,14:00-18:00","operator":"Fam. Köhn-Späth","power_supply":"yes","sanitary_dump_station":"no","shower":"yes","tents":"yes","toilets":"yes"}},"175801652":{"location":[47.721939,9.8276628],"ct":"DE","tp":"CS","ts":"2025-05-15T19:28:44Z","tX":539,"tY":357,"tags":{"addr:city":"Wangen im Allgäu","addr:country":"DE","addr:housenumber":"1","addr:postcode":"88239","addr:street":"Röhrenmoos","backcountry":"no","caravans":"yes","dog":"yes","drinking_water":"yes","email":"burkart@roehrenmoos.de","fee":"yes","internet_access":"no","name":"Camping Röhrenmoos","opening_hours":"May 01-Sep 30","operator":"Ursula Burkart","phone":"+49 7522 9132436","power_supply":"yes","reservation":"recommended","sanitary_dump_station":"yes","shower":"yes","static_caravans":"no","tents":"yes","toilets":"yes","washing_machine":"yes","website":"https://www.roehrenmoos.de/"}},"201025978":{"location":[47.6500994,9.4964065],"ct":"DE","tp":"CR","ts":"2024-10-02T07:52:14Z","tX":539,"tY":357,"tags":{"addr:city":"Friedrichshafen","addr:country":"DE","addr:housenumber":"2","addr:postcode":"88046","addr:street":"Lindauer Straße","capacity":"20","caravan_site":"motorhome_stopover","caravan_site:type":"river","caravans":"yes","charge":"13.20 EUR/day","description":"Kostenpflichtig: vom 1. April bis 31. Oktober","fee":"yes","lit":"yes","maxstay":"72 hours","motor_vehicle":"no","motorhome":"yes","name":"Wohnmobilstellplatz CAP Rotach","power_supply":"yes","sanitary_dump_station":"yes","shower":"no","stars":"3","surface":"asphalt","toilets":"no","water_point":"yes","website":"https://www.friedrichshafen.de/tourismus/uebernachten/detailseite/fuid/4305/fcat/wohnmobil-stellplaetze/facility/wohnmobilstellplaetze/","wheelchair":"yes"}},"212361203":{"location":[47.7089982,9.7671112],"ct":"DE","tp":"CR","ts":"2018-06-01T13:05:08Z","tX":539,"tY":357,"tags":{"capacity":"36","fee":"yes","name":"Reisemobilstellplatz Buechelwiesen","website":"https://www.buechelwiesen.de"}},"230759991":{"location":[47.5731995,9.6082168],"ct":"DE","tp":"CS","ts":"2023-07-21T14:06:00Z","tX":539,"tY":357,"tags":{"caravans":"yes","name":"Campingplatz Schnell","phone":"+49 8382 8597","tents":"no","website":"https://www.campingplatz-nonnenhorn.de"}},"237425977":{"location":[47.5683086,9.6386119],"ct":"DE","tp":"CS","ts":"2023-07-03T07:15:52Z","tX":539,"tY":357,"tags":{"addr:city":"Wasserburg (Bodensee)","addr:country":"DE","addr:housenumber":"16","addr:postcode":"88142","addr:street":"Höhenstraße","caravans":"yes","name":"Campingplatz Eschbach","phone":"+49 8382 887715","power_supply":"yes","tents":"yes","website":"http://www.camping-eschbach.de"}},"301153908":{"location":[47.6766329,9.5146622],"ct":"DE","tp":"CR","ts":"2025-01-30T17:25:28Z","tX":539,"tY":357,"tags":{"caravan_site:type":"convention_centre;parking_lot","caravans":"no","charge":"25 EUR / day","fee":"yes","name":"Wohnmobilstellplatz FN Messe (P Ost 2)","power_supply":"yes","power_supply:fee":"no","shower":"no","tents":"no","toilets":"no","water_point":"yes","water_point:fee":"no","website":"https://www.klassikwelt-bodensee.de/besuchen/unterkunft/wohnmobilstellplatz-am-messegelaende-p-ost-2"}},"302296576":{"location":[47.587876,9.5654901],"ct":"DE","tp":"CS","ts":"2024-08-19T11:30:31Z","tX":539,"tY":357,"tags":{"cabins":"yes","caravans":"yes","dog":"yes","drinking_water":"yes","dryer":"yes","email":"info@campingplatz-gohren.de","fax":"+49 7543 6059 29","fee":"yes","internet_access":"wlan","internet_access:fee":"yes","kitchen":"yes","name":"Campingplatz Gohren am See","opening_hours":"Apr-Oct","phone":"+49 7543 6059 0","power_supply":"yes","sanitary_dump_station":"yes","sauna":"yes","shower":"yes","stars":"4","tents":"yes","toilets":"yes","washing_machine":"yes","website":"https://www.campingplatz-gohren.de/","wheelchair":"yes"}},"619332376":{"location":[47.6641958,9.5915207],"ct":"DE","tp":"SD","ts":"2020-10-03T16:46:49Z","tX":539,"tY":357,"tags":{"access":"yes","fee":"yes","name":"Sani-Station","note":"1500 W je Steckdose","payment:cash":"yes","power_supply":"yes","power_supply:maxcurrent":"unknown","power_supply:socket":"unknown","power_supply:voltage":"unknown","water_point":"yes"}},"623767075":{"location":[47.5846557,9.7068671],"ct":"DE","tp":"CR","ts":"2024-12-28T21:43:23Z","tX":539,"tY":357,"tags":{"access":"permissive","addr:city":"Lindau (Bodensee)","addr:housenumber":"88","addr:postcode":"88131","addr:street":"Gitzenweiler","capacity":"17","caravan_site":"motorhome_stopover","caravan_site:type":"camp_site","caravans":"yes","charge":"28.60 EUR+tax","charge:conditional":"24.40 EUR @ (Nov-Mar)","check_in":"15:00","check_out":"11:00","fee":"yes","foot":"permissive","maxstay":"1 day","name":"Gitzenweiler Hof vor der Schranke","opening_hours":"24/7","operator":"Campingpark Gitzenweiler Hof GmbH","park_ride":"no","parking":"surface","payment:cash":"yes","payment:debit_cards":"yes","power_supply":"yes","power_supply:fee":"no","power_supply:maxcurrent":"6","reservation":"no","sanitary_dump_station":"yes","supervised":"no","surface":"paved","website":"https://www.gitzenweiler-hof.de/de/info-service/stellplaetze-lindau-bodensee#uebernachtungsparkplatz","wheelchair":"yes"}},"925245141":{"location":[47.6794421,9.8322025],"ct":"DE","tp":"CR","ts":"2025-02-06T10:44:32Z","tX":539,"tY":357,"tags":{"addr:city":"Wangen im Allgäu","addr:country":"DE","addr:postcode":"88239","addr:street":"Südring","capacity":"44","caravan_site":"motorhome_stopover","caravan_site:type":"town","caravans":"no","charge":"15 EUR","description":"Fee includes Wangen guest card for museum, tours etc","fee":"yes","name":"Wohnmobilstellplatz Wangen im Allgäu","opening_hours":"24/7","operator":"Gästeamt Wangen","payment:cash":"yes","payment:credit_cards":"yes","payment:debit_cards":"yes","power_supply":"yes","power_supply:charge":"0.70 EUR/kWh","power_supply:fee":"yes","sanitary_dump_station":"yes","seasonal":"no","start_date":"2022-05-05","tents":"no","website":"https://www.allgaeu.de/wohnmobil-wangen"}},"971287808":{"location":[47.6374865,9.7690535],"ct":"DE","tp":"CR","ts":"2023-02-07T20:06:16Z","tX":539,"tY":357,"tags":{"capacity":"20","fee":"yes","name":"Wohnmobilstellplatz \"Zum Brennerwirt\""}},"984888927":{"location":[47.5424967,9.7310475],"ct":"DE","tp":"CR","ts":"2025-02-05T14:30:14Z","tX":539,"tY":357,"tags":{"addr:city":"Lindau (Bodensee)","addr:country":"DE","addr:housenumber":"177","addr:postcode":"88131","addr:street":"Bregenzer Straße","capacity":"32","caravans":"no","charge":"20.00 EUR/day","fee":"yes","maxstay":"14 days","name":"Hartplatz Zech","permanent_camping":"no","power_supply":"no","sanitary_dump_station":"yes","tents":"no","water_point":"yes","website":"https://www.lindau.de/adressen/hartplatz-zech/"}},"1016418246":{"location":[47.5503387,9.7188852],"ct":"DE","tp":"CR","ts":"2024-09-07T19:30:16Z","tX":539,"tY":357,"tags":{"caravans":"no","charge":"20 EUR / day","fee":"yes","internet_access":"no","maxstay":"48 hours","name":"Wohnmobil-Stellplatz Therme Lindau","power_supply":"yes","surface":"gravel","tents":"no"}},"1176612026":{"location":[47.6214411,9.7635057],"ct":"DE","tp":"CR","ts":"2023-05-30T07:01:02Z","tX":539,"tY":357,"tags":{"capacity":"16","charge":"15 EUR/Nacht","fee":"yes","name":"Hundrißhof","power_supply":"yes","sanitary_dump_station":"yes","water_point":"yes"}},"1200784644":{"location":[47.5959196,9.7211198],"ct":"DE","tp":"CS","ts":"2023-01-21T16:53:00Z","tX":539,"tY":357,"tags":{"access":"private","caravans":"no","contact:phone":"+49 838227700","description":"Zeltplatz nur für Mitgliedern von Rettungskräften","name":"BRK Jugendzeltlagerplatz Lindau","note":"Webseite war mal: www.zeltplatz-lindau.de","operator":"Bayerisches Rotes Kreuz","shower":"yes","tents":"only","toilets":"yes"}},"1344645450":{"location":[47.7088919,9.5924034],"ct":"DE","tp":"CS","ts":"2025-01-05T14:00:48Z","tX":539,"tY":357,"tags":{"access":"customers","capacity:caravans":"40","caravans":"yes","drinking_water":"yes","email":"spieleland@ravensburger.de","fee":"yes","kitchen":"no","name":"Ravensburger Spieleland Feriendorf Stellplätze","operator":"Ravensburger Spieleland Feriendorf","payment:cash":"yes","payment:credit_cards":"yes","payment:debit_cards":"yes","phone":"+49 7542 4000","power_supply":"yes","sanitary_dump_station":"yes","shower":"no","static_caravans":"yes","tents":"no","toilets":"no","website":"https://www.spieleland.de/de/feriendorf/wohnmobil-stellplaetze/index.html"}},"1346963594":{"location":[47.6802872,9.5528933],"ct":"DE","tp":"CR","ts":"2025-01-05T17:14:16Z","tX":539,"tY":357,"tags":{"addr:city":"Meckenbeuren","addr:country":"DE","addr:housenumber":"10-12","addr:postcode":"88074","addr:street":"Pfingstweider Straße","caravan_site":"motorhome_stopover","caravan_site:type":"town","fee":"yes","name":"Wohnmobilstellplatz Kehlen Besenwirtschaft","opening_hours":"24/7","phone":"+49 7542 1654","power_supply":"yes","reservation":"required","shower":"yes","toilets":"yes","water_point":"yes","website":"http://www.bodensee-besenwirtschaft.de/"}},"4189289043":{"location":[47.5861791,9.7067916],"ct":"DE","tp":"CR","ts":"2016-05-16T10:31:11Z","tX":539,"tY":357,"tags":{}},"9380063117":{"location":[47.680421,9.5532687],"ct":"DE","tp":"CR","ts":"2021-12-30T19:00:29Z","tX":539,"tY":357,"tags":{"addr:housenumber":"10-12","addr:postcode":"88074","addr:street":"Pfingstweider Straße","opening_hours":"24/7"}},"5754638730":{"location":[47.6773685,9.5130213],"ct":"DE","tp":"SD","ts":"2021-05-14T22:43:37Z","tX":539,"tY":357,"tags":{}},"5890130682":{"location":[47.5834128,9.7045917],"ct":"DE","tp":"SD","ts":"2023-03-06T15:20:24Z","tX":539,"tY":357,"tags":{"access":"customers","fee":"no","name":"Chemieausguss","operator":"Gitzenweiler Hof","water_point":"yes"}},"6976829100":{"location":[47.6502688,9.4959416],"ct":"DE","tp":"SD","ts":"2023-08-24T13:42:10Z","tX":539,"tY":357,"tags":{"charge":"1.00 EUR","fee":"yes"}},"10716597784":{"location":[47.5851242,9.7025952],"ct":"DE","tp":"SD","ts":"2023-03-06T15:20:24Z","tX":539,"tY":357,"tags":{"access":"customers","fee":"no","name":"Chemieausguss","operator":"Gitzenweiler Hof","water_point":"yes"}},"10716597785":{"location":[47.5842704,9.7058609],"ct":"DE","tp":"SD","ts":"2023-08-21T10:52:18Z","tX":539,"tY":357,"tags":{"access":"customers","description":"Chemieausguss","fee":"no","operator":"Gitzenweiler Hof","water_point":"yes"}},"10716597786":{"location":[47.5850193,9.7055079],"ct":"DE","tp":"SD","ts":"2023-08-21T10:52:18Z","tX":539,"tY":357,"tags":{"access":"customers","description":"Chemieausguss","fee":"no","operator":"Gitzenweiler Hof","water_point":"yes"}},"10939045387":{"location":[47.6213551,9.7637397],"ct":"DE","tp":"SD","ts":"2023-05-30T07:01:02Z","tX":539,"tY":357,"tags":{}},"12244901684":{"location":[47.5371405,9.7310944],"ct":"DE","tp":"SD","ts":"2024-10-11T20:40:18Z","tX":539,"tY":357,"tags":{"access":"customers","water_point":"yes"}}}