{"7290577":{"location":[47.4509841,9.6571408],"ct":"CH","tp":"CS","ts":"2023-07-06T07:17:38Z","tX":539,"tY":358,"tags":{"addr:city":"St. Margrethen","addr:postcode":"9430","caravans":"yes","email":"strandbad.stmargrethen@bluewin.ch","fee":"yes","image":"https://www.stmargrethen.ch/public/upload/assets/1622/Prospekt%20Bruggerhorn%202017-05.pdf","motorhome":"yes","name":"Strandbad und Camping Bruggerhorn","opening_hours":"Apr-Oct","operator":"Gemeinde St. Margrethen","phone":"+41 71 744 22 01","shower":"yes","tents":"yes","toilets":"yes","website":"https://www.stmargrethen.ch/politik-verwaltung/verwaltung/abteilungen-aemter/strandbad-und-campingplatz.html/247"}},"11499863":{"location":[47.4974474,9.6315611],"ct":"AT","tp":"CS","ts":"2020-08-13T10:25:20Z","tX":539,"tY":358,"tags":{"caravans":"yes","email":"rezeption@salzmann.at","name":"Salzmann Camping","permanent_camping":"yes","phone":"+43557875708","tents":"yes","website":"https://www.salzmann.at/camping/"}},"26860674":{"location":[47.4916551,9.5652934],"ct":"CH","tp":"CS","ts":"2023-04-24T20:01:42Z","tX":539,"tY":358,"tags":{"addr:city":"Altenrhein","addr:housenumber":"2","addr:postcode":"9423","addr:street":"Mennstrasse","email":"camping.idyll@cgsg.ch","name":"Idyll","phone":"+41 71 855 42 13","website":"https://www.cgsg.ch/"}},"53507981":{"location":[47.3552779,9.6015575],"ct":"CH","tp":"CS","ts":"2023-01-01T20:38:32Z","tX":539,"tY":358,"tags":{"addr:city":"Kriessern","addr:country":"CH","addr:housenumber":"1","addr:postcode":"9451","addr:street":"Baggerseestrasse","capacity:pitches":"88","caravans":"yes","description":"83 Dauercampingplätze, 5 Tagesgastplätze.","email":"camping-baggersee@baggersee.ch","fee":"yes","name":"Camping Baggersee Kriessern","permanent_camping":"only","phone":"+41 79 656 05 81","shower":"yes","tents":"no","toilets":"yes","toilets:wheelchair":"yes","website":"https://baggersee.ch/camping","wheelchair":"limited"}},"60927938":{"location":[47.3620757,9.6124421],"ct":"CH","tp":"CS","ts":"2024-09-07T20:30:07Z","tX":539,"tY":358,"tags":{"dog":"no","name":"Camping Sonnensee","permanent_camping":"only","power_supply":"yes","website":"https://www.sonnensee.ch"}},"83648600":{"location":[47.3785587,9.6706725],"ct":"CH","tp":"CS","ts":"2024-09-07T19:12:08Z","tX":539,"tY":358,"tags":{"cabins":"no","capacity:caravans":"2","caravans":"yes","email":"office@strandbaddiepoldsau.ch","name":"Campingplatz Diepoldsau","permanent_camping":"only","reservation":"required","tents":"no","website":"https://www.strandbaddiepoldsau.ch"}},"162016820":{"location":[47.5027395,9.7073932],"ct":"AT","tp":"CS","ts":"2025-04-19T17:23:46Z","tX":539,"tY":358,"tags":{"addr:city":"Bregenz","addr:country":"AT","addr:housenumber":"4","addr:postcode":"6900","addr:street":"Brachsenweg","caravans":"yes","description":"Divided into \"Youth\" Camping and \"normal\" Camping. Adults (from 15 Y.) € 9,00 Children from 6 – 14 Y. € 5,00 Car € 8,00 Tent € 8,00 Caravan € 8,00 Motorcycle € 5,00","drinking_water":"yes","internet_access":"no","name":"Camping Weiß","phone":"+43 664 1325548","power_supply":"yes","sanitary_dump_station":"yes","shower":"yes","tents":"yes","website":"https://www.campingweiss.at/"}},"162016922":{"location":[47.5046909,9.7137352],"ct":"AT","tp":"CS","ts":"2023-11-10T10:10:49Z","tX":539,"tY":358,"tags":{"addr:city":"Bregenz","addr:country":"AT","addr:housenumber":"1","addr:postcode":"6900","addr:street":"Hechtweg","caravans":"yes","name":"Seecamping Bregenz","operator":"G. Geisselmann","phone":"+43 5574 71895","source":"geoimage.at","tents":"yes","website":"https://www.seecamping.at/","wheelchair":"yes"}},"258673176":{"location":[47.4734035,9.5314587],"ct":"CH","tp":"CS","ts":"2023-08-23T08:41:29Z","tX":539,"tY":358,"tags":{"access":"private","addr:city":"Rorschacherberg","addr:country":"CH","addr:housenumber":"3","addr:postcode":"9404","addr:street":"Schlangenstrasse","cabins":"no","caravans":"no","contact:mobile":"+41718884085","contact:phone":"+41718552162","contact:website":"https://www.thal.ch/tourismus/unterk%C3%BCnfte?b=Thal&id=627cffdb809949417a69d57d","description":"keine Tagesgäste, nur Dauercamper","motorhome":"no","name":"Camping Schöne Aussicht","operator":"Rene Sieber","permanent_camping":"only","tents":"no"}},"359232028":{"location":[47.3992567,9.7571763],"ct":"AT","tp":"CS","ts":"2023-11-07T14:44:34Z","tX":539,"tY":358,"tags":{"capacity":"114","caravans":"yes","contact:email":"camping@dornbirn.at","contact:fax":"+43 5572 15 75 84","contact:phone":"+43 5572 29119","contact:website":"https://www.camping-dornbirn.at/","internet_access":"wlan","internet_access:fee":"no","name":"Camping Dornbirn","power_supply":"yes","shower":"yes","stars":"4","tents":"yes","toilets":"yes","wikidata":"Q93882321"}},"435363613":{"location":[47.5045152,9.7135016],"ct":"AT","tp":"CS","ts":"2023-07-04T20:33:05Z","tX":539,"tY":358,"tags":{"addr:city":"Bregenz","addr:country":"AT","addr:housenumber":"4","addr:postcode":"6900","addr:street":"Hechtweg","caravans":"yes","name":"Camping Mexiko","phone":"+43 5574 73260","tents":"yes","website":"https://www.camping-mexico.at/"}},"995923280":{"location":[47.4591621,9.5306071],"ct":"CH","tp":"CR","ts":"2024-11-04T16:15:03Z","tX":539,"tY":358,"tags":{"capacity":"5","fee":"yes","motorhome":"yes","name":"Restaurant Station","operator":"Kurverein Heiden","parking":"surface","sanitary_dump_station":"no","website":"https://www.parknsleep.app/ps/46778802"}},"1051565504":{"location":[47.4807622,9.7527077],"ct":"AT","tp":"CS","ts":"2022-08-23T18:33:29Z","tX":539,"tY":358,"tags":{"access":"permit","group_only":"yes","leisure":"summer_camp","name":"Pfadfinder Wolfurt","operator":"Pfadfinder Wolfurt","scouts":"yes"}},"1064319549":{"location":[47.4047259,9.7552179],"ct":"AT","tp":"CS","ts":"2025-05-24T15:31:51Z","tX":539,"tY":358,"tags":{"capacity:persons":"80","caravans":"no","drinking_water":"yes","group_only":"yes","name":"EUROCAMP","operator":"Pfadfindergruppe Dornbirn","tents":"yes","website":"http://eurocamp.xlnet.at"}},"1309476129":{"location":[47.4057186,9.7244597],"ct":"AT","tp":"CR","ts":"2024-08-21T20:13:12Z","tX":539,"tY":358,"tags":{"capacity":"3","drinking_water":"yes","fee":"yes","name":"Wohnmobilstellplatz Dornbirn - Mathis","power_supply":"yes","sanitary_dump_station":"yes","toilets":"no"}},"1734986787":{"location":[47.497651,9.5589962],"ct":"CH","tp":"CS","ts":"2022-06-06T20:55:08Z","tX":539,"tY":358,"tags":{"addr:city":"Thal","addr:housenumber":"44","addr:postcode":"9423","addr:street":"Rheinhofstrasse","email":"info@marinarheinhof.ch","name":"Marina Rheinhof","phone":"+41 71 855 5555","website":"https://marinarheinhof.ch/index.php/marinarheinhof/camping"}},"8850402465":{"location":[47.3890462,9.5348556],"ct":"CH","tp":"SD","ts":"2021-06-20T13:19:04Z","tX":539,"tY":358,"tags":{"description":"Nur Entsorgen ohne Übernachtung CHF 5 oder 5 €. Abwasser Entsorgung inkl. WC kann beim kleinen roten Schacht vorgenommen werden.","name":"Ziel, Altstätten","note":"WML CH"}},"9026283551":{"location":[47.3663616,9.5516413],"ct":"CH","tp":"SD","ts":"2021-08-22T12:34:26Z","tX":539,"tY":358,"tags":{"access":"yes","description":"Grauwasser, Schwarzwasser, Toilettenkassette kostenlos, Frischwasserbezug und Abfallentsorgung 5.- . Für Stellplatzbenutzer ist selbstverständlich alles kostenlos.","fee":"yes","sanitary_dump_station:basin":"yes"}},"11439935500":{"location":[47.4982894,9.5593131],"ct":"CH","tp":"SD","ts":"2023-12-21T20:11:24Z","tX":539,"tY":358,"tags":{}},"11439935501":{"location":[47.4989233,9.5605885],"ct":"CH","tp":"SD","ts":"2023-12-21T20:11:24Z","tX":539,"tY":358,"tags":{}},"4755593341":{"location":[47.4907464,9.6629708],"ct":"AT","tp":"SD","ts":"2023-03-04T21:07:51Z","tX":539,"tY":358,"tags":{"name":"Fäkalienabsauganlage"}},"9956433993":{"location":[47.5068059,9.7277608],"ct":"AT","tp":"SD","ts":"2022-08-25T07:28:23Z","tX":539,"tY":358,"tags":{}}}