{"17428365":{"location":[46.8106412,9.5883387],"ct":"CH","tp":"CR","ts":"2024-04-04T16:15:09Z","tX":539,"tY":360,"tags":{"capacity":"6","description":"CHF 15.- Öffnungszeiten: 15.05. - 23.10.","fee":"yes","name":"Stellplatz Furgglis, Tschiertschen","power_supply":"no","sanitary_dump_station":"no","seasonal":"spring;summer;autumn","toilets":"no","website":"https://www.tschiertschen.ch/de/uebersicht-unterkuenfte/wohnmobil-stellplaetze-tschiertschen"}},"128848413":{"location":[46.8615267,9.5060704],"ct":"CH","tp":"CS","ts":"2024-08-14T23:14:43Z","tX":539,"tY":360,"tags":{"email":"info@camping-chur.ch","fee":"yes","internet_access":"wlan","internet_access:fee":"1h/day free","name":"Camp Au","operator":"Andreas und Brigitte Christen-Cadruvi","phone":"+41 81 284 22 83","website":"https://www.camping-chur.ch/"}},"248722134":{"location":[46.915473,9.7396155],"ct":"CH","tp":"CR","ts":"2024-08-14T06:47:13Z","tX":539,"tY":360,"tags":{"access":"yes","capacity":"14","charge":"25 CHF","email":"info@campingfideris.ch","fee":"yes","name":"Camping Fideris","opening_hours":"Easter-Oct 31","payment:cash":"yes","payment:credit_cards":"yes","payment:twint":"yes","phone":"+41 76 690 21 90","power_supply":"yes","sanitary_dump_station":"yes","tents":"yes","website":"https://campingfideris.ch/"}},"432689456":{"location":[46.9712644,9.5961865],"ct":"CH","tp":"CS","ts":"2025-05-26T09:08:34Z","tX":539,"tY":360,"tags":{"addr:city":"Landquart","addr:housenumber":"21","addr:postcode":"7302","addr:street":"Ganda","caravans":"yes","fee":"yes","name":"Waldcamping Landquart","tents":"yes","website":"https://www.waldcamping.ch/"}},"995959168":{"location":[46.972644,9.6442213],"ct":"CH","tp":"CR","ts":"2022-12-28T19:31:29Z","tX":539,"tY":360,"tags":{"capacity":"5","email":"info@sbm-events.ch","name":"Stellplatz Grüsch","phone":"+41 81 328 18 29","website":"https://www.sbm-events.ch"}},"1039474313":{"location":[47.0048997,9.5122087],"ct":"CH","tp":"CS","ts":"2024-05-26T16:36:48Z","tX":539,"tY":360,"tags":{"contact:city":"Bad Ragaz","contact:housenumber":"41","contact:postcode":"7310","contact:street":"Seestrasse","fee":"yes","internet_access":"wlan","name":"Camping Bad Ragaz","sanitary_dump_station":"yes","shower":"yes","toilets":"yes","website":"https://www.camping-badragaz.ch/"}},"9988956721":{"location":[46.9902275,9.6544912],"ct":"CH","tp":"CR","ts":"2024-01-13T07:22:49Z","tX":539,"tY":360,"tags":{"description":"Nicht geeignet für grössere Wohnmobile nur bis 3.5t, und max 7.40m. Anfahrt schmal mit wenig Ausweichstellen.","name":"Stellplatz Lengtanne","phone":"+41813001200"}}}