{"23436603":{"location":[46.7330809,9.5473084],"ct":"CH","tp":"CR","ts":"2024-02-28T12:13:34Z","tX":539,"tY":361,"tags":{"capacity":"90","name":"Saisonaler Wohnmobilstellplatz Fadail","parking":"surface","sanitary_dump_station":"yes"}},"34995090":{"location":[46.5986972,9.5900329],"ct":"CH","tp":"CR","ts":"2025-03-02T10:46:05Z","tX":539,"tY":361,"tags":{"caravans":"yes","drinking_water":"yes","fee":"yes","name":"Camping Julia","shower":"yes","tents":"no","toilets":"yes"}},"122946000":{"location":[46.7926815,9.8181646],"ct":"CH","tp":"CR","ts":"2021-07-08T19:25:30Z","tX":539,"tY":361,"tags":{"description":"Der Stellplatz liegt unmittelbar neben dem 4* Wellness Hotel Sunstar Davos. \nPreise pro Nacht:\nCHF 18.00 pro Fahrzeug\nCHF 20.00 pro Erwachsener\nCHF 10.00 pro Kind","email":"davos@sunstar.ch","image":"https://www.google.com/maps/uv?pb=!1s0x4784a54adbafed8d%3A0x2b81134d40bb13fb!3m1!7e115!4shttps%3A%2F%2Flh5.googleusercontent.com%2Fp%2FAF1QipMhNj4gfU70fu3kYPrACauvTrcsI9NYSIB24mrM%3Dw284-h160-k-no!5ssunstar%20camping%20stellplatz%20davos%20-%20Google%20Su","internet_access":"yes","internet_access:fee":"customers","name":"Sunstar Camping Stellplatz","opening_hours":"Jun 01-Oct 17","phone":"+41 81 836 12 12","power_supply":"yes","website":"https://davos.sunstar.ch/de/camping/"}},"204554483":{"location":[46.6978773,9.559272],"ct":"CH","tp":"CS","ts":"2023-08-11T12:08:51Z","tX":539,"tY":361,"tags":{"access":"yes","addr:city":"Lantsch/Lenz","addr:country":"CH","addr:housenumber":"130","addr:postcode":"7083","addr:street":"Voia Principala","contact:phone":"+41 813842472","email":"st-cassian@camping-lenzerheide.ch","fee":"yes","internet_access":"wlan","name":"St. Cassian","phone":"+41 81 3842472","website":"https://camping-lenzerheide.ch/de/camping-st-cassian/home/"}},"212490962":{"location":[46.6187473,9.7524168],"ct":"CH","tp":"CS","ts":"2021-03-27T17:02:20Z","tX":539,"tY":361,"tags":{"addr:city":"Bergün","addr:postcode":"7482","charge":"CHF 6.00","email":"albula@berguen.ch","name":"Albula","opening_hours":"May-Oct","opening_hours:reception":"Jun-Sep 09:00-13:00,16:00-20:00","operator":"Familie Hepp","phone":"+41 81 407 11 26","website":"https://www.hotelalbula.ch/camping-albula"}},"219141435":{"location":[46.7452408,9.7794049],"ct":"CH","tp":"CR","ts":"2024-09-04T18:26:26Z","tX":539,"tY":361,"tags":{"fee":"yes","name":"Rinerlodge","power_supply":"yes","sanitary_dump_station":"yes","toilets":"yes","water_point":"yes"}},"325121445":{"location":[46.7774034,9.5399793],"ct":"CH","tp":"CS","ts":"2024-07-29T13:51:23Z","tX":539,"tY":361,"tags":{"caravans":"yes","drinking_water":"yes","name":"Camping Pradafenz","power_supply":"yes","sanitary_dump_station":"yes","shower":"yes","tents":"yes","toilets":"yes","website":"https://pradafenz.ch/"}},"394510390":{"location":[46.6717756,9.6745062],"ct":"CH","tp":"CS","ts":"2024-07-08T16:33:05Z","tX":539,"tY":361,"tags":{"capacity":"100","contact:email":"info@campingislas.ch","contact:phone":"+41 814041647","contact:website":"https://www.campingislas.ch","name":"Camping Islas"}},"491544649":{"location":[46.7230443,9.5551883],"ct":"CH","tp":"CR","ts":"2009-09-10T18:13:57Z","tX":539,"tY":361,"tags":{"name":"Gravas"}},"799419222":{"location":[46.7751425,9.6739897],"ct":"CH","tp":"CS","ts":"2022-08-08T08:39:01Z","tX":539,"tY":361,"tags":{"drinking_water":"yes","name":"Arosa","operator":"Arosa Tourismus","stars":"2","washing_machine":"yes"}},"799460478":{"location":[46.7228757,9.5554285],"ct":"CH","tp":"CS","ts":"2024-08-04T18:54:46Z","tX":539,"tY":361,"tags":{"addr:housenumber":"6","addr:postcode":"7078","addr:street":"Voa Nova","email":"gravas@camping-lenzerheide.ch","name":"Gravas","name:de":"Camping Lenzerheide","phone":"+41 81 384 23 35","website":"https://camping-lenzerheide.ch"}},"966711664":{"location":[46.6592393,9.5770636],"ct":"CH","tp":"CS","ts":"2023-05-20T15:59:32Z","tX":539,"tY":361,"tags":{"addr:city":"Tiefencastel","addr:housenumber":"14","addr:postcode":"7450","addr:street":"Cumpogna","caravans":"yes","email":"info@campingcumpogna.ch","name":"Camping Cumpogna Tiefencastel","operator":"Familien Simonet","phone":"+41 81 681 25 55","stars":"2","tents":"yes","website":"http://campingcumpogna.ch"}},"8931091512":{"location":[46.5612469,9.6239818],"ct":"CH","tp":"CS","ts":"2023-11-07T19:27:15Z","tX":539,"tY":361,"tags":{"addr:city":"Surses","addr:place":"Campingplatz Rona","addr:postcode":"7454","caravans":"yes","drinking_water":"yes","email":"info@mobilchaletpark-rona.ch","name":"Campingplatz Rona","phone":"+41 78 637 46 50","power_supply":"yes","shower":"yes","tents":"yes","toilets":"yes","website":"https://www.wohnmobilstellplatz-rona.com/"}},"8931105967":{"location":[46.6029543,9.6016551],"ct":"CH","tp":"CS","ts":"2023-04-15T14:02:15Z","tX":539,"tY":361,"tags":{"charge":"22 CHF","description":"Der Parkplatz steht Campern für maximal eine Nacht zur Verfügung und kostet CHF 22.- pro Fahrzeug, welche direkt vor Ort via ParkingPay oder ParknSleep bezahlt werden.","fee":"yes","name":"Stellplatz Lareschs"}},"8931238386":{"location":[46.7439182,9.7792095],"ct":"CH","tp":"CS","ts":"2024-09-04T18:26:26Z","tX":539,"tY":361,"tags":{"addr:city":"Davos Glaris","addr:housenumber":"64","addr:postcode":"7277","addr:street":"Landwasserstrasse","caravans":"yes","drinking_water":"yes","email":"rinerlodge.hotel@davosklosters.ch","name":"RinerLodge","phone":"+41 81 417 00 33","power_supply":"yes","sanitary_dump_station":"yes","shower":"yes","tents":"yes","toilets":"yes"}},"6794429305":{"location":[46.5612167,9.6239884],"ct":"CH","tp":"CR","ts":"2023-07-25T12:57:53Z","tX":539,"tY":361,"tags":{"capacity":"30","email":"info@mobilchaletpark-rona.ch","name":"Stellplatz Restaurant Della Punt","phone":"+41 79 419 50 35","power_supply":"yes","sanitary_dump_station":"yes","toilets":"yes","website":"https://www.wohnmobilstellplatz-rona.ch"}},"8747425920":{"location":[46.76352,9.79779],"ct":"CH","tp":"CR","ts":"2021-05-19T21:06:23Z","tX":539,"tY":361,"tags":{"capacity":"2","description":"Sommerhalbjahr","email":"graf.cyril@bluewin.ch","fee":"CHF 30.-","name":"Stellplatz Davos","phone":"+41 78 878 11 30","power_supply":"yes","sanitary_dump_station":"yes"}},"8747425921":{"location":[46.62184,9.75071],"ct":"CH","tp":"CR","ts":"2023-10-31T14:24:09Z","tX":539,"tY":361,"tags":{"capacity":"30","description":"Sommerhalbjahr 1.4. - 31.10., Entsorgungsstaion beim Werkhof Bergün","email":"info@sportbahnenberguen.ch","fee":"CHF 26.-","name":"Stellplatz Bergün","phone":"+41 81 407 12 56","sanitary_dump_station":"yes","website":"https://www.berguen-filisur.graubuenden.ch/"}},"8931238385":{"location":[46.7438549,9.7791778],"ct":"CH","tp":"CR","ts":"2024-09-04T18:26:25Z","tX":539,"tY":361,"tags":{"drinking_water":"yes","fee":"yes","name":"RinerLodge,","power_supply":"yes","sanitary_dump_station":"yes"}},"8892301921":{"location":[46.7334932,9.5466025],"ct":"CH","tp":"SD","ts":"2021-07-04T11:49:58Z","tX":539,"tY":361,"tags":{}},"9938788814":{"location":[46.7752701,9.6740185],"ct":"CH","tp":"SD","ts":"2022-08-08T08:39:01Z","tX":539,"tY":361,"tags":{}}}