{"14454664":{"location":[46.4055233,9.7107167],"ct":"CH","tp":"CS","ts":"2024-08-07T20:28:58Z","tX":539,"tY":362,"tags":{"caravans":"yes","email":"info@camping-maloja.ch","internet_access":"wlan","name":"Plan Curtinac","operator":"Pittin & Co","swimming_pool":"no","tents":"yes","website":"https://www.camping-maloja.ch/"}},"118020795":{"location":[46.4556554,9.7930261],"ct":"CH","tp":"CS","ts":"2024-10-09T08:22:18Z","tX":539,"tY":362,"tags":{"name":"Silvaplana","website":"https://campingsilvaplana.ch/"}},"269108397":{"location":[46.4777038,9.8265834],"ct":"CH","tp":"CS","ts":"2024-10-05T09:36:55Z","tX":539,"tY":362,"tags":{"addr:city":"St. Moritz","addr:postcode":"7500","addr:street":"Via San Gian","caravans":"yes","fee":"yes","name":"TCS Camping St. Moritz","operator":"Touring Club Schweiz","website":"https://www.tcs.ch/de/reisen-camping/camping/angebote/st-moritz.php"}},"391848094":{"location":[46.3569952,9.6304667],"ct":"CH","tp":"CS","ts":"2025-05-18T15:55:33Z","tX":539,"tY":362,"tags":{"addr:city":"Vicosoprano","addr:postcode":"7603","backcountry":"no","camp_site":"serviced","caravans":"yes","drinking_water":"yes","fax":"+41 81 822 10 30","group_only":"no","name":"Camping Mulina","openfire":"yes","phone":"+41 81 822 10 35","power_supply":"yes","shower":"yes","tents":"yes","toilets":"yes","website":"https://campingmulina.ch/"}},"799414965":{"location":[46.4635521,9.6560828],"ct":"CH","tp":"CS","ts":"2020-05-03T16:43:01Z","tX":539,"tY":362,"tags":{"addr:postcode":"7457","email":"kurverein@bivio.ch","name":"Camping Bivio","phone":"+41 81 684 18 38"}},"8930961151":{"location":[46.5584554,9.6282105],"ct":"CH","tp":"CS","ts":"2021-07-18T17:32:33Z","tX":539,"tY":362,"tags":{"fee":"yes","name":"Naturzeltplatz Rona","website":"https://www.geissenhof-rona.ch/naturzeltplatz.html"}},"9928926617":{"location":[46.3932216,9.6238325],"ct":"CH","tp":"CS","ts":"2022-08-03T07:44:16Z","tX":539,"tY":362,"tags":{"name":"Maroz Camp"}},"8747425922":{"location":[46.4561487,9.8138724],"ct":"CH","tp":"CR","ts":"2023-11-07T19:27:22Z","tX":539,"tY":362,"tags":{"capacity":"34","description":"Sommerhalbjahr 1.6. - 22.10., Anmeldung beiReception Camping Silvaplana","fee":"CHF 35.-","name":"Stellplatz Silvaplana","phone":"+41 81 828 84 92","power_supply":"yes","website":"https://campingsilvaplana.ch/"}},"8747425924":{"location":[46.4633287,9.6564441],"ct":"CH","tp":"CR","ts":"2021-05-19T21:06:23Z","tX":539,"tY":362,"tags":{"capacity":"5","fee":"CHF 25.-","name":"Stellplatz Bivio","phone":"+41 81 684 52 33","power_supply":"yes"}},"8869409793":{"location":[46.5584449,9.6280403],"ct":"CH","tp":"CR","ts":"2021-06-27T09:19:02Z","tX":539,"tY":362,"tags":{}},"12098755635":{"location":[46.4464119,9.5770245],"ct":"CH","tp":"CR","ts":"2024-08-08T12:27:37Z","tX":539,"tY":362,"tags":{"addr:city":"Juf","addr:postcode":"7448","internet_access":"no","name":"Stellplatz Avers-Juf","power_supply":"no","sanitary_dump_station":"no"}},"12098824466":{"location":[46.4489258,9.551008],"ct":"CH","tp":"CR","ts":"2024-12-04T17:35:15Z","tX":539,"tY":362,"tags":{"addr:city":"Avers","addr:postcode":"7447","addr:street":"Juppa","name":"Stellplatz Avers-Juppa","power_supply":"no","sanitary_dump_station":"no"}},"9995348532":{"location":[46.3562799,9.6310139],"ct":"CH","tp":"SD","ts":"2022-09-02T15:50:31Z","tX":539,"tY":362,"tags":{}}}