{"1271770227":{"location":[45.1853487,9.7941605],"ct":"IT","tp":"CR","ts":"2024-04-11T16:13:32Z","tX":539,"tY":367,"tags":{"name":"Camper Service Pizzighettone","sanitary_dump_station":"yes","water_point":"yes"}},"1313667521":{"location":[45.3123325,9.5163925],"ct":"IT","tp":"CR","ts":"2024-09-06T06:43:55Z","tX":539,"tY":367,"tags":{"addr:city":"Lodi","addr:street":"Via Generale Andrea Massena","area":"yes","fee":"yes","name":"Area Camper Lodi","opening_hours":"24/7","power_supply":"no","sanitary_dump_station":"yes"}},"8335055917":{"location":[45.3124147,9.5164845],"ct":"IT","tp":"CR","ts":"2024-09-06T06:43:55Z","tX":539,"tY":367,"tags":{"addr:city":"Lodi","addr:street":"Via Generale Andrea Massena","name":"Area Camper Lodi","opening_hours":"24/7"}},"10968256168":{"location":[45.1437796,9.6331523],"ct":"IT","tp":"SD","ts":"2023-06-10T21:06:12Z","tX":539,"tY":367,"tags":{"sanitary_dump_station:chemical_toilet":"yes","sanitary_dump_station:fee":"no","sanitary_dump_station:gravity":"yes","sanitary_dump_station:grey_water":"yes","sanitary_dump_station:suction":"no"}}}