{"355283908":{"location":[44.3507196,9.5547515],"ct":"IT","tp":"CS","ts":"2025-02-24T20:23:51Z","tX":539,"tY":370,"tags":{"cabins":"yes","capacity:caravans":"2","capacity:tents":"11","caravans":"yes","contact:phone":"+39 338 794526","dog":"yes","motorhome":"yes","name":"RioRequesa","power_supply":"yes","power_supply:maxcurrent":"2;4","reservation":"yes","socket:cee_blue":"yes","swimming_pool":"yes","tents":"yes","website":"https://riorequesa.com/"}},"401737660":{"location":[44.4860627,9.7662179],"ct":"IT","tp":"CS","ts":"2024-09-03T15:30:46Z","tX":539,"tY":370,"tags":{"caravans":"yes","motorhome":"yes","name":"Camping Europa","operator":"Pro Loco Borgo Val di Taro","permanent_camping":"yes","phone":"+39 052599363","power_supply":"yes","shower":"yes","socket:cee_blue":"yes","stars":"2","tents":"yes","toilets":"yes","website":"https://www.prolocoborgotaro.net/camping/"}},"441406837":{"location":[44.510081,9.6291997],"ct":"IT","tp":"CS","ts":"2024-09-03T15:34:45Z","tX":539,"tY":370,"tags":{"addr:city":"Bedonia","addr:housenumber":"5","addr:street":"Largo Colombo","cabins":"yes","caravans":"yes","fee":"yes","name":"Camping Monte Pelpi","phone":"+39 327 3171350","power_supply":"yes","shower":"yes","tents":"yes","toilets":"yes","website":"https://www.centrosportivomontepelpi.it/"}},"1265927201":{"location":[44.4320999,9.4930649],"ct":"IT","tp":"CR","ts":"2024-09-03T15:37:22Z","tX":539,"tY":370,"tags":{"addr:city":"Santa Maria del Taro","addr:street":"Via Nazionale Sud","capacity":"4","caravans":"no","name":"Santa Maria del Taro","power_supply":"yes","sanitary_dump_station":"yes","socket:cee_blue":"yes","tents":"no","toilets":"no","water_point":"yes","website":"https://www.castellidelducato.it/castellidelducato/area-camper.asp?el=area-del-ponte-nuovo"}},"1337934533":{"location":[44.3765164,9.5912515],"ct":"IT","tp":"CR","ts":"2024-11-26T07:57:58Z","tX":539,"tY":370,"tags":{"description":"Parcheggio in adiacenza a campo da campo sportivo","fee":"no","name":"Parcheggio","power_supply":"no","sanitary_dump_station":"no"}}}