{"7324840":{"location":[44.2409143,9.5032007],"ct":"IT","tp":"CS","ts":"2021-06-09T17:03:09Z","tX":539,"tY":371,"tags":{"contact:email":"agriturismolegrigue@gmail.com","contact:phone":"+39 347 6087976","internet_access":"yes","name":"Agriturismo Le Grigue","website":"http://www.legrigue.it"}},"26859860":{"location":[44.224722,9.551389],"ct":"IT","tp":"CS","ts":"2023-11-09T11:47:19Z","tX":539,"tY":371,"tags":{"addr:city":"Deiva Marina","addr:country":"IT","cabins":"yes","caravans":"yes","dryer":"yes","email":"camping@valdeiva.it","internet_access":"wlan","internet_access:fee":"yes","name":"Valdeiva","payment:cash":"yes","payment:credit_cards":"yes","payment:girocard":"yes","payment:mastercard":"yes","payment:visa":"yes","power_supply":"yes","tents":"yes","washing_machine":"yes","website":"https://www.valdeiva.it/"}},"160089240":{"location":[44.1659722,9.6141141],"ct":"IT","tp":"CS","ts":"2025-02-24T20:23:51Z","tX":539,"tY":371,"tags":{"addr:city":"Levanto","addr:housenumber":"5","addr:postcode":"19015","addr:street":"Via Guido Semenza","caravans":"yes","dog":"yes","fee":"yes","internet_access":"yes","motorhome":"yes","name":"Acquadolce","phone":"+39 0187 808465","power_supply":"yes","shower":"yes","socket:cee_blue":"yes","stars":"3","tents":"yes","toilets":"yes","washing_machine":"yes","website":"https://www.campingacquadolce.com/"}},"235809148":{"location":[44.2267528,9.5509701],"ct":"IT","tp":"CS","ts":"2015-03-12T18:57:17Z","tX":539,"tY":371,"tags":{"name":"Camping La Sfinge"}},"292874749":{"location":[44.216375,9.5209256],"ct":"IT","tp":"CS","ts":"2024-10-22T05:54:56Z","tX":539,"tY":371,"tags":{"cabins":"yes","capacity:caravans":"13","capacity:tents":"40","caravans":"yes","email":"info@campingdegliulivi.it","fee":"yes","motorhome":"yes","name":"Degli Ulivi","phone":"+39 0187 816495","power_supply":"yes","power_supply:maxcurrent":"6","shower":"hot","socket:cee_blue":"yes","stars":"2","tents":"yes","toilets":"yes","website":"https://www.campingdegliulivi.it/","wheelchair":"no"}},"292874750":{"location":[44.2144887,9.5194841],"ct":"IT","tp":"CS","ts":"2023-11-09T11:47:12Z","tX":539,"tY":371,"tags":{"name":"Camping Fornaci","website":"https://www.campingfornacialmare.it/"}},"294642295":{"location":[44.2084418,9.5423576],"ct":"IT","tp":"CS","ts":"2014-07-27T08:47:00Z","tX":539,"tY":371,"tags":{"email":"ilnidodelgabbiano@yahoo.it","internet_access":"wlan","internet_access:fee":"no","name":"Il nido del gabbiano","phone":"+39 0187 810155","stars":"2","website":"http://www.ilnidodelgabbiano.com/","wheelchair":"yes"}},"332491572":{"location":[44.2744419,9.5918339],"ct":"IT","tp":"CS","ts":"2021-07-19T10:13:16Z","tX":539,"tY":371,"tags":{"name":"Ca du Chittu"}},"338200275":{"location":[44.1550262,9.6594387],"ct":"IT","tp":"CR","ts":"2023-11-09T11:47:21Z","tX":539,"tY":371,"tags":{"addr:street":"Località Begasti","charge":"13 €","email":"info@parkcamperilpoggio5terre.it","fee":"yes","internet_access":"wlan","name":"Parcheggio Camper \"Il Poggio\"","phone":"+39 366 4246163","power_supply":"yes","sanitary_dump_station":"yes","toilets":"no","website":"https://www.parkcamperilpoggio5terre.it/"}},"345295375":{"location":[44.2290394,9.534194],"ct":"IT","tp":"CS","ts":"2017-12-19T11:59:28Z","tX":539,"tY":371,"tags":{"addr:city":"Deiva Marina","addr:country":"IT","addr:postcode":"19013","addr:province":"Ligurien","email":"info@campingarenella.it","fax":"+39 0187 826884","internet_access":"wlan","internet_access:fee":"yes","name":"Camping Arenella","phone":"+39 0187 825259","sanitary_dump_station":"customers","smoking":"yes","website":"www.campingarenella.it"}},"351297030":{"location":[44.2340947,9.6615263],"ct":"IT","tp":"CS","ts":"2024-11-26T08:19:47Z","tX":539,"tY":371,"tags":{"addr:city":"Carrodano","addr:housenumber":"20","addr:postcode":"19020","addr:street":"Via Aurelia","bbq":"yes","caravans":"yes","contact:email":"bracchettovetta2@gmail.com","contact:phone":"+39 350 088 9758","contact:website":"https://www.campingbracchettovetta.com/","contact:whatsapp":"+39 350 088 9758","dog":"yes","fee":"yes","internet_access":"wlan","internet_access:fee":"no","motorhome":"yes","name":"Campeggio Bracchetto Vetta","permanent_camping":"yes","power_supply":"yes","sanitary_dump_station":"yes","shower":"yes","shower:fee":"yes","socket:cee_blue":"yes","start_date":"1959","static_caravans":"yes","tents":"yes","toilets":"yes"}},"440840404":{"location":[44.210735,9.5245435],"ct":"IT","tp":"CS","ts":"2024-10-04T14:03:50Z","tX":539,"tY":371,"tags":{"access":"yes","caravans":"yes","check_date":"2024-10-04","drinking_water":"yes","ele":"9","fee":"yes","internet_access":"wlan","internet_access:fee":"customers","name":"Camping Framura","payment:cash":"yes","payment:mastercard":"yes","payment:visa":"yes","phone":"+39 0187 815030","power_supply":"yes","sanitary_dump_station":"yes","shower":"yes","static_caravans":"yes","tents":"yes","toilets":"yes","website":"http://www.campingframura.it/"}},"952734219":{"location":[44.2322809,9.4973506],"ct":"IT","tp":"CS","ts":"2024-09-04T06:23:56Z","tX":539,"tY":371,"tags":{"addr:city":"Moneglia","addr:housenumber":"39","addr:street":"Lungomare Dante Alighieri","area":"yes","cabins":"yes","caravans":"yes","email":"ilrospo_camping-2012@yahoo.it","fee":"yes","mobile":"+39 339 4780546","name":"Il Rospo","note":"This camping can't legally be reached by bicycle, but guests are encouraged to ignore the access restriction on the short tunnel. For pedestrians an alternative, safer route over the tunnel exists and is recommended by staff, but isn't signposted.","phone":"+39 0185 491111","power_supply":"yes","shower":"yes","socket:cee_blue":"yes","tents":"yes","toilets":"yes","website":"http://www.campingilrospo.it"}},"998229598":{"location":[44.1754329,9.6338464],"ct":"IT","tp":"CS","ts":"2024-09-04T07:42:32Z","tX":539,"tY":371,"tags":{"caravans":"yes","internet_access":"wlan","internet_access:fee":"no","name":"San Michele","phone":"+39 0187 800449","power_supply":"yes","sanitary_dump_station":"yes","shower":"yes","socket:cee_blue":"yes","stars":"2","tents":"yes","toilets":"yes","website":"https://campinglevanto.eu/","wheelchair":"limited"}},"1162787486":{"location":[44.1741217,9.6253117],"ct":"IT","tp":"CS","ts":"2024-09-04T07:32:21Z","tX":539,"tY":371,"tags":{"addr:city":"Levanto","addr:postcode":"19015","addr:street":"Località Sella Mereti","caravans":"yes","email":"info@campingcinqueterre.it","internet_access":"yes","name":"Camping 5 Terre Levanto","opening_hours":"Mo-Su 08:00-00:00","phone":"+39 0187 801252","power_supply":"yes","shower":"yes","socket:cee_blue":"yes","source":"http://www.campingcinqueterre.it","tents":"yes","toilets":"yes","toilets:wheelchair":"yes","website":"http://www.campingcinqueterre.it/","wheelchair":"yes"}},"1162787487":{"location":[44.1747328,9.6239082],"ct":"IT","tp":"CS","ts":"2025-04-08T15:05:47Z","tX":539,"tY":371,"tags":{"addr:city":"Levanto","addr:postcode":"19015","addr:street":"Loc. Pian di Picche","cabins":"yes","caravans":"yes","contact:website":"https://www.piandipicche.it/index.html","drinking_water":"yes","email":"piandipicche@libero.it","internet_access":"yes","internet_access:fee":"customers","name":"Pian di Picche","phone":"+39 0187 800597","power_supply":"yes","sanitary_dump_station":"yes","shower":"yes","socket:cee_blue":"yes","tents":"yes","toilets":"yes","toilets:wheelchair":"limited","wheelchair":"limited"}},"1162787488":{"location":[44.1753887,9.6224817],"ct":"IT","tp":"CS","ts":"2025-06-21T10:54:29Z","tX":539,"tY":371,"tags":{}},"1730765859":{"location":[44.258248,9.4992825],"ct":"IT","tp":"CS","ts":"2012-04-25T15:50:55Z","tX":539,"tY":371,"tags":{}},"9216912137":{"location":[44.1813491,9.5842243],"ct":"IT","tp":"CR","ts":"2024-04-19T09:43:37Z","tX":539,"tY":371,"tags":{"access":"yes","drinking_water":"yes","fee":"yes","lit":"yes","name:signed":"no","opening_hours":"24/7","parking":"street_side","parking:orientation":"parallel","power_supply":"no","sanitary_dump_station":"no","supervised":"no","surface":"asphalt","toilets":"no"}},"9216912138":{"location":[44.1804474,9.5846897],"ct":"IT","tp":"CR","ts":"2024-04-19T09:44:00Z","tX":539,"tY":371,"tags":{"access":"yes","drinking_water":"no","fee":"yes","lit":"yes","name:signed":"no","opening_hours":"24/7","parking":"street_side","parking:orientation":"parallel","power_supply":"no","sanitary_dump_station":"no","supervised":"no","surface":"asphalt","toilets":"no"}},"4363734648":{"location":[44.1550084,9.6595559],"ct":"IT","tp":"SD","ts":"2016-08-24T00:18:13Z","tX":539,"tY":371,"tags":{}},"12219043252":{"location":[44.2117033,9.5227724],"ct":"IT","tp":"SD","ts":"2024-10-03T16:55:51Z","tX":539,"tY":371,"tags":{}},"12942329303":{"location":[44.1755132,9.6219682],"ct":"IT","tp":"CS","ts":"2025-06-21T10:54:29Z","tX":539,"tY":371,"tags":{"addr:city":"Levanto","addr:housenumber":"6a","addr:postcode":"19015","addr:street":"Via Albero d'Oro","caravans":"yes","dog":"yes","email":"info@campingalberodoro.com","fee":"yes","internet_access":"yes","internet_access:fee":"customers","motorhome":"yes","name":"Camping Albero d'oro","phone":"+39 0187 800400","power_supply":"yes","shower":"yes","socket:cee_blue":"yes","tents":"yes","toilets":"yes","website":"https://www.campingalberodoro.com/"}}}