{"103381796":{"location":[42.2226521,9.5512262],"ct":"FR","tp":"CS","ts":"2024-05-13T15:24:02Z","tX":539,"tY":379,"tags":{"addr:city":"Bravone","addr:postcode":"20230","addr:street":"Domaine de Giustiniana","caravans":"yes","email":"info@eucalyptus-camping.com","name":"Les Eucalyptus","nudism":"yes","phone":"+33 495388717","tents":"yes","website":"https://www.linguizzetta.fr/Camping-Les-Eucalyptus_a47.html"}},"117010441":{"location":[42.2167269,9.5527046],"ct":"FR","tp":"CS","ts":"2024-05-13T15:24:02Z","tX":539,"tY":379,"tags":{"addr:city":"Bravone","addr:postcode":"20230","caravans":"yes","communication:mobile_phone":"+33620652833","description":"Camping naturiste en Corse situé le long d'une plage idyllique. Un village de vacances idéal pour pratiquer le naturisme en bord de mer.","dog":"leashed","drinking_water":"yes","email":"bagheera@bagheera.fr","fee":"yes","group_only":"no","internet_access":"yes","internet_access:fee":"customers","name":"Domaine de Bagheera","nudism":"designated","opening_hours":"Apr 1-Oct 31","phone":"+33495388030","power_supply":"yes","reservation":"recommended","sanitary_dump_station":"yes","shower":"yes","stars":"4","static_caravans":"yes","tents":"yes","toilets":"yes","website":"https://www.bagheera.fr/","wheelchair":"yes"}},"119246477":{"location":[42.1087941,9.5492815],"ct":"FR","tp":"CS","ts":"2024-06-23T12:36:19Z","tX":539,"tY":379,"tags":{"addr:place":"Plage de Padulone","camp_site":"deluxe","caravans":"yes","dog":"yes","email":"info@marina-aleria.com","internet_access":"wlan","name":"Camping Marina d'Aleria","phone":"+33 4 95 57 01 42","stars":"4","tents":"yes","website":"https://www.marina-aleria.com/"}},"159817001":{"location":[42.1596409,9.5499714],"ct":"FR","tp":"CS","ts":"2024-05-13T13:24:38Z","tX":539,"tY":379,"tags":{"access":"yes","capacity:persons":"50","caravans":"yes","email":"rivabella.corsica@gmail.com","internet_access":"wlan","name":"camping riva bella corse","nudism":"customary","phone":"+33 4 95 38 86 06","stars":"4","static_caravans":"yes","tents":"yes","website":"https://www.naturisme-rivabella.com/"}},"245051667":{"location":[42.225955,9.5499988],"ct":"FR","tp":"CS","ts":"2024-05-13T15:24:02Z","tX":539,"tY":379,"tags":{"addr:city":"San Nicolao","addr:postcode":"20230","capacity:tents":"188","internet_access":"wlan","landuse":"residential","name":"Corsica Natura","nudism":"yes","phone":"+33 4 95 38 91 30","stars":"2","tents":"yes","website":"http://www.corsica-natura.com","wheelchair":"limited"}},"497365830":{"location":[42.1689555,9.5298705],"ct":"FR","tp":"CS","ts":"2009-09-15T22:05:22Z","tX":539,"tY":379,"tags":{}},"1402286169":{"location":[42.2022836,9.554953],"ct":"FR","tp":"CS","ts":"2021-02-22T17:30:00Z","tX":539,"tY":379,"tags":{"name":"Camping Au Bord de Mer","toilets:wheelchair":"no","wheelchair":"yes"}},"2469276266":{"location":[42.2647511,9.555174],"ct":"FR","tp":"CS","ts":"2019-04-19T12:38:58Z","tX":539,"tY":379,"tags":{"name":"Amurucciu"}},"2523103535":{"location":[42.2262434,9.5491103],"ct":"FR","tp":"CS","ts":"2023-04-02T07:45:51Z","tX":539,"tY":379,"tags":{"cabins":"yes","caravans":"yes","motorhome":"yes","name":"Camping Corsica natura","nudism":"yes","phone":"+33 4 95 38 91 30","shower":"yes","tents":"yes","website":"https://www.corsica-natura.com/location-bungalows-camping-corse/camping-naturiste-corsica-natura/"}},"9927970344":{"location":[42.156876,9.5172045],"ct":"FR","tp":"CS","ts":"2022-08-02T20:22:05Z","tX":539,"tY":379,"tags":{"capacity":"6","caravans":"yes","email":"pascal.mazoyer046@orange.fr","internet_access":"no","name":"Domaine Caniciololetto","phone":"+33609651310","reservation":"recommended","tents":"yes"}},"11503207825":{"location":[42.1571007,9.5169617],"ct":"FR","tp":"CR","ts":"2024-01-09T14:12:24Z","tX":539,"tY":379,"tags":{"caravan_site":"motorhome_stopover","caravan_site:type":"farm_shop","facebook":"https://www.facebook.com/people/Domaine-canicioletto/100066699436782/","name":"Domaine Caniciololetto","opening_hours":"May-Oct","product":"olive_oil;vegetables;honey"}}}