{"26860544":{"location":[40.578611,9.773056],"ct":"IT","tp":"CS","ts":"2024-06-11T11:56:23Z","tX":539,"tY":385,"tags":{"caravans":"yes","drinking_water":"yes","name":"Selema Camping","power_supply":"yes","sanitary_dump_station":"yes","shower":"yes","tents":"yes","toilets":"yes","website":"https://www.selemacamping.com/"}},"134400322":{"location":[40.7014769,9.7157907],"ct":"IT","tp":"CS","ts":"2024-09-10T15:20:54Z","tX":539,"tY":385,"tags":{"cabins":"yes","caravans":"yes","fee":"yes","motorhome":"yes","name":"Pedra & Cupa","power_supply":"yes","power_supply:maxcurrent":"6","socket:cee_blue":"yes","tents":"yes","website":"http://www.pedraecupa-camping.com/"}},"156719716":{"location":[40.6002073,9.7500844],"ct":"IT","tp":"CR","ts":"2022-11-08T14:36:28Z","tX":539,"tY":385,"tags":{"access":"yes","caravans":"yes","charge":"20â‚¬ / night","fee":"yes","parking":"surface","surface":"sand"}},"172678486":{"location":[40.6320463,9.7394827],"ct":"IT","tp":"CS","ts":"2022-04-10T07:25:18Z","tX":539,"tY":385,"tags":{"name":"Ermosa","website":"https://www.campingermosa.com"}},"280115960":{"location":[40.6766505,9.7484867],"ct":"IT","tp":"CS","ts":"2022-04-10T07:21:13Z","tX":539,"tY":385,"tags":{"name":"Camping Sa Marina","website":"https://www.samarina.com"}},"610512699":{"location":[40.5798679,9.7750572],"ct":"IT","tp":"CS","ts":"2021-07-08T08:42:54Z","tX":539,"tY":385,"tags":{"addr:city":"Santa Lucia","addr:housenumber":"1","addr:postcode":"08029","addr:street":"Viale Dei Pini","email":"info@villaggiomandragola.com","fee":"yes","name":"La Mandragola","phone":"+390784819146","url":"http://www.villaggiomandragola.com","website":"https://www.villaggiomandragola.com/"}},"800475720":{"location":[40.5688874,9.787193],"ct":"IT","tp":"CS","ts":"2023-01-09T17:25:30Z","tX":539,"tY":385,"tags":{"cabins":"yes","name":"Amfibie Treks","website":"https://www.amfibietreks.de"}},"1723404763":{"location":[40.7090892,9.7121863],"ct":"IT","tp":"CS","ts":"2012-04-19T23:09:13Z","tX":539,"tY":385,"tags":{"name":"Camping Salamaghe"}},"10357875563":{"location":[40.5696865,9.7858576],"ct":"IT","tp":"CS","ts":"2024-02-09T11:58:04Z","tX":539,"tY":385,"tags":{"addr:city":"Thiniscole/Siniscola","addr:postcode":"08029","addr:street":"Strada Statale 125 Orientale Sarda","cabins":"yes","caravans":"yes","email":"info@calapineta.it","fee":"yes","mobile":"+39 331 2084298","name":"Cala Pineta","phone":"+39 0784 819184","static_caravans":"yes","tents":"yes","website":"https://www.calapineta.it"}},"5138617421":{"location":[40.5924693,9.7568579],"ct":"IT","tp":"CR","ts":"2017-09-29T22:17:15Z","tX":539,"tY":385,"tags":{}}}