{"119452886":{"location":[39.8204872,9.6712419],"ct":"IT","tp":"CS","ts":"2023-01-28T11:07:47Z","tX":539,"tY":388,"tags":{"name":"Camping La Pineta","phone":"+39 0782 29372","url":"http://www.campingbungalowlapineta.it"}},"119456212":{"location":[39.8417097,9.6829363],"ct":"IT","tp":"CS","ts":"2023-11-10T22:24:00Z","tX":539,"tY":388,"tags":{"caravans":"yes","drinking_water":"yes","internet_access":"wlan","name":"Camping Marina","power_supply":"yes","shower":"yes","tents":"yes","toilets":"yes","website":"https://www.campingmarina.it/"}},"121291732":{"location":[39.7278393,9.6733275],"ct":"IT","tp":"CS","ts":"2016-07-29T00:10:44Z","tX":539,"tY":388,"tags":{"name":"Campeggio Coccorrocci"}},"220928538":{"location":[39.7024075,9.6675306],"ct":"IT","tp":"CS","ts":"2018-01-05T11:17:58Z","tX":539,"tY":388,"tags":{"name":"Tesonis"}},"289634110":{"location":[39.9075261,9.6805927],"ct":"IT","tp":"CS","ts":"2014-11-07T14:54:28Z","tX":539,"tY":388,"tags":{"name":"Camping Cigno Bianco"}},"289634113":{"location":[39.9064977,9.6809607],"ct":"IT","tp":"CS","ts":"2018-06-23T11:31:07Z","tX":539,"tY":388,"tags":{"internet_access":"wlan","internet_access:fee":"no","name":"Camping Orrì","phone":"+39 0782 624695"}},"298042079":{"location":[39.8183196,9.6731098],"ct":"IT","tp":"CS","ts":"2020-04-27T12:39:54Z","tX":539,"tY":388,"tags":{"contact:mobile":"+39 342 71 08 608","email":"info@campingultimaspiaggia.it","internet_access":"wlan","internet_access:fee":"no","internet_access:ssid":"UltimaSpiaggaWifi","name":"Camping L'Ultima Spiaggia","phone":"+39 0782 29 363","stars":"4","website":"https://www.campingultimaspiaggia.it/"}},"601114225":{"location":[39.9032281,9.6814831],"ct":"IT","tp":"CR","ts":"2018-06-23T17:52:36Z","tX":539,"tY":388,"tags":{"addr:housenumber":"8","addr:street":"Via Tirreno","fixme":"resurvey","name":"Tanca Orri‘"}},"1089812964":{"location":[39.8313297,9.678091],"ct":"IT","tp":"CR","ts":"2024-05-11T12:50:17Z","tX":539,"tY":388,"tags":{"drinking_water":"yes","name":"Area Sosta Camper Torre di Bari Sardo","name:it":"Area Sosta Camper Torre di Bari Sardo","power_supply":"yes","sanitary_dump_station":"yes","toilets":"yes"}},"1113615224":{"location":[39.8137987,9.4931075],"ct":"IT","tp":"CS","ts":"2023-09-13T14:51:11Z","tX":539,"tY":388,"tags":{"addr:city":"Ulassai","addr:postcode":"08040","addr:street":"Campo Sportivo","caravans":"yes","name":"Camping Theleme","name:en":"Theleme","operator":"Antonio, Ester, Sylvia","tents":"yes","website":"http://www.campingtheleme.com/"}},"1141502503":{"location":[39.8691319,9.681285],"ct":"IT","tp":"CR","ts":"2023-02-09T16:57:25Z","tX":539,"tY":388,"tags":{"name":"Area Attrezzata Camper Baia Cea Tortolì"}},"1141502505":{"location":[39.8690214,9.6797645],"ct":"IT","tp":"CR","ts":"2023-02-09T16:57:25Z","tX":539,"tY":388,"tags":{"name":"Area attrezzata Rocce Rosse"}},"12187706923":{"location":[39.9067079,9.6807161],"ct":"IT","tp":"CS","ts":"2024-09-20T08:04:26Z","tX":539,"tY":388,"tags":{"addr:city":"Tortoli","addr:housenumber":"1","addr:postcode":"08048","addr:street":"Via Tirreno","caravans":"yes","fee":"yes","name":"Camping Village Orri","static_caravans":"yes","tents":"yes"}},"4857125222":{"location":[39.7540375,9.671214],"ct":"IT","tp":"CR","ts":"2017-05-16T07:27:40Z","tX":539,"tY":388,"tags":{"name":"Sosta Cardedu OG","name:it":"Sosta Cardedu OG"}},"9050340485":{"location":[39.7837578,9.6684816],"ct":"IT","tp":"CR","ts":"2021-08-31T09:29:45Z","tX":539,"tY":388,"tags":{"addr:city":"Cardedu","name":"Area Sosta Camper Mare Blu","name:it":"Area Sosta Camper Mare Blu","sanitary_dump_station":"yes"}},"9050340486":{"location":[39.6932111,9.6570449],"ct":"IT","tp":"CR","ts":"2021-08-31T09:29:45Z","tX":539,"tY":388,"tags":{"addr:city":"Tertenia","name":"Area Sosta Camper Foxi Manna","name:it":"Area Sosta Camper Foxi Manna","power_supply":"yes","sanitary_dump_station":"yes"}},"5977868430":{"location":[39.8178863,9.6723157],"ct":"IT","tp":"SD","ts":"2022-06-19T09:13:08Z","tX":539,"tY":388,"tags":{}}}