{"141998447":{"location":[39.1294046,9.5271639],"ct":"IT","tp":"CR","ts":"2024-09-12T06:27:12Z","tX":539,"tY":390,"tags":{"addr:street":"Via delle Polane","bbq":"yes","contact:facebook":"https://www.facebook.com/Campersimius/","motorhome":"designated","name":"Area Sosta Campersimius","phone":"+39 329 418 9478","power_supply":"yes","power_supply:maxcurrent":"3","sanitary_dump_station":"yes","shower":"y","socket:cee_blue":"yes","toilets":"yes","website":"http://www.campersimius.com"}},"171961937":{"location":[39.1222111,9.5115504],"ct":"IT","tp":"CS","ts":"2024-09-12T06:24:39Z","tX":539,"tY":390,"tags":{"addr:city":"Villasimius","addr:housenumber":"2","addr:postcode":"09049","addr:street":"Via degli Aranci","cabins":"yes","caravans":"yes","fee":"yes","motorhome":"yes","name":"Villaggio Camping Spiaggia del Riso","power_supply":"yes","power_supply:maxcurrent":"3","socket:cee_blue":"yes","tents":"yes","website":"https://www.villaggiospiaggiadelriso.it/"}},"228130813":{"location":[39.276295,9.5836692],"ct":"IT","tp":"CS","ts":"2019-03-20T04:25:51Z","tX":539,"tY":390,"tags":{"internet_access":"wlan","internet_access:fee":"yes","name":"Le Dune","stars":"3","website":"https://www.campingledune.it/"}},"260081063":{"location":[39.2416566,9.5696691],"ct":"IT","tp":"CS","ts":"2024-09-12T10:15:51Z","tX":539,"tY":390,"tags":{"cabins":"yes","caravans":"yes","email":"info@campingcapoferrato.it","fee":"yes","internet_access":"wlan","internet_access:fee":"no","motorhome":"yes","name":"Capo Ferrato","name:en":"Villaggio Camping Capo Ferrato","name:it":"Villaggio Camping Capo Ferrato","phone":"+39070885653","power_supply":"yes","power_supply:maxcurrent":"6","socket:cee_blue":"yes","tents":"yes","website":"https://www.campingcapoferrato.com/"}},"260948901":{"location":[39.2908661,9.6004472],"ct":"IT","tp":"CS","ts":"2024-09-12T10:21:41Z","tX":539,"tY":390,"tags":{"name":"Tiliguerta","phone":"+39 070 991437-38","power_supply":"yes","socket:cee_blue":"6;10;16","website":"https://www.tiliguerta.com/"}},"263713546":{"location":[39.2360678,9.5194493],"ct":"IT","tp":"CR","ts":"2018-03-12T18:06:31Z","tX":539,"tY":390,"tags":{"fixme":"I don't understand what contain this area (it requires direct territorial knowledge)","note":"FIXME  ... fixed this is a caravan vacation area"}},"276492004":{"location":[39.3663647,9.5961194],"ct":"IT","tp":"CS","ts":"2024-09-12T10:30:43Z","tX":539,"tY":390,"tags":{"area":"yes","cabins":"yes","caravans":"yes","dog":"yes","email":"info@campingvillagetorresalinas.it","fee":"yes","motorhome":"yes","name":"Campeggio Torre Salinas","phone":"+39 070 999032","phone:mobile":"+39 3922903704","power_supply":"yes","power_supply:maxcurrent":"10","socket:cee_blue":"yes","stars":"3","tents":"yes","website":"https://www.campingvillagetorresalinas.it/"}},"453226170":{"location":[39.215646,9.5649089],"ct":"IT","tp":"CS","ts":"2017-01-10T12:10:18Z","tX":539,"tY":390,"tags":{"name":"Sant'Elmo Holiday Residence"}},"453226186":{"location":[39.2063001,9.5595029],"ct":"IT","tp":"CS","ts":"2017-01-10T12:10:18Z","tX":539,"tY":390,"tags":{"name":"Ville San Pietro"}},"4857222827":{"location":[39.3168555,9.604108],"ct":"IT","tp":"CR","ts":"2024-09-12T10:23:56Z","tX":539,"tY":390,"tags":{"fee":"yes","name":"Spiaggia di Feraxi","name:it":"Spiaggia di Feraxi","power_supply":"no","sanitary_dump_station":"no"}},"5322319554":{"location":[39.2750405,9.5855415],"ct":"IT","tp":"SD","ts":"2018-01-05T16:53:28Z","tX":539,"tY":390,"tags":{}},"5940882166":{"location":[39.1227547,9.5106945],"ct":"IT","tp":"SD","ts":"2018-10-12T08:48:56Z","tX":539,"tY":390,"tags":{}}}