{"429448772":{"location":[22.9135132,121.1198678],"ct":"TW","tp":"CS","ts":"2017-02-18T15:56:19Z","tX":856,"tY":445,"tags":{"name":"福鹿山莊營地"}},"477684822":{"location":[22.690294,120.9914648],"ct":"TW","tp":"CS","ts":"2017-02-28T13:42:46Z","tX":856,"tY":445,"tags":{"name":"野營活動場"}},"522931500":{"location":[22.7938979,121.1947285],"ct":"TW","tp":"CS","ts":"2022-06-15T15:19:52Z","tX":856,"tY":445,"tags":{"name":"小野柳露營區","name:zh":"小野柳露營區"}},"4260141004":{"location":[22.9134801,121.1201401],"ct":"TW","tp":"CS","ts":"2017-02-18T17:28:57Z","tX":856,"tY":445,"tags":{}},"4758035428":{"location":[22.6907816,121.0473366],"ct":"TW","tp":"CS","ts":"2023-08-08T07:46:34Z","tX":856,"tY":445,"tags":{"addr:city":"台東縣","addr:country":"TW","addr:district":"太麻里鄉","addr:housenumber":"86-37","addr:place":"美和","addr:postcode":"963","addr:province":"台灣省","email":"x6510517@gmail.com","name":"老尪婆民宿","name:zh":"老尪婆民宿","phone":"+886 938 695 089","website":"https://www.facebook.com/TaiDongXianTaiMaLiXiang/"}},"4886939416":{"location":[22.6961032,120.9436626],"ct":"TW","tp":"CS","ts":"2017-05-31T04:30:07Z","tX":856,"tY":445,"tags":{"name":"水池營地"}},"4886939891":{"location":[22.6891583,120.9502977],"ct":"TW","tp":"CS","ts":"2017-05-31T04:30:08Z","tX":856,"tY":445,"tags":{"name":"獵寮"}},"4886939917":{"location":[22.6902826,120.9411832],"ct":"TW","tp":"CS","ts":"2017-05-31T04:30:08Z","tX":856,"tY":445,"tags":{}},"4886939918":{"location":[22.6879447,120.9405037],"ct":"TW","tp":"CS","ts":"2017-05-31T04:30:08Z","tX":856,"tY":445,"tags":{}},"5249741921":{"location":[22.8983807,121.087218],"ct":"TW","tp":"CS","ts":"2017-11-27T03:07:21Z","tX":856,"tY":445,"tags":{"name":"campground"}},"5250280024":{"location":[22.6958124,121.0198268],"ct":"TW","tp":"CS","ts":"2017-11-27T12:24:52Z","tX":856,"tY":445,"tags":{"name":"campground"}},"6380328385":{"location":[22.8760917,121.2291129],"ct":"TW","tp":"CS","ts":"2023-05-05T17:38:47Z","tX":856,"tY":445,"tags":{"caravans":"no","drinking_water":"yes","fee":"no","name":"警察局露營區","name:en":"Police Station's Campsite","name:zh":"警察局露營區","shower":"yes","tents":"yes"}},"6908005085":{"location":[22.8835489,121.2348608],"ct":"TW","tp":"CS","ts":"2021-06-18T06:33:50Z","tX":856,"tY":445,"tags":{"name":"心路旅程露營棧","phone":"+886 953 133 206"}},"9905238789":{"location":[22.6932014,121.0720421],"ct":"TW","tp":"CS","ts":"2022-07-23T04:14:37Z","tX":856,"tY":445,"tags":{"name":"沙丘營地"}},"10262079717":{"location":[22.7482491,120.9922111],"ct":"TW","tp":"CS","ts":"2022-12-14T09:52:19Z","tX":856,"tY":445,"tags":{}},"10635390705":{"location":[22.8553691,121.1501332],"ct":"TW","tp":"CS","ts":"2023-02-10T03:25:19Z","tX":856,"tY":445,"tags":{"name":"金谷農莊民宿露營區","phone":"08 922 0044"}},"10637137105":{"location":[22.8985159,121.1586108],"ct":"TW","tp":"CS","ts":"2023-02-10T10:09:34Z","tX":856,"tY":445,"tags":{"addr:postcode":"953","name":"東谷露營區","phone":"0919 872 610"}}}