{"158035978":{"location":[14.7900034,120.9789867],"ct":"PH","tp":"CS","ts":"2023-04-02T09:32:25Z","tX":856,"tY":469,"tags":{"addr:postcode":"3019","name":"Camp Nathaniel Guillermo"}},"188184009":{"location":[14.6472654,121.2328361],"ct":"PH","tp":"CS","ts":"2012-11-06T11:34:44Z","tX":856,"tY":469,"tags":{"name":"Spring of Life","natural":"grassland"}},"304231737":{"location":[14.7951846,121.0807664],"ct":"PH","tp":"CS","ts":"2019-09-03T12:54:00Z","tX":856,"tY":469,"tags":{"name":"Paradise Adventure Camp 1"}},"642872893":{"location":[14.8095344,121.0904986],"ct":"PH","tp":"CS","ts":"2019-09-03T12:48:30Z","tX":856,"tY":469,"tags":{"addr:city":"San Jose del Monte","name":"Paradise Adventure Camp 2","previously":"node:4519763590"}},"1035895717":{"location":[14.7764867,121.1851811],"ct":"PH","tp":"CS","ts":"2024-06-24T12:39:46Z","tX":856,"tY":469,"tags":{"addr:barangay":"Mascap","addr:city":"Montalban","addr:postcode":"1860","addr:province":"Rizal","name":"Mount Oro Viewdeck","reservation":"required","source":"Schadow1 Expeditions","survey:date":"2022-02-25"}},"1035895720":{"location":[14.7867242,121.196132],"ct":"PH","tp":"CS","ts":"2022-02-28T04:32:51Z","tX":856,"tY":469,"tags":{"contact:facebook":"https://www.facebook.com/BalaisaOro/","name":"Balai sa Oro","phone":"+63 998 584 1609","reservation":"recommended","source":"Schadow1 Expeditions","survey:date":"2022-02-25"}},"1035895732":{"location":[14.8133805,121.2191534],"ct":"PH","tp":"CS","ts":"2022-02-28T04:32:51Z","tX":856,"tY":469,"tags":{"addr:city":"Rodriguez","addr:postcode":"1860","addr:province":"Rizal","addr:street":"Macaingalan - Balagbag","caravans":"yes","contact:facebook":"https://www.facebook.com/marupokcampsite.official","internet_access":"no","name":"Marupok Campsite","operator":"Jolo Ramos","phone":"+63 (955) 029 2055","reservation":"recommended","sanitary_dump_station":"customers","source":"Schadow1 Expeditions","survey:date":"2022-02-25","tents":"yes"}},"4538325890":{"location":[14.7260091,121.1952403],"ct":"PH","tp":"CS","ts":"2022-11-10T00:28:11Z","tX":856,"tY":469,"tags":{"addr:street":"Sitio Kalungo","name":"Mahogany Camp","name:en":"Mahogany Camp"}},"5565364921":{"location":[14.9291457,121.0346068],"ct":"PH","tp":"CS","ts":"2018-07-25T18:37:16Z","tX":856,"tY":469,"tags":{"name":"Angat River"}},"6146594285":{"location":[14.823972,121.1801197],"ct":"PH","tp":"CS","ts":"2024-06-24T12:51:59Z","tX":856,"tY":469,"tags":{"addr:barangay":"San Isidro","addr:city":"Montalban","addr:place":"Sitio Balagbag","addr:postcode":"1870","addr:province":"Rizal","name":"Mount Balagbag Camp Site"}},"8195697418":{"location":[14.7896413,120.9839642],"ct":"PH","tp":"CS","ts":"2020-12-05T04:04:24Z","tX":856,"tY":469,"tags":{"name":"Kalikasan ng Marilao"}},"8195700717":{"location":[14.7916713,120.9847886],"ct":"PH","tp":"CS","ts":"2020-12-05T04:04:26Z","tX":856,"tY":469,"tags":{"name":"Liwasang Pangkalakasan ng Marilao"}},"9455737636":{"location":[14.646339,121.2448703],"ct":"PH","tp":"CS","ts":"2022-01-28T15:20:22Z","tX":856,"tY":469,"tags":{"access":"unknown","addr:city":"Antipolo","addr:housenumber":"Sitio Kaysakat, Brgy. San Jose","addr:postcode":"1870","addr:street":"Calawis","name":"SirFerdz's Hide Out"}},"9918644599":{"location":[14.6709799,121.2107934],"ct":"PH","tp":"CS","ts":"2022-07-29T08:22:58Z","tX":856,"tY":469,"tags":{"addr:city":"Antipolo City","name":"Camp Sinai"}},"10172551998":{"location":[14.7215394,121.197299],"ct":"PH","tp":"CS","ts":"2022-11-10T00:28:11Z","tX":856,"tY":469,"tags":{"name":"Kayrupa Campsite"}},"10707905705":{"location":[14.6723005,121.2336649],"ct":"PH","tp":"CS","ts":"2023-03-03T22:08:43Z","tX":856,"tY":469,"tags":{"internet_access":"wlan","name":"Mae's Farm Hammock and Tent Campsite"}},"11465921869":{"location":[14.7078957,121.2013223],"ct":"PH","tp":"CS","ts":"2024-10-01T14:13:27Z","tX":856,"tY":469,"tags":{"backcountry":"yes","name":"J Camp"}},"12191952701":{"location":[14.7911717,121.138889],"ct":"PH","tp":"CS","ts":"2024-09-22T02:17:03Z","tX":856,"tY":469,"tags":{"name":"Suejhor Campsite"}},"12270944955":{"location":[14.7081993,121.1743699],"ct":"PH","tp":"CS","ts":"2024-10-20T12:51:34Z","tX":856,"tY":469,"tags":{"addr:barangay":"San Rafael","addr:city":"Montalban","addr:place":"Sitio Parawagan","addr:postcode":"1860","addr:province":"Rizal","contact:facebook":"https://www.facebook.com/EScampsite","name":"E.S. Campsite"}},"6294942385":{"location":[14.7572277,120.9522554],"ct":"PH","tp":"CR","ts":"2019-02-22T05:55:34Z","tX":856,"tY":469,"tags":{"name":"AP Cargo RSO Marilao"}}}