{"8165113":{"location":[14.2971747,120.9642902],"ct":"PH","tp":"CS","ts":"2023-04-09T21:05:39Z","tX":856,"tY":470,"tags":{"name":"Jabez Campsite","previously":"way:148904228","smoking":"no","source":"Bing"}},"9182132":{"location":[14.2826127,120.976786],"ct":"PH","tp":"CS","ts":"2024-01-15T05:40:06Z","tX":856,"tY":470,"tags":{"addr:city":"Dasmari√±as","addr:country":"PH","addr:postcode":"4114","addr:province":"Cavite","addr:village":"Sampaloc 3","name":"BLD Covenant House and Retreat Center","name:tl":"Bukas sa Diyos","smoking":"no","wheelchair":"limited"}},"1195395026":{"location":[14.5837145,121.2517167],"ct":"PH","tp":"CS","ts":"2023-08-06T23:52:45Z","tX":856,"tY":470,"tags":{"name":"Quest Adventure Camp"}},"2257972434":{"location":[14.3410428,121.2340901],"ct":"PH","tp":"CS","ts":"2024-06-28T14:09:56Z","tX":856,"tY":470,"tags":{"backcountry":"yes","name":"Mount Tagapo Campsite"}},"4588919900":{"location":[14.3537804,121.0600392],"ct":"PH","tp":"CS","ts":"2017-01-04T12:04:39Z","tX":856,"tY":470,"tags":{"name":"Danny boy house","name:en":"Danny boy house"}},"11073525605":{"location":[14.272115,121.0066675],"ct":"PH","tp":"CR","ts":"2023-07-28T14:39:33Z","tX":856,"tY":470,"tags":{"name":"AllHome Corp Springfield Warehouse"}}}