{"191570074":{"location":[13.9201725,121.0430734],"ct":"PH","tp":"CS","ts":"2013-02-14T10:29:09Z","tX":856,"tY":472,"tags":{"addr:city":"Cuenca","addr:street":"Maculot Trail","ele":"710","source":"Schadow1 Expeditions"}},"191570076":{"location":[13.9200203,121.0435039],"ct":"PH","tp":"CS","ts":"2013-02-14T10:29:09Z","tX":856,"tY":472,"tags":{"ele":"715","source":"Schadow1 Expeditions"}},"191570078":{"location":[13.9202751,121.0427867],"ct":"PH","tp":"CS","ts":"2012-11-19T14:06:23Z","tX":856,"tY":472,"tags":{"addr:city":"Cuenca","addr:street":"Maculot Trail","ele":"707"}},"702535315":{"location":[13.9200137,121.0435212],"ct":"PH","tp":"CS","ts":"2013-02-14T10:29:10Z","tX":856,"tY":472,"tags":{"addr:city":"Cuenca","addr:street":"Maculot Trail","ele":"716.0000000","name":"Maculot Campsite","source":"Schadow1 Expeditions","wpt_description":"17-APR-10 12:38:57","wpt_symbol":"Campground"}},"2281753054":{"location":[13.6865815,121.178899],"ct":"PH","tp":"CS","ts":"2013-04-26T06:33:16Z","tX":856,"tY":472,"tags":{"name":"Mt. Banoi Campsite"}},"4252220092":{"location":[13.787139,121.0539974],"ct":"PH","tp":"CS","ts":"2021-05-12T22:07:18Z","tX":856,"tY":472,"tags":{"addr:city":"Batangas City","addr:housenumber":"30","addr:neighbourhood":"Banaba South","addr:postcode":"4200","addr:street":"Meralco Road","name":"Merryland Campsite","phone":"+63 43 402 0095","website":"09194668909"}},"4282113596":{"location":[13.7418814,121.1199701],"ct":"PH","tp":"CS","ts":"2016-07-04T16:15:00Z","tX":856,"tY":472,"tags":{"name":"El Sitio Filipino"}},"4714307387":{"location":[13.6462333,121.1153075],"ct":"PH","tp":"CS","ts":"2020-03-30T22:52:57Z","tX":856,"tY":472,"tags":{"name":"Bigaan Camp site"}},"5269083621":{"location":[13.9169275,121.1225752],"ct":"PH","tp":"CS","ts":"2017-12-07T03:51:46Z","tX":856,"tY":472,"tags":{"name":"pangaw"}}}