{"98286353":{"location":[54.7584273,8.9941637],"ct":"DE","tp":"CS","ts":"2024-08-25T15:32:12Z","tX":537,"tY":325,"tags":{"addr:city":"Leck","addr:country":"DE","addr:housenumber":"1","addr:postcode":"25917","addr:street":"Karlsmark","caravans":"yes","contact:email":"info@camping-leck.de","contact:fax":"+49 4662 775891","contact:phone":"+49 4662 1850","dog":"yes","dryer":"yes","fee":"yes","motorhome":"yes","name":"Campingplatz Karlsmark","power_supply":"yes","shower":"yes","tents":"yes","toilets":"yes","washing_machine":"yes","website":"https://camping-leck.de/"}},"118598322":{"location":[54.6150332,8.8725663],"ct":"DE","tp":"CR","ts":"2023-03-31T12:38:21Z","tX":537,"tY":325,"tags":{"addr:city":"Reußenköge","addr:housenumber":"36a","addr:postcode":"25821","addr:street":"Sönke-Nissen-Koog","capacity":"10","description":"Saison von April - Oktober Preis 7€","fee":"yes","name":"Stellplatz am Amsinck-Haus","phone":"+49 4671 927154","power_supply":"yes","sanitary_dump_station":"yes","surface":"grass","website":"https://www.amsinck-haus.de/"}},"597026295":{"location":[54.7675996,8.9815679],"ct":"DE","tp":"CR","ts":"2024-08-19T23:54:12Z","tX":537,"tY":325,"tags":{"capacity":"21","caravans":"no","dog":"yes","fee":"yes","name":"Reisemobilhafen Am Erlebnisbad Leck","power_supply":"cee_17_blue","surface":"paved","water_point":"yes"}},"1276223579":{"location":[54.6126206,8.9717113],"ct":"DE","tp":"CR","ts":"2024-08-01T23:20:04Z","tX":537,"tY":325,"tags":{"capacity":"4","caravan_site":"motorhome_stopover","caravan_site:type":"town;swimming_pool","fee":"no","name":"Wohnmobilstellplatz Bredstedt","power_supply":"yes","power_supply:fee":"yes","sanitary_dump_station":"no","shower":"yes","shower:fee":"no","socket:cee_blue":"yes","surface":"grass_paver","tents":"no","toilets":"yes","water_point":"no","wikimedia_commons":"Category:Wohnmobilstellplatz Bredstedt"}},"1304744712":{"location":[54.6849057,8.9577763],"ct":"DE","tp":"CR","ts":"2024-07-30T23:51:33Z","tX":537,"tY":325,"tags":{"capacity":"2","caravan_site":"motorhome_stopover","caravan_site:type":"village","fee":"no","internet_access":"no","maxstay":"2 nights","note":"max 2 nights","permanent_camping":"no","sanitary_dump_station":"no","surface":"compacted","toilets":"no"}},"1307350270":{"location":[54.5928339,8.9459314],"ct":"DE","tp":"CS","ts":"2024-08-12T22:39:35Z","tX":537,"tY":325,"tags":{"addr:city":"Reußenköge","addr:postcode":"25821","addr:street":"Sophien-Magdalenen-Koog","backcountry":"no","bar":"no","cabins":"no","caravans":"yes","contact:email":"bestellung@bahnsen-reh.de","contact:mobile":"+49 171 1292332","contact:phone":"+49 4671 6673","contact:website":"https://deichnah-camp.jimdosite.com","drinking_water":"yes","fee":"yes","fixme":"exact area","group_only":"no","internet_access":"no","kitchen":"no","name":"DeichNah Camp","nudism":"no","opening_hours":"24/7","operator":"Wartzack","permanent_camping":"no","power_supply":"yes","sanitary_dump_station":"no","scout":"no","shower":"yes","static_caravans":"no","swimming_pool":"outdoor","tents":"yes","toilets":"yes","waste_disposal":"yes"}},"4189246579":{"location":[54.585205,8.9910043],"ct":"DE","tp":"CR","ts":"2024-10-12T07:13:32Z","tX":537,"tY":325,"tags":{"addr:city":"Struckum","addr:housenumber":"3","addr:postcode":"25821","addr:street":"Kennedy Weg","capacity":"32","caravan_site":"motorhome_stopover","charge":"10 EUR","fee":"yes","internet_access":"no","name":"Stellplatz Marschblick","power_supply":"yes","sanitary_dump_station":"yes","shower":"yes","water_point":"yes"}},"5603596005":{"location":[54.7315217,8.974479],"ct":"DE","tp":"CS","ts":"2023-07-23T19:59:26Z","tX":537,"tY":325,"tags":{"access":"yes","backcountry":"yes","capacity:caravans":"0","capacity:tents":"2","caravans":"no","fee":"no","name":"Übernachtungsplatz Enge-Sande","note":"Angebot im Rahmen des Projektes \"Wildes S.H.\"","openfire":"no","operator":"Wildes SH","power_supply":"no","reservation":"no","shower":"no","tents":"yes","toilets":"no","water_source":"no","website":"https://www.naturschutz-sh.de/wildes-sh/trekkingplatz-enge-sande","wheelchair":"limited"}},"12084039033":{"location":[54.605012,9.0381485],"ct":"DE","tp":"CR","ts":"2024-07-30T23:51:33Z","tX":537,"tY":325,"tags":{"caravan_site":"motorhome_stopover","caravan_site:type":"restaurant","charge":"10 EUR","fee":"yes","name":"Landgasthof Drelsdörper Krog","power_supply":"yes","power_supply:fee":"no","reservation":"no","water_point":"yes","website":"https://www.drelsdörper-krog.de/platz-f%C3%BCr-wohnmobile/"}},"7916917443":{"location":[54.7673623,8.9820059],"ct":"DE","tp":"SD","ts":"2020-09-17T12:13:32Z","tX":537,"tY":325,"tags":{"sanitary_dump_station:chemical_toilet":"yes","sanitary_dump_station:fee":"no","sanitary_dump_station:gravity":"yes","sanitary_dump_station:grey_water":"yes","sanitary_dump_station:suction":"no"}}}