{"28057708":{"location":[54.4549068,8.9722931],"ct":"DE","tp":"CS","ts":"2024-07-25T16:20:02Z","tX":537,"tY":326,"tags":{"addr:city":"Simonsberg","addr:country":"DE","addr:housenumber":"4","addr:postcode":"25813","addr:street":"Lundenbergweg","cabins":"yes","caravans":"yes","dryer":"yes","email":"info@nordseecamping.de","fax":"+49 4841 65489","fee":"yes","internet_access":"wlan","internet_access:fee":"no","kitchen":"yes","name":"Nordsee Camping zum Seehund","opening_hours":"Mar 15-Oct 31","phone":"+49 4841 3999","power_supply":"yes","reservation":"recommended","sanitary_dump_station":"yes","sauna":"yes","tents":"yes","washing_machine":"yes","website":"https://www.nordseecamping.de/","wheelchair":"limited","wheelchair:description":"Wenige Bereiche sind zu eng oder sind nur über Treppen erreichbar"}},"28057852":{"location":[54.4548714,8.9697163],"ct":"DE","tp":"CR","ts":"2022-08-14T20:06:26Z","tX":537,"tY":326,"tags":{"capacity":"15","fee":"yes","internet_access":"wlan","internet_access:fee":"no","name":"Nordsee Camping zum Seehund","power_supply":"yes","reservation":"yes","sanitary_dump_station":"yes","wheelchair":"yes"}},"28330663":{"location":[54.4690944,8.9100888],"ct":"DE","tp":"CS","ts":"2024-06-30T20:28:54Z","tX":537,"tY":326,"tags":{"addr:city":"Nordstrand","addr:country":"DE","addr:housenumber":"8","addr:postcode":"25845","addr:street":"Süderhafen","caravans":"yes","dog":"yes","dryer":"yes","email":"info@camping-nordstrand.de","fax":"+49 4842 900274","internet_access":"wlan","kitchen":"yes","mobile":"+49 1520 1952599","motorhome":"yes","name":"Campingplatz Margarethenruh","opening_hours":"week 1-53","phone":"+49 4842 8553","power_supply":"yes","shower":"yes","tents":"yes","toilets":"yes","washing_machine":"yes","website":"https://www.camping-nordstrand.de/"}},"88179982":{"location":[54.4793129,9.0104016],"ct":"DE","tp":"CS","ts":"2021-08-23T05:40:45Z","tX":537,"tY":326,"tags":{"addr:city":"Husum","addr:country":"DE","addr:housenumber":"17","addr:postcode":"25813","addr:street":"Dockkoogstraße","bettundbike":"yes","caravans":"yes","dog":"yes","dryer":"yes","email":"urlaub@regenbogen.ag","fee":"yes","internet_access":"wlan","kitchen":"yes","name":"Campingplatz Regenbogen Husum","operator":"Regenbogen AG","phone":"+49 4841 9397960","power_supply":"yes","tents":"yes","washing_machine":"yes","website":"https://www.regenbogen.ag/ferienanlagen/husum.html","wheelchair":"yes"}},"88271543":{"location":[54.4242625,8.9684717],"ct":"DE","tp":"PK","ts":"2024-05-30T14:35:45Z","tX":537,"tY":326,"tags":{"access":"permissive","fee":"no","motorhome":"yes","parking":"surface","surface":"unpaved"}},"122857750":{"location":[54.3719686,9.0904295],"ct":"DE","tp":"CS","ts":"2023-11-29T13:30:13Z","tX":537,"tY":326,"tags":{"addr:city":"Friedrichstadt","addr:country":"DE","addr:housenumber":"1","addr:postcode":"25840","addr:street":"Tönninger Straße","cabins":"yes","caravans":"yes","dog":"yes","email":"info@treenecamping.de","fax":"+49 4881 7632","motorhome":"yes","name":"Eider & Treene Campingplatz","phone":"+49 4881 400","power_supply":"yes","tents":"yes","website":"http://www.treenecamp.de"}},"129848585":{"location":[54.4749928,9.0421782],"ct":"DE","tp":"CR","ts":"2024-07-29T18:57:25Z","tX":537,"tY":326,"tags":{"capacity":"30","caravan_site":"motorhome_stopover","charge":"12 EUR","description":"Anmeldung im Hotel Altes Zollamt. Fee includes 2 EUR food voucher.","fee":"yes","name":"Loof's Womohafen","payment:app":"no","payment:cards":"no","payment:cash":"yes","payment:coins":"yes","payment:credit_cards":"no","payment:debit_cards":"no","payment:maestro":"no","payment:mastercard":"no","payment:notes":"yes","payment:visa":"no","power_supply":"yes","reservation":"no","sanitary_dump_station":"yes","water_point":"yes","website":"https://www.fischhausloof.de/de/wohnmobilhafen.php","wheelchair":"limited"}},"173637810":{"location":[54.516041,8.8570003],"ct":"DE","tp":"CS","ts":"2021-04-15T09:04:26Z","tX":537,"tY":326,"tags":{"addr:city":"Elisabeth-Sophien-Koog","addr:country":"DE","addr:housenumber":"17","addr:place":"Elisabeth-Sophien-Koog","addr:postcode":"25845","caravans":"yes","email":"camping-nordstrand@t-online.de","fax":"+49 4842 8306","name":"Campingplatz Elisabeth-Sophien-Koog","opening_hours":"Apr-Oct","operator":"Ernst-Günther Kraak","phone":"+49 4842 8534","power_supply":"yes","tents":"yes","website":"https://www.nordstrand-camping.de/"}},"174681204":{"location":[54.4335009,9.1278043],"ct":"DE","tp":"CR","ts":"2024-07-26T08:59:55Z","tX":537,"tY":326,"tags":{"access":"customers","capacity":"11","charge":"12.50 EUR","contact:email":"reisemobilhafen@rantrum.de","contact:phone":"+49 171 5114317","fee":"yes","internet_access":"no","name":"Hans-Jürgen Becker Platz - Rantrum","opening_hours":"Fen 29-Jan 14","power_supply":"yes","shower":"yes","toilets":"yes","website":"https://www.rantrum.de/freitzeit-kultur/wohnmobilplatz/","wheelchair":"no"}},"244733509":{"location":[54.5181112,8.9319955],"ct":"DE","tp":"CR","ts":"2023-03-31T12:39:40Z","tX":537,"tY":326,"tags":{"addr:city":"Nordstrand","addr:housenumber":"2","addr:postcode":"25845","addr:street":"Norderquerweg","internet_access":"no","name":"Wohnmobilstellplatz Womoland Nordstrand","website":"https://www.womoland-nordstrand.com/"}},"360833557":{"location":[54.372158,9.0868457],"ct":"DE","tp":"CR","ts":"2024-04-25T21:14:09Z","tX":537,"tY":326,"tags":{"alt_name":"Reisemobilstellplatz am Halbmond","capacity":"65","caravan_site":"motorhome_stopover","caravan_site:type":"town","charge":"20 EUR","dog":"yes","fee":"yes","internet_access":"wlan","internet_access:fee":"no","laundry":"yes","name":"Wohnmobilstellplatz Friedrichstadt","power_supply":"yes","power_supply:charge":"1 EUR/kWh","power_supply:fee":"yes","reservation":"yes","sanitary_dump_station":"yes","shower":"yes","shower:charge":"2 EUR/3 minutes","tents":"no","toilets":"yes","toilets:wheelchair":"no","water_point":"yes","water_point:charge":"0.10 EUR/7 liter","water_point:fee":"yes","website":"https://www.wohnmobilstellplatz-friedrichstadt.de/","wheelchair":"yes"}},"366017975":{"location":[54.4785545,9.011085],"ct":"DE","tp":"CR","ts":"2024-04-25T20:37:23Z","tX":537,"tY":326,"tags":{"fee":"yes","name":"Husum Wohnmobilstellplatz","network":"Regenbogen","power_supply":"no","website":"https://www.regenbogen.ag/ferienanlagen/husum.html"}},"847241804":{"location":[54.4617279,9.0960352],"ct":"DE","tp":"CR","ts":"2024-08-01T22:56:23Z","tX":537,"tY":326,"tags":{"capacity":"4","caravan_site":"motorhome_stopover","caravan_site:type":"village","caravans":"no","description":"nur Übernachtung","dog":"yes","fee":"no","name":"Wohnmobilstellplatz der Gemeinde Mildstedt","power_supply":"no","sanitary_dump_station":"no","surface":"paving_stones","tents":"no","water_point":"no","wikimedia_commons":"File:Wohnmobilstellplatx Mildstedt.jpg"}},"1176939236":{"location":[54.3762732,9.0806837],"ct":"DE","tp":"CR","ts":"2024-07-26T14:50:35Z","tX":537,"tY":326,"tags":{"caravan_site":"motorhome_stopover","fee":"no","name":"Wohnmobil Meyer","seasonal":"no"}},"1853318789":{"location":[54.4336446,9.1280134],"ct":"DE","tp":"SD","ts":"2016-07-28T08:23:09Z","tX":537,"tY":326,"tags":{"description":"Abwasserentsorgung","sanitary_dump_station:accepted":"black_water"}},"8617326053":{"location":[54.5120154,9.0342995],"ct":"DE","tp":"CS","ts":"2024-10-12T21:30:40Z","tX":537,"tY":326,"tags":{"access":"yes","backcountry":"yes","camp_site":"basic","capacity:tents":"2","caravans":"no","contact:email":"info@sn-sh.de","contact:phone":"+49 175 7494094","drinking_water":"yes","fee":"no","maxstay":"1 day","motor_vehicle":"no","name":"Trekkingplatz Hattstedt","openfire":"yes","operator":"Familie Paulsen","reservation":"no","shower":"no","tents":"yes","toilets":"yes","website":"https://www.naturschutz-sh.de/wildes-sh/trekkingplatz-hattstedt"}},"10949374615":{"location":[54.4140447,9.0270771],"ct":"DE","tp":"CS","ts":"2023-06-03T19:33:20Z","tX":537,"tY":326,"tags":{"access":"yes","backcountry":"yes","camp_site":"basic","capacity:tents":"2","caravans":"no","contact:email":"klav.harmsen@web.de","contact:phone":"+49 170 7763987","fee":"no","maxstay":"1 day","motor_vehicle":"no","name":"Trekkingplatz Eiderstedt","openfire":"no","operator":"Familie Harmsen","reservation":"no","shower":"cold","tents":"yes","toilets":"yes","toilets:disposal":"bucket"}},"4867426583":{"location":[54.372215,9.0874164],"ct":"DE","tp":"SD","ts":"2017-05-21T05:31:26Z","tX":537,"tY":326,"tags":{"sanitary_dump_station:chemical_toilet":"yes","sanitary_dump_station:fee":"no","sanitary_dump_station:gravity":"yes","sanitary_dump_station:grey_water":"yes","sanitary_dump_station:suction":"no"}},"5656946766":{"location":[54.4779182,9.0105119],"ct":"DE","tp":"SD","ts":"2018-06-01T18:08:24Z","tX":537,"tY":326,"tags":{}},"6553098293":{"location":[54.4546514,8.9719562],"ct":"DE","tp":"SD","ts":"2022-08-13T09:35:48Z","tX":537,"tY":326,"tags":{"access":"permissive","description":"Entleer- und Reinigungsstation für Toilettenkassetten (Automat)","fee":"yes","opening_hours":"24/7","operator":"www.CamperClean.de","payment:coins":"yes","water_point":"yes"}},"9950698088":{"location":[54.4549452,8.9698318],"ct":"DE","tp":"SD","ts":"2022-08-13T09:35:48Z","tX":537,"tY":326,"tags":{"sanitary_dump_station:chemical_toilet":"no","sanitary_dump_station:gravity":"yes","sanitary_dump_station:grey_water":"yes","sanitary_dump_station:suction":"no"}},"9950698098":{"location":[54.4547049,8.9722809],"ct":"DE","tp":"SD","ts":"2022-08-13T09:35:48Z","tX":537,"tY":326,"tags":{"sanitary_dump_station:chemical_toilet":"yes","sanitary_dump_station:gravity":"yes","sanitary_dump_station:grey_water":"yes","sanitary_dump_station:suction":"no"}},"11060465013":{"location":[54.4886134,9.0746284],"ct":"DE","tp":"SD","ts":"2023-07-21T19:52:11Z","tX":537,"tY":326,"tags":{"description":"Open 24/7.  Drain for graywater free of charge. Fresh water payed with coins."}},"11964647605":{"location":[54.4749323,9.0423982],"ct":"DE","tp":"SD","ts":"2024-06-08T16:26:00Z","tX":537,"tY":326,"tags":{}}}