{"128227841":{"location":[54.2461544,8.8413058],"ct":"DE","tp":"CS","ts":"2022-08-16T11:11:22Z","tX":537,"tY":327,"tags":{"addr:housenumber":"1","addr:postcode":"25764","addr:street":"Dammstraße","caravans":"yes","contact:email":"info@camping-wesselburenerkoog.de","contact:fax":"+49 4833 429578","contact:mobile":"+49 172 8769564","contact:phone":"+49 4833 1441","contact:website":"http://www.camping-wesselburenerkoog.de/","internet_access":"no","name":"Camping WesselburenerKoog","opening_hours":"Mar 18-Oct 9 08:00-22:00 open","operator":"Andrea Bohnstedt","payment:cash":"yes","payment:credit_cards":"no","payment:debit_cards":"no","tents":"yes","wheelchair":"limited","wheelchair:description":"Sanitärgebäude hat 2 Stufen"}},"133607652":{"location":[54.2023883,9.1127214],"ct":"DE","tp":"CR","ts":"2024-04-26T15:05:18Z","tX":537,"tY":327,"tags":{"capacity":"25","caravan_site":"motorhome_stopover","caravan_site:type":"swimming_pool","caravans":"no","charge":"14 EUR","dog":"yes","fee":"yes","name":"Wohnmobil-Stellplatz Heide","power_supply":"yes","power_supply:fee":"no","reservation":"no","sanitary_dump_station":"yes","sanitary_dump_station:charge":"1 EUR","sanitary_dump_station:chemical_toilet":"yes","water_point":"yes","water_point:charge":"1 EUR","water_point:fee":"yes","website":"https://www.heide-stadtmarketing.de/wohnmobilstellplatz/"}},"150124911":{"location":[54.3088054,8.9374867],"ct":"DE","tp":"CR","ts":"2025-06-13T14:45:19Z","tX":537,"tY":327,"tags":{"capacity":"33","description":"Checkin am Automat - Stellplatz gilt jeweils bis 12 Uhr am nächsten Tag","name":"Wohnmobilstellplatz \"Eiderblick\"","note":"Stellplatz für Fahrzeuge bis 7 mtr.","power_supply":"yes"}},"172272537":{"location":[54.2185876,8.9276176],"ct":"DE","tp":"CS","ts":"2020-01-24T18:45:52Z","tX":537,"tY":327,"tags":{"addr:city":"Wesselburen","addr:country":"DE","addr:housenumber":"1","addr:postcode":"25764","addr:street":"Neuenkirchener Weg","fax":"+49 4833 755","name":"Motel und Camping \"Seeluft\"","phone":"+49 4833 765"}},"174649873":{"location":[54.3120193,8.9039317],"ct":"DE","tp":"CS","ts":"2021-04-15T07:38:25Z","tX":537,"tY":327,"tags":{"addr:city":"Tönning","addr:housenumber":"5","addr:postcode":"25832","addr:street":"Katinger Landstraße","name":"Lilienhof","website":"https://www.camping-lilienhof.de/"}},"180105192":{"location":[54.3116917,8.938483],"ct":"DE","tp":"CS","ts":"2025-04-19T14:17:44Z","tX":537,"tY":327,"tags":{"addr:city":"Tönning","addr:housenumber":"1a","addr:postcode":"25832","addr:street":"Am Freizeitpark","caravans":"yes","drinking_water":"yes","email":"info@campingplatz-toenning.de","fax":"+49 4861 617149","fee":"yes","internet_access":"wlan","name":"Comfort-Camp Eider","operator":"Familie Simon","phone":"+49 4861 617148","power_supply":"yes","sanitary_dump_station":"yes","shower":"yes","tents":"yes","toilets":"yes","website":"https://campingplatz-toenning.de/","wheelchair":"yes"}},"389858244":{"location":[54.3110614,8.9407501],"ct":"DE","tp":"CR","ts":"2025-06-13T14:45:19Z","tX":537,"tY":327,"tags":{"addr:city":"Tönning","addr:postcode":"25832","addr:street":"Am Eiderdeich","capacity":"50","fee":"yes","internet_access":"wlan","internet_access:fee":"no","name":"Wohnmobilstellpatz \"Kapitänshaus\"","note":"Für Fahrzeuge über 7 mtr Länge","power_supply":"yes","sanitary_dump_station":"yes"}},"613210131":{"location":[54.1781296,8.8204639],"ct":"DE","tp":"CS","ts":"2019-11-07T17:30:45Z","tX":537,"tY":327,"tags":{"addr:city":"Hedwigenkoog","addr:housenumber":"19","addr:postcode":"25761","addr:street":"Westerkoog","capacity":"5","email":"alterseedeich@AOL.com","name":"Am alten Seedeich","website":"https://www.alterseedeich.de/"}},"614244591":{"location":[54.178242,8.820127],"ct":"DE","tp":"CS","ts":"2019-11-07T17:30:45Z","tX":537,"tY":327,"tags":{"addr:city":"Hedwigenkoog","addr:postcode":"25761","addr:street":"Westerkoog","capacity":"5","operator":"Ferienhof Folger"}},"860225895":{"location":[54.1785412,8.819776],"ct":"DE","tp":"CS","ts":"2020-10-17T20:55:51Z","tX":537,"tY":327,"tags":{"addr:city":"Hedwigenkoog","addr:housenumber":"13","addr:postcode":"25761","addr:street":"Westerkoog","capacity":"5","name":"Deichtraum","website":"http://www.deichtraum-hedwigenkoog.de/Der-Platz/"}},"2139369073":{"location":[54.3325863,8.9954288],"ct":"DE","tp":"CR","ts":"2016-10-22T16:05:18Z","tX":537,"tY":327,"tags":{"capacity":"8","fee":"no","internet_access":"no","name":"Wohnmobilstellplatz Wollersum","operator":"Gemeinde Lunden","power_supply":"no","sanitary_dump_station":"no"}},"3467678046":{"location":[54.2021617,9.1127073],"ct":"DE","tp":"SD","ts":"2021-09-11T19:15:52Z","tX":537,"tY":327,"tags":{"charge":"1 EUR","fee":"yes","sanitary_dump_station:accepted":"black_water;tank_chemicals","sanitary_dump_station:chemical_toilet":"yes","sanitary_dump_station:fee":"yes","sanitary_dump_station:gravity":"yes","sanitary_dump_station:grey_water":"yes"}},"9956751680":{"location":[54.2462403,8.8415744],"ct":"DE","tp":"SD","ts":"2022-08-16T11:11:22Z","tX":537,"tY":327,"tags":{"sanitary_dump_station:basin":"yes","sanitary_dump_station:round_drain":"yes"}},"11964642605":{"location":[54.3090672,8.9376693],"ct":"DE","tp":"SD","ts":"2024-06-08T16:22:35Z","tX":537,"tY":327,"tags":{}},"12912757556":{"location":[54.3109358,8.9403015],"ct":"DE","tp":"SD","ts":"2025-06-13T14:45:19Z","tX":537,"tY":327,"tags":{"sanitary_dump_station:round_drain":"yes"}}}