{"42791018":{"location":[54.1352938,8.9189852],"ct":"DE","tp":"CS","ts":"2019-11-07T17:30:45Z","tX":537,"tY":328,"tags":{"addr:city":"Warwerort","addr:country":"DE","addr:housenumber":"35","addr:postcode":"25761","addr:street":"Mühlenweg","caravans":"yes","email":"info@campingseeschwalbe.de","fax":"+49 4834 965251","name":"Camping Seeschwalbe","operator":"Wilfried Hartmann","owner":"Wilfried Hartmann","phone":"+49 4834 8438","tents":"yes","website":"http://www.campingseeschwalbe.de/"}},"72140498":{"location":[54.1391582,8.8413584],"ct":"DE","tp":"CS","ts":"2024-08-13T12:57:23Z","tX":537,"tY":328,"tags":{"addr:city":"Büsum","addr:housenumber":"43","addr:postcode":"25761","addr:street":"Dithmarscher Straße","caravans":"yes","drinking_water":"yes","email":"info@campingplatz-zur-perle.de","fax":"+49 4834 9621188","internet_access":"wlan","name":"Zur Perle","phone":"+49 4834 9621180","power_supply":"yes","sanitary_dump_station":"yes","shower":"yes","tents":"yes","toilets":"yes","toilets:wheelchair":"yes","website":"https://www.campingplatz-zur-perle.de/","wheelchair":"yes"}},"72140506":{"location":[54.1390359,8.8431538],"ct":"DE","tp":"CR","ts":"2024-12-28T21:04:18Z","tX":537,"tY":328,"tags":{"addr:city":"Büsum","addr:housenumber":"41","addr:postcode":"25761","addr:street":"Dithmarscher Straße","drinking_water":"no","fee":"yes","name":"Reisemobil Hafen","operator":"Camping Nordsee","power_supply":"yes","sanitary_dump_station":"no","toilets":"no","wheelchair":"yes"}},"109072149":{"location":[54.1091666,8.9433308],"ct":"DE","tp":"CR","ts":"2025-01-07T22:19:01Z","tX":537,"tY":328,"tags":{"bbq":"no","fee":"yes","fixme":"only day","name":"Parkplatz Süd","note":"Grillen auf dem gesasmten Gelände verboten","opening_hours":"07:00-20:00","power_supply":"no","sanitary_dump_station":"no","wheelchair":"limited"}},"156938042":{"location":[54.0238305,8.8443734],"ct":"DE","tp":"CS","ts":"2024-04-02T12:25:44Z","tX":537,"tY":328,"tags":{"caravans":"yes","drinking_water":"yes","motorhome":"yes","name":"Camping Swienskopp","shower":"yes","tents":"yes","toilets":"yes","website":"http://www.campingplatz-swienskopp.de/"}},"156938097":{"location":[54.0322564,8.8476215],"ct":"DE","tp":"CR","ts":"2024-07-02T20:37:33Z","tX":537,"tY":328,"tags":{"capacity":"40","fee":"yes","internet_access":"no","name":"Wohnmobilstellplatz an der Nordseestraße","power_supply":"no","sanitary_dump_station":"customers","toilets":"no","water_point":"yes","website":"https://www.friedrichskoog.de/urlaub/camping-in-friedrichskoog/","wheelchair":"yes"}},"173639949":{"location":[54.1516206,8.8267677],"ct":"DE","tp":"CS","ts":"2024-12-30T04:47:49Z","tX":537,"tY":328,"tags":{"addr:city":"Westerdeichstrich","addr:country":"DE","addr:housenumber":"8/9","addr:postcode":"25761","addr:street":"Neuenkoog","caravans":"yes","drinking_water":"yes","email":"info@camping-waterkant.de","fax":"+49 4834 8556","internet_access":"no","name":"Camping \"An de Waterkant\"","phone":"+49 4834 8269","power_supply":"yes","sanitary_dump_station":"yes","shower":"yes","tents":"yes","toilets":"yes","website":"https://www.camping-waterkant.de/","wheelchair":"yes"}},"173641967":{"location":[54.1567831,8.8358257],"ct":"DE","tp":"CS","ts":"2024-08-16T15:07:07Z","tX":537,"tY":328,"tags":{"addr:city":"Westerdeichstrich","addr:housenumber":"37","addr:postcode":"25761","addr:street":"Stinteck","caravans":"yes","dog":"yes","drinking_water":"yes","email":"info@nordsee-campingplatz-in-lee.de","fax":"+49 4834 1752","internet_access":"no","name":"Camping in Lee","phone":"+49 4834 8197","power_supply":"yes","sanitary_dump_station":"yes","shower":"yes","stars":"5","tents":"yes","toilets":"yes","website":"http://www.campingplatz-in-lee.de","wheelchair":"limited"}},"192496348":{"location":[54.0958745,9.0100518],"ct":"DE","tp":"CS","ts":"2024-08-14T07:43:04Z","tX":537,"tY":328,"tags":{"caravans":"yes","drinking_water":"yes","email":"info@ferien-achtern-diek.de","phone":"+49 4832 6029946","power_supply":"yes","ref":"D 32","shower":"yes","tents":"yes","toilets":"yes","website":"https://www.ferien-achtern-diek.de/camping"}},"226559239":{"location":[54.12938,8.8701294],"ct":"DE","tp":"CR","ts":"2024-05-14T16:52:29Z","tX":537,"tY":328,"tags":{"addr:city":"Büsum","addr:housenumber":"5","addr:postcode":"25761","addr:street":"Doktor-Martin-Bahr-Straße","capacity":"100","charge":"23 EUR","fax":"+49 4834 2050","fee":"yes","internet_access":"wlan","internet_access:fee":"no","name":"Wohnmobilstellplatz Büsum Hafen","operator":"WMV-Büsum GbR","phone":"+49 4834 9192","power_supply":"yes","power_supply:fee":"no","reservation":"no","sanitary_dump_station":"yes","source":"Betreiber","water_point:charge":"1 EUR/50 liter","water_point:fee":"yes","website":"https://www.wohnmobiluebernachtungsplatz.de/"}},"298597341":{"location":[54.1555718,8.8281659],"ct":"DE","tp":"CS","ts":"2023-06-26T03:22:26Z","tX":537,"tY":328,"tags":{"addr:city":"Westerdeichstrich","addr:housenumber":"2","addr:postcode":"25761","addr:street":"Stadtweg","name":"Campingplatz \"Nordseeburg\"","phone":"+49 4834 8128","website":"https://campingplatz-nordseeburg.jimdofree.com/"}},"362935316":{"location":[54.0951864,8.9498629],"ct":"DE","tp":"CR","ts":"2025-04-22T11:17:45Z","tX":537,"tY":328,"tags":{"capacity":"80","charge":"12 EUR","description":"Geöffnet von April bis Oktober - Toilettenentsorgung 5€. - Strom 5€, Tagesparkplatz 5€, Übernachtung 7€, Übernachtung nur mit eigener Toilette erlaubt.","fee":"yes","internet_access":"no","name":"Wohnmobilstellplatz am Deich Meldorf","opening_hours":"Apr-Oct","operator":"Action-Surf-Meldorf","power_supply":"yes","sanitary_dump_station":"yes","shower":"no","toilets":"no","wheelchair":"no"}},"521432734":{"location":[54.1374847,8.8427964],"ct":"DE","tp":"CS","ts":"2024-12-28T14:52:53Z","tX":537,"tY":328,"tags":{"addr:city":"Büsum","addr:housenumber":"41","addr:postcode":"25761","addr:street":"Dithmarscher Straße","caravans":"yes","drinking_water":"yes","email":"info@camping-nordsee.de","name":"Camping Nordsee","operator":"Jürgen Kahlke","phone":"+49 4834 9621170","power_supply":"yes","sanitary_dump_station":"yes","shower":"yes","tents":"yes","toilets":"yes","website":"https://www.camping-nordsee.de/","wheelchair":"yes"}},"1268362220":{"location":[54.0305266,8.8398434],"ct":"DE","tp":"CR","ts":"2024-07-21T05:17:20Z","tX":537,"tY":328,"tags":{"fee":"yes","name":"Zur Spitze","phone":"+49 4854 357"}},"6497031294":{"location":[53.9716627,9.1367856],"ct":"DE","tp":"CS","ts":"2023-07-15T19:30:55Z","tX":537,"tY":328,"tags":{"access":"yes","backcountry":"yes","camp_site":"basic","capacity:tents":"2","caravans":"no","contact:email":"info@sn-sh.de","contact:phone":"+49 431 21090101","fee":"no","maxstay":"1 day","motor_vehicle":"no","name":"Übernachtungsplatz Sankt Michaelisdonn","openfire":"no","operator":"Stiftung Naturschutz Schleswig-Holstein","reservation":"no","shower":"no","tents":"yes","toilets":"no","website":"https://www.naturschutz-sh.de/wildes-sh/uebernachtungsplatz-st-michaelisdonn"}},"11236488615":{"location":[54.0225948,8.8512268],"ct":"DE","tp":"CR","ts":"2024-04-02T12:25:44Z","tX":537,"tY":328,"tags":{"caravans":"yes","check_date":"2023-10-03","fee":"yes","motorhome":"yes","name":"Camping am Nordseedeich","power_supply":"yes","tents":"yes","website":"http://www.camping-am-nordseedeich.de/"}},"11861569761":{"location":[53.9856699,9.1127917],"ct":"DE","tp":"CR","ts":"2024-09-05T13:51:50Z","tX":537,"tY":328,"tags":{"capacity":"5","caravan_site":"motorhome_stopover","caravan_site:type":"market","caravans":"no","fee":"no","internet_access":"no","name":"Wohnmobilplatz Markt Sankt Michaelisdonn","power_supply":"no","sanitary_dump_station":"no","tents":"no","traffic_sign":"DE:314,1048-17","water_point":"no"}},"6850858888":{"location":[54.1290698,8.8688394],"ct":"DE","tp":"SD","ts":"2019-10-04T09:27:16Z","tX":537,"tY":328,"tags":{"access":"yes","sanitary_dump_station:basin":"yes"}}}