{"15647068":{"location":[53.8252897,8.8771933],"ct":"DE","tp":"CS","ts":"2024-07-07T09:00:46Z","tX":537,"tY":329,"tags":{"addr:city":"Otterndorf","addr:housenumber":"3","addr:postcode":"21762","addr:street":"Am Campingplatz","bettundbike":"yes","caravans":"yes","email":"campingplatz@otterndorf.de","fee":"yes","name":"See Achtern Diek","operator":"Nordseebad Otterndorf","phone":"+49 4751 2933","shower":"yes","tents":"yes","toilets":"yes","website":"https://www.otterndorf.de/"}},"37714299":{"location":[53.8226761,8.8944679],"ct":"DE","tp":"CR","ts":"2025-02-01T11:01:22Z","tX":537,"tY":329,"tags":{"addr:city":"Otterndorf","addr:housenumber":"5","addr:postcode":"21762","addr:street":"Schleuse","capacity":"21","caravan_site:type":"lock;river","charge":"13 EUR","fee":"yes","name":"Am Seglertreff","phone":"+ 49 4751 9799729","power_supply":"yes","power_supply:charge":"0.70 EUR/kWh","power_supply:fee":"yes","shower":"yes","shower:charge":"2 EUR/6 minutes","shower:fee":"yes","website":"https://www.otterndorf.de/hotel/wohnmobilstellplatz-am-seglertreff","wheelchair":"yes"}},"89707676":{"location":[53.7513446,9.083469],"ct":"DE","tp":"CS","ts":"2020-03-14T19:47:06Z","tX":537,"tY":329,"tags":{"email":"wingst@knauscamp.de","fax":"+49 4778 7608","name":"KNAUS Campingpark Wingst","phone":"+49 4778 7604","website":"https://www.knauscamp.de/wingst","wheelchair":"limited"}},"241127077":{"location":[53.8029439,9.0401334],"ct":"DE","tp":"CR","ts":"2025-02-01T10:37:29Z","tX":537,"tY":329,"tags":{"capacity":"17","caravan_site":"motorhome_stopover","caravan_site:type":"harbour;river","charge":"12 EUR","description":"washing machine and dryer: 7,50€","fee":"yes","laundry":"yes","name":"Am Yachthafen Neuhaus an der Oste","operator":"Tourismus- und Gewerbeverein Ostemündung e. V.","power_supply":"yes","power_supply:charge":"3 EUR","power_supply:fee":"yes","shower":"yes","shower:charge":"2 EUR","shower:fee":"yes","water_point":"yes","website":"https://www.tourismus-gewerbe-neuhaus.de/"}},"342117655":{"location":[53.8898814,9.1025601],"ct":"DE","tp":"CS","ts":"2022-08-03T12:26:56Z","tX":537,"tY":329,"tags":{"addr:city":"Brunsbüttel","addr:housenumber":"30","addr:postcode":"25541","addr:street":"Soesmenhusen","caravans":"yes","name":"Elbdeichcamp","tents":"yes","website":"https://www.elbdeichcamp.de/"}},"557083105":{"location":[53.9002333,9.1323841],"ct":"DE","tp":"CR","ts":"2024-07-10T07:19:54Z","tX":537,"tY":329,"tags":{"name":"Wohnmobilplatz Freizeitbad Brunsbüttel","website":"https://www.freizeitbad-brunsbuettel.de/wohnmobilstellplatz/"}},"946697666":{"location":[53.8933452,9.1260537],"ct":"DE","tp":"CR","ts":"2021-09-24T11:57:36Z","tX":537,"tY":329,"tags":{"name":"Wohnmobilplatz Alter Hafen Brunsbüttel","opening_hours":"May-Sep","operator":"Seglervereinigung Brunsbüttel e. V.","website":"https://svb-bru.de/index.php/iwohnmobile"}},"1220560643":{"location":[53.8188193,9.0387527],"ct":"DE","tp":"CR","ts":"2023-11-03T16:22:43Z","tX":537,"tY":329,"tags":{"capacity":"6","caravan_site:type":"museum","dog":"yes","fee":"no","name":"Balje Am Natureum Niederelbe","seasonal":"no","website":"https://www.natureum-niederelbe.de/was-wir-bieten/informationen"}},"1279059048":{"location":[53.9063055,9.0188245],"ct":"DE","tp":"CR","ts":"2024-06-13T03:11:53Z","tX":537,"tY":329,"tags":{"capacity":"7","caravan_site":"motorhome_stopover","caravan_site:type":"harbour","charge":"20 EUR","fee":"yes","name":"Wohnmobilstellplatz Sportbootclub Neufeld","phone":"+49 162 9893361","power_supply":"yes","sanitary_dump_station":"yes","shower":"yes","toilets":"yes","water_point":"yes","website":"https://sbc-neufeld.de/wohnmobil-stellplatz/"}},"3649834825":{"location":[53.7519716,9.0827751],"ct":"DE","tp":"CR","ts":"2023-04-10T08:04:19Z","tX":537,"tY":329,"tags":{"capacity":"6","fee":"yes","name":"KNAUS Campingpark Wingst","power_supply":"yes","sanitary_dump_station":"yes","water_point":"yes","website":"https://www.knauscamp.de/wingst.html#second","wheelchair":"limited"}},"10669802137":{"location":[53.9557792,8.9903471],"ct":"DE","tp":"CR","ts":"2024-04-26T15:16:56Z","tX":537,"tY":329,"tags":{"fee":"yes"}},"5506523413":{"location":[53.8990743,9.1322328],"ct":"DE","tp":"SD","ts":"2018-03-26T19:29:44Z","tX":537,"tY":329,"tags":{}}}