{"166370894":{"location":[53.4734168,8.9870145],"ct":"DE","tp":"CS","ts":"2022-10-05T16:36:02Z","tX":537,"tY":331,"tags":{"addr:city":"Hipstedt","addr:housenumber":"1","addr:postcode":"27432","addr:street":"Moorlandweg","capacity":"100","email":"Hof.Freitag.Geestequelle@t-online.de","fee":"yes","name":"Campingpark Hof Freitag Geestequelle","website":"http://www.campingpark-hoffreitag-geestequelle.de/"}},"261208113":{"location":[53.3903355,9.0001458],"ct":"DE","tp":"CR","ts":"2014-02-12T09:59:21Z","tX":537,"tY":331,"tags":{"name":"Wohnmobilparkplatz Gnarrenburg"}},"930674160":{"location":[53.3918068,9.0069007],"ct":"DE","tp":"CS","ts":"2021-04-14T13:39:07Z","tX":537,"tY":331,"tags":{"addr:city":"Gnarrenburg","addr:housenumber":"69","addr:postcode":"27442","addr:street":"Hermann-Lamprecht-Straße","name":"Campingplatz Gnarrenburg","opening_hours":"Mo-Su 09:00-20:00","phone":"+49 4763 8648","website":"https://www.camping-gnarrenburg.de/"}},"2800243432":{"location":[53.4622179,8.8655712],"ct":"DE","tp":"CS","ts":"2023-04-10T09:10:43Z","tX":537,"tY":331,"tags":{"operator":"NaturFreunde Deutschlands Ortsgruppe Bremerhaven e.V.","website":"https://www.naturfreunde-bremerhaven.de/camping.htm"}},"9767320866":{"location":[53.4927377,8.8100735],"ct":"DE","tp":"CS","ts":"2022-05-26T05:03:36Z","tX":537,"tY":331,"tags":{"addr:city":"Schiffdorf","addr:housenumber":"70","addr:postcode":"27619","addr:street":"Silberseestraße","contact:email":"campingplatz-silbersee@gmx.de","contact:mobile":"+49 174 6451915","contact:phone":"+49 4749 4423572","contact:website":"https://Campingplatz-Silbersee.de","name":"Silbersee","opening_hours":"Apr-Oct"}}}