{"5206337":{"location":[53.2265889,8.8874582],"ct":"DE","tp":"CS","ts":"2023-11-09T00:24:04Z","tX":537,"tY":332,"tags":{"addr:city":"Worpswede","addr:housenumber":"10 - 12","addr:postcode":"27726","addr:street":"Hammeweg","capacity":"50","email":"info@hammehafen.de","fee":"yes","name":"Hammehafen","website":"https://hammehafen.de/"}},"33651686":{"location":[53.1260399,8.9808723],"ct":"DE","tp":"CS","ts":"2022-07-01T09:53:40Z","tX":537,"tY":332,"tags":{"addr:city":"Bremen","addr:postcode":"28357","addr:street":"Am Hexenberg","name":"Camping am Hexenberg"}},"114095863":{"location":[53.2673457,9.1016734],"ct":"DE","tp":"CS","ts":"2024-09-10T16:04:26Z","tX":537,"tY":332,"tags":{"addr:city":"Hepstedt","addr:housenumber":"100","addr:postcode":"27412","addr:street":"Ummelweg","cabins":"yes","capacity:pitches":"240","caravans":"yes","check_date":"2024-09-10","dog":"leashed","drinking_water":"yes","email":"kontakt@waldcampingplatz-ummelbad.com","fee":"yes","motor_vehicle":"yes","motorhome":"yes","name":"Waldcampingplatz Ummelbad","openfire":"yes","opening_hours":"24/7","operator":"Silvana Zampich","permanent_camping":"yes","phone":"+49 172 6056528","power_supply":"yes","reservation":"yes","sanitary_dump_station":"yes","shower":"yes","static_caravans":"yes","tents":"yes","toilets":"yes","washing_machine":"yes","waste_disposal":"yes","website":"https://www.waldcampingplatz-ummelbad.com"}},"170785321":{"location":[53.1239947,8.9768505],"ct":"DE","tp":"CS","ts":"2024-04-06T22:58:14Z","tX":537,"tY":332,"tags":{"addr:city":"Bremen","addr:housenumber":"2","addr:postcode":"28357","addr:street":"Am Hexenberg","name":"Campingplatz Krentzel","operator":"Familie Krentzel","phone":"+49 421 273731","tents":"yes"}},"287799555":{"location":[53.1754919,8.8225851],"ct":"DE","tp":"CS","ts":"2020-02-03T15:27:23Z","tX":537,"tY":332,"tags":{"addr:city":"Lilienthal","addr:housenumber":"3","addr:postcode":"28865","addr:street":"Vierhausen","name":"Campingpl채tze Gasthaus Veerh체sen & Camping"}},"289414852":{"location":[53.2282589,8.8890144],"ct":"DE","tp":"CR","ts":"2024-03-24T00:41:11Z","tX":537,"tY":332,"tags":{"capacity":"30","caravan_site":"motorhome_stopover","caravan_site:type":"harbour;river","charge":"14 EUR","check_out":"12:00","fee":"no","name":"Wohnmobilstellplatz Hammehafen","opening_hours":"Apr-Oct","park_ride":"no","power_supply":"yes","sanitary_dump_station":"yes","supervised":"no","tents":"no","water_point":"yes","website":"https://hammehafen.de/camping/"}},"549692657":{"location":[53.2144094,9.0949401],"ct":"DE","tp":"CS","ts":"2022-10-27T01:09:07Z","tX":537,"tY":332,"tags":{"caravans":"yes","drinking_water":"yes","name":"Wochenendpark Rethbergsee","power_supply":"yes","shower":"yes","tents":"yes","toilets":"yes"}},"636412829":{"location":[53.315928,8.9432989],"ct":"DE","tp":"CS","ts":"2023-11-08T17:33:46Z","tX":537,"tY":332,"tags":{"name":"Camping Viehspecken","website":"https://www.viehspecken.de/"}},"664779200":{"location":[53.1844327,8.9832606],"ct":"DE","tp":"CR","ts":"2024-04-05T13:20:28Z","tX":537,"tY":332,"tags":{"capacity":"8","maxlength":"8","name":"Wohnmobilstellpl채tz Grasberg","power_supply":"yes","power_supply:charge":"1 EUR/4 hours","sanitary_dump_station":"yes","shower":"no","toilets":"no","water_point":"yes","website":"https://www.grasberg.de/default.cfm?mid=45913"}},"733536405":{"location":[53.1874051,9.1050536],"ct":"DE","tp":"CS","ts":"2022-11-24T17:25:39Z","tX":537,"tY":332,"tags":{"contact:mobile":"+49 176 65527411","contact:website":"https://www.campingplatz-wuellenheide.de/","name":"Campingplatz W체llenheide"}},"10973671005":{"location":[53.2668842,8.9198154],"ct":"DE","tp":"CS","ts":"2023-07-02T11:46:46Z","tX":537,"tY":332,"tags":{"addr:housenumber":"1","addr:postcode":"27711","addr:street":"Schleusenweg","cabins":"yes","caravans":"yes","email":"info@campingplatz-meyer.de","internet_access":"wlan","name":"Campingplatz Meyer","opening_hours":"Su-Th 09:00-13:00, 15:00-18:00; Fr-Sa 09:00-16:00","phone":"+49 4796 265","shower":"yes","static_caravans":"yes","tents":"yes","toilets":"yes","website":"https://campingplatz-meyer.de"}}}