{"23247090":{"location":[53.0043286,8.9577392],"ct":"DE","tp":"CS","ts":"2023-11-04T19:47:16Z","tX":537,"tY":333,"tags":{"addr:city":"Achim","addr:country":"DE","addr:housenumber":"37","addr:postcode":"28832","addr:street":"Bollener Deich","addr:suburb":"Bollen","email":"info@camping-coppel.de","name":"Camping-Coppel","operator":"Camping-Coppel e.V. Bremen - Bollen","phone":"+49 4202 61920","website":"https://www.camping-coppel.de/"}},"23247093":{"location":[53.011118,8.9271794],"ct":"DE","tp":"CS","ts":"2020-03-21T18:09:17Z","tX":537,"tY":333,"tags":{"email":"info@bollen-deichkind.de","fax":"+49 4202 9949945","name":"Deichkind Camping","phone":"+49 4202 3586","website":"http://www.deichkind-camping.de"}},"23321539":{"location":[53.113895,8.834327],"ct":"DE","tp":"CS","ts":"2022-12-03T15:45:53Z","tX":537,"tY":333,"tags":{"addr:city":"Bremen","addr:country":"DE","addr:housenumber":"1","addr:postcode":"28359","addr:street":"Hochschulring","caravans":"yes","contact:email":"info@hansecamping.de","contact:fax":"+49 421 30746826","contact:phone":"+49 421 30746825","contact:website":"http://hansecamping.de","drinking_water":"yes","name":"Hanse Camping","operator":"Stephan Emde","power_supply":"yes","sanitary_dump_station":"yes","shower":"yes","tents":"yes","toilets":"yes","wheelchair":"limited","wheelchair:description":"Rolli-WC vorhanden."}},"33747237":{"location":[53.001312,8.9882096],"ct":"DE","tp":"CS","ts":"2024-07-13T12:13:29Z","tX":537,"tY":333,"tags":{"caravans":"yes","name":"Campingplatz FÃ¤hrhaus","phone":"+4917684484593","tents":"yes","website":"https://campingreich.com/"}},"33747363":{"location":[53.0061915,8.9829383],"ct":"DE","tp":"CS","ts":"2022-11-02T14:31:32Z","tX":537,"tY":333,"tags":{"caravans":"yes","name":"Kieskuhle","tents":"yes"}},"44585226":{"location":[53.1124428,8.8432704],"ct":"DE","tp":"CS","ts":"2021-08-30T16:07:00Z","tX":537,"tY":333,"tags":{"name":"Naturcampingplatz"}},"96638380":{"location":[52.9746661,9.1057964],"ct":"DE","tp":"CS","ts":"2024-10-16T04:27:42Z","tX":537,"tY":333,"tags":{"addr:city":"Langwedel","addr:country":"DE","addr:housenumber":"35","addr:postcode":"27299","addr:street":"Ziegeleiweg","caravans":"yes","motorhome":"yes","name":"Drosselhof","phone":"+49 4202 3572058","power_supply":"yes","shower":"yes","tents":"yes","website":"http://www.campingplatz-drosselhof.de","wheelchair":"no"}},"140741858":{"location":[52.9614159,9.0319616],"ct":"DE","tp":"CR","ts":"2024-02-24T13:14:43Z","tX":537,"tY":333,"tags":{"capacity":"8","charge":"10 EUR","email":"Touristik@thedinghausen.de","fee":"yes","internet_access":"no","name":"Wohnmobilstellplatz am Schloss Erbhof","phone":"+49 4204 88-22","power_supply":"yes","sanitary_dump_station":"yes","source:name":"https://www.schloss-erbhof.de/wohnmobil/wohnmobilstellplatz/","website":"https://www.schloss-erbhof.de/wohnmobil/wohnmobilstellplatz/"}},"225394737":{"location":[53.0463706,8.8721039],"ct":"DE","tp":"CS","ts":"2015-07-03T22:54:29Z","tX":537,"tY":333,"tags":{"operator":"WVH"}},"248125059":{"location":[53.0255043,8.8836171],"ct":"DE","tp":"CS","ts":"2017-02-06T21:33:47Z","tX":537,"tY":333,"tags":{}},"272354135":{"location":[53.1147297,8.8339103],"ct":"DE","tp":"CR","ts":"2025-02-02T12:17:05Z","tX":537,"tY":333,"tags":{"addr:city":"Bremen","addr:country":"DE","addr:housenumber":"1","addr:postcode":"28359","addr:street":"Hochschulring","capacity":"20","caravan_site":"motorhome_stopover","caravan_site:type":"camp_site","caravans":"no","charge":"23 EUR","charge:conditional":"21 EUR @ (Oct-Mar)","check_out":"12:00","contact:email":"info@hansecamping.de","contact:fax":"+49 421 30746826","contact:phone":"+49 421 30746825","contact:website":"http://www.hansecamping.de","dog":"yes","drinking_water":"yes","dryer":"yes","fee":"yes","lit":"yes","maxstay":"5 nights","name":"Reisemobilhafen Hanse Camping","operator":"Stephan Emde","power_supply":"yes","sanitary_dump_station":"yes","sanitary_dump_station:chemical_toilet":"yes","sanitary_dump_station:grey_water":"yes","shower":"yes","tents":"no","toilets":"yes","washing_machine":"yes","water_point":"yes","wheelchair":"yes"}},"287690820":{"location":[53.064823,8.8196819],"ct":"DE","tp":"CR","ts":"2025-02-14T14:47:37Z","tX":537,"tY":333,"tags":{"addr:city":"Bremen","addr:country":"DE","addr:postcode":"28201","addr:street":"Kuhhirtenweg","capacity":"70","caravan_site":"motorhome_stopover","caravan_site:type":"city;river","caravans":"no","charge":"21 EUR","check_out":"14:00","contact:email":"stellplatz-bremen@t-online.de","contact:mobile":"+49 173 9850092","contact:website":"https://www.stellplatz-bremen.de","dog":"yes","drink:beer":"retail","drink:wine":"retail","fee":"yes","internet_access":"wlan","internet_access:fee":"no","motorcar":"no","motorhome":"designated","name":"Reisemobilplatz Am Kuhhirten","operator":"Hans Bahrenburg","picnic_table":"yes","power_supply":"yes","power_supply:charge":"0.70 EUR/kWh","power_supply:fee":"yes","reservation":"no","sanitary_dump_station":"yes","sanitary_dump_station:chemical_toilet":"yes","sanitary_dump_station:grey_water":"yes","shower":"yes","shower:charge":"1 EUR","shower:fee":"yes","tents":"no","toilets":"yes","toilets:fee":"no","water_point":"yes","water_point:charge":"0.10 EUR/10 liter","water_point:fee":"yes","wheelchair":"yes","wikimedia_commons":"Category:Reisemobilplatz Am Kuhhirten Bremen"}},"329946702":{"location":[53.0727144,8.9717533],"ct":"DE","tp":"CS","ts":"2018-11-20T08:26:51Z","tX":537,"tY":333,"tags":{"name":"Campingplatz am Behlingsee"}},"329946711":{"location":[53.0705935,8.9720565],"ct":"DE","tp":"CS","ts":"2018-11-20T08:26:51Z","tX":537,"tY":333,"tags":{}},"348043024":{"location":[53.0475752,9.0039919],"ct":"DE","tp":"CS","ts":"2023-07-06T12:07:56Z","tX":537,"tY":333,"tags":{"access":"customers","addr:city":"Oyten","addr:country":"DE","addr:housenumber":"1","addr:postcode":"28876","addr:street":"Oyter See","camp_site":"serviced","capacity:caravans":"211","capacity:tents":"26","caravans":"yes","email":"oyten@knauscamp.de","fax":"+49 4207 90905","fee":"yes","name":"KNAUS Campingpark Oyten/Bremen","operator":"Helmut KNAUS KG","phone":"+49 4207 2878","static_caravans":"yes","tents":"yes","website":"https://www.knauscamp.de/oyten-bremen.html"}},"376288890":{"location":[53.0044369,8.9382145],"ct":"DE","tp":"CS","ts":"2020-12-26T19:00:39Z","tX":537,"tY":333,"tags":{"name":"Campingplatz Bollerholz"}},"551080683":{"location":[53.0452902,9.0040673],"ct":"DE","tp":"CS","ts":"2025-02-18T09:43:10Z","tX":537,"tY":333,"tags":{"access":"customers","addr:city":"Oyten","addr:country":"DE","addr:housenumber":"1","addr:postcode":"28876","addr:street":"Oyter See","capacity":"350","capacity:persons":"500","capacity:tents":"100","caravans":"no","email":"oyten@knauscamp.de","fax":"+49 4207 90905","fee":"yes","group_only":"yes","name":"KNAUS Campingpark Oyten/Bremen Gruppenzeltplatz","operator":"Helmut KNAUS KG","phone":"+49 4207 2878","static_caravans":"no","tents":"yes","website":"https://www.knauscamp.de/oyten-bremen/"}},"564671660":{"location":[53.0676917,8.863635],"ct":"DE","tp":"CR","ts":"2018-10-01T12:42:42Z","tX":537,"tY":333,"tags":{"name":"Wohnmobiloase Bremen","website":"https://www.wohnmobiloase-bremen.de","wheelchair":"no"}},"997388200":{"location":[52.9929513,9.03911],"ct":"DE","tp":"CS","ts":"2021-10-29T09:48:53Z","tX":537,"tY":333,"tags":{}},"1264090236":{"location":[53.1072993,9.1358115],"ct":"DE","tp":"CR","ts":"2024-11-27T23:09:39Z","tX":537,"tY":333,"tags":{"capacity":"8","caravan_site":"motorhome_stopover","caravan_site:type":"sports_centre","fee":"no","name":"Wohnmobil-Stellplatz Sportzentrum Ottersberg","power_supply":"no","sanitary_dump_station":"yes","sanitary_dump_station:chemical_toilet":"yes","sanitary_dump_station:grey_water":"yes","website":"https://www.flecken-ottersberg.de/info/poi/wohnmobil-stellplatz-sportzentrum-900000269-20670.html","wikimedia_commons":"Category:Wohnmobil-Stellplatz Sportzentrum Ottersberg"}},"1356147976":{"location":[53.0676177,8.863699],"ct":"DE","tp":"CR","ts":"2025-04-02T09:56:20Z","tX":537,"tY":333,"tags":{"capacity":"15","caravan_site":"motorhome_stopover","caravan_site:type":"city;hotel","charge":"21 EUR","dog":"yes","dog:fee":"no","email":"info@wohnmobilstellplatz-bremen.de","internet_access":"wlan","internet_access:fee":"no","laundry":"yes","name":"Wohnmobilstellplatz Bremen","phone":"+49 0421 7 90 30 52","power_supply":"yes","power_supply:fee":"no","sanitary_dump_station":"yes","sanitary_dump_station:chemical_toilet":"yes","sanitary_dump_station:fee":"no","sanitary_dump_station:grey_water":"yes","sauna":"yes","seasonal":"no","shower":"yes","shower:fee":"no","toilets":"yes","water_point":"yes","water_point:charge":"2 EUR","water_point:fee":"yes","website":"https://www.wohnmobilstellplatz-bremen.de/","wheelchair":"no"}},"3406324986":{"location":[53.1147944,8.8335307],"ct":"DE","tp":"SD","ts":"2024-09-09T13:52:28Z","tX":537,"tY":333,"tags":{"fee":"no"}},"6034045306":{"location":[53.0651558,8.8190583],"ct":"DE","tp":"SD","ts":"2025-02-14T14:47:37Z","tX":537,"tY":333,"tags":{"access":"customers","fee":"no","sanitary_dump_station:chemical_toilet":"no","sanitary_dump_station:grey_water":"yes","wikimedia_commons":"File:Reisemobilplatz Kuhhirten Bremen grey water dumping.jpg"}},"11029973599":{"location":[53.0466135,9.0060434],"ct":"DE","tp":"SD","ts":"2023-07-06T12:07:56Z","tX":537,"tY":333,"tags":{}},"11745001762":{"location":[53.1073616,9.1359083],"ct":"DE","tp":"SD","ts":"2024-11-27T23:09:39Z","tX":537,"tY":333,"tags":{"access":"yes","fee":"no","sanitary_dump_station:basin":"yes","sanitary_dump_station:chemical_toilet":"yes","sanitary_dump_station:grey_water":"yes","sanitary_dump_station:round_drain":"yes","wikimedia_commons":"File:Sportzentrum Ottersberg sanitary dump station.jpg"}},"12416158271":{"location":[53.1140912,8.8348122],"ct":"DE","tp":"SD","ts":"2024-12-12T15:13:00Z","tX":537,"tY":333,"tags":{}},"12587686344":{"location":[53.0652586,8.818953],"ct":"DE","tp":"SD","ts":"2025-02-14T14:47:37Z","tX":537,"tY":333,"tags":{"access":"customers","fee":"no","sanitary_dump_station:chemical_toilet":"yes","sanitary_dump_station:grey_water":"no","wikimedia_commons":"File:Reisemobilplatz Kuhhirten Bremen toilet dumping.jpg"}}}