{"46918731":{"location":[52.8343534,8.8252245],"ct":"DE","tp":"CS","ts":"2023-02-26T16:53:38Z","tX":537,"tY":334,"tags":{"name":"Hallstedter Quellental"}},"79812472":{"location":[52.7782772,9.0385433],"ct":"DE","tp":"CS","ts":"2019-06-23T18:36:37Z","tX":537,"tY":334,"tags":{"contact:email":"info@campingplatz-kellerberg.de","contact:fax":"+49 4253 1871","contact:phone":"+49 4253 450","name":"Kellerberg","website":"http://www.campingplatz-kellerberg.de/"}},"114671160":{"location":[52.8248049,9.05346],"ct":"DE","tp":"CS","ts":"2024-10-02T11:56:50Z","tX":537,"tY":334,"tags":{"access":"customers","addr:city":"Bruchhausen-Vilsen","addr:housenumber":"18","addr:postcode":"27305","addr:street":"Stapelshorn","caravans":"yes","charge":"18 EUR/day","check_date":"2024-09-19","contact:email":"info@luettsche-hoff.de","contact:mobile":"+49 152 04205481","contact:website":"https://www.luettsche-hoff.de/camping","description":"Kleiner, ruhig gelegener Natur-Campingplatz mit offen gestalteten Stellplätzen. 6 Stromplätze sind vorhanden. Campertreffen können veranstaltet werden.","dog":"yes","drinking_water":"yes","fee":"yes","motorhome":"yes","name":"Lüttsche-Hoff","openfire":"yes","opening_hours":"Mar-Oct,Dec","operator":"Nina Helbig & Christopher Hejny","power_supply":"yes","reservation":"yes","sanitary_dump_station":"yes","shower":"yes","static_caravans":"no","tents":"yes","toilets":"yes","waste_disposal":"yes"}},"167254509":{"location":[52.872469,9.0347607],"ct":"DE","tp":"CS","ts":"2024-11-01T10:30:17Z","tX":537,"tY":334,"tags":{}},"223648357":{"location":[52.8792556,8.9010251],"ct":"DE","tp":"CS","ts":"2024-07-26T08:23:32Z","tX":537,"tY":334,"tags":{"name":"Zum Heussen"}},"390999705":{"location":[52.8838038,8.8437595],"ct":"DE","tp":"CS","ts":"2021-05-12T08:26:06Z","tX":537,"tY":334,"tags":{"addr:city":"Syke","addr:housenumber":"3","addr:postcode":"28857","addr:street":"Im Fange","alt_name":"Camping & Ferienpark \"Zum Hachetal\"","capacity":"150","name":"Campingplatz Clues","operator":"Stephan Abbing"}},"442123065":{"location":[52.8264167,8.9944131],"ct":"DE","tp":"CR","ts":"2024-05-31T11:31:03Z","tX":537,"tY":334,"tags":{"capacity":"20","caravans":"no","charge":"8 EUR","description":"fee includes 2 EUR voucher for local products","dog":"leashed","fee":"yes","name":"Wohnmobilstellplatz Bruchhausen-Vilsen","power_supply":"yes","water_point":"yes","website":"https://www.bruchhausen-vilsen.de/tourismus-luftkurort/tourismus-und-freizeit/wohnmobilstellplatz.html","wheelchair":"limited"}},"669319779":{"location":[52.7795499,9.1276431],"ct":"DE","tp":"CR","ts":"2024-02-24T13:27:31Z","tX":537,"tY":334,"tags":{"capacity":"12","fee":"no","name":"Dorfplatz Bücken","power_supply":"yes","sanitary_dump_station":"yes","water_point":"yes"}},"1304385999":{"location":[52.7690222,8.8125727],"ct":"DE","tp":"CR","ts":"2024-08-05T21:04:53Z","tX":537,"tY":334,"tags":{"access":"private","capacity":"40","caravan_site":"permanent_camping","landuse":"grass","membership":"Deutschen Camping-Clubs","name":"Campingplatz Reinhold-Hartung","operator":"Landesverbandes Weser-Ems e.V.","permanent_camping":"yes","power_supply":"yes","private":"members","surface":"grass","toilets":"yes","water_point":"yes","website":"https://dcc-lv-weser-ems.de/dcc-campingplaetze/camping-und-clubplatz-staatshausen/"}},"3910800198":{"location":[52.712697,9.1267134],"ct":"DE","tp":"CR","ts":"2015-12-26T16:13:00Z","tX":537,"tY":334,"tags":{"addr:city":"Balge","addr:housenumber":"6","addr:postcode":"31609","addr:street":"Am Stührberg","capacity":"3","fee":"yes","internet_access":"yes","name":"Wohnmobilstellplatz auf dem Hof Schwarzes Moor","operator":"Hof Schwarzes Moor","power_supply":"yes","sanitary_dump_station":"no"}},"8718561139":{"location":[52.7560355,8.9078683],"ct":"DE","tp":"CS","ts":"2021-05-10T13:29:09Z","tX":537,"tY":334,"tags":{"name":"Hofbruhuus Heidhoff","website":"https://www.hoffbruhuus.de/campingplatz/"}},"12168386917":{"location":[52.8908277,9.0979275],"ct":"DE","tp":"CR","ts":"2024-09-10T16:38:19Z","tX":537,"tY":334,"tags":{"addr:city":"Martfeld","addr:housenumber":"3","addr:postcode":"27327","addr:street":"Mallenweg","capacity":"3","caravans":"yes","contact:email":"info@mallenhof.de","contact:mobile":"+49 160 97979493","contact:phone":"+49 4255 9838888","contact:website":"https://www.mallenhof.de/camping/","drinking_water":"yes","fee":"yes","motorhome":"yes","name":"Mallenhof","operator":"Dirk Bröer","shower":"yes","toilets":"yes"}},"4398147348":{"location":[52.8265325,8.9949308],"ct":"DE","tp":"SD","ts":"2016-09-12T21:03:46Z","tX":537,"tY":334,"tags":{"sanitary_dump_station:chemical_toilet":"yes","sanitary_dump_station:fee":"no","sanitary_dump_station:gravity":"yes","sanitary_dump_station:grey_water":"yes","sanitary_dump_station:suction":"no"}},"12215903670":{"location":[52.8246681,9.0536618],"ct":"DE","tp":"SD","ts":"2024-10-02T11:56:50Z","tX":537,"tY":334,"tags":{"access":"customers","check_date":"2024-09-19","fee":"no","operator":"Lüttsche-Hoff","sanitary_dump_station:grey_water":"yes"}}}