{"1259840":{"location":[52.1701567,8.9032823],"ct":"DE","tp":"CS","ts":"2023-07-08T15:00:48Z","tX":537,"tY":337,"tags":{"access":"customers","addr:city":"Vlotho","addr:housenumber":"2","addr:postcode":"32602","addr:street":"Borlefzen","addr:suburb":"Uffeln","fax":"+49 5733 8 97 28","name":"Camp Feuerland","opening_hours":"Mo-Su 10:00-18:00","operator":"Martin Feuer","phone":"+49 5733 8 00 08","website":"http://www.camp-feuerland.de/"}},"14722207":{"location":[52.1744827,8.9102187],"ct":"DE","tp":"CS","ts":"2022-10-23T08:25:01Z","tX":537,"tY":337,"tags":{"name":"Camping Paradies Sonnenwiese","website":"https://www.sonnenwiese.com/"}},"37063911":{"location":[52.1581058,8.8846008],"ct":"DE","tp":"CS","ts":"2011-09-18T12:38:06Z","tX":537,"tY":337,"tags":{"name":"Schöne Aussicht","website":"www.bergcamping.de"}},"37064253":{"location":[52.1764575,9.0015312],"ct":"DE","tp":"CS","ts":"2024-03-27T12:27:31Z","tX":537,"tY":337,"tags":{"addr:city":"Kalletal","addr:housenumber":"1","addr:postcode":"32689","addr:street":"Seeweg","caravans":"yes","dog":"yes","fax":"+49 5755 723","fee":"yes","internet_access":"wlan","internet_access:fee":"no","name":"CampingPark Kalletal","phone":"+49 5755 444","tents":"yes","website":"https://www.campingpark-kalletal.de/"}},"37064408":{"location":[52.1894604,9.0530403],"ct":"DE","tp":"CS","ts":"2022-11-02T23:43:32Z","tX":537,"tY":337,"tags":{"name":"Campingplatz Doktorsee","website":"https://www.doktorsee.de/doktorsee"}},"37097341":{"location":[52.2044906,8.8568174],"ct":"DE","tp":"CS","ts":"2011-11-20T07:31:31Z","tX":537,"tY":337,"tags":{"name":"Campingplatz \"In Vössen\""}},"39888712":{"location":[52.1669458,8.9058828],"ct":"DE","tp":"CS","ts":"2023-11-10T01:37:55Z","tX":537,"tY":337,"tags":{"caravans":"yes","drinking_water":"yes","name":"NaturCamp an der Weser","power_supply":"yes","shower":"yes","tents":"yes","website":"https://www.anderweser.de/"}},"40547295":{"location":[52.1811775,8.8638958],"ct":"DE","tp":"CS","ts":"2023-11-02T15:27:41Z","tX":537,"tY":337,"tags":{"access":"private","description":"Kein öffentliche zugänglicher Campingplatz"}},"43199937":{"location":[52.1805629,8.9583088],"ct":"DE","tp":"CS","ts":"2022-06-02T16:12:27Z","tX":537,"tY":337,"tags":{"name":"Westfälischer Motoryachtclub e.V. Dortmund","tents":"no","url":"https://www.wmyc.de/"}},"43569767":{"location":[52.104189,9.1178216],"ct":"DE","tp":"CS","ts":"2023-06-03T05:54:50Z","tX":537,"tY":337,"tags":{"addr:city":"Extertal","addr:housenumber":"15","addr:postcode":"32699","addr:street":"Meierberger Straße","caravans":"yes","name":"Ferienpark Buschhof","operator":"Rohloff Ferienpark GmbH","phone":"+49 5262 2575","tents":"no","website":"https://ferienpark.de/ferienpark-buschhof"}},"86058259":{"location":[52.2007729,9.0586824],"ct":"DE","tp":"CS","ts":"2021-04-05T15:06:11Z","tX":537,"tY":337,"tags":{"addr:housenumber":"40","addr:street":"Dankerser Straße","email":"helenensee@t-online.de","fax":"+49 5751 993375","name":"Helenensee","phone":"+49 5751 7133","website":"www.helenensee.de"}},"86498026":{"location":[52.1848764,8.9372078],"ct":"DE","tp":"CS","ts":"2016-06-30T17:19:39Z","tX":537,"tY":337,"tags":{"name":"Weserfreizeit Erder"}},"86553196":{"location":[52.1842827,8.9333269],"ct":"DE","tp":"CS","ts":"2024-07-03T16:45:55Z","tX":537,"tY":337,"tags":{"addr:city":"Kalletal","addr:country":"DE","addr:housenumber":"7a","addr:postcode":"32689","addr:street":"An der Weser","addr:suburb":"Erder","caravans":"yes","drinking_water":"yes","fee":"yes","name":"Julianna Campingplatz Kalletal","payment:cash":"yes","power_supply":"yes","shower":"yes","tents":"yes","toilets":"yes","website":"https://www.campingplatz-weser-kalletal.de/start.html"}},"139742722":{"location":[52.1917174,9.0860849],"ct":"DE","tp":"CS","ts":"2022-06-02T16:12:27Z","tX":537,"tY":337,"tags":{"club":"sport","name":"Rintelner Kanu Club e.V.","shower":"yes","sport":"canoe","tents":"yes","toilets":"yes","url":"https://rkc-rinteln.de/"}},"148241268":{"location":[52.2236478,8.8377928],"ct":"DE","tp":"CS","ts":"2024-10-16T04:27:42Z","tX":537,"tY":337,"tags":{"caravans":"yes","check_date:internet_access":"2022-08-10","contact:email":"info@grosserweserbogen.de","contact:fax":"+49 5731 6601","contact:phone":"+49 5731 6188","contact:website":"http://www.grosserweserbogen.de","dryer":"yes","internet_access":"wlan","internet_access:fee":"yes","kitchen":"yes","name":"Grosser Weserbogen","operator":"Wolfgang Buck Touristik","power_supply":"yes","sanitary_dump_station":"customers","shower":"yes","tents":"yes","washing_machine":"yes"}},"156987109":{"location":[52.1917996,9.0776544],"ct":"DE","tp":"CR","ts":"2024-07-02T09:49:22Z","tX":537,"tY":337,"tags":{"addr:city":"Rinteln","addr:postcode":"31737","addr:street":"Weserdorf","capacity":"50","caravan_site":"motorhome_stopover","caravan_site:type":"river","charge":"10 EUR","check_out":"14:00","contact:email":"info@weserdorf.de","contact:phone":"+49 5751 403980","fee":"yes","name":"Wohnmobilestellplatz an der Weser - Rinteln","power_supply":"yes","sanitary_dump_station":"yes","sanitary_dump_station:grey_water":"yes","water_point":"yes","website":"http://weserdorf.de/wohnmobilstellplatz/","wheelchair":"yes"}},"177801151":{"location":[52.1688381,8.8671307],"ct":"DE","tp":"CR","ts":"2024-07-02T10:24:42Z","tX":537,"tY":337,"tags":{"capacity:caravans":"6","charge":"10 EUR","dog":"yes","fee":"yes","name":"Weserhafen Vlotho","power_supply":"yes","power_supply:charge":"1 EUR/kWh","sanitary_dump_station":"no","water_point:charge":"2 EUR/100 liter"}},"490088647":{"location":[52.2579487,9.0462275],"ct":"DE","tp":"CR","ts":"2024-12-03T16:11:20Z","tX":537,"tY":337,"tags":{"addr:city":"Bückeburg","addr:postcode":"31675","addr:street":"Reitweg","area":"yes","capacity":"20","charge":"9 EUR","dog":"yes","drinking_water":"no","fee":"yes","internet_access":"no","name":"Wohnmobilstellplatz Am Schloss Bückeburg","operator":"Fürstliche Hofkammer Bückeburg","power_supply":"yes","power_supply:charge":"1 EUR/12 hours","power_supply:fee":"yes","sanitary_dump_station":"yes","sanitary_dump_station:chemical_toilet":"yes","sanitary_dump_station:grey_water":"yes","toilets":"no","water_point":"yes","website":"https://www.weserbergland-tourismus.de/de/lodging/wohnmobilstellplatz/reisemobilstellplatz-am-schloss/32081858/"}},"519755032":{"location":[52.2388782,9.1026181],"ct":"DE","tp":"CR","ts":"2023-12-24T13:54:46Z","tX":537,"tY":337,"tags":{"addr:city":"Bad Eilsen","addr:country":"DE","addr:housenumber":"4A","addr:postcode":"31707","addr:street":"Bahnhofstraße","capacity":"7","drinking_water":"no","fee":"no","name":"Reisemobilstellplatz Am Remisengelände","power_supply":"yes","sanitary_dump_station":"yes","toilets":"no","website":"https://bad-eilsen.info/tourismus/caravanplatz/"}},"1137356630":{"location":[52.2072297,8.8004338],"ct":"DE","tp":"CR","ts":"2025-04-03T11:24:29Z","tX":537,"tY":337,"tags":{"bbq":"no","caravan_site":"motorhome_stopover","caravan_site:type":"swimming_pool","caravans":"no","charge":"13 EUR","description":"includes access to swimming pool","dog":"yes","fee":"yes","internet_access":"wlan","internet_access:fee":"no","maxstay":"6 nights","motorcar":"no","name":"Wohnmobilstellplatz am Sielbad, Bad Oeynhausen","power:generator":"no","power_supply":"yes","power_supply:charge":"1 EUR/2 KWh","power_supply:fee":"yes","sanitary_dump_station":"yes","shower":"yes","toilets":"yes","water_point":"yes","water_point:fee":"no","website":"https://www.stadtwerke-badoeynhausen.de/de/Parken/Wohnmobilstellplatz/"}},"1221118782":{"location":[52.2058694,8.7987829],"ct":"DE","tp":"CR","ts":"2023-11-04T21:57:42Z","tX":537,"tY":337,"tags":{"capacity":"4","fee":"no","name":"Wohnmobilstellplatz Kanalstraße","power_supply":"no","tents":"no","website":"https://www.stadtwerke-badoeynhausen.de/de/Parken/Wohnmobilstellplatz/","wheelchair":"yes"}},"1288894829":{"location":[52.1052088,8.9348697],"ct":"DE","tp":"CR","ts":"2024-06-03T08:46:11Z","tX":537,"tY":337,"tags":{"capacity":"4","caravan_site":"motorhome_stopover","caravan_site:type":"swimming_pool;village","fee":"no","name":"Wohnmobilstellplatz Freibad Kalletal Hohenhausen","power_supply":"yes","power_supply:capacity":"4","sanitary_dump_station":"yes","water_point":"yes","website":"https://nordlippe.de/projekte/2014-2023/kalletal/wohnmobilstellplaetze-am-freibad-kalletal/"}},"1374232696":{"location":[52.1969106,8.8007871],"ct":"DE","tp":"CR","ts":"2025-04-02T18:36:56Z","tX":537,"tY":337,"tags":{"capacity":"3","caravan_site":"motorhome_stopover","caravan_site:type":"town","fee":"no","maxstay":"2 days","name":"Reisemobilstellplatz am Südbahnhof Bad Oeynhausen","power_supply":"no","sanitary_dump_station":"no","shower":"no","surface":"paving_stones","tents":"no","wheelchair":"yes"}},"2239895696":{"location":[52.1969909,8.8008713],"ct":"DE","tp":"CR","ts":"2024-04-05T21:52:26Z","tX":537,"tY":337,"tags":{"capacity":"3","caravan_site":"motorhome_stopover","caravan_site:type":"town","fee":"no","maxstay":"2 days","name":"Reisemobilstellplatz am Südbahnhof","power_supply":"no","sanitary_dump_station":"no","shower":"no","tents":"no","wheelchair":"yes"}},"3526734935":{"location":[52.1920987,9.0783334],"ct":"DE","tp":"SD","ts":"2021-12-01T14:35:52Z","tX":537,"tY":337,"tags":{"fee":"yes","sanitary_dump_station:chemical_toilet":"yes","sanitary_dump_station:fee":"yes","sanitary_dump_station:gravity":"yes","sanitary_dump_station:grey_water":"yes"}},"3793129473":{"location":[52.2045838,8.8578013],"ct":"DE","tp":"CS","ts":"2015-10-19T18:45:43Z","tX":537,"tY":337,"tags":{"name":"WSC Porta","tents":"yes"}},"3796644760":{"location":[52.1927441,9.0861287],"ct":"DE","tp":"CS","ts":"2022-11-01T20:10:57Z","tX":537,"tY":337,"tags":{"addr:city":"Rinteln","addr:country":"DE","addr:housenumber":"19","addr:postcode":"31737","addr:street":"Am Weseranger","email":"info@camping-rinteln.de","name":"Camping am Weserangerbad","phone":"+49 5751 74422","tents":"yes","website":"https://campingpark-rinteln.de/"}},"12028774021":{"location":[52.2270478,8.9354937],"ct":"DE","tp":"CR","ts":"2024-07-02T09:57:41Z","tX":537,"tY":337,"tags":{"capacity":"8","caravan_site":"motorhome_stopover","caravan_site:type":"parking_lot;swimming_pool","caravans":"no","fee":"no","name":"Wohnmobilstellplatz Porta-Bad","opening_hours":"24/7","power_supply":"no","sanitary_dump_station":"no","seasonal":"no","tents":"no","website":"https://www.westliches-weserbergland.de/de/westliches-weserbergland/default/detail/Hotel/h_58373/wohnmobilstellplatz-am-porta-bad"}},"4310768448":{"location":[52.2226802,8.8381885],"ct":"DE","tp":"SD","ts":"2016-07-19T10:09:52Z","tX":537,"tY":337,"tags":{}}}