{"8699391":{"location":[52.0240562,8.9099573],"ct":"DE","tp":"CS","ts":"2024-04-19T09:11:04Z","tX":537,"tY":338,"tags":{"area":"yes","caravans":"yes","construction":"camp_site","landuse":"construction","tents":"yes"}},"15992511":{"location":[51.8948832,8.9767086],"ct":"DE","tp":"CR","ts":"2024-04-30T11:06:47Z","tX":537,"tY":338,"tags":{"access":"yes","capacity":"6","caravan_site":"motorhome_stopover","charge":"8 EUR","description":"Unbewirtschafterer Wohnmobilhafen als Ersatz für den Wohnmobilhafen zwischen Yogazentrum und Badehaus, der seit der Übernahme durch das Yogazentrum nur noch Gästen des Yogazentrums zur Verfügung steht","fee":"no","maxlength":"10","name":"Wohnmobilstellplätze Horn-Bad Meinberg","operator":"GesUndTourismus Horn-Bad Meinberg GmbH","operator:type":"public","parking":"surface","power_supply":"yes","sanitary_dump_station":"yes","seasonal":"no","surface":"asphalt","toilets":"yes","water_point":"yes","website":"https://www.hornbadmeinberg.de/tourismus-freizeit/unterkuenfte-angebote/wohnmobilplaetze-in-horn-bad-meinberg.html"}},"29355031":{"location":[52.0497184,9.1043411],"ct":"DE","tp":"CS","ts":"2020-08-18T15:35:04Z","tX":537,"tY":338,"tags":{"name":"Campingpark Extertal","website":"https://campingpark-extertal.de/"}},"33195968":{"location":[51.8977362,8.992641],"ct":"DE","tp":"CR","ts":"2024-06-27T17:51:14Z","tX":537,"tY":338,"tags":{"access":"customers","capacity":"24","caravan_site":"motorhome_stopover","caravan_site:type":"swimming_pool","description":"Der Wohnmobilhafen Bad Meinberg steht ausschließlich Yoga Vidya Gästen zur Verfügung und die Anmeldung muss über die Rezeption von Yoga Vidya erfolgen.","fee":"yes","maxlength":"10","name":"Wohnmobil-Hafen Bad Meinberg","operator":"Yoga Vidya Bad Meinberg Yogaweg 1 32805 Horn-Bad Meinberg","parking":"surface","power_supply":"yes","sanitary_dump_station":"yes","website":"https://wiki.yoga-vidya.de/Wohnmobil-Hafen_Bad_Meinberg"}},"78508134":{"location":[52.0067555,9.021585],"ct":"DE","tp":"CS","ts":"2021-07-03T18:14:40Z","tX":537,"tY":338,"tags":{"name":"Feriendorf Falkenhorst","tents":"no","website":"http://feriendorf-falkenhorst.de/"}},"121652892":{"location":[51.9870388,9.1089267],"ct":"DE","tp":"CR","ts":"2023-11-25T15:50:07Z","tX":537,"tY":338,"tags":{"charge":"18 EUR","charge:dog":"3 EUR","dog":"yes","fee":"yes","laundry":"yes","name":"Ferienpark Barntrup","reservation":"yes","seasonal":"spring;summer;autumn","website":"https://ferienparkteutoburgerwald.eu/"}},"174543993":{"location":[51.9865008,9.107717],"ct":"DE","tp":"CS","ts":"2024-03-09T16:34:02Z","tX":537,"tY":338,"tags":{"addr:city":"Barntrup","addr:housenumber":"4","addr:postcode":"32683","addr:street":"Badeanstaltsweg","name":"Camping Ferienpark Teutoburger Wald","website":"http://www.ferienparkteutoburgerwald.de/"}},"235374566":{"location":[51.8448984,9.0728301],"ct":"DE","tp":"CS","ts":"2025-01-02T10:21:53Z","tX":537,"tY":338,"tags":{"addr:city":"Steinheim","addr:housenumber":"27","addr:postcode":"32839","addr:street":"Breslauer Straße","caravans":"yes","email":"kontakt@ferienhof-froehling.de","fee":"yes","name":"Ferienhof Fröhling","operator":"Familie Fröhling","phone":"0 52 33 / 95 15 83","website":"https://www.ferienhof-froehling.de/"}},"240033976":{"location":[51.9255219,9.0941988],"ct":"DE","tp":"CS","ts":"2023-11-04T08:16:16Z","tX":537,"tY":338,"tags":{"caravans":"no","fee":"yes","group_only":"yes","name":"Jugendzeltplatz Blomberg","openfire":"yes","operator":"Kurt-Löwenstein-Vereinigung Oberhausen e. V.","tents":"yes","website":"https://www.zeltplatz-blomberg.de/"}},"870734227":{"location":[51.9299664,8.8873865],"ct":"DE","tp":"CR","ts":"2024-10-01T11:27:22Z","tX":537,"tY":338,"tags":{"capacity":"10","caravan_site":"motorhome_stopover","charge":"15 EUR/24 hours","fee":"yes","internet_access":"yes","maxlength":"9","maxstay":"72 hours","name":"Wohnmobilstellplatz Detmold","operator":"Stadtverkehr Detmold","phone":"+49 5231 977177","power_supply":"yes","power_supply:charge":"0.49 EUR/0.7kWh","sanitary_dump_station":"yes","water_point":"yes","website":"https://www.detmold.de/startseite/zu-gast-in-detmold/tourismus/uebernachten/camping-und-wohnmobil/"}},"1296677617":{"location":[51.9446207,9.100326],"ct":"DE","tp":"CR","ts":"2024-06-27T17:11:11Z","tX":537,"tY":338,"tags":{"capacity":"8","caravan_site":"motorhome_stopover","caravan_site:type":"town;parking_lot","caravans":"no","dog":"yes","fee":"no","name":"Wohnmobilplatz Schießhalle Blomberg","power_supply":"yes","tents":"no","water_point":"yes","website":"https://www.blomberg-die-nelkenstadt.de/service/parkmoeglichkeiten-wohnmobilstellplatz/"}},"1330211493":{"location":[51.8652977,8.9359004],"ct":"DE","tp":"CR","ts":"2024-11-02T17:23:17Z","tX":537,"tY":338,"tags":{"capacity":"26","caravans":"yes","contact:website":"https://wohnmobilhafen-externsteine.de/","fee":"yes","internet_access":"wlan","internet_access:fee":"no","name":"Wohnmobilhafen Externsteine","opening_hours":"24/7","power_supply":"yes","reservation":"yes","sanitary_dump_station":"customers","surface":"gravel","water_point":"yes"}},"2691121096":{"location":[51.8992096,8.9934477],"ct":"DE","tp":"CS","ts":"2017-02-06T11:13:53Z","tX":537,"tY":338,"tags":{"access":"private","operator":"Yoga Vidya e.V."}},"12292196308":{"location":[51.8839236,8.9234345],"ct":"DE","tp":"CR","ts":"2025-01-19T17:58:48Z","tX":537,"tY":338,"tags":{"addr:housenumber":"102","addr:street":"Zum Rosenbusch","capacity:caravans":"3","check_date":"2024-10-27","contact:whatsapp":"+49 171 817 33 38","fee":"yes","internet_access":"no","name":"Microcamping auf dem Rosenhof - Lippe","opening_hours":"Apr-Oct 00::00-24:00","phone":"+49 171 8173338","power_supply":"yes","reservation":"yes","sanitary_dump_station":"no","website":"https://www.rosenhof-lippe.com/microcamping/"}},"8681335564":{"location":[51.9298689,8.8876191],"ct":"DE","tp":"SD","ts":"2021-04-29T22:33:30Z","tX":537,"tY":338,"tags":{"sanitary_dump_station:chemical_toilet":"yes","sanitary_dump_station:grey_water":"no"}},"8681335568":{"location":[51.9299251,8.8877076],"ct":"DE","tp":"SD","ts":"2021-04-29T22:33:30Z","tX":537,"tY":338,"tags":{"sanitary_dump_station:chemical_toilet":"no","sanitary_dump_station:grey_water":"yes"}},"10989143215":{"location":[51.8946928,8.9765806],"ct":"DE","tp":"SD","ts":"2023-06-19T09:35:58Z","tX":537,"tY":338,"tags":{}},"12307496093":{"location":[51.8650979,8.9363801],"ct":"DE","tp":"SD","ts":"2024-11-02T17:25:05Z","tX":537,"tY":338,"tags":{"access":"customers","fee":"yes","operator":"Wohnmobilhafen Externsteine"}}}