{"26575801":{"location":[51.6682378,8.9974897],"ct":"DE","tp":"CS","ts":"2023-07-29T20:46:07Z","tX":537,"tY":339,"tags":{"addr:city":"Bad Driburg","addr:housenumber":"3","addr:postcode":"33014","addr:street":"Stiftsstraße","fee":"yes","name":"Campingplatz","operator":"Verkehrsverein Neuenheerse"}},"35604704":{"location":[51.8149238,8.9053068],"ct":"DE","tp":"CS","ts":"2023-10-31T21:50:19Z","tX":537,"tY":339,"tags":{"name":"Bauerkamp","website":"https://www.bauerkamp.de/"}},"292656006":{"location":[51.7432073,9.0264389],"ct":"DE","tp":"CR","ts":"2024-05-31T13:59:20Z","tX":537,"tY":339,"tags":{"capacity":"15","caravan_site":"motorhome_stopover","caravan_site:type":"swimming_pool;village","charge":"7 EUR","fee":"yes","name":"Wohnmobilstellplatz Bad Driburg Therme","power_supply":"yes","power_supply:charge":"3 EUR","power_supply:fee":"yes","seasonal":"no","surface":"asphalt","website":"https://www.driburg-therme.de/de/therme/wohnmobilstellplatz.php"}},"325031788":{"location":[51.7812006,8.8245862],"ct":"DE","tp":"CR","ts":"2024-06-27T16:58:13Z","tX":537,"tY":339,"tags":{"addr:city":"Bad Lippspringe","addr:housenumber":"10","addr:postcode":"33175","addr:street":"Burgstraße","capacity":"11","caravan_site":"motorhome_stopover","caravan_site:type":"park","fee":"12 EUR","maxstay":"6 days","name":"Wohnmobilstellplatz Bad Lippspringe","power_supply":"yes","sanitary_dump_station":"yes","seasonal":"no","surface":"paving_stones","tents":"no","water_point":"yes","wheelchair":"yes"}},"668091924":{"location":[51.8032631,8.9416405],"ct":"DE","tp":"CS","ts":"2024-08-08T06:08:40Z","tX":537,"tY":339,"tags":{"addr:city":"Horn-Bad Meinberg","addr:housenumber":"33","addr:postcode":"32805","addr:street":"Kempener Straße","caravans":"yes","drinking_water":"yes","email":"glitz@campingplatz-eggewald.de","fax":"+49 5255 1375","name":"Camping Eggewald","operator":"Johannes Glitz","phone":"+49 5255 236","power_supply":"yes","sanitary_dump_station":"yes","shower":"yes","tents":"yes","toilets":"yes","website":"https://campingplatz-eggewald.de/"}},"669488812":{"location":[51.8010104,9.1245277],"ct":"DE","tp":"CS","ts":"2021-01-30T00:53:44Z","tX":537,"tY":339,"tags":{"caravans":"no","fee":"yes","group_only":"yes","name":"Jugendzeltplatz Dreizehnlinden Nieheim","openfire":"yes","operator":"Kolping-Jugendzeltplatz Dreizehnlinden Nieheim e. V.","reservation":"required","tents":"yes"}},"5557867161":{"location":[51.7811141,8.8247285],"ct":"DE","tp":"SD","ts":"2020-09-25T10:49:31Z","tX":537,"tY":339,"tags":{"access":"yes","fee":"yes","sanitary_dump_station:basin":"yes","sanitary_dump_station:pump-out":"no","sanitary_dump_station:round_drain":"yes"}}}