{"9404711":{"location":[51.1813808,8.9570179],"ct":"DE","tp":"CS","ts":"2023-08-25T20:46:27Z","tX":537,"tY":341,"tags":{"access":"customers","addr:city":"Vöhl","addr:housenumber":"1","addr:postcode":"34516","addr:street":"Asel-Süd","backcountry":"no","caravans":"yes","email":"info@camping-asel-sued.de","fee":"yes","name":"Campingplatz Ederseeparadies","openfire":"yes","operator":"Priscilla Wilhelmi","payment:cash":"yes","payment:girocard":"yes","phone":"+49 5635 608","power_supply":"yes","tents":"yes","website":"https://www.edersee-paradies.de/"}},"15936296":{"location":[51.1824253,9.0222111],"ct":"DE","tp":"CS","ts":"2023-06-02T21:44:08Z","tX":537,"tY":341,"tags":{"addr:city":"Edertal","addr:postcode":"34549","name":"Campingplatz Rehbach","website":"https://www.campingplatz-rehbach.de/"}},"23229935":{"location":[51.1859099,8.9821683],"ct":"DE","tp":"CS","ts":"2023-05-22T18:32:01Z","tX":537,"tY":341,"tags":{"addr:city":"Vöhl","addr:postcode":"34516","addr:suburb":"Basdorf","caravans":"yes","email":"edersee@dkvgmbh.de","internet_access":"no","name":"DKV Campingplatz Edersee","operator":"Deutscher Kanu Verband","phone":"+49 5635 202","source":"http://www.voehl.de/index.php/rathaus/voehler-ortsteile/basdorf/gastgeber-in-basdorf","sport":"canoe","static_caravans":"yes","tents":"yes","website":"http://www.dkv-campingplatz-edersee.de/"}},"28860967":{"location":[51.1931187,8.9172686],"ct":"DE","tp":"CS","ts":"2022-03-23T17:57:09Z","tX":537,"tY":341,"tags":{"addr:city":"Vöhl","addr:postcode":"34516","addr:suburb":"Herzhausen","caravans":"no","email":"camp-edersee@sportjugend-hessen.de","group_only":"yes","internet_access":"no","name":"Welten-Zelten Kellerwald","operator":"Sportjugend Hessen","phone":"+49 5635 992612","tents":"yes","website":"https://www.sportjugend-hessen.de/camp-edersee/jugendzeltplatz/"}},"39340689":{"location":[51.18223,8.9534014],"ct":"DE","tp":"CR","ts":"2024-02-15T09:05:33Z","tX":537,"tY":341,"tags":{"fee":"yes","name":"Eder-Seerosenplatz"}},"41677601":{"location":[51.1803061,8.9955236],"ct":"DE","tp":"CS","ts":"2023-08-17T11:36:31Z","tX":537,"tY":341,"tags":{"name":"Terrassencampingplatz Wieseloh"}},"59467379":{"location":[51.1866203,9.0204383],"ct":"DE","tp":"CS","ts":"2023-10-22T18:58:53Z","tX":537,"tY":341,"tags":{}},"106652147":{"location":[51.1887856,9.0092697],"ct":"DE","tp":"CR","ts":"2024-10-25T16:51:03Z","tX":537,"tY":341,"tags":{"addr:city":"Waldeck","addr:housenumber":"2","addr:postcode":"34513","addr:street":"Am Bettenhagen","capacity":"100","contact:phone":"+49 5634 5249957","description":"Zufahrt über Schranken Anlage - Check in am Automat an der Alm. Ticket gilt jeweils bis 12 Uhr Mittags.","fee":"yes","name":"Wohnmobilpark Edersee-Alm","opening_hours":"Mar 01-Oct 31 00:00-24:00; Dec 25-Jan 01 00:00-24:00","power_supply":"yes","sanitary_dump_station":"yes","water_point":"yes","website":"https://www.wohnmobilpark-edersee-alm.de/"}},"106654975":{"location":[51.1879598,9.0107089],"ct":"DE","tp":"CS","ts":"2024-07-22T19:18:34Z","tX":537,"tY":341,"tags":{"addr:city":"Waldeck","addr:housenumber":"1","addr:postcode":"34513","addr:street":"Am Bettenhagen","addr:suburb":"Nieder-Werbe","email":"info@campingplatz-bettenhagen.de","name":"Campingplatz Bettenhagen","phone":"+49 5634 7883","website":"https://www.campingplatz-bettenhagen.de/"}},"107705224":{"location":[51.1824663,9.0121834],"ct":"DE","tp":"CS","ts":"2021-07-26T18:43:43Z","tX":537,"tY":341,"tags":{"name":"Camping Pferdekoppel"}},"127237254":{"location":[51.1823112,8.9957823],"ct":"DE","tp":"CS","ts":"2011-08-22T18:10:50Z","tX":537,"tY":341,"tags":{}},"127237258":{"location":[51.1813154,8.9969896],"ct":"DE","tp":"CS","ts":"2023-08-17T11:36:31Z","tX":537,"tY":341,"tags":{"addr:city":"Edertal","addr:postcode":"34549","addr:street":"Knippenberg","name":"Terrassencampingplatz Wieseloh \"Knippenberg\"","static_caravans":"yes"}},"181385166":{"location":[51.3833864,9.0662215],"ct":"DE","tp":"CR","ts":"2023-10-31T21:29:10Z","tX":537,"tY":341,"tags":{"capacity":"100","contact:email":"info@reisemobilhafen-twistesee.de","contact:phone":"+49 5691 8069383","fee":"yes","name":"Reisemobilhafen Twistesee","operator":"Sigrid u. Ludwig Stümpel","power_supply":"yes","sanitary_dump_station":"yes","water_point":"yes","website":"https://www.reisemobilhafen-twistesee.de/","wheelchair":"yes"}},"245001977":{"location":[51.1794295,8.9931337],"ct":"DE","tp":"CS","ts":"2016-11-16T23:48:47Z","tX":537,"tY":341,"tags":{"addr:city":"Edertal","addr:housenumber":"3","addr:postcode":"34549","addr:street":"Seestraße","addr:suburb":"Bringhausen","name":"Campingplatz Bringhäuser Bucht","operator":"Familie Geitz, Seestr. 3, 34549 Edertal"}},"499160546":{"location":[51.2594999,8.9384327],"ct":"DE","tp":"CR","ts":"2023-12-08T16:00:24Z","tX":537,"tY":341,"tags":{"bbq":"yes","capacity":"17","caravans":"no","charge":"12 EUR","dog":"yes","fee":"yes","internet_access":"wlan","internet_access:charge":"1 EUR","internet_access:fee":"yes","name":"Wohnmobilstellplatz Hobbywiese","operator":"Monika und Hermann Müller","phone":"+49 5631 4584","power_supply":"yes","power_supply:charge":"0.5 EUR/kWh","sanitary_dump_station":"yes","shower":"yes","shower:charge":"1 EUR","tents":"no","toilets":"yes","water_point:charge":"1 EUR/100 liter","website":"https://www.womo-korbach.de/","wikimedia_commons":"File:Korbach-Meineringhausen-Wohnmobilstellplatz1-Asio.JPG"}},"698677767":{"location":[51.183315,9.0072064],"ct":"DE","tp":"CS","ts":"2021-07-17T11:22:17Z","tX":537,"tY":341,"tags":{}},"903410266":{"location":[51.2743102,8.8573119],"ct":"DE","tp":"CR","ts":"2024-03-30T18:42:48Z","tX":537,"tY":341,"tags":{"addr:city":"Korbach","addr:housenumber":"11a","addr:postcode":"34497","addr:street":"Westring","capacity":"18","caravan_site":"motorhome_stopover","caravan_site:type":"swimming_pool","charge":"17 EUR","dog":"yes","fee":"yes","internet_access":"wlan","name":"Wohnmobilhafen Korbach","power_supply":"yes","power_supply:maxcurrent":"16","sanitary_dump_station":"yes","tents":"no","website":"https://www.womohafen-korbach.de/"}},"913401496":{"location":[51.1819321,9.0139135],"ct":"DE","tp":"CS","ts":"2015-06-06T05:17:26Z","tX":537,"tY":341,"tags":{"name":"Camping Zur Fähre"}},"965162126":{"location":[51.183869,9.0115153],"ct":"DE","tp":"CS","ts":"2021-07-26T18:43:43Z","tX":537,"tY":341,"tags":{"name":"Camping Seemannsheim"}},"1247436773":{"location":[51.2636158,8.8652318],"ct":"DE","tp":"CR","ts":"2024-08-04T23:24:23Z","tX":537,"tY":341,"tags":{"capacity":"20","caravan_site":"motorhome_stopover","caravan_site:type":"supermarket","charge":"12 EUR/day","contact:mobile":"+491752414293","contact:phone":"+49563163326","fee":"yes","internet_access":"no","operator":"W. Heinemann","power_supply":"yes","tents":"no","water_point":"yes"}},"8532098419":{"location":[51.3475233,8.8118961],"ct":"DE","tp":"CS","ts":"2024-08-08T17:11:22Z","tX":537,"tY":341,"tags":{"backcountry":"yes","capacity:persons":"4","capacity:tents":"2","caravans":"no","description":"Wo sich Fuchs & Hase gute Nacht sagen","drinking_water":"no","fee":"yes","maxstay":"2 days","name":"Waldkante bei Wirmighausen","openfire":"no","opening_hours":"Apr 1-Nov 15: \"needs reservation by phone or web\"","power_supply":"no","ref":"D2","reservation":"required","shower":"no","tents":"yes","toilets":"yes","website":"https://www.trekkingpark.de/die-plaetze"}},"8651385916":{"location":[51.2035367,9.0503298],"ct":"DE","tp":"CR","ts":"2021-04-21T13:04:59Z","tX":537,"tY":341,"tags":{"caravans":"no","dog":"yes","tents":"no"}},"6343510576":{"location":[51.181685,8.9567734],"ct":"DE","tp":"SD","ts":"2019-03-17T18:25:43Z","tX":537,"tY":341,"tags":{}},"6627164392":{"location":[51.1881143,9.0100219],"ct":"DE","tp":"SD","ts":"2024-06-16T16:35:41Z","tX":537,"tY":341,"tags":{}},"6697535640":{"location":[51.1817658,8.9558505],"ct":"DE","tp":"SD","ts":"2019-08-09T16:54:52Z","tX":537,"tY":341,"tags":{}},"9690940681":{"location":[51.2742871,8.8567809],"ct":"DE","tp":"SD","ts":"2022-04-25T01:11:59Z","tX":537,"tY":341,"tags":{"access":"customers"}},"10919948741":{"location":[51.184164,8.9786968],"ct":"DE","tp":"SD","ts":"2023-05-22T18:32:01Z","tX":537,"tY":341,"tags":{}},"11958470529":{"location":[51.187738,8.9842881],"ct":"DE","tp":"SD","ts":"2024-06-05T13:30:58Z","tX":537,"tY":341,"tags":{}}}