{"18437533":{"location":[51.1201091,9.1377442],"ct":"DE","tp":"CR","ts":"2024-12-18T17:40:24Z","tX":537,"tY":342,"tags":{"charge":"5 EUR","dog":"yes","fee":"yes","internet_access":"no","maxstay":"3 days","name":"Wohnmobilstellplatz Bad Wildungen","operator":"Stadt Bad Wildungen","phone":"+49 5621 96567 41","power_supply":"yes","power_supply:charge":"1.50 EUR","power_supply:fee":"yes","reservation":"no","sanitary_dump_station":"yes","water_point":"yes","water_point:charge":"0.10 EUR 4 liter","water_point:fee":"yes","website":"https://www.edersee.com/hotel/wohnmobilstellplatz-bad-wildungen"}},"55427001":{"location":[51.1699138,9.108641],"ct":"DE","tp":"CS","ts":"2024-02-27T20:01:56Z","tX":537,"tY":342,"tags":{"name":"Campingplatz-Ideal"}},"55427003":{"location":[51.169894,9.1114135],"ct":"DE","tp":"CS","ts":"2010-04-14T10:52:17Z","tX":537,"tY":342,"tags":{}},"59458769":{"location":[51.174446,8.9995511],"ct":"DE","tp":"CS","ts":"2024-02-01T16:31:51Z","tX":537,"tY":342,"tags":{"name":"Am Linge","website":"https://www.camping-am-edersee.de/"}},"90189111":{"location":[51.1654619,9.0853464],"ct":"DE","tp":"CS","ts":"2024-03-27T13:49:19Z","tX":537,"tY":342,"tags":{"addr:city":"Edertal","addr:country":"DE","addr:housenumber":"15","addr:postcode":"34549","addr:street":"Am Mühlengraben","addr:suburb":"Affoldern","caravans":"yes","dog":"yes","fee":"yes","name":"Affolderner See","power_supply":"yes","tents":"yes","website":"http://www.campingplatz-affoldernersee.com/"}},"98524465":{"location":[51.1674239,9.079401],"ct":"DE","tp":"CS","ts":"2016-11-16T23:48:45Z","tX":537,"tY":342,"tags":{"addr:city":"Edertal","addr:country":"DE","addr:housenumber":"21","addr:postcode":"34549","addr:street":"Hemfurther Straße","addr:suburb":"Affoldern","name":"Edertaler Hof"}},"124947672":{"location":[50.9760151,8.8688505],"ct":"DE","tp":"CR","ts":"2022-03-04T22:24:36Z","tX":537,"tY":342,"tags":{"capacity":"5","fee":"no","internet_access":"no","name":"Fischewosse","operator":"Stadt Rosenthal","power_supply":"yes","sanitary_dump_station":"yes","smoking":"yes","tents":"no","toilets:wheelchair":"no","water_point":"yes","website":"https://www.rosenthaler.de/seite/273120/wohnmobilstellpl%C3%A4tze.html","wheelchair":"limited"}},"148613333":{"location":[51.1726143,8.9979164],"ct":"DE","tp":"CS","ts":"2015-06-07T04:28:10Z","tX":537,"tY":342,"tags":{}},"148868304":{"location":[51.1701338,9.0511808],"ct":"DE","tp":"CR","ts":"2022-03-21T11:05:30Z","tX":537,"tY":342,"tags":{"capacity":"25","capacity:caravans":"25","fee":"yes","internet_access":"no","name":"Reisemobilstellplatz Kraftwerkstraße","power_supply":"yes","sanitary_dump_station":"yes"}},"202178440":{"location":[51.1202979,9.1367093],"ct":"DE","tp":"CR","ts":"2024-04-17T08:42:55Z","tX":537,"tY":342,"tags":{"fee":"yes","internet_access":"no","maxstay":"3 days","name":"Bahnhofstraße","operator":"Stadt Bad Wildungen","phone":"+49 5621 96567-41","power_supply":"yes","sanitary_dump_station":"yes","water_point":"yes","website":"https://www.bad-wildungen.de/de/gesundheit-tourismus/gastgeber-buchung/wohnmobil-stellplatz"}},"222198856":{"location":[51.1759354,8.9427535],"ct":"DE","tp":"CS","ts":"2023-09-07T13:01:19Z","tX":537,"tY":342,"tags":{"access":"private","internet_access":"no","name":"TSV Hessen - Frankenberg","note":"Zugang nur für Mitglieder TSV Hessen - Frankenberg","sport":"canoe"}},"271922297":{"location":[51.0555628,8.8004869],"ct":"DE","tp":"CR","ts":"2019-06-23T07:45:54Z","tX":537,"tY":342,"tags":{"capacity":"4","email":"jacobs.evelin@frankenberg.de","fee":"no","internet_access":"wlan","maxstay":"2 nights","name":"Stellplatz Ederberglandhalle","operator":"Stadt Frankenberg","phone":"+49 6451 505-207","power_supply":"yes","sanitary_dump_station":"yes","water_point":"yes","website":"https://www.frankenberg.de/index.php/wohnmobilstellplaetze.html"}},"348094653":{"location":[51.1721395,8.9385325],"ct":"DE","tp":"CS","ts":"2023-04-29T08:21:04Z","tX":537,"tY":342,"tags":{"addr:city":"Vöhl","addr:country":"DE","addr:housenumber":"3","addr:postcode":"34516","addr:street":"Albert-Schweitzer-Lager","addr:suburb":"Asel-Süd","caravans":"yes","drinking_water":"yes","email":"info@ferien-edersee.de","fax":"+49 5635 8274","name":"Ferienzentrum Albert Schweitzer","phone":"+49 5635 210","shower":"yes","tents":"yes","website":"https://www.ferien-edersee.de/"}},"392261846":{"location":[51.1741959,8.889848],"ct":"DE","tp":"CS","ts":"2023-08-25T20:57:31Z","tX":537,"tY":342,"tags":{"addr:city":"Vöhl","addr:country":"DE","addr:housenumber":"1","addr:postcode":"34516","addr:street":"Alte Bundesstraße","addr:suburb":"Herzhausen","camp_site":"reception","caravans":"yes","email":"info@camping-teichmann.de","fax":"+49 5635 8145","name":"Camping- & Ferienpark Teichmann","phone":"+49 5635 245","shower":"hot","tents":"yes","website":"https://www.camping-teichmann.de/"}},"469757439":{"location":[50.9962189,9.1325379],"ct":"DE","tp":"CS","ts":"2024-06-09T11:53:38Z","tX":537,"tY":342,"tags":{"caravans":"yes","contact:email":"e.pretz@gemeinde-jesberg.de","contact:phone":"+49 6695 9601-16","drinking_water":"yes","name":"Campingplatz Kellerwald","operator":"Gemeinde Jesberg","shower":"yes","tents":"yes"}},"639642571":{"location":[50.9685305,8.9747505],"ct":"DE","tp":"CS","ts":"2024-08-03T23:15:02Z","tX":537,"tY":342,"tags":{"name":"Campingplatz Aumühle","website":"https://campingaumuehle.de/"}},"815930207":{"location":[51.1109974,9.0666211],"ct":"DE","tp":"CR","ts":"2024-04-16T14:29:13Z","tX":537,"tY":342,"tags":{"addr:city":"Bad Wildungen","addr:housenumber":"23","addr:postcode":"34537","addr:street":"Dr.-Herbert-Kienle-Straße","capacity":"30","email":"winfried.frekot@gmx.de","fee":"yes","internet_access":"wlan","name":"Wohnmobilstellplatz Frekot","operator":"Winfried Frekot","phone":"+49 56214280","power_supply":"yes","reservation":"yes","sanitary_dump_station":"yes","shower":"yes","toilets":"yes"}},"966112719":{"location":[51.1198497,9.1385859],"ct":"DE","tp":"CR","ts":"2021-07-21T07:47:27Z","tX":537,"tY":342,"tags":{"fee":"yes","power_supply":"yes"}},"977880169":{"location":[51.1761015,8.8900251],"ct":"DE","tp":"CR","ts":"2023-01-07T23:37:12Z","tX":537,"tY":342,"tags":{"charge":"20.00 EUR/1 night","fee":"yes","name":"Stellplatz Teichmann (vor der Schranke)","power_supply":"yes","sanitary_dump_station":"yes","website":"https://www.camping-teichmann.de/camping-aber-wie/wohnmobil-stellplatz/"}},"1211578798":{"location":[51.0614308,8.797568],"ct":"DE","tp":"CR","ts":"2023-09-28T12:52:58Z","tX":537,"tY":342,"tags":{"cabins":"no","capacity":"12","fee":"no","name":"Wohnmobilstellplatz Kleine Wehrweide","power_supply":"yes"}},"6435728664":{"location":[51.1201922,9.1363981],"ct":"DE","tp":"SD","ts":"2021-07-21T07:47:27Z","tX":537,"tY":342,"tags":{"sanitary_dump_station:chemical_toilet":"yes","sanitary_dump_station:grey_water":"yes","water_point":"yes"}}}