{"1384737":{"location":[50.5898672,8.9769736],"ct":"DE","tp":"CS","ts":"2023-01-05T16:18:16Z","tX":537,"tY":344,"tags":{"name":"Spitzer Stein","website":"https://www.gruenberg.de/kultur-freizeit/geniessen-uebernachten/campingplatz-spitzer-stein/"}},"58603588":{"location":[50.5902667,8.9805547],"ct":"DE","tp":"CR","ts":"2023-01-13T15:09:03Z","tX":537,"tY":344,"tags":{"addr:city":"Grünberg","addr:housenumber":"7","addr:postcode":"35305","addr:street":"Jakobsweg","capacity":"51","capacity:caravans":"51","internet_access":"wlan","internet_access:fee":"yes","name":"WohnmobilPark (Stellplätze)","note":"365 tage - schranke - bargeldloser kassenautomat","operator":"flightobsession GmbH","operator:type":"private","parking":"surface","power_supply":"yes","restriction":"only camper no caravan","sanitary_dump_station":"yes","start_date":"01.10.2022","website":"www.wohnmobilpark-gruenberg.de"}},"71144626":{"location":[50.5500292,9.0075042],"ct":"DE","tp":"CR","ts":"2016-11-01T09:16:09Z","tX":537,"tY":344,"tags":{"contact:phone":"+49 6405 1460","description":"Stellplatz vor der Schranke","fee":"yes","landuse":"grass","name":"Quick Camp Caravanpark","operator":"Caravanpark Laubach","website":"http://www.caravanpark-laubach.de/aktuelles.htm"}},"106950009":{"location":[50.5951192,8.9560103],"ct":"DE","tp":"CR","ts":"2023-11-06T07:58:42Z","tX":537,"tY":344,"tags":{"capacity":"10","contact:email":"info@gruenberg.de","contact:fax":"+49 6401 804103","contact:phone":"+49 6401 804118","fee":"no","name":"Reisemobilstellplatz Grünberg","power_supply":"yes","sanitary_dump_station":"yes","water_point":"yes","website":"https://www.gruenberg.de/inhalt/Tourismus+Freizeit/Sport+Freizeit/Wohnmobile.html","wheelchair":"limited"}},"174177559":{"location":[50.5900884,9.0800544],"ct":"DE","tp":"CS","ts":"2023-11-06T07:58:51Z","tX":537,"tY":344,"tags":{"addr:city":"Mücke","addr:country":"DE","addr:housenumber":"15","addr:postcode":"35325","addr:street":"Am Rain","addr:suburb":"Groß-Eichen","email":"info@camping-gross-eichen.de","fax":"+49 6400 8092","name":"Camping Gross-Eichen","phone":"+49 6400 8805","power_supply":"yes","website":"https://camping-gross-eichen.de/"}},"190655562":{"location":[50.5529426,9.0098498],"ct":"DE","tp":"CS","ts":"2023-11-06T07:59:14Z","tX":537,"tY":344,"tags":{"addr:city":"Laubach","addr:country":"DE","addr:housename":"Caravanpark Laubach","addr:housenumber":"1","addr:postcode":"35321","addr:street":"Am Froschloch","email":"info@caravanpark-laubach.de","fax":"+49 6405 1848","landuse":"grass","name":"Caravan Park Laubach","operator":"Saskia Dekker-Kohl & Wolfgang Kohl","phone":"+49 6406 1460","smoking":"outside","stars":"4","website":"https://www.caravanpark-laubach.de/"}},"270353055":{"location":[50.7219501,8.9851397],"ct":"DE","tp":"CS","ts":"2020-01-02T15:16:26Z","tX":537,"tY":344,"tags":{"addr:city":"Homberg (Ohm)","addr:country":"DE","addr:housenumber":"1","addr:postcode":"35315","addr:street":"Mühltal","brand":"Bund der Pfadfinderinnen und Pfadfinder","caravans":"no","fee":"yes","group_only":"yes","name":"Pfadfinderzeltplatz Buchholz","openfire":"yes","operator":"Hausverein Fritz-Emmel","scout":"yes","tents":"yes","website":"http://www.pfadfinderzeltplatz-buchholz.de/"}},"436727305":{"location":[50.728614,9.0117843],"ct":"DE","tp":"CS","ts":"2022-07-05T18:41:27Z","tX":537,"tY":344,"tags":{"name":"Campingplatz"}},"714432194":{"location":[50.7262366,8.9944632],"ct":"DE","tp":"CR","ts":"2019-08-16T12:43:36Z","tX":537,"tY":344,"tags":{"capacity":"6","fee":"no","lit":"yes","maxstay":"7 days","name":"Stadthallenplatz","operator":"Stadt Homberg","sanitary_dump_station":"yes","tents":"no","water_point":"yes","website":"https://www.homberg.de/de/tourismus/geniessen-uebernachten/unterkuenfte/verzeichnis-unterkuenfte/wohnmobilstellplaetze/"}},"4327126204":{"location":[50.6874458,9.0478226],"ct":"DE","tp":"CR","ts":"2016-07-29T17:03:29Z","tX":537,"tY":344,"tags":{"fee":"no","operator":"Gemeinde Gemünden (Felda)","power_supply":"no","sanitary_dump_station":"no","water_point":"no","website":"https://www.gemuenden-felda.de/wirtschaft-und-tourismus/wohnmobilstellplatz/","wheelchair":"yes"}},"8807148857":{"location":[50.516563,8.8224064],"ct":"DE","tp":"CR","ts":"2023-01-21T17:43:13Z","tX":537,"tY":344,"tags":{"capacity":"4","contact:phone":"+49 6404 806-0","fee":"no","maxstay":"3 days","name:signed":"no","operator":"Stadt Lich","power_supply":"yes","sanitary_dump_station":"yes","sanitary_dump_station:gravity":"yes","sanitary_dump_station:grey_water":"no","water_point":"yes","website":"https://www.lich.de/kultur-tourismus/hotelsrestaurants/wohnen-schlafen/3/wohnmobilstellplatz.html"}},"6715597842":{"location":[50.7264148,8.9945921],"ct":"DE","tp":"SD","ts":"2019-08-16T12:43:36Z","tX":537,"tY":344,"tags":{"fee":"no"}},"9076699695":{"location":[50.5165274,8.8224158],"ct":"DE","tp":"SD","ts":"2021-09-09T13:02:12Z","tX":537,"tY":344,"tags":{"access":"yes","fee":"no","sanitary_dump_station:gravity":"yes"}}}