{"13999694":{"location":[49.562031,8.8274502],"ct":"DE","tp":"CS","ts":"2024-02-22T11:42:49Z","tX":537,"tY":349,"tags":{"caravans":"yes","fee":"yes","motor_vehicle":"yes","name":"Schöner Odenwald","permanent_camping":"yes","power_supply":"yes","sanitary_dump_station":"customers","tents":"yes","washing_machine":"yes","website":"https://www.schöner-odenwald.de/"}},"81308270":{"location":[49.5996734,8.8134315],"ct":"DE","tp":"CS","ts":"2023-10-30T23:46:25Z","tX":537,"tY":349,"tags":{"caravans":"yes","name":"Campingplatz Gräber","power_supply":"yes","tents":"yes","website":"https://camping-tromm.de/"}},"87606732":{"location":[49.3958242,8.7910108],"ct":"DE","tp":"CS","ts":"2024-10-04T17:00:43Z","tX":537,"tY":349,"tags":{"addr:city":"Neckargemünd","addr:country":"DE","addr:housenumber":"4","addr:postcode":"69151","addr:street":"Falltorstraße","caravans":"yes","drinking_water":"yes","fee":"yes","name":"An der Friedensbrücke","power_supply":"yes","sanitary_dump_station":"yes","shower":"yes","tents":"yes","toilets":"yes","website":"https://campingplatz-am-neckar.de/","wheelchair":"yes"}},"119216395":{"location":[49.5117482,8.967467],"ct":"DE","tp":"CS","ts":"2025-02-12T11:31:46Z","tX":537,"tY":349,"tags":{"addr:city":"Oberzent","addr:country":"DE","addr:housenumber":"172","addr:postcode":"64760","addr:street":"Neckartalstraße","addr:suburb":"Gammelsbach","cabins":"yes","caravans":"yes","name":"Camp Freienstein","shower":"yes","static_caravans":"yes","tents":"yes","toilets":"yes","washing_machine":"yes","website":"http://www.camp-freienstein.de"}},"144146224":{"location":[49.417642,9.0379697],"ct":"DE","tp":"CS","ts":"2024-09-01T17:42:14Z","tX":537,"tY":349,"tags":{"name":"MYCN Zwingenberg","website":"https://www.mycn-zwingenberg.de/","wikidata":"Q109639523"}},"144146233":{"location":[49.3960651,9.0693006],"ct":"DE","tp":"CS","ts":"2024-08-13T23:06:42Z","tX":537,"tY":349,"tags":{"access":"customers","addr:city":"Neckargerach","addr:housenumber":"1","addr:postcode":"69437","addr:street":"Bannwiesen","bar":"yes","capacity":"80","caravans":"yes","charge":"24 EUR","dog":"yes","email":"hallo@odenwald.camp","fee":"yes","name":"Odenwald river camp","nudism":"no","opening_hours":"unknown","phone":"+49 7139 9334411","reservation":"recommended","sanitary_dump_station":"customers","swimming_pool":"no","tents":"yes","washing_machine":"yes","website":"https://odenwald.camp","wheelchair":"limited"}},"144560370":{"location":[49.4611987,8.9820118],"ct":"DE","tp":"CS","ts":"2025-03-18T11:06:22Z","tX":537,"tY":349,"tags":{"addr:city":"Eberbach","addr:housenumber":"8","addr:postcode":"69412","addr:street":"Alte Pleutersbacher Straße","camp_site":"serviced","caravans":"yes","fee":"yes","name":"Campingpark Eberbach","phone":"062711071","shower":"yes","static_caravans":"no","tents":"yes","website":"https://www.campingpark-eberbach.de/"}},"147353551":{"location":[49.4155221,8.8780318],"ct":"DE","tp":"CS","ts":"2025-01-23T07:51:24Z","tX":537,"tY":349,"tags":{"addr:city":"Neckarsteinach","addr:country":"DE","addr:housenumber":"4a","addr:postcode":"69239","addr:street":"Fährweg","description":"Dauercampingplatz","name":"Campingplatz Hessisches Neckartal","permanent_camping":"only","phone":"+49 6229 960331","tents":"no","website":"https://www.campingplatz-hess-neckartal.de/"}},"150363641":{"location":[49.4055563,8.8361522],"ct":"DE","tp":"CS","ts":"2025-01-23T07:32:05Z","tX":537,"tY":349,"tags":{"addr:city":"Neckargemünd","addr:country":"DE","addr:housenumber":"1","addr:postcode":"69151","addr:street":"Campingplatz","capacity":"120 Dauerstellplätze und 30 Touristenplätze","capacity:caravans":"120","caravans":"yes","dog":"yes","fee":"yes","internet_access":"wlan","name":"Unterm Dilsberg","power_supply":"yes","sanitary_dump_station":"yes","shower":"yes","static_caravans":"yes","tents":"yes","toilets":"yes","website":"https://www.camping-dilsberg.de/"}},"160406377":{"location":[49.4643541,8.8032624],"ct":"DE","tp":"CS","ts":"2024-08-21T18:30:19Z","tX":537,"tY":349,"tags":{"caravans":"no","name":"Campingplatz Steinachperle","permanent_camping":"only","static_caravans":"yes","tents":"no","toilets:wheelchair":"no","website":"http://www.camping-steinachperle.de/","wheelchair":"limited"}},"175335049":{"location":[49.4524016,8.877293],"ct":"DE","tp":"CS","ts":"2023-11-03T21:31:48Z","tX":537,"tY":349,"tags":{"addr:city":"Hirschhorn","addr:country":"DE","addr:housenumber":"80","addr:postcode":"69434","addr:street":"Langenthaler Straße","area":"yes","caravans":"yes","email":"Odenwald-Camping-Park@t-online.de","fax":"+49 6272 3658","name":"Odenwald Campingpark","opening_hours":"Mar 30-Oct 07","phone":"+49 6272 809","tents":"yes","website":"https://www.odenwald-camping-park.de/"}},"292425921":{"location":[49.4183586,9.0293552],"ct":"DE","tp":"CS","ts":"2017-10-31T21:25:16Z","tX":537,"tY":349,"tags":{"name":"Campingplatz des Naturfreundehauses"}},"316886290":{"location":[49.5608168,8.9747805],"ct":"DE","tp":"CR","ts":"2024-12-29T23:25:30Z","tX":537,"tY":349,"tags":{"capacity":"4","caravan_site":"motorhome_stopover","caravan_site:type":"village","contact:email":"stadtverwaltung@stadt-oberzent.de","contact:phone":"+49 6068 7590-920","fee":"no","name":"Wohnmobilstellplatz Beerfelden","operator":"Stadt Oberzent","power_supply":"yes","sanitary_dump_station":"yes","sanitary_dump_station:grey_water":"yes","water_point":"yes","website":"https://www.bergstrasse-odenwald.de/detail/id=5f802938d73b167b76cefe94","wheelchair":"yes"}},"367173939":{"location":[49.4616754,8.9780182],"ct":"DE","tp":"CR","ts":"2025-03-18T11:15:58Z","tX":537,"tY":349,"tags":{"addr:city":"Eberbach","addr:housenumber":"1","addr:postcode":"69412","addr:street":"Festplatz in der Au","capacity":"16","caravan_site":"motorhome_stopover","caravan_site:type":"town;river","description":"Ver- u. Entsorgung befindet sich am Schotterparkplatz des Sportplatzes „In der Au“.","dog":"yes","fee":"no","internet_access":"no","name":"In der Au","power_supply":"yes","seasonal":"no","socket:cee_blue":"yes","website":"https://www.eberbach.de/pb/,Lde/265857.html"}},"397678688":{"location":[49.3999249,9.0077643],"ct":"DE","tp":"CS","ts":"2024-11-10T20:32:26Z","tX":537,"tY":349,"tags":{"capacity:persons":"100","caravans":"no","group_only":"yes","name":"Jugendzeltplatz Neunkirchen \"Am Langenwald\"","openfire":"yes","operator":"Gemeinde Neunkirchen","tents":"yes","website":"https://www.neunkirchen-baden.de/freizeit-tourismus/gastronomie-uebernachten/jugendzeltplatz/"}},"441567586":{"location":[49.4421335,8.8985444],"ct":"DE","tp":"CR","ts":"2024-12-21T17:51:29Z","tX":537,"tY":349,"tags":{"capacity":"18","caravan_site":"motorhome_stopover","caravan_site:type":"river","charge":"12.50 EUR/1 night","fee":"yes","name":"Wohnmobilstellplatz „Zum Nikolas\"","opening_hours":"24/7","operator":"FC Sportheims \"Zum Nikolas\"","power_supply":"yes","sanitary_dump_station":"yes","seasonal":"no","water_point":"yes","website":"https://www.bergstrasse-odenwald.de/detail/id=5f802c49d73b167b76cefebd"}},"504086075":{"location":[49.597224,8.9918109],"ct":"DE","tp":"CS","ts":"2023-09-16T21:19:22Z","tX":537,"tY":349,"tags":{"contact:website":"https://www.bergstrasse-odenwald.de/detail/id=5f2ba27163033a4560d99f2d","name":"Campingplatz Hetzbach"}},"509044598":{"location":[49.4125881,8.8241352],"ct":"DE","tp":"CS","ts":"2017-07-20T17:15:29Z","tX":537,"tY":349,"tags":{"name":"Campingplatz Steinachtal"}},"590589412":{"location":[49.5065517,8.8092005],"ct":"DE","tp":"CS","ts":"2020-03-04T21:10:26Z","tX":537,"tY":349,"tags":{"fee":"yes","name":"Campingplatz Seip Eiterbach","website":"http://www.campingplatz-seip-eiterbach.de/"}},"598334573":{"location":[49.4815049,8.7952917],"ct":"DE","tp":"CR","ts":"2025-02-12T11:13:26Z","tX":537,"tY":349,"tags":{"capacity":"2","caravan_site":"motorhome_stopover","caravan_site:type":"sports_centre","drinking_water":"no","fee":"no","internet_access":"no","name":"Wohnmobilstellplatz Heiligkreuzsteinach","name:signed":"no","power_supply":"no","sanitary_dump_station":"no","tents":"no","toilets":"no","website":"https://regio.outdooractive.com/oar-odenwald-tourismusgemeinschaft-bw/de/unterkunft/wohnmobilstellplatz/wohnmobilstellplatz-heiligkreuzsteinach/15174904/"}},"678494528":{"location":[49.6062951,8.9671102],"ct":"DE","tp":"CS","ts":"2023-10-30T23:45:45Z","tX":537,"tY":349,"tags":{"access":"customers","capacity":"430","caravans":"no","fax":"+49 6062 910525","group_only":"yes","internet_access":"no","name":"Jugendzeltplatz am Marbach Stausee - Meisengrund","operator":"Waldhubenhof","phone":"+49 6062 3898","power_supply":"yes","tents":"yes","website":"https://www.waldhubenhof.de/Jugendzeltplatz-am-Marbach-Stausee.html"}},"738034872":{"location":[49.3975501,9.0685966],"ct":"DE","tp":"CR","ts":"2025-04-02T12:38:18Z","tX":537,"tY":349,"tags":{"capacity":"3","caravan_site":"motorhome_stopover","caravan_site:type":"river;village","fee":"no","internet_access":"wlan","maxstay":"1 day","name":"Wohnmobilstellplatz Neckargerach","power_supply":"no","sanitary_dump_station":"no","toilets":"no","water_point":"no","website":"https://www.bergstrasse-odenwald.de/detail/id=5f8031bfd73b167b76ceff08","wheelchair":"yes"}},"970168346":{"location":[49.4231976,9.1142572],"ct":"DE","tp":"CS","ts":"2021-08-03T18:29:54Z","tX":537,"tY":349,"tags":{"area":"yes","capacity:persons":"40","description":"Nur Trocken-WC","group_only":"yes","name":"Seebachtal","operator":"Stadt Mosbach","shower":"no","toilets":"yes"}},"3230711506":{"location":[49.5608772,8.9747988],"ct":"DE","tp":"SD","ts":"2024-12-29T23:25:30Z","tX":537,"tY":349,"tags":{"access":"yes","fee":"no","sanitary_dump_station:chemical_toilet":"yes","sanitary_dump_station:grey_water":"yes"}},"4330840934":{"location":[49.4828793,9.0146822],"ct":"DE","tp":"CS","ts":"2019-08-25T10:10:56Z","tX":537,"tY":349,"tags":{"caravans":"no","group_only":"yes","name":"Jugendzeltplatz Itterhof","operator":"Stadt Eberbach","tents":"yes","website":"https://www.eberbach.de/pb/,Lde/265857.html"}},"11739547368":{"location":[49.4629513,9.1360128],"ct":"DE","tp":"CS","ts":"2024-09-10T08:22:21Z","tX":537,"tY":349,"tags":{"access":"customers","backcountry":"yes","camp_site":"basic","capacity:tents":"3","caravans":"no","drinking_water":"no","fee":"yes","motor_vehicle":"no","name":"Trekking-Camp Waldschlössel","openfire":"no","operator":"Limbach","operator:wikidata":"Q632421","reservation":"required","shower":"no","static_caravans":"no","tents":"yes","toilets":"yes","website":"https://www.trekking-odenwald.de/camp/camp-waldschloessel/","wikidata":"Q121081749","wikimedia_commons":"Category:Trekking_Camp_Waldschlössel"}},"5061726220":{"location":[49.4402598,9.0563111],"ct":"DE","tp":"CR","ts":"2024-12-21T17:58:44Z","tX":537,"tY":349,"tags":{"fee":"no","internet_access":"no","name":"Wohnmobilstellplatz Oberdielbach","power_supply":"no","sanitary_dump_station":"no","surface":"paved","tents":"no","water_point":"no","website":"https://www.tg-odenwald.de/detail/id=63d8d2530170756aac76d482"}},"7722160206":{"location":[49.4601244,8.986453],"ct":"DE","tp":"CR","ts":"2025-03-20T13:22:51Z","tX":537,"tY":349,"tags":{"capacity":"4","fee":"no","internet_access":"no","maxstay":"1 night","name":"Neckarlauer","object:city":"Eberbach","object:postcode":"69412","object:street":"Uferstraße","power_supply":"no","sanitary_dump_station":"no","toilets":"no","water_point":"no","website":"https://www.eberbach.de/pb/265857.html"}},"6324073764":{"location":[49.5619441,8.8278018],"ct":"DE","tp":"SD","ts":"2024-10-04T08:05:03Z","tX":537,"tY":349,"tags":{"fee":"no"}},"11884842643":{"location":[49.4053098,8.8368175],"ct":"DE","tp":"SD","ts":"2024-05-06T20:14:11Z","tX":537,"tY":349,"tags":{"fee":"yes"}},"11884842644":{"location":[49.4053201,8.8365425],"ct":"DE","tp":"SD","ts":"2024-05-07T16:55:52Z","tX":537,"tY":349,"tags":{"fee":"no","name":"Grauwasser"}},"12222673137":{"location":[49.3962336,8.7928658],"ct":"DE","tp":"SD","ts":"2024-10-04T17:02:08Z","tX":537,"tY":349,"tags":{"access":"customers","fee":"no","sanitary_dump_station:round_drain":"yes"}},"12461055354":{"location":[49.462959,9.0480794],"ct":"DE","tp":"CR","ts":"2024-12-29T16:03:59Z","tX":537,"tY":349,"tags":{"capacity":"2","caravan_site":"motorhome_stopover","caravan_site:type":"sports_centre","fee":"no","name":"Wohnmobilstellplatz Katzenbuckels","power_supply":"no","sanitary_dump_station":"no","water_point":"no"}},"12461708257":{"location":[49.4608339,8.9854585],"ct":"DE","tp":"CR","ts":"2024-12-29T21:47:22Z","tX":537,"tY":349,"tags":{"capacity":"8","caravan_site":"motorhome_stopover","caravan_site:type":"parking_lot;river","dog":"yes","fee":"no","name":"Wohnmobilstellplatz \"Neckarlauer\"","power_supply":"no","sanitary_dump_station":"no","seasonal":"no","water_point":"no"}},"12490663419":{"location":[49.4114309,8.9147495],"ct":"DE","tp":"CR","ts":"2025-01-11T02:01:38Z","tX":537,"tY":349,"tags":{"capacity":"3","caravan_site":"motorhome_stopover","caravan_site:type":"forest","dog":"yes","fee":"no","internet_access":"no","name":"Wohnmobilstellplatz Schönbrunn","power_supply":"no","sanitary_dump_station":"no","seasonal":"no","water_point":"no","website":"https://www.wohnmobil-bw.de/poi/wohnmobilstellplatz-schoenbrunn"}}}