{"106146215":{"location":[49.036087,8.8327537],"ct":"DE","tp":"CS","ts":"2024-05-30T20:52:48Z","tX":537,"tY":351,"tags":{"addr:city":"Knittlingen","addr:country":"DE","addr:housenumber":"70","addr:postcode":"75438","addr:street":"Diefenbacher Straße","caravans":"yes","name":"Stromberg","permanent_camping":"yes","stars":"3","tents":"yes","website":"https://www.strombergcamping.de/","wheelchair":"limited"}},"200358555":{"location":[49.1042408,8.9827423],"ct":"DE","tp":"CS","ts":"2022-03-22T12:46:03Z","tX":537,"tY":351,"tags":{"addr:city":"Schwaigern","addr:country":"DE","addr:housenumber":"2","addr:postcode":"74193","addr:street":"Heugele","addr:suburb":"Niederhofen","caravans":"yes","email":"info@campingplatz-oberesleintal.de","fee":"yes","name":"Campingplatz Oberes Leintal","permanent_camping":"yes","phone":"+49 7138 6178","power_supply":"yes","tents":"yes","website":"https://www.campingplatz-oberesleintal.de/"}},"201016792":{"location":[49.0306818,8.8290295],"ct":"DE","tp":"CS","ts":"2024-09-12T11:33:04Z","tX":537,"tY":351,"tags":{"addr:city":"Knittlingen","addr:housenumber":"25/1","addr:postcode":"75438","addr:street":"Burgstallstraße","dog":"no","email":"verein@gls-pforzheim.de","name":"Gemeinschaft Licht und Sonne Pforzheim e.V.","nudism":"yes","phone":"+49 7041 43776","website":"https://www.gls-pforzheim.de/"}},"307960512":{"location":[49.0592793,8.7962622],"ct":"DE","tp":"CR","ts":"2024-12-29T15:36:31Z","tX":537,"tY":351,"tags":{"capacity":"8","caravan_site":"motorhome_stopover","caravan_site:type":"swimming_pool","charge":"10 EUR","email":"touristikinfo@oberderdingen.net","fee":"yes","name":"Wohnmobilstellplatz Oberderdingen","phone":"+49 7045 202768","power_supply":"yes","power_supply:charge":"1 EUR/8 hours","power_supply:fee":"yes","reservation":"no","seasonal":"no","surface":"gravel","tents":"no","water_point":"yes","water_point:charge":"1 EUR","water_point:fee":"yes","website":"https://www.oberderdingen.de/website/de/gemeinde/anfahrt/wohnmobilstellplatz"}},"309085339":{"location":[49.1455418,9.0455414],"ct":"DE","tp":"CR","ts":"2025-01-02T14:17:06Z","tX":537,"tY":351,"tags":{"capacity":"2","caravan_site":"motorhome_stopover","caravan_site:type":"town","caravans":"no","fee":"no","maxstay":"72 hours","name":"Wohnmobilstellplatz Gemminger Straße - Schwaigern","power_supply":"yes","power_supply:capacity":"2","power_supply:fee":"no","reservation":"no","sanitary_dump_station":"yes","seasonal":"no","surface":"asphalt","toilets":"no","water_point":"yes","water_point:charge":"1 EUR/90 liter","water_point:fee":"yes","website":"https://www.schwaigern.de/unterkuenfte/wohnmobilstellplatz-gemminger-strasse-id_423/"}},"440023144":{"location":[49.0558013,8.9377293],"ct":"DE","tp":"CS","ts":"2020-12-02T10:02:25Z","tX":537,"tY":351,"tags":{"caravans":"no","email":"zeltplatz.zaberfeld@gmail.com","group_only":"yes","name":"Gruppen Zeltplatz SC Oberes Zabergäu e.V.","operator":"SC Oberes Zabergäu e.V.","tents":"yes","website":"http://www.sc-oz.de"}},"450056012":{"location":[49.1356256,9.1085471],"ct":"DE","tp":"CS","ts":"2023-09-18T05:30:13Z","tX":537,"tY":351,"tags":{"access":"private","addr:city":"Leingarten","addr:postcode":"74211","caravans":"no","group_only":"yes","internet_access":"no","landuse":"meadow","name":"Zeltplatz im Eichbott","operator":"Evangelische Kirchengemeinden Großgartach und Schluchtern","tents":"yes","url":"http://www.zeltplatz-im-eichbott.de/","website":"http://www.zeltplatz-im-eichbott.de/"}},"463747185":{"location":[48.9991154,8.8056562],"ct":"DE","tp":"CR","ts":"2024-09-29T09:36:58Z","tX":537,"tY":351,"tags":{"capacity":"8","fee":"no","maxstay":"48 hours","name":"Wohnmobilstellplatz Maulbronn","power_supply":"yes","sanitary_dump_station":"yes","water_point":"yes","wheelchair":"yes"}},"463748927":{"location":[49.055898,8.9161499],"ct":"DE","tp":"CR","ts":"2021-08-30T08:53:48Z","tX":537,"tY":351,"tags":{"access":"yes","addr:city":"Zaberfeld","addr:country":"DE","addr:postcode":"74374","addr:street":"Seestraße","alt_name":"Wohnmobilstellplatz Zaberfeld/Ehmetsklinge","capacity":"3","contact:phone":"+49 7046 9626-0","fee":"no","name":"Wohnmobilstellplatz an der Ehmetsklinge","power_supply":"yes","sanitary_dump_station":"yes","water_point":"yes","website":"https://www.zaberfeld.de/website/de/freizeit-und-tourismus/uebernachtung","wheelchair":"limited"}},"609281388":{"location":[48.9580346,9.1241294],"ct":"DE","tp":"CR","ts":"2021-04-05T09:50:50Z","tX":537,"tY":351,"tags":{"capacity":"7","fee":"yes","name":"Wohnmobilstellplatz Bietigheim-Bissingen","power_supply":"yes","sanitary_dump_station":"yes","toilets:wheelchair":"no","water_point":"yes","website":"https://www.stuttgart-tourist.de/a-wohnmobilstellplatz-bietigheim-bissingen","wheelchair":"limited"}},"637591844":{"location":[49.0391601,9.0840134],"ct":"DE","tp":"CR","ts":"2025-01-13T15:02:08Z","tX":537,"tY":351,"tags":{"capacity":"3","drinking_water":"no","fee":"yes","name":"Freibad","note":"Wohnmobilstellplatz für 3 Fahrzeuge","power_supply":"no","sanitary_dump_station":"yes","toilets":"no","wheelchair":"yes"}},"1086268597":{"location":[49.0308595,9.0519331],"ct":"DE","tp":"CR","ts":"2022-08-14T19:51:31Z","tX":537,"tY":351,"tags":{"fee":"yes","internet_access":"no","name":"Wohnmobilstellplatz Tripsdrill","opening_hours":"24/7","operator":"Tripsdrill","reservation":"no","sanitary_dump_station":"no","smoking":"yes","tents":"yes","wheelchair":"limited"}},"1263793245":{"location":[49.1028913,9.1394475],"ct":"DE","tp":"CR","ts":"2025-01-15T22:04:12Z","tX":537,"tY":351,"tags":{"addr:city":"Nordheim","addr:housenumber":"3","addr:postcode":"74226","addr:street":"Im Auerberg","bakery_service":"yes","capacity":"2","caravan_site":"motorhome_stopover","caravan_site:type":"winery","caravans":"no","charge":"12 EUR","dog":"leashed","email":"info@weingut-im-auerberg.de","fee":"yes","internet_access":"wlan","internet_access:fee":"no","laundry":"yes","name":"Wohnmobilstellplatz Müllers Weingut","operator":"Müllers Weingut im Auerberg","phone":"+49 7133 9293640","power_supply":"yes","power_supply:charge":"6 EUR/day","power_supply:fee":"yes","sanitary_dump_station":"no","shower":"yes","surface":"grass_paver","tents":"no","toilets":"yes","water_point":"yes","water_point:charge":"5 EUR","water_point:fee":"yes","website":"https://www.weingut-im-auerberg.de/wohnmobil/"}},"1344678549":{"location":[49.0859364,9.0597874],"ct":"DE","tp":"CR","ts":"2024-12-22T01:48:38Z","tX":537,"tY":351,"tags":{"caravan_site":"motorhome_stopover","caravan_site:type":"winery","charge":"10 EUR","description":"free with 50 EUR purchase","email":"info@wg-sz.de","fee":"yes","fee:conditional":"no @ (50 EUR purchase)","name":"Weingärtner Stromberg-Zabergäu -Brackenheim","phone":"+49 7135 98550","power_supply":"yes","power_supply:fee":"no","water_point":"yes","water_point:fee":"no","website":"https://www.wohnmobil-bw.de/poi/wohnmobilstellplatz-weingaertner-stromberg-zabergaeu-eg"}},"1356156594":{"location":[49.0391638,9.0841394],"ct":"DE","tp":"CR","ts":"2025-02-02T13:27:22Z","tX":537,"tY":351,"tags":{"capacity":"9","caravan_site":"motorhome_stopover","caravan_site:type":"swimming_pool","charge":"7.50 EUR","drinking_water":"no","fee":"yes","maxstay":"3 days","name":"Mineralfreibad Bönnigheim","power_supply":"no","ref":"P4","reservation":"no","sanitary_dump_station":"yes","toilets":"no","website":"https://www.boennigheim.de/website/de/kultur-tourismus/wohnmobil","wheelchair":"yes"}},"1356157265":{"location":[48.9476565,8.8301519],"ct":"DE","tp":"CR","ts":"2025-02-02T13:34:03Z","tX":537,"tY":351,"tags":{"capacity":"5","caravan_site":"motorhome_stopover","caravan_site:type":"sports_centre;town","charge":"3 EUR","check_out":"09:00","fee":"yes","name":"Wohnmobilstellplätze am Gartenschaugelände Mühlacker","power_supply":"yes","power_supply:capacity":"5","power_supply:charge":"1 EUR/2 kWh","power_supply:fee":"yes","reservation":"no","sanitary_dump_station":"no","seasonal":"no","shower":"no","surface":"asphalt","toilets":"no","water_point":"no","website":"https://www.muehlacker.de/stadt/bildung-freizeit/freizeit-tourismus/wohnmobilstellplaetze.php"}},"4331128469":{"location":[49.0242805,8.8546047],"ct":"DE","tp":"CR","ts":"2024-12-29T15:38:37Z","tX":537,"tY":351,"tags":{"capacity":"3","caravan_site":"motorhome_stopover","caravan_site:type":"village","contact:phone":"+49 7045 9704023","fee":"no","name":"Stellplatz Giesbachhalle Diefenbach","operator":"Gemeinde Sternenfels","power_supply":"no","reservation":"no","sanitary_dump_station":"no","seasonal":"no","water_point":"no","website":"https://www.kraichgau-stromberg.de/hotel/stellplatz-giesbachhalle-diefenbach"}},"8857248446":{"location":[49.1043818,9.1355881],"ct":"DE","tp":"CR","ts":"2021-06-22T14:56:24Z","tX":537,"tY":351,"tags":{"addr:city":"Nordheim","addr:postcode":"74226","addr:street":"Lauffener Straße","capacity":"2","internet_access":"no","name":"Wohnmobilstellplatz Parkplatz","phone":"+49 7133 988244","power_supply":"yes","sanitary_dump_station":"no"}},"8857248448":{"location":[49.1117174,9.1270469],"ct":"DE","tp":"CR","ts":"2024-03-18T15:58:29Z","tX":537,"tY":351,"tags":{"addr:city":"Nordheim","addr:housenumber":"26","addr:postcode":"74226","addr:street":"Schafhohle","capacity":"4","caravan_site":"motorhome_stopover","caravan_site:type":"winery","charge":"10 EUR","email":"info@rolf-willy.de","fee":"yes","internet_access":"no","maxstay":"5 days","name":"Wohnmobilstellplatz Rolf Willy","operator":"Privatkellerei Rolf Willy","phone":"+49 7133 95010","power_supply":"yes","sanitary_dump_station":"yes","website":"https://www.heilbronnerland.de/de/gastgeber/wohnmobil/wohnmobilstellplatze/wohnmobilstellplatz-privatkellerei-rolf-willy"}},"9047401850":{"location":[49.1401442,8.9062053],"ct":"DE","tp":"CR","ts":"2023-01-21T17:53:00Z","tX":537,"tY":351,"tags":{"capacity":"22","contact:mobile":"+49 7262 920-1155","fee":"yes","internet_access":"wlan","name":"An der Hilsbach","operator":"Stadt Eppingen","power_supply":"yes","sanitary_dump_station":"yes","water_point":"yes","website":"https://www.eppingen.de/freizeit/stadt-und-gaeste/wohnmobil/"}},"9223980129":{"location":[48.9476645,8.8301342],"ct":"DE","tp":"CR","ts":"2022-09-09T10:45:31Z","tX":537,"tY":351,"tags":{"name":"Wohnmittelplatz"}},"9226755087":{"location":[48.9280286,8.9541724],"ct":"DE","tp":"CR","ts":"2024-04-02T00:17:25Z","tX":537,"tY":351,"tags":{"capacity":"3","fee":"no","name":"Wohnmobilstellplatz Vaihingen an der Enz","surface":"asphalt"}},"11107456710":{"location":[49.1517542,9.0284446],"ct":"DE","tp":"CR","ts":"2025-01-02T14:22:17Z","tX":537,"tY":351,"tags":{"addr:housenumber":"2","addr:street":"Römerhöfe","caravan_site":"motorhome_stopover","caravan_site:type":"farm_shop","charge":"20 EUR","email":"info@die-römer.de","fee":"yes","internet_access":"wlan","name":"Römerhof","phone":"+49 15773656017","power_supply":"yes","product":"beef","sanitary_dump_station":"yes","water_point":"yes","website":"https://www.die-römer.de/wohnmobilstellplaetze"}},"11166372589":{"location":[49.0646141,8.9947547],"ct":"DE","tp":"CR","ts":"2024-05-05T22:18:59Z","tX":537,"tY":351,"tags":{"description":"mit Holiday Clean Ver-und Entsorgungsstation","fee":"no","name":"Güglingen am Schwimmbad","power_supply":"no","sanitary_dump_station":"yes","website":"https://www.gueglingen.de/website/de/kultur-freizeit/tourismus/reisemobile"}},"4589866674":{"location":[48.9990913,8.8057086],"ct":"DE","tp":"SD","ts":"2021-06-09T22:25:37Z","tX":537,"tY":351,"tags":{"sanitary_dump_station:chemical_toilet":"yes","sanitary_dump_station:gravity":"yes","sanitary_dump_station:grey_water":"yes"}},"4589881312":{"location":[49.0559299,8.9162592],"ct":"DE","tp":"SD","ts":"2017-01-04T21:54:19Z","tX":537,"tY":351,"tags":{}},"11882305027":{"location":[49.0648966,8.994938],"ct":"DE","tp":"SD","ts":"2024-05-05T22:18:59Z","tX":537,"tY":351,"tags":{"access":"yes","fee":"no","sanitary_dump_station:chemical_toilet":"yes","sanitary_dump_station:grey_water":"yes"}},"11966260071":{"location":[49.0354297,8.833672],"ct":"DE","tp":"SD","ts":"2024-06-09T10:55:20Z","tX":537,"tY":351,"tags":{"access":"customers","sanitary_dump_station:chemical_toilet":"yes"}},"11966260073":{"location":[49.0352575,8.8331677],"ct":"DE","tp":"SD","ts":"2024-06-09T10:55:20Z","tX":537,"tY":351,"tags":{"access":"customers","sanitary_dump_station:grey_water":"yes"}},"11966260074":{"location":[49.03621,8.8317507],"ct":"DE","tp":"SD","ts":"2024-06-09T10:55:20Z","tX":537,"tY":351,"tags":{"access":"customers","sanitary_dump_station:chemical_toilet":"yes"}},"11966260077":{"location":[49.0367108,8.8346854],"ct":"DE","tp":"SD","ts":"2024-06-09T10:55:20Z","tX":537,"tY":351,"tags":{"access":"customers","sanitary_dump_station:chemical_toilet":"yes"}},"12468943520":{"location":[49.1353852,9.065668],"ct":"DE","tp":"CR","ts":"2025-01-02T14:18:04Z","tX":537,"tY":351,"tags":{"capacity":"10","caravan_site":"motorhome_stopover","caravan_site:type":"winery","charge":"8 EUR","fee":"yes","name":"Wohnmobilstellplatz Heuchelberg Weingärtner","power_supply":"yes","power_supply:capacity":"6","sanitary_dump_station":"yes","socket:cee_blue":"yes","water_point":"yes","website":"https://www.heilbronnerland.de/poi/wohnmobilstellplatz-heuchelberg-weingaertner"}}}