{"89722479":{"location":[48.8813249,8.8188878],"ct":"DE","tp":"CR","ts":"2022-12-30T17:12:23Z","tX":537,"tY":352,"tags":{"access":"permissive","addr:city":"Wurmberg","addr:housenumber":"111","addr:postcode":"75449","addr:street":"Öschelbronner Straße","capacity":"100","dog":"no","name":"SSF Stuttgart e.V.","source":"bing","url":"http://www.ssf-stuttgart.de/"}},"306741536":{"location":[48.797077,9.0176676],"ct":"DE","tp":"CR","ts":"2020-01-11T21:25:18Z","tX":537,"tY":352,"tags":{"capacity":"5","drinking_water":"no","fee":"Mo-Fr 08:00-18:00","maxstay":"24 hours","name":"Parkplatz Steinstraße","power_supply":"no","surface":"asphalt","tents":"no","waste":"no","website":"https://www.stuttgart-tourist.de/a-wohnmobil-stellplatz-leonberg","wheelchair":"yes"}},"406173029":{"location":[48.9070957,9.0788398],"ct":"DE","tp":"CR","ts":"2024-03-30T22:32:01Z","tX":537,"tY":352,"tags":{"capacity":"5","caravan_site":"motorhome_stopover","caravan_site:type":"town","caravans":"no","maxstay":"24 hours","name":"Festplatz/Unterriexinger Straße Markgröninger","tents":"no","website":"https://www.markgroeningen.de/index.php?id=38"}},"504216545":{"location":[48.7200304,9.0179835],"ct":"DE","tp":"CR","ts":"2025-01-04T01:10:56Z","tX":537,"tY":352,"tags":{"caravan_site":"motorhome_stopover","caravan_site:type":"swimming_pool;town","fee":"no","internet_access":"no","name":"Wohnmobilstellplatz Badezentrum Sindelfingen","operator":"Stadt Sindelfingen","power_supply":"no","sanitary_dump_station":"no","tents":"no"}},"1040215832":{"location":[48.7478165,8.8734211],"ct":"DE","tp":"CR","ts":"2024-10-30T12:38:19Z","tX":537,"tY":352,"tags":{"addr:city":"Weil der Stadt","addr:postcode":"71263","addr:street":"An der Wolldecke","capacity:caravans":"7","caravans":"no","drinking_water":"no","fee":"yes","internet_access":"no","maxstay":"3 days","name":"Weil der Stadt am E-Center","name:signed":"no","power_supply":"yes","sanitary_dump_station":"yes","toilets":"no","website":"https://www.weil-der-stadt.de/adresse/Wohnmobilstellplaetze-am-E-Center-address2446"}},"11780918647":{"location":[48.83886,8.9821215],"ct":"DE","tp":"CR","ts":"2024-04-02T17:25:19Z","tX":537,"tY":352,"tags":{"addr:housenumber":"3","addr:street":"Römerhof","contact:email":"kronenmia@gmail.com","description":"Drei einfache Stellplätze auf einem Bauernhof mit Milchwirtschaft. Daher kann man manchmal Milch und Joghurt kaufen.","name":"Wohnmobilstellplatz Römerhof 3","phone":"+4917661232275","website":"https://meinwomo.net/stellplatz/deutschland-ditzingen-2481082.htm"}}}