{"16803968":{"location":[48.0845444,9.0406233],"ct":"DE","tp":"CS","ts":"2023-12-09T17:39:48Z","tX":537,"tY":355,"tags":{"addr:city":"Beuron","addr:country":"DE","addr:housenumber":"24","addr:postcode":"88631","addr:street":"Kirchstraße","addr:suburb":"Hausen im Tal","backcountry":"no","cabins":"no","camp_site":"serviced","capacity:static_caravans":"3","caravans":"yes","dog":"leashed","drinking_water":"yes","dryer":"yes","email":"info@camping-wagenburg.de","fee":"yes","group_only":"no","internet_access":"wlan","internet_access:fee":"no","kitchen":"no","mobile":"+49 160 8449137","motor_vehicle":"yes","name":"Campingplatz Wagenburg","nudism":"no","openfire":"no","payment:cards":"no","payment:cash":"yes","permanent_camping":"no","phone":"+49 7579 559","picnic_table":"no","power_supply":"yes","reservation:conditional":"yes @ \"wenn man länger als eine Woche bleibt\"","sanitary_dump_station":"yes","scout":"no","shower":"yes","shower:fee":"yes","static_caravans":"yes","swimming_pool":"no","tents":"yes","toilets":"yes","washing_machine":"yes","waste_disposal":"yes","website":"https://www.camping-wagenburg.de/","wheelchair":"no","wheelchair:description":"Zugang zur Information, Kiosk und Sanitäranlagen theoretisch über eine Rampe möglich."}},"23293004":{"location":[48.1822909,9.0895855],"ct":"DE","tp":"CR","ts":"2018-04-23T11:26:54Z","tX":537,"tY":355,"tags":{"name":"Festhalle","supervised":"no","surface":"asphalt"}},"153916825":{"location":[48.1711384,8.8860244],"ct":"DE","tp":"CR","ts":"2024-12-27T14:09:52Z","tX":537,"tY":355,"tags":{"capacity":"11","caravan_site":"motorhome_stopover","caravan_site:type":"lake","caravans":"yes","charge":"5 EUR/24 hours","fee":"yes","maxstay":"3 nights","name":"Wohnmobilstellplatz Stausee Oberdigisheim","power_supply":"yes","sanitary_dump_station":"yes","seasonal":"no","water_point":"yes","website":"https://www.schwaebischealb.de/salb/ukv/house/Messstetten-Campingplatz-Wohnmobilstellplatz-Stausee-Oberdigisheim-FIT00020070440621098"}},"337008299":{"location":[48.0531923,8.9672773],"ct":"DE","tp":"CR","ts":"2024-12-28T21:00:01Z","tX":537,"tY":355,"tags":{"addr:city":"Beuron","addr:country":"DE","addr:housenumber":"24","addr:postcode":"88631","addr:street":"Abteistraße","bbq":"yes","capacity":"21","caravan_site":"motorhome_stopover","caravan_site:type":"river;village","charge":"10 EUR","dog":"yes","email":"info@beuron.de","fee":"yes","internet_access":"no","name":"Wohnmobilstellplatz am Kloster Beuron","opening_hours":"24/7","operator":"Gemeinde Beuron","phone":"+49 7579 9210-0","power_supply":"yes","reservation":"no","sanitary_dump_station":"yes","water_point":"yes","website":"http://beuron.de/seite/de/tourismus/wohnmobilstellplatz.php","wheelchair":"yes","wikimedia_commons":"File:Motorhome Stopover Germany, Beuron.jpg"}},"341026528":{"location":[48.2165167,8.9793592],"ct":"DE","tp":"CS","ts":"2023-05-14T07:46:15Z","tX":537,"tY":355,"tags":{"addr:city":"Albstadt","addr:housenumber":"54","addr:postcode":"72458","addr:street":"Beibruck","capacity":"50","caravans":"yes","check_date":"2023-05-14","drinking_water":"yes","fee":"yes","internet_access":"wlan","internet_access:fee":"yes","name":"Sonnencamping Albstadt","phone":"+49 7431 9370348","power_supply":"yes","sanitary_dump_station":"yes","shower":"yes","stars":"4","tents":"yes","toilets":"yes","website":"https://www.sonnencamping.de/","wheelchair":"yes"}},"439422830":{"location":[48.006275,9.0292519],"ct":"DE","tp":"CS","ts":"2024-08-13T17:59:13Z","tX":537,"tY":355,"tags":{"addr:city":"Leibertingen","addr:housenumber":"1","addr:postcode":"88637","addr:street":"Beim Freibad","addr:suburb":"Thalheim","internet_access":"wlan","internet_access:fee":"no","name":"Campinggarten Leibertingen","operator":"Tanja und Markus Klaus GbR","website":"https://www.campinggarten-leibertingen.de/"}},"444953688":{"location":[48.0689233,9.0048571],"ct":"DE","tp":"CR","ts":"2023-11-01T20:09:36Z","tX":537,"tY":355,"tags":{"capacity":"10","contact:phone":"+49 7579 933143","dog":"no","fee":"yes","name":"Talhof","power_supply":"yes","sanitary_dump_station:gravity":"yes","water_point":"yes","website":"https://www.talhof-donautal.de/wohnmobilstellplatz.htm"}},"445804023":{"location":[48.0861719,9.0969142],"ct":"DE","tp":"CR","ts":"2025-01-29T11:36:03Z","tX":537,"tY":355,"tags":{"capacity":"10","caravan_site":"motorhome_stopover","caravan_site:type":"guest_house","charge":"5 EUR","drinking_water":"yes","email":"info@jackrattle.de","fee":"yes","name":"Jack Rattle","power_supply":"yes","sanitary_dump_station":"no","toilets":"yes","water_point":"yes","website":"https://www.jackrattle.de"}},"725129631":{"location":[48.2158999,8.9795013],"ct":"DE","tp":"CR","ts":"2025-03-30T21:51:00Z","tX":537,"tY":355,"tags":{"capacity":"16","caravan_site":"motorhome_stopover","caravan_site:type":"camp_site","caravans":"no","charge":"18 EUR","description:de":"Stellplatz vor der Schranke","description:en":"Outsite camping gate","dog":"yes","fee":"yes","internet_access":"wlan","internet_access:fee":"yes","name":"Sonnencamping Albstadt untere Terrassenebene","power_supply":"yes","power_supply:charge":"0.84 EUR/KWh","power_supply:fee":"yes","sanitary_dump_station":"yes","tents":"no","toilets":"yes","water_point":"yes","water_point:charge":"0.10 EUR/9 liter","water_point:fee":"yes","website":"http://www.sonnencamping.de/preise/"}},"727563997":{"location":[47.9962405,9.1193043],"ct":"DE","tp":"CS","ts":"2024-02-22T16:53:58Z","tX":537,"tY":355,"tags":{"addr:city":"Meßkirch","addr:country":"DE","addr:housenumber":"26","addr:postcode":"88605","addr:street":"Am Stachus","cabins":"no","capacity":"42","caravans":"yes","contact:email":"info@camping-an-der-ablach.de","contact:instagram":"https://www.instagram.com/camping_an_der_ablach/","contact:mobile":"+ 491726041187","contact:website":"https://camping-an-der-ablach.de","drinking_water":"yes","dryer":"yes","internet_access":"wlan","internet_access:fee":"no","motor_vehicle":"yes","name":"Camping an der Ablach","naturism":"no","nudism":"no","opening_hours":"24/7","operator":"Herbert Alber","power_supply":"yes","reservation":"yes","sanitary_dump_station":"yes","sauna":"no","scout":"no","shower":"yes","swimming_pool":"no","tents":"yes","toilets":"yes","washing_machine":"yes","waste_disposal":"yes","wheelchair":"yes"}},"885634786":{"location":[48.0803143,9.1293027],"ct":"DE","tp":"CS","ts":"2020-12-16T18:32:44Z","tX":537,"tY":355,"tags":{"capacity":"50","caravans":"no","group_only":"yes","name":"Jugendzeltplatz Nr. 6 Aisnau","operator":"Anna-Elisabeth Grom","phone":"+49 7570 619","power_supply":"no","ref":"6","tents":"yes","toilets":"yes","website":"https://www.landkreis-sigmaringen.de/de/Landratsamt/Kreisverwaltung/Fachbereiche/Umwelt-Arbeitsschutz/Naturschutz/Jugendzelplaetze"}},"885634787":{"location":[48.0782751,9.1282047],"ct":"DE","tp":"CS","ts":"2024-02-18T12:18:05Z","tX":537,"tY":355,"tags":{"capacity":"40","caravans":"no","group_only":"yes","name":"Jugendzeltplatz Nr. 7","operator":"Anna-Elisabeth Grom","phone":"+49 7570 619","power_supply":"no","ref":"7","shower":"no","tents":"yes","toilets":"yes","website":"https://www.landkreis-sigmaringen.de/de/Landratsamt/Kreisverwaltung/Fachbereiche/Umwelt-Arbeitsschutz/Naturschutz/Jugendzelplaetze"}},"885634788":{"location":[48.0818889,9.1282583],"ct":"DE","tp":"CS","ts":"2021-11-01T10:46:39Z","tX":537,"tY":355,"tags":{"capacity":"100","caravans":"no","group_only":"yes","name":"Jugendzeltplatz Nr. 4 Aisnau","ref":"4","tents":"yes","website":"https://www.landkreis-sigmaringen.de/de/Landratsamt/Kreisverwaltung/Fachbereiche/Umwelt-Arbeitsschutz/Naturschutz/Jugendzelplaetze"}},"975809735":{"location":[48.0802936,9.1351612],"ct":"DE","tp":"CS","ts":"2021-08-23T21:06:39Z","tX":537,"tY":355,"tags":{"capacity":"80","group_only":"yes","name":"Jugendzeltplatz Nr. 2"}},"1112574840":{"location":[48.0530382,8.9667755],"ct":"DE","tp":"CS","ts":"2025-04-16T15:28:39Z","tX":537,"tY":355,"tags":{"addr:city":"Beuron","addr:housenumber":"22","addr:postcode":"88631","addr:street":"Abteistraße","cabins":"yes","camp_site":"serviced","caravans":"yes","contact:email":"info@camp-im-donautal.de","contact:phone":"+49 176 80576737","contact:website":"https://www.camp-im-donautal.de/camp/","internet_access":"no","name":"Camp im Donautal","operator":"Camp im Donautal, Jürgen Burchardt","reservation":"required","tents":"no","website":"https://www.camp-im-donautal.de/","wheelchair":"limited"}},"1126021712":{"location":[48.1747019,8.9589448],"ct":"DE","tp":"CR","ts":"2024-03-24T02:01:46Z","tX":537,"tY":355,"tags":{"addr:city":"Meßstetten","addr:postcode":"72469","addr:street":"Blumersberg","capacity":"9","caravans":"yes","charge":"5 EUR","fee":"yes","maxstay":"3 nights","name":"Wohnmobilstellplatz Blumersberg","power_supply":"yes","power_supply:fee":"yes","surface":"gravel","tents":"no","water_point":"yes"}},"1212816724":{"location":[48.074213,8.9327425],"ct":"DE","tp":"CR","ts":"2023-10-03T17:25:40Z","tX":537,"tY":355,"tags":{"capacity":"7","internet_access":"wlan","internet_access:fee":"no","name":"Baera Lodge","power_supply":"yes","sanitary_dump_station":"yes","website":"https://www.baeralodge.de/portfolio-item/wohnmobil-stellplatz/"}},"1225586706":{"location":[48.0310138,8.9550646],"ct":"DE","tp":"CS","ts":"2024-11-01T15:08:17Z","tX":537,"tY":355,"tags":{"capacity":"150","caravans":"no","fee":"yes","group_only":"yes","name":"Jugendzeltplatz Nr. 11","opening_hours":"May - Sep","operator":"Franz Stehle (Jägerhaus Fridingen)","phone":"+49 7466 254","ref":"11","tents":"yes","website":"https://www.landkreis-sigmaringen.de/de/Landratsamt/Kreisverwaltung/Fachbereiche/Umwelt-Arbeitsschutz/Naturschutz/Jugendzelplaetze"}},"1225586932":{"location":[48.1016078,9.0645681],"ct":"DE","tp":"CS","ts":"2023-11-01T20:09:58Z","tX":537,"tY":355,"tags":{"caravans":"yes","description":"12 Wohnmobilstellplätze vorhanden","email":"naturfreundehaus@naturfreunde-tuttlingen.de","group_only":"yes","name":"Zeltplatz am Naturfreundehaus","tents":"yes","website":"https://www.naturfreunde-tuttlingen.de/?p=house"}},"1356151018":{"location":[48.1823931,9.0897291],"ct":"DE","tp":"CR","ts":"2025-02-02T12:50:44Z","tX":537,"tY":355,"tags":{"capacity":"6","caravan_site":"motorhome_stopover","caravan_site:type":"village","fee":"no","maxlength":"9","maxstay":"3 nights","name":"Festhalle Straßberg","opening_hours:water_point":"Apr-Oct","power_supply":"yes","power_supply:charge":"1 EUR/1 kWh","power_supply:fee":"yes","power_supply:maxcurrent":"16","shower":"no","socket:cee_blue":"yes","surface":"paving_stones","tents":"no","toilets":"no","water_point":"yes","water_point:charge":"1 EUR/70 liter","water_point:fee":"yes","website":"https://www.strassberg.de/wohnmobilstellplatz.html"}},"2611368199":{"location":[48.0301501,8.9610404],"ct":"DE","tp":"CS","ts":"2023-10-02T09:17:40Z","tX":537,"tY":355,"tags":{"bbq":"yes","fee":"yes","group_only":"yes","kitchen":"yes","name":"Zeltplatz Bronnen","opening_hours":"May - Oct","operator":"VUJ Stuttgart e.V.","shower":"yes","toilets":"yes","toilets:wheelchair":"no","washing_machine":"yes","website":"https://www.vuj-stuttgart.de/zeltplatz-bronnen-im-donautal/","wheelchair":"no"}},"3389580492":{"location":[48.0636082,8.965302],"ct":"DE","tp":"CS","ts":"2023-08-01T07:58:58Z","tX":537,"tY":355,"tags":{"access":"customers","caravans":"no","drinking_water":"yes","fee":"yes","group_only":"yes","kitchen":"yes","name":"Zeltplatz Freizeitheim Schönbühl / Jugendzeltplatz Irndorf","operator":"Evangelisches Jugendwerk","power_supply":"yes","shower":"yes","tents":"yes","toilets":"yes","website":"https://www.ejw-bezirktut.de/freizeitheim-schoenbuehl/zeltplatzvermietung/"}},"12026405976":{"location":[48.0527442,9.0017727],"ct":"DE","tp":"CR","ts":"2025-01-01T23:59:23Z","tX":537,"tY":355,"tags":{"capacity":"3","caravan_site":"motorhome_stopover","caravan_site:type":"castle","charge":"14.50 EUR","fee":"yes","name":"Wohnmobilstellplatz Burg Wildenstein","network":"Alpaca Camping","power_supply":"no","sanitary_dump_station":"no"}},"12026405977":{"location":[48.0480383,9.008257],"ct":"DE","tp":"CR","ts":"2025-01-01T23:54:42Z","tX":537,"tY":355,"tags":{"capacity":"3","caravan_site":"motorhome_stopover","caravan_site:type":"hiking","charge":"14.50 EUR","fee":"yes","name":"Waldparkplatz Leibertingen Stellplatz","network":"Alpaca Camping","power_supply":"no","reservation":"yes","sanitary_dump_station":"no","seasonal":"no","water_point":"no"}},"4370360925":{"location":[48.0059178,9.0282364],"ct":"DE","tp":"SD","ts":"2024-08-04T18:52:59Z","tX":537,"tY":355,"tags":{"name":"Campinggarten Leibertingen"}},"6797082655":{"location":[48.0532067,8.9676467],"ct":"DE","tp":"SD","ts":"2024-05-13T20:55:34Z","tX":537,"tY":355,"tags":{"sanitary_dump_station:chemical_toilet":"yes","sanitary_dump_station:fee":"no","sanitary_dump_station:gravity":"yes","sanitary_dump_station:grey_water":"yes","sanitary_dump_station:suction":"no"}},"6799839304":{"location":[48.2160822,8.9807627],"ct":"DE","tp":"SD","ts":"2019-09-16T15:55:31Z","tX":537,"tY":355,"tags":{"sanitary_dump_station:chemical_toilet":"yes","sanitary_dump_station:fee":"no","sanitary_dump_station:gravity":"yes","sanitary_dump_station:grey_water":"yes","sanitary_dump_station:suction":"no"}},"9014345946":{"location":[48.0849462,9.0409052],"ct":"DE","tp":"SD","ts":"2021-08-17T14:58:37Z","tX":537,"tY":355,"tags":{"access":"customers"}},"11653252182":{"location":[47.9963477,9.1191514],"ct":"DE","tp":"SD","ts":"2024-02-22T16:12:16Z","tX":537,"tY":355,"tags":{}},"12849064325":{"location":[48.1002754,9.0073608],"ct":"DE","tp":"CR","ts":"2025-05-19T14:28:29Z","tX":537,"tY":355,"tags":{"name":"Schwenningen Sportplatz"}}}