{"45108630":{"location":[47.7610136,8.9336184],"ct":"DE","tp":"CS","ts":"2021-05-06T14:50:11Z","tX":537,"tY":356,"tags":{"addr:city":"Radolfzell am Bodensee","addr:country":"DE","addr:housenumber":"64","addr:postcode":"78315","addr:street":"Hindenburgstraße","addr:suburb":"Böhringen","capacity":"50","description":"Tent 5 € - 15€ , Person 5 €","email":"kontakt@boehringersee.de","name":"Campingplatz Böhringen","operator":"Petra Helmlinger","phone":"+49 17624893248","website":"http://www.boehringersee.de"}},"119940235":{"location":[47.8093573,8.969526],"ct":"DE","tp":"CS","ts":"2024-10-22T00:26:59Z","tX":537,"tY":356,"tags":{"addr:city":"Stockach","addr:country":"DE","addr:housenumber":"50","addr:postcode":"78333","addr:street":"Stahringer Straße","addr:suburb":"Wahlwies","contact:email":"info@camping-wahlwies.de","contact:fax":"+49 321 21108894","contact:phone":"+49 7771 3511","contact:website":"http://www.camping-wahlwies.de/","internet_access":"wlan","name":"Campinggarten Wahlwies","operator":"Volker Knaust;Andrea Knaust","wheelchair":"limited"}},"169722789":{"location":[47.8172207,9.0406707],"ct":"DE","tp":"CS","ts":"2024-11-04T23:01:09Z","tX":537,"tY":356,"tags":{"caravans":"yes","drinking_water":"yes","internet_access":"wlan","name":"Campingplatz Schachenhorn","phone":"+49 7773 9376851","power_supply":"yes","shower":"yes","tents":"yes","toilets":"yes","toilets:wheelchair":"yes","website":"https://camping-schachenhorn.de/","wheelchair":"yes"}},"230983192":{"location":[47.9480831,9.0844486],"ct":"DE","tp":"CS","ts":"2020-03-23T13:51:25Z","tX":537,"tY":356,"tags":{"name":"Tipi-Hof","wheelchair":"limited"}},"285586586":{"location":[47.7594689,8.8280228],"ct":"DE","tp":"CR","ts":"2024-10-01T14:27:38Z","tX":537,"tY":356,"tags":{"access":"yes","addr:city":"Singen (Hohentwiel)","addr:country":"DE","addr:housenumber":"35","addr:postcode":"78224","addr:street":"Schaffhauser Straße","capacity":"20","dog":"yes","fee":"yes","internet_access":"no","maxstay":"72 hours","motorhome":"yes","name":"Wohnmobilstellplatz Schaffhauser Straße","note":"Untergrund geschottert, Wasser und Abwasser (ohne Gebühr), Stromanschluss vorhanden (Gebühr: Euro 2,00 für 12 Stunden). Die Entsorgungsstation ist über die Wintermonate von 15. November bis 15. März nicht in Betrieb.","payment:cash":"yes","payment:coins":"yes","payment:girocard":"yes","payment:maestro":"yes","payment:mastercard":"yes","payment:visa":"yes","power_supply":"yes","sanitary_dump_station":"yes","stars":"3","surface":"gravel","website":"https://www.hegau.de/unterkunft.Wohnmobil-Stellplaetze_Landesgartenschau.7.7C2C4440ECAEC1DEBBAD7CFBEA64DAAD.1560.html"}},"288798368":{"location":[47.8426034,8.9392187],"ct":"DE","tp":"CS","ts":"2022-09-12T15:54:26Z","tX":537,"tY":356,"tags":{"caravans":"yes","internet_access":"yes","name":"Camping- & Ferienpark Orsingen","phone":"+49 7774 9237870","tents":"yes","website":"https://www.camping-orsingen.de/"}},"342355358":{"location":[47.9746997,8.9237628],"ct":"DE","tp":"CR","ts":"2023-09-03T18:37:57Z","tX":537,"tY":356,"tags":{"access":"yes","capacity":"8","check_date":"2023-02-20","description":"Overnight parking for 8 camper vans. Electricity is free (donation desired).","fee":"no","internet_access":"no","name":"Wohnmobilstellplatz Neuhausen ob Eck","power_supply":"yes","reservation":"no","sanitary_dump_station":"yes","source":"survey","supervised":"no","surface":"unpaved"}},"363347754":{"location":[47.8015337,8.915035],"ct":"DE","tp":"PK","ts":"2021-07-05T10:33:52Z","tX":537,"tY":356,"tags":{"access":"yes","capacity:disabled":"2","caravans":"yes","description":"Whnmobile dürfen 12 Stunden hier parken","fee":"no","maxstay":"12.0 hours","mofa":"yes","moped":"yes","motor_vehicle":"yes","motorcar":"yes","motorcycle":"yes","name":"Parkplatz Seeblickhalle","parking":"surface","surface":"asphalt","wheelchair":"yes"}},"446712252":{"location":[47.9847848,8.8126156],"ct":"DE","tp":"CR","ts":"2025-02-02T23:37:14Z","tX":537,"tY":356,"tags":{"addr:city":"Tuttlingen","addr:country":"DE","addr:postcode":"78532","addr:street":"Stuttgarter Straße","capacity":"12","caravan_site":"motorhome_stopover","caravan_site:type":"town","charge":"5 EUR","email":"touristik@tuttlingen.de","fee":"no","miniature_golf":"yes","name":"Wohnmobilstellplatz im Donaupark Tuttlingen","operator":"Stadt Tuttlingen","phone":"+49 7461 99340","power_supply":"no","sanitary_dump_station":"yes","sanitary_dump_station:charge":"1 EUR","sanitary_dump_station:fee":"yes","swimming_pool":"yes","tennis":"yes","tents":"no","toilets":"no","water_point":"yes","water_point:charge":"1 EUR","water_point:fee":"yes","website":"https://www.tuttlingen.de/de/Kultur-Tourismus/uebernachten/Wohnmobilstellplatz"}},"451705434":{"location":[47.8415177,8.9996378],"ct":"DE","tp":"CR","ts":"2025-02-15T12:07:49Z","tX":537,"tY":356,"tags":{"capacity":"66","caravan_site":"motorhome_stopover","caravan_site:type":"camp_site;caravan_shop","contact:email":"info@camping-stockach.de","contact:fax":"+49 7771 9165-1331","contact:phone":"+49 7771 9165-1330","dog":"yes","fee":"yes","motorhome":"designated","name":"WoMo-Park Papiermühle Stockach","object:city":"Stockach","object:country":"DE","object:housenumber":"3","object:postcode":"78333","object:street":"Johann-Glatt-Straße","operator":"AUER GmbH","power_supply":"yes","sanitary_dump_station":"yes","stars":"4","water_point":"yes","website":"https://camping-stockach.de/reisemobilhafen/"}},"452317687":{"location":[47.8421733,8.9976502],"ct":"DE","tp":"CS","ts":"2023-05-17T19:02:59Z","tX":537,"tY":356,"tags":{"access":"customers","addr:city":"Stockach","addr:country":"DE","addr:housenumber":"3","addr:postcode":"78333","addr:street":"Johann-Glatt-Straße","email":"info@camping-stockach.de","name":"Campingpark Papiermühle","phone":"+49 7771 91651330","website":"https://camping-stockach.de/"}},"519590574":{"location":[47.9857403,8.8073881],"ct":"DE","tp":"CS","ts":"2025-01-23T22:26:47Z","tX":537,"tY":356,"tags":{"addr:city":"Tuttlingen","addr:country":"DE","addr:postcode":"78532","addr:street":"Im Umläufle","cabins":"no","camp_site":"standard","capacity:tents":"20","caravans":"no","dog":"no","drinking_water":"yes","fee":"no","internet_access":"no","motor_vehicle":"no","name":"Zeltplatz im Donaupark","openfire":"no","opening_hours":"Apr 01-Oct 31","operator":"Stadt Tuttlingen","power_supply":"yes","reservation":"no","shower":"yes","tents":"yes","toilets":"yes","website":"https://www.tuttlingen.de/de/Kultur-Tourismus/uebernachten/Zeltplatz"}},"536706570":{"location":[47.7993459,9.0873136],"ct":"DE","tp":"CR","ts":"2025-02-18T18:12:49Z","tX":537,"tY":356,"tags":{"capacity":"3","caravan_site":"motorhome_stopover","caravan_site:type":"harbour","caravans":"no","dog":"yes","fee":"yes","name:signed":"no","power_supply":"no","sanitary_dump_station":"no","tents":"no","toilets":"no","water_point":"no"}},"558930837":{"location":[47.8023434,9.0331207],"ct":"DE","tp":"CS","ts":"2022-09-05T21:05:50Z","tX":537,"tY":356,"tags":{"capacity":"30","caravans":"yes","contact:phone":"+49 171 1280816","description":"Ausschließlich Saisoncamping","name":"Campingplatz Wegmann","opening_hours":"Mar 01 - Oct 31","permanent_camping":"only"}},"729379000":{"location":[47.823975,9.0518686],"ct":"DE","tp":"CR","ts":"2024-10-01T14:27:38Z","tX":537,"tY":356,"tags":{"addr:city":"Bodman-Ludwigshafen","addr:country":"DE","addr:housenumber":"3","addr:postcode":"78351","addr:street":"Am Sportplatz","addr:suburb":"Ludwigshafen","capacity":"26","dog":"yes","fee":"yes","motorhome":"yes","name":"Wohnmobilstellplatz Ludwigshafen","power_supply":"yes","sanitary_dump_station":"yes","stars":"3","website":"https://www.der-erste-wohnmobilhafen-am-see.de/"}},"783187956":{"location":[47.789955,8.8803088],"ct":"DE","tp":"PK","ts":"2024-09-09T15:29:40Z","tX":537,"tY":356,"tags":{"access":"visitors","capacity":"4","caravans":"yes","lit":"no","maxstay":"24 hours","motorhome":"designated","name":"Friedhof","parking":"surface","surface":"fine_gravel"}},"977937470":{"location":[47.8633839,8.8928415],"ct":"DE","tp":"CR","ts":"2025-02-19T19:18:08Z","tX":537,"tY":356,"tags":{"capacity":"12","caravan_site":"motorhome_stopover","caravan_site:type":"theme_park","charge":"10 EUR","dog":"leashed","fee":"yes","internet_access":"wlan","maxstay":"7 days","name":"Wohnmobilstellplatz Erlebnisgastronomie Lochmühle Eigeltingen","power_supply":"yes","power_supply:charge":"10 EUR","power_supply:fee":"yes","seasonal":"no","shower":"yes","toilets":"yes","water_point":"yes","water_point:fee":"no","website":"https://www.bodenseewest.eu/attraktion/wohnmobilstellplatz-erlebnisgastronomie-lochmuehle-eigeltingen-8ca3f1b9d9"}},"1112723857":{"location":[47.8030084,9.0246576],"ct":"DE","tp":"CR","ts":"2024-12-07T13:43:25Z","tX":537,"tY":356,"tags":{"capacity":"12","caravan_site":"motorhome_stopover","caravan_site:type":"harbour","charge":"15 EUR","fee":"yes","name":"Wohnmobilstellplatz Kapelle Bodman","operator":"Gemeinde Bodman-Ludwigshafen","payment:coins":"yes","payment:contactless":"yes","payment:parkster":"yes","power_supply":"yes","ref:parkster":"78354","reservation":"no","sanitary_dump_station":"yes","sanitary_dump_station:chemical_toilet":"yes","sanitary_dump_station:grey_water":"yes","tents":"no","toilets":"yes","water_point":"yes","website":"https://www.bodman-ludwigshafen.de/camping","wheelchair":"yes"}},"1276319371":{"location":[47.7981848,8.8182816],"ct":"DE","tp":"CS","ts":"2025-02-26T09:26:35Z","tX":537,"tY":356,"tags":{"capacity:persons":"60","caravans":"no","charge":"3,50 Euro","email":"burgbelegung@grauer-reiter.de","fee":"yes","fireplace":"yes","group_only":"yes","name":"Jugendburg Hohenkrähen","operator":"Pfadfinderschaft Grauer Reiter","panoramax":"ec69a043-ab77-4b5c-94c8-7df41bfae7b4","panoramax:0":"266b7816-3336-4a2b-8e50-5e64c3419434","panoramax:1":"0a049219-9469-4380-be4d-ba879a64b664","phone":"+49 171 5406185","social_facility:for":"child","static_caravans":"no","toilets":"yes","website":"https://burg.grauer-reiter.de/vermietung"}},"1808839101":{"location":[47.8176434,9.0383861],"ct":"DE","tp":"SD","ts":"2015-04-29T02:50:00Z","tX":537,"tY":356,"tags":{"sanitary_dump_station:accepted":"black_water;grey_water;tank_chemicals","waste_basket":"yes"}},"3462010015":{"location":[47.760054,8.8280456],"ct":"DE","tp":"SD","ts":"2020-09-25T13:04:17Z","tX":537,"tY":356,"tags":{"fee":"yes","payment:coins":"yes","sanitary_dump_station:accepted":"black_water;tank_chemicals"}},"11537639669":{"location":[47.8177602,9.0376031],"ct":"DE","tp":"CS","ts":"2024-03-25T14:27:31Z","tX":537,"tY":356,"tags":{"caravans":"yes","name":"lac de constance","sanitary_dump_station":"yes","tents":"yes","toilets":"yes"}},"5617206249":{"location":[47.8418093,8.9966576],"ct":"DE","tp":"SD","ts":"2021-09-06T21:09:12Z","tX":537,"tY":356,"tags":{"sanitary_dump_station:chemical_toilet":"yes","sanitary_dump_station:gravity":"yes","sanitary_dump_station:grey_water":"yes"}},"6443001896":{"location":[47.9849297,8.8127781],"ct":"DE","tp":"SD","ts":"2019-09-12T18:56:34Z","tX":537,"tY":356,"tags":{"sanitary_dump_station:chemical_toilet":"yes","sanitary_dump_station:gravity":"yes","sanitary_dump_station:grey_water":"yes"}},"9063876530":{"location":[47.8421751,8.9958954],"ct":"DE","tp":"SD","ts":"2021-09-05T11:44:49Z","tX":537,"tY":356,"tags":{}},"11165527836":{"location":[47.9747585,8.9240069],"ct":"DE","tp":"SD","ts":"2023-09-03T18:37:57Z","tX":537,"tY":356,"tags":{"sanitary_dump_station:basin":"yes"}}}