{"16315586":{"location":[47.6878502,8.9952968],"ct":"DE","tp":"CS","ts":"2023-09-11T18:04:49Z","tX":537,"tY":357,"tags":{"addr:city":"Gaienhofen","addr:housenumber":"3-18","addr:postcode":"78343","addr:street":"Strandweg","email":"info@campingplatz-horn.de","name":"Campingplatz Horn","phone":"+49 7735 685","website":"https://camping-horn.de/#"}},"22978503":{"location":[47.6627338,8.8404622],"ct":"CH","tp":"CS","ts":"2024-07-20T18:52:51Z","tX":537,"tY":357,"tags":{"cabins":"yes","capacity:pitches":"40","capacity:static_caravans":"240","caravans":"yes","drinking_water":"yes","name":"Camping Wagenhausen","opening_hours":"Apr 1 - Oct 23","phone":"+41 52 741 42 71","shower":"yes","static_caravans":"yes","tents":"yes","toilets":"yes","website":"https://www.campingwagenhausen.ch/"}},"24419567":{"location":[47.7376606,8.9805372],"ct":"DE","tp":"CR","ts":"2024-10-22T10:35:13Z","tX":537,"tY":357,"tags":{"addr:city":"Radolfzell am Bodensee","addr:country":"DE","addr:housenumber":"32","addr:postcode":"78315","addr:street":"Strandbadstraße","capacity":"30","charge":"19€ plus Kurtaxe","email":"info@radolfzell-tourismus.de","fee":"yes","internet_access":"wlan","internet_access:fee":"no","maxstay":"72 hours","motorhome":"yes","name":"Wohnmobilstellplatz Halbinsel Mettnau","phone":"+49 7732 81500","power_supply":"yes","reservation":"no","sanitary_dump_station":"yes","source":"Luftbilder Radolfzell","stars":"3","toilets":"yes","water_point":"yes","website":"https://www.radolfzell-tourismus.de/attraktion/wohnmobilstellplatz-mettnau-1f2cf7c12a","wheelchair":"yes"}},"26769104":{"location":[47.7040129,9.0967905],"ct":"DE","tp":"CS","ts":"2024-04-07T07:13:20Z","tX":537,"tY":357,"tags":{"area":"yes","caravans":"yes","drinking_water":"yes","name":"Campingplatz Hegne","opening_hours":"Mar 15 - Oct 15","phone":"+49 7533 9493913","power_supply":"yes","shower":"yes","tents":"yes","toilets":"yes","website":"https://camping-hegne.de/","wheelchair":"yes"}},"27338994":{"location":[47.7162208,8.9621608],"ct":"DE","tp":"CS","ts":"2023-11-03T15:27:21Z","tX":537,"tY":357,"tags":{"area":"yes","name":"Campingplatz Stoffel"}},"27359452":{"location":[47.7158023,8.9634721],"ct":"DE","tp":"CS","ts":"2022-12-04T18:50:27Z","tX":537,"tY":357,"tags":{"area":"yes","name":"Kanuclub Singen","sport":"canoe","wheelchair":"no"}},"27846266":{"location":[47.6987956,9.0452125],"ct":"DE","tp":"CS","ts":"2024-10-01T14:27:38Z","tX":537,"tY":357,"tags":{"addr:city":"Reichenau","addr:country":"DE","addr:housenumber":"24","addr:postcode":"78479","addr:street":"Bradlengasse","addr:suburb":"Niederzell","cabins":"yes","caravans":"yes","internet_access":"yes","motorhome":"yes","name":"Sandseele","phone":"+49 7534 7384","power_supply":"yes","tents":"yes","website":"https://www.sandseele.de"}},"31142728":{"location":[47.7387667,8.9533681],"ct":"DE","tp":"CR","ts":"2024-10-01T14:27:38Z","tX":537,"tY":357,"tags":{"capacity":"15","contact:email":"info@radolfzell-tourismus.de","contact:phone":"+49 7732 81500","contact:website":"https://www.radolfzell-tourismus.de/attraktion/wohnmobilstellplatz-herzen-2819153d88","fee":"yes","maxstay":"72 hours","motorhome":"yes","name":"Wohmobilstellplatz in den Herzen","power_supply":"yes","reservation":"no","sanitary_dump_station":"yes","stars":"3","traffic_sign":"DE:1048-17","water_point":"yes","website":"https://www.radolfzell-tourismus.de/Uebernachten/Wohnmobil-Stellplaetze/Wohnmobilstellplatz-in-den-Herzen"}},"35873028":{"location":[47.6848066,9.1384717],"ct":"DE","tp":"CR","ts":"2024-09-09T15:29:40Z","tX":537,"tY":357,"tags":{"access":"permit","name":"Zoll-Vorstauraum","parking":"surface"}},"40070826":{"location":[47.6807125,8.9839939],"ct":"DE","tp":"CS","ts":"2024-09-30T15:33:30Z","tX":537,"tY":357,"tags":{"caravans":"yes","name":"Campingplatz Bohner","operator":"Erwin und Martina Bohner","reservation":"required","tents":"yes"}},"40112944":{"location":[47.6794944,8.9785685],"ct":"DE","tp":"CS","ts":"2019-03-24T18:36:40Z","tX":537,"tY":357,"tags":{"name":"Camping Höristrand","phone":"+49 7735 9369834","website":"https://www.camping-hoeristrand.de/"}},"76752980":{"location":[47.7391219,9.0017391],"ct":"DE","tp":"CS","ts":"2023-09-04T14:46:12Z","tX":537,"tY":357,"tags":{"caravans":"yes","drinking_water":"yes","layer":"-2","name":"Campingplatz Markelfingen","power_supply":"yes","shower":"yes","tents":"yes","toilets":"yes","toilets:wheelchair":"yes","website":"https://camping-markelfingen.de/","wheelchair":"yes"}},"77218755":{"location":[47.7338665,9.0121015],"ct":"DE","tp":"CS","ts":"2023-05-07T12:34:17Z","tX":537,"tY":357,"tags":{"access":"private","caravans":"no","name":"Naturfreunde Bodensee","surface":"grass","tents":"yes"}},"87216508":{"location":[47.6462239,8.8450106],"ct":"CH","tp":"CS","ts":"2014-09-01T21:33:11Z","tX":537,"tY":357,"tags":{"addr:city":"Kaltenbach","addr:country":"CH","addr:postcode":"8259","addr:street":"Unterer Giger","name":"Camping Chämihütte"}},"87216544":{"location":[47.6435949,8.8603237],"ct":"CH","tp":"CS","ts":"2023-08-15T10:25:00Z","tX":537,"tY":357,"tags":{"addr:city":"Eschenz","addr:place":"Hüttenberg","addr:postcode":"8264","fax":"+41 52 741 56 71","internet_access":"wlan","name":"Hüttenberg","operator":"Familie Meier","phone":"+41 52 741 23 37","website":"https://www.huettenberg.ch/"}},"87839395":{"location":[47.7319275,9.0162118],"ct":"DE","tp":"CS","ts":"2023-05-07T12:34:26Z","tX":537,"tY":357,"tags":{"access":"private","caravans":"yes","name":"Naturfreunde Bodensee","surface":"grass","tents":"no"}},"88154603":{"location":[47.6614402,8.8753779],"ct":"DE","tp":"CS","ts":"2020-05-03T21:37:22Z","tX":537,"tY":357,"tags":{"addr:city":"Stein am Rhein","addr:country":"CH","addr:housenumber":"75","addr:postcode":"8260","addr:street":"Oehningerstrasse","caravans":"yes","internet_access":"no","name":"Grenzstein","phone":"+41 79 6469602","tents":"yes","website":"http://www.campinggrenzstein.ch"}},"97385114":{"location":[47.6586339,8.9694593],"ct":"CH","tp":"CS","ts":"2023-08-12T16:26:24Z","tX":537,"tY":357,"tags":{"addr:city":"Steckborn","addr:country":"CH","addr:housenumber":"188","addr:postcode":"8266","addr:street":"Seestrasse","caravans":"yes","drinking_water":"yes","name":"Badi Steckborn","power_supply":"yes","shower":"yes","tents":"no","toilets":"yes","website":"https://www.strandbad-steckborn.ch","wheelchair":"yes"}},"112475804":{"location":[47.6463471,8.9240658],"ct":"CH","tp":"CS","ts":"2022-08-09T00:00:50Z","tX":537,"tY":357,"tags":{"addr:city":"Mammern","addr:housenumber":"1","addr:postcode":"8265","addr:street":"Guldifussstrasse","internet_access":"wlan","internet_access:fee":"no","name":"Campingplatz Guldifuss","phone":"+41527411320","tents":"yes","website":"https://www.guldifuss.ch/camping"}},"130583906":{"location":[47.6596596,8.9350607],"ct":"DE","tp":"CS","ts":"2024-09-30T15:33:30Z","tX":537,"tY":357,"tags":{"addr:city":"Öhningen","addr:country":"DE","addr:housenumber":"30","addr:postcode":"78337","addr:street":"Seeweg","addr:suburb":"Wangen","caravans":"yes","dog":"no","email":"camping-wangen@oehningen.de","name":"Campingplatz Wangen","phone":"+49 7735 919675","tents":"yes","website":"https://www.camping-wangen.de/"}},"204594455":{"location":[47.7211275,8.8661492],"ct":"DE","tp":"CR","ts":"2024-07-15T19:08:21Z","tX":537,"tY":357,"tags":{"capacity":"6","fee":"no","power_supply":"yes","source":"bing"}},"279732623":{"location":[47.646417,8.9137842],"ct":"CH","tp":"CS","ts":"2021-05-20T18:06:44Z","tX":537,"tY":357,"tags":{"name":"Seewiese","tents":"yes"}},"304872009":{"location":[47.7366098,8.8997972],"ct":"DE","tp":"CR","ts":"2020-06-29T11:47:37Z","tX":537,"tY":357,"tags":{}},"321501948":{"location":[47.6989459,9.0471514],"ct":"DE","tp":"CR","ts":"2024-10-01T14:27:38Z","tX":537,"tY":357,"tags":{"capacity":"12","fee":"yes","maxstay":"24 hours","motorhome":"yes","name":"Wohnmobilstellplatz Zum Sandseele","opening_hours":"24/7","operator":"Gemeinde Reichenau","power_supply":"yes","reservation":"no","sanitary_dump_station":"yes","stars":"3"}},"350751052":{"location":[47.7283496,9.0277066],"ct":"DE","tp":"CS","ts":"2024-08-13T12:11:48Z","tX":537,"tY":357,"tags":{"access":"no","addr:city":"Reichenau","addr:country":"DE","addr:housenumber":"8","addr:postcode":"78479","addr:street":"Schlafbach","caravans":"no","group_only":"yes","internet_access":"wlan","internet_access:fee":"no","name":"Deutscher Gewerkschaftsbund-Jugendcamp","official_name":"DGB-Jugendcamp","operator":"Deutscher Gewerkschaftsbund","surface":"grass","tents":"yes","website":"http://www.campverein.de"}},"352553159":{"location":[47.7294244,9.0245032],"ct":"DE","tp":"CS","ts":"2024-08-13T12:11:48Z","tX":537,"tY":357,"tags":{"addr:city":"Reichenau","addr:country":"DE","addr:housenumber":"10","addr:postcode":"78479","addr:street":"Schlafbach","caravans":"yes","contact:email":"info@campingplatz-willam.de","contact:fax":"+49 7533 1054","contact:phone":"+49 7533 6211","contact:website":"https://campingplatz-willam.de/","name":"Camping Willam","opening_hours":"Apr 01 - Oct 03","surface":"grass","tents":"yes","wheelchair":"yes"}},"361439202":{"location":[47.7101679,9.079014],"ct":"DE","tp":"CS","ts":"2023-11-01T01:59:54Z","tX":537,"tY":357,"tags":{"addr:city":"Allensbach","addr:housenumber":"30","addr:postcode":"78476","addr:street":"Strandweg","description":"Tent S 6 €, M 8,50 €, L 9,50 €, Person 5,80 €, Motorbike 2 €","email":"info@campingamsee.com","name":"Campingplatz Allensbach","opening_hours":"Mar 15-Oct 15: 09:00-17:00","operator":"Frank Kühnel & Sophia Wiegmann","phone":"+49 7533 9976565","website":"https://campingamsee.com/"}},"367135262":{"location":[47.6567563,8.9568304],"ct":"CH","tp":"CS","ts":"2021-05-20T18:06:44Z","tX":537,"tY":357,"tags":{"addr:city":"Steckborn","addr:postcode":"8266","capacity":"0","name":"Glarisegg","phone":"+41 52 761 23 31","tents":"no"}},"375130508":{"location":[47.701,9.0502996],"ct":"DE","tp":"CR","ts":"2024-09-09T15:29:40Z","tX":537,"tY":357,"tags":{"capacity":"6","fee":"yes","motorhome":"designated","name":"Wohnmobilstellplatz Riedstraße","operator":"Gemeinde Reichenau","power_supply":"no","reservation":"no","sanitary_dump_station":"no"}},"870555707":{"location":[47.5406744,8.8987618],"ct":"CH","tp":"CS","ts":"2022-03-30T10:15:08Z","tX":537,"tY":357,"tags":{"caravans":"yes","dog":"leashed","internet_access":"wlan","name":"Camping Aumühle","opening_hours":"Apr 01-Oct 31","shower":"yes","tents":"yes","toilets":"yes","website":"https://www.cctg.ch/camping-aumuumlhle.html"}},"878970344":{"location":[47.7167422,8.9407804],"ct":"DE","tp":"CR","ts":"2024-10-01T14:27:38Z","tX":537,"tY":357,"tags":{"capacity":"15","fee":"yes","internet_access":"wlan","maxstay":"72 hours","motorhome":"yes","name":"Wohnmobilstellplatz Mooswald","opening_hours":"24/7","operator":"Gemeinde Moos","power_supply":"yes","reservation":"no","sanitary_dump_station":"yes","stars":"3"}},"907803417":{"location":[47.6462456,8.9114715],"ct":"CH","tp":"CS","ts":"2021-02-16T17:21:28Z","tX":537,"tY":357,"tags":{"name":"Hächler"}},"1201589323":{"location":[47.6875349,8.9936305],"ct":"DE","tp":"CR","ts":"2024-10-23T13:27:14Z","tX":537,"tY":357,"tags":{"capacity":"18","drinking_water":"yes","fee":"25","name":"Camping Horn","power_supply":"yes","sanitary_dump_station":"yes","toilets":"no","wheelchair":"no"}},"1201959261":{"location":[47.7205897,8.8628084],"ct":"DE","tp":"CR","ts":"2024-10-01T14:27:38Z","tX":537,"tY":357,"tags":{"access":"yes","capacity":"24","dog":"yes","fee":"yes","maxstay":"72 hours","motorhome":"yes","name":"Wohnmobilstellplatz am Naturbad Aachtal","power_supply":"yes","sanitary_dump_station":"yes","stars":"4","surface":"gravel","website":"https://www.rielasingen-worblingen.de/de/Tourismus-Freizeit/Naturbad-Aachtal/Wohnmobilstellplaetze"}},"1263661693":{"location":[47.5730459,9.0494327],"ct":"CH","tp":"CR","ts":"2024-03-18T08:06:54Z","tX":537,"tY":357,"tags":{"access":"private","permanent_camping":"only"}},"1435704747":{"location":[47.6584963,9.1229479],"ct":"CH","tp":"CR","ts":"2024-04-28T14:51:54Z","tX":537,"tY":357,"tags":{"addr:city":"Tägerwilen","addr:country":"CH","addr:housenumber":"12","addr:postcode":"8274","addr:street":"Hauptstrasse","email":"oase.camping@hotmail.com","fee":"yes","internet_access":"wlan","name":"Oase","name:de":"Camping Oase","name:en":"Camping Oase","name:fr":"Camping Oase","phone":"+41 71 669 17 17","website":"http://www.camping-oase.ch"}},"2205917495":{"location":[47.7388455,8.9533864],"ct":"DE","tp":"SD","ts":"2015-04-29T03:46:23Z","tX":537,"tY":357,"tags":{"sanitary_dump_station:accepted":"black_water"}},"2435752029":{"location":[47.7307902,9.114407],"ct":"DE","tp":"CR","ts":"2013-08-28T20:10:12Z","tX":537,"tY":357,"tags":{"capacity":"50","fee":"yes","name":"Wohnmobilstellplatz Dettingen","power_supply":"yes"}},"2435752030":{"location":[47.743423,9.1365266],"ct":"DE","tp":"CR","ts":"2016-04-27T17:32:07Z","tX":537,"tY":357,"tags":{"fee":"yes","name":"Wohnmobilstellplatz Gebhardshof","operator":"Gebhardshof Wallhausen","power_supply":"yes"}},"8750742676":{"location":[47.6507216,8.9419924],"ct":"CH","tp":"CS","ts":"2023-02-04T00:45:38Z","tX":537,"tY":357,"tags":{"name":"Hof Rollirain","tents":"yes","website":"https://www.rollirain.ch/"}},"9029238988":{"location":[47.6680987,8.984685],"ct":"CH","tp":"CR","ts":"2024-11-06T06:58:10Z","tX":537,"tY":357,"tags":{"addr:city":"Steckborn","addr:postcode":"8266","addr:street":"Schützengrabenstrasse","capacity":"8","check_date":"2024-09-29","fee":"yes","maxstay":"4 days","motorhome":"yes","name":"Stellplatz Schützengraben","operator":"Stadt Steckborn","power_supply":"yes","sanitary_dump_station":"no"}},"12188956991":{"location":[47.666971,8.9803301],"ct":"CH","tp":"CR","ts":"2024-09-30T15:33:30Z","tX":537,"tY":357,"tags":{"addr:city":"Steckborn","addr:housenumber":"10","addr:postcode":"8266","addr:street":"Frauenfelderstrasse","capacity":"5","fee":"yes","internet_access":"no","maxstay":"48 hours","motorhome":"yes","name":"P3 Seeschulhaus","opening_hours":"Mo-Fr 12:00-07:00; Sa-Su 00:00-24:00","power_supply":"no","sanitary_dump_station":"no"}},"9672343483":{"location":[47.6632597,8.8395137],"ct":"CH","tp":"SD","ts":"2022-04-17T17:26:29Z","tX":537,"tY":357,"tags":{"access":"private","operator":"Camping Wagenhausen","water_point":"yes"}},"4881805822":{"location":[47.7104669,9.0809617],"ct":"DE","tp":"CR","ts":"2017-05-28T16:16:27Z","tX":537,"tY":357,"tags":{}},"6968424589":{"location":[47.71072,9.0797951],"ct":"DE","tp":"SD","ts":"2019-11-12T08:40:52Z","tX":537,"tY":357,"tags":{}},"8199705605":{"location":[47.7167159,8.9412487],"ct":"DE","tp":"SD","ts":"2024-04-07T19:59:03Z","tX":537,"tY":357,"tags":{}},"8655677760":{"location":[47.6989114,9.0469766],"ct":"DE","tp":"SD","ts":"2021-04-22T13:47:54Z","tX":537,"tY":357,"tags":{}},"11143635831":{"location":[47.6884865,8.9957482],"ct":"DE","tp":"SD","ts":"2024-08-23T10:05:51Z","tX":537,"tY":357,"tags":{"access":"customers","fee":"no","sanitary_dump_station:basin":"yes","sanitary_dump_station:round_drain":"yes"}},"11143679203":{"location":[47.7211226,8.8639484],"ct":"DE","tp":"SD","ts":"2023-08-25T12:56:48Z","tX":537,"tY":357,"tags":{"sanitary_dump_station:basin":"yes","sanitary_dump_station:round_drain":"yes"}},"11386269636":{"location":[47.7397203,9.0015073],"ct":"DE","tp":"SD","ts":"2023-11-30T19:40:26Z","tX":537,"tY":357,"tags":{"access":"customers","sanitary_dump_station:round_drain":"yes"}},"11736555655":{"location":[47.7380111,8.9805942],"ct":"DE","tp":"SD","ts":"2024-10-22T12:42:34Z","tX":537,"tY":357,"tags":{"name":"Holiday Clean"}},"11799210752":{"location":[47.7043005,9.0979769],"ct":"DE","tp":"SD","ts":"2024-04-07T07:13:20Z","tX":537,"tY":357,"tags":{}}}