{"27545237":{"location":[47.4338531,8.8280282],"ct":"CH","tp":"CS","ts":"2015-10-04T16:45:39Z","tX":537,"tY":358,"tags":{"name":"Campingplatz Wildberg","official_name":"Campingplatz Weid","website":"http://www.campingwildberg.ch"}},"37882331":{"location":[47.3910609,8.8591044],"ct":"CH","tp":"CS","ts":"2023-11-05T03:53:30Z","tX":537,"tY":358,"tags":{"capacity":"40","caravans":"yes","cash_withdrawal:fee":"yes","email":"info@camping-saland.ch","name":"Camping Saland","operator":"U. und R. Maurer","phone":"+41 52 386 21 18","stars":"4","tents":"yes","website":"https://www.camping-saland.ch/"}},"105142362":{"location":[47.4107303,8.9355744],"ct":"CH","tp":"CS","ts":"2023-11-05T03:53:13Z","tX":537,"tY":358,"tags":{"name":"Campingplatz Waldruh","website":"https://camping-residenz-waldruh.ch/"}},"230690395":{"location":[47.3578021,8.811134],"ct":"CH","tp":"CS","ts":"2024-08-03T10:05:15Z","tX":537,"tY":358,"tags":{"name":"Camping Waldhof","website":"https://www.campingwaldhof.ch/"}},"231502461":{"location":[47.2866287,8.9968408],"ct":"CH","tp":"CS","ts":"2023-05-10T18:13:14Z","tX":537,"tY":358,"tags":{"capacity:permanent_camping":"190","capacity:pitches":"10","caravans":"yes","fee":"yes","name":"Atzmännig","operator":"Bergbahn Atzmännig","permanent_camping":"yes","tents":"yes","website":"https://www.atzmaennig.ch/de/uebernachten/camping/"}},"352011710":{"location":[47.422841,8.8962303],"ct":"CH","tp":"CS","ts":"2023-01-02T17:04:01Z","tX":537,"tY":358,"tags":{"access":"customers","addr:city":"Turbenthal","addr:housenumber":"958","addr:postcode":"8488","addr:street":"Hofstetten","backcountry":"no","description":"Es liegt versteckt in einer grossen, sonnigen Waldlichtung, die eine natürliche Abgrenzung ohne Zäune zur \"Aussenwelt\" bietet. International guests INF membership required.","electricity":"no","fee":"yes","membership":"yes","name":"Naturistengelände \"die neue Zeit\"","naturism":"yes","note":"Es fehlen die expliziten Positionen für sport=tennis","nudism":"obligatory","openfire":"yes","opening_hours":"May-Sep","pets":"leashed","phone":"+41 52 385 11 16","reservation":"recommended","sauna":"yes","shower":"yes","swimming_pool":"yes","website":"https://www.natuerlich-sitzberg.ch"}},"593436180":{"location":[47.3962825,8.8265311],"ct":"CH","tp":"CR","ts":"2018-06-03T14:44:27Z","tX":537,"tY":358,"tags":{"capacity":"1"}},"1395498188":{"location":[47.3579492,9.114541],"ct":"CH","tp":"CS","ts":"2025-06-15T12:06:20Z","tX":537,"tY":358,"tags":{"access":"private","backcountry":"yes"}},"10863747811":{"location":[47.4492024,8.900184],"ct":"CH","tp":"CS","ts":"2023-05-11T19:45:53Z","tX":537,"tY":358,"tags":{"access":"customers","capacity:persons":"25","fee":"yes","group_only":"yes","name":"Lagerplatz Bichelsee","operator":"Stiftung Pfadfinderheim Winterthur","scout":"yes","website":"https://www.pfadiheime-winterthur.ch/lagerplatz/8/bichelsee"}},"10955947725":{"location":[47.2912796,8.8479178],"ct":"CH","tp":"CS","ts":"2023-06-05T23:38:17Z","tX":537,"tY":358,"tags":{"addr:city":"Hinwil","addr:housenumber":"6","addr:postcode":"8340","addr:street":"Breitacherstrasse","caravans":"yes","description":"Es gibt auch Unterkünfte auf dem Hof. Weitere Infos zu den Stellplätzen sind auf Camping-Websites zu finden.","fee":"yes","name":"Breitacher","operator":"HR. Schwarzenbach","tents":"yes","website":"https://www.hofladenbreitacher.ch/"}},"8883315185":{"location":[47.3659979,9.0922021],"ct":"CH","tp":"CR","ts":"2021-07-01T15:31:03Z","tX":537,"tY":358,"tags":{"capacity":"10","fee":"yes","name":"Stellplatz Berghof","phone":"+41719831572","power_supply":"yes","website":"https://www.berghof-ag.ch/"}},"8883315186":{"location":[47.3954206,9.0017575],"ct":"CH","tp":"CR","ts":"2024-03-21T10:47:33Z","tX":537,"tY":358,"tags":{"capacity":"10","caravans":"no","fee":"yes","name":"Wohmobil-Stellplatz Iddaburg","phone":"+41797387017","power_supply":"yes","tents":"no","website":"https://wohnmobil-stellplatz.ch/"}},"8850402461":{"location":[47.3642306,9.07434],"ct":"CH","tp":"SD","ts":"2021-06-20T13:19:04Z","tX":537,"tY":358,"tags":{"description":"Grauwasser-Ablass draussen, Frischwasserbezug in der Waschhalle (Münzautomat oder Karte des Betreibers)Fäkalienentsorgung in der Waschhalle24/7 zugänglich","name":"Caravanstation, Bütschwil","note":"WML CH"}}}