{"4120531":{"location":[47.221622,8.8268376],"ct":"CH","tp":"CS","ts":"2014-10-19T14:14:54Z","tX":537,"tY":359,"tags":{"addr:city":"Rapperswil","addr:housenumber":"70","addr:street":"Schönbodenstrasse","name":"Lido"}},"9157272":{"location":[47.216379,8.8814992],"ct":"CH","tp":"CS","ts":"2022-05-15T20:20:25Z","tX":537,"tY":359,"tags":{"name":"Bollingen SG"}},"26458790":{"location":[47.2174012,8.843902],"ct":"CH","tp":"CS","ts":"2024-09-27T16:13:02Z","tX":537,"tY":359,"tags":{"capacity":"140","caravans":"no","drinking_water":"no","name":"Campingplatz Stampf","tents":"yes","website":"https://www.rapperswil-jona.ch/naherholungimfreien/7647"}},"30151715":{"location":[47.0965529,8.8112459],"ct":"CH","tp":"CS","ts":"2019-06-16T18:10:08Z","tX":537,"tY":359,"tags":{"name":"Camping Euthal","website":"https://www.camping-euthal.ch"}},"167354110":{"location":[47.1390951,8.7932008],"ct":"CH","tp":"CS","ts":"2019-03-24T17:28:26Z","tX":537,"tY":359,"tags":{"name":"Grüene Aff","source":"Bing","website":"https://www.grueneaff.ch/"}},"236002823":{"location":[47.0803305,9.094948],"ct":"CH","tp":"CR","ts":"2021-08-14T15:57:12Z","tX":537,"tY":359,"tags":{"access":"yes","cabins":"no","internet_access":"no","name":"Stellplatz Fronalp 2","parking":"surface","permanent_camping":"no","power_supply":"no","static_caravans":"no","supervised":"no","tents":"no","website":"https://glarnerland.ch/de/map/detail/wohnmobil-stellplatz-1-und-2-fronalp-332e60a1-564f-4c68-85e3-442075d28ecd.html"}},"240639819":{"location":[47.0449931,8.7999408],"ct":"CH","tp":"CS","ts":"2020-05-03T17:19:01Z","tX":537,"tY":359,"tags":{"name":"Forellenhof","stars":"3"}},"271630004":{"location":[47.2211375,8.7922483],"ct":"CH","tp":"CS","ts":"2024-04-21T14:39:23Z","tX":537,"tY":359,"tags":{"access":"customers","capacity:tents":"20","caravans":"no","name":"Camping Insel Lützelau","static_caravans":"no","tents":"yes","website":"https://www.insel-luetzelau.ch/Camping/"}},"287287160":{"location":[47.1275835,9.110722],"ct":"CH","tp":"CS","ts":"2021-08-06T15:20:55Z","tX":537,"tY":359,"tags":{"email":"gaesi@zkgl.ch","name":"Gäsi","operator":"Zeltklub Genossenschaft Glarnerland","phone":"+41 79 153 71 08","tents":"yes","website":"http://www.zkgl.ch/gsi.htm"}},"370155317":{"location":[47.2637793,9.0425482],"ct":"CH","tp":"CS","ts":"2024-11-03T09:43:24Z","tX":537,"tY":359,"tags":{"addr:city":"Ricken","capacity":"2","name":"Camping Grünenfelder Ricken"}},"370155466":{"location":[47.2650046,9.0442227],"ct":"CH","tp":"CS","ts":"2023-01-21T19:39:25Z","tX":537,"tY":359,"tags":{"addr:city":"Ricken","capacity":"2","name":"Camping Adlerwiese Ricken"}},"967387503":{"location":[47.0825382,9.0933897],"ct":"CH","tp":"CR","ts":"2021-08-14T15:57:12Z","tX":537,"tY":359,"tags":{"access":"yes","cabins":"no","internet_access":"no","name":"Stellplatz Fronalp 1","parking":"surface","permanent_camping":"no","power_supply":"no","static_caravans":"no","supervised":"no","tents":"no","website":"https://glarnerland.ch/de/map/detail/wohnmobil-stellplatz-1-und-2-fronalp-332e60a1-564f-4c68-85e3-442075d28ecd.html"}},"3812678638":{"location":[47.1073904,9.0047259],"ct":"CH","tp":"CS","ts":"2021-05-06T17:41:14Z","tX":537,"tY":359,"tags":{"camp_type":"established","caravans":"yes","drinking_water":"yes","fee":"yes","lit":"no","motor_vehicle":"yes","name":"Matt","operator":"Alpkorporation Vorderschwändi","payment:cash":"yes","reservation":"no","shower":"no","tents":"yes","toilets":"yes"}},"4235737784":{"location":[47.0853625,8.9987662],"ct":"CH","tp":"CS","ts":"2023-08-11T15:33:00Z","tX":537,"tY":359,"tags":{"addr:city":"Näfels","addr:postcode":"8752","addr:street":"Oberseetal","backcountry":"yes","cabins":"no","camp_type":"informal","caravans":"no","fee":"yes","motor_vehicle":"no","name":"Zelt- und Campingplatz Obersee","operator":"Gemeinde Glarus Nord – Liegenschaften","permanent_camping":"no","phone":"+41586117411","reservation":"no","static_caravans":"no","swimming_pool":"yes","tents":"yes","website":"https://glarusnord-walensee.ch/de/map/detail/zelt-und-campingplatz-obersee-99f24083-4245-4bd2-be7a-95e7ca7c7542.html"}},"12209364968":{"location":[47.2210721,8.8917426],"ct":"CH","tp":"CS","ts":"2024-10-05T12:41:38Z","tX":537,"tY":359,"tags":{"addr:city":"Bollingen","addr:housename":"411","addr:postcode":"8715","addr:street":"Tschuppis","capacity:caravans":"1","caravans":"yes","contact:email":"tschuppis@mail.ch","drinking_water":"yes","hot_water":"yes","kitchen":"yes","name":"Tschuppis","power_supply":"yes","shower":"yes","static_caravans":"yes","static_tents":"yes","tents":"yes","toilets":"yes","washing_machine":"yes","website":"https://www.tschuppistipi.com/"}},"7285069085":{"location":[47.0511273,9.0641204],"ct":"CH","tp":"CR","ts":"2023-01-20T11:30:01Z","tX":537,"tY":359,"tags":{"capacity":"5","name":"Buchholz","opening_hours":"24/7"}},"7577040613":{"location":[47.1085888,9.0640251],"ct":"CH","tp":"CR","ts":"2021-04-08T16:48:43Z","tX":537,"tY":359,"tags":{"capacity":"20","fee":"yes","internet_access":"wlan"}},"8656134170":{"location":[47.0876021,9.0252829],"ct":"CH","tp":"CR","ts":"2021-04-22T16:09:25Z","tX":537,"tY":359,"tags":{}}}