{"18096233":{"location":[46.4036904,8.7936937],"ct":"CH","tp":"CS","ts":"2024-09-27T17:40:36Z","tX":537,"tY":362,"tags":{"from":"Passo di Piatto","network":"lwn","osmc:symbol":"red:white:red_bar","route":"hiking","symbol":"weiss-rot-weiss","to":"Cabanna Alpe Sponda"}},"26860562":{"location":[46.5376358,8.8336443],"ct":"CH","tp":"CS","ts":"2023-11-10T22:36:48Z","tX":537,"tY":362,"tags":{"addr:postcode":"6718","addr:street":"Acquacalda","bbq":"yes","cabins":"yes","camp_site":"serviced","capacity:pitches":"20","caravans":"yes","drinking_water":"yes","email":"centro.acquacalda@pronatura.ch","fee":"yes","motorhome":"yes","name":"Centro Pro Natura Lucomagno","name:de":"Pro Natura Zentrum Lucomagno","phone":"+41 91 872 26 10","picnic_table":"yes","power_supply":"yes","shower":"yes","tents":"yes","toilets":"yes","website":"https://www.pronatura-lucomagno.ch/"}},"26860662":{"location":[46.4707048,8.816993],"ct":"CH","tp":"CS","ts":"2024-10-27T13:33:51Z","tX":537,"tY":362,"tags":{"caravans":"yes","drinking_water":"yes","email":"schroeder.camp@vtxmail.ch","fax":"+41 91 866 00 61","name":"Gottardo","opening_hours":"Mar 01-Nov 31","phone":"+41 91 866 15 62","power_supply":"yes","sanitary_dump_station":"yes","shower":"yes","tents":"yes","toilets":"yes","website":"https://www.campingottardo.ch/"}},"726776003":{"location":[46.4308773,8.8456703],"ct":"CH","tp":"CR","ts":"2024-05-11T21:45:39Z","tX":537,"tY":362,"tags":{"capacity":"5","drinking_water":"no","fee":"yes","internet_access":"no","name:signed":"no","power_supply":"no","sanitary_dump_station":"no","toilets":"yes"}},"799414424":{"location":[46.4602657,8.9416057],"ct":"CH","tp":"CS","ts":"2020-05-03T16:40:48Z","tX":537,"tY":362,"tags":{"name":"Acquarossa","stars":"2"}},"1134504129":{"location":[46.4836459,8.799589],"ct":"CH","tp":"CS","ts":"2024-04-19T09:16:16Z","tX":537,"tY":362,"tags":{"name":"Camping Piantett"}},"1317964778":{"location":[46.5276825,8.9371539],"ct":"CH","tp":"CS","ts":"2024-09-24T19:35:07Z","tX":537,"tY":362,"tags":{"addr:city":"Olivone","addr:housenumber":"12","addr:postcode":"6718","addr:street":"via Oltera","caravans":"yes","email":"camping.olivone@tcs.ch","fee":"yes","name":"TCS Camping Olivone","opening_hours":"Jan-Dec; Mo-Su 09:00-20:00","operator":"Touring Club Schweiz","phone":"+41 91 872 12 66","website":"https://www.tcs.ch/de/camping-reisen/camping-insider/campingplaetze/tcs-campingplaetze/campingplatz-olivone.php"}},"8931062220":{"location":[46.3582956,9.1271706],"ct":"CH","tp":"CS","ts":"2023-08-16T10:50:39Z","tX":537,"tY":362,"tags":{"addr:city":"Rossa","addr:postcode":"6548","caravans":"no","charge":"2.50 CHF","fee":"yes","name":"Aug da Ross","tents":"yes"}},"8931069033":{"location":[46.3309085,9.1207868],"ct":"CH","tp":"CS","ts":"2023-08-05T15:33:54Z","tX":537,"tY":362,"tags":{"addr:city":"Cauco","addr:postcode":"6546","caravans":"no","drinking_water":"yes","name":"Prato della Monda","tents":"yes","website":"https://www.calancatal.ch/it/affitto/prato-della-monda-prato-della-casa-del-pizzo-e-campeggio-per-gruppi.html"}},"8747425931":{"location":[46.54644,8.81875],"ct":"CH","tp":"CR","ts":"2021-05-19T21:06:23Z","tX":537,"tY":362,"tags":{"capacity":"10","description":"Sommerhalbjahr 1.4. - 31.10., Parkplatz auch f√ºr PW","fee":"CHF 10.-","name":"Stellplatz Alpe Casaccia"}},"4797929221":{"location":[46.4449836,8.8326218],"ct":"CH","tp":"SD","ts":"2020-09-24T17:50:52Z","tX":537,"tY":362,"tags":{"access":"yes","fee":"no","power_supply":"no","sanitary_dump_station":"yes","water_point":"yes"}},"4797932621":{"location":[46.4470437,8.8300278],"ct":"CH","tp":"SD","ts":"2023-07-12T19:33:20Z","tX":537,"tY":362,"tags":{"access":"yes","fee":"no","water_point":"yes"}},"12197646056":{"location":[46.5284026,8.9377264],"ct":"CH","tp":"SD","ts":"2024-09-24T19:35:07Z","tX":537,"tY":362,"tags":{}}}