{"13161934":{"location":[46.154963,8.8012136],"ct":"CH","tp":"CS","ts":"2023-11-04T02:46:23Z","tX":537,"tY":363,"tags":{"addr:city":"Locarno","addr:housenumber":"27","addr:postcode":"6600","addr:street":"Via Gioacchino Respini","camp_site":"deluxe","caravans":"yes","internet_access":"wlan","name":"Delta Camping","power_supply":"sev_1011","shower":"yes","tents":"yes","website":"https://campingdelta.ch/"}},"15754043":{"location":[46.0857176,8.920821],"ct":"CH","tp":"CS","ts":"2023-04-22T18:04:54Z","tX":537,"tY":363,"tags":{"caravans":"yes","email":"ufficio@campingpalazzina.ch","internet_access":"no","motorhome":"yes","name":"Camping Palazzina","opening_hours":"Mar 19 - Oct 30","operator":"Famiglia Scoglio","phone":"+41 91 946 14 67; +41 79 332 01 06","shower":"yes","smoking":"yes","tents":"yes","toilets":"yes","website":"https://www.campingpalazzina.ch/","wheelchair":"yes"}},"54564817":{"location":[46.1674313,8.8543911],"ct":"CH","tp":"CS","ts":"2023-02-04T16:30:30Z","tX":537,"tY":363,"tags":{"addr:city":"Tenero","addr:postcode":"6598","addr:street":"Via alle Brere","caravans":"yes","dog":"no","internet_access":"yes","internet_access:fee":"no","name":"Camping Campofelice","power_supply":"cee_17_blue;sev_1011","quiet_time":"22:30-07:00","stars":"5","tents":"yes","website":"https://www.campofelice.ch/"}},"182669443":{"location":[46.0733412,8.9299779],"ct":"CH","tp":"CS","ts":"2023-04-22T18:03:02Z","tX":537,"tY":363,"tags":{"cabins":"yes","caravans":"t","email":"campeggiotaverne@gmx.ch","internet_access":"no","name":"Campeggio Taverne","operator":"Familie Ulrich Bösiger","phone":"+41 91 945 11 98","shower":"yes","smoking":"yes","tents":"yes","toilets":"yes","website":"https://campeggiotaverne.ch/","wheelchair":"yes"}},"291375878":{"location":[46.1691884,8.8526659],"ct":"CH","tp":"CS","ts":"2024-05-26T09:12:02Z","tX":537,"tY":363,"tags":{"addr:city":"Tenero","addr:housenumber":"2","addr:postcode":"6598","addr:street":"Via Lido","cabins":"yes","caravans":"yes","drinking_water":"yes","fax":"+41 91 745 43 18","name":"CLM - Camping Lago Maggiore","opening_hours":"Feb 15- Nov 30","operator":"Famiglia Grassi","phone":"+41 91 745 18 48","shower":"yes","tents":"yes","toilets":"yes","website":"https://www.clm.ch/"}},"291377893":{"location":[46.1729368,8.8465234],"ct":"CH","tp":"CS","ts":"2023-11-04T02:45:28Z","tX":537,"tY":363,"tags":{"addr:city":"Tenero","addr:postcode":"6598","addr:street":"Via Roncaccio","email":"info@camping-miralago.ch","internet_access":"wlan","internet_access:fee":"no","internet_access:ssid":"Camping_Miralago_Public_WIFI","name":"Camping Miralago","operator":"Caravan Camping Miralago S.A.","phone":"+41 91 745 12 55","website":"https://www.camping-miralago.ch/"}},"291377896":{"location":[46.1749356,8.8453235],"ct":"CH","tp":"CS","ts":"2023-11-04T02:46:04Z","tX":537,"tY":363,"tags":{"addr:city":"Tenero","addr:housenumber":"32","addr:postcode":"6598","addr:street":"Via Mappo","email":"info@campingtamaro.ch","fax":"+41 91 745 66 36","motorhome":"yes","name":"Camping Tamaro Resort","operator":"Famiglia Zanolini","phone":"+41 91 745 21 61","shower":"yes","toilets":"yes","website":"https://www.campingtamaro.ch/","wheelchair":"yes"}},"301707178":{"location":[46.1758735,8.8438232],"ct":"CH","tp":"CS","ts":"2023-12-16T13:46:04Z","tX":537,"tY":363,"tags":{"addr:city":"Tenero","addr:postcode":"6598","addr:street":"Via Mappo","caravans":"yes","email":"camping@lidomappo.ch","fax":"+41 91 745 48 08","motorhome":"yes","name":"Lido Mappo","phone":"+41 91 745 14 37","shower":"yes","tents":"yes","toilets":"yes","website":"https://www.lidomappo.ch/"}},"301707179":{"location":[46.1718681,8.8467269],"ct":"CH","tp":"CS","ts":"2023-11-04T02:45:54Z","tX":537,"tY":363,"tags":{"addr:city":"Tenero","addr:housenumber":"11","addr:postcode":"6598","addr:street":"Via Naviglio","caravans":"yes","email":"info@camping-rivabella.ch","fax":"+41 91 745 66 38","name":"Rivabella","operator":"Famiglia Tognetti","phone":"+41 79 207 02 80","shower":"yes","tents":"yes","toilets":"yes","website":"https://www.camping-rivabella.ch/"}},"305359164":{"location":[46.2655668,9.0189323],"ct":"CH","tp":"CS","ts":"2023-05-19T13:46:31Z","tX":537,"tY":363,"tags":{"addr:city":"Claro","addr:housenumber":"2","addr:postcode":"6702","addr:street":"Al Campeggio","caravans":"yes","fax":"+41 91 863 40 22","fee":"yes","internet_access":"wlan","internet_access:fee":"no","name":"Al Censo","phone":"+41 91 863 17 53","swimming_pool":"yes","tents":"yes","website":"http://www.alcenso.ch"}},"305359165":{"location":[46.211519,9.0379388],"ct":"CH","tp":"CS","ts":"2020-10-14T12:03:02Z","tX":537,"tY":363,"tags":{"email":"info@campingbellinzona.ch","name":"Camping Bellinzona","phone":"+41 91 829 11 18","swimming_pool":"yes","toilets:wheelchair":"no","washing_machine":"yes","website":"http://www.campingbellinzona.ch","wheelchair":"limited"}},"326453705":{"location":[46.170297,8.9327611],"ct":"CH","tp":"CS","ts":"2023-11-04T02:46:46Z","tX":537,"tY":363,"tags":{"addr:city":"Gudo","addr:housenumber":"3","addr:postcode":"6515","addr:street":"Al Gaggioletto","name":"Isola","website":"https://www.camping-isola.ch/"}},"328276660":{"location":[46.1688312,8.9144969],"ct":"CH","tp":"CS","ts":"2024-08-20T17:23:19Z","tX":537,"tY":363,"tags":{"addr:city":"Cugnasco","addr:postcode":"6516","capacity:pitches":"206","caravans":"yes","email":"camping.riarena@bluewin.ch","fax":"+41 91 859 28 85","name":"Park Camping Riarena","operator":"Beat Koller","phone":"+41 91 859 16 88","shower":"yes","stars":"4","tents":"yes","toilets":"yes","website":"https://www.camping-riarena.ch/"}},"446281898":{"location":[46.1424459,8.8382874],"ct":"CH","tp":"CS","ts":"2023-08-09T07:18:40Z","tX":537,"tY":363,"tags":{"caravans":"yes","email":"info@campingbellavista.ch","internet_access":"yes","name":"Bellavista","opening_hours":"Apr 14 - Oct 15","phone":"+41 91 795 14 77","shower":"yes","tents":"yes","toilets":"yes","website":"http://www.campingbellavista.ch"}},"480079830":{"location":[46.2012491,9.017337],"ct":"CH","tp":"CR","ts":"2021-10-07T06:56:29Z","tX":537,"tY":363,"tags":{"addr:city":"Bellinzona","addr:postcode":"6500","addr:street":"i Lòtt","capacity":"7","charge":"CHF 20/24h","fee":"yes","name":"Area di sosta per camper Bellinzona","name:de":"Parkplatz für Camper Bellinzona","name:en":"Parking area for campers Bellinzona","name:fr":"Aire de stationnement pour les camper Bellinzona","power_supply":"yes","sanitary_dump_station":"yes"}},"580378439":{"location":[46.1383966,8.9074056],"ct":"CH","tp":"CR","ts":"2023-11-04T02:45:56Z","tX":537,"tY":363,"tags":{"capacity":"80","charge":"CHF 24.-","email":"info@montetamaro.ch","fee":"yes","name":"Monte Ceneri","phone":"+41 91 946 23 03","power_supply":"yes","sanitary_dump_station":"yes","website":"https://www.camperareatamaro.ch/"}},"799409634":{"location":[46.1531657,8.9573959],"ct":"CH","tp":"CS","ts":"2024-03-30T18:11:16Z","tX":537,"tY":363,"tags":{"caravans":"yes","drinking_water":"yes","name":"Joghi e Bubu","phone":"+41 79 209 50 41","power_supply":"yes","sanitary_dump_station":"yes","shower":"yes","stars":"2","tents":"yes","toilets":"yes"}},"1099494631":{"location":[46.1733322,8.9380458],"ct":"CH","tp":"CS","ts":"2022-10-01T07:36:27Z","tX":537,"tY":363,"tags":{"addr:city":"Gudo","addr:postcode":"6515","caravans":"yes","internet_access":"wlan","internet_access:fee":"no","name":"La Serta","opening_hours":"Mar 25-Oct 31","shower":"yes","tents":"yes","toilets":"yes","website":"https://www.la-serta.ch/","wheelchair":"no"}},"1126382567":{"location":[46.1706743,8.8532949],"ct":"CH","tp":"CS","ts":"2023-01-02T00:09:52Z","tX":537,"tY":363,"tags":{"name":"Campeggio CST","name:de":"Zeltplatz CST","name:fr":"Camping CST"}},"6440522484":{"location":[46.2776137,9.0007155],"ct":"CH","tp":"CS","ts":"2019-05-01T12:34:08Z","tX":537,"tY":363,"tags":{"addr:city":"Cresciano","addr:housenumber":"4","addr:postcode":"6705","addr:street":"Al Quatro","fee":"yes","name":"Agritourismo La Finca","website":"https://www.lafinca.ch/"}},"7983055758":{"location":[46.1641288,8.7988585],"ct":"CH","tp":"CR","ts":"2020-10-08T10:48:45Z","tX":537,"tY":363,"tags":{"addr:city":"Locarno","addr:housenumber":"20","addr:postcode":"6600","addr:street":"Via della Pace","capacity":"22","description":"CHF 20.- pro 24h und max. Stopp 24h.","fee":"yes","name":"Stellplatz Locarno","power_supply":"no","sanitary_dump_station":"yes"}},"8747425928":{"location":[46.23109,9.09966],"ct":"CH","tp":"CR","ts":"2022-05-30T18:00:20Z","tX":537,"tY":363,"tags":{"capacity":"6","description":"ganzjährig","email":"camperstoparea@gmail.com","fee":"CHF 15.-","name":"Stellplatz San Vittore","phone":"+41 76 536 12 94","power_supply":"yes","website":"https://www.camperstop.ch"}},"8850402449":{"location":[46.1639344,8.7986349],"ct":"CH","tp":"SD","ts":"2021-06-20T13:19:04Z","tX":537,"tY":363,"tags":{"description":"Achtung: Höhenbeschränkung (2.8 m). Übernachtungsmöglichkeit (Ticketautomat)","name":"Stellplatz Locarno, Via della Pace 20, Locarno","note":"WML CH"}},"8850402463":{"location":[46.201106,9.0172724],"ct":"CH","tp":"SD","ts":"2023-06-23T11:25:58Z","tX":537,"tY":363,"tags":{"description":"WC-Kasette und Grauwasser gratis / Frischwasser gegen Einwurf eines Jetons - zu beziehen an einem Automaten (1.-/20 l).","name":"Area di sosta per camper Bellinzona","name:de":"Parkplatz für Camper Bellinzona","name:en":"Parking area for campers Bellinzona","name:fr":"Aire de stationnement pour les camper Bellinzona","note":"WML CH"}},"9040366765":{"location":[46.1555445,8.8016635],"ct":"CH","tp":"SD","ts":"2021-08-27T11:26:10Z","tX":537,"tY":363,"tags":{}},"10732330990":{"location":[46.1390125,8.9068055],"ct":"CH","tp":"SD","ts":"2023-03-13T09:50:41Z","tX":537,"tY":363,"tags":{"name":"Stellplatz Rivera Entsorgung"}}}