{"2635077":{"location":[46.0256788,9.1252971],"ct":"IT","tp":"CS","ts":"2017-04-22T19:40:14Z","tX":537,"tY":364,"tags":{"addr:city":"Porlezza","addr:housenumber":"56","addr:postcode":"22018","addr:street":"Via Osteno","name":"Camping Darna","website":"http://www.campingdarna.com"}},"2635078":{"location":[46.0286716,9.1263879],"ct":"IT","tp":"CR","ts":"2024-04-19T09:53:43Z","tX":537,"tY":364,"tags":{"addr:city":"Porlezza","addr:country":"IT","addr:housenumber":"40","addr:postcode":"22018","addr:street":"Via Osteno","contact:facebook":"https://www.facebook.com/internationalcampingporlezza/","contact:phone":"+39 338 530 3876","name":"International Camping Porlezza","static_caravans":"only"}},"8492802":{"location":[45.9281816,8.9767832],"ct":"CH","tp":"CS","ts":"2019-07-22T16:17:34Z","tX":537,"tY":364,"tags":{"addr:city":"Melano","addr:housenumber":"12","addr:postcode":"6818","addr:street":"Via Tannini","email":"camping@montegeneroso.ch","fee":"yes","internet_access":"wlan","internet_access:fee":"no","internet_access:ssid":"Camping MG","name":"Monte Generoso","phone":"+41 91 649 83 33","website":"http://campingmontegeneroso.ch"}},"8492842":{"location":[45.9233431,8.9792646],"ct":"CH","tp":"CS","ts":"2023-11-24T10:33:05Z","tX":537,"tY":364,"tags":{"addr:city":"Melano","addr:housenumber":"26","addr:postcode":"6818","addr:street":"Via Pedreta","capacity":"366","caravans":"yes","email":"info@camping-paradiso.ch","fee":"yes","image":"File:Campingplatz Paradiso - panoramio.jpg","internet_access":"wlan","internet_access:fee":"no","name":"Camping Paradiso Lago","operator":"Camping Paradiso Lago","phone":"+41 91 648 28 63","sanitary_dump_station":"customers","tents":"yes","website":"https://camping-paradiso.ch/"}},"173073407":{"location":[45.8888835,8.9485333],"ct":"CH","tp":"CS","ts":"2023-06-08T08:30:22Z","tX":537,"tY":364,"tags":{"addr:city":"Meride","name":"Monte San Giorgio"}},"246544440":{"location":[45.9590661,9.0732511],"ct":"IT","tp":"CS","ts":"2025-03-24T16:55:37Z","tX":537,"tY":364,"tags":{"caravans":"yes","drinking_water":"yes","name":"Camping ai Colli Fioriti","power_supply":"yes","shower":"yes","tents":"yes"}},"276560414":{"location":[45.9947589,8.909346],"ct":"CH","tp":"CS","ts":"2020-05-03T16:00:58Z","tX":537,"tY":364,"tags":{"addr:city":"Muzzano","addr:housenumber":"14","addr:postcode":"6933","addr:street":"Via alla Foce","name":"TCS Camping Lugano","operator":"TCS","stars":"4","website":"https://www.tcs.ch/it/viaggi-camping/camping/offerte/lugano.php"}},"294814845":{"location":[46.0080859,8.8233838],"ct":"CH","tp":"CS","ts":"2023-04-22T18:03:02Z","tX":537,"tY":364,"tags":{"addr:city":"Astano","addr:postcode":"6999","cabins":"yes","capacity:pitches":"60","caravans":"yes","email":"contact@alparcodoro.ch","motorhome":"yes","name":"Campeggio al Parco d'Oro","opening_hours":"Apr 15 - Oct 15","operator":"Bernadette und Peter Wyrsch","phone":"+41 91 608 12 82","shower":"yes","tents":"yes","toilets":"yes","website":"https://www.alparcodoro.ch/"}},"311925692":{"location":[45.9935155,8.901381],"ct":"CH","tp":"CS","ts":"2023-04-22T18:03:02Z","tX":537,"tY":364,"tags":{"addr:city":"Agno","addr:housenumber":"15","addr:postcode":"6982","addr:street":"Via Acquacalda","caravans":"yes","name":"Molinazzo","phone":"+41 91 605 17 57","shower":"hot","tents":"yes","toilets":"yes","website":"https://www.campingmolinazzo.ch/"}},"311925701":{"location":[45.9946513,8.9043304],"ct":"CH","tp":"CS","ts":"2023-04-22T18:03:02Z","tX":537,"tY":364,"tags":{"addr:city":"Agno","addr:housenumber":"21","addr:postcode":"6982","addr:street":"Via Molinazzo","caravans":"yes","name":"La Palma","phone":"+41 91 605 25 61","shower":"yes","tents":"yes","toilets":"yes"}},"311925710":{"location":[45.9956907,8.9065349],"ct":"CH","tp":"CS","ts":"2023-11-11T11:26:22Z","tX":537,"tY":364,"tags":{"addr:city":"Agno","addr:housenumber":"9","addr:postcode":"6982","addr:street":"Via Molinazzo","name":"Camping Lugano Lake","phone":"+41796957894","website":"https://www.campingluganolake.ch/"}},"344172597":{"location":[46.0324281,8.9407941],"ct":"CH","tp":"CS","ts":"2023-08-08T22:18:15Z","tX":537,"tY":364,"tags":{"addr:city":"Cureglia","addr:housenumber":"3","addr:postcode":"6944","addr:street":"Moretto","caravans":"yes","drinking_water":"yes","email":"camping.moretto@skybusiness.ch","internet_access":"wlan","name":"Camping Moretto","operator":"Sky Business Spycher","phone":"+41 91 966 76 62","power_supply":"yes","shower":"yes","tents":"yes","toilets":"yes","website":"https://www.camping-moretto.ch/","wheelchair":"yes"}},"392084958":{"location":[45.9723649,8.8869457],"ct":"CH","tp":"CS","ts":"2024-09-19T16:56:36Z","tX":537,"tY":364,"tags":{"addr:city":"Caslano","addr:country":"CH","addr:housenumber":"2","addr:postcode":"6987","addr:street":"Via Bosconi","caravans":"yes","drinking_water":"yes","email":"info@campeggioaiboschi.ch","name":"Campeggio ai Bosconi","phone":"+41 91 600 90 98","power_supply":"yes","sanitary_dump_station":"no","shower":"yes","tents":"yes","toilets":"yes","website":"https://www.campeggioaibosconi.ch/"}},"418086330":{"location":[45.990326,8.8155369],"ct":"CH","tp":"CS","ts":"2024-10-08T20:22:24Z","tX":537,"tY":364,"tags":{"addr:city":"Monteggio","addr:country":"CH","addr:postcode":"6998","fee":"yes","name":"Camping Tresiana","operator":"Camping Tresiana","website":"http://www.camping-tresiana.ch"}},"484017994":{"location":[45.9604334,8.8633028],"ct":"IT","tp":"CS","ts":"2025-01-11T23:48:18Z","tX":537,"tY":364,"tags":{"addr:city":"Lavena Ponte Tresa","addr:housenumber":"18","addr:postcode":"21037","addr:street":"Via Guglielmo Marconi","bar":"yes","barrier":"wall","contact:email":"info@internationalcamping.com","contact:phone":"+39 0332 550117","name":"International Camping","nudism":"no","sanitary_dump_station":"customers","swimming_pool":"no","tents":"yes"}},"886376734":{"location":[46.0362804,9.0516935],"ct":"IT","tp":"CR","ts":"2019-10-09T17:16:23Z","tX":537,"tY":364,"tags":{"name":"Camping San Rocco","sanitary_dump_station":"yes"}},"992928248":{"location":[46.0128739,8.8083957],"ct":"CH","tp":"CS","ts":"2023-05-02T14:05:07Z","tX":537,"tY":364,"tags":{"addr:city":"Astano","addr:country":"CH","addr:housenumber":"1","addr:postcode":"6999","addr:street":"Laghetto","caravans":"yes","contact:email":"kontakt@camping-laghetto.ch","contact:phone":"+41 91 6081036","contact:website":"https://camping-laghetto.ch","name":"Camping Al Laghetto","tents":"yes"}},"1274049280":{"location":[46.0279775,9.128682],"ct":"IT","tp":"CS","ts":"2024-04-19T09:53:43Z","tX":537,"tY":364,"tags":{"addr:city":"Porlezza","addr:country":"IT","addr:housenumber":"46","addr:postcode":"22018","addr:street":"Via per Osteno","contact:website":"https://www.campinglasbianca.com","name":"Camping La Sbianca"}},"1309424822":{"location":[45.9189958,8.8185627],"ct":"IT","tp":"CS","ts":"2024-08-21T16:05:37Z","tX":537,"tY":364,"tags":{"name":"Campin Trelago"}},"1336804914":{"location":[45.8349842,9.0609521],"ct":"IT","tp":"CR","ts":"2024-11-22T11:14:07Z","tX":537,"tY":364,"tags":{"area":"yes","capacity":"10","charge":"1 EUR/Hour","fee":"yes","internet_access":"no","name":"Area Camper STOP Tavernola","payment:coins":"yes","power_supply":"yes","power_supply:charge":"1 EUR/KW","power_supply:fee":"yes","smoking":"yes","supervised":"yes","website":"https://csusrl.it/area-camper/","wheelchair":"yes"}},"2063607546":{"location":[46.0145775,9.1053045],"ct":"IT","tp":"CS","ts":"2012-12-12T18:53:02Z","tX":537,"tY":364,"tags":{"name":"Camping Grotte di Rescia"}},"2418979071":{"location":[45.9186755,8.819411],"ct":"IT","tp":"CS","ts":"2023-11-23T22:23:09Z","tX":537,"tY":364,"tags":{"email":"info@3lagocamping.com","fax":"+39 0332 719650","name":"Camping Trelago","phone":"+39 0332 716583","website":"https://www.3lagocamping.com/"}},"3798186733":{"location":[45.8352603,9.0614613],"ct":"IT","tp":"CR","ts":"2015-10-22T13:51:37Z","tX":537,"tY":364,"tags":{"capacity":"10","fee":"yes","internet_access":"no","name":"Area Camper STOP Tavernola","payment:coins":"yes","smoking":"yes","wheelchair":"yes"}},"8747425927":{"location":[46.0003837,8.9444689],"ct":"CH","tp":"CR","ts":"2023-11-11T11:27:38Z","tX":537,"tY":364,"tags":{"capacity":"8","description":"Ganzjährig, in der Nähe des Parco Tassino, eine Oase der Ruhe.","email":"maurizio.maccanelli@lugano.ch","fee":"CHF 20.-","name":"Stellplatz Lugano","phone":"+41 58 866 71 46","power_supply":"yes","sanitary_dump_station":"yes","website":"https://www.ticino.ch/"}},"6639972725":{"location":[45.928493,8.9773597],"ct":"CH","tp":"SD","ts":"2019-07-24T08:26:09Z","tX":537,"tY":364,"tags":{}},"7089525633":{"location":[46.0001511,8.9449092],"ct":"CH","tp":"SD","ts":"2025-03-29T16:15:48Z","tX":537,"tY":364,"tags":{"access":"customers","sanitary_dump_station:chemical_toilet":"yes","sanitary_dump_station:gravity":"yes","sanitary_dump_station:grey_water":"yes","water_point":"yes"}},"12364688135":{"location":[45.8349929,9.0605829],"ct":"IT","tp":"SD","ts":"2024-11-22T11:14:07Z","tX":537,"tY":364,"tags":{"charge":"2,5 EUR","fee":"yes"}},"12710087109":{"location":[45.9584138,9.0740566],"ct":"IT","tp":"SD","ts":"2025-03-29T16:40:25Z","tX":537,"tY":364,"tags":{"sanitary_dump_station:chemical_toilet":"yes","sanitary_dump_station:fee":"no","sanitary_dump_station:gravity":"yes","sanitary_dump_station:grey_water":"no","sanitary_dump_station:suction":"no"}}}