{"279159709":{"location":[44.4419455,9.006189],"ct":"IT","tp":"CR","ts":"2024-08-31T08:58:06Z","tX":537,"tY":370,"tags":{"name":"Tamoa Club","power_supply":"yes","sanitary_dump_station":"yes","socket:cee_blue":"yes","website":"https://www.tamoaclub.it/"}},"342545212":{"location":[44.481522,8.9008232],"ct":"IT","tp":"CR","ts":"2025-04-24T13:45:45Z","tX":537,"tY":370,"tags":{"drinking_water":"yes","fee":"no","name":"Aldo Camper","sanitary_dump_station":"no","toilets":"no"}},"360576193":{"location":[44.3813395,9.0729818],"ct":"IT","tp":"CS","ts":"2024-04-27T07:47:40Z","tX":537,"tY":370,"tags":{"addr:city":"Bogliasco","addr:postcode":"16031","addr:street":"Via Guglielmo Marconi","caravans":"yes","drinking_water":"yes","email":"info@camping-genova-est.it","internet_access":"wlan","name":"Genova Est","phone":"+39 010 3472053","power_supply":"yes","sanitary_dump_station":"yes","shower":"yes","tents":"yes","toilets":"yes","website":"https://www.camping-genova-est.it/"}},"415767121":{"location":[44.4558812,8.9109873],"ct":"IT","tp":"CR","ts":"2016-05-05T10:57:17Z","tX":537,"tY":370,"tags":{"wheelchair":"yes"}},"1191358980":{"location":[44.5150709,9.0404452],"ct":"IT","tp":"CS","ts":"2024-08-31T08:54:57Z","tX":537,"tY":370,"tags":{"addr:city":"Montoggio","addr:full":"Via Guglielmo Marconi, 7 16026 Montoggio GE – Italia","addr:housenumber":"7","addr:postcode":"16026","addr:street":"Via Guglielmo Marconi","bbq":"yes","cabins":"yes","caravans":"yes","dog":"yes","dog:conditional":"yes","fee":"yes","internet_access":"wlan","internet_access:fee":"yes","lit":"yes","motorhome":"yes","name":"Camping CASTELLO DEI FIESCHI","phone":"+39 010 938812","power_supply":"yes","socket:cee_blue":"yes","stars":"2","tents":"yes","website":"https://campingcastellodeifieschi.it/"}},"1303641670":{"location":[44.3933704,9.0076595],"ct":"IT","tp":"CR","ts":"2024-07-25T07:33:04Z","tX":537,"tY":370,"tags":{"addr:city":"Genova","addr:housenumber":"1","addr:postcode":"16148","addr:street":"Via Funtanin","contact:phone":"+39 0103773231","drinking_water":"yes","name":"Area sosta caravan - Pons Caravan","note":"Prezzo max 24€/die","power_supply":"yes","sanitary_dump_station":"yes"}},"5145057832":{"location":[44.4238621,9.1372711],"ct":"IT","tp":"CS","ts":"2017-10-03T13:23:36Z","tX":537,"tY":370,"tags":{"name":"Campeggio Privato Oasi"}},"8962098574":{"location":[44.4317344,8.8135994],"ct":"IT","tp":"CS","ts":"2024-08-31T11:59:49Z","tX":537,"tY":370,"tags":{"addr:housenumber":"15","addr:postcode":"15156","addr:street":"Via Campeggio Villa Doria","caravans":"yes","dog":"yes","fee":"yes","internet_access":"wlan","motorhome":"yes","name":"Camping Villa Doria","sanitary_dump_station":"yes","shower":"yes","socket:cee_blue":"yes","tents":"yes","toilets":"yes","website":"https://www.campingvilladoria.it/"}},"4997079625":{"location":[44.4034343,8.9305384],"ct":"IT","tp":"CR","ts":"2018-06-08T07:26:24Z","tX":537,"tY":370,"tags":{"name:en":"Camper","name:sv":"Ställplats"}},"5810210353":{"location":[44.4322165,8.8137181],"ct":"IT","tp":"CR","ts":"2023-10-31T03:13:17Z","tX":537,"tY":370,"tags":{"addr:housenumber":"15","addr:postcode":"16156","addr:street":"Via Campeggio Villa Doria","email":"campingvilladoria@gmail.com","internet_access":"wlan","name":"Camping villa doria","name:de":"Campingplatz Villa Doria","phone":"+39 010 6969600","website":"https://www.campingvilladoria.it/"}}}