{"143031045":{"location":[39.7054691,8.9931732],"ct":"IT","tp":"PK","ts":"2024-04-01T08:57:29Z","tX":537,"tY":388,"tags":{"access":"yes","fee":"no","motorhome":"yes","parking":"surface"}},"294464105":{"location":[39.7113212,8.9615488],"ct":"IT","tp":"SD","ts":"2022-08-13T08:30:35Z","tX":537,"tY":388,"tags":{"building":"yes","description":"not leveled","fee":"no","operator":"Camper service"}},"561757515":{"location":[39.7889501,8.863076],"ct":"IT","tp":"CR","ts":"2022-07-30T08:55:42Z","tX":537,"tY":388,"tags":{"addr:city":"Albagiara","addr:postcode":"09090","name":"area camper Albagiara MyLand"}},"1298055893":{"location":[39.8564301,9.0515447],"ct":"IT","tp":"CR","ts":"2024-07-01T10:11:47Z","tX":537,"tY":388,"tags":{}},"1387833477":{"location":[39.7586776,8.8756832],"ct":"IT","tp":"CR","ts":"2025-05-18T16:23:01Z","tX":537,"tY":388,"tags":{"addr:city":"Gonnosn√≤","addr:postcode":"09090"}},"7034178686":{"location":[39.72276,8.8982419],"ct":"IT","tp":"CR","ts":"2025-01-19T12:27:36Z","tX":537,"tY":388,"tags":{"name":"Area sosta camper Baradili","opening_hours":"24/7"}},"9666874390":{"location":[39.6961502,9.1238592],"ct":"IT","tp":"CR","ts":"2022-04-14T21:28:22Z","tX":537,"tY":388,"tags":{"capacity":"5","name":"Area Attrezzata","power_supply":"yes"}}}