{"26860549":{"location":[38.898333,8.884722],"ct":"IT","tp":"CS","ts":"2013-12-19T17:51:51Z","tX":537,"tY":391,"tags":{"name":"Camping Torre Chia","phone":"+39 070 9230054","website":"http://www.campeggiotorrechia.it/"}},"136633020":{"location":[38.8894813,8.8642743],"ct":"IT","tp":"CR","ts":"2011-11-11T18:10:58Z","tX":537,"tY":391,"tags":{}},"494465594":{"location":[38.9922879,9.0116416],"ct":"IT","tp":"PK","ts":"2024-03-30T11:54:55Z","tX":537,"tY":391,"tags":{"fee":"yes","fee:conditional":"no @ \"low season\"","motorhome":"yes"}},"1090905705":{"location":[38.9578951,8.9681807],"ct":"IT","tp":"CS","ts":"2023-10-23T17:04:11Z","tX":537,"tY":391,"tags":{"addr:city":"Pula","addr:postcode":"09010","addr:street":"Via Flumendosa","name":"Camping Cala D'Ostia","phone":"+39 351 627 4439","website":"https://www.campingcaladostia.com/"}},"1302252084":{"location":[38.9665277,8.9770843],"ct":"IT","tp":"CS","ts":"2024-07-18T11:36:58Z","tX":537,"tY":391,"tags":{"addr:housenumber":"14","addr:street":"Via Flumendosa","caravans":"yes","drinking_water":"yes","name":"Camping Flumendosa","power_supply":"yes","sanitary_dump_station":"yes","shower":"yes","tents":"yes","toilets":"yes","website":"https://www.campingflumendosa.com/"}},"1315007087":{"location":[39.0442732,8.9821595],"ct":"IT","tp":"CS","ts":"2024-09-12T06:36:18Z","tX":537,"tY":391,"tags":{"addr:housenumber":"9","addr:street":"Strada vicinale Bia Monti","caravans":"yes","fee":"yes","motorhome":"yes","name":"Agricampeggio Tenuta Naturale","power_supply":"yes","power_supply:maxcurrent":"6","socket:cee_blue":"yes","website":"https://www.tenutanaturale.it/"}},"9992057538":{"location":[38.9582044,8.96921],"ct":"IT","tp":"SD","ts":"2022-09-01T06:31:02Z","tX":537,"tY":391,"tags":{}}}