{"144071970":{"location":[-16.9117278,145.7577786],"ct":"AU","tp":"CR","ts":"2024-04-25T03:49:59Z","tX":926,"tY":560,"tags":{"addr:city":"Cairns","addr:country":"AU","addr:housenumber":"12-30","addr:postcode":"4870","addr:street":"Little Street","name":"Cairns Holiday Park","operator":"NRMA","phone:AU":"1800 259 977","website":"http://cairnsholidaypark.com.au/"}},"189587394":{"location":[-16.9700297,145.7434289],"ct":"AU","tp":"CR","ts":"2023-05-15T06:28:18Z","tX":926,"tY":560,"tags":{"brand":"Big 4 Holiday Parks","brand:wikidata":"Q18636678","brand:wikipedia":"en:BIG4 Holiday Parks","name":"BIG4 Ingenia Holidays Cairns Coconut Resort","short_name":"Big4"}},"189587397":{"location":[-16.9208349,145.7412636],"ct":"AU","tp":"CR","ts":"2018-08-26T00:02:48Z","tX":926,"tY":560,"tags":{"name":"Cairns Villa and Leisure Park"}},"189587402":{"location":[-16.9382814,145.7426808],"ct":"AU","tp":"CR","ts":"2024-07-01T08:42:47Z","tX":926,"tY":560,"tags":{"fee":"yes","name":"First City Caravilla"}},"189587404":{"location":[-16.9551061,145.7463233],"ct":"AU","tp":"CR","ts":"2022-07-10T02:10:58Z","tX":926,"tY":560,"tags":{"name":"Mindarra Holiday Village"}},"189587411":{"location":[-16.9171586,145.7391156],"ct":"AU","tp":"CR","ts":"2024-03-29T04:59:16Z","tX":926,"tY":560,"tags":{"addr:housenumber":"49-61","addr:postcode":"4870","addr:state":"QLD","addr:street":"Little Pease Street","addr:suburb":"Manoora","email":"stay@cairnssunland.com.au","internet_access":"wlan","internet_access:fee":"customers","name":"Cairns Sunland Leisure Park","phone":"+61 7 4053 6888","power_supply":"yes","website":"https://www.cairnssunland.com.au/"}},"189587414":{"location":[-16.9700003,145.746486],"ct":"AU","tp":"CR","ts":"2018-09-22T04:39:22Z","tX":926,"tY":560,"tags":{"name":"White Rock Leisure Park"}},"189591701":{"location":[-16.8689673,145.6744928],"ct":"AU","tp":"CR","ts":"2023-10-26T10:57:01Z","tX":926,"tY":560,"tags":{"name":"Lake Placid Tourist Park","power_supply":"yes","tents":"yes","website":"https://www.lakeplacidtouristpark.com/"}},"225886018":{"location":[-16.7407918,145.6708116],"ct":"AU","tp":"CR","ts":"2017-04-22T14:52:11Z","tX":926,"tY":560,"tags":{"name":"Palm Cove Caravan Park & Campground"}},"498966437":{"location":[-16.7263022,145.6468972],"ct":"AU","tp":"CS","ts":"2024-06-29T04:52:22Z","tX":926,"tY":560,"tags":{"source":"bing"}},"700953709":{"location":[-16.9268817,145.6963223],"ct":"AU","tp":"CR","ts":"2024-11-14T08:12:20Z","tX":926,"tY":560,"tags":{"brand":"Big 4 Holiday Parks","brand:wikidata":"Q18636678","brand:wikipedia":"en:BIG4 Holiday Parks","cabins":"yes","caravans":"yes","motorhome":"yes","name":"BIG4 Cairns Crystal Cascades Holiday Park","short_name":"Big4","website":"https://crystalcascades.com.au"}},"1212490844":{"location":[-16.9034113,145.7079051],"ct":"AU","tp":"CR","ts":"2024-09-02T08:59:39Z","tX":926,"tY":560,"tags":{"name":"Cool Waters Holiday Park","website":"https://tasmanholidayparks.com/au/caravan-parks/cairns-cool-waters"}},"1494176960":{"location":[-16.8160069,145.6277333],"ct":"AU","tp":"CR","ts":"2016-12-06T21:43:49Z","tX":926,"tY":560,"tags":{"addr:housenumber":"88","addr:street":"Kuranda Heights Road","internet_access":"wlan","local_ref":"Kuranda Heights Caravan Park","name":"Kuranda Rainforest Accommodation Park"}},"3006226872":{"location":[-16.8819988,145.6307158],"ct":"AU","tp":"CS","ts":"2014-08-09T07:08:35Z","tX":926,"tY":560,"tags":{"name":"Speewah Campground"}},"4279357097":{"location":[-16.841692,145.6049559],"ct":"AU","tp":"CS","ts":"2023-10-17T07:33:51Z","tX":926,"tY":560,"tags":{"name":"The Billabong Kuranda","website":"https://www.thebillabong.com.au/"}},"5825294153":{"location":[-16.8770448,145.620968],"ct":"AU","tp":"CS","ts":"2018-08-11T13:39:09Z","tX":926,"tY":560,"tags":{"addr:street":"Douglas Track East","name":"Etteleah park camping (reservation needed)"}},"6975423884":{"location":[-16.9262034,145.6965516],"ct":"AU","tp":"CR","ts":"2024-11-27T10:57:17Z","tX":926,"tY":560,"tags":{"access":"customers","addr:city":"Redlynch","addr:postcode":"4870","addr:street":"Rocks Road","brand":"Big 4 Holiday Parks","brand:wikidata":"Q18636678","entrance":"yes","fee":"yes","internet_access":"yes","name":"Big4 Cairns Crystal Cascades Holiday Park","phone":"+61 7 4039 1036","power_supply":"yes","sanitary_dump_station":"yes","short_name":"Big4","website":"https://crystalcascades.com.au"}},"5263737718":{"location":[-16.926943,145.6964935],"ct":"AU","tp":"SD","ts":"2017-12-04T13:31:53Z","tX":926,"tY":560,"tags":{"access":"customers","water_point":"yes"}}}