{"359513529":{"location":[-38.4266925,145.8308326],"ct":"AU","tp":"CR","ts":"2024-12-04T07:25:35Z","tX":926,"tY":630,"tags":{"drinking_water":"yes","fee":"yes","name":"Korumburra Tourist Park","power_supply":"yes","sanitary_dump_station":"no","toilets":"yes","website":"korumburratouristpark.com.au"}},"621862076":{"location":[-38.4266822,145.8299436],"ct":"AU","tp":"CR","ts":"2024-04-27T02:30:34Z","tX":926,"tY":630,"tags":{"addr:city":"Korumbburra","addr:housenumber":"56","addr:postcode":"3950","addr:state":"VIC","addr:street":"Bourke Street","fee":"yes","name":"Korumburra Tourist Park","power_supply":"yes","source":"survey;local knowledge","website":"korumburratouristpark.com.au"}},"1808391686":{"location":[-38.3605736,145.7644551],"ct":"AU","tp":"CS","ts":"2015-04-24T00:54:21Z","tX":926,"tY":630,"tags":{"name":"Bass Valley Camping Ground"}},"1808391970":{"location":[-38.3677928,145.712003],"ct":"AU","tp":"CS","ts":"2014-12-01T02:36:53Z","tX":926,"tY":630,"tags":{"name":"Loch Memorial Reserve"}},"2283068020":{"location":[-38.3666434,145.7668842],"ct":"AU","tp":"CS","ts":"2013-04-27T12:21:43Z","tX":926,"tY":630,"tags":{"name":"Bass Valley Camping Ground"}}}