{"128400736":{"location":[54.1983067,-0.2947431],"ct":"GB","tp":"CR","ts":"2024-02-08T15:02:34Z","tX":511,"tY":327,"tags":{"name":"Lowfield Farm Caravan Park"}},"128400738":{"location":[54.2017915,-0.2937303],"ct":"GB","tp":"CR","ts":"2024-06-25T12:40:39Z","tX":511,"tY":327,"tags":{}},"130875744":{"location":[54.1853872,-0.2871246],"ct":"GB","tp":"CR","ts":"2023-10-30T17:10:45Z","tX":511,"tY":327,"tags":{"addr:city":"Filey","addr:country":"GB","addr:postcode":"YO14 9RF","camp_site":"deluxe","capacity:caravans":"51","caravans":"yes","dog":"yes","fee":"yes","internet_access":"wlan","name":"Primrose Valley Holiday Park","operator":"Haven","phone":"+44 1723 513771","power_supply":"yes","reservation":"required","sanitary_dump_station":"yes","shower":"yes","static_caravans":"private","tents":"no","touring_caravans":"yes","website":"https://www.haven.com/parks/yorkshire/primrose-valley"}},"143865525":{"location":[54.2014059,-0.2990254],"ct":"GB","tp":"CR","ts":"2018-04-12T20:33:56Z","tX":511,"tY":327,"tags":{"source":"Bing"}},"143865526":{"location":[54.2009539,-0.2976026],"ct":"GB","tp":"CR","ts":"2018-04-12T20:33:56Z","tX":511,"tY":327,"tags":{"name":"Muston Grange Caravan Park","source":"Bing"}},"143865530":{"location":[54.2011341,-0.2955687],"ct":"GB","tp":"CR","ts":"2024-02-08T16:16:21Z","tX":511,"tY":327,"tags":{"source":"Bing"}},"147265221":{"location":[54.1846786,-0.2925416],"ct":"GB","tp":"CR","ts":"2021-04-04T15:25:11Z","tX":511,"tY":327,"tags":{}},"153625583":{"location":[54.2351428,-0.329038],"ct":"GB","tp":"CR","ts":"2024-12-10T16:14:29Z","tX":511,"tY":327,"tags":{"addr:country":"GB","addr:postcode":"YO14 9PT","cabins":"no","caravans":"no","motorhome":"no","name":"Cliff Top Caravan Park Scarborough","permanent_camping":"only","static_caravans":"yes","tents":"no"}},"153625595":{"location":[54.233137,-0.3313521],"ct":"GB","tp":"CS","ts":"2021-09-01T10:24:38Z","tX":511,"tY":327,"tags":{"addr:city":"Filey","addr:country":"GB","addr:place":"Gristhorpe Bay","addr:postcode":"YO14 9PU","cabins":"yes","camp_site":"deluxe","caravans":"yes","dog":"leashed","drinking_water":"yes","fee":"yes","hot_water":"yes","internet_access":"no","mobile":"+44 7720 736 489","motor_vehicle":"yes","name":"Blue Dolphin Touring and Camping Holiday Park","nudism":"no","openfire":"no","operator":"Haven","picnic_table":"no","power_supply":"yes","reservation":"required","sanitary_dump_station":"yes","shower":"yes","swimming_pool":"yes","tents":"yes","toilets":"yes","washing_machine":"yes","waste_disposal":"yes","website":"https://www.haven.com/touring-camping/parks/yorkshire/blue-dolphin"}},"182174639":{"location":[54.1843239,-0.3107382],"ct":"GB","tp":"CR","ts":"2024-04-21T13:16:31Z","tX":511,"tY":327,"tags":{"addr:postcode":"YO14 0PU","addr:street":"Stonegate","name":"Orchard Farm Holiday Village","source":"Bing","website":"https://www.orchardfarmholidayvillage.co.uk/"}},"233853425":{"location":[54.231797,-0.3263197],"ct":"GB","tp":"CR","ts":"2024-07-17T14:02:41Z","tX":511,"tY":327,"tags":{"cabins":"yes","camp_site":"deluxe","caravans":"no","dog":"leashed","drinking_water":"no","fee":"yes","internet_access":"wlan","motor_vehicle":"yes","name":"Blue Dolphin Holiday Park","operator":"Haven","reservation":"required","sanitary_dump_station":"no","shower":"no","static_caravans":"yes","swimming_pool":"yes","tents":"no","toilets":"yes","washing_machine":"yes"}},"233853513":{"location":[54.2332523,-0.33451],"ct":"GB","tp":"CR","ts":"2023-08-02T09:32:24Z","tX":511,"tY":327,"tags":{"bbq":"no","cabins":"no","camp_site":"deluxe","caravans":"yes","dog":"yes","drinking_water":"yes","fee":"yes","internet_access":"wlan","internet_access:fee":"no","motor_vehicle":"yes","name":"Crows Nest Caravan Park","opening_hours":"May 01 - Oct 31","operator":"Crows Nest Caravan Park","picnic_table":"no","power_supply":"yes","reservation":"required","sanitary_dump_station":"yes","shower":"hot","static_caravans":"yes","swimming_pool":"yes","tents":"yes","toilets":"yes","waste_disposal":"yes","website":"https://www.crowsnestcaravanpark.com/"}},"233853564":{"location":[54.2319027,-0.3386595],"ct":"GB","tp":"CR","ts":"2023-08-02T09:32:24Z","tX":511,"tY":327,"tags":{"addr:city":"Scarborough","addr:country":"GB","addr:place":"Lebberston Cliff","addr:postcode":"YO11 3NU","cabins":"no","camp_site":"deluxe","caravans":"yes","fee":"yes","motor_vehicle":"yes","name":"Flower of May Holiday Park","nudism":"no","operator":"Flower of May Holiday Parks","permanent_camping":"yes","power_supply":"yes","reservation":"required","sanitary_dump_station":"yes","shower":"yes","swimming_pool":"yes","tents":"yes","toilets":"yes","waste_disposal":"yes","website":"https://www.flowerofmay.com/"}},"296634536":{"location":[54.2236376,-0.3460783],"ct":"GB","tp":"CS","ts":"2023-08-02T09:18:13Z","tX":511,"tY":327,"tags":{"name":"Lebberston Touring Park"}},"321370731":{"location":[54.1669714,-0.2513654],"ct":"GB","tp":"CR","ts":"2023-07-07T20:05:23Z","tX":511,"tY":327,"tags":{"capacity:caravans":"47","caravans":"yes","dog":"yes","fee":"yes","name":"Reighton Sands Holiday Park","operator":"Haven","power_supply":"yes","reservation":"required","sanitary_dump_station":"yes","shower":"yes","static_caravans":"yes","tents":"no","toilets":"yes","website":"https://www.haven.com/parks/yorkshire/reighton-sands"}},"364791922":{"location":[54.2161082,-0.2849503],"ct":"GB","tp":"CR","ts":"2017-08-11T11:00:40Z","tX":511,"tY":327,"tags":{"addr:city":"Filey","addr:postcode":"YO14 9ET","addr:street":"Church Cliff Drive","name":"Filey Brigg Caravan Site","phone":"+44 1723 513852"}},"380939965":{"location":[54.1648229,-0.2858788],"ct":"GB","tp":"CS","ts":"2022-04-12T14:15:55Z","tX":511,"tY":327,"tags":{}},"380939966":{"location":[54.164231,-0.2860603],"ct":"GB","tp":"CS","ts":"2022-04-12T14:15:55Z","tX":511,"tY":327,"tags":{}},"383344519":{"location":[54.1779175,-0.3115],"ct":"GB","tp":"CR","ts":"2015-12-06T12:45:49Z","tX":511,"tY":327,"tags":{}},"795437661":{"location":[54.222062,-0.3343297],"ct":"GB","tp":"CR","ts":"2020-04-23T22:34:03Z","tX":511,"tY":327,"tags":{"name":"Prospect Farm Caravan Park"}},"986810280":{"location":[54.1657653,-0.2539775],"ct":"GB","tp":"CR","ts":"2022-01-04T22:51:41Z","tX":511,"tY":327,"tags":{"name":"Reighton Sands Caravan Showground"}},"1018391763":{"location":[54.1680618,-0.2665638],"ct":"GB","tp":"CS","ts":"2025-06-20T09:35:24Z","tX":511,"tY":327,"tags":{"access":"customers","addr:postcode":"YO14 9SF","caravans":"yes","drinking_water":"yes","name":"Moor House Farm","static_caravans":"no","tents":"yes"}},"1197470789":{"location":[54.176676,-0.2904892],"ct":"GB","tp":"CS","ts":"2023-08-12T16:44:08Z","tX":511,"tY":327,"tags":{}},"1198401633":{"location":[54.1902715,-0.3011413],"ct":"GB","tp":"CS","ts":"2023-08-15T16:15:30Z","tX":511,"tY":327,"tags":{"name":"Ivy Cottage Campsite"}},"8869720303":{"location":[54.1656514,-0.2581422],"ct":"GB","tp":"CS","ts":"2021-06-27T13:28:50Z","tX":511,"tY":327,"tags":{"access":"private","addr:city":"Reighton Gap, Filey","addr:housename":"Moor Farm","addr:postcode":"YO14 9SQ","email":"bramblehillglamping@outlook.co.uk","name":"Bramble Hill Glamping","website":"https://bramblehillglamping.co.uk"}},"9053055486":{"location":[54.2330878,-0.3317092],"ct":"GB","tp":"SD","ts":"2021-09-01T10:24:38Z","tX":511,"tY":327,"tags":{"sanitary_dump_station:basin":"yes"}}}