{"9288849":{"location":[54.1146185,-0.1576009],"ct":"GB","tp":"CR","ts":"2019-02-15T18:45:17Z","tX":511,"tY":328,"tags":{"addr:city":"Bridlington","addr:postcode":"YO15 1DU","addr:street":"Flamborough Road","name":"Bridlington Caravan Club Site"}},"39910447":{"location":[54.0965178,-0.1789979],"ct":"GB","tp":"CR","ts":"2019-01-19T11:51:00Z","tX":511,"tY":328,"tags":{"addr:city":"Bridlington","addr:postcode":"YO16 6TG","addr:street":"Limekiln Lane","name":"North Bay Leisure Park","source":"Bing"}},"131890382":{"location":[53.9967024,-0.2224664],"ct":"GB","tp":"CR","ts":"2024-01-24T20:29:21Z","tX":511,"tY":328,"tags":{"addr:city":"Driffield","addr:postcode":"YO25 8TP","addr:street":"Main Street","addr:suburb":"Ulrome","name":"Top View Caravan Park"}},"145557425":{"location":[54.0174123,-0.2173363],"ct":"GB","tp":"CR","ts":"2024-01-24T20:29:21Z","tX":511,"tY":328,"tags":{"addr:city":"Driffield","addr:country":"GB","addr:postcode":"YO25 8PJ","addr:street":"Sands Lane","addr:suburb":"Barmston","brand":"Parkdean Resorts","brand:wikidata":"Q7138226","contact:website":"https://www.parkdeanresorts.co.uk/location/yorkshire/barmston-beach/","name":"Barmston Beach Holiday Park","operator":"Parkdean Resorts UK Limited"}},"145558081":{"location":[53.9953685,-0.2242966],"ct":"GB","tp":"CR","ts":"2024-01-24T20:29:21Z","tX":511,"tY":328,"tags":{"addr:city":"Driffield","addr:postcode":"YO25 8TP","addr:street":"Main Street","addr:suburb":"Ulrome","name":"Centre Meadows Holiday Park"}},"145565632":{"location":[53.9894642,-0.2096211],"ct":"GB","tp":"CR","ts":"2024-01-24T20:29:21Z","tX":511,"tY":328,"tags":{"addr:city":"Driffield","addr:country":"GB","addr:postcode":"YO25 8TZ","addr:suburb":"Skipsea","brand":"Parkdean Resorts","brand:wikidata":"Q7138226","contact:website":"https://www.parkdeanresorts.co.uk/location/yorkshire/skipsea-sands/","name":"Skipsea Sands Holiday Park","operator":"Parkdean Resorts UK Limited"}},"145565647":{"location":[53.9987198,-0.2119839],"ct":"GB","tp":"CR","ts":"2024-01-24T20:29:21Z","tX":511,"tY":328,"tags":{"addr:city":"Driffield","addr:postcode":"YO25 8TT","addr:suburb":"Ulrome","name":"Seaside Caravan Park"}},"145565678":{"location":[53.9945044,-0.2081754],"ct":"GB","tp":"CR","ts":"2013-12-13T11:54:18Z","tX":511,"tY":328,"tags":{}},"145565679":{"location":[53.981224,-0.2177422],"ct":"GB","tp":"CS","ts":"2024-06-26T07:46:54Z","tX":511,"tY":328,"tags":{"access":"customers","addr:city":"Driffield","addr:postcode":"YO25 8SS","addr:street":"Mill Lane","addr:suburb":"Skipsea","capacity:caravans":"10","capacity:tents":"10","caravans":"yes","description":"We accommodate caravans, tents and small motor homes, there is a shepherds hut to hire, sleeps 2 The main building has the ladies and gents toilets, washbasins and showers (Free hot water) . Two pot wash sinks Electric hook-ups are 10amp.","drinking_water":"yes","fee":"yes","internet_access":"no","name":"Mill Farm Country Park","payment:cash":"yes","phone":"+441262468211","power_supply":"yes","sanitary_dump_station":"yes","static_caravans":"yes","tents":"yes","website":"https://www.millfarmcountrypark.co.uk/"}},"145565690":{"location":[53.9876421,-0.2062165],"ct":"GB","tp":"CR","ts":"2018-09-24T19:44:43Z","tX":511,"tY":328,"tags":{}},"145570316":{"location":[53.9566609,-0.190448],"ct":"GB","tp":"CR","ts":"2014-11-26T13:35:54Z","tX":511,"tY":328,"tags":{"name":"Low Skirlington Caravan Site and Tourist Park"}},"145570320":{"location":[53.9613705,-0.2002497],"ct":"GB","tp":"CR","ts":"2014-11-16T12:55:57Z","tX":511,"tY":328,"tags":{}},"145570322":{"location":[53.9587833,-0.200715],"ct":"GB","tp":"CR","ts":"2014-11-16T12:55:57Z","tX":511,"tY":328,"tags":{}},"145570336":{"location":[53.961432,-0.1945405],"ct":"GB","tp":"CR","ts":"2014-11-16T12:56:01Z","tX":511,"tY":328,"tags":{"name":"Far Grange Park"}},"145582339":{"location":[54.0639312,-0.218409],"ct":"GB","tp":"CR","ts":"2020-05-23T22:26:41Z","tX":511,"tY":328,"tags":{"addr:city":"Bridlington","addr:postcode":"YO15 3QN","name":"The White House Caravan Park"}},"145582342":{"location":[54.0665971,-0.2157131],"ct":"GB","tp":"CR","ts":"2020-05-23T22:26:41Z","tX":511,"tY":328,"tags":{"addr:city":"Bridlington","addr:postcode":"YO15 3QN","addr:street":"Wilsthorpe","internet_access":"wlan","name":"South Cliff Caravan Park","operator":"East Riding of Yorkshire Council","phone":"+44 1262 671051","power_supply":"yes","sanitary_dump_station":"yes","website":"https://www.southcliff.co.uk/"}},"152347503":{"location":[54.1036279,-0.1684815],"ct":"GB","tp":"CR","ts":"2014-12-11T21:55:45Z","tX":511,"tY":328,"tags":{"name":"Charity Farm Caravan Park","source":"Bing"}},"155477659":{"location":[54.1236439,-0.181918],"ct":"GB","tp":"CR","ts":"2019-01-21T00:39:31Z","tX":511,"tY":328,"tags":{"addr:city":"Bridlington","addr:postcode":"YO16 6XE","addr:street":"Newsham Hill","name":"The Old Mill Caravan Park","source":"Bing"}},"160146189":{"location":[54.1264217,-0.1214909],"ct":"GB","tp":"CR","ts":"2025-01-14T11:28:01Z","tX":511,"tY":328,"tags":{"addr:city":"Bridlington","addr:country":"GB","addr:postcode":"YO15 1AU","addr:street":"North Marine Road","addr:suburb":"Flamborough","name":"Thornwick Bay Holiday Village","operator":"Haven"}},"301113090":{"location":[54.1098674,-0.1595459],"ct":"GB","tp":"CR","ts":"2019-02-15T18:45:17Z","tX":511,"tY":328,"tags":{"addr:city":"Bridlington","addr:postcode":"YO15 1DU","addr:street":"Flamborough Road","name":"Marton Valley Caravan Park"}},"301113101":{"location":[54.1236397,-0.1317308],"ct":"GB","tp":"CR","ts":"2025-01-14T12:51:22Z","tX":511,"tY":328,"tags":{"addr:city":"Flamborough","addr:postcode":"YO15 1AS","addr:street":"Bempton Lane","name":"Flamborough Holiday Homes","phone":"+44 1262 850207","website":"https://flamboroughholidayhomes.co.uk/"}},"301127106":{"location":[54.1117902,-0.1764484],"ct":"GB","tp":"CR","ts":"2019-01-21T00:39:31Z","tX":511,"tY":328,"tags":{"addr:city":"Bridlington","addr:postcode":"YO16 6YG","addr:street":"Jewison Lane","name":"Fir Tree Caravan Park"}},"301127127":{"location":[54.1106491,-0.1714978],"ct":"GB","tp":"CR","ts":"2019-02-15T18:45:16Z","tX":511,"tY":328,"tags":{"addr:city":"Bridlington","addr:postcode":"YO15 1DX","addr:street":"Jewison Lane","name":"Martonia Caravan Park"}},"301127128":{"location":[54.1120059,-0.1720638],"ct":"GB","tp":"CR","ts":"2019-02-15T18:45:16Z","tX":511,"tY":328,"tags":{"addr:city":"Bridlington","addr:postcode":"YO15 1DX","addr:street":"Jewison Lane","name":"Railings Caravan Park"}},"301127130":{"location":[54.1115516,-0.1718465],"ct":"GB","tp":"CR","ts":"2019-02-15T18:45:16Z","tX":511,"tY":328,"tags":{"addr:city":"Bridlington","addr:housenumber":"45","addr:postcode":"YO15 1DX","addr:street":"Jewison Lane","name":"The Poplars Caravan Park"}},"305198675":{"location":[54.108431,-0.127457],"ct":"GB","tp":"CR","ts":"2023-03-05T10:17:01Z","tX":511,"tY":328,"tags":{"name":"Hartendale"}},"305198693":{"location":[54.1134421,-0.1394198],"ct":"GB","tp":"CS","ts":"2019-02-15T18:45:17Z","tX":511,"tY":328,"tags":{"addr:city":"Bridlington","addr:postcode":"YO15 1AB","name":"Beacon House"}},"311902886":{"location":[54.093276,-0.3085794],"ct":"GB","tp":"CR","ts":"2023-10-22T20:50:12Z","tX":511,"tY":328,"tags":{"addr:city":"Driffield","addr:postcode":"YO25 4JE","addr:suburb":"Rudston","name":"Thorpe Hall Caravan & Camping Park"}},"312090814":{"location":[54.0912508,-0.2229532],"ct":"GB","tp":"CR","ts":"2019-01-29T16:17:45Z","tX":511,"tY":328,"tags":{"addr:city":"Bridlington","addr:postcode":"YO16 4DB","addr:street":"Easton Road","name":"Eastlands Caravan Park"}},"312458626":{"location":[54.0170708,-0.2651752],"ct":"GB","tp":"CR","ts":"2023-10-22T20:50:12Z","tX":511,"tY":328,"tags":{"addr:city":"Driffield","addr:postcode":"YO25 8HY","addr:suburb":"Gransmoor","name":"Gransmoor Lodge Caravan Park"}},"312544039":{"location":[54.0146585,-0.2262529],"ct":"GB","tp":"CR","ts":"2023-10-22T20:50:12Z","tX":511,"tY":328,"tags":{"addr:city":"Driffield","addr:postcode":"YO25 8PG","addr:street":"Sands Lane","addr:suburb":"Barmston","name":"The Black Bull Caravan Park"}},"312544287":{"location":[54.0158463,-0.2301356],"ct":"GB","tp":"CR","ts":"2023-10-22T20:50:12Z","tX":511,"tY":328,"tags":{"addr:city":"Driffield","addr:postcode":"YO25 8PG","addr:street":"Sands Lane","addr:suburb":"Barmston","name":"Rectory Farm Caravan Site"}},"312949457":{"location":[53.9769934,-0.2459839],"ct":"GB","tp":"CR","ts":"2014-11-15T16:48:54Z","tX":511,"tY":328,"tags":{}},"313073533":{"location":[53.9750961,-0.208659],"ct":"GB","tp":"CR","ts":"2014-11-16T12:54:50Z","tX":511,"tY":328,"tags":{}},"313073699":{"location":[53.9597334,-0.2077428],"ct":"GB","tp":"CR","ts":"2014-11-19T10:00:35Z","tX":511,"tY":328,"tags":{"name":"Far Grange Park"}},"313073716":{"location":[53.9775746,-0.2071156],"ct":"GB","tp":"CS","ts":"2023-10-22T20:50:12Z","tX":511,"tY":328,"tags":{"addr:city":"Driffield","addr:postcode":"YO25 8TF","addr:street":"Hornsea Road","addr:suburb":"Skipsea","name":"Strawberry Fields"}},"314464072":{"location":[54.1378701,-0.3397332],"ct":"GB","tp":"CR","ts":"2014-11-25T19:40:20Z","tX":511,"tY":328,"tags":{}},"314464091":{"location":[54.137439,-0.3413512],"ct":"GB","tp":"CR","ts":"2023-10-22T20:50:12Z","tX":511,"tY":328,"tags":{"addr:city":"Driffield","addr:postcode":"YO25 3PT","addr:street":"Hunmanby Road","addr:suburb":"Burton Fleming","name":"Bobbybees Caravan Site"}},"316145627":{"location":[54.1209849,-0.2001146],"ct":"GB","tp":"CR","ts":"2019-01-21T00:39:31Z","tX":511,"tY":328,"tags":{"addr:city":"Bridlington","addr:postcode":"YO16 6XA","addr:street":"Bempton Lane","name":"Hawthorn Holiday Park"}},"316145630":{"location":[54.1211731,-0.2020014],"ct":"GB","tp":"CR","ts":"2019-01-21T00:39:31Z","tX":511,"tY":328,"tags":{"addr:city":"Bridlington","addr:postcode":"YO16 6AB","addr:street":"Bempton Lane","name":"Norlands Caravan Park"}},"316260230":{"location":[54.0950572,-0.2044522],"ct":"GB","tp":"CR","ts":"2019-01-21T00:45:16Z","tX":511,"tY":328,"tags":{"addr:city":"Bridlington","addr:postcode":"YO16 7BA","addr:street":"North Back Lane","name":"Priory Caravan Park"}},"316294827":{"location":[54.1340021,-0.1733514],"ct":"GB","tp":"CR","ts":"2023-09-20T15:34:06Z","tX":511,"tY":328,"tags":{"addr:city":"Bridlington","addr:postcode":"YO15 1JF","addr:street":"Cliff Lane","name":"Bempton Chalet Park"}},"316513417":{"location":[54.1160487,-0.1016048],"ct":"GB","tp":"CR","ts":"2014-12-09T12:05:10Z","tX":511,"tY":328,"tags":{"name":"Carr House Caravan Club & Rally Site"}},"316513418":{"location":[54.1180878,-0.1031169],"ct":"GB","tp":"CR","ts":"2023-09-20T15:34:06Z","tX":511,"tY":328,"tags":{"addr:city":"Bridlington","addr:postcode":"YO15 1AJ","addr:street":"Lighthouse Road","internet_access":"wlan","internet_access:fee":"no","name":"The Lighthouse Holiday Park","operator":"Flower of May"}},"316577690":{"location":[54.1127859,-0.1599909],"ct":"GB","tp":"CR","ts":"2014-12-09T20:03:18Z","tX":511,"tY":328,"tags":{}},"316577726":{"location":[54.1144336,-0.1426141],"ct":"GB","tp":"CR","ts":"2019-02-15T18:45:17Z","tX":511,"tY":328,"tags":{"addr:city":"Bridlington","addr:postcode":"YO15 1AB","name":"Daneswood"}},"316765430":{"location":[54.1221788,-0.1302524],"ct":"GB","tp":"CR","ts":"2025-01-14T12:51:22Z","tX":511,"tY":328,"tags":{"name":"Flamborough Caravan Park","phone":"+44 1262 850207","website":"https://flamboroughcaravanpark.co.uk/"}},"381453666":{"location":[54.1537297,-0.2486103],"ct":"GB","tp":"CS","ts":"2020-02-10T17:08:54Z","tX":511,"tY":328,"tags":{}},"382225673":{"location":[54.1541286,-0.2536842],"ct":"GB","tp":"CR","ts":"2020-02-12T20:56:20Z","tX":511,"tY":328,"tags":{"addr:city":"Speeton","addr:postcode":"YO14 9TA","name":"Honeypot Inn Caravan Site"}},"445615390":{"location":[54.0692209,-0.2523358],"ct":"GB","tp":"CS","ts":"2023-09-20T15:34:06Z","tX":511,"tY":328,"tags":{"addr:city":"Bridlington","addr:postcode":"YO16 4UR","addr:street":"Bridlington Bay Road","name":"Little Eden Country Park"}},"689204526":{"location":[54.1097483,-0.1272704],"ct":"GB","tp":"CR","ts":"2019-05-10T19:00:42Z","tX":511,"tY":328,"tags":{"name":"Beacon Farm Rally Field"}},"689204527":{"location":[54.1097803,-0.1263792],"ct":"GB","tp":"CR","ts":"2023-03-05T10:17:01Z","tX":511,"tY":328,"tags":{"caravans":"yes","internet_access":"no","name":"Beacon Farm Camping/Caravanning Location","power_supply":"no","sanitary_dump_station":"yes","tents":"yes","website":"https://www.campingandcaravanningclub.co.uk/campsites/uk/east-riding-of-yorkshire/bridlington/beaconfarm/"}},"897601391":{"location":[54.064139,-0.2234112],"ct":"GB","tp":"CR","ts":"2023-09-26T07:32:36Z","tX":511,"tY":328,"tags":{"name":"South Cliff Holiday Park"}}}