{"4270429":{"location":[51.6324134,-0.0336558],"ct":"GB","tp":"CR","ts":"2024-08-14T09:44:04Z","tX":511,"tY":339,"tags":{"addr:city":"London","addr:postcode":"N9 0AR","addr:street":"Meridian Way","contact:website":"http://www.visitleevalley.org.uk/en/content/cms/where-to-stay-and-short-breaks/camping-caravan/","drinking_water":"yes","fee":"yes","name":"Lea Valley Camping and Caravan Park","toilets:wheelchair":"yes","wheelchair":"yes"}},"11821232":{"location":[51.7863783,-0.0648278],"ct":"GB","tp":"CS","ts":"2022-05-09T14:27:11Z","tX":511,"tY":339,"tags":{"membership":"yes","name":"Hertford Camping & Caravanning Club Site","operator":"Camping & Caravanning Club","website":"https://www.campingandcaravanningclub.co.uk/campsites/uk/hertfordshire/hertford/hertford-camping-and-caravanning-club-site"}},"26708067":{"location":[51.742159,-0.279074],"ct":"GB","tp":"CR","ts":"2012-12-21T18:33:23Z","tX":511,"tY":339,"tags":{"name":"Barley Mow Caravan Site"}},"59062159":{"location":[51.7194579,-0.1159458],"ct":"GB","tp":"CS","ts":"2024-03-25T01:02:47Z","tX":511,"tY":339,"tags":{"access":"private","fixme":"Boundary needs verification! Indeed archery range is currently outside the boundary","name":"Tolmers","operator":"Hertfordshire County Scout Council","website":"https://www.tolmers.org.uk/"}},"86143831":{"location":[51.6732946,-0.2611356],"ct":"GB","tp":"CS","ts":"2022-12-17T12:37:34Z","tX":511,"tY":339,"tags":{"access":"private","name":"Well End","operator":"WOSM","scout":"yes"}},"198518945":{"location":[51.6347211,-0.3046321],"ct":"GB","tp":"CR","ts":"2019-03-10T16:20:19Z","tX":511,"tY":339,"tags":{"name":"Watling Farm Caravan Site"}},"218949078":{"location":[51.708659,-0.3171403],"ct":"GB","tp":"CS","ts":"2019-03-22T23:23:48Z","tX":511,"tY":339,"tags":{"caravans":"no","drinking_water":"yes","internet_access":"no","name":"Springfield Park","openfire":"yes","payment:cash":"yes","payment:coins":"yes","payment:credit_cards":"no","payment:cryptocurrencies":"no","payment:debit_cards":"no","payment:notes":"yes","tents":"yes","website":"https://springfieldpark.webs.com/"}},"230232877":{"location":[51.6493108,-0.0013714],"ct":"GB","tp":"CS","ts":"2024-01-29T00:55:32Z","tX":511,"tY":339,"tags":{"access":"private","landuse":"grass","name":"The Quick","operator":"Scout Adventures","surface":"grass"}},"242348089":{"location":[51.7426368,-0.0017893],"ct":"GB","tp":"CR","ts":"2013-10-16T12:00:02Z","tX":511,"tY":339,"tags":{}},"253232692":{"location":[51.6551715,-0.0081551],"ct":"GB","tp":"CS","ts":"2024-07-02T09:57:11Z","tX":511,"tY":339,"tags":{"addr:city":"London","addr:country":"GB","addr:postcode":"E4 7RA","addr:street":"Sewardstone Road","addr:suburb":"Chingford","email":"sewardstonecampsite@leevalleypark.org.uk","name":"Lee Valley Campsite, Sewardstone","phone":"+44 20 8529 5689","power_supply":"yes","website":"https://www.visitleevalley.org.uk/lee-valley-campsite-sewardstone"}},"369932186":{"location":[51.6479779,-0.0000199],"ct":"GB","tp":"CS","ts":"2024-06-29T13:53:02Z","tX":511,"tY":339,"tags":{"access":"private","landuse":"grass","name":"Essex Chase","operator":"Scout Adventures","surface":"grass"}},"691098405":{"location":[51.780556,-0.188329],"ct":"GB","tp":"CR","ts":"2021-11-29T08:00:28Z","tX":511,"tY":339,"tags":{"name":"Commons Wood Caravan and Motorhome Club"}},"699214688":{"location":[51.7296527,-0.3446955],"ct":"GB","tp":"CR","ts":"2023-10-20T23:22:40Z","tX":511,"tY":339,"tags":{"access":"private","description":"Traveller Camp","name":"Watling Street Caravan Park"}},"810220471":{"location":[51.7439288,-0.2486975],"ct":"GB","tp":"CS","ts":"2020-05-31T12:39:48Z","tX":511,"tY":339,"tags":{"access":"private","addr:city":"St Albans","addr:postcode":"AL4 0QH","addr:street":"Roestock Lane","fixme":"Camp site might be larger than this, including nearby fields","name":"Cherry Green Trees","website":"http://www.cherrygreentrees.co.uk/"}},"868015752":{"location":[51.6528475,-0.000588],"ct":"GB","tp":"CS","ts":"2024-07-08T17:28:23Z","tX":511,"tY":339,"tags":{"access":"private","landuse":"grass","name":"New Field","operator":"Scout Adventures","surface":"grass"}},"990106674":{"location":[51.6846386,-0.2264115],"ct":"GB","tp":"CR","ts":"2021-10-05T18:01:47Z","tX":511,"tY":339,"tags":{"name":"The Mimms Caravan Park"}},"1107425756":{"location":[51.6415135,-0.2843057],"ct":"GB","tp":"CS","ts":"2021-05-06T22:54:42Z","tX":511,"tY":339,"tags":{"name":"Northern Heights","scout":"yes","url":"http://www.northernheights.org.uk/"}},"3777420633":{"location":[51.742449,-0.005992],"ct":"GB","tp":"CS","ts":"2024-04-25T13:45:04Z","tX":511,"tY":339,"tags":{"fixme":"c-pk","name":"Lee Valley Almost Wild Campsite","source":"gps+mapnoter","tents":"yes"}},"5221741285":{"location":[51.7515207,-0.0508507],"ct":"GB","tp":"CS","ts":"2023-05-09T05:43:00Z","tX":511,"tY":339,"tags":{"addr:city":"Broxbourne","addr:postcode":"EN11 8GG","addr:street":"Cock Lane","group_only":"yes","internet_access":"wlan","name":"Danemead Scout Camp","scout":"yes","website":"https://danemeadcampsite.org.uk/"}},"5232675826":{"location":[51.7559769,-0.0643949],"ct":"GB","tp":"CS","ts":"2017-11-16T13:22:54Z","tX":511,"tY":339,"tags":{"name":"Brambles"}},"5232691580":{"location":[51.7547527,-0.0677894],"ct":"GB","tp":"CS","ts":"2017-11-16T13:29:51Z","tX":511,"tY":339,"tags":{"name":"Cowheath"}},"5232731450":{"location":[51.7578409,-0.0548129],"ct":"GB","tp":"CS","ts":"2017-11-16T13:53:27Z","tX":511,"tY":339,"tags":{"name":"Highfield"}},"5232739402":{"location":[51.7583589,-0.0504355],"ct":"GB","tp":"CS","ts":"2017-11-16T13:54:19Z","tX":511,"tY":339,"tags":{"name":"Danesmead"}},"9910680478":{"location":[51.7651392,-0.2893646],"ct":"GB","tp":"CR","ts":"2022-07-26T00:50:45Z","tX":511,"tY":339,"tags":{"fixme":"Need to map out properly as polygon along with neighbouring site","name":"Woodstock"}},"6750046995":{"location":[51.800411,-0.0739831],"ct":"GB","tp":"SD","ts":"2019-08-27T13:58:22Z","tX":511,"tY":339,"tags":{"access":"customers","centralkey":"crt_watermate","name":"Hertford Basin Elsan Point","operator":"Canal and River Trust","sanitary_dump_station":"yes","sanitary_dump_station:accepted":"black_water","sanitary_dump_station:basin":"yes","sanitary_dump_station:pump-out":"yes","waste":"toilet","waterway":"sanitary_dump_station"}}}