{"104862690":{"location":[50.8839059,-0.285769],"ct":"GB","tp":"CR","ts":"2021-10-20T17:18:21Z","tX":511,"tY":343,"tags":{"addr:city":"Henfield","addr:locality":"Small Dole","addr:postcode":"BN5 9XH","addr:street":"Henfield Road","name":"Southdown Caravan Park","source":"Bing"}},"119015000":{"location":[50.8224236,-0.0966809],"ct":"GB","tp":"CS","ts":"2021-06-30T16:36:15Z","tX":511,"tY":343,"tags":{"access":"permit","name":"Sheepcote Valley","name:en":"Sheepcote Valley Brighton C.C. Site The Caravan Club Limited and Motorhome Club","name:nl":"Sheepcote Valley Brighton C.C. Site The Caravan Club Limited and Motorhome Club"}},"151162378":{"location":[50.896982,-0.2762163],"ct":"GB","tp":"CS","ts":"2021-10-01T11:30:57Z","tX":511,"tY":343,"tags":{"name":"Hillside Scout Camp","scout":"yes"}},"187510247":{"location":[50.828595,-0.2994923],"ct":"GB","tp":"CR","ts":"2024-05-09T14:59:05Z","tX":511,"tY":343,"tags":{"caravans":"no","motorhome":"no","name":"Broadway Park","static_caravans":"yes","tents":"no","website":"https://berkeleyparks.co.uk/park-category/broadway/"}},"291617791":{"location":[50.9162735,-0.1322292],"ct":"GB","tp":"CS","ts":"2024-04-20T12:59:57Z","tX":511,"tY":343,"tags":{"addr:postcode":"BN6 8LX","address":"Southdown Farm\nLodge Lane\nKeymer\nHassocks\nWest Sussex\nBN6 8LX","caravans":"yes","contact:email":"site@southdown-caravancamping.org.uk","description":"Campsites near Southdown Way National Trail","fee":"yes","hot_water":"yes","motor_vehicle":"yes","name":"Southdown Way Caravan & Camping Park","phone":"01273 841877","power_supply":"yes","tents":"yes","toilets":"yes","website":"https://www.southdown-caravancamping.org.uk/"}},"494398168":{"location":[50.8228918,-0.3080793],"ct":"GB","tp":"CR","ts":"2024-05-09T14:59:05Z","tX":511,"tY":343,"tags":{"caravans":"no","motorhome":"no","name":"Eastern Sands Holiday Park","static_caravans":"yes","tents":"no","website":"https://www.easternsands.co.uk/"}},"494398170":{"location":[50.8221966,-0.3112215],"ct":"GB","tp":"CR","ts":"2024-05-09T14:59:05Z","tX":511,"tY":343,"tags":{"caravans":"no","motorhome":"no","name":"Beach Park","static_caravans":"yes","tents":"no","website":"https://beachparkleisure.co.uk/"}},"508169360":{"location":[50.8871348,-0.1912878],"ct":"GB","tp":"CS","ts":"2024-07-16T12:35:03Z","tX":511,"tY":343,"tags":{"addr:city":"Brighton","addr:housename":"Saddlescombe Farm","addr:postcode":"BN45 7DE","addr:street":"Saddlescombe Road","bbq":"bring_your_own","bicycle":"yes","camp_site":"standard","email":"camillaandroly@googlemail.com","fee":"yes","internet_access":"no","motor_vehicle":"no","name":"Saddlescombe Campsite","note":"No music or artificial light 23:00-0700, BBQs must be kept off ground with rocks provided.","operator":"Camilla and Roly","parking":"no","phone":"+44 (0)1273 857062","toilets":"yes","toilets:wheelchair":"yes","website":"https://www.camillaandroly.co.uk/camping"}},"597921954":{"location":[50.947156,-0.0590062],"ct":"GB","tp":"CS","ts":"2020-06-23T20:15:40Z","tX":511,"tY":343,"tags":{"operator":"The Plough Inn"}},"598204064":{"location":[50.921508,-0.1019194],"ct":"GB","tp":"CS","ts":"2024-02-16T18:24:54Z","tX":511,"tY":343,"tags":{"name":"Stoneywish"}},"598204353":{"location":[50.9166153,-0.132931],"ct":"GB","tp":"CS","ts":"2024-04-19T09:49:43Z","tX":511,"tY":343,"tags":{"caravans":"yes","tents":"yes"}},"603008706":{"location":[50.86784,-0.0562572],"ct":"GB","tp":"CS","ts":"2019-03-22T19:39:13Z","tX":511,"tY":343,"tags":{"name":"Housedean Farm Campsite","website":"https://housedean.co.uk/"}},"609526774":{"location":[50.8424232,-0.0833769],"ct":"GB","tp":"CS","ts":"2024-08-03T12:23:35Z","tX":511,"tY":343,"tags":{"addr:city":"Brighton","addr:housename":"Bevendean Farm","addr:postcode":"BN2 6AF","capacity:tents":"36","caravans":"no","charge":"16 GBP/adult;8 GBP/child;1 GBP/dog","contact:facebook":"https://www.facebook.com/chalkydowns","contact:instagram":"https://www.instagram.com/chalkydownscampsite/","fee":"yes","name":"Chalky Downs Campsite","operator":"Bevendean Farm","static_caravans":"no","tents":"yes","website":"https://chalkydownscampsite.com/","wikimedia_commons":"Category:Chalky Downs Campsite, Bevendean Farm"}},"653546713":{"location":[50.9096066,-0.2076504],"ct":"GB","tp":"CS","ts":"2018-12-08T12:05:02Z","tX":511,"tY":343,"tags":{"name":"Parkwood","operator":"Scout Association"}},"839899287":{"location":[50.9517824,-0.2465601],"ct":"GB","tp":"CS","ts":"2021-07-26T19:38:00Z","tX":511,"tY":343,"tags":{"addr:city":"Henfield","addr:postcode":"BN5 9AT","addr:street":"Wheatsheaf Road","name":"Blacklands Farm Campsite"}},"880150641":{"location":[50.8390097,-0.3008223],"ct":"GB","tp":"CR","ts":"2024-09-17T22:49:18Z","tX":511,"tY":343,"tags":{"name":"Withy Patch Caravan Park"}},"978674433":{"location":[50.9166836,-0.08241],"ct":"GB","tp":"CS","ts":"2021-09-02T09:15:54Z","tX":511,"tY":343,"tags":{"access":"private","name":"Blackberry Wood (Meadow Campsite)"}},"1011903473":{"location":[50.8263423,-0.3089098],"ct":"GB","tp":"CR","ts":"2024-05-09T14:59:05Z","tX":511,"tY":343,"tags":{"caravans":"yes","drinking_water":"yes","fee":"yes","internet_access":"wlan","name":"The Barn Caravan Park","power_supply":"yes","sanitary_dump_station":"no","toilets":"yes","wheelchair":"yes"}},"1194044911":{"location":[50.8104796,-0.0084542],"ct":"GB","tp":"CS","ts":"2023-08-14T17:46:34Z","tX":511,"tY":343,"tags":{"addr:city":"Telscombe Village","addr:postcode":"BN7 3HZ","landuse":"grass","name":"Stud Farm Campsite","phone":"+447377 374371","website":"https://studfarmsouthdowns.co.uk/"}},"1200900710":{"location":[50.9241748,-0.3155809],"ct":"GB","tp":"CS","ts":"2023-08-21T17:30:38Z","tX":511,"tY":343,"tags":{"addr:city":"Steyning","addr:place":"Horsebridge Common","addr:postcode":"BN44 3AL","addr:suburb":"Ashurst","name":"New Wharf Campsite"}},"1201173027":{"location":[50.8962051,-0.3210407],"ct":"GB","tp":"CS","ts":"2023-08-22T19:29:42Z","tX":511,"tY":343,"tags":{"caravans":"yes"}},"1238535426":{"location":[50.9162436,-0.0773695],"ct":"GB","tp":"CS","ts":"2024-05-30T11:07:22Z","tX":511,"tY":343,"tags":{"access":"private","caravans":"no","drinking_water":"yes","fee":"yes","name":"Blackberry Woods","openfire":"yes","phone":"+44 (0)1273 890 035","power_supply":"no","shower":"yes","source":"local_knowledge","tents":"yes","toilets":"yes","website":"https://www.blackberrywood.com/"}},"1278281858":{"location":[50.8244863,-0.309829],"ct":"GB","tp":"CR","ts":"2024-05-09T14:59:05Z","tX":511,"tY":343,"tags":{"caravans":"no","motorhome":"no","name":"Willowbrook Park","static_caravans":"yes","tents":"no","website":"https://cove.co.uk/willowbrook/"}},"3512849707":{"location":[50.9033162,-0.2697669],"ct":"GB","tp":"CR","ts":"2022-03-25T22:25:09Z","tX":511,"tY":343,"tags":{"addr:housename":"Farmhouse Caravans and Camping","phone":"+44 1273 493157","website":"http://www.farmhousecampsite.co.uk/"}},"5071454400":{"location":[50.8815548,-0.2662456],"ct":"GB","tp":"CS","ts":"2023-10-18T23:22:58Z","tX":511,"tY":343,"tags":{"camp_site":"standard","caravans":"no","internet_access":"wlan","internet_access:fee":"no","name":"YHA Truleigh Hill","tents":"yes","website":"https://www.yha.org.uk/hostel/truleigh-hill"}},"11112045167":{"location":[50.8096239,-0.0100756],"ct":"GB","tp":"SD","ts":"2023-08-13T14:46:10Z","tX":511,"tY":343,"tags":{"access":"customers"}}}