{"16606856":{"location":[49.3036129,-0.3212854],"ct":"FR","tp":"CS","ts":"2024-08-11T08:37:58Z","tX":511,"tY":350,"tags":{"addr:city":"Lion-sur-Mer","addr:postcode":"14780","addr:street":"Boulevard Anatole France","cabins":"yes","capacity":"139","caravans":"yes","name":"Camping Oasis","opening_hours":"Apr-Sep","phone":"+33 2 31 24 22 12","ref:FR:SIRET":"47585031900033","stars":"2","tents":"yes","website":"https://www.normandie-sur-mer.fr/campings/camping-oasis-lion-sur-mer/"}},"17925639":{"location":[49.2906907,-0.3030689],"ct":"FR","tp":"CS","ts":"2024-08-11T08:37:58Z","tX":511,"tY":350,"tags":{"addr:city":"Hermanville-sur-Mer","addr:housenumber":"1025","addr:postcode":"14880","addr:street":"Chemin des Hautes Sentes","cabins":"yes","camp_site":"deluxe","caravans":"no","name":"La Citadelle de Loustic","operator":"Cap Fun","phone":"+33 2 31 97 09 62","ref:FR:SIRET":"48157149500037","reservation":"required","stars":"3","tents":"no","website":"https://www.capfun.com/camping-france-basse_normandie-bagatelle-FR.html"}},"18069782":{"location":[49.2863687,-0.3119798],"ct":"FR","tp":"CR","ts":"2024-10-18T17:13:09Z","tX":511,"tY":350,"tags":{"capacity":"6","caravan_site":"motorhome_stopover","caravan_site:type":"village","caravans":"no","dog":"yes","fee":"no","name":"Aire communale Hermanville-sur-Mer","orientation":"perpendicular","power_supply":"no","sanitary_dump_station":"yes","seasonal":"no","surface":"asphalt","tents":"no","water_point":"yes","water_point:fee":"no"}},"62460153":{"location":[49.2821648,-0.1908055],"ct":"FR","tp":"CS","ts":"2019-08-17T21:53:02Z","tX":511,"tY":350,"tags":{"caravans":"yes","contact:website":"https://www.camping-ariane.com/","name":"Camping Village Ariane","tents":"yes"}},"101023115":{"location":[49.2924247,-0.0655312],"ct":"FR","tp":"CS","ts":"2024-10-25T19:48:25Z","tX":511,"tY":350,"tags":{"addr:city":"Houlgate","addr:housenumber":"88","addr:postcode":"14510","addr:street":"Route de la Vallée","caravans":"yes","drinking_water":"yes","internet_access":"wlan","name":"Camping de la Vallée","sanitary_dump_station":"yes","shower":"yes","tents":"yes","toilets":"yes","wheelchair":"yes"}},"107464620":{"location":[49.2692477,-0.254318],"ct":"FR","tp":"CS","ts":"2024-10-12T19:39:04Z","tX":511,"tY":350,"tags":{"name":"Camping Riva Bella","stars":"4","website":"https://www.campingrivabella.com/"}},"107607588":{"location":[49.2847723,-0.187289],"ct":"FR","tp":"CS","ts":"2019-08-10T18:51:13Z","tX":511,"tY":350,"tags":{"alt_name":"La Mer","caravans":"yes","contact:phone":"+33231241603","contact:website":"https://camping-franceville.fr/","internet_access":"wlan","internet_access:fee":"no","name":"Camping de la Mer","sanitary_dump_station":"yes","tents":"yes","wheelchair":"yes"}},"108356758":{"location":[49.2814925,-0.1370269],"ct":"FR","tp":"CS","ts":"2024-07-18T23:01:12Z","tX":511,"tY":350,"tags":{"addr:housenumber":"81","addr:street":"Avenue Guillaume Le Conquérant","cabins":"yes","caravans":"yes","name":"La Pommeraie","permanent_camping":"yes","phone":"+33 231 91 54 58","stars":"2","tents":"yes","website":"https://www.camping-cabourg.com"}},"108867042":{"location":[49.3062209,-0.0694695],"ct":"FR","tp":"CS","ts":"2023-10-20T12:21:43Z","tX":511,"tY":350,"tags":{"addr:city":"Houlgate","addr:postcode":"14510","email":"campingplagehoulgate@gmail.com","name":"Camping de la plage","phone":"+33 2 31 28 73 07","stars":"3","website":"https://www.camping-houlgate.com/"}},"110571214":{"location":[49.3034207,-0.0400349],"ct":"FR","tp":"CS","ts":"2019-05-02T09:08:31Z","tX":511,"tY":350,"tags":{"addr:city":"Gonneville-sur-Mer","addr:postcode":"14510","addr:street":"Route de Trouville","email":"contact@camping-le-lieu-castel.com","name":"Camping le Lieu Castel","phone":"+33 2 31 91 17 64","website":"http://www.camping-le-lieu-castel.com"}},"110571247":{"location":[49.3077035,-0.0467431],"ct":"FR","tp":"CS","ts":"2023-11-17T16:58:04Z","tX":511,"tY":350,"tags":{"addr:postcode":"14510","addr:street":"Route de la Corniche","contact:phone":"+33 2 31 24 81 09","email":"falaises@capfun.com","name":"Les Falaises","stars":"4","website":"https://www.camping-les-falaises.fr"}},"110606660":{"location":[49.3098539,-0.0174533],"ct":"FR","tp":"CS","ts":"2022-11-20T15:29:49Z","tX":511,"tY":350,"tags":{"addr:city":"Villers-sur-Mer","addr:postcode":"14640","caravans":"yes","name":"Bellevue ****","phone":"+33 231 870521","stars":"4","tents":"no","website":"https://www.camping-bellevue.com/"}},"111390413":{"location":[49.3094086,-0.0401714],"ct":"FR","tp":"CS","ts":"2023-10-20T12:20:50Z","tX":511,"tY":350,"tags":{"addr:city":"Auberville","addr:postcode":"14640","addr:street":"Route de la Corniche","name":"Les Ammonites","phone":"+33 2 31 87 06 06","website":"https://www.campinglesammonites.com/"}},"111722008":{"location":[49.2810162,-0.1432165],"ct":"FR","tp":"CS","ts":"2023-11-24T20:02:23Z","tX":511,"tY":350,"tags":{"caravans":"no","name":"Le Vert Pré","permanent_camping":"only","phone":"+33 231242119","tents":"no","website":"https://www.levertpre.fr/"}},"111722020":{"location":[49.2800588,-0.1658423],"ct":"FR","tp":"CS","ts":"2024-08-05T19:08:58Z","tX":511,"tY":350,"tags":{"capacity":"159","caravans":"no","name":"Le Cottage Fleuri","opening_hours":"Apr-Oct","permanent_camping":"only","phone":"+33 2 31 91 86 56","stars":"2","tents":"no","website":"https://cottagefleuri.wixsite.com/e-cottage-fleuri"}},"111722049":{"location":[49.2844424,-0.1922551],"ct":"FR","tp":"CS","ts":"2022-09-13T21:23:11Z","tX":511,"tY":350,"tags":{"caravans":"yes","contact:website":"https://vacances-seasonova.com/fr/camping/camping-le-point-du-jour/","name":"Le Point du Jour Camping","tents":"yes"}},"111722057":{"location":[49.2819528,-0.1713303],"ct":"FR","tp":"CS","ts":"2024-08-05T19:08:58Z","tX":511,"tY":350,"tags":{"addr:street":"Allée des Pins","name":"Les Peupliers","opening_hours":"Apr-Sep","phone":"+33 2 31 24 05 07","stars":"4","website":"https://www.camping-peupliers.com"}},"111722064":{"location":[49.2845124,-0.1911243],"ct":"FR","tp":"CS","ts":"2022-09-13T21:33:14Z","tX":511,"tY":350,"tags":{"caravans":"yes","contact:website":"https://www.normandie-sur-mer.fr/campings/camping-oasis-3-etoiles","name":"Camping Oasis","tents":"yes"}},"111722068":{"location":[49.2819465,-0.1663316],"ct":"FR","tp":"CS","ts":"2024-08-05T19:08:58Z","tX":511,"tY":350,"tags":{"addr:housenumber":"42","addr:street":"Avenue Général Leclerc","caravans":"no","name":"Parc résidentiel de loisirs Pasteur","permanent_camping":"only","phone":"+33 2 31 91 23 08","tents":"no"}},"111722070":{"location":[49.2844374,-0.1386992],"ct":"FR","tp":"CS","ts":"2022-10-05T07:55:05Z","tX":511,"tY":350,"tags":{"name":"Oasis de Cabourg","website":"www.oasisdecabourg.com"}},"111722105":{"location":[49.2828268,-0.1402328],"ct":"FR","tp":"CS","ts":"2024-07-18T23:05:56Z","tX":511,"tY":350,"tags":{"caravans":"no","name":"Le Toucan","permanent_camping":"only","tents":"no"}},"141766267":{"location":[49.2485985,-0.2722277],"ct":"FR","tp":"CS","ts":"2024-08-09T09:08:53Z","tX":511,"tY":350,"tags":{"addr:city":"Bénouville","addr:housenumber":"40","addr:postcode":"14970","addr:street":"Avenue de la Côte de Nacre","cabins":"yes","camp_site":"deluxe","caravans":"no","contact:facebook":"https://www.facebook.com/leshautescoutures","name":"Les Hautes Coutures","operator":"Cap Fun","phone":"+33 2 31 44 73 08","ref:FR:SIRET":"43296821200014","reservation":"required","stars":"4","tents":"no","website":"https://www.campinghautescoutures.com"}},"141771552":{"location":[49.2859646,-0.2713656],"ct":"FR","tp":"CS","ts":"2023-10-31T04:50:07Z","tX":511,"tY":350,"tags":{"addr:housenumber":"4","addr:street":"Avenue du Colonel Dawson","name":"Domaine Les Prairies de la Mer","stars":"4","website":"https://www.domaine-prairiesdelamer.com/"}},"196716702":{"location":[49.2523718,-0.1882532],"ct":"FR","tp":"CS","ts":"2021-06-28T07:33:21Z","tX":511,"tY":350,"tags":{"addr:city":"Gonneville-en-Auge","addr:housenumber":"17","addr:postcode":"14810","addr:street":"Rue de Troarn","contact:fax":"+33231242880","contact:phone":"+33231242136","contact:website":"https://www.campingleclostranquille.fr/","name":"Le Clos Tranquille","stars":"3"}},"196717595":{"location":[49.2378601,-0.2584406],"ct":"FR","tp":"CS","ts":"2024-08-09T09:08:53Z","tX":511,"tY":350,"tags":{"addr:city":"Ranville","addr:housenumber":"1","addr:postcode":"14860","addr:street":"Rue de la Côte Fleurie","capacity":"212","caravans":"yes","internet_access":"wlan","name":"Camping des Capucines","phone":"+33 2 31 78 69 82","ref:FR:SIRET":"30771285100012","tents":"yes","website":"https://campingdescapucines.com/"}},"230558157":{"location":[49.1860356,-0.0495207],"ct":"FR","tp":"CR","ts":"2024-10-08T19:36:21Z","tX":511,"tY":350,"tags":{"addr:postcode":"14430","addr:street":"Avenue de la Gare","capacity:caravans":"25","caravan_site":"motorhome_stopover","caravan_site:type":"parking_lot","charge":"EUR 10","fee":"yes","internet_access":"no","maxstay":"24 hours","name":"Beuvron-en-Auge","name:es":"Área de autocaravanas de pago","note":"inkl. Ver-und Entsorgung, Gebühr bezahlen ca 100m","opening_hours":"24/7","power_supply":"no","sanitary_dump_station":"yes","service:charge":"EUR 4","service:fee":"yes","website":"https://www.normandie-cabourg-paysdauge-tourisme.fr/en/camping/aire-de-camping-cars-communale-de-beuvron-en-auge/"}},"245126254":{"location":[49.2876657,-0.2499007],"ct":"FR","tp":"CR","ts":"2024-10-10T22:29:49Z","tX":511,"tY":350,"tags":{"addr:city":"Ouistreham","addr:postcode":"14150","addr:street":"Boulevard Maritime","capacity":"45","capacity:caravans":"45","caravan_site":"motorhome_stopover","caravan_site:type":"town","charge":"13 EUR","fee":"yes","name":"Aire Camping-Car Ouistreham","power_supply":"yes","sanitary_dump_station":"yes","seasonal":"no","website":"https://www.normandie-tourisme.fr/aires-camping-cars/aire-de-camping-cars-communale-de-ouistreham-riva-bella/"}},"255557079":{"location":[49.2276095,-0.2044218],"ct":"FR","tp":"CS","ts":"2024-07-21T21:59:17Z","tX":511,"tY":350,"tags":{"addr:street":"Chemin du Prieuré","caravans":"yes","internet_access":"wlan","internet_access:fee":"no","name":"Caming du Prieuré","power_supply":"yes","stars":"2","tents":"no","website":"http://www.campingduprieure.com/","wheelchair":"yes"}},"275994707":{"location":[49.2888064,-0.282036],"ct":"FR","tp":"CS","ts":"2024-08-11T08:37:58Z","tX":511,"tY":350,"tags":{"addr:city":"Colleville-Montgomery","addr:housenumber":"2","addr:postcode":"14880","addr:street":"Rue de la Mer","cabins":"yes","camp_site":"serviced","caravans":"yes","name":"Les Salines","phone":"+33 2 31 96 36 85","ref:FR:SIRET":"32028087800010","reservation":"recommended","stars":"3","tents":"yes","website":"https://camping-lessalines-normandie.com"}},"343492671":{"location":[49.2851387,-0.209876],"ct":"FR","tp":"CR","ts":"2024-10-26T20:51:12Z","tX":511,"tY":350,"tags":{"capacity":"6","caravan_site":"motorhome_stopover","caravan_site:type":"beach","drinking_water":"yes","fee":"no","name":"Aire de camping-cars – Merville-Franceville-Plage","power_supply":"no","sanitary_dump_station":"yes","seasonal":"no","surface":"asphalt","tents":"no","water_point":"yes","website":"https://www.normandie-cabourg-paysdauge-tourisme.fr/camping/aire-de-camping-cars-intercommunale-merville-franceville-plage/","wheelchair":"yes"}},"343494369":{"location":[49.2199345,-0.2449372],"ct":"FR","tp":"CR","ts":"2024-10-25T22:05:51Z","tX":511,"tY":350,"tags":{"capacity":"8","caravan_site":"motorhome_stopover","caravan_site:type":"village","drinking_water":"yes","fee":"no","internet_access":"no","lit":"yes","name":"Aire de Camping-cars Hérouvillette","picnic_table":"yes","playground":"yes","power_supply":"no","sanitary_dump_station":"yes","sanitary_dump_station:chemical_toilet":"yes","sanitary_dump_station:fee":"no","sanitary_dump_station:grey_water":"yes","tents":"no","toilets":"no","water_point":"yes","water_point:fee":"yes","website":"https://www.herouvillette.fr/vivre-a-herouvillette/aire-de-camping-car/"}},"390577582":{"location":[49.27856,-0.0692747],"ct":"FR","tp":"CS","ts":"2020-11-01T11:29:15Z","tX":511,"tY":350,"tags":{"name":"Camping du Golf","stars":"3"}},"516687917":{"location":[49.3043393,-0.3297412],"ct":"FR","tp":"CS","ts":"2024-08-11T08:37:58Z","tX":511,"tY":350,"tags":{"addr:city":"Lion-sur-Mer","addr:housenumber":"19","addr:postcode":"14780","addr:street":"Rue Galante","camp_site":"serviced","caravans":"yes","drinking_water":"yes","email":"patricia_rosalielechevalier@yahoo.fr","fee":"yes","name":"Camping La Ferme","opening_hours":"May-Sep","phone":"+33 2 31 96 74 37","ref:FR:SIRET":"40167475900014","shower":"yes","tents":"yes"}},"644524008":{"location":[49.2709088,-0.2989892],"ct":"FR","tp":"CR","ts":"2024-10-10T21:54:14Z","tX":511,"tY":350,"tags":{"capacity":"16","caravan_site":"motorhome_stopover","caravan_site:type":"village","caravans":"no","charge":"13 EUR","fee":"yes","internet_access":"wlan","name":"Aire de camping-cars de Colleville-Montgomery","network":"AirePark","opening_hours":"24/7","power_supply":"yes","power_supply:capacity":"16","sanitary_dump_station":"yes","sanitary_dump_station:chemical_toilet":"yes","sanitary_dump_station:grey_water":"yes","tents":"no","water_point":"yes","website":"https://www.colleville-montgomery.fr/tourisme/camping-car/"}},"759222191":{"location":[49.2898025,-0.1042592],"ct":"FR","tp":"CR","ts":"2024-10-11T05:01:28Z","tX":511,"tY":350,"tags":{"caravan_site":"motorhome_stopover","caravan_site:type":"river","charge":"6 EUR","fee":"no","internet_access":"no","name":"Dives-sur-Mer Port-Guillaume","opening_hours":"24/7","power_supply":"no","power_supply:maxcurrent":"16","sanitary_dump_station":"yes","sanitary_dump_station:chemical_toilet":"yes","sanitary_dump_station:grey_water":"yes","water_point":"yes","wheelchair":"yes"}},"854468353":{"location":[49.2853556,-0.0889105],"ct":"FR","tp":"CS","ts":"2024-04-29T21:28:53Z","tX":511,"tY":350,"tags":{"name":"Les Tilleuls"}},"896295156":{"location":[49.3006313,-0.316061],"ct":"FR","tp":"CR","ts":"2024-10-11T20:24:30Z","tX":511,"tY":350,"tags":{"bbq":"no","cabins":"no","capacity":"10","caravan_site":"motorhome_stopover","caravan_site:type":"beach","caravans":"no","charge":"15.20 EUR","contact:phone":"+33183646921","fee":"yes","internet_access":"yes","internet_access:fee":"no","maxlength":"none","name":"Aire Camping-car Lion-sur-Mer","network":"CAMPING-CAR PARK","operator":"Camping-car park","permanent_camping":"no","power_supply":"cee_17_blue","power_supply:maxcurrent":"6","sanitary_dump_station":"customers","static_caravans":"no","tents":"no","trailer":"no","website":"https://www.campingcarpark.com/en_GB/stay/stopover-site-motorhome/normandie/14-calvados/lion-sur-mer"}},"1190646972":{"location":[49.2823213,-0.1192469],"ct":"FR","tp":"CR","ts":"2024-10-18T17:24:24Z","tX":511,"tY":350,"tags":{"capacity":"6","caravan_site":"motorhome_stopover","caravan_site:type":"village","fee":"no","maxstay":"48 hours","name":"Cabourg Avenue Michel d'Ornano","power_supply":"no","sanitary_dump_station:fee":"no","sanitary_dump_station:grey_water":"yes","service:charge":"6 EUR","water_point":"yes","water_point:charge":"6 EUR","water_point:fee":"yes","website":"https://www.normandie-cabourg-paysdauge-tourisme.fr/en/camping/aire-de-camping-car-de-cabourg/"}},"1217355856":{"location":[49.31416,-0.3433774],"ct":"FR","tp":"CR","ts":"2024-10-10T23:24:18Z","tX":511,"tY":350,"tags":{"capacity":"4","caravan_site":"motorhome_stopover","caravan_site:type":"beach","fee":"no","name":"Aire de camping-car communale de Luc-Sur-Mer","power_supply":"cee_17_blue","power_supply:fee":"yes","sanitary_dump_station":"yes","sanitary_dump_station:chemical_toilet":"yes","sanitary_dump_station:grey_water":"yes","services:charge":"2 EUR: water,1 hour power_supply","water_point":"yes","water_point:fee":"yes","website":"https://www.calvados-tourisme.com/offre/aire-de-camping-car-communale-de-luc-sur-mer/"}},"1226701259":{"location":[49.2882731,-0.1346108],"ct":"FR","tp":"CS","ts":"2023-11-25T13:06:10Z","tX":511,"tY":350,"tags":{"addr:housenumber":"70","addr:street":"Avenue Charles de Gaulle","description":"Priorité aux habitants de Mondeville. Ouverture aux personnes extérieures si les emplacements sont disponibles et dans une quotité limitée pour une durée n’excédant pas 8 jours/7 nuits.","name":"Camping & Espace Loisirs Pierre Soismier","opening_hours":"May-Sep","operator":"Ville de Mondeville","phone":"+33 2 31 91 06 41","website":"https://www.campingsoismiercabourg.com/"}},"1239566951":{"location":[49.2464736,-0.2146994],"ct":"FR","tp":"CS","ts":"2024-08-09T06:51:12Z","tX":511,"tY":350,"tags":{"addr:city":"Amfreville","addr:housenumber":"30","addr:postcode":"14860","addr:street":"Rue de Dolton","caravans":"yes","name":"Camping Alanjo","phone":"+33 2 31 78 89 87","ref:FR:SIRET":"50890956100013","static_caravans":"yes","tents":"yes"}},"1305803319":{"location":[49.2841829,-0.1805133],"ct":"FR","tp":"CS","ts":"2024-08-05T19:08:58Z","tX":511,"tY":350,"tags":{"caravans":"yes","name":"Les Rivages","tents":"yes"}},"1316489138":{"location":[49.2648406,-0.2270935],"ct":"FR","tp":"CR","ts":"2024-09-26T10:48:06Z","tX":511,"tY":350,"tags":{"capacity":"2","caravan_site":"motorhome_stopover","caravans":"no","fee":"no","internet_access":"no","name":"Aire de camping-car – Sallenelles","power_supply":"no","sanitary_dump_station":"yes","tents":"no","water_point":"yes","website":"https://www.normandie-cabourg-paysdauge-tourisme.fr/camping/aire-de-camping-car-sallenelles/"}},"2030487436":{"location":[49.2416859,-0.2282469],"ct":"FR","tp":"SD","ts":"2023-07-19T19:17:28Z","tX":511,"tY":350,"tags":{"fee":"no","name":"Bréville-les-Monts","sanitary_dump_station:chemical_toilet":"yes","sanitary_dump_station:grey_water":"yes","water_point":"yes","water_point:fee":"yes"}},"3503254253":{"location":[49.2850295,-0.2098653],"ct":"FR","tp":"SD","ts":"2024-05-29T07:55:12Z","tX":511,"tY":350,"tags":{}},"3503267527":{"location":[49.2198103,-0.2448986],"ct":"FR","tp":"SD","ts":"2020-02-29T11:34:28Z","tX":511,"tY":350,"tags":{"access":"yes","fee":"yes"}},"10016650497":{"location":[49.2719349,-0.0327596],"ct":"FR","tp":"CS","ts":"2024-08-07T06:40:17Z","tX":511,"tY":350,"tags":{"caravans":"no","fee":"yes","motorhome":"yes","power_supply":"no","reservation":"no","sanitary_dump_station":"no","shower":"no","tents":"no","toilets":"yes","water_point":"yes"}},"5838904123":{"location":[49.2416041,-0.228141],"ct":"FR","tp":"CR","ts":"2024-10-30T21:46:51Z","tX":511,"tY":350,"tags":{"capacity":"4","caravan_site":"motorhome_stopover","caravan_site:type":"village","fee":"no","name":"Bréville-les-Monts","sanitary_dump_station:chemical_toilet":"yes","sanitary_dump_station:grey_water":"yes","seasonal":"no","water_point":"yes","water_point:fee":"yes","website":"https://www.normandie-cabourg-paysdauge-tourisme.fr/camping/aire-de-camping-car-breville-les-monts/"}},"11055216340":{"location":[49.2795715,-0.1350559],"ct":"FR","tp":"CR","ts":"2024-10-08T17:33:09Z","tX":511,"tY":350,"tags":{"caravan_site":"motorhome_stopover","caravan_site:type":"super_market","fee":"no","motorcar":"yes","name":"Cabourg Market","power_supply":"no","sanitary_dump_station":"yes","sanitary_dump_station:fee":"no","sanitary_dump_station:grey_water":"yes","service:charge":"EUR 2","surface":"asphalt","water_point:fee":"yes","website":"https://www.normandie-cabourg-paysdauge-tourisme.fr/camping/aire-de-camping-car-market/"}},"10075952746":{"location":[49.30392,-0.3295696],"ct":"FR","tp":"SD","ts":"2022-10-04T21:56:54Z","tX":511,"tY":350,"tags":{"access":"customers"}},"11055216336":{"location":[49.2823326,-0.1194106],"ct":"FR","tp":"SD","ts":"2023-07-19T16:47:23Z","tX":511,"tY":350,"tags":{"fee":"yes","sanitary_dump_station:chemical_toilet":"yes","sanitary_dump_station:fee":"y","sanitary_dump_station:grey_water":"yes","water_point":"yes"}},"11055517953":{"location":[49.2901116,-0.1041394],"ct":"FR","tp":"SD","ts":"2023-07-19T19:42:08Z","tX":511,"tY":350,"tags":{"fee":"no","sanitary_dump_station:chemical_toilet":"yes","sanitary_dump_station:grey_water":"yes"}},"11979015274":{"location":[49.2780387,-0.1345061],"ct":"FR","tp":"SD","ts":"2024-06-13T19:36:39Z","tX":511,"tY":350,"tags":{"operator":"Carrefour Market à Cabourg"}},"12184719939":{"location":[49.2648392,-0.2271033],"ct":"FR","tp":"SD","ts":"2024-09-18T19:30:36Z","tX":511,"tY":350,"tags":{"access":"yes"}}}