{"124371722":{"location":[48.6090856,-0.314614],"ct":"FR","tp":"CS","ts":"2011-08-03T14:41:37Z","tX":511,"tY":353,"tags":{"name":"La Champ de la Vallée"}},"460918388":{"location":[48.569853,-0.1395372],"ct":"FR","tp":"CS","ts":"2023-10-18T11:51:15Z","tX":511,"tY":353,"tags":{"addr:housenumber":"1-3","addr:street":"Route de Saint-Sauveur de Carrouges","name":"Camping municipal de Carrouges","phone":"+33 2 33 27 20 38","website":"https://carrouges.fr/"}},"940776611":{"location":[48.4606938,-0.199686],"ct":"FR","tp":"CR","ts":"2024-11-08T21:29:21Z","tX":511,"tY":353,"tags":{"addr:city":"Pré-en-Pail","addr:postcode":"53140","addr:street":"rue des Troënes","capacity":"10","caravan_site":"motorhome_stopover","caravan_site:type":"village","fee":"no","internet_access":"no","name":"Aire de stationnement - espace Leson","official_name":"Aire de stationnement Pré-en-Pail-Saint-Samson - espace Leson","opening_hours":"24/7","power_supply":"no","sanitary_dump_station":"no","seasonal":"no","surface":"grass_paver","toilets":"yes","website":"https://www.enpaysdelaloire.com/hebergements/aires-de-camping-car/aire-de-stationnement-pre-en-pail-saint-samson-espace-leson"}},"1292194626":{"location":[48.6423624,-0.2132121],"ct":"FR","tp":"CR","ts":"2024-06-13T20:10:21Z","tX":511,"tY":353,"tags":{"capacity":"8","caravan_site":"motorhome_stopover","charge":"9.60 EUR","fee":"yes","maxstay":"7 days","name":"Aire de camping-cars Rânes","network":"AirePark","power_supply":"yes","reservation":"yes","sanitary_dump_station":"yes","water_point":"yes","website":"https://www.aireparkreservation.com/aires-camping-cars/normandie/orne/ranes"}},"1293269269":{"location":[48.4900241,-0.0536717],"ct":"FR","tp":"CR","ts":"2024-06-17T19:57:21Z","tX":511,"tY":353,"tags":{"capacity":"2","caravan_site":"motorhome_stopover","caravan_site:type":"village","fee":"no","name":"Aire La Roche-Mabile","network":"AirePark","power_supply":"yes","power_supply:capacity":"2","water_point":"yes","water_point:charge":"2 EUR","water_point:fee":"yes","website":"https://www.aireparkreservation.com/aires-camping-cars/normandie/orne/la-roche-mabile"}},"3333753420":{"location":[48.6394442,-0.2146642],"ct":"FR","tp":"CS","ts":"2015-02-06T09:37:55Z","tX":511,"tY":353,"tags":{}},"11234219539":{"location":[48.4684934,-0.1804882],"ct":"FR","tp":"CS","ts":"2023-11-12T12:06:16Z","tX":511,"tY":353,"tags":{"addr:street":"100 Le Tronchet Pré en Pail","name":"Aire naturelle du Pré Joly","name:en":"Natural area campsite for bicycle","phone":"+33 6 83 26 14 87","website":"https://www.mayenne-tourisme.com/offres/aire-naturelle-de-camping-du-joli-pre-pre-en-pail-fr-4293460/"}},"12075017868":{"location":[48.5355344,-0.0749812],"ct":"FR","tp":"CS","ts":"2024-07-26T10:34:15Z","tX":511,"tY":353,"tags":{"access":"customers","capacity:tents":"6","caravans":"no","dog":"no","fee":"yes","name":"Camping Le Jardin des Druides","power_supply":"yes","shower":"yes","static_caravans":"no","tents":"yes","toilets":"yes","website":"https://www.lamaisondesdruides.com"}},"8711784240":{"location":[48.4641223,-0.1917033],"ct":"FR","tp":"SD","ts":"2024-09-19T17:55:23Z","tX":511,"tY":353,"tags":{"access":"yes","name":"Aire de Service Pré-en-Pail-Saint-Samson - Super U","seasonal":"no","water_point":"yes","website":"https://www.enpaysdelaloire.com/hebergements/aires-de-camping-car/aire-de-service-pre-en-pail-super-u"}}}