{"50633813":{"location":[47.3932782,-0.2744126],"ct":"FR","tp":"CS","ts":"2020-05-25T20:02:43Z","tX":511,"tY":358,"tags":{"access":"customers","cabins":"no","capacity":"75","caravans":"yes","email":"camping@lamenitre.fr","name":"Camping du port St Maur","phone":"+33 2 41 45 63 63","source":"cadastre-dgi-fr source : Direction Générale des Impôts - Cadastre;mise à jour : 2009","stars":"2","tents":"yes","website":"http://www.lamenitre.fr/Camping-du-port-St-Maur.html"}},"107802437":{"location":[47.4938998,-0.0449655],"ct":"FR","tp":"CR","ts":"2024-10-25T21:49:10Z","tX":511,"tY":358,"tags":{"capacity":"25","caravan_site":"motorhome_stopover","caravan_site:type":"river","dog":"yes","fee":"no","name":"Aire de Camping-car Le Guédeniau","opening_hours":"24/7","picnic_area":"yes","power_supply":"yes","sanitary_dump_station":"yes","sanitary_dump_station:chemical_toilet":"yes","sanitary_dump_station:grey_water":"yes","website":"https://www.loir-valley.com/offers/aire-de-services-camping-cars-de-le-guedeniau-le-plan-deau-bauge-en-585061/"}},"196922086":{"location":[47.40947,-0.3172951],"ct":"FR","tp":"CS","ts":"2022-08-28T08:41:56Z","tX":511,"tY":358,"tags":{"cabin:rental":"yes","caravans":"yes","name":"Camping municipal","phone":"+33 6 11 41 75 61","tents":"yes","website":"http://camping49.com"}},"231836396":{"location":[47.3434333,-0.2299437],"ct":"FR","tp":"CS","ts":"2020-12-14T21:50:44Z","tX":511,"tY":358,"tags":{"addr:street":"Avenue des Cadets de Saumur","fixme":"Le tracé des allées est à reprendre","name":"Camping Au Bord de Loire","openfire":"no","phone":"+33 2 41 38 04 67","stars":"2","tents":"yes","website":"https://www.camping-auborddeloire.com/"}},"244887861":{"location":[47.2933358,-0.1420017],"ct":"FR","tp":"CS","ts":"2021-05-14T07:37:33Z","tX":511,"tY":358,"tags":{"brand":"Huttopia","camp_site":"deluxe","caravans":"yes","drinking_water":"yes","internet_access":"wlan","internet_access:fee":"no","name":"Camping Huttopia Saumur","old_name":"Camping de Chantepie","phone":"+33 2 41 67 95 34","power_supply":"yes","sanitary_dump_station":"customers","source":"cadastre-dgi-fr source : Direction Générale des Impôts - Cadastre;mise à jour :2008","stars":"4","swimming_pool":"yes","tents":"yes","washing_machine":"yes","website":"https://europe.huttopia.com/site/camping-saumur/","wheelchair":"yes"}},"257361345":{"location":[47.3103509,-0.144603],"ct":"FR","tp":"CS","ts":"2023-04-10T21:38:26Z","tX":511,"tY":358,"tags":{"access":"customers","addr:street":"Descente de La Croix Rouge","cabin:rental":"tent","cabins":"1","capacity":"84","caravans":"yes","name":"Camping Terre d'Entente","phone":"+33 972303172; +33 770076937","source":"Bing","stars":"2","tents":"yes","website":"https://www.terre-dentente.fr/"}},"263323134":{"location":[47.4881312,-0.1953069],"ct":"FR","tp":"CS","ts":"2021-01-23T15:02:37Z","tX":511,"tY":358,"tags":{"name":"Le Champ du Moulin"}},"329947126":{"location":[47.3589973,-0.2261303],"ct":"FR","tp":"CS","ts":"2024-11-29T19:29:50Z","tX":511,"tY":358,"tags":{"addr:street":"Rue de Sainte-Baudruche","cabin:rental":"yes","caravans":"yes","contact:facebook":"https://www.facebook.com/Yelloh-Village-Les-Voiles-dAnjou-182164470417/","name":"Les Voiles d’Anjou","phone":"+33 2 41 51 94 33","stars":"4","swimming_pool":"yes","tents":"yes","website":"https://www.camping-voilesdanjou.com/"}},"364253021":{"location":[47.2988433,-0.0121263],"ct":"FR","tp":"CS","ts":"2023-04-10T21:38:26Z","tX":511,"tY":358,"tags":{"access":"customers","addr:city":"Allonnes","addr:housenumber":"51","addr:postcode":"49650","addr:street":"Route du Pô","cabin:rental":"yes","capacity":"86","caravans":"yes","facebook":"https://www.facebook.com/pages/Camping-Le-P%C3%B4-Dor%C3%A9/152579978121446","name":"Camping le Pô Doré","phone":"+33 2 41 38 78 80; +33 6 48 15 66 61","source":"Bing","stars":"4","swimming_pool":"yes","tents":"yes","website":"https://www.camping-lepodore.com/"}},"439717772":{"location":[47.3267768,-0.1944747],"ct":"FR","tp":"CR","ts":"2024-09-19T20:45:18Z","tX":511,"tY":358,"tags":{"capacity":"20","caravan_site":"motorhome_stopover","caravan_site:type":"river","fee":"yes","maxstay":"72 hours","name":"Aire d’accueil Chênehutte-Trèves-Cunault","opening_hours":"24/7","power_supply:charge":"4 EUR/6 hours","power_supply:fee":"yes","sanitary_dump_station":"yes","seasonal":"no","water_point":"yes","water_point:charge":"4 EUR/100 liter","water_point:fee":"yes","website":"https://www.gennesvaldeloire.fr/camping-et-aire-camping-car/"}},"669305487":{"location":[47.3754391,-0.3427987],"ct":"FR","tp":"CS","ts":"2023-05-19T09:09:25Z","tX":511,"tY":358,"tags":{"access":"customers","addr:city":"Coutures","addr:housenumber":"150","addr:postcode":"49320","addr:street":"Route de Montsabert","cabin:rental":"yes","capacity":"92","caravans":"yes","name":"Camping Parc de Montsabert","phone":"+33 2 41 57 91 63","source":"Mapbox","stars":"4","swimming_pool":"yes","tents":"yes","website":"https://www.parcdemontsabert.com/fr/"}},"839432754":{"location":[47.3273434,-0.3325975],"ct":"FR","tp":"CS","ts":"2023-10-17T05:50:35Z","tX":511,"tY":358,"tags":{"name":"Ferme du Bois Madame","source":"data.gouv.fr:DATAtourisme - 05/2020","website":"https://www.fermeduboismadame.com/"}},"886497051":{"location":[47.4505915,-0.2820848],"ct":"FR","tp":"CR","ts":"2024-05-17T21:33:37Z","tX":511,"tY":358,"tags":{"bbq":"no","capacity":"20","caravan_site":"motorhome_stopover","caravan_site:type":"river","caravans":"no","dog":"leashed","fee":"yes","internet_access":"wlan","internet_access:fee":"no","maxlength":"9","name":"Aire Camping-car Mazé-Milon","network":"CAMPING-CAR PARK","opening_hours":"24/7","operator":"CAMPING-CAR PARK","power_supply":"yes","power_supply:capacity":"16","power_supply:fee":"no","power_supply:maxcurrent":"6","sanitary_dump_station":"yes","surface":"grass","tents":"no","trailer":"no","water_point":"yes","website":"https://www.campingcarpark.com/en_GB/stay/stopover-site-motorhome/pays-de-la-loire/49-maine-et-loire/maze-milon"}},"1210597897":{"location":[47.4755414,-0.3060508],"ct":"FR","tp":"CS","ts":"2024-05-20T07:04:06Z","tX":511,"tY":358,"tags":{"access":"customers","capacity":"30","caravans":"yes","contact:email":"natanjou49@gmail.com","contact:phone":"+33 6 83 92 85 06","contact:website":"http://www.natanjou.org/","description":"Le terrain du club des naturistes de Maine et Loire","dog":"yes","email":"natanjou49@gmail.com","internet_access":"no","name":"Natanjou","nudism":"yes","operator":"Natanjou","payment:cash":"yes","payment:cheque":"yes","payment:mastercard":"no","payment:visa":"no","phone":"+33 6 83 92 85 06","tents":"yes","website":"http://www.natanjou.org/","wheelchair":"yes"}},"1317126968":{"location":[47.3647031,-0.2631556],"ct":"FR","tp":"CR","ts":"2024-09-21T14:03:54Z","tX":511,"tY":358,"tags":{"capacity":"4","caravan_site":"motorhome_stopover","caravan_site:type":"river","dog":"yes","fee":"no","name":"Aire camping-cars Le Thoureil","power_supply":"no","sanitary_dump_station":"no","water_point":"no"}},"1340258239":{"location":[47.4877957,-0.1949],"ct":"FR","tp":"CR","ts":"2024-12-05T11:10:23Z","tX":511,"tY":358,"tags":{"capacity":"10","caravan_site":"motorhome_stopover","caravan_site:type":"lake","charge":"15 EUR","fee":"yes","name":"Aire de camping-cars de Fontaine Guerin-le plan d'eau","opening_hours":"24/7","power_supply":"yes","power_supply:charge":"3 EUR","power_supply:fee":"yes","seasonal":"no","tents":"no","water_point":"yes","water_point:charge":"5 EUR","water_point:fee":"yes","website":"https://www.anjou-tourisme.com/fr/diffusio/camping-car/aire-de-services-camping-cars-de-fontaine-guerin-le-plan-d-eau-les-bois-d-anjou_TFOACCAMPDL049V50AOKC"}},"10957519384":{"location":[47.3715014,-0.2894932],"ct":"FR","tp":"CS","ts":"2023-07-02T11:39:08Z","tX":511,"tY":358,"tags":{"cabins":"yes","caravans":"yes","name":"Domaine du Bois Davy","phone":"+33 2 41 45 75 28","tents":"yes","toilets":"yes","website":"https://www.domaine-du-bois-davy.fr/"}},"6738925297":{"location":[47.3438097,-0.2296487],"ct":"FR","tp":"SD","ts":"2019-08-23T14:19:16Z","tX":511,"tY":358,"tags":{"name":"Camping Au Bord de Loire"}},"12193570983":{"location":[47.380599,-0.1149118],"ct":"FR","tp":"SD","ts":"2024-09-22T23:03:30Z","tX":511,"tY":358,"tags":{"access":"yes","fee":"no","sanitary_dump_station:chemical_toilet":"yes","sanitary_dump_station:grey_water":"yes","water_point":"yes","website":"https://www.anjou-loire-valley.co.uk/diffusio/motorhome-area/aire-camping-cars-de-longue-jumelles-longue-jumelles_TFOACCAMKZSCCLONGUE"}},"12397581387":{"location":[47.4877894,-0.195124],"ct":"FR","tp":"SD","ts":"2024-12-05T11:10:23Z","tX":511,"tY":358,"tags":{"access":"yes","fee":"yes","sanitary_dump_station:chemical_toilet":"yes","sanitary_dump_station:grey_water":"yes","water_point":"yes"}}}