{"49184359":{"location":[45.7086757,-0.3112533],"ct":"FR","tp":"CS","ts":"2019-06-15T19:30:38Z","tX":511,"tY":365,"tags":{"camp_site":"serviced","caravans":"yes","name":"Camping de Cognac","phone":"+33 5 45 32 13 32","source":"cadastre-dgi-fr;cadastre-dgi-fr source : Direction Générale des Impôts - Cadastre. Mise à jour : 2010","stars":"3","tents":"yes","website":"http://www.campingdecognac.fr"}},"217119926":{"location":[45.6660048,-0.0003899],"ct":"FR","tp":"CR","ts":"2024-09-26T20:42:02Z","tX":511,"tY":365,"tags":{"capacity":"3","caravan_site":"motorhome_stopover","fee":"no","name":"Aire de camping-cars Hiersac","picnic_table":"yes","power_supply":"yes","power_supply:charge":"6 EUR/6 hours","power_supply:fee":"yes","sanitary_dump_station":"yes","sanitary_dump_station:chemical_toilet":"yes","sanitary_dump_station:grey_water":"yes","water_point":"yes","water_point:charge":"3 EUR","water_point:fee":"yes","website":"https://www.mairie-hiersac.fr/detail-1192-aire-de-camping-cars.html"}},"562019687":{"location":[45.6743865,-0.1730975],"ct":"FR","tp":"CS","ts":"2021-12-31T18:15:09Z","tX":511,"tY":365,"tags":{"addr:city":"Gondeville","addr:country":"FR","addr:postcode":"16200","addr:street":"Quai Île Madame","caravans":"yes","internet_access":"wlan","internet_access:fee":"no","name":"L'Île Madame - Jarnac","operator":"Municipalité","phone":"+33 6 26 91 40 92","sanitary_dump_station":"customers","stars":"3","tents":"yes","website":"https://www.tourism-cognac.com/camping/camping-lile-madame-2//"}},"677480088":{"location":[45.6104542,-0.0699931],"ct":"FR","tp":"CS","ts":"2023-03-12T13:18:38Z","tX":511,"tY":365,"tags":{"addr:city":"Châteauneuf-sur-Charente","addr:housenumber":"7","addr:postcode":"16120","addr:street":"Route de Chassors","description":"Laure et Laurent vous accueillent, toute l'année, dans leur camping situé sur la commune de Châteauneuf sur Charente. Cet écrin de verdure très largement ombragé dispose d'une quinzaine d'emplacements. Ils seront heureux de vous héberger en mobil home,...","email":"campingdeletang16@gmail.com","name":"Camping de l'Étang","operator":"Laurent Imbert","phone":"+335 45 91 90 53","ref:FR:NAF":"5530Z","ref:FR:SIRET":"82136035100018","source":"cadastre-dgi-fr source : Direction Générale des Impôts - Cadastre. Mise à jour : 2019","website":"https://www.campingdeletang-charente.com/"}},"884286410":{"location":[45.6721719,-0.2274868],"ct":"FR","tp":"CS","ts":"2021-12-23T08:38:49Z","tX":511,"tY":365,"tags":{"caravans":"yes","name":"Camping du Port","operator":"Municipalité","sanitary_dump_station":"yes","tents":"yes","website":"https://campingbourgcharente.wixsite.com/lecamping"}},"1092036271":{"location":[45.6930814,-0.3358355],"ct":"FR","tp":"CR","ts":"2024-10-07T18:26:20Z","tX":511,"tY":365,"tags":{"capacity":"16","caravan_site":"motorhome_stopover","caravan_site:type":"village","caravans":"no","charge":"15 EUR","charge:conditional":"13.50 EUR @ (Oct-May)","fee":"yes","internet_access":"wlan","internet_access:fee":"no","name":"Camping-car Park Cognac","network":"CAMPING-CAR PARK","opening_hours":"24/7","operator":"CAMPING-CAR PARK","power_supply":"yes","power_supply:capacity":"16","power_supply:fee":"no","power_supply:maxcurrent":"6","sanitary_dump_station":"yes","surface":"asphalt","tents":"no","water_point":"yes","water_point:fee":"no","website":"https://www.campingcarpark.com/fr_FR/sejour/aire-etape-camping-car/nouvelle-aquitaine/16-charente/cognac"}},"1237640760":{"location":[45.6634402,-0.1675657],"ct":"FR","tp":"CR","ts":"2024-01-06T22:39:21Z","tX":511,"tY":365,"tags":{"caravan_site":"motorhome_stopover","caravan_site:type":"winery","fee":"no","name":"Vignoble des Bergeronnettes","opening_hours":"24/7","product":"cognac;wine","seasonal":"no","website":"https://cognac-peyrot.com/"}},"1255779987":{"location":[45.7802244,-0.062185],"ct":"FR","tp":"CR","ts":"2024-10-23T20:43:30Z","tX":511,"tY":365,"tags":{"bbq":"no","capacity":"40","caravan_site":"motorhome_stopover","caravan_site:type":"village","caravans":"yes","caravans:conditional":"no @ (Nov 01-Apr 13)","charge":"14.20 EUR","charge:conditional":"12 EUR @ (Nov 01-Apr 13)","dog":"leashed","fee":"yes","internet_access":"wlan","maxlength":"none","name":"Camping-car Park Rouillac","network":"CAMPING-CAR PARK","opening_hours":"24/7","power_supply":"yes","sanitary_dump_station":"yes","shower":"yes","shower:conditional":"no @ (Nov 01-Apr 13)","tents":"yes","tents:conditional":"no @ (Nov 01-Apr 13)","toilets":"yes","toilets:conditional":"no @ (Nov 01-Apr 13)","trailer":"yes","water_point":"yes","website":"https://www.campingcarpark.com/fr_FR/sejour/camping/nouvelle-aquitaine/16-charente/rouillac"}},"1316193356":{"location":[45.6147026,-0.2214674],"ct":"FR","tp":"CR","ts":"2024-09-17T16:57:04Z","tX":511,"tY":365,"tags":{"capacity":"5","caravan_site":"motorhome_stopover","caravan_site:type":"village","fee":"no","maxstay":"3 days","name":"Aire Camping-car Segonzac","power_supply":"yes","power_supply:fee":"no","water_point":"yes","water_point:fee":"no","website":"http://www.segonzac.fr/fr/information/88995/camping-cars"}},"1318500714":{"location":[45.6287674,-0.3147978],"ct":"FR","tp":"CR","ts":"2024-09-26T20:34:01Z","tX":511,"tY":365,"tags":{"caravan_site":"motorhome_stopover","caravan_site:type":"village","caravans":"no","fee":"no","maxstay":"48 hours","name":"Aire de services camping-cars de Genté","opening_hours":"24/7","sanitary_dump_station":"yes","seasonal":"no","tents":"no","website":"https://www.destination-cognac.com/aires-camping-car/aire-de-services-camping-cars-de-gente/"}},"1318503387":{"location":[45.652805,-0.0851327],"ct":"FR","tp":"CR","ts":"2024-10-23T20:28:52Z","tX":511,"tY":365,"tags":{"capacity":"6","caravan_site":"motorhome_stopover","caravan_site:type":"river","fee":"no","name":"Aire de services camping-cars de Saint Simon","picnic_table":"yes","sanitary_dump_station":"yes","sanitary_dump_station:chemical_toilet":"yes","sanitary_dump_station:grey_water":"yes","water_point":"yes","water_point:fee":"no","website":"https://www.destination-cognac.com/aires-camping-car/aire-de-services-camping-cars-de-saint-simon/"}},"12037429548":{"location":[45.5984802,-0.0424217],"ct":"FR","tp":"CS","ts":"2024-07-06T10:50:24Z","tX":511,"tY":365,"tags":{"name":"Zone de bivouac"}},"12037489427":{"location":[45.6230694,-0.0244971],"ct":"FR","tp":"CS","ts":"2024-07-06T11:08:02Z","tX":511,"tY":365,"tags":{"contact:website":"https://indd.adobe.com/view/2ec61b93-ae21-4d8d-8acc-8f4bae645c24","name":"Camping au jardin","phone":"0602301748"}},"12097168801":{"location":[45.5986556,-0.0429296],"ct":"FR","tp":"CS","ts":"2024-08-07T13:22:00Z","tX":511,"tY":365,"tags":{"name":"Aire de Bivouac","name:en":"Bivouac area"}},"12202520010":{"location":[45.6287728,-0.3148605],"ct":"FR","tp":"SD","ts":"2024-09-26T20:34:01Z","tX":511,"tY":365,"tags":{"access":"yes"}},"12202534323":{"location":[45.6526348,-0.0852366],"ct":"FR","tp":"SD","ts":"2024-09-26T20:45:22Z","tX":511,"tY":365,"tags":{"access":"yes","sanitary_dump_station:chemical_toilet":"yes","sanitary_dump_station:grey_water":"yes","website":"https://www.destination-cognac.com/aires-camping-car/aire-de-services-camping-cars-de-saint-simon/"}},"12384153975":{"location":[45.7802041,-0.0622333],"ct":"FR","tp":"CS","ts":"2024-11-29T10:17:44Z","tX":511,"tY":365,"tags":{"access":"customers","addr:city":"Rouillac","addr:housenumber":"536","addr:postcode":"16170","addr:street":"Avenue Paul Ricard","capacity:caravans":"Avec 36 places dont 4 pour les caravane","caravans":"yes","charge":"à partir de 12 €","fee":"yes","group_only":"no","name":"CAMPING DE MON VILLAGE","operator":"Aire CAMPING-CAR PARK","payment:credit_cards":"yes"}}}