{"173280939":{"location":[44.917452,-0.1425347],"ct":"FR","tp":"CS","ts":"2025-01-11T14:24:04Z","tX":511,"tY":368,"tags":{"access":"customers","addr:city":"Saint-Émilion","addr:housenumber":"1000","addr:postcode":"33330","addr:street":"Route de Trimoulet","caravans":"yes","drinking_water":"yes","fee":"yes","internet_access":"wlan","name":"Yelloh! Village","shower":"yes","stars":"4","static_caravans":"yes","tents":"yes","toilets":"yes","website":"https://www.camping-saint-emilion.com/fr","wheelchair":"limited"}},"179686620":{"location":[45.0139254,-0.1097428],"ct":"FR","tp":"CS","ts":"2014-12-22T14:58:19Z","tX":511,"tY":368,"tags":{"name":"Camping Le paradis"}},"269571018":{"location":[44.9970243,-0.0617724],"ct":"FR","tp":"CS","ts":"2022-07-16T20:29:50Z","tX":511,"tY":368,"tags":{"name":"Camping le pressoir"}},"439856286":{"location":[44.8531365,-0.0347638],"ct":"FR","tp":"CS","ts":"2023-02-13T08:05:22Z","tX":511,"tY":368,"tags":{"caravans":"yes","drinking_water":"yes","name":"Camping Les Batailleurs","shower":"yes","tents":"yes"}},"736536265":{"location":[44.9478757,-0.2438943],"ct":"FR","tp":"CR","ts":"2024-10-11T21:53:25Z","tX":511,"tY":368,"tags":{"bbq":"no","capacity":"17","caravan_site":"motorhome_stopover","caravan_site:type":"lake","caravans":"no","charge":"14.86 EUR","charge:conditional":"14.06 @ (Oct-Apr)","dog":"leashed","fee":"yes","internet_access":"wlan","maxlength":"none","name":"Aire de camping-car du Lac de Dagueys","network":"CAMPING-CAR PARK","power_supply":"yes","power_supply:capacity":"16","power_supply:maxcurrent":"6","sanitary_dump_station":"yes","tents":"no","trailer":"yes","water_point":"yes","website":"https://www.campingcarpark.com/en_GB/stay/stopover-site-motorhome/nouvelle-aquitaine/33-gironde/libourne"}},"753897214":{"location":[44.8990086,-0.1809403],"ct":"FR","tp":"CR","ts":"2024-01-07T20:30:00Z","tX":511,"tY":368,"tags":{"caravan_site":"motorhome_stopover","caravan_site:type":"winery","fee":"no","maxstay":"1 night","name":"Château Arnaud de Jacquemeau","power_supply":"yes","power_supply:fee":"yes","website":"https://www.arnaud-de-jacquemeau.com/"}},"1104671717":{"location":[45.0793694,-0.2070387],"ct":"FR","tp":"CS","ts":"2022-12-29T19:42:18Z","tX":511,"tY":368,"tags":{"addr:city":"Bayas","addr:country":"FR","addr:housenumber":"3","addr:postcode":"33230","addr:street":"lieu-dit Châteauneuf","contact:facebook":"www.facebook.com/Le-Chêne-du-Lac-103313776464115/","email":"lechenedulac@orange.fr","internet_access":"wlan","internet_access:fee":"no","name":"Le Chêne du lac","operator":"M. et Mme Harraudeau","phone":"+33557691378","stars":"3","website":"https://camping-lechenedulac.com/"}},"1233372376":{"location":[45.0200753,-0.0585305],"ct":"FR","tp":"CR","ts":"2024-11-08T00:40:10Z","tX":511,"tY":368,"tags":{"access":"customers","addr:city":"Saint-Médard-de-Guizières","addr:postcode":"33230","addr:street":"Rue du Gat","bbq":"no","capacity":"30","caravan_site":"motorhome_stopover","caravan_site:type":"river","caravans":"yes","caravans:conditional":"no@(Nov-Apr)","charge":"14.29 EUR","charge:conditional":"12.59 EUR @ (Nov-Mar)","dog":"leashed","fee":"yes","internet_access":"wlan","internet_access:fee":"no","maxlength":"none","name":"CAMPING de mon Village de Saint-Médard-de-Guizières","network":"CAMPING-CAR PARK","opening_hours":"Apr-Nov","operator":"CAMPING-CAR Park","payment:credit_cards":"yes","power_supply":"yes","power_supply:maxcurrent":"6","sanitary_dump_station":"yes","shower":"yes","tents":"yes","tents:conditional":"no@(Nov-Apr)","toilets":"yes","trailer":"yes","water_point":"yes","website":"https://www.campingcarpark.com/fr_FR/sejour/camping/nouvelle-aquitaine/33-gironde/saint-medard-de-guizieres"}},"1237593452":{"location":[44.9090374,-0.1630354],"ct":"FR","tp":"CR","ts":"2024-01-06T19:12:35Z","tX":511,"tY":368,"tags":{"caravan_site":"motorhome_stopover","caravan_site:type":"winery","fee":"no","name":"Vignoble Sautereau","water_point":"yes","website":"https://www.vignoble-sautereau.fr/camping-cars/"}},"1237632656":{"location":[44.9722519,-0.3421604],"ct":"FR","tp":"CR","ts":"2024-07-02T10:21:58Z","tX":511,"tY":368,"tags":{"capacity":"2","caravan_site":"motorhome_stopover","caravan_site:type":"winery","charge":"8 EUR","fee":"yes","name":"Vignobles Guillaume Bergeon","power_supply":"yes","water_point":"yes","website":"https://www.vignoblesguillaumebergeon.fr/"}},"1266629008":{"location":[45.0410234,-0.1335324],"ct":"FR","tp":"CR","ts":"2024-10-24T23:27:10Z","tX":511,"tY":368,"tags":{"addr:postcode":"33230","addr:street":"Chemin du Camping","bus":"no","caravan_site":"motorhome_stopover","caravan_site:type":"village","caravans":"no","fee":"no","hgv":"no","maxstay":"3 nights","motor_vehicle":"no","motorhome":"designated","name":"Aire de Camping-Car de Coutras","opening_hours":"24/7","picnic_area":"yes","playground":"yes","sanitary_dump_station":"yes","tents":"no","water_point":"yes","website":"https://www.coutras.fr/loisirs/restauration-et-hebergement/aire-de-camping-car/"}},"1284734672":{"location":[44.9458647,-0.0950055],"ct":"FR","tp":"CR","ts":"2024-10-11T21:52:24Z","tX":511,"tY":368,"tags":{"bbq":"no","capacity":"16","caravan_site":"motorhome_stopover","caravan_site:type":"countryside","caravans":"no","charge":"15.62 EUR","charge:conditional":"13.92 EUR @ (Oct-Apr)","dog":"leashed","fee":"yes","internet_access":"wlan","maxlength":"9","name":"Aire Camping-Car Lussac, Grand Saint-Emilionnais","network":"CAMPING-CAR PARK","power_supply":"yes","power_supply:capacity":"16","power_supply:fee":"no","power_supply:maxcurrent":"6","sanitary_dump_station":"yes","surface":"asphalt","tents":"no","toilets":"yes","trailer":"no","water_point":"yes","website":"https://www.campingcarpark.com/en_GB/stay/stopover-site-motorhome/nouvelle-aquitaine/33-gironde/lussac"}},"1284740931":{"location":[44.8738718,-0.1914481],"ct":"FR","tp":"CR","ts":"2024-12-27T19:15:25Z","tX":511,"tY":368,"tags":{"caravan_site":"motorhome_stopover","caravan_site:type":"village","fee":"no","name":"Aire St-Sulpice-de-Faleyrens","sanitary_dump_station":"yes","sanitary_dump_station:fee":"yes","services:charge":"6 EUR","tents":"no","water_point":"yes","water_point:fee":"yes","website":"https://www.campingcarpark.com/en_GB/stay/service-area-motorhome/nouvelle-aquitaine/33-gironde/as-st-sulpice-de-faleyrens"}},"4040632910":{"location":[44.8528947,-0.106672],"ct":"FR","tp":"CR","ts":"2024-10-23T11:31:19Z","tX":511,"tY":368,"tags":{"caravan_site":"motorhome_stopover","caravan_site:type":"winery","fee":"yes","name":"Domaine Viticole Chateau Gerbaud","website":"http://www.chateau-gerbaud.com/"}},"4482913492":{"location":[44.9600007,-0.3088725],"ct":"FR","tp":"CS","ts":"2022-03-03T18:51:29Z","tX":511,"tY":368,"tags":{"addr:city":"Villegouge","caravans":"yes","name":"Camping à la ferme Camelot","opening_hours":"Mar 15-Oct 15","tents":"yes","website":"https://www.lesjardinsdecamelot.com/bienvenue/camping/"}},"4731333121":{"location":[45.0712474,-0.0872885],"ct":"FR","tp":"CS","ts":"2019-03-19T13:28:21Z","tX":511,"tY":368,"tags":{"addr:city":"Les Peintures","addr:housenumber":"22","addr:postcode":"33230","addr:street":"Champ du Mil","description":"Repas (si nuitée) vin-café, 1 apéritif 20 €, Demi-pension 35 € repas du soir, une nuit en tente et petit déjeuner ","motorcycle:theme":"yes","motorcycle_friendly":"yes","name":"Le relais du mil’born","operator":"Marie et Thierry","phone":"+33 6 78168507","website":"https://www.relaisdumilborn.com/"}},"7817454985":{"location":[45.041714,-0.333814],"ct":"FR","tp":"CS","ts":"2024-09-24T11:06:45Z","tX":511,"tY":368,"tags":{"alt_name":"Camping familial des 2 ânes","capacity:caravans":"10","caravans":"yes","fee":"yes","name":"Camping familial de La Prévôté","phone":"+33 6 33 03 06 13","tents":"yes","website":"https://camping-familial-des-deux-anes.business.site"}},"5822168844":{"location":[44.9299424,-0.2834513],"ct":"FR","tp":"CR","ts":"2024-09-11T14:25:33Z","tX":511,"tY":368,"tags":{"capacity":"1","caravan_site":"motorhome_stopover","caravan_site:type":"winery","name":"Aire Château Barrabaque","phone":"+33 (0)5 57 550909","website":"https://chateaubarrabaque.com/"}},"11501440747":{"location":[45.0133509,-0.3060964],"ct":"FR","tp":"CR","ts":"2024-03-06T20:21:35Z","tX":511,"tY":368,"tags":{"caravan_site":"motorhome_stopover","caravan_site:type":"winery","name":"Domaine de la Chataignière","phone":"+33 6 85 52 26 88","product":"pate;wine","seasonal":"no","website":"https://domaine-chataigniere.fr/"}},"12144773946":{"location":[44.9298284,-0.2935222],"ct":"FR","tp":"CR","ts":"2024-08-29T18:14:03Z","tX":511,"tY":368,"tags":{"caravan_site":"motorhome_stopover","caravan_site:type":"winery","charge":"20 EUR","fee":"yes","name":"Aire de camping-car Château Cassagne Haut-Canon","phone":"+33 (0)6 23 111 439","website":"https://www.aire-de-camping-car.fr/"}},"12170159507":{"location":[44.9562099,-0.2692857],"ct":"FR","tp":"CR","ts":"2024-10-23T13:48:34Z","tX":511,"tY":368,"tags":{"capacity":"1","caravan_site":"motorhome_stopover","caravan_site:type":"winery","name":"Chateau Magondeau","tourism:website":"https://www.tourisme-fronsadais.com/en/aire-camping-car/chateau-magondeau/","website":"https://chateaumagondeau.com/"}},"12170471089":{"location":[44.8529577,-0.294532],"ct":"FR","tp":"CR","ts":"2024-09-11T18:34:31Z","tX":511,"tY":368,"tags":{"capacity":"3","caravan_site":"motorhome_stopover","caravan_site:type":"farm_shop","fee":"no","name":"Aire Terr'a Safran","opening_hours":"May-Nov","product":"safran","website":"https://www.terrasafran.com/details-accueil+camping-cariste+de+mai+a+novembre+pour+decouvrir+la+culture+du+safran+a+nerigean-152.html"}},"6901054057":{"location":[44.9064303,-0.2337368],"ct":"FR","tp":"SD","ts":"2020-01-02T10:22:10Z","tX":511,"tY":368,"tags":{"access":"yes","charge":"2 EUR","fee":"yes","operator":"Flot Bleu","payment:coins":"yes"}},"11918738576":{"location":[44.8737941,-0.1914226],"ct":"FR","tp":"SD","ts":"2024-05-19T23:45:59Z","tX":511,"tY":368,"tags":{"access":"yes","charge":"6 EUR","fee":"yes","name":"Borne de service St-Sulpice-de-Faleyrens","network":"CAMPING-CAR PARK","operator":"CAMPING CAR-PARK","sanitary_dump_station:chemical_toilet":"yes","sanitary_dump_station:grey_water":"yes","water_point":"yes","website":"https://www.campingcarpark.com/en_GB/stay/service-area-motorhome/nouvelle-aquitaine/33-gironde/as-st-sulpice-de-faleyrens"}},"12398324585":{"location":[44.91694,-0.141444],"ct":"FR","tp":"CS","ts":"2024-12-09T14:47:26Z","tX":511,"tY":368,"tags":{"access":"customers","addr:city":"Saint-Émilion","addr:housenumber":"1000","addr:postcode":"33330","addr:street":"Route de Trimoulet","caravans":"yes","drinking_water":"yes","fee":"yes","internet_access":"wlan","name":"Yelloh! Village","shower":"yes","stars":"4","static_caravans":"yes","tents":"yes","toilets":"yes","website":"https://www.camping-saint-emilion.com/fr","wheelchair":"limited"}}}