{"62045227":{"location":[44.7821868,-0.12682],"ct":"FR","tp":"CS","ts":"2020-11-11T20:24:51Z","tX":511,"tY":369,"tags":{"caravans":"yes","contact:phone":"+33 5 57 84 15 38","internet_access":"wlan","name":"Camping du Vieux Château","stars":"3","tents":"yes","website":"https://www.vieuxchateau.fr"}},"162096194":{"location":[44.776598,-0.3481294],"ct":"FR","tp":"CR","ts":"2024-10-19T09:02:58Z","tX":511,"tY":369,"tags":{"access":"yes","addr:city":"Créon","addr:housenumber":"62","addr:postcode":"33670","addr:street":"Boulevard Victor Hugo","capacity":"5","capacity:caravans":"5","caravan_site":"motorhome_stopover","caravan_site:type":"town","description:fr":"etons vendus à la Station Vélo et à l'Office de Tourisme)","fee":"no","internet_access":"no","name":"Aire de camping-cars de Créon","opening_hours":"24/7","operator":"Station Vélo et mairie de Créon","power_supply":"yes","power_supply:fee":"yes","sanitary_dump_station":"yes","sanitary_dump_station:chemical_toilet":"yes","sanitary_dump_station:fee":"no","sanitary_dump_station:grey_water":"yes","water_point":"yes","website":"https://www.entredeuxmers.com/offre/aire-de-camping-cars-de-cr%C3%A9on/","wheelchair":"yes"}},"220558678":{"location":[44.7260243,-0.150662],"ct":"FR","tp":"CS","ts":"2024-06-03T15:44:49Z","tX":511,"tY":369,"tags":{"access":"customers","addr:city":"Frontenac","addr:postcode":"33760","addr:street":"D 4","caravans":"yes","description":"Ancienne propriété viticole typiquement bordelaise avec sa maison de maître et ses chais du XVIIIème siècle, vous propose des vacances naturistes reposantes dans un cadre enchanteur qui conjugue nature, sérénité et élégance.","email":"info@chateau-guiton.com","name":"Château Guiton","nudism":"yes","phone":"+33 5 56 23 52 79","static_caravans":"yes","tents":"yes","website":"http://www.chateau-guiton.com"}},"228106902":{"location":[44.635114,-0.3216559],"ct":"FR","tp":"CS","ts":"2022-05-13T10:54:07Z","tX":511,"tY":369,"tags":{"addr:city":"Cadillac","addr:country":"FR","addr:postcode":"33410","addr:street":"Rue du Port","name":"Camping intercommunal des Côteaux de Garonne","phone":"+33 5 56 62 72 98"}},"384039336":{"location":[44.638658,-0.3171188],"ct":"FR","tp":"CR","ts":"2024-10-12T22:00:31Z","tX":511,"tY":369,"tags":{"capacity":"10","caravan_site":"motorhome_stopover","caravan_site:type":"village","fee":"no","maxstay":"72 hours","name":"Aire de Camping-Cars de Cadillac","opening_hours":"24/7","sanitary_dump_station":"yes","seasonal":"no","source":"Observatoire du comité départemental du Tourisme de la Gironde - 09/2013","water_point":"yes","water_point:fee":"no","website":"https://www.destination-garonne.com/en/fiche/166/aire-de-camping-cars-de-cadillac"}},"664251159":{"location":[44.7826382,-0.1272414],"ct":"FR","tp":"CS","ts":"2023-09-10T15:30:02Z","tX":511,"tY":369,"tags":{"addr:city":"Rauzan","addr:housenumber":"6","addr:postcode":"33420","addr:street":"Blabot-Bas","caravans":"yes","fee":"yes","name":"Camping du Vieux Château","static_caravans":"yes","tents":"yes","website":"https://www.vieuxchateau.fr"}},"899271045":{"location":[44.6937473,-0.079932],"ct":"FR","tp":"CR","ts":"2024-09-10T13:44:44Z","tX":511,"tY":369,"tags":{"access":"yes","addr:city":"Sauveterre-de-Guyenne","addr:postcode":"33540","addr:street":"Rue de La Vignague","caravan_site":"motorhome_stopover","caravan_site:type":"village","description":"Aire de Camping-car","fee":"no","name":"Aire de Camping-cars de Sauveterre-de-Guyenne","opening_hours":"24/7","operator":"Ville de Sauveterre-de-Guyenne","sanitary_dump_station:chemical_toilet":"yes","sanitary_dump_station:grey_water":"yes","seasonal":"no","tents":"no","water_point":"yes","website":"https://www.gironde-tourisme.com/aires-camping-cars/aire-de-camping-cars-de-sauveterre-de-guyenne/"}},"899408574":{"location":[44.7482622,-0.0754508],"ct":"FR","tp":"CR","ts":"2023-12-30T00:06:38Z","tX":511,"tY":369,"tags":{"access":"yes","addr:city":"Blasimon","addr:housenumber":"18","addr:postcode":"33540","addr:street":"Rue Abbé Greciet","caravan_site":"motorhome_stopover","caravan_site:type":"village","description":"Aire de Camping-car mixte avec voiture","dog":"yes","fee":"no","name":"Aire de Camping-car Blasimon","operator":"Ville de Blasimon","sanitary_dump_station:chemical_toilet":"yes","sanitary_dump_station:grey_water":"yes","water_point":"yes"}},"899413225":{"location":[44.7124998,-0.3307747],"ct":"FR","tp":"CR","ts":"2024-10-17T13:55:08Z","tX":511,"tY":369,"tags":{"access":"yes","addr:city":"Capian","addr:postcode":"33550","addr:street":"D13","capacity":"4","caravan_site":"motorhome_stopover","caravan_site:type":"village","fee":"no","name":"Capian","operator":"Ville de Capian","power_supply":"yes","power_supply:fee":"yes","sanitary_dump_station:chemical_toilet":"yes","sanitary_dump_station:fee":"no","sanitary_dump_station:grey_water":"yes","service:fee":"yes","water_point":"yes","water_point:fee":"yes"}},"1237303461":{"location":[44.6756064,-0.2534983],"ct":"FR","tp":"CR","ts":"2024-02-12T20:07:11Z","tX":511,"tY":369,"tags":{"caravan_site":"motorhome_stopover","caravan_site:type":"winery","charge":"0 EUR","charge:conditional":"5 EUR/day@(stay>1 day)","degustation":"free","description":"first night free, then 5 EUR/night","fee":"no","fee:conditional":"yes @ (stay> 1 day)","maxstay":"no","name":"Maison du Berneuilh","operator":"Vignobles Noriega","phone":"+33 6 61 49 55 84","power_supply":"yes","product":"wine;honey","reservation":"yes","toilets":"yes","water_point":"yes"}},"1237642069":{"location":[44.7440158,-0.1052238],"ct":"FR","tp":"CR","ts":"2024-01-06T22:53:55Z","tX":511,"tY":369,"tags":{"caravan_site":"motorhome_stopover","caravan_site:type":"winery","fee":"yes","name":"Domaine de Grand Homme","website":"https://domaine-de-grand-homme.business.site/"}},"1328384800":{"location":[44.6600631,-0.1815406],"ct":"FR","tp":"CR","ts":"2024-10-26T13:38:44Z","tX":511,"tY":369,"tags":{"capacity":"5","caravan_site":"motorhome_stopover","caravan_site:type":"parking_lot;village","fee":"no","name":"Aire Camping Car de Gornac","operator":"Mairie","sanitary_dump_station":"yes","sanitary_dump_station:chemical_toilet":"yes","sanitary_dump_station:grey_water":"yes","surface":"asphalt","water_point":"yes","website":"https://www.entredeuxmers.com/offre/aire-de-camping-cars-de-gornac/"}},"3508090177":{"location":[44.7560374,-0.0891325],"ct":"FR","tp":"CS","ts":"2019-04-21T14:47:30Z","tX":511,"tY":369,"tags":{"contact:email":"dgaj-hostens-blasimon@gironde.fr","contact:phone":"+33 5 56 71 59 62","name":"Camping de Blasimon","source":"Observatoire du comité départemental du Tourisme de la Gironde - 09/2013","website":"https://www.gironde.fr/sport-loisirs/domaine-de-loisirs-de-blasimon"}},"3654658446":{"location":[44.8318202,-0.1848512],"ct":"FR","tp":"SD","ts":"2024-05-22T22:58:53Z","tX":511,"tY":369,"tags":{"network":"CAMPING-CAR PARK","water_point":"yes","website":"https://www.campingcarpark.com/fr_FR/sejour/aire-services-camping-car/nouvelle-aquitaine/33-gironde/branne"}},"5814027656":{"location":[44.8231301,-0.1102207],"ct":"FR","tp":"CS","ts":"2020-09-15T13:33:59Z","tX":511,"tY":369,"tags":{"name":"Camping municipal de Sainte-Terre"}},"6419287636":{"location":[44.6609106,-0.241726],"ct":"FR","tp":"CS","ts":"2019-04-21T15:06:34Z","tX":511,"tY":369,"tags":{"contact:email":"naulet@aliceadsl.fr","contact:phone":"+33 5 56 61 96 26","name":"Ferme de Naulet","website":"http://www.gite-naulet.com/camping.html"}},"9242938696":{"location":[44.6238835,-0.1117039],"ct":"FR","tp":"CS","ts":"2024-09-17T16:25:03Z","tX":511,"tY":369,"tags":{"name":"La Part des Anges","website":"https://la-part-des-anges.eu/"}},"4591285603":{"location":[44.7505652,-0.2945657],"ct":"FR","tp":"CR","ts":"2024-10-08T17:31:07Z","tX":511,"tY":369,"tags":{"caravan_site":"motorhome_stopover","caravan_site:type":"winery","name":"Château Latorse","ref:FR:CRTA":"ACCAMAQU0330001N","source":"Réseau SIRTAQUI - Comité Régional de Tourisme d'Aquitaine - www.sirtaqui-aquitaine.com - 06/2016","website":"https://www.latorse.fr/"}},"4657154422":{"location":[44.666086,-0.0246569],"ct":"FR","tp":"CR","ts":"2024-10-02T20:00:34Z","tX":511,"tY":369,"tags":{"caravan_site":"motorhome_stopover","caravan_site:type":"winery","name":"Château de l'Hermitage","ref:FR:CRTA":"ACCAMAQU033000HV","source":"Réseau SIRTAQUI - Comité Régional de Tourisme d'Aquitaine - www.sirtaqui-aquitaine.com - 06/2016","website":"https://www.chateau-hermitage.com/"}},"4695786915":{"location":[44.6971045,-0.2435552],"ct":"FR","tp":"CR","ts":"2024-10-08T17:31:07Z","tX":511,"tY":369,"tags":{"caravan_site":"motorhome_stopover","caravan_site:type":"winery","name":"Vignobles Lobre et fils","ref:FR:CRTA":"ACCAMAQU033000GC","source":"Réseau SIRTAQUI - Comité Régional de Tourisme d'Aquitaine - www.sirtaqui-aquitaine.com - 06/2016"}},"11063796343":{"location":[44.677125,-0.324195],"ct":"FR","tp":"CR","ts":"2024-10-23T10:30:10Z","tX":511,"tY":369,"tags":{"caravan_site":"motorhome_stopover","caravan_site:type":"winery","fee":"no","name":"Aire de Camping-car du Château du Payre","ref:FR:CRTA":"ACCAMAQU033000IC","source":"Réseau SIRTAQUI - Comité Régional de Tourisme d'Aquitaine - www.sirtaqui-aquitaine.com - 08/2018","tourism:website":"https://www.entredeuxmers.com/offre/aire-de-camping-car-du-ch%C3%A2teau-du-payre/","water_point":"yes","website":"https://www.chateau-du-payre.fr/"}},"11495480604":{"location":[44.6870711,-0.1485193],"ct":"FR","tp":"CR","ts":"2024-01-06T20:57:16Z","tX":511,"tY":369,"tags":{"capacity":"2","capacity:conditional":"7@(May-Oct)","caravan_site":"motorhome_stopover","caravan_site:type":"winery","fee":"no","maxstay":"2 nights","name":"Vignobles Maurin","opening_hours":"24/7","operator":"Vignobles Maurin","seasonal":"no","surface":"asphalt","website":"https://vignoblesmaurin.com/offre_campingcar/"}},"12204861968":{"location":[44.6330491,-0.3160849],"ct":"FR","tp":"CR","ts":"2024-09-27T12:02:38Z","tX":511,"tY":369,"tags":{"caravan_site":"motorhome_stopover","caravan_site:type":"winery;village;museum","caravans":"no","fee":"no","name":"Accueil Camping-Cars à la Maison des Vins de Cadillac","network":"France Passion","reservation":"no","tents":"no","website":"https://www.maisondesvinsdecadillac.com/accueil-camping-cars-a-la-maison-des-vins-de-cadillac/"}},"8355659520":{"location":[44.69397,-0.0796774],"ct":"FR","tp":"SD","ts":"2023-12-26T10:14:30Z","tX":511,"tY":369,"tags":{"access":"yes","description":"Station de vidange pour Camping-car","fee":"no","operator":"Ville de Sauveterre-de-Guyenne","sanitary_dump_station:chemical_toilet":"yes","sanitary_dump_station:grey_water":"yes","water_point":"yes"}},"8356765579":{"location":[44.7366732,-0.1628195],"ct":"FR","tp":"SD","ts":"2021-11-20T14:40:26Z","tX":511,"tY":369,"tags":{"description":"Station de vidange pour Camping-car, sans possibilité de remplissage des reservoirs d'eau claire","fee":"no","operator":"Ville de Frontenac","sanitary_dump_station:chemical_toilet":"yes","sanitary_dump_station:grey_water":"yes","water_point":"no"}},"8356803785":{"location":[44.748241,-0.07536],"ct":"FR","tp":"SD","ts":"2021-11-20T14:40:26Z","tX":511,"tY":369,"tags":{"description":"Station de vidange pour Camping-car","fee":"no","operator":"Ville de Blasimon","sanitary_dump_station:chemical_toilet":"yes","sanitary_dump_station:grey_water":"yes","water_point":"yes"}},"8356812543":{"location":[44.7124695,-0.3306255],"ct":"FR","tp":"SD","ts":"2021-11-20T14:40:26Z","tX":511,"tY":369,"tags":{"description":"Station de vidange pour Camping-car","fee":"no","operator":"Ville de Capian","sanitary_dump_station:chemical_toilet":"yes","sanitary_dump_station:grey_water":"yes","sanitary_dump_station:round_drain":"yes","water_point":"yes"}},"8356875935":{"location":[44.7765596,-0.3480042],"ct":"FR","tp":"SD","ts":"2024-10-19T09:03:25Z","tX":511,"tY":369,"tags":{"access":"yes","fee":"no","operator":"Ville de Créon","sanitary_dump_station:chemical_toilet":"yes","sanitary_dump_station:grey_water":"yes","sanitary_dump_station:round_drain":"yes","water_point":"yes"}},"8511290941":{"location":[44.660343,-0.1812872],"ct":"FR","tp":"SD","ts":"2024-10-26T13:38:44Z","tX":511,"tY":369,"tags":{"access":"yes","sanitary_dump_station:chemical_toilet":"yes","sanitary_dump_station:fee":"no","sanitary_dump_station:gravity":"yes","sanitary_dump_station:grey_water":"yes","sanitary_dump_station:suction":"no"}},"12247151137":{"location":[44.6385612,-0.3171283],"ct":"FR","tp":"SD","ts":"2024-10-12T22:00:31Z","tX":511,"tY":369,"tags":{"access":"yes","fee":"no"}}}