{"463402470":{"location":[44.5778889,-0.0319724],"ct":"FR","tp":"CS","ts":"2024-07-30T07:22:41Z","tX":511,"tY":370,"tags":{"addr:city":"La Réole","addr:country":"FR","addr:postcode":"33190","addr:suburb":"Faubourg du Rouergue","caravans":"yes","contact:email":"campinglerouergue@lareole.fr","email":"campinglerouergue@lareole.fr","fee":"yes","mobile":"+33 6 20 31 98 12","name":"Camping Municipal du Rouergue","opening_hours":"May 1 - Sep 30","operator":"Municipalité","phone":"+33 6 20 31 98 12","sanitary_dump_station":"public","stars":"2","static_caravans":"no","tents":"yes","website":"https://www.lareole.fr/tourisme/camping-municipal/"}},"694277929":{"location":[44.4255471,-0.1985055],"ct":"FR","tp":"CS","ts":"2019-06-06T20:34:54Z","tX":511,"tY":370,"tags":{"addr:street":"Route de Casteljaloux","cabins":"yes","camp_site":"deluxe","name":"Le Paradis de Bazas","phone":"+33 5 56 65 13 17","swimming_pool":"yes","website":"https://www.capfun.com/camping-france-aquitaine-paradis_de_bazas-FR.html"}},"702446321":{"location":[44.4737523,-0.258546],"ct":"FR","tp":"CS","ts":"2022-05-21T09:35:43Z","tX":511,"tY":370,"tags":{"access":"customers","charge":"90","dog":"yes","fee":"yes","name":"Domaine Ecôtelia","payment:cash":"yes","payment:credit_cards":"yes","payment:mastercard":"yes","payment:visa":"yes","phone":"+33 5 56 65 35 38","tents":"no","website":"https://www.domaine-ecotelia.com/","wheelchair":"limited"}},"726785994":{"location":[44.5857996,-0.2954489],"ct":"FR","tp":"SD","ts":"2015-04-29T02:50:01Z","tX":511,"tY":370,"tags":{"fee":"no","sanitary_dump_station:accepted":"black_water;grey_water;tank_chemicals"}},"899394293":{"location":[44.4752132,-0.0727932],"ct":"FR","tp":"CR","ts":"2023-12-30T00:06:38Z","tX":511,"tY":370,"tags":{"access":"yes","addr:city":"Aillas","addr:postcode":"33124","addr:street":"Parc des sports","caravan_site":"parking_lot","caravan_site:type":"sports_centre","description":"Aire de Camping-car mixte avec voiture","fee":"no","name":"Aire de Camping-car d'Aillas","operator":"Ville de Aillas","sanitary_dump_station:chemical_toilet":"yes","sanitary_dump_station:grey_water":"yes","water_point":"yes","website":"https://www.entredeuxmers.com/offre/aire-de-camping-cars-daillas/"}},"1079027126":{"location":[44.5804559,-0.0305278],"ct":"FR","tp":"CR","ts":"2024-10-25T19:13:20Z","tX":511,"tY":370,"tags":{"addr:city":"La Réole","addr:postcode":"33190","addr:street":"Place des Justices","capacity":"10","caravan_site":"motorhome_stopover","caravan_site:type":"village","fee":"no","name":"La Réole Place des Justices","sanitary_dump_station":"yes","seasonal":"no","water_point":"yes","water_point:fee":"no"}},"1281966335":{"location":[44.5600391,-0.0224568],"ct":"FR","tp":"CR","ts":"2024-05-11T14:42:42Z","tX":511,"tY":370,"tags":{"camping_behaviour":"yes","capacity":"45","caravan_site":"motorhome_stopover","caravan_site:type":"beach","charge":"12.44 EUR","dog":"yes","fee":"yes","name":"Aire de camping-cars de Fontet","network":"AirePark","opening_hours":"24/7","power_supply":"yes","power_supply:capacity":"12","reservation":"yes","sanitary_dump_station":"yes","sanitary_dump_station:chemical_toilet":"yes","sanitary_dump_station:grey_water":"yes","source":"Observatoire du comité départemental du Tourisme de la Gironde - 09/2013","water_point":"yes","website":"https://www.aireparkreservation.com/aires-camping-cars/nouvelle-aquitaine/gironde/fontet"}},"5129348480":{"location":[44.5472054,-0.2973947],"ct":"FR","tp":"CS","ts":"2017-09-25T20:15:55Z","tX":511,"tY":370,"tags":{"name":"Les Prés du Haut","ref:FR:CRTA":"HPAAQU033FS0001T","source":"Réseau SIRTAQUI - Comité Régional de Tourisme d'Aquitaine - www.sirtaqui-aquitaine.com - 06/2016","website":"http://www.indirando.fr.chez.com"}},"9964380442":{"location":[44.430949,-0.0698179],"ct":"FR","tp":"CS","ts":"2022-08-19T17:23:49Z","tX":511,"tY":370,"tags":{"name":"Oasis des P'tis Potes","website":"https://monptipote.com/"}},"5129348481":{"location":[44.5471957,-0.2972458],"ct":"FR","tp":"CR","ts":"2024-10-16T20:14:02Z","tX":511,"tY":370,"tags":{"caravan_site":"motorhome_stopover","caravan_site:type":"farm","charge":"10 EUR","fee":"yes","name":"Ferme des Près du Haut","phone":"+33 5 56 63 01 53","ref:FR:CRTA":"ACCAMAQU033000GJ","source":"Réseau SIRTAQUI - Comité Régional de Tourisme d'Aquitaine - www.sirtaqui-aquitaine.com - 06/2016"}},"12167420575":{"location":[44.3700513,-0.2427936],"ct":"FR","tp":"CR","ts":"2024-09-10T05:13:46Z","tX":511,"tY":370,"tags":{"bbq":"yes","caravan_site":"motorhome_stopover","caravan_site:type":"river","charge":"4 EUR","fee":"yes","name":"Aire de camping-cars de Caroy à Bernos-Beaulac","picnic_area":"yes","power_supply":"yes","sanitary_dump_station":"yes","website":"https://www.gironde-tourisme.com/aires-camping-cars/aire-de-camping-cars-de-caroy-a-bernos-beaulac/"}},"4575948394":{"location":[44.5453709,-0.2563045],"ct":"FR","tp":"SD","ts":"2017-01-26T16:54:55Z","tX":511,"tY":370,"tags":{}},"5236715920":{"location":[44.4338737,-0.2152607],"ct":"FR","tp":"SD","ts":"2017-11-18T16:42:20Z","tX":511,"tY":370,"tags":{}},"8356696936":{"location":[44.4751793,-0.0729025],"ct":"FR","tp":"SD","ts":"2023-12-30T00:06:38Z","tX":511,"tY":370,"tags":{"access":"yes","description":"Station de vidange pour Camping-car","fee":"no","operator":"Ville de Aillas","sanitary_dump_station:chemical_toilet":"yes","sanitary_dump_station:grey_water":"yes","water_point":"yes"}},"12288650376":{"location":[44.580869,-0.0301621],"ct":"FR","tp":"SD","ts":"2024-10-25T19:13:20Z","tX":511,"tY":370,"tags":{"access":"yes","fee":"no"}}}