{"484282674":{"location":[43.8648141,-0.1006136],"ct":"FR","tp":"CS","ts":"2023-02-15T23:05:19Z","tX":511,"tY":372,"tags":{"name":"Camping Les Lacs de Courtès","website":"https://www.camping-lacsdecourtes.com/"}},"603396173":{"location":[43.8871944,-0.3060331],"ct":"FR","tp":"CR","ts":"2024-10-12T12:58:59Z","tX":511,"tY":372,"tags":{"addr:city":"Villeneuve-de-Marsan","addr:housename":"13-115","addr:postcode":"40190","addr:street":"Avenue du Stade","capacity":"7","caravan_site":"motorhome_stopover","caravan_site:type":"village","description":"Aire de camping car","dog":"yes","drinking_water":"yes","fee":"no","name":"Aire de camping-cars de Villeneuve-de-Marsan","operator":"Ville de Villeneuve-de-Marsan","power_supply":"yes","sanitary_dump_station":"yes","sanitary_dump_station:chemical_toilet":"yes","sanitary_dump_station:grey_water":"yes","surface":"asphalt","water_point":"yes","website":"https://www.tourismelandes.com/aire-camping-car/aire-de-camping-cars-de-villeneuve-de-marsan-accamaqu0400001l/"}},"622112660":{"location":[44.0014057,-0.2346492],"ct":"FR","tp":"CS","ts":"2023-06-21T17:45:09Z","tX":511,"tY":372,"tags":{"addr:city":"Saint-Justin","addr:country":"FR","addr:housenumber":"1529","addr:postcode":"40240","addr:street":"Route de Roquefort","email":"campingdeslandes.40240@orange.fr","fee":"yes","internet_access":"wlan","internet_access:fee":"yes","name":"Camping des Landes d'Armagnac","phone":"+33 558 448 891","stars":"3","website":"https://www.campingdeslandes40.com"}},"655078252":{"location":[43.9498803,-0.0417244],"ct":"FR","tp":"PK","ts":"2023-02-23T14:23:58Z","tX":511,"tY":372,"tags":{"access":"yes","motorhome":"yes","parking":"surface"}},"688215278":{"location":[43.9398269,-0.0457084],"ct":"FR","tp":"CS","ts":"2023-09-13T09:53:48Z","tX":511,"tY":372,"tags":{"addr:city":"Cazaubon","addr:country":"FR","addr:postcode":"32150","addr:street":"Avenue du Lac","camp_site":"basic","caravans":"yes","drinking_water":"yes","name":"Lac de l'Uby","operator":"Utopia","phone":"+33 5 62 09 53 91","shower":"yes","tents":"yes","toilets":"yes","website":"https://europe.huttopia.com/site/camping-lac-de-luby-gers"}},"760840907":{"location":[44.0209668,-0.3095672],"ct":"FR","tp":"CS","ts":"2023-07-16T14:17:32Z","tX":511,"tY":372,"tags":{"addr:city":"Sarbazan","addr:country":"FR","addr:postcode":"40120","addr:street":"Allée Ranspach-le-Bas","name":"Camping Municipal Sarbazan","phone":"+33 5 58 45 64 93"}},"763187303":{"location":[44.0478806,-0.3214326],"ct":"FR","tp":"CR","ts":"2024-10-08T19:35:17Z","tX":511,"tY":372,"tags":{"bbq":"no","capacity":"14","caravan_site":"motorhome_stopover","caravan_site:type":"village","charge":"13.78 EUR","dog":"leashed","fee":"yes","internet_access":"yes","internet_access:fee":"no","maxlength":"none","name":"Camping-Car Park Roquefort","network":"CAMPING-CAR PARK","power_supply":"yes","power_supply:capacity":"14","power_supply:maxcurrent":"6","sanitary_dump_station":"yes","tents":"no","trailer":"yes","water_point":"yes","water_point:fee":"no","website":"https://www.campingcarpark.com/fr_FR/sejour/aire-etape-camping-car/nouvelle-aquitaine/40-landes/roquefort"}},"899157686":{"location":[43.9720703,-0.1866577],"ct":"FR","tp":"CR","ts":"2024-08-08T00:43:35Z","tX":511,"tY":372,"tags":{"addr:city":"Labastide-d'Armagnac","addr:postcode":"40240","addr:street":"D11","caravan_site":"motorhome_stopover","caravan_site:type":"village","description":"Aire de camping car","dog":"yes","drinking_water":"yes","fee":"no","name":"Aire de camping-cars de Labastide d'Armagnac","opening_hours":"24/7","operator":"Ville de Labastide-d'Armagnac","power_supply":"no","sanitary_dump_station":"yes","sanitary_dump_station:chemical_toilet":"yes","sanitary_dump_station:grey_water":"yes","seasonal":"no","water_point":"yes","website":"https://www.tourismelandes.com/aire-camping-car/aire-de-camping-cars-de-labastide-darmagnac-accamaqu0400000p/"}},"1312050106":{"location":[43.9338479,-0.0312781],"ct":"FR","tp":"CR","ts":"2024-08-29T15:16:29Z","tX":511,"tY":372,"tags":{"capacity":"49","caravan_site":"motorhome_stopover","caravan_site:type":"lake;fishing;rowing","charge":"11 EUR","dog":"yes","ele":"131","fee":"yes","name":"Aire municipale du lac de l'Uby","power_supply":"yes","power_supply:maxcurrent":"4","sanitary_dump_station":"yes","shower":"no","toilets":"yes","water_point":"yes","website":"https://www.tourisme-occitanie.com/fr/fiche/hotellerie-plein-air/aire-municipale-de-camping-cars-du-lac-de-l-uby-cazaubon_TFO32.HPA.32096.54132/"}},"2975582133":{"location":[43.9268579,-0.0470186],"ct":"FR","tp":"CS","ts":"2023-05-01T16:22:14Z","tX":511,"tY":372,"tags":{"addr:city":"Larée","addr:country":"FR","addr:housenumber":"156","addr:postcode":"32150","addr:street":"Route de Labeyrie","email":"camping.labeyrie@wanadoo.fr","internet_access":"wlan","internet_access:fee":"no","name":"Camping Labeyrie","phone":"+33 562 095 183","website":"https://www.camping-labeyrie.com"}},"4718554803":{"location":[43.8556487,-0.0274642],"ct":"FR","tp":"CS","ts":"2019-03-19T12:44:06Z","tX":511,"tY":372,"tags":{"description":"4 yourtes 14 €, half-board 32 €, 2 gîtes 20/36 €, Barbecue, Garage","motorcycle_friendly":"customary","name":"Relais Moto Ferme du Cantau","phone":"+33 5 62099424","sport":"table_tennis","website":"https://www.amivac.com/site16749"}},"8354641055":{"location":[43.9719508,-0.1865494],"ct":"FR","tp":"SD","ts":"2021-01-23T12:49:39Z","tX":511,"tY":372,"tags":{"description":"Station de vidange pour Camping-car","fee":"no","operator":"Ville de Labastide-d'Armagnac","sanitary_dump_station:chemical_toilet":"yes","sanitary_dump_station:grey_water":"yes","water_point":"yes"}},"8354641380":{"location":[43.8871746,-0.3061475],"ct":"FR","tp":"SD","ts":"2024-10-12T12:58:59Z","tX":511,"tY":372,"tags":{"access":"yes","fee":"no","operator":"Ville de Villeneuve-de-Marsan","sanitary_dump_station:chemical_toilet":"yes","sanitary_dump_station:grey_water":"yes","water_point":"yes"}},"11775474248":{"location":[43.9341679,-0.0313788],"ct":"FR","tp":"SD","ts":"2024-03-31T14:46:29Z","tX":511,"tY":372,"tags":{"survey:date":"2024-03-31"}}}