{"7338597":{"location":[42.5968077,-0.1313571],"ct":"ES","tp":"CS","ts":"2019-10-03T15:18:24Z","tX":511,"tY":377,"tags":{"addr:city":"Oto","addr:postcode":"22370","internet_access":"yes","internet_access:fee":"no","name":"Camping Oto","operator":"CAMPING OTO S.L.","phone":"+34 974 486 075","website":"https://www.campingoto.com/"}},"30001127":{"location":[42.7699554,-0.3335758],"ct":"ES","tp":"CR","ts":"2021-08-09T13:22:07Z","tX":511,"tY":377,"tags":{}},"46348620":{"location":[42.734716,-0.3138969],"ct":"ES","tp":"CS","ts":"2023-11-25T18:55:42Z","tX":511,"tY":377,"tags":{"addr:city":"Escarrilla","addr:postcode":"22660","name":"Camping de Escarra"}},"102611407":{"location":[42.5576939,-0.3387399],"ct":"ES","tp":"CS","ts":"2023-06-21T23:33:41Z","tX":511,"tY":377,"tags":{"addr:city":"Senegüé","addr:postcode":"22666","internet_access":"wlan","name":"Camping Valle de Tena","website":"http://campingvalledetena.es/"}},"128925829":{"location":[42.7281767,-0.0070349],"ct":"FR","tp":"CS","ts":"2024-07-03T18:46:33Z","tX":511,"tY":377,"tags":{"caravans":"yes","drinking_water":"yes","name":"La Bergerie","phone":"+33 5 62 92 48 41","power_supply":"no","sanitary_dump_station":"yes","shower":"yes","tents":"yes","toilets":"yes","website":"https://www.camping-la-bergerie-gavarnie.com/"}},"132002182":{"location":[42.6207452,-0.3058852],"ct":"ES","tp":"CS","ts":"2023-09-13T20:39:25Z","tX":511,"tY":377,"tags":{"access":"customers","addr:city":"Gavín","caravans":"yes","name":"Camping Gavin S.L.","opening_hours":"24/7","opening_hours:reception":"24/7","operator":"Campingred","stars":"3","tents":"yes"}},"140315155":{"location":[42.7380487,-0.0191658],"ct":"FR","tp":"CR","ts":"2024-07-02T10:45:25Z","tX":511,"tY":377,"tags":{"addr:city":"Gavarnie","addr:postcode":"65120","addr:street":"Parking de Holle","caravan_site":"motorhome_stopover","caravan_site:type":"mountains","charge":"10 EUR","fee":"yes","fee:conditional":"no@(Nov-Apr)","name":"Aire pour camping-cars Gavarnie","phone":"+33 5 62 92 49 10","website":"https://www.valleesdegavarnie.com/commerces-services/aire-pour-camping-cars/"}},"140315159":{"location":[42.6935517,-0.1073503],"ct":"ES","tp":"CS","ts":"2023-09-01T11:23:59Z","tX":511,"tY":377,"tags":{"caravans":"yes","email":"camping@refugiodebujaruelo.com","name":"Camping San Nicolás de Bujaruelo","phone":"+34 974 486 412","tents":"yes","website":"https://www.refugiodebujaruelo.com/camping-en-ordesa/"}},"177077191":{"location":[42.6774738,-0.1240384],"ct":"ES","tp":"CS","ts":"2022-06-17T09:21:54Z","tX":511,"tY":377,"tags":{"caravans":"yes","name":"Camping Valle de Bujaruelo","shower":"yes","tents":"yes","toilets":"yes","website":"https://campingvalledebujaruelo.com/"}},"367079386":{"location":[42.6324982,-0.1067241],"ct":"ES","tp":"CS","ts":"2023-08-28T11:50:50Z","tX":511,"tY":377,"tags":{"addr:city":"Torla-Ordesa","camp_site":"deluxe","caravans":"yes","dog":"leashed","ele":"991","email":"campingrioara@ordesa.net","fee":"yes","internet_access":"yes","internet_access:fee":"no","mobile":"+34 660 23 35 34;+34 699 033 423","name":"Camping Río Ara","opening_hours":"May-Oct open","phone":"+34 974 486 248","power_supply":"yes","reservation":"no","sanitary_dump_station":"yes","shower":"yes","stars":"2","tents":"yes","toilets":"yes","washing_machine":"yes","website":"http://www.campingrioaraordesa.com"}},"367084967":{"location":[42.640404,-0.1087268],"ct":"ES","tp":"CS","ts":"2024-07-30T21:58:37Z","tX":511,"tY":377,"tags":{"name":"Camping Ordesa","website":"https://campingordesa.es"}},"768298896":{"location":[42.7218702,-0.2940198],"ct":"ES","tp":"CS","ts":"2023-11-07T20:47:21Z","tX":511,"tY":377,"tags":{"access":"customers","addr:postcode":"22661","addr:street":"Camino de El Pueyo","contact:email":"campingpanticosa@gmail.com","contact:mobile":"+34 635 31 56 69","contact:phone":"+34 974 48 75 29","contact:website":"https://campingpanticosa.com/","fee":"yes","internet_access":"wlan","internet_access:fee":"no","name":"Camping Panticosa"}},"793504691":{"location":[42.616511,-0.1542297],"ct":"ES","tp":"CS","ts":"2023-07-30T20:25:35Z","tX":511,"tY":377,"tags":{"caravans":"yes","ele":"1240","name":"Camping Viú","phone":"+34 974 48 63 01","shower":"yes","tents":"yes","toilets":"yes"}},"7912931635":{"location":[42.7913874,-0.1435733],"ct":"FR","tp":"CS","ts":"2023-07-19T07:12:17Z","tX":511,"tY":377,"tags":{"backcountry":"yes","camp_site":"basic","caravans":"no","name":"Aire de bivouac du Refuge des Oulettes de Gaube","static_caravans":"no","tents":"yes"}},"7912973060":{"location":[42.7793561,-0.1236418],"ct":"FR","tp":"CS","ts":"2023-07-19T07:09:16Z","tX":511,"tY":377,"tags":{"backcountry":"yes","camp_site":"basic","caravans":"no","name":"Aire de bivouac du Refuge de Bayssellance","static_caravans":"no","tents":"yes"}},"8895322735":{"location":[42.7572269,-0.0938143],"ct":"FR","tp":"CS","ts":"2021-07-05T15:08:58Z","tX":511,"tY":377,"tags":{"name":"Aire de bivouac"}},"11432724390":{"location":[42.7380888,-0.0190249],"ct":"FR","tp":"SD","ts":"2023-12-19T18:21:50Z","tX":511,"tY":377,"tags":{"access":"yes"}},"5635003248":{"location":[42.6148524,-0.3282501],"ct":"ES","tp":"CS","ts":"2019-12-22T16:59:19Z","tX":511,"tY":377,"tags":{"abandoned":"yes","access":"no","addr:postcode":"22600","addr:street":"Carretera N-260a","name":"Antiguo Camping Las Nieves","wikipedia":"es:Riada del camping de Biescas"}},"4358806090":{"location":[42.7213789,-0.2819637],"ct":"ES","tp":"CR","ts":"2023-12-30T13:47:33Z","tX":511,"tY":377,"tags":{"addr:city":"Panticosa","addr:postcode":"22661","addr:street":"Acceso a la Estación","capacity":"10","caravan_site":"parking_lot","caravan_site:type":"ski_village","name":"Área de Autocaravanas Panticosa","opening_hours":"24/7","operator":"Aramón","power_supply":"no","sanitary_dump_station":"no","water_point":"no"}},"4823472507":{"location":[42.6262146,-0.3215112],"ct":"ES","tp":"CR","ts":"2023-10-14T04:20:07Z","tX":511,"tY":377,"tags":{"access":"permissive","addr:city":"Biescas","addr:postcode":"22630","addr:street":"Camino Conchada","fee":"no","internet_access":"no","noname":"yes","sanitary_dump_station":"no","toilets":"no","wheelchair":"yes"}},"4823516753":{"location":[42.6305524,-0.3255898],"ct":"ES","tp":"CR","ts":"2023-11-11T21:24:58Z","tX":511,"tY":377,"tags":{"addr:city":"Biescas","addr:postcode":"22630","addr:street":"Avenida de Ordesa","drinking_water":"no","fee":"no","internet_access":"no","noname":"yes","power_supply":"no","toilets":"no","wheelchair":"yes"}},"5043259523":{"location":[42.7550648,-0.3146817],"ct":"ES","tp":"CR","ts":"2017-08-18T16:09:57Z","tX":511,"tY":377,"tags":{}},"5842078585":{"location":[42.6189745,-0.3041563],"ct":"ES","tp":"SD","ts":"2018-08-19T16:06:29Z","tX":511,"tY":377,"tags":{"drinking_water":"yes","sanitary_dump_station:chemical_toilet":"no","sanitary_dump_station:grey_water":"yes","water_point":"yes"}}}