{"129882279":{"location":[42.2695116,-0.0797679],"ct":"ES","tp":"CS","ts":"2018-05-20T09:29:57Z","tX":511,"tY":379,"tags":{"addr:city":"Rodellar","addr:postcode":"22144","ele":"694","internet_access":"wlan","internet_access:fee":"no","name":"Camping El Puente","stars":"2"}},"345581086":{"location":[42.2817461,-0.0750346],"ct":"ES","tp":"CS","ts":"2024-06-26T13:26:30Z","tX":511,"tY":379,"tags":{"access":"customers","addr:city":"Rodellar","addr:postcode":"22144","addr:street":"carretera de Rodellar a Bierge","caravans":"yes","charge":"13,50 EUR","drinking_water":"yes","fee":"yes","name":"Camping Mascún","power_supply":"yes","sanitary_dump_station":"yes","shower":"yes","static_caravans":"yes","tents":"yes","toilets":"yes","website":"http://campingmascun.com/es/"}},"582485839":{"location":[42.2132802,-0.1743315],"ct":"ES","tp":"CS","ts":"2023-07-24T16:16:58Z","tX":511,"tY":379,"tags":{"caravans":"yes","drinking_water":"yes","name":"Camping Cañones de Guara y Formiga","phone":"+34 974 343 035","power_supply":"yes","shower":"yes","tents":"yes","toilets":"yes"}},"584101491":{"location":[42.2016765,-0.1291732],"ct":"ES","tp":"CS","ts":"2024-08-03T12:57:29Z","tX":511,"tY":379,"tags":{"ele":"680","name":"Camping Guara Altaoja","name:es":"Camping Guara Altaoja","tents":"yes"}},"659540176":{"location":[42.2455956,-0.0696425],"ct":"ES","tp":"CS","ts":"2015-09-05T13:08:30Z","tX":511,"tY":379,"tags":{"ele":"760","name":"Camping Expediciones (empresa de canyoning, camping cerrado)","wpt_symbol":"Campground"}}}