{"45780748":{"location":[39.9536134,-0.3350433],"ct":"ES","tp":"CR","ts":"2021-01-09T13:51:54Z","tX":511,"tY":387,"tags":{"name":"area de suera","operator":"https://www.areasac.es/suera/castellon/suera_3967_1_ap.html"}},"436164479":{"location":[39.9839477,-0.0176665],"ct":"ES","tp":"CR","ts":"2023-02-25T20:50:34Z","tX":511,"tY":387,"tags":{"operator":"Carrefour","reservation":"no","smoking":"yes"}},"1209170647":{"location":[40.0239708,-0.2805793],"ct":"ES","tp":"CR","ts":"2023-09-19T18:53:32Z","tX":511,"tY":387,"tags":{}},"1234966947":{"location":[39.9680737,-0.2716913],"ct":"ES","tp":"CR","ts":"2024-06-07T20:55:45Z","tX":511,"tY":387,"tags":{"addr:housenumber":"28","addr:postcode":"12200","addr:street":"Camí Fanzara","capacity":"8","email":"onda@touristinfo.net","fee":"no","image":"https://i.imgur.com/756jATZ.jpg","image:0":"https://i.imgur.com/fGf8m1A.jpg","internet_access":"no","name":"Àrea d'Estacionament d'Autocaravanes d'Onda","name:ca":"Àrea d'Estacionament d'Autocaravanes d'Onda","name:es":"Área de Estacionamiento de Autocaravanas de Onda","opening_hours":"24/7","permanent_camping":"no","phone":"+34 964 60 28 55","power_supply":"no","sanitary_dump_station":"yes","toilets":"no","water_point":"yes","website":"https://www.ondaturismo.es/"}},"8731854917":{"location":[40.0051023,-0.0559708],"ct":"ES","tp":"CR","ts":"2021-09-13T15:21:23Z","tX":511,"tY":387,"tags":{"opening_hours":"24/7"}},"9410475281":{"location":[39.9680016,-0.2715504],"ct":"ES","tp":"SD","ts":"2022-01-11T15:46:13Z","tX":511,"tY":387,"tags":{"access":"yes","fee":"no","power_supply":"no","sanitary_dump_station:chemical_toilet":"yes","sanitary_dump_station:grey_water":"yes","water_point":"yes"}}}