{"77433552":{"location":[39.6037761,-0.2703721],"ct":"ES","tp":"CS","ts":"2022-09-07T16:57:36Z","tX":511,"tY":389,"tags":{"internet_access":"wlan","name":"Camping Puzol","opening_hours:reception":"Mo-Su 9:00-21:00","tents":"yes"}},"215391060":{"location":[39.3964223,-0.3329052],"ct":"ES","tp":"CS","ts":"2024-01-21T17:31:08Z","tX":511,"tY":389,"tags":{"camp_site:discount":"ACSI","drinking_water":"yes","name":"Coll Vert","power_supply":"yes","website":"https://www.collvertcamping.com/","wheelchair":"yes"}},"307477608":{"location":[39.600385,-0.2718317],"ct":"ES","tp":"CS","ts":"2020-11-26T23:56:28Z","tX":511,"tY":389,"tags":{"name":"Camping Val√®ncia"}},"408016930":{"location":[39.3890961,-0.3329678],"ct":"ES","tp":"CS","ts":"2023-11-05T08:02:05Z","tX":511,"tY":389,"tags":{"addr:city":"El Saler","addr:country":"ES","addr:housenumber":"548","addr:postcode":"46012","addr:street":"Carrera del Riu","cabins":"yes","caravans":"yes","drinking_water":"yes","email":"info@campingparkelsaler.com","fee":"yes","name":"Camping Park El Saler","phone":"+34 961830244","power_supply":"yes","shower":"yes","swimming_pool":"yes","tents":"yes","toilets":"yes","washing_machine":"yes","website":"https://www.campingparkelsaler.com/","wheelchair":"yes"}},"408016931":{"location":[39.3878198,-0.3330394],"ct":"ES","tp":"CS","ts":"2023-11-05T08:02:27Z","tX":511,"tY":389,"tags":{"addr:city":"El Saler","addr:country":"ES","addr:housenumber":"552","addr:postcode":"46012","addr:street":"Carrera del Riu","cabins":"yes","caravans":"yes","drinking_water":"yes","email":"campingvalencia1981@hotmail.com","fee":"yes","name":"Camping Valencia El Saler","phone":"+34 961830212","power_supply":"yes","sanitary_dump_station":"yes","shower":"yes","swimming_pool":"yes","tents":"yes","toilets":"yes","washing_machine":"yes","website":"https://www.campingvalenciaelsaler.com/","wheelchair":"yes"}},"425777876":{"location":[39.3858425,-0.3331241],"ct":"ES","tp":"CR","ts":"2023-02-23T12:34:34Z","tX":511,"tY":389,"tags":{"fee":"yes","name":"Jardines del Ocio","wheelchair":"yes"}},"1116942900":{"location":[39.3870516,-0.3331301],"ct":"ES","tp":"CS","ts":"2023-03-31T21:40:43Z","tX":511,"tY":389,"tags":{"addr:city":"El Saler","addr:housenumber":"556","addr:postcode":"46012","addr:street":"Carrera Del Riu","cabins":"yes","caravans":"yes","dog":"yes","drinking_water":"yes","email":"reservas@bungalowsalbufera.com","internet_access":"wlan","name":"Bungalows Park Albufera","phone":"+34 961830624","power_supply":"yes","shower":"yes","swimming_pool":"yes","tents":"no","toilets":"yes","website":"https://www.bungalowsalbufera.com/"}},"7145909686":{"location":[39.386984,-0.332042],"ct":"ES","tp":"CR","ts":"2023-02-23T12:34:39Z","tX":511,"tY":389,"tags":{"addr:housenumber":"556b","addr:postcode":"46001","addr:street":"Carretera del Riu","name":"Area Campingcar la Marina","toilets":"yes","wheelchair":"yes"}},"9307596275":{"location":[39.5484064,-0.3440766],"ct":"ES","tp":"CR","ts":"2024-12-06T10:55:35Z","tX":511,"tY":389,"tags":{"drinking_water":"yes","fee":"yes","internet_access":"wlan","name":"Nomadic Valencia Camping Car","power_supply":"yes","sanitary_dump_station":"yes","toilets":"yes"}},"11274341969":{"location":[39.5656388,-0.2923398],"ct":"ES","tp":"CR","ts":"2023-10-19T11:05:19Z","tX":511,"tY":389,"tags":{}},"10251304604":{"location":[39.5052265,-0.3239898],"ct":"ES","tp":"SD","ts":"2022-12-10T18:29:52Z","tX":511,"tY":389,"tags":{"access":"yes","fee":"no","opening_hours":"24/7"}}}