{"131691678":{"location":[38.9064897,-0.0668452],"ct":"ES","tp":"CS","ts":"2024-08-16T15:58:54Z","tX":511,"tY":391,"tags":{"addr:city":"Oliva","addr:postcode":"46780","caravans":"yes","description":"EUROCAMPING es un camping situado junto al mar, en la playa de Oliva, amplia y de arena blanca y fina. Parcelas sombreadas por abundantes árboles","drinking_water":"yes","email":"info@eurocamping-es.com","internet_access":"wlan","name":"Eurocamping","nohousenumber":"yes","phone":"+34 96 285 40 98","power_supply":"yes","sanitary_dump_station":"yes","shower":"yes","tents":"yes","toilets":"yes","website":"https://eurocamping-es.com"}},"131691966":{"location":[38.9078705,-0.0681009],"ct":"ES","tp":"CS","ts":"2024-08-16T16:00:22Z","tX":511,"tY":391,"tags":{"addr:city":"Oliva","addr:housenumber":"1","addr:street":"Calle Camping Azul","addr:unit":"1","caravans":"yes","drinking_water":"yes","fee":"yes","internet_access":"wlan","name":"Camping Azul","power_supply":"yes","sanitary_dump_station":"yes","shower":"yes","tents":"yes","toilets":"yes"}},"131691968":{"location":[38.9069319,-0.0688166],"ct":"ES","tp":"CS","ts":"2024-01-15T11:30:28Z","tX":511,"tY":391,"tags":{"caravans":"yes","drinking_water":"yes","name":"Camping Azul","power_supply":"yes","sanitary_dump_station":"yes","shower":"yes","tents":"yes","toilets":"yes"}},"161533961":{"location":[39.0217332,-0.3182658],"ct":"ES","tp":"CS","ts":"2017-03-10T15:40:49Z","tX":511,"tY":391,"tags":{"name":"Camping La Falaguera","source":"http://www.campinglafalaguera.com/"}},"193444409":{"location":[38.8957242,-0.0531897],"ct":"ES","tp":"CS","ts":"2023-02-09T16:54:10Z","tX":511,"tY":391,"tags":{"addr:city":"Oliva","addr:postcode":"46780","addr:street":"Partida Aigua Morta","description":"El Camping Olé se encuentra ubicado junto al mar y rodeado de naturaleza en una de las zonas más privilegiadas del Mediterráneo. Su agradable clima, con veranos frescos e inviernos cálidos, invita a disfrutar de la playa.","name":"Camping Olé","nohousenumber":"yes","phone":"+34 962 85 75 17","website":"https://www.camping-ole.com/"}},"225647664":{"location":[38.9533788,-0.1296913],"ct":"ES","tp":"CS","ts":"2023-10-25T22:13:57Z","tX":511,"tY":391,"tags":{"contact:fax":"+34 962 818 733","name":"Coelius","phone":"+34 962 819 574","website":"https://www.coelius.com/"}},"228344755":{"location":[38.8857779,-0.0395773],"ct":"ES","tp":"CS","ts":"2018-06-25T08:39:00Z","tX":511,"tY":391,"tags":{"name":"Río Mar"}},"228468891":{"location":[38.8726734,-0.0215571],"ct":"ES","tp":"CS","ts":"2022-03-27T17:24:53Z","tX":511,"tY":391,"tags":{"caravans":"yes","email":"info@camping-lospatos.com","name":"Los Patos","phone":"+34 965 75 52 93","tents":"yes","toilets":"yes","website":"https://camping-lospatos.com/"}},"349654456":{"location":[39.0042174,-0.1786474],"ct":"ES","tp":"CS","ts":"2023-10-25T22:26:55Z","tX":511,"tY":391,"tags":{"addr:city":"Gandia","addr:postcode":"46730","addr:street":"Camino Assagador de Morant","name":"Camping La Naranja","nohousenumber":"yes","phone":"+34 962 84 16 16","website":"https://www.campinglanaranja.com/"}},"398298862":{"location":[38.9328382,-0.0979083],"ct":"ES","tp":"CS","ts":"2023-10-25T22:31:03Z","tX":511,"tY":391,"tags":{"addr:city":"Oliva","addr:housenumber":"2","addr:postcode":"46780","addr:street":"Carrer de l'Assagador de Carro","name":"Camping Kiko","phone":"+34 96 285 09 05","website":"https://kikopark.com/"}},"399366577":{"location":[38.9852411,-0.1624081],"ct":"ES","tp":"CS","ts":"2020-09-22T09:11:39Z","tX":511,"tY":391,"tags":{"name":"Camping l'Alqueria"}},"424136925":{"location":[38.9328041,-0.098379],"ct":"ES","tp":"CR","ts":"2019-11-19T14:41:00Z","tX":511,"tY":391,"tags":{"name":"KIKOPARK Camper Area","power_supply":"yes","sanitary_dump_station":"yes","website":"http://kikopark.com/de/room/camper-area/"}},"439747381":{"location":[39.0809861,-0.2130478],"ct":"ES","tp":"CR","ts":"2024-04-28T17:44:48Z","tX":511,"tY":391,"tags":{"addr:street":"calle garbi s/n","capacity":"50","caravan_site":"motorhome_stopover","caravan_site:type":"beach","caravans":"no","charge":"20 EUR","charge:conditional":"15 EUR @ (Jun); 10 EUR @ (Sep 16-May 31)","dog":"yes","fee":"yes","internet_access":"wlan","name":"Camping Car La Finca","power_supply":"yes","power_supply:maxcurrent":"5","sanitary_dump_station":"yes","seasonal":"no","tents":"no","website":"https://campingcarlafinca.com/"}},"473734807":{"location":[38.8485,-0.1578157],"ct":"ES","tp":"CS","ts":"2023-10-25T22:16:40Z","tX":511,"tY":391,"tags":{"addr:city":"l'Atzúbia","addr:country":"ES","addr:place":"Urbanización les Bassetes","addr:postcode":"03786","capacity":"50","fee":"yes","name":"el Tossal del Llop","name:ca":"el Tossal del Llop","operator":"Ajuntament de l’Atzúbia","phone":"+34 965 57 13 58","website":"https://www.adsubia.es/zona-dacampada-tossal-del-llop/"}},"499547299":{"location":[38.9697781,-0.144785],"ct":"ES","tp":"CR","ts":"2020-07-17T09:25:09Z","tX":511,"tY":391,"tags":{"name":"Dunes Area Camper","website":"http://www.dunesareacamper.com/"}},"537817038":{"location":[38.972602,-0.1504335],"ct":"ES","tp":"CS","ts":"2024-07-01T01:43:59Z","tX":511,"tY":391,"tags":{"name":"Camping L'Aventura","website":"https://www.campinglaventuraplaya.es/"}},"540848614":{"location":[39.053321,-0.1977062],"ct":"ES","tp":"CS","ts":"2022-08-01T12:51:23Z","tX":511,"tY":391,"tags":{"addr:city":"Gandia","addr:housenumber":"38","addr:street":"Avinguda de la Mota","cabins":"yes","caravans":"yes","name":"Camping San Vicente","tents":"yes","website":"https://www.campingsanvicente.com/"}},"719970728":{"location":[39.0456096,-0.1988388],"ct":"ES","tp":"CR","ts":"2019-09-02T15:10:06Z","tX":511,"tY":391,"tags":{"addr:city":"Xeraco","addr:housenumber":"175","addr:street":"Carrer Arnau Bosquets","capacity":"35","fee":"yes","internet_access":"wlan","name":"Area Autocaravanas Xeraco Campers ***","note":"open all year  , price 17-30€ all incl. ","power_supply":"yes","sanitary_dump_station":"yes","website":"https://www.xeracocampers.com/"}},"1044489991":{"location":[38.8680295,-0.0151704],"ct":"ES","tp":"CS","ts":"2023-07-27T09:18:25Z","tX":511,"tY":391,"tags":{"caravans":"yes","dog":"yes","drinking_water":"yes","email":"losllanos@losllanos.net","fee":"yes","internet_access":"yes","name":"Los Llanos","phone":"+34 965 755 188","power_supply":"yes","shower":"yes","tents":"yes","toilets":"yes","website":"https://losllanos.net/"}},"1044800560":{"location":[38.8437322,-0.1110281],"ct":"ES","tp":"CR","ts":"2024-03-18T13:04:04Z","tX":511,"tY":391,"tags":{"cabins":"no","capacity":"6","capacity:caravans":"6","caravans":"yes","fee":"no","name:signed":"no","noname":"yes","operator":"Ajuntament de Pego","permanent_camping":"no","power_supply":"yes","sanitary_dump_station":"yes","shower":"no","static_caravans":"no","tents":"no","toilets":"no","water_point":"yes"}},"1101545103":{"location":[38.8948941,-0.0519194],"ct":"ES","tp":"CS","ts":"2023-10-25T22:21:21Z","tX":511,"tY":391,"tags":{"addr:city":"Oliva","addr:postcode":"46780","addr:street":"Partida Aigua Morta","cabins":"yes","camp_site":"serviced","caravans":"yes","dog":"leashed","email":"info@campingpepe.com","fee":"yes","motor_vehicle":"yes","name":"Camping Pepe","nohousenumber":"yes","phone":"+34 96 285 75 19","power_supply":"yes","reservation":"no","sanitary_dump_station":"yes","shower":"yes","tents":"yes","toilets":"yes","washing_machine":"yes","website":"https://campingpepe.com/"}},"1138085577":{"location":[38.9632225,-0.2266945],"ct":"ES","tp":"CR","ts":"2024-01-23T18:04:16Z","tX":511,"tY":391,"tags":{"addr:city":"Gandia","addr:postcode":"46728","cabins":"yes","camp_site":"deluxe","capacity:caravans":"100","caravan_site":"motorhome_stopover","caravan_site:type":"camp_site","fee":"yes","internet_access":"wlan","internet_access:fee":"no","internet_access:ssid":"LA ESCALADA","name":"La escalada Gandía","power_supply":"yes","sanitary_dump_station":"yes","water_point":"yes","website":"https://campinglaescaladagandia.com/"}},"1141490235":{"location":[38.8946469,-0.0527362],"ct":"ES","tp":"CR","ts":"2023-02-09T16:54:10Z","tX":511,"tY":391,"tags":{"operator":"Camping Pepe"}},"1305687361":{"location":[39.0873315,-0.2193758],"ct":"ES","tp":"CR","ts":"2024-08-05T09:44:38Z","tX":511,"tY":391,"tags":{"name":"Ohana Beach Area Camper"}},"4335619447":{"location":[39.0425776,-0.2290479],"ct":"ES","tp":"CS","ts":"2016-08-04T15:42:15Z","tX":511,"tY":391,"tags":{}},"9613465109":{"location":[38.8434922,-0.1109727],"ct":"ES","tp":"SD","ts":"2023-01-09T11:48:34Z","tX":511,"tY":391,"tags":{"access":"yes","fee":"yes","operator":"Ajuntament de Pego","power_supply":"no","sanitary_dump_station:chemical_toilet":"yes","sanitary_dump_station:gravity":"yes","sanitary_dump_station:grey_water":"yes","sanitary_dump_station:suction":"yes","water_point":"yes"}},"10633252223":{"location":[38.8939331,-0.0521578],"ct":"ES","tp":"SD","ts":"2023-02-09T16:51:55Z","tX":511,"tY":391,"tags":{}},"12369584101":{"location":[38.9463466,-0.1633965],"ct":"ES","tp":"SD","ts":"2024-11-24T12:31:33Z","tX":511,"tY":391,"tags":{"name:de":"Piles"}}}