{"26589175":{"location":[38.5791136,-0.0653796],"ct":"ES","tp":"CS","ts":"2022-12-24T23:22:05Z","tX":511,"tY":392,"tags":{"name":"Cap Blanch","name:ca":"Cap Blanc","website":"https://www.camping-capblanch.com/","wheelchair":"yes"}},"44718947":{"location":[38.7774612,-0.1055347],"ct":"ES","tp":"CS","ts":"2023-10-25T22:26:44Z","tX":511,"tY":392,"tags":{"addr:city":"La Vall De Laguar","addr:housenumber":"24","addr:postcode":"03791","addr:street":"Carrer Sant Antoni","backcountry":"no","dog":"leashed","fax":"+34 96 558 45 90","fee":"yes","group_only":"no","internet_access":"wlan","internet_access:fee":"no","name":"Camping & Bungalows Vall de Laguar","opening_hours":"Mo-Su 09:00-20:00","sanitary_dump_station":"yes","shower":"yes","toilets":"yes","website":"https://www.campinglaguar.com/"}},"114458477":{"location":[38.5500727,-0.0998122],"ct":"ES","tp":"CS","ts":"2015-03-05T21:12:54Z","tX":511,"tY":392,"tags":{"name":"Camping El Racó","wheelchair":"yes"}},"167091404":{"location":[38.5550995,-0.0959569],"ct":"ES","tp":"CS","ts":"2025-05-19T18:40:10Z","tX":511,"tY":392,"tags":{"email":"camping@campingvillamar.com","name":"Camping Villamar","phone":"+34 966 811 255","website":"https://www.campingvillamar.com/"}},"171996917":{"location":[38.7948811,-0.2567687],"ct":"ES","tp":"CS","ts":"2024-12-01T00:52:59Z","tX":511,"tY":392,"tags":{"barrier":"fence","name":"Camping la Vall","website":"https://www.guiacampingfecc.com/alacant.alicante/la.vall/"}},"174313932":{"location":[38.7172963,-0.1972341],"ct":"ES","tp":"CS","ts":"2022-11-27T11:04:11Z","tX":511,"tY":392,"tags":{"name":"El Castellet","name:ca":"El Castellet"}},"176163722":{"location":[38.6755974,-0.1942674],"ct":"ES","tp":"CS","ts":"2019-10-28T23:18:33Z","tX":511,"tY":392,"tags":{"building":"yes","caravans":"yes","name":"El Refu de Guadelest","outdoor_seating":"yes","tents":"yes"}},"179080888":{"location":[38.8030916,-0.1610129],"ct":"ES","tp":"CS","ts":"2023-11-22T10:46:08Z","tX":511,"tY":392,"tags":{"barrier":"fence","description":"Zona d'acampada. Cal telefonar per a reservar ja que no hi ha personal d'atenció continuada.","name":"Zona d'Acampada de la Vall d'Ebo","website":"https://www.valldebo.es/ca/zona-de-acampada/"}},"182968197":{"location":[38.6797689,-0.0403392],"ct":"ES","tp":"CS","ts":"2023-11-29T21:05:56Z","tX":511,"tY":392,"tags":{"name":"Zona d'Acampada Bèrnia","name:ca":"Zona d'Acampada Bèrnia"}},"183561449":{"location":[38.7428735,-0.0155677],"ct":"ES","tp":"CR","ts":"2025-02-08T13:46:45Z","tX":511,"tY":392,"tags":{"capacity":"44","charge":"12-16","electricity":"yes","email":"camperparkxalo@gmail.com","fee":"yes","internet_access":"wlan","laundry_service":"yes","name":"Camper Park Xaló","operator":"Camper Park Xaló","operator:type":"private","parking":"surface","payment:cash":"yes","payment:credit_cards":"yes","payment:debit_cards":"yes","power_supply":"yes","sanitary_dump_station":"yes","shower":"yes","surface":"gravel","toilets":"yes","website":"https://www.camperparkxalo.com/","wheelchair":"yes"}},"187148001":{"location":[38.740961,-0.0148548],"ct":"ES","tp":"CR","ts":"2024-12-07T19:35:47Z","tX":511,"tY":392,"tags":{"addr:city":"Xaló","addr:housenumber":"4","addr:postcode":"03727","addr:street":"Calle Pallarés","email":"camperparkxalo@gmail.com","internet_access":"yes","internet_access:fee":"no","landuse":"vineyard","name":"Camper Park Xaló","phone":"+34 684 73 83 67","reservation":"yes"}},"191269811":{"location":[38.5586798,-0.0966565],"ct":"ES","tp":"CS","ts":"2025-05-09T17:29:06Z","tX":511,"tY":392,"tags":{"addr:city":"Benidorm","addr:postcode":"03503","addr:street":"Avinguda de la Comunitat Valenciana","capacity:caravans":"300","email":"info@campingbenisol.com","internet_access":"wlan","internet_access:fee":"customers","internet_access:ssid":"BeniFree, BeniGO, BeniMAX","name":"Camping Benisol","nohousenumber":"yes","phone":"+34965851673","power_supply":"yes","reservation":"yes","sanitary_dump_station":"yes","website":"https://campingbenisol.com","wheelchair":"yes"}},"199676664":{"location":[38.5662828,-0.0961176],"ct":"ES","tp":"CR","ts":"2025-05-01T06:23:08Z","tX":511,"tY":392,"tags":{"name":"Camping & Bungalows La Almafrá"}},"517361603":{"location":[38.6543647,-0.0931974],"ct":"ES","tp":"CS","ts":"2019-08-12T20:56:26Z","tX":511,"tY":392,"tags":{"addr:city":"Callosa d'en Sarrià","addr:postcode":"03510","addr:street":"Partida Segarra","contact:phone":"+34 608742571","contact:website":"https://www.fontsdelalgar.com/","name":"Camping Fonts de l'Algar","reservation":"yes"}},"582019814":{"location":[38.7558781,-0.2736077],"ct":"ES","tp":"CS","ts":"2023-04-17T19:14:48Z","tX":511,"tY":392,"tags":{"description":"Camping Municipal","name":"Àrea Recreativa El Freginal","name:ca":"Àrea Recreativa El Freginal"}},"997354899":{"location":[38.5859307,-0.0599736],"ct":"ES","tp":"CR","ts":"2023-02-20T10:19:36Z","tX":511,"tY":392,"tags":{"internet_access":"wlan","name":"San Antonio","name:ca":"Sant Antoni","operator":"Paco Mulet","power_supply":"yes","wheelchair":"yes"}},"1076616722":{"location":[38.5514745,-0.0954625],"ct":"ES","tp":"CS","ts":"2024-09-14T13:19:54Z","tX":511,"tY":392,"tags":{"access":"customers","addr:city":"Benidorm","addr:housenumber":"44","addr:postcode":"03503","addr:street":"Avenida del Doctor Severo Ochoa","capacity":"100","caravans":"yes","drinking_water":"yes","fee":"yes","internet_access":"wlan","name":"Camping Arena Blanca","power_supply":"yes","sanitary_dump_station":"yes","shower":"yes","tents":"yes","toilets":"yes","website":"https://www.campingarenablanca.com/","wheelchair":"yes"}},"1111431632":{"location":[38.5535054,-0.0978943],"ct":"ES","tp":"CS","ts":"2025-05-19T17:41:28Z","tX":511,"tY":392,"tags":{"contact:facebook":"https://www.facebook.com/campingbenidorm/","email":"info@campingbenidorm.com","name":"Camping Benidorm","phone":"+34 965 86 00 11","website":"https://www.campingbenidorm.com/"}},"1173773134":{"location":[38.820469,-0.2627373],"ct":"ES","tp":"CR","ts":"2024-04-28T18:21:51Z","tX":511,"tY":392,"tags":{"bbq":"no","caravan_site":"motorhome_stopover","caravan_site:type":"village","caravans":"yes","description":"Per a accedir a esta zona per a caravanes s'ha d'anar a la Tenda de Carmen a pagar per l'estada.","fee":"yes @ 8:00-20:00","maxstay":"48 hours","motorhome":"designated","name":"Espai Recreatiu El Safareig","picnic_area":"yes","power_supply":"yes","sanitary_dump_station":"no","tents":"no","water_point":"yes","website":"https://www.lavalldegallinera.org/espai-recreatiu-de-caravanes-i-autocaravanes-el-safareig/"}},"1177723924":{"location":[38.8031935,-0.0373787],"ct":"ES","tp":"CR","ts":"2024-01-26T22:50:11Z","tX":511,"tY":392,"tags":{"capacity":"15"}},"1203331971":{"location":[38.5678496,-0.0814422],"ct":"ES","tp":"CR","ts":"2023-08-29T22:10:52Z","tX":511,"tY":392,"tags":{}},"1302889262":{"location":[38.6723454,-0.2138648],"ct":"ES","tp":"CS","ts":"2024-07-21T16:02:42Z","tX":511,"tY":392,"tags":{"access":"yes","addr:city":"Benimantell","addr:postcode":"03516","addr:street":"Partida Creus","capacity:caravans":"34","capacity:persons":"130","capacity:tents":"10","caravans":"yes","fee":"yes","name":"Camping \"Benimantell\"","operator":"Bantour Sun Spain S.L.","payment:cash":"yes","payment:credit_cards":"yes","payment:debit_cards":"yes","static_caravans":"no","tents":"yes"}},"1382807558":{"location":[38.5677125,-0.0986621],"ct":"ES","tp":"CR","ts":"2025-05-01T16:57:32Z","tX":511,"tY":392,"tags":{}},"1384131412":{"location":[38.5629033,-0.0933042],"ct":"ES","tp":"CS","ts":"2025-05-06T18:44:39Z","tX":511,"tY":392,"tags":{"construction":"commercial","landuse":"construction"}},"1831233181":{"location":[38.5838957,-0.0813611],"ct":"ES","tp":"CR","ts":"2012-07-19T18:00:23Z","tX":511,"tY":392,"tags":{"name":"Camperpark Costa Blanca"}},"1831233351":{"location":[38.5858414,-0.0839896],"ct":"ES","tp":"CR","ts":"2012-07-19T18:00:30Z","tX":511,"tY":392,"tags":{"name":"Camperpark Orange Grove"}},"4401467293":{"location":[38.6579371,-0.2418778],"ct":"ES","tp":"CS","ts":"2016-09-14T18:09:30Z","tX":511,"tY":392,"tags":{}},"4467103875":{"location":[38.5705961,-0.1817892],"ct":"ES","tp":"CS","ts":"2024-02-24T19:12:10Z","tX":511,"tY":392,"tags":{"name":"Càmping Puig Campana","website":"http://www.puigcampanacamping.com"}},"4437398898":{"location":[38.5483209,-0.0990776],"ct":"ES","tp":"CR","ts":"2022-07-18T22:06:24Z","tX":511,"tY":392,"tags":{"name":"Camping El Racó"}},"10797356409":{"location":[38.6950098,-0.1039866],"ct":"ES","tp":"CR","ts":"2025-05-16T14:54:04Z","tX":511,"tY":392,"tags":{"drinking_water":"yes","fee":"no","name":"Area Autocaravanas Tárbena","opening_hours":"24/7","power_supply":"yes","sanitary_dump_station":"yes","toilets":"no"}},"11966536303":{"location":[38.7536305,-0.1168487],"ct":"ES","tp":"CR","ts":"2024-06-09T15:24:58Z","tX":511,"tY":392,"tags":{"name":"Càmping Benigembla","phone":"+34 676 43 65 95","website":"https://www.campingbenigembla.com/"}}}