{"379756266":{"location":[-31.013315,-64.278763],"ct":"AR","tp":"CS","ts":"2015-11-11T15:24:43Z","tX":329,"tY":604,"tags":{"capacity":"50","name":"La Toma"}},"383446108":{"location":[-30.9982285,-64.0913163],"ct":"AR","tp":"CS","ts":"2015-11-29T14:30:12Z","tX":329,"tY":604,"tags":{"addr:city":"Colonia Caroya","addr:housenumber":"850","addr:postcode":"5223","addr:street":"Calle 45 - Don Bosco","capacity":"250","fee":"yes","name":"Camping Pileta Lote XI","note":"El camping está compuesto por 26 parcelas, pileta para adultos y menores, salón de fiestas, cancha de basket, frontón y voley.","operator":"Virginia, Mario o Luis","phone":"+54 3525 417788","website":"https://www.facebook.com/piletalotexi.cic"}},"407521486":{"location":[-30.9782753,-64.1077618],"ct":"AR","tp":"CS","ts":"2023-11-26T05:30:57Z","tX":329,"tY":604,"tags":{"access":"private","name":"Predio-Camping Casa de Matias"}},"3210136165":{"location":[-30.9575197,-64.2711826],"ct":"AR","tp":"CR","ts":"2014-11-29T03:26:21Z","tX":329,"tY":604,"tags":{"name":"Camping Ascochinga"}},"3210136166":{"location":[-30.9575874,-64.2717451],"ct":"AR","tp":"CS","ts":"2014-11-29T03:26:21Z","tX":329,"tY":604,"tags":{"name":"Camping Ascochinga"}},"4103240458":{"location":[-30.9769899,-64.1132102],"ct":"AR","tp":"CS","ts":"2016-04-06T21:35:11Z","tX":329,"tY":604,"tags":{"addr:city":"Jesús María","addr:postcode":"5220","addr:street":"La Toma","description":"Camping muy concurrido y familiar en época de verano, se inundó en marzo de 2015","name":"camping municipal Los Nogales","note":"La entrada está frente a Gendarmería Nacional"}},"12715905201":{"location":[-30.9429271,-64.277017],"ct":"AR","tp":"CS","ts":"2025-03-31T12:10:44Z","tX":329,"tY":604,"tags":{}}}