{"176412461":{"location":[35.3593249,129.3576188],"ct":"KR","tp":"CS","ts":"2021-05-25T08:43:49Z","tX":879,"tY":404,"tags":{"name":"대송학생야영장","name:en":"Daesong Student Camping Site","name:ko":"대송학생야영장","name:ko-Latn":"Daesonghaksaengyayeongjang","ncat":"야영장","source":"http://kr.open.gugi.yahoo.com"}},"283069383":{"location":[35.3799925,129.3442967],"ct":"KR","tp":"CS","ts":"2018-04-03T14:23:39Z","tX":879,"tY":404,"tags":{}},"1219446595":{"location":[35.4177773,129.2131931],"ct":"KR","tp":"CS","ts":"2023-10-30T05:45:10Z","tX":879,"tY":404,"tags":{"name":"대운산자연오토캠핑장"}},"1269197676":{"location":[35.3531332,129.0887439],"ct":"KR","tp":"CS","ts":"2024-04-04T23:07:27Z","tX":879,"tY":404,"tags":{}},"4965084022":{"location":[35.3155322,129.2625243],"ct":"KR","tp":"CS","ts":"2017-07-12T03:36:42Z","tX":879,"tY":404,"tags":{"name:en":"Imnang Campsite 01","opening_hours":"24/7"}},"4965139524":{"location":[35.3202023,129.2662629],"ct":"KR","tp":"CS","ts":"2017-07-12T04:41:44Z","tX":879,"tY":404,"tags":{"name:en":"Imnang Campsite","opening_hours":"24/7"}},"5250336427":{"location":[35.3363806,129.1268129],"ct":"KR","tp":"CS","ts":"2025-02-19T11:29:24Z","tX":879,"tY":404,"tags":{"addr:city":"부산광역시","addr:district":"기장군","addr:housenumber":"38","addr:street":"백운산길","addr:town":"철마면","name":"낙원농원","name:ko":"낙원농원"}},"5616580222":{"location":[35.2722525,129.2488341],"ct":"KR","tp":"CS","ts":"2018-05-14T06:22:25Z","tX":879,"tY":404,"tags":{}},"9531529997":{"location":[35.4444725,129.0482067],"ct":"KR","tp":"CS","ts":"2022-02-24T05:47:51Z","tX":879,"tY":404,"tags":{"name":"송백농원 캠핑장"}},"11496612669":{"location":[35.4289273,129.3606577],"ct":"KR","tp":"CR","ts":"2024-01-07T07:36:46Z","tX":879,"tY":404,"tags":{"name:en":"Zavod"}}}