{"26860303":{"location":[54.5764071,16.8807074],"ct":"PL","tp":"CS","ts":"2024-07-31T22:08:59Z","tX":560,"tY":325,"tags":{"addr:city":"Ustka","addr:housenumber":"4","addr:postcode":"76-270","addr:street":"Armii Krajowej","capacity:persons":"150","caravans":"yes","check_date":"2024-07-31","email":"cam_mor@pro.onet.pl","fax":"+48 59 814 44 26","fee":"yes","name":"Camping Morski","phone":"+48 59 814 44 26;+48 59 814 47 89","ref:pfcc":"101","stars":"2","static_caravans":"yes","tents":"yes","toilets":"yes","website":"https://morski101.pl/"}},"178174140":{"location":[54.6641474,17.0590361],"ct":"PL","tp":"CS","ts":"2023-11-06T05:38:55Z","tX":560,"tY":325,"tags":{"barrier":"fence","caravans":"yes","email":"krystyna_rowy@o2.pl","fence_type":"chain_link","internet_access":"wlan","name":"Krystyna","phone":"+48 512044126","tents":"yes","website":"https://www.krystyna.przymorzu.pl/"}},"247736619":{"location":[54.6616316,17.0401751],"ct":"PL","tp":"CS","ts":"2014-08-19T10:41:14Z","tX":560,"tY":325,"tags":{"name":"Mifam","operator":"MIFAM S.A. w upadłości likwidacyjnej","tents":"yes"}},"252432957":{"location":[54.5770731,16.8774641],"ct":"PL","tp":"CS","ts":"2024-07-28T16:41:34Z","tX":560,"tY":325,"tags":{"addr:city":"Przewłoka","addr:housenumber":"11","addr:postcode":"76-270","addr:street":"Generała Stefana Roweckiego \"Grota\"","caravans":"yes","email":"borowinka-ustka@wp.pl","fee":"yes","internet_access":"wlan","name":"Borowinka","operator":"Elżbieta Kulka ul. Gen. Grota Roweckiego 9 76-270 Ustka","phone":"+48 607 060 437, +48 598 146 985","source:addr":"gminaustka.punktyadresowe.pl","static_caravans":"yes","tents":"yes","website":"https://www.borowinka.pl/"}},"295864789":{"location":[54.6587205,17.0411103],"ct":"PL","tp":"CS","ts":"2024-07-06T09:57:23Z","tX":560,"tY":325,"tags":{"fax":"+48598141816","internet_access":"wlan","internet_access:fee":"no","name":"Navigator","payment:cash":"yes","phone":"+48506141819","website":"https://www.navigator-rowy.pl"}},"297297025":{"location":[54.6638935,17.057835],"ct":"PL","tp":"CS","ts":"2023-11-06T05:39:01Z","tX":560,"tY":325,"tags":{"addr:city":"Rowy","addr:housenumber":"6","addr:postcode":"76-212","addr:street":"Kapitańska","caravans":"yes","email":"info@wagabundarowy.pl","internet_access":"wlan","internet_access:fee":"no","maxtents":"150","name":"Wagabunda","phone":"+48 509039518","tents":"yes","website":"https://wagabundarowy.pl/"}},"298779994":{"location":[54.665286,17.0479968],"ct":"PL","tp":"CS","ts":"2024-04-23T14:31:38Z","tX":560,"tY":325,"tags":{"addr:city":"Rowy","addr:housenumber":"33","addr:postcode":"76-212","addr:street":"Nadmorska","caravans":"yes","email":"biuro@slowinskaperla.com.pl","name":"Słowińska Perła","operator":"Bury-Turystyka S.C.","phone":"+48 59 8142175","tents":"yes"}},"298814310":{"location":[54.6594579,17.0495699],"ct":"PL","tp":"CS","ts":"2024-07-31T22:08:59Z","tX":560,"tY":325,"tags":{"addr:city":"Rowy","addr:housenumber":"6","addr:postcode":"76-212","addr:street":"Bałtycka","cabins":"yes","capacity:persons":"300","caravans":"yes","check_date":"2024-07-31","email":"biuro@przymorze.com.pl","fee":"yes","internet_access":"wlan","internet_access:fee":"no","name":"Przymorze Camping nr 156","operator":"PUT \"Przymorze\" Sp. z o.o.","phone":"+48 59 814 19 40;+48 59 842 40 35;+48 698 666 980","ref:pfcc":"156","shower":"yes","stars":"3","static_caravans":"yes","tents":"yes","toilets":"yes","website":"http://www.camping156.pl/"}},"840371405":{"location":[54.585788,16.8750197],"ct":"PL","tp":"CS","ts":"2023-11-02T22:31:28Z","tX":560,"tY":325,"tags":{"bbq":"yes","cabins":"yes","caravans":"yes","fee":"yes","lit":"yes","name":"Ośrodek Wczasowy ZACISZE","payment:cash":"yes","payment:coins":"yes","payment:credit_cards":"no","power_supply":"yes","shower":"yes","tents":"yes","toilets":"yes","washing_machine":"yes","website":"https://zaciszeustka.pl/"}},"972549505":{"location":[54.6220189,16.9867644],"ct":"PL","tp":"CS","ts":"2023-07-29T20:11:46Z","tX":560,"tY":325,"tags":{"name":"Pole namiotowe KLIF"}},"973778860":{"location":[54.5971966,16.9214364],"ct":"PL","tp":"CS","ts":"2023-04-30T08:11:16Z","tX":560,"tY":325,"tags":{"addr:housenumber":"27","addr:place":"Orzechowo Morskie","backcountry":"yes","barrier":"fence","caravans":"yes","internet_access":"no","landuse":"forest","name":"Camping Kryjówka","nudism":"no","phone":"+48 607 622 752","tents":"yes","toilets":"yes","website":"https://www.facebook.com/KryjowkaOrzechowoMorskie/"}},"975932433":{"location":[54.5741053,16.8758962],"ct":"PL","tp":"CS","ts":"2018-02-10T08:47:30Z","tX":560,"tY":325,"tags":{}},"1395465422":{"location":[54.6219581,16.9863593],"ct":"PL","tp":"CR","ts":"2011-08-12T22:33:43Z","tX":560,"tY":325,"tags":{"fee":"yes","name":"Holidays","power_supply":"yes","tents":"yes"}},"1395465425":{"location":[54.6231039,16.9848783],"ct":"PL","tp":"CS","ts":"2015-09-24T00:03:36Z","tX":560,"tY":325,"tags":{"addr:city":"Poddąbie","addr:housenumber":"18","addr:postcode":"76-211","addr:street":"Promenada Słońca","fee":"yes","name":"Mistral","phone":"+48 59 846 13 63","power_supply":"yes","tents":"yes"}},"3027118936":{"location":[54.6662112,17.0583208],"ct":"PL","tp":"CS","ts":"2014-08-19T10:41:13Z","tX":560,"tY":325,"tags":{}},"3027356835":{"location":[54.6583808,17.0504749],"ct":"PL","tp":"CS","ts":"2019-03-26T08:13:44Z","tX":560,"tY":325,"tags":{"addr:city":"Rowy","addr:country":"PL","addr:housenumber":"8","addr:postcode":"76-212","addr:street":"Bałtycka","email":"ekochaniewicz@op.pl","name":"Bryza","operator":"Emilia Kochaniewicz","phone":"+48 59 8141948","tents":"yes","website":"https://www.bryzarowy.pl/"}},"3675711450":{"location":[54.6678852,17.0533508],"ct":"PL","tp":"CR","ts":"2015-08-01T00:01:27Z","tX":560,"tY":325,"tags":{"name":"Na Wydmie","operator":"Robert Gąsiorowski","sanitary_dump_station":"customers"}},"5240224547":{"location":[54.6337259,17.1392287],"ct":"PL","tp":"CS","ts":"2023-06-14T07:38:49Z","tX":560,"tY":325,"tags":{"contact:facebook":"https://www.facebook.com/profile.php?id=100063635886772","email":"surfcamp-gardno@wp.pl","internet_access":"wlan","name":"SurfCamp Gardno","phone":"+48 601 655 189;+48 609 485 199","website":"https://www.surfcamp-gardno.eu/"}}}