{"226883131":{"location":[43.3234791,16.9861344],"ct":"HR","tp":"CS","ts":"2024-06-12T11:35:19Z","tX":560,"tY":375,"tags":{"caravans":"yes","name":"Camp Krvavica","power_supply":"yes","sanitary_dump_station":"yes","shower":"yes","tents":"yes","toilets":"yes","website":"https://www.autocamp-krvavica.com/"}},"264617831":{"location":[43.1376685,17.1430895],"ct":"HR","tp":"CS","ts":"2024-10-14T06:35:05Z","tX":560,"tY":375,"tags":{"caravans":"yes","name":"Camp Mlaska","tents":"yes"}},"1026467700":{"location":[43.2344466,17.078905],"ct":"HR","tp":"CS","ts":"2022-02-19T10:49:28Z","tX":560,"tY":375,"tags":{"addr:city":"Podgora","addr:housenumber":"2","addr:postcode":"21327","addr:street":"Put Sv. Vicenca","cabins":"yes","camp_site":"deluxe","caravans":"yes","contact:facebook":"medoraorbis","name":"Medora Orbis Camping & Glamping","phone":"+385 21 601 701","power_supply":"yes","sanitary_dump_station":"yes","shower":"yes","tents":"yes","toilets":"yes","washing_machine":"yes","website":"https://camping-makarska-riviera.com/"}},"1086236278":{"location":[43.3048582,17.0064057],"ct":"HR","tp":"CS","ts":"2023-06-13T07:07:30Z","tX":560,"tY":375,"tags":{"addr:city":"Makarska","addr:housenumber":"10","addr:postcode":"21300","addr:street":"Ulica Roseto Degli Abruzzi","cabins":"yes","capacity:cabins":"1","capacity:pitches":"114","caravans":"yes","dog":"yes","drinking_water":"yes","email":"http://rivieracamp0@gmail.com","fee":"yes","internet_access":"wlan","motor_vehicle":"yes","name":"Camp Riviera Makarska","nudism":"no","phone":"+385 21 549 542","power_supply":"yes","sanitary_dump_station":"customers","stars":"3","tents":"yes","website":"https://campriviera.eu","wheelchair":"designated"}},"1368273743":{"location":[43.1679694,17.2088514],"ct":"HR","tp":"CS","ts":"2016-04-06T13:45:03Z","tX":560,"tY":375,"tags":{"name":"Camp Ciste"}},"2990674116":{"location":[43.1707938,17.1965844],"ct":"HR","tp":"CS","ts":"2023-06-24T18:17:33Z","tX":560,"tY":375,"tags":{"email":"info@campdole.com","internet_access":"wlan","name":"Kamp Dole","name:en":"Camping Dole","website":"https://www.campdole.com"}},"4102504247":{"location":[43.1680532,17.2074845],"ct":"HR","tp":"CR","ts":"2021-08-10T07:41:51Z","tX":560,"tY":375,"tags":{"fee":"yes","internet_access":"yes","name":"Camp Male Ciste","operator":"campmalecist.com","power_supply":"yes","sanitary_dump_station":"yes","website":"http://www.camp-maleciste.com/hr/"}},"4353354925":{"location":[43.1473078,16.884384],"ct":"HR","tp":"CS","ts":"2016-08-17T01:16:58Z","tX":560,"tY":375,"tags":{"name":"Kamp Ivan","source":"survey"}},"4914695622":{"location":[43.1705914,17.2013338],"ct":"HR","tp":"CS","ts":"2017-06-14T11:28:17Z","tX":560,"tY":375,"tags":{"name:en":"Camp Boban"}},"10971956098":{"location":[43.3072422,17.0051636],"ct":"HR","tp":"CS","ts":"2024-03-01T17:19:31Z","tX":560,"tY":375,"tags":{"cabins":"yes","caravans":"yes","drinking_water":"yes","email":"info@camp-makarska.com","name":"Camp Makarska","nudism":"no","phone":"+385 99 216 9871","power_supply":"yes","shower":"yes","tents":"yes","toilets":"yes","website":"https://camp-makarska.com"}},"6550868287":{"location":[43.1677092,17.2083797],"ct":"HR","tp":"CR","ts":"2019-06-16T09:40:00Z","tX":560,"tY":375,"tags":{"name":"Camp Ciste"}},"10971878534":{"location":[43.304707,17.0069682],"ct":"HR","tp":"SD","ts":"2023-06-12T19:36:44Z","tX":560,"tY":375,"tags":{"access":"customers"}}}