{"60574781":{"location":[42.9818215,17.1999554],"ct":"HR","tp":"CS","ts":"2023-06-26T20:00:32Z","tX":560,"tY":376,"tags":{"addr:city":"Orebić","addr:country":"HR","addr:housenumber":"15","addr:postcode":"20250","addr:street":"Dubravica 15","caravans":"yes","drinking_water":"yes","email":"info@nevio-camping.com","name":"Camping Nevio","phone":"+385 20 713 100","shower":"yes","stars":"4","tents":"yes","website":"https://www.nevio-camping.com"}},"176918148":{"location":[43.0164374,17.2007782],"ct":"HR","tp":"CS","ts":"2022-09-21T21:39:37Z","tX":560,"tY":376,"tags":{"internet_access":"no","name":"Divna"}},"176929693":{"location":[42.9610906,17.1020468],"ct":"HR","tp":"CS","ts":"2021-08-10T07:28:12Z","tX":560,"tY":376,"tags":{"internet_access":"yes","internet_access:fee":"yes","name":"Vrbovica","stars":"1","website":"http://www.kamp-vrbovica.hr/"}},"200501659":{"location":[42.980116,17.1066041],"ct":"HR","tp":"CS","ts":"2019-10-21T21:37:40Z","tX":560,"tY":376,"tags":{"name":"Maestral"}},"200501663":{"location":[42.9802768,17.1044381],"ct":"HR","tp":"CS","ts":"2019-10-21T21:37:40Z","tX":560,"tY":376,"tags":{"name":"Ponta"}},"200666295":{"location":[43.0252732,17.0354139],"ct":"HR","tp":"CS","ts":"2023-11-07T21:56:22Z","tX":560,"tY":376,"tags":{"addr:city":"Pelješac","addr:country":"HR","addr:housenumber":"70","addr:postcode":"20269","addr:street":"Lovište","email":"autocamp.denka@hi.t-com.hr","name":"Autocamp Denka","phone":"+385 20 688 886","website":"https://www.denka.info/en"}},"238127100":{"location":[42.9671537,17.0734698],"ct":"HR","tp":"CS","ts":"2024-08-10T18:46:59Z","tX":560,"tY":376,"tags":{"caravans":"yes","drinking_water":"yes","email":"fani.brcic@du.t-com.hr","name":"Autocamp Oskorušica","phone":"+385 20 710897","power_supply":"yes","shower":"yes","stars":"3","tents":"yes","website":"https://camposkorusica.com/"}},"238361030":{"location":[42.9642836,17.0908572],"ct":"HR","tp":"CS","ts":"2015-08-30T15:30:11Z","tX":560,"tY":376,"tags":{"addr:city":"Korčula","addr:country":"HR","addr:place":"Žrnovska banja","addr:postcode":"20260","addr:street":"Tri žala","contact:email":"trizala@vip.hr","contact:phone":"+385 20 721244","name":"Tri Žala","stars":"1"}},"259196153":{"location":[42.9218308,17.1730711],"ct":"HR","tp":"CS","ts":"2014-01-31T12:57:28Z","tX":560,"tY":376,"tags":{"name":"Vela Postrana"}},"363425615":{"location":[42.9792143,17.1929439],"ct":"HR","tp":"CR","ts":"2024-04-04T10:27:09Z","tX":560,"tY":376,"tags":{"capacity":"7","fee":"yes","name":"Camping Mario","power_supply":"yes"}},"567908711":{"location":[42.9770892,17.1291292],"ct":"HR","tp":"CS","ts":"2019-10-15T19:04:38Z","tX":560,"tY":376,"tags":{"addr:city":"Kučište","addr:country":"HR","addr:housenumber":"45","addr:postcode":"20267","addr:street":"Kućište","cabins":"yes","caravans":"yes","dog":"yes","email":"info@kamp-palme.com","internet_access":"yes","internet_access:fee":"no","name":"Kamp Palme","payment:cash":"yes","payment:credit_card":"yes","payment:girocard":"yes","payment:mastercard":"yes","payment:visa":"yes","phone":"+385 20719164","power_supply":"yes","sanitary_dump_station":"yes","tents":"yes","washing_machine":"yes","website":"https://www.kamp-palme.com/en/"}},"568329992":{"location":[42.9759538,17.1326785],"ct":"HR","tp":"CS","ts":"2019-10-15T19:04:38Z","tX":560,"tY":376,"tags":{"addr:city":"Kučište","addr:country":"HR","addr:housenumber":"66","addr:postcode":"20267","addr:street":"Kućište","cabins":"yes","caravans":"yes","dryer":"yes","name":"Kamp Perna","phone":"+385 20 719 286","power_supply":"yes","sanitary_dump_station":"yes","stars":"2","tents":"yes","washing_machine":"yes","website":"http://www.club-adriatic.hr/kamp-perna/"}},"732738289":{"location":[42.9826524,17.2055074],"ct":"HR","tp":"CS","ts":"2023-11-07T21:56:19Z","tX":560,"tY":376,"tags":{"caravans":"yes","drinking_water":"yes","email":"info@lavanda-camping.com","internet_access":"wlan","name":"Camping Lavanda","phone":"+385 20 454 484","power_supply":"yes","shower":"yes","tents":"yes","toilets":"yes","website":"https://www.lavanda-camping.com/"}},"732766221":{"location":[42.9769921,17.1893382],"ct":"HR","tp":"CS","ts":"2022-09-25T16:06:50Z","tX":560,"tY":376,"tags":{"name":"Camp Trstenica"}},"737405454":{"location":[42.9807642,17.1037435],"ct":"HR","tp":"CS","ts":"2019-10-23T14:38:11Z","tX":560,"tY":376,"tags":{"name":"Liberan"}},"737420161":{"location":[42.9795365,17.108248],"ct":"HR","tp":"CS","ts":"2022-09-25T20:00:21Z","tX":560,"tY":376,"tags":{"internet_access":"yes","internet_access:fee":"no","name":"Antony Boy"}},"737709108":{"location":[43.028232,17.0309094],"ct":"HR","tp":"CS","ts":"2023-09-01T16:17:54Z","tX":560,"tY":376,"tags":{"addr:city":"Pelješac","addr:country":"HR","addr:housenumber":"68","addr:postcode":"20269","addr:street":"Lovište","caravans":"yes","drinking_water":"yes","email":"vinka.lupis@du.t-com.hr","name":"Autocamp Lupis","phone":"+385 20 718 063","power_supply":"yes","shower":"yes","tents":"yes","toilets":"yes","website":"https://www.peljesac-lupis.com/en/","wheelchair":"yes"}},"1097125685":{"location":[42.9788518,17.1914794],"ct":"HR","tp":"CS","ts":"2022-09-22T21:31:01Z","tX":560,"tY":376,"tags":{"name":"Camping Dalmata"}},"1097125686":{"location":[42.9806406,17.1933978],"ct":"HR","tp":"CS","ts":"2022-09-22T21:31:01Z","tX":560,"tY":376,"tags":{"name":"Camping Orebić"}},"1097739578":{"location":[42.9761558,17.1892702],"ct":"HR","tp":"CS","ts":"2022-09-25T17:32:15Z","tX":560,"tY":376,"tags":{"name":"Camp Glavna Plaža"}},"1311935177":{"location":[42.950952,17.1429363],"ct":"HR","tp":"CS","ts":"2025-06-24T06:13:53Z","tX":560,"tY":376,"tags":{"caravans":"yes","drinking_water":"yes","name":"Port 9 Campsite by Aminess","operator":"HTP Korcula d.d.","power_supply":"yes","sanitary_dump_station":"yes","shower":"yes","tents":"yes","toilets":"yes"}},"1874138606":{"location":[43.0229093,17.1697546],"ct":"HR","tp":"CS","ts":"2019-10-24T15:56:23Z","tX":560,"tY":376,"tags":{"internet_access":"no","name":"Luka"}},"6744485986":{"location":[42.9767286,17.2246303],"ct":"HR","tp":"CS","ts":"2019-08-25T17:40:37Z","tX":560,"tY":376,"tags":{"internet_access":"wlan","name":"Camp Ponta","name:de":"Campingplatz Ponta","phone":"+385 98 379 255","website":"http://ponta.com/hr"}},"6859149877":{"location":[42.9826509,17.1976107],"ct":"HR","tp":"SD","ts":"2019-10-07T23:16:52Z","tX":560,"tY":376,"tags":{"access":"customers"}},"6861327399":{"location":[42.9832896,17.2061039],"ct":"HR","tp":"SD","ts":"2019-10-08T19:38:09Z","tX":560,"tY":376,"tags":{}}}