{"574970837":{"location":[40.8573158,17.1100209],"ct":"IT","tp":"CR","ts":"2024-08-13T09:28:15Z","tX":560,"tY":384,"tags":{"capacity":"15","operator":"Parcheggio Grotta del Trullo","parking":"surface","surface":"unpaved"}},"620968220":{"location":[40.8745291,17.1519502],"ct":"IT","tp":"CR","ts":"2024-08-25T08:55:53Z","tX":560,"tY":384,"tags":{"access":"customers","addr:street":"Piazzale Franco Anelli","fee":"yes","operator":"Grotte Castellana S.R.L. con unico socio","parking":"surface","payment:coins":"yes","phone":"+39 080 4998211","surface":"gravel"}},"804312225":{"location":[40.8855217,17.1569305],"ct":"IT","tp":"CR","ts":"2020-05-15T15:15:31Z","tX":560,"tY":384,"tags":{"barrier":"wall","sanitary_dump_station":"yes"}},"1340510694":{"location":[40.798733,16.9108136],"ct":"IT","tp":"CR","ts":"2024-12-06T10:07:38Z","tX":560,"tY":384,"tags":{"addr:city":"Gioia del Colle","addr:housenumber":"319","addr:postcode":"70023","addr:street":"Via Paolo Cassano","contact:phone":"+39  080 348 2739","contact:website":"https://www.hotelsvevo.it/larea-camper-per-la-tua-sosta/","contact:whatsapp":"+39 389 66508066","name":"Area sosta Hotel Svevo","opening_hours":"24/7"}},"1340512018":{"location":[40.8136281,16.9300967],"ct":"IT","tp":"CR","ts":"2024-12-06T10:13:01Z","tX":560,"tY":384,"tags":{"addr:street":"Via Michele Iacobellis","fee":"no","name":"Parcheggio camper e caravan","power_supply":"no"}},"7523212746":{"location":[40.8855615,17.1570517],"ct":"IT","tp":"SD","ts":"2020-05-15T15:15:31Z","tX":560,"tY":384,"tags":{"access":"yes","fee":"no"}}}