{"176480923":{"location":[39.020389,17.1859388],"ct":"IT","tp":"CS","ts":"2023-04-19T10:18:26Z","tX":560,"tY":391,"tags":{"name":"Camping Scifo"}},"178677170":{"location":[39.0229346,17.189436],"ct":"IT","tp":"CS","ts":"2018-06-09T16:06:56Z","tX":560,"tY":391,"tags":{"name":"Camping Poseidonia"}},"182192725":{"location":[39.0130819,17.1802163],"ct":"IT","tp":"CS","ts":"2024-10-11T05:58:20Z","tX":560,"tY":391,"tags":{"caravans":"yes","email":"info@alfiercamping.it","fee":"yes","name":"Campeggio Alfieri","phone":"+39 0962 934047","power_supply":"yes","sanitary_dump_station":"yes","socket:cee_blue":"yes","static_caravans":"yes","tents":"yes","website":"http://www.alfiercamping.it/"}},"182192727":{"location":[39.0051833,17.1712379],"ct":"IT","tp":"CS","ts":"2022-05-30T17:14:30Z","tX":560,"tY":391,"tags":{}},"184762776":{"location":[38.9205462,17.1206422],"ct":"IT","tp":"CS","ts":"2024-10-10T08:13:29Z","tX":560,"tY":391,"tags":{"caravans":"yes","dog":"yes","email":"info@campingsanpaolo.com","fee":"yes","motorhome":"yes","name":"San Paolo","phone":"+39 3391321563","power_supply":"yes","reservation":"yes","socket:cee_blue":"yes","tents":"yes","website":"https://www.campingsanpaolo.com/"}},"199588232":{"location":[38.9239796,17.1256168],"ct":"IT","tp":"CS","ts":"2024-10-10T08:13:29Z","tX":560,"tY":391,"tags":{"caravans":"yes","fee":"yes","internet_access":"wlan","name":"Pizzo Greco","nudism":"yes","phone":"+39 0962 791771","power_supply":"yes","power_supply:maxcurrent":"3;6","shower":"yes","socket:cee_blue":"yes","static_caravans":"yes","tents":"yes","toilets":"yes","website":"https://www.pizzogreco.com/"}},"440637288":{"location":[39.0237447,17.1942413],"ct":"IT","tp":"CS","ts":"2024-10-11T06:28:31Z","tX":560,"tY":391,"tags":{"addr:city":"Crotone","addr:housenumber":"67","addr:postcode":"88900","addr:street":"Via Hera Lacinia","email":"info@baiadeigreci.it","fee":"yes","name":"Baia dei Greci","phone":"+39 0962934023","phone:mobile":"+39 330606193","stars":"3","website":"https://www.baiadeigreci.it/"}},"858244518":{"location":[38.9156808,17.0282926],"ct":"IT","tp":"CS","ts":"2024-10-10T06:49:16Z","tX":560,"tY":391,"tags":{"cabins":"yes","capacity:caravans":"200","caravans":"yes","dog":"yes","fee":"yes","internet_access":"yes","motorhome":"yes","name":"Costa Splendente","payment:cash":"yes","payment:credit_cards":"yes","payment:debit_cards":"yes","power_supply":"yes","power_supply:maxcurrent":"6","socket:cee_blue":"yes","tents":"yes","website":"http://www.costasplendente.it/"}},"1322834026":{"location":[38.9205619,17.0451973],"ct":"IT","tp":"CS","ts":"2024-10-10T07:44:38Z","tX":560,"tY":391,"tags":{"cabins":"yes","caravans":"yes","dog":"yes","fee":"yes","motorhome":"yes","power_supply":"yes","power_supply:maxcurrent":"4.5","reservation":"recommended","sanitary_dump_station":"yes","shower":"yes","socket:cee_blue":"yes","tents":"yes","toilets":"yes","washing_machine":"yes","website":"https://www.anotherbeach.com/"}},"1322837048":{"location":[38.8951764,17.0921046],"ct":"IT","tp":"CS","ts":"2024-10-10T08:05:28Z","tX":560,"tY":391,"tags":{"addr:city":"Isola di Capo Rizzuto","addr:housenumber":"1","addr:postcode":"88841","addr:street":"Via Torre Nuova","area":"yes","caravans":"yes","fee":"yes","name":"Camping Il Faro","power_supply":"yes","reservation":"yes","socket:cee_blue":"yes","tents":"yes","website":"https://www.ilfaro-camping.it/"}},"1322840267":{"location":[38.9303329,17.1313828],"ct":"IT","tp":"CS","ts":"2024-10-10T10:08:51Z","tX":560,"tY":391,"tags":{"addr:street":"Contrada Fratte","caravans":"yes","dog":"leashed","fee":"yes","internet_access":"yes","motorhome":"yes","name":"Camping Poker","payment:cash":"yes","payment:credit_cards":"yes","payment:debit_cards":"yes","phone":"+39 0962 791158","power_supply":"yes","reservation":"yes","sanitary_dump_station":"yes","socket:cee_blue":"yes","stars":"3","tents":"yes","website":"https://www.campingpoker.com/"}},"1322841020":{"location":[38.9419221,17.1400809],"ct":"IT","tp":"CS","ts":"2024-10-10T10:08:51Z","tX":560,"tY":391,"tags":{"addr:street":"Contrada Fratte","bbq":"yes","cabins":"yes","caravans":"yes","dog":"leashed","fee":"yes","internet_access":"no","motorhome":"yes","name":"Fico d'India","nudism":"no","operator":"Sanzi Maria Teresa","phone":"+393278378511","power_supply":"yes","ref:vatin":"IT03752990790","reservation":"yes","sanitary_dump_station":"customers","shower":"hot","socket:cee_blue":"yes","start_date":"1976","static_caravans":"yes","tents":"yes","toilets":"yes","wheelchair":"limited"}},"1322867034":{"location":[38.9828193,17.1590491],"ct":"IT","tp":"CS","ts":"2024-10-10T10:23:05Z","tX":560,"tY":391,"tags":{"capacity:caravans":"20","caravans":"yes","email":"info@villaggiomimosa.com","fee":"yes","motorhome":"yes","name":"Le Mimose","phone":"+39 0962 799811","power_supply":"yes","sanitary_dump_station":"yes","shower":"yes","socket:cee_blue":"yes","start_date":"1971","tents":"yes","toilets":"yes","washing_machine":"yes"}},"1322867035":{"location":[38.9838659,17.1594158],"ct":"IT","tp":"CS","ts":"2024-10-10T10:23:05Z","tX":560,"tY":391,"tags":{"addr:city":"Isola di Capo Rizzuto","addr:housenumber":"5","addr:postcode":"88841","addr:street":"Via Perseo","caravans":"yes","dog":"yes","fee":"yes","internet_access":"yes","motorhome":"yes","name":"Camping Marinella","phone":"+39 096 2799810","power_supply":"yes","power_supply:maxcurrent":"10","reservation":"yes","socket:cee_blue":"yes","stars":"3","tents":"yes","website":"https://www.villaggiomarinella.com/"}},"4384114668":{"location":[39.0236131,17.1947059],"ct":"IT","tp":"CR","ts":"2016-09-04T17:16:33Z","tX":560,"tY":391,"tags":{}},"4384114707":{"location":[39.0240216,17.1944913],"ct":"IT","tp":"CR","ts":"2016-09-04T17:16:34Z","tX":560,"tY":391,"tags":{}},"6462408215":{"location":[39.0833454,17.1251152],"ct":"IT","tp":"CR","ts":"2019-05-09T16:16:31Z","tX":560,"tY":391,"tags":{}},"12240734029":{"location":[38.9158801,17.0283318],"ct":"IT","tp":"SD","ts":"2024-10-10T06:49:16Z","tX":560,"tY":391,"tags":{}}}