{"733598529":{"location":[34.9099229,139.8296824],"ct":"JP","tp":"CS","ts":"2021-09-23T16:04:43Z","tX":909,"tY":405,"tags":{"addr:block_number":"1456","addr:city":"南房総市","addr:housenumber":"11","addr:postcode":"295-0104","addr:province":"千葉県","addr:quarter":"白浜町根本","dog":"yes","name":"DOG DEPT GARDEN CAMP 安房白浜","phone":"+81-470-29-3914","source":"Bing;survey","start_date":"2021-03-20","website":"https://dogdeptminamiboso.com/"}},"1153497935":{"location":[34.9208706,139.8264089],"ct":"JP","tp":"CS","ts":"2023-03-11T17:00:11Z","tX":909,"tY":405,"tags":{"name":"富崎館キャンプ場","name:ja":"富崎館キャンプ場","source":"survey","website":"https://www.tomisakikan.net/"}},"1320825885":{"location":[35.0209367,139.8551164],"ct":"JP","tp":"CS","ts":"2024-10-04T22:44:25Z","tX":909,"tY":405,"tags":{"name":"CAMPGROUND BREEZE TATEYAMA"}},"4370760707":{"location":[35.0374375,139.8131081],"ct":"JP","tp":"CS","ts":"2018-05-17T14:34:28Z","tX":909,"tY":405,"tags":{"name":"第2キャンプ場"}},"4370760753":{"location":[35.0407597,139.8147685],"ct":"JP","tp":"CS","ts":"2016-08-28T09:04:01Z","tX":909,"tY":405,"tags":{}},"9105835964":{"location":[34.9150285,139.8276804],"ct":"JP","tp":"CS","ts":"2021-09-19T17:01:33Z","tX":909,"tY":405,"tags":{"addr:block_number":"886","addr:city":"館山市","addr:postcode":"294-0234","addr:province":"千葉県","addr:quarter":"布良","name":"キャンプマナビス","name:en":"Camp Manavis","name:ja":"キャンプマナビス","source":"survey","website":"https://campmanavis.com/"}},"9869766481":{"location":[34.9133609,139.8257175],"ct":"JP","tp":"CS","ts":"2022-07-06T07:39:22Z","tX":909,"tY":405,"tags":{"addr:block_number":"1107","addr:city":"館山市","addr:housenumber":"1","addr:postcode":"294-0234","addr:province":"千葉県","addr:quarter":"布良","name":"キャンプマナビス 海サイト","name:ja":"キャンプマナビス 海サイト","source":"survey","website":"https://campmanavis.com/"}},"9920254626":{"location":[34.9344364,139.8261216],"ct":"JP","tp":"CS","ts":"2022-07-30T00:55:54Z","tX":909,"tY":405,"tags":{"addr:block_number":"1495","addr:city":"館山市","addr:housenumber":"1","addr:postcode":"294-0224","addr:province":"千葉県","addr:quarter":"藤原","name":"THE CAMP","source":"survey","start_date":"2020-07-03","website":"https://www.senrinokaze.jp/camp/index.html"}}}