{"943231647":{"location":[-36.8372711,139.8459051],"ct":"AU","tp":"CR","ts":"2023-10-16T16:31:27Z","tX":909,"tY":624,"tags":{"addr:housenumber":"34","addr:postcode":"5275","addr:state":"SA","addr:street":"Marine Parade","addr:suburb":"Kingston SE","internet_access":"wlan","name":"Kingston Caravan Park","phone":"+61 8 8767 2050","website":"https://kingstoncaravanpark.com.au/"}},"1193529055":{"location":[-36.7856096,139.8604841],"ct":"AU","tp":"CS","ts":"2023-07-31T11:02:11Z","tX":909,"tY":624,"tags":{"addr:housenumber":"61","addr:postcode":"5275","addr:state":"SA","addr:street":"Ocean Road","addr:suburb":"West Ranges","caravans":"yes","name":"Will's Beach Shack","static_caravans":"yes","tents":"yes","website":"http://www.willsbeachshack.com.au/"}},"1811168233":{"location":[-36.6213055,139.8766595],"ct":"AU","tp":"CS","ts":"2024-03-19T05:57:31Z","tX":909,"tY":624,"tags":{"caravans":"yes","drinking_water":"no","internet_access":"no","name":"Coorong Information Bay","power_supply":"no","sanitary_dump_station":"no","shower":"no","tents":"no","toilets":"yes"}},"1811181143":{"location":[-36.8268663,139.8502622],"ct":"AU","tp":"CS","ts":"2024-06-25T08:36:00Z","tX":909,"tY":624,"tags":{"access":"yes","fee":"no","name":"Kingston Se Jetty Parking Area","parking":"surface"}},"1811192407":{"location":[-36.87306,139.81444],"ct":"AU","tp":"CR","ts":"2017-09-08T08:42:49Z","tX":909,"tY":624,"tags":{"internet_access":"no","name":"Pinks Beach","name:en":"Pinks Beach"}},"1811197663":{"location":[-36.65778,139.85472],"ct":"AU","tp":"CS","ts":"2024-03-19T05:57:26Z","tX":909,"tY":624,"tags":{"caravans":"yes","drinking_water":"no","internet_access":"no","name":"The Granites","power_supply":"no","sanitary_dump_station":"no","shower":"no","tents":"no","toilets":"no"}},"9684164501":{"location":[-36.8272728,139.8508212],"ct":"AU","tp":"CR","ts":"2024-04-21T06:37:19Z","tX":909,"tY":624,"tags":{}}}