{"17946725":{"location":[49.130234,-122.5458762],"ct":"CA","tp":"CR","ts":"2024-08-17T22:30:02Z","tX":163,"tY":351,"tags":{"internet_access":"wlan","name":"Executive RV Campground","power_supply":"yes"}},"30689332":{"location":[49.053691,-122.4938336],"ct":"CA","tp":"CR","ts":"2019-09-13T13:57:07Z","tX":163,"tY":351,"tags":{"addr:city":"Aldergrove","addr:housenumber":"26331","addr:postcode":"V4W 2W3","addr:street":"28th Ave","landuse":"tourism","name":"Alderbrook R.V. Park","phone":"+1-604-856-4524","website":"http://www.camping.bc.ca/Alderbrook_RV_Park_709MID.aspx"}},"75369470":{"location":[48.9572578,-122.4217813],"ct":"US","tp":"CS","ts":"2020-11-30T01:39:24Z","tX":163,"tY":351,"tags":{"addr:city":"Lynden","addr:country":"US","addr:housenumber":"8717","addr:postcode":"98264","addr:state":"WA","addr:street":"Line Road","contact:email":"info@lyndenkoa.com","landuse":"tourism","name":"Lynden / Bellingham KOA","operator":"Kampgrounds of America, Inc.","phone":"+1-360-354-4772","source":"yahoo;survey","website":"https://koa.com/where/wa/47157/"}},"336186667":{"location":[49.039493,-122.3528328],"ct":"CA","tp":"CR","ts":"2016-04-05T02:26:24Z","tX":163,"tY":351,"tags":{"addr:housenumber":"2035","addr:postcode":"V2T 6M3","addr:street":"Martens Street","landuse":"residential","min_age":"55","name":"Maplewood Estates","residential":"mobile"}},"339157684":{"location":[49.0568462,-122.4009044],"ct":"CA","tp":"CR","ts":"2019-09-13T13:57:09Z","tX":163,"tY":351,"tags":{"addr:city":"Bradner","addr:housenumber":"29666","addr:postcode":"V4X 1V2","addr:street":"Fraser Highway","addr:unit":"C9","alt_name":"Aloha Trailer Park & Camp Grounds","name":"Aloha R.V. Manufacture Homes and Camp Grounds","residential":"mobile"}},"370785151":{"location":[49.005093,-122.4521218],"ct":"CA","tp":"CS","ts":"2019-09-13T13:57:12Z","tX":163,"tY":351,"tags":{"addr:city":"Abbotsford","addr:housenumber":"27863","addr:postcode":"V4X 1A5","addr:street":"0 Avenue","group_only":"yes","name":"Camp Elkgrove","operator":"BC Elks association"}},"387288039":{"location":[49.1328908,-122.5768449],"ct":"CA","tp":"CR","ts":"2015-12-23T06:40:37Z","tX":163,"tY":351,"tags":{}},"1098692617":{"location":[49.1434471,-122.3519411],"ct":"CA","tp":"CS","ts":"2022-09-28T23:26:18Z","tX":163,"tY":351,"tags":{"access":"customers","addr:housenumber":"31395","addr:postcode":"V4S 1K5","addr:street":"Silverdale Avenue","name":"Sun Valley Trout Park"}},"1308518836":{"location":[49.1301589,-122.540443],"ct":"CA","tp":"CR","ts":"2024-08-17T23:07:45Z","tX":163,"tY":351,"tags":{}},"1308518837":{"location":[49.130164,-122.5424697],"ct":"CA","tp":"CR","ts":"2024-08-17T23:07:45Z","tX":163,"tY":351,"tags":{}},"1308518838":{"location":[49.1305378,-122.5434996],"ct":"CA","tp":"CR","ts":"2024-08-17T23:07:45Z","tX":163,"tY":351,"tags":{}},"1308518839":{"location":[49.1323026,-122.5461518],"ct":"CA","tp":"CR","ts":"2024-08-17T23:07:45Z","tX":163,"tY":351,"tags":{}},"4145050043":{"location":[49.0793038,-122.432501],"ct":"CA","tp":"SD","ts":"2021-06-17T10:46:05Z","tX":163,"tY":351,"tags":{"access":"yes","fee":"no","water_point":"yes"}},"6486331169":{"location":[49.0349998,-122.6624169],"ct":"CA","tp":"CS","ts":"2020-07-02T19:37:55Z","tX":163,"tY":351,"tags":{"group_only":"yes","name":"Camp Coyote Group Campsite","operator":"Scouts Canada"}}}