{"14152346":{"location":[48.4883304,-122.4798386],"ct":"US","tp":"CS","ts":"2023-03-11T22:21:06Z","tX":163,"tY":353,"tags":{"capacity":"70 Sites","name":"Bay View State Park Campground"}},"441568649":{"location":[48.6554132,-122.4921341],"ct":"US","tp":"CS","ts":"2020-10-30T19:06:22Z","tX":163,"tY":353,"tags":{"caravans":"yes","description":"Year round campground with both tent and RV sites","name":"Larrabee State Park Campground","shower":"yes","tents":"yes","toilets":"yes","website":"https://parks.state.wa.us/536/Larrabee"}},"487872696":{"location":[48.4592519,-122.5188473],"ct":"US","tp":"CR","ts":"2025-03-01T19:27:24Z","tX":163,"tY":353,"tags":{"check_date":"2025-03-01","name":"Swinomish RV Park"}},"488384253":{"location":[48.6660762,-122.4290465],"ct":"US","tp":"CS","ts":"2022-04-17T02:35:32Z","tX":163,"tY":353,"tags":{"addr:city":"Bellingham","addr:housenumber":"1185","addr:postcode":"98229","addr:state":"WA","addr:street":"Roy Road","caravans":"yes","name":"Lutherwood Camp and Retreat Center","shower":"yes","tents":"yes","toilets":"yes","website":"https://www.camplutherwood.org/"}},"865153251":{"location":[48.6589016,-122.6139965],"ct":"US","tp":"CS","ts":"2020-10-29T21:10:24Z","tX":163,"tY":353,"tags":{"access":"yes","capacity":"5","caravans":"no","description":"Primitive camping available for those arriving via human powered boat. Part of Cascadia Marine Trail. has campfire grates, no drinking water.","fee":"no","name":"Lummi Island Campground","operator":"DNR","shower":"no","tents":"yes","toilets":"yes","website":"https://www.wwta.org/sites/lummi-island/nggallery/thumbnails"}},"948720892":{"location":[48.6247215,-122.4051974],"ct":"US","tp":"CS","ts":"2021-05-30T16:16:52Z","tX":163,"tY":353,"tags":{"backcountry":"yes","name":"Lily Lake Horse Camp","operator":"Washington State Department of Natural Resources"}},"948720893":{"location":[48.6262253,-122.4054323],"ct":"US","tp":"CS","ts":"2023-09-05T04:26:38Z","tX":163,"tY":353,"tags":{"backcountry":"yes","name":"Lily Lake Hiker Camp","operator":"Washington State Department of Natural Resources"}},"1210873458":{"location":[48.4980626,-122.6951367],"ct":"US","tp":"CS","ts":"2023-09-25T23:10:05Z","tX":163,"tY":353,"tags":{"access":"yes","caravans":"yes","check_date":"2023-09-24","dog":"leashed","drinking_water":"yes","fee":"yes","name":"Washington Park Campground","opening_hours":"24/7","operator":"City of Anacortes","payment:cash":"yes","reservation":"recommended","shower":"yes","tents":"yes","website":"https://www.anacorteswa.gov/Facilities/Facility/Details/Washington-Park-1"}},"2240120024":{"location":[48.4983579,-122.6913649],"ct":"US","tp":"SD","ts":"2023-09-25T17:08:40Z","tX":163,"tY":353,"tags":{"sanitary_dump_station:round_drain":"yes"}},"2302080653":{"location":[48.6315046,-122.404926],"ct":"US","tp":"CS","ts":"2021-04-18T21:28:24Z","tX":163,"tY":353,"tags":{"backcountry":"yes","caravans":"no","description":"Primitive campground as part of the Blanchard Forest","name":"Lizard Lake Camp","operator":"Washington Department of Natural Resources","shower":"no","tents":"yes","toilets":"no","website":"https://www.dnr.wa.gov/Blanchard"}},"2454234331":{"location":[48.678006,-122.448716],"ct":"US","tp":"CS","ts":"2020-10-30T20:24:26Z","tX":163,"tY":353,"tags":{"caravans":"no","description":"Primitive campground","name":"Cedar Lake Camp","operator":"Washington Department of Fish and Wildlife","tents":"yes","toilets":"no","website":"https://wdfw.wa.gov/places-to-go/wildlife-areas/pine-lake-wildlife-area-unit"}},"6465898185":{"location":[48.5688899,-122.669251],"ct":"US","tp":"CS","ts":"2019-05-11T00:25:02Z","tX":163,"tY":353,"tags":{"access":"yes","fee":"no","name":"Cascade Marine Trail, campsite for human powered boats","operator":"DNR"}},"6465898186":{"location":[48.5687596,-122.669721],"ct":"US","tp":"CS","ts":"2022-06-02T02:29:56Z","tX":163,"tY":353,"tags":{"access":"yes","description":"Overnight camping permitted from Memorial Day weekend through Labor Day weekend. The head creates back eddies and rips that can be very strong, dangerous and turbulent. Hug the shoreline to approach.","fee":"no","name":"Cascade Marine Trail, campsite for human powered boats","operator":"DNR","water":"no","website":"https://www.wwta.org/sites/cypress-head/"}},"6465898187":{"location":[48.5684013,-122.6710668],"ct":"US","tp":"CS","ts":"2019-05-11T00:25:02Z","tX":163,"tY":353,"tags":{"access":"yes","fee":"no","name":"Cascade Marine Trail, campsite for human powered boats","operator":"DNR"}},"6465929616":{"location":[48.5355129,-122.556564],"ct":"US","tp":"CS","ts":"2022-06-02T02:34:53Z","tX":163,"tY":353,"tags":{"capacity":"2","description":"$12/night.  Often many day use visitors from Anacortes, especially on weekends. Guemes Channel west of Saddlebag can see 3-4 knot currents, turbulence, standing and breaking waves. The entrance to Guemes Channel can be treacherous.","fee":"yes","name":"Cascade Marine Trail, campsite for human powered boats","operator":"Washington State Parks","website":"https://www.wwta.org/sites/saddlebag-island-sp/"}},"6524936070":{"location":[48.480887,-122.689731],"ct":"US","tp":"CS","ts":"2022-06-02T04:02:24Z","tX":163,"tY":353,"tags":{"charge":"12/night/group","description":"3 sites","fee":"yes","name":"Cascade Marine Trail Campsite for human powered boaters","operator":"Washington State Parks","water":"no","website":"https://www.wwta.org/sites/burrows-island/"}},"6565344209":{"location":[48.4808501,-122.6899337],"ct":"US","tp":"CS","ts":"2019-06-23T01:51:38Z","tX":163,"tY":353,"tags":{}},"7152477653":{"location":[48.6754424,-122.445216],"ct":"US","tp":"CS","ts":"2020-10-30T19:26:20Z","tX":163,"tY":353,"tags":{"caravans":"no","description":"Primitive campground","name":"Pine Lake Camp","operator":"Washington Department of Fish and Wildlife","tents":"yes","toilets":"no","website":"https://wdfw.wa.gov/places-to-go/wildlife-areas/pine-lake-wildlife-area-unit"}},"10951286156":{"location":[48.5698055,-122.494748],"ct":"US","tp":"CS","ts":"2023-06-04T08:32:21Z","tX":163,"tY":353,"tags":{"addr:city":"Bow","addr:housenumber":"11633","addr:postcode":"98232","addr:state":"WA","addr:street":"Scott Road","capacity:caravans":"19","caravans":"yes","name":"Samish Island Campground & Retreat Center","operator":"Community of Christ","tents":"yes"}},"11032995066":{"location":[48.4885361,-122.4794036],"ct":"US","tp":"CS","ts":"2023-07-07T17:04:10Z","tX":163,"tY":353,"tags":{"fee":"yes","name":"Hike/Bike","operator":"Bay view State Park","tents":"yes"}},"12197323434":{"location":[48.674329,-122.4451052],"ct":"US","tp":"CS","ts":"2024-09-24T16:12:04Z","tX":163,"tY":353,"tags":{"caravans":"no","description":"Primitive campground","name":"Pine Lake Camp","operator":"Washington Department of Fish and Wildlife","tents":"yes","toilets":"no","website":"https://wdfw.wa.gov/places-to-go/wildlife-areas/pine-lake-wildlife-area-unit"}},"4393117423":{"location":[48.6544766,-122.491552],"ct":"US","tp":"SD","ts":"2016-09-09T07:23:27Z","tX":163,"tY":353,"tags":{}}}