{"367284613":{"location":[48.3902145,-122.6455325],"ct":"US","tp":"CS","ts":"2015-08-24T16:41:44Z","tX":163,"tY":354,"tags":{"name":"North Whidbey RV Park"}},"367289988":{"location":[48.4567182,-122.587914],"ct":"US","tp":"CS","ts":"2024-06-11T03:46:38Z","tX":163,"tY":354,"tags":{"addr:city":"Anacortes","addr:housenumber":"7337","addr:postcode":"98221","addr:state":"WA","addr:street":"Miller Road","name":"Pioneer Trails RV Resort","source":"esri_USDOT_SkagitCountyWA"}},"369554636":{"location":[48.4228683,-122.3513638],"ct":"US","tp":"CR","ts":"2022-01-12T21:15:29Z","tX":163,"tY":354,"tags":{"addr:city":"Mount Vernon","addr:housenumber":"1229","addr:postcode":"98273","addr:street":"Memorial Highway","building":"yes","name":"Mount Vernon RV Park","phone":"+1-360-757-9616"}},"492440744":{"location":[48.4066529,-122.5509024],"ct":"US","tp":"CS","ts":"2024-05-26T23:27:26Z","tX":163,"tY":354,"tags":{"addr:city":"La Conner","addr:housenumber":"16362","addr:postcode":"98257","addr:street":"Snee-Oosh Road","caravans":"yes","name":"La Conner RV & Camping Resort","operator":"Thousand Trails","power_supply":"yes","sanitary_dump_station":"yes","tents":"yes"}},"627297936":{"location":[48.3987593,-122.6549339],"ct":"US","tp":"CS","ts":"2023-05-17T23:24:23Z","tX":163,"tY":354,"tags":{"description":"Hiker-Biker Campsite (approximate)","fee":"yes","name":"Cranberry Lake Campground","operator":"Washington State Parks"}},"768961643":{"location":[48.3932188,-122.6442406],"ct":"US","tp":"CS","ts":"2021-08-27T02:55:33Z","tX":163,"tY":354,"tags":{"fee":"yes","internet_access":"no","name":"Quarry Pond Loop","operator":"Washington State Parks"}},"942647547":{"location":[48.4188006,-122.653655],"ct":"US","tp":"CS","ts":"2021-05-13T16:44:39Z","tX":163,"tY":354,"tags":{"fee":"yes","name":"Bowman Bay Campground","operator":"Washington State Parks"}},"1078939250":{"location":[48.398121,-122.4925162],"ct":"US","tp":"CR","ts":"2022-07-16T02:17:53Z","tX":163,"tY":354,"tags":{"addr:housenumber":"420","addr:street":"South Pearle Jensen Way","capacity:caravans":"66","name":"La Conner Marina RV Park","operator":"Port of Skagit","phone":"+1-360-466-3118","website":"https://portofskagit.com/la-conner-marina/rv-park/"}},"1323052793":{"location":[48.4348358,-122.3475036],"ct":"US","tp":"CR","ts":"2025-01-05T02:31:11Z","tX":163,"tY":354,"tags":{"addr:city":"Mount Vernon","addr:country":"US","addr:housenumber":"324","addr:postcode":"98273","addr:state":"WA","addr:street":"West College Way","contact:email":"info@townandcountryrv.com","contact:phone":"+1-360-503-9095","contact:website":"https://townandcountryrv.com/","name":"Town & Country Motorcoach and RV Resort"}},"1333612101":{"location":[48.337523,-122.6874558],"ct":"US","tp":"CR","ts":"2024-11-14T02:03:18Z","tX":163,"tY":354,"tags":{}},"4017427891":{"location":[48.4001767,-122.572054],"ct":"US","tp":"CS","ts":"2022-07-15T00:10:00Z","tX":163,"tY":354,"tags":{"capacity:tents":"6","charge":"12 USD / group of up to 8","description":"No drinking water on the island.","drinking_water":"no","fee":"yes","name":"Hope Island State Park","operator":"Washington State Parks","website":"https://www.parks.wa.gov/518/Hope-Island---Skagit"}},"4868609117":{"location":[48.4001119,-122.5715063],"ct":"US","tp":"CS","ts":"2017-05-21T21:38:12Z","tX":163,"tY":354,"tags":{}},"4868609119":{"location":[48.400128,-122.5713159],"ct":"US","tp":"CS","ts":"2017-05-21T21:38:12Z","tX":163,"tY":354,"tags":{}},"4868638027":{"location":[48.4002918,-122.572614],"ct":"US","tp":"CS","ts":"2017-05-21T21:38:12Z","tX":163,"tY":354,"tags":{}},"4927803896":{"location":[48.4282287,-122.5845615],"ct":"US","tp":"CS","ts":"2018-01-27T02:15:33Z","tX":163,"tY":354,"tags":{"addr:city":"Anacortes","addr:housenumber":"14694","addr:postcode":"98221","addr:state":"WA","addr:street":"Gibralter Road","contact:website":"http://www.quakercove.com/","denomination":"quaker","description":"Christian retreat camp","name":"Quaker Cove Retreat","religion":"christian"}},"6172497500":{"location":[48.3919079,-122.6487494],"ct":"US","tp":"CS","ts":"2018-12-30T09:03:43Z","tX":163,"tY":354,"tags":{"name":"Group Camp"}},"6465899234":{"location":[48.4152839,-122.650307],"ct":"US","tp":"CS","ts":"2022-06-02T04:14:12Z","tX":163,"tY":354,"tags":{"access":"yes","capacity":"8","description":"$14/night, no fires. Flush toilets, showers, water available.","fee":"yes","name":"Cascade Marine Trail, campsite for human powered boats","operator":"WA State Parks","water_source":"main","website":"https://www.wwta.org/sites/deception-pass-sp/"}},"6465935176":{"location":[48.4151575,-122.577198],"ct":"US","tp":"CS","ts":"2022-06-02T04:14:12Z","tX":163,"tY":354,"tags":{"capacity":"4","description":"$12/night.  Make sure to pull boats up to high ground, beach disappears at high tide. NO DRINKING WATER available.","fee":"yes","name":"Cascade Marine Trail, campsite for human powered boats","operator":"WA State Parks","water_source":"none","website":"https://www.wwta.org/sites/skagit-island/"}},"6172497280":{"location":[48.3958297,-122.6464507],"ct":"US","tp":"SD","ts":"2018-12-30T09:03:39Z","tX":163,"tY":354,"tags":{}}}