{"149642708":{"location":[45.8069713,-122.6145231],"ct":"US","tp":"CR","ts":"2016-07-27T04:42:38Z","tX":163,"tY":365,"tags":{"access":"private","name":"Big Fir Campground & RV Park","operator":"Private Ownership"}},"249208150":{"location":[45.77861,-122.6704876],"ct":"US","tp":"SD","ts":"2015-03-29T09:51:46Z","tX":163,"tY":365,"tags":{}},"331951563":{"location":[45.7510508,-122.6650075],"ct":"US","tp":"CR","ts":"2016-06-06T20:40:33Z","tX":163,"tY":365,"tags":{"name":"Fairground Chevron RV Park","parking":"surface"}},"368025248":{"location":[45.7131098,-122.6521295],"ct":"US","tp":"CR","ts":"2018-04-19T05:49:18Z","tX":163,"tY":365,"tags":{"addr:city":"Vancouver","addr:housenumber":"1913","addr:postcode":"98686","addr:state":"WA","addr:street":"Northeast Leichner Road","name":"99 RV Park"}},"388345676":{"location":[45.6163681,-122.6879724],"ct":"US","tp":"CR","ts":"2015-12-29T01:13:09Z","tX":163,"tY":365,"tags":{"name":"Janzen Beach RV Park"}},"395013671":{"location":[45.5997028,-122.6552299],"ct":"US","tp":"CR","ts":"2024-09-22T16:01:30Z","tX":163,"tY":365,"tags":{"addr:city":"Portland","addr:housenumber":"10649","addr:postcode":"97211","addr:state":"OR","addr:street":"Northeast 13th Avenue","contact:phone":"+1 888 366 7725","contact:website":"https://www.columbiariverrv.com/","drinking_water":"yes","fee":"yes","name":"Columbia River RV Park","power_supply":"yes","sanitary_dump_station":"yes","toilets":"yes"}},"396606133":{"location":[45.6610586,-122.5670254],"ct":"US","tp":"CR","ts":"2016-02-07T20:36:17Z","tX":163,"tY":365,"tags":{"name":"Van Mall RV Park"}},"410416632":{"location":[45.6770256,-122.6573767],"ct":"US","tp":"CR","ts":"2021-12-21T05:18:12Z","tX":163,"tY":365,"tags":{"addr:housenumber":"7603","addr:street":"Northeast 13th Avenue","name":"Vancouver RV Park","not:operator:wikidata":"Q234053"}},"435714302":{"location":[45.6834822,-122.6622019],"ct":"US","tp":"CR","ts":"2024-09-25T18:22:22Z","tX":163,"tY":365,"tags":{"name":"Piper RV Park"}},"712165506":{"location":[45.7497225,-122.6712507],"ct":"US","tp":"CR","ts":"2021-11-15T23:19:56Z","tX":163,"tY":365,"tags":{"name":"Clark County Fairgrounds RV & Storage","not:operator:wikidata":"Q156287"}},"1025776686":{"location":[45.7995752,-122.682052],"ct":"US","tp":"PK","ts":"2022-01-29T09:49:45Z","tX":163,"tY":365,"tags":{"access":"yes","motorhome":"yes","parking":"surface"}},"11032995065":{"location":[45.8042735,-122.491345],"ct":"US","tp":"CS","ts":"2023-07-07T17:04:10Z","tX":163,"tY":365,"tags":{"addr:city":"Battle Ground","addr:state":"WA","fee":"yes","name":"Hike/Bike","operator":"Battle Ground Lake State Park","tents":"yes"}},"7808883085":{"location":[45.7999764,-122.6815622],"ct":"US","tp":"SD","ts":"2022-01-29T09:49:45Z","tX":163,"tY":365,"tags":{"name":"Gee Creek Rest Area Southbound Dump Station"}}}