{"543014671":{"location":[45.544508,-122.4425579],"ct":"US","tp":"CR","ts":"2024-10-20T06:32:59Z","tX":163,"tY":366,"tags":{"addr:city":"Fairview","addr:housenumber":"21401","addr:postcode":"97024","addr:street":"Northeast Sandy Boulevard","name":"Portland Fairview RV Park"}},"553424930":{"location":[45.5389804,-122.3805083],"ct":"US","tp":"CR","ts":"2018-01-16T06:00:24Z","tX":163,"tY":366,"tags":{"name":"Sandy Riverfront RV Resort"}},"561906251":{"location":[45.3699436,-122.6034629],"ct":"US","tp":"CR","ts":"2018-02-17T00:35:35Z","tX":163,"tY":366,"tags":{"name":"Clackamas RV Park"}},"7804681583":{"location":[45.3822313,-122.4068088],"ct":"US","tp":"CS","ts":"2023-10-28T19:45:32Z","tX":163,"tY":366,"tags":{"addr:city":"Boring","addr:housenumber":"19009","addr:postcode":"97009","addr:street":"Southeast Barton Park Road","description":"Clackamas County camping area","name":"Barton Park Camping","phone":"+1-503-637-3015","website":"https://www.clackamas.us/parks"}},"8640805914":{"location":[45.3706332,-122.6018497],"ct":"US","tp":"SD","ts":"2021-04-18T18:07:32Z","tX":163,"tY":366,"tags":{"fee":"yes"}}}