{"14113790":{"location":[43.669639,-122.4307609],"ct":"US","tp":"CS","ts":"2022-05-06T18:00:30Z","tX":163,"tY":373,"tags":{"capacity":"37","name":"Packard Campground","operator":"US Forest Service","website":"https://www.fs.usda.gov/recarea/willamette/recarea/?recid=4506"}},"290875457":{"location":[43.651105,-122.678877],"ct":"US","tp":"CS","ts":"2024-11-26T17:38:20Z","tX":163,"tY":373,"tags":{"access":"yes","capacity:tents":"10","charge":"8 USD/night","fee":"yes","maxstay":"14 days","name":"Lund Park Forest Camp","operator":"Umpqua National Forest Service","reservation":"required","source_ref":"http://www.fs.fed.us/r6/data-library/gis/umpqua/documents/rec_site_pt.zip","tents":"yes","toilets":"yes","toilets:disposal":"tank","website":"https://www.fs.usda.gov/recarea/umpqua/recreation/recarea/?recid=63420"}},"290875463":{"location":[43.646656,-122.670298],"ct":"US","tp":"CS","ts":"2024-11-26T17:38:20Z","tX":163,"tY":373,"tags":{"access":"yes","capacity:tents":"5","dog":"leashed","drinking_water":"no","fee":"no","maxstay":"14 days","name":"Hobo Forest Camp","operator":"Umpqua National Forest Service","picnic_table":"yes","power_supply":"no","sanitary_dump_station":"no","source_ref":"http://www.fs.fed.us/r6/data-library/gis/umpqua/documents/rec_site_pt.zip","static_caravans":"no","tents":"yes","toilets":"yes","toilets:disposal":"pitlatrine","website":"https://www.fs.usda.gov/recarea/umpqua/recarea/?recid=63416"}},"358651058":{"location":[43.7625194,-122.3743438],"ct":"US","tp":"CS","ts":"2015-07-05T16:14:45Z","tX":163,"tY":373,"tags":{"name":"Salmon Creek Falls Campground","operator":"Campground Manager 11"}},"843380048":{"location":[43.599442,-122.4540719],"ct":"US","tp":"CS","ts":"2020-09-02T05:48:28Z","tX":163,"tY":373,"tags":{"capacity":"21","name":"Sand Prairie Campground","operator":"US Forest Service","website":"https://www.fs.usda.gov/recarea/willamette/recarea/?recid=4512"}},"999407896":{"location":[43.8052055,-122.5647155],"ct":"US","tp":"CS","ts":"2022-12-08T21:12:45Z","tX":163,"tY":373,"tags":{"name":"Black Canyon Campground","operator":"Willamette National Forest","website":"https://www.fs.usda.gov/recarea/willamette/recarea/?recid=4488"}},"1273139852":{"location":[43.749866,-122.4909211],"ct":"US","tp":"CR","ts":"2024-04-16T16:48:40Z","tX":163,"tY":373,"tags":{"addr:city":"Oakridge","addr:housenumber":"76726","addr:postcode":"97463","addr:state":"OR","addr:street":"Simpson Drive"}},"1338265015":{"location":[43.7581711,-122.5277087],"ct":"US","tp":"CR","ts":"2024-11-27T11:50:39Z","tX":163,"tY":373,"tags":{"addr:city":"Westfir","addr:housenumber":"46443","addr:postcode":"97492","addr:state":"OR","addr:street":"Westfir Road","email":"caseysriversidervpark@gmail.com","name":"Casey’s Riverside RV Park","phone":"+1 541 782 1906","toilets:wheelchair":"yes","website":"https://caseysrvpark.com/","wheelchair":"yes"}},"5470313522":{"location":[43.7571382,-122.5277635],"ct":"US","tp":"CR","ts":"2023-02-18T21:41:18Z","tX":163,"tY":373,"tags":{"addr:housenumber":"46443","addr:postcode":"97492","addr:street":"Westfir Road","name":"Casey’s Riverside RV Park","toilets:wheelchair":"yes","website":"https://caseysrvpark.com/","wheelchair":"yes"}}}