{"357321704":{"location":[42.684266,-122.6183552],"ct":"US","tp":"CS","ts":"2025-03-26T21:11:31Z","tX":163,"tY":377,"tags":{"addr:city":"Trail","addr:housenumber":"35251","addr:postcode":"97541","addr:state":"OR","addr:street":"Crater Lake Highway","ele":"603","gnis:feature_id":"1155815","name":"Joseph H Stewart County Park Campground","wikidata":"Q6283710"}},"1365847233":{"location":[42.6846185,-122.6173832],"ct":"US","tp":"CS","ts":"2025-03-10T00:05:00Z","tX":163,"tY":377,"tags":{"access":"yes","addr:city":"Trail","addr:housenumber":"35251","addr:postcode":"97541","addr:state":"OR","addr:street":"OR-62","camp_site":"serviced","caravans":"yes","fee":"yes","name":"Joseph H. Stewart Recreation Area Campground","operator":"Jackson County","static_caravans":"yes","tents":"yes"}},"1892708803":{"location":[42.7557061,-122.494714],"ct":"US","tp":"CR","ts":"2023-07-30T14:17:53Z","tX":163,"tY":377,"tags":{"name":"Crater Lake RV Park","toilets":"yes"}},"4401480094":{"location":[42.6779637,-122.4273307],"ct":"US","tp":"CS","ts":"2016-09-14T18:14:59Z","tX":163,"tY":377,"tags":{"name":"Medco Pond Dispersed Camping"}},"4402775991":{"location":[42.6557149,-122.4385779],"ct":"US","tp":"CS","ts":"2016-09-15T16:52:45Z","tX":163,"tY":377,"tags":{"name":"Medeco Pond Dispersed Camping"}},"5033561021":{"location":[42.6851931,-122.6165661],"ct":"US","tp":"CS","ts":"2017-08-14T03:21:35Z","tX":163,"tY":377,"tags":{}},"5314370339":{"location":[42.6899677,-122.6295503],"ct":"US","tp":"CS","ts":"2018-01-01T06:17:21Z","tX":163,"tY":377,"tags":{"name":"Fire Glen Campground"}},"5882232285":{"location":[42.7953017,-122.4677181],"ct":"US","tp":"CS","ts":"2018-09-04T16:15:21Z","tX":163,"tY":377,"tags":{"name":"Mill Creek Campground USFS"}},"8382351735":{"location":[42.6891558,-122.6305416],"ct":"US","tp":"CS","ts":"2021-02-01T01:05:13Z","tX":163,"tY":377,"tags":{"name":"3"}}}