{"24512871":{"location":[37.6677603,-122.450023],"ct":"US","tp":"CR","ts":"2022-08-19T07:58:29Z","tX":163,"tY":396,"tags":{"addr:city":"San Francisco","addr:housenumber":"1700","addr:postcode":"94080","addr:state":"CA","addr:street":"El Camino Real","name":"Treasure Island RV Park","source":"yahoo"}},"291546386":{"location":[37.501464,-122.4726697],"ct":"US","tp":"CR","ts":"2024-09-22T20:11:04Z","tX":163,"tY":396,"tags":{"addr:city":"Half Moon Bay","addr:country":"US","addr:housenumber":"4000","addr:postcode":"94019","addr:street":"Cabrillo Highway North","check_date":"2024-09-22","name":"Pillar Point RV Park","phone":"(650) 712-9277","website":"http://pillarpointrvparklive.com/"}},"688263611":{"location":[37.4685759,-122.445711],"ct":"US","tp":"CS","ts":"2019-05-07T01:51:01Z","tX":163,"tY":396,"tags":{"name":"Francis Beach Campground"}},"847908673":{"location":[37.6458602,-122.4927725],"ct":"US","tp":"CR","ts":"2023-11-18T03:13:29Z","tX":163,"tY":396,"tags":{"addr:city":"Pacifica","addr:housenumber":"700","addr:postcode":"94044","addr:state":"CA","addr:street":"Palmetto Ave","internet_access":"wlan","name":"San Francisco RV Resort","phone":"+1 650 355 7093","website":"https://www.sanfranciscorvresort.com/"}},"1328257849":{"location":[37.4467859,-122.4309406],"ct":"US","tp":"CR","ts":"2024-10-25T23:17:34Z","tX":163,"tY":396,"tags":{"addr:city":"Half Moon Bay","addr:housenumber":"460","addr:postcode":"94019","addr:state":"CA","addr:street":"Wavecrest Road","email":"hmbrvpark@gmail.com","fee":"yes","laundry":"yes","name":"Half Moon Bay RV Park","phone":"+1-650-726-7275","power_supply":"yes","reservation":"yes","sanitary_dump_station":"customers","source":"survey;aerial imagery","toilets":"yes","website":"http://hmbrvpark.com/"}},"1748885935":{"location":[37.6978245,-122.4704118],"ct":"US","tp":"SD","ts":"2015-03-29T09:51:44Z","tX":163,"tY":396,"tags":{}},"1748895815":{"location":[37.6462606,-122.4924614],"ct":"US","tp":"SD","ts":"2024-07-30T05:12:53Z","tX":163,"tY":396,"tags":{"charge":"15 USD","fee":"yes"}},"1749186438":{"location":[37.6542084,-122.401225],"ct":"US","tp":"SD","ts":"2024-07-30T05:12:53Z","tX":163,"tY":396,"tags":{"charge":"10 USD","fee":"yes"}},"1749289004":{"location":[37.4675673,-122.444914],"ct":"US","tp":"SD","ts":"2015-03-29T09:51:44Z","tX":163,"tY":396,"tags":{}},"4216588290":{"location":[37.7159788,-122.383282],"ct":"US","tp":"CR","ts":"2023-11-18T03:08:52Z","tX":163,"tY":396,"tags":{"addr:housenumber":"650","addr:postcode":"94129","addr:street":"Gilman Avenue","internet_access":"wlan","name":"Candlestick RV Park","website":"https://sanfranciscopark.com/"}},"6532816787":{"location":[37.481837,-122.4509873],"ct":"US","tp":"CS","ts":"2019-06-07T20:48:10Z","tX":163,"tY":396,"tags":{"name":"Sweetwood Group Camp","opening_hours":"24/7","phone":"18004447275"}}}