{"169445056":{"location":[-44.0939813,171.2436713],"ct":"NZ","tp":"CS","ts":"2024-06-03T08:09:21Z","tX":999,"tY":652,"tags":{"addr:housenumber":"39","addr:street":"Hislop Street","cabins":"yes","caravans":"yes","dryer":"yes","kitchen":"yes","name":"Geraldine TOP 10 Holiday Park","payment:cash":"yes","payment:mastercard":"yes","payment:visa":"yes","phone":"+64800393693","power_supply":"yes","tents":"yes","washing_machine":"yes","website":"https://geraldinetop10.co.nz/"}},"502810013":{"location":[-44.1926548,171.4968272],"ct":"NZ","tp":"CS","ts":"2022-10-24T10:49:47Z","tX":999,"tY":652,"tags":{"addr:hamlet":"Clandeboye","addr:housenumber":"150","addr:street":"Rangitata Huts Road","name":"Rangitata Huts Reserve"}},"996489921":{"location":[-44.1808981,171.5182822],"ct":"NZ","tp":"CS","ts":"2021-10-25T21:30:18Z","tX":999,"tY":652,"tags":{"name":"Rangitata Fishing Huts"}},"996489923":{"location":[-44.1813999,171.5157744],"ct":"NZ","tp":"CS","ts":"2021-10-25T21:30:18Z","tX":999,"tY":652,"tags":{"name":"Rangitata River Mouth Camping Ground"}},"1123050549":{"location":[-44.1922708,171.2791621],"ct":"NZ","tp":"CS","ts":"2022-12-18T03:54:44Z","tX":999,"tY":652,"tags":{"name":"Winchester Motor Camp","name:en":"Winchester Motorcamp","name:fr":"Winchester Motorcamp"}},"1289065108":{"location":[-44.0941862,171.2445323],"ct":"NZ","tp":"CS","ts":"2024-06-03T08:09:21Z","tX":999,"tY":652,"tags":{}},"1289065113":{"location":[-44.0940489,171.2441616],"ct":"NZ","tp":"CS","ts":"2024-06-03T08:09:21Z","tX":999,"tY":652,"tags":{}},"3506408530":{"location":[-44.2763261,171.3516354],"ct":"NZ","tp":"CS","ts":"2018-03-16T07:08:47Z","tX":999,"tY":652,"tags":{"fee":"no","name":"Milford Huts"}},"4879717523":{"location":[-44.1826918,171.2754843],"ct":"NZ","tp":"CS","ts":"2017-05-27T06:37:56Z","tX":999,"tY":652,"tags":{"name":"Winchester Bridge","name:de":"Winchester Bridge","name:en":"Winchester Bridge"}},"5298099922":{"location":[-44.2492044,171.2813783],"ct":"NZ","tp":"CS","ts":"2017-12-21T18:46:31Z","tX":999,"tY":652,"tags":{"name":"Temuka Holiday Park"}},"5731481943":{"location":[-44.2663136,171.2255555],"ct":"NZ","tp":"CS","ts":"2018-07-01T02:50:19Z","tX":999,"tY":652,"tags":{}},"6334283985":{"location":[-44.1309092,171.2736784],"ct":"NZ","tp":"CS","ts":"2021-04-19T00:50:11Z","tX":999,"tY":652,"tags":{"addr:hamlet":"Orari","addr:housenumber":"50","addr:street":"Elmslie Road","description":"camping, cabins, animal feeding, playgrounds, swimming pool, quad bikes","email":"thefarmyard@xtra.co.nz","name":"Farmyard Holiday Park","phone":"+64 3 693 9355","ref:linz:address_id":"136938","website":"https://www.farmyardholidaypark.co.nz"}},"4498966289":{"location":[-44.0953757,171.2388473],"ct":"NZ","tp":"CR","ts":"2016-11-13T19:09:27Z","tX":999,"tY":652,"tags":{"name:fr":"park"}},"4684856090":{"location":[-44.1824723,171.2746726],"ct":"NZ","tp":"CR","ts":"2017-02-14T09:16:12Z","tX":999,"tY":652,"tags":{"addr:street":"Winchester - Geraldine Road","name":"Winchester Bridge - Overnight Camping"}}}