{"479986174":{"location":[42.6597127,-114.4451017],"ct":"US","tp":"CR","ts":"2024-06-04T12:43:46Z","tX":186,"tY":377,"tags":{"brand":"KOA","brand:wikidata":"Q16988635","name":"Twin Falls / Jerome KOA","short_name":"KOA"}},"1169188502":{"location":[42.5548285,-114.5732846],"ct":"US","tp":"CR","ts":"2023-05-05T21:32:18Z","tX":186,"tY":377,"tags":{"addr:city":"Filer","addr:housenumber":"2404","addr:postcode":"83328","addr:state":"ID","addr:street":"E 3830 N","internet_access":"yes","internet_access:fee":"customers","name":"Twin Falls 93 RV Park","phone":"+1-208-326-5092","reservation":"yes","website":"https://twinfalls93rv.com"}},"1169519758":{"location":[42.5627956,-114.5520895],"ct":"US","tp":"CR","ts":"2023-05-07T03:15:25Z","tX":186,"tY":377,"tags":{"addr:city":"filer","addr:housenumber":"21325","addr:postcode":"83328","addr:state":"ID","addr:street":"3900 North","name":"Curry Trailer Park"}},"1169760537":{"location":[42.5660967,-114.571232],"ct":"US","tp":"CR","ts":"2023-05-08T01:09:23Z","tX":186,"tY":377,"tags":{"addr:city":"Filer","addr:housenumber":"21236","addr:postcode":"83328","addr:state":"ID","addr:street":"US-30","name":"Legacy Fields RV Park","power_supply":"yes","sanitary_dump_station":"yes"}},"3722121830":{"location":[42.5628264,-114.5525526],"ct":"US","tp":"CR","ts":"2015-08-30T22:09:01Z","tX":186,"tY":377,"tags":{"name":"Curry Trailer Park"}},"4118593800":{"location":[42.5773086,-114.2889203],"ct":"US","tp":"CR","ts":"2016-04-13T10:28:21Z","tX":186,"tY":377,"tags":{"name":"Anderson Camp"}},"10982911305":{"location":[42.5649364,-114.5008752],"ct":"US","tp":"CR","ts":"2024-04-19T06:22:10Z","tX":186,"tY":377,"tags":{"addr:housenumber":"900","addr:postcode":"83301","addr:state":"ID","addr:street":"Addison Avenue West","name":"Rock Creek RV Park","phone":"+12087349491","website":"http://twinsfallscounty.org"}}}