{"116253523":{"location":[36.4181131,-114.5573813],"ct":"US","tp":"CS","ts":"2023-10-27T04:03:23Z","tX":186,"tY":400,"tags":{"access":"yes","addr:city":"Overton","addr:postcode":"89040","addr:state":"NV","addr:street":"Scenic Loop Road","caravans":"yes","fee":"yes","internet_access":"no","mobile_reception":"unknown","name":"Arch Rock Campground","reservation":"yes","tents":"yes","website":"https://parks.nv.gov/parks/valley-of-fire"}},"128168152":{"location":[36.4173379,-114.5517656],"ct":"US","tp":"CS","ts":"2023-10-28T00:21:36Z","tX":186,"tY":400,"tags":{"access":"yes","addr:city":"Overton","addr:postcode":"89040","addr:state":"NV","addr:street":"Atlatl Rock Campground Road","backcountry":"no","caravans":"yes","drinking_water":"yes","fee":"yes","internet_access":"wlan","large_vehicles":"yes","mobile_reception":"limited","name":"Atlatl Rock Campground","phone":"+1 702-397-2088","picnic_table":"yes","power_supply":"yes","reservation":"yes","sanitary_dump_station":"no","shower":"yes","static_caravans":"no","tents":"yes","toilets":"yes","website":"https://parks.nv.gov/parks/valley-of-fire"}},"1212175927":{"location":[36.5439115,-114.4412581],"ct":"US","tp":"CR","ts":"2023-10-01T05:53:43Z","tX":186,"tY":400,"tags":{}},"1311217005":{"location":[36.422526,-114.5492222],"ct":"US","tp":"SD","ts":"2024-04-28T00:55:19Z","tX":186,"tY":400,"tags":{"access":"yes","operator":"Valley of Fire State Park","sanitary_dump_station:round_drain":"yes","water_point":"yes"}},"1707490798":{"location":[36.4828348,-114.4514002],"ct":"US","tp":"CR","ts":"2024-04-23T07:15:08Z","tX":186,"tY":400,"tags":{"addr:city":"Moapa","addr:state":"NV","informal":"yes","name":"Valley of Fire Overflow Camping"}},"3988163039":{"location":[36.4224453,-114.5491368],"ct":"US","tp":"SD","ts":"2024-04-28T00:55:19Z","tX":186,"tY":400,"tags":{"access":"yes","operator":"Valley of Fire State Park","water_point":"yes"}},"10283919593":{"location":[36.593733,-114.5269963],"ct":"US","tp":"CS","ts":"2022-12-24T00:45:37Z","tX":186,"tY":400,"tags":{"camp_site":"basic","drinking_water":"no"}},"11810159852":{"location":[36.5158256,-114.4234051],"ct":"US","tp":"CS","ts":"2024-04-11T19:03:54Z","tX":186,"tY":400,"tags":{"name":"Overton Wildlife Management Area Campground"}}}