{"542678395":{"location":[34.533681,-114.3722456],"ct":"US","tp":"CR","ts":"2017-11-25T01:43:27Z","tX":186,"tY":407,"tags":{}},"543012865":{"location":[34.4950794,-114.357086],"ct":"US","tp":"CR","ts":"2021-03-10T17:01:49Z","tX":186,"tY":407,"tags":{"addr:city":"Lake Havasu City","addr:country":"US","addr:housenumber":"1523","addr:postcode":"86403","addr:state":"AZ","addr:street":"Industrial Boulevard","capacity":"200","email":"rvpi@www.campbellcovervresort.com","fee":"yes","internet_access":"wlan","internet_access:fee":"yes","name":"Campbell Cove RV Park","phone":"+1-928-854-7200","power_supply":"yes","smoking":"yes","stars":"4","website":"www.campbellcovervresort.com","wheelchair":"yes"}},"619934227":{"location":[34.4529542,-114.3572049],"ct":"US","tp":"CR","ts":"2018-08-26T05:11:12Z","tX":186,"tY":407,"tags":{}},"619934229":{"location":[34.4544109,-114.3581412],"ct":"US","tp":"CR","ts":"2018-08-26T05:11:12Z","tX":186,"tY":407,"tags":{}},"620645963":{"location":[34.4524262,-114.3617923],"ct":"US","tp":"CR","ts":"2018-08-28T15:07:20Z","tX":186,"tY":407,"tags":{}},"622179708":{"location":[34.470887,-114.3585884],"ct":"US","tp":"CR","ts":"2024-06-03T08:12:48Z","tX":186,"tY":407,"tags":{"addr:city":"Lake Havasu City","addr:housenumber":"1534","addr:postcode":"86403","addr:state":"AZ","addr:street":"Beachcomber Boulevard","name":"Crazy Horse Campgrounds","phone":"+1-928-855-4033","website":"https://crazyhorsecampgroundsaz.com"}},"854327722":{"location":[34.4810563,-114.3556777],"ct":"US","tp":"CR","ts":"2025-01-27T15:15:34Z","tX":186,"tY":407,"tags":{}},"879115709":{"location":[34.5519053,-114.3493231],"ct":"US","tp":"CR","ts":"2020-12-16T10:07:12Z","tX":186,"tY":407,"tags":{"name":"Havasu RV Resort","website":"https://havasurvresort.com/"}},"909872721":{"location":[34.55984,-114.3698296],"ct":"US","tp":"CS","ts":"2023-01-30T03:46:32Z","tX":186,"tY":407,"tags":{"access":"customers","addr:city":"Lake Havasu City","addr:housenumber":"4750","addr:postcode":"86404","addr:state":"AZ","addr:street":"London Bridge Road","caravans":"yes","name":"Prospector's RV Resort and Spa"}},"909934561":{"location":[34.5384647,-114.3544361],"ct":"US","tp":"CR","ts":"2021-02-23T09:35:01Z","tX":186,"tY":407,"tags":{}},"909934564":{"location":[34.5377724,-114.3545759],"ct":"US","tp":"CR","ts":"2021-02-23T09:35:01Z","tX":186,"tY":407,"tags":{}},"1120505643":{"location":[34.487756,-114.4057707],"ct":"US","tp":"CR","ts":"2025-02-17T16:26:42Z","tX":186,"tY":407,"tags":{"name":"Havasu Landing Resort & Casino Campground"}},"1120505645":{"location":[34.484167,-114.4067538],"ct":"US","tp":"CR","ts":"2022-12-09T08:06:40Z","tX":186,"tY":407,"tags":{}},"8228252416":{"location":[34.5928532,-114.3540214],"ct":"US","tp":"CS","ts":"2023-01-30T03:47:13Z","tX":186,"tY":407,"tags":{"ele":"304","name":"Craggy Wash Dispersed Camping Area","operator":"Bureau of Land Management"}},"6727835885":{"location":[34.4932556,-114.3588121],"ct":"US","tp":"CR","ts":"2024-03-30T01:50:52Z","tX":186,"tY":407,"tags":{"addr:housenumber":"699","addr:postcode":"86403","addr:state":"AZ","addr:street":"London Bridge Road","name":"Lake Havasu State Park","phone":"928 855 2784","website":"https://azstateparks.com/lake-havasu"}}}