{"14707216":{"location":[32.5473129,-114.5047809],"ct":"US","tp":"CS","ts":"2022-10-18T08:29:48Z","tX":186,"tY":413,"tags":{"access":"no","name":"Auxiliary Airfield 2 Bivouac","operator":"United States Marine Corp"}},"230487235":{"location":[32.6738659,-114.4450181],"ct":"US","tp":"CR","ts":"2020-05-18T13:28:33Z","tX":186,"tY":413,"tags":{"source":"http://pilotflyingj.com/view-location?id=505"}},"452813102":{"location":[32.6756393,-114.2977597],"ct":"US","tp":"CR","ts":"2018-02-10T21:39:39Z","tX":186,"tY":413,"tags":{"addr:city":"Wellton","addr:country":"US","addr:housenumber":"19702","addr:postcode":"85356","addr:state":"AZ","addr:street":"Old Highway 80","name":"Liguerta Station RV Park"}},"452940306":{"location":[32.6709587,-114.5392895],"ct":"US","tp":"CR","ts":"2022-07-01T12:10:45Z","tX":186,"tY":413,"tags":{"addr:city":"Yuma","addr:country":"US","addr:housenumber":"5510","addr:postcode":"85365","addr:state":"AZ","addr:street":"East 32nd Street","fee":"yes","internet_access":"wlan","name":"Blue Sky Ranch RV Park","power_supply":"yes","sanitary_dump_station":"no","website":"https://www.blueskyranchyuma.com/"}},"452941538":{"location":[32.6709738,-114.5362723],"ct":"US","tp":"CR","ts":"2018-02-07T06:06:28Z","tX":186,"tY":413,"tags":{"addr:city":"Yuma","addr:country":"US","addr:housenumber":"5590","addr:postcode":"85365","addr:state":"AZ","addr:street":"East 32nd Street","fee":"yes","name":"Miles Last Resort RV Park"}},"452941539":{"location":[32.6709407,-114.5338253],"ct":"US","tp":"CR","ts":"2018-02-07T06:06:28Z","tX":186,"tY":413,"tags":{"addr:city":"Yuma","addr:country":"US","addr:housenumber":"5730","addr:postcode":"85365","addr:state":"AZ","addr:street":"East 32nd Street","fee":"yes","name":"Rocking K RV Park"}},"452941768":{"location":[32.6709742,-114.5313457],"ct":"US","tp":"CR","ts":"2018-02-07T06:06:29Z","tX":186,"tY":413,"tags":{"addr:city":"Yuma","addr:country":"US","addr:housenumber":"5990","addr:postcode":"85365","addr:state":"AZ","addr:street":"East 32nd Street","fee":"yes","name":"Yuma Mesa RV Park"}},"452943551":{"location":[32.6710713,-114.5196809],"ct":"US","tp":"CR","ts":"2016-11-12T23:10:53Z","tX":186,"tY":413,"tags":{"addr:city":"Yuma","addr:housenumber":"6580","addr:postcode":"85365","addr:state":"AZ","addr:street":"East 32nd Street","name":"Windhaven RV Park"}},"452943556":{"location":[32.6691083,-114.5141868],"ct":"US","tp":"CR","ts":"2022-07-01T12:01:43Z","tX":186,"tY":413,"tags":{"addr:city":"Yuma","addr:housenumber":"6825","addr:postcode":"85365","addr:state":"AZ","addr:street":"East 32nd Street","capacity":"227","name":"Arizona West RV Park","phone":"(928) 726-1481","website":"https://www.azwestrv.com/"}},"452943867":{"location":[32.6664787,-114.5105293],"ct":"US","tp":"CR","ts":"2024-06-12T21:12:54Z","tX":186,"tY":413,"tags":{"addr:city":"Yuma","addr:housenumber":"7201","addr:postcode":"85365","addr:state":"AZ","addr:street":"East 32nd Street","fee":"yes","gnis:feature_id":"2622805","name":"Sun Vista RV Resort","phone":"+1-928-726-8920","website":"https://www.sunvistarvresort.com/"}},"452945254":{"location":[32.6666929,-114.4631859],"ct":"US","tp":"CR","ts":"2018-02-07T06:06:29Z","tX":186,"tY":413,"tags":{"addr:city":"Yuma","addr:country":"US","addr:housenumber":"9797","addr:postcode":"85365","addr:state":"AZ","addr:street":"East 32nd Stret","capacity":"1057","fee":"yes","name":"Westwind RV & Golf Resort"}},"452949392":{"location":[32.6685077,-114.4559399],"ct":"US","tp":"CR","ts":"2016-11-12T23:35:00Z","tX":186,"tY":413,"tags":{"addr:city":"Yuma","addr:housenumber":"19247","addr:postcode":"85365","addr:state":"AZ","addr:street":"South Frontage Road","fee":"yes","name":"Blue Sky RV Resort","website":"http://www.blueskyyuma.com/"}},"452954152":{"location":[32.6656648,-114.5149375],"ct":"US","tp":"CR","ts":"2022-07-01T12:11:12Z","tX":186,"tY":413,"tags":{"addr:city":"Yuma","addr:housenumber":"3400","addr:postcode":"85365","addr:state":"AZ","addr:street":"South Avenue 7 East","capacity":"453","name":"The Palms RV Resort","website":"https://yumapalmsrvresort.com/"}},"455435787":{"location":[32.6713073,-114.6009133],"ct":"US","tp":"CR","ts":"2021-04-11T00:46:59Z","tX":186,"tY":413,"tags":{"addr:city":"Yuma","addr:housenumber":"1960","addr:postcode":"85365","addr:state":"AZ","addr:street":"East 32nd Street","capacity":"312","fee":"yes","name":"Suni Sands RV Resort","operator":"Equity LifeStyle Properties","phone":"+19287265941","website":"https://www.thousandtrails.com/arizona/suni-sands-rv-resort/"}},"455437180":{"location":[32.6636623,-114.5448699],"ct":"US","tp":"CR","ts":"2019-02-17T02:49:41Z","tX":186,"tY":413,"tags":{"addr:city":"Yuma","addr:housenumber":"3547","addr:postcode":"85365","addr:state":"AZ","addr:street":"South Avenue 5 East","capacity":"303","fee":"yes","internet_access":"wlan","name":"Villa Alameda RV Resort","website":"https://villaalamedarvresort.com/"}},"455438395":{"location":[32.6576478,-114.4897546],"ct":"US","tp":"CR","ts":"2023-05-22T17:39:33Z","tX":186,"tY":413,"tags":{"addr:city":"Yuma","addr:housenumber":"3900","addr:postcode":"85365","addr:state":"AZ","addr:street":"South Avenue 8 1/2 E","capacity":"419","fee":"yes","name":"Carefree Village Resort","website":"https://www.carefreevillageresort.com/"}},"455543570":{"location":[32.6743148,-114.4538565],"ct":"US","tp":"CR","ts":"2016-11-24T17:54:29Z","tX":186,"tY":413,"tags":{"addr:city":"Fortuna Foothills","addr:housenumber":"10422","addr:postcode":"85365","addr:state":"AZ","addr:street":"North Frontage Road","fee":"yes","name":"Las Quintas Oasis RV Resort"}},"455546966":{"location":[32.6725027,-114.4506154],"ct":"US","tp":"CR","ts":"2024-07-10T11:14:26Z","tX":186,"tY":413,"tags":{"addr:housenumber":"10498","addr:state":"AZ","addr:street":"North Frontage Road","fee":"yes","gnis:feature_id":"2622793","name":"Shangri-La RV Resort","operator":"Horizon RV Resorts","website":"https://www.shangrilarv.com/"}},"455549392":{"location":[32.6735457,-114.4477025],"ct":"US","tp":"CR","ts":"2016-11-24T18:36:56Z","tX":186,"tY":413,"tags":{"addr:city":"Fortuna Foothills","addr:housenumber":"10500","addr:postcode":"85365","addr:state":"AZ","addr:street":"North Frontage Road","fee":"yes","name":"Caravan Oasis RV Resort","website":"http://www.caravanoasisresort.com/"}},"455552848":{"location":[32.6680274,-114.4538577],"ct":"US","tp":"CR","ts":"2019-02-17T04:34:24Z","tX":186,"tY":413,"tags":{"addr:city":"Fortuna Foothills","addr:housenumber":"10460","addr:postcode":"85365","addr:state":"AZ","addr:street":"East 34th Street","capacity":"155","fee":"yes","name":"Western Sands RV Resort","website":"https://www.westernsandsrv.com/"}},"455553756":{"location":[32.6649947,-114.4559328],"ct":"US","tp":"CR","ts":"2016-11-24T19:09:51Z","tX":186,"tY":413,"tags":{"addr:city":"Fortuna Foothills","addr:housenumber":"10347","addr:postcode":"85365","addr:state":"AZ","addr:street":"East 34th Street","capacity":"281","name":"Sunridge RV Park"}},"455585518":{"location":[32.6649796,-114.453862],"ct":"US","tp":"CR","ts":"2019-02-17T02:49:42Z","tX":186,"tY":413,"tags":{"addr:city":"Fortuna Foothills","addr:housenumber":"11450","addr:postcode":"85365","addr:state":"AZ","addr:street":"South Payson Drive","capacity":"235","fee":"yes","name":"Adobe Sunset RV Park","website":"https://www.adobesunsetrv.com/"}},"455875078":{"location":[32.7018749,-114.5289075],"ct":"US","tp":"CR","ts":"2023-03-27T23:59:58Z","tX":186,"tY":413,"tags":{"addr:city":"Yuma","addr:country":"US","addr:housenumber":"6200","addr:postcode":"85365","addr:state":"AZ","addr:street":"East Highway 95","capacity":"155","fee":"yes","name":"El Prado Estates RV Park"}},"455881930":{"location":[32.7409257,-114.4831851],"ct":"US","tp":"CR","ts":"2016-11-26T04:16:03Z","tX":186,"tY":413,"tags":{"addr:city":"Yuma","addr:housenumber":"6275","addr:postcode":"85365","addr:state":"AZ","addr:street":"South Avenue 8 1/2 East","fee":"yes","name":"Yuma Lakes RV Resort","operator":"Colorado River Adventures"}},"455882007":{"location":[32.7367315,-114.4799238],"ct":"US","tp":"CR","ts":"2016-11-26T04:20:03Z","tX":186,"tY":413,"tags":{"addr:housenumber":"8860","addr:postcode":"85365","addr:state":"AZ","addr:street":"East Buckshot Road","name":"Sandbar RV Park"}},"456086583":{"location":[32.6133237,-114.5829234],"ct":"US","tp":"CR","ts":"2016-11-26T17:55:28Z","tX":186,"tY":413,"tags":{"addr:city":"Yuma","addr:housenumber":"14794","addr:postcode":"85365","addr:state":"AZ","addr:street":"South Avenue 3 East","capacity":"483","fee":"yes","internet_access":"wlan","name":"Del Pueblo RV Park and Tennis Resort","power_supply":"yes","sanitary_dump_station":"yes","website":"http://www.yumarvresort.com/"}},"467547750":{"location":[32.5837175,-114.5663933],"ct":"US","tp":"CR","ts":"2022-07-01T12:26:52Z","tX":186,"tY":413,"tags":{"addr:city":"Yuma","addr:housenumber":"3750","addr:postcode":"85365","addr:state":"AZ","addr:street":"East County 17th Street","capacity":"154","fee":"yes","internet_access":"wlan","name":"Kofa Ko-Op","power_supply":"yes","sanitary_dump_station":"yes","website":"https://kofako-op.com/"}},"517114865":{"location":[32.6688537,-114.4216933],"ct":"US","tp":"CR","ts":"2017-11-27T05:40:55Z","tX":186,"tY":413,"tags":{"addr:city":"Yuma","addr:housenumber":"12325","addr:postcode":"85367","addr:state":"AZ","addr:street":"South Frontage Road","fee":"yes","name":"Gila Mountain RV Park","power_supply":"yes","sanitary_dump_station":"yes","website":"http://gilamountainrv.com/"}},"542860510":{"location":[32.6722263,-114.3987063],"ct":"US","tp":"CR","ts":"2022-07-01T12:08:10Z","tX":186,"tY":413,"tags":{"addr:city":"Yuma","addr:housenumber":"13650","addr:postcode":"85367","addr:state":"AZ","addr:street":"North Frontage Road","capacity":"1,295","fee":"yes","name":"Fortuna de Oro RV Resort","operator":"Cal-Am Resorts","phone":"928-342-5051","website":"https://www.cal-am.com/resorts/fortuna-de-oro/"}},"542995813":{"location":[32.6884247,-114.4776588],"ct":"US","tp":"CR","ts":"2017-11-26T21:19:31Z","tX":186,"tY":413,"tags":{"addr:city":"Yuma","addr:housenumber":"9705","addr:postcode":"85365","addr:state":"AZ","addr:street":"South Avenue 9  East","capacity":"10","name":"Lazy K RV Park"}},"545558510":{"location":[32.731577,-114.5362928],"ct":"US","tp":"CR","ts":"2017-12-08T21:57:09Z","tX":186,"tY":413,"tags":{"addr:city":"Yuma","addr:housenumber":"5625","addr:state":"AZ","addr:street":"East County 5 1/2 St","name":"River RV Park"}},"545570935":{"location":[32.5589686,-114.5824331],"ct":"US","tp":"CR","ts":"2022-07-01T12:08:22Z","tX":186,"tY":413,"tags":{"addr:city":"Yuma","addr:housenumber":"18540","addr:postcode":"85365","addr:state":"AZ","addr:street":"South Avenue 3 East","capacity":"168","fee":"yes","name":"Southern Mesa RV Park","website":"https://www.southernmesarvpark.com/"}},"714943621":{"location":[32.6705124,-114.4033881],"ct":"US","tp":"CR","ts":"2022-07-01T12:08:45Z","tX":186,"tY":413,"tags":{"addr:city":"Yuma","addr:housenumber":"13502","addr:postcode":"85367","addr:state":"AZ","addr:street":"North Frontage Road","capacity":"502","name":"Sundance RV Resort","website":"https://www.cal-am.com/resorts/sundance/"}},"8403749053":{"location":[32.8189559,-114.4707511],"ct":"US","tp":"CS","ts":"2024-01-13T19:33:46Z","tX":186,"tY":413,"tags":{"name":"Mittry Lake Wildlife Area","operator":"BLM"}},"11514531131":{"location":[32.8200953,-114.4715256],"ct":"US","tp":"CS","ts":"2024-01-13T19:33:46Z","tX":186,"tY":413,"tags":{"name":"Mittry Lake Wildlife Area","operator":"BLM"}}}