{"312717959":{"location":[34.0345217,134.4063999],"ct":"JP","tp":"CS","ts":"2014-11-14T07:23:41Z","tX":894,"tY":408,"tags":{"addr:city":"神山町","addr:housenumber":"69","addr:postcode":"771-3201","addr:street":"阿野字南馬喰草","name":"軽井沢レジャーランド","phone":"088-678-0981","website":"http://www.karuizawa-camp.com/"}},"312717960":{"location":[34.0351413,134.4061796],"ct":"JP","tp":"CS","ts":"2014-11-14T07:23:41Z","tX":894,"tY":408,"tags":{}},"10292484733":{"location":[34.0542838,134.3549724],"ct":"JP","tp":"CS","ts":"2022-12-29T03:16:45Z","tX":894,"tY":408,"tags":{"name":"吉野川市少年の森 野外活動センター","operator":"吉野川市役所"}},"11564121270":{"location":[34.2372059,134.4041121],"ct":"JP","tp":"CS","ts":"2024-01-29T13:01:50Z","tX":894,"tY":408,"tags":{"name":"田の浦野営場","name:en":"Tanoura Camp Field","phone":"+81879261276","website":"https://www.pref.kagawa.lg.jp/kankyokanri/satoumi/umibemap/guide/beach_009.html"}},"5606133222":{"location":[34.2407972,134.3173005],"ct":"JP","tp":"CR","ts":"2024-04-02T15:44:14Z","tX":894,"tY":408,"tags":{}},"10567795393":{"location":[34.0362207,134.3009632],"ct":"JP","tp":"CR","ts":"2023-01-19T12:32:56Z","tX":894,"tY":408,"tags":{"name":"RVパーク 美郷の湯","power_supply":"no"}},"12500440775":{"location":[34.0612435,134.3875982],"ct":"JP","tp":"CS","ts":"2025-01-14T09:53:12Z","tX":894,"tY":408,"tags":{"addr:block_number":"山路2007-1","addr:city":"吉野川市","addr:neighbourhood":"鴨島町","addr:postcode":"7760036","addr:province":"徳島県","name":"ちえの森 ［愛楽友ふぁーむ］","tents":"yes"}}}