{"312715883":{"location":[33.9688104,134.3692402],"ct":"JP","tp":"CS","ts":"2015-03-21T07:20:00Z","tX":894,"tY":409,"tags":{"addr:city":"神山町","addr:housenumber":"272","addr:postcode":"771-3310","addr:street":"神領字西上角","name":"コットンフィールドキャンプ場","phone":"088-676-0803","website":"http://www.cottonfield.jp/"}},"313344460":{"location":[33.8401824,134.4939408],"ct":"JP","tp":"CS","ts":"2014-11-18T08:58:06Z","tX":894,"tY":409,"tags":{"addr:city":"那賀町","addr:housenumber":"178","addr:postcode":"771-5206","addr:street":"百合字松の木","name":"那賀町鷲敷野外活動センター","phone":"0884-62-2524","website":"http://www.waziki-camping.com/yagai/index.html"}},"313346756":{"location":[33.8382953,134.4840895],"ct":"JP","tp":"CS","ts":"2014-11-18T06:38:33Z","tX":894,"tY":409,"tags":{"addr:city":"那賀町","addr:housenumber":"238-1","addr:postcode":"771-5206","addr:street":"百合字松の木","name":"鷲敷ライン林間キャンプ村","phone":"0884-62-1186","website":"http://www.waziki-camping.com/camp/index.html"}},"313351465":{"location":[33.7964475,134.4483941],"ct":"JP","tp":"CS","ts":"2014-11-18T07:19:09Z","tX":894,"tY":409,"tags":{"addr:city":"那賀町","addr:housenumber":"53-19","addr:postcode":"771-5411","addr:street":"横石字大板","name":"相生森林文化公園あいあいらんど","phone":"0884-62-3116","website":"http://aiai-land.net/cottage.html"}},"7618163485":{"location":[33.7721671,134.5839544],"ct":"JP","tp":"CS","ts":"2020-06-13T16:39:59Z","tX":894,"tY":409,"tags":{"name:en":"321 Taihama Camping Ground"}},"7618163486":{"location":[33.9241228,134.496021],"ct":"JP","tp":"CS","ts":"2020-06-13T16:40:00Z","tX":894,"tY":409,"tags":{"name:en":"307 Maekawa Campsite"}},"8323115217":{"location":[33.9244729,134.4964002],"ct":"JP","tp":"CS","ts":"2021-01-15T04:06:08Z","tX":894,"tY":409,"tags":{"name":"前川キャンプ場"}},"10076789849":{"location":[33.9686887,134.4143604],"ct":"JP","tp":"CS","ts":"2022-10-05T11:20:24Z","tX":894,"tY":409,"tags":{"name":"いきものふれあい の里キャンプ場"}},"11531409472":{"location":[33.7423215,134.5557096],"ct":"JP","tp":"CS","ts":"2024-01-19T16:27:43Z","tX":894,"tY":409,"tags":{"name":"恵比須浜キャンプ村","name:en":"Ebisuhama Camp Village","phone":"+81884771016","website":"https://ebisuhama.web.fc2.com/"}}}