{"313517448":{"location":[33.692478,134.489353],"ct":"JP","tp":"CS","ts":"2014-11-19T06:17:31Z","tX":894,"tY":410,"tags":{"addr:city":"美波町","addr:postcode":"779-2307","addr:street":"山河内字明丸","name":"美波町体験活動施設南阿波サンラインモビレージ","phone":"0884-77-0709","website":"http://www.awasun.com/"}},"313652991":{"location":[33.6229981,134.3691353],"ct":"JP","tp":"CR","ts":"2024-07-19T23:45:42Z","tX":894,"tY":410,"tags":{"addr:city":"海陽町","addr:housenumber":"43","addr:postcode":"775-0101","addr:street":"浅川字西福良","name":"まぜのおかオートキャンプ場","phone":"0884-74-3111","website":"https://www.kaifu.or.jp/"}},"7618162986":{"location":[33.5501679,134.3096528],"ct":"JP","tp":"CS","ts":"2020-06-13T16:39:54Z","tX":894,"tY":410,"tags":{"name:en":"Shishikuiura Shrine"}},"7618163285":{"location":[33.5871429,134.3533666],"ct":"JP","tp":"CS","ts":"2024-04-21T09:16:37Z","tX":894,"tY":410,"tags":{"name:en":"Isaribinomori Camping Ground"}},"7618163385":{"location":[33.6922879,134.4896687],"ct":"JP","tp":"CS","ts":"2020-06-13T16:39:58Z","tX":894,"tY":410,"tags":{"name:en":"Akimaru Yamagawachi Camping Ground"}},"11531413869":{"location":[33.6235541,134.3690634],"ct":"JP","tp":"CS","ts":"2024-04-23T10:17:38Z","tX":894,"tY":410,"tags":{"name":"まぜのおか","name:en":"Camp Site Mazeno-oka","phone":"0884-74-3111","website":"https://www.kaiyo-kankou.jp/spots/spots-1226/"}}}