{"6358924":{"location":[-33.4150692,151.1564021],"ct":"AU","tp":"CR","ts":"2018-01-27T20:36:16Z","tX":941,"tY":612,"tags":{"name":"Charlie's Place Caravan Park"}},"316586444":{"location":[-33.1452385,151.0912297],"ct":"AU","tp":"CS","ts":"2019-02-18T09:21:06Z","tX":941,"tY":612,"tags":{"fee":"yes","name":"Mogo Camping Area - Yengo NP","website":"https://www.nationalparks.nsw.gov.au/camping-and-accommodation/campgrounds/Mogo-campground"}},"552994388":{"location":[-33.3716809,150.9434759],"ct":"AU","tp":"CS","ts":"2025-03-03T21:42:14Z","tX":941,"tY":612,"tags":{"addr:housenumber":"71-233","addr:postcode":"2775","addr:state":"NSW","addr:street":"Doyles Creek Road","addr:suburb":"Webbs Creek","capacity":"120","internet_access":"no","name":"Little River Camp","operator":"Outdoor Adventure Camps"}},"759762562":{"location":[-33.3974423,151.0009428],"ct":"AU","tp":"CS","ts":"2019-12-31T03:47:18Z","tX":941,"tY":612,"tags":{"addr:housenumber":"7123","addr:postcode":"2775","addr:state":"NSW","addr:street":"Wisemans Ferry Road","addr:suburb":"Gunderman","name":"Rosevale Farm Resort"}},"783199131":{"location":[-33.4013113,150.9783934],"ct":"AU","tp":"CR","ts":"2023-11-09T10:57:27Z","tX":941,"tY":612,"tags":{"addr:housenumber":"2868","addr:street":"River Road","name":"Koveda Holiday Park","phone":"+61 2 4566 4305","power_supply":"yes","website":"http://www.kovedaholidaypark.com.au"}},"783221304":{"location":[-33.3972424,150.9818498],"ct":"AU","tp":"CR","ts":"2021-01-31T02:46:59Z","tX":941,"tY":612,"tags":{"name":"NSW Water Ski Gardens","power_supply":"yes"}},"783221348":{"location":[-33.407004,150.9715215],"ct":"AU","tp":"CR","ts":"2020-03-21T04:51:09Z","tX":941,"tY":612,"tags":{"addr:housenumber":"2720","addr:street":"River Road","name":"Carinya Ski Ranch","website":"https://www.carinyaski.com.au"}},"993628016":{"location":[-33.4015891,151.0433256],"ct":"AU","tp":"CS","ts":"2021-10-18T11:08:58Z","tX":941,"tY":612,"tags":{"bbq":"yes","capacity":"31","caravans":"no","fee":"yes","maxstay":"21 days","name":"Mill Creek Campground","reservation":"yes","shower":"no","tents":"yes","toilets":"yes","website":"https://www.nationalparks.nsw.gov.au/camping-and-accommodation/campgrounds/mill-creek-campground"}},"1127922858":{"location":[-33.4016114,150.9697776],"ct":"AU","tp":"CS","ts":"2023-01-07T00:24:07Z","tX":941,"tY":612,"tags":{"caravans":"yes","fee":"yes","shower":"yes","tents":"yes","toilets":"yes","website":"https://delrioresort.com.au/Accommodation/camping/"}},"1127922859":{"location":[-33.4043655,150.9673713],"ct":"AU","tp":"CS","ts":"2023-01-07T00:24:07Z","tX":941,"tY":612,"tags":{"caravans":"yes","fee":"yes","shower":"yes","tents":"yes","toilets":"yes","website":"https://delrioresort.com.au/Accommodation/camping/"}},"1811190904":{"location":[-33.39583,150.9825],"ct":"AU","tp":"CS","ts":"2023-11-09T10:57:27Z","tX":941,"tY":612,"tags":{"access":"customers","email":"nswskiga@bigpond.net.au","name":"NSW Water Ski Gardens","operator":"Waterski NSW","phone":"+61 2 4566 4212","website":"https://www.waterskinsw.com.au/ski-gardens/"}},"2933635299":{"location":[-33.3276067,151.0896586],"ct":"AU","tp":"CS","ts":"2019-02-21T01:16:32Z","tX":941,"tY":612,"tags":{"bbq":"yes","caravans":"no","fee":"no","name":"Ten Mile Hollow","shower":"no","tents":"yes","toilets":"yes","website":"https://www.nationalparks.nsw.gov.au/camping-and-accommodation/campgrounds/Ten-Mile-Hollow-campground"}},"3927926878":{"location":[-33.2708444,150.896644],"ct":"AU","tp":"CS","ts":"2019-02-11T23:03:04Z","tX":941,"tY":612,"tags":{"backcountry":"yes","caravans":"no","comment":"fee includes permit for 4WD .. too expensive!","fee":"$100","name":"Heartbreak Hill Camping Area","operator":"national parks widlife service nsw","shower":"no","source":"NSW LPI Base Map","source:date":"2016-01","tents":"yes","website":"https://www.nationalparks.nsw.gov.au/camping-and-accommodation/campgrounds/heartbreak-hill-campground/visitor-info#Getting-there-and-parking"}},"4333617452":{"location":[-33.3610354,150.942068],"ct":"AU","tp":"CS","ts":"2020-02-09T09:27:47Z","tX":941,"tY":612,"tags":{"access":"private","group_only":"yes","name":"The Grove","source":"NSW LPI Base Map","source:date":"2016-06"}},"4727301991":{"location":[-33.2076747,150.9781035],"ct":"AU","tp":"CS","ts":"2017-03-11T04:54:18Z","tX":941,"tY":612,"tags":{"addr:postcode":"2775","name":"Touch the Earth","name:en":"Touch the Earth","name:es":"Touch the Earth"}},"7196896575":{"location":[-33.3787677,150.9514138],"ct":"AU","tp":"CS","ts":"2024-06-14T03:00:55Z","tX":941,"tY":612,"tags":{"access":"private","addr:housenumber":"256","addr:street":"Webbs Creek Road","group_only":"yes","name":"Outdoor Adventure Company"}}}