{"739757528":{"location":[63.7851378,17.9043299],"ct":"SE","tp":"CS","ts":"2022-12-31T03:04:05Z","tX":562,"tY":274,"tags":{"addr:country":"SE","addr:housenumber":"156","addr:street":"Rödvattnet","cabins":"yes","name":"Rödvattnet Stugby & Camping","phone":"+46 70-2786417","website":"https://rodvattnetstugbyencamping.jimdo.com/swedish-and-english-brochure/"}},"6920282144":{"location":[63.7929211,17.6301813],"ct":"SE","tp":"CS","ts":"2023-10-23T23:15:48Z","tX":562,"tY":274,"tags":{"addr:country":"SE","addr:housenumber":"12","addr:street":"Fritidsvägen","cabins":"yes","name":"Solbergets fritidsby","phone":"+46 661-501 75","website":"https://solbergsbacken.se/group-list/boende/"}},"6926574309":{"location":[63.7968392,17.6222366],"ct":"SE","tp":"CS","ts":"2019-12-25T20:23:21Z","tX":562,"tY":274,"tags":{"cabins":"yes","name":"Arnes Stugby","phone":"+46 070-625 41 22","website":"https://www.hogakusten.com/boka/boende/433421/arnes-stugby/detaljer"}},"6920282143":{"location":[63.7957354,17.627306],"ct":"SE","tp":"CR","ts":"2019-12-25T20:23:21Z","tX":562,"tY":274,"tags":{"name":"Solbergets fritidsby","phone":"+46 661-501 75","website":"https://solbergsbacken.se/all-portfolio-list/husvagnsplatser/"}}}