{"22699609":{"location":[59.2308624,17.8860136],"ct":"SE","tp":"CR","ts":"2015-08-12T21:00:24Z","tX":562,"tY":301,"tags":{"fee":"yes","name":"Stockholm SweCamp Flottsbro","power_supply":"yes","sanitary_dump_station":"yes","tents":"yes"}},"24224534":{"location":[59.3364948,17.9024485],"ct":"SE","tp":"CS","ts":"2022-11-07T15:02:23Z","tX":562,"tY":301,"tags":{"access":"permissive","addr:city":"Bromma","addr:postcode":"168 52","addr:street":"Blackebergsvägen","capacity":"110","caravans":"yes","contact:phone":"+46 8 370420","email":"reservation@angbycamping.se","fax":"+46 8-378 226","fee":"yes","internet_access":"wlan","name":"Ängby camping","phone":"+46 8-370 420","power_supply":"yes","reservation":"yes","shower":"yes","tents":"yes","toilets":"yes","website":"http://angbycamping.se"}},"89615997":{"location":[59.29649,17.9229011],"ct":"SE","tp":"CS","ts":"2022-10-16T07:20:16Z","tX":562,"tY":301,"tags":{"caravans":"yes","drinking_water":"yes","info":"2013 season ended Oct 5, 2014 season begins April 15","internet_access":"wlan","name":"Bredäng Camping Stockholm","power_supply":"yes","shower":"yes","source":"Bing","tents":"yes","toilets":"yes","website":"http://www.bredangcamping.se"}},"5017122854":{"location":[59.2320898,17.8768077],"ct":"SE","tp":"CS","ts":"2017-08-05T22:54:06Z","tX":562,"tY":301,"tags":{"impromptu":"yes"}},"4448465190":{"location":[59.18892,17.63226],"ct":"SE","tp":"SD","ts":"2017-09-23T18:46:41Z","tX":562,"tY":301,"tags":{"access":"yes","addr:place":"Södertälje Gästhamn","boat":"yes","fee":"no","opening_hours":"24/7","sanitary_dump_station:accepted":"black_water","sanitary_dump_station:pump-out":"yes","seamark:small_craft_facility:category":"pump-out","seamark:type":"small_craft_facility","vehicle":"no","waterway":"sanitary_dump_station","website":"https://hamnkartan.azurewebsites.net"}},"4448465191":{"location":[59.21004,17.61981],"ct":"SE","tp":"SD","ts":"2017-09-23T18:46:41Z","tX":562,"tY":301,"tags":{"access":"yes","addr:place":"Södertälje Båtklubb","boat":"yes","fee":"no","opening_hours":"24/7","sanitary_dump_station:accepted":"black_water","sanitary_dump_station:pump-out":"yes","seamark:small_craft_facility:category":"pump-out","seamark:type":"small_craft_facility","vehicle":"no","waterway":"sanitary_dump_station","website":"https://hamnkartan.azurewebsites.net"}},"4448465193":{"location":[59.26619,17.77776],"ct":"SE","tp":"SD","ts":"2017-09-23T18:46:41Z","tX":562,"tY":301,"tags":{"access":"yes","addr:place":"Ekerö Båtklubb","boat":"yes","description":"Stationen ligger i Fantholmsviken intill den stora mastkranen","fee":"no","opening_hours":"24/7","sanitary_dump_station:accepted":"black_water","sanitary_dump_station:pump-out":"yes","seamark:small_craft_facility:category":"pump-out","seamark:type":"small_craft_facility","vehicle":"no","waterway":"sanitary_dump_station","website":"https://hamnkartan.azurewebsites.net"}},"4448465195":{"location":[59.27534,17.84719],"ct":"SE","tp":"SD","ts":"2017-09-23T18:46:42Z","tX":562,"tY":301,"tags":{"access":"yes","addr:place":"Jungfrusunds marina","boat":"yes","fee":"no","opening_hours":"24/7","sanitary_dump_station:accepted":"black_water","sanitary_dump_station:pump-out":"yes","seamark:small_craft_facility:category":"pump-out","seamark:type":"small_craft_facility","vehicle":"no","waterway":"sanitary_dump_station","website":"https://hamnkartan.azurewebsites.net"}},"4448465200":{"location":[59.2937505,17.64889],"ct":"SE","tp":"SD","ts":"2019-08-07T18:00:33Z","tX":562,"tY":301,"tags":{"access":"yes","addr:place":"Rastaholm","boat":"yes","description":"Stationen ligger på en förlängning av kajen mot söder vid stora mastkranen i Stockholms seglarsällskaps hamn, Rastaholm.","fee":"no","opening_hours":"24/7","sanitary_dump_station:accepted":"black_water","sanitary_dump_station:pump-out":"yes","seamark:small_craft_facility:category":"pump-out","seamark:type":"small_craft_facility","vehicle":"no","waterway":"sanitary_dump_station","website":"https://hamnkartan.azurewebsites.net"}},"4448465201":{"location":[59.294997,17.905842],"ct":"SE","tp":"SD","ts":"2017-09-23T18:46:43Z","tX":562,"tY":301,"tags":{"access":"yes","addr:place":"Sätra båtsällskap","boat":"yes","fee":"no","opening_hours":"24/7","sanitary_dump_station:accepted":"black_water","sanitary_dump_station:pump-out":"yes","seamark:small_craft_facility:category":"pump-out","seamark:type":"small_craft_facility","vehicle":"no","waterway":"sanitary_dump_station","website":"https://hamnkartan.azurewebsites.net"}},"4448465213":{"location":[59.32475,17.70157],"ct":"SE","tp":"SD","ts":"2017-09-23T18:46:45Z","tX":562,"tY":301,"tags":{"access":"customers","addr:place":"Färingarnas Båtklubb","boat":"yes","description":"Sugtömningsstationen finns på servicebryggan vid mastkranen. Gästande båtar kontaktar klubben för att tömma, då tömningsstationen har nyckelstart.","fee":"no","opening_hours":"24/7","sanitary_dump_station:accepted":"black_water","sanitary_dump_station:pump-out":"yes","seamark:small_craft_facility:category":"pump-out","seamark:type":"small_craft_facility","vehicle":"no","waterway":"sanitary_dump_station","website":"https://hamnkartan.azurewebsites.net"}}}