{"368369979":{"location":[53.7745532,17.7124614],"ct":"PL","tp":"CS","ts":"2021-09-11T08:08:49Z","tX":562,"tY":329,"tags":{"fee":"yes","name":"pole namiotowe przy leśniczówce w Mylofie","source":"survey"}},"530771380":{"location":[53.9556791,17.9161797],"ct":"PL","tp":"CS","ts":"2020-10-26T19:22:18Z","tX":562,"tY":329,"tags":{"name":"Pod Złotą Rybką"}},"1764783483":{"location":[53.9305584,17.8246916],"ct":"PL","tp":"CS","ts":"2014-07-31T22:51:10Z","tX":562,"tY":329,"tags":{"addr:city":"Karsin","addr:country":"PL","addr:housenumber":"1","addr:place":"Rogalewo","addr:postcode":"83-441","alt_name":"Ośrodek Wczasowy Stoczni Północnej","name":"Ośrodek Wczasowy Wiele-Rogalewo"}},"1764783484":{"location":[53.9197172,17.8407343],"ct":"PL","tp":"CS","ts":"2023-11-01T08:47:20Z","tX":562,"tY":329,"tags":{"addr:housenumber":"2","addr:place":"Piątkowo","addr:postcode":"83-441","name":"eFKa Wiele","website":"https://efka-wiele.pl/"}},"2355259577":{"location":[53.8388218,17.6387239],"ct":"PL","tp":"CS","ts":"2013-06-21T20:56:31Z","tX":562,"tY":329,"tags":{"name":"Wasserwanderrastplatz Czernica"}},"2464659983":{"location":[53.844543,17.6250627],"ct":"PL","tp":"CS","ts":"2019-07-31T15:43:45Z","tX":562,"tY":329,"tags":{"name":"Baza Obozowa \"Czernica\"","operator":"ZHP Chorągiew Gdańska Hufiec Gdynia"}},"7556083254":{"location":[53.950094,17.9069903],"ct":"PL","tp":"CS","ts":"2020-05-25T12:04:01Z","tX":562,"tY":329,"tags":{"caravans":"yes","tents":"yes"}}}