{"2272129":{"location":[46.9447707,17.8770299],"ct":"HU","tp":"CS","ts":"2024-08-18T18:12:12Z","tX":562,"tY":360,"tags":{"addr:city":"Balatonfüred","addr:housenumber":"24","addr:postcode":"8230","addr:street":"Széchenyi utca","check_date":"2024-08-18","name":"Balatontourist Camping Füred"}},"2780873":{"location":[46.8816761,17.7572201],"ct":"HU","tp":"CS","ts":"2022-02-04T21:36:31Z","tX":562,"tY":360,"tags":{"addr:city":"Balatonakali","addr:housenumber":"8","addr:postcode":"8243","addr:street":"Balaton utca","name":"Balatonakali Strand-Holiday Camping"}},"2782678":{"location":[46.8861196,17.707216],"ct":"HU","tp":"CS","ts":"2018-08-06T17:32:51Z","tX":562,"tY":360,"tags":{"fixme":"duplicated POI & multipoly"}},"2998140":{"location":[46.8795485,17.739264],"ct":"HU","tp":"CS","ts":"2021-08-16T11:30:21Z","tX":562,"tY":360,"tags":{"capacity":"120","disused":"yes","fee":"yes","internet_access":"wlan","internet_access:fee":"yes","name":"Levendula kemping (FKK)","power_supply":"yes","smoking":"dedicated","source":"bing","stars":"2","tents":"yes","wheelchair":"yes"}},"17738858":{"location":[46.878814,17.9034964],"ct":"HU","tp":"CS","ts":"2024-06-20T08:00:59Z","tX":562,"tY":360,"tags":{"name":"Rév Camping","source":"turistautak.hu","source:date":"2013-01-09","url":"http://turistautak.hu/poi.php?id=74362","website":"https://revkemping.hu"}},"122270752":{"location":[46.8287919,17.6399684],"ct":"HU","tp":"CS","ts":"2024-10-27T04:32:12Z","tX":562,"tY":360,"tags":{"addr:city":"Révfülöp","addr:housenumber":"5","addr:postcode":"8253","addr:street":"Halász utca","caravans":"yes","drinking_water":"yes","email":"napfeny@balatontourist.hu","internet_access":"wlan","name":"Napfény Kemping","operator":"Balatontourist","phone":"+36 87 563 031","power_supply":"yes","sanitary_dump_station":"yes","shower":"yes","tents":"yes","toilets":"yes","website":"https://www.balatontourist.hu/hu/balatoni-kempingek-szallashelyek/napfeny","wheelchair":"yes"}},"586204202":{"location":[46.8811,17.9133287],"ct":"HU","tp":"CS","ts":"2024-07-21T21:15:01Z","tX":562,"tY":360,"tags":{"addr:city":"Zamárdi","addr:conscriptionnumber":"3512","addr:postcode":"8621","addr:street":"Szent István út","caravans":"yes","email":"reservation@mirabellacamping.hu","internet_access":"yes","internet_access:fee":"no","name":"Mirabella Camping","old_name":"Balatontourist autós kemping","payment:cash":"yes","payment:credit_cards":"yes","phone":"+36 84 348 931","sanitary_dump_station":"customers","tents":"yes","website":"https://mirabellacamping.hu/"}},"601352601":{"location":[46.803673,17.7513653],"ct":"HU","tp":"SD","ts":"2018-06-24T16:59:31Z","tX":562,"tY":360,"tags":{"barrier":"fence","name":"Szennyvíz átemelő","operator":"DAV Zrt."}},"1074664321":{"location":[46.8433134,17.8653332],"ct":"HU","tp":"CS","ts":"2022-06-30T00:42:07Z","tX":562,"tY":360,"tags":{"barrier":"fence","internet_access":"wlan","internet_access:ssid":"Dios Camping","name":"Diós Camping","stars":"3"}},"1082171462":{"location":[46.816103,17.795429],"ct":"HU","tp":"CS","ts":"2023-07-23T10:23:58Z","tX":562,"tY":360,"tags":{"addr:city":"Balatonőszöd","addr:conscriptionnumber":"080/69","addr:postcode":"8637","addr:street":"Szabadság utca","barrier":"fence","caravans":"yes","contact:email":"info@familiacampingbalaton.hu","contact:mobile":"+36 20 388 0513","contact:website":"https://www.familiacampingbalaton.hu/","internet_access":"wlan","internet_access:fee":"no","name":"Família Camping Balaton","tents":"yes","wheelchair":"yes"}},"1090788203":{"location":[46.8515508,17.8909598],"ct":"HU","tp":"CS","ts":"2023-09-03T23:48:03Z","tX":562,"tY":360,"tags":{"addr:city":"Balatonföldvár","addr:housenumber":"12","addr:postcode":"8623","addr:street":"Kismartoni utca","barrier":"fence","contact:email":"info@jogarhotel.hu","contact:fax":"+36 84 340 563","contact:mobile":"+36 30 697 2560","contact:phone":"+36 84 340 562","contact:website":"https://jogarhotel.hu/?pageid=naro-camping","name":"Naro Camping","opening_hours":"Jun 01-Aug 31","operator":"BM OKF GEK Jogar Továbbképző Központ és Hotel","operator:addr":"8623 Balatonföldvár, Spur István utca 18."}},"1226623627":{"location":[46.8013461,17.7500156],"ct":"HU","tp":"CS","ts":"2024-11-11T12:37:17Z","tX":562,"tY":360,"tags":{"addr:city":"Balatonszemes","addr:housenumber":"6","addr:postcode":"8636","addr:street":"Rádi utca","caravans":"yes","contact:mobile":"+49 177 6043987;+36 30 220 8889","contact:website":"https://www.h-r-camping-balaton.de/","drinking_water":"yes","internet_access":"no","motorhome":"designated","name":"H und R mobil camping","operator":"Balatonsüd Kereskedelmi és Szolgáltató Kft.","power_supply":"yes","shower":"yes","tents":"yes","wheelchair":"yes"}},"1293806943":{"location":[46.8782544,17.9100945],"ct":"HU","tp":"CS","ts":"2024-06-20T07:50:21Z","tX":562,"tY":360,"tags":{"name":"Naturcamping","source":"turistautak.hu","source:date":"2013-04-01","url":"http://turistautak.hu/poi.php?id=59432"}},"1886611088":{"location":[46.8858798,17.7064922],"ct":"HU","tp":"CS","ts":"2018-08-06T17:32:39Z","tX":562,"tY":360,"tags":{"fixme":"duplicated POI & multipoly"}},"3441436388":{"location":[46.8415705,17.854779],"ct":"HU","tp":"CS","ts":"2018-07-22T18:06:06Z","tX":562,"tY":360,"tags":{"source":"turistautak.hu","source:date":"2012-10-14","url":"http://turistautak.hu/poi.php?id=120976"}},"3441442854":{"location":[46.8735493,17.9049388],"ct":"HU","tp":"CS","ts":"2022-08-18T04:56:24Z","tX":562,"tY":360,"tags":{"name":"KFKI Camping","source":"turistautak.hu","source:date":"2012-10-14","url":"http://turistautak.hu/poi.php?id=74365"}},"3448565542":{"location":[46.951322,17.605983],"ct":"HU","tp":"CS","ts":"2015-04-10T14:33:06Z","tX":562,"tY":360,"tags":{"name":"Kapolcsi sÜvegTIGRIS kemping","source":"turistautak.hu","source:date":"2013-01-01","url":"http://turistautak.hu/poi.php?id=27591"}},"3448565566":{"location":[46.882945,17.605472],"ct":"HU","tp":"CS","ts":"2023-11-16T17:57:24Z","tX":562,"tY":360,"tags":{"addr:city":"Köveskál","addr:housenumber":"7","addr:postcode":"8274","addr:street":"Iskola utca","contact:fax":"+36 87 478 052","name":"Köveskáli Diákkemping","phone":"+36 87 478 044","source":"turistautak.hu","source:date":"2011-05-26","url":"http://turistautak.hu/poi.php?id=17551"}},"3669178040":{"location":[46.9530023,17.607726],"ct":"HU","tp":"CS","ts":"2024-02-11T15:02:42Z","tX":562,"tY":360,"tags":{"addr:city":"Kapolcs","addr:housenumber":"59","addr:postcode":"8294","addr:street":"Dózsa György utca","name":"Kecske-kő sátorhely"}},"3722759375":{"location":[46.8800421,17.7374992],"ct":"HU","tp":"SD","ts":"2015-09-01T08:25:58Z","tX":562,"tY":360,"tags":{"sanitary_dump_station:chemical_toilet":"yes","sanitary_dump_station:gravity":"yes","sanitary_dump_station:grey_water":"yes"}},"4364809338":{"location":[46.9111509,17.8254319],"ct":"HU","tp":"CS","ts":"2025-03-10T08:57:27Z","tX":562,"tY":360,"tags":{"name":"Örvényes","phone":"+36 20 332 5779"}},"12081551770":{"location":[46.9463191,17.8771804],"ct":"HU","tp":"CS","ts":"2024-07-29T18:47:02Z","tX":562,"tY":360,"tags":{"name":"Happy Camp - Balatontourist Füred Camping&Bungalow"}},"12640820134":{"location":[46.8304351,17.9052885],"ct":"HU","tp":"CS","ts":"2025-03-06T13:09:17Z","tX":562,"tY":360,"tags":{"email":"carpediemparkhungary@gmail.com","facebook":"https://www.facebook.com/carpediemparkkoroshegy/","name":"Carpe Diem Park","phone":"+36 70 585 6998"}}}