{"230861853":{"location":[42.7842679,17.8600045],"ct":"HR","tp":"CS","ts":"2013-07-22T15:39:03Z","tX":562,"tY":377,"tags":{"name":"Autokamp Milic"}},"375983038":{"location":[42.785976,17.8904924],"ct":"HR","tp":"CS","ts":"2015-10-19T19:30:33Z","tX":562,"tY":377,"tags":{}},"434557784":{"location":[42.8030421,17.8464555],"ct":"HR","tp":"CS","ts":"2016-07-28T19:26:24Z","tX":562,"tY":377,"tags":{"name":"Budina"}},"2347344615":{"location":[42.7742727,17.8841583],"ct":"HR","tp":"CR","ts":"2015-10-19T19:32:02Z","tX":562,"tY":377,"tags":{"addr:city":"Slano","addr:country":"HR","addr:postcode":"20232","addr:street":"Put od Banje bb","alt_name":"Auto Camp Banja","email":"info@autokamp-banja.com","name":"Auto Kamp Banja","phone":"+385 20 871218","website":"www.autokamp-banja.com"}},"2347344619":{"location":[42.7913267,17.8847861],"ct":"HR","tp":"CR","ts":"2015-10-19T19:32:03Z","tX":562,"tY":377,"tags":{"addr:city":"Slano","addr:country":"HR","addr:housenumber":"1","addr:postcode":"20232","addr:street":"Kovačev brijeg","email":"baldokraljevic@yahoo.com","name":"Camping Baldo","phone":"+385 20 871 190","website":"www.baldo-apartments.net"}},"2392954600":{"location":[42.7825139,17.8756436],"ct":"HR","tp":"CS","ts":"2024-07-07T17:20:32Z","tX":562,"tY":377,"tags":{"addr:city":"Slano","addr:country":"HR","addr:place":"Grgurići","addr:postcode":"20232","addr:street":"Put od Grgurića","alt_name":"Auto Camp Rogač","caravans":"yes","email":"rogac@dubrovnik-area.com","name":"Auto Kamp Rogač","phone":"+385 20 871 081","power_supply":"yes","shower":"yes","tents":"yes","toilets":"yes"}},"3793230844":{"location":[42.7753298,17.8852592],"ct":"HR","tp":"CR","ts":"2023-06-12T11:03:37Z","tX":562,"tY":377,"tags":{"addr:city":"Slano","addr:country":"HR","addr:housenumber":"64","addr:postcode":"20232","addr:street":"Put od Banje","alt_name":"Auto Camp Bambo","email":"kamp.bambo@gmail.com","internet_access":"wlan","name":"Auto Kamp Bambo","phone":"+385 20 871 026","power_supply":"yes","sanitary_dump_station":"yes","website":"https://kamp-bambo.weebly.com/"}},"9696752222":{"location":[42.784409,17.8764885],"ct":"HR","tp":"CS","ts":"2022-09-03T09:36:01Z","tX":562,"tY":377,"tags":{"fee":"yes","internet_access":"wlan","name":"Maslina","opening_hours":"May-Sep","power_supply":"yes","shower":"yes","toilets":"yes","website":"https://camp-maslina.business.site"}}}