{"239853311":{"location":[40.2710254,17.8893244],"ct":"IT","tp":"CS","ts":"2024-09-23T10:11:08Z","tX":562,"tY":386,"tags":{"cabins":"yes","caravans":"yes","email":"info@agricampeggioleradici.it","fee":"yes","motorhome":"yes","name":"Le radici","phone":"+39 347 0034357","power_supply":"yes","power_supply:maxcurrent":"16;32","sanitary_dump_station":"yes","socket:cee_blue":"yes","source":"Survey","tents":"yes","website":"http://www.agricampeggioleradici.it"}},"406162659":{"location":[40.2138556,17.9286666],"ct":"IT","tp":"CS","ts":"2016-03-28T16:26:22Z","tX":562,"tY":386,"tags":{"name":"Camping Sant'Isidoro"}},"424325215":{"location":[40.3312342,17.6141963],"ct":"IT","tp":"CS","ts":"2016-06-11T16:14:32Z","tX":562,"tY":386,"tags":{"email":"info@villaggiotiziana.com","name":"Villaggio Tiziana","phone":"+39 099 676464","website":"http://www.villaggiotiziana.com/"}},"432571818":{"location":[40.2922755,17.7659481],"ct":"IT","tp":"CR","ts":"2024-09-23T11:05:08Z","tX":562,"tY":386,"tags":{"addr:city":"Porto Cesareo","addr:postcode":"74020","addr:street":"Via Zaccaria Treves","capacity":"18","dog":"y","fee":"yes","name":"Area Sosta Camper Il Saraceno","note":"Open April - September","phone":"+39 348 6406522","power_supply":"yes","power_supply:maxcurrent":"2","sanitary_dump_station":"yes","socket:cee_blue":"yes","website":"https://www.facebook.com/p/Area-Camper-Il-Saraceno-Punta-Prosciutto-100064391541681"}},"498502834":{"location":[40.3015387,17.7262949],"ct":"IT","tp":"CR","ts":"2024-04-03T23:27:00Z","tX":562,"tY":386,"tags":{"addr:city":"Manduria","addr:postcode":"74024","addr:street":"SP122","capacity":"28","fee":"yes","internet_access":"wlan","mobile":"+39 339 3881213","motorhome":"designated","name":"Area Sosta Camper La Salina","note":"open juli -september","phone":"+393393881213; +393404648105","power_supply":"yes","sanitary_dump_station":"yes","shower":"yes","toilets":"yes","website":"http://www.lasalina.weebly.com"}},"719424791":{"location":[40.2918477,17.8686466],"ct":"IT","tp":"CS","ts":"2019-08-28T16:01:10Z","tX":562,"tY":386,"tags":{"addr:city":"Porto Cesareo","addr:postcode":"73048","addr:street":"Strada Provinciale SP359 Salentina di Manduria","name":"Area di sosta Camper Santa Chiara","phone":"+39 392 0816155","website":"http://www.sostacampersantachiara.it"}},"1228626410":{"location":[40.3048775,17.6915211],"ct":"IT","tp":"CR","ts":"2024-09-23T13:01:14Z","tX":562,"tY":386,"tags":{"bbq":"yes","dog":"yes","drinking_water":"yes","fee":"yes","internet_access":"wlan","name":"Brezza di Mare","power_supply":"yes","reservation":"yes","socket:cee_blue":"yes","website":"https://www.brezzadimareareacamper.it/","wheelchair":"yes"}},"1317555766":{"location":[40.2918626,17.8275481],"ct":"IT","tp":"CS","ts":"2024-09-23T10:43:31Z","tX":562,"tY":386,"tags":{"cabins":"yes","caravans":"yes","drinking_water":"yes","email":"booking@portocesareocamping.it","fee":"yes","motorhome":"yes","name":"Porto cesareo Camping","phone":"+39  0833 565312","power_supply":"yes","power_supply:maxcurrent":"6","socket:cee_blue":"yes","tents":"yes","toilets":"yes","website":"https://www.portocesareocamping.it/","wheelchair":"yes"}},"1317557492":{"location":[40.2904625,17.8188917],"ct":"IT","tp":"CS","ts":"2024-09-23T10:57:37Z","tX":562,"tY":386,"tags":{"caravans":"yes","contact:phone":"+39 0833 565462","drinking_water":"yes","name":"Torre Castiglione","power_supply":"yes","sanitary_dump_station":"yes","shower":"yes","socket:cee_blue":"yes","stars":"4","tents":"yes","website":"https://www.torrecastiglione.it/"}},"1317557494":{"location":[40.2970729,17.8171399],"ct":"IT","tp":"CS","ts":"2024-09-23T10:57:37Z","tX":562,"tY":386,"tags":{"access":"customers","addr:city":"Porto Cesareo","addr:housenumber":"7","addr:postcode":"73010","addr:street":"Via Irlanda","cabins":"yes","caravans":"yes","email":"info@shadak.it","fee":"yes","motorhome":"yes","name":"Shadak","phone":"+39 3334200490","power_supply":"yes","sanitary_dump_station":"yes","socket:cee_blue":"yes","static_caravans":"yes","tents":"yes","website":"https://shadak.it/"}},"1317561052":{"location":[40.302442,17.7237865],"ct":"IT","tp":"CS","ts":"2024-09-23T11:11:56Z","tX":562,"tY":386,"tags":{"addr:city":"Manduria","addr:postcode":"74024","addr:street":"Via Ortona","caravans":"yes","dog":"yes","email":"vito.cazzolla@libero.it","fee":"yes","motorhome":"yes","name":"Agricampeggio Monaci","phone":"+39 334 322 8236","power_supply":"yes","shower":"yes","socket:cee_blue":"yes","toilets":"yes"}},"1317562816":{"location":[40.3055633,17.6943356],"ct":"IT","tp":"CR","ts":"2024-09-23T11:26:52Z","tX":562,"tY":386,"tags":{"addr:city":"San Pietro in Bevagna","addr:street":"Via Chidro di Specchiarica","bbq":"yes","email":"info@areacamperholiday.it","fee":"yes","name":"Area Camper Holiday","phone":"+39 3208069080","power_supply":"yes","power_supply:maxcurrent":"4;6","socket:cee_blue":"yes","website":"https://www.areacamperholiday.it/"}},"1317578589":{"location":[40.3071033,17.6555579],"ct":"IT","tp":"CR","ts":"2024-10-03T20:30:35Z","tX":562,"tY":386,"tags":{"addr:street":"Via Borraco","email":"info@sostalaspecchia.it","name":"Sosta La Specchia","phone":"+39 388 1261341","power_supply":"yes","power_supply:maxcurrent":"3","sanitary_dump_station":"yes","shower":"yes","shower:fee":"yes","socket:cee_blue":"yes","start_date":"2017","website":"https://www.sostalaspecchia.it/"}},"1317587046":{"location":[40.3035354,17.6219477],"ct":"IT","tp":"CR","ts":"2024-09-23T13:16:17Z","tX":562,"tY":386,"tags":{"bbq":"yes","drinking_water":"yes","fee":"yes","name":"Mary Gi√π Salento","phone":"+39 3483453454","power_supply":"yes","power_supply:maxcurrent":"6","socket:cee_blue":"yes","website":"https://marygiusalento.jimdofree.com/","wheelchair":"yes"}},"6875752050":{"location":[40.2921133,17.7657583],"ct":"IT","tp":"SD","ts":"2019-10-13T16:02:39Z","tX":562,"tY":386,"tags":{"access":"customers","fee":"no","operator":"ill saravceno","water_point":"yes"}},"6918804817":{"location":[40.3012903,17.7264366],"ct":"IT","tp":"SD","ts":"2019-10-26T18:07:38Z","tX":562,"tY":386,"tags":{"fee":"yes","operator":"Le Salina","water_point":"yes"}},"12194285841":{"location":[40.2904693,17.827072],"ct":"IT","tp":"SD","ts":"2024-09-23T10:43:31Z","tX":562,"tY":386,"tags":{"access":"customers","water_point":"yes"}},"12194505128":{"location":[40.3053986,17.6916349],"ct":"IT","tp":"SD","ts":"2024-09-23T13:01:14Z","tX":562,"tY":386,"tags":{"fee":"yes","water_point":"yes"}}}