{"1180007467":{"location":[-19.2652597,17.7935276],"ct":"NA","tp":"CS","ts":"2024-05-06T19:26:36Z","tX":562,"tY":567,"tags":{"access":"private","addr:city":"Tsumeb","addr:street":"C42","caravans":"yes","description":"Private campsite with own ablutions with own lawn under large Marula tree.","drinking_water":"yes","name":"Zuri Camp","operator":"Markus van der Westhuizen","phone":"+264 81 2285792","power_supply":"no","shower":"yes","tents":"yes","toilets":"yes","website":"https://zuri.camp"}},"3151450561":{"location":[-19.259987,17.7094549],"ct":"NA","tp":"CS","ts":"2025-05-27T23:51:04Z","tX":562,"tY":567,"tags":{"addr:city":"Tsumeb","addr:country":"NA","addr:street":"Kupferstrasse","bar":"yes","big_rigs":"yes","camp_type":"established","caravans":"yes","description":"Large grass terrain next to lodges near main road. New, well maintained, very well equiped provisions.","dish_washing":"yes","dryer":"yes","email":"booking@kupferquelle.com","fee":"NAD 230 (2 adults, camper)","guarded":"nighttime","internet":"WiFi","kitchen":"yes","laundry":"machine","name":"Kupferquelle Resort","opening_hours":"6:00-21:00","phone":"+264 67 220 139","restaurant":"yes","sanitary_dumpstation":"yes","shop":"convenience","shower":"hot","source":"Survey","swimming_pool":"yes","tents":"yes","toilets:disposal":"flush","toilets:position":"seated","water:location":"at_sites","water:quality":"potable","website":"https://www.kupferquelle.com"}},"11884670648":{"location":[-19.2672062,17.794566],"ct":"NA","tp":"CS","ts":"2024-05-06T20:21:02Z","tX":562,"tY":567,"tags":{"access":"private","capacity:persons":"6","caravans":"yes","drinking_water":"yes","name":"Safiri Campsite","operator":"Zuri.Camp","power_supply":"yes","shower":"yes","tents":"yes","toilets":"yes"}},"11884803395":{"location":[-19.2672676,17.7947147],"ct":"NA","tp":"CS","ts":"2024-05-06T20:21:04Z","tX":562,"tY":567,"tags":{"access":"private","capacity:persons":"6","caravans":"yes","drinking_water":"yes","name":"Tufani Campsite","operator":"Zuri.Camp","power_supply":"yes","shower":"yes","tents":"yes","toilets":"yes"}},"12184131994":{"location":[-19.2646961,17.7920504],"ct":"NA","tp":"CS","ts":"2024-09-18T13:59:09Z","tX":562,"tY":567,"tags":{"access":"customers","capacity:persons":"8","name":"Halishi","note":"Bookings +264812285792"}}}