{"4400564793":{"location":[41.445468,69.5448119],"ct":"UZ","tp":"CR","ts":"2019-04-30T13:28:56Z","tX":709,"tY":382,"tags":{"addr:street":"A.Qodiriy tor","name":"Вулканизация","name:ru":"Вулканизация","opening_hours":"Mo-Su 09:00-18:00"}},"4694705891":{"location":[41.4765672,69.579843],"ct":"UZ","tp":"CR","ts":"2017-02-20T06:23:44Z","tX":709,"tY":382,"tags":{"name":"Мастер по пайке пластмассы","name:ru":"Мастер по пайке пластмассы","opening_hours":"Mo-Sa 09:00-17:00"}},"5106245724":{"location":[41.2974082,69.3623766],"ct":"UZ","tp":"CR","ts":"2017-09-14T21:29:13Z","tX":709,"tY":382,"tags":{"name":"Гаражное хозяйство"}},"5137553123":{"location":[41.4603667,69.5489514],"ct":"UZ","tp":"CR","ts":"2024-04-03T12:08:53Z","tX":709,"tY":382,"tags":{}},"6691235785":{"location":[41.453568,69.554882],"ct":"UZ","tp":"CR","ts":"2019-08-07T14:30:45Z","tX":709,"tY":382,"tags":{"name":"Сварочный цех","phone":"+998951944433"}},"6834534396":{"location":[41.2705761,69.3105415],"ct":"UZ","tp":"CR","ts":"2019-09-29T13:43:34Z","tX":709,"tY":382,"tags":{}},"8359629217":{"location":[41.3583707,69.3412519],"ct":"UZ","tp":"CR","ts":"2021-01-25T05:56:19Z","tX":709,"tY":382,"tags":{"addr:street":"Мусамухамедова улица","name":"ch Murodova","phone":"933929747"}},"8370880317":{"location":[41.3980012,69.2608014],"ct":"UZ","tp":"CR","ts":"2021-01-28T08:57:38Z","tX":709,"tY":382,"tags":{"addr:street":"Хасанбой улица","name":"Абдусаматов","phone":"+998974801714"}},"8370880417":{"location":[41.3982188,69.2607959],"ct":"UZ","tp":"CR","ts":"2021-01-28T08:57:39Z","tX":709,"tY":382,"tags":{"addr:street":"Хасанбой улица","name":"Имомова","phone":"+998998462050"}},"8377447119":{"location":[41.3133467,69.3510127],"ct":"UZ","tp":"CR","ts":"2021-01-30T06:11:33Z","tX":709,"tY":382,"tags":{"name":"Силуэт стайл"}},"11271213899":{"location":[41.2988681,69.3634992],"ct":"UZ","tp":"CR","ts":"2023-10-18T09:03:51Z","tX":709,"tY":382,"tags":{"name":"Гаражное хозяйство"}},"11271213900":{"location":[41.3017534,69.3609458],"ct":"UZ","tp":"CR","ts":"2023-10-18T09:03:51Z","tX":709,"tY":382,"tags":{"name":"Гаражное хозяйство"}}}