{"776638163":{"location":[43.4664167,-76.1685801],"ct":"US","tp":"CS","ts":"2021-06-03T03:20:00Z","tX":295,"tY":374,"tags":{"addr:city":"Mexico","addr:flats":"17;71;74","addr:housenumber":"291","addr:postcode":"13114","addr:state":"NY","addr:street":"Tubbs Road","name":"J&J Campgrounds","nysgissam:nysaddresspointid":"OSWE063662;OSWE053290;OSWE063661;OSWE063663"}},"970159835":{"location":[43.5592015,-76.2089625],"ct":"US","tp":"CS","ts":"2021-08-03T17:35:56Z","tX":295,"tY":374,"tags":{"access":"customers","name":"Dragonfly Loop","operator":"Selkirk Shores State Park"}},"970159844":{"location":[43.5579572,-76.2097719],"ct":"US","tp":"CS","ts":"2021-08-03T17:35:56Z","tX":295,"tY":374,"tags":{"name":"Chipmunk Loop","operator":"Selkirk Shores State Park"}},"970159865":{"location":[43.5561164,-76.2081999],"ct":"US","tp":"CS","ts":"2021-08-03T17:35:56Z","tX":295,"tY":374,"tags":{"name":"Bird Loop","operator":"Selkirk Shores State Park"}},"970159866":{"location":[43.5556239,-76.2063273],"ct":"US","tp":"CS","ts":"2021-08-03T17:35:56Z","tX":295,"tY":374,"tags":{"name":"Acorn Loop","operator":"Selkirk Shores State Park"}},"1238083338":{"location":[43.3791128,-75.9823598],"ct":"US","tp":"CS","ts":"2024-01-08T15:37:22Z","tX":295,"tY":374,"tags":{"access":"unknown","addr:city":"West Monroe","addr:housenumber":"25","addr:postcode":"13167","addr:state":"NY","addr:street":"Cusson Drive","name":"Hidden Acres Campground"}},"5052417316":{"location":[43.5438582,-76.1919143],"ct":"US","tp":"CS","ts":"2017-08-23T01:18:43Z","tX":295,"tY":374,"tags":{"name":"Bears Sleepy Hollow"}}}