{"1239529065":{"location":[42.3840524,-76.0048743],"ct":"US","tp":"CS","ts":"2024-01-14T02:01:46Z","tX":295,"tY":378,"tags":{"backcountry":"no","caravans":"yes","fee":"yes","name":"Lighthouse Landing Campground","tents":"yes","website":"https://lighthouselandings.org/"}},"5734942222":{"location":[42.463052,-76.0806451],"ct":"US","tp":"CS","ts":"2021-05-28T02:35:59Z","tX":295,"tY":378,"tags":{"addr:city":"Marathon","addr:housenumber":"1165","addr:postcode":"13803","addr:state":"NY","addr:street":"Muckey Road","name":"Country Hills Campground","nysgissam:nysaddresspointid":"CORT009549","phone":"607 849-3300"}},"7697820593":{"location":[42.3906085,-76.2722719],"ct":"US","tp":"CS","ts":"2020-07-09T03:30:33Z","tX":295,"tY":378,"tags":{"backcountry":"yes","description":"Former lean-to location with fire ring, table, outhouse, and a stream nearby.","name":"Kimmie Bivouac","operator":"Finger Lakes Trail Conference","tents":"yes"}},"7697820619":{"location":[42.4605102,-76.2300324],"ct":"US","tp":"CS","ts":"2020-07-09T03:30:33Z","tX":295,"tY":378,"tags":{"backcountry":"yes","name":"Irvin Campsite","operator":"Finger Lakes Trail Conference","tents":"yes"}},"7697821667":{"location":[42.4726192,-76.1826432],"ct":"US","tp":"CS","ts":"2020-07-09T03:30:33Z","tX":295,"tY":378,"tags":{"backcountry":"yes","name":"Kells Tent Site"}},"7697821822":{"location":[42.4992665,-76.0647869],"ct":"US","tp":"CS","ts":"2020-07-09T03:30:33Z","tX":295,"tY":378,"tags":{"backcountry":"yes","capacity":"1","description":"Primitive site with a fire ring","operator":"New York State Department of Environmental Conservation","tents":"yes"}}}