{"18011289":{"location":[40.2504103,-76.2327975],"ct":"US","tp":"CS","ts":"2024-09-05T14:19:45Z","tX":295,"tY":386,"tags":{"addr:housenumber":"455","addr:postcode":"17578","addr:street":"Camp Rd","description":"Retreats, cabin rentals, outdoor activities (ex. ziplines, obstacle courses), escape rooms. Year-round family fun in Lancaster County, PA.","email":"information@refreshingmountain.com","internet_access":"wlan","name":"Refreshing Mountain Retreat and Adventure Center","phone":"+1 717-738-1490","website":"https://www.refreshingmountain.com/"}},"506304336":{"location":[40.1913149,-75.9701352],"ct":"US","tp":"CS","ts":"2024-01-02T20:41:18Z","tX":295,"tY":386,"tags":{"caravans":"yes","fee":"yes","internet_access":"wlan","internet_access:fee":"yes","name":"Sun Retreats Lancaster County","openfire":"yes","payment:cash":"yes","payment:mastercard":"yes","payment:visa":"yes","phone":"+17174455525","sanitary_dump_station":"yes","shower":"yes","tents":"yes","toilets":"yes","website":"https://www.sunoutdoors.com/pennsylvania/sun-retreats-lancaster-county","wheelchair":"limited"}},"616459887":{"location":[40.3329268,-76.1796526],"ct":"US","tp":"CS","ts":"2024-01-02T21:15:15Z","tX":295,"tY":386,"tags":{"cabins":"yes","caravans":"yes","drinking_water":"yes","fee":"yes","name":"Adventure Bound Eagles Peak Campground","openfire":"yes","phone":"+16105894800","power_supply":"yes","sanitary_dump_station":"yes","shower":"yes","toilets":"yes","website":"https://abcamping.com/abeaglespeak/"}},"664467825":{"location":[40.2946561,-76.2033593],"ct":"US","tp":"CS","ts":"2019-01-18T17:59:27Z","tX":295,"tY":386,"tags":{"name":"Cocalico Creek Campground"}},"971048656":{"location":[40.1901421,-76.1189118],"ct":"US","tp":"CS","ts":"2023-08-17T21:43:13Z","tX":295,"tY":386,"tags":{"addr:city":"Ephrata","addr:housenumber":"225","addr:postcode":"17522","addr:state":"PA","addr:street":"Woodcrest Road","backcountry":"no","cabins":"yes","caravans":"yes","denomination":"mennonite","drinking_water":"yes","fee":"yes","group_only":"no","internet_access":"wlan","internet_access:fee":"no","lit":"no","name":"Woodcrest Retreat","nudism":"no","openfire":"yes","operator":"Woodcrest Retreat Association","operator:type":"religious","phone":"+1 717-738-2233","picnic_table":"yes","power_supply":"yes","religion":"christian","reservation":"required","sanitary_dump_station":"yes","shower":"yes","tents":"yes","toilets":"yes","washing_machine":"no","website":"https://www.woodcrestretreat.org/"}},"1233159273":{"location":[40.2383807,-76.1031768],"ct":"US","tp":"CS","ts":"2023-12-25T11:50:42Z","tX":295,"tY":386,"tags":{"cabins":"yes","caravans":"yes","fee":"yes","name":"Dutch Cousin Campground","openfire":"yes","phone":"+17173366911","sanitary_dump_station":"yes","shower":"yes","tents":"yes","toilets":"yes","website":"https://dutchcousin.com/"}},"1233159650":{"location":[40.2624009,-76.1620796],"ct":"US","tp":"CS","ts":"2023-12-25T11:50:41Z","tX":295,"tY":386,"tags":{"cabins":"yes","caravans":"yes","fee":"yes","name":"Hickory Run Campground","openfire":"yes","phone":"+18004580612","power_supply":"yes","sanitary_dump_station":"yes","shower":"yes","toilets":"yes","website":"https://www.hickoryruncampground.com/"}},"1233160230":{"location":[40.2404796,-76.0843753],"ct":"US","tp":"CS","ts":"2023-12-25T11:50:43Z","tX":295,"tY":386,"tags":{"cabins":"yes","caravans":"yes","fee":"yes","name":"Shady Grove Campground","openfire":"yes","phone":"+17174844225","shower":"yes","tents":"yes","toilets":"yes","website":"https://www.shadygrovecampground.com/"}},"1236418430":{"location":[40.2071167,-75.9919614],"ct":"US","tp":"CS","ts":"2025-06-06T15:49:21Z","tX":295,"tY":386,"tags":{"cabins":"yes","caravans":"yes","fee":"yes","name":"Sun Valley Campground","openfire":"yes","phone":"+17174456262","sanitary_dump_station":"yes","shower":"yes","toilets":"yes","website":"https://thousandtrails.com/pennsylvania/sun-valley-rv-resort/"}},"1236429979":{"location":[40.3291591,-76.215508],"ct":"US","tp":"CS","ts":"2024-01-02T21:00:13Z","tX":295,"tY":386,"tags":{"caravans":"yes","drinking_water":"yes","fee":"yes","name":"Shady Oaks Family Campground","openfire":"yes","phone":"+17179493177","power_supply":"yes","sanitary_dump_station":"yes","shower":"yes","tents":"yes","toilets":"yes","website":"https://shadyoaksfamilycampground.com/"}},"1236435824":{"location":[40.2534534,-76.2384081],"ct":"US","tp":"CS","ts":"2024-09-05T14:19:45Z","tX":295,"tY":386,"tags":{"caravans":"yes","drinking_water":"yes","fee":"yes","name":"Starlite Camping Resort","openfire":"yes","phone":"+17177339655","power_supply":"yes","shower":"yes","toilets":"yes","website":"https://www.starlitecampingresort.com/"}},"1392726395":{"location":[40.1996265,-75.9856995],"ct":"US","tp":"CS","ts":"2025-06-06T15:49:21Z","tX":295,"tY":386,"tags":{"cabins":"yes","caravans":"yes","drinking_water":"yes","fee":"yes","name":"Adventure Bound Camping Resort Oak Creek","openfire":"yes","phone":"+17174456161","power_supply":"yes","sanitary_dump_station":"yes","shower":"yes","toilets":"yes","website":"https://www.abcamping.com/aboakcreek/"}},"5545507888":{"location":[40.2963144,-76.1832228],"ct":"US","tp":"CS","ts":"2018-04-11T14:37:54Z","tX":295,"tY":386,"tags":{"addr:city":"Denver","addr:housenumber":"480","addr:postcode":"17517","addr:state":"PA","addr:street":"Forest Road","email":"info@campconquest.org","name":"Camp Conquest","phone":"+1-717-336-2541","website":"https://campconquest.org/"}},"11480746435":{"location":[40.200825,-75.9891325],"ct":"US","tp":"CS","ts":"2024-01-02T20:35:02Z","tX":295,"tY":386,"tags":{"cabins":"yes","caravans":"yes","drinking_water":"yes","fee":"yes","name":"Adventure Bound Camping Resort Oak Creek","openfire":"yes","phone":"+17174456161","power_supply":"yes","sanitary_dump_station":"yes","shower":"yes","toilets":"yes","website":"https://www.abcamping.com/aboakcreek/"}},"8994269072":{"location":[40.1910361,-76.1230398],"ct":"US","tp":"SD","ts":"2021-08-09T21:40:10Z","tX":295,"tY":386,"tags":{}},"12945373167":{"location":[40.2154079,-75.9750464],"ct":"US","tp":"CS","ts":"2025-06-22T20:57:20Z","tX":295,"tY":386,"tags":{"addr:city":"Mohnton","addr:housenumber":"5028","addr:postcode":"19540","addr:state":"PA","addr:street":"Camp Road","alt_name":"Penn Sylvan Health Society","name":"PSHS Inc."}}}