{"150871189":{"location":[40.0294712,-76.2145474],"ct":"US","tp":"CS","ts":"2024-01-02T16:41:00Z","tX":295,"tY":387,"tags":{"addr:city":"Lancaster","addr:housenumber":"2249","addr:postcode":"17602","addr:state":"PA","addr:street":"Lincoln Highway East","cabins":"yes","caravans":"yes","fee":"yes","name":"Old Mill Stream Campground","openfire":"yes","power_supply":"yes","sanitary_dump_station":"yes","shower":"yes","tents":"yes","toilets":"yes","website":"http://www.oldmillstreamcampground.com/"}},"364973410":{"location":[40.06653,-76.0120647],"ct":"US","tp":"CS","ts":"2024-01-02T20:55:55Z","tX":295,"tY":387,"tags":{"cabins":"yes","caravans":"yes","drinking_water":"yes","fee":"yes","name":"Spring Gulch RV Campground","phone":"+17173543100","power_supply":"yes","shower":"yes","tents":"yes","toilets":"yes","website":"https://thousandtrails.com/pennsylvania/spring-gulch-rv-campground/"}},"744532822":{"location":[40.0577093,-76.021707],"ct":"US","tp":"CR","ts":"2024-01-17T03:40:38Z","tX":295,"tY":387,"tags":{"alt_name":"KOA Campground","brand":"KOA","brand:wikidata":"Q16988635","name":"KOA Kampground","name:en":"KOA","short_name":"KOA"}},"1029939158":{"location":[40.0654002,-76.017729],"ct":"US","tp":"CS","ts":"2023-05-02T15:19:33Z","tX":295,"tY":387,"tags":{"access":"private","addr:city":"New Holland","addr:housenumber":"475","addr:postcode":"17557","addr:state":"PA","addr:street":"Lynch Road","capacity:caravans":"419","check_date":"2023-05-02","fee":"yes","name":"Spring Gulch RV Campground","opening_hours":"Mar 23-Nov 5 00:00-24:00","phone":"+1-877-570-2267","shower":"yes","toilets":"yes","website":"https://springgulch.com/"}},"1236327952":{"location":[40.0151029,-76.1459923],"ct":"US","tp":"CS","ts":"2024-04-27T19:21:26Z","tX":295,"tY":387,"tags":{"addr:city":"Gordonville","addr:housenumber":"20","addr:postcode":"17529","addr:state":"PA","addr:street":"Leven Road","cabins":"yes","caravans":"yes","drinking_water":"yes","email":"centralreservations@bird-in-hand.com","fax":"+1 717-687-9503","fee":"yes","internet_access":"yes","name":"Country Acres Campground","operator":"Kenn Bennett","phone":"+1 717-687-8014","power_supply":"yes","shower":"yes","tents":"yes","toilets":"yes","website":"https://bird-in-hand.com/country-acres-campground/"}},"1236335435":{"location":[40.0462921,-76.1146521],"ct":"US","tp":"CS","ts":"2024-01-02T16:28:17Z","tX":295,"tY":387,"tags":{"cabins":"yes","caravans":"yes","fee":"yes","name":"Beacon Hill Camping","openfire":"yes","phone":"+17177688775","power_supply":"yes","shower":"yes","toilets":"yes","website":"https://www.beaconhillcamping.com/"}},"1236336435":{"location":[39.984184,-76.0377648],"ct":"US","tp":"CS","ts":"2024-01-02T16:35:35Z","tX":295,"tY":387,"tags":{"caravans":"yes","email":"Info@TheLooseCabooseCampground.com","fee":"yes","name":"The Loose Caboose Campground","phone":"+17174428429","power_supply":"yes","tents":"yes","website":"https://www.theloosecaboosecampground.com/"}},"1236421067":{"location":[40.1753866,-76.0788859],"ct":"US","tp":"CS","ts":"2024-11-05T16:50:48Z","tX":295,"tY":387,"tags":{"caravans":"yes","drinking_water":"yes","fee":"yes","name":"Red Run Campground","openfire":"yes","phone":"+17174454526","power_supply":"yes","sanitary_dump_station":"yes","shower":"yes","tents":"yes","toilets":"yes","website":"http://www.redruncampground.com/"}},"1236431274":{"location":[39.9444593,-76.1405902],"ct":"US","tp":"CS","ts":"2024-02-08T08:13:19Z","tX":295,"tY":387,"tags":{"caravans":"yes","drinking_water":"yes","fee":"yes","name":"White Oak Campground","openfire":"yes","phone":"+17176876207","power_supply":"yes","sanitary_dump_station":"yes","website":"https://www.whiteoakcampground.com/"}},"1236433617":{"location":[40.0244053,-76.1672463],"ct":"US","tp":"CS","ts":"2024-02-08T08:13:18Z","tX":295,"tY":387,"tags":{"cabins":"yes","caravans":"yes","fee":"yes","name":"Flory's Cottages & Camping","openfire":"no","phone":"+17176876670","website":"https://www.floryscamping.com/"}},"1236434278":{"location":[40.0101679,-76.1603353],"ct":"US","tp":"CS","ts":"2024-01-02T21:24:05Z","tX":295,"tY":387,"tags":{"cabins":"yes","caravans":"yes","drinking_water":"yes","fee":"yes","name":"Mill Bridge Village Camp Resort","phone":"+17176878181","power_supply":"yes","sanitary_dump_station":"yes","shower":"yes","tents":"yes","toilets":"yes","website":"http://www.millbridge.com/"}},"9411142851":{"location":[40.011841,-76.2797595],"ct":"US","tp":"CS","ts":"2025-01-07T16:25:21Z","tX":295,"tY":387,"tags":{"access":"customers","addr:city":"Lancaster","addr:housenumber":"10","addr:postcode":"17602","addr:state":"PA","addr:street":"Natures Way","charge":"23 USD","fee":"yes","name":"Mill Creek Camping Area","operator":"Lancaster County Parks & Recreation"}}}