{"335086428":{"location":[39.7279064,-76.1241356],"ct":"US","tp":"CS","ts":"2021-09-14T14:53:18Z","tX":295,"tY":388,"tags":{"access":"private","leisure":"summer_camp","name":"Camp John H. Ware 3rd at Horseshoe Scout Reservation","operator":"Boy Scouts of America (Chester County Council)","scout":"yes"}},"744528251":{"location":[39.8380535,-76.057382],"ct":"US","tp":"CS","ts":"2024-01-02T16:37:29Z","tX":295,"tY":388,"tags":{"cabins":"yes","caravans":"yes","drinking_water":"yes","name":"Oma's Family Campground","phone":"+17175292020","power_supply":"yes","shower":"yes","toilets":"yes","website":"https://omasfamilycampground.com/"}},"942296415":{"location":[39.8569668,-76.1248811],"ct":"US","tp":"CR","ts":"2024-01-02T21:12:16Z","tX":295,"tY":388,"tags":{"brand":"Yogi Bear's Jellystone Park","brand:wikidata":"Q8054389","cabins":"yes","caravans":"yes","name":"Yogi Bear's Jellystone Park Camp-Resort: Quarryville, PA","official_name":"Yogi Bear's Jellystone Park Camp-Resorts","openfire":"yes","shower":"yes","tents":"yes","toilets":"yes","website":"https://jellystonepa.com/"}},"960206156":{"location":[39.6926824,-76.2649559],"ct":"US","tp":"CS","ts":"2024-09-17T00:34:39Z","tX":295,"tY":388,"tags":{"email":"campingservices@baltimorebsa.org","name":"Frontier","operator":"BCMSR","phone":"+1 443 573 2523","reservation":"yes","tents":"yes","website":"https://broadcreekbsa.org"}},"960206157":{"location":[39.691231,-76.2626354],"ct":"US","tp":"CS","ts":"2024-09-17T00:34:39Z","tX":295,"tY":388,"tags":{"email":"campingservices@baltimorebsa.org","name":"Flint Ridge","operator":"BCMSR","phone":"+1 443 573 2523","reservation":"yes","tents":"yes","website":"https://broadcreekbsa.org"}},"960206158":{"location":[39.6932262,-76.2635626],"ct":"US","tp":"CS","ts":"2024-09-17T00:34:39Z","tX":295,"tY":388,"tags":{"email":"campingservices@baltimorebsa.org","name":"Conowingo","operator":"BCMSR","phone":"+1 443 573 2523","reservation":"yes","tents":"yes","website":"https://broadcreekbsa.org"}},"960206159":{"location":[39.6940116,-76.2640708],"ct":"US","tp":"CS","ts":"2024-09-17T00:34:39Z","tX":295,"tY":388,"tags":{"email":"campingservices@baltimorebsa.org","name":"Timberline","operator":"BCMSR","phone":"+1 443 573 2523","reservation":"yes","tents":"yes","website":"https://broadcreekbsa.org"}},"960206161":{"location":[39.6949286,-76.2633933],"ct":"US","tp":"CS","ts":"2024-09-17T00:34:39Z","tX":295,"tY":388,"tags":{"email":"campingservices@baltimorebsa.org","name":"Dan Beard","operator":"BCMSR","phone":"+1 443 573 2523","reservation":"yes","tents":"yes","website":"https://broadcreekbsa.org"}},"960206162":{"location":[39.6962753,-76.2643757],"ct":"US","tp":"CS","ts":"2024-09-17T00:34:39Z","tX":295,"tY":388,"tags":{"email":"campingservices@baltimorebsa.org","name":"Long Range","operator":"BCMSR","phone":"+1 443 573 2523","reservation":"yes","tents":"yes","website":"https://broadcreekbsa.org"}},"960206163":{"location":[39.6960873,-76.2659468],"ct":"US","tp":"CS","ts":"2024-09-17T00:34:39Z","tX":295,"tY":388,"tags":{"email":"campingservices@baltimorebsa.org","name":"Jamestown","operator":"BCMSR","phone":"+1 443 573 2523","reservation":"yes","tents":"yes","website":"https://broadcreekbsa.org"}},"960206164":{"location":[39.6919112,-76.2693264],"ct":"US","tp":"CS","ts":"2024-09-17T00:34:39Z","tX":295,"tY":388,"tags":{"email":"campingservices@baltimorebsa.org","name":"Pioneer","operator":"BCMSR","phone":"+1 443 573 2523","reservation":"yes","tents":"yes","website":"https://broadcreekbsa.org"}},"960206165":{"location":[39.6926151,-76.270092],"ct":"US","tp":"CS","ts":"2024-09-17T00:34:39Z","tX":295,"tY":388,"tags":{"email":"campingservices@baltimorebsa.org","name":"Hawkeye","operator":"BCMSR","phone":"+1 443 573 2523","reservation":"yes","tents":"yes","website":"https://broadcreekbsa.org"}},"960206166":{"location":[39.6936628,-76.2704123],"ct":"US","tp":"CS","ts":"2024-09-17T00:34:39Z","tX":295,"tY":388,"tags":{"email":"campingservices@baltimorebsa.org","name":"Friar Tuck","operator":"BCMSR","phone":"+1 443 573 2523","reservation":"yes","tents":"yes","website":"https://broadcreekbsa.org"}},"960206167":{"location":[39.6944659,-76.270928],"ct":"US","tp":"CS","ts":"2024-09-17T00:34:39Z","tX":295,"tY":388,"tags":{"email":"campingservices@baltimorebsa.org","name":"Prospect","operator":"BCMSR","phone":"+1 443 573 2523","reservation":"yes","tents":"yes","website":"https://broadcreekbsa.org"}},"960207493":{"location":[39.6947174,-76.2649536],"ct":"US","tp":"CS","ts":"2024-09-17T00:34:39Z","tX":295,"tY":388,"tags":{"email":"campingservices@baltimorebsa.org","name":"Lookout","operator":"BCMSR","phone":"+1 443 573 2523","reservation":"yes","tents":"yes","website":"https://broadcreekbsa.org"}},"960215306":{"location":[39.685315,-76.2815603],"ct":"US","tp":"CS","ts":"2024-09-17T00:34:39Z","tX":295,"tY":388,"tags":{"email":"campingservices@baltimorebsa.org","name":"King's Mountain","operator":"BCMSR","phone":"+1 443 573 2523","reservation":"yes","tents":"yes","website":"https://broadcreekbsa.org"}},"960215307":{"location":[39.6875071,-76.2840088],"ct":"US","tp":"CS","ts":"2024-09-17T00:34:39Z","tX":295,"tY":388,"tags":{"email":"campingservices@baltimorebsa.org","name":"Crazy Horse","operator":"BCMSR","phone":"+1 443 573 2523","reservation":"yes","tents":"yes","website":"https://broadcreekbsa.org"}},"960215308":{"location":[39.6875372,-76.2831336],"ct":"US","tp":"CS","ts":"2024-09-17T00:34:39Z","tX":295,"tY":388,"tags":{"email":"campingservices@baltimorebsa.org","name":"Custer","operator":"BCMSR","phone":"+1 443 573 2523","reservation":"yes","tents":"yes","website":"https://broadcreekbsa.org"}},"960215309":{"location":[39.6864497,-76.2828386],"ct":"US","tp":"CS","ts":"2024-09-17T00:34:39Z","tX":295,"tY":388,"tags":{"email":"campingservices@baltimorebsa.org","name":"Cody","operator":"BCMSR","phone":"+1 443 573 2523","reservation":"yes","tents":"yes","website":"https://broadcreekbsa.org"}},"960215310":{"location":[39.6864621,-76.2808062],"ct":"US","tp":"CS","ts":"2024-09-17T00:34:39Z","tX":295,"tY":388,"tags":{"email":"campingservices@baltimorebsa.org","name":"Kit Carson","operator":"BCMSR","phone":"+1 443 573 2523","reservation":"yes","tents":"yes","website":"https://broadcreekbsa.org"}},"960215311":{"location":[39.6877377,-76.2817588],"ct":"US","tp":"CS","ts":"2024-09-17T00:34:39Z","tX":295,"tY":388,"tags":{"email":"campingservices@baltimorebsa.org","name":"Cochise","operator":"BCMSR","phone":"+1 443 573 2523","reservation":"yes","tents":"yes","website":"https://broadcreekbsa.org"}},"960215312":{"location":[39.6880173,-76.2791125],"ct":"US","tp":"CS","ts":"2024-09-17T00:34:39Z","tX":295,"tY":388,"tags":{"email":"campingservices@baltimorebsa.org","name":"Yukon","operator":"BCMSR","phone":"+1 443 573 2523","reservation":"yes","tents":"yes","website":"https://broadcreekbsa.org"}},"960215313":{"location":[39.6890387,-76.2727488],"ct":"US","tp":"CS","ts":"2024-09-17T00:34:39Z","tX":295,"tY":388,"tags":{"email":"campingservices@baltimorebsa.org","name":"Davy Crockett","operator":"BCMSR","phone":"+1 443 573 2523","reservation":"yes","tents":"yes","website":"https://broadcreekbsa.org"}},"960215314":{"location":[39.6888494,-76.2742126],"ct":"US","tp":"CS","ts":"2024-09-17T00:34:39Z","tX":295,"tY":388,"tags":{"email":"campingservices@baltimorebsa.org","name":"Windy Hills","operator":"BCMSR","phone":"+1 443 573 2523","reservation":"yes","tents":"yes","website":"https://broadcreekbsa.org"}},"960215315":{"location":[39.6891879,-76.2763821],"ct":"US","tp":"CS","ts":"2024-09-17T00:34:39Z","tX":295,"tY":388,"tags":{"email":"campingservices@baltimorebsa.org","name":"Wildcat Pass","operator":"BCMSR","phone":"+1 443 573 2523","reservation":"yes","tents":"yes","website":"https://broadcreekbsa.org"}},"960215316":{"location":[39.689455,-76.2774626],"ct":"US","tp":"CS","ts":"2024-09-17T00:34:39Z","tX":295,"tY":388,"tags":{"email":"campingservices@baltimorebsa.org","name":"Jim Bridger","operator":"BCMSR","phone":"+1 443 573 2523","reservation":"yes","tents":"yes","website":"https://broadcreekbsa.org"}},"960215317":{"location":[39.6894768,-76.2788566],"ct":"US","tp":"CS","ts":"2024-09-17T00:34:39Z","tX":295,"tY":388,"tags":{"email":"campingservices@baltimorebsa.org","name":"Arrowhead","operator":"BCMSR","phone":"+1 443 573 2523","reservation":"yes","tents":"yes","website":"https://broadcreekbsa.org"}},"960215318":{"location":[39.6838123,-76.2620644],"ct":"US","tp":"CS","ts":"2024-09-17T00:34:39Z","tX":295,"tY":388,"tags":{"email":"campingservices@baltimorebsa.org","name":"Staff Area","operator":"BCMSR","phone":"+1 443 573 2523","reservation":"yes","tents":"yes","website":"https://broadcreekbsa.org"}},"960215319":{"location":[39.6882473,-76.2611901],"ct":"US","tp":"CS","ts":"2024-09-17T00:34:39Z","tX":295,"tY":388,"tags":{"email":"campingservices@baltimorebsa.org","name":"Couga's Lair","operator":"BCMSR","phone":"+1 443 573 2523","reservation":"yes","tents":"yes","website":"https://broadcreekbsa.org"}},"960215320":{"location":[39.6877354,-76.2625917],"ct":"US","tp":"CS","ts":"2024-09-17T00:34:39Z","tX":295,"tY":388,"tags":{"email":"campingservices@baltimorebsa.org","name":"Eagles Nest","operator":"BCMSR","phone":"+1 443 573 2523","reservation":"yes","tents":"yes","website":"https://broadcreekbsa.org"}},"960215322":{"location":[39.6864789,-76.2615545],"ct":"US","tp":"CS","ts":"2024-09-17T00:34:39Z","tX":295,"tY":388,"tags":{"email":"campingservices@baltimorebsa.org","name":"Apache Bluff","operator":"BCMSR","phone":"+1 443 573 2523","reservation":"yes","tents":"yes","website":"https://broadcreekbsa.org"}},"960215323":{"location":[39.6854283,-76.2621044],"ct":"US","tp":"CS","ts":"2024-09-17T00:34:39Z","tX":295,"tY":388,"tags":{"email":"campingservices@baltimorebsa.org","name":"John Henry","operator":"BCMSR","phone":"+1 443 573 2523","reservation":"yes","tents":"yes","website":"https://broadcreekbsa.org"}},"960215324":{"location":[39.6854083,-76.2633121],"ct":"US","tp":"CS","ts":"2024-09-17T00:34:39Z","tX":295,"tY":388,"tags":{"email":"campingservices@baltimorebsa.org","name":"Navajo Canyon","operator":"BCMSR","phone":"+1 443 573 2523","reservation":"yes","tents":"yes","website":"https://broadcreekbsa.org"}},"960215325":{"location":[39.6841202,-76.2651543],"ct":"US","tp":"CS","ts":"2024-09-17T00:34:39Z","tX":295,"tY":388,"tags":{"email":"campingservices@baltimorebsa.org","name":"Granite Peak","operator":"BCMSR","phone":"+1 443 573 2523","reservation":"yes","tents":"yes","website":"https://broadcreekbsa.org"}},"960215326":{"location":[39.6847041,-76.2652831],"ct":"US","tp":"CS","ts":"2024-09-17T00:34:39Z","tX":295,"tY":388,"tags":{"email":"campingservices@baltimorebsa.org","name":"Marble Hill","operator":"BCMSR","phone":"+1 443 573 2523","reservation":"yes","tents":"yes","website":"https://broadcreekbsa.org"}},"960215327":{"location":[39.6856147,-76.2667039],"ct":"US","tp":"CS","ts":"2024-09-17T00:34:39Z","tX":295,"tY":388,"tags":{"email":"campingservices@baltimorebsa.org","name":"Towering Oaks","operator":"BCMSR","phone":"+1 443 573 2523","reservation":"yes","tents":"yes","website":"https://broadcreekbsa.org"}},"960215328":{"location":[39.6864675,-76.2675117],"ct":"US","tp":"CS","ts":"2024-09-17T00:34:39Z","tX":295,"tY":388,"tags":{"email":"campingservices@baltimorebsa.org","name":"Maple Woods","operator":"BCMSR","phone":"+1 443 573 2523","reservation":"yes","tents":"yes","website":"https://broadcreekbsa.org"}},"960215329":{"location":[39.6819015,-76.2613334],"ct":"US","tp":"CS","ts":"2024-09-17T00:34:39Z","tX":295,"tY":388,"tags":{"email":"campingservices@baltimorebsa.org","name":"Baden Powell","operator":"BCMSR","phone":"+1 443 573 2523","reservation":"yes","tents":"yes","website":"https://broadcreekbsa.org"}},"960215330":{"location":[39.6847006,-76.2620598],"ct":"US","tp":"CS","ts":"2024-09-17T00:34:39Z","tX":295,"tY":388,"tags":{"email":"campingservices@baltimorebsa.org","name":"Paul Bunyan","operator":"BCMSR","phone":"+1 443 573 2523","reservation":"yes","tents":"yes","website":"https://broadcreekbsa.org"}},"960215331":{"location":[39.6844918,-76.2595171],"ct":"US","tp":"CS","ts":"2024-09-17T00:34:39Z","tX":295,"tY":388,"tags":{"email":"campingservices@baltimorebsa.org","name":"Wendigo","operator":"BCMSR","phone":"+1 443 573 2523","reservation":"yes","tents":"yes","website":"https://broadcreekbsa.org"}},"960215332":{"location":[39.6830174,-76.260541],"ct":"US","tp":"CS","ts":"2024-09-17T00:34:39Z","tX":295,"tY":388,"tags":{"email":"campingservices@baltimorebsa.org","name":"Urner Goodman","operator":"BCMSR","phone":"+1 443 573 2523","reservation":"yes","tents":"yes","website":"https://broadcreekbsa.org"}},"960215333":{"location":[39.6822235,-76.2596382],"ct":"US","tp":"CS","ts":"2024-09-17T00:34:39Z","tX":295,"tY":388,"tags":{"email":"campingservices@baltimorebsa.org","name":"Thompson Seton","operator":"BCMSR","phone":"+1 443 573 2523","reservation":"yes","tents":"yes","website":"https://broadcreekbsa.org"}},"960215334":{"location":[39.697845,-76.2663146],"ct":"US","tp":"CS","ts":"2024-09-17T00:34:39Z","tX":295,"tY":388,"tags":{"email":"campingservices@baltimorebsa.org","name":"Family Cabins & Staff Camp","operator":"BCMSR","phone":"+1 443 573 2523","reservation":"yes","tents":"yes","website":"https://broadcreekbsa.org"}},"960824746":{"location":[39.6962136,-76.2652267],"ct":"US","tp":"CS","ts":"2024-09-17T00:34:39Z","tX":295,"tY":388,"tags":{"email":"campingservices@baltimorebsa.org","name":"Susquehanna","operator":"BCMSR","phone":"+1 443 573 2523","reservation":"yes","tents":"yes","website":"https://broadcreekbsa.org"}},"960834229":{"location":[39.6927142,-76.2627869],"ct":"US","tp":"CS","ts":"2024-09-17T00:34:39Z","tX":295,"tY":388,"tags":{"email":"campingservices@baltimorebsa.org","name":"Pine Grove","operator":"BCMSR","phone":"+1 443 573 2523","reservation":"yes","tents":"yes","website":"https://broadcreekbsa.org"}},"960834230":{"location":[39.6915619,-76.2620031],"ct":"US","tp":"CS","ts":"2024-09-17T00:34:39Z","tX":295,"tY":388,"tags":{"email":"campingservices@baltimorebsa.org","name":"Deep Run","operator":"BCMSR","phone":"+1 443 573 2523","reservation":"yes","tents":"yes","website":"https://broadcreekbsa.org"}},"960834231":{"location":[39.6931017,-76.2702722],"ct":"US","tp":"CS","ts":"2024-09-17T00:34:39Z","tX":295,"tY":388,"tags":{"email":"campingservices@baltimorebsa.org","name":"Sherwood Forest","operator":"BCMSR","phone":"+1 443 573 2523","reservation":"yes","tents":"yes","website":"https://broadcreekbsa.org"}},"982249610":{"location":[39.7150671,-76.1256829],"ct":"US","tp":"CS","ts":"2021-09-13T19:19:34Z","tX":295,"tY":388,"tags":{"access":"private","leisure":"summer_camp","name":"Horseshoe Scout Reservation","operator":"Boy Scouts of America Chester County Council","scout":"yes"}},"982840268":{"location":[39.7229618,-76.1303084],"ct":"US","tp":"CS","ts":"2025-01-16T20:29:59Z","tX":295,"tY":388,"tags":{"access":"private","leisure":"summer_camp","name":"Camp Horseshoe at Horseshoe Scout Reservation;Camp Horseshoe Boy Scout Camp","operator":"Boy Scouts of America Chester County Council","scout":"yes"}},"982866524":{"location":[39.7151075,-76.115775],"ct":"US","tp":"CS","ts":"2025-01-16T20:29:59Z","tX":295,"tY":388,"tags":{"access":"private","leisure":"summer_camp","name":"Horseshoe Scout Reservation","operator":"Boy Scouts of America Chester County Council","scout":"yes"}},"1204228675":{"location":[39.8717791,-76.1075196],"ct":"US","tp":"CS","ts":"2024-03-11T16:52:58Z","tX":295,"tY":388,"tags":{"denomination":"mennonite","leisure":"summer_camp","name":"Black Rock Retreat","religion":"christian"}},"1359393444":{"location":[39.6450244,-76.1734104],"ct":"US","tp":"CS","ts":"2025-03-22T17:13:22Z","tX":295,"tY":388,"tags":{"access":"yes","addr:housenumber":"2564","addr:street":"Silver Road","backcountry":"no","camp_site":"serviced","fee":"yes","group_only":"yes","name":"Ramblewood","phone":"+1 410-457-4228","reservation":"required","website":"https://www.ramblewood.com/"}},"6968130961":{"location":[39.8404326,-76.253607],"ct":"US","tp":"CS","ts":"2023-11-06T23:09:13Z","tX":295,"tY":388,"tags":{"name":"Camp Andrews","website":"https://campandrews.org/"}},"6968258843":{"location":[39.6452282,-76.1730212],"ct":"US","tp":"CS","ts":"2019-11-12T07:09:40Z","tX":295,"tY":388,"tags":{"addr:housenumber":"2564","addr:street":"Silver Road","name":"Ramblewood","website":"https://www.ramblewood.com/"}},"7553563254":{"location":[39.6893584,-76.1960291],"ct":"US","tp":"CS","ts":"2020-05-24T11:52:17Z","tX":295,"tY":388,"tags":{"access":"private","addr:city":"Conowingo","addr:housenumber":"46","addr:postcode":"21918","addr:state":"MD","addr:street":"Camp Shadowbrook Road","name":"Camp Conowingo","operator":"Girl Scouts of Central Maryland"}},"7558780521":{"location":[39.7002567,-76.1931664],"ct":"US","tp":"CS","ts":"2024-10-31T19:49:37Z","tX":295,"tY":388,"tags":{"access":"private","name":"Shadowbrook","operator":"Girl Scouts of Central Maryland"}},"8829627820":{"location":[39.8536431,-76.2828739],"ct":"US","tp":"CS","ts":"2024-01-02T16:11:35Z","tX":295,"tY":388,"tags":{"addr:city":"Holtwood","addr:housenumber":"172","addr:street":"Bethesda Church Road West","caravans":"yes","check_date":"2023-05-04","drinking_water":"yes","fee":"yes","name":"Muddy Run","openfire":"yes","phone":"+1 717-284-5850","power_supply":"yes","shower":"yes","tents":"yes","toilets":"yes","website":"https://muddyruncampground.com/"}}}