{"6835595":{"location":[39.2381035,-76.2036609],"ct":"US","tp":"CS","ts":"2019-11-12T02:36:27Z","tX":295,"tY":390,"tags":{"addr:city":"Chestertown","addr:housenumber":"22242","addr:state":"MD","addr:street":"Bay Shore Road","name":"Camp Fairlee Manor","operator":"Easterseals Delaware & Maryland's Eastern Shore","website":"https://www.easterseals.com/de/our-programs/camping-recreation/"}},"14411501":{"location":[39.3539082,-76.1262883],"ct":"US","tp":"CS","ts":"2022-08-01T18:32:22Z","tX":295,"tY":390,"tags":{"addr:city":"Worton","addr:housenumber":"24370","addr:postcode":"21678","addr:state":"MD","addr:street":"Still Pond Neck Road","cabins":"yes","caravans":"no","name":"YMCA Camp Tockwogh","operator":"YMCA of Delaware"}},"554344515":{"location":[39.1323108,-76.0669256],"ct":"US","tp":"CS","ts":"2019-11-11T00:20:37Z","tX":295,"tY":390,"tags":{"addr:housenumber":"410","addr:street":"Jack Elliot Way","name":"Pecometh","website":"https://www.pecometh.org/"}},"752085375":{"location":[39.243097,-75.9760804],"ct":"US","tp":"CS","ts":"2019-12-04T01:50:48Z","tX":295,"tY":390,"tags":{"addr:city":"Chestertown","addr:housenumber":"500","addr:state":"MD","addr:street":"Double Creek Road","name":"Duckneck Campground","website":"https://chesapeakervcampground.com/"}},"9879561038":{"location":[39.3629783,-75.9901156],"ct":"US","tp":"CS","ts":"2022-07-10T19:32:54Z","tX":295,"tY":390,"tags":{"group_only":"yes","name":"Youth Group Camping Area"}}}