{"447506567":{"location":[21.0231647,-76.1107625],"ct":"CU","tp":"CS","ts":"2023-10-07T10:14:09Z","tX":295,"tY":450,"tags":{"drinking_water":"yes","name":"Campismo Silla de Gibara","power_supply":"yes","shower":"yes","toilets":"yes","wheelchair":"limited"}},"6479775585":{"location":[21.112774,-76.1295723],"ct":"CU","tp":"CS","ts":"2022-05-26T11:03:20Z","tX":295,"tY":450,"tags":{"addr:street":"José Mora","name":"Campamento de la iglesia Los Amigos","name:es":"Campamento de la iglesia Los Amigos"}},"7136074085":{"location":[21.208646,-76.243879],"ct":"CU","tp":"CS","ts":"2020-01-16T11:31:32Z","tX":295,"tY":450,"tags":{"name":"Campismo Popular El Atlántico"}},"11084717812":{"location":[21.1032431,-76.0780357],"ct":"CU","tp":"CS","ts":"2023-08-05T09:16:52Z","tX":295,"tY":450,"tags":{"addr:country":"CU","addr:hamlet":"Los Bajos","contact:mobile":"+53 5 2198783","contact:phone":"+53 5 2198783","internet_access":"wlan","name":"Campismo Popular Los Bajos","operator":"Campismo popular","reservation":"recommended","tents":"yes"}},"12575780001":{"location":[21.0740606,-76.1607563],"ct":"CU","tp":"CS","ts":"2025-02-10T19:46:30Z","tX":295,"tY":450,"tags":{"name:en":"Campamento Sinaí IASD"}}}