{"14393343":{"location":[53.2251521,6.1594945],"ct":"NL","tp":"CS","ts":"2022-07-27T22:57:05Z","tX":529,"tY":332,"tags":{"addr:city":"Augustinusga","addr:housenumber":"30","addr:postcode":"9284XH","addr:street":"Blauforlaet","caravans":"yes","contact:email":"info@minicampingblauforlaet.nl","contact:mobile":"+31 6 13973849","contact:website":"https://minicampingblauforlaet.nl/","name":"Minicamping Blauforlaet","tents":"yes"}},"16005667":{"location":[53.2620273,6.0270175],"ct":"NL","tp":"CS","ts":"2023-06-21T21:34:22Z","tX":529,"tY":332,"tags":{"cabins":"yes","caravans":"yes","contact:email":"zilverenmaan@hetnet.nl","mobile":"+31 6 13430177","name":"De Zilveren Maan","phone":"+31 511 442 957","shower":"yes","tents":"yes","toilets":"yes","website":"https://www.zilverenmaan.nl"}},"16139583":{"location":[53.126751,5.9849974],"ct":"NL","tp":"CS","ts":"2023-07-29T10:56:49Z","tX":529,"tY":332,"tags":{"cabins":"yes","caravans":"yes","email":"stjelp@camping-de-stjelp.nl","landcover":"grass","mobile":"+31 6 13380899","name":"De Stjelp","phone":"+31 512 372 270","shower":"yes","tents":"yes","toilets":"yes","website":"https://www.camping-de-stjelp.nl/"}},"26859199":{"location":[53.191389,6.024722],"ct":"NL","tp":"CS","ts":"2022-07-16T07:11:39Z","tX":529,"tY":332,"tags":{"contact:website":"https://www.bergumermeer.nl","name":"Bergumermeer","name:nl":"Bergumermeer via Henk erg mooi","toilets:wheelchair":"yes","wheelchair":"yes"}},"38118502":{"location":[53.3269145,6.0039194],"ct":"NL","tp":"CS","ts":"2023-05-30T12:17:21Z","tX":529,"tY":332,"tags":{"addr:city":"Dokkum","addr:housenumber":"1A","addr:postcode":"9101XA","addr:street":"Harddraversdijk","caravans":"yes","email":"info@campingdokkum.nl","name":"Camping Dokkum","phone":"+31 519 294 445","tents":"yes","website":"https://campingdokkum.nl"}},"49213786":{"location":[53.3019785,6.1627831],"ct":"NL","tp":"CS","ts":"2020-04-29T14:33:18Z","tX":529,"tY":332,"tags":{"camp_site":"serviced","caravans":"yes","dog":"yes","fee":"yes","internet_access":"wlan","name":"it Dreamlân","power_supply":"yes","sanitary_dump_station":"yes","shower":"yes","tents":"yes","toilets":"yes","washing_machine":"yes","website":"https://www.itdreamlan.nl"}},"50843957":{"location":[53.3251707,6.0253911],"ct":"NL","tp":"CS","ts":"2023-01-06T19:22:39Z","tX":529,"tY":332,"tags":{"name":"Schreiershoek"}},"52470130":{"location":[53.3100438,6.0295223],"ct":"NL","tp":"CS","ts":"2023-07-24T20:09:16Z","tX":529,"tY":332,"tags":{"cabins":"yes","capacity:cabins":"2","capacity:pitches":"15","caravans":"yes","email":"info@campingdestins.nl","landcover":"grass","name":"De Stins","phone":"+31 6 45969001","shower":"yes","tents":"yes","toilets":"yes","website":"https://campingdestins.nl/"}},"57720121":{"location":[53.2359893,6.0418514],"ct":"NL","tp":"CS","ts":"2023-04-01T22:26:22Z","tX":529,"tY":332,"tags":{"addr:city":"Twijzelerheide","addr:housenumber":"23A","addr:postcode":"9287NH","addr:street":"Hiltsjemuoiswâlden","capacity":"23","caravans":"yes","contact:email":"info@campingtheidestek.nl","contact:mobile":"+31 6 29127727;+31 6 30497090","contact:website":"https://www.campingtheidestek.nl/","motorhome":"yes","name":"Camping ’t Heidestek","shower":"yes","tents":"yes","toilets":"yes"}},"57733783":{"location":[53.2414076,6.0985848],"ct":"NL","tp":"CS","ts":"2022-09-17T16:01:19Z","tX":529,"tY":332,"tags":{"access":"customers","addr:city":"Twijzel","addr:housenumber":"22C","addr:postcode":"9286EV","addr:street":"De Wedze","capacity":"25","contact:email":"info@campingdewedze.nl","contact:mobile":"+31 6 25037956","contact:website":"https://www.campingdewedze.nl/","fee":"yes","internet_access":"wlan","name":"Camping De Wedze","payment:cash":"yes","payment:debit_cards":"yes","payment:maestro":"yes","source":"BAG","source:date":"2014-03-24"}},"58122690":{"location":[53.2713726,6.1508937],"ct":"NL","tp":"CS","ts":"2019-03-21T04:42:10Z","tX":529,"tY":332,"tags":{"camp_site":"serviced","caravans":"yes","drinking_water":"yes","fee":"yes","name":"Uit & Thuis","sanitary_dump_station":"yes","tents":"yes","toilets":"yes","website":"https://www.minicampinguitenthuis.nl/"}},"58294096":{"location":[53.1645068,6.1870736],"ct":"NL","tp":"CS","ts":"2023-08-19T13:11:57Z","tX":529,"tY":332,"tags":{"capacity:pitches":"15","caravans":"yes","email":"depoel6@hotmail.com","motorhome":"yes","name":"De Poel","phone":"+31 6 22843228","shower":"yes","tents":"yes","toilets":"yes","website":"https://depoelcamping.nl/"}},"58476254":{"location":[53.1759948,6.0759887],"ct":"NL","tp":"CS","ts":"2023-05-30T18:16:22Z","tX":529,"tY":332,"tags":{"addr:city":"Eastermar","addr:housenumber":"13","addr:postcode":"9261XN","addr:street":"Heidbuurtweg","contact:email":"info@theetuindewelp.nl","contact:phone":"+31 512 472 678","contact:website":"https://www.theetuindewelp.nl","name":"Camping De Welp"}},"61680843":{"location":[53.2386632,6.2215021],"ct":"NL","tp":"CS","ts":"2023-05-30T18:16:08Z","tX":529,"tY":332,"tags":{"camp_site":"serviced","caravans":"yes","fee":"yes","internet_access":"wlan","motor_vehicle":"yes","name":"De 4 Elementen","phone":"+31 512 712 400","toilets":"yes","website":"https://camping.de4elementen.nl"}},"61685059":{"location":[53.2044087,6.2595537],"ct":"NL","tp":"CR","ts":"2025-04-22T22:11:33Z","tX":529,"tY":332,"tags":{"caravan_site":"motorhome_stopover","caravan_site:type":"countryside","email":"info@landgoedjonker.nl","fee":"yes","internet_access":"yes","internet_access:fee":"no","name":"Landgoed Jonker","phone":"+31 594 612102","power_supply":"yes","power_supply:charge":"2 EUR/night;0.50 EUR/kWh","power_supply:maxcurrent":"16","shower":"yes","surface":"grass","toilets":"yes","water_point":"yes","website":"https://landgoedjonker.nl/#camperovernachtingen"}},"61685608":{"location":[53.1654869,6.2234034],"ct":"NL","tp":"CS","ts":"2023-05-30T17:10:30Z","tX":529,"tY":332,"tags":{"addr:city":"Opende","addr:housenumber":"26","addr:postcode":"9865XE","addr:street":"Openderweg","contact:email":"info@campingdewatermolen.nl","contact:phone":"+31 594 659 144","contact:website":"https://www.campingdewatermolen.nl","name":"Camping De Watermolen"}},"62305067":{"location":[53.1739893,6.3198364],"ct":"NL","tp":"CS","ts":"2023-09-07T07:05:26Z","tX":529,"tY":332,"tags":{"addr:city":"Niebert","addr:housenumber":"3A","addr:postcode":"9365PN","addr:street":"Roordaweg","caravans":"yes","name":"Recreatiepark Westerkwartier","old_name":"Camping de Akkerhoeve","phone":"+31 6 48409441","shower":"yes","static_caravans":"yues","tents":"yes","toilets":"yes","website":"https://recreatiepark-westerkwartier.nl/"}},"81748364":{"location":[53.1479366,6.0989372],"ct":"NL","tp":"CS","ts":"2023-05-30T18:16:08Z","tX":529,"tY":332,"tags":{"addr:city":"Rottevalle","addr:housenumber":"37","addr:postcode":"9221SH","addr:street":"Biltwei","contact:email":"info@ladure.nl","contact:phone":"+31 512 342 645","contact:website":"https://www.ladure.nl","name":"LaDure","source":"3dShapes"}},"82119235":{"location":[53.1207805,6.2097799],"ct":"NL","tp":"CS","ts":"2023-07-23T17:51:55Z","tX":529,"tY":332,"tags":{"caravans":"yes","email":"info@haarsterveld.nl","landcover":"grass","name":"Haarsterveld","opening_hours":"May 1 - Sep 30","phone":"+31 6 11308918","shower":"yes","source":"3dShapes","tents":"yes","toilets":"yes","website":"https://www.minicampinghaarsterveld.nl/"}},"82304463":{"location":[53.1306251,6.3073685],"ct":"NL","tp":"CS","ts":"2015-07-16T10:02:26Z","tX":529,"tY":332,"tags":{"name":"Welgelegen"}},"179712668":{"location":[53.1349004,6.2641263],"ct":"NL","tp":"CS","ts":"2023-05-30T12:19:44Z","tX":529,"tY":332,"tags":{"addr:city":"Marum","addr:housenumber":"43","addr:postcode":"9363XB","addr:street":"Lindsterlaan","contact:email":"gerbenterpstra@hetnet.nl","contact:phone":"+31 594 641 438","name":"Vrijheidshoeve"}},"182681073":{"location":[53.2156847,6.0540259],"ct":"NL","tp":"CS","ts":"2023-07-01T20:44:24Z","tX":529,"tY":332,"tags":{"addr:city":"Jistrum","addr:housenumber":"13","addr:postcode":"9258CT","addr:street":"Ieswei","brand":"SVR","caravans":"yes","contact:email":"flintertun@hetnet.nl","contact:mobile":"+31 6 53570472","contact:website":"http://www.flintertun.nl/","internet_access":"yes","motorhome":"yes","name":"De Flintertún","opening_hours":"Apr 1 - Nov 1","operator":"Daniel en Marinka","shower":"yes","tents":"yes","toilets":"yes"}},"182681087":{"location":[53.2547924,6.0606158],"ct":"NL","tp":"CS","ts":"2012-09-24T11:29:36Z","tX":529,"tY":332,"tags":{"name":"Simmerwille"}},"225704180":{"location":[53.2211982,6.0311152],"ct":"NL","tp":"CR","ts":"2023-12-28T19:53:04Z","tX":529,"tY":332,"tags":{"name":"Chaletpark Zwartkruis"}},"277868351":{"location":[53.287842,6.0876506],"ct":"NL","tp":"CS","ts":"2022-07-16T07:11:39Z","tX":529,"tY":332,"tags":{"contact:website":"https://www.campingdegreidpolle.nl","name":"de Greidpôlle"}},"293438830":{"location":[53.1534366,6.2132935],"ct":"NL","tp":"CS","ts":"2023-05-30T17:10:34Z","tX":529,"tY":332,"tags":{"addr:city":"Opende","addr:housenumber":"20","addr:postcode":"9865VZ","addr:street":"Kolonieweg","contact:email":"Jiltdijksheide@online.nl","contact:fax":"+31 594 658 165","contact:phone":"+31 594 658 165","contact:website":"https://www.jiltdijksheide.nl","name":"Camping Jiltdijksheide"}},"394421754":{"location":[53.2346737,6.2917985],"ct":"NL","tp":"CS","ts":"2016-12-25T15:38:40Z","tX":529,"tY":332,"tags":{"name":"Natuurcamping Fleremaheerd"}},"394571859":{"location":[53.294206,6.0908476],"ct":"NL","tp":"CS","ts":"2023-05-30T18:16:18Z","tX":529,"tY":332,"tags":{"addr:city":"Westergeast","addr:housenumber":"2","addr:postcode":"9295KD","addr:street":"Prellewei","contact:email":"info@campingoaneswemmer.nl","contact:phone":"+31 511 442 179","contact:website":"https://www.campingoaneswemmer.nl","name":"Oan'e Swemmer"}},"466412739":{"location":[53.1529857,6.1873216],"ct":"NL","tp":"CS","ts":"2025-05-29T22:19:27Z","tX":529,"tY":332,"tags":{"addr:city":"Opende","addr:housenumber":"2","addr:postcode":"9865VP","addr:street":"Parkweg","name":"'t Strandheem","phone":"+31 594 659555","surface":"grass","website":"https://www.strandheem.nl/"}},"546161620":{"location":[53.2666153,6.2429726],"ct":"NL","tp":"CS","ts":"2019-04-04T17:07:16Z","tX":529,"tY":332,"tags":{"name":"Camping De Twee Provinciën"}},"600863814":{"location":[53.1746254,6.0567763],"ct":"NL","tp":"SD","ts":"2018-06-22T20:04:15Z","tX":529,"tY":332,"tags":{}},"610982920":{"location":[53.3288687,6.1876279],"ct":"NL","tp":"CS","ts":"2010-01-10T16:14:43Z","tX":529,"tY":332,"tags":{"caravans":"no","name":"Natuurcamping De Pomp","tents":"yes"}},"752735754":{"location":[53.2687492,6.1354622],"ct":"NL","tp":"CS","ts":"2023-09-05T19:56:18Z","tX":529,"tY":332,"tags":{"addr:city":"Kollum","addr:housenumber":"9","addr:postcode":"9291MP","addr:street":"Trekweg","cabins":"no","camp_site":"serviced","caravans":"yes","email":"info@campingbosenpingo.nl","fee":"yes","name":"Bos & Pingo","phone":"+31 6 57926177","website":"https://campingbosenpingo.nl"}},"815961754":{"location":[53.1704382,6.2303333],"ct":"NL","tp":"CS","ts":"2020-06-14T21:14:38Z","tX":529,"tY":332,"tags":{"camp_site":"serviced","fee":"no","name":"Minimacamping Polemonium","operator":"Appie Wijma","tents":"yes"}},"819981319":{"location":[53.2809941,6.1668783],"ct":"NL","tp":"CS","ts":"2020-06-26T22:51:32Z","tX":529,"tY":332,"tags":{"camp_site":"serviced","caravans":"yes","drinking_water":"yes","fee":"yes","name":"'t Achterom","shower":"yes","tents":"yes","toilets":"yes","website":"https://minicampingtachterom.nl/"}},"877638359":{"location":[53.2665174,6.1377629],"ct":"NL","tp":"CS","ts":"2020-11-25T20:08:05Z","tX":529,"tY":332,"tags":{"camp_site":"standard","caravans":"yes","fee":"yes","operator":"Bloemenparadyske","tents":"yes","website":"https://www.bloemenparadyske.nl/camping"}},"929867858":{"location":[53.2413881,6.0190017],"ct":"NL","tp":"CR","ts":"2025-01-15T19:31:57Z","tX":529,"tY":332,"tags":{"caravan_site":"motorhome_stopover","caravan_site:type":"harbour","charge":"17 EUR","check_in":"09:00-18:00","dog":"yes","dog:fee":"no","email":"info@jachthavenkuikhorne.nl","internet_access":"wlan","internet_access:fee":"no","laundry":"yes","name":"Jachthaven ’t Eibertsnest Camperplaats Nord","opening_hours":"Mar 15-Nov 01","phone":"+31 511472775","picnic_table":"yes","power_supply":"yes","power_supply:charge":"1 EUR/2 kWh","power_supply:fee":"yes","power_supply:maxcurrent":"10","reservation":"no","sanitary_dump_station":"yes","sanitary_dump_station:fee":"no","seasonal":"yes","shower":"yes","water_point":"yes","water_point:charge":"0.10 EUR/10 liter","water_point:fee":"yes","website":"https://jachthavenkuikhorne.nl/camperplaatsen/"}},"949157634":{"location":[53.2855083,6.0379374],"ct":"NL","tp":"CS","ts":"2023-05-30T12:17:41Z","tX":529,"tY":332,"tags":{"addr:city":"Wâlterswâld","addr:housenumber":"6","addr:postcode":"9113AT","addr:street":"De Sânharst","caravans":"yes","email":"info@campingdezandhorst.nl","name":"Camping De Zandhorst","phone":"+31 519 294 925","tents":"yes","website":"https://www.campingdezandhorst.nl"}},"967463503":{"location":[53.1865371,6.0016986],"ct":"NL","tp":"CR","ts":"2025-01-25T15:22:53Z","tX":529,"tY":332,"tags":{"capacity:caravans":"22","caravan_site":"motorhome_stopover","caravan_site:type":"canal;town","charge":"13.50 EUR","dog":"leashed","drinking_water":"yes","fee":"yes","internet_access":"wlan","lit":"yes","name":"Camperplaats Prinses Magrietkanaal","picnic_table":"yes","power_supply":"yes","power_supply:charge":"2.50 EUR","power_supply:fee":"yes","power_supply:maxcurrent":"6","sanitary_dump_station":"yes","sanitary_dump_station:chemical_toilet":"yes","sanitary_dump_station:grey_water":"yes","shower":"no","surface":"grass","toilets":"no","waste_disposal":"yes","water_point":"yes","water_point:charge":"0.10 EUR/10 liter","water_point:fee":"yes"}},"1029077035":{"location":[53.2874585,6.0891826],"ct":"NL","tp":"CS","ts":"2023-05-30T12:17:42Z","tX":529,"tY":332,"tags":{"addr:city":"Westergeast","addr:housenumber":"31","addr:postcode":"9295KC","addr:street":"Eelke Meinertswei","contact:email":"info@campingdegreidpolle.nl","contact:phone":"+31 511 441 481","contact:website":"https://www.campingdegreidpolle.nl/","name":"Camping De Greidpôlle"}},"1029077037":{"location":[53.3043797,6.0893146],"ct":"NL","tp":"CS","ts":"2023-06-21T21:18:35Z","tX":529,"tY":332,"tags":{"brand":"SVR","caravans":"yes","contact:email":"info@hammerslag.nl","contact:phone":"+31 511 445 474","contact:website":"https://www.hammerslag.nl/camping/","motorhome":"yes","name":"Hammerslag","opening_hours":"Apr 15 - Oct 31","operator":"Jan en Ymkje Hania","shower":"yes","tents":"yes","toilets":"yes"}},"1076201584":{"location":[53.2596584,6.2933502],"ct":"NL","tp":"CS","ts":"2023-07-17T18:00:54Z","tX":529,"tY":332,"tags":{"addr:city":"Grijpskerk","addr:housenumber":"6","addr:postcode":"9843TN","addr:street":"Westerhornerweg","capacity:pitches":"15","contact:email":"info@elisahoeve.nl","contact:mobile":"+31 6 20024133","contact:website":"https://elisahoeve.nl/","email":"info@elisahoeve.nl","phone":"+31 6 20024133"}},"1076449253":{"location":[53.1913887,6.2725902],"ct":"NL","tp":"CR","ts":"2025-01-25T15:04:09Z","tX":529,"tY":332,"tags":{"addr:city":"Grootegast","addr:housenumber":"5","addr:postcode":"9861TH","addr:street":"Havinga's Reed","capacity":"12","caravan_site":"motorhome_stopover","caravan_site:type":"countryside","charge":"10 EUR","check_in":"08:30-22:00","dog":"leashed","email":"info@dekleinemolenpolder.nl","fee":"yes","internet_access":"wlan","internet_access:fee":"no","name":"De Kleine Molenpolder","opening_hours":"Mar 15-Nov 01","phone":"+31 6 29378152","power_supply":"yes","power_supply:charge":"2.50 EUR","power_supply:fee":"yes","sanitary_dump_station":"yes","seasonal":"yes","water_point":"yes","website":"https://dekleinemolenpolder.nl/"}},"1080881104":{"location":[53.3253787,6.0274797],"ct":"NL","tp":"CR","ts":"2025-01-25T14:38:42Z","tX":529,"tY":332,"tags":{"capacity:caravans":"14","caravan_site":"motorhome_stopover","caravan_site:type":"river;town","charge":"15 EUR","description":"fee about 15,00€","drinking_water":"yes","email":"info@camperparkdokkum.nl","fee":"yes","hot_water":"no","internet_access":"no","lit":"yes","name":"Camperpark ’t Dockumer Grootdiep","phone":"+31 519 295970","power_supply":"yes","power_supply:fee":"no","reservation":"yes","sanitary_dump_station":"yes","sanitary_dump_station:chemical_toilet":"yes","sanitary_dump_station:fee":"no","sanitary_dump_station:grey_water":"yes","shower":"no","toilets":"no","water_point":"yes","water_point:fee":"no","website":"https://www.camperparkdokkum.nl/"}},"1188162266":{"location":[53.243323,6.0194437],"ct":"NL","tp":"CR","ts":"2025-01-15T19:31:57Z","tX":529,"tY":332,"tags":{"capacity":"50","caravan_site":"motorhome_stopover","caravan_site:type":"harbour","charge":"17 EUR","check_in":"09:00-18:00","dog":"yes","dog:fee":"no","drinking_water":"yes","email":"info@jachthavenkuikhorne.nl","internet_access":"wlan","internet_access:fee":"no","laundry":"yes","name":"Jachthaven ’t Eibertsnest Camperplaats Nord","opening_hours":"Mar 15-Nov 01","phone":"+31 511472775","picnic_table":"yes","power_supply":"yes","power_supply:charge":"1 EUR/2 kWh","power_supply:fee":"yes","power_supply:maxcurrent":"10","reservation":"no","sanitary_dump_station":"yes","sanitary_dump_station:fee":"no","seasonal":"yes","shower":"yes","water_point":"yes","water_point:charge":"0.10 EUR/10 liter","water_point:fee":"yes","website":"https://jachthavenkuikhorne.nl/camperplaatsen/"}},"1190523876":{"location":[53.2763289,6.2695252],"ct":"NL","tp":"CS","ts":"2023-07-19T06:12:44Z","tX":529,"tY":332,"tags":{"cabins":"yes","capacity:pitches":"15","caravans":"yes","email":"info@campingdeblauwereiger.nl","mobile":"+31 6 10378611","motorhome":"yes","name":"De Blauwe Reiger","phone":"+31 594 688 526","short_description":"De camping is een groene oase op de scheiding van akkerbouw en veeteelt. Hier kunt u temidden van de vele (zang)vogels helemaal tot rust komen. De 13 plaatsen (±110 m2) zijn afgescheiden door middel","shower":"yes","tents":"yes","toilets":"yes","website":"https://campingdeblauwereiger.nl/"}},"1191924562":{"location":[53.2922868,6.0133505],"ct":"NL","tp":"CS","ts":"2024-12-12T13:21:00Z","tX":529,"tY":332,"tags":{"cabins":"yes","caravans":"yes","email":"info@botniahiem.nl","name":"Botniahiem","phone":"+31 6 19030612","shower":"yes","tents":"yes","toilets":"yes","website":"https://botniahiem.nl/"}},"1192192002":{"location":[53.2635695,6.2222963],"ct":"NL","tp":"CS","ts":"2023-07-25T22:03:32Z","tX":529,"tY":332,"tags":{"caravans":"yes","email":"info@minicampingdegrutteearen.nl","motorhome":"yes","name":"De Grutte Earen","phone":"+31 6 49007400","shower":"yes","tents":"yes","toilets":"yes","website":"https://www.minicampingdegrutteearen.nl"}},"1193100003":{"location":[53.2025303,6.1245372],"ct":"NL","tp":"CS","ts":"2023-07-29T10:43:37Z","tX":529,"tY":332,"tags":{"capacity:pitches":"15","caravans":"yes","email":"info@schuttersplek.nl","landcover":"grass","mobile":"+31 6 51329198","motorhome":"yes","name":"Het Schuttersplek","phone":"+31 6 50471320","shower":"yes","start_date":"2015","tents":"yes","toilets":"yes","website":"https://www.schuttersplek.nl/"}},"1193109454":{"location":[53.1999886,6.1872825],"ct":"NL","tp":"CS","ts":"2023-07-29T11:46:52Z","tX":529,"tY":332,"tags":{"capacity:pitches":"14","caravans":"yes","email":"minicampingdeweidewagen@hotmail.com","mobile":"+31 6 15624565","name":"De Weidewagen","phone":"+31 512 352 319","shower":"yes","tents":"yes","toilets":"yes","website":"https://www.minicampingdeweidewagen.nl/"}},"1198806874":{"location":[53.2480926,6.0558384],"ct":"NL","tp":"CS","ts":"2023-08-16T20:53:27Z","tX":529,"tY":332,"tags":{"caravans":"yes","landcover":"grass","name":"De Dobbe","shower":"yes","tents":"yes","toilets":"yes","website":"https://www.minicampingdedobbe.nl/"}},"1199795679":{"location":[53.1615005,6.1986271],"ct":"NL","tp":"CS","ts":"2023-08-19T13:28:08Z","tX":529,"tY":332,"tags":{"caravans":"yes","email":"gj.wijma@planet.nl","facebook":"https://www.facebook.com/wijemaheerd/","name":"Wijemaheerd","phone":"+31 6 30564908","shower":"yes","tents":"yes","toilets":"yes"}},"1205177252":{"location":[53.2775183,6.1068317],"ct":"NL","tp":"CS","ts":"2023-09-06T12:14:53Z","tX":529,"tY":332,"tags":{"name":"Camping Hústernoard"}},"1210291968":{"location":[53.307169,6.2369117],"ct":"NL","tp":"CS","ts":"2025-05-23T18:23:19Z","tX":529,"tY":332,"tags":{"capacity:motorhome":"2","capacity:pitches":"7","caravans":"yes","email":"info@logementdoosje.nl","motorhome":"yes","name":"Logement Doosje","phone":"+31 6 51951788","shower":"yes","tents":"yes","toilets":"yes","website":"https://www.logementdoosje.nl/camping/"}},"1298338779":{"location":[53.1758048,6.0545316],"ct":"NL","tp":"CR","ts":"2025-01-25T15:07:38Z","tX":529,"tY":332,"tags":{"capacity":"11","caravan_site":"motorhome_stopover","caravan_site:type":"harbour","caravans":"no","charge":"15 EUR","dog":"yes","name":"De Lits","power_supply":"yes","power_supply:fee":"yes","shower":"yes","shower:fee":"no","tents":"no","water_point":"yes","website":"https://delits.nl/nl/recreatie/camperplaatsen"}},"1354183438":{"location":[53.1495409,6.3100503],"ct":"NL","tp":"CR","ts":"2025-01-25T14:11:27Z","tX":529,"tY":332,"tags":{"caravan_site":"motorhome_stopover","caravan_site:type":"village","charge":"17 EUR","check_in":"11:00","check_out":"12:00","dog":"yes","dog:charge":"0.50 EUR","dog:fee":"yes","email":"croffel@ziggo.nl","internet_access":"wlan","internet_access:fee":"no","name":"Het knooppunt","opening_hours":"May-Sep","phone":"+31 594 549491","picnic_table":"yes","power_supply":"yes","power_supply:maxcurrent":"10","sanitary_dump_station":"yes","seasonal":"yes","shower":"yes","surface":"grass","toilets":"yes","water_point":"yes","website":"http://www.bedandbreakfasthetknooppunt.nl/camperplaatsen.html"}},"1354190885":{"location":[53.3245114,5.9932237],"ct":"NL","tp":"CR","ts":"2025-01-25T14:56:33Z","tX":529,"tY":332,"tags":{"capacity":"10","caravan_site":"motorhome_stopover","caravan_site:type":"town","charge":"14.40 EUR","check_in":"13:00","check_out":"13:00","fee":"yes","maxstay":"72 hours","name":"camperplek Dokkum","name:nl":"Camperplaats Dokkum","payment:cash":"yes","power_supply":"yes","power_supply:fee":"yes","sanitary_dump_station":"yes","sanitary_dump_station:chemical_toilet":"yes","sanitary_dump_station:grey_water":"yes","socket:cee_blue":"yes","website":"https://dokkum.nl/overnachten-dokkum/camperplaats/"}},"1354197099":{"location":[53.18709,5.9933277],"ct":"NL","tp":"CR","ts":"2025-01-25T15:28:35Z","tX":529,"tY":332,"tags":{"capacity":"11","caravan_site":"motorhome_stopover","caravan_site:type":"harbour","charge":"15 EUR","fee":"yes","internet_access":"wlan","internet_access:fee":"no","name":"Camperplaats Jachthaven WSV “Bergumermeer”","phone":"+31 6 537 591 55","power_supply":"yes","power_supply:charge":"0.50 EUR/kWh","power_supply:fee":"yes","power_supply:maxcurrent":"16","sanitary_dump_station":"yes","seasonal":"no","website":"https://wsvbergumermeer.nl/campers.html"}},"1375895351":{"location":[53.2159585,6.0664808],"ct":"NL","tp":"CR","ts":"2025-04-08T16:32:31Z","tX":529,"tY":332,"tags":{"addr:city":"Jistrum","addr:housenumber":"21","addr:postcode":"9258GM","addr:street":"De Meren","contact:email":"info@camperplaatsopdemeren.nl","contact:phone":"+31 6 512 854 09","contact:website":"https://www.camperplaatsopdemeren.nl/"}},"3815924287":{"location":[53.1703802,6.1092004],"ct":"NL","tp":"CS","ts":"2023-05-27T19:56:37Z","tX":529,"tY":332,"tags":{"addr:city":"Eastermar","addr:housenumber":"22","addr:postcode":"9261XW","addr:street":"Witveensterweg","cabin:rental":"yes","email":"info@motorcampingwitveen.nl","motorcycle:theme":"yes","name":"Motorcamping 't Witveen","operator":"Jan Nijboer & Hinke Wijbenga","phone":"+31 6 49044904","website":"https://www.motorcampingwitveen.nl"}},"5501881154":{"location":[53.2400315,6.0968381],"ct":"NL","tp":"CS","ts":"2024-06-24T08:32:09Z","tX":529,"tY":332,"tags":{"backcountry":"yes","camp_site":"basic","fee":"no","name":"Paalkampeerterrein Frytsjam","website":"https://www.frytsjam.nl/fruitkwekerij/paalkamperen/"}},"10965869494":{"location":[53.1571197,6.08111],"ct":"NL","tp":"CS","ts":"2023-06-09T17:04:51Z","tX":529,"tY":332,"tags":{"check_date":"2023-06-09","name":"Camping de Leyen"}},"11212870963":{"location":[53.1509566,6.1301496],"ct":"NL","tp":"CS","ts":"2025-05-09T17:59:15Z","tX":529,"tY":332,"tags":{"email":"info@sjaakvanderschaaf.nl","name":"Rêst mei Romte","phone":"+31 512 342 489","shower":"yes","toilets":"yes","website":"https://www.sjaakvanderschaaf.nl/sjaakvdschaaf/restmeiromte/home.html"}},"11898315665":{"location":[53.2628757,6.1452732],"ct":"NL","tp":"CS","ts":"2024-05-12T10:16:50Z","tX":529,"tY":332,"tags":{"addr:city":"Kollum","addr:housenumber":"6","addr:postcode":"9291MV","addr:street":"Paradyske","caravans":"yes","fee":"yes","name":"Yn 't Paradyske","source:date":"2016-06-09","website":"https://www.yntparadyske.nl/campererf/"}},"4354549369":{"location":[53.1499773,6.3099786],"ct":"NL","tp":"CR","ts":"2016-08-17T18:58:27Z","tX":529,"tY":332,"tags":{"name":"Het knooppunt"}},"4468624500":{"location":[53.3245256,5.9930521],"ct":"NL","tp":"CR","ts":"2016-10-28T18:32:02Z","tX":529,"tY":332,"tags":{"name":"Camperplaats Dokkum","name:nl":"Camperplaats Dokkum"}},"6632029588":{"location":[53.1871407,5.992825],"ct":"NL","tp":"CR","ts":"2021-02-19T00:22:26Z","tX":529,"tY":332,"tags":{"fee":"yes","name":"Camperplaats Jachthaven","power_supply":"yes","sanitary_dump_station":"yes","website":"https://wsvbergumermeer.nl/"}},"12531790046":{"location":[53.3247176,5.9928167],"ct":"NL","tp":"SD","ts":"2025-01-25T14:56:33Z","tX":529,"tY":332,"tags":{"access":"yes","payment:cash":"yes","sanitary_dump_station:chemical_toilet":"yes","sanitary_dump_station:grey_water":"yes"}}}