{"2173312":{"location":[53.0839129,6.2464705],"ct":"NL","tp":"CS","ts":"2023-05-30T18:16:28Z","tX":529,"tY":333,"tags":{"addr:city":"Bakkeveen","addr:housenumber":"2","addr:postcode":"9243JZ","addr:street":"Foarwurker Wei","contact:email":"info@waldsang.nl","contact:phone":"+31 516 541 255","contact:website":"https://www.waldsang.nl","name":"Recreatiecentrum De Wâldsang","source":"3dShapes"}},"2415375":{"location":[53.078423,6.2816356],"ct":"NL","tp":"CS","ts":"2023-05-30T18:16:28Z","tX":529,"tY":333,"tags":{"addr:city":"Bakkeveen","addr:housenumber":"6","addr:postcode":"9243SE","addr:street":"Nije Drintse Wei","contact:email":"info@kroesebeamke.nl","contact:phone":"+31 516 541 245","contact:website":"https://www.kroesebeamke.nl","name":"Camping It Kroese Beamke","source":"3dShapes"}},"81415729":{"location":[53.0643273,6.028046],"ct":"NL","tp":"CS","ts":"2023-05-30T18:16:22Z","tX":529,"tY":333,"tags":{"contact:email":"els@opeigenweg.nl","contact:phone":"+31 6 52063802","contact:website":"https://www.kamperenopeigenweg.nl","name":"Natuurkampeerterrein Op Eigen Weg"}},"81972508":{"location":[53.1008837,6.1989912],"ct":"NL","tp":"CS","ts":"2024-03-16T16:24:24Z","tX":529,"tY":333,"tags":{"addr:city":"Frieschepalen","addr:housenumber":"62","addr:postcode":"9249NV","addr:street":"Tolheksleane","name":"Camping Mastershiem","phone":"+31 475 481458","website":"https://marisheem.nl/"}},"82119626":{"location":[53.1181151,6.2401685],"ct":"NL","tp":"CS","ts":"2023-05-30T12:19:41Z","tX":529,"tY":333,"tags":{"caravans":"yes","contact:email":"Info@thoogje.nl","contact:phone":"+31 594 643 183","contact:website":"https://www.thoogje.nl/","internet_access":"yes","internet_access:fee":"no","name":"Boerencamping 't Hoogje","tents":"yes","wheelchair":"limited"}},"82130080":{"location":[53.0933244,6.2353017],"ct":"NL","tp":"CS","ts":"2023-07-17T17:59:01Z","tX":529,"tY":333,"tags":{"addr:city":"Siegerswoude","addr:housenumber":"40","addr:postcode":"9248KX","addr:street":"Binnenwei","capacity:pitches":"63","caravans":"yes","contact:phone":"+31 512 303 210","contact:website":"http://www.desieghorst.nl/","internet_access":"wlan","internet_access:fee":"no","mobile":"+31 6 14939517","motorhome":"yes","name":"De Sieghorst","phone":"+31 512 303 210","shower":"yes","tents":"yes","toilets":"yes"}},"82131807":{"location":[53.0621795,6.219413],"ct":"NL","tp":"CS","ts":"2024-07-06T05:06:22Z","tX":529,"tY":333,"tags":{"capacity":"15","caravans":"yes","email":"info@natuurcamping-ikenhiem.nl","landuse":"grass","name":"Natuurcamping Ikenhiem","phone":"+31 6 51961564","source":"3dShapes","tents":"yes","toilets":"yes","website":"https://www.natuurcamping-ikenhiem.nl/"}},"82131855":{"location":[53.0584747,6.2570932],"ct":"NL","tp":"CS","ts":"2023-08-25T18:24:39Z","tX":529,"tY":333,"tags":{"addr:city":"Bakkeveen","addr:housenumber":"9","addr:postcode":"9243WG","addr:street":"De Biskop","contact:email":"info@utsicht.nl","contact:phone":"+31 516 541 376","contact:website":"https://www.utsicht.nl","fee":"yes","name":"Minicamping UtSicht","source":"3dShapes","wifi":"customers"}},"82131993":{"location":[53.0989886,6.2742337],"ct":"NL","tp":"CS","ts":"2023-05-30T18:16:08Z","tX":529,"tY":333,"tags":{"addr:city":"Siegerswoude","addr:housenumber":"24","addr:postcode":"9248SH","addr:street":"Bremerwei","contact:email":"waldrane@planet.nl","contact:phone":"+31 516 541 426","contact:website":"https://www.de-waldrane.nl/camping.html","name":"Camping De Wâldrane","source":"3dShapes"}},"82132217":{"location":[53.0479546,6.2540194],"ct":"NL","tp":"CS","ts":"2023-05-30T12:17:23Z","tX":529,"tY":333,"tags":{"addr:city":"Waskemeer","addr:housenumber":"28","addr:postcode":"8434NC","addr:street":"Leidijk","contact:phone":"+31 516 577 234","name":"Mini-camping 't Appelhofke","source":"3dShapes"}},"82132472":{"location":[53.0706403,6.242717],"ct":"NL","tp":"CS","ts":"2023-05-30T18:16:23Z","tX":529,"tY":333,"tags":{"addr:city":"Bakkeveen","addr:housenumber":"19","addr:postcode":"9243KA","addr:street":"Duerswâldmer Wei","contact:email":"info@ikeleane.nl","contact:fax":"+31 516 541 718","contact:phone":"+31 516 541 283","contact:website":"https://www.ikeleane.nl","name":"Camping De Ikeleane"}},"82132869":{"location":[53.0645234,6.2666399],"ct":"NL","tp":"CS","ts":"2023-05-30T18:16:23Z","tX":529,"tY":333,"tags":{"addr:city":"Bakkeveen","addr:housenumber":"4","addr:postcode":"9243WC","addr:street":"Kreilen","caravans":"yes","contact:email":"silflantua@hotmail.com","contact:phone":"+31 516 541 571","contact:website":"https://www.kivafarm.nl","name":"Minicamping Kivafarm","source":"3dShapes","tents":"yes"}},"86726527":{"location":[53.0385739,5.9855698],"ct":"NL","tp":"CS","ts":"2023-11-05T16:35:41Z","tX":529,"tY":333,"tags":{"addr:city":"Tijnje","addr:housenumber":"40","addr:postcode":"8406AK","addr:street":"Riperwei","contact:phone":"+31 513 571 833","contact:website":"http://www.delytseboer.com/","name":"MiniCamping De Lytse Boer"}},"86931089":{"location":[53.0226127,6.1872359],"ct":"NL","tp":"CS","ts":"2023-07-07T07:01:00Z","tX":529,"tY":333,"tags":{"addr:city":"Hoornsterzwaag","addr:housenumber":"74","addr:postcode":"8412SL","addr:street":"Bij de Leijwei","cabins":"yes","capacity:cabins":"1","capacity:pitches":"15","caravans":"yes","email":"info@oudetrambrug.nl","landcover":"grass","name":"De Oude Trambrug","phone":"+31 6 40301901","shower":"yes","tents":"yes","toilets":"yes","website":"https://www.oudetrambrug.nl"}},"86932743":{"location":[53.0315989,6.1632187],"ct":"NL","tp":"CS","ts":"2023-06-13T05:53:35Z","tX":529,"tY":333,"tags":{"addr:city":"Wijnjewoude","addr:housenumber":"54","addr:postcode":"9241HJ","addr:street":"Compagnonsfeart","capacity":"15","caravans":"yes","contact:email":"info@campingwijnjeterp.nl","contact:mobile":"+31 6 15638062","contact:phone":"+31 516 471 612","contact:website":"https://campingwijnjeterp.nl","internet_access":"yes","internet_access:fee":"no","name":"Minicamping Wijnjeterp","operator":"Ate en Sandra","source":"3dShapes","tents":"yes"}},"86941547":{"location":[52.9705365,6.1088875],"ct":"NL","tp":"CS","ts":"2023-09-03T08:39:11Z","tX":529,"tY":333,"tags":{"addr:city":"Jubbega","addr:housenumber":"20","addr:postcode":"8411ZD","addr:street":"Schoterlandseweg","capacity:pitches":"25","caravans":"yes","email":"info@campingdekoppenjan.nl","mobile":"+31 6 31790797","name":"De Koppenjan","old_name":"Het Schoterland","phone":"+31 516 462 322","shower":"yes","tents":"yes","toilets":"yes","website":"https://www.campingdekoppenjan.nl/minicamping-friesland"}},"89346618":{"location":[52.9187703,6.1127527],"ct":"NL","tp":"CS","ts":"2023-08-26T10:07:30Z","tX":529,"tY":333,"tags":{"caravans":"yes","email":"info@linde-hoeve.nl","landcover":"grass","name":"Linde Hoeve","phone":"+31 6 47220269","shower":"yes","tents":"yes","toilets":"yes","website":"https://linde-hoeve.nl/"}},"89396813":{"location":[52.920755,6.17495],"ct":"NL","tp":"CS","ts":"2020-01-02T11:57:48Z","tX":529,"tY":333,"tags":{"addr:city":"Zandhuizen","addr:housenumber":"36","addr:postcode":"8389TC","addr:street":"Zandhuizerweg","email":"nda.kampeerz@zon-en-leven.nl","name":"Naturistencamping De Appelhof","nudism":"yes","phone":"+31610870299 mnd 5-9","website":"https://www.zonenleven.nl/de-appelhof"}},"89401506":{"location":[52.9273687,6.2590691],"ct":"NL","tp":"CS","ts":"2019-03-17T18:24:10Z","tX":529,"tY":333,"tags":{"addr:city":"Elsloo","addr:housenumber":"3","addr:postcode":"8424SP","addr:street":"De Monden","caravans":"yes","contact:email":"contact@campingtweeprovincien.nl","contact:phone":"+31 6 30073328","contact:website":"http://campingtweeprovincien.nl/","name":"Camping de twee provincien","tents":"yes"}},"89401937":{"location":[52.916656,6.248607],"ct":"NL","tp":"CS","ts":"2023-05-30T17:41:59Z","tX":529,"tY":333,"tags":{"addr:city":"Zorgvlied","addr:housenumber":"5","addr:postcode":"8437PC","addr:street":"De Ruyter de Wildtlaan","contact:email":"info@campingdehertenweide.nl","contact:phone":"+31 521 387 202","contact:website":"https://www.campingdehertenweide.nl","name":"Camping de Hertenweide"}},"89410078":{"location":[52.934533,6.2861499],"ct":"NL","tp":"CS","ts":"2024-02-07T02:16:47Z","tX":529,"tY":333,"tags":{"addr:city":"Elsloo","addr:housenumber":"3","addr:postcode":"8424SR","addr:street":"Canada","contact:phone":"+31 516 516 651","name":"Camping De Wilhelminahoeve","source":"3dShapes","toilets:wheelchair":"no","wheelchair":"yes"}},"89410227":{"location":[52.9131236,6.2796537],"ct":"NL","tp":"CS","ts":"2023-05-30T17:41:59Z","tX":529,"tY":333,"tags":{"addr:city":"Wateren","addr:housenumber":"24","addr:postcode":"8438SB","addr:street":"Wateren","contact:email":"info@alberthoeve.nl","contact:phone":"+31 521 387 295","contact:website":"https://www.alberthoeve.nl","internet_access":"wlan","name":"Alberthoeve"}},"167297500":{"location":[53.0703349,6.1350857],"ct":"NL","tp":"CS","ts":"2019-03-26T00:14:16Z","tX":529,"tY":333,"tags":{"email":"info@campinghetkoningsdiep.nl","name":"Het Koningsdiep","source":"3dShapes","toilets:wheelchair":"yes","website":"https://www.campinghetkoningsdiep.nl/","wheelchair":"yes"}},"326821699":{"location":[53.1184151,6.2955811],"ct":"NL","tp":"CS","ts":"2023-05-30T12:19:47Z","tX":529,"tY":333,"tags":{"addr:city":"Zevenhuizen","addr:housenumber":"31","addr:postcode":"9354VH","addr:street":"Oudewijk","contact:email":"info@minicampingdepol.nl","contact:phone":"+31 594 644 966","contact:website":"http://www.minicampingdepol.nl/","name":"Minicamping De Pol"}},"338553372":{"location":[52.9226588,6.2695923],"ct":"NL","tp":"CS","ts":"2023-05-30T17:42:05Z","tX":529,"tY":333,"tags":{"addr:city":"Wateren","addr:housenumber":"4","addr:postcode":"8438SC","addr:street":"Schurerslaan","contact:email":"hetlandschap@molecaten.nl","contact:phone":"+31 521 387 244","contact:website":"https://www.molecaten.nl/het-landschap","internet_access":"yes","name":"Molecaten Park Het Landschap"}},"356648601":{"location":[52.9248682,6.2526125],"ct":"NL","tp":"CS","ts":"2023-05-30T17:42:05Z","tX":529,"tY":333,"tags":{"addr:city":"Zorgvlied","addr:housenumber":"1","addr:postcode":"8437PE","addr:street":"De Gavere","contact:email":"info@parkdrentheland.nl","contact:phone":"+31 521 388 136","contact:website":"https://www.parkdrentheland.nl","name":"Park Drentheland"}},"373969573":{"location":[52.9148249,6.2654505],"ct":"NL","tp":"CS","ts":"2023-05-30T17:42:05Z","tX":529,"tY":333,"tags":{"addr:city":"Wateren","addr:housenumber":"5","addr:postcode":"8438SB","addr:street":"Wateren","check_date:internet_access":"2021-08-21","contact:email":"info@deblauwelantaarn.nl","contact:phone":"+31 521 387 258","contact:website":"https://www.deblauwelantaarn.nl","internet_access":"wlan","name":"Camping de Blauwe Lantaarn"}},"423050582":{"location":[53.076632,6.2537569],"ct":"NL","tp":"CS","ts":"2023-05-30T12:17:36Z","tX":529,"tY":333,"tags":{"addr:city":"Bakkeveen","addr:housenumber":"11","addr:postcode":"9243KA","addr:street":"Duerswalder Wei","contact:email":"info@thout.nl","contact:fax":"+31 516 541 639","contact:phone":"+31 516 541 287","contact:website":"https://www.molecaten.nl/t-hout","name":"Molecaten Park 't Hout","wheelchair":"yes"}},"453106671":{"location":[52.9759571,6.1249626],"ct":"NL","tp":"CR","ts":"2024-06-09T14:24:06Z","tX":529,"tY":333,"tags":{"contact:email":"lijaooms@hetnet.nl","contact:phone":"+31 516 462 086","description":"Camperplaats (particulier)","fee":"yes","power_supply":"no","tents":"no"}},"677481027":{"location":[52.9237776,6.2385407],"ct":"NL","tp":"CS","ts":"2023-05-30T18:16:20Z","tX":529,"tY":333,"tags":{"addr:city":"Boijl","addr:housenumber":"7","addr:postcode":"8392NT","addr:street":"Verwersweg","caravans":"yes","contact:email":"debosfluiter@gmail.com","contact:phone":"+31 6 53713108","contact:website":"https://www.debosfluiter.nl","internet_access":"yes","internet_access:fee":"no","name":"Camping De Bosfluiter","operator":"Wilfred, Debora, Wouter en Eline Mesken","tents":"yes"}},"678464503":{"location":[52.9433985,6.2729634],"ct":"NL","tp":"CR","ts":"2023-05-30T18:16:20Z","tX":529,"tY":333,"tags":{"addr:city":"Elsloo","addr:housenumber":"5","addr:postcode":"8424SH","addr:street":"Kloosterweg","contact:email":"camperplaatskaleduinen@gmail.com","contact:phone":"+31 6 81436257","contact:website":"https://camperplaatskaleduinen.nl","fee":"yes","internet_access":"wlan","name":"Camperplaats Kale Duinen","power_supply":"yes","sanitary_dump_station":"yes"}},"755415086":{"location":[53.0052412,6.0574236],"ct":"NL","tp":"CR","ts":"2025-01-15T19:02:11Z","tX":529,"tY":333,"tags":{"capacity":"8","caravan_site":"motorhome_stopover","caravan_site:type":"town","charge":"10 EUR","fee":"yes","maxstay":"72 hours","name":"Camperplaats Kalkovens Gorredijk","power_supply":"yes","sanitary_dump_station":"yes","seasonal":"no","surface":"grass_paver","toilets":"yes"}},"758383316":{"location":[53.0466078,6.1617737],"ct":"NL","tp":"CS","ts":"2019-12-24T14:59:44Z","tX":529,"tY":333,"tags":{"email":"info@minicampingdehanenburcht.nl","name":"De Hanenburcht","phone":"+31 516 481 748","website":"http://www.minicampingdehanenburcht.nl/"}},"761513367":{"location":[52.9252421,6.1766322],"ct":"NL","tp":"CS","ts":"2023-07-17T17:59:01Z","tX":529,"tY":333,"tags":{"cabins":"yes","caravans":"yes","email":"info@bekhofschans.nl","name":"Bekhofschans","phone":"+31 561 421 454","shower":"yes","tents":"yes","toilets":"yes","website":"https://www.bekhofschans.nl"}},"761513387":{"location":[52.9252776,6.1775602],"ct":"NL","tp":"CS","ts":"2023-07-17T17:59:01Z","tX":529,"tY":333,"tags":{"cabins":"yes","caravans":"yes","motorhome":"yes","name":"de Boekelter","opening_hours":"Apr 1 - Sep 30","phone":"+31 6 27323957","shower":"yes","start_date":"1986","tents":"yes","toilets":"yes","website":"https://www.camping-boekelter.nl"}},"896482014":{"location":[53.0861645,6.3099216],"ct":"NL","tp":"CS","ts":"2023-05-30T12:16:34Z","tX":529,"tY":333,"tags":{"addr:city":"Een-West","addr:housenumber":"15","addr:postcode":"9343TB","addr:street":"Bakkeveenseweg","caravans":"yes","email":"info@dedrieprovincien.nl","name":"Camping De Drie Provinciën","phone":"+31 516 541 201","tents":"yes","website":"https://dedrieprovincien.nl"}},"925861460":{"location":[52.968686,6.2174506],"ct":"NL","tp":"CS","ts":"2023-05-30T12:17:41Z","tX":529,"tY":333,"tags":{"access":"private","email":"info@lotus.nfn.nl","name":"Naturistenterrein Kuinderloo","nudism":"designated","operator":"Naturistenvereniging Lotus","phone":"+31 6 53477648","website":"https://www.lotus.frl/"}},"926284887":{"location":[53.0109829,6.0957661],"ct":"NL","tp":"CS","ts":"2021-05-31T15:31:40Z","tX":529,"tY":333,"tags":{"addr:city":"Lippenhuizen","addr:housenumber":"8","addr:postcode":"8408CE","addr:street":"Tjalling Harkeswei","contact:mobile":"+31 6 25228364","contact:website":"https://campingjonkman.nl/","email":"info@campingjonkman.nl","name":"minicamping Jonkman"}},"933451724":{"location":[52.91424,6.2443219],"ct":"NL","tp":"CS","ts":"2023-05-30T17:42:09Z","tX":529,"tY":333,"tags":{"addr:city":"Zorgvlied","addr:housenumber":"7","addr:postcode":"8437PC","addr:street":"De Ruyter de Wildtlaan","contact:email":"info@zonnekamp.nl","contact:phone":"+31 521 387 257","contact:website":"https://campingzonnekamp.nl","name":"Camping Zonnekamp"}},"969184193":{"location":[52.9160576,6.2473117],"ct":"NL","tp":"CS","ts":"2021-11-01T14:03:33Z","tX":529,"tY":333,"tags":{"access":"private","addr:city":"Zorgvlied","addr:housenumber":"5a","addr:postcode":"8437PC","addr:street":"De Ruyter de Wildtlaan","caravans":"yes","description":"Dit kampeerterrein is alleen toegankelijk voor leden van de NTKC","internet_access":"no","name":"NTKC De Hertenweide","operator":"Nederlandse Toeristen Kampeer Club","power_supply":"yes","tents":"yes","website":"https://www.kampeerclub.nl/terrein/kampeerterrein-de-hertenweide"}},"971711909":{"location":[52.926745,6.00302],"ct":"NL","tp":"CS","ts":"2023-07-17T17:59:01Z","tX":529,"tY":333,"tags":{"cabins":"yes","capacity:pitches":"12","caravans":"yes","email":"info@degeelebosch.nl","motorhome":"yes","name":"De Geele Bosch","phone":"+31 513 633 103","shower":"yes","tents":"yes","toilets":"yes","website":"https://www.degeelebosch.nl/"}},"972872248":{"location":[52.9507084,6.1109964],"ct":"NL","tp":"CS","ts":"2021-08-13T13:17:41Z","tX":529,"tY":333,"tags":{"name":"Recreatie Tolbrugschans"}},"1022099473":{"location":[53.0673989,6.3229811],"ct":"NL","tp":"CS","ts":"2022-01-17T21:40:03Z","tX":529,"tY":333,"tags":{"addr:city":"Haulerwijk","addr:housenumber":"41","addr:postcode":"8433LC","addr:street":"Hoofdweg-Boven","caravans":"yes","contact:email":"info@campingfraai.nl","contact:mobile":"+31 6 41376036","contact:website":"https://campingfraai.nl/","landuse":"grass","name":"Camping Fraai","tents":"yes"}},"1023711598":{"location":[53.0921087,6.2132719],"ct":"NL","tp":"CS","ts":"2022-01-22T19:52:54Z","tX":529,"tY":333,"tags":{"addr:city":"Siegerswoude","addr:housenumber":"12a","addr:postcode":"9248KW","addr:street":"Binnenwei","caravans":"yes","contact:email":"wissmanreinder@gmail.com","contact:mobile":"+31 6 50493603","contact:website":"https://www.debeamwal.nl/","name":"Minicamping De Beamwâl","tents":"yes"}},"1057705810":{"location":[52.9956968,6.1036516],"ct":"NL","tp":"CS","ts":"2023-07-07T20:25:02Z","tX":529,"tY":333,"tags":{"addr:city":"Jubbega","addr:housenumber":"23","addr:postcode":"8411CJ","addr:street":"Singel","cabins":"yes","caravans":"yes","email":"info@singel-jubbega.nl","fee":"yes","name":"Natuurkampeerterrein Singel","phone":"+31 6 13030844","shower":"yes","tents":"yes","toilets":"yes","website":"https://www.singel-jubbega.frl/"}},"1067799497":{"location":[52.9410308,6.2351784],"ct":"NL","tp":"CS","ts":"2023-05-30T18:16:22Z","tX":529,"tY":333,"tags":{"addr:city":"Elsloo","addr:housenumber":"6","addr:postcode":"8424PR","addr:street":"Bûtenweg","capacity":"25","caravans":"yes","contact:email":"info@elf-ieken.nl","contact:phone":"+31 561 421 522","contact:website":"https://www.elf-ieken.nl","name":"Minicamping d'Ef Ieken","shower":"yes","tents":"yes","toilets":"yes"}},"1078657100":{"location":[53.1185337,6.2849154],"ct":"NL","tp":"CR","ts":"2024-03-30T11:15:04Z","tX":529,"tY":333,"tags":{"capacity":"12","caravan_site":"motorhome_stopover","charge":"16 EUR","contact:email":"info@camperplaats-bloemenveld.nl","contact:mobile":"+31 6 15409686","contact:website":"https://www.camperplaats-bloemenveld.nl/","dog":"yes","fee":"yes","maxlength":"10","name":"Camperplaats Bloemenveld","opening_hours":"Mar-Oct","power_supply":"yes","reservation":"yes","shower":"yes","toilets":"yes","water_point":"yes"}},"1202272710":{"location":[52.9740829,6.0955047],"ct":"NL","tp":"CS","ts":"2024-03-27T19:20:54Z","tX":529,"tY":333,"tags":{"caravans":"no","email":"info@rebloutdoor.nl","motorhome":"no","name":"Minibospark","phone":"+31 514 700 205","static_tents":"yes","tents":"no","website":"https://www.rebloutdoor.nl/glamping-jubbega/"}},"1208227312":{"location":[52.9656253,6.0431447],"ct":"NL","tp":"CS","ts":"2023-09-16T08:11:47Z","tX":529,"tY":333,"tags":{"capacity:pitches":"5","caravans":"yes","email":"debalstien@gmail.com","name":"Balstien","phone":"+31 6 30880055","shower":"yes","tents":"yes","toilets":"yes","website":"https://www.balstien.nl/De-camping/"}},"1301963557":{"location":[53.0043753,6.2240966],"ct":"NL","tp":"CS","ts":"2024-07-17T10:28:34Z","tX":529,"tY":333,"tags":{"addr:city":"Donkerbroek","addr:housenumber":"3","addr:postcode":"8435VR","addr:street":"'t Hoogezand","capacity:pitches":"15","caravans":"yes","email":"decuynder@schouderaanschouder.nl","mobile":"+31 6 40870726","motorhome":"yes","name":"de Cuynder","opening_hours":"Apr-Oct","payment:coins":"yes","payment:notes":"yes","shower":"yes","tents":"yes","toilets":"yes","website":"https://decuynder.nl/camping/"}},"1351643137":{"location":[53.1042458,6.0813202],"ct":"NL","tp":"CR","ts":"2025-01-15T19:22:01Z","tX":529,"tY":333,"tags":{"charge":"16 EUR","fee":"yes","internet_access":"no","maxstay":"72 hours","name":"Camperplaats Drachten Parkhaven","power_supply":"yes","power_supply:fee":"yes","sanitary_dump_station":"yes","seasonal":"no","tents":"no","water_point":"yes","water_point:fee":"yes"}},"1351668748":{"location":[53.1027438,6.0880851],"ct":"NL","tp":"CR","ts":"2025-01-15T21:41:16Z","tX":529,"tY":333,"tags":{"caravan_site":"motorhome_stopover","caravan_site:type":"sports_centre;parking_lot","fee":"no","maxstay":"72 hours","name":"Parking Gauke Boelensstraat","surface":"asphalt"}},"5629497821":{"location":[53.0950373,5.9839227],"ct":"NL","tp":"CS","ts":"2023-07-16T20:13:12Z","tX":529,"tY":333,"tags":{"caravans":"yes","contact:website":"https://www.kanhoeve.nl","drinking_water":"yes","name":"De Kan Hoeve","power_supply":"yes","shower":"yes","tents":"yes","toilets":"yes"}},"9022977900":{"location":[53.1132641,6.2849361],"ct":"NL","tp":"CS","ts":"2021-08-20T14:52:32Z","tX":529,"tY":333,"tags":{"name":"OP29"}},"9429596279":{"location":[53.0673369,6.27108],"ct":"NL","tp":"CS","ts":"2023-05-27T19:56:58Z","tX":529,"tY":333,"tags":{"caravans":"yes","contact:email":"mail@huifkar-friesland.nl","contact:phone":"+31 516 541 509","contact:website":"https://www.huifkar-friesland.nl","name":"Minicamping De Huifkar","tents":"yes"}},"5152329375":{"location":[53.104416,6.0810766],"ct":"NL","tp":"CR","ts":"2021-02-03T13:59:19Z","tX":529,"tY":333,"tags":{"fee":"no","internet_access":"no","power_supply":"no","sanitary_dump_station":"no","tents":"no"}},"8630313403":{"location":[53.0787438,6.25389],"ct":"NL","tp":"SD","ts":"2021-04-14T21:55:30Z","tX":529,"tY":333,"tags":{}},"9524190165":{"location":[53.0948152,5.9840574],"ct":"NL","tp":"SD","ts":"2022-02-21T12:06:13Z","tX":529,"tY":333,"tags":{"access":"customers","operator":"De Kan Hoeve"}},"9718837797":{"location":[52.9964014,6.1036445],"ct":"NL","tp":"SD","ts":"2023-07-07T20:25:02Z","tX":529,"tY":333,"tags":{"access":"customers","operator":"Singel"}}}