{"3506282":{"location":[52.8608976,6.1919978],"ct":"NL","tp":"CS","ts":"2023-05-30T17:42:10Z","tX":529,"tY":334,"tags":{"addr:city":"Vledder","addr:housenumber":"12","addr:postcode":"8381XM","addr:street":"Middenweg","contact:email":"kuipers_veenstra@hotmail.com","contact:fax":"+31 521 381 375","contact:phone":"+31 521 382 121","contact:website":"https://www.campingpadjelanta.nl","name":"Camping Padjelanta"}},"73029070":{"location":[52.8878625,6.3183255],"ct":"NL","tp":"CS","ts":"2023-12-17T17:05:05Z","tX":529,"tY":334,"tags":{"addr:city":"Oude Willem","addr:housenumber":"8","addr:postcode":"8439SN","addr:street":"Bosweg","internet_access":"no","name":"Natuurkampeerterrein Oude Willem","phone":"+31 521 387 286","website":"https://www.staatsbosbeheer.nl/"}},"73029080":{"location":[52.7924388,6.2269707],"ct":"NL","tp":"CS","ts":"2023-05-30T12:16:12Z","tX":529,"tY":334,"tags":{"email":"hunehuis@nivon.nl","name":"Natuurkampeerterrein Het Hunehuis","phone":"+31 6 25393116","website":"https://nivon.nl/accommodaties/hunehuis/"}},"89317365":{"location":[52.8935561,6.0449439],"ct":"NL","tp":"CS","ts":"2023-08-26T09:36:22Z","tX":529,"tY":334,"tags":{"capacity:pitches":"15","caravans":"yes","landcover":"grass","name":"Oldeholtpade","opening_hours":"Apr 1 - Nov 1","phone":"+31 561 688 654;+31 6 28073648","shower":"yes","tents":"yes","toilets":"yes","website":"http://minicamping.oldeholtpade.info/index.php/onze-camping/26-een-korte-introductie"}},"89397026":{"location":[52.8936224,6.1537952],"ct":"NL","tp":"CS","ts":"2023-05-30T12:17:27Z","tX":529,"tY":334,"tags":{"addr:city":"Oosterstreek","addr:housenumber":"16","addr:postcode":"8388ND","addr:street":"Oosterstreek","caravans":"yes","contact:email":"info@campingklaverakker.nl","contact:phone":"+31 561 432 169","contact:website":"http://www.campingklaverakker.nl/","name":"Camping Klaverakker","operator":"Jo Klaverboer","tents":"yes"}},"89397344":{"location":[52.8859691,6.1880251],"ct":"NL","tp":"CS","ts":"2023-05-30T18:16:09Z","tX":529,"tY":334,"tags":{"addr:city":"Boijl","addr:housenumber":"38","addr:postcode":"8392XT","addr:street":"Oostvierdeparten","caravans":"yes","contact:email":"dehazehof@online.nl","contact:phone":"+31 561 431 426","contact:website":"https://www.hazehof.nl","name":"SVR Camping Hazehof","tents":"yes"}},"89398359":{"location":[52.9043514,6.1479829],"ct":"NL","tp":"CS","ts":"2023-05-30T12:17:27Z","tX":529,"tY":334,"tags":{"caravans":"yes","email":"info@degrijzevlegel.nl","name":"De Vlegel","phone":"+31 33 820 0383","shower":"yes","static_caravans":"yes","tents":"yes","toilets":"yes","website":"https://campingdevlegel.nl/"}},"89398612":{"location":[52.8829185,6.1665847],"ct":"NL","tp":"CS","ts":"2023-05-30T12:17:26Z","tX":529,"tY":334,"tags":{"addr:city":"Noordwolde","addr:housenumber":"4","addr:postcode":"8391MB","addr:street":"Vallaatweg","contact:email":"info@campingrotandorp.nl","contact:phone":"+31 561 431 227","contact:website":"https://campingrotandorp.nl/","name":"Camping Rotandorp"}},"89410139":{"location":[52.8976243,6.3117231],"ct":"NL","tp":"CS","ts":"2023-05-30T17:42:00Z","tX":529,"tY":334,"tags":{"brand":"SVR","cabins":"yes","caravans":"yes","contact:email":"info@camping-oudewillem.nl","contact:phone":"+31 521 387 273","contact:website":"https://www.camping-oudewillem.nl","landcover":"grass","name":"'t Oude Willemsveldt","opening_hours":"Apr 1 - Oct 1","shower":"yes","tents":"yes","toilets":"yes"}},"89410443":{"location":[52.899068,6.3067855],"ct":"NL","tp":"CS","ts":"2023-07-23T16:28:37Z","tX":529,"tY":334,"tags":{"addr:city":"Oude Willem","addr:housenumber":"1","addr:postcode":"8439SM","addr:street":"Oude Willemsweg","caravans":"yes","contact:email":"info@degoedeweiderecreatie.nl","contact:phone":"+31 521 388 484","contact:website":"https://www.degoedeweiderecreatie.nl","name":"De Goede Weide","opening_hours":"week 01-53","shower":"yes","tents":"yes","toilets":"yes"}},"89879907":{"location":[52.7159422,6.1909234],"ct":"NL","tp":"CS","ts":"2023-05-30T12:16:13Z","tX":529,"tY":334,"tags":{"addr:city":"Meppel","addr:housenumber":"96C","addr:postcode":"7942HR","addr:street":"Steenwijkerstraatweg","caravans":"yes","email":"receptie@kikkerije.nl","name":"Camping de Kikkerije","phone":"+31 522 242 401","tents":"yes","website":"https://kikkerije.nl"}},"89919393":{"location":[52.8374225,6.0342767],"ct":"NL","tp":"CR","ts":"2024-03-16T16:24:24Z","tX":529,"tY":334,"tags":{"addr:city":"Blesdijke","addr:housenumber":"35A","addr:postcode":"8398GK","addr:street":"Markeweg","contact:facebook":"https://www.facebook.com/stoutenburght/","contact:mobile":"+31 6 20722272","contact:phone":"+31 561 446 166","motorhome":"designated","name":"Camperplaats Stoutenburght","power_supply":"yes","sanitary_dump_station":"yes"}},"89923816":{"location":[52.8435697,6.0865649],"ct":"NL","tp":"CS","ts":"2019-09-25T20:54:31Z","tX":529,"tY":334,"tags":{"addr:city":"Steggerda","addr:housenumber":"2A","addr:postcode":"8395TK","addr:street":"Leemweg","name":"Camping De Leemstobbe","source":"3dShapes"}},"89924248":{"location":[52.8595079,6.1082559],"ct":"NL","tp":"CS","ts":"2019-09-25T20:54:31Z","tX":529,"tY":334,"tags":{"addr:city":"Steggerda","addr:housenumber":"3","addr:postcode":"8395KV","addr:street":"Zuiderweg","caravans":"yes","contact:email":"info@minicamping-weideland.nl","contact:phone":"+31 6 21192946","contact:website":"https://minicamping-weideland.nl/","name":"Minicamping Weideland","operator":"Patrick en Cindy","tents":"yes"}},"89939940":{"location":[52.8784707,6.188599],"ct":"NL","tp":"CS","ts":"2023-05-30T12:16:13Z","tX":529,"tY":334,"tags":{"brand":"SVR","capacity:pitches":"32","caravans":"yes","contact:email":"info@campingbijhetven.nl","contact:phone":"+31 521 382 592","contact:website":"https://www.campingbijhetven.nl/","internet_access":"yes","internet_access:fee":"no","name":"Bij het Ven","opening_hours":"Apr 5 - Sep 25","operator":"Peter en Vera de Jonge","sanitary_dump_station":"customers","tents":"yes"}},"89958796":{"location":[52.8594709,6.2561185],"ct":"NL","tp":"CS","ts":"2023-05-30T17:42:00Z","tX":529,"tY":334,"tags":{"addr:city":"Wapse","addr:housenumber":"1","addr:postcode":"7983LA","addr:street":"Smitstede","contact:email":"info@hetnoordenveld.nl","contact:phone":"+31 521 551 502","contact:website":"https://www.hetnoordenveld.nl","name":"Camping het Noordenveld"}},"89959281":{"location":[52.8632497,6.2644803],"ct":"NL","tp":"CS","ts":"2023-05-30T12:16:13Z","tX":529,"tY":334,"tags":{"addr:city":"Wapse","addr:housenumber":"1","addr:postcode":"7983KX","addr:street":"Landweg","caravans":"yes","contact:email":"arendenjenneke@planet.nl","contact:phone":"+31 521 551 177","contact:website":"https://www.tboerenland.nl/","internet_access":"yes","internet_access:fee":"no","name":"Camping 't Boerenland","operator":"Arend en Jenneke Wemmenhove","tents":"yes"}},"90020292":{"location":[52.8028885,6.2852267],"ct":"NL","tp":"CS","ts":"2023-05-30T12:16:14Z","tX":529,"tY":334,"tags":{"addr:city":"Uffelte","addr:housenumber":"5","addr:postcode":"7975PV","addr:street":"Winkelsteeg","caravans":"yes","email":"info@uelenspieghel.nl","landuse":"grass","name":"Uelenspieghel","phone":"+31 521 351 331","source":"3dShapes","tents":"yes","website":"https://www.uelenspieghel.nl"}},"90023392":{"location":[52.7997357,6.2903434],"ct":"NL","tp":"CS","ts":"2024-06-24T08:35:03Z","tX":529,"tY":334,"tags":{"brand":"SVR","cabins":"yes","capacity:cabins":"1","capacity:pitches":"33","caravans":"yes","contact:email":"campingboerdam@gmail.com","contact:phone":"+31 521 351 543","contact:website":"https://www.svr-campingboerdam.nl/","name":"Boerdam","shower":"yes","toilets":"yes"}},"90058754":{"location":[52.7963601,6.2502509],"ct":"NL","tp":"CS","ts":"2023-05-30T12:16:13Z","tX":529,"tY":334,"tags":{"addr:city":"Uffelte","addr:housenumber":"2","addr:postcode":"7975RD","addr:street":"Studentenkampweg","caravans":"yes","email":"info@holtingerzand.nl","name":"Camping 't Holtingerzand","phone":"+31 521 351 403","tents":"yes","website":"https://www.holtingerzand.nl"}},"90058813":{"location":[52.8044952,6.2739176],"ct":"NL","tp":"CS","ts":"2023-05-30T17:42:00Z","tX":529,"tY":334,"tags":{"addr:city":"Uffelte","addr:housenumber":"11","addr:postcode":"7975PZ","addr:street":"Weg achter de Es","contact:email":"info@blauwehaan.nl","contact:phone":"+31 521 351 269","contact:website":"https://www.blauwehaan.nl","name":"De Blauwe Haan","toilets:wheelchair":"yes","wheelchair":"yes"}},"90076606":{"location":[52.7786074,6.1508164],"ct":"NL","tp":"CS","ts":"2024-05-27T09:01:22Z","tX":529,"tY":334,"tags":{"capacity:pitches":"14","caravans":"yes","email":"info@demeppelerweg.nl","landcover":"grass","mobile":"+31 6 22399501","name":"De Meppelerweg","opening_hours":"Apr 01-Oct 24","phone":"+31 521 515 772","shower":"yes","tents":"yes","toilets":"yes","website":"http://www.demeppelerweg.nl"}},"90077529":{"location":[52.818312,6.1911555],"ct":"NL","tp":"CS","ts":"2023-05-30T17:42:00Z","tX":529,"tY":334,"tags":{"addr:city":"Wapserveen","addr:housenumber":"171","addr:postcode":"8351HN","addr:street":"Westeinde","caravans":"yes","contact:email":"info@campingdeboskamp.nl","contact:phone":"+31 521 321 281;+31 6 23337312","contact:website":"https://www.campingdeboskamp.nl","name":"Camping De Boskamp","operator":"Cornelis en Eefje Hartkamp","tents":"yes"}},"90099124":{"location":[52.7223878,5.9884695],"ct":"NL","tp":"CS","ts":"2021-04-23T09:47:27Z","tX":529,"tY":334,"tags":{"name":"Mini-Camping De Veenweide"}},"90100646":{"location":[52.7293556,6.0543675],"ct":"NL","tp":"CS","ts":"2023-09-06T06:56:56Z","tX":529,"tY":334,"tags":{"cabins":"yes","caravans":"yes","email":"info@kanodorp.nl","landcover":"grass","name":"Dwarsgracht","phone":"+31 6 16159628","shower":"yes","tents":"yes","toilets":"yes","website":"https://www.duvenvoorde.nl"}},"90100945":{"location":[52.7212776,5.9890283],"ct":"NL","tp":"CS","ts":"2021-04-23T09:47:27Z","tX":529,"tY":334,"tags":{"name":"Mini Camping Duinigermeer"}},"90103837":{"location":[52.8261961,6.3175085],"ct":"NL","tp":"CS","ts":"2023-05-30T17:42:00Z","tX":529,"tY":334,"tags":{"addr:city":"Wittelte","addr:housenumber":"31","addr:postcode":"7986PL","addr:street":"Wittelterweg","contact:email":"info@wittelterbrug.nl","contact:fax":"+31 521 598 250","contact:phone":"+31 521 598 288","contact:website":"https://www.campingwittelterbrug.nl","name":"Camping Wittelterbrug","source":"3dShapes"}},"90155582":{"location":[52.8187421,5.9937533],"ct":"NL","tp":"CS","ts":"2020-11-23T13:36:28Z","tX":529,"tY":334,"tags":{"name":"Camping Huis in ’t Veld"}},"90156377":{"location":[52.8024717,6.0325056],"ct":"NL","tp":"CS","ts":"2023-07-26T21:21:46Z","tX":529,"tY":334,"tags":{"caravans":"yes","email":"info@camping-natuurdomein-delanderije.nl","landcover":"grass","name":"De Landerije","phone":"+31 6 30539356","shower":"yes","tents":"yes","toilets":"yes","website":"https://camping-natuurdomein-delanderije.nl/"}},"122867651":{"location":[52.8900533,6.3146783],"ct":"NL","tp":"CS","ts":"2023-05-30T12:16:19Z","tX":529,"tY":334,"tags":{"addr:city":"Oude Willem","addr:housenumber":"12","addr:postcode":"8439SN","addr:street":"Bosweg","email":"info@hoeveaandenweg.nl","fax":"+31 521 387 413","name":"Camping Hoeve aan den weg","phone":"+31 521 387 269","toilets:wheelchair":"yes","website":"https://www.hoeveaandenweg.nl/","wheelchair":"limited"}},"136814140":{"location":[52.8654089,6.3233966],"ct":"NL","tp":"CS","ts":"2023-05-30T12:16:19Z","tX":529,"tY":334,"tags":{"addr:city":"Diever","addr:housenumber":"2","addr:postcode":"7981LW","addr:street":"Haarweg","cabins":"yes","caravans":"yes","email":"info@campingdiever.nl","name":"Camping Diever","phone":"+31 521 591 644","tents":"yes","website":"https://www.campingdiever.nl"}},"136839468":{"location":[52.866658,6.2987114],"ct":"NL","tp":"CS","ts":"2024-08-24T14:42:32Z","tX":529,"tY":334,"tags":{"addr:city":"Diever","addr:housenumber":"2","addr:postcode":"7981LZ","addr:street":"Theseuslaan","caravans":"yes","drinking_water":"yes","email":"info@campingmidzomer.nl","name":"Camping Midzomer","phone":"+31 521 551 589","power_supply":"yes","sanitary_dump_station":"yes","shower":"yes","tents":"yes","toilets":"yes","website":"https://www.campingmidzomer.nl"}},"278967805":{"location":[52.7177711,6.0915594],"ct":"NL","tp":"CS","ts":"2024-10-01T00:51:54Z","tX":529,"tY":334,"tags":{"addr:city":"Giethoorn","addr:housenumber":"141a","addr:postcode":"8355BW","addr:street":"Binnenpad","name":"Camping De Sloothaak","phone":"+31 521 361 325","website":"https://www.desloothaak.nl/nl/Camping"}},"279089145":{"location":[52.7222098,6.0883002],"ct":"NL","tp":"CS","ts":"2014-05-03T11:29:13Z","tX":529,"tY":334,"tags":{"name":"Camping 't Achterhuus"}},"279239154":{"location":[52.7179389,6.0932564],"ct":"NL","tp":"CS","ts":"2024-10-02T00:00:36Z","tX":529,"tY":334,"tags":{"addr:city":"Giethoorn","addr:housenumber":"137","addr:postcode":"8355BW","addr:street":"Binnenpad","alt_name":"Camping De Hof","email":"info@campingdehof.nl","name":"Camping d'Hof","website":"https://www.campingdehof.nl"}},"373901441":{"location":[52.850664,6.2030427],"ct":"NL","tp":"CS","ts":"2023-05-30T17:42:05Z","tX":529,"tY":334,"tags":{"addr:city":"Vledder","addr:housenumber":"19","addr:postcode":"8381AB","addr:street":"Vledderweg","contact:email":"info@adelhof.nl","contact:phone":"+31 521 381 440","contact:website":"https://www.adelhof.nl","name":"Camping Adelhof"}},"373901442":{"location":[52.8431578,6.1739422],"ct":"NL","tp":"CS","ts":"2023-05-30T17:42:05Z","tX":529,"tY":334,"tags":{"addr:city":"Nijensleek","addr:housenumber":"14","addr:postcode":"8383EG","addr:street":"Hoofdweg","contact:email":"info@moesberg.nl","contact:phone":"+31 521 381 563","contact:website":"https://moesberg.com","name":"Camping De Moesberg"}},"376413554":{"location":[52.7619111,6.227331],"ct":"NL","tp":"CS","ts":"2023-05-31T14:39:46Z","tX":529,"tY":334,"tags":{"addr:city":"Havelte","addr:housenumber":"2","addr:postcode":"7971RL","addr:street":"Slagdijk","contact:phone":"+31 521 341 415","contact:website":"https://www.klaverkampen.nl","internet_access":"yes","internet_access:fee":"no","name":"Camping De klaverkampen"}},"376413567":{"location":[52.7785461,6.2466403],"ct":"NL","tp":"CS","ts":"2023-05-30T17:42:05Z","tX":529,"tY":334,"tags":{"addr:city":"Havelte","addr:housenumber":"10","addr:postcode":"7971AK","addr:street":"Wandelbosweg","contact:email":"info@hesselte.nl","contact:phone":"+31 521 341 270","contact:website":"https://www.hesselte.nl","name":"Recreatiecentrum Hesselte"}},"376413583":{"location":[52.7811789,6.2264987],"ct":"NL","tp":"CS","ts":"2023-07-31T17:28:52Z","tX":529,"tY":334,"tags":{"addr:city":"Havelte","addr:housenumber":"5","addr:postcode":"7971PS","addr:street":"Nieuwe Ruiterweg","contact:email":"info@mooioavelt.nl","contact:phone":"+31 521 341 320","contact:website":"https://www.mooioavelt.nl","internet_access":"wlan","name":"Vakantiepark Mooi Oavelt"}},"376512259":{"location":[52.802467,6.2733941],"ct":"NL","tp":"CS","ts":"2023-11-08T16:24:06Z","tX":529,"tY":334,"tags":{"addr:city":"Uffelte","addr:housenumber":"11","addr:postcode":"7975PZ","addr:street":"Weg achter de Es","contact:email":"info@blauwehaan.nl","contact:phone":"+31 521 351 269","contact:website":"https://www.degroenehen.nl","name":"Natuurkampeerterrein De Groene Hen"}},"376985027":{"location":[52.8257745,6.0915152],"ct":"NL","tp":"CS","ts":"2023-05-30T12:24:02Z","tX":529,"tY":334,"tags":{"contact:email":"info@eeserheideveld.nl","contact:phone":"+31 521 588 361","contact:website":"http://www.eeserheideveld.nl/","name":"'t Eeser Heideveld"}},"376985040":{"location":[52.8254989,6.0842922],"ct":"NL","tp":"CS","ts":"2019-06-13T12:47:14Z","tX":529,"tY":334,"tags":{"addr:city":"De Pol","addr:housenumber":"2","addr:postcode":"8337KG","addr:street":"Löhnislaan","name":"Camping De Bosrand"}},"475637423":{"location":[52.7156806,6.0748843],"ct":"NL","tp":"CR","ts":"2021-02-16T17:09:25Z","tX":529,"tY":334,"tags":{"fee":"yes","internet_access":"wlan","name":"Camperresort Bodelaeke","power_supply":"yes","sanitary_dump_station":"yes","surface":"grass","website":"https://camperresortbodelaeke.nl/"}},"552435716":{"location":[52.7138189,6.2248951],"ct":"NL","tp":"CS","ts":"2021-09-25T09:07:32Z","tX":529,"tY":334,"tags":{"addr:city":"Ruinerwold","addr:housenumber":"31","addr:postcode":"7961LC","addr:street":"Haakswold","caravans":"yes","email":"contact@campingdekalverhoek.nl","name":"Camping De Kalverhoek","phone":"+31 6 48425950","tents":"yes","website":"http://dekalverhoek.nl"}},"566149715":{"location":[52.7791777,6.1439253],"ct":"NL","tp":"CS","ts":"2023-07-14T10:37:59Z","tX":529,"tY":334,"tags":{"caravans":"yes","drinking_water":"yes","name":"Steenwijkerkamp","power_supply":"yes","shower":"yes","tents":"yes","toilets":"yes"}},"600444346":{"location":[52.8155764,6.1184541],"ct":"NL","tp":"CS","ts":"2022-05-13T06:51:06Z","tX":529,"tY":334,"tags":{"fixme":"Camp doesn't seem to exist anymore. Please survey locally.","name":"Camping de Bult"}},"687668885":{"location":[52.7726406,6.2613664],"ct":"NL","tp":"CS","ts":"2023-08-18T20:45:51Z","tX":529,"tY":334,"tags":{"capacity:pitches":"19","caravans":"yes","email":"info@campingdedrentsepatrijs.nl","landcover":"grass","motorhome":"yes","name":"De Drentse Patrijs","phone":"+31 6 51690667","tents":"yes","toilets":"yes"}},"696461129":{"location":[52.8228256,6.0751086],"ct":"NL","tp":"CS","ts":"2023-05-30T12:24:07Z","tX":529,"tY":334,"tags":{"addr:city":"De Pol","addr:housenumber":"35","addr:postcode":"8337KT","addr:street":"De Pol","contact:phone":"+31 521 588 241","contact:website":"http://www.veentje.nl/","name":"Camping 't Veentje"}},"722018534":{"location":[52.8142959,6.1291796],"ct":"NL","tp":"CS","ts":"2023-05-30T12:24:07Z","tX":529,"tY":334,"tags":{"addr:city":"De Bult","addr:housenumber":"12","addr:postcode":"8346KC","addr:street":"Bultweg","caravans":"yes","contact:email":"info@campingdewielewaal.nl","contact:phone":"+31 521 512 726","contact:website":"https://www.campingdewielewaal.nl/","name":"Camping de Wielewaal","tents":"yes"}},"722494860":{"location":[52.8814456,6.1593931],"ct":"NL","tp":"CS","ts":"2023-05-30T12:17:40Z","tX":529,"tY":334,"tags":{"addr:city":"Noordwolde","addr:housenumber":"4","addr:postcode":"8391MA","addr:street":"Oosterseveldweg","caravans":"yes","contact:email":"vandebles@telfort.nl","contact:phone":"+31 561 432 040;+31 6 22173038","contact:website":"https://www.natuurkampeerterreinen.nl/terreinen/friesland/het-oosterse-veld/","name":"natuurkampeerterrein Het Oosterse Veld","operator":"Ingrid van de Bles","phone":"+31 561 432 040","tents":"yes"}},"727903405":{"location":[52.9022916,6.1376354],"ct":"NL","tp":"CS","ts":"2019-09-24T21:41:54Z","tX":529,"tY":334,"tags":{"addr:city":"Zandhuizen","addr:housenumber":"8","addr:postcode":"8389VB","addr:street":"Schapendrift","capacity":"15","caravans":"yes","contact:email":"schapendal@hotmail.com","contact:phone":"+31 6 53262460;+31 6 21981629","contact:website":"http://www.schapendal.nl/","name":"Minicamping Schapendal","operator":"Jan Willem Brak en Esri de Heij","source":"3dShapes","tents":"yes","website":"http://www.schapendal.nl/"}},"729186336":{"location":[52.8141654,6.1059429],"ct":"NL","tp":"CS","ts":"2023-05-30T21:25:43Z","tX":529,"tY":334,"tags":{"addr:city":"Baars","addr:housenumber":"76","addr:postcode":"8336MC","addr:street":"Bergweg","contact:email":"info@campingkappie.nl","contact:phone":"+31 521 588 575;+31 6 50898874","contact:website":"https://www.campingkappie.nl","name":"'t Kappie","operator":"Jan Plat en Lidia Katers"}},"729186352":{"location":[52.813467,6.1198153],"ct":"NL","tp":"CS","ts":"2024-08-09T14:01:26Z","tX":529,"tY":334,"tags":{"addr:city":"De Bult","addr:housenumber":"25","addr:postcode":"8346KB","addr:street":"Bultweg","caravans":"yes","contact:email":"info@residencedeeese.nl","contact:phone":"+31 521 513 736","contact:website":"https://www.residencedeeese.nl/camping","name":"Residence de Eese","tents":"yes"}},"729186359":{"location":[52.8281138,6.1237948],"ct":"NL","tp":"CS","ts":"2020-07-26T14:32:54Z","tX":529,"tY":334,"tags":{"caravans":"yes","dog":"no","email":"info@natuurcampingdehoogte.nl","internet_access":"wlan","internet_access:fee":"no","name":"Natuurcamping De Hoogte","phone":"+31 6 54621432","tents":"yes","website":"https://www.natuurcampingdehoogte.nl/"}},"748989698":{"location":[52.742011,5.9923693],"ct":"NL","tp":"CS","ts":"2021-08-06T09:32:19Z","tX":529,"tY":334,"tags":{"addr:city":"Blokzijl","addr:housenumber":"3a","addr:postcode":"8356VK","addr:street":"Muggenbeet","caravans":"yes","contact:phone":"+31 6 10435535","name":"Camping Muggenbeet","opening_hours":"Apr-Sep 00:00-24:00 open; PH 00:00-24:00 open; Oct-Mar closed","tents":"yes","website":"https://www.campingmuggenbeet.nl/"}},"748989711":{"location":[52.7543205,5.994765],"ct":"NL","tp":"CS","ts":"2023-06-13T05:57:04Z","tX":529,"tY":334,"tags":{"addr:city":"Wetering","addr:housenumber":"39","addr:postcode":"8363TL","addr:street":"Wetering West","caravans":"yes","email":"info@campingdewilgenhof.nl","mobile":"+31 6 12434973","name":"Camping De Wilgenhof","phone":"+31 521 370 072","shower":"yes","tents":"yes","toilets":"yes","website":"https://www.campingdewilgenhof.nl/"}},"763410710":{"location":[52.7279969,6.0758983],"ct":"NL","tp":"CR","ts":"2023-01-18T17:57:46Z","tX":529,"tY":334,"tags":{"dog":"yes","fee":"yes","internet_access":"wlan","name":"Camperplaats Haamstede","power_supply":"yes","sanitary_dump_station":"yes","website":"https://www.haamstedegiethoorn.nl/"}},"802677416":{"location":[52.724745,6.1620013],"ct":"NL","tp":"CS","ts":"2023-05-30T17:42:09Z","tX":529,"tY":334,"tags":{"addr:city":"Nijeveen","addr:housenumber":"15","addr:postcode":"7948NG","addr:street":"Kolderveen","caravans":"yes","contact:email":"j.l.schrotenboer@home.nl","contact:phone":"+31 6 18572485;+31 6 24209864","contact:website":"https://www.camping-kolderkamp.nl","internet_access":"yes","internet_access:fee":"no","name":"Minicamping Kolderkamp","operator":"Familie Schrotenboer","tents":"yes"}},"876108841":{"location":[52.817229,6.0155185],"ct":"NL","tp":"CS","ts":"2023-05-30T21:25:51Z","tX":529,"tY":334,"tags":{"name":"Minicamping De Houtwal","phone":"+31 561 451 897","website":"https://www.dehoutwal.nl"}},"891214360":{"location":[52.7038824,6.2185558],"ct":"NL","tp":"CS","ts":"2023-01-02T15:06:25Z","tX":529,"tY":334,"tags":{"addr:city":"Ruinerwold","addr:housenumber":"39","addr:postcode":"7961LD","addr:street":"Haakswold","caravans":"yes","email":"info@campinghethazenpad.nl","name":"Camping Het Hazenpad","phone":"+31 6 12286877","tents":"yes","website":"https://campinghethazenpad.nl"}},"908498936":{"location":[52.738662,6.2720721],"ct":"NL","tp":"CS","ts":"2023-07-17T17:58:15Z","tX":529,"tY":334,"tags":{"addr:city":"Ruinerwold","addr:housenumber":"94","addr:postcode":"7961NP","addr:street":"Dokter Larijweg","cabins":"yes","caravans":"yes","email":"info@detoffepeer.nl","mobile":"+31 6 52394137","name":"Camping De Toffe Peer","phone":"+31 522 474 859","shower":"yes","tents":"yes","toilets":"yes","website":"https://detoffepeer.nl"}},"923094923":{"location":[52.7793266,5.9822301],"ct":"NL","tp":"CS","ts":"2023-05-30T12:24:09Z","tX":529,"tY":334,"tags":{"addr:city":"Wetering","addr:housenumber":"74","addr:postcode":"8363TK","addr:street":"Wetering-Oost","capacity":"15","caravans":"yes","contact:email":"kamperen@turftente.nl","contact:phone":"+31 521 371 324","contact:website":"https://turftente.nl/","name":"Camping de Turftente","tents":"yes"}},"935459797":{"location":[52.7130344,5.9815394],"ct":"NL","tp":"CS","ts":"2021-04-26T15:17:16Z","tX":529,"tY":334,"tags":{"name":"Minicamping De Hendrikahoeve"}},"963164432":{"location":[52.8465751,6.1941256],"ct":"NL","tp":"CS","ts":"2021-07-10T08:57:18Z","tX":529,"tY":334,"tags":{"dog":"no","dryer":"no","kitchen":"no","name":"Camping Hoeve Erica","naturism":"no","payment:cash":"no","payment:girocard":"no","payment:mastercard":"no","payment:visa":"no","power_supply":"no","sanitary_dump_station":"no","sauna":"no","washing_machine":"no"}},"968844034":{"location":[52.7683196,6.2513479],"ct":"NL","tp":"CS","ts":"2023-05-30T12:16:36Z","tX":529,"tY":334,"tags":{"addr:city":"Havelte","addr:housenumber":"2","addr:postcode":"7971CT","addr:street":"Raadhuislaan","caravans":"yes","email":"info@jellyshoeve.nl","name":"Camping Jelly’s Hoeve","phone":"+31 521 342 808","tents":"yes","website":"https://www.jellyshoeve.nl"}},"1060228183":{"location":[52.7906725,6.0694665],"ct":"NL","tp":"CS","ts":"2023-05-30T12:24:11Z","tX":529,"tY":334,"tags":{"addr:city":"Steenwijkerwold","addr:housenumber":"14","addr:postcode":"8341TL","addr:street":"Thijendijk","name":"De Thijenkaampe","phone":"+31 521 589 529","website":"http://www.dethijenkaampe.nl"}},"1064418750":{"location":[52.8001694,6.0814736],"ct":"NL","tp":"CS","ts":"2023-05-30T12:24:11Z","tX":529,"tY":334,"tags":{"addr:city":"Tuk","addr:housenumber":"30","addr:postcode":"8334SL","addr:street":"Oldemarktseweg","email":"posthumus@home.nl","name":"Minicamping De Watertoren","phone":"+31 521 589 473","website":"http://www.minicampingdewatertoren.nl/"}},"1183920844":{"location":[52.7225526,6.297094],"ct":"NL","tp":"CS","ts":"2023-06-21T12:51:06Z","tX":529,"tY":334,"tags":{"name":"Minicamping Woldstek"}},"1188165672":{"location":[52.7617625,6.0803673],"ct":"NL","tp":"CS","ts":"2023-07-17T18:03:22Z","tX":529,"tY":334,"tags":{"caravans":"yes","email":"info@hoevemontigny.nl","landcover":"grass","name":"Hoeve Montigny","phone":"+31 6 42967477;+31 6 51885381","shower":"yes","tents":"yes","toilets":"yes","website":"https://hoevemontigny.nl/camping/"}},"1192510985":{"location":[52.7894476,6.0169667],"ct":"NL","tp":"CS","ts":"2023-07-26T21:12:34Z","tX":529,"tY":334,"tags":{"capacity:pitches":"12","caravans":"yes","email":"info@camping-kemperhoeve.nl","name":"Kemperhoeve","opening_hours":"Apr 1 - Oct 31","phone":"+31 6 27230657","shower":"yes","tents":"yes","toilets":"yes","website":"https://camping-kemperhoeve.nl/"}},"1193022901":{"location":[52.8561259,6.2882664],"ct":"NL","tp":"CS","ts":"2023-07-28T20:42:29Z","tX":529,"tY":334,"tags":{"cabins":"yes","capacity:cabins":"2","capacity:pitches":"13","caravans":"yes","email":"administratie@boerencampingopheterf.nl","landcover":"grass","name":"Op Het Erf","phone":"+31 521 344 221","shower":"yes","tents":"yes","toilets":"yes","website":"https://boerencampingopheterf.nl/"}},"1197229701":{"location":[52.7053621,6.3188131],"ct":"NL","tp":"CS","ts":"2023-08-11T22:04:53Z","tX":529,"tY":334,"tags":{"capacity:pitches":"10","caravans":"yes","email":"info@welgelegen.com","name":"Welgelegen","phone":"+31 514 522 442","shower":"yes","tents":"yes","toilets":"yes","website":"https://welgelegen.com/overnachten/minicamping/"}},"1198483262":{"location":[52.7037176,6.1282783],"ct":"NL","tp":"CS","ts":"2023-08-15T21:45:33Z","tX":529,"tY":334,"tags":{"caravans":"yes","email":"klaasvangijssel@planet.nl","mobile":"+31 6 13800086","motorhome":"yes","name":"Oltenbarg","phone":"+31 522 281 865","shower":"yes","tents":"yes","toilets":"yes","website":"https://www.oltenbarg.nl/"}},"1198896336":{"location":[52.8483516,6.3127974],"ct":"NL","tp":"CS","ts":"2023-08-17T08:14:55Z","tX":529,"tY":334,"tags":{"access":"customers","addr:city":"Diever","addr:housenumber":"2","addr:postcode":"7981LS","addr:street":"Westerdrift","capacity:caravans":"23","capacity:persons":"100","capacity:tents":"4","caravans":"yes","name":"Camping Oldendiever","operator":"Camping Oldendiever","tents":"yes"}},"1200091861":{"location":[52.8175345,6.077789],"ct":"NL","tp":"CS","ts":"2023-08-20T08:15:51Z","tX":529,"tY":334,"tags":{"capacity:pitches":"14","caravans":"yes","email":"contact@minicampingantpad.nl","motorhome":"yes","name":"An ‘t Pad","opening_hours":"Apr 1 - Oct 1","phone":"+31 521 743 333","shower":"yes","tents":"yes","toilets":"yes","website":"https://minicampingantpad.nl/"}},"1208209423":{"location":[52.7678469,5.9884762],"ct":"NL","tp":"CR","ts":"2023-09-16T05:52:25Z","tX":529,"tY":334,"tags":{"capacity:caravans":"4","caravans":"yes","email":"info@antwaeter.nl","motorhome":"no","name":"An't Waeter","phone":"+31 521 371 311","shower":"yes","tents":"no","toilets":"yes","website":"https://www.antwaeter.nl/mogelijkheden/camping"}},"1390719091":{"location":[52.8128359,6.1031091],"ct":"NL","tp":"CS","ts":"2011-08-08T11:59:24Z","tX":529,"tY":334,"tags":{"designation":"Natuurkampeerterrein De Woldberg ''Puur kamperen.","name":"Natuurkampeerterrein De Woldberg","source":"http://www.staatsbosbeheer.nl/overnachten/kampeerterreinen/de%20woldberg.aspx"}},"1474630451":{"location":[52.7076217,6.1502461],"ct":"NL","tp":"CS","ts":"2023-11-08T09:36:18Z","tX":529,"tY":334,"tags":{"addr:city":"Nijeveen","addr:housenumber":"9","addr:postcode":"7948ND","addr:street":"Matenweg","email":"info@oesstekkie.nl","name":"Mini-camping Oes Stekkie","phone":"+31 522 281 671","website":"https://www.oesstekkie.nl/"}},"2198606860":{"location":[52.8154415,5.9970994],"ct":"NL","tp":"CS","ts":"2023-06-22T12:09:26Z","tX":529,"tY":334,"tags":{"caravans":"yes","drinking_water":"yes","name":"De Eikenhof","power_supply":"yes","shower":"yes","tents":"yes","toilets":"yes","website":"https://www.eikenhof.nl/"}},"2198606864":{"location":[52.8157696,6.0065412],"ct":"NL","tp":"CS","ts":"2020-05-06T15:16:41Z","tX":529,"tY":334,"tags":{"name":"Camping Krolsbergen","website":"https://www.campingkrolsbergen.nl/"}},"2512646400":{"location":[52.7214803,6.0738588],"ct":"NL","tp":"CR","ts":"2021-02-16T17:09:25Z","tX":529,"tY":334,"tags":{"description":"Toiletten/Duschen im Hafenmeister Gebäude Elektro Anschlüsse","fee":"yes","internet_access":"wlan","name":"Passantenhaven de Zuiderkluft","power_supply":"yes","sanitary_dump_station":"yes","website":"https://havensweerribbenwieden.nl/giethoorn/"}},"2727041049":{"location":[52.7715203,6.0853952],"ct":"NL","tp":"CS","ts":"2015-03-25T19:35:55Z","tX":529,"tY":334,"tags":{"addr:city":"Giethoorn","addr:housenumber":"1t","addr:postcode":"8355VH","addr:street":"Kanaaldijk","name":"“Onder” de Heerenbrug","source":"BAG","source:date":"2014-02-11"}},"2863353045":{"location":[52.900704,6.1253137],"ct":"NL","tp":"CS","ts":"2023-05-27T19:56:42Z","tX":529,"tY":334,"tags":{"addr:city":"Noordwolde","addr:housenumber":"2","addr:postcode":"8391VE","addr:street":"Jokweg","name":"De Meenthe natuurkampeerterrein","source":"BAG","source:date":"2014-05-07","website":"https://www.meenthe.nl"}},"4228678107":{"location":[52.710217,6.0812156],"ct":"NL","tp":"CS","ts":"2022-06-06T07:24:00Z","tX":529,"tY":334,"tags":{"addr:city":"Giethoorn","addr:housenumber":"25","addr:street":"Zuiderpad","phone":"+31 6 48530501"}},"7515088590":{"location":[52.8104323,6.0015392],"ct":"NL","tp":"CS","ts":"2020-05-13T14:50:45Z","tX":529,"tY":334,"tags":{"name":"Villapark de Weerribben"}},"7720455675":{"location":[52.8827023,6.1386019],"ct":"NL","tp":"CS","ts":"2020-07-16T12:56:58Z","tX":529,"tY":334,"tags":{"email":"info@hanestede.nl","name":"Recreatiecentrum De Hanestede","website":"https://www.hanestede.nl/"}},"8983012066":{"location":[52.7467256,6.103777],"ct":"NL","tp":"CS","ts":"2021-08-05T10:38:17Z","tX":529,"tY":334,"tags":{"backcountry":"yes","canoe":"yes","description":"Legal free campsite, can only be reached by canoe","fee":"no","foot":"no","image":"https://www.mapillary.com/app/?pKey=263042425503847","image:access_sign":"https://www.mapillary.com/app/?pKey=406616314014026","name":"Kanokampeerplek Giethoorn-Oost","operator":"Natuurmonumenten","survey:date":"2018-07","vehicle":"no"}},"8983012067":{"location":[52.709786,6.0289491],"ct":"NL","tp":"CS","ts":"2021-08-05T10:38:17Z","tX":529,"tY":334,"tags":{"backcountry":"yes","canoe":"yes","description":"Legal free campsite, can only be reached by canoe","fee":"no","foot":"no","image":"https://www.mapillary.com/app/?pKey=149954180350641","image:access_sign":"https://www.mapillary.com/app/?pKey=406616314014026","name":"Kanokampeerplek Walengracht","operator":"Natuurmonumenten","survey:date":"2018-07","vehicle":"no"}},"9872165913":{"location":[52.738975,6.0909733],"ct":"NL","tp":"CS","ts":"2023-08-25T20:25:19Z","tX":529,"tY":334,"tags":{"contact:email":"info@campingdestouwe.nl","contact:phone":"+31 521 361 473","name":"Camping de Stouwe","website":"https://www.campingdestouwe.nl"}}}