{"16358447":{"location":[52.6679862,6.0141312],"ct":"NL","tp":"CS","ts":"2023-09-21T13:02:25Z","tX":529,"tY":335,"tags":{"capacity:pitches":"38","caravans":"yes","email":"info@campingheetveld.nl","name":"Heetveld","phone":"+31 527 246 243","shower":"yes","tents":"yes","toilets":"yes","website":"https://www.campingheetveld.nl/camping_kop_van_overijssel"}},"86845160":{"location":[52.5142895,6.2146129],"ct":"NL","tp":"CS","ts":"2024-09-09T11:17:26Z","tX":529,"tY":335,"tags":{"addr:city":"Dalfsen","addr:housenumber":"8","addr:postcode":"7722KT","addr:street":"Koepelallee","capacity:pitches":"18","caravans":"yes","dog":"leashed","drinking_water":"yes","email":"info@boerhoes.nl","internet_access":"wlan","motorhome":"yes","name":"Boerderijcamping Boerhoes","operator":"Antje Kingma en Thomas Zwiers","phone":"+31529401878","picnic_table":"yes","power_supply":"yes","sanitary_dump_station":"yes","shower":"yes","tents":"yes","toilets":"yes","washing_machine":"yes","website":"https://www.boerhoes.nl/"}},"88868179":{"location":[52.657336,6.3024708],"ct":"NL","tp":"CS","ts":"2023-08-11T21:46:43Z","tX":529,"tY":335,"tags":{"cabins":"yes","caravans":"yes","email":"info@devossenburcht.nl","landcover":"grass","name":"De Vossenburcht","phone":"+31 522 441 626","shower":"yes","tents":"yes","toilets":"yes","website":"https://www.devossenburcht.nl/"}},"89001260":{"location":[52.6861669,6.0020584],"ct":"NL","tp":"CS","ts":"2023-08-15T21:25:48Z","tX":529,"tY":335,"tags":{"caravans":"yes","drinking_water":"yes","mobile":"+31 6 50897839","name":"Het Waterhoentje","phone":"+31 527 246 674","power_supply":"yes","shower":"yes","tents":"yes","toilets":"yes","website":"https://www.waterhoentje.nl/"}},"89002807":{"location":[52.6865452,6.0450524],"ct":"NL","tp":"CS","ts":"2025-01-19T23:30:26Z","tX":529,"tY":335,"tags":{"addr:city":"Wanneperveen","addr:housenumber":"271","addr:postcode":"7946LV","addr:street":"Veneweg","name":"Camping Boschwiede","static_caravans":"yes","website":"https://www.boschwiede.nl/"}},"217522384":{"location":[52.5060278,6.3185727],"ct":"NL","tp":"CS","ts":"2023-05-30T12:23:54Z","tX":529,"tY":335,"tags":{"addr:city":"Dalfsen","addr:housenumber":"5","addr:postcode":"7722HS","addr:street":"Tolhuisweg","email":"camping@madriddalfsen.nl","name":"Madrid","phone":"+31 529 458 585","website":"http://www.expomadrid.nl/index.php/camping"}},"217555857":{"location":[52.5026699,6.3206701],"ct":"NL","tp":"CS","ts":"2025-01-17T12:20:30Z","tX":529,"tY":335,"tags":{"name":"het Tolhuis","website":"https://www.vechtdalcampingtolhuis.nl/"}},"356598673":{"location":[52.5881066,6.1478502],"ct":"NL","tp":"CS","ts":"2022-07-04T07:22:28Z","tX":529,"tY":335,"tags":{"addr:city":"Rouveen","addr:housenumber":"1","addr:postcode":"7954PD","addr:street":"Afschuttingsweg","email":"annielvv@gmail.com","name":"Boerderijcamping de Stadsgaten","phone":"+31 38 477 1692","website":"https://destadsgaten.nl"}},"387443303":{"location":[52.6182319,6.2667267],"ct":"NL","tp":"CS","ts":"2021-06-21T14:36:10Z","tX":529,"tY":335,"tags":{"contact:email":"dassenburcht@staatsbosbeheer.nl","contact:phone":"+31 6 23868060","designation":"Natuurkampeerterrein Dassenburcht ''Puur kamperen.","name":"Natuurkampeerterrein Dassenburcht","source":"http://www.staatsbosbeheer.nl/kamperen/dassenburcht"}},"475265770":{"location":[52.5335756,6.1478963],"ct":"NL","tp":"CS","ts":"2024-08-24T19:54:13Z","tX":529,"tY":335,"tags":{"addr:city":"Zwolle","addr:housenumber":"1","addr:postcode":"8035PA","addr:street":"Vechtdijk","capacity:tents":"100","caravans":"yes","name":"Terra Nautic","static_caravans":"yes","tents":"yes","website":"https://terranautic.nl"}},"777507579":{"location":[52.5150506,6.0857108],"ct":"NL","tp":"CR","ts":"2024-09-01T17:19:01Z","tX":529,"tY":335,"tags":{"addr:city":"Zwolle","addr:housenumber":"5","addr:postcode":"8011BK","addr:street":"Katerdijk","capacity":"18","lit":"yes","name":"Camperpark Hofvliet","power_supply":"yes","sanitary_dump_station":"yes"}},"864214131":{"location":[52.5131825,6.1039195],"ct":"NL","tp":"CR","ts":"2025-01-24T01:58:51Z","tX":529,"tY":335,"tags":{"capacity":"7","caravan_site":"motorhome_stopover","caravan_site:type":"parking_lot","charge":"6.5 EUR","dog":"yes","fee":"yes","maxstay":"72 hours","name":"Camperplaats Turfmarkt","power_supply":"no","sanitary_dump_station":"no","seasonal":"no","surface":"asphalt","water_point":"no","website":"https://www.visitzwolle.com/overnachten/camperplaatsen/50104-parking-turfmarkt-1/"}},"935459788":{"location":[52.682797,5.9821801],"ct":"NL","tp":"CS","ts":"2021-04-26T15:17:16Z","tX":529,"tY":335,"tags":{"name":"Camping De Schaarkamp","website":"https://www.schaarkamp.nl/"}},"1000487618":{"location":[52.6025928,6.2516054],"ct":"NL","tp":"CS","ts":"2024-06-24T08:53:34Z","tX":529,"tY":335,"tags":{"name":"Minicamping Rollecate","website":"https://minicampingrollecate.nl/"}},"1010926350":{"location":[52.5031541,6.0269215],"ct":"NL","tp":"CS","ts":"2021-12-10T09:46:04Z","tX":529,"tY":335,"tags":{"name":"Boerderij de IJsselhoeve","website":"https://www.ijsselhoeve.nu/"}},"1075381519":{"location":[52.5881319,6.0937748],"ct":"NL","tp":"CR","ts":"2025-01-18T10:50:10Z","tX":529,"tY":335,"tags":{"capacity":"50","caravan_site":"motorhome_stopover","caravan_site:type":"river;town","charge":"18 EUR/24 hours","check_in":"06:00-23:00","description":"closed for 2 weeks in Aug for Euifeest","dog":"leashed","dog:fee":"no","drinking_water":"yes","email":"info@camperparkinghasselt.nl","fee":"yes","internet_access":"wlan","internet_access:fee":"no","maxstay":"14 days","name":"CamperParkingHasselt","opening_hours":"24/7","power_supply":"yes","power_supply:fee":"no","shower":"yes","shower:charge":"1 EUR","shower:fee":"yes","toilets":"yes","water_point":"yes","water_point:fee":"no","website":"https://camperparkinghasselt.nl/"}},"1097737827":{"location":[52.5921203,6.2935635],"ct":"NL","tp":"CR","ts":"2025-01-24T02:08:41Z","tX":529,"tY":335,"tags":{"addr:city":"Nieuwleusen","addr:housenumber":"20","addr:postcode":"7711GN","addr:street":"Den Hulst","breakfast":"yes","cabins":"yes","campers":"yes","caravan_site":"motorhome_stopover","caravan_site:type":"spa","charge":"17.50 EUR","check_in":"14:00","check_out":"11:00","description":"spa, sauna, private outdoor hottub","dog":"leashed","dog:fee":"no","email":"info@camperplaatsvechtdal.nl","fee":"yes","internet_access":"wlan","internet_access:fee":"no","name":"Camperplaats Vechtdal","phone":"+31 6 12 62 61 17","power_supply":"yes","reservation":"yes","sanitary_dump_station":"yes","sanitary_dump_station:chemical_toilet":"yes","sanitary_dump_station:fee":"no","sanitary_dump_station:grey_water":"yes","sauna":"yes","tents":"no","toilets":"yes","website":"https://www.camperplaatsvechtdal.nl/"}},"1152874347":{"location":[52.6888026,6.0457802],"ct":"NL","tp":"CR","ts":"2024-04-20T16:27:13Z","tX":529,"tY":335,"tags":{"addr:city":"Wanneperveen","addr:housenumber":"306","addr:postcode":"7946LX","addr:street":"Veneweg","brand":"EuroParcs","brand:website":"https://www.europarcs.nl/","brand:wikidata":"Q27027130","brand:wikipedia":"nl:EuroParcs","name":"EuroParcs De Wiedense Meren","website":"https://www.europarcs.nl/vakantieparken/nederland/overijssel/de-wiedense-meren"}},"1184832723":{"location":[52.6354735,6.0451553],"ct":"NL","tp":"CS","ts":"2023-07-17T18:03:22Z","tX":529,"tY":335,"tags":{"cabins":"yes","capacity:caravans":"10","caravans":"yes","motorhome":"yes","name":"Camping de Noorde","phone":"+31 6 30315511","shower":"yes","start_date":"2020","tents":"yes","toilets":"yes","website":"https://www.campingdenoorde.nl/"}},"1193124733":{"location":[52.6249471,6.01565],"ct":"NL","tp":"CR","ts":"2025-01-24T12:23:01Z","tX":529,"tY":335,"tags":{"caravan_site":"motorhome_stopover","caravan_site:type":"farm_shop","caravans":"no","charge":"15 EUR","check_in":"-22:00","check_out":"12:00","dog":"leashed","email":"wf_de_haan@hotmail.com","fee":"yes","internet_access":"wlan","internet_access:fee":"no","laundry":"yes","motorhome":"designated","name":"Vlaktezicht","power_supply":"yes","power_supply:fee":"no","power_supply:maxcurrent":"16","product":"eggs;meat","sanitary_dump_station":"yes","sanitary_dump_station:chemical_toilet":"yes","sanitary_dump_station:grey_water":"yes","shower":"yes","shower:fee":"no","socket:cee_blue":"yes","surface":"paved","toilets":"yes","website":"https://www.vlaktezicht.nl/"}},"1195081083":{"location":[52.4959987,6.3240507],"ct":"NL","tp":"CS","ts":"2023-08-05T20:12:09Z","tX":529,"tY":335,"tags":{"capacity:pitches":"25","caravans":"yes","contact:whatsapp":"+31 6 27237347","email":"d.nijhoff@demaiskolf.nl","mobile":"+31 6 27237347","name":"De Maiskolf","opening_hours":"Mar 15 - Oct 31","phone":"+31 529 458 369","shower":"yes","tents":"yes","toilets":"yes","website":"https://www.demaiskolf.nl/"}},"1223794620":{"location":[52.6704833,6.0590114],"ct":"NL","tp":"CS","ts":"2023-11-15T13:45:25Z","tX":529,"tY":335,"tags":{"name":"De Kleine Belterwiede"}},"1351606647":{"location":[52.499573,6.25993],"ct":"NL","tp":"CR","ts":"2025-01-17T23:38:12Z","tX":529,"tY":335,"tags":{"capacity":"5","caravan_site":"motorhome_stopover","caravan_site:type":"roundabout","charge":"8 EUR","check_in":"12:00","check_out":"12:00","fee":"yes","maxstay":"48 hours","name":"Camperplaats Station Dalfsen","power_supply":"no","sanitary_dump_station":"no","water_point":"no","website":"https://camperplaatsallee.nl/product/camperplaats-station-dalfsen/"}},"1352217272":{"location":[52.5705167,6.2599372],"ct":"NL","tp":"CR","ts":"2025-01-17T23:38:12Z","tX":529,"tY":335,"tags":{"addr:city":"Nieuwleusen","addr:housenumber":"1","addr:postcode":"7711GE","addr:street":"Jagtlusterallee","caravan_site":"motorhome_stopover","caravan_site:type":"farm","charge":"17 EUR","dog":"yes","dog:charge":"1.50 EUR","dog:fee":"yes","email":"info@camperplaatsallee.nl","fee":"yes","name":"Camperplaats Allee","phone":"+31 6 54318597","power_supply":"yes","power_supply:charge":"2 EUR","power_supply:fee":"yes","reservation":"yes","shower":"yes","source":"BAG","source:date":"2018-08-08","toilets":"yes","website":"https://camperplaatsallee.nl/"}},"1352304817":{"location":[52.5938216,6.0876918],"ct":"NL","tp":"CR","ts":"2025-01-18T11:41:47Z","tX":529,"tY":335,"tags":{"capacity":"8","caravan_site":"motorhome_stopover","caravan_site:type":"harbour","charge":"16.70 EUR","fee":"yes","name":"Camperplaats Jachthaven de Molenwaard","power_supply":"yes","sanitary_dump_station:chemical_toilet":"yes","sanitary_dump_station:grey_water":"yes","shower":"yes","surface":"asphalt","toilets":"yes","water_point":"yes","website":"https://molenwaard.nl/kamperen/camperplaats"}},"1352322680":{"location":[52.5638535,6.0995599],"ct":"NL","tp":"CR","ts":"2025-01-18T13:26:08Z","tX":529,"tY":335,"tags":{"addr:city":"Hasselt","addr:housenumber":"18","addr:postcode":"8061RD","addr:street":"Zwolsedijk","caravan_site":"motorhome_stopover","caravan_site:type":"farm_shop","caravans":"yes","email":"info@zwolsedijk.nl","fee":"yes","name":"Camperplaats Zwolsedijk","phone":"+31 6 24627515","sanitary_dump_station":"yes","source":"BAG","source:date":"2014-01-22","tents":"yes","water_point":"yes","website":"https://www.zwolsedijk.nl/"}},"1353918378":{"location":[52.5308617,6.0743364],"ct":"NL","tp":"CR","ts":"2025-01-24T10:53:42Z","tX":529,"tY":335,"tags":{"capacity":"15","caravan_site":"motorhome_stopover","caravan_site:type":"harbour","charge":"19 EUR","dog":"yes","email":"info@jachthavendehanze.nl","fee":"yes","name":"Camperplaats de Hanze","power_supply":"yes","reservation":"no","sanitary_dump_station:chemical_toilet":"yes","toilets":"yes","website":"https://www.jachthavendehanze.nl/Camperplaatsen"}},"1353927668":{"location":[52.5395092,6.1285763],"ct":"NL","tp":"CR","ts":"2025-01-24T11:38:26Z","tX":529,"tY":335,"tags":{"addr:city":"Zwolle","addr:housenumber":"27","addr:postcode":"8034PJ","addr:street":"Haersterveerweg","capacity":"6","caravan_site":"motorhome_stopover","caravan_site:type":"camp_site","charge":"40 EUR","dog":"yes","dog:capacity":"2/pitch","dog:charge":"4.40 EUR","dog:fee":"yes","email":"info@campingagnietenberg.nl","fax":"+31 38 454 2084","fee":"yes","internet_access":"wlan","internet_access:fee":"no","maxlength":"8","name":"Molecaten Park De Agnietenberg","operator":"Camping Agnietenberg","phone":"+31 38 453 1530","power_supply":"yes","power_supply:maxcurrent":"10","sanitary_dump_station":"yes","socket:cee_blue":"yes","surface":"grass","water_point":"yes","website":"https://www.molecaten.nl/de-agnietenberg/camperplaats/campercomfortplaats"}},"1353942226":{"location":[52.6961378,6.1810374],"ct":"NL","tp":"CR","ts":"2025-01-24T13:07:30Z","tX":529,"tY":335,"tags":{"caravan_site":"motorhome_stopover","caravan_site:type":"harbour","internet_access":"wlan","laundry":"yes","name":"Camperplaats Westeinde","operator":"Gemeente Meppel","power_supply":"yes","power_supply:maxcurrent":"6","reservation":"no","sanitary_dump_station":"yes","sanitary_dump_station:chemical_toilet":"yes","sanitary_dump_station:fee":"no","sanitary_dump_station:grey_water":"yes","shower":"yes","shower:fee":"yes","toilets":"yes","toilets:fee":"no","water_point":"yes","water_point:fee":"no","website":"https://www.drenthe.nl/locaties/633976545/camperplaats-westeinde"}},"1811560726":{"location":[52.542286,6.3014711],"ct":"NL","tp":"CS","ts":"2024-05-28T11:06:33Z","tX":529,"tY":335,"tags":{"addr:city":"Dalfsen","addr:country":"NL","addr:housenumber":"4","addr:postcode":"7722TR","addr:street":"Hogenkampswegje","capacity:tents":"14","caravans":"yes","name":"boerderijcamping 't Slag","phone":"+31 529 471 205","static_caravans":"no","tents":"yes","website":"https://www.campingtslag.nl"}},"2172133175":{"location":[52.5369212,6.1297517],"ct":"NL","tp":"CS","ts":"2023-08-24T21:00:13Z","tX":529,"tY":335,"tags":{"addr:city":"Zwolle","addr:housenumber":"27","addr:postcode":"8034PJ","addr:street":"Haersterveerweg","caravans":"yes","drinking_water":"yes","name":"De Agnietenberg","operator":"Molecaten","phone":"+31 38 453 1530","power_supply":"yes","shower":"yes","tents":"yes","website":"https://www.campingagnietenberg.nl"}},"2284720458":{"location":[52.4995628,6.2599626],"ct":"NL","tp":"CR","ts":"2024-09-15T08:31:11Z","tX":529,"tY":335,"tags":{"capacity":"5","fee":"no","sanitary_dump_station":"no"}},"2636666867":{"location":[52.5645309,6.1006716],"ct":"NL","tp":"CR","ts":"2021-06-08T17:35:16Z","tX":529,"tY":335,"tags":{"addr:city":"Hasselt","addr:housenumber":"18","addr:postcode":"8061RD","addr:street":"Zwolsedijk","fixme":"Website toevoegen als/wanneer hij beschikbaar komt.\n\nCamperplaats intekenen an daar de tags op zetten i.p.v. op de adresnode van het huis.\n\n(datum: 2021-06-08)","name":"Camperplaats Zwolsedijk","source":"BAG","source:date":"2014-01-22"}},"2704368338":{"location":[52.6729614,6.0565623],"ct":"NL","tp":"CS","ts":"2017-12-11T19:35:25Z","tX":529,"tY":335,"tags":{"addr:city":"Belt-Schutsloot","addr:housenumber":"6","addr:postcode":"8066PT","addr:street":"Vaste Belterweg","name":"Camping 'De Wanepe'","source":"BAG","source:date":"2014-02-11"}},"2704368376":{"location":[52.6691331,6.0564582],"ct":"NL","tp":"CS","ts":"2018-04-20T14:36:20Z","tX":529,"tY":335,"tags":{"addr:city":"Belt-Schutsloot","addr:housenumber":"86","addr:postcode":"8066PX","addr:street":"Belterweg","name":"Appartementenverhuur en Camping 'De Polle'","source":"BAG","source:date":"2018-04-20"}},"2704368385":{"location":[52.6686458,6.0557929],"ct":"NL","tp":"CS","ts":"2018-04-20T14:36:20Z","tX":529,"tY":335,"tags":{"addr:city":"Belt-Schutsloot","addr:housenumber":"94","addr:postcode":"8066PZ","addr:street":"Belterweg","name":"Camping 'De Wieden'","source":"BAG","source:date":"2018-04-20"}},"2706989264":{"location":[52.6501067,6.3130737],"ct":"NL","tp":"CS","ts":"2021-07-22T04:58:16Z","tX":529,"tY":335,"tags":{"addr:city":"IJhorst","addr:housenumber":"9","addr:postcode":"7955PP","addr:street":"Veldhuisweg","name":"De Veentjes","source":"BAG","source:date":"2014-02-11"}},"2726539857":{"location":[52.6659904,5.9949679],"ct":"NL","tp":"CS","ts":"2023-05-28T08:10:28Z","tX":529,"tY":335,"tags":{"addr:city":"Sint Jansklooster","addr:housenumber":"9","addr:postcode":"8326BA","addr:street":"Kadoelerweg","internet_access":"wlan","name":"Het Kampererve","name:en":"Het Kampererve","name:nl":"Het Kampererve","source":"BAG","source:date":"2014-02-11","website":"https://www.hetkampererve.nl"}},"2727728651":{"location":[52.69436,6.0760117],"ct":"NL","tp":"CS","ts":"2020-10-26T13:29:58Z","tX":529,"tY":335,"tags":{"name":"Camping de Blauwe Hand"}},"3054898974":{"location":[52.5201652,6.0088226],"ct":"NL","tp":"CS","ts":"2024-06-24T08:53:34Z","tX":529,"tY":335,"tags":{"addr:city":"Zalk","addr:housenumber":"4","addr:postcode":"8276AG","addr:street":"Broeksteeg","backcountry":"no","caravans":"no","name":"Kampeerplaats De Leaghte","phone":"+31 6 24271135","tents":"yes","website":"https://www.kampeerplaatsdeleaghte.nl"}},"3744368021":{"location":[52.5383283,6.1315129],"ct":"NL","tp":"CR","ts":"2023-05-28T08:10:14Z","tX":529,"tY":335,"tags":{"addr:city":"Zwolle","addr:housenumber":"27","addr:postcode":"8034PJ","addr:street":"Haersterveerweg","email":"info@campingagnietenberg.nl","fax":"+31 38 454 2084","fee":"yes","name":"Agnietenberg","operator":"Camping Agnietenberg","phone":"+31 38 453 1530","power_supply":"yes","sanitary_dump_station":"yes","website":"https://www.campingagnietenberg.nl"}},"4325369594":{"location":[52.6713035,6.0303948],"ct":"NL","tp":"CS","ts":"2021-08-05T10:38:17Z","tX":529,"tY":335,"tags":{"backcountry":"yes","canoe":"yes","description":"Legal free campsite, can only be reached by canoe","fee":"no","foot":"no","image":"https://www.mapillary.com/app/?pKey=324178392396524","image:access_sign":"https://www.mapillary.com/app/?pKey=406616314014026","name":"Kanokampeerplek Kluitenberg","operator":"Natuurmonumenten","vehicle":"no"}},"4389847790":{"location":[52.5243239,6.1682893],"ct":"NL","tp":"CS","ts":"2022-07-29T12:17:43Z","tX":529,"tY":335,"tags":{"name":"Buitenplaats de Luwte","website":"https://www.buitenplaatsdeluwte.nl/"}},"5803852017":{"location":[52.6689099,5.9818732],"ct":"NL","tp":"CS","ts":"2023-05-28T08:10:37Z","tX":529,"tY":335,"tags":{"email":"info@campingdeoldenhof.nl","name":"Natuurkampeerterrein Camping de Oldenhof","phone":"+31 6 22601532;+31 6 13739756","website":"https://www.campingdeoldenhof.nl"}},"10300526734":{"location":[52.5984721,6.2849252],"ct":"NL","tp":"CS","ts":"2023-01-30T07:53:09Z","tX":529,"tY":335,"tags":{"addr:city":"Punthorst","addr:housenumber":"28","addr:postcode":"7715PH","addr:street":"Evenboersweg","caravans":"yes","contact:mobile":"+31 6 37290841;+31 6 13614985","contact:phone":"+31 529 483 463","contact:website":"https://www.zonnehorst.nl/boerderij-camping","name":"Boerderijcamping de Zonnehorst","tents":"yes"}},"11117694967":{"location":[52.6750344,6.0148957],"ct":"NL","tp":"CS","ts":"2023-08-15T21:25:48Z","tX":529,"tY":335,"tags":{"caravans":"yes","name":"Boerderij De Barsbeker","opening_hours":"Apr 01 - Oct 31","phone":"+31 527 246 450","shower":"yes","tents":"yes","toilets":"yes"}},"5853429355":{"location":[52.5698667,6.2607641],"ct":"NL","tp":"CR","ts":"2022-08-09T18:14:30Z","tX":529,"tY":335,"tags":{"addr:city":"Nieuwleusen","addr:housenumber":"1","addr:postcode":"7711GE","addr:street":"Jagtlusterallee","name":"Camperplaats Allee","source":"BAG","source:date":"2018-08-08","website":"https://camperplaatsallee.nl/"}},"6300987263":{"location":[52.6960775,6.1807497],"ct":"NL","tp":"CR","ts":"2021-09-20T05:40:37Z","tX":529,"tY":335,"tags":{"name":"Westeinde","operator":"Gemeente Meppel"}},"6575450194":{"location":[52.5307204,6.07482],"ct":"NL","tp":"CR","ts":"2019-06-28T12:17:26Z","tX":529,"tY":335,"tags":{"fee":"yes","name":"Camperplaats de Hanze"}},"10875809355":{"location":[52.6376714,6.0759163],"ct":"NL","tp":"CR","ts":"2025-01-24T12:29:44Z","tX":529,"tY":335,"tags":{"caravan_site":"motorhome_stopover","caravan_site:type":"harbour","caravans":"no","charge":"17 EUR","email":"havenmeesters@watersportzwartsluis.nl","fee":"yes","motorhome":"designated","name":"RC Zwartewater Camping","phone":"+31 38 386 6652","power_supply":"yes","power_supply:fee":"no","reservation":"yes","website":"https://watersportzwartsluis.nl/camping/passanten"}},"12000532562":{"location":[52.5120944,6.233217],"ct":"NL","tp":"CR","ts":"2025-01-24T01:29:06Z","tX":529,"tY":335,"tags":{"addr:city":"Dalfsen","addr:housenumber":"3A","addr:postcode":"7722PA","addr:street":"Ruitenborghweg","capacity":"20","caravan_site":"motorhome_stopover","caravan_site:type":"farm","charge":"19 EUR","dog":"leashed","dog:fee":"no","email":"info@deruitenborgh.nl","fee":"yes","internet_access":"wlan","internet_access:fee":"customers","name":"Camperplaats De Ruitenborgh","phone":"+31 6 30457625","power_supply":"yes","power_supply:charge":"0.50 EUR/kWh","power_supply:fee":"yes","power_supply:maxcurrent":"10","reservation":"no","sanitary_dump_station":"yes","sanitary_dump_station:chemical_toilet":"yes","sanitary_dump_station:fee":"no","sanitary_dump_station:grey_water":"yes","surface":"pebblestone","water_point":"yes","water_point:fee":"no","website":"https://www.deruitenborgh.nl/"}},"12511104719":{"location":[52.5814279,6.2821694],"ct":"NL","tp":"CR","ts":"2025-01-17T23:38:12Z","tX":529,"tY":335,"tags":{"capacity":"3","caravan_site":"motorhome_stopover","caravan_site:type":"parking_lot","charge":"8 EUR","check_in":"12:00","check_out":"12:00","fee":"yes","maxstay":"48 hours","name":"Camperplaats Parking Nieuwleusen","surface":"paving_stones","website":"https://camperplaatsallee.nl/product/camperplaats-nieuwleusen/"}}}