{"16139858":{"location":[52.3937594,6.0717021],"ct":"NL","tp":"CS","ts":"2023-12-04T16:15:15Z","tX":529,"tY":336,"tags":{"addr:city":"Heerde","addr:housenumber":"13","addr:postcode":"8181SN","addr:street":"Plakkenweg","caravans":"yes","email":"info@deplakken.nl","mobile":"+31 6 53989533","motorhome":"yes","name":"De Plakken","opening_hours":"Apr - Oct","phone":"+31 6 42938277","shower":"yes","tents":"yes","toilets":"yes","website":"https://www.deplakken.nl/"}},"62841304":{"location":[52.2761184,6.3241302],"ct":"NL","tp":"CS","ts":"2023-05-05T21:59:14Z","tX":529,"tY":336,"tags":{"brand":"SVR","caravans":"yes","landcover":"grass","mobile":"+31 6 23000460","name":"Ikkinkshof","opening_hours":"Apr 1 - Sep 30","operator":"Freek en Jenny Wilmerink","phone":"+31 570 551 217","shower":"yes","tents":"yes","toilets":"yes","website":"https://www.ikkinkshof.nl/"}},"63231072":{"location":[52.3004155,6.0981245],"ct":"NL","tp":"CS","ts":"2023-08-23T21:12:35Z","tX":529,"tY":336,"tags":{"caravans":"yes","email":"info@succesholidayparcs.nl","name":"De Scherpenhof","operator":"Succes Holidayparcs","phone":"+31 85 070 4777","shower":"yes","tents":"yes","toilets":"yes","website":"https://www.succesholidayparcs.nl/de-scherpenhof/kamperen"}},"63273965":{"location":[52.3570702,6.122993],"ct":"NL","tp":"CS","ts":"2022-09-27T13:47:04Z","tX":529,"tY":336,"tags":{"addr:city":"Olst","addr:housenumber":"44a","addr:postcode":"8121RZ","addr:street":"Holstweg","name":"Camping Het Klaverblad","phone":"+31 570 561 373","website":"https://campinghetklaverblad.nl/"}},"63333204":{"location":[52.3747515,6.3133966],"ct":"NL","tp":"CS","ts":"2024-08-12T19:51:21Z","tX":529,"tY":336,"tags":{"addr:city":"Mariënheem","addr:housenumber":"23","addr:postcode":"8106RH","addr:street":"Raamsweg","capacity":"15","name":"'t Linderhof","source":"3dShapes","website":"https://www.vekabo.nl/"}},"63661936":{"location":[52.4496055,6.3151862],"ct":"NL","tp":"CS","ts":"2023-07-17T18:03:21Z","tX":529,"tY":336,"tags":{"caravans":"yes","email":"info@derietkraag.com","landcover":"grass","mobile":"+31 6 42014884","name":"Natuurkampeerterrein De Rietkraag","opening_hours":"Apr 6- Sep 25","phone":"+31 572 372 601","shower":"yes","source":"http://www.natuurkampeerterreinen.nl","tents":"yes","toilets":"yes","website":"https://www.derietkraag.com/"}},"63744061":{"location":[52.4445994,6.0781848],"ct":"NL","tp":"CS","ts":"2023-06-13T05:54:47Z","tX":529,"tY":336,"tags":{"caravans":"yes","email":"t-klooster@kpnplanet.nl","internet_access":"wlan","internet_access:fee":"yes","landcover":"grass","mobile":"+31 6 13444273","name":"’t Klooster","phone":"+31 38 447 8433","shower":"yes","tents":"yes","toilets":"yes","website":"http://www.camping-t-klooster.nl/"}},"181581742":{"location":[52.3135843,6.0125656],"ct":"NL","tp":"CS","ts":"2023-05-30T12:18:38Z","tX":529,"tY":336,"tags":{"addr:city":"Emst","addr:housenumber":"5A","addr:postcode":"8166KR","addr:street":"Nijbroekerweg","email":"liangorkink3@gmail.com","name":"'t Hinkel","phone":"+31 578 661 190","website":"https://www.hinkel.nl"}},"181581743":{"location":[52.288572,5.9968801],"ct":"NL","tp":"CS","ts":"2012-09-18T10:46:52Z","tX":529,"tY":336,"tags":{"name":"De Ganzenemmer"}},"219292143":{"location":[52.4558727,6.0382399],"ct":"NL","tp":"CS","ts":"2021-05-21T21:48:01Z","tX":529,"tY":336,"tags":{"name":"Molecaten - De Leemcule"}},"236872996":{"location":[52.2906805,6.3077578],"ct":"NL","tp":"CS","ts":"2023-05-30T12:23:54Z","tX":529,"tY":336,"tags":{"addr:city":"Okkenbroek","addr:housenumber":"123A","addr:postcode":"7434RA","addr:street":"Oerdijk","group_only":"yes","internet_access":"no","name":"Oostermaet","phone":"+31 570 551 691","website":"https://www.natuurkampeerterreinen.nl/terreinen/overijssel/oostermaet-groepskamperen"}},"272235229":{"location":[52.3130733,6.2130309],"ct":"NL","tp":"CS","ts":"2023-09-23T16:31:51Z","tX":529,"tY":336,"tags":{"capacity:pitches":"20","caravans":"yes","email":"info@dekleinelippe.nl","fee":"yes","motorhome":"yes","name":"De Kleine Lippe","operator":"Stichting Vrije Recreatie","phone":"+31 570 531 328","shower":"yes","tents":"yes","toilets":"yes","website":"https://www.dekleinelippe.nl/camping/"}},"312033558":{"location":[52.3633205,6.0855386],"ct":"NL","tp":"CS","ts":"2023-05-30T12:24:01Z","tX":529,"tY":336,"tags":{"addr:city":"Olst","addr:housenumber":"17","addr:postcode":"8121SK","addr:street":"Fortmonderweg","email":"info@kampeeridee.eu","name":"'t Haasje","phone":"+31 570 241 041","website":"https://kampeeridee.eu"}},"349487277":{"location":[52.3597144,6.2476489],"ct":"NL","tp":"CS","ts":"2023-08-29T13:40:51Z","tX":529,"tY":336,"tags":{"name":"de Zwerver","wheelchair":"yes"}},"416173412":{"location":[52.3755338,6.0970755],"ct":"NL","tp":"CR","ts":"2024-08-06T09:38:54Z","tX":529,"tY":336,"tags":{"disused":"yes","name":"Camping de IJsselhoeve"}},"446957821":{"location":[52.3865311,6.1276394],"ct":"NL","tp":"CR","ts":"2016-10-11T08:18:55Z","tX":529,"tY":336,"tags":{"capacity":"10","fee":"no","name":"Camperplaats Wijhe","operator":"NKC","power_supply":"yes","sanitary_dump_station":"yes","wheelchair":"yes"}},"515449968":{"location":[52.3774525,6.0087123],"ct":"NL","tp":"CS","ts":"2024-06-24T08:38:50Z","tX":529,"tY":336,"tags":{"name":"Camping Mussenkamp","website":"https://www.mussenkamp.nl"}},"708621505":{"location":[52.343589,6.0951925],"ct":"NL","tp":"CS","ts":"2019-07-29T20:22:03Z","tX":529,"tY":336,"tags":{"name":"de Stuurmanskolk","website":"https://www.destuurmanskolk.nl/"}},"836457439":{"location":[52.4237917,6.0869035],"ct":"NL","tp":"CR","ts":"2023-07-25T17:15:51Z","tX":529,"tY":336,"tags":{"name":"Camperplaatsen Scheer's Hoeve","surface":"grass"}},"837936065":{"location":[52.3816989,6.0953788],"ct":"NL","tp":"CS","ts":"2024-08-04T10:40:42Z","tX":529,"tY":336,"tags":{"brand":"SVR","capacity:pitches":"59","caravans":"yes","email":"info@tesseplekke.nl","mobile":"+31 6 11436997","motorhome":"yes","name":"De Tesseplekke","phone":"+31 578 631 664","shower":"yes","tents":"yes","toilets":"yes","website":"https://www.tesseplekke.nl/"}},"842018796":{"location":[52.3269452,6.1840042],"ct":"NL","tp":"CS","ts":"2010-08-01T14:26:10Z","tX":529,"tY":336,"tags":{"name":"Boxbergen"}},"896274882":{"location":[52.4188299,6.2857841],"ct":"NL","tp":"CS","ts":"2023-05-30T12:24:09Z","tX":529,"tY":336,"tags":{"addr:city":"Raalte","addr:housenumber":"49","addr:postcode":"8102SZ","addr:street":"Raarhoeksweg","caravans":"yes","email":"info@flierefluiterraalte.nl","fee":"yes","name":"Minicamping De Flierefluiter","phone":"+31 572 357 756","tents":"yes","website":"https://flierefluiterraalte.nl/minicamping-overijssel"}},"907370201":{"location":[52.4085996,6.0481678],"ct":"NL","tp":"CS","ts":"2024-11-22T21:08:04Z","tX":529,"tY":336,"tags":{"addr:city":"Heerde","addr:housenumber":"4-1","addr:postcode":"8181LL","addr:street":"Koerbergseweg","cabins":"yes","caravans":"yes","email":"dekoerberg@molecaten.nl","name":"Molecaten Park De Koerberg","phone":"+31 578 699 810","tents":"yes","website":"https://www.molecaten.nl/de-koerberg"}},"946019730":{"location":[52.4403973,6.2835687],"ct":"NL","tp":"CS","ts":"2023-05-30T12:24:09Z","tX":529,"tY":336,"tags":{"addr:city":"Heino","addr:country":"NL","addr:housenumber":"10","addr:postcode":"8141PX","addr:street":"Schoolbosweg","cabins":"yes","caravans":"yes","email":"info@campingheino.nl","internet_access":"yes","internet_access:fee":"yes","name":"Camping Heino","phone":"+31 572 391 564","power_supply":"yes","stars":"5","tents":"yes","washing_machine":"yes","website":"https://www.campingheino.nl/","wheelchair":"yes"}},"946019762":{"location":[52.4749316,6.2632571],"ct":"NL","tp":"CR","ts":"2023-06-07T15:11:53Z","tX":529,"tY":336,"tags":{"addr:city":"Dalfsen","addr:housenumber":"4","addr:postcode":"7722KG","addr:street":"Sterrebosweg","contact:email":"info@starnbosch.nl","contact:phone":"+31 529 431 571","contact:website":"https://starnbosch.nl/","designated":"camper","name":"Camping Starnbosch","tents":"no"}},"946019763":{"location":[52.4742396,6.2620902],"ct":"NL","tp":"CS","ts":"2023-06-07T15:11:53Z","tX":529,"tY":336,"tags":{"addr:city":"Dalfsen","addr:housenumber":"4","addr:postcode":"7722KG","addr:street":"Sterrebosweg","caravans":"yes","contact:email":"info@starnbosch.nl","contact:phone":"+31 529 431 571","contact:website":"https://starnbosch.nl/","name":"Camping Starnbosch","tents":"yes"}},"970849663":{"location":[52.2857123,6.2516418],"ct":"NL","tp":"CS","ts":"2023-06-25T08:59:07Z","tX":529,"tY":336,"tags":{"addr:city":"Lettele","addr:housenumber":"2","addr:postcode":"7434RG","addr:street":"Butersdijk","cabins":"yes","campers":"yes","caravans":"yes","name":"Het Reterink","nudism":"designated","operator":"commercial","phone":"+31 6 53422927","shower":"yes","tents":"yes","toilets":"yes","website":"https://hetreterink.nl"}},"983579403":{"location":[52.3544579,6.0541898],"ct":"NL","tp":"CS","ts":"2023-05-30T12:19:12Z","tX":529,"tY":336,"tags":{"brand":"SVR","cabins":"yes","capacity:cabins":"2","capacity:pitches":"40","caravans":"yes","email":"camping@degrotebremen.nl","motorhome":"yes","name":"De Grote Bremen","opening_hours":"Mar 15 - Nov 1","phone":"+31 578 641 671","shower":"yes","tents":"yes","toilets":"yes","website":"https://www.degrotebremen.nl/html/camping/camping.html"}},"1064747283":{"location":[52.2828741,6.1731357],"ct":"NL","tp":"CS","ts":"2023-05-30T12:24:12Z","tX":529,"tY":336,"tags":{"addr:city":"Diepenveen","addr:housenumber":"39","addr:postcode":"7431PD","addr:street":"Wechelerweg","email":"info@dekleverkamp.nl","name":"Boerderijcamping De Kleverkamp","phone":"+31 570 620 812","website":"https://dekleverkamp.nl"}},"1078857675":{"location":[52.4704278,6.1230439],"ct":"NL","tp":"CS","ts":"2024-06-24T08:53:34Z","tX":529,"tY":336,"tags":{"addr:city":"Zwolle","addr:housenumber":"30a","addr:postcode":"8015PD","addr:street":"Hollewandsweg","fee":"yes","internet_access":"yes","name":"'t Hofje van Hoog-Zuthem","payment:cash":"yes","payment:maestro":"yes","payment:v_pay":"yes","phone":"+31 529 497 906","website":"https://www.hoog-zuthem.nl/campingzwolle.html"}},"1088492283":{"location":[52.4403971,6.2835687],"ct":"NL","tp":"CS","ts":"2022-08-23T14:56:19Z","tX":529,"tY":336,"tags":{"name":"Camping Heino"}},"1126185828":{"location":[52.287162,6.0695416],"ct":"NL","tp":"CS","ts":"2024-08-26T12:25:01Z","tX":529,"tY":336,"tags":{"alt_name":"Recreatie- & Hertenboerderij De Weerd","cabins":"yes","capacity:pitches":"45","caravans":"yes","email":"info@hertenboerderij.nl","fee":"yes","landcover":"grass","name":"De Weerd","opening_hours":"Apr 1 - Oct 30","phone":"+31 571 291 996","shower":"yes","tents":"yes","toilets":"yes","website":"https://hertenboerderij.nl/camping/"}},"1191624137":{"location":[52.3065026,6.0773964],"ct":"NL","tp":"CS","ts":"2023-07-23T17:00:43Z","tX":529,"tY":336,"tags":{"cabins":"yes","caravans":"no","email":"info@veluwsevakantiehuisjes.nl","mobile":"+31 6 46444446","name":"Park Nieuw Grapendaal","phone":"+31 571 292 208","shower":"yes","tents":"yes","toilets":"yes","website":"https://www.veluwsevakantiehuisjes.nl/kampeerterrein/"}},"1191627565":{"location":[52.3636437,6.0171486],"ct":"NL","tp":"CS","ts":"2023-11-30T21:42:56Z","tX":529,"tY":336,"tags":{"caravans":"yes","email":"info@minicampingtvemdebroek.nl","mobile":"+31 6 23995544","name":"'t Vemdebroek","opening_hours":"Apr 1 - Sep 30","phone":"+31 578 641 156","shower":"yes","tents":"yes","toilets":"yes","website":"https://minicampingtvemdebroek.nl/"}},"1193126941":{"location":[52.4394038,6.0998339],"ct":"NL","tp":"CS","ts":"2023-07-29T13:09:25Z","tX":529,"tY":336,"tags":{"capacity:pitches":"25","caravans":"yes","email":"campinghetoever@gmail.com","name":"Het Oever","phone":"+31 6 11824593","shower":"yes","start_date":"2018","tents":"yes","toilets":"yes","website":"https://www.boerderijcampinghetoever.com/"}},"1193131624":{"location":[52.4013904,6.0357876],"ct":"NL","tp":"CS","ts":"2023-07-29T13:26:28Z","tX":529,"tY":336,"tags":{"capacity:pitches":"12","caravans":"yes","email":"info@kamperklippenheerde.nl","mobile":"+31 6 23970069","name":"De Kamperklippen","phone":"+31 578 697 546","shower":"yes","tents":"yes","toilets":"yes","website":"https://kamperklippenheerde.nl/kamperen"}},"1202529934":{"location":[52.3074462,6.1547368],"ct":"NL","tp":"CS","ts":"2023-08-27T12:11:57Z","tX":529,"tY":336,"tags":{"alt_name":"Aan 'T Ven","caravans":"yes","mobile":"+31 6 22340334","name":"Aantven","opening_hours":"Apr 1 - Sep 30","phone":"+31 570 592 879","shower":"yes","tents":"yes","toilets":"yes","website":"https://www.aantven.nl"}},"1228670337":{"location":[52.3958177,6.0709852],"ct":"NL","tp":"CS","ts":"2023-12-04T16:15:12Z","tX":529,"tY":336,"tags":{"source":"3dShapes"}},"1228670375":{"location":[52.3779537,6.0050311],"ct":"NL","tp":"CS","ts":"2023-12-04T16:15:12Z","tX":529,"tY":336,"tags":{"addr:city":"Heerde","addr:housenumber":"4","addr:postcode":"8181PC","addr:street":"Klippenweg","contact:website":"https://campingdeklippen.nl","name":"Camping de Klippen"}},"1253348541":{"location":[52.4779106,6.0699405],"ct":"NL","tp":"CR","ts":"2025-01-15T16:15:13Z","tX":529,"tY":336,"tags":{"capacity":"22","caravan_site":"motorhome_stopover","caravan_site:type":"harbour","charge":"21 EUR","check_in":"-22:00","fee":"yes","internet_access":"wlan","internet_access:fee":"no","maxlength":"8","name":"IJsseldelta Marina Hattem","power_supply":"yes","power_supply:charge":"5 EUR/24 hours","power_supply:fee":"yes","power_supply:maxcurrent":"10","reservation":"yes","sanitary_dump_station:chemical_toilet":"yes","shower":"yes","shower:fee":"yes","toilets":"yes","toilets:fee":"no","water_point":"yes","water_point:fee":"no","website":"https://www.ijsseldeltamarina.nl/camperplaats"}},"1342996533":{"location":[52.4109674,6.0406593],"ct":"NL","tp":"CS","ts":"2024-12-18T13:44:34Z","tX":529,"tY":336,"tags":{"cabins":"yes","caravans":"yes","email":"info@dezandkuil.nl","name":"Camping De Zandkuil","phone":"+31 578 691 952","tents":"yes","website":"https://www.dezandkuil.nl/","wheelchair":"limited"}},"2714329132":{"location":[52.4079187,6.0615172],"ct":"NL","tp":"CS","ts":"2018-07-10T11:39:41Z","tX":529,"tY":336,"tags":{"addr:city":"Heerde","addr:housenumber":"12b","addr:postcode":"8181LH","addr:street":"Wapenvelder Kerkweg","name":"Camping de Bankenburg","source":"BAG","source:date":"2018-06-08","website":"https://debankenburg.nl"}},"2729528246":{"location":[52.4105372,6.0433913],"ct":"NL","tp":"CS","ts":"2022-06-06T09:56:20Z","tX":529,"tY":336,"tags":{"addr:city":"Heerde","addr:housenumber":"25","addr:postcode":"8181LP","addr:street":"Veldweg","name":"Camping De Zandkuil","phone":"+31 578 691 952","source":"BAG","source:date":"2014-02-11","website":"https://www.dezandkuil.nl/","wheelchair":"limited"}},"2769811177":{"location":[52.2998185,6.1208932],"ct":"NL","tp":"CS","ts":"2019-03-28T14:09:13Z","tX":529,"tY":336,"tags":{"addr:city":"Olst","addr:housenumber":"3","addr:postcode":"8121PM","addr:street":"Randerstraat","name":"Zuidvelde","source":"BAG","source:date":"2014-03-24","website":"https://www.zuidvelde.com/"}},"2787266337":{"location":[52.3740486,6.3133392],"ct":"NL","tp":"CS","ts":"2024-08-12T19:51:21Z","tX":529,"tY":336,"tags":{"addr:city":"Mariënheem","addr:country":"NL","addr:housenumber":"23","addr:postcode":"8106RH","addr:street":"Raamsweg","name":"Minicamping 't Linderhof","source":"BAG","source:date":"2014-03-24","website":"https://www.campinglinderhof.nl/"}},"3473804963":{"location":[52.3515667,6.1926949],"ct":"NL","tp":"CS","ts":"2015-04-23T18:45:42Z","tX":529,"tY":336,"tags":{"name":"Natuurkampeerterrein De Marsbelte"}},"3508208770":{"location":[52.3266386,6.1300756],"ct":"NL","tp":"CR","ts":"2022-06-06T07:23:22Z","tX":529,"tY":336,"tags":{"addr:city":"Olst","addr:housenumber":"9","addr:postcode":"8121CV","addr:street":"Eikelhofweg","name":"Ruimzicht","operator":"Eet-Cafe-Bar Ruimzicht","phone":"+31 570 563 941"}},"4338085255":{"location":[52.4273311,6.3100709],"ct":"NL","tp":"CS","ts":"2023-05-28T08:10:47Z","tX":529,"tY":336,"tags":{"addr:city":"Raalte","addr:housenumber":"19","addr:postcode":"8102SV","addr:street":"Krieghuisweg","caravans":"yes","email":"info@krieghuusbelten.nl","name":"Krieghuusbelten","phone":"+31 572 371 575","tents":"yes","website":"https://www.krieghuusbelten.nl"}},"4394176655":{"location":[52.4660714,6.0571242],"ct":"NL","tp":"CS","ts":"2022-06-06T10:21:19Z","tX":529,"tY":336,"tags":{"addr:city":"Hattem","addr:housenumber":"1","addr:postcode":"8051PM","addr:street":"Koeweg","name":"Camping Landgoed Molecaten","operator":"Molecaten Park Landgoed Molecaten B.V.","phone":"+31 38 444 7044","website":"https://www.molecaten.nl/landgoed-molecaten"}},"10576373373":{"location":[52.370253,6.2343451],"ct":"NL","tp":"CS","ts":"2023-01-23T11:05:36Z","tX":529,"tY":336,"tags":{"capacity:persons":"40","fee":"yes","name":"Natuurcamping de Joxhorst","website":"https://joxhorst.nl/"}},"12167752719":{"location":[52.3874427,6.2942158],"ct":"NL","tp":"CR","ts":"2024-09-10T09:33:18Z","tX":529,"tY":336,"tags":{"addr:housenumber":"6","addr:street":"Assendorperweg","name":"De Heemse Weide","opening_hours":"24/7","phone":"+31642781411","website":"https://www.deheemseweide.nl/"}}}