{"59376593":{"location":[52.0650112,6.3192297],"ct":"NL","tp":"CS","ts":"2023-05-30T19:04:44Z","tX":529,"tY":337,"tags":{"brand":"SVR","cabins":"yes","capacity:cabins":"2","capacity:pitches":"31","caravans":"yes","email":"info@wiemelinkhof.nl","landcover":"grass","name":"Wiemelinkhof","phone":"+31 6 15880045","shower":"yes","tents":"yes","toilets":"yes","website":"https://www.wiemelinkhof.nl"}},"59386869":{"location":[52.1252808,6.2865126],"ct":"NL","tp":"CS","ts":"2023-08-03T22:08:43Z","tX":529,"tY":337,"tags":{"capacity:pitches":"15","caravans":"yes","email":"kampeerboerderijolthof@gmail.com","landcover":"grass","mobile":"+31 6 38332425","name":"Wagenvoort","old_name":"t Olthof","phone":"+31 575 551 378","shower":"yes","tents":"yes","toilets":"yes","website":"https://www.kampeerboerderijwagenvoort.nl/"}},"59413964":{"location":[52.1282188,6.1555479],"ct":"NL","tp":"CS","ts":"2023-11-10T16:02:45Z","tX":529,"tY":337,"tags":{"name":"Landschapscamping 't Lentinck","website":"https://lentinck.nl/"}},"59849020":{"location":[52.1843721,6.2756809],"ct":"NL","tp":"CS","ts":"2015-08-28T10:48:40Z","tX":529,"tY":337,"tags":{"landuse":"grass","name":"De Huurne","source":"survey & Bing"}},"59856455":{"location":[52.1982322,6.2162961],"ct":"NL","tp":"CS","ts":"2014-12-21T19:01:39Z","tX":529,"tY":337,"tags":{"landuse":"grass","name":"Jong Amelte","source":"3dShapes"}},"59857975":{"location":[52.1981385,6.2157414],"ct":"NL","tp":"CS","ts":"2014-12-21T19:02:22Z","tX":529,"tY":337,"tags":{"landuse":"grass","source":"3dShapes"}},"59858057":{"location":[52.1638203,6.2502793],"ct":"NL","tp":"CS","ts":"2020-04-28T10:21:57Z","tX":529,"tY":337,"tags":{"name":"Waldhoorn"}},"59866365":{"location":[52.2319773,6.3203346],"ct":"NL","tp":"CS","ts":"2023-07-22T05:02:55Z","tX":529,"tY":337,"tags":{"cabins":"yes","capacity:cabins":"1","capacity:pitches":"23","caravans":"yes","email":"info@dehogemoat.nl","mobile":"+31 6 12903337","name":"De Hoge Moât","phone":"+31 570 541 493","shower":"yes","tents":"yes","toilets":"yes","website":"https://www.dehogemoat.nl"}},"59866921":{"location":[52.2569729,6.2941285],"ct":"NL","tp":"CS","ts":"2024-08-14T11:16:51Z","tX":529,"tY":337,"tags":{"addr:city":"Bathmen","addr:housenumber":"16","addr:postcode":"7437RZ","addr:street":"Traasterdijk","cabins":"yes","caravans":"yes","email":"info@flierweide.nl","mobile":"+31 6 23640784","motorhome":"yes","name":"Camping De Flierweide","phone":"+31 570 541 478","shower":"yes","tents":"yes","toilets":"yes","website":"https://www.flierweide.nl"}},"60299424":{"location":[52.2324937,6.1331061],"ct":"NL","tp":"CS","ts":"2024-08-14T18:09:16Z","tX":529,"tY":337,"tags":{"addr:city":"Wilp","addr:housenumber":"6","addr:postcode":"7384CA","addr:street":"Buddezand","name":"de Wildernis","website":"https://www.ecostay.nl/de-wildernis"}},"60299484":{"location":[52.2136325,6.143666],"ct":"NL","tp":"CS","ts":"2023-05-30T12:18:34Z","tX":529,"tY":337,"tags":{"addr:city":"Wilp","addr:housenumber":"7","addr:postcode":"7384AD","addr:street":"Lathmerweg","capacity":"17","caravans":"yes","contact:email":"info@campingdelathmer.nl","contact:phone":"+31 571 262 057","contact:website":"https://www.campingdelathmer.nl","name":"Landgoedcamping De Lathmer","tents":"yes"}},"60452909":{"location":[52.2495089,6.0566787],"ct":"NL","tp":"CS","ts":"2023-05-30T12:18:34Z","tX":529,"tY":337,"tags":{"cabins":"yes","caravans":"yes","email":"info@deweeltenkamp.nl","name":"Camping de Weeltenkamp","phone":"+31 55 200 0204","shower":"yes","tents":"yes","toilets":"yes","website":"https://www.deweeltenkamp.nl/"}},"60454472":{"location":[52.0698371,6.0269726],"ct":"NL","tp":"CS","ts":"2025-01-23T11:36:46Z","tX":529,"tY":337,"tags":{"access":"private","barrier":"fence","cabins":"yes","caravans":"yes","contact:phone":"+31 313 619 475","dog":"yes","dog:fee":"yes","email":"gelre@lbgelre.nl","fee":"yes","internet_access":"wlan","landuse":"grass","maxlength":"7","motorhome":"yes","name":"Lichtbond Gelre","nudism":"designated","operator":"Naturistenvereniging Lichtbond Gelre","permanent_camping":"yes","power_supply":"yes","sanitary_dump_station":"yes","tents":"yes","toilets":"yes","website":"https://lbgelre.nl/"}},"60472150":{"location":[52.1274633,6.001184],"ct":"NL","tp":"CS","ts":"2021-09-05T14:29:06Z","tX":529,"tY":337,"tags":{"landuse":"grass","name":"Ruigeveld","scout":"yes","source":"3dShapes"}},"60627936":{"location":[52.1886171,6.0461141],"ct":"NL","tp":"CR","ts":"2024-11-21T00:34:17Z","tX":529,"tY":337,"tags":{"capacity":"25","caravan_site":"motorhome_stopover","caravan_site:type":"farm","caravans":"no","charge":"15 EUR","dog":"leashed","email":"camperplaatsdegroteleigraaf@gmail.com","fee":"yes","internet_access":"wlan","internet_access:fee":"no","name":"Camperplaats en melkveebedrijf De Grote Leigraaf","phone":"+31 6 19327075","power_supply":"yes","power_supply:capacity":"25","power_supply:fee":"no","power_supply:maxcurrent":"16","reservation":"yes","sanitary_dump_station":"yes","sanitary_dump_station:chemical_toilet":"yes","sanitary_dump_station:fee":"no","sanitary_dump_station:grey_water":"yes","surface":"grass","tents":"no","toilets":"yes","water_point":"yes","water_point:fee":"no","website":"https://www.camperplaats-en-melkveebedrijf-de-grote-leigraaf.nl/"}},"60648827":{"location":[52.2611534,5.9975625],"ct":"NL","tp":"CS","ts":"2023-06-13T05:54:47Z","tX":529,"tY":337,"tags":{"cabins":"yes","capacity:pitches":"25","caravans":"yes","landcover":"grass","mobile":"+31 6 48648166","name":"Bomhofshoeve","opening_hours":"Mar 15 - Nov 1","phone":"+31 55 312 1294","shower":"yes","tents":"yes","toilets":"yes","website":"https://bomhofshoeve.nl/"}},"72152324":{"location":[52.1166834,6.31804],"ct":"NL","tp":"CS","ts":"2024-01-21T09:46:14Z","tX":529,"tY":337,"tags":{"addr:city":"Vorden","addr:housenumber":"6","addr:postcode":"7251JM","addr:street":"van Lennepweg","caravans":"yes","fee":"yes","name":"Natuurkampeerterrein Daske","phone":"+31 575 552 701","tents":"yes","website":"https://www.daske.nl"}},"110477286":{"location":[52.2483528,6.0488673],"ct":"NL","tp":"CS","ts":"2024-03-11T16:13:18Z","tX":529,"tY":337,"tags":{"contact:website":"https://oegenbos.nl","name":"Minicamping 't Oegenbos"}},"125947323":{"location":[52.1087513,6.0103178],"ct":"NL","tp":"CS","ts":"2024-06-01T07:45:01Z","tX":529,"tY":337,"tags":{"addr:city":"Loenen","addr:housenumber":"28","addr:postcode":"7371CR","addr:street":"Bruisbeek","caravans":"yes","drinking_water":"yes","internet_access":"no","motorhome":"yes","name":"Natuurkampeerterrein Zegenoord","nudism":"no","operator":"Stichting Goed Kamp","phone":"+31 55 505 2518","power_supply":"yes","reservation":"recommended","sanitary_dump_station":"customers","shower":"yes","tents":"yes","toilets":"yes","website":"https://www.goedkamp.nl/zegenoord/zegenoord","wheelchair":"designated"}},"136385901":{"location":[52.1515301,6.2895265],"ct":"NL","tp":"CS","ts":"2024-07-18T07:53:09Z","tX":529,"tY":337,"tags":{"access":"customers","addr:city":"Almen","addr:housenumber":"31C","addr:postcode":"7218PA","addr:street":"Lage Lochemseweg","capacity":"47","capacity:tents":"45","caravans":"yes","dog":"yes","drinking_water":"yes","dryer":"yes","email":"info@grootbesselink.nl","fee":"yes","image":"https://grootbesselink.nl/wp-content/uploads/2018/09/DGB-3334-1.jpg","internet_access":"wlan","internet_access:fee":"no","internet_access:ssid":"DGB - Gast","kitchen":"yes","mobile":"+31 6 21638390","motorhome":"yes","name":"Domein Groot Besselink","opening_hours":"Apr-Sept","payment:cards":"yes","payment:cash":"yes","payment:contactless":"yes","payment:debit_cards":"yes","power_supply":"yes","sanitary_dump_station":"yes","sauna":"yes","shower":"yes","smokefree":"yes","smoking":"no","tents":"yes","toilets":"yes","washing_machine":"yes","website":"https://grootbesselink.nl/camping-domein-groot-besselink/"}},"162439074":{"location":[52.1716789,6.2430598],"ct":"NL","tp":"CS","ts":"2019-03-28T14:22:18Z","tX":529,"tY":337,"tags":{"name":"De Wijte","website":"https://www.dewijte.nl/"}},"260616583":{"location":[52.0941622,6.0829976],"ct":"NL","tp":"CS","ts":"2023-05-30T19:04:57Z","tX":529,"tY":337,"tags":{"addr:city":"Eerbeek","addr:housenumber":"10a","addr:postcode":"6961LR","addr:street":"Brummenseweg","name":"De Brummel","website":"https://www.campingdebrummel.nl/brummel/De_Brummel.html"}},"260616584":{"location":[52.1003184,6.0804512],"ct":"NL","tp":"CS","ts":"2025-02-11T21:46:10Z","tX":529,"tY":337,"tags":{"addr:city":"Eerbeek","addr:housenumber":"4","addr:postcode":"6961LK","addr:street":"Doonweg","name":"Robertsoord","website":"https://www.campingrobertsoord.com/"}},"261584393":{"location":[52.0677698,6.0563274],"ct":"NL","tp":"CS","ts":"2020-08-29T09:23:53Z","tX":529,"tY":337,"tags":{"name":"Recreatie Centrum H.A.L.","operator":"H.A.L. (Holland Amerika Lijn)"}},"261651573":{"location":[52.1119283,6.0542923],"ct":"NL","tp":"CR","ts":"2015-05-03T17:36:21Z","tX":529,"tY":337,"tags":{}},"261651576":{"location":[52.1050737,6.090135],"ct":"NL","tp":"CS","ts":"2023-06-30T14:27:15Z","tX":529,"tY":337,"tags":{"addr:city":"Hall","addr:housenumber":"10","addr:postcode":"6964AM","addr:street":"Hallseweg","name":"Natuurkampeerterrein Het Hallse Hull","operator":"Nivon","website":"https://hethallsehull.nivon.nl/"}},"261651580":{"location":[52.1092596,6.0925909],"ct":"NL","tp":"CS","ts":"2023-10-27T10:27:13Z","tX":529,"tY":337,"tags":{"addr:city":"Hall","addr:housenumber":"44","addr:postcode":"6964AE","addr:street":"Zwarteweg","name":"Recreatiecentrum \"De Wrange\""}},"261651583":{"location":[52.1110217,6.107845],"ct":"NL","tp":"CS","ts":"2023-05-30T12:18:40Z","tX":529,"tY":337,"tags":{"addr:city":"Hall","addr:housenumber":"7","addr:postcode":"6964BC","addr:street":"Kikvorsenstraat","capacity":"70","caravans":"yes","email":"info@campingdekikker.nl","name":"Naturistencamping \"De Kikker\"","nudism":"yes","phone":"+31 313 652 056","shower":"yes","tents":"yes","toilets":"yes","website":"https://campingdekikker.nl/"}},"261811786":{"location":[52.1193014,6.0081482],"ct":"NL","tp":"CS","ts":"2024-06-27T17:37:56Z","tX":529,"tY":337,"tags":{"addr:city":"Loenen","addr:housenumber":"36","addr:postcode":"7371EZ","addr:street":"Loener Schepersweg","caravans":"yes","drinking_water":"yes","name":"Reeëndal","power_supply":"yes","sanitary_dump_station":"yes","shower":"yes","tents":"yes","toilets":"yes","website":"https://www.reeendal.nl"}},"261811788":{"location":[52.1431646,6.0345091],"ct":"NL","tp":"CS","ts":"2025-01-24T15:00:55Z","tX":529,"tY":337,"tags":{"addr:city":"Lieren","addr:housenumber":"444","addr:postcode":"7364CB","addr:street":"Kanaal Zuid","name":"De Bosgraaf","operator":"Ardoer.com","website":"https://www.ardoer.com/nl/camping/bosgraaf"}},"262361233":{"location":[52.0685869,6.0856389],"ct":"NL","tp":"CS","ts":"2021-01-23T21:31:49Z","tX":529,"tY":337,"tags":{"addr:city":"Laag-Soeren","addr:housenumber":"4","addr:postcode":"6957DE","addr:street":"Priesnitzlaan","name":"Camping Boszicht","website":"https://www.campingboszicht.nl/"}},"430605964":{"location":[52.2187821,6.2630653],"ct":"NL","tp":"CS","ts":"2009-06-29T07:48:48Z","tX":529,"tY":337,"tags":{"name":"De Vlinder-hoeve"}},"503158013":{"location":[52.0564287,6.1453848],"ct":"NL","tp":"CS","ts":"2017-07-01T09:33:32Z","tX":529,"tY":337,"tags":{"capacity":"15","name":"Mini Camping Breukink","operator":"SVR","website":"http://www.forellenvijver.com/?page_id=14"}},"503227952":{"location":[52.1173455,6.3243246],"ct":"NL","tp":"CS","ts":"2023-05-30T19:04:51Z","tX":529,"tY":337,"tags":{"capacity":"125","name":"Camping de Goldberg","website":"https://www.degoldberg.nl"}},"503954962":{"location":[52.0729283,6.2714061],"ct":"NL","tp":"CS","ts":"2023-06-24T06:54:12Z","tX":529,"tY":337,"tags":{"addr:city":"Wichmond","addr:country":"NL","addr:housenumber":"34","addr:postcode":"7234ST","addr:street":"Lankhorsterstraat","capacity":"21","caravans":"yes","email":"warnstee@hetnet.nl","internet_access":"wlan","landcover":"grass","name":"Warnstee","opening_hours":"Mar 15-Oct 31","operator":"E. Rozendaal","phone":"+31 575 441 654","shower":"yes","tents":"yes","toilets":"yes","website":"https://www.warnstee.nl/"}},"508309321":{"location":[52.1020487,6.2611],"ct":"NL","tp":"CS","ts":"2023-05-30T12:18:58Z","tX":529,"tY":337,"tags":{"capacity":"12","caravans":"yes","email":"info@tboshuis.nl","fax":"+31 575 442 038","internet_access":"yes","name":"Rietman","operator":"Fam Rietman","phone":"+31 575 441 302","shower":"yes","tents":"yes","toilets":"yes","website":"http://www.tboshuis.nl/svr-minicamping"}},"578153235":{"location":[52.1635644,6.3172265],"ct":"NL","tp":"CS","ts":"2019-03-28T14:09:52Z","tX":529,"tY":337,"tags":{"capacity":"30","name":"De Baankreis","website":"https://www.baankreis.nl/"}},"593906941":{"location":[52.1068891,6.2420395],"ct":"NL","tp":"CR","ts":"2021-09-26T15:09:59Z","tX":529,"tY":337,"tags":{"designation":"camper","fee":"yes","fee:price":"€ 7.50","name":"Camperplaats de Akker","tents":"no","website":"https://www.hanzestadcampers.nl/l/camperplaats-de-akker/"}},"621072776":{"location":[52.1590113,5.9895536],"ct":"NL","tp":"CS","ts":"2022-09-04T10:41:32Z","tX":529,"tY":337,"tags":{"addr:city":"Lieren","addr:housenumber":"20","addr:postcode":"7364BN","addr:street":"Molenakker","cabins":"yes","caravans":"yes","dog":"no","dryer":"yes","email":"info@campingderoseboom.nl","name":"Minicamping De Roseboom","opening_hours":"May 1-Oct 31","phone":"+31 6 13480869","power_supply":"yes","tents":"yes","washing_machine":"yes","website":"https://www.campingderoseboom.nl/"}},"625357989":{"location":[52.0601942,6.1874889],"ct":"NL","tp":"CR","ts":"2025-01-23T11:28:42Z","tX":529,"tY":337,"tags":{"addr:city":"Steenderen","addr:housenumber":"2","addr:postcode":"7221BS","addr:street":"Landlustweg","capacity":"30","caravan_site":"motorhome_stopover","caravan_site:type":"village","charge":"18.50 EUR","dog":"leashed","dog:charge":"1 EUR","email":"info@camperplaatslandlust.nl","fee":"yes","internet_access":"wlan","internet_access:fee":"no","maxstay":"3 days","name":"Camperplaats Landlust","operator":"Geschenkenhuis Beuseker","phone":"+31 575 451198","power_supply":"yes","power_supply:fee":"no","power_supply:maxcurrent":"6","reservation":"same_day","sanitary_dump_station":"yes","sanitary_dump_station:chemical_toilet":"yes","sanitary_dump_station:fee":"no","sanitary_dump_station:grey_water":"yes","shower":"yes","shower:charge":"0.50 EUR","shower:fee":"yes","tents":"no","toilets":"yes","toilets:fee":"no","water_point":"yes","water_point:fee":"no","website":"https://www.camperplaatslandlust.nl/"}},"625598364":{"location":[52.1171908,6.2276493],"ct":"NL","tp":"CR","ts":"2025-01-23T12:16:00Z","tX":529,"tY":337,"tags":{"capacity":"20","caravan_site":"motorhome_stopover","caravan_site:type":"farm_shop","charge":"17.60 EUR","dog":"leashed","fee":"yes","internet_access":"wlan","internet_access:fee":"no","name":"De Heicohoeve","phone":"+31 6 51171508","power_supply":"yes","power_supply:charge":"2 EUR+usage","power_supply:fee":"yes","power_supply:maxcurrent":"6","product":"egg","reservation":"yes","sanitary_dump_station":"yes","sanitary_dump_station:chemical_toilet":"yes","sanitary_dump_station:fee":"no","sanitary_dump_station:grey_water":"yes","water_point":"yes","website":"https://www.deheicohoeve.nl/camperplaats"}},"696965830":{"location":[52.2065942,6.0921345],"ct":"NL","tp":"CS","ts":"2023-05-30T12:19:03Z","tX":529,"tY":337,"tags":{"addr:city":"Wilp","addr:housenumber":"38","addr:postcode":"7384CN","addr:street":"Kneuterstraat","capacity":"33","email":"minicampingdehane@gmail.com","name":"Minicamping De Hane","phone":"+31 571 261 462","website":"https://www.minicampingdehane.nl"}},"749208867":{"location":[52.2000068,6.2543077],"ct":"NL","tp":"CS","ts":"2023-06-11T14:50:24Z","tX":529,"tY":337,"tags":{"addr:city":"Joppe","addr:housenumber":"1","addr:postcode":"7215LB","addr:street":"Dortherdijk","contact:phone":"+31 6 23463020","contact:website":"https://www.kamperen-bij-de-boer.com/Minicamping-t-Hietbrink.html","name":"Minicamping t Hietbrink"}},"800450606":{"location":[52.1740106,5.984243],"ct":"NL","tp":"CS","ts":"2023-05-30T19:04:52Z","tX":529,"tY":337,"tags":{"brand":"SVR","capacity":"15","caravans":"yes","email":"info@dewolfskuilen.nl","internet_access":"yes","name":"De Wolfskuil","opening_hours":"Mar 15-Nov 01","phone":"+31 55 506 1952","sanitary_dump_station":"yes","shower":"yes","tents":"yes","website":"https://www.dewolfskuilen.nl"}},"803305982":{"location":[52.1498425,6.0027778],"ct":"NL","tp":"CS","ts":"2023-06-24T21:25:58Z","tX":529,"tY":337,"tags":{"cabins":"yes","capacity":"39","caravans":"yes","dryer":"yes","email":"info@debosrand.nl","internet_access":"wlan","internet_access:fee":"no","motorhome":"yes","name":"De Bosrand","phone":"+31 55 506 2801","power_supply":"yes","sanitary_dump_station":"yes","shower":"yes","tents":"yes","toilets":"yes","washing_machine":"yes","website":"https://www.debosrand.nl/"}},"805520540":{"location":[52.1475897,6.1009451],"ct":"NL","tp":"CS","ts":"2023-05-30T19:04:52Z","tX":529,"tY":337,"tags":{"capacity":"16","caravans":"yes","email":"info@ervedeweijenberg.nl","internet_access":"wlan","kitchen":"yes","name":"Camping Erve de Weijenberg","phone":"+31 575 476 205","power_supply":"yes","sanitary_dump_station":"yes","start_date":"1995","tents":"yes","washing_machine":"yes","website":"https://www.ervedeweijenberg.nl"}},"812842304":{"location":[52.2097638,6.286021],"ct":"NL","tp":"CS","ts":"2023-04-22T14:59:46Z","tX":529,"tY":337,"tags":{"email":"info@campingdewaterjuffer.nl","name":"Camping De Waterjuffer","phone":"+31 573 431 359","website":"https://www.campingdewaterjuffer.nl"}},"891353070":{"location":[52.1928106,6.2971663],"ct":"NL","tp":"CS","ts":"2021-01-02T21:02:04Z","tX":529,"tY":337,"tags":{"name":"Camping Braakhekke","surface":"grass","website":"https://camping-braakhekke.nl/"}},"896184654":{"location":[52.1451305,6.0023039],"ct":"NL","tp":"CS","ts":"2024-08-01T10:00:23Z","tX":529,"tY":337,"tags":{"group_only":"yes","name":"Veluwe Groepskampeercentrum","operator":"Exito","website":"https://www.veluwe-groepskampeercentrum.nl"}},"897971763":{"location":[52.2558578,6.0221534],"ct":"NL","tp":"CS","ts":"2023-05-30T12:19:10Z","tX":529,"tY":337,"tags":{"addr:city":"Beemte Broekland","addr:housenumber":"79","addr:postcode":"7341PD","addr:street":"Beemterweg","cabins":"yes","caravans":"yes","email":"info@hetveldhoentje.nl","internet_access":"wlan","internet_access:fee":"no","name":"Het Veldhoentje","phone":"+31 55 323 2355","shower":"yes","static_caravans":"no","tents":"yes","website":"https://hetveldhoentje.nl"}},"966824687":{"location":[52.1777411,6.1421076],"ct":"NL","tp":"CS","ts":"2023-05-30T12:19:11Z","tX":529,"tY":337,"tags":{"addr:city":"Voorst","addr:housenumber":"49","addr:postcode":"7383AL","addr:street":"Rijksstraatweg","backcountry":"no","brand":"SVR","cabins":"no","caravans":"yes","dog":"yes","drinking_water":"yes","email":"info@campingdeadelaar.nl","fee":"yes","group_only":"no","hot_water":"yes","internet_access":"wlan","name":"minicamping de Adelaar","nudism":"no","phone":"+31 575 501 972","picnic_table":"yes","power_supply":"yes","reservation":"recommended","sanitary_dump_station":"customers","shower":"yes","static_caravans":"no","swimming_pool":"no","tents":"yes","toilets":"yes","website":"https://www.campingdeadelaar.nl/"}},"1017968768":{"location":[52.0857877,6.0289235],"ct":"NL","tp":"CS","ts":"2022-01-03T21:50:19Z","tX":529,"tY":337,"tags":{}},"1028666026":{"location":[52.2069955,6.0647476],"ct":"NL","tp":"CS","ts":"2023-05-30T12:19:12Z","tX":529,"tY":337,"tags":{"addr:city":"Wilp","addr:housenumber":"11","addr:postcode":"7384SN","addr:street":"Zwaluwenweg","caravans":"yes","email":"info@denhoek.nl","name":"Boerderijcamping Den Hoek","opening_hours":"Apr 1 - Oct 31","phone":"+31 55 519 1955","shower":"yes","tents":"yes","toilets":"yes","website":"https://www.denhoek.nl/"}},"1041760095":{"location":[52.200554,6.2547556],"ct":"NL","tp":"CS","ts":"2022-03-19T20:34:57Z","tX":529,"tY":337,"tags":{}},"1056231172":{"location":[52.0681845,6.0785274],"ct":"NL","tp":"CS","ts":"2024-10-20T11:39:17Z","tX":529,"tY":337,"tags":{"addr:city":"Laag-Soeren","addr:housenumber":"78","addr:postcode":"6957DD","addr:street":"De Jutberg","name":"Vakantiedorp De Jutberg","operator":"Ardoer.com","website":"https://www.ardoer.com/nl/camping/jutberg"}},"1064760639":{"location":[52.2512936,6.1480366],"ct":"NL","tp":"CS","ts":"2024-05-18T21:28:41Z","tX":529,"tY":337,"tags":{"addr:city":"Deventer","addr:housenumber":"12","addr:postcode":"7419AD","addr:street":"Worp","caravans":"yes","email":"deventer@stadscamping.eu","internet_access":"wlan","name":"Stadscamping Deventer","phone":"+31 570 613 601","swimming_pool":"natural","tents":"yes","website":"https://stadscamping.eu/"}},"1166143583":{"location":[52.1620845,6.0349762],"ct":"NL","tp":"CR","ts":"2024-11-21T00:30:23Z","tX":529,"tY":337,"tags":{"bakery_service":"yes","bbq":"yes","capacity":"25","caravan_site":"motorhome_stopover","caravan_site:type":"countryside","charge":"19 EUR","description":"camper site","dog":"leashed","email":"cp.andebeke@gmail.com","fee":"yes","fireplace":"yes","internet_access":"wlan","name":"An de bèke","opening_hours":"24/7","phone":"+31 61885274","power_supply":"yes","power_supply:fee":"no","power_supply:maxcurrent":"6","reservation":"yes","reservation:fee":"yes","sanitary_dump_station":"yes","sanitary_dump_station:chemical_toilet":"yes","sanitary_dump_station:fee":"no","sanitary_dump_station:grey_water":"yes","seasonal":"no","water_point":"yes","water_point:fee":"no","website":"https://camperplaatsandebeke.jouwweb.nl/"}},"1166179823":{"location":[52.2153608,6.0269978],"ct":"NL","tp":"CS","ts":"2023-04-27T15:53:31Z","tX":529,"tY":337,"tags":{"capacity:pitches":"15","caravans":"yes","email":"info@minicampinghetkleineschaap.nl","motorhome":"yes","name":"Het Kleine Schaap","old_name":"Immenhof","phone":"+31 6 28818903","shower":"yes","start_date":"2021","tents":"yes","toilets":"yes"}},"1178593784":{"location":[52.159676,6.0358354],"ct":"NL","tp":"CS","ts":"2023-06-24T21:33:29Z","tX":529,"tY":337,"tags":{"caravans":"yes","email":"info@utgruneveld.nl","internet_access":"yes","internet_access:fee":"no","name":"Ut Grûne Veld","opening_hours":"Mar 15 - Oct 31","phone":"+31 6 18734973","reservation":"yes","shower":"yes","tents":"yes","toilets":"yes","website":"https://utgruneveld.nl/"}},"1184732696":{"location":[52.1670943,6.1226569],"ct":"NL","tp":"CS","ts":"2023-06-24T21:43:11Z","tX":529,"tY":337,"tags":{"addr:city":"Voorst","addr:housenumber":"6","addr:postcode":"7383CX","addr:street":"Hooistraat","designation":"Campsite","name":"Natuurkampeerterrein De Haverkamp","operator":"Gerard Kooistra","phone":"+31 6 38433803","website":"https://www.campingdehaverkamp.nl/"}},"1184791112":{"location":[52.2674734,6.2480319],"ct":"NL","tp":"CR","ts":"2025-01-25T09:40:21Z","tX":529,"tY":337,"tags":{"capacity":"12","caravan_site":"motorhome_stopover","caravan_site:type":"countryside","charge":"14 EUR","email":"info@camperplaatsdebrandkoele.nl","internet_access":"wlan","laundry":"yes","motorhome":"designated","name":"Camperplaats De Brandkoele","phone":"+31 6 20528689; +31 6 51678076 \"Elmy\"","power_supply":"yes","power_supply:charge":"3.50 EUR","power_supply:fee":"yes","power_supply:maxcurrent":"6","sanitary_dump_station":"yes","sanitary_dump_station:chemical_toilet":"yes","sanitary_dump_station:grey_water":"yes","shower":"yes","shower:charge":"1 EUR","shower:fee":"yes","toilets":"yes","website":"https://www.camperplaatsdebrandkoele.nl/"}},"1188251443":{"location":[52.265222,5.9807163],"ct":"NL","tp":"CS","ts":"2023-07-17T18:00:21Z","tX":529,"tY":337,"tags":{"capacity:pitches":"25","caravans":"yes","email":"info@svrcampingdoornekamp.nl","internet_access":"wlan","internet_access:fee":"no","mobile":"+31 6 19461440;+31 6 31955195","name":"Doornekamp","phone":"+31 55 312 1383","shower":"yes","tents":"yes","toilets":"yes","website":"http://www.svrcampingdoornekamp.nl/"}},"1191344456":{"location":[52.0707164,6.2780987],"ct":"NL","tp":"CS","ts":"2023-08-01T08:03:15Z","tX":529,"tY":337,"tags":{"cabins":"yes","capacity:cabins":"1","capacity:pitches":"26","caravans":"yes","email":"info@campingdenachtegaal.nl","name":"De Nachtegaal","phone":"+31 6 15382633;+31 6 23736014","shower":"yes","tents":"yes","toilets":"yes","website":"https://campingdenachtegaal.nl/"}},"1191346357":{"location":[52.0626332,6.2167889],"ct":"NL","tp":"CS","ts":"2023-07-22T06:08:00Z","tX":529,"tY":337,"tags":{"caravans":"yes","email":"info@boerderijdevrijegeest.nl","name":"De vrije Geest","phone":"+31 575 470 867","shower":"yes","tents":"yes","toilets":"yes","website":"https://www.boerderijdevrijegeest.nl/minicamping"}},"1191617544":{"location":[52.1508359,6.0231187],"ct":"NL","tp":"CS","ts":"2023-08-14T10:18:32Z","tX":529,"tY":337,"tags":{"cabins":"yes","caravans":"yes","email":"info@vinkenkamp.nl","mobile":"+31 6 57050303","motorhome":"yes","name":"De Vinkenkamp","phone":"+31 55 505 1253","shower":"yes","static_caravans":"yes","tents":"yes","toilets":"yes","website":"https://www.vinkenkamp.nl"}},"1191618797":{"location":[52.2640722,6.1173083],"ct":"NL","tp":"CS","ts":"2024-05-18T07:22:03Z","tX":529,"tY":337,"tags":{"capacity:pitches":"5","caravans":"yes","email":"info@campingdepolmate.nl","landcover":"grass","mobile":"+31 6 14222512","name":"De Polmate","phone":"+31 571 290 663","shower":"yes","tents":"yes","toilets":"yes","website":"https://www.campingdepolmate.nl/"}},"1194531804":{"location":[52.1326202,6.2977801],"ct":"NL","tp":"CS","ts":"2024-06-26T17:37:50Z","tX":529,"tY":337,"tags":{"cabins":"yes","capacity:pitches":"12","caravans":"yes","drinking_water":"yes","email":"info@oudemeulenbrugge.nl","name":"Oude Meulenbrugge","opening_hours":"Apr 1 - Oct 15","phone":"+31 575 471 635","power_supply":"yes","shower":"yes","tents":"yes","toilets":"yes","website":"https://oudemeulenbrugge.nl/svr-camping-gelderland/"}},"1228682644":{"location":[52.1177342,6.228555],"ct":"NL","tp":"CS","ts":"2023-12-04T16:57:21Z","tX":529,"tY":337,"tags":{"name":"De Heicohoeve","website":"https://www.deheicohoeve.nl/"}},"1252512944":{"location":[52.0949077,6.271011],"ct":"NL","tp":"CS","ts":"2024-02-19T18:01:20Z","tX":529,"tY":337,"tags":{"access":"customers","addr:city":"Vorden","addr:housenumber":"12","addr:postcode":"7251RH","addr:street":"Baakseweg","capacity:caravans":"12","name":"Camping 't Uitzicht","operator":"De Rietberg"}},"1302235478":{"location":[52.1224816,6.0353702],"ct":"NL","tp":"CS","ts":"2024-07-18T10:00:53Z","tX":529,"tY":337,"tags":{"name":"Molenallee Veluwe"}},"1316527425":{"location":[52.2344928,6.0983352],"ct":"NL","tp":"CR","ts":"2025-01-15T14:45:10Z","tX":529,"tY":337,"tags":{"capacity":"1","caravan_site":"motorhome_stopover","caravan_site:type":"sports_centre;town","caravans":"no","fee":"no","name":"Parking Sporthal Jachtlust Twello","power_supply":"no","sanitary_dump_station":"no","surface":"paving_stones","tents":"no"}},"1353652231":{"location":[52.0998482,6.236845],"ct":"NL","tp":"CR","ts":"2025-01-23T11:53:35Z","tX":529,"tY":337,"tags":{"capacity":"2","caravan_site":"motorhome_stopover","caravan_site:type":"countryside","fee":"yes","name":"Op 't Norde","power_supply":"yes","power_supply:fee":"no","sanitary_dump_station":"yes"}},"1353658677":{"location":[52.1368854,6.1988785],"ct":"NL","tp":"CR","ts":"2025-01-23T12:32:34Z","tX":529,"tY":337,"tags":{"capacity":"8","caravan_site":"motorhome_stopover","caravan_site:type":"town","charge":"14.30 EUR","dog":"yes","fee":"yes","internet_access":"no","name":"Camperplaats Houtwal Zutphen","postal_code":"7101AS","power_supply":"yes","power_supply:fee":"yes","reservation":"no","sanitary_dump_station":"no","water_point":"yes","water_point:fee":"yes","website":"https://zutphen.nl/recreatie-en-toerisme/camperplaatsen"}},"2172068426":{"location":[52.1369276,6.1985981],"ct":"NL","tp":"CR","ts":"2017-02-01T11:07:30Z","tX":529,"tY":337,"tags":{"capacity":"6","dog":"yes","fee":"yes","internet_access":"no","name":"Camperplaats Houtwal Zutphen","postal_code":"7101AS","power_supply":"yes"}},"2737581322":{"location":[52.1295269,6.0068826],"ct":"NL","tp":"CS","ts":"2020-08-13T19:15:49Z","tX":529,"tY":337,"tags":{"addr:city":"Loenen","addr:housenumber":"49","addr:postcode":"7371EW","addr:street":"Beekbergerweg","name":"Scoutingkampeerterrein De Vrijenberg","scout":"yes","source":"BAG","source:date":"2014-02-11"}},"2836336909":{"location":[52.1040625,6.0650924],"ct":"NL","tp":"CR","ts":"2014-05-04T18:21:11Z","tX":529,"tY":337,"tags":{}},"2846532620":{"location":[52.0995421,6.2001345],"ct":"NL","tp":"CS","ts":"2023-11-16T13:04:21Z","tX":529,"tY":337,"tags":{"addr:city":"Brummen","addr:housenumber":"27","addr:postcode":"6971JH","addr:street":"Piepenbeltweg","contact:website":"http://www.de-hank.nl/contact.php","name":"Boerderijcamping de Hank","source":"BAG","source:date":"2014-05-07","website":"https://www.campingdehank.nl/"}},"2873550254":{"location":[52.2364763,6.2330664],"ct":"NL","tp":"CS","ts":"2014-05-21T20:57:44Z","tX":529,"tY":337,"tags":{}},"2873552521":{"location":[52.2289169,6.2393619],"ct":"NL","tp":"CS","ts":"2014-05-21T20:59:53Z","tX":529,"tY":337,"tags":{}},"2914790639":{"location":[52.2087463,6.1094262],"ct":"NL","tp":"CS","ts":"2019-03-28T14:05:37Z","tX":529,"tY":337,"tags":{"addr:city":"Wilp","addr:housenumber":"50","addr:postcode":"7384CT","addr:street":"Grotenhuisweg","name":"Kampeerhoeve Bussloo","operator":"Fam. Hulscher","source":"BAG","source:date":"2014-06-13","website":"https://www.kampeerhoevebussloo.nl/"}},"4706450537":{"location":[52.0640537,6.273849],"ct":"NL","tp":"CS","ts":"2023-05-27T20:42:33Z","tX":529,"tY":337,"tags":{"alt_name":"Kampeerboederij de Heytinkhorst","capacity":"24","name":"Minicamping De Achterhoek","operator":"SVR","website":"https://www.minicampingdeachterhoek.nl/25/minicamping+de+achterhoek"}},"4908990545":{"location":[52.1645548,6.298441],"ct":"NL","tp":"CS","ts":"2019-03-28T14:02:10Z","tX":529,"tY":337,"tags":{"name":"De Vetweide","website":"https://www.devetweide.nl/"}},"9633023612":{"location":[52.2464497,6.127188],"ct":"NL","tp":"CS","ts":"2022-04-03T09:34:38Z","tX":529,"tY":337,"tags":{"name":"Camping Buitenpost","website":"https://bijbuitenpost.nl/camping/"}},"9994429064":{"location":[52.1425555,6.0422078],"ct":"NL","tp":"CS","ts":"2023-03-11T18:05:47Z","tX":529,"tY":337,"tags":{"name":"Minicamping de Loenense Brug","website":"https://www.deloenensebrug.nl/"}},"10829619391":{"location":[52.2517147,6.1165061],"ct":"NL","tp":"CS","ts":"2023-04-21T11:47:26Z","tX":529,"tY":337,"tags":{"caravans":"yes","fee":"yes","name":"Mini Camping Hello Twello","tents":"yes","website":"https://www.hellotwello.nl/"}},"11110414236":{"location":[52.1218918,6.2968331],"ct":"NL","tp":"CS","ts":"2023-08-12T18:57:05Z","tX":529,"tY":337,"tags":{"caravans":"yes","contact:facebook":"https://www.facebook.com/ElzenbosVorden/","name":"Elzenbos","phone":"+31 575 551 754","shower":"yes","tents":"yes","toilets":"yes"}},"5906664951":{"location":[52.0997418,6.2369697],"ct":"NL","tp":"SD","ts":"2025-01-23T11:53:35Z","tX":529,"tY":337,"tags":{"internet_access":"yes","name":"Op 't Norde","power_supply":"yes"}},"5540542950":{"location":[52.1635829,6.3170013],"ct":"NL","tp":"SD","ts":"2018-04-09T15:05:21Z","tX":529,"tY":337,"tags":{}},"5572811207":{"location":[52.0863682,6.0281421],"ct":"NL","tp":"SD","ts":"2018-04-23T07:00:00Z","tX":529,"tY":337,"tags":{}},"8712740603":{"location":[52.1519649,6.2896655],"ct":"NL","tp":"SD","ts":"2024-07-17T21:20:32Z","tX":529,"tY":337,"tags":{"fee":"yes"}},"8944998151":{"location":[52.1773326,6.141636],"ct":"NL","tp":"SD","ts":"2021-07-23T19:46:26Z","tX":529,"tY":337,"tags":{"access":"customers","fee":"no","operator":"Camping de Adelaar","sanitary_dump_station:round_drain":"yes"}},"9761980904":{"location":[52.0890628,6.0264744],"ct":"NL","tp":"SD","ts":"2022-05-22T15:57:58Z","tX":529,"tY":337,"tags":{"access":"customers","fee":"no","opening_hours":"24/7","operator":"Landal Coldenhove","source":"survey","source:date":"2022-05-18"}},"11019588760":{"location":[52.1087326,6.0116887],"ct":"NL","tp":"SD","ts":"2023-07-02T08:13:16Z","tX":529,"tY":337,"tags":{"access":"customers","fee":"no","opening_hours":"24/7","operator":"Natuurkampeerterrein Zegenoord","sanitary_dump_station:basin":"yes"}},"12511153982":{"location":[52.2502286,6.299652],"ct":"NL","tp":"CR","ts":"2025-01-18T00:05:52Z","tX":529,"tY":337,"tags":{"capacity":"2","caravan_site":"motorhome_stopover","caravan_site:type":"sports_centre;parking_lot","dog":"yes","fee":"no","maxstay":"2 nights","name":"Camperplaats Sporthal De Uutvlog","surface":"paving_stones","website":"https://www.visitoost.nl/overnachten/camping-overijssel/camperplaatsen-overijssel/32389-camperplaats-sporthal-de-uutvlog-2/"}},"12669701376":{"location":[52.2344939,6.0983368],"ct":"NL","tp":"CR","ts":"2025-03-16T09:48:20Z","tX":529,"tY":337,"tags":{"capacity":"1","caravan_site":"motorhome_stopover","caravan_site:type":"sports_centre;town","caravans":"no","fee":"no","power_supply":"no","sanitary_dump_station":"no","surface":"paving_stones","tents":"no"}}}