{"15644394":{"location":[51.9933473,6.0283912],"ct":"NL","tp":"CR","ts":"2023-05-30T12:19:17Z","tX":529,"tY":338,"tags":{"alt_name":"Recreatiepark Rhederlaagse Meren","cabins":"yes","campers":"yes","caravans":"yes","email":"info@rhederlaagsemeren.nl","fee":"yes","internet_access":"wlan","name":"Rhederlaagse Meren","phone":"+31 313 632 211","power_supply":"yes","static_caravans":"yes","tents":"yes","website":"https://www.rhederlaagsemeren.nl/"}},"15745980":{"location":[51.9959222,6.0379812],"ct":"NL","tp":"CS","ts":"2023-05-30T12:19:17Z","tX":529,"tY":338,"tags":{"caravans":"yes","contact:website":"https://www.campingdemars.nl","email":"info@campingdemars.nl","motorhome":"yes","name":"De Mars","phone":"+31 313 631 131","shower":"yes","static_caravans":"yes","tents":"yes","toilets":"yes"}},"17234124":{"location":[52.0377468,6.1628017],"ct":"NL","tp":"CS","ts":"2024-02-18T23:14:19Z","tX":529,"tY":338,"tags":{"name":"Camping Het Zwarte Schaar"}},"59074313":{"location":[51.9161512,6.3071071],"ct":"NL","tp":"CS","ts":"2023-07-17T18:00:20Z","tX":529,"tY":338,"tags":{"addr:city":"Vethuizen","addr:country":"NL","addr:housenumber":"4","addr:postcode":"7046AC","addr:street":"Hoge Veldweg","capacity:pitches":"25","caravans":"yes","email":"info@kemperplas.nl","landcover":"grass","name":"De Kemperplas","phone":"+31 315 323 176","website":"https://www.kemperplas.nl"}},"59075055":{"location":[51.9132559,6.3074915],"ct":"NL","tp":"CS","ts":"2023-07-17T18:00:20Z","tX":529,"tY":338,"tags":{"caravans":"yes","email":"hetkleinelaar@gmail.com","landcover":"grass","name":"Het Kleine Laar","phone":"+31 315 323 279","shower":"yes","tents":"yes","toilets":"yes","website":"https://hetkleinelaar.nl/"}},"59134912":{"location":[51.8970584,6.0702462],"ct":"NL","tp":"CS","ts":"2019-07-10T11:02:11Z","tX":529,"tY":338,"tags":{"source:geometry":"3dShapes"}},"59160642":{"location":[52.012252,6.2853538],"ct":"NL","tp":"CS","ts":"2023-05-30T12:18:33Z","tX":529,"tY":338,"tags":{"email":"info@campingtoeven.nl","landuse":"grass","name":"Camping Toeven","phone":"+31 314 785 073","website":"https://campingtoeven.nl/"}},"59163502":{"location":[51.9879836,6.1953848],"ct":"NL","tp":"CS","ts":"2023-07-17T18:00:21Z","tX":529,"tY":338,"tags":{"capacity:pitches":"20","caravans":"yes","email":"info@siebieverden.nl","internet_access":"wlan","internet_access:fee":"no","landcover":"grass","name":"Camping Siebieverden","phone":"+31 6 22751371;+31 6 52065883","shower":"yes","tents":"yes","toilets":"yes","website":"https://www.siebieverden.nl"}},"59176003":{"location":[51.9814318,6.0609078],"ct":"NL","tp":"CS","ts":"2024-07-05T12:17:57Z","tX":529,"tY":338,"tags":{"addr:city":"Duiven","addr:housenumber":"21","addr:postcode":"6921PE","addr:street":"Landaalsestraat","capacity":"25","email":"smids6921@gmail.com","mobile":"+31 645 309 922","name":"Minicamping Smids","operator":"Familie Smids","source":"survey","website":"https://rhederlaag.nl/campings/kampeerboerderij-smids/","wifi":"yes"}},"59177249":{"location":[52.0174748,6.0631569],"ct":"NL","tp":"CS","ts":"2024-08-04T17:40:44Z","tX":529,"tY":338,"tags":{"caravans":"yes","drinking_water":"yes","landuse":"grass","name":"De Eikeboom","power_supply":"no","sanitary_dump_station":"yes","shower":"yes","source":"3dShapes","tents":"yes","toilets":"yes","toilets:wheelchair":"no","wheelchair":"no"}},"59179173":{"location":[51.8561828,6.0309976],"ct":"NL","tp":"CR","ts":"2025-01-19T20:15:20Z","tX":529,"tY":338,"tags":{"capacity":"12","caravan_site":"motorhome_stopover","caravan_site:type":"countryside","caravans":"no","charge":"14 EUR","email":"g.dollevoet@hetnet.nl","fee":"yes","internet_access":"wlan","motorhome":"designated","name":"'t Crumpse hoekje","phone":"+31 481 432 630","power_supply":"yes","power_supply:capacity":"12","sanitary_dump_station":"yes","sanitary_dump_station:chemical_toilet":"yes","sanitary_dump_station:grey_water":"yes","seasonal":"yes","shower":"yes","toilets":"yes","website":"http://www.camperplaatshetcrumpsehoekje.nl/"}},"59205821":{"location":[51.9179295,6.0027792],"ct":"NL","tp":"CS","ts":"2019-06-18T09:34:48Z","tX":529,"tY":338,"tags":{}},"59380688":{"location":[52.0366475,6.2461858],"ct":"NL","tp":"CS","ts":"2023-11-10T16:02:41Z","tX":529,"tY":338,"tags":{"landuse":"grass","name":"Minicamping de Bult","source":"3dShapes","website":"https://zorgboerderijdebult.nl/recreatie"}},"93469679":{"location":[51.8369966,6.2194177],"ct":"DE","tp":"CR","ts":"2023-12-04T23:05:31Z","tX":529,"tY":338,"tags":{"addr:city":"Emmerich am Rhein","addr:housenumber":"15","addr:postcode":"46446","addr:street":"Fackeldeystraße","capacity":"80","caravan_site:type":"harbour","charge":"12 EUR/24 h","contact:email":"info@yhe.eu","contact:fax":"+49 2822 1790","contact:mobile":"+49 1725 485760","contact:phone":"+49 2822 4091","email":"info@yhe.eu","fee":"yes","name":"Yachthafen Emmerich am Rhein","power_supply":"yes","sanitary_dump_station":"yes","water_point":"yes","website":"https://www.yachthafenemmerich.de/","wikimedia_commons":"File:Wohnmobilstellplatz am Yachthafen Emmerich am Rhein-9246.jpg"}},"225566174":{"location":[51.9942633,6.2554248],"ct":"NL","tp":"CS","ts":"2024-09-22T13:41:14Z","tX":529,"tY":338,"tags":{"addr:city":"Hummelo","addr:housenumber":"7","addr:postcode":"6999DW","addr:street":"Rozegaarderweg","backcountry":"no","caravans":"yes","email":"info@camping-jena.nl","fee":"yes","name":"Natuurkampeerterrein Jena","phone":"+31-314-381457","static_caravans":"no","tents":"yes","website":"https://www.camping-jena.nl"}},"292927108":{"location":[51.8637066,6.1842254],"ct":"DE","tp":"CS","ts":"2022-08-07T10:39:31Z","tX":529,"tY":338,"tags":{"addr:city":"Emmerich am Rhein","addr:country":"DE","addr:housenumber":"3","addr:postcode":"46446","addr:street":"Brahmberg","name":"Camping Brahmberg","operator":"Sprungmann Franken","phone":"+49 2822 2777","website":"https://www.campingplatz-brahmberg.de/"}},"299856928":{"location":[51.989534,6.0515899],"ct":"NL","tp":"CR","ts":"2025-01-22T23:55:39Z","tX":529,"tY":338,"tags":{"capacity":"44","caravan_site":"motorhome_stopover","caravan_site:type":"beach;harbour","charge":"22.50 EUR","check_in":"12:00","check_out":"11:00","dog":"leashed","fee":"yes","internet_access":"wlan","internet_access:fee":"no","name":"Camperpark - Jachthaven 't Eiland","power_supply":"yes","power_supply:maxcurrent":"6","reservation":"no","shower":"yes","surface":"gravel","toilets":"yes","website":"https://www.jhte.nl/camperpark/"}},"319225139":{"location":[51.8682407,6.0748013],"ct":"NL","tp":"CS","ts":"2022-07-09T14:38:57Z","tX":529,"tY":338,"tags":{"contact:website":"https://recreatieparkdebijland.nl","name":"Camping De Bijland"}},"406449804":{"location":[52.0187659,6.0231721],"ct":"NL","tp":"CS","ts":"2022-01-08T21:34:00Z","tX":529,"tY":338,"tags":{"caravans":"no","name":"Buitenverblijf Het Groene Woud","note":"Officiele camping met stacaravans en chalets, deels verwaarloosd alsook illegale permanente bewoning. Sinds kort wordt er uitsterfbeleid gevoerd om deze plek naar normale camping voor kortblijvende toeristen te transformeren","operator":"Groenewoud Onroerend Goed B.V","permanent_camping":"yes","static_caravans":"yes","tents":"no"}},"434052843":{"location":[52.0207246,6.189124],"ct":"NL","tp":"CS","ts":"2022-02-26T17:23:56Z","tX":529,"tY":338,"tags":{"addr:city":"Drempt","addr:housenumber":"2","addr:postcode":"6996DW","addr:street":"Bronksestraat","capacity":"25","fee":"yes","name":"Boerencamping Remmelink","website":"https://www.boerencampingremmelink.nl"}},"483006867":{"location":[52.0167637,5.9865847],"ct":"NL","tp":"CS","ts":"2025-02-05T20:36:45Z","tX":529,"tY":338,"tags":{"name":"Buitenplaats Beekhuizen","source":"AHN","website":"Buitenplaats Beekhuizen"}},"525353439":{"location":[51.8622102,6.0790723],"ct":"NL","tp":"CR","ts":"2025-01-19T20:11:50Z","tX":529,"tY":338,"tags":{"capacity":"12","caravan_site":"motorhome_stopover","caravan_site:type":"restaurant","charge":"23 EUR","email":"info@campingsteengoed.nl","fee":"yes","name":"Camping Steengoed","phone":"+31 616135569","power_supply":"yes","power_supply:charge":"1 EUR/night","power_supply:fee":"yes","shower":"yes","toilets":"yes","website":"https://campingsteengoed.nl/"}},"589493717":{"location":[51.8631494,6.1869681],"ct":"DE","tp":"CS","ts":"2024-11-21T15:35:27Z","tX":529,"tY":338,"tags":{"caravans":"yes","fee":"yes","internet_access":"wlan","motorhome":"yes","name":"Kurzzeitcamping Brahmberg","opening_hours":"Apr 15-Oct 14","operator":"Campingplatz Sprungmann-Franken GbR","seasonal":"yes","surface":"grass","tents":"yes","website":"https://www.campingplatz-brahmberg.de/kurzzeitcamping/"}},"625478938":{"location":[51.9924691,6.2800598],"ct":"NL","tp":"CS","ts":"2025-01-23T00:00:43Z","tX":529,"tY":338,"tags":{"cabins":"yes","caravans":"yes","email":"info@camping-degraafschap.nl","fee":"yes","internet_access":"wlan","motorhome":"yes","name":"De Graafschap","permanent_camping":"yes","phone":"+31 314 343 752","power_supply":"yes","shower":"yes","static_caravans":"yes","tents":"yes","toilets":"yes","toilets:wheelchair":"yes","website":"https://www.camping-degraafschap.nl/","wheelchair":"yes"}},"625743598":{"location":[52.030781,6.1635938],"ct":"NL","tp":"CS","ts":"2024-02-18T23:14:20Z","tX":529,"tY":338,"tags":{"name":"Camping IJsselstrand","website":"https://www.ijsselstrand.nl/"}},"768192154":{"location":[51.875985,5.9890121],"ct":"NL","tp":"CS","ts":"2013-06-11T10:38:57Z","tX":529,"tY":338,"tags":{"name":"Camping Waalstrand","source":"www.waalstrand.nl"}},"768636510":{"location":[51.8726789,6.1166832],"ct":"NL","tp":"CS","ts":"2020-03-02T14:59:05Z","tX":529,"tY":338,"tags":{"name":"De Boschhof"}},"804727276":{"location":[51.8655772,6.1719517],"ct":"DE","tp":"CR","ts":"2023-12-04T23:22:36Z","tX":529,"tY":338,"tags":{"addr:city":"Emmerich am Rhein","addr:postcode":"46446","addr:street":"Luitgardisstraße","charge":"15 EUR","fee":"yes","name":"Auf dem Eltenberg","operator":"Stadt Emmerich","power_supply":"yes","shower":"no","toilets":"yes","website":"https://www.emmerich.de/de/inhalt/reisemobile-unterkuenfte/","wikimedia_commons":"File:Wohnmobilstellplatz Emmerich-Elten, Hochelten-7903.jpg"}},"837541022":{"location":[51.8513282,6.0990757],"ct":"NL","tp":"CR","ts":"2024-07-02T11:15:26Z","tX":529,"tY":338,"tags":{"capacity":"15","caravan_site":"motorhome_stopover","caravan_site:type":"canal","charge":"9 EUR","check_out":"12:00","fee":"yes","internet_access":"wlan","internet_access:fee":"no","maxstay":"2 nights","name":"Europakade Tolkamer","operator":"VVV","power_supply":"yes","power_supply:capacity":"12","power_supply:charge":"1 EUR/kWh","power_supply:maxcurrent":"16","website":"https://gelderseiland.nl/overnachten/camperplaatsen-europakade-tolkamer/"}},"886748906":{"location":[51.8788201,6.2100149],"ct":"NL","tp":"CS","ts":"2023-05-30T12:19:09Z","tX":529,"tY":338,"tags":{"addr:city":"Stokkum","addr:housenumber":"20","addr:postcode":"7039CV","addr:street":"Eltenseweg","caravans":"yes","contact:email":"campingbrockhausen@gmail.com","contact:phone":"+31 314 661 212","contact:website":"https://brockhausen.nl/","motorhome":"yes","name":"Brockhausen","shower":"yes","tents":"yes","toilets":"yes"}},"886748912":{"location":[51.8805331,6.2109756],"ct":"NL","tp":"CS","ts":"2023-05-30T12:19:10Z","tX":529,"tY":338,"tags":{"addr:city":"Stokkum","addr:housenumber":"12","addr:postcode":"7039CW","addr:street":"St.Isidorusstraat","caravans":"yes","contact:email":"info@deslangenbult.nl","contact:phone":"+31 314 662 798","contact:website":"https://deslangenbult.nl/","internet_access":"yes","internet_access:fee":"yes","name":"Camping De Slangenbult","operator":"Familie Wijnands","tents":"yes"}},"949709097":{"location":[51.9010682,6.1779164],"ct":"NL","tp":"CS","ts":"2023-05-30T12:19:11Z","tX":529,"tY":338,"tags":{"email":"info@byvanck.nl","name":"Vakantiepark De Byvanck","phone":"+31 316 531 413","website":"https://www.byvanck.nl/"}},"963388143":{"location":[51.8873384,6.2991583],"ct":"NL","tp":"CS","ts":"2011-08-24T20:19:48Z","tX":529,"tY":338,"tags":{"name":"Mini camping 'de Hartjens'"}},"1182844142":{"location":[51.902473,5.9835259],"ct":"NL","tp":"CS","ts":"2023-06-18T10:57:15Z","tX":529,"tY":338,"tags":{"cabins":"yes","caravans":"yes","email":"info@de-waay.nl","name":"De Waay","phone":"+31 481 421 256","shower":"yes","static_caravans":"yes","tents":"yes","toilets":"yes","website":"https://www.de-waay.nl"}},"1188521005":{"location":[51.8893781,6.0765803],"ct":"NL","tp":"CS","ts":"2023-07-17T18:00:21Z","tX":529,"tY":338,"tags":{"capacity:pitches":"52","caravans":"yes","motorhome":"yes","name":"Gelders Eiland","phone":"+31 6 24281888;+31 6 53301156","shower":"yes","tents":"yes","toilets":"yes","website":"https://campinghetgelderseiland.nl/"}},"1193140421":{"location":[51.9677985,6.1978683],"ct":"NL","tp":"CR","ts":"2025-01-22T23:54:26Z","tX":529,"tY":338,"tags":{"capacity:motorhome":"11","caravan_site":"motorhome_stopover","caravan_site:type":"countryside","caravans":"no","charge":"16.50 EUR","dog":"leashed","email":"camperplaatskleindorp@gmail.com","fee":"yes","internet_access":"wlan","internet_access:fee":"no","laundry":"yes","motorhome":"designated","name":"Kleindorp","phone":"+31 6 83620510","power_supply":"yes","power_supply:maxcurrent":"6","shower":"yes","tents":"yes","toilets":"yes","website":"https://camperplaatskleindorp.nl/"}},"1197652939":{"location":[51.8692852,6.1146621],"ct":"NL","tp":"CS","ts":"2023-08-13T12:27:24Z","tX":529,"tY":338,"tags":{"caravans":"yes","motorhome":"yes","name":"De Himmeling","shower":"yes","tents":"yes","toilets":"yes","website":"https://www.campingdehimmeling.nl/"}},"1232968187":{"location":[51.9285117,6.2609577],"ct":"NL","tp":"CS","ts":"2023-12-21T14:20:23Z","tX":529,"tY":338,"tags":{"access":"customers","addr:city":"Braamt","addr:housenumber":"2","addr:postcode":"7047CB","addr:street":"Braamweg","fee":"yes","name":"Kindercamping Jan Klaassen Dromenland","phone":"+31 314 200 204","static_caravans":"yes","tents":"yes","website":"https://www.janklaassendromenland.nl/"}},"1249250832":{"location":[51.8473395,6.1461919],"ct":"NL","tp":"CR","ts":"2025-01-21T17:26:02Z","tX":529,"tY":338,"tags":{"capacity":"10","caravan_site":"motorhome_stopover","caravan_site:type":"harbour","check_out":"12:00+tourist_tax","drinking_water":"no","fee":"no","internet_access":"no","maxstay":"48 hours","name":"Camperplaatsen Beijenwaard Spijk","opening_hours":"24/7","power_supply":"yes","reservation":"no","sanitary_dump_station":"no","toilets":"no","water_point":"no","website":"https://gelderseiland.nl/overnachten/camperplaatsen-beijenwaard-spijk/","wheelchair":"yes"}},"1252151732":{"location":[52.0384911,6.1256046],"ct":"NL","tp":"CS","ts":"2024-02-18T23:14:18Z","tX":529,"tY":338,"tags":{"addr:city":"Olburgen","addr:housenumber":"4A","addr:postcode":"7225NG","addr:street":"Capellegoedweg","name":"Minicamping 't Hofke","website":"https://minicamping-thofke.nl"}},"1252151739":{"location":[52.0099602,6.052876],"ct":"NL","tp":"CR","ts":"2024-02-18T23:14:19Z","tX":529,"tY":338,"tags":{"cabins":"yes","campers":"yes","caravans":"yes","dog":"yes","fee":"yes","internet_access":"wlan","name":"De Veerstal","power_supply":"yes","tents":"yes","website":"https://www.deveerstal.nl/"}},"1280491419":{"location":[51.8611528,6.0049946],"ct":"NL","tp":"CS","ts":"2024-05-07T08:02:02Z","tX":529,"tY":338,"tags":{"caravans":"yes","fee":"yes","name":"De Hazelaarshof","payment:cards":"yes","payment:cash":"yes","shower":"yes","tents":"yes","website":"https://dehazelaarshof.nl/"}},"1317031342":{"location":[52.0111011,6.1326836],"ct":"NL","tp":"CR","ts":"2025-01-18T00:26:04Z","tX":529,"tY":338,"tags":{"caravan_site":"motorhome_stopover","caravan_site:type":"harbour","charge":"16.80 EUR/night + 5 EUR/payment_card","charge:conditional":"10.20 EUR @ (Nov-Mar)","fee":"yes","fee:conditional":"no @ (02/11 - 31/03)","maxstay":"3 nights","name":"Passantenhaven Doesburg","permanent_camping":"no","power_supply":"yes","power_supply:charge":"1.76 EUR/2 kWh","power_supply:fee":"yes","reservation":"no","sanitary_dump_station:chemical_toilet":"yes","sanitary_dump_station:grey_water":"no","shower":"yes","toilets":"yes","water_point":"yes","water_point:charge":"0.66 EUR/100 liter","water_point:fee":"yes","website":"https://www.bezoek-doesburg.nl/locaties/2703461960/camperplaats-passantenhaven"}},"1353535509":{"location":[51.9182924,6.0018634],"ct":"NL","tp":"CR","ts":"2025-01-22T23:13:57Z","tX":529,"tY":338,"tags":{"addr:city":"Groessen","addr:housenumber":"15","addr:postcode":"6923SL","addr:street":"Rijnstrangenweg","capacity":"25","caravan_site":"motorhome_stopover","caravan_site:type":"countryside","charge":"15 EUR","check_out":"12:00","email":"info@wellinghoeve.nl","fee":"yes","name":"Wellinghoeve","opening_hours":"Mar-Nov","operator":"Theehuis Wellinghoeve","phone":"+31 630706539","power_supply":"yes","power_supply:charge":"4 EUR","power_supply:fee":"yes","sanitary_dump_station":"yes","website":"https://www.wellinghoeve.nl/Camperplaatsen-en-prijzen/"}},"1353543425":{"location":[51.993116,6.2816384],"ct":"NL","tp":"CS","ts":"2025-01-23T00:02:29Z","tX":529,"tY":338,"tags":{"cabins":"yes","caravan_site":"motorhome_stopover","caravan_site:type":"camp_site","caravans":"yes","charge":"29.95 EUR","email":"info@camping-degraafschap.nl","fee":"yes","internet_access":"wlan","motorhome":"yes","name":"De Graafschap","permanent_camping":"yes","phone":"+31 314 343 752","power_supply":"yes","shower":"yes","tents":"yes","toilets":"yes","toilets:wheelchair":"yes","website":"https://www.camping-degraafschap.nl/kamperen/","wheelchair":"yes"}},"1411597304":{"location":[51.8566604,6.3110801],"ct":"NL","tp":"CS","ts":"2011-08-24T20:13:54Z","tX":529,"tY":338,"tags":{"name":"Ponyboerderij camping 's Gravenhof"}},"2217202338":{"location":[51.8942801,6.0013963],"ct":"NL","tp":"CR","ts":"2024-05-19T13:29:45Z","tX":529,"tY":338,"tags":{"capacity":"2","caravans":"no","impromptu":"yes","tents":"no"}},"2633555525":{"location":[52.020198,6.3027375],"ct":"NL","tp":"CS","ts":"2021-06-29T17:04:37Z","tX":529,"tY":338,"tags":{"addr:city":"Zelhem","addr:housenumber":"2a","addr:postcode":"7021MA","addr:street":"Schooltinkweg","name":"Mini camping Het Hoegen","source":"BAG","source:date":"2019-10-27"}},"2671481353":{"location":[51.9891472,6.247061],"ct":"NL","tp":"CS","ts":"2016-02-13T16:51:14Z","tX":529,"tY":338,"tags":{"addr:city":"Hummelo","addr:housenumber":"124","addr:postcode":"6999EB","addr:street":"Rijksweg","name":"Groot-Zande","source":"BAG","source:date":"2014-02-11"}},"2742510449":{"location":[51.989102,6.3150654],"ct":"NL","tp":"CS","ts":"2021-08-24T08:12:24Z","tX":529,"tY":338,"tags":{"addr:city":"Doetinchem","addr:housenumber":"16","addr:postcode":"7009ZC","addr:street":"Boeninksteeg","name":"Minicamping Nessst","source":"BAG","source:date":"2014-03-24"}},"2763407738":{"location":[51.9054669,6.1374531],"ct":"NL","tp":"CS","ts":"2018-09-11T10:29:20Z","tX":529,"tY":338,"tags":{"addr:city":"Babberich","addr:country":"NL","addr:housenumber":"28","addr:postcode":"6909DT","addr:street":"Beekseweg","name":"Camping Campschroer","source":"BAG","source:date":"2014-03-24"}},"2763408253":{"location":[51.9051958,6.1291653],"ct":"NL","tp":"CS","ts":"2023-05-27T20:42:30Z","tX":529,"tY":338,"tags":{"addr:city":"Babberich","addr:housenumber":"8","addr:postcode":"6909DR","addr:street":"Beekseweg","name":"Rivo Torto","source":"BAG","source:date":"2014-03-24","website":"https://www.rivotorto.nl"}},"2804639903":{"location":[51.8462143,6.0047688],"ct":"NL","tp":"CS","ts":"2021-03-23T10:40:41Z","tX":529,"tY":338,"tags":{"addr:city":"Leuth","addr:housenumber":"16","addr:postcode":"6578JB","addr:street":"Botsestraat","name":"Camping De Puthorst","source":"BAG","source:date":"2014-03-24"}},"2816961181":{"location":[51.9259269,6.2620622],"ct":"NL","tp":"CS","ts":"2021-03-23T10:38:48Z","tX":529,"tY":338,"tags":{"addr:city":"Braamt","addr:housenumber":"24","addr:postcode":"7047AP","addr:street":"Langestraat","name":"Camping Te Boomsgoed","source":"BAG","source:date":"2014-03-24"}},"2853579144":{"location":[51.8865072,6.0886909],"ct":"NL","tp":"CS","ts":"2022-06-06T10:08:11Z","tX":529,"tY":338,"tags":{"addr:city":"Aerdt","addr:housenumber":"18","addr:postcode":"6913AB","addr:street":"Heuvelakkersestraat","name":"De Aerdtse Wacht Camping","phone":"+31 316 247 331","source":"BAG","source:date":"2014-05-07","website":"https://www.deaerdtsewacht.nl/"}},"2954880370":{"location":[51.8594039,6.0354831],"ct":"NL","tp":"CS","ts":"2022-06-06T10:13:54Z","tX":529,"tY":338,"tags":{"addr:city":"Millingen aan de Rijn","addr:housenumber":"51","addr:postcode":"6566CT","addr:street":"Crumpsestraat","contact:mobile":"+31 6 22603066","email":"info@derijnhof.nl","name":"De Rijnhof","operator":"Geert en Lonneke de Kok","phone":"+31 481 433 037","tents":"yes","website":"https://www.derijnhof.nl/"}},"3596147194":{"location":[51.8398817,6.0834266],"ct":"DE","tp":"CR","ts":"2022-08-09T07:32:03Z","tX":529,"tY":338,"tags":{"name":"Reisemobilstellplatz am Willisee","website":"https://www.willisee.de/"}},"3611341608":{"location":[51.9183075,6.0020386],"ct":"NL","tp":"CR","ts":"2015-06-22T19:55:09Z","tX":529,"tY":338,"tags":{"addr:city":"Groessen","addr:housenumber":"15","addr:postcode":"6923SL","addr:street":"Rijnstrangenweg","capacity":"25","fee":"yes","name":"Wellinghoeve","operator":"Theehuis Wellinghoeve","power_supply":"yes","sanitary_dump_station":"no"}},"4173046298":{"location":[52.0205992,6.2947734],"ct":"NL","tp":"CS","ts":"2022-06-06T10:20:27Z","tX":529,"tY":338,"tags":{"capacity":"15","contact:website":"http://www.coenevers.nl/contact-coens-camping/","email":"info@coenevers.nl","name":"Coens Camping","phone":"+31 314 641 392","website":"https://www.coenevers.nl/"}},"6581091481":{"location":[51.8366053,6.2191286],"ct":"DE","tp":"SD","ts":"2019-07-01T06:39:02Z","tX":529,"tY":338,"tags":{"access":"customers","fee":"no","opening_hours":"24/7","sanitary_dump_station:basin":"yes","sanitary_dump_station:round_drain":"yes"}},"4461852216":{"location":[51.950811,6.196839],"ct":"NL","tp":"CS","ts":"2016-10-24T13:25:36Z","tX":529,"tY":338,"tags":{"name":"De Dassenboom","website":"http://www.dedassenboom.nl/"}},"4823208664":{"location":[51.9025158,6.1963289],"ct":"NL","tp":"CS","ts":"2017-04-28T15:02:02Z","tX":529,"tY":338,"tags":{"name":"'t Peeske"}},"4823208665":{"location":[51.8784152,6.2130202],"ct":"NL","tp":"CS","ts":"2017-04-28T15:02:02Z","tX":529,"tY":338,"tags":{"name":"Camping de Boswachter"}},"5904850310":{"location":[52.0444072,6.3035452],"ct":"NL","tp":"CR","ts":"2024-07-30T22:46:00Z","tX":529,"tY":338,"tags":{"capacity":"2","caravan_site":"motorhome_stopover","caravan_site:type":"sports_centre;village","fee":"no","maxstay":"24 hours","name":"Camperplaats Hengelo (gld)"}}}