{"10662135":{"location":[51.7908025,6.3260443],"ct":"DE","tp":"CS","ts":"2021-07-10T07:17:08Z","tX":529,"tY":339,"tags":{"addr:city":"Rees","addr:housenumber":"1","addr:postcode":"46459","addr:street":"Grietherort","email":"inselgasthof-nass@t-online.de","name":"Insel-Campingplatz Grietherort","operator":"Heinz Nass","phone":"+49 2851 6324","website":"https://www.stadt-rees.de/strukturierte-daten/unterkuenfte/campingplaetze/insel-campingplatz-grietherort/"}},"26384034":{"location":[51.7922497,6.0102225],"ct":"DE","tp":"CR","ts":"2019-03-28T10:38:52Z","tX":529,"tY":339,"tags":{"capacity":"30","fee":"yes","power_supply":"yes","sanitary_dump_station":"no","water_point":"yes","website":"https://www.kranenburg.de/de/inhalt/wohnmobilstellplatz/"}},"32400970":{"location":[51.6306274,6.200807],"ct":"DE","tp":"CR","ts":"2023-05-08T11:25:09Z","tX":529,"tY":339,"tags":{"addr:city":"Weeze","addr:postcode":"47652","addr:street":"Fährsteg","name":"Reisemobil-Stellplatz am Tierpark","wheelchair":"yes"}},"43204159":{"location":[51.6833305,6.1945379],"ct":"DE","tp":"CS","ts":"2020-07-09T16:42:18Z","tX":529,"tY":339,"tags":{"addr:city":"Goch","addr:housenumber":"108","addr:postcode":"47574","addr:street":"Am Gocher Berg","contact:mobile":"+49 173 6617121","email":"campingplatz.erlengrund@t-online.de","name":"Camping Im Erlengrund","phone":"+49 2823 5583","website":"http://www.campingclub-erlengrund.de/"}},"79263534":{"location":[51.7776786,5.9836804],"ct":"NL","tp":"CS","ts":"2023-08-24T05:52:31Z","tX":529,"tY":339,"tags":{"caravans":"no","drinking_water":"yes","name":"Het Smokkelpad","power_supply":"yes","shower":"yes","source":"3dShapes","tents":"yes","toilets":"yes"}},"80517521":{"location":[51.6434083,6.0869884],"ct":"NL","tp":"CS","ts":"2023-05-31T15:41:19Z","tX":529,"tY":339,"tags":{"addr:city":"Siebengewald","addr:housenumber":"37","addr:postcode":"5853AA","addr:street":"Gochsedijk","breakfast":"yes","cabins":"yes","caravans":"yes","email":"info@campingdehei.nl","internet_access":"wlan","internet_access:fee":"no","landuse":"grass","motorcycle_friendly":"yes","name":"Motorcamping De Hei","operator":"Wiel en Tony Poels","phone":"+31 6 10369437","source":"3dShapes","tents":"yes","website":"https://www.campingdehei.nl"}},"80538395":{"location":[51.6410923,6.0397824],"ct":"NL","tp":"CS","ts":"2024-05-15T20:06:01Z","tX":529,"tY":339,"tags":{"access":"customers","addr:city":"Afferden L","addr:housenumber":"3a","addr:postcode":"5851EE","addr:street":"Bleijenbeek","caravans":"yes","fee":"yes","name":"Natuurkampeerterrein De Cokse Heide","operator":"Staatsbosbeheer","payment:cards":"yes","payment:cash":"no","payment:contactless":"yes","shower":"yes","static_caravans":"no","tents":"yes","toilets":"yes","website":"https://www.logerenbijdeboswachter.nl/natuurkampeerterreinen/de-cokse-heide"}},"92164592":{"location":[51.8020427,6.1314152],"ct":"DE","tp":"CR","ts":"2023-05-09T08:19:09Z","tX":529,"tY":339,"tags":{"addr:city":"Kleve","addr:housenumber":"4","addr:postcode":"47533","addr:street":"Landwehr","capacity":"75","contact:email":"j.cronauer@t-online.de","contact:phone":"+49 2821 20110","fee":"yes","internet_access":"wlan","name":"Camping Park Kleve","operator":"Jürgen Cronauer","power_supply":"yes","sanitary_dump_station":"yes","water_point":"yes","website":"https://www.campingpark-kleve.de/index.php/reisemobilpark"}},"92949183":{"location":[51.7558561,6.2434821],"ct":"DE","tp":"CR","ts":"2022-12-07T19:10:28Z","tX":529,"tY":339,"tags":{"addr:city":"Bedburg-Hau","addr:housenumber":"3a","addr:postcode":"47551","addr:street":"Moyländer Allee","capacity":"50","fee":"yes","internet_access":"wlan","internet_access:fee":"no","name":"Wohnmobilstellplatz am Schloss Moyland","power_supply":"yes","sanitary_dump_station":"yes","toilets":"no"}},"110449492":{"location":[51.7891682,6.1477513],"ct":"DE","tp":"CR","ts":"2023-05-08T11:25:09Z","tX":529,"tY":339,"tags":{"addr:city":"Kleve","addr:postcode":"47533","addr:street":"Van-den-Bergh-Straße","capacity":"60","fee":"interval","name":"Reisemobilstellplatz van-den-Bergh-Straße","operator":"Stadt Kleve","power_supply":"yes","tents":"no"}},"151361743":{"location":[51.7032191,6.089123],"ct":"DE","tp":"CR","ts":"2023-04-09T20:25:34Z","tX":529,"tY":339,"tags":{"addr:city":"Goch","addr:housenumber":"20","addr:postcode":"47574","addr:street":"Kranenburger Straße","capacity":"6","contact:email":"info@gochness.de","contact:phone":"+49 2827 920010","fee":"no","internet_access":"no","name":"Caravanplatz GochNess","power_supply":"no","sanitary_dump_station":"no","water_point":"no","website":"https://www.niederrhein-tourismus.de/673/Goch__Reisemobilstellplatz_GochNess.html?lang=en"}},"156982130":{"location":[51.6939825,6.0004262],"ct":"NL","tp":"CS","ts":"2023-05-30T12:20:32Z","tX":529,"tY":339,"tags":{"addr:city":"Ottersum","addr:housenumber":"20","addr:postcode":"6595PB","addr:street":"Looiseweg","email":"info@looierheide.nl","name":"Minicamping Looierheide","phone":"+31 485 512 366","website":"https://www.looierheide.nl"}},"241003528":{"location":[51.6830149,5.9962968],"ct":"NL","tp":"CS","ts":"2023-05-30T12:20:34Z","tX":529,"tY":339,"tags":{"addr:city":"Gennep","addr:housenumber":"185","addr:postcode":"6591MD","addr:street":"Stiemensweg","name":"Camping de Bloksberg","phone":"+31 485 514 306","website":"https://www.debloksberg.nl"}},"254665414":{"location":[51.8356095,6.1125061],"ct":"DE","tp":"CR","ts":"2024-03-17T17:03:51Z","tX":529,"tY":339,"tags":{"addr:city":"Kleve","addr:postcode":"47533","addr:street":"Schenkenschanz","name":"Stellplatz Schenkenschanz","parking":"surface","wikimedia_commons":"File:Stellplatz Schenkenschanz.JPG"}},"308880557":{"location":[51.730407,6.2736936],"ct":"DE","tp":"CS","ts":"2021-02-12T18:36:34Z","tX":529,"tY":339,"tags":{"caravans":"no","group_only":"yes","name":"Internationaler Pfadfindertreffpunkt Kalkar","scout":"yes","tents":"yes","toilets:wheelchair":"yes","website":"http://www.ipt-kalkar.de/","wheelchair":"yes"}},"376243784":{"location":[51.8320589,6.2359608],"ct":"DE","tp":"CR","ts":"2023-11-01T15:11:50Z","tX":529,"tY":339,"tags":{"addr:city":"Emmerich am Rhein","addr:postcode":"46446","addr:street":"Kleiner Wall","capacity":"6","drinking_water":"no","fee":"no","internet_access":"no","name":"Reisemobilstellplatz Rheinpromenade \"Kleiner Wall\" (nur provisorisch)","power_supply":"no","sanitary_dump_station":"no","smoking":"yes","toilets":"no"}},"383507403":{"location":[51.7402985,6.301272],"ct":"DE","tp":"CR","ts":"2020-12-11T11:18:04Z","tX":529,"tY":339,"tags":{"addr:city":"Kalkar","addr:housenumber":"1","addr:postcode":"47546","addr:street":"Waysche Straße","capacity":"40","fee":"yes","internet_access":"no","name":"Wohnmobilstellplatz Kalkar","operator":"Stadt Kalkar","power_supply":"yes","sanitary_dump_station":"yes"}},"383588476":{"location":[51.7601716,6.2852073],"ct":"DE","tp":"CS","ts":"2023-11-10T08:21:31Z","tX":529,"tY":339,"tags":{"addr:city":"Kalkar","addr:housenumber":"15","addr:postcode":"47546","addr:street":"Zum Wisseler See","addr:suburb":"Wissel","description":"dog allowed","fee":"yes","internet_access":"yes","name":"Ferien- und Campingpark Wisseler See","phone":"+49 2824 9631-0","tents":"yes","website":"https://www.wisseler-see.de/"}},"389495018":{"location":[51.6618182,6.2878177],"ct":"DE","tp":"CR","ts":"2023-12-04T15:13:48Z","tX":529,"tY":339,"tags":{"addr:city":"Uedem","addr:housenumber":"99","addr:postcode":"47589","addr:street":"Bergstraße","capacity":"28","capacity:motorhomes":"26","caravans":"no","charge":"10 EUR/night incl. power","dog":"yes","fee":"yes","internet_access":"no","name":"Wohnmobilpark Uedem","opening_hours":"Mar-Oct 00:00-24:00","power_supply":"yes","sanitary_dump_station":"yes","shower":"no","surface":"grass","tents":"no","toilets":"no","wikimedia_commons":"Category:Wohnmobilpark Uedem"}},"464327969":{"location":[51.655885,6.0144749],"ct":"NL","tp":"CS","ts":"2022-03-20T15:47:01Z","tX":529,"tY":339,"tags":{"fixme":"This camp seems to have disappeared, please survey locally to find out about the current situation","name":"Mini Camping The Turnery","website":"http://www.turnery.nl/"}},"533228803":{"location":[51.6366738,6.0344024],"ct":"NL","tp":"CS","ts":"2023-10-02T07:04:51Z","tX":529,"tY":339,"tags":{"addr:city":"Afferden L","addr:housenumber":"33","addr:postcode":"5851EK","addr:street":"Rimpelt","caravans":"yes","drinking_water":"yes","email":"info@campingroland.nl","name":"Camping Roland","phone":"+31 485 531 431","power_supply":"yes","shower":"yes","tents":"yes","toilets":"yes","website":"https://www.campingroland.nl"}},"829089604":{"location":[51.7782902,5.9832456],"ct":"NL","tp":"CS","ts":"2023-08-23T17:37:17Z","tX":529,"tY":339,"tags":{"addr:city":"Groesbeek","addr:housenumber":"180","addr:postcode":"6562LV","addr:street":"Cranenburgsestraat","caravans":"yes","contact:email":"info@hetsmokkelpad.nl","drinking_water":"yes","name":"Het Smokkelpad","operator":"Natuurkampeerterreinen","power_supply":"yes","reservation":"recommended","shower":"yes","tents":"yes","toilets":"yes","website":"https://www.natuurkampeerterreinen.nl/terreinen/gelderland/het-smokkelpad/"}},"1007230108":{"location":[51.6417953,6.0040901],"ct":"NL","tp":"CS","ts":"2022-06-09T22:56:52Z","tX":529,"tY":339,"tags":{"addr:city":"Afferden L","addr:housenumber":"10","addr:postcode":"5851EA","addr:street":"Hengeland","caravans":"yes","email":"info@campinghengeland.nl","name":"Camping Hengeland","phone":"+31 6 57618907","tents":"yes","website":"https://www.campinghengeland.nl"}},"1026906005":{"location":[51.6400167,6.003562],"ct":"NL","tp":"CS","ts":"2023-05-30T12:20:49Z","tX":529,"tY":339,"tags":{"addr:city":"Afferden L","addr:housenumber":"1","addr:postcode":"5851AG","addr:street":"Dorpsstraat","email":"info@kleincanada.nl","name":"Klein Canada","phone":"+31 485 531 223","website":"https://www.kleincanada.nl"}},"1029524655":{"location":[51.6652421,6.0079375],"ct":"NL","tp":"CS","ts":"2023-06-13T09:59:58Z","tX":529,"tY":339,"tags":{"addr:city":"Heijen","addr:housenumber":"11","addr:postcode":"6598MH","addr:street":"Brem","email":"info@campingdeschaaf.nl","name":"Camping Hoeve de Schaaf","phone":"+31 485 531 242","website":"https://www.campingdeschaaf.nl"}},"1039814621":{"location":[51.709866,6.0228595],"ct":"NL","tp":"CS","ts":"2022-03-13T08:01:10Z","tX":529,"tY":339,"tags":{"addr:city":"Ven-Zelderheide","addr:housenumber":"2","addr:postcode":"6599EB","addr:street":"Biesterveld","email":"h.d.agroservice@gmail.com","name":"Minicamping de Niers","phone":"+31 6 22711047","website":"https://www.minicamping-de-niers.nl"}},"1170499012":{"location":[51.675866,6.1678755],"ct":"DE","tp":"CR","ts":"2023-12-04T21:08:53Z","tX":529,"tY":339,"tags":{"addr:city":"Goch","addr:housenumber":"20","addr:postcode":"47574","addr:street":"Thielenstraße","capacity":"75","caravans":"yes","dog":"yes","fee":"yes","name":"Friedensplatz","note":"Der Platz ist ausschließlich für Reisemobile zugelassen. Pkw, Wohnwagen, Zelte und Wohnmobile ohne WC oder Schmutzwassertank sind nicht zugelassen","operator":"Stadt Goch vertreten durch DMC","power_supply":"yes","wikimedia_commons":"File:Goch Reisemobilstellplatz Friedensplatz.jpg"}},"1188430622":{"location":[51.6755098,6.0097803],"ct":"NL","tp":"CS","ts":"2023-07-17T17:59:35Z","tX":529,"tY":339,"tags":{"capacity:pitches":"15","caravans":"yes","email":"debosrand-bv@hotmail.com","name":"De Bosrand","phone":"+31 485 511 295","shower":"yes","tents":"yes","toilets":"yes","website":"http://www.kamperenbijdebosrand.nl/"}},"3868719597":{"location":[51.73996,6.3008058],"ct":"DE","tp":"SD","ts":"2020-10-28T12:22:27Z","tX":529,"tY":339,"tags":{"fee":"yes","operator":"Stadt Kalkar","water_point":"yes"}},"3889294543":{"location":[51.7557252,6.2439138],"ct":"DE","tp":"SD","ts":"2021-09-11T19:19:24Z","tX":529,"tY":339,"tags":{"access":"customers","fee":"no","sanitary_dump_station:basin":"yes","sanitary_dump_station:chemical_toilet":"yes","sanitary_dump_station:round_drain":"yes"}},"3926546552":{"location":[51.6756961,6.1695315],"ct":"DE","tp":"SD","ts":"2016-01-04T06:18:18Z","tX":529,"tY":339,"tags":{"access":"customers","opening_hours":"24/7","operator":"Stadt Goch vertreten durch DMC","sanitary_dump_station:basin":"yes","sanitary_dump_station:chemical_toilet":"yes","sanitary_dump_station:fee":"no","sanitary_dump_station:gravity":"yes","sanitary_dump_station:grey_water":"yes","sanitary_dump_station:round_drain":"yes","sanitary_dump_station:suction":"no"}},"3926574256":{"location":[51.6614889,6.2880841],"ct":"DE","tp":"SD","ts":"2016-01-04T07:09:26Z","tX":529,"tY":339,"tags":{"access":"customers","fee":"no","sanitary_dump_station:basin":"yes","sanitary_dump_station:chemical_toilet":"yes","sanitary_dump_station:fee":"no","sanitary_dump_station:gravity":"yes","sanitary_dump_station:grey_water":"yes","sanitary_dump_station:round_drain":"yes","sanitary_dump_station:suction":"no"}},"10880374302":{"location":[51.7604178,6.1023801],"ct":"DE","tp":"CR","ts":"2023-05-09T08:19:09Z","tX":529,"tY":339,"tags":{"addr:city":"Kleve","addr:postcode":"47533","addr:street":"Dorfanger"}},"10880643896":{"location":[51.7979912,6.1205579],"ct":"DE","tp":"CR","ts":"2023-05-09T10:15:00Z","tX":529,"tY":339,"tags":{"addr:city":"Kleve","addr:postcode":"47533","addr:street":"Tiergartenstraße","name":"Stellplatz an der Tiergartenstraße"}},"10883063943":{"location":[51.8246101,6.1646264],"ct":"DE","tp":"CR","ts":"2023-05-10T09:57:55Z","tX":529,"tY":339,"tags":{"addr:city":"Kleve","addr:postcode":"47533","addr:street":"Wehrpöhl","name":"Stellplatz Griethausen"}},"10883063945":{"location":[51.8124292,6.1296358],"ct":"DE","tp":"CR","ts":"2023-05-10T09:57:55Z","tX":529,"tY":339,"tags":{"addr:city":"Kleve","addr:postcode":"47533","addr:street":"Drususdeich","name":"Stellplatz Rindern"}},"10883063946":{"location":[51.8045536,6.1632917],"ct":"DE","tp":"CR","ts":"2023-05-10T09:57:55Z","tX":529,"tY":339,"tags":{"addr:city":"Kleve","addr:postcode":"47533","addr:street":"Postdeich","name":"Stellplatz Kellen"}},"11105754104":{"location":[51.651697,6.2981721],"ct":"DE","tp":"CR","ts":"2024-08-05T21:57:55Z","tX":529,"tY":339,"tags":{"addr:housenumber":"57","addr:street":"Uedemerfeder Weg","caravan_site":"motorhome_stopover","caravan_site:type":"horse_pension","charge":"10 EUR","fee":"yes","name":"Reitanlage Maashof","phone":"+49282510471","power":"yes","power_supply":"yes","shower":"yes","toilets":"yes","toilets:access":"yes","water_point":"yes","water_source":"yes","website":"http://reitanlage-maashof.de/"}},"5012039304":{"location":[51.7614503,6.2853315],"ct":"DE","tp":"SD","ts":"2017-08-03T13:44:23Z","tX":529,"tY":339,"tags":{"access":"customers","sanitary_dump_station:basin":"yes","sanitary_dump_station:chemical_toilet":"yes","sanitary_dump_station:fee":"no","sanitary_dump_station:gravity":"yes","sanitary_dump_station:grey_water":"yes","sanitary_dump_station:round_drain":"yes","sanitary_dump_station:suction":"no"}},"11528620689":{"location":[51.6894728,6.0070692],"ct":"NL","tp":"CR","ts":"2024-01-18T19:42:12Z","tX":529,"tY":339,"tags":{"designation":"campers","website":"https://www.campercontact.com/nl/nederland/limburg/ottersum/52098/old-inn-barkitchen"}}}