{"74300730":{"location":[51.5907873,6.2859846],"ct":"DE","tp":"CS","ts":"2020-02-01T20:22:39Z","tX":529,"tY":340,"tags":{"addr:city":"Kevelaer","addr:country":"DE","addr:housenumber":"39","addr:postcode":"47626","addr:street":"Niersstraße","caravans":"no","email":"kontakt@anna-fleuth.de","horse":"yes","name":"Zeltplatz Anna Fleuth","phone":"+49 2832 899980","tents":"yes","website":"https://www.anna-fleuth.de/"}},"80538649":{"location":[51.6117717,6.0525615],"ct":"NL","tp":"CS","ts":"2022-09-28T18:24:50Z","tX":529,"tY":340,"tags":{"addr:city":"Bergen L","addr:housenumber":"101","addr:postcode":"5854PB","addr:street":"Siebengewaldseweg","email":"info@desmal.nl","name":"De Smal","phone":"+31 6 30176350","website":"https://desmal.nl"}},"80769179":{"location":[51.539456,6.1612038],"ct":"NL","tp":"CS","ts":"2025-02-09T12:20:18Z","tX":529,"tY":340,"tags":{"addr:city":"Wellerlooi","addr:housenumber":"2","addr:postcode":"5856CA","addr:street":"Paaldijk","caravans":"yes","email":"info@campingdikkenberg.nl","landuse":"grass","name":"Minicamping D’n Dikkenberg","phone":"+31 478 502 173","tents":"yes","website":"https://www.campingdikkenberg.nl"}},"81012157":{"location":[51.5791216,6.0683414],"ct":"NL","tp":"CS","ts":"2023-08-20T08:50:06Z","tX":529,"tY":340,"tags":{"caravans":"yes","email":"info@kampeerboerderijdebeukenhof.nl","motorhome":"yes","name":"De Beukenhof","phone":"+31 478 501 748","shower":"yes","tents":"yes","toilets":"yes","website":"https://www.kampeerboerderijdebeukenhof.nl/camping/"}},"81014112":{"location":[51.5671442,6.0783707],"ct":"NL","tp":"CR","ts":"2025-01-14T14:22:19Z","tX":529,"tY":340,"tags":{"capacity":"50","caravan_site":"motorhome_stopover","caravan_site:type":"lake","caravans":"no","description":"Grey water can only be disposed of in portable containers. Drinking water can only be refilled in portable containers.","fee":"yes","internet_access":"no","name":"Camperplaats Seurenheide","phone":"+31 6 55506576","power_supply":"yes","sanitary_dump_station":"yes","shower":"yes","tents":"no","toilets":"yes","waste_disposal":"yes","water_point":"yes","website":"https://dagstrandseurenheide.nl/camperplaats"}},"81014608":{"location":[51.5797032,6.073099],"ct":"NL","tp":"CS","ts":"2022-04-05T14:28:45Z","tX":529,"tY":340,"tags":{"addr:city":"Well L","addr:housenumber":"1","addr:postcode":"5855ED","addr:street":"Halve Maan","email":"welkom@camping-halvemaan.nl","name":"Camping Halve Maan","phone":"+31 6 28225898","website":"https://camping-halvemaan.nl"}},"83340218":{"location":[51.5774174,5.9968873],"ct":"NL","tp":"CS","ts":"2021-06-23T15:09:07Z","tX":529,"tY":340,"tags":{"addr:city":"Holthees","addr:housenumber":"1","addr:postcode":"5824AH","addr:street":"Koudenhoek","cabins":"yes","caravans":"yes","email":"info@hoevedeknol.nl","landuse":"grass","name":"Mini-camping Hoeve de Knol","phone":"+31 6 12898890","tents":"yes","website":"https://www.hoevedeknol.nl"}},"83342316":{"location":[51.5168951,6.1964266],"ct":"NL","tp":"CS","ts":"2023-10-09T10:31:51Z","tX":529,"tY":340,"tags":{"addr:city":"Wellerlooi","addr:housenumber":"4","addr:postcode":"5856CJ","addr:street":"Heerenvenweg","caravans":"yes","email":"info@campingheidehof.nl","fee":"yes","name":"Minicamping Heide-hof","phone":"+31 6 21984119","shower":"yes","tents":"yes","toilets":"yes","website":"https://www.campingheidehof.nl"}},"83342798":{"location":[51.4947508,6.1895727],"ct":"NL","tp":"CS","ts":"2023-05-30T12:20:29Z","tX":529,"tY":340,"tags":{"addr:city":"Arcen","addr:housenumber":"4","addr:postcode":"5944EX","addr:street":"Klein Vink","caravans":"yes","name":"Klein Vink","phone":"+31 88 044 4999","shower":"yes","static_caravans":"yes","tents":"yes","toilets":"yes","website":"https://www.kleinvink.nl/het-park/camping"}},"83394256":{"location":[51.492476,6.0592618],"ct":"NL","tp":"CS","ts":"2024-06-24T08:47:17Z","tX":529,"tY":340,"tags":{"addr:city":"Castenray","addr:housenumber":"3","addr:postcode":"5811AX","addr:street":"Valkenberg","email":"info@campingvalkenberg.nl","fee":"yes","name":"Camping Valkenberg","phone":"+31 6 31592117","source":"3dShapes","website":"https://www.campingvalkenberg.nl/"}},"83395753":{"location":[51.4912123,6.0569746],"ct":"NL","tp":"CS","ts":"2022-01-06T17:08:39Z","tX":529,"tY":340,"tags":{"addr:city":"Castenray","addr:housenumber":"16","addr:postcode":"5811AW","addr:street":"Klein Oirlo","caravans":"yes","email":"info@opdenboender.nl","fee":"yes","name":"Op den Boender","phone":"+31 6 44792686","source":"3dShapes","tents":"yes","website":"https://www.opdenboender.nl"}},"84113106":{"location":[51.4510022,6.1319445],"ct":"NL","tp":"CR","ts":"2025-01-20T12:01:31Z","tX":529,"tY":340,"tags":{"addr:city":"Lottum","addr:housenumber":"97","addr:postcode":"5973PM","addr:street":"Horsterdijk","capacity":"50 plaatsen","caravan_site":"motorhome_stopover","caravan_site:type":"countryside","caravans":"no","charge":"19.50 EUR","charge:conditional":"24.50 EUR@PH","check_in":"12:00-22:00","check_out":"12:00","dog":"yes","email":"camperplaatsindeverte@outlook.com","fee":"yes","fireworks":"no","internet_access":"wlan","internet_access:fee":"no","laundry":"yes","name":"In De Verte","phone":"+31641519265","power_supply":"yes","power_supply:charge":"0.55 EUR/kWh","power_supply:fee":"no","power_supply:maxcurrent":"6","reservation":"yes","sanitary_dump_station":"yes","sanitary_dump_station:chemical_toilet":"yes","sanitary_dump_station:grey_water":"yes","seasonal":"no","shower":"yes","shower:charge":"1 EUR","shower:fee":"yes","source":"BAG","source:date":"2014-03-24","tents":"no","website":"https://camperplaatsindeverte.nl/"}},"84113883":{"location":[51.460319,6.1720707],"ct":"NL","tp":"CS","ts":"2023-05-30T12:20:30Z","tX":529,"tY":340,"tags":{"addr:city":"Lottum","addr:housenumber":"9","addr:postcode":"5973NS","addr:street":"Veerweg","email":"info@demaashof.nl","name":"Maashof","phone":"+31 77 463 1924","website":"http://www.demaashof.nl"}},"84132898":{"location":[51.465351,6.105913],"ct":"NL","tp":"CS","ts":"2024-06-24T08:47:18Z","tX":529,"tY":340,"tags":{"addr:city":"Melderslo","addr:housenumber":"44","addr:postcode":"5962NM","addr:street":"Broekhuizerdijk","email":"welkom@svrcampingdemerel.nl","landuse":"grass","name":"Camping De Merel","phone":"+31 6 52841414","website":"https://www.svrcampingdemerel.nl"}},"139450465":{"location":[51.4563928,6.1592297],"ct":"NL","tp":"CS","ts":"2022-02-08T16:34:24Z","tX":529,"tY":340,"tags":{"addr:city":"Lottum","addr:housenumber":"45","addr:postcode":"5973ND","addr:street":"Hoofdstraat","email":"receptie@rozenhorst.com","name":"De Rozenhorst","phone":"+31 6 18794114","website":"https://www.rozenhorst.com/"}},"148558187":{"location":[51.5560136,6.1852184],"ct":"DE","tp":"CR","ts":"2024-07-30T22:18:31Z","tX":529,"tY":340,"tags":{"addr:city":"Kevelaer","addr:housenumber":"45","addr:postcode":"47624","addr:street":"Im Auwelt","addr:suburb":"Twisteden","capacity":"150","fee":"yes","name":"Reisemobilhafen Den Heyberg","operator":"Doris Wustmans","power_supply":"yes","sanitary_dump_station":"yes","water_point":"yes"}},"232817178":{"location":[51.4009858,6.1748575],"ct":"NL","tp":"CR","ts":"2017-01-20T14:54:15Z","tX":529,"tY":340,"tags":{"fee":"yes","internet_access":"wlan","internet_access:fee":"no","name":"De Krosselt","power_supply":"yes","sanitary_dump_station":"no"}},"232819112":{"location":[51.4002565,6.1750298],"ct":"NL","tp":"CS","ts":"2022-02-17T07:08:37Z","tX":529,"tY":340,"tags":{"addr:city":"Velden","addr:housenumber":"12","addr:postcode":"5941AN","addr:street":"Nachtegaalweg","email":"info@dekrosselt.nl","name":"De Krosselt","phone":"+31 6 29525045","website":"https://dekrosselt.nl"}},"238640704":{"location":[51.5788594,6.2538437],"ct":"DE","tp":"CR","ts":"2024-07-30T22:15:34Z","tX":529,"tY":340,"tags":{"addr:city":"Kevelaer","addr:postcode":"47623","addr:street":"Am Europaplatz","caravan_site":"motorhome_stopover","caravan_site:type":"town","fee":"no","internet_access":"no","name":"Reisemobilstellplatz Europaplatz","operator":"Stadtwerke Kevelaer","power_supply":"no","sanitary_dump_station":"no","toilets":"no","water_point":"no","wheelchair":"limited"}},"261673890":{"location":[51.5179468,6.0991406],"ct":"NL","tp":"CS","ts":"2023-05-30T12:20:35Z","tX":529,"tY":340,"tags":{"addr:city":"Meerlo","addr:housenumber":"8","addr:postcode":"5864CZ","addr:street":"Peschweg","caravans":"yes","email":"info@karrewiel.eu","fee":"yes","name":"Camping 't Karrewiel","phone":"+31 478 698 062","tents":"yes","website":"http://www.karrewiel.eu"}},"262096134":{"location":[51.5219314,6.0352176],"ct":"NL","tp":"CS","ts":"2024-08-16T19:54:33Z","tX":529,"tY":340,"tags":{"addr:city":"Oostrum","addr:housenumber":"12","addr:postcode":"5807EK","addr:street":"Sparrendreef","cabins":"yes","caravans":"yes","drinking_water":"yes","email":"info@wittevennen.nl","name":"Parc de Witte Vennen","phone":"+31 478 511 322","power_supply":"yes","sanitary_dump_station":"yes","shower":"yes","tents":"yes","toilets":"yes","website":"https://www.wittevennen.nl"}},"274104032":{"location":[51.4569932,6.0001501],"ct":"NL","tp":"CR","ts":"2025-01-21T12:49:31Z","tX":529,"tY":340,"tags":{"capacity":"36","capacity:motorhome":"36","caravan_site":"motorhome_stopover","caravan_site:type":"countryside","charge":"20 EUR","charge:conditional":"19 EUR@(Jan-Feb)","check_in":"08:00-21:00","check_out":"08:00-21:00","dog":"leashed","email":"steffie@dezandberg.nl","fee":"yes","internet_access":"wlan","internet_access:fee":"no","maxlength":"none","mobile":"+31 6 40461539;+31 6 46121178","motorhome":"designated","name":"Camperplaats De Zandberg","opening_hours":"week 01-53","phone":"+31 6 46121178","power_supply:charge":"3 EUR/kWh/day","power_supply:fee":"yes","power_supply:maxcurrent":"6","reservation":"yes","sanitary_dump_station":"yes","sanitary_dump_station:chemical_toilet":"yes","sanitary_dump_station:fee":"no","sanitary_dump_station:grey_water":"yes","shower":"yes","shower:conditional":"no @ \"off season\"","shower:fee":"no","toilets":"yes","toilets:conditional":"no @ \"off season\"","toilets:fee":"no","water_point":"yes","water_point:fee":"no","website":"https://www.dezandberg.nl/"}},"317992814":{"location":[51.4517853,6.257867],"ct":"DE","tp":"CR","ts":"2023-05-08T11:35:33Z","tX":529,"tY":340,"tags":{"addr:city":"Straelen","addr:housenumber":"100","addr:postcode":"47638","addr:street":"Lingsforter Straße","capacity":"27","fee":"yes","internet_access":"wlan","internet_access:fee":"no","name":"Wohnmobilstellplatz wasserstraelen","opening_hours":"24/7","power_supply":"yes","toilets":"no"}},"392761616":{"location":[51.4705165,6.0377579],"ct":"NL","tp":"CS","ts":"2022-02-06T12:57:27Z","tX":529,"tY":340,"tags":{"addr:city":"Horst","addr:housenumber":"19","addr:postcode":"5961NX","addr:street":"Gortmolenweg","email":"info@gortmeule.nl","landuse":"grass","name":"Landgoed De Gortmeule","phone":"+31 6 19261741","source":"3dShapes","website":"https://gortmeule.nl"}},"438392363":{"location":[51.3999094,6.1663291],"ct":"NL","tp":"CS","ts":"2025-01-18T14:55:15Z","tX":529,"tY":340,"tags":{"internet_access":"yes","internet_access:fee":"customers","name":"De Weerd","power_supply":"yes","sanitary_dump_station":"yes","static_caravans":"yes","website":"https://www.campingdeweerd.nl/"}},"486161727":{"location":[51.5522991,6.1162056],"ct":"NL","tp":"CS","ts":"2023-05-30T12:20:42Z","tX":529,"tY":340,"tags":{"addr:city":"Well L","addr:housenumber":"6","addr:postcode":"5855GC","addr:street":"Kevelaarsedijk","email":"info@andereggscamping.nl","name":"Anderegg's","phone":"+31 478 501 567","website":"https://andereggscamping.nl"}},"682823085":{"location":[51.5298543,6.3038159],"ct":"DE","tp":"CR","ts":"2023-05-09T08:19:09Z","tX":529,"tY":340,"tags":{"addr:city":"Geldern","addr:housenumber":"20","addr:postcode":"47608","addr:street":"Hülspaßweg","capacity":"30","fee":"no","internet_access":"no","name":"Reisemobilstellplatz Geldern-Veert Am Sportplatz","operator":"Stadt Geldern Amt für Stadtmarketing und Tourismus","power_supply":"no","sanitary_dump_station":"no"}},"682824209":{"location":[51.4950652,6.2279102],"ct":"DE","tp":"CR","ts":"2023-02-17T17:05:26Z","tX":529,"tY":340,"tags":{"addr:city":"Geldern","addr:housenumber":"16","addr:postcode":"47608","addr:street":"Am Freibad","capacity":"50","fee":"yes","internet_access":"no","name":"Reisemobilstellplatz Geldern-Walbeck Am Freibad","operator":"Stadt Geldern Amt für Stadtmarketing und Tourismus","payment:coins":"yes","power_supply":"yes","sanitary_dump_station":"yes"}},"877324637":{"location":[51.5965155,6.2532432],"ct":"DE","tp":"CR","ts":"2024-09-07T08:21:52Z","tX":529,"tY":340,"tags":{"addr:city":"Kevelaer","addr:housenumber":"54","addr:postcode":"47626","addr:street":"Grotendonker Straße","name":"Wohnmobilhafen Schravelsche Heide"}},"905191118":{"location":[51.5308873,6.1191437],"ct":"NL","tp":"CS","ts":"2023-05-30T19:34:16Z","tX":529,"tY":340,"tags":{"addr:city":"Blitterswijck","addr:housenumber":"7","addr:postcode":"5863AR","addr:street":"Veerweg","email":"logeren@tantejet.nl","name":"Camping 't Veerhuys","phone":"+31 478 531 283","website":"https://www.campingveerhuys.nl"}},"985416522":{"location":[51.415213,6.0144504],"ct":"NL","tp":"CS","ts":"2023-05-30T19:34:14Z","tX":529,"tY":340,"tags":{"addr:city":"Kronenberg","addr:housenumber":"44a","addr:postcode":"5976NJ","addr:street":"De Hees","caravans":"yes","email":"info.minicamping@rouweelseveld.nl","name":"Boerencamping 't Rouweelse veld","phone":"+31 77 467 4360","tents":"yes","website":"https://www.rouweelseveld.nl"}},"985990063":{"location":[51.5803741,6.1143842],"ct":"NL","tp":"CS","ts":"2023-05-30T12:20:48Z","tX":529,"tY":340,"tags":{"addr:city":"Well L","addr:housenumber":"14","addr:postcode":"5855ER","addr:street":"Wolfsven","caravans":"yes","email":"info@wolfsven-well.nl","name":"Camping Wolfsven","phone":"+31 478 502 891","tents":"yes","website":"http://www.wolfsven-well.nl"}},"985994845":{"location":[51.5460686,6.0899028],"ct":"NL","tp":"CS","ts":"2024-04-23T17:46:34Z","tX":529,"tY":340,"tags":{"caravans":"yes","email":"info@residentiedekooy.nl","name":"Residentie De Kooy","phone":"+31 6 27909268","tents":"yes","website":"http://www.residentiedekooy.nl"}},"1009093101":{"location":[51.5027171,6.1994995],"ct":"NL","tp":"CS","ts":"2023-01-27T13:52:16Z","tX":529,"tY":340,"tags":{"name":"Campland Arcen","website":"https://campland.nl/"}},"1026293363":{"location":[51.5064554,6.1569952],"ct":"NL","tp":"CS","ts":"2023-05-30T12:20:49Z","tX":529,"tY":340,"tags":{"addr:city":"Broekhuizenvorst","addr:housenumber":"2","addr:postcode":"5871CE","addr:street":"Blitterswijckseweg","name":"Recreatiepark Kasteel Ooijen","phone":"+31 77 463 1307","website":"https://www.kasteelooijen.nl/camping"}},"1026909278":{"location":[51.5679463,6.0601334],"ct":"NL","tp":"CS","ts":"2025-02-05T16:11:39Z","tX":529,"tY":340,"tags":{"addr:city":"Well L","addr:housenumber":"5","addr:postcode":"5855EG","addr:street":"De Kamp","caravans":"yes","drinking_water":"yes","email":"vakantie@leukermeer.nl","name":"Leukermeer","phone":"+31 478 502 444","power_supply":"yes","shower":"yes","tents":"yes","toilets":"yes","website":"https://www.leukermeer.nl"}},"1027710640":{"location":[51.5681332,5.9972723],"ct":"NL","tp":"CS","ts":"2022-02-04T13:33:43Z","tX":529,"tY":340,"tags":{"addr:city":"Smakt","addr:housenumber":"19","addr:postcode":"5817AG","addr:street":"Pelgrimslaan","email":"info@campingdestillehoek.nl","name":"Minicamping De Stille Hoek","phone":"+31 6 12153340","website":"https://campingdestillehoek.nl"}},"1029942776":{"location":[51.4624225,6.0757778],"ct":"NL","tp":"CS","ts":"2023-05-30T12:20:49Z","tX":529,"tY":340,"tags":{"addr:city":"Melderslo","addr:housenumber":"11","addr:postcode":"5962PA","addr:street":"Nachtegaallaan","email":"info@de-eendenkooi.nl","name":"Camping de Eendekooi","phone":"+31 77 398 5099","website":"https://www.de-eendenkooi.nl"}},"1029942777":{"location":[51.4609835,6.073113],"ct":"NL","tp":"CS","ts":"2023-05-30T19:34:14Z","tX":529,"tY":340,"tags":{"addr:city":"Melderslo","addr:housenumber":"4","addr:postcode":"5962PA","addr:street":"Nachtegaallaan","email":"info@dekasteelsebossen.nl","name":"Camping De Kasteelse Bossen","phone":"+31 77 398 7361","website":"https://www.dekasteelsebossen.nl"}},"1029943487":{"location":[51.4621657,6.1478517],"ct":"NL","tp":"CS","ts":"2024-07-30T14:44:53Z","tX":529,"tY":340,"tags":{"addr:city":"Lottum","addr:housenumber":"12","addr:postcode":"5973PV","addr:street":"Zwaanen Heike","caravans":"yes","drinking_water":"yes","email":"info@heikelottum.nl","name":"Camping 't Heike","phone":"+31 6 26989713","power_supply":"yes","sanitary_dump_station":"yes","shower":"yes","tents":"yes","toilets":"yes","website":"https://www.heikelottum.nl"}},"1030411456":{"location":[51.4667695,6.1557434],"ct":"NL","tp":"CS","ts":"2023-05-30T12:20:50Z","tX":529,"tY":340,"tags":{"addr:city":"Lottum","addr:housenumber":"9","addr:postcode":"5973PW","addr:street":"Stokterweg","email":"info@boszichtlottum.nl","name":"Camping Boszicht","phone":"+31 77 463 1213","website":"https://www.boszichtlottum.nl"}},"1030885628":{"location":[51.5559155,6.0016767],"ct":"NL","tp":"CS","ts":"2023-05-30T12:20:50Z","tX":529,"tY":340,"tags":{"addr:city":"Smakt","addr:housenumber":"93","addr:postcode":"5817AA","addr:street":"Maasheseweg","email":"info@deoudebarrier.nl","name":"Camping De Oude Barrier","phone":"+31 478 582 305","website":"https://deoudebarrier.nl"}},"1033438037":{"location":[51.4888009,6.1221492],"ct":"NL","tp":"CS","ts":"2023-05-30T12:20:50Z","tX":529,"tY":340,"tags":{"addr:city":"Swolgen","addr:housenumber":"3","addr:postcode":"5866AZ","addr:street":"Vlasweg","email":"info@forestcamp.nl","name":"Okkernoot","operator":"Forest Camp","phone":"+31 478 201 578","website":"https://www.forestcamp.nl"}},"1037479668":{"location":[51.5469637,6.1562674],"ct":"NL","tp":"CS","ts":"2024-10-04T08:00:07Z","tX":529,"tY":340,"tags":{"addr:city":"Wellerlooi","addr:housenumber":"5","addr:postcode":"5856CB","addr:street":"Venweg","caravans":"yes","drinking_water":"yes","email":"info@hoevedemaasduinen.nl","name":"Hoeve de Maasduinen","phone":"+31 478 501 697","power_supply":"yes","sanitary_dump_station":"yes","shower":"yes","tents":"yes","toilets":"yes","website":"https://www.hoevedemaasduinen.nl"}},"1041859791":{"location":[51.4838893,6.1932094],"ct":"NL","tp":"CS","ts":"2023-08-31T20:08:34Z","tX":529,"tY":340,"tags":{"addr:city":"Arcen","addr:housenumber":"5","addr:postcode":"5944NG","addr:street":"Nieuwe Ervenweg","caravans":"yes","drinking_water":"yes","email":"nabijdefossa@kpnmail.nl","name":"Nabij de Fossa Eugenia","phone":"+31 77 473 1963","power_supply":"yes","shower":"yes","tents":"yes","toilets":"yes","website":"https://nabijdefossa.nl"}},"1041862781":{"location":[51.5413723,6.0451723],"ct":"NL","tp":"CS","ts":"2023-05-30T12:20:51Z","tX":529,"tY":340,"tags":{"addr:city":"Geijsteren","addr:housenumber":"6","addr:postcode":"5862AX","addr:street":"Lange Ven","name":"Natuurcamping Den Buizerd","phone":"+31 478 532 601","website":"https://www.campinglandgoedgeijsteren-den-buizerd.nl"}},"1049603625":{"location":[51.5648817,6.0670606],"ct":"NL","tp":"CR","ts":"2022-04-06T13:28:39Z","tX":529,"tY":340,"tags":{}},"1106153719":{"location":[51.407695,6.1552478],"ct":"NL","tp":"CS","ts":"2023-07-27T06:22:08Z","tX":529,"tY":340,"tags":{"addr:city":"Velden","addr:housenumber":"50","addr:postcode":"5941NV","addr:street":"Vorstweg","fee":"yes","name":"Hovershof","phone":"+31 77 472 1396","website":"http://www.hovershof.nl/nl/?Camping"}},"1188433260":{"location":[51.6138743,5.9843616],"ct":"NL","tp":"CS","ts":"2023-07-09T11:32:09Z","tX":529,"tY":340,"tags":{"cabins":"yes","capacity:pitches":"25","caravans":"farmyard","email":"info@brembroeken.nl","motorhome":"yes","name":"De Brembroeken","phone":"+31 6 28179430","shower":"yes","tents":"yes","toilets":"yes","website":"https://www.brembroeken.nl/"}},"1189818136":{"location":[51.6151897,5.9941761],"ct":"NL","tp":"CS","ts":"2023-07-15T11:51:31Z","tX":529,"tY":340,"tags":{"capacity:caravans":"13","capacity:tents":"3","caravans":"yes","email":"info@debrunk.nl","landcover":"grass","name":"De Brunk","opening_hours":"Apr 1 - Oct 1","phone":"+31 6 19380415","shower":"yes","tents":"yes","toilets":"yes","website":"http://debrunk.nl/"}},"1189821993":{"location":[51.6122455,5.9957128],"ct":"NL","tp":"CS","ts":"2023-07-17T18:01:42Z","tX":529,"tY":340,"tags":{"alt_name":"Ezelgasterij","capacity:motorhome":"14","capacity:pitches":"6","caravans":"yes","email":"info@ezelgasterij.nl","motorhome":"yes","name":"De Maasheggen","phone":"+31 6 11150846;+31 6 22838225","shower":"yes","tents":"yes","toilets":"yes","website":"https://www.camperplekdemaasheggen.nl/"}},"1351214345":{"location":[51.5896144,6.0731482],"ct":"NL","tp":"CR","ts":"2025-01-14T14:11:57Z","tX":529,"tY":340,"tags":{"caravan_site":"motorhome_stopover","caravan_site:type":"forest","charge":"12.50 EUR","fee":"yes","name":"Camperplaats Bos & Heide","phone":"+31 485341468","power_supply":"yes","power_supply:fee":"yes","power_supply:maxcurrent":"6","sanitary_dump_station":"yes","sanitary_dump_station:fee":"no","surface":"grass","website":"https://www.regio-maasduinen.nl/nieuw-bergen/camperplaats-bos-heide/"}},"1397246014":{"location":[51.5307972,6.1293505],"ct":"NL","tp":"CS","ts":"2021-11-26T10:18:51Z","tX":529,"tY":340,"tags":{"fixme":"camp doesn't seem to exist anymore. Please survey locally for actual status"}},"1539469608":{"location":[51.4448076,6.0237925],"ct":"NL","tp":"CS","ts":"2021-11-26T10:26:26Z","tX":529,"tY":340,"tags":{"fixme":"This camp doesn't seem to exist anymore. Please survey locally for the actual status"}},"2340687859":{"location":[51.5597971,6.0431795],"ct":"NL","tp":"CS","ts":"2020-06-19T08:30:50Z","tX":529,"tY":340,"tags":{"addr:city":"Maashees","addr:housenumber":"5a","addr:postcode":"5823CB","addr:street":"Op den Berg","name":"Natuurkampeerterrein Landgoed Geijsteren","website":"https://www.natuurkampeerterreinen.nl/terreinen/limburg/landgoed-geijsteren/"}},"2795417232":{"location":[51.5336529,6.1422779],"ct":"NL","tp":"CS","ts":"2024-03-23T09:48:53Z","tX":529,"tY":340,"tags":{"addr:city":"Wellerlooi","addr:housenumber":"1","addr:postcode":"5856EB","addr:street":"Westerweg","caravans":"yes","fee":"yes","name":"Recreatiepark Maas en Bos","source":"BAG","source:date":"2014-03-24","static_caravans":"yes","tents":"yes"}},"10880295394":{"location":[51.5787993,6.2332017],"ct":"DE","tp":"CR","ts":"2024-05-03T21:41:27Z","tX":529,"tY":340,"tags":{"addr:city":"Kevelaer","addr:postcode":"47623","addr:street":"Hüls","drinking_water":"no","fee":"no","name":"Reisemobilstellplatz am Solegarten St. Jakob","power_supply":"no","sanitary_dump_station":"no","toilets":"no"}},"12101802385":{"location":[51.5708034,6.2329886],"ct":"DE","tp":"CR","ts":"2024-08-10T06:57:49Z","tX":529,"tY":340,"tags":{"name":"Wohnmobil-Stellplätze"}},"12101809982":{"location":[51.5707972,6.2329989],"ct":"DE","tp":"CR","ts":"2024-08-10T06:55:42Z","tX":529,"tY":340,"tags":{"description":"6 kostenlose Wohnmobil-Stellplätze","name":"Wohnmobil-Stellplätze"}},"10241725765":{"location":[51.4519782,6.2573281],"ct":"DE","tp":"SD","ts":"2022-12-06T07:43:10Z","tX":529,"tY":340,"tags":{}},"11815101231":{"location":[51.4626237,6.0757216],"ct":"NL","tp":"CS","ts":"2024-04-21T07:42:54Z","tX":529,"tY":340,"tags":{"addr:city":"Melderslo","addr:housenumber":"11","addr:postcode":"5962PA","addr:street":"Nachtegaallaan","check_date":"2024-04-13","contact:email":"info@de-eendenkooi.nl","currency:XBT":"yes","name":"Camping de Eendenkooi","payment:lightning":"yes","payment:lightning_contactless":"no","payment:onchain":"yes","phone":"+31 77 398 5099","website":"https://www.de-eendenkooi.nl/"}},"4395963790":{"location":[51.5624951,6.0632516],"ct":"NL","tp":"CR","ts":"2016-09-11T10:47:42Z","tX":529,"tY":340,"tags":{}},"4395963791":{"location":[51.589807,6.0731254],"ct":"NL","tp":"CR","ts":"2016-09-11T10:47:46Z","tX":529,"tY":340,"tags":{}},"10059371243":{"location":[51.6122752,6.0527101],"ct":"NL","tp":"SD","ts":"2022-09-28T18:24:50Z","tX":529,"tY":340,"tags":{"access":"customers","fee":"no","operator":"Camping de Smal","sanitary_dump_station:round_drain":"yes"}},"12500759899":{"location":[51.5727054,6.071054],"ct":"NL","tp":"CR","ts":"2025-01-14T13:10:56Z","tX":529,"tY":340,"tags":{"caravan_site":"motorhome_stopover","caravan_site:type":"harbour","caravans":"no","charge":"20 EUR","dog":"yes","dog:capacity":"2","fee":"yes","name":"Camperplaats Jachthaven ’t Leuken","note":"temparily location","power_supply":"yes","power_supply:maxcurrent":"6","surface":"grass","tents":"no","water_point":"yes","website":"https://www.valckxwatersport.nl/nl/camperplaats"}}}