{"32727142":{"location":[51.2575552,6.1734287],"ct":"DE","tp":"CS","ts":"2024-07-13T09:28:21Z","tX":529,"tY":341,"tags":{"caravans":"yes","check_date":"2024-07-13","fee":"yes","name":"Heide Camp Resort","power_supply":"yes","shower":"yes","tents":"yes","toilets":"yes","website":"https://heide-camp-resort.de/"}},"42277052":{"location":[51.3269775,6.2379985],"ct":"DE","tp":"CS","ts":"2021-12-20T18:44:15Z","tX":529,"tY":341,"tags":{"name":"Campingplatz De Wittsee","website":"https://www.camping-dewittsee.de/"}},"43226427":{"location":[51.2179192,6.1464379],"ct":"DE","tp":"CS","ts":"2023-11-10T23:31:30Z","tX":529,"tY":341,"tags":{"email":"info@camping-lelefeld.com","internet_access":"wlan","name":"Camping Lelefeld Elmpt","phone":"+49 2163 81203","website":"https://www.camping-lelefeld.com/"}},"43335000":{"location":[51.2346341,6.1557425],"ct":"DE","tp":"CS","ts":"2022-05-28T20:03:06Z","tX":529,"tY":341,"tags":{"addr:city":"Niederkrüchten","addr:country":"DE","addr:housenumber":"38","addr:postcode":"41372","addr:street":"Schwalmweg","caravans":"yes","email":"info@camping-diehr.com","name":"Campingplatz Diehr","operator":"Bernd Diehr","phone":"+49 2163 82800","power_supply":"yes","sanitary_dump_station":"yes","website":"https://www.camping-diehr.com/"}},"43335004":{"location":[51.2350978,6.1644134],"ct":"DE","tp":"CS","ts":"2023-11-10T23:31:38Z","tX":529,"tY":341,"tags":{"name":"Campingplatz Dilborner Mühle","phone":"+492163 82763","website":"https://www.campingplatz-brempt.de/index.html"}},"43365570":{"location":[51.2228829,6.1377707],"ct":"DE","tp":"CS","ts":"2020-08-12T05:26:01Z","tX":529,"tY":341,"tags":{"name":"Camping Graskamp"}},"44066095":{"location":[51.3062724,6.2548066],"ct":"DE","tp":"CS","ts":"2021-09-30T13:39:21Z","tX":529,"tY":341,"tags":{"name":"Campingplatz Quellensee","phone":"+49 2132 757190"}},"44109472":{"location":[51.1985478,6.2308331],"ct":"DE","tp":"CS","ts":"2021-12-21T20:27:11Z","tX":529,"tY":341,"tags":{"name":"Campingplatz Pannenmühle"}},"75523982":{"location":[51.3029823,6.0020289],"ct":"NL","tp":"CS","ts":"2024-06-24T08:47:17Z","tX":529,"tY":341,"tags":{"addr:city":"Helden","addr:housenumber":"1","addr:postcode":"5988PZ","addr:street":"Bovensbos","caravans":"yes","email":"info@campingbovensbos.nl","name":"Bovensbos","phone":"+31 77 462 2584","tents":"yes","website":"https://www.campingbovensbos.nl"}},"84148733":{"location":[51.3929142,6.1999885],"ct":"NL","tp":"CR","ts":"2022-03-13T07:44:16Z","tX":529,"tY":341,"tags":{"addr:city":"Venlo","addr:housenumber":"43","addr:postcode":"5916RD","addr:street":"Weselseweg","email":"hvancruchten@home.nl","landuse":"grass","name":"De Boswesels","phone":"+31 6 55803279","source":"3dShapes","tents":"no","website":"https://www.camperkampeerplaatsvenlo.nl"}},"84194942":{"location":[51.3680535,6.0831576],"ct":"NL","tp":"CR","ts":"2022-03-13T11:50:51Z","tX":529,"tY":341,"tags":{"addr:city":"Maasbree","addr:housenumber":"65","addr:postcode":"5993PE","addr:street":"Rooth","landuse":"grass","name":"Camperplaats 't Rooth","source":"3dShapes"}},"84212371":{"location":[51.3974788,6.0099773],"ct":"NL","tp":"CS","ts":"2021-09-21T06:39:08Z","tX":529,"tY":341,"tags":{"addr:city":"Sevenum","addr:housenumber":"8","addr:postcode":"5975NS","addr:street":"Op den Bergen","caravans":"yes","email":"bergerhofslapen@gmail.com","landuse":"grass","name":"Bergerhof Slapen","phone":"+31 6 12126425","tents":"yes","website":"https://bergerhofslapen.nl"}},"111306679":{"location":[51.3140288,6.0028894],"ct":"NL","tp":"CS","ts":"2023-05-30T12:20:30Z","tX":529,"tY":341,"tags":{"addr:city":"Helden","addr:housenumber":"32","addr:postcode":"5988NE","addr:street":"Kesselseweg","caravans":"yes","email":"camping@hanssenhof.nl","name":"Hanssenhof Recreatieboerderij","phone":"+31 77 307 2177","tents":"yes","website":"https://www.hanssenhof.nl"}},"111373900":{"location":[51.3564798,6.0813846],"ct":"NL","tp":"CS","ts":"2023-05-30T12:20:31Z","tX":529,"tY":341,"tags":{"addr:city":"Maasbree","addr:housenumber":"5a","addr:postcode":"5993PN","addr:street":"Dubbroek","cabins":"yes","caravans":"yes","email":"info@intniet.nl","landuse":"grass","name":"Camping In 't Niet","phone":"+31 77 465 4169","tents":"yes","website":"https://intniet.nl"}},"111373905":{"location":[51.3091968,6.056955],"ct":"NL","tp":"CS","ts":"2023-05-30T12:20:31Z","tX":529,"tY":341,"tags":{"addr:city":"Kessel","addr:housenumber":"6","addr:postcode":"5995PX","addr:street":"Keizersbaan","email":"info@uttumpke.nl","name":"Ut Tumpke","phone":"+31 77 462 0001","website":"https://www.uttumpke.nl"}},"111374551":{"location":[51.3094785,6.0747345],"ct":"NL","tp":"CS","ts":"2023-05-30T12:20:31Z","tX":529,"tY":341,"tags":{"addr:city":"Kessel","addr:housenumber":"10","addr:postcode":"5995PT","addr:street":"Bosakkerweg","email":"info@ulend.nl","name":"De Ulend","phone":"+31 77 462 2462","source":"3dShapes","website":"https://www.ulend.nl"}},"111374620":{"location":[51.3296275,6.0774256],"ct":"NL","tp":"CS","ts":"2023-07-17T17:59:34Z","tX":529,"tY":341,"tags":{"cabins":"yes","capacity:cabins":"1","capacity:pitches":"21","caravans":"yes","email":"info@campingbarbizon.nl","mobile":"+31 6 24881020","name":"Barbizon","phone":"+31 77 477 2259","shower":"yes","tents":"yes","toilets":"yes","website":"https://www.campingbarbizon.nl"}},"111375520":{"location":[51.3090217,6.0630613],"ct":"NL","tp":"CS","ts":"2023-07-17T17:59:34Z","tX":529,"tY":341,"tags":{"caravans":"yes","email":"info@denaenstoot.nl","name":"Den Aenstoot","opening_hours":"week 01-53","phone":"+31 6 30085126;+31 77 462 1681","shower":"yes","static_caravans":"yes","tents":"yes","toilets":"yes","website":"https://www.denaenstoot.nl/"}},"111836411":{"location":[51.3495925,6.1094921],"ct":"NL","tp":"CS","ts":"2023-08-05T10:45:28Z","tX":529,"tY":341,"tags":{"addr:city":"Baarlo","addr:housenumber":"19","addr:postcode":"5991PC","addr:street":"Hei","cabins":"yes","caravans":"yes","email":"info@heiderust.nl","internet_access":"wlan","internet_access:fee":"no","name":"Fietsers en Camper Camping Heiderust","opening_hours":"Mo-Su 07:00-22:00","phone":"+31 6 15527320","source":"3dShapes","tents":"yes","website":"https://www.heiderust.nl"}},"111849377":{"location":[51.3027848,6.0430937],"ct":"NL","tp":"CS","ts":"2023-07-17T19:10:03Z","tX":529,"tY":341,"tags":{"caravans":"yes","contact:facebook":"https://www.facebook.com/boezeven","email":"natuurcampingboezeven@gmail.com","motorhome":"yes","name":"Boezeven","operator":"Bloemencamping de Hazenakker","phone":"+31 77 462 9170","shower":"yes","tents":"yes","toilets":"yes","website":"https://www.dehazenakker.nl/boezeven/"}},"111850322":{"location":[51.2987051,6.0375487],"ct":"NL","tp":"CS","ts":"2023-05-30T12:20:31Z","tX":529,"tY":341,"tags":{"brand":"SVR","caravans":"yes","email":"info@odahoeve.nl","name":"Odahoeve","opening_hours":"Apr 1- Oct 31","phone":"+31 77 462 1358","shower":"yes","start_date":"2001","tents":"yes","toilets":"yes","website":"https://www.odahoeve.nl"}},"115632839":{"location":[51.231369,6.0798732],"ct":"NL","tp":"CS","ts":"2023-05-30T12:20:32Z","tX":529,"tY":341,"tags":{"addr:city":"Swalmen","addr:housenumber":"121","addr:postcode":"6071PX","addr:street":"Bosstraat","email":"info@aandegrens.nl","fee":"yes","name":"Camping Aan de Grens","operator":"Familie de Wit","phone":"+31 475 501 419","website":"https://www.aandegrens.nl/"}},"117555310":{"location":[51.3652726,6.3232746],"ct":"DE","tp":"CS","ts":"2021-08-19T18:43:10Z","tX":529,"tY":341,"tags":{"name":"Waldfrieden","phone":"+49 2158 3855","website":"https://www.ferienpark-waldfrieden.de/"}},"117555341":{"location":[51.3672905,6.32365],"ct":"DE","tp":"CS","ts":"2018-09-05T11:44:42Z","tX":529,"tY":341,"tags":{"name":"CC-Grenzland e.V."}},"128503291":{"location":[51.3818682,6.2708492],"ct":"DE","tp":"CR","ts":"2015-12-12T18:57:41Z","tX":529,"tY":341,"tags":{"landuse":"grass"}},"136352850":{"location":[51.2296602,6.2191115],"ct":"DE","tp":"CS","ts":"2021-07-16T09:36:42Z","tX":529,"tY":341,"tags":{"email":"info@campingplatz-muehlrather-hof.de","name":"Campingplatz Mühlrather Hof","phone":"+49 2163 987173","tents":"yes","website":"http://www.campingplatz-muehlrather-hof.de/"}},"180050781":{"location":[51.2308366,6.013212],"ct":"NL","tp":"CR","ts":"2013-11-03T01:12:55Z","tX":529,"tY":341,"tags":{"capacity":"200","name":"Camping Maasterras","tents":"yes"}},"196374007":{"location":[51.261045,6.2802179],"ct":"DE","tp":"CS","ts":"2024-02-11T14:35:43Z","tX":529,"tY":341,"tags":{}},"205798361":{"location":[51.366907,6.3249264],"ct":"DE","tp":"CS","ts":"2022-07-26T06:00:07Z","tX":529,"tY":341,"tags":{}},"223464293":{"location":[51.3869399,6.2599704],"ct":"DE","tp":"CS","ts":"2023-02-28T08:50:25Z","tX":529,"tY":341,"tags":{"name":"Camping Holzmichel","power_supply":"yes"}},"332345157":{"location":[51.3081239,6.23764],"ct":"DE","tp":"CS","ts":"2022-07-16T07:47:33Z","tX":529,"tY":341,"tags":{"access":"customers","caravans":"no","group_only":"yes","name":"Pfadfindergelände WISA","operator":"Deutsche Pfadfinderschaft Sankt Georg Stamm Sankt Lambertus Breyell","scout":"yes","tents":"yes"}},"346304721":{"location":[51.3855025,6.2585469],"ct":"DE","tp":"CS","ts":"2023-02-28T08:50:25Z","tX":529,"tY":341,"tags":{"name":"Camping Holzmichel","sanitary_dump_station":"yes"}},"363633999":{"location":[51.2225251,6.1404474],"ct":"DE","tp":"CR","ts":"2015-08-02T20:24:08Z","tX":529,"tY":341,"tags":{"capacity":"10","fee":"yes","internet_access":"no","operator":"Camping Graskamp","power_supply":"yes","sanitary_dump_station":"customers"}},"385609763":{"location":[51.3837145,6.2753487],"ct":"DE","tp":"CS","ts":"2019-07-25T12:34:36Z","tX":529,"tY":341,"tags":{"landuse":"grass","name":"Zeltwiese"}},"385609765":{"location":[51.3820784,6.2745802],"ct":"DE","tp":"CR","ts":"2020-02-19T13:12:20Z","tX":529,"tY":341,"tags":{"landuse":"grass"}},"400510233":{"location":[51.3300921,6.2383609],"ct":"DE","tp":"CS","ts":"2022-11-30T17:27:19Z","tX":529,"tY":341,"tags":{}},"431810840":{"location":[51.2557951,6.1745021],"ct":"DE","tp":"CS","ts":"2022-02-13T11:15:52Z","tX":529,"tY":341,"tags":{"name":"Camping & Freizeitplatz Brachter Wald","phone":"+49 2157 125975","website":"https://www.brachter-wald.de/"}},"474599641":{"location":[51.2534687,6.0728384],"ct":"NL","tp":"CS","ts":"2023-05-30T12:20:42Z","tX":529,"tY":341,"tags":{"addr:city":"Beesel","addr:housenumber":"3","addr:postcode":"5954PB","addr:street":"Heidenheimseweg","email":"info@campingpetrushoeve.nl","name":"Petrushoeve","phone":"+31 77 474 1984","source":"BAG","website":"https://www.campingpetrushoeve.nl/"}},"476945108":{"location":[51.2365473,6.2005784],"ct":"DE","tp":"CS","ts":"2023-03-10T19:22:58Z","tX":529,"tY":341,"tags":{"email":"info@campingforst-laarersee.com","name":"Camping Forst am Laarer See","phone":"+49 2163 8461","website":"https://www.campingforst-laarersee.com/nl/home.html"}},"481861195":{"location":[51.3255481,6.0117975],"ct":"NL","tp":"CR","ts":"2023-07-17T17:59:34Z","tX":529,"tY":341,"tags":{"email":"info@ondereneindt.nl","motorhome":"designated","name":"Camperplaats Onder En Eindt","phone":"+31 6 13564926;+31 6 27427478","shower":"yes","toilets":"yes","website":"https://www.ondereneindt.nl/"}},"494749784":{"location":[51.1926576,5.9789255],"ct":"NL","tp":"CR","ts":"2023-12-06T00:06:40Z","tX":529,"tY":341,"tags":{"capacity:motorhomes":"20","caravan_site:type":"harbour","description":"register at harbour master.","fee":"yes","internet_access":"wlan","internet_access:fee":"no","laundry":"yes","name":"Helenawerf Watersport","opening_hours":"Feb-Nov","power_supply":"yes","reservation":"apps","sanitary_dump_station":"yes","sanitary_dump_station:chemical_toilet":"summer","sanitary_dump_station:grey_water":"yes","surface":"gravel","toilets":"summer","water_point":"yes","website":"https://www.helenawerf.nl/camperplaatsen.shtml","wikimedia_commons":"File:Jachthaven, Camperplaats Helenawerf Watersport, Roermond-.jpg"}},"513245116":{"location":[51.2100721,5.9772517],"ct":"NL","tp":"CS","ts":"2020-11-04T19:06:27Z","tX":529,"tY":341,"tags":{}},"525627941":{"location":[51.2616212,6.280639],"ct":"DE","tp":"CS","ts":"2024-02-11T14:35:43Z","tX":529,"tY":341,"tags":{}},"601018014":{"location":[51.2746947,6.1225318],"ct":"NL","tp":"CR","ts":"2022-11-04T11:39:42Z","tX":529,"tY":341,"tags":{"addr:city":"Reuver","addr:housenumber":"200","addr:postcode":"5953HP","addr:street":"Keulseweg","description":"dogs allowed","internet_access":"yes","internet_access:fee":"yes","name":"Natuurplezier","phone":"+31 77 474 5485","website":"https://www.natuurplezier.nl/"}},"654817012":{"location":[51.2148569,6.2239933],"ct":"DE","tp":"CS","ts":"2023-03-11T15:37:39Z","tX":529,"tY":341,"tags":{"camp_site":"basic","capacity":"35","dog":"yes","dryer":"yes","email":"b.geurtjens@t-online.de","name":"Campingplatz Sport Schumacher","operator":"Brigitte Geurtjens","permanent_camping":"only","phone":"+49 2163 82080","washing_machine":"yes"}},"716930066":{"location":[51.3808371,6.2694439],"ct":"DE","tp":"CS","ts":"2023-05-09T08:19:09Z","tX":529,"tY":341,"tags":{"addr:city":"Wachtendonk","addr:housenumber":"5","addr:postcode":"47669","addr:street":"Am Heidesee","name":"Blaue Lagune","website":"http://www.blaue-lagune.de/"}},"721130854":{"location":[51.2154791,6.2290364],"ct":"DE","tp":"CS","ts":"2023-11-10T23:32:01Z","tX":529,"tY":341,"tags":{"name":"Campingplatz Brempt","phone":"+49 2163 80996","website":"https://www.campingplatz-brempt.de/"}},"735311092":{"location":[51.3481292,6.1051768],"ct":"NL","tp":"CR","ts":"2022-03-24T10:01:01Z","tX":529,"tY":341,"tags":{"name":"De Berckt","operator":"Oostapen Groep"}},"802065438":{"location":[51.3009325,6.0478224],"ct":"NL","tp":"CS","ts":"2023-05-30T12:20:45Z","tX":529,"tY":341,"tags":{"addr:city":"Kessel","addr:housenumber":"12","addr:postcode":"5995RM","addr:street":"Hazenakkerweg","caravans":"yes","email":"info@dehazenakker.nl","name":"De Hazenakker","phone":"+31 77 462 9170","tents":"yes","website":"https://www.dehazenakker.nl"}},"912215146":{"location":[51.194877,6.0373789],"ct":"NL","tp":"CS","ts":"2023-05-30T12:20:47Z","tX":529,"tY":341,"tags":{"addr:city":"Roermond","addr:housenumber":"165A","addr:postcode":"6042KT","addr:street":"Spikkerweg","description":"Kampeerboerderij","email":"info@spikkerdal.nl","name":"Spikkerdal","phone":"+31 475 690 741","website":"https://www.spikkerdal.nl"}},"975182745":{"location":[51.3455273,6.0593873],"ct":"NL","tp":"CS","ts":"2023-05-30T12:20:47Z","tX":529,"tY":341,"tags":{"addr:city":"Maasbree","addr:housenumber":"15","addr:postcode":"5993BH","addr:street":"Breestraat","caravans":"yes","email":"info@debreukerheide.nl","name":"Camping de Breukerheide","phone":"+31 77 465 2313","tents":"yes","website":"https://debreukerheide.nl"}},"1001860634":{"location":[51.3651603,6.1043678],"ct":"NL","tp":"CR","ts":"2023-05-30T12:20:48Z","tX":529,"tY":341,"tags":{"access":"private","addr:city":"Venlo","addr:housenumber":"223","addr:postcode":"5927NZ","addr:street":"Maasbreeseweg","email":"blerick@ncc.nl","name":"De Spekberg","operator":"Nederlandse Caravan Club","phone":"+31 77 387 1586","website":"https://www.ncc.nl/campings/blerick-de-spekberg"}},"1010735810":{"location":[51.3776721,6.0611121],"ct":"NL","tp":"CS","ts":"2023-05-30T12:20:48Z","tX":529,"tY":341,"tags":{"addr:city":"Maasbree","addr:housenumber":"9","addr:postcode":"5993PB","addr:street":"Lange Heide","cabins":"yes","caravans":"yes","email":"info@breebronne.nl","name":"Vakantiepark BreeBronne","phone":"+31 77 465 2360","tents":"yes","website":"https://breebronne.nl"}},"1019664940":{"location":[51.2615229,6.279094],"ct":"DE","tp":"CS","ts":"2022-01-09T11:01:54Z","tX":529,"tY":341,"tags":{}},"1019664941":{"location":[51.2614945,6.2799598],"ct":"DE","tp":"CS","ts":"2022-01-09T11:01:54Z","tX":529,"tY":341,"tags":{}},"1020758030":{"location":[51.3169575,6.0232469],"ct":"NL","tp":"CS","ts":"2023-09-27T15:36:19Z","tX":529,"tY":341,"tags":{"addr:city":"Helden","addr:housenumber":"6","addr:postcode":"5988NH","addr:street":"De Heldense Bossen","caravans":"yes","drinking_water":"yes","email":"info@deheldensebossen.nl","name":"De Heldense Bossen","opening_hours":"Mar 31-Oct 29 PH,Mo-Su 00:00-24:00","phone":"+31 77 307 2476","tents":"yes","website":"https://www.deheldensebossen.nl"}},"1033440417":{"location":[51.2092709,6.0353876],"ct":"NL","tp":"CS","ts":"2023-05-30T19:34:14Z","tX":529,"tY":341,"tags":{"addr:city":"Swalmen","addr:housenumber":"10","addr:postcode":"6071NC","addr:street":"Raaystraat","email":"info@raayerhof.nl","name":"Camping Raayerhof","phone":"+31 6 54216357","website":"https://www.raayerhof.nl"}},"1074570464":{"location":[51.2983247,6.0494864],"ct":"NL","tp":"CR","ts":"2022-07-31T06:34:44Z","tX":529,"tY":341,"tags":{"addr:city":"Kessel","addr:housenumber":"1","addr:postcode":"5995RM","addr:street":"Hazenakkerweg","capacity:caravans":"25","email":"info@camperplaatskessel.nl","internet_access":"wlan","internet_access:fee":"Klanten","name":"Camperplaats Kessel","phone":"+31 6 24773816","power_supply":"yes","sanitary_dump_station":"yes","website":"https://www.camperplaatskessel.nl"}},"1135897050":{"location":[51.3862794,6.258923],"ct":"DE","tp":"SD","ts":"2023-01-28T11:33:03Z","tX":529,"tY":341,"tags":{"access":"customers"}},"1190053719":{"location":[51.2761103,6.0073727],"ct":"NL","tp":"CS","ts":"2023-07-17T17:59:35Z","tX":529,"tY":341,"tags":{"capacity:motorhome":"25","email":"info@camperranchotje.nl","motorhome":"designated","name":"Camperranch Otje","phone":"+31 6 46733907;+31 6 55805699","shower":"yes","toilets":"yes","website":"https://cafeotje.nl/camperranch/"}},"1192914956":{"location":[51.308914,6.1497759],"ct":"NL","tp":"CS","ts":"2023-07-28T10:57:37Z","tX":529,"tY":341,"tags":{"capacity:touristic":"35","caravans":"yes","dog":"yes","drinking_water":"yes","fee":"yes","power_supply":"yes","tents":"yes","website":"https://www.europarcs.nl/vakantieparken/nederland/limburg/maasduinen"}},"2937755026":{"location":[51.243474,6.060835],"ct":"NL","tp":"CS","ts":"2022-03-20T04:36:23Z","tX":529,"tY":341,"tags":{"addr:city":"Swalmen","addr:housenumber":"31","addr:postcode":"6071PR","addr:street":"Veestraat","description":"dogs allowed","email":"info@boschheide.nl","name":"Camping Boschheide","phone":"+31 6 43431553","source":"BAG","source:date":"2014-06-28","website":"https://www.boschheide.nl"}},"4185807339":{"location":[51.2427567,6.1893661],"ct":"DE","tp":"SD","ts":"2024-08-17T20:55:30Z","tX":529,"tY":341,"tags":{"access":"customers","fee":"no","sanitary_dump_station:basin":"yes","sanitary_dump_station:round_drain":"yes"}},"6765788804":{"location":[51.2168109,6.2293672],"ct":"DE","tp":"CS","ts":"2019-09-02T08:38:01Z","tX":529,"tY":341,"tags":{"name":"Campingplatz Schwalmtal des KCCS e.V.","operator":"KCCS Krefelder Camping Club Schwalmtal e.V","phone":"+49 2163 80911","website":"http://www.camping-kccs.de/"}},"5858607309":{"location":[51.3019709,6.2670606],"ct":"DE","tp":"CR","ts":"2024-05-14T17:46:59Z","tX":529,"tY":341,"tags":{"capacity":"3","caravan_site":"motorhome_stopover","caravan_site:type":"parking_lot","fee":"no","name":"Wohnmobilstellplatz Flothend","power_supply":"no","sanitary_dump_station":"no","seasonal":"no","water_point":"no"}},"11742143608":{"location":[51.2352725,6.1368763],"ct":"DE","tp":"CR","ts":"2024-03-18T19:29:48Z","tX":529,"tY":341,"tags":{"charge":"20 EUR/day","fee":"yes","name":"Ausgebüxt","operator":"Nina und Stefan Thoenes","phone":"+49 178 6146676","power_supply":"yes","reservation":"required","seasonal":"no","website":"https://stellplatz-venekotensee.de/"}},"11904823724":{"location":[51.2990073,6.206291],"ct":"DE","tp":"CR","ts":"2024-05-14T18:03:04Z","tX":529,"tY":341,"tags":{"capacity":"3","caravan_site":"motorhome_stopover","caravan_site:type":"farm","caravans":"yes","charge":"30 EUR","dog":"yes","fee":"yes","name":"Camping Kinderbauernhof Steffens","power_supply":"yes","sanitary_dump_station":"yes","tents":"yes","water_point":"yes","website":"https://kinderbauernhof-steffens.de/bauernhof-camping/"}},"11904845091":{"location":[51.3449385,6.2571605],"ct":"DE","tp":"CR","ts":"2024-05-14T18:07:02Z","tX":529,"tY":341,"tags":{"caravan_site":"motorhome_stopover","caravan_site:type":"lake","caravans":"no","fee":"no","name":"Parkplatz Krickenbecker See","power_supply":"no","sanitary_dump_station":"no","tents":"no","water_point":"no"}},"12117483637":{"location":[51.2427209,6.1900149],"ct":"DE","tp":"CR","ts":"2024-08-17T20:55:30Z","tX":529,"tY":341,"tags":{"capacity":"28","caravan_site":"motorhome_stopover","caravan_site:type":"town","charge":"5 EUR","charge:power_supply":"2 EUR/night","fee":"yes","internet_access":"no","name":"Wohnmobilstellplatz Brüggen","power_supply":"yes","sanitary_dump_station":"customers","water_point":"yes","wheelchair":"yes"}},"8805192254":{"location":[51.2116088,6.1718221],"ct":"DE","tp":"PK","ts":"2021-06-04T20:03:17Z","tX":529,"tY":341,"tags":{"motorcar":"yes","motorhome":"yes"}},"4367894510":{"location":[51.2576341,6.004302],"ct":"NL","tp":"CR","ts":"2016-08-26T14:58:47Z","tX":529,"tY":341,"tags":{}},"6176938887":{"location":[51.3931087,6.1489908],"ct":"NL","tp":"CR","ts":"2023-08-14T20:41:49Z","tX":529,"tY":341,"tags":{"name":"Jachthaven Venlo"}}}