{"10923812":{"location":[51.1204755,6.010313],"ct":"NL","tp":"CR","ts":"2020-03-28T20:01:45Z","tX":529,"tY":342,"tags":{"landuse":"grass","name":"Valantiepark 't Posterbos"}},"24326409":{"location":[51.1150451,6.1642295],"ct":"DE","tp":"CS","ts":"2020-12-09T13:44:18Z","tX":529,"tY":342,"tags":{"caravans":"no","group_only":"yes","name":"Jugendzeltplatz Birgelen","tents":"yes"}},"24339063":{"location":[51.096652,6.1446672],"ct":"DE","tp":"CR","ts":"2025-01-22T11:43:32Z","tX":529,"tY":342,"tags":{"addr:city":"Wassenberg","addr:country":"DE","addr:housenumber":"2","addr:postcode":"41849","addr:street":"Auf dem Taubenkamp","capacity":"11","caravan_site":"motorhome_stopover","caravan_site:type":"parking_lot;swimming_pool;town","charge":"7.50 EUR","drinking_water":"no","email":"wohnmobilstellplatz@wassenberg.de","fee":"yes","name":"Wohnmobilstellplatz \"Am Parkbad\" Wassenberg","opening_hours":"Mo-Fr 07:30-21:00; Sa,Su 08:30-17:00","phone":"+49 2432 8911423","phone:2":"+49 2432 4900603","picnic_table":"yes","power_supply":"yes","website":"https://www.wassenberg.de/besucher/camper/"}},"24461550":{"location":[51.1299105,6.15135],"ct":"DE","tp":"CS","ts":"2020-12-09T16:12:02Z","tX":529,"tY":342,"tags":{"name":"Campingplatz Rosenthal"}},"25773758":{"location":[51.1732883,6.2867504],"ct":"DE","tp":"CS","ts":"2024-11-04T23:40:50Z","tX":529,"tY":342,"tags":{"name":"Campingplatz Heidehaus"}},"26104199":{"location":[51.1337943,6.2828682],"ct":"DE","tp":"CR","ts":"2025-02-23T13:33:54Z","tX":529,"tY":342,"tags":{"capacity":"10","email":"stadtmarketing@stadt.wegberg.de","fax":"+49 2434 83888","fee":"yes","name":"Reisemobilstellplatz Stadt Wegberg","phone":"+49 2434 5312","power_supply":"yes","ref":"Maaseiker Straße 67, 41844 Wegberg","sanitary_dump_station":"yes","toilets":"no","water_point":"yes","website":"https://www.wegberg.de/tourismus-kultur/wohnmobilplatz/"}},"30277919":{"location":[51.1299755,6.0983143],"ct":"DE","tp":"CS","ts":"2022-11-29T13:00:05Z","tX":529,"tY":342,"tags":{"access":"customers","addr:city":"Wassenberg","addr:housenumber":"7","addr:postcode":"41849","addr:street":"Waldseestraße","cabin:rental":"yes","cabins":"yes","caravans":"yes","fee":"yes","internet_access":"wlan","name":"amici lodges am Effelder Waldsee","operator":"Henri Maessen","phone":"+49 6912 0066 644","power_supply":"yes","tents":"yes","website":"https://www.amicilodges.com/amici-lodges-effelder-waldsee-camping/"}},"60632052":{"location":[51.1706527,6.2111306],"ct":"DE","tp":"CR","ts":"2024-01-15T19:14:43Z","tX":529,"tY":342,"tags":{"landuse":"grass","name":"Naturisten- Familiensportfreunde Niederkrüchten e.V."}},"60632053":{"location":[51.1706698,6.2171609],"ct":"DE","tp":"CS","ts":"2024-01-15T19:14:43Z","tX":529,"tY":342,"tags":{"cabins":"yes","caravans":"yes","email":"grenzland-west@t-online.de","fax":"+49 2436 339978","internet_access":"wlan","internet_access:fee":"no","landuse":"grass","name":"Campingplatz Grenzland West","naturism":"yes","nudism":"yes","operator":"Bund der Natur- und Sportfreunde Grenzland West e.V.","phone":"+49 2436 1318","power_supply":"yes","sanitary_dump_station":"yes","sauna":"yes","website":"https://www.grenzland-west.de"}},"107716367":{"location":[50.9855417,5.9988195],"ct":"DE","tp":"CR","ts":"2025-05-24T13:30:12Z","tX":529,"tY":342,"tags":{"addr:city":"Gangelt","addr:country":"DE","addr:housenumber":"13","addr:postcode":"52538","addr:street":"Am Freibad","capacity":"40","caravans":"no","charge":"15 EUR","charge:conditional":"10 EUR @ (\"low_season\")","check_date":"2025-05-23","check_in":"09:00-18:00","contact:email":"infocenter@gangelt.de","contact:fax":"+49 2454 936492","contact:phone":"+49 2454 936341","contact:website":"https://gangelt.de/tourismus/115-wohnmobilstellplatz-gangelt","dog":"yes","dryer":"yes","fee":"yes","internet_access":"wlan","internet_access:fee":"no","lit":"yes","name":"Wohnmobilstellplatz Gangelt","power_supply":"cee_17_blue","reservation":"yes","sanitary_dump_station:chemical_toilet":"yes","sanitary_dump_station:grey_water":"yes","seasonal":"no","shower":"yes","tents":"no","toilets":"yes","washing_machine":"yes","water_point":"yes","wheelchair":"yes"}},"121080114":{"location":[50.9789524,5.9959195],"ct":"NL","tp":"CS","ts":"2021-04-26T17:51:18Z","tX":529,"tY":342,"tags":{}},"126550056":{"location":[51.070684,5.9942335],"ct":"DE","tp":"CR","ts":"2025-02-02T23:15:13Z","tX":529,"tY":342,"tags":{"capacity":"20","caravan_site":"motorhome_stopover","caravan_site:type":"sports_centre","charge":"5 EUR","contact:email":"P.Classen@Waldfeucht.de","contact:fax":"+49 2455 4077723","contact:phone":"+49 2455 39923","fee":"yes","internet_access":"wlan","internet_access:fee":"no","name":"Reisemobilstellplatz Tilder Weg Waldfeucht","power_supply":"yes","sanitary_dump_station":"yes","water_point":"yes","website":"https://www.waldfeucht.de/projects/reisemobilstellplatz/","wheelchair":"yes"}},"130423011":{"location":[51.0735513,6.0930384],"ct":"DE","tp":"CR","ts":"2025-04-02T09:56:20Z","tX":529,"tY":342,"tags":{"addr:city":"Heinsberg","addr:country":"DE","addr:housenumber":"3","addr:postcode":"52525","addr:street":"Fritz-Bauer-Straße","capacity":"31","caravan_site":"motorhome_stopover","caravan_site:type":"lake","charge":"13 EUR","contact:email":"info@3H-Reisemobilstellplatz.de","contact:fax":"+49 2452 4466","contact:phone":"+49 2452 6878072","fee":"yes","name":"Reisemobil-Stellplatz Heinsberg am Lago","power_supply":"yes","power_supply:charge":"0.50 EUR/kWh","power_supply:fee":"yes","sanitary_dump_station":"yes","sanitary_dump_station:chemical_toilet":"yes","sanitary_dump_station:fee":"no","sanitary_dump_station:grey_water":"yes","water_point":"yes","water_point:charge":"1 EUR/90 liter","water_point:fee":"yes","website":"https://www.3h-reisemobilstellplatz.de/","wheelchair":"limited"}},"130423052":{"location":[51.0729704,6.0939825],"ct":"DE","tp":"CR","ts":"2025-02-02T23:10:27Z","tX":529,"tY":342,"tags":{"capacity":"13","caravan_site":"motorhome_stopover","caravan_site:type":"lake","charge":"6.50 EUR","contact:email":"info@3h-reisemobilstellplatz.de","contact:fax":"+49 2452 4466","contact:phone":"+49 2452 6878072","fee":"yes","name":"Reisemobil-Stellplatz 2 Heinsberg am Lago","power_supply":"yes","toilets":"no","website":"https://www.3h-reisemobilstellplatz.de/","wheelchair":"limited"}},"211157892":{"location":[51.0511322,6.2124522],"ct":"DE","tp":"CR","ts":"2025-02-25T11:18:27Z","tX":529,"tY":342,"tags":{"capacity":"6","name":"Hückelhover Ruraue","operator":"Freizeitcenter Adolph","phone":"+49 2433 2400","power_supply":"yes","website":"http://wordpress.firma-adolph.de/?page_id=63"}},"222309108":{"location":[51.1610627,6.0882015],"ct":"NL","tp":"CS","ts":"2023-09-15T21:50:15Z","tX":529,"tY":342,"tags":{"addr:city":"Herkenbosch","addr:housenumber":"1B","addr:postcode":"6075NA","addr:street":"Meinweg","cabins":"yes","caravans":"yes","email":"info@parkboschbeek.nl","name":"Huttopia De Meinweg","operator":"HUTTOPIA","phone":"+31 493 326 977","tents":"yes","website":"https://www.oostappenvakantieparken.nl/boschbeek"}},"229516138":{"location":[51.0157121,6.212224],"ct":"DE","tp":"CS","ts":"2019-08-25T10:10:56Z","tX":529,"tY":342,"tags":{"caravans":"no","group_only":"yes","name":"Jugendzeltplatz Ruraue","operator":"Kreis Heinsberg","phone":"+49 2452 135125","tents":"yes","website":"https://www.kreis-heinsberg.de/buergerservice/schlagwortindex/?ID=143"}},"659949986":{"location":[51.1740983,6.2897883],"ct":"DE","tp":"CS","ts":"2023-07-21T07:01:58Z","tX":529,"tY":342,"tags":{"addr:city":"Wegberg","addr:housenumber":"120","addr:postcode":"41844","addr:street":"Dülkener Straße","name":"Wochenendplatz Rothbusch"}},"970153383":{"location":[51.1641321,6.065888],"ct":"NL","tp":"CS","ts":"2023-05-30T19:34:14Z","tX":529,"tY":342,"tags":{"addr:city":"Herkenbosch","addr:housenumber":"76","addr:postcode":"6075CD","addr:street":"Stationsweg","email":"info@haldert.nl","name":"Mini-camping 't Haldert","phone":"+31 475 531 387","website":"https://www.haldert.nl/camping"}},"1007232806":{"location":[51.0727428,5.9787694],"ct":"NL","tp":"CS","ts":"2024-04-18T05:51:22Z","tX":529,"tY":342,"tags":{"addr:city":"Maria Hoop","addr:housenumber":"107","addr:postcode":"6105BL","addr:street":"Waldfeuchterbaan","caravans":"yes","description":"Natuurcamping bij wijngaard","email":"post@minicampingdiergaard.nl","name":"Natuurcamping De Diergaard","opening_hours":"Mo-Su 08:00-23:00","phone":"+31 475 580 783","tents":"yes","website":"https://minicampingdiergaard.nl/"}},"1021591317":{"location":[51.1363739,5.9979635],"ct":"NL","tp":"CR","ts":"2025-05-11T16:58:06Z","tX":529,"tY":342,"tags":{"addr:city":"Sint Odiliënberg","addr:street":"Roskam","capacity":"25","caravan_site":"motorhome_stopover","caravan_site:type":"village","charge":"15 EUR","email":"info@camperplaatsroerdalen.nl","fee":"yes","internet_access":"yes","internet_access:fee":"no","name":"Camperplaats Roerdalen","phone":"+31 6 30089215","power_supply":"yes","power_supply:fee":"yes","reservation":"no","sanitary_dump_station":"yes","sanitary_dump_station:chemical_toilet":"yes","sanitary_dump_station:grey_water":"yes","seasonal":"no","shower":"yes","shower:fee":"yes","tents":"no","toilets":"yes","toilets:fee":"no","water_point":"yes","water_point:fee":"no","website":"https://camperplaatsroerdalen.nl/"}},"1029969252":{"location":[51.1605535,6.0316686],"ct":"NL","tp":"CS","ts":"2023-05-30T12:20:49Z","tX":529,"tY":342,"tags":{"addr:city":"Melick","addr:housenumber":"49","addr:postcode":"6074EJ","addr:street":"Groenstraat","email":"info@vankempenhof.nl","name":"Camping van Kempenhof","phone":"+31 475 537 426","website":"https://campingvankempenhof.nl"}},"1328337899":{"location":[50.9832117,6.2724408],"ct":"DE","tp":"CR","ts":"2025-02-02T22:52:23Z","tX":529,"tY":342,"tags":{"capacity":"14","caravan_site":"motorhome_stopover","caravan_site:type":"swimming_pool;town","charge":"10 EUR/24 hours","fee":"yes","maxstay":"3 days","name":"Wohnmobilstellplatz Stadt Linnich","opening_hours":"24/7","operator":"Stadt Linnich","picnic_table":"yes","power_supply":"yes","power_supply:charge":"0.50 EUR/kWh","power_supply:fee":"yes","sanitary_dump_station":"yes","sanitary_dump_station:fee":"no","water_point":"yes","water_point:charge":"1 EUR","water_point:fee":"yes","website":"https://www.linnich.de/leben-in-linnich/tourismus/reisemobilparkplatz.php"}},"2362319724":{"location":[51.0516426,6.2117373],"ct":"DE","tp":"SD","ts":"2015-04-29T02:12:50Z","tX":529,"tY":342,"tags":{"sanitary_dump_station:accepted":"black_water;grey_water;tank_chemicals"}},"6346787232":{"location":[51.0842853,6.3052051],"ct":"DE","tp":"CR","ts":"2024-07-15T10:24:32Z","tX":529,"tY":342,"tags":{"capacity":"5","caravan_site":"motorhome_stopover","caravan_site:type":"parking_lot","fee":"no","name":"Wohnmobil-PARKplatz Schulring / Ecke Bauxhof","name:signed":"no","ref":"Bauxhof","source:name":"https://heinsberger-land.de/uebernachten/camping-und-reisemobilstellplaetze/","website":"https://www.erkelenz.de/newsarchiv/2018/september/mit-dem-wohnmobil-nach-erkelenz/"}},"10123883199":{"location":[50.9858902,5.9990349],"ct":"DE","tp":"SD","ts":"2025-05-24T12:42:02Z","tX":529,"tY":342,"tags":{"fee":"no"}}}