{"8708276":{"location":[50.8723557,6.0226268],"ct":"NL","tp":"CR","ts":"2024-04-04T07:48:32Z","tX":529,"tY":343,"tags":{"capacity":"28","charge":"15 EUR","fee":"yes","maxlength":"10","name":"Camperplaats Landgraaf","opening_hours":"24/7","power_supply":"yes","power_supply:maxcurrent":"16","sanitary_dump_station":"yes","supervised":"yes","water_point":"yes","website":"https://www.camperplaatslandgraaf.nl/"}},"25354432":{"location":[50.7617868,6.1026024],"ct":"DE","tp":"CR","ts":"2024-08-03T14:33:00Z","tX":529,"tY":343,"tags":{"addr:city":"Aachen","addr:country":"DE","addr:housenumber":"11","addr:postcode":"52066","addr:street":"Branderhofer Weg","barrier":"fence","bbq":"yes","capacity":"46","caravan_site":"motorhome_stopover","caravan_site:type":"city","caravans":"yes","charge":"23 EUR","contact:email":"mail@aachen-camping.de","contact:fax":"+49 241 6088058","contact:phone":"+49 241 99000991","contact:website":"http://www.aachen-camping.de","dog":"leashed","fee":"yes","internet_access":"wlan","internet_access:fee":"no","laundry":"yes","name":"Stellplatz Bad Aachen","opening_hours":"24/7","operator":"Kur- & Badegesellschaft mbH","power_supply":"yes","sanitary_dump_station":"yes","sanitary_dump_station:chemical_toilet":"yes","sanitary_dump_station:grey_water":"yes","shower":"yes","socket:cee_blue":"yes","source:dog":"https://cdn.appack.de/Top-Platz/html/Aachen1.html","tents":"yes","toilets":"yes","water_point":"yes","wheelchair":"yes"}},"75720871":{"location":[50.7806743,6.0085238],"ct":"NL","tp":"CS","ts":"2023-05-30T12:20:28Z","tX":529,"tY":343,"tags":{"addr:city":"Vaals","addr:housenumber":"23","addr:postcode":"6291NM","addr:street":"Lemierserberg","email":"info@gastmolen.nl","name":"Camping Hoeve De Gastmolen","phone":"+31 43 306 5755","power_supply":"yes","website":"https://www.gastmolen.nl/"}},"80645094":{"location":[50.9072409,6.048927],"ct":"NL","tp":"CS","ts":"2022-02-20T10:11:23Z","tX":529,"tY":343,"tags":{"addr:city":"Landgraaf","addr:housenumber":"10","addr:postcode":"6374KA","addr:street":"Groenstergracht","email":"info@limburgerhof.nl","name":"Boerderijcamping de Limburgerhof","phone":"+31 6 52638605","source":"local knowledge","website":"https://www.limburgerhof.nl"}},"287038709":{"location":[50.910932,6.0740102],"ct":"NL","tp":"CS","ts":"2024-07-22T18:02:03Z","tX":529,"tY":343,"tags":{"addr:city":"Landgraaf","addr:housenumber":"1","addr:postcode":"6374LE","addr:street":"Kerkveldweg","cabins":"yes","camp_site":"deluxe","capacity":"151","caravan_mobil":"yes","caravans":"yes","chalet":"yes","description":"145 tents, 6 caravans","drinking_water":"yes","email":"info@campingdewatertoren.nl","fax":"+31 45 533 0193","fee":"yes","internet_access":"yes","name":"Camping de Watertoren","phone":"+31 45 532 1747","power_supply":"yes","shower":"yes","tents":"yes","toilets":"yes","toilets:wheelchair":"yes","website":"https://www.campingdewatertoren.nl","wheelchair":"yes"}},"617959166":{"location":[50.7769354,5.9783376],"ct":"NL","tp":"CS","ts":"2023-05-30T12:20:44Z","tX":529,"tY":343,"tags":{"addr:city":"Vijlen","addr:housenumber":"3","addr:postcode":"6294NG","addr:street":"Harles","email":"info@campingschrouff.nl","name":"Boerderijcamping Schrouff","phone":"+31 43 306 3224","website":"https://campingschrouff.nl"}},"1256017295":{"location":[50.8411882,6.1015196],"ct":"DE","tp":"CR","ts":"2024-07-31T00:30:39Z","tX":529,"tY":343,"tags":{"caravan_site":"motorhome_stopover","caravan_site:type":"theatre","charge":"10 EUR","fee":"yes","name":"Wohnmobilstellplatz \"Burg Wilhelmstein\"","power_supply":"yes","power_supply:fee":"yes","sanitary_dump_station":"no","surface":"asphalt","water_point":"yes"}},"1265858756":{"location":[50.9081018,6.1667925],"ct":"DE","tp":"CR","ts":"2024-03-24T17:14:55Z","tX":529,"tY":343,"tags":{"access":"yes","capacity":"3","capacity:disabled":"no","caravans":"no","fee":"no","name":"Wohnmobilstellplatz Carl-Alexander-Park","power_supply":"no","sanitary_dump_station":"no","tents":"no","toilets":"no"}},"1829582001":{"location":[50.8646896,6.1513739],"ct":"DE","tp":"CR","ts":"2023-10-31T20:47:02Z","tX":529,"tY":343,"tags":{"capacity":"10","fee":"yes","name":"Reisemobilstellplatz am Tierpark","power_supply":"no","sanitary_dump_station:grey_water":"yes","water_point":"yes","website":"https://www.freizeit-in-alsdorf.de/stellpl%C3%A4tze-wohnmobile.html"}},"2819520441":{"location":[50.9276409,6.0103844],"ct":"NL","tp":"CS","ts":"2021-05-13T19:41:48Z","tX":529,"tY":343,"tags":{"addr:city":"Brunssum","addr:housenumber":"2","addr:postcode":"6445PD","addr:street":"Nieuwenhagenerweg","group_only":"yes","name":"Buitencentrum De Heikop","source":"BAG","source:date":"2014-03-24","website":"https://www.deheikop.info/"}},"4674841856":{"location":[50.8222325,6.1412531],"ct":"DE","tp":"CR","ts":"2024-07-25T08:39:10Z","tX":529,"tY":343,"tags":{"capacity":"10","caravans":"no","charge":"15 EUR","fee":"yes","internet_access":"no","name":"Parkplatz Aquana Sauna & Freizeitbad","operator":"Auana-Freizeitbad","power_supply":"no","sanitary_dump_station":"no","tents":"no","website":"https://www.aquana.de/preise-zeiten.html"}},"6030726438":{"location":[50.7614838,6.1027738],"ct":"DE","tp":"SD","ts":"2024-07-05T14:18:24Z","tX":529,"tY":343,"tags":{"fee":"yes","fixme":"resurvey"}},"11327856270":{"location":[50.870902,6.0534782],"ct":"NL","tp":"CR","ts":"2024-06-30T21:17:36Z","tX":529,"tY":343,"tags":{"name":"Camperplaats Erenstein"}}}