{"37698974":{"location":[50.5437998,6.236134],"ct":"DE","tp":"CS","ts":"2020-07-24T21:09:45Z","tX":529,"tY":344,"tags":{"caravans":"yes","name":"Perlenau"}},"40691338":{"location":[50.5533064,6.2548573],"ct":"DE","tp":"CS","ts":"2023-07-02T12:58:48Z","tX":529,"tY":344,"tags":{"caravans":"yes","drinking_water":"yes","name":"Aachener Camping Club","phone":"+49 176 39 27 01 11","shower":"yes","tents":"yes","toilets":"yes","website":"http://www.acc-dreiländereck.de/"}},"90968967":{"location":[50.6141784,6.0192953],"ct":"BE","tp":"CS","ts":"2022-01-16T17:17:30Z","tX":529,"tY":344,"tags":{"addr:city":"Eupen","addr:housenumber":"78","addr:postcode":"4700","addr:street":"Oestraße","email":"info@brasserie-hertogenwald.be","internet_access":"wlan","name":"Camping Hertogenwald","phone":"+32 87 74 32 22","power_supply":"yes","shower":"yes","toilets":"yes","website":"https://www.brasserie-hertogenwald.be/camping/"}},"103393000":{"location":[50.5661266,6.2673941],"ct":"DE","tp":"CS","ts":"2023-11-04T05:03:55Z","tX":529,"tY":344,"tags":{"addr:city":"Monschau","addr:country":"DE","addr:housenumber":"36","addr:postcode":"52156","addr:street":"Grünentalstraße","caravans":"yes","drinking_water":"yes","name":"Zum Jone Bur","phone":"+49 2472 3931","power_supply":"yes","shower":"yes","tents":"yes","toilets":"yes","website":"https://zum-jone-bur.de/"}},"148578392":{"location":[50.6121701,6.0129491],"ct":"BE","tp":"CS","ts":"2023-05-13T12:12:20Z","tX":529,"tY":344,"tags":{"addr:city":"Baelen","addr:housenumber":"68","addr:postcode":"4837","addr:street":"Rue de l'Invasion","email":"camping@montdragon.be","fee":"yes","name":"Mont Dragon","old_name":"Camping Wesertal","website":"https://www.montdragon.be/"}},"275945738":{"location":[50.7030714,6.0442134],"ct":"BE","tp":"CS","ts":"2024-10-06T09:58:15Z","tX":529,"tY":344,"tags":{"access":"yes","addr:city":"Raeren - Hauset","addr:country":"BE","addr:housenumber":"100","addr:postcode":"4730","addr:street":"Hammerweg","bbq":"yes","caravans":"yes","description":"Es gibt keine Zahlen zu den Kapazitäten. Sehr naturbelassen der Platz aber mit Charme. Viele Tiere aller Art.","drinking_water":"yes","email":"maikl@gmx.de","fee":"yes","internet_access":"no","mobile":"+49 176 96889007","name":"Natur-Camping Hammerbrücke","openfire":"yes","opening_hours":"10:00 - 13:00 und 15:00 - 20:00","operator":"Kirstin Evenschor","phone":"+32 87 78 31 26","power_supply":"yes","shower":"yes","static_caravans":"no","tents":"yes","toilets":"yes","website":"https://natur-aachen.de","wheelchair":"no"}},"444435581":{"location":[50.5494855,6.2219041],"ct":"DE","tp":"CS","ts":"2024-11-10T13:18:23Z","tX":529,"tY":344,"tags":{"caravans":"no","email":"info@zeltplatz-dreistegen.de","fee":"yes","group_only":"yes","name":"Jugendzeltplatz Dreistegen","operator":"Stadt Monschau","phone":"+49-2472-5497 (ab 16 Uhr)","shower":"no","static_caravans":"no","tents":"yes","toilets":"yes","website":"https://www.zeltplatz-dreistegen.de/"}},"448499548":{"location":[50.644278,6.1996826],"ct":"DE","tp":"CS","ts":"2023-11-10T08:26:03Z","tX":529,"tY":344,"tags":{"addr:city":"Roetgen","addr:housenumber":"55","addr:postcode":"52159","addr:street":"Faulenbruchstraße","caravans":"yes","email":"info@camping-roetgen.de","name":"Camping Faulenbruch","phone":"+49 2471 3176","shower":"yes","tents":"yes","toilets":"yes","website":"https://www.camping-roetgen.de/"}},"669495676":{"location":[50.5963659,6.3121364],"ct":"DE","tp":"CS","ts":"2021-01-30T00:53:44Z","tX":529,"tY":344,"tags":{"caravans":"no","dog":"no","fee":"yes","group_only":"yes","name":"Jugendzeltplatz Mariagrube Tiefenbachtal","openfire":"yes","operator":"Deutschen Pfadfinderschaft St. Georg, Lammersdorf","reservation":"required","scout":"yes","tents":"yes","website":"https://www.zeltplatz-tiefenbachtal.de/"}},"792507517":{"location":[50.7156468,6.0099285],"ct":"BE","tp":"CR","ts":"2024-05-13T20:55:20Z","tX":529,"tY":344,"tags":{"addr:city":"Kelmis","addr:postcode":"4720","addr:street":"Galmeiplatz","alt_name":"Wohnmobilstellplatz Galmeiplatz","capacity":"7","description":"Geschlossen bei Kirmes und Offiziellen Veranstaltungen auf dem Galmeiplatz","email":"verwaltung@kelmis.be","fee":"no","name":"Aire de Kelmis","note":"Campingverhalten ist nicht erlaubt!","phone":"+32 87 65 91 41","power_supply":"yes","sanitary_dump_station":"yes","sanitary_dump_station:chemical_toilet":"yes","sanitary_dump_station:grey_water":"yes","tents":"no","toilets":"yes","water_point":"yes"}},"923969295":{"location":[50.5632827,6.2988496],"ct":"DE","tp":"CS","ts":"2019-08-25T10:10:56Z","tX":529,"tY":344,"tags":{"caravans":"no","email":"haus@dpsg-ac.de","group_only":"yes","name":"Jugendzeltplatz Widdau","phone":"+49 2434 981231","scout":"yes","tents":"yes","website":"https://www.haussanktgeorg.de/zeltplatz-widdau/"}},"1193127128":{"location":[50.7066738,6.2342878],"ct":"DE","tp":"CS","ts":"2024-01-01T20:32:44Z","tX":529,"tY":344,"tags":{"access":"customers","backcountry":"yes","camp_site":"basic","capacity:tents":"2","caravans":"no","charge":"15.00 EUR","drinking_water":"no","email":"info@nordeifel-tourismus.de","fee":"yes","fireplace":"no","name":"Buschfieber","openfire":"no","operator":"Naturpark Nordeifel e.V.","ref":"16","reservation":"required","shower":"no","tents":"yes","toilets":"yes","website":"https://www.trekking-eifel.de/de/die-trekkingplaetze/buschfieber/"}},"1193127132":{"location":[50.5728357,6.2099068],"ct":"DE","tp":"CS","ts":"2024-01-01T20:32:44Z","tX":529,"tY":344,"tags":{"access":"customers","backcountry":"yes","camp_site":"basic","capacity:tents":"2","caravans":"no","charge":"15.00 EUR","drinking_water":"no","email":"info@nordeifel-tourismus.de","fee":"yes","fireplace":"no","name":"Ruf des Venns","openfire":"no","operator":"Naturpark Nordeifel e.V.","ref":"11","reservation":"required","shower":"no","tents":"yes","website":"https://www.trekking-eifel.de/de/die-trekkingplaetze/ruf-des-venns/"}},"1231409435":{"location":[50.6226061,6.0914408],"ct":"BE","tp":"CR","ts":"2023-12-15T16:04:58Z","tX":529,"tY":344,"tags":{"caravan_site":"motorhome_stopover","caravan_site:type":"parking_lot","dog":"yes","fee":"no","name":"Aire du Barrage de la Vesdre","sanitary_dump_station":"no","seasonal":"no","source:name":"visitWallonia","tents":"no"}},"1298885618":{"location":[50.5541042,6.2319425],"ct":"DE","tp":"CR","ts":"2024-07-25T09:06:07Z","tX":529,"tY":344,"tags":{"charge":"12 EUR","fee":"yes","name":"Wohnmobilstellplatz Biesweg Monschau","opening_hours":"24/7","power_supply":"yes","water_point":"yes","water_point:charge":"7 EUR","water_point:fee":"yes","website":"https://www.eifel.info/a-wohnmobilstellplatz-biesweg"}},"1767602992":{"location":[50.7261466,6.0384534],"ct":"DE","tp":"CS","ts":"2024-05-17T23:15:57Z","tX":529,"tY":344,"tags":{"caravans":"no","drinking_water":"yes","group_only":"yes","name":"Jugendgruppenzeltplatz Aachen","power_supply":"yes","shower":"yes","tents":"yes","toilets":"yes"}},"3231055970":{"location":[50.5542064,6.2319719],"ct":"DE","tp":"SD","ts":"2015-04-29T01:02:05Z","tX":529,"tY":344,"tags":{"sanitary_dump_station:accepted":"black_water;tank_chemicals"}},"11898641682":{"location":[50.5439358,6.2371202],"ct":"DE","tp":"SD","ts":"2024-05-12T13:38:10Z","tX":529,"tY":344,"tags":{"access":"customers","fee":"no","opening_hours":"24/7","sanitary_dump_station:basin":"yes"}},"5182151148":{"location":[50.5606607,6.0588628],"ct":"BE","tp":"CS","ts":"2024-11-03T12:12:12Z","tX":529,"tY":344,"tags":{"backcountry":"yes","capacity":"10","caravans":"no","description":"As any \"Aire de bivouac\": No caravan, cars and so on. Only for hikers, cyclists, equestrians. No fees, no internet, no toilet, no water. You name it: 1 billion stars hotel.","drinking_water":"no","fee":"no","internet_access":"no","name":"Aire de bivouac de la Bergerie","openfire":"no","operator":"Walloon Agency for Nature and Forests (DNF)","power_supply":"no","reservation":"yes","shower":"no","tents":"yes","toilets":"no","website":"https://botrange.be/bivouacs/zone-b-baelen/"}},"5182163936":{"location":[50.5990179,6.0553838],"ct":"BE","tp":"CS","ts":"2022-08-30T14:23:31Z","tX":529,"tY":344,"tags":{"backcountry":"yes","caravans":"no","drinking_water":"no","fee":"no","name":"Aire de bivouac de la Soor","openfire":"no","operator":"Walloon Agency for Nature and Forests (DNF)","reservation":"yes","shower":"no","tents":"yes","toilets":"no","website":"https://botrange.be/en/bivouacs/area-c-soor/"}},"5182171732":{"location":[50.5728573,6.0054976],"ct":"BE","tp":"CS","ts":"2022-08-30T14:16:33Z","tX":529,"tY":344,"tags":{"backcountry":"yes","drinking_water":"no","fee":"no","name":"Aire de bivouac de la Gileppe","openfire":"no","operator":"Walloon Agency for Nature and Forests (DNF)","reservation":"yes","shower":"no","toilets":"no","website":"https://botrange.be/nl/bivouacs/zone-a-gileppe/"}},"12093536158":{"location":[50.6484494,6.1846241],"ct":"BE","tp":"CR","ts":"2024-08-05T13:40:53Z","tX":529,"tY":344,"tags":{"dog":"yes","fee":"no","name":"Wohnmobilstellplatz am Bahnhof Roetgen","power_supply":"no","sanitary_dump_station":"no","water_point":"no","website":"https://www.eifel.info/a-parkplatz-am-bahnhof-roetgen"}},"11420577878":{"location":[50.7156697,6.0100673],"ct":"BE","tp":"SD","ts":"2024-07-02T19:09:09Z","tX":529,"tY":344,"tags":{"access":"yes","fee":"no","operator":"Commune La Calamine","sanitary_dump_station:chemical_toilet":"yes","sanitary_dump_station:grey_water":"yes","water_point":"yes"}},"12387831557":{"location":[50.6133786,5.9968152],"ct":"BE","tp":"CR","ts":"2024-12-01T09:52:20Z","tX":529,"tY":344,"tags":{}}}