{"93230292":{"location":[50.1230309,6.1044967],"ct":"LU","tp":"CS","ts":"2023-10-01T18:16:30Z","tX":529,"tY":346,"tags":{"addr:city":"Lieler","addr:housenumber":"12","addr:postcode":"9972","addr:street":"Hauptstrooss","email":"nfo@troisfrontieres.lu","internet_access":"wlan","name":"Camping Trois Frontières","phone":"+352 99 86 08","reservation":"yes"}},"100828401":{"location":[50.0905945,6.0271378],"ct":"LU","tp":"CS","ts":"2024-03-17T16:52:26Z","tX":529,"tY":346,"tags":{"name":"Camping Woltzdal","website":"https://www.campingwoltzdal.com/"}},"108362484":{"location":[50.2421816,6.0921611],"ct":"BE","tp":"CS","ts":"2023-10-02T12:49:23Z","tX":529,"tY":346,"tags":{"caravans":"yes","drinking_water":"yes","internet_access":"wlan","name":"Camping Hohenbusch","phone":"+32 80 22 75 23","power_supply":"yes","shower":"yes","tents":"yes","toilets":"yes","website":"https://www.campinghohenbusch.be/","wheelchair":"yes"}},"120789965":{"location":[50.0935354,6.125494],"ct":"LU","tp":"CS","ts":"2025-01-19T20:30:39Z","tX":529,"tY":346,"tags":{"name":"Campingplatz Tintesmühle","name:de":"Campingplatz Tintesmühle","name:lb":"Camping Tëntesmillen","opening_hours":"Apr-Oct","operator":"Arsene Bertemes - Germaine Schroeder","phone":"+352 99 85 06 / +352 94 90 26"}},"185069323":{"location":[50.1182414,6.0007203],"ct":"LU","tp":"CS","ts":"2022-09-15T12:08:30Z","tX":529,"tY":346,"tags":{"backcountry":"no","caravans":"yes","dog":"leashed","drinking_water":"yes","email":"info@camping-troisvierges.lu","fax":"+352 - 26 95 77 99","fee":"yes","image":"https://www.camping-troisvierges.lu/custom/images/headers/information.jpg","internet_access":"wlan","internet_access:fee":"no","name":"Camping Troisvierges","note":"No house number assigned","openfire":"no","payment:bankaxess":"no","payment:coins":"yes","payment:maestro":"yes","payment:mastercard":"yes","payment:notes":"yes","payment:visa":"yes","payment:visa_debit":"yes","phone":"+352 - 99 71 41","power_supply":"yes","reservation":"recommended","sanitary_dump_station":"yes","shower":"yes","smoking":"outside","tents":"yes","toilets":"yes","website":"https://www.camping-troisvierges.lu","wheelchair":"yes"}},"192061672":{"location":[50.1438603,6.1422935],"ct":"BE","tp":"CS","ts":"2025-04-20T09:12:47Z","tX":529,"tY":346,"tags":{"addr:city":"Ouren","addr:housenumber":"14","addr:postcode":"4790","addr:street":"Ouren","cabins":"yes","caravans":"yes","check_date":"2023-09-09","email":"international@maredresorts.be","motor_vehicle":"yes","name":"Camping International Ouren","permanent_camping":"yes","phone":"+32 80 32 92 91","shower":"yes","tents":"yes","toilets":"yes","website":"https://www.maredresorts.be/international/welkom/"}},"265471422":{"location":[50.1273107,6.2719779],"ct":"DE","tp":"CR","ts":"2025-01-28T15:18:46Z","tX":529,"tY":346,"tags":{"access":"yes","capacity":"5","caravan_site":"motorhome_stopover","caravan_site:type":"countryside","charge":"6 EUR","fee":"yes","lit":"no","name":"Wohnmobilstellplatz Üttfeld-Bahnhof","operator":"Ortsgemeinde Üttfeld","picnic_table":"yes","power_supply":"yes","sanitary_dump_station":"yes","socket:cee_blue":"yes","supervised":"no","surface":"gravel","website":"https://www.eifel.info/a-wohnmobilstellplatz-uettfeld"}},"295731200":{"location":[50.0729304,6.2072429],"ct":"DE","tp":"CS","ts":"2014-08-03T20:33:04Z","tX":529,"tY":346,"tags":{"addr:city":"Irrhausen","addr:country":"DE","addr:housenumber":"1","addr:postcode":"54689","addr:street":"Campingplatz","name":"Campingplatz Irsental","shower":"yes","tents":"yes","website":"http://www.campingplatz-irsental.de"}},"295731201":{"location":[50.0744654,6.2063615],"ct":"DE","tp":"CS","ts":"2014-08-03T20:33:04Z","tX":529,"tY":346,"tags":{"name":"Gruppenzeltplatz","openfire":"yes","website":"http://www.campingplatz-irsental.de"}},"333538653":{"location":[50.21693,5.9779505],"ct":"BE","tp":"CS","ts":"2018-05-31T17:03:16Z","tX":529,"tY":346,"tags":{"addr:street":"108a","name":"Camping à la Ferme Klein Rost"}},"864202679":{"location":[50.2347754,6.2880563],"ct":"DE","tp":"CS","ts":"2024-09-01T14:23:27Z","tX":529,"tY":346,"tags":{"addr:city":"Bleialf","addr:country":"DE","addr:housenumber":"4","addr:postcode":"54608","addr:street":"Im Brühl","facebook":"https://www.facebook.com/Camping-bleialf-113791383328204","name":"Campingplatz Bleialf","operator":"Fam. van der Horst","phone":"+49 65551059","website":"https://camping-bleialf.de/"}},"1181939906":{"location":[50.2031427,6.2016032],"ct":"DE","tp":"CR","ts":"2023-06-14T06:20:16Z","tX":529,"tY":346,"tags":{"capacity":"4","name":"Waldtalsmühle","power_supply":"yes"}},"1231409434":{"location":[50.2812114,6.1227154],"ct":"BE","tp":"CR","ts":"2025-01-25T21:57:35Z","tX":529,"tY":346,"tags":{"capacity":"5","caravan_site":"motorhome_stopover","caravan_site:type":"parking_lot","fee":"no","name":"Aire de Saint-Vith","power_supply":"no","sanitary_dump_station":"yes","sanitary_dump_station:chemical_toilet":"yes","sanitary_dump_station:grey_water":"yes","toilets":"no","water_point":"yes","wheelchair":"yes"}},"9948744366":{"location":[50.1190574,6.0032808],"ct":"LU","tp":"SD","ts":"2022-08-13T19:23:44Z","tX":529,"tY":346,"tags":{"water_point:fee":"yes"}},"11134102446":{"location":[50.2667477,6.1394612],"ct":"BE","tp":"CS","ts":"2023-08-21T13:20:41Z","tX":529,"tY":346,"tags":{"addr:city":"Sankt Vith","addr:street":"Wiesenbachstraße","name":"Camping Wiesenbach"}}}