{"15753844":{"location":[49.9132192,6.0860236],"ct":"LU","tp":"CS","ts":"2023-10-30T11:21:37Z","tX":529,"tY":347,"tags":{"addr:city":"Bourscheid-Moulin","addr:housenumber":"1","addr:postcode":"9164","addr:street":"Camping du Moulin","cabins":"yes","caravans":"yes","email":"moulin@camp.lu","name":"Camping du Moulin","phone":"+352 99 03 31","power_supply":"yes","shower":"yes","tents":"yes","toilets":"yes","website":"https://www.camp.lu/"}},"26531602":{"location":[49.8461991,6.0810666],"ct":"LU","tp":"CS","ts":"2024-08-25T11:21:47Z","tX":529,"tY":347,"tags":{"caravans":"yes","drinking_water":"yes","name":"Camping Ettelbruck","sanitary_dump_station":"yes","shower":"yes","tents":"yes","toilets":"yes","toilets:wheelchair":"yes","website":"https://www.campingettelbruck.lu/","wheelchair":"yes"}},"26749751":{"location":[49.8383561,6.2237559],"ct":"LU","tp":"CS","ts":"2025-06-11T19:48:19Z","tX":529,"tY":347,"tags":{"addr:city":"Ermsdorf","addr:housenumber":"27","addr:postcode":"9366","addr:street":"Reisduerferstrooss","capacity":"105","caravans":"yes","check_date":"2025-06-11","drinking_water":"yes","email":"info@camping-neumuhle.lu","fee":"yes","internet_access":"wlan","internet_access:fee":"yes","name":"Camping Neumuhle","power_supply":"yes","reservation":"yes","sanitary_dump_station":"yes","shower":"yes","tents":"yes","toilets":"yes","website":"https://www.camping-neumuhle.lu/"}},"28306412":{"location":[49.8734422,6.1887279],"ct":"LU","tp":"CS","ts":"2024-01-23T08:25:35Z","tX":529,"tY":347,"tags":{"cabins":"yes","capacity":"184","caravans":"yes","drinking_water":"yes","fee":"yes","internet_access":"wlan","lit":"yes","name":"Camping Bleesbruck","operator":"Roger Hamen","phone":"+352 80 31 34","power_supply":"yes","sanitary_dump_station":"yes","shower":"yes","static_caravans":"yes","tents":"yes","toilets":"yes","toilets:wheelchair":"yes","washing_machine":"yes","website":"https://www.camping-bleesbruck.lu/","wheelchair":"yes"}},"28318668":{"location":[49.8707348,6.2684396],"ct":"LU","tp":"CS","ts":"2024-10-07T14:41:13Z","tX":529,"tY":347,"tags":{"addr:city":"Reisdorf","addr:housenumber":"23","addr:postcode":"9390","addr:street":"Route de la Sûre","email":"reisdorfcamp@gmail.com","name":"Camping de la Sûre","website":"https://campingdelasure.lu/"}},"28335115":{"location":[49.851991,6.1368092],"ct":"LU","tp":"CS","ts":"2025-03-13T17:46:01Z","tX":529,"tY":347,"tags":{"addr:city":"Ingeldorf","addr:country":"LU","addr:housenumber":"2","addr:postcode":"9161","addr:street":"Um Gritt","email":"info@camping-gritt.lu","name":"Camping Gritt","phone":"+352 80 2018","ref:caclr":"180806","website":"http://camping-gritt.lu"}},"28753969":{"location":[50.0176793,6.1347907],"ct":"LU","tp":"CS","ts":"2023-09-12T13:23:47Z","tX":529,"tY":347,"tags":{"name":"Euro Parcs Kohnenhof"}},"28821185":{"location":[49.8772848,5.9894535],"ct":"LU","tp":"CS","ts":"2025-04-09T19:28:28Z","tX":529,"tY":347,"tags":{"addr:city":"Heiderscheid","addr:country":"LU","addr:housenumber":"4","addr:place":"Fuussekaul","addr:postcode":"9156","caravans":"yes","contact:email":"info@fuussekaul.lu","contact:phone":"+352 2688881","contact:website":"https://www.fuussekaul.lu/","drinking_water":"yes","name":"Camping Fuussekaul","power_supply":"yes","sanitary_dump_station":"yes","shower":"yes","tents":"yes","toilets":"yes","wheelchair":"yes"}},"28888458":{"location":[50.0030854,6.1464356],"ct":"LU","tp":"CR","ts":"2024-03-27T19:13:44Z","tX":529,"tY":347,"tags":{"name":"Vallée de l'Our","tents":"yes"}},"28888678":{"location":[49.978799,6.1666133],"ct":"LU","tp":"CS","ts":"2022-07-28T12:23:49Z","tX":529,"tY":347,"tags":{"name":"Camping du Barrage","tents":"yes","website":"https://www.campingdubarrage.lu/"}},"28908923":{"location":[49.9553621,6.028448],"ct":"LU","tp":"CS","ts":"2025-03-01T18:39:41Z","tX":529,"tY":347,"tags":{"alt_name":"Camping Nicolas Brandenburger","caravans":"yes","fee":"yes","name":"Camping Kautenbach","power_supply":"yes","reservation":"yes","shower":"yes","tents":"yes","toilets":"yes","website":"https://www.campingkautenbach.lu/"}},"51887095":{"location":[49.9143363,6.0014826],"ct":"LU","tp":"CS","ts":"2021-03-21T13:00:06Z","tX":529,"tY":347,"tags":{"addr:city":"Toodlermillen","addr:country":"LU","addr:housenumber":"1","addr:place":"Toodlermillen","addr:postcode":"9181","email":"info@camping-toodlermillen.lu","name":"Camping Toodlermillen","phone":"+352 83 9189","toilets:wheelchair":"yes","website":"https://www.camping-toodlermillen.lu/","wheelchair":"yes"}},"53574209":{"location":[49.9074124,6.0725762],"ct":"LU","tp":"CS","ts":"2024-11-09T16:21:16Z","tX":529,"tY":347,"tags":{"addr:city":"Bourscheid","addr:housenumber":"17","addr:postcode":"9140","addr:street":"Schlasswee","dog":"yes","email":"campbour@pt.lu","internet_access":"wlan","name":"Camping Panorama","operator":"Syndicat d'Initiative Bourscheid","phone":"+352 621 237960"}},"66985094":{"location":[49.9159942,6.1797648],"ct":"LU","tp":"CS","ts":"2020-12-21T10:30:51Z","tX":529,"tY":347,"tags":{"name":"Camping - Beter Uit Walsdorf","website":"https://www.beteruitholidayparks.com/walsdorf"}},"67879506":{"location":[49.9271734,6.2216581],"ct":"LU","tp":"CS","ts":"2024-03-30T16:32:03Z","tX":529,"tY":347,"tags":{"addr:city":"Vianden","addr:housenumber":"5","addr:postcode":"9415","addr:street":"Route de Bettel","capacity:caravans":"150","dog":"yes","internet_access":"wlan","name":"Camping du Moulin","note:caclr":"CACLR has \"ZAE route de Bettel\", just \"route de Bettel\" is used on the ground, numbers match","ref:caclr":"241866","sanitary_dump_station":"yes"}},"70309588":{"location":[49.9289617,6.2223401],"ct":"LU","tp":"CS","ts":"2025-05-31T16:06:02Z","tX":529,"tY":347,"tags":{"addr:city":"Vianden","addr:housenumber":"3","addr:postcode":"9415","addr:street":"Route de Bettel","internet_access":"wlan","name":"Camping de l'Our","phone":"+352 834505","website":"https://www.camping-our-vianden.lu/"}},"72439764":{"location":[49.9252636,6.0449685],"ct":"LU","tp":"CS","ts":"2023-10-18T06:47:03Z","tX":529,"tY":347,"tags":{"cabins":"yes","caravans":"yes","email":"info@campingdunord.lu","name":"Camping du Nord","phone":"+352 621 509 166","tents":"yes","website":"https://www.campingdunord.lu/"}},"92392957":{"location":[50.0539328,6.023375],"ct":"LU","tp":"CS","ts":"2023-11-17T15:27:19Z","tX":529,"tY":347,"tags":{"addr:city":"Clervaux","addr:country":"LU","addr:housenumber":"33","addr:postcode":"9714","addr:street":"Klatzewee","email":"info@camping-clervaux.lu","name":"Camping officiel de Clervaux","phone":"+352 92 00 42","ref:caclr":"192601","shower":"yes","toilets":"yes","website":"https://www.camping-clervaux.lu/"}},"102947448":{"location":[49.8987469,6.2382839],"ct":"DE","tp":"CS","ts":"2023-02-26T10:55:17Z","tX":529,"tY":347,"tags":{"email":"info@eifelidyll.de","name":"Ourtal-Idyll","phone":"+49 6566 352","stars":"4","website":"https://www.eifelidyll.de"}},"104168034":{"location":[49.8503808,6.321337],"ct":"LU","tp":"CS","ts":"2023-11-02T17:20:36Z","tX":529,"tY":347,"tags":{"addr:city":"Dillingen","addr:country":"LU","addr:housenumber":"12","addr:postcode":"6350","addr:street":"Rue de la Sûre","caravans":"yes","email":"info@camping-wies-neu.lu","fax":"+352 2687 6438","name":"Wies-Neu","phone":"+352 83 6110","shower":"yes","tents":"yes","toilets":"yes","website":"https://www.camping-wies-neu.lu/"}},"104168537":{"location":[49.853983,6.318928],"ct":"LU","tp":"CR","ts":"2023-11-02T17:20:36Z","tX":529,"tY":347,"tags":{"name":"Janneke","phone":"+352 621 233 481","static_caravans":"yes"}},"118590932":{"location":[50.0263815,6.1763754],"ct":"DE","tp":"CS","ts":"2015-12-27T12:23:22Z","tX":529,"tY":347,"tags":{"name":"Campingplatz Machtemesmühle"}},"136170446":{"location":[49.8761258,6.2862772],"ct":"LU","tp":"CS","ts":"2025-02-08T16:17:57Z","tX":529,"tY":347,"tags":{"name":"Campingplatz Sauer-Our","website":"https://www.eifelidyll.de/campingplatze/campingplatz-sauer-our/"}},"136174525":{"location":[49.934967,6.2505271],"ct":"DE","tp":"CS","ts":"2023-02-25T14:57:04Z","tX":529,"tY":347,"tags":{}},"136175378":{"location":[49.9198945,6.2614275],"ct":"DE","tp":"CS","ts":"2024-08-22T05:10:52Z","tX":529,"tY":347,"tags":{"name":"Ferienpark Eifellux","phone":"+49 6566 - 8597","website":"https://www.eifellux.com/"}},"143182874":{"location":[49.8667903,6.1657363],"ct":"LU","tp":"CS","ts":"2024-07-29T21:50:37Z","tX":529,"tY":347,"tags":{"caravans":"yes","email":"tourisme@diekirch.lu","fax":"+352 80 2786","name":"Camping de la Sûre","phone":"+352 80 9425","sanitary_dump_station":"customers","tents":"yes","website":"https://camping.diekirch.lu/"}},"143479689":{"location":[49.8669341,6.1735345],"ct":"LU","tp":"CS","ts":"2024-07-29T21:50:37Z","tX":529,"tY":347,"tags":{"email":"info@campsauer.lu","name":"Camping Op der Sauer","note":"No house number","phone":"+352 80 8590","website":"https://www.campsauer.lu/"}},"144894290":{"location":[49.8731965,6.2202692],"ct":"LU","tp":"CS","ts":"2023-11-04T16:26:11Z","tX":529,"tY":347,"tags":{"addr:city":"Bettendorf","addr:housenumber":"12","addr:postcode":"9353","addr:street":"Rue de la Gare","capacity":"135","email":"camping@bettendorf.lu","fee":"yes","internet_access":"wlan","name":"Um Wirt","phone":"+352 80 83 86"}},"155415481":{"location":[50.0284903,6.2727619],"ct":"DE","tp":"CS","ts":"2022-09-19T17:26:56Z","tX":529,"tY":347,"tags":{"name":"Campingpark - In der Enz","website":"https://www.camping-inderenz.com/"}},"161841639":{"location":[50.0426391,6.1320585],"ct":"LU","tp":"CS","ts":"2024-07-03T00:54:15Z","tX":529,"tY":347,"tags":{"name":"Camping Vallée de l'Our"}},"161841641":{"location":[49.9865474,6.1673494],"ct":"LU","tp":"CS","ts":"2025-04-27T09:23:41Z","tX":529,"tY":347,"tags":{"name":"Alte Mühle","website":"http://www.gemuend-our.de/camping/Camping.html"}},"191774737":{"location":[50.0319154,6.1865412],"ct":"DE","tp":"CS","ts":"2016-04-24T16:53:44Z","tX":529,"tY":347,"tags":{}},"191774743":{"location":[49.9879296,6.1623753],"ct":"DE","tp":"CS","ts":"2023-03-19T22:02:29Z","tX":529,"tY":347,"tags":{}},"209143322":{"location":[49.8745529,6.1873938],"ct":"LU","tp":"CS","ts":"2022-02-14T21:28:59Z","tX":529,"tY":347,"tags":{"internet_access":"wlan","name":"Camping Bleesbruck","nudism":"yes","operator":"Roger Hamen","toilets:wheelchair":"yes","website":"https://www.camping-bleesbruck.lu/","wheelchair":"yes"}},"243976907":{"location":[49.8431723,6.2906781],"ct":"LU","tp":"CS","ts":"2023-07-16T13:44:42Z","tX":529,"tY":347,"tags":{"addr:city":"Beaufort","addr:housenumber":"110","addr:postcode":"6310","addr:street":"Grand-Rue","name":"Camping um Bierg","operator":"Camping um Bierg S.A.","phone":"+352 83 60 70","wheelchair":"yes"}},"244390816":{"location":[49.8393108,6.2867387],"ct":"LU","tp":"CS","ts":"2025-06-21T11:17:03Z","tX":529,"tY":347,"tags":{"addr:city":"Beaufort","addr:housenumber":"87","addr:postcode":"6310","addr:street":"Grand-Rue","caravans":"yes","drinking_water":"yes","fee":"yes","internet_access":"wlan","name":"Camping Park Beaufort","operator":"Syndicat d'Initiative et du Tourisme","power_supply":"yes","sanitary_dump_station":"yes","shower":"yes","tents":"yes","toilets":"yes","website":"https://campingpark-beaufort.lu/"}},"244590218":{"location":[49.8427352,6.2872949],"ct":"LU","tp":"CS","ts":"2022-06-28T05:41:34Z","tX":529,"tY":347,"tags":{"addr:city":"Beaufort","addr:housenumber":"3","addr:postcode":"6312","addr:street":"Route d'Eppeldorf","name":"Camping Beau Site","phone":"+352 836823"}},"259516307":{"location":[49.8733297,6.2911278],"ct":"LU","tp":"CS","ts":"2024-08-05T01:44:25Z","tX":529,"tY":347,"tags":{"email":"info@durivage.lu","internet_access":"wlan","internet_access:fee":"no","name":"Camping du Rivage","phone":"+352 836516","website":"https://www.durivage.lu/home"}},"328148146":{"location":[49.9876522,6.0000043],"ct":"LU","tp":"CS","ts":"2024-08-16T15:17:01Z","tX":529,"tY":347,"tags":{"addr:city":"Wilwerwiltz","addr:housenumber":"1","addr:postcode":"9776","addr:street":"Am Duerf","caravans":"yes","drinking_water":"yes","fee":"yes","name":"Camping Saint-Willibrord","phone":"+352 92 03 23","power_supply":"yes","shower":"yes","tents":"yes","toilets":"yes"}},"332021879":{"location":[50.0526432,6.1229456],"ct":"DE","tp":"CS","ts":"2022-05-27T12:01:24Z","tX":529,"tY":347,"tags":{"addr:city":"Dasburg","addr:housenumber":"3A","addr:postcode":"54689","addr:street":"An der Brücke","ele":"280","email":"info@camping-relles-muehle.de","fax":"+49 6550 9291858","fee":"yes","name":"Camping Relles Mühle","phone":"+49 6550 1073","website":"https://www.camping-relles-muehle.de/"}},"353224223":{"location":[49.8782574,5.994654],"ct":"LU","tp":"CR","ts":"2025-04-09T19:28:28Z","tX":529,"tY":347,"tags":{"capacity":"34","caravans":"no","dryer":"yes","fee":"yes","internet_access":"wlan","internet_access:fee":"no","lit":"yes","name":"Camperhafen Fuussekaul","operator":"Camping Fuussekaul","power_supply":"yes","sanitary_dump_station":"yes","sanitary_dump_station:chemical_toilet":"yes","sanitary_dump_station:grey_water":"yes","shower":"yes","tents":"no","toilets":"yes","washing_machine":"yes","water_point":"yes"}},"448672792":{"location":[49.9208994,6.0360836],"ct":"LU","tp":"CS","ts":"2021-02-17T08:40:41Z","tX":529,"tY":347,"tags":{"name":"Camping Dirbach"}},"495031534":{"location":[49.8692913,6.2655056],"ct":"LU","tp":"CS","ts":"2024-08-05T01:44:25Z","tX":529,"tY":347,"tags":{"addr:city":"Reisdorf","addr:housenumber":"21","addr:postcode":"9390","addr:street":"Route de la Sûre","email":"campingreisdorf@pt.lu","fee":"yes","internet_access":"wlan","name":"Camping Reisdorf","power_supply":"yes","shower":"yes","toilets":"yes","website":"https://www.campingreisdorf.com/"}},"515012228":{"location":[49.8386389,6.2942614],"ct":"LU","tp":"CS","ts":"2017-08-12T13:16:04Z","tX":529,"tY":347,"tags":{"scout":"yes"}},"666442891":{"location":[49.8729749,6.1889335],"ct":"LU","tp":"SD","ts":"2023-06-03T17:31:54Z","tX":529,"tY":347,"tags":{"access":"customers","operator":"Camping Bleesbruck","water_point":"yes"}},"674734698":{"location":[50.0535922,6.037876],"ct":"LU","tp":"CS","ts":"2024-11-11T23:37:42Z","tX":529,"tY":347,"tags":{"dog":"yes","email":"info@reilerweier.lu","internet_access":"wlan","name":"Reiler Weier","phone":"+352 92 01 60","place":"locality","website":"https://reilerweier.lu/de/"}},"696206527":{"location":[49.8793637,5.994683],"ct":"LU","tp":"CS","ts":"2025-04-09T19:28:28Z","tX":529,"tY":347,"tags":{"caravans":"yes","contact:email":"info@reenert.lu","contact:fax":"+352 26 88 8828","contact:phone":"+352 26 88881","contact:website":"https://www.reenert.lu/","internet_access":"yes","internet_access:fee":"yes","name":"De Reenert","nudism":"yes","operator":"Henri Brack","sanitary_dump_station":"yes","tents":"yes"}},"809047250":{"location":[49.9998118,5.9921576],"ct":"LU","tp":"CS","ts":"2024-03-16T21:50:34Z","tX":529,"tY":347,"tags":{"addr:city":"Enscherange","addr:housenumber":"2","addr:postcode":"9747","addr:street":"Um Gaertchen","email":"info@charmecamping.lu","internet_access":"wlan","name":"Val d'Or","phone":"+352 92 06 91","reservation":"yes","shower":"yes","tents":"yes","toilets":"yes","website":"https://www.valdor.lu"}},"863540206":{"location":[49.9252917,6.0075699],"ct":"LU","tp":"CS","ts":"2024-04-26T14:54:28Z","tX":529,"tY":347,"tags":{"addr:city":"Bockholtz","addr:country":"LU","addr:housenumber":"5","addr:postcode":"9637","addr:street":"Op der Millen","caravans":"yes","drinking_water":"yes","email":"camping-berkel@tango.lu","name":"Camping Berkel","phone":"+352 839 054","power_supply":"yes","shower":"yes","tents":"yes","toilets":"yes","website":"https://www.campingberkel.com/"}},"886665578":{"location":[49.8410324,6.2868016],"ct":"LU","tp":"CS","ts":"2020-12-20T13:12:49Z","tX":529,"tY":347,"tags":{"name":"Camping Plage, Annexe","operator":"Syndicat d'Initiative et du Tourisme"}},"888477079":{"location":[49.8882195,6.0963862],"ct":"LU","tp":"CS","ts":"2022-05-03T14:33:11Z","tX":529,"tY":347,"tags":{"email":"info@umwillspul.lu","name":"Camping Um Willspull","phone":"+352 99 04 49","website":"https://www.umwillspull.lu"}},"903350844":{"location":[50.0074128,6.148217],"ct":"LU","tp":"CS","ts":"2021-02-03T10:32:50Z","tX":529,"tY":347,"tags":{"name":"Vieux Moulin"}},"1051306427":{"location":[49.9315127,6.2160332],"ct":"LU","tp":"CR","ts":"2024-07-29T21:50:37Z","tX":529,"tY":347,"tags":{"capacity:caravans":"16","caravan_site":"motorhome_stopover","caravan_site:type":"river","caravans":"yes","charge":"25 EUR","fee":"yes","maxlength":"8","name":"Camperpark Um Deich - Vianden","phone":"+352 834257","power_supply":"yes","power_supply:charge":"2 EUR","power_supply:fee":"no","sanitary_dump_station":"yes","surface":"grass","water_point":"yes","website":"https://www.visitluxembourg.com/camping/camperpark-vianden"}},"1099935346":{"location":[49.9498329,6.1964146],"ct":"LU","tp":"CS","ts":"2023-07-19T09:14:14Z","tX":529,"tY":347,"tags":{"caravans":"yes","name":"Camping du Lac","tents":"yes"}},"1213655006":{"location":[49.8448259,6.1014708],"ct":"LU","tp":"CR","ts":"2024-06-26T20:48:35Z","tX":529,"tY":347,"tags":{"capacity":"5","charge":"12 EUR/day","drinking_water":"no","fee":"yes","name":"Aire camping-cars Ettelbruck","opening_hours":"24/7","power_supply":"yes","power_supply:fee":"yes","power_supply:maxcurrent":"16","sanitary_dump_station":"yes","seasonal":"no","surface":"paving_stones","water_point":"yes"}},"1296459893":{"location":[49.8661962,6.1649778],"ct":"LU","tp":"CR","ts":"2024-06-26T20:57:44Z","tX":529,"tY":347,"tags":{"capacity":"10","caravan_site":"motorhome_stopover","caravan_site:type":"camp_site","caravans":"no","charge":"20 EUR","fee":"yes","laundry":"yes","maxstay":"2 days","name":"Camping de la Sûre - Diekirch","power_supply":"yes","reservation":"no","shower":"yes","tents":"no","toilets":"yes","website":"https://www.camping-diekirch.lu/preise-2024"}},"2023211567":{"location":[50.0557677,6.2772389],"ct":"DE","tp":"CS","ts":"2019-08-25T10:10:56Z","tX":529,"tY":347,"tags":{"caravans":"no","group_only":"yes","name":"Jugendzeltplatz","tents":"yes"}},"5030704250":{"location":[49.8395078,6.2879053],"ct":"LU","tp":"SD","ts":"2017-08-12T15:37:52Z","tX":529,"tY":347,"tags":{}},"6537603734":{"location":[49.8778574,5.9940384],"ct":"LU","tp":"SD","ts":"2024-02-08T15:16:04Z","tX":529,"tY":347,"tags":{"fee":"no"}}}