{"14363831":{"location":[49.7230347,6.0709602],"ct":"LU","tp":"CS","ts":"2022-07-18T08:58:38Z","tX":529,"tY":348,"tags":{"landuse":"grass"}},"26036823":{"location":[49.7829271,6.2127019],"ct":"LU","tp":"CS","ts":"2024-08-08T17:16:27Z","tX":529,"tY":348,"tags":{"addr:city":"Larochette","addr:country":"LU","addr:housenumber":"1","addr:place":"Camping Birkelt","addr:postcode":"7633","caravans":"yes","contact:fax":"+352 87 9041","contact:phone":"+352 87 9040","drinking_water":"yes","name":"Camping Birkelt","power_supply":"yes","ref:caclr":"203692","sanitary_dump_station":"yes","shower":"yes","tents":"yes","toilets":"yes","website":"http://www.camping-birkelt.lu/"}},"27913118":{"location":[49.7839418,6.1658404],"ct":"LU","tp":"CS","ts":"2023-09-27T06:47:59Z","tX":529,"tY":348,"tags":{"name":"Nommerlayen","phone":"+35 287 80 78","website":"https://www.nommerlayen-ec.lu/"}},"28336780":{"location":[49.7996579,6.1995412],"ct":"LU","tp":"CS","ts":"2024-08-14T16:04:13Z","tX":529,"tY":348,"tags":{"addr:city":"Medernach","addr:country":"LU","addr:housenumber":"1","addr:postcode":"7633","addr:street":"Op Kengert","caravans":"yes","drinking_water":"yes","name":"Auf Kengert","phone":"+352 83 71 86","power_supply":"yes","ref:caclr":"208108","shower":"yes","tents":"yes","website":"https://www.kengert.lu/"}},"34912681":{"location":[49.7421198,6.0901521],"ct":"LU","tp":"CS","ts":"2023-11-14T22:37:45Z","tX":529,"tY":348,"tags":{"capacity:caravans":"137","caravans":"yes","drinking_water":"yes","internet_access":"wlan","internet_access:fee":"no","name":"Camping Krounebierg","nudism":"no","operator":"Syndicat d'Initiative Mersch","place":"locality","power_supply":"yes","reservation":"recommended","sanitary_dump_station":"yes","shower":"yes","stars":"4","tents":"yes","toilets":"yes","wheelchair":"limited"}},"44027813":{"location":[49.8169974,6.2795168],"ct":"LU","tp":"CS","ts":"2024-05-26T17:22:03Z","tX":529,"tY":348,"tags":{"addr:city":"Haller","addr:country":"LU","addr:housenumber":"20","addr:postcode":"6370","addr:street":"Henerecht","caravans":"yes","drinking_water":"yes","name":"Camping Relax","phone":"+352 836748","power_supply":"no","ref:caclr":"158573","shower":"yes","tents":"yes","toilets":"yes","website":"http://camprelax.com"}},"128934831":{"location":[49.6218841,6.2448714],"ct":"LU","tp":"CS","ts":"2024-07-27T10:00:31Z","tX":529,"tY":348,"tags":{"alt_name":"Centre de Formation et d'Animation Neihaischen","name":"Centre de Formation et d'Animation Neihaischen","scout":"yes"}},"365612023":{"location":[49.7910105,6.3074747],"ct":"LU","tp":"CR","ts":"2024-09-20T06:43:14Z","tX":529,"tY":348,"tags":{"addr:city":"Waldbillig","addr:place":"Mullerthal","fee":"yes","internet_access":"no","note":"This used to be a campsite but vannished in 2018 years ago. now its you can spent the nigt here for free.","old_name":"Kimmes-Tossing Marco","power_supply":"no","sanitary_dump_station":"no"}},"687912020":{"location":[49.6924506,5.9869113],"ct":"LU","tp":"CS","ts":"2019-05-05T09:04:46Z","tX":529,"tY":348,"tags":{}},"1296662139":{"location":[49.7050025,6.2518347],"ct":"LU","tp":"CR","ts":"2024-06-27T15:47:05Z","tX":529,"tY":348,"tags":{"capacity:caravans":"3","caravan_site":"motorhome_stopover","caravan_site:type":"parking_lot","caravans":"no","fee":"no","internet_access":"no","name":"Emplacements pour camping cars Junglinster","power_supply":"yes","sanitary_dump_station":"yes","water_point":"yes","water_point:fee":"yes","website":"https://www.mullerthal.lu/en/fiche/campingcar/camping-car-spaces-junglinster"}},"5796527613":{"location":[49.7050516,6.251776],"ct":"LU","tp":"SD","ts":"2022-10-20T19:14:13Z","tX":529,"tY":348,"tags":{}},"10293712692":{"location":[49.7423549,6.0900826],"ct":"LU","tp":"SD","ts":"2023-06-06T11:18:41Z","tX":529,"tY":348,"tags":{"access":"customers","changing_table":"no","fee":"no","toilets:disposal":"chemical","wheelchair":"no"}}}