{"138398008":{"location":[47.4832457,6.3061091],"ct":"FR","tp":"CS","ts":"2011-11-26T10:18:51Z","tX":529,"tY":358,"tags":{"name":"La forge"}},"687743857":{"location":[47.3581518,6.0794115],"ct":"FR","tp":"CS","ts":"2024-09-28T16:29:54Z","tX":529,"tY":358,"tags":{"name":"Camping L'Esplanade","website":"https://www.campinglesplanade.com/"}},"737364515":{"location":[47.4249117,6.0753529],"ct":"FR","tp":"CS","ts":"2024-09-16T18:56:54Z","tX":529,"tY":358,"tags":{"access":"customers","addr:city":"Rioz","addr:postcode":"70190","addr:street":"Rue de la Faïencerie","alt_name":"Camping municipal du Lac de Rioz","email":"camping@rioz.fr","fee":"yes","name":"Camping du Lac","operator":"Mairie de Rioz","phone":"+33 3 84 91 91 59","website":"https://camping.rioz.fr"}},"911474777":{"location":[47.3963223,6.1369175],"ct":"FR","tp":"CS","ts":"2024-05-31T08:28:50Z","tX":529,"tY":358,"tags":{"name":"Camping du Paquilot","website":"https://commune-de-cirey.wixsite.com/cirey/cirey-pratique"}},"911474779":{"location":[47.3951364,6.1381913],"ct":"FR","tp":"CS","ts":"2022-03-24T19:26:34Z","tX":529,"tY":358,"tags":{"name":"Camping de La Vaivre","operator":"Commune de Cirey","website":"https://commune-de-cirey.wixsite.com/cirey/cirey-pratique"}},"1043535259":{"location":[47.3571077,6.0806575],"ct":"FR","tp":"CS","ts":"2024-09-28T16:29:54Z","tX":529,"tY":358,"tags":{"addr:housenumber":"16","addr:postcode":"70190","addr:street":"Rue du Pont","internet_access":"wlan","name":"Camping Verte Rive","phone":"+33647474370","website":"https://verte-rive.fr/"}},"1312772718":{"location":[47.2988003,6.2218612],"ct":"FR","tp":"CR","ts":"2024-09-02T09:14:40Z","tX":529,"tY":358,"tags":{"capacity":"2","caravan_site":"motorhome_stopover","caravan_site:type":"river","fee":"no","name":"Aire camping-cars à Laissey - Vallée du Doubs","power_supply":"no","sanitary_dump_station":"no","surface":"concrete","tents":"no","website":"https://en.montagnes-du-jura.fr/sit/aires-de-stationnnement-pour-camping-cars"}},"2416599190":{"location":[47.3301002,6.3052297],"ct":"FR","tp":"CS","ts":"2023-10-31T15:38:08Z","tX":529,"tY":358,"tags":{"addr:housenumber":"5","addr:street":"Chemin du Tunnel","capacity":"4","description":"petit camping dans le jardin","email":"info@lamaisonimparfaite.fr","fee":"yes","name":"La maison imparfaite","operator":"Pauline Bakker","phone":"+33 9 82 46 92 13","ref:FR:SIRET":"39433680400023","website":"https://www.lamaisonimparfaite.fr/"}},"6139099289":{"location":[47.3214583,6.2793303],"ct":"FR","tp":"CR","ts":"2024-06-20T19:29:14Z","tX":529,"tY":358,"tags":{"capacity":"2","caravan_site":"motorhome_stopover","caravan_site:type":"river","description":"2 places","fee":"no","internet_access":"no","name":"Aire de stationnement Ougney-Douvot.","sanitary_dump_station":"no","seasonal":"no"}},"12089179606":{"location":[47.3302024,6.3038807],"ct":"FR","tp":"CR","ts":"2024-08-04T20:46:26Z","tX":529,"tY":358,"tags":{"caravan_site":"motorhome_stopover","caravan_site:type":"village","description":"Public Parking with a small sanitary. no electricity nor disposal - but free","fee":"no","name":"Aire de Camping Car Fourbanne","opening_hours":"24/7","power_supply":"no","sanitary_dump_station":"no"}},"12151223768":{"location":[47.2982403,6.2324157],"ct":"FR","tp":"CR","ts":"2024-09-02T09:14:40Z","tX":529,"tY":358,"tags":{"capacity":"2","caravan_site":"motorhome_stopover","caravan_site:type":"village","fee":"no","name":"Aire camping-cars Laissey Gare","power_supply":"no","sanitary_dump_station":"no","surface":"asphalt","water_point":"no"}},"12196484025":{"location":[47.329176,6.128419],"ct":"FR","tp":"SD","ts":"2024-09-26T07:49:43Z","tX":529,"tY":358,"tags":{"fee":"no","network":"Relais Flot Bleu","operator":"Shell Champoux A36","sanitary_dump_station:chemical_toilet":"yes","sanitary_dump_station:gravity":"yes","sanitary_dump_station:grey_water":"yes","website":"https://flotbleu.com/doubs/aire-de-service/150"}}}