{"17177704":{"location":[46.5824016,5.9851946],"ct":"FR","tp":"CS","ts":"2024-02-09T10:13:49Z","tX":529,"tY":361,"tags":{"addr:city":"Lac-Des-Rouges-Truites","addr:housenumber":"10","addr:postcode":"39150","addr:street":"La favière","caravans":"yes","name":"La Favière","phone":"+33(0)6 31 83 37 61","tents":"yes","website":"http://www.gite-favieres-hautjura.com"}},"124923751":{"location":[46.6026662,6.0036186],"ct":"FR","tp":"CS","ts":"2024-07-16T02:33:34Z","tX":529,"tY":361,"tags":{"name":"Camping du Chalet du Bugnon","website":"https://www.chalet-bugnon.fr/"}},"128082977":{"location":[46.7903257,6.2914192],"ct":"FR","tp":"CS","ts":"2024-10-21T02:14:23Z","tX":529,"tY":361,"tags":{"addr:city":"Malbuisson","addr:housenumber":"24","addr:postcode":"25160","addr:street":"Chemin de la Plage et des Perrières","caravans":"yes","drinking_water":"yes","fee":"yes","internet_access":"wlan","internet_access:fee":"yes","name":"Camping Les Fuvettes","power_supply":"yes","reservation":"recommended","sanitary_dump_station":"yes","shower":"yes","static_caravans":"yes","swimming_pool":"yes","tents":"yes","toilets":"yes","website":"https://www.capfun.com/camping-france-franche_comte-fuvettes-FR.html"}},"132128647":{"location":[46.7065826,6.2078736],"ct":"FR","tp":"CS","ts":"2025-02-05T16:06:09Z","tX":529,"tY":361,"tags":{"addr:city":"Doubs","addr:postcode":"25240","addr:street":"Rue de la Source du Doubs","fee":"yes","name":"Camping Municipal de la Source du Doubs","phone":"+33 3 81 69 27 45","source":"cadastre-dgi-fr source : Direction Générale des Impôts - Cadastre. Mise à jour : 2011","website":"https://www.camping-mouthe.fr/"}},"132128648":{"location":[46.7069216,6.2086811],"ct":"FR","tp":"CR","ts":"2024-10-02T23:27:02Z","tX":529,"tY":361,"tags":{"caravan_site":"motorhome_stopover","caravan_site:type":"skiing","fee":"yes","name":"Camping Municipal de la Source du Doubs","phone":"+33 3 81 69 27 45","source":"cadastre-dgi-fr source : Direction Générale des Impôts - Cadastre. Mise à jour : 2011","website":"https://www.mouthe.fr/notre-camping-municipal_fr.html"}},"343001757":{"location":[46.6261817,6.2526982],"ct":"CH","tp":"CS","ts":"2023-11-09T08:34:22Z","tX":529,"tY":361,"tags":{"addr:city":"Le Sentier","addr:housenumber":"37","addr:postcode":"1347","addr:street":"Le Rocheray","alt_name":"Campsite Lac de Joux","dog":"yes","email":"campinglacdejoux@bluewin.ch","fee":"yes","internet_access":"wlan","internet_access:fee":"no","name":"Camping du Rocheray","operator":"Ursula Bachmann","phone":"+41 21 845 51 74","power_supply":"yes","reservation":"yes","sanitary_dump_station":"yes","shower":"yes","stars":"3","toilets":"yes","website":"https://www.camping-club-vaudois.ch/camping-caravaning-le-rocheray-vallee-de-joux/?lang=en"}},"442089037":{"location":[46.7103679,6.195696],"ct":"FR","tp":"CR","ts":"2024-05-06T12:22:33Z","tX":529,"tY":361,"tags":{"caravan_site":"motorhome_stopover","caravan_site:type":"village","caravans":"no","dog":"yes","fee":"no","name":"Aire de camping car Mouthe","tents":"no","website":"https://www.mouthe.fr/article_21_1_plu_fr.html"}},"588473278":{"location":[46.7535044,6.3061374],"ct":"FR","tp":"CS","ts":"2020-04-18T19:42:42Z","tX":529,"tY":361,"tags":{}},"663467711":{"location":[46.6560367,6.0685955],"ct":"FR","tp":"CS","ts":"2023-11-09T08:34:08Z","tX":529,"tY":361,"tags":{"cabins":"yes","caravans":"yes","drinking_water":"yes","name":"Le Val de Saine","operator":"Commune de Foncine-le-Haut","power_supply":"yes","ref:FR:SIRET":"21390228100079","shower":"yes","tents":"yes","toilets":"yes","website":"https://www.camping-haut-jura.com/"}},"663467712":{"location":[46.6566876,6.0681671],"ct":"FR","tp":"CR","ts":"2024-09-04T01:48:22Z","tX":529,"tY":361,"tags":{"capacity":"10","caravan_site":"motorhome_stopover","caravan_site:type":"village","fee":"yes","name":"Aire de services de Foncine-le-Haut","power_supply":"yes","sanitary_dump_station":"yes","water_point":"yes","website":"https://www.jura-tourism.com/aire-camping-car/aire-de-services-de-foncine-le-haut/"}},"672523127":{"location":[46.7725155,6.0349575],"ct":"FR","tp":"CR","ts":"2024-09-04T14:09:05Z","tX":529,"tY":361,"tags":{"capacity":"10","caravan_site":"motorhome_stopover","caravan_site:type":"village","charge":"13 EUR","fee":"yes","name":"Aire de stationnement camping-car de Nozeroy","opening_hours":"May-Oct","phone":"+33 384 511915","power_supply":"yes","shower":"yes","toilets":"yes","website":"https://www.jura-tourism.com/aire-camping-car/aire-de-stationnement-camping-car-de-nozeroy/"}},"739245949":{"location":[46.7706199,6.2750548],"ct":"FR","tp":"CS","ts":"2020-04-29T11:21:48Z","tX":529,"tY":361,"tags":{"access":"customers","addr:city":"Labergement-Sainte-Marie","addr:housenumber":"10","addr:postcode":"25160","addr:street":"Rue du Lac","capacity":"100","contact:facebook":"https://www.facebook.com/CampingLacRemoray/?__tn__=%2Cd%2CP-R&eid=ARCvffQbaFLJMUhAxD5LkFxM0TuvqLeF1gu6dqia_lSbWA2pvtyXZAz9V7DaUetS9dh4AbZbkInM3vm2","description":"Camping calme sans animations situé dans le Doubs","internet_access":"wlan","name":"Camping du Lac","phone":"+33 3 81 69 31 24","website":"https://www.camping-lac-remoray.fr"}},"754365081":{"location":[46.7714917,6.2762168],"ct":"FR","tp":"CR","ts":"2024-10-03T18:27:20Z","tX":529,"tY":361,"tags":{"capacity":"11","caravan_site":"motorhome_stopover","caravan_site:type":"lake","fee":"yes","fee:conditional":"no @ (Nov 16-Apr 30)","internet_access":"no","maxstay":"48 hours","name":"Labergement-Sainte-Marie Aire Communale","sanitary_dump_station":"yes","water_point:conditional":"no @ (Nov 16-Apr 30)","website":"https://www.bourgognefranchecomte.com/aires-de-camping-car/aire-daccueil"}},"916902476":{"location":[46.5596229,6.0686858],"ct":"FR","tp":"CR","ts":"2024-10-09T00:33:28Z","tX":529,"tY":361,"tags":{"access":"yes","addr:city":"Bellefontaine","addr:postcode":"39400","addr:street":"Rue des Replats","capacity":"6","caravan_site":"motorhome_stopover","caravan_site:type":"village","fee":"no","maxstay":"no","name":"Bellefontaine Aire Camping Car","operator":"Ville de Mijoux","payment:coins":"yes","power_supply":"yes","power_supply:fee":"yes","sanitary_dump_station":"yes","sanitary_dump_station:chemical_toilet":"yes","sanitary_dump_station:grey_water":"yes","sanitary_dump_station:round_drain":"yes","supervised":"no","water_point":"yes","water_point:fee":"yes","website":"https://www.jura-tourism.com/aire-camping-car/aire-de-camping-car-bellefontaine/"}},"1082296994":{"location":[46.6261389,6.2796825],"ct":"CH","tp":"CS","ts":"2022-07-29T11:06:12Z","tX":529,"tY":361,"tags":{"access":"customers","addr:city":"Les Bioux","addr:housenumber":"40","addr:postcode":"1346","addr:street":"Chez Grosjean","dog":"leashed","drinking_water":"yes","ele":"1006","email":"info@campinglesbioux.ch","fee":"yes","image":"https://camping.pushplay.ch/wp-content/uploads/2022/07/logo-camping-bioux.png","internet_access":"wlan","name":"Camping à la Ferme","opening_hours":"Ascension - Aug 31","operator":"X. et B. Mouquin","payment:cash":"yes","payment:credit_cards":"yes","payment:debit_cards":"yes","payment:mastercard":"yes","payment:visa":"yes","phone":"+41 79 508 70 75","power_supply":"yes","reservation":"required","sanitary_dump_station":"no","shower":"yes","source":"survey;local knowledge","toilets":"yes","website":"https://campinglesbioux.ch"}},"2383422376":{"location":[46.6543051,6.002959],"ct":"FR","tp":"CS","ts":"2024-02-09T09:17:55Z","tX":529,"tY":361,"tags":{"addr:city":"Les Planches-en-Montagne","addr:housenumber":"53","addr:postcode":"39150","addr:street":"Rue de la Langouette","name":"Le Temps de Vivre","phone":"+33 6 45 53 47 56"}},"3168825486":{"location":[46.7105203,6.1950913],"ct":"FR","tp":"SD","ts":"2024-05-06T12:22:33Z","tX":529,"tY":361,"tags":{"power_supply":"yes","sanitary_dump_station:accepted":"black_water;grey_water;tank_chemicals","sanitary_dump_station:chemical_toilet":"yes","sanitary_dump_station:grey_water":"yes"}},"12151128499":{"location":[46.6032909,6.1143033],"ct":"FR","tp":"CR","ts":"2024-09-02T07:26:21Z","tX":529,"tY":361,"tags":{"capacity":"16","caravan_site":"motorhome_stopover","caravan_site:type":"skiing","charge":"12.61 EUR","charge:conditional":"7.61 EUR@(Mar 16-Dec 14)","fee":"yes","name":"Aire Camping-Cars Chapelle-des-Bois","power_supply":"yes","power_supply:charge":"4 EUR/8 hours","power_supply:fee":"yes","seasonal":"no","water_point":"yes","water_point:charge":"2 EUR","water_point:fee":"yes","website":"https://www.montagnes-du-jura.fr/sit/aire-de-camping-cars-7"}},"6210108790":{"location":[46.656291,6.0694436],"ct":"FR","tp":"SD","ts":"2019-01-15T11:21:05Z","tX":529,"tY":361,"tags":{}},"7500559827":{"location":[46.7714585,6.2762532],"ct":"FR","tp":"SD","ts":"2024-10-03T18:27:20Z","tX":529,"tY":361,"tags":{"access":"yes","description":"Station de vidange des eaux usées et des déchets pour caravanes","direction":"355","traffic_sign":"CE24"}},"7756241083":{"location":[46.7916412,6.2924168],"ct":"FR","tp":"SD","ts":"2020-07-27T10:37:16Z","tX":529,"tY":361,"tags":{"access":"customers"}},"8516021963":{"location":[46.559624,6.0685197],"ct":"FR","tp":"SD","ts":"2021-11-20T14:40:26Z","tX":529,"tY":361,"tags":{"access":"yes","charge":"0 €","description":"Station de vidange pour Camping-car.","fee":"no","operator":"Ville de Bellefontaine","sanitary_dump_station":"public","sanitary_dump_station:chemical_toilet":"yes","sanitary_dump_station:grey_water":"yes","sanitary_dump_station:round_drain":"yes","water_point":"yes"}},"8663080245":{"location":[46.64799,6.31716],"ct":"CH","tp":"CR","ts":"2021-04-24T20:58:25Z","tX":529,"tY":361,"tags":{"addr:city":"L'Abbaye","addr:postcode":"1344","addr:street":"Route de l’Hôtel de Ville","capacity":"10","description":"3 Naechte","fee":"CHF 10.-","name":"Stellplatz L'Abbaye","note":"GrandTourCH"}},"8674197889":{"location":[46.6661341,6.3161308],"ct":"CH","tp":"CR","ts":"2024-09-17T12:12:21Z","tX":529,"tY":361,"tags":{"addr:city":"Les Charbonnières","addr:place":"Les Crettets","addr:postcode":"1343","capacity":"5","description":"3 Nächte, Sommerhalbjahr 1.5. - 30.9.","fee":"CHF 10.-","name":"Stellplatz Les Crettets","power_supply":"no","sanitary_dump_station":"no","tents":"no","website":"https://www.myvalleedejoux.ch/"}},"8674197890":{"location":[46.60416,6.22777],"ct":"CH","tp":"CR","ts":"2023-11-09T08:34:17Z","tX":529,"tY":361,"tags":{"addr:city":"Le Sentier","addr:housenumber":"2","addr:postcode":"1347","addr:street":"Grand-Rue","capacity":"10","description":"3 Nächte","email":"info@valleedejoux.ch","fee":"CHF 10.-","name":"Stellplatz L'Essor","website":"https://www.myvalleedejoux.ch/"}},"9041988309":{"location":[46.6247562,6.2523939],"ct":"CH","tp":"CR","ts":"2021-08-28T06:25:21Z","tX":529,"tY":361,"tags":{"name":"Stellplatz Parking 1, Le Chenit"}},"7706921013":{"location":[46.6264021,6.2526388],"ct":"CH","tp":"SD","ts":"2020-07-12T11:49:38Z","tX":529,"tY":361,"tags":{}},"8850402451":{"location":[46.624896,6.252688],"ct":"CH","tp":"SD","ts":"2021-06-20T13:19:04Z","tX":529,"tY":361,"tags":{"description":"neu gemacht im 2020, aber die Zufahrt offiziell nur bis 3t","name":"Parkplatz, Le Chennit","note":"WML CH"}},"12559221034":{"location":[46.6556093,6.0668626],"ct":"FR","tp":"CS","ts":"2025-02-05T16:15:54Z","tX":529,"tY":361,"tags":{"caravans":"yes","name":"Camping du Val de Saine","static_caravans":"no","tents":"yes"}},"12559252192":{"location":[46.7063076,6.2077545],"ct":"FR","tp":"CS","ts":"2025-02-05T16:22:57Z","tX":529,"tY":361,"tags":{"name":"Camping Minicipal dela Source du Doubs"}},"12559255224":{"location":[46.770737,6.2747871],"ct":"FR","tp":"CS","ts":"2025-02-05T16:27:11Z","tX":529,"tY":361,"tags":{"name":"Camping du Lac"}}}