{"157375085":{"location":[46.4467346,6.1437793],"ct":"CH","tp":"CR","ts":"2012-03-29T10:41:14Z","tX":529,"tY":362,"tags":{"name":"Camping des Cheseaux"}},"169801722":{"location":[46.3761456,6.1197631],"ct":"FR","tp":"CS","ts":"2024-03-05T21:49:29Z","tX":529,"tY":362,"tags":{"addr:city":"Divonne les Bains","addr:housenumber":"2465","addr:postcode":"01220","addr:street":"Vie de l'Etraz","caravans":"yes","name":"Huttopia Camping Divonne les Bains","operator":"HUTTOPIA SA","phone":"+33 4 50 20 01 95","stars":"3","tents":"yes","website":"https://europe.huttopia.com/de/site/camping-divonne-les-bains/"}},"190260290":{"location":[46.3335931,6.0664662],"ct":"FR","tp":"CS","ts":"2018-08-11T10:40:17Z","tX":529,"tY":362,"tags":{"addr:city":"Gex","addr:country":"FR","addr:housenumber":"400","addr:postcode":"01170","addr:street":"Avenue des Alpes","email":"les.2b@hotmail.fr","fax":"+33 4 50 41 68 77","name":"Les Genêts","opening_hours":"May 01-Sep 30","operator":"Municiplaité","phone":"+33 4 50 42 84 57","source":"Bing","stars":"3"}},"339587409":{"location":[46.4833282,6.2076112],"ct":"CH","tp":"CS","ts":"2024-01-15T15:50:11Z","tX":529,"tY":362,"tags":{"backcountry":"yes","camp_site":"basic","camp_type":"wildcamp","fee":"no","note":"max 15 days, free of charge","shower":"no","toilets":"no"}},"400588491":{"location":[46.3896391,6.1372558],"ct":"CH","tp":"CS","ts":"2022-05-14T12:57:50Z","tX":529,"tY":362,"tags":{"addr:city":"La Rippe","addr:postcode":"1278","capacity":"101","fee":"yes","name":"Caravaning En Vendôme","operator":"Commune de La Rippe","place":"locality","website":"http://www.larippe.ch/net/net_larippe.asp?NoOFS=5726&Sty=&NumStr=37"}},"619281491":{"location":[46.4963571,6.1856842],"ct":"CH","tp":"CS","ts":"2024-08-14T15:29:10Z","tX":529,"tY":362,"tags":{"backcountry":"yes","camp_site":"basic","camp_type":"wildcamp","fee":"no","note":"max 15 days, free of charge","shower":"no","toilets":"no"}},"619281492":{"location":[46.482764,6.1922954],"ct":"CH","tp":"CS","ts":"2022-10-27T09:37:53Z","tX":529,"tY":362,"tags":{"backcountry":"yes","camp_site":"basic","camp_type":"wildcamp","caravans":"yes","fee":"no","note":"max 15 days, free of charge","shower":"no","tents":"yes","toilets":"no"}},"698725650":{"location":[46.542418,6.0207835],"ct":"FR","tp":"CS","ts":"2024-02-09T10:55:18Z","tX":529,"tY":362,"tags":{"addr:city":"Morbier","addr:housenumber":"15","addr:postcode":"39400","addr:street":"Rue Germain Paget","email":"campingdelabucle@gmail.com","name":"Camping de la Bucle","phone":"06 72 58 11 41","website":"https://campingdelabucle.fr/"}},"729485418":{"location":[46.4618284,6.0367147],"ct":"FR","tp":"CS","ts":"2022-08-08T18:44:27Z","tX":529,"tY":362,"tags":{"access":"private","addr:city":"Prémanon","addr:country":"FR","addr:housenumber":"180","addr:postcode":"39220","addr:street":"Route des Pessettes","capacity":"52","caravans":"yes","description":"Accès possible pour les non adhérents à un tarif spécial.","fee":"yes","name":"Camping GCU de Prémanon","operator":"Groupement des Campeurs Universitaires","phone":"+33 3 84 60 76 13","sanitary_dump_station":"customers","stars":"2","tents":"yes","website":"https://www.gcu.asso.fr/terrains/pr%C3%A9manon-jura-39","wheelchair":"yes"}},"830330006":{"location":[46.3426006,6.2855918],"ct":"FR","tp":"CS","ts":"2024-01-22T13:51:52Z","tX":529,"tY":362,"tags":{"addr:housenumber":"67","addr:street":"Route des Repingons","caravans":"yes","internet_access":"wlan","name":"Camping Relais du Léman","source":"data.gouv.fr:DATAtourisme - 05/2020","stars":"3","tents":"yes","website":"https://www.campingrelaisduleman.com"}},"853997938":{"location":[46.3300533,6.3261145],"ct":"FR","tp":"CS","ts":"2024-01-06T09:04:08Z","tX":529,"tY":362,"tags":{"addr:city":"Massongy","addr:housenumber":"2","addr:postcode":"74140","addr:street":"Chemin du Nant des Mules","caravans":"yes","contact:email":"campinglenant@gmail.com","contact:phone":"+33 6 36 93 07 82","contact:website":"http://www.campinglenant.fr","name":"Le Nant des Mules","reservation":"yes","source":"data.gouv.fr:DATAtourisme - 05/2020","stars":"2"}},"916901319":{"location":[46.3694517,6.0023985],"ct":"FR","tp":"CR","ts":"2024-10-04T02:20:42Z","tX":529,"tY":362,"tags":{"access":"yes","addr:city":"Mijoux","addr:postcode":"01420","addr:street":"La Bissaude","capacity":"20","caravan_site":"motorhome_stopover","caravan_site:type":"village","caravans":"no","charge":"0 €","fee":"no","maxstay":"no","name":"Mijoux - La Bissaude","operator":"Ville de Mijoux","power_supply":"yes","power_supply:charge":"4 EUR","power_supply:fee":"yes","sanitary_dump_station":"yes","sanitary_dump_station:chemical_toilet":"yes","sanitary_dump_station:grey_water":"yes","sanitary_dump_station:round_drain":"yes","seasonal":"no","supervised":"no","tents":"no","water_point":"yes","water_point:fee":"yes","website":"https://en.montagnes-du-jura.fr/sit/aire-de-services-pour-camping-cars-3"}},"1068901287":{"location":[46.4812027,6.2272919],"ct":"CH","tp":"CS","ts":"2022-06-12T08:08:48Z","tX":529,"tY":362,"tags":{"name":"Camping Le Vaud"}},"1069905767":{"location":[46.4779026,6.2114855],"ct":"CH","tp":"CS","ts":"2024-01-15T15:50:11Z","tX":529,"tY":362,"tags":{"access":"private","name":"Camping du Jubillet"}},"1223874360":{"location":[46.5382479,6.1400455],"ct":"FR","tp":"CR","ts":"2024-09-02T16:26:15Z","tX":529,"tY":362,"tags":{"addr:city":"Bois-d'Amont","addr:postcode":"39220","addr:street":"Impasse de l´Eglantine","caravan_site":"motorhome_stopover","caravan_site:type":"museum;skiing","fee":"no","internet_access":"no","name":"Bois d'Amont","operator":"Commune Bois-d'Amont","power_supply":"yes","power_supply:charge":"3.30 EUR/1 hour","power_supply:fee":"yes","water_point":"yes","water_point:charge":"3.30 EUR/100 liter","water_point:fee":"yes"}},"5489235095":{"location":[46.4877883,6.0670264],"ct":"FR","tp":"CR","ts":"2024-09-02T16:26:15Z","tX":529,"tY":362,"tags":{"capacity":"40","caravan_site":"motorhome_stopover","caravan_site:type":"skiing","drinking_water":"yes","fee":"no","name":"Les Rousses de l'Aube","name:signed":"no","power_supply":"yes","sanitary_dump_station":"yes","toilets":"no","water_point":"yes","water_point:charge":"3.60 EUR/100 liter","water_point:fee":"yes"}},"8516016328":{"location":[46.3694185,6.002203],"ct":"FR","tp":"SD","ts":"2021-11-20T14:40:26Z","tX":529,"tY":362,"tags":{"access":"yes","charge":"0 €","description":"Station de vidange pour Camping-car.","fee":"no","operator":"Ville de Mijoux","sanitary_dump_station":"public","sanitary_dump_station:chemical_toilet":"yes","sanitary_dump_station:grey_water":"yes","sanitary_dump_station:round_drain":"yes","water_point":"yes"}},"12151282135":{"location":[46.3668697,6.0175648],"ct":"FR","tp":"SD","ts":"2024-09-02T09:47:34Z","tX":529,"tY":362,"tags":{"access":"yes","fee":"yes","name":"Aire de services pour camping-cars de La Faucille","power_supply":"yes","power_supply:charge":"2 EUR/hour","power_supply:fee":"yes","water_point":"yes","water_point:charge":"2 EUR","water_point:fee":"yes","website":"https://www.paysdegex-montsjura.com/camping/aire-de-services-pour-camping-cars-de-la-faucille/"}},"12151877489":{"location":[46.4877746,6.0671554],"ct":"FR","tp":"SD","ts":"2024-09-02T16:26:15Z","tX":529,"tY":362,"tags":{"access":"yes"}},"10002270899":{"location":[46.4964667,6.1847415],"ct":"CH","tp":"CR","ts":"2024-08-21T10:22:06Z","tX":529,"tY":362,"tags":{"fee":"no"}},"8850402485":{"location":[46.4453136,6.2973725],"ct":"CH","tp":"SD","ts":"2021-09-22T22:51:43Z","tX":529,"tY":362,"tags":{"description":"beide Richtungen","name":"Aire de La Cote, A1 Genf - Lausanne","note":"WML CH"}},"9757453321":{"location":[46.4460656,6.2968163],"ct":"CH","tp":"SD","ts":"2022-05-20T13:56:34Z","tX":529,"tY":362,"tags":{}}}