{"37194191":{"location":[45.8484866,6.1521365],"ct":"FR","tp":"CS","ts":"2024-06-22T22:51:15Z","tX":529,"tY":364,"tags":{"cabins":"yes","caravans":"yes","email":"lesrivesdulac-annecy@ffcc.fr","name":"Camping Les Rives du Lac","phone":"+33 450 524014","source":"cadastre-dgi-fr source : Direction Générale des Impôts - Cadastre. Mise à jour : 2008","stars":"3","tents":"yes","website":"https://www.lesrivesdulac-annecy.com/"}},"37427677":{"location":[45.8418102,6.1655219],"ct":"FR","tp":"CS","ts":"2024-08-17T19:23:11Z","tX":529,"tY":364,"tags":{"addr:city":"Saint Jorioz","addr:housenumber":"615","addr:postcode":"74410","addr:street":"Route de Salles","cabins":"yes","caravans":"yes","drinking_water":"yes","email":"contact@campinglesolitaire.com","name":"Le Solitaire du Lac","phone":"+33 450 685930","power_supply":"yes","sanitary_dump_station":"yes","shower":"yes","source":"cadastre-dgi-fr source : Direction Générale des Impôts - Cadastre;mise à jour : 2008","stars":"3","tents":"yes","toilets":"yes","website":"https://www.campinglesolitaire.com/"}},"37524167":{"location":[45.8294227,6.1815296],"ct":"FR","tp":"CS","ts":"2025-05-05T21:29:56Z","tX":529,"tY":364,"tags":{"addr:city":"Saint-Jorioz","addr:housenumber":"1444","addr:postcode":"74410","addr:street":"Route d'Albertville","cabins":"yes","camp_site":"deluxe","caravans":"yes","name":"Camping Europa","phone":"+33 450 685101","source":"cadastre-dgi-fr source : Direction Générale des Impôts - Cadastre. Mise à jour : 2008","stars":"4","tents":"yes","website":"https://www.camping-europa.com/en/accueil-camping/"}},"37575695":{"location":[45.83024,6.1776892],"ct":"FR","tp":"CS","ts":"2023-03-26T10:55:45Z","tX":529,"tY":364,"tags":{"addr:city":"Saint-Jorioz","addr:housenumber":"1184","addr:postcode":"74410","addr:street":"Route d'Albertville","cabins":"yes","camp_site":"deluxe","caravans":"yes","name":"Camping International du Lac d'Annecy","phone":"+33 450 686793","source":"cadastre-dgi-fr source : Direction Générale des Impôts - Cadastre;mise à jour : 2008","stars":"4","tents":"yes","website":"https://www.camping-lac-annecy.com/"}},"40908759":{"location":[45.8910787,6.1313232],"ct":"FR","tp":"CS","ts":"2024-06-22T22:50:54Z","tX":529,"tY":364,"tags":{"alt_name":"Camping municipal","barrier":"fence","bbq":"yes","cabins":"yes","caravans":"yes","dog":"yes","email":"camping@ville-annecy.fr","fee":"yes","internet_access":"wlan","internet_access:fee":"no","name":"Le Belvédère","phone":"+33 450 454830","power_supply":"yes","sanitary_dump_station":"yes","shower":"yes","stars":"4","swimming_pool":"no","tents":"yes","toilets":"yes","washing_machine":"yes","website":"https://www.annecy-camping-municipal.fr/"}},"103184704":{"location":[45.8817222,6.3211217],"ct":"FR","tp":"CR","ts":"2024-10-27T16:48:50Z","tX":529,"tY":364,"tags":{"capacity":"6","caravan_site":"motorhome_stopover","caravan_site:type":"village","fee":"no","name":"Aire camping-car au Route de Paradis - Thônes","power_supply":"no","sanitary_dump_station":"no","toilets":"no","water_point":"no","website":"https://www.thonescoeurdesvallees.com/camping/aire-de-stationnement-camping-car-au-parking-du-plot/#","wheelchair":"no"}},"111615146":{"location":[45.8551418,6.1451301],"ct":"FR","tp":"CS","ts":"2020-09-01T12:37:38Z","tX":529,"tY":364,"tags":{"addr:city":"Sevrier","addr:housenumber":"3233","addr:postcode":"74320","addr:street":"Route d'Albertville","cabins":"yes","caravans":"yes","email":"cloyet@campingaucoeurdulac.com","fee":"yes","internet_access":"wlan","internet_access:fee":"no","name":"Camping au Coeur du Lac","opening_hours":"Apr 15 - Sep 30","phone":"+33 450 524645","power_supply":"yes","reservation":"yes","shower":"yes","stars":"3","swimming_pool":"no","tents":"yes","toilets":"yes","washing_machine":"yes","website":"https://www.campingaucoeurdulac.com/"}},"116345069":{"location":[45.8298924,6.2198353],"ct":"FR","tp":"CS","ts":"2023-07-21T05:55:30Z","tX":529,"tY":364,"tags":{"addr:city":"Talloires","addr:housenumber":"558","addr:postcode":"74290","addr:street":"Route d'Angon","cabins":"no","camp_site":"serviced","capacity":"70","caravans":"yes","dog":"yes","drinking_water":"no","email":"office@du-lac.camp","fee":"yes","hot_water":"yes","internet_access":"wlan","internet_access:fee":"yes","kitchen":"no","name":"Camping du Lac","opening_hours":"Jun-Sep","payment:cash":"yes","payment:credit_cards":"yes","payment:debit_cards":"yes","phone":"+33 450 607316","picnic_table":"yes","power_supply":"yes","reservation":"no","sanitary_dump_station":"yes","shower":"yes","stars":"1","tents":"yes","toilets":"yes","toilets:wheelchair":"yes","website":"http://du-lac.camp/","wheelchair":"yes"}},"159057030":{"location":[45.8760245,6.0692487],"ct":"FR","tp":"PK","ts":"2024-05-01T15:16:33Z","tX":529,"tY":364,"tags":{"caravan":"yes","fee":"no","hgv":"yes","motorcar":"no","motorhome":"yes","parking":"surface"}},"248143421":{"location":[45.8906552,6.1388255],"ct":"FR","tp":"CR","ts":"2025-05-19T14:44:26Z","tX":529,"tY":364,"tags":{"capacity":"10","caravan_site":"motorhome_stopover","caravan_site:type":"lake","fee":"no","name":"Aire Camping-cars de Annecy-Colmyr","sanitary_dump_station":"yes","seasonal":"no","surface":"asphalt","water_point":"yes","water_point:fee":"no","website":"https://www.annecy-town.com/aires-camping-car-annecy_en/"}},"301977672":{"location":[45.8747557,6.1410911],"ct":"FR","tp":"CS","ts":"2023-04-25T14:20:09Z","tX":529,"tY":364,"tags":{"addr:city":"Sevrier","addr:housenumber":"10","addr:postcode":"74320","addr:street":"Route de la Chapelle","caravans":"yes","dog":"yes","fee":"yes","name":"Le Verger","opening_hours":"Mar 01 - Nov 15","payment:cash":"yes","payment:cheque":"yes","phone":"+33 450 524133","power_supply":"yes","shower":"yes","stars":"1","tents":"yes","toilets":"yes","website":"https://www.lac-annecy.com/hotellerie-de-plein-air/1/101189-camping-le-verger.html"}},"348218271":{"location":[45.8428265,6.1417898],"ct":"FR","tp":"CS","ts":"2023-04-02T10:20:16Z","tX":529,"tY":364,"tags":{"addr:city":"Sévrier","addr:housenumber":"22","addr:postcode":"74320","addr:street":"Chemin des Bernets","fee":"yes","name":"Le Panoramic","phone":"+33 4 50 52 43 09","website":"https://www.camping-le-panoramic.com/"}},"435525040":{"location":[45.8430388,6.1543795],"ct":"FR","tp":"CS","ts":"2023-03-26T14:51:58Z","tX":529,"tY":364,"tags":{"addr:city":"Sevrier","addr:housenumber":"492","addr:postcode":"74320","addr:street":"Route de Piron","cabins":"yes","caravans":"yes","name":"Camping de L'Aloua","phone":"+33 450 526006","stars":"2","tents":"yes","washing_machine":"yes","website":"https://www.camping-aloua-lac-annecy.com/en/"}},"442885351":{"location":[45.8632098,6.1978118],"ct":"FR","tp":"CS","ts":"2020-09-01T14:33:14Z","tX":529,"tY":364,"tags":{"addr:city":"Menthon-Saint-Bernard","addr:housenumber":"435","addr:postcode":"74290","addr:street":"Route du Clos Don Jean","cabins":"yes","caravans":"yes","dog":"yes","email":"donjean74@orange.fr","fee":"yes","internet_access":"wlan","internet_access:fee":"no","name":"Camping Le Clos Don Jean","phone":"+33 4 50 60 18 66","power_supply":"yes","reservation":"yes","shower":"yes","stars":"2","swimming_pool":"no","tents":"yes","toilets":"yes","washing_machine":"yes","website":"https://www.campingclosdonjean.com/"}},"449055207":{"location":[45.8944174,6.3064265],"ct":"FR","tp":"CR","ts":"2024-09-04T12:58:07Z","tX":529,"tY":364,"tags":{"capacity":"20","caravan_site":"motorhome_stopover","caravan_site:type":"lake;fishing","caravans":"no","fee":"no","internet_access":"no","name":"Aire de stationnement camping-car au Lac de Thuy","opening_hours":"24/7","operator":"Public","power_supply":"no","sanitary_dump_station":"no","seasonal":"no","surface":"compacted","tents":"no","website":"https://www.savoie-mont-blanc.com/en/camping-cars/aire-de-stationnement-camping-car-au-lac-de-thuy-838256/"}},"610475300":{"location":[45.8380923,6.1673066],"ct":"FR","tp":"CS","ts":"2023-08-10T11:20:16Z","tX":529,"tY":364,"tags":{"camp_site":"serviced","capacity":"89","caravans":"yes","name":"Camping GCU de Saint-Jorioz","operator":"Groupement des Campeurs Universitaires","phone":"+33 4 50 77 03 14","sanitary_dump_station":"customers","stars":"2","tents":"yes","website":"https://www.gcu.asso.fr","wheelchair":"yes"}},"689971247":{"location":[45.8619528,6.0524985],"ct":"FR","tp":"CS","ts":"2023-04-08T07:22:22Z","tX":529,"tY":364,"tags":{"name":"Camping de Vidôme","phone":"+33 4 50 46 61 31"}},"698581705":{"location":[45.8456097,6.2138795],"ct":"FR","tp":"CS","ts":"2020-09-01T14:44:29Z","tX":529,"tY":364,"tags":{"addr:city":"Talloires","addr:housenumber":"754","addr:postcode":"74290","addr:street":"Le Thoron","cabins":"yes","caravans":"yes","email":"infos@camping-horizon.fr","fax":"+33 450 648857","fee":"yes","name":"L'Horizon","phone":"+33 450 607871","power_supply":"yes","reservation":"yes","shower":"yes","stars":"2","swimming_pool":"no","tents":"yes","toilets":"yes","website":"http://www.camping-horizon.fr"}},"734472991":{"location":[45.8906827,6.2231061],"ct":"FR","tp":"CS","ts":"2021-03-17T16:17:21Z","tX":529,"tY":364,"tags":{"name":"Camping des Ferrières","opening_hours":"Jun-Sep","phone":"+33 4 50 02 87 09","website":"http://www.camping-des-ferrieres.com/"}},"830804125":{"location":[45.879593,6.1754578],"ct":"FR","tp":"CS","ts":"2025-02-17T17:30:44Z","tX":529,"tY":364,"tags":{"addr:city":"Veyrier-du-Lac","addr:housenumber":"1","addr:postcode":"74290","addr:street":"Route de la Brune","cabins":"yes","caravans":"yes","email":"atc-veyrier@atc-routesdumonde.com","fee":"yes","name":"Camping de la Plage ATC","operator":"ATC Routes du Monde","phone":"+33 450 601099","shower":"yes","swimming_pool":"no","tents":"yes","toilets":"yes","website":"https://www.atc-routesdumonde.com/camping-annecy-veyrier-du-lac-74"}},"839282396":{"location":[45.836439,6.1782263],"ct":"FR","tp":"CS","ts":"2021-03-17T17:32:05Z","tX":529,"tY":364,"tags":{"caravans":"yes","name":"Camping Univers","opening_hours":"Jun 15-Sep 30","phone":"+33 4 50 68 98 25","website":"https://www.savoie-mont-blanc.com/offre/fiche/camping-univers-du-lac/213911"}},"916708116":{"location":[46.0642923,6.3136926],"ct":"FR","tp":"CR","ts":"2024-10-04T02:23:00Z","tX":529,"tY":364,"tags":{"access":"yes","addr:city":"La Roche-sur-Foron","addr:postcode":"74800","addr:street":"Chemin du Canada","capacity":"10","caravan_site":"motorhome_stopover","caravan_site:type":"parking_lot","description":"Aire de camping-car mixte avec parking voiture, borne artisanale. Acces gros gabarits non recomandé.","fee":"no","maxheight":"2.9 m","maxlength":"7 m","maxstay":"48 hours","motorcar":"yes","name":"La Roche-sur-Foron - Chemin du Canada","operator":"La Roche-sur-Foron","power_supply":"no","sanitary_dump_station":"yes","sanitary_dump_station:chemical_toilet":"yes","sanitary_dump_station:grey_water":"yes","sanitary_dump_station:round_drain":"yes","seasonal":"no","supervised":"no","surface":"asphalt","water_point":"yes","website":"https://www.savoie-mont-blanc.com/aires-camping-cars/aire-de-service-de-camping-cars-76859/"}},"916784458":{"location":[45.9711709,6.0313791],"ct":"FR","tp":"CR","ts":"2024-10-09T14:06:55Z","tX":529,"tY":364,"tags":{"capacity":"25","caravan_site":"motorhome_stopover","caravan_site:type":"lake","caravans":"no","charge":"7.80 EUR/24 hours","fee":"yes","maxstay":"48 hours","name":"Aire de Camping-Cars La-Balme de-Sillingy","opening_hours":"24/7","sanitary_dump_station":"yes","seasonal":"no","water_point":"yes","website":"https://tourisme.fier-et-usses.com/aire-d-accueil-camping-car-haute-savoie.html"}},"918346866":{"location":[45.8861248,6.3038578],"ct":"FR","tp":"CS","ts":"2025-05-21T22:54:29Z","tX":529,"tY":364,"tags":{"caravans":"yes","dog":"yes","fee":"yes","mobile":"+33 7 64 16 25 83","name":"Camping Le Tréjeux","opening_hours":"May-Sep","phone":"+33 4 50 02 06 90","power_supply":"yes","shower":"yes","stars":"2","static_caravans":"yes","tents":"yes","website":"https://www.letrejeux.com/"}},"918373722":{"location":[45.9780773,6.0363717],"ct":"FR","tp":"CS","ts":"2021-03-17T17:57:23Z","tX":529,"tY":364,"tags":{"internet_access":"wlan","name":"Domaine de la Caille","phone":"+33 4 50 68 85 21","power_supply":"yes","source":"cadastre-dgi-fr source : Direction Générale des Impôts - Cadastre ; mise à jour :2010","tents":"yes","website":"https://domaine-de-la-caille.webnode.fr/"}},"930125885":{"location":[45.9535569,6.1914787],"ct":"FR","tp":"PK","ts":"2024-10-09T01:06:16Z","tX":529,"tY":364,"tags":{"access":"yes","fee":"no","motorhome":"yes","motorhome:overnight":"yes","parking":"surface","surface":"asphalt"}},"1177648691":{"location":[45.8595672,6.0484605],"ct":"FR","tp":"CR","ts":"2025-03-19T11:05:08Z","tX":529,"tY":364,"tags":{"addr:city":"Montagny-les-Lanches","caravan_site":"motorhome_stopover","caravan_site:type":"lake;restaurant","charge":"15 EUR","fee":"yes","motorhome":"designated","name":"L'étang Moderne","power_supply":"yes","power_supply:fee":"no","sanitary_dump_station":"yes","seasonal":"no","shower":"no","surface":"gravel","toilets":"no","water_point":"yes"}},"1177648692":{"location":[45.8585169,6.0482305],"ct":"FR","tp":"CR","ts":"2025-03-19T11:05:08Z","tX":529,"tY":364,"tags":{"capacity":"4","charge":"15 EUR","fee":"yes","name":"L'étang Moderne 2","power_supply":"yes","sanitary_dump_station":"yes","shower":"no","toilets":"no"}},"1188476818":{"location":[45.9853198,6.2692726],"ct":"FR","tp":"CS","ts":"2023-07-09T16:49:53Z","tX":529,"tY":364,"tags":{"caravans":"yes","name":"Camping Rural Les Combes d'Usillon","phone":"+33 4 50 22 28 96","shower":"yes","tents":"yes","toilets":"yes","website":"https://www.savoie-mont-blanc.com/en/campings/camping-rural-les-combes-dusillon-206085/"}},"6474786430":{"location":[45.8620945,6.0415149],"ct":"FR","tp":"CS","ts":"2023-04-08T07:12:45Z","tX":529,"tY":364,"tags":{"cabins":"yes","capacity:pitches":"15","caravans":"yes","email":"lepreombrage@laposte.net","motorhome":"yes","name":"Pré Ombragé","opening_hours":"May 15 - Oct 15","phone":"+33 6 27 05 08 01","shower":"yes","tents":"yes","toilets":"yes","website":"https://www.lepreombrage.fr/"}},"6583255486":{"location":[46.0024013,6.1908983],"ct":"FR","tp":"CS","ts":"2024-08-05T16:03:20Z","tX":529,"tY":364,"tags":{"addr:street":"Route du Moulin Dollay","internet_access":"wlan","name":"Camping Moulin Dollay","name:de":"Camping Moulin Dollay","name:en":"Camping Moulin Dollay","name:fr":"Camping Moulin Dollay","opening_hours":"Mo-Su 08:30-21:00","phone":"0033450680031","website":"https://www.moulindollay.fr/"}},"12236633152":{"location":[45.9052397,6.1494838],"ct":"FR","tp":"CR","ts":"2024-10-09T00:45:57Z","tX":529,"tY":364,"tags":{"caravan_site":"motorhome_stopover","caravan_site:type":"parking_lot","fee":"no","maxweight":"3.5","name":"Parking camping car d’Albigny à Annecy-le-Vieux","opening_hours":"Nov-Mar","power_supply":"no","sanitary_dump_station":"no","water_point":"no"}},"4461619294":{"location":[45.8844898,6.3177017],"ct":"FR","tp":"SD","ts":"2024-09-15T15:54:22Z","tX":529,"tY":364,"tags":{"access":"yes","fee":"yes","name":"RV Toilet Disposal","operator":"Public","water_point":"yes"}},"7863762881":{"location":[45.8299146,6.220353],"ct":"FR","tp":"SD","ts":"2020-09-01T07:03:49Z","tX":529,"tY":364,"tags":{}},"8514359041":{"location":[46.0642179,6.3139601],"ct":"FR","tp":"SD","ts":"2024-10-04T02:23:51Z","tX":529,"tY":364,"tags":{"access":"yes","fee":"no","operator":"Ville de La Roche-sur-Foron","sanitary_dump_station":"public","sanitary_dump_station:chemical_toilet":"yes","sanitary_dump_station:grey_water":"yes","sanitary_dump_station:round_drain":"yes","water_point":"yes"}},"10940306668":{"location":[45.8595391,6.0482385],"ct":"FR","tp":"SD","ts":"2023-05-30T17:34:13Z","tX":529,"tY":364,"tags":{}},"12297372943":{"location":[45.9717101,6.0310445],"ct":"FR","tp":"SD","ts":"2024-10-29T18:16:38Z","tX":529,"tY":364,"tags":{"fee":"no","water_point":"yes"}}}