{"10076794":{"location":[45.7008845,6.113547],"ct":"FR","tp":"CS","ts":"2019-09-25T15:49:31Z","tX":529,"tY":365,"tags":{"access":"customers","addr:city":"Lescheraines","addr:postcode":"73340","addr:street":"Les îles du cheran","name":"Camping L'île du Chéran","operator":"Ternelia","phone":"+33 4 79 63 80 00","stars":"3","website":"https://www.savoie-camping.com"}},"136363143":{"location":[45.7952053,6.2042766],"ct":"FR","tp":"CS","ts":"2024-08-10T06:28:08Z","tX":529,"tY":365,"tags":{"addr:city":"Lathuile","addr:housenumber":"715","addr:postcode":"74210","addr:street":"Route de Chaparon","cabins":"yes","capacity:pitches":"140","caravans":"yes","dog":"yes","internet_access":"wlan","internet_access:fee":"yes","name":"l'Idéal","opening_hours":"May 05-Sep 17","phone":"+33 4 50 44 32 97","power_supply":"yes","reservation":"yes","shower":"yes","stars":"4","static_caravans":"yes","swimming_pool":"yes","tents":"yes","toilets":"yes","website":"https://www.campingideal.com/"}},"139035029":{"location":[45.7741357,6.2263138],"ct":"FR","tp":"CS","ts":"2011-11-30T00:48:18Z","tX":529,"tY":365,"tags":{"name":"Camping la Ferme de la Serraz","source":"cadastre-dgi-fr source : Direction Générale des Impôts - Cadastre. Mise à jour : 2011","stars":"4","website":"http://www.campinglaserraz.com"}},"158957679":{"location":[45.7851634,6.232772],"ct":"FR","tp":"CS","ts":"2023-08-10T12:38:59Z","tX":529,"tY":365,"tags":{"addr:city":"Verthier","addr:country":"FR","addr:housenumber":"322","addr:postcode":"74210","addr:street":"Route Simon de Verthier","area":"yes","cabins":"no","caravans":"yes","fee":"yes","internet_access":"wlan","name":"Le Simon de Verthier","opening_hours":"closed","payment:ancv":"yes","payment:cash":"yes","payment:cheque":"yes","phone":"+33 450 443657","power_supply":"yes","shower":"yes","swimming_pool":"no","tents":"yes","toilets":"yes","website":"https://www.sources-lac-annecy.com/sejourner/ou-dormir/campings/158945-1395,camping-simon-de-verthier.html"}},"159342443":{"location":[45.8276357,6.2206987],"ct":"FR","tp":"CS","ts":"2020-09-01T14:56:07Z","tX":529,"tY":365,"tags":{"addr:city":"Talloires","addr:country":"FR","addr:housenumber":"946","addr:postcode":"74290","addr:street":"Route d'Angon","area":"yes","cabins":"yes","caravans":"yes","email":"camping.le.lanfonnet@wanadoo.fr","fee":"yes","internet_access":"wlan","internet_access:fee":"no","name":"Camping le Lanfonnet","phone":"+33 450 607212","power_supply":"yes","shower":"yes","stars":"3","tents":"yes","toilets":"yes","website":"http://www.camping-lanfonnet.com/"}},"257123696":{"location":[45.7917616,6.1007866],"ct":"FR","tp":"PK","ts":"2024-08-19T09:13:05Z","tX":529,"tY":365,"tags":{"access":"yes","fee":"no","motorhome":"yes","parking":"surface","website":"https://www.semnoz.fr/bivouac"}},"284254032":{"location":[45.7910919,6.219854],"ct":"FR","tp":"CS","ts":"2023-11-27T08:59:36Z","tX":529,"tY":365,"tags":{"addr:city":"Doussard","addr:housenumber":"30","addr:postcode":"74210","addr:street":"Allée de la Nublière","cabins":"yes","camp_site":"deluxe","capacity":"204","caravans":"yes","contact:phone":"+33 450 443344","email":"nubliere@campeole.com","fee":"yes","internet_access:fee":"yes","name":"Camping La Nublière","opening_hours":"Jun 12 -Sep 27","operator":"Campéole","stars":"3","tents":"yes","website":"https://www.campeole.de/camping/haute-savoie/la-nubliere-doussard"}},"359529308":{"location":[45.7660358,6.0306063],"ct":"FR","tp":"CS","ts":"2023-04-16T16:47:37Z","tX":529,"tY":365,"tags":{"caravans":"yes","dog":"yes","name":"Camping Cusy","old_name":"Le Verger","phone":"+33 6 62 58 05 43; +33 4 50 52 52 01","power_supply":"yes","shower":"yes","tents":"yes","toilets":"yes","website":"http://www.campingcusy.sitew.fr/"}},"366315736":{"location":[45.7999922,6.2030677],"ct":"FR","tp":"CS","ts":"2023-11-09T07:55:37Z","tX":529,"tY":365,"tags":{"addr:city":"Lathuile","addr:housenumber":"1295","addr:postcode":"74210","addr:street":"Route de Chaparon","capacity:pitches":"41","caravans":"yes","name":"Les Fontaines","opening_hours":"May 17 - Sep 17","phone":"+33 450 443122","shower":"yes","stars":"4","swimming_pool":"yes","tents":"yes","toilets":"yes","website":"https://www.campinglesfontaines.com/"}},"403604093":{"location":[45.6423291,5.9839048],"ct":"FR","tp":"CR","ts":"2024-10-08T23:02:47Z","tX":529,"tY":365,"tags":{"capacity":"40","caravan_site":"motorhome_stopover","caravan_site:type":"countryside","charge":"5.60 EUR","fee":"yes","name":"Aire Camping-car de Féclaz","power_supply":"yes","power_supply:charge":"1.50 EUR/1 hour","power_supply:fee":"yes","sanitary_dump_station":"yes","seasonal":"no","toilets":"yes","water_point":"yes","water_point:charge":"1.50 EUR/100 liter","water_point:fee":"yes","website":"https://www.savoiegrandrevard.com/aire-d-accueil-camping-car-la-feclaz.html"}},"406509336":{"location":[45.6882431,6.1319174],"ct":"FR","tp":"CS","ts":"2020-04-29T20:39:08Z","tX":529,"tY":365,"tags":{"capacity":"35","email":"contact@camping-cyclamens.com","internet_access":"wlan","name":"Camping des Cyclamens","phone":"+33 4 79 54 80 19;+33 7 86 86 03 58","stars":"3","website":"https://www.camping-cyclamens.com"}},"435564635":{"location":[45.7984488,6.3211383],"ct":"FR","tp":"CS","ts":"2024-06-06T13:39:28Z","tX":529,"tY":365,"tags":{"addr:city":"Saint-Ferréol","addr:postcode":"74210","addr:street":"les Quevys au Sape","caravans":"no","description":"Terrain naturiste en pleine nature, situé au cœur des massifs Savoyards, dans l'environnement d'une faune et d'une flore magnifique.","name":"Club Soleil Mont Blanc","nudism":"yes","phone":"+33 7 86 92 91 64","source":"cadastre-dgi-fr source : Direction Générale des Impôts - Cadastre. Mise à jour : 2016","tents":"yes","website":"https://www.naturisme-csmb.eu/"}},"442742435":{"location":[45.8264779,6.220145],"ct":"FR","tp":"CS","ts":"2024-11-05T16:10:23Z","tX":529,"tY":365,"tags":{"access":"yes","addr:city":"Talloires","addr:housenumber":"320","addr:postcode":"74290","addr:street":"Chemin du Ponton","email":"contact@lachapellesaintclaude.com","name":"La Chapelle Saint-Claude","phone":"+33 450 603697","stars":"3","website":"http://www.lachapellesaintclaude.com"}},"490755113":{"location":[45.8260188,6.1881935],"ct":"FR","tp":"CS","ts":"2023-05-03T21:45:47Z","tX":529,"tY":365,"tags":{"access":"customers","addr:city":"Duingt","addr:housenumber":"631","addr:postcode":"74410","addr:street":"Voie Romaine","cabins":"yes","caravans":"yes","dog":"yes","email":"camping@duingt.fr","fee":"yes","name":"Camping municipal les Champs Fleuris","operator":"Catherine Perrissin","phone":"+33 450 685731","power_supply":"yes","reservation":"yes","sanitary_dump_station":"yes","shower":"yes","stars":"3","tents":"yes","toilets":"yes","website":"https://www.camping-duingt.com","wheelchair":"yes"}},"830321168":{"location":[45.7812631,6.2040621],"ct":"FR","tp":"CS","ts":"2020-09-01T15:17:04Z","tX":529,"tY":365,"tags":{"addr:city":"Lathuile","addr:housenumber":"70","addr:postcode":"74210","addr:street":"Route du Bout du Lac","cabins":"yes","caravans":"yes","email":"levergerfleuri@orange.fr","fee":"yes","internet_access":"wlan","name":"Le Verger Fleuri","official_name":"Camping le Verger Fleuri","reservation":"yes","shower":"yes","source":"data.gouv.fr:DATAtourisme - 05/2020","stars":"2","swimming_pool":"no","tents":"yes","toilets":"yes","washing_machine":"yes","website":"https://www.levergerfleuri.fr/"}},"830323161":{"location":[45.8180983,6.148535],"ct":"FR","tp":"CS","ts":"2023-03-25T22:54:50Z","tX":529,"tY":365,"tags":{"caravans":"yes","name":"Camping Le Crêtoux","source":"data.gouv.fr:DATAtourisme - 05/2020","stars":"3","tents":"yes","website":"https://campinglecretoux.com"}},"832194461":{"location":[45.7899959,6.2136551],"ct":"FR","tp":"CS","ts":"2023-11-09T07:55:34Z","tX":529,"tY":365,"tags":{"caravans":"yes","name":"Camping Le Polé","source":"data.gouv.fr:DATAtourisme - 05/2020","stars":"3","tents":"yes","website":"https://www.camping-le-pole.fr/"}},"833124087":{"location":[45.7921048,6.2151714],"ct":"FR","tp":"CS","ts":"2022-06-03T18:37:56Z","tX":529,"tY":365,"tags":{"addr:city":"Doussard","addr:postcode":"74210","addr:street":"Route de la Plage","cabins":"yes","caravans":"yes","changing_table":"yes","dog":"yes","email":"contact@camping-lac-bleu.com","internet_access":"wlan","internet_access:fee":"no","name":"Lac Bleu","phone":"+33 450 443018","power_supply":"yes","reservation":"yes","shower":"yes","stars":"5","swimming_pool":"yes","tents":"yes","toilets":"yes","toilets:wheelchair":"limited","washing_machine":"yes","website":"https://www.camping-lac-bleu.com/","wheelchair":"yes"}},"836233770":{"location":[45.8027761,6.2102446],"ct":"FR","tp":"CS","ts":"2023-11-09T07:55:07Z","tX":529,"tY":365,"tags":{"addr:city":"Doussard","addr:housenumber":"862","addr:postcode":"74210","addr:street":"Route de la Ravoire","name":"Camping La Ravoire","phone":"+33 450 44 37 80","stars":"4","website":"https://www.campinglaravoire.com/"}},"843068875":{"location":[45.824574,6.1858793],"ct":"FR","tp":"CS","ts":"2023-03-20T21:46:44Z","tX":529,"tY":365,"tags":{"addr:city":"Duingt","addr:housenumber":"400","addr:postcode":"74410","addr:street":"Route de Magnonnet","cabins":"yes","capacity":"40","caravans":"yes","email":"contact@annecy-camping-familial.com","name":"Le Familial","phone":"+33 450 686991","stars":"2","tents":"yes","website":"https://www.annecy-camping-familial.com/"}},"974371429":{"location":[45.7943031,6.2076147],"ct":"FR","tp":"CR","ts":"2024-09-10T14:18:10Z","tX":529,"tY":365,"tags":{"capacity":"40","caravan_site":"motorhome_stopover","caravan_site:type":"farm_shop","charge":"20 EUR","charge:conditional":"18 EUR @ (Apr 01-Jun 15,Sep 15-Nov 01)","description":"card payment only","fee":"yes","internet_access":"yes","internet_access:fee":"customers","name":"L'Hirondelle","opening_hours":"May-Oct","phone":"+33 6 87 65 39 64","power_supply":"yes","power_supply:capacity":"35","power_supply:fee":"no","power_supply:maxcurrent":"4","sanitary_dump_station":"yes","water_point":"yes","website":"https://hirondelle-du-lac.fr/"}},"1199961699":{"location":[45.7212045,6.3126158],"ct":"FR","tp":"CS","ts":"2023-08-19T17:25:52Z","tX":529,"tY":365,"tags":{"addr:housenumber":"882","addr:street":"Route des Combes","caravans":"yes","contact:email":"camping.lerecorbaz@free.fr","motorhome":"yes","name":"La Recorbaz","opening_hours":"May 1 - Sep 30","phone":"+33 6 62 85 93 37","shower":"yes","toilets":"yes"}},"1232709069":{"location":[45.6844009,5.9792267],"ct":"FR","tp":"CR","ts":"2024-10-09T13:58:57Z","tX":529,"tY":365,"tags":{"capacity":"10","caravan_site":"motorhome_stopover","caravan_site:type":"parking_lot","caravans":"no","fee":"no","name":"Aire du camping-cars Boucle de Bellevue","power_supply":"no","sanitary_dump_station":"yes","services:charge":"2 EUR","water_point":"yes"}},"1308752482":{"location":[45.7934454,6.2076689],"ct":"FR","tp":"CS","ts":"2024-08-19T08:05:54Z","tX":529,"tY":365,"tags":{"access":"customers","caravans":"no","fee":"yes","name":"Les Jardins du Taillefer","static_caravans":"no","tents":"no","website":"https://www.jardins-du-taillefer.fr/hebergements-atypiques-tipis-annecy/"}},"1308764394":{"location":[45.7816705,6.0951768],"ct":"FR","tp":"CS","ts":"2024-08-19T09:13:05Z","tX":529,"tY":365,"tags":{"access":"yes","backcountry":"yes","caravans":"no","dog":"leashed","fee":"no","fireplace":"no","name":"Aire de bivouac","opening_hours":"21:00-09:00","static_caravans":"no","tents":"yes","website":"https://www.semnoz.fr/bivouac"}},"1308764395":{"location":[45.7937042,6.1090833],"ct":"FR","tp":"CS","ts":"2024-08-19T09:13:05Z","tX":529,"tY":365,"tags":{"access":"yes","backcountry":"yes","caravans":"no","dog":"leashed","ele":"1570","fee":"no","fireplace":"no","name":"Aire de bivouac","opening_hours":"21:00-09:00","static_caravans":"no","tents":"yes","website":"https://www.semnoz.fr/bivouac"}},"1308764396":{"location":[45.7930516,6.1086799],"ct":"FR","tp":"CS","ts":"2024-08-19T09:13:05Z","tX":529,"tY":365,"tags":{"access":"yes","backcountry":"yes","caravans":"no","dog":"leashed","ele":"1570","fee":"no","fireplace":"no","name":"Aire de bivouac","opening_hours":"21:00-09:00","static_caravans":"no","tents":"yes","website":"https://www.semnoz.fr/bivouac"}},"1308764397":{"location":[45.7917151,6.101047],"ct":"FR","tp":"CS","ts":"2024-08-19T09:13:05Z","tX":529,"tY":365,"tags":{"backcountry":"yes","dog":"leashed","fee":"no","fireplace":"no","name":"Aire de bivouac","opening_hours":"21:00-09:00","tents":"yes","website":"https://www.semnoz.fr/bivouac"}},"1308764398":{"location":[45.7918645,6.1006488],"ct":"FR","tp":"CS","ts":"2024-08-19T09:13:05Z","tX":529,"tY":365,"tags":{"backcountry":"yes","dog":"leashed","fee":"no","fireplace":"no","name":"Aire de bivouac","opening_hours":"21:00-09:00","tents":"yes","website":"https://www.semnoz.fr/bivouac"}},"1313213307":{"location":[45.7890897,6.2173749],"ct":"FR","tp":"CR","ts":"2024-09-04T11:56:08Z","tX":529,"tY":365,"tags":{"capacity":"12","caravan_site":"motorhome_stopover","caravan_site:type":"beach;lake","dog":"leashed","fee":"yes","fee:conditional":"no@(Apr,Oct,Nov)","internet_access":"no","maxstay":"48 hours","motorhome":"designated","name":"Aire de Camping Car Doussard","reservation":"no","sanitary_dump_station":"yes","website":"https://www.savoie-mont-blanc.com/aires-camping-cars/aire-de-service-accueil-de-camping-car-4928699/","wheelchair":"yes"}},"1313217839":{"location":[45.7037592,6.1110994],"ct":"FR","tp":"CR","ts":"2024-09-04T11:22:01Z","tX":529,"tY":365,"tags":{"capacity":"10","caravan_site":"motorhome_stopover","caravan_site:type":"lake","charge":"8.39 EUR","description":"register at camp site","fee":"yes","maxstay":"48 hours","name":"Aire de camping-car Les Iles du Chéran","opening_hours":"Apr-Oct; \"maybe open without services and fee in winter\"","power_supply":"no","sanitary_dump_station":"yes","surface":"fine_gravel","water_point":"yes","water_point:charge":"2 EUR","water_point:fee":"yes","website":"https://www.savoie-mont-blanc.com/aires-camping-cars/aire-de-camping-car-de-lile-du-cheran-764159/"}},"1338576350":{"location":[45.766031,6.0306586],"ct":"FR","tp":"CS","ts":"2024-11-28T09:41:17Z","tX":529,"tY":365,"tags":{"caravans":"yes","dog":"yes","name":"Camping Cusy","old_name":"Le Verger","phone":"+33 6 62 58 05 43;+33 4 50 52 52 01","power_supply":"yes","shower":"yes","tents":"yes","toilets":"yes","website":"http://www.campingcusy.sitew.fr/"}},"2450814726":{"location":[45.8001974,6.2060915],"ct":"FR","tp":"CS","ts":"2023-07-09T17:44:29Z","tX":529,"tY":365,"tags":{"addr:city":"Lathuile","addr:housenumber":"1170","addr:postcode":"74210","addr:street":"Route de Chaparon","email":"info@campinglaferme.com","name":"Camping La Ferme","opening_hours":"May 1- Sep 30","phone":"+33 450 443 310","stars":"2","website":"https://www.campinglaferme.com/"}},"3696579713":{"location":[45.8023209,6.205681],"ct":"FR","tp":"CS","ts":"2018-08-12T11:55:13Z","tX":529,"tY":365,"tags":{"addr:city":"Doussard","addr:housenumber":"1530","addr:postcode":"74210","addr:street":"Route de Chaparon","email":"info@campingletaillefer.com","name":"Le Taillefer","phone":"+33 450 443030"}},"4059506944":{"location":[45.6425306,5.9834909],"ct":"FR","tp":"SD","ts":"2016-03-14T09:50:55Z","tX":529,"tY":365,"tags":{}},"4268623495":{"location":[45.7122508,6.3147828],"ct":"FR","tp":"CS","ts":"2017-10-08T02:19:34Z","tX":529,"tY":365,"tags":{"addr:housenumber":"255","addr:postcode":"74210","addr:street":"Route des Noyers","email":"foyerfondtamie@orange.fr","name":"Camping val de tamié aire naturelle","phone":"+33 4 50 32 49 97","website":"http://www.sources-lac-annecy.com/ou-dormir/campings-hotellerie-de-plein-air/135332-1395,aire-naturelle-du-val-tamie.html"}},"6583255487":{"location":[45.6102614,6.0969802],"ct":"FR","tp":"CS","ts":"2019-07-02T05:50:20Z","tX":529,"tY":365,"tags":{"name":"Camping Jeanne Cher"}},"11102657994":{"location":[45.7448235,6.1343245],"ct":"FR","tp":"CS","ts":"2025-04-06T09:52:46Z","tX":529,"tY":365,"tags":{"addr:housenumber":"73340","addr:street":"La Gonnallaz","contact:website":"https://catalogue.accueil-paysan.com/fr/catalog/structure/2110/","description":"Lien à la terre : Fruits et produits transformés à base de fruits. Nous vous accueillons sur la ferme sous différentes formes : -accueil de groupe, goûter en famille, ateliers, visite de la ferme Une aire de pique nique libre est à votre disposition. Nou","name":"Les Douceurs des Bauges","phone":"+33 7 67 12 04 28","website":"https://www.lesdouceursdesbauges.com/"}},"5002814070":{"location":[45.79105,6.2200969],"ct":"FR","tp":"SD","ts":"2017-07-30T10:03:02Z","tX":529,"tY":365,"tags":{"operator":"Camping La Nublière","sanitary_dump_station:gravity":"yes","water_point":"yes"}},"5002851309":{"location":[45.7919635,6.2199762],"ct":"FR","tp":"SD","ts":"2017-07-30T10:02:57Z","tX":529,"tY":365,"tags":{"operator":"Camping La Nublière","sanitary_dump_station:gravity":"yes","water_point":"no"}},"11435104520":{"location":[45.6839568,5.9787351],"ct":"FR","tp":"SD","ts":"2023-12-20T15:49:31Z","tX":529,"tY":365,"tags":{"access":"yes","fee":"no","sanitary_dump_station:chemical_toilet":"yes","sanitary_dump_station:grey_water":"yes"}},"12155198242":{"location":[45.7039657,6.1111162],"ct":"FR","tp":"SD","ts":"2024-09-04T11:22:01Z","tX":529,"tY":365,"tags":{"access":"yes","fee":"yes"}}}