{"157708832":{"location":[44.6247975,6.2120105],"ct":"FR","tp":"CS","ts":"2024-05-12T20:18:19Z","tX":529,"tY":369,"tags":{"caravans":"yes","drinking_water":"yes","internet_access":"wlan","landuse":"tourism","name":"Les Auches","power_supply":"yes","sanitary_dump_station":"yes","shower":"yes","stars":"3","tents":"yes","toilets":"yes","website":"https://www.lesauches.com/","wheelchair":"yes"}},"167457771":{"location":[44.6180705,6.2108696],"ct":"FR","tp":"CS","ts":"2019-03-22T20:05:20Z","tX":529,"tY":369,"tags":{"landuse":"tourism","name":"Les Taillas"}},"168062596":{"location":[44.6702,6.2408075],"ct":"FR","tp":"CS","ts":"2023-11-08T23:38:25Z","tX":529,"tY":369,"tags":{"addr:city":"Saint-Jean - Saint-Nicolas","addr:housenumber":"700","addr:postcode":"05260","addr:street":"Route d’Orcières - Pont du Fossé","caravans":"yes","internet_access":"wlan","landuse":"tourism","mobile":"+33 6 59 01 80 38 |  +33 6 67 21 74 90","name":"Les 6 Stations","phone":"+33 4 92 55 91 95","stars":"3","static_caravans":"yes","tents":"yes","website":"https://www.camping-ecrins.com/"}},"168206730":{"location":[44.6450554,6.2047196],"ct":"FR","tp":"CS","ts":"2024-07-16T14:46:27Z","tX":529,"tY":369,"tags":{"landuse":"tourism","name":"Camping-Caravaneige La Pause","stars":"3","website":"https://camping-la-pause.fr/"}},"348243726":{"location":[44.6682957,6.0857856],"ct":"FR","tp":"CS","ts":"2023-08-05T12:37:08Z","tX":529,"tY":369,"tags":{"addr:city":"Saint Bonnet en Champsaur","addr:housenumber":"1186","addr:postcode":"05500","addr:street":"chemin du Gâ","caravans":"yes","email":"lesrivesdudrac@wanadoo.fr","internet_access":"wlan","landuse":"tourism","mobile":"+33  6 78 29 63 87","name":"Les Rives du Drac","opening_hours":"Apr-Oct","static_caravans":"no","tents":"yes","website":"https://www.champsaur-valgaudemar.com/ete/offres/les-rives-du-drac-saint-bonnet-en-champsaur-fr-ete-2153127/"}},"713874193":{"location":[44.6671908,6.2349357],"ct":"FR","tp":"CR","ts":"2024-10-15T08:44:11Z","tX":529,"tY":369,"tags":{"capacity":"49","caravan_site":"motorhome_stopover","caravan_site:type":"hamlet","charge":"12.35 EUR","contact:phone":"+33 2 98 53 99 39","fee":"yes","internet_access":"wlan","maxstay":"7 nights","name":"Aire Camping Car - Pont Du Fossé - Saint-Jean-Saint-Nicolas","network":"AirePark","power_supply":"yes","power_supply:capacity":"50","power_supply:maxcurrent":"10","reservation":"yes","sanitary_dump_station":"yes","water_point":"yes","website":"https://www.aireparkreservation.com/aires-camping-cars/provence-alpes-cote-azur/hautes-alpes/pont-du-fosse-commune-de-saint-jean-saint-nicolas"}},"729485370":{"location":[44.664542,6.2151169],"ct":"FR","tp":"CS","ts":"2023-11-08T23:38:15Z","tX":529,"tY":369,"tags":{"addr:city":"Saint-Jean-Saint-Nicolas","addr:country":"FR","addr:place":"Pont du Fossé","addr:postcode":"05260","addr:street":"D 944","capacity":"68","caravans":"yes","name":"Camping GCU de Pont-du-Fossé","operator":"Groupement des Campeurs Universitaires","phone":"+33 4 92 55 95 23","stars":"2","tents":"yes","website":"https://www.gcu.asso.fr/"}},"863595153":{"location":[44.823586,6.146073],"ct":"FR","tp":"CS","ts":"2023-02-15T07:18:57Z","tX":529,"tY":369,"tags":{"name":"Les eaux douces","website":"https://lecampingdeseauxdo.wixsite.com/monsite","wifi":"no"}},"881763120":{"location":[44.7817912,6.037138],"ct":"FR","tp":"CR","ts":"2024-05-22T14:09:40Z","tX":529,"tY":369,"tags":{"bbq":"no","capacity":"29","caravan_site":"motorhome_stopover","caravan_site:type":"mountains","charge":"13.49 EUR","dog":"leashed","fee":"yes","internet_access":"wlan","maxlength":"none","name":"Aire de Saint-Firmin","network":"CAMPING-CAR PARK","opening_hours":"24/7","power_supply":"yes","power_supply:capacity":"8","power_supply:maxcurrent":"6","sanitary_dump_station":"yes","tents":"no","trailer":"no","water_point":"yes","website":"https://www.campingcarpark.com/fr_FR/sejour/aire-etape-camping-car/provence-alpes-cote-dazur/05-hautes-alpes/saint_firmin"}},"881763121":{"location":[44.7821716,6.022771],"ct":"FR","tp":"CS","ts":"2022-01-02T20:25:02Z","tX":529,"tY":369,"tags":{"name":"La Villette","phone":"+33 637103242","website":"https://campinglavillette.fr/"}},"911868730":{"location":[44.6767447,6.0820211],"ct":"FR","tp":"CR","ts":"2024-10-02T20:15:22Z","tX":529,"tY":369,"tags":{"access":"yes","addr:city":"Saint-Bonnet-en-Champsaur","addr:postcode":"05000","addr:street":"Avenue Prémongril","capacity":"10","caravan_site":"motorhome_stopover","caravan_site:type":"village","fee":"no","name":"Aire de camping-car de St Bonnet","opening_hours":"24/7","operator":"Ville de Saint-Bonnet-en-Champsaur","power_supply":"no","sanitary_dump_station":"yes","sanitary_dump_station:chemical_toilet":"yes","sanitary_dump_station:grey_water":"yes","sanitary_dump_station:round_drain":"yes","seasonal":"no","supervised":"no","surface":"asphalt","tents":"no","water_point":"yes","website":"https://www.champsaur-valgaudemar.com/winter/offers/aire-de-camping-car-de-st-bonnet-saint-bonnet-en-champsaur-en-winter-2776457/"}},"1109611744":{"location":[44.6769058,6.0820678],"ct":"FR","tp":"SD","ts":"2024-10-02T20:15:22Z","tX":529,"tY":369,"tags":{"fee":"no","operator":"Ville de Saint-Bonnet-en-Champsaur","sanitary_dump_station:chemical_toilet":"yes","sanitary_dump_station:grey_water":"yes","sanitary_dump_station:round_drain":"yes","water_point":"yes"}},"1163052585":{"location":[44.811799,6.1134819],"ct":"FR","tp":"CS","ts":"2023-08-09T19:56:36Z","tX":529,"tY":369,"tags":{"cabins":"yes","capacity:cabins":"11","capacity:pitches":"51","caravans":"yes","drinking_water":"yes","mobile":"+33 6 71 77 91 02","motorhome":"yes","name":"Camping le Bocage","phone":"+33 4 92 21 96 48","shower":"yes","tents":"yes","toilets":"yes","website":"http://campinglebocage.com/"}},"1197943903":{"location":[44.7200861,6.2573167],"ct":"FR","tp":"CS","ts":"2023-08-14T08:18:37Z","tX":529,"tY":369,"tags":{"backcountry":"yes","fee":"no","name":"Bivouac des Borels","tents":"yes"}},"1201268896":{"location":[44.7219006,6.2585467],"ct":"FR","tp":"CS","ts":"2023-08-23T08:18:13Z","tX":529,"tY":369,"tags":{"backcountry":"yes"}},"1282287884":{"location":[44.6950383,6.3263304],"ct":"FR","tp":"CR","ts":"2024-08-15T10:11:15Z","tX":529,"tY":369,"tags":{"capacity":"25","caravan_site":"motorhome_stopover","caravan_site:type":"ski_resort","charge":"18 EUR","charge:conditional":"10 EUR @ (Apr 15-Sep 08)","fee":"yes","name":"P2 Aire de camping-car de Casse Blanche","power_supply":"yes","power_supply:maxcurrent":"16","ref":"P2","reservation":"no","sanitary_dump_station":"yes","surface":"asphalt","water_point":"yes","website":"https://www.orcieres.com/fr/dormir/camping-caravaning/fiche-detail/aire-de-camping-car-de-casse-blanche/"}},"1290851695":{"location":[44.8244353,6.2307017],"ct":"FR","tp":"CS","ts":"2024-06-11T07:37:02Z","tX":529,"tY":369,"tags":{"name":"Les Bouleaux","website":"https://campinglesbouleauxvalgaudemar.wordpress.com/"}},"1291350925":{"location":[44.8189222,6.1956417],"ct":"FR","tp":"CS","ts":"2024-06-12T05:37:22Z","tX":529,"tY":369,"tags":{"name":"Les Marines","website":"https://campinglesmarines.com/"}},"1291354276":{"location":[44.8180937,6.1931812],"ct":"FR","tp":"CS","ts":"2024-06-11T14:52:30Z","tX":529,"tY":369,"tags":{"caravans":"yes","drinking_water":"yes","name":"Camping municipal Les Mélèzes","phone":"+33 4 92 55 23 01","shower":"yes","tents":"yes"}},"1302912708":{"location":[44.6810524,6.3190923],"ct":"FR","tp":"CR","ts":"2024-07-21T18:39:45Z","tX":529,"tY":369,"tags":{"capacity":"24","caravan_site":"motorhome_stopover","caravan_site:type":"ski_resort","charge":"10.80 EUR","dog":"yes","fee":"yes","maxstay":"30 days","name":"Aire de camping car de la Gravière","opening_hours":"24/7","power_supply":"yes","power_supply:capacity":"24","sanitary_dump_station":"yes","seasonal":"no","shuttle_bus":"yes","toilets":"yes","water_point":"yes","website":"https://www.orcieres.com/fr/dormir/camping-caravaning/fiche-detail/aire-de-camping-car-de-la-graviere/"}},"1302912710":{"location":[44.6807721,6.3202846],"ct":"FR","tp":"CS","ts":"2024-07-21T18:39:45Z","tX":529,"tY":369,"tags":{"addr:city":"Orcières","addr:postcode":"05170","addr:street":"Les Gravières","bbq":"yes","caravans":"yes","dog":"leashed","email":"bdl.orcieres@aquice.fr","fee":"yes","name":"Lou Draou","phone":"+33 4 65 03 08 87","tents":"yes","washing_machine":"yes"}},"1307350183":{"location":[44.7208559,6.2585393],"ct":"FR","tp":"CR","ts":"2024-08-12T22:41:44Z","tX":529,"tY":369,"tags":{"capacity":"10","caravan_site":"motorhome_stopover","caravan_site:type":"village","fee":"no","name":"Aire Champoléon - Les Borels","opening_hours":"24/7","power_supply":"no","sanitary_dump_station":"no","seasonal":"no","toilets":"yes","water_point":"no"}},"2836200383":{"location":[44.6504678,6.1729227],"ct":"FR","tp":"CS","ts":"2023-08-05T15:13:15Z","tX":529,"tY":369,"tags":{"addr:city":"Chabottes","addr:housenumber":"35","addr:postcode":"05260","addr:street":"route de Saint-Bonnet, Les Ribières","caravans":"yes","name":"Les sittelles","phone":"+33 4 92 50 47 72","stars":"3","static_caravans":"yes","tents":"yes","website":"https://www.champsaur-les-sittelles.fr"}},"6871188648":{"location":[44.81817,6.1916102],"ct":"FR","tp":"CS","ts":"2024-04-27T17:38:05Z","tX":529,"tY":369,"tags":{"capacity":"25","caravans":"yes","name":"Aire naturelle de camping Les Prés Ronds","tents":"yes"}},"12050828618":{"location":[44.7739239,6.3161844],"ct":"FR","tp":"CS","ts":"2024-07-13T12:12:05Z","tX":529,"tY":369,"tags":{"access":"yes","backcountry":"yes","capacity:tents":"3","caravans":"no","fee":"no","name":"Camp spot","static_caravans":"no","tents":"yes"}},"6711610133":{"location":[44.6676781,6.2345414],"ct":"FR","tp":"SD","ts":"2019-08-15T07:58:43Z","tX":529,"tY":369,"tags":{}}}