{"219691395":{"location":[44.4248112,6.0297612],"ct":"FR","tp":"CS","ts":"2024-08-25T06:54:56Z","tX":529,"tY":370,"tags":{"caravans":"yes","drinking_water":"yes","name":"Au Camping du Lac","power_supply":"yes","sanitary_dump_station":"no","shower":"yes","source":"Bing","stars":"4","tents":"yes","toilets":"yes","url":"https://au-camping-du-lac.com"}},"307584656":{"location":[44.5696528,6.1024951],"ct":"FR","tp":"CR","ts":"2024-04-16T20:31:45Z","tX":529,"tY":370,"tags":{"access":"yes","addr:city":"Gap","addr:postcode":"05000","addr:street":"Avenue d'Embrun","capacity":"6","caravan_site":"motorhome_stopover","fee":"no","name":"Aire de camping-car Gap Tokoro","opening_hours":"Apr-Oct","operator":"Ville de Gap","power_supply":"no","sanitary_dump_station":"yes","sanitary_dump_station:chemical_toilet":"yes","sanitary_dump_station:grey_water":"yes","sanitary_dump_station:round_drain":"yes","supervised":"no","tents":"no","water_point":"yes","website":"https://www.ville-gap.fr/aires-de-camping-cars"}},"348246226":{"location":[44.4597404,6.2349629],"ct":"FR","tp":"CS","ts":"2019-03-22T20:05:49Z","tX":529,"tY":370,"tags":{"landuse":"tourism","name":"Les Gorges de la Blanchet","opening_hours":"May 5-Oct 31","phone":"+33 4 92 54 40 26","website":"http://www.camping-gorges-de-la-blanche.fr/"}},"377540718":{"location":[44.5810494,6.0837706],"ct":"FR","tp":"CS","ts":"2024-07-19T13:08:50Z","tX":529,"tY":370,"tags":{"landuse":"tourism","name":"Camping Locations Alpes Dauphiné","stars":"3"}},"458747077":{"location":[44.3409373,6.0349201],"ct":"FR","tp":"CS","ts":"2024-09-25T15:40:09Z","tX":529,"tY":370,"tags":{"capacity":"32","caravans":"yes","drinking_water":"yes","landuse":"tourism","name":"Le Mousserein","power_supply":"yes","sanitary_dump_station":"no","shower":"yes","stars":"2","tents":"yes","toilets":"yes","website":"https://camping-nature04.com/"}},"458754042":{"location":[44.3665046,6.305857],"ct":"FR","tp":"CS","ts":"2020-09-18T20:55:29Z","tX":529,"tY":370,"tags":{"addr:city":"Selonnet","addr:country":"FR","addr:postcode":"04140","capacity":"33","caravans":"yes","internet_access":"wlan","landuse":"tourism","name":"Camping GCU de Selonnet","operator":"Groupement des Campeurs Universitaires","phone":"+33 4 92 35 16 32","stars":"2","tents":"yes","website":"https://www.gcu.asso.fr/terrains/selonnet-alpes-de-haute-provence-04"}},"458756162":{"location":[44.4429876,6.3053021],"ct":"FR","tp":"CS","ts":"2023-10-31T12:42:12Z","tX":529,"tY":370,"tags":{"capacity":"59","landuse":"tourism","name":"La Pierre de l'Aigle","stars":"3","website":"https://www.campinglapierredelaigle.fr/"}},"458756740":{"location":[44.4574765,6.2934146],"ct":"FR","tp":"CS","ts":"2024-10-08T09:57:14Z","tX":529,"tY":370,"tags":{"addr:city":"Ubaye-Serre-Ponçon","addr:postcode":"04340","capacity":"50","landuse":"tourism","name":"Barnéaud"}},"467763444":{"location":[44.5220558,6.3226977],"ct":"FR","tp":"CS","ts":"2022-08-27T14:08:01Z","tX":529,"tY":370,"tags":{"landuse":"tourism","name":"Baie de la Chapelle André Trigano","website":"https://vacances-andretrigano.com/camping/hautes-alpes/baie-de-la-chapelle-chorges","wheelchair":"no"}},"467763445":{"location":[44.527999,6.318787],"ct":"FR","tp":"CS","ts":"2019-04-16T05:27:02Z","tX":529,"tY":370,"tags":{"addr:city":"Chorges","addr:postcode":"05230","email":"resa@campingleserredulac.fr","fee":"yes","internet_access":"wlan","landuse":"tourism","name":"Le Serre Du Lac","phone":"+33 4 92 50 67 57","website":"https://www.campingleserredulac.fr/"}},"467763447":{"location":[44.5206927,6.3245146],"ct":"FR","tp":"CS","ts":"2021-02-06T12:18:04Z","tX":529,"tY":370,"tags":{"access":"private","landuse":"tourism","name":"Base Nautique du Camping des Pompiers","wheelchair":"no"}},"610498526":{"location":[44.5281984,6.3238033],"ct":"FR","tp":"CS","ts":"2020-09-01T21:45:45Z","tX":529,"tY":370,"tags":{"addr:city":"Chorges","addr:postcode":"05230","caravans":"yes","internet_access":"wlan","landuse":"tourism","name":"Baie Saint-Michel","operator":"Mairie de Chorges","phone":"+33 4 92 50 67 72","tents":"yes","website":"https://www.baiestmichel.com/fr/camping","wheelchair":"limited"}},"702426776":{"location":[44.5420294,6.31441],"ct":"FR","tp":"CS","ts":"2024-07-16T20:47:57Z","tX":529,"tY":370,"tags":{"landuse":"tourism","name":"Camping Belle-vue"}},"830331636":{"location":[44.4758382,6.268002],"ct":"FR","tp":"CS","ts":"2024-05-03T10:37:44Z","tX":529,"tY":370,"tags":{"caravans":"yes","name":"La Viste","official_name":"Camping La Viste","source":"data.gouv.fr:DATAtourisme - 05/2020","stars":"4","tents":"yes","website":"https://www.laviste.fr/"}},"843048319":{"location":[44.5132928,6.3044933],"ct":"FR","tp":"CS","ts":"2021-02-06T12:00:19Z","tX":529,"tY":370,"tags":{"addr:city":"Chorges","addr:postcode":"05230","addr:street":"Les Annettes","name":"CLUB NAUTIQUE de CHANTELOUBE","website":"http://www.voile-chanteloube.com/"}},"879591168":{"location":[44.5394556,6.281592],"ct":"FR","tp":"CS","ts":"2021-02-06T12:00:33Z","tX":529,"tY":370,"tags":{"addr:city":"Chorges","addr:postcode":"05230","addr:street":"Route des Moulettes","name":"La Valière","phone":"+33 6 62 63 99 57","website":"https://www.la-valiere.com/"}},"911850656":{"location":[44.4616289,6.0598581],"ct":"FR","tp":"CR","ts":"2024-10-10T08:48:19Z","tX":529,"tY":370,"tags":{"access":"yes","addr:city":"Tallard","addr:postcode":"05130","addr:street":"Rue du Barry","capacity":"2","caravan_site":"motorhome_stopover","caravan_site:type":"village;river","caravans":"no","fee":"no","name":"Tallard Aire communale","operator":"Ville de Tallard","power_supply":"no","sanitary_dump_station":"yes","sanitary_dump_station:chemical_toilet":"yes","sanitary_dump_station:grey_water":"yes","sanitary_dump_station:round_drain":"yes","supervised":"no","tents":"no","water_point":"yes"}},"911863998":{"location":[44.5423883,6.0616281],"ct":"FR","tp":"CR","ts":"2024-10-09T22:32:25Z","tX":529,"tY":370,"tags":{"access":"yes","addr:city":"Gap","addr:postcode":"05000","addr:street":"Avenue de Traunstein","capacity":"5","caravan_site":"motorhome_stopover","caravan_site:type":"parking_lot","fee":"no","name":"Aire de camping-car Gap parking du stade nautique de Fontreyne","opening_hours":"Apr-Oct","operator":"Ville de Gap","power_supply":"no","sanitary_dump_station":"yes","sanitary_dump_station:chemical_toilet":"yes","sanitary_dump_station:grey_water":"yes","sanitary_dump_station:round_drain":"yes","supervised":"no","tents":"no","water_point":"yes","website":"https://www.ville-gap.fr/aires-de-camping-cars"}},"914089391":{"location":[44.4576684,6.2919089],"ct":"FR","tp":"CR","ts":"2024-08-16T15:39:40Z","tX":529,"tY":370,"tags":{"access":"yes","addr:city":"La Bréole","addr:postcode":"04340","addr:street":"Grachine","capacity":"10","caravan_site":"motorhome_stopover","caravan_site:type":"village","fee":"no","maxstay":"2 nights","name":"La Bréole Aire de camping-car","operator":"Ville de La Bréole","power_supply":"no","sanitary_dump_station":"yes","sanitary_dump_station:chemical_toilet":"yes","sanitary_dump_station:fee":"no","sanitary_dump_station:grey_water":"yes","sanitary_dump_station:round_drain":"yes","supervised":"no","tents":"no","water_point":"yes","water_point:fee":"no","website":"https://www.tourisme-alpes-haute-provence.com/hebergement/ubaye-serre-poncon/apidae-aire-de-service-et-de-stationnement-camping-car-de-la-breole-928042/"}},"1063260023":{"location":[44.4599743,6.169372],"ct":"FR","tp":"CS","ts":"2024-09-20T08:11:47Z","tX":529,"tY":370,"tags":{"name":"Camping des 3 lacs"}},"1095076422":{"location":[44.4968172,6.0309804],"ct":"FR","tp":"CS","ts":"2022-09-16T06:19:25Z","tX":529,"tY":370,"tags":{"name":"Les Gravières","phone":"+33 6 69 49 61 09","website":"https://www.camping-lesgravieres.com/"}},"1095076423":{"location":[44.4974541,6.0286955],"ct":"FR","tp":"CS","ts":"2022-09-16T06:19:25Z","tX":529,"tY":370,"tags":{"email":"camping.les.bonnets@orange.fr","landuse":"tourism","name":"Les Bonnets","phone":"+33 4 92 57 93 89","stars":"3","website":"https://camping-les-bonnets.com/"}},"1095469831":{"location":[44.5829905,6.0837014],"ct":"FR","tp":"CS","ts":"2024-07-19T13:08:50Z","tX":529,"tY":370,"tags":{"caravans":"yes","name":"Camping Napoléon","sanitary_dump_station":"yes","stars":"3","url":"https://www.campinglenapoleon.fr"}},"1139148652":{"location":[44.4553254,6.0499357],"ct":"FR","tp":"CS","ts":"2024-09-26T18:03:40Z","tX":529,"tY":370,"tags":{"name":"Camping Municipal","phone":"+33492541331","website":"https://camping-lechene.com/"}},"1308256546":{"location":[44.3685045,6.3152839],"ct":"FR","tp":"CR","ts":"2024-08-16T13:03:55Z","tX":529,"tY":370,"tags":{"capacity":"6","caravan_site":"motorhome_stopover","caravan_site:type":"village","fee":"no","name":"Aire Camping-car de Selonnet","opening_hours":"24/7","power_supply":"yes","power_supply:capacity":"2","power_supply:fee":"yes","sanitary_dump_station":"yes","seasonal":"no","tents":"no","water_point":"yes","water_point:fee":"2 EUR","website":"https://www.tourisme-alpes-haute-provence.com/hebergement/selonnet/apidae-aire-de-service-et-de-stationnement-pour-camping-car-de-selonnet-927954/"}},"2378479957":{"location":[44.5023946,6.1121737],"ct":"FR","tp":"CS","ts":"2021-04-11T21:37:52Z","tX":529,"tY":370,"tags":{"addr:city":"Jarjayes","addr:housename":"La Tour","addr:postcode":"05130","description":"Camping à la ferme, yourtes et legumes BIO","ele":"945","name":"Un Air d'Ailleurs, Les yourtes de Jarjayes","source":"proprietaire","website":"www.unaidailleurs.net"}},"4915181666":{"location":[44.5260624,6.318439],"ct":"FR","tp":"CS","ts":"2021-02-06T12:47:05Z","tX":529,"tY":370,"tags":{"name":"La Cle des Champs","website":"https://www.camping-serre-poncon.fr"}},"4994708811":{"location":[44.4813338,6.2732114],"ct":"FR","tp":"CS","ts":"2017-07-26T12:11:50Z","tX":529,"tY":370,"tags":{}},"5873802350":{"location":[44.5517121,6.3262723],"ct":"FR","tp":"CS","ts":"2018-09-01T16:36:57Z","tX":529,"tY":370,"tags":{"name":"Les Blanchons","website":"http://camping-prunieres.com"}},"4754990353":{"location":[44.5653758,6.0838253],"ct":"FR","tp":"SD","ts":"2017-03-25T16:46:23Z","tX":529,"tY":370,"tags":{}},"8467361686":{"location":[44.4616668,6.0598676],"ct":"FR","tp":"SD","ts":"2021-11-20T14:40:26Z","tX":529,"tY":370,"tags":{"description":"Station de vidange pour Camping-car. Borne Flot Bleu","fee":"no","operator":"Ville de Tallard","sanitary_dump_station:chemical_toilet":"yes","sanitary_dump_station:grey_water":"yes","sanitary_dump_station:round_drain":"yes","water_point":"yes"}},"8467741085":{"location":[44.5423472,6.0617234],"ct":"FR","tp":"SD","ts":"2023-12-21T01:48:59Z","tX":529,"tY":370,"tags":{"access":"yes","description":"Station de vidange pour Camping-car.","fee":"no","operator":"Ville de Gap","sanitary_dump_station:chemical_toilet":"yes","sanitary_dump_station:grey_water":"yes","sanitary_dump_station:round_drain":"yes","water_point":"yes"}},"8467765635":{"location":[44.5695749,6.1025225],"ct":"FR","tp":"SD","ts":"2023-12-21T01:48:59Z","tX":529,"tY":370,"tags":{"access":"yes","description":"Station de vidange pour Camping-car.","fee":"no","operator":"Ville de Gap","sanitary_dump_station:chemical_toilet":"yes","sanitary_dump_station:grey_water":"yes","sanitary_dump_station:round_drain":"yes","water_point":"yes"}},"8491075161":{"location":[44.4577729,6.2918596],"ct":"FR","tp":"SD","ts":"2023-07-28T15:17:35Z","tX":529,"tY":370,"tags":{"description":"Station de vidange pour Camping-car","fee":"no","maxstay":"2 days","operator":"Ville de La Bréole","sanitary_dump_station:chemical_toilet":"yes","sanitary_dump_station:grey_water":"yes","sanitary_dump_station:round_drain":"yes","water_point":"yes","website":"https://www.tourisme-alpes-haute-provence.com/hebergement/ubaye-serre-poncon/apidae-aire-de-service-et-de-stationnement-camping-car-de-la-breole-928042/"}},"12115084659":{"location":[44.3684982,6.3151632],"ct":"FR","tp":"SD","ts":"2024-08-16T13:03:55Z","tX":529,"tY":370,"tags":{"access":"yes","seasonal":"no","water_point":"yes","water_point:fee":"yes"}}}