{"53799050":{"location":[44.100177,6.2512652],"ct":"FR","tp":"CS","ts":"2023-11-02T09:56:37Z","tX":529,"tY":371,"tags":{"cabins":"yes","camp_site":"deluxe","capacity":"119","caravans":"yes","charge":"14€ (1 Caravan, 2 Persons)","fee":"yes","landuse":"tourism","name":"Camping du Bourg","phone":"+33 492310487","shower":"yes","stars":"2","swimming_pool":"yes","tents":"yes","toilets":"yes","washing_machine":"yes","website":"https://www.campingdigne.com/"}},"356985778":{"location":[44.0911645,6.1496495],"ct":"FR","tp":"CS","ts":"2024-07-16T14:48:09Z","tX":529,"tY":371,"tags":{"contact:phone":"+33 6 84 23 11 30","landuse":"tourism","name":"Camping de Fontliesse","website":"https://www.camping-fontliesse.com/"}},"403114001":{"location":[44.1044069,6.0160554],"ct":"FR","tp":"CS","ts":"2025-01-15T14:00:44Z","tX":529,"tY":371,"tags":{"email":"camping@l-hippocampe.com","landuse":"tourism","name":"Sunelia L'Hippocampe","operator":"Sunêlia","phone":"+33 4 92 33 50 00","stars":"5","website":"https://www.l-hippocampe.com/"}},"424536454":{"location":[44.1586974,6.146971],"ct":"FR","tp":"CS","ts":"2024-10-03T02:18:28Z","tX":529,"tY":371,"tags":{"capacity":"22","caravans":"yes","drinking_water":"yes","landuse":"tourism","name":"Le Moulin de Thoard","power_supply":"yes","sanitary_dump_station":"no","shower":"yes","stars":"3","tents":"yes","toilets":"yes","website":"https://www.lemoulindethoard.com/"}},"455028262":{"location":[44.0978991,6.0179914],"ct":"FR","tp":"CS","ts":"2025-01-15T14:00:44Z","tX":529,"tY":371,"tags":{"addr:city":"Château-Arnoux-Saint-Auban","addr:housenumber":"18","addr:postcode":"04160","addr:street":"Chemin des Salettes","name":"Sunelia L'Hippocampe","note":"Abandonné","was:landuse":"tourism","website":"https://www.l-hippocampe.com/fr/"}},"458747078":{"location":[44.3249431,6.0302046],"ct":"FR","tp":"CS","ts":"2020-09-08T07:09:50Z","tX":529,"tY":371,"tags":{"capacity":"30","landuse":"tourism","name":"Beauséjour","stars":"1"}},"458747079":{"location":[44.3234872,6.0847632],"ct":"FR","tp":"CS","ts":"2019-03-22T20:06:08Z","tX":529,"tY":371,"tags":{"capacity":"50","landuse":"tourism","name":"Le Clot du Jay","stars":"3","website":"https://www.clotdujay.com/","wheelchair":"no"}},"1883147707":{"location":[44.2729706,6.3059742],"ct":"FR","tp":"CS","ts":"2019-08-29T17:31:48Z","tX":529,"tY":371,"tags":{"name":"Les Pinées"}},"11052986905":{"location":[44.0965997,6.2443127],"ct":"FR","tp":"CR","ts":"2024-10-08T17:28:39Z","tX":529,"tY":371,"tags":{"capacity":"3","caravan_site":"motorhome_stopover","caravan_site:type":"parking_lot","fee":"no","name":"Parking de la Grande fontaine","power_supply":"no","sanitary_dump_station":"no","seasonal":"no","water_point":"no"}},"12115292958":{"location":[44.2935468,6.3171407],"ct":"FR","tp":"CR","ts":"2024-08-16T15:25:09Z","tX":529,"tY":371,"tags":{"caravan_site":"motorhome_stopover","caravan_site:type":"village","fee":"no","name":"Aire Camping-car d’Auzet","services:charge":"2 EUR","water_point":"yes","water_point:fee":"yes","website":"https://www.tourisme-alpes-haute-provence.com/hebergement/auzet/apidae-aire-de-service-et-de-stationnement-pour-camping-car-d-auzet-927969/"}},"12115319451":{"location":[44.0950086,6.0097562],"ct":"FR","tp":"CR","ts":"2024-08-16T15:46:25Z","tX":529,"tY":371,"tags":{"caravan_site":"motorhome_stopover","caravan_site:type":"village","fee":"no","name":"Aire de camping-car Chateau-Arnoux","sanitary_dump_station":"yes","seasonal":"no","water_point":"yes","website":"https://www.dignelesbains-tourisme.com/camping-aire-camping-car/aire-de-service-et-de-stationnement-de-camping-car-chateau-arnoux/"}},"4872192845":{"location":[44.2935069,6.3171686],"ct":"FR","tp":"SD","ts":"2017-05-23T13:47:38Z","tX":529,"tY":371,"tags":{"access":"yes","operator":"Commune"}},"5155371232":{"location":[44.1045041,6.0149912],"ct":"FR","tp":"SD","ts":"2017-10-08T14:51:23Z","tX":529,"tY":371,"tags":{"sanitary_dump_station:chemical_toilet":"yes"}},"5155371233":{"location":[44.1045287,6.0147458],"ct":"FR","tp":"SD","ts":"2017-10-08T14:51:24Z","tX":529,"tY":371,"tags":{"sanitary_dump_station:grey_water":"yes"}},"12114520926":{"location":[44.1533042,6.1497876],"ct":"FR","tp":"SD","ts":"2024-08-16T11:53:34Z","tX":529,"tY":371,"tags":{"access":"yes","fee":"no","website":"https://www.tourisme-alpes-haute-provence.com/hebergement/thoard/apidae-aire-de-service-et-de-stationnement-de-camping-car-de-thoard-5663088/"}}}