{"34378023":{"location":[43.7607068,6.1511454],"ct":"FR","tp":"CR","ts":"2024-09-28T14:11:01Z","tX":529,"tY":373,"tags":{"caravan_site":"motorhome_stopover","caravan_site:type":"mountains","caravans":"no","fee":"yes","maxstay":"48 hours","name":"Aire Communale de Sainte-Croix-du-Verdon","sanitary_dump_station":"yes","surface":"asphalt","tents":"no","water_point":"yes","water_point:fee":"yes"}},"91047564":{"location":[43.8126222,6.1006058],"ct":"FR","tp":"CS","ts":"2023-11-04T21:13:54Z","tX":529,"tY":373,"tags":{"capacity":"85","landuse":"tourism","name":"Rose de Provence","stars":"3","website":"https://rose-de-provence.com/"}},"175408746":{"location":[43.7471758,6.0985314],"ct":"FR","tp":"CS","ts":"2024-10-03T15:14:02Z","tX":529,"tY":373,"tags":{"barrier":"plan","capacity":"251","landuse":"tourism","motorhome":"yes","name":"Coteau de la Marine","restaurant":"yes","seasonal":"yes","stars":"4","static_caravans":"yes","swimming_pool":"yes","tent:rental":"yes","tents":"yes"}},"219025425":{"location":[43.6238027,6.2293318],"ct":"FR","tp":"CS","ts":"2023-02-11T15:10:29Z","tX":529,"tY":373,"tags":{"addr:city":"Aups","addr:housenumber":"181 Carraire N°1","addr:postcode":"83630","addr:street":"Route de Tourtour","fee":"yes","landuse":"tourism","name":"L'Oasis du Verdon","phone":"+33494700093","stars":"3","website":"www.oasis-verdon.com"}},"224523843":{"location":[43.7734012,6.1602817],"ct":"FR","tp":"CS","ts":"2019-07-09T18:51:04Z","tX":529,"tY":373,"tags":{"capacity":"191","email":"campinglesroux@wanadoo.fr","landuse":"tourism","name":"Camping Les Roux","phone":"+33 4 92 77 75 83","source":"website","stars":"2","website":"https://www.verdon-camping.com/"}},"232841446":{"location":[43.7712202,6.1472466],"ct":"FR","tp":"CS","ts":"2019-03-22T20:05:34Z","tX":529,"tY":373,"tags":{"capacity":"25","email":"jaubertnico@aol.com","landuse":"tourism","name":"Camping les Truffières","phone":"+33 4 92 77 87 91","source":"website+Bing","website":"http://campinglestruffieres.free.fr/"}},"242191325":{"location":[43.7963753,6.2447526],"ct":"FR","tp":"CS","ts":"2024-12-19T15:23:05Z","tX":529,"tY":373,"tags":{"addr:housenumber":"790","addr:street":"Route du Galetas","capacity":"350","caravans":"yes","email":"campinglegaletas@orange.fr","fee":"yes","landuse":"tourism","name":"Le Galetas","note":"Just one exit into the woods the whole camping is fenced (info for hikers)","opening_hours":"Apr-Oct","phone":"+33 4 94 70 20 48","shower":"yes","static_caravans":"no","tents":"yes","toilets":"yes","website":"https://www.lacs-gorges-verdon.fr/hebergement/campings/4449-le-galetas.html"}},"242287961":{"location":[43.828523,6.2236584],"ct":"FR","tp":"CS","ts":"2025-06-08T06:24:49Z","tX":529,"tY":373,"tags":{"access":"private","camp_site":"serviced","caravans":"yes","fee":"yes","landuse":"tourism","name":"Saint-Clair","operator":"Tikayan","payment:cash":"yes","payment:credit_cards":"yes","stars":"3","static_caravans":"yes","tents":"yes","website":"https://www.tikayan.com/fr/camping-saint-clair-accueil"}},"242587379":{"location":[43.6977813,6.0422129],"ct":"FR","tp":"CS","ts":"2023-06-06T19:35:32Z","tX":529,"tY":373,"tags":{"capacity":"200","internet_access":"wlan","internet_access:fee":"yes","landuse":"tourism","name":"Les Prés du Verdon","operator":"Tohapi","stars":"3"}},"265759458":{"location":[43.7214008,6.1854622],"ct":"FR","tp":"CS","ts":"2019-03-22T20:05:38Z","tX":529,"tY":373,"tags":{"fee":"yes","landuse":"tourism","name":"Camping Aux Vallons","phone":"+33 4 94 70 09 13","website":"http://www.auxvallons.com/"}},"296728061":{"location":[43.7413448,5.9795834],"ct":"FR","tp":"CS","ts":"2019-03-22T20:05:41Z","tX":529,"tY":373,"tags":{"landuse":"tourism","name":"Camping a la ferme Le Pigeonnier"}},"301157224":{"location":[43.7377231,5.9812185],"ct":"FR","tp":"CS","ts":"2023-11-10T10:03:16Z","tX":529,"tY":373,"tags":{"capacity":"51","internet_access":"yes","landuse":"tourism","name":"La Grangeonne","source":"survey","stars":"2","website":"https://www.camping-esparron.com/"}},"301226571":{"location":[43.7809931,6.2130588],"ct":"FR","tp":"CS","ts":"2024-12-19T15:23:05Z","tX":529,"tY":373,"tags":{"internet_access":"wlan","landuse":"tourism","name":"Camping Municipal des Ruisses","stars":"2","website":"https://campinglesruisses.fr/","wheelchair":"yes"}},"301396966":{"location":[43.7239866,6.182275],"ct":"FR","tp":"CS","ts":"2023-03-16T22:20:02Z","tX":529,"tY":373,"tags":{"caravans":"yes","landuse":"tourism","name":"Ranch de la Blache","phone":"+33 4 94 70 08 89","shower":"yes","tents":"yes","toilets":"yes"}},"301396967":{"location":[43.7231477,6.1812368],"ct":"FR","tp":"CS","ts":"2023-03-16T22:20:02Z","tX":529,"tY":373,"tags":{"alt_name":"Camping Municipal Notre-Dame","caravans":"yes","landuse":"tourism","name":"Notre-Dame","phone":"+33 4 94 70 08 67","shower":"yes","tents":"yes","toilets":"yes","website":"https://www.facebook.com/campingmunicipaldebauduen"}},"301396973":{"location":[43.7229511,6.1792111],"ct":"FR","tp":"CS","ts":"2023-03-16T22:20:02Z","tX":529,"tY":373,"tags":{"caravans":"yes","fax":"+33 9 57 32 35 05","landuse":"tourism","name":"Le Vieux Chêne","phone":"+33 4 94 70 09 08","shower":"yes","smoking":"isolated","stars":"3","tents":"yes","toilets":"yes","website":"https://www.campinglevieuxchene.com/","wheelchair":"yes"}},"302287292":{"location":[43.7159144,6.1917916],"ct":"FR","tp":"CS","ts":"2019-03-22T20:05:43Z","tX":529,"tY":373,"tags":{"landuse":"tourism","name":"Le Clos de Barbey","source":"Bing"}},"302318222":{"location":[43.777301,6.2456],"ct":"FR","tp":"CS","ts":"2023-10-10T11:49:20Z","tX":529,"tY":373,"tags":{"addr:housenumber":"51","addr:street":"Route du Verdon","caravans":"yes","email":"aigle@campasun.eu","fee":"yes","landuse":"tourism","name":"Camping de l'Aigle","phone":"+33 4 94 84 23 75","shower":"yes","stars":"3","static_caravans":"yes","tents":"yes","toilets":"yes","website":"https://www.campasun.eu/aigle/le-camping/"}},"303942674":{"location":[43.7642874,6.1474863],"ct":"FR","tp":"CR","ts":"2024-10-02T16:28:59Z","tX":529,"tY":373,"tags":{"caravan_site":"motorhome_stopover","caravan_site:type":"farm_shop","email":"contact@lamaisondulavandin.fr","fee":"no","name":"La Maison du Lavandin","network":"France Passion","phone":"+33 6 88 093871","product":"lavendar","website":"https://www.lamaisondulavandin.fr/"}},"338972400":{"location":[43.6909235,6.1081857],"ct":"FR","tp":"CS","ts":"2019-11-17T09:45:01Z","tX":529,"tY":373,"tags":{"addr:city":"Artignosc-sur-Verdon","addr:postcode":"83630","landuse":"tourism","name":"Camping L'Avelanède","phone":"+33 4 94 80 71 57","website":"https://www.camping-l-avelanede.com/"}},"357395909":{"location":[43.6598975,6.1521501],"ct":"FR","tp":"CS","ts":"2023-03-13T13:34:56Z","tX":529,"tY":373,"tags":{"addr:street":"Chemin du Haut des Faïsses","internet_access":"wlan","internet_access:fee":"yes","landuse":"tourism","name":"Les Lacs du Verdon","operator":"Homair","phone":"+33 4 94 70 17 95","stars":"4","website":"https://www.camping-lacs-du-verdon.com"}},"401484406":{"location":[43.7756806,6.208931],"ct":"FR","tp":"CS","ts":"2024-07-07T12:24:02Z","tX":529,"tY":373,"tags":{"addr:city":"Les Salles-sur-Verdon","addr:country":"FR","addr:postcode":"83630","caravans":"yes","contact:phone":"+33 4 98102380","contact:website":"http://www.campinglespins.com","drinking_water":"yes","landuse":"tourism","name":"Camping Les Pins","power_supply":"yes","shower":"yes","tents":"yes"}},"432959453":{"location":[43.7613012,6.154758],"ct":"FR","tp":"CS","ts":"2025-01-09T16:14:52Z","tX":529,"tY":373,"tags":{"addr:street":"Route du Bord du Lac","capacity":"193","caravans":"yes","drinking_water":"yes","fee":"yes","internet_access":"wlan","name":"Camping Municipal Les Roches","opening_hours":"Oct 10-Apr 31 off","operator":"Commune de Sainte-Croix-du-Verdon","phone":"+33 4 92 77 78 99","power_supply":"yes","sanitary_dump_station":"yes","shower":"yes","stars":"2","tents":"yes","toilets":"yes","website":"https://www.stecroixduverdon-tourisme.fr/campings/camping-municipal-les-roches/"}},"458347876":{"location":[43.7440305,5.9954581],"ct":"FR","tp":"CS","ts":"2019-03-22T20:06:01Z","tX":529,"tY":373,"tags":{"capacity":"60","landuse":"tourism","name":"La Beaume","stars":"3","website":"http://www.campinglabeaume.com"}},"458347877":{"location":[43.734429,6.0215507],"ct":"FR","tp":"CS","ts":"2023-11-10T10:03:21Z","tX":529,"tY":373,"tags":{"capacity":"55","landuse":"tourism","name":"Le Lavandin","stars":"3","website":"https://www.campinglavandin.com/"}},"458352931":{"location":[43.7700629,6.1568948],"ct":"FR","tp":"CS","ts":"2023-08-01T06:07:28Z","tX":529,"tY":373,"tags":{"capacity":"100","landuse":"tourism","name":"Le Poney Club","stars":"3","website":"http://www.camping-poney-stecroixduverdon.com"}},"458352932":{"location":[43.7332914,6.0795166],"ct":"FR","tp":"CS","ts":"2025-06-18T07:48:45Z","tX":529,"tY":373,"tags":{"capacity":"219","contact:phone":"+33 4 92 74 41 62","landuse":"tourism","name":"Camping La Farigoulette - Ciela Village - Verdon","opening_hours":"Mo-Su 09:00-19:00","operator":"Ciela Village","ref:FR:SIRET":"42284851500017","stars":"5","website":"https://camping-la-farigoulette-verdon.com/","wheelchair":"yes"}},"458355777":{"location":[43.8285597,6.2167585],"ct":"FR","tp":"CS","ts":"2023-05-06T18:14:58Z","tX":529,"tY":373,"tags":{"capacity":"25","caravans":"yes","drinking_water":"yes","landuse":"tourism","name":"Peyrengues","power_supply":"yes","shower":"yes","tents":"yes","toilets":"yes","wheelchair":"no"}},"458355778":{"location":[43.8185354,6.2253758],"ct":"FR","tp":"CS","ts":"2023-11-04T21:13:52Z","tX":529,"tY":373,"tags":{"capacity":"116","caravans":"yes","drinking_water":"yes","landuse":"tourism","name":"Camping Domaine du Petit Lac","opening_hours":"Sep 30-Apr 19 off","phone":"+33 4 92 74 67 11","power_supply":"yes","shower":"yes","stars":"2","tents":"yes","toilets":"yes","website":"https://www.lepetitlac.com/"}},"458355779":{"location":[43.8165787,6.2236176],"ct":"FR","tp":"CS","ts":"2025-06-16T15:01:42Z","tX":529,"tY":373,"tags":{"capacity":"150","caravans":"yes","drinking_water":"yes","landuse":"tourism","name":"Le Moulin","power_supply":"yes","sanitary_dump_station":"yes","shower":"yes","stars":"2","tents":"yes","toilets":"yes","website":"https://www.camping-le-moulin.com/"}},"458355781":{"location":[43.8082641,6.1816837],"ct":"FR","tp":"CS","ts":"2019-03-22T20:06:03Z","tX":529,"tY":373,"tags":{"landuse":"tourism","name":"La Chêneraie"}},"582540152":{"location":[43.623307,6.2171922],"ct":"FR","tp":"CS","ts":"2023-02-11T15:10:29Z","tX":529,"tY":373,"tags":{"addr:city":"Aups","addr:housenumber":"495","addr:postcode":"83630","addr:street":"Route de Fox-Amphoux","fee":"yes","internet_access":"wlan","internet_access:fee":"no","landuse":"tourism","name":"Camping International","operator":"CAMPASUN","phone":"+33 4 94 70 06 80","stars":"4","website":"https://www.campasun.eu/international/accueil"}},"583947711":{"location":[43.8219524,6.0923171],"ct":"FR","tp":"CR","ts":"2024-05-06T20:52:02Z","tX":529,"tY":373,"tags":{"caravan_site":"motorhome_stopover","caravan_site:type":"village","charge":"6.60 EUR","fee":"yes","name":"Aire de Camping-Car Riez","opening_hours":"Mar-Oct","sanitary_dump_station":"yes","water_point":"yes"}},"599464121":{"location":[43.7247502,6.0961407],"ct":"FR","tp":"CS","ts":"2025-05-19T08:38:42Z","tX":529,"tY":373,"tags":{"addr:city":"Artignosc-sur-Verdon","addr:housenumber":"1134","addr:postcode":"83630","addr:street":"Chemin de l'Eouvière","capacity":"199","fee":"yes","internet_access":"yes","landuse":"tourism","name":"Camping Municipal l'Eouviere Verte","operator":"Mairie Artignosc sur verdon","phone":"+33 4 94 80 71 06","stars":"2"}},"660181590":{"location":[43.7749284,6.2076359],"ct":"FR","tp":"CS","ts":"2022-09-16T06:24:38Z","tX":529,"tY":373,"tags":{"addr:city":"Les Salles-sur-Verdon","addr:postcode":"83630","contact:phone":"+33 4 94 70 20 40","contact:website":"http://www.camping-la-source.eu/","landuse":"tourism","name":"Camping La Source"}},"676381394":{"location":[43.7633924,6.220944],"ct":"FR","tp":"CS","ts":"2023-05-19T13:44:49Z","tX":529,"tY":373,"tags":{"addr:housenumber":"2404","addr:street":"Chemin de Chanteraine","caravans":"yes","email":"chanteraine@free.fr","fax":"+33 4 94 70 20 39","fee":"yes","landuse":"tourism","name":"Chanteraine","opening_hours":"Apr-Sept","phone":"+33 4 94 70 22 16","shower":"yes","stars":"3","static_caravans":"yes","tents":"yes","toilets":"yes","website":"http://www.camping-chanteraine.com/fr_FR/"}},"839805838":{"location":[43.636606,6.2082128],"ct":"FR","tp":"CS","ts":"2023-02-11T15:10:29Z","tX":529,"tY":373,"tags":{"addr:city":"Aups","addr:housenumber":"1124","addr:postcode":"83630","addr:street":"Route de Moissac","fee":"yes","name":"Camping Saint-Lazare","phone":"+33 4 94 70 12 86","source":"data.gouv.fr:DATAtourisme - 05/2020","stars":"3","website":"https://www.camping-stlazare-var.fr/accueil/accueil/"}},"958531540":{"location":[43.7749016,6.2844049],"ct":"FR","tp":"CS","ts":"2022-06-08T15:03:18Z","tX":529,"tY":373,"tags":{"name":"Camping de la ferme de la Graou","shower":"yes"}},"1091874019":{"location":[43.7425029,5.9997059],"ct":"FR","tp":"CS","ts":"2022-10-08T11:09:34Z","tX":529,"tY":373,"tags":{"fee":"yes","internet_access":"no","landuse":"tourism","name":"Le Grand Pré"}},"1127431953":{"location":[43.758396,6.1437792],"ct":"FR","tp":"CR","ts":"2024-10-02T16:28:59Z","tX":529,"tY":373,"tags":{"bbq":"no","capacity":"36","caravan_site":"motorhome_stopover","caravan_site:type":"countryside","caravans":"no","charge":"14.82 EUR","charge:conditional":"13.32 EUR @ (Oct-Apr)","dog":"leashed","fee":"yes","internet_access":"wlan","maxlength":"none","name":"Camping-car Park Sainte-Croix-du-Verdon, Panoramique","network":"CAMPING-CAR PARK","power_supply":"yes","power_supply:capacity":"38","power_supply:maxcurrent":"6","sanitary_dump_station":"yes","tents":"no","trailer":"no","website":"https://www.campingcarpark.com/fr_FR/sejour/aire-etape-camping-car/provence-alpes-cote-dazur/04-alpes-de-haute-provence/sainte-croix-du-verdon-castellas"}},"1140817800":{"location":[43.7629485,6.2191462],"ct":"FR","tp":"CS","ts":"2023-05-19T13:42:01Z","tX":529,"tY":373,"tags":{"addr:housenumber":"2579","addr:street":"Chemin de Chanteraine","caravans":"yes","email":"pierre@lesbastidesdechanteraine.fr","fee":"yes","name":"Les Bastides de Chanteraine","phone":"+33 682 85 03 23","shower":"yes","static_caravans":"yes","tents":"yes","toilets":"yes","website":"https://www.lesbastidesdechanteraine.com/"}},"1163116295":{"location":[43.7774961,6.2139596],"ct":"FR","tp":"CR","ts":"2024-10-04T09:49:25Z","tX":529,"tY":373,"tags":{"caravan_site":"motorhome_stopover","caravan_site:type":"lake","fee":"no","maxstay":"48 hours","name":"Commune Les Salles-sur-Verdon Aire de stationnement camping cars","surface":"gravel"}},"1288008263":{"location":[43.6449355,6.0644107],"ct":"FR","tp":"CR","ts":"2024-05-30T10:58:05Z","tX":529,"tY":373,"tags":{"capacity":"12","caravan_site":"motorhome_stopover","caravan_site:type":"village","charge":"11.30 EUR","fee":"yes","name":"Aire de camping-cars Montmeyan","power_supply":"yes","power_supply:capacity":"8","power_supply:maxcurrent":"16","sanitary_dump_station":"yes","water_point":"yes"}},"1319977596":{"location":[43.774733,6.2174933],"ct":"FR","tp":"CR","ts":"2025-04-10T15:05:15Z","tX":529,"tY":373,"tags":{"addr:city":"Les Salles-sur-Verdon","addr:postcode":"83630","capacity":"16","caravan_site":"motorhome_stopover","caravan_site:type":"supermarket;village","caravans":"no","charge":"10.50 EUR","charge:conditional":"7.50 EUR @ (Jun-Sep); 5.50 EUR @ (Oct-May)","dog":"yes","fee":"yes","name":"Aire de services Orapi Market","opening_hours":"24/7","power_supply":"yes","power_supply:charge":"4 EUR","power_supply:fee":"yes","power_supply:maxcurrent":"5","sanitary_dump_station":"yes","sanitary_dump_station:chemical_toilet":"yes","sanitary_dump_station:grey_water":"yes","seasonal":"no","shower":"yes","tents":"no","toilets":"yes","water_point":"yes","water_point:charge":"3.50 EUR","water_point:fee":"yes","website":"https://www.lacs-gorges-verdon.fr/hebergement/campings/5560-aire-de-services-orapi-market.html"}},"1347560837":{"location":[43.6491936,6.0611861],"ct":"FR","tp":"CS","ts":"2015-06-30T08:59:43Z","tX":529,"tY":373,"tags":{"contact:email":"raiola.loisirs@orange.fr","contact:phone":"+33 4 94 80 78 98","name":"Le Troumpetoun","operator":"Raiola Loisirs","stars":"2","website":"https://sites.google.com/site/campingmontmeyan/"}},"1347561743":{"location":[43.6386531,6.0607157],"ct":"FR","tp":"CS","ts":"2011-08-12T16:51:49Z","tX":529,"tY":373,"tags":{"name":"Les Eouvières"}},"3054445983":{"location":[43.7135537,6.1863161],"ct":"FR","tp":"CS","ts":"2014-10-11T08:25:35Z","tX":529,"tY":373,"tags":{"name":"Saint-Barthélémy"}},"4361651022":{"location":[43.7116204,6.1952442],"ct":"FR","tp":"CS","ts":"2024-03-22T07:39:37Z","tX":529,"tY":373,"tags":{"contact:city":"Bauduen","contact:phone":"+33 4 94 70 08 58","contact:postcode":"83630","contact:street":"Quartier Brun","name":"Camping Les Restanques Du Verdon","opening_hours":"Mo-Su 08:00-20:00","phone":"+33 4 94 70 08 58","website":"https://www.camping-gorge-verdon.com/"}},"7625047185":{"location":[43.7735607,6.1614648],"ct":"FR","tp":"CS","ts":"2020-06-16T07:46:21Z","tX":529,"tY":373,"tags":{"addr:street":"Route de Moustiers","internet_access":"wlan","name":"Camping Les Roux","phone":"+33 4 92 77 75 83"}},"10001389018":{"location":[43.7902554,6.2227459],"ct":"FR","tp":"CS","ts":"2024-12-19T15:23:05Z","tX":529,"tY":373,"tags":{"access":"customers","addr:housenumber":"2730","addr:street":"Route du Galetas","caravans":"yes","fee":"yes","name":"Camping à la Ferme du Maunard","static_caravans":"no","tents":"yes","website":"https://lacs-gorges-verdon.fr/"}},"10929112392":{"location":[43.7838421,6.2330367],"ct":"FR","tp":"CS","ts":"2023-05-26T13:28:33Z","tX":529,"tY":373,"tags":{"access":"customers","addr:housenumber":"270","addr:street":"Route de Chabassole","caravans":"yes","email":"patrice.garron@free.fr","fee":"yes","name":"Camping à la ferme Les Clos du Lac","phone":"+33 6 12 03 62 44","static_caravans":"no","tents":"yes"}},"4349684995":{"location":[43.7962861,6.2417961],"ct":"FR","tp":"CR","ts":"2024-10-04T09:48:36Z","tX":529,"tY":373,"tags":{"addr:city":"Aiguines","addr:postcode":"83630","addr:street":"Camping Le Galetas","caravan_site":"motorhome_stopover","caravan_site:type":"camp_site","charge":"10 EUR","fee":"yes","name":"Aire de camping-car Le Galetas","operator":"Mairie d'Aiguines, Camping Le Galetas","phone":"+33 4 94 70 20 48","power_supply":"no","sanitary_dump_station":"yes","website":"https://www.lacs-gorges-verdon.fr/hebergement/campings/4449-le-galetas.html"}},"4811311642":{"location":[43.6980022,6.0417754],"ct":"FR","tp":"SD","ts":"2017-04-23T11:11:36Z","tX":529,"tY":373,"tags":{"access":"customers","source":"survey"}},"5486578700":{"location":[43.6170131,6.2199498],"ct":"FR","tp":"SD","ts":"2023-02-10T22:17:56Z","tX":529,"tY":373,"tags":{"fee":"2 euro","sanitary_dump_station:chemical_toilet":"yes","sanitary_dump_station:grey_water":"yes","water_point":"yes"}},"10929052273":{"location":[43.7762729,6.2458765],"ct":"FR","tp":"SD","ts":"2023-05-30T13:17:34Z","tX":529,"tY":373,"tags":{"access":"customers","charge":"5 €","fee":"yes","name":"Borne Euro Relais - services","operator":"Campasun Camping de l'Aigle","phone":"+33 4 94 84 23 75"}},"11051002709":{"location":[43.7961725,6.2419662],"ct":"FR","tp":"SD","ts":"2023-07-17T12:35:08Z","tX":529,"tY":373,"tags":{"addr:city":"Aiguines","addr:postcode":"83630","addr:street":"Camping Le Galetas","fee":"yes","name":"Aire de camping-car Le Galetas","operator":"Mairie d'Aiguines, Camping Le Galetas","phone":"+33 4 94 70 20 48","power_supply":"no","sanitary_dump_station":"yes","water_point":"yes"}},"11884970169":{"location":[43.8218371,6.0918559],"ct":"FR","tp":"SD","ts":"2024-05-06T20:52:02Z","tX":529,"tY":373,"tags":{}},"12206971176":{"location":[43.7608315,6.1509423],"ct":"FR","tp":"SD","ts":"2024-09-28T14:11:01Z","tX":529,"tY":373,"tags":{"access":"yes","water_point":"yes","water_point:fee":"yes"}}}