{"130542137":{"location":[43.5657865,6.2262615],"ct":"FR","tp":"CS","ts":"2024-06-10T16:23:06Z","tX":529,"tY":374,"tags":{"addr:city":"Salernes","addr:country":"FR","addr:postcode":"83690","addr:street":"Rue des Sillans","caravans":"yes","email":"lesarnauds@ville-salernes.fr","fax":"+33 4 94 70 75 57","landuse":"tourism","name":"Ancien camping Les Arnauds","phone":"+33 4 94 67 51 95","stars":"4"}},"299528431":{"location":[43.5586214,6.2336552],"ct":"FR","tp":"CR","ts":"2024-10-03T22:04:27Z","tX":529,"tY":374,"tags":{"access":"yes","caravan_site":"motorhome_stopover","caravan_site:type":"village","dog":"yes","fee":"no","maxstay":"24 hours","name":"Aire Municipale Salernes","power_supply":"no","sanitary_dump_station":"yes","sanitary_dump_station:grey_water":"yes","seasonal":"no","supervised":"no","toilets":"no","water_point":"yes"}},"299738495":{"location":[43.5591769,6.2336562],"ct":"FR","tp":"SD","ts":"2018-05-17T11:15:45Z","tX":529,"tY":374,"tags":{"access":"yes","description":"note that the water is turned off in the winter; however there's a latch in the ground just north of the concrete area where you can switch it on","fee":"no","sanitary_dump_station:chemical_toilet":"yes","sanitary_dump_station:grey_water":"yes","water_point":"yes"}},"470343453":{"location":[43.4835288,6.0800282],"ct":"FR","tp":"CS","ts":"2024-10-23T10:05:09Z","tX":529,"tY":374,"tags":{"addr:city":"Correns","addr:postcode":"83570","addr:street":"Rue de la Condamine","capacity":"38","caravans":"no","drinking_water":"yes","fixme":"Vérifier la surface du terrain","internet_access":"wlan","landuse":"tourism","name":"Camping Le Grand Jardin","phone":"+33 6 17 83 48 21","power_supply":"yes","shower":"yes","tents":"yes","toilets":"yes","website":"https://www.campingdecorrens.com/","wheelchair":"yes"}},"493040010":{"location":[43.573532,6.1892641],"ct":"FR","tp":"CS","ts":"2021-04-26T20:56:05Z","tX":529,"tY":374,"tags":{"addr:city":"Sillans-la-Cascade","addr:housenumber":"15","addr:postcode":"83690","addr:street":"Rue de la Piscine","capacity":"80","internet_access":"wlan","landuse":"tourism","name":"Le Relais de la Bresque","operator":"SARL HP Camp's","phone":"+33 4 94 04 64 89","website":"https://www.lerelaisdelabresque.net/fr/"}},"496499578":{"location":[43.3379572,6.1259904],"ct":"FR","tp":"CS","ts":"2021-11-02T15:17:37Z","tX":529,"tY":374,"tags":{"barrier":"fence","email":"info@campinglavidaresse.com","landuse":"tourism","name":"Camping la Vidaresse","phone":"+33 4 94 72 21 75","website":"https://www.campinglavidaresse.com/"}},"564168036":{"location":[43.5181309,6.1469175],"ct":"FR","tp":"CS","ts":"2019-07-04T00:27:50Z","tX":529,"tY":374,"tags":{"landuse":"tourism","name":"Foyer de la Sainte-Famille","tents":"4"}},"570617063":{"location":[43.5545748,6.2869786],"ct":"FR","tp":"CS","ts":"2025-04-26T17:27:26Z","tX":529,"tY":374,"tags":{"bar":"yes","landuse":"tourism","name":"Camping Club Les Cadenières","phone":"+33 4 94 67 59 66","website":"https://www.camping-lescadenieres-var.com/"}},"610746517":{"location":[43.4064671,6.0785843],"ct":"FR","tp":"CS","ts":"2019-03-22T20:06:19Z","tX":529,"tY":374,"tags":{"landuse":"tourism","name":"Camping","source":"IGN BDORTHO 2018"}},"624362633":{"location":[43.5526946,6.2976256],"ct":"FR","tp":"CS","ts":"2025-04-26T17:27:26Z","tX":529,"tY":374,"tags":{"landuse":"tourism","name":"Camping Club Paradis Le Ruou","phone":"+33 4 94 70 67 70"}},"702284842":{"location":[43.3520964,6.1774207],"ct":"FR","tp":"CS","ts":"2019-07-07T18:31:43Z","tX":529,"tY":374,"tags":{"landuse":"tourism","name":"Camping du lac"}},"868026492":{"location":[43.3381119,6.1669081],"ct":"FR","tp":"CS","ts":"2020-11-07T14:45:10Z","tX":529,"tY":374,"tags":{}},"1148026110":{"location":[43.4501276,6.2994193],"ct":"FR","tp":"CR","ts":"2024-10-05T16:02:27Z","tX":529,"tY":374,"tags":{"capacity":"16","caravan_site":"motorhome_stopover","caravan_site:type":"village","caravans":"no","charge":"14.36 EUR","fee":"yes","motorhome":"designated","name":"Aire CAMPING-CAR PARK du Thoronet, L'Abbaye","network":"CAMPING-CAR PARK","opening_hours":"24/7","operator":"CAMPING-CAR PARK","power_supply":"yes","sanitary_dump_station":"yes","seasonal":"no","tents":"no","water_point":"yes","website":"https://www.campingcarpark.com/fr_FR/sejour/aire-etape-camping-car/provence-alpes-cote-dazur/83-var/le-thoronet"}},"1243859724":{"location":[43.441531,6.0739284],"ct":"FR","tp":"CR","ts":"2024-10-07T18:12:16Z","tX":529,"tY":374,"tags":{"bbq":"no","capacity":"20","caravan_site":"motorhome_stopover","caravan_site:type":"village","caravans":"no","charge":"12.65 EUR","dog":"leashed","fee":"yes","internet_access":"wlan","internet_access:fee":"no","maxlength":"none","name":"Camping-Car Park Le Val","network":"CAMPING-CAR PARK","opening_hours":"24/7","operator":"CAMPING-CAR PARK","power_supply":"yes","power_supply:capacity":"20","power_supply:fee":"no","power_supply:maxcurrent":"6","sanitary_dump_station":"yes","tents":"no","trailer":"yes","water_point":"yes","water_point:fee":"no"}},"1298525263":{"location":[43.432726,6.2263446],"ct":"FR","tp":"CR","ts":"2024-07-02T22:53:10Z","tX":529,"tY":374,"tags":{"bbq":"no","capacity":"12","caravan_site":"motorhome_stopover","caravan_site:type":"village","caravans":"no","charge":"14.86 EUR","charge:conditional":"12.86 EUR @ (Oct-Apr)","fee":"yes","maxlength":"none","name":"Aire Cabasse, L'Abbaye","network":"CAMPING-CAR PARK","power_supply":"yes","power_supply:capacity":"12","power_supply:maxcurrent":"6","sanitary_dump_station":"yes","tents":"no","trailer":"no","water_point":"yes","website":"https://www.campingcarpark.com/en_GB/stay/stopover-site-motorhome/provence-alpes-cote-dazur/83-var/cabasse"}},"4632581998":{"location":[43.4732694,6.1887906],"ct":"FR","tp":"CS","ts":"2017-01-25T17:44:17Z","tX":529,"tY":374,"tags":{"addr:city":"Carcès","addr:housenumber":"165","addr:postcode":"83570","addr:street":"Chemin de Fougières","capacity":"79","internet_access":"wlan","name":"Les Fouguières","website":"http://www.camping-les-fouguieres.com/"}},"6421856567":{"location":[43.5365263,6.1475731],"ct":"FR","tp":"CS","ts":"2024-06-10T16:23:06Z","tX":529,"tY":374,"tags":{"contact:email":"campingcotignac@orange.fr","contact:phone":"+334 94 04 71 91","maxtents":"35","name":"Les Pouverels","website":"https://www.visitvar.fr/fiche/camping-municipal-pouverels-4785353"}},"4588948050":{"location":[43.4228283,5.9908285],"ct":"FR","tp":"SD","ts":"2024-03-22T11:41:42Z","tX":529,"tY":374,"tags":{"access":"yes"}},"9576085313":{"location":[43.4233517,5.9933877],"ct":"FR","tp":"SD","ts":"2023-10-31T19:28:28Z","tX":529,"tY":374,"tags":{"access":"yes","name":"Borne Flot bleu"}},"11051881396":{"location":[43.3692682,6.2169193],"ct":"FR","tp":"SD","ts":"2023-07-18T10:01:20Z","tX":529,"tY":374,"tags":{}},"11051935189":{"location":[43.4502557,6.2995172],"ct":"FR","tp":"SD","ts":"2023-07-17T23:38:11Z","tX":529,"tY":374,"tags":{"sanitary_dump_station:basin":"yes","sanitary_dump_station:chemical_toilet":"yes","sanitary_dump_station:grey_water":"yes"}},"12339218915":{"location":[43.3361072,5.9794454],"ct":"FR","tp":"SD","ts":"2024-11-14T11:37:44Z","tX":529,"tY":374,"tags":{"fee":"yes"}}}