{"7670525":{"location":[43.081589,6.022791],"ct":"FR","tp":"CS","ts":"2017-12-03T20:04:32Z","tX":529,"tY":375,"tags":{"contact:email":"oursinieres@campeole.com","contact:phone":"+334 94 21 77 31","name":"Les Oursinières","stars":"3","website":"https://www.campeole.com/etablissement/post/les-oursinieres-le-pradet"}},"7670527":{"location":[43.0825171,6.0241235],"ct":"FR","tp":"CS","ts":"2020-09-08T18:17:54Z","tX":529,"tY":375,"tags":{"name":"La Figuière","stars":"2"}},"8680869":{"location":[43.0864457,6.0280365],"ct":"FR","tp":"CS","ts":"2018-09-11T20:21:52Z","tX":529,"tY":375,"tags":{"name":"Mauvalon I"}},"40295356":{"location":[43.1011908,6.1681222],"ct":"FR","tp":"CS","ts":"2024-05-20T10:21:36Z","tX":529,"tY":375,"tags":{"caravans":"yes","contact:phone":"+334 94 66 32 65","drinking_water":"yes","landuse":"tourism","name":"Domaine du Ceinturon III","shower":"yes","stars":"4","tents":"yes","toilets":"yes","url":"http://www.ceinturon3.fr/"}},"90614238":{"location":[43.1499304,6.2792362],"ct":"FR","tp":"CS","ts":"2023-05-23T09:00:16Z","tX":529,"tY":375,"tags":{"landuse":"tourism","name":"Camping Parc Valrose","website":"http://www.parcvalrose.com"}},"102841085":{"location":[43.1602922,6.1067516],"ct":"FR","tp":"CS","ts":"2023-10-31T07:44:08Z","tX":529,"tY":375,"tags":{"email":"mont.redon@wanadoo.fr","landuse":"tourism","name":"Camping Mont Redon","phone":"+33 4 94 66 74 08","stars":"3","website":"https://www.mont-redon.com/"}},"111763805":{"location":[43.0992006,6.0322292],"ct":"FR","tp":"CS","ts":"2023-05-05T16:43:52Z","tX":529,"tY":375,"tags":{"contact:email":"info@artaudois.fr","contact:phone":"+334 94 21 72 61","landuse":"tourism","name":"Camping Artaudois","stars":"3","website":"https://www.campingartaudois.com/"}},"116039469":{"location":[43.0999063,6.1677228],"ct":"FR","tp":"CS","ts":"2019-11-21T11:30:40Z","tX":529,"tY":375,"tags":{"contact:phone":"+334 94 66 30 54","landuse":"tourism","name":"Bernard","source":"Office de tourisme d'Hyères","stars":"2","website":"https://www.camping-bernard.com/"}},"116039470":{"location":[43.1032751,6.165661],"ct":"FR","tp":"CS","ts":"2020-08-12T18:28:37Z","tX":529,"tY":375,"tags":{"contact:email":"contact@camping-les-palmiers.fr","contact:phone":"+334 94 66 39 66","landuse":"tourism","name":"Les Palmiers","source":"cadastre-dgi-fr source : Direction Générale des Impôts - Cadastre. Mise à jour : 2011","stars":"4","website":"www.camping-les-palmiers.fr"}},"198196297":{"location":[43.0971785,6.161616],"ct":"FR","tp":"CS","ts":"2019-11-21T11:32:21Z","tX":529,"tY":375,"tags":{"addr:housenumber":"1633","addr:street":"Avenue de la Marine","caravans":"yes","email":"reception@lespinsmaritimes.fr","fax":"+33 4 94 66 33 57","internet_access":"wlan","landuse":"tourism","name":"Les Pins Maritimes","phone":"+33 4 94 66 34 07","stars":"4","tents":"yes","website":"https://www.provenceweb.fr/83/pinsmaritimes/index.htm"}},"198196341":{"location":[43.0991902,6.1658703],"ct":"FR","tp":"CS","ts":"2023-10-31T07:46:08Z","tX":529,"tY":375,"tags":{"email":"parc-plage@capfun.com","landuse":"tourism","name":"Parc et Plage","phone":"+33 4 94 66 31 77","source":"Office de tourisme d'Hyères","stars":"4","website":"https://www.parc-plage.com/"}},"199211442":{"location":[43.1184954,6.1860113],"ct":"FR","tp":"CS","ts":"2022-09-19T11:14:25Z","tX":529,"tY":375,"tags":{"contact:phone":"+334 94 66 41 21","landuse":"tourism","name":"Clos Rose Marie","stars":"4","website":"https://www.camping-rose-marie-hyeres.fr/"}},"199211449":{"location":[43.1194042,6.1837329],"ct":"FR","tp":"CS","ts":"2022-09-19T11:14:25Z","tX":529,"tY":375,"tags":{"contact:phone":"+334 94 66 41 17","landuse":"tourism","name":"Port Pothuau","stars":"4","website":"https://www.campingportpothuau.com/"}},"199211450":{"location":[43.1229458,6.1864526],"ct":"FR","tp":"CS","ts":"2019-11-21T11:28:47Z","tX":529,"tY":375,"tags":{"contact:email":"accueil@campingcapricorne.com","contact:phone":"+334 94 66 40 94","landuse":"tourism","name":"Le Capricorne","stars":"3","website":"http://www.campingcapricorne.com/"}},"199381841":{"location":[43.152144,6.1299032],"ct":"FR","tp":"CS","ts":"2022-02-13T15:57:09Z","tX":529,"tY":375,"tags":{"landuse":"tourism","name":"Le Vert Gapeau"}},"216945562":{"location":[43.084344,6.1245804],"ct":"FR","tp":"CS","ts":"2023-10-11T16:11:16Z","tX":529,"tY":375,"tags":{"landuse":"tourism","name":"Camping Saint-Pierre des Horts","source":"Office de tourisme d'Hyères","stars":"3"}},"216951345":{"location":[43.0898198,6.1283111],"ct":"FR","tp":"CR","ts":"2024-10-02T13:21:12Z","tX":529,"tY":375,"tags":{"capacity":"20","caravan_site":"motorhome_stopover","caravan_site:type":"beach","caravans":"designated","dog":"yes","fee":"yes","landuse":"tourism","motorhome":"designated","name":"Les Colonnes","opening_hours":"Jun 15-Sep 15 00:00-24:00","sanitary_dump_station":"yes","seasonal":"yes","source":"Office de tourisme d'hyères","water_point":"yes","website":"https://cotedazurfrance.fr/offres/camping-les-colonnes-hyeres-fr-2909166/"}},"216951346":{"location":[43.1146532,6.094392],"ct":"FR","tp":"CS","ts":"2020-08-20T13:48:37Z","tX":529,"tY":375,"tags":{"landuse":"tourism","name":"Camping Les Loubes","phone":"+33 6 67 45 49 57","source":"Office de tourisme d'Hyères","website":"http://campinglesloubes.free.fr/"}},"216951347":{"location":[43.1133656,6.095371],"ct":"FR","tp":"CS","ts":"2019-03-22T20:05:27Z","tX":529,"tY":375,"tags":{"landuse":"tourism","name":"Camping Belle de Mai","source":"Office de tourisme d'hyères"}},"216957346":{"location":[43.1195439,6.1606075],"ct":"FR","tp":"CS","ts":"2019-11-21T11:25:36Z","tX":529,"tY":375,"tags":{"contact:phone":"+334 94 38 37 74","landuse":"tourism","name":"Camping La Condamine","source":"Office de tourisme d'Hyères"}},"216957348":{"location":[43.1116084,6.1771743],"ct":"FR","tp":"CS","ts":"2023-09-02T12:03:44Z","tX":529,"tY":375,"tags":{"capacity":"70","caravans":"yes","contact:phone":"+334 94 66 43 25","landuse":"tourism","name":"Camping Les Fontêtes","tents":"yes"}},"216957349":{"location":[43.1261843,6.1704003],"ct":"FR","tp":"CS","ts":"2019-03-22T20:05:28Z","tX":529,"tY":375,"tags":{"landuse":"tourism","name":"Camping Les Rives du Gapeau","source":"Office de tourisme d'Hyères"}},"216957350":{"location":[43.1147353,6.1750917],"ct":"FR","tp":"CS","ts":"2019-11-21T11:23:38Z","tX":529,"tY":375,"tags":{"capacity":"30","contact:phone":"+334 94 38 81 69","landuse":"tourism","name":"Camping Le vieux Pressoir","source":"Office de tourisme d'Hyères"}},"216957351":{"location":[43.1105567,6.1796057],"ct":"FR","tp":"CS","ts":"2019-11-21T11:19:30Z","tX":529,"tY":375,"tags":{"caravans":"yes","contact:phone":"+334 94 66 42 23","landuse":"tourism","name":"Camping Les Joseph","source":"Office de tourisme d'h'Hyères","tents":"yes","website":"http://www.camping-les-joseph.fr/"}},"216972828":{"location":[43.0929452,6.1364704],"ct":"FR","tp":"CS","ts":"2020-08-22T17:31:41Z","tX":529,"tY":375,"tags":{"contact:phone":"+334 94 38 58 36","landuse":"tourism","name":"Camping Mare Sole","source":"Office de tourisme d'hyères"}},"216972829":{"location":[43.0928806,6.1383272],"ct":"FR","tp":"CS","ts":"2019-11-21T11:34:07Z","tX":529,"tY":375,"tags":{"contact:phone":"+334 94 38 95 94","landuse":"tourism","name":"Camping les Peupliers","source":"Office de tourisme d'Hyères","website":"http://trash3759.free.fr/"}},"233410669":{"location":[43.1135592,6.0578712],"ct":"FR","tp":"CS","ts":"2021-12-15T19:38:52Z","tX":529,"tY":375,"tags":{"addr:city":"Carqueiranne","addr:housenumber":"750","addr:postcode":"83320","addr:street":"route de la Moutonne","contact:facebook":"https://www.facebook.com/campingbeauveze/","email":"info@camping-beauveze.com","landuse":"tourism","name":"Le BeauVezé","phone":"+33 4 94 57 65 30","stars":"4","website":"http://www.camping-beauveze.com/"}},"262116395":{"location":[43.1633238,6.3211457],"ct":"FR","tp":"CS","ts":"2022-04-11T20:52:49Z","tX":529,"tY":375,"tags":{"caravans":"yes","drinking_water":"yes","internet_access":"wlan","internet_access:fee":"yes","landuse":"tourism","name":"Manjastre","permanent_camping":"yes","shower":"hot","swimming_pool":"yes","tents":"yes","toilets":"yes","washing_machine":"yes","website":"https://campingmanjastre.com/"}},"285734782":{"location":[43.1068966,6.0433471],"ct":"FR","tp":"CS","ts":"2020-08-03T21:01:16Z","tX":529,"tY":375,"tags":{"email":"info@campingloupantai.com","fax":"+33 4 94 21 00 32","landuse":"tourism","name":"Camping Lou Pantai","phone":"+33 4 94 75 10 77","website":"http://www.campingloupantai.com/"}},"304674054":{"location":[43.1259893,6.2062257],"ct":"FR","tp":"CS","ts":"2019-03-22T20:05:45Z","tX":529,"tY":375,"tags":{"landuse":"tourism"}},"306159113":{"location":[43.2350615,6.1642627],"ct":"FR","tp":"CS","ts":"2023-09-26T19:52:15Z","tX":529,"tY":375,"tags":{"email":"camping.ledeffends@free.fr","internet_access":"wlan","landuse":"tourism","name":"Le Defends","phone":"+33 4 94 28 20 62","stars":"2","website":"http://www.camping-le-deffends.com","wheelchair":"yes"}},"332837263":{"location":[43.0873454,6.0286347],"ct":"FR","tp":"CS","ts":"2019-03-22T20:05:47Z","tX":529,"tY":375,"tags":{"landuse":"tourism","name":"Mauvalon II"}},"426154918":{"location":[43.1570996,6.306873],"ct":"FR","tp":"CS","ts":"2023-10-31T07:45:02Z","tX":529,"tY":375,"tags":{"contact:email":"info@fermedesjanets.fr","contact:phone":"+334 94 71 45 11","landuse":"tourism","name":"La Ferme des Janets","website":"https://www.camping-les-janets.fr/"}},"428728640":{"location":[43.1154717,6.236096],"ct":"FR","tp":"CS","ts":"2024-10-08T18:09:55Z","tX":529,"tY":375,"tags":{"access":"customers","addr:city":"La Londe-les-Maures","addr:postcode":"83250","addr:street":"Chemin Des Moulieres","ele":"5","internet_access":"wlan","landuse":"tourism","name":"Camping Le Pansard","phone":"+33 494 66 83 22","seasonal":"spring;summer","stars":"4","tents":"yes","website":"https://www.camping-pansard.com/"}},"463721875":{"location":[43.2375254,6.316619],"ct":"FR","tp":"CR","ts":"2024-05-07T15:36:05Z","tX":529,"tY":375,"tags":{"caravan_site":"motorhome_stopover","caravan_site:type":"river","drinking_water":"no","fee":"no","internet_access":"no","name":"Aire de camping Cars \"Aigo Fre\"","operator":"Mairie de Collobrières","power_supply":"no","sanitary_dump_station":"no","surface":"grass"}},"527572446":{"location":[43.138179,6.3202245],"ct":"FR","tp":"CS","ts":"2025-03-27T13:20:02Z","tX":529,"tY":375,"tags":{"addr:housenumber":"1042","addr:postcode":"83220","addr:street":"chemin du niel","camp_site":"camping","landuse":"tourism","name":"Vacances André Trigano - Le Parc de Bormes","operator":"Vacances André Trigano","source":"survey 2017-09"}},"544366953":{"location":[43.1085498,6.0493789],"ct":"FR","tp":"CS","ts":"2019-03-22T20:06:15Z","tX":529,"tY":375,"tags":{"contact:email":"info@location-palmiers.com","contact:phone":"+334 94 58 64 01","landuse":"tourism","name":"Les Palmiers","website":"https://www.camping-mobilhome-carqueiranne.fr/"}},"544367759":{"location":[43.1037223,6.0158095],"ct":"FR","tp":"CS","ts":"2023-10-31T07:43:45Z","tX":529,"tY":375,"tags":{"contact:email":"contact@camping-hermitage.com","contact:phone":"+334 94 21 78 19","landuse":"tourism","name":"L'hermitage","opening_hours":"Mo-Su 09:00-12:30,14:00-19:00","stars":"3","website":"https://camping-hermitage.com/"}},"544368966":{"location":[43.1051356,6.0086142],"ct":"FR","tp":"CS","ts":"2019-03-22T20:06:15Z","tX":529,"tY":375,"tags":{"contact:phone":"+336 03 38 71 92","landuse":"tourism","name":"Camping du Pin de Galle","stars":"2","website":"http://campingdupindegalle.com"}},"588983241":{"location":[43.1319039,6.2307392],"ct":"FR","tp":"CR","ts":"2024-10-08T19:38:54Z","tX":529,"tY":375,"tags":{"capacity":"4","caravan_site":"motorhome_stopover","caravan_site:type":"parking_lot","drinking_water":"yes","fee":"no","name":"La Londe-les-Maures Aire pour camping-cars Avenue Henri Matisse","seasonal":"no","service:charge":"EUR 3","service:fee":"yes"}},"595153162":{"location":[43.2319096,6.007803],"ct":"FR","tp":"CS","ts":"2023-05-29T16:16:22Z","tX":529,"tY":375,"tags":{"landuse":"tourism","name":"Les Tomasses"}},"595580194":{"location":[43.1861704,6.0617361],"ct":"FR","tp":"CS","ts":"2019-03-22T20:06:18Z","tX":529,"tY":375,"tags":{"landuse":"tourism"}},"595580196":{"location":[43.1856864,6.0646489],"ct":"FR","tp":"CS","ts":"2020-10-25T09:53:43Z","tX":529,"tY":375,"tags":{"landuse":"tourism","name":"Camping à la ferme"}},"659716266":{"location":[43.1186496,6.245347],"ct":"FR","tp":"CS","ts":"2024-04-06T10:47:17Z","tX":529,"tY":375,"tags":{"caravans":"no","landuse":"tourism","name":"Miramar","tents":"no","url":"http://www.campingmiramar.com/"}},"660488591":{"location":[43.1212026,6.2350266],"ct":"FR","tp":"CS","ts":"2024-10-08T18:09:15Z","tX":529,"tY":375,"tags":{"fee":"yes","landuse":"tourism","name":"Les Moulieres","phone":"+33 4 94 01 53 21","seasonal":"spring;summer","stars":"4","website":"https://www.campinglesmoulieres.com/"}},"661711592":{"location":[43.1313552,6.2166448],"ct":"FR","tp":"CS","ts":"2020-08-23T07:57:38Z","tX":529,"tY":375,"tags":{"caravans":"yes","name":"Les Jardins de La Pascalinette","source":"data.gouv.fr:DATAtourisme - 05/2020","stars":"4","tents":"yes","website":"https://www.lapascalinette.fr"}},"701009180":{"location":[43.1290383,6.241489],"ct":"FR","tp":"CS","ts":"2020-07-26T09:32:02Z","tX":529,"tY":375,"tags":{"name":"La Brulade"}},"839810201":{"location":[43.3163924,6.0963145],"ct":"FR","tp":"CS","ts":"2020-08-23T08:02:58Z","tX":529,"tY":375,"tags":{"name":"Camping Soleiluna","source":"data.gouv.fr:DATAtourisme - 05/2020"}},"1083195214":{"location":[43.1714285,6.0921129],"ct":"FR","tp":"CS","ts":"2023-05-30T19:29:53Z","tX":529,"tY":375,"tags":{"name":"Le Pinédou"}},"1173997563":{"location":[43.1498668,6.2629179],"ct":"FR","tp":"CS","ts":"2023-05-18T15:18:18Z","tX":529,"tY":375,"tags":{"contact:website":"https://camping-lapabourette.com/","name":"Camping La Pabourette"}},"1204232480":{"location":[43.1209457,6.1848346],"ct":"FR","tp":"CS","ts":"2023-09-01T16:32:51Z","tX":529,"tY":375,"tags":{"landuse":"tourism"}},"1300885014":{"location":[43.1113856,6.1714692],"ct":"FR","tp":"CS","ts":"2024-07-12T10:04:14Z","tX":529,"tY":375,"tags":{"name":"SCI Oasis"}},"1304400167":{"location":[43.2331194,6.0012532],"ct":"FR","tp":"CS","ts":"2024-07-29T08:13:33Z","tX":529,"tY":375,"tags":{"access":"customers","addr:city":"Belgentier","addr:housenumber":"5","addr:postcode":"83210","addr:street":"chemin de l'Escride","caravans":"yes","description":"Havre de tranquillité au cœur de la pinède Varoise, à 20Km de Toulon avec 3 plages naturistes aux alentours","fee":"yes","name":"Domaine de l'Escride","nudism":"yes","phone":"+33 4 94 48 97 24","static_caravans":"yes","tents":"yes","website":"https://domainedelescride.fr"}},"4739310122":{"location":[43.1140588,6.002772],"ct":"FR","tp":"CS","ts":"2017-03-17T07:29:52Z","tX":529,"tY":375,"tags":{"name":"Good camping spot (free)"}},"4589626393":{"location":[43.2371123,6.3025184],"ct":"FR","tp":"CR","ts":"2024-05-30T11:36:33Z","tX":529,"tY":375,"tags":{"capacity":"20","caravan_site":"motorhome_stopover","caravan_site:type":"parking_lot","check_date":"2023-01-22","fee":"no","name":"Parking Notre-Dame Collobrières","power_supply":"no","sanitary_dump_station":"yes"}},"5624516626":{"location":[43.1318924,6.2308523],"ct":"FR","tp":"SD","ts":"2018-05-17T12:48:08Z","tX":529,"tY":375,"tags":{"access":"yes","fee":"yes","sanitary_dump_station:chemical_toilet":"yes","sanitary_dump_station:grey_water":"yes","water_point":"yes"}},"8971588021":{"location":[43.2931344,6.1356163],"ct":"FR","tp":"SD","ts":"2021-08-01T09:40:03Z","tX":529,"tY":375,"tags":{"charge":"2€","fee":"yes","payment:credit_cards":"yes","water_point":"yes"}},"11944794356":{"location":[43.2371654,6.3026978],"ct":"FR","tp":"SD","ts":"2024-05-30T11:36:33Z","tX":529,"tY":375,"tags":{"access":"yes"}}}