{"13346894":{"location":[43.0407099,6.1283685],"ct":"FR","tp":"CS","ts":"2021-10-20T16:13:35Z","tX":529,"tY":376,"tags":{"landuse":"tourism","name":"Camping International","stars":"4","website":"https://www.international-giens.com/"}},"13346897":{"location":[43.0392273,6.1258523],"ct":"FR","tp":"CS","ts":"2024-02-17T21:23:15Z","tX":529,"tY":376,"tags":{"addr:city":"Hyères","addr:housenumber":"27","addr:postcode":"83400","addr:street":"Avenue du Clair de Lune","contact:email":"camping@clairdelune-giens.com","contact:facebook":"https://fr-fr.facebook.com/campingclairdelune/","dog":"no","email":"contact@campingclairdelune.com","name":"Clair de lune","phone":"+33 4 94 58 20 19","stars":"4","website":"https://www.campingclairdelune.fr/"}},"14043574":{"location":[43.0397803,6.1432092],"ct":"FR","tp":"CS","ts":"2022-04-15T19:36:30Z","tX":529,"tY":376,"tags":{"addr:city":"Giens, Hyères","addr:country":"FR","addr:housenumber":"153","addr:postcode":"83400","addr:street":"Route de la Madrague","caravans":"yes","name":"Presqu'Île de Giens","opening_hours":"Apr-Oct 08:00-20:00","operator":"S.A. ELC","phone":"+33 4 94 58 22 86","stars":"4","swimming_pool":"yes","tents":"yes","url":"http://www.camping-giens.com","wheelchair":"yes"}},"366355118":{"location":[43.039321,6.146129],"ct":"FR","tp":"CS","ts":"2019-03-22T20:05:51Z","tX":529,"tY":376,"tags":{"landuse":"tourism","name":"Camping l'île d'Or"}},"612400697":{"location":[43.0287018,6.1509121],"ct":"FR","tp":"CS","ts":"2020-07-27T07:51:06Z","tX":529,"tY":376,"tags":{"caravans":"yes","fee":"yes","internet_access":"wlan","internet_access:fee":"no","landuse":"tourism","name":"Camping le Pradeau","note":"A la ferme","tents":"yes"}},"633439092":{"location":[43.0292623,6.1567521],"ct":"FR","tp":"CS","ts":"2025-06-01T20:18:16Z","tX":529,"tY":376,"tags":{"access":"yes","addr:city":"Hyères","addr:postcode":"83400","addr:street":"Avenue des Arbanais","capacity":"135","fee":"yes","internet_access:fee":"yes","landuse":"tourism","name":"Camping La Tour de Fondue","phone":"+33494582359","website":"https://www.camping-latourfondue.com/"}},"730448982":{"location":[43.0384373,6.147497],"ct":"FR","tp":"CS","ts":"2024-05-29T13:31:40Z","tX":529,"tY":376,"tags":{"addr:city":"Hyères","addr:country":"FR","addr:housenumber":"268","addr:place":"Plage de la Badine Giens","addr:postcode":"83400","addr:street":"Boulevard d'Alsace-Lorraine","capacity":"90","caravans":"yes","fee":"yes","internet_access":"wlan","name":"GCU Giens la Badine","operator":"Groupement des Campeurs Universitaires","phone":"+33 4 94 58 94 50","stars":"2","static_caravans":"yes","tents":"yes","website":"https://www.gcu.asso.fr/","wheelchair":"limited"}},"1017107250":{"location":[43.0539976,6.148077],"ct":"FR","tp":"CS","ts":"2025-06-04T07:22:58Z","tX":529,"tY":376,"tags":{"access":"customers","addr:city":"Hyères","addr:housenumber":"2947","addr:postcode":"83400","addr:street":"Route de Giens","dog":"yes","email":"contact@salines-giens.com","fee":"yes","internet_access":"yes","name":"Salines - Collection Rivages","operator":"Collection Rivages","payment:cash":"yes","payment:credit_cards":"yes","payment:notes":"yes","payment:visa":"yes","phone":"04 28 01 39 71","reservation":"recommended","source":"survey;local knowledge","stars":"4","static_caravans":"yes","website":"https://www.salines-giens.com/fr"}},"1183491852":{"location":[43.0380482,6.1482912],"ct":"FR","tp":"CS","ts":"2024-02-18T07:08:40Z","tX":529,"tY":376,"tags":{"addr:city":"Hyères","addr:housenumber":"354","addr:postcode":"83400","addr:street":"Boulevard d'Alsace-Lorraine","name":"Camping Tikayan Le Méditerranée","static_caravans":"yes","website":"https://www.camping-lemed.fr/"}},"1251777534":{"location":[43.039296,6.1037149],"ct":"FR","tp":"CS","ts":"2024-02-17T21:23:15Z","tX":529,"tY":376,"tags":{"addr:city":"La Madrague, Hyeres","addr:housenumber":"545","addr:postcode":"83400","addr:street":"Avenue René de Knyff","caravans":"yes","drinking_water":"yes","email":"info@camping-olbia.com","group_only":"no","internet_access":"wlan","internet_access:fee":"yes","internet_access:ssid":"Olbia","name":"Camping Olbia","phone":"+33494582196","shower":"hot","tents":"yes","toilets":"yes","url":"http://www.camping-olbia.com"}},"1251788406":{"location":[43.0397165,6.1087666],"ct":"FR","tp":"CS","ts":"2024-06-10T05:03:59Z","tX":529,"tY":376,"tags":{"caravans":"yes","name":"Camping-Caravaning La Madrague","tents":"yes"}},"1251927007":{"location":[43.0399821,6.1464308],"ct":"FR","tp":"CS","ts":"2024-02-18T07:08:40Z","tX":529,"tY":376,"tags":{"name":"Les Roseaux","note:de":"Teil von dem Campingplatz \"Presqu’ile de Giens\""}},"1760450409":{"location":[43.0444426,6.1462983],"ct":"FR","tp":"CS","ts":"2025-02-20T08:31:23Z","tX":529,"tY":376,"tags":{"caravans":"yes","drinking_water":"yes","name":"La Bergerie","shower":"yes","tents":"yes"}},"5964527433":{"location":[43.0295696,6.15584],"ct":"FR","tp":"SD","ts":"2018-10-12T17:32:17Z","tX":529,"tY":376,"tags":{"name":"Camping La Tour Fondue"}},"5979467722":{"location":[43.0291272,6.1564568],"ct":"FR","tp":"SD","ts":"2018-10-12T17:35:46Z","tX":529,"tY":376,"tags":{"access":"customers","fee":"no","operator":"Camping La Tour Fondue","water_point":"no"}},"12444526546":{"location":[43.0560783,6.1479933],"ct":"FR","tp":"CS","ts":"2024-12-23T15:54:07Z","tX":529,"tY":376,"tags":{"access":"customers","addr:city":"Hyères","addr:housenumber":"2947","addr:postcode":"83400","addr:street":"Route de Giens","description":"Bienvenue à Salines à Hyères, hôtel de plein air 4 étoiles Collection Rivages. Vivez des vacances au cœur de la nature sur la Côte d’Azur, face aux îles d’Or. Ici, tout est conçu pour vous offrir ressourcement et sérénité dans un cadre naturel exceptionne","dog":"yes","email":"contact@salines-giens.com","fee":"yes","image":"https://www.salines-giens.com/fr/le-village","internet_access":"yes","name":"Salines - Collection Rivages","operator":"Collection Rivages","payment:credit_cards":"yes","payment:notes":"yes","payment:visa":"yes","phone":"04 28 01 39 71","reservation":"recommended","stars":"4","static_caravans":"yes","website":"https://www.salines-giens.com/fr"}}}