{"4990079532":{"location":[36.8643732,6.0686004],"ct":"DZ","tp":"CS","ts":"2017-07-24T13:22:35Z","tX":529,"tY":399,"tags":{"name":"شاطئ صخر البلح","name:ar":"شاطئ صخر البلح","name:en":"bitch rochr de moules","name:fr":"plage rocher de moules"}},"4990134123":{"location":[36.8682088,6.0771514],"ct":"DZ","tp":"CS","ts":"2024-07-16T20:29:15Z","tX":529,"tY":399,"tags":{"name":"شاطئ الجناح","name:ar":"شاطئ الجناح","name:fr":"Plage El Djnah"}},"6757973185":{"location":[36.8478661,6.2333594],"ct":"DZ","tp":"CS","ts":"2020-11-19T02:15:19Z","tX":529,"tY":399,"tags":{"name":"الى البحر","name:ar":"الى البحر","name:fr":"Rend poind"}},"8860949050":{"location":[36.837099,5.9865537],"ct":"DZ","tp":"CS","ts":"2023-09-05T16:21:59Z","tX":529,"tY":399,"tags":{"is_in:country":"Algeria الجزائر","is_in:country_code":"DZ","is_in:state":"Jijel جيجل","name":"Camps de toile el kennar (FOSC - SONELGAZ) مخيم القنار فوسك سونلغاز","name:ar":"مخيم القنار فوسك سونلغاز","name:en":"Canvas camps el kennar (FOSC - SONELGAZ)","name:fr":"Camps de toile el kennar (FOSC - SONELGAZ)"}},"8860999505":{"location":[36.8373856,5.9881121],"ct":"DZ","tp":"CS","ts":"2024-07-16T20:29:15Z","tX":529,"tY":399,"tags":{"is_in:country":"Algeria الجزائر","is_in:country_code":"DZ","is_in:state":"Jijel جيجل","name":"Camping de toile el kennar 1 (FOSC - SONELGAZ) مخيم القنار 1 فوسك سونلغاز","name:ar":"مخيم القنار 1 فوسك سونلغاز","name:en":"Canvas camps el kennar 1 (FOSC - SONELGAZ)","name:fr":"Camps de toile el kennar 1 (FOSC - SONELGAZ)"}},"8870455874":{"location":[36.8360498,5.981827],"ct":"DZ","tp":"CS","ts":"2024-07-16T20:29:15Z","tX":529,"tY":399,"tags":{"name":"Camping familial مخيم عائلي"}},"8870455931":{"location":[36.8366901,5.9850222],"ct":"DZ","tp":"CS","ts":"2024-07-16T20:29:15Z","tX":529,"tY":399,"tags":{"name":"Camping familial Mazair مخيم عائلي المزاير"}}}