{"456547935":{"location":[35.1952559,-101.7733276],"ct":"US","tp":"CR","ts":"2016-11-29T08:53:36Z","tX":222,"tY":404,"tags":{"name":"Amarillo Ranch RV Park","tents":"yes","website":"https://www.amarilloranch.com/"}},"471892078":{"location":[35.1960821,-101.744049],"ct":"US","tp":"CR","ts":"2023-10-18T23:29:30Z","tX":222,"tY":404,"tags":{"addr:city":"Amarillo","addr:housenumber":"900","addr:postcode":"79118","addr:state":"TX","addr:street":"South Lakeside Drive","name":"Overnite RV Park","phone":"+1 806 373 1431","website":"https://www.overnitervpark.com/"}},"769881734":{"location":[35.235245,-101.832695],"ct":"US","tp":"CR","ts":"2025-01-31T10:43:48Z","tX":222,"tY":404,"tags":{"addr:city":"Amarillo","addr:housenumber":"2001","addr:postcode":"79107","addr:state":"TX","addr:street":"Dumas Drive","name":"Northwest Park"}},"1060177701":{"location":[35.2247242,-101.7228104],"ct":"US","tp":"CR","ts":"2025-05-16T21:38:42Z","tX":222,"tY":404,"tags":{"addr:city":"Amarillo","addr:housenumber":"1100","addr:postcode":"79108","addr:state":"TX","addr:street":"Folsom Road","brand":"KOA","brand:wikidata":"Q16988635","email":"amarillokoajourney@gmail.com","internet_access":"wlan","name":"KOA Journey","phone":"+1-806-335-1792","power_supply":"yes","short_name":"KOA","website":"https://koa.com/campgrounds/amarillo/"}},"1319634913":{"location":[35.2067346,-101.6701834],"ct":"US","tp":"CR","ts":"2025-06-23T02:22:04Z","tX":222,"tY":404,"tags":{"addr:city":"Amarillo","addr:housenumber":"901","addr:postcode":"79111","addr:state":"TX","addr:street":"Jackrabbit Road","name":"AOK Camper Park","phone":"+18063352677","power_supply":"yes","sanitary_dump_station":"yes"}},"12945735963":{"location":[35.2069936,-101.6712092],"ct":"US","tp":"CR","ts":"2025-06-23T02:22:04Z","tX":222,"tY":404,"tags":{"addr:city":"Amarillo","addr:housenumber":"901","addr:postcode":"79111","addr:state":"TX","addr:street":"Jackrabbit Road","name":"AOK Camper Park","power_supply":"yes","sanitary_dump_station":"yes"}}}