{"1068350812":{"location":[34.2233509,-101.718214],"ct":"US","tp":"CR","ts":"2023-03-06T17:23:58Z","tX":222,"tY":408,"tags":{"addr:city":"Plainview","addr:housenumber":"4018","addr:postcode":"79072","addr:state":"TX","addr:street":"North Interstate 27","name":"The Hitchin' Post RV Park & Cabins"}},"1109579216":{"location":[34.1828774,-101.6737607],"ct":"US","tp":"CR","ts":"2022-11-02T11:26:18Z","tX":222,"tY":408,"tags":{"name":"Shady Lane RV Park"}},"1116183696":{"location":[34.0572819,-101.8434975],"ct":"US","tp":"CR","ts":"2022-11-22T06:16:10Z","tX":222,"tY":408,"tags":{"addr:city":"Hale Center","addr:housenumber":"1851","addr:postcode":"79041","addr:state":"TX","addr:street":"East Service Road","name":"Country Hamlet"}},"1116190908":{"location":[34.1508427,-101.7241424],"ct":"US","tp":"CR","ts":"2022-11-22T07:00:00Z","tX":222,"tY":408,"tags":{"addr:city":"Plainview","addr:housenumber":"4000","addr:postcode":"79072","addr:state":"TX","addr:street":"South Business I-27","name":"Country Village Mobile Home Community"}},"1120911349":{"location":[34.1447208,-101.7297066],"ct":"US","tp":"CR","ts":"2022-12-11T02:07:37Z","tX":222,"tY":408,"tags":{"addr:city":"Plainview","addr:housenumber":"4600","addr:postcode":"79072","addr:state":"TX","addr:street":"South Business I-27","name":"Parkland Mobile Home Park"}}}