{"470089807":{"location":[33.5607342,-101.9462614],"ct":"US","tp":"CR","ts":"2022-09-14T02:08:27Z","tX":222,"tY":410,"tags":{"addr:city":"Lubbock","addr:housenumber":"6001","addr:postcode":"79407","addr:state":"TX","addr:street":"34th Street","name":"Camelot Village Mobile Home Park"}},"679176993":{"location":[33.4422646,-101.6596301],"ct":"US","tp":"CR","ts":"2019-07-27T23:00:42Z","tX":222,"tY":410,"tags":{"addr:city":"Slaton","addr:housenumber":"605","addr:postcode":"79364","addr:state":"TX","addr:street":"North 20th Street","name":"Slaton Mobile Home Park"}},"680628819":{"location":[33.4475752,-101.6643026],"ct":"US","tp":"CR","ts":"2019-07-27T22:49:00Z","tX":222,"tY":410,"tags":{"addr:city":"Slaton","addr:housenumber":"1202","addr:postcode":"79364","addr:state":"TX","addr:street":"North Highway 84","name":"Twin Pine RV Park"}},"696816187":{"location":[33.6408501,-101.8334787],"ct":"US","tp":"CR","ts":"2019-07-30T23:52:22Z","tX":222,"tY":410,"tags":{"addr:city":"Lubbock","addr:housenumber":"100","addr:postcode":"79403","addr:state":"TX","addr:street":"East Purdue Street","name":"Skyview RV Park"}},"708704034":{"location":[33.6371868,-101.9318136],"ct":"US","tp":"CR","ts":"2019-07-30T03:22:24Z","tX":222,"tY":410,"tags":{"addr:city":"Lubbock","addr:housenumber":"5502","addr:postcode":"79416","addr:state":"TX","addr:street":"County Road 6300","name":"Lubbock KOA Campground & RV Park"}},"805139430":{"location":[33.446589,-101.648706],"ct":"US","tp":"CR","ts":"2020-05-17T21:59:44Z","tX":222,"tY":410,"tags":{"name":"Twin Pine 2"}},"813320421":{"location":[33.5987841,-101.8677872],"ct":"US","tp":"CR","ts":"2022-11-04T00:23:17Z","tX":222,"tY":410,"tags":{"addr:city":"Lubbock","addr:housenumber":"2317","addr:postcode":"79415","addr:state":"TX","addr:street":"Auburn Street","name":"Acacia Mobile Home Park"}},"1094382018":{"location":[33.5595719,-101.9438138],"ct":"US","tp":"CR","ts":"2022-09-14T02:08:27Z","tX":222,"tY":410,"tags":{"addr:city":"Lubbock","addr:housenumber":"3436","addr:postcode":"79407","addr:state":"TX","addr:street":"West Loop 289","name":"Loop Two Eight-Nine RV Park"}}}