{"244585989":{"location":[47.5600042,-94.1103356],"ct":"US","tp":"CS","ts":"2025-04-20T15:58:09Z","tX":244,"tY":357,"tags":{"name":"Cut Foot Sioux Horse Camp"}},"244588682":{"location":[47.5243475,-94.0955431],"ct":"US","tp":"CS","ts":"2023-03-14T19:12:06Z","tX":244,"tY":357,"tags":{"name":"East Seelye Bay Campground","operator":"USFS"}},"244588683":{"location":[47.5175442,-94.1025777],"ct":"US","tp":"CS","ts":"2025-06-16T20:08:12Z","tX":244,"tY":357,"tags":{"addr:city":"Deer Lake","addr:housenumber":"59829","addr:state":"MN","addr:street":"Eagle Nest Road","capacity":"17","caravans":"yes","charge":"16 USD","drinking_water":"yes","fee":"yes","name":"North Deer Lake Campground","operator":"USFS","phone":"+1-218-335-8600","reservation":"yes","tents":"yes","toilets":"yes","website":"https://www.fs.usda.gov/recarea/chippewa/recreation/camping-cabins/recarea/?recid=26734&actid=29"}},"244588685":{"location":[47.5234005,-94.10162],"ct":"US","tp":"CS","ts":"2023-03-14T19:12:06Z","tX":244,"tY":357,"tags":{"name":"West Seelye Bay Campground","operator":"USFS"}},"7140542860":{"location":[47.5244317,-94.0955768],"ct":"US","tp":"CS","ts":"2024-11-02T16:23:33Z","tX":244,"tY":357,"tags":{"addr:city":"Deer River","addr:housenumber":"58987","addr:state":"MN","addr:street":"Eagle Nest Road","capacity":"13","charge":"16 USD","drinking_water":"yes","fee":"yes","name":"East Seelye Bay Campground","operator":"USFS","seasonal":"spring;summer;autumn","toilets":"vault"}},"7140547235":{"location":[47.5601028,-94.1103136],"ct":"US","tp":"CS","ts":"2025-04-20T15:58:09Z","tX":244,"tY":357,"tags":{"addr:city":"Deer River","addr:housenumber":"58096","addr:postcode":"56681","addr:state":"MN","addr:street":"Third River Road","capacity":"34","drinking_water":"yes","fee":"yes","name":"Cut Foot Horse Camp","toilets":"vault"}},"7140575957":{"location":[47.5180239,-94.0481453],"ct":"US","tp":"CS","ts":"2020-05-05T17:54:18Z","tX":244,"tY":357,"tags":{"addr:city":"Deer River","addr:housenumber":"45033","addr:state":"MN","addr:street":"State Highway 46","capacity":"23","drinking_water":"yes","fee":"yes","name":"Mosomo Point Campground","operator":"USFS","toilets":"vault"}},"7486715212":{"location":[47.5234095,-94.1016101],"ct":"US","tp":"CS","ts":"2021-09-06T23:40:07Z","tX":244,"tY":357,"tags":{"addr:city":"Deer River","addr:state":"MN","capacity":"22","drinking_water":"yes","name":"West Seelye Bay  Campground","operator":"USFS","phone":"+1-218-335-8600","toilets":"yes"}},"7486715213":{"location":[47.5174222,-94.1021039],"ct":"US","tp":"CS","ts":"2024-11-02T16:23:33Z","tX":244,"tY":357,"tags":{"addr:city":"Deer River","addr:state":"MN","capacity":"17","charge":"16 USD","drinking_water":"yes","fee":"yes","name":"North Deer Lake Campground","operator":"USFS","phone":"+1-218-335-8600","reservation":"yes","toilets":"yes"}},"7486715214":{"location":[47.5865454,-94.1656707],"ct":"US","tp":"CS","ts":"2021-09-06T23:40:07Z","tX":244,"tY":357,"tags":{"addr:city":"Squaw Lake","addr:state":"MN","capacity":"4","drinking_water":"yes","name":"Middle Pigeon Lake Campground","phone":"+1-218-246-2123","toilets":"vault"}},"8235232103":{"location":[47.6323663,-94.1348095],"ct":"US","tp":"CS","ts":"2022-08-31T21:53:58Z","tX":244,"tY":357,"tags":{"name":"T and N Inn Lodging and Campground"}}}