{"7681847378":{"location":[46.9038522,-93.8827543],"ct":"US","tp":"CS","ts":"2020-07-04T01:47:34Z","tX":244,"tY":360,"tags":{"addr:city":"Remer","addr:state":"MN","capacity":"2","drinking_water":"no","name":"Land O'Lakes SF - Baker and White Oak Lake","toilets:type":"pit latrine"}},"7681847379":{"location":[46.8493536,-93.9757974],"ct":"US","tp":"CS","ts":"2024-11-02T16:23:33Z","tX":244,"tY":360,"tags":{"capacity":"31","charge":"14 USD","fee":"yes","name":"Land O'Lakes SF - Clint Converse","phone":"+1-218-546-5926","reservation":"no","toilets":"yes"}},"12503342116":{"location":[46.8886698,-94.0034137],"ct":"US","tp":"CS","ts":"2025-01-15T02:27:42Z","tX":244,"tY":360,"tags":{"access":"private","addr:city":"Outing","addr:housenumber":"2399","addr:postcode":"56662","addr:state":"MN","addr:street":"Longwood Point Road Northeast","capacity:caravans":"1","capacity:persons":"150","capacity:tents":"80","caravans":"yes","name":"Voyager Bay Scout Camp","note":"This is a","static_caravans":"no","tents":"yes"}}}