{"1308831110":{"location":[46.7019865,-94.0400333],"ct":"US","tp":"CS","ts":"2024-08-19T14:39:26Z","tX":244,"tY":361,"tags":{"access":"customers","addr:city":"Crosslake","addr:housenumber":"38594","addr:postcode":"56442","addr:state":"MN","addr:street":"County Road 3","caravans":"no","fee":"yes","group_only":"yes","name":"Cuyuna Scout Camp","scout":"yes","static_caravans":"no","tents":"yes"}},"2491856157":{"location":[46.6698515,-94.1103514],"ct":"US","tp":"CS","ts":"2024-12-01T06:45:16Z","tX":244,"tY":361,"tags":{"capacity":"118","caravans":"yes","charge":"36 USD","description":"$22-$36","fee":"yes","name":"US Army Corps of Engineers Campground","phone":"+1-218-692-2025","shower":"yes","tents":"yes","wheelchair":"yes"}},"7589860058":{"location":[46.6318614,-94.0404416],"ct":"US","tp":"CS","ts":"2024-01-13T21:28:35Z","tX":244,"tY":361,"tags":{"addr:city":"Crosby","addr:state":"MN","capacity":"31","charge":"$14","drinking_water":"yes","fee":"yes","name":"Greer Lake Campground","operator":"Crow Wing STate Forest","toilets":"vault"}}}