{"171531916":{"location":[46.4915254,-93.9725834],"ct":"US","tp":"CS","ts":"2024-11-02T16:23:33Z","tX":244,"tY":362,"tags":{"addr:city":"Iroton","addr:state":"MN","capacity":"33","caravans":"yes","charge":"15 USD/tent; 23 USD/Rv","drinking_water":"yes","fee":"yes","name":"Portsmouth Campground","phone":"+1-218-546-5926","power_supply":"yes","reservation":"required","seasonal":"spring;summer;autumn","shower":"yes","tents":"yes","toilets":"yes","toilets:disposal":"flush"}},"564121625":{"location":[46.4677638,-94.1986585],"ct":"US","tp":"CS","ts":"2018-02-25T19:17:33Z","tX":244,"tY":362,"tags":{}},"4812641012":{"location":[46.4835719,-93.9674638],"ct":"US","tp":"CS","ts":"2020-02-01T21:20:34Z","tX":244,"tY":362,"tags":{"addr:city":"Crosby","addr:housenumber":"825","addr:postcode":"56441","addr:state":"MN","addr:street":"1st Street Southwest","name":"True North Basecamp","ref":"Cuyuna Lakes Mountain Bike Trail","website":"https://www.truenorthbasecamp.com/"}},"7138964716":{"location":[46.4801281,-93.9566841],"ct":"US","tp":"CS","ts":"2024-08-03T13:24:02Z","tX":244,"tY":362,"tags":{"caravans":"yes","charge":"$25","drinking_water":"yes","name":"Crosby Memorial City Park Campground","phone":"+1-218-546-5021","power_supply":"yes","sanitary_dump_station":"yes","seasonal":"spring;summer;autumn","shower":"yes","tents":"yes","toilets":"yes"}},"7589860056":{"location":[46.5147258,-93.9267002],"ct":"US","tp":"CS","ts":"2024-12-01T06:45:16Z","tX":244,"tY":362,"tags":{"addr:city":"Cuyuna","addr:state":"MN","charge":"30 USD","description":"$20-$30","fee":"yes","name":"Cuyuna Mountain Bike Campground","reservation":"yes"}},"7194599486":{"location":[46.369944,-94.1652111],"ct":"US","tp":"CR","ts":"2023-12-11T17:38:04Z","tX":244,"tY":362,"tags":{"addr:city":"Brainerd","addr:housenumber":"1619","addr:state":"MN","addr:street":"Northeast Washington Street","drinking_water":"yes","fee":"$40, $35 for seniors","name":"Lum Park Campground","power_supply":"yes","reservation":"recommended","shower":"yes","tents":"no","toilets":"flush","website":"http://www.ci.brainerd.mn.us/DocumentCenter/View/4739/Campground-Brochure?bidId="}}}