{"7143285373":{"location":[44.5222002,-93.9077932],"ct":"US","tp":"CS","ts":"2024-12-01T06:45:16Z","tX":244,"tY":370,"tags":{"capacity":"20","charge":"15 USD/tent; 30 USD/RV","drinking_water":"yes","fee":"yes","name":"Allanson's Park","phone":"+1-507-248-3234","power_supply":"yes","reservation":"yes","shower":"yes","toilets:type":"flush"}},"7160754571":{"location":[44.5754427,-93.9504597],"ct":"US","tp":"CS","ts":"2021-05-06T19:08:40Z","tX":244,"tY":370,"tags":{"addr:city":"Henderson","addr:state":"MN","addr:street":"341st Lane","drinking_water":"yes","fee":"no","name":"High Island Creek Park","note":"Call the Sibley County Sheriff's office at 507-237-4330 to obtain permission for overnight camping","picnic_table":"yes","reservation":"507-237-4330"}},"7615826489":{"location":[44.4634378,-93.9184149],"ct":"US","tp":"CS","ts":"2020-06-12T13:58:12Z","tX":244,"tY":370,"tags":{"addr:city":"Le Sueur","addr:state":"MN","backcountry":"yes","drinking_water":"no","name":"Le Sueur Landing","tents":"only"}}}