{"947789775":{"location":[44.1971622,-94.0981332],"ct":"US","tp":"CS","ts":"2024-08-19T14:20:59Z","tX":244,"tY":371,"tags":{"addr:city":"North Mankato","addr:housenumber":"41392","addr:postcode":"56001","addr:state":"MN","addr:street":"520th Street","capacity:caravans":"39","caravans":"yes","dog":"yes","drinking_water":"yes","fee":"yes","name":"Sawmill Campground","payment:cash":"yes","payment:credit_cards":"yes","phone":"+1-507-947-3735","picnic_table":"yes","power_supply":"yes","reservation":"recommended","sanitary_dump_station":"yes","shower":"yes","static_caravans":"no","tents":"yes","toilets":"yes","website":"https://sawmill-campground.com/"}},"1032087306":{"location":[44.2660348,-93.898967],"ct":"US","tp":"CS","ts":"2023-11-29T13:08:45Z","tX":244,"tY":371,"tags":{"addr:city":"Kasota","addr:housenumber":"47102","addr:postcode":"56050","addr:street":"Washington Park Road","capacity":"31","drinking_water":"yes","fee":"Tents $15 (weekends only) , Rv's $25, Senior/ vets $5 Sun-Thur","leisure":"park","name":"Lake Washington Park","phone":"+1-507-995-1161","power_supply":"yes","reservation":"accepted","seasonal":"spring;summer;autumn","shower":"yes","toilets:disposal":"flush"}},"1032243414":{"location":[44.1596407,-94.0864841],"ct":"US","tp":"CS","ts":"2022-04-29T00:43:58Z","tX":244,"tY":371,"tags":{"addr:city":"South Bend Township","addr:postcode":"56001","addr:state":"MN","name":"Minneopa State Park Camground"}},"1113415732":{"location":[44.1613603,-94.0406014],"ct":"US","tp":"CS","ts":"2022-11-15T18:37:02Z","tX":244,"tY":371,"tags":{"addr:city":"Mankato","addr:housenumber":"300","addr:postcode":"56001","addr:state":"MN","addr:street":"Amos Owen Lane","drinking_water":"yes","fee":"yes","name":"Land of Memories Campground","phone":"(507) 387-8600","power_supply":"yes","reservation":"yes","shower":"yes","toilets":"yes"}},"1290266369":{"location":[44.0986666,-94.1169717],"ct":"US","tp":"CS","ts":"2024-06-07T14:25:48Z","tX":244,"tY":371,"tags":{"caravans":"yes","fee":"yes","name":"Sites 7-20","operator":"Blue Earth County","static_caravans":"no","tents":"yes"}},"1290266371":{"location":[44.0990223,-94.1125216],"ct":"US","tp":"CS","ts":"2024-06-26T20:51:33Z","tX":244,"tY":371,"tags":{"caravans":"no","fee":"yes","name":"Sites 5-6","static_caravans":"no","tents":"yes"}},"1290266372":{"location":[44.0979416,-94.1111241],"ct":"US","tp":"CS","ts":"2024-06-26T20:51:33Z","tX":244,"tY":371,"tags":{"caravans":"no","fee":"yes","name":"Sites 1-4","static_caravans":"no","tents":"yes"}},"5865432742":{"location":[44.3222283,-93.9521654],"ct":"US","tp":"CS","ts":"2024-08-14T06:00:37Z","tX":244,"tY":371,"tags":{"capacity":"20","capacity:caravans":"11","capacity:tents":"5","caravans":"yes","charge":"tents 20 USD/night;caravans 30 USD/night","description":"Camp ground managed by the city. Permits and reservations can be made at the St Peter Police Station right next to park entrance","description:fr":"Terrain de camping géré par la ville. Les permis et les réservations peuvent être effectués au poste de police de St Peter, juste à côté de l'entrée du parc.","drinking_water":"yes","fee":"yes","name":"Riverside City Park","phone":"+1-507-931-1550","power_supply":"yes","reservation":"no","seasonal":"spring-summer","shower":"yes","static_caravans":"no","tents":"yes","toilets:disposal":"flush"}},"7143363744":{"location":[44.1588076,-94.08799],"ct":"US","tp":"CS","ts":"2022-02-16T19:34:54Z","tX":244,"tY":371,"tags":{"addr:city":"South Bend Township","addr:postcode":"56001","addr:state":"MN","capacity":"61","drinking_water":"yes","fee":"Tents $21, Rv's $29","name":"Minneopa State Park","phone":"+1-507-389-5464","power_supply":"yes","reservation":"yes","sanitary_dump_station":"yes","shower":"yes","toilets:disposal":"flush"}},"10964577143":{"location":[44.2678014,-93.9012999],"ct":"US","tp":"CS","ts":"2023-06-09T02:24:40Z","tX":244,"tY":371,"tags":{"name":"Lake Washington Campground"}},"10964577159":{"location":[44.2668176,-93.9005564],"ct":"US","tp":"CS","ts":"2023-06-09T02:24:40Z","tX":244,"tY":371,"tags":{"backcountry":"yes","name":"Lake Washington Primitive Camping"}},"12014362481":{"location":[44.0921593,-94.1099972],"ct":"US","tp":"CS","ts":"2024-11-02T16:23:33Z","tX":244,"tY":371,"tags":{"addr:city":"Mankato","addr:postcode":"56001","addr:state":"MN","capacity":"20","charge":"12 USD","drinking_water":"yes","fee":"yes","reservation":"no","toilets":"yes"}},"10964577157":{"location":[44.2680366,-93.8998663],"ct":"US","tp":"SD","ts":"2023-06-09T02:24:40Z","tX":244,"tY":371,"tags":{}},"11774624514":{"location":[44.1564473,-94.0887416],"ct":"US","tp":"SD","ts":"2024-03-31T01:17:55Z","tX":244,"tY":371,"tags":{}},"12109674978":{"location":[44.3241429,-93.9546597],"ct":"US","tp":"SD","ts":"2024-08-14T06:00:37Z","tX":244,"tY":371,"tags":{}}}