{"1348990784":{"location":[40.4666895,-93.9847532],"ct":"US","tp":"CR","ts":"2025-01-06T13:59:11Z","tX":244,"tY":385,"tags":{"addr:city":"Eagleville","addr:housenumber":"14002","addr:postcode":"64442","addr:state":"MO","addr:street":"Locust Street","name":"Buffalo Run RV Park","phone":"+1 660 8680078","website":"https://rvparkbuffalorun.wixsite.com/buffalorunrvpark"}},"1348990848":{"location":[40.4474346,-93.9932949],"ct":"US","tp":"CR","ts":"2025-01-06T13:11:56Z","tX":244,"tY":385,"tags":{"addr:city":"Eagleville","addr:housenumber":"22708","addr:postcode":"64442","addr:state":"MO","addr:street":"West 182nd Street","cabins":"yes","capacity":"31","dog":"leashed","fee":"yes","internet_access":"wlan","internet_access:fee":"no","laundry":"yes","name":"Eagle Ridge RV Park","opening_hours":"Mar 01-Nov 18 24/7","opening_hours:reception":"Mar 01-Nov 18 08:00-20:00","operator":"Eagle Ridge RV Park, LLC","phone":"+1 660 8675518","picnic_table":"yes","shower":"yes","swimming_pool":"yes","toilets":"yes","washing_machine":"yes","website":"https://eagleridgervparkmo.com/"}}}