{"758825786":{"location":[33.5151357,-93.9429712],"ct":"US","tp":"CR","ts":"2024-09-09T20:14:29Z","tX":244,"tY":410,"tags":{"addr:city":"Texarkana","addr:housenumber":"8225","addr:postcode":"71854","addr:state":"AR","addr:street":"Camper Lane","check_date":"2024-09-09","name":"Sunrise RV Park"}},"833340974":{"location":[33.6840204,-93.9812907],"ct":"US","tp":"CS","ts":"2020-08-02T21:14:41Z","tX":244,"tY":410,"tags":{}},"945146331":{"location":[33.4694412,-94.1365544],"ct":"US","tp":"CR","ts":"2021-05-20T14:34:34Z","tX":244,"tY":410,"tags":{"addr:city":"Texarkana","addr:housenumber":"5100","addr:postcode":"75503","addr:state":"TX","addr:street":"North Kings Highway","name":"El Chaparral Mobile Home Park"}},"947951678":{"location":[33.4331328,-94.1327033],"ct":"US","tp":"CR","ts":"2023-01-30T14:53:33Z","tX":244,"tY":410,"tags":{"addr:city":"Nash","addr:housenumber":"1041","addr:postcode":"75569","addr:state":"TX","addr:street":"North Kings Highway","name":"Pine Ridge Estates","toilets":"no"}},"947990435":{"location":[33.4412776,-94.1182994],"ct":"US","tp":"CR","ts":"2021-05-28T01:48:54Z","tX":244,"tY":410,"tags":{"addr:city":"Nash","addr:housenumber":"700","addr:postcode":"75569","addr:state":"TX","addr:street":"East New Boston Road","name":"Oakwood Park"}},"947990436":{"location":[33.4419506,-94.1175655],"ct":"US","tp":"CR","ts":"2021-05-28T01:48:54Z","tX":244,"tY":410,"tags":{"addr:city":"Nash","addr:housenumber":"920","addr:postcode":"75569","addr:state":"TX","addr:street":"East New Boston Road","name":"Woodland Estates"}},"947991808":{"location":[33.4421688,-94.1099463],"ct":"US","tp":"CR","ts":"2021-05-28T02:13:14Z","tX":244,"tY":410,"tags":{"addr:city":"Nash","addr:housenumber":"1400","addr:postcode":"75569","addr:state":"TX","addr:street":"East New Boston Road","name":"Alpine Mobile Village"}},"1054094528":{"location":[33.443392,-94.1376873],"ct":"US","tp":"CR","ts":"2022-04-22T22:43:57Z","tX":244,"tY":410,"tags":{"addr:city":"Nash","addr:housenumber":"6500","addr:postcode":"75569","addr:state":"TX","addr:street":"West New Boston Road","name":"Deerfield Village"}}}