{"897739602":{"location":[33.412196,-93.954346],"ct":"US","tp":"CS","ts":"2021-01-20T22:36:45Z","tX":244,"tY":411,"tags":{"addr:city":"Texarkana","addr:housenumber":"6848","addr:postcode":"71854","addr:state":"AR","addr:street":"Tennessee Road","name":"Camp Preston Hunt","operator":"Caddo Area Council, BSA"}},"946993635":{"location":[33.3877593,-94.0770419],"ct":"US","tp":"CR","ts":"2021-05-25T18:58:28Z","tX":244,"tY":411,"tags":{"addr:city":"Texarkana","addr:housenumber":"2505","addr:postcode":"75501","addr:state":"TX","addr:street":"Bender Road","name":"Glenn Acres Manufactured Home Community"}},"949541695":{"location":[33.3856216,-94.1126429],"ct":"US","tp":"CR","ts":"2021-06-01T22:05:35Z","tX":244,"tY":411,"tags":{"addr:city":"Texarkana","addr:housenumber":"5000","addr:postcode":"75501","addr:state":"TX","addr:street":"US Highway 59","name":"Texarkana RV Park & Event Center"}},"1055471182":{"location":[33.2520748,-94.1512958],"ct":"US","tp":"CR","ts":"2022-04-27T17:28:30Z","tX":244,"tY":411,"tags":{"addr:city":"Queen City","addr:housenumber":"21700","addr:postcode":"75572","addr:state":"TX","addr:street":"US Highway 59 North","name":"RV Corral"}},"1055471187":{"location":[33.2288564,-94.1551319],"ct":"US","tp":"CR","ts":"2022-04-27T17:28:30Z","tX":244,"tY":411,"tags":{"name":"Whispering Woods"}}}