{"101517219":{"location":[45.5710306,-79.2871225],"ct":"CA","tp":"CR","ts":"2021-05-18T01:41:46Z","tX":286,"tY":366,"tags":{"addr:housenumber":"7","addr:street":"Nulty Lane","name":"Penbrook Resort","website":"http://www.penbrookresort.com/"}},"101517353":{"location":[45.5717992,-79.3586723],"ct":"CA","tp":"CS","ts":"2018-08-01T20:35:06Z","tX":286,"tY":366,"tags":{"addr:city":"Katrine","addr:housenumber":"101","addr:street":"Doe Lake Road","name":"Lillie Kup Campground","source":"NRCan-CanVec-7.0","website":"http://www.lilliekupcamp.com/"}},"277291720":{"location":[45.5730866,-79.2822587],"ct":"CA","tp":"CR","ts":"2020-12-13T12:40:00Z","tX":286,"tY":366,"tags":{"addr:housenumber":"1372","addr:street":"Deer Lake Road","name":"Lynwood Resort"}},"616583981":{"location":[45.3368291,-79.255539],"ct":"CA","tp":"CS","ts":"2018-08-13T11:37:05Z","tX":286,"tY":366,"tags":{}},"842924849":{"location":[45.3627826,-79.2214016],"ct":"CA","tp":"CS","ts":"2010-08-02T04:56:56Z","tX":286,"tY":366,"tags":{"source":"CanVec 6.0 - NRCan"}},"846607424":{"location":[45.3889291,-79.1992549],"ct":"CA","tp":"CS","ts":"2024-07-30T16:09:45Z","tX":286,"tY":366,"tags":{"caravans":"yes","name":"Arrowhead Lake Campground","phone":"+1-705-789-5105","tents":"yes","website":"https://www.ontarioparks.com/park/arrowhead","wikidata":"Q4796180"}},"884521106":{"location":[45.3760738,-79.2149742],"ct":"CA","tp":"CR","ts":"2020-12-13T22:16:10Z","tX":286,"tY":366,"tags":{"addr:housenumber":"100","addr:postcode":"P1H 2J4","addr:street":"Lagoon Trailer Park Road","internet_access":"wlan","name":"Lagoon Tent and Trailer Park","phone":"+1-705-789-5011","power_supply":"yes","sanitary_dump_station":"yes","website":"https://lagoontentandtrailerpark.net/"}},"1133134930":{"location":[45.4615901,-79.2320118],"ct":"CA","tp":"CS","ts":"2023-01-18T13:24:06Z","tX":286,"tY":366,"tags":{"addr:housenumber":"386","addr:street":"Fish Lake Road","name":"Tea Kettle Campground"}},"1172181899":{"location":[45.5706982,-79.3446141],"ct":"CA","tp":"CS","ts":"2011-02-25T13:45:45Z","tX":286,"tY":366,"tags":{"source":"NRCan-CanVec-7.0"}},"1172456919":{"location":[45.5303923,-79.2293524],"ct":"CA","tp":"CS","ts":"2020-06-01T22:00:53Z","tX":286,"tY":366,"tags":{"source":"NRCan-CanVec-7.0"}},"1172796794":{"location":[45.5222382,-79.3137397],"ct":"CA","tp":"CS","ts":"2011-02-25T19:18:17Z","tX":286,"tY":366,"tags":{"source":"NRCan-CanVec-7.0"}},"1464560078":{"location":[45.406283,-79.2961499],"ct":"CA","tp":"CS","ts":"2011-10-12T22:53:39Z","tX":286,"tY":366,"tags":{"source":"NRCan-CanVec-8.0"}},"1471373003":{"location":[45.3372018,-79.2539969],"ct":"CA","tp":"CS","ts":"2011-10-17T23:07:15Z","tX":286,"tY":366,"tags":{"source":"NRCan-CanVec-8.0"}},"7203894903":{"location":[45.3881285,-79.2013425],"ct":"CA","tp":"SD","ts":"2020-02-11T16:01:35Z","tX":286,"tY":366,"tags":{"access":"customers","fee":"no","operator":"Ontario Parks"}}}