{"55973946":{"location":[44.256349,-79.349071],"ct":"CA","tp":"CR","ts":"2020-11-04T17:44:08Z","tX":286,"tY":371,"tags":{"name":"Lyndhurst Golf Course Trailer Park","power_supply":"yes","sanitary_dump_station":"yes","source":"CanVec_Import_2009","tents":"yes","website":"https://www.lyndhurstgolf.com/home/index.php?option=com_content&view=article&id=4&Itemid=105"}},"55973949":{"location":[44.2802412,-79.3752172],"ct":"CA","tp":"CS","ts":"2013-01-19T20:34:44Z","tX":286,"tY":371,"tags":{"attribution":"Natural Resources Canada","canvec:CODE":"2480012","canvec:UUID":"02a57d0ed21f4e72ba85e4bbbf69af96","source":"CanVec_Import_2009","tents":"yes"}},"55973951":{"location":[44.3050602,-79.3216106],"ct":"CA","tp":"CS","ts":"2010-04-20T15:36:28Z","tX":286,"tY":371,"tags":{"attribution":"Natural Resources Canada","canvec:CODE":"2480012","canvec:UUID":"5d2cb33989c04ef3844a1030b55e0f4d","source":"CanVec_Import_2009","tents":"yes"}},"55973952":{"location":[44.2667469,-79.3597497],"ct":"CA","tp":"CR","ts":"2020-11-04T17:44:08Z","tX":286,"tY":371,"tags":{"addr:housenumber":"184","addr:street":"Baldwin Road","attribution":"Natural Resources Canada","canvec:CODE":"2480012","canvec:UUID":"48a5cfc7f6d2474fa4c54aafab41d3fe","name":"Harmony Ranch Recreation Club","source":"CanVec_Import_2009","tents":"yes"}},"56000313":{"location":[44.1371393,-79.3290887],"ct":"CA","tp":"CR","ts":"2019-11-26T01:13:14Z","tX":286,"tY":371,"tags":{"name":"Ponderosa Campground","source":"CanVec_Import_2009","tents":"yes"}},"169870287":{"location":[44.1418444,-79.2432258],"ct":"CA","tp":"CS","ts":"2012-07-02T19:12:01Z","tX":286,"tY":371,"tags":{"source":"Bing"}},"257351060":{"location":[44.1494877,-79.3698331],"ct":"CA","tp":"CS","ts":"2023-09-19T22:36:33Z","tX":286,"tY":371,"tags":{"access":"customers","addr:city":"East Gwillimbury","addr:housenumber":"20237","addr:postcode":"L0G 1V0","addr:street":"Kennedy Road","capacity:caravans":"125","fee":"yes","name":"Bare Oaks Family Naturist Park","nudism":"obligatory","operator":"Bare Oaks Family Naturist Park","payment:american_express":"yes","payment:cash":"yes","payment:cheque":"yes","payment:credit_cards":"yes","payment:cryptocurrencies":"yes","payment:debit_cards":"yes","payment:mastercard":"yes","payment:visa":"yes","phone":"+1-905-473-6060","source":"Local Knowledge","website":"http://www.BareOaks.ca","wikidata":"Q4860293","wikipedia":"en:Bare Oaks Family Naturist Park"}},"334440251":{"location":[44.3188643,-79.3945499],"ct":"CA","tp":"CS","ts":"2015-03-24T00:51:04Z","tX":286,"tY":371,"tags":{"name":"The Jackson's Point Conference Centre","note":"Salvation Army camp operations","operator":"Salvation Army","website":"http://www.sajpcc.com/"}},"401637119":{"location":[44.1907124,-79.3290626],"ct":"CA","tp":"CR","ts":"2020-07-19T19:51:06Z","tX":286,"tY":371,"tags":{"name":"Vlahos Trailer Park","website":"http://vlahostrailerpark.com/"}},"850164277":{"location":[44.3283654,-79.3251034],"ct":"CA","tp":"CS","ts":"2023-10-30T16:47:26Z","tX":286,"tY":371,"tags":{"name":"Sibbald Point - Beavermeade Campground","website":"https://www.ontarioparks.com/park/sibbaldpoint"}},"850164280":{"location":[44.3277501,-79.3284194],"ct":"CA","tp":"CS","ts":"2023-10-30T16:47:10Z","tX":286,"tY":371,"tags":{"name":"Sibbald Point - Cedargrove Campground","website":"https://www.ontarioparks.com/park/sibbaldpoint"}},"850164281":{"location":[44.3262981,-79.3284214],"ct":"CA","tp":"CS","ts":"2023-10-30T16:47:43Z","tX":286,"tY":371,"tags":{"name":"Sibbald Point - Meadowlands Campground","website":"https://www.ontarioparks.com/park/sibbaldpoint"}},"850164283":{"location":[44.3249062,-79.3254199],"ct":"CA","tp":"CS","ts":"2023-10-30T16:47:36Z","tX":286,"tY":371,"tags":{"name":"Sibbald Point - Hardwoods Campground","website":"https://www.ontarioparks.com/park/sibbaldpoint"}},"850164284":{"location":[44.3256618,-79.3236876],"ct":"CA","tp":"CS","ts":"2023-10-30T16:47:33Z","tX":286,"tY":371,"tags":{"name":"Sibbald Point - Horseshoe Campground","website":"https://www.ontarioparks.com/park/sibbaldpoint"}},"850164285":{"location":[44.3259108,-79.3174481],"ct":"CA","tp":"CS","ts":"2023-10-30T16:47:49Z","tX":286,"tY":371,"tags":{"name":"Sibbald Point - Hemlock Campground","website":"https://www.ontarioparks.com/park/sibbaldpoint"}},"850164286":{"location":[44.3261526,-79.3204871],"ct":"CA","tp":"CS","ts":"2023-10-30T16:47:20Z","tX":286,"tY":371,"tags":{"name":"Sibbald Point - Crossroads Campground","website":"https://www.ontarioparks.com/park/sibbaldpoint"}},"850164287":{"location":[44.3296189,-79.3169352],"ct":"CA","tp":"CS","ts":"2023-10-30T16:47:29Z","tX":286,"tY":371,"tags":{"name":"Sibbald Point - Butternut Campground","website":"https://www.ontarioparks.com/park/sibbaldpoint"}},"850164288":{"location":[44.3293503,-79.3207553],"ct":"CA","tp":"CS","ts":"2023-10-30T16:47:13Z","tX":286,"tY":371,"tags":{"name":"Sibbald Point - Lakeside Campground","website":"https://www.ontarioparks.com/park/sibbaldpoint"}},"850164289":{"location":[44.3258186,-79.3146533],"ct":"CA","tp":"CS","ts":"2023-10-30T16:47:46Z","tX":286,"tY":371,"tags":{"name":"Sibbald Point - Sugarbush Campground","website":"https://www.ontarioparks.com/park/sibbaldpoint"}},"5546101121":{"location":[44.189655,-79.3332626],"ct":"CA","tp":"CS","ts":"2023-11-08T03:26:27Z","tX":286,"tY":371,"tags":{"addr:city":"Ridgeville","addr:housenumber":"205","addr:postcode":"L0S 1M0","addr:street":"Metler Road","name":"Bissellâ€™s Hideaway","phone":"+1-905-892-5706","toilets:wheelchair":"yes","website":"https://bissellshideaway.com/","wheelchair":"yes"}}}