{"3449934":{"location":[44.0362453,-79.2722862],"ct":"CA","tp":"CS","ts":"2018-10-27T14:01:32Z","tX":286,"tY":372,"tags":{"addr:city":"Whitchurch-Stouffville","addr:housenumber":"15014","addr:postcode":"L4A 7X3","addr:street":"9th Line","attribution":"Natural Resources Canada","canvec:CODE":"2480012","canvec:UUID":"11CF45844104E5F4E0409C8467120387;11CF45844106E5F4E0409C8467120387","name":"Cedar Beach Trailer and RV Resort","phone":"+1-905-642-1700","source":"CanVec_Import_2009","tents":"yes","website":"http://www.cedarbeach.com"}},"56000310":{"location":[44.0323224,-79.2836754],"ct":"CA","tp":"CS","ts":"2010-04-20T21:03:51Z","tX":286,"tY":372,"tags":{"attribution":"Natural Resources Canada","canvec:CODE":"2480012","canvec:UUID":"11CF45844107E5F4E0409C8467120387","source":"CanVec_Import_2009","tents":"yes"}},"56000315":{"location":[44.0673232,-79.3438358],"ct":"CA","tp":"CS","ts":"2010-04-20T21:03:52Z","tX":286,"tY":372,"tags":{"attribution":"Natural Resources Canada","canvec:CODE":"2480012","canvec:UUID":"11CF45844105E5F4E0409C8467120387","source":"CanVec_Import_2009","tents":"yes"}},"186575666":{"location":[43.9250574,-79.322174],"ct":"CA","tp":"CS","ts":"2019-04-02T02:22:46Z","tX":286,"tY":372,"tags":{"name":"Camp Green Acres","source":"openstreetbugs","website":"https://www.campgreenacres.com/"}},"3149848114":{"location":[43.8611045,-79.2821173],"ct":"CA","tp":"CS","ts":"2014-10-25T21:59:09Z","tX":286,"tY":372,"tags":{"name":"Camp Chimo","note":"Day camp","operator":"City of Markham"}},"10903698505":{"location":[44.0163617,-79.3433449],"ct":"CA","tp":"CS","ts":"2023-05-16T21:36:57Z","tX":286,"tY":372,"tags":{"addr:housenumber":"14919","addr:street":"Kennedy Road","name":"Woodland Trails Scout Camp"}}}