{"70013585":{"location":[43.0840614,-79.3844307],"ct":"CA","tp":"CS","ts":"2010-07-28T17:23:04Z","tX":286,"tY":375,"tags":{"source":"CanVec 6.0 - NRCan"}},"178553601":{"location":[43.0871432,-79.1529429],"ct":"CA","tp":"CS","ts":"2020-06-13T04:03:31Z","tX":286,"tY":375,"tags":{"addr:city":"Niagara Falls","addr:housenumber":"9387","addr:postcode":"L2E 6S4","addr:street":"Lundy's Lane","name":"Campark Resorts Camping","source":"Bing","website":"https://campark.com/"}},"178557776":{"location":[43.0896879,-79.1467004],"ct":"CA","tp":"CS","ts":"2023-11-06T18:22:35Z","tX":286,"tY":375,"tags":{"addr:city":"Niagara Falls","addr:housenumber":"8845","addr:street":"Lundys Lane","name":"Scotts Tent & Trailer Park","source":"Bing","website":"https://www.lundyslane.com/scotts-tent-and-trailer-park.htm"}},"401520592":{"location":[43.091049,-79.1417939],"ct":"CA","tp":"CR","ts":"2023-02-10T02:55:53Z","tX":286,"tY":375,"tags":{"addr:city":"Niagara Falls","addr:housenumber":"8625","addr:postcode":"L2H 1H5","addr:province":"Ontario","addr:street":"Lundy Lane","brand":"KOA","brand:wikidata":"Q16988635","caravans":"yes","fee":"yes","name":"Niagara Falls KOA Holiday Campground","operator":"KOA","short_name":"KOA","swimming_pool":"yes","tents":"yes","website":"https://koa.com/campgrounds/niagara-falls-ontario/"}},"686152862":{"location":[43.1497233,-79.3751396],"ct":"CA","tp":"CR","ts":"2022-09-15T02:02:51Z","tX":286,"tY":375,"tags":{"addr:city":"Jordan","addr:housenumber":"3902","addr:postcode":"L0R 1S0","addr:street":"Twenty-First Street","internet_access":"yes","name":"Jordan Valley Campground","opening_hours":"May-Oct 09:00-21:00","power_supply":"yes","sanitary_dump_station":"yes","source":"Bing","website":"http://www.campingniagara.com/site/home"}},"1101745743":{"location":[43.2220308,-79.2247926],"ct":"CA","tp":"CS","ts":"2022-10-07T14:14:12Z","tX":286,"tY":375,"tags":{"access":"private"}},"1198087771":{"location":[43.1302574,-79.3550722],"ct":"CA","tp":"CS","ts":"2024-06-23T17:59:18Z","tX":286,"tY":375,"tags":{"addr:city":"St. Catharines","addr:housenumber":"3425","addr:postcode":"L2R 6P7","addr:province":"ON","addr:street":"Seventeenth Street","caravans":"yes","name":"Shangri-La Family Campground","phone":"+1 905-562-5851","static_caravans":"yes","tents":"yes","website":"https://www.shangrilaniagara.com/"}},"1198088201":{"location":[43.1519068,-79.4424075],"ct":"CA","tp":"CS","ts":"2024-06-23T17:59:18Z","tX":286,"tY":375,"tags":{"addr:city":"Beamsville","addr:housenumber":"4410","addr:postcode":"L0R 1B0","addr:province":"ON","addr:street":"Cave Spring Road","leisure":"summer_camp","name":"Cave Springs Camp","phone":"+1 905-563-8487","website":"https://cavespringscamp.on.ca/"}},"1291719119":{"location":[43.1971032,-79.1992584],"ct":"CA","tp":"CS","ts":"2024-06-12T10:57:35Z","tX":286,"tY":375,"tags":{}}}