{"10040514":{"location":[43.0491932,-79.1200719],"ct":"CA","tp":"CR","ts":"2022-09-19T00:29:04Z","tX":286,"tY":376,"tags":{"addr:city":"Niagara Falls","addr:housenumber":"8676","addr:postcode":"L2G 0J2","addr:street":"Oakwood Drive","brand":"Yogi Bear's Jellystone Park","brand:wikidata":"Q8054389","name":"Yogi Bearâ€™s Jellystone Park Camp and Resort","official_name":"Yogi Bear's Jellystone Park Camp-Resorts","phone":"+1-905-354-1432","toilets:wheelchair":"yes","website":"https://jellystoneniagara.ca/","wheelchair":"yes"}},"15408727":{"location":[42.8732069,-79.423759],"ct":"CA","tp":"CS","ts":"2023-01-30T00:41:51Z","tX":286,"tY":376,"tags":{"access":"permit","addr:city":"Wainfleet","addr:housenumber":"12965","addr:postcode":"L0S1V0","addr:province":"Ontario","addr:street":"Lakeshore Road","name":"Long Beach Conservation Area and Campground","opening_hours":"Mo-Su 08:00-22:00","operator":"Niagara Peninsula Conservation Authority","phone":"+1-905-899-3462","source":"CanVec 6.0 - NRCan","website":"https://npca.ca/parks-recreation/conservation-areas/long-beach"}},"56221262":{"location":[42.992208,-79.3987925],"ct":"CA","tp":"CS","ts":"2018-03-25T05:35:17Z","tX":286,"tY":376,"tags":{"canvec:CODE":"2480012","canvec:UUID":"a58184c77c8741d68401107bf544a1f2","source":"CanVec_Import_2009","tents":"yes"}},"66882497":{"location":[42.8672848,-79.3894873],"ct":"CA","tp":"CS","ts":"2022-09-19T00:34:01Z","tX":286,"tY":376,"tags":{"addr:city":"Wainfleet","addr:housenumber":"12265","addr:postcode":"L0S1V0","addr:province":"Ontario","addr:street":"Lakeshore Road","name":"The Long Beach Resort","source":"CanVec 6.0 - NRCan","tents":"yes","website":"https://www.thelongbeachresort.ca/"}},"66888676":{"location":[42.870626,-79.140328],"ct":"CA","tp":"CR","ts":"2024-03-23T13:56:27Z","tX":286,"tY":376,"tags":{"addr:city":"Sherkston","addr:housenumber":"490","addr:postcode":"L0S 1R0","addr:province":"Ontario","addr:street":"Empire Road","caravans":"yes","fee":"yes","name":"Sherkston Shores Beach Resort & Campground","operator":"Sun RV Resorts","source":"CanVec 6.0 - NRCan","swimming_pool":"yes","tents":"yes","website":"https://www.sunrvresorts.com/sherkston-shores-vacations/"}},"1265517672":{"location":[42.8690974,-79.1257047],"ct":"CA","tp":"CR","ts":"2024-03-23T13:56:27Z","tX":286,"tY":376,"tags":{"name":"Pleasant Beach Campground"}}}