{"14870492":{"location":[39.544538,-79.1393576],"ct":"US","tp":"CS","ts":"2023-10-25T01:52:30Z","tX":286,"tY":389,"tags":{"caravans":"yes","name":"Big Run State Park Campground","operator":"Maryland Department of Natural Resources","tents":"yes","website":"https://dnr.maryland.gov/publiclands/Pages/western/BigRun/Camping.aspx"}},"374484661":{"location":[39.5795983,-79.3242683],"ct":"US","tp":"CS","ts":"2024-09-11T22:16:53Z","tX":286,"tY":389,"tags":{"access":"yes","addr:city":"Accident","addr:housenumber":"1","addr:postcode":"21520","addr:state":"MD","addr:street":"Bumblebee Camp","name":"Bumble Bee RV Park and Campground","operator":"Bumblebee Management","website":"https://www.bumblebeervparkandcampground.com/"}},"744812786":{"location":[39.5583323,-79.3438377],"ct":"US","tp":"CS","ts":"2020-12-17T01:29:38Z","tX":286,"tY":389,"tags":{"addr:city":"McHenry","addr:housenumber":"76","addr:state":"MD","addr:street":"Double G Drive","alt_name":"Double G Campground","caravans":"yes","name":"Double G RV Park","phone":"+1-301-387-5481","power_supply":"yes","website":"https://doublegrvpark.com/"}},"988318270":{"location":[39.4526288,-79.4525188],"ct":"US","tp":"CS","ts":"2021-12-30T23:02:50Z","tX":286,"tY":389,"tags":{"backcountry":"no","cabins":"only","caravans":"no","name":"Herrington Manor State Park Cabins","operator":"Maryland Park Service","reservation":"yes","tents":"no","website":"https://dnr.maryland.gov/publiclands/Pages/western/HerringtonManor/Cabins.aspx"}},"1814242967":{"location":[39.4200999,-79.112974],"ct":"US","tp":"CS","ts":"2024-10-24T02:11:49Z","tX":286,"tY":389,"tags":{"name":"w"}},"4419348094":{"location":[39.6337275,-79.1201192],"ct":"US","tp":"CS","ts":"2016-09-26T18:11:01Z","tX":286,"tY":389,"tags":{"name":"New Germany State Park Campground","note":"pitches dispersed through State Park","website":"http://reservations.dnr.state.md.us/camping/new-germany-state-park/r/campgroundDetails.do?contractCode=MD&parkId=380521"}},"6970742130":{"location":[39.5580563,-79.3446679],"ct":"US","tp":"SD","ts":"2019-11-13T06:00:23Z","tX":286,"tY":389,"tags":{}}}