{"1106311940":{"location":[37.5755668,-79.3379739],"ct":"US","tp":"CS","ts":"2022-10-23T12:19:05Z","tX":286,"tY":396,"tags":{"name":"Otter Creek Campground"}},"1106718058":{"location":[37.5745142,-79.3250489],"ct":"US","tp":"CR","ts":"2022-10-24T23:42:52Z","tX":286,"tY":396,"tags":{"brand":"KOA","brand:wikidata":"Q16988635","name":"Lynchburg / Blue Ridge Parkway KOA Holiday","short_name":"KOA"}},"6555896885":{"location":[37.6295489,-79.4493187],"ct":"US","tp":"CS","ts":"2023-12-07T10:42:19Z","tX":286,"tY":396,"tags":{"access":"yes","addr:city":"Glasgow","addr:housenumber":"855","addr:postcode":"24555","addr:state":"VA","addr:street":"Kanawha Street","caravans":"no","description":"public access, but for appalachian trail hikers only","motorhome":"no","name":"Hikers Shelter","note:access":"Appalachian Trail Hikers","shower":"yes","tents":"yes","toilets":"yes","website":"https://glasgowvirginia.org/hikers-shelter"}},"8659913921":{"location":[37.5708073,-79.4374716],"ct":"US","tp":"CS","ts":"2021-04-23T17:35:46Z","tX":286,"tY":396,"tags":{"name":"Marble Spring campsite"}},"10198784302":{"location":[37.4816688,-79.276346],"ct":"US","tp":"CS","ts":"2023-03-01T21:13:39Z","tX":286,"tY":396,"tags":{"addr:city":"Lynchburg","addr:housenumber":"1","addr:postcode":"24503","addr:state":"VA","addr:street":"Eagle Eyrie Drive","alt_name":"Eagle Eyrie","group_only":"yes","name":"Eagle Eyrie Baptist Conference Center","phone":"+1-434-384-2211","website":"https://eagleeyrie.org/"}}}