{"4563810090":{"location":[-0.260694,-79.1482401],"ct":"EC","tp":"CS","ts":"2017-05-21T03:47:33Z","tX":286,"tY":512,"tags":{"addr:street":"Huaoranis","name":"Campamento Apostólico IEAN Jesús"}},"5058490121":{"location":[-0.2927548,-79.2254073],"ct":"EC","tp":"CS","ts":"2017-08-25T16:05:51Z","tX":286,"tY":512,"tags":{"internet_access":"wlan","name":"ZEPPELIN VERDE","name:es":"ZEPPELIN VERDE"}},"5058490221":{"location":[-0.2931124,-79.2253927],"ct":"EC","tp":"CS","ts":"2017-08-25T15:55:08Z","tX":286,"tY":512,"tags":{"name:en":"ZEPPELIN VERDE"}},"5117719221":{"location":[-0.290625,-79.1895759],"ct":"EC","tp":"CS","ts":"2017-09-20T16:04:23Z","tX":286,"tY":512,"tags":{"addr:postcode":"230112","addr:street":"Calle Bellavista","email":"jmortensen_emmaus@hotmail.com","name":"Campamento Bíblico Emmaus","name:en":"Emmaus Biblical Camp","operator":"Jaime Mortensen","phone":"+593980838359"}},"5286224727":{"location":[-0.1372317,-79.1834667],"ct":"EC","tp":"CS","ts":"2017-12-15T16:58:05Z","tX":286,"tY":512,"tags":{"addr:housenumber":"2746666","addr:street":"Colonia Velasco Ibarra vía Caoni","internet_access":"wlan","name":"Finca Leoncito"}},"5344066421":{"location":[-0.2443002,-79.2497757],"ct":"EC","tp":"CS","ts":"2018-01-17T02:53:31Z","tX":286,"tY":512,"tags":{"addr:street":"junto a los testigos de Jehova","internet_access":"wlan","name":"Club Campestre Sol Dorado"}},"6422020654":{"location":[-0.2934125,-79.1853059],"ct":"EC","tp":"CS","ts":"2024-11-17T15:46:56Z","tX":286,"tY":512,"tags":{"addr:street":"Calle D","name":"Damnificados de pedeenales"}},"10137833718":{"location":[-0.1372248,-79.1438012],"ct":"EC","tp":"CS","ts":"2022-10-29T14:28:09Z","tX":286,"tY":512,"tags":{"addr:street":"Vía Santa Rosa del Molaute vía al placer, Santo Domingo 230101, Ecuador","name":"Finca turística Las Palmas","name:en":"Las palmas glamping","phone":"+593 99 678 1144"}}}