{"148127376":{"location":[49.4076977,-123.5885295],"ct":"CA","tp":"CS","ts":"2024-07-15T18:29:27Z","tX":160,"tY":349,"tags":{"access":"private","addr:housenumber":"2139","addr:street":"Lower Road","email":"campbyng@scouts.ca","group_only":"yes","name":"Camp Byng","operator":"Scouts Canada","phone":"+1-604-886-2686","scout":"yes","website":"http://www.campbyng.ca/"}},"240976914":{"location":[49.5056121,-123.7493645],"ct":"CA","tp":"CS","ts":"2022-05-26T23:34:13Z","tX":160,"tY":349,"tags":{"capacity":"84","email":"info.scparks@gmail.com","fee":"yes","internet_access":"no","name":"Porpoise Bay Campground","operator":"Swens Contracting","phone":"+1-604-885-3714","power_supply":"no","sanitary_dump_station":"no","website":"https://www.env.gov.bc.ca/bcparks/explore/parkpgs/porpoise/"}},"294568388":{"location":[49.4413994,-123.7071698],"ct":"CA","tp":"CS","ts":"2024-09-30T13:52:20Z","tX":160,"tY":349,"tags":{"name":"Creekside Campground"}},"544916567":{"location":[49.4395078,-123.6728864],"ct":"CA","tp":"CS","ts":"2024-08-10T18:03:22Z","tX":160,"tY":349,"tags":{"capacity":"21","caravans":"yes","email":"info.scparks@gmail.com","fee":"yes","internet_access":"no","name":"Roberts Creek Campground","operator":"Swens Contracting","phone":"+1-604-885-3714","sanitary_dump_station":"yes","tents":"yes","website":"https://www.env.gov.bc.ca/bcparks/explore/parkpgs/roberts_crk/"}},"1023515938":{"location":[49.4213948,-123.520106],"ct":"CA","tp":"CR","ts":"2022-01-22T06:12:48Z","tX":160,"tY":349,"tags":{}},"1098247798":{"location":[49.4907436,-123.7460162],"ct":"CA","tp":"CS","ts":"2024-08-10T01:32:34Z","tX":160,"tY":349,"tags":{"caravans":"yes","name":"Bayside Campgroud RV & Park","tents":"yes"}},"1098247816":{"location":[49.4595392,-123.496302],"ct":"CA","tp":"CR","ts":"2022-09-27T10:49:23Z","tX":160,"tY":349,"tags":{"name":"Langdale Heights RV Park"}},"3609111188":{"location":[49.4052467,-123.470764],"ct":"CA","tp":"CS","ts":"2023-11-21T11:12:38Z","tX":160,"tY":349,"tags":{"access":"yes","capacity:caravans":"0","capacity:tents":"10","caravans":"no","fee":"yes","operator":"BC Parks","static_caravans":"no","tents":"yes"}},"5703127921":{"location":[49.4216221,-123.5191195],"ct":"CA","tp":"CS","ts":"2018-06-20T15:13:37Z","tX":160,"tY":349,"tags":{"addr:housenumber":"1051","addr:postcode":"V0N 1V7","addr:street":"Gilmour Road","email":"gibsonsrvresort@Hotmail.com","internet_access":"wlan","name":"Gibson’s RV Resort","phone":"+1-604-989-7275","website":"http://gibsonsrvresort.ca"}},"9106701347":{"location":[49.5428389,-123.429983],"ct":"CA","tp":"CS","ts":"2024-06-24T02:00:41Z","tX":160,"tY":349,"tags":{"access":"yes","backcountry":"yes","cabins":"no","capacity:caravans":"0","capacity:tents":"6","contact:email":"s2smarinetrail@skabc.org","drinking_water":"untreated","fee":"no","group_only":"no","lit":"no","name":"Bain Creek Recreational Campsite","name:sal":"Smenmántm Ḵ’í ḵp’ikw","operator":"Sea Kayak Association of B.C.","operator:website":"https://www.bcmarinetrails.org/map_site/bain-creek-smenmantm-%e1%b8%b5i-%e1%b8%b5pikw/","picnic_table":"yes","reservation":"no","tents":"yes","toilets":"yes","website":"https://www.sitesandtrailsbc.ca/search/search-result.aspx?site=REC169900&type=Site","website:mobile":"http://www.sitesandtrailsbc.ca/mobile/search/search-result.aspx?site=REC169900&type=Site"}},"11016803341":{"location":[49.4609991,-123.6617265],"ct":"CA","tp":"CS","ts":"2023-06-30T21:26:48Z","tX":160,"tY":349,"tags":{"addr:housenumber":"2089","addr:postcode":"V0N 2W1","addr:street":"East Wilson Forest Service Road","mobile":"+1 778 835 0636","name":"Moon Gate Farms","website":"https://moongatefarms.ca"}},"11367163088":{"location":[49.4389582,-123.6903057],"ct":"CA","tp":"CS","ts":"2024-08-09T21:29:20Z","tX":160,"tY":349,"tags":{"access":"private","addr:housenumber":"1570","addr:street":"Jack Road","caravans":"no","name":"Camp Olave","operator":"Girl Guides Canada","tents":"yes"}}}