{"127845081":{"location":[48.896078,-123.7157026],"ct":"CA","tp":"CR","ts":"2018-02-09T15:05:47Z","tX":160,"tY":352,"tags":{"addr:city":"Chemainus","addr:housenumber":"9010","addr:postcode":"V0R 1K0","addr:street":"Trans-Canada Highway","building":"yes","name":"Country Maples RV Resort","phone":"+1-250-246-2078","tents":"yes"}},"291402695":{"location":[48.8977168,-123.4044519],"ct":"CA","tp":"CS","ts":"2023-08-29T14:57:35Z","tX":160,"tY":352,"tags":{"capacity:tents":"28","caravans":"no","drinking_water":"yes","name":"Montague Harbour Campground - Walk-in","power_supply":"no","reservation":"recommended","shower":"no","tents":"yes","toilets":"yes","website":"https://www.env.gov.bc.ca/bcparks/explore/parkpgs/montague/","website:bcmt":"https://www.bcmarinetrails.org/map_site/12147/"}},"291402696":{"location":[48.8996678,-123.4050624],"ct":"CA","tp":"CS","ts":"2023-08-29T14:57:35Z","tX":160,"tY":352,"tags":{"capacity":"16","caravans":"yes","drinking_water":"yes","email":"k2parks@shaw.ca","fee":"yes","internet_access":"no","name":"Montague Harbour Campground - Vehicle","operator":"K2 Park Services Ltd.","phone":"+1-877-559-2115","power_supply":"no","sanitary_dump_station":"no","shower":"no","tents":"yes","toilets":"yes","website":"https://www.env.gov.bc.ca/bcparks/explore/parkpgs/montague/"}},"291405572":{"location":[48.8982063,-123.4017988],"ct":"CA","tp":"CS","ts":"2023-08-29T14:57:35Z","tX":160,"tY":352,"tags":{"caravans":"no","charge":"26 CAD","drinking_water":"yes","fee":"yes","group_only":"no","name":"Montague Harbour Campground - First-come, first-served","payment:cash":"yes","power_supply":"no","reservation":"no","shower":"no","tents":"yes","toilets":"yes","website":"https://www.env.gov.bc.ca/bcparks/explore/parkpgs/montague/"}},"409677021":{"location":[48.8394629,-123.4922765],"ct":"CA","tp":"CS","ts":"2016-04-12T05:09:13Z","tX":160,"tY":352,"tags":{"name":"Mowhinna Creek Campground"}},"417391571":{"location":[48.7687845,-123.7065832],"ct":"CA","tp":"CS","ts":"2019-02-18T15:39:10Z","tX":160,"tY":352,"tags":{"addr:city":"Duncan","addr:housenumber":"3065","addr:street":"Allenby Road","capacity":"75","fee":"yes","name":"Riverside RV Park & Camping","operator":"RIVERSIDE RV Park & Camping","website":"https://www.riversidecampingduncan.com/"}},"1044301777":{"location":[48.8538809,-123.5145385],"ct":"CA","tp":"CS","ts":"2019-09-13T13:48:41Z","tX":160,"tY":352,"tags":{"addr:city":"Ganges","addr:housenumber":"305","addr:street":"Rainbow Road","name":"Garden Faire","shop":"garden_centre"}},"1190050258":{"location":[48.898037,-123.4057676],"ct":"CA","tp":"CS","ts":"2023-08-08T00:30:43Z","tX":160,"tY":352,"tags":{"caravans":"no","drinking_water":"yes","group_only":"yes","name":"Group Campsite","power_supply":"no","shower":"no","tents":"yes","toilets":"yes"}},"1192125884":{"location":[48.7443094,-123.5434014],"ct":"CA","tp":"CS","ts":"2011-03-08T02:53:14Z","tX":160,"tY":352,"tags":{}}}